<?xml version='1.0' encoding='UTF-8'?>
<osm version="0.6" generator="libosmium/2.20.0">
  <node id="631930447" version="2" timestamp="2010-06-26T07:31:45Z" uid="7617" user="Franc" changeset="5078872" lat="-34.028421" lon="151.0555509"/>
  <node id="631930448" version="2" timestamp="2010-03-13T11:27:36Z" uid="30201" user="rrankin" changeset="4113698" lat="-34.02841" lon="151.0554962"/>
  <node id="631930449" version="2" timestamp="2011-04-22T03:01:04Z" uid="7617" user="Franc" changeset="7930610" lat="-34.0284734" lon="151.055401"/>
  <node id="631930450" version="2" timestamp="2011-04-22T03:00:59Z" uid="7617" user="Franc" changeset="7930610" lat="-34.0287657" lon="151.0553494"/>
  <node id="631930451" version="2" timestamp="2011-04-22T03:00:55Z" uid="7617" user="Franc" changeset="7930610" lat="-34.0288262" lon="151.0552947"/>
  <node id="631930452" version="3" timestamp="2010-03-13T11:27:36Z" uid="30201" user="rrankin" changeset="4113698" lat="-34.0283014" lon="151.0552547"/>
  <node id="631930453" version="2" timestamp="2010-06-26T07:31:45Z" uid="7617" user="Franc" changeset="5078872" lat="-34.0283248" lon="151.0551033"/>
  <node id="631930453" version="3" timestamp="2011-04-22T03:00:59Z" uid="7617" user="Franc" changeset="7930610" lat="-34.0283403" lon="151.0551552"/>
  <node id="631930455" version="2" timestamp="2011-04-22T03:01:01Z" uid="7617" user="Franc" changeset="7930610" lat="-34.0281126" lon="151.0552551"/>
  <node id="631930477" version="2" timestamp="2010-03-13T11:27:36Z" uid="30201" user="rrankin" changeset="4113698" lat="-34.0283667" lon="151.0553661"/>
  <node id="631930483" version="2" timestamp="2010-03-13T08:22:55Z" uid="30201" user="rrankin" changeset="4112391" lat="-34.0287238" lon="151.0588906"/>
  <node id="631930483" version="3" timestamp="2011-09-01T02:29:57Z" uid="7523" user="inas" changeset="9181279" lat="-34.0287238" lon="151.0588906"/>
  <node id="631930490" version="2" timestamp="2010-03-13T11:27:36Z" uid="30201" user="rrankin" changeset="4113698" lat="-34.0284189" lon="151.0553179"/>
  <node id="631930493" version="2" timestamp="2010-03-13T11:27:36Z" uid="30201" user="rrankin" changeset="4113698" lat="-34.0283289" lon="151.0554305"/>
  <node id="631930496" version="2" timestamp="2010-06-26T07:31:45Z" uid="7617" user="Franc" changeset="5078872" lat="-34.0283087" lon="151.0555284"/>
  <node id="631930496" version="3" timestamp="2011-04-22T03:00:56Z" uid="7617" user="Franc" changeset="7930610" lat="-34.0283056" lon="151.0555568"/>
  <node id="631930823" version="2" timestamp="2011-04-22T03:01:03Z" uid="7617" user="Franc" changeset="7930610" lat="-34.0283844" lon="151.0559884"/>
  <node id="631932493" version="3" timestamp="2010-07-01T17:31:04Z" uid="115477" user="wowik" changeset="5122230" lat="57.2882127" lon="37.5218264">
    <tag k="addr:country" v="RU"/>
    <tag k="addr:district" v="Краснохолмский район"/>
    <tag k="addr:postcode" v="171667"/>
    <tag k="addr:region" v="Тверская область"/>
    <tag k="cladr:code" v="6901600020300"/>
    <tag k="cladr:name" v="Шаблыкино"/>
    <tag k="cladr:suffix" v="Деревня"/>
    <tag k="name" v="Шаблыкино"/>
    <tag k="place" v="hamlet"/>
  </node>
  <node id="631932493" version="4" timestamp="2011-08-09T05:09:28Z" uid="297358" user="patashnik" changeset="8963467" lat="57.2882127" lon="37.5218264">
    <tag k="addr:country" v="RU"/>
    <tag k="addr:district" v="Краснохолмский район"/>
    <tag k="addr:region" v="Тверская область"/>
    <tag k="cladr:code" v="6901600020300"/>
    <tag k="name" v="Шаблыкино"/>
    <tag k="place" v="hamlet"/>
  </node>
  <node id="631932496" version="2" timestamp="2010-04-23T14:01:07Z" uid="115477" user="wowik" changeset="4503855" lat="57.2497298" lon="37.618446">
    <tag k="name" v="Малыгино"/>
    <tag k="place" v="hamlet"/>
  </node>
  <node id="631932496" version="3" timestamp="2010-07-01T14:59:12Z" uid="115477" user="wowik" changeset="5121275" lat="57.2497298" lon="37.618446">
    <tag k="name" v="Малыгино"/>
    <tag k="place" v="hamlet"/>
  </node>
  <node id="631932499" version="2" timestamp="2010-04-23T14:01:05Z" uid="115477" user="wowik" changeset="4503855" lat="57.2679964" lon="37.7155205">
    <tag k="name" v="Устье"/>
    <tag k="place" v="hamlet"/>
  </node>
  <node id="631932499" version="3" timestamp="2010-06-30T13:18:15Z" uid="115477" user="wowik" changeset="5112785" lat="57.2679965" lon="37.7155206">
    <tag k="name" v="Верхнее Устье"/>
    <tag k="place" v="hamlet"/>
  </node>
  <node id="631932499" version="4" timestamp="2010-07-01T15:43:25Z" uid="115477" user="wowik" changeset="5121554" lat="57.2676762" lon="37.7169425">
    <tag k="name" v="Верхнее Устье"/>
    <tag k="place" v="hamlet"/>
  </node>
  <node id="631932499" version="5" timestamp="2010-07-01T15:59:58Z" uid="115477" user="wowik" changeset="5121659" lat="57.2643768" lon="37.7197088">
    <tag k="name" v="Верхнее Устье"/>
    <tag k="place" v="hamlet"/>
  </node>
  <node id="631932499" version="6" timestamp="2012-01-26T21:10:19Z" uid="384084" user="Kostik" changeset="10507299" lat="57.2643768" lon="37.7197088">
    <tag k="name" v="Верхнее Устье"/>
    <tag k="place" v="hamlet"/>
  </node>
  <node id="631932502" version="2" timestamp="2010-06-29T17:53:47Z" uid="115477" user="wowik" changeset="5107444" lat="57.3059683" lon="37.7374126">
    <tag k="name" v="Ченцово"/>
    <tag k="place" v="hamlet"/>
  </node>
  <node id="631932502" version="3" timestamp="2011-02-07T19:16:45Z" uid="115477" user="wowik" changeset="7219649" lat="57.3062745" lon="37.7350937">
    <tag k="name" v="Ченцово"/>
    <tag k="place" v="hamlet"/>
  </node>
  <node id="631932502" version="4" timestamp="2012-01-26T21:15:00Z" uid="384084" user="Kostik" changeset="10507299" lat="57.3062745" lon="37.7350937">
    <tag k="name" v="Ченцово"/>
    <tag k="place" v="hamlet"/>
  </node>
  <node id="631932507" version="2" timestamp="2010-04-13T12:05:09Z" uid="115477" user="wowik" changeset="4413056" lat="57.3039578" lon="37.8066046">
    <tag k="name" v="Пятишино"/>
    <tag k="place" v="hamlet"/>
  </node>
  <node id="631932507" version="3" timestamp="2010-06-29T18:56:54Z" uid="115477" user="wowik" changeset="5107444" lat="57.3076836" lon="37.8024722">
    <tag k="name" v="Пятишино"/>
    <tag k="place" v="hamlet"/>
  </node>
  <node id="631932507" version="4" timestamp="2010-07-01T16:40:15Z" uid="115477" user="wowik" changeset="5121929" lat="57.3069463" lon="37.7986921">
    <tag k="name" v="Петяшино"/>
    <tag k="place" v="locality"/>
  </node>
  <node id="631932507" version="5" timestamp="2012-01-26T21:13:17Z" uid="384084" user="Kostik" changeset="10507299" lat="57.3069463" lon="37.7986921">
    <tag k="name" v="Петяшино"/>
    <tag k="place" v="locality"/>
  </node>
  <node id="631932509" version="2" timestamp="2010-04-13T12:00:20Z" uid="115477" user="wowik" changeset="4413056" lat="57.2756184" lon="37.8203804">
    <tag k="name" v="Волжанка"/>
    <tag k="place" v="hamlet"/>
  </node>
  <node id="631932509" version="3" timestamp="2012-01-26T21:10:24Z" uid="384084" user="Kostik" changeset="10507299" lat="57.2756184" lon="37.8203804">
    <tag k="name" v="Волжанка"/>
    <tag k="place" v="hamlet"/>
  </node>
  <node id="631932512" version="2" timestamp="2010-06-30T13:21:56Z" uid="115477" user="wowik" changeset="5112785" lat="57.2632372" lon="37.9041778">
    <tag k="name" v="Чигирёво"/>
    <tag k="place" v="hamlet"/>
  </node>
  <node id="631932512" version="3" timestamp="2010-06-30T13:39:26Z" uid="115477" user="wowik" changeset="5112785" lat="57.2632372" lon="37.9041778">
    <tag k="name" v="Чигирёво"/>
    <tag k="place" v="hamlet"/>
  </node>
  <node id="631932513" version="3" timestamp="2010-04-13T12:01:59Z" uid="115477" user="wowik" changeset="4413056" lat="57.2986256" lon="37.9004605">
    <tag k="addr:city" v="Карабузинское сельское поселение"/>
    <tag k="addr:country" v="RU"/>
    <tag k="addr:district" v="Кашинский район"/>
    <tag k="addr:postcode" v="171638"/>
    <tag k="addr:region" v="Тверская область"/>
    <tag k="cladr:code" v="6901200802900"/>
    <tag k="cladr:name" v="Заволжье"/>
    <tag k="cladr:suffix" v="Деревня"/>
    <tag k="name" v="Заволжье"/>
    <tag k="place" v="hamlet"/>
  </node>
  <node id="631932513" version="4" timestamp="2010-04-13T12:34:32Z" uid="115477" user="wowik" changeset="4413308" lat="57.2984999" lon="37.9004532">
    <tag k="addr:city" v="Карабузинское сельское поселение"/>
    <tag k="addr:country" v="RU"/>
    <tag k="addr:district" v="Кашинский район"/>
    <tag k="addr:postcode" v="171638"/>
    <tag k="addr:region" v="Тверская область"/>
    <tag k="cladr:code" v="6901200802900"/>
    <tag k="cladr:name" v="Заволжье"/>
    <tag k="cladr:suffix" v="Деревня"/>
    <tag k="name" v="Заволжье"/>
    <tag k="place" v="hamlet"/>
  </node>
  <node id="631932513" version="5" timestamp="2010-07-01T16:40:15Z" uid="115477" user="wowik" changeset="5121929" lat="57.2962609" lon="37.9043733">
    <tag k="addr:city" v="Карабузинское сельское поселение"/>
    <tag k="addr:country" v="RU"/>
    <tag k="addr:district" v="Кашинский район"/>
    <tag k="addr:postcode" v="171638"/>
    <tag k="addr:region" v="Тверская область"/>
    <tag k="cladr:code" v="6901200802900"/>
    <tag k="cladr:name" v="Заволжье"/>
    <tag k="cladr:suffix" v="Деревня"/>
    <tag k="name" v="Заволжье"/>
    <tag k="place" v="hamlet"/>
  </node>
  <node id="631932513" version="6" timestamp="2011-08-09T04:48:18Z" uid="297358" user="patashnik" changeset="8963432" lat="57.2962609" lon="37.9043733">
    <tag k="addr:city" v="Карабузинское сельское поселение"/>
    <tag k="addr:country" v="RU"/>
    <tag k="addr:district" v="Кашинский район"/>
    <tag k="addr:region" v="Тверская область"/>
    <tag k="cladr:code" v="6901200802900"/>
    <tag k="name" v="Заволжье"/>
    <tag k="place" v="hamlet"/>
  </node>
  <node id="631932514" version="2" timestamp="2010-04-13T13:16:28Z" uid="115477" user="wowik" changeset="4413627" lat="57.3661716" lon="37.5164995">
    <tag k="name" v="Кортино"/>
    <tag k="place" v="hamlet"/>
  </node>
  <node id="631932514" version="3" timestamp="2012-01-26T21:11:59Z" uid="384084" user="Kostik" changeset="10507299" lat="57.3661716" lon="37.5164995">
    <tag k="name" v="Кортино"/>
    <tag k="place" v="hamlet"/>
  </node>
  <node id="631932515" version="2" timestamp="2010-04-13T13:23:53Z" uid="115477" user="wowik" changeset="4413627" lat="57.3288" lon="37.5258122">
    <tag k="name" v="Никольское"/>
    <tag k="place" v="hamlet"/>
  </node>
  <node id="631932515" version="3" timestamp="2010-04-18T19:08:27Z" uid="115477" user="wowik" changeset="4461195" lat="57.3279553" lon="37.5257587">
    <tag k="name" v="Никольское"/>
    <tag k="place" v="hamlet"/>
  </node>
  <node id="631932515" version="4" timestamp="2012-01-26T21:12:56Z" uid="384084" user="Kostik" changeset="10507299" lat="57.3279553" lon="37.5257587">
    <tag k="name" v="Никольское"/>
    <tag k="place" v="hamlet"/>
  </node>
  <node id="631932516" version="3" timestamp="2010-06-25T19:48:08Z" uid="115477" user="wowik" changeset="5076172" lat="57.3751157" lon="37.5760173">
    <tag k="addr:city" v="Письяковское сельское поселение"/>
    <tag k="addr:country" v="RU"/>
    <tag k="addr:district" v="Кашинский район"/>
    <tag k="addr:postcode" v="171641"/>
    <tag k="addr:region" v="Тверская область"/>
    <tag k="cladr:code" v="6901201402700"/>
    <tag k="cladr:name" v="Стражково"/>
    <tag k="cladr:suffix" v="Деревня"/>
    <tag k="name" v="Стражково"/>
    <tag k="place" v="hamlet"/>
  </node>
  <node id="631932516" version="4" timestamp="2010-07-14T15:48:00Z" uid="115477" user="wowik" changeset="5217955" lat="57.3757794" lon="37.5751556">
    <tag k="addr:city" v="Письяковское сельское поселение"/>
    <tag k="addr:country" v="RU"/>
    <tag k="addr:district" v="Кашинский район"/>
    <tag k="addr:postcode" v="171641"/>
    <tag k="addr:region" v="Тверская область"/>
    <tag k="cladr:code" v="6901201402700"/>
    <tag k="cladr:name" v="Стражково"/>
    <tag k="cladr:suffix" v="Деревня"/>
    <tag k="name" v="Стражково"/>
    <tag k="place" v="hamlet"/>
  </node>
  <node id="631932516" version="5" timestamp="2011-08-09T05:09:28Z" uid="297358" user="patashnik" changeset="8963467" lat="57.3757794" lon="37.5751556">
    <tag k="addr:city" v="Письяковское сельское поселение"/>
    <tag k="addr:country" v="RU"/>
    <tag k="addr:district" v="Кашинский район"/>
    <tag k="addr:region" v="Тверская область"/>
    <tag k="cladr:code" v="6901201402700"/>
    <tag k="name" v="Стражково"/>
    <tag k="place" v="hamlet"/>
  </node>
  <node id="631932517" version="2" timestamp="2010-06-25T19:43:09Z" uid="115477" user="wowik" changeset="5076172" lat="57.4155835" lon="37.5171804">
    <tag k="name" v="Сологовская"/>
    <tag k="place" v="hamlet"/>
  </node>
  <node id="631932517" version="3" timestamp="2010-07-14T15:06:06Z" uid="115477" user="wowik" changeset="5217641" lat="57.4175849" lon="37.5172722">
    <tag k="name" v="Сологовская"/>
    <tag k="place" v="hamlet"/>
  </node>
  <node id="631932517" version="4" timestamp="2010-07-21T12:21:11Z" uid="115477" user="wowik" changeset="5278460" lat="57.4175849" lon="37.5172721">
    <tag k="name" v="Сологовское"/>
    <tag k="place" v="hamlet"/>
  </node>
  <node id="631932517" version="5" timestamp="2011-01-26T16:44:02Z" uid="115477" user="wowik" changeset="7094999" lat="57.4190463" lon="37.5173033">
    <tag k="name" v="Сологовское"/>
    <tag k="place" v="hamlet"/>
  </node>
  <node id="631932517" version="6" timestamp="2012-01-26T21:14:04Z" uid="384084" user="Kostik" changeset="10507299" lat="57.4190463" lon="37.5173033">
    <tag k="name" v="Сологовское"/>
    <tag k="place" v="hamlet"/>
  </node>
  <node id="631932521" version="2" timestamp="2010-06-25T19:28:25Z" uid="115477" user="wowik" changeset="5076127" lat="57.4175941" lon="37.5805664">
    <tag k="name" v="Заречье"/>
    <tag k="place" v="hamlet"/>
  </node>
  <node id="631932521" version="3" timestamp="2010-07-01T09:12:46Z" uid="115477" user="wowik" changeset="5118987" lat="57.4175941" lon="37.5805665">
    <tag k="name" v="Заречье"/>
    <tag k="old_name" v="Брюхово"/>
    <tag k="place" v="hamlet"/>
  </node>
  <node id="631932521" version="4" timestamp="2010-07-14T13:41:35Z" uid="115477" user="wowik" changeset="5217054" lat="57.4174323" lon="37.5787467">
    <tag k="name" v="Заречье"/>
    <tag k="old_name" v="Брюхово"/>
    <tag k="place" v="hamlet"/>
  </node>
  <node id="631932521" version="5" timestamp="2012-01-26T21:11:21Z" uid="384084" user="Kostik" changeset="10507299" lat="57.4174323" lon="37.5787467">
    <tag k="name" v="Заречье"/>
    <tag k="old_name" v="Брюхово"/>
    <tag k="place" v="hamlet"/>
  </node>
  <node id="631932525" version="2" timestamp="2010-06-25T19:54:57Z" uid="115477" user="wowik" changeset="5076172" lat="57.4383183" lon="37.5849437">
    <tag k="name" v="Новинка"/>
    <tag k="place" v="hamlet"/>
  </node>
  <node id="631932525" version="3" timestamp="2010-06-25T20:01:52Z" uid="115477" user="wowik" changeset="5076172" lat="57.4383183" lon="37.5848579">
    <tag k="alt_name" v="Новинки"/>
    <tag k="name" v="Новинка"/>
    <tag k="place" v="hamlet"/>
  </node>
  <node id="631932525" version="4" timestamp="2010-07-20T18:40:59Z" uid="115477" user="wowik" changeset="5273114" lat="57.4383183" lon="37.5848579">
    <tag k="alt_name" v="Новинка"/>
    <tag k="name" v="Новинки"/>
    <tag k="place" v="hamlet"/>
  </node>
  <node id="631932525" version="5" timestamp="2012-01-26T21:12:59Z" uid="384084" user="Kostik" changeset="10507299" lat="57.4383183" lon="37.5848579">
    <tag k="alt_name" v="Новинка"/>
    <tag k="name" v="Новинки"/>
    <tag k="place" v="hamlet"/>
  </node>
  <node id="631932527" version="3" timestamp="2010-06-25T20:01:52Z" uid="115477" user="wowik" changeset="5076172" lat="57.4551755" lon="37.5520706">
    <tag k="addr:city" v="Пестриковское сельское поселение"/>
    <tag k="addr:country" v="RU"/>
    <tag k="addr:district" v="Кашинский район"/>
    <tag k="addr:postcode" v="171604"/>
    <tag k="addr:region" v="Тверская область"/>
    <tag k="cladr:code" v="6901201300300"/>
    <tag k="cladr:name" v="Бузыково"/>
    <tag k="cladr:suffix" v="Деревня"/>
    <tag k="name" v="Бузыково"/>
    <tag k="place" v="hamlet"/>
  </node>
  <node id="631932527" version="4" timestamp="2010-07-14T16:05:17Z" uid="115477" user="wowik" changeset="5218179" lat="57.4556581" lon="37.5523177">
    <tag k="addr:city" v="Пестриковское сельское поселение"/>
    <tag k="addr:country" v="RU"/>
    <tag k="addr:district" v="Кашинский район"/>
    <tag k="addr:postcode" v="171604"/>
    <tag k="addr:region" v="Тверская область"/>
    <tag k="cladr:code" v="6901201300300"/>
    <tag k="cladr:name" v="Бузыково"/>
    <tag k="cladr:suffix" v="Деревня"/>
    <tag k="name" v="Бузыково"/>
    <tag k="place" v="hamlet"/>
  </node>
  <node id="631932527" version="5" timestamp="2011-08-09T05:09:32Z" uid="297358" user="patashnik" changeset="8963467" lat="57.4556581" lon="37.5523177">
    <tag k="addr:city" v="Пестриковское сельское поселение"/>
    <tag k="addr:country" v="RU"/>
    <tag k="addr:district" v="Кашинский район"/>
    <tag k="addr:region" v="Тверская область"/>
    <tag k="cladr:code" v="6901201300300"/>
    <tag k="name" v="Бузыково"/>
    <tag k="place" v="hamlet"/>
  </node>
  <node id="631932529" version="3" timestamp="2010-06-25T20:01:52Z" uid="115477" user="wowik" changeset="5076172" lat="57.4889358" lon="37.5485515">
    <tag k="addr:city" v="Шепелевское сельское поселение"/>
    <tag k="addr:country" v="RU"/>
    <tag k="addr:district" v="Кашинский район"/>
    <tag k="addr:postcode" v="171604"/>
    <tag k="addr:region" v="Тверская область"/>
    <tag k="cladr:code" v="6901202003800"/>
    <tag k="cladr:name" v="Черемухино"/>
    <tag k="cladr:suffix" v="Деревня"/>
    <tag k="name" v="Черёмухино"/>
    <tag k="place" v="hamlet"/>
  </node>
  <node id="631932529" version="4" timestamp="2010-11-22T15:38:32Z" uid="115477" user="wowik" changeset="6432391" lat="57.4893172" lon="37.5513682">
    <tag k="addr:city" v="Шепелевское сельское поселение"/>
    <tag k="addr:country" v="RU"/>
    <tag k="addr:district" v="Кашинский район"/>
    <tag k="addr:postcode" v="171604"/>
    <tag k="addr:region" v="Тверская область"/>
    <tag k="cladr:code" v="6901202003800"/>
    <tag k="cladr:name" v="Черемухино"/>
    <tag k="cladr:suffix" v="Деревня"/>
    <tag k="name" v="Черёмухино"/>
    <tag k="place" v="hamlet"/>
  </node>
  <node id="631932529" version="5" timestamp="2010-11-25T12:34:06Z" uid="115477" user="wowik" changeset="6453611" lat="57.491731" lon="37.551786">
    <tag k="addr:city" v="Шепелевское сельское поселение"/>
    <tag k="addr:country" v="RU"/>
    <tag k="addr:district" v="Кашинский район"/>
    <tag k="addr:postcode" v="171604"/>
    <tag k="addr:region" v="Тверская область"/>
    <tag k="cladr:code" v="6901202003800"/>
    <tag k="cladr:name" v="Черемухино"/>
    <tag k="cladr:suffix" v="Деревня"/>
    <tag k="name" v="Черёмухино"/>
    <tag k="old_name" v="Кишкино"/>
    <tag k="place" v="hamlet"/>
    <tag k="source" v="Менде"/>
  </node>
  <node id="631932529" version="6" timestamp="2011-08-09T05:09:33Z" uid="297358" user="patashnik" changeset="8963467" lat="57.491731" lon="37.551786">
    <tag k="addr:city" v="Шепелевское сельское поселение"/>
    <tag k="addr:country" v="RU"/>
    <tag k="addr:district" v="Кашинский район"/>
    <tag k="addr:region" v="Тверская область"/>
    <tag k="cladr:code" v="6901202003800"/>
    <tag k="name" v="Черёмухино"/>
    <tag k="old_name" v="Кишкино"/>
    <tag k="place" v="hamlet"/>
    <tag k="source" v="Менде"/>
  </node>
  <node id="631932530" version="2" timestamp="2010-06-25T20:28:35Z" uid="115477" user="wowik" changeset="5076562" lat="57.3066671" lon="37.6749999">
    <tag k="alt_name" v="Зеленцино"/>
    <tag k="name" v="Зеленшино"/>
    <tag k="place" v="hamlet"/>
  </node>
  <node id="631932530" version="3" timestamp="2010-06-29T17:53:43Z" uid="115477" user="wowik" changeset="5107444" lat="57.3066637" lon="37.6737691">
    <tag k="alt_name" v="Зеленцино"/>
    <tag k="name" v="Зеленшино"/>
    <tag k="place" v="hamlet"/>
  </node>
  <node id="631932530" version="4" timestamp="2011-01-25T17:05:04Z" uid="115477" user="wowik" changeset="7085472" lat="57.3066638" lon="37.673769">
    <tag k="alt_name" v="Зеленцыно"/>
    <tag k="name" v="Зеленшино"/>
    <tag k="place" v="hamlet"/>
  </node>
  <node id="631932530" version="5" timestamp="2011-02-07T19:16:47Z" uid="115477" user="wowik" changeset="7219649" lat="57.3066034" lon="37.6733438">
    <tag k="alt_name" v="Зеленцыно"/>
    <tag k="name" v="Зеленшино"/>
    <tag k="place" v="hamlet"/>
  </node>
  <node id="631932530" version="6" timestamp="2012-01-26T21:11:26Z" uid="384084" user="Kostik" changeset="10507299" lat="57.3066034" lon="37.6733438">
    <tag k="alt_name" v="Зеленцыно"/>
    <tag k="name" v="Зеленшино"/>
    <tag k="place" v="hamlet"/>
  </node>
  <node id="631932531" version="3" timestamp="2010-04-13T12:43:30Z" uid="115477" user="wowik" changeset="4413308" lat="57.3378247" lon="37.7142435">
    <tag k="addr:city" v="Фарафоновское сельское поселение"/>
    <tag k="addr:country" v="RU"/>
    <tag k="addr:district" v="Кашинский район"/>
    <tag k="addr:postcode" v="171607"/>
    <tag k="addr:region" v="Тверская область"/>
    <tag k="cladr:code" v="6901201901200"/>
    <tag k="cladr:name" v="Постельниково"/>
    <tag k="cladr:suffix" v="Деревня"/>
    <tag k="name" v="Постельниково"/>
    <tag k="place" v="hamlet"/>
  </node>
  <node id="631932531" version="4" timestamp="2010-06-29T17:18:21Z" uid="115477" user="wowik" changeset="5107444" lat="57.3379671" lon="37.7128221">
    <tag k="addr:city" v="Фарафоновское сельское поселение"/>
    <tag k="addr:country" v="RU"/>
    <tag k="addr:district" v="Кашинский район"/>
    <tag k="addr:postcode" v="171607"/>
    <tag k="addr:region" v="Тверская область"/>
    <tag k="cladr:code" v="6901201901200"/>
    <tag k="cladr:name" v="Постельниково"/>
    <tag k="cladr:suffix" v="Деревня"/>
    <tag k="name" v="Постельниково"/>
    <tag k="place" v="hamlet"/>
  </node>
  <node id="631932531" version="5" timestamp="2010-11-22T15:39:12Z" uid="115477" user="wowik" changeset="6432391" lat="57.3339847" lon="37.7171333">
    <tag k="addr:city" v="Фарафоновское сельское поселение"/>
    <tag k="addr:country" v="RU"/>
    <tag k="addr:district" v="Кашинский район"/>
    <tag k="addr:postcode" v="171607"/>
    <tag k="addr:region" v="Тверская область"/>
    <tag k="cladr:code" v="6901201901200"/>
    <tag k="cladr:name" v="Постельниково"/>
    <tag k="cladr:suffix" v="Деревня"/>
    <tag k="name" v="Постельниково"/>
    <tag k="place" v="hamlet"/>
  </node>
  <node id="631932531" version="6" timestamp="2011-08-09T04:48:18Z" uid="297358" user="patashnik" changeset="8963432" lat="57.3339847" lon="37.7171333">
    <tag k="addr:city" v="Фарафоновское сельское поселение"/>
    <tag k="addr:country" v="RU"/>
    <tag k="addr:district" v="Кашинский район"/>
    <tag k="addr:region" v="Тверская область"/>
    <tag k="cladr:code" v="6901201901200"/>
    <tag k="name" v="Постельниково"/>
    <tag k="place" v="hamlet"/>
  </node>
  <node id="631932535" version="2" timestamp="2010-04-13T12:43:31Z" uid="115477" user="wowik" changeset="4413308" lat="57.3680834" lon="37.7820927">
    <tag k="name" v="Рождествено"/>
    <tag k="place" v="hamlet"/>
  </node>
  <node id="631932535" version="3" timestamp="2010-06-29T17:18:21Z" uid="115477" user="wowik" changeset="5107444" lat="57.3711644" lon="37.7843191">
    <tag k="name" v="Рождествено"/>
    <tag k="place" v="hamlet"/>
  </node>
  <node id="631932535" version="4" timestamp="2010-07-14T11:03:51Z" uid="115477" user="wowik" changeset="5215760" lat="57.372823" lon="37.7833886">
    <tag k="name" v="Рождествено"/>
    <tag k="place" v="hamlet"/>
  </node>
  <node id="631932535" version="5" timestamp="2010-07-14T11:08:04Z" uid="115477" user="wowik" changeset="5215760" lat="57.3718512" lon="37.783732">
    <tag k="name" v="Рождествено"/>
    <tag k="place" v="hamlet"/>
  </node>
  <node id="631932535" version="6" timestamp="2012-01-26T21:13:41Z" uid="384084" user="Kostik" changeset="10507299" lat="57.3718512" lon="37.783732">
    <tag k="name" v="Рождествено"/>
    <tag k="place" v="hamlet"/>
  </node>
  <node id="631932537" version="2" timestamp="2010-06-29T17:36:31Z" uid="115477" user="wowik" changeset="5107444" lat="57.3787072" lon="37.7393438">
    <tag k="name" v="Медведево"/>
    <tag k="old_name" v="Медведково"/>
    <tag k="place" v="hamlet"/>
  </node>
  <node id="631932537" version="3" timestamp="2010-06-30T12:31:42Z" uid="115477" user="wowik" changeset="5112785" lat="57.3787072" lon="37.7393439">
    <tag k="name" v="Медведево"/>
    <tag k="place" v="hamlet"/>
  </node>
  <node id="631932537" version="4" timestamp="2010-11-22T15:39:15Z" uid="115477" user="wowik" changeset="6432391" lat="57.3787072" lon="37.7393439">
    <tag k="name" v="Медведево"/>
    <tag k="place" v="locality"/>
    <tag k="source" v="Менде"/>
  </node>
  <node id="631932537" version="5" timestamp="2012-01-26T21:12:39Z" uid="384084" user="Kostik" changeset="10507299" lat="57.3787072" lon="37.7393439">
    <tag k="name" v="Медведево"/>
    <tag k="place" v="locality"/>
    <tag k="source" v="Менде"/>
  </node>
  <node id="631932539" version="2" timestamp="2010-06-28T17:42:46Z" uid="115477" user="wowik" changeset="5099491" lat="57.4194881" lon="37.7009924">
    <tag k="name" v="Леушино"/>
    <tag k="place" v="hamlet"/>
  </node>
  <node id="631932539" version="3" timestamp="2010-06-30T11:28:13Z" uid="115477" user="wowik" changeset="5112742" lat="57.4211038" lon="37.702027">
    <tag k="name" v="Леушино"/>
    <tag k="place" v="hamlet"/>
  </node>
  <node id="631932539" version="4" timestamp="2012-01-26T21:12:19Z" uid="384084" user="Kostik" changeset="10507299" lat="57.4211038" lon="37.702027">
    <tag k="name" v="Леушино"/>
    <tag k="place" v="hamlet"/>
  </node>
  <node id="631932540" version="3" timestamp="2010-06-27T19:53:18Z" uid="115477" user="wowik" changeset="5092541" lat="57.4004209" lon="37.6342156">
    <tag k="addr:city" v="Пестриковское сельское поселение"/>
    <tag k="addr:country" v="RU"/>
    <tag k="addr:district" v="Кашинский район"/>
    <tag k="addr:postcode" v="171641"/>
    <tag k="addr:region" v="Тверская область"/>
    <tag k="cladr:code" v="6901201302300"/>
    <tag k="cladr:name" v="Чагино"/>
    <tag k="cladr:suffix" v="Село"/>
    <tag k="name" v="Чагино"/>
    <tag k="place" v="hamlet"/>
  </node>
  <node id="631932540" version="4" timestamp="2010-06-27T20:47:42Z" uid="115477" user="wowik" changeset="5092541" lat="57.4008139" lon="37.634516">
    <tag k="addr:city" v="Пестриковское сельское поселение"/>
    <tag k="addr:country" v="RU"/>
    <tag k="addr:district" v="Кашинский район"/>
    <tag k="addr:postcode" v="171641"/>
    <tag k="addr:region" v="Тверская область"/>
    <tag k="cladr:code" v="6901201302300"/>
    <tag k="cladr:name" v="Чагино"/>
    <tag k="cladr:suffix" v="Село"/>
    <tag k="name" v="Чагино"/>
    <tag k="place" v="hamlet"/>
  </node>
  <node id="631932540" version="5" timestamp="2010-06-27T20:54:46Z" uid="115477" user="wowik" changeset="5092541" lat="57.4006058" lon="37.6343014">
    <tag k="addr:city" v="Пестриковское сельское поселение"/>
    <tag k="addr:country" v="RU"/>
    <tag k="addr:district" v="Кашинский район"/>
    <tag k="addr:postcode" v="171641"/>
    <tag k="addr:region" v="Тверская область"/>
    <tag k="cladr:code" v="6901201302300"/>
    <tag k="cladr:name" v="Чагино"/>
    <tag k="cladr:suffix" v="Село"/>
    <tag k="name" v="Чагино"/>
    <tag k="place" v="hamlet"/>
  </node>
  <node id="631932540" version="6" timestamp="2010-06-28T17:02:16Z" uid="115477" user="wowik" changeset="5099174" lat="57.4000805" lon="37.6339157">
    <tag k="addr:city" v="Пестриковское сельское поселение"/>
    <tag k="addr:country" v="RU"/>
    <tag k="addr:district" v="Кашинский район"/>
    <tag k="addr:postcode" v="171641"/>
    <tag k="addr:region" v="Тверская область"/>
    <tag k="cladr:code" v="6901201302300"/>
    <tag k="cladr:name" v="Чагино"/>
    <tag k="cladr:suffix" v="Село"/>
    <tag k="name" v="Чагино"/>
    <tag k="place" v="hamlet"/>
  </node>
  <node id="631932540" version="7" timestamp="2010-07-14T11:41:18Z" uid="115477" user="wowik" changeset="5216114" lat="57.4003444" lon="37.6339291">
    <tag k="addr:city" v="Пестриковское сельское поселение"/>
    <tag k="addr:country" v="RU"/>
    <tag k="addr:district" v="Кашинский район"/>
    <tag k="addr:postcode" v="171641"/>
    <tag k="addr:region" v="Тверская область"/>
    <tag k="cladr:code" v="6901201302300"/>
    <tag k="cladr:name" v="Чагино"/>
    <tag k="cladr:suffix" v="Село"/>
    <tag k="name" v="Чагино"/>
    <tag k="place" v="hamlet"/>
  </node>
  <node id="631932540" version="8" timestamp="2010-07-21T15:03:53Z" uid="115477" user="wowik" changeset="5279631" lat="57.400581" lon="37.633984">
    <tag k="addr:city" v="Пестриковское сельское поселение"/>
    <tag k="addr:country" v="RU"/>
    <tag k="addr:district" v="Кашинский район"/>
    <tag k="addr:postcode" v="171641"/>
    <tag k="addr:region" v="Тверская область"/>
    <tag k="cladr:code" v="6901201302300"/>
    <tag k="cladr:name" v="Чагино"/>
    <tag k="cladr:suffix" v="Село"/>
    <tag k="name" v="Чагино"/>
    <tag k="place" v="hamlet"/>
  </node>
  <node id="631932540" version="9" timestamp="2011-08-09T04:48:18Z" uid="297358" user="patashnik" changeset="8963432" lat="57.400581" lon="37.633984">
    <tag k="addr:city" v="Пестриковское сельское поселение"/>
    <tag k="addr:country" v="RU"/>
    <tag k="addr:district" v="Кашинский район"/>
    <tag k="addr:region" v="Тверская область"/>
    <tag k="cladr:code" v="6901201302300"/>
    <tag k="name" v="Чагино"/>
    <tag k="place" v="hamlet"/>
  </node>
  <node id="631932541" version="2" timestamp="2010-04-13T13:45:42Z" uid="115477" user="wowik" changeset="4413931" lat="57.403044" lon="37.7231003">
    <tag k="name" v="Борихино"/>
    <tag k="place" v="hamlet"/>
  </node>
  <node id="631932541" version="3" timestamp="2010-06-28T17:46:40Z" uid="115477" user="wowik" changeset="5099491" lat="57.4021058" lon="37.7246817">
    <tag k="name" v="Борихино"/>
    <tag k="place" v="hamlet"/>
  </node>
  <node id="631932541" version="4" timestamp="2012-01-26T21:10:04Z" uid="384084" user="Kostik" changeset="10507299" lat="57.4021058" lon="37.7246817">
    <tag k="name" v="Борихино"/>
    <tag k="place" v="hamlet"/>
  </node>
  <node id="631932542" version="3" timestamp="2010-04-13T13:54:18Z" uid="115477" user="wowik" changeset="4413993" lat="57.4672796" lon="37.7284918">
    <tag k="addr:city" v="Шепелевское сельское поселение"/>
    <tag k="addr:country" v="RU"/>
    <tag k="addr:district" v="Кашинский район"/>
    <tag k="addr:postcode" v="171601"/>
    <tag k="addr:region" v="Тверская область"/>
    <tag k="cladr:code" v="6901202003300"/>
    <tag k="cladr:name" v="Мялицыно"/>
    <tag k="cladr:suffix" v="Деревня"/>
    <tag k="name" v="Мялицыно"/>
    <tag k="place" v="hamlet"/>
  </node>
  <node id="631932542" version="4" timestamp="2010-06-25T20:05:45Z" uid="115477" user="wowik" changeset="5076172" lat="57.4669248" lon="37.7289676">
    <tag k="addr:city" v="Шепелевское сельское поселение"/>
    <tag k="addr:country" v="RU"/>
    <tag k="addr:district" v="Кашинский район"/>
    <tag k="addr:postcode" v="171601"/>
    <tag k="addr:region" v="Тверская область"/>
    <tag k="cladr:code" v="6901202003300"/>
    <tag k="cladr:name" v="Мялицыно"/>
    <tag k="cladr:suffix" v="Деревня"/>
    <tag k="name" v="Мялицыно"/>
    <tag k="place" v="hamlet"/>
  </node>
  <node id="631932542" version="5" timestamp="2010-07-01T09:03:08Z" uid="115477" user="wowik" changeset="5118987" lat="57.4660868" lon="37.7302152">
    <tag k="addr:city" v="Шепелевское сельское поселение"/>
    <tag k="addr:country" v="RU"/>
    <tag k="addr:district" v="Кашинский район"/>
    <tag k="addr:postcode" v="171601"/>
    <tag k="addr:region" v="Тверская область"/>
    <tag k="cladr:code" v="6901202003300"/>
    <tag k="cladr:name" v="Мялицыно"/>
    <tag k="cladr:suffix" v="Деревня"/>
    <tag k="name" v="Мялицыно"/>
    <tag k="place" v="hamlet"/>
  </node>
  <node id="631932542" version="6" timestamp="2010-11-24T15:51:47Z" uid="115477" user="wowik" changeset="6446894" lat="57.4668727" lon="37.7287883">
    <tag k="addr:city" v="Шепелевское сельское поселение"/>
    <tag k="addr:country" v="RU"/>
    <tag k="addr:district" v="Кашинский район"/>
    <tag k="addr:postcode" v="171601"/>
    <tag k="addr:region" v="Тверская область"/>
    <tag k="alt_name" v="Мялицыно"/>
    <tag k="cladr:code" v="6901202003300"/>
    <tag k="cladr:name" v="Мялицыно"/>
    <tag k="cladr:suffix" v="Деревня"/>
    <tag k="name" v="Мялицино"/>
    <tag k="place" v="hamlet"/>
  </node>
  <node id="631932542" version="7" timestamp="2011-08-09T04:48:21Z" uid="297358" user="patashnik" changeset="8963432" lat="57.4668727" lon="37.7287883">
    <tag k="addr:city" v="Шепелевское сельское поселение"/>
    <tag k="addr:country" v="RU"/>
    <tag k="addr:district" v="Кашинский район"/>
    <tag k="addr:region" v="Тверская область"/>
    <tag k="alt_name" v="Мялицыно"/>
    <tag k="cladr:code" v="6901202003300"/>
    <tag k="name" v="Мялицино"/>
    <tag k="place" v="hamlet"/>
  </node>
  <node id="631932547" version="2" timestamp="2010-06-30T11:28:14Z" uid="115477" user="wowik" changeset="5112742" lat="57.3527258" lon="37.9458405">
    <tag k="name" v="Новинки"/>
    <tag k="place" v="hamlet"/>
  </node>
  <node id="631932547" version="3" timestamp="2010-07-12T13:15:56Z" uid="115477" user="wowik" changeset="5198326" lat="57.3527258" lon="37.9458405">
    <tag k="name" v="Новинки"/>
    <tag k="old_name" v="Собакино"/>
    <tag k="place" v="hamlet"/>
  </node>
  <node id="631932547" version="4" timestamp="2010-07-14T10:36:29Z" uid="115477" user="wowik" changeset="5215760" lat="57.351946" lon="37.9447503">
    <tag k="name" v="Новинки"/>
    <tag k="old_name" v="Собакино"/>
    <tag k="place" v="hamlet"/>
  </node>
  <node id="631932547" version="5" timestamp="2012-01-26T21:12:59Z" uid="384084" user="Kostik" changeset="10507299" lat="57.351946" lon="37.9447503">
    <tag k="name" v="Новинки"/>
    <tag k="old_name" v="Собакино"/>
    <tag k="place" v="hamlet"/>
  </node>
  <node id="631932550" version="2" timestamp="2010-06-29T18:52:05Z" uid="115477" user="wowik" changeset="5107444" lat="57.3625092" lon="37.8655149">
    <tag k="name" v="Овсянниково"/>
    <tag k="place" v="hamlet"/>
  </node>
  <node id="631932550" version="3" timestamp="2012-01-26T21:13:04Z" uid="384084" user="Kostik" changeset="10507299" lat="57.3625092" lon="37.8655149">
    <tag k="name" v="Овсянниково"/>
    <tag k="place" v="hamlet"/>
  </node>
  <node id="631932553" version="2" timestamp="2010-06-29T17:22:48Z" uid="115477" user="wowik" changeset="5107444" lat="57.3272189" lon="37.9309179">
    <tag k="name" v="Никольское"/>
    <tag k="place" v="hamlet"/>
  </node>
  <node id="631932553" version="3" timestamp="2012-01-26T21:12:56Z" uid="384084" user="Kostik" changeset="10507299" lat="57.3272189" lon="37.9309179">
    <tag k="name" v="Никольское"/>
    <tag k="place" v="hamlet"/>
  </node>
  <node id="631932554" version="2" timestamp="2010-06-29T18:52:05Z" uid="115477" user="wowik" changeset="5107444" lat="57.34" lon="37.8730559">
    <tag k="name" v="Фролово"/>
    <tag k="old_name" v="Фроловское"/>
    <tag k="place" v="hamlet"/>
  </node>
  <node id="631932554" version="3" timestamp="2012-01-26T21:14:40Z" uid="384084" user="Kostik" changeset="10507299" lat="57.34" lon="37.8730559">
    <tag k="name" v="Фролово"/>
    <tag k="old_name" v="Фроловское"/>
    <tag k="place" v="hamlet"/>
  </node>
  <node id="631932558" version="3" timestamp="2010-06-28T17:44:19Z" uid="115477" user="wowik" changeset="5099491" lat="57.4133867" lon="37.8075083">
    <tag k="addr:city" v="Фарафоновское сельское поселение"/>
    <tag k="addr:country" v="RU"/>
    <tag k="addr:district" v="Кашинский район"/>
    <tag k="addr:postcode" v="171605"/>
    <tag k="addr:region" v="Тверская область"/>
    <tag k="cladr:code" v="6901201902700"/>
    <tag k="cladr:name" v="Головеньки"/>
    <tag k="cladr:suffix" v="Деревня"/>
    <tag k="name" v="Головеньки"/>
    <tag k="place" v="hamlet"/>
  </node>
  <node id="631932558" version="4" timestamp="2011-08-09T04:48:21Z" uid="297358" user="patashnik" changeset="8963432" lat="57.4133867" lon="37.8075083">
    <tag k="addr:city" v="Фарафоновское сельское поселение"/>
    <tag k="addr:country" v="RU"/>
    <tag k="addr:district" v="Кашинский район"/>
    <tag k="addr:region" v="Тверская область"/>
    <tag k="cladr:code" v="6901201902700"/>
    <tag k="name" v="Головеньки"/>
    <tag k="place" v="hamlet"/>
  </node>
  <node id="631932562" version="3" timestamp="2010-06-29T18:38:30Z" uid="115477" user="wowik" changeset="5107444" lat="57.4032914" lon="37.8534128">
    <tag k="addr:city" v="Фарафоновское сельское поселение"/>
    <tag k="addr:country" v="RU"/>
    <tag k="addr:district" v="Кашинский район"/>
    <tag k="addr:postcode" v="171605"/>
    <tag k="addr:region" v="Тверская область"/>
    <tag k="cladr:code" v="6901201901800"/>
    <tag k="cladr:name" v="Бабеево"/>
    <tag k="cladr:suffix" v="Деревня"/>
    <tag k="name" v="Бабеево"/>
    <tag k="place" v="hamlet"/>
  </node>
  <node id="631932562" version="4" timestamp="2010-06-29T18:52:04Z" uid="115477" user="wowik" changeset="5107444" lat="57.4067823" lon="37.8546144">
    <tag k="addr:city" v="Фарафоновское сельское поселение"/>
    <tag k="addr:country" v="RU"/>
    <tag k="addr:district" v="Кашинский район"/>
    <tag k="addr:postcode" v="171605"/>
    <tag k="addr:region" v="Тверская область"/>
    <tag k="cladr:code" v="6901201901800"/>
    <tag k="cladr:name" v="Бабеево"/>
    <tag k="cladr:suffix" v="Деревня"/>
    <tag k="name" v="Бабеево"/>
    <tag k="place" v="hamlet"/>
  </node>
  <node id="631932562" version="5" timestamp="2011-08-09T04:48:21Z" uid="297358" user="patashnik" changeset="8963432" lat="57.4067823" lon="37.8546144">
    <tag k="addr:city" v="Фарафоновское сельское поселение"/>
    <tag k="addr:country" v="RU"/>
    <tag k="addr:district" v="Кашинский район"/>
    <tag k="addr:region" v="Тверская область"/>
    <tag k="cladr:code" v="6901201901800"/>
    <tag k="name" v="Бабеево"/>
    <tag k="place" v="hamlet"/>
  </node>
  <node id="631932566" version="2" timestamp="2010-06-30T11:28:14Z" uid="115477" user="wowik" changeset="5112742" lat="57.4454468" lon="37.7964636">
    <tag k="name" v="Токарево"/>
    <tag k="place" v="hamlet"/>
  </node>
  <node id="631932566" version="3" timestamp="2010-11-25T14:53:54Z" uid="115477" user="wowik" changeset="6455127" lat="57.4450616" lon="37.7960659">
    <tag k="name" v="Токарево"/>
    <tag k="place" v="hamlet"/>
  </node>
  <node id="631932566" version="4" timestamp="2012-01-26T21:14:27Z" uid="384084" user="Kostik" changeset="10507299" lat="57.4450616" lon="37.7960659">
    <tag k="name" v="Токарево"/>
    <tag k="place" v="hamlet"/>
  </node>
  <node id="631932568" version="2" timestamp="2010-06-25T20:07:37Z" uid="115477" user="wowik" changeset="5076172" lat="57.4758784" lon="37.6660537">
    <tag k="name" v="Монастырёва"/>
    <tag k="place" v="hamlet"/>
  </node>
  <node id="631932568" version="3" timestamp="2010-11-24T11:49:18Z" uid="115477" user="wowik" changeset="6446004" lat="57.4758784" lon="37.6660537">
    <tag k="name" v="Монастырёвo"/>
    <tag k="place" v="locality"/>
  </node>
  <node id="631932568" version="4" timestamp="2012-01-26T21:12:46Z" uid="384084" user="Kostik" changeset="10507299" lat="57.4758784" lon="37.6660537">
    <tag k="name" v="Монастырёвo"/>
    <tag k="place" v="locality"/>
  </node>
  <node id="631932569" version="2" timestamp="2010-06-25T20:01:51Z" uid="115477" user="wowik" changeset="5076172" lat="57.4876441" lon="37.6504326">
    <tag k="name" v="Ручейки"/>
    <tag k="place" v="hamlet"/>
  </node>
  <node id="631932569" version="3" timestamp="2010-07-14T16:42:25Z" uid="115477" user="wowik" changeset="5219473" lat="57.4876441" lon="37.6504326">
    <tag k="name" v="Ручейки"/>
    <tag k="old_name" v="Бяково"/>
    <tag k="place" v="hamlet"/>
  </node>
  <node id="631932569" version="4" timestamp="2010-07-14T16:48:46Z" uid="115477" user="wowik" changeset="5219519" lat="57.4887088" lon="37.6504326">
    <tag k="name" v="Ручейки"/>
    <tag k="old_name" v="Бяково"/>
    <tag k="place" v="hamlet"/>
  </node>
  <node id="631932569" version="5" timestamp="2012-01-26T21:13:44Z" uid="384084" user="Kostik" changeset="10507299" lat="57.4887088" lon="37.6504326">
    <tag k="name" v="Ручейки"/>
    <tag k="old_name" v="Бяково"/>
    <tag k="place" v="hamlet"/>
  </node>
  <node id="631932571" version="3" timestamp="2010-07-14T16:48:46Z" uid="115477" user="wowik" changeset="5219519" lat="57.4960882" lon="37.6668526">
    <tag k="addr:city" v="Шепелевское сельское поселение"/>
    <tag k="addr:country" v="RU"/>
    <tag k="addr:district" v="Кашинский район"/>
    <tag k="addr:postcode" v="171601"/>
    <tag k="addr:region" v="Тверская область"/>
    <tag k="cladr:code" v="6901202002900"/>
    <tag k="cladr:name" v="Козьмодемьяновское"/>
    <tag k="cladr:suffix" v="Деревня"/>
    <tag k="name" v="Козьмодемьяновское"/>
    <tag k="place" v="hamlet"/>
  </node>
  <node id="631932571" version="4" timestamp="2011-08-09T04:48:21Z" uid="297358" user="patashnik" changeset="8963432" lat="57.4960882" lon="37.6668526">
    <tag k="addr:city" v="Шепелевское сельское поселение"/>
    <tag k="addr:country" v="RU"/>
    <tag k="addr:district" v="Кашинский район"/>
    <tag k="addr:region" v="Тверская область"/>
    <tag k="cladr:code" v="6901202002900"/>
    <tag k="name" v="Козьмодемьяновское"/>
    <tag k="place" v="hamlet"/>
  </node>
  <node id="631932612" version="2" timestamp="2010-06-30T13:39:19Z" uid="115477" user="wowik" changeset="5112785" lat="57.2896614" lon="37.9957163">
    <tag k="name" v="Митино"/>
    <tag k="place" v="hamlet"/>
  </node>
  <node id="631932612" version="3" timestamp="2010-07-12T13:25:11Z" uid="115477" user="wowik" changeset="5198326" lat="57.2904216" lon="37.9960341">
    <tag k="name" v="Митино"/>
    <tag k="place" v="hamlet"/>
  </node>
  <node id="631932612" version="4" timestamp="2012-01-26T21:12:43Z" uid="384084" user="Kostik" changeset="10507299" lat="57.2904216" lon="37.9960341">
    <tag k="name" v="Митино"/>
    <tag k="place" v="hamlet"/>
  </node>
  <node id="631932618" version="2" timestamp="2010-06-30T13:39:17Z" uid="115477" user="wowik" changeset="5112785" lat="57.3009769" lon="38.0173885">
    <tag k="name" v="Высокое"/>
    <tag k="place" v="hamlet"/>
  </node>
  <node id="631932618" version="3" timestamp="2012-01-26T21:10:32Z" uid="384084" user="Kostik" changeset="10507299" lat="57.3009769" lon="38.0173885">
    <tag k="name" v="Высокое"/>
    <tag k="place" v="hamlet"/>
  </node>
  <node id="631932619" version="3" timestamp="2010-07-12T12:05:15Z" uid="115477" user="wowik" changeset="5198326" lat="57.2428036" lon="38.1403154">
    <tag k="addr:city" v="Семендяевское сельское поселение"/>
    <tag k="addr:country" v="RU"/>
    <tag k="addr:district" v="Калязинский район"/>
    <tag k="addr:postcode" v="171555"/>
    <tag k="addr:region" v="Тверская область"/>
    <tag k="cladr:code" v="6901100304500"/>
    <tag k="cladr:name" v="Пепелино"/>
    <tag k="cladr:suffix" v="Деревня"/>
    <tag k="name" v="Пепелино"/>
    <tag k="place" v="hamlet"/>
  </node>
  <node id="631932619" version="4" timestamp="2011-08-09T04:48:21Z" uid="297358" user="patashnik" changeset="8963432" lat="57.2428036" lon="38.1403154">
    <tag k="addr:city" v="Семендяевское сельское поселение"/>
    <tag k="addr:country" v="RU"/>
    <tag k="addr:district" v="Калязинский район"/>
    <tag k="addr:region" v="Тверская область"/>
    <tag k="cladr:code" v="6901100304500"/>
    <tag k="name" v="Пепелино"/>
    <tag k="place" v="hamlet"/>
  </node>
  <node id="631932620" version="3" timestamp="2010-07-12T12:05:14Z" uid="115477" user="wowik" changeset="5198326" lat="57.2631857" lon="38.149156">
    <tag k="addr:city" v="Семендяевское сельское поселение"/>
    <tag k="addr:country" v="RU"/>
    <tag k="addr:district" v="Калязинский район"/>
    <tag k="addr:postcode" v="171555"/>
    <tag k="addr:region" v="Тверская область"/>
    <tag k="cladr:code" v="6901100304700"/>
    <tag k="cladr:name" v="Уланово"/>
    <tag k="cladr:suffix" v="Деревня"/>
    <tag k="name" v="Уланово"/>
    <tag k="place" v="hamlet"/>
  </node>
  <node id="631932620" version="4" timestamp="2011-08-09T04:48:22Z" uid="297358" user="patashnik" changeset="8963432" lat="57.2631857" lon="38.149156">
    <tag k="addr:city" v="Семендяевское сельское поселение"/>
    <tag k="addr:country" v="RU"/>
    <tag k="addr:district" v="Калязинский район"/>
    <tag k="addr:region" v="Тверская область"/>
    <tag k="cladr:code" v="6901100304700"/>
    <tag k="name" v="Уланово"/>
    <tag k="place" v="hamlet"/>
  </node>
  <node id="631932621" version="3" timestamp="2010-07-12T12:05:13Z" uid="115477" user="wowik" changeset="5198326" lat="57.2725605" lon="38.199367">
    <tag k="addr:city" v="Семендяевское сельское поселение"/>
    <tag k="addr:country" v="RU"/>
    <tag k="addr:district" v="Калязинский район"/>
    <tag k="addr:postcode" v="171580"/>
    <tag k="addr:region" v="Тверская область"/>
    <tag k="cladr:code" v="6901100302600"/>
    <tag k="cladr:name" v="Тюшино"/>
    <tag k="cladr:suffix" v="Деревня"/>
    <tag k="name" v="Тюшино"/>
    <tag k="place" v="hamlet"/>
  </node>
  <node id="631932621" version="4" timestamp="2011-08-09T04:48:22Z" uid="297358" user="patashnik" changeset="8963432" lat="57.2725605" lon="38.199367">
    <tag k="addr:city" v="Семендяевское сельское поселение"/>
    <tag k="addr:country" v="RU"/>
    <tag k="addr:district" v="Калязинский район"/>
    <tag k="addr:region" v="Тверская область"/>
    <tag k="cladr:code" v="6901100302600"/>
    <tag k="name" v="Тюшино"/>
    <tag k="place" v="hamlet"/>
  </node>
  <node id="631932622" version="2" timestamp="2010-07-12T12:44:09Z" uid="115477" user="wowik" changeset="5198326" lat="57.2969608" lon="38.169927">
    <tag k="name" v="Кондратово"/>
    <tag k="place" v="hamlet"/>
  </node>
  <node id="631932622" version="3" timestamp="2012-01-26T21:11:54Z" uid="384084" user="Kostik" changeset="10507299" lat="57.2969608" lon="38.169927">
    <tag k="name" v="Кондратово"/>
    <tag k="place" v="hamlet"/>
  </node>
  <node id="631932636" version="2" timestamp="2010-07-12T12:27:19Z" uid="115477" user="wowik" changeset="5198326" lat="57.3" lon="38.233333">
    <tag k="name" v="Сосенки"/>
    <tag k="place" v="hamlet"/>
  </node>
  <node id="631932641" version="3" timestamp="2010-04-13T12:02:00Z" uid="115477" user="wowik" changeset="4413056" lat="57.3304223" lon="37.9820855">
    <tag k="addr:country" v="RU"/>
    <tag k="addr:district" v="Большесельский район"/>
    <tag k="addr:postcode" v="152374"/>
    <tag k="addr:region" v="Ярославская область"/>
    <tag k="cladr:code" v="7600200018200"/>
    <tag k="cladr:name" v="Мошнино"/>
    <tag k="cladr:suffix" v="Деревня"/>
    <tag k="name" v="Мошнино"/>
    <tag k="place" v="hamlet"/>
  </node>
  <node id="631932641" version="4" timestamp="2010-06-29T18:52:04Z" uid="115477" user="wowik" changeset="5107444" lat="57.3280066" lon="37.9831029">
    <tag k="addr:country" v="RU"/>
    <tag k="addr:district" v="Большесельский район"/>
    <tag k="addr:postcode" v="152374"/>
    <tag k="addr:region" v="Ярославская область"/>
    <tag k="cladr:code" v="7600200018200"/>
    <tag k="cladr:name" v="Мошнино"/>
    <tag k="cladr:suffix" v="Деревня"/>
    <tag k="name" v="Мошнино"/>
    <tag k="place" v="hamlet"/>
  </node>
  <node id="631932641" version="5" timestamp="2010-11-25T17:35:38Z" uid="115477" user="wowik" changeset="6455127" lat="57.3278804" lon="37.9849473">
    <tag k="addr:country" v="RU"/>
    <tag k="addr:district" v="Большесельский район"/>
    <tag k="addr:postcode" v="152374"/>
    <tag k="addr:region" v="Ярославская область"/>
    <tag k="cladr:code" v="7600200018200"/>
    <tag k="cladr:name" v="Мошнино"/>
    <tag k="cladr:suffix" v="Деревня"/>
    <tag k="name" v="Мошнино"/>
    <tag k="place" v="hamlet"/>
  </node>
  <node id="631932641" version="6" timestamp="2011-08-09T04:48:22Z" uid="297358" user="patashnik" changeset="8963432" lat="57.3278804" lon="37.9849473">
    <tag k="addr:country" v="RU"/>
    <tag k="addr:district" v="Большесельский район"/>
    <tag k="addr:region" v="Ярославская область"/>
    <tag k="cladr:code" v="7600200018200"/>
    <tag k="name" v="Мошнино"/>
    <tag k="place" v="hamlet"/>
  </node>
  <node id="631932677" version="2" timestamp="2010-07-12T12:58:15Z" uid="115477" user="wowik" changeset="5198326" lat="57.3181935" lon="38.0256456">
    <tag k="name" v="Селище"/>
    <tag k="place" v="hamlet"/>
  </node>
  <node id="631932677" version="3" timestamp="2012-01-26T21:13:54Z" uid="384084" user="Kostik" changeset="10507299" lat="57.3181935" lon="38.0256456">
    <tag k="name" v="Селище"/>
    <tag k="place" v="hamlet"/>
  </node>
  <node id="631932683" version="2" timestamp="2010-07-12T13:03:06Z" uid="115477" user="wowik" changeset="5198326" lat="57.3356387" lon="38.0359453">
    <tag k="description" v="деревня под водой"/>
    <tag k="name" v="Василево"/>
    <tag k="place" v="locality"/>
  </node>
  <node id="631932683" version="3" timestamp="2012-01-26T21:10:13Z" uid="384084" user="Kostik" changeset="10507299" lat="57.3356387" lon="38.0359453">
    <tag k="description" v="деревня под водой"/>
    <tag k="name" v="Василево"/>
    <tag k="place" v="locality"/>
  </node>
  <node id="631935591" version="2" timestamp="2010-06-28T17:16:18Z" uid="115477" user="wowik" changeset="5099174" lat="57.368483" lon="37.5950987"/>
  <node id="631935591" version="3" timestamp="2010-11-23T11:34:15Z" uid="115477" user="wowik" changeset="6438744" lat="57.3683907" lon="37.5950987"/>
  <node id="631935688" version="2" timestamp="2010-11-23T12:27:10Z" uid="115477" user="wowik" changeset="6438744" lat="57.352844" lon="37.598931"/>
  <node id="631935698" version="2" timestamp="2010-04-13T12:43:31Z" uid="115477" user="wowik" changeset="4413308" lat="57.3531076" lon="37.5986296"/>
  <node id="631935698" version="3" timestamp="2010-11-23T12:27:11Z" uid="115477" user="wowik" changeset="6438744" lat="57.3531228" lon="37.5986859"/>
  <node id="631935706" version="2" timestamp="2010-04-13T12:43:43Z" uid="115477" user="wowik" changeset="4413308" lat="57.3530845" lon="37.5977713"/>
  <node id="631935706" version="3" timestamp="2010-11-23T12:27:07Z" uid="115477" user="wowik" changeset="6438744" lat="57.3530845" lon="37.5976727"/>
  <node id="631935715" version="2" timestamp="2010-11-23T12:27:04Z" uid="115477" user="wowik" changeset="6438744" lat="57.3532726" lon="37.5969675"/>
  <node id="631935736" version="2" timestamp="2010-11-23T12:27:16Z" uid="115477" user="wowik" changeset="6438744" lat="57.3537628" lon="37.596508"/>
  <node id="631935739" version="2" timestamp="2010-11-23T12:27:14Z" uid="115477" user="wowik" changeset="6438744" lat="57.3544878" lon="37.5962918"/>
  <node id="631935743" version="2" timestamp="2010-11-23T12:27:02Z" uid="115477" user="wowik" changeset="6438744" lat="57.355833" lon="37.5960973"/>
  <node id="631935744" version="2" timestamp="2010-11-23T12:27:02Z" uid="115477" user="wowik" changeset="6438744" lat="57.3570853" lon="37.5958395"/>
  <node id="631935746" version="2" timestamp="2010-06-28T17:15:04Z" uid="115477" user="wowik" changeset="5099174" lat="57.3491201" lon="37.6094968"/>
  <node id="631935750" version="2" timestamp="2010-11-23T11:34:36Z" uid="115477" user="wowik" changeset="6438744" lat="57.3689191" lon="37.6093578"/>
  <node id="631935977" version="2" timestamp="2010-10-15T11:58:24Z" uid="7617" user="Franc" changeset="6048572" lat="-33.9380083" lon="151.1146732"/>
  <node id="631935978" version="2" timestamp="2010-10-15T11:58:32Z" uid="7617" user="Franc" changeset="6048572" lat="-33.9380596" lon="151.1145885"/>
  <node id="631935992" version="2" timestamp="2010-04-26T13:34:50Z" uid="7617" user="Franc" changeset="4531986" lat="-33.9388205" lon="151.1149044"/>
  <node id="631935993" version="2" timestamp="2010-04-26T13:34:49Z" uid="7617" user="Franc" changeset="4531986" lat="-33.9388651" lon="151.114852"/>
  <node id="631935995" version="2" timestamp="2010-04-26T13:34:53Z" uid="7617" user="Franc" changeset="4531986" lat="-33.9388517" lon="151.114565"/>
  <node id="631935996" version="2" timestamp="2010-04-26T13:34:49Z" uid="7617" user="Franc" changeset="4531986" lat="-33.9387887" lon="151.11441"/>
  <node id="631935996" version="3" timestamp="2010-10-31T03:12:25Z" uid="7617" user="Franc" changeset="6234803" lat="-33.9388363" lon="151.1144339"/>
  <node id="631935997" version="2" timestamp="2010-04-26T13:34:49Z" uid="7617" user="Franc" changeset="4531986" lat="-33.938589" lon="151.1143996"/>
  <node id="631935998" version="2" timestamp="2010-04-26T13:34:50Z" uid="7617" user="Franc" changeset="4531986" lat="-33.9382938" lon="151.1145968"/>
  <node id="631935999" version="2" timestamp="2010-04-26T13:34:50Z" uid="7617" user="Franc" changeset="4531986" lat="-33.9381477" lon="151.1146124"/>
  <node id="631936000" version="2" timestamp="2010-04-26T13:34:50Z" uid="7617" user="Franc" changeset="4531986" lat="-33.9380632" lon="151.1147494"/>
  <node id="631936001" version="2" timestamp="2010-04-26T13:34:50Z" uid="7617" user="Franc" changeset="4531986" lat="-33.9384752" lon="151.1150168"/>
  <node id="631936003" version="2" timestamp="2010-04-26T13:34:50Z" uid="7617" user="Franc" changeset="4531986" lat="-33.9387307" lon="151.1149706"/>
  <node id="631938638" version="1" timestamp="2010-02-06T21:57:34Z" uid="230283" user="AuFCL" changeset="3809419" lat="-28.860324" lon="153.5607753">
    <tag k="operator" v="Ballina Central"/>
    <tag k="shop" v="supermarket"/>
  </node>
  <node id="631938638" version="2" timestamp="2010-02-08T07:48:55Z" uid="230283" user="AuFCL" changeset="3821179" lat="-28.8598297" lon="153.5610486">
    <tag k="operator" v="Ballina Central"/>
    <tag k="shop" v="supermarket"/>
  </node>
  <node id="631938638" version="3" timestamp="2010-02-08T08:15:11Z" uid="230283" user="AuFCL" changeset="3821289" lat="-28.8590518" lon="153.5614742">
    <tag k="operator" v="Ballina Central"/>
    <tag k="shop" v="supermarket"/>
  </node>
  <node id="631938638" version="4" timestamp="2010-02-25T02:09:59Z" uid="230283" user="AuFCL" changeset="3968473" lat="-28.8592719" lon="153.5615605">
    <tag k="operator" v="Ballina Central"/>
    <tag k="shop" v="supermarket"/>
  </node>
  <node id="631938638" version="5" timestamp="2012-03-19T08:10:31Z" uid="632558" user="theranmann" changeset="11026784" lat="-28.8594645" lon="153.5612193">
    <tag k="name" v="Bayside Shopping Centre"/>
    <tag k="operator" v="Ballina Central"/>
    <tag k="shop" v="supermarket"/>
  </node>
  <node id="631930447" version="3" timestamp="2012-07-19T10:28:09Z" uid="722137" user="OSMF Redaction Account" changeset="12318607" lat="-34.0283933" lon="151.0555378"/>
  <node id="631930447" version="4" timestamp="2012-07-22T01:05:58Z" uid="7523" user="inas" changeset="12423660" lat="-34.0284191" lon="151.0555356"/>
  <node id="631930450" version="3" timestamp="2012-07-19T10:28:09Z" uid="722137" user="OSMF Redaction Account" changeset="12318607" lat="-34.0285867" lon="151.0553581"/>
  <node id="631930450" version="4" timestamp="2012-07-21T06:42:54Z" uid="7523" user="inas" changeset="12401748" lat="-34.0285889" lon="151.0553739"/>
  <node id="631930450" version="5" timestamp="2012-07-22T01:05:58Z" uid="7523" user="inas" changeset="12423660" lat="-34.0285852" lon="151.0553606"/>
  <node id="631930451" version="3" timestamp="2012-07-19T10:28:08Z" uid="722137" user="OSMF Redaction Account" changeset="12318607" lat="-34.028819" lon="151.0552763"/>
  <node id="631930451" version="4" timestamp="2012-07-22T01:05:59Z" uid="7523" user="inas" changeset="12423660" lat="-34.0288295" lon="151.0552751"/>
  <node id="631930453" version="4" timestamp="2012-07-19T10:28:10Z" uid="722137" user="OSMF Redaction Account" changeset="12318607" lat="-34.0283355" lon="151.0550926"/>
  <node id="631930453" version="5" timestamp="2012-07-21T06:46:17Z" uid="7523" user="inas" changeset="12401781" lat="-34.0283622" lon="151.0551592"/>
  <node id="631930455" version="3" timestamp="2012-07-19T10:28:10Z" uid="722137" user="OSMF Redaction Account" changeset="12318607" lat="-34.0281099" lon="151.0552624"/>
  <node id="631930455" version="4" timestamp="2012-07-22T01:06:00Z" uid="7523" user="inas" changeset="12423660" lat="-34.0281099" lon="151.0552624"/>
  <node id="631930496" version="4" timestamp="2012-07-19T10:28:10Z" uid="722137" user="OSMF Redaction Account" changeset="12318607" lat="-34.0283066" lon="151.0555674"/>
  <node id="631930496" version="5" timestamp="2012-07-22T01:05:59Z" uid="7523" user="inas" changeset="12423660" lat="-34.028336" lon="151.0555696"/>
  <node id="631932493" version="5" timestamp="2012-07-20T11:22:07Z" uid="722137" user="OSMF Redaction Account" changeset="12373045" lat="57.283333" lon="37.516667">
    <tag k="addr:country" v="RU"/>
    <tag k="addr:district" v="Краснохолмский район"/>
    <tag k="addr:region" v="Тверская область"/>
    <tag k="cladr:code" v="6901600020300"/>
    <tag k="name" v="Шаблыкино"/>
    <tag k="place" v="hamlet"/>
  </node>
  <node id="631932499" version="7" timestamp="2012-07-20T11:08:16Z" uid="722137" user="OSMF Redaction Account" changeset="12372414" lat="57.266667" lon="37.716667">
    <tag k="name" v="Устье"/>
    <tag k="place" v="hamlet"/>
  </node>
  <node id="631932502" version="5" timestamp="2012-07-20T11:08:16Z" uid="722137" user="OSMF Redaction Account" changeset="12372414" lat="57.3" lon="37.733333">
    <tag k="name" v="Ченцово"/>
    <tag k="place" v="hamlet"/>
  </node>
  <node id="631932507" version="6" timestamp="2012-07-20T10:56:50Z" uid="722137" user="OSMF Redaction Account" changeset="12371989" lat="57.3" lon="37.8">
    <tag k="name" v="Пятишино"/>
    <tag k="place" v="hamlet"/>
  </node>
  <node id="631932509" version="4" timestamp="2012-07-20T10:55:30Z" uid="722137" user="OSMF Redaction Account" changeset="12371954" lat="57.283333" lon="37.816667">
    <tag k="name" v="Волжанка"/>
    <tag k="place" v="hamlet"/>
  </node>
  <node id="631932513" version="7" timestamp="2012-07-20T10:51:14Z" uid="722137" user="OSMF Redaction Account" changeset="12371829" lat="57.3" lon="37.9">
    <tag k="addr:city" v="Карабузинское сельское поселение"/>
    <tag k="addr:country" v="RU"/>
    <tag k="addr:district" v="Кашинский район"/>
    <tag k="addr:region" v="Тверская область"/>
    <tag k="cladr:code" v="6901200802900"/>
    <tag k="name" v="Заволжье"/>
    <tag k="place" v="hamlet"/>
  </node>
  <node id="631932514" version="4" timestamp="2012-07-20T11:22:07Z" uid="722137" user="OSMF Redaction Account" changeset="12373045" lat="57.366667" lon="37.516667">
    <tag k="name" v="Кортино"/>
    <tag k="place" v="hamlet"/>
  </node>
  <node id="631932515" version="5" timestamp="2012-07-20T11:22:07Z" uid="722137" user="OSMF Redaction Account" changeset="12373045" lat="57.333333" lon="37.533333">
    <tag k="name" v="Никольское"/>
    <tag k="place" v="hamlet"/>
  </node>
  <node id="631932516" version="6" timestamp="2012-07-20T11:13:57Z" uid="722137" user="OSMF Redaction Account" changeset="12372661" lat="57.383333" lon="37.566667">
    <tag k="addr:city" v="Письяковское сельское поселение"/>
    <tag k="addr:country" v="RU"/>
    <tag k="addr:district" v="Кашинский район"/>
    <tag k="addr:region" v="Тверская область"/>
    <tag k="cladr:code" v="6901201402700"/>
    <tag k="name" v="Стражково"/>
    <tag k="place" v="hamlet"/>
  </node>
  <node id="631932517" version="7" timestamp="2012-07-20T11:16:43Z" uid="722137" user="OSMF Redaction Account" changeset="12372778" lat="57.416667" lon="37.516667">
    <tag k="name" v="Сологовская"/>
    <tag k="place" v="hamlet"/>
  </node>
  <node id="631932521" version="6" timestamp="2012-07-20T11:13:58Z" uid="722137" user="OSMF Redaction Account" changeset="12372661" lat="57.416667" lon="37.583333">
    <tag k="name" v="Заречье"/>
    <tag k="place" v="hamlet"/>
  </node>
  <node id="631932521" version="7" timestamp="2012-08-13T07:45:43Z" uid="336354" user="esaulenka" changeset="12710252" lat="57.4171265" lon="37.5785749">
    <tag k="name" v="Заречье"/>
    <tag k="place" v="hamlet"/>
  </node>
  <node id="631932525" version="6" timestamp="2012-07-20T11:13:58Z" uid="722137" user="OSMF Redaction Account" changeset="12372661" lat="57.433333" lon="37.583333">
    <tag k="name" v="Новинка"/>
    <tag k="place" v="hamlet"/>
  </node>
  <node id="631932527" version="6" timestamp="2012-07-20T11:16:43Z" uid="722137" user="OSMF Redaction Account" changeset="12372778" lat="57.456389" lon="37.551111">
    <tag k="addr:city" v="Пестриковское сельское поселение"/>
    <tag k="addr:country" v="RU"/>
    <tag k="addr:district" v="Кашинский район"/>
    <tag k="addr:region" v="Тверская область"/>
    <tag k="cladr:code" v="6901201300300"/>
    <tag k="name" v="Бузыково"/>
    <tag k="place" v="hamlet"/>
  </node>
  <node id="631932529" version="7" timestamp="2012-07-20T11:16:44Z" uid="722137" user="OSMF Redaction Account" changeset="12372778" lat="57.483333" lon="37.55">
    <tag k="addr:city" v="Шепелевское сельское поселение"/>
    <tag k="addr:country" v="RU"/>
    <tag k="addr:district" v="Кашинский район"/>
    <tag k="addr:region" v="Тверская область"/>
    <tag k="cladr:code" v="6901202003800"/>
    <tag k="name" v="Черёмухино"/>
    <tag k="place" v="hamlet"/>
  </node>
  <node id="631932530" version="7" timestamp="2012-07-20T11:10:07Z" uid="722137" user="OSMF Redaction Account" changeset="12372461" lat="57.306667" lon="37.675">
    <tag k="name" v="Зеленшино"/>
    <tag k="place" v="hamlet"/>
  </node>
  <node id="631932531" version="7" timestamp="2012-07-20T11:08:16Z" uid="722137" user="OSMF Redaction Account" changeset="12372414" lat="57.333333" lon="37.716667">
    <tag k="addr:city" v="Фарафоновское сельское поселение"/>
    <tag k="addr:country" v="RU"/>
    <tag k="addr:district" v="Кашинский район"/>
    <tag k="addr:region" v="Тверская область"/>
    <tag k="cladr:code" v="6901201901200"/>
    <tag k="name" v="Постельниково"/>
    <tag k="place" v="hamlet"/>
  </node>
  <node id="631932535" version="7" timestamp="2012-07-20T10:56:50Z" uid="722137" user="OSMF Redaction Account" changeset="12371989" lat="57.366667" lon="37.783333">
    <tag k="name" v="Рождествено"/>
    <tag k="place" v="hamlet"/>
  </node>
  <node id="631932537" version="6" timestamp="2012-07-20T11:04:43Z" uid="722137" user="OSMF Redaction Account" changeset="12372254" lat="57.383333" lon="37.733333">
    <tag k="name" v="Медведево"/>
    <tag k="place" v="hamlet"/>
  </node>
  <node id="631932539" version="5" timestamp="2012-07-20T11:04:43Z" uid="722137" user="OSMF Redaction Account" changeset="12372254" lat="57.416667" lon="37.7">
    <tag k="name" v="Леушина"/>
    <tag k="place" v="hamlet"/>
  </node>
  <node id="631932540" version="10" timestamp="2012-07-20T11:06:13Z" uid="722137" user="OSMF Redaction Account" changeset="12372350" lat="57.4" lon="37.628611">
    <tag k="addr:city" v="Пестриковское сельское поселение"/>
    <tag k="addr:country" v="RU"/>
    <tag k="addr:district" v="Кашинский район"/>
    <tag k="addr:region" v="Тверская область"/>
    <tag k="cladr:code" v="6901201302300"/>
    <tag k="name" v="Чагино"/>
    <tag k="place" v="hamlet"/>
  </node>
  <node id="631932540" version="11" timestamp="2012-07-26T09:37:23Z" uid="84567" user="Igor_blg" changeset="12496668" lat="57.4006488" lon="37.6339766">
    <tag k="addr:city" v="Пестриковское сельское поселение"/>
    <tag k="addr:country" v="RU"/>
    <tag k="addr:district" v="Кашинский район"/>
    <tag k="addr:region" v="Тверская область"/>
    <tag k="cladr:code" v="6901201302300"/>
    <tag k="name" v="Чагино"/>
    <tag k="place" v="hamlet"/>
  </node>
  <node id="631932541" version="5" timestamp="2012-07-20T11:04:43Z" uid="722137" user="OSMF Redaction Account" changeset="12372254" lat="57.4" lon="37.716667">
    <tag k="name" v="Борихино"/>
    <tag k="place" v="hamlet"/>
  </node>
  <node id="631932542" version="8" timestamp="2012-07-20T11:04:43Z" uid="722137" user="OSMF Redaction Account" changeset="12372254" lat="57.466667" lon="37.733333">
    <tag k="addr:city" v="Шепелевское сельское поселение"/>
    <tag k="addr:country" v="RU"/>
    <tag k="addr:district" v="Кашинский район"/>
    <tag k="addr:region" v="Тверская область"/>
    <tag k="cladr:code" v="6901202003300"/>
    <tag k="name" v="Мялицыно"/>
    <tag k="place" v="hamlet"/>
  </node>
  <node id="631932547" version="6" timestamp="2012-07-20T10:50:30Z" uid="722137" user="OSMF Redaction Account" changeset="12371813" lat="57.35" lon="37.95">
    <tag k="name" v="Новинки"/>
    <tag k="place" v="hamlet"/>
  </node>
  <node id="631932550" version="4" timestamp="2012-07-20T10:55:30Z" uid="722137" user="OSMF Redaction Account" changeset="12371954" lat="57.366667" lon="37.866667">
    <tag k="name" v="Овсянниково"/>
    <tag k="place" v="hamlet"/>
  </node>
  <node id="631932553" version="4" timestamp="2012-07-20T10:51:14Z" uid="722137" user="OSMF Redaction Account" changeset="12371829" lat="57.328889" lon="37.928889">
    <tag k="name" v="Никольское"/>
    <tag k="place" v="hamlet"/>
  </node>
  <node id="631932554" version="4" timestamp="2012-07-20T10:55:30Z" uid="722137" user="OSMF Redaction Account" changeset="12371954" lat="57.34" lon="37.873056">
    <tag k="name" v="Фролово"/>
    <tag k="place" v="hamlet"/>
  </node>
  <node id="631932558" version="5" timestamp="2012-07-20T10:53:37Z" uid="722137" user="OSMF Redaction Account" changeset="12371912" lat="57.415" lon="37.812778">
    <tag k="addr:city" v="Фарафоновское сельское поселение"/>
    <tag k="addr:country" v="RU"/>
    <tag k="addr:district" v="Кашинский район"/>
    <tag k="addr:region" v="Тверская область"/>
    <tag k="cladr:code" v="6901201902700"/>
    <tag k="name" v="Головеньки"/>
    <tag k="place" v="hamlet"/>
  </node>
  <node id="631932562" version="6" timestamp="2012-07-20T10:52:34Z" uid="722137" user="OSMF Redaction Account" changeset="12371880" lat="57.4" lon="37.85">
    <tag k="addr:city" v="Фарафоновское сельское поселение"/>
    <tag k="addr:country" v="RU"/>
    <tag k="addr:district" v="Кашинский район"/>
    <tag k="addr:region" v="Тверская область"/>
    <tag k="cladr:code" v="6901201901800"/>
    <tag k="name" v="Бабеево"/>
    <tag k="place" v="hamlet"/>
  </node>
  <node id="631932566" version="5" timestamp="2012-07-20T10:53:37Z" uid="722137" user="OSMF Redaction Account" changeset="12371912" lat="57.45" lon="37.8">
    <tag k="name" v="Токарево"/>
    <tag k="place" v="hamlet"/>
  </node>
  <node id="631932568" version="5" timestamp="2012-07-20T11:06:13Z" uid="722137" user="OSMF Redaction Account" changeset="12372350" lat="57.483333" lon="37.666667">
    <tag k="name" v="Монастырёва"/>
    <tag k="place" v="hamlet"/>
  </node>
  <node id="631932569" version="6" timestamp="2012-07-20T11:06:13Z" uid="722137" user="OSMF Redaction Account" changeset="12372350" lat="57.483333" lon="37.65">
    <tag k="name" v="Ручейки"/>
    <tag k="place" v="hamlet"/>
  </node>
  <node id="631932571" version="5" timestamp="2012-07-20T11:06:13Z" uid="722137" user="OSMF Redaction Account" changeset="12372350" lat="57.495556" lon="37.663056">
    <tag k="addr:city" v="Шепелевское сельское поселение"/>
    <tag k="addr:country" v="RU"/>
    <tag k="addr:district" v="Кашинский район"/>
    <tag k="addr:region" v="Тверская область"/>
    <tag k="cladr:code" v="6901202002900"/>
    <tag k="name" v="Козьмодемьяновское"/>
    <tag k="place" v="hamlet"/>
  </node>
  <node id="631932612" version="5" timestamp="2012-07-20T10:50:30Z" uid="722137" user="OSMF Redaction Account" changeset="12371813" lat="57.283333" lon="38">
    <tag k="name" v="Митино"/>
    <tag k="place" v="hamlet"/>
  </node>
  <node id="631932612" version="6" timestamp="2012-09-04T07:21:11Z" uid="173900" user="j-wills" changeset="12977672" lat="57.287679" lon="37.9952675">
    <tag k="name" v="Митино"/>
    <tag k="place" v="hamlet"/>
  </node>
  <node id="631932618" version="4" timestamp="2012-07-20T10:08:30Z" uid="722137" user="OSMF Redaction Account" changeset="12370755" lat="57.301389" lon="38.020278">
    <tag k="name" v="Высокое"/>
    <tag k="place" v="hamlet"/>
  </node>
  <node id="631932618" version="5" timestamp="2012-09-04T07:21:10Z" uid="173900" user="j-wills" changeset="12977672" lat="57.2998457" lon="38.0168228">
    <tag k="name" v="Высокое"/>
    <tag k="place" v="hamlet"/>
  </node>
  <node id="631932619" version="5" timestamp="2012-07-20T10:09:21Z" uid="722137" user="OSMF Redaction Account" changeset="12370788" lat="57.25" lon="38.15">
    <tag k="addr:city" v="Семендяевское сельское поселение"/>
    <tag k="addr:country" v="RU"/>
    <tag k="addr:district" v="Калязинский район"/>
    <tag k="addr:region" v="Тверская область"/>
    <tag k="cladr:code" v="6901100304500"/>
    <tag k="name" v="Пепелино"/>
    <tag k="place" v="hamlet"/>
  </node>
  <node id="631932620" version="5" timestamp="2012-07-20T10:07:55Z" uid="722137" user="OSMF Redaction Account" changeset="12370722" lat="57.260556" lon="38.153889">
    <tag k="addr:city" v="Семендяевское сельское поселение"/>
    <tag k="addr:country" v="RU"/>
    <tag k="addr:district" v="Калязинский район"/>
    <tag k="addr:region" v="Тверская область"/>
    <tag k="cladr:code" v="6901100304700"/>
    <tag k="name" v="Уланово"/>
    <tag k="place" v="hamlet"/>
  </node>
  <node id="631932620" version="6" timestamp="2012-09-04T07:21:11Z" uid="173900" user="j-wills" changeset="12977672" lat="57.2631161" lon="38.1500393">
    <tag k="addr:city" v="Семендяевское сельское поселение"/>
    <tag k="addr:country" v="RU"/>
    <tag k="addr:district" v="Калязинский район"/>
    <tag k="addr:region" v="Тверская область"/>
    <tag k="cladr:code" v="6901100304700"/>
    <tag k="name" v="Уланово"/>
    <tag k="place" v="hamlet"/>
  </node>
  <node id="631932621" version="5" timestamp="2012-07-20T10:07:48Z" uid="722137" user="OSMF Redaction Account" changeset="12370716" lat="57.266667" lon="38.2">
    <tag k="addr:city" v="Семендяевское сельское поселение"/>
    <tag k="addr:country" v="RU"/>
    <tag k="addr:district" v="Калязинский район"/>
    <tag k="addr:region" v="Тверская область"/>
    <tag k="cladr:code" v="6901100302600"/>
    <tag k="name" v="Тюшино"/>
    <tag k="place" v="hamlet"/>
  </node>
  <node id="631932622" version="4" timestamp="2012-07-20T10:07:55Z" uid="722137" user="OSMF Redaction Account" changeset="12370722" lat="57.3" lon="38.166667">
    <tag k="name" v="Кондротово"/>
    <tag k="place" v="hamlet"/>
  </node>
  <node id="631932641" version="7" timestamp="2012-07-20T10:50:30Z" uid="722137" user="OSMF Redaction Account" changeset="12371813" lat="57.333333" lon="37.983333">
    <tag k="addr:country" v="RU"/>
    <tag k="addr:district" v="Большесельский район"/>
    <tag k="addr:region" v="Ярославская область"/>
    <tag k="cladr:code" v="7600200018200"/>
    <tag k="name" v="Мошнино"/>
    <tag k="place" v="hamlet"/>
  </node>
  <node id="631932677" version="4" timestamp="2012-07-20T10:08:30Z" uid="722137" user="OSMF Redaction Account" changeset="12370755" lat="57.316667" lon="38.033333">
    <tag k="name" v="Селище"/>
    <tag k="place" v="hamlet"/>
  </node>
  <node id="631932677" version="5" timestamp="2012-09-04T07:21:11Z" uid="173900" user="j-wills" changeset="12977672" lat="57.3192673" lon="38.0257424">
    <tag k="name" v="Селище"/>
    <tag k="place" v="hamlet"/>
  </node>
  <node id="631932683" version="4" timestamp="2012-07-20T10:08:30Z" uid="722137" user="OSMF Redaction Account" changeset="12370755" lat="57.333333" lon="38.05">
    <tag k="name" v="Василево"/>
    <tag k="place" v="hamlet"/>
  </node>
  <node id="631935591" version="4" timestamp="2012-04-06T07:55:34Z" uid="384084" user="Kostik" changeset="11197383" lat="57.3683908" lon="37.5951001"/>
  <node id="631935591" version="5" timestamp="2012-07-17T12:06:15Z" uid="384084" user="Kostik" changeset="12264621" lat="57.3683874" lon="37.59509"/>
  <node id="631935591" version="6" timestamp="2012-07-20T17:18:02Z" uid="133332" user="AMDmi3" changeset="12384907" lat="57.3683874" lon="37.59509"/>
  <node id="631935688" version="3" timestamp="2012-04-06T07:55:34Z" uid="384084" user="Kostik" changeset="11197383" lat="57.3528441" lon="37.5989324"/>
  <node id="631935688" version="4" timestamp="2012-07-17T12:06:16Z" uid="384084" user="Kostik" changeset="12264621" lat="57.3528407" lon="37.5989223"/>
  <node id="631935688" version="5" timestamp="2012-07-20T17:18:03Z" uid="133332" user="AMDmi3" changeset="12384907" lat="57.3528407" lon="37.5989223"/>
  <node id="631935698" version="4" timestamp="2012-04-06T07:55:34Z" uid="384084" user="Kostik" changeset="11197383" lat="57.3531229" lon="37.5986873"/>
  <node id="631935698" version="5" timestamp="2012-07-17T12:06:16Z" uid="384084" user="Kostik" changeset="12264621" lat="57.3531195" lon="37.5986772"/>
  <node id="631935698" version="6" timestamp="2012-07-20T17:18:03Z" uid="133332" user="AMDmi3" changeset="12384907" lat="57.3531195" lon="37.5986772"/>
  <node id="631935706" version="4" timestamp="2012-04-06T07:55:34Z" uid="384084" user="Kostik" changeset="11197383" lat="57.3530846" lon="37.5976741"/>
  <node id="631935706" version="5" timestamp="2012-07-17T12:06:16Z" uid="384084" user="Kostik" changeset="12264621" lat="57.3530812" lon="37.597664"/>
  <node id="631935706" version="6" timestamp="2012-07-20T17:18:03Z" uid="133332" user="AMDmi3" changeset="12384907" lat="57.3530812" lon="37.597664"/>
  <node id="631935715" version="3" timestamp="2012-04-06T07:55:34Z" uid="384084" user="Kostik" changeset="11197383" lat="57.3532727" lon="37.5969689"/>
  <node id="631935715" version="4" timestamp="2012-07-17T12:06:16Z" uid="384084" user="Kostik" changeset="12264621" lat="57.3532693" lon="37.5969588"/>
  <node id="631935715" version="5" timestamp="2012-07-20T17:18:03Z" uid="133332" user="AMDmi3" changeset="12384907" lat="57.3532693" lon="37.5969588"/>
  <node id="631935736" version="3" timestamp="2012-04-06T07:55:34Z" uid="384084" user="Kostik" changeset="11197383" lat="57.3537629" lon="37.5965094"/>
  <node id="631935736" version="4" timestamp="2012-07-17T12:06:16Z" uid="384084" user="Kostik" changeset="12264621" lat="57.3537595" lon="37.5964993"/>
  <node id="631935736" version="5" timestamp="2012-07-20T17:18:03Z" uid="133332" user="AMDmi3" changeset="12384907" lat="57.3537595" lon="37.5964993"/>
  <node id="631935739" version="3" timestamp="2012-04-06T07:55:34Z" uid="384084" user="Kostik" changeset="11197383" lat="57.3544879" lon="37.5962932"/>
  <node id="631935739" version="4" timestamp="2012-07-17T12:06:16Z" uid="384084" user="Kostik" changeset="12264621" lat="57.3544845" lon="37.5962831"/>
  <node id="631935739" version="5" timestamp="2012-07-20T17:18:03Z" uid="133332" user="AMDmi3" changeset="12384907" lat="57.3544845" lon="37.5962831"/>
  <node id="631935743" version="3" timestamp="2012-04-06T07:55:34Z" uid="384084" user="Kostik" changeset="11197383" lat="57.3558331" lon="37.5960987"/>
  <node id="631935743" version="4" timestamp="2012-07-17T12:06:16Z" uid="384084" user="Kostik" changeset="12264621" lat="57.3558297" lon="37.5960886"/>
  <node id="631935743" version="5" timestamp="2012-07-20T17:18:03Z" uid="133332" user="AMDmi3" changeset="12384907" lat="57.3558297" lon="37.5960886"/>
  <node id="631935744" version="3" timestamp="2012-04-06T07:55:34Z" uid="384084" user="Kostik" changeset="11197383" lat="57.3570854" lon="37.5958409"/>
  <node id="631935744" version="4" timestamp="2012-08-14T16:33:09Z" uid="316868" user="LexIgnatov" changeset="12729013" lat="57.3570918" lon="37.5959177"/>
  <node id="631935746" version="3" timestamp="2012-04-06T07:55:35Z" uid="384084" user="Kostik" changeset="11197383" lat="57.3491202" lon="37.6094982"/>
  <node id="631935746" version="4" timestamp="2012-07-17T12:06:16Z" uid="384084" user="Kostik" changeset="12264621" lat="57.3491168" lon="37.6094881"/>
  <node id="631935746" version="5" timestamp="2012-07-20T17:18:03Z" uid="133332" user="AMDmi3" changeset="12384907" lat="57.3491168" lon="37.6094881"/>
  <node id="631935750" version="3" timestamp="2012-04-06T07:55:35Z" uid="384084" user="Kostik" changeset="11197383" lat="57.3689192" lon="37.6093592"/>
  <node id="631935750" version="4" timestamp="2012-07-17T12:06:16Z" uid="384084" user="Kostik" changeset="12264621" lat="57.3689158" lon="37.6093491"/>
  <node id="631935750" version="5" timestamp="2012-07-20T17:15:38Z" uid="133332" user="AMDmi3" changeset="12384907" lat="57.3688264" lon="37.6093943"/>
  <node id="631935977" version="3" timestamp="2012-07-20T08:34:38Z" uid="722137" user="OSMF Redaction Account" changeset="12368488" lat="-33.9380026" lon="151.1146704"/>
  <node id="631935978" version="3" timestamp="2012-07-20T08:34:38Z" uid="722137" user="OSMF Redaction Account" changeset="12368488" lat="-33.9380505" lon="151.1145864"/>
  <node id="631935992" version="3" timestamp="2012-07-20T08:34:36Z" uid="722137" user="OSMF Redaction Account" changeset="12368488" lat="-33.9388161" lon="151.1149003"/>
  <node id="631935993" version="3" timestamp="2012-07-20T08:34:36Z" uid="722137" user="OSMF Redaction Account" changeset="12368488" lat="-33.9388562" lon="151.114844"/>
  <node id="631935996" version="4" timestamp="2012-07-20T08:34:36Z" uid="722137" user="OSMF Redaction Account" changeset="12368488" lat="-33.9387894" lon="151.1144416"/>
  <node id="631935997" version="3" timestamp="2012-07-20T08:34:37Z" uid="722137" user="OSMF Redaction Account" changeset="12368488" lat="-33.9385647" lon="151.1144121"/>
  <node id="631935998" version="3" timestamp="2012-07-20T08:34:37Z" uid="722137" user="OSMF Redaction Account" changeset="12368488" lat="-33.9382776" lon="151.1146106"/>
  <node id="631935999" version="3" timestamp="2012-07-20T08:34:38Z" uid="722137" user="OSMF Redaction Account" changeset="12368488" lat="-33.9381374" lon="151.1146079"/>
  <node id="631936000" version="3" timestamp="2012-07-20T08:34:38Z" uid="722137" user="OSMF Redaction Account" changeset="12368488" lat="-33.9380551" lon="151.1147608"/>
  <node id="631936001" version="3" timestamp="2012-07-20T08:34:37Z" uid="722137" user="OSMF Redaction Account" changeset="12368488" lat="-33.9383889" lon="151.1149754"/>
  <node id="631936003" version="3" timestamp="2012-07-20T08:34:36Z" uid="722137" user="OSMF Redaction Account" changeset="12368488" lat="-33.9387182" lon="151.1149673"/>
  <node id="631938638" version="6" timestamp="2012-07-19T13:47:04Z" uid="722137" user="OSMF Redaction Account" changeset="12330283" lat="-28.8594645" lon="153.5612193">
    <tag k="name" v="Bayside Shopping Centre"/>
  </node>
</osm>
