<?xml version='1.0' encoding='UTF-8'?>
<osm version="0.6" generator="libosmium/2.20.0">
  <node id="631922691" version="2" timestamp="2010-04-23T15:20:18Z" uid="115477" user="wowik" changeset="4504321" lat="57.2478248" lon="36.6162776">
    <tag k="name" v="Сенино"/>
    <tag k="place" v="hamlet"/>
  </node>
  <node id="631922691" version="3" timestamp="2010-05-06T04:21:17Z" uid="30590" user="KekcuHa" changeset="4618526" lat="57.2478248" lon="36.6162776">
    <tag k="addr:city" v="Ильгощинский сельский округ"/>
    <tag k="addr:country" v="RU"/>
    <tag k="addr:district" v="Рамешковский район"/>
    <tag k="addr:postcode" v="171429"/>
    <tag k="addr:region" v="Тверская область"/>
    <tag k="cladr:code" v="6902600203900"/>
    <tag k="cladr:name" v="Сенино"/>
    <tag k="cladr:suffix" v="Деревня"/>
    <tag k="name" v="Сенино"/>
    <tag k="place" v="hamlet"/>
  </node>
  <node id="631922691" version="4" timestamp="2011-08-09T05:09:16Z" uid="297358" user="patashnik" changeset="8963467" lat="57.2478248" lon="36.6162776">
    <tag k="addr:city" v="Ильгощинский сельский округ"/>
    <tag k="addr:country" v="RU"/>
    <tag k="addr:district" v="Рамешковский район"/>
    <tag k="addr:region" v="Тверская область"/>
    <tag k="cladr:code" v="6902600203900"/>
    <tag k="name" v="Сенино"/>
    <tag k="place" v="hamlet"/>
  </node>
  <node id="631923339" version="2" timestamp="2010-07-19T13:11:52Z" uid="115477" user="wowik" changeset="5260995" lat="57.3027849" lon="36.7773675">
    <tag k="name" v="Новая"/>
    <tag k="place" v="hamlet"/>
  </node>
  <node id="631923339" version="3" timestamp="2011-11-26T21:20:23Z" uid="84567" user="Igor_blg" changeset="9961097" lat="57.3027849" lon="36.7773675">
    <tag k="name" v="Новое"/>
    <tag k="place" v="hamlet"/>
  </node>
  <node id="631923341" version="2" timestamp="2010-04-23T13:18:39Z" uid="115477" user="wowik" changeset="4503301" lat="57.2507897" lon="37.0447383">
    <tag k="name" v="Лосево"/>
    <tag k="place" v="hamlet"/>
  </node>
  <node id="631923341" version="3" timestamp="2012-01-26T21:12:24Z" uid="384084" user="Kostik" changeset="10507299" lat="57.2507897" lon="37.0447383">
    <tag k="name" v="Лосево"/>
    <tag k="place" v="hamlet"/>
  </node>
  <node id="631923343" version="4" timestamp="2010-07-14T13:00:31Z" uid="115477" user="wowik" changeset="5216715" lat="57.2564755" lon="37.1400492">
    <tag k="addr:city" v="Верхнетроицкое сельское поселение"/>
    <tag k="addr:country" v="RU"/>
    <tag k="addr:district" v="Кашинский район"/>
    <tag k="addr:postcode" v="171622"/>
    <tag k="addr:region" v="Тверская область"/>
    <tag k="cladr:code" v="6901200500300"/>
    <tag k="cladr:name" v="Верхняя Троица"/>
    <tag k="cladr:suffix" v="Деревня"/>
    <tag k="name" v="Верхняя Троица"/>
    <tag k="place" v="village"/>
  </node>
  <node id="631923343" version="5" timestamp="2010-09-12T08:24:49Z" uid="128227" user="Dimster" changeset="5756761" lat="57.2529091" lon="37.1391924">
    <tag k="addr:city" v="Верхнетроицкое сельское поселение"/>
    <tag k="addr:country" v="RU"/>
    <tag k="addr:district" v="Кашинский район"/>
    <tag k="addr:postcode" v="171622"/>
    <tag k="addr:region" v="Тверская область"/>
    <tag k="cladr:code" v="6901200500300"/>
    <tag k="cladr:name" v="Верхняя Троица"/>
    <tag k="cladr:suffix" v="Деревня"/>
    <tag k="name" v="Верхняя Троица"/>
    <tag k="place" v="village"/>
  </node>
  <node id="631923343" version="6" timestamp="2011-08-09T05:09:20Z" uid="297358" user="patashnik" changeset="8963467" lat="57.2529091" lon="37.1391924">
    <tag k="addr:city" v="Верхнетроицкое сельское поселение"/>
    <tag k="addr:country" v="RU"/>
    <tag k="addr:district" v="Кашинский район"/>
    <tag k="addr:region" v="Тверская область"/>
    <tag k="cladr:code" v="6901200500300"/>
    <tag k="name" v="Верхняя Троица"/>
    <tag k="place" v="village"/>
  </node>
  <node id="631923349" version="2" timestamp="2010-04-23T11:30:45Z" uid="115477" user="wowik" changeset="4502725" lat="57.2871275" lon="37.1506534">
    <tag k="name" v="Козлово"/>
    <tag k="place" v="hamlet"/>
  </node>
  <node id="631923349" version="3" timestamp="2012-01-26T21:11:50Z" uid="384084" user="Kostik" changeset="10507299" lat="57.2871275" lon="37.1506534">
    <tag k="name" v="Козлово"/>
    <tag k="place" v="hamlet"/>
  </node>
  <node id="631923443" version="3" timestamp="2010-07-19T13:11:54Z" uid="115477" user="wowik" changeset="5260995" lat="57.3280455" lon="36.8008851">
    <tag k="addr:city" v="Верхнетроицкое сельское поселение"/>
    <tag k="addr:country" v="RU"/>
    <tag k="addr:district" v="Кашинский район"/>
    <tag k="addr:postcode" v="171622"/>
    <tag k="addr:region" v="Тверская область"/>
    <tag k="cladr:code" v="6901200500200"/>
    <tag k="cladr:name" v="Большие Сетки"/>
    <tag k="cladr:suffix" v="Деревня"/>
    <tag k="name" v="Большие Сетки"/>
    <tag k="place" v="hamlet"/>
  </node>
  <node id="631923443" version="4" timestamp="2011-08-09T05:09:23Z" uid="297358" user="patashnik" changeset="8963467" lat="57.3280455" lon="36.8008851">
    <tag k="addr:city" v="Верхнетроицкое сельское поселение"/>
    <tag k="addr:country" v="RU"/>
    <tag k="addr:district" v="Кашинский район"/>
    <tag k="addr:region" v="Тверская область"/>
    <tag k="cladr:code" v="6901200500200"/>
    <tag k="name" v="Большие Сетки"/>
    <tag k="place" v="hamlet"/>
  </node>
  <node id="631923444" version="3" timestamp="2010-07-19T13:11:52Z" uid="115477" user="wowik" changeset="5260995" lat="57.3279992" lon="36.8228578">
    <tag k="addr:city" v="Верхнетроицкое сельское поселение"/>
    <tag k="addr:country" v="RU"/>
    <tag k="addr:district" v="Кашинский район"/>
    <tag k="addr:postcode" v="171622"/>
    <tag k="addr:region" v="Тверская область"/>
    <tag k="cladr:code" v="6901200501100"/>
    <tag k="cladr:name" v="Малые Сетки"/>
    <tag k="cladr:suffix" v="Деревня"/>
    <tag k="name" v="Малые Сетки"/>
    <tag k="place" v="hamlet"/>
  </node>
  <node id="631923444" version="4" timestamp="2011-08-09T05:09:23Z" uid="297358" user="patashnik" changeset="8963467" lat="57.3279992" lon="36.8228578">
    <tag k="addr:city" v="Верхнетроицкое сельское поселение"/>
    <tag k="addr:country" v="RU"/>
    <tag k="addr:district" v="Кашинский район"/>
    <tag k="addr:region" v="Тверская область"/>
    <tag k="cladr:code" v="6901200501100"/>
    <tag k="name" v="Малые Сетки"/>
    <tag k="place" v="hamlet"/>
  </node>
  <node id="631923445" version="3" timestamp="2010-07-19T13:11:53Z" uid="115477" user="wowik" changeset="5260995" lat="57.3590298" lon="36.7473268">
    <tag k="addr:city" v="Киверичский сельский округ"/>
    <tag k="addr:country" v="RU"/>
    <tag k="addr:district" v="Рамешковский район"/>
    <tag k="addr:postcode" v="171413"/>
    <tag k="addr:region" v="Тверская область"/>
    <tag k="cladr:code" v="6902601601800"/>
    <tag k="cladr:name" v="Крутец"/>
    <tag k="cladr:suffix" v="Деревня"/>
    <tag k="name" v="Крутец"/>
    <tag k="place" v="hamlet"/>
  </node>
  <node id="631923445" version="4" timestamp="2011-08-09T05:09:23Z" uid="297358" user="patashnik" changeset="8963467" lat="57.3590298" lon="36.7473268">
    <tag k="addr:city" v="Киверичский сельский округ"/>
    <tag k="addr:country" v="RU"/>
    <tag k="addr:district" v="Рамешковский район"/>
    <tag k="addr:region" v="Тверская область"/>
    <tag k="cladr:code" v="6902601601800"/>
    <tag k="name" v="Крутец"/>
    <tag k="place" v="hamlet"/>
  </node>
  <node id="631923627" version="3" timestamp="2010-07-19T13:11:52Z" uid="115477" user="wowik" changeset="5260995" lat="57.3428231" lon="36.9152116">
    <tag k="addr:city" v="Верхнетроицкое сельское поселение"/>
    <tag k="addr:country" v="RU"/>
    <tag k="addr:district" v="Кашинский район"/>
    <tag k="addr:postcode" v="171622"/>
    <tag k="addr:region" v="Тверская область"/>
    <tag k="cladr:code" v="6901200502900"/>
    <tag k="cladr:name" v="Ройга"/>
    <tag k="cladr:suffix" v="Деревня"/>
    <tag k="name" v="Ройга"/>
    <tag k="place" v="hamlet"/>
  </node>
  <node id="631923627" version="4" timestamp="2011-08-09T05:09:23Z" uid="297358" user="patashnik" changeset="8963467" lat="57.3428231" lon="36.9152116">
    <tag k="addr:city" v="Верхнетроицкое сельское поселение"/>
    <tag k="addr:country" v="RU"/>
    <tag k="addr:district" v="Кашинский район"/>
    <tag k="addr:region" v="Тверская область"/>
    <tag k="cladr:code" v="6901200502900"/>
    <tag k="name" v="Ройга"/>
    <tag k="place" v="hamlet"/>
  </node>
  <node id="631923638" version="2" timestamp="2010-07-19T16:51:38Z" uid="115477" user="wowik" changeset="5262892" lat="57.3884187" lon="36.9171421">
    <tag k="name" v="Терботунь"/>
    <tag k="place" v="hamlet"/>
  </node>
  <node id="631923638" version="3" timestamp="2010-11-23T17:39:51Z" uid="115477" user="wowik" changeset="6440035" lat="57.3888833" lon="36.9166593">
    <tag k="name" v="Терботунь"/>
    <tag k="old_name" v="Теребатунь"/>
    <tag k="place" v="hamlet"/>
  </node>
  <node id="631923638" version="4" timestamp="2012-01-26T21:14:24Z" uid="384084" user="Kostik" changeset="10507299" lat="57.3888833" lon="36.9166593">
    <tag k="name" v="Терботунь"/>
    <tag k="old_name" v="Теребатунь"/>
    <tag k="place" v="hamlet"/>
  </node>
  <node id="631923643" version="2" timestamp="2010-04-23T11:30:46Z" uid="115477" user="wowik" changeset="4502725" lat="57.3433037" lon="37.0360694">
    <tag k="name" v="Славково"/>
    <tag k="place" v="hamlet"/>
  </node>
  <node id="631923643" version="3" timestamp="2010-11-23T17:39:57Z" uid="115477" user="wowik" changeset="6440035" lat="57.3436967" lon="37.0358046">
    <tag k="name" v="Славково"/>
    <tag k="place" v="hamlet"/>
  </node>
  <node id="631923643" version="4" timestamp="2012-01-26T21:14:00Z" uid="384084" user="Kostik" changeset="10507299" lat="57.3436967" lon="37.0358046">
    <tag k="name" v="Славково"/>
    <tag k="place" v="hamlet"/>
  </node>
  <node id="631923648" version="2" timestamp="2010-04-23T12:45:25Z" uid="115477" user="wowik" changeset="4503301" lat="57.3450173" lon="37.0765815">
    <tag k="name" v="Чернятино"/>
    <tag k="place" v="hamlet"/>
  </node>
  <node id="631923648" version="3" timestamp="2010-11-30T11:47:58Z" uid="115477" user="wowik" changeset="6493767" lat="57.3446816" lon="37.0759084">
    <tag k="name" v="Чернятино"/>
    <tag k="place" v="hamlet"/>
  </node>
  <node id="631923648" version="4" timestamp="2012-01-26T21:15:02Z" uid="384084" user="Kostik" changeset="10507299" lat="57.3446816" lon="37.0759084">
    <tag k="name" v="Чернятино"/>
    <tag k="place" v="hamlet"/>
  </node>
  <node id="631923652" version="2" timestamp="2011-02-01T17:08:39Z" uid="115477" user="wowik" changeset="7156686" lat="57.4647087" lon="36.9959957">
    <tag k="name" v="Борисовское"/>
    <tag k="place" v="hamlet"/>
  </node>
  <node id="631923652" version="3" timestamp="2011-02-01T18:08:44Z" uid="115477" user="wowik" changeset="7157304" lat="57.4655708" lon="36.9943257">
    <tag k="name" v="Борисовское"/>
    <tag k="place" v="hamlet"/>
  </node>
  <node id="631923652" version="4" timestamp="2012-01-26T21:10:04Z" uid="384084" user="Kostik" changeset="10507299" lat="57.4655708" lon="36.9943257">
    <tag k="name" v="Борисовское"/>
    <tag k="place" v="hamlet"/>
  </node>
  <node id="631923667" version="3" timestamp="2010-11-24T16:28:27Z" uid="115477" user="wowik" changeset="6446894" lat="57.416705" lon="37.0168257">
    <tag k="addr:city" v="Уницкое сельское поселение"/>
    <tag k="addr:country" v="RU"/>
    <tag k="addr:district" v="Кашинский район"/>
    <tag k="addr:postcode" v="171626"/>
    <tag k="addr:region" v="Тверская область"/>
    <tag k="cladr:code" v="6901201701800"/>
    <tag k="cladr:name" v="Кочемли"/>
    <tag k="cladr:suffix" v="Деревня"/>
    <tag k="name" v="Кочемли"/>
    <tag k="place" v="hamlet"/>
  </node>
  <node id="631923667" version="4" timestamp="2011-08-09T05:09:24Z" uid="297358" user="patashnik" changeset="8963467" lat="57.416705" lon="37.0168257">
    <tag k="addr:city" v="Уницкое сельское поселение"/>
    <tag k="addr:country" v="RU"/>
    <tag k="addr:district" v="Кашинский район"/>
    <tag k="addr:region" v="Тверская область"/>
    <tag k="cladr:code" v="6901201701800"/>
    <tag k="name" v="Кочемли"/>
    <tag k="place" v="hamlet"/>
  </node>
  <node id="631923675" version="2" timestamp="2010-11-30T11:47:57Z" uid="115477" user="wowik" changeset="6493767" lat="57.3500767" lon="37.1004989">
    <tag k="name" v="Горбуново"/>
    <tag k="place" v="hamlet"/>
  </node>
  <node id="631923675" version="3" timestamp="2012-01-26T21:10:42Z" uid="384084" user="Kostik" changeset="10507299" lat="57.3500767" lon="37.1004989">
    <tag k="name" v="Горбуново"/>
    <tag k="place" v="hamlet"/>
  </node>
  <node id="631923681" version="2" timestamp="2010-04-23T14:12:41Z" uid="115477" user="wowik" changeset="4503855" lat="57.3153269" lon="37.1605392">
    <tag k="name" v="Вознесенское"/>
    <tag k="place" v="hamlet"/>
  </node>
  <node id="631923681" version="3" timestamp="2010-07-14T11:26:55Z" uid="115477" user="wowik" changeset="5216075" lat="57.315327" lon="37.1605391">
    <tag k="name" v="Вознесенье"/>
    <tag k="place" v="hamlet"/>
  </node>
  <node id="631923681" version="4" timestamp="2010-07-14T11:27:35Z" uid="115477" user="wowik" changeset="5216075" lat="57.3152748" lon="37.1595361">
    <tag k="name" v="Вознесенье"/>
    <tag k="place" v="hamlet"/>
  </node>
  <node id="631923681" version="5" timestamp="2012-01-26T21:10:23Z" uid="384084" user="Kostik" changeset="10507299" lat="57.3152748" lon="37.1595361">
    <tag k="name" v="Вознесенье"/>
    <tag k="place" v="hamlet"/>
  </node>
  <node id="631923687" version="3" timestamp="2010-05-25T10:33:05Z" uid="115477" user="wowik" changeset="4802065" lat="57.3450574" lon="37.2152833">
    <tag k="addr:city" v="Славковское сельское поселение"/>
    <tag k="addr:country" v="RU"/>
    <tag k="addr:district" v="Кашинский район"/>
    <tag k="addr:postcode" v="171623"/>
    <tag k="addr:region" v="Тверская область"/>
    <tag k="cladr:code" v="6901201502000"/>
    <tag k="cladr:name" v="Маковницы"/>
    <tag k="cladr:suffix" v="Деревня"/>
    <tag k="name" v="Маковницы"/>
    <tag k="place" v="hamlet"/>
  </node>
  <node id="631923687" version="4" timestamp="2011-08-09T05:09:24Z" uid="297358" user="patashnik" changeset="8963467" lat="57.3450574" lon="37.2152833">
    <tag k="addr:city" v="Славковское сельское поселение"/>
    <tag k="addr:country" v="RU"/>
    <tag k="addr:district" v="Кашинский район"/>
    <tag k="addr:region" v="Тверская область"/>
    <tag k="cladr:code" v="6901201502000"/>
    <tag k="name" v="Маковницы"/>
    <tag k="place" v="hamlet"/>
  </node>
  <node id="631923693" version="2" timestamp="2010-04-18T20:25:25Z" uid="115477" user="wowik" changeset="4462361" lat="57.3668251" lon="37.2321911">
    <tag k="name" v="Пальцыно"/>
    <tag k="place" v="hamlet"/>
  </node>
  <node id="631923693" version="3" timestamp="2010-11-22T18:22:46Z" uid="115477" user="wowik" changeset="6432391" lat="57.3676151" lon="37.2354142">
    <tag k="alt_name" v="Пальцыно"/>
    <tag k="name" v="Пальцино"/>
    <tag k="place" v="hamlet"/>
  </node>
  <node id="631923693" version="4" timestamp="2012-01-26T21:13:09Z" uid="384084" user="Kostik" changeset="10507299" lat="57.3676151" lon="37.2354142">
    <tag k="alt_name" v="Пальцыно"/>
    <tag k="name" v="Пальцино"/>
    <tag k="place" v="hamlet"/>
  </node>
  <node id="631923698" version="2" timestamp="2010-04-23T11:30:46Z" uid="115477" user="wowik" changeset="4502725" lat="57.3215757" lon="37.1022449">
    <tag k="name" v="Спасское"/>
    <tag k="place" v="hamlet"/>
  </node>
  <node id="631923698" version="3" timestamp="2012-01-26T21:14:07Z" uid="384084" user="Kostik" changeset="10507299" lat="57.3215757" lon="37.1022449">
    <tag k="name" v="Спасское"/>
    <tag k="place" v="hamlet"/>
  </node>
  <node id="631923787" version="2" timestamp="2010-04-23T15:25:51Z" uid="115477" user="wowik" changeset="4504434" lat="57.3336222" lon="37.198917">
    <tag k="name" v="Сафронова"/>
    <tag k="place" v="hamlet"/>
  </node>
  <node id="631923787" version="3" timestamp="2010-05-25T10:23:41Z" uid="115477" user="wowik" changeset="4802065" lat="57.3348209" lon="37.1980313">
    <tag k="name" v="Сафроново"/>
    <tag k="place" v="hamlet"/>
  </node>
  <node id="631923787" version="4" timestamp="2010-07-12T16:37:41Z" uid="115477" user="wowik" changeset="5200519" lat="57.334821" lon="37.1980312">
    <tag k="name" v="Большое Софроново"/>
    <tag k="place" v="hamlet"/>
  </node>
  <node id="631923787" version="5" timestamp="2012-01-26T21:10:03Z" uid="384084" user="Kostik" changeset="10507299" lat="57.334821" lon="37.1980312">
    <tag k="name" v="Большое Софроново"/>
    <tag k="place" v="hamlet"/>
  </node>
  <node id="631924404" version="2" timestamp="2010-07-20T18:06:19Z" uid="115477" user="wowik" changeset="5272865" lat="57.4682088" lon="37.1294097">
    <tag k="name" v="Матвеевское"/>
    <tag k="place" v="hamlet"/>
  </node>
  <node id="631924404" version="3" timestamp="2012-01-26T21:12:37Z" uid="384084" user="Kostik" changeset="10507299" lat="57.4682088" lon="37.1294097">
    <tag k="name" v="Матвеевское"/>
    <tag k="place" v="hamlet"/>
  </node>
  <node id="631924487" version="3" timestamp="2011-02-01T17:08:41Z" uid="115477" user="wowik" changeset="7156686" lat="57.469551" lon="37.091357">
    <tag k="name" v="Рябиновка"/>
    <tag k="place" v="hamlet"/>
  </node>
  <node id="631924487" version="4" timestamp="2012-01-26T21:13:45Z" uid="384084" user="Kostik" changeset="10507299" lat="57.469551" lon="37.091357">
    <tag k="name" v="Рябиновка"/>
    <tag k="place" v="hamlet"/>
  </node>
  <node id="631924495" version="2" timestamp="2010-04-13T13:01:49Z" uid="115477" user="wowik" changeset="4413308" lat="57.4215941" lon="37.1545845">
    <tag k="name" v="Савцыно"/>
    <tag k="place" v="hamlet"/>
  </node>
  <node id="631924495" version="3" timestamp="2010-04-18T20:25:22Z" uid="115477" user="wowik" changeset="4462361" lat="57.4215393" lon="37.1481629">
    <tag k="name" v="Савцыно"/>
    <tag k="place" v="hamlet"/>
  </node>
  <node id="631924495" version="4" timestamp="2012-01-26T21:13:48Z" uid="384084" user="Kostik" changeset="10507299" lat="57.4215393" lon="37.1481629">
    <tag k="name" v="Савцыно"/>
    <tag k="place" v="hamlet"/>
  </node>
  <node id="631924505" version="2" timestamp="2010-04-13T13:01:49Z" uid="115477" user="wowik" changeset="4413308" lat="57.470827" lon="37.198444">
    <tag k="name" v="Ново-Веденское"/>
    <tag k="place" v="hamlet"/>
  </node>
  <node id="631924505" version="3" timestamp="2010-07-20T17:44:57Z" uid="115477" user="wowik" changeset="5272712" lat="57.4713848" lon="37.198444">
    <tag k="name" v="Ново-Веденское"/>
    <tag k="place" v="hamlet"/>
  </node>
  <node id="631924505" version="4" timestamp="2011-02-01T17:08:36Z" uid="115477" user="wowik" changeset="7156686" lat="57.4713848" lon="37.198444">
    <tag k="alt_name" v="Ново-Введенское"/>
    <tag k="name" v="Ново-Веденское"/>
    <tag k="place" v="hamlet"/>
  </node>
  <node id="631924505" version="5" timestamp="2012-01-26T21:13:00Z" uid="384084" user="Kostik" changeset="10507299" lat="57.4713848" lon="37.198444">
    <tag k="alt_name" v="Ново-Введенское"/>
    <tag k="name" v="Ново-Веденское"/>
    <tag k="place" v="hamlet"/>
  </node>
  <node id="631924595" version="2" timestamp="2010-04-18T20:25:23Z" uid="115477" user="wowik" changeset="4462361" lat="57.4142827" lon="37.2513743">
    <tag k="name" v="Бакланово"/>
    <tag k="place" v="hamlet"/>
  </node>
  <node id="631924595" version="3" timestamp="2010-07-20T19:00:59Z" uid="115477" user="wowik" changeset="5273302" lat="57.4117715" lon="37.2569226">
    <tag k="name" v="Бакланово"/>
    <tag k="place" v="hamlet"/>
  </node>
  <node id="631924595" version="4" timestamp="2012-01-26T21:09:44Z" uid="384084" user="Kostik" changeset="10507299" lat="57.4117715" lon="37.2569226">
    <tag k="name" v="Бакланово"/>
    <tag k="place" v="hamlet"/>
  </node>
  <node id="631924612" version="3" timestamp="2010-07-20T17:44:56Z" uid="115477" user="wowik" changeset="5272712" lat="57.468766" lon="37.1504829">
    <tag k="addr:city" v="Стрелихинское сельское поселение"/>
    <tag k="addr:country" v="RU"/>
    <tag k="addr:district" v="Кесовогорский район"/>
    <tag k="addr:postcode" v="171474"/>
    <tag k="addr:region" v="Тверская область"/>
    <tag k="cladr:code" v="6901300300200"/>
    <tag k="cladr:name" v="Стрелиха"/>
    <tag k="cladr:suffix" v="Деревня"/>
    <tag k="name" v="Стрелиха"/>
    <tag k="place" v="hamlet"/>
  </node>
  <node id="631924612" version="4" timestamp="2010-07-20T18:06:20Z" uid="115477" user="wowik" changeset="5272865" lat="57.4686443" lon="37.1498794">
    <tag k="addr:city" v="Стрелихинское сельское поселение"/>
    <tag k="addr:country" v="RU"/>
    <tag k="addr:district" v="Кесовогорский район"/>
    <tag k="addr:postcode" v="171474"/>
    <tag k="addr:region" v="Тверская область"/>
    <tag k="cladr:code" v="6901300300200"/>
    <tag k="cladr:name" v="Стрелиха"/>
    <tag k="cladr:suffix" v="Деревня"/>
    <tag k="name" v="Стрелиха"/>
    <tag k="place" v="hamlet"/>
  </node>
  <node id="631924612" version="5" timestamp="2011-08-09T05:09:24Z" uid="297358" user="patashnik" changeset="8963467" lat="57.4686443" lon="37.1498794">
    <tag k="addr:city" v="Стрелихинское сельское поселение"/>
    <tag k="addr:country" v="RU"/>
    <tag k="addr:district" v="Кесовогорский район"/>
    <tag k="addr:region" v="Тверская область"/>
    <tag k="cladr:code" v="6901300300200"/>
    <tag k="name" v="Стрелиха"/>
    <tag k="place" v="hamlet"/>
  </node>
  <node id="631924727" version="2" timestamp="2010-04-18T20:31:17Z" uid="115477" user="wowik" changeset="4462697" lat="57.2761137" lon="37.3315982">
    <tag k="name" v="Горлово"/>
    <tag k="place" v="hamlet"/>
  </node>
  <node id="631924727" version="3" timestamp="2010-04-18T20:41:33Z" uid="115477" user="wowik" changeset="4462697" lat="57.2753017" lon="37.3323278">
    <tag k="name" v="Горлово"/>
    <tag k="place" v="hamlet"/>
  </node>
  <node id="631924727" version="4" timestamp="2010-07-12T16:41:41Z" uid="115477" user="wowik" changeset="5200555" lat="57.2798712" lon="37.3254894">
    <tag k="name" v="Горлово"/>
    <tag k="place" v="hamlet"/>
  </node>
  <node id="631924727" version="5" timestamp="2010-11-24T19:02:10Z" uid="115477" user="wowik" changeset="6446894" lat="57.2796248" lon="37.3248458">
    <tag k="name" v="Горлово"/>
    <tag k="place" v="hamlet"/>
  </node>
  <node id="631924727" version="6" timestamp="2012-01-26T21:10:46Z" uid="384084" user="Kostik" changeset="10507299" lat="57.2796248" lon="37.3248458">
    <tag k="name" v="Горлово"/>
    <tag k="place" v="hamlet"/>
  </node>
  <node id="631925133" version="2" timestamp="2010-04-13T13:01:49Z" uid="115477" user="wowik" changeset="4413308" lat="57.2587384" lon="37.2727734">
    <tag k="name" v="Чернышёво"/>
    <tag k="place" v="hamlet"/>
  </node>
  <node id="631925133" version="3" timestamp="2010-07-12T16:41:42Z" uid="115477" user="wowik" changeset="5200555" lat="57.2575569" lon="37.2729634">
    <tag k="name" v="Чернышёво"/>
    <tag k="place" v="hamlet"/>
  </node>
  <node id="631925133" version="4" timestamp="2012-01-26T21:15:02Z" uid="384084" user="Kostik" changeset="10507299" lat="57.2575569" lon="37.2729634">
    <tag k="name" v="Чернышёво"/>
    <tag k="place" v="hamlet"/>
  </node>
  <node id="631925521" version="2" timestamp="2010-04-18T18:35:31Z" uid="115477" user="wowik" changeset="4461195" lat="57.3072845" lon="37.309637">
    <tag k="name" v="Старово"/>
    <tag k="place" v="hamlet"/>
  </node>
  <node id="631925521" version="3" timestamp="2010-07-12T16:41:39Z" uid="115477" user="wowik" changeset="5200555" lat="57.3081053" lon="37.3088772">
    <tag k="name" v="Старово"/>
    <tag k="place" v="hamlet"/>
  </node>
  <node id="631925521" version="4" timestamp="2012-01-26T21:14:12Z" uid="384084" user="Kostik" changeset="10507299" lat="57.3081053" lon="37.3088772">
    <tag k="name" v="Старово"/>
    <tag k="place" v="hamlet"/>
  </node>
  <node id="631925538" version="3" timestamp="2010-11-30T11:32:51Z" uid="115477" user="wowik" changeset="6493649" lat="57.2621422" lon="37.3171013">
    <tag k="addr:city" v="Булатовское сельское поселение"/>
    <tag k="addr:country" v="RU"/>
    <tag k="addr:district" v="Кашинский район"/>
    <tag k="addr:postcode" v="171621"/>
    <tag k="addr:region" v="Тверская область"/>
    <tag k="cladr:code" v="6901200301900"/>
    <tag k="cladr:name" v="Студеное Поле"/>
    <tag k="cladr:suffix" v="Деревня"/>
    <tag k="name" v="Студёное Поле"/>
    <tag k="place" v="hamlet"/>
  </node>
  <node id="631925538" version="4" timestamp="2011-08-09T05:09:24Z" uid="297358" user="patashnik" changeset="8963467" lat="57.2621422" lon="37.3171013">
    <tag k="addr:city" v="Булатовское сельское поселение"/>
    <tag k="addr:country" v="RU"/>
    <tag k="addr:district" v="Кашинский район"/>
    <tag k="addr:region" v="Тверская область"/>
    <tag k="cladr:code" v="6901200301900"/>
    <tag k="name" v="Студёное Поле"/>
    <tag k="place" v="hamlet"/>
  </node>
  <node id="631925558" version="2" timestamp="2010-04-18T18:57:46Z" uid="115477" user="wowik" changeset="4461195" lat="57.2723589" lon="37.3862409">
    <tag k="name" v="Семёновское"/>
    <tag k="place" v="hamlet"/>
  </node>
  <node id="631925558" version="3" timestamp="2012-01-26T21:13:55Z" uid="384084" user="Kostik" changeset="10507299" lat="57.2723589" lon="37.3862409">
    <tag k="name" v="Семёновское"/>
    <tag k="place" v="hamlet"/>
  </node>
  <node id="631925590" version="3" timestamp="2010-04-18T20:40:30Z" uid="115477" user="wowik" changeset="4462697" lat="57.2952252" lon="37.3776035">
    <tag k="addr:city" v="Булатовское сельское поселение"/>
    <tag k="addr:country" v="RU"/>
    <tag k="addr:district" v="Кашинский район"/>
    <tag k="addr:postcode" v="171621"/>
    <tag k="addr:region" v="Тверская область"/>
    <tag k="cladr:code" v="6901200304300"/>
    <tag k="cladr:name" v="Скриплево"/>
    <tag k="cladr:suffix" v="Деревня"/>
    <tag k="name" v="Скриплево"/>
    <tag k="place" v="hamlet"/>
  </node>
  <node id="631925590" version="4" timestamp="2010-04-18T20:46:37Z" uid="115477" user="wowik" changeset="4462697" lat="57.2947151" lon="37.3774318">
    <tag k="addr:city" v="Булатовское сельское поселение"/>
    <tag k="addr:country" v="RU"/>
    <tag k="addr:district" v="Кашинский район"/>
    <tag k="addr:postcode" v="171621"/>
    <tag k="addr:region" v="Тверская область"/>
    <tag k="cladr:code" v="6901200304300"/>
    <tag k="cladr:name" v="Скриплево"/>
    <tag k="cladr:suffix" v="Деревня"/>
    <tag k="name" v="Скриплево"/>
    <tag k="place" v="hamlet"/>
  </node>
  <node id="631925590" version="5" timestamp="2010-04-23T14:33:17Z" uid="115477" user="wowik" changeset="4504065" lat="57.2837228" lon="37.3387233">
    <tag k="addr:city" v="Булатовское сельское поселение"/>
    <tag k="addr:country" v="RU"/>
    <tag k="addr:district" v="Кашинский район"/>
    <tag k="addr:postcode" v="171621"/>
    <tag k="addr:region" v="Тверская область"/>
    <tag k="cladr:code" v="6901200304300"/>
    <tag k="cladr:name" v="Скриплево"/>
    <tag k="cladr:suffix" v="Деревня"/>
    <tag k="name" v="Скриплево"/>
    <tag k="place" v="hamlet"/>
  </node>
  <node id="631925590" version="6" timestamp="2010-04-28T14:46:49Z" uid="115477" user="wowik" changeset="4550146" lat="57.2933787" lon="37.3774659">
    <tag k="addr:city" v="Булатовское сельское поселение"/>
    <tag k="addr:country" v="RU"/>
    <tag k="addr:district" v="Кашинский район"/>
    <tag k="addr:postcode" v="171621"/>
    <tag k="addr:region" v="Тверская область"/>
    <tag k="cladr:code" v="6901200304300"/>
    <tag k="cladr:name" v="Скриплево"/>
    <tag k="cladr:suffix" v="Деревня"/>
    <tag k="name" v="Скриплево"/>
    <tag k="place" v="hamlet"/>
  </node>
  <node id="631925590" version="7" timestamp="2011-08-09T05:09:24Z" uid="297358" user="patashnik" changeset="8963467" lat="57.2933787" lon="37.3774659">
    <tag k="addr:city" v="Булатовское сельское поселение"/>
    <tag k="addr:country" v="RU"/>
    <tag k="addr:district" v="Кашинский район"/>
    <tag k="addr:region" v="Тверская область"/>
    <tag k="cladr:code" v="6901200304300"/>
    <tag k="name" v="Скриплево"/>
    <tag k="place" v="hamlet"/>
  </node>
  <node id="631925598" version="3" timestamp="2010-04-18T20:48:49Z" uid="115477" user="wowik" changeset="4462697" lat="57.2528138" lon="37.4790554">
    <tag k="addr:city" v="Булатовское сельское поселение"/>
    <tag k="addr:country" v="RU"/>
    <tag k="addr:district" v="Кашинский район"/>
    <tag k="addr:postcode" v="171628"/>
    <tag k="addr:region" v="Тверская область"/>
    <tag k="cladr:code" v="6901200302200"/>
    <tag k="cladr:name" v="Башвино"/>
    <tag k="cladr:suffix" v="Деревня"/>
    <tag k="name" v="Башвино"/>
    <tag k="place" v="hamlet"/>
  </node>
  <node id="631925598" version="4" timestamp="2011-08-09T05:09:27Z" uid="297358" user="patashnik" changeset="8963467" lat="57.2528138" lon="37.4790554">
    <tag k="addr:city" v="Булатовское сельское поселение"/>
    <tag k="addr:country" v="RU"/>
    <tag k="addr:district" v="Кашинский район"/>
    <tag k="addr:region" v="Тверская область"/>
    <tag k="cladr:code" v="6901200302200"/>
    <tag k="name" v="Башвино"/>
    <tag k="place" v="hamlet"/>
  </node>
  <node id="631925607" version="2" timestamp="2010-07-12T16:48:48Z" uid="115477" user="wowik" changeset="5200629" lat="57.3019241" lon="37.4658597">
    <tag k="name" v="Лежнёво"/>
    <tag k="place" v="hamlet"/>
  </node>
  <node id="631925607" version="3" timestamp="2012-01-26T21:12:17Z" uid="384084" user="Kostik" changeset="10507299" lat="57.3019241" lon="37.4658597">
    <tag k="name" v="Лежнёво"/>
    <tag k="place" v="hamlet"/>
  </node>
  <node id="631925614" version="3" timestamp="2010-11-22T17:44:13Z" uid="115477" user="wowik" changeset="6432391" lat="57.3506781" lon="37.3595023">
    <tag k="addr:city" v="Булатовское сельское поселение"/>
    <tag k="addr:country" v="RU"/>
    <tag k="addr:district" v="Кашинский район"/>
    <tag k="addr:postcode" v="171605"/>
    <tag k="addr:region" v="Тверская область"/>
    <tag k="cladr:code" v="6901200302500"/>
    <tag k="cladr:name" v="Верезино"/>
    <tag k="cladr:suffix" v="Деревня"/>
    <tag k="name" v="Верезино"/>
    <tag k="place" v="hamlet"/>
  </node>
  <node id="631925614" version="4" timestamp="2011-08-09T05:09:27Z" uid="297358" user="patashnik" changeset="8963467" lat="57.3506781" lon="37.3595023">
    <tag k="addr:city" v="Булатовское сельское поселение"/>
    <tag k="addr:country" v="RU"/>
    <tag k="addr:district" v="Кашинский район"/>
    <tag k="addr:region" v="Тверская область"/>
    <tag k="cladr:code" v="6901200302500"/>
    <tag k="name" v="Верезино"/>
    <tag k="place" v="hamlet"/>
  </node>
  <node id="631925623" version="2" timestamp="2010-07-12T16:48:49Z" uid="115477" user="wowik" changeset="5200629" lat="57.3098143" lon="37.3598286">
    <tag k="name" v="Борщёво"/>
    <tag k="place" v="hamlet"/>
  </node>
  <node id="631925623" version="3" timestamp="2012-01-26T21:10:05Z" uid="384084" user="Kostik" changeset="10507299" lat="57.3098143" lon="37.3598286">
    <tag k="name" v="Борщёво"/>
    <tag k="place" v="hamlet"/>
  </node>
  <node id="631925639" version="3" timestamp="2010-04-18T17:09:07Z" uid="115477" user="wowik" changeset="4460163" lat="57.3096372" lon="37.3716752">
    <tag k="addr:city" v="Булатовское сельское поселение"/>
    <tag k="addr:country" v="RU"/>
    <tag k="addr:district" v="Кашинский район"/>
    <tag k="addr:postcode" v="171621"/>
    <tag k="addr:region" v="Тверская область"/>
    <tag k="cladr:code" v="6901200302600"/>
    <tag k="cladr:name" v="Зобнино"/>
    <tag k="cladr:suffix" v="Деревня"/>
    <tag k="name" v="Зобнино"/>
    <tag k="place" v="hamlet"/>
  </node>
  <node id="631925639" version="4" timestamp="2010-04-18T20:31:17Z" uid="115477" user="wowik" changeset="4462697" lat="57.307049" lon="37.3691921">
    <tag k="addr:city" v="Булатовское сельское поселение"/>
    <tag k="addr:country" v="RU"/>
    <tag k="addr:district" v="Кашинский район"/>
    <tag k="addr:postcode" v="171621"/>
    <tag k="addr:region" v="Тверская область"/>
    <tag k="cladr:code" v="6901200302600"/>
    <tag k="cladr:name" v="Зобнино"/>
    <tag k="cladr:suffix" v="Деревня"/>
    <tag k="name" v="Зобнино"/>
    <tag k="place" v="hamlet"/>
  </node>
  <node id="631925639" version="5" timestamp="2010-04-18T20:44:23Z" uid="115477" user="wowik" changeset="4462697" lat="57.3063999" lon="37.3693638">
    <tag k="addr:city" v="Булатовское сельское поселение"/>
    <tag k="addr:country" v="RU"/>
    <tag k="addr:district" v="Кашинский район"/>
    <tag k="addr:postcode" v="171621"/>
    <tag k="addr:region" v="Тверская область"/>
    <tag k="cladr:code" v="6901200302600"/>
    <tag k="cladr:name" v="Зобнино"/>
    <tag k="cladr:suffix" v="Деревня"/>
    <tag k="name" v="Зобнино"/>
    <tag k="place" v="hamlet"/>
  </node>
  <node id="631925639" version="6" timestamp="2010-05-25T10:23:42Z" uid="115477" user="wowik" changeset="4802065" lat="57.3058098" lon="37.3688344">
    <tag k="addr:city" v="Булатовское сельское поселение"/>
    <tag k="addr:country" v="RU"/>
    <tag k="addr:district" v="Кашинский район"/>
    <tag k="addr:postcode" v="171621"/>
    <tag k="addr:region" v="Тверская область"/>
    <tag k="cladr:code" v="6901200302600"/>
    <tag k="cladr:name" v="Зобнино"/>
    <tag k="cladr:suffix" v="Деревня"/>
    <tag k="name" v="Зобнино"/>
    <tag k="place" v="hamlet"/>
  </node>
  <node id="631925639" version="7" timestamp="2010-07-12T16:48:49Z" uid="115477" user="wowik" changeset="5200629" lat="57.3093393" lon="37.3714368">
    <tag k="addr:city" v="Булатовское сельское поселение"/>
    <tag k="addr:country" v="RU"/>
    <tag k="addr:district" v="Кашинский район"/>
    <tag k="addr:postcode" v="171621"/>
    <tag k="addr:region" v="Тверская область"/>
    <tag k="cladr:code" v="6901200302600"/>
    <tag k="cladr:name" v="Зобнино"/>
    <tag k="cladr:suffix" v="Деревня"/>
    <tag k="name" v="Зобнино"/>
    <tag k="place" v="hamlet"/>
  </node>
  <node id="631925639" version="8" timestamp="2011-08-09T05:09:27Z" uid="297358" user="patashnik" changeset="8963467" lat="57.3093393" lon="37.3714368">
    <tag k="addr:city" v="Булатовское сельское поселение"/>
    <tag k="addr:country" v="RU"/>
    <tag k="addr:district" v="Кашинский район"/>
    <tag k="addr:region" v="Тверская область"/>
    <tag k="cladr:code" v="6901200302600"/>
    <tag k="name" v="Зобнино"/>
    <tag k="place" v="hamlet"/>
  </node>
  <node id="631925650" version="3" timestamp="2010-07-14T15:34:26Z" uid="115477" user="wowik" changeset="5217843" lat="57.4330902" lon="37.3723812">
    <tag k="addr:city" v="Давыдовское сельское поселение"/>
    <tag k="addr:country" v="RU"/>
    <tag k="addr:district" v="Кашинский район"/>
    <tag k="addr:postcode" v="171611"/>
    <tag k="addr:region" v="Тверская область"/>
    <tag k="cladr:code" v="6901200701200"/>
    <tag k="cladr:name" v="Салтыково"/>
    <tag k="cladr:suffix" v="Село"/>
    <tag k="name" v="Салтыково"/>
    <tag k="place" v="hamlet"/>
  </node>
  <node id="631925650" version="4" timestamp="2010-07-19T15:49:29Z" uid="115477" user="wowik" changeset="5262226" lat="57.4311603" lon="37.3714481">
    <tag k="addr:city" v="Давыдовское сельское поселение"/>
    <tag k="addr:country" v="RU"/>
    <tag k="addr:district" v="Кашинский район"/>
    <tag k="addr:postcode" v="171611"/>
    <tag k="addr:region" v="Тверская область"/>
    <tag k="cladr:code" v="6901200701200"/>
    <tag k="cladr:name" v="Салтыково"/>
    <tag k="cladr:suffix" v="Село"/>
    <tag k="name" v="Салтыково"/>
    <tag k="place" v="hamlet"/>
  </node>
  <node id="631925650" version="5" timestamp="2011-08-09T05:09:27Z" uid="297358" user="patashnik" changeset="8963467" lat="57.4311603" lon="37.3714481">
    <tag k="addr:city" v="Давыдовское сельское поселение"/>
    <tag k="addr:country" v="RU"/>
    <tag k="addr:district" v="Кашинский район"/>
    <tag k="addr:region" v="Тверская область"/>
    <tag k="cladr:code" v="6901200701200"/>
    <tag k="name" v="Салтыково"/>
    <tag k="place" v="hamlet"/>
  </node>
  <node id="631925660" version="2" timestamp="2010-11-24T17:00:55Z" uid="115477" user="wowik" changeset="6446894" lat="57.4025" lon="37.3213066">
    <tag k="name" v="Давыдово"/>
    <tag k="place" v="hamlet"/>
  </node>
  <node id="631925660" version="3" timestamp="2010-11-24T18:33:47Z" uid="115477" user="wowik" changeset="6446894" lat="57.4023266" lon="37.3210492">
    <tag k="name" v="Давыдово"/>
    <tag k="place" v="hamlet"/>
  </node>
  <node id="631925660" version="4" timestamp="2012-01-26T21:10:53Z" uid="384084" user="Kostik" changeset="10507299" lat="57.4023266" lon="37.3210492">
    <tag k="name" v="Давыдово"/>
    <tag k="place" v="hamlet"/>
  </node>
  <node id="631925672" version="3" timestamp="2010-07-19T15:49:29Z" uid="115477" user="wowik" changeset="5262226" lat="57.4282725" lon="37.374066">
    <tag k="addr:city" v="Давыдовское сельское поселение"/>
    <tag k="addr:country" v="RU"/>
    <tag k="addr:district" v="Кашинский район"/>
    <tag k="addr:postcode" v="171611"/>
    <tag k="addr:region" v="Тверская область"/>
    <tag k="cladr:code" v="6901200700700"/>
    <tag k="cladr:name" v="Лисова Слобода"/>
    <tag k="cladr:suffix" v="Деревня"/>
    <tag k="name" v="Лисова Слобода"/>
    <tag k="place" v="hamlet"/>
  </node>
  <node id="631925672" version="4" timestamp="2010-11-24T18:37:58Z" uid="115477" user="wowik" changeset="6446894" lat="57.4280469" lon="37.3741498">
    <tag k="addr:city" v="Давыдовское сельское поселение"/>
    <tag k="addr:country" v="RU"/>
    <tag k="addr:district" v="Кашинский район"/>
    <tag k="addr:postcode" v="171611"/>
    <tag k="addr:region" v="Тверская область"/>
    <tag k="cladr:code" v="6901200700700"/>
    <tag k="cladr:name" v="Лисова Слобода"/>
    <tag k="cladr:suffix" v="Деревня"/>
    <tag k="name" v="Лисова Слобода"/>
    <tag k="place" v="hamlet"/>
  </node>
  <node id="631925672" version="5" timestamp="2011-08-09T05:09:28Z" uid="297358" user="patashnik" changeset="8963467" lat="57.4280469" lon="37.3741498">
    <tag k="addr:city" v="Давыдовское сельское поселение"/>
    <tag k="addr:country" v="RU"/>
    <tag k="addr:district" v="Кашинский район"/>
    <tag k="addr:region" v="Тверская область"/>
    <tag k="cladr:code" v="6901200700700"/>
    <tag k="name" v="Лисова Слобода"/>
    <tag k="place" v="hamlet"/>
  </node>
  <node id="631925680" version="3" timestamp="2010-04-13T12:55:12Z" uid="115477" user="wowik" changeset="4413308" lat="57.387841" lon="37.4602276">
    <tag k="addr:city" v="Давыдовское сельское поселение"/>
    <tag k="addr:country" v="RU"/>
    <tag k="addr:district" v="Кашинский район"/>
    <tag k="addr:postcode" v="171610"/>
    <tag k="addr:region" v="Тверская область"/>
    <tag k="cladr:code" v="6901200702500"/>
    <tag k="cladr:name" v="Лобково"/>
    <tag k="cladr:suffix" v="Деревня"/>
    <tag k="name" v="Лобково"/>
    <tag k="place" v="hamlet"/>
  </node>
  <node id="631925680" version="4" timestamp="2011-08-09T05:09:28Z" uid="297358" user="patashnik" changeset="8963467" lat="57.387841" lon="37.4602276">
    <tag k="addr:city" v="Давыдовское сельское поселение"/>
    <tag k="addr:country" v="RU"/>
    <tag k="addr:district" v="Кашинский район"/>
    <tag k="addr:region" v="Тверская область"/>
    <tag k="cladr:code" v="6901200702500"/>
    <tag k="name" v="Лобково"/>
    <tag k="place" v="hamlet"/>
  </node>
  <node id="631925686" version="3" timestamp="2010-07-14T15:06:14Z" uid="115477" user="wowik" changeset="5217641" lat="57.4514264" lon="37.4438694">
    <tag k="addr:city" v="Давыдовское сельское поселение"/>
    <tag k="addr:country" v="RU"/>
    <tag k="addr:district" v="Кашинский район"/>
    <tag k="addr:postcode" v="171611"/>
    <tag k="addr:region" v="Тверская область"/>
    <tag k="cladr:code" v="6901200700200"/>
    <tag k="cladr:name" v="Ванчугово"/>
    <tag k="cladr:suffix" v="Деревня"/>
    <tag k="name" v="Ванчугово"/>
    <tag k="place" v="hamlet"/>
  </node>
  <node id="631925686" version="4" timestamp="2010-07-14T15:34:28Z" uid="115477" user="wowik" changeset="5217843" lat="57.4515477" lon="37.4416138">
    <tag k="addr:city" v="Давыдовское сельское поселение"/>
    <tag k="addr:country" v="RU"/>
    <tag k="addr:district" v="Кашинский район"/>
    <tag k="addr:postcode" v="171611"/>
    <tag k="addr:region" v="Тверская область"/>
    <tag k="cladr:code" v="6901200700200"/>
    <tag k="cladr:name" v="Ванчугово"/>
    <tag k="cladr:suffix" v="Деревня"/>
    <tag k="name" v="Ванчугово"/>
    <tag k="place" v="hamlet"/>
  </node>
  <node id="631925686" version="5" timestamp="2011-08-09T05:09:28Z" uid="297358" user="patashnik" changeset="8963467" lat="57.4515477" lon="37.4416138">
    <tag k="addr:city" v="Давыдовское сельское поселение"/>
    <tag k="addr:country" v="RU"/>
    <tag k="addr:district" v="Кашинский район"/>
    <tag k="addr:region" v="Тверская область"/>
    <tag k="cladr:code" v="6901200700200"/>
    <tag k="name" v="Ванчугово"/>
    <tag k="place" v="hamlet"/>
  </node>
  <node id="631925694" version="3" timestamp="2010-07-21T10:47:41Z" uid="115477" user="wowik" changeset="5277811" lat="57.4920099" lon="37.3855895">
    <tag k="addr:city" v="Елисеевское сельское поселение"/>
    <tag k="addr:country" v="RU"/>
    <tag k="addr:district" v="Кесовогорский район"/>
    <tag k="addr:postcode" v="171470"/>
    <tag k="addr:region" v="Тверская область"/>
    <tag k="cladr:code" v="6901300402200"/>
    <tag k="cladr:name" v="Большое Воробьево"/>
    <tag k="cladr:suffix" v="Деревня"/>
    <tag k="name" v="Большое Воробьёво"/>
    <tag k="place" v="hamlet"/>
  </node>
  <node id="631925694" version="4" timestamp="2011-08-09T05:09:28Z" uid="297358" user="patashnik" changeset="8963467" lat="57.4920099" lon="37.3855895">
    <tag k="addr:city" v="Елисеевское сельское поселение"/>
    <tag k="addr:country" v="RU"/>
    <tag k="addr:district" v="Кесовогорский район"/>
    <tag k="addr:region" v="Тверская область"/>
    <tag k="cladr:code" v="6901300402200"/>
    <tag k="name" v="Большое Воробьёво"/>
    <tag k="place" v="hamlet"/>
  </node>
  <node id="631927891" version="2" timestamp="2010-02-14T01:52:06Z" uid="23543" user="jkjk" changeset="3870096" lat="48.640535" lon="17.3673073"/>
  <node id="631922691" version="5" timestamp="2012-07-20T08:53:17Z" uid="722137" user="OSMF Redaction Account" changeset="12369074" lat="57.25" lon="36.616667">
    <tag k="addr:city" v="Ильгощинский сельский округ"/>
    <tag k="addr:country" v="RU"/>
    <tag k="addr:district" v="Рамешковский район"/>
    <tag k="addr:region" v="Тверская область"/>
    <tag k="cladr:code" v="6902600203900"/>
    <tag k="name" v="Сенино"/>
    <tag k="place" v="hamlet"/>
  </node>
  <node id="631923339" version="4" timestamp="2012-07-20T08:52:23Z" uid="722137" user="OSMF Redaction Account" changeset="12369044" lat="57.3" lon="36.783333">
    <tag k="name" v="Новое"/>
    <tag k="place" v="hamlet"/>
  </node>
  <node id="631923341" version="4" timestamp="2012-07-20T11:51:52Z" uid="722137" user="OSMF Redaction Account" changeset="12374311" lat="57.250833" lon="37.045833">
    <tag k="name" v="Лосево"/>
    <tag k="place" v="hamlet"/>
  </node>
  <node id="631923341" version="5" timestamp="2012-07-30T05:20:49Z" uid="127606" user="loir" changeset="12543229" lat="57.2503148" lon="37.0399007">
    <tag k="name" v="Лосево"/>
    <tag k="place" v="hamlet"/>
  </node>
  <node id="631923349" version="4" timestamp="2012-07-20T11:49:44Z" uid="722137" user="OSMF Redaction Account" changeset="12374163" lat="57.283333" lon="37.15">
    <tag k="name" v="Козлово"/>
    <tag k="place" v="hamlet"/>
  </node>
  <node id="631923443" version="5" timestamp="2012-07-20T08:52:24Z" uid="722137" user="OSMF Redaction Account" changeset="12369044" lat="57.333333" lon="36.8">
    <tag k="addr:city" v="Верхнетроицкое сельское поселение"/>
    <tag k="addr:country" v="RU"/>
    <tag k="addr:district" v="Кашинский район"/>
    <tag k="addr:region" v="Тверская область"/>
    <tag k="cladr:code" v="6901200500200"/>
    <tag k="name" v="Большие Сетки"/>
    <tag k="place" v="hamlet"/>
  </node>
  <node id="631923444" version="5" timestamp="2012-07-20T08:52:10Z" uid="722137" user="OSMF Redaction Account" changeset="12369041" lat="57.333333" lon="36.816667">
    <tag k="addr:city" v="Верхнетроицкое сельское поселение"/>
    <tag k="addr:country" v="RU"/>
    <tag k="addr:district" v="Кашинский район"/>
    <tag k="addr:region" v="Тверская область"/>
    <tag k="cladr:code" v="6901200501100"/>
    <tag k="name" v="Малые Сетки"/>
    <tag k="place" v="hamlet"/>
  </node>
  <node id="631923445" version="5" timestamp="2012-07-20T08:52:51Z" uid="722137" user="OSMF Redaction Account" changeset="12369061" lat="57.361111" lon="36.749167">
    <tag k="addr:city" v="Киверичский сельский округ"/>
    <tag k="addr:country" v="RU"/>
    <tag k="addr:district" v="Рамешковский район"/>
    <tag k="addr:region" v="Тверская область"/>
    <tag k="cladr:code" v="6902601601800"/>
    <tag k="name" v="Крутец"/>
    <tag k="place" v="hamlet"/>
  </node>
  <node id="631923627" version="5" timestamp="2012-07-20T08:51:38Z" uid="722137" user="OSMF Redaction Account" changeset="12369028" lat="57.35" lon="36.916667">
    <tag k="addr:city" v="Верхнетроицкое сельское поселение"/>
    <tag k="addr:country" v="RU"/>
    <tag k="addr:district" v="Кашинский район"/>
    <tag k="addr:region" v="Тверская область"/>
    <tag k="cladr:code" v="6901200502900"/>
    <tag k="name" v="Ройга"/>
    <tag k="place" v="hamlet"/>
  </node>
  <node id="631923638" version="5" timestamp="2012-07-20T08:50:30Z" uid="722137" user="OSMF Redaction Account" changeset="12369018" lat="57.383333" lon="36.916667">
    <tag k="name" v="Теребатунь"/>
    <tag k="place" v="hamlet"/>
  </node>
  <node id="631923643" version="5" timestamp="2012-07-20T11:51:52Z" uid="722137" user="OSMF Redaction Account" changeset="12374311" lat="57.342778" lon="37.040833">
    <tag k="name" v="Славково"/>
    <tag k="place" v="hamlet"/>
  </node>
  <node id="631923648" version="5" timestamp="2012-07-20T11:51:20Z" uid="722137" user="OSMF Redaction Account" changeset="12374287" lat="57.35" lon="37.083333">
    <tag k="name" v="Чернятино"/>
    <tag k="place" v="hamlet"/>
  </node>
  <node id="631923652" version="5" timestamp="2012-07-20T08:50:12Z" uid="722137" user="OSMF Redaction Account" changeset="12369011" lat="57.463889" lon="36.996389">
    <tag k="name" v="Борисовское"/>
    <tag k="place" v="hamlet"/>
  </node>
  <node id="631923667" version="5" timestamp="2012-07-20T11:50:45Z" uid="722137" user="OSMF Redaction Account" changeset="12374251" lat="57.416667" lon="37.016667">
    <tag k="addr:city" v="Уницкое сельское поселение"/>
    <tag k="addr:country" v="RU"/>
    <tag k="addr:district" v="Кашинский район"/>
    <tag k="addr:region" v="Тверская область"/>
    <tag k="cladr:code" v="6901201701800"/>
    <tag k="name" v="Кочемли"/>
    <tag k="place" v="hamlet"/>
  </node>
  <node id="631923675" version="4" timestamp="2012-07-20T11:51:20Z" uid="722137" user="OSMF Redaction Account" changeset="12374287" lat="57.35" lon="37.1">
    <tag k="name" v="Горбуново"/>
    <tag k="place" v="hamlet"/>
  </node>
  <node id="631923681" version="6" timestamp="2012-07-20T11:49:44Z" uid="722137" user="OSMF Redaction Account" changeset="12374163" lat="57.316667" lon="37.166667">
    <tag k="name" v="Вознесенское"/>
    <tag k="place" v="hamlet"/>
  </node>
  <node id="631923687" version="5" timestamp="2012-07-20T11:48:39Z" uid="722137" user="OSMF Redaction Account" changeset="12374085" lat="57.345556" lon="37.211944">
    <tag k="addr:city" v="Славковское сельское поселение"/>
    <tag k="addr:country" v="RU"/>
    <tag k="addr:district" v="Кашинский район"/>
    <tag k="addr:region" v="Тверская область"/>
    <tag k="cladr:code" v="6901201502000"/>
    <tag k="name" v="Маковницы"/>
    <tag k="place" v="hamlet"/>
  </node>
  <node id="631923693" version="5" timestamp="2012-07-20T11:48:40Z" uid="722137" user="OSMF Redaction Account" changeset="12374085" lat="57.366667" lon="37.233333">
    <tag k="name" v="Пальцыно"/>
    <tag k="place" v="hamlet"/>
  </node>
  <node id="631923698" version="4" timestamp="2012-07-20T11:51:20Z" uid="722137" user="OSMF Redaction Account" changeset="12374287" lat="57.321944" lon="37.108333">
    <tag k="name" v="Спасское"/>
    <tag k="place" v="hamlet"/>
  </node>
  <node id="631923787" version="6" timestamp="2012-07-20T11:48:39Z" uid="722137" user="OSMF Redaction Account" changeset="12374085" lat="57.333333" lon="37.2">
    <tag k="name" v="Сафронова"/>
    <tag k="place" v="hamlet"/>
  </node>
  <node id="631924404" version="4" timestamp="2012-07-20T11:48:11Z" uid="722137" user="OSMF Redaction Account" changeset="12374053" lat="57.466667" lon="37.133333">
    <tag k="name" v="Матвеевское"/>
    <tag k="place" v="hamlet"/>
  </node>
  <node id="631924487" version="5" timestamp="2012-07-20T11:50:24Z" uid="722137" user="OSMF Redaction Account" changeset="12374217" lat="57.4702745" lon="37.0902217">
    <tag k="name" v="Рябиновка"/>
    <tag k="place" v="hamlet"/>
  </node>
  <node id="631924495" version="5" timestamp="2012-07-20T11:48:11Z" uid="722137" user="OSMF Redaction Account" changeset="12374053" lat="57.420833" lon="37.155">
    <tag k="name" v="Савцыно"/>
    <tag k="place" v="hamlet"/>
  </node>
  <node id="631924505" version="6" timestamp="2012-07-20T11:47:39Z" uid="722137" user="OSMF Redaction Account" changeset="12374014" lat="57.466667" lon="37.2">
    <tag k="name" v="Ново-Веденское"/>
    <tag k="place" v="hamlet"/>
  </node>
  <node id="631924505" version="7" timestamp="2012-07-29T19:09:31Z" uid="127606" user="loir" changeset="12539130" lat="57.4710471" lon="37.200781">
    <tag k="name" v="Ново-Веденское"/>
    <tag k="place" v="hamlet"/>
  </node>
  <node id="631924595" version="5" timestamp="2012-07-20T11:42:32Z" uid="722137" user="OSMF Redaction Account" changeset="12373782" lat="57.416667" lon="37.25">
    <tag k="name" v="Бакланово"/>
    <tag k="place" v="hamlet"/>
  </node>
  <node id="631924612" version="6" timestamp="2012-07-20T11:48:11Z" uid="722137" user="OSMF Redaction Account" changeset="12374053" lat="57.468056" lon="37.154444">
    <tag k="addr:city" v="Стрелихинское сельское поселение"/>
    <tag k="addr:country" v="RU"/>
    <tag k="addr:district" v="Кесовогорский район"/>
    <tag k="addr:region" v="Тверская область"/>
    <tag k="cladr:code" v="6901300300200"/>
    <tag k="name" v="Стрелиха"/>
    <tag k="place" v="hamlet"/>
  </node>
  <node id="631924727" version="7" timestamp="2012-07-20T11:43:26Z" uid="722137" user="OSMF Redaction Account" changeset="12373849" lat="57.283333" lon="37.333333">
    <tag k="name" v="Горлово"/>
    <tag k="place" v="hamlet"/>
  </node>
  <node id="631925133" version="5" timestamp="2012-07-20T11:45:22Z" uid="722137" user="OSMF Redaction Account" changeset="12373934" lat="57.266667" lon="37.266667">
    <tag k="name" v="Чернышёво"/>
    <tag k="place" v="hamlet"/>
  </node>
  <node id="631925521" version="5" timestamp="2012-07-20T11:45:22Z" uid="722137" user="OSMF Redaction Account" changeset="12373934" lat="57.3" lon="37.316667">
    <tag k="name" v="Старово"/>
    <tag k="place" v="hamlet"/>
  </node>
  <node id="631925538" version="5" timestamp="2012-07-20T11:43:26Z" uid="722137" user="OSMF Redaction Account" changeset="12373849" lat="57.262222" lon="37.317222">
    <tag k="addr:city" v="Булатовское сельское поселение"/>
    <tag k="addr:country" v="RU"/>
    <tag k="addr:district" v="Кашинский район"/>
    <tag k="addr:region" v="Тверская область"/>
    <tag k="cladr:code" v="6901200301900"/>
    <tag k="name" v="Студёное Поле"/>
    <tag k="place" v="hamlet"/>
  </node>
  <node id="631925558" version="4" timestamp="2012-07-20T11:40:57Z" uid="722137" user="OSMF Redaction Account" changeset="12373707" lat="57.266667" lon="37.383333">
    <tag k="name" v="Семёновское"/>
    <tag k="place" v="hamlet"/>
  </node>
  <node id="631925590" version="8" timestamp="2012-07-20T11:40:57Z" uid="722137" user="OSMF Redaction Account" changeset="12373707" lat="57.3" lon="37.383333">
    <tag k="addr:city" v="Булатовское сельское поселение"/>
    <tag k="addr:country" v="RU"/>
    <tag k="addr:district" v="Кашинский район"/>
    <tag k="addr:region" v="Тверская область"/>
    <tag k="cladr:code" v="6901200304300"/>
    <tag k="name" v="Скриплево"/>
    <tag k="place" v="hamlet"/>
  </node>
  <node id="631925598" version="5" timestamp="2012-07-20T11:40:01Z" uid="722137" user="OSMF Redaction Account" changeset="12373667" lat="57.253611" lon="37.480556">
    <tag k="addr:city" v="Булатовское сельское поселение"/>
    <tag k="addr:country" v="RU"/>
    <tag k="addr:district" v="Кашинский район"/>
    <tag k="addr:region" v="Тверская область"/>
    <tag k="cladr:code" v="6901200302200"/>
    <tag k="name" v="Башвино"/>
    <tag k="place" v="hamlet"/>
  </node>
  <node id="631925607" version="4" timestamp="2012-07-20T11:40:01Z" uid="722137" user="OSMF Redaction Account" changeset="12373667" lat="57.3" lon="37.466667">
    <tag k="name" v="Лежнёво"/>
    <tag k="place" v="hamlet"/>
  </node>
  <node id="631925614" version="5" timestamp="2012-07-20T11:43:27Z" uid="722137" user="OSMF Redaction Account" changeset="12373849" lat="57.35" lon="37.366667">
    <tag k="addr:city" v="Булатовское сельское поселение"/>
    <tag k="addr:country" v="RU"/>
    <tag k="addr:district" v="Кашинский район"/>
    <tag k="addr:region" v="Тверская область"/>
    <tag k="cladr:code" v="6901200302500"/>
    <tag k="name" v="Верезино"/>
    <tag k="place" v="hamlet"/>
  </node>
  <node id="631925623" version="4" timestamp="2012-07-20T11:43:26Z" uid="722137" user="OSMF Redaction Account" changeset="12373849" lat="57.316667" lon="37.366667">
    <tag k="name" v="Борщёво"/>
    <tag k="place" v="hamlet"/>
  </node>
  <node id="631925639" version="9" timestamp="2012-07-20T11:43:26Z" uid="722137" user="OSMF Redaction Account" changeset="12373849" lat="57.309722" lon="37.369167">
    <tag k="addr:city" v="Булатовское сельское поселение"/>
    <tag k="addr:country" v="RU"/>
    <tag k="addr:district" v="Кашинский район"/>
    <tag k="addr:region" v="Тверская область"/>
    <tag k="cladr:code" v="6901200302600"/>
    <tag k="name" v="Зобнино"/>
    <tag k="place" v="hamlet"/>
  </node>
  <node id="631925650" version="6" timestamp="2012-07-20T11:42:02Z" uid="722137" user="OSMF Redaction Account" changeset="12373750" lat="57.433333" lon="37.366667">
    <tag k="addr:city" v="Давыдовское сельское поселение"/>
    <tag k="addr:country" v="RU"/>
    <tag k="addr:district" v="Кашинский район"/>
    <tag k="addr:region" v="Тверская область"/>
    <tag k="cladr:code" v="6901200701200"/>
    <tag k="name" v="Салтыково"/>
    <tag k="place" v="hamlet"/>
  </node>
  <node id="631925660" version="5" timestamp="2012-07-20T11:42:02Z" uid="722137" user="OSMF Redaction Account" changeset="12373750" lat="57.4025" lon="37.321667">
    <tag k="name" v="Давыдово"/>
    <tag k="place" v="hamlet"/>
  </node>
  <node id="631925672" version="6" timestamp="2012-07-20T11:42:02Z" uid="722137" user="OSMF Redaction Account" changeset="12373750" lat="57.428333" lon="37.375833">
    <tag k="addr:city" v="Давыдовское сельское поселение"/>
    <tag k="addr:country" v="RU"/>
    <tag k="addr:district" v="Кашинский район"/>
    <tag k="addr:region" v="Тверская область"/>
    <tag k="cladr:code" v="6901200700700"/>
    <tag k="name" v="Лисова Слобода"/>
    <tag k="place" v="hamlet"/>
  </node>
  <node id="631925680" version="5" timestamp="2012-07-20T11:37:52Z" uid="722137" user="OSMF Redaction Account" changeset="12373591" lat="57.388611" lon="37.462222">
    <tag k="addr:city" v="Давыдовское сельское поселение"/>
    <tag k="addr:country" v="RU"/>
    <tag k="addr:district" v="Кашинский район"/>
    <tag k="addr:region" v="Тверская область"/>
    <tag k="cladr:code" v="6901200702500"/>
    <tag k="name" v="Лобково"/>
    <tag k="place" v="hamlet"/>
  </node>
  <node id="631925686" version="6" timestamp="2012-07-20T11:37:53Z" uid="722137" user="OSMF Redaction Account" changeset="12373591" lat="57.45" lon="37.45">
    <tag k="addr:city" v="Давыдовское сельское поселение"/>
    <tag k="addr:country" v="RU"/>
    <tag k="addr:district" v="Кашинский район"/>
    <tag k="addr:region" v="Тверская область"/>
    <tag k="cladr:code" v="6901200700200"/>
    <tag k="name" v="Ванчугово"/>
    <tag k="place" v="hamlet"/>
  </node>
  <node id="631925694" version="5" timestamp="2012-07-20T11:39:27Z" uid="722137" user="OSMF Redaction Account" changeset="12373640" lat="57.4925" lon="37.383889">
    <tag k="addr:city" v="Елисеевское сельское поселение"/>
    <tag k="addr:country" v="RU"/>
    <tag k="addr:district" v="Кесовогорский район"/>
    <tag k="addr:region" v="Тверская область"/>
    <tag k="cladr:code" v="6901300402200"/>
    <tag k="name" v="Большое Воробьёво"/>
    <tag k="place" v="hamlet"/>
  </node>
  <node id="631927891" version="3" timestamp="2012-07-17T04:56:10Z" uid="722137" user="OSMF Redaction Account" changeset="12257233" lat="48.640535" lon="17.3674997"/>
  <node id="631927891" version="4" timestamp="2012-07-22T12:07:35Z" uid="152074" user="beweta" changeset="12431646" lat="48.6405385" lon="17.3672994"/>
</osm>
