<?xml version='1.0' encoding='UTF-8'?>
<osm version="0.6" generator="libosmium/2.20.0">
  <node id="63253652" version="4" timestamp="2008-08-14T22:23:08Z" uid="6975" user="ulfl" changeset="264731" lat="52.4986196" lon="13.2984875">
    <tag k="amenity" v="restaurant"/>
    <tag k="cuisine" v="greek"/>
    <tag k="name" v="Ach!NikO!Ach!"/>
    <tag k="wlan" v="yes"/>
  </node>
  <node id="63253652" version="5" timestamp="2009-02-10T17:37:17Z" uid="86504" user="Thomas8122" changeset="324364" lat="52.4986242" lon="13.2984825">
    <tag k="amenity" v="restaurant"/>
    <tag k="created_by" v="Potlatch 0.10f"/>
    <tag k="cuisine" v="greek"/>
    <tag k="internet_access" v="wlan"/>
    <tag k="name" v="Ach!NikO!Ach!"/>
  </node>
  <node id="63253652" version="6" timestamp="2009-04-30T18:38:43Z" uid="74224" user="gkai" changeset="1029299" lat="52.4985764" lon="13.2982244">
    <tag k="amenity" v="restaurant"/>
    <tag k="created_by" v="Potlatch 0.10f"/>
    <tag k="cuisine" v="greek"/>
    <tag k="internet_access" v="wlan"/>
    <tag k="name" v="Ach!NikO!Ach!"/>
  </node>
  <node id="63253652" version="7" timestamp="2009-06-28T15:12:51Z" uid="12982" user="Michael Schulze" changeset="1664644" lat="52.4986022" lon="13.2980859">
    <tag k="addr:city" v="Berlin"/>
    <tag k="addr:country" v="DE"/>
    <tag k="addr:housenumber" v="97-98"/>
    <tag k="addr:postcode" v="10711"/>
    <tag k="addr:street" v="Kurfürstendamm"/>
    <tag k="amenity" v="restaurant"/>
    <tag k="cuisine" v="greek"/>
    <tag k="internet_access" v="wlan"/>
    <tag k="name" v="Ach!NikO!Ach!"/>
  </node>
  <node id="63253652" version="8" timestamp="2009-10-25T19:19:58Z" uid="6669" user="Elwood" changeset="2949958" lat="52.4986022" lon="13.2980859">
    <tag k="addr:city" v="Berlin"/>
    <tag k="addr:country" v="DE"/>
    <tag k="addr:housenumber" v="97-98"/>
    <tag k="addr:postcode" v="10709"/>
    <tag k="addr:street" v="Kurfürstendamm"/>
    <tag k="amenity" v="restaurant"/>
    <tag k="cuisine" v="greek"/>
    <tag k="internet_access" v="wlan"/>
    <tag k="name" v="Ach!NikO!Ach!"/>
  </node>
  <node id="63253652" version="9" timestamp="2011-05-30T21:41:38Z" uid="74224" user="gkai" changeset="8296909" lat="52.4985865" lon="13.2981522">
    <tag k="addr:city" v="Berlin"/>
    <tag k="addr:country" v="DE"/>
    <tag k="addr:housenumber" v="97-98"/>
    <tag k="addr:postcode" v="10709"/>
    <tag k="addr:street" v="Kurfürstendamm"/>
    <tag k="amenity" v="restaurant"/>
    <tag k="cuisine" v="greek"/>
    <tag k="internet_access" v="wlan"/>
    <tag k="name" v="Ach!NikO!Ach!"/>
  </node>
  <node id="63253652" version="10" timestamp="2011-07-17T12:52:21Z" uid="290680" user="wheelmap_visitor" changeset="8744696" lat="52.4985865" lon="13.2981522">
    <tag k="addr:city" v="Berlin"/>
    <tag k="addr:country" v="DE"/>
    <tag k="addr:housenumber" v="97-98"/>
    <tag k="addr:postcode" v="10709"/>
    <tag k="addr:street" v="Kurfürstendamm"/>
    <tag k="amenity" v="restaurant"/>
    <tag k="cuisine" v="greek"/>
    <tag k="internet_access" v="wlan"/>
    <tag k="name" v="Ach!NikO!Ach!"/>
    <tag k="wheelchair" v="no"/>
  </node>
  <node id="63253652" version="11" timestamp="2011-10-02T13:22:28Z" uid="6669" user="Elwood" changeset="9450681" lat="52.4985699" lon="13.2982643">
    <tag k="addr:city" v="Berlin"/>
    <tag k="addr:country" v="DE"/>
    <tag k="addr:housenumber" v="97-98"/>
    <tag k="addr:postcode" v="10709"/>
    <tag k="addr:street" v="Kurfürstendamm"/>
    <tag k="amenity" v="restaurant"/>
    <tag k="cuisine" v="greek"/>
    <tag k="internet_access" v="wlan"/>
    <tag k="name" v="Ach!NikO!Ach!"/>
    <tag k="wheelchair" v="no"/>
  </node>
  <node id="63253659" version="3" timestamp="2008-08-14T22:23:08Z" uid="6975" user="ulfl" changeset="264731" lat="52.4986642" lon="13.2987637">
    <tag k="amenity" v="restaurant"/>
    <tag k="cuisine" v="greek"/>
    <tag k="name" v="Taverna Makis"/>
  </node>
  <node id="63253659" version="4" timestamp="2009-02-14T18:21:17Z" uid="74224" user="gkai" changeset="426295" lat="52.4986642" lon="13.2987637">
    <tag k="amenity" v="restaurant"/>
    <tag k="cuisine" v="greek"/>
    <tag k="name" v="Taverna Makis"/>
  </node>
  <node id="63255076" version="2" timestamp="2008-02-16T20:18:05Z" uid="6975" user="ulfl" changeset="141861" lat="46.7133593" lon="-92.1041826">
    <tag k="highway" v="traffic_signals"/>
  </node>
  <node id="63255083" version="2" timestamp="2008-02-16T20:18:06Z" uid="6975" user="ulfl" changeset="141861" lat="46.706188" lon="-92.1039986">
    <tag k="highway" v="traffic_signals"/>
  </node>
  <node id="63255083" version="3" timestamp="2011-08-25T19:15:05Z" uid="69864" user="Ivan Komarov" changeset="9124048" lat="46.706188" lon="-92.1039986"/>
</osm>
