<?xml version='1.0' encoding='UTF-8'?>
<osm version="0.6" generator="libosmium/2.20.0">
  <node id="632766228" version="1" timestamp="2010-02-07T20:09:20Z" uid="8619" user="cetest" changeset="3818400" lat="18.545547" lon="-72.345683">
    <tag k="amenity" v="radio or tv station"/>
    <tag k="man_made" v="tower"/>
    <tag k="name" v="TV Stations Nationale"/>
    <tag k="pid" v="p205"/>
    <tag k="tower:type" v="communication"/>
  </node>
  <node id="632766231" version="1" timestamp="2010-02-07T20:09:21Z" uid="8619" user="cetest" changeset="3818400" lat="18.534763" lon="-72.321486">
    <tag k="amenity" v="radio or tv station"/>
    <tag k="man_made" v="tower"/>
    <tag k="name" v="National NGO Reporters Without Borders"/>
    <tag k="pid" v="p195"/>
    <tag k="tower:type" v="communication"/>
  </node>
  <node id="632766231" version="2" timestamp="2010-02-12T10:33:39Z" uid="57884" user="EdLoach" changeset="3855033" lat="18.5347859" lon="-72.3215324">
    <tag k="amenity" v="radio or tv station"/>
    <tag k="man_made" v="tower"/>
    <tag k="name" v="National NGO Reporters Without Borders"/>
    <tag k="pid" v="p195"/>
    <tag k="tower:type" v="communication"/>
  </node>
  <node id="632766231" version="3" timestamp="2010-02-18T00:34:04Z" uid="79857" user="RDSantiago" changeset="3905927" lat="18.5347859" lon="-72.3215324">
    <tag k="addr:country" v="HT"/>
    <tag k="amenity" v="radio or tv station"/>
    <tag k="man_made" v="tower"/>
    <tag k="name" v="National NGO Reporters Without Borders"/>
    <tag k="pid" v="p195"/>
    <tag k="tower:type" v="communication"/>
  </node>
  <node id="632766231" version="4" timestamp="2011-08-29T21:27:48Z" uid="24440" user="jaakkoh" changeset="9162330" lat="18.5347859" lon="-72.3215324">
    <tag k="FIXME" v="to survey if stilll exists, see note2"/>
    <tag k="addr:country" v="HT"/>
    <tag k="amenity" v="radio or tv station"/>
    <tag k="man_made" v="tower"/>
    <tag k="name" v="National NGO Reporters Without Borders"/>
    <tag k="note2" v="Moved up to Bourdon? JaakkoH knows place. To survey."/>
    <tag k="pid" v="p195"/>
    <tag k="tower:type" v="communication"/>
  </node>
  <node id="632766234" version="1" timestamp="2010-02-07T20:09:21Z" uid="8619" user="cetest" changeset="3818400" lat="18.534294" lon="-72.312849">
    <tag k="amenity" v="radio or tv station"/>
    <tag k="man_made" v="tower"/>
    <tag k="name" v="SAKS"/>
    <tag k="pid" v="p197"/>
    <tag k="tower:type" v="communication"/>
  </node>
  <node id="632766234" version="2" timestamp="2010-02-12T10:33:40Z" uid="57884" user="EdLoach" changeset="3855033" lat="18.53429" lon="-72.3128715">
    <tag k="amenity" v="radio or tv station"/>
    <tag k="man_made" v="tower"/>
    <tag k="name" v="SAKS"/>
    <tag k="pid" v="p197"/>
    <tag k="tower:type" v="communication"/>
  </node>
  <node id="632766234" version="3" timestamp="2010-02-18T00:34:05Z" uid="79857" user="RDSantiago" changeset="3905927" lat="18.53429" lon="-72.3128715">
    <tag k="addr:country" v="HT"/>
    <tag k="amenity" v="radio or tv station"/>
    <tag k="man_made" v="tower"/>
    <tag k="name" v="SAKS"/>
    <tag k="pid" v="p197"/>
    <tag k="tower:type" v="communication"/>
  </node>
  <node id="632766237" version="1" timestamp="2010-02-07T20:09:21Z" uid="8619" user="cetest" changeset="3818400" lat="20.052684" lon="-72.799837">
    <tag k="adress" v="Pagne Ile de la Tortue"/>
    <tag k="amenity" v="radio or tv station"/>
    <tag k="man_made" v="tower"/>
    <tag k="name" v="Voix Evang�lique de la Tortue"/>
    <tag k="pid" v="p182"/>
    <tag k="tower:type" v="communication"/>
  </node>
  <node id="632766237" version="2" timestamp="2010-02-07T20:10:00Z" uid="8619" user="cetest" changeset="3818403" lat="20.052684" lon="-72.799837">
    <tag k="adress" v="Pagne Ile de la Tortue"/>
    <tag k="amenity" v="radio or tv station"/>
    <tag k="man_made" v="tower"/>
    <tag k="name" v="Voix Evangélique de la Tortue"/>
    <tag k="pid" v="p182"/>
    <tag k="tower:type" v="communication"/>
  </node>
  <node id="632766237" version="4" timestamp="2010-02-11T13:11:50Z" uid="57884" user="EdLoach" changeset="3848256" lat="20.0526847" lon="-72.7998288">
    <tag k="address" v="Pagne Ile de la Tortue"/>
    <tag k="amenity" v="radio or tv station"/>
    <tag k="man_made" v="tower"/>
    <tag k="name" v="Voix Evangélique de la Tortue"/>
    <tag k="pid" v="p182"/>
    <tag k="tower:type" v="communication"/>
  </node>
  <node id="632766237" version="5" timestamp="2010-02-18T00:39:15Z" uid="79857" user="RDSantiago" changeset="3905927" lat="20.0526847" lon="-72.7998288">
    <tag k="addr:country" v="HT"/>
    <tag k="address" v="Pagne Ile de la Tortue"/>
    <tag k="amenity" v="radio or tv station"/>
    <tag k="man_made" v="tower"/>
    <tag k="name" v="Voix Evangélique de la Tortue"/>
    <tag k="pid" v="p182"/>
    <tag k="tower:type" v="communication"/>
  </node>
  <node id="632766239" version="1" timestamp="2010-02-07T20:09:21Z" uid="8619" user="cetest" changeset="3818400" lat="18.431238" lon="-72.866897">
    <tag k="amenity" v="radio or tv station"/>
    <tag k="man_made" v="tower"/>
    <tag k="name" v="Community Station Vision Plus"/>
    <tag k="pid" v="p227"/>
    <tag k="tower:type" v="communication"/>
  </node>
  <node id="632766239" version="2" timestamp="2010-02-18T00:31:22Z" uid="79857" user="RDSantiago" changeset="3905927" lat="18.431238" lon="-72.866897">
    <tag k="addr:country" v="HT"/>
    <tag k="amenity" v="radio or tv station"/>
    <tag k="man_made" v="tower"/>
    <tag k="name" v="Community Station Vision Plus"/>
    <tag k="pid" v="p227"/>
    <tag k="tower:type" v="communication"/>
  </node>
  <node id="632766242" version="1" timestamp="2010-02-07T20:09:21Z" uid="8619" user="cetest" changeset="3818400" lat="18.545885" lon="-72.303327">
    <tag k="amenity" v="radio or tv station"/>
    <tag k="man_made" v="tower"/>
    <tag k="name" v="Print Media Groupe Media alternatif"/>
    <tag k="pid" v="p198"/>
    <tag k="tower:type" v="communication"/>
  </node>
  <node id="632766242" version="2" timestamp="2010-02-12T10:34:56Z" uid="57884" user="EdLoach" changeset="3855044" lat="18.5458641" lon="-72.3033376">
    <tag k="amenity" v="radio or tv station"/>
    <tag k="man_made" v="tower"/>
    <tag k="name" v="Print Media Groupe Media alternatif"/>
    <tag k="pid" v="p198"/>
    <tag k="tower:type" v="communication"/>
  </node>
  <node id="632766242" version="3" timestamp="2010-02-18T00:34:54Z" uid="79857" user="RDSantiago" changeset="3905927" lat="18.5458641" lon="-72.3033376">
    <tag k="addr:country" v="HT"/>
    <tag k="amenity" v="radio or tv station"/>
    <tag k="man_made" v="tower"/>
    <tag k="name" v="Print Media Groupe Media alternatif"/>
    <tag k="pid" v="p198"/>
    <tag k="tower:type" v="communication"/>
  </node>
  <node id="632766231" version="5" timestamp="2012-07-21T16:45:55Z" uid="722137" user="OSMF Redaction Account" changeset="12415110" lat="18.5347859" lon="-72.3215324">
    <tag k="addr:country" v="HT"/>
    <tag k="FIXME" v="to survey if stilll exists, see note2"/>
    <tag k="note2" v="Moved up to Bourdon? JaakkoH knows place. To survey."/>
  </node>
  <node id="632766234" version="4" timestamp="2012-07-21T16:45:55Z" uid="722137" user="OSMF Redaction Account" changeset="12415110" lat="18.53429" lon="-72.3128715">
    <tag k="addr:country" v="HT"/>
  </node>
  <node id="632766237" version="6" timestamp="2012-05-06T22:19:04Z" uid="613808" user="Hmasterdm" changeset="11523863" lat="20.0525327" lon="-72.7999151">
    <tag k="addr:country" v="HT"/>
    <tag k="address" v="Pagne Ile de la Tortue"/>
    <tag k="amenity" v="radio or tv station"/>
    <tag k="man_made" v="tower"/>
    <tag k="name" v="Voix Evangélique de la Tortue"/>
    <tag k="pid" v="p182"/>
    <tag k="tower:type" v="communication"/>
  </node>
  <node id="632766237" version="7" timestamp="2012-07-21T15:11:33Z" uid="722137" user="OSMF Redaction Account" changeset="12412995" lat="20.0525327" lon="-72.7999151">
    <tag k="addr:country" v="HT"/>
  </node>
  <node id="632766239" version="3" timestamp="2012-07-21T18:21:59Z" uid="722137" user="OSMF Redaction Account" changeset="12417087" lat="18.431238" lon="-72.866897"/>
  <node id="632766242" version="4" timestamp="2012-07-21T16:23:29Z" uid="722137" user="OSMF Redaction Account" changeset="12414578" lat="18.5458641" lon="-72.3033376">
    <tag k="addr:country" v="HT"/>
  </node>
</osm>
