<?xml version='1.0' encoding='UTF-8'?>
<osm version="0.6" generator="libosmium/2.20.0">
  <node id="634461561" version="1" timestamp="2010-02-09T18:41:30Z" uid="8619" user="cetest" changeset="3834763" lat="19.1687667" lon="-72.1761832">
    <tag k="ele" v="339"/>
    <tag k="natural" v="peak"/>
  </node>
  <node id="634461563" version="1" timestamp="2010-02-09T18:41:31Z" uid="8619" user="cetest" changeset="3834763" lat="19.1789266" lon="-72.174883">
    <tag k="ele" v="315"/>
    <tag k="natural" v="peak"/>
  </node>
  <node id="634461567" version="1" timestamp="2010-02-09T18:41:31Z" uid="8619" user="cetest" changeset="3834763" lat="19.1735955" lon="-72.1845462">
    <tag k="name" v="Céverine"/>
    <tag k="place" v="locality"/>
  </node>
  <node id="634461567" version="2" timestamp="2010-02-18T00:37:56Z" uid="79857" user="RDSantiago" changeset="3905927" lat="19.1735955" lon="-72.1845462">
    <tag k="addr:country" v="HT"/>
    <tag k="name" v="Céverine"/>
    <tag k="place" v="locality"/>
  </node>
  <node id="634461569" version="1" timestamp="2010-02-09T18:41:31Z" uid="8619" user="cetest" changeset="3834763" lat="19.1851507" lon="-72.2007698">
    <tag k="ele" v="304"/>
    <tag k="natural" v="peak"/>
  </node>
  <node id="634461571" version="1" timestamp="2010-02-09T18:41:31Z" uid="8619" user="cetest" changeset="3834763" lat="19.1767217" lon="-72.2115265">
    <tag k="name" v="Fond Piquant"/>
    <tag k="place" v="locality"/>
  </node>
  <node id="634461571" version="2" timestamp="2010-02-18T00:37:56Z" uid="79857" user="RDSantiago" changeset="3905927" lat="19.1767217" lon="-72.2115265">
    <tag k="addr:country" v="HT"/>
    <tag k="name" v="Fond Piquant"/>
    <tag k="place" v="locality"/>
  </node>
  <node id="634461573" version="1" timestamp="2010-02-09T18:41:31Z" uid="8619" user="cetest" changeset="3834763" lat="19.1801826" lon="-72.1203314"/>
  <node id="634461576" version="1" timestamp="2010-02-09T18:41:31Z" uid="8619" user="cetest" changeset="3834763" lat="19.1690179" lon="-72.1453613">
    <tag k="name" v="Rio Frio"/>
    <tag k="place" v="locality"/>
  </node>
  <node id="634461576" version="2" timestamp="2010-02-18T00:37:56Z" uid="79857" user="RDSantiago" changeset="3905927" lat="19.1690179" lon="-72.1453613">
    <tag k="addr:country" v="HT"/>
    <tag k="name" v="Rio Frio"/>
    <tag k="place" v="locality"/>
  </node>
  <node id="634461578" version="1" timestamp="2010-02-09T18:41:31Z" uid="8619" user="cetest" changeset="3834763" lat="19.1814107" lon="-72.1451249">
    <tag k="ele" v="269"/>
    <tag k="natural" v="peak"/>
  </node>
  <node id="634461579" version="1" timestamp="2010-02-09T18:41:31Z" uid="8619" user="cetest" changeset="3834763" lat="19.1875789" lon="-72.1533697">
    <tag k="name" v="Parlain"/>
    <tag k="place" v="locality"/>
  </node>
  <node id="634461579" version="2" timestamp="2010-02-18T00:37:57Z" uid="79857" user="RDSantiago" changeset="3905927" lat="19.1875789" lon="-72.1533697">
    <tag k="addr:country" v="HT"/>
    <tag k="name" v="Parlain"/>
    <tag k="place" v="locality"/>
  </node>
  <node id="634461580" version="1" timestamp="2010-02-09T18:41:31Z" uid="8619" user="cetest" changeset="3834763" lat="19.1762193" lon="-72.1055262">
    <tag k="ele" v="270"/>
    <tag k="natural" v="peak"/>
  </node>
  <node id="634461581" version="1" timestamp="2010-02-09T18:41:31Z" uid="8619" user="cetest" changeset="3834763" lat="19.1701623" lon="-72.0586875">
    <tag k="name" v="Jasmin"/>
    <tag k="place" v="locality"/>
  </node>
  <node id="634461581" version="3" timestamp="2010-02-15T21:08:35Z" uid="12982" user="Michael Schulze" changeset="3886990" lat="19.1658456" lon="-72.0568119">
    <tag k="name" v="Jasmin"/>
    <tag k="place" v="hamlet"/>
    <tag k="source" v="http://maps.nypl.org/relief/maps/249"/>
  </node>
  <node id="634461581" version="4" timestamp="2010-02-18T00:38:10Z" uid="79857" user="RDSantiago" changeset="3905927" lat="19.1658456" lon="-72.0568119">
    <tag k="addr:country" v="HT"/>
    <tag k="name" v="Jasmin"/>
    <tag k="place" v="hamlet"/>
    <tag k="source" v="http://maps.nypl.org/relief/maps/249"/>
  </node>
  <node id="634461582" version="1" timestamp="2010-02-09T18:41:31Z" uid="8619" user="cetest" changeset="3834763" lat="19.1813828" lon="-72.0680552">
    <tag k="ele" v="267"/>
    <tag k="natural" v="peak"/>
  </node>
  <node id="634461583" version="1" timestamp="2010-02-09T18:41:31Z" uid="8619" user="cetest" changeset="3834763" lat="19.1722837" lon="-72.039952">
    <tag k="name" v="Hatte Pére"/>
    <tag k="place" v="locality"/>
  </node>
  <node id="634461583" version="3" timestamp="2010-02-18T00:38:10Z" uid="79857" user="RDSantiago" changeset="3905927" lat="19.1722837" lon="-72.039952">
    <tag k="addr:country" v="HT"/>
    <tag k="name" v="Hatte Pére"/>
    <tag k="place" v="hamlet"/>
  </node>
  <node id="634461586" version="1" timestamp="2010-02-09T18:41:32Z" uid="8619" user="cetest" changeset="3834763" lat="19.1721162" lon="-72.0253832">
    <tag k="ele" v="275"/>
    <tag k="natural" v="peak"/>
  </node>
  <node id="634461589" version="1" timestamp="2010-02-09T18:41:32Z" uid="8619" user="cetest" changeset="3834763" lat="19.1874114" lon="-71.9861392">
    <tag k="ele" v="330"/>
    <tag k="natural" v="peak"/>
  </node>
  <node id="634461591" version="1" timestamp="2010-02-09T18:41:32Z" uid="8619" user="cetest" changeset="3834763" lat="19.1824155" lon="-71.9937339">
    <tag k="name" v="Mac Bonite"/>
    <tag k="place" v="locality"/>
  </node>
  <node id="634461591" version="2" timestamp="2010-02-18T00:38:10Z" uid="79857" user="RDSantiago" changeset="3905927" lat="19.1824155" lon="-71.9937339">
    <tag k="addr:country" v="HT"/>
    <tag k="name" v="Mac Bonite"/>
    <tag k="place" v="locality"/>
  </node>
  <node id="634461594" version="1" timestamp="2010-02-09T18:41:32Z" uid="8619" user="cetest" changeset="3834763" lat="19.1886952" lon="-72.021187">
    <tag k="name" v="Began Nabé"/>
    <tag k="place" v="locality"/>
  </node>
  <node id="634461594" version="3" timestamp="2010-02-18T00:38:10Z" uid="79857" user="RDSantiago" changeset="3905927" lat="19.188496" lon="-72.0214331">
    <tag k="addr:country" v="HT"/>
    <tag k="name" v="Bégannabe"/>
    <tag k="place" v="hamlet"/>
    <tag k="source" v="http://maps.nypl.org/relief/maps/244"/>
  </node>
  <node id="634461596" version="1" timestamp="2010-02-09T18:41:32Z" uid="8619" user="cetest" changeset="3834763" lat="19.1904814" lon="-71.9071487">
    <tag k="ele" v="719"/>
    <tag k="natural" v="peak"/>
  </node>
  <node id="634461599" version="1" timestamp="2010-02-09T18:41:32Z" uid="8619" user="cetest" changeset="3834763" lat="19.1958957" lon="-71.9233428">
    <tag k="ele" v="666"/>
    <tag k="natural" v="peak"/>
  </node>
  <node id="634461600" version="1" timestamp="2010-02-09T18:41:32Z" uid="8619" user="cetest" changeset="3834763" lat="19.1840064" lon="-71.9432899">
    <tag k="name" v="Nan Raquette"/>
    <tag k="place" v="locality"/>
  </node>
  <node id="634461600" version="2" timestamp="2010-02-18T00:38:12Z" uid="79857" user="RDSantiago" changeset="3905927" lat="19.1840064" lon="-71.9432899">
    <tag k="addr:country" v="HT"/>
    <tag k="name" v="Nan Raquette"/>
    <tag k="place" v="locality"/>
  </node>
  <node id="634461601" version="1" timestamp="2010-02-09T18:41:32Z" uid="8619" user="cetest" changeset="3834763" lat="19.1817456" lon="-71.9550218">
    <tag k="name" v="Grande Savane"/>
    <tag k="place" v="locality"/>
  </node>
  <node id="634461601" version="2" timestamp="2010-02-18T00:38:12Z" uid="79857" user="RDSantiago" changeset="3905927" lat="19.1817456" lon="-71.9550218">
    <tag k="addr:country" v="HT"/>
    <tag k="name" v="Grande Savane"/>
    <tag k="place" v="locality"/>
  </node>
  <node id="634461602" version="1" timestamp="2010-02-09T18:41:32Z" uid="8619" user="cetest" changeset="3834763" lat="19.1774753" lon="-71.981677">
    <tag k="name" v="Platerage"/>
    <tag k="place" v="locality"/>
  </node>
  <node id="634461602" version="2" timestamp="2010-02-18T00:38:12Z" uid="79857" user="RDSantiago" changeset="3905927" lat="19.1774753" lon="-71.981677">
    <tag k="addr:country" v="HT"/>
    <tag k="name" v="Platerage"/>
    <tag k="place" v="locality"/>
  </node>
  <node id="634461603" version="1" timestamp="2010-02-09T18:41:32Z" uid="8619" user="cetest" changeset="3834763" lat="19.192156" lon="-71.8159832">
    <tag k="name" v="Carosi"/>
    <tag k="place" v="locality"/>
  </node>
  <node id="634461603" version="3" timestamp="2010-02-18T00:38:16Z" uid="79857" user="RDSantiago" changeset="3905927" lat="19.1930336" lon="-71.813295">
    <tag k="addr:country" v="HT"/>
    <tag k="name" v="Coresi"/>
    <tag k="place" v="locality"/>
    <tag k="source" v="http://maps.nypl.org/relief/maps/88"/>
  </node>
  <node id="634461604" version="1" timestamp="2010-02-09T18:41:32Z" uid="8619" user="cetest" changeset="3834763" lat="19.1888627" lon="-71.8366395">
    <tag k="name" v="Victorine"/>
    <tag k="place" v="locality"/>
  </node>
  <node id="634461604" version="3" timestamp="2010-02-18T00:38:16Z" uid="79857" user="RDSantiago" changeset="3905927" lat="19.1856765" lon="-71.8334555">
    <tag k="addr:country" v="HT"/>
    <tag k="name" v="Victorine"/>
    <tag k="place" v="hamlet"/>
    <tag k="source" v="http://maps.nypl.org/relief/maps/88"/>
  </node>
  <node id="634461605" version="1" timestamp="2010-02-09T18:41:33Z" uid="8619" user="cetest" changeset="3834763" lat="19.1884999" lon="-71.8305224">
    <tag k="ele" v="475"/>
    <tag k="natural" v="peak"/>
  </node>
  <node id="634461606" version="1" timestamp="2010-02-09T18:41:33Z" uid="8619" user="cetest" changeset="3834763" lat="19.1876068" lon="-71.8524494">
    <tag k="ele" v="890"/>
    <tag k="natural" v="peak"/>
  </node>
  <node id="634461607" version="1" timestamp="2010-02-09T18:41:33Z" uid="8619" user="cetest" changeset="3834763" lat="19.2005284" lon="-71.8449434">
    <tag k="name" v="nan Charles"/>
    <tag k="place" v="locality"/>
  </node>
  <node id="634461607" version="3" timestamp="2010-02-18T00:38:16Z" uid="79857" user="RDSantiago" changeset="3905927" lat="19.2019385" lon="-71.8406585">
    <tag k="addr:country" v="HT"/>
    <tag k="name" v="Nan Charles"/>
    <tag k="place" v="locality"/>
    <tag k="source" v="http://maps.nypl.org/relief/maps/88"/>
  </node>
  <node id="634461608" version="1" timestamp="2010-02-09T18:41:33Z" uid="8619" user="cetest" changeset="3834763" lat="19.1893092" lon="-71.8828576">
    <tag k="ele" v="735"/>
    <tag k="natural" v="peak"/>
  </node>
  <node id="634461609" version="1" timestamp="2010-02-09T18:41:33Z" uid="8619" user="cetest" changeset="3834763" lat="19.2467366" lon="-71.8600736">
    <tag k="ele" v="899"/>
    <tag k="name" v="Morne Pic"/>
    <tag k="natural" v="peak"/>
  </node>
  <node id="634461610" version="1" timestamp="2010-02-09T18:41:33Z" uid="8619" user="cetest" changeset="3834763" lat="19.2043517" lon="-71.8354574">
    <tag k="ele" v="534"/>
    <tag k="natural" v="peak"/>
  </node>
  <node id="634461611" version="1" timestamp="2010-02-09T18:41:33Z" uid="8619" user="cetest" changeset="3834763" lat="19.2444153" lon="-71.8476148">
    <tag k="name" v="Herbe Guinée"/>
    <tag k="place" v="locality"/>
  </node>
  <node id="634461611" version="3" timestamp="2010-02-18T00:38:17Z" uid="79857" user="RDSantiago" changeset="3905927" lat="19.2444153" lon="-71.8476148">
    <tag k="addr:country" v="HT"/>
    <tag k="name" v="Zerbe Guinée"/>
    <tag k="place" v="hamlet"/>
    <tag k="source" v="http://maps.nypl.org/relief/maps/244"/>
  </node>
  <node id="634461612" version="1" timestamp="2010-02-09T18:41:33Z" uid="8619" user="cetest" changeset="3834763" lat="19.2324235" lon="-71.8319408">
    <tag k="name" v="Diable Aubée"/>
    <tag k="place" v="locality"/>
  </node>
  <node id="634461612" version="3" timestamp="2010-02-18T00:38:17Z" uid="79857" user="RDSantiago" changeset="3905927" lat="19.2314574" lon="-71.8287576">
    <tag k="addr:country" v="HT"/>
    <tag k="name" v="Diable Au Bé"/>
    <tag k="place" v="hamlet"/>
    <tag k="source" v="http://maps.nypl.org/relief/maps/244"/>
  </node>
  <node id="634461613" version="1" timestamp="2010-02-09T18:41:33Z" uid="8619" user="cetest" changeset="3834763" lat="19.2355485" lon="-71.8134418">
    <tag k="name" v="Sagenjau"/>
    <tag k="place" v="locality"/>
  </node>
  <node id="634461613" version="3" timestamp="2010-02-18T00:38:17Z" uid="79857" user="RDSantiago" changeset="3905927" lat="19.2355485" lon="-71.8134418">
    <tag k="addr:country" v="HT"/>
    <tag k="name" v="Sagonjou"/>
    <tag k="place" v="hamlet"/>
    <tag k="source" v="http://maps.nypl.org/relief/maps/88"/>
  </node>
  <node id="634461614" version="1" timestamp="2010-02-09T18:41:33Z" uid="8619" user="cetest" changeset="3834763" lat="19.2028168" lon="-71.7697059">
    <tag k="name" v="Pas de Rail"/>
    <tag k="place" v="locality"/>
  </node>
  <node id="634461615" version="1" timestamp="2010-02-09T18:41:33Z" uid="8619" user="cetest" changeset="3834763" lat="19.1978772" lon="-71.7806694">
    <tag k="name" v="Nan Jumeau"/>
    <tag k="place" v="locality"/>
  </node>
  <node id="634461616" version="1" timestamp="2010-02-09T18:41:33Z" uid="8619" user="cetest" changeset="3834763" lat="19.1938305" lon="-71.7648004">
    <tag k="name" v="Jean De Gros"/>
    <tag k="place" v="locality"/>
  </node>
  <node id="634461617" version="1" timestamp="2010-02-09T18:41:33Z" uid="8619" user="cetest" changeset="3834763" lat="19.1932165" lon="-71.8036308">
    <tag k="ele" v="467"/>
    <tag k="natural" v="peak"/>
  </node>
  <node id="634461618" version="1" timestamp="2010-02-09T18:41:33Z" uid="8619" user="cetest" changeset="3834763" lat="19.2147326" lon="-71.8062608">
    <tag k="ele" v="575"/>
    <tag k="natural" v="peak"/>
  </node>
  <node id="634461620" version="1" timestamp="2010-02-09T18:41:33Z" uid="8619" user="cetest" changeset="3834763" lat="19.2170487" lon="-71.796243">
    <tag k="name" v="Grand Fond"/>
    <tag k="place" v="locality"/>
  </node>
  <node id="634461622" version="1" timestamp="2010-02-09T18:41:33Z" uid="8619" user="cetest" changeset="3834763" lat="19.2265918" lon="-71.77866">
    <tag k="ele" v="655"/>
    <tag k="natural" v="peak"/>
  </node>
  <node id="634461624" version="1" timestamp="2010-02-09T18:41:33Z" uid="8619" user="cetest" changeset="3834763" lat="19.2097097" lon="-71.7793101">
    <tag k="ele" v="739"/>
    <tag k="natural" v="peak"/>
  </node>
  <node id="634461625" version="1" timestamp="2010-02-09T18:41:33Z" uid="8619" user="cetest" changeset="3834763" lat="19.2496939" lon="-71.8333002">
    <tag k="ele" v="593"/>
    <tag k="natural" v="peak"/>
  </node>
  <node id="634461626" version="1" timestamp="2010-02-09T18:41:34Z" uid="8619" user="cetest" changeset="3834763" lat="19.2508377" lon="-71.8244053">
    <tag k="name" v="Sylvestre"/>
    <tag k="place" v="locality"/>
  </node>
  <node id="634461626" version="2" timestamp="2010-02-18T00:38:18Z" uid="79857" user="RDSantiago" changeset="3905927" lat="19.2508377" lon="-71.8244053">
    <tag k="addr:country" v="HT"/>
    <tag k="name" v="Sylvestre"/>
    <tag k="place" v="locality"/>
  </node>
  <node id="634461561" version="2" timestamp="2012-07-21T14:27:04Z" uid="722137" user="OSMF Redaction Account" changeset="12411796" lat="19.1687667" lon="-72.1761832"/>
  <node id="634461563" version="2" timestamp="2012-07-21T14:27:06Z" uid="722137" user="OSMF Redaction Account" changeset="12411796" lat="19.1789266" lon="-72.174883"/>
  <node id="634461567" version="3" timestamp="2012-07-21T14:27:05Z" uid="722137" user="OSMF Redaction Account" changeset="12411796" lat="19.1735955" lon="-72.1845462"/>
  <node id="634461569" version="2" timestamp="2012-07-21T14:28:38Z" uid="722137" user="OSMF Redaction Account" changeset="12411861" lat="19.1851507" lon="-72.2007698"/>
  <node id="634461571" version="3" timestamp="2012-07-21T14:28:38Z" uid="722137" user="OSMF Redaction Account" changeset="12411861" lat="19.1767217" lon="-72.2115265"/>
  <node id="634461576" version="3" timestamp="2012-07-21T14:27:05Z" uid="722137" user="OSMF Redaction Account" changeset="12411796" lat="19.1690179" lon="-72.1453613"/>
  <node id="634461578" version="2" timestamp="2012-07-21T14:27:07Z" uid="722137" user="OSMF Redaction Account" changeset="12411796" lat="19.1814107" lon="-72.1451249"/>
  <node id="634461579" version="3" timestamp="2012-07-21T14:27:10Z" uid="722137" user="OSMF Redaction Account" changeset="12411796" lat="19.1875789" lon="-72.1533697"/>
  <node id="634461580" version="2" timestamp="2012-07-21T14:19:35Z" uid="722137" user="OSMF Redaction Account" changeset="12411592" lat="19.1762193" lon="-72.1055262"/>
  <node id="634461581" version="5" timestamp="2012-07-21T14:13:01Z" uid="722137" user="OSMF Redaction Account" changeset="12411424" lat="19.1658456" lon="-72.0568119">
    <tag k="addr:country" v="HT"/>
    <tag k="place" v="hamlet"/>
    <tag k="source" v="http://maps.nypl.org/relief/maps/249"/>
  </node>
  <node id="634461582" version="2" timestamp="2012-07-21T14:19:38Z" uid="722137" user="OSMF Redaction Account" changeset="12411592" lat="19.1813828" lon="-72.0680552"/>
  <node id="634461583" version="4" timestamp="2012-07-21T14:13:28Z" uid="722137" user="OSMF Redaction Account" changeset="12411440" lat="19.1722837" lon="-72.039952"/>
  <node id="634461586" version="2" timestamp="2012-07-21T14:13:28Z" uid="722137" user="OSMF Redaction Account" changeset="12411440" lat="19.1721162" lon="-72.0253832"/>
  <node id="634461589" version="2" timestamp="2012-07-21T19:35:16Z" uid="722137" user="OSMF Redaction Account" changeset="12418550" lat="19.1874114" lon="-71.9861392"/>
  <node id="634461591" version="3" timestamp="2012-07-21T19:35:16Z" uid="722137" user="OSMF Redaction Account" changeset="12418550" lat="19.1824155" lon="-71.9937339"/>
  <node id="634461596" version="2" timestamp="2012-07-21T19:34:34Z" uid="722137" user="OSMF Redaction Account" changeset="12418535" lat="19.1904814" lon="-71.9071487"/>
  <node id="634461599" version="2" timestamp="2012-07-21T19:34:34Z" uid="722137" user="OSMF Redaction Account" changeset="12418535" lat="19.1958957" lon="-71.9233428"/>
  <node id="634461600" version="3" timestamp="2012-07-21T19:35:16Z" uid="722137" user="OSMF Redaction Account" changeset="12418550" lat="19.1840064" lon="-71.9432899"/>
  <node id="634461601" version="3" timestamp="2012-07-21T19:35:16Z" uid="722137" user="OSMF Redaction Account" changeset="12418550" lat="19.1817456" lon="-71.9550218"/>
  <node id="634461602" version="3" timestamp="2012-07-21T19:35:16Z" uid="722137" user="OSMF Redaction Account" changeset="12418550" lat="19.1774753" lon="-71.981677"/>
  <node id="634461603" version="4" timestamp="2012-07-21T19:31:49Z" uid="722137" user="OSMF Redaction Account" changeset="12418494" lat="19.1930336" lon="-71.813295">
    <tag k="addr:country" v="HT"/>
    <tag k="source" v="http://maps.nypl.org/relief/maps/88"/>
  </node>
  <node id="634461604" version="4" timestamp="2012-07-21T19:31:49Z" uid="722137" user="OSMF Redaction Account" changeset="12418494" lat="19.1856765" lon="-71.8334555">
    <tag k="addr:country" v="HT"/>
    <tag k="place" v="hamlet"/>
    <tag k="source" v="http://maps.nypl.org/relief/maps/88"/>
  </node>
  <node id="634461605" version="2" timestamp="2012-07-21T19:31:54Z" uid="722137" user="OSMF Redaction Account" changeset="12418494" lat="19.1884999" lon="-71.8305224"/>
  <node id="634461606" version="2" timestamp="2012-07-21T19:31:54Z" uid="722137" user="OSMF Redaction Account" changeset="12418494" lat="19.1876068" lon="-71.8524494"/>
  <node id="634461607" version="4" timestamp="2012-07-21T19:31:49Z" uid="722137" user="OSMF Redaction Account" changeset="12418494" lat="19.2019385" lon="-71.8406585">
    <tag k="addr:country" v="HT"/>
    <tag k="source" v="http://maps.nypl.org/relief/maps/88"/>
  </node>
  <node id="634461607" version="5" timestamp="2012-09-10T16:32:05Z" uid="656864" user="Jean Bully" changeset="13059092" lat="19.2019385" lon="-71.8406585"/>
  <node id="634461608" version="2" timestamp="2012-07-21T19:34:33Z" uid="722137" user="OSMF Redaction Account" changeset="12418535" lat="19.1893092" lon="-71.8828576"/>
  <node id="634461609" version="3" timestamp="2012-07-21T19:31:49Z" uid="722137" user="OSMF Redaction Account" changeset="12418494" lat="19.2461975" lon="-71.8606718">
    <tag k="source" v="http://maps.nypl.org/relief/maps/88"/>
  </node>
  <node id="634461610" version="2" timestamp="2012-07-21T19:31:54Z" uid="722137" user="OSMF Redaction Account" changeset="12418494" lat="19.2043517" lon="-71.8354574"/>
  <node id="634461611" version="4" timestamp="2012-07-21T19:31:54Z" uid="722137" user="OSMF Redaction Account" changeset="12418494" lat="19.2444153" lon="-71.8476148"/>
  <node id="634461613" version="4" timestamp="2012-07-21T19:31:54Z" uid="722137" user="OSMF Redaction Account" changeset="12418494" lat="19.2355485" lon="-71.8134418"/>
  <node id="634461614" version="2" timestamp="2012-07-21T19:31:41Z" uid="722137" user="OSMF Redaction Account" changeset="12418493" lat="19.2028168" lon="-71.7697059"/>
  <node id="634461615" version="2" timestamp="2012-07-21T19:31:40Z" uid="722137" user="OSMF Redaction Account" changeset="12418493" lat="19.1978772" lon="-71.7806694"/>
  <node id="634461616" version="2" timestamp="2012-07-21T19:31:40Z" uid="722137" user="OSMF Redaction Account" changeset="12418493" lat="19.1938305" lon="-71.7648004"/>
  <node id="634461617" version="2" timestamp="2012-07-21T19:31:40Z" uid="722137" user="OSMF Redaction Account" changeset="12418493" lat="19.1932165" lon="-71.8036308"/>
  <node id="634461618" version="2" timestamp="2012-07-21T19:31:41Z" uid="722137" user="OSMF Redaction Account" changeset="12418493" lat="19.2147326" lon="-71.8062608"/>
  <node id="634461620" version="2" timestamp="2012-07-21T19:31:41Z" uid="722137" user="OSMF Redaction Account" changeset="12418493" lat="19.2170487" lon="-71.796243"/>
  <node id="634461622" version="2" timestamp="2012-07-21T19:31:41Z" uid="722137" user="OSMF Redaction Account" changeset="12418493" lat="19.2265918" lon="-71.77866"/>
  <node id="634461624" version="2" timestamp="2012-07-21T19:31:41Z" uid="722137" user="OSMF Redaction Account" changeset="12418493" lat="19.2097097" lon="-71.7793101"/>
  <node id="634461625" version="2" timestamp="2012-07-21T19:31:54Z" uid="722137" user="OSMF Redaction Account" changeset="12418494" lat="19.2496939" lon="-71.8333002"/>
  <node id="634461626" version="3" timestamp="2012-07-21T19:31:13Z" uid="722137" user="OSMF Redaction Account" changeset="12418481" lat="19.2508377" lon="-71.8244053"/>
</osm>
