<?xml version='1.0' encoding='UTF-8'?>
<osm version="0.6" generator="libosmium/2.20.0">
  <node id="634659940" version="2" timestamp="2010-04-11T11:54:45Z" uid="20587" user="balrog-kun" changeset="4392352" lat="49.6889047" lon="21.3333467">
    <tag k="name" v="Pagorzyna"/>
    <tag k="place" v="village"/>
  </node>
  <node id="634659940" version="3" timestamp="2010-04-11T13:18:33Z" uid="20587" user="balrog-kun" changeset="4392352" lat="49.6887867" lon="21.3329296">
    <tag k="name" v="Pagorzyna"/>
    <tag k="place" v="village"/>
  </node>
  <node id="634659940" version="4" timestamp="2010-04-27T04:05:37Z" uid="30632" user="antblant" changeset="4537871" lat="49.6887867" lon="21.3329296">
    <tag k="name" v="Pagorzyna"/>
    <tag k="place" v="village"/>
    <tag k="teryt:simc" v="0355996"/>
  </node>
  <node id="634659941" version="2" timestamp="2010-04-11T11:54:45Z" uid="20587" user="balrog-kun" changeset="4392352" lat="49.7369794" lon="21.3057424">
    <tag k="name" v="Grudna Kępska"/>
    <tag k="place" v="village"/>
  </node>
  <node id="634659941" version="3" timestamp="2010-04-11T13:18:33Z" uid="20587" user="balrog-kun" changeset="4392352" lat="49.7357791" lon="21.3062449">
    <tag k="name" v="Grudna Kępska"/>
    <tag k="place" v="village"/>
  </node>
  <node id="634659941" version="4" timestamp="2010-04-27T04:05:37Z" uid="30632" user="antblant" changeset="4537871" lat="49.7357791" lon="21.3062449">
    <tag k="name" v="Grudna Kępska"/>
    <tag k="place" v="village"/>
    <tag k="teryt:simc" v="0344892"/>
  </node>
  <node id="634659942" version="2" timestamp="2010-04-27T04:05:37Z" uid="30632" user="antblant" changeset="4537871" lat="49.7332989" lon="21.352806">
    <tag k="name" v="Pusta Wola"/>
    <tag k="place" v="village"/>
    <tag k="teryt:simc" v="0360253"/>
  </node>
  <node id="634659944" version="2" timestamp="2010-04-27T04:05:37Z" uid="30632" user="antblant" changeset="4537871" lat="49.6887655" lon="21.4311873">
    <tag k="name" v="Łazy Dębowieckie"/>
    <tag k="place" v="village"/>
    <tag k="teryt:simc" v="0348246"/>
  </node>
  <node id="634659946" version="2" timestamp="2010-04-27T04:02:40Z" uid="30632" user="antblant" changeset="4537862" lat="49.743757" lon="21.3633243">
    <tag k="name" v="Siedliska Sławęcińskie"/>
    <tag k="place" v="village"/>
    <tag k="teryt:simc" v="0360260"/>
  </node>
  <node id="634659947" version="2" timestamp="2010-04-11T11:54:45Z" uid="20587" user="balrog-kun" changeset="4392352" lat="49.7556181" lon="21.296292">
    <tag k="name" v="Siepietnica"/>
    <tag k="place" v="village"/>
  </node>
  <node id="634659947" version="3" timestamp="2010-04-11T13:18:33Z" uid="20587" user="balrog-kun" changeset="4392352" lat="49.7544516" lon="21.2957143">
    <tag k="name" v="Siepietnica"/>
    <tag k="place" v="village"/>
  </node>
  <node id="634659947" version="4" timestamp="2010-04-27T04:05:37Z" uid="30632" user="antblant" changeset="4537871" lat="49.7544516" lon="21.2957143">
    <tag k="name" v="Siepietnica"/>
    <tag k="place" v="village"/>
    <tag k="teryt:simc" v="0360299"/>
  </node>
  <node id="634659949" version="2" timestamp="2010-04-11T11:54:45Z" uid="20587" user="balrog-kun" changeset="4392352" lat="49.814609" lon="21.294008">
    <tag k="name" v="Czermna"/>
    <tag k="place" v="village"/>
  </node>
  <node id="634659949" version="3" timestamp="2010-04-11T13:18:33Z" uid="20587" user="balrog-kun" changeset="4392352" lat="49.8158943" lon="21.2927728">
    <tag k="name" v="Czermna"/>
    <tag k="place" v="village"/>
  </node>
  <node id="634659949" version="4" timestamp="2010-04-27T04:05:37Z" uid="30632" user="antblant" changeset="4537871" lat="49.8158943" lon="21.2927728">
    <tag k="name" v="Czermna"/>
    <tag k="place" v="village"/>
    <tag k="teryt:simc" v="0832232"/>
  </node>
  <node id="634659951" version="2" timestamp="2010-04-27T04:18:39Z" uid="30632" user="antblant" changeset="4537909" lat="49.7571411" lon="21.3896885">
    <tag k="name" v="Bączal Dolny"/>
    <tag k="place" v="village"/>
    <tag k="teryt:simc" v="0359899"/>
  </node>
  <node id="634659952" version="2" timestamp="2010-04-27T04:18:39Z" uid="30632" user="antblant" changeset="4537909" lat="49.7597545" lon="21.3987234">
    <tag k="name" v="Opacie"/>
    <tag k="place" v="village"/>
    <tag k="teryt:simc" v="0352986"/>
  </node>
  <node id="634659953" version="2" timestamp="2010-04-27T04:18:39Z" uid="30632" user="antblant" changeset="4537909" lat="49.7685521" lon="21.367708">
    <tag k="name" v="Bączal Górny"/>
    <tag k="place" v="village"/>
    <tag k="teryt:simc" v="0359920"/>
  </node>
  <node id="634659955" version="2" timestamp="2010-04-27T04:18:39Z" uid="30632" user="antblant" changeset="4537909" lat="49.7510762" lon="21.4404584">
    <tag k="name" v="Jareniówka"/>
    <tag k="place" v="village"/>
    <tag k="teryt:simc" v="0352845"/>
  </node>
  <node id="634659957" version="3" timestamp="2010-04-27T04:18:39Z" uid="30632" user="antblant" changeset="4537909" lat="49.7775554" lon="21.4150637">
    <tag k="name" v="Krajowice"/>
    <tag k="place" v="village"/>
    <tag k="teryt:simc" v="0354011"/>
  </node>
  <node id="634659959" version="2" timestamp="2010-04-27T04:18:39Z" uid="30632" user="antblant" changeset="4537909" lat="49.8100844" lon="21.3910613">
    <tag k="name" v="Jedlinki"/>
    <tag k="place" v="village"/>
    <tag k="teryt:simc" v="0896284"/>
  </node>
  <node id="634659962" version="2" timestamp="2010-04-11T11:54:45Z" uid="20587" user="balrog-kun" changeset="4392352" lat="49.6951686" lon="21.4798632">
    <tag k="name" v="Majscowa"/>
    <tag k="place" v="village"/>
  </node>
  <node id="634659962" version="3" timestamp="2010-04-11T13:18:33Z" uid="20587" user="balrog-kun" changeset="4392352" lat="49.695108" lon="21.4798345">
    <tag k="name" v="Majscowa"/>
    <tag k="place" v="village"/>
  </node>
  <node id="634659962" version="4" timestamp="2010-04-27T04:04:20Z" uid="30632" user="antblant" changeset="4537867" lat="49.695108" lon="21.4798345">
    <tag k="name" v="Majscowa"/>
    <tag k="place" v="village"/>
    <tag k="teryt:simc" v="0348269"/>
  </node>
  <node id="634659963" version="2" timestamp="2010-04-27T04:04:20Z" uid="30632" user="antblant" changeset="4537867" lat="49.7109502" lon="21.4617404">
    <tag k="name" v="Niegłowice"/>
    <tag k="place" v="village"/>
    <tag k="teryt:simc" v="0352928"/>
  </node>
  <node id="634659964" version="2" timestamp="2010-04-27T04:04:20Z" uid="30632" user="antblant" changeset="4537867" lat="49.7223156" lon="21.4898134">
    <tag k="name" v="Sobniów"/>
    <tag k="place" v="village"/>
    <tag k="teryt:simc" v="0353052"/>
  </node>
  <node id="634659965" version="2" timestamp="2010-04-11T11:54:45Z" uid="20587" user="balrog-kun" changeset="4392352" lat="49.691326" lon="21.5516198">
    <tag k="name" v="Glinik Polski"/>
    <tag k="place" v="village"/>
  </node>
  <node id="634659965" version="3" timestamp="2010-04-11T13:18:33Z" uid="20587" user="balrog-kun" changeset="4392352" lat="49.6914443" lon="21.5514397">
    <tag k="name" v="Glinik Polski"/>
    <tag k="place" v="village"/>
  </node>
  <node id="634659965" version="4" timestamp="2010-04-27T04:04:20Z" uid="30632" user="antblant" changeset="4537867" lat="49.6914443" lon="21.5514397">
    <tag k="name" v="Glinik Polski"/>
    <tag k="place" v="village"/>
    <tag k="teryt:simc" v="0360856"/>
  </node>
  <node id="634659970" version="2" timestamp="2010-04-27T04:17:23Z" uid="30632" user="antblant" changeset="4537905" lat="49.8640573" lon="21.4553115">
    <tag k="name" v="Opacionka"/>
    <tag k="place" v="village"/>
    <tag k="teryt:simc" v="0814866"/>
  </node>
  <node id="634659971" version="2" timestamp="2010-04-27T04:17:23Z" uid="30632" user="antblant" changeset="4537905" lat="49.8410637" lon="21.5425948">
    <tag k="name" v="Glinik Górny"/>
    <tag k="place" v="village"/>
    <tag k="teryt:simc" v="0649150"/>
  </node>
  <node id="634659957" version="4" timestamp="2012-07-24T12:45:03Z" uid="722137" user="OSMF Redaction Account" changeset="12465780" lat="49.7775554" lon="21.4150637"/>
</osm>
