<?xml version='1.0' encoding='UTF-8'?>
<osm version="0.6" generator="libosmium/2.20.0">
  <node id="639371545" version="3" timestamp="2011-01-27T05:11:10Z" uid="4467" user="Rosscoe" changeset="7100329" lat="-38.0310888" lon="145.3464889"/>
  <node id="639371545" version="4" timestamp="2011-04-20T12:15:11Z" uid="206929" user="Supt_of_Printing" changeset="7915647" lat="-38.0311028" lon="145.3465032"/>
  <node id="639372039" version="1" timestamp="2010-02-15T02:58:36Z" uid="230283" user="AuFCL" changeset="3880035" lat="-33.9389729" lon="151.2381858"/>
  <node id="639372040" version="1" timestamp="2010-02-15T02:58:36Z" uid="230283" user="AuFCL" changeset="3880035" lat="-33.939142" lon="151.2382126"/>
  <node id="639372041" version="1" timestamp="2010-02-15T02:58:36Z" uid="230283" user="AuFCL" changeset="3880035" lat="-33.9391776" lon="151.2384379"/>
  <node id="639372042" version="1" timestamp="2010-02-15T02:58:36Z" uid="230283" user="AuFCL" changeset="3880035" lat="-33.9389951" lon="151.2384004"/>
  <node id="639372081" version="1" timestamp="2010-02-15T03:00:41Z" uid="103576" user="DiverCTH" changeset="3879939" lat="34.985706" lon="-85.28691"/>
  <node id="639372082" version="1" timestamp="2010-02-15T03:00:41Z" uid="103576" user="DiverCTH" changeset="3879939" lat="34.985694" lon="-85.28705">
    <tag k="addr:country" v="US"/>
    <tag k="addr:county" v="Hamilton, TN"/>
    <tag k="addr:housenumber" v="2801"/>
    <tag k="addr:postcode" v="37407"/>
    <tag k="addr:state" v="Tennessee"/>
    <tag k="addr:street" v="E 50th St"/>
  </node>
  <node id="639372083" version="1" timestamp="2010-02-15T03:00:41Z" uid="103576" user="DiverCTH" changeset="3879939" lat="34.98553" lon="-85.287034">
    <tag k="addr:country" v="US"/>
    <tag k="addr:county" v="Hamilton, TN"/>
    <tag k="addr:housenumber" v="2800"/>
    <tag k="addr:postcode" v="37407"/>
    <tag k="addr:state" v="Tennessee"/>
    <tag k="addr:street" v="E 50th St"/>
  </node>
  <node id="639372084" version="1" timestamp="2010-02-15T03:00:41Z" uid="103576" user="DiverCTH" changeset="3879939" lat="34.985536" lon="-85.286902"/>
  <node id="639372085" version="1" timestamp="2010-02-15T03:00:41Z" uid="103576" user="DiverCTH" changeset="3879939" lat="34.986543" lon="-85.287607">
    <tag k="addr:country" v="US"/>
    <tag k="addr:county" v="Hamilton, TN"/>
    <tag k="addr:housenumber" v="2801"/>
    <tag k="addr:postcode" v="37407"/>
    <tag k="addr:state" v="Tennessee"/>
    <tag k="addr:street" v="E 49th St"/>
  </node>
  <node id="639372086" version="1" timestamp="2010-02-15T03:00:42Z" uid="103576" user="DiverCTH" changeset="3879939" lat="34.986642" lon="-85.287377"/>
  <node id="639372087" version="1" timestamp="2010-02-15T03:00:42Z" uid="103576" user="DiverCTH" changeset="3879939" lat="34.986565" lon="-85.287009"/>
  <node id="639372088" version="1" timestamp="2010-02-15T03:00:42Z" uid="103576" user="DiverCTH" changeset="3879939" lat="34.98654" lon="-85.287156"/>
  <node id="639372089" version="1" timestamp="2010-02-15T03:00:42Z" uid="103576" user="DiverCTH" changeset="3879939" lat="34.986496" lon="-85.287283"/>
  <node id="639372090" version="1" timestamp="2010-02-15T03:00:42Z" uid="103576" user="DiverCTH" changeset="3879939" lat="34.986397" lon="-85.287514">
    <tag k="addr:country" v="US"/>
    <tag k="addr:county" v="Hamilton, TN"/>
    <tag k="addr:housenumber" v="2800"/>
    <tag k="addr:postcode" v="37407"/>
    <tag k="addr:state" v="Tennessee"/>
    <tag k="addr:street" v="E 49th St"/>
  </node>
  <node id="639372091" version="1" timestamp="2010-02-15T03:00:42Z" uid="103576" user="DiverCTH" changeset="3879939" lat="34.9865755" lon="-85.2873559"/>
  <node id="639372092" version="1" timestamp="2010-02-15T03:00:42Z" uid="103576" user="DiverCTH" changeset="3879939" lat="34.9866292" lon="-85.2872203"/>
  <node id="639372093" version="1" timestamp="2010-02-15T03:00:42Z" uid="103576" user="DiverCTH" changeset="3879939" lat="34.986718" lon="-85.28723"/>
  <node id="639372094" version="1" timestamp="2010-02-15T03:00:42Z" uid="103576" user="DiverCTH" changeset="3879939" lat="34.986741" lon="-85.287029"/>
  <node id="639372095" version="1" timestamp="2010-02-15T03:00:42Z" uid="103576" user="DiverCTH" changeset="3879939" lat="34.9866546" lon="-85.2870255"/>
  <node id="639372096" version="1" timestamp="2010-02-15T03:00:42Z" uid="103576" user="DiverCTH" changeset="3879939" lat="34.985701" lon="-85.285528"/>
  <node id="639372097" version="1" timestamp="2010-02-15T03:00:42Z" uid="103576" user="DiverCTH" changeset="3879939" lat="34.985701" lon="-85.285609">
    <tag k="addr:country" v="US"/>
    <tag k="addr:county" v="Hamilton, TN"/>
    <tag k="addr:housenumber" v="2901"/>
    <tag k="addr:postcode" v="37407"/>
    <tag k="addr:state" v="Tennessee"/>
    <tag k="addr:street" v="E 50th St"/>
  </node>
  <node id="639372098" version="1" timestamp="2010-02-15T03:00:42Z" uid="103576" user="DiverCTH" changeset="3879939" lat="34.985537" lon="-85.285528"/>
  <node id="639372099" version="1" timestamp="2010-02-15T03:00:42Z" uid="103576" user="DiverCTH" changeset="3879939" lat="34.985537" lon="-85.285609">
    <tag k="addr:country" v="US"/>
    <tag k="addr:county" v="Hamilton, TN"/>
    <tag k="addr:housenumber" v="2900"/>
    <tag k="addr:postcode" v="37407"/>
    <tag k="addr:state" v="Tennessee"/>
    <tag k="addr:street" v="E 50th St"/>
  </node>
  <node id="639372100" version="1" timestamp="2010-02-15T03:00:42Z" uid="103576" user="DiverCTH" changeset="3879939" lat="34.985702" lon="-85.286045"/>
  <node id="639372101" version="1" timestamp="2010-02-15T03:00:42Z" uid="103576" user="DiverCTH" changeset="3879939" lat="34.985704" lon="-85.286568"/>
  <node id="639372102" version="1" timestamp="2010-02-15T03:00:43Z" uid="103576" user="DiverCTH" changeset="3879939" lat="34.985702" lon="-85.285909">
    <tag k="addr:country" v="US"/>
    <tag k="addr:county" v="Hamilton, TN"/>
    <tag k="addr:housenumber" v="2899"/>
    <tag k="addr:postcode" v="37407"/>
    <tag k="addr:state" v="Tennessee"/>
    <tag k="addr:street" v="E 50th St"/>
  </node>
  <node id="639372103" version="1" timestamp="2010-02-15T03:00:43Z" uid="103576" user="DiverCTH" changeset="3879939" lat="34.985538" lon="-85.286045"/>
  <node id="639372104" version="1" timestamp="2010-02-15T03:00:43Z" uid="103576" user="DiverCTH" changeset="3879939" lat="34.985537" lon="-85.28591">
    <tag k="addr:country" v="US"/>
    <tag k="addr:county" v="Hamilton, TN"/>
    <tag k="addr:housenumber" v="2898"/>
    <tag k="addr:postcode" v="37407"/>
    <tag k="addr:state" v="Tennessee"/>
    <tag k="addr:street" v="E 50th St"/>
  </node>
  <node id="639372105" version="1" timestamp="2010-02-15T03:00:43Z" uid="103576" user="DiverCTH" changeset="3879939" lat="34.98554" lon="-85.286568"/>
  <node id="639372106" version="1" timestamp="2010-02-15T03:00:43Z" uid="103576" user="DiverCTH" changeset="3879939" lat="34.985534" lon="-85.284458">
    <tag k="addr:country" v="US"/>
    <tag k="addr:county" v="Hamilton, TN"/>
    <tag k="addr:housenumber" v="3000"/>
    <tag k="addr:postcode" v="37407"/>
    <tag k="addr:state" v="Tennessee"/>
    <tag k="addr:street" v="E 50th St"/>
  </node>
  <node id="639372107" version="1" timestamp="2010-02-15T03:00:43Z" uid="103576" user="DiverCTH" changeset="3879939" lat="34.985537" lon="-85.285344">
    <tag k="addr:country" v="US"/>
    <tag k="addr:county" v="Hamilton, TN"/>
    <tag k="addr:housenumber" v="2948"/>
    <tag k="addr:postcode" v="37407"/>
    <tag k="addr:state" v="Tennessee"/>
    <tag k="addr:street" v="E 50th St"/>
  </node>
  <node id="639372108" version="1" timestamp="2010-02-15T03:00:43Z" uid="103576" user="DiverCTH" changeset="3879939" lat="34.9857" lon="-85.284379"/>
  <node id="639372109" version="1" timestamp="2010-02-15T03:00:43Z" uid="103576" user="DiverCTH" changeset="3879939" lat="34.985699" lon="-85.28446">
    <tag k="addr:country" v="US"/>
    <tag k="addr:county" v="Hamilton, TN"/>
    <tag k="addr:housenumber" v="3001"/>
    <tag k="addr:postcode" v="37407"/>
    <tag k="addr:state" v="Tennessee"/>
    <tag k="addr:street" v="E 50th St"/>
  </node>
  <node id="639372110" version="1" timestamp="2010-02-15T03:00:43Z" uid="103576" user="DiverCTH" changeset="3879939" lat="34.985698" lon="-85.284759">
    <tag k="addr:country" v="US"/>
    <tag k="addr:county" v="Hamilton, TN"/>
    <tag k="addr:housenumber" v="2999"/>
    <tag k="addr:postcode" v="37407"/>
    <tag k="addr:state" v="Tennessee"/>
    <tag k="addr:street" v="E 50th St"/>
  </node>
  <node id="639372112" version="1" timestamp="2010-02-15T03:00:43Z" uid="103576" user="DiverCTH" changeset="3879939" lat="34.985538" lon="-85.284183">
    <tag k="addr:country" v="US"/>
    <tag k="addr:county" v="Hamilton, TN"/>
    <tag k="addr:housenumber" v="3048"/>
    <tag k="addr:postcode" v="37407"/>
    <tag k="addr:state" v="Tennessee"/>
    <tag k="addr:street" v="E 50th St"/>
  </node>
  <node id="639372113" version="1" timestamp="2010-02-15T03:00:43Z" uid="103576" user="DiverCTH" changeset="3879939" lat="34.985534" lon="-85.284377"/>
  <node id="639372114" version="1" timestamp="2010-02-15T03:00:43Z" uid="103576" user="DiverCTH" changeset="3879939" lat="34.985533" lon="-85.28476">
    <tag k="addr:country" v="US"/>
    <tag k="addr:county" v="Hamilton, TN"/>
    <tag k="addr:housenumber" v="2998"/>
    <tag k="addr:postcode" v="37407"/>
    <tag k="addr:state" v="Tennessee"/>
    <tag k="addr:street" v="E 50th St"/>
  </node>
  <node id="639372117" version="1" timestamp="2010-02-15T03:00:44Z" uid="103576" user="DiverCTH" changeset="3879939" lat="34.985534" lon="-85.284839"/>
  <node id="639372118" version="1" timestamp="2010-02-15T03:00:44Z" uid="103576" user="DiverCTH" changeset="3879939" lat="34.985698" lon="-85.284837"/>
  <node id="639372119" version="1" timestamp="2010-02-15T03:00:44Z" uid="103576" user="DiverCTH" changeset="3879939" lat="34.9857" lon="-85.285043">
    <tag k="addr:country" v="US"/>
    <tag k="addr:county" v="Hamilton, TN"/>
    <tag k="addr:housenumber" v="2951"/>
    <tag k="addr:postcode" v="37407"/>
    <tag k="addr:state" v="Tennessee"/>
    <tag k="addr:street" v="E 50th St"/>
  </node>
  <node id="639372120" version="1" timestamp="2010-02-15T03:00:44Z" uid="103576" user="DiverCTH" changeset="3879939" lat="34.985702" lon="-85.284187">
    <tag k="addr:country" v="US"/>
    <tag k="addr:county" v="Hamilton, TN"/>
    <tag k="addr:housenumber" v="3049"/>
    <tag k="addr:postcode" v="37407"/>
    <tag k="addr:state" v="Tennessee"/>
    <tag k="addr:street" v="E 50th St"/>
  </node>
  <node id="639372121" version="1" timestamp="2010-02-15T03:00:44Z" uid="103576" user="DiverCTH" changeset="3879939" lat="34.985535" lon="-85.285045">
    <tag k="addr:country" v="US"/>
    <tag k="addr:county" v="Hamilton, TN"/>
    <tag k="addr:housenumber" v="2950"/>
    <tag k="addr:postcode" v="37407"/>
    <tag k="addr:state" v="Tennessee"/>
    <tag k="addr:street" v="E 50th St"/>
  </node>
  <node id="639372122" version="1" timestamp="2010-02-15T03:00:44Z" uid="103576" user="DiverCTH" changeset="3879939" lat="34.985701" lon="-85.285344">
    <tag k="addr:country" v="US"/>
    <tag k="addr:county" v="Hamilton, TN"/>
    <tag k="addr:housenumber" v="2949"/>
    <tag k="addr:postcode" v="37407"/>
    <tag k="addr:state" v="Tennessee"/>
    <tag k="addr:street" v="E 50th St"/>
  </node>
  <node id="639372123" version="1" timestamp="2010-02-15T03:00:44Z" uid="103576" user="DiverCTH" changeset="3879939" lat="34.985545" lon="-85.283603">
    <tag k="addr:country" v="US"/>
    <tag k="addr:county" v="Hamilton, TN"/>
    <tag k="addr:housenumber" v="3098"/>
    <tag k="addr:postcode" v="37407"/>
    <tag k="addr:state" v="Tennessee"/>
    <tag k="addr:street" v="E 50th St"/>
  </node>
  <node id="639372124" version="1" timestamp="2010-02-15T03:00:44Z" uid="103576" user="DiverCTH" changeset="3879939" lat="34.985706" lon="-85.283886">
    <tag k="addr:country" v="US"/>
    <tag k="addr:county" v="Hamilton, TN"/>
    <tag k="addr:housenumber" v="3051"/>
    <tag k="addr:postcode" v="37407"/>
    <tag k="addr:state" v="Tennessee"/>
    <tag k="addr:street" v="E 50th St"/>
  </node>
  <node id="639372125" version="1" timestamp="2010-02-15T03:00:44Z" uid="103576" user="DiverCTH" changeset="3879939" lat="34.985541" lon="-85.283883">
    <tag k="addr:country" v="US"/>
    <tag k="addr:county" v="Hamilton, TN"/>
    <tag k="addr:housenumber" v="3050"/>
    <tag k="addr:postcode" v="37407"/>
    <tag k="addr:state" v="Tennessee"/>
    <tag k="addr:street" v="E 50th St"/>
  </node>
  <node id="639372126" version="1" timestamp="2010-02-15T03:00:44Z" uid="103576" user="DiverCTH" changeset="3879939" lat="34.985543" lon="-85.283683"/>
  <node id="639372127" version="1" timestamp="2010-02-15T03:00:44Z" uid="103576" user="DiverCTH" changeset="3879939" lat="34.985709" lon="-85.283687"/>
  <node id="639372128" version="1" timestamp="2010-02-15T03:00:44Z" uid="103576" user="DiverCTH" changeset="3879939" lat="34.98571" lon="-85.283607">
    <tag k="addr:country" v="US"/>
    <tag k="addr:county" v="Hamilton, TN"/>
    <tag k="addr:housenumber" v="3099"/>
    <tag k="addr:postcode" v="37407"/>
    <tag k="addr:state" v="Tennessee"/>
    <tag k="addr:street" v="E 50th St"/>
  </node>
  <node id="639372129" version="1" timestamp="2010-02-15T03:00:44Z" uid="103576" user="DiverCTH" changeset="3879939" lat="34.98555" lon="-85.283032">
    <tag k="addr:country" v="US"/>
    <tag k="addr:county" v="Hamilton, TN"/>
    <tag k="addr:housenumber" v="3148"/>
    <tag k="addr:postcode" v="37407"/>
    <tag k="addr:state" v="Tennessee"/>
    <tag k="addr:street" v="E 50th St"/>
  </node>
  <node id="639372130" version="1" timestamp="2010-02-15T03:00:45Z" uid="103576" user="DiverCTH" changeset="3879939" lat="34.985549" lon="-85.283223"/>
  <node id="639372131" version="1" timestamp="2010-02-15T03:00:45Z" uid="103576" user="DiverCTH" changeset="3879939" lat="34.985548" lon="-85.283304">
    <tag k="addr:country" v="US"/>
    <tag k="addr:county" v="Hamilton, TN"/>
    <tag k="addr:housenumber" v="3100"/>
    <tag k="addr:postcode" v="37407"/>
    <tag k="addr:state" v="Tennessee"/>
    <tag k="addr:street" v="E 50th St"/>
  </node>
  <node id="639372132" version="1" timestamp="2010-02-15T03:00:45Z" uid="103576" user="DiverCTH" changeset="3879939" lat="34.985715" lon="-85.283034">
    <tag k="addr:country" v="US"/>
    <tag k="addr:county" v="Hamilton, TN"/>
    <tag k="addr:housenumber" v="3149"/>
    <tag k="addr:postcode" v="37407"/>
    <tag k="addr:state" v="Tennessee"/>
    <tag k="addr:street" v="E 50th St"/>
  </node>
  <node id="639372133" version="1" timestamp="2010-02-15T03:00:45Z" uid="103576" user="DiverCTH" changeset="3879939" lat="34.985713" lon="-85.283225"/>
  <node id="639372134" version="1" timestamp="2010-02-15T03:00:45Z" uid="103576" user="DiverCTH" changeset="3879939" lat="34.985713" lon="-85.283305">
    <tag k="addr:country" v="US"/>
    <tag k="addr:county" v="Hamilton, TN"/>
    <tag k="addr:housenumber" v="3101"/>
    <tag k="addr:postcode" v="37407"/>
    <tag k="addr:state" v="Tennessee"/>
    <tag k="addr:street" v="E 50th St"/>
  </node>
  <node id="639372135" version="1" timestamp="2010-02-15T03:00:45Z" uid="103576" user="DiverCTH" changeset="3879939" lat="34.985558" lon="-85.282071"/>
  <node id="639372136" version="1" timestamp="2010-02-15T03:00:45Z" uid="103576" user="DiverCTH" changeset="3879939" lat="34.985553" lon="-85.282732">
    <tag k="addr:country" v="US"/>
    <tag k="addr:county" v="Hamilton, TN"/>
    <tag k="addr:housenumber" v="3150"/>
    <tag k="addr:postcode" v="37407"/>
    <tag k="addr:state" v="Tennessee"/>
    <tag k="addr:street" v="E 50th St"/>
  </node>
  <node id="639372137" version="1" timestamp="2010-02-15T03:00:45Z" uid="103576" user="DiverCTH" changeset="3879939" lat="34.985554" lon="-85.282532"/>
  <node id="639372138" version="1" timestamp="2010-02-15T03:00:45Z" uid="103576" user="DiverCTH" changeset="3879939" lat="34.985554" lon="-85.282452">
    <tag k="addr:country" v="US"/>
    <tag k="addr:county" v="Hamilton, TN"/>
    <tag k="addr:housenumber" v="3198"/>
    <tag k="addr:postcode" v="37407"/>
    <tag k="addr:state" v="Tennessee"/>
    <tag k="addr:street" v="E 50th St"/>
  </node>
  <node id="639372139" version="1" timestamp="2010-02-15T03:00:45Z" uid="103576" user="DiverCTH" changeset="3879939" lat="34.985557" lon="-85.282152">
    <tag k="addr:country" v="US"/>
    <tag k="addr:county" v="Hamilton, TN"/>
    <tag k="addr:housenumber" v="3200"/>
    <tag k="addr:postcode" v="37407"/>
    <tag k="addr:state" v="Tennessee"/>
    <tag k="addr:street" v="E 50th St"/>
  </node>
  <node id="639372140" version="1" timestamp="2010-02-15T03:00:45Z" uid="103576" user="DiverCTH" changeset="3879939" lat="34.985722" lon="-85.282073"/>
  <node id="639372141" version="1" timestamp="2010-02-15T03:00:45Z" uid="103576" user="DiverCTH" changeset="3879939" lat="34.985722" lon="-85.282154">
    <tag k="addr:country" v="US"/>
    <tag k="addr:county" v="Hamilton, TN"/>
    <tag k="addr:housenumber" v="3201"/>
    <tag k="addr:postcode" v="37407"/>
    <tag k="addr:state" v="Tennessee"/>
    <tag k="addr:street" v="E 50th St"/>
  </node>
  <node id="639372142" version="1" timestamp="2010-02-15T03:00:46Z" uid="103576" user="DiverCTH" changeset="3879939" lat="34.985717" lon="-85.282733">
    <tag k="addr:country" v="US"/>
    <tag k="addr:county" v="Hamilton, TN"/>
    <tag k="addr:housenumber" v="3151"/>
    <tag k="addr:postcode" v="37407"/>
    <tag k="addr:state" v="Tennessee"/>
    <tag k="addr:street" v="E 50th St"/>
  </node>
  <node id="639372143" version="1" timestamp="2010-02-15T03:00:46Z" uid="103576" user="DiverCTH" changeset="3879939" lat="34.985718" lon="-85.282534"/>
  <node id="639372144" version="1" timestamp="2010-02-15T03:00:46Z" uid="103576" user="DiverCTH" changeset="3879939" lat="34.985719" lon="-85.282454">
    <tag k="addr:country" v="US"/>
    <tag k="addr:county" v="Hamilton, TN"/>
    <tag k="addr:housenumber" v="3199"/>
    <tag k="addr:postcode" v="37407"/>
    <tag k="addr:state" v="Tennessee"/>
    <tag k="addr:street" v="E 50th St"/>
  </node>
  <node id="639372145" version="1" timestamp="2010-02-15T03:00:46Z" uid="103576" user="DiverCTH" changeset="3879939" lat="34.98556" lon="-85.28188">
    <tag k="addr:country" v="US"/>
    <tag k="addr:county" v="Hamilton, TN"/>
    <tag k="addr:housenumber" v="3248"/>
    <tag k="addr:postcode" v="37407"/>
    <tag k="addr:state" v="Tennessee"/>
    <tag k="addr:street" v="E 50th St"/>
  </node>
  <node id="639372146" version="1" timestamp="2010-02-15T03:00:46Z" uid="103576" user="DiverCTH" changeset="3879939" lat="34.985567" lon="-85.281377"/>
  <node id="639372147" version="1" timestamp="2010-02-15T03:00:46Z" uid="103576" user="DiverCTH" changeset="3879939" lat="34.985564" lon="-85.281579">
    <tag k="addr:country" v="US"/>
    <tag k="addr:county" v="Hamilton, TN"/>
    <tag k="addr:housenumber" v="3250"/>
    <tag k="addr:postcode" v="37407"/>
    <tag k="addr:state" v="Tennessee"/>
    <tag k="addr:street" v="E 50th St"/>
  </node>
  <node id="639372148" version="1" timestamp="2010-02-15T03:00:46Z" uid="103576" user="DiverCTH" changeset="3879939" lat="34.985725" lon="-85.281883">
    <tag k="addr:country" v="US"/>
    <tag k="addr:county" v="Hamilton, TN"/>
    <tag k="addr:housenumber" v="3249"/>
    <tag k="addr:postcode" v="37407"/>
    <tag k="addr:state" v="Tennessee"/>
    <tag k="addr:street" v="E 50th St"/>
  </node>
  <node id="639372149" version="1" timestamp="2010-02-15T03:00:46Z" uid="103576" user="DiverCTH" changeset="3879939" lat="34.985731" lon="-85.281381"/>
  <node id="639372150" version="1" timestamp="2010-02-15T03:00:46Z" uid="103576" user="DiverCTH" changeset="3879939" lat="34.985728" lon="-85.281583">
    <tag k="addr:country" v="US"/>
    <tag k="addr:county" v="Hamilton, TN"/>
    <tag k="addr:housenumber" v="3251"/>
    <tag k="addr:postcode" v="37407"/>
    <tag k="addr:state" v="Tennessee"/>
    <tag k="addr:street" v="E 50th St"/>
  </node>
  <node id="639372151" version="1" timestamp="2010-02-15T03:00:46Z" uid="103576" user="DiverCTH" changeset="3879939" lat="34.985733" lon="-85.281301">
    <tag k="addr:country" v="US"/>
    <tag k="addr:county" v="Hamilton, TN"/>
    <tag k="addr:housenumber" v="3299"/>
    <tag k="addr:postcode" v="37407"/>
    <tag k="addr:state" v="Tennessee"/>
    <tag k="addr:street" v="E 50th St"/>
  </node>
  <node id="639372152" version="1" timestamp="2010-02-15T03:00:46Z" uid="103576" user="DiverCTH" changeset="3879939" lat="34.985568" lon="-85.281297">
    <tag k="addr:country" v="US"/>
    <tag k="addr:county" v="Hamilton, TN"/>
    <tag k="addr:housenumber" v="3298"/>
    <tag k="addr:postcode" v="37407"/>
    <tag k="addr:state" v="Tennessee"/>
    <tag k="addr:street" v="E 50th St"/>
  </node>
  <node id="639372153" version="1" timestamp="2010-02-15T03:00:47Z" uid="103576" user="DiverCTH" changeset="3879939" lat="34.986588" lon="-85.286152"/>
  <node id="639372154" version="1" timestamp="2010-02-15T03:00:47Z" uid="103576" user="DiverCTH" changeset="3879939" lat="34.986593" lon="-85.285906">
    <tag k="addr:country" v="US"/>
    <tag k="addr:county" v="Hamilton, TN"/>
    <tag k="addr:housenumber" v="2902"/>
    <tag k="addr:postcode" v="37407"/>
    <tag k="addr:state" v="Tennessee"/>
    <tag k="addr:street" v="E 49th St"/>
  </node>
  <node id="639372155" version="1" timestamp="2010-02-15T03:00:47Z" uid="103576" user="DiverCTH" changeset="3879939" lat="34.986599" lon="-85.285607">
    <tag k="addr:country" v="US"/>
    <tag k="addr:county" v="Hamilton, TN"/>
    <tag k="addr:housenumber" v="2904"/>
    <tag k="addr:postcode" v="37407"/>
    <tag k="addr:state" v="Tennessee"/>
    <tag k="addr:street" v="E 49th St"/>
  </node>
  <node id="639372156" version="1" timestamp="2010-02-15T03:00:47Z" uid="103576" user="DiverCTH" changeset="3879939" lat="34.9866" lon="-85.285526"/>
  <node id="639372157" version="1" timestamp="2010-02-15T03:00:47Z" uid="103576" user="DiverCTH" changeset="3879939" lat="34.986752" lon="-85.286158"/>
  <node id="639372158" version="1" timestamp="2010-02-15T03:00:47Z" uid="103576" user="DiverCTH" changeset="3879939" lat="34.986758" lon="-85.285912">
    <tag k="addr:country" v="US"/>
    <tag k="addr:county" v="Hamilton, TN"/>
    <tag k="addr:housenumber" v="2901"/>
    <tag k="addr:postcode" v="37407"/>
    <tag k="addr:state" v="Tennessee"/>
    <tag k="addr:street" v="E 49th St"/>
  </node>
  <node id="639372159" version="1" timestamp="2010-02-15T03:00:47Z" uid="103576" user="DiverCTH" changeset="3879939" lat="34.986763" lon="-85.28561">
    <tag k="addr:country" v="US"/>
    <tag k="addr:county" v="Hamilton, TN"/>
    <tag k="addr:housenumber" v="2903"/>
    <tag k="addr:postcode" v="37407"/>
    <tag k="addr:state" v="Tennessee"/>
    <tag k="addr:street" v="E 49th St"/>
  </node>
  <node id="639372160" version="1" timestamp="2010-02-15T03:00:47Z" uid="103576" user="DiverCTH" changeset="3879939" lat="34.986764" lon="-85.28553"/>
  <node id="639372161" version="1" timestamp="2010-02-15T03:00:47Z" uid="103576" user="DiverCTH" changeset="3879939" lat="34.986607" lon="-85.285027">
    <tag k="addr:country" v="US"/>
    <tag k="addr:county" v="Hamilton, TN"/>
    <tag k="addr:housenumber" v="2952"/>
    <tag k="addr:postcode" v="37407"/>
    <tag k="addr:state" v="Tennessee"/>
    <tag k="addr:street" v="E 49th St"/>
  </node>
  <node id="639372162" version="1" timestamp="2010-02-15T03:00:47Z" uid="103576" user="DiverCTH" changeset="3879939" lat="34.986611" lon="-85.284835"/>
  <node id="639372163" version="1" timestamp="2010-02-15T03:00:47Z" uid="103576" user="DiverCTH" changeset="3879939" lat="34.986612" lon="-85.284755">
    <tag k="addr:country" v="US"/>
    <tag k="addr:county" v="Hamilton, TN"/>
    <tag k="addr:housenumber" v="2998"/>
    <tag k="addr:postcode" v="37407"/>
    <tag k="addr:state" v="Tennessee"/>
    <tag k="addr:street" v="E 49th St"/>
  </node>
  <node id="639372164" version="1" timestamp="2010-02-15T03:00:47Z" uid="103576" user="DiverCTH" changeset="3879939" lat="34.986603" lon="-85.285327">
    <tag k="addr:country" v="US"/>
    <tag k="addr:county" v="Hamilton, TN"/>
    <tag k="addr:housenumber" v="2950"/>
    <tag k="addr:postcode" v="37407"/>
    <tag k="addr:state" v="Tennessee"/>
    <tag k="addr:street" v="E 49th St"/>
  </node>
  <node id="639372165" version="1" timestamp="2010-02-15T03:00:47Z" uid="103576" user="DiverCTH" changeset="3879939" lat="34.986772" lon="-85.285031">
    <tag k="addr:country" v="US"/>
    <tag k="addr:county" v="Hamilton, TN"/>
    <tag k="addr:housenumber" v="2953"/>
    <tag k="addr:postcode" v="37407"/>
    <tag k="addr:state" v="Tennessee"/>
    <tag k="addr:street" v="E 49th St"/>
  </node>
  <node id="639372166" version="1" timestamp="2010-02-15T03:00:48Z" uid="103576" user="DiverCTH" changeset="3879939" lat="34.986775" lon="-85.284839"/>
  <node id="639372167" version="1" timestamp="2010-02-15T03:00:48Z" uid="103576" user="DiverCTH" changeset="3879939" lat="34.986777" lon="-85.28476">
    <tag k="addr:country" v="US"/>
    <tag k="addr:county" v="Hamilton, TN"/>
    <tag k="addr:housenumber" v="2999"/>
    <tag k="addr:postcode" v="37407"/>
    <tag k="addr:state" v="Tennessee"/>
    <tag k="addr:street" v="E 49th St"/>
  </node>
  <node id="639372168" version="1" timestamp="2010-02-15T03:00:48Z" uid="103576" user="DiverCTH" changeset="3879939" lat="34.986767" lon="-85.285331">
    <tag k="addr:country" v="US"/>
    <tag k="addr:county" v="Hamilton, TN"/>
    <tag k="addr:housenumber" v="2951"/>
    <tag k="addr:postcode" v="37407"/>
    <tag k="addr:state" v="Tennessee"/>
    <tag k="addr:street" v="E 49th St"/>
  </node>
  <node id="639372360" version="1" timestamp="2010-02-15T03:03:00Z" uid="4467" user="Rosscoe" changeset="3880091" lat="-41.215187" lon="146.484213"/>
  <node id="639372360" version="2" timestamp="2010-02-15T03:05:50Z" uid="4467" user="Rosscoe" changeset="3880093" lat="-41.2152036" lon="146.4842075"/>
  <node id="639372361" version="1" timestamp="2010-02-15T03:03:00Z" uid="4467" user="Rosscoe" changeset="3880091" lat="-41.208072" lon="146.48582"/>
  <node id="639372362" version="1" timestamp="2010-02-15T03:03:00Z" uid="4467" user="Rosscoe" changeset="3880091" lat="-41.200065" lon="146.485867"/>
  <node id="639372363" version="1" timestamp="2010-02-15T03:03:01Z" uid="4467" user="Rosscoe" changeset="3880091" lat="-41.20066" lon="146.485563"/>
  <node id="639372364" version="1" timestamp="2010-02-15T03:03:01Z" uid="4467" user="Rosscoe" changeset="3880091" lat="-41.20107" lon="146.485452"/>
  <node id="639372365" version="1" timestamp="2010-02-15T03:03:01Z" uid="4467" user="Rosscoe" changeset="3880091" lat="-41.201277" lon="146.485518"/>
  <node id="639372366" version="1" timestamp="2010-02-15T03:03:01Z" uid="4467" user="Rosscoe" changeset="3880091" lat="-41.203073" lon="146.486797"/>
  <node id="639372367" version="1" timestamp="2010-02-15T03:03:01Z" uid="4467" user="Rosscoe" changeset="3880091" lat="-41.203293" lon="146.486902"/>
  <node id="639372368" version="1" timestamp="2010-02-15T03:03:01Z" uid="4467" user="Rosscoe" changeset="3880091" lat="-41.203537" lon="146.486922"/>
  <node id="639372369" version="1" timestamp="2010-02-15T03:03:01Z" uid="4467" user="Rosscoe" changeset="3880091" lat="-41.199605" lon="146.48622"/>
  <node id="639372369" version="2" timestamp="2010-02-15T03:05:50Z" uid="4467" user="Rosscoe" changeset="3880093" lat="-41.1996538" lon="146.4861618"/>
  <node id="639372370" version="1" timestamp="2010-02-15T03:03:01Z" uid="4467" user="Rosscoe" changeset="3880091" lat="-41.1934374" lon="146.4881839"/>
  <node id="639372371" version="1" timestamp="2010-02-15T03:03:01Z" uid="4467" user="Rosscoe" changeset="3880091" lat="-41.18806" lon="146.488918"/>
  <node id="639372372" version="1" timestamp="2010-02-15T03:03:01Z" uid="4467" user="Rosscoe" changeset="3880091" lat="-41.188233" lon="146.489233"/>
  <node id="639372373" version="1" timestamp="2010-02-15T03:03:01Z" uid="4467" user="Rosscoe" changeset="3880091" lat="-41.188453" lon="146.489305"/>
  <node id="639372374" version="1" timestamp="2010-02-15T03:03:01Z" uid="4467" user="Rosscoe" changeset="3880091" lat="-41.18981" lon="146.489122"/>
  <node id="639372375" version="1" timestamp="2010-02-15T03:03:01Z" uid="4467" user="Rosscoe" changeset="3880091" lat="-41.186502" lon="146.482828"/>
  <node id="639372376" version="1" timestamp="2010-02-15T03:03:01Z" uid="4467" user="Rosscoe" changeset="3880091" lat="-41.186693" lon="146.48278"/>
  <node id="639372377" version="1" timestamp="2010-02-15T03:03:01Z" uid="4467" user="Rosscoe" changeset="3880091" lat="-41.186793" lon="146.482867"/>
  <node id="639372378" version="1" timestamp="2010-02-15T03:03:01Z" uid="4467" user="Rosscoe" changeset="3880091" lat="-41.186852" lon="146.483045"/>
  <node id="639372379" version="1" timestamp="2010-02-15T03:03:02Z" uid="4467" user="Rosscoe" changeset="3880091" lat="-41.182722" lon="146.484652"/>
  <node id="639372380" version="1" timestamp="2010-02-15T03:03:02Z" uid="4467" user="Rosscoe" changeset="3880091" lat="-41.18408" lon="146.484115"/>
  <node id="639372381" version="1" timestamp="2010-02-15T03:03:02Z" uid="4467" user="Rosscoe" changeset="3880091" lat="-41.187562" lon="146.487502"/>
  <node id="639372382" version="1" timestamp="2010-02-15T03:03:02Z" uid="4467" user="Rosscoe" changeset="3880091" lat="-41.177798" lon="146.486197"/>
  <node id="639372382" version="2" timestamp="2011-12-18T07:29:02Z" uid="111529" user="ReinerMeyer" changeset="10144110" lat="-41.177798" lon="146.486197"/>
  <node id="639372383" version="1" timestamp="2010-02-15T03:03:02Z" uid="4467" user="Rosscoe" changeset="3880091" lat="-41.177395" lon="146.4863"/>
  <node id="639372383" version="2" timestamp="2011-12-18T07:28:56Z" uid="111529" user="ReinerMeyer" changeset="10144110" lat="-41.1772527" lon="146.4862882"/>
  <node id="639372384" version="1" timestamp="2010-02-15T03:03:02Z" uid="4467" user="Rosscoe" changeset="3880091" lat="-41.1770725" lon="146.4863174"/>
  <node id="639372384" version="2" timestamp="2010-03-16T08:23:44Z" uid="4467" user="Rosscoe" changeset="4141402" lat="-41.1768944" lon="146.4862725"/>
  <node id="639372384" version="3" timestamp="2011-12-18T07:28:56Z" uid="111529" user="ReinerMeyer" changeset="10144110" lat="-41.17691" lon="146.4862725"/>
  <node id="639372655" version="1" timestamp="2010-02-15T03:04:55Z" uid="103576" user="DiverCTH" changeset="3879939" lat="34.98758" lon="-85.288312">
    <tag k="addr:country" v="US"/>
    <tag k="addr:county" v="Hamilton, TN"/>
    <tag k="addr:housenumber" v="2800"/>
    <tag k="addr:postcode" v="37407"/>
    <tag k="addr:state" v="Tennessee"/>
    <tag k="addr:street" v="E 48th St"/>
  </node>
  <node id="639372656" version="1" timestamp="2010-02-15T03:04:55Z" uid="103576" user="DiverCTH" changeset="3879939" lat="34.987744" lon="-85.288295">
    <tag k="addr:country" v="US"/>
    <tag k="addr:county" v="Hamilton, TN"/>
    <tag k="addr:housenumber" v="2801"/>
    <tag k="addr:postcode" v="37407"/>
    <tag k="addr:state" v="Tennessee"/>
    <tag k="addr:street" v="E 48th St"/>
  </node>
  <node id="639372657" version="1" timestamp="2010-02-15T03:04:55Z" uid="103576" user="DiverCTH" changeset="3879939" lat="34.987568" lon="-85.288138"/>
  <node id="639372658" version="1" timestamp="2010-02-15T03:04:55Z" uid="103576" user="DiverCTH" changeset="3879939" lat="34.987555" lon="-85.287951"/>
  <node id="639372659" version="1" timestamp="2010-02-15T03:04:55Z" uid="103576" user="DiverCTH" changeset="3879939" lat="34.987506" lon="-85.287166"/>
  <node id="639372660" version="1" timestamp="2010-02-15T03:04:55Z" uid="103576" user="DiverCTH" changeset="3879939" lat="34.987495" lon="-85.286992">
    <tag k="addr:country" v="US"/>
    <tag k="addr:county" v="Hamilton, TN"/>
    <tag k="addr:housenumber" v="2810"/>
    <tag k="addr:postcode" v="37407"/>
    <tag k="addr:state" v="Tennessee"/>
    <tag k="addr:street" v="E 48th St"/>
  </node>
  <node id="639372661" version="1" timestamp="2010-02-15T03:04:56Z" uid="103576" user="DiverCTH" changeset="3879939" lat="34.987659" lon="-85.286977">
    <tag k="addr:country" v="US"/>
    <tag k="addr:county" v="Hamilton, TN"/>
    <tag k="addr:housenumber" v="2899"/>
    <tag k="addr:postcode" v="37407"/>
    <tag k="addr:state" v="Tennessee"/>
    <tag k="addr:street" v="E 48th St"/>
  </node>
  <node id="639372662" version="1" timestamp="2010-02-15T03:04:56Z" uid="103576" user="DiverCTH" changeset="3879939" lat="34.987732" lon="-85.28812"/>
  <node id="639372663" version="1" timestamp="2010-02-15T03:04:56Z" uid="103576" user="DiverCTH" changeset="3879939" lat="34.987719" lon="-85.287935"/>
  <node id="639372664" version="1" timestamp="2010-02-15T03:04:56Z" uid="103576" user="DiverCTH" changeset="3879939" lat="34.98767" lon="-85.28715"/>
  <node id="639372665" version="1" timestamp="2010-02-15T03:04:56Z" uid="103576" user="DiverCTH" changeset="3879939" lat="34.987581" lon="-85.285598">
    <tag k="addr:country" v="US"/>
    <tag k="addr:county" v="Hamilton, TN"/>
    <tag k="addr:housenumber" v="2953"/>
    <tag k="addr:postcode" v="37407"/>
    <tag k="addr:state" v="Tennessee"/>
    <tag k="addr:street" v="E 48th St"/>
  </node>
  <node id="639372666" version="1" timestamp="2010-02-15T03:04:56Z" uid="103576" user="DiverCTH" changeset="3879939" lat="34.98758" lon="-85.285516"/>
  <node id="639372667" version="1" timestamp="2010-02-15T03:04:56Z" uid="103576" user="DiverCTH" changeset="3879939" lat="34.987581" lon="-85.285518"/>
  <node id="639372668" version="1" timestamp="2010-02-15T03:04:56Z" uid="103576" user="DiverCTH" changeset="3879939" lat="34.98743" lon="-85.285908">
    <tag k="addr:country" v="US"/>
    <tag k="addr:county" v="Hamilton, TN"/>
    <tag k="addr:housenumber" v="2898"/>
    <tag k="addr:postcode" v="37407"/>
    <tag k="addr:state" v="Tennessee"/>
    <tag k="addr:street" v="E 48th St"/>
  </node>
  <node id="639372669" version="1" timestamp="2010-02-15T03:04:56Z" uid="103576" user="DiverCTH" changeset="3879939" lat="34.987434" lon="-85.285974"/>
  <node id="639372670" version="1" timestamp="2010-02-15T03:04:56Z" uid="103576" user="DiverCTH" changeset="3879939" lat="34.987473" lon="-85.286625"/>
  <node id="639372671" version="1" timestamp="2010-02-15T03:04:56Z" uid="103576" user="DiverCTH" changeset="3879939" lat="34.987477" lon="-85.286692">
    <tag k="addr:country" v="US"/>
    <tag k="addr:county" v="Hamilton, TN"/>
    <tag k="addr:housenumber" v="2812"/>
    <tag k="addr:postcode" v="37407"/>
    <tag k="addr:state" v="Tennessee"/>
    <tag k="addr:street" v="E 48th St"/>
  </node>
  <node id="639372672" version="1" timestamp="2010-02-15T03:04:56Z" uid="103576" user="DiverCTH" changeset="3879939" lat="34.987594" lon="-85.285894">
    <tag k="addr:country" v="US"/>
    <tag k="addr:county" v="Hamilton, TN"/>
    <tag k="addr:housenumber" v="2951"/>
    <tag k="addr:postcode" v="37407"/>
    <tag k="addr:state" v="Tennessee"/>
    <tag k="addr:street" v="E 48th St"/>
  </node>
  <node id="639372673" version="1" timestamp="2010-02-15T03:04:56Z" uid="103576" user="DiverCTH" changeset="3879939" lat="34.987598" lon="-85.28596"/>
  <node id="639372674" version="1" timestamp="2010-02-15T03:04:56Z" uid="103576" user="DiverCTH" changeset="3879939" lat="34.987637" lon="-85.286611"/>
  <node id="639372675" version="1" timestamp="2010-02-15T03:04:56Z" uid="103576" user="DiverCTH" changeset="3879939" lat="34.987641" lon="-85.286678">
    <tag k="addr:country" v="US"/>
    <tag k="addr:county" v="Hamilton, TN"/>
    <tag k="addr:housenumber" v="2901"/>
    <tag k="addr:postcode" v="37407"/>
    <tag k="addr:state" v="Tennessee"/>
    <tag k="addr:street" v="E 48th St"/>
  </node>
  <node id="639372676" version="1" timestamp="2010-02-15T03:04:56Z" uid="103576" user="DiverCTH" changeset="3879939" lat="34.987413" lon="-85.285522"/>
  <node id="639372677" version="1" timestamp="2010-02-15T03:04:56Z" uid="103576" user="DiverCTH" changeset="3879939" lat="34.987414" lon="-85.285514"/>
  <node id="639372678" version="1" timestamp="2010-02-15T03:04:56Z" uid="103576" user="DiverCTH" changeset="3879939" lat="34.987417" lon="-85.285604">
    <tag k="addr:country" v="US"/>
    <tag k="addr:county" v="Hamilton, TN"/>
    <tag k="addr:housenumber" v="2900"/>
    <tag k="addr:postcode" v="37407"/>
    <tag k="addr:state" v="Tennessee"/>
    <tag k="addr:street" v="E 48th St"/>
  </node>
  <node id="639372679" version="1" timestamp="2010-02-15T03:04:56Z" uid="103576" user="DiverCTH" changeset="3879939" lat="34.987418" lon="-85.285325">
    <tag k="addr:country" v="US"/>
    <tag k="addr:county" v="Hamilton, TN"/>
    <tag k="addr:housenumber" v="2948"/>
    <tag k="addr:postcode" v="37407"/>
    <tag k="addr:state" v="Tennessee"/>
    <tag k="addr:street" v="E 48th St"/>
  </node>
  <node id="639372680" version="1" timestamp="2010-02-15T03:04:57Z" uid="103576" user="DiverCTH" changeset="3879939" lat="34.987582" lon="-85.285329">
    <tag k="addr:country" v="US"/>
    <tag k="addr:county" v="Hamilton, TN"/>
    <tag k="addr:housenumber" v="2975"/>
    <tag k="addr:postcode" v="37407"/>
    <tag k="addr:state" v="Tennessee"/>
    <tag k="addr:street" v="E 48th St"/>
  </node>
  <node id="639372681" version="1" timestamp="2010-02-15T03:04:57Z" uid="103576" user="DiverCTH" changeset="3879939" lat="34.987423" lon="-85.284828"/>
  <node id="639372682" version="1" timestamp="2010-02-15T03:04:57Z" uid="103576" user="DiverCTH" changeset="3879939" lat="34.987421" lon="-85.285026">
    <tag k="addr:country" v="US"/>
    <tag k="addr:county" v="Hamilton, TN"/>
    <tag k="addr:housenumber" v="2950"/>
    <tag k="addr:postcode" v="37407"/>
    <tag k="addr:state" v="Tennessee"/>
    <tag k="addr:street" v="E 48th St"/>
  </node>
  <node id="639372683" version="1" timestamp="2010-02-15T03:04:57Z" uid="103576" user="DiverCTH" changeset="3879939" lat="34.987586" lon="-85.285028">
    <tag k="addr:country" v="US"/>
    <tag k="addr:county" v="Hamilton, TN"/>
    <tag k="addr:housenumber" v="2977"/>
    <tag k="addr:postcode" v="37407"/>
    <tag k="addr:state" v="Tennessee"/>
    <tag k="addr:street" v="E 48th St"/>
  </node>
  <node id="639372684" version="1" timestamp="2010-02-15T03:04:57Z" uid="103576" user="DiverCTH" changeset="3879939" lat="34.987423" lon="-85.284748">
    <tag k="addr:country" v="US"/>
    <tag k="addr:county" v="Hamilton, TN"/>
    <tag k="addr:housenumber" v="2998"/>
    <tag k="addr:postcode" v="37407"/>
    <tag k="addr:state" v="Tennessee"/>
    <tag k="addr:street" v="E 48th St"/>
  </node>
  <node id="639372685" version="1" timestamp="2010-02-15T03:04:57Z" uid="103576" user="DiverCTH" changeset="3879939" lat="34.987427" lon="-85.28417">
    <tag k="addr:country" v="US"/>
    <tag k="addr:county" v="Hamilton, TN"/>
    <tag k="addr:housenumber" v="3048"/>
    <tag k="addr:postcode" v="37407"/>
    <tag k="addr:state" v="Tennessee"/>
    <tag k="addr:street" v="E 48th St"/>
  </node>
  <node id="639372686" version="1" timestamp="2010-02-15T03:04:57Z" uid="103576" user="DiverCTH" changeset="3879939" lat="34.98759" lon="-85.284449">
    <tag k="addr:country" v="US"/>
    <tag k="addr:county" v="Hamilton, TN"/>
    <tag k="addr:housenumber" v="3001"/>
    <tag k="addr:postcode" v="37407"/>
    <tag k="addr:state" v="Tennessee"/>
    <tag k="addr:street" v="E 48th St"/>
  </node>
  <node id="639372687" version="1" timestamp="2010-02-15T03:04:57Z" uid="103576" user="DiverCTH" changeset="3879939" lat="34.987425" lon="-85.284448">
    <tag k="addr:country" v="US"/>
    <tag k="addr:county" v="Hamilton, TN"/>
    <tag k="addr:housenumber" v="3000"/>
    <tag k="addr:postcode" v="37407"/>
    <tag k="addr:state" v="Tennessee"/>
    <tag k="addr:street" v="E 48th St"/>
  </node>
  <node id="639372688" version="1" timestamp="2010-02-15T03:04:57Z" uid="103576" user="DiverCTH" changeset="3879939" lat="34.987426" lon="-85.284369"/>
  <node id="639372689" version="1" timestamp="2010-02-15T03:04:57Z" uid="103576" user="DiverCTH" changeset="3879939" lat="34.98759" lon="-85.284371"/>
  <node id="639372690" version="1" timestamp="2010-02-15T03:04:57Z" uid="103576" user="DiverCTH" changeset="3879939" lat="34.987591" lon="-85.284171">
    <tag k="addr:country" v="US"/>
    <tag k="addr:county" v="Hamilton, TN"/>
    <tag k="addr:housenumber" v="3055"/>
    <tag k="addr:postcode" v="37407"/>
    <tag k="addr:state" v="Tennessee"/>
    <tag k="addr:street" v="E 48th St"/>
  </node>
  <node id="639372691" version="1" timestamp="2010-02-15T03:04:57Z" uid="103576" user="DiverCTH" changeset="3879939" lat="34.987588" lon="-85.28475">
    <tag k="addr:country" v="US"/>
    <tag k="addr:county" v="Hamilton, TN"/>
    <tag k="addr:housenumber" v="2999"/>
    <tag k="addr:postcode" v="37407"/>
    <tag k="addr:state" v="Tennessee"/>
    <tag k="addr:street" v="E 48th St"/>
  </node>
  <node id="639372692" version="1" timestamp="2010-02-15T03:04:57Z" uid="103576" user="DiverCTH" changeset="3879939" lat="34.987587" lon="-85.28483"/>
  <node id="639372693" version="1" timestamp="2010-02-15T03:04:57Z" uid="103576" user="DiverCTH" changeset="3879939" lat="34.987591" lon="-85.283869">
    <tag k="addr:country" v="US"/>
    <tag k="addr:county" v="Hamilton, TN"/>
    <tag k="addr:housenumber" v="3057"/>
    <tag k="addr:postcode" v="37407"/>
    <tag k="addr:state" v="Tennessee"/>
    <tag k="addr:street" v="E 48th St"/>
  </node>
  <node id="639372694" version="1" timestamp="2010-02-15T03:04:57Z" uid="103576" user="DiverCTH" changeset="3879939" lat="34.987425" lon="-85.283606">
    <tag k="addr:country" v="US"/>
    <tag k="addr:county" v="Hamilton, TN"/>
    <tag k="addr:housenumber" v="3098"/>
    <tag k="addr:postcode" v="37407"/>
    <tag k="addr:state" v="Tennessee"/>
    <tag k="addr:street" v="E 48th St"/>
  </node>
  <node id="639372695" version="1" timestamp="2010-02-15T03:04:58Z" uid="103576" user="DiverCTH" changeset="3879939" lat="34.987426" lon="-85.283684"/>
  <node id="639372696" version="1" timestamp="2010-02-15T03:04:58Z" uid="103576" user="DiverCTH" changeset="3879939" lat="34.987427" lon="-85.283871">
    <tag k="addr:country" v="US"/>
    <tag k="addr:county" v="Hamilton, TN"/>
    <tag k="addr:housenumber" v="3050"/>
    <tag k="addr:postcode" v="37407"/>
    <tag k="addr:state" v="Tennessee"/>
    <tag k="addr:street" v="E 48th St"/>
  </node>
  <node id="639372697" version="1" timestamp="2010-02-15T03:04:58Z" uid="103576" user="DiverCTH" changeset="3879939" lat="34.98759" lon="-85.283605">
    <tag k="addr:country" v="US"/>
    <tag k="addr:county" v="Hamilton, TN"/>
    <tag k="addr:housenumber" v="3109"/>
    <tag k="addr:postcode" v="37407"/>
    <tag k="addr:state" v="Tennessee"/>
    <tag k="addr:street" v="E 48th St"/>
  </node>
  <node id="639372698" version="1" timestamp="2010-02-15T03:04:58Z" uid="103576" user="DiverCTH" changeset="3879939" lat="34.98759" lon="-85.283682"/>
  <node id="639372725" version="1" timestamp="2010-02-15T03:07:17Z" uid="9719" user="dvaey" changeset="3880097" lat="-35.4124225" lon="149.1277281"/>
  <node id="639372725" version="2" timestamp="2010-03-29T04:25:48Z" uid="79144" user="John H" changeset="4263727" lat="-35.4123969" lon="149.1277309"/>
  <node id="639372725" version="3" timestamp="2012-01-29T08:59:39Z" uid="12434" user="nm7s9" changeset="10527637" lat="-35.4123969" lon="149.1277309"/>
  <node id="639372731" version="1" timestamp="2010-02-15T03:08:31Z" uid="103576" user="DiverCTH" changeset="3879939" lat="34.98853" lon="-85.286954"/>
  <node id="639372732" version="1" timestamp="2010-02-15T03:08:31Z" uid="103576" user="DiverCTH" changeset="3879939" lat="34.98868" lon="-85.286872"/>
  <node id="639372733" version="1" timestamp="2010-02-15T03:08:31Z" uid="103576" user="DiverCTH" changeset="3879939" lat="34.988502" lon="-85.286876">
    <tag k="addr:country" v="US"/>
    <tag k="addr:county" v="Hamilton, TN"/>
    <tag k="addr:housenumber" v="2898"/>
    <tag k="addr:postcode" v="37407"/>
    <tag k="addr:state" v="Tennessee"/>
    <tag k="addr:street" v="E 47th St"/>
  </node>
  <node id="639372734" version="1" timestamp="2010-02-15T03:08:31Z" uid="103576" user="DiverCTH" changeset="3879939" lat="34.989767" lon="-85.289815">
    <tag k="addr:country" v="US"/>
    <tag k="addr:county" v="Hamilton, TN"/>
    <tag k="addr:housenumber" v="2600"/>
    <tag k="addr:postcode" v="37407"/>
    <tag k="addr:state" v="Tennessee"/>
    <tag k="addr:street" v="E 47th St"/>
  </node>
  <node id="639372735" version="1" timestamp="2010-02-15T03:08:31Z" uid="103576" user="DiverCTH" changeset="3879939" lat="34.989742" lon="-85.289769"/>
  <node id="639372736" version="1" timestamp="2010-02-15T03:08:31Z" uid="103576" user="DiverCTH" changeset="3879939" lat="34.989884" lon="-85.289657"/>
  <node id="639372737" version="1" timestamp="2010-02-15T03:08:31Z" uid="103576" user="DiverCTH" changeset="3879939" lat="34.989908" lon="-85.289712">
    <tag k="addr:country" v="US"/>
    <tag k="addr:county" v="Hamilton, TN"/>
    <tag k="addr:housenumber" v="2601"/>
    <tag k="addr:postcode" v="37407"/>
    <tag k="addr:state" v="Tennessee"/>
    <tag k="addr:street" v="E 47th St"/>
  </node>
  <node id="639372738" version="1" timestamp="2010-02-15T03:08:31Z" uid="103576" user="DiverCTH" changeset="3879939" lat="34.989318" lon="-85.288605"/>
  <node id="639372739" version="1" timestamp="2010-02-15T03:08:31Z" uid="103576" user="DiverCTH" changeset="3879939" lat="34.989327" lon="-85.289045">
    <tag k="addr:country" v="US"/>
    <tag k="addr:county" v="Hamilton, TN"/>
    <tag k="addr:housenumber" v="2698"/>
    <tag k="addr:postcode" v="37407"/>
    <tag k="addr:state" v="Tennessee"/>
    <tag k="addr:street" v="E 47th St"/>
  </node>
  <node id="639372740" version="1" timestamp="2010-02-15T03:08:32Z" uid="103576" user="DiverCTH" changeset="3879939" lat="34.989348" lon="-85.288686">
    <tag k="addr:country" v="US"/>
    <tag k="addr:county" v="Hamilton, TN"/>
    <tag k="addr:housenumber" v="2701"/>
    <tag k="addr:postcode" v="37407"/>
    <tag k="addr:state" v="Tennessee"/>
    <tag k="addr:street" v="E 47th St"/>
  </node>
  <node id="639372741" version="1" timestamp="2010-02-15T03:08:32Z" uid="103576" user="DiverCTH" changeset="3879939" lat="34.989168" lon="-85.288687"/>
  <node id="639372742" version="1" timestamp="2010-02-15T03:08:32Z" uid="103576" user="DiverCTH" changeset="3879939" lat="34.989198" lon="-85.288768">
    <tag k="addr:country" v="US"/>
    <tag k="addr:county" v="Hamilton, TN"/>
    <tag k="addr:housenumber" v="2700"/>
    <tag k="addr:postcode" v="37407"/>
    <tag k="addr:state" v="Tennessee"/>
    <tag k="addr:street" v="E 47th St"/>
  </node>
  <node id="639372743" version="1" timestamp="2010-02-15T03:08:32Z" uid="103576" user="DiverCTH" changeset="3879939" lat="34.989462" lon="-85.28893">
    <tag k="addr:country" v="US"/>
    <tag k="addr:county" v="Hamilton, TN"/>
    <tag k="addr:housenumber" v="2699"/>
    <tag k="addr:postcode" v="37407"/>
    <tag k="addr:state" v="Tennessee"/>
    <tag k="addr:street" v="E 47th St"/>
  </node>
  <node id="639372744" version="1" timestamp="2010-02-15T03:08:32Z" uid="103576" user="DiverCTH" changeset="3879939" lat="34.989046" lon="-85.287872">
    <tag k="addr:country" v="US"/>
    <tag k="addr:county" v="Hamilton, TN"/>
    <tag k="addr:housenumber" v="2799"/>
    <tag k="addr:postcode" v="37407"/>
    <tag k="addr:state" v="Tennessee"/>
    <tag k="addr:street" v="E 47th St"/>
  </node>
  <node id="639372745" version="1" timestamp="2010-02-15T03:08:32Z" uid="103576" user="DiverCTH" changeset="3879939" lat="34.989075" lon="-85.287952"/>
  <node id="639372746" version="1" timestamp="2010-02-15T03:08:32Z" uid="103576" user="DiverCTH" changeset="3879939" lat="34.988766" lon="-85.287601"/>
  <node id="639372747" version="1" timestamp="2010-02-15T03:08:32Z" uid="103576" user="DiverCTH" changeset="3879939" lat="34.988795" lon="-85.287679">
    <tag k="addr:country" v="US"/>
    <tag k="addr:county" v="Hamilton, TN"/>
    <tag k="addr:housenumber" v="2800"/>
    <tag k="addr:postcode" v="37407"/>
    <tag k="addr:state" v="Tennessee"/>
    <tag k="addr:street" v="E 47th St"/>
  </node>
  <node id="639372748" version="1" timestamp="2010-02-15T03:08:32Z" uid="103576" user="DiverCTH" changeset="3879939" lat="34.988895" lon="-85.287954">
    <tag k="addr:country" v="US"/>
    <tag k="addr:county" v="Hamilton, TN"/>
    <tag k="addr:housenumber" v="2798"/>
    <tag k="addr:postcode" v="37407"/>
    <tag k="addr:state" v="Tennessee"/>
    <tag k="addr:street" v="E 47th St"/>
  </node>
  <node id="639372749" version="1" timestamp="2010-02-15T03:08:32Z" uid="103576" user="DiverCTH" changeset="3879939" lat="34.988916" lon="-85.287519"/>
  <node id="639372750" version="1" timestamp="2010-02-15T03:08:32Z" uid="103576" user="DiverCTH" changeset="3879939" lat="34.988925" lon="-85.288034"/>
  <node id="639372751" version="1" timestamp="2010-02-15T03:08:32Z" uid="103576" user="DiverCTH" changeset="3879939" lat="34.988945" lon="-85.287598">
    <tag k="addr:country" v="US"/>
    <tag k="addr:county" v="Hamilton, TN"/>
    <tag k="addr:housenumber" v="2801"/>
    <tag k="addr:postcode" v="37407"/>
    <tag k="addr:state" v="Tennessee"/>
    <tag k="addr:street" v="E 47th St"/>
  </node>
  <node id="639372752" version="1" timestamp="2010-02-15T03:08:32Z" uid="103576" user="DiverCTH" changeset="3879939" lat="34.988555" lon="-85.286521">
    <tag k="addr:country" v="US"/>
    <tag k="addr:county" v="Hamilton, TN"/>
    <tag k="addr:housenumber" v="2901"/>
    <tag k="addr:postcode" v="37407"/>
    <tag k="addr:state" v="Tennessee"/>
    <tag k="addr:street" v="E 47th St"/>
  </node>
  <node id="639372753" version="1" timestamp="2010-02-15T03:08:32Z" uid="103576" user="DiverCTH" changeset="3879939" lat="34.98817" lon="-85.285928">
    <tag k="addr:country" v="US"/>
    <tag k="addr:county" v="Hamilton, TN"/>
    <tag k="addr:housenumber" v="2998"/>
    <tag k="addr:postcode" v="37407"/>
    <tag k="addr:state" v="Tennessee"/>
    <tag k="addr:street" v="E 47th St"/>
  </node>
  <node id="639372754" version="1" timestamp="2010-02-15T03:08:33Z" uid="103576" user="DiverCTH" changeset="3879939" lat="34.988187" lon="-85.285979"/>
  <node id="639372755" version="1" timestamp="2010-02-15T03:08:33Z" uid="103576" user="DiverCTH" changeset="3879939" lat="34.988652" lon="-85.286795">
    <tag k="addr:country" v="US"/>
    <tag k="addr:county" v="Hamilton, TN"/>
    <tag k="addr:housenumber" v="2899"/>
    <tag k="addr:postcode" v="37407"/>
    <tag k="addr:state" v="Tennessee"/>
    <tag k="addr:street" v="E 47th St"/>
  </node>
  <node id="639372756" version="1" timestamp="2010-02-15T03:08:33Z" uid="103576" user="DiverCTH" changeset="3879939" lat="34.988385" lon="-85.286547"/>
  <node id="639372757" version="1" timestamp="2010-02-15T03:08:33Z" uid="103576" user="DiverCTH" changeset="3879939" lat="34.988322" lon="-85.285851">
    <tag k="addr:country" v="US"/>
    <tag k="addr:county" v="Hamilton, TN"/>
    <tag k="addr:housenumber" v="2999"/>
    <tag k="addr:postcode" v="37407"/>
    <tag k="addr:state" v="Tennessee"/>
    <tag k="addr:street" v="E 47th St"/>
  </node>
  <node id="639372758" version="1" timestamp="2010-02-15T03:08:33Z" uid="103576" user="DiverCTH" changeset="3879939" lat="34.988339" lon="-85.285901"/>
  <node id="639372759" version="1" timestamp="2010-02-15T03:08:33Z" uid="103576" user="DiverCTH" changeset="3879939" lat="34.988537" lon="-85.286469"/>
  <node id="639372760" version="1" timestamp="2010-02-15T03:08:33Z" uid="103576" user="DiverCTH" changeset="3879939" lat="34.988403" lon="-85.286599">
    <tag k="addr:country" v="US"/>
    <tag k="addr:county" v="Hamilton, TN"/>
    <tag k="addr:housenumber" v="2900"/>
    <tag k="addr:postcode" v="37407"/>
    <tag k="addr:state" v="Tennessee"/>
    <tag k="addr:street" v="E 47th St"/>
  </node>
  <node id="639372774" version="1" timestamp="2010-02-15T03:09:45Z" uid="9719" user="dvaey" changeset="3880101" lat="-35.3810855" lon="149.059586"/>
  <node id="639372774" version="2" timestamp="2010-02-15T03:12:19Z" uid="9719" user="dvaey" changeset="3880105" lat="-35.3810155" lon="149.0595588"/>
  <node id="639372774" version="3" timestamp="2010-02-18T12:58:37Z" uid="9719" user="dvaey" changeset="3908731" lat="-35.3809744" lon="149.0595988"/>
  <node id="639372774" version="4" timestamp="2010-02-18T13:31:34Z" uid="9719" user="dvaey" changeset="3908731" lat="-35.3809744" lon="149.0595988"/>
  <node id="639372774" version="5" timestamp="2012-01-22T12:28:00Z" uid="12434" user="nm7s9" changeset="10464113" lat="-35.3809744" lon="149.0595988"/>
  <node id="639372775" version="1" timestamp="2010-02-15T03:09:46Z" uid="9719" user="dvaey" changeset="3880101" lat="-35.3810024" lon="149.0597573"/>
  <node id="639372775" version="2" timestamp="2010-02-15T03:12:19Z" uid="9719" user="dvaey" changeset="3880105" lat="-35.3809543" lon="149.0597251"/>
  <node id="639372775" version="3" timestamp="2010-02-15T03:19:20Z" uid="9719" user="dvaey" changeset="3880114" lat="-35.3809896" lon="149.0597415"/>
  <node id="639372775" version="4" timestamp="2010-02-15T03:23:57Z" uid="9719" user="dvaey" changeset="3880122" lat="-35.380985" lon="149.0596931"/>
  <node id="639372775" version="5" timestamp="2010-02-18T12:59:15Z" uid="9719" user="dvaey" changeset="3908731" lat="-35.3809558" lon="149.0596591"/>
  <node id="639372775" version="6" timestamp="2012-01-22T12:28:00Z" uid="12434" user="nm7s9" changeset="10464113" lat="-35.3809558" lon="149.0596591"/>
  <node id="639372776" version="1" timestamp="2010-02-15T03:09:46Z" uid="9719" user="dvaey" changeset="3880101" lat="-35.3809018" lon="149.0598538"/>
  <node id="639372776" version="2" timestamp="2010-02-15T03:12:19Z" uid="9719" user="dvaey" changeset="3880105" lat="-35.3808712" lon="149.0598002"/>
  <node id="639372776" version="3" timestamp="2010-02-15T03:19:20Z" uid="9719" user="dvaey" changeset="3880114" lat="-35.3808934" lon="149.0598648"/>
  <node id="639372776" version="4" timestamp="2010-02-15T03:21:17Z" uid="9719" user="dvaey" changeset="3880117" lat="-35.3808978" lon="149.0598488"/>
  <node id="639372776" version="5" timestamp="2010-02-15T03:23:57Z" uid="9719" user="dvaey" changeset="3880122" lat="-35.3808888" lon="149.0598003"/>
  <node id="639372776" version="6" timestamp="2010-02-18T12:59:15Z" uid="9719" user="dvaey" changeset="3908731" lat="-35.3808585" lon="149.0597624"/>
  <node id="639372776" version="7" timestamp="2012-01-22T12:28:01Z" uid="12434" user="nm7s9" changeset="10464113" lat="-35.3808585" lon="149.0597624"/>
  <node id="639372777" version="1" timestamp="2010-02-15T03:09:46Z" uid="9719" user="dvaey" changeset="3880101" lat="-35.3808187" lon="149.0598914"/>
  <node id="639372777" version="2" timestamp="2010-02-15T03:12:19Z" uid="9719" user="dvaey" changeset="3880105" lat="-35.3807881" lon="149.0598431"/>
  <node id="639372777" version="3" timestamp="2010-02-15T03:18:47Z" uid="9719" user="dvaey" changeset="3880114" lat="-35.3807447" lon="149.0599078"/>
  <node id="639372777" version="4" timestamp="2010-02-15T03:21:17Z" uid="9719" user="dvaey" changeset="3880117" lat="-35.3807578" lon="149.0598756"/>
  <node id="639372777" version="5" timestamp="2010-02-15T03:23:57Z" uid="9719" user="dvaey" changeset="3880122" lat="-35.3807707" lon="149.0598486"/>
  <node id="639372777" version="6" timestamp="2010-02-18T12:59:15Z" uid="9719" user="dvaey" changeset="3908731" lat="-35.3807666" lon="149.0598375"/>
  <node id="639372777" version="7" timestamp="2010-02-18T13:00:31Z" uid="9719" user="dvaey" changeset="3908731" lat="-35.3807688" lon="149.0598362"/>
  <node id="639372777" version="8" timestamp="2012-01-22T12:28:01Z" uid="12434" user="nm7s9" changeset="10464113" lat="-35.3807688" lon="149.0598362"/>
  <node id="639372778" version="1" timestamp="2010-02-15T03:09:46Z" uid="9719" user="dvaey" changeset="3880101" lat="-35.3806962" lon="149.0599397"/>
  <node id="639372778" version="2" timestamp="2010-02-15T03:12:19Z" uid="9719" user="dvaey" changeset="3880105" lat="-35.3806831" lon="149.0598646"/>
  <node id="639372778" version="3" timestamp="2010-02-15T03:18:42Z" uid="9719" user="dvaey" changeset="3880114" lat="-35.3806791" lon="149.0600419"/>
  <node id="639372778" version="4" timestamp="2010-02-15T03:19:20Z" uid="9719" user="dvaey" changeset="3880114" lat="-35.3806791" lon="149.0600419"/>
  <node id="639372778" version="5" timestamp="2010-02-15T03:21:17Z" uid="9719" user="dvaey" changeset="3880117" lat="-35.3806354" lon="149.0600043"/>
  <node id="639372778" version="6" timestamp="2010-02-15T03:23:57Z" uid="9719" user="dvaey" changeset="3880122" lat="-35.3806307" lon="149.060251"/>
  <node id="639372778" version="7" timestamp="2010-02-18T13:00:08Z" uid="9719" user="dvaey" changeset="3908731" lat="-35.380619" lon="149.0602371"/>
  <node id="639372778" version="8" timestamp="2012-01-22T12:28:01Z" uid="12434" user="nm7s9" changeset="10464113" lat="-35.380619" lon="149.0602371"/>
  <node id="639372779" version="1" timestamp="2010-02-15T03:09:46Z" uid="9719" user="dvaey" changeset="3880101" lat="-35.38053" lon="149.0599558"/>
  <node id="639372779" version="2" timestamp="2010-02-15T03:12:19Z" uid="9719" user="dvaey" changeset="3880105" lat="-35.38053" lon="149.0599558"/>
  <node id="639372824" version="1" timestamp="2010-02-15T03:12:19Z" uid="9719" user="dvaey" changeset="3880105" lat="-35.3806787" lon="149.0603849"/>
  <node id="639372824" version="2" timestamp="2010-02-15T03:19:20Z" uid="9719" user="dvaey" changeset="3880114" lat="-35.3806922" lon="149.0603852"/>
  <node id="639372824" version="3" timestamp="2010-02-15T03:21:17Z" uid="9719" user="dvaey" changeset="3880117" lat="-35.3806354" lon="149.0604227"/>
  <node id="639372824" version="4" timestamp="2010-02-15T03:24:04Z" uid="9719" user="dvaey" changeset="3880122" lat="-35.3806657" lon="149.0620802"/>
  <node id="639372824" version="5" timestamp="2010-02-18T13:25:38Z" uid="9719" user="dvaey" changeset="3908731" lat="-35.3806179" lon="149.0617808"/>
  <node id="639372824" version="6" timestamp="2010-02-21T02:56:11Z" uid="9719" user="dvaey" changeset="3929647" lat="-35.3806173" lon="149.0617736"/>
  <node id="639372824" version="7" timestamp="2012-01-22T12:28:01Z" uid="12434" user="nm7s9" changeset="10464113" lat="-35.3806173" lon="149.0617736"/>
  <node id="639372826" version="1" timestamp="2010-02-15T03:13:08Z" uid="4467" user="Rosscoe" changeset="3880108" lat="-41.244718" lon="146.344562"/>
  <node id="639372826" version="2" timestamp="2010-12-13T12:41:46Z" uid="46482" user="Leon K" changeset="6646862" lat="-41.244718" lon="146.344562"/>
  <node id="639372827" version="1" timestamp="2010-02-15T03:13:08Z" uid="4467" user="Rosscoe" changeset="3880108" lat="-41.244832" lon="146.344143"/>
  <node id="639372827" version="2" timestamp="2010-12-13T12:41:47Z" uid="46482" user="Leon K" changeset="6646862" lat="-41.244832" lon="146.344143"/>
  <node id="639372828" version="1" timestamp="2010-02-15T03:13:09Z" uid="4467" user="Rosscoe" changeset="3880108" lat="-41.2448221" lon="146.3438368"/>
  <node id="639372828" version="2" timestamp="2010-12-13T12:41:42Z" uid="46482" user="Leon K" changeset="6646862" lat="-41.2450176" lon="146.3435632"/>
  <node id="639372829" version="1" timestamp="2010-02-15T03:13:09Z" uid="4467" user="Rosscoe" changeset="3880108" lat="-41.240733" lon="146.352458"/>
  <node id="639372829" version="2" timestamp="2010-12-13T12:41:46Z" uid="46482" user="Leon K" changeset="6646862" lat="-41.240733" lon="146.352458"/>
  <node id="639372830" version="1" timestamp="2010-02-15T03:13:09Z" uid="4467" user="Rosscoe" changeset="3880108" lat="-41.240858" lon="146.35203"/>
  <node id="639372830" version="2" timestamp="2010-12-13T12:41:46Z" uid="46482" user="Leon K" changeset="6646862" lat="-41.240858" lon="146.35203"/>
  <node id="639372831" version="1" timestamp="2010-02-15T03:13:09Z" uid="4467" user="Rosscoe" changeset="3880108" lat="-41.241043" lon="146.351655"/>
  <node id="639372831" version="2" timestamp="2010-12-13T12:41:46Z" uid="46482" user="Leon K" changeset="6646862" lat="-41.241043" lon="146.351655"/>
  <node id="639372832" version="1" timestamp="2010-02-15T03:13:09Z" uid="4467" user="Rosscoe" changeset="3880108" lat="-41.23953" lon="146.361483"/>
  <node id="639372832" version="2" timestamp="2010-12-13T12:41:46Z" uid="46482" user="Leon K" changeset="6646862" lat="-41.23953" lon="146.361483"/>
  <node id="639372833" version="1" timestamp="2010-02-15T03:13:09Z" uid="4467" user="Rosscoe" changeset="3880108" lat="-41.238402" lon="146.368597"/>
  <node id="639372833" version="2" timestamp="2010-12-13T12:41:46Z" uid="46482" user="Leon K" changeset="6646862" lat="-41.238402" lon="146.368597"/>
  <node id="639372834" version="1" timestamp="2010-02-15T03:13:09Z" uid="4467" user="Rosscoe" changeset="3880108" lat="-41.238767" lon="146.367785"/>
  <node id="639372834" version="2" timestamp="2010-12-13T12:41:46Z" uid="46482" user="Leon K" changeset="6646862" lat="-41.238767" lon="146.367785"/>
  <node id="639372835" version="1" timestamp="2010-02-15T03:13:09Z" uid="4467" user="Rosscoe" changeset="3880108" lat="-41.238892" lon="146.36703"/>
  <node id="639372835" version="2" timestamp="2010-12-13T12:41:46Z" uid="46482" user="Leon K" changeset="6646862" lat="-41.238892" lon="146.36703"/>
  <node id="639372836" version="1" timestamp="2010-02-15T03:13:09Z" uid="4467" user="Rosscoe" changeset="3880108" lat="-41.2322131" lon="146.3807479"/>
  <node id="639372836" version="2" timestamp="2010-12-13T12:41:42Z" uid="46482" user="Leon K" changeset="6646862" lat="-41.2321927" lon="146.3805157"/>
  <node id="639372836" version="3" timestamp="2011-12-19T02:18:27Z" uid="111529" user="ReinerMeyer" changeset="10152489" lat="-41.2321704" lon="146.3805412"/>
  <node id="639373289" version="1" timestamp="2010-02-15T03:14:48Z" uid="103576" user="DiverCTH" changeset="3879939" lat="34.990632" lon="-85.289936">
    <tag k="addr:country" v="US"/>
    <tag k="addr:county" v="Hamilton, TN"/>
    <tag k="addr:housenumber" v="2600"/>
    <tag k="addr:postcode" v="37407"/>
    <tag k="addr:state" v="Tennessee"/>
    <tag k="addr:street" v="E 46th St"/>
  </node>
  <node id="639373290" version="1" timestamp="2010-02-15T03:14:48Z" uid="103576" user="DiverCTH" changeset="3879939" lat="34.990612" lon="-85.28987"/>
  <node id="639373291" version="1" timestamp="2010-02-15T03:14:48Z" uid="103576" user="DiverCTH" changeset="3879939" lat="34.990784" lon="-85.289802"/>
  <node id="639373292" version="1" timestamp="2010-02-15T03:14:48Z" uid="103576" user="DiverCTH" changeset="3879939" lat="34.990792" lon="-85.289894">
    <tag k="addr:country" v="US"/>
    <tag k="addr:county" v="Hamilton, TN"/>
    <tag k="addr:housenumber" v="2601"/>
    <tag k="addr:postcode" v="37407"/>
    <tag k="addr:state" v="Tennessee"/>
    <tag k="addr:street" v="E 46th St"/>
  </node>
  <node id="639373293" version="1" timestamp="2010-02-15T03:14:49Z" uid="103576" user="DiverCTH" changeset="3879939" lat="34.990051" lon="-85.288314">
    <tag k="addr:country" v="US"/>
    <tag k="addr:county" v="Hamilton, TN"/>
    <tag k="addr:housenumber" v="2700"/>
    <tag k="addr:postcode" v="37407"/>
    <tag k="addr:state" v="Tennessee"/>
    <tag k="addr:street" v="E 46th St"/>
  </node>
  <node id="639373294" version="1" timestamp="2010-02-15T03:14:49Z" uid="103576" user="DiverCTH" changeset="3879939" lat="34.990021" lon="-85.288231"/>
  <node id="639373295" version="1" timestamp="2010-02-15T03:14:49Z" uid="103576" user="DiverCTH" changeset="3879939" lat="34.989781" lon="-85.287573"/>
  <node id="639373296" version="1" timestamp="2010-02-15T03:14:49Z" uid="103576" user="DiverCTH" changeset="3879939" lat="34.989801" lon="-85.287135">
    <tag k="addr:country" v="US"/>
    <tag k="addr:county" v="Hamilton, TN"/>
    <tag k="addr:housenumber" v="2801"/>
    <tag k="addr:postcode" v="37407"/>
    <tag k="addr:state" v="Tennessee"/>
    <tag k="addr:street" v="E 46th St"/>
  </node>
  <node id="639373297" version="1" timestamp="2010-02-15T03:14:49Z" uid="103576" user="DiverCTH" changeset="3879939" lat="34.989772" lon="-85.287055"/>
  <node id="639373298" version="1" timestamp="2010-02-15T03:14:49Z" uid="103576" user="DiverCTH" changeset="3879939" lat="34.989651" lon="-85.287216">
    <tag k="addr:country" v="US"/>
    <tag k="addr:county" v="Hamilton, TN"/>
    <tag k="addr:housenumber" v="2800"/>
    <tag k="addr:postcode" v="37407"/>
    <tag k="addr:state" v="Tennessee"/>
    <tag k="addr:street" v="E 46th St"/>
  </node>
  <node id="639373299" version="1" timestamp="2010-02-15T03:14:49Z" uid="103576" user="DiverCTH" changeset="3879939" lat="34.989622" lon="-85.287135"/>
  <node id="639373300" version="1" timestamp="2010-02-15T03:14:49Z" uid="103576" user="DiverCTH" changeset="3879939" lat="34.989901" lon="-85.28741">
    <tag k="addr:country" v="US"/>
    <tag k="addr:county" v="Hamilton, TN"/>
    <tag k="addr:housenumber" v="2799"/>
    <tag k="addr:postcode" v="37407"/>
    <tag k="addr:state" v="Tennessee"/>
    <tag k="addr:street" v="E 46th St"/>
  </node>
  <node id="639373301" version="1" timestamp="2010-02-15T03:14:49Z" uid="103576" user="DiverCTH" changeset="3879939" lat="34.989931" lon="-85.287491"/>
  <node id="639373302" version="1" timestamp="2010-02-15T03:14:49Z" uid="103576" user="DiverCTH" changeset="3879939" lat="34.989751" lon="-85.287491">
    <tag k="addr:country" v="US"/>
    <tag k="addr:county" v="Hamilton, TN"/>
    <tag k="addr:housenumber" v="2798"/>
    <tag k="addr:postcode" v="37407"/>
    <tag k="addr:state" v="Tennessee"/>
    <tag k="addr:street" v="E 46th St"/>
  </node>
  <node id="639373303" version="1" timestamp="2010-02-15T03:14:49Z" uid="103576" user="DiverCTH" changeset="3879939" lat="34.990154" lon="-85.288588">
    <tag k="addr:country" v="US"/>
    <tag k="addr:county" v="Hamilton, TN"/>
    <tag k="addr:housenumber" v="2698"/>
    <tag k="addr:postcode" v="37407"/>
    <tag k="addr:state" v="Tennessee"/>
    <tag k="addr:street" v="E 46th St"/>
  </node>
  <node id="639373304" version="1" timestamp="2010-02-15T03:14:49Z" uid="103576" user="DiverCTH" changeset="3879939" lat="34.990167" lon="-85.288625"/>
  <node id="639373305" version="1" timestamp="2010-02-15T03:14:49Z" uid="103576" user="DiverCTH" changeset="3879939" lat="34.990304" lon="-85.288504">
    <tag k="addr:country" v="US"/>
    <tag k="addr:county" v="Hamilton, TN"/>
    <tag k="addr:housenumber" v="2699"/>
    <tag k="addr:postcode" v="37407"/>
    <tag k="addr:state" v="Tennessee"/>
    <tag k="addr:street" v="E 46th St"/>
  </node>
  <node id="639373306" version="1" timestamp="2010-02-15T03:14:49Z" uid="103576" user="DiverCTH" changeset="3879939" lat="34.990171" lon="-85.288149"/>
  <node id="639373307" version="1" timestamp="2010-02-15T03:14:50Z" uid="103576" user="DiverCTH" changeset="3879939" lat="34.990319" lon="-85.288541"/>
  <node id="639373308" version="1" timestamp="2010-02-15T03:14:50Z" uid="103576" user="DiverCTH" changeset="3879939" lat="34.990202" lon="-85.288232">
    <tag k="addr:country" v="US"/>
    <tag k="addr:county" v="Hamilton, TN"/>
    <tag k="addr:housenumber" v="2701"/>
    <tag k="addr:postcode" v="37407"/>
    <tag k="addr:state" v="Tennessee"/>
    <tag k="addr:street" v="E 46th St"/>
  </node>
  <node id="639373309" version="1" timestamp="2010-02-15T03:14:50Z" uid="103576" user="DiverCTH" changeset="3879939" lat="34.988612" lon="-85.284354">
    <tag k="addr:country" v="US"/>
    <tag k="addr:county" v="Hamilton, TN"/>
    <tag k="addr:housenumber" v="3100"/>
    <tag k="addr:postcode" v="37407"/>
    <tag k="addr:state" v="Tennessee"/>
    <tag k="addr:street" v="E 46th St"/>
  </node>
  <node id="639373310" version="1" timestamp="2010-02-15T03:14:50Z" uid="103576" user="DiverCTH" changeset="3879939" lat="34.988586" lon="-85.284288"/>
  <node id="639373311" version="1" timestamp="2010-02-15T03:14:50Z" uid="103576" user="DiverCTH" changeset="3879939" lat="34.98801" lon="-85.28275">
    <tag k="addr:country" v="US"/>
    <tag k="addr:county" v="Hamilton, TN"/>
    <tag k="addr:housenumber" v="3198"/>
    <tag k="addr:postcode" v="37407"/>
    <tag k="addr:state" v="Tennessee"/>
    <tag k="addr:street" v="E 46th St"/>
  </node>
  <node id="639373312" version="1" timestamp="2010-02-15T03:14:50Z" uid="103576" user="DiverCTH" changeset="3879939" lat="34.988486" lon="-85.283536">
    <tag k="addr:country" v="US"/>
    <tag k="addr:county" v="Hamilton, TN"/>
    <tag k="addr:housenumber" v="3109"/>
    <tag k="addr:postcode" v="37407"/>
    <tag k="addr:state" v="Tennessee"/>
    <tag k="addr:street" v="E 46th St"/>
  </node>
  <node id="639373313" version="1" timestamp="2010-02-15T03:14:50Z" uid="103576" user="DiverCTH" changeset="3879939" lat="34.988509" lon="-85.2836"/>
  <node id="639373314" version="1" timestamp="2010-02-15T03:14:50Z" uid="103576" user="DiverCTH" changeset="3879939" lat="34.988235" lon="-85.283344">
    <tag k="addr:country" v="US"/>
    <tag k="addr:county" v="Hamilton, TN"/>
    <tag k="addr:housenumber" v="3112"/>
    <tag k="addr:postcode" v="37407"/>
    <tag k="addr:state" v="Tennessee"/>
    <tag k="addr:street" v="E 46th St"/>
  </node>
  <node id="639373315" version="1" timestamp="2010-02-15T03:14:50Z" uid="103576" user="DiverCTH" changeset="3879939" lat="34.988335" lon="-85.283616">
    <tag k="addr:country" v="US"/>
    <tag k="addr:county" v="Hamilton, TN"/>
    <tag k="addr:housenumber" v="3110"/>
    <tag k="addr:postcode" v="37407"/>
    <tag k="addr:state" v="Tennessee"/>
    <tag k="addr:street" v="E 46th St"/>
  </node>
  <node id="639373316" version="1" timestamp="2010-02-15T03:14:50Z" uid="103576" user="DiverCTH" changeset="3879939" lat="34.98822" lon="-85.283306"/>
  <node id="639373317" version="1" timestamp="2010-02-15T03:14:50Z" uid="103576" user="DiverCTH" changeset="3879939" lat="34.988574" lon="-85.283778"/>
  <node id="639373318" version="1" timestamp="2010-02-15T03:14:50Z" uid="103576" user="DiverCTH" changeset="3879939" lat="34.988384" lon="-85.28326">
    <tag k="addr:country" v="US"/>
    <tag k="addr:county" v="Hamilton, TN"/>
    <tag k="addr:housenumber" v="3111"/>
    <tag k="addr:postcode" v="37407"/>
    <tag k="addr:state" v="Tennessee"/>
    <tag k="addr:street" v="E 46th St"/>
  </node>
  <node id="639373319" version="1" timestamp="2010-02-15T03:14:50Z" uid="103576" user="DiverCTH" changeset="3879939" lat="34.98837" lon="-85.283222"/>
  <node id="639373320" version="1" timestamp="2010-02-15T03:14:50Z" uid="103576" user="DiverCTH" changeset="3879939" lat="34.988023" lon="-85.282787"/>
  <node id="639373321" version="1" timestamp="2010-02-15T03:14:51Z" uid="103576" user="DiverCTH" changeset="3879939" lat="34.988422" lon="-85.283862"/>
  <node id="639373322" version="1" timestamp="2010-02-15T03:14:51Z" uid="103576" user="DiverCTH" changeset="3879939" lat="34.988357" lon="-85.28368"/>
  <node id="639373323" version="1" timestamp="2010-02-15T03:14:51Z" uid="103576" user="DiverCTH" changeset="3879939" lat="34.987855" lon="-85.282328"/>
  <node id="639373324" version="1" timestamp="2010-02-15T03:14:51Z" uid="103576" user="DiverCTH" changeset="3879939" lat="34.987866" lon="-85.282357">
    <tag k="addr:country" v="US"/>
    <tag k="addr:county" v="Hamilton, TN"/>
    <tag k="addr:housenumber" v="3208"/>
    <tag k="addr:postcode" v="37407"/>
    <tag k="addr:state" v="Tennessee"/>
    <tag k="addr:street" v="E 46th St"/>
  </node>
  <node id="639373325" version="1" timestamp="2010-02-15T03:14:51Z" uid="103576" user="DiverCTH" changeset="3879939" lat="34.988007" lon="-85.282248"/>
  <node id="639373326" version="1" timestamp="2010-02-15T03:14:51Z" uid="103576" user="DiverCTH" changeset="3879939" lat="34.988017" lon="-85.282276">
    <tag k="addr:country" v="US"/>
    <tag k="addr:county" v="Hamilton, TN"/>
    <tag k="addr:housenumber" v="3209"/>
    <tag k="addr:postcode" v="37407"/>
    <tag k="addr:state" v="Tennessee"/>
    <tag k="addr:street" v="E 46th St"/>
  </node>
  <node id="639373327" version="1" timestamp="2010-02-15T03:14:51Z" uid="103576" user="DiverCTH" changeset="3879939" lat="34.987921" lon="-85.281991"/>
  <node id="639373328" version="1" timestamp="2010-02-15T03:14:51Z" uid="103576" user="DiverCTH" changeset="3879939" lat="34.987974" lon="-85.282151"/>
  <node id="639373329" version="1" timestamp="2010-02-15T03:14:51Z" uid="103576" user="DiverCTH" changeset="3879939" lat="34.987767" lon="-85.282071"/>
  <node id="639373330" version="1" timestamp="2010-02-15T03:14:51Z" uid="103576" user="DiverCTH" changeset="3879939" lat="34.98782" lon="-85.282229"/>
  <node id="639373331" version="1" timestamp="2010-02-15T03:14:51Z" uid="103576" user="DiverCTH" changeset="3879939" lat="34.987534" lon="-85.281443"/>
  <node id="639373332" version="1" timestamp="2010-02-15T03:14:51Z" uid="103576" user="DiverCTH" changeset="3879939" lat="34.988173" lon="-85.282703"/>
  <node id="639373333" version="1" timestamp="2010-02-15T03:14:51Z" uid="103576" user="DiverCTH" changeset="3879939" lat="34.988159" lon="-85.282667">
    <tag k="addr:country" v="US"/>
    <tag k="addr:county" v="Hamilton, TN"/>
    <tag k="addr:housenumber" v="3199"/>
    <tag k="addr:postcode" v="37407"/>
    <tag k="addr:state" v="Tennessee"/>
    <tag k="addr:street" v="E 46th St"/>
  </node>
  <node id="639373334" version="1" timestamp="2010-02-15T03:14:51Z" uid="103576" user="DiverCTH" changeset="3879939" lat="34.989358" lon="-85.286402">
    <tag k="addr:country" v="US"/>
    <tag k="addr:county" v="Hamilton, TN"/>
    <tag k="addr:housenumber" v="2898"/>
    <tag k="addr:postcode" v="37407"/>
    <tag k="addr:state" v="Tennessee"/>
    <tag k="addr:street" v="E 46th St"/>
  </node>
  <node id="639373335" version="1" timestamp="2010-02-15T03:14:51Z" uid="103576" user="DiverCTH" changeset="3879939" lat="34.989387" lon="-85.286481"/>
  <node id="639373336" version="1" timestamp="2010-02-15T03:14:51Z" uid="103576" user="DiverCTH" changeset="3879939" lat="34.98923" lon="-85.285566">
    <tag k="addr:country" v="US"/>
    <tag k="addr:county" v="Hamilton, TN"/>
    <tag k="addr:housenumber" v="2999"/>
    <tag k="addr:postcode" v="37407"/>
    <tag k="addr:state" v="Tennessee"/>
    <tag k="addr:street" v="E 46th St"/>
  </node>
  <node id="639373337" version="1" timestamp="2010-02-15T03:14:52Z" uid="103576" user="DiverCTH" changeset="3879939" lat="34.98908" lon="-85.285647">
    <tag k="addr:country" v="US"/>
    <tag k="addr:county" v="Hamilton, TN"/>
    <tag k="addr:housenumber" v="2998"/>
    <tag k="addr:postcode" v="37407"/>
    <tag k="addr:state" v="Tennessee"/>
    <tag k="addr:street" v="E 46th St"/>
  </node>
  <node id="639373338" version="1" timestamp="2010-02-15T03:14:52Z" uid="103576" user="DiverCTH" changeset="3879939" lat="34.989235" lon="-85.285579"/>
  <node id="639373339" version="1" timestamp="2010-02-15T03:14:52Z" uid="103576" user="DiverCTH" changeset="3879939" lat="34.989258" lon="-85.286128">
    <tag k="addr:country" v="US"/>
    <tag k="addr:county" v="Hamilton, TN"/>
    <tag k="addr:housenumber" v="2900"/>
    <tag k="addr:postcode" v="37407"/>
    <tag k="addr:state" v="Tennessee"/>
    <tag k="addr:street" v="E 46th St"/>
  </node>
  <node id="639373340" version="1" timestamp="2010-02-15T03:14:52Z" uid="103576" user="DiverCTH" changeset="3879939" lat="34.989253" lon="-85.286114"/>
  <node id="639373341" version="1" timestamp="2010-02-15T03:14:52Z" uid="103576" user="DiverCTH" changeset="3879939" lat="34.989085" lon="-85.285661"/>
  <node id="639373342" version="1" timestamp="2010-02-15T03:14:52Z" uid="103576" user="DiverCTH" changeset="3879939" lat="34.989509" lon="-85.286321">
    <tag k="addr:country" v="US"/>
    <tag k="addr:county" v="Hamilton, TN"/>
    <tag k="addr:housenumber" v="2899"/>
    <tag k="addr:postcode" v="37407"/>
    <tag k="addr:state" v="Tennessee"/>
    <tag k="addr:street" v="E 46th St"/>
  </node>
  <node id="639373343" version="1" timestamp="2010-02-15T03:14:52Z" uid="103576" user="DiverCTH" changeset="3879939" lat="34.989537" lon="-85.286401"/>
  <node id="639373344" version="1" timestamp="2010-02-15T03:14:52Z" uid="103576" user="DiverCTH" changeset="3879939" lat="34.989408" lon="-85.286046">
    <tag k="addr:country" v="US"/>
    <tag k="addr:county" v="Hamilton, TN"/>
    <tag k="addr:housenumber" v="2905"/>
    <tag k="addr:postcode" v="37407"/>
    <tag k="addr:state" v="Tennessee"/>
    <tag k="addr:street" v="E 46th St"/>
  </node>
  <node id="639373345" version="1" timestamp="2010-02-15T03:14:52Z" uid="103576" user="DiverCTH" changeset="3879939" lat="34.989403" lon="-85.286032"/>
  <node id="639373346" version="1" timestamp="2010-02-15T03:14:52Z" uid="103576" user="DiverCTH" changeset="3879939" lat="34.988916" lon="-85.28469">
    <tag k="addr:country" v="US"/>
    <tag k="addr:county" v="Hamilton, TN"/>
    <tag k="addr:housenumber" v="3099"/>
    <tag k="addr:postcode" v="37407"/>
    <tag k="addr:state" v="Tennessee"/>
    <tag k="addr:street" v="E 46th St"/>
  </node>
  <node id="639373347" version="1" timestamp="2010-02-15T03:14:52Z" uid="103576" user="DiverCTH" changeset="3879939" lat="34.988761" lon="-85.284268">
    <tag k="addr:country" v="US"/>
    <tag k="addr:county" v="Hamilton, TN"/>
    <tag k="addr:housenumber" v="3101"/>
    <tag k="addr:postcode" v="37407"/>
    <tag k="addr:state" v="Tennessee"/>
    <tag k="addr:street" v="E 46th St"/>
  </node>
  <node id="639373348" version="1" timestamp="2010-02-15T03:14:52Z" uid="103576" user="DiverCTH" changeset="3879939" lat="34.98893" lon="-85.284727"/>
  <node id="639373349" version="1" timestamp="2010-02-15T03:14:52Z" uid="103576" user="DiverCTH" changeset="3879939" lat="34.988736" lon="-85.284202"/>
  <node id="639373350" version="1" timestamp="2010-02-15T03:14:52Z" uid="103576" user="DiverCTH" changeset="3879939" lat="34.988967" lon="-85.285333"/>
  <node id="639373351" version="1" timestamp="2010-02-15T03:14:52Z" uid="103576" user="DiverCTH" changeset="3879939" lat="34.98898" lon="-85.285371">
    <tag k="addr:country" v="US"/>
    <tag k="addr:county" v="Hamilton, TN"/>
    <tag k="addr:housenumber" v="3000"/>
    <tag k="addr:postcode" v="37407"/>
    <tag k="addr:state" v="Tennessee"/>
    <tag k="addr:street" v="E 46th St"/>
  </node>
  <node id="639373352" version="1" timestamp="2010-02-15T03:14:53Z" uid="103576" user="DiverCTH" changeset="3879939" lat="34.988765" lon="-85.28477">
    <tag k="addr:country" v="US"/>
    <tag k="addr:county" v="Hamilton, TN"/>
    <tag k="addr:housenumber" v="3098"/>
    <tag k="addr:postcode" v="37407"/>
    <tag k="addr:state" v="Tennessee"/>
    <tag k="addr:street" v="E 46th St"/>
  </node>
  <node id="639373353" version="1" timestamp="2010-02-15T03:14:53Z" uid="103576" user="DiverCTH" changeset="3879939" lat="34.988778" lon="-85.284807"/>
  <node id="639373354" version="1" timestamp="2010-02-15T03:14:53Z" uid="103576" user="DiverCTH" changeset="3879939" lat="34.989117" lon="-85.285253"/>
  <node id="639373355" version="1" timestamp="2010-02-15T03:14:53Z" uid="103576" user="DiverCTH" changeset="3879939" lat="34.989131" lon="-85.285291">
    <tag k="addr:country" v="US"/>
    <tag k="addr:county" v="Hamilton, TN"/>
    <tag k="addr:housenumber" v="3001"/>
    <tag k="addr:postcode" v="37407"/>
    <tag k="addr:state" v="Tennessee"/>
    <tag k="addr:street" v="E 46th St"/>
  </node>
  <node id="639373356" version="1" timestamp="2010-02-15T03:14:53Z" uid="103576" user="DiverCTH" changeset="3879939" lat="34.987488" lon="-85.281319">
    <tag k="addr:country" v="US"/>
    <tag k="addr:county" v="Hamilton, TN"/>
    <tag k="addr:housenumber" v="3298"/>
    <tag k="addr:postcode" v="37407"/>
    <tag k="addr:state" v="Tennessee"/>
    <tag k="addr:street" v="E 46th St"/>
  </node>
  <node id="639373357" version="1" timestamp="2010-02-15T03:14:53Z" uid="103576" user="DiverCTH" changeset="3879939" lat="34.987684" lon="-85.281361"/>
  <node id="639373358" version="1" timestamp="2010-02-15T03:14:53Z" uid="103576" user="DiverCTH" changeset="3879939" lat="34.987638" lon="-85.281237">
    <tag k="addr:country" v="US"/>
    <tag k="addr:county" v="Hamilton, TN"/>
    <tag k="addr:housenumber" v="3299"/>
    <tag k="addr:postcode" v="37407"/>
    <tag k="addr:state" v="Tennessee"/>
    <tag k="addr:street" v="E 46th St"/>
  </node>
  <node id="639373359" version="1" timestamp="2010-02-15T03:14:53Z" uid="103576" user="DiverCTH" changeset="3879939" lat="34.987406" lon="-85.281015">
    <tag k="addr:country" v="US"/>
    <tag k="addr:county" v="Hamilton, TN"/>
    <tag k="addr:housenumber" v="3300"/>
    <tag k="addr:postcode" v="37407"/>
    <tag k="addr:state" v="Tennessee"/>
    <tag k="addr:street" v="E 46th St"/>
  </node>
  <node id="639373360" version="1" timestamp="2010-02-15T03:14:53Z" uid="103576" user="DiverCTH" changeset="3879939" lat="34.987372" lon="-85.280822">
    <tag k="addr:country" v="US"/>
    <tag k="addr:county" v="Hamilton, TN"/>
    <tag k="addr:housenumber" v="3398"/>
    <tag k="addr:postcode" v="37407"/>
    <tag k="addr:state" v="Tennessee"/>
    <tag k="addr:street" v="E 46th St"/>
  </node>
  <node id="639373361" version="1" timestamp="2010-02-15T03:14:53Z" uid="103576" user="DiverCTH" changeset="3879939" lat="34.987567" lon="-85.280973">
    <tag k="addr:country" v="US"/>
    <tag k="addr:county" v="Hamilton, TN"/>
    <tag k="addr:housenumber" v="3301"/>
    <tag k="addr:postcode" v="37407"/>
    <tag k="addr:state" v="Tennessee"/>
    <tag k="addr:street" v="E 46th St"/>
  </node>
  <node id="639373362" version="1" timestamp="2010-02-15T03:14:53Z" uid="103576" user="DiverCTH" changeset="3879939" lat="34.987533" lon="-85.28078">
    <tag k="addr:country" v="US"/>
    <tag k="addr:county" v="Hamilton, TN"/>
    <tag k="addr:housenumber" v="3399"/>
    <tag k="addr:postcode" v="37407"/>
    <tag k="addr:state" v="Tennessee"/>
    <tag k="addr:street" v="E 46th St"/>
  </node>
  <node id="639373376" version="1" timestamp="2010-02-15T03:20:45Z" uid="103576" user="DiverCTH" changeset="3879939" lat="34.984912" lon="-85.285869"/>
  <node id="639373377" version="1" timestamp="2010-02-15T03:20:45Z" uid="103576" user="DiverCTH" changeset="3879939" lat="34.984903" lon="-85.285868">
    <tag k="addr:country" v="US"/>
    <tag k="addr:county" v="Hamilton, TN"/>
    <tag k="addr:housenumber" v="5099"/>
    <tag k="addr:postcode" v="37407"/>
    <tag k="addr:state" v="Tennessee"/>
    <tag k="addr:street" v="13th Ave"/>
  </node>
  <node id="639373378" version="1" timestamp="2010-02-15T03:20:45Z" uid="103576" user="DiverCTH" changeset="3879939" lat="34.984904" lon="-85.285665"/>
  <node id="639373379" version="1" timestamp="2010-02-15T03:20:45Z" uid="103576" user="DiverCTH" changeset="3879939" lat="34.984892" lon="-85.285668">
    <tag k="addr:country" v="US"/>
    <tag k="addr:county" v="Hamilton, TN"/>
    <tag k="addr:housenumber" v="5098"/>
    <tag k="addr:postcode" v="37407"/>
    <tag k="addr:state" v="Tennessee"/>
    <tag k="addr:street" v="13th Ave"/>
  </node>
  <node id="639373380" version="1" timestamp="2010-02-15T03:20:46Z" uid="103576" user="DiverCTH" changeset="3879939" lat="34.984943" lon="-85.285867"/>
  <node id="639373381" version="1" timestamp="2010-02-15T03:20:46Z" uid="103576" user="DiverCTH" changeset="3879939" lat="34.984941" lon="-85.285665"/>
  <node id="639373382" version="1" timestamp="2010-02-15T03:20:46Z" uid="103576" user="DiverCTH" changeset="3879939" lat="34.98545" lon="-85.28586"/>
  <node id="639373383" version="1" timestamp="2010-02-15T03:20:46Z" uid="103576" user="DiverCTH" changeset="3879939" lat="34.985495" lon="-85.28566">
    <tag k="addr:country" v="US"/>
    <tag k="addr:county" v="Hamilton, TN"/>
    <tag k="addr:housenumber" v="5000"/>
    <tag k="addr:postcode" v="37407"/>
    <tag k="addr:state" v="Tennessee"/>
    <tag k="addr:street" v="13th Ave"/>
  </node>
  <node id="639373384" version="1" timestamp="2010-02-15T03:20:46Z" uid="103576" user="DiverCTH" changeset="3879939" lat="34.985448" lon="-85.28566"/>
  <node id="639373385" version="1" timestamp="2010-02-15T03:20:46Z" uid="103576" user="DiverCTH" changeset="3879939" lat="34.985496" lon="-85.28586">
    <tag k="addr:country" v="US"/>
    <tag k="addr:county" v="Hamilton, TN"/>
    <tag k="addr:housenumber" v="5001"/>
    <tag k="addr:postcode" v="37407"/>
    <tag k="addr:state" v="Tennessee"/>
    <tag k="addr:street" v="13th Ave"/>
  </node>
  <node id="639373386" version="1" timestamp="2010-02-15T03:20:46Z" uid="103576" user="DiverCTH" changeset="3879939" lat="34.985742" lon="-85.285659">
    <tag k="addr:country" v="US"/>
    <tag k="addr:county" v="Hamilton, TN"/>
    <tag k="addr:housenumber" v="4998"/>
    <tag k="addr:postcode" v="37407"/>
    <tag k="addr:state" v="Tennessee"/>
    <tag k="addr:street" v="13th Ave"/>
  </node>
  <node id="639373387" version="1" timestamp="2010-02-15T03:20:46Z" uid="103576" user="DiverCTH" changeset="3879939" lat="34.985831" lon="-85.285659"/>
  <node id="639373388" version="1" timestamp="2010-02-15T03:20:46Z" uid="103576" user="DiverCTH" changeset="3879939" lat="34.985742" lon="-85.285859">
    <tag k="addr:country" v="US"/>
    <tag k="addr:county" v="Hamilton, TN"/>
    <tag k="addr:housenumber" v="4999"/>
    <tag k="addr:postcode" v="37407"/>
    <tag k="addr:state" v="Tennessee"/>
    <tag k="addr:street" v="13th Ave"/>
  </node>
  <node id="639373389" version="1" timestamp="2010-02-15T03:20:46Z" uid="103576" user="DiverCTH" changeset="3879939" lat="34.985831" lon="-85.285859"/>
  <node id="639373390" version="1" timestamp="2010-02-15T03:20:46Z" uid="103576" user="DiverCTH" changeset="3879939" lat="34.986556" lon="-85.285859">
    <tag k="addr:country" v="US"/>
    <tag k="addr:county" v="Hamilton, TN"/>
    <tag k="addr:housenumber" v="4901"/>
    <tag k="addr:postcode" v="37407"/>
    <tag k="addr:state" v="Tennessee"/>
    <tag k="addr:street" v="13th Ave"/>
  </node>
  <node id="639373391" version="1" timestamp="2010-02-15T03:20:46Z" uid="103576" user="DiverCTH" changeset="3879939" lat="34.986467" lon="-85.285659"/>
  <node id="639373392" version="1" timestamp="2010-02-15T03:20:46Z" uid="103576" user="DiverCTH" changeset="3879939" lat="34.986556" lon="-85.285659">
    <tag k="addr:country" v="US"/>
    <tag k="addr:county" v="Hamilton, TN"/>
    <tag k="addr:housenumber" v="4900"/>
    <tag k="addr:postcode" v="37407"/>
    <tag k="addr:state" v="Tennessee"/>
    <tag k="addr:street" v="13th Ave"/>
  </node>
  <node id="639373393" version="1" timestamp="2010-02-15T03:20:46Z" uid="103576" user="DiverCTH" changeset="3879939" lat="34.986467" lon="-85.285859"/>
  <node id="639373394" version="1" timestamp="2010-02-15T03:20:46Z" uid="103576" user="DiverCTH" changeset="3879939" lat="34.986844" lon="-85.285857"/>
  <node id="639373395" version="1" timestamp="2010-02-15T03:20:46Z" uid="103576" user="DiverCTH" changeset="3879939" lat="34.986802" lon="-85.285657">
    <tag k="addr:country" v="US"/>
    <tag k="addr:county" v="Hamilton, TN"/>
    <tag k="addr:housenumber" v="4898"/>
    <tag k="addr:postcode" v="37407"/>
    <tag k="addr:state" v="Tennessee"/>
    <tag k="addr:street" v="13th Ave"/>
  </node>
  <node id="639373396" version="1" timestamp="2010-02-15T03:20:46Z" uid="103576" user="DiverCTH" changeset="3879939" lat="34.986842" lon="-85.285657"/>
  <node id="639373397" version="1" timestamp="2010-02-15T03:20:47Z" uid="103576" user="DiverCTH" changeset="3879939" lat="34.986803" lon="-85.285858">
    <tag k="addr:country" v="US"/>
    <tag k="addr:county" v="Hamilton, TN"/>
    <tag k="addr:housenumber" v="4899"/>
    <tag k="addr:postcode" v="37407"/>
    <tag k="addr:state" v="Tennessee"/>
    <tag k="addr:street" v="13th Ave"/>
  </node>
  <node id="639373398" version="1" timestamp="2010-02-15T03:20:47Z" uid="103576" user="DiverCTH" changeset="3879939" lat="34.987339" lon="-85.285852"/>
  <node id="639373399" version="1" timestamp="2010-02-15T03:20:47Z" uid="103576" user="DiverCTH" changeset="3879939" lat="34.98738" lon="-85.285852">
    <tag k="addr:country" v="US"/>
    <tag k="addr:county" v="Hamilton, TN"/>
    <tag k="addr:housenumber" v="4801"/>
    <tag k="addr:postcode" v="37407"/>
    <tag k="addr:state" v="Tennessee"/>
    <tag k="addr:street" v="13th Ave"/>
  </node>
  <node id="639373400" version="1" timestamp="2010-02-15T03:20:47Z" uid="103576" user="DiverCTH" changeset="3879939" lat="34.987626" lon="-85.285851">
    <tag k="addr:country" v="US"/>
    <tag k="addr:county" v="Hamilton, TN"/>
    <tag k="addr:housenumber" v="4799"/>
    <tag k="addr:postcode" v="37407"/>
    <tag k="addr:state" v="Tennessee"/>
    <tag k="addr:street" v="13th Ave"/>
  </node>
  <node id="639373401" version="1" timestamp="2010-02-15T03:20:47Z" uid="103576" user="DiverCTH" changeset="3879939" lat="34.987641" lon="-85.285851"/>
  <node id="639373402" version="1" timestamp="2010-02-15T03:20:47Z" uid="103576" user="DiverCTH" changeset="3879939" lat="34.987337" lon="-85.285652"/>
  <node id="639373403" version="1" timestamp="2010-02-15T03:20:47Z" uid="103576" user="DiverCTH" changeset="3879939" lat="34.987379" lon="-85.285652">
    <tag k="addr:country" v="US"/>
    <tag k="addr:county" v="Hamilton, TN"/>
    <tag k="addr:housenumber" v="4800"/>
    <tag k="addr:postcode" v="37407"/>
    <tag k="addr:state" v="Tennessee"/>
    <tag k="addr:street" v="13th Ave"/>
  </node>
  <node id="639373404" version="1" timestamp="2010-02-15T03:20:47Z" uid="103576" user="DiverCTH" changeset="3879939" lat="34.987626" lon="-85.285651">
    <tag k="addr:country" v="US"/>
    <tag k="addr:county" v="Hamilton, TN"/>
    <tag k="addr:housenumber" v="4798"/>
    <tag k="addr:postcode" v="37407"/>
    <tag k="addr:state" v="Tennessee"/>
    <tag k="addr:street" v="13th Ave"/>
  </node>
  <node id="639373405" version="1" timestamp="2010-02-15T03:20:48Z" uid="103576" user="DiverCTH" changeset="3879939" lat="34.987641" lon="-85.285651"/>
  <node id="639373406" version="1" timestamp="2010-02-15T03:20:48Z" uid="103576" user="DiverCTH" changeset="3879939" lat="34.988059" lon="-85.285651"/>
  <node id="639373407" version="1" timestamp="2010-02-15T03:20:48Z" uid="103576" user="DiverCTH" changeset="3879939" lat="34.988319" lon="-85.285646">
    <tag k="addr:country" v="US"/>
    <tag k="addr:county" v="Hamilton, TN"/>
    <tag k="addr:housenumber" v="4602"/>
    <tag k="addr:postcode" v="37407"/>
    <tag k="addr:state" v="Tennessee"/>
    <tag k="addr:street" v="13th Ave"/>
  </node>
  <node id="639373408" version="1" timestamp="2010-02-15T03:20:48Z" uid="103576" user="DiverCTH" changeset="3879939" lat="34.988075" lon="-85.285851">
    <tag k="addr:country" v="US"/>
    <tag k="addr:county" v="Hamilton, TN"/>
    <tag k="addr:housenumber" v="4701"/>
    <tag k="addr:postcode" v="37407"/>
    <tag k="addr:state" v="Tennessee"/>
    <tag k="addr:street" v="13th Ave"/>
  </node>
  <node id="639373409" version="1" timestamp="2010-02-15T03:20:48Z" uid="103576" user="DiverCTH" changeset="3879939" lat="34.988075" lon="-85.285651">
    <tag k="addr:country" v="US"/>
    <tag k="addr:county" v="Hamilton, TN"/>
    <tag k="addr:housenumber" v="4604"/>
    <tag k="addr:postcode" v="37407"/>
    <tag k="addr:state" v="Tennessee"/>
    <tag k="addr:street" v="13th Ave"/>
  </node>
  <node id="639373410" version="1" timestamp="2010-02-15T03:20:48Z" uid="103576" user="DiverCTH" changeset="3879939" lat="34.988324" lon="-85.285846">
    <tag k="addr:country" v="US"/>
    <tag k="addr:county" v="Hamilton, TN"/>
    <tag k="addr:housenumber" v="4699"/>
    <tag k="addr:postcode" v="37407"/>
    <tag k="addr:state" v="Tennessee"/>
    <tag k="addr:street" v="13th Ave"/>
  </node>
  <node id="639373411" version="1" timestamp="2010-02-15T03:20:48Z" uid="103576" user="DiverCTH" changeset="3879939" lat="34.988059" lon="-85.285851"/>
  <node id="639373412" version="1" timestamp="2010-02-15T03:20:48Z" uid="103576" user="DiverCTH" changeset="3879939" lat="34.98853" lon="-85.285624"/>
  <node id="639373413" version="1" timestamp="2010-02-15T03:20:48Z" uid="103576" user="DiverCTH" changeset="3879939" lat="34.988388" lon="-85.285643"/>
  <node id="639373414" version="1" timestamp="2010-02-15T03:20:48Z" uid="103576" user="DiverCTH" changeset="3879939" lat="34.988566" lon="-85.28585"/>
  <node id="639373415" version="1" timestamp="2010-02-15T03:20:48Z" uid="103576" user="DiverCTH" changeset="3879939" lat="34.988394" lon="-85.285843"/>
  <node id="639373416" version="1" timestamp="2010-02-15T03:20:48Z" uid="103576" user="DiverCTH" changeset="3879939" lat="34.9885438" lon="-85.2857424"/>
  <node id="639373417" version="1" timestamp="2010-02-15T03:20:48Z" uid="103576" user="DiverCTH" changeset="3879939" lat="34.989025" lon="-85.285621">
    <tag k="addr:country" v="US"/>
    <tag k="addr:county" v="Hamilton, TN"/>
    <tag k="addr:housenumber" v="4601"/>
    <tag k="addr:postcode" v="37407"/>
    <tag k="addr:state" v="Tennessee"/>
    <tag k="addr:street" v="13th Ave"/>
  </node>
  <node id="639373418" version="1" timestamp="2010-02-15T03:20:48Z" uid="103576" user="DiverCTH" changeset="3879939" lat="34.988969" lon="-85.285653"/>
  <node id="639373419" version="1" timestamp="2010-02-15T03:20:48Z" uid="103576" user="DiverCTH" changeset="3879939" lat="34.988927" lon="-85.285681"/>
  <node id="639373420" version="1" timestamp="2010-02-15T03:20:48Z" uid="103576" user="DiverCTH" changeset="3879939" lat="34.989251" lon="-85.285499">
    <tag k="addr:country" v="US"/>
    <tag k="addr:county" v="Hamilton, TN"/>
    <tag k="addr:housenumber" v="4599"/>
    <tag k="addr:postcode" v="37407"/>
    <tag k="addr:state" v="Tennessee"/>
    <tag k="addr:street" v="13th Ave"/>
  </node>
  <node id="639373421" version="1" timestamp="2010-02-15T03:20:48Z" uid="103576" user="DiverCTH" changeset="3879939" lat="34.988959" lon="-85.285438">
    <tag k="addr:country" v="US"/>
    <tag k="addr:county" v="Hamilton, TN"/>
    <tag k="addr:housenumber" v="4600"/>
    <tag k="addr:postcode" v="37407"/>
    <tag k="addr:state" v="Tennessee"/>
    <tag k="addr:street" v="13th Ave"/>
  </node>
  <node id="639373422" version="1" timestamp="2010-02-15T03:20:49Z" uid="103576" user="DiverCTH" changeset="3879939" lat="34.988899" lon="-85.285469"/>
  <node id="639373423" version="1" timestamp="2010-02-15T03:20:49Z" uid="103576" user="DiverCTH" changeset="3879939" lat="34.988861" lon="-85.285487"/>
  <node id="639373424" version="1" timestamp="2010-02-15T03:20:49Z" uid="103576" user="DiverCTH" changeset="3879939" lat="34.989184" lon="-85.285316">
    <tag k="addr:country" v="US"/>
    <tag k="addr:county" v="Hamilton, TN"/>
    <tag k="addr:housenumber" v="4598"/>
    <tag k="addr:postcode" v="37407"/>
    <tag k="addr:state" v="Tennessee"/>
    <tag k="addr:street" v="13th Ave"/>
  </node>
  <node id="639373425" version="1" timestamp="2010-02-15T03:20:49Z" uid="103576" user="DiverCTH" changeset="3879939" lat="34.989884" lon="-85.285156">
    <tag k="addr:country" v="US"/>
    <tag k="addr:county" v="Hamilton, TN"/>
    <tag k="addr:housenumber" v="4501"/>
    <tag k="addr:postcode" v="37407"/>
    <tag k="addr:state" v="Tennessee"/>
    <tag k="addr:street" v="13th Ave"/>
  </node>
  <node id="639373426" version="1" timestamp="2010-02-15T03:20:49Z" uid="103576" user="DiverCTH" changeset="3879939" lat="34.989764" lon="-85.285221">
    <tag k="addr:country" v="US"/>
    <tag k="addr:county" v="Hamilton, TN"/>
    <tag k="addr:housenumber" v="4503"/>
    <tag k="addr:postcode" v="37407"/>
    <tag k="addr:state" v="Tennessee"/>
    <tag k="addr:street" v="13th Ave"/>
  </node>
  <node id="639373427" version="1" timestamp="2010-02-15T03:20:49Z" uid="103576" user="DiverCTH" changeset="3879939" lat="34.989472" lon="-85.28516">
    <tag k="addr:country" v="US"/>
    <tag k="addr:county" v="Hamilton, TN"/>
    <tag k="addr:housenumber" v="4500"/>
    <tag k="addr:postcode" v="37407"/>
    <tag k="addr:state" v="Tennessee"/>
    <tag k="addr:street" v="13th Ave"/>
  </node>
  <node id="639373428" version="1" timestamp="2010-02-15T03:20:49Z" uid="103576" user="DiverCTH" changeset="3879939" lat="34.989539" lon="-85.285343">
    <tag k="addr:country" v="US"/>
    <tag k="addr:county" v="Hamilton, TN"/>
    <tag k="addr:housenumber" v="4505"/>
    <tag k="addr:postcode" v="37407"/>
    <tag k="addr:state" v="Tennessee"/>
    <tag k="addr:street" v="13th Ave"/>
  </node>
  <node id="639373429" version="1" timestamp="2010-02-15T03:20:49Z" uid="103576" user="DiverCTH" changeset="3879939" lat="34.990042" lon="-85.28485">
    <tag k="addr:country" v="US"/>
    <tag k="addr:county" v="Hamilton, TN"/>
    <tag k="addr:housenumber" v="4498"/>
    <tag k="addr:postcode" v="37407"/>
    <tag k="addr:state" v="Tennessee"/>
    <tag k="addr:street" v="13th Ave"/>
  </node>
  <node id="639373430" version="1" timestamp="2010-02-15T03:20:49Z" uid="103576" user="DiverCTH" changeset="3879939" lat="34.990158" lon="-85.285005"/>
  <node id="639373431" version="1" timestamp="2010-02-15T03:20:49Z" uid="103576" user="DiverCTH" changeset="3879939" lat="34.990379" lon="-85.284884"/>
  <node id="639373432" version="1" timestamp="2010-02-15T03:20:49Z" uid="103576" user="DiverCTH" changeset="3879939" lat="34.990641" lon="-85.284745"/>
  <node id="639373433" version="1" timestamp="2010-02-15T03:20:49Z" uid="103576" user="DiverCTH" changeset="3879939" lat="34.99069" lon="-85.28472">
    <tag k="addr:country" v="US"/>
    <tag k="addr:county" v="Hamilton, TN"/>
    <tag k="addr:housenumber" v="4401"/>
    <tag k="addr:postcode" v="37407"/>
    <tag k="addr:state" v="Tennessee"/>
    <tag k="addr:street" v="13th Ave"/>
  </node>
  <node id="639373434" version="1" timestamp="2010-02-15T03:20:49Z" uid="103576" user="DiverCTH" changeset="3879939" lat="34.990311" lon="-85.284698"/>
  <node id="639373435" version="1" timestamp="2010-02-15T03:20:49Z" uid="103576" user="DiverCTH" changeset="3879939" lat="34.990577" lon="-85.284561"/>
  <node id="639373436" version="1" timestamp="2010-02-15T03:20:49Z" uid="103576" user="DiverCTH" changeset="3879939" lat="34.990626" lon="-85.284535">
    <tag k="addr:country" v="US"/>
    <tag k="addr:county" v="Hamilton, TN"/>
    <tag k="addr:housenumber" v="4400"/>
    <tag k="addr:postcode" v="37407"/>
    <tag k="addr:state" v="Tennessee"/>
    <tag k="addr:street" v="13th Ave"/>
  </node>
  <node id="639373437" version="1" timestamp="2010-02-15T03:20:49Z" uid="103576" user="DiverCTH" changeset="3879939" lat="34.990111" lon="-85.285032">
    <tag k="addr:country" v="US"/>
    <tag k="addr:county" v="Hamilton, TN"/>
    <tag k="addr:housenumber" v="4499"/>
    <tag k="addr:postcode" v="37407"/>
    <tag k="addr:state" v="Tennessee"/>
    <tag k="addr:street" v="13th Ave"/>
  </node>
  <node id="639373438" version="1" timestamp="2010-02-15T03:20:50Z" uid="103576" user="DiverCTH" changeset="3879939" lat="34.99009" lon="-85.284823"/>
  <node id="639373439" version="1" timestamp="2010-02-15T03:21:36Z" uid="9719" user="dvaey" changeset="3880117" lat="-35.3806353" lon="149.0595681"/>
  <node id="639373439" version="2" timestamp="2010-02-18T13:00:07Z" uid="9719" user="dvaey" changeset="3908731" lat="-35.380548" lon="149.0596001"/>
  <node id="639373439" version="3" timestamp="2010-02-18T13:31:34Z" uid="9719" user="dvaey" changeset="3908731" lat="-35.380548" lon="149.0596001"/>
  <node id="639373439" version="4" timestamp="2012-01-22T12:28:01Z" uid="12434" user="nm7s9" changeset="10464113" lat="-35.380548" lon="149.0596001"/>
  <node id="639373506" version="1" timestamp="2010-02-15T03:22:36Z" uid="230283" user="AuFCL" changeset="3880035" lat="-33.924966" lon="151.2244421"/>
  <node id="639373506" version="2" timestamp="2010-09-19T09:32:02Z" uid="7617" user="Franc" changeset="5817899" lat="-33.925004" lon="151.2244203"/>
  <node id="639373507" version="1" timestamp="2010-02-15T03:22:36Z" uid="230283" user="AuFCL" changeset="3880035" lat="-33.9253533" lon="151.2245655"/>
  <node id="639373507" version="2" timestamp="2010-09-19T09:31:25Z" uid="7617" user="Franc" changeset="5817899" lat="-33.9253956" lon="151.2245336"/>
  <node id="639373508" version="1" timestamp="2010-02-15T03:22:36Z" uid="230283" user="AuFCL" changeset="3880035" lat="-33.9253177" lon="151.224764"/>
  <node id="639373508" version="2" timestamp="2010-09-19T09:30:53Z" uid="7617" user="Franc" changeset="5817899" lat="-33.9253545" lon="151.2247398"/>
  <node id="639373509" version="1" timestamp="2010-02-15T03:22:36Z" uid="230283" user="AuFCL" changeset="3880035" lat="-33.9249927" lon="151.2246889"/>
  <node id="639373509" version="2" timestamp="2010-09-19T09:32:05Z" uid="7617" user="Franc" changeset="5817899" lat="-33.9249927" lon="151.2246889"/>
  <node id="639373510" version="1" timestamp="2010-02-15T03:22:36Z" uid="230283" user="AuFCL" changeset="3880035" lat="-33.924926" lon="151.2246353"/>
  <node id="639373510" version="2" timestamp="2010-09-19T09:31:12Z" uid="7617" user="Franc" changeset="5817899" lat="-33.9249629" lon="151.2246265"/>
  <node id="639374221" version="1" timestamp="2010-02-15T03:23:57Z" uid="9719" user="dvaey" changeset="3880122" lat="-35.3806876" lon="149.0599774"/>
  <node id="639374221" version="2" timestamp="2010-02-18T12:59:15Z" uid="9719" user="dvaey" changeset="3908731" lat="-35.3806803" lon="149.0599743"/>
  <node id="639374221" version="3" timestamp="2010-02-18T13:00:31Z" uid="9719" user="dvaey" changeset="3908731" lat="-35.380677" lon="149.0599676"/>
  <node id="639374221" version="4" timestamp="2012-01-22T12:28:01Z" uid="12434" user="nm7s9" changeset="10464113" lat="-35.380677" lon="149.0599676"/>
  <node id="639374598" version="1" timestamp="2010-02-15T03:26:16Z" uid="230283" user="AuFCL" changeset="3880035" lat="-33.9215962" lon="151.2236893"/>
  <node id="639374599" version="1" timestamp="2010-02-15T03:26:17Z" uid="230283" user="AuFCL" changeset="3880035" lat="-33.9216496" lon="151.2253397"/>
  <node id="639374609" version="1" timestamp="2010-02-15T03:27:22Z" uid="230283" user="AuFCL" changeset="3880035" lat="-33.9205363" lon="151.2251615"/>
  <node id="639374612" version="1" timestamp="2010-02-15T03:27:22Z" uid="230283" user="AuFCL" changeset="3880035" lat="-33.9204524" lon="151.224308"/>
  <node id="639374613" version="1" timestamp="2010-02-15T03:27:22Z" uid="230283" user="AuFCL" changeset="3880035" lat="-33.920439" lon="151.2242168"/>
  <node id="639374614" version="1" timestamp="2010-02-15T03:27:23Z" uid="230283" user="AuFCL" changeset="3880035" lat="-33.9203989" lon="151.2241739"/>
  <node id="639374615" version="1" timestamp="2010-02-15T03:27:23Z" uid="230283" user="AuFCL" changeset="3880035" lat="-33.9203188" lon="151.2241847"/>
  <node id="639374616" version="1" timestamp="2010-02-15T03:27:23Z" uid="230283" user="AuFCL" changeset="3880035" lat="-33.920212" lon="151.2242276"/>
  <node id="639374617" version="1" timestamp="2010-02-15T03:27:23Z" uid="230283" user="AuFCL" changeset="3880035" lat="-33.9200918" lon="151.2242651"/>
  <node id="639374618" version="1" timestamp="2010-02-15T03:27:23Z" uid="230283" user="AuFCL" changeset="3880035" lat="-33.9199583" lon="151.2242812"/>
  <node id="639374764" version="1" timestamp="2010-02-15T03:30:35Z" uid="9719" user="dvaey" changeset="3880128" lat="-35.3725477" lon="149.0629925"/>
  <node id="639374764" version="2" timestamp="2010-02-18T15:44:00Z" uid="9719" user="dvaey" changeset="3909834" lat="-35.3725114" lon="149.0629507"/>
  <node id="639374765" version="1" timestamp="2010-02-15T03:30:35Z" uid="9719" user="dvaey" changeset="3880128" lat="-35.3729501" lon="149.0629925"/>
  <node id="639374765" version="2" timestamp="2010-02-18T15:44:00Z" uid="9719" user="dvaey" changeset="3909834" lat="-35.3729499" lon="149.0630057"/>
  <node id="639374765" version="3" timestamp="2010-02-27T09:50:53Z" uid="12434" user="nm7s9" changeset="3986897" lat="-35.3729953" lon="149.0630108"/>
  <node id="639374765" version="4" timestamp="2012-01-29T15:22:20Z" uid="12434" user="nm7s9" changeset="10531072" lat="-35.3729953" lon="149.0630108"/>
  <node id="639374766" version="1" timestamp="2010-02-15T03:30:35Z" uid="9719" user="dvaey" changeset="3880128" lat="-35.3731863" lon="149.0630032"/>
  <node id="639374766" version="2" timestamp="2010-02-18T15:44:00Z" uid="9719" user="dvaey" changeset="3909834" lat="-35.3731271" lon="149.0630164"/>
  <node id="639374767" version="1" timestamp="2010-02-15T03:30:35Z" uid="9719" user="dvaey" changeset="3880128" lat="-35.3736062" lon="149.0630354"/>
  <node id="639374767" version="2" timestamp="2010-02-18T15:44:00Z" uid="9719" user="dvaey" changeset="3909834" lat="-35.3736099" lon="149.0630439"/>
  <node id="639374767" version="3" timestamp="2012-01-29T13:27:19Z" uid="12434" user="nm7s9" changeset="10529902" lat="-35.3736099" lon="149.0630439"/>
  <node id="639374768" version="1" timestamp="2010-02-15T03:30:36Z" uid="9719" user="dvaey" changeset="3880128" lat="-35.374796" lon="149.0632822"/>
  <node id="639374768" version="2" timestamp="2010-02-18T15:44:01Z" uid="9719" user="dvaey" changeset="3909834" lat="-35.3747504" lon="149.0632907"/>
  <node id="639374768" version="3" timestamp="2010-02-18T16:01:13Z" uid="9719" user="dvaey" changeset="3909834" lat="-35.3747504" lon="149.0632907"/>
  <node id="639374769" version="1" timestamp="2010-02-15T03:30:36Z" uid="9719" user="dvaey" changeset="3880128" lat="-35.3749535" lon="149.0633144"/>
  <node id="639374769" version="2" timestamp="2010-02-18T15:44:01Z" uid="9719" user="dvaey" changeset="3909834" lat="-35.3749648" lon="149.0633249"/>
  <node id="639374769" version="3" timestamp="2012-01-29T13:27:19Z" uid="12434" user="nm7s9" changeset="10529902" lat="-35.3749648" lon="149.0633249"/>
  <node id="639374770" version="1" timestamp="2010-02-15T03:30:36Z" uid="9719" user="dvaey" changeset="3880128" lat="-35.3751197" lon="149.06325"/>
  <node id="639374770" version="2" timestamp="2010-02-18T15:44:01Z" uid="9719" user="dvaey" changeset="3909834" lat="-35.3750561" lon="149.0633282"/>
  <node id="639374770" version="3" timestamp="2012-01-29T13:27:19Z" uid="12434" user="nm7s9" changeset="10529902" lat="-35.3750561" lon="149.0633282"/>
  <node id="639374771" version="1" timestamp="2010-02-15T03:30:36Z" uid="9719" user="dvaey" changeset="3880128" lat="-35.3758545" lon="149.0627672"/>
  <node id="639374771" version="2" timestamp="2010-02-18T15:44:01Z" uid="9719" user="dvaey" changeset="3909834" lat="-35.3760998" lon="149.0625926"/>
  <node id="639374771" version="3" timestamp="2012-01-29T13:27:19Z" uid="12434" user="nm7s9" changeset="10529902" lat="-35.3760998" lon="149.0625926"/>
  <node id="639374772" version="1" timestamp="2010-02-15T03:30:36Z" uid="9719" user="dvaey" changeset="3880128" lat="-35.3761344" lon="149.0625419"/>
  <node id="639374772" version="2" timestamp="2010-02-18T15:44:01Z" uid="9719" user="dvaey" changeset="3909834" lat="-35.3761966" lon="149.0625256"/>
  <node id="639374772" version="3" timestamp="2012-01-29T13:27:19Z" uid="12434" user="nm7s9" changeset="10529902" lat="-35.3761966" lon="149.0625256"/>
  <node id="639374773" version="1" timestamp="2010-02-15T03:30:36Z" uid="9719" user="dvaey" changeset="3880128" lat="-35.3762569" lon="149.062499"/>
  <node id="639374773" version="2" timestamp="2010-02-18T15:44:01Z" uid="9719" user="dvaey" changeset="3909834" lat="-35.376266" lon="149.0624988"/>
  <node id="639374773" version="3" timestamp="2012-01-29T13:27:20Z" uid="12434" user="nm7s9" changeset="10529902" lat="-35.376266" lon="149.0624988"/>
  <node id="639374774" version="1" timestamp="2010-02-15T03:30:36Z" uid="9719" user="dvaey" changeset="3880128" lat="-35.3763794" lon="149.0624561"/>
  <node id="639374774" version="2" timestamp="2010-02-18T15:44:02Z" uid="9719" user="dvaey" changeset="3909834" lat="-35.3764732" lon="149.0624391"/>
  <node id="639374774" version="3" timestamp="2012-01-29T13:27:20Z" uid="12434" user="nm7s9" changeset="10529902" lat="-35.3764732" lon="149.0624391"/>
  <node id="639374775" version="1" timestamp="2010-02-15T03:30:36Z" uid="9719" user="dvaey" changeset="3880128" lat="-35.3765893" lon="149.0624346"/>
  <node id="639374775" version="2" timestamp="2010-02-18T15:44:02Z" uid="9719" user="dvaey" changeset="3909834" lat="-35.3765788" lon="149.0623821"/>
  <node id="639374775" version="3" timestamp="2012-01-29T13:27:20Z" uid="12434" user="nm7s9" changeset="10529902" lat="-35.3765788" lon="149.0623821"/>
  <node id="639374776" version="1" timestamp="2010-02-15T03:30:36Z" uid="9719" user="dvaey" changeset="3880128" lat="-35.3768605" lon="149.0623166"/>
  <node id="639374776" version="2" timestamp="2010-02-18T15:44:02Z" uid="9719" user="dvaey" changeset="3909834" lat="-35.376815" lon="149.0623284"/>
  <node id="639374776" version="3" timestamp="2012-01-29T13:27:20Z" uid="12434" user="nm7s9" changeset="10529902" lat="-35.376815" lon="149.0623284"/>
  <node id="639374777" version="1" timestamp="2010-02-15T03:30:36Z" uid="9719" user="dvaey" changeset="3880128" lat="-35.3771142" lon="149.0625312"/>
  <node id="639374777" version="2" timestamp="2010-02-18T15:44:02Z" uid="9719" user="dvaey" changeset="3909834" lat="-35.3770883" lon="149.0624478"/>
  <node id="639374777" version="3" timestamp="2012-01-29T13:31:29Z" uid="12434" user="nm7s9" changeset="10529945" lat="-35.3770883" lon="149.0624478"/>
  <node id="639374778" version="1" timestamp="2010-02-15T03:30:36Z" uid="9719" user="dvaey" changeset="3880128" lat="-35.3774904" lon="149.0626063"/>
  <node id="639374778" version="2" timestamp="2010-02-18T15:44:02Z" uid="9719" user="dvaey" changeset="3909834" lat="-35.3774935" lon="149.0625946"/>
  <node id="639374778" version="3" timestamp="2010-02-27T09:30:02Z" uid="12434" user="nm7s9" changeset="3986754" lat="-35.3774614" lon="149.0625931"/>
  <node id="639374779" version="1" timestamp="2010-02-15T03:30:36Z" uid="9719" user="dvaey" changeset="3880128" lat="-35.3781377" lon="149.0626063"/>
  <node id="639374779" version="2" timestamp="2010-02-18T15:44:03Z" uid="9719" user="dvaey" changeset="3909834" lat="-35.378137" lon="149.0625859"/>
  <node id="639374779" version="3" timestamp="2012-01-22T12:28:01Z" uid="12434" user="nm7s9" changeset="10464113" lat="-35.378137" lon="149.0625859"/>
  <node id="639374780" version="1" timestamp="2010-02-15T03:30:36Z" uid="9719" user="dvaey" changeset="3880128" lat="-35.3786888" lon="149.0626063"/>
  <node id="639374780" version="2" timestamp="2010-02-18T15:44:03Z" uid="9719" user="dvaey" changeset="3909834" lat="-35.3786897" lon="149.0626282"/>
  <node id="639374780" version="3" timestamp="2012-01-22T12:28:01Z" uid="12434" user="nm7s9" changeset="10464113" lat="-35.3786897" lon="149.0626282"/>
  <node id="639374781" version="1" timestamp="2010-02-15T03:30:37Z" uid="9719" user="dvaey" changeset="3880128" lat="-35.3792662" lon="149.0627672"/>
  <node id="639374781" version="2" timestamp="2010-02-18T15:44:03Z" uid="9719" user="dvaey" changeset="3909834" lat="-35.3792649" lon="149.062773"/>
  <node id="639374782" version="1" timestamp="2010-02-15T03:30:37Z" uid="9719" user="dvaey" changeset="3880128" lat="-35.379826" lon="149.0628316"/>
  <node id="639374782" version="2" timestamp="2010-02-18T15:44:03Z" uid="9719" user="dvaey" changeset="3909834" lat="-35.3798269" lon="149.062826"/>
  <node id="639374783" version="1" timestamp="2010-02-15T03:30:37Z" uid="9719" user="dvaey" changeset="3880128" lat="-35.3800709" lon="149.0627672"/>
  <node id="639374783" version="2" timestamp="2010-02-18T15:44:03Z" uid="9719" user="dvaey" changeset="3909834" lat="-35.3800718" lon="149.0627569"/>
  <node id="639374784" version="1" timestamp="2010-02-15T03:30:37Z" uid="9719" user="dvaey" changeset="3880128" lat="-35.3803509" lon="149.0625419"/>
  <node id="639374784" version="2" timestamp="2010-02-18T15:44:03Z" uid="9719" user="dvaey" changeset="3909834" lat="-35.3802173" lon="149.0626724"/>
  <node id="639374785" version="1" timestamp="2010-02-15T03:30:37Z" uid="9719" user="dvaey" changeset="3880128" lat="-35.380622" lon="149.0620913"/>
  <node id="639374786" version="1" timestamp="2010-02-15T03:30:37Z" uid="9719" user="dvaey" changeset="3880128" lat="-35.3809632" lon="149.0617801"/>
  <node id="639374786" version="2" timestamp="2010-02-18T13:29:46Z" uid="9719" user="dvaey" changeset="3908731" lat="-35.380999" lon="149.0617707"/>
  <node id="639374787" version="1" timestamp="2010-02-15T03:30:37Z" uid="9719" user="dvaey" changeset="3880128" lat="-35.3812693" lon="149.0616836"/>
  <node id="639374788" version="1" timestamp="2010-02-15T03:30:42Z" uid="230283" user="AuFCL" changeset="3880035" lat="-33.9130003" lon="151.2243617"/>
  <node id="639374789" version="1" timestamp="2010-02-15T03:30:42Z" uid="230283" user="AuFCL" changeset="3880035" lat="-33.9130982" lon="151.2244797"/>
  <node id="639374790" version="1" timestamp="2010-02-15T03:30:42Z" uid="230283" user="AuFCL" changeset="3880035" lat="-33.9134143" lon="151.2243724"/>
  <node id="639374791" version="1" timestamp="2010-02-15T03:30:42Z" uid="230283" user="AuFCL" changeset="3880035" lat="-33.9134188" lon="151.2241686"/>
  <node id="639374800" version="1" timestamp="2010-02-15T03:31:24Z" uid="4467" user="Rosscoe" changeset="3880129" lat="-41.1897229" lon="146.2527085">
    <tag k="amenity" v="pub"/>
    <tag k="name" v="Forth Hotel"/>
  </node>
  <node id="639374801" version="1" timestamp="2010-02-15T03:31:24Z" uid="4467" user="Rosscoe" changeset="3880129" lat="-41.1929433" lon="146.2599395"/>
  <node id="639374802" version="1" timestamp="2010-02-15T03:31:24Z" uid="4467" user="Rosscoe" changeset="3880129" lat="-41.1913331" lon="146.2567416"/>
  <node id="639374803" version="1" timestamp="2010-02-15T03:31:24Z" uid="4467" user="Rosscoe" changeset="3880129" lat="-41.191637" lon="146.273095"/>
  <node id="639374804" version="1" timestamp="2010-02-15T03:31:24Z" uid="4467" user="Rosscoe" changeset="3880129" lat="-41.1732316" lon="146.2588543">
    <tag k="name" v="Braddons Lookout"/>
    <tag k="tourism" v="viewpoint"/>
  </node>
  <node id="639374804" version="2" timestamp="2010-09-01T05:36:49Z" uid="46482" user="Leon K" changeset="5651325" lat="-41.173265" lon="146.2588217">
    <tag k="name" v="Braddons Lookout"/>
    <tag k="tourism" v="viewpoint"/>
  </node>
  <node id="639374805" version="1" timestamp="2010-02-15T03:31:24Z" uid="4467" user="Rosscoe" changeset="3880129" lat="-41.1732356" lon="146.2588997"/>
  <node id="639374806" version="1" timestamp="2010-02-15T03:31:24Z" uid="4467" user="Rosscoe" changeset="3880129" lat="-41.1731508" lon="146.2589095"/>
  <node id="639374807" version="1" timestamp="2010-02-15T03:31:25Z" uid="4467" user="Rosscoe" changeset="3880129" lat="-41.1730024" lon="146.259152"/>
  <node id="639374807" version="2" timestamp="2010-02-15T14:30:12Z" uid="91657" user="Pink Duck" changeset="3883639" lat="-41.1730024" lon="146.259152"/>
  <node id="639374808" version="1" timestamp="2010-02-15T03:31:25Z" uid="4467" user="Rosscoe" changeset="3880129" lat="-41.1730625" lon="146.259165"/>
  <node id="639374808" version="2" timestamp="2010-02-15T14:30:12Z" uid="91657" user="Pink Duck" changeset="3883639" lat="-41.1730625" lon="146.259165"/>
  <node id="639374809" version="1" timestamp="2010-02-15T03:31:25Z" uid="4467" user="Rosscoe" changeset="3880129" lat="-41.1731648" lon="146.259253"/>
  <node id="639374809" version="2" timestamp="2010-02-15T14:30:12Z" uid="91657" user="Pink Duck" changeset="3883639" lat="-41.1731648" lon="146.259253"/>
  <node id="639374810" version="1" timestamp="2010-02-15T03:31:25Z" uid="4467" user="Rosscoe" changeset="3880129" lat="-41.1732288" lon="146.259449"/>
  <node id="639374810" version="2" timestamp="2010-02-15T14:30:11Z" uid="91657" user="Pink Duck" changeset="3883639" lat="-41.1732505" lon="146.2594521"/>
  <node id="639374811" version="1" timestamp="2010-02-15T03:31:25Z" uid="4467" user="Rosscoe" changeset="3880129" lat="-41.1732209" lon="146.2592932"/>
  <node id="639374811" version="2" timestamp="2011-11-16T11:20:02Z" uid="338866" user="tiger" changeset="9843477" lat="-41.1732209" lon="146.2592932"/>
  <node id="639374812" version="1" timestamp="2010-02-15T03:31:25Z" uid="4467" user="Rosscoe" changeset="3880129" lat="-41.1729479" lon="146.2591517"/>
  <node id="639374813" version="1" timestamp="2010-02-15T03:31:25Z" uid="4467" user="Rosscoe" changeset="3880129" lat="-41.1713634" lon="146.259482"/>
  <node id="639374813" version="2" timestamp="2010-02-15T14:30:12Z" uid="91657" user="Pink Duck" changeset="3883639" lat="-41.1713634" lon="146.259482"/>
  <node id="639374814" version="1" timestamp="2010-02-15T03:31:25Z" uid="4467" user="Rosscoe" changeset="3880129" lat="-41.1693104" lon="146.259936"/>
  <node id="639374814" version="2" timestamp="2010-02-15T14:30:12Z" uid="91657" user="Pink Duck" changeset="3883639" lat="-41.1693104" lon="146.259936"/>
  <node id="639374815" version="1" timestamp="2010-02-15T03:31:25Z" uid="4467" user="Rosscoe" changeset="3880129" lat="-41.1673344" lon="146.25801"/>
  <node id="639374815" version="2" timestamp="2010-02-15T14:30:12Z" uid="91657" user="Pink Duck" changeset="3883639" lat="-41.1673344" lon="146.25801"/>
  <node id="639374816" version="1" timestamp="2010-02-15T03:31:25Z" uid="4467" user="Rosscoe" changeset="3880129" lat="-41.1676834" lon="146.257993"/>
  <node id="639374816" version="2" timestamp="2010-02-15T14:30:12Z" uid="91657" user="Pink Duck" changeset="3883639" lat="-41.1676834" lon="146.257993"/>
  <node id="639374817" version="1" timestamp="2010-02-15T03:31:25Z" uid="4467" user="Rosscoe" changeset="3880129" lat="-41.1677584" lon="146.258031"/>
  <node id="639374817" version="2" timestamp="2010-02-15T14:30:12Z" uid="91657" user="Pink Duck" changeset="3883639" lat="-41.1677584" lon="146.258031"/>
  <node id="639374818" version="1" timestamp="2010-02-15T03:31:25Z" uid="4467" user="Rosscoe" changeset="3880129" lat="-41.1678584" lon="146.258171"/>
  <node id="639374818" version="2" timestamp="2010-02-15T14:30:13Z" uid="91657" user="Pink Duck" changeset="3883639" lat="-41.1678584" lon="146.258171"/>
  <node id="639374819" version="1" timestamp="2010-02-15T03:31:25Z" uid="4467" user="Rosscoe" changeset="3880129" lat="-41.1659844" lon="146.257525"/>
  <node id="639374819" version="2" timestamp="2010-02-15T14:30:13Z" uid="91657" user="Pink Duck" changeset="3883639" lat="-41.1659844" lon="146.257525"/>
  <node id="639374820" version="1" timestamp="2010-02-15T03:31:25Z" uid="4467" user="Rosscoe" changeset="3880129" lat="-41.1660634" lon="146.257587"/>
  <node id="639374820" version="2" timestamp="2010-02-15T14:30:13Z" uid="91657" user="Pink Duck" changeset="3883639" lat="-41.1660634" lon="146.257587"/>
  <node id="639374821" version="1" timestamp="2010-02-15T03:31:25Z" uid="4467" user="Rosscoe" changeset="3880129" lat="-41.1665344" lon="146.257805"/>
  <node id="639374821" version="2" timestamp="2010-02-15T14:30:13Z" uid="91657" user="Pink Duck" changeset="3883639" lat="-41.1665344" lon="146.257805"/>
  <node id="639374822" version="1" timestamp="2010-02-15T03:31:25Z" uid="4467" user="Rosscoe" changeset="3880129" lat="-41.1667774" lon="146.2579"/>
  <node id="639374822" version="2" timestamp="2010-02-15T14:30:13Z" uid="91657" user="Pink Duck" changeset="3883639" lat="-41.1667774" lon="146.2579"/>
  <node id="639374823" version="1" timestamp="2010-02-15T03:31:25Z" uid="4467" user="Rosscoe" changeset="3880129" lat="-41.1670674" lon="146.257978"/>
  <node id="639374823" version="2" timestamp="2010-02-15T14:30:13Z" uid="91657" user="Pink Duck" changeset="3883639" lat="-41.1670674" lon="146.257978"/>
  <node id="639374824" version="1" timestamp="2010-02-15T03:31:25Z" uid="4467" user="Rosscoe" changeset="3880129" lat="-41.1679228" lon="146.258349"/>
  <node id="639374824" version="2" timestamp="2010-02-15T14:30:13Z" uid="91657" user="Pink Duck" changeset="3883639" lat="-41.1679228" lon="146.258349"/>
  <node id="639374825" version="1" timestamp="2010-02-15T03:31:25Z" uid="4467" user="Rosscoe" changeset="3880129" lat="-41.1680504" lon="146.259353"/>
  <node id="639374825" version="2" timestamp="2010-02-15T14:30:13Z" uid="91657" user="Pink Duck" changeset="3883639" lat="-41.1680504" lon="146.259353"/>
  <node id="639374826" version="1" timestamp="2010-02-15T03:31:25Z" uid="4467" user="Rosscoe" changeset="3880129" lat="-41.1681048" lon="146.259663"/>
  <node id="639374826" version="2" timestamp="2010-02-15T14:30:13Z" uid="91657" user="Pink Duck" changeset="3883639" lat="-41.1681048" lon="146.259663"/>
  <node id="639374827" version="1" timestamp="2010-02-15T03:31:25Z" uid="4467" user="Rosscoe" changeset="3880129" lat="-41.1681964" lon="146.260011"/>
  <node id="639374827" version="2" timestamp="2010-02-15T14:30:13Z" uid="91657" user="Pink Duck" changeset="3883639" lat="-41.1681964" lon="146.260011"/>
  <node id="639374828" version="1" timestamp="2010-02-15T03:31:25Z" uid="4467" user="Rosscoe" changeset="3880129" lat="-41.1682754" lon="146.260115"/>
  <node id="639374828" version="2" timestamp="2010-02-15T14:30:13Z" uid="91657" user="Pink Duck" changeset="3883639" lat="-41.1682754" lon="146.260115"/>
  <node id="639374829" version="1" timestamp="2010-02-15T03:31:25Z" uid="4467" user="Rosscoe" changeset="3880129" lat="-41.1683852" lon="146.26017"/>
  <node id="639374829" version="2" timestamp="2010-02-15T14:30:13Z" uid="91657" user="Pink Duck" changeset="3883639" lat="-41.1683852" lon="146.26017"/>
  <node id="639374830" version="1" timestamp="2010-02-15T03:31:25Z" uid="4467" user="Rosscoe" changeset="3880129" lat="-41.1684514" lon="146.260167"/>
  <node id="639374830" version="2" timestamp="2010-02-15T14:30:14Z" uid="91657" user="Pink Duck" changeset="3883639" lat="-41.1684514" lon="146.260167"/>
  <node id="639374831" version="1" timestamp="2010-02-15T03:31:25Z" uid="4467" user="Rosscoe" changeset="3880129" lat="-41.1754212" lon="146.261684"/>
  <node id="639374832" version="1" timestamp="2010-02-15T03:31:25Z" uid="4467" user="Rosscoe" changeset="3880129" lat="-41.1758044" lon="146.261779"/>
  <node id="639374832" version="2" timestamp="2010-02-15T14:30:14Z" uid="91657" user="Pink Duck" changeset="3883639" lat="-41.1758044" lon="146.261779"/>
  <node id="639374833" version="1" timestamp="2010-02-15T03:31:26Z" uid="4467" user="Rosscoe" changeset="3880129" lat="-41.1735014" lon="146.261186"/>
  <node id="639374833" version="2" timestamp="2010-02-15T14:30:14Z" uid="91657" user="Pink Duck" changeset="3883639" lat="-41.1735014" lon="146.261186"/>
  <node id="639374834" version="1" timestamp="2010-02-15T03:31:26Z" uid="4467" user="Rosscoe" changeset="3880129" lat="-41.1633884" lon="146.257536"/>
  <node id="639374834" version="2" timestamp="2010-02-15T14:30:14Z" uid="91657" user="Pink Duck" changeset="3883639" lat="-41.1633884" lon="146.257536"/>
  <node id="639374835" version="1" timestamp="2010-02-15T03:31:26Z" uid="4467" user="Rosscoe" changeset="3880129" lat="-41.1635934" lon="146.257387"/>
  <node id="639374835" version="2" timestamp="2010-02-15T14:30:14Z" uid="91657" user="Pink Duck" changeset="3883639" lat="-41.1635934" lon="146.257387"/>
  <node id="639374836" version="1" timestamp="2010-02-15T03:31:26Z" uid="4467" user="Rosscoe" changeset="3880129" lat="-41.1646845" lon="146.257012"/>
  <node id="639374836" version="2" timestamp="2010-02-15T14:30:14Z" uid="91657" user="Pink Duck" changeset="3883639" lat="-41.1646845" lon="146.257012"/>
  <node id="639374837" version="1" timestamp="2010-02-15T03:31:26Z" uid="4467" user="Rosscoe" changeset="3880129" lat="-41.1647894" lon="146.256984"/>
  <node id="639374837" version="2" timestamp="2010-02-15T14:30:14Z" uid="91657" user="Pink Duck" changeset="3883639" lat="-41.1647894" lon="146.256984"/>
  <node id="639374838" version="1" timestamp="2010-02-15T03:31:26Z" uid="4467" user="Rosscoe" changeset="3880129" lat="-41.1651094" lon="146.256941"/>
  <node id="639374838" version="2" timestamp="2010-02-15T14:30:14Z" uid="91657" user="Pink Duck" changeset="3883639" lat="-41.1651094" lon="146.256941"/>
  <node id="639374839" version="1" timestamp="2010-02-15T03:31:26Z" uid="4467" user="Rosscoe" changeset="3880129" lat="-41.1652794" lon="146.256942"/>
  <node id="639374839" version="2" timestamp="2010-02-15T14:30:14Z" uid="91657" user="Pink Duck" changeset="3883639" lat="-41.1652794" lon="146.256942"/>
  <node id="639374840" version="1" timestamp="2010-02-15T03:31:26Z" uid="4467" user="Rosscoe" changeset="3880129" lat="-41.1654281" lon="146.256999"/>
  <node id="639374840" version="2" timestamp="2010-02-15T14:30:15Z" uid="91657" user="Pink Duck" changeset="3883639" lat="-41.1654281" lon="146.256999"/>
  <node id="639374841" version="1" timestamp="2010-02-15T03:31:26Z" uid="4467" user="Rosscoe" changeset="3880129" lat="-41.1656787" lon="146.257187"/>
  <node id="639374841" version="2" timestamp="2010-02-15T14:30:14Z" uid="91657" user="Pink Duck" changeset="3883639" lat="-41.1656787" lon="146.257187"/>
  <node id="639374842" version="1" timestamp="2010-02-15T03:31:26Z" uid="4467" user="Rosscoe" changeset="3880129" lat="-41.1620425" lon="146.2567816"/>
  <node id="639374843" version="1" timestamp="2010-02-15T03:31:26Z" uid="4467" user="Rosscoe" changeset="3880129" lat="-41.1627546" lon="146.2558053"/>
  <node id="639374844" version="1" timestamp="2010-02-15T03:31:26Z" uid="4467" user="Rosscoe" changeset="3880129" lat="-41.1608965" lon="146.2581446"/>
  <node id="639374845" version="1" timestamp="2010-02-15T03:31:26Z" uid="4467" user="Rosscoe" changeset="3880129" lat="-41.1609281" lon="146.2579217"/>
  <node id="639374846" version="1" timestamp="2010-02-15T03:31:26Z" uid="4467" user="Rosscoe" changeset="3880129" lat="-41.1611056" lon="146.2576002"/>
  <node id="639374847" version="1" timestamp="2010-02-15T03:31:26Z" uid="4467" user="Rosscoe" changeset="3880129" lat="-41.1613482" lon="146.2573773"/>
  <node id="639374848" version="1" timestamp="2010-02-15T03:31:26Z" uid="4467" user="Rosscoe" changeset="3880129" lat="-41.1618083" lon="146.25881"/>
  <node id="639374848" version="2" timestamp="2010-02-15T14:30:15Z" uid="91657" user="Pink Duck" changeset="3883639" lat="-41.1618083" lon="146.25881"/>
  <node id="639374849" version="1" timestamp="2010-02-15T03:31:26Z" uid="4467" user="Rosscoe" changeset="3880129" lat="-41.1619313" lon="146.258776"/>
  <node id="639374849" version="2" timestamp="2010-02-15T14:30:15Z" uid="91657" user="Pink Duck" changeset="3883639" lat="-41.1619313" lon="146.258776"/>
  <node id="639374850" version="1" timestamp="2010-02-15T03:31:26Z" uid="4467" user="Rosscoe" changeset="3880129" lat="-41.1620865" lon="146.25866"/>
  <node id="639374850" version="2" timestamp="2010-02-15T14:30:15Z" uid="91657" user="Pink Duck" changeset="3883639" lat="-41.1620865" lon="146.25866"/>
  <node id="639374851" version="1" timestamp="2010-02-15T03:31:26Z" uid="4467" user="Rosscoe" changeset="3880129" lat="-41.1610175" lon="146.25875"/>
  <node id="639374851" version="2" timestamp="2010-02-15T14:30:15Z" uid="91657" user="Pink Duck" changeset="3883639" lat="-41.1610175" lon="146.25875"/>
  <node id="639374852" version="1" timestamp="2010-02-15T03:31:26Z" uid="4467" user="Rosscoe" changeset="3880129" lat="-41.1610287" lon="146.2587376"/>
  <node id="639374853" version="1" timestamp="2010-02-15T03:31:26Z" uid="4467" user="Rosscoe" changeset="3880129" lat="-41.1610164" lon="146.2587222"/>
  <node id="639374854" version="1" timestamp="2010-02-15T03:31:26Z" uid="4467" user="Rosscoe" changeset="3880129" lat="-41.1611087" lon="146.2588029"/>
  <node id="639374855" version="1" timestamp="2010-02-15T03:31:26Z" uid="4467" user="Rosscoe" changeset="3880129" lat="-41.1612245" lon="146.2588448"/>
  <node id="639374984" version="1" timestamp="2010-02-15T03:32:53Z" uid="230283" user="AuFCL" changeset="3880035" lat="-33.9155915" lon="151.2236565"/>
  <node id="639374985" version="1" timestamp="2010-02-15T03:32:53Z" uid="230283" user="AuFCL" changeset="3880035" lat="-33.9136166" lon="151.2240544"/>
  <node id="639374986" version="1" timestamp="2010-02-15T03:32:54Z" uid="230283" user="AuFCL" changeset="3880035" lat="-33.9129469" lon="151.2243295"/>
  <node id="639374987" version="1" timestamp="2010-02-15T03:32:54Z" uid="230283" user="AuFCL" changeset="3880035" lat="-33.9135078" lon="151.2240666"/>
  <node id="639374988" version="1" timestamp="2010-02-15T03:32:54Z" uid="230283" user="AuFCL" changeset="3880035" lat="-33.9135746" lon="151.2240559"/>
  <node id="639374989" version="1" timestamp="2010-02-15T03:32:54Z" uid="230283" user="AuFCL" changeset="3880035" lat="-33.9138684" lon="151.2240023"/>
  <node id="639374990" version="1" timestamp="2010-02-15T03:32:54Z" uid="230283" user="AuFCL" changeset="3880035" lat="-33.9146297" lon="151.2238413"/>
  <node id="639374991" version="1" timestamp="2010-02-15T03:32:54Z" uid="230283" user="AuFCL" changeset="3880035" lat="-33.9159563" lon="151.2235838"/>
  <node id="639374992" version="1" timestamp="2010-02-15T03:32:54Z" uid="230283" user="AuFCL" changeset="3880035" lat="-33.9174569" lon="151.2232825"/>
  <node id="639374993" version="1" timestamp="2010-02-15T03:32:54Z" uid="230283" user="AuFCL" changeset="3880035" lat="-33.9185916" lon="151.2230635"/>
  <node id="639374994" version="1" timestamp="2010-02-15T03:32:55Z" uid="230283" user="AuFCL" changeset="3880035" lat="-33.9192327" lon="151.2229455"/>
  <node id="639372039" version="2" timestamp="2012-06-28T00:36:07Z" uid="7523" user="inas" changeset="12042295" lat="-33.9389729" lon="151.2381858"/>
  <node id="639372040" version="2" timestamp="2012-06-28T00:36:07Z" uid="7523" user="inas" changeset="12042295" lat="-33.939142" lon="151.2382126"/>
  <node id="639372041" version="2" timestamp="2012-06-28T00:36:07Z" uid="7523" user="inas" changeset="12042295" lat="-33.9391776" lon="151.2384379"/>
  <node id="639372042" version="2" timestamp="2012-06-28T00:36:07Z" uid="7523" user="inas" changeset="12042295" lat="-33.9389951" lon="151.2384004"/>
  <node id="639372081" version="2" timestamp="2012-07-18T15:18:13Z" uid="722137" user="OSMF Redaction Account" changeset="12286582" lat="34.985706" lon="-85.28691"/>
  <node id="639372082" version="2" timestamp="2012-07-18T15:18:12Z" uid="722137" user="OSMF Redaction Account" changeset="12286582" lat="34.985694" lon="-85.28705"/>
  <node id="639372083" version="2" timestamp="2012-07-18T15:18:10Z" uid="722137" user="OSMF Redaction Account" changeset="12286582" lat="34.98553" lon="-85.287034"/>
  <node id="639372084" version="2" timestamp="2012-07-18T15:18:10Z" uid="722137" user="OSMF Redaction Account" changeset="12286582" lat="34.985536" lon="-85.286902"/>
  <node id="639372085" version="2" timestamp="2012-07-18T15:18:19Z" uid="722137" user="OSMF Redaction Account" changeset="12286582" lat="34.986543" lon="-85.287607"/>
  <node id="639372086" version="2" timestamp="2012-07-18T15:18:21Z" uid="722137" user="OSMF Redaction Account" changeset="12286582" lat="34.986642" lon="-85.287377"/>
  <node id="639372087" version="2" timestamp="2012-07-18T15:18:19Z" uid="722137" user="OSMF Redaction Account" changeset="12286582" lat="34.986565" lon="-85.287009"/>
  <node id="639372088" version="2" timestamp="2012-07-18T15:18:19Z" uid="722137" user="OSMF Redaction Account" changeset="12286582" lat="34.98654" lon="-85.287156"/>
  <node id="639372089" version="2" timestamp="2012-07-18T15:18:18Z" uid="722137" user="OSMF Redaction Account" changeset="12286582" lat="34.986496" lon="-85.287283"/>
  <node id="639372090" version="2" timestamp="2012-07-18T15:18:18Z" uid="722137" user="OSMF Redaction Account" changeset="12286582" lat="34.986397" lon="-85.287514"/>
  <node id="639372091" version="2" timestamp="2012-07-18T15:18:19Z" uid="722137" user="OSMF Redaction Account" changeset="12286582" lat="34.9865755" lon="-85.2873559"/>
  <node id="639372092" version="2" timestamp="2012-07-18T15:18:21Z" uid="722137" user="OSMF Redaction Account" changeset="12286582" lat="34.9866292" lon="-85.2872203"/>
  <node id="639372093" version="2" timestamp="2012-07-18T15:18:22Z" uid="722137" user="OSMF Redaction Account" changeset="12286582" lat="34.986718" lon="-85.28723"/>
  <node id="639372094" version="2" timestamp="2012-07-18T15:18:22Z" uid="722137" user="OSMF Redaction Account" changeset="12286582" lat="34.986741" lon="-85.287029"/>
  <node id="639372095" version="2" timestamp="2012-07-18T15:18:21Z" uid="722137" user="OSMF Redaction Account" changeset="12286582" lat="34.9866546" lon="-85.2870255"/>
  <node id="639372096" version="2" timestamp="2012-07-18T15:18:13Z" uid="722137" user="OSMF Redaction Account" changeset="12286582" lat="34.985701" lon="-85.285528"/>
  <node id="639372097" version="2" timestamp="2012-07-18T15:18:13Z" uid="722137" user="OSMF Redaction Account" changeset="12286582" lat="34.985701" lon="-85.285609"/>
  <node id="639372098" version="2" timestamp="2012-07-18T15:18:11Z" uid="722137" user="OSMF Redaction Account" changeset="12286582" lat="34.985537" lon="-85.285528"/>
  <node id="639372099" version="2" timestamp="2012-07-18T15:18:11Z" uid="722137" user="OSMF Redaction Account" changeset="12286582" lat="34.985537" lon="-85.285609"/>
  <node id="639372100" version="2" timestamp="2012-07-18T15:18:13Z" uid="722137" user="OSMF Redaction Account" changeset="12286582" lat="34.985702" lon="-85.286045"/>
  <node id="639372101" version="2" timestamp="2012-07-18T15:18:13Z" uid="722137" user="OSMF Redaction Account" changeset="12286582" lat="34.985704" lon="-85.286568"/>
  <node id="639372102" version="2" timestamp="2012-07-18T15:18:13Z" uid="722137" user="OSMF Redaction Account" changeset="12286582" lat="34.985702" lon="-85.285909"/>
  <node id="639372103" version="2" timestamp="2012-07-18T15:18:11Z" uid="722137" user="OSMF Redaction Account" changeset="12286582" lat="34.985538" lon="-85.286045"/>
  <node id="639372104" version="2" timestamp="2012-07-18T15:18:11Z" uid="722137" user="OSMF Redaction Account" changeset="12286582" lat="34.985537" lon="-85.28591"/>
  <node id="639372105" version="2" timestamp="2012-07-18T15:18:11Z" uid="722137" user="OSMF Redaction Account" changeset="12286582" lat="34.98554" lon="-85.286568"/>
  <node id="639372106" version="2" timestamp="2012-07-18T15:18:11Z" uid="722137" user="OSMF Redaction Account" changeset="12286582" lat="34.985534" lon="-85.284458"/>
  <node id="639372107" version="2" timestamp="2012-07-18T15:18:11Z" uid="722137" user="OSMF Redaction Account" changeset="12286582" lat="34.985537" lon="-85.285344"/>
  <node id="639372108" version="2" timestamp="2012-07-18T15:18:12Z" uid="722137" user="OSMF Redaction Account" changeset="12286582" lat="34.9857" lon="-85.284379"/>
  <node id="639372109" version="2" timestamp="2012-07-18T15:18:12Z" uid="722137" user="OSMF Redaction Account" changeset="12286582" lat="34.985699" lon="-85.28446"/>
  <node id="639372110" version="2" timestamp="2012-07-18T15:18:12Z" uid="722137" user="OSMF Redaction Account" changeset="12286582" lat="34.985698" lon="-85.284759"/>
  <node id="639372112" version="2" timestamp="2012-07-18T15:18:11Z" uid="722137" user="OSMF Redaction Account" changeset="12286582" lat="34.985538" lon="-85.284183"/>
  <node id="639372113" version="2" timestamp="2012-07-18T15:18:11Z" uid="722137" user="OSMF Redaction Account" changeset="12286582" lat="34.985534" lon="-85.284377"/>
  <node id="639372114" version="2" timestamp="2012-07-18T15:18:11Z" uid="722137" user="OSMF Redaction Account" changeset="12286582" lat="34.985533" lon="-85.28476"/>
  <node id="639372117" version="2" timestamp="2012-07-18T15:18:11Z" uid="722137" user="OSMF Redaction Account" changeset="12286582" lat="34.985534" lon="-85.284839"/>
  <node id="639372118" version="2" timestamp="2012-07-18T15:18:12Z" uid="722137" user="OSMF Redaction Account" changeset="12286582" lat="34.985698" lon="-85.284837"/>
  <node id="639372119" version="2" timestamp="2012-07-18T15:18:12Z" uid="722137" user="OSMF Redaction Account" changeset="12286582" lat="34.9857" lon="-85.285043"/>
  <node id="639372120" version="2" timestamp="2012-07-18T15:18:13Z" uid="722137" user="OSMF Redaction Account" changeset="12286582" lat="34.985702" lon="-85.284187"/>
  <node id="639372121" version="2" timestamp="2012-07-18T15:18:11Z" uid="722137" user="OSMF Redaction Account" changeset="12286582" lat="34.985535" lon="-85.285045"/>
  <node id="639372122" version="2" timestamp="2012-07-18T15:18:13Z" uid="722137" user="OSMF Redaction Account" changeset="12286582" lat="34.985701" lon="-85.285344"/>
  <node id="639372123" version="2" timestamp="2012-07-18T15:18:11Z" uid="722137" user="OSMF Redaction Account" changeset="12286582" lat="34.985545" lon="-85.283603"/>
  <node id="639372124" version="2" timestamp="2012-07-18T15:18:13Z" uid="722137" user="OSMF Redaction Account" changeset="12286582" lat="34.985706" lon="-85.283886"/>
  <node id="639372125" version="2" timestamp="2012-07-18T15:18:11Z" uid="722137" user="OSMF Redaction Account" changeset="12286582" lat="34.985541" lon="-85.283883"/>
  <node id="639372126" version="2" timestamp="2012-07-18T15:18:11Z" uid="722137" user="OSMF Redaction Account" changeset="12286582" lat="34.985543" lon="-85.283683"/>
  <node id="639372127" version="2" timestamp="2012-07-18T15:18:13Z" uid="722137" user="OSMF Redaction Account" changeset="12286582" lat="34.985709" lon="-85.283687"/>
  <node id="639372128" version="2" timestamp="2012-07-18T15:18:13Z" uid="722137" user="OSMF Redaction Account" changeset="12286582" lat="34.98571" lon="-85.283607"/>
  <node id="639372129" version="2" timestamp="2012-07-18T15:18:11Z" uid="722137" user="OSMF Redaction Account" changeset="12286582" lat="34.98555" lon="-85.283032"/>
  <node id="639372130" version="2" timestamp="2012-07-18T15:18:11Z" uid="722137" user="OSMF Redaction Account" changeset="12286582" lat="34.985549" lon="-85.283223"/>
  <node id="639372131" version="2" timestamp="2012-07-18T15:18:11Z" uid="722137" user="OSMF Redaction Account" changeset="12286582" lat="34.985548" lon="-85.283304"/>
  <node id="639372132" version="2" timestamp="2012-07-18T15:18:14Z" uid="722137" user="OSMF Redaction Account" changeset="12286582" lat="34.985715" lon="-85.283034"/>
  <node id="639372133" version="2" timestamp="2012-07-18T15:18:13Z" uid="722137" user="OSMF Redaction Account" changeset="12286582" lat="34.985713" lon="-85.283225"/>
  <node id="639372134" version="2" timestamp="2012-07-18T15:18:13Z" uid="722137" user="OSMF Redaction Account" changeset="12286582" lat="34.985713" lon="-85.283305"/>
  <node id="639372135" version="2" timestamp="2012-07-18T15:18:12Z" uid="722137" user="OSMF Redaction Account" changeset="12286582" lat="34.985558" lon="-85.282071"/>
  <node id="639372136" version="2" timestamp="2012-07-18T15:18:12Z" uid="722137" user="OSMF Redaction Account" changeset="12286582" lat="34.985553" lon="-85.282732"/>
  <node id="639372137" version="2" timestamp="2012-07-18T15:18:12Z" uid="722137" user="OSMF Redaction Account" changeset="12286582" lat="34.985554" lon="-85.282532"/>
  <node id="639372138" version="2" timestamp="2012-07-18T15:18:12Z" uid="722137" user="OSMF Redaction Account" changeset="12286582" lat="34.985554" lon="-85.282452"/>
  <node id="639372139" version="2" timestamp="2012-07-18T15:18:12Z" uid="722137" user="OSMF Redaction Account" changeset="12286582" lat="34.985557" lon="-85.282152"/>
  <node id="639372140" version="2" timestamp="2012-07-18T15:18:14Z" uid="722137" user="OSMF Redaction Account" changeset="12286582" lat="34.985722" lon="-85.282073"/>
  <node id="639372141" version="2" timestamp="2012-07-18T15:18:14Z" uid="722137" user="OSMF Redaction Account" changeset="12286582" lat="34.985722" lon="-85.282154"/>
  <node id="639372142" version="2" timestamp="2012-07-18T15:18:14Z" uid="722137" user="OSMF Redaction Account" changeset="12286582" lat="34.985717" lon="-85.282733"/>
  <node id="639372143" version="2" timestamp="2012-07-18T15:18:14Z" uid="722137" user="OSMF Redaction Account" changeset="12286582" lat="34.985718" lon="-85.282534"/>
  <node id="639372144" version="2" timestamp="2012-07-18T15:18:14Z" uid="722137" user="OSMF Redaction Account" changeset="12286582" lat="34.985719" lon="-85.282454"/>
  <node id="639372145" version="2" timestamp="2012-07-18T15:18:12Z" uid="722137" user="OSMF Redaction Account" changeset="12286582" lat="34.98556" lon="-85.28188"/>
  <node id="639372146" version="2" timestamp="2012-07-18T15:18:12Z" uid="722137" user="OSMF Redaction Account" changeset="12286582" lat="34.985567" lon="-85.281377"/>
  <node id="639372147" version="2" timestamp="2012-07-18T15:18:12Z" uid="722137" user="OSMF Redaction Account" changeset="12286582" lat="34.985564" lon="-85.281579"/>
  <node id="639372148" version="2" timestamp="2012-07-18T15:18:14Z" uid="722137" user="OSMF Redaction Account" changeset="12286582" lat="34.985725" lon="-85.281883"/>
  <node id="639372149" version="2" timestamp="2012-07-18T15:18:14Z" uid="722137" user="OSMF Redaction Account" changeset="12286582" lat="34.985731" lon="-85.281381"/>
  <node id="639372150" version="2" timestamp="2012-07-18T15:18:14Z" uid="722137" user="OSMF Redaction Account" changeset="12286582" lat="34.985728" lon="-85.281583"/>
  <node id="639372151" version="2" timestamp="2012-07-18T15:18:15Z" uid="722137" user="OSMF Redaction Account" changeset="12286582" lat="34.985733" lon="-85.281301"/>
  <node id="639372152" version="2" timestamp="2012-07-18T15:18:12Z" uid="722137" user="OSMF Redaction Account" changeset="12286582" lat="34.985568" lon="-85.281297"/>
  <node id="639372153" version="2" timestamp="2012-07-18T15:18:20Z" uid="722137" user="OSMF Redaction Account" changeset="12286582" lat="34.986588" lon="-85.286152"/>
  <node id="639372154" version="2" timestamp="2012-07-18T15:18:20Z" uid="722137" user="OSMF Redaction Account" changeset="12286582" lat="34.986593" lon="-85.285906"/>
  <node id="639372155" version="2" timestamp="2012-07-18T15:18:20Z" uid="722137" user="OSMF Redaction Account" changeset="12286582" lat="34.986599" lon="-85.285607"/>
  <node id="639372156" version="2" timestamp="2012-07-18T15:18:20Z" uid="722137" user="OSMF Redaction Account" changeset="12286582" lat="34.9866" lon="-85.285526"/>
  <node id="639372157" version="2" timestamp="2012-07-18T15:18:22Z" uid="722137" user="OSMF Redaction Account" changeset="12286582" lat="34.986752" lon="-85.286158"/>
  <node id="639372158" version="2" timestamp="2012-07-18T15:18:22Z" uid="722137" user="OSMF Redaction Account" changeset="12286582" lat="34.986758" lon="-85.285912"/>
  <node id="639372159" version="2" timestamp="2012-07-18T15:18:22Z" uid="722137" user="OSMF Redaction Account" changeset="12286582" lat="34.986763" lon="-85.28561"/>
  <node id="639372160" version="2" timestamp="2012-07-18T15:18:22Z" uid="722137" user="OSMF Redaction Account" changeset="12286582" lat="34.986764" lon="-85.28553"/>
  <node id="639372161" version="2" timestamp="2012-07-18T15:18:20Z" uid="722137" user="OSMF Redaction Account" changeset="12286582" lat="34.986607" lon="-85.285027"/>
  <node id="639372162" version="2" timestamp="2012-07-18T15:18:20Z" uid="722137" user="OSMF Redaction Account" changeset="12286582" lat="34.986611" lon="-85.284835"/>
  <node id="639372163" version="2" timestamp="2012-07-18T15:18:21Z" uid="722137" user="OSMF Redaction Account" changeset="12286582" lat="34.986612" lon="-85.284755"/>
  <node id="639372164" version="2" timestamp="2012-07-18T15:18:20Z" uid="722137" user="OSMF Redaction Account" changeset="12286582" lat="34.986603" lon="-85.285327"/>
  <node id="639372165" version="2" timestamp="2012-07-18T15:18:22Z" uid="722137" user="OSMF Redaction Account" changeset="12286582" lat="34.986772" lon="-85.285031"/>
  <node id="639372166" version="2" timestamp="2012-07-18T15:18:22Z" uid="722137" user="OSMF Redaction Account" changeset="12286582" lat="34.986775" lon="-85.284839"/>
  <node id="639372167" version="2" timestamp="2012-07-18T15:18:23Z" uid="722137" user="OSMF Redaction Account" changeset="12286582" lat="34.986777" lon="-85.28476"/>
  <node id="639372168" version="2" timestamp="2012-07-18T15:18:22Z" uid="722137" user="OSMF Redaction Account" changeset="12286582" lat="34.986767" lon="-85.285331"/>
  <node id="639372360" version="3" timestamp="2012-07-15T09:29:57Z" uid="79620" user="CraigRat" changeset="12225525" lat="-41.2151303" lon="146.4841407"/>
  <node id="639372361" version="2" timestamp="2012-07-19T07:22:46Z" uid="722137" user="OSMF Redaction Account" changeset="12311755" lat="-41.208072" lon="146.48582"/>
  <node id="639372362" version="2" timestamp="2012-07-19T07:22:47Z" uid="722137" user="OSMF Redaction Account" changeset="12311755" lat="-41.200065" lon="146.485867"/>
  <node id="639372363" version="2" timestamp="2012-07-19T07:22:47Z" uid="722137" user="OSMF Redaction Account" changeset="12311755" lat="-41.20066" lon="146.485563"/>
  <node id="639372364" version="2" timestamp="2012-07-19T07:22:47Z" uid="722137" user="OSMF Redaction Account" changeset="12311755" lat="-41.20107" lon="146.485452"/>
  <node id="639372365" version="2" timestamp="2012-07-19T07:22:47Z" uid="722137" user="OSMF Redaction Account" changeset="12311755" lat="-41.201277" lon="146.485518"/>
  <node id="639372366" version="2" timestamp="2012-07-19T07:22:47Z" uid="722137" user="OSMF Redaction Account" changeset="12311755" lat="-41.203073" lon="146.486797"/>
  <node id="639372367" version="2" timestamp="2012-07-19T07:22:47Z" uid="722137" user="OSMF Redaction Account" changeset="12311755" lat="-41.203293" lon="146.486902"/>
  <node id="639372368" version="2" timestamp="2012-07-19T07:22:46Z" uid="722137" user="OSMF Redaction Account" changeset="12311755" lat="-41.203537" lon="146.486922"/>
  <node id="639372369" version="3" timestamp="2012-07-19T07:22:48Z" uid="722137" user="OSMF Redaction Account" changeset="12311755" lat="-41.1996538" lon="146.4861618"/>
  <node id="639372370" version="2" timestamp="2012-07-19T07:22:48Z" uid="722137" user="OSMF Redaction Account" changeset="12311755" lat="-41.1934374" lon="146.4881839"/>
  <node id="639372371" version="2" timestamp="2012-07-19T07:22:49Z" uid="722137" user="OSMF Redaction Account" changeset="12311755" lat="-41.18806" lon="146.488918"/>
  <node id="639372372" version="2" timestamp="2012-07-19T07:22:49Z" uid="722137" user="OSMF Redaction Account" changeset="12311755" lat="-41.188233" lon="146.489233"/>
  <node id="639372373" version="2" timestamp="2012-07-19T07:22:49Z" uid="722137" user="OSMF Redaction Account" changeset="12311755" lat="-41.188453" lon="146.489305"/>
  <node id="639372374" version="2" timestamp="2012-07-19T07:22:48Z" uid="722137" user="OSMF Redaction Account" changeset="12311755" lat="-41.18981" lon="146.489122"/>
  <node id="639372375" version="2" timestamp="2012-07-19T07:22:50Z" uid="722137" user="OSMF Redaction Account" changeset="12311755" lat="-41.186502" lon="146.482828"/>
  <node id="639372376" version="2" timestamp="2012-07-19T07:22:49Z" uid="722137" user="OSMF Redaction Account" changeset="12311755" lat="-41.186693" lon="146.48278"/>
  <node id="639372377" version="2" timestamp="2012-07-19T07:22:49Z" uid="722137" user="OSMF Redaction Account" changeset="12311755" lat="-41.186793" lon="146.482867"/>
  <node id="639372378" version="2" timestamp="2012-07-19T07:22:49Z" uid="722137" user="OSMF Redaction Account" changeset="12311755" lat="-41.186852" lon="146.483045"/>
  <node id="639372379" version="2" timestamp="2012-07-19T07:22:50Z" uid="722137" user="OSMF Redaction Account" changeset="12311755" lat="-41.182722" lon="146.484652"/>
  <node id="639372380" version="2" timestamp="2012-07-19T07:22:50Z" uid="722137" user="OSMF Redaction Account" changeset="12311755" lat="-41.18408" lon="146.484115"/>
  <node id="639372381" version="2" timestamp="2012-07-19T07:22:49Z" uid="722137" user="OSMF Redaction Account" changeset="12311755" lat="-41.187562" lon="146.487502"/>
  <node id="639372655" version="2" timestamp="2012-07-18T15:18:28Z" uid="722137" user="OSMF Redaction Account" changeset="12286582" lat="34.98758" lon="-85.288312"/>
  <node id="639372656" version="2" timestamp="2012-07-18T15:18:33Z" uid="722137" user="OSMF Redaction Account" changeset="12286610" lat="34.987744" lon="-85.288295"/>
  <node id="639372657" version="2" timestamp="2012-07-18T15:18:28Z" uid="722137" user="OSMF Redaction Account" changeset="12286582" lat="34.987568" lon="-85.288138"/>
  <node id="639372658" version="2" timestamp="2012-07-18T15:18:28Z" uid="722137" user="OSMF Redaction Account" changeset="12286582" lat="34.987555" lon="-85.287951"/>
  <node id="639372659" version="2" timestamp="2012-07-18T15:18:27Z" uid="722137" user="OSMF Redaction Account" changeset="12286582" lat="34.987506" lon="-85.287166"/>
  <node id="639372660" version="2" timestamp="2012-07-18T15:18:27Z" uid="722137" user="OSMF Redaction Account" changeset="12286582" lat="34.987495" lon="-85.286992"/>
  <node id="639372661" version="2" timestamp="2012-07-18T15:18:32Z" uid="722137" user="OSMF Redaction Account" changeset="12286610" lat="34.987659" lon="-85.286977"/>
  <node id="639372662" version="2" timestamp="2012-07-18T15:18:33Z" uid="722137" user="OSMF Redaction Account" changeset="12286610" lat="34.987732" lon="-85.28812"/>
  <node id="639372663" version="2" timestamp="2012-07-18T15:18:33Z" uid="722137" user="OSMF Redaction Account" changeset="12286610" lat="34.987719" lon="-85.287935"/>
  <node id="639372664" version="2" timestamp="2012-07-18T15:18:32Z" uid="722137" user="OSMF Redaction Account" changeset="12286610" lat="34.98767" lon="-85.28715"/>
  <node id="639372665" version="2" timestamp="2012-07-18T15:18:28Z" uid="722137" user="OSMF Redaction Account" changeset="12286582" lat="34.987581" lon="-85.285598"/>
  <node id="639372666" version="2" timestamp="2012-07-18T15:18:28Z" uid="722137" user="OSMF Redaction Account" changeset="12286582" lat="34.98758" lon="-85.285516"/>
  <node id="639372667" version="2" timestamp="2012-07-18T15:18:28Z" uid="722137" user="OSMF Redaction Account" changeset="12286582" lat="34.987581" lon="-85.285518"/>
  <node id="639372668" version="2" timestamp="2012-07-18T15:18:26Z" uid="722137" user="OSMF Redaction Account" changeset="12286582" lat="34.98743" lon="-85.285908"/>
  <node id="639372669" version="2" timestamp="2012-07-18T15:18:26Z" uid="722137" user="OSMF Redaction Account" changeset="12286582" lat="34.987434" lon="-85.285974"/>
  <node id="639372670" version="2" timestamp="2012-07-18T15:18:27Z" uid="722137" user="OSMF Redaction Account" changeset="12286582" lat="34.987473" lon="-85.286625"/>
  <node id="639372671" version="2" timestamp="2012-07-18T15:18:27Z" uid="722137" user="OSMF Redaction Account" changeset="12286582" lat="34.987477" lon="-85.286692"/>
  <node id="639372672" version="2" timestamp="2012-07-18T15:18:30Z" uid="722137" user="OSMF Redaction Account" changeset="12286610" lat="34.987594" lon="-85.285894"/>
  <node id="639372673" version="2" timestamp="2012-07-18T15:18:30Z" uid="722137" user="OSMF Redaction Account" changeset="12286610" lat="34.987598" lon="-85.28596"/>
  <node id="639372674" version="2" timestamp="2012-07-18T15:18:30Z" uid="722137" user="OSMF Redaction Account" changeset="12286610" lat="34.987637" lon="-85.286611"/>
  <node id="639372675" version="2" timestamp="2012-07-18T15:18:32Z" uid="722137" user="OSMF Redaction Account" changeset="12286610" lat="34.987641" lon="-85.286678"/>
  <node id="639372676" version="2" timestamp="2012-07-18T15:18:25Z" uid="722137" user="OSMF Redaction Account" changeset="12286582" lat="34.987413" lon="-85.285522"/>
  <node id="639372677" version="2" timestamp="2012-07-18T15:18:25Z" uid="722137" user="OSMF Redaction Account" changeset="12286582" lat="34.987414" lon="-85.285514"/>
  <node id="639372678" version="2" timestamp="2012-07-18T15:18:25Z" uid="722137" user="OSMF Redaction Account" changeset="12286582" lat="34.987417" lon="-85.285604"/>
  <node id="639372679" version="2" timestamp="2012-07-18T15:18:25Z" uid="722137" user="OSMF Redaction Account" changeset="12286582" lat="34.987418" lon="-85.285325"/>
  <node id="639372680" version="2" timestamp="2012-07-18T15:18:29Z" uid="722137" user="OSMF Redaction Account" changeset="12286582" lat="34.987582" lon="-85.285329"/>
  <node id="639372681" version="2" timestamp="2012-07-18T15:18:25Z" uid="722137" user="OSMF Redaction Account" changeset="12286582" lat="34.987423" lon="-85.284828"/>
  <node id="639372682" version="2" timestamp="2012-07-18T15:18:25Z" uid="722137" user="OSMF Redaction Account" changeset="12286582" lat="34.987421" lon="-85.285026"/>
  <node id="639372683" version="2" timestamp="2012-07-18T15:18:29Z" uid="722137" user="OSMF Redaction Account" changeset="12286582" lat="34.987586" lon="-85.285028"/>
  <node id="639372684" version="2" timestamp="2012-07-18T15:18:25Z" uid="722137" user="OSMF Redaction Account" changeset="12286582" lat="34.987423" lon="-85.284748"/>
  <node id="639372685" version="2" timestamp="2012-07-18T15:18:26Z" uid="722137" user="OSMF Redaction Account" changeset="12286582" lat="34.987427" lon="-85.28417"/>
  <node id="639372686" version="2" timestamp="2012-07-18T15:18:29Z" uid="722137" user="OSMF Redaction Account" changeset="12286582" lat="34.98759" lon="-85.284449"/>
  <node id="639372687" version="2" timestamp="2012-07-18T15:18:25Z" uid="722137" user="OSMF Redaction Account" changeset="12286582" lat="34.987425" lon="-85.284448"/>
  <node id="639372688" version="2" timestamp="2012-07-18T15:18:25Z" uid="722137" user="OSMF Redaction Account" changeset="12286582" lat="34.987426" lon="-85.284369"/>
  <node id="639372689" version="2" timestamp="2012-07-18T15:18:29Z" uid="722137" user="OSMF Redaction Account" changeset="12286582" lat="34.98759" lon="-85.284371"/>
  <node id="639372690" version="2" timestamp="2012-07-18T15:18:29Z" uid="722137" user="OSMF Redaction Account" changeset="12286582" lat="34.987591" lon="-85.284171"/>
  <node id="639372691" version="2" timestamp="2012-07-18T15:18:29Z" uid="722137" user="OSMF Redaction Account" changeset="12286582" lat="34.987588" lon="-85.28475"/>
  <node id="639372692" version="2" timestamp="2012-07-18T15:18:29Z" uid="722137" user="OSMF Redaction Account" changeset="12286582" lat="34.987587" lon="-85.28483"/>
  <node id="639372693" version="2" timestamp="2012-07-18T15:18:29Z" uid="722137" user="OSMF Redaction Account" changeset="12286582" lat="34.987591" lon="-85.283869"/>
  <node id="639372694" version="2" timestamp="2012-07-18T15:18:26Z" uid="722137" user="OSMF Redaction Account" changeset="12286582" lat="34.987425" lon="-85.283606"/>
  <node id="639372695" version="2" timestamp="2012-07-18T15:18:26Z" uid="722137" user="OSMF Redaction Account" changeset="12286582" lat="34.987426" lon="-85.283684"/>
  <node id="639372696" version="2" timestamp="2012-07-18T15:18:26Z" uid="722137" user="OSMF Redaction Account" changeset="12286582" lat="34.987427" lon="-85.283871"/>
  <node id="639372697" version="2" timestamp="2012-07-18T15:18:30Z" uid="722137" user="OSMF Redaction Account" changeset="12286610" lat="34.98759" lon="-85.283605"/>
  <node id="639372698" version="2" timestamp="2012-07-18T15:18:30Z" uid="722137" user="OSMF Redaction Account" changeset="12286610" lat="34.98759" lon="-85.283682"/>
  <node id="639372731" version="2" timestamp="2012-07-18T15:18:39Z" uid="722137" user="OSMF Redaction Account" changeset="12286610" lat="34.98853" lon="-85.286954"/>
  <node id="639372732" version="2" timestamp="2012-07-18T15:18:41Z" uid="722137" user="OSMF Redaction Account" changeset="12286610" lat="34.98868" lon="-85.286872"/>
  <node id="639372733" version="2" timestamp="2012-07-18T15:18:39Z" uid="722137" user="OSMF Redaction Account" changeset="12286610" lat="34.988502" lon="-85.286876"/>
  <node id="639372734" version="2" timestamp="2012-07-18T15:18:50Z" uid="722137" user="OSMF Redaction Account" changeset="12286610" lat="34.989767" lon="-85.289815"/>
  <node id="639372735" version="2" timestamp="2012-07-18T15:18:50Z" uid="722137" user="OSMF Redaction Account" changeset="12286610" lat="34.989742" lon="-85.289769"/>
  <node id="639372736" version="2" timestamp="2012-07-18T15:18:51Z" uid="722137" user="OSMF Redaction Account" changeset="12286610" lat="34.989884" lon="-85.289657"/>
  <node id="639372737" version="2" timestamp="2012-07-18T15:18:51Z" uid="722137" user="OSMF Redaction Account" changeset="12286610" lat="34.989908" lon="-85.289712"/>
  <node id="639372738" version="2" timestamp="2012-07-18T15:18:47Z" uid="722137" user="OSMF Redaction Account" changeset="12286610" lat="34.989318" lon="-85.288605"/>
  <node id="639372739" version="2" timestamp="2012-07-18T15:18:47Z" uid="722137" user="OSMF Redaction Account" changeset="12286610" lat="34.989327" lon="-85.289045"/>
  <node id="639372740" version="2" timestamp="2012-07-18T15:18:47Z" uid="722137" user="OSMF Redaction Account" changeset="12286610" lat="34.989348" lon="-85.288686"/>
  <node id="639372741" version="2" timestamp="2012-07-18T15:18:45Z" uid="722137" user="OSMF Redaction Account" changeset="12286610" lat="34.989168" lon="-85.288687"/>
  <node id="639372742" version="2" timestamp="2012-07-18T15:18:45Z" uid="722137" user="OSMF Redaction Account" changeset="12286610" lat="34.989198" lon="-85.288768"/>
  <node id="639372743" version="2" timestamp="2012-07-18T15:18:48Z" uid="722137" user="OSMF Redaction Account" changeset="12286610" lat="34.989462" lon="-85.28893"/>
  <node id="639372744" version="2" timestamp="2012-07-18T15:18:44Z" uid="722137" user="OSMF Redaction Account" changeset="12286610" lat="34.989046" lon="-85.287872"/>
  <node id="639372745" version="2" timestamp="2012-07-18T15:18:44Z" uid="722137" user="OSMF Redaction Account" changeset="12286610" lat="34.989075" lon="-85.287952"/>
  <node id="639372746" version="2" timestamp="2012-07-18T15:18:42Z" uid="722137" user="OSMF Redaction Account" changeset="12286610" lat="34.988766" lon="-85.287601"/>
  <node id="639372747" version="2" timestamp="2012-07-18T15:18:42Z" uid="722137" user="OSMF Redaction Account" changeset="12286610" lat="34.988795" lon="-85.287679"/>
  <node id="639372748" version="2" timestamp="2012-07-18T15:18:42Z" uid="722137" user="OSMF Redaction Account" changeset="12286610" lat="34.988895" lon="-85.287954"/>
  <node id="639372749" version="2" timestamp="2012-07-18T15:18:43Z" uid="722137" user="OSMF Redaction Account" changeset="12286610" lat="34.988916" lon="-85.287519"/>
  <node id="639372750" version="2" timestamp="2012-07-18T15:18:43Z" uid="722137" user="OSMF Redaction Account" changeset="12286610" lat="34.988925" lon="-85.288034"/>
  <node id="639372751" version="2" timestamp="2012-07-18T15:18:43Z" uid="722137" user="OSMF Redaction Account" changeset="12286610" lat="34.988945" lon="-85.287598"/>
  <node id="639372752" version="2" timestamp="2012-07-18T15:18:40Z" uid="722137" user="OSMF Redaction Account" changeset="12286610" lat="34.988555" lon="-85.286521"/>
  <node id="639372753" version="2" timestamp="2012-07-18T15:18:35Z" uid="722137" user="OSMF Redaction Account" changeset="12286610" lat="34.98817" lon="-85.285928"/>
  <node id="639372754" version="2" timestamp="2012-07-18T15:18:35Z" uid="722137" user="OSMF Redaction Account" changeset="12286610" lat="34.988187" lon="-85.285979"/>
  <node id="639372755" version="2" timestamp="2012-07-18T15:18:41Z" uid="722137" user="OSMF Redaction Account" changeset="12286610" lat="34.988652" lon="-85.286795"/>
  <node id="639372756" version="2" timestamp="2012-07-18T15:18:37Z" uid="722137" user="OSMF Redaction Account" changeset="12286610" lat="34.988385" lon="-85.286547"/>
  <node id="639372757" version="2" timestamp="2012-07-18T15:18:36Z" uid="722137" user="OSMF Redaction Account" changeset="12286610" lat="34.988322" lon="-85.285851"/>
  <node id="639372758" version="2" timestamp="2012-07-18T15:18:36Z" uid="722137" user="OSMF Redaction Account" changeset="12286610" lat="34.988339" lon="-85.285901"/>
  <node id="639372759" version="2" timestamp="2012-07-18T15:18:40Z" uid="722137" user="OSMF Redaction Account" changeset="12286610" lat="34.988537" lon="-85.286469"/>
  <node id="639372760" version="2" timestamp="2012-07-18T15:18:38Z" uid="722137" user="OSMF Redaction Account" changeset="12286610" lat="34.988403" lon="-85.286599"/>
  <node id="639372836" version="4" timestamp="2012-07-20T12:03:56Z" uid="46482" user="Leon K" changeset="12374913" lat="-41.2321704" lon="146.3805412"/>
  <node id="639373289" version="2" timestamp="2012-07-18T15:18:55Z" uid="722137" user="OSMF Redaction Account" changeset="12286610" lat="34.990632" lon="-85.289936"/>
  <node id="639373290" version="2" timestamp="2012-07-18T15:18:54Z" uid="722137" user="OSMF Redaction Account" changeset="12286610" lat="34.990612" lon="-85.28987"/>
  <node id="639373291" version="2" timestamp="2012-07-18T15:18:55Z" uid="722137" user="OSMF Redaction Account" changeset="12286610" lat="34.990784" lon="-85.289802"/>
  <node id="639373292" version="2" timestamp="2012-07-18T15:18:55Z" uid="722137" user="OSMF Redaction Account" changeset="12286610" lat="34.990792" lon="-85.289894"/>
  <node id="639373293" version="2" timestamp="2012-07-18T15:18:52Z" uid="722137" user="OSMF Redaction Account" changeset="12286610" lat="34.990051" lon="-85.288314"/>
  <node id="639373294" version="2" timestamp="2012-07-18T15:18:52Z" uid="722137" user="OSMF Redaction Account" changeset="12286610" lat="34.990021" lon="-85.288231"/>
  <node id="639373295" version="2" timestamp="2012-07-18T15:18:50Z" uid="722137" user="OSMF Redaction Account" changeset="12286610" lat="34.989781" lon="-85.287573"/>
  <node id="639373296" version="2" timestamp="2012-07-18T15:18:50Z" uid="722137" user="OSMF Redaction Account" changeset="12286610" lat="34.989801" lon="-85.287135"/>
  <node id="639373297" version="2" timestamp="2012-07-18T15:18:50Z" uid="722137" user="OSMF Redaction Account" changeset="12286610" lat="34.989772" lon="-85.287055"/>
  <node id="639373298" version="2" timestamp="2012-07-18T15:18:49Z" uid="722137" user="OSMF Redaction Account" changeset="12286610" lat="34.989651" lon="-85.287216"/>
  <node id="639373299" version="2" timestamp="2012-07-18T15:18:49Z" uid="722137" user="OSMF Redaction Account" changeset="12286610" lat="34.989622" lon="-85.287135"/>
  <node id="639373300" version="2" timestamp="2012-07-18T15:18:51Z" uid="722137" user="OSMF Redaction Account" changeset="12286610" lat="34.989901" lon="-85.28741"/>
  <node id="639373301" version="2" timestamp="2012-07-18T15:18:52Z" uid="722137" user="OSMF Redaction Account" changeset="12286610" lat="34.989931" lon="-85.287491"/>
  <node id="639373302" version="2" timestamp="2012-07-18T15:18:50Z" uid="722137" user="OSMF Redaction Account" changeset="12286610" lat="34.989751" lon="-85.287491"/>
  <node id="639373303" version="2" timestamp="2012-07-18T15:18:53Z" uid="722137" user="OSMF Redaction Account" changeset="12286610" lat="34.990154" lon="-85.288588"/>
  <node id="639373304" version="2" timestamp="2012-07-18T15:18:53Z" uid="722137" user="OSMF Redaction Account" changeset="12286610" lat="34.990167" lon="-85.288625"/>
  <node id="639373305" version="2" timestamp="2012-07-18T15:18:53Z" uid="722137" user="OSMF Redaction Account" changeset="12286610" lat="34.990304" lon="-85.288504"/>
  <node id="639373306" version="2" timestamp="2012-07-18T15:18:53Z" uid="722137" user="OSMF Redaction Account" changeset="12286610" lat="34.990171" lon="-85.288149"/>
  <node id="639373307" version="2" timestamp="2012-07-18T15:18:53Z" uid="722137" user="OSMF Redaction Account" changeset="12286610" lat="34.990319" lon="-85.288541"/>
  <node id="639373308" version="2" timestamp="2012-07-18T15:18:53Z" uid="722137" user="OSMF Redaction Account" changeset="12286610" lat="34.990202" lon="-85.288232"/>
  <node id="639373309" version="2" timestamp="2012-07-18T15:18:41Z" uid="722137" user="OSMF Redaction Account" changeset="12286610" lat="34.988612" lon="-85.284354"/>
  <node id="639373310" version="2" timestamp="2012-07-18T15:18:41Z" uid="722137" user="OSMF Redaction Account" changeset="12286610" lat="34.988586" lon="-85.284288"/>
  <node id="639373311" version="2" timestamp="2012-07-18T15:18:34Z" uid="722137" user="OSMF Redaction Account" changeset="12286610" lat="34.98801" lon="-85.28275"/>
  <node id="639373312" version="2" timestamp="2012-07-18T15:18:38Z" uid="722137" user="OSMF Redaction Account" changeset="12286610" lat="34.988486" lon="-85.283536"/>
  <node id="639373313" version="2" timestamp="2012-07-18T15:18:39Z" uid="722137" user="OSMF Redaction Account" changeset="12286610" lat="34.988509" lon="-85.2836"/>
  <node id="639373314" version="2" timestamp="2012-07-18T15:18:35Z" uid="722137" user="OSMF Redaction Account" changeset="12286610" lat="34.988235" lon="-85.283344"/>
  <node id="639373315" version="2" timestamp="2012-07-18T15:18:36Z" uid="722137" user="OSMF Redaction Account" changeset="12286610" lat="34.988335" lon="-85.283616"/>
  <node id="639373316" version="2" timestamp="2012-07-18T15:18:35Z" uid="722137" user="OSMF Redaction Account" changeset="12286610" lat="34.98822" lon="-85.283306"/>
  <node id="639373317" version="2" timestamp="2012-07-18T15:18:40Z" uid="722137" user="OSMF Redaction Account" changeset="12286610" lat="34.988574" lon="-85.283778"/>
  <node id="639373318" version="2" timestamp="2012-07-18T15:18:37Z" uid="722137" user="OSMF Redaction Account" changeset="12286610" lat="34.988384" lon="-85.28326"/>
  <node id="639373319" version="2" timestamp="2012-07-18T15:18:37Z" uid="722137" user="OSMF Redaction Account" changeset="12286610" lat="34.98837" lon="-85.283222"/>
  <node id="639373320" version="2" timestamp="2012-07-18T15:18:35Z" uid="722137" user="OSMF Redaction Account" changeset="12286610" lat="34.988023" lon="-85.282787"/>
  <node id="639373321" version="2" timestamp="2012-07-18T15:18:38Z" uid="722137" user="OSMF Redaction Account" changeset="12286610" lat="34.988422" lon="-85.283862"/>
  <node id="639373322" version="2" timestamp="2012-07-18T15:18:37Z" uid="722137" user="OSMF Redaction Account" changeset="12286610" lat="34.988357" lon="-85.28368"/>
  <node id="639373323" version="2" timestamp="2012-07-18T15:18:34Z" uid="722137" user="OSMF Redaction Account" changeset="12286610" lat="34.987855" lon="-85.282328"/>
  <node id="639373324" version="2" timestamp="2012-07-18T15:18:34Z" uid="722137" user="OSMF Redaction Account" changeset="12286610" lat="34.987866" lon="-85.282357"/>
  <node id="639373325" version="2" timestamp="2012-07-18T15:18:34Z" uid="722137" user="OSMF Redaction Account" changeset="12286610" lat="34.988007" lon="-85.282248"/>
  <node id="639373326" version="2" timestamp="2012-07-18T15:18:34Z" uid="722137" user="OSMF Redaction Account" changeset="12286610" lat="34.988017" lon="-85.282276"/>
  <node id="639373327" version="2" timestamp="2012-07-18T15:18:34Z" uid="722137" user="OSMF Redaction Account" changeset="12286610" lat="34.987921" lon="-85.281991"/>
  <node id="639373328" version="2" timestamp="2012-07-18T15:18:34Z" uid="722137" user="OSMF Redaction Account" changeset="12286610" lat="34.987974" lon="-85.282151"/>
  <node id="639373329" version="2" timestamp="2012-07-18T15:18:33Z" uid="722137" user="OSMF Redaction Account" changeset="12286610" lat="34.987767" lon="-85.282071"/>
  <node id="639373330" version="2" timestamp="2012-07-18T15:18:34Z" uid="722137" user="OSMF Redaction Account" changeset="12286610" lat="34.98782" lon="-85.282229"/>
  <node id="639373331" version="2" timestamp="2012-07-18T15:18:28Z" uid="722137" user="OSMF Redaction Account" changeset="12286582" lat="34.987534" lon="-85.281443"/>
  <node id="639373332" version="2" timestamp="2012-07-18T15:18:35Z" uid="722137" user="OSMF Redaction Account" changeset="12286610" lat="34.988173" lon="-85.282703"/>
  <node id="639373333" version="2" timestamp="2012-07-18T15:18:35Z" uid="722137" user="OSMF Redaction Account" changeset="12286610" lat="34.988159" lon="-85.282667"/>
  <node id="639373334" version="2" timestamp="2012-07-18T15:18:47Z" uid="722137" user="OSMF Redaction Account" changeset="12286610" lat="34.989358" lon="-85.286402"/>
  <node id="639373335" version="2" timestamp="2012-07-18T15:18:47Z" uid="722137" user="OSMF Redaction Account" changeset="12286610" lat="34.989387" lon="-85.286481"/>
  <node id="639373336" version="2" timestamp="2012-07-18T15:18:46Z" uid="722137" user="OSMF Redaction Account" changeset="12286610" lat="34.98923" lon="-85.285566"/>
  <node id="639373337" version="2" timestamp="2012-07-18T15:18:44Z" uid="722137" user="OSMF Redaction Account" changeset="12286610" lat="34.98908" lon="-85.285647"/>
  <node id="639373338" version="2" timestamp="2012-07-18T15:18:46Z" uid="722137" user="OSMF Redaction Account" changeset="12286610" lat="34.989235" lon="-85.285579"/>
  <node id="639373339" version="2" timestamp="2012-07-18T15:18:46Z" uid="722137" user="OSMF Redaction Account" changeset="12286610" lat="34.989258" lon="-85.286128"/>
  <node id="639373340" version="2" timestamp="2012-07-18T15:18:46Z" uid="722137" user="OSMF Redaction Account" changeset="12286610" lat="34.989253" lon="-85.286114"/>
  <node id="639373341" version="2" timestamp="2012-07-18T15:18:44Z" uid="722137" user="OSMF Redaction Account" changeset="12286610" lat="34.989085" lon="-85.285661"/>
  <node id="639373342" version="2" timestamp="2012-07-18T15:18:49Z" uid="722137" user="OSMF Redaction Account" changeset="12286610" lat="34.989509" lon="-85.286321"/>
  <node id="639373343" version="2" timestamp="2012-07-18T15:18:49Z" uid="722137" user="OSMF Redaction Account" changeset="12286610" lat="34.989537" lon="-85.286401"/>
  <node id="639373344" version="2" timestamp="2012-07-18T15:18:48Z" uid="722137" user="OSMF Redaction Account" changeset="12286610" lat="34.989408" lon="-85.286046"/>
  <node id="639373345" version="2" timestamp="2012-07-18T15:18:48Z" uid="722137" user="OSMF Redaction Account" changeset="12286610" lat="34.989403" lon="-85.286032"/>
  <node id="639373346" version="2" timestamp="2012-07-18T15:18:43Z" uid="722137" user="OSMF Redaction Account" changeset="12286610" lat="34.988916" lon="-85.28469"/>
  <node id="639373347" version="2" timestamp="2012-07-18T15:18:42Z" uid="722137" user="OSMF Redaction Account" changeset="12286610" lat="34.988761" lon="-85.284268"/>
  <node id="639373348" version="2" timestamp="2012-07-18T15:18:43Z" uid="722137" user="OSMF Redaction Account" changeset="12286610" lat="34.98893" lon="-85.284727"/>
  <node id="639373349" version="2" timestamp="2012-07-18T15:18:42Z" uid="722137" user="OSMF Redaction Account" changeset="12286610" lat="34.988736" lon="-85.284202"/>
  <node id="639373350" version="2" timestamp="2012-07-18T15:18:43Z" uid="722137" user="OSMF Redaction Account" changeset="12286610" lat="34.988967" lon="-85.285333"/>
  <node id="639373351" version="2" timestamp="2012-07-18T15:18:43Z" uid="722137" user="OSMF Redaction Account" changeset="12286610" lat="34.98898" lon="-85.285371"/>
  <node id="639373352" version="2" timestamp="2012-07-18T15:18:42Z" uid="722137" user="OSMF Redaction Account" changeset="12286610" lat="34.988765" lon="-85.28477"/>
  <node id="639373353" version="2" timestamp="2012-07-18T15:18:42Z" uid="722137" user="OSMF Redaction Account" changeset="12286610" lat="34.988778" lon="-85.284807"/>
  <node id="639373354" version="2" timestamp="2012-07-18T15:18:45Z" uid="722137" user="OSMF Redaction Account" changeset="12286610" lat="34.989117" lon="-85.285253"/>
  <node id="639373355" version="2" timestamp="2012-07-18T15:18:45Z" uid="722137" user="OSMF Redaction Account" changeset="12286610" lat="34.989131" lon="-85.285291"/>
  <node id="639373356" version="2" timestamp="2012-07-18T15:18:27Z" uid="722137" user="OSMF Redaction Account" changeset="12286582" lat="34.987488" lon="-85.281319"/>
  <node id="639373357" version="2" timestamp="2012-07-18T15:18:32Z" uid="722137" user="OSMF Redaction Account" changeset="12286610" lat="34.987684" lon="-85.281361"/>
  <node id="639373358" version="2" timestamp="2012-07-18T15:18:30Z" uid="722137" user="OSMF Redaction Account" changeset="12286610" lat="34.987638" lon="-85.281237"/>
  <node id="639373359" version="2" timestamp="2012-07-18T15:18:25Z" uid="722137" user="OSMF Redaction Account" changeset="12286582" lat="34.987406" lon="-85.281015"/>
  <node id="639373360" version="2" timestamp="2012-07-18T15:18:25Z" uid="722137" user="OSMF Redaction Account" changeset="12286582" lat="34.987372" lon="-85.280822"/>
  <node id="639373361" version="2" timestamp="2012-07-18T15:18:28Z" uid="722137" user="OSMF Redaction Account" changeset="12286582" lat="34.987567" lon="-85.280973"/>
  <node id="639373362" version="2" timestamp="2012-07-18T15:18:28Z" uid="722137" user="OSMF Redaction Account" changeset="12286582" lat="34.987533" lon="-85.28078"/>
  <node id="639373376" version="2" timestamp="2012-07-18T15:18:08Z" uid="722137" user="OSMF Redaction Account" changeset="12286582" lat="34.984912" lon="-85.285869"/>
  <node id="639373377" version="2" timestamp="2012-07-18T15:18:08Z" uid="722137" user="OSMF Redaction Account" changeset="12286582" lat="34.984903" lon="-85.285868"/>
  <node id="639373378" version="2" timestamp="2012-07-18T15:18:08Z" uid="722137" user="OSMF Redaction Account" changeset="12286582" lat="34.984904" lon="-85.285665"/>
  <node id="639373379" version="2" timestamp="2012-07-18T15:18:08Z" uid="722137" user="OSMF Redaction Account" changeset="12286582" lat="34.984892" lon="-85.285668"/>
  <node id="639373380" version="2" timestamp="2012-07-18T15:18:08Z" uid="722137" user="OSMF Redaction Account" changeset="12286582" lat="34.984943" lon="-85.285867"/>
  <node id="639373381" version="2" timestamp="2012-07-18T15:18:08Z" uid="722137" user="OSMF Redaction Account" changeset="12286582" lat="34.984941" lon="-85.285665"/>
  <node id="639373382" version="2" timestamp="2012-07-18T15:18:10Z" uid="722137" user="OSMF Redaction Account" changeset="12286582" lat="34.98545" lon="-85.28586"/>
  <node id="639373383" version="2" timestamp="2012-07-18T15:18:10Z" uid="722137" user="OSMF Redaction Account" changeset="12286582" lat="34.985495" lon="-85.28566"/>
  <node id="639373384" version="2" timestamp="2012-07-18T15:18:10Z" uid="722137" user="OSMF Redaction Account" changeset="12286582" lat="34.985448" lon="-85.28566"/>
  <node id="639373385" version="2" timestamp="2012-07-18T15:18:10Z" uid="722137" user="OSMF Redaction Account" changeset="12286582" lat="34.985496" lon="-85.28586"/>
  <node id="639373386" version="2" timestamp="2012-07-18T15:18:15Z" uid="722137" user="OSMF Redaction Account" changeset="12286582" lat="34.985742" lon="-85.285659"/>
  <node id="639373387" version="2" timestamp="2012-07-18T15:18:16Z" uid="722137" user="OSMF Redaction Account" changeset="12286582" lat="34.985831" lon="-85.285659"/>
  <node id="639373388" version="2" timestamp="2012-07-18T15:18:15Z" uid="722137" user="OSMF Redaction Account" changeset="12286582" lat="34.985742" lon="-85.285859"/>
  <node id="639373389" version="2" timestamp="2012-07-18T15:18:16Z" uid="722137" user="OSMF Redaction Account" changeset="12286582" lat="34.985831" lon="-85.285859"/>
  <node id="639373390" version="2" timestamp="2012-07-18T15:18:19Z" uid="722137" user="OSMF Redaction Account" changeset="12286582" lat="34.986556" lon="-85.285859"/>
  <node id="639373391" version="2" timestamp="2012-07-18T15:18:18Z" uid="722137" user="OSMF Redaction Account" changeset="12286582" lat="34.986467" lon="-85.285659"/>
  <node id="639373392" version="2" timestamp="2012-07-18T15:18:19Z" uid="722137" user="OSMF Redaction Account" changeset="12286582" lat="34.986556" lon="-85.285659"/>
  <node id="639373393" version="2" timestamp="2012-07-18T15:18:18Z" uid="722137" user="OSMF Redaction Account" changeset="12286582" lat="34.986467" lon="-85.285859"/>
  <node id="639373394" version="2" timestamp="2012-07-18T15:18:23Z" uid="722137" user="OSMF Redaction Account" changeset="12286582" lat="34.986844" lon="-85.285857"/>
  <node id="639373395" version="2" timestamp="2012-07-18T15:18:23Z" uid="722137" user="OSMF Redaction Account" changeset="12286582" lat="34.986802" lon="-85.285657"/>
  <node id="639373396" version="2" timestamp="2012-07-18T15:18:23Z" uid="722137" user="OSMF Redaction Account" changeset="12286582" lat="34.986842" lon="-85.285657"/>
  <node id="639373397" version="2" timestamp="2012-07-18T15:18:23Z" uid="722137" user="OSMF Redaction Account" changeset="12286582" lat="34.986803" lon="-85.285858"/>
  <node id="639373398" version="2" timestamp="2012-07-18T15:18:25Z" uid="722137" user="OSMF Redaction Account" changeset="12286582" lat="34.987339" lon="-85.285852"/>
  <node id="639373399" version="2" timestamp="2012-07-18T15:18:25Z" uid="722137" user="OSMF Redaction Account" changeset="12286582" lat="34.98738" lon="-85.285852"/>
  <node id="639373400" version="2" timestamp="2012-07-18T15:18:30Z" uid="722137" user="OSMF Redaction Account" changeset="12286610" lat="34.987626" lon="-85.285851"/>
  <node id="639373401" version="2" timestamp="2012-07-18T15:18:32Z" uid="722137" user="OSMF Redaction Account" changeset="12286610" lat="34.987641" lon="-85.285851"/>
  <node id="639373402" version="2" timestamp="2012-07-18T15:18:25Z" uid="722137" user="OSMF Redaction Account" changeset="12286582" lat="34.987337" lon="-85.285652"/>
  <node id="639373403" version="2" timestamp="2012-07-18T15:18:25Z" uid="722137" user="OSMF Redaction Account" changeset="12286582" lat="34.987379" lon="-85.285652"/>
  <node id="639373404" version="2" timestamp="2012-07-18T15:18:30Z" uid="722137" user="OSMF Redaction Account" changeset="12286610" lat="34.987626" lon="-85.285651"/>
  <node id="639373405" version="2" timestamp="2012-07-18T15:18:32Z" uid="722137" user="OSMF Redaction Account" changeset="12286610" lat="34.987641" lon="-85.285651"/>
  <node id="639373406" version="2" timestamp="2012-07-18T15:18:35Z" uid="722137" user="OSMF Redaction Account" changeset="12286610" lat="34.988059" lon="-85.285651"/>
  <node id="639373407" version="2" timestamp="2012-07-18T15:18:36Z" uid="722137" user="OSMF Redaction Account" changeset="12286610" lat="34.988319" lon="-85.285646"/>
  <node id="639373408" version="2" timestamp="2012-07-18T15:18:35Z" uid="722137" user="OSMF Redaction Account" changeset="12286610" lat="34.988075" lon="-85.285851"/>
  <node id="639373409" version="2" timestamp="2012-07-18T15:18:35Z" uid="722137" user="OSMF Redaction Account" changeset="12286610" lat="34.988075" lon="-85.285651"/>
  <node id="639373410" version="2" timestamp="2012-07-18T15:18:36Z" uid="722137" user="OSMF Redaction Account" changeset="12286610" lat="34.988324" lon="-85.285846"/>
  <node id="639373411" version="2" timestamp="2012-07-18T15:18:35Z" uid="722137" user="OSMF Redaction Account" changeset="12286610" lat="34.988059" lon="-85.285851"/>
  <node id="639373412" version="2" timestamp="2012-07-18T15:18:39Z" uid="722137" user="OSMF Redaction Account" changeset="12286610" lat="34.98853" lon="-85.285624"/>
  <node id="639373413" version="2" timestamp="2012-07-18T15:18:37Z" uid="722137" user="OSMF Redaction Account" changeset="12286610" lat="34.988388" lon="-85.285643"/>
  <node id="639373414" version="2" timestamp="2012-07-18T15:18:40Z" uid="722137" user="OSMF Redaction Account" changeset="12286610" lat="34.988566" lon="-85.28585"/>
  <node id="639373415" version="2" timestamp="2012-07-18T15:18:38Z" uid="722137" user="OSMF Redaction Account" changeset="12286610" lat="34.988394" lon="-85.285843"/>
  <node id="639373416" version="2" timestamp="2012-07-18T15:18:40Z" uid="722137" user="OSMF Redaction Account" changeset="12286610" lat="34.9885438" lon="-85.2857424"/>
  <node id="639373417" version="2" timestamp="2012-07-18T15:18:44Z" uid="722137" user="OSMF Redaction Account" changeset="12286610" lat="34.989025" lon="-85.285621"/>
  <node id="639373418" version="2" timestamp="2012-07-18T15:18:43Z" uid="722137" user="OSMF Redaction Account" changeset="12286610" lat="34.988969" lon="-85.285653"/>
  <node id="639373419" version="2" timestamp="2012-07-18T15:18:43Z" uid="722137" user="OSMF Redaction Account" changeset="12286610" lat="34.988927" lon="-85.285681"/>
  <node id="639373420" version="2" timestamp="2012-07-18T15:18:46Z" uid="722137" user="OSMF Redaction Account" changeset="12286610" lat="34.989251" lon="-85.285499"/>
  <node id="639373421" version="2" timestamp="2012-07-18T15:18:43Z" uid="722137" user="OSMF Redaction Account" changeset="12286610" lat="34.988959" lon="-85.285438"/>
  <node id="639373422" version="2" timestamp="2012-07-18T15:18:42Z" uid="722137" user="OSMF Redaction Account" changeset="12286610" lat="34.988899" lon="-85.285469"/>
  <node id="639373423" version="2" timestamp="2012-07-18T15:18:42Z" uid="722137" user="OSMF Redaction Account" changeset="12286610" lat="34.988861" lon="-85.285487"/>
  <node id="639373424" version="2" timestamp="2012-07-18T15:18:45Z" uid="722137" user="OSMF Redaction Account" changeset="12286610" lat="34.989184" lon="-85.285316"/>
  <node id="639373425" version="2" timestamp="2012-07-18T15:18:51Z" uid="722137" user="OSMF Redaction Account" changeset="12286610" lat="34.989884" lon="-85.285156"/>
  <node id="639373426" version="2" timestamp="2012-07-18T15:18:50Z" uid="722137" user="OSMF Redaction Account" changeset="12286610" lat="34.989764" lon="-85.285221"/>
  <node id="639373427" version="2" timestamp="2012-07-18T15:18:49Z" uid="722137" user="OSMF Redaction Account" changeset="12286610" lat="34.989472" lon="-85.28516"/>
  <node id="639373428" version="2" timestamp="2012-07-18T15:18:49Z" uid="722137" user="OSMF Redaction Account" changeset="12286610" lat="34.989539" lon="-85.285343"/>
  <node id="639373429" version="2" timestamp="2012-07-18T15:18:52Z" uid="722137" user="OSMF Redaction Account" changeset="12286610" lat="34.990042" lon="-85.28485"/>
  <node id="639373430" version="2" timestamp="2012-07-18T15:18:53Z" uid="722137" user="OSMF Redaction Account" changeset="12286610" lat="34.990158" lon="-85.285005"/>
  <node id="639373431" version="2" timestamp="2012-07-18T15:18:54Z" uid="722137" user="OSMF Redaction Account" changeset="12286610" lat="34.990379" lon="-85.284884"/>
  <node id="639373432" version="2" timestamp="2012-07-18T15:18:55Z" uid="722137" user="OSMF Redaction Account" changeset="12286610" lat="34.990641" lon="-85.284745"/>
  <node id="639373433" version="2" timestamp="2012-07-18T15:18:55Z" uid="722137" user="OSMF Redaction Account" changeset="12286610" lat="34.99069" lon="-85.28472"/>
  <node id="639373434" version="2" timestamp="2012-07-18T15:18:53Z" uid="722137" user="OSMF Redaction Account" changeset="12286610" lat="34.990311" lon="-85.284698"/>
  <node id="639373435" version="2" timestamp="2012-07-18T15:18:54Z" uid="722137" user="OSMF Redaction Account" changeset="12286610" lat="34.990577" lon="-85.284561"/>
  <node id="639373436" version="2" timestamp="2012-07-18T15:18:55Z" uid="722137" user="OSMF Redaction Account" changeset="12286610" lat="34.990626" lon="-85.284535"/>
  <node id="639373437" version="2" timestamp="2012-07-18T15:18:52Z" uid="722137" user="OSMF Redaction Account" changeset="12286610" lat="34.990111" lon="-85.285032"/>
  <node id="639373438" version="2" timestamp="2012-07-18T15:18:52Z" uid="722137" user="OSMF Redaction Account" changeset="12286610" lat="34.99009" lon="-85.284823"/>
  <node id="639373506" version="3" timestamp="2012-06-24T02:49:50Z" uid="7523" user="inas" changeset="11995141" lat="-33.925004" lon="151.2244203"/>
  <node id="639373507" version="3" timestamp="2012-06-24T02:49:50Z" uid="7523" user="inas" changeset="11995141" lat="-33.9253956" lon="151.2245336"/>
  <node id="639373508" version="3" timestamp="2012-06-24T02:49:50Z" uid="7523" user="inas" changeset="11995141" lat="-33.9253545" lon="151.2247398"/>
  <node id="639373510" version="3" timestamp="2012-06-24T02:49:50Z" uid="7523" user="inas" changeset="11995141" lat="-33.9249629" lon="151.2246265"/>
  <node id="639374598" version="2" timestamp="2012-07-13T12:16:15Z" uid="713671" user="auspod" changeset="12205979" lat="-33.9215962" lon="151.2236893"/>
  <node id="639374599" version="2" timestamp="2012-07-13T12:16:16Z" uid="713671" user="auspod" changeset="12205979" lat="-33.9216496" lon="151.2253397"/>
  <node id="639374609" version="2" timestamp="2012-07-14T19:56:28Z" uid="713671" user="auspod" changeset="12221100" lat="-33.9205363" lon="151.2251615"/>
  <node id="639374612" version="2" timestamp="2012-07-14T19:56:26Z" uid="713671" user="auspod" changeset="12221100" lat="-33.9204524" lon="151.224308"/>
  <node id="639374613" version="2" timestamp="2012-07-14T19:56:26Z" uid="713671" user="auspod" changeset="12221100" lat="-33.920439" lon="151.2242168"/>
  <node id="639374614" version="2" timestamp="2012-07-14T19:56:27Z" uid="713671" user="auspod" changeset="12221100" lat="-33.9203989" lon="151.2241739"/>
  <node id="639374615" version="2" timestamp="2012-07-14T19:56:26Z" uid="713671" user="auspod" changeset="12221100" lat="-33.9203188" lon="151.2241847"/>
  <node id="639374616" version="2" timestamp="2012-07-14T19:56:26Z" uid="713671" user="auspod" changeset="12221100" lat="-33.920212" lon="151.2242276"/>
  <node id="639374617" version="2" timestamp="2012-07-14T19:56:27Z" uid="713671" user="auspod" changeset="12221100" lat="-33.9200918" lon="151.2242651"/>
  <node id="639374618" version="2" timestamp="2012-07-14T19:56:28Z" uid="713671" user="auspod" changeset="12221100" lat="-33.9199583" lon="151.2242812"/>
  <node id="639374764" version="3" timestamp="2012-07-19T10:43:44Z" uid="722137" user="OSMF Redaction Account" changeset="12319255" lat="-35.3725114" lon="149.0629507"/>
  <node id="639374766" version="3" timestamp="2012-07-19T10:43:43Z" uid="722137" user="OSMF Redaction Account" changeset="12319255" lat="-35.3731271" lon="149.0630164"/>
  <node id="639374781" version="3" timestamp="2012-07-19T11:29:22Z" uid="722137" user="OSMF Redaction Account" changeset="12321705" lat="-35.3792649" lon="149.062773"/>
  <node id="639374782" version="3" timestamp="2012-07-19T11:29:22Z" uid="722137" user="OSMF Redaction Account" changeset="12321705" lat="-35.3798269" lon="149.062826"/>
  <node id="639374783" version="3" timestamp="2012-07-19T11:29:21Z" uid="722137" user="OSMF Redaction Account" changeset="12321705" lat="-35.3800718" lon="149.0627569"/>
  <node id="639374784" version="3" timestamp="2012-07-19T11:29:21Z" uid="722137" user="OSMF Redaction Account" changeset="12321705" lat="-35.3802173" lon="149.0626724"/>
  <node id="639374785" version="2" timestamp="2012-07-19T11:51:51Z" uid="722137" user="OSMF Redaction Account" changeset="12323027" lat="-35.380622" lon="149.0620913"/>
  <node id="639374786" version="3" timestamp="2012-07-19T11:51:49Z" uid="722137" user="OSMF Redaction Account" changeset="12323027" lat="-35.380999" lon="149.0617707"/>
  <node id="639374787" version="2" timestamp="2012-07-19T11:51:48Z" uid="722137" user="OSMF Redaction Account" changeset="12323027" lat="-35.3812693" lon="149.0616836"/>
  <node id="639374788" version="2" timestamp="2012-06-27T01:48:42Z" uid="7523" user="inas" changeset="12032305" lat="-33.9130003" lon="151.2243617"/>
  <node id="639374789" version="2" timestamp="2012-06-27T01:48:42Z" uid="7523" user="inas" changeset="12032305" lat="-33.9130982" lon="151.2244797"/>
  <node id="639374790" version="2" timestamp="2012-06-27T01:48:42Z" uid="7523" user="inas" changeset="12032305" lat="-33.9134143" lon="151.2243724"/>
  <node id="639374791" version="2" timestamp="2012-06-27T01:48:42Z" uid="7523" user="inas" changeset="12032305" lat="-33.9134188" lon="151.2241686"/>
  <node id="639374800" version="2" timestamp="2012-07-19T07:43:38Z" uid="722137" user="OSMF Redaction Account" changeset="12312423" lat="-41.1897229" lon="146.2527085"/>
  <node id="639374801" version="2" timestamp="2012-07-19T07:43:35Z" uid="722137" user="OSMF Redaction Account" changeset="12312423" lat="-41.1929433" lon="146.2599395"/>
  <node id="639374802" version="2" timestamp="2012-07-19T07:43:36Z" uid="722137" user="OSMF Redaction Account" changeset="12312423" lat="-41.1913331" lon="146.2567416"/>
  <node id="639374803" version="2" timestamp="2012-07-19T07:43:36Z" uid="722137" user="OSMF Redaction Account" changeset="12312423" lat="-41.191637" lon="146.273095"/>
  <node id="639374804" version="3" timestamp="2012-07-19T07:42:44Z" uid="722137" user="OSMF Redaction Account" changeset="12312389" lat="-41.173265" lon="146.2588217"/>
  <node id="639374804" version="4" timestamp="2012-07-19T10:48:32Z" uid="46482" user="Leon K" changeset="12319543" lat="-41.173265" lon="146.2588217"/>
  <node id="639374805" version="2" timestamp="2012-07-19T07:43:47Z" uid="722137" user="OSMF Redaction Account" changeset="12312423" lat="-41.1732356" lon="146.2588997"/>
  <node id="639374806" version="2" timestamp="2012-07-19T07:43:47Z" uid="722137" user="OSMF Redaction Account" changeset="12312423" lat="-41.1731508" lon="146.2589095"/>
  <node id="639374812" version="2" timestamp="2012-07-19T07:43:48Z" uid="722137" user="OSMF Redaction Account" changeset="12312423" lat="-41.1729479" lon="146.2591517"/>
  <node id="639374831" version="2" timestamp="2012-07-19T07:43:45Z" uid="722137" user="OSMF Redaction Account" changeset="12312423" lat="-41.1754212" lon="146.261684"/>
  <node id="639374842" version="2" timestamp="2012-07-19T07:43:53Z" uid="722137" user="OSMF Redaction Account" changeset="12312441" lat="-41.1620425" lon="146.2567816"/>
  <node id="639374843" version="2" timestamp="2012-07-19T07:43:53Z" uid="722137" user="OSMF Redaction Account" changeset="12312441" lat="-41.1627546" lon="146.2558053"/>
  <node id="639374844" version="2" timestamp="2012-07-19T07:43:55Z" uid="722137" user="OSMF Redaction Account" changeset="12312441" lat="-41.1608965" lon="146.2581446"/>
  <node id="639374845" version="2" timestamp="2012-07-19T07:43:55Z" uid="722137" user="OSMF Redaction Account" changeset="12312441" lat="-41.1609281" lon="146.2579217"/>
  <node id="639374846" version="2" timestamp="2012-07-19T07:43:54Z" uid="722137" user="OSMF Redaction Account" changeset="12312441" lat="-41.1611056" lon="146.2576002"/>
  <node id="639374847" version="2" timestamp="2012-07-19T07:43:54Z" uid="722137" user="OSMF Redaction Account" changeset="12312441" lat="-41.1613482" lon="146.2573773"/>
  <node id="639374852" version="2" timestamp="2012-07-19T07:43:55Z" uid="722137" user="OSMF Redaction Account" changeset="12312441" lat="-41.1610287" lon="146.2587376"/>
  <node id="639374853" version="2" timestamp="2012-07-19T07:43:55Z" uid="722137" user="OSMF Redaction Account" changeset="12312441" lat="-41.1610164" lon="146.2587222"/>
  <node id="639374854" version="2" timestamp="2012-07-19T07:43:54Z" uid="722137" user="OSMF Redaction Account" changeset="12312441" lat="-41.1611087" lon="146.2588029"/>
  <node id="639374855" version="2" timestamp="2012-07-19T07:43:54Z" uid="722137" user="OSMF Redaction Account" changeset="12312441" lat="-41.1612245" lon="146.2588448"/>
  <node id="639374984" version="2" timestamp="2012-07-13T12:16:14Z" uid="713671" user="auspod" changeset="12205979" lat="-33.9155915" lon="151.2236565"/>
  <node id="639374985" version="2" timestamp="2012-07-13T12:16:19Z" uid="713671" user="auspod" changeset="12205979" lat="-33.9136166" lon="151.2240544"/>
  <node id="639374986" version="2" timestamp="2012-06-27T01:48:42Z" uid="7523" user="inas" changeset="12032305" lat="-33.9129469" lon="151.2243295"/>
  <node id="639374987" version="2" timestamp="2012-06-27T01:48:42Z" uid="7523" user="inas" changeset="12032305" lat="-33.9135078" lon="151.2240666"/>
  <node id="639374988" version="2" timestamp="2012-06-27T01:48:42Z" uid="7523" user="inas" changeset="12032305" lat="-33.9135746" lon="151.2240559"/>
  <node id="639374989" version="2" timestamp="2012-07-20T01:11:54Z" uid="722137" user="OSMF Redaction Account" changeset="12354498" lat="-33.9138684" lon="151.2240023"/>
  <node id="639374990" version="2" timestamp="2012-07-20T01:11:51Z" uid="722137" user="OSMF Redaction Account" changeset="12354498" lat="-33.9146297" lon="151.2238413"/>
  <node id="639374991" version="2" timestamp="2012-07-20T01:11:47Z" uid="722137" user="OSMF Redaction Account" changeset="12354498" lat="-33.9159563" lon="151.2235838"/>
  <node id="639374992" version="2" timestamp="2012-07-13T12:16:15Z" uid="713671" user="auspod" changeset="12205979" lat="-33.9174569" lon="151.2232825"/>
  <node id="639374993" version="2" timestamp="2012-07-20T01:11:23Z" uid="722137" user="OSMF Redaction Account" changeset="12354445" lat="-33.9185916" lon="151.2230635"/>
  <node id="639374994" version="2" timestamp="2012-07-20T01:11:18Z" uid="722137" user="OSMF Redaction Account" changeset="12354445" lat="-33.9192327" lon="151.2229455"/>
</osm>
