<?xml version='1.0' encoding='UTF-8'?>
<osm version="0.6" generator="libosmium/2.20.0">
  <node id="639320932" version="2" timestamp="2010-04-11T11:54:50Z" uid="20587" user="balrog-kun" changeset="4392352" lat="49.70673" lon="20.94244">
    <tag k="name" v="Bobowa"/>
    <tag k="place" v="town"/>
    <tag k="source" v="http://ump.waw.pl/ retrieved 15:56:07 01/18/10 (UMP-NowySacz/src/cities-NowySacz.pnt-converted.txt)"/>
  </node>
  <node id="639320932" version="3" timestamp="2010-04-11T13:18:36Z" uid="20587" user="balrog-kun" changeset="4392352" lat="49.70673" lon="20.94244">
    <tag k="name" v="Bobowa"/>
    <tag k="place" v="town"/>
    <tag k="source" v="http://ump.waw.pl/ retrieved 15:56:07 01/18/10 (UMP-NowySacz/src/cities-NowySacz.pnt-converted.txt)"/>
  </node>
  <node id="639320932" version="4" timestamp="2010-04-27T04:15:24Z" uid="30632" user="antblant" changeset="4537896" lat="49.70673" lon="20.94244">
    <tag k="name" v="Bobowa"/>
    <tag k="place" v="town"/>
    <tag k="source" v="http://ump.waw.pl/ retrieved 15:56:07 01/18/10 (UMP-NowySacz/src/cities-NowySacz.pnt-converted.txt)"/>
    <tag k="teryt:simc" v="0417728"/>
  </node>
  <node id="639322156" version="2" timestamp="2010-04-11T11:54:50Z" uid="20587" user="balrog-kun" changeset="4392352" lat="49.7359443" lon="20.966561">
    <tag k="name" v="Sędziszowa"/>
    <tag k="place" v="village"/>
    <tag k="source" v="http://ump.waw.pl/ retrieved 15:56:07 01/18/10 (UMP-NowySacz/src/cities-NowySacz.pnt-converted.txt)"/>
  </node>
  <node id="639322156" version="3" timestamp="2010-04-11T13:18:37Z" uid="20587" user="balrog-kun" changeset="4392352" lat="49.7353375" lon="20.9628371">
    <tag k="name" v="Sędziszowa"/>
    <tag k="place" v="village"/>
    <tag k="source" v="http://ump.waw.pl/ retrieved 15:56:07 01/18/10 (UMP-NowySacz/src/cities-NowySacz.pnt-converted.txt)"/>
  </node>
  <node id="639322182" version="2" timestamp="2010-04-11T11:54:50Z" uid="20587" user="balrog-kun" changeset="4392352" lat="49.7294371" lon="20.9979386">
    <tag k="name" v="Biesna"/>
    <tag k="place" v="village"/>
    <tag k="source" v="http://ump.waw.pl/ retrieved 15:56:07 01/18/10 (UMP-NowySacz/src/cities-NowySacz.pnt-converted.txt)"/>
  </node>
  <node id="639322182" version="3" timestamp="2010-04-11T13:18:37Z" uid="20587" user="balrog-kun" changeset="4392352" lat="49.7300358" lon="20.993858">
    <tag k="name" v="Biesna"/>
    <tag k="place" v="village"/>
    <tag k="source" v="http://ump.waw.pl/ retrieved 15:56:07 01/18/10 (UMP-NowySacz/src/cities-NowySacz.pnt-converted.txt)"/>
  </node>
  <node id="639322182" version="4" timestamp="2010-04-27T04:06:06Z" uid="30632" user="antblant" changeset="4537871" lat="49.7300358" lon="20.993858">
    <tag k="name" v="Biesna"/>
    <tag k="place" v="village"/>
    <tag k="source" v="http://ump.waw.pl/ retrieved 15:56:07 01/18/10 (UMP-NowySacz/src/cities-NowySacz.pnt-converted.txt)"/>
    <tag k="teryt:simc" v="0449674"/>
  </node>
  <node id="639322410" version="3" timestamp="2010-04-11T11:54:50Z" uid="20587" user="balrog-kun" changeset="4392352" lat="49.7114942" lon="21.0503262">
    <tag k="name" v="Łużna"/>
    <tag k="place" v="village"/>
    <tag k="source" v="http://ump.waw.pl/ retrieved 15:56:07 01/18/10 (UMP-NowySacz/src/cities-NowySacz.pnt-converted.txt)"/>
  </node>
  <node id="639322410" version="4" timestamp="2010-04-11T13:18:37Z" uid="20587" user="balrog-kun" changeset="4392352" lat="49.7110631" lon="21.0510788">
    <tag k="name" v="Łużna"/>
    <tag k="place" v="village"/>
    <tag k="source" v="http://ump.waw.pl/ retrieved 15:56:07 01/18/10 (UMP-NowySacz/src/cities-NowySacz.pnt-converted.txt)"/>
  </node>
  <node id="639322410" version="5" timestamp="2010-04-27T04:12:17Z" uid="30632" user="antblant" changeset="4537887" lat="49.7110631" lon="21.0510788">
    <tag k="name" v="Łużna"/>
    <tag k="place" v="village"/>
    <tag k="source" v="http://ump.waw.pl/ retrieved 15:56:07 01/18/10 (UMP-NowySacz/src/cities-NowySacz.pnt-converted.txt)"/>
    <tag k="teryt:simc" v="0449800"/>
  </node>
  <node id="639323812" version="2" timestamp="2010-04-11T11:54:50Z" uid="20587" user="balrog-kun" changeset="4392352" lat="49.74304" lon="21.08079">
    <tag k="name" v="Góra"/>
    <tag k="place" v="village"/>
    <tag k="source" v="http://ump.waw.pl/ retrieved 15:56:07 01/18/10 (UMP-NowySacz/src/cities-NowySacz.pnt-converted.txt)"/>
  </node>
  <node id="639323812" version="3" timestamp="2010-04-11T13:18:37Z" uid="20587" user="balrog-kun" changeset="4392352" lat="49.74304" lon="21.08079">
    <tag k="name" v="Góra"/>
    <tag k="place" v="village"/>
    <tag k="source" v="http://ump.waw.pl/ retrieved 15:56:07 01/18/10 (UMP-NowySacz/src/cities-NowySacz.pnt-converted.txt)"/>
  </node>
  <node id="639325359" version="2" timestamp="2010-04-11T11:54:50Z" uid="20587" user="balrog-kun" changeset="4392352" lat="49.7541565" lon="20.9417642">
    <tag k="name" v="Pławna"/>
    <tag k="place" v="village"/>
    <tag k="source" v="http://ump.waw.pl/ retrieved 15:56:07 01/18/10 (UMP-NowySacz/src/cities-NowySacz.pnt-converted.txt)"/>
  </node>
  <node id="639325359" version="3" timestamp="2010-04-11T13:18:37Z" uid="20587" user="balrog-kun" changeset="4392352" lat="49.7537522" lon="20.940356">
    <tag k="name" v="Pławna"/>
    <tag k="place" v="village"/>
    <tag k="source" v="http://ump.waw.pl/ retrieved 15:56:07 01/18/10 (UMP-NowySacz/src/cities-NowySacz.pnt-converted.txt)"/>
  </node>
  <node id="639325785" version="2" timestamp="2010-04-11T11:54:50Z" uid="20587" user="balrog-kun" changeset="4392352" lat="49.7815" lon="20.94409">
    <tag k="name" v="Kąśna Dolna"/>
    <tag k="place" v="village"/>
    <tag k="source" v="http://ump.waw.pl/ retrieved 15:56:07 01/18/10 (UMP-NowySacz/src/cities-NowySacz.pnt-converted.txt)"/>
  </node>
  <node id="639325785" version="3" timestamp="2010-04-11T13:18:37Z" uid="20587" user="balrog-kun" changeset="4392352" lat="49.7815" lon="20.94409">
    <tag k="name" v="Kąśna Dolna"/>
    <tag k="place" v="village"/>
    <tag k="source" v="http://ump.waw.pl/ retrieved 15:56:07 01/18/10 (UMP-NowySacz/src/cities-NowySacz.pnt-converted.txt)"/>
  </node>
  <node id="639325785" version="4" timestamp="2010-04-27T04:04:11Z" uid="30632" user="antblant" changeset="4537867" lat="49.7815" lon="20.94409">
    <tag k="name" v="Kąśna Dolna"/>
    <tag k="place" v="village"/>
    <tag k="source" v="http://ump.waw.pl/ retrieved 15:56:07 01/18/10 (UMP-NowySacz/src/cities-NowySacz.pnt-converted.txt)"/>
    <tag k="teryt:simc" v="0815535"/>
  </node>
  <node id="639326327" version="3" timestamp="2010-04-11T11:54:50Z" uid="20587" user="balrog-kun" changeset="4392352" lat="49.7874348" lon="20.9732349">
    <tag k="name" v="Ciężkowice"/>
    <tag k="place" v="town"/>
    <tag k="source" v="http://ump.waw.pl/ retrieved 15:56:07 01/18/10 (UMP-NowySacz/src/cities-NowySacz.pnt-converted.txt)"/>
  </node>
  <node id="639326327" version="4" timestamp="2010-04-11T13:18:37Z" uid="20587" user="balrog-kun" changeset="4392352" lat="49.7863654" lon="20.9740342">
    <tag k="name" v="Ciężkowice"/>
    <tag k="place" v="town"/>
    <tag k="source" v="http://ump.waw.pl/ retrieved 15:56:07 01/18/10 (UMP-NowySacz/src/cities-NowySacz.pnt-converted.txt)"/>
  </node>
  <node id="639326845" version="2" timestamp="2010-04-11T11:54:51Z" uid="20587" user="balrog-kun" changeset="4392352" lat="49.8080096" lon="20.9261432">
    <tag k="name" v="Kipszna"/>
    <tag k="place" v="village"/>
    <tag k="source" v="http://ump.waw.pl/ retrieved 15:56:07 01/18/10 (UMP-NowySacz/src/cities-NowySacz.pnt-converted.txt)"/>
  </node>
  <node id="639326845" version="3" timestamp="2010-04-11T13:18:37Z" uid="20587" user="balrog-kun" changeset="4392352" lat="49.807778" lon="20.928476">
    <tag k="name" v="Kipszna"/>
    <tag k="place" v="village"/>
    <tag k="source" v="http://ump.waw.pl/ retrieved 15:56:07 01/18/10 (UMP-NowySacz/src/cities-NowySacz.pnt-converted.txt)"/>
  </node>
  <node id="639326845" version="4" timestamp="2010-04-27T04:03:59Z" uid="30632" user="antblant" changeset="4537867" lat="49.807778" lon="20.928476">
    <tag k="name" v="Kipszna"/>
    <tag k="place" v="village"/>
    <tag k="source" v="http://ump.waw.pl/ retrieved 15:56:07 01/18/10 (UMP-NowySacz/src/cities-NowySacz.pnt-converted.txt)"/>
    <tag k="teryt:simc" v="0815630"/>
  </node>
  <node id="639327683" version="2" timestamp="2010-04-27T03:57:57Z" uid="30632" user="antblant" changeset="4537850" lat="49.8011832" lon="20.9633688">
    <tag k="name" v="Bogoniowice"/>
    <tag k="place" v="village"/>
    <tag k="source" v="http://ump.waw.pl/ retrieved 15:56:07 01/18/10 (UMP-NowySacz/src/cities-NowySacz.pnt-converted.txt)"/>
    <tag k="teryt:simc" v="0815080"/>
  </node>
  <node id="639327766" version="2" timestamp="2010-04-11T11:54:51Z" uid="20587" user="balrog-kun" changeset="4392352" lat="49.8070799" lon="20.9829268">
    <tag k="name" v="Tursko"/>
    <tag k="place" v="village"/>
    <tag k="source" v="http://ump.waw.pl/ retrieved 15:56:07 01/18/10 (UMP-NowySacz/src/cities-NowySacz.pnt-converted.txt)"/>
  </node>
  <node id="639327766" version="3" timestamp="2010-04-11T13:18:37Z" uid="20587" user="balrog-kun" changeset="4392352" lat="49.8077741" lon="20.9812155">
    <tag k="name" v="Tursko"/>
    <tag k="place" v="village"/>
    <tag k="source" v="http://ump.waw.pl/ retrieved 15:56:07 01/18/10 (UMP-NowySacz/src/cities-NowySacz.pnt-converted.txt)"/>
  </node>
  <node id="639328506" version="2" timestamp="2010-04-11T11:54:51Z" uid="20587" user="balrog-kun" changeset="4392352" lat="49.8263324" lon="21.0053585">
    <tag k="name" v="Rzepiennik Marciszewski"/>
    <tag k="place" v="village"/>
    <tag k="source" v="http://ump.waw.pl/ retrieved 15:56:07 01/18/10 (UMP-NowySacz/src/cities-NowySacz.pnt-converted.txt)"/>
  </node>
  <node id="639328506" version="3" timestamp="2010-04-11T13:18:38Z" uid="20587" user="balrog-kun" changeset="4392352" lat="49.830572" lon="21.0025421">
    <tag k="name" v="Rzepiennik Marciszewski"/>
    <tag k="place" v="village"/>
    <tag k="source" v="http://ump.waw.pl/ retrieved 15:56:07 01/18/10 (UMP-NowySacz/src/cities-NowySacz.pnt-converted.txt)"/>
  </node>
  <node id="639328506" version="4" timestamp="2010-04-27T04:14:18Z" uid="30632" user="antblant" changeset="4537892" lat="49.830572" lon="21.0025421">
    <tag k="name" v="Rzepiennik Marciszewski"/>
    <tag k="place" v="village"/>
    <tag k="source" v="http://ump.waw.pl/ retrieved 15:56:07 01/18/10 (UMP-NowySacz/src/cities-NowySacz.pnt-converted.txt)"/>
    <tag k="teryt:simc" v="0820690"/>
  </node>
  <node id="639328648" version="2" timestamp="2010-04-11T11:54:51Z" uid="20587" user="balrog-kun" changeset="4392352" lat="49.7684887" lon="21.0165601">
    <tag k="name" v="Ostrusza"/>
    <tag k="place" v="village"/>
    <tag k="source" v="http://ump.waw.pl/ retrieved 15:56:07 01/18/10 (UMP-NowySacz/src/cities-NowySacz.pnt-converted.txt)"/>
  </node>
  <node id="639328648" version="3" timestamp="2010-04-11T13:18:38Z" uid="20587" user="balrog-kun" changeset="4392352" lat="49.7685695" lon="21.0185315">
    <tag k="name" v="Ostrusza"/>
    <tag k="place" v="village"/>
    <tag k="source" v="http://ump.waw.pl/ retrieved 15:56:07 01/18/10 (UMP-NowySacz/src/cities-NowySacz.pnt-converted.txt)"/>
  </node>
  <node id="639328648" version="4" timestamp="2010-04-27T04:08:59Z" uid="30632" user="antblant" changeset="4537879" lat="49.7685695" lon="21.0185315">
    <tag k="name" v="Ostrusza"/>
    <tag k="place" v="village"/>
    <tag k="source" v="http://ump.waw.pl/ retrieved 15:56:07 01/18/10 (UMP-NowySacz/src/cities-NowySacz.pnt-converted.txt)"/>
    <tag k="teryt:simc" v="0815682"/>
  </node>
  <node id="639329026" version="2" timestamp="2010-04-11T11:54:51Z" uid="20587" user="balrog-kun" changeset="4392352" lat="49.76747" lon="21.06021">
    <tag k="name" v="Turza"/>
    <tag k="place" v="village"/>
    <tag k="source" v="http://ump.waw.pl/ retrieved 15:56:07 01/18/10 (UMP-NowySacz/src/cities-NowySacz.pnt-converted.txt)"/>
  </node>
  <node id="639329026" version="3" timestamp="2010-04-11T13:18:38Z" uid="20587" user="balrog-kun" changeset="4392352" lat="49.76747" lon="21.06021">
    <tag k="name" v="Turza"/>
    <tag k="place" v="village"/>
    <tag k="source" v="http://ump.waw.pl/ retrieved 15:56:07 01/18/10 (UMP-NowySacz/src/cities-NowySacz.pnt-converted.txt)"/>
  </node>
  <node id="639329740" version="3" timestamp="2010-04-11T11:54:51Z" uid="20587" user="balrog-kun" changeset="4392352" lat="49.8051408" lon="21.0389877">
    <tag k="name" v="Rzepiennik Strzyżewski"/>
    <tag k="place" v="village"/>
    <tag k="source" v="http://ump.waw.pl/ retrieved 15:56:07 01/18/10 (UMP-NowySacz/src/cities-NowySacz.pnt-converted.txt)"/>
  </node>
  <node id="639329740" version="4" timestamp="2010-04-11T13:18:38Z" uid="20587" user="balrog-kun" changeset="4392352" lat="49.8076226" lon="21.0351424">
    <tag k="name" v="Rzepiennik Strzyżewski"/>
    <tag k="place" v="village"/>
    <tag k="source" v="http://ump.waw.pl/ retrieved 15:56:07 01/18/10 (UMP-NowySacz/src/cities-NowySacz.pnt-converted.txt)"/>
  </node>
  <node id="639329740" version="5" timestamp="2010-04-27T04:05:56Z" uid="30632" user="antblant" changeset="4537871" lat="49.8076226" lon="21.0351424">
    <tag k="name" v="Rzepiennik Strzyżewski"/>
    <tag k="place" v="village"/>
    <tag k="source" v="http://ump.waw.pl/ retrieved 15:56:07 01/18/10 (UMP-NowySacz/src/cities-NowySacz.pnt-converted.txt)"/>
    <tag k="teryt:simc" v="0829655"/>
  </node>
  <node id="639320932" version="5" timestamp="2012-07-25T04:35:06Z" uid="722137" user="OSMF Redaction Account" changeset="12480725" lat="49.70673" lon="20.94244"/>
  <node id="639322156" version="4" timestamp="2012-07-25T04:34:28Z" uid="722137" user="OSMF Redaction Account" changeset="12480721" lat="49.7353375" lon="20.9628371"/>
  <node id="639322182" version="5" timestamp="2012-07-25T04:34:28Z" uid="722137" user="OSMF Redaction Account" changeset="12480721" lat="49.7300358" lon="20.993858">
    <tag k="teryt:simc" v="0449674"/>
  </node>
  <node id="639322182" version="6" timestamp="2012-08-13T09:23:02Z" uid="147230" user="SQ9NIT" changeset="12711192" lat="49.7300358" lon="20.993858">
    <tag k="name" v="Biesna"/>
    <tag k="place" v="village"/>
    <tag k="source" v="Bing;WIG;TERYT"/>
    <tag k="teryt:simc" v="0449674"/>
  </node>
  <node id="639322410" version="6" timestamp="2012-07-24T13:28:03Z" uid="722137" user="OSMF Redaction Account" changeset="12466633" lat="49.7110631" lon="21.0510788">
    <tag k="place" v="village"/>
    <tag k="teryt:simc" v="0449800"/>
  </node>
  <node id="639322410" version="7" timestamp="2012-08-13T09:23:12Z" uid="147230" user="SQ9NIT" changeset="12711192" lat="49.7110631" lon="21.0510788">
    <tag k="name" v="Łuźna"/>
    <tag k="place" v="village"/>
    <tag k="source" v="Bing;WIG;TERYT"/>
    <tag k="teryt:simc" v="0449800"/>
  </node>
  <node id="639323812" version="4" timestamp="2012-07-24T13:27:50Z" uid="722137" user="OSMF Redaction Account" changeset="12466623" lat="49.74304" lon="21.08079"/>
  <node id="639325359" version="4" timestamp="2012-07-25T04:30:32Z" uid="722137" user="OSMF Redaction Account" changeset="12480695" lat="49.7537522" lon="20.940356"/>
  <node id="639325785" version="5" timestamp="2012-07-25T04:30:42Z" uid="722137" user="OSMF Redaction Account" changeset="12480695" lat="49.7815" lon="20.94409"/>
  <node id="639326327" version="5" timestamp="2012-07-25T04:30:32Z" uid="722137" user="OSMF Redaction Account" changeset="12480695" lat="49.7863654" lon="20.9740342"/>
  <node id="639326845" version="5" timestamp="2012-07-25T04:31:10Z" uid="722137" user="OSMF Redaction Account" changeset="12480697" lat="49.807778" lon="20.928476">
    <tag k="teryt:simc" v="0815630"/>
  </node>
  <node id="639326845" version="6" timestamp="2012-08-13T09:23:06Z" uid="147230" user="SQ9NIT" changeset="12711192" lat="49.807778" lon="20.928476">
    <tag k="name" v="Kipszna"/>
    <tag k="place" v="village"/>
    <tag k="source" v="Bing;WIG;TERYT"/>
    <tag k="teryt:simc" v="0815630"/>
  </node>
  <node id="639327683" version="3" timestamp="2012-07-25T04:30:43Z" uid="722137" user="OSMF Redaction Account" changeset="12480695" lat="49.8011832" lon="20.9633688"/>
  <node id="639327766" version="4" timestamp="2012-07-25T04:30:33Z" uid="722137" user="OSMF Redaction Account" changeset="12480695" lat="49.8077741" lon="20.9812155"/>
  <node id="639328506" version="5" timestamp="2012-07-24T13:24:45Z" uid="722137" user="OSMF Redaction Account" changeset="12466557" lat="49.830572" lon="21.0025421">
    <tag k="teryt:simc" v="0820690"/>
  </node>
  <node id="639328506" version="6" timestamp="2012-08-13T09:23:10Z" uid="147230" user="SQ9NIT" changeset="12711192" lat="49.8278673" lon="21.0013854">
    <tag k="name" v="Rzepiennik Marciszewski"/>
    <tag k="place" v="village"/>
    <tag k="source" v="Bing;WIG;TERYT"/>
    <tag k="teryt:simc" v="0820690"/>
  </node>
  <node id="639328648" version="5" timestamp="2012-07-24T13:24:45Z" uid="722137" user="OSMF Redaction Account" changeset="12466557" lat="49.7685695" lon="21.0185315">
    <tag k="teryt:simc" v="0815682"/>
  </node>
  <node id="639328648" version="6" timestamp="2012-08-13T09:23:08Z" uid="147230" user="SQ9NIT" changeset="12711192" lat="49.7685695" lon="21.0185315">
    <tag k="name" v="Ostrusza"/>
    <tag k="place" v="village"/>
    <tag k="source" v="Bing;WIG;TERYT"/>
    <tag k="teryt:simc" v="0815682"/>
  </node>
  <node id="639329026" version="4" timestamp="2012-07-24T13:24:46Z" uid="722137" user="OSMF Redaction Account" changeset="12466557" lat="49.76747" lon="21.06021"/>
  <node id="639329740" version="6" timestamp="2012-07-24T13:24:45Z" uid="722137" user="OSMF Redaction Account" changeset="12466557" lat="49.8076226" lon="21.0351424">
    <tag k="place" v="village"/>
    <tag k="teryt:simc" v="0829655"/>
  </node>
  <node id="639329740" version="7" timestamp="2012-08-13T09:23:10Z" uid="147230" user="SQ9NIT" changeset="12711192" lat="49.8092088" lon="21.0342749">
    <tag k="name" v="Rzepiennik Strzyżewski"/>
    <tag k="place" v="village"/>
    <tag k="source" v="Bing;WIG;TERYT"/>
    <tag k="teryt:simc" v="0829655"/>
  </node>
</osm>
