<?xml version='1.0' encoding='UTF-8'?>
<osm version="0.6" generator="libosmium/2.20.0">
  <node id="640542" version="2" timestamp="2010-01-24T08:37:11Z" uid="58091" user="Andreas M" changeset="3698383" lat="48.2010157" lon="16.1097621"/>
  <node id="640542" version="3" timestamp="2012-03-30T06:29:35Z" uid="54806" user="_al" changeset="11147202" lat="48.2010618" lon="16.109496"/>
  <node id="640752" version="1" timestamp="2007-06-13T22:19:10Z" uid="8328" user="benpre" changeset="94957" lat="48.7101986" lon="9.1688633"/>
  <node id="640752" version="2" timestamp="2007-10-24T23:39:15Z" uid="16290" user="MichaelK" changeset="312105" lat="48.7105711" lon="9.1684376"/>
  <node id="640752" version="3" timestamp="2007-10-28T21:27:25Z" uid="16290" user="MichaelK" changeset="353680" lat="48.7105711" lon="9.1684376"/>
  <node id="640753" version="1" timestamp="2007-06-13T22:19:10Z" uid="8328" user="benpre" changeset="94957" lat="48.7097738" lon="9.1692495"/>
  <node id="640753" version="2" timestamp="2007-10-24T23:39:16Z" uid="16290" user="MichaelK" changeset="312105" lat="48.7097206" lon="9.1691355"/>
  <node id="640753" version="3" timestamp="2007-10-28T20:35:41Z" uid="16290" user="MichaelK" changeset="353680" lat="48.7097462" lon="9.1691099"/>
  <node id="640753" version="4" timestamp="2007-10-28T21:27:16Z" uid="16290" user="MichaelK" changeset="353680" lat="48.7097506" lon="9.169116"/>
  <node id="640753" version="5" timestamp="2010-12-11T16:05:34Z" uid="16268" user="MasterMG" changeset="6625970" lat="48.7097194" lon="9.1690971"/>
  <node id="640754" version="1" timestamp="2007-06-13T22:19:10Z" uid="8328" user="benpre" changeset="94957" lat="48.7098021" lon="9.1696787"/>
  <node id="640754" version="2" timestamp="2007-10-24T23:39:15Z" uid="16290" user="MichaelK" changeset="312105" lat="48.7098173" lon="9.1696863"/>
  <node id="640754" version="3" timestamp="2011-02-20T13:12:49Z" uid="153109" user="pschaefer" changeset="7342220" lat="48.709782" lon="9.169607"/>
  <node id="642221" version="1" timestamp="2007-04-07T13:19:59Z" uid="5871" user="Banny" changeset="8477" lat="51.4871081" lon="6.8175846">
    <tag k="created_by" v="JOSM"/>
  </node>
  <node id="642221" version="2" timestamp="2009-01-01T14:53:46Z" uid="63375" user="Divjo" changeset="698054" lat="51.4870487" lon="6.817545">
    <tag k="created_by" v="JOSM"/>
  </node>
  <node id="642221" version="3" timestamp="2009-08-15T11:09:54Z" uid="109925" user="WanMil" changeset="2152663" lat="51.4870487" lon="6.817545"/>
  <node id="642221" version="4" timestamp="2012-02-12T11:30:17Z" uid="260151" user="morryis" changeset="10661832" lat="51.4871133" lon="6.8173047"/>
  <node id="642222" version="1" timestamp="2007-04-07T13:19:59Z" uid="5871" user="Banny" changeset="8477" lat="51.4866122" lon="6.8207356">
    <tag k="created_by" v="JOSM"/>
  </node>
  <node id="642222" version="2" timestamp="2008-01-27T15:08:39Z" uid="14786" user="BroadwayLamb" changeset="699438" lat="51.4866122" lon="6.8207356">
    <tag k="created_by" v="JOSM"/>
    <tag k="highway" v="motorway_junction"/>
    <tag k="name" v="8 AK Oberhausen-West"/>
  </node>
  <node id="642222" version="3" timestamp="2008-01-28T10:01:31Z" uid="14786" user="BroadwayLamb" changeset="705246" lat="51.4866122" lon="6.8207356">
    <tag k="created_by" v="JOSM"/>
    <tag k="highway" v="motorway_junction"/>
    <tag k="name" v="AK Oberhausen-West"/>
    <tag k="ref" v="8"/>
  </node>
  <node id="642222" version="4" timestamp="2008-05-03T10:36:33Z" uid="33405" user="mark_m_888" changeset="323193" lat="51.4866122" lon="6.8207356">
    <tag k="created_by" v="JOSM"/>
    <tag k="highway" v="motorway_junction"/>
    <tag k="name" v="AK Oberhausen-West"/>
    <tag k="ref" v="8"/>
  </node>
  <node id="642222" version="5" timestamp="2008-08-05T09:07:07Z" uid="42123" user="Ropino" changeset="80577" lat="51.4866122" lon="6.8207356">
    <tag k="created_by" v="JOSM"/>
    <tag k="highway" v="motorway_junction"/>
    <tag k="name" v="Kreuz Oberhausen-West"/>
    <tag k="ref" v="8"/>
  </node>
  <node id="642222" version="6" timestamp="2008-08-18T18:06:26Z" uid="56398" user="DeltaKilo" changeset="316006" lat="51.4866122" lon="6.8207356">
    <tag k="created_by" v="JOSM"/>
    <tag k="highway" v="motorway_junction"/>
    <tag k="name" v="Kreuz Oberhausen-West"/>
    <tag k="ref" v="8"/>
  </node>
  <node id="642222" version="7" timestamp="2008-10-19T10:19:47Z" uid="42123" user="Ropino" changeset="435801" lat="51.4866205" lon="6.8207546">
    <tag k="created_by" v="JOSM"/>
    <tag k="highway" v="motorway_junction"/>
    <tag k="name" v="Kreuz Oberhausen-West"/>
    <tag k="ref" v="8"/>
  </node>
  <node id="642222" version="8" timestamp="2009-01-01T14:53:46Z" uid="63375" user="Divjo" changeset="698054" lat="51.486284" lon="6.8229666">
    <tag k="created_by" v="JOSM"/>
    <tag k="highway" v="motorway_junction"/>
    <tag k="name" v="Kreuz Oberhausen-West"/>
    <tag k="ref" v="8"/>
  </node>
  <node id="642222" version="9" timestamp="2009-08-15T11:09:54Z" uid="109925" user="WanMil" changeset="2152663" lat="51.486284" lon="6.8229666">
    <tag k="highway" v="motorway_junction"/>
    <tag k="name" v="Kreuz Oberhausen-West"/>
    <tag k="ref" v="8"/>
  </node>
  <node id="642222" version="10" timestamp="2010-10-18T11:53:47Z" uid="120715" user="ruhri2010" changeset="6081086" lat="51.486284" lon="6.8229666">
    <tag k="TMC:cid_58:tabcd_1:Direction" v="negative"/>
    <tag k="TMC:cid_58:tabcd_1:LocationCode" v="11263"/>
    <tag k="highway" v="motorway_junction"/>
    <tag k="name" v="Kreuz Oberhausen-West"/>
    <tag k="ref" v="8"/>
  </node>
  <node id="642222" version="11" timestamp="2010-10-18T18:27:38Z" uid="218283" user="TMCbot" changeset="6085090" lat="51.486284" lon="6.8229666">
    <tag k="TMC:cid_58:tabcd_1:Class" v="Point"/>
    <tag k="TMC:cid_58:tabcd_1:Direction" v="negative"/>
    <tag k="TMC:cid_58:tabcd_1:LCLversion" v="9.00"/>
    <tag k="TMC:cid_58:tabcd_1:LocationCode" v="11263"/>
    <tag k="TMC:cid_58:tabcd_1:NextLocationCode" v="11264"/>
    <tag k="TMC:cid_58:tabcd_1:PrevLocationCode" v="11262"/>
    <tag k="highway" v="motorway_junction"/>
    <tag k="name" v="Kreuz Oberhausen-West"/>
    <tag k="ref" v="8"/>
  </node>
  <node id="642223" version="1" timestamp="2007-04-07T13:19:59Z" uid="5871" user="Banny" changeset="8477" lat="51.4862474" lon="6.8246373">
    <tag k="created_by" v="JOSM"/>
  </node>
  <node id="642223" version="2" timestamp="2008-10-19T10:22:30Z" uid="42123" user="Ropino" changeset="435801" lat="51.4862243" lon="6.8246142">
    <tag k="created_by" v="JOSM"/>
  </node>
  <node id="642223" version="3" timestamp="2008-10-19T10:23:54Z" uid="42123" user="Ropino" changeset="435801" lat="51.4861592" lon="6.8245925">
    <tag k="created_by" v="JOSM"/>
  </node>
  <node id="642223" version="4" timestamp="2009-01-01T14:53:45Z" uid="63375" user="Divjo" changeset="698054" lat="51.4862235" lon="6.8245727">
    <tag k="created_by" v="JOSM"/>
  </node>
  <node id="642223" version="5" timestamp="2009-08-15T11:09:53Z" uid="109925" user="WanMil" changeset="2152663" lat="51.4862235" lon="6.8245727"/>
  <node id="642252" version="1" timestamp="2007-04-07T13:15:42Z" uid="5871" user="Banny" changeset="8477" lat="51.4967126" lon="6.8581291">
    <tag k="created_by" v="JOSM"/>
  </node>
  <node id="642252" version="2" timestamp="2012-01-31T22:59:46Z" uid="260151" user="morryis" changeset="10554601" lat="51.496745" lon="6.8576356"/>
  <node id="642532" version="2" timestamp="2008-07-03T21:04:13Z" uid="6975" user="ulfl" changeset="386611" lat="51.3624587" lon="-0.4636301">
    <tag k="amenity" v="parking"/>
  </node>
  <node id="642532" version="3" timestamp="2010-07-05T01:16:45Z" uid="1238" user="80n" changeset="5138410" lat="51.3624692" lon="-0.4636996"/>
  <node id="642532" version="4" timestamp="2012-01-23T13:12:40Z" uid="118262" user="Wynndale" changeset="10475063" lat="51.3624692" lon="-0.4636996"/>
  <node id="642605" version="2" timestamp="2008-07-03T21:04:12Z" uid="6975" user="ulfl" changeset="386611" lat="51.363721" lon="-0.461516">
    <tag k="amenity" v="parking"/>
  </node>
  <node id="642605" version="3" timestamp="2009-12-20T14:06:55Z" uid="1238" user="80n" changeset="3413758" lat="51.363721" lon="-0.461516">
    <tag k="amenity" v="parking"/>
  </node>
  <node id="645730" version="5" timestamp="2008-02-16T19:37:56Z" uid="6975" user="ulfl" changeset="141861" lat="52.5491787" lon="-1.8134657">
    <tag k="both_sides" v="true"/>
    <tag k="highway" v="bus_stop"/>
    <tag k="location" v="East View Road, Recretaion Ground"/>
    <tag k="ref" v="0562201"/>
    <tag k="route_ref" v="167|757"/>
  </node>
  <node id="645730" version="6" timestamp="2009-03-06T08:39:38Z" uid="735" user="blackadder" changeset="742903" lat="52.5491787" lon="-1.8134657">
    <tag k="asset_ref" v="0562201"/>
    <tag k="both_sides" v="true"/>
    <tag k="highway" v="bus_stop"/>
    <tag k="location" v="East View Road, Recretaion Ground"/>
    <tag k="route_ref" v="167|757"/>
  </node>
  <node id="645730" version="7" timestamp="2009-04-03T14:30:36Z" uid="735" user="blackadder" changeset="124708" lat="52.5491787" lon="-1.8134657"/>
  <node id="645730" version="8" timestamp="2010-12-12T15:31:56Z" uid="735" user="blackadder" changeset="6637379" lat="52.5491688" lon="-1.8135117"/>
  <node id="645730" version="9" timestamp="2010-12-20T10:39:04Z" uid="735" user="blackadder" changeset="6714569" lat="52.5491688" lon="-1.8135117"/>
  <node id="647991" version="5" timestamp="2009-01-05T09:48:59Z" uid="58091" user="Andreas M" changeset="735458" lat="48.2014835" lon="16.2627123">
    <tag k="name" v="Bahnhofstraße"/>
    <tag k="railway" v="tram_stop"/>
  </node>
  <node id="647991" version="6" timestamp="2009-02-20T07:05:46Z" uid="28427" user="skunk" changeset="569344" lat="48.2014835" lon="16.2627123">
    <tag k="highway" v="bus_stop"/>
    <tag k="name" v="Bahnhofstraße"/>
    <tag k="railway" v="tram_stop"/>
  </node>
  <node id="647991" version="7" timestamp="2011-01-12T20:54:04Z" uid="129531" user="almich" changeset="6951567" lat="48.2015948" lon="16.2621498">
    <tag k="highway" v="bus_stop"/>
    <tag k="name" v="Bahnhofstraße"/>
    <tag k="railway" v="tram_stop"/>
  </node>
  <node id="647991" version="8" timestamp="2011-12-10T16:48:12Z" uid="129531" user="almich" changeset="10082704" lat="48.2015931" lon="16.2622337">
    <tag k="highway" v="bus_stop"/>
    <tag k="name" v="Bahnhofstraße"/>
    <tag k="public_transport" v="stop_position"/>
    <tag k="railway" v="tram_stop"/>
  </node>
  <node id="648302" version="3" timestamp="2008-09-14T15:17:03Z" uid="6975" user="ulfl" changeset="640534" lat="51.7329303" lon="-0.4621897">
    <tag k="highway" v="traffic_signals"/>
  </node>
  <node id="640753" version="6" timestamp="2012-07-21T14:24:17Z" uid="39457" user="Markus59" changeset="12411727" lat="48.7097305" lon="9.1690803"/>
  <node id="642221" version="5" timestamp="2012-07-07T11:48:26Z" uid="81244" user="rurseekatze" changeset="12139223" lat="51.487128" lon="6.8172546"/>
  <node id="642222" version="12" timestamp="2012-07-07T11:48:16Z" uid="81244" user="rurseekatze" changeset="12139223" lat="51.4863134" lon="6.8229607">
    <tag k="highway" v="motorway_junction"/>
    <tag k="name" v="Kreuz Oberhausen-West"/>
    <tag k="ref" v="8"/>
    <tag k="TMC:cid_58:tabcd_1:Class" v="Point"/>
    <tag k="TMC:cid_58:tabcd_1:Direction" v="negative"/>
    <tag k="TMC:cid_58:tabcd_1:LCLversion" v="9.00"/>
    <tag k="TMC:cid_58:tabcd_1:LocationCode" v="11263"/>
    <tag k="TMC:cid_58:tabcd_1:NextLocationCode" v="11264"/>
    <tag k="TMC:cid_58:tabcd_1:PrevLocationCode" v="11262"/>
  </node>
  <node id="642222" version="13" timestamp="2012-07-07T11:52:22Z" uid="81244" user="rurseekatze" changeset="12139250" lat="51.4863079" lon="6.8229804">
    <tag k="highway" v="motorway_junction"/>
    <tag k="name" v="Kreuz Oberhausen-West"/>
    <tag k="ref" v="8"/>
    <tag k="TMC:cid_58:tabcd_1:Class" v="Point"/>
    <tag k="TMC:cid_58:tabcd_1:Direction" v="negative"/>
    <tag k="TMC:cid_58:tabcd_1:LCLversion" v="9.00"/>
    <tag k="TMC:cid_58:tabcd_1:LocationCode" v="11263"/>
    <tag k="TMC:cid_58:tabcd_1:NextLocationCode" v="11264"/>
    <tag k="TMC:cid_58:tabcd_1:PrevLocationCode" v="11262"/>
  </node>
  <node id="642223" version="6" timestamp="2012-07-07T11:48:26Z" uid="81244" user="rurseekatze" changeset="12139223" lat="51.4862417" lon="6.8245685"/>
  <node id="642223" version="7" timestamp="2012-07-07T11:52:24Z" uid="81244" user="rurseekatze" changeset="12139250" lat="51.4862494" lon="6.8242412"/>
  <node id="647991" version="9" timestamp="2012-07-17T01:03:44Z" uid="722137" user="OSMF Redaction Account" changeset="12254505" lat="48.2015931" lon="16.2622337">
    <tag k="highway" v="bus_stop"/>
    <tag k="public_transport" v="stop_position"/>
  </node>
  <node id="647991" version="10" timestamp="2012-07-19T20:48:49Z" uid="129531" user="almich" changeset="12346895" lat="48.2015931" lon="16.2622337">
    <tag k="highway" v="bus_stop"/>
    <tag k="name" v="Bahnhofstraße"/>
    <tag k="public_transport" v="stop_position"/>
    <tag k="railway" v="tram_stop"/>
  </node>
</osm>
