<?xml version='1.0' encoding='UTF-8'?>
<osm version="0.6" generator="libosmium/2.20.0">
  <node id="64412507" version="3" timestamp="2009-01-15T20:26:19Z" uid="49111" user="Markus B" changeset="791453" lat="44.6371189" lon="14.2479378">
    <tag k="created_by" v="JOSM"/>
    <tag k="name" v="Unije"/>
    <tag k="name:it" v="Unie"/>
    <tag k="place" v="village"/>
  </node>
  <node id="64413788" version="2" timestamp="2010-03-16T15:18:24Z" uid="23543" user="jkjk" changeset="4144051" lat="26.0625199" lon="119.3258601"/>
  <node id="64412507" version="4" timestamp="2012-07-21T13:18:41Z" uid="468482" user="Pier88" changeset="12409865" lat="44.6369089" lon="14.2484207">
    <tag k="name" v="Unije"/>
    <tag k="name:it" v="Unie"/>
    <tag k="place" v="village"/>
  </node>
  <node id="64412507" version="5" timestamp="2012-08-18T21:05:09Z" uid="468482" user="Pier88" changeset="12777361" lat="44.6367022" lon="14.2486685">
    <tag k="name" v="Unije"/>
    <tag k="name:it" v="Unie"/>
    <tag k="place" v="village"/>
  </node>
</osm>
