<?xml version='1.0' encoding='UTF-8'?>
<osm version="0.6" generator="libosmium/2.20.0">
  <node id="645041113" version="1" timestamp="2010-02-18T16:56:10Z" uid="115477" user="wowik" changeset="3910423" lat="56.1053401" lon="36.8394521">
    <tag k="addr:country" v="RU"/>
    <tag k="addr:district" v="Солнечногорский район"/>
    <tag k="addr:postcode" v="141590"/>
    <tag k="addr:region" v="Московская область"/>
    <tag k="cladr:code" v="5003300001100"/>
    <tag k="cladr:name" v="Бережки"/>
    <tag k="cladr:suffix" v="Деревня"/>
    <tag k="name" v="Бережки"/>
    <tag k="place" v="hamlet"/>
  </node>
  <node id="645041113" version="2" timestamp="2010-02-18T17:13:11Z" uid="115477" user="wowik" changeset="3910423" lat="56.1133806" lon="36.8284658">
    <tag k="addr:country" v="RU"/>
    <tag k="addr:district" v="Солнечногорский район"/>
    <tag k="addr:postcode" v="141590"/>
    <tag k="addr:region" v="Московская область"/>
    <tag k="cladr:code" v="5003300001100"/>
    <tag k="cladr:name" v="Бережки"/>
    <tag k="cladr:suffix" v="Деревня"/>
    <tag k="name" v="Бережки"/>
    <tag k="place" v="hamlet"/>
  </node>
  <node id="645041113" version="3" timestamp="2010-04-04T05:58:48Z" uid="30590" user="KekcuHa" changeset="4319295" lat="56.1133806" lon="36.8284658">
    <tag k="addr:country" v="RU"/>
    <tag k="addr:district" v="Солнечногорский район"/>
    <tag k="addr:postcode" v="141591"/>
    <tag k="addr:region" v="Московская область"/>
    <tag k="cladr:code" v="5003300001100"/>
    <tag k="cladr:name" v="Бережки"/>
    <tag k="cladr:suffix" v="Деревня"/>
    <tag k="name" v="Бережки"/>
    <tag k="place" v="hamlet"/>
  </node>
  <node id="645041113" version="4" timestamp="2010-05-13T18:13:23Z" uid="115477" user="wowik" changeset="4689080" lat="56.1155137" lon="36.8291431">
    <tag k="addr:country" v="RU"/>
    <tag k="addr:district" v="Солнечногорский район"/>
    <tag k="addr:postcode" v="141591"/>
    <tag k="addr:region" v="Московская область"/>
    <tag k="cladr:code" v="5003300001100"/>
    <tag k="cladr:name" v="Бережки"/>
    <tag k="cladr:suffix" v="Деревня"/>
    <tag k="name" v="Бережки"/>
    <tag k="place" v="hamlet"/>
  </node>
  <node id="645041113" version="5" timestamp="2010-10-26T14:00:48Z" uid="200618" user="gps-Max" changeset="6182694" lat="56.1048172" lon="36.8360573">
    <tag k="addr:country" v="RU"/>
    <tag k="addr:district" v="Солнечногорский район"/>
    <tag k="addr:postcode" v="141591"/>
    <tag k="addr:region" v="Московская область"/>
    <tag k="cladr:code" v="5003300001100"/>
    <tag k="cladr:name" v="Бережки"/>
    <tag k="cladr:suffix" v="Деревня"/>
    <tag k="name" v="Бережки"/>
    <tag k="place" v="hamlet"/>
  </node>
  <node id="645041113" version="6" timestamp="2011-08-07T17:19:58Z" uid="297358" user="patashnik" changeset="8949329" lat="56.1048172" lon="36.8360573">
    <tag k="addr:country" v="RU"/>
    <tag k="addr:district" v="Солнечногорский район"/>
    <tag k="addr:region" v="Московская область"/>
    <tag k="cladr:code" v="5003300001100"/>
    <tag k="name" v="Бережки"/>
    <tag k="place" v="hamlet"/>
  </node>
  <node id="645043161" version="3" timestamp="2010-07-28T20:30:26Z" uid="74617" user="JohnSmith" changeset="5341853" lat="28.0658979" lon="-82.414955">
    <tag k="emergency" v="phone"/>
  </node>
  <node id="645043161" version="4" timestamp="2010-07-29T08:18:13Z" uid="74617" user="JohnSmith" changeset="5344518" lat="28.0658979" lon="-82.414955">
    <tag k="amenity" v="emergency_phone"/>
    <tag k="emergency" v="phone"/>
  </node>
  <node id="645043161" version="5" timestamp="2011-12-25T12:56:46Z" uid="103107" user="EdHillsman" changeset="10199440" lat="28.0658979" lon="-82.414955"/>
  <node id="645046634" version="1" timestamp="2010-02-18T16:58:30Z" uid="9719" user="dvaey" changeset="3910295" lat="-35.3395938" lon="149.0714463"/>
  <node id="645046634" version="2" timestamp="2012-01-11T11:06:56Z" uid="12434" user="nm7s9" changeset="10359558" lat="-35.3395938" lon="149.0714463"/>
  <node id="645046638" version="1" timestamp="2010-02-18T16:58:31Z" uid="9719" user="dvaey" changeset="3910295" lat="-35.3388548" lon="149.0711693"/>
  <node id="645046638" version="2" timestamp="2012-01-11T11:06:57Z" uid="12434" user="nm7s9" changeset="10359558" lat="-35.3388548" lon="149.0711693"/>
  <node id="645046642" version="1" timestamp="2010-02-18T16:58:31Z" uid="9719" user="dvaey" changeset="3910295" lat="-35.3382389" lon="149.0709293"/>
  <node id="645046642" version="2" timestamp="2012-01-11T11:06:57Z" uid="12434" user="nm7s9" changeset="10359558" lat="-35.3382389" lon="149.0709293"/>
  <node id="645046646" version="1" timestamp="2010-02-18T16:58:31Z" uid="9719" user="dvaey" changeset="3910295" lat="-35.3376065" lon="149.0706168"/>
  <node id="645046646" version="2" timestamp="2012-01-11T11:06:57Z" uid="12434" user="nm7s9" changeset="10359558" lat="-35.3376065" lon="149.0706168"/>
  <node id="645046650" version="1" timestamp="2010-02-18T16:58:31Z" uid="9719" user="dvaey" changeset="3910295" lat="-35.3369775" lon="149.0703043"/>
  <node id="645046650" version="2" timestamp="2012-01-11T11:06:57Z" uid="12434" user="nm7s9" changeset="10359558" lat="-35.3369775" lon="149.0703043"/>
  <node id="645046653" version="1" timestamp="2010-02-18T16:58:31Z" uid="9719" user="dvaey" changeset="3910295" lat="-35.3363347" lon="149.0700019"/>
  <node id="645046653" version="2" timestamp="2012-01-11T11:06:57Z" uid="12434" user="nm7s9" changeset="10359558" lat="-35.3363347" lon="149.0700019"/>
  <node id="645046657" version="1" timestamp="2010-02-18T16:58:31Z" uid="9719" user="dvaey" changeset="3910295" lat="-35.335617" lon="149.0696552"/>
  <node id="645046657" version="2" timestamp="2012-01-11T11:06:57Z" uid="12434" user="nm7s9" changeset="10359558" lat="-35.335617" lon="149.0696552"/>
  <node id="645046661" version="1" timestamp="2010-02-18T16:58:31Z" uid="9719" user="dvaey" changeset="3910295" lat="-35.3350126" lon="149.0693461"/>
  <node id="645046661" version="2" timestamp="2012-01-11T11:06:57Z" uid="12434" user="nm7s9" changeset="10359558" lat="-35.3350126" lon="149.0693461"/>
  <node id="645046675" version="1" timestamp="2010-02-18T16:58:31Z" uid="9719" user="dvaey" changeset="3910295" lat="-35.3345722" lon="149.0698101"/>
  <node id="645046675" version="2" timestamp="2012-01-11T11:06:57Z" uid="12434" user="nm7s9" changeset="10359558" lat="-35.3345722" lon="149.0698101"/>
  <node id="645046681" version="1" timestamp="2010-02-18T16:58:31Z" uid="9719" user="dvaey" changeset="3910295" lat="-35.3342298" lon="149.0701803"/>
  <node id="645046681" version="2" timestamp="2012-01-11T11:06:57Z" uid="12434" user="nm7s9" changeset="10359558" lat="-35.3342298" lon="149.0701803"/>
  <node id="645048804" version="1" timestamp="2010-02-18T16:59:33Z" uid="9719" user="dvaey" changeset="3910295" lat="-35.3335268" lon="149.0700891"/>
  <node id="645048804" version="2" timestamp="2012-01-12T21:55:00Z" uid="12434" user="nm7s9" changeset="10374021" lat="-35.3335268" lon="149.0700891"/>
  <node id="645048809" version="1" timestamp="2010-02-18T16:59:33Z" uid="9719" user="dvaey" changeset="3910295" lat="-35.3339667" lon="149.0694145">
    <tag k="power" v="tower"/>
  </node>
  <node id="645048809" version="2" timestamp="2010-02-18T17:06:24Z" uid="9719" user="dvaey" changeset="3910295" lat="-35.3339656" lon="149.0694172">
    <tag k="power" v="tower"/>
  </node>
  <node id="645048809" version="3" timestamp="2012-01-12T22:12:29Z" uid="12434" user="nm7s9" changeset="10374194" lat="-35.3339656" lon="149.0694172"/>
  <node id="645041113" version="7" timestamp="2012-07-20T10:33:26Z" uid="722137" user="OSMF Redaction Account" changeset="12371308" lat="56.1048172" lon="36.8360573"/>
</osm>
