<?xml version='1.0' encoding='UTF-8'?>
<osm version="0.6" generator="libosmium/2.20.0">
  <node id="645162025" version="1" timestamp="2010-02-18T18:04:10Z" uid="9719" user="dvaey" changeset="3910295" lat="-35.2035924" lon="149.016292">
    <tag k="power" v="tower"/>
  </node>
  <node id="645162025" version="2" timestamp="2012-01-05T12:24:04Z" uid="12434" user="nm7s9" changeset="10300227" lat="-35.2035924" lon="149.016292"/>
  <node id="645162040" version="1" timestamp="2010-02-18T18:04:10Z" uid="9719" user="dvaey" changeset="3910295" lat="-35.2047101" lon="149.0143032">
    <tag k="power" v="tower"/>
  </node>
  <node id="645162040" version="2" timestamp="2012-01-05T12:24:04Z" uid="12434" user="nm7s9" changeset="10300227" lat="-35.2047101" lon="149.0143032"/>
  <node id="645162042" version="1" timestamp="2010-02-18T18:04:10Z" uid="9719" user="dvaey" changeset="3910295" lat="-35.2070069" lon="149.0102275">
    <tag k="power" v="tower"/>
  </node>
  <node id="645162042" version="2" timestamp="2012-01-05T12:24:04Z" uid="12434" user="nm7s9" changeset="10300227" lat="-35.2070069" lon="149.0102275"/>
  <node id="645162044" version="1" timestamp="2010-02-18T18:04:10Z" uid="9719" user="dvaey" changeset="3910295" lat="-35.2086374" lon="149.0073334">
    <tag k="power" v="tower"/>
  </node>
  <node id="645162044" version="2" timestamp="2012-01-05T12:24:05Z" uid="12434" user="nm7s9" changeset="10300227" lat="-35.2086374" lon="149.0073334"/>
  <node id="645162049" version="1" timestamp="2010-02-18T18:04:11Z" uid="9719" user="dvaey" changeset="3910295" lat="-35.2106645" lon="149.0037473">
    <tag k="power" v="tower"/>
  </node>
  <node id="645162049" version="2" timestamp="2012-01-12T22:12:31Z" uid="12434" user="nm7s9" changeset="10374194" lat="-35.2106645" lon="149.0037473"/>
  <node id="645162053" version="1" timestamp="2010-02-18T18:04:11Z" uid="9719" user="dvaey" changeset="3910295" lat="-35.2124615" lon="149.0005313">
    <tag k="power" v="tower"/>
  </node>
  <node id="645162053" version="2" timestamp="2012-01-12T22:12:31Z" uid="12434" user="nm7s9" changeset="10374194" lat="-35.2124615" lon="149.0005313"/>
  <node id="645162058" version="1" timestamp="2010-02-18T18:04:11Z" uid="9719" user="dvaey" changeset="3910295" lat="-35.2145663" lon="149.0000834">
    <tag k="power" v="tower"/>
  </node>
  <node id="645162058" version="2" timestamp="2012-01-12T22:12:31Z" uid="12434" user="nm7s9" changeset="10374194" lat="-35.2145663" lon="149.0000834"/>
  <node id="645162062" version="1" timestamp="2010-02-18T18:04:11Z" uid="9719" user="dvaey" changeset="3910295" lat="-35.2174983" lon="148.999488">
    <tag k="power" v="tower"/>
  </node>
  <node id="645162062" version="2" timestamp="2012-01-12T23:04:06Z" uid="12434" user="nm7s9" changeset="10374599" lat="-35.2174983" lon="148.999488"/>
  <node id="645162066" version="1" timestamp="2010-02-18T18:04:11Z" uid="9719" user="dvaey" changeset="3910295" lat="-35.2192995" lon="148.9991849">
    <tag k="power" v="tower"/>
  </node>
  <node id="645162066" version="2" timestamp="2012-01-12T22:12:31Z" uid="12434" user="nm7s9" changeset="10374194" lat="-35.2192995" lon="148.9991849"/>
  <node id="645162072" version="1" timestamp="2010-02-18T18:04:11Z" uid="9719" user="dvaey" changeset="3910295" lat="-35.2192765" lon="148.9983172"/>
  <node id="645162072" version="2" timestamp="2012-01-12T22:12:31Z" uid="12434" user="nm7s9" changeset="10374194" lat="-35.2192765" lon="148.9983172"/>
  <node id="645162657" version="1" timestamp="2010-02-18T18:04:28Z" uid="115477" user="wowik" changeset="3910892" lat="56.2395799" lon="37.2480577">
    <tag k="name" v="Храброво"/>
    <tag k="place" v="hamlet"/>
  </node>
  <node id="645162657" version="2" timestamp="2010-04-04T06:04:37Z" uid="30590" user="KekcuHa" changeset="4319328" lat="56.2395799" lon="37.2480577">
    <tag k="addr:country" v="RU"/>
    <tag k="addr:district" v="Дмитровский район"/>
    <tag k="addr:postcode" v="141892"/>
    <tag k="addr:region" v="Московская область"/>
    <tag k="cladr:code" v="5000500043400"/>
    <tag k="cladr:name" v="Храброво"/>
    <tag k="cladr:suffix" v="Село"/>
    <tag k="name" v="Храброво"/>
    <tag k="place" v="hamlet"/>
  </node>
  <node id="645162657" version="3" timestamp="2011-08-07T17:20:04Z" uid="297358" user="patashnik" changeset="8949329" lat="56.2395799" lon="37.2480577">
    <tag k="addr:country" v="RU"/>
    <tag k="addr:district" v="Дмитровский район"/>
    <tag k="addr:region" v="Московская область"/>
    <tag k="cladr:code" v="5000500043400"/>
    <tag k="name" v="Храброво"/>
    <tag k="place" v="hamlet"/>
  </node>
  <node id="645162661" version="1" timestamp="2010-02-18T18:04:28Z" uid="115477" user="wowik" changeset="3910892" lat="56.217728" lon="37.2824758">
    <tag k="name" v="Ивлево"/>
    <tag k="place" v="hamlet"/>
  </node>
  <node id="645162661" version="2" timestamp="2010-04-13T21:46:05Z" uid="128978" user="Silverum" changeset="4418172" lat="56.217728" lon="37.2824758">
    <tag k="addr:country" v="RU"/>
    <tag k="addr:district" v="Дмитровский район"/>
    <tag k="addr:postcode" v="141892"/>
    <tag k="addr:region" v="Московская область"/>
    <tag k="cladr:code" v="5000500016400"/>
    <tag k="cladr:name" v="Ивлево"/>
    <tag k="cladr:suffix" v="Деревня"/>
    <tag k="name" v="Ивлево"/>
    <tag k="place" v="hamlet"/>
  </node>
  <node id="645162666" version="1" timestamp="2010-02-18T18:04:29Z" uid="115477" user="wowik" changeset="3910892" lat="56.2019755" lon="37.2908014">
    <tag k="name" v="Свистуха"/>
    <tag k="place" v="hamlet"/>
  </node>
  <node id="645162669" version="1" timestamp="2010-02-18T18:04:29Z" uid="115477" user="wowik" changeset="3910892" lat="56.1918045" lon="37.3192971">
    <tag k="cladr:code" v="5000500021300"/>
    <tag k="name" v="Левково"/>
    <tag k="place" v="hamlet"/>
  </node>
  <node id="645162673" version="1" timestamp="2010-02-18T18:04:29Z" uid="115477" user="wowik" changeset="3910892" lat="56.1926164" lon="37.345218">
    <tag k="cladr:code" v="5000500049100"/>
    <tag k="name" v="д о Горки"/>
  </node>
  <node id="645162673" version="3" timestamp="2010-02-23T09:35:25Z" uid="218619" user="Andrey Korolyov" changeset="3951636" lat="56.1940414" lon="37.3443825">
    <tag k="cladr:code" v="5000500049100"/>
    <tag k="name" v="пос. Дома Отдыха Горки"/>
    <tag k="place" v="hamlet"/>
  </node>
  <node id="645162673" version="4" timestamp="2010-04-04T06:04:34Z" uid="30590" user="KekcuHa" changeset="4319328" lat="56.1940414" lon="37.3443825">
    <tag k="addr:country" v="RU"/>
    <tag k="addr:district" v="Дмитровский район"/>
    <tag k="addr:postcode" v="141897"/>
    <tag k="addr:region" v="Московская область"/>
    <tag k="cladr:code" v="5000500049100"/>
    <tag k="cladr:name" v="д/о Горки"/>
    <tag k="cladr:suffix" v="Поселок"/>
    <tag k="name" v="пос. Дома Отдыха Горки"/>
    <tag k="place" v="hamlet"/>
  </node>
  <node id="645162673" version="5" timestamp="2011-08-07T17:20:04Z" uid="297358" user="patashnik" changeset="8949329" lat="56.1940414" lon="37.3443825">
    <tag k="addr:country" v="RU"/>
    <tag k="addr:district" v="Дмитровский район"/>
    <tag k="addr:region" v="Московская область"/>
    <tag k="cladr:code" v="5000500049100"/>
    <tag k="name" v="пос. Дома Отдыха Горки"/>
    <tag k="place" v="hamlet"/>
  </node>
  <node id="645162684" version="1" timestamp="2010-02-18T18:04:29Z" uid="115477" user="wowik" changeset="3910892" lat="56.2383398" lon="37.1788781">
    <tag k="name" v="Костино"/>
    <tag k="place" v="hamlet"/>
  </node>
  <node id="645162684" version="2" timestamp="2010-04-13T21:55:51Z" uid="128978" user="Silverum" changeset="4418242" lat="56.2383398" lon="37.178878">
    <tag k="addr:country" v="RU"/>
    <tag k="addr:district" v="Дмитровский район"/>
    <tag k="addr:postcode" v="141892"/>
    <tag k="addr:region" v="Московская область"/>
    <tag k="cladr:code" v="5000500050900"/>
    <tag k="cladr:name" v="Костино"/>
    <tag k="cladr:suffix" v="Деревня"/>
    <tag k="name" v="Костино"/>
    <tag k="place" v="hamlet"/>
  </node>
  <node id="645162691" version="1" timestamp="2010-02-18T18:04:30Z" uid="115477" user="wowik" changeset="3910892" lat="56.2446356" lon="37.1871179">
    <tag k="name" v="Глухово"/>
    <tag k="place" v="hamlet"/>
  </node>
  <node id="645162691" version="2" timestamp="2010-04-13T21:04:47Z" uid="128978" user="Silverum" changeset="4417883" lat="56.2446356" lon="37.1871179">
    <tag k="key" v="Глухово"/>
    <tag k="name" v="Глухово"/>
    <tag k="place" v="hamlet"/>
  </node>
  <node id="645162691" version="3" timestamp="2010-04-13T21:05:25Z" uid="128978" user="Silverum" changeset="4417883" lat="56.2446356" lon="37.1871179">
    <tag k="cladr:code" v="5000500010200"/>
    <tag k="name" v="Глухово"/>
    <tag k="place" v="hamlet"/>
  </node>
  <node id="645162691" version="4" timestamp="2010-04-13T22:51:33Z" uid="128978" user="Silverum" changeset="4418546" lat="56.2446357" lon="37.1871179">
    <tag k="addr:postcode" v="141892"/>
    <tag k="cladr:code" v="5000500010200"/>
    <tag k="name" v="Глухово"/>
    <tag k="place" v="hamlet"/>
  </node>
  <node id="645162691" version="5" timestamp="2010-04-17T12:37:26Z" uid="30590" user="KekcuHa" changeset="4447261" lat="56.2446357" lon="37.1871179">
    <tag k="addr:country" v="RU"/>
    <tag k="addr:district" v="Дмитровский район"/>
    <tag k="addr:postcode" v="141891"/>
    <tag k="addr:region" v="Московская область"/>
    <tag k="cladr:code" v="5000500010200"/>
    <tag k="cladr:name" v="Глухово"/>
    <tag k="cladr:suffix" v="Деревня"/>
    <tag k="name" v="Глухово"/>
    <tag k="place" v="hamlet"/>
  </node>
  <node id="645162691" version="6" timestamp="2011-08-07T17:20:05Z" uid="297358" user="patashnik" changeset="8949329" lat="56.2446357" lon="37.1871179">
    <tag k="addr:country" v="RU"/>
    <tag k="addr:district" v="Дмитровский район"/>
    <tag k="addr:region" v="Московская область"/>
    <tag k="cladr:code" v="5000500010200"/>
    <tag k="name" v="Глухово"/>
    <tag k="place" v="hamlet"/>
  </node>
  <node id="645162694" version="1" timestamp="2010-02-18T18:04:30Z" uid="115477" user="wowik" changeset="3910892" lat="56.2455894" lon="37.1517556">
    <tag k="name" v="Титово"/>
    <tag k="place" v="hamlet"/>
  </node>
  <node id="645162694" version="2" timestamp="2010-04-04T06:04:35Z" uid="30590" user="KekcuHa" changeset="4319328" lat="56.2455894" lon="37.1517556">
    <tag k="addr:country" v="RU"/>
    <tag k="addr:district" v="Дмитровский район"/>
    <tag k="addr:postcode" v="141892"/>
    <tag k="addr:region" v="Московская область"/>
    <tag k="cladr:code" v="5000500040500"/>
    <tag k="cladr:name" v="Титово"/>
    <tag k="cladr:suffix" v="Деревня"/>
    <tag k="name" v="Титово"/>
    <tag k="place" v="hamlet"/>
  </node>
  <node id="645162694" version="3" timestamp="2010-04-13T21:55:02Z" uid="128978" user="Silverum" changeset="4418242" lat="56.245876" lon="37.1554168">
    <tag k="addr:country" v="RU"/>
    <tag k="addr:district" v="Дмитровский район"/>
    <tag k="addr:postcode" v="141892"/>
    <tag k="addr:region" v="Московская область"/>
    <tag k="cladr:code" v="5000500040500"/>
    <tag k="cladr:name" v="Титово"/>
    <tag k="cladr:suffix" v="Деревня"/>
    <tag k="name" v="Титово"/>
    <tag k="place" v="hamlet"/>
  </node>
  <node id="645162694" version="4" timestamp="2010-04-13T21:55:12Z" uid="128978" user="Silverum" changeset="4418242" lat="56.2455894" lon="37.1517555">
    <tag k="addr:country" v="RU"/>
    <tag k="addr:district" v="Дмитровский район"/>
    <tag k="addr:postcode" v="141892"/>
    <tag k="addr:region" v="Московская область"/>
    <tag k="cladr:code" v="5000500040500"/>
    <tag k="cladr:name" v="Титово"/>
    <tag k="cladr:suffix" v="Деревня"/>
    <tag k="name" v="Титово"/>
    <tag k="place" v="hamlet"/>
  </node>
  <node id="645162694" version="5" timestamp="2010-04-13T21:56:08Z" uid="128978" user="Silverum" changeset="4418242" lat="56.245876" lon="37.1552451">
    <tag k="addr:country" v="RU"/>
    <tag k="addr:district" v="Дмитровский район"/>
    <tag k="addr:postcode" v="141892"/>
    <tag k="addr:region" v="Московская область"/>
    <tag k="cladr:code" v="5000500040500"/>
    <tag k="cladr:name" v="Титово"/>
    <tag k="cladr:suffix" v="Деревня"/>
    <tag k="name" v="Титово"/>
    <tag k="place" v="hamlet"/>
  </node>
  <node id="645162694" version="6" timestamp="2010-06-28T14:36:45Z" uid="115477" user="wowik" changeset="5098146" lat="56.2462946" lon="37.1581719">
    <tag k="addr:country" v="RU"/>
    <tag k="addr:district" v="Дмитровский район"/>
    <tag k="addr:postcode" v="141892"/>
    <tag k="addr:region" v="Московская область"/>
    <tag k="cladr:code" v="5000500040500"/>
    <tag k="cladr:name" v="Титово"/>
    <tag k="cladr:suffix" v="Деревня"/>
    <tag k="name" v="Титово"/>
    <tag k="place" v="hamlet"/>
  </node>
  <node id="645162694" version="7" timestamp="2011-08-07T17:20:05Z" uid="297358" user="patashnik" changeset="8949329" lat="56.2462946" lon="37.1581719">
    <tag k="addr:country" v="RU"/>
    <tag k="addr:district" v="Дмитровский район"/>
    <tag k="addr:region" v="Московская область"/>
    <tag k="cladr:code" v="5000500040500"/>
    <tag k="name" v="Титово"/>
    <tag k="place" v="hamlet"/>
  </node>
  <node id="645162700" version="1" timestamp="2010-02-18T18:04:30Z" uid="115477" user="wowik" changeset="3910892" lat="56.2507396" lon="37.1859163">
    <tag k="name" v="Фофаново"/>
    <tag k="place" v="hamlet"/>
  </node>
  <node id="645162700" version="2" timestamp="2010-04-13T22:50:57Z" uid="128978" user="Silverum" changeset="4418546" lat="56.2507396" lon="37.1859162">
    <tag k="cl" v="5000500042400"/>
    <tag k="name" v="Фофаново"/>
    <tag k="place" v="hamlet"/>
  </node>
  <node id="645162700" version="3" timestamp="2010-04-13T22:51:12Z" uid="128978" user="Silverum" changeset="4418546" lat="56.2507396" lon="37.1859162">
    <tag k="cladr:code" v="5000500042400"/>
    <tag k="name" v="Фофаново"/>
    <tag k="place" v="hamlet"/>
  </node>
  <node id="645162700" version="4" timestamp="2010-04-13T22:51:42Z" uid="128978" user="Silverum" changeset="4418546" lat="56.2507396" lon="37.1859162">
    <tag k="addr:postcode" v="141892"/>
    <tag k="cladr:code" v="5000500042400"/>
    <tag k="name" v="Фофаново"/>
    <tag k="place" v="hamlet"/>
  </node>
  <node id="645162700" version="5" timestamp="2010-04-17T12:37:26Z" uid="30590" user="KekcuHa" changeset="4447261" lat="56.2507396" lon="37.1859162">
    <tag k="addr:country" v="RU"/>
    <tag k="addr:district" v="Дмитровский район"/>
    <tag k="addr:postcode" v="141892"/>
    <tag k="addr:region" v="Московская область"/>
    <tag k="cladr:code" v="5000500042400"/>
    <tag k="cladr:name" v="Фофаново"/>
    <tag k="cladr:suffix" v="Деревня"/>
    <tag k="name" v="Фофаново"/>
    <tag k="place" v="hamlet"/>
  </node>
  <node id="645162700" version="6" timestamp="2011-08-07T17:20:05Z" uid="297358" user="patashnik" changeset="8949329" lat="56.2507396" lon="37.1859162">
    <tag k="addr:country" v="RU"/>
    <tag k="addr:district" v="Дмитровский район"/>
    <tag k="addr:region" v="Московская область"/>
    <tag k="cladr:code" v="5000500042400"/>
    <tag k="name" v="Фофаново"/>
    <tag k="place" v="hamlet"/>
  </node>
  <node id="645162705" version="1" timestamp="2010-02-18T18:04:30Z" uid="115477" user="wowik" changeset="3910892" lat="56.2555077" lon="37.2300332">
    <tag k="name" v="Федоровка"/>
    <tag k="place" v="hamlet"/>
  </node>
  <node id="645162705" version="2" timestamp="2010-04-13T22:15:31Z" uid="128978" user="Silverum" changeset="4418364" lat="56.2555077" lon="37.2300331">
    <tag k="addr:postcode" v="141892"/>
    <tag k="name" v="Федоровка"/>
    <tag k="place" v="hamlet"/>
  </node>
  <node id="645162705" version="3" timestamp="2010-04-13T22:15:42Z" uid="128978" user="Silverum" changeset="4418364" lat="56.2555077" lon="37.2300331">
    <tag k="addr:postcode" v="141892"/>
    <tag k="name" v="Федоровка"/>
    <tag k="place" v="hamlet"/>
  </node>
  <node id="645162705" version="4" timestamp="2010-04-13T22:16:09Z" uid="128978" user="Silverum" changeset="4418364" lat="56.2555077" lon="37.2300331">
    <tag k="addr:postcode" v="141892"/>
    <tag k="cladr:code" v="5000500042000"/>
    <tag k="name" v="Федоровка"/>
    <tag k="place" v="hamlet"/>
  </node>
  <node id="645162735" version="1" timestamp="2010-02-18T18:04:31Z" uid="115477" user="wowik" changeset="3910892" lat="56.252971" lon="37.2310387"/>
  <node id="645162814" version="1" timestamp="2010-02-18T18:04:34Z" uid="115477" user="wowik" changeset="3910892" lat="56.2468293" lon="37.1512407"/>
  <node id="645162814" version="2" timestamp="2010-06-28T14:36:53Z" uid="115477" user="wowik" changeset="5098146" lat="56.2461753" lon="37.1609614"/>
  <node id="645162816" version="1" timestamp="2010-02-18T18:04:34Z" uid="115477" user="wowik" changeset="3910892" lat="56.2457802" lon="37.1629136"/>
  <node id="645162816" version="2" timestamp="2010-06-28T14:36:53Z" uid="115477" user="wowik" changeset="5098146" lat="56.2457461" lon="37.162678"/>
  <node id="645162819" version="1" timestamp="2010-02-18T18:04:34Z" uid="115477" user="wowik" changeset="3910892" lat="56.2450171" lon="37.1656602"/>
  <node id="645162819" version="2" timestamp="2010-06-28T14:36:53Z" uid="115477" user="wowik" changeset="5098146" lat="56.2452454" lon="37.1656821"/>
  <node id="645162821" version="1" timestamp="2010-02-18T18:04:34Z" uid="115477" user="wowik" changeset="3910892" lat="56.2457802" lon="37.1730417"/>
  <node id="645162821" version="2" timestamp="2010-06-28T14:36:53Z" uid="115477" user="wowik" changeset="5098146" lat="56.2454838" lon="37.1698019"/>
  <node id="645162822" version="1" timestamp="2010-02-18T18:04:34Z" uid="115477" user="wowik" changeset="3910892" lat="56.2463906" lon="37.1752389"/>
  <node id="645162822" version="2" timestamp="2010-06-28T14:36:46Z" uid="115477" user="wowik" changeset="5098146" lat="56.2463899" lon="37.1741364"/>
  <node id="645162825" version="1" timestamp="2010-02-18T18:04:34Z" uid="115477" user="wowik" changeset="3910892" lat="56.2468293" lon="37.1768182"/>
  <node id="645162825" version="2" timestamp="2010-06-28T14:36:53Z" uid="115477" user="wowik" changeset="5098146" lat="56.2473199" lon="37.176883"/>
  <node id="645162829" version="1" timestamp="2010-02-18T18:04:34Z" uid="115477" user="wowik" changeset="3910892" lat="56.2489276" lon="37.1831697"/>
  <node id="645162829" version="2" timestamp="2010-06-28T14:36:53Z" uid="115477" user="wowik" changeset="5098146" lat="56.2482021" lon="37.1851656"/>
  <node id="645162833" version="1" timestamp="2010-02-18T18:04:34Z" uid="115477" user="wowik" changeset="3910892" lat="56.2484507" lon="37.1860879"/>
  <node id="645162833" version="2" timestamp="2010-06-28T14:36:53Z" uid="115477" user="wowik" changeset="5098146" lat="56.2482736" lon="37.1863672"/>
  <node id="645162859" version="1" timestamp="2010-02-18T18:04:35Z" uid="115477" user="wowik" changeset="3910892" lat="56.2484507" lon="37.1896928"/>
  <node id="645162859" version="2" timestamp="2010-03-05T09:13:09Z" uid="218619" user="Andrey Korolyov" changeset="4038979" lat="56.2481546" lon="37.1890076"/>
  <node id="645162859" version="3" timestamp="2010-06-28T14:36:46Z" uid="115477" user="wowik" changeset="5098146" lat="56.2484405" lon="37.189028"/>
  <node id="645162864" version="1" timestamp="2010-02-18T18:04:35Z" uid="115477" user="wowik" changeset="3910892" lat="56.2524562" lon="37.1996492"/>
  <node id="645162864" version="2" timestamp="2010-06-28T14:36:53Z" uid="115477" user="wowik" changeset="5098146" lat="56.2523507" lon="37.1978256"/>
  <node id="645162868" version="1" timestamp="2010-02-18T18:04:35Z" uid="115477" user="wowik" changeset="3910892" lat="56.2520304" lon="37.2045883"/>
  <node id="645162868" version="2" timestamp="2010-06-28T14:36:53Z" uid="115477" user="wowik" changeset="5098146" lat="56.2521599" lon="37.2041771"/>
  <node id="645162870" version="1" timestamp="2010-02-18T18:04:35Z" uid="115477" user="wowik" changeset="3910892" lat="56.2515979" lon="37.2096055"/>
  <node id="645162870" version="2" timestamp="2010-06-28T14:36:53Z" uid="115477" user="wowik" changeset="5098146" lat="56.2516116" lon="37.2082541"/>
  <node id="645162873" version="1" timestamp="2010-02-18T18:04:35Z" uid="115477" user="wowik" changeset="3910892" lat="56.2530284" lon="37.2138971"/>
  <node id="645162873" version="2" timestamp="2010-06-28T14:36:53Z" uid="115477" user="wowik" changeset="5098146" lat="56.2532089" lon="37.2131464"/>
  <node id="645162877" version="1" timestamp="2010-02-18T18:04:36Z" uid="115477" user="wowik" changeset="3910892" lat="56.2536006" lon="37.2180169"/>
  <node id="645162877" version="2" timestamp="2010-06-28T14:36:53Z" uid="115477" user="wowik" changeset="5098146" lat="56.2536619" lon="37.2167942"/>
  <node id="645162881" version="1" timestamp="2010-02-18T18:04:36Z" uid="115477" user="wowik" changeset="3910892" lat="56.2530284" lon="37.2228234"/>
  <node id="645162881" version="2" timestamp="2010-06-28T14:36:54Z" uid="115477" user="wowik" changeset="5098146" lat="56.2531612" lon="37.2206566"/>
  <node id="645162888" version="1" timestamp="2010-02-18T18:04:36Z" uid="115477" user="wowik" changeset="3910892" lat="56.2530284" lon="37.2278016"/>
  <node id="645162888" version="2" timestamp="2010-06-28T14:36:54Z" uid="115477" user="wowik" changeset="5098146" lat="56.252899" lon="37.2283814"/>
  <node id="645162917" version="1" timestamp="2010-02-18T18:04:36Z" uid="115477" user="wowik" changeset="3910892" lat="56.2452079" lon="37.1981042"/>
  <node id="645162925" version="1" timestamp="2010-02-18T18:04:37Z" uid="115477" user="wowik" changeset="3910892" lat="56.249023" lon="37.1999925"/>
  <node id="645162925" version="2" timestamp="2010-06-28T14:36:54Z" uid="115477" user="wowik" changeset="5098146" lat="56.2499665" lon="37.1999285"/>
  <node id="645162952" version="1" timestamp="2010-02-18T18:04:37Z" uid="115477" user="wowik" changeset="3910892" lat="56.2437771" lon="37.1866029"/>
  <node id="645162961" version="1" timestamp="2010-02-18T18:04:37Z" uid="115477" user="wowik" changeset="3910892" lat="56.2373858" lon="37.1795648"/>
  <node id="645162968" version="1" timestamp="2010-02-18T18:04:38Z" uid="115477" user="wowik" changeset="3910892" lat="56.2401523" lon="37.1776765"/>
  <node id="645162657" version="4" timestamp="2012-07-20T15:39:52Z" uid="722137" user="OSMF Redaction Account" changeset="12381497" lat="56.2395799" lon="37.2480577"/>
  <node id="645162661" version="3" timestamp="2012-07-20T15:16:13Z" uid="722137" user="OSMF Redaction Account" changeset="12380924" lat="56.217728" lon="37.2824758"/>
  <node id="645162673" version="6" timestamp="2012-07-20T15:15:07Z" uid="722137" user="OSMF Redaction Account" changeset="12380892" lat="56.1940414" lon="37.3443825">
    <tag k="addr:country" v="RU"/>
    <tag k="addr:district" v="Дмитровский район"/>
    <tag k="addr:region" v="Московская область"/>
    <tag k="name" v="пос. Дома Отдыха Горки"/>
    <tag k="place" v="hamlet"/>
  </node>
  <node id="645162684" version="3" timestamp="2012-07-20T15:40:45Z" uid="722137" user="OSMF Redaction Account" changeset="12381529" lat="56.2383398" lon="37.178878"/>
  <node id="645162691" version="7" timestamp="2012-07-20T15:40:45Z" uid="722137" user="OSMF Redaction Account" changeset="12381529" lat="56.2446357" lon="37.1871179"/>
  <node id="645162694" version="8" timestamp="2012-07-20T15:40:43Z" uid="722137" user="OSMF Redaction Account" changeset="12381529" lat="56.245876" lon="37.1552451">
    <tag k="addr:country" v="RU"/>
    <tag k="addr:district" v="Дмитровский район"/>
    <tag k="addr:region" v="Московская область"/>
    <tag k="cladr:code" v="5000500040500"/>
  </node>
  <node id="645162700" version="7" timestamp="2012-07-20T15:38:30Z" uid="722137" user="OSMF Redaction Account" changeset="12381457" lat="56.2507396" lon="37.1859162"/>
  <node id="645162705" version="5" timestamp="2012-04-11T20:00:33Z" uid="336354" user="esaulenka" changeset="11269564" lat="56.2555077" lon="37.2300331"/>
  <node id="645162735" version="2" timestamp="2012-04-07T09:08:53Z" uid="417178" user="Medoff" changeset="11210469" lat="56.252971" lon="37.2310387"/>
  <node id="645162735" version="3" timestamp="2012-04-11T20:00:26Z" uid="336354" user="esaulenka" changeset="11269564" lat="56.2529725" lon="37.2309565"/>
  <node id="645162814" version="3" timestamp="2012-04-07T09:08:53Z" uid="417178" user="Medoff" changeset="11210469" lat="56.2461753" lon="37.1609614"/>
  <node id="645162814" version="4" timestamp="2012-04-11T20:00:26Z" uid="336354" user="esaulenka" changeset="11269564" lat="56.2461035" lon="37.1609169"/>
  <node id="645162816" version="3" timestamp="2012-04-07T09:08:53Z" uid="417178" user="Medoff" changeset="11210469" lat="56.2457461" lon="37.162678"/>
  <node id="645162816" version="4" timestamp="2012-04-11T20:00:26Z" uid="336354" user="esaulenka" changeset="11269564" lat="56.2456738" lon="37.1625085"/>
  <node id="645162819" version="3" timestamp="2012-04-07T09:08:53Z" uid="417178" user="Medoff" changeset="11210469" lat="56.2452454" lon="37.1656821"/>
  <node id="645162819" version="4" timestamp="2012-04-11T20:00:26Z" uid="336354" user="esaulenka" changeset="11269564" lat="56.2453276" lon="37.1651588"/>
  <node id="645162821" version="3" timestamp="2012-04-07T09:08:54Z" uid="417178" user="Medoff" changeset="11210469" lat="56.2454838" lon="37.1698019"/>
  <node id="645162821" version="4" timestamp="2012-04-11T20:00:26Z" uid="336354" user="esaulenka" changeset="11269564" lat="56.2455307" lon="37.1697885"/>
  <node id="645162822" version="3" timestamp="2012-04-07T09:08:54Z" uid="417178" user="Medoff" changeset="11210469" lat="56.2463899" lon="37.1741364"/>
  <node id="645162822" version="4" timestamp="2012-04-11T20:00:26Z" uid="336354" user="esaulenka" changeset="11269564" lat="56.2463578" lon="37.1737754"/>
  <node id="645162825" version="3" timestamp="2012-04-07T09:08:54Z" uid="417178" user="Medoff" changeset="11210469" lat="56.2473199" lon="37.176883"/>
  <node id="645162825" version="4" timestamp="2012-04-11T20:00:26Z" uid="336354" user="esaulenka" changeset="11269564" lat="56.2472663" lon="37.1768067"/>
  <node id="645162829" version="3" timestamp="2012-04-07T09:08:54Z" uid="417178" user="Medoff" changeset="11210469" lat="56.2482021" lon="37.1851656"/>
  <node id="645162829" version="4" timestamp="2012-04-11T20:00:26Z" uid="336354" user="esaulenka" changeset="11269564" lat="56.2482102" lon="37.1848654"/>
  <node id="645162833" version="3" timestamp="2012-04-07T09:08:54Z" uid="417178" user="Medoff" changeset="11210469" lat="56.2482736" lon="37.1863672"/>
  <node id="645162833" version="4" timestamp="2012-04-11T20:00:26Z" uid="336354" user="esaulenka" changeset="11269564" lat="56.2482721" lon="37.1860705"/>
  <node id="645162859" version="4" timestamp="2012-04-06T11:29:15Z" uid="420030" user="Yoreg" changeset="11199032" lat="56.2486843" lon="37.1894115"/>
  <node id="645162859" version="5" timestamp="2012-04-11T20:00:26Z" uid="336354" user="esaulenka" changeset="11269564" lat="56.2486084" lon="37.1889479"/>
  <node id="645162864" version="3" timestamp="2012-04-07T09:08:54Z" uid="417178" user="Medoff" changeset="11210469" lat="56.2523507" lon="37.1978256"/>
  <node id="645162864" version="4" timestamp="2012-04-11T20:00:26Z" uid="336354" user="esaulenka" changeset="11269564" lat="56.2523069" lon="37.1975375"/>
  <node id="645162868" version="3" timestamp="2012-04-07T09:08:54Z" uid="417178" user="Medoff" changeset="11210469" lat="56.2521599" lon="37.2041771"/>
  <node id="645162868" version="4" timestamp="2012-04-11T20:00:26Z" uid="336354" user="esaulenka" changeset="11269564" lat="56.2521801" lon="37.2037807"/>
  <node id="645162870" version="3" timestamp="2012-04-06T11:29:15Z" uid="420030" user="Yoreg" changeset="11199032" lat="56.2516592" lon="37.2082073"/>
  <node id="645162870" version="4" timestamp="2012-04-11T20:00:26Z" uid="336354" user="esaulenka" changeset="11269564" lat="56.25172" lon="37.2081339"/>
  <node id="645162873" version="3" timestamp="2012-04-06T11:29:15Z" uid="420030" user="Yoreg" changeset="11199032" lat="56.2532447" lon="37.2130375"/>
  <node id="645162877" version="3" timestamp="2012-04-07T09:08:54Z" uid="417178" user="Medoff" changeset="11210469" lat="56.2536619" lon="37.2167942"/>
  <node id="645162877" version="4" timestamp="2012-04-11T20:00:27Z" uid="336354" user="esaulenka" changeset="11269564" lat="56.2536253" lon="37.2160847"/>
  <node id="645162881" version="3" timestamp="2012-04-07T09:08:54Z" uid="417178" user="Medoff" changeset="11210469" lat="56.2531612" lon="37.2206566"/>
  <node id="645162881" version="4" timestamp="2012-04-11T20:00:27Z" uid="336354" user="esaulenka" changeset="11269564" lat="56.2531803" lon="37.2202732"/>
  <node id="645162888" version="3" timestamp="2012-04-07T09:08:54Z" uid="417178" user="Medoff" changeset="11210469" lat="56.252899" lon="37.2283814"/>
  <node id="645162888" version="4" timestamp="2012-07-20T15:38:10Z" uid="722137" user="OSMF Redaction Account" changeset="12381453" lat="56.252899" lon="37.2283814"/>
  <node id="645162917" version="2" timestamp="2012-04-07T09:08:54Z" uid="417178" user="Medoff" changeset="11210469" lat="56.2452079" lon="37.1981042"/>
  <node id="645162917" version="3" timestamp="2012-07-20T15:39:52Z" uid="722137" user="OSMF Redaction Account" changeset="12381497" lat="56.2452079" lon="37.1981042"/>
  <node id="645162925" version="3" timestamp="2012-04-07T09:08:54Z" uid="417178" user="Medoff" changeset="11210469" lat="56.2499665" lon="37.1999285"/>
  <node id="645162925" version="4" timestamp="2012-07-20T15:39:52Z" uid="722137" user="OSMF Redaction Account" changeset="12381497" lat="56.2499665" lon="37.1999285"/>
  <node id="645162952" version="2" timestamp="2012-04-07T09:08:55Z" uid="417178" user="Medoff" changeset="11210469" lat="56.2437771" lon="37.1866029"/>
  <node id="645162952" version="3" timestamp="2012-07-20T15:40:45Z" uid="722137" user="OSMF Redaction Account" changeset="12381529" lat="56.2437771" lon="37.1866029"/>
  <node id="645162961" version="2" timestamp="2012-04-07T09:08:55Z" uid="417178" user="Medoff" changeset="11210469" lat="56.2373858" lon="37.1795648"/>
  <node id="645162961" version="3" timestamp="2012-07-20T15:40:45Z" uid="722137" user="OSMF Redaction Account" changeset="12381529" lat="56.2373858" lon="37.1795648"/>
  <node id="645162968" version="2" timestamp="2012-04-07T09:08:55Z" uid="417178" user="Medoff" changeset="11210469" lat="56.2401523" lon="37.1776765"/>
  <node id="645162968" version="3" timestamp="2012-07-20T15:40:45Z" uid="722137" user="OSMF Redaction Account" changeset="12381529" lat="56.2401523" lon="37.1776765"/>
</osm>
