<?xml version='1.0' encoding='UTF-8'?>
<osm version="0.6" generator="libosmium/2.20.0">
  <node id="64631501" version="2" timestamp="2010-03-16T15:18:18Z" uid="23543" user="jkjk" changeset="4144051" lat="26.05191" lon="119.3182199"/>
  <node id="64632530" version="2" timestamp="2010-03-16T15:18:23Z" uid="23543" user="jkjk" changeset="4144051" lat="26.06914" lon="119.3184001"/>
  <node id="64632770" version="9" timestamp="2009-10-20T14:14:21Z" uid="36809" user="pfoten_weg_!_" changeset="2903434" lat="47.9227673" lon="11.5353852">
    <tag k="is_in" v="Egling,Bad Tölz-Wolfratshausen,Oberbayern,Bayern,Bundesrepublik Deutschland,Europe"/>
    <tag k="name" v="Thanning"/>
    <tag k="place" v="village"/>
  </node>
  <node id="64632770" version="10" timestamp="2010-12-23T16:30:12Z" uid="8748" user="ToniE" changeset="6747132" lat="47.9227937" lon="11.5350488">
    <tag k="is_in" v="Egling,Bad Tölz-Wolfratshausen,Oberbayern,Bayern,Bundesrepublik Deutschland,Europe"/>
    <tag k="name" v="Thanning"/>
    <tag k="place" v="village"/>
  </node>
  <node id="64632770" version="11" timestamp="2011-01-14T13:51:18Z" uid="8748" user="ToniE" changeset="6967452" lat="47.9227532" lon="11.5348463">
    <tag k="is_in" v="Egling,Bad Tölz-Wolfratshausen,Oberbayern,Bayern,Bundesrepublik Deutschland,Europe"/>
    <tag k="name" v="Thanning"/>
    <tag k="place" v="village"/>
  </node>
  <node id="64632771" version="7" timestamp="2009-10-20T14:14:56Z" uid="36809" user="pfoten_weg_!_" changeset="2903434" lat="47.9330621" lon="11.5530895">
    <tag k="is_in" v="Endlhausen, Egling, Landkreis Bad Tölz-Wolfratshausen,Oberbayern,Bayern,Bundesrepublik Deutschland,Europe"/>
    <tag k="name" v="Attenham"/>
    <tag k="place" v="village"/>
  </node>
  <node id="64632771" version="8" timestamp="2010-01-16T21:16:04Z" uid="8748" user="ToniE" changeset="3635795" lat="47.9322014" lon="11.5552147">
    <tag k="is_in" v="Endlhausen, Egling, Landkreis Bad Tölz-Wolfratshausen,Oberbayern,Bayern,Bundesrepublik Deutschland,Europe"/>
    <tag k="name" v="Attenham"/>
    <tag k="place" v="village"/>
  </node>
  <node id="64632771" version="9" timestamp="2010-11-20T14:22:24Z" uid="140803" user="ThomasStr" changeset="6414547" lat="47.9322014" lon="11.5552147">
    <tag k="is_in" v="Egling,Bad Tölz-Wolfratshausen,Oberbayern,Bayern,Bundesrepublik Deutschland,Europe"/>
    <tag k="name" v="Attenham"/>
    <tag k="place" v="village"/>
  </node>
  <node id="64632771" version="10" timestamp="2011-01-10T13:39:48Z" uid="42393" user="mawi42" changeset="6926372" lat="47.9322002" lon="11.5552306">
    <tag k="is_in" v="Egling,Bad Tölz-Wolfratshausen,Oberbayern,Bayern,Bundesrepublik Deutschland,Europe"/>
    <tag k="name" v="Attenham"/>
    <tag k="place" v="village"/>
    <tag k="postal_code" v="82544"/>
  </node>
  <node id="64632771" version="11" timestamp="2012-03-19T20:37:30Z" uid="8748" user="ToniE" changeset="11034602" lat="47.9322002" lon="11.5552306"/>
  <node id="64632772" version="8" timestamp="2009-10-20T11:51:32Z" uid="36809" user="pfoten_weg_!_" changeset="2902112" lat="47.9225987" lon="11.5959763">
    <tag k="is_in" v="Egling,Landkreis Bad Tölz-Wolfratshausen,Oberbayern,Bayern,Bundesrepublik Deutschland,Europe"/>
    <tag k="name" v="Neukolbing"/>
    <tag k="place" v="hamlet"/>
    <tag k="source" v="survey"/>
  </node>
  <node id="64632772" version="9" timestamp="2009-11-10T07:56:07Z" uid="152289" user="cgu66" changeset="3080327" lat="47.9225987" lon="11.5959763">
    <tag k="is_in" v="Egling,Bad Tölz-Wolfratshausen,Oberbayern,Bayern,Bundesrepublik Deutschland,Europe"/>
    <tag k="name" v="Neukolbing"/>
    <tag k="place" v="hamlet"/>
    <tag k="source" v="survey"/>
  </node>
  <node id="64632772" version="10" timestamp="2010-05-18T22:22:29Z" uid="42393" user="mawi42" changeset="4743604" lat="47.9225987" lon="11.5959762">
    <tag k="is_in" v="Egling,Bad Tölz-Wolfratshausen,Oberbayern,Bayern,Bundesrepublik Deutschland,Europe"/>
    <tag k="name" v="Neukolbing"/>
    <tag k="place" v="hamlet"/>
    <tag k="postal_code" v="82544"/>
    <tag k="source" v="survey"/>
  </node>
  <node id="64632772" version="11" timestamp="2010-05-18T22:24:56Z" uid="42393" user="mawi42" changeset="4743604" lat="47.9229538" lon="11.5961059">
    <tag k="is_in" v="Egling,Bad Tölz-Wolfratshausen,Oberbayern,Bayern,Bundesrepublik Deutschland,Europe"/>
    <tag k="name" v="Neukolbing"/>
    <tag k="place" v="hamlet"/>
    <tag k="postal_code" v="82544"/>
    <tag k="source" v="survey"/>
  </node>
  <node id="64632775" version="12" timestamp="2009-10-20T11:51:24Z" uid="36809" user="pfoten_weg_!_" changeset="2902112" lat="47.9427886" lon="11.5767929">
    <tag k="is_in" v="Egling,Bad Tölz-Wolfratshausen,Oberbayern,Bayern,Bundesrepublik Deutschland,Europe"/>
    <tag k="name" v="Endlhausen"/>
    <tag k="place" v="village"/>
  </node>
  <node id="64632775" version="13" timestamp="2010-05-18T22:16:26Z" uid="42393" user="mawi42" changeset="4743437" lat="47.9427886" lon="11.5767929">
    <tag k="is_in" v="Egling,Bad Tölz-Wolfratshausen,Oberbayern,Bayern,Bundesrepublik Deutschland,Europe"/>
    <tag k="name" v="Endlhausen"/>
    <tag k="place" v="village"/>
    <tag k="postal_code" v="82544"/>
  </node>
  <node id="64632775" version="14" timestamp="2010-05-31T20:46:49Z" uid="290723" user="sulagaloh" changeset="4868252" lat="47.9428042" lon="11.5760235">
    <tag k="is_in" v="Egling,Bad Tölz-Wolfratshausen,Oberbayern,Bayern,Bundesrepublik Deutschland,Europe"/>
    <tag k="name" v="Endlhausen"/>
    <tag k="place" v="village"/>
    <tag k="postal_code" v="82544"/>
  </node>
  <node id="64633973" version="13" timestamp="2009-10-20T14:08:24Z" uid="36809" user="pfoten_weg_!_" changeset="2903434" lat="47.874009" lon="11.5448285">
    <tag k="is_in" v="Dietramszell,Bad Tölz-Wolfratshausen,Oberbayern,Bayern,Bundesrepublik Deutschland,Europe"/>
    <tag k="name" v="Kleineglsee"/>
    <tag k="place" v="hamlet"/>
  </node>
  <node id="64633973" version="14" timestamp="2011-04-01T18:30:32Z" uid="42393" user="mawi42" changeset="7737945" lat="47.8739072" lon="11.5450431">
    <tag k="is_in" v="Dietramszell,Bad Tölz-Wolfratshausen,Oberbayern,Bayern,Bundesrepublik Deutschland,Europe"/>
    <tag k="name" v="Kleineglsee"/>
    <tag k="place" v="hamlet"/>
  </node>
  <node id="64633973" version="15" timestamp="2011-04-01T18:31:16Z" uid="42393" user="mawi42" changeset="7737952" lat="47.8739073" lon="11.545043">
    <tag k="is_in" v="Dietramszell,Bad Tölz-Wolfratshausen,Oberbayern,Bayern,Bundesrepublik Deutschland,Europe"/>
    <tag k="name" v="Kleineglsee"/>
    <tag k="place" v="hamlet"/>
    <tag k="postal_code" v="83623"/>
  </node>
  <node id="64633974" version="9" timestamp="2009-10-20T14:10:35Z" uid="36809" user="pfoten_weg_!_" changeset="2903434" lat="47.9164332" lon="11.4825439">
    <tag k="is_in" v="Egling,Bad Tölz-Wolfratshausen,Oberbayern,Bayern,Bundesrepublik Deutschland,Europe"/>
    <tag k="name" v="Neufahrn"/>
    <tag k="place" v="village"/>
  </node>
  <node id="64633974" version="10" timestamp="2010-09-20T08:01:19Z" uid="42393" user="mawi42" changeset="5826776" lat="47.9164332" lon="11.4825438">
    <tag k="is_in" v="Egling,Bad Tölz-Wolfratshausen,Oberbayern,Bayern,Bundesrepublik Deutschland,Europe"/>
    <tag k="name" v="Neufahrn"/>
    <tag k="place" v="village"/>
    <tag k="postal_code" v="82544"/>
  </node>
  <node id="64633976" version="8" timestamp="2009-11-06T11:15:38Z" uid="36809" user="pfoten_weg_!_" changeset="3047170" lat="47.9299556" lon="11.4769649">
    <tag k="is_in" v="Egling,Bad Tölz-Wolfratshausen,Oberbayern,Bayern,Bundesrepublik Deutschland,Europe"/>
    <tag k="name" v="Ergertshausen"/>
    <tag k="place" v="village"/>
  </node>
  <node id="64633978" version="6" timestamp="2009-10-12T21:26:11Z" uid="36809" user="pfoten_weg_!_" changeset="2831103" lat="47.9191196" lon="11.4504518">
    <tag k="is_in" v="Landkreis Bad Tölz-Wolfratshausen,Oberbayern,Bayern,Bundesrepublik Deutschland,Europe"/>
    <tag k="name" v="Puppling"/>
    <tag k="place" v="village"/>
  </node>
  <node id="64633978" version="7" timestamp="2009-11-09T04:42:29Z" uid="152289" user="cgu66" changeset="3070676" lat="47.9191196" lon="11.4504518">
    <tag k="is_in" v="Bad Tölz-Wolfratshausen,Oberbayern,Bayern,Bundesrepublik Deutschland,Europe"/>
    <tag k="name" v="Puppling"/>
    <tag k="place" v="village"/>
  </node>
  <node id="64633978" version="8" timestamp="2010-12-10T11:26:44Z" uid="140803" user="ThomasStr" changeset="6604171" lat="47.9191196" lon="11.4504518">
    <tag k="is_in" v="Egling,Bad Tölz-Wolfratshausen,Oberbayern,Bayern,Bundesrepublik Deutschland,Europe"/>
    <tag k="name" v="Puppling"/>
    <tag k="place" v="village"/>
  </node>
  <node id="64633978" version="9" timestamp="2012-03-19T20:37:33Z" uid="8748" user="ToniE" changeset="11034602" lat="47.9191196" lon="11.4504518"/>
  <node id="64633979" version="3" timestamp="2009-11-06T11:04:24Z" uid="36809" user="pfoten_weg_!_" changeset="3047170" lat="47.8836985" lon="11.4089687">
    <tag k="is_in" v="Kreis Bad Tölz - Wolfratshausen,Oberbayern,Bayern,Bundesrepublik Deutschland,Europe"/>
    <tag k="name" v="Achmühle"/>
    <tag k="place" v="village"/>
  </node>
  <node id="64633979" version="4" timestamp="2009-11-10T05:33:42Z" uid="152289" user="cgu66" changeset="3079956" lat="47.8836985" lon="11.4089687">
    <tag k="is_in" v="Bad Tölz-Wolfratshausen,Oberbayern,Bayern,Bundesrepublik Deutschland,Europe"/>
    <tag k="name" v="Achmühle"/>
    <tag k="place" v="village"/>
  </node>
  <node id="64633979" version="5" timestamp="2009-11-10T05:40:49Z" uid="152289" user="cgu66" changeset="3079968" lat="47.8836985" lon="11.4089687">
    <tag k="is_in" v="Eurasberg,Bad Tölz-Wolfratshausen,Oberbayern,Bayern,Bundesrepublik Deutschland,Europe"/>
    <tag k="name" v="Achmühle"/>
    <tag k="place" v="village"/>
  </node>
  <node id="64633979" version="6" timestamp="2010-09-21T17:02:29Z" uid="42393" user="mawi42" changeset="5838632" lat="47.8836985" lon="11.4089686">
    <tag k="is_in" v="Eurasburg,Bad Tölz-Wolfratshausen,Oberbayern,Bayern,Bundesrepublik Deutschland,Europe"/>
    <tag k="name" v="Achmühle"/>
    <tag k="place" v="village"/>
    <tag k="postal_code" v="82547"/>
  </node>
  <node id="64635520" version="2" timestamp="2010-03-16T15:18:18Z" uid="23543" user="jkjk" changeset="4144051" lat="26.05222" lon="119.31537"/>
  <node id="64636686" version="2" timestamp="2010-03-16T15:18:22Z" uid="23543" user="jkjk" changeset="4144051" lat="26.0645101" lon="119.31826"/>
  <node id="64638048" version="2" timestamp="2010-03-16T15:17:47Z" uid="23543" user="jkjk" changeset="4144051" lat="26.0624591" lon="119.32971"/>
  <node id="64638293" version="2" timestamp="2010-03-16T15:18:24Z" uid="23543" user="jkjk" changeset="4144051" lat="26.06256" lon="119.32757"/>
  <node id="64638048" version="3" timestamp="2012-07-20T21:21:33Z" uid="722137" user="OSMF Redaction Account" changeset="12392624" lat="26.06223" lon="119.32971"/>
</osm>
