<?xml version='1.0' encoding='UTF-8'?>
<osm version="0.6" generator="libosmium/2.20.0">
  <node id="64772465" version="2" timestamp="2007-11-07T20:38:05Z" uid="6975" user="ulfl" changeset="431689" lat="49.4760089" lon="10.9550332">
    <tag k="created_by" v="Potlatch 0.4a"/>
  </node>
  <node id="64773747" version="2" timestamp="2008-02-25T19:11:51Z" uid="6975" user="ulfl" changeset="208586" lat="49.468089" lon="10.9706544"/>
  <node id="64773747" version="3" timestamp="2008-03-10T20:56:09Z" uid="30053" user="Red Rooster" changeset="299613" lat="49.4682477" lon="10.9709102"/>
  <node id="64773747" version="4" timestamp="2009-03-13T22:40:16Z" uid="106040" user="mw9" changeset="803568" lat="49.4682477" lon="10.9709102"/>
  <node id="64773747" version="5" timestamp="2009-03-13T22:56:31Z" uid="106040" user="mw9" changeset="803568" lat="49.4682477" lon="10.9709102"/>
  <node id="64773747" version="6" timestamp="2009-03-19T14:00:34Z" uid="107808" user="Felix Reimann" changeset="831549" lat="49.4682477" lon="10.9709102"/>
  <node id="64773747" version="7" timestamp="2011-11-04T20:09:18Z" uid="439093" user="Andreas Jaeger" changeset="9741580" lat="49.4682461" lon="10.9708729"/>
  <node id="64773749" version="2" timestamp="2008-02-23T13:08:25Z" uid="6975" user="ulfl" changeset="184302" lat="49.464744" lon="10.9824974"/>
  <node id="64773755" version="2" timestamp="2008-02-25T19:12:10Z" uid="6975" user="ulfl" changeset="208586" lat="49.468089" lon="10.9706544"/>
  <node id="64776484" version="6" timestamp="2009-07-25T22:01:27Z" uid="123700" user="Mala" changeset="1939174" lat="46.0673963" lon="11.1214794">
    <tag k="gfoss_id" v="3069"/>
    <tag k="is_in" v="Trento, Trentino-Alto Adige, Italy"/>
    <tag k="is_in:continent" v="Europe"/>
    <tag k="name" v="Trento"/>
    <tag k="name:fr" v="Trente"/>
    <tag k="place" v="city"/>
    <tag k="population" v="104946"/>
    <tag k="source" v="geodati.gfoss.it"/>
    <tag k="wikipedia" v="Trento"/>
  </node>
  <node id="64776484" version="7" timestamp="2009-11-27T14:44:53Z" uid="166445" user="GranD" changeset="3228574" lat="46.0673964" lon="11.1214794">
    <tag k="gfoss_id" v="3069"/>
    <tag k="is_in" v="Trento, Trentino-Alto Adige, Italy"/>
    <tag k="is_in:continent" v="Europe"/>
    <tag k="name" v="Trento"/>
    <tag k="name:fr" v="Trente"/>
    <tag k="name:ru" v="Тренто"/>
    <tag k="place" v="city"/>
    <tag k="population" v="104946"/>
    <tag k="source" v="geodati.gfoss.it"/>
    <tag k="wikipedia" v="Trento"/>
  </node>
  <node id="64776484" version="8" timestamp="2010-09-09T11:38:50Z" uid="24966" user="alessioz" changeset="5731864" lat="46.0673964" lon="11.1214794">
    <tag k="gfoss_id" v="3069"/>
    <tag k="is_in" v="Trento, Trentino-Alto Adige, Italy"/>
    <tag k="is_in:continent" v="Europe"/>
    <tag k="name" v="Trento"/>
    <tag k="name:de" v="Trient"/>
    <tag k="name:fr" v="Trente"/>
    <tag k="name:ru" v="Тренто"/>
    <tag k="place" v="city"/>
    <tag k="population" v="104946"/>
    <tag k="source" v="geodati.gfoss.it"/>
    <tag k="wikipedia" v="Trento"/>
  </node>
  <node id="64776484" version="9" timestamp="2010-10-23T20:45:03Z" uid="24966" user="alessioz" changeset="6151445" lat="46.0666763" lon="11.1192294">
    <tag k="gfoss_id" v="3069"/>
    <tag k="is_in" v="Trento, Trentino-Alto Adige, Italy"/>
    <tag k="is_in:continent" v="Europe"/>
    <tag k="name" v="Trento"/>
    <tag k="name:de" v="Trient"/>
    <tag k="name:fr" v="Trente"/>
    <tag k="name:ru" v="Тренто"/>
    <tag k="place" v="city"/>
    <tag k="population" v="104946"/>
    <tag k="source" v="geodati.gfoss.it"/>
    <tag k="wikipedia" v="Trento"/>
  </node>
  <node id="64776484" version="10" timestamp="2010-10-24T08:26:27Z" uid="24966" user="alessioz" changeset="6154077" lat="46.0673238" lon="11.1265895">
    <tag k="gfoss_id" v="3069"/>
    <tag k="is_in" v="Trento, Trentino-Alto Adige, Italy"/>
    <tag k="is_in:continent" v="Europe"/>
    <tag k="name" v="Trento"/>
    <tag k="name:de" v="Trient"/>
    <tag k="name:fr" v="Trente"/>
    <tag k="name:ru" v="Тренто"/>
    <tag k="place" v="city"/>
    <tag k="population" v="104946"/>
    <tag k="source" v="geodati.gfoss.it"/>
    <tag k="wikipedia" v="Trento"/>
  </node>
  <node id="64776484" version="11" timestamp="2011-01-24T12:14:25Z" uid="393666" user="etrumap" changeset="7072333" lat="46.0673238" lon="11.1265895">
    <tag k="capital" v="4"/>
    <tag k="gfoss_id" v="3069"/>
    <tag k="is_in" v="Trento, Trentino-Alto Adige, Italy"/>
    <tag k="is_in:continent" v="Europe"/>
    <tag k="name" v="Trento"/>
    <tag k="name:de" v="Trient"/>
    <tag k="name:fr" v="Trente"/>
    <tag k="name:ru" v="Тренто"/>
    <tag k="place" v="city"/>
    <tag k="population" v="104946"/>
    <tag k="source" v="geodati.gfoss.it"/>
    <tag k="wikipedia" v="Trento"/>
  </node>
  <node id="64776484" version="12" timestamp="2011-07-05T06:46:04Z" uid="20610" user="napo" changeset="8636257" lat="46.0693593" lon="11.1211907">
    <tag k="capital" v="4"/>
    <tag k="gfoss_id" v="3069"/>
    <tag k="is_in" v="Trento, Trentino-Alto Adige, Italy"/>
    <tag k="is_in:continent" v="Europe"/>
    <tag k="name" v="Trento"/>
    <tag k="name:de" v="Trient"/>
    <tag k="name:fr" v="Trente"/>
    <tag k="name:ru" v="Тренто"/>
    <tag k="place" v="city"/>
    <tag k="population" v="104946"/>
    <tag k="source" v="geodati.gfoss.it"/>
    <tag k="wikipedia" v="Trento"/>
  </node>
  <node id="64776484" version="13" timestamp="2011-09-01T10:32:26Z" uid="504502" user="peppe10" changeset="9183274" lat="46.0664228" lon="11.1257601">
    <tag k="capital" v="4"/>
    <tag k="gfoss_id" v="3069"/>
    <tag k="is_in" v="Trento, Trentino-Alto Adige, Italy"/>
    <tag k="is_in:continent" v="Europe"/>
    <tag k="name" v="Trento"/>
    <tag k="name:de" v="Trient"/>
    <tag k="name:fr" v="Trente"/>
    <tag k="name:ru" v="Тренто"/>
    <tag k="place" v="city"/>
    <tag k="population" v="104946"/>
    <tag k="source" v="geodati.gfoss.it"/>
    <tag k="wikipedia" v="Trento"/>
  </node>
  <node id="64776999" version="3" timestamp="2009-10-13T23:50:23Z" uid="36809" user="pfoten_weg_!_" changeset="2841284" lat="46.6995078" lon="11.16991">
    <tag k="gfoss_id" v="2765"/>
    <tag k="is_in" v="Bolzano - Bozen, Trentino-Alto Adige, Italy"/>
    <tag k="name" v="Caines - Kuens"/>
    <tag k="place" v="village"/>
    <tag k="population" v="318"/>
    <tag k="source" v="geodati.gfoss.it"/>
  </node>
  <node id="64776999" version="4" timestamp="2011-03-21T18:43:57Z" uid="76312" user="scratera" changeset="7630363" lat="46.6995078" lon="11.16991">
    <tag k="gfoss_id" v="2765"/>
    <tag k="is_in" v="Bolzano - Bozen, Trentino-Alto Adige, Italy"/>
    <tag k="name" v="Caines - Kuens"/>
    <tag k="place" v="village"/>
    <tag k="population" v="318"/>
    <tag k="source" v="geodati.gfoss.it"/>
  </node>
  <node id="64777001" version="4" timestamp="2009-10-13T23:08:11Z" uid="36809" user="pfoten_weg_!_" changeset="2841207" lat="46.7965131" lon="11.9352875">
    <tag k="gfoss_id" v="2764"/>
    <tag k="is_in" v="Bolzano - Bozen, Trentino-Alto Adige, Italy"/>
    <tag k="name" v="Bruneck - Brunico"/>
    <tag k="name:de" v="Bruneck"/>
    <tag k="name:it" v="Brunico"/>
    <tag k="place" v="town"/>
    <tag k="population" v="13618"/>
  </node>
  <node id="64777001" version="5" timestamp="2012-03-02T18:34:26Z" uid="606933" user="immaterial" changeset="10850864" lat="46.7965131" lon="11.9352875">
    <tag k="gfoss_id" v="2764"/>
    <tag k="is_in" v="Bozen - Bolzano, Trentino-Südtirol/Alto Adige"/>
    <tag k="name" v="Bruneck - Brunico"/>
    <tag k="name:de" v="Bruneck"/>
    <tag k="name:it" v="Brunico"/>
    <tag k="place" v="town"/>
    <tag k="population" v="13618"/>
  </node>
  <node id="64777005" version="7" timestamp="2009-09-30T11:51:28Z" uid="36809" user="pfoten_weg_!_" changeset="2687450" lat="46.7164203" lon="11.656376">
    <tag k="gfoss_id" v="2762"/>
    <tag k="is_in" v="Bolzano - Bozen, Trentino-Alto Adige, Italy"/>
    <tag k="name" v="Brixen - Bressanone"/>
    <tag k="place" v="town"/>
    <tag k="population" v="18359"/>
  </node>
  <node id="64777005" version="8" timestamp="2009-12-20T22:13:16Z" uid="12973" user="MattGPS" changeset="3417443" lat="46.7164203" lon="11.656376">
    <tag k="gfoss_id" v="2762"/>
    <tag k="is_in" v="Bolzano - Bozen, Trentino-Alto Adige, Italy"/>
    <tag k="name" v="Brixen - Bressanone"/>
    <tag k="name:de" v="Brixen"/>
    <tag k="place" v="town"/>
    <tag k="population" v="18359"/>
  </node>
  <node id="64777005" version="9" timestamp="2010-03-05T21:54:50Z" uid="132225" user="MaximusIT" changeset="4045178" lat="46.7164203" lon="11.656376">
    <tag k="gfoss_id" v="2762"/>
    <tag k="is_in" v="Bolzano - Bozen, Trentino-Alto Adige, Italy"/>
    <tag k="name" v="Brixen - Bressanone"/>
    <tag k="name:de" v="Brixen"/>
    <tag k="place" v="city"/>
    <tag k="population" v="18359"/>
  </node>
  <node id="64777005" version="10" timestamp="2010-04-12T19:38:19Z" uid="166445" user="GranD" changeset="4407950" lat="46.7164203" lon="11.656376">
    <tag k="gfoss_id" v="2762"/>
    <tag k="is_in" v="Bolzano - Bozen, Trentino-Alto Adige, Italy"/>
    <tag k="name" v="Brixen - Bressanone"/>
    <tag k="name:de" v="Brixen"/>
    <tag k="name:ru" v="Брессаноне"/>
    <tag k="place" v="city"/>
    <tag k="population" v="18359"/>
  </node>
  <node id="64777005" version="11" timestamp="2010-05-04T16:28:23Z" uid="80088" user="FedericoCozzi" changeset="4605570" lat="46.7164202" lon="11.656376">
    <tag k="gfoss_id" v="2762"/>
    <tag k="is_in" v="Bolzano - Bozen, Trentino-Alto Adige, Italy"/>
    <tag k="name" v="Brixen - Bressanone"/>
    <tag k="name:de" v="Brixen"/>
    <tag k="name:ru" v="Брессаноне"/>
    <tag k="place" v="town"/>
    <tag k="population" v="18359"/>
  </node>
  <node id="64777005" version="12" timestamp="2012-03-02T17:59:29Z" uid="606933" user="immaterial" changeset="10850864" lat="46.7164202" lon="11.656376">
    <tag k="gfoss_id" v="2762"/>
    <tag k="is_in" v="Bozen - Bolzano, Trentino-Südtirol/Alto Adige, Italy"/>
    <tag k="name" v="Brixen - Bressanone"/>
    <tag k="name:de" v="Brixen am Eisack"/>
    <tag k="name:ru" v="Бриксен"/>
    <tag k="place" v="town"/>
    <tag k="population" v="18359"/>
  </node>
  <node id="64777005" version="13" timestamp="2012-03-04T19:41:37Z" uid="606933" user="immaterial" changeset="10872883" lat="46.7164202" lon="11.656376">
    <tag k="gfoss_id" v="2762"/>
    <tag k="is_in" v="Bozen - Bolzano, Trentino-Südtirol/Alto Adige, Italy"/>
    <tag k="name" v="Brixen - Bressanone"/>
    <tag k="name:de" v="Brixen am Eisack"/>
    <tag k="name:lad" v="Porsenù"/>
    <tag k="name:ru" v="Бриксен"/>
    <tag k="place" v="town"/>
    <tag k="population" v="18359"/>
  </node>
  <node id="64777007" version="6" timestamp="2009-09-30T12:39:12Z" uid="36809" user="pfoten_weg_!_" changeset="2687886" lat="47.0063192" lon="11.50632">
    <tag k="ele" v="13700"/>
    <tag k="gfoss_id" v="2761"/>
    <tag k="is_in" v="Bozen - Bolzano, Trentino-Südtirol, Italy"/>
    <tag k="name" v="Brenner - Brennero"/>
    <tag k="name:de" v="Brenner"/>
    <tag k="name:it" v="Brennero"/>
    <tag k="place" v="village"/>
    <tag k="population" v="2066"/>
  </node>
  <node id="64777007" version="7" timestamp="2009-10-24T17:37:36Z" uid="64756" user="alegria6208" changeset="2940099" lat="47.0063192" lon="11.50632">
    <tag k="ele" v="1370"/>
    <tag k="gfoss_id" v="2761"/>
    <tag k="is_in" v="Bozen - Bolzano, Trentino-Südtirol, Italy"/>
    <tag k="name" v="Brenner"/>
    <tag k="name:de" v="Brenner"/>
    <tag k="name:it" v="Brennero"/>
    <tag k="place" v="village"/>
    <tag k="population" v="2066"/>
  </node>
  <node id="64777007" version="8" timestamp="2012-03-14T08:41:30Z" uid="287306" user="Matthias Frank" changeset="10975411" lat="47.0034717" lon="11.5048456">
    <tag k="ele" v="1370"/>
    <tag k="gfoss_id" v="2761"/>
    <tag k="is_in" v="Bozen - Bolzano, Trentino-Südtirol, Italy"/>
    <tag k="name" v="Brenner"/>
    <tag k="name:de" v="Brenner"/>
    <tag k="name:it" v="Brennero"/>
    <tag k="place" v="village"/>
    <tag k="population" v="2066"/>
  </node>
  <node id="64777007" version="9" timestamp="2012-03-14T08:47:27Z" uid="287306" user="Matthias Frank" changeset="10975411" lat="47.0037442" lon="11.5047008">
    <tag k="ele" v="1370"/>
    <tag k="gfoss_id" v="2761"/>
    <tag k="is_in" v="Bozen - Bolzano, Trentino-Südtirol, Italy"/>
    <tag k="name" v="Brenner"/>
    <tag k="name:de" v="Brenner"/>
    <tag k="name:it" v="Brennero"/>
    <tag k="place" v="village"/>
    <tag k="population" v="2066"/>
  </node>
  <node id="64777012" version="6" timestamp="2009-09-29T00:17:14Z" uid="36809" user="pfoten_weg_!_" changeset="2671824" lat="46.6033828" lon="11.520854">
    <tag k="gfoss_id" v="2758"/>
    <tag k="is_in" v="Bolzano - Bozen, Trentino-Alto Adige, Italy"/>
    <tag k="name" v="Barbian - Barbiano"/>
    <tag k="name:de" v="Barbian"/>
    <tag k="name:it" v="Barbiano"/>
    <tag k="place" v="village"/>
    <tag k="population" v="1520"/>
    <tag k="source" v="geodati.gfoss.it"/>
  </node>
  <node id="64777012" version="7" timestamp="2009-09-29T00:47:19Z" uid="36809" user="pfoten_weg_!_" changeset="2671929" lat="46.6033828" lon="11.520854">
    <tag k="gfoss_id" v="2758"/>
    <tag k="is_in" v="Bolzano - Bozen, Trentino-Alto Adige, Italy"/>
    <tag k="name" v="Barbian - Barbiano"/>
    <tag k="name:de" v="Barbian"/>
    <tag k="name:it" v="Barbiano"/>
    <tag k="place" v="village"/>
    <tag k="population" v="1520"/>
    <tag k="source" v="geodati.gfoss.it"/>
  </node>
  <node id="64777012" version="8" timestamp="2009-09-29T01:13:35Z" uid="36809" user="pfoten_weg_!_" changeset="2671929" lat="46.6033828" lon="11.520854">
    <tag k="gfoss_id" v="2758"/>
    <tag k="is_in" v="Bolzano - Bozen, Trentino-Alto Adige, Italy"/>
    <tag k="name" v="Barbian - Barbiano"/>
    <tag k="name:de" v="Barbian"/>
    <tag k="name:it" v="Barbiano"/>
    <tag k="place" v="village"/>
    <tag k="population" v="1520"/>
    <tag k="source" v="geodati.gfoss.it"/>
  </node>
  <node id="64777012" version="9" timestamp="2009-09-29T01:44:12Z" uid="36809" user="pfoten_weg_!_" changeset="2672141" lat="46.6033828" lon="11.520854">
    <tag k="gfoss_id" v="2758"/>
    <tag k="is_in" v="Bolzano - Bozen, Trentino-Alto Adige, Italy"/>
    <tag k="name" v="Barbian - Barbiano"/>
    <tag k="name:de" v="Barbian"/>
    <tag k="name:it" v="Barbiano"/>
    <tag k="place" v="village"/>
    <tag k="population" v="1520"/>
    <tag k="source" v="geodati.gfoss.it"/>
  </node>
  <node id="64777012" version="10" timestamp="2009-09-29T02:18:53Z" uid="36809" user="pfoten_weg_!_" changeset="2672254" lat="46.6033828" lon="11.520854">
    <tag k="gfoss_id" v="2758"/>
    <tag k="is_in" v="Bolzano - Bozen, Trentino-Alto Adige, Italy"/>
    <tag k="name" v="Barbian - Barbiano"/>
    <tag k="name:de" v="Barbian"/>
    <tag k="name:it" v="Barbiano"/>
    <tag k="place" v="village"/>
    <tag k="population" v="1520"/>
    <tag k="source" v="geodati.gfoss.it"/>
  </node>
  <node id="64777012" version="11" timestamp="2009-09-30T11:49:59Z" uid="36809" user="pfoten_weg_!_" changeset="2687450" lat="46.6033828" lon="11.520854">
    <tag k="gfoss_id" v="2758"/>
    <tag k="is_in" v="Bolzano - Bozen, Trentino-Alto Adige, Italy"/>
    <tag k="name" v="Barbian - Barbiano"/>
    <tag k="name:de" v="Barbian"/>
    <tag k="name:it" v="Barbiano"/>
    <tag k="place" v="village"/>
    <tag k="population" v="1520"/>
  </node>
  <node id="64777017" version="5" timestamp="2009-10-13T23:46:06Z" uid="36809" user="pfoten_weg_!_" changeset="2841284" lat="46.644615" lon="11.224384">
    <tag k="gfoss_id" v="2756"/>
    <tag k="is_in" v="Bolzano - Bozen, Trentino-Alto Adige, Italy"/>
    <tag k="name" v="Avelengo - Hafling"/>
    <tag k="name:de" v="Hafling"/>
    <tag k="name:it" v="Avelengo"/>
    <tag k="place" v="village"/>
    <tag k="population" v="709"/>
    <tag k="source" v="geodati.gfoss.it"/>
  </node>
  <node id="64777017" version="6" timestamp="2012-03-03T15:25:32Z" uid="606933" user="immaterial" changeset="10858852" lat="46.644615" lon="11.224384">
    <tag k="gfoss_id" v="2756"/>
    <tag k="is_in" v="Bolzano - Bozen, Trentino-Südtirol/Alto Adige, Italy"/>
    <tag k="name" v="Hafling - Avelengo"/>
    <tag k="name:de" v="Hafling"/>
    <tag k="name:it" v="Avelengo"/>
    <tag k="place" v="village"/>
    <tag k="population" v="709"/>
    <tag k="source" v="geodati.gfoss.it"/>
  </node>
  <node id="64777030" version="4" timestamp="2009-10-13T23:06:06Z" uid="36809" user="pfoten_weg_!_" changeset="2841207" lat="46.6619988" lon="11.9243981">
    <tag k="gfoss_id" v="2866"/>
    <tag k="is_in" v="Bolzano - Bozen, Trentino-Alto Adige, Italy"/>
    <tag k="name" v="La Valle"/>
    <tag k="name:de" v="Wengen"/>
    <tag k="name:lad" v="La Val"/>
    <tag k="place" v="village"/>
    <tag k="population" v="1232"/>
  </node>
  <node id="64777030" version="5" timestamp="2009-10-14T14:30:24Z" uid="64756" user="alegria6208" changeset="2846323" lat="46.6619988" lon="11.9243981">
    <tag k="gfoss_id" v="2866"/>
    <tag k="is_in" v="Bolzano - Bozen, Trentino-Alto Adige, Italy"/>
    <tag k="name" v="Wengen"/>
    <tag k="name:de" v="Wengen"/>
    <tag k="name:it" v="La Valle"/>
    <tag k="name:lad" v="La Val"/>
    <tag k="place" v="village"/>
    <tag k="population" v="1232"/>
  </node>
  <node id="64777030" version="6" timestamp="2012-03-03T09:33:18Z" uid="606933" user="immaterial" changeset="10855591" lat="46.6619988" lon="11.9243981">
    <tag k="gfoss_id" v="2866"/>
    <tag k="is_in" v="Bolzano - Bozen, Trentino-Südtirol/Alto Adige, Italy"/>
    <tag k="name" v="La Val"/>
    <tag k="name:de" v="Wengen"/>
    <tag k="name:it" v="La Valle"/>
    <tag k="name:lad" v="La Val"/>
    <tag k="place" v="village"/>
    <tag k="population" v="1232"/>
  </node>
  <node id="64777031" version="6" timestamp="2009-08-24T20:57:16Z" uid="36809" user="pfoten_weg_!_" changeset="2250198" lat="46.517552" lon="11.502659">
    <tag k="created_by" v="Potlatch 0.10f"/>
    <tag k="gfoss_id" v="2782"/>
    <tag k="is_in" v="Bolzano - Bozen, Trentino-Alto Adige, Italy"/>
    <tag k="name" v="Völs am Schlern - Fiè allo Sciliar"/>
    <tag k="name:de" v="Völs am Schlern"/>
    <tag k="name:it" v="Fiè allo Sciliar"/>
    <tag k="place" v="village"/>
    <tag k="population" v="3038"/>
    <tag k="source" v="geodati.gfoss.it"/>
  </node>
  <node id="64777036" version="5" timestamp="2009-09-30T11:52:18Z" uid="36809" user="pfoten_weg_!_" changeset="2687450" lat="46.789626" lon="11.609977">
    <tag k="ele" v="747"/>
    <tag k="gfoss_id" v="2783"/>
    <tag k="is_in" v="Bolzano - Bozen, Trentino-Alto Adige, Italy"/>
    <tag k="name" v="Franzensfeste"/>
    <tag k="name:de" v="Franzensfeste"/>
    <tag k="name:it" v="Fortezza"/>
    <tag k="place" v="village"/>
    <tag k="population" v="892"/>
  </node>
  <node id="64777036" version="6" timestamp="2010-10-26T17:49:28Z" uid="334153" user="Alexander Roalter" changeset="6184864" lat="46.789626" lon="11.609977">
    <tag k="ele" v="747"/>
    <tag k="gfoss_id" v="2783"/>
    <tag k="is_in" v="Bolzano - Bozen, Trentino-Alto Adige, Italy"/>
    <tag k="name" v="Franzensfeste - Fortezza"/>
    <tag k="name:de" v="Franzensfeste"/>
    <tag k="name:it" v="Fortezza"/>
    <tag k="place" v="village"/>
    <tag k="population" v="892"/>
  </node>
  <node id="64777036" version="7" timestamp="2012-03-03T08:58:25Z" uid="606933" user="immaterial" changeset="10855476" lat="46.789626" lon="11.609977">
    <tag k="ele" v="747"/>
    <tag k="gfoss_id" v="2783"/>
    <tag k="is_in" v="Bozen - Bolzano, Trentino/Südtirol"/>
    <tag k="name" v="Franzensfeste - Fortezza"/>
    <tag k="name:de" v="Franzensfeste"/>
    <tag k="name:it" v="Fortezza"/>
    <tag k="place" v="village"/>
    <tag k="population" v="892"/>
  </node>
  <node id="64777050" version="8" timestamp="2009-09-30T11:50:01Z" uid="36809" user="pfoten_weg_!_" changeset="2687450" lat="46.6398733" lon="11.5663752">
    <tag k="ele" v="525"/>
    <tag k="gfoss_id" v="2773"/>
    <tag k="is_in" v="Bolzano - Bozen, Trentino-Alto Adige, Italy"/>
    <tag k="name" v="Klausen"/>
    <tag k="name:de" v="Klausen"/>
    <tag k="name:it" v="Chiusa"/>
    <tag k="place" v="village"/>
    <tag k="population" v="4613"/>
  </node>
  <node id="64777050" version="9" timestamp="2010-08-13T19:20:43Z" uid="331095" user="klaus2" changeset="5484952" lat="46.6398734" lon="11.5663751">
    <tag k="ele" v="525"/>
    <tag k="gfoss_id" v="2773"/>
    <tag k="is_in" v="Bolzano - Bozen, Trentino-Alto Adige, Italy"/>
    <tag k="name" v="Chiusa - Klausen"/>
    <tag k="name:de" v="Klausen"/>
    <tag k="name:it" v="Chiusa"/>
    <tag k="place" v="village"/>
    <tag k="population" v="4613"/>
  </node>
  <node id="64777050" version="10" timestamp="2011-03-25T09:29:41Z" uid="42429" user="FK270673" changeset="7663847" lat="46.6399618" lon="11.5663322">
    <tag k="ele" v="525"/>
    <tag k="gfoss_id" v="2773"/>
    <tag k="is_in" v="Bolzano - Bozen, Trentino-Alto Adige, Italy"/>
    <tag k="name" v="Chiusa - Klausen"/>
    <tag k="name:de" v="Klausen"/>
    <tag k="name:it" v="Chiusa"/>
    <tag k="place" v="town"/>
    <tag k="population" v="4613"/>
  </node>
  <node id="64777050" version="11" timestamp="2012-03-04T19:30:41Z" uid="606933" user="immaterial" changeset="10872883" lat="46.6399618" lon="11.5663322">
    <tag k="ele" v="525"/>
    <tag k="gfoss_id" v="2773"/>
    <tag k="is_in" v="Bolzano - Bozen, Trentino-Südtirol/Alto Adige, Italy"/>
    <tag k="name" v="Klausen - Chiusa"/>
    <tag k="name:de" v="Klausen"/>
    <tag k="name:it" v="Chiusa"/>
    <tag k="name:lad" v="Tluses"/>
    <tag k="place" v="town"/>
    <tag k="population" v="4613"/>
  </node>
  <node id="64777056" version="5" timestamp="2009-10-13T23:07:41Z" uid="36809" user="pfoten_weg_!_" changeset="2841207" lat="46.806315" lon="11.8371336">
    <tag k="gfoss_id" v="2772"/>
    <tag k="is_in" v="Bolzano - Bozen, Trentino-Alto Adige, Italy"/>
    <tag k="name" v="Chienes - Kiens"/>
    <tag k="name:de" v="Kiens"/>
    <tag k="name:it" v="Chienes"/>
    <tag k="place" v="village"/>
    <tag k="population" v="2641"/>
  </node>
  <node id="64777056" version="6" timestamp="2009-10-17T21:03:34Z" uid="64756" user="alegria6208" changeset="2878386" lat="46.8093808" lon="11.8408721">
    <tag k="gfoss_id" v="2772"/>
    <tag k="is_in" v="Bolzano - Bozen, Trentino-Alto Adige, Italy"/>
    <tag k="name" v="Kiens"/>
    <tag k="name:de" v="Kiens"/>
    <tag k="name:it" v="Chienes"/>
    <tag k="place" v="village"/>
    <tag k="population" v="2641"/>
  </node>
  <node id="64777056" version="7" timestamp="2010-10-20T20:05:16Z" uid="24966" user="alessioz" changeset="6119503" lat="46.8093808" lon="11.8408721">
    <tag k="gfoss_id" v="2772"/>
    <tag k="is_in" v="Bolzano - Bozen, Trentino-Alto Adige, Italy"/>
    <tag k="name" v="Kiens - Chienes"/>
    <tag k="name:de" v="Kiens"/>
    <tag k="name:it" v="Chienes"/>
    <tag k="place" v="village"/>
    <tag k="population" v="2641"/>
  </node>
  <node id="64777062" version="2" timestamp="2007-11-04T11:58:49Z" uid="13367" user="nubok" changeset="406957" lat="46.5666248" lon="11.5609764">
    <tag k="created_by" v="Potlatch 0.4c"/>
    <tag k="gfoss_id" v="2770"/>
    <tag k="is_in" v="Bolzano - Bozen, Trentino-Alto Adige, Italy"/>
    <tag k="name" v="Castelrotto - Kastelruth"/>
    <tag k="place" v="village"/>
    <tag k="population" v="5994"/>
    <tag k="source" v="geodati.gfoss.it"/>
  </node>
  <node id="64777062" version="3" timestamp="2007-11-26T16:37:07Z" uid="17544" user="Donsen64" changeset="627976" lat="46.5666268" lon="11.5609735">
    <tag k="created_by" v="Potlatch 0.5d"/>
    <tag k="gfoss_id" v="2770"/>
    <tag k="is_in" v="Bolzano - Bozen, Trentino-Alto Adige, Italy"/>
    <tag k="name" v="Castelrotto - Kastelruth"/>
    <tag k="place" v="village"/>
    <tag k="population" v="5994"/>
    <tag k="source" v="geodati.gfoss.it"/>
  </node>
  <node id="64777062" version="4" timestamp="2009-07-25T16:18:38Z" uid="74167" user="JeanM" changeset="1935899" lat="46.5666288" lon="11.5609724">
    <tag k="created_by" v="Potlatch 0.5d"/>
    <tag k="gfoss_id" v="2770"/>
    <tag k="is_in" v="Bolzano - Bozen, Trentino-Alto Adige, Italy"/>
    <tag k="name" v="Castelrotto - Kastelruth"/>
    <tag k="name:de" v="Kastelruth"/>
    <tag k="name:it" v="Castelrotto"/>
    <tag k="place" v="village"/>
    <tag k="population" v="5994"/>
    <tag k="source" v="geodati.gfoss.it"/>
  </node>
  <node id="64777062" version="5" timestamp="2009-08-17T15:41:33Z" uid="109925" user="WanMil" changeset="2179422" lat="46.5666288" lon="11.5609724">
    <tag k="gfoss_id" v="2770"/>
    <tag k="is_in" v="Bolzano - Bozen, Trentino-Alto Adige, Italy"/>
    <tag k="name" v="Castelrotto - Kastelruth"/>
    <tag k="name:de" v="Kastelruth"/>
    <tag k="name:it" v="Castelrotto"/>
    <tag k="place" v="village"/>
    <tag k="population" v="5994"/>
    <tag k="source" v="geodati.gfoss.it"/>
  </node>
  <node id="64777062" version="6" timestamp="2009-08-21T19:21:21Z" uid="69238" user="my-STR" changeset="2227427" lat="46.5679393" lon="11.5595953">
    <tag k="gfoss_id" v="2770"/>
    <tag k="is_in" v="Bolzano - Bozen, Trentino-Alto Adige, Italy"/>
    <tag k="name" v="Castelrotto - Kastelruth"/>
    <tag k="name:de" v="Kastelruth"/>
    <tag k="name:it" v="Castelrotto"/>
    <tag k="place" v="village"/>
    <tag k="population" v="5994"/>
    <tag k="source" v="geodati.gfoss.it"/>
  </node>
  <node id="64777062" version="7" timestamp="2009-09-30T11:39:49Z" uid="36809" user="pfoten_weg_!_" changeset="2687353" lat="46.5679393" lon="11.5595953">
    <tag k="gfoss_id" v="2770"/>
    <tag k="is_in" v="Bolzano - Bozen, Trentino-Alto Adige, Italy"/>
    <tag k="name" v="Castelrotto - Kastelruth"/>
    <tag k="name:de" v="Kastelruth"/>
    <tag k="name:it" v="Castelrotto"/>
    <tag k="place" v="village"/>
    <tag k="population" v="5994"/>
  </node>
  <node id="64777062" version="8" timestamp="2010-12-07T20:48:46Z" uid="152074" user="beweta" changeset="6579491" lat="46.5679393" lon="11.5595953">
    <tag k="gfoss_id" v="2770"/>
    <tag k="is_in" v="Bolzano - Bozen, Trentino-Alto Adige, Italy"/>
    <tag k="name" v="Kastelruth - Castelrotto"/>
    <tag k="name:de" v="Kastelruth"/>
    <tag k="name:it" v="Castelrotto"/>
    <tag k="place" v="village"/>
    <tag k="population" v="5994"/>
  </node>
  <node id="64777062" version="9" timestamp="2011-05-29T08:12:41Z" uid="81394" user="olistr" changeset="8278311" lat="46.5679393" lon="11.5595953">
    <tag k="gfoss_id" v="2770"/>
    <tag k="is_in" v="Bolzano - Bozen, Trentino-Alto Adige, Italy"/>
    <tag k="name" v="Kastelruth - Castelrotto"/>
    <tag k="name:de" v="Kastelruth"/>
    <tag k="name:it" v="Castelrotto"/>
    <tag k="place" v="village"/>
    <tag k="population" v="5994"/>
  </node>
  <node id="64777062" version="10" timestamp="2012-03-04T19:30:42Z" uid="606933" user="immaterial" changeset="10872883" lat="46.5679393" lon="11.5595953">
    <tag k="gfoss_id" v="2770"/>
    <tag k="is_in" v="Bolzano - Bozen, Trentino-Südtirol/Alto Adige, Italy"/>
    <tag k="name" v="Kastelruth - Castelrotto"/>
    <tag k="name:de" v="Kastelruth"/>
    <tag k="name:it" v="Castelrotto"/>
    <tag k="place" v="village"/>
    <tag k="population" v="5994"/>
  </node>
  <node id="64777096" version="3" timestamp="2009-10-13T23:09:48Z" uid="36809" user="pfoten_weg_!_" changeset="2841207" lat="46.7934268" lon="11.9833825">
    <tag k="gfoss_id" v="2814"/>
    <tag k="is_in" v="Bolzano - Bozen, Trentino-Alto Adige, Italy"/>
    <tag k="name" v="Perca - Percha"/>
    <tag k="place" v="village"/>
    <tag k="population" v="1313"/>
  </node>
  <node id="64777096" version="4" timestamp="2012-03-03T09:41:48Z" uid="606933" user="immaterial" changeset="10855591" lat="46.7934268" lon="11.9833825">
    <tag k="gfoss_id" v="2814"/>
    <tag k="is_in" v="Bolzano - Bozen, Trentino-Südtirol/Alto Adige, Italy"/>
    <tag k="name" v="Percha"/>
    <tag k="name:it" v="Perca"/>
    <tag k="place" v="village"/>
    <tag k="population" v="1313"/>
  </node>
  <node id="64777101" version="10" timestamp="2009-09-12T02:44:33Z" uid="36809" user="pfoten_weg_!_" changeset="2453290" lat="46.574412" lon="11.6689409">
    <tag k="gfoss_id" v="2812"/>
    <tag k="is_in" v="Bolzano - Bozen, Trentino-Alto Adige, Italy"/>
    <tag k="name" v="St. Ulrich"/>
    <tag k="name:de" v="St. Ulrich"/>
    <tag k="name:it" v="Ortisei"/>
    <tag k="name:lld" v="Urtijëi"/>
    <tag k="place" v="village"/>
    <tag k="population" v="4484"/>
    <tag k="source" v="geodati.gfoss.it"/>
  </node>
  <node id="64777101" version="11" timestamp="2009-10-02T19:10:38Z" uid="64756" user="alegria6208" changeset="2716420" lat="46.574412" lon="11.6689409">
    <tag k="ele" v="1236"/>
    <tag k="gfoss_id" v="2812"/>
    <tag k="is_in" v="Bolzano - Bozen, Trentino-Alto Adige, Italy"/>
    <tag k="name" v="St. Ulrich"/>
    <tag k="name:de" v="St. Ulrich"/>
    <tag k="name:it" v="Ortisei"/>
    <tag k="name:lld" v="Urtijëi"/>
    <tag k="place" v="village"/>
    <tag k="population" v="4484"/>
    <tag k="source" v="geodati.gfoss.it"/>
  </node>
  <node id="64777101" version="12" timestamp="2010-10-20T19:47:26Z" uid="24966" user="alessioz" changeset="6119347" lat="46.574412" lon="11.6689409">
    <tag k="ele" v="1236"/>
    <tag k="gfoss_id" v="2812"/>
    <tag k="is_in" v="Bolzano - Bozen, Trentino-Alto Adige, Italy"/>
    <tag k="name" v="St. Ulrich - Ortisei"/>
    <tag k="name:de" v="St. Ulrich"/>
    <tag k="name:it" v="Ortisei"/>
    <tag k="name:lld" v="Urtijëi"/>
    <tag k="place" v="village"/>
    <tag k="population" v="4484"/>
    <tag k="source" v="geodati.gfoss.it"/>
  </node>
  <node id="64777101" version="13" timestamp="2012-03-02T16:57:57Z" uid="606933" user="immaterial" changeset="10850306" lat="46.574412" lon="11.6689409">
    <tag k="ele" v="1236"/>
    <tag k="gfoss_id" v="2812"/>
    <tag k="is_in" v="Bolzano - Bozen, Trentino-Alto Adige, Italy"/>
    <tag k="name" v="Urtijëi"/>
    <tag k="name:de" v="St. Ulrich"/>
    <tag k="name:it" v="Ortisei"/>
    <tag k="name:lld" v="Urtijëi"/>
    <tag k="place" v="village"/>
    <tag k="population" v="4484"/>
    <tag k="source" v="geodati.gfoss.it"/>
  </node>
  <node id="64777101" version="14" timestamp="2012-03-04T21:26:38Z" uid="606933" user="immaterial" changeset="10874250" lat="46.574412" lon="11.6689409">
    <tag k="ele" v="1236"/>
    <tag k="gfoss_id" v="2812"/>
    <tag k="is_in" v="Bolzano - Bozen, Trentino-Alto Adige, Italy"/>
    <tag k="name" v="Urtijëi"/>
    <tag k="name:de" v="St. Ulrich"/>
    <tag k="name:it" v="Ortisei"/>
    <tag k="name:lad" v="Urtijëi"/>
    <tag k="place" v="village"/>
    <tag k="population" v="4484"/>
    <tag k="source" v="geodati.gfoss.it"/>
  </node>
  <node id="64777108" version="4" timestamp="2009-09-29T00:24:30Z" uid="36809" user="pfoten_weg_!_" changeset="2671824" lat="46.6428262" lon="11.6782762">
    <tag k="gfoss_id" v="2784"/>
    <tag k="is_in" v="Bolzano - Bozen, Trentino-Alto Adige, Italy"/>
    <tag k="name" v="Funes - Villnöß"/>
    <tag k="place" v="village"/>
    <tag k="population" v="2379"/>
  </node>
  <node id="64777108" version="5" timestamp="2009-09-29T00:53:42Z" uid="36809" user="pfoten_weg_!_" changeset="2671929" lat="46.6428262" lon="11.6782762">
    <tag k="gfoss_id" v="2784"/>
    <tag k="is_in" v="Bolzano - Bozen, Trentino-Alto Adige, Italy"/>
    <tag k="name" v="Funes - Villnöß"/>
    <tag k="place" v="village"/>
    <tag k="population" v="2379"/>
  </node>
  <node id="64777108" version="6" timestamp="2009-09-29T01:20:10Z" uid="36809" user="pfoten_weg_!_" changeset="2671929" lat="46.6428262" lon="11.6782762">
    <tag k="gfoss_id" v="2784"/>
    <tag k="is_in" v="Bolzano - Bozen, Trentino-Alto Adige, Italy"/>
    <tag k="name" v="Funes - Villnöß"/>
    <tag k="place" v="village"/>
    <tag k="population" v="2379"/>
  </node>
  <node id="64777108" version="7" timestamp="2009-09-29T01:51:05Z" uid="36809" user="pfoten_weg_!_" changeset="2672141" lat="46.6428262" lon="11.6782762">
    <tag k="gfoss_id" v="2784"/>
    <tag k="is_in" v="Bolzano - Bozen, Trentino-Alto Adige, Italy"/>
    <tag k="name" v="Funes - Villnöß"/>
    <tag k="place" v="village"/>
    <tag k="population" v="2379"/>
  </node>
  <node id="64777108" version="8" timestamp="2009-09-29T02:24:49Z" uid="36809" user="pfoten_weg_!_" changeset="2672254" lat="46.6428262" lon="11.6782762">
    <tag k="gfoss_id" v="2784"/>
    <tag k="is_in" v="Bolzano - Bozen, Trentino-Alto Adige, Italy"/>
    <tag k="name" v="Funes - Villnöß"/>
    <tag k="place" v="village"/>
    <tag k="population" v="2379"/>
  </node>
  <node id="64777108" version="9" timestamp="2009-10-01T11:19:37Z" uid="64756" user="alegria6208" changeset="2699203" lat="46.6428262" lon="11.6782762">
    <tag k="gfoss_id" v="2784"/>
    <tag k="is_in" v="Bolzano - Bozen, Trentino-Alto Adige, Italy"/>
    <tag k="name" v="Funes"/>
    <tag k="name:de" v="Villnöss"/>
    <tag k="name:it" v="Funes"/>
    <tag k="place" v="village"/>
    <tag k="population" v="2379"/>
  </node>
  <node id="64777108" version="10" timestamp="2009-10-01T11:31:35Z" uid="64756" user="alegria6208" changeset="2699313" lat="46.6428262" lon="11.6782762">
    <tag k="ele" v="1143"/>
    <tag k="gfoss_id" v="2784"/>
    <tag k="is_in" v="Bolzano - Bozen, Trentino-Alto Adige, Italy"/>
    <tag k="name" v="St. Peter"/>
    <tag k="name:de" v="St. Peter"/>
    <tag k="name:it" v="San Pietro"/>
    <tag k="place" v="village"/>
    <tag k="population" v="2379"/>
  </node>
  <node id="64777108" version="11" timestamp="2009-10-01T11:39:35Z" uid="64756" user="alegria6208" changeset="2699350" lat="46.6422738" lon="11.6813109">
    <tag k="ele" v="1143"/>
    <tag k="gfoss_id" v="2784"/>
    <tag k="is_in" v="Bolzano - Bozen, Trentino-Alto Adige, Italy"/>
    <tag k="name" v="St. Peter"/>
    <tag k="name:de" v="St. Peter"/>
    <tag k="name:it" v="San Pietro"/>
    <tag k="place" v="village"/>
    <tag k="population" v="2379"/>
  </node>
  <node id="64777108" version="12" timestamp="2010-08-11T18:51:56Z" uid="331095" user="klaus2" changeset="5465726" lat="46.6422738" lon="11.6813109">
    <tag k="ele" v="1143"/>
    <tag k="gfoss_id" v="2784"/>
    <tag k="is_in" v="Bolzano - Bozen, Trentino-Alto Adige, Italy"/>
    <tag k="name" v="St. Peter - San Pietro"/>
    <tag k="name:de" v="St. Peter"/>
    <tag k="name:it" v="San Pietro"/>
    <tag k="place" v="village"/>
    <tag k="population" v="2379"/>
  </node>
  <node id="64777108" version="13" timestamp="2011-06-24T15:39:55Z" uid="416514" user="sundemon" changeset="8534087" lat="46.6428631" lon="11.6813753">
    <tag k="ele" v="1143"/>
    <tag k="gfoss_id" v="2784"/>
    <tag k="is_in" v="Bolzano - Bozen, Trentino-Alto Adige, Italy"/>
    <tag k="name" v="St. Peter - San Pietro"/>
    <tag k="name:de" v="St. Peter"/>
    <tag k="name:it" v="San Pietro"/>
    <tag k="place" v="village"/>
    <tag k="population" v="2379"/>
  </node>
  <node id="64777112" version="5" timestamp="2009-09-29T00:17:30Z" uid="36809" user="pfoten_weg_!_" changeset="2671824" lat="46.6087256" lon="11.5659774">
    <tag k="gfoss_id" v="2790"/>
    <tag k="is_in" v="Bolzano - Bozen, Trentino-Alto Adige, Italy"/>
    <tag k="name" v="Lajen"/>
    <tag k="name:de" v="Lajen"/>
    <tag k="name:it" v="Laion"/>
    <tag k="place" v="village"/>
    <tag k="population" v="2261"/>
    <tag k="source" v="geodati.gfoss.it"/>
  </node>
  <node id="64777112" version="6" timestamp="2009-09-29T00:47:34Z" uid="36809" user="pfoten_weg_!_" changeset="2671929" lat="46.6087256" lon="11.5659774">
    <tag k="gfoss_id" v="2790"/>
    <tag k="is_in" v="Bolzano - Bozen, Trentino-Alto Adige, Italy"/>
    <tag k="name" v="Lajen"/>
    <tag k="name:de" v="Lajen"/>
    <tag k="name:it" v="Laion"/>
    <tag k="place" v="village"/>
    <tag k="population" v="2261"/>
    <tag k="source" v="geodati.gfoss.it"/>
  </node>
  <node id="64777112" version="7" timestamp="2009-09-29T01:13:53Z" uid="36809" user="pfoten_weg_!_" changeset="2671929" lat="46.6087256" lon="11.5659774">
    <tag k="gfoss_id" v="2790"/>
    <tag k="is_in" v="Bolzano - Bozen, Trentino-Alto Adige, Italy"/>
    <tag k="name" v="Lajen"/>
    <tag k="name:de" v="Lajen"/>
    <tag k="name:it" v="Laion"/>
    <tag k="place" v="village"/>
    <tag k="population" v="2261"/>
    <tag k="source" v="geodati.gfoss.it"/>
  </node>
  <node id="64777112" version="8" timestamp="2009-09-29T01:44:29Z" uid="36809" user="pfoten_weg_!_" changeset="2672141" lat="46.6087256" lon="11.5659774">
    <tag k="gfoss_id" v="2790"/>
    <tag k="is_in" v="Bolzano - Bozen, Trentino-Alto Adige, Italy"/>
    <tag k="name" v="Lajen"/>
    <tag k="name:de" v="Lajen"/>
    <tag k="name:it" v="Laion"/>
    <tag k="place" v="village"/>
    <tag k="population" v="2261"/>
    <tag k="source" v="geodati.gfoss.it"/>
  </node>
  <node id="64777112" version="9" timestamp="2009-09-29T02:19:08Z" uid="36809" user="pfoten_weg_!_" changeset="2672254" lat="46.6087256" lon="11.5659774">
    <tag k="gfoss_id" v="2790"/>
    <tag k="is_in" v="Bolzano - Bozen, Trentino-Alto Adige, Italy"/>
    <tag k="name" v="Lajen"/>
    <tag k="name:de" v="Lajen"/>
    <tag k="name:it" v="Laion"/>
    <tag k="place" v="village"/>
    <tag k="population" v="2261"/>
    <tag k="source" v="geodati.gfoss.it"/>
  </node>
  <node id="64777112" version="10" timestamp="2009-09-30T11:50:00Z" uid="36809" user="pfoten_weg_!_" changeset="2687450" lat="46.6087256" lon="11.5659774">
    <tag k="gfoss_id" v="2790"/>
    <tag k="is_in" v="Bolzano - Bozen, Trentino-Alto Adige, Italy"/>
    <tag k="name" v="Lajen"/>
    <tag k="name:de" v="Lajen"/>
    <tag k="name:it" v="Laion"/>
    <tag k="place" v="village"/>
    <tag k="population" v="2261"/>
  </node>
  <node id="64777112" version="11" timestamp="2009-10-01T11:19:38Z" uid="64756" user="alegria6208" changeset="2699203" lat="46.6087256" lon="11.5659774">
    <tag k="ele" v="1103"/>
    <tag k="gfoss_id" v="2790"/>
    <tag k="is_in" v="Bolzano - Bozen, Trentino-Alto Adige, Italy"/>
    <tag k="name" v="Lajen"/>
    <tag k="name:de" v="Lajen"/>
    <tag k="name:it" v="Laion"/>
    <tag k="place" v="village"/>
    <tag k="population" v="2261"/>
  </node>
  <node id="64777112" version="12" timestamp="2009-10-01T11:39:35Z" uid="64756" user="alegria6208" changeset="2699350" lat="46.6084297" lon="11.5654174">
    <tag k="ele" v="1103"/>
    <tag k="gfoss_id" v="2790"/>
    <tag k="is_in" v="Bolzano - Bozen, Trentino-Alto Adige, Italy"/>
    <tag k="name" v="Lajen"/>
    <tag k="name:de" v="Lajen"/>
    <tag k="name:it" v="Laion"/>
    <tag k="place" v="village"/>
    <tag k="population" v="2261"/>
  </node>
  <node id="64777112" version="13" timestamp="2009-10-02T12:50:33Z" uid="64756" user="alegria6208" changeset="2712194" lat="46.6090968" lon="11.5647922">
    <tag k="ele" v="1103"/>
    <tag k="gfoss_id" v="2790"/>
    <tag k="is_in" v="Bolzano - Bozen, Trentino-Alto Adige, Italy"/>
    <tag k="name" v="Lajen"/>
    <tag k="name:de" v="Lajen"/>
    <tag k="name:it" v="Laion"/>
    <tag k="place" v="village"/>
    <tag k="population" v="2261"/>
  </node>
  <node id="64777112" version="14" timestamp="2010-08-09T10:43:54Z" uid="330312" user="omsopenstreetmap" changeset="5442345" lat="46.6092647" lon="11.5642355">
    <tag k="ele" v="1103"/>
    <tag k="gfoss_id" v="2790"/>
    <tag k="is_in" v="Bolzano - Bozen, Trentino-Alto Adige, Italy"/>
    <tag k="name" v="Lajen"/>
    <tag k="name:de" v="Lajen"/>
    <tag k="name:it" v="Laion"/>
    <tag k="place" v="village"/>
    <tag k="population" v="2261"/>
  </node>
  <node id="64777117" version="4" timestamp="2009-10-13T23:46:07Z" uid="36809" user="pfoten_weg_!_" changeset="2841284" lat="46.6821759" lon="11.1219031">
    <tag k="gfoss_id" v="2789"/>
    <tag k="is_in" v="Bolzano - Bozen, Trentino-Alto Adige, Italy"/>
    <tag k="name" v="Lagundo - Algund"/>
    <tag k="place" v="village"/>
    <tag k="population" v="4169"/>
    <tag k="source" v="geodati.gfoss.it"/>
  </node>
  <node id="64777117" version="5" timestamp="2010-06-08T15:37:39Z" uid="7596" user="ck3d" changeset="4938101" lat="46.6821759" lon="11.1219031">
    <tag k="gfoss_id" v="2789"/>
    <tag k="is_in" v="Bolzano - Bozen, Trentino-Alto Adige, Italy"/>
    <tag k="name" v="Lagundo - Algund"/>
    <tag k="name:de" v="Algund"/>
    <tag k="name:it" v="Lagundo"/>
    <tag k="place" v="village"/>
    <tag k="population" v="4169"/>
    <tag k="source" v="geodati.gfoss.it"/>
    <tag k="wikipedia:de" v="Algund"/>
    <tag k="wikipedia:it" v="Lagundo"/>
  </node>
  <node id="64777117" version="6" timestamp="2012-03-03T20:28:07Z" uid="606933" user="immaterial" changeset="10861934" lat="46.6821759" lon="11.1219031">
    <tag k="gfoss_id" v="2789"/>
    <tag k="is_in" v="Bozen-Bolzano, Südtirol, Trentino-Südtirol/AltoAdige"/>
    <tag k="name" v="Algund - Lagundo"/>
    <tag k="name:de" v="Algund"/>
    <tag k="name:it" v="Lagundo"/>
    <tag k="place" v="village"/>
    <tag k="population" v="4169"/>
    <tag k="source" v="geodati.gfoss.it"/>
    <tag k="wikipedia:de" v="Algund"/>
    <tag k="wikipedia:it" v="Lagundo"/>
  </node>
  <node id="64777121" version="2" timestamp="2009-10-13T23:06:05Z" uid="36809" user="pfoten_weg_!_" changeset="2841207" lat="46.746227" lon="11.760981">
    <tag k="gfoss_id" v="2795"/>
    <tag k="is_in" v="Bolzano - Bozen, Trentino-Alto Adige, Italy"/>
    <tag k="name" v="Luson - Luesen"/>
    <tag k="place" v="village"/>
    <tag k="population" v="1455"/>
  </node>
  <node id="64777121" version="3" timestamp="2012-03-02T17:59:30Z" uid="606933" user="immaterial" changeset="10850864" lat="46.746227" lon="11.760981">
    <tag k="gfoss_id" v="2795"/>
    <tag k="is_in" v="Bolzano - Bozen, Trentino-Alto Adige, Italy"/>
    <tag k="name" v="Lüsen - Luson"/>
    <tag k="place" v="village"/>
    <tag k="population" v="1455"/>
  </node>
  <node id="64777128" version="5" timestamp="2009-10-13T23:07:17Z" uid="36809" user="pfoten_weg_!_" changeset="2841207" lat="46.698424" lon="11.9350933">
    <tag k="gfoss_id" v="2798"/>
    <tag k="is_in" v="Bolzano - Bozen, Trentino-Alto Adige, Italy"/>
    <tag k="name" v="San Vigilio di Marebbe"/>
    <tag k="name:de" v="Enneberg"/>
    <tag k="name:lad" v="Mareo"/>
    <tag k="place" v="village"/>
    <tag k="population" v="2682"/>
  </node>
  <node id="64777128" version="6" timestamp="2009-10-14T17:36:20Z" uid="64756" user="alegria6208" changeset="2848191" lat="46.698424" lon="11.9350933">
    <tag k="gfoss_id" v="2798"/>
    <tag k="is_in" v="Bolzano - Bozen, Trentino-Alto Adige, Italy"/>
    <tag k="name" v="San Vigilio di Marebbe"/>
    <tag k="name:de" v="St. Vigil in Enneberg"/>
    <tag k="name:it" v="San Vigilio di Marebbe"/>
    <tag k="name:lad" v="Mareo"/>
    <tag k="place" v="village"/>
    <tag k="population" v="2682"/>
  </node>
  <node id="64777128" version="7" timestamp="2010-08-11T00:27:06Z" uid="69102" user="Mathbau" changeset="5458863" lat="46.698424" lon="11.9350933">
    <tag k="gfoss_id" v="2798"/>
    <tag k="is_in" v="Bolzano - Bozen, Trentino-Alto Adige, Italy"/>
    <tag k="name" v="Al Plan de Mareo"/>
    <tag k="name:de" v="St. Vigil in Enneberg"/>
    <tag k="name:it" v="San Vigilio di Marebbe"/>
    <tag k="name:lad" v="Al Plan de Mareo"/>
    <tag k="place" v="village"/>
    <tag k="population" v="2682"/>
  </node>
  <node id="64777128" version="8" timestamp="2011-09-04T19:13:54Z" uid="504240" user="Triv" changeset="9211636" lat="46.698424" lon="11.9350933">
    <tag k="gfoss_id" v="2798"/>
    <tag k="is_in" v="Bolzano - Bozen, Trentino-Alto Adige, Italy"/>
    <tag k="name" v="Al Plan de Mareo S Vigilio di Marebbe"/>
    <tag k="name:de" v="St. Vigil in Enneberg"/>
    <tag k="name:it" v="San Vigilio di Marebbe"/>
    <tag k="name:lad" v="Al Plan de Mareo"/>
    <tag k="place" v="village"/>
    <tag k="population" v="2682"/>
  </node>
  <node id="64777128" version="9" timestamp="2012-03-03T09:33:19Z" uid="606933" user="immaterial" changeset="10855591" lat="46.698424" lon="11.9350933">
    <tag k="gfoss_id" v="2798"/>
    <tag k="is_in" v="Bolzano - Bozen, Trentino-Alto Adige, Italy"/>
    <tag k="name" v="Al Plan"/>
    <tag k="name:de" v="St. Vigil in Enneberg"/>
    <tag k="name:it" v="San Vigilio di Marebbe"/>
    <tag k="name:lad" v="Al Plan de Mareo"/>
    <tag k="place" v="village"/>
    <tag k="population" v="2682"/>
  </node>
  <node id="64777130" version="5" timestamp="2009-10-13T23:34:29Z" uid="36809" user="pfoten_weg_!_" changeset="2841284" lat="46.6555817" lon="11.1405849">
    <tag k="gfoss_id" v="2799"/>
    <tag k="is_in" v="Bolzano - Bozen, Trentino-Alto Adige, Italy"/>
    <tag k="name" v="Marlengo - Marling"/>
    <tag k="place" v="village"/>
    <tag k="population" v="2197"/>
    <tag k="source" v="geodati.gfoss.it"/>
  </node>
  <node id="64777130" version="6" timestamp="2012-03-05T22:30:09Z" uid="606933" user="immaterial" changeset="10885350" lat="46.6555817" lon="11.1405849">
    <tag k="gfoss_id" v="2799"/>
    <tag k="is_in" v="Bolzano - Bozen, Trentino-Südtirol/Alto Adige, Italy"/>
    <tag k="name" v="Marling - Marlengo"/>
    <tag k="place" v="village"/>
    <tag k="population" v="2197"/>
    <tag k="source" v="geodati.gfoss.it"/>
  </node>
  <node id="64777140" version="3" timestamp="2009-10-13T23:51:57Z" uid="36809" user="pfoten_weg_!_" changeset="2841284" lat="46.7839249" lon="11.2272739">
    <tag k="gfoss_id" v="2833"/>
    <tag k="is_in" v="Bolzano - Bozen, Trentino-Alto Adige, Italy"/>
    <tag k="name" v="San Martino in Passiria - St. Martin in Passeier"/>
    <tag k="place" v="village"/>
    <tag k="population" v="3100"/>
    <tag k="source" v="geodati.gfoss.it"/>
  </node>
  <node id="64777140" version="4" timestamp="2009-10-25T16:01:44Z" uid="64756" user="alegria6208" changeset="2947493" lat="46.7839249" lon="11.2272739">
    <tag k="gfoss_id" v="2833"/>
    <tag k="is_in" v="Bolzano - Bozen, Trentino-Alto Adige, Italy"/>
    <tag k="name" v="St. Martin in Passeier"/>
    <tag k="name:de" v="St. Martin in Passeier"/>
    <tag k="name:it" v="San Martino in Passiria"/>
    <tag k="place" v="village"/>
    <tag k="population" v="3100"/>
    <tag k="source" v="geodati.gfoss.it"/>
  </node>
  <node id="64777140" version="5" timestamp="2009-10-29T21:39:22Z" uid="64756" user="alegria6208" changeset="2985010" lat="46.7839249" lon="11.2272739">
    <tag k="ele" v="595"/>
    <tag k="gfoss_id" v="2833"/>
    <tag k="is_in" v="Bolzano - Bozen, Trentino-Alto Adige, Italy"/>
    <tag k="name" v="St. Martin in Passeier"/>
    <tag k="name:de" v="St. Martin in Passeier"/>
    <tag k="name:it" v="San Martino in Passiria"/>
    <tag k="place" v="village"/>
    <tag k="population" v="3100"/>
    <tag k="source" v="geodati.gfoss.it"/>
  </node>
  <node id="64777148" version="3" timestamp="2009-10-13T23:50:15Z" uid="36809" user="pfoten_weg_!_" changeset="2841284" lat="46.6902727" lon="11.1876783">
    <tag k="gfoss_id" v="2837"/>
    <tag k="is_in" v="Bolzano - Bozen, Trentino-Alto Adige, Italy"/>
    <tag k="name" v="Scena - Schenna"/>
    <tag k="place" v="village"/>
    <tag k="population" v="2677"/>
    <tag k="source" v="geodati.gfoss.it"/>
  </node>
  <node id="64777148" version="4" timestamp="2010-05-11T09:14:22Z" uid="134506" user="kele7" changeset="4666744" lat="46.6902127" lon="11.1881118">
    <tag k="gfoss_id" v="2837"/>
    <tag k="is_in" v="Bolzano - Bozen, Trentino-Alto Adige, Italy"/>
    <tag k="name" v="Scena - Schenna"/>
    <tag k="place" v="village"/>
    <tag k="population" v="2677"/>
    <tag k="source" v="geodati.gfoss.it"/>
  </node>
  <node id="64777148" version="5" timestamp="2012-03-05T22:22:14Z" uid="606933" user="immaterial" changeset="10885284" lat="46.6902127" lon="11.1881118">
    <tag k="gfoss_id" v="2837"/>
    <tag k="is_in" v="Bozen-Bolzano, Südtirol/Alto Adige"/>
    <tag k="name" v="Schenna"/>
    <tag k="name:it" v="Scena"/>
    <tag k="place" v="village"/>
    <tag k="population" v="2677"/>
    <tag k="source" v="geodati.gfoss.it"/>
  </node>
  <node id="64777172" version="4" timestamp="2009-09-30T11:50:00Z" uid="36809" user="pfoten_weg_!_" changeset="2687450" lat="46.597121" lon="11.530879">
    <tag k="gfoss_id" v="2816"/>
    <tag k="is_in" v="Bolzano - Bozen, Trentino-Alto Adige, Italy"/>
    <tag k="name" v="Waidbruck - Ponte Gardena"/>
    <tag k="place" v="village"/>
    <tag k="population" v="181"/>
  </node>
  <node id="64777172" version="5" timestamp="2010-09-09T14:17:55Z" uid="61731" user="Eckloff" changeset="5733075" lat="46.597121" lon="11.530879">
    <tag k="gfoss_id" v="2816"/>
    <tag k="is_in" v="Bolzano - Bozen, Trentino-Alto Adige, Italy"/>
    <tag k="name" v="Waidbruck - Ponte Gardena"/>
    <tag k="name:de" v="Waidbruck"/>
    <tag k="name:it" v="Ponte Gardena"/>
    <tag k="place" v="village"/>
    <tag k="population" v="181"/>
  </node>
  <node id="64777172" version="6" timestamp="2012-03-03T14:14:30Z" uid="606933" user="immaterial" changeset="10857948" lat="46.597121" lon="11.530879">
    <tag k="gfoss_id" v="2816"/>
    <tag k="is_in" v="Bolzano - Bozen, Trentino-Südtirol/Alto Adige, Italy"/>
    <tag k="name" v="Waidbruck - Ponte Gardena"/>
    <tag k="name:de" v="Waidbruck"/>
    <tag k="name:it" v="Ponte Gardena"/>
    <tag k="place" v="village"/>
    <tag k="population" v="181"/>
  </node>
  <node id="64777191" version="3" timestamp="2009-09-30T11:52:30Z" uid="36809" user="pfoten_weg_!_" changeset="2687450" lat="46.797827" lon="11.668078">
    <tag k="ele" v="775"/>
    <tag k="gfoss_id" v="2825"/>
    <tag k="is_in" v="Bolzano - Bozen, Trentino-Alto Adige, Italy"/>
    <tag k="name" v="Mühlbach"/>
    <tag k="name:de" v="Mühlbach"/>
    <tag k="name:it" v="Rio di Pusteria"/>
    <tag k="place" v="village"/>
    <tag k="population" v="2640"/>
  </node>
  <node id="64777191" version="4" timestamp="2010-10-20T20:05:17Z" uid="24966" user="alessioz" changeset="6119503" lat="46.797827" lon="11.668078">
    <tag k="ele" v="775"/>
    <tag k="gfoss_id" v="2825"/>
    <tag k="is_in" v="Bolzano - Bozen, Trentino-Alto Adige, Italy"/>
    <tag k="name" v="Mühlbach - Rio di Pusteria"/>
    <tag k="name:de" v="Mühlbach"/>
    <tag k="name:it" v="Rio di Pusteria"/>
    <tag k="place" v="village"/>
    <tag k="population" v="2640"/>
  </node>
  <node id="64777191" version="5" timestamp="2011-12-14T14:54:08Z" uid="334153" user="Alexander Roalter" changeset="10116571" lat="46.797827" lon="11.668078"/>
  <node id="64777192" version="3" timestamp="2009-09-30T11:53:26Z" uid="36809" user="pfoten_weg_!_" changeset="2687450" lat="46.779527" lon="11.690479">
    <tag k="gfoss_id" v="2826"/>
    <tag k="is_in" v="Bolzano - Bozen, Trentino-Alto Adige, Italy"/>
    <tag k="name" v="Rodengo - Rodeneck"/>
    <tag k="name:de" v="Rodeneck"/>
    <tag k="name:it" v="Rodengo"/>
    <tag k="place" v="village"/>
    <tag k="population" v="1157"/>
  </node>
  <node id="64777192" version="4" timestamp="2009-10-23T12:18:19Z" uid="64756" user="alegria6208" changeset="2929343" lat="46.7807747" lon="11.6897571">
    <tag k="gfoss_id" v="2826"/>
    <tag k="is_in" v="Bolzano - Bozen, Trentino-Alto Adige, Italy"/>
    <tag k="name" v="Rodeneck"/>
    <tag k="name:de" v="Rodeneck"/>
    <tag k="name:it" v="Rodengo"/>
    <tag k="place" v="village"/>
    <tag k="population" v="1157"/>
  </node>
  <node id="64777192" version="5" timestamp="2009-10-23T13:12:30Z" uid="64756" user="alegria6208" changeset="2929712" lat="46.7807747" lon="11.6897571">
    <tag k="ele" v="882"/>
    <tag k="gfoss_id" v="2826"/>
    <tag k="is_in" v="Bolzano - Bozen, Trentino-Alto Adige, Italy"/>
    <tag k="name" v="Rodeneck"/>
    <tag k="name:de" v="Rodeneck"/>
    <tag k="name:it" v="Rodengo"/>
    <tag k="place" v="village"/>
    <tag k="population" v="1157"/>
  </node>
  <node id="64777202" version="3" timestamp="2009-10-13T23:08:04Z" uid="36809" user="pfoten_weg_!_" changeset="2841207" lat="46.7859282" lon="11.9093793">
    <tag k="gfoss_id" v="2831"/>
    <tag k="is_in" v="Bolzano - Bozen, Trentino-Alto Adige, Italy"/>
    <tag k="name" v="San Lorenzo di Sebato - St. Lorenzen"/>
    <tag k="place" v="village"/>
    <tag k="population" v="3438"/>
  </node>
  <node id="64777202" version="4" timestamp="2009-10-17T20:41:27Z" uid="64756" user="alegria6208" changeset="2878212" lat="46.7859127" lon="11.9088827">
    <tag k="gfoss_id" v="2831"/>
    <tag k="is_in" v="Bolzano - Bozen, Trentino-Alto Adige, Italy"/>
    <tag k="name" v="San Lorenzo di Sebato - St. Lorenzen"/>
    <tag k="place" v="village"/>
    <tag k="population" v="3438"/>
  </node>
  <node id="64777202" version="5" timestamp="2009-10-17T20:53:20Z" uid="64756" user="alegria6208" changeset="2878301" lat="46.7833779" lon="11.9029959">
    <tag k="ele" v="810"/>
    <tag k="gfoss_id" v="2831"/>
    <tag k="is_in" v="Bolzano - Bozen, Trentino-Alto Adige, Italy"/>
    <tag k="name" v="St. Lorenzen"/>
    <tag k="name:de" v="St. Lorenzen"/>
    <tag k="name:it" v="San Lorenzo di Sebato"/>
    <tag k="place" v="village"/>
    <tag k="population" v="3438"/>
  </node>
  <node id="64777202" version="6" timestamp="2010-10-26T17:49:21Z" uid="334153" user="Alexander Roalter" changeset="6184864" lat="46.7834543" lon="11.9030709">
    <tag k="ele" v="810"/>
    <tag k="gfoss_id" v="2831"/>
    <tag k="is_in" v="Bolzano - Bozen, Trentino-Alto Adige, Italy"/>
    <tag k="name" v="St. Lorenzen - San Lorenzo di Sebato"/>
    <tag k="name:de" v="St. Lorenzen"/>
    <tag k="name:it" v="San Lorenzo di Sebato"/>
    <tag k="place" v="village"/>
    <tag k="population" v="3438"/>
  </node>
  <node id="64777205" version="3" timestamp="2009-10-13T23:06:20Z" uid="36809" user="pfoten_weg_!_" changeset="2841207" lat="46.681526" lon="11.898086">
    <tag k="gfoss_id" v="2832"/>
    <tag k="is_in" v="Bolzano - Bozen, Trentino-Alto Adige, Italy"/>
    <tag k="name" v="San Martino in Badia"/>
    <tag k="name:de" v="St. Martin in Thurn"/>
    <tag k="name:lad" v="San Martin de Tor"/>
    <tag k="place" v="village"/>
    <tag k="population" v="1690"/>
  </node>
  <node id="64777205" version="4" timestamp="2009-10-14T15:07:35Z" uid="64756" user="alegria6208" changeset="2846732" lat="46.6819858" lon="11.8983466">
    <tag k="gfoss_id" v="2832"/>
    <tag k="is_in" v="Bolzano - Bozen, Trentino-Alto Adige, Italy"/>
    <tag k="name" v="San Martino in Badia"/>
    <tag k="name:de" v="St. Martin in Thurn"/>
    <tag k="name:lad" v="San Martin de Tor"/>
    <tag k="place" v="village"/>
    <tag k="population" v="1690"/>
  </node>
  <node id="64777205" version="5" timestamp="2009-10-14T16:06:04Z" uid="64756" user="alegria6208" changeset="2847296" lat="46.6819858" lon="11.8983466">
    <tag k="ele" v="1127"/>
    <tag k="gfoss_id" v="2832"/>
    <tag k="is_in" v="Bolzano - Bozen, Trentino-Alto Adige, Italy"/>
    <tag k="name" v="San Martino in Badia"/>
    <tag k="name:de" v="St. Martin in Thurn"/>
    <tag k="name:it" v="San Martino in Badia"/>
    <tag k="name:lad" v="San Martin de Tor"/>
    <tag k="place" v="village"/>
    <tag k="population" v="1690"/>
  </node>
  <node id="64777205" version="6" timestamp="2009-10-14T20:12:22Z" uid="64756" user="alegria6208" changeset="2849864" lat="46.6819858" lon="11.8983466">
    <tag k="ele" v="1127"/>
    <tag k="gfoss_id" v="2832"/>
    <tag k="is_in" v="Bolzano - Bozen, Trentino-Alto Adige, Italy"/>
    <tag k="name" v="St. Martin in Thurn"/>
    <tag k="name:de" v="St. Martin in Thurn"/>
    <tag k="name:it" v="San Martino in Badia"/>
    <tag k="name:lad" v="San Martin de Tor"/>
    <tag k="place" v="village"/>
    <tag k="population" v="1690"/>
  </node>
  <node id="64777205" version="7" timestamp="2012-02-18T12:53:12Z" uid="606933" user="immaterial" changeset="10719891" lat="46.6819858" lon="11.8983466">
    <tag k="ele" v="1127"/>
    <tag k="gfoss_id" v="2832"/>
    <tag k="is_in" v="Bolzano - Bozen, Trentino-Alto Adige, Italy"/>
    <tag k="name" v="San Martin de Tor - St. Martin in Thurn"/>
    <tag k="name:de" v="St. Martin in Thurn"/>
    <tag k="name:it" v="San Martino in Badia"/>
    <tag k="name:lad" v="San Martin de Tor"/>
    <tag k="place" v="village"/>
    <tag k="population" v="1690"/>
  </node>
  <node id="64777205" version="8" timestamp="2012-03-03T09:33:19Z" uid="606933" user="immaterial" changeset="10855591" lat="46.6819858" lon="11.8983466">
    <tag k="ele" v="1127"/>
    <tag k="gfoss_id" v="2832"/>
    <tag k="is_in" v="Bolzano - Bozen, Trentino-Alto Adige, Italy"/>
    <tag k="name" v="San Martin de Tor"/>
    <tag k="name:de" v="St. Martin in Thurn"/>
    <tag k="name:it" v="San Martino in Badia"/>
    <tag k="name:lad" v="San Martin de Tor"/>
    <tag k="place" v="village"/>
    <tag k="population" v="1690"/>
  </node>
  <node id="64777206" version="2" timestamp="2009-10-13T23:50:23Z" uid="36809" user="pfoten_weg_!_" changeset="2841284" lat="46.70372" lon="11.181669">
    <tag k="gfoss_id" v="2824"/>
    <tag k="is_in" v="Bolzano - Bozen, Trentino-Alto Adige, Italy"/>
    <tag k="name" v="Rifiano - Riffian"/>
    <tag k="place" v="village"/>
    <tag k="population" v="1192"/>
    <tag k="source" v="geodati.gfoss.it"/>
  </node>
  <node id="64777206" version="3" timestamp="2011-03-21T18:43:57Z" uid="76312" user="scratera" changeset="7630363" lat="46.70372" lon="11.181669">
    <tag k="gfoss_id" v="2824"/>
    <tag k="is_in" v="Bolzano - Bozen, Trentino-Alto Adige, Italy"/>
    <tag k="name" v="Rifiano - Riffian"/>
    <tag k="place" v="village"/>
    <tag k="population" v="1192"/>
    <tag k="source" v="geodati.gfoss.it"/>
  </node>
  <node id="64777212" version="4" timestamp="2009-09-30T11:50:02Z" uid="36809" user="pfoten_weg_!_" changeset="2687450" lat="46.6694643" lon="11.5986352">
    <tag k="gfoss_id" v="2865"/>
    <tag k="is_in" v="Bolzano - Bozen, Trentino-Alto Adige, Italy"/>
    <tag k="name" v="Feldthurns"/>
    <tag k="name:de" v="Feldthurns"/>
    <tag k="name:it" v="Velturno"/>
    <tag k="place" v="village"/>
    <tag k="population" v="2541"/>
  </node>
  <node id="64777212" version="5" timestamp="2009-10-01T11:31:35Z" uid="64756" user="alegria6208" changeset="2699313" lat="46.6694643" lon="11.5986352">
    <tag k="ele" v="856"/>
    <tag k="gfoss_id" v="2865"/>
    <tag k="is_in" v="Bolzano - Bozen, Trentino-Alto Adige, Italy"/>
    <tag k="name" v="Feldthurns"/>
    <tag k="name:de" v="Feldthurns"/>
    <tag k="name:it" v="Velturno"/>
    <tag k="place" v="village"/>
    <tag k="population" v="2541"/>
  </node>
  <node id="64777212" version="6" timestamp="2009-10-01T11:39:35Z" uid="64756" user="alegria6208" changeset="2699350" lat="46.6690623" lon="11.5981528">
    <tag k="ele" v="856"/>
    <tag k="gfoss_id" v="2865"/>
    <tag k="is_in" v="Bolzano - Bozen, Trentino-Alto Adige, Italy"/>
    <tag k="name" v="Feldthurns"/>
    <tag k="name:de" v="Feldthurns"/>
    <tag k="name:it" v="Velturno"/>
    <tag k="place" v="village"/>
    <tag k="population" v="2541"/>
  </node>
  <node id="64777226" version="4" timestamp="2009-10-11T22:51:25Z" uid="36809" user="pfoten_weg_!_" changeset="2821011" lat="46.4683162" lon="11.5276758">
    <tag k="gfoss_id" v="2849"/>
    <tag k="is_in" v="Bolzano - Bozen, Trentino-Alto Adige, Italy"/>
    <tag k="name:de" v="Tiers"/>
    <tag k="name:it" v="Tires"/>
    <tag k="place" v="village"/>
    <tag k="population" v="884"/>
  </node>
  <node id="64777226" version="5" timestamp="2010-03-05T22:54:20Z" uid="132225" user="MaximusIT" changeset="4045651" lat="46.4683162" lon="11.5276758">
    <tag k="gfoss_id" v="2849"/>
    <tag k="is_in" v="Bolzano - Bozen, Trentino-Alto Adige, Italy"/>
    <tag k="name" v="Tiers - Tires"/>
    <tag k="name:de" v="Tiers"/>
    <tag k="name:it" v="Tires"/>
    <tag k="place" v="village"/>
    <tag k="population" v="884"/>
  </node>
  <node id="64777228" version="2" timestamp="2009-10-13T23:47:30Z" uid="36809" user="pfoten_weg_!_" changeset="2841284" lat="46.69102" lon="11.154268">
    <tag k="gfoss_id" v="2850"/>
    <tag k="is_in" v="Bolzano - Bozen, Trentino-Alto Adige, Italy"/>
    <tag k="name" v="Tirolo - Tirol"/>
    <tag k="place" v="village"/>
    <tag k="population" v="2356"/>
    <tag k="source" v="geodati.gfoss.it"/>
  </node>
  <node id="64777228" version="3" timestamp="2011-07-31T12:26:11Z" uid="69102" user="Mathbau" changeset="8880422" lat="46.69102" lon="11.154268">
    <tag k="gfoss_id" v="2850"/>
    <tag k="is_in" v="Bolzano - Bozen, Trentino-Alto Adige, Italy"/>
    <tag k="name" v="Tirol - Tirolo"/>
    <tag k="name:de" v="Tirol"/>
    <tag k="name:it" v="Tirolo"/>
    <tag k="place" v="village"/>
    <tag k="population" v="2356"/>
    <tag k="source" v="geodati.gfoss.it"/>
  </node>
  <node id="64777231" version="5" timestamp="2009-09-29T00:18:22Z" uid="36809" user="pfoten_weg_!_" changeset="2671824" lat="46.6308262" lon="11.537076">
    <tag k="gfoss_id" v="2863"/>
    <tag k="is_in" v="Bolzano - Bozen, Trentino-Alto Adige, Italy"/>
    <tag k="name" v="Villanders - Villandro"/>
    <tag k="name:de" v="Villanders"/>
    <tag k="name:it" v="Villandro"/>
    <tag k="place" v="village"/>
    <tag k="population" v="1830"/>
    <tag k="source" v="geodati.gfoss.it"/>
  </node>
  <node id="64777231" version="6" timestamp="2009-09-29T00:48:12Z" uid="36809" user="pfoten_weg_!_" changeset="2671929" lat="46.6308262" lon="11.537076">
    <tag k="gfoss_id" v="2863"/>
    <tag k="is_in" v="Bolzano - Bozen, Trentino-Alto Adige, Italy"/>
    <tag k="name" v="Villanders - Villandro"/>
    <tag k="name:de" v="Villanders"/>
    <tag k="name:it" v="Villandro"/>
    <tag k="place" v="village"/>
    <tag k="population" v="1830"/>
    <tag k="source" v="geodati.gfoss.it"/>
  </node>
  <node id="64777231" version="7" timestamp="2009-09-29T01:14:32Z" uid="36809" user="pfoten_weg_!_" changeset="2671929" lat="46.6308262" lon="11.537076">
    <tag k="gfoss_id" v="2863"/>
    <tag k="is_in" v="Bolzano - Bozen, Trentino-Alto Adige, Italy"/>
    <tag k="name" v="Villanders - Villandro"/>
    <tag k="name:de" v="Villanders"/>
    <tag k="name:it" v="Villandro"/>
    <tag k="place" v="village"/>
    <tag k="population" v="1830"/>
    <tag k="source" v="geodati.gfoss.it"/>
  </node>
  <node id="64777231" version="8" timestamp="2009-09-29T01:45:09Z" uid="36809" user="pfoten_weg_!_" changeset="2672141" lat="46.6308262" lon="11.537076">
    <tag k="gfoss_id" v="2863"/>
    <tag k="is_in" v="Bolzano - Bozen, Trentino-Alto Adige, Italy"/>
    <tag k="name" v="Villanders - Villandro"/>
    <tag k="name:de" v="Villanders"/>
    <tag k="name:it" v="Villandro"/>
    <tag k="place" v="village"/>
    <tag k="population" v="1830"/>
    <tag k="source" v="geodati.gfoss.it"/>
  </node>
  <node id="64777231" version="9" timestamp="2009-09-29T02:19:45Z" uid="36809" user="pfoten_weg_!_" changeset="2672254" lat="46.6308262" lon="11.537076">
    <tag k="gfoss_id" v="2863"/>
    <tag k="is_in" v="Bolzano - Bozen, Trentino-Alto Adige, Italy"/>
    <tag k="name" v="Villanders - Villandro"/>
    <tag k="name:de" v="Villanders"/>
    <tag k="name:it" v="Villandro"/>
    <tag k="place" v="village"/>
    <tag k="population" v="1830"/>
    <tag k="source" v="geodati.gfoss.it"/>
  </node>
  <node id="64777231" version="10" timestamp="2009-09-30T11:50:00Z" uid="36809" user="pfoten_weg_!_" changeset="2687450" lat="46.6308262" lon="11.537076">
    <tag k="gfoss_id" v="2863"/>
    <tag k="is_in" v="Bolzano - Bozen, Trentino-Alto Adige, Italy"/>
    <tag k="name" v="Villanders - Villandro"/>
    <tag k="name:de" v="Villanders"/>
    <tag k="name:it" v="Villandro"/>
    <tag k="place" v="village"/>
    <tag k="population" v="1830"/>
  </node>
  <node id="64777231" version="11" timestamp="2009-10-01T11:19:38Z" uid="64756" user="alegria6208" changeset="2699203" lat="46.6308262" lon="11.537076">
    <tag k="gfoss_id" v="2863"/>
    <tag k="is_in" v="Bolzano - Bozen, Trentino-Alto Adige, Italy"/>
    <tag k="name" v="Villanders"/>
    <tag k="name:de" v="Villanders"/>
    <tag k="name:it" v="Villandro"/>
    <tag k="place" v="village"/>
    <tag k="population" v="1830"/>
  </node>
  <node id="64777231" version="12" timestamp="2010-08-13T19:20:42Z" uid="331095" user="klaus2" changeset="5484952" lat="46.6308262" lon="11.537076">
    <tag k="gfoss_id" v="2863"/>
    <tag k="is_in" v="Bolzano - Bozen, Trentino-Alto Adige, Italy"/>
    <tag k="name" v="Villanders - Villandro"/>
    <tag k="name:de" v="Villanders"/>
    <tag k="name:it" v="Villandro"/>
    <tag k="place" v="village"/>
    <tag k="population" v="1830"/>
  </node>
  <node id="64777231" version="13" timestamp="2012-03-03T09:42:20Z" uid="606933" user="immaterial" changeset="10855548" lat="46.6308262" lon="11.537076">
    <tag k="gfoss_id" v="2863"/>
    <tag k="is_in" v="Bolzano - Bozen, Trentino-Südtirol/Alto Adige, Italy"/>
    <tag k="name" v="Villanders - Villandro"/>
    <tag k="name:de" v="Villanders"/>
    <tag k="name:it" v="Villandro"/>
    <tag k="place" v="village"/>
    <tag k="population" v="1830"/>
  </node>
  <node id="64777232" version="4" timestamp="2009-09-30T12:33:45Z" uid="36809" user="pfoten_weg_!_" changeset="2687886" lat="46.892527" lon="11.430071">
    <tag k="ele" v="948"/>
    <tag k="gfoss_id" v="2864"/>
    <tag k="is_in" v="Bolzano - Bozen, Trentino-Alto Adige, Italy"/>
    <tag k="name" v="Vipiteno - Sterzing"/>
    <tag k="name:de" v="Sterzing"/>
    <tag k="name:it" v="Vipiteno"/>
    <tag k="place" v="village"/>
    <tag k="population" v="5785"/>
  </node>
  <node id="64777232" version="5" timestamp="2009-11-19T00:01:18Z" uid="45481" user="borisC" changeset="3156053" lat="46.892527" lon="11.430071">
    <tag k="ele" v="948"/>
    <tag k="gfoss_id" v="2864"/>
    <tag k="is_in" v="Bolzano - Bozen, Trentino-Alto Adige, Italy"/>
    <tag k="name" v="Vipiteno - Sterzing"/>
    <tag k="name:de" v="Sterzing"/>
    <tag k="name:it" v="Vipiteno"/>
    <tag k="place" v="town"/>
    <tag k="population" v="5785"/>
  </node>
  <node id="64777232" version="6" timestamp="2010-06-12T14:09:38Z" uid="152074" user="beweta" changeset="4970723" lat="46.892527" lon="11.430071">
    <tag k="ele" v="948"/>
    <tag k="gfoss_id" v="2864"/>
    <tag k="is_in" v="Bolzano - Bozen, Trentino-Alto Adige, Italy"/>
    <tag k="name" v="Sterzing - Vipiteno"/>
    <tag k="name:de" v="Sterzing"/>
    <tag k="name:it" v="Vipiteno"/>
    <tag k="place" v="town"/>
    <tag k="population" v="5785"/>
  </node>
  <node id="64777232" version="7" timestamp="2012-03-03T10:00:30Z" uid="606933" user="immaterial" changeset="10855591" lat="46.892527" lon="11.430071">
    <tag k="ele" v="948"/>
    <tag k="gfoss_id" v="2864"/>
    <tag k="is_in" v="Bolzano - Bozen, Trentino-Südtirol/Alto Adige, Italy"/>
    <tag k="name" v="Sterzing - Vipiteno"/>
    <tag k="name:de" v="Sterzing"/>
    <tag k="name:it" v="Vipiteno"/>
    <tag k="place" v="town"/>
    <tag k="population" v="5785"/>
  </node>
  <node id="64777237" version="3" timestamp="2009-10-01T16:10:16Z" uid="86259" user="hasse_osm_korinthenkacker" changeset="2702067" lat="46.6047167" lon="11.2260769">
    <tag k="gfoss_id" v="2861"/>
    <tag k="is_in" v="Bolzano - Bozen, Trentino-Alto Adige, Italy"/>
    <tag k="name" v="Verano - Voeran"/>
    <tag k="name:de" v="Vöran"/>
    <tag k="name:it" v="Verano"/>
    <tag k="place" v="village"/>
    <tag k="population" v="880"/>
    <tag k="source" v="geodati.gfoss.it"/>
  </node>
  <node id="64777237" version="4" timestamp="2012-03-03T15:26:52Z" uid="606933" user="immaterial" changeset="10858864" lat="46.6047167" lon="11.2260769">
    <tag k="gfoss_id" v="2861"/>
    <tag k="is_in" v="Bolzano - Bozen, Trentino-Südtirol/Alto Adige, Italy"/>
    <tag k="name" v="Vöran - Verano"/>
    <tag k="name:de" v="Vöran"/>
    <tag k="name:it" v="Verano"/>
    <tag k="place" v="village"/>
    <tag k="population" v="880"/>
    <tag k="source" v="geodati.gfoss.it"/>
  </node>
  <node id="64777237" version="5" timestamp="2012-03-11T16:47:44Z" uid="587015" user="josil" changeset="10944675" lat="46.6052065" lon="11.2263108">
    <tag k="gfoss_id" v="2861"/>
    <tag k="is_in" v="Bolzano - Bozen, Trentino-Südtirol/Alto Adige, Italy"/>
    <tag k="name" v="Vöran - Verano"/>
    <tag k="name:de" v="Vöran"/>
    <tag k="name:it" v="Verano"/>
    <tag k="place" v="village"/>
    <tag k="population" v="880"/>
    <tag k="source" v="geodati.gfoss.it"/>
  </node>
  <node id="64777240" version="2" timestamp="2009-09-30T12:51:17Z" uid="36809" user="pfoten_weg_!_" changeset="2687886" lat="46.815128" lon="11.720679">
    <tag k="gfoss_id" v="2859"/>
    <tag k="is_in" v="Bolzano - Bozen, Trentino-Alto Adige, Italy"/>
    <tag k="name" v="Vandoies - Vintl"/>
    <tag k="place" v="village"/>
    <tag k="population" v="3108"/>
  </node>
  <node id="64777240" version="3" timestamp="2009-10-18T19:47:20Z" uid="64756" user="alegria6208" changeset="2888258" lat="46.815128" lon="11.720679">
    <tag k="gfoss_id" v="2859"/>
    <tag k="is_in" v="Bolzano - Bozen, Trentino-Alto Adige, Italy"/>
    <tag k="name" v="Vandoies - Vintl"/>
    <tag k="name:de" v="Vintl"/>
    <tag k="name:it" v="Vandoies"/>
    <tag k="place" v="village"/>
    <tag k="population" v="3108"/>
  </node>
  <node id="64777240" version="4" timestamp="2009-10-18T20:08:16Z" uid="64756" user="alegria6208" changeset="2888529" lat="46.8154006" lon="11.7207709">
    <tag k="gfoss_id" v="2859"/>
    <tag k="is_in" v="Bolzano - Bozen, Trentino-Alto Adige, Italy"/>
    <tag k="name" v="Vandoies - Vintl"/>
    <tag k="name:de" v="Vintl"/>
    <tag k="name:it" v="Vandoies"/>
    <tag k="place" v="village"/>
    <tag k="population" v="3108"/>
  </node>
  <node id="64777240" version="5" timestamp="2009-10-18T20:47:28Z" uid="64756" user="alegria6208" changeset="2889033" lat="46.8154006" lon="11.7207709">
    <tag k="gfoss_id" v="2859"/>
    <tag k="is_in" v="Bolzano - Bozen, Trentino-Alto Adige, Italy"/>
    <tag k="name" v="Niedervintl"/>
    <tag k="name:de" v="Niedervintl"/>
    <tag k="name:it" v="Vandoies di sotto"/>
    <tag k="place" v="village"/>
    <tag k="population" v="3108"/>
  </node>
  <node id="64777240" version="6" timestamp="2009-10-22T12:17:12Z" uid="64756" user="alegria6208" changeset="2921096" lat="46.8165082" lon="11.7233674">
    <tag k="gfoss_id" v="2859"/>
    <tag k="is_in" v="Bolzano - Bozen, Trentino-Alto Adige, Italy"/>
    <tag k="name" v="Niedervintl"/>
    <tag k="name:de" v="Niedervintl"/>
    <tag k="name:it" v="Vandoies di sotto"/>
    <tag k="place" v="village"/>
    <tag k="population" v="3108"/>
  </node>
  <node id="64777240" version="7" timestamp="2010-10-17T16:51:11Z" uid="334153" user="Alexander Roalter" changeset="6069072" lat="46.8167337" lon="11.7230622">
    <tag k="gfoss_id" v="2859"/>
    <tag k="is_in" v="Bolzano - Bozen, Trentino-Alto Adige, Italy"/>
    <tag k="name" v="Niedervintl"/>
    <tag k="name:de" v="Niedervintl"/>
    <tag k="name:it" v="Vandoies di sotto"/>
    <tag k="place" v="village"/>
    <tag k="population" v="3108"/>
  </node>
  <node id="64777240" version="8" timestamp="2010-10-20T20:05:18Z" uid="24966" user="alessioz" changeset="6119503" lat="46.8167337" lon="11.7230622">
    <tag k="gfoss_id" v="2859"/>
    <tag k="is_in" v="Bolzano - Bozen, Trentino-Alto Adige, Italy"/>
    <tag k="name" v="Niedervintl - Vandoies di Sotto"/>
    <tag k="name:de" v="Niedervintl"/>
    <tag k="name:it" v="Vandoies di sotto"/>
    <tag k="place" v="village"/>
    <tag k="population" v="3108"/>
  </node>
  <node id="64777240" version="9" timestamp="2012-03-02T18:26:36Z" uid="606933" user="immaterial" changeset="10850864" lat="46.8167337" lon="11.7230622">
    <tag k="gfoss_id" v="2859"/>
    <tag k="is_in" v="Bozen-Bolzano, Trentino-Südtirol/Alto Adige, Italy"/>
    <tag k="name" v="Niedervintl - Vandoies di Sotto"/>
    <tag k="name:de" v="Niedervintl"/>
    <tag k="name:it" v="Vandoies di sotto"/>
    <tag k="place" v="village"/>
    <tag k="population" v="3108"/>
  </node>
  <node id="64777243" version="3" timestamp="2009-09-30T11:51:23Z" uid="36809" user="pfoten_weg_!_" changeset="2687450" lat="46.738225" lon="11.638579">
    <tag k="gfoss_id" v="2860"/>
    <tag k="is_in" v="Bolzano - Bozen, Trentino-Alto Adige, Italy"/>
    <tag k="name" v="Vahrn"/>
    <tag k="name:de" v="Vahrn"/>
    <tag k="name:it" v="Varna"/>
    <tag k="place" v="village"/>
    <tag k="population" v="3577"/>
  </node>
  <node id="64777243" version="4" timestamp="2009-10-29T14:01:40Z" uid="64756" user="alegria6208" changeset="2981357" lat="46.7403856" lon="11.6345693">
    <tag k="ele" v="646"/>
    <tag k="gfoss_id" v="2860"/>
    <tag k="is_in" v="Bolzano - Bozen, Trentino-Alto Adige, Italy"/>
    <tag k="name" v="Vahrn"/>
    <tag k="name:de" v="Vahrn"/>
    <tag k="name:it" v="Varna"/>
    <tag k="place" v="village"/>
    <tag k="population" v="3577"/>
  </node>
  <node id="64777243" version="5" timestamp="2012-03-03T08:58:25Z" uid="606933" user="immaterial" changeset="10855476" lat="46.7403856" lon="11.6345693">
    <tag k="ele" v="646"/>
    <tag k="gfoss_id" v="2860"/>
    <tag k="is_in" v="Bozen - Bolzano, Trentino/Südtirol"/>
    <tag k="name" v="Vahrn"/>
    <tag k="name:de" v="Vahrn"/>
    <tag k="name:it" v="Varna"/>
    <tag k="place" v="village"/>
    <tag k="population" v="3577"/>
  </node>
  <node id="64778090" version="4" timestamp="2007-11-28T00:39:30Z" uid="17602" user="B10xyz" changeset="640489" lat="45.4375861" lon="12.3298307">
    <tag k="created_by" v="Potlatch 0.5d"/>
    <tag k="gfoss_id" v="3515"/>
    <tag k="is_in" v="Venezia, Veneto, Italy"/>
    <tag k="name" v="Venezia"/>
    <tag k="name:en" v="Venice"/>
    <tag k="name:sl" v="Benetke"/>
    <tag k="place" v="city"/>
    <tag k="population" v="271073"/>
    <tag k="source" v="geodati.gfoss.it"/>
  </node>
  <node id="64778090" version="5" timestamp="2008-05-24T12:45:08Z" uid="3555" user="Marc Schütz" changeset="508615" lat="45.4375861" lon="12.3298307">
    <tag k="created_by" v="Potlatch 0.5d"/>
    <tag k="gfoss_id" v="3515"/>
    <tag k="is_in" v="Venezia, Veneto, Italy"/>
    <tag k="name" v="Venezia"/>
    <tag k="name:cy" v="Fenis"/>
    <tag k="name:de" v="Venedig"/>
    <tag k="name:en" v="Venice"/>
    <tag k="name:sl" v="Benetke"/>
    <tag k="place" v="city"/>
    <tag k="population" v="271073"/>
    <tag k="source" v="geodati.gfoss.it"/>
  </node>
  <node id="64778090" version="6" timestamp="2008-06-21T10:05:03Z" uid="31450" user="sanna" changeset="239989" lat="45.4375861" lon="12.3298307">
    <tag k="gfoss_id" v="3515"/>
    <tag k="is_in" v="Venezia, Veneto, Italy"/>
    <tag k="name" v="Venezia"/>
    <tag k="name:cy" v="Fenis"/>
    <tag k="name:de" v="Venedig"/>
    <tag k="name:en" v="Venice"/>
    <tag k="name:sl" v="Benetke"/>
    <tag k="place" v="city"/>
    <tag k="population" v="271073"/>
    <tag k="source" v="geodati.gfoss.it"/>
  </node>
  <node id="64778090" version="7" timestamp="2008-07-07T23:11:00Z" uid="17602" user="B10xyz" changeset="427758" lat="45.4386648" lon="12.3291022">
    <tag k="gfoss_id" v="3515"/>
    <tag k="is_in" v="Venezia, Veneto, Italy"/>
    <tag k="name" v="Venezia"/>
    <tag k="name:cy" v="Fenis"/>
    <tag k="name:de" v="Venedig"/>
    <tag k="name:en" v="Venice"/>
    <tag k="name:sl" v="Benetke"/>
    <tag k="place" v="city"/>
    <tag k="population" v="271073"/>
    <tag k="source" v="geodati.gfoss.it"/>
  </node>
  <node id="64778090" version="8" timestamp="2008-07-27T11:12:35Z" uid="38239" user="Daeron" changeset="604648" lat="45.4386648" lon="12.3291022">
    <tag k="gfoss_id" v="3515"/>
    <tag k="is_in" v="Venezia, Veneto, Italy"/>
    <tag k="name" v="Venezia"/>
    <tag k="name:cy" v="Fenis"/>
    <tag k="name:de" v="Venedig"/>
    <tag k="name:en" v="Venice"/>
    <tag k="name:fi" v="Venetsia"/>
    <tag k="name:sl" v="Benetke"/>
    <tag k="place" v="city"/>
    <tag k="population" v="271073"/>
    <tag k="source" v="geodati.gfoss.it"/>
  </node>
  <node id="64778090" version="9" timestamp="2008-11-05T17:39:54Z" uid="308" user="MichaelCollinson" changeset="685958" lat="45.4386648" lon="12.3291022">
    <tag k="gfoss_id" v="3515"/>
    <tag k="is_in" v="Venezia, Veneto, Italy"/>
    <tag k="is_in:continent" v="Europe"/>
    <tag k="name" v="Venezia"/>
    <tag k="name:cy" v="Fenis"/>
    <tag k="name:de" v="Venedig"/>
    <tag k="name:en" v="Venice"/>
    <tag k="name:fi" v="Venetsia"/>
    <tag k="name:sl" v="Benetke"/>
    <tag k="place" v="city"/>
    <tag k="population" v="271073"/>
    <tag k="source" v="geodati.gfoss.it"/>
  </node>
  <node id="64778090" version="10" timestamp="2009-03-19T11:42:12Z" uid="100178" user="gtr" changeset="833866" lat="45.4386705" lon="12.329098">
    <tag k="created_by" v="Potlatch 0.10f"/>
    <tag k="gfoss_id" v="3515"/>
    <tag k="is_in" v="Venezia, Veneto, Italy"/>
    <tag k="is_in:continent" v="Europe"/>
    <tag k="name" v="Venezia"/>
    <tag k="name:cy" v="Fenis"/>
    <tag k="name:de" v="Venedig"/>
    <tag k="name:en" v="Venice"/>
    <tag k="name:fi" v="Venetsia"/>
    <tag k="name:hu" v="Velence"/>
    <tag k="name:sl" v="Benetke"/>
    <tag k="place" v="city"/>
    <tag k="population" v="271073"/>
    <tag k="source" v="geodati.gfoss.it"/>
  </node>
  <node id="64778090" version="11" timestamp="2009-07-22T18:42:31Z" uid="20587" user="balrog-kun" changeset="1907934" lat="45.4386705" lon="12.329098">
    <tag k="gfoss_id" v="3515"/>
    <tag k="is_in" v="Venezia, Veneto, Italy"/>
    <tag k="is_in:continent" v="Europe"/>
    <tag k="name" v="Venezia"/>
    <tag k="name:ar" v="البندقية"/>
    <tag k="name:cy" v="Fenis"/>
    <tag k="name:de" v="Venedig"/>
    <tag k="name:en" v="Venice"/>
    <tag k="name:fi" v="Venetsia"/>
    <tag k="name:he" v="ונציה"/>
    <tag k="name:hu" v="Velence"/>
    <tag k="name:pl" v="Wenecja"/>
    <tag k="name:ru" v="Венеция"/>
    <tag k="name:sl" v="Benetke"/>
    <tag k="name:ve" v="Venesia"/>
    <tag k="place" v="city"/>
    <tag k="population" v="271073"/>
    <tag k="source" v="geodati.gfoss.it"/>
    <tag k="wikipedia" v="Venice"/>
  </node>
  <node id="64778090" version="12" timestamp="2009-07-23T14:32:05Z" uid="129060" user="Klenje" changeset="1916175" lat="45.4386705" lon="12.329098">
    <tag k="gfoss_id" v="3515"/>
    <tag k="is_in" v="Venezia, Veneto, Italy"/>
    <tag k="is_in:continent" v="Europe"/>
    <tag k="name" v="Venezia"/>
    <tag k="name:ar" v="البندقية"/>
    <tag k="name:cy" v="Fenis"/>
    <tag k="name:de" v="Venedig"/>
    <tag k="name:en" v="Venice"/>
    <tag k="name:fi" v="Venetsia"/>
    <tag k="name:fur" v="Vignesie"/>
    <tag k="name:he" v="ונציה"/>
    <tag k="name:hu" v="Velence"/>
    <tag k="name:pl" v="Wenecja"/>
    <tag k="name:ru" v="Венеция"/>
    <tag k="name:sl" v="Benetke"/>
    <tag k="name:ve" v="Venesia"/>
    <tag k="place" v="city"/>
    <tag k="population" v="271073"/>
    <tag k="source" v="geodati.gfoss.it"/>
    <tag k="wikipedia" v="Venice"/>
  </node>
  <node id="64778090" version="13" timestamp="2009-07-25T15:08:20Z" uid="123700" user="Mala" changeset="1935220" lat="45.4386705" lon="12.329098">
    <tag k="gfoss_id" v="3515"/>
    <tag k="is_in" v="Venezia, Veneto, Italy"/>
    <tag k="is_in:continent" v="Europe"/>
    <tag k="name" v="Venezia"/>
    <tag k="name:ar" v="البندقية"/>
    <tag k="name:cy" v="Fenis"/>
    <tag k="name:de" v="Venedig"/>
    <tag k="name:en" v="Venice"/>
    <tag k="name:es" v="Venecia"/>
    <tag k="name:fi" v="Venetsia"/>
    <tag k="name:fr" v="Venise"/>
    <tag k="name:fur" v="Vignesie"/>
    <tag k="name:he" v="ונציה"/>
    <tag k="name:hu" v="Velence"/>
    <tag k="name:pl" v="Wenecja"/>
    <tag k="name:pt" v="Veneza"/>
    <tag k="name:ru" v="Венеция"/>
    <tag k="name:sl" v="Benetke"/>
    <tag k="name:ve" v="Venesia"/>
    <tag k="place" v="city"/>
    <tag k="population" v="271073"/>
    <tag k="source" v="geodati.gfoss.it"/>
    <tag k="wikipedia" v="Venice"/>
  </node>
  <node id="64778090" version="14" timestamp="2009-08-15T15:28:46Z" uid="9010" user="rasher" changeset="2155250" lat="45.4386705" lon="12.329098">
    <tag k="gfoss_id" v="3515"/>
    <tag k="is_in" v="Venezia, Veneto, Italy"/>
    <tag k="is_in:continent" v="Europe"/>
    <tag k="name" v="Venezia"/>
    <tag k="name:ar" v="البندقية"/>
    <tag k="name:cy" v="Fenis"/>
    <tag k="name:da" v="Venedig"/>
    <tag k="name:de" v="Venedig"/>
    <tag k="name:en" v="Venice"/>
    <tag k="name:es" v="Venecia"/>
    <tag k="name:fi" v="Venetsia"/>
    <tag k="name:fr" v="Venise"/>
    <tag k="name:fur" v="Vignesie"/>
    <tag k="name:he" v="ונציה"/>
    <tag k="name:hu" v="Velence"/>
    <tag k="name:pl" v="Wenecja"/>
    <tag k="name:pt" v="Veneza"/>
    <tag k="name:ru" v="Венеция"/>
    <tag k="name:sl" v="Benetke"/>
    <tag k="name:ve" v="Venesia"/>
    <tag k="place" v="city"/>
    <tag k="population" v="271073"/>
    <tag k="source" v="geodati.gfoss.it"/>
    <tag k="wikipedia" v="Venice"/>
  </node>
  <node id="64778090" version="15" timestamp="2009-09-01T18:23:52Z" uid="148025" user="mvrban" changeset="2341078" lat="45.4386705" lon="12.329098">
    <tag k="gfoss_id" v="3515"/>
    <tag k="is_in" v="Venezia, Veneto, Italy"/>
    <tag k="is_in:continent" v="Europe"/>
    <tag k="name" v="Venezia"/>
    <tag k="name:ar" v="البندقية"/>
    <tag k="name:cy" v="Fenis"/>
    <tag k="name:da" v="Venedig"/>
    <tag k="name:de" v="Venedig"/>
    <tag k="name:en" v="Venice"/>
    <tag k="name:es" v="Venecia"/>
    <tag k="name:fi" v="Venetsia"/>
    <tag k="name:fr" v="Venise"/>
    <tag k="name:fur" v="Vignesie"/>
    <tag k="name:he" v="ונציה"/>
    <tag k="name:hr" v="Venecija"/>
    <tag k="name:hu" v="Velence"/>
    <tag k="name:pl" v="Wenecja"/>
    <tag k="name:pt" v="Veneza"/>
    <tag k="name:ru" v="Венеция"/>
    <tag k="name:sl" v="Benetke"/>
    <tag k="name:ve" v="Venesia"/>
    <tag k="place" v="city"/>
    <tag k="population" v="271073"/>
    <tag k="source" v="geodati.gfoss.it"/>
    <tag k="wikipedia" v="Venice"/>
  </node>
  <node id="64778090" version="16" timestamp="2009-09-30T10:52:16Z" uid="29717" user="eumiro" changeset="2686580" lat="45.4386705" lon="12.329098">
    <tag k="gfoss_id" v="3515"/>
    <tag k="is_in" v="Venezia, Veneto, Italy"/>
    <tag k="is_in:continent" v="Europe"/>
    <tag k="name" v="Venezia"/>
    <tag k="name:ar" v="البندقية"/>
    <tag k="name:cs" v="Benátky"/>
    <tag k="name:cy" v="Fenis"/>
    <tag k="name:da" v="Venedig"/>
    <tag k="name:de" v="Venedig"/>
    <tag k="name:en" v="Venice"/>
    <tag k="name:es" v="Venecia"/>
    <tag k="name:fi" v="Venetsia"/>
    <tag k="name:fr" v="Venise"/>
    <tag k="name:fur" v="Vignesie"/>
    <tag k="name:he" v="ונציה"/>
    <tag k="name:hr" v="Venecija"/>
    <tag k="name:hu" v="Velence"/>
    <tag k="name:pl" v="Wenecja"/>
    <tag k="name:pt" v="Veneza"/>
    <tag k="name:ru" v="Венеция"/>
    <tag k="name:sk" v="Benátky"/>
    <tag k="name:sl" v="Benetke"/>
    <tag k="name:ve" v="Venesia"/>
    <tag k="place" v="city"/>
    <tag k="population" v="271073"/>
    <tag k="source" v="geodati.gfoss.it"/>
    <tag k="wikipedia" v="Venice"/>
  </node>
  <node id="64778090" version="17" timestamp="2009-11-17T18:17:43Z" uid="17602" user="B10xyz" changeset="3143268" lat="45.4386705" lon="12.329098">
    <tag k="gfoss_id" v="3515"/>
    <tag k="is_in" v="Venezia, Veneto, Italy"/>
    <tag k="is_in:continent" v="Europe"/>
    <tag k="name" v="Venezia"/>
    <tag k="name:ar" v="البندقية"/>
    <tag k="name:cs" v="Benátky"/>
    <tag k="name:cy" v="Fenis"/>
    <tag k="name:da" v="Venedig"/>
    <tag k="name:de" v="Venedig"/>
    <tag k="name:en" v="Venice"/>
    <tag k="name:es" v="Venecia"/>
    <tag k="name:fi" v="Venetsia"/>
    <tag k="name:fr" v="Venise"/>
    <tag k="name:fur" v="Vignesie"/>
    <tag k="name:he" v="ונציה"/>
    <tag k="name:hr" v="Venecija"/>
    <tag k="name:hu" v="Velence"/>
    <tag k="name:pl" v="Wenecja"/>
    <tag k="name:pt" v="Veneza"/>
    <tag k="name:ru" v="Венеция"/>
    <tag k="name:sk" v="Benátky"/>
    <tag k="name:sl" v="Benetke"/>
    <tag k="name:ve" v="Venesia"/>
    <tag k="place" v="city"/>
    <tag k="population" v="271073"/>
    <tag k="source" v="geodati.gfoss.it"/>
    <tag k="wikipedia" v="Venice"/>
  </node>
  <node id="64778090" version="18" timestamp="2010-02-19T18:44:13Z" uid="152074" user="beweta" changeset="3917698" lat="45.4386705" lon="12.329098">
    <tag k="gfoss_id" v="3515"/>
    <tag k="is_in" v="Venezia, Veneto, Italy"/>
    <tag k="is_in:continent" v="Europe"/>
    <tag k="name" v="Venezia"/>
    <tag k="name:ar" v="البندقية"/>
    <tag k="name:cs" v="Benátky"/>
    <tag k="name:cy" v="Fenis"/>
    <tag k="name:da" v="Venedig"/>
    <tag k="name:de" v="Venedig"/>
    <tag k="name:en" v="Venice"/>
    <tag k="name:es" v="Venecia"/>
    <tag k="name:fi" v="Venetsia"/>
    <tag k="name:fr" v="Venise"/>
    <tag k="name:fur" v="Vignesie"/>
    <tag k="name:he" v="ונציה"/>
    <tag k="name:hr" v="Venecija"/>
    <tag k="name:hu" v="Velence"/>
    <tag k="name:pl" v="Wenecja"/>
    <tag k="name:pt" v="Veneza"/>
    <tag k="name:ro" v="Veneţia"/>
    <tag k="name:ru" v="Венеция"/>
    <tag k="name:sk" v="Benátky"/>
    <tag k="name:sl" v="Benetke"/>
    <tag k="name:ve" v="Venesia"/>
    <tag k="place" v="city"/>
    <tag k="population" v="271073"/>
    <tag k="source" v="geodati.gfoss.it"/>
    <tag k="wikipedia" v="Venice"/>
  </node>
  <node id="64778090" version="19" timestamp="2010-03-08T16:42:19Z" uid="221997" user="EuskalMapa" changeset="4073341" lat="45.4386705" lon="12.329098">
    <tag k="gfoss_id" v="3515"/>
    <tag k="is_in" v="Venezia, Veneto, Italy"/>
    <tag k="is_in:continent" v="Europe"/>
    <tag k="name" v="Venezia"/>
    <tag k="name:ar" v="البندقية"/>
    <tag k="name:cs" v="Benátky"/>
    <tag k="name:cy" v="Fenis"/>
    <tag k="name:da" v="Venedig"/>
    <tag k="name:de" v="Venedig"/>
    <tag k="name:en" v="Venice"/>
    <tag k="name:es" v="Venecia"/>
    <tag k="name:eu" v="Venezia"/>
    <tag k="name:fi" v="Venetsia"/>
    <tag k="name:fr" v="Venise"/>
    <tag k="name:fur" v="Vignesie"/>
    <tag k="name:he" v="ונציה"/>
    <tag k="name:hr" v="Venecija"/>
    <tag k="name:hu" v="Velence"/>
    <tag k="name:pl" v="Wenecja"/>
    <tag k="name:pt" v="Veneza"/>
    <tag k="name:ro" v="Veneţia"/>
    <tag k="name:ru" v="Венеция"/>
    <tag k="name:sk" v="Benátky"/>
    <tag k="name:sl" v="Benetke"/>
    <tag k="name:ve" v="Venesia"/>
    <tag k="place" v="city"/>
    <tag k="population" v="271073"/>
    <tag k="source" v="geodati.gfoss.it"/>
    <tag k="wikipedia" v="Venice"/>
  </node>
  <node id="64778090" version="20" timestamp="2010-11-23T08:53:01Z" uid="33757" user="Minh Nguyen" changeset="6437745" lat="45.4386706" lon="12.3290979">
    <tag k="gfoss_id" v="3515"/>
    <tag k="is_in" v="Venezia, Veneto, Italy"/>
    <tag k="is_in:continent" v="Europe"/>
    <tag k="name" v="Venezia"/>
    <tag k="name:ar" v="البندقية"/>
    <tag k="name:cs" v="Benátky"/>
    <tag k="name:cy" v="Fenis"/>
    <tag k="name:da" v="Venedig"/>
    <tag k="name:de" v="Venedig"/>
    <tag k="name:en" v="Venice"/>
    <tag k="name:es" v="Venecia"/>
    <tag k="name:eu" v="Venezia"/>
    <tag k="name:fi" v="Venetsia"/>
    <tag k="name:fr" v="Venise"/>
    <tag k="name:fur" v="Vignesie"/>
    <tag k="name:he" v="ונציה"/>
    <tag k="name:hr" v="Venecija"/>
    <tag k="name:hu" v="Velence"/>
    <tag k="name:pl" v="Wenecja"/>
    <tag k="name:pt" v="Veneza"/>
    <tag k="name:ro" v="Veneţia"/>
    <tag k="name:ru" v="Венеция"/>
    <tag k="name:sk" v="Benátky"/>
    <tag k="name:sl" v="Benetke"/>
    <tag k="name:ve" v="Venesia"/>
    <tag k="name:vi" v="Vơ-ni-dơ"/>
    <tag k="place" v="city"/>
    <tag k="population" v="271073"/>
    <tag k="source" v="geodati.gfoss.it"/>
    <tag k="wikipedia" v="Venice"/>
  </node>
  <node id="64778090" version="21" timestamp="2011-01-21T10:55:40Z" uid="393666" user="etrumap" changeset="7039046" lat="45.4386706" lon="12.3290979">
    <tag k="gfoss_id" v="3515"/>
    <tag k="is_in" v="Venezia, Veneto, Italy"/>
    <tag k="is_in:continent" v="Europe"/>
    <tag k="name" v="Venezia"/>
    <tag k="name:ar" v="البندقية"/>
    <tag k="name:cs" v="Benátky"/>
    <tag k="name:cy" v="Fenis"/>
    <tag k="name:da" v="Venedig"/>
    <tag k="name:de" v="Venedig"/>
    <tag k="name:en" v="Venice"/>
    <tag k="name:es" v="Venecia"/>
    <tag k="name:eu" v="Venezia"/>
    <tag k="name:fi" v="Venetsia"/>
    <tag k="name:fr" v="Venise"/>
    <tag k="name:fur" v="Vignesie"/>
    <tag k="name:he" v="ונציה"/>
    <tag k="name:hr" v="Venecija"/>
    <tag k="name:hu" v="Velence"/>
    <tag k="name:pl" v="Wenecja"/>
    <tag k="name:pt" v="Veneza"/>
    <tag k="name:ro" v="Veneţia"/>
    <tag k="name:ru" v="Венеция"/>
    <tag k="name:sk" v="Benátky"/>
    <tag k="name:sl" v="Benetke"/>
    <tag k="name:ve" v="Venesia"/>
    <tag k="name:vi" v="Vơ-ni-dơ"/>
    <tag k="place" v="city"/>
    <tag k="population" v="271073"/>
    <tag k="rank" v="20"/>
    <tag k="source" v="geodati.gfoss.it"/>
    <tag k="wikipedia" v="Venice"/>
  </node>
  <node id="64778090" version="22" timestamp="2011-01-24T11:56:00Z" uid="393666" user="etrumap" changeset="7072196" lat="45.4386706" lon="12.3290979">
    <tag k="capital" v="4"/>
    <tag k="gfoss_id" v="3515"/>
    <tag k="is_in" v="Venezia, Veneto, Italy"/>
    <tag k="is_in:continent" v="Europe"/>
    <tag k="name" v="Venezia"/>
    <tag k="name:ar" v="البندقية"/>
    <tag k="name:cs" v="Benátky"/>
    <tag k="name:cy" v="Fenis"/>
    <tag k="name:da" v="Venedig"/>
    <tag k="name:de" v="Venedig"/>
    <tag k="name:en" v="Venice"/>
    <tag k="name:es" v="Venecia"/>
    <tag k="name:eu" v="Venezia"/>
    <tag k="name:fi" v="Venetsia"/>
    <tag k="name:fr" v="Venise"/>
    <tag k="name:fur" v="Vignesie"/>
    <tag k="name:he" v="ונציה"/>
    <tag k="name:hr" v="Venecija"/>
    <tag k="name:hu" v="Velence"/>
    <tag k="name:pl" v="Wenecja"/>
    <tag k="name:pt" v="Veneza"/>
    <tag k="name:ro" v="Veneţia"/>
    <tag k="name:ru" v="Венеция"/>
    <tag k="name:sk" v="Benátky"/>
    <tag k="name:sl" v="Benetke"/>
    <tag k="name:ve" v="Venesia"/>
    <tag k="name:vi" v="Vơ-ni-dơ"/>
    <tag k="place" v="city"/>
    <tag k="population" v="271073"/>
    <tag k="rank" v="20"/>
    <tag k="source" v="geodati.gfoss.it"/>
    <tag k="wikipedia" v="Venice"/>
  </node>
  <node id="64778090" version="23" timestamp="2011-05-15T13:49:30Z" uid="93026" user="mpele" changeset="8152060" lat="45.4386706" lon="12.3290979">
    <tag k="capital" v="4"/>
    <tag k="gfoss_id" v="3515"/>
    <tag k="is_in" v="Venezia, Veneto, Italy"/>
    <tag k="is_in:continent" v="Europe"/>
    <tag k="name" v="Venezia"/>
    <tag k="name:ar" v="البندقية"/>
    <tag k="name:cs" v="Benátky"/>
    <tag k="name:cy" v="Fenis"/>
    <tag k="name:da" v="Venedig"/>
    <tag k="name:de" v="Venedig"/>
    <tag k="name:en" v="Venice"/>
    <tag k="name:es" v="Venecia"/>
    <tag k="name:eu" v="Venezia"/>
    <tag k="name:fi" v="Venetsia"/>
    <tag k="name:fr" v="Venise"/>
    <tag k="name:fur" v="Vignesie"/>
    <tag k="name:he" v="ונציה"/>
    <tag k="name:hr" v="Venecija"/>
    <tag k="name:hu" v="Velence"/>
    <tag k="name:pl" v="Wenecja"/>
    <tag k="name:pt" v="Veneza"/>
    <tag k="name:ro" v="Veneţia"/>
    <tag k="name:ru" v="Венеция"/>
    <tag k="name:sk" v="Benátky"/>
    <tag k="name:sl" v="Benetke"/>
    <tag k="name:sr" v="Венеција"/>
    <tag k="name:ve" v="Venesia"/>
    <tag k="name:vi" v="Vơ-ni-dơ"/>
    <tag k="place" v="city"/>
    <tag k="population" v="271073"/>
    <tag k="rank" v="20"/>
    <tag k="source" v="geodati.gfoss.it"/>
    <tag k="wikipedia" v="Venice"/>
  </node>
  <node id="64778090" version="24" timestamp="2011-07-18T20:20:39Z" uid="490395" user="Marc Veyrat" changeset="8762585" lat="45.4386706" lon="12.3290979">
    <tag k="capital" v="4"/>
    <tag k="gfoss_id" v="3515"/>
    <tag k="is_in" v="Venezia, Veneto, Italy"/>
    <tag k="is_in:continent" v="Europe"/>
    <tag k="name" v="Venezia"/>
    <tag k="name:ar" v="البندقية"/>
    <tag k="name:cs" v="Benátky"/>
    <tag k="name:cy" v="Fenis"/>
    <tag k="name:da" v="Venedig"/>
    <tag k="name:de" v="Venedig"/>
    <tag k="name:en" v="Venice"/>
    <tag k="name:es" v="Venecia"/>
    <tag k="name:eu" v="Venezia"/>
    <tag k="name:fi" v="Venetsia"/>
    <tag k="name:fr" v="Venise"/>
    <tag k="name:fur" v="Vignesie"/>
    <tag k="name:he" v="ונציה"/>
    <tag k="name:hr" v="Venecija"/>
    <tag k="name:hu" v="Velence"/>
    <tag k="name:pl" v="Wenecja"/>
    <tag k="name:pt" v="Veneza"/>
    <tag k="name:ro" v="Veneţia"/>
    <tag k="name:ru" v="Венеция"/>
    <tag k="name:sk" v="Benátky"/>
    <tag k="name:sl" v="Benetke"/>
    <tag k="name:sr" v="Венеција"/>
    <tag k="name:ve" v="Venesia"/>
    <tag k="name:vi" v="Vơ-ni-dơ"/>
    <tag k="place" v="city"/>
    <tag k="population" v="271073"/>
    <tag k="rank" v="20"/>
    <tag k="source" v="geodati.gfoss.it"/>
    <tag k="wikipedia" v="Venice"/>
  </node>
  <node id="64778090" version="25" timestamp="2011-08-31T15:10:22Z" uid="504502" user="peppe10" changeset="9177102" lat="45.4386691" lon="12.3180644">
    <tag k="capital" v="4"/>
    <tag k="gfoss_id" v="3515"/>
    <tag k="is_in" v="Venezia, Veneto, Italy"/>
    <tag k="is_in:continent" v="Europe"/>
    <tag k="name" v="VENEZIA"/>
    <tag k="name:ar" v="البندقية"/>
    <tag k="name:cs" v="Benátky"/>
    <tag k="name:cy" v="Fenis"/>
    <tag k="name:da" v="Venedig"/>
    <tag k="name:de" v="Venedig"/>
    <tag k="name:en" v="Venice"/>
    <tag k="name:es" v="Venecia"/>
    <tag k="name:eu" v="Venezia"/>
    <tag k="name:fi" v="Venetsia"/>
    <tag k="name:fr" v="Venise"/>
    <tag k="name:fur" v="Vignesie"/>
    <tag k="name:he" v="ונציה"/>
    <tag k="name:hr" v="Venecija"/>
    <tag k="name:hu" v="Velence"/>
    <tag k="name:pl" v="Wenecja"/>
    <tag k="name:pt" v="Veneza"/>
    <tag k="name:ro" v="Veneţia"/>
    <tag k="name:ru" v="Венеция"/>
    <tag k="name:sk" v="Benátky"/>
    <tag k="name:sl" v="Benetke"/>
    <tag k="name:sr" v="Венеција"/>
    <tag k="name:ve" v="Venesia"/>
    <tag k="name:vi" v="Vơ-ni-dơ"/>
    <tag k="place" v="city"/>
    <tag k="population" v="271073"/>
    <tag k="rank" v="20"/>
    <tag k="source" v="geodati.gfoss.it"/>
    <tag k="wikipedia" v="Venice"/>
  </node>
  <node id="64778090" version="26" timestamp="2011-09-13T20:26:00Z" uid="6367" user="mackerski" changeset="9293165" lat="45.4386691" lon="12.3180644">
    <tag k="capital" v="4"/>
    <tag k="gfoss_id" v="3515"/>
    <tag k="is_in" v="Venezia, Veneto, Italy"/>
    <tag k="is_in:continent" v="Europe"/>
    <tag k="name" v="Venezia"/>
    <tag k="name:ar" v="البندقية"/>
    <tag k="name:cs" v="Benátky"/>
    <tag k="name:cy" v="Fenis"/>
    <tag k="name:da" v="Venedig"/>
    <tag k="name:de" v="Venedig"/>
    <tag k="name:en" v="Venice"/>
    <tag k="name:es" v="Venecia"/>
    <tag k="name:eu" v="Venezia"/>
    <tag k="name:fi" v="Venetsia"/>
    <tag k="name:fr" v="Venise"/>
    <tag k="name:fur" v="Vignesie"/>
    <tag k="name:he" v="ונציה"/>
    <tag k="name:hr" v="Venecija"/>
    <tag k="name:hu" v="Velence"/>
    <tag k="name:pl" v="Wenecja"/>
    <tag k="name:pt" v="Veneza"/>
    <tag k="name:ro" v="Veneţia"/>
    <tag k="name:ru" v="Венеция"/>
    <tag k="name:sk" v="Benátky"/>
    <tag k="name:sl" v="Benetke"/>
    <tag k="name:sr" v="Венеција"/>
    <tag k="name:ve" v="Venesia"/>
    <tag k="name:vi" v="Vơ-ni-dơ"/>
    <tag k="place" v="city"/>
    <tag k="population" v="271073"/>
    <tag k="rank" v="20"/>
    <tag k="source" v="geodati.gfoss.it"/>
    <tag k="wikipedia" v="Venice"/>
  </node>
  <node id="64778090" version="27" timestamp="2012-02-22T13:42:47Z" uid="2797" user="rycee" changeset="10759283" lat="45.4386691" lon="12.3180644">
    <tag k="capital" v="4"/>
    <tag k="gfoss_id" v="3515"/>
    <tag k="is_in" v="Venezia, Veneto, Italy"/>
    <tag k="is_in:continent" v="Europe"/>
    <tag k="name" v="Venezia"/>
    <tag k="name:ar" v="البندقية"/>
    <tag k="name:cs" v="Benátky"/>
    <tag k="name:cy" v="Fenis"/>
    <tag k="name:da" v="Venedig"/>
    <tag k="name:de" v="Venedig"/>
    <tag k="name:en" v="Venice"/>
    <tag k="name:es" v="Venecia"/>
    <tag k="name:eu" v="Venezia"/>
    <tag k="name:fi" v="Venetsia"/>
    <tag k="name:fr" v="Venise"/>
    <tag k="name:fur" v="Vignesie"/>
    <tag k="name:he" v="ונציה"/>
    <tag k="name:hr" v="Venecija"/>
    <tag k="name:hu" v="Velence"/>
    <tag k="name:pl" v="Wenecja"/>
    <tag k="name:pt" v="Veneza"/>
    <tag k="name:ro" v="Veneţia"/>
    <tag k="name:ru" v="Венеция"/>
    <tag k="name:sk" v="Benátky"/>
    <tag k="name:sl" v="Benetke"/>
    <tag k="name:sr" v="Венеција"/>
    <tag k="name:sv" v="Venedig"/>
    <tag k="name:ve" v="Venesia"/>
    <tag k="name:vi" v="Vơ-ni-dơ"/>
    <tag k="place" v="city"/>
    <tag k="population" v="271073"/>
    <tag k="rank" v="20"/>
    <tag k="source" v="geodati.gfoss.it"/>
    <tag k="wikipedia" v="Venice"/>
  </node>
  <node id="64778090" version="28" timestamp="2012-03-08T14:47:35Z" uid="7045" user="Xuacu" changeset="10909736" lat="45.4386691" lon="12.3180644">
    <tag k="capital" v="4"/>
    <tag k="gfoss_id" v="3515"/>
    <tag k="is_in" v="Venezia, Veneto, Italy"/>
    <tag k="is_in:continent" v="Europe"/>
    <tag k="name" v="Venezia"/>
    <tag k="name:ar" v="البندقية"/>
    <tag k="name:ast" v="Venecia"/>
    <tag k="name:cs" v="Benátky"/>
    <tag k="name:cy" v="Fenis"/>
    <tag k="name:da" v="Venedig"/>
    <tag k="name:de" v="Venedig"/>
    <tag k="name:en" v="Venice"/>
    <tag k="name:es" v="Venecia"/>
    <tag k="name:eu" v="Venezia"/>
    <tag k="name:fi" v="Venetsia"/>
    <tag k="name:fr" v="Venise"/>
    <tag k="name:fur" v="Vignesie"/>
    <tag k="name:he" v="ונציה"/>
    <tag k="name:hr" v="Venecija"/>
    <tag k="name:hu" v="Velence"/>
    <tag k="name:pl" v="Wenecja"/>
    <tag k="name:pt" v="Veneza"/>
    <tag k="name:ro" v="Veneţia"/>
    <tag k="name:ru" v="Венеция"/>
    <tag k="name:sk" v="Benátky"/>
    <tag k="name:sl" v="Benetke"/>
    <tag k="name:sr" v="Венеција"/>
    <tag k="name:sv" v="Venedig"/>
    <tag k="name:ve" v="Venesia"/>
    <tag k="name:vi" v="Vơ-ni-dơ"/>
    <tag k="place" v="city"/>
    <tag k="population" v="271073"/>
    <tag k="rank" v="20"/>
    <tag k="source" v="geodati.gfoss.it"/>
    <tag k="wikipedia" v="Venice"/>
  </node>
  <node id="64778098" version="4" timestamp="2009-07-25T22:01:27Z" uid="123700" user="Mala" changeset="1939174" lat="45.6681642" lon="12.2508391">
    <tag k="gfoss_id" v="3464"/>
    <tag k="is_in" v="Treviso, Veneto, Italy"/>
    <tag k="is_in:continent" v="Europe"/>
    <tag k="name" v="Treviso"/>
    <tag k="name:fr" v="Trévise"/>
    <tag k="place" v="city"/>
    <tag k="population" v="80144"/>
    <tag k="source" v="geodati.gfoss.it"/>
    <tag k="wikipedia" v="Treviso"/>
  </node>
  <node id="64778098" version="5" timestamp="2009-09-13T09:21:17Z" uid="129060" user="Klenje" changeset="2466986" lat="45.6681642" lon="12.2508391">
    <tag k="gfoss_id" v="3464"/>
    <tag k="is_in" v="Treviso, Veneto, Italy"/>
    <tag k="is_in:continent" v="Europe"/>
    <tag k="name" v="Treviso"/>
    <tag k="name:fr" v="Trévise"/>
    <tag k="name:fur" v="Trevîs"/>
    <tag k="place" v="city"/>
    <tag k="population" v="80144"/>
    <tag k="source" v="geodati.gfoss.it"/>
    <tag k="wikipedia" v="Treviso"/>
  </node>
  <node id="64778098" version="6" timestamp="2009-11-27T14:57:22Z" uid="166445" user="GranD" changeset="3228662" lat="45.6681642" lon="12.250839">
    <tag k="gfoss_id" v="3464"/>
    <tag k="is_in" v="Treviso, Veneto, Italy"/>
    <tag k="is_in:continent" v="Europe"/>
    <tag k="name" v="Treviso"/>
    <tag k="name:fr" v="Trévise"/>
    <tag k="name:fur" v="Trevîs"/>
    <tag k="name:ru" v="Тревизо"/>
    <tag k="place" v="city"/>
    <tag k="population" v="80144"/>
    <tag k="source" v="geodati.gfoss.it"/>
    <tag k="wikipedia" v="Treviso"/>
  </node>
  <node id="64778098" version="7" timestamp="2010-05-04T17:15:27Z" uid="80088" user="FedericoCozzi" changeset="4605983" lat="45.6681642" lon="12.250839">
    <tag k="gfoss_id" v="3464"/>
    <tag k="is_in" v="Treviso, Veneto, Italy"/>
    <tag k="is_in:continent" v="Europe"/>
    <tag k="name" v="Treviso"/>
    <tag k="name:fr" v="Trévise"/>
    <tag k="name:fur" v="Trevîs"/>
    <tag k="name:ru" v="Тревизо"/>
    <tag k="place" v="town"/>
    <tag k="population" v="80144"/>
    <tag k="source" v="geodati.gfoss.it"/>
    <tag k="wikipedia" v="Treviso"/>
  </node>
  <node id="64778098" version="8" timestamp="2010-05-24T15:54:44Z" uid="80088" user="FedericoCozzi" changeset="4795019" lat="45.6681642" lon="12.2508389">
    <tag k="gfoss_id" v="3464"/>
    <tag k="is_in" v="Treviso, Veneto, Italy"/>
    <tag k="is_in:continent" v="Europe"/>
    <tag k="name" v="Treviso"/>
    <tag k="name:fr" v="Trévise"/>
    <tag k="name:fur" v="Trevîs"/>
    <tag k="name:ru" v="Тревизо"/>
    <tag k="place" v="city"/>
    <tag k="population" v="80144"/>
    <tag k="source" v="geodati.gfoss.it"/>
    <tag k="wikipedia" v="Treviso"/>
  </node>
  <node id="64778098" version="9" timestamp="2011-01-24T11:56:01Z" uid="393666" user="etrumap" changeset="7072196" lat="45.6681642" lon="12.2508389">
    <tag k="capital" v="6"/>
    <tag k="gfoss_id" v="3464"/>
    <tag k="is_in" v="Treviso, Veneto, Italy"/>
    <tag k="is_in:continent" v="Europe"/>
    <tag k="name" v="Treviso"/>
    <tag k="name:fr" v="Trévise"/>
    <tag k="name:fur" v="Trevîs"/>
    <tag k="name:ru" v="Тревизо"/>
    <tag k="place" v="city"/>
    <tag k="population" v="80144"/>
    <tag k="source" v="geodati.gfoss.it"/>
    <tag k="wikipedia" v="Treviso"/>
  </node>
  <node id="64778098" version="10" timestamp="2011-09-26T16:19:58Z" uid="504502" user="peppe10" changeset="9402844" lat="45.6678643" lon="12.2510052">
    <tag k="capital" v="6"/>
    <tag k="gfoss_id" v="3464"/>
    <tag k="is_in" v="Treviso, Veneto, Italy"/>
    <tag k="is_in:continent" v="Europe"/>
    <tag k="name" v="Treviso"/>
    <tag k="name:fr" v="Trévise"/>
    <tag k="name:fur" v="Trevîs"/>
    <tag k="name:ru" v="Тревизо"/>
    <tag k="place" v="city"/>
    <tag k="population" v="80144"/>
    <tag k="source" v="geodati.gfoss.it"/>
    <tag k="wikipedia" v="Treviso"/>
  </node>
  <node id="64778101" version="9" timestamp="2009-07-25T22:01:28Z" uid="123700" user="Mala" changeset="1939174" lat="45.4382341" lon="10.9934978">
    <tag k="gfoss_id" v="3181"/>
    <tag k="is_in" v="Verona, Veneto, Italy"/>
    <tag k="is_in:continent" v="Europe"/>
    <tag k="name" v="Verona"/>
    <tag k="name:de" v="Bern"/>
    <tag k="name:fr" v="Vérone"/>
    <tag k="place" v="city"/>
    <tag k="population" v="253208"/>
    <tag k="source" v="geodati.gfoss.it"/>
    <tag k="wikipedia" v="Verona"/>
  </node>
  <node id="64778101" version="10" timestamp="2009-07-28T12:42:35Z" uid="21822" user="Jacopo" changeset="1965007" lat="45.4382221" lon="10.9935545">
    <tag k="gfoss_id" v="3181"/>
    <tag k="is_in" v="Verona, Veneto, Italy"/>
    <tag k="is_in:continent" v="Europe"/>
    <tag k="name" v="Verona"/>
    <tag k="name:de" v="Bern"/>
    <tag k="name:fr" v="Vérone"/>
    <tag k="place" v="city"/>
    <tag k="population" v="253208"/>
    <tag k="source" v="geodati.gfoss.it"/>
    <tag k="wikipedia" v="Verona"/>
  </node>
  <node id="64778101" version="11" timestamp="2009-11-27T11:22:22Z" uid="166445" user="GranD" changeset="3227215" lat="45.4382222" lon="10.9935544">
    <tag k="gfoss_id" v="3181"/>
    <tag k="is_in" v="Verona, Veneto, Italy"/>
    <tag k="is_in:continent" v="Europe"/>
    <tag k="name" v="Verona"/>
    <tag k="name:de" v="Bern"/>
    <tag k="name:fr" v="Vérone"/>
    <tag k="name:ru" v="Верона"/>
    <tag k="place" v="city"/>
    <tag k="population" v="253208"/>
    <tag k="source" v="geodati.gfoss.it"/>
    <tag k="wikipedia" v="Verona"/>
  </node>
  <node id="64778101" version="12" timestamp="2010-10-23T21:54:40Z" uid="16922" user="amai" changeset="6152090" lat="45.4382222" lon="10.9935543">
    <tag k="gfoss_id" v="3181"/>
    <tag k="is_in" v="Verona, Veneto, Italy"/>
    <tag k="is_in:continent" v="Europe"/>
    <tag k="name" v="Verona"/>
    <tag k="name:fr" v="Vérone"/>
    <tag k="name:ru" v="Верона"/>
    <tag k="place" v="city"/>
    <tag k="population" v="253208"/>
    <tag k="source" v="geodati.gfoss.it"/>
    <tag k="wikipedia" v="Verona"/>
  </node>
  <node id="64778101" version="13" timestamp="2011-01-24T11:55:59Z" uid="393666" user="etrumap" changeset="7072196" lat="45.4382222" lon="10.9935543">
    <tag k="capital" v="6"/>
    <tag k="gfoss_id" v="3181"/>
    <tag k="is_in" v="Verona, Veneto, Italy"/>
    <tag k="is_in:continent" v="Europe"/>
    <tag k="name" v="Verona"/>
    <tag k="name:fr" v="Vérone"/>
    <tag k="name:ru" v="Верона"/>
    <tag k="place" v="city"/>
    <tag k="population" v="253208"/>
    <tag k="source" v="geodati.gfoss.it"/>
    <tag k="wikipedia" v="Verona"/>
  </node>
  <node id="64778101" version="14" timestamp="2011-05-15T13:49:30Z" uid="93026" user="mpele" changeset="8152060" lat="45.4382222" lon="10.9935543">
    <tag k="capital" v="6"/>
    <tag k="gfoss_id" v="3181"/>
    <tag k="is_in" v="Verona, Veneto, Italy"/>
    <tag k="is_in:continent" v="Europe"/>
    <tag k="name" v="Verona"/>
    <tag k="name:fr" v="Vérone"/>
    <tag k="name:ru" v="Верона"/>
    <tag k="name:sr" v="Верона"/>
    <tag k="place" v="city"/>
    <tag k="population" v="253208"/>
    <tag k="source" v="geodati.gfoss.it"/>
    <tag k="wikipedia" v="Verona"/>
  </node>
  <node id="64778102" version="5" timestamp="2009-07-25T22:01:28Z" uid="123700" user="Mala" changeset="1939174" lat="45.5474202" lon="11.546904">
    <tag k="gfoss_id" v="3303"/>
    <tag k="is_in" v="Vicenza, Veneto, Italy"/>
    <tag k="is_in:continent" v="Europe"/>
    <tag k="name" v="Vicenza"/>
    <tag k="name:fr" v="Vicence"/>
    <tag k="place" v="city"/>
    <tag k="population" v="107223"/>
    <tag k="source" v="geodati.gfoss.it"/>
    <tag k="wikipedia" v="Vicenza"/>
  </node>
  <node id="64778102" version="6" timestamp="2009-11-27T13:35:54Z" uid="166445" user="GranD" changeset="3228063" lat="45.5474203" lon="11.5469039">
    <tag k="gfoss_id" v="3303"/>
    <tag k="is_in" v="Vicenza, Veneto, Italy"/>
    <tag k="is_in:continent" v="Europe"/>
    <tag k="name" v="Vicenza"/>
    <tag k="name:fr" v="Vicence"/>
    <tag k="name:ru" v="Виченца"/>
    <tag k="place" v="city"/>
    <tag k="population" v="107223"/>
    <tag k="source" v="geodati.gfoss.it"/>
    <tag k="wikipedia" v="Vicenza"/>
  </node>
  <node id="64778102" version="7" timestamp="2011-01-24T11:55:57Z" uid="393666" user="etrumap" changeset="7072196" lat="45.5474203" lon="11.5469039">
    <tag k="capital" v="6"/>
    <tag k="gfoss_id" v="3303"/>
    <tag k="is_in" v="Vicenza, Veneto, Italy"/>
    <tag k="is_in:continent" v="Europe"/>
    <tag k="name" v="Vicenza"/>
    <tag k="name:fr" v="Vicence"/>
    <tag k="name:ru" v="Виченца"/>
    <tag k="place" v="city"/>
    <tag k="population" v="107223"/>
    <tag k="source" v="geodati.gfoss.it"/>
    <tag k="wikipedia" v="Vicenza"/>
  </node>
  <node id="64778102" version="8" timestamp="2011-05-15T17:49:38Z" uid="93026" user="mpele" changeset="8154765" lat="45.5474203" lon="11.5469039">
    <tag k="capital" v="6"/>
    <tag k="gfoss_id" v="3303"/>
    <tag k="is_in" v="Vicenza, Veneto, Italy"/>
    <tag k="is_in:continent" v="Europe"/>
    <tag k="name" v="Vicenza"/>
    <tag k="name:fr" v="Vicence"/>
    <tag k="name:ru" v="Виченца"/>
    <tag k="name:sr" v="Виценца"/>
    <tag k="place" v="city"/>
    <tag k="population" v="107223"/>
    <tag k="source" v="geodati.gfoss.it"/>
    <tag k="wikipedia" v="Vicenza"/>
  </node>
  <node id="64778102" version="9" timestamp="2011-08-21T16:29:36Z" uid="73469" user="GatoSelvadego" changeset="9084525" lat="45.5476484" lon="11.5456828">
    <tag k="capital" v="6"/>
    <tag k="gfoss_id" v="3303"/>
    <tag k="is_in" v="Vicenza, Veneto, Italy"/>
    <tag k="is_in:continent" v="Europe"/>
    <tag k="name" v="Vicenza"/>
    <tag k="name:fr" v="Vicence"/>
    <tag k="name:ru" v="Виченца"/>
    <tag k="name:sr" v="Виценца"/>
    <tag k="place" v="city"/>
    <tag k="population" v="107223"/>
    <tag k="source" v="geodati.gfoss.it"/>
    <tag k="wikipedia" v="Vicenza"/>
  </node>
  <node id="64778114" version="2" timestamp="2007-10-30T03:34:33Z" uid="17602" user="B10xyz" changeset="364588" lat="46.1254147" lon="12.3515009">
    <tag k="created_by" v="Potlatch 0.4b"/>
    <tag k="gfoss_id" v="3329"/>
    <tag k="is_in" v="Belluno, Veneto, Italy"/>
    <tag k="name" v="Farra d&apos;Alpago"/>
    <tag k="place" v="village"/>
    <tag k="population" v="2703"/>
    <tag k="source" v="geodati.gfoss.it"/>
  </node>
  <node id="64778114" version="3" timestamp="2008-07-06T21:05:56Z" uid="37671" user="Alberto Riva" changeset="413164" lat="46.1222554" lon="12.3570297">
    <tag k="created_by" v="Potlatch 0.4b"/>
    <tag k="gfoss_id" v="3329"/>
    <tag k="is_in" v="Belluno, Veneto, Italy"/>
    <tag k="name" v="Farra d&apos;Alpago"/>
    <tag k="place" v="village"/>
    <tag k="population" v="2703"/>
    <tag k="source" v="geodati.gfoss.it"/>
  </node>
  <node id="64778114" version="4" timestamp="2011-04-27T09:54:25Z" uid="309437" user="pagot" changeset="7983244" lat="46.1218196" lon="12.360295">
    <tag k="gfoss_id" v="3329"/>
    <tag k="is_in" v="Belluno, Veneto, Italy"/>
    <tag k="name" v="Farra d&apos;Alpago"/>
    <tag k="place" v="village"/>
    <tag k="population" v="2703"/>
    <tag k="source" v="geodati.gfoss.it"/>
  </node>
  <node id="64778153" version="4" timestamp="2010-09-15T12:10:41Z" uid="43967" user="railsnail" changeset="5786572" lat="46.481503" lon="11.9537183">
    <tag k="gfoss_id" v="3339"/>
    <tag k="is_in" v="Belluno, Veneto, Italy"/>
    <tag k="name" v="Livinallongo del Col di Lana"/>
    <tag k="name:de" v="Buchenstein"/>
    <tag k="name:lad" v="Fodom"/>
    <tag k="place" v="village"/>
    <tag k="population" v="1417"/>
    <tag k="source" v="geodati.gfoss.it"/>
  </node>
  <node id="64778153" version="5" timestamp="2012-02-18T15:55:12Z" uid="510260" user="leandrosantin" changeset="10721520" lat="46.4815857" lon="11.9550701">
    <tag k="gfoss_id" v="3339"/>
    <tag k="is_in" v="Belluno, Veneto, Italy"/>
    <tag k="name" v="Livinallongo del Col di Lana"/>
    <tag k="name:de" v="Buchenstein"/>
    <tag k="name:lad" v="Fodom"/>
    <tag k="place" v="village"/>
    <tag k="population" v="1417"/>
    <tag k="source" v="geodati.gfoss.it"/>
  </node>
  <node id="64778734" version="2" timestamp="2007-10-30T03:33:14Z" uid="17602" user="B10xyz" changeset="364588" lat="45.9396078" lon="12.3427033">
    <tag k="created_by" v="Potlatch 0.4b"/>
    <tag k="gfoss_id" v="3398"/>
    <tag k="is_in" v="Treviso, Veneto, Italy"/>
    <tag k="name" v="Colle Umberto"/>
    <tag k="place" v="village"/>
    <tag k="population" v="4572"/>
    <tag k="source" v="geodati.gfoss.it"/>
  </node>
  <node id="64778734" version="3" timestamp="2011-12-30T18:44:00Z" uid="504502" user="peppe10" changeset="10248338" lat="45.9418782" lon="12.3424133">
    <tag k="gfoss_id" v="3398"/>
    <tag k="is_in" v="Treviso, Veneto, Italy"/>
    <tag k="name" v="Colle Umberto"/>
    <tag k="place" v="village"/>
    <tag k="population" v="4572"/>
    <tag k="source" v="geodati.gfoss.it"/>
  </node>
  <node id="64773747" version="8" timestamp="2012-06-18T15:18:47Z" uid="346758" user="kukuk" changeset="11938194" lat="49.4680984" lon="10.9708598"/>
  <node id="64777001" version="6" timestamp="2012-09-07T10:49:20Z" uid="606933" user="immaterial" changeset="13021464" lat="46.7965131" lon="11.9352875">
    <tag k="gfoss_id" v="2764"/>
    <tag k="is_in" v="Bozen - Bolzano, South Tyrol"/>
    <tag k="name" v="Bruneck - Brunico"/>
    <tag k="name:de" v="Bruneck"/>
    <tag k="name:it" v="Brunico"/>
    <tag k="place" v="town"/>
    <tag k="population" v="13618"/>
  </node>
  <node id="64777005" version="14" timestamp="2012-04-26T18:16:32Z" uid="606933" user="immaterial" changeset="11426532" lat="46.7164202" lon="11.656376">
    <tag k="gfoss_id" v="2762"/>
    <tag k="is_in" v="Bozen - Bolzano, Trentino-Südtirol/Alto Adige, Italy"/>
    <tag k="name" v="Brixen - Bressanone"/>
    <tag k="name:de" v="Brixen am Eisack"/>
    <tag k="name:lad" v="Porsenù - Persenon"/>
    <tag k="name:ru" v="Бриксен"/>
    <tag k="place" v="town"/>
    <tag k="population" v="18359"/>
  </node>
  <node id="64777005" version="15" timestamp="2012-06-10T09:05:39Z" uid="115612" user="tyr_asd" changeset="11852001" lat="46.7164202" lon="11.656376">
    <tag k="gfoss_id" v="2762"/>
    <tag k="is_in" v="Bozen - Bolzano, Trentino-Südtirol/Alto Adige, Italy"/>
    <tag k="name" v="Brixen - Bressanone"/>
    <tag k="name:de" v="Brixen"/>
    <tag k="name:lad" v="Porsenù - Persenon"/>
    <tag k="name:ru" v="Бриксен"/>
    <tag k="old_name" v="Brixen am Eisack"/>
    <tag k="place" v="town"/>
    <tag k="population" v="18359"/>
  </node>
  <node id="64777005" version="16" timestamp="2012-06-28T09:26:57Z" uid="115612" user="tyr_asd" changeset="12044617" lat="46.7164202" lon="11.656376">
    <tag k="gfoss_id" v="2762"/>
    <tag k="is_in" v="Bozen - Bolzano, Trentino-Südtirol/Alto Adige, Italy"/>
    <tag k="name" v="Brixen - Bressanone"/>
    <tag k="name:de" v="Brixen"/>
    <tag k="name:it" v="Bressanone"/>
    <tag k="name:lad" v="Porsenù - Persenon"/>
    <tag k="name:ru" v="Бриксен"/>
    <tag k="old_name" v="Brixen am Eisack"/>
    <tag k="place" v="town"/>
    <tag k="population" v="18359"/>
  </node>
  <node id="64777012" version="12" timestamp="2012-09-07T11:05:34Z" uid="606933" user="immaterial" changeset="13021464" lat="46.6033828" lon="11.520854">
    <tag k="gfoss_id" v="2758"/>
    <tag k="is_in" v="Südtirol"/>
    <tag k="name" v="Barbian - Barbiano"/>
    <tag k="name:de" v="Barbian"/>
    <tag k="name:it" v="Barbiano"/>
    <tag k="place" v="village"/>
    <tag k="population" v="1520"/>
  </node>
  <node id="64777030" version="7" timestamp="2012-07-16T09:38:00Z" uid="722137" user="OSMF Redaction Account" changeset="12241765" lat="46.657626" lon="11.923987">
    <tag k="gfoss_id" v="2866"/>
    <tag k="is_in" v="Bolzano - Bozen, Trentino-Südtirol/Alto Adige, Italy"/>
    <tag k="name" v="La Val"/>
    <tag k="name:de" v="Wengen"/>
    <tag k="name:it" v="La Valle"/>
    <tag k="name:lad" v="La Val"/>
    <tag k="place" v="village"/>
    <tag k="population" v="1232"/>
  </node>
  <node id="64777050" version="12" timestamp="2012-07-07T13:55:39Z" uid="24126" user="dforsi" changeset="12140248" lat="46.6399618" lon="11.5663322">
    <tag k="ele" v="525"/>
    <tag k="gfoss_id" v="2773"/>
    <tag k="is_in" v="Bolzano - Bozen, Trentino-Südtirol/Alto Adige, Italy"/>
    <tag k="name" v="Klausen - Chiusa"/>
    <tag k="name:de" v="Klausen"/>
    <tag k="name:it" v="Chiusa"/>
    <tag k="name:lad" v="Tluses"/>
    <tag k="place" v="village"/>
    <tag k="population" v="4613"/>
  </node>
  <node id="64777050" version="13" timestamp="2012-07-07T18:01:29Z" uid="115612" user="tyr_asd" changeset="12142546" lat="46.6399618" lon="11.5663322">
    <tag k="ele" v="525"/>
    <tag k="gfoss_id" v="2773"/>
    <tag k="is_in" v="Bolzano - Bozen, Trentino-Südtirol/Alto Adige, Italy"/>
    <tag k="name" v="Klausen - Chiusa"/>
    <tag k="name:de" v="Klausen"/>
    <tag k="name:it" v="Chiusa"/>
    <tag k="name:lad" v="Tluses"/>
    <tag k="place" v="town"/>
    <tag k="population" v="4613"/>
  </node>
  <node id="64777062" version="11" timestamp="2012-07-16T10:48:07Z" uid="722137" user="OSMF Redaction Account" changeset="12242907" lat="46.5679393" lon="11.5595953">
    <tag k="gfoss_id" v="2770"/>
    <tag k="is_in" v="Bolzano - Bozen, Trentino-Südtirol/Alto Adige, Italy"/>
    <tag k="name" v="Kastelruth - Castelrotto"/>
    <tag k="place" v="village"/>
    <tag k="population" v="5994"/>
  </node>
  <node id="64777096" version="5" timestamp="2012-06-28T10:04:56Z" uid="115612" user="tyr_asd" changeset="12044950" lat="46.7934268" lon="11.9833825">
    <tag k="gfoss_id" v="2814"/>
    <tag k="is_in" v="Bolzano - Bozen, Trentino-Südtirol/Alto Adige, Italy"/>
    <tag k="name" v="Percha - Perca"/>
    <tag k="name:de" v="Percha"/>
    <tag k="name:it" v="Perca"/>
    <tag k="place" v="village"/>
    <tag k="population" v="1313"/>
  </node>
  <node id="64777101" version="15" timestamp="2012-08-13T20:42:01Z" uid="296611" user="Babelic" changeset="12719489" lat="46.574412" lon="11.6689409">
    <tag k="ele" v="1236"/>
    <tag k="gfoss_id" v="2812"/>
    <tag k="is_in" v="Bolzano - Bozen, Trentino-Alto Adige, Italy"/>
    <tag k="name" v="St. Ulrich - Urtijëi"/>
    <tag k="name:de" v="St. Ulrich"/>
    <tag k="name:it" v="Ortisei"/>
    <tag k="name:lad" v="Urtijëi"/>
    <tag k="place" v="village"/>
    <tag k="population" v="4484"/>
    <tag k="source" v="geodati.gfoss.it"/>
  </node>
  <node id="64777140" version="6" timestamp="2012-07-16T12:16:38Z" uid="722137" user="OSMF Redaction Account" changeset="12244002" lat="46.783923" lon="11.227268">
    <tag k="ele" v="595"/>
    <tag k="gfoss_id" v="2833"/>
    <tag k="is_in" v="Bolzano - Bozen, Trentino-Alto Adige, Italy"/>
    <tag k="name" v="St. Martin in Passeier"/>
    <tag k="name:de" v="St. Martin in Passeier"/>
    <tag k="name:it" v="San Martino in Passiria"/>
    <tag k="place" v="village"/>
    <tag k="population" v="2832"/>
    <tag k="source" v="geodati.gfoss.it"/>
  </node>
  <node id="64777148" version="6" timestamp="2012-06-28T09:56:26Z" uid="115612" user="tyr_asd" changeset="12044880" lat="46.6902127" lon="11.1881118">
    <tag k="gfoss_id" v="2837"/>
    <tag k="is_in" v="Bozen-Bolzano, Südtirol/Alto Adige"/>
    <tag k="name" v="Schenna - Scena"/>
    <tag k="name:de" v="Schenna"/>
    <tag k="name:it" v="Scena"/>
    <tag k="place" v="village"/>
    <tag k="population" v="2677"/>
    <tag k="source" v="geodati.gfoss.it"/>
  </node>
  <node id="64777192" version="6" timestamp="2012-08-07T19:06:44Z" uid="334153" user="Alexander Roalter" changeset="12649478" lat="46.7807747" lon="11.6897571">
    <tag k="ele" v="882"/>
    <tag k="gfoss_id" v="2826"/>
    <tag k="is_in" v="Bolzano - Bozen, Trentino-Alto Adige, Italy"/>
    <tag k="name" v="Rodeneck / Rodengo"/>
    <tag k="name:de" v="Rodeneck"/>
    <tag k="name:it" v="Rodengo"/>
    <tag k="place" v="village"/>
    <tag k="population" v="1157"/>
  </node>
  <node id="64777231" version="14" timestamp="2012-06-10T12:13:29Z" uid="616684" user="Wb@osm" changeset="11853482" lat="46.6318311" lon="11.5400752">
    <tag k="gfoss_id" v="2863"/>
    <tag k="is_in" v="Bolzano - Bozen, Trentino-Südtirol/Alto Adige, Italy"/>
    <tag k="name" v="Villanders - Villandro"/>
    <tag k="name:de" v="Villanders"/>
    <tag k="name:it" v="Villandro"/>
    <tag k="place" v="village"/>
    <tag k="population" v="1830"/>
  </node>
  <node id="64777232" version="8" timestamp="2012-07-07T13:57:29Z" uid="24126" user="dforsi" changeset="12140264" lat="46.892527" lon="11.430071">
    <tag k="ele" v="948"/>
    <tag k="gfoss_id" v="2864"/>
    <tag k="is_in" v="Bolzano - Bozen, Trentino-Südtirol/Alto Adige, Italy"/>
    <tag k="name" v="Sterzing - Vipiteno"/>
    <tag k="name:de" v="Sterzing"/>
    <tag k="name:it" v="Vipiteno"/>
    <tag k="place" v="village"/>
    <tag k="population" v="5785"/>
  </node>
  <node id="64777232" version="9" timestamp="2012-07-07T18:01:30Z" uid="115612" user="tyr_asd" changeset="12142546" lat="46.892527" lon="11.430071">
    <tag k="ele" v="948"/>
    <tag k="gfoss_id" v="2864"/>
    <tag k="is_in" v="Bolzano - Bozen, Trentino-Südtirol/Alto Adige, Italy"/>
    <tag k="name" v="Sterzing - Vipiteno"/>
    <tag k="name:de" v="Sterzing"/>
    <tag k="name:it" v="Vipiteno"/>
    <tag k="place" v="town"/>
    <tag k="population" v="5785"/>
  </node>
  <node id="64778090" version="29" timestamp="2012-05-21T19:09:44Z" uid="40611" user="Stereo" changeset="11665173" lat="45.4386691" lon="12.3180644">
    <tag k="capital" v="4"/>
    <tag k="gfoss_id" v="3515"/>
    <tag k="is_in" v="Venezia, Veneto, Italy"/>
    <tag k="is_in:continent" v="Europe"/>
    <tag k="name" v="Venezia"/>
    <tag k="name:ar" v="البندقية"/>
    <tag k="name:ast" v="Venecia"/>
    <tag k="name:cs" v="Benátky"/>
    <tag k="name:cy" v="Fenis"/>
    <tag k="name:da" v="Venedig"/>
    <tag k="name:de" v="Venedig"/>
    <tag k="name:en" v="Venice"/>
    <tag k="name:es" v="Venecia"/>
    <tag k="name:eu" v="Venezia"/>
    <tag k="name:fi" v="Venetsia"/>
    <tag k="name:fr" v="Venise"/>
    <tag k="name:fur" v="Vignesie"/>
    <tag k="name:he" v="ונציה"/>
    <tag k="name:hr" v="Venecija"/>
    <tag k="name:hu" v="Velence"/>
    <tag k="name:lb" v="Venedeg"/>
    <tag k="name:pl" v="Wenecja"/>
    <tag k="name:pt" v="Veneza"/>
    <tag k="name:ro" v="Veneţia"/>
    <tag k="name:ru" v="Венеция"/>
    <tag k="name:sk" v="Benátky"/>
    <tag k="name:sl" v="Benetke"/>
    <tag k="name:sr" v="Венеција"/>
    <tag k="name:sv" v="Venedig"/>
    <tag k="name:ve" v="Venesia"/>
    <tag k="name:vi" v="Vơ-ni-dơ"/>
    <tag k="place" v="city"/>
    <tag k="population" v="271073"/>
    <tag k="rank" v="20"/>
    <tag k="source" v="geodati.gfoss.it"/>
    <tag k="wikipedia" v="Venice"/>
  </node>
  <node id="64778090" version="30" timestamp="2012-07-16T11:06:40Z" uid="73469" user="GatoSelvadego" changeset="12243025" lat="45.4386691" lon="12.3180644">
    <tag k="capital" v="4"/>
    <tag k="gfoss_id" v="3515"/>
    <tag k="is_in" v="Venezia, Veneto, Italy"/>
    <tag k="is_in:continent" v="Europe"/>
    <tag k="name" v="Venezia"/>
    <tag k="name:ar" v="البندقية"/>
    <tag k="name:ast" v="Venecia"/>
    <tag k="name:cs" v="Benátky"/>
    <tag k="name:cy" v="Fenis"/>
    <tag k="name:da" v="Venedig"/>
    <tag k="name:de" v="Venedig"/>
    <tag k="name:en" v="Venice"/>
    <tag k="name:es" v="Venecia"/>
    <tag k="name:eu" v="Venezia"/>
    <tag k="name:fi" v="Venetsia"/>
    <tag k="name:fr" v="Venise"/>
    <tag k="name:fur" v="Vignesie"/>
    <tag k="name:he" v="ונציה"/>
    <tag k="name:hr" v="Venecija"/>
    <tag k="name:hu" v="Velence"/>
    <tag k="name:lb" v="Venedeg"/>
    <tag k="name:pl" v="Wenecja"/>
    <tag k="name:pt" v="Veneza"/>
    <tag k="name:ro" v="Veneţia"/>
    <tag k="name:ru" v="Венеция"/>
    <tag k="name:sk" v="Benátky"/>
    <tag k="name:sl" v="Benetke"/>
    <tag k="name:sr" v="Венеција"/>
    <tag k="name:sv" v="Venedig"/>
    <tag k="name:ve" v="Venesia"/>
    <tag k="name:vec" v="Venesia"/>
    <tag k="name:vi" v="Vơ-ni-dơ"/>
    <tag k="place" v="city"/>
    <tag k="population" v="271073"/>
    <tag k="rank" v="20"/>
    <tag k="source" v="geodati.gfoss.it"/>
    <tag k="wikipedia" v="Venice"/>
  </node>
  <node id="64778090" version="31" timestamp="2012-07-16T19:28:19Z" uid="722137" user="OSMF Redaction Account" changeset="12250284" lat="45.4386691" lon="12.3180644">
    <tag k="capital" v="4"/>
    <tag k="gfoss_id" v="3515"/>
    <tag k="is_in" v="Venezia, Veneto, Italy"/>
    <tag k="is_in:continent" v="Europe"/>
    <tag k="name" v="Venezia"/>
    <tag k="name:ar" v="البندقية"/>
    <tag k="name:ast" v="Venecia"/>
    <tag k="name:cs" v="Benátky"/>
    <tag k="name:cy" v="Fenis"/>
    <tag k="name:da" v="Venedig"/>
    <tag k="name:de" v="Venedig"/>
    <tag k="name:en" v="Venice"/>
    <tag k="name:es" v="Venecia"/>
    <tag k="name:fi" v="Venetsia"/>
    <tag k="name:fr" v="Venise"/>
    <tag k="name:fur" v="Vignesie"/>
    <tag k="name:he" v="ונציה"/>
    <tag k="name:hr" v="Venecija"/>
    <tag k="name:hu" v="Velence"/>
    <tag k="name:lb" v="Venedeg"/>
    <tag k="name:pl" v="Wenecja"/>
    <tag k="name:pt" v="Veneza"/>
    <tag k="name:ro" v="Veneţia"/>
    <tag k="name:ru" v="Венеция"/>
    <tag k="name:sk" v="Benátky"/>
    <tag k="name:sl" v="Benetke"/>
    <tag k="name:sr" v="Венеција"/>
    <tag k="name:sv" v="Venedig"/>
    <tag k="name:ve" v="Venesia"/>
    <tag k="name:vec" v="Venesia"/>
    <tag k="name:vi" v="Vơ-ni-dơ"/>
    <tag k="place" v="city"/>
    <tag k="population" v="271073"/>
    <tag k="rank" v="20"/>
    <tag k="source" v="geodati.gfoss.it"/>
    <tag k="wikipedia" v="Venice"/>
  </node>
  <node id="64778090" version="32" timestamp="2012-08-10T20:32:40Z" uid="476763" user="BernyAonAt" changeset="12684594" lat="45.4386691" lon="12.3180644">
    <tag k="capital" v="4"/>
    <tag k="gfoss_id" v="3515"/>
    <tag k="is_in" v="Venezia, Veneto, Italy"/>
    <tag k="is_in:continent" v="Europe"/>
    <tag k="name" v="Venezia"/>
    <tag k="name:ar" v="البندقية"/>
    <tag k="name:ast" v="Venecia"/>
    <tag k="name:cs" v="Benátky"/>
    <tag k="name:cy" v="Fenis"/>
    <tag k="name:da" v="Venedig"/>
    <tag k="name:de" v="Venedig"/>
    <tag k="name:en" v="Venice"/>
    <tag k="name:es" v="Venecia"/>
    <tag k="name:fi" v="Venetsia"/>
    <tag k="name:fr" v="Venise"/>
    <tag k="name:fur" v="Vignesie"/>
    <tag k="name:he" v="ונציה"/>
    <tag k="name:hr" v="Venecija"/>
    <tag k="name:hu" v="Velence"/>
    <tag k="name:lb" v="Venedeg"/>
    <tag k="name:pl" v="Wenecja"/>
    <tag k="name:pt" v="Veneza"/>
    <tag k="name:ro" v="Veneţia"/>
    <tag k="name:ru" v="Венеция"/>
    <tag k="name:sk" v="Benátky"/>
    <tag k="name:sl" v="Benetke"/>
    <tag k="name:sr" v="Венеција"/>
    <tag k="name:sv" v="Venedig"/>
    <tag k="name:ve" v="Venesia"/>
    <tag k="name:vec" v="Venesia"/>
    <tag k="name:vi" v="Vơ-ni-dơ"/>
    <tag k="place" v="city"/>
    <tag k="population" v="271073"/>
    <tag k="rank" v="20"/>
    <tag k="source" v="geodati.gfoss.it"/>
    <tag k="wikipedia" v="Venice"/>
  </node>
  <node id="64778098" version="11" timestamp="2012-07-16T11:11:55Z" uid="73469" user="GatoSelvadego" changeset="12243025" lat="45.6678643" lon="12.2510052">
    <tag k="capital" v="6"/>
    <tag k="gfoss_id" v="3464"/>
    <tag k="is_in" v="Treviso, Veneto, Italy"/>
    <tag k="is_in:continent" v="Europe"/>
    <tag k="name" v="Treviso"/>
    <tag k="name:fr" v="Trévise"/>
    <tag k="name:fur" v="Trevîs"/>
    <tag k="name:ru" v="Тревизо"/>
    <tag k="name:vec" v="Trevixo"/>
    <tag k="place" v="city"/>
    <tag k="population" v="80144"/>
    <tag k="source" v="geodati.gfoss.it"/>
    <tag k="wikipedia" v="Treviso"/>
  </node>
  <node id="64778101" version="15" timestamp="2012-07-16T16:36:45Z" uid="722137" user="OSMF Redaction Account" changeset="12247801" lat="45.4382221" lon="10.9935545">
    <tag k="capital" v="6"/>
    <tag k="gfoss_id" v="3181"/>
    <tag k="is_in" v="Verona, Veneto, Italy"/>
    <tag k="is_in:continent" v="Europe"/>
    <tag k="name" v="Verona"/>
    <tag k="name:fr" v="Vérone"/>
    <tag k="name:ru" v="Верона"/>
    <tag k="name:sr" v="Верона"/>
    <tag k="place" v="city"/>
    <tag k="population" v="253208"/>
    <tag k="source" v="geodati.gfoss.it"/>
    <tag k="wikipedia" v="Verona"/>
  </node>
  <node id="64778101" version="16" timestamp="2012-07-18T14:56:50Z" uid="351361" user="dvdzero" changeset="12285888" lat="45.4382221" lon="10.9935545">
    <tag k="capital" v="6"/>
    <tag k="gfoss_id" v="3181"/>
    <tag k="is_in" v="Verona, Veneto, Italy"/>
    <tag k="is_in:continent" v="Europe"/>
    <tag k="name" v="Verona"/>
    <tag k="name:fr" v="Vérone"/>
    <tag k="name:it" v="Verona"/>
    <tag k="name:ru" v="Верона"/>
    <tag k="name:sr" v="Верона"/>
    <tag k="place" v="city"/>
    <tag k="population" v="253208"/>
    <tag k="source" v="geodati.gfoss.it"/>
    <tag k="wikipedia" v="Verona"/>
  </node>
  <node id="64778101" version="17" timestamp="2012-09-02T04:46:21Z" uid="52239" user="ipofanes" changeset="12949166" lat="45.4382221" lon="10.9935545">
    <tag k="capital" v="6"/>
    <tag k="gfoss_id" v="3181"/>
    <tag k="is_in" v="Verona, Veneto, Italy"/>
    <tag k="is_in:continent" v="Europe"/>
    <tag k="name" v="Verona"/>
    <tag k="name:de" v="Bern"/>
    <tag k="name:fr" v="Vérone"/>
    <tag k="name:it" v="Verona"/>
    <tag k="name:ru" v="Верона"/>
    <tag k="name:sr" v="Верона"/>
    <tag k="place" v="city"/>
    <tag k="population" v="253208"/>
    <tag k="source" v="geodati.gfoss.it"/>
    <tag k="wikipedia" v="Verona"/>
  </node>
  <node id="64778102" version="10" timestamp="2012-07-16T11:11:55Z" uid="73469" user="GatoSelvadego" changeset="12243025" lat="45.5476484" lon="11.5456828">
    <tag k="capital" v="6"/>
    <tag k="gfoss_id" v="3303"/>
    <tag k="is_in" v="Vicenza, Veneto, Italy"/>
    <tag k="is_in:continent" v="Europe"/>
    <tag k="name" v="Vicenza"/>
    <tag k="name:fr" v="Vicence"/>
    <tag k="name:ru" v="Виченца"/>
    <tag k="name:sr" v="Виценца"/>
    <tag k="name:vec" v="Vicensa"/>
    <tag k="place" v="city"/>
    <tag k="population" v="107223"/>
    <tag k="source" v="geodati.gfoss.it"/>
    <tag k="wikipedia" v="Vicenza"/>
  </node>
</osm>
