<?xml version='1.0' encoding='UTF-8'?>
<osm version="0.6" generator="libosmium/2.20.0">
  <node id="64799622" version="11" timestamp="2009-07-26T01:48:45Z" uid="123700" user="Mala" changeset="1939972" lat="51.0333263" lon="2.8647191">
    <tag k="is_in" v="West-Vlaanderen, Belgium, Europe"/>
    <tag k="name" v="Diksmuide"/>
    <tag k="name:fr" v="Dixmude"/>
    <tag k="openGeoDB:auto_update" v="population"/>
    <tag k="openGeoDB:is_in" v="Diksmuide,Diksmuide,Diksmuide,Diksmuide,West-Vlaanderen,West-Vlaanderen,Vlaanderen,Vlaanderen,Belgique,Belgique,Europe"/>
    <tag k="openGeoDB:is_in_loc_id" v="35395"/>
    <tag k="openGeoDB:layer" v="7"/>
    <tag k="openGeoDB:loc_id" v="32918"/>
    <tag k="openGeoDB:name" v="Diksmuide,Diksmuide"/>
    <tag k="openGeoDB:postal_codes" v="8600"/>
    <tag k="openGeoDB:sort_name" v="DIKSMUIDE"/>
    <tag k="openGeoDB:type" v="100600000"/>
    <tag k="openGeoDB:version" v="0.2.6.11 / 2007-12-04 / http://fa-technik.adfc.de/code/opengeodb/dump/"/>
    <tag k="opengeodb:lat" v="51.0319295"/>
    <tag k="opengeodb:lon" v="2.860665"/>
    <tag k="place" v="town"/>
    <tag k="wikipedia" v="Diksmuide"/>
  </node>
  <node id="64799622" version="12" timestamp="2012-02-29T18:44:50Z" uid="6072" user="Eimai" changeset="10830865" lat="51.0333263" lon="2.8647191"/>
</osm>
