<?xml version='1.0' encoding='UTF-8'?>
<osm version="0.6" generator="libosmium/2.20.0">
  <node id="649607174" version="3" timestamp="2010-05-25T13:39:49Z" uid="115477" user="wowik" changeset="4803749" lat="55.8924312" lon="37.426902">
    <tag k="historic" v="monument"/>
    <tag k="name" v="ЛА-7"/>
  </node>
  <node id="649607174" version="4" timestamp="2010-06-15T20:47:15Z" uid="206282" user="Amigo" changeset="4995533" lat="55.8924313" lon="37.426902">
    <tag k="addr:city" v="Химки"/>
    <tag k="addr:street" v="улица Лавочкина"/>
    <tag k="historic" v="monument"/>
    <tag k="name" v="Самолет ЛА-7"/>
  </node>
  <node id="649607174" version="5" timestamp="2012-07-20T13:39:53Z" uid="722137" user="OSMF Redaction Account" changeset="12378071" lat="55.8924022" lon="37.4271131">
    <tag k="addr:city" v="Химки"/>
    <tag k="addr:street" v="улица Лавочкина"/>
    <tag k="historic" v="monument"/>
    <tag k="name" v="Самолет ЛА-7"/>
  </node>
  <node id="649607174" version="6" timestamp="2012-07-31T14:29:41Z" uid="206282" user="Amigo" changeset="12562168" lat="55.8925028" lon="37.4269009">
    <tag k="addr:city" v="Химки"/>
    <tag k="addr:street" v="улица Лавочкина"/>
    <tag k="historic" v="monument"/>
    <tag k="name" v="Самолет ЛА-7"/>
  </node>
</osm>
