<?xml version='1.0' encoding='UTF-8'?>
<osm version="0.6" generator="libosmium/2.20.0">
  <node id="65221200" version="1" timestamp="2007-10-11T21:36:45Z" uid="4667" user="MapZ" changeset="122267" lat="49.4760484" lon="8.4884597">
    <tag k="amenity" v="fuel"/>
    <tag k="created_by" v="JOSM"/>
    <tag k="name" v="Aral"/>
  </node>
  <node id="65221200" version="3" timestamp="2009-11-05T19:44:24Z" uid="183436" user="mtb" changeset="3043179" lat="49.4760535" lon="8.4884572">
    <tag k="amenity" v="fuel"/>
    <tag k="name" v="Aral"/>
  </node>
  <node id="65221200" version="4" timestamp="2011-09-19T13:07:58Z" uid="6326" user="mike_hd" changeset="9342512" lat="49.4757891" lon="8.4882662">
    <tag k="amenity" v="fuel"/>
    <tag k="name" v="Aral"/>
  </node>
  <node id="65221200" version="5" timestamp="2011-12-25T17:38:26Z" uid="165061" user="keinname" changeset="10201557" lat="49.4757891" lon="8.4882662">
    <tag k="addr:city" v="Mannheim"/>
    <tag k="addr:country" v="DE"/>
    <tag k="addr:street" v="ViehhofstraÃŸe"/>
    <tag k="amenity" v="fuel"/>
    <tag k="brand" v="Aral"/>
    <tag k="name" v="Aral"/>
  </node>
  <node id="65221200" version="6" timestamp="2012-02-18T12:08:31Z" uid="136321" user="Teddy73" changeset="10719149" lat="49.4757891" lon="8.4882662"/>
</osm>
