<?xml version='1.0' encoding='UTF-8'?>
<osm version="0.6" generator="libosmium/2.20.0">
  <node id="65310133" version="1" timestamp="2007-10-11T22:42:24Z" uid="4667" user="MapZ" changeset="122267" lat="49.519677" lon="8.5564469">
    <tag k="created_by" v="JOSM"/>
    <tag k="name" v="Walmart"/>
    <tag k="shop" v="supermarket"/>
  </node>
  <node id="65310133" version="3" timestamp="2007-11-19T12:28:18Z" changeset="566744" lat="49.519677" lon="8.5564469">
    <tag k="amenity" v="supermarket"/>
    <tag k="created_by" v="JOSM"/>
    <tag k="name" v="Real"/>
    <tag k="shop" v="supermarket"/>
  </node>
  <node id="65310133" version="4" timestamp="2008-06-05T02:45:02Z" uid="3516" user="BiIbo" changeset="58435" lat="49.519677" lon="8.5564469">
    <tag k="created_by" v="JOSM"/>
    <tag k="name" v="Real"/>
    <tag k="shop" v="supermarket"/>
  </node>
  <node id="65310133" version="5" timestamp="2008-12-01T14:17:36Z" uid="7562" user="LosHawlos" changeset="16929" lat="49.519677" lon="8.5564469">
    <tag k="addr:city" v="Mannheim"/>
    <tag k="addr:postcode" v="68309"/>
    <tag k="created_by" v="JOSM"/>
    <tag k="name" v="Real"/>
    <tag k="shop" v="supermarket"/>
  </node>
  <node id="65310133" version="6" timestamp="2008-12-04T11:24:53Z" uid="7562" user="LosHawlos" changeset="95791" lat="49.5196145" lon="8.5557727">
    <tag k="addr:city" v="Mannheim"/>
    <tag k="addr:postcode" v="68309"/>
    <tag k="created_by" v="JOSM"/>
    <tag k="name" v="Real"/>
    <tag k="shop" v="supermarket"/>
  </node>
  <node id="65310133" version="7" timestamp="2010-11-18T14:10:54Z" uid="245137" user="maurice2010" changeset="6400247" lat="49.5191046" lon="8.5558475">
    <tag k="addr:city" v="Mannheim"/>
    <tag k="addr:postcode" v="68309"/>
    <tag k="name" v="real,-"/>
    <tag k="shop" v="supermarket"/>
  </node>
  <node id="65310133" version="8" timestamp="2010-12-02T17:07:19Z" uid="378480" user="DakotaTB" changeset="6516837" lat="49.5191046" lon="8.5558476">
    <tag k="addr:city" v="Mannheim"/>
    <tag k="addr:housenumber" v="38-40"/>
    <tag k="addr:postcode" v="68309"/>
    <tag k="addr:street" v="Spreewaldallee"/>
    <tag k="name" v="real,-"/>
    <tag k="shop" v="supermarket"/>
  </node>
  <node id="65310133" version="9" timestamp="2011-08-14T09:37:31Z" uid="165061" user="keinname" changeset="9013543" lat="49.5191046" lon="8.5558476">
    <tag k="addr:city" v="Mannheim"/>
    <tag k="addr:country" v="DE"/>
    <tag k="addr:housenumber" v="38-40"/>
    <tag k="addr:postcode" v="68309"/>
    <tag k="addr:street" v="Spreewaldallee"/>
    <tag k="name" v="real,-"/>
    <tag k="opening_hours" v="Mo-Sa 08:00-22:00"/>
    <tag k="phone" v="+49 621 7001500"/>
    <tag k="shop" v="supermarket"/>
  </node>
  <node id="65310133" version="10" timestamp="2011-10-08T20:22:22Z" uid="290680" user="wheelmap_visitor" changeset="9499106" lat="49.5191046" lon="8.5558476">
    <tag k="addr:city" v="Mannheim"/>
    <tag k="addr:country" v="DE"/>
    <tag k="addr:housenumber" v="38-40"/>
    <tag k="addr:postcode" v="68309"/>
    <tag k="addr:street" v="Spreewaldallee"/>
    <tag k="name" v="real,-"/>
    <tag k="opening_hours" v="Mo-Sa 08:00-22:00"/>
    <tag k="phone" v="+49 621 7001500"/>
    <tag k="shop" v="supermarket"/>
    <tag k="wheelchair" v="limited"/>
  </node>
  <node id="65310133" version="11" timestamp="2011-10-17T10:27:59Z" uid="290680" user="wheelmap_visitor" changeset="9578325" lat="49.5191046" lon="8.5558476">
    <tag k="addr:city" v="Mannheim"/>
    <tag k="addr:country" v="DE"/>
    <tag k="addr:housenumber" v="38-40"/>
    <tag k="addr:postcode" v="68309"/>
    <tag k="addr:street" v="Spreewaldallee"/>
    <tag k="name" v="real,-"/>
    <tag k="opening_hours" v="Mo-Sa 08:00-22:00"/>
    <tag k="phone" v="+49 621 7001500"/>
    <tag k="shop" v="supermarket"/>
    <tag k="wheelchair" v="yes"/>
  </node>
  <node id="65310133" version="12" timestamp="2012-03-28T16:51:08Z" uid="110838" user="Bernhard W" changeset="11128753" lat="49.5191046" lon="8.5558476">
    <tag k="addr:city" v="Mannheim"/>
    <tag k="addr:country" v="DE"/>
    <tag k="addr:housenumber" v="38-40"/>
    <tag k="addr:postcode" v="68309"/>
    <tag k="addr:street" v="Spreewaldallee"/>
    <tag k="name" v="real,-"/>
    <tag k="odbl" v="clean"/>
    <tag k="opening_hours" v="Mo-Sa 08:00-22:00"/>
    <tag k="phone" v="+49 621 7001500"/>
    <tag k="shop" v="supermarket"/>
    <tag k="wheelchair" v="yes"/>
  </node>
  <node id="65310244" version="5" timestamp="2011-04-03T08:36:27Z" uid="20587" user="balrog-kun" changeset="7751345" lat="37.7312376" lon="-122.4050999">
    <tag k="highway" v="traffic_signals"/>
    <tag k="traffic_signals:sound" v="yes"/>
  </node>
  <node id="65310315" version="9" timestamp="2011-04-02T20:48:00Z" uid="20587" user="balrog-kun" changeset="7748237" lat="37.7120852" lon="-122.4025209">
    <tag k="highway" v="traffic_signals"/>
    <tag k="source" v="Yahoo"/>
    <tag k="traffic_signals:sound" v="yes"/>
  </node>
  <node id="65310980" version="9" timestamp="2011-04-12T08:33:35Z" uid="20587" user="balrog-kun" changeset="7839963" lat="37.7306109" lon="-122.4312157">
    <tag k="highway" v="traffic_signals"/>
  </node>
  <node id="65311526" version="6" timestamp="2011-04-12T08:33:27Z" uid="20587" user="balrog-kun" changeset="7839963" lat="37.7299391" lon="-122.4332462">
    <tag k="highway" v="crossing"/>
  </node>
  <node id="65311854" version="4" timestamp="2011-04-02T22:08:55Z" uid="20587" user="balrog-kun" changeset="7748932" lat="37.715753" lon="-122.441554">
    <tag k="highway" v="traffic_signals"/>
    <tag k="traffic_signals:sound" v="yes"/>
  </node>
  <node id="65313126" version="7" timestamp="2011-03-16T23:30:38Z" uid="20587" user="balrog-kun" changeset="7580979" lat="37.7840359" lon="-122.4080968">
    <tag k="highway" v="traffic_signals"/>
    <tag k="traffic_signals:sound" v="yes"/>
  </node>
  <node id="65313126" version="8" timestamp="2012-01-07T03:32:49Z" uid="28775" user="StellanL" changeset="10318132" lat="37.7840224" lon="-122.4081157">
    <tag k="highway" v="traffic_signals"/>
    <tag k="traffic_signals:sound" v="yes"/>
  </node>
  <node id="65314683" version="6" timestamp="2010-03-18T22:05:20Z" uid="20587" user="balrog-kun" changeset="4165927" lat="37.7950107" lon="-122.4075236"/>
  <node id="65314683" version="7" timestamp="2011-11-09T13:59:09Z" uid="28775" user="StellanL" changeset="9781301" lat="37.7950068" lon="-122.4075228"/>
  <node id="65314953" version="5" timestamp="2011-04-09T08:58:26Z" uid="20587" user="balrog-kun" changeset="7811140" lat="37.7315855" lon="-122.448866">
    <tag k="highway" v="traffic_signals"/>
  </node>
  <node id="65315477" version="6" timestamp="2011-03-17T02:36:10Z" uid="20587" user="balrog-kun" changeset="7581580" lat="37.7783366" lon="-122.3965324">
    <tag k="highway" v="traffic_signals"/>
    <tag k="traffic_signals:sound" v="yes"/>
  </node>
  <node id="65315477" version="7" timestamp="2011-04-30T00:24:36Z" uid="14293" user="JuxTPosition" changeset="8007893" lat="37.7783395" lon="-122.396536">
    <tag k="highway" v="traffic_signals"/>
    <tag k="traffic_signals:sound" v="yes"/>
  </node>
  <node id="65315477" version="8" timestamp="2011-05-02T20:41:49Z" uid="14293" user="JuxTPosition" changeset="8034497" lat="37.7783334" lon="-122.3965439">
    <tag k="highway" v="traffic_signals"/>
    <tag k="traffic_signals:sound" v="yes"/>
  </node>
  <node id="65317042" version="6" timestamp="2011-04-26T07:56:32Z" uid="20587" user="balrog-kun" changeset="7971897" lat="37.7855361" lon="-122.3967194">
    <tag k="highway" v="traffic_signals"/>
    <tag k="traffic_signals:sound" v="yes"/>
    <tag k="turn_restrictions" v="no"/>
  </node>
  <node id="65317042" version="7" timestamp="2011-04-30T00:44:08Z" uid="14293" user="JuxTPosition" changeset="8007967" lat="37.785539" lon="-122.3967231">
    <tag k="highway" v="traffic_signals"/>
    <tag k="traffic_signals:sound" v="yes"/>
    <tag k="turn_restrictions" v="no"/>
  </node>
  <node id="65317042" version="8" timestamp="2011-04-30T00:53:32Z" uid="14293" user="JuxTPosition" changeset="8007967" lat="37.7855398" lon="-122.3967241">
    <tag k="highway" v="traffic_signals"/>
    <tag k="traffic_signals:sound" v="yes"/>
    <tag k="turn_restrictions" v="no"/>
  </node>
  <node id="65317042" version="9" timestamp="2011-05-02T22:58:32Z" uid="14293" user="JuxTPosition" changeset="8035462" lat="37.7855436" lon="-122.3967193">
    <tag k="highway" v="traffic_signals"/>
    <tag k="traffic_signals:sound" v="yes"/>
    <tag k="turn_restrictions" v="no"/>
  </node>
  <node id="65317045" version="6" timestamp="2011-03-16T23:30:39Z" uid="20587" user="balrog-kun" changeset="7580979" lat="37.7842996" lon="-122.3951756">
    <tag k="highway" v="traffic_signals"/>
    <tag k="traffic_signals:sound" v="yes"/>
  </node>
  <node id="65317045" version="7" timestamp="2011-05-02T21:22:35Z" uid="14293" user="JuxTPosition" changeset="8034497" lat="37.7843079" lon="-122.3951867">
    <tag k="highway" v="traffic_signals"/>
    <tag k="traffic_signals:sound" v="yes"/>
  </node>
  <node id="65317045" version="8" timestamp="2011-05-02T22:58:32Z" uid="14293" user="JuxTPosition" changeset="8035462" lat="37.7843129" lon="-122.3951781">
    <tag k="highway" v="traffic_signals"/>
    <tag k="traffic_signals:sound" v="yes"/>
  </node>
  <node id="65317060" version="9" timestamp="2011-03-17T02:36:20Z" uid="20587" user="balrog-kun" changeset="7581580" lat="37.7799357" lon="-122.389667">
    <tag k="highway" v="traffic_signals"/>
    <tag k="traffic_signals:sound" v="yes"/>
    <tag k="turn_restrictions" v="no"/>
  </node>
  <node id="65317060" version="10" timestamp="2011-05-02T22:58:32Z" uid="14293" user="JuxTPosition" changeset="8035462" lat="37.7799264" lon="-122.3896789">
    <tag k="highway" v="traffic_signals"/>
    <tag k="traffic_signals:sound" v="yes"/>
    <tag k="turn_restrictions" v="no"/>
  </node>
  <node id="65317371" version="6" timestamp="2011-03-17T23:53:07Z" uid="20587" user="balrog-kun" changeset="7591208" lat="37.7641109" lon="-122.413003">
    <tag k="highway" v="traffic_signals"/>
    <tag k="traffic_signals:sound" v="yes"/>
  </node>
  <node id="65317371" version="7" timestamp="2012-03-17T02:51:35Z" uid="14293" user="JuxTPosition" changeset="11004273" lat="37.7641084" lon="-122.4130106">
    <tag k="highway" v="traffic_signals"/>
    <tag k="traffic_signals:sound" v="yes"/>
  </node>
  <node id="65317521" version="9" timestamp="2011-04-26T07:56:31Z" uid="20587" user="balrog-kun" changeset="7971897" lat="37.7879929" lon="-122.393609">
    <tag k="highway" v="traffic_signals"/>
    <tag k="traffic_signals:sound" v="yes"/>
  </node>
  <node id="65317521" version="10" timestamp="2011-04-30T00:44:08Z" uid="14293" user="JuxTPosition" changeset="8007967" lat="37.7880031" lon="-122.3936166">
    <tag k="highway" v="traffic_signals"/>
    <tag k="traffic_signals:sound" v="yes"/>
  </node>
  <node id="65317585" version="4" timestamp="2011-03-17T23:53:04Z" uid="20587" user="balrog-kun" changeset="7591208" lat="37.766937" lon="-122.415462">
    <tag k="highway" v="traffic_signals"/>
    <tag k="traffic_signals:sound" v="yes"/>
  </node>
  <node id="65317585" version="5" timestamp="2012-03-17T02:51:37Z" uid="14293" user="JuxTPosition" changeset="11004273" lat="37.7669359" lon="-122.4154813">
    <tag k="highway" v="traffic_signals"/>
    <tag k="traffic_signals:sound" v="yes"/>
  </node>
  <node id="65317590" version="4" timestamp="2011-03-17T23:53:06Z" uid="20587" user="balrog-kun" changeset="7591208" lat="37.765315" lon="-122.415308">
    <tag k="highway" v="traffic_signals"/>
    <tag k="traffic_signals:sound" v="yes"/>
  </node>
  <node id="65317590" version="5" timestamp="2012-03-17T02:51:37Z" uid="14293" user="JuxTPosition" changeset="11004273" lat="37.7653139" lon="-122.4153263">
    <tag k="highway" v="traffic_signals"/>
    <tag k="traffic_signals:sound" v="yes"/>
  </node>
  <node id="65317595" version="5" timestamp="2011-03-17T23:52:56Z" uid="20587" user="balrog-kun" changeset="7591208" lat="37.762099" lon="-122.414999">
    <tag k="highway" v="traffic_signals"/>
    <tag k="traffic_signals:sound" v="yes"/>
  </node>
  <node id="65317595" version="6" timestamp="2012-03-17T02:51:37Z" uid="14293" user="JuxTPosition" changeset="11004273" lat="37.7620978" lon="-122.4150189">
    <tag k="highway" v="traffic_signals"/>
    <tag k="traffic_signals:sound" v="yes"/>
  </node>
  <node id="65317769" version="13" timestamp="2011-03-17T23:53:11Z" uid="20587" user="balrog-kun" changeset="7591208" lat="37.7695079" lon="-122.4133565">
    <tag k="highway" v="traffic_signals"/>
    <tag k="traffic_signals:sound" v="yes"/>
  </node>
  <node id="65317778" version="4" timestamp="2011-03-17T23:53:01Z" uid="20587" user="balrog-kun" changeset="7591208" lat="37.76707" lon="-122.41326">
    <tag k="highway" v="traffic_signals"/>
    <tag k="traffic_signals:sound" v="yes"/>
  </node>
  <node id="65317778" version="5" timestamp="2012-03-17T02:51:38Z" uid="14293" user="JuxTPosition" changeset="11004273" lat="37.767068" lon="-122.4132923">
    <tag k="highway" v="traffic_signals"/>
    <tag k="traffic_signals:sound" v="yes"/>
  </node>
  <node id="65317782" version="5" timestamp="2011-03-17T23:52:57Z" uid="20587" user="balrog-kun" changeset="7591208" lat="37.762229" lon="-122.412844">
    <tag k="highway" v="traffic_signals"/>
    <tag k="traffic_signals:sound" v="yes"/>
  </node>
  <node id="65317782" version="6" timestamp="2012-03-17T02:51:38Z" uid="14293" user="JuxTPosition" changeset="11004273" lat="37.7622297" lon="-122.4128321">
    <tag k="highway" v="traffic_signals"/>
    <tag k="traffic_signals:sound" v="yes"/>
  </node>
  <node id="65317932" version="5" timestamp="2010-03-20T09:03:26Z" uid="20587" user="balrog-kun" changeset="4177344" lat="37.786762" lon="-122.404622">
    <tag k="highway" v="traffic_signals"/>
    <tag k="traffic_signals:sound" v="yes"/>
  </node>
  <node id="65317932" version="6" timestamp="2012-01-07T03:33:04Z" uid="28775" user="StellanL" changeset="10318132" lat="37.786762" lon="-122.404622"/>
  <node id="65317947" version="4" timestamp="2010-03-18T22:05:17Z" uid="20587" user="balrog-kun" changeset="4165927" lat="37.785996" lon="-122.411326">
    <tag k="highway" v="traffic_signals"/>
  </node>
  <node id="65317947" version="5" timestamp="2011-02-19T04:30:31Z" uid="116029" user="Gregory Arenius" changeset="7328569" lat="37.7860176" lon="-122.4113332">
    <tag k="highway" v="traffic_signals"/>
  </node>
  <node id="65317947" version="6" timestamp="2012-01-07T03:33:05Z" uid="28775" user="StellanL" changeset="10318132" lat="37.7860176" lon="-122.4113332"/>
  <node id="65317950" version="4" timestamp="2010-03-18T22:05:17Z" uid="20587" user="balrog-kun" changeset="4165927" lat="37.78579" lon="-122.41297">
    <tag k="highway" v="traffic_signals"/>
  </node>
  <node id="65317950" version="5" timestamp="2011-02-19T04:30:29Z" uid="116029" user="Gregory Arenius" changeset="7328569" lat="37.785807" lon="-122.4129743">
    <tag k="highway" v="traffic_signals"/>
    <tag k="turn_restrictions" v="no"/>
  </node>
  <node id="65317950" version="6" timestamp="2012-01-07T03:33:05Z" uid="28775" user="StellanL" changeset="10318132" lat="37.785807" lon="-122.4129743"/>
  <node id="65318205" version="3" timestamp="2011-04-12T08:33:28Z" uid="20587" user="balrog-kun" changeset="7839963" lat="37.725791" lon="-122.389801">
    <tag k="highway" v="stop"/>
  </node>
  <node id="65318207" version="4" timestamp="2011-04-12T08:33:46Z" uid="20587" user="balrog-kun" changeset="7839963" lat="37.726851" lon="-122.39167">
    <tag k="highway" v="stop"/>
  </node>
  <node id="65318211" version="4" timestamp="2011-03-27T06:43:16Z" uid="20587" user="balrog-kun" changeset="7682535" lat="37.727913" lon="-122.393529">
    <tag k="highway" v="traffic_signals"/>
    <tag k="traffic_signals:sound" v="yes"/>
  </node>
  <node id="65318562" version="4" timestamp="2010-03-18T22:05:20Z" uid="20587" user="balrog-kun" changeset="4165927" lat="37.7950424" lon="-122.4072667"/>
  <node id="65318562" version="5" timestamp="2011-11-09T13:59:08Z" uid="28775" user="StellanL" changeset="9781301" lat="37.7950389" lon="-122.407266"/>
  <node id="65319054" version="4" timestamp="2011-03-27T05:40:39Z" uid="20587" user="balrog-kun" changeset="7682307" lat="37.799579" lon="-122.430935">
    <tag k="highway" v="stop"/>
  </node>
  <node id="65319123" version="1" timestamp="2007-10-11T22:47:34Z" uid="4667" user="MapZ" changeset="122267" lat="49.4687389" lon="8.599064">
    <tag k="created_by" v="JOSM"/>
    <tag k="is_in" v="Edingen-Neckarhausen"/>
    <tag k="name" v="Neckarhausen"/>
    <tag k="place" v="suburb"/>
  </node>
  <node id="65319123" version="2" timestamp="2009-04-13T00:55:50Z" changeset="470822" lat="49.4687389" lon="8.599064">
    <tag k="created_by" v="JOSM"/>
    <tag k="is_in" v="Edingen-Neckarhausen"/>
    <tag k="name" v="Neckarhausen"/>
    <tag k="place" v="suburb"/>
    <tag k="postal_code" v="68535"/>
  </node>
  <node id="65319130" version="1" timestamp="2007-10-11T22:47:34Z" uid="4667" user="MapZ" changeset="122267" lat="49.4472377" lon="8.6109531">
    <tag k="created_by" v="JOSM"/>
    <tag k="is_in" v="Edingen-Neckarhausen"/>
    <tag k="name" v="Edingen"/>
    <tag k="place" v="suburb"/>
  </node>
  <node id="65319130" version="2" timestamp="2007-11-12T17:41:14Z" uid="18690" user="stoschek" changeset="484322" lat="49.4472427" lon="8.6109504">
    <tag k="created_by" v="Potlatch 0.5"/>
    <tag k="is_in" v="Edingen-Neckarhausen"/>
    <tag k="name" v="Edingen"/>
    <tag k="place" v="suburb"/>
  </node>
  <node id="65319130" version="3" timestamp="2008-07-07T09:12:40Z" uid="6326" user="mike_hd" changeset="420272" lat="49.4472431" lon="8.6109427">
    <tag k="created_by" v="Potlatch 0.9c"/>
    <tag k="is_in" v="Edingen-Neckarhausen"/>
    <tag k="name" v="Edingen"/>
    <tag k="place" v="suburb"/>
  </node>
  <node id="65319130" version="4" timestamp="2008-09-11T11:38:32Z" uid="6326" user="mike_hd" changeset="602358" lat="49.447246" lon="8.610942">
    <tag k="created_by" v="Potlatch 0.10b"/>
    <tag k="is_in" v="Edingen-Neckarhausen"/>
    <tag k="name" v="Edingen"/>
    <tag k="place" v="suburb"/>
  </node>
  <node id="65319130" version="5" timestamp="2008-10-16T15:29:02Z" uid="6326" user="mike_hd" changeset="374654" lat="49.4460749" lon="8.6120534">
    <tag k="created_by" v="Potlatch 0.10b"/>
    <tag k="is_in" v="Edingen-Neckarhausen"/>
    <tag k="name" v="Edingen"/>
    <tag k="place" v="suburb"/>
  </node>
  <node id="65319130" version="6" timestamp="2012-01-02T01:14:29Z" uid="136321" user="Teddy73" changeset="10265399" lat="49.4460749" lon="8.6120534">
    <tag k="is_in" v="Edingen-Neckarhausen"/>
    <tag k="name" v="Edingen"/>
    <tag k="place" v="suburb"/>
  </node>
  <node id="65319130" version="7" timestamp="2012-03-21T16:35:04Z" uid="136321" user="Teddy73" changeset="11054093" lat="49.4460749" lon="8.6120534"/>
  <node id="65319137" version="1" timestamp="2007-10-11T22:47:35Z" uid="4667" user="MapZ" changeset="122267" lat="49.4572728" lon="8.6053921">
    <tag k="created_by" v="JOSM"/>
    <tag k="name" v="Edingen-Neckarhausen"/>
    <tag k="place" v="town"/>
  </node>
  <node id="65319137" version="2" timestamp="2007-11-12T17:41:09Z" uid="18690" user="stoschek" changeset="484322" lat="49.457275" lon="8.6053886">
    <tag k="created_by" v="Potlatch 0.5"/>
    <tag k="name" v="Edingen-Neckarhausen"/>
    <tag k="place" v="town"/>
  </node>
  <node id="65319137" version="3" timestamp="2008-01-19T20:22:00Z" uid="24767" user="OpenGeoDB Bot" changeset="668163" lat="49.457275" lon="8.6053886">
    <tag k="created_by" v="opengeodb2osm0.5.2"/>
    <tag k="is_in" v="Rhein-Neckar-Kreis,Karlsruhe,Baden-W端rttemberg,Bundesrepublik Deutschland,Europe"/>
    <tag k="name" v="Edingen-Neckarhausen"/>
    <tag k="openGeoDB:auto_update" v="population,is_in"/>
    <tag k="openGeoDB:community_identification_number" v="08226105"/>
    <tag k="openGeoDB:is_in" v="Rhein-Neckar-Kreis,Karlsruhe,Baden-W端rttemberg,Bundesrepublik Deutschland,Europe"/>
    <tag k="openGeoDB:is_in_loc_id" v="361"/>
    <tag k="openGeoDB:layer" v="6"/>
    <tag k="openGeoDB:license_plate_code" v="HD"/>
    <tag k="openGeoDB:loc_id" v="15966"/>
    <tag k="openGeoDB:name" v="Edingen-Neckarhausen"/>
    <tag k="openGeoDB:population" v="13867"/>
    <tag k="openGeoDB:postal_codes" v="68535"/>
    <tag k="openGeoDB:sort_name" v="EDINGEN-NECKARHAUSEN"/>
    <tag k="openGeoDB:telephone_area_code" v="06203"/>
    <tag k="openGeoDB:type" v="Gemeinde"/>
    <tag k="openGeoDB:version" v="0.2.6.11 / 2007-12-04 / http://fa-technik.adfc.de/code/opengeodb/dump/"/>
    <tag k="opengeodb:lat" v="49.457275"/>
    <tag k="opengeodb:lon" v="8.6053886"/>
    <tag k="place" v="town"/>
    <tag k="population" v="13867"/>
  </node>
  <node id="65319137" version="4" timestamp="2012-01-02T01:14:30Z" uid="136321" user="Teddy73" changeset="10265399" lat="49.457275" lon="8.6053886">
    <tag k="is_in" v="Rhein-Neckar-Kreis,Karlsruhe,Baden-W端rttemberg,Bundesrepublik Deutschland,Europe"/>
    <tag k="name" v="Edingen-Neckarhausen"/>
    <tag k="openGeoDB:auto_update" v="population,is_in"/>
    <tag k="openGeoDB:community_identification_number" v="08226105"/>
    <tag k="openGeoDB:is_in" v="Rhein-Neckar-Kreis,Karlsruhe,Baden-W端rttemberg,Bundesrepublik Deutschland,Europe"/>
    <tag k="openGeoDB:is_in_loc_id" v="361"/>
    <tag k="openGeoDB:layer" v="6"/>
    <tag k="openGeoDB:license_plate_code" v="HD"/>
    <tag k="openGeoDB:loc_id" v="15966"/>
    <tag k="openGeoDB:name" v="Edingen-Neckarhausen"/>
    <tag k="openGeoDB:population" v="13867"/>
    <tag k="openGeoDB:postal_codes" v="68535"/>
    <tag k="openGeoDB:sort_name" v="EDINGEN-NECKARHAUSEN"/>
    <tag k="openGeoDB:telephone_area_code" v="06203"/>
    <tag k="openGeoDB:type" v="Gemeinde"/>
    <tag k="openGeoDB:version" v="0.2.6.11 / 2007-12-04 / http://fa-technik.adfc.de/code/opengeodb/dump/"/>
    <tag k="opengeodb:lat" v="49.457275"/>
    <tag k="opengeodb:lon" v="8.6053886"/>
    <tag k="place" v="town"/>
    <tag k="population" v="13867"/>
  </node>
  <node id="65319137" version="5" timestamp="2012-03-21T16:49:40Z" uid="136321" user="Teddy73" changeset="11054252" lat="49.457275" lon="8.6053886"/>
  <node id="65319923" version="5" timestamp="2011-03-16T23:30:37Z" uid="20587" user="balrog-kun" changeset="7580979" lat="37.79076" lon="-122.404031">
    <tag k="highway" v="traffic_signals"/>
    <tag k="source" v="survey"/>
    <tag k="traffic_signals:sound" v="yes"/>
  </node>
  <node id="65319923" version="6" timestamp="2011-05-28T00:24:07Z" uid="28775" user="StellanL" changeset="8267850" lat="37.7907572" lon="-122.4040533">
    <tag k="highway" v="traffic_signals"/>
    <tag k="source" v="survey"/>
    <tag k="traffic_signals:sound" v="yes"/>
  </node>
  <node id="65313126" version="9" timestamp="2012-04-20T09:07:41Z" uid="14293" user="JuxTPosition" changeset="11361726" lat="37.7840224" lon="-122.4081157"/>
  <node id="65314953" version="6" timestamp="2012-04-12T10:02:12Z" uid="14293" user="JuxTPosition" changeset="11274508" lat="37.7315956" lon="-122.4488856">
    <tag k="highway" v="traffic_signals"/>
  </node>
  <node id="65314953" version="7" timestamp="2012-04-30T02:31:17Z" uid="14293" user="JuxTPosition" changeset="11455853" lat="37.7316049" lon="-122.4488854">
    <tag k="highway" v="traffic_signals"/>
  </node>
  <node id="65317060" version="11" timestamp="2012-04-08T22:51:53Z" uid="28775" user="StellanL" changeset="11231865" lat="37.7799254" lon="-122.3896801">
    <tag k="highway" v="traffic_signals"/>
    <tag k="traffic_signals:sound" v="yes"/>
    <tag k="turn_restrictions" v="no"/>
  </node>
  <node id="65317060" version="12" timestamp="2012-04-20T06:19:11Z" uid="14293" user="JuxTPosition" changeset="11360599" lat="37.7799284" lon="-122.3896856">
    <tag k="highway" v="traffic_signals"/>
    <tag k="traffic_signals:sound" v="yes"/>
    <tag k="turn_restrictions" v="no"/>
  </node>
  <node id="65317060" version="13" timestamp="2012-08-11T00:26:11Z" uid="573196" user="nithin_telenav" changeset="12686428" lat="37.7799297" lon="-122.3896839">
    <tag k="highway" v="traffic_signals"/>
    <tag k="traffic_signals:sound" v="yes"/>
    <tag k="turn_restrictions" v="no"/>
  </node>
  <node id="65319123" version="3" timestamp="2012-07-17T07:18:00Z" uid="722137" user="OSMF Redaction Account" changeset="12259321" lat="49.4687389" lon="8.599064"/>
</osm>
