<?xml version='1.0' encoding='UTF-8'?>
<osm version="0.6" generator="libosmium/2.20.0">
  <node id="65420708" version="3" timestamp="2008-09-30T10:49:14Z" uid="1066" user="pavel" changeset="720911" lat="50.3103641" lon="12.8708783">
    <tag k="is_in" v="Czech Republic, Europe"/>
    <tag k="name" v="Hroznětín"/>
    <tag k="place" v="village"/>
  </node>
  <node id="65420708" version="4" timestamp="2008-11-04T13:16:14Z" uid="308" user="MichaelCollinson" changeset="676656" lat="50.3103641" lon="12.8708783">
    <tag k="is_in" v="Czech Republic, Europe"/>
    <tag k="is_in:continent" v="Europe"/>
    <tag k="is_in:country_code" v="cz"/>
    <tag k="name" v="Hroznětín"/>
    <tag k="place" v="village"/>
  </node>
  <node id="65420708" version="5" timestamp="2009-10-27T21:57:02Z" uid="17615" user="Petr Dlouhý" changeset="2969463" lat="50.3103641" lon="12.8708783">
    <tag k="is_in" v="Czech Republic, Europe"/>
    <tag k="is_in:continent" v="Europe"/>
    <tag k="is_in:country_code" v="cz"/>
    <tag k="name" v="Hroznětín"/>
    <tag k="place" v="town"/>
  </node>
  <node id="65420708" version="6" timestamp="2010-09-29T14:11:54Z" uid="147674" user="fireball2" changeset="5912069" lat="50.3103641" lon="12.8708783">
    <tag k="is_in" v="Czech Republic, Europe"/>
    <tag k="is_in:continent" v="Europe"/>
    <tag k="is_in:country_code" v="cz"/>
    <tag k="name" v="Hroznětín"/>
    <tag k="name:de" v="Lichtenstadt"/>
    <tag k="place" v="town"/>
    <tag k="wikipedia" v="Hroznětín"/>
  </node>
  <node id="65420708" version="7" timestamp="2012-01-09T23:57:27Z" uid="229590" user="xificurk" changeset="10347560" lat="50.3103641" lon="12.8708783">
    <tag k="is_in" v="Czech Republic, Europe"/>
    <tag k="is_in:continent" v="Europe"/>
    <tag k="is_in:country_code" v="cz"/>
    <tag k="name" v="Hroznětín"/>
    <tag k="name:de" v="Lichtenstadt"/>
    <tag k="place" v="village"/>
    <tag k="wikipedia" v="Hroznětín"/>
  </node>
  <node id="65420708" version="8" timestamp="2012-01-20T19:16:01Z" uid="229590" user="xificurk" changeset="10449495" lat="50.3103641" lon="12.8708783"/>
  <node id="65420711" version="3" timestamp="2008-09-30T10:39:41Z" uid="1066" user="pavel" changeset="720911" lat="50.3279668" lon="12.863169">
    <tag k="is_in" v="Czech Republic, Europe"/>
    <tag k="name" v="Merklín"/>
    <tag k="place" v="village"/>
  </node>
  <node id="65420711" version="4" timestamp="2008-11-04T13:16:14Z" uid="308" user="MichaelCollinson" changeset="676656" lat="50.3279668" lon="12.863169">
    <tag k="is_in" v="Czech Republic, Europe"/>
    <tag k="is_in:continent" v="Europe"/>
    <tag k="is_in:country_code" v="cz"/>
    <tag k="name" v="Merklín"/>
    <tag k="place" v="village"/>
  </node>
  <node id="65420711" version="5" timestamp="2010-05-25T21:22:14Z" uid="147674" user="fireball2" changeset="4807750" lat="50.3279669" lon="12.863169">
    <tag k="is_in" v="Czech Republic, Europe"/>
    <tag k="is_in:continent" v="Europe"/>
    <tag k="is_in:country_code" v="cz"/>
    <tag k="name:old" v="Merkelsgrün"/>
    <tag k="place" v="village"/>
  </node>
  <node id="65420711" version="6" timestamp="2010-05-25T21:53:10Z" uid="147674" user="fireball2" changeset="4807750" lat="50.3279669" lon="12.863169">
    <tag k="is_in" v="Czech Republic, Europe"/>
    <tag k="is_in:continent" v="Europe"/>
    <tag k="is_in:country_code" v="cz"/>
    <tag k="name" v="Merklín"/>
    <tag k="name:old" v="Merkelsgrün"/>
    <tag k="place" v="village"/>
  </node>
  <node id="65420711" version="7" timestamp="2010-09-29T14:07:54Z" uid="147674" user="fireball2" changeset="5912044" lat="50.3279669" lon="12.863169">
    <tag k="is_in" v="Czech Republic, Europe"/>
    <tag k="is_in:continent" v="Europe"/>
    <tag k="is_in:country_code" v="cz"/>
    <tag k="name" v="Merklín"/>
    <tag k="name:de" v="Merkelsgrün"/>
    <tag k="name:old" v="Merkelsgrün"/>
    <tag k="place" v="village"/>
    <tag k="wikipedia" v="Merklín (okres Karlovy Vary)"/>
    <tag k="wikipedia:de" v="Merklín u Karlových Var"/>
  </node>
  <node id="65420711" version="8" timestamp="2012-01-24T13:03:20Z" uid="229590" user="xificurk" changeset="10484274" lat="50.3279669" lon="12.863169"/>
  <node id="65420715" version="2" timestamp="2008-09-30T10:38:58Z" uid="1066" user="pavel" changeset="720911" lat="50.2673753" lon="12.9026685">
    <tag k="is_in" v="Czech Republic, Europe"/>
    <tag k="name" v="Sadov"/>
    <tag k="place" v="village"/>
  </node>
  <node id="65420715" version="3" timestamp="2008-11-04T13:16:16Z" uid="308" user="MichaelCollinson" changeset="676656" lat="50.2673753" lon="12.9026685">
    <tag k="is_in" v="Czech Republic, Europe"/>
    <tag k="is_in:continent" v="Europe"/>
    <tag k="is_in:country_code" v="cz"/>
    <tag k="name" v="Sadov"/>
    <tag k="place" v="village"/>
  </node>
  <node id="65420715" version="4" timestamp="2010-09-29T14:18:58Z" uid="147674" user="fireball2" changeset="5912134" lat="50.2673754" lon="12.9026684">
    <tag k="is_in" v="Czech Republic, Europe"/>
    <tag k="is_in:continent" v="Europe"/>
    <tag k="is_in:country_code" v="cz"/>
    <tag k="name" v="Sadov"/>
    <tag k="name:de" v="Sodau"/>
    <tag k="place" v="village"/>
    <tag k="wikipedia" v="Sadov"/>
  </node>
  <node id="65420715" version="5" timestamp="2012-01-20T19:20:15Z" uid="229590" user="xificurk" changeset="10449544" lat="50.2673754" lon="12.9026684"/>
  <node id="65420718" version="2" timestamp="2008-09-30T10:36:43Z" uid="1066" user="pavel" changeset="720911" lat="50.288199" lon="12.8674765">
    <tag k="is_in" v="Czech Republic, Europe"/>
    <tag k="name" v="Velky Rybnik"/>
    <tag k="place" v="village"/>
  </node>
  <node id="65420718" version="3" timestamp="2008-11-04T13:16:16Z" uid="308" user="MichaelCollinson" changeset="676656" lat="50.288199" lon="12.8674765">
    <tag k="is_in" v="Czech Republic, Europe"/>
    <tag k="is_in:continent" v="Europe"/>
    <tag k="is_in:country_code" v="cz"/>
    <tag k="name" v="Velky Rybnik"/>
    <tag k="place" v="village"/>
  </node>
  <node id="65420718" version="4" timestamp="2010-05-25T21:43:12Z" uid="147674" user="fireball2" changeset="4807750" lat="50.2881991" lon="12.8674765">
    <tag k="is_in" v="Hroznětín"/>
    <tag k="is_in:continent" v="Europe"/>
    <tag k="is_in:country_code" v="cz"/>
    <tag k="name" v="Velký Rybník"/>
    <tag k="name:old" v="Großenteich"/>
    <tag k="place" v="suburb"/>
  </node>
  <node id="65420718" version="5" timestamp="2010-09-29T14:10:33Z" uid="147674" user="fireball2" changeset="5912062" lat="50.2881991" lon="12.8674764">
    <tag k="is_in" v="Hroznětín"/>
    <tag k="is_in:continent" v="Europe"/>
    <tag k="is_in:country_code" v="cz"/>
    <tag k="name" v="Velký Rybník"/>
    <tag k="name:de" v="Groß Rybnik"/>
    <tag k="name:old" v="Groß Rybnik"/>
    <tag k="place" v="suburb"/>
    <tag k="wikipedia" v="Velký Rybník"/>
  </node>
  <node id="65420718" version="6" timestamp="2012-01-20T17:37:54Z" uid="536216" user="uir-zsj" changeset="10448706" lat="50.2878863" lon="12.8687651">
    <tag k="is_in" v="Hroznětín"/>
    <tag k="is_in:continent" v="Europe"/>
    <tag k="is_in:country_code" v="cz"/>
    <tag k="name" v="Velký Rybník"/>
    <tag k="name:de" v="Groß Rybnik"/>
    <tag k="name:old" v="Groß Rybnik"/>
    <tag k="place" v="village"/>
    <tag k="population" v="68"/>
    <tag k="ref:cobe" v="048534"/>
    <tag k="ref:zsj" v="048534"/>
    <tag k="source" v="csu:uir-zsj"/>
    <tag k="wikipedia" v="Velký Rybník"/>
  </node>
  <node id="65425053" version="3" timestamp="2007-10-20T21:35:04Z" uid="6454" user="B10xxx" changeset="269951" lat="43.6221967" lon="3.8828708">
    <tag k="created_by" v="Potlatch 0.4a"/>
  </node>
  <node id="65425053" version="4" timestamp="2007-10-29T11:32:03Z" uid="4214" user="helm" changeset="351620" lat="43.6221967" lon="3.8828708">
    <tag k="created_by" v="Potlatch 0.4a"/>
  </node>
  <node id="65429104" version="8" timestamp="2011-04-02T22:08:16Z" uid="20587" user="balrog-kun" changeset="7748932" lat="37.7079442" lon="-122.4553037">
    <tag k="highway" v="traffic_signals"/>
  </node>
</osm>
