<?xml version='1.0' encoding='UTF-8'?>
<osm version="0.6" generator="libosmium/2.20.0">
  <node id="655270237" version="3" timestamp="2010-11-26T18:33:19Z" uid="115477" user="wowik" changeset="6463696" lat="56.7907929" lon="37.2388548">
    <tag k="addr:city" v="Федоровское сельское поселение"/>
    <tag k="addr:country" v="RU"/>
    <tag k="addr:district" v="Кимрский район"/>
    <tag k="addr:postcode" v="171533"/>
    <tag k="addr:region" v="Тверская область"/>
    <tag k="cladr:code" v="6901400600800"/>
    <tag k="cladr:name" v="Пекуново"/>
    <tag k="cladr:suffix" v="Деревня"/>
    <tag k="name" v="Пекуново"/>
    <tag k="place" v="village"/>
  </node>
  <node id="655270237" version="4" timestamp="2010-12-06T10:37:38Z" uid="115477" user="wowik" changeset="6561438" lat="56.7907929" lon="37.2388547">
    <tag k="addr:city" v="Федоровское сельское поселение"/>
    <tag k="addr:country" v="RU"/>
    <tag k="addr:district" v="Кимрский район"/>
    <tag k="addr:postcode" v="171533"/>
    <tag k="addr:region" v="Тверская область"/>
    <tag k="cladr:code" v="6901400600800"/>
    <tag k="cladr:name" v="Пекуново"/>
    <tag k="cladr:suffix" v="Деревня"/>
    <tag k="name" v="Пекуново"/>
    <tag k="place" v="hamlet"/>
  </node>
  <node id="655270237" version="5" timestamp="2011-08-07T17:20:11Z" uid="297358" user="patashnik" changeset="8949329" lat="56.7907929" lon="37.2388547">
    <tag k="addr:city" v="Федоровское сельское поселение"/>
    <tag k="addr:country" v="RU"/>
    <tag k="addr:district" v="Кимрский район"/>
    <tag k="addr:region" v="Тверская область"/>
    <tag k="cladr:code" v="6901400600800"/>
    <tag k="name" v="Пекуново"/>
    <tag k="place" v="hamlet"/>
  </node>
  <node id="655270247" version="2" timestamp="2010-12-06T10:37:47Z" uid="115477" user="wowik" changeset="6561439" lat="56.7972699" lon="37.24891">
    <tag k="name" v="Соболево"/>
    <tag k="place" v="hamlet"/>
  </node>
  <node id="655270247" version="3" timestamp="2012-01-26T21:14:03Z" uid="384084" user="Kostik" changeset="10507299" lat="56.7972699" lon="37.24891">
    <tag k="name" v="Соболево"/>
    <tag k="place" v="hamlet"/>
  </node>
  <node id="655270260" version="3" timestamp="2010-12-06T10:37:19Z" uid="115477" user="wowik" changeset="6561433" lat="56.8059171" lon="37.2162944">
    <tag k="addr:city" v="Федоровское сельское поселение"/>
    <tag k="addr:country" v="RU"/>
    <tag k="addr:district" v="Кимрский район"/>
    <tag k="addr:postcode" v="171533"/>
    <tag k="addr:region" v="Тверская область"/>
    <tag k="cladr:code" v="6901400601100"/>
    <tag k="cladr:name" v="Демидовка"/>
    <tag k="cladr:suffix" v="Деревня"/>
    <tag k="name" v="Демидовка"/>
    <tag k="place" v="hamlet"/>
  </node>
  <node id="655270260" version="4" timestamp="2011-08-07T17:20:12Z" uid="297358" user="patashnik" changeset="8949329" lat="56.8059171" lon="37.2162944">
    <tag k="addr:city" v="Федоровское сельское поселение"/>
    <tag k="addr:country" v="RU"/>
    <tag k="addr:district" v="Кимрский район"/>
    <tag k="addr:region" v="Тверская область"/>
    <tag k="cladr:code" v="6901400601100"/>
    <tag k="name" v="Демидовка"/>
    <tag k="place" v="hamlet"/>
  </node>
  <node id="655270279" version="2" timestamp="2010-11-26T18:36:06Z" uid="115477" user="wowik" changeset="6463696" lat="56.8146562" lon="37.2595531">
    <tag k="name" v="Святье"/>
    <tag k="place" v="village"/>
  </node>
  <node id="655270294" version="3" timestamp="2010-11-26T18:46:46Z" uid="115477" user="wowik" changeset="6463696" lat="56.7842711" lon="37.1988816">
    <tag k="addr:city" v="Федоровское сельское поселение"/>
    <tag k="addr:country" v="RU"/>
    <tag k="addr:district" v="Кимрский район"/>
    <tag k="addr:postcode" v="171533"/>
    <tag k="addr:region" v="Тверская область"/>
    <tag k="cladr:code" v="6901400600600"/>
    <tag k="cladr:name" v="Крева"/>
    <tag k="cladr:suffix" v="Деревня"/>
    <tag k="name" v="Крева"/>
    <tag k="place" v="village"/>
  </node>
  <node id="655270294" version="4" timestamp="2010-12-06T10:37:28Z" uid="115477" user="wowik" changeset="6561436" lat="56.7842712" lon="37.1988815">
    <tag k="addr:city" v="Федоровское сельское поселение"/>
    <tag k="addr:country" v="RU"/>
    <tag k="addr:district" v="Кимрский район"/>
    <tag k="addr:postcode" v="171533"/>
    <tag k="addr:region" v="Тверская область"/>
    <tag k="cladr:code" v="6901400600600"/>
    <tag k="cladr:name" v="Крева"/>
    <tag k="cladr:suffix" v="Деревня"/>
    <tag k="name" v="Крева"/>
    <tag k="place" v="hamlet"/>
  </node>
  <node id="655270294" version="5" timestamp="2011-03-15T09:32:51Z" uid="127606" user="loir" changeset="7564456" lat="56.7842712" lon="37.1988815">
    <tag k="addr:city" v="Федоровское сельское поселение"/>
    <tag k="addr:country" v="RU"/>
    <tag k="addr:district" v="Кимрский район"/>
    <tag k="addr:postcode" v="171533"/>
    <tag k="addr:region" v="Тверская область"/>
    <tag k="name" v="Крева"/>
    <tag k="place" v="hamlet"/>
  </node>
  <node id="655270294" version="6" timestamp="2011-04-05T13:04:46Z" uid="102437" user="open650" changeset="7774716" lat="56.7830884" lon="37.198532">
    <tag k="addr:city" v="Федоровское сельское поселение"/>
    <tag k="addr:country" v="RU"/>
    <tag k="addr:district" v="Кимрский район"/>
    <tag k="addr:postcode" v="171533"/>
    <tag k="addr:region" v="Тверская область"/>
    <tag k="name" v="Крева"/>
    <tag k="place" v="hamlet"/>
  </node>
  <node id="655270294" version="7" timestamp="2011-07-20T16:16:04Z" uid="206282" user="Amigo" changeset="8780113" lat="56.7836143" lon="37.1992677">
    <tag k="addr:city" v="Федоровское сельское поселение"/>
    <tag k="addr:country" v="RU"/>
    <tag k="addr:district" v="Кимрский район"/>
    <tag k="addr:postcode" v="171533"/>
    <tag k="addr:region" v="Тверская область"/>
    <tag k="name" v="Крева"/>
    <tag k="place" v="hamlet"/>
  </node>
  <node id="655270681" version="3" timestamp="2010-12-06T10:37:08Z" uid="115477" user="wowik" changeset="6561431" lat="56.8281839" lon="37.2877054">
    <tag k="addr:city" v="Федоровское сельское поселение"/>
    <tag k="addr:country" v="RU"/>
    <tag k="addr:district" v="Кимрский район"/>
    <tag k="addr:postcode" v="171502"/>
    <tag k="addr:region" v="Тверская область"/>
    <tag k="cladr:code" v="6901400602000"/>
    <tag k="cladr:name" v="Ушаковка"/>
    <tag k="cladr:suffix" v="Деревня"/>
    <tag k="name" v="Ушаковка"/>
    <tag k="place" v="hamlet"/>
  </node>
  <node id="655270681" version="4" timestamp="2011-08-07T17:20:12Z" uid="297358" user="patashnik" changeset="8949329" lat="56.8281839" lon="37.2877054">
    <tag k="addr:city" v="Федоровское сельское поселение"/>
    <tag k="addr:country" v="RU"/>
    <tag k="addr:district" v="Кимрский район"/>
    <tag k="addr:region" v="Тверская область"/>
    <tag k="cladr:code" v="6901400602000"/>
    <tag k="name" v="Ушаковка"/>
    <tag k="place" v="hamlet"/>
  </node>
  <node id="655270682" version="3" timestamp="2010-12-06T10:37:58Z" uid="115477" user="wowik" changeset="6561444" lat="56.8370118" lon="37.291482">
    <tag k="addr:city" v="Федоровское сельское поселение"/>
    <tag k="addr:country" v="RU"/>
    <tag k="addr:district" v="Кимрский район"/>
    <tag k="addr:postcode" v="171502"/>
    <tag k="addr:region" v="Тверская область"/>
    <tag k="cladr:code" v="6901400601800"/>
    <tag k="cladr:name" v="Емельяновка"/>
    <tag k="cladr:suffix" v="Деревня"/>
    <tag k="name" v="Емельяновка"/>
    <tag k="place" v="hamlet"/>
  </node>
  <node id="655270682" version="4" timestamp="2011-08-07T17:20:15Z" uid="297358" user="patashnik" changeset="8949329" lat="56.8370118" lon="37.291482">
    <tag k="addr:city" v="Федоровское сельское поселение"/>
    <tag k="addr:country" v="RU"/>
    <tag k="addr:district" v="Кимрский район"/>
    <tag k="addr:region" v="Тверская область"/>
    <tag k="cladr:code" v="6901400601800"/>
    <tag k="name" v="Емельяновка"/>
    <tag k="place" v="hamlet"/>
  </node>
  <node id="655272272" version="3" timestamp="2010-12-06T10:34:59Z" uid="115477" user="wowik" changeset="6561398" lat="56.8879838" lon="37.4057202">
    <tag k="name" v="Абрамово"/>
    <tag k="place" v="hamlet"/>
  </node>
  <node id="655272272" version="4" timestamp="2012-01-26T21:09:29Z" uid="384084" user="Kostik" changeset="10507299" lat="56.8879838" lon="37.4057202">
    <tag k="name" v="Абрамово"/>
    <tag k="place" v="hamlet"/>
  </node>
  <node id="655272273" version="3" timestamp="2010-12-06T10:35:13Z" uid="115477" user="wowik" changeset="6561400" lat="56.9379148" lon="37.4531871">
    <tag k="addr:city" v="Центральное сельское поселение"/>
    <tag k="addr:country" v="RU"/>
    <tag k="addr:district" v="Кимрский район"/>
    <tag k="addr:postcode" v="171513"/>
    <tag k="addr:region" v="Тверская область"/>
    <tag k="cladr:code" v="6901400301400"/>
    <tag k="cladr:name" v="Каюрово"/>
    <tag k="cladr:suffix" v="Деревня"/>
    <tag k="name" v="Каюрово"/>
    <tag k="place" v="hamlet"/>
  </node>
  <node id="655272273" version="4" timestamp="2011-08-07T17:20:15Z" uid="297358" user="patashnik" changeset="8949329" lat="56.9379148" lon="37.4531871">
    <tag k="addr:city" v="Центральное сельское поселение"/>
    <tag k="addr:country" v="RU"/>
    <tag k="addr:district" v="Кимрский район"/>
    <tag k="addr:region" v="Тверская область"/>
    <tag k="cladr:code" v="6901400301400"/>
    <tag k="name" v="Каюрово"/>
    <tag k="place" v="hamlet"/>
  </node>
  <node id="655272274" version="2" timestamp="2010-12-06T10:35:40Z" uid="115477" user="wowik" changeset="6561411" lat="56.9402559" lon="37.4672632">
    <tag k="name" v="Семенково"/>
    <tag k="place" v="hamlet"/>
  </node>
  <node id="655272274" version="3" timestamp="2012-01-26T21:13:54Z" uid="384084" user="Kostik" changeset="10507299" lat="56.9402559" lon="37.4672632">
    <tag k="name" v="Семенково"/>
    <tag k="place" v="hamlet"/>
  </node>
  <node id="655274413" version="3" timestamp="2010-12-06T10:35:26Z" uid="115477" user="wowik" changeset="6561405" lat="56.9901617" lon="37.4472476">
    <tag k="name" v="Плешково"/>
    <tag k="place" v="hamlet"/>
  </node>
  <node id="655274413" version="4" timestamp="2012-01-26T21:13:18Z" uid="384084" user="Kostik" changeset="10507299" lat="56.9901617" lon="37.4472476">
    <tag k="name" v="Плешково"/>
    <tag k="place" v="hamlet"/>
  </node>
  <node id="655274416" version="2" timestamp="2010-04-23T14:51:50Z" uid="115477" user="wowik" changeset="4504189" lat="56.9609454" lon="37.1726924"/>
  <node id="655274416" version="3" timestamp="2010-05-16T18:51:32Z" uid="102437" user="open650" changeset="4721010" lat="56.961104" lon="37.1726203"/>
  <node id="655274417" version="2" timestamp="2010-04-23T14:51:51Z" uid="115477" user="wowik" changeset="4504189" lat="56.9619749" lon="37.1737223"/>
  <node id="655274418" version="2" timestamp="2010-04-23T14:51:51Z" uid="115477" user="wowik" changeset="4504189" lat="56.9623492" lon="37.1764689"/>
  <node id="655274418" version="3" timestamp="2010-05-16T18:51:41Z" uid="102437" user="open650" changeset="4721010" lat="56.9625366" lon="37.1764112"/>
  <node id="655274419" version="2" timestamp="2010-04-23T14:51:51Z" uid="115477" user="wowik" changeset="4504189" lat="56.9633787" lon="37.1783572"/>
  <node id="655274419" version="3" timestamp="2010-05-16T18:51:30Z" uid="102437" user="open650" changeset="4721010" lat="56.9633931" lon="37.178141"/>
  <node id="655274421" version="2" timestamp="2010-04-23T14:51:51Z" uid="115477" user="wowik" changeset="4504189" lat="56.9645017" lon="37.1790438"/>
  <node id="655274421" version="3" timestamp="2010-05-16T18:51:41Z" uid="102437" user="open650" changeset="4721010" lat="56.9645017" lon="37.1793897"/>
  <node id="655274422" version="2" timestamp="2010-04-23T14:51:51Z" uid="115477" user="wowik" changeset="4504189" lat="56.9657182" lon="37.1776706"/>
  <node id="655274422" version="3" timestamp="2010-05-16T18:51:29Z" uid="102437" user="open650" changeset="4721010" lat="56.9657038" lon="37.1778868"/>
  <node id="655274424" version="2" timestamp="2010-04-23T14:51:51Z" uid="115477" user="wowik" changeset="4504189" lat="56.9661861" lon="37.1762973"/>
  <node id="655274424" version="3" timestamp="2010-05-16T18:51:33Z" uid="102437" user="open650" changeset="4721010" lat="56.9664167" lon="37.1764847"/>
  <node id="655274425" version="2" timestamp="2010-04-23T14:51:51Z" uid="115477" user="wowik" changeset="4504189" lat="56.9660926" lon="37.1735507"/>
  <node id="655274426" version="2" timestamp="2010-04-23T14:51:51Z" uid="115477" user="wowik" changeset="4504189" lat="56.9658118" lon="37.1718341"/>
  <node id="655274426" version="3" timestamp="2010-05-16T18:51:43Z" uid="102437" user="open650" changeset="4721010" lat="56.9657397" lon="37.1718197"/>
  <node id="655274427" version="2" timestamp="2010-04-23T14:51:51Z" uid="115477" user="wowik" changeset="4504189" lat="56.9647824" lon="37.1708041"/>
  <node id="655274427" version="3" timestamp="2010-05-16T18:51:32Z" uid="102437" user="open650" changeset="4721010" lat="56.9650144" lon="37.1705872"/>
  <node id="655274428" version="2" timestamp="2010-04-23T14:51:51Z" uid="115477" user="wowik" changeset="4504189" lat="56.963753" lon="37.1696025"/>
  <node id="655274429" version="2" timestamp="2010-04-23T14:51:51Z" uid="115477" user="wowik" changeset="4504189" lat="56.9630043" lon="37.1696025"/>
  <node id="655274430" version="2" timestamp="2010-04-23T14:51:51Z" uid="115477" user="wowik" changeset="4504189" lat="56.9616941" lon="37.1696025"/>
  <node id="655274430" version="3" timestamp="2010-05-16T18:51:31Z" uid="102437" user="open650" changeset="4721010" lat="56.9620977" lon="37.169516"/>
  <node id="655274432" version="2" timestamp="2010-04-23T14:51:52Z" uid="115477" user="wowik" changeset="4504189" lat="56.9609454" lon="37.1711474"/>
  <node id="655274432" version="3" timestamp="2010-05-16T18:51:45Z" uid="102437" user="open650" changeset="4721010" lat="56.9611328" lon="37.1712627"/>
  <node id="655277029" version="2" timestamp="2010-05-17T22:17:48Z" uid="9581" user="Lobelt" changeset="4734155" lat="49.5414033" lon="8.1808452"/>
  <node id="655277069" version="2" timestamp="2010-03-07T01:13:52Z" uid="6975" user="ulfl" changeset="4056821" lat="61.7671558" lon="-149.322508">
    <tag k="mountain_pass" v="yes"/>
    <tag k="name" v="Hatcher Pass"/>
    <tag k="wikipedia" v="http://de.wikipedia.org/wiki/Hatcher_Pass"/>
  </node>
  <node id="655277398" version="2" timestamp="2010-04-23T14:51:19Z" uid="115477" user="wowik" changeset="4504189" lat="57.0032249" lon="37.2136915">
    <tag k="name" v="Большое Васильево"/>
    <tag k="place" v="village"/>
  </node>
  <node id="655277398" version="3" timestamp="2012-01-26T21:10:00Z" uid="384084" user="Kostik" changeset="10507299" lat="57.0032249" lon="37.2136915">
    <tag k="name" v="Большое Васильево"/>
    <tag k="place" v="village"/>
  </node>
  <node id="655277399" version="3" timestamp="2010-11-26T18:33:19Z" uid="115477" user="wowik" changeset="6463696" lat="57.0248986" lon="37.2358186">
    <tag k="name" v="Воронцово"/>
    <tag k="place" v="hamlet"/>
  </node>
  <node id="655277399" version="4" timestamp="2012-01-26T21:10:28Z" uid="384084" user="Kostik" changeset="10507299" lat="57.0248986" lon="37.2358186">
    <tag k="name" v="Воронцово"/>
    <tag k="place" v="hamlet"/>
  </node>
  <node id="655270237" version="6" timestamp="2012-07-20T14:57:37Z" uid="722137" user="OSMF Redaction Account" changeset="12380440" lat="56.7899369" lon="37.2375804">
    <tag k="addr:city" v="Федоровское сельское поселение"/>
    <tag k="addr:country" v="RU"/>
    <tag k="addr:district" v="Кимрский район"/>
    <tag k="addr:region" v="Тверская область"/>
    <tag k="cladr:code" v="6901400600800"/>
    <tag k="name" v="Пекуново"/>
    <tag k="place" v="village"/>
  </node>
  <node id="655270247" version="4" timestamp="2012-07-20T14:57:37Z" uid="722137" user="OSMF Redaction Account" changeset="12380440" lat="56.7972698" lon="37.2489101">
    <tag k="name" v="Соболево"/>
    <tag k="place" v="village"/>
  </node>
  <node id="655270260" version="5" timestamp="2012-07-20T14:57:37Z" uid="722137" user="OSMF Redaction Account" changeset="12380440" lat="56.805917" lon="37.2162944">
    <tag k="addr:city" v="Федоровское сельское поселение"/>
    <tag k="addr:country" v="RU"/>
    <tag k="addr:district" v="Кимрский район"/>
    <tag k="addr:region" v="Тверская область"/>
    <tag k="cladr:code" v="6901400601100"/>
    <tag k="name" v="Демидовка"/>
    <tag k="place" v="village"/>
  </node>
  <node id="655270294" version="8" timestamp="2012-07-20T14:57:37Z" uid="722137" user="OSMF Redaction Account" changeset="12380440" lat="56.7836143" lon="37.1992677">
    <tag k="addr:city" v="Федоровское сельское поселение"/>
    <tag k="addr:country" v="RU"/>
    <tag k="addr:district" v="Кимрский район"/>
    <tag k="addr:postcode" v="171533"/>
    <tag k="addr:region" v="Тверская область"/>
    <tag k="name" v="Крева"/>
    <tag k="place" v="village"/>
  </node>
  <node id="655270294" version="9" timestamp="2012-08-09T05:19:15Z" uid="127606" user="loir" changeset="12664403" lat="56.7838239" lon="37.1985245">
    <tag k="addr:city" v="Федоровское сельское поселение"/>
    <tag k="addr:country" v="RU"/>
    <tag k="addr:district" v="Кимрский район"/>
    <tag k="addr:postcode" v="171533"/>
    <tag k="addr:region" v="Тверская область"/>
    <tag k="name" v="Крева"/>
    <tag k="place" v="village"/>
  </node>
  <node id="655270681" version="5" timestamp="2012-07-20T14:53:52Z" uid="722137" user="OSMF Redaction Account" changeset="12380300" lat="56.8281838" lon="37.2877055">
    <tag k="addr:city" v="Федоровское сельское поселение"/>
    <tag k="addr:country" v="RU"/>
    <tag k="addr:district" v="Кимрский район"/>
    <tag k="addr:region" v="Тверская область"/>
    <tag k="cladr:code" v="6901400602000"/>
    <tag k="name" v="Ушаковка"/>
    <tag k="place" v="village"/>
  </node>
  <node id="655270682" version="5" timestamp="2012-07-20T14:53:52Z" uid="722137" user="OSMF Redaction Account" changeset="12380300" lat="56.8370117" lon="37.2914821">
    <tag k="addr:city" v="Федоровское сельское поселение"/>
    <tag k="addr:country" v="RU"/>
    <tag k="addr:district" v="Кимрский район"/>
    <tag k="addr:region" v="Тверская область"/>
    <tag k="cladr:code" v="6901400601800"/>
    <tag k="name" v="Емельяновка"/>
    <tag k="place" v="village"/>
  </node>
  <node id="655272272" version="5" timestamp="2012-07-20T14:53:26Z" uid="722137" user="OSMF Redaction Account" changeset="12380283" lat="56.8879837" lon="37.4057203">
    <tag k="name" v="Абрамово"/>
    <tag k="place" v="village"/>
  </node>
  <node id="655272273" version="5" timestamp="2012-07-20T14:53:24Z" uid="722137" user="OSMF Redaction Account" changeset="12380281" lat="56.9379147" lon="37.4531871">
    <tag k="addr:city" v="Центральное сельское поселение"/>
    <tag k="addr:country" v="RU"/>
    <tag k="addr:district" v="Кимрский район"/>
    <tag k="addr:region" v="Тверская область"/>
    <tag k="cladr:code" v="6901400301400"/>
    <tag k="name" v="Каюрово"/>
    <tag k="place" v="village"/>
  </node>
  <node id="655272274" version="4" timestamp="2012-07-20T14:53:25Z" uid="722137" user="OSMF Redaction Account" changeset="12380281" lat="56.9402559" lon="37.4672633">
    <tag k="name" v="Семенково"/>
    <tag k="place" v="village"/>
  </node>
  <node id="655274413" version="5" timestamp="2012-07-20T14:53:25Z" uid="722137" user="OSMF Redaction Account" changeset="12380281" lat="56.9901616" lon="37.4472476">
    <tag k="name" v="Плешково"/>
    <tag k="place" v="village"/>
  </node>
  <node id="655274417" version="3" timestamp="2012-04-06T07:55:38Z" uid="384084" user="Kostik" changeset="11197383" lat="56.961975" lon="37.1737237"/>
  <node id="655274417" version="4" timestamp="2012-08-09T07:07:11Z" uid="102437" user="_solitary_" changeset="12665035" lat="56.9616862" lon="37.1739923"/>
  <node id="655274425" version="3" timestamp="2012-04-06T07:55:38Z" uid="384084" user="Kostik" changeset="11197383" lat="56.9660927" lon="37.1735521"/>
  <node id="655274425" version="4" timestamp="2012-08-31T09:52:51Z" uid="760215" user="pnorman redaction revert" changeset="12928705" lat="56.965999" lon="37.1745807"/>
  <node id="655274426" version="4" timestamp="2012-08-09T07:07:11Z" uid="102437" user="_solitary_" changeset="12665035" lat="56.9656299" lon="37.1720808"/>
  <node id="655274427" version="4" timestamp="2012-08-09T07:07:12Z" uid="102437" user="_solitary_" changeset="12665035" lat="56.964929" lon="37.170811"/>
  <node id="655274428" version="3" timestamp="2012-04-06T07:55:38Z" uid="384084" user="Kostik" changeset="11197383" lat="56.9637531" lon="37.1696039"/>
  <node id="655274428" version="4" timestamp="2012-08-31T09:52:51Z" uid="760215" user="pnorman redaction revert" changeset="12928705" lat="56.9636594" lon="37.1706325"/>
  <node id="655274429" version="3" timestamp="2012-04-06T07:55:38Z" uid="384084" user="Kostik" changeset="11197383" lat="56.9630044" lon="37.1696039"/>
  <node id="655274429" version="4" timestamp="2012-08-09T07:07:12Z" uid="102437" user="_solitary_" changeset="12665035" lat="56.9630217" lon="37.169166"/>
  <node id="655274430" version="4" timestamp="2012-08-09T07:07:12Z" uid="102437" user="_solitary_" changeset="12665035" lat="56.9620977" lon="37.1693366"/>
  <node id="655277029" version="3" timestamp="2012-07-17T11:09:56Z" uid="722137" user="OSMF Redaction Account" changeset="12263785" lat="49.5414818" lon="8.1809282"/>
  <node id="655277069" version="3" timestamp="2012-07-19T03:02:26Z" uid="722137" user="OSMF Redaction Account" changeset="12305962" lat="61.7671558" lon="-149.3225077">
    <tag k="mountain_pass" v="yes"/>
    <tag k="name" v="Hatcher Pass"/>
  </node>
  <node id="655277398" version="4" timestamp="2012-07-20T11:53:46Z" uid="722137" user="OSMF Redaction Account" changeset="12374389" lat="57.0047205" lon="37.2094279">
    <tag k="name" v="Большое Васильево"/>
    <tag k="place" v="village"/>
  </node>
  <node id="655277398" version="5" timestamp="2012-08-09T10:11:50Z" uid="102437" user="_solitary_" changeset="12666625" lat="57.0036686" lon="37.2152381">
    <tag k="name" v="Большое Васильево"/>
    <tag k="place" v="village"/>
  </node>
  <node id="655277399" version="5" timestamp="2012-07-20T11:53:46Z" uid="722137" user="OSMF Redaction Account" changeset="12374389" lat="57.0248986" lon="37.2358186">
    <tag k="name" v="Воронцово"/>
    <tag k="place" v="village"/>
  </node>
</osm>
