<?xml version='1.0' encoding='UTF-8'?>
<osm version="0.6" generator="libosmium/2.20.0">
  <node id="656670113" version="2" timestamp="2010-07-28T20:02:25Z" uid="74617" user="JohnSmith" changeset="5339329" lat="45.4177795" lon="4.393056">
    <tag k="emergency" v="fire_hydrant"/>
    <tag k="ref" v="817"/>
  </node>
  <node id="656670113" version="3" timestamp="2010-07-30T17:49:33Z" uid="74617" user="JohnSmith" changeset="5356742" lat="45.4177795" lon="4.393056">
    <tag k="amenity" v="fire_hydrant"/>
    <tag k="emergency" v="fire_hydrant"/>
    <tag k="ref" v="817"/>
  </node>
  <node id="656670113" version="4" timestamp="2010-10-11T17:25:41Z" uid="26348" user="Rodolphe Quiédeville" changeset="6013837" lat="45.4177795" lon="4.393056">
    <tag k="emergency" v="fire_hydrant"/>
    <tag k="ref" v="817"/>
  </node>
  <node id="656670113" version="5" timestamp="2010-10-19T08:48:09Z" uid="26348" user="Rodolphe Quiédeville" changeset="6094601" lat="45.4177795" lon="4.393056">
    <tag k="amenity" v="fire_hydrant"/>
    <tag k="emergency" v="fire_hydrant"/>
    <tag k="ref" v="817"/>
  </node>
  <node id="656670113" version="6" timestamp="2012-03-27T18:29:46Z" uid="67540" user="Cobra" changeset="11118954" lat="45.4177795" lon="4.393056">
    <tag k="amenity" v="fire_hydrant"/>
    <tag k="emergency" v="fire_hydrant"/>
    <tag k="odbl" v="clean"/>
    <tag k="ref" v="817"/>
  </node>
  <node id="656671999" version="3" timestamp="2010-04-23T14:51:20Z" uid="115477" user="wowik" changeset="4504189" lat="57.0014954" lon="37.0827997">
    <tag k="addr:city" v="Маловасилевское сельское поселение"/>
    <tag k="addr:country" v="RU"/>
    <tag k="addr:district" v="Кимрский район"/>
    <tag k="addr:postcode" v="171524"/>
    <tag k="addr:region" v="Тверская область"/>
    <tag k="cladr:code" v="6901401900300"/>
    <tag k="cladr:name" v="Троице-Кочки"/>
    <tag k="cladr:suffix" v="Деревня"/>
    <tag k="name" v="Троице-Кочки"/>
    <tag k="place" v="hamlet"/>
  </node>
  <node id="656671999" version="4" timestamp="2011-08-09T05:11:03Z" uid="297358" user="patashnik" changeset="8963467" lat="57.0014954" lon="37.0827997">
    <tag k="addr:city" v="Маловасилевское сельское поселение"/>
    <tag k="addr:country" v="RU"/>
    <tag k="addr:district" v="Кимрский район"/>
    <tag k="addr:region" v="Тверская область"/>
    <tag k="cladr:code" v="6901401900300"/>
    <tag k="name" v="Троице-Кочки"/>
    <tag k="place" v="hamlet"/>
  </node>
  <node id="656672926" version="2" timestamp="2010-04-23T14:51:19Z" uid="115477" user="wowik" changeset="4504189" lat="57.0183665" lon="37.0935286">
    <tag k="name" v="Плосково"/>
    <tag k="place" v="hamlet"/>
  </node>
  <node id="656672926" version="3" timestamp="2012-01-26T21:13:18Z" uid="384084" user="Kostik" changeset="10507299" lat="57.0183665" lon="37.0935286">
    <tag k="name" v="Плосково"/>
    <tag k="place" v="hamlet"/>
  </node>
  <node id="656672991" version="2" timestamp="2010-04-23T14:51:40Z" uid="115477" user="wowik" changeset="4504189" lat="57.0167311" lon="37.1582449"/>
  <node id="656673034" version="2" timestamp="2010-04-23T14:51:20Z" uid="115477" user="wowik" changeset="4504189" lat="57.0021498" lon="37.1794451">
    <tag k="name" v="Большое Огрызлово"/>
    <tag k="place" v="hamlet"/>
  </node>
  <node id="656673034" version="3" timestamp="2012-01-26T21:10:02Z" uid="384084" user="Kostik" changeset="10507299" lat="57.0021498" lon="37.1794451">
    <tag k="name" v="Большое Огрызлово"/>
    <tag k="place" v="hamlet"/>
  </node>
  <node id="656673209" version="2" timestamp="2010-04-23T14:51:19Z" uid="115477" user="wowik" changeset="4504189" lat="57.0456898" lon="37.1101797">
    <tag k="name" v="Покровское"/>
    <tag k="place" v="hamlet"/>
  </node>
  <node id="656673209" version="3" timestamp="2012-01-26T21:13:23Z" uid="384084" user="Kostik" changeset="10507299" lat="57.0456898" lon="37.1101797">
    <tag k="name" v="Покровское"/>
    <tag k="place" v="hamlet"/>
  </node>
  <node id="656673225" version="2" timestamp="2010-04-23T14:51:54Z" uid="115477" user="wowik" changeset="4504189" lat="57.0425381" lon="37.137903"/>
  <node id="656673237" version="2" timestamp="2010-04-23T14:51:54Z" uid="115477" user="wowik" changeset="4504189" lat="57.042935" lon="37.1357573"/>
  <node id="656673255" version="2" timestamp="2010-04-23T14:51:54Z" uid="115477" user="wowik" changeset="4504189" lat="57.0445459" lon="37.1327961"/>
  <node id="656673263" version="2" timestamp="2010-04-23T14:51:54Z" uid="115477" user="wowik" changeset="4504189" lat="57.0446626" lon="37.1280325"/>
  <node id="656673296" version="2" timestamp="2010-04-23T14:51:54Z" uid="115477" user="wowik" changeset="4504189" lat="57.0522957" lon="37.1071757"/>
  <node id="656673296" version="3" timestamp="2010-05-17T07:07:33Z" uid="102437" user="open650" changeset="4726131" lat="57.0522466" lon="37.1072837"/>
  <node id="656673304" version="2" timestamp="2010-04-23T14:51:55Z" uid="115477" user="wowik" changeset="4504189" lat="57.0525758" lon="37.1043862"/>
  <node id="656673558" version="3" timestamp="2010-07-12T15:57:19Z" uid="115477" user="wowik" changeset="5200192" lat="57.1223132" lon="37.2092553">
    <tag k="addr:city" v="Неклюдовское сельское поселение"/>
    <tag k="addr:country" v="RU"/>
    <tag k="addr:district" v="Кимрский район"/>
    <tag k="addr:postcode" v="171516"/>
    <tag k="addr:region" v="Тверская область"/>
    <tag k="cladr:code" v="6901401502000"/>
    <tag k="cladr:name" v="Набережная"/>
    <tag k="cladr:suffix" v="Деревня"/>
    <tag k="name" v="Набережная"/>
    <tag k="old_name" v="Пупково"/>
    <tag k="place" v="hamlet"/>
  </node>
  <node id="656673558" version="4" timestamp="2011-08-09T05:11:04Z" uid="297358" user="patashnik" changeset="8963467" lat="57.1223132" lon="37.2092553">
    <tag k="addr:city" v="Неклюдовское сельское поселение"/>
    <tag k="addr:country" v="RU"/>
    <tag k="addr:district" v="Кимрский район"/>
    <tag k="addr:region" v="Тверская область"/>
    <tag k="cladr:code" v="6901401502000"/>
    <tag k="name" v="Набережная"/>
    <tag k="old_name" v="Пупково"/>
    <tag k="place" v="hamlet"/>
  </node>
  <node id="656673859" version="2" timestamp="2010-04-23T13:18:50Z" uid="115477" user="wowik" changeset="4503301" lat="57.1415148" lon="37.0066295"/>
  <node id="656673859" version="3" timestamp="2010-08-19T20:37:44Z" uid="73499" user="citrin" changeset="5538837" lat="57.1415224" lon="37.0064981"/>
  <node id="656673978" version="2" timestamp="2010-04-23T13:18:50Z" uid="115477" user="wowik" changeset="4503301" lat="57.142027" lon="37.0075737"/>
  <node id="656673978" version="3" timestamp="2010-08-19T20:37:44Z" uid="73499" user="citrin" changeset="5538837" lat="57.1421782" lon="37.0075947"/>
  <node id="656673983" version="2" timestamp="2010-04-23T13:19:03Z" uid="115477" user="wowik" changeset="4503301" lat="57.1415613" lon="37.0415626"/>
  <node id="656673983" version="3" timestamp="2010-08-19T20:37:44Z" uid="73499" user="citrin" changeset="5538837" lat="57.1419691" lon="37.0419255"/>
  <node id="656674387" version="2" timestamp="2010-04-23T13:18:50Z" uid="115477" user="wowik" changeset="4503301" lat="57.1742382" lon="37.0509182"/>
  <node id="656674391" version="2" timestamp="2010-04-23T13:18:50Z" uid="115477" user="wowik" changeset="4503301" lat="57.177588" lon="37.0561538"/>
  <node id="656674930" version="2" timestamp="2010-04-23T13:18:50Z" uid="115477" user="wowik" changeset="4503301" lat="57.2484217" lon="37.0436225"/>
  <node id="656674930" version="3" timestamp="2010-09-12T09:35:59Z" uid="128227" user="Dimster" changeset="5757304" lat="57.2476317" lon="37.0424305"/>
  <node id="656674933" version="2" timestamp="2010-04-23T12:45:24Z" uid="115477" user="wowik" changeset="4503301" lat="57.2117204" lon="37.1536575">
    <tag k="name" v="Слободка"/>
    <tag k="place" v="hamlet"/>
  </node>
  <node id="656674933" version="3" timestamp="2010-04-23T12:56:27Z" uid="115477" user="wowik" changeset="4503301" lat="57.2110697" lon="37.1548162">
    <tag k="name" v="Слободка"/>
    <tag k="place" v="hamlet"/>
  </node>
  <node id="656674933" version="4" timestamp="2012-01-26T21:14:02Z" uid="384084" user="Kostik" changeset="10507299" lat="57.2110697" lon="37.1548162">
    <tag k="name" v="Слободка"/>
    <tag k="place" v="hamlet"/>
  </node>
  <node id="656674934" version="2" timestamp="2010-04-23T12:45:24Z" uid="115477" user="wowik" changeset="4503301" lat="57.1854961" lon="37.12705">
    <tag k="name" v="Выпрегово"/>
    <tag k="place" v="hamlet"/>
  </node>
  <node id="656674934" version="3" timestamp="2010-08-19T20:05:34Z" uid="73499" user="citrin" changeset="5538566" lat="57.1872032" lon="37.1248683">
    <tag k="description" v="на этом месте была деревня, сейчас нет даже остатков строений"/>
    <tag k="name" v="Выпрягово"/>
    <tag k="place" v="locality"/>
  </node>
  <node id="656675077" version="2" timestamp="2010-11-25T15:01:39Z" uid="115477" user="wowik" changeset="6455127" lat="57.0498513" lon="37.3392045"/>
  <node id="656675097" version="2" timestamp="2010-11-26T18:33:20Z" uid="115477" user="wowik" changeset="6463696" lat="57.0489305" lon="37.3378697"/>
  <node id="656675105" version="2" timestamp="2010-11-25T15:01:38Z" uid="115477" user="wowik" changeset="6455127" lat="57.0482454" lon="37.3378547"/>
  <node id="656675105" version="3" timestamp="2010-11-26T18:33:20Z" uid="115477" user="wowik" changeset="6463696" lat="57.0482834" lon="37.3376452"/>
  <node id="656675125" version="2" timestamp="2010-11-25T15:01:40Z" uid="115477" user="wowik" changeset="6455127" lat="57.0456709" lon="37.3392165"/>
  <node id="656675298" version="2" timestamp="2010-07-12T15:57:15Z" uid="115477" user="wowik" changeset="5200192" lat="57.0831509" lon="37.3221299">
    <tag k="name" v="Устиново"/>
    <tag k="place" v="hamlet"/>
  </node>
  <node id="656675298" version="3" timestamp="2010-08-16T23:04:39Z" uid="73499" user="citrin" changeset="5513751" lat="57.0831509" lon="37.3221299">
    <tag k="name" v="Устиново"/>
    <tag k="place" v="village"/>
  </node>
  <node id="656676027" version="2" timestamp="2010-07-12T15:57:20Z" uid="115477" user="wowik" changeset="5200192" lat="57.1486302" lon="37.2880058">
    <tag k="name" v="Керузино"/>
    <tag k="place" v="hamlet"/>
  </node>
  <node id="656676036" version="2" timestamp="2010-07-19T15:02:16Z" uid="115477" user="wowik" changeset="5261881" lat="57.1892325" lon="37.3812727">
    <tag k="name" v="Романово"/>
    <tag k="place" v="hamlet"/>
  </node>
  <node id="656676036" version="3" timestamp="2012-01-26T21:13:42Z" uid="384084" user="Kostik" changeset="10507299" lat="57.1892325" lon="37.3812727">
    <tag k="name" v="Романово"/>
    <tag k="place" v="hamlet"/>
  </node>
  <node id="656676054" version="3" timestamp="2010-07-12T15:57:15Z" uid="115477" user="wowik" changeset="5200192" lat="57.186104" lon="37.3972405">
    <tag k="addr:city" v="Барыковское сельское поселение"/>
    <tag k="addr:country" v="RU"/>
    <tag k="addr:district" v="Кашинский район"/>
    <tag k="addr:postcode" v="171615"/>
    <tag k="addr:region" v="Тверская область"/>
    <tag k="cladr:code" v="6901200203500"/>
    <tag k="cladr:name" v="Апарниково"/>
    <tag k="cladr:suffix" v="Деревня"/>
    <tag k="name" v="Апарниково"/>
    <tag k="place" v="hamlet"/>
  </node>
  <node id="656676054" version="4" timestamp="2010-07-19T15:02:16Z" uid="115477" user="wowik" changeset="5261881" lat="57.1870232" lon="37.3936753">
    <tag k="addr:city" v="Барыковское сельское поселение"/>
    <tag k="addr:country" v="RU"/>
    <tag k="addr:district" v="Кашинский район"/>
    <tag k="addr:postcode" v="171615"/>
    <tag k="addr:region" v="Тверская область"/>
    <tag k="cladr:code" v="6901200203500"/>
    <tag k="cladr:name" v="Апарниково"/>
    <tag k="cladr:suffix" v="Деревня"/>
    <tag k="name" v="Апарниково"/>
    <tag k="place" v="hamlet"/>
  </node>
  <node id="656676054" version="5" timestamp="2011-08-09T05:11:07Z" uid="297358" user="patashnik" changeset="8963467" lat="57.1870232" lon="37.3936753">
    <tag k="addr:city" v="Барыковское сельское поселение"/>
    <tag k="addr:country" v="RU"/>
    <tag k="addr:district" v="Кашинский район"/>
    <tag k="addr:region" v="Тверская область"/>
    <tag k="cladr:code" v="6901200203500"/>
    <tag k="name" v="Апарниково"/>
    <tag k="place" v="hamlet"/>
  </node>
  <node id="656676078" version="3" timestamp="2010-07-12T15:57:17Z" uid="115477" user="wowik" changeset="5200192" lat="57.2101996" lon="37.4289192">
    <tag k="name" v="Малечкино"/>
    <tag k="place" v="hamlet"/>
  </node>
  <node id="656676078" version="4" timestamp="2010-07-19T15:02:15Z" uid="115477" user="wowik" changeset="5261881" lat="57.210876" lon="37.4271492">
    <tag k="name" v="Малечкино"/>
    <tag k="place" v="hamlet"/>
  </node>
  <node id="656676078" version="5" timestamp="2012-01-26T21:12:29Z" uid="384084" user="Kostik" changeset="10507299" lat="57.210876" lon="37.4271492">
    <tag k="name" v="Малечкино"/>
    <tag k="place" v="hamlet"/>
  </node>
  <node id="656676098" version="3" timestamp="2010-07-19T15:02:15Z" uid="115477" user="wowik" changeset="5261881" lat="57.2291387" lon="37.4245743">
    <tag k="name" v="Ченцы"/>
    <tag k="place" v="hamlet"/>
  </node>
  <node id="656676098" version="4" timestamp="2012-01-26T21:15:00Z" uid="384084" user="Kostik" changeset="10507299" lat="57.2291387" lon="37.4245743">
    <tag k="name" v="Ченцы"/>
    <tag k="place" v="hamlet"/>
  </node>
  <node id="656677447" version="1" timestamp="2010-02-28T21:23:04Z" uid="137033" user="lubomir" changeset="4003386" lat="38.2096229" lon="-0.5137863"/>
  <node id="656677449" version="1" timestamp="2010-02-28T21:23:04Z" uid="137033" user="lubomir" changeset="4003386" lat="38.2094359" lon="-0.513844"/>
  <node id="656677450" version="1" timestamp="2010-02-28T21:23:04Z" uid="137033" user="lubomir" changeset="4003386" lat="38.2093861" lon="-0.5135823"/>
  <node id="656677451" version="1" timestamp="2010-02-28T21:23:04Z" uid="137033" user="lubomir" changeset="4003386" lat="38.2095731" lon="-0.5135246"/>
  <node id="656670113" version="7" timestamp="2012-04-11T08:47:42Z" uid="478482" user="Ocivelo" changeset="11262180" lat="45.4177795" lon="4.393056"/>
  <node id="656671999" version="5" timestamp="2012-07-20T11:54:08Z" uid="722137" user="OSMF Redaction Account" changeset="12374410" lat="57" lon="37.066667">
    <tag k="addr:city" v="Маловасилевское сельское поселение"/>
    <tag k="addr:country" v="RU"/>
    <tag k="addr:district" v="Кимрский район"/>
    <tag k="addr:region" v="Тверская область"/>
    <tag k="cladr:code" v="6901401900300"/>
    <tag k="name" v="Троице-Кочки"/>
    <tag k="place" v="hamlet"/>
  </node>
  <node id="656672926" version="4" timestamp="2012-07-20T11:54:09Z" uid="722137" user="OSMF Redaction Account" changeset="12374410" lat="57.016667" lon="37.1">
    <tag k="name" v="Плосково"/>
    <tag k="place" v="hamlet"/>
  </node>
  <node id="656672991" version="3" timestamp="2012-04-06T07:55:40Z" uid="384084" user="Kostik" changeset="11197383" lat="57.0167312" lon="37.1582463"/>
  <node id="656672991" version="4" timestamp="2012-08-31T09:52:52Z" uid="760215" user="pnorman redaction revert" changeset="12928705" lat="57.0170625" lon="37.1581061"/>
  <node id="656673034" version="4" timestamp="2012-07-20T11:53:49Z" uid="722137" user="OSMF Redaction Account" changeset="12374390" lat="57" lon="37.183333">
    <tag k="name" v="Большое Огрызлово"/>
    <tag k="place" v="hamlet"/>
  </node>
  <node id="656673209" version="4" timestamp="2012-07-20T11:54:09Z" uid="722137" user="OSMF Redaction Account" changeset="12374410" lat="57.05" lon="37.116667">
    <tag k="name" v="Покровское"/>
    <tag k="place" v="hamlet"/>
  </node>
  <node id="656673225" version="3" timestamp="2012-04-06T07:55:40Z" uid="384084" user="Kostik" changeset="11197383" lat="57.0425382" lon="37.1379044"/>
  <node id="656673225" version="4" timestamp="2012-08-31T09:52:52Z" uid="760215" user="pnorman redaction revert" changeset="12928705" lat="57.0426524" lon="37.1378969"/>
  <node id="656673237" version="3" timestamp="2012-04-06T07:55:40Z" uid="384084" user="Kostik" changeset="11197383" lat="57.0429351" lon="37.1357587"/>
  <node id="656673237" version="4" timestamp="2012-08-31T09:52:52Z" uid="760215" user="pnorman redaction revert" changeset="12928705" lat="57.0430463" lon="37.1356731"/>
  <node id="656673255" version="3" timestamp="2012-04-06T07:55:40Z" uid="384084" user="Kostik" changeset="11197383" lat="57.044546" lon="37.1327975"/>
  <node id="656673255" version="4" timestamp="2012-08-31T09:52:52Z" uid="760215" user="pnorman redaction revert" changeset="12928705" lat="57.0446339" lon="37.1331353"/>
  <node id="656673263" version="3" timestamp="2012-04-06T07:55:41Z" uid="384084" user="Kostik" changeset="11197383" lat="57.0446627" lon="37.1280339"/>
  <node id="656673263" version="4" timestamp="2012-08-31T09:52:52Z" uid="760215" user="pnorman redaction revert" changeset="12928705" lat="57.0447746" lon="37.1281189"/>
  <node id="656673304" version="3" timestamp="2012-04-06T07:55:41Z" uid="384084" user="Kostik" changeset="11197383" lat="57.0525759" lon="37.1043876"/>
  <node id="656673304" version="4" timestamp="2012-08-31T09:52:52Z" uid="760215" user="pnorman redaction revert" changeset="12928705" lat="57.0528772" lon="37.1044362"/>
  <node id="656673558" version="5" timestamp="2012-07-20T11:53:46Z" uid="722137" user="OSMF Redaction Account" changeset="12374389" lat="57.116667" lon="37.216667">
    <tag k="addr:city" v="Неклюдовское сельское поселение"/>
    <tag k="addr:country" v="RU"/>
    <tag k="addr:district" v="Кимрский район"/>
    <tag k="addr:region" v="Тверская область"/>
    <tag k="cladr:code" v="6901401502000"/>
    <tag k="name" v="Набережная"/>
    <tag k="place" v="hamlet"/>
  </node>
  <node id="656674387" version="3" timestamp="2012-04-06T07:55:41Z" uid="384084" user="Kostik" changeset="11197383" lat="57.1742383" lon="37.0509196"/>
  <node id="656674387" version="4" timestamp="2012-08-31T09:52:52Z" uid="760215" user="pnorman redaction revert" changeset="12928705" lat="57.1742744" lon="37.0501327"/>
  <node id="656674391" version="3" timestamp="2012-04-06T07:55:41Z" uid="384084" user="Kostik" changeset="11197383" lat="57.1775881" lon="37.0561552"/>
  <node id="656674391" version="4" timestamp="2012-08-31T09:52:52Z" uid="760215" user="pnorman redaction revert" changeset="12928705" lat="57.1779523" lon="37.0562145"/>
  <node id="656674933" version="5" timestamp="2012-07-20T11:53:16Z" uid="722137" user="OSMF Redaction Account" changeset="12374366" lat="57.216667" lon="37.15">
    <tag k="name" v="Слободка"/>
    <tag k="place" v="hamlet"/>
  </node>
  <node id="656674933" version="6" timestamp="2012-08-14T07:22:43Z" uid="102437" user="_solitary_" changeset="12723218" lat="57.2115951" lon="37.1548722">
    <tag k="name" v="Слободка"/>
    <tag k="place" v="hamlet"/>
  </node>
  <node id="656675077" version="3" timestamp="2012-04-06T07:55:41Z" uid="384084" user="Kostik" changeset="11197383" lat="57.0498514" lon="37.3392059"/>
  <node id="656675077" version="4" timestamp="2012-08-31T09:52:52Z" uid="760215" user="pnorman redaction revert" changeset="12928705" lat="57.0499557" lon="37.3391172"/>
  <node id="656675097" version="3" timestamp="2012-04-06T07:55:41Z" uid="384084" user="Kostik" changeset="11197383" lat="57.0489306" lon="37.3378711"/>
  <node id="656675097" version="4" timestamp="2012-08-31T09:52:53Z" uid="760215" user="pnorman redaction revert" changeset="12928705" lat="57.0489115" lon="37.3379919"/>
  <node id="656675105" version="4" timestamp="2012-04-06T07:55:41Z" uid="384084" user="Kostik" changeset="11197383" lat="57.0482835" lon="37.3376466"/>
  <node id="656675105" version="5" timestamp="2012-08-31T09:52:53Z" uid="760215" user="pnorman redaction revert" changeset="12928705" lat="57.0482454" lon="37.3376278"/>
  <node id="656675298" version="4" timestamp="2012-07-20T11:47:30Z" uid="722137" user="OSMF Redaction Account" changeset="12373997" lat="57.0815918" lon="37.3204563">
    <tag k="name" v="Устиново"/>
    <tag k="place" v="village"/>
  </node>
  <node id="656676036" version="4" timestamp="2012-07-20T11:46:46Z" uid="722137" user="OSMF Redaction Account" changeset="12373964" lat="57.188056" lon="37.379444">
    <tag k="name" v="Романово"/>
    <tag k="place" v="hamlet"/>
  </node>
  <node id="656676054" version="6" timestamp="2012-07-20T11:46:46Z" uid="722137" user="OSMF Redaction Account" changeset="12373964" lat="57.183333" lon="37.4">
    <tag k="addr:city" v="Барыковское сельское поселение"/>
    <tag k="addr:country" v="RU"/>
    <tag k="addr:district" v="Кашинский район"/>
    <tag k="addr:region" v="Тверская область"/>
    <tag k="cladr:code" v="6901200203500"/>
    <tag k="name" v="Апарниково"/>
    <tag k="place" v="hamlet"/>
  </node>
  <node id="656676078" version="6" timestamp="2012-07-20T11:46:46Z" uid="722137" user="OSMF Redaction Account" changeset="12373964" lat="57.216667" lon="37.433333">
    <tag k="name" v="Мелечкино"/>
    <tag k="place" v="hamlet"/>
  </node>
  <node id="656676098" version="5" timestamp="2012-07-20T11:46:46Z" uid="722137" user="OSMF Redaction Account" changeset="12373964" lat="57.2295152" lon="37.4212926">
    <tag k="name" v="Ченцы"/>
    <tag k="place" v="hamlet"/>
  </node>
  <node id="656677447" version="2" timestamp="2012-07-15T14:03:55Z" uid="722137" user="OSMF Redaction Account" changeset="12229365" lat="38.2096229" lon="-0.5137863"/>
  <node id="656677449" version="2" timestamp="2012-07-15T14:03:55Z" uid="722137" user="OSMF Redaction Account" changeset="12229365" lat="38.2094359" lon="-0.513844"/>
  <node id="656677450" version="2" timestamp="2012-07-15T14:03:55Z" uid="722137" user="OSMF Redaction Account" changeset="12229365" lat="38.2093861" lon="-0.5135823"/>
  <node id="656677451" version="2" timestamp="2012-07-15T14:03:55Z" uid="722137" user="OSMF Redaction Account" changeset="12229365" lat="38.2095731" lon="-0.5135246"/>
</osm>
