<?xml version='1.0' encoding='UTF-8'?>
<osm version="0.6" generator="libosmium/2.20.0">
  <node id="660704876" version="2" timestamp="2010-05-01T16:53:25Z" uid="151899" user="Bikeman2000" changeset="4577036" lat="51.2119378" lon="6.7826904"/>
  <node id="660705074" version="2" timestamp="2010-07-28T20:07:27Z" uid="74617" user="JohnSmith" changeset="5339329" lat="48.4211632" lon="-4.7817645">
    <tag k="emergency" v="fire_hydrant"/>
    <tag k="name" v="borne incendie"/>
  </node>
  <node id="660705074" version="3" timestamp="2010-07-30T17:41:29Z" uid="74617" user="JohnSmith" changeset="5356742" lat="48.4211632" lon="-4.7817645">
    <tag k="amenity" v="fire_hydrant"/>
    <tag k="emergency" v="fire_hydrant"/>
    <tag k="name" v="borne incendie"/>
  </node>
  <node id="660705074" version="4" timestamp="2010-10-10T10:09:11Z" uid="26348" user="Rodolphe Quiédeville" changeset="6000346" lat="48.4211632" lon="-4.7817645">
    <tag k="emergency" v="fire_hydrant"/>
    <tag k="name" v="borne incendie"/>
  </node>
  <node id="660705074" version="5" timestamp="2010-10-19T08:46:37Z" uid="26348" user="Rodolphe Quiédeville" changeset="6094601" lat="48.4211632" lon="-4.7817645">
    <tag k="amenity" v="fire_hydrant"/>
    <tag k="emergency" v="fire_hydrant"/>
    <tag k="name" v="borne incendie"/>
  </node>
  <node id="660705074" version="6" timestamp="2012-03-27T18:23:52Z" uid="67540" user="Cobra" changeset="11118954" lat="48.4211632" lon="-4.7817645">
    <tag k="amenity" v="fire_hydrant"/>
    <tag k="emergency" v="fire_hydrant"/>
    <tag k="name" v="borne incendie"/>
    <tag k="odbl" v="clean"/>
  </node>
  <node id="660705075" version="2" timestamp="2010-07-28T20:12:01Z" uid="74617" user="JohnSmith" changeset="5339329" lat="48.4219749" lon="-4.776132">
    <tag k="emergency" v="fire_hydrant"/>
    <tag k="name" v="borne incendie"/>
  </node>
  <node id="660705075" version="3" timestamp="2010-07-30T17:48:52Z" uid="74617" user="JohnSmith" changeset="5356742" lat="48.4219749" lon="-4.776132">
    <tag k="amenity" v="fire_hydrant"/>
    <tag k="emergency" v="fire_hydrant"/>
    <tag k="name" v="borne incendie"/>
  </node>
  <node id="660705075" version="4" timestamp="2010-10-10T10:09:00Z" uid="26348" user="Rodolphe Quiédeville" changeset="6000346" lat="48.4219749" lon="-4.776132">
    <tag k="emergency" v="fire_hydrant"/>
    <tag k="name" v="borne incendie"/>
  </node>
  <node id="660705075" version="5" timestamp="2010-10-19T08:47:50Z" uid="26348" user="Rodolphe Quiédeville" changeset="6094601" lat="48.4219749" lon="-4.776132">
    <tag k="amenity" v="fire_hydrant"/>
    <tag k="emergency" v="fire_hydrant"/>
    <tag k="name" v="borne incendie"/>
  </node>
  <node id="660705075" version="6" timestamp="2012-03-27T18:23:53Z" uid="67540" user="Cobra" changeset="11118954" lat="48.4219749" lon="-4.776132">
    <tag k="amenity" v="fire_hydrant"/>
    <tag k="emergency" v="fire_hydrant"/>
    <tag k="name" v="borne incendie"/>
    <tag k="odbl" v="clean"/>
  </node>
  <node id="660705077" version="2" timestamp="2010-07-28T20:03:05Z" uid="74617" user="JohnSmith" changeset="5339329" lat="48.4219176" lon="-4.7514913">
    <tag k="emergency" v="fire_hydrant"/>
    <tag k="name" v="borne incendie"/>
  </node>
  <node id="660705077" version="3" timestamp="2010-07-30T17:40:45Z" uid="74617" user="JohnSmith" changeset="5356742" lat="48.4219176" lon="-4.7514913">
    <tag k="amenity" v="fire_hydrant"/>
    <tag k="emergency" v="fire_hydrant"/>
    <tag k="name" v="borne incendie"/>
  </node>
  <node id="660705077" version="4" timestamp="2010-10-10T10:09:03Z" uid="26348" user="Rodolphe Quiédeville" changeset="6000346" lat="48.4219176" lon="-4.7514913">
    <tag k="emergency" v="fire_hydrant"/>
    <tag k="name" v="borne incendie"/>
  </node>
  <node id="660705077" version="5" timestamp="2010-10-19T08:48:15Z" uid="26348" user="Rodolphe Quiédeville" changeset="6094601" lat="48.4219176" lon="-4.7514913">
    <tag k="amenity" v="fire_hydrant"/>
    <tag k="emergency" v="fire_hydrant"/>
    <tag k="name" v="borne incendie"/>
  </node>
  <node id="660705077" version="6" timestamp="2012-03-27T18:23:52Z" uid="67540" user="Cobra" changeset="11118954" lat="48.4219176" lon="-4.7514913">
    <tag k="amenity" v="fire_hydrant"/>
    <tag k="emergency" v="fire_hydrant"/>
    <tag k="name" v="borne incendie"/>
    <tag k="odbl" v="clean"/>
  </node>
  <node id="660705078" version="2" timestamp="2010-07-28T20:13:00Z" uid="74617" user="JohnSmith" changeset="5339329" lat="48.4325099" lon="-4.7368912">
    <tag k="emergency" v="fire_hydrant"/>
    <tag k="name" v="borne incendie"/>
  </node>
  <node id="660705078" version="3" timestamp="2010-07-30T17:47:51Z" uid="74617" user="JohnSmith" changeset="5356742" lat="48.4325099" lon="-4.7368912">
    <tag k="amenity" v="fire_hydrant"/>
    <tag k="emergency" v="fire_hydrant"/>
    <tag k="name" v="borne incendie"/>
  </node>
  <node id="660705078" version="4" timestamp="2010-10-10T10:09:07Z" uid="26348" user="Rodolphe Quiédeville" changeset="6000346" lat="48.4325099" lon="-4.7368912">
    <tag k="emergency" v="fire_hydrant"/>
    <tag k="name" v="borne incendie"/>
  </node>
  <node id="660705078" version="5" timestamp="2010-10-19T08:44:26Z" uid="26348" user="Rodolphe Quiédeville" changeset="6094601" lat="48.4325099" lon="-4.7368912">
    <tag k="amenity" v="fire_hydrant"/>
    <tag k="emergency" v="fire_hydrant"/>
    <tag k="name" v="borne incendie"/>
  </node>
  <node id="660705078" version="6" timestamp="2012-03-27T18:23:53Z" uid="67540" user="Cobra" changeset="11118954" lat="48.4325099" lon="-4.7368912">
    <tag k="amenity" v="fire_hydrant"/>
    <tag k="emergency" v="fire_hydrant"/>
    <tag k="name" v="borne incendie"/>
    <tag k="odbl" v="clean"/>
  </node>
  <node id="660705080" version="2" timestamp="2010-07-28T20:05:54Z" uid="74617" user="JohnSmith" changeset="5339329" lat="48.4344841" lon="-4.7335506">
    <tag k="emergency" v="fire_hydrant"/>
    <tag k="name" v="borne incendie"/>
  </node>
  <node id="660705080" version="3" timestamp="2010-07-30T17:39:48Z" uid="74617" user="JohnSmith" changeset="5356742" lat="48.4344841" lon="-4.7335506">
    <tag k="amenity" v="fire_hydrant"/>
    <tag k="emergency" v="fire_hydrant"/>
    <tag k="name" v="borne incendie"/>
  </node>
  <node id="660705080" version="4" timestamp="2010-10-10T10:09:09Z" uid="26348" user="Rodolphe Quiédeville" changeset="6000346" lat="48.4344841" lon="-4.7335506">
    <tag k="emergency" v="fire_hydrant"/>
    <tag k="name" v="borne incendie"/>
  </node>
  <node id="660705080" version="5" timestamp="2010-10-19T08:44:34Z" uid="26348" user="Rodolphe Quiédeville" changeset="6094601" lat="48.4344841" lon="-4.7335506">
    <tag k="amenity" v="fire_hydrant"/>
    <tag k="emergency" v="fire_hydrant"/>
    <tag k="name" v="borne incendie"/>
  </node>
  <node id="660705080" version="6" timestamp="2012-03-27T18:23:53Z" uid="67540" user="Cobra" changeset="11118954" lat="48.4344841" lon="-4.7335506">
    <tag k="amenity" v="fire_hydrant"/>
    <tag k="emergency" v="fire_hydrant"/>
    <tag k="name" v="borne incendie"/>
    <tag k="odbl" v="clean"/>
  </node>
  <node id="660705081" version="3" timestamp="2010-07-28T20:10:29Z" uid="74617" user="JohnSmith" changeset="5339329" lat="48.434381" lon="-4.7285944">
    <tag k="emergency" v="fire_hydrant"/>
    <tag k="name" v="borne incendie"/>
  </node>
  <node id="660705081" version="4" timestamp="2010-07-30T17:46:53Z" uid="74617" user="JohnSmith" changeset="5356742" lat="48.434381" lon="-4.7285944">
    <tag k="amenity" v="fire_hydrant"/>
    <tag k="emergency" v="fire_hydrant"/>
    <tag k="name" v="borne incendie"/>
  </node>
  <node id="660705081" version="5" timestamp="2010-10-10T10:09:13Z" uid="26348" user="Rodolphe Quiédeville" changeset="6000346" lat="48.434381" lon="-4.7285944">
    <tag k="emergency" v="fire_hydrant"/>
    <tag k="name" v="borne incendie"/>
  </node>
  <node id="660705081" version="6" timestamp="2010-10-19T08:47:31Z" uid="26348" user="Rodolphe Quiédeville" changeset="6094601" lat="48.434381" lon="-4.7285944">
    <tag k="amenity" v="fire_hydrant"/>
    <tag k="emergency" v="fire_hydrant"/>
    <tag k="name" v="borne incendie"/>
  </node>
  <node id="660705081" version="7" timestamp="2012-03-27T18:23:53Z" uid="67540" user="Cobra" changeset="11118954" lat="48.434381" lon="-4.7285944">
    <tag k="amenity" v="fire_hydrant"/>
    <tag k="emergency" v="fire_hydrant"/>
    <tag k="name" v="borne incendie"/>
    <tag k="odbl" v="clean"/>
  </node>
  <node id="660705082" version="2" timestamp="2010-07-28T20:08:45Z" uid="74617" user="JohnSmith" changeset="5339329" lat="48.4359712" lon="-4.7290454">
    <tag k="emergency" v="fire_hydrant"/>
    <tag k="name" v="borne incendie"/>
  </node>
  <node id="660705082" version="3" timestamp="2010-07-30T17:42:42Z" uid="74617" user="JohnSmith" changeset="5356742" lat="48.4359712" lon="-4.7290454">
    <tag k="amenity" v="fire_hydrant"/>
    <tag k="emergency" v="fire_hydrant"/>
    <tag k="name" v="borne incendie"/>
  </node>
  <node id="660705082" version="4" timestamp="2010-10-10T10:09:03Z" uid="26348" user="Rodolphe Quiédeville" changeset="6000346" lat="48.4359712" lon="-4.7290454">
    <tag k="emergency" v="fire_hydrant"/>
    <tag k="name" v="borne incendie"/>
  </node>
  <node id="660705082" version="5" timestamp="2010-10-19T08:48:12Z" uid="26348" user="Rodolphe Quiédeville" changeset="6094601" lat="48.4359712" lon="-4.7290454">
    <tag k="amenity" v="fire_hydrant"/>
    <tag k="emergency" v="fire_hydrant"/>
    <tag k="name" v="borne incendie"/>
  </node>
  <node id="660705082" version="6" timestamp="2012-03-27T18:23:54Z" uid="67540" user="Cobra" changeset="11118954" lat="48.4359712" lon="-4.7290454">
    <tag k="amenity" v="fire_hydrant"/>
    <tag k="emergency" v="fire_hydrant"/>
    <tag k="name" v="borne incendie"/>
    <tag k="odbl" v="clean"/>
  </node>
  <node id="660708177" version="3" timestamp="2010-04-01T10:32:50Z" uid="33382" user="de_muur" changeset="4292848" lat="52.9984103" lon="9.0811997"/>
  <node id="660708177" version="4" timestamp="2011-04-25T19:10:17Z" uid="57645" user="KartoGrapHiti" changeset="7967552" lat="52.9984054" lon="9.0807588"/>
  <node id="660704876" version="3" timestamp="2012-05-06T13:00:12Z" uid="42123" user="Ropino" changeset="11518191" lat="51.2119385" lon="6.7827019"/>
</osm>
