<?xml version='1.0' encoding='UTF-8'?>
<osm version="0.6" generator="libosmium/2.20.0">
  <node id="661311292" version="1" timestamp="2010-03-06T18:47:17Z" uid="20587" user="balrog-kun" changeset="4053502" lat="45.5174594" lon="-122.6788733">
    <tag k="amenity" v="fast_food"/>
    <tag k="cuisine" v="pizza"/>
    <tag k="name" v="Pizza Schmizza"/>
  </node>
  <node id="661311292" version="2" timestamp="2010-05-28T07:09:33Z" uid="115918" user="Timothy Smith" changeset="4828078" lat="45.5174594" lon="-122.6788733">
    <tag k="amenity" v="fast_food"/>
    <tag k="cuisine" v="pizza"/>
    <tag k="name" v="Pizza Schmizza"/>
  </node>
  <node id="661311295" version="1" timestamp="2010-03-06T18:47:18Z" uid="20587" user="balrog-kun" changeset="4053502" lat="45.5174996" lon="-122.679869">
    <tag k="addr:housenumber" v="921"/>
    <tag k="addr:postcode" v="97204"/>
    <tag k="addr:street" v="SW Sixth Avenue"/>
    <tag k="fax" v="+15032202565"/>
    <tag k="name" v="Hilton Executive Tower"/>
    <tag k="operator" v="Hilton Hotels Corporation"/>
    <tag k="phone" v="+15032261611"/>
    <tag k="rating" v="*****"/>
    <tag k="tourism" v="hotel"/>
  </node>
  <node id="661311295" version="2" timestamp="2010-03-10T02:39:53Z" uid="20587" user="balrog-kun" changeset="4086058" lat="45.5174996" lon="-122.679869">
    <tag k="addr:housenumber" v="921"/>
    <tag k="addr:postcode" v="97204"/>
    <tag k="addr:street" v="SW Sixth Avenue"/>
    <tag k="fax" v="+15032202565"/>
    <tag k="name" v="Hilton Portland Tower"/>
    <tag k="operator" v="Hilton Hotels Corporation"/>
    <tag k="phone" v="+15032261611"/>
    <tag k="rating" v="*****"/>
    <tag k="tourism" v="hotel"/>
  </node>
  <node id="661311295" version="3" timestamp="2010-03-10T09:21:11Z" uid="20587" user="balrog-kun" changeset="4087406" lat="45.5174996" lon="-122.679869">
    <tag k="addr:housenumber" v="921"/>
    <tag k="addr:postcode" v="97204"/>
    <tag k="addr:street" v="SW Sixth Avenue"/>
    <tag k="fax" v="+15032202565"/>
    <tag k="name" v="Hilton Portland Tower"/>
    <tag k="operator" v="Hilton Hotels Corporation"/>
    <tag k="phone" v="+15032261611"/>
    <tag k="rating" v="*****"/>
    <tag k="tourism" v="hotel"/>
  </node>
  <node id="661311298" version="1" timestamp="2010-03-06T18:47:18Z" uid="20587" user="balrog-kun" changeset="4053502" lat="45.5175039" lon="-122.6793352">
    <tag k="highway" v="bus_stop"/>
  </node>
  <node id="661311299" version="1" timestamp="2010-03-06T18:47:18Z" uid="20587" user="balrog-kun" changeset="4053502" lat="45.517778" lon="-122.6792008"/>
  <node id="661311299" version="2" timestamp="2012-03-22T20:28:13Z" uid="362111" user="Mele Sax-Barnett" changeset="11067397" lat="45.5177717" lon="-122.6791352"/>
  <node id="661311301" version="1" timestamp="2010-03-06T18:47:18Z" uid="20587" user="balrog-kun" changeset="4053502" lat="45.5183277" lon="-122.6789076"/>
  <node id="661311301" version="2" timestamp="2012-03-22T20:28:13Z" uid="362111" user="Mele Sax-Barnett" changeset="11067397" lat="45.5183179" lon="-122.678842"/>
  <node id="661311302" version="1" timestamp="2010-03-06T18:47:18Z" uid="20587" user="balrog-kun" changeset="4053502" lat="45.5175584" lon="-122.6786403"/>
  <node id="661311303" version="1" timestamp="2010-03-06T18:47:18Z" uid="20587" user="balrog-kun" changeset="4053502" lat="45.517714" lon="-122.6785554"/>
  <node id="661311303" version="2" timestamp="2011-12-16T02:08:25Z" uid="372357" user="PJ Houser" changeset="10128457" lat="45.517714" lon="-122.6785554"/>
  <node id="661311305" version="1" timestamp="2010-03-06T18:47:18Z" uid="20587" user="balrog-kun" changeset="4053502" lat="45.5175538" lon="-122.6783448"/>
  <node id="661311305" version="2" timestamp="2012-03-22T20:28:13Z" uid="362111" user="Mele Sax-Barnett" changeset="11067397" lat="45.5175707" lon="-122.6783725"/>
  <node id="661311307" version="1" timestamp="2010-03-06T18:47:18Z" uid="20587" user="balrog-kun" changeset="4053502" lat="45.5176221" lon="-122.6786057">
    <tag k="barrier" v="gate"/>
  </node>
  <node id="661311307" version="2" timestamp="2012-03-22T20:28:13Z" uid="362111" user="Mele Sax-Barnett" changeset="11067397" lat="45.5176389" lon="-122.678631">
    <tag k="barrier" v="gate"/>
  </node>
  <node id="661311308" version="1" timestamp="2010-03-06T18:47:18Z" uid="20587" user="balrog-kun" changeset="4053502" lat="45.5177559" lon="-122.6785312">
    <tag k="amenity" v="parking"/>
    <tag k="building:levels" v="3"/>
    <tag k="fee" v="yes"/>
  </node>
  <node id="661311310" version="1" timestamp="2010-03-06T18:47:18Z" uid="20587" user="balrog-kun" changeset="4053502" lat="45.5181035" lon="-122.6780516"/>
  <node id="661311310" version="2" timestamp="2012-03-22T20:28:13Z" uid="362111" user="Mele Sax-Barnett" changeset="11067397" lat="45.518117" lon="-122.6780794"/>
  <node id="661311311" version="1" timestamp="2010-03-06T18:47:18Z" uid="20587" user="balrog-kun" changeset="4053502" lat="45.5179172" lon="-122.6787841">
    <tag k="addr:housenumber" v="921"/>
    <tag k="addr:postcode" v="97204"/>
    <tag k="addr:street" v="SW Sixth Avenue"/>
    <tag k="fax" v="+15032202565"/>
    <tag k="name" v="Hilton Executive Tower"/>
    <tag k="operator" v="Hilton Hotels Corporation"/>
    <tag k="phone" v="+15032261611"/>
    <tag k="rating" v="*****"/>
    <tag k="tourism" v="hotel"/>
  </node>
  <node id="661311311" version="2" timestamp="2010-03-10T09:21:11Z" uid="20587" user="balrog-kun" changeset="4087406" lat="45.5179172" lon="-122.6787841">
    <tag k="addr:housenumber" v="921"/>
    <tag k="addr:postcode" v="97204"/>
    <tag k="addr:street" v="SW Sixth Avenue"/>
    <tag k="fax" v="+15032202565"/>
    <tag k="name" v="Hilton Executive Tower"/>
    <tag k="operator" v="Hilton Hotels Corporation"/>
    <tag k="phone" v="+15032261611"/>
    <tag k="rating" v="*****"/>
    <tag k="tourism" v="hotel"/>
  </node>
  <node id="661311313" version="1" timestamp="2010-03-06T18:47:18Z" uid="20587" user="balrog-kun" changeset="4053502" lat="45.517758" lon="-122.6787731">
    <tag k="amenity" v="restaurant"/>
    <tag k="cuisine" v="italian"/>
    <tag k="name" v="Porto Terra Tuscan Grill &amp; Bar"/>
    <tag k="operator" v="Hilton Hotels Corporation"/>
  </node>
  <node id="661311313" version="2" timestamp="2010-03-10T09:21:06Z" uid="20587" user="balrog-kun" changeset="4087406" lat="45.5180164" lon="-122.6789852">
    <tag k="amenity" v="restaurant"/>
    <tag k="cuisine" v="italian"/>
    <tag k="name" v="Porto Terra Tuscan Grill &amp; Bar"/>
    <tag k="operator" v="Hilton Hotels Corporation"/>
  </node>
  <node id="661311315" version="1" timestamp="2010-03-06T18:47:18Z" uid="20587" user="balrog-kun" changeset="4053502" lat="45.5179405" lon="-122.678602">
    <tag k="layer" v="11"/>
    <tag k="sport" v="swimming"/>
  </node>
  <node id="661311316" version="1" timestamp="2010-03-06T18:47:18Z" uid="20587" user="balrog-kun" changeset="4053502" lat="45.5269877" lon="-122.6830634">
    <tag k="amenity" v="cafe"/>
    <tag k="name" v="The Cultural Pearl"/>
  </node>
  <node id="661311318" version="1" timestamp="2010-03-06T18:47:18Z" uid="20587" user="balrog-kun" changeset="4053502" lat="45.5270166" lon="-122.683786">
    <tag k="addr:housenumber" v="1230"/>
    <tag k="addr:street" v="Hoyt Street"/>
    <tag k="amenity" v="restaurant"/>
    <tag k="cuisine" v="italian"/>
    <tag k="name" v="Fratelli"/>
    <tag k="phone" v="+15032418800"/>
  </node>
  <node id="661311320" version="1" timestamp="2010-03-06T18:47:18Z" uid="20587" user="balrog-kun" changeset="4053502" lat="45.5270365" lon="-122.6834864">
    <tag k="addr:housenumber" v="1210"/>
    <tag k="addr:street" v="Hoyt Street"/>
    <tag k="amenity" v="bar"/>
    <tag k="cuisine" v="latino"/>
    <tag k="note" v="Name written in a hard to read font.."/>
  </node>
  <node id="661311320" version="2" timestamp="2011-03-21T04:42:04Z" uid="97431" user="Dion Dock" changeset="7624029" lat="45.5270366" lon="-122.6834865">
    <tag k="addr:housenumber" v="1210"/>
    <tag k="addr:street" v="Hoyt Street"/>
    <tag k="amenity" v="bar"/>
    <tag k="cuisine" v="latino"/>
    <tag k="name" v="Oba!"/>
  </node>
  <node id="661311322" version="1" timestamp="2010-03-06T18:47:18Z" uid="20587" user="balrog-kun" changeset="4053502" lat="45.5272848" lon="-122.6835514"/>
  <node id="661311322" version="2" timestamp="2012-03-08T21:00:09Z" uid="362111" user="Mele Sax-Barnett" changeset="10913639" lat="45.5272848" lon="-122.6835514"/>
  <node id="661311323" version="1" timestamp="2010-03-06T18:47:18Z" uid="20587" user="balrog-kun" changeset="4053502" lat="45.5272116" lon="-122.6835486"/>
  <node id="661311323" version="2" timestamp="2011-08-01T21:37:32Z" uid="362111" user="Mele Sax-Barnett" changeset="8895751" lat="45.5272202" lon="-122.68355"/>
  <node id="661311323" version="3" timestamp="2012-03-08T20:59:56Z" uid="362111" user="Mele Sax-Barnett" changeset="10913639" lat="45.5272157" lon="-122.6835155"/>
  <node id="661311324" version="1" timestamp="2010-03-06T18:47:18Z" uid="20587" user="balrog-kun" changeset="4053502" lat="45.5275092" lon="-122.6835592"/>
  <node id="661311324" version="2" timestamp="2012-03-08T20:59:56Z" uid="362111" user="Mele Sax-Barnett" changeset="10913639" lat="45.5275398" lon="-122.6835261"/>
  <node id="661311298" version="2" timestamp="2012-04-13T21:58:41Z" uid="92286" user="Paul Johnson" changeset="11293069" lat="45.5175039" lon="-122.6793352"/>
  <node id="661311318" version="2" timestamp="2012-06-10T21:54:19Z" uid="531066" user="DJKasumi" changeset="11859550" lat="45.5271042" lon="-122.6838849">
    <tag k="addr:housenumber" v="1230"/>
    <tag k="addr:street" v="Hoyt Street"/>
    <tag k="amenity" v="restaurant"/>
    <tag k="cuisine" v="italian"/>
    <tag k="name" v="Fratelli"/>
    <tag k="phone" v="+15032418800"/>
  </node>
</osm>
