<?xml version='1.0' encoding='UTF-8'?>
<osm version="0.6" generator="libosmium/2.20.0">
  <node id="664863543" version="1" timestamp="2010-03-12T23:36:01Z" uid="245275" user="Marianian" changeset="4110742" lat="51.0726032" lon="-4.074533">
    <tag k="amenity" v="pub"/>
    <tag k="name" v="Wrey Arms"/>
  </node>
  <node id="664863543" version="2" timestamp="2010-03-17T14:34:46Z" uid="108295" user="OSMF Data Revert" changeset="4153427" lat="51.0726032" lon="-4.074533">
    <tag k="amenity" v="pub"/>
    <tag k="name" v="Wrey Arms"/>
  </node>
  <node id="664863544" version="1" timestamp="2010-03-12T23:36:02Z" uid="245275" user="Marianian" changeset="4110742" lat="51.0726504" lon="-4.0738571">
    <tag k="amenity" v="fuel"/>
    <tag k="name" v="Esso"/>
  </node>
  <node id="664863544" version="2" timestamp="2010-03-17T14:34:47Z" uid="108295" user="OSMF Data Revert" changeset="4153427" lat="51.0726504" lon="-4.0738571">
    <tag k="amenity" v="fuel"/>
    <tag k="name" v="Esso"/>
  </node>
  <node id="664863545" version="1" timestamp="2010-03-12T23:36:02Z" uid="245275" user="Marianian" changeset="4110742" lat="51.0720976" lon="-4.0685356">
    <tag k="amenity" v="embassy"/>
    <tag k="name" v="Super-Chechnya (NationStates)"/>
  </node>
  <node id="664863545" version="2" timestamp="2010-03-17T14:34:47Z" uid="108295" user="OSMF Data Revert" changeset="4153427" lat="51.0720976" lon="-4.0685356">
    <tag k="amenity" v="embassy"/>
    <tag k="name" v="Super-Chechnya (NationStates)"/>
  </node>
</osm>
