<?xml version='1.0' encoding='UTF-8'?>
<osm version="0.6" generator="libosmium/2.20.0">
  <node id="665440641" version="2" timestamp="2010-07-28T20:07:34Z" uid="74617" user="JohnSmith" changeset="5339329" lat="45.4190452" lon="4.3942205">
    <tag k="emergency" v="fire_hydrant"/>
    <tag k="ref" v="954"/>
  </node>
  <node id="665440641" version="3" timestamp="2010-07-30T17:47:50Z" uid="74617" user="JohnSmith" changeset="5356742" lat="45.4190452" lon="4.3942205">
    <tag k="amenity" v="fire_hydrant"/>
    <tag k="emergency" v="fire_hydrant"/>
    <tag k="ref" v="954"/>
  </node>
  <node id="665440641" version="4" timestamp="2010-10-11T17:24:47Z" uid="26348" user="Rodolphe Quiédeville" changeset="6013837" lat="45.4190452" lon="4.3942205">
    <tag k="emergency" v="fire_hydrant"/>
    <tag k="ref" v="954"/>
  </node>
  <node id="665440641" version="5" timestamp="2010-10-19T08:44:18Z" uid="26348" user="Rodolphe Quiédeville" changeset="6094601" lat="45.4190452" lon="4.3942205">
    <tag k="amenity" v="fire_hydrant"/>
    <tag k="emergency" v="fire_hydrant"/>
    <tag k="ref" v="954"/>
  </node>
  <node id="665440641" version="6" timestamp="2012-03-27T18:30:12Z" uid="67540" user="Cobra" changeset="11118954" lat="45.4190452" lon="4.3942205">
    <tag k="amenity" v="fire_hydrant"/>
    <tag k="emergency" v="fire_hydrant"/>
    <tag k="odbl" v="clean"/>
    <tag k="ref" v="954"/>
  </node>
  <node id="665440654" version="2" timestamp="2010-07-28T20:12:10Z" uid="74617" user="JohnSmith" changeset="5339329" lat="45.4203107" lon="4.3964801">
    <tag k="emergency" v="fire_hydrant"/>
    <tag k="ref" v="43"/>
  </node>
  <node id="665440654" version="3" timestamp="2010-07-30T17:38:55Z" uid="74617" user="JohnSmith" changeset="5356742" lat="45.4203107" lon="4.3964801">
    <tag k="amenity" v="fire_hydrant"/>
    <tag k="emergency" v="fire_hydrant"/>
    <tag k="ref" v="43"/>
  </node>
  <node id="665440654" version="4" timestamp="2010-10-11T17:25:27Z" uid="26348" user="Rodolphe Quiédeville" changeset="6013837" lat="45.4203107" lon="4.3964801">
    <tag k="emergency" v="fire_hydrant"/>
    <tag k="ref" v="43"/>
  </node>
  <node id="665440654" version="5" timestamp="2010-10-19T08:47:39Z" uid="26348" user="Rodolphe Quiédeville" changeset="6094601" lat="45.4203107" lon="4.3964801">
    <tag k="amenity" v="fire_hydrant"/>
    <tag k="emergency" v="fire_hydrant"/>
    <tag k="ref" v="43"/>
  </node>
  <node id="665440654" version="6" timestamp="2012-03-27T18:30:13Z" uid="67540" user="Cobra" changeset="11118954" lat="45.4203107" lon="4.3964801">
    <tag k="amenity" v="fire_hydrant"/>
    <tag k="emergency" v="fire_hydrant"/>
    <tag k="odbl" v="clean"/>
    <tag k="ref" v="43"/>
  </node>
  <node id="665441180" version="4" timestamp="2010-07-28T20:08:25Z" uid="74617" user="JohnSmith" changeset="5339329" lat="39.2721008" lon="-84.4579618">
    <tag k="authority" v="Village of Glendale"/>
    <tag k="emergency" v="fire_hydrant"/>
    <tag k="number" v="49"/>
  </node>
  <node id="665441180" version="5" timestamp="2010-07-30T17:46:52Z" uid="74617" user="JohnSmith" changeset="5356742" lat="39.2721008" lon="-84.4579618">
    <tag k="amenity" v="fire_hydrant"/>
    <tag k="authority" v="Village of Glendale"/>
    <tag k="emergency" v="fire_hydrant"/>
    <tag k="number" v="49"/>
  </node>
  <node id="665449362" version="1" timestamp="2010-03-13T19:30:13Z" uid="9581" user="Lobelt" changeset="4118257" lat="49.4903764" lon="8.6160529"/>
  <node id="665449363" version="1" timestamp="2010-03-13T19:30:13Z" uid="9581" user="Lobelt" changeset="4118257" lat="49.490623" lon="8.6165791"/>
  <node id="665449364" version="1" timestamp="2010-03-13T19:30:13Z" uid="9581" user="Lobelt" changeset="4118257" lat="49.485533" lon="8.6250032"/>
  <node id="665441180" version="6" timestamp="2012-07-18T22:06:06Z" uid="722137" user="OSMF Redaction Account" changeset="12300083" lat="39.2721008" lon="-84.4579618"/>
  <node id="665449362" version="2" timestamp="2012-05-02T12:16:13Z" uid="328555" user="peb12345" changeset="11478997" lat="49.4903764" lon="8.6160529"/>
  <node id="665449363" version="2" timestamp="2012-05-02T12:16:13Z" uid="328555" user="peb12345" changeset="11478997" lat="49.490623" lon="8.6165791"/>
  <node id="665449364" version="2" timestamp="2012-07-17T05:28:32Z" uid="722137" user="OSMF Redaction Account" changeset="12257748" lat="49.485533" lon="8.6250032"/>
</osm>
