<?xml version='1.0' encoding='UTF-8'?>
<osm version="0.6" generator="libosmium/2.20.0">
  <node id="66582614" version="3" timestamp="2010-01-30T01:56:07Z" uid="99207" user="Lar Kiesel" changeset="3748002" lat="32.388483" lon="-81.6570025"/>
  <node id="66582617" version="3" timestamp="2010-01-30T01:56:08Z" uid="99207" user="Lar Kiesel" changeset="3748002" lat="32.388314" lon="-81.657116"/>
  <node id="66583445" version="2" timestamp="2010-03-07T09:05:32Z" uid="9719" user="dvaey" changeset="4058367" lat="-35.3609143" lon="149.0826689"/>
  <node id="66583446" version="2" timestamp="2010-03-07T09:05:33Z" uid="9719" user="dvaey" changeset="4058367" lat="-35.3609909" lon="149.0825415"/>
  <node id="66583447" version="2" timestamp="2010-03-07T09:05:33Z" uid="9719" user="dvaey" changeset="4058367" lat="-35.3610478" lon="149.0823738"/>
  <node id="66586322" version="12" timestamp="2009-07-22T18:51:32Z" uid="20587" user="balrog-kun" changeset="1908051" lat="44.40726" lon="8.9338624">
    <tag k="gfoss_id" v="1282"/>
    <tag k="is_in" v="Genova, Liguria, Italy"/>
    <tag k="is_in:continent" v="Europe"/>
    <tag k="name" v="Genova"/>
    <tag k="name:en" v="Genoa"/>
    <tag k="name:es" v="Génova"/>
    <tag k="name:lij" v="Zena"/>
    <tag k="name:pl" v="Genua"/>
    <tag k="place" v="city"/>
    <tag k="population" v="610307"/>
    <tag k="source" v="geodati.gfoss.it"/>
    <tag k="wikipedia" v="Genoa"/>
  </node>
  <node id="66586322" version="13" timestamp="2009-07-25T15:08:21Z" uid="123700" user="Mala" changeset="1935220" lat="44.40726" lon="8.9338624">
    <tag k="gfoss_id" v="1282"/>
    <tag k="is_in" v="Genova, Liguria, Italy"/>
    <tag k="is_in:continent" v="Europe"/>
    <tag k="name" v="Genova"/>
    <tag k="name:en" v="Genoa"/>
    <tag k="name:es" v="Génova"/>
    <tag k="name:fr" v="Gênes"/>
    <tag k="name:lij" v="Zena"/>
    <tag k="name:pl" v="Genua"/>
    <tag k="name:pt" v="Génova"/>
    <tag k="place" v="city"/>
    <tag k="population" v="610307"/>
    <tag k="source" v="geodati.gfoss.it"/>
    <tag k="wikipedia" v="Genoa"/>
  </node>
  <node id="66586322" version="14" timestamp="2009-12-17T08:33:22Z" uid="209163" user="Withnail" changeset="3392005" lat="44.40726" lon="8.9338624">
    <tag k="gfoss_id" v="1282"/>
    <tag k="is_in" v="Genova, Liguria, Italy"/>
    <tag k="is_in:continent" v="Europe"/>
    <tag k="name" v="Genova"/>
    <tag k="name:en" v="Genoa"/>
    <tag k="name:es" v="Génova"/>
    <tag k="name:fr" v="Gênes"/>
    <tag k="name:lij" v="Zena"/>
    <tag k="name:pl" v="Genua"/>
    <tag k="name:pt" v="Génova"/>
    <tag k="place" v="city"/>
    <tag k="population" v="610307"/>
    <tag k="source" v="geodati.gfoss.it"/>
    <tag k="wikipedia" v="Genoa"/>
  </node>
  <node id="66586322" version="15" timestamp="2009-12-17T21:58:48Z" uid="145231" user="woodpeck_repair" changeset="3397178" lat="44.40726" lon="8.9338624">
    <tag k="gfoss_id" v="1282"/>
    <tag k="is_in" v="Genova, Liguria, Italy"/>
    <tag k="is_in:continent" v="Europe"/>
    <tag k="name" v="Genova"/>
    <tag k="name:en" v="Genoa"/>
    <tag k="name:es" v="Génova"/>
    <tag k="name:fr" v="Gênes"/>
    <tag k="name:lij" v="Zena"/>
    <tag k="name:pl" v="Genua"/>
    <tag k="name:pt" v="Génova"/>
    <tag k="place" v="city"/>
    <tag k="population" v="610307"/>
    <tag k="source" v="geodati.gfoss.it"/>
    <tag k="wikipedia" v="Genoa"/>
  </node>
  <node id="66586322" version="16" timestamp="2010-04-12T19:38:21Z" uid="166445" user="GranD" changeset="4407950" lat="44.40726" lon="8.9338624">
    <tag k="gfoss_id" v="1282"/>
    <tag k="is_in" v="Genova, Liguria, Italy"/>
    <tag k="is_in:continent" v="Europe"/>
    <tag k="name" v="Genova"/>
    <tag k="name:en" v="Genoa"/>
    <tag k="name:es" v="Génova"/>
    <tag k="name:fr" v="Gênes"/>
    <tag k="name:lij" v="Zena"/>
    <tag k="name:pl" v="Genua"/>
    <tag k="name:pt" v="Génova"/>
    <tag k="name:ru" v="Генуя"/>
    <tag k="place" v="city"/>
    <tag k="population" v="610307"/>
    <tag k="source" v="geodati.gfoss.it"/>
    <tag k="wikipedia" v="Genoa"/>
  </node>
  <node id="66586322" version="17" timestamp="2010-06-17T10:40:01Z" uid="57158" user="kay_D" changeset="5007705" lat="44.40726" lon="8.9338624">
    <tag k="gfoss_id" v="1282"/>
    <tag k="is_in" v="Genova, Liguria, Italy"/>
    <tag k="is_in:continent" v="Europe"/>
    <tag k="name" v="Genova"/>
    <tag k="name:de" v="Genua"/>
    <tag k="name:en" v="Genoa"/>
    <tag k="name:es" v="Génova"/>
    <tag k="name:fr" v="Gênes"/>
    <tag k="name:lij" v="Zena"/>
    <tag k="name:pl" v="Genua"/>
    <tag k="name:pt" v="Génova"/>
    <tag k="name:ru" v="Генуя"/>
    <tag k="place" v="city"/>
    <tag k="population" v="610307"/>
    <tag k="source" v="geodati.gfoss.it"/>
    <tag k="wikipedia" v="Genoa"/>
  </node>
  <node id="66586322" version="18" timestamp="2010-11-21T13:29:50Z" uid="97922" user="damjang" changeset="6422518" lat="44.40726" lon="8.9338624">
    <tag k="gfoss_id" v="1282"/>
    <tag k="is_in" v="Genova, Liguria, Italy"/>
    <tag k="is_in:continent" v="Europe"/>
    <tag k="name" v="Genova"/>
    <tag k="name:de" v="Genua"/>
    <tag k="name:en" v="Genoa"/>
    <tag k="name:es" v="Génova"/>
    <tag k="name:fr" v="Gênes"/>
    <tag k="name:lij" v="Zena"/>
    <tag k="name:pl" v="Genua"/>
    <tag k="name:pt" v="Génova"/>
    <tag k="name:ru" v="Генуя"/>
    <tag k="name:sl" v="Genova"/>
    <tag k="place" v="city"/>
    <tag k="population" v="610307"/>
    <tag k="source" v="geodati.gfoss.it"/>
    <tag k="wikipedia" v="Genoa"/>
  </node>
  <node id="66586322" version="19" timestamp="2011-01-21T10:55:44Z" uid="393666" user="etrumap" changeset="7039046" lat="44.40726" lon="8.9338624">
    <tag k="gfoss_id" v="1282"/>
    <tag k="is_in" v="Genova, Liguria, Italy"/>
    <tag k="is_in:continent" v="Europe"/>
    <tag k="name" v="Genova"/>
    <tag k="name:de" v="Genua"/>
    <tag k="name:en" v="Genoa"/>
    <tag k="name:es" v="Génova"/>
    <tag k="name:fr" v="Gênes"/>
    <tag k="name:lij" v="Zena"/>
    <tag k="name:pl" v="Genua"/>
    <tag k="name:pt" v="Génova"/>
    <tag k="name:ru" v="Генуя"/>
    <tag k="name:sl" v="Genova"/>
    <tag k="place" v="city"/>
    <tag k="population" v="610307"/>
    <tag k="rank" v="20"/>
    <tag k="source" v="geodati.gfoss.it"/>
    <tag k="wikipedia" v="Genoa"/>
  </node>
  <node id="66586322" version="20" timestamp="2011-01-24T11:46:50Z" uid="393666" user="etrumap" changeset="7072118" lat="44.40726" lon="8.9338624">
    <tag k="capital" v="4"/>
    <tag k="gfoss_id" v="1282"/>
    <tag k="is_in" v="Genova, Liguria, Italy"/>
    <tag k="is_in:continent" v="Europe"/>
    <tag k="name" v="Genova"/>
    <tag k="name:de" v="Genua"/>
    <tag k="name:en" v="Genoa"/>
    <tag k="name:es" v="Génova"/>
    <tag k="name:fr" v="Gênes"/>
    <tag k="name:lij" v="Zena"/>
    <tag k="name:pl" v="Genua"/>
    <tag k="name:pt" v="Génova"/>
    <tag k="name:ru" v="Генуя"/>
    <tag k="name:sl" v="Genova"/>
    <tag k="place" v="city"/>
    <tag k="population" v="610307"/>
    <tag k="rank" v="20"/>
    <tag k="source" v="geodati.gfoss.it"/>
    <tag k="wikipedia" v="Genoa"/>
  </node>
  <node id="66586322" version="21" timestamp="2012-03-08T14:40:08Z" uid="7045" user="Xuacu" changeset="10909736" lat="44.40726" lon="8.9338624">
    <tag k="capital" v="4"/>
    <tag k="gfoss_id" v="1282"/>
    <tag k="is_in" v="Genova, Liguria, Italy"/>
    <tag k="is_in:continent" v="Europe"/>
    <tag k="name" v="Genova"/>
    <tag k="name:ast" v="Xénova"/>
    <tag k="name:de" v="Genua"/>
    <tag k="name:en" v="Genoa"/>
    <tag k="name:es" v="Génova"/>
    <tag k="name:fr" v="Gênes"/>
    <tag k="name:lij" v="Zena"/>
    <tag k="name:pl" v="Genua"/>
    <tag k="name:pt" v="Génova"/>
    <tag k="name:ru" v="Генуя"/>
    <tag k="name:sl" v="Genova"/>
    <tag k="place" v="city"/>
    <tag k="population" v="610307"/>
    <tag k="rank" v="20"/>
    <tag k="source" v="geodati.gfoss.it"/>
    <tag k="wikipedia" v="Genoa"/>
  </node>
  <node id="66586339" version="5" timestamp="2009-07-25T22:01:26Z" uid="123700" user="Mala" changeset="1939174" lat="44.3078623" lon="8.4806328">
    <tag k="gfoss_id" v="1244"/>
    <tag k="is_in" v="Savona, Liguria, Italy"/>
    <tag k="is_in:continent" v="Europe"/>
    <tag k="name" v="Savona"/>
    <tag k="name:fr" v="Savone"/>
    <tag k="place" v="city"/>
    <tag k="population" v="59907"/>
    <tag k="source" v="geodati.gfoss.it"/>
    <tag k="wikipedia" v="Savona"/>
  </node>
  <node id="66586339" version="6" timestamp="2010-04-12T19:38:21Z" uid="166445" user="GranD" changeset="4407950" lat="44.3078623" lon="8.4806328">
    <tag k="gfoss_id" v="1244"/>
    <tag k="is_in" v="Savona, Liguria, Italy"/>
    <tag k="is_in:continent" v="Europe"/>
    <tag k="name" v="Savona"/>
    <tag k="name:fr" v="Savone"/>
    <tag k="name:ru" v="Савона"/>
    <tag k="place" v="city"/>
    <tag k="population" v="59907"/>
    <tag k="source" v="geodati.gfoss.it"/>
    <tag k="wikipedia" v="Savona"/>
  </node>
  <node id="66586339" version="7" timestamp="2010-05-04T16:46:19Z" uid="80088" user="FedericoCozzi" changeset="4605734" lat="44.3078624" lon="8.4806328">
    <tag k="gfoss_id" v="1244"/>
    <tag k="is_in" v="Savona, Liguria, Italy"/>
    <tag k="is_in:continent" v="Europe"/>
    <tag k="name" v="Savona"/>
    <tag k="name:fr" v="Savone"/>
    <tag k="name:ru" v="Савона"/>
    <tag k="place" v="town"/>
    <tag k="population" v="59907"/>
    <tag k="source" v="geodati.gfoss.it"/>
    <tag k="wikipedia" v="Savona"/>
  </node>
  <node id="66586339" version="8" timestamp="2010-05-24T15:15:38Z" uid="80088" user="FedericoCozzi" changeset="4794570" lat="44.3078624" lon="8.4806327">
    <tag k="gfoss_id" v="1244"/>
    <tag k="is_in" v="Savona, Liguria, Italy"/>
    <tag k="is_in:continent" v="Europe"/>
    <tag k="name" v="Savona"/>
    <tag k="name:fr" v="Savone"/>
    <tag k="name:ru" v="Савона"/>
    <tag k="place" v="city"/>
    <tag k="population" v="59907"/>
    <tag k="source" v="geodati.gfoss.it"/>
    <tag k="wikipedia" v="Savona"/>
  </node>
  <node id="66586339" version="9" timestamp="2011-01-24T11:46:51Z" uid="393666" user="etrumap" changeset="7072118" lat="44.3078624" lon="8.4806327">
    <tag k="capital" v="6"/>
    <tag k="gfoss_id" v="1244"/>
    <tag k="is_in" v="Savona, Liguria, Italy"/>
    <tag k="is_in:continent" v="Europe"/>
    <tag k="name" v="Savona"/>
    <tag k="name:fr" v="Savone"/>
    <tag k="name:ru" v="Савона"/>
    <tag k="place" v="city"/>
    <tag k="population" v="59907"/>
    <tag k="source" v="geodati.gfoss.it"/>
    <tag k="wikipedia" v="Savona"/>
  </node>
  <node id="66586339" version="10" timestamp="2011-09-01T08:21:47Z" uid="504502" user="peppe10" changeset="9182411" lat="44.3093365" lon="8.4746246">
    <tag k="capital" v="6"/>
    <tag k="gfoss_id" v="1244"/>
    <tag k="is_in" v="Savona, Liguria, Italy"/>
    <tag k="is_in:continent" v="Europe"/>
    <tag k="name" v="Savona"/>
    <tag k="name:fr" v="Savone"/>
    <tag k="name:ru" v="Савона"/>
    <tag k="place" v="city"/>
    <tag k="population" v="59907"/>
    <tag k="source" v="geodati.gfoss.it"/>
    <tag k="wikipedia" v="Savona"/>
  </node>
  <node id="66587444" version="3" timestamp="2010-01-30T01:14:32Z" uid="99207" user="Lar Kiesel" changeset="3747917" lat="32.239524" lon="-81.541868"/>
  <node id="66589676" version="3" timestamp="2009-12-30T13:22:17Z" uid="23543" user="jkjk" changeset="3489815" lat="50.0379316" lon="14.50109"/>
  <node id="66589736" version="3" timestamp="2009-12-30T13:22:18Z" uid="23543" user="jkjk" changeset="3489815" lat="50.0378902" lon="14.4991536">
    <tag k="highway" v="bus_stop"/>
    <tag k="name" v="Benkova"/>
  </node>
  <node id="66589736" version="4" timestamp="2011-01-18T22:08:04Z" uid="190711" user="Zulu" changeset="7015568" lat="50.0378902" lon="14.4991536"/>
  <node id="66582614" version="4" timestamp="2012-07-18T13:34:35Z" uid="722137" user="OSMF Redaction Account" changeset="12283496" lat="32.388309" lon="-81.657109"/>
  <node id="66583445" version="3" timestamp="2012-07-19T10:41:12Z" uid="722137" user="OSMF Redaction Account" changeset="12319145" lat="-35.3609255" lon="149.0826707"/>
  <node id="66583446" version="3" timestamp="2012-07-19T10:41:12Z" uid="722137" user="OSMF Redaction Account" changeset="12319145" lat="-35.3610095" lon="149.0825505"/>
  <node id="66583447" version="3" timestamp="2012-07-19T10:41:12Z" uid="722137" user="OSMF Redaction Account" changeset="12319145" lat="-35.3610585" lon="149.0823789"/>
  <node id="66586322" version="22" timestamp="2012-04-30T14:39:55Z" uid="454589" user="sabas88" changeset="11460969" lat="44.40726" lon="8.9338624">
    <tag k="capital" v="4"/>
    <tag k="gfoss_id" v="1282"/>
    <tag k="is_in" v="Genova, Liguria, Italy"/>
    <tag k="is_in:continent" v="Europe"/>
    <tag k="name" v="Genova"/>
    <tag k="name:ast" v="Xénova"/>
    <tag k="name:de" v="Genua"/>
    <tag k="name:en" v="Genoa"/>
    <tag k="name:es" v="Génova"/>
    <tag k="name:fr" v="Gênes"/>
    <tag k="name:lij" v="Zena"/>
    <tag k="name:pl" v="Genua"/>
    <tag k="name:pt" v="Génova"/>
    <tag k="name:ru" v="Генуя"/>
    <tag k="name:sl" v="Genova"/>
    <tag k="place" v="city"/>
    <tag k="population" v="610307"/>
    <tag k="rank" v="20"/>
    <tag k="source" v="geodati.gfoss.it"/>
    <tag k="wikipedia" v="it:Genova"/>
  </node>
  <node id="66589676" version="4" timestamp="2012-07-24T11:27:45Z" uid="722137" user="OSMF Redaction Account" changeset="12464301" lat="50.0378794" lon="14.501093"/>
  <node id="66589736" version="5" timestamp="2012-07-24T12:48:50Z" uid="722137" user="OSMF Redaction Account" changeset="12465837" lat="50.0378559" lon="14.4992148"/>
</osm>
