<?xml version='1.0' encoding='UTF-8'?>
<osm version="0.6" generator="libosmium/2.20.0">
  <node id="666840173" version="2" timestamp="2010-05-24T00:54:11Z" uid="4467" user="Rosscoe" changeset="4789266" lat="-34.0662697" lon="151.0132484">
    <tag k="name" v="Engadine Tavern"/>
    <tag k="shop" v="alcohol"/>
  </node>
  <node id="666841904" version="2" timestamp="2010-05-24T00:54:14Z" uid="4467" user="Rosscoe" changeset="4789266" lat="-34.065956" lon="151.0131012"/>
  <node id="666841906" version="2" timestamp="2010-05-24T00:53:40Z" uid="4467" user="Rosscoe" changeset="4789266" lat="-34.0660642" lon="151.013005">
    <tag k="amenity" v="cafe"/>
    <tag k="name" v="Gloria Jeans"/>
  </node>
  <node id="666846496" version="2" timestamp="2010-07-28T19:19:09Z" uid="9719" user="dvaey" changeset="5341140" lat="-36.4529444" lon="146.9944836"/>
  <node id="666846497" version="2" timestamp="2010-07-28T19:19:08Z" uid="9719" user="dvaey" changeset="5341140" lat="-36.4533618" lon="146.9931854"/>
  <node id="666846538" version="2" timestamp="2010-04-11T11:55:06Z" uid="20587" user="balrog-kun" changeset="4392352" lat="49.5295986" lon="20.6489433">
    <tag k="addr:postcode" v="33-342"/>
    <tag k="is_in:country" v="Poland"/>
    <tag k="is_in:province" v="województwo małopolskie"/>
    <tag k="name" v="Barcice"/>
    <tag k="place" v="village"/>
  </node>
  <node id="666846538" version="3" timestamp="2010-08-09T17:54:39Z" uid="9475" user="Slawek Maderak" changeset="5446415" lat="49.5295986" lon="20.6489433">
    <tag k="addr:postcode" v="33-342"/>
    <tag k="is_in:country" v="Poland"/>
    <tag k="is_in:province" v="województwo małopolskie"/>
    <tag k="name" v="Barcice"/>
    <tag k="place" v="town"/>
  </node>
  <node id="666846538" version="4" timestamp="2012-01-01T16:48:41Z" uid="467703" user="Zbigniew Czernik" changeset="10262861" lat="49.5243232" lon="20.65203">
    <tag k="addr:postcode" v="33-342"/>
    <tag k="is_in:country" v="Poland"/>
    <tag k="is_in:province" v="województwo małopolskie"/>
    <tag k="name" v="Barcice"/>
    <tag k="place" v="town"/>
  </node>
  <node id="666847787" version="2" timestamp="2010-05-24T00:53:53Z" uid="4467" user="Rosscoe" changeset="4789266" lat="-34.0652065" lon="151.0129882">
    <tag k="amenity" v="bank"/>
    <tag k="atm" v="yes"/>
    <tag k="name" v="Westpac"/>
  </node>
  <node id="666847793" version="2" timestamp="2010-05-24T00:53:58Z" uid="4467" user="Rosscoe" changeset="4789266" lat="-34.0655322" lon="151.012672">
    <tag k="amenity" v="bank"/>
    <tag k="atm" v="yes"/>
    <tag k="name" v="NAB"/>
  </node>
  <node id="666849860" version="2" timestamp="2010-07-28T19:19:09Z" uid="9719" user="dvaey" changeset="5341140" lat="-36.4533586" lon="146.9988248"/>
  <node id="666849860" version="3" timestamp="2010-07-28T19:20:11Z" uid="9719" user="dvaey" changeset="5341140" lat="-36.4533586" lon="146.9988248"/>
  <node id="666840173" version="3" timestamp="2012-07-19T10:26:44Z" uid="722137" user="OSMF Redaction Account" changeset="12318520" lat="-34.0662238" lon="151.0133738">
    <tag k="name" v="Engadine Tavern"/>
    <tag k="shop" v="alcohol"/>
  </node>
  <node id="666841906" version="3" timestamp="2012-07-19T10:26:45Z" uid="722137" user="OSMF Redaction Account" changeset="12318520" lat="-34.065983" lon="151.0130799">
    <tag k="amenity" v="cafe"/>
    <tag k="name" v="Gloria Jeans"/>
  </node>
  <node id="666846496" version="3" timestamp="2012-07-19T07:06:16Z" uid="722137" user="OSMF Redaction Account" changeset="12311087" lat="-36.4529654" lon="146.9944285"/>
  <node id="666846497" version="3" timestamp="2012-07-19T07:06:16Z" uid="722137" user="OSMF Redaction Account" changeset="12311087" lat="-36.4534395" lon="146.9931878"/>
  <node id="666846538" version="5" timestamp="2012-08-10T00:25:49Z" uid="467703" user="Zbigniew_Czernik" changeset="12674651" lat="49.5243232" lon="20.65203">
    <tag k="addr:postcode" v="33-342"/>
    <tag k="is_in:country" v="Poland"/>
    <tag k="is_in:province" v="województwo małopolskie"/>
    <tag k="name" v="Barcice"/>
    <tag k="place" v="village"/>
  </node>
  <node id="666847787" version="3" timestamp="2012-07-19T10:26:47Z" uid="722137" user="OSMF Redaction Account" changeset="12318520" lat="-34.0652739" lon="151.0131033">
    <tag k="amenity" v="bank"/>
    <tag k="atm" v="yes"/>
    <tag k="name" v="Westpac"/>
  </node>
  <node id="666847787" version="4" timestamp="2012-08-10T00:26:30Z" uid="7523" user="inas" changeset="12675098" lat="-34.0653073" lon="151.0131378">
    <tag k="amenity" v="bank"/>
    <tag k="atm" v="yes"/>
    <tag k="name" v="Westpac"/>
  </node>
  <node id="666847793" version="3" timestamp="2012-07-19T10:26:47Z" uid="722137" user="OSMF Redaction Account" changeset="12318520" lat="-34.0656134" lon="151.0127962">
    <tag k="amenity" v="bank"/>
    <tag k="atm" v="yes"/>
    <tag k="name" v="NAB"/>
  </node>
  <node id="666847793" version="4" timestamp="2012-08-10T00:26:30Z" uid="7523" user="inas" changeset="12675098" lat="-34.0655633" lon="151.0127372">
    <tag k="amenity" v="bank"/>
    <tag k="atm" v="yes"/>
    <tag k="name" v="NAB"/>
  </node>
  <node id="666849860" version="4" timestamp="2012-07-19T07:06:16Z" uid="722137" user="OSMF Redaction Account" changeset="12311087" lat="-36.4533976" lon="146.9987976"/>
</osm>
