<?xml version='1.0' encoding='UTF-8'?>
<osm version="0.6" generator="libosmium/2.20.0">
  <node id="668144773" version="3" timestamp="2010-06-30T21:45:52Z" uid="49111" user="Markus B" changeset="5117063" lat="49.462101" lon="11.1377975">
    <tag k="addr:city" v="Nürnberg"/>
    <tag k="addr:country" v="DE"/>
    <tag k="addr:housenumber" v="57"/>
    <tag k="addr:postcode" v="90482"/>
    <tag k="addr:street" v="Laufamholzstraße"/>
    <tag k="amenity" v="doctors"/>
    <tag k="name" v="Ärztehaus Mögeldorf"/>
  </node>
  <node id="668144773" version="4" timestamp="2010-08-28T15:48:18Z" uid="202858" user="kellerma" changeset="5617407" lat="49.4621626" lon="11.1379416">
    <tag k="addr:city" v="Nürnberg"/>
    <tag k="addr:country" v="DE"/>
    <tag k="addr:housenumber" v="57"/>
    <tag k="addr:postcode" v="90482"/>
    <tag k="addr:street" v="Laufamholzstraße"/>
    <tag k="amenity" v="doctors"/>
    <tag k="name" v="Ärztehaus Mögeldorf"/>
  </node>
  <node id="668144773" version="5" timestamp="2011-02-19T16:30:16Z" uid="202858" user="kellerma" changeset="7333646" lat="49.4622173" lon="11.1379937">
    <tag k="addr:city" v="Nürnberg"/>
    <tag k="addr:country" v="DE"/>
    <tag k="addr:housenumber" v="57"/>
    <tag k="addr:postcode" v="90482"/>
    <tag k="addr:street" v="Laufamholzstraße"/>
    <tag k="amenity" v="doctors"/>
    <tag k="name" v="Ärztehaus Mögeldorf"/>
  </node>
  <node id="668144773" version="6" timestamp="2012-03-29T20:41:28Z" uid="78656" user="Walter Schlögl" changeset="11144321" lat="49.4622173" lon="11.1379937">
    <tag k="addr:city" v="Nürnberg"/>
    <tag k="addr:country" v="DE"/>
    <tag k="addr:housenumber" v="57"/>
    <tag k="addr:postcode" v="90482"/>
    <tag k="addr:street" v="Laufamholzstraße"/>
    <tag k="amenity" v="doctors"/>
    <tag k="healthcare" v="centre"/>
    <tag k="name" v="Ärztehaus Mögeldorf"/>
  </node>
</osm>
