<?xml version='1.0' encoding='UTF-8'?>
<osm version="0.6" generator="libosmium/2.20.0">
  <node id="668437431" version="2" timestamp="2010-08-07T12:08:59Z" uid="7617" user="Franc" changeset="5424051" lat="-33.7613804" lon="151.1298081">
    <tag k="amenity" v="place_of_worship"/>
    <tag k="religion" v="christian"/>
  </node>
  <node id="668439871" version="2" timestamp="2010-11-13T07:33:42Z" uid="18775" user="drlizau" changeset="6356216" lat="-33.4638235" lon="141.7103972">
    <tag k="highway" v="rest_area"/>
    <tag k="name" v="Seven Tree Rest Area"/>
    <tag k="source" v="survey"/>
  </node>
  <node id="668439873" version="2" timestamp="2010-11-13T07:33:45Z" uid="18775" user="drlizau" changeset="6356216" lat="-32.9803233" lon="141.6223765">
    <tag k="amenity" v="fuel"/>
    <tag k="name" v="Coombah Roadhouse"/>
    <tag k="shop" v="convenience"/>
  </node>
  <node id="668439873" version="3" timestamp="2010-11-13T07:48:10Z" uid="18775" user="drlizau" changeset="6356266" lat="-32.9803233" lon="141.6223765">
    <tag k="amenity" v="fuel"/>
    <tag k="fuel:diesel" v="yes"/>
    <tag k="fuel:octane_91" v="yes"/>
    <tag k="name" v="Coombah Roadhouse"/>
    <tag k="operator" v="Mogas"/>
    <tag k="shop" v="convenience"/>
  </node>
  <node id="668437431" version="3" timestamp="2012-07-19T23:30:32Z" uid="722137" user="OSMF Redaction Account" changeset="12351601" lat="-33.7613804" lon="151.1298081"/>
  <node id="668439871" version="3" timestamp="2012-07-19T10:00:17Z" uid="722137" user="OSMF Redaction Account" changeset="12317284" lat="-33.4638235" lon="141.7103972"/>
  <node id="668439873" version="4" timestamp="2012-07-19T10:46:53Z" uid="722137" user="OSMF Redaction Account" changeset="12319474" lat="-32.9805608" lon="141.6220776">
    <tag k="amenity" v="fuel"/>
    <tag k="name" v="Coombah"/>
    <tag k="shop" v="convenience"/>
  </node>
</osm>
