<?xml version='1.0' encoding='UTF-8'?>
<osm version="0.6" generator="libosmium/2.20.0">
  <node id="67273280" version="4" timestamp="2009-07-25T22:01:28Z" uid="123700" user="Mala" changeset="1939174" lat="38.110467" lon="15.661294">
    <tag k="gfoss_id" v="6783"/>
    <tag k="is_in" v="Reggio Calabria, Calabria, Italy"/>
    <tag k="is_in:continent" v="Europe"/>
    <tag k="is_in:country" v="Italy"/>
    <tag k="is_in:country_code" v="it"/>
    <tag k="name" v="Reggio di Calabria"/>
    <tag k="name:es" v="Regio de Calabria"/>
    <tag k="name:fr" v="Reggio de Calabre"/>
    <tag k="place" v="city"/>
    <tag k="population" v="180353"/>
    <tag k="source" v="geodati.gfoss.it"/>
    <tag k="wikipedia" v="Reggio Calabria"/>
  </node>
  <node id="67273280" version="5" timestamp="2010-01-06T11:34:38Z" uid="76275" user="rob72" changeset="3552689" lat="38.110467" lon="15.661294">
    <tag k="gfoss_id" v="6783"/>
    <tag k="is_in" v="Reggio Calabria, Calabria, Italy"/>
    <tag k="is_in:continent" v="Europe"/>
    <tag k="is_in:country" v="Italy"/>
    <tag k="is_in:country_code" v="it"/>
    <tag k="name" v="Reggio di Calabria"/>
    <tag k="name:es" v="Regio de Calabria"/>
    <tag k="name:fr" v="Reggio de Calabre"/>
    <tag k="name_alt" v="Reggio Calabria"/>
    <tag k="place" v="city"/>
    <tag k="population" v="180353"/>
    <tag k="source" v="geodati.gfoss.it"/>
    <tag k="wikipedia" v="Reggio Calabria"/>
  </node>
  <node id="67273280" version="6" timestamp="2010-04-12T19:38:24Z" uid="166445" user="GranD" changeset="4407950" lat="38.110467" lon="15.661294">
    <tag k="gfoss_id" v="6783"/>
    <tag k="is_in" v="Reggio Calabria, Calabria, Italy"/>
    <tag k="is_in:continent" v="Europe"/>
    <tag k="is_in:country" v="Italy"/>
    <tag k="is_in:country_code" v="it"/>
    <tag k="name" v="Reggio di Calabria"/>
    <tag k="name:es" v="Regio de Calabria"/>
    <tag k="name:fr" v="Reggio de Calabre"/>
    <tag k="name:ru" v="Реджо-ди-Калабрия"/>
    <tag k="name_alt" v="Reggio Calabria"/>
    <tag k="place" v="city"/>
    <tag k="population" v="180353"/>
    <tag k="source" v="geodati.gfoss.it"/>
    <tag k="wikipedia" v="Reggio Calabria"/>
  </node>
  <node id="67273280" version="7" timestamp="2010-10-15T17:45:04Z" uid="359155" user="antonio13" changeset="6051003" lat="38.110467" lon="15.6612939">
    <tag k="gfoss_id" v="6783"/>
    <tag k="is_in" v="Reggio Calabria, Calabria, Italy"/>
    <tag k="is_in:continent" v="Europe"/>
    <tag k="is_in:country" v="Italy"/>
    <tag k="is_in:country_code" v="it"/>
    <tag k="name" v="Reggio di Calabria"/>
    <tag k="name:es" v="Regio de Calabria"/>
    <tag k="name:fr" v="Reggio de Calabre"/>
    <tag k="name:ru" v="Реджо-ди-Калабрия"/>
    <tag k="name_alt" v="Reggio Calabria"/>
    <tag k="place" v="city"/>
    <tag k="population" v="180353"/>
    <tag k="source" v="geodati.gfoss.it"/>
    <tag k="wikipedia" v="Reggio Calabria"/>
  </node>
  <node id="67273280" version="8" timestamp="2011-01-16T07:15:26Z" uid="91490" user="Heinz_V" changeset="6984526" lat="38.1104608" lon="15.6614235">
    <tag k="gfoss_id" v="6783"/>
    <tag k="is_in" v="Reggio Calabria, Calabria, Italy"/>
    <tag k="is_in:continent" v="Europe"/>
    <tag k="is_in:country" v="Italy"/>
    <tag k="is_in:country_code" v="it"/>
    <tag k="name" v="Reggio di Calabria"/>
    <tag k="name:es" v="Regio de Calabria"/>
    <tag k="name:fr" v="Reggio de Calabre"/>
    <tag k="name:ru" v="Реджо-ди-Калабрия"/>
    <tag k="name_alt" v="Reggio Calabria"/>
    <tag k="place" v="city"/>
    <tag k="population" v="180353"/>
    <tag k="source" v="geodati.gfoss.it"/>
    <tag k="wikipedia" v="Reggio Calabria"/>
  </node>
  <node id="67273280" version="9" timestamp="2011-01-21T14:08:07Z" uid="393666" user="etrumap" changeset="7040632" lat="38.1104608" lon="15.6614235">
    <tag k="capital" v="6"/>
    <tag k="gfoss_id" v="6783"/>
    <tag k="is_in" v="Reggio Calabria, Calabria, Italy"/>
    <tag k="is_in:continent" v="Europe"/>
    <tag k="is_in:country" v="Italy"/>
    <tag k="is_in:country_code" v="it"/>
    <tag k="name" v="Reggio di Calabria"/>
    <tag k="name:es" v="Regio de Calabria"/>
    <tag k="name:fr" v="Reggio de Calabre"/>
    <tag k="name:ru" v="Реджо-ди-Калабрия"/>
    <tag k="name_alt" v="Reggio Calabria"/>
    <tag k="place" v="city"/>
    <tag k="population" v="180353"/>
    <tag k="source" v="geodati.gfoss.it"/>
    <tag k="wikipedia" v="Reggio Calabria"/>
  </node>
  <node id="67273280" version="10" timestamp="2011-05-23T09:30:31Z" uid="71261" user="David Paleino" changeset="8224526" lat="38.1104608" lon="15.6614235">
    <tag k="capital" v="6"/>
    <tag k="gfoss_id" v="6783"/>
    <tag k="name" v="Reggio di Calabria"/>
    <tag k="name:es" v="Regio de Calabria"/>
    <tag k="name:fr" v="Reggio de Calabre"/>
    <tag k="name:ru" v="Реджо-ди-Калабрия"/>
    <tag k="name_alt" v="Reggio Calabria"/>
    <tag k="place" v="city"/>
    <tag k="population" v="180353"/>
    <tag k="source" v="geodati.gfoss.it"/>
    <tag k="wikipedia" v="Reggio Calabria"/>
  </node>
  <node id="67273310" version="4" timestamp="2009-07-25T15:08:19Z" uid="123700" user="Mala" changeset="1935220" lat="39.085095" lon="17.117814">
    <tag k="gfoss_id" v="7957"/>
    <tag k="is_in" v="Crotone, Calabria, Italy"/>
    <tag k="is_in:continent" v="Europe"/>
    <tag k="is_in:country" v="Italy"/>
    <tag k="is_in:country_code" v="it"/>
    <tag k="name" v="Crotone"/>
    <tag k="name:es" v="Crotona"/>
    <tag k="place" v="city"/>
    <tag k="population" v="60010"/>
    <tag k="source" v="geodati.gfoss.it"/>
    <tag k="wikipedia" v="Crotone"/>
  </node>
  <node id="67273310" version="5" timestamp="2010-04-12T19:38:25Z" uid="166445" user="GranD" changeset="4407950" lat="39.085095" lon="17.117814">
    <tag k="gfoss_id" v="7957"/>
    <tag k="is_in" v="Crotone, Calabria, Italy"/>
    <tag k="is_in:continent" v="Europe"/>
    <tag k="is_in:country" v="Italy"/>
    <tag k="is_in:country_code" v="it"/>
    <tag k="name" v="Crotone"/>
    <tag k="name:es" v="Crotona"/>
    <tag k="name:ru" v="Кротоне"/>
    <tag k="place" v="city"/>
    <tag k="population" v="60010"/>
    <tag k="source" v="geodati.gfoss.it"/>
    <tag k="wikipedia" v="Crotone"/>
  </node>
  <node id="67273310" version="6" timestamp="2010-05-04T17:20:25Z" uid="80088" user="FedericoCozzi" changeset="4606032" lat="39.085095" lon="17.117814">
    <tag k="gfoss_id" v="7957"/>
    <tag k="is_in" v="Crotone, Calabria, Italy"/>
    <tag k="is_in:continent" v="Europe"/>
    <tag k="is_in:country" v="Italy"/>
    <tag k="is_in:country_code" v="it"/>
    <tag k="name" v="Crotone"/>
    <tag k="name:es" v="Crotona"/>
    <tag k="name:ru" v="Кротоне"/>
    <tag k="place" v="town"/>
    <tag k="population" v="60010"/>
    <tag k="source" v="geodati.gfoss.it"/>
    <tag k="wikipedia" v="Crotone"/>
  </node>
  <node id="67273310" version="7" timestamp="2010-05-24T16:30:06Z" uid="80088" user="FedericoCozzi" changeset="4795414" lat="39.085095" lon="17.1178139">
    <tag k="gfoss_id" v="7957"/>
    <tag k="is_in" v="Crotone, Calabria, Italy"/>
    <tag k="is_in:continent" v="Europe"/>
    <tag k="is_in:country" v="Italy"/>
    <tag k="is_in:country_code" v="it"/>
    <tag k="name" v="Crotone"/>
    <tag k="name:es" v="Crotona"/>
    <tag k="name:ru" v="Кротоне"/>
    <tag k="place" v="city"/>
    <tag k="population" v="60010"/>
    <tag k="source" v="geodati.gfoss.it"/>
    <tag k="wikipedia" v="Crotone"/>
  </node>
  <node id="67273310" version="8" timestamp="2011-01-21T14:08:06Z" uid="393666" user="etrumap" changeset="7040632" lat="39.085095" lon="17.1178139">
    <tag k="capital" v="6"/>
    <tag k="gfoss_id" v="7957"/>
    <tag k="is_in" v="Crotone, Calabria, Italy"/>
    <tag k="is_in:continent" v="Europe"/>
    <tag k="is_in:country" v="Italy"/>
    <tag k="is_in:country_code" v="it"/>
    <tag k="name" v="Crotone"/>
    <tag k="name:es" v="Crotona"/>
    <tag k="name:ru" v="Кротоне"/>
    <tag k="place" v="city"/>
    <tag k="population" v="60010"/>
    <tag k="source" v="geodati.gfoss.it"/>
    <tag k="wikipedia" v="Crotone"/>
  </node>
  <node id="67273310" version="9" timestamp="2011-05-13T21:24:13Z" uid="354689" user="Francesco Placco" changeset="8135751" lat="39.0806571" lon="17.1271705">
    <tag k="capital" v="6"/>
    <tag k="gfoss_id" v="7957"/>
    <tag k="is_in" v="Crotone, Calabria, Italy"/>
    <tag k="is_in:continent" v="Europe"/>
    <tag k="is_in:country" v="Italy"/>
    <tag k="is_in:country_code" v="it"/>
    <tag k="name" v="Crotone"/>
    <tag k="name:es" v="Crotona"/>
    <tag k="name:ru" v="Кротоне"/>
    <tag k="place" v="city"/>
    <tag k="population" v="60010"/>
    <tag k="source" v="geodati.gfoss.it"/>
    <tag k="wikipedia" v="Crotone"/>
  </node>
  <node id="67273310" version="10" timestamp="2011-05-13T21:41:25Z" uid="354689" user="Francesco Placco" changeset="8135927" lat="39.0806571" lon="17.1271705">
    <tag k="alt_name" v="Krotone"/>
    <tag k="capital" v="6"/>
    <tag k="gfoss_id" v="7957"/>
    <tag k="int_name" v="Crotone"/>
    <tag k="is_in" v="Crotone, Calabria, Italy"/>
    <tag k="is_in:continent" v="Europe"/>
    <tag k="is_in:country" v="Italy"/>
    <tag k="is_in:country_code" v="it"/>
    <tag k="name" v="Crotone"/>
    <tag k="name:es" v="Crotona"/>
    <tag k="name:ru" v="Кротоне"/>
    <tag k="old_name" v="Cotrone"/>
    <tag k="place" v="city"/>
    <tag k="population" v="60010"/>
    <tag k="source" v="geodati.gfoss.it"/>
    <tag k="wikipedia" v="Crotone"/>
  </node>
  <node id="67273310" version="11" timestamp="2011-12-14T17:09:24Z" uid="354689" user="Francesco Placco" changeset="10117542" lat="39.0808705" lon="17.1269345">
    <tag k="alt_name" v="Krotone"/>
    <tag k="capital" v="6"/>
    <tag k="gfoss_id" v="7957"/>
    <tag k="int_name" v="Crotone"/>
    <tag k="is_in" v="Crotone, Calabria, Italy"/>
    <tag k="is_in:continent" v="Europe"/>
    <tag k="is_in:country" v="Italy"/>
    <tag k="is_in:country_code" v="it"/>
    <tag k="name" v="Crotone"/>
    <tag k="name:es" v="Crotona"/>
    <tag k="name:ru" v="Кротоне"/>
    <tag k="old_name" v="Cotrone"/>
    <tag k="place" v="city"/>
    <tag k="population" v="60010"/>
    <tag k="source" v="geodati.gfoss.it"/>
    <tag k="wikipedia" v="Crotone"/>
  </node>
  <node id="67273310" version="12" timestamp="2011-12-25T17:21:29Z" uid="354689" user="Francesco Placco" changeset="10201419" lat="39.0806529" lon="17.1271491">
    <tag k="alt_name" v="Krotone"/>
    <tag k="capital" v="6"/>
    <tag k="gfoss_id" v="7957"/>
    <tag k="int_name" v="Crotone"/>
    <tag k="is_in" v="Crotone, Calabria, Italy"/>
    <tag k="is_in:continent" v="Europe"/>
    <tag k="is_in:country" v="Italy"/>
    <tag k="is_in:country_code" v="it"/>
    <tag k="name" v="Crotone"/>
    <tag k="name:es" v="Crotona"/>
    <tag k="name:ru" v="Кротоне"/>
    <tag k="old_name" v="Cotrone"/>
    <tag k="place" v="city"/>
    <tag k="population" v="60010"/>
    <tag k="source" v="geodati.gfoss.it"/>
    <tag k="wikipedia" v="Crotone"/>
  </node>
  <node id="67277943" version="2" timestamp="2009-10-03T14:18:38Z" uid="179968" user="Ich_hasse_doitsche_OSM-Korinthenkacker" changeset="2724403" lat="54.5489307" lon="13.5303522"/>
  <node id="67277943" version="3" timestamp="2012-03-20T20:39:53Z" uid="70400" user="Schwedenhagen" changeset="11045244" lat="54.5489087" lon="13.5303745"/>
  <node id="67277949" version="2" timestamp="2009-10-03T14:18:39Z" uid="179968" user="Ich_hasse_doitsche_OSM-Korinthenkacker" changeset="2724403" lat="54.5487257" lon="13.5298809"/>
  <node id="67277949" version="3" timestamp="2012-03-20T20:39:53Z" uid="70400" user="Schwedenhagen" changeset="11045244" lat="54.5487166" lon="13.5298809"/>
  <node id="67277952" version="2" timestamp="2009-10-03T14:18:38Z" uid="179968" user="Ich_hasse_doitsche_OSM-Korinthenkacker" changeset="2724403" lat="54.5487462" lon="13.5296658"/>
  <node id="67277952" version="3" timestamp="2012-03-20T20:39:53Z" uid="70400" user="Schwedenhagen" changeset="11045244" lat="54.5487468" lon="13.5296446"/>
  <node id="67277957" version="2" timestamp="2009-10-03T14:18:38Z" uid="179968" user="Ich_hasse_doitsche_OSM-Korinthenkacker" changeset="2724403" lat="54.5493507" lon="13.5284978"/>
  <node id="67277964" version="2" timestamp="2009-10-03T14:18:38Z" uid="179968" user="Ich_hasse_doitsche_OSM-Korinthenkacker" changeset="2724403" lat="54.5495966" lon="13.5285183"/>
  <node id="67277968" version="2" timestamp="2009-10-03T14:18:38Z" uid="179968" user="Ich_hasse_doitsche_OSM-Korinthenkacker" changeset="2724403" lat="54.5501088" lon="13.5282622"/>
  <node id="67277983" version="2" timestamp="2009-10-03T14:18:38Z" uid="179968" user="Ich_hasse_doitsche_OSM-Korinthenkacker" changeset="2724403" lat="54.5503752" lon="13.528129"/>
  <node id="67277983" version="3" timestamp="2010-08-07T09:15:40Z" uid="131968" user="changchun_1" changeset="5422957" lat="54.5503752" lon="13.528129">
    <tag k="incline" v="10%"/>
  </node>
  <node id="67277983" version="4" timestamp="2012-03-20T20:39:53Z" uid="70400" user="Schwedenhagen" changeset="11045244" lat="54.5503402" lon="13.5280933">
    <tag k="incline" v="10%"/>
  </node>
  <node id="67277986" version="2" timestamp="2009-10-03T14:18:38Z" uid="179968" user="Ich_hasse_doitsche_OSM-Korinthenkacker" changeset="2724403" lat="54.550785" lon="13.5283647"/>
  <node id="67277987" version="2" timestamp="2009-10-03T14:18:38Z" uid="179968" user="Ich_hasse_doitsche_OSM-Korinthenkacker" changeset="2724403" lat="54.5509592" lon="13.5284056"/>
  <node id="67277987" version="3" timestamp="2012-03-20T20:39:54Z" uid="70400" user="Schwedenhagen" changeset="11045244" lat="54.5509463" lon="13.5283922"/>
  <node id="67277990" version="2" timestamp="2009-10-03T14:18:38Z" uid="179968" user="Ich_hasse_doitsche_OSM-Korinthenkacker" changeset="2724403" lat="54.5511231" lon="13.5282827"/>
  <node id="67277990" version="3" timestamp="2012-03-20T20:39:54Z" uid="70400" user="Schwedenhagen" changeset="11045244" lat="54.5511348" lon="13.5282023"/>
  <node id="67277995" version="2" timestamp="2009-10-03T14:18:38Z" uid="179968" user="Ich_hasse_doitsche_OSM-Korinthenkacker" changeset="2724403" lat="54.5511846" lon="13.5280471"/>
  <node id="67277995" version="3" timestamp="2012-03-20T20:39:54Z" uid="70400" user="Schwedenhagen" changeset="11045244" lat="54.5511626" lon="13.5280627"/>
  <node id="67277998" version="2" timestamp="2009-10-03T14:18:38Z" uid="179968" user="Ich_hasse_doitsche_OSM-Korinthenkacker" changeset="2724403" lat="54.5511026" lon="13.5273401"/>
  <node id="67277998" version="3" timestamp="2012-03-20T20:39:55Z" uid="70400" user="Schwedenhagen" changeset="11045244" lat="54.5510871" lon="13.5272731"/>
  <node id="67278004" version="2" timestamp="2009-10-03T14:18:38Z" uid="179968" user="Ich_hasse_doitsche_OSM-Korinthenkacker" changeset="2724403" lat="54.5511334" lon="13.5271865"/>
  <node id="67278004" version="3" timestamp="2012-03-20T20:39:55Z" uid="70400" user="Schwedenhagen" changeset="11045244" lat="54.5511075" lon="13.5271441"/>
  <node id="67278014" version="2" timestamp="2009-10-03T14:18:38Z" uid="179968" user="Ich_hasse_doitsche_OSM-Korinthenkacker" changeset="2724403" lat="54.5512461" lon="13.5271557"/>
  <node id="67278014" version="3" timestamp="2012-03-20T20:39:55Z" uid="70400" user="Schwedenhagen" changeset="11045244" lat="54.5512202" lon="13.5270709"/>
  <node id="67278022" version="2" timestamp="2009-10-03T14:18:38Z" uid="179968" user="Ich_hasse_doitsche_OSM-Korinthenkacker" changeset="2724403" lat="54.5513588" lon="13.5272889"/>
  <node id="67278022" version="3" timestamp="2012-03-20T20:39:55Z" uid="70400" user="Schwedenhagen" changeset="11045244" lat="54.5513844" lon="13.5273363"/>
  <node id="67278026" version="2" timestamp="2009-10-03T14:18:38Z" uid="179968" user="Ich_hasse_doitsche_OSM-Korinthenkacker" changeset="2724403" lat="54.5517276" lon="13.527207"/>
  <node id="67278026" version="3" timestamp="2012-03-20T20:39:55Z" uid="70400" user="Schwedenhagen" changeset="11045244" lat="54.5517276" lon="13.5272638"/>
  <node id="67278069" version="2" timestamp="2009-10-03T14:18:39Z" uid="179968" user="Ich_hasse_doitsche_OSM-Korinthenkacker" changeset="2724403" lat="54.5536434" lon="13.5249223"/>
  <node id="67278074" version="2" timestamp="2009-10-03T14:18:39Z" uid="179968" user="Ich_hasse_doitsche_OSM-Korinthenkacker" changeset="2724403" lat="54.5539508" lon="13.5253014"/>
  <node id="67278077" version="2" timestamp="2009-10-03T14:18:39Z" uid="179968" user="Ich_hasse_doitsche_OSM-Korinthenkacker" changeset="2724403" lat="54.5540327" lon="13.5257214"/>
  <node id="67278077" version="3" timestamp="2012-03-20T20:39:56Z" uid="70400" user="Schwedenhagen" changeset="11045244" lat="54.5540262" lon="13.5257236"/>
  <node id="67278080" version="2" timestamp="2009-10-03T14:18:39Z" uid="179968" user="Ich_hasse_doitsche_OSM-Korinthenkacker" changeset="2724403" lat="54.5542069" lon="13.526623"/>
  <node id="67278080" version="3" timestamp="2012-03-20T20:39:56Z" uid="70400" user="Schwedenhagen" changeset="11045244" lat="54.5541888" lon="13.5266074"/>
  <node id="67278083" version="2" timestamp="2009-10-03T14:18:39Z" uid="179968" user="Ich_hasse_doitsche_OSM-Korinthenkacker" changeset="2724403" lat="54.5542479" lon="13.5271865"/>
  <node id="67278083" version="3" timestamp="2010-08-08T08:31:32Z" uid="30192" user="hubert08" changeset="5430394" lat="54.5542737" lon="13.5271982"/>
  <node id="67278083" version="4" timestamp="2012-03-20T20:39:56Z" uid="70400" user="Schwedenhagen" changeset="11045244" lat="54.5542452" lon="13.5273165"/>
  <node id="67278086" version="2" timestamp="2009-10-03T14:18:39Z" uid="179968" user="Ich_hasse_doitsche_OSM-Korinthenkacker" changeset="2724403" lat="54.5544221" lon="13.5279446"/>
  <node id="67278086" version="3" timestamp="2010-08-08T08:31:30Z" uid="30192" user="hubert08" changeset="5430394" lat="54.5543936" lon="13.5278931"/>
  <node id="67278087" version="2" timestamp="2009-10-03T14:18:39Z" uid="179968" user="Ich_hasse_doitsche_OSM-Korinthenkacker" changeset="2724403" lat="54.5543401" lon="13.5285696"/>
  <node id="67278087" version="3" timestamp="2010-08-08T08:31:31Z" uid="30192" user="hubert08" changeset="5430394" lat="54.5543618" lon="13.5285321"/>
  <node id="67278087" version="4" timestamp="2012-03-20T20:39:56Z" uid="70400" user="Schwedenhagen" changeset="11045244" lat="54.5543346" lon="13.5285254"/>
  <node id="67278094" version="2" timestamp="2009-10-03T14:18:40Z" uid="179968" user="Ich_hasse_doitsche_OSM-Korinthenkacker" changeset="2724403" lat="54.5541045" lon="13.528754"/>
  <node id="67278094" version="3" timestamp="2010-08-08T08:31:32Z" uid="30192" user="hubert08" changeset="5430394" lat="54.5541724" lon="13.5287142"/>
  <node id="67278094" version="4" timestamp="2012-03-20T20:39:56Z" uid="70400" user="Schwedenhagen" changeset="11045244" lat="54.5541918" lon="13.5286919"/>
  <node id="67278097" version="2" timestamp="2009-10-03T14:18:39Z" uid="179968" user="Ich_hasse_doitsche_OSM-Korinthenkacker" changeset="2724403" lat="54.5545655" lon="13.5285696"/>
  <node id="67278097" version="3" timestamp="2010-08-08T08:31:33Z" uid="30192" user="hubert08" changeset="5430394" lat="54.554556" lon="13.5286235"/>
  <node id="67278097" version="4" timestamp="2012-03-20T20:39:56Z" uid="70400" user="Schwedenhagen" changeset="11045244" lat="54.5545923" lon="13.5286079"/>
  <node id="67278099" version="2" timestamp="2009-10-03T14:18:40Z" uid="179968" user="Ich_hasse_doitsche_OSM-Korinthenkacker" changeset="2724403" lat="54.5546679" lon="13.528713"/>
  <node id="67278099" version="3" timestamp="2012-03-20T20:39:56Z" uid="70400" user="Schwedenhagen" changeset="11045244" lat="54.5546459" lon="13.5287264"/>
  <node id="67278108" version="2" timestamp="2009-10-03T14:18:39Z" uid="179968" user="Ich_hasse_doitsche_OSM-Korinthenkacker" changeset="2724403" lat="54.5538586" lon="13.5260902"/>
  <node id="67278108" version="3" timestamp="2012-03-20T20:39:57Z" uid="70400" user="Schwedenhagen" changeset="11045244" lat="54.553856" lon="13.5260746"/>
  <node id="67278128" version="6" timestamp="2009-10-03T14:18:39Z" uid="179968" user="Ich_hasse_doitsche_OSM-Korinthenkacker" changeset="2724403" lat="54.5534492" lon="13.5253352">
    <tag k="is_in" v="Glowe"/>
    <tag k="name" v="Bobbin"/>
    <tag k="place" v="village"/>
  </node>
  <node id="67278128" version="7" timestamp="2009-12-23T13:45:02Z" uid="76587" user="nbuettler" changeset="3434580" lat="54.5534492" lon="13.5253351">
    <tag k="is_in" v="Glowe;Mecklenburg-Vorpommern;Germany;Europe"/>
    <tag k="name" v="Bobbin"/>
    <tag k="place" v="suburb"/>
  </node>
  <node id="67278128" version="8" timestamp="2010-05-07T00:57:59Z" uid="92274" user="adjuva" changeset="4626645" lat="54.5534492" lon="13.5253351">
    <tag k="is_in" v="Glowe,Mecklenburg-Vorpommern,Bundesrepublik Deutschland,Europe"/>
    <tag k="name" v="Bobbin"/>
    <tag k="place" v="suburb"/>
  </node>
  <node id="67278128" version="9" timestamp="2011-11-26T09:47:37Z" uid="183282" user="anunaki" changeset="9953350" lat="54.5535283" lon="13.52469">
    <tag k="is_in" v="Glowe,Mecklenburg-Vorpommern,Bundesrepublik Deutschland,Europe"/>
    <tag k="name" v="Bobbin"/>
    <tag k="place" v="suburb"/>
  </node>
  <node id="67278128" version="10" timestamp="2012-03-20T20:39:09Z" uid="70400" user="Schwedenhagen" changeset="11045244" lat="54.5536272" lon="13.5252614">
    <tag k="is_in" v="Glowe,Mecklenburg-Vorpommern,Bundesrepublik Deutschland,Europe"/>
    <tag k="name" v="Bobbin"/>
    <tag k="place" v="suburb"/>
  </node>
  <node id="67278136" version="2" timestamp="2009-10-03T14:20:33Z" uid="179968" user="Ich_hasse_doitsche_OSM-Korinthenkacker" changeset="2724403" lat="54.5827225" lon="13.6058159"/>
  <node id="67278142" version="2" timestamp="2009-10-03T14:20:33Z" uid="179968" user="Ich_hasse_doitsche_OSM-Korinthenkacker" changeset="2724403" lat="54.5829546" lon="13.605932"/>
  <node id="67278151" version="3" timestamp="2009-10-03T14:20:33Z" uid="179968" user="Ich_hasse_doitsche_OSM-Korinthenkacker" changeset="2724403" lat="54.5830289" lon="13.6061005"/>
  <node id="67278157" version="3" timestamp="2009-10-03T14:20:36Z" uid="179968" user="Ich_hasse_doitsche_OSM-Korinthenkacker" changeset="2724403" lat="54.5832601" lon="13.6099075"/>
  <node id="67278157" version="4" timestamp="2012-03-24T14:50:47Z" uid="70400" user="Schwedenhagen" changeset="11085170" lat="54.5832581" lon="13.6098837"/>
  <node id="67278163" version="2" timestamp="2009-10-03T14:20:34Z" uid="179968" user="Ich_hasse_doitsche_OSM-Korinthenkacker" changeset="2724403" lat="54.5835019" lon="13.6091658"/>
  <node id="67278171" version="3" timestamp="2009-10-03T14:20:36Z" uid="179968" user="Ich_hasse_doitsche_OSM-Korinthenkacker" changeset="2724403" lat="54.5835525" lon="13.610191"/>
  <node id="67278171" version="4" timestamp="2012-03-24T14:50:47Z" uid="70400" user="Schwedenhagen" changeset="11085170" lat="54.5835696" lon="13.6103203"/>
  <node id="67278174" version="2" timestamp="2009-10-03T14:20:40Z" uid="179968" user="Ich_hasse_doitsche_OSM-Korinthenkacker" changeset="2724403" lat="54.5834521" lon="13.6125654"/>
  <node id="67278178" version="2" timestamp="2009-10-03T14:20:40Z" uid="179968" user="Ich_hasse_doitsche_OSM-Korinthenkacker" changeset="2724403" lat="54.5833029" lon="13.6128473"/>
  <node id="67278178" version="3" timestamp="2012-03-24T14:50:47Z" uid="70400" user="Schwedenhagen" changeset="11085170" lat="54.5832674" lon="13.612845"/>
  <node id="67278183" version="2" timestamp="2009-10-03T14:20:40Z" uid="179968" user="Ich_hasse_doitsche_OSM-Korinthenkacker" changeset="2724403" lat="54.5832643" lon="13.6131409"/>
  <node id="67278191" version="3" timestamp="2009-10-03T14:20:40Z" uid="179968" user="Ich_hasse_doitsche_OSM-Korinthenkacker" changeset="2724403" lat="54.5828463" lon="13.6124549"/>
  <node id="67278191" version="4" timestamp="2010-08-24T14:46:34Z" uid="23086" user="srhgw" changeset="5580611" lat="54.5828381" lon="13.6126218"/>
  <node id="67278191" version="5" timestamp="2012-03-24T14:50:47Z" uid="70400" user="Schwedenhagen" changeset="11085170" lat="54.5828263" lon="13.6126195"/>
  <node id="67278194" version="3" timestamp="2009-10-03T14:20:39Z" uid="179968" user="Ich_hasse_doitsche_OSM-Korinthenkacker" changeset="2724403" lat="54.5827752" lon="13.6132205"/>
  <node id="67278194" version="4" timestamp="2012-03-24T14:50:47Z" uid="70400" user="Schwedenhagen" changeset="11085170" lat="54.5827778" lon="13.6131683"/>
  <node id="67278198" version="3" timestamp="2009-10-03T14:20:40Z" uid="179968" user="Ich_hasse_doitsche_OSM-Korinthenkacker" changeset="2724403" lat="54.583331" lon="13.6125913"/>
  <node id="67278198" version="4" timestamp="2010-08-24T14:46:34Z" uid="23086" user="srhgw" changeset="5580611" lat="54.5833331" lon="13.6127582"/>
  <node id="67278198" version="5" timestamp="2012-03-24T14:50:47Z" uid="70400" user="Schwedenhagen" changeset="11085170" lat="54.5833081" lon="13.6127537"/>
  <node id="67278200" version="3" timestamp="2009-10-03T14:20:40Z" uid="179968" user="Ich_hasse_doitsche_OSM-Korinthenkacker" changeset="2724403" lat="54.5832949" lon="13.6133439"/>
  <node id="67278200" version="4" timestamp="2012-03-24T14:50:47Z" uid="70400" user="Schwedenhagen" changeset="11085170" lat="54.5832739" lon="13.6132962"/>
  <node id="67278205" version="3" timestamp="2009-10-03T14:20:35Z" uid="179968" user="Ich_hasse_doitsche_OSM-Korinthenkacker" changeset="2724403" lat="54.584332" lon="13.6074468"/>
  <node id="67278212" version="4" timestamp="2009-10-03T14:20:35Z" uid="179968" user="Ich_hasse_doitsche_OSM-Korinthenkacker" changeset="2724403" lat="54.5844467" lon="13.6085222"/>
  <node id="67278218" version="4" timestamp="2009-10-03T14:20:35Z" uid="179968" user="Ich_hasse_doitsche_OSM-Korinthenkacker" changeset="2724403" lat="54.5842889" lon="13.6086595"/>
  <node id="67278233" version="3" timestamp="2009-10-03T14:20:39Z" uid="179968" user="Ich_hasse_doitsche_OSM-Korinthenkacker" changeset="2724403" lat="54.5827121" lon="13.6156284"/>
  <node id="67278238" version="3" timestamp="2009-10-03T14:20:43Z" uid="179968" user="Ich_hasse_doitsche_OSM-Korinthenkacker" changeset="2724403" lat="54.5828807" lon="13.6158201"/>
  <node id="67278243" version="3" timestamp="2009-10-03T14:20:43Z" uid="179968" user="Ich_hasse_doitsche_OSM-Korinthenkacker" changeset="2724403" lat="54.5830519" lon="13.6159011"/>
  <node id="67278243" version="4" timestamp="2012-03-24T14:50:47Z" uid="70400" user="Schwedenhagen" changeset="11085170" lat="54.5830598" lon="13.6158784"/>
  <node id="67278252" version="3" timestamp="2009-10-03T14:20:43Z" uid="179968" user="Ich_hasse_doitsche_OSM-Korinthenkacker" changeset="2724403" lat="54.5832735" lon="13.6159786"/>
  <node id="67278252" version="4" timestamp="2012-03-24T14:50:47Z" uid="70400" user="Schwedenhagen" changeset="11085170" lat="54.5832735" lon="13.6159559"/>
  <node id="67278272" version="3" timestamp="2009-10-03T14:20:41Z" uid="179968" user="Ich_hasse_doitsche_OSM-Korinthenkacker" changeset="2724403" lat="54.5849122" lon="13.6139893"/>
  <node id="67278275" version="2" timestamp="2009-10-03T14:20:44Z" uid="179968" user="Ich_hasse_doitsche_OSM-Korinthenkacker" changeset="2724403" lat="54.5844761" lon="13.6156889"/>
  <node id="67278971" version="5" timestamp="2010-01-30T02:12:20Z" uid="99207" user="Lar Kiesel" changeset="3748033" lat="33.9705611" lon="-83.3116985"/>
  <node id="67278978" version="5" timestamp="2010-01-30T02:12:20Z" uid="99207" user="Lar Kiesel" changeset="3748033" lat="33.9705789" lon="-83.3118058"/>
  <node id="67278985" version="4" timestamp="2010-01-30T02:12:20Z" uid="99207" user="Lar Kiesel" changeset="3748033" lat="33.9706056" lon="-83.3119829"/>
  <node id="67278987" version="4" timestamp="2010-01-30T02:12:20Z" uid="99207" user="Lar Kiesel" changeset="3748033" lat="33.9706279" lon="-83.3122243"/>
  <node id="67278990" version="11" timestamp="2010-01-30T02:12:20Z" uid="99207" user="Lar Kiesel" changeset="3748033" lat="33.9706457" lon="-83.3123369"/>
  <node id="67273280" version="11" timestamp="2012-06-17T19:24:55Z" uid="24126" user="dforsi" changeset="11929536" lat="38.1104608" lon="15.6614235">
    <tag k="alt_name" v="Reggio Calabria"/>
    <tag k="capital" v="6"/>
    <tag k="gfoss_id" v="6783"/>
    <tag k="name" v="Reggio di Calabria"/>
    <tag k="name:es" v="Regio de Calabria"/>
    <tag k="name:fr" v="Reggio de Calabre"/>
    <tag k="name:ru" v="Реджо-ди-Калабрия"/>
    <tag k="place" v="city"/>
    <tag k="population" v="180353"/>
    <tag k="source" v="geodati.gfoss.it"/>
    <tag k="wikipedia" v="Reggio Calabria"/>
  </node>
  <node id="67273310" version="13" timestamp="2012-09-07T15:42:35Z" uid="354689" user="FraPla" changeset="13024454" lat="39.0806223" lon="17.127196">
    <tag k="alt_name" v="Krotone"/>
    <tag k="capital" v="6"/>
    <tag k="gfoss_id" v="7957"/>
    <tag k="int_name" v="Crotone"/>
    <tag k="is_in" v="Crotone, Calabria, Italy"/>
    <tag k="is_in:continent" v="Europe"/>
    <tag k="is_in:country" v="Italy"/>
    <tag k="is_in:country_code" v="it"/>
    <tag k="name" v="Crotone"/>
    <tag k="name:es" v="Crotona"/>
    <tag k="name:ru" v="Кротоне"/>
    <tag k="old_name" v="Cotrone"/>
    <tag k="place" v="city"/>
    <tag k="population" v="60010"/>
    <tag k="source" v="geodati.gfoss.it"/>
    <tag k="wikipedia" v="Crotone"/>
  </node>
  <node id="67277983" version="5" timestamp="2012-05-18T12:12:39Z" uid="464787" user="kollege" changeset="11632469" lat="54.5503402" lon="13.5280933"/>
  <node id="67278014" version="4" timestamp="2012-08-03T06:50:07Z" uid="273830" user="Flachzange" changeset="12594201" lat="54.5512901" lon="13.5271674"/>
  <node id="67278157" version="5" timestamp="2012-04-23T19:33:16Z" uid="16995" user="zut" changeset="11398989" lat="54.5832375" lon="13.6098548"/>
  <node id="67278174" version="3" timestamp="2012-04-23T19:33:16Z" uid="16995" user="zut" changeset="11398989" lat="54.5834158" lon="13.6125341"/>
  <node id="67278252" version="5" timestamp="2012-05-12T08:25:06Z" uid="16995" user="zut" changeset="11574313" lat="54.5832668" lon="13.6159656"/>
  <node id="67278272" version="4" timestamp="2012-04-23T19:33:16Z" uid="16995" user="zut" changeset="11398989" lat="54.584888" lon="13.6140171"/>
  <node id="67278971" version="6" timestamp="2012-07-18T13:52:18Z" uid="722137" user="OSMF Redaction Account" changeset="12284009" lat="33.9705842" lon="-83.31182"/>
  <node id="67278978" version="6" timestamp="2012-07-18T13:52:19Z" uid="722137" user="OSMF Redaction Account" changeset="12284009" lat="33.9706056" lon="-83.3120689"/>
  <node id="67278985" version="5" timestamp="2012-07-18T13:52:19Z" uid="722137" user="OSMF Redaction Account" changeset="12284009" lat="33.9706473" lon="-83.3124022"/>
  <node id="67278987" version="5" timestamp="2012-07-18T13:52:19Z" uid="722137" user="OSMF Redaction Account" changeset="12284009" lat="33.970691" lon="-83.3126783"/>
  <node id="67278990" version="12" timestamp="2012-07-18T13:52:19Z" uid="722137" user="OSMF Redaction Account" changeset="12284009" lat="33.9706981" lon="-83.3126868"/>
</osm>
