<?xml version='1.0' encoding='UTF-8'?>
<osm version="0.6" generator="libosmium/2.20.0">
  <node id="673692143" version="1" timestamp="2010-03-24T21:01:23Z" uid="49111" user="Markus B" changeset="4224721" lat="49.6026628" lon="11.3346307">
    <tag k="name" v="Hüttenbach"/>
    <tag k="traffic_sign" v="city_limit"/>
  </node>
  <node id="673694065" version="1" timestamp="2010-03-24T21:03:27Z" uid="6975" user="ulfl" changeset="4224734" lat="49.7160364" lon="11.1528906">
    <tag k="hiking" v="yes"/>
    <tag k="information" v="map"/>
    <tag k="map_size" v="site"/>
    <tag k="map_type" v="topo"/>
    <tag k="name" v="Naturschutzgebiet &quot;Ehrenbürg&quot;"/>
    <tag k="tourism" v="information"/>
  </node>
  <node id="673694065" version="2" timestamp="2012-03-02T12:36:42Z" uid="82877" user="Wankmann" changeset="10847816" lat="49.7160364" lon="11.1528906"/>
  <node id="673694068" version="1" timestamp="2010-03-24T21:03:27Z" uid="6975" user="ulfl" changeset="4224734" lat="49.7159935" lon="11.1528989">
    <tag k="amenity" v="hut"/>
    <tag k="name" v="Bergwacht"/>
    <tag k="note" v="verschlossene Bergwachthütte"/>
  </node>
  <node id="673694068" version="2" timestamp="2012-03-02T12:36:40Z" uid="82877" user="Wankmann" changeset="10847816" lat="49.7159935" lon="11.1528989"/>
  <node id="673694069" version="1" timestamp="2010-03-24T21:03:27Z" uid="6975" user="ulfl" changeset="4224734" lat="49.7176249" lon="11.1535322">
    <tag k="board_type" v="history"/>
    <tag k="information" v="board"/>
    <tag k="name" v="Die Ehrenbürg, die Befestigungsanlagen"/>
    <tag k="tourism" v="information"/>
  </node>
  <node id="673694069" version="2" timestamp="2011-10-09T18:35:47Z" uid="114324" user="derstefan" changeset="9515784" lat="49.7175154" lon="11.1534968">
    <tag k="board_type" v="history"/>
    <tag k="information" v="board"/>
    <tag k="name" v="Die Ehrenbürg, die Befestigungsanlagen"/>
    <tag k="tourism" v="information"/>
  </node>
  <node id="673694069" version="3" timestamp="2012-03-02T12:36:40Z" uid="82877" user="Wankmann" changeset="10847816" lat="49.7175154" lon="11.1534968"/>
  <node id="673694071" version="1" timestamp="2010-03-24T21:03:27Z" uid="6975" user="ulfl" changeset="4224734" lat="49.7176421" lon="11.1535405">
    <tag k="board_type" v="history"/>
    <tag k="information" v="board"/>
    <tag k="name" v="Die Ehrenbürg, eine bronzezeitliche und frühkeltische Zentralsiedlung (1)"/>
    <tag k="tourism" v="information"/>
  </node>
  <node id="673694071" version="2" timestamp="2011-10-09T18:35:48Z" uid="114324" user="derstefan" changeset="9515784" lat="49.7175326" lon="11.1535051">
    <tag k="board_type" v="history"/>
    <tag k="information" v="board"/>
    <tag k="name" v="Die Ehrenbürg, eine bronzezeitliche und frühkeltische Zentralsiedlung (1)"/>
    <tag k="tourism" v="information"/>
  </node>
  <node id="673694071" version="3" timestamp="2012-03-02T12:36:41Z" uid="82877" user="Wankmann" changeset="10847816" lat="49.7175326" lon="11.1535051"/>
  <node id="673694072" version="1" timestamp="2010-03-24T21:03:27Z" uid="6975" user="ulfl" changeset="4224734" lat="49.7176592" lon="11.1535455">
    <tag k="board_type" v="history"/>
    <tag k="information" v="board"/>
    <tag k="name" v="Die Ehrenbürg, eine bronzezeitliche und frühkeltische Zentralsiedlung (2)"/>
    <tag k="tourism" v="information"/>
  </node>
  <node id="673694072" version="2" timestamp="2011-10-09T18:35:48Z" uid="114324" user="derstefan" changeset="9515784" lat="49.7175497" lon="11.1535101">
    <tag k="board_type" v="history"/>
    <tag k="information" v="board"/>
    <tag k="name" v="Die Ehrenbürg, eine bronzezeitliche und frühkeltische Zentralsiedlung (2)"/>
    <tag k="tourism" v="information"/>
  </node>
  <node id="673694072" version="3" timestamp="2012-03-02T12:36:41Z" uid="82877" user="Wankmann" changeset="10847816" lat="49.7175497" lon="11.1535101"/>
  <node id="673694074" version="1" timestamp="2010-03-24T21:03:28Z" uid="6975" user="ulfl" changeset="4224734" lat="49.7176914" lon="11.1535472">
    <tag k="information" v="guidepost"/>
    <tag k="tourism" v="information"/>
  </node>
  <node id="673694074" version="2" timestamp="2011-10-09T18:36:00Z" uid="114324" user="derstefan" changeset="9515784" lat="49.717573" lon="11.1534656">
    <tag k="information" v="guidepost"/>
    <tag k="tourism" v="information"/>
  </node>
  <node id="673694074" version="3" timestamp="2012-03-02T12:36:47Z" uid="82877" user="Wankmann" changeset="10847816" lat="49.717573" lon="11.1534656"/>
  <node id="673694075" version="1" timestamp="2010-03-24T21:03:28Z" uid="6975" user="ulfl" changeset="4224734" lat="49.7197287" lon="11.1518896">
    <tag k="historic" v="memorial"/>
    <tag k="name" v="1911 Luitpold von Bayern"/>
  </node>
  <node id="673694075" version="2" timestamp="2011-10-09T18:35:49Z" uid="114324" user="derstefan" changeset="9515784" lat="49.7196033" lon="11.1515141">
    <tag k="historic" v="memorial"/>
    <tag k="name" v="1911 Luitpold von Bayern"/>
  </node>
  <node id="673694075" version="3" timestamp="2012-03-02T12:36:42Z" uid="82877" user="Wankmann" changeset="10847816" lat="49.7196033" lon="11.1515141"/>
  <node id="673694077" version="1" timestamp="2010-03-24T21:03:28Z" uid="6975" user="ulfl" changeset="4224734" lat="49.7205886" lon="11.1529352">
    <tag k="board_type" v="notice"/>
    <tag k="description" v="auf dem &quot;Walberla&quot;"/>
    <tag k="information" v="board"/>
    <tag k="name" v="Walburga"/>
    <tag k="tourism" v="information"/>
  </node>
  <node id="673694077" version="2" timestamp="2011-10-09T18:35:48Z" uid="114324" user="derstefan" changeset="9515784" lat="49.7204274" lon="11.1524643">
    <tag k="board_type" v="notice"/>
    <tag k="description" v="auf dem &quot;Walberla&quot;"/>
    <tag k="information" v="board"/>
    <tag k="name" v="Walburga"/>
    <tag k="tourism" v="information"/>
  </node>
  <node id="673694077" version="3" timestamp="2012-03-02T12:36:42Z" uid="82877" user="Wankmann" changeset="10847816" lat="49.7204274" lon="11.1524643"/>
  <node id="673694079" version="1" timestamp="2010-03-24T21:03:28Z" uid="6975" user="ulfl" changeset="4224734" lat="49.7205851" lon="11.1529196">
    <tag k="name" v="Walburga"/>
    <tag k="note" v="Bronzestatue"/>
    <tag k="tourism" v="artwork"/>
  </node>
  <node id="673694079" version="2" timestamp="2010-05-11T00:08:52Z" uid="74437" user="Mike FABIAN" changeset="4664806" lat="49.7205851" lon="11.1529196">
    <tag k="artist_name" v="Ernst Steinacker"/>
    <tag k="artwork_type" v="sculpture"/>
    <tag k="description" v="Bronzestatue der heiligen Walburga mit Reisestab und umgehängtem Ölfläschchen"/>
    <tag k="name" v="Walburga"/>
    <tag k="tourism" v="artwork"/>
  </node>
  <node id="673694079" version="3" timestamp="2011-10-09T18:35:48Z" uid="114324" user="derstefan" changeset="9515784" lat="49.7204757" lon="11.152578">
    <tag k="artist_name" v="Ernst Steinacker"/>
    <tag k="artwork_type" v="sculpture"/>
    <tag k="description" v="Bronzestatue der heiligen Walburga mit Reisestab und umgehängtem Ölfläschchen"/>
    <tag k="name" v="Walburga"/>
    <tag k="tourism" v="artwork"/>
  </node>
  <node id="673694079" version="4" timestamp="2012-03-02T12:36:42Z" uid="82877" user="Wankmann" changeset="10847816" lat="49.7204757" lon="11.152578"/>
</osm>
