<?xml version='1.0' encoding='UTF-8'?>
<osm version="0.6" generator="libosmium/2.20.0">
  <node id="677747907" version="2" timestamp="2010-11-12T22:56:04Z" uid="151899" user="Bikeman2000" changeset="6354980" lat="51.2282645" lon="6.7896781">
    <tag k="amenity" v="restaurant"/>
    <tag k="cuisine" v="turkish"/>
    <tag k="name" v="Anadolu"/>
  </node>
  <node id="677747907" version="3" timestamp="2011-10-18T21:32:45Z" uid="290680" user="wheelmap_visitor" changeset="9587957" lat="51.2282645" lon="6.7896781">
    <tag k="amenity" v="restaurant"/>
    <tag k="cuisine" v="turkish"/>
    <tag k="name" v="Anadolu"/>
    <tag k="wheelchair" v="yes"/>
  </node>
  <node id="677747909" version="2" timestamp="2010-11-13T13:44:18Z" uid="151899" user="Bikeman2000" changeset="6358295" lat="51.2283797" lon="6.7920563">
    <tag k="name" v="Schlecker"/>
    <tag k="shop" v="chemist"/>
  </node>
  <node id="677747909" version="3" timestamp="2011-04-22T13:35:18Z" uid="184411" user="kmb@osm" changeset="7934419" lat="51.228429" lon="6.7920905">
    <tag k="name" v="Schlecker"/>
    <tag k="shop" v="chemist"/>
  </node>
  <node id="677747911" version="2" timestamp="2010-11-13T13:44:19Z" uid="151899" user="Bikeman2000" changeset="6358295" lat="51.228101" lon="6.7928028">
    <tag k="amenity" v="fast_food"/>
    <tag k="cuisine" v="grill;pizza"/>
  </node>
  <node id="677747911" version="3" timestamp="2012-01-09T13:55:04Z" uid="12614" user="rabenkind" changeset="10341918" lat="51.228101" lon="6.7928028"/>
  <node id="677747907" version="4" timestamp="2012-07-17T03:14:27Z" uid="722137" user="OSMF Redaction Account" changeset="12255912" lat="51.2282645" lon="6.7898946">
    <tag k="amenity" v="restaurant"/>
    <tag k="cuisine" v="turkish"/>
    <tag k="name" v="Anadolu"/>
    <tag k="wheelchair" v="yes"/>
  </node>
  <node id="677747909" version="4" timestamp="2012-04-10T20:24:01Z" uid="105839" user="jotzt" changeset="11257829" lat="51.228429" lon="6.7920905"/>
</osm>
