<?xml version='1.0' encoding='UTF-8'?>
<osm version="0.6" generator="libosmium/2.20.0">
  <node id="679292470" version="2" timestamp="2010-10-05T01:34:54Z" uid="20587" user="balrog-kun" changeset="5958352" lat="51.0835598" lon="17.0399249">
    <tag k="addr:city" v="Wrocław"/>
    <tag k="addr:housenumber" v="12/14"/>
    <tag k="addr:street" v="Aleja Armii Krajowej"/>
    <tag k="amenity" v="bank"/>
    <tag k="atm" v="yes"/>
    <tag k="millennium:date" v="2009-09-14 14:49:45"/>
    <tag k="millennium:ref" v="20598"/>
    <tag k="millennium:usługi" v="Millennium"/>
    <tag k="name" v="Millennium Bank"/>
    <tag k="opening_hours" v="10.00-18.00 Mo-Fr"/>
    <tag k="operator" v="Millenium Bank S.A."/>
  </node>
  <node id="679292470" version="3" timestamp="2011-12-01T08:13:59Z" uid="476764" user="Dotevo" changeset="10005964" lat="51.0835598" lon="17.0399249">
    <tag k="addr:city" v="Wrocław"/>
    <tag k="addr:housenumber" v="12/14"/>
    <tag k="addr:street" v="Aleja Armii Krajowej"/>
    <tag k="amenity" v="bank"/>
    <tag k="atm" v="yes"/>
    <tag k="millennium:date" v="2009-09-14 14:49:45"/>
    <tag k="millennium:ref" v="20598"/>
    <tag k="millennium:usługi" v="Millennium"/>
    <tag k="name" v="Millennium Bank"/>
    <tag k="opening_hours" v="Mo-Fr 10:00-18:00"/>
    <tag k="operator" v="Millenium Bank S.A."/>
  </node>
  <node id="679297930" version="1" timestamp="2010-03-31T18:15:27Z" uid="110593" user="esetzer" changeset="4287944" lat="40.7377689" lon="-111.9515284">
    <tag k="created_by" v="Merkaartor 0.11"/>
    <tag k="railway" v="level_crossing"/>
  </node>
  <node id="679297985" version="1" timestamp="2010-03-31T18:15:29Z" uid="110593" user="esetzer" changeset="4287944" lat="40.7337125" lon="-111.9515746">
    <tag k="created_by" v="Merkaartor 0.11"/>
  </node>
  <node id="679298002" version="1" timestamp="2010-03-31T18:15:30Z" uid="110593" user="esetzer" changeset="4287944" lat="40.7383221" lon="-111.9515285">
    <tag k="created_by" v="Merkaartor 0.11"/>
  </node>
  <node id="679298035" version="1" timestamp="2010-03-31T18:15:31Z" uid="110593" user="esetzer" changeset="4287944" lat="40.7401489" lon="-111.9479569">
    <tag k="created_by" v="Merkaartor 0.11"/>
  </node>
  <node id="679298050" version="1" timestamp="2010-03-31T18:15:32Z" uid="110593" user="esetzer" changeset="4287944" lat="40.7395989" lon="-111.9479569">
    <tag k="created_by" v="Merkaartor 0.11"/>
  </node>
  <node id="679298072" version="1" timestamp="2010-03-31T18:15:32Z" uid="110593" user="esetzer" changeset="4287944" lat="40.7395989" lon="-111.9474384">
    <tag k="created_by" v="Merkaartor 0.11"/>
  </node>
  <node id="679298094" version="1" timestamp="2010-03-31T18:15:33Z" uid="110593" user="esetzer" changeset="4287944" lat="40.7401489" lon="-111.9474384">
    <tag k="created_by" v="Merkaartor 0.11"/>
  </node>
  <node id="679297930" version="2" timestamp="2012-07-10T07:45:31Z" uid="207745" user="NE2" changeset="12170085" lat="40.7377689" lon="-111.9515284"/>
  <node id="679297985" version="2" timestamp="2012-07-10T07:45:31Z" uid="207745" user="NE2" changeset="12170085" lat="40.7337125" lon="-111.9515746"/>
  <node id="679298002" version="2" timestamp="2012-07-10T07:45:31Z" uid="207745" user="NE2" changeset="12170085" lat="40.7383221" lon="-111.9515285"/>
  <node id="679298035" version="2" timestamp="2012-07-18T19:40:04Z" uid="722137" user="OSMF Redaction Account" changeset="12295308" lat="40.7401489" lon="-111.9479569"/>
  <node id="679298050" version="2" timestamp="2012-07-18T19:40:04Z" uid="722137" user="OSMF Redaction Account" changeset="12295308" lat="40.7395989" lon="-111.9479569"/>
  <node id="679298072" version="2" timestamp="2012-07-18T19:40:04Z" uid="722137" user="OSMF Redaction Account" changeset="12295308" lat="40.7395989" lon="-111.9474384"/>
  <node id="679298094" version="2" timestamp="2012-07-18T19:40:04Z" uid="722137" user="OSMF Redaction Account" changeset="12295308" lat="40.7401489" lon="-111.9474384"/>
</osm>
