<?xml version='1.0' encoding='UTF-8'?>
<osm version="0.6" generator="libosmium/2.20.0">
  <node id="68527986" version="3" timestamp="2008-08-15T15:21:34Z" uid="13367" user="nubok" changeset="266089" lat="52.166003" lon="11.6317335">
    <tag k="created_by" v="JOSM"/>
  </node>
  <node id="68527986" version="4" timestamp="2009-02-02T14:10:28Z" uid="14714" user="aquandur" changeset="54079" lat="52.1660307" lon="11.6317392">
    <tag k="created_by" v="JOSM"/>
  </node>
  <node id="68527986" version="5" timestamp="2011-02-22T17:57:07Z" uid="101337" user="bonzulu" changeset="7365701" lat="52.1660009" lon="11.6315792"/>
  <node id="68527986" version="6" timestamp="2012-02-13T00:30:03Z" uid="41889" user="Kurt Krampmeier" changeset="10669587" lat="52.1660032" lon="11.6314466"/>
  <node id="68528525" version="2" timestamp="2008-12-20T23:36:29Z" uid="49111" user="Markus B" changeset="513050" lat="49.1723375" lon="11.7829162"/>
  <node id="68528527" version="2" timestamp="2008-12-20T23:36:29Z" uid="49111" user="Markus B" changeset="513050" lat="49.1736146" lon="11.7877445"/>
  <node id="68528529" version="2" timestamp="2008-12-20T23:36:29Z" uid="49111" user="Markus B" changeset="513050" lat="49.1740687" lon="11.7878663"/>
  <node id="68528542" version="2" timestamp="2008-12-20T23:36:29Z" uid="49111" user="Markus B" changeset="513050" lat="49.178831" lon="11.7944287"/>
  <node id="68528542" version="3" timestamp="2008-12-26T15:23:33Z" uid="8296" user="kuede" changeset="609778" lat="49.1789122" lon="11.7943527"/>
  <node id="68528544" version="2" timestamp="2008-12-20T23:36:29Z" uid="49111" user="Markus B" changeset="513050" lat="49.1804937" lon="11.7859064"/>
  <node id="68528545" version="2" timestamp="2008-12-20T23:36:29Z" uid="49111" user="Markus B" changeset="513050" lat="49.1777266" lon="11.7873883"/>
  <node id="68528546" version="2" timestamp="2008-12-20T23:36:30Z" uid="49111" user="Markus B" changeset="513050" lat="49.1774672" lon="11.785112"/>
  <node id="68528548" version="2" timestamp="2008-12-20T23:36:30Z" uid="49111" user="Markus B" changeset="513050" lat="49.1787391" lon="11.7830209"/>
  <node id="68528551" version="2" timestamp="2008-12-20T23:36:30Z" uid="49111" user="Markus B" changeset="513050" lat="49.1763501" lon="11.7828954"/>
  <node id="68528551" version="3" timestamp="2008-12-26T15:23:34Z" uid="8296" user="kuede" changeset="609778" lat="49.176364" lon="11.7826933"/>
  <node id="68528552" version="2" timestamp="2008-12-20T23:36:30Z" uid="49111" user="Markus B" changeset="513050" lat="49.1745121" lon="11.7815856"/>
  <node id="68528603" version="4" timestamp="2009-07-25T15:08:20Z" uid="123700" user="Mala" changeset="1935220" lat="40.4699692" lon="17.2429282">
    <tag k="gfoss_id" v="6235"/>
    <tag k="is_in" v="Taranto, Puglia, Italy"/>
    <tag k="is_in:continent" v="Europe"/>
    <tag k="name" v="Taranto"/>
    <tag k="name:es" v="Tarento"/>
    <tag k="name:fi" v="Taranto"/>
    <tag k="name:fr" v="Tarente"/>
    <tag k="name:pl" v="Tarent"/>
    <tag k="name:pt" v="Tarento"/>
    <tag k="place" v="city"/>
    <tag k="population" v="202033"/>
    <tag k="source" v="geodati.gfoss.it"/>
    <tag k="wikipedia" v="Taranto"/>
  </node>
  <node id="68528603" version="5" timestamp="2010-04-12T19:38:28Z" uid="166445" user="GranD" changeset="4407950" lat="40.4699692" lon="17.2429282">
    <tag k="gfoss_id" v="6235"/>
    <tag k="is_in" v="Taranto, Puglia, Italy"/>
    <tag k="is_in:continent" v="Europe"/>
    <tag k="name" v="Taranto"/>
    <tag k="name:es" v="Tarento"/>
    <tag k="name:fi" v="Taranto"/>
    <tag k="name:fr" v="Tarente"/>
    <tag k="name:pl" v="Tarent"/>
    <tag k="name:pt" v="Tarento"/>
    <tag k="name:ru" v="Таранто"/>
    <tag k="place" v="city"/>
    <tag k="population" v="202033"/>
    <tag k="source" v="geodati.gfoss.it"/>
    <tag k="wikipedia" v="Taranto"/>
  </node>
  <node id="68528603" version="6" timestamp="2011-01-21T13:17:43Z" uid="393666" user="etrumap" changeset="7040255" lat="40.4699692" lon="17.2429282">
    <tag k="capital" v="6"/>
    <tag k="gfoss_id" v="6235"/>
    <tag k="is_in" v="Taranto, Puglia, Italy"/>
    <tag k="is_in:continent" v="Europe"/>
    <tag k="name" v="Taranto"/>
    <tag k="name:es" v="Tarento"/>
    <tag k="name:fi" v="Taranto"/>
    <tag k="name:fr" v="Tarente"/>
    <tag k="name:pl" v="Tarent"/>
    <tag k="name:pt" v="Tarento"/>
    <tag k="name:ru" v="Таранто"/>
    <tag k="place" v="city"/>
    <tag k="population" v="202033"/>
    <tag k="source" v="geodati.gfoss.it"/>
    <tag k="wikipedia" v="Taranto"/>
  </node>
  <node id="68528603" version="7" timestamp="2011-05-15T13:52:34Z" uid="93026" user="mpele" changeset="8152097" lat="40.4699692" lon="17.2429282">
    <tag k="capital" v="6"/>
    <tag k="gfoss_id" v="6235"/>
    <tag k="is_in" v="Taranto, Puglia, Italy"/>
    <tag k="is_in:continent" v="Europe"/>
    <tag k="name" v="Taranto"/>
    <tag k="name:es" v="Tarento"/>
    <tag k="name:fi" v="Taranto"/>
    <tag k="name:fr" v="Tarente"/>
    <tag k="name:pl" v="Tarent"/>
    <tag k="name:pt" v="Tarento"/>
    <tag k="name:ru" v="Таранто"/>
    <tag k="name:sr" v="Таранто"/>
    <tag k="place" v="city"/>
    <tag k="population" v="202033"/>
    <tag k="source" v="geodati.gfoss.it"/>
    <tag k="wikipedia" v="Taranto"/>
  </node>
  <node id="68528603" version="8" timestamp="2011-05-15T13:52:48Z" uid="93026" user="mpele" changeset="8152099" lat="40.4699692" lon="17.2429282">
    <tag k="capital" v="6"/>
    <tag k="gfoss_id" v="6235"/>
    <tag k="is_in" v="Taranto, Puglia, Italy"/>
    <tag k="is_in:continent" v="Europe"/>
    <tag k="name" v="Taranto"/>
    <tag k="name:es" v="Tarento"/>
    <tag k="name:fi" v="Taranto"/>
    <tag k="name:fr" v="Tarente"/>
    <tag k="name:pl" v="Tarent"/>
    <tag k="name:pt" v="Tarento"/>
    <tag k="name:ru" v="Таранто"/>
    <tag k="name:sr" v="Таранто"/>
    <tag k="place" v="city"/>
    <tag k="population" v="202033"/>
    <tag k="source" v="geodati.gfoss.it"/>
    <tag k="wikipedia" v="Taranto"/>
  </node>
  <node id="68528603" version="9" timestamp="2011-07-28T10:02:02Z" uid="496132" user="gibbo84" changeset="8852820" lat="40.4712677" lon="17.243176">
    <tag k="capital" v="6"/>
    <tag k="gfoss_id" v="6235"/>
    <tag k="is_in" v="Taranto, Puglia, Italy"/>
    <tag k="is_in:continent" v="Europe"/>
    <tag k="name" v="Taranto"/>
    <tag k="name:es" v="Tarento"/>
    <tag k="name:fi" v="Taranto"/>
    <tag k="name:fr" v="Tarente"/>
    <tag k="name:pl" v="Tarent"/>
    <tag k="name:pt" v="Tarento"/>
    <tag k="name:ru" v="Таранто"/>
    <tag k="name:sr" v="Таранто"/>
    <tag k="place" v="city"/>
    <tag k="population" v="202033"/>
    <tag k="source" v="geodati.gfoss.it"/>
    <tag k="wikipedia" v="Taranto"/>
  </node>
  <node id="68528603" version="10" timestamp="2012-03-08T14:46:19Z" uid="7045" user="Xuacu" changeset="10909736" lat="40.4712677" lon="17.243176">
    <tag k="capital" v="6"/>
    <tag k="gfoss_id" v="6235"/>
    <tag k="is_in" v="Taranto, Puglia, Italy"/>
    <tag k="is_in:continent" v="Europe"/>
    <tag k="name" v="Taranto"/>
    <tag k="name:ast" v="Tarento"/>
    <tag k="name:es" v="Tarento"/>
    <tag k="name:fi" v="Taranto"/>
    <tag k="name:fr" v="Tarente"/>
    <tag k="name:pl" v="Tarent"/>
    <tag k="name:pt" v="Tarento"/>
    <tag k="name:ru" v="Таранто"/>
    <tag k="name:sr" v="Таранто"/>
    <tag k="place" v="city"/>
    <tag k="population" v="202033"/>
    <tag k="source" v="geodati.gfoss.it"/>
    <tag k="wikipedia" v="Taranto"/>
  </node>
  <node id="68528666" version="2" timestamp="2008-09-22T23:57:48Z" uid="6975" user="ulfl" changeset="685164" lat="51.8015186" lon="10.3365024">
    <tag k="amenity" v="place_of_worship"/>
    <tag k="created_by" v="JOSM"/>
    <tag k="denomination" v="evangelisch-methodistisch"/>
    <tag k="name" v="Evangelisch-methodistische Kirche"/>
    <tag k="religion" v="christian"/>
  </node>
  <node id="68528666" version="3" timestamp="2008-10-08T09:45:24Z" uid="70696" user="xybot" changeset="178380" lat="51.8015186" lon="10.3365024">
    <tag k="amenity" v="place_of_worship"/>
    <tag k="created_by" v="xybot"/>
    <tag k="denomination" v="methodist"/>
    <tag k="name" v="Evangelisch-methodistische Kirche"/>
    <tag k="religion" v="christian"/>
  </node>
  <node id="68528666" version="4" timestamp="2011-10-02T15:42:02Z" uid="290680" user="wheelmap_visitor" changeset="9447804" lat="51.8015186" lon="10.3365024">
    <tag k="amenity" v="place_of_worship"/>
    <tag k="created_by" v="xybot"/>
    <tag k="denomination" v="methodist"/>
    <tag k="name" v="Evangelisch-methodistische Kirche"/>
    <tag k="religion" v="christian"/>
    <tag k="wheelchair" v="no"/>
  </node>
  <node id="68528603" version="11" timestamp="2012-08-18T20:53:44Z" uid="334153" user="Alexander Roalter" changeset="12777230" lat="40.4712677" lon="17.243176">
    <tag k="capital" v="6"/>
    <tag k="gfoss_id" v="6235"/>
    <tag k="is_in" v="Taranto, Puglia, Italy"/>
    <tag k="is_in:continent" v="Europe"/>
    <tag k="name" v="Taranto"/>
    <tag k="name:ast" v="Tarento"/>
    <tag k="name:de" v="Tarent"/>
    <tag k="name:es" v="Tarento"/>
    <tag k="name:fi" v="Taranto"/>
    <tag k="name:fr" v="Tarente"/>
    <tag k="name:pl" v="Tarent"/>
    <tag k="name:pt" v="Tarento"/>
    <tag k="name:ru" v="Таранто"/>
    <tag k="name:sr" v="Таранто"/>
    <tag k="place" v="city"/>
    <tag k="population" v="202033"/>
    <tag k="source" v="geodati.gfoss.it"/>
    <tag k="wikipedia" v="Taranto"/>
  </node>
  <node id="68528666" version="5" timestamp="2012-07-19T09:54:43Z" uid="722137" user="OSMF Redaction Account" changeset="12317004" lat="51.8015186" lon="10.3365024">
    <tag k="amenity" v="place_of_worship"/>
    <tag k="denomination" v="methodist"/>
    <tag k="name" v="Evangelisch-methodistische Kirche"/>
    <tag k="religion" v="evangelisch-methodistisch"/>
    <tag k="wheelchair" v="no"/>
  </node>
  <node id="68528666" version="6" timestamp="2012-08-21T14:57:57Z" uid="152289" user="cgu66" changeset="12809532" lat="51.8015186" lon="10.3365024">
    <tag k="amenity" v="place_of_worship"/>
    <tag k="denomination" v="methodist"/>
    <tag k="name" v="Evangelisch-methodistische Kirche"/>
    <tag k="religion" v="christian"/>
    <tag k="wheelchair" v="no"/>
  </node>
</osm>
