<?xml version='1.0' encoding='UTF-8'?>
<osm version="0.6" generator="libosmium/2.20.0">
  <node id="685483732" version="2" timestamp="2010-04-11T11:55:26Z" uid="20587" user="balrog-kun" changeset="4392352" lat="49.79244" lon="20.80068">
    <tag k="name" v="Paleśnica"/>
    <tag k="place" v="village"/>
    <tag k="source" v="http://ump.waw.pl/ retrieved 03:39:37 04/04/10 (UMP-NowySacz/src/cities-NowySacz.pnt-converted.txt)"/>
  </node>
  <node id="685483732" version="3" timestamp="2010-04-11T13:18:48Z" uid="20587" user="balrog-kun" changeset="4392352" lat="49.79244" lon="20.80068">
    <tag k="name" v="Paleśnica"/>
    <tag k="place" v="village"/>
    <tag k="source" v="http://ump.waw.pl/ retrieved 03:39:37 04/04/10 (UMP-NowySacz/src/cities-NowySacz.pnt-converted.txt)"/>
  </node>
  <node id="685483732" version="4" timestamp="2010-04-27T04:14:07Z" uid="30632" user="antblant" changeset="4537892" lat="49.79244" lon="20.80068">
    <tag k="name" v="Paleśnica"/>
    <tag k="place" v="village"/>
    <tag k="source" v="http://ump.waw.pl/ retrieved 03:39:37 04/04/10 (UMP-NowySacz/src/cities-NowySacz.pnt-converted.txt)"/>
    <tag k="teryt:simc" v="0836968"/>
  </node>
  <node id="685484093" version="2" timestamp="2010-04-11T11:55:27Z" uid="20587" user="balrog-kun" changeset="4392352" lat="49.80615" lon="20.77488">
    <tag k="name" v="Borowa"/>
    <tag k="place" v="village"/>
    <tag k="source" v="http://ump.waw.pl/ retrieved 03:39:37 04/04/10 (UMP-NowySacz/src/cities-NowySacz.pnt-converted.txt)"/>
  </node>
  <node id="685484093" version="3" timestamp="2010-04-11T13:18:49Z" uid="20587" user="balrog-kun" changeset="4392352" lat="49.80615" lon="20.77488">
    <tag k="name" v="Borowa"/>
    <tag k="place" v="village"/>
    <tag k="source" v="http://ump.waw.pl/ retrieved 03:39:37 04/04/10 (UMP-NowySacz/src/cities-NowySacz.pnt-converted.txt)"/>
  </node>
  <node id="685484259" version="2" timestamp="2010-04-11T11:55:27Z" uid="20587" user="balrog-kun" changeset="4392352" lat="49.85313" lon="20.90531">
    <tag k="name" v="Siemiechów"/>
    <tag k="place" v="town"/>
    <tag k="source" v="http://ump.waw.pl/ retrieved 03:39:37 04/04/10 (UMP-NowySacz/src/cities-NowySacz.pnt-converted.txt)"/>
  </node>
  <node id="685484259" version="3" timestamp="2010-04-11T13:18:49Z" uid="20587" user="balrog-kun" changeset="4392352" lat="49.85313" lon="20.90531">
    <tag k="name" v="Siemiechów"/>
    <tag k="place" v="town"/>
    <tag k="source" v="http://ump.waw.pl/ retrieved 03:39:37 04/04/10 (UMP-NowySacz/src/cities-NowySacz.pnt-converted.txt)"/>
  </node>
  <node id="685484757" version="3" timestamp="2010-04-11T11:55:27Z" uid="20587" user="balrog-kun" changeset="4392352" lat="49.8256141" lon="20.8383497">
    <tag k="name" v="Słona"/>
    <tag k="place" v="village"/>
    <tag k="source" v="http://ump.waw.pl/ retrieved 03:39:37 04/04/10 (UMP-NowySacz/src/cities-NowySacz.pnt-converted.txt)"/>
  </node>
  <node id="685484757" version="4" timestamp="2010-04-11T13:18:49Z" uid="20587" user="balrog-kun" changeset="4392352" lat="49.8290616" lon="20.8360182">
    <tag k="name" v="Słona"/>
    <tag k="place" v="village"/>
    <tag k="source" v="http://ump.waw.pl/ retrieved 03:39:37 04/04/10 (UMP-NowySacz/src/cities-NowySacz.pnt-converted.txt)"/>
  </node>
  <node id="685484757" version="5" timestamp="2010-04-27T03:59:39Z" uid="30632" user="antblant" changeset="4537857" lat="49.8290616" lon="20.8360182">
    <tag k="name" v="Słona"/>
    <tag k="place" v="village"/>
    <tag k="source" v="http://ump.waw.pl/ retrieved 03:39:37 04/04/10 (UMP-NowySacz/src/cities-NowySacz.pnt-converted.txt)"/>
    <tag k="teryt:simc" v="0837123"/>
  </node>
  <node id="685485288" version="2" timestamp="2011-05-07T18:23:07Z" uid="9581" user="Lobelt" changeset="8075684" lat="50.7213027" lon="11.7427054"/>
  <node id="685485289" version="2" timestamp="2011-05-07T18:23:12Z" uid="9581" user="Lobelt" changeset="8075684" lat="50.7214294" lon="11.7426216"/>
  <node id="685485290" version="2" timestamp="2011-05-07T18:23:16Z" uid="9581" user="Lobelt" changeset="8075684" lat="50.7215429" lon="11.7424358"/>
  <node id="685485606" version="3" timestamp="2010-04-11T11:55:27Z" uid="20587" user="balrog-kun" changeset="4392352" lat="49.8614604" lon="20.8274349">
    <tag k="name" v="Lusławice"/>
    <tag k="place" v="village"/>
    <tag k="source" v="http://ump.waw.pl/ retrieved 03:39:37 04/04/10 (UMP-NowySacz/src/cities-NowySacz.pnt-converted.txt)"/>
  </node>
  <node id="685485606" version="4" timestamp="2010-04-11T13:18:49Z" uid="20587" user="balrog-kun" changeset="4392352" lat="49.8618248" lon="20.8233013">
    <tag k="name" v="Lusławice"/>
    <tag k="place" v="village"/>
    <tag k="source" v="http://ump.waw.pl/ retrieved 03:39:37 04/04/10 (UMP-NowySacz/src/cities-NowySacz.pnt-converted.txt)"/>
  </node>
  <node id="685486747" version="2" timestamp="2010-04-11T11:55:27Z" uid="20587" user="balrog-kun" changeset="4392352" lat="49.80875" lon="20.74363">
    <tag k="name" v="Ruda Kameralna"/>
    <tag k="place" v="village"/>
    <tag k="source" v="http://ump.waw.pl/ retrieved 03:39:37 04/04/10 (UMP-NowySacz/src/cities-NowySacz.pnt-converted.txt)"/>
  </node>
  <node id="685486747" version="3" timestamp="2010-04-11T13:18:50Z" uid="20587" user="balrog-kun" changeset="4392352" lat="49.80875" lon="20.74363">
    <tag k="name" v="Ruda Kameralna"/>
    <tag k="place" v="village"/>
    <tag k="source" v="http://ump.waw.pl/ retrieved 03:39:37 04/04/10 (UMP-NowySacz/src/cities-NowySacz.pnt-converted.txt)"/>
  </node>
  <node id="685486747" version="4" timestamp="2010-04-27T04:14:05Z" uid="30632" user="antblant" changeset="4537892" lat="49.80875" lon="20.74363">
    <tag k="name" v="Ruda Kameralna"/>
    <tag k="place" v="village"/>
    <tag k="source" v="http://ump.waw.pl/ retrieved 03:39:37 04/04/10 (UMP-NowySacz/src/cities-NowySacz.pnt-converted.txt)"/>
    <tag k="teryt:simc" v="0837040"/>
  </node>
  <node id="685487238" version="2" timestamp="2010-04-11T11:55:27Z" uid="20587" user="balrog-kun" changeset="4392352" lat="49.79791" lon="20.7612">
    <tag k="name" v="Dzierżaniny"/>
    <tag k="place" v="village"/>
    <tag k="source" v="http://ump.waw.pl/ retrieved 03:39:37 04/04/10 (UMP-NowySacz/src/cities-NowySacz.pnt-converted.txt)"/>
  </node>
  <node id="685487238" version="3" timestamp="2010-04-11T13:18:50Z" uid="20587" user="balrog-kun" changeset="4392352" lat="49.79791" lon="20.7612">
    <tag k="name" v="Dzierżaniny"/>
    <tag k="place" v="village"/>
    <tag k="source" v="http://ump.waw.pl/ retrieved 03:39:37 04/04/10 (UMP-NowySacz/src/cities-NowySacz.pnt-converted.txt)"/>
  </node>
  <node id="685487238" version="4" timestamp="2010-04-27T04:13:37Z" uid="30632" user="antblant" changeset="4537892" lat="49.79791" lon="20.7612">
    <tag k="name" v="Dzierżaniny"/>
    <tag k="place" v="village"/>
    <tag k="source" v="http://ump.waw.pl/ retrieved 03:39:37 04/04/10 (UMP-NowySacz/src/cities-NowySacz.pnt-converted.txt)"/>
    <tag k="teryt:simc" v="0836448"/>
  </node>
  <node id="685487497" version="2" timestamp="2010-04-11T11:55:27Z" uid="20587" user="balrog-kun" changeset="4392352" lat="49.82415" lon="20.68998">
    <tag k="name" v="Piaski Drużków"/>
    <tag k="place" v="village"/>
    <tag k="source" v="http://ump.waw.pl/ retrieved 03:39:37 04/04/10 (UMP-NowySacz/src/cities-NowySacz.pnt-converted.txt)"/>
  </node>
  <node id="685487497" version="3" timestamp="2010-04-11T13:18:50Z" uid="20587" user="balrog-kun" changeset="4392352" lat="49.82415" lon="20.68998">
    <tag k="name" v="Piaski Drużków"/>
    <tag k="place" v="village"/>
    <tag k="source" v="http://ump.waw.pl/ retrieved 03:39:37 04/04/10 (UMP-NowySacz/src/cities-NowySacz.pnt-converted.txt)"/>
  </node>
  <node id="685487586" version="2" timestamp="2010-04-11T11:55:27Z" uid="20587" user="balrog-kun" changeset="4392352" lat="49.83426" lon="20.88458">
    <tag k="name" v="Brzozowa"/>
    <tag k="place" v="village"/>
    <tag k="source" v="http://ump.waw.pl/ retrieved 03:39:37 04/04/10 (UMP-NowySacz/src/cities-NowySacz.pnt-converted.txt)"/>
  </node>
  <node id="685487586" version="3" timestamp="2010-04-11T13:18:50Z" uid="20587" user="balrog-kun" changeset="4392352" lat="49.83426" lon="20.88458">
    <tag k="name" v="Brzozowa"/>
    <tag k="place" v="village"/>
    <tag k="source" v="http://ump.waw.pl/ retrieved 03:39:37 04/04/10 (UMP-NowySacz/src/cities-NowySacz.pnt-converted.txt)"/>
  </node>
  <node id="685488136" version="2" timestamp="2010-04-11T11:55:27Z" uid="20587" user="balrog-kun" changeset="4392352" lat="49.80228" lon="20.85896">
    <tag k="name" v="Jastrzębia"/>
    <tag k="place" v="village"/>
    <tag k="source" v="http://ump.waw.pl/ retrieved 03:39:37 04/04/10 (UMP-NowySacz/src/cities-NowySacz.pnt-converted.txt)"/>
  </node>
  <node id="685488136" version="3" timestamp="2010-04-11T13:18:50Z" uid="20587" user="balrog-kun" changeset="4392352" lat="49.80228" lon="20.85896">
    <tag k="name" v="Jastrzębia"/>
    <tag k="place" v="village"/>
    <tag k="source" v="http://ump.waw.pl/ retrieved 03:39:37 04/04/10 (UMP-NowySacz/src/cities-NowySacz.pnt-converted.txt)"/>
  </node>
  <node id="685488154" version="3" timestamp="2010-04-11T11:55:27Z" uid="20587" user="balrog-kun" changeset="4392352" lat="49.8046324" lon="20.8179272">
    <tag k="name" v="Olszowa"/>
    <tag k="place" v="village"/>
    <tag k="source" v="http://ump.waw.pl/ retrieved 03:39:37 04/04/10 (UMP-NowySacz/src/cities-NowySacz.pnt-converted.txt)"/>
  </node>
  <node id="685488154" version="4" timestamp="2010-04-11T13:18:51Z" uid="20587" user="balrog-kun" changeset="4392352" lat="49.8071791" lon="20.8154788">
    <tag k="name" v="Olszowa"/>
    <tag k="place" v="village"/>
    <tag k="source" v="http://ump.waw.pl/ retrieved 03:39:37 04/04/10 (UMP-NowySacz/src/cities-NowySacz.pnt-converted.txt)"/>
  </node>
  <node id="685488441" version="3" timestamp="2010-04-11T11:55:28Z" uid="20587" user="balrog-kun" changeset="4392352" lat="49.8519342" lon="20.8476534">
    <tag k="name" v="Faściszowa"/>
    <tag k="place" v="village"/>
    <tag k="source" v="http://ump.waw.pl/ retrieved 03:39:37 04/04/10 (UMP-NowySacz/src/cities-NowySacz.pnt-converted.txt)"/>
  </node>
  <node id="685488441" version="4" timestamp="2010-04-11T13:18:51Z" uid="20587" user="balrog-kun" changeset="4392352" lat="49.8515374" lon="20.8461334">
    <tag k="name" v="Faściszowa"/>
    <tag k="place" v="village"/>
    <tag k="source" v="http://ump.waw.pl/ retrieved 03:39:37 04/04/10 (UMP-NowySacz/src/cities-NowySacz.pnt-converted.txt)"/>
  </node>
  <node id="685488441" version="5" timestamp="2010-04-27T04:07:48Z" uid="30632" user="antblant" changeset="4537875" lat="49.8515374" lon="20.8461334">
    <tag k="name" v="Faściszowa"/>
    <tag k="place" v="village"/>
    <tag k="source" v="http://ump.waw.pl/ retrieved 03:39:37 04/04/10 (UMP-NowySacz/src/cities-NowySacz.pnt-converted.txt)"/>
    <tag k="teryt:simc" v="0836537"/>
  </node>
  <node id="685489014" version="3" timestamp="2010-04-11T11:55:28Z" uid="20587" user="balrog-kun" changeset="4392352" lat="49.835478" lon="20.6757791">
    <tag k="name" v="Czchów"/>
    <tag k="place" v="town"/>
    <tag k="source" v="http://ump.waw.pl/ retrieved 03:39:37 04/04/10 (UMP-NowySacz/src/cities-NowySacz.pnt-converted.txt)"/>
  </node>
  <node id="685489014" version="4" timestamp="2010-04-11T13:18:51Z" uid="20587" user="balrog-kun" changeset="4392352" lat="49.8338785" lon="20.6744501">
    <tag k="name" v="Czchów"/>
    <tag k="place" v="town"/>
    <tag k="source" v="http://ump.waw.pl/ retrieved 03:39:37 04/04/10 (UMP-NowySacz/src/cities-NowySacz.pnt-converted.txt)"/>
  </node>
  <node id="685489014" version="5" timestamp="2010-04-27T04:15:20Z" uid="30632" user="antblant" changeset="4537896" lat="49.8338785" lon="20.6744501">
    <tag k="name" v="Czchów"/>
    <tag k="place" v="town"/>
    <tag k="source" v="http://ump.waw.pl/ retrieved 03:39:37 04/04/10 (UMP-NowySacz/src/cities-NowySacz.pnt-converted.txt)"/>
    <tag k="teryt:simc" v="0816871"/>
  </node>
  <node id="685489732" version="2" timestamp="2010-04-11T11:55:28Z" uid="20587" user="balrog-kun" changeset="4392352" lat="49.83645" lon="20.72732">
    <tag k="name" v="Filipowice"/>
    <tag k="place" v="village"/>
    <tag k="source" v="http://ump.waw.pl/ retrieved 03:39:37 04/04/10 (UMP-NowySacz/src/cities-NowySacz.pnt-converted.txt)"/>
  </node>
  <node id="685489732" version="3" timestamp="2010-04-11T13:18:51Z" uid="20587" user="balrog-kun" changeset="4392352" lat="49.83645" lon="20.72732">
    <tag k="name" v="Filipowice"/>
    <tag k="place" v="village"/>
    <tag k="source" v="http://ump.waw.pl/ retrieved 03:39:37 04/04/10 (UMP-NowySacz/src/cities-NowySacz.pnt-converted.txt)"/>
  </node>
  <node id="685489834" version="2" timestamp="2010-04-11T11:55:28Z" uid="20587" user="balrog-kun" changeset="4392352" lat="49.78103" lon="20.90774">
    <tag k="name" v="Kąśna Górna"/>
    <tag k="place" v="village"/>
    <tag k="source" v="http://ump.waw.pl/ retrieved 03:39:37 04/04/10 (UMP-NowySacz/src/cities-NowySacz.pnt-converted.txt)"/>
  </node>
  <node id="685489834" version="3" timestamp="2010-04-11T13:18:51Z" uid="20587" user="balrog-kun" changeset="4392352" lat="49.78103" lon="20.90774">
    <tag k="name" v="Kąśna Górna"/>
    <tag k="place" v="village"/>
    <tag k="source" v="http://ump.waw.pl/ retrieved 03:39:37 04/04/10 (UMP-NowySacz/src/cities-NowySacz.pnt-converted.txt)"/>
  </node>
  <node id="685489834" version="4" timestamp="2010-04-27T04:15:26Z" uid="30632" user="antblant" changeset="4537896" lat="49.78103" lon="20.90774">
    <tag k="name" v="Kąśna Górna"/>
    <tag k="place" v="village"/>
    <tag k="source" v="http://ump.waw.pl/ retrieved 03:39:37 04/04/10 (UMP-NowySacz/src/cities-NowySacz.pnt-converted.txt)"/>
    <tag k="teryt:simc" v="0815570"/>
  </node>
  <node id="685483732" version="5" timestamp="2012-07-25T04:33:00Z" uid="722137" user="OSMF Redaction Account" changeset="12480708" lat="49.79244" lon="20.80068"/>
  <node id="685484093" version="4" timestamp="2012-07-25T04:33:01Z" uid="722137" user="OSMF Redaction Account" changeset="12480708" lat="49.80615" lon="20.77488"/>
  <node id="685484259" version="4" timestamp="2012-07-25T04:31:12Z" uid="722137" user="OSMF Redaction Account" changeset="12480697" lat="49.85313" lon="20.90531"/>
  <node id="685484757" version="6" timestamp="2012-07-25T04:31:50Z" uid="722137" user="OSMF Redaction Account" changeset="12480701" lat="49.8290616" lon="20.8360182">
    <tag k="teryt:simc" v="0837123"/>
  </node>
  <node id="685484757" version="7" timestamp="2012-08-13T09:23:11Z" uid="147230" user="SQ9NIT" changeset="12711192" lat="49.8290616" lon="20.8360182">
    <tag k="name" v="Słona"/>
    <tag k="place" v="village"/>
    <tag k="source" v="Bing;WIG;TERYT"/>
    <tag k="teryt:simc" v="0837123"/>
  </node>
  <node id="685485288" version="3" timestamp="2012-07-18T16:26:13Z" uid="722137" user="OSMF Redaction Account" changeset="12288793" lat="50.7212957" lon="11.7425877"/>
  <node id="685485289" version="3" timestamp="2012-07-18T16:26:13Z" uid="722137" user="OSMF Redaction Account" changeset="12288793" lat="50.7213676" lon="11.7424884"/>
  <node id="685485290" version="3" timestamp="2012-07-18T16:26:13Z" uid="722137" user="OSMF Redaction Account" changeset="12288793" lat="50.7214656" lon="11.7423781"/>
  <node id="685485606" version="5" timestamp="2012-07-25T04:31:50Z" uid="722137" user="OSMF Redaction Account" changeset="12480701" lat="49.8618248" lon="20.8233013"/>
  <node id="685485606" version="6" timestamp="2012-09-06T14:09:19Z" uid="467703" user="Zbigniew_Czernik" changeset="13010074" lat="49.8618248" lon="20.8233013"/>
  <node id="685486747" version="5" timestamp="2012-07-25T04:49:50Z" uid="722137" user="OSMF Redaction Account" changeset="12480808" lat="49.80875" lon="20.74363"/>
  <node id="685487238" version="5" timestamp="2012-07-25T04:33:00Z" uid="722137" user="OSMF Redaction Account" changeset="12480708" lat="49.79791" lon="20.7612"/>
  <node id="685487497" version="4" timestamp="2012-07-25T04:49:56Z" uid="722137" user="OSMF Redaction Account" changeset="12480808" lat="49.82415" lon="20.68998"/>
  <node id="685487586" version="4" timestamp="2012-07-25T04:31:11Z" uid="722137" user="OSMF Redaction Account" changeset="12480697" lat="49.83426" lon="20.88458"/>
  <node id="685488136" version="4" timestamp="2012-07-25T04:32:01Z" uid="722137" user="OSMF Redaction Account" changeset="12480701" lat="49.80228" lon="20.85896"/>
  <node id="685488154" version="5" timestamp="2012-07-25T04:31:50Z" uid="722137" user="OSMF Redaction Account" changeset="12480701" lat="49.8071791" lon="20.8154788"/>
  <node id="685488441" version="6" timestamp="2012-07-25T04:31:50Z" uid="722137" user="OSMF Redaction Account" changeset="12480701" lat="49.8515374" lon="20.8461334">
    <tag k="teryt:simc" v="0836537"/>
  </node>
  <node id="685488441" version="7" timestamp="2012-08-13T09:23:04Z" uid="147230" user="SQ9NIT" changeset="12711192" lat="49.8515374" lon="20.8461334">
    <tag k="name" v="Faściszowa"/>
    <tag k="place" v="village"/>
    <tag k="source" v="Bing;WIG;TERYT"/>
    <tag k="teryt:simc" v="0836537"/>
  </node>
  <node id="685489014" version="6" timestamp="2012-07-25T04:51:08Z" uid="722137" user="OSMF Redaction Account" changeset="12480814" lat="49.8338785" lon="20.6744501">
    <tag k="teryt:simc" v="0816871"/>
  </node>
  <node id="685489014" version="7" timestamp="2012-08-13T09:23:03Z" uid="147230" user="SQ9NIT" changeset="12711192" lat="49.8335617" lon="20.6748991">
    <tag k="name" v="Czchów"/>
    <tag k="place" v="town"/>
    <tag k="source" v="Bing;WIG;TERYT"/>
    <tag k="teryt:simc" v="0816871"/>
  </node>
  <node id="685489732" version="4" timestamp="2012-07-25T04:50:01Z" uid="722137" user="OSMF Redaction Account" changeset="12480809" lat="49.83645" lon="20.72732"/>
  <node id="685489834" version="5" timestamp="2012-07-25T04:31:11Z" uid="722137" user="OSMF Redaction Account" changeset="12480697" lat="49.78103" lon="20.90774"/>
</osm>
