<?xml version='1.0' encoding='UTF-8'?>
<osm version="0.6" generator="libosmium/2.20.0">
  <node id="687040448" version="1" timestamp="2010-04-06T20:49:38Z" uid="20587" user="balrog-kun" changeset="4348961" lat="52.0805588" lon="21.0981255">
    <tag k="addr:city" v="Konstancin-Jeziorna"/>
    <tag k="amenity" v="shelter"/>
    <tag k="building" v="residential"/>
    <tag k="name" v="Willa Syrena"/>
    <tag k="source" v="survey"/>
    <tag k="tourism" v="attraction"/>
  </node>
  <node id="687040448" version="2" timestamp="2011-03-24T07:27:59Z" uid="98542" user="wajak" changeset="7653336" lat="52.0805588" lon="21.0981255">
    <tag k="addr:city" v="Konstancin-Jeziorna"/>
    <tag k="building" v="residential"/>
    <tag k="name" v="Willa Syrena"/>
    <tag k="source" v="survey"/>
    <tag k="tourism" v="attraction"/>
  </node>
  <node id="687040449" version="1" timestamp="2010-04-06T20:49:38Z" uid="20587" user="balrog-kun" changeset="4348961" lat="52.0859674" lon="21.1114457"/>
  <node id="687040450" version="1" timestamp="2010-04-06T20:49:38Z" uid="20587" user="balrog-kun" changeset="4348961" lat="52.0860361" lon="21.1117295">
    <tag k="barrier" v="bollard"/>
  </node>
  <node id="687040451" version="1" timestamp="2010-04-06T20:49:38Z" uid="20587" user="balrog-kun" changeset="4348961" lat="52.0896081" lon="21.1060852">
    <tag k="highway" v="bus_stop"/>
    <tag k="name" v="Rozjazd Oborski 01"/>
  </node>
  <node id="687040451" version="2" timestamp="2011-05-15T21:59:04Z" uid="100448" user="kietlak" changeset="8157538" lat="52.0896081" lon="21.1060852"/>
  <node id="687040452" version="1" timestamp="2010-04-06T20:49:38Z" uid="20587" user="balrog-kun" changeset="4348961" lat="52.0863132" lon="21.111306">
    <tag k="barrier" v="bollard"/>
  </node>
  <node id="687040453" version="1" timestamp="2010-04-06T20:49:38Z" uid="20587" user="balrog-kun" changeset="4348961" lat="52.0892038" lon="21.1107247"/>
  <node id="687040453" version="2" timestamp="2011-03-06T20:16:06Z" uid="98542" user="wajak" changeset="7477711" lat="52.0892038" lon="21.1107247"/>
  <node id="687040454" version="1" timestamp="2010-04-06T20:49:38Z" uid="20587" user="balrog-kun" changeset="4348961" lat="52.2293321" lon="21.0950575">
    <tag k="name" v="Alkoholowy 24"/>
    <tag k="shop" v="beverages"/>
  </node>
  <node id="687040455" version="1" timestamp="2010-04-06T20:49:39Z" uid="20587" user="balrog-kun" changeset="4348961" lat="52.2291925" lon="21.0949911">
    <tag k="amenity" v="fast_food"/>
    <tag k="cuisine" v="asian"/>
    <tag k="name" v="Bar Lieu"/>
  </node>
  <node id="687040457" version="1" timestamp="2010-04-06T20:49:39Z" uid="20587" user="balrog-kun" changeset="4348961" lat="52.2294286" lon="21.0939703">
    <tag k="amenity" v="bicycle_parking"/>
  </node>
  <node id="687040459" version="1" timestamp="2010-04-06T20:49:39Z" uid="20587" user="balrog-kun" changeset="4348961" lat="52.2293975" lon="21.0938688">
    <tag k="amenity" v="atm"/>
  </node>
  <node id="687040459" version="2" timestamp="2010-10-04T18:18:53Z" uid="20587" user="balrog-kun" changeset="5956007" lat="52.2293911" lon="21.0938792">
    <tag k="addr:city" v="Warszawa"/>
    <tag k="addr:housenumber" v="37"/>
    <tag k="addr:street" v="GeneraÅ‚a Emila Augusta Fieldorfa"/>
    <tag k="amenity" v="atm"/>
    <tag k="atm_ref" v="9894"/>
    <tag k="indoor" v="yes"/>
    <tag k="millennium:date" v="2009-05-21 17:13:02"/>
    <tag k="millennium:network" v="Cash4You"/>
    <tag k="millennium:ref" v="19830"/>
    <tag k="millennium:subtype" v="Euronet"/>
    <tag k="name" v="Bankomat Cash4You"/>
    <tag k="operator" v="Euronet Sp. z o.o."/>
  </node>
  <node id="687040461" version="1" timestamp="2010-04-06T20:49:39Z" uid="20587" user="balrog-kun" changeset="4348961" lat="52.2372297" lon="21.0994478">
    <tag k="name" v="Feu Vert"/>
    <tag k="shop" v="car_repair"/>
  </node>
  <node id="687040461" version="2" timestamp="2011-05-01T06:55:51Z" uid="343168" user="Rafalsky" changeset="8018086" lat="52.237219" lon="21.0993022">
    <tag k="name" v="Feu Vert"/>
    <tag k="shop" v="car_repair"/>
  </node>
  <node id="687040463" version="1" timestamp="2010-04-06T20:49:39Z" uid="20587" user="balrog-kun" changeset="4348961" lat="52.2437753" lon="21.0970048">
    <tag k="amenity" v="doctors"/>
    <tag k="name" v="Petra Medica"/>
  </node>
  <node id="687040464" version="1" timestamp="2010-04-06T20:49:39Z" uid="20587" user="balrog-kun" changeset="4348961" lat="52.24359" lon="21.0978392">
    <tag k="name" v="Konfekcja damska"/>
    <tag k="shop" v="clothes"/>
  </node>
  <node id="687040465" version="1" timestamp="2010-04-06T20:49:39Z" uid="20587" user="balrog-kun" changeset="4348961" lat="52.2436347" lon="21.097624">
    <tag k="name" v="Ada"/>
    <tag k="shop" v="hairdresser"/>
  </node>
  <node id="687040466" version="1" timestamp="2010-04-06T20:49:39Z" uid="20587" user="balrog-kun" changeset="4348961" lat="52.2435655" lon="21.0979614">
    <tag k="name" v="Salon mody"/>
    <tag k="shop" v="clothes"/>
  </node>
</osm>
