<?xml version='1.0' encoding='UTF-8'?>
<osm version="0.6" generator="libosmium/2.20.0">
  <node id="688040154" version="2" timestamp="2010-04-11T11:55:48Z" uid="20587" user="balrog-kun" changeset="4392352" lat="49.801" lon="20.21517">
    <tag k="name" v="Mokra"/>
    <tag k="place" v="village"/>
    <tag k="source" v="http://ump.waw.pl/ retrieved 03:39:37 04/04/10 (UMP-NowySacz/src/cities-NowySacz.pnt-converted.txt)"/>
  </node>
  <node id="688040154" version="3" timestamp="2010-04-11T13:18:56Z" uid="20587" user="balrog-kun" changeset="4392352" lat="49.801" lon="20.21517">
    <tag k="name" v="Mokra"/>
    <tag k="place" v="village"/>
    <tag k="source" v="http://ump.waw.pl/ retrieved 03:39:37 04/04/10 (UMP-NowySacz/src/cities-NowySacz.pnt-converted.txt)"/>
  </node>
  <node id="688042238" version="2" timestamp="2010-04-11T11:55:48Z" uid="20587" user="balrog-kun" changeset="4392352" lat="49.79725" lon="20.59823">
    <tag k="name" v="Porąbka Iwkowska"/>
    <tag k="place" v="village"/>
    <tag k="source" v="http://ump.waw.pl/ retrieved 03:39:37 04/04/10 (UMP-NowySacz/src/cities-NowySacz.pnt-converted.txt)"/>
  </node>
  <node id="688042238" version="3" timestamp="2010-04-11T13:18:56Z" uid="20587" user="balrog-kun" changeset="4392352" lat="49.79725" lon="20.59823">
    <tag k="name" v="Porąbka Iwkowska"/>
    <tag k="place" v="village"/>
    <tag k="source" v="http://ump.waw.pl/ retrieved 03:39:37 04/04/10 (UMP-NowySacz/src/cities-NowySacz.pnt-converted.txt)"/>
  </node>
  <node id="688042238" version="4" timestamp="2010-04-27T04:17:21Z" uid="30632" user="antblant" changeset="4537905" lat="49.79725" lon="20.59823">
    <tag k="name" v="Porąbka Iwkowska"/>
    <tag k="place" v="village"/>
    <tag k="source" v="http://ump.waw.pl/ retrieved 03:39:37 04/04/10 (UMP-NowySacz/src/cities-NowySacz.pnt-converted.txt)"/>
    <tag k="teryt:simc" v="0821151"/>
  </node>
  <node id="688042262" version="2" timestamp="2010-04-11T11:55:48Z" uid="20587" user="balrog-kun" changeset="4392352" lat="49.77755" lon="20.33054">
    <tag k="name" v="Nowe Rybie"/>
    <tag k="place" v="village"/>
    <tag k="source" v="http://ump.waw.pl/ retrieved 03:39:37 04/04/10 (UMP-NowySacz/src/cities-NowySacz.pnt-converted.txt)"/>
  </node>
  <node id="688042262" version="3" timestamp="2010-04-11T13:18:56Z" uid="20587" user="balrog-kun" changeset="4392352" lat="49.77755" lon="20.33054">
    <tag k="name" v="Nowe Rybie"/>
    <tag k="place" v="village"/>
    <tag k="source" v="http://ump.waw.pl/ retrieved 03:39:37 04/04/10 (UMP-NowySacz/src/cities-NowySacz.pnt-converted.txt)"/>
  </node>
  <node id="688042262" version="4" timestamp="2010-04-27T04:05:57Z" uid="30632" user="antblant" changeset="4537871" lat="49.77755" lon="20.33054">
    <tag k="name" v="Nowe Rybie"/>
    <tag k="place" v="village"/>
    <tag k="source" v="http://ump.waw.pl/ retrieved 03:39:37 04/04/10 (UMP-NowySacz/src/cities-NowySacz.pnt-converted.txt)"/>
    <tag k="teryt:simc" v="0439351"/>
  </node>
  <node id="688044118" version="2" timestamp="2010-04-11T11:55:48Z" uid="20587" user="balrog-kun" changeset="4392352" lat="49.7129937" lon="20.580334">
    <tag k="name" v="Skrzętla-Rojówka"/>
    <tag k="place" v="village"/>
    <tag k="source" v="http://ump.waw.pl/ retrieved 03:39:37 04/04/10 (UMP-NowySacz/src/cities-NowySacz.pnt-converted.txt)"/>
  </node>
  <node id="688044118" version="3" timestamp="2010-04-11T13:18:56Z" uid="20587" user="balrog-kun" changeset="4392352" lat="49.7140924" lon="20.5790629">
    <tag k="name" v="Skrzętla-Rojówka"/>
    <tag k="place" v="village"/>
    <tag k="source" v="http://ump.waw.pl/ retrieved 03:39:37 04/04/10 (UMP-NowySacz/src/cities-NowySacz.pnt-converted.txt)"/>
  </node>
  <node id="688044118" version="4" timestamp="2010-04-27T04:14:15Z" uid="30632" user="antblant" changeset="4537892" lat="49.7140924" lon="20.5790629">
    <tag k="name" v="Skrzętla-Rojówka"/>
    <tag k="place" v="village"/>
    <tag k="source" v="http://ump.waw.pl/ retrieved 03:39:37 04/04/10 (UMP-NowySacz/src/cities-NowySacz.pnt-converted.txt)"/>
    <tag k="teryt:simc" v="0448108"/>
  </node>
  <node id="688044140" version="2" timestamp="2010-04-11T11:55:48Z" uid="20587" user="balrog-kun" changeset="4392352" lat="49.7747" lon="20.23461">
    <tag k="name" v="Jodłownik"/>
    <tag k="place" v="village"/>
    <tag k="source" v="http://ump.waw.pl/ retrieved 03:39:37 04/04/10 (UMP-NowySacz/src/cities-NowySacz.pnt-converted.txt)"/>
  </node>
  <node id="688044140" version="3" timestamp="2010-04-11T13:18:57Z" uid="20587" user="balrog-kun" changeset="4392352" lat="49.7747" lon="20.23461">
    <tag k="name" v="Jodłownik"/>
    <tag k="place" v="village"/>
    <tag k="source" v="http://ump.waw.pl/ retrieved 03:39:37 04/04/10 (UMP-NowySacz/src/cities-NowySacz.pnt-converted.txt)"/>
  </node>
  <node id="688044140" version="4" timestamp="2010-04-27T03:59:47Z" uid="30632" user="antblant" changeset="4537857" lat="49.7747" lon="20.23461">
    <tag k="name" v="Jodłownik"/>
    <tag k="place" v="village"/>
    <tag k="source" v="http://ump.waw.pl/ retrieved 03:39:37 04/04/10 (UMP-NowySacz/src/cities-NowySacz.pnt-converted.txt)"/>
    <tag k="teryt:simc" v="0430210"/>
  </node>
  <node id="688045378" version="2" timestamp="2010-04-11T11:55:48Z" uid="20587" user="balrog-kun" changeset="4392352" lat="49.70506" lon="20.20051">
    <tag k="name" v="Gruszowiec"/>
    <tag k="place" v="village"/>
    <tag k="source" v="http://ump.waw.pl/ retrieved 03:39:37 04/04/10 (UMP-NowySacz/src/cities-NowySacz.pnt-converted.txt)"/>
  </node>
  <node id="688045378" version="3" timestamp="2010-04-11T13:18:57Z" uid="20587" user="balrog-kun" changeset="4392352" lat="49.70506" lon="20.20051">
    <tag k="name" v="Gruszowiec"/>
    <tag k="place" v="village"/>
    <tag k="source" v="http://ump.waw.pl/ retrieved 03:39:37 04/04/10 (UMP-NowySacz/src/cities-NowySacz.pnt-converted.txt)"/>
  </node>
  <node id="688045378" version="4" timestamp="2010-04-27T04:10:51Z" uid="30632" user="antblant" changeset="4537882" lat="49.70506" lon="20.20051">
    <tag k="name" v="Gruszowiec"/>
    <tag k="place" v="village"/>
    <tag k="source" v="http://ump.waw.pl/ retrieved 03:39:37 04/04/10 (UMP-NowySacz/src/cities-NowySacz.pnt-converted.txt)"/>
    <tag k="teryt:simc" v="0423700"/>
  </node>
  <node id="688047276" version="2" timestamp="2010-04-11T11:55:48Z" uid="20587" user="balrog-kun" changeset="4392352" lat="49.7635014" lon="20.6083768">
    <tag k="name" v="Michalczowa"/>
    <tag k="place" v="village"/>
    <tag k="source" v="http://ump.waw.pl/ retrieved 03:39:37 04/04/10 (UMP-NowySacz/src/cities-NowySacz.pnt-converted.txt)"/>
  </node>
  <node id="688047276" version="3" timestamp="2010-04-11T13:18:57Z" uid="20587" user="balrog-kun" changeset="4392352" lat="49.7641449" lon="20.608024">
    <tag k="name" v="Michalczowa"/>
    <tag k="place" v="village"/>
    <tag k="source" v="http://ump.waw.pl/ retrieved 03:39:37 04/04/10 (UMP-NowySacz/src/cities-NowySacz.pnt-converted.txt)"/>
  </node>
  <node id="688047276" version="4" timestamp="2010-04-27T04:01:20Z" uid="30632" user="antblant" changeset="4537859" lat="49.7641449" lon="20.608024">
    <tag k="name" v="Michalczowa"/>
    <tag k="place" v="village"/>
    <tag k="source" v="http://ump.waw.pl/ retrieved 03:39:37 04/04/10 (UMP-NowySacz/src/cities-NowySacz.pnt-converted.txt)"/>
    <tag k="teryt:simc" v="0448002"/>
  </node>
  <node id="688040154" version="4" timestamp="2012-07-25T07:28:55Z" uid="722137" user="OSMF Redaction Account" changeset="12482506" lat="49.801" lon="20.21517"/>
  <node id="688042238" version="5" timestamp="2012-07-25T04:52:50Z" uid="722137" user="OSMF Redaction Account" changeset="12480827" lat="49.79725" lon="20.59823"/>
  <node id="688042262" version="5" timestamp="2012-07-25T06:29:35Z" uid="722137" user="OSMF Redaction Account" changeset="12481760" lat="49.77755" lon="20.33054"/>
  <node id="688044118" version="5" timestamp="2012-07-25T05:06:31Z" uid="722137" user="OSMF Redaction Account" changeset="12480940" lat="49.7140924" lon="20.5790629">
    <tag k="teryt:simc" v="0448108"/>
  </node>
  <node id="688044118" version="6" timestamp="2012-08-13T09:23:11Z" uid="147230" user="SQ9NIT" changeset="12711192" lat="49.7140924" lon="20.5790629">
    <tag k="name" v="Skrzętla-Rojówka"/>
    <tag k="place" v="village"/>
    <tag k="source" v="Bing;WIG;TERYT"/>
    <tag k="teryt:simc" v="0448108"/>
  </node>
  <node id="688044140" version="5" timestamp="2012-07-25T07:28:54Z" uid="722137" user="OSMF Redaction Account" changeset="12482506" lat="49.7747" lon="20.23461"/>
  <node id="688045378" version="5" timestamp="2012-07-25T08:14:23Z" uid="722137" user="OSMF Redaction Account" changeset="12483054" lat="49.70506" lon="20.20051"/>
  <node id="688047276" version="5" timestamp="2012-07-25T04:52:49Z" uid="722137" user="OSMF Redaction Account" changeset="12480827" lat="49.7641449" lon="20.608024">
    <tag k="teryt:simc" v="0448002"/>
  </node>
  <node id="688047276" version="6" timestamp="2012-08-13T09:23:07Z" uid="147230" user="SQ9NIT" changeset="12711192" lat="49.7641449" lon="20.608024">
    <tag k="name" v="Michalczowa"/>
    <tag k="place" v="village"/>
    <tag k="source" v="Bing;WIG;TERYT"/>
    <tag k="teryt:simc" v="0448002"/>
  </node>
</osm>
