<?xml version='1.0' encoding='UTF-8'?>
<osm version="0.6" generator="libosmium/2.20.0">
  <node id="688030647" version="2" timestamp="2010-04-11T11:55:47Z" uid="20587" user="balrog-kun" changeset="4392352" lat="49.859" lon="20.40215">
    <tag k="name" v="Leszczyna"/>
    <tag k="place" v="village"/>
    <tag k="source" v="http://ump.waw.pl/ retrieved 03:39:37 04/04/10 (UMP-NowySacz/src/cities-NowySacz.pnt-converted.txt)"/>
  </node>
  <node id="688030647" version="3" timestamp="2010-04-11T13:18:54Z" uid="20587" user="balrog-kun" changeset="4392352" lat="49.859" lon="20.40215">
    <tag k="name" v="Leszczyna"/>
    <tag k="place" v="village"/>
    <tag k="source" v="http://ump.waw.pl/ retrieved 03:39:37 04/04/10 (UMP-NowySacz/src/cities-NowySacz.pnt-converted.txt)"/>
  </node>
  <node id="688030653" version="3" timestamp="2010-04-11T11:55:47Z" uid="20587" user="balrog-kun" changeset="4392352" lat="49.7470786" lon="20.3790993">
    <tag k="name" v="Walowa Góra"/>
    <tag k="place" v="village"/>
    <tag k="source" v="http://ump.waw.pl/ retrieved 03:39:37 04/04/10 (UMP-NowySacz/src/cities-NowySacz.pnt-converted.txt)"/>
  </node>
  <node id="688030653" version="4" timestamp="2010-04-11T13:18:55Z" uid="20587" user="balrog-kun" changeset="4392352" lat="49.7454751" lon="20.3777919">
    <tag k="name" v="Walowa Góra"/>
    <tag k="place" v="village"/>
    <tag k="source" v="http://ump.waw.pl/ retrieved 03:39:37 04/04/10 (UMP-NowySacz/src/cities-NowySacz.pnt-converted.txt)"/>
  </node>
  <node id="688030653" version="5" timestamp="2010-04-27T04:02:30Z" uid="30632" user="antblant" changeset="4537862" lat="49.7454751" lon="20.3777919">
    <tag k="name" v="Walowa Góra"/>
    <tag k="place" v="village"/>
    <tag k="source" v="http://ump.waw.pl/ retrieved 03:39:37 04/04/10 (UMP-NowySacz/src/cities-NowySacz.pnt-converted.txt)"/>
    <tag k="teryt:simc" v="0440680"/>
  </node>
  <node id="688032473" version="2" timestamp="2010-04-11T11:55:47Z" uid="20587" user="balrog-kun" changeset="4392352" lat="49.66553" lon="20.50881">
    <tag k="name" v="Kanina"/>
    <tag k="place" v="village"/>
    <tag k="source" v="http://ump.waw.pl/ retrieved 03:39:37 04/04/10 (UMP-NowySacz/src/cities-NowySacz.pnt-converted.txt)"/>
  </node>
  <node id="688032473" version="3" timestamp="2010-04-11T13:18:55Z" uid="20587" user="balrog-kun" changeset="4392352" lat="49.66553" lon="20.50881">
    <tag k="name" v="Kanina"/>
    <tag k="place" v="village"/>
    <tag k="source" v="http://ump.waw.pl/ retrieved 03:39:37 04/04/10 (UMP-NowySacz/src/cities-NowySacz.pnt-converted.txt)"/>
  </node>
  <node id="688032473" version="4" timestamp="2010-04-27T04:15:28Z" uid="30632" user="antblant" changeset="4537896" lat="49.66553" lon="20.50881">
    <tag k="name" v="Kanina"/>
    <tag k="place" v="village"/>
    <tag k="source" v="http://ump.waw.pl/ retrieved 03:39:37 04/04/10 (UMP-NowySacz/src/cities-NowySacz.pnt-converted.txt)"/>
    <tag k="teryt:simc" v="0438417"/>
  </node>
  <node id="688032479" version="2" timestamp="2010-04-11T11:55:47Z" uid="20587" user="balrog-kun" changeset="4392352" lat="49.8051" lon="20.19549">
    <tag k="name" v="Góra Świętego Jana"/>
    <tag k="place" v="village"/>
    <tag k="source" v="http://ump.waw.pl/ retrieved 03:39:37 04/04/10 (UMP-NowySacz/src/cities-NowySacz.pnt-converted.txt)"/>
  </node>
  <node id="688032479" version="3" timestamp="2010-04-11T13:18:55Z" uid="20587" user="balrog-kun" changeset="4392352" lat="49.8051" lon="20.19549">
    <tag k="name" v="Góra Świętego Jana"/>
    <tag k="place" v="village"/>
    <tag k="source" v="http://ump.waw.pl/ retrieved 03:39:37 04/04/10 (UMP-NowySacz/src/cities-NowySacz.pnt-converted.txt)"/>
  </node>
  <node id="688032479" version="4" timestamp="2010-04-27T04:15:28Z" uid="30632" user="antblant" changeset="4537896" lat="49.8051" lon="20.19549">
    <tag k="name" v="Góra Świętego Jana"/>
    <tag k="place" v="village"/>
    <tag k="source" v="http://ump.waw.pl/ retrieved 03:39:37 04/04/10 (UMP-NowySacz/src/cities-NowySacz.pnt-converted.txt)"/>
    <tag k="teryt:simc" v="0430090"/>
  </node>
  <node id="688033684" version="2" timestamp="2010-04-11T11:55:47Z" uid="20587" user="balrog-kun" changeset="4392352" lat="49.7451617" lon="20.6448427">
    <tag k="name" v="Bilsko"/>
    <tag k="place" v="village"/>
    <tag k="source" v="http://ump.waw.pl/ retrieved 03:39:37 04/04/10 (UMP-NowySacz/src/cities-NowySacz.pnt-converted.txt)"/>
  </node>
  <node id="688033684" version="3" timestamp="2010-04-11T13:18:55Z" uid="20587" user="balrog-kun" changeset="4392352" lat="49.744751" lon="20.6474239">
    <tag k="name" v="Bilsko"/>
    <tag k="place" v="village"/>
    <tag k="source" v="http://ump.waw.pl/ retrieved 03:39:37 04/04/10 (UMP-NowySacz/src/cities-NowySacz.pnt-converted.txt)"/>
  </node>
  <node id="688034362" version="2" timestamp="2010-04-11T11:55:47Z" uid="20587" user="balrog-kun" changeset="4392352" lat="49.67699" lon="20.39845">
    <tag k="name" v="Stara Wieś"/>
    <tag k="place" v="village"/>
    <tag k="source" v="http://ump.waw.pl/ retrieved 03:39:37 04/04/10 (UMP-NowySacz/src/cities-NowySacz.pnt-converted.txt)"/>
  </node>
  <node id="688034362" version="3" timestamp="2010-04-11T13:18:55Z" uid="20587" user="balrog-kun" changeset="4392352" lat="49.67699" lon="20.39845">
    <tag k="name" v="Stara Wieś"/>
    <tag k="place" v="village"/>
    <tag k="source" v="http://ump.waw.pl/ retrieved 03:39:37 04/04/10 (UMP-NowySacz/src/cities-NowySacz.pnt-converted.txt)"/>
  </node>
  <node id="688035428" version="4" timestamp="2010-04-11T11:55:47Z" uid="20587" user="balrog-kun" changeset="4392352" lat="49.7361123" lon="20.4045719">
    <tag k="name" v="Łososina Górna"/>
    <tag k="place" v="village"/>
    <tag k="source" v="http://ump.waw.pl/ retrieved 03:39:37 04/04/10 (UMP-NowySacz/src/cities-NowySacz.pnt-converted.txt)"/>
  </node>
  <node id="688035428" version="5" timestamp="2010-04-11T13:18:55Z" uid="20587" user="balrog-kun" changeset="4392352" lat="49.7355433" lon="20.4117342">
    <tag k="name" v="Łososina Górna"/>
    <tag k="place" v="village"/>
    <tag k="source" v="http://ump.waw.pl/ retrieved 03:39:37 04/04/10 (UMP-NowySacz/src/cities-NowySacz.pnt-converted.txt)"/>
  </node>
  <node id="688035428" version="6" timestamp="2010-04-27T04:01:13Z" uid="30632" user="antblant" changeset="4537859" lat="49.7355433" lon="20.4117342">
    <tag k="name" v="Łososina Górna"/>
    <tag k="place" v="village"/>
    <tag k="source" v="http://ump.waw.pl/ retrieved 03:39:37 04/04/10 (UMP-NowySacz/src/cities-NowySacz.pnt-converted.txt)"/>
    <tag k="teryt:simc" v="0438713"/>
  </node>
  <node id="688037295" version="2" timestamp="2010-04-11T11:55:47Z" uid="20587" user="balrog-kun" changeset="4392352" lat="49.84412" lon="20.49578">
    <tag k="name" v="Winkiel"/>
    <tag k="place" v="village"/>
    <tag k="source" v="http://ump.waw.pl/ retrieved 03:39:37 04/04/10 (UMP-NowySacz/src/cities-NowySacz.pnt-converted.txt)"/>
  </node>
  <node id="688037295" version="3" timestamp="2010-04-11T13:18:55Z" uid="20587" user="balrog-kun" changeset="4392352" lat="49.84412" lon="20.49578">
    <tag k="name" v="Winkiel"/>
    <tag k="place" v="village"/>
    <tag k="source" v="http://ump.waw.pl/ retrieved 03:39:37 04/04/10 (UMP-NowySacz/src/cities-NowySacz.pnt-converted.txt)"/>
  </node>
  <node id="688037300" version="2" timestamp="2010-04-11T11:55:47Z" uid="20587" user="balrog-kun" changeset="4392352" lat="49.67992" lon="20.30359">
    <tag k="name" v="Słopnice Królewskie"/>
    <tag k="place" v="village"/>
    <tag k="source" v="http://ump.waw.pl/ retrieved 03:39:37 04/04/10 (UMP-NowySacz/src/cities-NowySacz.pnt-converted.txt)"/>
  </node>
  <node id="688037300" version="3" timestamp="2010-04-11T13:18:55Z" uid="20587" user="balrog-kun" changeset="4392352" lat="49.67992" lon="20.30359">
    <tag k="name" v="Słopnice Królewskie"/>
    <tag k="place" v="village"/>
    <tag k="source" v="http://ump.waw.pl/ retrieved 03:39:37 04/04/10 (UMP-NowySacz/src/cities-NowySacz.pnt-converted.txt)"/>
  </node>
  <node id="688038427" version="2" timestamp="2010-04-11T11:55:47Z" uid="20587" user="balrog-kun" changeset="4392352" lat="49.80869" lon="20.36736">
    <tag k="name" v="Kamionna"/>
    <tag k="place" v="village"/>
    <tag k="source" v="http://ump.waw.pl/ retrieved 03:39:37 04/04/10 (UMP-NowySacz/src/cities-NowySacz.pnt-converted.txt)"/>
  </node>
  <node id="688038427" version="3" timestamp="2010-04-11T13:18:56Z" uid="20587" user="balrog-kun" changeset="4392352" lat="49.80869" lon="20.36736">
    <tag k="name" v="Kamionna"/>
    <tag k="place" v="village"/>
    <tag k="source" v="http://ump.waw.pl/ retrieved 03:39:37 04/04/10 (UMP-NowySacz/src/cities-NowySacz.pnt-converted.txt)"/>
  </node>
  <node id="688038427" version="4" timestamp="2011-05-10T11:14:11Z" uid="163896" user="Zbigniew Czernik" changeset="8101205" lat="49.8052756" lon="20.3688353">
    <tag k="name" v="Kamionna"/>
    <tag k="place" v="village"/>
  </node>
  <node id="688039018" version="2" timestamp="2010-04-11T11:55:47Z" uid="20587" user="balrog-kun" changeset="4392352" lat="49.683731" lon="20.6565364">
    <tag k="name" v="Kurów"/>
    <tag k="place" v="village"/>
    <tag k="source" v="http://ump.waw.pl/ retrieved 03:39:37 04/04/10 (UMP-NowySacz/src/cities-NowySacz.pnt-converted.txt)"/>
  </node>
  <node id="688039018" version="3" timestamp="2010-04-11T13:18:56Z" uid="20587" user="balrog-kun" changeset="4392352" lat="49.6837914" lon="20.6574392">
    <tag k="name" v="Kurów"/>
    <tag k="place" v="village"/>
    <tag k="source" v="http://ump.waw.pl/ retrieved 03:39:37 04/04/10 (UMP-NowySacz/src/cities-NowySacz.pnt-converted.txt)"/>
  </node>
  <node id="688030647" version="4" timestamp="2012-04-05T22:24:08Z" uid="91056" user="Yarl" changeset="11195350" lat="49.8586768" lon="20.40215">
    <tag k="name" v="Leszczyna"/>
    <tag k="place" v="village"/>
    <tag k="source" v="http://ump.waw.pl/ retrieved 03:39:37 04/04/10 (UMP-NowySacz/src/cities-NowySacz.pnt-converted.txt)"/>
  </node>
  <node id="688030647" version="5" timestamp="2012-07-25T06:00:59Z" uid="722137" user="OSMF Redaction Account" changeset="12481455" lat="49.8586768" lon="20.40215"/>
  <node id="688030653" version="6" timestamp="2012-07-25T06:42:21Z" uid="722137" user="OSMF Redaction Account" changeset="12481897" lat="49.7454751" lon="20.3777919">
    <tag k="teryt:simc" v="0440680"/>
  </node>
  <node id="688030653" version="7" timestamp="2012-08-13T09:23:12Z" uid="147230" user="SQ9NIT" changeset="12711192" lat="49.7448968" lon="20.3795259">
    <tag k="is_in:county" v="Limanowa"/>
    <tag k="is_in:municipality" v="Limanowa"/>
    <tag k="name" v="Walowa Góra"/>
    <tag k="place" v="village"/>
    <tag k="source" v="Bing;WIG;TERYT"/>
    <tag k="teryt:simc" v="0440680"/>
  </node>
  <node id="688032473" version="5" timestamp="2012-07-25T05:07:34Z" uid="722137" user="OSMF Redaction Account" changeset="12480947" lat="49.66553" lon="20.50881"/>
  <node id="688032479" version="5" timestamp="2012-07-25T07:28:55Z" uid="722137" user="OSMF Redaction Account" changeset="12482506" lat="49.8051" lon="20.19549"/>
  <node id="688033684" version="4" timestamp="2012-07-25T04:57:23Z" uid="722137" user="OSMF Redaction Account" changeset="12480857" lat="49.744751" lon="20.6474239"/>
  <node id="688033684" version="5" timestamp="2012-09-06T14:09:48Z" uid="467703" user="Zbigniew_Czernik" changeset="13010074" lat="49.744751" lon="20.6474239"/>
  <node id="688034362" version="4" timestamp="2012-07-25T06:42:43Z" uid="722137" user="OSMF Redaction Account" changeset="12481897" lat="49.67699" lon="20.39845"/>
  <node id="688035428" version="7" timestamp="2012-07-25T06:42:21Z" uid="722137" user="OSMF Redaction Account" changeset="12481897" lat="49.7355433" lon="20.4117342">
    <tag k="place" v="village"/>
    <tag k="teryt:simc" v="0438713"/>
  </node>
  <node id="688035428" version="8" timestamp="2012-08-13T09:23:12Z" uid="147230" user="SQ9NIT" changeset="12711192" lat="49.7345939" lon="20.4117614">
    <tag k="is_in:county" v="Limanowa"/>
    <tag k="is_in:municipality" v="Limanowa"/>
    <tag k="name" v="Łososina Górna"/>
    <tag k="place" v="village"/>
    <tag k="source" v="Bing;WIG;TERYT"/>
    <tag k="teryt:simc" v="0438713"/>
  </node>
  <node id="688035428" version="9" timestamp="2012-08-27T18:08:01Z" uid="690673" user="Sto-Sto" changeset="12882694" lat="49.7375652" lon="20.3885045">
    <tag k="is_in:county" v="Limanowa"/>
    <tag k="is_in:municipality" v="Limanowa"/>
    <tag k="name" v="Łososina Górna"/>
    <tag k="place" v="suburb"/>
    <tag k="source" v="Bing;WIG;TERYT"/>
    <tag k="teryt:simc" v="0438713"/>
  </node>
  <node id="688037295" version="4" timestamp="2012-07-25T05:58:11Z" uid="722137" user="OSMF Redaction Account" changeset="12481437" lat="49.84412" lon="20.49578"/>
  <node id="688037300" version="4" timestamp="2012-07-25T06:57:18Z" uid="722137" user="OSMF Redaction Account" changeset="12482096" lat="49.67992" lon="20.30359"/>
  <node id="688038427" version="5" timestamp="2012-04-05T15:43:00Z" uid="91056" user="Yarl" changeset="11190878" lat="49.8014304" lon="20.3687085">
    <tag k="name" v="Kamionna"/>
    <tag k="place" v="village"/>
  </node>
  <node id="688038427" version="6" timestamp="2012-07-25T06:29:19Z" uid="722137" user="OSMF Redaction Account" changeset="12481760" lat="49.8014304" lon="20.3687085"/>
  <node id="688039018" version="4" timestamp="2012-07-25T04:57:23Z" uid="722137" user="OSMF Redaction Account" changeset="12480857" lat="49.6837914" lon="20.6574392"/>
  <node id="688039018" version="5" timestamp="2012-09-06T14:09:49Z" uid="467703" user="Zbigniew_Czernik" changeset="13010074" lat="49.6837914" lon="20.6574392"/>
</osm>
