<?xml version='1.0' encoding='UTF-8'?>
<osm version="0.6" generator="libosmium/2.20.0">
  <node id="692958146" version="2" timestamp="2010-08-04T12:29:31Z" uid="38528" user="acrosscanadatrails" changeset="5398714" lat="42.2180977" lon="20.7330564">
    <tag k="addr:city" v="Prizren"/>
    <tag k="addr:housename" v="DS603394"/>
    <tag k="addr:housenumber" v="12"/>
    <tag k="addr:street" v="BINGENSKA"/>
    <tag k="source" v="kpa"/>
  </node>
  <node id="692958146" version="3" timestamp="2010-12-01T14:24:50Z" uid="355102" user="BeeGeeS" changeset="6504304" lat="42.2180977" lon="20.7330564">
    <tag k="addr:city" v="Prizren"/>
    <tag k="addr:housename" v="DS603394"/>
    <tag k="addr:housenumber" v="12"/>
    <tag k="addr:street" v="BINGENSKA"/>
    <tag k="source" v="kpa"/>
  </node>
  <node id="692958147" version="2" timestamp="2010-08-04T12:29:31Z" uid="38528" user="acrosscanadatrails" changeset="5398714" lat="42.2177634" lon="20.7330764">
    <tag k="addr:city" v="Prizren"/>
    <tag k="addr:housename" v="S030718PZ"/>
    <tag k="addr:housenumber" v="0"/>
    <tag k="addr:street" v="Bingenit"/>
    <tag k="source" v="kpa"/>
  </node>
  <node id="692958147" version="3" timestamp="2010-12-01T14:24:52Z" uid="355102" user="BeeGeeS" changeset="6504304" lat="42.2177634" lon="20.7330764">
    <tag k="addr:city" v="Prizren"/>
    <tag k="addr:housename" v="S030718PZ"/>
    <tag k="addr:housenumber" v="0"/>
    <tag k="addr:street" v="Bingenit"/>
    <tag k="source" v="kpa"/>
  </node>
  <node id="692959848" version="2" timestamp="2010-08-29T03:41:20Z" uid="4467" user="Rosscoe" changeset="5621880" lat="-27.6580871" lon="153.3665077">
    <tag k="amenity" v="toilets"/>
    <tag k="operator" v="Redland City Council"/>
    <tag k="wheelchair" v="no"/>
  </node>
  <node id="692959848" version="3" timestamp="2010-09-04T19:10:40Z" uid="255148" user="svegress" changeset="5681699" lat="-27.6580871" lon="153.3665077">
    <tag k="amenity" v="toilets"/>
    <tag k="highway" v="residential"/>
    <tag k="operator" v="Redland City Council"/>
    <tag k="wheelchair" v="no"/>
  </node>
  <node id="692959848" version="4" timestamp="2011-01-06T00:24:31Z" uid="4467" user="Rosscoe" changeset="6877992" lat="-27.6580871" lon="153.3665077">
    <tag k="amenity" v="toilets"/>
    <tag k="operator" v="Redland City Council"/>
    <tag k="wheelchair" v="no"/>
  </node>
</osm>
