<?xml version='1.0' encoding='UTF-8'?>
<osm version="0.6" generator="libosmium/2.20.0">
  <node id="69389284" version="11" timestamp="2009-04-28T14:53:01Z" uid="58091" user="Andreas M" changeset="1004980" lat="48.2116823" lon="16.4401795">
    <tag k="name" v="Donaustadtbrücke"/>
    <tag k="opening_date" v="2010-10-01"/>
    <tag k="railway" v="station"/>
  </node>
  <node id="69389284" version="12" timestamp="2009-06-10T11:04:59Z" uid="16645" user="roli-d" changeset="1476442" lat="48.2116823" lon="16.4401795">
    <tag k="name" v="Donaustadtbrücke"/>
    <tag k="opening_date" v="2010-10-01"/>
    <tag k="railway" v="station"/>
  </node>
  <node id="69389284" version="13" timestamp="2009-09-06T16:43:06Z" uid="86147" user="wolfi1220" changeset="2393422" lat="48.2116823" lon="16.4401795">
    <tag k="name" v="Donaustadtbrücke"/>
    <tag k="opening_date" v="2010-10-02"/>
    <tag k="railway" v="station"/>
  </node>
  <node id="69389284" version="14" timestamp="2009-09-26T19:08:03Z" uid="104947" user="My Friend" changeset="2645174" lat="48.2116823" lon="16.4401795">
    <tag k="name" v="Donaustadtbrücke"/>
    <tag k="opening_date" v="2010-10-02"/>
    <tag k="railway" v="station"/>
  </node>
  <node id="69389284" version="15" timestamp="2010-10-01T21:26:52Z" uid="86147" user="wolfi1220" changeset="5931792" lat="48.2116823" lon="16.4401795">
    <tag k="name" v="Donaustadtbrücke"/>
    <tag k="railway" v="station"/>
  </node>
  <node id="69389284" version="16" timestamp="2010-10-02T17:47:09Z" uid="104947" user="My Friend" changeset="5938171" lat="48.2117381" lon="16.4402785">
    <tag k="name" v="Donaustadtbrücke"/>
    <tag k="railway" v="station"/>
  </node>
  <node id="69389284" version="17" timestamp="2010-11-07T19:51:39Z" uid="67684" user="darkweasel" changeset="6315295" lat="48.2117895" lon="16.4401963">
    <tag k="name" v="Donaustadtbrücke"/>
    <tag k="railway" v="station"/>
  </node>
  <node id="69389284" version="18" timestamp="2011-06-05T23:53:36Z" uid="56501" user="Rudolf_H" changeset="8355563" lat="48.2117895" lon="16.4401963">
    <tag k="name" v="Donaustadtbrücke"/>
    <tag k="railway" v="station"/>
    <tag k="uic_name" v="Wien Donaustadtbrücke (U2)"/>
    <tag k="uic_ref" v="8170381"/>
  </node>
  <node id="69389284" version="19" timestamp="2011-07-19T22:23:21Z" uid="29320" user="Komяpa" changeset="8773535" lat="48.2117895" lon="16.4401963">
    <tag k="name" v="Donaustadtbrücke"/>
    <tag k="railway" v="station"/>
    <tag k="transport" v="subway"/>
    <tag k="uic_name" v="Wien Donaustadtbrücke (U2)"/>
    <tag k="uic_ref" v="8170381"/>
  </node>
  <node id="69389284" version="20" timestamp="2011-08-01T00:42:26Z" uid="29320" user="Komяpa" changeset="8886564" lat="48.2117895" lon="16.4401963">
    <tag k="colour" v="purple"/>
    <tag k="name" v="Donaustadtbrücke"/>
    <tag k="operator" v="Wiener Linien"/>
    <tag k="railway" v="station"/>
    <tag k="transport" v="subway"/>
    <tag k="uic_name" v="Wien Donaustadtbrücke (U2)"/>
    <tag k="uic_ref" v="8170381"/>
  </node>
  <node id="69389284" version="21" timestamp="2011-09-17T20:07:37Z" uid="290680" user="wheelmap_visitor" changeset="9324096" lat="48.2117895" lon="16.4401963">
    <tag k="colour" v="purple"/>
    <tag k="name" v="Donaustadtbrücke"/>
    <tag k="operator" v="Wiener Linien"/>
    <tag k="railway" v="station"/>
    <tag k="transport" v="subway"/>
    <tag k="uic_name" v="Wien Donaustadtbrücke (U2)"/>
    <tag k="uic_ref" v="8170381"/>
    <tag k="wheelchair" v="yes"/>
  </node>
  <node id="69389284" version="22" timestamp="2012-03-21T02:07:29Z" uid="56501" user="Rudolf_H" changeset="11047733" lat="48.2117967" lon="16.4401531">
    <tag k="colour" v="purple"/>
    <tag k="name" v="Donaustadtbrücke"/>
    <tag k="operator" v="Wiener Linien"/>
    <tag k="railway" v="station"/>
    <tag k="transport" v="subway"/>
    <tag k="uic_name" v="Wien Donaustadtbrücke (U2)"/>
    <tag k="uic_ref" v="8170381"/>
    <tag k="wheelchair" v="yes"/>
  </node>
</osm>
