<?xml version='1.0' encoding='UTF-8'?>
<osm version="0.6" generator="libosmium/2.20.0">
  <node id="69401399" version="7" timestamp="2009-03-21T22:35:46Z" uid="34428" user="usm78-gis" changeset="844942" lat="61.5178028" lon="30.2003078">
    <tag k="created_by" v="Potlatch 0.10f"/>
    <tag k="int_name" v="Lahdenpohja"/>
    <tag k="is_in" v="Карелия"/>
    <tag k="name" v="Лахденпохья"/>
    <tag k="name:fi" v="Lahdenpohja"/>
    <tag k="place" v="town"/>
  </node>
  <node id="69401399" version="8" timestamp="2010-03-08T12:22:17Z" uid="30590" user="KekcuHa" changeset="4071248" lat="61.5178028" lon="30.2003078">
    <tag k="addr:country" v="RU"/>
    <tag k="addr:district" v="Лахденпохский район"/>
    <tag k="addr:postcode" v="186730"/>
    <tag k="addr:region" v="Карелия республика"/>
    <tag k="cladr:code" v="1000600100000"/>
    <tag k="cladr:name" v="Лахденпохья"/>
    <tag k="cladr:suffix" v="Город"/>
    <tag k="int_name" v="Lahdenpohja"/>
    <tag k="is_in" v="Карелия"/>
    <tag k="name" v="Лахденпохья"/>
    <tag k="name:fi" v="Lahdenpohja"/>
    <tag k="place" v="town"/>
  </node>
  <node id="69401399" version="9" timestamp="2010-04-24T13:45:49Z" uid="187085" user="must1n" changeset="4512010" lat="61.5178028" lon="30.2003078">
    <tag k="addr:country" v="RU"/>
    <tag k="addr:district" v="Лахденпохский район"/>
    <tag k="addr:postcode" v="186730"/>
    <tag k="addr:region" v="Карелия республика"/>
    <tag k="cladr:code" v="1000600100000"/>
    <tag k="cladr:name" v="Лахденпохья"/>
    <tag k="cladr:suffix" v="Город"/>
    <tag k="int_name" v="Lahdenpohja"/>
    <tag k="is_in" v="Карелия"/>
    <tag k="name" v="Лахденпохья"/>
    <tag k="name:fi" v="Lahdenpohja"/>
    <tag k="name:ru" v="Лахденпохья"/>
    <tag k="place" v="town"/>
    <tag k="wikipedia:en" v="http://en.wikipedia.org/wiki/Lakhdenpokhya"/>
  </node>
  <node id="69401399" version="10" timestamp="2010-11-04T19:05:57Z" uid="13436" user="hkucharek" changeset="6290842" lat="61.5178028" lon="30.2003078">
    <tag k="addr:country" v="RU"/>
    <tag k="addr:district" v="Лахденпохский район"/>
    <tag k="addr:postcode" v="186730"/>
    <tag k="addr:region" v="Карелия республика"/>
    <tag k="cladr:code" v="1000600100000"/>
    <tag k="cladr:name" v="Лахденпохья"/>
    <tag k="cladr:suffix" v="Город"/>
    <tag k="int_name" v="Lahdenpohja"/>
    <tag k="is_in" v="Карелия"/>
    <tag k="name" v="Лахденпохья"/>
    <tag k="name:de" v="Lachdenpochja"/>
    <tag k="name:fi" v="Lahdenpohja"/>
    <tag k="name:ru" v="Лахденпохья"/>
    <tag k="place" v="town"/>
    <tag k="wikipedia:en" v="http://en.wikipedia.org/wiki/Lakhdenpokhya"/>
  </node>
  <node id="69401399" version="11" timestamp="2011-01-10T15:07:10Z" uid="206282" user="Amigo" changeset="6927185" lat="61.5206949" lon="30.1949616">
    <tag k="addr:country" v="RU"/>
    <tag k="addr:district" v="Лахденпохский район"/>
    <tag k="addr:postcode" v="186730"/>
    <tag k="addr:region" v="Карелия республика"/>
    <tag k="cladr:code" v="1000600100000"/>
    <tag k="cladr:name" v="Лахденпохья"/>
    <tag k="cladr:suffix" v="Город"/>
    <tag k="int_name" v="Lahdenpohja"/>
    <tag k="is_in" v="Карелия"/>
    <tag k="name" v="Лахденпохья"/>
    <tag k="name:de" v="Lachdenpochja"/>
    <tag k="name:fi" v="Lahdenpohja"/>
    <tag k="name:ru" v="Лахденпохья"/>
    <tag k="place" v="town"/>
    <tag k="wikipedia:en" v="http://en.wikipedia.org/wiki/Lakhdenpokhya"/>
  </node>
  <node id="69401399" version="12" timestamp="2011-01-12T09:01:30Z" uid="166445" user="GranD" changeset="6945105" lat="61.5206949" lon="30.1949616">
    <tag k="addr:country" v="RU"/>
    <tag k="addr:district" v="Лахденпохский район"/>
    <tag k="addr:postcode" v="186730"/>
    <tag k="addr:region" v="Карелия республика"/>
    <tag k="cladr:code" v="1000600100000"/>
    <tag k="cladr:name" v="Лахденпохья"/>
    <tag k="cladr:suffix" v="Город"/>
    <tag k="int_name" v="Lahdenpohja"/>
    <tag k="is_in" v="Карелия"/>
    <tag k="name" v="Лахденпохья"/>
    <tag k="name:de" v="Lachdenpochja"/>
    <tag k="name:en" v="Lakhdenpokhya"/>
    <tag k="name:fi" v="Lahdenpohja"/>
    <tag k="name:ru" v="Лахденпохья"/>
    <tag k="old_name" v="Сиеклахти"/>
    <tag k="place" v="town"/>
    <tag k="wikipedia:en" v="http://en.wikipedia.org/wiki/Lakhdenpokhya"/>
  </node>
  <node id="69401399" version="13" timestamp="2011-06-13T13:59:51Z" uid="39040" user="Dinamik" changeset="8426759" lat="61.5206949" lon="30.1949615">
    <tag k="addr:country" v="RU"/>
    <tag k="addr:district" v="Лахденпохский район"/>
    <tag k="addr:postcode" v="186730"/>
    <tag k="addr:region" v="Карелия республика"/>
    <tag k="cladr:code" v="1000600100000"/>
    <tag k="cladr:name" v="Лахденпохья"/>
    <tag k="cladr:suffix" v="Город"/>
    <tag k="int_name" v="Lahdenpohja"/>
    <tag k="is_in" v="Карелия"/>
    <tag k="name" v="Лахденпохья"/>
    <tag k="name:de" v="Lachdenpochja"/>
    <tag k="name:en" v="Lakhdenpokhya"/>
    <tag k="name:fi" v="Lahdenpohja"/>
    <tag k="name:ru" v="Лахденпохья"/>
    <tag k="old_name" v="Сиеклахти"/>
    <tag k="place" v="town"/>
    <tag k="population" v="8124"/>
    <tag k="wikipedia:en" v="http://en.wikipedia.org/wiki/Lakhdenpokhya"/>
  </node>
  <node id="69401399" version="14" timestamp="2011-08-09T22:36:08Z" uid="297358" user="patashnik" changeset="8972164" lat="61.5206949" lon="30.1949615">
    <tag k="addr:country" v="RU"/>
    <tag k="addr:district" v="Лахденпохский район"/>
    <tag k="addr:region" v="Карелия республика"/>
    <tag k="cladr:code" v="1000600100000"/>
    <tag k="int_name" v="Lahdenpohja"/>
    <tag k="is_in" v="Карелия"/>
    <tag k="name" v="Лахденпохья"/>
    <tag k="name:de" v="Lachdenpochja"/>
    <tag k="name:en" v="Lakhdenpokhya"/>
    <tag k="name:fi" v="Lahdenpohja"/>
    <tag k="name:ru" v="Лахденпохья"/>
    <tag k="old_name" v="Сиеклахти"/>
    <tag k="place" v="town"/>
    <tag k="population" v="8124"/>
    <tag k="wikipedia:en" v="http://en.wikipedia.org/wiki/Lakhdenpokhya"/>
  </node>
  <node id="69401399" version="15" timestamp="2012-01-26T18:46:24Z" uid="367643" user="AlexTheTux" changeset="10505862" lat="61.5206949" lon="30.1949615">
    <tag k="addr:country" v="RU"/>
    <tag k="addr:district" v="Лахденпохский район"/>
    <tag k="addr:region" v="Карелия республика"/>
    <tag k="cladr:code" v="1000600100000"/>
    <tag k="int_name" v="Lahdenpohja"/>
    <tag k="is_in" v="Карелия"/>
    <tag k="name" v="Лахденпохья"/>
    <tag k="name:de" v="Lachdenpochja"/>
    <tag k="name:en" v="Lakhdenpokhya"/>
    <tag k="name:fi" v="Lahdenpohja"/>
    <tag k="name:ru" v="Лахденпохья"/>
    <tag k="old_name" v="Сиеклахти"/>
    <tag k="place" v="town"/>
    <tag k="population" v="8124"/>
    <tag k="wikipedia" v="ru:Лахденпохья"/>
    <tag k="wikipedia:en" v="http://en.wikipedia.org/wiki/Lakhdenpokhya"/>
  </node>
  <node id="69401399" version="16" timestamp="2012-02-03T10:09:53Z" uid="234874" user="-raul" changeset="10574769" lat="61.5206949" lon="30.1949615">
    <tag k="addr:country" v="RU"/>
    <tag k="addr:district" v="Лахденпохский район"/>
    <tag k="addr:region" v="Карелия республика"/>
    <tag k="cladr:code" v="1000600100000"/>
    <tag k="int_name" v="Lahdenpohja"/>
    <tag k="is_in" v="Карелия"/>
    <tag k="name" v="Лахденпохья"/>
    <tag k="name:de" v="Lachdenpochja"/>
    <tag k="name:en" v="Lakhdenpokhya"/>
    <tag k="name:et" v="Lahdenpohja"/>
    <tag k="name:fi" v="Lahdenpohja"/>
    <tag k="name:ru" v="Лахденпохья"/>
    <tag k="old_name" v="Сиеклахти"/>
    <tag k="place" v="town"/>
    <tag k="population" v="8124"/>
    <tag k="wikipedia" v="ru:Лахденпохья"/>
    <tag k="wikipedia:en" v="http://en.wikipedia.org/wiki/Lakhdenpokhya"/>
  </node>
  <node id="69401441" version="6" timestamp="2010-06-06T21:57:07Z" uid="107674" user="GeoCounter" changeset="4923314" lat="50.0898671" lon="8.5731711">
    <tag k="maxspeed" v="50"/>
  </node>
  <node id="69401441" version="7" timestamp="2010-06-16T11:44:08Z" uid="94353" user="Fips" changeset="4999863" lat="50.0898671" lon="8.5731711"/>
  <node id="69401441" version="8" timestamp="2011-01-22T11:50:31Z" uid="8464" user="MichaH" changeset="7049329" lat="50.0900338" lon="8.5730736"/>
  <node id="69401443" version="5" timestamp="2010-06-06T21:57:17Z" uid="107674" user="GeoCounter" changeset="4923314" lat="50.0901447" lon="8.5723738"/>
  <node id="69401444" version="4" timestamp="2010-06-06T21:57:20Z" uid="107674" user="GeoCounter" changeset="4923314" lat="50.0900566" lon="8.5726485"/>
  <node id="69401446" version="4" timestamp="2010-06-06T21:57:24Z" uid="107674" user="GeoCounter" changeset="4923314" lat="50.089908" lon="8.5730261"/>
  <node id="69401446" version="5" timestamp="2011-01-22T11:47:27Z" uid="8464" user="MichaH" changeset="7049329" lat="50.0900352" lon="8.5729235"/>
  <node id="69401621" version="3" timestamp="2010-06-06T21:57:26Z" uid="107674" user="GeoCounter" changeset="4923314" lat="50.0904696" lon="8.5715584"/>
  <node id="69402208" version="4" timestamp="2010-06-06T21:57:24Z" uid="107674" user="GeoCounter" changeset="4923314" lat="50.0896326" lon="8.5705542"/>
  <node id="69402208" version="5" timestamp="2010-06-23T19:52:15Z" uid="31244" user="ggezz" changeset="5061487" lat="50.0897767" lon="8.5707345"/>
  <node id="69402376" version="3" timestamp="2010-06-06T21:57:23Z" uid="107674" user="GeoCounter" changeset="4923314" lat="50.0898143" lon="8.5702452"/>
  <node id="69402376" version="4" timestamp="2010-06-23T19:52:14Z" uid="31244" user="ggezz" changeset="5061487" lat="50.0898077" lon="8.5703805"/>
  <node id="69403409" version="5" timestamp="2009-03-21T22:22:09Z" uid="34428" user="usm78-gis" changeset="844942" lat="61.2349913" lon="29.6938316">
    <tag k="created_by" v="Potlatch 0.10f"/>
    <tag k="is_in" v="Карелия"/>
    <tag k="name" v="Хийтола"/>
    <tag k="name:fi" v="Hiitola"/>
    <tag k="place" v="town"/>
  </node>
  <node id="69403409" version="6" timestamp="2009-03-21T22:22:39Z" uid="34428" user="usm78-gis" changeset="844942" lat="61.2349913" lon="29.6938316">
    <tag k="created_by" v="Potlatch 0.10f"/>
    <tag k="is_in" v="Карелия"/>
    <tag k="is_in:fi" v="Karjala"/>
    <tag k="name" v="Хийтола"/>
    <tag k="name:fi" v="Hiitola"/>
    <tag k="place" v="town"/>
  </node>
  <node id="69403409" version="7" timestamp="2010-03-08T12:22:17Z" uid="30590" user="KekcuHa" changeset="4071248" lat="61.2349913" lon="29.6938316">
    <tag k="addr:country" v="RU"/>
    <tag k="addr:district" v="Лахденпохский район"/>
    <tag k="addr:postcode" v="186700"/>
    <tag k="addr:region" v="Карелия республика"/>
    <tag k="cladr:code" v="1000600000300"/>
    <tag k="cladr:name" v="Хийтола"/>
    <tag k="cladr:suffix" v="Поселок"/>
    <tag k="is_in" v="Карелия"/>
    <tag k="is_in:fi" v="Karjala"/>
    <tag k="name" v="Хийтола"/>
    <tag k="name:fi" v="Hiitola"/>
    <tag k="place" v="town"/>
  </node>
  <node id="69403409" version="8" timestamp="2010-04-24T11:54:06Z" uid="187085" user="must1n" changeset="4511237" lat="61.2349913" lon="29.6938316">
    <tag k="addr:country" v="RU"/>
    <tag k="addr:district" v="Лахденпохский район"/>
    <tag k="addr:postcode" v="186700"/>
    <tag k="addr:region" v="Карелия республика"/>
    <tag k="cladr:code" v="1000600000300"/>
    <tag k="cladr:name" v="Хийтола"/>
    <tag k="cladr:suffix" v="Поселок"/>
    <tag k="is_in" v="Карелия"/>
    <tag k="is_in:fi" v="Karjala"/>
    <tag k="name" v="Хийтола"/>
    <tag k="name:fi" v="Hiitola"/>
    <tag k="name:ru" v="Хийтола"/>
    <tag k="place" v="town"/>
  </node>
  <node id="69403409" version="9" timestamp="2011-06-01T15:20:16Z" uid="39040" user="Dinamik" changeset="8311180" lat="61.2349914" lon="29.6938315">
    <tag k="addr:country" v="RU"/>
    <tag k="addr:district" v="Лахденпохский район"/>
    <tag k="addr:postcode" v="186700"/>
    <tag k="addr:region" v="Карелия республика"/>
    <tag k="cladr:code" v="1000600000300"/>
    <tag k="cladr:name" v="Хийтола"/>
    <tag k="cladr:suffix" v="Поселок"/>
    <tag k="is_in" v="Карелия"/>
    <tag k="is_in:fi" v="Karjala"/>
    <tag k="name" v="Хийтола"/>
    <tag k="name:fi" v="Hiitola"/>
    <tag k="name:ru" v="Хийтола"/>
    <tag k="place" v="town"/>
    <tag k="population" v="730"/>
  </node>
  <node id="69403409" version="10" timestamp="2011-08-09T22:36:08Z" uid="297358" user="patashnik" changeset="8972164" lat="61.2349914" lon="29.6938315">
    <tag k="addr:country" v="RU"/>
    <tag k="addr:district" v="Лахденпохский район"/>
    <tag k="addr:region" v="Карелия республика"/>
    <tag k="cladr:code" v="1000600000300"/>
    <tag k="is_in" v="Карелия"/>
    <tag k="is_in:fi" v="Karjala"/>
    <tag k="name" v="Хийтола"/>
    <tag k="name:fi" v="Hiitola"/>
    <tag k="name:ru" v="Хийтола"/>
    <tag k="place" v="town"/>
    <tag k="population" v="730"/>
  </node>
  <node id="69403409" version="11" timestamp="2012-01-26T18:46:19Z" uid="367643" user="AlexTheTux" changeset="10505862" lat="61.2349914" lon="29.6938315">
    <tag k="addr:country" v="RU"/>
    <tag k="addr:district" v="Лахденпохский район"/>
    <tag k="addr:region" v="Карелия республика"/>
    <tag k="cladr:code" v="1000600000300"/>
    <tag k="is_in" v="Карелия"/>
    <tag k="is_in:fi" v="Karjala"/>
    <tag k="name" v="Хийтола"/>
    <tag k="name:en" v="Khiytola"/>
    <tag k="name:fi" v="Hiitola"/>
    <tag k="name:ru" v="Хийтола"/>
    <tag k="place" v="town"/>
    <tag k="population" v="730"/>
    <tag k="wikipedia" v="ru:Хийтола"/>
  </node>
  <node id="69403409" version="12" timestamp="2012-02-03T10:09:51Z" uid="234874" user="-raul" changeset="10574769" lat="61.2349914" lon="29.6938315">
    <tag k="addr:country" v="RU"/>
    <tag k="addr:district" v="Лахденпохский район"/>
    <tag k="addr:region" v="Карелия республика"/>
    <tag k="cladr:code" v="1000600000300"/>
    <tag k="is_in" v="Карелия"/>
    <tag k="is_in:fi" v="Karjala"/>
    <tag k="name" v="Хийтола"/>
    <tag k="name:en" v="Khiytola"/>
    <tag k="name:et" v="Hiitola"/>
    <tag k="name:fi" v="Hiitola"/>
    <tag k="name:ru" v="Хийтола"/>
    <tag k="place" v="town"/>
    <tag k="population" v="730"/>
    <tag k="wikipedia" v="ru:Хийтола"/>
  </node>
  <node id="69407280" version="1" timestamp="2007-10-13T22:34:06Z" uid="14179" user="oakland" changeset="168042" lat="38.7161588" lon="-9.130201"/>
  <node id="69407280" version="2" timestamp="2007-10-20T16:35:02Z" uid="8328" user="benpre" changeset="267100" lat="38.7161588" lon="-9.130201"/>
  <node id="69407284" version="1" timestamp="2007-10-13T22:34:06Z" uid="14179" user="oakland" changeset="168042" lat="38.7161588" lon="-9.130201"/>
  <node id="69407284" version="2" timestamp="2007-10-20T16:35:02Z" uid="8328" user="benpre" changeset="267100" lat="38.7161588" lon="-9.130201"/>
  <node id="69409219" version="1" timestamp="2007-10-13T22:35:18Z" uid="6454" user="B10xxx" changeset="154656" lat="50.5131966" lon="10.0742928">
    <tag k="amenity" v="parking"/>
    <tag k="created_by" v="JOSM"/>
  </node>
  <node id="69409219" version="2" timestamp="2010-12-21T17:03:13Z" uid="290680" user="wheelmap_visitor" changeset="6727053" lat="50.5131966" lon="10.0742928">
    <tag k="amenity" v="parking"/>
    <tag k="created_by" v="JOSM"/>
    <tag k="wheelchair" v="limited"/>
  </node>
  <node id="69409219" version="3" timestamp="2012-02-29T22:16:43Z" uid="302852" user="be-ju" changeset="10832958" lat="50.5131966" lon="10.0742928">
    <tag k="amenity" v="parking"/>
    <tag k="wheelchair" v="limited"/>
  </node>
  <node id="69409303" version="3" timestamp="2008-07-06T09:46:28Z" uid="6975" user="ulfl" changeset="407266" lat="47.4896673" lon="8.7246902">
    <tag k="leisure" v="miniature_golf"/>
    <tag k="name" v="Minigolfanlage Breite"/>
  </node>
  <node id="69409303" version="4" timestamp="2010-04-25T05:44:11Z" uid="178186" user="mdk" changeset="4517803" lat="47.4896673" lon="8.7246902">
    <tag k="leisure" v="miniature_golf"/>
    <tag k="name" v="Minigolfanlage Breite"/>
  </node>
  <node id="69409306" version="3" timestamp="2008-07-06T09:46:29Z" uid="6975" user="ulfl" changeset="407266" lat="47.520077" lon="8.7175698">
    <tag k="leisure" v="miniature_golf"/>
    <tag k="name" v="Minigolfanlage Schützenweiher"/>
  </node>
  <node id="69409306" version="4" timestamp="2010-09-26T23:19:30Z" uid="178186" user="mdk" changeset="5886904" lat="47.520077" lon="8.7175698">
    <tag k="leisure" v="miniature_golf"/>
    <tag k="name" v="Minigolfanlage Schützenweiher"/>
  </node>
  <node id="69409308" version="3" timestamp="2008-02-16T18:56:52Z" uid="6975" user="ulfl" changeset="141861" lat="47.5034213" lon="8.7713784">
    <tag k="name" v="Coop Hegi"/>
    <tag k="shop" v="supermarket"/>
  </node>
  <node id="69409308" version="4" timestamp="2011-05-09T13:11:47Z" uid="178186" user="mdk" changeset="8092679" lat="47.5034213" lon="8.7713784"/>
  <node id="69401399" version="17" timestamp="2012-07-21T00:52:53Z" uid="722137" user="OSMF Redaction Account" changeset="12397485" lat="61.5206949" lon="30.1949616">
    <tag k="addr:country" v="RU"/>
    <tag k="addr:district" v="Лахденпохский район"/>
    <tag k="addr:region" v="Карелия республика"/>
    <tag k="cladr:code" v="1000600100000"/>
    <tag k="int_name" v="Lahdenpohja"/>
    <tag k="is_in" v="Карелия"/>
    <tag k="name" v="Лахденпохья"/>
    <tag k="name:de" v="Lachdenpochja"/>
    <tag k="name:en" v="Lakhdenpokhya"/>
    <tag k="name:et" v="Lahdenpohja"/>
    <tag k="name:ru" v="Лахденпохья"/>
    <tag k="old_name" v="Сиеклахти"/>
    <tag k="population" v="8124"/>
    <tag k="wikipedia" v="ru:Лахденпохья"/>
    <tag k="wikipedia:en" v="http://en.wikipedia.org/wiki/Lakhdenpokhya"/>
  </node>
  <node id="69401441" version="9" timestamp="2012-07-25T07:27:40Z" uid="8464" user="MichaH" changeset="12482473" lat="50.0900084" lon="8.5730549">
    <tag k="highway" v="crossing"/>
  </node>
  <node id="69401443" version="6" timestamp="2012-07-19T06:28:45Z" uid="722137" user="OSMF Redaction Account" changeset="12310388" lat="50.0901447" lon="8.5723738"/>
  <node id="69401444" version="5" timestamp="2012-07-19T06:28:45Z" uid="722137" user="OSMF Redaction Account" changeset="12310388" lat="50.0900566" lon="8.5726485"/>
  <node id="69401446" version="6" timestamp="2012-07-25T07:27:40Z" uid="8464" user="MichaH" changeset="12482473" lat="50.0899948" lon="8.5728768"/>
  <node id="69401621" version="4" timestamp="2012-07-19T06:28:46Z" uid="722137" user="OSMF Redaction Account" changeset="12310388" lat="50.0904696" lon="8.5715584"/>
  <node id="69403409" version="13" timestamp="2012-07-20T09:29:39Z" uid="722137" user="OSMF Redaction Account" changeset="12369939" lat="61.2349914" lon="29.6938315"/>
  <node id="69409219" version="4" timestamp="2012-07-19T07:09:18Z" uid="722137" user="OSMF Redaction Account" changeset="12311152" lat="50.5131966" lon="10.0742928"/>
</osm>
