<?xml version='1.0' encoding='UTF-8'?>
<osm version="0.6" generator="libosmium/2.20.0">
  <node id="698890115" version="2" timestamp="2010-07-29T09:39:14Z" uid="74617" user="JohnSmith" changeset="5344848" lat="53.6171126" lon="10.0430066">
    <tag k="amenity" v="emergency_phone"/>
    <tag k="emergency" v="phone"/>
  </node>
  <node id="698892049" version="1" timestamp="2010-04-16T18:41:47Z" uid="163746" user="anti_bot-nonsense" changeset="4441330" lat="48.4467226" lon="13.0886469"/>
  <node id="698892049" version="2" timestamp="2011-09-13T07:55:49Z" uid="149876" user="dbusse" changeset="9287200" lat="48.4467226" lon="13.0886469"/>
  <node id="698892067" version="1" timestamp="2010-04-16T18:41:48Z" uid="163746" user="anti_bot-nonsense" changeset="4441330" lat="48.4464305" lon="13.0894885"/>
  <node id="698892067" version="2" timestamp="2011-09-13T07:55:49Z" uid="149876" user="dbusse" changeset="9287200" lat="48.4464305" lon="13.0894885"/>
  <node id="698892087" version="1" timestamp="2010-04-16T18:41:48Z" uid="163746" user="anti_bot-nonsense" changeset="4441330" lat="48.4467862" lon="13.0885989"/>
  <node id="698892087" version="2" timestamp="2011-09-13T07:55:49Z" uid="149876" user="dbusse" changeset="9287200" lat="48.4467862" lon="13.0885989"/>
  <node id="698892102" version="1" timestamp="2010-04-16T18:41:49Z" uid="163746" user="anti_bot-nonsense" changeset="4441330" lat="48.4464478" lon="13.0892138"/>
  <node id="698892102" version="2" timestamp="2011-09-13T07:55:49Z" uid="149876" user="dbusse" changeset="9287200" lat="48.4464478" lon="13.0892138"/>
  <node id="698892115" version="5" timestamp="2011-04-20T11:19:32Z" uid="115477" user="wowik" changeset="7915253" lat="55.7545696" lon="37.5884869">
    <tag k="amenity" v="embassy"/>
    <tag k="country" v="MN"/>
    <tag k="name" v="посольство Монголии"/>
    <tag k="name:en" v="embassy of Mongolia"/>
    <tag k="name:ru" v="посольство Монголии"/>
  </node>
  <node id="698892119" version="4" timestamp="2011-04-20T11:19:33Z" uid="115477" user="wowik" changeset="7915253" lat="55.7546401" lon="37.5905785">
    <tag k="amenity" v="embassy"/>
    <tag k="country" v="LT"/>
    <tag k="name" v="посольство Литвы"/>
    <tag k="name:en" v="Embassy of Lithuania"/>
    <tag k="name:ru" v="посольство Литвы"/>
  </node>
  <node id="698892122" version="5" timestamp="2011-04-20T11:19:33Z" uid="115477" user="wowik" changeset="7915253" lat="55.7594139" lon="37.5865131">
    <tag k="amenity" v="embassy"/>
    <tag k="country" v="TN"/>
    <tag k="name" v="посольство Туниса"/>
    <tag k="name:en" v="Embassy of Tunisia"/>
    <tag k="name:ru" v="посольство Туниса"/>
  </node>
  <node id="698892125" version="4" timestamp="2011-04-20T11:19:33Z" uid="115477" user="wowik" changeset="7915253" lat="55.7596923" lon="37.5882455">
    <tag k="amenity" v="embassy"/>
    <tag k="country" v="TJ"/>
    <tag k="name" v="посольство Таджикистана"/>
    <tag k="name:en" v="Embassy of Tajikistan"/>
    <tag k="name:ru" v="посольство Таджикистана"/>
  </node>
  <node id="698892127" version="4" timestamp="2011-04-05T08:32:40Z" uid="115477" user="wowik" changeset="7772261" lat="55.7565223" lon="37.5906563">
    <tag k="amenity" v="embassy"/>
    <tag k="country" v="IS"/>
    <tag k="name" v="посольство Исландии"/>
    <tag k="name:en" v="Embassy of Iceland"/>
  </node>
  <node id="698892130" version="5" timestamp="2011-04-05T08:23:25Z" uid="115477" user="wowik" changeset="7772261" lat="55.75819" lon="37.5933175">
    <tag k="amenity" v="embassy"/>
    <tag k="country" v="NG"/>
    <tag k="name" v="посольство Нигерии"/>
    <tag k="name:en" v="Embassy of Nigeria"/>
  </node>
  <node id="698892132" version="1" timestamp="2010-04-16T18:41:49Z" uid="163746" user="anti_bot-nonsense" changeset="4441330" lat="48.4468709" lon="13.0884401"/>
  <node id="698892132" version="2" timestamp="2011-09-13T07:55:49Z" uid="149876" user="dbusse" changeset="9287200" lat="48.4468709" lon="13.0884401"/>
  <node id="698892133" version="4" timestamp="2011-04-05T08:23:25Z" uid="115477" user="wowik" changeset="7772261" lat="55.7588846" lon="37.5942958">
    <tag k="amenity" v="embassy"/>
    <tag k="country" v="ZA"/>
    <tag k="name" v="посольство ЮАР"/>
    <tag k="name:en" v="Embassy of South Africa"/>
    <tag k="official_name" v="посольство Южно-Африканской Республики"/>
  </node>
  <node id="698892135" version="5" timestamp="2011-04-20T11:27:09Z" uid="115477" user="wowik" changeset="7915253" lat="55.7645601" lon="37.5883048">
    <tag k="amenity" v="embassy"/>
    <tag k="country" v="PK"/>
    <tag k="name" v="посольство Пакистана"/>
    <tag k="name:en" v="Embassy of Pakistan"/>
    <tag k="name:ru" v="посольство Пакистана"/>
  </node>
  <node id="698892139" version="5" timestamp="2011-04-20T11:27:10Z" uid="115477" user="wowik" changeset="7915253" lat="55.7659049" lon="37.5975043">
    <tag k="amenity" v="embassy"/>
    <tag k="country" v="JO"/>
    <tag k="name" v="посольство Иордании"/>
    <tag k="name:en" v="Embassy of Jordan"/>
    <tag k="name:ru" v="посольство Иордании"/>
  </node>
  <node id="698892142" version="5" timestamp="2011-04-20T11:27:09Z" uid="115477" user="wowik" changeset="7915253" lat="55.7661049" lon="37.597969">
    <tag k="amenity" v="embassy"/>
    <tag k="country" v="UG"/>
    <tag k="name" v="посольство Уганды"/>
    <tag k="name:en" v="Embassy of Uganda"/>
    <tag k="name:ru" v="посольство Уганды"/>
  </node>
  <node id="698892159" version="1" timestamp="2010-04-16T18:41:50Z" uid="163746" user="anti_bot-nonsense" changeset="4441330" lat="48.446471" lon="13.089144"/>
  <node id="698892159" version="2" timestamp="2011-09-13T07:55:49Z" uid="149876" user="dbusse" changeset="9287200" lat="48.446471" lon="13.089144"/>
  <node id="698892185" version="1" timestamp="2010-04-16T18:41:50Z" uid="163746" user="anti_bot-nonsense" changeset="4441330" lat="48.446426" lon="13.0900561"/>
  <node id="698892185" version="2" timestamp="2011-09-13T07:55:49Z" uid="149876" user="dbusse" changeset="9287200" lat="48.446426" lon="13.0900561"/>
  <node id="698892197" version="1" timestamp="2010-04-16T18:41:51Z" uid="163746" user="anti_bot-nonsense" changeset="4441330" lat="48.4465924" lon="13.0888998"/>
  <node id="698892197" version="2" timestamp="2011-09-13T07:55:49Z" uid="149876" user="dbusse" changeset="9287200" lat="48.4465924" lon="13.0888998"/>
  <node id="698892207" version="1" timestamp="2010-04-16T18:41:51Z" uid="163746" user="anti_bot-nonsense" changeset="4441330" lat="48.4464681" lon="13.0895321"/>
  <node id="698892207" version="2" timestamp="2011-09-13T07:55:49Z" uid="149876" user="dbusse" changeset="9287200" lat="48.4464681" lon="13.0895321"/>
  <node id="698890115" version="3" timestamp="2012-07-17T12:29:54Z" uid="722137" user="OSMF Redaction Account" changeset="12265198" lat="53.6171126" lon="10.0430066">
    <tag k="amenity" v="emergency_phone"/>
  </node>
</osm>
