<?xml version='1.0' encoding='UTF-8'?>
<osm version="0.6" generator="libosmium/2.20.0">
  <node id="700324094" version="2" timestamp="2010-06-08T05:17:10Z" uid="6975" user="ulfl" changeset="4934294" lat="47.9613677" lon="7.2975613">
    <tag k="addr:city" v="Rouffach"/>
    <tag k="addr:country" v="FR"/>
    <tag k="addr:housenumber" v="1"/>
    <tag k="addr:postcode" v="68250"/>
    <tag k="addr:street" v="rue Poincaré"/>
    <tag k="name" v="Hostellerie A la Ville de Lyon"/>
    <tag k="phone" v="0389496551"/>
    <tag k="source" v="local knowledge"/>
    <tag k="tourism" v="hotel"/>
    <tag k="url" v="www.alavilledelyon.eu"/>
  </node>
  <node id="700324094" version="3" timestamp="2010-12-05T09:12:07Z" uid="196894" user="etiennerando" changeset="6547872" lat="47.9613677" lon="7.2975613">
    <tag k="addr:city" v="Rouffach"/>
    <tag k="addr:country" v="FR"/>
    <tag k="addr:housenumber" v="1"/>
    <tag k="addr:postcode" v="68250"/>
    <tag k="addr:street" v="Rue Poincaré"/>
    <tag k="name" v="Hostellerie A la Ville de Lyon"/>
    <tag k="phone" v="0389496551"/>
    <tag k="source" v="local knowledge"/>
    <tag k="tourism" v="hotel"/>
    <tag k="url" v="www.alavilledelyon.eu"/>
  </node>
  <node id="700324094" version="4" timestamp="2012-03-02T22:32:01Z" uid="11374" user="q_un_go" changeset="10853129" lat="47.9613677" lon="7.2975613"/>
</osm>
