<?xml version='1.0' encoding='UTF-8'?>
<osm version="0.6" generator="libosmium/2.20.0">
  <node id="702702183" version="1" timestamp="2010-04-20T17:22:52Z" uid="59758" user="rendle" changeset="4479042" lat="51.1733442" lon="4.151205"/>
  <node id="702702183" version="2" timestamp="2010-04-20T17:23:17Z" uid="59758" user="rendle" changeset="4479042" lat="51.1733307" lon="4.1512211"/>
  <node id="702702183" version="3" timestamp="2012-01-17T23:33:39Z" uid="138772" user="lodde1949" changeset="10423452" lat="51.1733307" lon="4.1512211"/>
  <node id="702702186" version="1" timestamp="2010-04-20T17:22:52Z" uid="59758" user="rendle" changeset="4479042" lat="51.1732769" lon="4.1513552"/>
  <node id="702702186" version="2" timestamp="2012-01-17T23:33:39Z" uid="138772" user="lodde1949" changeset="10423452" lat="51.1732769" lon="4.1513552"/>
  <node id="702704788" version="1" timestamp="2010-04-20T17:24:09Z" uid="115477" user="wowik" changeset="4479390" lat="55.8666572" lon="37.4790691"/>
  <node id="702704788" version="2" timestamp="2010-04-21T09:17:09Z" uid="115477" user="wowik" changeset="4484640" lat="55.8666664" lon="37.4790602"/>
  <node id="702704788" version="3" timestamp="2012-02-04T22:18:42Z" uid="316868" user="LexIgnatov" changeset="10589128" lat="55.8666275" lon="37.4792515"/>
  <node id="702704791" version="1" timestamp="2010-04-20T17:24:09Z" uid="115477" user="wowik" changeset="4479390" lat="55.8668836" lon="37.4846554"/>
  <node id="702704791" version="2" timestamp="2010-04-21T09:11:11Z" uid="115477" user="wowik" changeset="4484640" lat="55.8668862" lon="37.4846848"/>
  <node id="702704791" version="3" timestamp="2012-02-04T22:18:42Z" uid="316868" user="LexIgnatov" changeset="10589128" lat="55.8668241" lon="37.484595"/>
  <node id="702704792" version="1" timestamp="2010-04-20T17:24:09Z" uid="115477" user="wowik" changeset="4479390" lat="55.8667993" lon="37.4847037"/>
  <node id="702704802" version="1" timestamp="2010-04-20T17:24:09Z" uid="115477" user="wowik" changeset="4479390" lat="55.8653364" lon="37.4805516"/>
  <node id="702705451" version="1" timestamp="2010-04-20T17:24:34Z" uid="59758" user="rendle" changeset="4479042" lat="51.1740807" lon="4.1512723">
    <tag k="amenity" v="restaurant"/>
    <tag k="name" v="Benny&apos;s"/>
  </node>
  <node id="702705451" version="2" timestamp="2012-02-10T14:56:07Z" uid="138772" user="lodde1949" changeset="10644099" lat="51.1740807" lon="4.1512723"/>
  <node id="702705959" version="2" timestamp="2010-07-28T20:12:16Z" uid="74617" user="JohnSmith" changeset="5339329" lat="52.2603733" lon="14.660559">
    <tag k="emergency" v="fire_hydrant"/>
    <tag k="name" v="Hydrant"/>
  </node>
  <node id="702705959" version="3" timestamp="2010-07-30T17:42:49Z" uid="74617" user="JohnSmith" changeset="5356742" lat="52.2603733" lon="14.660559">
    <tag k="amenity" v="fire_hydrant"/>
    <tag k="emergency" v="fire_hydrant"/>
    <tag k="name" v="Hydrant"/>
  </node>
  <node id="702705959" version="4" timestamp="2010-08-29T18:16:52Z" uid="163437" user="r-michael" changeset="5629063" lat="52.2603733" lon="14.660559">
    <tag k="emergency" v="fire_hydrant"/>
    <tag k="name" v="Hydrant"/>
  </node>
  <node id="702705959" version="5" timestamp="2010-09-18T14:02:16Z" uid="163437" user="r-michael" changeset="5811816" lat="52.2603733" lon="14.660559">
    <tag k="emergency" v="fire_hydrant"/>
    <tag k="fire_hydrant:type" v="Überflurhydrant"/>
    <tag k="name" v="Hydrant"/>
  </node>
  <node id="702705959" version="6" timestamp="2010-10-19T08:57:38Z" uid="26348" user="Rodolphe Quiédeville" changeset="6094728" lat="52.2603733" lon="14.660559">
    <tag k="amenity" v="fire_hydrant"/>
    <tag k="emergency" v="fire_hydrant"/>
    <tag k="fire_hydrant:type" v="Überflurhydrant"/>
    <tag k="name" v="Hydrant"/>
  </node>
  <node id="702705959" version="7" timestamp="2011-01-21T07:58:06Z" uid="124837" user="swus" changeset="7037690" lat="52.2603733" lon="14.660559">
    <tag k="amenity" v="fire_hydrant"/>
    <tag k="emergency" v="fire_hydrant"/>
    <tag k="fire_hydrant:type" v="pillar"/>
    <tag k="name" v="Hydrant"/>
  </node>
  <node id="702705959" version="8" timestamp="2011-03-16T15:10:19Z" uid="163437" user="r-michael" changeset="7576599" lat="52.2603733" lon="14.660559">
    <tag k="amenity" v="fire_hydrant"/>
    <tag k="emergency" v="fire_hydrant"/>
    <tag k="fire_hydrant:type" v="Überflurhydrant"/>
    <tag k="name" v="Hydrant"/>
  </node>
  <node id="702705959" version="9" timestamp="2012-03-27T18:23:45Z" uid="67540" user="Cobra" changeset="11118954" lat="52.2603733" lon="14.660559">
    <tag k="amenity" v="fire_hydrant"/>
    <tag k="emergency" v="fire_hydrant"/>
    <tag k="fire_hydrant:type" v="Überflurhydrant"/>
    <tag k="name" v="Hydrant"/>
    <tag k="odbl" v="clean"/>
  </node>
  <node id="702706040" version="2" timestamp="2010-07-28T20:05:45Z" uid="74617" user="JohnSmith" changeset="5339329" lat="52.2399796" lon="14.6997322">
    <tag k="emergency" v="fire_hydrant"/>
    <tag k="name" v="Hydrant"/>
  </node>
  <node id="702706040" version="3" timestamp="2010-07-30T17:38:46Z" uid="74617" user="JohnSmith" changeset="5356742" lat="52.2399796" lon="14.6997322">
    <tag k="amenity" v="fire_hydrant"/>
    <tag k="emergency" v="fire_hydrant"/>
    <tag k="name" v="Hydrant"/>
  </node>
  <node id="702706040" version="4" timestamp="2010-08-29T18:16:46Z" uid="163437" user="r-michael" changeset="5629063" lat="52.2399796" lon="14.6997322">
    <tag k="emergency" v="fire_hydrant"/>
    <tag k="name" v="Hydrant"/>
  </node>
  <node id="702706040" version="5" timestamp="2010-09-18T14:02:14Z" uid="163437" user="r-michael" changeset="5811816" lat="52.2399796" lon="14.6997322">
    <tag k="emergency" v="fire_hydrant"/>
    <tag k="fire_hydrant:type" v="Überflurhydrant"/>
    <tag k="name" v="Hydrant"/>
  </node>
  <node id="702706040" version="6" timestamp="2010-10-19T08:58:05Z" uid="26348" user="Rodolphe Quiédeville" changeset="6094728" lat="52.2399796" lon="14.6997322">
    <tag k="amenity" v="fire_hydrant"/>
    <tag k="emergency" v="fire_hydrant"/>
    <tag k="fire_hydrant:type" v="Überflurhydrant"/>
    <tag k="name" v="Hydrant"/>
  </node>
  <node id="702706040" version="7" timestamp="2011-01-21T07:57:57Z" uid="124837" user="swus" changeset="7037690" lat="52.2399796" lon="14.6997322">
    <tag k="amenity" v="fire_hydrant"/>
    <tag k="emergency" v="fire_hydrant"/>
    <tag k="fire_hydrant:type" v="pillar"/>
    <tag k="name" v="Hydrant"/>
  </node>
  <node id="702706040" version="8" timestamp="2011-03-16T15:10:13Z" uid="163437" user="r-michael" changeset="7576599" lat="52.2399796" lon="14.6997322">
    <tag k="amenity" v="fire_hydrant"/>
    <tag k="emergency" v="fire_hydrant"/>
    <tag k="fire_hydrant:type" v="Überflurhydrant"/>
    <tag k="name" v="Hydrant"/>
  </node>
  <node id="702706040" version="9" timestamp="2011-05-10T16:17:30Z" uid="163437" user="r-michael" changeset="8103706" lat="52.2399745" lon="14.6997438">
    <tag k="amenity" v="fire_hydrant"/>
    <tag k="emergency" v="fire_hydrant"/>
    <tag k="fire_hydrant:type" v="Überflurhydrant"/>
    <tag k="name" v="Hydrant"/>
  </node>
  <node id="702706040" version="10" timestamp="2012-03-27T18:23:44Z" uid="67540" user="Cobra" changeset="11118954" lat="52.2399745" lon="14.6997438">
    <tag k="amenity" v="fire_hydrant"/>
    <tag k="emergency" v="fire_hydrant"/>
    <tag k="fire_hydrant:type" v="Überflurhydrant"/>
    <tag k="name" v="Hydrant"/>
    <tag k="odbl" v="clean"/>
  </node>
  <node id="702704788" version="4" timestamp="2012-08-12T19:39:01Z" uid="65083" user="deep125" changeset="12705975" lat="55.8666264" lon="37.4792313"/>
  <node id="702704792" version="2" timestamp="2012-04-07T07:25:14Z" uid="384084" user="Kostik" changeset="11210089" lat="55.8668011" lon="37.4847233"/>
  <node id="702704792" version="3" timestamp="2012-08-31T04:46:23Z" uid="760215" user="pnorman redaction revert" changeset="12926083" lat="55.8668011" lon="37.4847233"/>
  <node id="702704802" version="2" timestamp="2012-04-07T07:25:14Z" uid="384084" user="Kostik" changeset="11210089" lat="55.8653382" lon="37.4805712"/>
  <node id="702704802" version="3" timestamp="2012-08-31T04:46:23Z" uid="760215" user="pnorman redaction revert" changeset="12926083" lat="55.8653382" lon="37.4805712"/>
  <node id="702705959" version="10" timestamp="2012-05-18T09:13:11Z" uid="118134" user="scai" changeset="11630961" lat="52.2603733" lon="14.660559">
    <tag k="amenity" v="fire_hydrant"/>
    <tag k="emergency" v="fire_hydrant"/>
    <tag k="fire_hydrant:type" v="pillar"/>
    <tag k="odbl" v="clean"/>
  </node>
  <node id="702705959" version="11" timestamp="2012-05-18T14:38:28Z" uid="163437" user="r-michael" changeset="11633733" lat="52.2603733" lon="14.660559">
    <tag k="emergency" v="fire_hydrant"/>
    <tag k="fire_hydrant:type" v="Überflurhydrant"/>
    <tag k="name" v="Hydrant"/>
  </node>
  <node id="702705959" version="12" timestamp="2012-07-10T11:36:53Z" uid="163437" user="r-michael" changeset="12172479" lat="52.2603733" lon="14.660559">
    <tag k="de:fire_hydrant:type" v="Überflurhydrant"/>
    <tag k="emergency" v="fire_hydrant"/>
    <tag k="fire_hydrant:type" v="pillar"/>
    <tag k="name" v="Hydrant"/>
  </node>
  <node id="702705959" version="13" timestamp="2012-07-24T11:21:08Z" uid="722137" user="OSMF Redaction Account" changeset="12464204" lat="52.2603733" lon="14.660559">
    <tag k="de:fire_hydrant:type" v="Überflurhydrant"/>
    <tag k="fire_hydrant:type" v="pillar"/>
    <tag k="name" v="Hydrant"/>
  </node>
  <node id="702705959" version="14" timestamp="2012-07-24T14:13:10Z" uid="163437" user="r-michael" changeset="12467533" lat="52.2603733" lon="14.660559">
    <tag k="de:fire_hydrant:type" v="Überflurhydrant"/>
    <tag k="emergency" v="fire_hydrant"/>
    <tag k="fire_hydrant:type" v="pillar"/>
    <tag k="name" v="Hydrant"/>
  </node>
  <node id="702706040" version="11" timestamp="2012-05-18T09:13:12Z" uid="118134" user="scai" changeset="11630961" lat="52.2399745" lon="14.6997438">
    <tag k="amenity" v="fire_hydrant"/>
    <tag k="emergency" v="fire_hydrant"/>
    <tag k="fire_hydrant:type" v="pillar"/>
    <tag k="odbl" v="clean"/>
  </node>
  <node id="702706040" version="12" timestamp="2012-05-18T14:38:27Z" uid="163437" user="r-michael" changeset="11633733" lat="52.2399745" lon="14.6997438">
    <tag k="emergency" v="fire_hydrant"/>
    <tag k="fire_hydrant:type" v="Überflurhydrant"/>
    <tag k="name" v="Hydrant"/>
  </node>
  <node id="702706040" version="13" timestamp="2012-07-10T11:36:53Z" uid="163437" user="r-michael" changeset="12172479" lat="52.2399745" lon="14.6997438">
    <tag k="de:fire_hydrant:type" v="Überflurhydrant"/>
    <tag k="emergency" v="fire_hydrant"/>
    <tag k="fire_hydrant:type" v="pillar"/>
    <tag k="name" v="Hydrant"/>
  </node>
  <node id="702706040" version="14" timestamp="2012-07-24T11:26:29Z" uid="722137" user="OSMF Redaction Account" changeset="12464282" lat="52.2399745" lon="14.6997438">
    <tag k="de:fire_hydrant:type" v="Überflurhydrant"/>
    <tag k="fire_hydrant:type" v="pillar"/>
    <tag k="name" v="Hydrant"/>
  </node>
  <node id="702706040" version="15" timestamp="2012-07-24T14:13:10Z" uid="163437" user="r-michael" changeset="12467533" lat="52.2399745" lon="14.6997438">
    <tag k="de:fire_hydrant:type" v="Überflurhydrant"/>
    <tag k="emergency" v="fire_hydrant"/>
    <tag k="fire_hydrant:type" v="pillar"/>
    <tag k="name" v="Hydrant"/>
  </node>
</osm>
