<?xml version='1.0' encoding='UTF-8'?>
<osm version="0.6" generator="libosmium/2.20.0">
  <node id="703430462" version="1" timestamp="2010-04-21T19:45:14Z" uid="185286" user="rcpao" changeset="4489879" lat="33.5639205" lon="-117.7134821">
    <tag k="operator" v="Walmart"/>
    <tag k="shop" v="department_store"/>
  </node>
  <node id="703430462" version="2" timestamp="2011-11-22T08:42:29Z" uid="229805" user="Jim3535" changeset="9906262" lat="33.5639205" lon="-117.7134821"/>
  <node id="703430509" version="1" timestamp="2010-04-21T19:45:50Z" uid="185286" user="rcpao" changeset="4489879" lat="33.5660705" lon="-117.713128">
    <tag k="name" v="Vons"/>
    <tag k="shop" v="supermarket"/>
  </node>
  <node id="703430509" version="2" timestamp="2011-10-04T19:52:54Z" uid="416346" user="Brian@Brea" changeset="9472806" lat="33.5660705" lon="-117.713128"/>
  <node id="703430652" version="1" timestamp="2010-04-21T19:46:39Z" uid="163896" user="Zbigniew Czernik" changeset="4489829" lat="52.22471" lon="22.72572">
    <tag k="highway" v="stop"/>
    <tag k="name" v="Zasieki"/>
    <tag k="source" v="http://ump.waw.pl/ retrieved 03:50:56 03/31/10 (UMP-Siedlce/src/SIEDLCE.debug.pnt-converted.txt)"/>
  </node>
  <node id="703430652" version="2" timestamp="2010-04-22T08:36:18Z" uid="30632" user="antblant" changeset="4493493" lat="52.22471" lon="22.72572">
    <tag k="highway" v="stop"/>
    <tag k="name" v="Zasieki"/>
    <tag k="source" v="http://ump.waw.pl/ retrieved 03:50:56 03/31/10 (UMP-Siedlce/src/SIEDLCE.debug.pnt-converted.txt)"/>
  </node>
  <node id="703430752" version="1" timestamp="2010-04-21T19:46:45Z" uid="163896" user="Zbigniew Czernik" changeset="4489829" lat="52.35204" lon="22.61742">
    <tag k="addr:city" v="Korczew"/>
    <tag k="amenity" v="bank"/>
    <tag k="atm" v="yes"/>
    <tag k="name" v="BS"/>
    <tag k="source" v="http://ump.waw.pl/ retrieved 03:50:56 03/31/10 (UMP-Siedlce/src/POI-Siedlce.bankomaty.pnt-converted.txt)"/>
  </node>
  <node id="703430752" version="2" timestamp="2010-04-22T08:17:04Z" uid="30632" user="antblant" changeset="4493362" lat="52.35204" lon="22.61742">
    <tag k="addr:city" v="Korczew"/>
    <tag k="amenity" v="bank"/>
    <tag k="atm" v="yes"/>
    <tag k="name" v="BS"/>
    <tag k="source" v="http://ump.waw.pl/ retrieved 03:50:56 03/31/10 (UMP-Siedlce/src/POI-Siedlce.bankomaty.pnt-converted.txt);http://ump.waw.pl/ retrieved 13:44:19 02/27/09 (UMP-Siedlce/src/POI-Siedlce.bankomaty.pnt-converted.txt)"/>
  </node>
  <node id="703431081" version="1" timestamp="2010-04-21T19:47:03Z" uid="185286" user="rcpao" changeset="4489879" lat="33.5705224" lon="-117.7134391">
    <tag k="operator" v="Powell&apos;s Sweet Shoppe"/>
    <tag k="shop" v="convenience"/>
  </node>
  <node id="703431081" version="2" timestamp="2011-11-23T02:25:49Z" uid="229805" user="Jim3535" changeset="9916178" lat="33.570531" lon="-117.7135008">
    <tag k="operator" v="Powell&apos;s Sweet Shoppe"/>
    <tag k="shop" v="convenience"/>
  </node>
  <node id="703431903" version="1" timestamp="2010-04-21T19:47:42Z" uid="163896" user="Zbigniew Czernik" changeset="4489829" lat="52.41684" lon="23.00591">
    <tag k="addr:city" v="Grabarka"/>
    <tag k="amenity" v="place_of_worship"/>
    <tag k="name" v="Cerkiew Grabarka"/>
    <tag k="source" v="http://ump.waw.pl/ retrieved 03:50:56 03/31/10 (UMP-Siedlce/src/POI-Siedlce.pnt-converted.txt)"/>
  </node>
  <node id="703431903" version="2" timestamp="2010-04-22T08:17:05Z" uid="30632" user="antblant" changeset="4493362" lat="52.41684" lon="23.00591">
    <tag k="addr:city" v="Grabarka"/>
    <tag k="amenity" v="place_of_worship"/>
    <tag k="name" v="Cerkiew Grabarka"/>
    <tag k="source" v="http://ump.waw.pl/ retrieved 03:50:56 03/31/10 (UMP-Siedlce/src/POI-Siedlce.pnt-converted.txt)"/>
  </node>
  <node id="703432712" version="1" timestamp="2010-04-21T19:48:06Z" uid="163896" user="Zbigniew Czernik" changeset="4489829" lat="52.40073" lon="22.51912">
    <tag k="addr:city" v="Skrzeszew"/>
    <tag k="amenity" v="fuel"/>
    <tag k="name" v="benzyna"/>
    <tag k="source" v="http://ump.waw.pl/ retrieved 03:50:56 03/31/10 (UMP-Siedlce/src/POI-Siedlce.paliwo.pnt-converted.txt)"/>
  </node>
  <node id="703432712" version="2" timestamp="2010-04-22T08:17:05Z" uid="30632" user="antblant" changeset="4493362" lat="52.40073" lon="22.51912">
    <tag k="addr:city" v="Skrzeszew"/>
    <tag k="amenity" v="fuel"/>
    <tag k="name" v="benzyna"/>
    <tag k="source" v="http://ump.waw.pl/ retrieved 03:50:56 03/31/10 (UMP-Siedlce/src/POI-Siedlce.paliwo.pnt-converted.txt)"/>
  </node>
  <node id="703433151" version="1" timestamp="2010-04-21T19:48:33Z" uid="163896" user="Zbigniew Czernik" changeset="4489829" lat="52.35437" lon="22.61385">
    <tag k="addr:city" v="Korczew"/>
    <tag k="castle_type" v="fortress"/>
    <tag k="historic" v="castle"/>
    <tag k="name" v="pałac"/>
    <tag k="source" v="http://ump.waw.pl/ retrieved 03:50:56 03/31/10 (UMP-Siedlce/src/POI-Siedlce.pnt-converted.txt)"/>
  </node>
  <node id="703433151" version="2" timestamp="2010-04-22T08:16:58Z" uid="30632" user="antblant" changeset="4493362" lat="52.3542992" lon="22.6137254">
    <tag k="addr:city" v="Korczew"/>
    <tag k="castle_type" v="fortress"/>
    <tag k="historic" v="castle"/>
    <tag k="name" v="pałac"/>
    <tag k="source" v="http://ump.waw.pl/ retrieved 03:50:56 03/31/10 (UMP-Siedlce/src/POI-Siedlce.pnt-converted.txt)"/>
  </node>
  <node id="703433792" version="1" timestamp="2010-04-21T19:49:01Z" uid="163896" user="Zbigniew Czernik" changeset="4489829" lat="52.41726" lon="23.00515">
    <tag k="addr:city" v="Grabarka"/>
    <tag k="amenity" v="place_of_worship"/>
    <tag k="name" v="Cudowne Źródło"/>
    <tag k="source" v="http://ump.waw.pl/ retrieved 03:50:56 03/31/10 (UMP-Siedlce/src/POI-Siedlce.pnt-converted.txt)"/>
  </node>
  <node id="703433792" version="2" timestamp="2010-04-22T08:17:04Z" uid="30632" user="antblant" changeset="4493362" lat="52.417191" lon="23.0050972">
    <tag k="addr:city" v="Grabarka"/>
    <tag k="amenity" v="place_of_worship"/>
    <tag k="name" v="Cudowne Źródło"/>
    <tag k="source" v="http://ump.waw.pl/ retrieved 03:50:56 03/31/10 (UMP-Siedlce/src/POI-Siedlce.pnt-converted.txt)"/>
  </node>
  <node id="703433952" version="1" timestamp="2010-04-21T19:49:19Z" uid="163896" user="Zbigniew Czernik" changeset="4489829" lat="52.40103" lon="22.51579">
    <tag k="addr:city" v="Skrzeszew"/>
    <tag k="amenity" v="place_of_worship"/>
    <tag k="name" v="kościółek"/>
    <tag k="source" v="http://ump.waw.pl/ retrieved 03:50:56 03/31/10 (UMP-Siedlce/src/POI-Siedlce.pnt-converted.txt)"/>
  </node>
  <node id="703433952" version="2" timestamp="2010-04-22T08:17:05Z" uid="30632" user="antblant" changeset="4493362" lat="52.40103" lon="22.51579">
    <tag k="addr:city" v="Skrzeszew"/>
    <tag k="amenity" v="place_of_worship"/>
    <tag k="name" v="kościółek"/>
    <tag k="source" v="http://ump.waw.pl/ retrieved 03:50:56 03/31/10 (UMP-Siedlce/src/POI-Siedlce.pnt-converted.txt)"/>
  </node>
  <node id="703434428" version="1" timestamp="2010-04-21T19:49:42Z" uid="163896" user="Zbigniew Czernik" changeset="4489829" lat="52.3384" lon="22.71536">
    <tag k="highway" v="stop"/>
    <tag k="name" v="nie ma mostu"/>
    <tag k="source" v="http://ump.waw.pl/ retrieved 03:50:56 03/31/10 (UMP-Siedlce/src/SIEDLCE.debug.pnt-converted.txt)"/>
  </node>
  <node id="703434428" version="2" timestamp="2010-04-22T08:17:04Z" uid="30632" user="antblant" changeset="4493362" lat="52.3384" lon="22.71536">
    <tag k="highway" v="stop"/>
    <tag k="name" v="nie ma mostu"/>
    <tag k="source" v="http://ump.waw.pl/ retrieved 03:50:56 03/31/10 (UMP-Siedlce/src/SIEDLCE.debug.pnt-converted.txt)"/>
  </node>
  <node id="703434497" version="1" timestamp="2010-04-21T19:49:46Z" uid="163896" user="Zbigniew Czernik" changeset="4489829" lat="52.41666" lon="23.00438">
    <tag k="addr:city" v="Grabarka"/>
    <tag k="amenity" v="parking"/>
    <tag k="name" v="Grabarka"/>
    <tag k="source" v="http://ump.waw.pl/ retrieved 03:50:56 03/31/10 (UMP-Siedlce/src/POI-Siedlce.paliwo.pnt-converted.txt)"/>
  </node>
  <node id="703434497" version="2" timestamp="2010-04-22T08:17:05Z" uid="30632" user="antblant" changeset="4493362" lat="52.41666" lon="23.00438">
    <tag k="addr:city" v="Grabarka"/>
    <tag k="amenity" v="parking"/>
    <tag k="name" v="Grabarka"/>
    <tag k="source" v="http://ump.waw.pl/ retrieved 03:50:56 03/31/10 (UMP-Siedlce/src/POI-Siedlce.paliwo.pnt-converted.txt)"/>
  </node>
  <node id="703430752" version="3" timestamp="2012-07-24T22:50:59Z" uid="722137" user="OSMF Redaction Account" changeset="12478142" lat="52.35204" lon="22.61742"/>
  <node id="703431081" version="3" timestamp="2012-07-18T22:08:30Z" uid="722137" user="OSMF Redaction Account" changeset="12300129" lat="33.570531" lon="-117.7135008"/>
  <node id="703431081" version="4" timestamp="2012-07-27T13:16:32Z" uid="315015" user="WernerP" changeset="12511399" lat="33.570531" lon="-117.7135008"/>
  <node id="703433151" version="3" timestamp="2012-07-24T22:50:50Z" uid="722137" user="OSMF Redaction Account" changeset="12478142" lat="52.3542992" lon="22.6137254"/>
</osm>
