<?xml version='1.0' encoding='UTF-8'?>
<osm version="0.6" generator="libosmium/2.20.0">
  <node id="70430290" version="2" timestamp="2008-03-03T19:02:41Z" uid="8328" user="benpre" changeset="260633" lat="47.7917948" lon="7.5908486">
    <tag k="created_by" v="JOSM"/>
  </node>
  <node id="70430290" version="3" timestamp="2008-10-11T12:56:41Z" uid="69973" user="TL78" changeset="248993" lat="47.7917593" lon="7.5908929">
    <tag k="created_by" v="JOSM"/>
  </node>
  <node id="70430290" version="4" timestamp="2008-10-11T20:55:14Z" uid="11374" user="q_un_go" changeset="275010" lat="47.7917593" lon="7.5908929"/>
  <node id="70430290" version="5" timestamp="2008-10-11T21:07:45Z" uid="11374" user="q_un_go" changeset="275010" lat="47.7917593" lon="7.5908929"/>
  <node id="70430290" version="6" timestamp="2011-10-01T17:15:48Z" uid="285736" user="ursf" changeset="9444173" lat="47.7917476" lon="7.5908846"/>
  <node id="70430290" version="7" timestamp="2011-10-04T00:43:54Z" uid="285736" user="ursf" changeset="9465808" lat="47.7918068" lon="7.5908325"/>
  <node id="70433847" version="2" timestamp="2009-10-02T20:14:20Z" uid="86259" user="hasse_osm_korinthenkacker" changeset="2717163" lat="47.8918147" lon="11.7317125">
    <tag k="amenity" v="fuel"/>
  </node>
  <node id="70433847" version="3" timestamp="2009-10-27T15:30:43Z" uid="42393" user="mawi42" changeset="2966060" lat="47.8917187" lon="11.7315766">
    <tag k="amenity" v="fuel"/>
  </node>
  <node id="70433847" version="4" timestamp="2010-03-04T13:12:05Z" uid="42393" user="mawi42" changeset="4032580" lat="47.8917014" lon="11.7315522">
    <tag k="amenity" v="fuel"/>
  </node>
  <node id="70433847" version="5" timestamp="2010-04-01T21:29:00Z" uid="59819" user="Fuss-im-Ohr" changeset="4298344" lat="47.8917014" lon="11.7315522">
    <tag k="amenity" v="fuel"/>
    <tag k="name" v="fixme Tankstelle"/>
  </node>
  <node id="70433847" version="6" timestamp="2010-04-02T09:21:39Z" uid="42393" user="mawi42" changeset="4301423" lat="47.8917014" lon="11.7315521">
    <tag k="amenity" v="fuel"/>
    <tag k="name" v="Tankstelle Holzkirchen-Nord"/>
  </node>
  <node id="70433847" version="7" timestamp="2010-04-02T09:42:54Z" uid="42393" user="mawi42" changeset="4301601" lat="47.8917284" lon="11.7316431">
    <tag k="amenity" v="fuel"/>
    <tag k="fuel:diesel" v="true"/>
    <tag k="fuel:octane_95" v="true"/>
    <tag k="fuel:octane_98" v="true"/>
    <tag k="name" v="Tankstelle Holzkirchen-Nord"/>
    <tag k="opening hours" v="fixme"/>
    <tag k="operator" v="Shell"/>
  </node>
  <node id="70433847" version="8" timestamp="2010-04-02T10:46:52Z" uid="42393" user="mawi42" changeset="4302125" lat="47.8917284" lon="11.7316431">
    <tag k="amenity" v="fuel"/>
    <tag k="fuel:diesel" v="true"/>
    <tag k="fuel:octane_95" v="true"/>
    <tag k="fuel:octane_98" v="true"/>
    <tag k="name" v="Tankstelle Holzkirchen-Nord"/>
    <tag k="opening hours" v="24/7"/>
    <tag k="operator" v="Shell"/>
  </node>
  <node id="70433847" version="9" timestamp="2010-04-10T14:29:56Z" uid="8748" user="ToniE" changeset="4382969" lat="47.8917284" lon="11.7316431">
    <tag k="amenity" v="fuel"/>
    <tag k="fuel:diesel" v="true"/>
    <tag k="fuel:octane_95" v="true"/>
    <tag k="fuel:octane_98" v="true"/>
    <tag k="name" v="Tankstelle Holzkirchen-Nord"/>
    <tag k="opening_hours" v="24/7"/>
    <tag k="operator" v="Shell"/>
  </node>
  <node id="70433847" version="10" timestamp="2010-04-12T09:11:59Z" uid="42393" user="mawi42" changeset="4402414" lat="47.8917622" lon="11.7318203">
    <tag k="amenity" v="fuel"/>
    <tag k="fuel:diesel" v="true"/>
    <tag k="fuel:octane_95" v="true"/>
    <tag k="fuel:octane_98" v="true"/>
    <tag k="name" v="Tankstelle Holzkirchen-Nord"/>
    <tag k="opening_hours" v="24/7"/>
    <tag k="operator" v="Shell"/>
  </node>
  <node id="70433847" version="11" timestamp="2010-08-02T17:40:13Z" uid="81244" user="rurseekatze" changeset="5382990" lat="47.8917622" lon="11.7318203">
    <tag k="amenity" v="fuel"/>
    <tag k="brand" v="Shell"/>
    <tag k="fuel:diesel" v="true"/>
    <tag k="fuel:octane_95" v="true"/>
    <tag k="fuel:octane_98" v="true"/>
    <tag k="name" v="Tankstelle Holzkirchen-Nord"/>
    <tag k="opening_hours" v="24/7"/>
    <tag k="operator" v="Shell"/>
  </node>
  <node id="70433847" version="12" timestamp="2010-09-11T07:11:44Z" uid="5359" user="user_5359" changeset="5747157" lat="47.8917622" lon="11.7318203">
    <tag k="amenity" v="fuel"/>
    <tag k="brand" v="Shell"/>
    <tag k="fuel:diesel" v="yes"/>
    <tag k="fuel:octane_95" v="yes"/>
    <tag k="fuel:octane_98" v="yes"/>
    <tag k="name" v="Tankstelle Holzkirchen-Nord"/>
    <tag k="opening_hours" v="24/7"/>
    <tag k="operator" v="Shell"/>
  </node>
  <node id="70433849" version="5" timestamp="2009-10-19T18:50:21Z" uid="36809" user="pfoten_weg_!_" changeset="2897310" lat="47.8931225" lon="11.7298101">
    <tag k="amenity" v="parking"/>
  </node>
  <node id="70433849" version="6" timestamp="2009-10-27T15:32:49Z" uid="42393" user="mawi42" changeset="2966060" lat="47.8931225" lon="11.7298101">
    <tag k="amenity" v="parking"/>
  </node>
  <node id="70433860" version="2" timestamp="2009-10-19T18:50:22Z" uid="36809" user="pfoten_weg_!_" changeset="2897310" lat="47.8924625" lon="11.7312583"/>
  <node id="70433860" version="3" timestamp="2009-10-27T15:31:20Z" uid="42393" user="mawi42" changeset="2966060" lat="47.8924625" lon="11.7312583"/>
  <node id="70433867" version="2" timestamp="2009-10-19T18:50:19Z" uid="36809" user="pfoten_weg_!_" changeset="2897310" lat="47.8918499" lon="11.730885"/>
  <node id="70433867" version="3" timestamp="2009-10-27T15:31:18Z" uid="42393" user="mawi42" changeset="2966060" lat="47.8918499" lon="11.730885"/>
  <node id="70433871" version="2" timestamp="2009-10-19T18:50:20Z" uid="36809" user="pfoten_weg_!_" changeset="2897310" lat="47.892971" lon="11.7287789"/>
  <node id="70433871" version="3" timestamp="2009-10-27T15:32:49Z" uid="42393" user="mawi42" changeset="2966060" lat="47.892971" lon="11.7287789"/>
  <node id="70433877" version="2" timestamp="2009-10-19T18:50:20Z" uid="36809" user="pfoten_weg_!_" changeset="2897310" lat="47.8934304" lon="11.7281357"/>
  <node id="70433877" version="3" timestamp="2010-02-13T10:25:47Z" uid="42393" user="mawi42" changeset="3863160" lat="47.8934304" lon="11.7281357"/>
  <node id="70433881" version="6" timestamp="2009-10-19T18:50:20Z" uid="36809" user="pfoten_weg_!_" changeset="2897310" lat="47.8933231" lon="11.7291314">
    <tag k="highway" v="services"/>
    <tag k="name" v="Rasthof Holzkirchen"/>
  </node>
  <node id="70433881" version="7" timestamp="2010-08-02T17:40:15Z" uid="81244" user="rurseekatze" changeset="5382990" lat="47.8933231" lon="11.7291314">
    <tag k="highway" v="services"/>
    <tag k="name" v="Rasthof Holzkirchen"/>
  </node>
  <node id="70435433" version="2" timestamp="2008-03-03T19:02:47Z" uid="8328" user="benpre" changeset="260633" lat="47.7301227" lon="7.5666835">
    <tag k="created_by" v="JOSM"/>
  </node>
  <node id="70435433" version="3" timestamp="2009-10-31T21:47:44Z" uid="85761" user="klausis" changeset="3001815" lat="47.7301227" lon="7.5666835"/>
  <node id="70435433" version="4" timestamp="2012-01-22T23:05:21Z" uid="11374" user="q_un_go" changeset="10471030" lat="47.7301227" lon="7.5666835"/>
</osm>
