<?xml version='1.0' encoding='UTF-8'?>
<osm version="0.6" generator="libosmium/2.20.0">
  <node id="704862825" version="2" timestamp="2011-01-24T13:48:25Z" uid="20587" user="balrog-kun" changeset="7073235" lat="52.2547857" lon="21.0371412">
    <tag k="amenity" v="fast_food"/>
    <tag k="cuisine" v="regional"/>
    <tag k="layer" v="1"/>
    <tag k="name" v="Karoca"/>
  </node>
  <node id="704862825" version="3" timestamp="2011-10-03T20:17:22Z" uid="373244" user="Tomekg" changeset="9463377" lat="52.2546627" lon="21.0370016">
    <tag k="amenity" v="fast_food"/>
    <tag k="cuisine" v="regional"/>
    <tag k="layer" v="1"/>
    <tag k="name" v="Karoca"/>
  </node>
  <node id="704862825" version="4" timestamp="2011-10-03T20:19:29Z" uid="373244" user="Tomekg" changeset="9463377" lat="52.2547054" lon="21.036964">
    <tag k="amenity" v="fast_food"/>
    <tag k="cuisine" v="regional"/>
    <tag k="layer" v="1"/>
    <tag k="name" v="Karoca"/>
  </node>
  <node id="704863118" version="2" timestamp="2011-01-24T13:48:21Z" uid="20587" user="balrog-kun" changeset="7073235" lat="52.2542853" lon="21.0377911">
    <tag k="amenity" v="pharmacy"/>
    <tag k="name" v="Mediq"/>
  </node>
  <node id="704863118" version="3" timestamp="2011-08-12T10:45:15Z" uid="373244" user="Tomaszg" changeset="8993387" lat="52.254215" lon="21.0374845">
    <tag k="amenity" v="pharmacy"/>
    <tag k="name" v="Mediq"/>
  </node>
  <node id="704863118" version="4" timestamp="2011-10-03T20:17:22Z" uid="373244" user="Tomekg" changeset="9463377" lat="52.254215" lon="21.0374845">
    <tag k="amenity" v="pharmacy"/>
    <tag k="layer" v="0"/>
    <tag k="name" v="Mediq"/>
  </node>
  <node id="704863118" version="5" timestamp="2011-10-03T20:19:29Z" uid="373244" user="Tomekg" changeset="9463377" lat="52.2542544" lon="21.0374979">
    <tag k="amenity" v="pharmacy"/>
    <tag k="layer" v="0"/>
    <tag k="name" v="Mediq"/>
  </node>
  <node id="704863701" version="2" timestamp="2011-01-24T13:48:27Z" uid="20587" user="balrog-kun" changeset="7073235" lat="52.2546821" lon="21.0372496">
    <tag k="accor_ticket_acceptant" v="yes"/>
    <tag k="amenity" v="fast_food"/>
    <tag k="cuisine" v="asian"/>
    <tag k="layer" v="1"/>
    <tag k="name" v="Azja"/>
  </node>
  <node id="704863701" version="3" timestamp="2011-10-03T20:17:22Z" uid="373244" user="Tomekg" changeset="9463377" lat="52.2545872" lon="21.0370982">
    <tag k="accor_ticket_acceptant" v="yes"/>
    <tag k="amenity" v="fast_food"/>
    <tag k="cuisine" v="asian"/>
    <tag k="layer" v="1"/>
    <tag k="name" v="Azja"/>
  </node>
  <node id="704863701" version="4" timestamp="2011-10-03T20:19:30Z" uid="373244" user="Tomekg" changeset="9463377" lat="52.25462" lon="21.037066">
    <tag k="accor_ticket_acceptant" v="yes"/>
    <tag k="amenity" v="fast_food"/>
    <tag k="cuisine" v="asian"/>
    <tag k="layer" v="1"/>
    <tag k="name" v="Azja"/>
  </node>
  <node id="704863958" version="1" timestamp="2010-04-23T22:49:38Z" uid="7617" user="Franc" changeset="4508324" lat="-33.5198601" lon="151.3102556"/>
  <node id="704863959" version="1" timestamp="2010-04-23T22:49:38Z" uid="7617" user="Franc" changeset="4508324" lat="-33.5198125" lon="151.3102654"/>
  <node id="704862825" version="5" timestamp="2012-04-28T01:46:20Z" uid="475943" user="sir-mapalot" changeset="11437469" lat="52.2547054" lon="21.036964">
    <tag k="cuisine" v="regional"/>
    <tag k="layer" v="1"/>
    <tag k="old_amenity" v="fast_food"/>
    <tag k="old_name" v="Karoca"/>
  </node>
  <node id="704863118" version="6" timestamp="2012-07-24T19:11:52Z" uid="722137" user="OSMF Redaction Account" changeset="12474218" lat="52.2542544" lon="21.0374979">
    <tag k="layer" v="0"/>
    <tag k="name" v="Mediq"/>
  </node>
  <node id="704863701" version="5" timestamp="2012-04-28T01:46:20Z" uid="475943" user="sir-mapalot" changeset="11437469" lat="52.25462" lon="21.037066">
    <tag k="accor_ticket_acceptant" v="yes"/>
    <tag k="cuisine" v="asian"/>
    <tag k="layer" v="1"/>
    <tag k="old_amenity" v="fast_food"/>
    <tag k="old_name" v="Azja"/>
  </node>
  <node id="704863958" version="2" timestamp="2012-07-19T15:49:04Z" uid="722137" user="OSMF Redaction Account" changeset="12336495" lat="-33.5198601" lon="151.3102556"/>
  <node id="704863959" version="2" timestamp="2012-07-19T15:49:04Z" uid="722137" user="OSMF Redaction Account" changeset="12336495" lat="-33.5198125" lon="151.3102654"/>
</osm>
