<?xml version='1.0' encoding='UTF-8'?>
<osm version="0.6" generator="libosmium/2.20.0">
  <node id="705561833" version="1" timestamp="2010-04-24T21:59:59Z" uid="163896" user="Zbigniew Czernik" changeset="4516416" lat="50.62032" lon="23.9974033">
    <tag k="name" v="Wólka Poturzyńska"/>
    <tag k="place" v="village"/>
  </node>
  <node id="705561833" version="2" timestamp="2010-04-27T04:15:20Z" uid="30632" user="antblant" changeset="4537896" lat="50.62032" lon="23.9974033">
    <tag k="name" v="Wólka Poturzyńska"/>
    <tag k="place" v="village"/>
    <tag k="teryt:simc" v="0887090"/>
  </node>
  <node id="705561834" version="1" timestamp="2010-04-24T21:59:59Z" uid="163896" user="Zbigniew Czernik" changeset="4516416" lat="50.6526082" lon="24.0248015">
    <tag k="name" v="Małków Nowy"/>
    <tag k="place" v="village"/>
  </node>
  <node id="705561834" version="2" timestamp="2010-04-27T04:15:20Z" uid="30632" user="antblant" changeset="4537896" lat="50.6526082" lon="24.0248015">
    <tag k="name" v="Małków Nowy"/>
    <tag k="place" v="village"/>
    <tag k="teryt:simc" v="0895110"/>
  </node>
  <node id="705564268" version="1" timestamp="2010-04-24T22:05:28Z" uid="7617" user="Franc" changeset="4516497" lat="-33.939655" lon="151.101135">
    <tag k="name" v="kingsgrove rd"/>
    <tag k="note" v="kingsgrove rd"/>
  </node>
  <node id="705564268" version="2" timestamp="2010-04-24T22:51:34Z" uid="7617" user="Franc" changeset="4516770" lat="-33.939655" lon="151.101135">
    <tag k="name" v="kingsgrove rd"/>
    <tag k="note" v="kingsgrove rd"/>
  </node>
  <node id="705564270" version="1" timestamp="2010-04-24T22:05:28Z" uid="7617" user="Franc" changeset="4516497" lat="-33.938145" lon="151.099014">
    <tag k="name" v="forrester rsrv"/>
    <tag k="note" v="forrester rsrv"/>
  </node>
  <node id="705564270" version="2" timestamp="2010-04-24T22:51:34Z" uid="7617" user="Franc" changeset="4516770" lat="-33.938145" lon="151.099014">
    <tag k="name" v="forrester rsrv"/>
    <tag k="note" v="forrester rsrv"/>
  </node>
  <node id="705564271" version="1" timestamp="2010-04-24T22:05:28Z" uid="7617" user="Franc" changeset="4516497" lat="-33.939865" lon="151.100662">
    <tag k="name" v="fuel - gogas"/>
    <tag k="note" v="fuel - gogas"/>
  </node>
  <node id="705564271" version="2" timestamp="2010-04-24T22:51:21Z" uid="7617" user="Franc" changeset="4516770" lat="-33.9396634" lon="151.1005341">
    <tag k="amenity" v="fuel"/>
    <tag k="name" v="Gogas"/>
  </node>
  <node id="705564271" version="3" timestamp="2011-09-16T05:38:55Z" uid="7523" user="inas" changeset="9313189" lat="-33.9396634" lon="151.1005341"/>
  <node id="705564272" version="1" timestamp="2010-04-24T22:05:28Z" uid="7617" user="Franc" changeset="4516497" lat="-33.938667" lon="151.099579">
    <tag k="name" v="sign for m5 linear park"/>
    <tag k="note" v="sign for m5 linear park"/>
  </node>
  <node id="705564272" version="2" timestamp="2010-04-24T22:51:34Z" uid="7617" user="Franc" changeset="4516770" lat="-33.938667" lon="151.099579">
    <tag k="name" v="sign for m5 linear park"/>
    <tag k="note" v="sign for m5 linear park"/>
  </node>
  <node id="705564273" version="1" timestamp="2010-04-24T22:05:28Z" uid="7617" user="Franc" changeset="4516497" lat="-33.935509" lon="151.098419">
    <tag k="name" v="richland st"/>
    <tag k="note" v="richland st"/>
  </node>
  <node id="705564273" version="2" timestamp="2010-04-24T22:51:34Z" uid="7617" user="Franc" changeset="4516770" lat="-33.935509" lon="151.098419">
    <tag k="name" v="richland st"/>
    <tag k="note" v="richland st"/>
  </node>
  <node id="705564274" version="1" timestamp="2010-04-24T22:05:28Z" uid="7617" user="Franc" changeset="4516497" lat="-33.933365" lon="151.102722">
    <tag k="name" v="phone and pbox"/>
    <tag k="note" v="phone and pbox"/>
  </node>
  <node id="705564274" version="2" timestamp="2010-04-24T22:51:34Z" uid="7617" user="Franc" changeset="4516770" lat="-33.933365" lon="151.102722">
    <tag k="name" v="phone and pbox"/>
    <tag k="note" v="phone and pbox"/>
  </node>
  <node id="705564275" version="1" timestamp="2010-04-24T22:05:28Z" uid="7617" user="Franc" changeset="4516497" lat="-33.935051" lon="151.097809">
    <tag k="name" v="domus lighting, 29-31"/>
    <tag k="note" v="domus lighting, 29-31"/>
  </node>
  <node id="705564275" version="2" timestamp="2010-04-24T22:51:34Z" uid="7617" user="Franc" changeset="4516770" lat="-33.935051" lon="151.097809">
    <tag k="name" v="domus lighting, 29-31"/>
    <tag k="note" v="domus lighting, 29-31"/>
  </node>
  <node id="705564276" version="1" timestamp="2010-04-24T22:05:28Z" uid="7617" user="Franc" changeset="4516497" lat="-33.93594" lon="151.100113">
    <tag k="name" v="tl"/>
    <tag k="note" v="tl"/>
  </node>
  <node id="705564276" version="2" timestamp="2010-04-24T22:51:34Z" uid="7617" user="Franc" changeset="4516770" lat="-33.93594" lon="151.100113">
    <tag k="name" v="tl"/>
    <tag k="note" v="tl"/>
  </node>
  <node id="705564277" version="1" timestamp="2010-04-24T22:05:28Z" uid="7617" user="Franc" changeset="4516497" lat="-33.936104" lon="151.099365">
    <tag k="name" v="omnibus rd"/>
    <tag k="note" v="omnibus rd"/>
  </node>
  <node id="705564277" version="2" timestamp="2010-04-24T22:51:34Z" uid="7617" user="Franc" changeset="4516770" lat="-33.936104" lon="151.099365">
    <tag k="name" v="omnibus rd"/>
    <tag k="note" v="omnibus rd"/>
  </node>
  <node id="705564278" version="1" timestamp="2010-04-24T22:05:28Z" uid="7617" user="Franc" changeset="4516497" lat="-33.934441" lon="151.099304">
    <tag k="name" v="richland st"/>
    <tag k="note" v="richland st"/>
  </node>
  <node id="705564278" version="2" timestamp="2010-04-24T22:51:34Z" uid="7617" user="Franc" changeset="4516770" lat="-33.934441" lon="151.099304">
    <tag k="name" v="richland st"/>
    <tag k="note" v="richland st"/>
  </node>
  <node id="705564279" version="1" timestamp="2010-04-24T22:05:28Z" uid="7617" user="Franc" changeset="4516497" lat="-33.936516" lon="151.098007">
    <tag k="name" v="kingsgrove bus depot"/>
    <tag k="note" v="kingsgrove bus depot"/>
  </node>
  <node id="705564279" version="2" timestamp="2010-04-24T22:51:34Z" uid="7617" user="Franc" changeset="4516770" lat="-33.936516" lon="151.098007">
    <tag k="name" v="kingsgrove bus depot"/>
    <tag k="note" v="kingsgrove bus depot"/>
  </node>
  <node id="705564280" version="1" timestamp="2010-04-24T22:05:28Z" uid="7617" user="Franc" changeset="4516497" lat="-33.937302" lon="151.108231">
    <tag k="name" v="soccer - bexley north bombers"/>
    <tag k="note" v="soccer - bexley north bombers"/>
  </node>
  <node id="705564280" version="2" timestamp="2010-04-24T22:51:35Z" uid="7617" user="Franc" changeset="4516770" lat="-33.937302" lon="151.108231">
    <tag k="name" v="soccer - bexley north bombers"/>
    <tag k="note" v="soccer - bexley north bombers"/>
  </node>
  <node id="705564281" version="1" timestamp="2010-04-24T22:05:28Z" uid="7617" user="Franc" changeset="4516497" lat="-33.937775" lon="151.106476">
    <tag k="name" v="noname"/>
    <tag k="note" v="noname"/>
  </node>
  <node id="705564281" version="2" timestamp="2010-04-24T22:51:35Z" uid="7617" user="Franc" changeset="4516770" lat="-33.937775" lon="151.106476">
    <tag k="name" v="noname"/>
    <tag k="note" v="noname"/>
  </node>
  <node id="705564282" version="1" timestamp="2010-04-24T22:05:28Z" uid="7617" user="Franc" changeset="4516497" lat="-33.937069" lon="151.111694">
    <tag k="name" v="kingsgrove av rsrv"/>
    <tag k="note" v="kingsgrove av rsrv"/>
  </node>
  <node id="705564282" version="2" timestamp="2010-04-24T22:51:35Z" uid="7617" user="Franc" changeset="4516770" lat="-33.937069" lon="151.111694">
    <tag k="name" v="kingsgrove av rsrv"/>
    <tag k="note" v="kingsgrove av rsrv"/>
  </node>
  <node id="705564283" version="1" timestamp="2010-04-24T22:05:28Z" uid="7617" user="Franc" changeset="4516497" lat="-33.938564" lon="151.11853">
    <tag k="name" v="drvway"/>
    <tag k="note" v="drvway"/>
  </node>
  <node id="705564283" version="2" timestamp="2010-04-24T22:51:35Z" uid="7617" user="Franc" changeset="4516770" lat="-33.938564" lon="151.11853">
    <tag k="name" v="drvway"/>
    <tag k="note" v="drvway"/>
  </node>
  <node id="705564284" version="1" timestamp="2010-04-24T22:05:29Z" uid="7617" user="Franc" changeset="4516497" lat="-33.937614" lon="151.107788">
    <tag k="name" v="playgrnd"/>
    <tag k="note" v="playgrnd"/>
  </node>
  <node id="705564284" version="2" timestamp="2010-04-24T22:51:25Z" uid="7617" user="Franc" changeset="4516770" lat="-33.9377434" lon="151.1077151">
    <tag k="leisure" v="playground"/>
  </node>
  <node id="705564285" version="1" timestamp="2010-04-24T22:05:29Z" uid="7617" user="Franc" changeset="4516497" lat="-33.937218" lon="151.10907">
    <tag k="name" v="kingsgrove av rsrv"/>
    <tag k="note" v="kingsgrove av rsrv"/>
  </node>
  <node id="705564285" version="2" timestamp="2010-04-24T22:51:35Z" uid="7617" user="Franc" changeset="4516770" lat="-33.937218" lon="151.10907">
    <tag k="name" v="kingsgrove av rsrv"/>
    <tag k="note" v="kingsgrove av rsrv"/>
  </node>
  <node id="705564287" version="1" timestamp="2010-04-24T22:05:29Z" uid="7617" user="Franc" changeset="4516497" lat="-33.940422" lon="151.118988">
    <tag k="name" v="drvway"/>
    <tag k="note" v="drvway"/>
  </node>
  <node id="705564287" version="2" timestamp="2010-04-24T22:51:35Z" uid="7617" user="Franc" changeset="4516770" lat="-33.940422" lon="151.118988">
    <tag k="name" v="drvway"/>
    <tag k="note" v="drvway"/>
  </node>
  <node id="705564288" version="1" timestamp="2010-04-24T22:05:29Z" uid="7617" user="Franc" changeset="4516497" lat="-33.9301001" lon="151.1127173"/>
  <node id="705564289" version="1" timestamp="2010-04-24T22:05:29Z" uid="7617" user="Franc" changeset="4516497" lat="-33.9306033" lon="151.1139209"/>
  <node id="705564290" version="1" timestamp="2010-04-24T22:05:29Z" uid="7617" user="Franc" changeset="4516497" lat="-33.9297562" lon="151.1135954"/>
  <node id="705564290" version="2" timestamp="2011-06-04T11:46:57Z" uid="7617" user="Franc" changeset="8338334" lat="-33.9297608" lon="151.1135843"/>
  <node id="705564291" version="1" timestamp="2010-04-24T22:05:29Z" uid="7617" user="Franc" changeset="4516497" lat="-33.927502" lon="151.112656">
    <tag k="name" v="nosign"/>
    <tag k="note" v="nosign"/>
  </node>
  <node id="705564291" version="2" timestamp="2010-04-24T22:51:35Z" uid="7617" user="Franc" changeset="4516770" lat="-33.927502" lon="151.112656">
    <tag k="name" v="nosign"/>
    <tag k="note" v="nosign"/>
  </node>
  <node id="705564292" version="1" timestamp="2010-04-24T22:05:29Z" uid="7617" user="Franc" changeset="4516497" lat="-33.927383" lon="151.113419">
    <tag k="name" v="nosign"/>
    <tag k="note" v="nosign"/>
  </node>
  <node id="705564292" version="2" timestamp="2010-04-24T22:51:35Z" uid="7617" user="Franc" changeset="4516770" lat="-33.927383" lon="151.113419">
    <tag k="name" v="nosign"/>
    <tag k="note" v="nosign"/>
  </node>
  <node id="705564293" version="1" timestamp="2010-04-24T22:05:29Z" uid="7617" user="Franc" changeset="4516497" lat="-33.9280753" lon="151.1222109"/>
  <node id="705564293" version="2" timestamp="2012-02-15T23:34:04Z" uid="7523" user="inas" changeset="10697848" lat="-33.9279642" lon="151.1222321"/>
  <node id="705564294" version="1" timestamp="2010-04-24T22:05:29Z" uid="7617" user="Franc" changeset="4516497" lat="-33.9271175" lon="151.1223982"/>
  <node id="705564295" version="1" timestamp="2010-04-24T22:05:29Z" uid="7617" user="Franc" changeset="4516497" lat="-33.951199" lon="151.135147">
    <tag k="name" v="church"/>
    <tag k="note" v="church"/>
  </node>
  <node id="705564295" version="2" timestamp="2010-04-24T22:51:27Z" uid="7617" user="Franc" changeset="4516770" lat="-33.9511189" lon="151.1352169">
    <tag k="amenity" v="place_of_worship"/>
    <tag k="religion" v="christian"/>
  </node>
  <node id="705564296" version="1" timestamp="2010-04-24T22:05:29Z" uid="7617" user="Franc" changeset="4516497" lat="-33.951881" lon="151.135086">
    <tag k="name" v="hesten ln"/>
    <tag k="note" v="hesten ln"/>
  </node>
  <node id="705564296" version="2" timestamp="2010-04-24T22:51:35Z" uid="7617" user="Franc" changeset="4516770" lat="-33.951881" lon="151.135086">
    <tag k="name" v="hesten ln"/>
    <tag k="note" v="hesten ln"/>
  </node>
  <node id="705564297" version="1" timestamp="2010-04-24T22:05:29Z" uid="7617" user="Franc" changeset="4516497" lat="-33.952263" lon="151.135681">
    <tag k="name" v="hesten ln"/>
    <tag k="note" v="hesten ln"/>
  </node>
  <node id="705564297" version="2" timestamp="2010-04-24T22:51:35Z" uid="7617" user="Franc" changeset="4516770" lat="-33.952263" lon="151.135681">
    <tag k="name" v="hesten ln"/>
    <tag k="note" v="hesten ln"/>
  </node>
  <node id="705564284" version="3" timestamp="2012-07-20T08:43:20Z" uid="722137" user="OSMF Redaction Account" changeset="12368758" lat="-33.9377434" lon="151.1077151"/>
  <node id="705564288" version="2" timestamp="2012-07-20T08:44:01Z" uid="722137" user="OSMF Redaction Account" changeset="12368833" lat="-33.9301001" lon="151.1127173"/>
  <node id="705564289" version="2" timestamp="2012-07-20T08:43:57Z" uid="722137" user="OSMF Redaction Account" changeset="12368802" lat="-33.9306033" lon="151.1139209"/>
  <node id="705564290" version="3" timestamp="2012-07-20T08:44:03Z" uid="722137" user="OSMF Redaction Account" changeset="12368833" lat="-33.9297608" lon="151.1135843"/>
  <node id="705564294" version="2" timestamp="2012-07-20T08:44:13Z" uid="722137" user="OSMF Redaction Account" changeset="12368833" lat="-33.9271175" lon="151.1223982"/>
  <node id="705564295" version="3" timestamp="2012-07-20T02:55:04Z" uid="722137" user="OSMF Redaction Account" changeset="12358793" lat="-33.9511189" lon="151.1352169"/>
</osm>
