<?xml version='1.0' encoding='UTF-8'?>
<osm version="0.6" generator="libosmium/2.20.0">
  <node id="70621063" version="2" timestamp="2007-10-24T12:03:45Z" uid="9581" user="Lobelt" changeset="305513" lat="51.3501056" lon="13.9388311">
    <tag k="created_by" v="Potlatch 0.4a"/>
    <tag k="historic" v="ruins"/>
    <tag k="name" v="ehem. Zeisholzer Lager"/>
  </node>
  <node id="70621063" version="3" timestamp="2007-10-30T17:55:58Z" uid="16019" user="Thommse" changeset="364195" lat="51.3501076" lon="13.9388267">
    <tag k="created_by" v="Potlatch 0.4b"/>
    <tag k="historic" v="ruins"/>
    <tag k="name" v="ehem. Zeisholzer Lager"/>
  </node>
  <node id="70621063" version="4" timestamp="2007-11-23T10:43:16Z" uid="19651" user="velofreak" changeset="603913" lat="51.3501102" lon="13.9388241">
    <tag k="created_by" v="Potlatch 0.5c"/>
    <tag k="historic" v="ruins"/>
    <tag k="name" v="ehem. Zeisholzer Lager"/>
  </node>
  <node id="70621063" version="5" timestamp="2007-12-11T17:37:50Z" uid="16019" user="Thommse" changeset="258628" lat="51.3501139" lon="13.9388265">
    <tag k="created_by" v="Potlatch 0.5d"/>
    <tag k="historic" v="ruins"/>
    <tag k="name" v="ehem. Zeisholzer Lager"/>
  </node>
</osm>
