<?xml version='1.0' encoding='UTF-8'?>
<osm version="0.6" generator="libosmium/2.20.0">
  <node id="71261678" version="2" timestamp="2010-02-16T20:03:54Z" uid="171838" user="argrath" changeset="3895627" lat="24.46983" lon="122.9594"/>
  <node id="71261816" version="2" timestamp="2010-02-16T20:03:34Z" uid="171838" user="argrath" changeset="3895627" lat="24.4697099" lon="122.9703699"/>
  <node id="71262458" version="2" timestamp="2009-05-13T07:45:52Z" uid="119145" user="asheiner" changeset="1172493" lat="49.5303765" lon="11.1564906">
    <tag k="amenity" v="restaurant"/>
    <tag k="created_by" v="JOSM"/>
    <tag k="cuisine" v="german"/>
    <tag k="name" v="Gasthaus ErhardshÃ¶he"/>
  </node>
  <node id="71262458" version="3" timestamp="2012-01-10T18:51:46Z" uid="71557" user="Taroc" changeset="10354024" lat="49.5303765" lon="11.1564906"/>
  <node id="71265764" version="9" timestamp="2009-07-26T01:48:38Z" uid="123700" user="Mala" changeset="1939972" lat="50.8050748" lon="4.9402814">
    <tag k="is_in" v="Vlaams-Brabant, Belgium"/>
    <tag k="is_in:continent" v="Europe"/>
    <tag k="name" v="Tienen"/>
    <tag k="name:fr" v="Tirlemont"/>
    <tag k="openGeoDB:auto_update" v="population"/>
    <tag k="openGeoDB:is_in_loc_id" v="35373"/>
    <tag k="openGeoDB:layer" v="7"/>
    <tag k="openGeoDB:loc_id" v="34766"/>
    <tag k="openGeoDB:postal_codes" v="3300"/>
    <tag k="openGeoDB:sort_name" v="TIENEN"/>
    <tag k="openGeoDB:type" v="100600000"/>
    <tag k="openGeoDB:version" v="0.2.6.11 / 2007-12-04 / http://fa-technik.adfc.de/code/opengeodb/dump/"/>
    <tag k="opengeodb:lat" v="50.8050677"/>
    <tag k="opengeodb:lon" v="4.940286"/>
    <tag k="place" v="town"/>
    <tag k="population" v="32000"/>
    <tag k="wikipedia" v="Tienen"/>
  </node>
  <node id="71265764" version="10" timestamp="2011-09-02T14:39:25Z" uid="15188" user="Polyglot" changeset="9193489" lat="50.8050748" lon="4.9402814">
    <tag k="is_in" v="Vlaams-Brabant, Belgium"/>
    <tag k="is_in:continent" v="Europe"/>
    <tag k="name" v="Tienen"/>
    <tag k="name:fr" v="Tirlemont"/>
    <tag k="openGeoDB:auto_update" v="population"/>
    <tag k="openGeoDB:is_in_loc_id" v="35373"/>
    <tag k="openGeoDB:layer" v="7"/>
    <tag k="openGeoDB:loc_id" v="34766"/>
    <tag k="openGeoDB:postal_codes" v="3300"/>
    <tag k="openGeoDB:sort_name" v="TIENEN"/>
    <tag k="openGeoDB:type" v="100600000"/>
    <tag k="openGeoDB:version" v="0.2.6.11 / 2007-12-04 / http://fa-technik.adfc.de/code/opengeodb/dump/"/>
    <tag k="opengeodb:lat" v="50.8050677"/>
    <tag k="opengeodb:lon" v="4.940286"/>
    <tag k="operator" v="Toerisme Vlaams-Brabant"/>
    <tag k="place" v="town"/>
    <tag k="population" v="32000"/>
    <tag k="wikipedia" v="Tienen"/>
  </node>
  <node id="71265764" version="11" timestamp="2012-02-27T19:30:44Z" uid="6072" user="Eimai" changeset="10812281" lat="50.8050748" lon="4.9402814"/>
  <node id="71269807" version="2" timestamp="2010-02-16T20:04:24Z" uid="171838" user="argrath" changeset="3895627" lat="24.46829" lon="122.9751499"/>
</osm>
