<?xml version='1.0' encoding='UTF-8'?>
<osm version="0.6" generator="libosmium/2.20.0">
  <node id="71366420" version="1" timestamp="2007-10-14T18:38:04Z" uid="6454" user="B10xxx" changeset="165202" lat="52.5066253" lon="13.3802623">
    <tag k="amenity" v="parking"/>
    <tag k="created_by" v="JOSM"/>
  </node>
  <node id="71366420" version="2" timestamp="2007-12-01T02:14:10Z" uid="6454" user="B10xxx" changeset="22961" lat="52.5066293" lon="13.380261">
    <tag k="amenity" v="parking"/>
    <tag k="created_by" v="Potlatch 0.5d"/>
  </node>
  <node id="71366420" version="3" timestamp="2008-04-30T15:01:15Z" uid="35787" user="Randbewohner" changeset="296836" lat="52.5066249" lon="13.380598">
    <tag k="amenity" v="parking"/>
    <tag k="created_by" v="Potlatch 0.8b"/>
  </node>
  <node id="71366420" version="4" timestamp="2008-08-23T09:54:24Z" uid="10549" user="toaster" changeset="374433" lat="52.5066249" lon="13.380598">
    <tag k="amenity" v="parking"/>
    <tag k="created_by" v="Potlatch 0.8b"/>
  </node>
  <node id="71366427" version="1" timestamp="2007-10-14T18:38:05Z" uid="6454" user="B10xxx" changeset="165202" lat="52.5068929" lon="13.3810967">
    <tag k="created_by" v="JOSM"/>
    <tag k="historic" v="museum"/>
    <tag k="name" v="Walter-Gropius-Bau"/>
  </node>
  <node id="71366427" version="2" timestamp="2007-10-16T13:30:26Z" uid="6454" user="B10xxx" changeset="209069" lat="52.5066032" lon="13.382012">
    <tag k="created_by" v="Potlatch 0.4a"/>
    <tag k="historic" v="museum"/>
    <tag k="name" v="Walter-Gropius-Bau"/>
  </node>
  <node id="71366427" version="3" timestamp="2007-11-09T21:32:06Z" uid="18123" user="BlackMagic" changeset="453659" lat="52.5065901" lon="13.3820041">
    <tag k="created_by" v="Potlatch 0.4c"/>
    <tag k="historic" v="museum"/>
    <tag k="name" v="Walter-Gropius-Bau"/>
  </node>
  <node id="71366427" version="4" timestamp="2008-03-26T11:06:31Z" uid="28052" user="CvR" changeset="402469" lat="52.5065901" lon="13.3820041">
    <tag k="name" v="Walter-Gropius-Bau"/>
    <tag k="tourism" v="museum"/>
  </node>
  <node id="71366427" version="5" timestamp="2008-04-29T19:23:22Z" uid="35787" user="Randbewohner" changeset="290191" lat="52.506595" lon="13.3819988">
    <tag k="created_by" v="Potlatch 0.8b"/>
    <tag k="name" v="Martin-Gropius-Bau"/>
    <tag k="tourism" v="museum"/>
  </node>
  <node id="71366427" version="6" timestamp="2009-07-19T21:50:52Z" uid="34417" user="TobHaeg" changeset="1879258" lat="52.506595" lon="13.3819988">
    <tag k="name" v="Martin-Gropius-Bau"/>
    <tag k="tourism" v="museum"/>
  </node>
  <node id="71366427" version="7" timestamp="2010-08-27T09:31:18Z" uid="115651" user="Konrad Aust" changeset="5605897" lat="52.5067107" lon="13.3819622">
    <tag k="name" v="Martin-Gropius-Bau"/>
    <tag k="tourism" v="museum"/>
    <tag k="website" v="http://www.berlinerfestspiele.de/de/aktuell/festivals/11_gropiusbau/mgb_start.php"/>
  </node>
  <node id="71366427" version="8" timestamp="2011-10-29T20:51:55Z" uid="290680" user="wheelmap_visitor" changeset="9681686" lat="52.5067107" lon="13.3819622">
    <tag k="name" v="Martin-Gropius-Bau"/>
    <tag k="tourism" v="museum"/>
    <tag k="website" v="http://www.berlinerfestspiele.de/de/aktuell/festivals/11_gropiusbau/mgb_start.php"/>
    <tag k="wheelchair" v="yes"/>
  </node>
  <node id="71366427" version="9" timestamp="2012-01-04T16:26:47Z" uid="66391" user="geozeisig" changeset="10292624" lat="52.5067107" lon="13.3819622"/>
  <node id="71366436" version="1" timestamp="2007-10-14T18:38:05Z" uid="6454" user="B10xxx" changeset="165202" lat="52.5085675" lon="13.3797211">
    <tag k="created_by" v="JOSM"/>
    <tag k="man_made" v="tower"/>
    <tag k="name" v="DDR-Wachturm"/>
  </node>
  <node id="71366443" version="1" timestamp="2007-10-14T18:38:05Z" uid="6454" user="B10xxx" changeset="165202" lat="52.5074063" lon="13.380993">
    <tag k="created_by" v="JOSM"/>
  </node>
  <node id="71366443" version="2" timestamp="2007-10-16T13:30:38Z" uid="6454" user="B10xxx" changeset="209069" lat="52.5076115" lon="13.3816">
    <tag k="created_by" v="Potlatch 0.4a"/>
  </node>
  <node id="71366443" version="3" timestamp="2007-11-09T21:32:00Z" uid="18123" user="BlackMagic" changeset="453659" lat="52.5076036" lon="13.3816178">
    <tag k="created_by" v="Potlatch 0.4c"/>
  </node>
  <node id="71366443" version="4" timestamp="2008-01-03T00:03:40Z" uid="6454" user="B10xxx" changeset="524161" lat="52.5077352" lon="13.3815154">
    <tag k="created_by" v="Potlatch 0.4c"/>
    <tag k="tourism" v="Berliner Abgeordnetenhaus"/>
  </node>
  <node id="71366443" version="5" timestamp="2008-04-30T15:00:31Z" uid="35787" user="Randbewohner" changeset="296836" lat="52.5077377" lon="13.3815164">
    <tag k="amenity" v="public_building"/>
    <tag k="created_by" v="Potlatch 0.8b"/>
    <tag k="public_building" v="Abgeordnetenhaus von Berlin"/>
  </node>
  <node id="71366443" version="6" timestamp="2008-04-30T15:00:35Z" uid="35787" user="Randbewohner" changeset="296836" lat="52.5075548" lon="13.3815851">
    <tag k="amenity" v="public_building"/>
    <tag k="created_by" v="Potlatch 0.8b"/>
    <tag k="public_building" v="Abgeordnetenhaus von Berlin"/>
  </node>
  <node id="71366443" version="7" timestamp="2009-03-08T16:01:17Z" uid="43566" user="anbr" changeset="757754" lat="52.5075548" lon="13.3815851">
    <tag k="amenity" v="public_building"/>
    <tag k="name" v="Abgeordnetenhaus von Berlin"/>
  </node>
  <node id="71366443" version="8" timestamp="2009-05-10T17:33:20Z" uid="115651" user="Konrad Aust" changeset="1142410" lat="52.5075548" lon="13.3815851">
    <tag k="amenity" v="public_building"/>
    <tag k="name" v="Abgeordnetenhaus von Berlin"/>
  </node>
  <node id="71366453" version="1" timestamp="2007-10-14T18:38:05Z" uid="6454" user="B10xxx" changeset="165202" lat="52.5095228" lon="13.381453">
    <tag k="created_by" v="JOSM"/>
    <tag k="name" v="Deutscher Bundesrat"/>
    <tag k="tourism" v="attraction"/>
  </node>
  <node id="71366453" version="2" timestamp="2007-10-16T13:30:51Z" uid="6454" user="B10xxx" changeset="209069" lat="52.5092936" lon="13.3813425">
    <tag k="created_by" v="Potlatch 0.4a"/>
    <tag k="name" v="Deutscher Bundesrat"/>
    <tag k="tourism" v="attraction"/>
  </node>
  <node id="71366453" version="3" timestamp="2007-11-09T21:31:54Z" uid="18123" user="BlackMagic" changeset="453659" lat="52.5092962" lon="13.3813346">
    <tag k="created_by" v="Potlatch 0.4c"/>
    <tag k="name" v="Deutscher Bundesrat"/>
    <tag k="tourism" v="attraction"/>
  </node>
  <node id="71366453" version="4" timestamp="2008-01-01T14:49:14Z" uid="17544" user="Donsen64" changeset="506425" lat="52.5092991" lon="13.3813313">
    <tag k="created_by" v="Potlatch 0.6"/>
    <tag k="name" v="Deutscher Bundesrat"/>
    <tag k="tourism" v="attraction"/>
  </node>
  <node id="71366453" version="5" timestamp="2008-04-29T19:22:30Z" uid="35787" user="Randbewohner" changeset="290191" lat="52.509301" lon="13.3813293">
    <tag k="created_by" v="Potlatch 0.8b"/>
    <tag k="name" v="Bundesrat"/>
    <tag k="tourism" v="attraction"/>
  </node>
  <node id="71366453" version="6" timestamp="2008-04-30T14:59:39Z" uid="35787" user="Randbewohner" changeset="296836" lat="52.5093049" lon="13.3813362">
    <tag k="amenity" v="public_building"/>
    <tag k="created_by" v="Potlatch 0.8b"/>
    <tag k="name" v="Bundesrat"/>
  </node>
  <node id="71366453" version="7" timestamp="2008-06-24T08:58:11Z" uid="33221" user="tommie19" changeset="282274" lat="52.5095243" lon="13.3812615">
    <tag k="amenity" v="public_building"/>
    <tag k="created_by" v="Potlatch 0.9c"/>
    <tag k="name" v="Bundesrat"/>
  </node>
  <node id="71366453" version="8" timestamp="2009-05-10T17:32:54Z" uid="115651" user="Konrad Aust" changeset="1142410" lat="52.5095243" lon="13.3812615">
    <tag k="amenity" v="public_building"/>
    <tag k="created_by" v="Potlatch 0.9c"/>
    <tag k="name" v="Bundesrat"/>
  </node>
  <node id="71366436" version="2" timestamp="2012-07-18T12:33:17Z" uid="722137" user="OSMF Redaction Account" changeset="12282016" lat="52.5085675" lon="13.3797211"/>
</osm>
