<?xml version='1.0' encoding='UTF-8'?>
<osm version="0.6" generator="libosmium/2.20.0">
  <node id="71470900" version="1" timestamp="2007-10-14T19:39:47Z" uid="6454" user="B10xxx" changeset="165202" lat="52.5126525" lon="13.3189264">
    <tag k="amenity" v="fuel"/>
    <tag k="created_by" v="Potlatch 0.4a"/>
  </node>
  <node id="71470900" version="2" timestamp="2008-03-08T09:50:36Z" uid="6669" user="Elwood" changeset="284304" lat="52.5127216" lon="13.3195741">
    <tag k="amenity" v="fuel"/>
    <tag k="created_by" v="Potlatch 0.4a"/>
  </node>
  <node id="71470900" version="3" timestamp="2009-03-21T10:58:34Z" uid="88961" user="Shmias" changeset="841519" lat="52.5127216" lon="13.3195741">
    <tag k="amenity" v="fuel"/>
    <tag k="name" v="aral"/>
  </node>
  <node id="71470900" version="4" timestamp="2009-03-21T10:58:44Z" uid="88961" user="Shmias" changeset="841519" lat="52.5127216" lon="13.3195741">
    <tag k="amenity" v="fuel"/>
    <tag k="name" v="Aral"/>
  </node>
  <node id="71470900" version="5" timestamp="2009-12-12T10:27:34Z" uid="6669" user="Elwood" changeset="3354663" lat="52.5127216" lon="13.3195741">
    <tag k="addr:city" v="Berlin"/>
    <tag k="addr:country" v="DE"/>
    <tag k="amenity" v="fuel"/>
    <tag k="name" v="Aral"/>
  </node>
  <node id="71470900" version="6" timestamp="2011-11-11T07:55:37Z" uid="290680" user="wheelmap_visitor" changeset="9794046" lat="52.5127216" lon="13.3195741">
    <tag k="addr:city" v="Berlin"/>
    <tag k="addr:country" v="DE"/>
    <tag k="amenity" v="fuel"/>
    <tag k="name" v="Aral"/>
    <tag k="wheelchair" v="yes"/>
  </node>
  <node id="71471955" version="1" timestamp="2007-10-14T19:40:43Z" uid="6454" user="B10xxx" changeset="165202" lat="52.508813" lon="13.3239218">
    <tag k="amenity" v="post_office"/>
    <tag k="created_by" v="Potlatch 0.4a"/>
  </node>
  <node id="71471955" version="2" timestamp="2007-12-01T02:07:58Z" uid="6454" user="B10xxx" changeset="22961" lat="52.508813" lon="13.3239218">
    <tag k="amenity" v="post_office"/>
    <tag k="created_by" v="Potlatch 0.5d"/>
  </node>
  <node id="71471955" version="3" timestamp="2009-02-08T22:23:14Z" uid="74224" user="gkai" changeset="282669" lat="52.5087899" lon="13.3243288">
    <tag k="amenity" v="post_office"/>
    <tag k="created_by" v="Potlatch 0.5d"/>
    <tag k="operator" v="Deutsche Post AG"/>
  </node>
  <node id="71471955" version="4" timestamp="2009-03-21T10:33:11Z" uid="88961" user="Shmias" changeset="841519" lat="52.5087899" lon="13.3243288">
    <tag k="amenity" v="post_office"/>
    <tag k="created_by" v="Potlatch 0.5d"/>
    <tag k="operator" v="Deutsche Post AG"/>
  </node>
  <node id="71472165" version="2" timestamp="2009-04-14T13:48:41Z" uid="20587" user="balrog-kun" changeset="527276" lat="52.0359209" lon="21.1159985">
    <tag k="created_by" v="JOSM"/>
  </node>
  <node id="71472167" version="2" timestamp="2009-04-14T13:48:41Z" uid="20587" user="balrog-kun" changeset="527276" lat="52.0291474" lon="21.1177325">
    <tag k="created_by" v="JOSM"/>
  </node>
  <node id="71472172" version="3" timestamp="2008-09-17T13:06:02Z" uid="20587" user="balrog-kun" changeset="655233" lat="52.0263077" lon="21.1187511">
    <tag k="created_by" v="JOSM"/>
  </node>
  <node id="71472172" version="4" timestamp="2009-04-14T13:48:40Z" uid="20587" user="balrog-kun" changeset="527276" lat="52.0261782" lon="21.1184565">
    <tag k="created_by" v="JOSM"/>
  </node>
  <node id="71477676" version="3" timestamp="2008-02-16T19:52:16Z" uid="6975" user="ulfl" changeset="141861" lat="48.2608439" lon="11.4698702">
    <tag k="amenity" v="fast_food"/>
    <tag k="name" v="Burger King"/>
  </node>
  <node id="71477676" version="4" timestamp="2009-01-02T16:41:17Z" uid="88020" user="sMike" changeset="708354" lat="48.2608478" lon="11.4698639">
    <tag k="amenity" v="fast_food"/>
    <tag k="created_by" v="Potlatch 0.10f"/>
    <tag k="cuisine" v="burger"/>
    <tag k="name" v="Burger King"/>
  </node>
  <node id="71477676" version="5" timestamp="2009-08-07T13:39:24Z" uid="7596" user="ck3d" changeset="2066272" lat="48.2607654" lon="11.4700867">
    <tag k="amenity" v="fast_food"/>
    <tag k="cuisine" v="burger"/>
    <tag k="name" v="Burger King"/>
  </node>
  <node id="71477676" version="6" timestamp="2011-11-01T12:17:40Z" uid="290680" user="wheelmap_visitor" changeset="9709814" lat="48.2607654" lon="11.4700867">
    <tag k="amenity" v="fast_food"/>
    <tag k="cuisine" v="burger"/>
    <tag k="name" v="Burger King"/>
    <tag k="wheelchair" v="yes"/>
  </node>
  <node id="71478784" version="1" timestamp="2007-10-14T19:44:47Z" uid="6454" user="B10xxx" changeset="165202" lat="52.5188524" lon="13.295426">
    <tag k="created_by" v="Potlatch 0.4a"/>
    <tag k="historic" v="museum"/>
  </node>
  <node id="71478784" version="2" timestamp="2007-12-17T13:51:42Z" uid="10549" user="toaster" changeset="337205" lat="52.5188524" lon="13.295426">
    <tag k="created_by" v="Potlatch 0.4a"/>
    <tag k="historic" v="museum"/>
  </node>
  <node id="71478817" version="2" timestamp="2008-02-16T19:52:19Z" uid="6975" user="ulfl" changeset="141861" lat="48.2621867" lon="11.4724881">
    <tag k="amenity" v="fast_food"/>
    <tag k="name" v="McDonalds"/>
  </node>
  <node id="71478817" version="3" timestamp="2008-08-14T21:30:13Z" uid="36694" user="neufeind" changeset="268587" lat="48.2621867" lon="11.4724881">
    <tag k="amenity" v="fast_food"/>
    <tag k="name" v="McDonald&apos;s"/>
  </node>
  <node id="71478817" version="4" timestamp="2009-01-02T16:42:00Z" uid="88020" user="sMike" changeset="708354" lat="48.2621906" lon="11.4724818">
    <tag k="amenity" v="fast_food"/>
    <tag k="created_by" v="Potlatch 0.10f"/>
    <tag k="cuisine" v="burger"/>
    <tag k="name" v="McDonald&apos;s"/>
  </node>
  <node id="71478817" version="5" timestamp="2009-09-25T10:41:21Z" uid="88020" user="sMike" changeset="2616602" lat="48.2621207" lon="11.4724805">
    <tag k="amenity" v="fast_food"/>
    <tag k="cuisine" v="burger"/>
    <tag k="name" v="McDonald&apos;s"/>
  </node>
  <node id="71478817" version="6" timestamp="2009-11-15T19:58:21Z" uid="31075" user="wieland" changeset="3126310" lat="48.2623466" lon="11.4726978">
    <tag k="amenity" v="fast_food"/>
    <tag k="cuisine" v="burger"/>
    <tag k="name" v="McDonald&apos;s"/>
  </node>
  <node id="71478817" version="7" timestamp="2011-11-01T12:23:45Z" uid="290680" user="wheelmap_visitor" changeset="9709814" lat="48.2623466" lon="11.4726978">
    <tag k="amenity" v="fast_food"/>
    <tag k="cuisine" v="burger"/>
    <tag k="name" v="McDonald&apos;s"/>
    <tag k="wheelchair" v="yes"/>
  </node>
  <node id="71479349" version="1" timestamp="2007-10-14T19:45:05Z" uid="6454" user="B10xxx" changeset="165202" lat="52.5186174" lon="13.2954775">
    <tag k="created_by" v="Potlatch 0.4a"/>
    <tag k="historic" v="museum"/>
  </node>
  <node id="71479349" version="2" timestamp="2007-10-14T20:06:06Z" uid="6454" user="B10xxx" changeset="165202" lat="52.5186174" lon="13.2954775">
    <tag k="created_by" v="Potlatch 0.4a"/>
    <tag k="historic" v="museum"/>
    <tag k="name" v="Bröhan-Museum"/>
  </node>
  <node id="71479349" version="3" timestamp="2008-03-26T11:06:30Z" uid="28052" user="CvR" changeset="402469" lat="52.5186174" lon="13.2954775">
    <tag k="name" v="Bröhan-Museum"/>
    <tag k="tourism" v="museum"/>
  </node>
  <node id="71479349" version="4" timestamp="2010-06-14T20:21:41Z" uid="74224" user="gkai" changeset="4990975" lat="52.5188968" lon="13.2953991">
    <tag k="name" v="Bröhan-Museum"/>
    <tag k="tourism" v="museum"/>
    <tag k="website" v="http://www.broehan-museum.de/"/>
    <tag k="wikipedia" v="http://de.wikipedia.org/wiki/Bröhan-Museum"/>
  </node>
  <node id="71479349" version="5" timestamp="2010-12-04T00:04:55Z" uid="59428" user="Plan_A" changeset="6533405" lat="52.5188488" lon="13.2954154">
    <tag k="name" v="Bröhan-Museum"/>
    <tag k="tourism" v="museum"/>
    <tag k="website" v="http://www.broehan-museum.de/"/>
    <tag k="wikipedia" v="http://de.wikipedia.org/wiki/Bröhan-Museum"/>
  </node>
  <node id="71470900" version="7" timestamp="2012-05-18T18:04:23Z" uid="39457" user="Markus59" changeset="11635728" lat="52.5127216" lon="13.3195741">
    <tag k="addr:city" v="Berlin"/>
    <tag k="addr:country" v="DE"/>
    <tag k="addr:housenumber" v="1-2"/>
    <tag k="addr:street" v="Bismarckstraße"/>
    <tag k="amenity" v="fuel"/>
    <tag k="name" v="Aral"/>
    <tag k="operator" v="Torsten Hauser"/>
    <tag k="wheelchair" v="yes"/>
  </node>
  <node id="71470900" version="8" timestamp="2012-07-19T16:06:28Z" uid="722137" user="OSMF Redaction Account" changeset="12337720" lat="52.5127216" lon="13.3195741">
    <tag k="addr:city" v="Berlin"/>
    <tag k="addr:country" v="DE"/>
    <tag k="addr:housenumber" v="1-2"/>
    <tag k="addr:street" v="Bismarckstraße"/>
    <tag k="name" v="Aral"/>
    <tag k="operator" v="Torsten Hauser"/>
    <tag k="wheelchair" v="yes"/>
  </node>
  <node id="71470900" version="9" timestamp="2012-07-20T09:26:32Z" uid="74224" user="gkai" changeset="12369867" lat="52.5127216" lon="13.3195741">
    <tag k="addr:city" v="Berlin"/>
    <tag k="addr:country" v="DE"/>
    <tag k="addr:housenumber" v="1-2"/>
    <tag k="addr:street" v="Bismarckstraße"/>
    <tag k="amenity" v="fuel"/>
    <tag k="name" v="Aral"/>
    <tag k="operator" v="Torsten Hauser"/>
    <tag k="wheelchair" v="yes"/>
  </node>
  <node id="71477676" version="7" timestamp="2012-04-14T23:09:49Z" uid="152074" user="beweta" changeset="11304959" lat="48.2607654" lon="11.4700867"/>
  <node id="71479349" version="6" timestamp="2012-07-19T16:28:01Z" uid="722137" user="OSMF Redaction Account" changeset="12339091" lat="52.5188488" lon="13.2954154">
    <tag k="tourism" v="museum"/>
    <tag k="website" v="http://www.broehan-museum.de/"/>
    <tag k="wikipedia" v="http://de.wikipedia.org/wiki/Bröhan-Museum"/>
  </node>
  <node id="71479349" version="7" timestamp="2012-07-20T08:40:37Z" uid="74224" user="gkai" changeset="12368688" lat="52.5188488" lon="13.2954154">
    <tag k="name" v="Bröhan-Museum"/>
    <tag k="tourism" v="museum"/>
    <tag k="website" v="http://www.broehan-museum.de/"/>
    <tag k="wikipedia" v="http://de.wikipedia.org/wiki/Bröhan-Museum"/>
  </node>
  <node id="71479349" version="8" timestamp="2012-08-05T19:37:31Z" uid="783581" user="Gabixyz" changeset="12625150" lat="52.5188488" lon="13.2954154">
    <tag k="name" v="Bröhan-Museum"/>
    <tag k="tourism" v="museum"/>
    <tag k="website" v="http://www.broehan-museum.de/"/>
    <tag k="wheelchair" v="yes"/>
    <tag k="wheelchair:description" v="Parkplatz und Fahrstuhl im Innenhof"/>
    <tag k="wikipedia" v="http://de.wikipedia.org/wiki/Bröhan-Museum"/>
  </node>
</osm>
