<?xml version='1.0' encoding='UTF-8'?>
<osm version="0.6" generator="libosmium/2.20.0">
  <node id="7161701" version="2" timestamp="2008-02-16T19:25:08Z" uid="6975" user="ulfl" changeset="141861" lat="52.1442534" lon="-0.5356942">
    <tag k="name" v="Morrisions"/>
    <tag k="shop" v="supermarket"/>
  </node>
  <node id="7161701" version="3" timestamp="2010-10-07T09:00:44Z" uid="6001" user="roundel" changeset="5976275" lat="52.1442534" lon="-0.5356943">
    <tag k="name" v="Budgens"/>
    <tag k="shop" v="supermarket"/>
  </node>
  <node id="7161701" version="4" timestamp="2011-01-28T22:08:01Z" uid="1295" user="robert" changeset="7117720" lat="52.1444711" lon="-0.5354429">
    <tag k="name" v="Budgens"/>
    <tag k="shop" v="supermarket"/>
  </node>
  <node id="7168893" version="3" timestamp="2008-07-04T21:32:16Z" uid="6975" user="ulfl" changeset="395915" lat="51.7293906" lon="-1.2400663">
    <tag k="name" v="Iffley Lock"/>
    <tag k="waterway" v="lock_gate"/>
  </node>
  <node id="7168893" version="4" timestamp="2008-10-10T16:13:12Z" uid="3984" user="Socks" changeset="221599" lat="51.7294847" lon="-1.2400793">
    <tag k="name" v="Iffley Lock"/>
    <tag k="waterway" v="lock_gate"/>
  </node>
  <node id="7168893" version="5" timestamp="2009-04-04T21:12:06Z" uid="84263" user="Robert Whittaker" changeset="196350" lat="51.7294379" lon="-1.2400869">
    <tag k="name" v="Iffley Lock"/>
    <tag k="waterway" v="lock_gate"/>
  </node>
</osm>
