<?xml version='1.0' encoding='UTF-8'?>
<osm version="0.6" generator="libosmium/2.20.0">
  <node id="723188262" version="2" timestamp="2010-07-29T09:37:35Z" uid="74617" user="JohnSmith" changeset="5344848" lat="46.1106871" lon="8.8452901">
    <tag k="amenity" v="emergency_phone"/>
    <tag k="emergency" v="phone"/>
    <tag k="operator" v="TCS"/>
  </node>
  <node id="723188308" version="2" timestamp="2010-07-29T09:14:39Z" uid="74617" user="JohnSmith" changeset="5344848" lat="46.1291233" lon="8.8352828">
    <tag k="amenity" v="emergency_phone"/>
    <tag k="emergency" v="phone"/>
    <tag k="operator" v="TCS"/>
  </node>
  <node id="723188262" version="3" timestamp="2012-06-28T18:26:16Z" uid="88164" user="Med" changeset="12049581" lat="46.1106871" lon="8.8452901">
    <tag k="emergency" v="phone"/>
    <tag k="operator" v="TCS"/>
  </node>
  <node id="723188262" version="4" timestamp="2012-07-17T09:20:15Z" uid="722137" user="OSMF Redaction Account" changeset="12261501" lat="46.1106871" lon="8.8452901">
    <tag k="operator" v="TCS"/>
  </node>
  <node id="723188262" version="5" timestamp="2012-08-25T21:13:22Z" uid="149097" user="AlexanderF" changeset="12860410" lat="46.1106973" lon="8.8452721">
    <tag k="amenity" v="emergency_phone"/>
    <tag k="emergency" v="phone"/>
    <tag k="operator" v="TCS"/>
  </node>
  <node id="723188308" version="3" timestamp="2012-06-28T18:26:16Z" uid="88164" user="Med" changeset="12049581" lat="46.1291233" lon="8.8352828">
    <tag k="emergency" v="phone"/>
    <tag k="operator" v="TCS"/>
  </node>
  <node id="723188308" version="4" timestamp="2012-07-17T09:19:06Z" uid="722137" user="OSMF Redaction Account" changeset="12261480" lat="46.1291233" lon="8.8352828">
    <tag k="operator" v="TCS"/>
  </node>
  <node id="723188308" version="5" timestamp="2012-08-25T21:13:22Z" uid="149097" user="AlexanderF" changeset="12860410" lat="46.1291233" lon="8.8352828">
    <tag k="amenity" v="emergency_phone"/>
    <tag k="emergency" v="phone"/>
    <tag k="operator" v="TCS"/>
  </node>
</osm>
