<?xml version='1.0' encoding='UTF-8'?>
<osm version="0.6" generator="libosmium/2.20.0">
  <node id="726830941" version="1" timestamp="2010-05-08T21:13:15Z" uid="36809" user="pfoten_weg_!_" changeset="4643165" lat="48.0750062" lon="11.5074758">
    <tag k="addr:city" v="München"/>
    <tag k="addr:country" v="DE"/>
    <tag k="addr:housenumber" v="37"/>
    <tag k="addr:postcode" v="81477"/>
    <tag k="addr:street" v="Diezweg"/>
  </node>
  <node id="726830942" version="1" timestamp="2010-05-08T21:13:15Z" uid="36809" user="pfoten_weg_!_" changeset="4643165" lat="48.0751848" lon="11.5078499">
    <tag k="addr:city" v="München"/>
    <tag k="addr:country" v="DE"/>
    <tag k="addr:housenumber" v="34"/>
    <tag k="addr:postcode" v="81477"/>
    <tag k="addr:street" v="Diezweg"/>
  </node>
  <node id="726830943" version="1" timestamp="2010-05-08T21:13:15Z" uid="36809" user="pfoten_weg_!_" changeset="4643165" lat="48.0761237" lon="11.5073071">
    <tag k="addr:city" v="München"/>
    <tag k="addr:country" v="DE"/>
    <tag k="addr:housenumber" v="20"/>
    <tag k="addr:postcode" v="81477"/>
    <tag k="addr:street" v="Eberlestraße"/>
  </node>
  <node id="726830944" version="1" timestamp="2010-05-08T21:13:15Z" uid="36809" user="pfoten_weg_!_" changeset="4643165" lat="48.0761908" lon="11.5076659">
    <tag k="addr:city" v="München"/>
    <tag k="addr:country" v="DE"/>
    <tag k="addr:housenumber" v="17"/>
    <tag k="addr:postcode" v="81477"/>
    <tag k="addr:street" v="Eberlestraße"/>
  </node>
  <node id="726830945" version="1" timestamp="2010-05-08T21:13:15Z" uid="36809" user="pfoten_weg_!_" changeset="4643165" lat="48.0763887" lon="11.5074335">
    <tag k="addr:city" v="München"/>
    <tag k="addr:country" v="DE"/>
    <tag k="addr:housenumber" v="18"/>
    <tag k="addr:postcode" v="81477"/>
    <tag k="addr:street" v="Eberlestraße"/>
  </node>
  <node id="726830946" version="1" timestamp="2010-05-08T21:13:15Z" uid="36809" user="pfoten_weg_!_" changeset="4643165" lat="48.0757935" lon="11.5071496">
    <tag k="addr:city" v="München"/>
    <tag k="addr:country" v="DE"/>
    <tag k="addr:housenumber" v="24"/>
    <tag k="addr:postcode" v="81477"/>
    <tag k="addr:street" v="Eberlestraße"/>
  </node>
  <node id="726830948" version="1" timestamp="2010-05-08T21:13:15Z" uid="36809" user="pfoten_weg_!_" changeset="4643165" lat="48.0748881" lon="11.523034">
    <tag k="name" v="Getränke Planet"/>
    <tag k="shop" v="beverages"/>
  </node>
  <node id="726830949" version="1" timestamp="2010-05-08T21:13:15Z" uid="36809" user="pfoten_weg_!_" changeset="4643165" lat="48.0766725" lon="11.5071459">
    <tag k="addr:city" v="München"/>
    <tag k="addr:country" v="DE"/>
    <tag k="addr:housenumber" v="31"/>
    <tag k="addr:postcode" v="81477"/>
    <tag k="addr:street" v="Schultheissstraße"/>
  </node>
  <node id="726830950" version="1" timestamp="2010-05-08T21:13:15Z" uid="36809" user="pfoten_weg_!_" changeset="4643165" lat="48.0753468" lon="11.5072769">
    <tag k="addr:city" v="München"/>
    <tag k="addr:country" v="DE"/>
    <tag k="addr:housenumber" v="25"/>
    <tag k="addr:postcode" v="81477"/>
    <tag k="addr:street" v="Eberlestraße"/>
  </node>
  <node id="726830951" version="1" timestamp="2010-05-08T21:13:15Z" uid="36809" user="pfoten_weg_!_" changeset="4643165" lat="48.0755379" lon="11.507359">
    <tag k="addr:city" v="München"/>
    <tag k="addr:country" v="DE"/>
    <tag k="addr:housenumber" v="23"/>
    <tag k="addr:postcode" v="81477"/>
    <tag k="addr:street" v="Eberlestraße"/>
  </node>
  <node id="726830952" version="1" timestamp="2010-05-08T21:13:15Z" uid="36809" user="pfoten_weg_!_" changeset="4643165" lat="48.0755311" lon="11.5238589">
    <tag k="amenity" v="bank"/>
    <tag k="name" v="Hypo-Vereinsbank"/>
  </node>
  <node id="726830953" version="1" timestamp="2010-05-08T21:13:15Z" uid="36809" user="pfoten_weg_!_" changeset="4643165" lat="48.0763208" lon="11.507721">
    <tag k="addr:city" v="München"/>
    <tag k="addr:country" v="DE"/>
    <tag k="addr:housenumber" v="15"/>
    <tag k="addr:postcode" v="81477"/>
    <tag k="addr:street" v="Eberlestraße"/>
  </node>
  <node id="726830954" version="1" timestamp="2010-05-08T21:13:15Z" uid="36809" user="pfoten_weg_!_" changeset="4643165" lat="48.0751999" lon="11.507742">
    <tag k="addr:city" v="München"/>
    <tag k="addr:country" v="DE"/>
    <tag k="addr:housenumber" v="36"/>
    <tag k="addr:postcode" v="81477"/>
    <tag k="addr:street" v="Diezweg"/>
  </node>
  <node id="726830955" version="1" timestamp="2010-05-08T21:13:15Z" uid="36809" user="pfoten_weg_!_" changeset="4643165" lat="48.0749968" lon="11.5093359">
    <tag k="addr:city" v="München"/>
    <tag k="addr:country" v="DE"/>
    <tag k="addr:housenumber" v="16"/>
    <tag k="addr:postcode" v="81477"/>
    <tag k="addr:street" v="Diezweg"/>
  </node>
  <node id="726830956" version="1" timestamp="2010-05-08T21:13:15Z" uid="36809" user="pfoten_weg_!_" changeset="4643165" lat="48.0756225" lon="11.5070681">
    <tag k="addr:city" v="München"/>
    <tag k="addr:country" v="DE"/>
    <tag k="addr:housenumber" v="28"/>
    <tag k="addr:postcode" v="81477"/>
    <tag k="addr:street" v="Eberlestraße"/>
  </node>
  <node id="726830957" version="1" timestamp="2010-05-08T21:13:15Z" uid="36809" user="pfoten_weg_!_" changeset="4643165" lat="48.0753798" lon="11.5069525">
    <tag k="addr:city" v="München"/>
    <tag k="addr:country" v="DE"/>
    <tag k="addr:housenumber" v="32"/>
    <tag k="addr:postcode" v="81477"/>
    <tag k="addr:street" v="Eberlestraße"/>
  </node>
  <node id="726830958" version="1" timestamp="2010-05-08T21:13:16Z" uid="36809" user="pfoten_weg_!_" changeset="4643165" lat="48.0754708" lon="11.507328">
    <tag k="addr:city" v="München"/>
    <tag k="addr:country" v="DE"/>
    <tag k="addr:housenumber" v="23A"/>
    <tag k="addr:postcode" v="81477"/>
    <tag k="addr:street" v="Eberlestraße"/>
  </node>
  <node id="726830959" version="1" timestamp="2010-05-08T21:13:16Z" uid="36809" user="pfoten_weg_!_" changeset="4643165" lat="48.0759519" lon="11.5072252">
    <tag k="addr:city" v="München"/>
    <tag k="addr:country" v="DE"/>
    <tag k="addr:housenumber" v="22"/>
    <tag k="addr:postcode" v="81477"/>
    <tag k="addr:street" v="Eberlestraße"/>
  </node>
  <node id="726830961" version="1" timestamp="2010-05-08T21:13:16Z" uid="36809" user="pfoten_weg_!_" changeset="4643165" lat="48.0760978" lon="11.5076319">
    <tag k="addr:city" v="München"/>
    <tag k="addr:country" v="DE"/>
    <tag k="addr:housenumber" v="19"/>
    <tag k="addr:postcode" v="81477"/>
    <tag k="addr:street" v="Eberlestraße"/>
  </node>
  <node id="726830962" version="1" timestamp="2010-05-08T21:13:16Z" uid="36809" user="pfoten_weg_!_" changeset="4643165" lat="48.0751369" lon="11.5080109">
    <tag k="addr:city" v="München"/>
    <tag k="addr:country" v="DE"/>
    <tag k="addr:housenumber" v="26"/>
    <tag k="addr:postcode" v="81477"/>
    <tag k="addr:street" v="Diezweg"/>
  </node>
  <node id="726830963" version="1" timestamp="2010-05-08T21:13:16Z" uid="36809" user="pfoten_weg_!_" changeset="4643165" lat="48.075715" lon="11.5071122">
    <tag k="addr:city" v="München"/>
    <tag k="addr:country" v="DE"/>
    <tag k="addr:housenumber" v="26"/>
    <tag k="addr:postcode" v="81477"/>
    <tag k="addr:street" v="Eberlestraße"/>
  </node>
  <node id="726830964" version="1" timestamp="2010-05-08T21:13:16Z" uid="36809" user="pfoten_weg_!_" changeset="4643165" lat="48.0749904" lon="11.5075454">
    <tag k="addr:city" v="München"/>
    <tag k="addr:country" v="DE"/>
    <tag k="addr:housenumber" v="35"/>
    <tag k="addr:postcode" v="81477"/>
    <tag k="addr:street" v="Diezweg"/>
  </node>
  <node id="726830965" version="1" timestamp="2010-05-08T21:13:16Z" uid="36809" user="pfoten_weg_!_" changeset="4643165" lat="48.0755021" lon="11.5070108">
    <tag k="addr:city" v="München"/>
    <tag k="addr:country" v="DE"/>
    <tag k="addr:housenumber" v="30"/>
    <tag k="addr:postcode" v="81477"/>
    <tag k="addr:street" v="Eberlestraße"/>
  </node>
  <node id="726830966" version="1" timestamp="2010-05-08T21:13:16Z" uid="36809" user="pfoten_weg_!_" changeset="4643165" lat="48.0759617" lon="11.5243769">
    <tag k="addr:city" v="München"/>
    <tag k="addr:housenumber" v="181"/>
    <tag k="addr:postcode" v="81479"/>
    <tag k="addr:street" v="Wolfratshauser Straße"/>
    <tag k="name" v="Bang &amp; Olufsen"/>
    <tag k="shop" v="hifi"/>
  </node>
  <node id="726830967" version="1" timestamp="2010-05-08T21:13:16Z" uid="36809" user="pfoten_weg_!_" changeset="4643165" lat="48.0757338" lon="11.5074449">
    <tag k="addr:city" v="München"/>
    <tag k="addr:country" v="DE"/>
    <tag k="addr:housenumber" v="21"/>
    <tag k="addr:postcode" v="81477"/>
    <tag k="addr:street" v="Eberlestraße"/>
  </node>
  <node id="726831288" version="2" timestamp="2010-07-29T09:39:14Z" uid="74617" user="JohnSmith" changeset="5344848" lat="49.0644249" lon="9.3537818">
    <tag k="amenity" v="emergency_phone"/>
    <tag k="emergency" v="phone"/>
  </node>
  <node id="726831288" version="3" timestamp="2012-01-12T11:00:19Z" uid="131968" user="changchun_1" changeset="10368422" lat="49.0644249" lon="9.3537818"/>
  <node id="726831987" version="1" timestamp="2010-05-08T21:15:52Z" uid="36809" user="pfoten_weg_!_" changeset="4643195" lat="48.0799763" lon="11.4988145"/>
  <node id="726831988" version="1" timestamp="2010-05-08T21:15:53Z" uid="36809" user="pfoten_weg_!_" changeset="4643195" lat="48.0797127" lon="11.4988107"/>
  <node id="726831989" version="1" timestamp="2010-05-08T21:15:53Z" uid="36809" user="pfoten_weg_!_" changeset="4643195" lat="48.0788981" lon="11.5066962">
    <tag k="addr:city" v="München"/>
    <tag k="addr:country" v="DE"/>
    <tag k="addr:housenumber" v="16"/>
    <tag k="addr:postcode" v="81477"/>
    <tag k="addr:street" v="Alfred-Kubin-Weg"/>
  </node>
  <node id="726831990" version="1" timestamp="2010-05-08T21:15:53Z" uid="36809" user="pfoten_weg_!_" changeset="4643195" lat="48.0783567" lon="11.5068766"/>
  <node id="726831991" version="1" timestamp="2010-05-08T21:15:53Z" uid="36809" user="pfoten_weg_!_" changeset="4643195" lat="48.0792013" lon="11.4957915"/>
  <node id="726831992" version="1" timestamp="2010-05-08T21:15:53Z" uid="36809" user="pfoten_weg_!_" changeset="4643195" lat="48.0799827" lon="11.4987443">
    <tag k="addr:city" v="München"/>
    <tag k="addr:country" v="DE"/>
    <tag k="addr:housenumber" v="141"/>
    <tag k="addr:postcode" v="81477"/>
    <tag k="addr:street" v="Herterichstraße"/>
  </node>
  <node id="726831993" version="1" timestamp="2010-05-08T21:15:53Z" uid="36809" user="pfoten_weg_!_" changeset="4643195" lat="48.0800682" lon="11.4974288"/>
  <node id="726831994" version="1" timestamp="2010-05-08T21:15:53Z" uid="36809" user="pfoten_weg_!_" changeset="4643195" lat="48.0792858" lon="11.5066845">
    <tag k="addr:city" v="München"/>
    <tag k="addr:country" v="DE"/>
    <tag k="addr:housenumber" v="8"/>
    <tag k="addr:postcode" v="81477"/>
    <tag k="addr:street" v="Alfred-Kubin-Weg"/>
  </node>
  <node id="726831995" version="1" timestamp="2010-05-08T21:15:53Z" uid="36809" user="pfoten_weg_!_" changeset="4643195" lat="48.0781612" lon="11.5065797"/>
  <node id="726831996" version="1" timestamp="2010-05-08T21:15:53Z" uid="36809" user="pfoten_weg_!_" changeset="4643195" lat="48.078121" lon="11.5068338"/>
  <node id="726831997" version="1" timestamp="2010-05-08T21:15:53Z" uid="36809" user="pfoten_weg_!_" changeset="4643195" lat="48.0781773" lon="11.4967784"/>
  <node id="726831998" version="1" timestamp="2010-05-08T21:15:53Z" uid="36809" user="pfoten_weg_!_" changeset="4643195" lat="48.0773424" lon="11.5065619">
    <tag k="addr:city" v="München"/>
    <tag k="addr:country" v="DE"/>
    <tag k="addr:housenumber" v="17"/>
    <tag k="addr:postcode" v="81477"/>
    <tag k="addr:street" v="Sörgelstraße"/>
  </node>
  <node id="726832000" version="1" timestamp="2010-05-08T21:15:53Z" uid="36809" user="pfoten_weg_!_" changeset="4643195" lat="48.0783509" lon="11.5069474"/>
  <node id="726832001" version="1" timestamp="2010-05-08T21:15:53Z" uid="36809" user="pfoten_weg_!_" changeset="4643195" lat="48.0785199" lon="11.4955492"/>
  <node id="726832002" version="1" timestamp="2010-05-08T21:15:53Z" uid="36809" user="pfoten_weg_!_" changeset="4643195" lat="48.0800531" lon="11.4962439"/>
  <node id="726832003" version="1" timestamp="2010-05-08T21:15:53Z" uid="36809" user="pfoten_weg_!_" changeset="4643195" lat="48.0799838" lon="11.4987445">
    <tag k="barrier" v="entrance"/>
    <tag k="foot" v="yes"/>
  </node>
  <node id="726832004" version="1" timestamp="2010-05-08T21:15:53Z" uid="36809" user="pfoten_weg_!_" changeset="4643195" lat="48.0789989" lon="11.5066932">
    <tag k="addr:city" v="München"/>
    <tag k="addr:country" v="DE"/>
    <tag k="addr:housenumber" v="14"/>
    <tag k="addr:postcode" v="81477"/>
    <tag k="addr:street" v="Alfred-Kubin-Weg"/>
  </node>
  <node id="726832005" version="1" timestamp="2010-05-08T21:15:53Z" uid="36809" user="pfoten_weg_!_" changeset="4643195" lat="48.0788651" lon="11.5039439">
    <tag k="addr:city" v="München"/>
    <tag k="addr:country" v="DE"/>
    <tag k="addr:housenumber" v="115"/>
    <tag k="addr:postcode" v="81477"/>
    <tag k="addr:street" v="Herterichstraße"/>
  </node>
  <node id="726832006" version="1" timestamp="2010-05-08T21:15:53Z" uid="36809" user="pfoten_weg_!_" changeset="4643195" lat="48.0781664" lon="11.5065164"/>
  <node id="726832007" version="1" timestamp="2010-05-08T21:15:53Z" uid="36809" user="pfoten_weg_!_" changeset="4643195" lat="48.0781422" lon="11.5065762"/>
  <node id="726832008" version="1" timestamp="2010-05-08T21:15:54Z" uid="36809" user="pfoten_weg_!_" changeset="4643195" lat="48.0780778" lon="11.4977402"/>
  <node id="726832009" version="1" timestamp="2010-05-08T21:15:54Z" uid="36809" user="pfoten_weg_!_" changeset="4643195" lat="48.08008" lon="11.5011119">
    <tag k="addr:city" v="München"/>
    <tag k="addr:country" v="DE"/>
    <tag k="addr:housenumber" v="133"/>
    <tag k="addr:postcode" v="81477"/>
    <tag k="addr:street" v="Herterichstraße"/>
  </node>
  <node id="726832010" version="1" timestamp="2010-05-08T21:15:54Z" uid="36809" user="pfoten_weg_!_" changeset="4643195" lat="48.0784012" lon="11.5066311"/>
  <node id="726832011" version="1" timestamp="2010-05-08T21:15:54Z" uid="36809" user="pfoten_weg_!_" changeset="4643195" lat="48.0783854" lon="11.5065569"/>
  <node id="726832012" version="1" timestamp="2010-05-08T21:15:54Z" uid="36809" user="pfoten_weg_!_" changeset="4643195" lat="48.0793728" lon="11.506682">
    <tag k="addr:city" v="München"/>
    <tag k="addr:country" v="DE"/>
    <tag k="addr:housenumber" v="6"/>
    <tag k="addr:postcode" v="81477"/>
    <tag k="addr:street" v="Alfred-Kubin-Weg"/>
  </node>
  <node id="726832013" version="1" timestamp="2010-05-08T21:15:54Z" uid="36809" user="pfoten_weg_!_" changeset="4643195" lat="48.0801" lon="11.4976633"/>
  <node id="726832014" version="1" timestamp="2010-05-08T21:15:54Z" uid="36809" user="pfoten_weg_!_" changeset="4643195" lat="48.0788423" lon="11.5041369">
    <tag k="addr:city" v="München"/>
    <tag k="addr:country" v="DE"/>
    <tag k="addr:housenumber" v="113"/>
    <tag k="addr:postcode" v="81477"/>
    <tag k="addr:street" v="Herterichstraße"/>
  </node>
  <node id="726832016" version="1" timestamp="2010-05-08T21:15:54Z" uid="36809" user="pfoten_weg_!_" changeset="4643195" lat="48.0790971" lon="11.5066903">
    <tag k="addr:city" v="München"/>
    <tag k="addr:country" v="DE"/>
    <tag k="addr:housenumber" v="12"/>
    <tag k="addr:postcode" v="81477"/>
    <tag k="addr:street" v="Alfred-Kubin-Weg"/>
  </node>
  <node id="726832017" version="1" timestamp="2010-05-08T21:15:54Z" uid="36809" user="pfoten_weg_!_" changeset="4643195" lat="48.0781329" lon="11.5069071"/>
  <node id="726832018" version="1" timestamp="2010-05-08T21:15:54Z" uid="36809" user="pfoten_weg_!_" changeset="4643195" lat="48.078302" lon="11.4955492"/>
  <node id="726832019" version="1" timestamp="2010-05-08T21:15:54Z" uid="36809" user="pfoten_weg_!_" changeset="4643195" lat="48.0783806" lon="11.506881"/>
  <node id="726832020" version="1" timestamp="2010-05-08T21:15:54Z" uid="36809" user="pfoten_weg_!_" changeset="4643195" lat="48.0783796" lon="11.5066271"/>
  <node id="726832021" version="1" timestamp="2010-05-08T21:15:54Z" uid="36809" user="pfoten_weg_!_" changeset="4643195" lat="48.0798964" lon="11.5015199">
    <tag k="addr:city" v="München"/>
    <tag k="addr:country" v="DE"/>
    <tag k="addr:housenumber" v="129"/>
    <tag k="addr:postcode" v="81477"/>
    <tag k="addr:street" v="Herterichstraße"/>
  </node>
  <node id="726832022" version="1" timestamp="2010-05-08T21:15:54Z" uid="36809" user="pfoten_weg_!_" changeset="4643195" lat="48.0799277" lon="11.4988768"/>
  <node id="726832023" version="1" timestamp="2010-05-08T21:15:54Z" uid="36809" user="pfoten_weg_!_" changeset="4643195" lat="48.0781316" lon="11.4982478"/>
  <node id="726832024" version="1" timestamp="2010-05-08T21:15:54Z" uid="36809" user="pfoten_weg_!_" changeset="4643195" lat="48.0795536" lon="11.5023396">
    <tag k="addr:city" v="München"/>
    <tag k="addr:country" v="DE"/>
    <tag k="addr:housenumber" v="123"/>
    <tag k="addr:postcode" v="81477"/>
    <tag k="addr:street" v="Herterichstraße"/>
  </node>
  <node id="726832025" version="1" timestamp="2010-05-08T21:15:54Z" uid="36809" user="pfoten_weg_!_" changeset="4643195" lat="48.0781386" lon="11.506837"/>
  <node id="726832026" version="1" timestamp="2010-05-08T21:15:54Z" uid="36809" user="pfoten_weg_!_" changeset="4643195" lat="48.0782103" lon="11.4959697"/>
  <node id="726832027" version="1" timestamp="2010-05-08T21:15:54Z" uid="36809" user="pfoten_weg_!_" changeset="4643195" lat="48.0791859" lon="11.5066875">
    <tag k="addr:city" v="München"/>
    <tag k="addr:country" v="DE"/>
    <tag k="addr:housenumber" v="10"/>
    <tag k="addr:postcode" v="81477"/>
    <tag k="addr:street" v="Alfred-Kubin-Weg"/>
  </node>
  <node id="726832028" version="1" timestamp="2010-05-08T21:15:55Z" uid="36809" user="pfoten_weg_!_" changeset="4643195" lat="48.0786932" lon="11.5067025">
    <tag k="addr:city" v="München"/>
    <tag k="addr:country" v="DE"/>
    <tag k="addr:housenumber" v="128"/>
    <tag k="addr:postcode" v="81477"/>
    <tag k="addr:street" v="Herterichstraße"/>
  </node>
  <node id="726832029" version="1" timestamp="2010-05-08T21:15:55Z" uid="36809" user="pfoten_weg_!_" changeset="4643195" lat="48.0800641" lon="11.4976544"/>
  <node id="726837071" version="1" timestamp="2010-05-08T21:28:15Z" uid="36809" user="pfoten_weg_!_" changeset="4643320" lat="48.091476" lon="11.5075189"/>
  <node id="726837072" version="1" timestamp="2010-05-08T21:28:15Z" uid="36809" user="pfoten_weg_!_" changeset="4643320" lat="48.0914015" lon="11.5075189"/>
  <node id="726837073" version="1" timestamp="2010-05-08T21:28:15Z" uid="36809" user="pfoten_weg_!_" changeset="4643320" lat="48.0909142" lon="11.5083428"/>
  <node id="726837074" version="1" timestamp="2010-05-08T21:28:15Z" uid="36809" user="pfoten_weg_!_" changeset="4643320" lat="48.0914015" lon="11.5069867"/>
  <node id="726837075" version="1" timestamp="2010-05-08T21:28:15Z" uid="36809" user="pfoten_weg_!_" changeset="4643320" lat="48.0913851" lon="11.5083481"/>
  <node id="726837076" version="1" timestamp="2010-05-08T21:28:15Z" uid="36809" user="pfoten_weg_!_" changeset="4643320" lat="48.0909199" lon="11.5069781"/>
  <node id="726837077" version="1" timestamp="2010-05-08T21:28:15Z" uid="36809" user="pfoten_weg_!_" changeset="4643320" lat="48.0913867" lon="11.5079995"/>
  <node id="726837078" version="1" timestamp="2010-05-08T21:28:15Z" uid="36809" user="pfoten_weg_!_" changeset="4643320" lat="48.091476" lon="11.5079995"/>
</osm>
