<?xml version='1.0' encoding='UTF-8'?>
<osm version="0.6" generator="libosmium/2.20.0">
  <node id="72959652" version="20" timestamp="2009-07-25T15:08:21Z" uid="123700" user="Mala" changeset="1935220" lat="41.8933821" lon="12.4829173">
    <tag k="capital" v="yes"/>
    <tag k="gfoss_id" v="5002"/>
    <tag k="is_in" v="Roma,Lazio,Italy,Europe"/>
    <tag k="is_in:continent" v="Europe"/>
    <tag k="name" v="Roma"/>
    <tag k="name:cs" v="Řím"/>
    <tag k="name:de" v="Rom"/>
    <tag k="name:en" v="Rome"/>
    <tag k="name:eu" v="Erroma"/>
    <tag k="name:fi" v="Rooma"/>
    <tag k="name:fr" v="Rome"/>
    <tag k="name:he" v="רומה"/>
    <tag k="name:hu" v="Róma"/>
    <tag k="name:lb" v="Roum"/>
    <tag k="name:lv" v="Roma"/>
    <tag k="name:pl" v="Rzym"/>
    <tag k="name:sl" v="Rim"/>
    <tag k="name:zh" v="罗马"/>
    <tag k="name:zh_py" v="Luoma"/>
    <tag k="name:zh_pyt" v="Luómǎ"/>
    <tag k="place" v="city"/>
    <tag k="population" v="2546804"/>
    <tag k="source" v="geodati.gfoss.it"/>
    <tag k="wikipedia" v="Rome"/>
  </node>
  <node id="72959652" version="21" timestamp="2009-08-04T19:53:33Z" uid="10610" user="RedFox" changeset="2039537" lat="41.8933821" lon="12.4829173">
    <tag k="capital" v="yes"/>
    <tag k="gfoss_id" v="5002"/>
    <tag k="is_in" v="Roma,Lazio,Italy,Europe"/>
    <tag k="is_in:continent" v="Europe"/>
    <tag k="name" v="Roma"/>
    <tag k="name:cs" v="Řím"/>
    <tag k="name:de" v="Rom"/>
    <tag k="name:en" v="Rome"/>
    <tag k="name:eu" v="Erroma"/>
    <tag k="name:fi" v="Rooma"/>
    <tag k="name:fr" v="Rome"/>
    <tag k="name:he" v="רומה"/>
    <tag k="name:hu" v="Róma"/>
    <tag k="name:lb" v="Roum"/>
    <tag k="name:lv" v="Roma"/>
    <tag k="name:pl" v="Rzym"/>
    <tag k="name:sl" v="Rim"/>
    <tag k="name:zh" v="罗马"/>
    <tag k="name:zh_py" v="Luoma"/>
    <tag k="name:zh_pyt" v="Luómǎ"/>
    <tag k="place" v="city"/>
    <tag k="population" v="2546804"/>
    <tag k="source" v="geodati.gfoss.it"/>
    <tag k="wikipedia" v="Rome"/>
    <tag k="wikipedia:fr" v="Rome"/>
  </node>
  <node id="72959652" version="22" timestamp="2009-08-15T15:26:03Z" uid="9010" user="rasher" changeset="2155220" lat="41.8933821" lon="12.4829173">
    <tag k="capital" v="yes"/>
    <tag k="gfoss_id" v="5002"/>
    <tag k="is_in" v="Roma,Lazio,Italy,Europe"/>
    <tag k="is_in:continent" v="Europe"/>
    <tag k="name" v="Roma"/>
    <tag k="name:cs" v="Řím"/>
    <tag k="name:da" v="Rom"/>
    <tag k="name:de" v="Rom"/>
    <tag k="name:en" v="Rome"/>
    <tag k="name:eu" v="Erroma"/>
    <tag k="name:fi" v="Rooma"/>
    <tag k="name:fr" v="Rome"/>
    <tag k="name:he" v="רומה"/>
    <tag k="name:hu" v="Róma"/>
    <tag k="name:lb" v="Roum"/>
    <tag k="name:lv" v="Roma"/>
    <tag k="name:pl" v="Rzym"/>
    <tag k="name:sl" v="Rim"/>
    <tag k="name:zh" v="罗马"/>
    <tag k="name:zh_py" v="Luoma"/>
    <tag k="name:zh_pyt" v="Luómǎ"/>
    <tag k="place" v="city"/>
    <tag k="population" v="2546804"/>
    <tag k="source" v="geodati.gfoss.it"/>
    <tag k="wikipedia" v="Rome"/>
    <tag k="wikipedia:fr" v="Rome"/>
  </node>
  <node id="72959652" version="23" timestamp="2009-08-16T10:40:19Z" uid="33377" user="Victor LP" changeset="2163565" lat="41.8933821" lon="12.4829173">
    <tag k="capital" v="yes"/>
    <tag k="gfoss_id" v="5002"/>
    <tag k="is_in" v="Roma,Lazio,Italy,Europe"/>
    <tag k="is_in:continent" v="Europe"/>
    <tag k="name" v="Roma"/>
    <tag k="name:cs" v="Řím"/>
    <tag k="name:da" v="Rom"/>
    <tag k="name:de" v="Rom"/>
    <tag k="name:el" v="Ρώμη"/>
    <tag k="name:en" v="Rome"/>
    <tag k="name:eu" v="Erroma"/>
    <tag k="name:fi" v="Rooma"/>
    <tag k="name:fr" v="Rome"/>
    <tag k="name:he" v="רומה"/>
    <tag k="name:hu" v="Róma"/>
    <tag k="name:lb" v="Roum"/>
    <tag k="name:lv" v="Roma"/>
    <tag k="name:nl" v="Rome"/>
    <tag k="name:pl" v="Rzym"/>
    <tag k="name:sl" v="Rim"/>
    <tag k="name:zh" v="罗马"/>
    <tag k="name:zh_py" v="Luoma"/>
    <tag k="name:zh_pyt" v="Luómǎ"/>
    <tag k="place" v="city"/>
    <tag k="population" v="2546804"/>
    <tag k="source" v="geodati.gfoss.it"/>
    <tag k="wikipedia" v="Rome"/>
    <tag k="wikipedia:fr" v="Rome"/>
  </node>
  <node id="72959652" version="24" timestamp="2009-08-28T10:03:08Z" uid="33757" user="Minh Nguyen" changeset="2288101" lat="41.8933882" lon="12.4829153">
    <tag k="alt_name:vi" v="La Mã"/>
    <tag k="capital" v="yes"/>
    <tag k="gfoss_id" v="5002"/>
    <tag k="is_in" v="Roma,Lazio,Italy,Europe"/>
    <tag k="is_in:continent" v="Europe"/>
    <tag k="name" v="Roma"/>
    <tag k="name:cs" v="Řím"/>
    <tag k="name:da" v="Rom"/>
    <tag k="name:de" v="Rom"/>
    <tag k="name:el" v="Ρώμη"/>
    <tag k="name:en" v="Rome"/>
    <tag k="name:eu" v="Erroma"/>
    <tag k="name:fi" v="Rooma"/>
    <tag k="name:fr" v="Rome"/>
    <tag k="name:he" v="רומה"/>
    <tag k="name:hu" v="Róma"/>
    <tag k="name:lb" v="Roum"/>
    <tag k="name:lv" v="Roma"/>
    <tag k="name:nl" v="Rome"/>
    <tag k="name:pl" v="Rzym"/>
    <tag k="name:sl" v="Rim"/>
    <tag k="name:vi" v="Rô-ma"/>
    <tag k="name:zh" v="罗马"/>
    <tag k="name:zh_py" v="Luoma"/>
    <tag k="name:zh_pyt" v="Luómǎ"/>
    <tag k="place" v="city"/>
    <tag k="population" v="2546804"/>
    <tag k="source" v="geodati.gfoss.it"/>
    <tag k="wikipedia" v="Rome"/>
    <tag k="wikipedia:fr" v="Rome"/>
  </node>
  <node id="72959652" version="25" timestamp="2009-08-28T16:19:15Z" uid="24965" user="Ævar Arnfjörð Bjarmason" changeset="2292170" lat="41.8933882" lon="12.4829153">
    <tag k="alt_name:vi" v="La Mã"/>
    <tag k="capital" v="yes"/>
    <tag k="gfoss_id" v="5002"/>
    <tag k="is_in" v="Roma,Lazio,Italy,Europe"/>
    <tag k="is_in:continent" v="Europe"/>
    <tag k="name" v="Roma"/>
    <tag k="name:cs" v="Řím"/>
    <tag k="name:da" v="Rom"/>
    <tag k="name:de" v="Rom"/>
    <tag k="name:el" v="Ρώμη"/>
    <tag k="name:en" v="Rome"/>
    <tag k="name:eu" v="Erroma"/>
    <tag k="name:fi" v="Rooma"/>
    <tag k="name:fr" v="Rome"/>
    <tag k="name:he" v="רומה"/>
    <tag k="name:hu" v="Róma"/>
    <tag k="name:is" v="Róm"/>
    <tag k="name:lb" v="Roum"/>
    <tag k="name:lv" v="Roma"/>
    <tag k="name:nl" v="Rome"/>
    <tag k="name:pl" v="Rzym"/>
    <tag k="name:sl" v="Rim"/>
    <tag k="name:vi" v="Rô-ma"/>
    <tag k="name:zh" v="罗马"/>
    <tag k="name:zh_py" v="Luoma"/>
    <tag k="name:zh_pyt" v="Luómǎ"/>
    <tag k="place" v="city"/>
    <tag k="population" v="2546804"/>
    <tag k="source" v="geodati.gfoss.it"/>
    <tag k="wikipedia" v="Rome"/>
    <tag k="wikipedia:fr" v="Rome"/>
  </node>
  <node id="72959652" version="26" timestamp="2009-09-01T18:22:24Z" uid="148025" user="mvrban" changeset="2341062" lat="41.8933882" lon="12.4829153">
    <tag k="alt_name:vi" v="La Mã"/>
    <tag k="capital" v="yes"/>
    <tag k="gfoss_id" v="5002"/>
    <tag k="is_in" v="Roma,Lazio,Italy,Europe"/>
    <tag k="is_in:continent" v="Europe"/>
    <tag k="name" v="Roma"/>
    <tag k="name:cs" v="Řím"/>
    <tag k="name:da" v="Rom"/>
    <tag k="name:de" v="Rom"/>
    <tag k="name:el" v="Ρώμη"/>
    <tag k="name:en" v="Rome"/>
    <tag k="name:eu" v="Erroma"/>
    <tag k="name:fi" v="Rooma"/>
    <tag k="name:fr" v="Rome"/>
    <tag k="name:he" v="רומה"/>
    <tag k="name:hr" v="Rim"/>
    <tag k="name:hu" v="Róma"/>
    <tag k="name:is" v="Róm"/>
    <tag k="name:lb" v="Roum"/>
    <tag k="name:lv" v="Roma"/>
    <tag k="name:nl" v="Rome"/>
    <tag k="name:pl" v="Rzym"/>
    <tag k="name:sl" v="Rim"/>
    <tag k="name:vi" v="Rô-ma"/>
    <tag k="name:zh" v="罗马"/>
    <tag k="name:zh_py" v="Luoma"/>
    <tag k="name:zh_pyt" v="Luómǎ"/>
    <tag k="place" v="city"/>
    <tag k="population" v="2546804"/>
    <tag k="source" v="geodati.gfoss.it"/>
    <tag k="wikipedia" v="Rome"/>
    <tag k="wikipedia:fr" v="Rome"/>
  </node>
  <node id="72959652" version="27" timestamp="2009-09-02T07:54:51Z" uid="115468" user="platlas23" changeset="2345941" lat="41.8933882" lon="12.4829153">
    <tag k="alt_name:vi" v="La Mã"/>
    <tag k="capital" v="yes"/>
    <tag k="gfoss_id" v="5002"/>
    <tag k="is_in" v="Roma,Lazio,Italy,Europe"/>
    <tag k="is_in:continent" v="Europe"/>
    <tag k="name" v="Roma"/>
    <tag k="name:cs" v="Řím"/>
    <tag k="name:da" v="Rom"/>
    <tag k="name:de" v="Rom"/>
    <tag k="name:el" v="Ρώμη"/>
    <tag k="name:en" v="Rome"/>
    <tag k="name:eu" v="Erroma"/>
    <tag k="name:fi" v="Rooma"/>
    <tag k="name:fr" v="Rome"/>
    <tag k="name:he" v="רומה"/>
    <tag k="name:hr" v="Rim"/>
    <tag k="name:hu" v="Róma"/>
    <tag k="name:is" v="Róm"/>
    <tag k="name:lb" v="Roum"/>
    <tag k="name:lv" v="Roma"/>
    <tag k="name:nl" v="Rome"/>
    <tag k="name:pl" v="Rzym"/>
    <tag k="name:sk" v="Rím"/>
    <tag k="name:sl" v="Rim"/>
    <tag k="name:vi" v="Rô-ma"/>
    <tag k="name:zh" v="罗马"/>
    <tag k="name:zh_py" v="Luoma"/>
    <tag k="name:zh_pyt" v="Luómǎ"/>
    <tag k="place" v="city"/>
    <tag k="population" v="2546804"/>
    <tag k="source" v="geodati.gfoss.it"/>
    <tag k="wikipedia" v="Rome"/>
    <tag k="wikipedia:fr" v="Rome"/>
  </node>
  <node id="72959652" version="28" timestamp="2009-09-24T17:00:35Z" uid="22108" user="afonin" changeset="2607794" lat="41.8933882" lon="12.4829153">
    <tag k="alt_name:vi" v="La Mã"/>
    <tag k="capital" v="yes"/>
    <tag k="gfoss_id" v="5002"/>
    <tag k="is_in" v="Roma,Lazio,Italy,Europe"/>
    <tag k="is_in:continent" v="Europe"/>
    <tag k="name" v="Roma"/>
    <tag k="name:cs" v="Řím"/>
    <tag k="name:da" v="Rom"/>
    <tag k="name:de" v="Rom"/>
    <tag k="name:el" v="Ρώμη"/>
    <tag k="name:en" v="Rome"/>
    <tag k="name:eu" v="Erroma"/>
    <tag k="name:fi" v="Rooma"/>
    <tag k="name:fr" v="Rome"/>
    <tag k="name:he" v="רומה"/>
    <tag k="name:hr" v="Rim"/>
    <tag k="name:hu" v="Róma"/>
    <tag k="name:is" v="Róm"/>
    <tag k="name:lb" v="Roum"/>
    <tag k="name:lv" v="Roma"/>
    <tag k="name:nl" v="Rome"/>
    <tag k="name:pl" v="Rzym"/>
    <tag k="name:ru" v="Рим"/>
    <tag k="name:sk" v="Rím"/>
    <tag k="name:sl" v="Rim"/>
    <tag k="name:vi" v="Rô-ma"/>
    <tag k="name:zh" v="罗马"/>
    <tag k="name:zh_py" v="Luoma"/>
    <tag k="name:zh_pyt" v="Luómǎ"/>
    <tag k="place" v="city"/>
    <tag k="population" v="2546804"/>
    <tag k="source" v="geodati.gfoss.it"/>
    <tag k="wikipedia" v="Rome"/>
    <tag k="wikipedia:fr" v="Rome"/>
  </node>
  <node id="72959652" version="29" timestamp="2009-10-07T06:50:04Z" uid="124952" user="cfoucher" changeset="2768120" lat="41.893394" lon="12.4829091">
    <tag k="alt_name:vi" v="La Mã"/>
    <tag k="capital" v="yes"/>
    <tag k="gfoss_id" v="5002"/>
    <tag k="is_in" v="Roma,Lazio,Italy,Europe"/>
    <tag k="is_in:continent" v="Europe"/>
    <tag k="name" v="Roma"/>
    <tag k="name:cs" v="Řím"/>
    <tag k="name:da" v="Rom"/>
    <tag k="name:de" v="Rom"/>
    <tag k="name:el" v="Ρώμη"/>
    <tag k="name:en" v="Rome"/>
    <tag k="name:eu" v="Erroma"/>
    <tag k="name:fi" v="Rooma"/>
    <tag k="name:fr" v="Rome"/>
    <tag k="name:he" v="רומה"/>
    <tag k="name:hr" v="Rim"/>
    <tag k="name:hu" v="Róma"/>
    <tag k="name:is" v="Róm"/>
    <tag k="name:lb" v="Roum"/>
    <tag k="name:lv" v="Roma"/>
    <tag k="name:nl" v="Rome"/>
    <tag k="name:pl" v="Rzym"/>
    <tag k="name:ru" v="Рим"/>
    <tag k="name:sk" v="Rím"/>
    <tag k="name:sl" v="Rim"/>
    <tag k="name:vi" v="Rô-ma"/>
    <tag k="name:zh" v="罗马"/>
    <tag k="name:zh_py" v="Luoma"/>
    <tag k="name:zh_pyt" v="Luómǎ"/>
    <tag k="place" v="city"/>
    <tag k="population" v="2546804"/>
    <tag k="source" v="geodati.gfoss.it"/>
    <tag k="wikipedia" v="Rome"/>
    <tag k="wikipedia:fr" v="Rome"/>
  </node>
  <node id="72959652" version="30" timestamp="2009-12-07T11:34:51Z" uid="13721" user="wangchun" changeset="3315009" lat="41.893394" lon="12.4829091">
    <tag k="alt_name:vi" v="La Mã"/>
    <tag k="capital" v="yes"/>
    <tag k="gfoss_id" v="5002"/>
    <tag k="is_in" v="Roma,Lazio,Italy,Europe"/>
    <tag k="is_in:continent" v="Europe"/>
    <tag k="name" v="Roma"/>
    <tag k="name:cs" v="Řím"/>
    <tag k="name:da" v="Rom"/>
    <tag k="name:de" v="Rom"/>
    <tag k="name:el" v="Ρώμη"/>
    <tag k="name:en" v="Rome"/>
    <tag k="name:eu" v="Erroma"/>
    <tag k="name:fi" v="Rooma"/>
    <tag k="name:fr" v="Rome"/>
    <tag k="name:he" v="רומה"/>
    <tag k="name:hr" v="Rim"/>
    <tag k="name:hu" v="Róma"/>
    <tag k="name:is" v="Róm"/>
    <tag k="name:lb" v="Roum"/>
    <tag k="name:lv" v="Roma"/>
    <tag k="name:nl" v="Rome"/>
    <tag k="name:pl" v="Rzym"/>
    <tag k="name:ru" v="Рим"/>
    <tag k="name:sk" v="Rím"/>
    <tag k="name:sl" v="Rim"/>
    <tag k="name:vi" v="Rô-ma"/>
    <tag k="name:zh" v="罗马"/>
    <tag k="name:zh_pinyin" v="Luoma"/>
    <tag k="name:zh_pyt" v="Luómǎ"/>
    <tag k="place" v="city"/>
    <tag k="population" v="2546804"/>
    <tag k="source" v="geodati.gfoss.it"/>
    <tag k="wikipedia" v="Rome"/>
    <tag k="wikipedia:fr" v="Rome"/>
  </node>
  <node id="72959652" version="31" timestamp="2009-12-07T22:06:23Z" uid="13721" user="wangchun" changeset="3320066" lat="41.893394" lon="12.4829091">
    <tag k="alt_name:vi" v="La Mã"/>
    <tag k="capital" v="yes"/>
    <tag k="gfoss_id" v="5002"/>
    <tag k="is_in" v="Roma,Lazio,Italy,Europe"/>
    <tag k="is_in:continent" v="Europe"/>
    <tag k="name" v="Roma"/>
    <tag k="name:cs" v="Řím"/>
    <tag k="name:da" v="Rom"/>
    <tag k="name:de" v="Rom"/>
    <tag k="name:el" v="Ρώμη"/>
    <tag k="name:en" v="Rome"/>
    <tag k="name:eu" v="Erroma"/>
    <tag k="name:fi" v="Rooma"/>
    <tag k="name:fr" v="Rome"/>
    <tag k="name:he" v="רומה"/>
    <tag k="name:hr" v="Rim"/>
    <tag k="name:hu" v="Róma"/>
    <tag k="name:is" v="Róm"/>
    <tag k="name:lb" v="Roum"/>
    <tag k="name:lv" v="Roma"/>
    <tag k="name:nl" v="Rome"/>
    <tag k="name:pl" v="Rzym"/>
    <tag k="name:ru" v="Рим"/>
    <tag k="name:sk" v="Rím"/>
    <tag k="name:sl" v="Rim"/>
    <tag k="name:vi" v="Rô-ma"/>
    <tag k="name:zh" v="罗马"/>
    <tag k="name:zh_pinyin" v="Luómǎ"/>
    <tag k="place" v="city"/>
    <tag k="population" v="2546804"/>
    <tag k="source" v="geodati.gfoss.it"/>
    <tag k="wikipedia" v="Rome"/>
    <tag k="wikipedia:fr" v="Rome"/>
  </node>
  <node id="72959652" version="32" timestamp="2010-06-21T20:43:58Z" uid="51045" user="Geogast" changeset="5046434" lat="41.893394" lon="12.4829091">
    <tag k="alt_name:vi" v="La Mã"/>
    <tag k="capital" v="yes"/>
    <tag k="gfoss_id" v="5002"/>
    <tag k="is_in" v="Roma,Lazio,Italy,Europe"/>
    <tag k="is_in:continent" v="Europe"/>
    <tag k="name" v="Roma"/>
    <tag k="name:cs" v="Řím"/>
    <tag k="name:da" v="Rom"/>
    <tag k="name:de" v="Rom"/>
    <tag k="name:el" v="Ρώμη"/>
    <tag k="name:en" v="Rome"/>
    <tag k="name:es" v="Roma"/>
    <tag k="name:eu" v="Erroma"/>
    <tag k="name:fi" v="Rooma"/>
    <tag k="name:fr" v="Rome"/>
    <tag k="name:he" v="רומה"/>
    <tag k="name:hr" v="Rim"/>
    <tag k="name:hu" v="Róma"/>
    <tag k="name:is" v="Róm"/>
    <tag k="name:lb" v="Roum"/>
    <tag k="name:lv" v="Roma"/>
    <tag k="name:nl" v="Rome"/>
    <tag k="name:pl" v="Rzym"/>
    <tag k="name:ru" v="Рим"/>
    <tag k="name:sk" v="Rím"/>
    <tag k="name:sl" v="Rim"/>
    <tag k="name:vi" v="Rô-ma"/>
    <tag k="name:zh" v="罗马"/>
    <tag k="name:zh_pinyin" v="Luómǎ"/>
    <tag k="place" v="city"/>
    <tag k="population" v="2546804"/>
    <tag k="source" v="geodati.gfoss.it"/>
    <tag k="wikipedia" v="Rome"/>
    <tag k="wikipedia:fr" v="Rome"/>
  </node>
  <node id="72959652" version="33" timestamp="2010-07-14T09:32:46Z" uid="314684" user="krattbot" changeset="5215291" lat="41.893394" lon="12.4829091">
    <tag k="alt_name:vi" v="La Mã"/>
    <tag k="capital" v="yes"/>
    <tag k="gfoss_id" v="5002"/>
    <tag k="is_in" v="Roma,Lazio,Italy,Europe"/>
    <tag k="is_in:continent" v="Europe"/>
    <tag k="name" v="Roma"/>
    <tag k="name:cs" v="Řím"/>
    <tag k="name:da" v="Rom"/>
    <tag k="name:de" v="Rom"/>
    <tag k="name:el" v="Ρώμη"/>
    <tag k="name:en" v="Rome"/>
    <tag k="name:es" v="Roma"/>
    <tag k="name:et" v="Rooma"/>
    <tag k="name:eu" v="Erroma"/>
    <tag k="name:fi" v="Rooma"/>
    <tag k="name:fr" v="Rome"/>
    <tag k="name:he" v="רומה"/>
    <tag k="name:hr" v="Rim"/>
    <tag k="name:hu" v="Róma"/>
    <tag k="name:is" v="Róm"/>
    <tag k="name:lb" v="Roum"/>
    <tag k="name:lv" v="Roma"/>
    <tag k="name:nl" v="Rome"/>
    <tag k="name:pl" v="Rzym"/>
    <tag k="name:ru" v="Рим"/>
    <tag k="name:sk" v="Rím"/>
    <tag k="name:sl" v="Rim"/>
    <tag k="name:vi" v="Rô-ma"/>
    <tag k="name:zh" v="罗马"/>
    <tag k="name:zh_pinyin" v="Luómǎ"/>
    <tag k="place" v="city"/>
    <tag k="population" v="2546804"/>
    <tag k="source" v="geodati.gfoss.it"/>
    <tag k="wikipedia" v="Rome"/>
    <tag k="wikipedia:fr" v="Rome"/>
  </node>
  <node id="72959652" version="34" timestamp="2010-07-15T04:26:08Z" uid="47038" user="Per Lindström" changeset="5223387" lat="41.8933941" lon="12.482909">
    <tag k="alt_name:vi" v="La Mã"/>
    <tag k="capital" v="yes"/>
    <tag k="gfoss_id" v="5002"/>
    <tag k="is_in" v="Roma,Lazio,Italy,Europe"/>
    <tag k="is_in:continent" v="Europe"/>
    <tag k="name" v="Roma"/>
    <tag k="name:cs" v="Řím"/>
    <tag k="name:da" v="Rom"/>
    <tag k="name:de" v="Rom"/>
    <tag k="name:el" v="Ρώμη"/>
    <tag k="name:en" v="Rome"/>
    <tag k="name:es" v="Roma"/>
    <tag k="name:et" v="Rooma"/>
    <tag k="name:eu" v="Erroma"/>
    <tag k="name:fi" v="Rooma"/>
    <tag k="name:fr" v="Rome"/>
    <tag k="name:he" v="רומה"/>
    <tag k="name:hr" v="Rim"/>
    <tag k="name:hu" v="Róma"/>
    <tag k="name:is" v="Róm"/>
    <tag k="name:lb" v="Roum"/>
    <tag k="name:lv" v="Roma"/>
    <tag k="name:nl" v="Rome"/>
    <tag k="name:pl" v="Rzym"/>
    <tag k="name:ru" v="Рим"/>
    <tag k="name:sk" v="Rím"/>
    <tag k="name:sl" v="Rim"/>
    <tag k="name:sv" v="Rom"/>
    <tag k="name:vi" v="Rô-ma"/>
    <tag k="name:zh" v="罗马"/>
    <tag k="name:zh_pinyin" v="Luómǎ"/>
    <tag k="place" v="city"/>
    <tag k="population" v="2546804"/>
    <tag k="source" v="geodati.gfoss.it"/>
    <tag k="wikipedia" v="Rome"/>
    <tag k="wikipedia:fr" v="Rome"/>
  </node>
  <node id="72959652" version="35" timestamp="2011-01-21T10:44:33Z" uid="393666" user="etrumap" changeset="7038962" lat="41.8933941" lon="12.482909">
    <tag k="alt_name:vi" v="La Mã"/>
    <tag k="capital" v="yes"/>
    <tag k="gfoss_id" v="5002"/>
    <tag k="is_in" v="Roma,Lazio,Italy,Europe"/>
    <tag k="is_in:continent" v="Europe"/>
    <tag k="name" v="Roma"/>
    <tag k="name:cs" v="Řím"/>
    <tag k="name:da" v="Rom"/>
    <tag k="name:de" v="Rom"/>
    <tag k="name:el" v="Ρώμη"/>
    <tag k="name:en" v="Rome"/>
    <tag k="name:es" v="Roma"/>
    <tag k="name:et" v="Rooma"/>
    <tag k="name:eu" v="Erroma"/>
    <tag k="name:fi" v="Rooma"/>
    <tag k="name:fr" v="Rome"/>
    <tag k="name:he" v="רומה"/>
    <tag k="name:hr" v="Rim"/>
    <tag k="name:hu" v="Róma"/>
    <tag k="name:is" v="Róm"/>
    <tag k="name:lb" v="Roum"/>
    <tag k="name:lv" v="Roma"/>
    <tag k="name:nl" v="Rome"/>
    <tag k="name:pl" v="Rzym"/>
    <tag k="name:ru" v="Рим"/>
    <tag k="name:sk" v="Rím"/>
    <tag k="name:sl" v="Rim"/>
    <tag k="name:sv" v="Rom"/>
    <tag k="name:vi" v="Rô-ma"/>
    <tag k="name:zh" v="罗马"/>
    <tag k="name:zh_pinyin" v="Luómǎ"/>
    <tag k="place" v="city"/>
    <tag k="population" v="2546804"/>
    <tag k="rank" v="10"/>
    <tag k="source" v="geodati.gfoss.it"/>
    <tag k="wikipedia" v="Rome"/>
    <tag k="wikipedia:fr" v="Rome"/>
  </node>
  <node id="72959652" version="36" timestamp="2011-02-02T10:24:52Z" uid="393666" user="etrumap" changeset="7163190" lat="41.8933941" lon="12.482909">
    <tag k="alt_name:vi" v="La Mã"/>
    <tag k="capital" v="yes"/>
    <tag k="gfoss_id" v="5002"/>
    <tag k="is_in" v="Roma,Lazio,Italy,Europe"/>
    <tag k="is_in:continent" v="Europe"/>
    <tag k="name" v="Roma"/>
    <tag k="name:cs" v="Řím"/>
    <tag k="name:da" v="Rom"/>
    <tag k="name:de" v="Rom"/>
    <tag k="name:el" v="Ρώμη"/>
    <tag k="name:en" v="Rome"/>
    <tag k="name:es" v="Roma"/>
    <tag k="name:et" v="Rooma"/>
    <tag k="name:eu" v="Erroma"/>
    <tag k="name:fi" v="Rooma"/>
    <tag k="name:fr" v="Rome"/>
    <tag k="name:he" v="רומה"/>
    <tag k="name:hr" v="Rim"/>
    <tag k="name:hu" v="Róma"/>
    <tag k="name:is" v="Róm"/>
    <tag k="name:lb" v="Roum"/>
    <tag k="name:lv" v="Roma"/>
    <tag k="name:nl" v="Rome"/>
    <tag k="name:pl" v="Rzym"/>
    <tag k="name:ru" v="Рим"/>
    <tag k="name:sk" v="Rím"/>
    <tag k="name:sl" v="Rim"/>
    <tag k="name:sv" v="Rom"/>
    <tag k="name:vi" v="Rô-ma"/>
    <tag k="name:zh" v="罗马"/>
    <tag k="name:zh_pinyin" v="Luómǎ"/>
    <tag k="place" v="city"/>
    <tag k="population" v="2546804"/>
    <tag k="rank" v="0"/>
    <tag k="source" v="geodati.gfoss.it"/>
    <tag k="wikipedia" v="Rome"/>
    <tag k="wikipedia:fr" v="Rome"/>
  </node>
  <node id="72959652" version="37" timestamp="2011-02-07T12:14:55Z" uid="348674" user="Cabeleira" changeset="7215282" lat="41.8933941" lon="12.482909">
    <tag k="alt_name:vi" v="La Mã"/>
    <tag k="capital" v="yes"/>
    <tag k="gfoss_id" v="5002"/>
    <tag k="is_in" v="Roma,Lazio,Italy,Europe"/>
    <tag k="is_in:continent" v="Europe"/>
    <tag k="name" v="Roma"/>
    <tag k="name:cs" v="Řím"/>
    <tag k="name:da" v="Rom"/>
    <tag k="name:de" v="Rom"/>
    <tag k="name:el" v="Ρώμη"/>
    <tag k="name:en" v="Rome"/>
    <tag k="name:es" v="Roma"/>
    <tag k="name:et" v="Rooma"/>
    <tag k="name:eu" v="Erroma"/>
    <tag k="name:fi" v="Rooma"/>
    <tag k="name:fr" v="Rome"/>
    <tag k="name:he" v="רומה"/>
    <tag k="name:hr" v="Rim"/>
    <tag k="name:hu" v="Róma"/>
    <tag k="name:is" v="Róm"/>
    <tag k="name:lb" v="Roum"/>
    <tag k="name:lv" v="Roma"/>
    <tag k="name:nl" v="Rome"/>
    <tag k="name:pl" v="Rzym"/>
    <tag k="name:ru" v="Рим"/>
    <tag k="name:sk" v="Rím"/>
    <tag k="name:sl" v="Rim"/>
    <tag k="name:sv" v="Rom"/>
    <tag k="name:uk" v="Рим"/>
    <tag k="name:vi" v="Rô-ma"/>
    <tag k="name:zh" v="罗马"/>
    <tag k="name:zh_pinyin" v="Luómǎ"/>
    <tag k="place" v="city"/>
    <tag k="population" v="2546804"/>
    <tag k="rank" v="0"/>
    <tag k="source" v="geodati.gfoss.it"/>
    <tag k="wikipedia" v="Rome"/>
    <tag k="wikipedia:fr" v="Rome"/>
  </node>
  <node id="72959652" version="38" timestamp="2011-03-03T09:02:52Z" uid="182327" user="Милан Јелисавчић" changeset="7443999" lat="41.8933941" lon="12.482909">
    <tag k="alt_name:vi" v="La Mã"/>
    <tag k="capital" v="yes"/>
    <tag k="gfoss_id" v="5002"/>
    <tag k="is_in" v="Roma,Lazio,Italy,Europe"/>
    <tag k="is_in:continent" v="Europe"/>
    <tag k="name" v="Roma"/>
    <tag k="name:cs" v="Řím"/>
    <tag k="name:da" v="Rom"/>
    <tag k="name:de" v="Rom"/>
    <tag k="name:el" v="Ρώμη"/>
    <tag k="name:en" v="Rome"/>
    <tag k="name:es" v="Roma"/>
    <tag k="name:et" v="Rooma"/>
    <tag k="name:eu" v="Erroma"/>
    <tag k="name:fi" v="Rooma"/>
    <tag k="name:fr" v="Rome"/>
    <tag k="name:he" v="רומה"/>
    <tag k="name:hr" v="Rim"/>
    <tag k="name:hu" v="Róma"/>
    <tag k="name:is" v="Róm"/>
    <tag k="name:lb" v="Roum"/>
    <tag k="name:lv" v="Roma"/>
    <tag k="name:nl" v="Rome"/>
    <tag k="name:pl" v="Rzym"/>
    <tag k="name:ru" v="Рим"/>
    <tag k="name:sk" v="Rím"/>
    <tag k="name:sl" v="Rim"/>
    <tag k="name:sr" v="Рим"/>
    <tag k="name:sv" v="Rom"/>
    <tag k="name:uk" v="Рим"/>
    <tag k="name:vi" v="Rô-ma"/>
    <tag k="name:zh" v="罗马"/>
    <tag k="name:zh_pinyin" v="Luómǎ"/>
    <tag k="place" v="city"/>
    <tag k="population" v="2546804"/>
    <tag k="rank" v="0"/>
    <tag k="source" v="geodati.gfoss.it"/>
    <tag k="wikipedia" v="Rome"/>
    <tag k="wikipedia:fr" v="Rome"/>
  </node>
  <node id="72959652" version="39" timestamp="2011-03-10T09:21:39Z" uid="247611" user="SzPaula" changeset="7512072" lat="41.9062045" lon="12.4824965">
    <tag k="alt_name:vi" v="La Mã"/>
    <tag k="capital" v="yes"/>
    <tag k="gfoss_id" v="5002"/>
    <tag k="is_in" v="Roma,Lazio,Italy,Europe"/>
    <tag k="is_in:continent" v="Europe"/>
    <tag k="name" v="Roma"/>
    <tag k="name:cs" v="Řím"/>
    <tag k="name:da" v="Rom"/>
    <tag k="name:de" v="Rom"/>
    <tag k="name:el" v="Ρώμη"/>
    <tag k="name:en" v="Rome"/>
    <tag k="name:es" v="Roma"/>
    <tag k="name:et" v="Rooma"/>
    <tag k="name:eu" v="Erroma"/>
    <tag k="name:fi" v="Rooma"/>
    <tag k="name:fr" v="Rome"/>
    <tag k="name:he" v="רומה"/>
    <tag k="name:hr" v="Rim"/>
    <tag k="name:hu" v="Róma"/>
    <tag k="name:is" v="Róm"/>
    <tag k="name:lb" v="Roum"/>
    <tag k="name:lv" v="Roma"/>
    <tag k="name:nl" v="Rome"/>
    <tag k="name:pl" v="Rzym"/>
    <tag k="name:ru" v="Рим"/>
    <tag k="name:sk" v="Rím"/>
    <tag k="name:sl" v="Rim"/>
    <tag k="name:sr" v="Рим"/>
    <tag k="name:sv" v="Rom"/>
    <tag k="name:uk" v="Рим"/>
    <tag k="name:vi" v="Rô-ma"/>
    <tag k="name:zh" v="罗马"/>
    <tag k="name:zh_pinyin" v="Luómǎ"/>
    <tag k="place" v="city"/>
    <tag k="population" v="2546804"/>
    <tag k="rank" v="0"/>
    <tag k="source" v="geodati.gfoss.it"/>
    <tag k="wikipedia" v="Rome"/>
    <tag k="wikipedia:fr" v="Rome"/>
  </node>
  <node id="72959652" version="40" timestamp="2011-03-10T09:22:21Z" uid="247611" user="SzPaula" changeset="7512075" lat="41.9071505" lon="12.4841965">
    <tag k="alt_name:vi" v="La Mã"/>
    <tag k="capital" v="yes"/>
    <tag k="gfoss_id" v="5002"/>
    <tag k="is_in" v="Roma,Lazio,Italy,Europe"/>
    <tag k="is_in:continent" v="Europe"/>
    <tag k="name" v="Roma"/>
    <tag k="name:cs" v="Řím"/>
    <tag k="name:da" v="Rom"/>
    <tag k="name:de" v="Rom"/>
    <tag k="name:el" v="Ρώμη"/>
    <tag k="name:en" v="Rome"/>
    <tag k="name:es" v="Roma"/>
    <tag k="name:et" v="Rooma"/>
    <tag k="name:eu" v="Erroma"/>
    <tag k="name:fi" v="Rooma"/>
    <tag k="name:fr" v="Rome"/>
    <tag k="name:he" v="רומה"/>
    <tag k="name:hr" v="Rim"/>
    <tag k="name:hu" v="Róma"/>
    <tag k="name:is" v="Róm"/>
    <tag k="name:lb" v="Roum"/>
    <tag k="name:lv" v="Roma"/>
    <tag k="name:nl" v="Rome"/>
    <tag k="name:pl" v="Rzym"/>
    <tag k="name:ru" v="Рим"/>
    <tag k="name:sk" v="Rím"/>
    <tag k="name:sl" v="Rim"/>
    <tag k="name:sr" v="Рим"/>
    <tag k="name:sv" v="Rom"/>
    <tag k="name:uk" v="Рим"/>
    <tag k="name:vi" v="Rô-ma"/>
    <tag k="name:zh" v="罗马"/>
    <tag k="name:zh_pinyin" v="Luómǎ"/>
    <tag k="place" v="city"/>
    <tag k="population" v="2546804"/>
    <tag k="rank" v="0"/>
    <tag k="source" v="geodati.gfoss.it"/>
    <tag k="wikipedia" v="Rome"/>
    <tag k="wikipedia:fr" v="Rome"/>
  </node>
  <node id="72959652" version="41" timestamp="2011-04-06T15:12:59Z" uid="7045" user="Xuacu" changeset="7785879" lat="41.9071505" lon="12.4841965">
    <tag k="alt_name:vi" v="La Mã"/>
    <tag k="capital" v="yes"/>
    <tag k="gfoss_id" v="5002"/>
    <tag k="is_in" v="Roma,Lazio,Italy,Europe"/>
    <tag k="is_in:continent" v="Europe"/>
    <tag k="name" v="Roma"/>
    <tag k="name:ast" v="Roma"/>
    <tag k="name:cs" v="Řím"/>
    <tag k="name:da" v="Rom"/>
    <tag k="name:de" v="Rom"/>
    <tag k="name:el" v="Ρώμη"/>
    <tag k="name:en" v="Rome"/>
    <tag k="name:es" v="Roma"/>
    <tag k="name:et" v="Rooma"/>
    <tag k="name:eu" v="Erroma"/>
    <tag k="name:fi" v="Rooma"/>
    <tag k="name:fr" v="Rome"/>
    <tag k="name:he" v="רומה"/>
    <tag k="name:hr" v="Rim"/>
    <tag k="name:hu" v="Róma"/>
    <tag k="name:is" v="Róm"/>
    <tag k="name:lb" v="Roum"/>
    <tag k="name:lv" v="Roma"/>
    <tag k="name:nl" v="Rome"/>
    <tag k="name:pl" v="Rzym"/>
    <tag k="name:ru" v="Рим"/>
    <tag k="name:sk" v="Rím"/>
    <tag k="name:sl" v="Rim"/>
    <tag k="name:sr" v="Рим"/>
    <tag k="name:sv" v="Rom"/>
    <tag k="name:uk" v="Рим"/>
    <tag k="name:vi" v="Rô-ma"/>
    <tag k="name:zh" v="罗马"/>
    <tag k="name:zh_pinyin" v="Luómǎ"/>
    <tag k="place" v="city"/>
    <tag k="population" v="2546804"/>
    <tag k="rank" v="0"/>
    <tag k="source" v="geodati.gfoss.it"/>
    <tag k="wikipedia" v="Rome"/>
    <tag k="wikipedia:fr" v="Rome"/>
  </node>
  <node id="72959652" version="42" timestamp="2011-09-30T13:55:24Z" uid="26139" user="dieterdreist" changeset="9435488" lat="41.8932575" lon="12.4830619">
    <tag k="alt_name:vi" v="La Mã"/>
    <tag k="capital" v="yes"/>
    <tag k="gfoss_id" v="5002"/>
    <tag k="is_in" v="Roma,Lazio,Italy,Europe"/>
    <tag k="is_in:continent" v="Europe"/>
    <tag k="name" v="Roma"/>
    <tag k="name:ast" v="Roma"/>
    <tag k="name:cs" v="Řím"/>
    <tag k="name:da" v="Rom"/>
    <tag k="name:de" v="Rom"/>
    <tag k="name:el" v="Ρώμη"/>
    <tag k="name:en" v="Rome"/>
    <tag k="name:es" v="Roma"/>
    <tag k="name:et" v="Rooma"/>
    <tag k="name:eu" v="Erroma"/>
    <tag k="name:fi" v="Rooma"/>
    <tag k="name:fr" v="Rome"/>
    <tag k="name:he" v="רומה"/>
    <tag k="name:hr" v="Rim"/>
    <tag k="name:hu" v="Róma"/>
    <tag k="name:is" v="Róm"/>
    <tag k="name:lb" v="Roum"/>
    <tag k="name:lv" v="Roma"/>
    <tag k="name:nl" v="Rome"/>
    <tag k="name:pl" v="Rzym"/>
    <tag k="name:ru" v="Рим"/>
    <tag k="name:sk" v="Rím"/>
    <tag k="name:sl" v="Rim"/>
    <tag k="name:sr" v="Рим"/>
    <tag k="name:sv" v="Rom"/>
    <tag k="name:uk" v="Рим"/>
    <tag k="name:vi" v="Rô-ma"/>
    <tag k="name:zh" v="罗马"/>
    <tag k="name:zh_pinyin" v="Luómǎ"/>
    <tag k="place" v="city"/>
    <tag k="population" v="2546804"/>
    <tag k="rank" v="0"/>
    <tag k="source" v="geodati.gfoss.it"/>
    <tag k="wikipedia" v="Rome"/>
    <tag k="wikipedia:fr" v="Rome"/>
  </node>
  <node id="72959652" version="43" timestamp="2011-11-24T13:10:53Z" uid="26139" user="dieterdreist" changeset="9932908" lat="41.8932575" lon="12.4830619">
    <tag k="alt_name:vi" v="La Mã"/>
    <tag k="capital" v="yes"/>
    <tag k="gfoss_id" v="5002"/>
    <tag k="is_in" v="Roma,Lazio,Italy,Europe"/>
    <tag k="is_in:continent" v="Europe"/>
    <tag k="name" v="Roma"/>
    <tag k="name:ast" v="Roma"/>
    <tag k="name:cs" v="Řím"/>
    <tag k="name:da" v="Rom"/>
    <tag k="name:de" v="Rom"/>
    <tag k="name:el" v="Ρώμη"/>
    <tag k="name:en" v="Rome"/>
    <tag k="name:es" v="Roma"/>
    <tag k="name:et" v="Rooma"/>
    <tag k="name:eu" v="Erroma"/>
    <tag k="name:fi" v="Rooma"/>
    <tag k="name:fr" v="Rome"/>
    <tag k="name:he" v="רומה"/>
    <tag k="name:hr" v="Rim"/>
    <tag k="name:hu" v="Róma"/>
    <tag k="name:is" v="Róm"/>
    <tag k="name:lb" v="Roum"/>
    <tag k="name:lv" v="Roma"/>
    <tag k="name:nl" v="Rome"/>
    <tag k="name:pl" v="Rzym"/>
    <tag k="name:ru" v="Рим"/>
    <tag k="name:sk" v="Rím"/>
    <tag k="name:sl" v="Rim"/>
    <tag k="name:sr" v="Рим"/>
    <tag k="name:sv" v="Rom"/>
    <tag k="name:uk" v="Рим"/>
    <tag k="name:vi" v="Rô-ma"/>
    <tag k="name:zh" v="罗马"/>
    <tag k="name:zh_pinyin" v="Luómǎ"/>
    <tag k="place" v="city"/>
    <tag k="population" v="2772752"/>
    <tag k="rank" v="0"/>
    <tag k="source:population" v="30.06.2011, http://www.demo.istat.it/bilmens2011gen/query.php?lingua=ita&amp;Rip=S3&amp;Reg=R12&amp;Pro=P058&amp;Com=91&amp;submit=Tavola"/>
    <tag k="website" v="http://www.comune.roma.it/"/>
    <tag k="wikipedia" v="it:Roma"/>
  </node>
  <node id="72959715" version="4" timestamp="2009-07-25T22:01:25Z" uid="123700" user="Mala" changeset="1939174" lat="42.4164973" lon="12.1039439">
    <tag k="gfoss_id" v="4837"/>
    <tag k="is_in" v="Viterbo, Lazio, Italy"/>
    <tag k="is_in:continent" v="Europe"/>
    <tag k="name" v="Viterbo"/>
    <tag k="name:fr" v="Viterbe"/>
    <tag k="place" v="city"/>
    <tag k="population" v="59308"/>
    <tag k="source" v="geodati.gfoss.it"/>
    <tag k="wikipedia" v="Viterbo"/>
  </node>
  <node id="72959715" version="5" timestamp="2010-04-12T19:38:34Z" uid="166445" user="GranD" changeset="4407950" lat="42.4164973" lon="12.1039439">
    <tag k="gfoss_id" v="4837"/>
    <tag k="is_in" v="Viterbo, Lazio, Italy"/>
    <tag k="is_in:continent" v="Europe"/>
    <tag k="name" v="Viterbo"/>
    <tag k="name:fr" v="Viterbe"/>
    <tag k="name:ru" v="Витербо"/>
    <tag k="place" v="city"/>
    <tag k="population" v="59308"/>
    <tag k="source" v="geodati.gfoss.it"/>
    <tag k="wikipedia" v="Viterbo"/>
  </node>
  <node id="72959715" version="6" timestamp="2010-05-04T17:15:24Z" uid="80088" user="FedericoCozzi" changeset="4605983" lat="42.4164973" lon="12.1039439">
    <tag k="gfoss_id" v="4837"/>
    <tag k="is_in" v="Viterbo, Lazio, Italy"/>
    <tag k="is_in:continent" v="Europe"/>
    <tag k="name" v="Viterbo"/>
    <tag k="name:fr" v="Viterbe"/>
    <tag k="name:ru" v="Витербо"/>
    <tag k="place" v="town"/>
    <tag k="population" v="59308"/>
    <tag k="source" v="geodati.gfoss.it"/>
    <tag k="wikipedia" v="Viterbo"/>
  </node>
  <node id="72959715" version="7" timestamp="2010-05-24T16:45:30Z" uid="80088" user="FedericoCozzi" changeset="4795611" lat="42.4164974" lon="12.1039438">
    <tag k="gfoss_id" v="4837"/>
    <tag k="is_in" v="Viterbo, Lazio, Italy"/>
    <tag k="is_in:continent" v="Europe"/>
    <tag k="name" v="Viterbo"/>
    <tag k="name:fr" v="Viterbe"/>
    <tag k="name:ru" v="Витербо"/>
    <tag k="place" v="city"/>
    <tag k="population" v="59308"/>
    <tag k="source" v="geodati.gfoss.it"/>
    <tag k="wikipedia" v="Viterbo"/>
  </node>
  <node id="72959715" version="8" timestamp="2011-01-21T12:43:17Z" uid="393666" user="etrumap" changeset="7039970" lat="42.4164974" lon="12.1039438">
    <tag k="capital" v="6"/>
    <tag k="gfoss_id" v="4837"/>
    <tag k="is_in" v="Viterbo, Lazio, Italy"/>
    <tag k="is_in:continent" v="Europe"/>
    <tag k="name" v="Viterbo"/>
    <tag k="name:fr" v="Viterbe"/>
    <tag k="name:ru" v="Витербо"/>
    <tag k="place" v="city"/>
    <tag k="population" v="59308"/>
    <tag k="source" v="geodati.gfoss.it"/>
    <tag k="wikipedia" v="Viterbo"/>
  </node>
  <node id="72959652" version="45" timestamp="2012-06-06T21:20:16Z" uid="602999" user="rtafav2" changeset="11819941" lat="41.8932575" lon="12.4830619">
    <tag k="alt_name:vi" v="La Mã"/>
    <tag k="capital" v="yes"/>
    <tag k="gfoss_id" v="5002"/>
    <tag k="is_in" v="Roma,Lazio,Italy,Europe"/>
    <tag k="is_in:continent" v="Europe"/>
    <tag k="name" v="Roma"/>
    <tag k="name:ast" v="Roma"/>
    <tag k="name:cs" v="Řím"/>
    <tag k="name:da" v="Rom"/>
    <tag k="name:de" v="Rom"/>
    <tag k="name:el" v="Ρώμη"/>
    <tag k="name:en" v="Rome"/>
    <tag k="name:es" v="Roma"/>
    <tag k="name:et" v="Rooma"/>
    <tag k="name:eu" v="Erroma"/>
    <tag k="name:fi" v="Rooma"/>
    <tag k="name:fr" v="Rome"/>
    <tag k="name:he" v="רומה"/>
    <tag k="name:hr" v="Rim"/>
    <tag k="name:hu" v="Róma"/>
    <tag k="name:is" v="Róm"/>
    <tag k="name:ku" v="Roma"/>
    <tag k="name:lb" v="Roum"/>
    <tag k="name:lv" v="Roma"/>
    <tag k="name:nl" v="Rome"/>
    <tag k="name:pl" v="Rzym"/>
    <tag k="name:pt" v="Roma"/>
    <tag k="name:ru" v="Рим"/>
    <tag k="name:sk" v="Rím"/>
    <tag k="name:sl" v="Rim"/>
    <tag k="name:sr" v="Рим"/>
    <tag k="name:sv" v="Rom"/>
    <tag k="name:uk" v="Рим"/>
    <tag k="name:vi" v="Rô-ma"/>
    <tag k="name:zh" v="罗马"/>
    <tag k="name:zh_pinyin" v="Luómǎ"/>
    <tag k="place" v="city"/>
    <tag k="population" v="2772752"/>
    <tag k="rank" v="0"/>
    <tag k="source:population" v="30.06.2011, http://www.demo.istat.it/bilmens2011gen/query.php?lingua=ita&amp;Rip=S3&amp;Reg=R12&amp;Pro=P058&amp;Com=91&amp;submit=Tavola"/>
    <tag k="website" v="http://www.comune.roma.it/"/>
    <tag k="wikipedia" v="it:Roma"/>
  </node>
  <node id="72959652" version="46" timestamp="2012-06-23T01:57:31Z" uid="247879" user="victorenator" changeset="11984817" lat="41.8932575" lon="12.4830619">
    <tag k="alt_name:vi" v="La Mã"/>
    <tag k="capital" v="yes"/>
    <tag k="gfoss_id" v="5002"/>
    <tag k="is_in" v="Roma,Lazio,Italy,Europe"/>
    <tag k="is_in:continent" v="Europe"/>
    <tag k="name" v="Roma"/>
    <tag k="name:ast" v="Roma"/>
    <tag k="name:be" v="Рым"/>
    <tag k="name:cs" v="Řím"/>
    <tag k="name:da" v="Rom"/>
    <tag k="name:de" v="Rom"/>
    <tag k="name:el" v="Ρώμη"/>
    <tag k="name:en" v="Rome"/>
    <tag k="name:es" v="Roma"/>
    <tag k="name:et" v="Rooma"/>
    <tag k="name:eu" v="Erroma"/>
    <tag k="name:fi" v="Rooma"/>
    <tag k="name:fr" v="Rome"/>
    <tag k="name:he" v="רומה"/>
    <tag k="name:hr" v="Rim"/>
    <tag k="name:hu" v="Róma"/>
    <tag k="name:is" v="Róm"/>
    <tag k="name:ku" v="Roma"/>
    <tag k="name:lb" v="Roum"/>
    <tag k="name:lv" v="Roma"/>
    <tag k="name:nl" v="Rome"/>
    <tag k="name:pl" v="Rzym"/>
    <tag k="name:pt" v="Roma"/>
    <tag k="name:ru" v="Рим"/>
    <tag k="name:sk" v="Rím"/>
    <tag k="name:sl" v="Rim"/>
    <tag k="name:sr" v="Рим"/>
    <tag k="name:sv" v="Rom"/>
    <tag k="name:uk" v="Рим"/>
    <tag k="name:vi" v="Rô-ma"/>
    <tag k="name:zh" v="罗马"/>
    <tag k="name:zh_pinyin" v="Luómǎ"/>
    <tag k="place" v="city"/>
    <tag k="population" v="2772752"/>
    <tag k="rank" v="0"/>
    <tag k="source:population" v="30.06.2011, http://www.demo.istat.it/bilmens2011gen/query.php?lingua=ita&amp;Rip=S3&amp;Reg=R12&amp;Pro=P058&amp;Com=91&amp;submit=Tavola"/>
    <tag k="website" v="http://www.comune.roma.it/"/>
    <tag k="wikipedia" v="it:Roma"/>
  </node>
  <node id="72959652" version="47" timestamp="2012-08-30T11:59:56Z" uid="166969" user="occcy" changeset="12917025" lat="41.8932575" lon="12.4830619">
    <tag k="admin_level" v="2"/>
    <tag k="alt_name:vi" v="La Mã"/>
    <tag k="capital" v="yes"/>
    <tag k="gfoss_id" v="5002"/>
    <tag k="is_in" v="Roma,Lazio,Italy,Europe"/>
    <tag k="is_in:continent" v="Europe"/>
    <tag k="name" v="Roma"/>
    <tag k="name:ast" v="Roma"/>
    <tag k="name:be" v="Рым"/>
    <tag k="name:cs" v="Řím"/>
    <tag k="name:da" v="Rom"/>
    <tag k="name:de" v="Rom"/>
    <tag k="name:el" v="Ρώμη"/>
    <tag k="name:en" v="Rome"/>
    <tag k="name:es" v="Roma"/>
    <tag k="name:et" v="Rooma"/>
    <tag k="name:eu" v="Erroma"/>
    <tag k="name:fi" v="Rooma"/>
    <tag k="name:fr" v="Rome"/>
    <tag k="name:he" v="רומה"/>
    <tag k="name:hr" v="Rim"/>
    <tag k="name:hu" v="Róma"/>
    <tag k="name:is" v="Róm"/>
    <tag k="name:ku" v="Roma"/>
    <tag k="name:lb" v="Roum"/>
    <tag k="name:lv" v="Roma"/>
    <tag k="name:nl" v="Rome"/>
    <tag k="name:pl" v="Rzym"/>
    <tag k="name:pt" v="Roma"/>
    <tag k="name:ru" v="Рим"/>
    <tag k="name:sk" v="Rím"/>
    <tag k="name:sl" v="Rim"/>
    <tag k="name:sr" v="Рим"/>
    <tag k="name:sv" v="Rom"/>
    <tag k="name:uk" v="Рим"/>
    <tag k="name:vi" v="Rô-ma"/>
    <tag k="name:zh" v="罗马"/>
    <tag k="name:zh_pinyin" v="Luómǎ"/>
    <tag k="place" v="city"/>
    <tag k="population" v="2772752"/>
    <tag k="rank" v="0"/>
    <tag k="source:population" v="30.06.2011, http://www.demo.istat.it/bilmens2011gen/query.php?lingua=ita&amp;Rip=S3&amp;Reg=R12&amp;Pro=P058&amp;Com=91&amp;submit=Tavola"/>
    <tag k="website" v="http://www.comune.roma.it/"/>
    <tag k="wikipedia" v="it:Roma"/>
  </node>
</osm>
