<?xml version='1.0' encoding='UTF-8'?>
<osm version="0.6" generator="libosmium/2.20.0">
  <node id="729973025" version="1" timestamp="2010-05-11T20:29:20Z" uid="49111" user="Markus B" changeset="4672257" lat="37.6145777" lon="23.3336771">
    <tag k="name" v="Kameni Chora"/>
    <tag k="place" v="village"/>
  </node>
  <node id="729973029" version="1" timestamp="2010-05-11T20:29:20Z" uid="49111" user="Markus B" changeset="4672257" lat="37.5933631" lon="23.3520807"/>
  <node id="729973031" version="1" timestamp="2010-05-11T20:29:20Z" uid="49111" user="Markus B" changeset="4672257" lat="37.5934723" lon="23.3523169"/>
  <node id="729973033" version="1" timestamp="2010-05-11T20:29:20Z" uid="49111" user="Markus B" changeset="4672257" lat="37.5977694" lon="23.3456996"/>
  <node id="729973035" version="1" timestamp="2010-05-11T20:29:20Z" uid="49111" user="Markus B" changeset="4672257" lat="37.5980599" lon="23.3454705">
    <tag k="name" v="Megalopotami"/>
    <tag k="place" v="village"/>
  </node>
  <node id="729973037" version="1" timestamp="2010-05-11T20:29:20Z" uid="49111" user="Markus B" changeset="4672257" lat="37.5974972" lon="23.3461196"/>
  <node id="729973038" version="1" timestamp="2010-05-11T20:29:20Z" uid="49111" user="Markus B" changeset="4672257" lat="37.5745024" lon="23.3891998"/>
  <node id="729973041" version="1" timestamp="2010-05-11T20:29:20Z" uid="49111" user="Markus B" changeset="4672257" lat="37.6110295" lon="23.3984453">
    <tag k="name" v="Kypseli"/>
    <tag k="place" v="village"/>
  </node>
  <node id="729973043" version="1" timestamp="2010-05-11T20:29:20Z" uid="49111" user="Markus B" changeset="4672257" lat="37.6215245" lon="23.3184746"/>
  <node id="729973045" version="1" timestamp="2010-05-11T20:29:20Z" uid="49111" user="Markus B" changeset="4672257" lat="37.6316452" lon="23.3265068"/>
  <node id="729973047" version="1" timestamp="2010-05-11T20:29:20Z" uid="49111" user="Markus B" changeset="4672257" lat="37.6254323" lon="23.3614299">
    <tag k="name" v="Makrylongos"/>
    <tag k="place" v="village"/>
  </node>
  <node id="729973047" version="2" timestamp="2011-05-02T14:59:40Z" uid="653" user="aitolos" changeset="8030980" lat="37.6216551" lon="23.3580969">
    <tag k="name" v="Makrylongos"/>
    <tag k="place" v="village"/>
  </node>
  <node id="729973048" version="1" timestamp="2010-05-11T20:29:20Z" uid="49111" user="Markus B" changeset="4672257" lat="37.6261488" lon="23.3632501"/>
  <node id="729973048" version="2" timestamp="2011-05-02T14:59:45Z" uid="653" user="aitolos" changeset="8030980" lat="37.6261488" lon="23.3632501"/>
  <node id="729973050" version="1" timestamp="2010-05-11T20:29:20Z" uid="49111" user="Markus B" changeset="4672257" lat="37.6362768" lon="23.3604787">
    <tag k="name" v="Aghios Nikolaos"/>
    <tag k="place" v="village"/>
  </node>
  <node id="729973050" version="2" timestamp="2011-05-02T14:53:47Z" uid="653" user="aitolos" changeset="8030980" lat="37.6367179" lon="23.3557734">
    <tag k="name" v="Aghios Nikolaos"/>
    <tag k="place" v="village"/>
  </node>
  <node id="729973050" version="3" timestamp="2011-05-02T14:59:39Z" uid="653" user="aitolos" changeset="8030980" lat="37.6367179" lon="23.3557734">
    <tag k="name" v="Άγιος Νικόλαος"/>
    <tag k="name:en" v="Aghios Nikolaos"/>
    <tag k="place" v="village"/>
  </node>
  <node id="729973052" version="1" timestamp="2010-05-11T20:29:20Z" uid="49111" user="Markus B" changeset="4672257" lat="37.6282785" lon="23.3615032">
    <tag k="name" v="Palia Loutra"/>
    <tag k="place" v="village"/>
  </node>
  <node id="729973052" version="2" timestamp="2011-05-02T14:59:40Z" uid="653" user="aitolos" changeset="8030980" lat="37.6261083" lon="23.3575247">
    <tag k="name" v="Palia Loutra"/>
    <tag k="place" v="village"/>
  </node>
  <node id="729973054" version="1" timestamp="2010-05-11T20:29:20Z" uid="49111" user="Markus B" changeset="4672257" lat="37.6329794" lon="23.3741811">
    <tag k="name" v="Kounoupitsa"/>
    <tag k="place" v="village"/>
  </node>
  <node id="729973054" version="2" timestamp="2011-05-02T14:59:40Z" uid="653" user="aitolos" changeset="8030980" lat="37.6329794" lon="23.3741811">
    <tag k="name" v="Κουνουπίτσα"/>
    <tag k="name:en" v="Kounoupitsa"/>
    <tag k="place" v="village"/>
  </node>
  <node id="729973056" version="1" timestamp="2010-05-11T20:29:20Z" uid="49111" user="Markus B" changeset="4672257" lat="37.6287606" lon="23.3686607"/>
  <node id="729973056" version="2" timestamp="2011-05-02T14:59:45Z" uid="653" user="aitolos" changeset="8030980" lat="37.6287606" lon="23.3686607"/>
  <node id="729973057" version="1" timestamp="2010-05-11T20:29:20Z" uid="49111" user="Markus B" changeset="4672257" lat="37.6287627" lon="23.3631584"/>
  <node id="729973057" version="2" timestamp="2011-05-02T14:59:44Z" uid="653" user="aitolos" changeset="8030980" lat="37.6287627" lon="23.3631584"/>
  <node id="729973025" version="2" timestamp="2012-08-04T16:49:41Z" uid="497621" user="NikosSkouteris" changeset="12611484" lat="37.6145777" lon="23.3336771">
    <tag k="name" v="Καμμένη Χώρα"/>
    <tag k="name:en" v="Kameni Chora"/>
    <tag k="place" v="village"/>
  </node>
  <node id="729973025" version="3" timestamp="2012-08-06T12:23:48Z" uid="653" user="aitolos" changeset="12632033" lat="37.6146433" lon="23.3335771">
    <tag k="addr:postcode" v="18030"/>
    <tag k="name" v="Καμμένη Χώρα"/>
    <tag k="name:en" v="Kameni Chora"/>
    <tag k="place" v="village"/>
  </node>
  <node id="729973029" version="2" timestamp="2012-07-31T18:57:38Z" uid="497621" user="NikosSkouteris" changeset="12565483" lat="37.5932694" lon="23.3521043"/>
  <node id="729973031" version="2" timestamp="2012-07-31T18:57:39Z" uid="497621" user="NikosSkouteris" changeset="12565483" lat="37.5934723" lon="23.3523169"/>
  <node id="729973033" version="2" timestamp="2012-07-31T18:57:39Z" uid="497621" user="NikosSkouteris" changeset="12565483" lat="37.5977694" lon="23.3456996"/>
  <node id="729973035" version="2" timestamp="2012-08-01T14:55:16Z" uid="497621" user="NikosSkouteris" changeset="12575352" lat="37.5975407" lon="23.3490369">
    <tag k="name" v="Megalopotami"/>
    <tag k="place" v="village"/>
  </node>
  <node id="729973035" version="3" timestamp="2012-08-04T11:39:40Z" uid="497621" user="NikosSkouteris" changeset="12608351" lat="37.5975407" lon="23.3490369">
    <tag k="name" v="Μεγαλο Ποτάμι"/>
    <tag k="name:en" v="Megalo Potami"/>
    <tag k="place" v="village"/>
  </node>
  <node id="729973035" version="4" timestamp="2012-08-06T12:23:48Z" uid="653" user="aitolos" changeset="12632033" lat="37.597596" lon="23.3491738">
    <tag k="addr:postcode" v="18030"/>
    <tag k="name" v="Μεγάλο Ποτάμι"/>
    <tag k="name:en" v="Megalo Potami"/>
    <tag k="place" v="village"/>
  </node>
  <node id="729973037" version="2" timestamp="2012-07-31T18:57:39Z" uid="497621" user="NikosSkouteris" changeset="12565483" lat="37.5974972" lon="23.3461196"/>
  <node id="729973041" version="2" timestamp="2012-08-01T14:55:16Z" uid="497621" user="NikosSkouteris" changeset="12575352" lat="37.6106389" lon="23.3980654">
    <tag k="name" v="Κυψέλη"/>
    <tag k="name:en" v="Kypseli"/>
    <tag k="place" v="village"/>
  </node>
  <node id="729973041" version="3" timestamp="2012-08-06T12:23:48Z" uid="653" user="aitolos" changeset="12632033" lat="37.6106654" lon="23.3982429">
    <tag k="addr:postcode" v="18030"/>
    <tag k="name" v="Κυψέλη"/>
    <tag k="name:en" v="Kypseli"/>
    <tag k="place" v="village"/>
  </node>
  <node id="729973043" version="2" timestamp="2012-07-31T18:57:38Z" uid="497621" user="NikosSkouteris" changeset="12565483" lat="37.6216162" lon="23.3183344"/>
  <node id="729973045" version="2" timestamp="2012-07-31T18:57:38Z" uid="497621" user="NikosSkouteris" changeset="12565483" lat="37.6316691" lon="23.3265723"/>
  <node id="729973047" version="3" timestamp="2012-08-04T16:49:41Z" uid="497621" user="NikosSkouteris" changeset="12611484" lat="37.621672" lon="23.3576312">
    <tag k="name" v="Μακρύλογγος"/>
    <tag k="name:en" v="Makrylongos"/>
    <tag k="place" v="village"/>
  </node>
  <node id="729973047" version="4" timestamp="2012-08-06T12:23:48Z" uid="653" user="aitolos" changeset="12632033" lat="37.621672" lon="23.3576312">
    <tag k="addr:postcode" v="18030"/>
    <tag k="name" v="Μακρύλογγος"/>
    <tag k="name:en" v="Makrylongos"/>
    <tag k="place" v="village"/>
  </node>
  <node id="729973050" version="4" timestamp="2012-08-06T12:23:48Z" uid="653" user="aitolos" changeset="12632033" lat="37.6367522" lon="23.3531696">
    <tag k="addr:postcode" v="18030"/>
    <tag k="name" v="Άγιος Νικόλαος"/>
    <tag k="name:en" v="Aghios Nikolaos"/>
    <tag k="place" v="village"/>
  </node>
  <node id="729973052" version="3" timestamp="2012-08-04T16:49:42Z" uid="497621" user="NikosSkouteris" changeset="12611484" lat="37.6261083" lon="23.3575247">
    <tag k="name" v="Παλιά Λουτρά"/>
    <tag k="name:en" v="Palia Loutra"/>
    <tag k="place" v="village"/>
  </node>
  <node id="729973052" version="4" timestamp="2012-08-06T12:23:49Z" uid="653" user="aitolos" changeset="12632033" lat="37.6261083" lon="23.3575247">
    <tag k="addr:postcode" v="18030"/>
    <tag k="name" v="Παλιά Λουτρά"/>
    <tag k="name:en" v="Palia Loutra"/>
    <tag k="place" v="village"/>
  </node>
  <node id="729973054" version="3" timestamp="2012-08-06T12:23:48Z" uid="653" user="aitolos" changeset="12632033" lat="37.6329794" lon="23.3741811">
    <tag k="addr:postcode" v="18030"/>
    <tag k="name" v="Κουνουπίτσα"/>
    <tag k="name:en" v="Kounoupitsa"/>
    <tag k="place" v="village"/>
  </node>
</osm>
