<?xml version='1.0' encoding='UTF-8'?>
<osm version="0.6" generator="libosmium/2.20.0">
  <node id="73093656" version="3" timestamp="2008-07-03T16:07:30Z" uid="6975" user="ulfl" changeset="378199" lat="60.2096986" lon="25.14355">
    <tag k="name" v="R-kioski"/>
    <tag k="shop" v="kiosk"/>
  </node>
  <node id="73093656" version="4" timestamp="2008-08-29T12:40:10Z" uid="19652" user="Kekoil" changeset="448967" lat="60.209702" lon="25.1435522">
    <tag k="created_by" v="Potlatch 0.10b"/>
    <tag k="is_in" v="Vuosaari, Helsinki, Finland"/>
    <tag k="name" v="R-kioski"/>
    <tag k="shop" v="kiosk"/>
  </node>
  <node id="73093656" version="5" timestamp="2009-09-03T18:18:09Z" uid="139957" user="ij_" changeset="2362752" lat="60.2097343" lon="25.1434785">
    <tag k="is_in" v="Vuosaari, Helsinki, Finland"/>
    <tag k="name" v="R-kioski"/>
    <tag k="shop" v="kiosk"/>
  </node>
  <node id="73093656" version="6" timestamp="2010-03-16T05:26:14Z" uid="38239" user="Daeron" changeset="4140703" lat="60.2097343" lon="25.1434785">
    <tag k="name" v="R-kioski"/>
    <tag k="shop" v="kiosk"/>
  </node>
  <node id="73093656" version="7" timestamp="2010-03-30T07:29:46Z" uid="139957" user="ij_" changeset="4274074" lat="60.2097412" lon="25.1433207">
    <tag k="name" v="R-kioski"/>
    <tag k="shop" v="kiosk"/>
  </node>
  <node id="73093656" version="8" timestamp="2011-01-12T22:43:46Z" uid="139957" user="ij_" changeset="6952649" lat="60.2097702" lon="25.1433094">
    <tag k="name" v="R-kioski"/>
    <tag k="shop" v="kiosk"/>
  </node>
  <node id="73093656" version="9" timestamp="2011-12-23T12:14:30Z" uid="139957" user="ij_" changeset="10186636" lat="60.2097537" lon="25.1433525">
    <tag k="amenity" v="restaurant"/>
    <tag k="name" v="Vuo pizza &amp; kebab"/>
    <tag k="start_date" v="2011-12"/>
    <tag k="was:name" v="R-kioski"/>
    <tag k="was:shop" v="kiosk"/>
  </node>
</osm>
