<?xml version='1.0' encoding='UTF-8'?>
<osm version="0.6" generator="libosmium/2.20.0">
  <node id="73101644" version="3" timestamp="2008-07-03T00:23:39Z" uid="6975" user="ulfl" changeset="377243" lat="60.2079118" lon="25.1461936">
    <tag k="name" v="City-Market"/>
    <tag k="shop" v="supermarket"/>
  </node>
  <node id="73101644" version="4" timestamp="2010-04-24T11:36:54Z" uid="112530" user="Caballista" changeset="4511125" lat="60.2079118" lon="25.1461936">
    <tag k="addr:city" v="Helsinki"/>
    <tag k="addr:country" v="FI"/>
    <tag k="name" v="City-Market"/>
    <tag k="shop" v="supermarket"/>
  </node>
  <node id="73101644" version="5" timestamp="2011-10-05T22:00:49Z" uid="139957" user="ij_" changeset="9482085" lat="60.2079118" lon="25.1461936">
    <tag k="addr:city" v="Helsinki"/>
    <tag k="addr:country" v="FI"/>
    <tag k="name" v="City-Market"/>
    <tag k="shop" v="supermarket"/>
    <tag k="start_date" v="2006"/>
  </node>
  <node id="73101644" version="6" timestamp="2011-12-18T14:15:56Z" uid="290680" user="wheelmap_visitor" changeset="10145307" lat="60.2079118" lon="25.1461936">
    <tag k="addr:city" v="Helsinki"/>
    <tag k="addr:country" v="FI"/>
    <tag k="name" v="City-Market"/>
    <tag k="shop" v="supermarket"/>
    <tag k="start_date" v="2006"/>
    <tag k="wheelchair" v="yes"/>
  </node>
  <node id="73102964" version="5" timestamp="2009-12-25T09:33:15Z" uid="58091" user="Andreas M" changeset="3446705" lat="48.2753609" lon="16.355759">
    <tag k="crossing" v="traffic_signals"/>
    <tag k="highway" v="traffic_signals"/>
  </node>
  <node id="73103550" version="12" timestamp="2010-07-16T05:47:32Z" uid="4467" user="Rosscoe" changeset="5232119" lat="-27.4223535" lon="153.0148648">
    <tag k="highway" v="traffic_signals"/>
  </node>
  <node id="73103799" version="3" timestamp="2008-12-17T12:39:19Z" uid="58091" user="Andreas M" changeset="447226" lat="48.2739164" lon="16.3560231"/>
  <node id="73104011" version="5" timestamp="2008-07-03T16:07:28Z" uid="6975" user="ulfl" changeset="378199" lat="60.207238" lon="25.1448804">
    <tag k="name" v="R-kioski"/>
    <tag k="shop" v="kiosk"/>
  </node>
  <node id="73104011" version="6" timestamp="2009-12-09T21:16:45Z" uid="139957" user="ij_" changeset="3337128" lat="60.207261" lon="25.1446692">
    <tag k="name" v="R-kioski"/>
    <tag k="shop" v="kiosk"/>
  </node>
  <node id="73104011" version="7" timestamp="2010-04-24T11:36:51Z" uid="112530" user="Caballista" changeset="4511125" lat="60.207261" lon="25.1446692">
    <tag k="addr:city" v="Helsinki"/>
    <tag k="addr:country" v="FI"/>
    <tag k="name" v="R-kioski"/>
    <tag k="shop" v="kiosk"/>
  </node>
  <node id="73104011" version="8" timestamp="2010-12-20T11:08:22Z" uid="139957" user="ij_" changeset="6714820" lat="60.207261" lon="25.1447302">
    <tag k="addr:city" v="Helsinki"/>
    <tag k="addr:country" v="FI"/>
    <tag k="name" v="R-kioski"/>
    <tag k="shop" v="kiosk"/>
  </node>
  <node id="73102964" version="6" timestamp="2012-04-18T17:23:28Z" uid="38313" user="SKald" changeset="11346367" lat="48.2753619" lon="16.3557878">
    <tag k="crossing" v="traffic_signals"/>
    <tag k="highway" v="traffic_signals"/>
  </node>
  <node id="73102964" version="7" timestamp="2012-05-06T20:05:18Z" uid="137798" user="HellSpawn" changeset="11522790" lat="48.2754661" lon="16.3556966">
    <tag k="crossing" v="traffic_signals"/>
    <tag k="highway" v="traffic_signals"/>
  </node>
  <node id="73102964" version="8" timestamp="2012-07-16T22:51:16Z" uid="722137" user="OSMF Redaction Account" changeset="12252971" lat="48.2754661" lon="16.3556966"/>
  <node id="73103550" version="13" timestamp="2012-07-20T03:40:43Z" uid="722137" user="OSMF Redaction Account" changeset="12359631" lat="-27.4223895" lon="153.0148738">
    <tag k="highway" v="traffic_signals"/>
  </node>
  <node id="73103799" version="4" timestamp="2012-07-16T22:51:16Z" uid="722137" user="OSMF Redaction Account" changeset="12252971" lat="48.2739441" lon="16.3559993"/>
  <node id="73103799" version="5" timestamp="2012-07-22T04:03:45Z" uid="54806" user="_al" changeset="12425150" lat="48.2740627" lon="16.3559461"/>
  <node id="73104011" version="9" timestamp="2012-05-27T20:01:26Z" uid="139957" user="ij_" changeset="11719448" lat="60.2073108" lon="25.1447728">
    <tag k="addr:city" v="Helsinki"/>
    <tag k="addr:country" v="FI"/>
    <tag k="name" v="R-kioski"/>
    <tag k="shop" v="kiosk"/>
  </node>
</osm>
