<?xml version='1.0' encoding='UTF-8'?>
<osm version="0.6" generator="libosmium/2.20.0">
  <node id="731541845" version="1" timestamp="2010-05-12T22:35:17Z" uid="244897" user="M526244" changeset="4681789" lat="-28.8526339" lon="153.5840993"/>
  <node id="731541845" version="2" timestamp="2011-01-19T20:53:55Z" uid="69076" user="axk" changeset="7024728" lat="-28.8526339" lon="153.5840993"/>
  <node id="731541846" version="1" timestamp="2010-05-12T22:35:18Z" uid="244897" user="M526244" changeset="4681789" lat="-28.8522736" lon="153.583844"/>
  <node id="731541846" version="2" timestamp="2011-01-19T20:53:49Z" uid="69076" user="axk" changeset="7024728" lat="-28.8522736" lon="153.583844"/>
  <node id="731541847" version="1" timestamp="2010-05-12T22:35:20Z" uid="244897" user="M526244" changeset="4681789" lat="-28.8522493" lon="153.5837214"/>
  <node id="731541847" version="2" timestamp="2011-01-19T20:54:03Z" uid="69076" user="axk" changeset="7024728" lat="-28.8522493" lon="153.5837214"/>
  <node id="731541848" version="1" timestamp="2010-05-12T22:35:24Z" uid="244897" user="M526244" changeset="4681789" lat="-28.866587" lon="153.5780867"/>
  <node id="731541849" version="1" timestamp="2010-05-12T22:35:25Z" uid="244897" user="M526244" changeset="4681789" lat="-28.8697224" lon="153.5748939"/>
  <node id="731541850" version="1" timestamp="2010-05-12T22:35:25Z" uid="244897" user="M526244" changeset="4681789" lat="-28.8697309" lon="153.5746943"/>
  <node id="731541851" version="1" timestamp="2010-05-12T22:35:26Z" uid="244897" user="M526244" changeset="4681789" lat="-28.8696129" lon="153.5745451"/>
  <node id="731541854" version="1" timestamp="2010-05-12T22:35:27Z" uid="244897" user="M526244" changeset="4681789" lat="-28.8694363" lon="153.5745352"/>
  <node id="731541861" version="1" timestamp="2010-05-12T22:35:27Z" uid="244897" user="M526244" changeset="4681789" lat="-28.869291" lon="153.5747197"/>
  <node id="731541872" version="1" timestamp="2010-05-12T22:35:27Z" uid="244897" user="M526244" changeset="4681789" lat="-28.8692988" lon="153.5748739"/>
  <node id="731541890" version="1" timestamp="2010-05-12T22:35:28Z" uid="244897" user="M526244" changeset="4681789" lat="-28.8694357" lon="153.575029"/>
  <node id="731541902" version="1" timestamp="2010-05-12T22:35:28Z" uid="244897" user="M526244" changeset="4681789" lat="-28.8695936" lon="153.5750287"/>
  <node id="731541905" version="1" timestamp="2010-05-12T22:35:28Z" uid="55964" user="Evan Sebire" changeset="4681792" lat="46.5880663" lon="7.6462254">
    <tag k="addr:city" v="Frutigen"/>
    <tag k="addr:country" v="CH"/>
    <tag k="addr:housenumber" v="4"/>
    <tag k="addr:postcode" v="3714"/>
    <tag k="addr:street" v="Kanderstegstrasse"/>
    <tag k="name" v="Cutting room Atelier"/>
    <tag k="phone" v="+41 33 671 1512"/>
    <tag k="shop" v="hairdresser"/>
    <tag k="source" v="survey"/>
  </node>
  <node id="731541905" version="2" timestamp="2012-03-12T11:43:18Z" uid="125339" user="efred" changeset="10953787" lat="46.5880663" lon="7.6462254"/>
  <node id="731541916" version="1" timestamp="2010-05-12T22:35:30Z" uid="55964" user="Evan Sebire" changeset="4681792" lat="46.5881089" lon="7.6461476">
    <tag k="addr:city" v="Frutigen"/>
    <tag k="addr:country" v="CH"/>
    <tag k="addr:housenumber" v="2"/>
    <tag k="addr:postcode" v="3714"/>
    <tag k="addr:street" v="Kanderstegstrasse"/>
    <tag k="source" v="survey"/>
  </node>
  <node id="731541916" version="2" timestamp="2012-03-25T04:27:52Z" uid="178186" user="mdk" changeset="11091125" lat="46.5881089" lon="7.6461476"/>
  <node id="731541917" version="1" timestamp="2010-05-12T22:35:33Z" uid="55964" user="Evan Sebire" changeset="4681792" lat="46.5881897" lon="7.6452592">
    <tag k="amenity" v="cafe"/>
  </node>
  <node id="731541917" version="2" timestamp="2012-03-12T11:43:41Z" uid="125339" user="efred" changeset="10953787" lat="46.5881897" lon="7.6452592"/>
  <node id="731541918" version="1" timestamp="2010-05-12T22:35:34Z" uid="55964" user="Evan Sebire" changeset="4681792" lat="46.5867359" lon="7.6467954">
    <tag k="amenity" v="bar"/>
    <tag k="name" v="kioski"/>
  </node>
  <node id="731541918" version="2" timestamp="2012-03-12T11:43:21Z" uid="125339" user="efred" changeset="10953787" lat="46.5867359" lon="7.6467954"/>
  <node id="731541919" version="1" timestamp="2010-05-12T22:35:34Z" uid="55964" user="Evan Sebire" changeset="4681792" lat="46.5872987" lon="7.646355">
    <tag k="shop" v="florist"/>
  </node>
  <node id="731541919" version="2" timestamp="2010-05-16T09:36:17Z" uid="55964" user="Evan Sebire" changeset="4714815" lat="46.5873307" lon="7.6463288">
    <tag k="addr:city" v="Frutigen"/>
    <tag k="addr:country" v="CH"/>
    <tag k="addr:housenumber" v="12"/>
    <tag k="addr:postcode" v="3714"/>
    <tag k="addr:street" v="Kanderstegstrasse"/>
    <tag k="name" v="Blumen Joy"/>
    <tag k="phone" v="+41 33 671 0440"/>
    <tag k="shop" v="florist"/>
    <tag k="source" v="survey"/>
  </node>
  <node id="731541919" version="3" timestamp="2012-03-12T11:43:17Z" uid="125339" user="efred" changeset="10953787" lat="46.5873307" lon="7.6463288"/>
  <node id="731541920" version="1" timestamp="2010-05-12T22:35:34Z" uid="55964" user="Evan Sebire" changeset="4681792" lat="46.5866403" lon="7.6468417">
    <tag k="addr:city" v="Frutigen"/>
    <tag k="addr:country" v="CH"/>
    <tag k="addr:housenumber" v="22"/>
    <tag k="addr:postcode" v="3714"/>
    <tag k="addr:street" v="Kanderstegstrasse"/>
    <tag k="name" v="Expert Ruchti"/>
    <tag k="phone" v="+41 33 671 5050"/>
    <tag k="shop" v="hifi"/>
    <tag k="source" v="survey"/>
    <tag k="url" v="http://www.expert-ruchti.ch"/>
  </node>
  <node id="731541920" version="2" timestamp="2012-03-12T11:43:18Z" uid="125339" user="efred" changeset="10953787" lat="46.5866403" lon="7.6468417"/>
  <node id="731541921" version="1" timestamp="2010-05-12T22:35:35Z" uid="55964" user="Evan Sebire" changeset="4681792" lat="46.5869546" lon="7.6464844">
    <tag k="addr:city" v="Frutigen"/>
    <tag k="addr:country" v="CH"/>
    <tag k="addr:housenumber" v="18"/>
    <tag k="addr:postcode" v="3714"/>
    <tag k="addr:street" v="Kanderstegstrasse"/>
    <tag k="name" v="Veloschöpfli Zürcher"/>
    <tag k="phone" v="+41 33 671 3646"/>
    <tag k="shop" v="bicycle"/>
    <tag k="source" v="survey"/>
    <tag k="url" v="http://www.bike1a.ch"/>
  </node>
  <node id="731541921" version="2" timestamp="2012-03-12T11:43:21Z" uid="125339" user="efred" changeset="10953787" lat="46.5869546" lon="7.6464844"/>
  <node id="731541922" version="1" timestamp="2010-05-12T22:35:35Z" uid="55964" user="Evan Sebire" changeset="4681792" lat="46.5868463" lon="7.6466722">
    <tag k="addr:city" v="Frutigen"/>
    <tag k="addr:country" v="CH"/>
    <tag k="addr:housenumber" v="20"/>
    <tag k="addr:postcode" v="3714"/>
    <tag k="addr:street" v="Kanderstegstrasse"/>
    <tag k="amenity" v="pharmacy"/>
    <tag k="name" v="Pedro-Drogerie Gogniat"/>
    <tag k="opening_hours" v="Mo-Fr 08:00-12:15,13:30-18:30;Sa 08:00-12:15,13:00-16:00"/>
    <tag k="phone" v="+41 33 671 2885"/>
    <tag k="source" v="survey"/>
    <tag k="url" v="http://www.pedro-drogerie.ch/frutigen.html"/>
  </node>
  <node id="731541922" version="2" timestamp="2012-03-12T11:43:20Z" uid="125339" user="efred" changeset="10953787" lat="46.5868463" lon="7.6466722"/>
  <node id="731541923" version="1" timestamp="2010-05-12T22:35:37Z" uid="55964" user="Evan Sebire" changeset="4681792" lat="46.5878414" lon="7.6464638">
    <tag k="addr:city" v="Frutigen"/>
    <tag k="addr:country" v="CH"/>
    <tag k="addr:housenumber" v="9"/>
    <tag k="addr:postcode" v="3714"/>
    <tag k="addr:street" v="Kanderstegstrasse"/>
    <tag k="name" v="Treffpunkt"/>
    <tag k="shop" v="stationery"/>
    <tag k="source" v="survey"/>
  </node>
  <node id="731541923" version="2" timestamp="2012-03-12T11:43:21Z" uid="125339" user="efred" changeset="10953787" lat="46.5878414" lon="7.6464638"/>
  <node id="731541924" version="1" timestamp="2010-05-12T22:35:38Z" uid="55964" user="Evan Sebire" changeset="4681792" lat="46.5877275" lon="7.6464219">
    <tag k="addr:city" v="Frutigen"/>
    <tag k="addr:country" v="CH"/>
    <tag k="addr:housenumber" v="11"/>
    <tag k="addr:postcode" v="3714"/>
    <tag k="addr:street" v="Kanderstegstrasse"/>
    <tag k="source" v="survey"/>
  </node>
  <node id="731541924" version="2" timestamp="2012-03-25T04:27:50Z" uid="178186" user="mdk" changeset="11091125" lat="46.5877275" lon="7.6464219"/>
  <node id="731542989" version="1" timestamp="2010-05-12T22:44:14Z" uid="55964" user="Evan Sebire" changeset="4681835" lat="46.5884112" lon="7.645806">
    <tag k="addr:city" v="Frutigen"/>
    <tag k="addr:country" v="CH"/>
    <tag k="addr:housenumber" v="1"/>
    <tag k="addr:postcode" v="3714"/>
    <tag k="addr:street" v="Kanderstegstrasse"/>
    <tag k="name" v="Müller‎"/>
    <tag k="phone" v="+41 33 671 1267"/>
    <tag k="shop" v="bakery"/>
    <tag k="source" v="survey"/>
  </node>
  <node id="731542989" version="2" timestamp="2012-03-12T10:55:49Z" uid="125339" user="efred" changeset="10953335" lat="46.5884112" lon="7.645806"/>
  <node id="731542991" version="1" timestamp="2010-05-12T22:44:14Z" uid="55964" user="Evan Sebire" changeset="4681835" lat="46.5883463" lon="7.6459622">
    <tag k="addr:city" v="Frutigen"/>
    <tag k="addr:country" v="CH"/>
    <tag k="addr:housenumber" v="1"/>
    <tag k="addr:postcode" v="3714"/>
    <tag k="addr:street" v="Amthausgasse"/>
    <tag k="amenity" v="restaurant"/>
    <tag k="name" v="Sternen"/>
    <tag k="phone" v="+41 33 671 1644"/>
    <tag k="source" v="survey"/>
  </node>
  <node id="731542991" version="2" timestamp="2012-03-12T10:55:49Z" uid="125339" user="efred" changeset="10953335" lat="46.5883463" lon="7.6459622"/>
  <node id="731543849" version="1" timestamp="2010-05-12T22:46:50Z" uid="244897" user="M526244" changeset="4681846" lat="-28.8638989" lon="153.5396338">
    <tag k="name" v="Ballina Fishermen&apos;s Co-Op"/>
    <tag k="note" v="Food outlet: cooked and raw; local and imported."/>
    <tag k="shop" v="fish"/>
  </node>
  <node id="731541848" version="2" timestamp="2012-07-19T13:34:33Z" uid="722137" user="OSMF Redaction Account" changeset="12329520" lat="-28.866587" lon="153.5780867"/>
  <node id="731541849" version="2" timestamp="2012-07-19T13:34:18Z" uid="722137" user="OSMF Redaction Account" changeset="12329489" lat="-28.8697224" lon="153.5748939"/>
  <node id="731541850" version="2" timestamp="2012-07-19T13:34:18Z" uid="722137" user="OSMF Redaction Account" changeset="12329489" lat="-28.8697309" lon="153.5746943"/>
  <node id="731541851" version="2" timestamp="2012-07-19T13:34:18Z" uid="722137" user="OSMF Redaction Account" changeset="12329489" lat="-28.8696129" lon="153.5745451"/>
  <node id="731541854" version="2" timestamp="2012-07-19T13:34:19Z" uid="722137" user="OSMF Redaction Account" changeset="12329489" lat="-28.8694363" lon="153.5745352"/>
  <node id="731541861" version="2" timestamp="2012-07-19T13:34:20Z" uid="722137" user="OSMF Redaction Account" changeset="12329489" lat="-28.869291" lon="153.5747197"/>
  <node id="731541872" version="2" timestamp="2012-07-19T13:34:20Z" uid="722137" user="OSMF Redaction Account" changeset="12329489" lat="-28.8692988" lon="153.5748739"/>
  <node id="731541890" version="2" timestamp="2012-07-19T13:34:19Z" uid="722137" user="OSMF Redaction Account" changeset="12329489" lat="-28.8694357" lon="153.575029"/>
  <node id="731541902" version="2" timestamp="2012-07-19T13:34:19Z" uid="722137" user="OSMF Redaction Account" changeset="12329489" lat="-28.8695936" lon="153.5750287"/>
  <node id="731541916" version="3" timestamp="2012-04-06T15:13:03Z" uid="178186" user="mdk" changeset="11202980" lat="46.5881089" lon="7.6461476">
    <tag k="addr:city" v="Frutigen"/>
    <tag k="addr:country" v="CH"/>
    <tag k="addr:housenumber" v="2"/>
    <tag k="addr:postcode" v="3714"/>
    <tag k="addr:street" v="Kanderstegstrasse"/>
    <tag k="source" v="survey"/>
  </node>
  <node id="731541916" version="4" timestamp="2012-07-16T13:58:44Z" uid="722137" user="OSMF Redaction Account" changeset="12245530" lat="46.5881089" lon="7.6461476"/>
  <node id="731541924" version="3" timestamp="2012-04-06T15:12:56Z" uid="178186" user="mdk" changeset="11202980" lat="46.5877275" lon="7.6464219">
    <tag k="addr:city" v="Frutigen"/>
    <tag k="addr:country" v="CH"/>
    <tag k="addr:housenumber" v="11"/>
    <tag k="addr:postcode" v="3714"/>
    <tag k="addr:street" v="Kanderstegstrasse"/>
    <tag k="source" v="survey"/>
  </node>
  <node id="731541924" version="4" timestamp="2012-07-16T13:58:44Z" uid="722137" user="OSMF Redaction Account" changeset="12245530" lat="46.5877275" lon="7.6464219"/>
  <node id="731543849" version="2" timestamp="2012-07-19T13:47:50Z" uid="722137" user="OSMF Redaction Account" changeset="12330322" lat="-28.8638989" lon="153.5396338"/>
</osm>
