<?xml version='1.0' encoding='UTF-8'?>
<osm version="0.6" generator="libosmium/2.20.0">
  <node id="73160047" version="3" timestamp="2007-10-24T12:01:07Z" uid="9581" user="Lobelt" changeset="305513" lat="51.5323201" lon="13.9307286">
    <tag k="created_by" v="Potlatch 0.4a"/>
    <tag k="name" v="EuroSpeedway Lausitz"/>
    <tag k="tourism" v="attraction"/>
  </node>
  <node id="73160047" version="4" timestamp="2007-10-24T18:41:06Z" uid="16019" user="Thommse" changeset="306786" lat="51.5323166" lon="13.9307209">
    <tag k="created_by" v="Potlatch 0.4a"/>
    <tag k="name" v="EuroSpeedway Lausitz"/>
    <tag k="tourism" v="attraction"/>
  </node>
  <node id="73160047" version="5" timestamp="2007-11-20T10:05:29Z" uid="16019" user="Thommse" changeset="579968" lat="51.5323142" lon="13.9307152">
    <tag k="created_by" v="Potlatch 0.5b"/>
    <tag k="name" v="EuroSpeedway Lausitz"/>
    <tag k="tourism" v="attraction"/>
  </node>
  <node id="73160047" version="6" timestamp="2009-03-06T20:23:08Z" uid="12973" user="MattGPS" changeset="744886" lat="51.5343631" lon="13.9269488">
    <tag k="created_by" v="Potlatch 0.10f"/>
    <tag k="name" v="EuroSpeedway Lausitz"/>
    <tag k="tourism" v="attraction"/>
  </node>
  <node id="73160047" version="7" timestamp="2009-05-12T14:35:17Z" uid="69628" user="vsandre" changeset="1165008" lat="51.5325522" lon="13.9279">
    <tag k="addr:city" v="Klettwitz"/>
    <tag k="addr:country" v="DE"/>
    <tag k="addr:housenumber" v="1"/>
    <tag k="addr:postcode" v="01998"/>
    <tag k="addr:street" v="Lausitzallee"/>
    <tag k="building" v="yes"/>
    <tag k="name" v="EuroSpeedway Lausitz"/>
    <tag k="tourism" v="attraction"/>
  </node>
  <node id="73160047" version="8" timestamp="2009-05-13T00:05:26Z" uid="12973" user="MattGPS" changeset="1170489" lat="51.5311706" lon="13.9284843">
    <tag k="addr:city" v="Klettwitz"/>
    <tag k="addr:country" v="DE"/>
    <tag k="addr:housenumber" v="1"/>
    <tag k="addr:postcode" v="01998"/>
    <tag k="addr:street" v="Lausitzallee"/>
    <tag k="building" v="yes"/>
    <tag k="name" v="EuroSpeedway Lausitz"/>
    <tag k="tourism" v="attraction"/>
  </node>
  <node id="73160047" version="9" timestamp="2009-11-01T15:17:40Z" uid="109763" user="stwebster" changeset="3007235" lat="51.5311704" lon="13.9284778">
    <tag k="addr:city" v="Klettwitz"/>
    <tag k="addr:country" v="DE"/>
    <tag k="addr:housenumber" v="1"/>
    <tag k="addr:postcode" v="01998"/>
    <tag k="addr:street" v="Lausitzallee"/>
    <tag k="building" v="yes"/>
    <tag k="name" v="EuroSpeedway Lausitz"/>
    <tag k="tourism" v="attraction"/>
    <tag k="website" v="http://www.eurospeedway.de/"/>
  </node>
  <node id="73164591" version="4" timestamp="2011-01-09T01:14:49Z" uid="49111" user="Markus B" changeset="6911133" lat="36.6902236" lon="23.0496554"/>
  <node id="73167327" version="6" timestamp="2011-01-09T01:15:15Z" uid="49111" user="Markus B" changeset="6911133" lat="36.6859874" lon="23.0397931"/>
  <node id="73167752" version="5" timestamp="2011-01-09T01:15:14Z" uid="49111" user="Markus B" changeset="6911133" lat="36.6904176" lon="23.0588726"/>
  <node id="73167752" version="6" timestamp="2011-04-10T19:55:58Z" uid="50274" user="crom" changeset="7826889" lat="36.690479" lon="23.0588507"/>
  <node id="73168808" version="4" timestamp="2011-01-09T01:15:15Z" uid="49111" user="Markus B" changeset="6911133" lat="36.6857629" lon="23.0476158"/>
  <node id="73169033" version="5" timestamp="2011-01-09T01:15:11Z" uid="49111" user="Markus B" changeset="6911133" lat="36.6892554" lon="23.0591233"/>
  <node id="73160047" version="10" timestamp="2012-06-17T08:32:40Z" uid="163437" user="r-michael" changeset="11922732" lat="51.5311704" lon="13.9284778">
    <tag k="leisure" v="track"/>
    <tag k="name" v="EuroSpeedway Lausitz"/>
    <tag k="sport" v="motor"/>
    <tag k="website" v="http://www.eurospeedway.de/"/>
  </node>
  <node id="73167327" version="7" timestamp="2012-07-29T20:57:17Z" uid="864" user="Niccolo" changeset="12540556" lat="36.6860415" lon="23.0396982"/>
</osm>
