<?xml version='1.0' encoding='UTF-8'?>
<osm version="0.6" generator="libosmium/2.20.0">
  <node id="734021842" version="3" timestamp="2010-06-25T15:12:54Z" uid="49111" user="Markus B" changeset="5074562" lat="49.4566256" lon="11.0854824">
    <tag k="addr:city" v="Nürnberg"/>
    <tag k="addr:country" v="DE"/>
    <tag k="addr:housenumber" v="20"/>
    <tag k="addr:postcode" v="90403"/>
    <tag k="addr:street" v="Äußere Laufer Gasse"/>
    <tag k="amenity" v="fast_food"/>
    <tag k="cuisine" v="thai"/>
    <tag k="name" v="Thai Imbiss"/>
    <tag k="opening_hours" v="11:30-23:00"/>
    <tag k="phone" v="+49-911-5566765"/>
    <tag k="smoking" v="no"/>
    <tag k="smoking:outside" v="yes"/>
  </node>
  <node id="734021842" version="4" timestamp="2011-06-04T18:28:17Z" uid="81175" user="robome" changeset="8341545" lat="49.4566336" lon="11.0855181">
    <tag k="addr:city" v="Nürnberg"/>
    <tag k="addr:country" v="DE"/>
    <tag k="addr:housenumber" v="20"/>
    <tag k="addr:postcode" v="90403"/>
    <tag k="addr:street" v="Äußere Laufer Gasse"/>
    <tag k="amenity" v="fast_food"/>
    <tag k="cuisine" v="thai"/>
    <tag k="name" v="Thai Imbiss"/>
    <tag k="opening_hours" v="11:30-23:00"/>
    <tag k="phone" v="+49-911-5566765"/>
    <tag k="smoking" v="no"/>
    <tag k="smoking:outside" v="yes"/>
  </node>
  <node id="734021842" version="5" timestamp="2011-12-02T22:12:22Z" uid="71557" user="Taroc" changeset="10020533" lat="49.4566336" lon="11.0855181"/>
  <node id="734021851" version="2" timestamp="2010-06-25T15:12:54Z" uid="49111" user="Markus B" changeset="5074562" lat="49.4564351" lon="11.0848413">
    <tag k="name" v="Der Kalchreuter Bäcker"/>
    <tag k="shop" v="bakery"/>
    <tag k="smoking" v="no"/>
    <tag k="smoking:outside" v="yes"/>
  </node>
  <node id="734021851" version="3" timestamp="2010-08-13T13:41:16Z" uid="323281" user="kwh" changeset="5482048" lat="49.4563435" lon="11.0848979">
    <tag k="name" v="Der Kalchreuter Bäcker"/>
    <tag k="shop" v="bakery"/>
    <tag k="smoking" v="no"/>
    <tag k="smoking:outside" v="yes"/>
  </node>
  <node id="734021851" version="4" timestamp="2010-08-13T13:43:04Z" uid="323281" user="kwh" changeset="5482048" lat="49.4564325" lon="11.0848349">
    <tag k="name" v="Der Kalchreuter Bäcker"/>
    <tag k="shop" v="bakery"/>
    <tag k="smoking" v="no"/>
    <tag k="smoking:outside" v="yes"/>
  </node>
  <node id="734021851" version="5" timestamp="2011-06-04T18:28:34Z" uid="81175" user="robome" changeset="8341545" lat="49.4564168" lon="11.0847876">
    <tag k="name" v="Der Kalchreuter Bäcker"/>
    <tag k="shop" v="bakery"/>
    <tag k="smoking" v="no"/>
    <tag k="smoking:outside" v="yes"/>
  </node>
  <node id="734021851" version="6" timestamp="2011-12-02T22:12:14Z" uid="71557" user="Taroc" changeset="10020533" lat="49.4564168" lon="11.0847876"/>
  <node id="734021860" version="2" timestamp="2010-06-25T15:12:54Z" uid="49111" user="Markus B" changeset="5074562" lat="49.4574749" lon="11.0868956">
    <tag k="addr:city" v="Nürnberg"/>
    <tag k="addr:country" v="DE"/>
    <tag k="addr:housenumber" v="15"/>
    <tag k="addr:postcode" v="90403"/>
    <tag k="addr:street" v="Äußerer Laufer Platz"/>
    <tag k="amenity" v="cafe"/>
    <tag k="cuisine" v="ice_cream"/>
    <tag k="name" v="Mischbar &amp; Kalahua"/>
    <tag k="phone" v="+49-911-5808958"/>
    <tag k="smoking" v="no"/>
  </node>
  <node id="734021860" version="3" timestamp="2011-08-14T18:08:43Z" uid="172603" user="catwb77" changeset="9019007" lat="49.4574749" lon="11.0868956">
    <tag k="addr:city" v="Nürnberg"/>
    <tag k="addr:country" v="DE"/>
    <tag k="addr:housenumber" v="15"/>
    <tag k="addr:postcode" v="90403"/>
    <tag k="addr:street" v="Äußerer Laufer Platz"/>
    <tag k="amenity" v="cafe"/>
    <tag k="cuisine" v="ice_cream"/>
    <tag k="name" v="Mischbar &amp; Kalahua"/>
    <tag k="phone" v="+49-911-5808958"/>
    <tag k="smoking" v="no"/>
    <tag k="website" v="http://www.kalahua.com/"/>
  </node>
  <node id="734021860" version="4" timestamp="2011-11-05T09:37:04Z" uid="346758" user="kukuk" changeset="9744754" lat="49.4575092" lon="11.0869026">
    <tag k="addr:city" v="Nürnberg"/>
    <tag k="addr:country" v="DE"/>
    <tag k="addr:housenumber" v="15"/>
    <tag k="addr:postcode" v="90403"/>
    <tag k="addr:street" v="Äußerer Laufer Platz"/>
    <tag k="amenity" v="cafe"/>
    <tag k="cuisine" v="ice_cream"/>
    <tag k="name" v="Mischbar &amp; Kalahua"/>
    <tag k="phone" v="+49-911-5808958"/>
    <tag k="smoking" v="no"/>
    <tag k="website" v="http://www.kalahua.com/"/>
  </node>
  <node id="734021860" version="5" timestamp="2011-12-02T22:12:18Z" uid="71557" user="Taroc" changeset="10020533" lat="49.4575092" lon="11.0869026"/>
  <node id="734021864" version="2" timestamp="2010-06-25T15:12:54Z" uid="49111" user="Markus B" changeset="5074562" lat="49.4566647" lon="11.0847748">
    <tag k="name" v="Der Beck"/>
    <tag k="shop" v="bakery"/>
    <tag k="smoking" v="no"/>
    <tag k="smoking:outside" v="yes"/>
  </node>
  <node id="734021864" version="3" timestamp="2011-12-02T22:12:14Z" uid="71557" user="Taroc" changeset="10020533" lat="49.4566647" lon="11.0847748"/>
</osm>
