<?xml version='1.0' encoding='UTF-8'?>
<osm version="0.6" generator="libosmium/2.20.0">
  <node id="735530702" version="2" timestamp="2010-08-31T14:14:58Z" uid="49111" user="Markus B" changeset="5645869" lat="49.5086008" lon="11.4153014">
    <tag k="bus" v="yes"/>
    <tag k="name" v="Nürnberger Straße"/>
    <tag k="public_transport" v="stop_position"/>
  </node>
  <node id="735530702" version="3" timestamp="2011-09-19T14:25:10Z" uid="479256" user="geodreieck4711" changeset="9343120" lat="49.5086008" lon="11.4153014">
    <tag k="bus" v="yes"/>
    <tag k="highway" v="bus_stop"/>
    <tag k="name" v="Nürnberger Straße"/>
    <tag k="public_transport" v="stop_position"/>
  </node>
  <node id="735530702" version="4" timestamp="2011-10-15T17:48:05Z" uid="290680" user="wheelmap_visitor" changeset="9560388" lat="49.5086008" lon="11.4153014">
    <tag k="bus" v="yes"/>
    <tag k="highway" v="bus_stop"/>
    <tag k="name" v="Nürnberger Straße"/>
    <tag k="public_transport" v="stop_position"/>
    <tag k="wheelchair" v="no"/>
  </node>
</osm>
