<?xml version='1.0' encoding='UTF-8'?>
<osm version="0.6" generator="libosmium/2.20.0">
  <node id="735931344" version="1" timestamp="2010-05-15T22:51:25Z" uid="74617" user="JohnSmith" changeset="4711043" lat="-33.4295514" lon="151.3354343"/>
  <node id="735931345" version="1" timestamp="2010-05-15T22:51:25Z" uid="74617" user="JohnSmith" changeset="4711043" lat="-33.4296152" lon="151.3355626"/>
  <node id="735931347" version="1" timestamp="2010-05-15T22:51:25Z" uid="74617" user="JohnSmith" changeset="4711043" lat="-33.4295984" lon="151.3355258"/>
  <node id="735931349" version="1" timestamp="2010-05-15T22:51:26Z" uid="74617" user="JohnSmith" changeset="4711043" lat="-33.4295342" lon="151.3353971"/>
  <node id="735931350" version="1" timestamp="2010-05-15T22:51:26Z" uid="74617" user="JohnSmith" changeset="4711043" lat="-33.4295786" lon="151.335486"/>
  <node id="735931415" version="1" timestamp="2010-05-15T22:51:29Z" uid="256927" user="Timo Müller" changeset="4711386" lat="49.3453053" lon="8.6744634"/>
  <node id="735931418" version="1" timestamp="2010-05-15T22:51:29Z" uid="256927" user="Timo Müller" changeset="4711386" lat="49.3455318" lon="8.6745726"/>
  <node id="735931420" version="1" timestamp="2010-05-15T22:51:29Z" uid="256927" user="Timo Müller" changeset="4711386" lat="49.3476161" lon="8.6719042">
    <tag k="addr:city" v="Leimen"/>
    <tag k="addr:country" v="DE"/>
    <tag k="addr:housenumber" v="70"/>
    <tag k="addr:postcode" v="69181"/>
    <tag k="addr:street" v="Kurfürstenallee"/>
  </node>
  <node id="735931477" version="1" timestamp="2010-05-15T22:51:34Z" uid="256927" user="Timo Müller" changeset="4711386" lat="49.3474949" lon="8.671866">
    <tag k="addr:city" v="Leimen"/>
    <tag k="addr:country" v="DE"/>
    <tag k="addr:housenumber" v="1"/>
    <tag k="addr:postcode" v="69181"/>
    <tag k="addr:street" v="Wittelsbacherallee"/>
  </node>
  <node id="735931478" version="1" timestamp="2010-05-15T22:51:34Z" uid="256927" user="Timo Müller" changeset="4711386" lat="49.347259" lon="8.6727804">
    <tag k="addr:city" v="Leimen"/>
    <tag k="addr:country" v="DE"/>
    <tag k="addr:housenumber" v="33"/>
    <tag k="addr:postcode" v="69181"/>
    <tag k="addr:street" v="Kurfürstenallee"/>
  </node>
  <node id="735931479" version="1" timestamp="2010-05-15T22:51:34Z" uid="256927" user="Timo Müller" changeset="4711386" lat="49.3437797" lon="8.6739523">
    <tag k="addr:city" v="Leimen"/>
    <tag k="addr:country" v="DE"/>
    <tag k="addr:housenumber" v="14"/>
    <tag k="addr:postcode" v="69181"/>
    <tag k="addr:street" v="Centgrafenweg"/>
  </node>
  <node id="735931480" version="1" timestamp="2010-05-15T22:51:34Z" uid="256927" user="Timo Müller" changeset="4711386" lat="49.3468121" lon="8.6716675">
    <tag k="addr:city" v="Leimen"/>
    <tag k="addr:country" v="DE"/>
    <tag k="addr:housenumber" v="13"/>
    <tag k="addr:postcode" v="69181"/>
    <tag k="addr:street" v="Wittelsbacherallee"/>
  </node>
  <node id="735931481" version="1" timestamp="2010-05-15T22:51:34Z" uid="256927" user="Timo Müller" changeset="4711386" lat="49.3471319" lon="8.6734388"/>
  <node id="735931482" version="1" timestamp="2010-05-15T22:51:34Z" uid="256927" user="Timo Müller" changeset="4711386" lat="49.3439665" lon="8.6739871">
    <tag k="addr:city" v="Leimen"/>
    <tag k="addr:country" v="DE"/>
    <tag k="addr:housenumber" v="8"/>
    <tag k="addr:postcode" v="69181"/>
    <tag k="addr:street" v="Centgrafenweg"/>
  </node>
  <node id="735931483" version="1" timestamp="2010-05-15T22:51:34Z" uid="256927" user="Timo Müller" changeset="4711386" lat="49.3460074" lon="8.6742894"/>
  <node id="735931484" version="1" timestamp="2010-05-15T22:51:34Z" uid="256927" user="Timo Müller" changeset="4711386" lat="49.3474262" lon="8.6716946">
    <tag k="addr:city" v="Leimen"/>
    <tag k="addr:country" v="DE"/>
    <tag k="addr:housenumber" v="2"/>
    <tag k="addr:postcode" v="69181"/>
    <tag k="addr:street" v="Wittelsbacherallee"/>
  </node>
  <node id="735931485" version="1" timestamp="2010-05-15T22:51:34Z" uid="256927" user="Timo Müller" changeset="4711386" lat="49.3439011" lon="8.6738659">
    <tag k="addr:city" v="Leimen"/>
    <tag k="addr:country" v="DE"/>
    <tag k="addr:housenumber" v="10"/>
    <tag k="addr:postcode" v="69181"/>
    <tag k="addr:street" v="Centgrafenweg"/>
  </node>
  <node id="735931486" version="1" timestamp="2010-05-15T22:51:35Z" uid="256927" user="Timo Müller" changeset="4711386" lat="49.3460243" lon="8.6744449"/>
  <node id="735931487" version="1" timestamp="2010-05-15T22:51:35Z" uid="256927" user="Timo Müller" changeset="4711386" lat="49.3454102" lon="8.6739132">
    <tag k="addr:city" v="Leimen"/>
    <tag k="addr:country" v="DE"/>
    <tag k="addr:housenumber" v="3a"/>
    <tag k="addr:postcode" v="69181"/>
    <tag k="addr:street" v="Kurfürstenallee"/>
  </node>
  <node id="735931488" version="1" timestamp="2010-05-15T22:51:35Z" uid="256927" user="Timo Müller" changeset="4711386" lat="49.346549" lon="8.6739973">
    <tag k="addr:city" v="Leimen"/>
    <tag k="addr:country" v="DE"/>
    <tag k="addr:housenumber" v="19"/>
    <tag k="addr:postcode" v="69181"/>
    <tag k="addr:street" v="Kurfürstenallee"/>
  </node>
  <node id="735931489" version="1" timestamp="2010-05-15T22:51:35Z" uid="256927" user="Timo Müller" changeset="4711386" lat="49.3465018" lon="8.6731227">
    <tag k="addr:city" v="Leimen"/>
    <tag k="addr:country" v="DE"/>
    <tag k="addr:housenumber" v="23d"/>
    <tag k="addr:postcode" v="69181"/>
    <tag k="addr:street" v="Kurfürstenallee"/>
  </node>
  <node id="735931490" version="1" timestamp="2010-05-15T22:51:35Z" uid="256927" user="Timo Müller" changeset="4711386" lat="49.3446001" lon="8.6743938">
    <tag k="addr:city" v="Leimen"/>
    <tag k="addr:country" v="DE"/>
    <tag k="addr:housenumber" v="7"/>
    <tag k="addr:postcode" v="69181"/>
    <tag k="addr:street" v="Hohenstauferallee"/>
  </node>
  <node id="735931491" version="1" timestamp="2010-05-15T22:51:35Z" uid="256927" user="Timo Müller" changeset="4711386" lat="49.3440353" lon="8.6741311">
    <tag k="addr:city" v="Leimen"/>
    <tag k="addr:country" v="DE"/>
    <tag k="addr:housenumber" v="3"/>
    <tag k="addr:postcode" v="69181"/>
    <tag k="addr:street" v="Centgrafenweg"/>
  </node>
  <node id="735931492" version="1" timestamp="2010-05-15T22:51:35Z" uid="256927" user="Timo Müller" changeset="4711386" lat="49.3451604" lon="8.6811421"/>
  <node id="735931493" version="1" timestamp="2010-05-15T22:51:35Z" uid="256927" user="Timo Müller" changeset="4711386" lat="49.3470698" lon="8.6732239"/>
  <node id="735931494" version="1" timestamp="2010-05-15T22:51:35Z" uid="256927" user="Timo Müller" changeset="4711386" lat="49.3466541" lon="8.6741179">
    <tag k="addr:city" v="Leimen"/>
    <tag k="addr:country" v="DE"/>
    <tag k="addr:housenumber" v="40"/>
    <tag k="addr:postcode" v="69181"/>
    <tag k="addr:street" v="Kurfürstenallee"/>
  </node>
  <node id="735931495" version="1" timestamp="2010-05-15T22:51:35Z" uid="256927" user="Timo Müller" changeset="4711386" lat="49.3463958" lon="8.6742913"/>
  <node id="735931496" version="1" timestamp="2010-05-15T22:51:35Z" uid="256927" user="Timo Müller" changeset="4711386" lat="49.3438084" lon="8.6738453"/>
  <node id="735931497" version="1" timestamp="2010-05-15T22:51:35Z" uid="256927" user="Timo Müller" changeset="4711386" lat="49.3468523" lon="8.6738615">
    <tag k="addr:city" v="Leimen"/>
    <tag k="addr:country" v="DE"/>
    <tag k="addr:housenumber" v="46"/>
    <tag k="addr:postcode" v="69181"/>
    <tag k="addr:street" v="Kurfürstenallee"/>
  </node>
  <node id="735931498" version="1" timestamp="2010-05-15T22:51:35Z" uid="256927" user="Timo Müller" changeset="4711386" lat="49.3445266" lon="8.6749677"/>
  <node id="735931498" version="2" timestamp="2011-05-03T13:35:33Z" uid="445564" user="kokanee" changeset="8039682" lat="49.3445266" lon="8.6749677"/>
  <node id="735931498" version="3" timestamp="2011-05-04T11:42:31Z" uid="67601" user="jens123" changeset="8048140" lat="49.3445266" lon="8.6749677"/>
  <node id="735931499" version="1" timestamp="2010-05-15T22:51:35Z" uid="256927" user="Timo Müller" changeset="4711386" lat="49.3452152" lon="8.6744508"/>
  <node id="735931500" version="1" timestamp="2010-05-15T22:51:35Z" uid="256927" user="Timo Müller" changeset="4711386" lat="49.3468343" lon="8.6736249">
    <tag k="addr:city" v="46"/>
    <tag k="addr:country" v="DE"/>
    <tag k="addr:housenumber" v="25"/>
    <tag k="addr:postcode" v="69181"/>
    <tag k="addr:street" v="Kurfürstenallee"/>
  </node>
  <node id="735931500" version="2" timestamp="2010-05-30T01:04:56Z" uid="256927" user="Timo Müller" changeset="4847779" lat="49.3468343" lon="8.6736249">
    <tag k="addr:city" v="Leimen"/>
    <tag k="addr:country" v="DE"/>
    <tag k="addr:housenumber" v="25"/>
    <tag k="addr:postcode" v="69181"/>
    <tag k="addr:street" v="Kurfürstenallee"/>
  </node>
  <node id="735931501" version="1" timestamp="2010-05-15T22:51:35Z" uid="256927" user="Timo Müller" changeset="4711386" lat="49.3466567" lon="8.6713641">
    <tag k="addr:city" v="Leimen"/>
    <tag k="addr:country" v="DE"/>
    <tag k="addr:housenumber" v="15"/>
    <tag k="addr:postcode" v="69181"/>
    <tag k="addr:street" v="Wittelsbacherallee"/>
  </node>
  <node id="735931502" version="1" timestamp="2010-05-15T22:51:36Z" uid="256927" user="Timo Müller" changeset="4711386" lat="49.3451147" lon="8.6743452">
    <tag k="addr:city" v="Leimen"/>
    <tag k="addr:country" v="DE"/>
    <tag k="addr:housenumber" v="1a"/>
    <tag k="addr:postcode" v="69181"/>
    <tag k="addr:street" v="Kurfürstenallee"/>
  </node>
  <node id="735931503" version="1" timestamp="2010-05-15T22:51:36Z" uid="256927" user="Timo Müller" changeset="4711386" lat="49.3473907" lon="8.6728355">
    <tag k="addr:city" v="Leimen"/>
    <tag k="addr:country" v="DE"/>
    <tag k="addr:housenumber" v="60"/>
    <tag k="addr:postcode" v="69181"/>
    <tag k="addr:street" v="Kurfürstenallee"/>
  </node>
  <node id="735931504" version="1" timestamp="2010-05-15T22:51:36Z" uid="256927" user="Timo Müller" changeset="4711386" lat="49.3447801" lon="8.674458">
    <tag k="addr:city" v="46"/>
    <tag k="addr:country" v="DE"/>
    <tag k="addr:housenumber" v="2"/>
    <tag k="addr:postcode" v="69181"/>
    <tag k="addr:street" v="Kurfürstenallee"/>
  </node>
  <node id="735931505" version="1" timestamp="2010-05-15T22:51:36Z" uid="256927" user="Timo Müller" changeset="4711386" lat="49.3473303" lon="8.6729973">
    <tag k="addr:city" v="Leimen"/>
    <tag k="addr:country" v="DE"/>
    <tag k="addr:housenumber" v="58"/>
    <tag k="addr:postcode" v="69181"/>
    <tag k="addr:street" v="Kurfürstenallee"/>
  </node>
  <node id="735931506" version="1" timestamp="2010-05-15T22:51:36Z" uid="256927" user="Timo Müller" changeset="4711386" lat="49.3462766" lon="8.6741729"/>
  <node id="735931507" version="1" timestamp="2010-05-15T22:51:36Z" uid="256927" user="Timo Müller" changeset="4711386" lat="49.3449363" lon="8.6815824"/>
  <node id="735931508" version="1" timestamp="2010-05-15T22:51:36Z" uid="256927" user="Timo Müller" changeset="4711386" lat="49.3469745" lon="8.6717353">
    <tag k="addr:city" v="Leimen"/>
    <tag k="addr:country" v="DE"/>
    <tag k="addr:housenumber" v="7"/>
    <tag k="addr:postcode" v="69181"/>
    <tag k="addr:street" v="Wittelsbacherallee"/>
  </node>
  <node id="735931510" version="1" timestamp="2010-05-15T22:51:36Z" uid="256927" user="Timo Müller" changeset="4711386" lat="49.3450525" lon="8.6798154">
    <tag k="addr:city" v="Leimen"/>
    <tag k="addr:country" v="DE"/>
    <tag k="addr:housenumber" v="2"/>
    <tag k="addr:postcode" v="69181"/>
    <tag k="addr:street" v="Ernst-Naujoks-Straße"/>
    <tag k="name" v="Hotel Engelhorn"/>
    <tag k="tourism" v="hotel"/>
  </node>
  <node id="735931510" version="2" timestamp="2011-09-08T17:55:44Z" uid="290680" user="wheelmap_visitor" changeset="9246796" lat="49.3450525" lon="8.6798154">
    <tag k="addr:city" v="Leimen"/>
    <tag k="addr:country" v="DE"/>
    <tag k="addr:housenumber" v="2"/>
    <tag k="addr:postcode" v="69181"/>
    <tag k="addr:street" v="Ernst-Naujoks-Straße"/>
    <tag k="name" v="Hotel Engelhorn"/>
    <tag k="tourism" v="hotel"/>
    <tag k="wheelchair" v="no"/>
  </node>
  <node id="735931513" version="1" timestamp="2010-05-15T22:51:36Z" uid="256927" user="Timo Müller" changeset="4711386" lat="49.344581" lon="8.681216">
    <tag k="OD" v="E"/>
    <tag k="highway" v="milestone"/>
    <tag k="marker" v="sign"/>
    <tag k="pk" v="0.371km"/>
    <tag k="prev_network_node" v="6618045"/>
  </node>
  <node id="735931516" version="1" timestamp="2010-05-15T22:51:36Z" uid="256927" user="Timo Müller" changeset="4711386" lat="49.3444495" lon="8.6753374">
    <tag k="amenity" v="bench"/>
    <tag k="backrest" v="yes"/>
  </node>
  <node id="735931518" version="1" timestamp="2010-05-15T22:51:36Z" uid="256927" user="Timo Müller" changeset="4711386" lat="49.3455068" lon="8.6744022">
    <tag k="addr:city" v="Leimen"/>
    <tag k="addr:country" v="DE"/>
    <tag k="addr:housenumber" v="7"/>
    <tag k="addr:postcode" v="69181"/>
    <tag k="addr:street" v="Kurfürstenallee"/>
  </node>
  <node id="735931520" version="1" timestamp="2010-05-15T22:51:36Z" uid="256927" user="Timo Müller" changeset="4711386" lat="49.3467834" lon="8.6737226">
    <tag k="addr:city" v="Leimen"/>
    <tag k="addr:country" v="DE"/>
    <tag k="addr:housenumber" v="23a"/>
    <tag k="addr:postcode" v="69181"/>
    <tag k="addr:street" v="Kurfürstenallee"/>
  </node>
  <node id="735931522" version="1" timestamp="2010-05-15T22:51:36Z" uid="256927" user="Timo Müller" changeset="4711386" lat="49.344491" lon="8.6748158">
    <tag k="addr:city" v="Leimen"/>
    <tag k="addr:country" v="DE"/>
    <tag k="addr:housenumber" v="1"/>
    <tag k="addr:postcode" v="69181"/>
    <tag k="addr:street" v="Hohenstauferallee"/>
  </node>
  <node id="735931524" version="1" timestamp="2010-05-15T22:51:36Z" uid="256927" user="Timo Müller" changeset="4711386" lat="49.345404" lon="8.6743232">
    <tag k="addr:city" v="Leimen"/>
    <tag k="addr:country" v="DE"/>
    <tag k="addr:housenumber" v="3"/>
    <tag k="addr:postcode" v="69181"/>
    <tag k="addr:street" v="Kurfürstenallee"/>
  </node>
  <node id="735931532" version="1" timestamp="2010-05-15T22:51:37Z" uid="256927" user="Timo Müller" changeset="4711386" lat="49.3437116" lon="8.6740018">
    <tag k="addr:city" v="Leimen"/>
    <tag k="addr:country" v="DE"/>
    <tag k="addr:housenumber" v="16a"/>
    <tag k="addr:postcode" v="69181"/>
    <tag k="addr:street" v="Centgrafenweg"/>
  </node>
  <node id="735931533" version="1" timestamp="2010-05-15T22:51:37Z" uid="256927" user="Timo Müller" changeset="4711386" lat="49.3450278" lon="8.6814829"/>
  <node id="735931534" version="1" timestamp="2010-05-15T22:51:37Z" uid="256927" user="Timo Müller" changeset="4711386" lat="49.3452571" lon="8.6745486">
    <tag k="addr:city" v="Leimen"/>
    <tag k="addr:country" v="DE"/>
    <tag k="addr:housenumber" v="12"/>
    <tag k="addr:postcode" v="69181"/>
    <tag k="addr:street" v="Kurfürstenallee"/>
  </node>
  <node id="735931535" version="1" timestamp="2010-05-15T22:51:37Z" uid="256927" user="Timo Müller" changeset="4711386" lat="49.3470933" lon="8.6716255">
    <tag k="addr:city" v="Leimen"/>
    <tag k="addr:country" v="DE"/>
    <tag k="addr:housenumber" v="4"/>
    <tag k="addr:postcode" v="69181"/>
    <tag k="addr:street" v="Wittelsbacherallee"/>
  </node>
  <node id="735931536" version="1" timestamp="2010-05-15T22:51:37Z" uid="256927" user="Timo Müller" changeset="4711386" lat="49.344199" lon="8.6739642">
    <tag k="addr:city" v="Leimen"/>
    <tag k="addr:country" v="DE"/>
    <tag k="addr:housenumber" v="1"/>
    <tag k="addr:postcode" v="69181"/>
    <tag k="addr:street" v="Centgrafenweg"/>
  </node>
  <node id="735931537" version="1" timestamp="2010-05-15T22:51:37Z" uid="256927" user="Timo Müller" changeset="4711386" lat="49.3448568" lon="8.6742809">
    <tag k="addr:city" v="Leimen"/>
    <tag k="addr:country" v="DE"/>
    <tag k="addr:housenumber" v="1"/>
    <tag k="addr:postcode" v="69181"/>
    <tag k="addr:street" v="Kurfürstenallee"/>
  </node>
  <node id="735931539" version="1" timestamp="2010-05-15T22:51:38Z" uid="256927" user="Timo Müller" changeset="4711386" lat="49.347397" lon="8.6722944">
    <tag k="addr:city" v="Leimen"/>
    <tag k="addr:country" v="DE"/>
    <tag k="addr:housenumber" v="37"/>
    <tag k="addr:postcode" v="69181"/>
    <tag k="addr:street" v="Kurfürstenallee"/>
  </node>
  <node id="735931542" version="1" timestamp="2010-05-15T22:51:38Z" uid="256927" user="Timo Müller" changeset="4711386" lat="49.3468417" lon="8.6717365">
    <tag k="addr:city" v="Leimen"/>
    <tag k="addr:country" v="DE"/>
    <tag k="addr:housenumber" v="31"/>
    <tag k="addr:postcode" v="69181"/>
    <tag k="addr:street" v="Zähringerstraße"/>
  </node>
  <node id="735931544" version="1" timestamp="2010-05-15T22:51:38Z" uid="256927" user="Timo Müller" changeset="4711386" lat="49.3448489" lon="8.6814826">
    <tag k="highway" v="milestone"/>
    <tag k="marker" v="sign"/>
    <tag k="next_network_node" v="6618015"/>
    <tag k="pk" v="0.414km"/>
    <tag k="prev_network_node" v="6618045"/>
    <tag k="ref" v="K 4155"/>
  </node>
  <node id="735931544" version="2" timestamp="2010-05-16T00:27:27Z" uid="256927" user="Timo Müller" changeset="4711734" lat="49.3448489" lon="8.6814826">
    <tag k="damaged" v="yes"/>
    <tag k="highway" v="milestone"/>
    <tag k="marker" v="sign"/>
    <tag k="next_network_node" v="6618015"/>
    <tag k="pk" v="0.414km"/>
    <tag k="prev_network_node" v="6618045"/>
    <tag k="ref" v="K 4155"/>
  </node>
  <node id="735931546" version="1" timestamp="2010-05-15T22:51:38Z" uid="256927" user="Timo Müller" changeset="4711386" lat="49.3475314" lon="8.6723667"/>
  <node id="735931548" version="1" timestamp="2010-05-15T22:51:38Z" uid="256927" user="Timo Müller" changeset="4711386" lat="49.3438487" lon="8.6740886">
    <tag k="addr:city" v="Leimen"/>
    <tag k="addr:country" v="DE"/>
    <tag k="addr:housenumber" v="12"/>
    <tag k="addr:postcode" v="69181"/>
    <tag k="addr:street" v="Centgrafenweg"/>
  </node>
  <node id="735931550" version="1" timestamp="2010-05-15T22:51:39Z" uid="256927" user="Timo Müller" changeset="4711386" lat="49.3448237" lon="8.6788605">
    <tag k="addr:city" v="Leimen"/>
    <tag k="addr:country" v="DE"/>
    <tag k="addr:housenumber" v="1"/>
    <tag k="addr:postcode" v="69181"/>
    <tag k="addr:street" v="Gottlieb-Daimler-Straße"/>
    <tag k="brand" v="Mercedes-Benz;Volkswagen"/>
    <tag k="service" v="dealer;repair"/>
    <tag k="shop" v="car"/>
  </node>
  <node id="735933079" version="1" timestamp="2010-05-15T22:53:03Z" uid="38528" user="acrosscanadatrails" changeset="4711392" lat="42.0516565" lon="19.4897554"/>
  <node id="735933079" version="2" timestamp="2012-02-01T06:18:23Z" uid="147510" user="woodpeck_fixbot" changeset="10556113" lat="42.0516565" lon="19.4897554"/>
  <node id="735933081" version="1" timestamp="2010-05-15T22:53:03Z" uid="38528" user="acrosscanadatrails" changeset="4711392" lat="42.0517431" lon="19.4894562"/>
  <node id="735933081" version="2" timestamp="2012-02-01T06:18:23Z" uid="147510" user="woodpeck_fixbot" changeset="10556113" lat="42.0517431" lon="19.4894562"/>
  <node id="735933083" version="1" timestamp="2010-05-15T22:53:03Z" uid="38528" user="acrosscanadatrails" changeset="4711392" lat="42.0517308" lon="19.4897333"/>
  <node id="735933083" version="2" timestamp="2012-02-01T06:18:23Z" uid="147510" user="woodpeck_fixbot" changeset="10556113" lat="42.0517308" lon="19.4897333"/>
  <node id="735933084" version="1" timestamp="2010-05-15T22:53:03Z" uid="38528" user="acrosscanadatrails" changeset="4711392" lat="42.0516596" lon="19.4898416"/>
  <node id="735933084" version="2" timestamp="2012-02-01T06:18:23Z" uid="147510" user="woodpeck_fixbot" changeset="10556113" lat="42.0516596" lon="19.4898416"/>
  <node id="735933086" version="1" timestamp="2010-05-15T22:53:03Z" uid="38528" user="acrosscanadatrails" changeset="4711392" lat="42.0515958" lon="19.4888903"/>
  <node id="735933087" version="1" timestamp="2010-05-15T22:53:03Z" uid="38528" user="acrosscanadatrails" changeset="4711392" lat="42.0517027" lon="19.4895127"/>
  <node id="735933087" version="2" timestamp="2012-02-01T06:18:23Z" uid="147510" user="woodpeck_fixbot" changeset="10556113" lat="42.0517027" lon="19.4895127"/>
  <node id="735933089" version="1" timestamp="2010-05-15T22:53:03Z" uid="38528" user="acrosscanadatrails" changeset="4711392" lat="42.0517292" lon="19.4898007"/>
  <node id="735933089" version="2" timestamp="2012-02-01T06:18:23Z" uid="147510" user="woodpeck_fixbot" changeset="10556113" lat="42.0517292" lon="19.4898007"/>
  <node id="735933091" version="1" timestamp="2010-05-15T22:53:03Z" uid="38528" user="acrosscanadatrails" changeset="4711392" lat="42.0517199" lon="19.4894108"/>
  <node id="735933091" version="2" timestamp="2012-02-01T06:18:24Z" uid="147510" user="woodpeck_fixbot" changeset="10556113" lat="42.0517199" lon="19.4894108"/>
  <node id="735933092" version="1" timestamp="2010-05-15T22:53:03Z" uid="38528" user="acrosscanadatrails" changeset="4711392" lat="42.051759" lon="19.4896545"/>
  <node id="735933092" version="2" timestamp="2012-02-01T06:18:24Z" uid="147510" user="woodpeck_fixbot" changeset="10556113" lat="42.051759" lon="19.4896545"/>
  <node id="735933094" version="1" timestamp="2010-05-15T22:53:03Z" uid="38528" user="acrosscanadatrails" changeset="4711392" lat="42.0516967" lon="19.4898382"/>
  <node id="735933094" version="2" timestamp="2012-02-01T06:18:24Z" uid="147510" user="woodpeck_fixbot" changeset="10556113" lat="42.0516967" lon="19.4898382"/>
  <node id="735933095" version="1" timestamp="2010-05-15T22:53:03Z" uid="38528" user="acrosscanadatrails" changeset="4711392" lat="42.0516727" lon="19.4888325"/>
  <node id="735933097" version="1" timestamp="2010-05-15T22:53:03Z" uid="38528" user="acrosscanadatrails" changeset="4711392" lat="42.0516556" lon="19.4897872"/>
  <node id="735933097" version="2" timestamp="2012-02-01T06:18:24Z" uid="147510" user="woodpeck_fixbot" changeset="10556113" lat="42.0516556" lon="19.4897872"/>
  <node id="735933098" version="1" timestamp="2010-05-15T22:53:03Z" uid="38528" user="acrosscanadatrails" changeset="4711392" lat="42.0518148" lon="19.4889923"/>
  <node id="735933098" version="2" timestamp="2012-02-01T06:18:24Z" uid="147510" user="woodpeck_fixbot" changeset="10556113" lat="42.0518148" lon="19.4889923"/>
  <node id="735933100" version="1" timestamp="2010-05-15T22:53:03Z" uid="38528" user="acrosscanadatrails" changeset="4711392" lat="42.0517412" lon="19.4897674"/>
  <node id="735933100" version="2" timestamp="2012-02-01T06:18:24Z" uid="147510" user="woodpeck_fixbot" changeset="10556113" lat="42.0517412" lon="19.4897674"/>
  <node id="735933101" version="1" timestamp="2010-05-15T22:53:03Z" uid="38528" user="acrosscanadatrails" changeset="4711392" lat="42.0518093" lon="19.4893112"/>
  <node id="735933101" version="2" timestamp="2012-02-01T06:18:24Z" uid="147510" user="woodpeck_fixbot" changeset="10556113" lat="42.0518093" lon="19.4893112"/>
  <node id="735933103" version="1" timestamp="2010-05-15T22:53:03Z" uid="38528" user="acrosscanadatrails" changeset="4711392" lat="42.051609" lon="19.4894082"/>
  <node id="735933103" version="2" timestamp="2012-02-01T06:18:24Z" uid="147510" user="woodpeck_fixbot" changeset="10556113" lat="42.051609" lon="19.4894082"/>
  <node id="735933105" version="1" timestamp="2010-05-15T22:53:03Z" uid="38528" user="acrosscanadatrails" changeset="4711392" lat="42.0517305" lon="19.4898788"/>
  <node id="735933105" version="2" timestamp="2012-02-01T06:18:24Z" uid="147510" user="woodpeck_fixbot" changeset="10556113" lat="42.0517305" lon="19.4898788"/>
  <node id="735933106" version="1" timestamp="2010-05-15T22:53:03Z" uid="38528" user="acrosscanadatrails" changeset="4711392" lat="42.0517104" lon="19.4897855"/>
  <node id="735933106" version="2" timestamp="2012-02-01T06:18:24Z" uid="147510" user="woodpeck_fixbot" changeset="10556113" lat="42.0517104" lon="19.4897855"/>
  <node id="735933108" version="1" timestamp="2010-05-15T22:53:03Z" uid="38528" user="acrosscanadatrails" changeset="4711392" lat="42.0515251" lon="19.4888507"/>
  <node id="735933108" version="2" timestamp="2012-02-01T06:18:24Z" uid="147510" user="woodpeck_fixbot" changeset="10556113" lat="42.0515251" lon="19.4888507"/>
  <node id="735933110" version="1" timestamp="2010-05-15T22:53:03Z" uid="38528" user="acrosscanadatrails" changeset="4711392" lat="42.0517212" lon="19.4898485"/>
  <node id="735933110" version="2" timestamp="2012-02-01T06:18:24Z" uid="147510" user="woodpeck_fixbot" changeset="10556113" lat="42.0517212" lon="19.4898485"/>
  <node id="735933111" version="1" timestamp="2010-05-15T22:53:03Z" uid="38528" user="acrosscanadatrails" changeset="4711392" lat="42.0517136" lon="19.4895193"/>
  <node id="735933111" version="2" timestamp="2012-02-01T06:18:25Z" uid="147510" user="woodpeck_fixbot" changeset="10556113" lat="42.0517136" lon="19.4895193"/>
  <node id="735933113" version="1" timestamp="2010-05-15T22:53:04Z" uid="38528" user="acrosscanadatrails" changeset="4711392" lat="42.0517587" lon="19.4894288"/>
  <node id="735933113" version="2" timestamp="2012-02-01T06:18:25Z" uid="147510" user="woodpeck_fixbot" changeset="10556113" lat="42.0517587" lon="19.4894288"/>
  <node id="735933114" version="1" timestamp="2010-05-15T22:53:04Z" uid="38528" user="acrosscanadatrails" changeset="4711392" lat="42.0516898" lon="19.4887969"/>
  <node id="735933116" version="1" timestamp="2010-05-15T22:53:04Z" uid="38528" user="acrosscanadatrails" changeset="4711392" lat="42.0517116" lon="19.4895116"/>
  <node id="735933116" version="2" timestamp="2012-02-01T06:18:25Z" uid="147510" user="woodpeck_fixbot" changeset="10556113" lat="42.0517116" lon="19.4895116"/>
  <node id="735933124" version="1" timestamp="2010-05-15T22:53:04Z" uid="38528" user="acrosscanadatrails" changeset="4711392" lat="42.0517662" lon="19.4898271"/>
  <node id="735933124" version="2" timestamp="2012-02-01T06:18:25Z" uid="147510" user="woodpeck_fixbot" changeset="10556113" lat="42.0517662" lon="19.4898271"/>
  <node id="735933125" version="1" timestamp="2010-05-15T22:53:04Z" uid="38528" user="acrosscanadatrails" changeset="4711392" lat="42.0515476" lon="19.4890322"/>
  <node id="735933125" version="2" timestamp="2012-02-01T06:18:25Z" uid="147510" user="woodpeck_fixbot" changeset="10556113" lat="42.0515476" lon="19.4890322"/>
  <node id="735933127" version="1" timestamp="2010-05-15T22:53:04Z" uid="38528" user="acrosscanadatrails" changeset="4711392" lat="42.0517172" lon="19.4894069"/>
  <node id="735933127" version="2" timestamp="2012-02-01T06:18:25Z" uid="147510" user="woodpeck_fixbot" changeset="10556113" lat="42.0517172" lon="19.4894069"/>
  <node id="735933129" version="1" timestamp="2010-05-15T22:53:04Z" uid="38528" user="acrosscanadatrails" changeset="4711392" lat="42.05172" lon="19.4900076"/>
  <node id="735933129" version="2" timestamp="2012-02-01T06:18:25Z" uid="147510" user="woodpeck_fixbot" changeset="10556113" lat="42.05172" lon="19.4900076"/>
  <node id="735933130" version="1" timestamp="2010-05-15T22:53:04Z" uid="38528" user="acrosscanadatrails" changeset="4711392" lat="42.0514549" lon="19.4890528"/>
  <node id="735933130" version="2" timestamp="2012-02-01T06:18:25Z" uid="147510" user="woodpeck_fixbot" changeset="10556113" lat="42.0514549" lon="19.4890528"/>
  <node id="735933132" version="1" timestamp="2010-05-15T22:53:04Z" uid="38528" user="acrosscanadatrails" changeset="4711392" lat="42.0517396" lon="19.488886"/>
  <node id="735933134" version="1" timestamp="2010-05-15T22:53:04Z" uid="38528" user="acrosscanadatrails" changeset="4711392" lat="42.0516208" lon="19.4897815"/>
  <node id="735933134" version="2" timestamp="2012-02-01T06:18:25Z" uid="147510" user="woodpeck_fixbot" changeset="10556113" lat="42.0516208" lon="19.4897815"/>
  <node id="735933135" version="1" timestamp="2010-05-15T22:53:04Z" uid="38528" user="acrosscanadatrails" changeset="4711392" lat="42.0517459" lon="19.4889714"/>
  <node id="735933135" version="2" timestamp="2012-02-01T06:18:25Z" uid="147510" user="woodpeck_fixbot" changeset="10556113" lat="42.0517459" lon="19.4889714"/>
  <node id="735933137" version="1" timestamp="2010-05-15T22:53:04Z" uid="38528" user="acrosscanadatrails" changeset="4711392" lat="42.0517236" lon="19.4897534"/>
  <node id="735933137" version="2" timestamp="2012-02-01T06:18:25Z" uid="147510" user="woodpeck_fixbot" changeset="10556113" lat="42.0517236" lon="19.4897534"/>
  <node id="735933138" version="1" timestamp="2010-05-15T22:53:04Z" uid="38528" user="acrosscanadatrails" changeset="4711392" lat="42.0516491" lon="19.4894575"/>
  <node id="735933138" version="2" timestamp="2012-02-01T06:18:25Z" uid="147510" user="woodpeck_fixbot" changeset="10556113" lat="42.0516491" lon="19.4894575"/>
  <node id="735933140" version="1" timestamp="2010-05-15T22:53:04Z" uid="38528" user="acrosscanadatrails" changeset="4711392" lat="42.0517334" lon="19.4891017"/>
  <node id="735933140" version="2" timestamp="2012-02-01T06:18:26Z" uid="147510" user="woodpeck_fixbot" changeset="10556113" lat="42.0517334" lon="19.4891017"/>
  <node id="735933141" version="1" timestamp="2010-05-15T22:53:04Z" uid="38528" user="acrosscanadatrails" changeset="4711392" lat="42.0517057" lon="19.4898665"/>
  <node id="735933141" version="2" timestamp="2012-02-01T06:18:26Z" uid="147510" user="woodpeck_fixbot" changeset="10556113" lat="42.0517057" lon="19.4898665"/>
  <node id="735933143" version="1" timestamp="2010-05-15T22:53:04Z" uid="38528" user="acrosscanadatrails" changeset="4711392" lat="42.0517791" lon="19.4895762"/>
  <node id="735933143" version="2" timestamp="2012-02-01T06:18:26Z" uid="147510" user="woodpeck_fixbot" changeset="10556113" lat="42.0517791" lon="19.4895762"/>
  <node id="735933145" version="1" timestamp="2010-05-15T22:53:04Z" uid="38528" user="acrosscanadatrails" changeset="4711392" lat="42.0518074" lon="19.4896853"/>
  <node id="735933145" version="2" timestamp="2012-02-01T06:18:26Z" uid="147510" user="woodpeck_fixbot" changeset="10556113" lat="42.0518074" lon="19.4896853"/>
  <node id="735933146" version="1" timestamp="2010-05-15T22:53:04Z" uid="38528" user="acrosscanadatrails" changeset="4711392" lat="42.0516313" lon="19.4896721"/>
  <node id="735933146" version="2" timestamp="2012-02-01T06:18:26Z" uid="147510" user="woodpeck_fixbot" changeset="10556113" lat="42.0516313" lon="19.4896721"/>
  <node id="735933147" version="1" timestamp="2010-05-15T22:53:04Z" uid="38528" user="acrosscanadatrails" changeset="4711392" lat="42.0516639" lon="19.4888246"/>
  <node id="735933149" version="1" timestamp="2010-05-15T22:53:04Z" uid="38528" user="acrosscanadatrails" changeset="4711392" lat="42.0517368" lon="19.4897093"/>
  <node id="735933149" version="2" timestamp="2012-02-01T06:18:26Z" uid="147510" user="woodpeck_fixbot" changeset="10556113" lat="42.0517368" lon="19.4897093"/>
  <node id="735933150" version="1" timestamp="2010-05-15T22:53:04Z" uid="38528" user="acrosscanadatrails" changeset="4711392" lat="42.0518047" lon="19.4891838"/>
  <node id="735933150" version="2" timestamp="2012-02-01T06:18:26Z" uid="147510" user="woodpeck_fixbot" changeset="10556113" lat="42.0518047" lon="19.4891838"/>
  <node id="735933152" version="1" timestamp="2010-05-15T22:53:04Z" uid="38528" user="acrosscanadatrails" changeset="4711392" lat="42.0517993" lon="19.4890764"/>
  <node id="735933152" version="2" timestamp="2012-02-01T06:18:26Z" uid="147510" user="woodpeck_fixbot" changeset="10556113" lat="42.0517993" lon="19.4890764"/>
  <node id="735933153" version="1" timestamp="2010-05-15T22:53:04Z" uid="38528" user="acrosscanadatrails" changeset="4711392" lat="42.0517851" lon="19.4895125"/>
  <node id="735933153" version="2" timestamp="2012-02-01T06:18:26Z" uid="147510" user="woodpeck_fixbot" changeset="10556113" lat="42.0517851" lon="19.4895125"/>
  <node id="735933155" version="1" timestamp="2010-05-15T22:53:04Z" uid="38528" user="acrosscanadatrails" changeset="4711392" lat="42.051753" lon="19.4900335"/>
  <node id="735933155" version="2" timestamp="2012-02-01T06:18:26Z" uid="147510" user="woodpeck_fixbot" changeset="10556113" lat="42.051753" lon="19.4900335"/>
  <node id="735933156" version="1" timestamp="2010-05-15T22:53:04Z" uid="38528" user="acrosscanadatrails" changeset="4711392" lat="42.0515141" lon="19.4891038"/>
  <node id="735933156" version="2" timestamp="2012-02-01T06:18:27Z" uid="147510" user="woodpeck_fixbot" changeset="10556113" lat="42.0515141" lon="19.4891038"/>
  <node id="735933157" version="1" timestamp="2010-05-15T22:53:04Z" uid="38528" user="acrosscanadatrails" changeset="4711392" lat="42.0515836" lon="19.4889025"/>
  <node id="735933157" version="2" timestamp="2012-02-01T06:18:27Z" uid="147510" user="woodpeck_fixbot" changeset="10556113" lat="42.0515836" lon="19.4889025"/>
  <node id="735933158" version="1" timestamp="2010-05-15T22:53:05Z" uid="38528" user="acrosscanadatrails" changeset="4711392" lat="42.0516179" lon="19.4898395"/>
  <node id="735933158" version="2" timestamp="2012-02-01T06:18:27Z" uid="147510" user="woodpeck_fixbot" changeset="10556113" lat="42.0516179" lon="19.4898395"/>
  <node id="735933160" version="1" timestamp="2010-05-15T22:53:05Z" uid="38528" user="acrosscanadatrails" changeset="4711392" lat="42.0517311" lon="19.4890535"/>
  <node id="735933160" version="2" timestamp="2012-02-01T06:18:27Z" uid="147510" user="woodpeck_fixbot" changeset="10556113" lat="42.0517311" lon="19.4890535"/>
  <node id="735933161" version="1" timestamp="2010-05-15T22:53:05Z" uid="38528" user="acrosscanadatrails" changeset="4711392" lat="42.0517149" lon="19.4897736"/>
  <node id="735933161" version="2" timestamp="2012-02-01T06:18:27Z" uid="147510" user="woodpeck_fixbot" changeset="10556113" lat="42.0517149" lon="19.4897736"/>
  <node id="735933163" version="1" timestamp="2010-05-15T22:53:05Z" uid="38528" user="acrosscanadatrails" changeset="4711392" lat="42.0514901" lon="19.4889182"/>
  <node id="735933163" version="2" timestamp="2012-02-01T06:18:27Z" uid="147510" user="woodpeck_fixbot" changeset="10556113" lat="42.0514901" lon="19.4889182"/>
  <node id="735933164" version="1" timestamp="2010-05-15T22:53:05Z" uid="38528" user="acrosscanadatrails" changeset="4711392" lat="42.0517795" lon="19.4891746"/>
  <node id="735933164" version="2" timestamp="2012-02-01T06:18:27Z" uid="147510" user="woodpeck_fixbot" changeset="10556113" lat="42.0517795" lon="19.4891746"/>
  <node id="735933166" version="1" timestamp="2010-05-15T22:53:05Z" uid="38528" user="acrosscanadatrails" changeset="4711392" lat="42.0516851" lon="19.4891585"/>
  <node id="735933166" version="2" timestamp="2012-02-01T06:18:27Z" uid="147510" user="woodpeck_fixbot" changeset="10556113" lat="42.0516851" lon="19.4891585"/>
  <node id="735933168" version="1" timestamp="2010-05-15T22:53:05Z" uid="38528" user="acrosscanadatrails" changeset="4711392" lat="42.0516944" lon="19.4899128"/>
  <node id="735933168" version="2" timestamp="2012-02-01T06:18:27Z" uid="147510" user="woodpeck_fixbot" changeset="10556113" lat="42.0516944" lon="19.4899128"/>
  <node id="735933169" version="1" timestamp="2010-05-15T22:53:05Z" uid="38528" user="acrosscanadatrails" changeset="4711392" lat="42.0516578" lon="19.4888352"/>
  <node id="735933171" version="1" timestamp="2010-05-15T22:53:05Z" uid="38528" user="acrosscanadatrails" changeset="4711392" lat="42.0517853" lon="19.48978"/>
  <node id="735933171" version="2" timestamp="2012-02-01T06:18:27Z" uid="147510" user="woodpeck_fixbot" changeset="10556113" lat="42.0517853" lon="19.48978"/>
  <node id="735933172" version="1" timestamp="2010-05-15T22:53:05Z" uid="38528" user="acrosscanadatrails" changeset="4711392" lat="42.051707" lon="19.4894232"/>
  <node id="735933172" version="2" timestamp="2012-02-01T06:18:27Z" uid="147510" user="woodpeck_fixbot" changeset="10556113" lat="42.051707" lon="19.4894232"/>
  <node id="735933174" version="1" timestamp="2010-05-15T22:53:05Z" uid="38528" user="acrosscanadatrails" changeset="4711392" lat="42.0517878" lon="19.4897426"/>
  <node id="735933174" version="2" timestamp="2012-02-01T06:18:27Z" uid="147510" user="woodpeck_fixbot" changeset="10556113" lat="42.0517878" lon="19.4897426"/>
  <node id="735933175" version="1" timestamp="2010-05-15T22:53:05Z" uid="38528" user="acrosscanadatrails" changeset="4711392" lat="42.0516538" lon="19.4897585"/>
  <node id="735933175" version="2" timestamp="2012-02-01T06:18:27Z" uid="147510" user="woodpeck_fixbot" changeset="10556113" lat="42.0516538" lon="19.4897585"/>
  <node id="735933177" version="1" timestamp="2010-05-15T22:53:05Z" uid="38528" user="acrosscanadatrails" changeset="4711392" lat="42.0517737" lon="19.4894811"/>
  <node id="735933177" version="2" timestamp="2012-02-01T06:18:27Z" uid="147510" user="woodpeck_fixbot" changeset="10556113" lat="42.0517737" lon="19.4894811"/>
  <node id="735933178" version="1" timestamp="2010-05-15T22:53:05Z" uid="38528" user="acrosscanadatrails" changeset="4711392" lat="42.0517915" lon="19.4899154"/>
  <node id="735933178" version="2" timestamp="2012-02-01T06:18:27Z" uid="147510" user="woodpeck_fixbot" changeset="10556113" lat="42.0517915" lon="19.4899154"/>
  <node id="735933180" version="1" timestamp="2010-05-15T22:53:05Z" uid="38528" user="acrosscanadatrails" changeset="4711392" lat="42.0517377" lon="19.4898647"/>
  <node id="735933180" version="2" timestamp="2012-02-01T06:18:28Z" uid="147510" user="woodpeck_fixbot" changeset="10556113" lat="42.0517377" lon="19.4898647"/>
  <node id="735933181" version="1" timestamp="2010-05-15T22:53:05Z" uid="38528" user="acrosscanadatrails" changeset="4711392" lat="42.0516569" lon="19.4898445"/>
  <node id="735933181" version="2" timestamp="2012-02-01T06:18:28Z" uid="147510" user="woodpeck_fixbot" changeset="10556113" lat="42.0516569" lon="19.4898445"/>
  <node id="735933182" version="1" timestamp="2010-05-15T22:53:05Z" uid="38528" user="acrosscanadatrails" changeset="4711392" lat="42.0516524" lon="19.4894556"/>
  <node id="735933182" version="2" timestamp="2012-02-01T06:18:28Z" uid="147510" user="woodpeck_fixbot" changeset="10556113" lat="42.0516524" lon="19.4894556"/>
  <node id="735933183" version="1" timestamp="2010-05-15T22:53:05Z" uid="38528" user="acrosscanadatrails" changeset="4711392" lat="42.0517348" lon="19.4897878"/>
  <node id="735933183" version="2" timestamp="2012-02-01T06:18:28Z" uid="147510" user="woodpeck_fixbot" changeset="10556113" lat="42.0517348" lon="19.4897878"/>
  <node id="735933184" version="1" timestamp="2010-05-15T22:53:05Z" uid="38528" user="acrosscanadatrails" changeset="4711392" lat="42.0515456" lon="19.4889703"/>
  <node id="735933184" version="2" timestamp="2012-02-01T06:18:28Z" uid="147510" user="woodpeck_fixbot" changeset="10556113" lat="42.0515456" lon="19.4889703"/>
  <node id="735933185" version="1" timestamp="2010-05-15T22:53:05Z" uid="38528" user="acrosscanadatrails" changeset="4711392" lat="42.0517311" lon="19.4893958"/>
  <node id="735933185" version="2" timestamp="2012-02-01T06:18:28Z" uid="147510" user="woodpeck_fixbot" changeset="10556113" lat="42.0517311" lon="19.4893958"/>
  <node id="735933186" version="1" timestamp="2010-05-15T22:53:05Z" uid="38528" user="acrosscanadatrails" changeset="4711392" lat="42.0517301" lon="19.4892311"/>
  <node id="735933186" version="2" timestamp="2012-02-01T06:18:28Z" uid="147510" user="woodpeck_fixbot" changeset="10556113" lat="42.0517301" lon="19.4892311"/>
  <node id="735933187" version="1" timestamp="2010-05-15T22:53:05Z" uid="38528" user="acrosscanadatrails" changeset="4711392" lat="42.0517429" lon="19.4899392"/>
  <node id="735933187" version="2" timestamp="2012-02-01T06:18:28Z" uid="147510" user="woodpeck_fixbot" changeset="10556113" lat="42.0517429" lon="19.4899392"/>
  <node id="735933188" version="1" timestamp="2010-05-15T22:53:05Z" uid="38528" user="acrosscanadatrails" changeset="4711392" lat="42.0516096" lon="19.4897334"/>
  <node id="735933189" version="1" timestamp="2010-05-15T22:53:05Z" uid="38528" user="acrosscanadatrails" changeset="4711392" lat="42.0514904" lon="19.4889812"/>
  <node id="735933189" version="2" timestamp="2012-02-01T06:18:28Z" uid="147510" user="woodpeck_fixbot" changeset="10556113" lat="42.0514904" lon="19.4889812"/>
  <node id="735933190" version="1" timestamp="2010-05-15T22:53:05Z" uid="38528" user="acrosscanadatrails" changeset="4711392" lat="42.0518539" lon="19.4892507"/>
  <node id="735933190" version="2" timestamp="2012-02-01T06:18:29Z" uid="147510" user="woodpeck_fixbot" changeset="10556113" lat="42.0518539" lon="19.4892507"/>
  <node id="735933191" version="1" timestamp="2010-05-15T22:53:05Z" uid="38528" user="acrosscanadatrails" changeset="4711392" lat="42.0516932" lon="19.4897865"/>
  <node id="735933191" version="2" timestamp="2012-02-01T06:18:29Z" uid="147510" user="woodpeck_fixbot" changeset="10556113" lat="42.0516932" lon="19.4897865"/>
  <node id="735933192" version="1" timestamp="2010-05-15T22:53:05Z" uid="38528" user="acrosscanadatrails" changeset="4711392" lat="42.0518033" lon="19.4895252"/>
  <node id="735933192" version="2" timestamp="2012-02-01T06:18:29Z" uid="147510" user="woodpeck_fixbot" changeset="10556113" lat="42.0518033" lon="19.4895252"/>
  <node id="735933193" version="1" timestamp="2010-05-15T22:53:05Z" uid="38528" user="acrosscanadatrails" changeset="4711392" lat="42.0517481" lon="19.4897537"/>
  <node id="735933193" version="2" timestamp="2012-02-01T06:18:29Z" uid="147510" user="woodpeck_fixbot" changeset="10556113" lat="42.0517481" lon="19.4897537"/>
  <node id="735933194" version="1" timestamp="2010-05-15T22:53:05Z" uid="38528" user="acrosscanadatrails" changeset="4711392" lat="42.0517595" lon="19.4892422"/>
  <node id="735933194" version="2" timestamp="2012-02-01T06:18:29Z" uid="147510" user="woodpeck_fixbot" changeset="10556113" lat="42.0517595" lon="19.4892422"/>
  <node id="735933195" version="1" timestamp="2010-05-15T22:53:05Z" uid="38528" user="acrosscanadatrails" changeset="4711392" lat="42.0516415" lon="19.489352"/>
  <node id="735933195" version="2" timestamp="2012-02-01T06:18:29Z" uid="147510" user="woodpeck_fixbot" changeset="10556113" lat="42.0516415" lon="19.489352"/>
  <node id="735931344" version="2" timestamp="2012-05-02T08:13:55Z" uid="599691" user="CADManager" changeset="11477069" lat="-33.4295514" lon="151.3354343"/>
  <node id="735931345" version="2" timestamp="2012-05-02T08:14:17Z" uid="599691" user="CADManager" changeset="11477069" lat="-33.4296152" lon="151.3355626"/>
  <node id="735931347" version="2" timestamp="2012-05-02T08:14:17Z" uid="599691" user="CADManager" changeset="11477069" lat="-33.4295984" lon="151.3355258"/>
  <node id="735931349" version="2" timestamp="2012-05-02T08:14:12Z" uid="599691" user="CADManager" changeset="11477069" lat="-33.4295342" lon="151.3353971"/>
  <node id="735931350" version="2" timestamp="2012-05-02T08:14:20Z" uid="599691" user="CADManager" changeset="11477069" lat="-33.4295786" lon="151.335486"/>
  <node id="735931415" version="2" timestamp="2012-07-17T06:22:20Z" uid="722137" user="OSMF Redaction Account" changeset="12258421" lat="49.3453053" lon="8.6744634"/>
  <node id="735931418" version="2" timestamp="2012-07-17T06:22:23Z" uid="722137" user="OSMF Redaction Account" changeset="12258421" lat="49.3455318" lon="8.6745726"/>
  <node id="735931420" version="2" timestamp="2012-07-17T06:22:40Z" uid="722137" user="OSMF Redaction Account" changeset="12258426" lat="49.3476161" lon="8.6719042"/>
  <node id="735931477" version="2" timestamp="2012-07-17T06:22:40Z" uid="722137" user="OSMF Redaction Account" changeset="12258426" lat="49.3474949" lon="8.671866"/>
  <node id="735931478" version="2" timestamp="2012-07-17T06:22:38Z" uid="722137" user="OSMF Redaction Account" changeset="12258426" lat="49.347259" lon="8.6727804"/>
  <node id="735931479" version="2" timestamp="2012-07-17T06:22:07Z" uid="722137" user="OSMF Redaction Account" changeset="12258421" lat="49.3437797" lon="8.6739523"/>
  <node id="735931480" version="2" timestamp="2012-07-17T06:22:34Z" uid="722137" user="OSMF Redaction Account" changeset="12258426" lat="49.3468121" lon="8.6716675"/>
  <node id="735931481" version="2" timestamp="2012-07-17T06:22:37Z" uid="722137" user="OSMF Redaction Account" changeset="12258426" lat="49.3471319" lon="8.6734388"/>
  <node id="735931482" version="2" timestamp="2012-07-17T06:22:09Z" uid="722137" user="OSMF Redaction Account" changeset="12258421" lat="49.3439665" lon="8.6739871"/>
  <node id="735931483" version="2" timestamp="2012-07-17T06:22:27Z" uid="722137" user="OSMF Redaction Account" changeset="12258421" lat="49.3460074" lon="8.6742894"/>
  <node id="735931484" version="2" timestamp="2012-07-17T06:22:39Z" uid="722137" user="OSMF Redaction Account" changeset="12258426" lat="49.3474262" lon="8.6716946"/>
  <node id="735931485" version="2" timestamp="2012-07-17T06:22:08Z" uid="722137" user="OSMF Redaction Account" changeset="12258421" lat="49.3439011" lon="8.6738659"/>
  <node id="735931486" version="2" timestamp="2012-07-17T06:22:28Z" uid="722137" user="OSMF Redaction Account" changeset="12258421" lat="49.3460243" lon="8.6744449"/>
  <node id="735931487" version="2" timestamp="2012-07-17T06:22:21Z" uid="722137" user="OSMF Redaction Account" changeset="12258421" lat="49.3454102" lon="8.6739132"/>
  <node id="735931488" version="2" timestamp="2012-07-17T06:22:32Z" uid="722137" user="OSMF Redaction Account" changeset="12258426" lat="49.346549" lon="8.6739973"/>
  <node id="735931489" version="2" timestamp="2012-07-17T06:22:32Z" uid="722137" user="OSMF Redaction Account" changeset="12258426" lat="49.3465018" lon="8.6731227"/>
  <node id="735931490" version="2" timestamp="2012-07-17T06:22:14Z" uid="722137" user="OSMF Redaction Account" changeset="12258421" lat="49.3446001" lon="8.6743938"/>
  <node id="735931491" version="2" timestamp="2012-07-17T06:22:09Z" uid="722137" user="OSMF Redaction Account" changeset="12258421" lat="49.3440353" lon="8.6741311"/>
  <node id="735931492" version="2" timestamp="2012-07-17T06:22:19Z" uid="722137" user="OSMF Redaction Account" changeset="12258421" lat="49.3451604" lon="8.6811421"/>
  <node id="735931493" version="2" timestamp="2012-07-17T06:22:37Z" uid="722137" user="OSMF Redaction Account" changeset="12258426" lat="49.3470698" lon="8.6732239"/>
  <node id="735931494" version="2" timestamp="2012-07-17T06:22:33Z" uid="722137" user="OSMF Redaction Account" changeset="12258426" lat="49.3466541" lon="8.6741179"/>
  <node id="735931495" version="2" timestamp="2012-07-17T06:22:31Z" uid="722137" user="OSMF Redaction Account" changeset="12258426" lat="49.3463958" lon="8.6742913"/>
  <node id="735931496" version="2" timestamp="2012-07-17T06:22:07Z" uid="722137" user="OSMF Redaction Account" changeset="12258421" lat="49.3438084" lon="8.6738453"/>
  <node id="735931497" version="2" timestamp="2012-07-17T06:22:35Z" uid="722137" user="OSMF Redaction Account" changeset="12258426" lat="49.3468523" lon="8.6738615"/>
  <node id="735931498" version="4" timestamp="2012-07-17T06:22:13Z" uid="722137" user="OSMF Redaction Account" changeset="12258421" lat="49.3445266" lon="8.6749677"/>
  <node id="735931499" version="2" timestamp="2012-07-17T06:22:19Z" uid="722137" user="OSMF Redaction Account" changeset="12258421" lat="49.3452152" lon="8.6744508"/>
  <node id="735931500" version="3" timestamp="2012-07-17T06:22:34Z" uid="722137" user="OSMF Redaction Account" changeset="12258426" lat="49.3468343" lon="8.6736249"/>
  <node id="735931501" version="2" timestamp="2012-07-17T06:22:33Z" uid="722137" user="OSMF Redaction Account" changeset="12258426" lat="49.3466567" lon="8.6713641"/>
  <node id="735931502" version="2" timestamp="2012-07-17T06:22:18Z" uid="722137" user="OSMF Redaction Account" changeset="12258421" lat="49.3451147" lon="8.6743452"/>
  <node id="735931503" version="2" timestamp="2012-07-17T06:22:39Z" uid="722137" user="OSMF Redaction Account" changeset="12258426" lat="49.3473907" lon="8.6728355"/>
  <node id="735931504" version="2" timestamp="2012-04-20T09:03:14Z" uid="293774" user="Oli-Wan" changeset="11361721" lat="49.3447801" lon="8.674458">
    <tag k="addr:city" v="Leimen"/>
    <tag k="addr:country" v="DE"/>
    <tag k="addr:housenumber" v="2"/>
    <tag k="addr:postcode" v="69181"/>
    <tag k="addr:street" v="Kurfürstenallee"/>
  </node>
  <node id="735931504" version="3" timestamp="2012-07-17T06:22:15Z" uid="722137" user="OSMF Redaction Account" changeset="12258421" lat="49.3447801" lon="8.674458"/>
  <node id="735931505" version="2" timestamp="2012-07-17T06:22:38Z" uid="722137" user="OSMF Redaction Account" changeset="12258426" lat="49.3473303" lon="8.6729973"/>
  <node id="735931506" version="2" timestamp="2012-07-17T06:22:30Z" uid="722137" user="OSMF Redaction Account" changeset="12258426" lat="49.3462766" lon="8.6741729"/>
  <node id="735931507" version="2" timestamp="2012-07-17T06:22:16Z" uid="722137" user="OSMF Redaction Account" changeset="12258421" lat="49.3449363" lon="8.6815824"/>
  <node id="735931508" version="2" timestamp="2012-07-17T06:22:36Z" uid="722137" user="OSMF Redaction Account" changeset="12258426" lat="49.3469745" lon="8.6717353"/>
  <node id="735931510" version="3" timestamp="2012-07-17T06:22:17Z" uid="722137" user="OSMF Redaction Account" changeset="12258421" lat="49.3450525" lon="8.6798154"/>
  <node id="735931513" version="2" timestamp="2012-07-17T06:22:14Z" uid="722137" user="OSMF Redaction Account" changeset="12258421" lat="49.344581" lon="8.681216"/>
  <node id="735931516" version="2" timestamp="2012-07-17T06:22:12Z" uid="722137" user="OSMF Redaction Account" changeset="12258421" lat="49.3444495" lon="8.6753374"/>
  <node id="735931518" version="2" timestamp="2012-07-17T06:22:22Z" uid="722137" user="OSMF Redaction Account" changeset="12258421" lat="49.3455068" lon="8.6744022"/>
  <node id="735931520" version="2" timestamp="2012-07-17T06:22:34Z" uid="722137" user="OSMF Redaction Account" changeset="12258426" lat="49.3467834" lon="8.6737226"/>
  <node id="735931522" version="2" timestamp="2012-07-17T06:22:13Z" uid="722137" user="OSMF Redaction Account" changeset="12258421" lat="49.344491" lon="8.6748158"/>
  <node id="735931524" version="2" timestamp="2012-07-17T06:22:21Z" uid="722137" user="OSMF Redaction Account" changeset="12258421" lat="49.345404" lon="8.6743232"/>
  <node id="735931532" version="2" timestamp="2012-07-17T06:22:06Z" uid="722137" user="OSMF Redaction Account" changeset="12258421" lat="49.3437116" lon="8.6740018"/>
  <node id="735931533" version="2" timestamp="2012-07-17T06:22:17Z" uid="722137" user="OSMF Redaction Account" changeset="12258421" lat="49.3450278" lon="8.6814829"/>
  <node id="735931534" version="2" timestamp="2012-07-17T06:22:20Z" uid="722137" user="OSMF Redaction Account" changeset="12258421" lat="49.3452571" lon="8.6745486"/>
  <node id="735931535" version="2" timestamp="2012-07-17T06:22:37Z" uid="722137" user="OSMF Redaction Account" changeset="12258426" lat="49.3470933" lon="8.6716255"/>
  <node id="735931536" version="2" timestamp="2012-07-17T06:22:10Z" uid="722137" user="OSMF Redaction Account" changeset="12258421" lat="49.344199" lon="8.6739642"/>
  <node id="735931537" version="2" timestamp="2012-07-17T06:22:16Z" uid="722137" user="OSMF Redaction Account" changeset="12258421" lat="49.3448568" lon="8.6742809"/>
  <node id="735931539" version="2" timestamp="2012-07-17T06:22:39Z" uid="722137" user="OSMF Redaction Account" changeset="12258426" lat="49.347397" lon="8.6722944"/>
  <node id="735931542" version="2" timestamp="2012-07-17T06:22:34Z" uid="722137" user="OSMF Redaction Account" changeset="12258426" lat="49.3468417" lon="8.6717365"/>
  <node id="735931544" version="3" timestamp="2012-07-17T06:22:15Z" uid="722137" user="OSMF Redaction Account" changeset="12258421" lat="49.3448489" lon="8.6814826"/>
  <node id="735931546" version="2" timestamp="2012-07-17T06:22:40Z" uid="722137" user="OSMF Redaction Account" changeset="12258426" lat="49.3475314" lon="8.6723667"/>
  <node id="735931548" version="2" timestamp="2012-07-17T06:22:07Z" uid="722137" user="OSMF Redaction Account" changeset="12258421" lat="49.3438487" lon="8.6740886"/>
  <node id="735931550" version="2" timestamp="2012-07-17T06:22:15Z" uid="722137" user="OSMF Redaction Account" changeset="12258421" lat="49.3448237" lon="8.6788605"/>
  <node id="735933086" version="2" timestamp="2012-07-20T05:14:35Z" uid="722137" user="OSMF Redaction Account" changeset="12361487" lat="42.0515958" lon="19.4888903"/>
  <node id="735933095" version="2" timestamp="2012-07-20T05:14:37Z" uid="722137" user="OSMF Redaction Account" changeset="12361487" lat="42.0516727" lon="19.4888325"/>
  <node id="735933114" version="2" timestamp="2012-07-20T05:14:37Z" uid="722137" user="OSMF Redaction Account" changeset="12361487" lat="42.0516898" lon="19.4887969"/>
  <node id="735933132" version="2" timestamp="2012-07-20T05:14:38Z" uid="722137" user="OSMF Redaction Account" changeset="12361487" lat="42.0517396" lon="19.488886"/>
  <node id="735933147" version="2" timestamp="2012-07-20T05:14:37Z" uid="722137" user="OSMF Redaction Account" changeset="12361487" lat="42.0516639" lon="19.4888246"/>
  <node id="735933169" version="2" timestamp="2012-07-20T05:14:36Z" uid="722137" user="OSMF Redaction Account" changeset="12361487" lat="42.0516578" lon="19.4888352"/>
  <node id="735933188" version="2" timestamp="2012-07-20T05:14:35Z" uid="722137" user="OSMF Redaction Account" changeset="12361487" lat="42.0516096" lon="19.4897334"/>
</osm>
