<?xml version='1.0' encoding='UTF-8'?>
<osm version="0.6" generator="libosmium/2.20.0">
  <node id="73682712" version="5" timestamp="2008-08-15T00:16:27Z" uid="6975" user="ulfl" changeset="264731" lat="48.1141608" lon="11.61504">
    <tag k="amenity" v="place_of_worship"/>
    <tag k="denomination" v="catholic"/>
    <tag k="name" v="Maria Ramersdorf"/>
    <tag k="religion" v="christian"/>
  </node>
  <node id="73682712" version="6" timestamp="2011-03-19T23:16:19Z" uid="423964" user="Gerhardt Hueck" changeset="7611200" lat="48.1141608" lon="11.61504">
    <tag k="amenity" v="place_of_worship"/>
    <tag k="denomination" v="catholic"/>
    <tag k="name" v="St. Maria Ramersdorf (rk)"/>
    <tag k="religion" v="christian"/>
    <tag k="wheelchair" v="unknown"/>
  </node>
  <node id="73682712" version="7" timestamp="2011-03-23T20:41:44Z" uid="8748" user="ToniE" changeset="7650084" lat="48.1141608" lon="11.61504">
    <tag k="amenity" v="place_of_worship"/>
    <tag k="denomination" v="catholic"/>
    <tag k="name" v="St. Maria Ramersdorf"/>
    <tag k="religion" v="christian"/>
    <tag k="wheelchair" v="unknown"/>
  </node>
  <node id="73682712" version="8" timestamp="2011-08-15T16:16:48Z" uid="205377" user="geoMILLImeter" changeset="9028573" lat="48.1141608" lon="11.61504"/>
  <node id="73686639" version="4" timestamp="2008-07-10T22:42:25Z" uid="6975" user="ulfl" changeset="457552" lat="51.2500087" lon="2.9824875">
    <tag k="name" v="Zeewind I"/>
    <tag k="tourism" v="chalet"/>
  </node>
  <node id="73686639" version="5" timestamp="2011-03-20T16:35:06Z" uid="115102" user="errt" changeset="7618520" lat="51.2500087" lon="2.9824875">
    <tag k="name" v="Zeewind I"/>
    <tag k="tourism" v="chalet"/>
  </node>
  <node id="73686647" version="5" timestamp="2008-07-10T22:42:25Z" uid="6975" user="ulfl" changeset="457552" lat="51.2475535" lon="2.9838608">
    <tag k="name" v="Zeewind II"/>
    <tag k="tourism" v="chalet"/>
  </node>
  <node id="73686647" version="6" timestamp="2011-03-20T13:10:56Z" uid="115102" user="errt" changeset="7616299" lat="51.2475535" lon="2.9838608">
    <tag k="name" v="Zeewind II"/>
    <tag k="tourism" v="chalet"/>
  </node>
  <node id="73689741" version="3" timestamp="2010-01-29T17:51:11Z" uid="99207" user="Lar Kiesel" changeset="3745015" lat="32.1726355" lon="-82.6668546"/>
  <node id="73689741" version="4" timestamp="2011-02-18T04:26:16Z" uid="397531" user="Boondoggle" changeset="7319420" lat="32.1726749" lon="-82.6669119"/>
</osm>
