<?xml version='1.0' encoding='UTF-8'?>
<osm version="0.6" generator="libosmium/2.20.0">
  <node id="73690770" version="3" timestamp="2007-12-01T02:09:28Z" uid="6454" user="B10xxx" changeset="22961" lat="52.5037037" lon="13.3425299">
    <tag k="created_by" v="Potlatch 0.5d"/>
    <tag k="name" v="Hotel Air in Berlin"/>
    <tag k="tourism" v="hotel"/>
  </node>
  <node id="73690770" version="4" timestamp="2009-07-19T21:50:11Z" uid="34417" user="TobHaeg" changeset="1879258" lat="52.5037037" lon="13.3425299">
    <tag k="name" v="Hotel Air in Berlin"/>
    <tag k="tourism" v="hotel"/>
  </node>
  <node id="73690770" version="5" timestamp="2010-01-17T18:18:01Z" uid="64877" user="gmhofmann" changeset="3644112" lat="52.5037037" lon="13.3425298">
    <tag k="name" v="Hotel Air in Berlin"/>
    <tag k="tourism" v="hotel"/>
    <tag k="website" v="www.hotelairinberlin.de"/>
  </node>
  <node id="73690770" version="6" timestamp="2010-06-13T13:12:56Z" uid="74224" user="gkai" changeset="4978521" lat="52.5041064" lon="13.3425684">
    <tag k="name" v="Hotel Air in Berlin"/>
    <tag k="tourism" v="hotel"/>
    <tag k="website" v="www.hotelairinberlin.de"/>
  </node>
  <node id="73690770" version="7" timestamp="2011-10-27T15:06:43Z" uid="290680" user="wheelmap_visitor" changeset="9665470" lat="52.5041064" lon="13.3425684">
    <tag k="name" v="Hotel Air in Berlin"/>
    <tag k="tourism" v="hotel"/>
    <tag k="website" v="www.hotelairinberlin.de"/>
    <tag k="wheelchair" v="no"/>
  </node>
  <node id="73690770" version="8" timestamp="2012-02-04T08:53:18Z" uid="64877" user="gmhofmann" changeset="10582032" lat="52.5041064" lon="13.3425683">
    <tag k="addr:city" v="Berlin"/>
    <tag k="addr:country" v="DE"/>
    <tag k="addr:housenumber" v="6"/>
    <tag k="addr:postcode" v="10787"/>
    <tag k="addr:street" v="Ansbacher Straße"/>
    <tag k="name" v="Hotel Air in Berlin"/>
    <tag k="tourism" v="hotel"/>
    <tag k="website" v="www.hotelairinberlin.de"/>
    <tag k="wheelchair" v="no"/>
  </node>
  <node id="73690770" version="9" timestamp="2012-02-04T08:54:06Z" uid="64877" user="gmhofmann" changeset="10582032" lat="52.50411" lon="13.3425143">
    <tag k="addr:city" v="Berlin"/>
    <tag k="addr:country" v="DE"/>
    <tag k="addr:housenumber" v="6"/>
    <tag k="addr:postcode" v="10787"/>
    <tag k="addr:street" v="Ansbacher Straße"/>
    <tag k="name" v="Hotel Air in Berlin"/>
    <tag k="tourism" v="hotel"/>
    <tag k="website" v="www.hotelairinberlin.de"/>
    <tag k="wheelchair" v="no"/>
  </node>
  <node id="73690778" version="4" timestamp="2007-12-01T02:09:16Z" uid="6454" user="B10xxx" changeset="22961" lat="52.5041477" lon="13.3425728">
    <tag k="created_by" v="Potlatch 0.5d"/>
    <tag k="name" v="City Hotel Ansbach"/>
    <tag k="tourism" v="hotel"/>
  </node>
  <node id="73690778" version="5" timestamp="2009-07-19T21:50:10Z" uid="34417" user="TobHaeg" changeset="1879258" lat="52.5041477" lon="13.3425728">
    <tag k="name" v="City Hotel Ansbach"/>
    <tag k="tourism" v="hotel"/>
  </node>
  <node id="73690778" version="6" timestamp="2010-01-17T18:17:46Z" uid="64877" user="gmhofmann" changeset="3644112" lat="52.5041477" lon="13.3425728">
    <tag k="name" v="City Hotel Ansbach"/>
    <tag k="tourism" v="hotel"/>
    <tag k="website" v="www.hotel-ansbach.de"/>
  </node>
  <node id="73690778" version="7" timestamp="2010-06-13T13:12:51Z" uid="74224" user="gkai" changeset="4978521" lat="52.5042542" lon="13.3425728">
    <tag k="name" v="City Hotel Ansbach"/>
    <tag k="tourism" v="hotel"/>
    <tag k="website" v="www.hotel-ansbach.de"/>
  </node>
  <node id="73690778" version="8" timestamp="2012-02-04T08:52:09Z" uid="64877" user="gmhofmann" changeset="10582032" lat="52.5042543" lon="13.3425728">
    <tag k="addr:city" v="Berlin"/>
    <tag k="addr:country" v="DE"/>
    <tag k="addr:housenumber" v="4"/>
    <tag k="addr:postcode" v="10787"/>
    <tag k="addr:street" v="Ansbacher Straße"/>
    <tag k="name" v="City Hotel Ansbach"/>
    <tag k="tourism" v="hotel"/>
    <tag k="website" v="www.hotel-ansbach.de"/>
  </node>
  <node id="73690778" version="9" timestamp="2012-02-04T08:52:29Z" uid="64877" user="gmhofmann" changeset="10582032" lat="52.5042543" lon="13.3425728">
    <tag k="addr:city" v="Berlin"/>
    <tag k="addr:country" v="DE"/>
    <tag k="addr:housenumber" v="4"/>
    <tag k="addr:postcode" v="10787"/>
    <tag k="addr:street" v="Ansbacher Straße"/>
    <tag k="name" v="City Hotel Ansbach"/>
    <tag k="tourism" v="hotel"/>
    <tag k="website" v="www.hotel-ansbach.de"/>
    <tag k="wheelchair" v="no"/>
  </node>
  <node id="73690778" version="10" timestamp="2012-02-04T08:54:04Z" uid="64877" user="gmhofmann" changeset="10582032" lat="52.5042733" lon="13.3425089">
    <tag k="addr:city" v="Berlin"/>
    <tag k="addr:country" v="DE"/>
    <tag k="addr:housenumber" v="4"/>
    <tag k="addr:postcode" v="10787"/>
    <tag k="addr:street" v="Ansbacher Straße"/>
    <tag k="name" v="City Hotel Ansbach"/>
    <tag k="tourism" v="hotel"/>
    <tag k="website" v="www.hotel-ansbach.de"/>
    <tag k="wheelchair" v="no"/>
  </node>
  <node id="73690838" version="2" timestamp="2007-12-04T23:13:06Z" uid="17602" user="B10xyz" changeset="79249" lat="52.508066" lon="13.348641">
    <tag k="amenity" v="embassy"/>
    <tag k="created_by" v="Potlatch 0.5d"/>
    <tag k="name" v="KOR"/>
  </node>
  <node id="73690838" version="3" timestamp="2009-03-27T20:48:57Z" uid="64578" user="Serpens" changeset="863803" lat="52.508066" lon="13.348641">
    <tag k="amenity" v="embassy"/>
    <tag k="country" v="kr"/>
    <tag k="name" v="Botschaft von Südkorea"/>
  </node>
  <node id="73690838" version="4" timestamp="2009-07-08T20:27:44Z" uid="115651" user="Konrad Aust" changeset="1776291" lat="52.5079702" lon="13.3484896">
    <tag k="amenity" v="embassy"/>
    <tag k="country" v="kr"/>
    <tag k="name" v="Botschaft von Südkorea"/>
  </node>
  <node id="73690838" version="5" timestamp="2009-12-10T01:52:52Z" uid="64578" user="Serpens" changeset="3338805" lat="52.5079702" lon="13.3484896">
    <tag k="amenity" v="embassy"/>
    <tag k="country" v="kr"/>
    <tag k="name" v="Botschaft von Südkorea"/>
  </node>
  <node id="73690847" version="2" timestamp="2007-12-01T02:12:07Z" uid="6454" user="B10xxx" changeset="22961" lat="52.5088757" lon="13.3504606">
    <tag k="amenity" v="embassy"/>
    <tag k="created_by" v="Potlatch 0.5d"/>
    <tag k="name" v="Nordische Botschaften (DNK, FIN, ISL, NOR, SWE)"/>
  </node>
  <node id="73690847" version="3" timestamp="2008-08-05T14:47:20Z" uid="10549" user="toaster" changeset="75682" lat="52.5088579" lon="13.3505288">
    <tag k="amenity" v="embassy"/>
    <tag k="created_by" v="Potlatch 0.5d"/>
    <tag k="name" v="Nordische Botschaften (DNK, FIN, ISL, NOR, SWE)"/>
  </node>
  <node id="73690847" version="4" timestamp="2009-03-28T17:35:59Z" uid="64578" user="Serpens" changeset="865909" lat="52.5088579" lon="13.3505288">
    <tag k="amenity" v="embassy"/>
    <tag k="country" v="dk,fi,is,no,se"/>
    <tag k="name" v="Nordische Botschaften (DNK, FIN, ISL, NOR, SWE)"/>
  </node>
  <node id="73690847" version="5" timestamp="2009-07-08T19:57:29Z" uid="115651" user="Konrad Aust" changeset="1775721" lat="52.5088687" lon="13.3505066">
    <tag k="amenity" v="embassy"/>
    <tag k="country" v="dk,fi,is,no,se"/>
    <tag k="name" v="Nordische Botschaften (DNK, FIN, ISL, NOR, SWE)"/>
  </node>
  <node id="73690847" version="6" timestamp="2009-12-10T01:52:52Z" uid="64578" user="Serpens" changeset="3338805" lat="52.5088687" lon="13.3505066">
    <tag k="amenity" v="embassy"/>
    <tag k="country" v="dk,fi,is,no,se"/>
    <tag k="name" v="Nordische Botschaften (DNK, FIN, ISL, NOR, SWE)"/>
  </node>
  <node id="73690854" version="2" timestamp="2007-12-04T23:12:58Z" uid="17602" user="B10xyz" changeset="79249" lat="52.5082488" lon="13.3500744">
    <tag k="amenity" v="embassy"/>
    <tag k="created_by" v="Potlatch 0.5d"/>
    <tag k="name" v="SYR"/>
  </node>
  <node id="73690854" version="3" timestamp="2009-03-27T20:49:02Z" uid="64578" user="Serpens" changeset="863803" lat="52.5082488" lon="13.3500744">
    <tag k="amenity" v="embassy"/>
    <tag k="country" v="sy"/>
    <tag k="name" v="Syrische Botschaft"/>
  </node>
  <node id="73690854" version="4" timestamp="2009-07-08T20:08:41Z" uid="115651" user="Konrad Aust" changeset="1775721" lat="52.5082732" lon="13.3501976">
    <tag k="amenity" v="embassy"/>
    <tag k="country" v="sy"/>
    <tag k="name" v="Syrische Botschaft"/>
  </node>
  <node id="73690854" version="5" timestamp="2009-12-10T01:52:52Z" uid="64578" user="Serpens" changeset="3338805" lat="52.5082732" lon="13.3501976">
    <tag k="amenity" v="embassy"/>
    <tag k="country" v="sy"/>
    <tag k="name" v="Syrische Botschaft"/>
  </node>
  <node id="73690863" version="1" timestamp="2007-10-15T18:25:24Z" uid="13673" user="Pholker" changeset="188603" lat="52.5094758" lon="13.3535936">
    <tag k="amenity" v="embassy"/>
    <tag k="created_by" v="JOSM"/>
    <tag k="name" v="SAU (under construction)"/>
  </node>
  <node id="73690863" version="2" timestamp="2007-10-16T13:28:03Z" uid="6454" user="B10xxx" changeset="209069" lat="52.5094765" lon="13.3535934">
    <tag k="amenity" v="embassy"/>
    <tag k="created_by" v="Potlatch 0.4a"/>
    <tag k="name" v="SAU (under construction)"/>
  </node>
  <node id="73690863" version="3" timestamp="2007-10-22T06:33:57Z" uid="16447" user="Wilmersdorfer" changeset="280210" lat="52.5094771" lon="13.3535906">
    <tag k="amenity" v="embassy"/>
    <tag k="created_by" v="Potlatch 0.4a"/>
    <tag k="name" v="SAU (under construction)"/>
  </node>
  <node id="73690863" version="4" timestamp="2007-12-01T02:12:11Z" uid="6454" user="B10xxx" changeset="22961" lat="52.5094817" lon="13.3535849">
    <tag k="amenity" v="embassy"/>
    <tag k="created_by" v="Potlatch 0.5d"/>
    <tag k="name" v="SAU (under construction)"/>
  </node>
  <node id="73690863" version="5" timestamp="2007-12-04T07:45:13Z" uid="16447" user="Wilmersdorfer" changeset="67731" lat="52.5094827" lon="13.3535812">
    <tag k="amenity" v="embassy"/>
    <tag k="created_by" v="Potlatch 0.5d"/>
    <tag k="name" v="SAU (under construction)"/>
  </node>
  <node id="73690863" version="6" timestamp="2007-12-30T16:05:00Z" uid="12983" user="jorilla" changeset="481923" lat="52.5094827" lon="13.3535812">
    <tag k="amenity" v="embassy"/>
    <tag k="created_by" v="Potlatch 0.5d"/>
    <tag k="name" v="SAU (under construction)"/>
  </node>
  <node id="73690863" version="7" timestamp="2008-04-30T16:10:26Z" uid="35787" user="Randbewohner" changeset="296836" lat="52.509382" lon="13.3534871">
    <tag k="amenity" v="embassy"/>
    <tag k="created_by" v="Potlatch 0.8b"/>
    <tag k="name" v="SAU (under construction)"/>
  </node>
  <node id="73690863" version="8" timestamp="2009-03-28T17:35:59Z" uid="64578" user="Serpens" changeset="865909" lat="52.509382" lon="13.3534871">
    <tag k="amenity" v="embassy"/>
    <tag k="country" v="sa"/>
    <tag k="name" v="Botschaft von Saudi-Arabien (im Bau)"/>
  </node>
  <node id="73690863" version="9" timestamp="2009-07-08T19:51:41Z" uid="115651" user="Konrad Aust" changeset="1775721" lat="52.5093859" lon="13.3534935">
    <tag k="amenity" v="embassy"/>
    <tag k="country" v="sa"/>
    <tag k="name" v="Botschaft von Saudi-Arabien"/>
  </node>
  <node id="73690863" version="10" timestamp="2009-12-10T02:20:17Z" uid="64578" user="Serpens" changeset="3338867" lat="52.5093859" lon="13.3534935">
    <tag k="amenity" v="embassy"/>
    <tag k="country" v="sa"/>
    <tag k="name" v="Botschaft von Saudi-Arabien"/>
  </node>
  <node id="73690869" version="1" timestamp="2007-10-15T18:25:24Z" uid="13673" user="Pholker" changeset="188603" lat="52.509519" lon="13.3543627">
    <tag k="amenity" v="school"/>
    <tag k="created_by" v="JOSM"/>
    <tag k="name" v="Canesius-Colleg (Jesuitengymnasium)"/>
  </node>
  <node id="73690869" version="2" timestamp="2007-10-16T13:28:07Z" uid="6454" user="B10xxx" changeset="209069" lat="52.5095235" lon="13.3543573">
    <tag k="amenity" v="school"/>
    <tag k="created_by" v="Potlatch 0.4a"/>
    <tag k="name" v="Canesius-Colleg (Jesuitengymnasium)"/>
  </node>
  <node id="73690869" version="3" timestamp="2007-10-22T06:34:42Z" uid="16447" user="Wilmersdorfer" changeset="280210" lat="52.5095241" lon="13.3543545">
    <tag k="amenity" v="school"/>
    <tag k="created_by" v="Potlatch 0.4a"/>
    <tag k="name" v="Canisius-Kolleg (Jesuitengymnasium)"/>
  </node>
  <node id="73690869" version="4" timestamp="2007-12-01T02:12:22Z" uid="6454" user="B10xxx" changeset="22961" lat="52.5095287" lon="13.3543487">
    <tag k="amenity" v="school"/>
    <tag k="created_by" v="Potlatch 0.5d"/>
    <tag k="name" v="Canisius-Kolleg (Jesuitengymnasium)"/>
  </node>
  <node id="73690869" version="5" timestamp="2007-12-04T07:45:29Z" uid="16447" user="Wilmersdorfer" changeset="67731" lat="52.5095297" lon="13.3543451">
    <tag k="amenity" v="school"/>
    <tag k="created_by" v="Potlatch 0.5d"/>
    <tag k="name" v="Canisius-Kolleg (Jesuitengymnasium)"/>
  </node>
  <node id="73690869" version="6" timestamp="2008-04-30T16:07:41Z" uid="35787" user="Randbewohner" changeset="296836" lat="52.50922" lon="13.3544827">
    <tag k="amenity" v="school"/>
    <tag k="created_by" v="Potlatch 0.8b"/>
    <tag k="name" v="Canisius-Kolleg (Jesuitengymnasium)"/>
  </node>
  <node id="73690869" version="7" timestamp="2008-04-30T16:08:24Z" uid="35787" user="Randbewohner" changeset="296836" lat="52.50922" lon="13.3544827">
    <tag k="amenity" v="school"/>
    <tag k="created_by" v="Potlatch 0.8b"/>
    <tag k="name" v="Canisius-Kolleg Berlin (Jesuitengymnasium)"/>
  </node>
  <node id="73690869" version="8" timestamp="2009-07-08T19:48:35Z" uid="115651" user="Konrad Aust" changeset="1775721" lat="52.5091195" lon="13.3546694">
    <tag k="amenity" v="school"/>
    <tag k="created_by" v="Potlatch 0.8b"/>
    <tag k="name" v="Canisius-Kolleg Berlin (Jesuitengymnasium)"/>
  </node>
  <node id="73690869" version="9" timestamp="2010-09-22T22:11:56Z" uid="85218" user="Aleks-Berlin" changeset="5849864" lat="52.5091196" lon="13.3546693">
    <tag k="addr:housenumber" v="30/31"/>
    <tag k="amenity" v="school"/>
    <tag k="name" v="Canisius-Kolleg Berlin (Jesuitengymnasium)"/>
    <tag k="website" v="http://www.canisius.de/"/>
  </node>
  <node id="73690869" version="10" timestamp="2011-02-21T14:22:12Z" uid="290680" user="wheelmap_visitor" changeset="7350562" lat="52.5091196" lon="13.3546693">
    <tag k="addr:housenumber" v="30/31"/>
    <tag k="amenity" v="school"/>
    <tag k="name" v="Canisius-Kolleg Berlin (Jesuitengymnasium)"/>
    <tag k="website" v="http://www.canisius.de/"/>
    <tag k="wheelchair" v="yes"/>
  </node>
  <node id="73690869" version="11" timestamp="2011-04-16T06:48:38Z" uid="66391" user="geozeisig" changeset="7875677" lat="52.5091196" lon="13.3546693">
    <tag k="addr:housenumber" v="30/31"/>
    <tag k="amenity" v="school"/>
    <tag k="name" v="Canisius-Kolleg Berlin (Jesuitengymnasium)"/>
    <tag k="website" v="http://www.canisius.de/"/>
    <tag k="wheelchair" v="yes"/>
  </node>
  <node id="73690875" version="1" timestamp="2007-10-15T18:25:25Z" uid="13673" user="Pholker" changeset="188603" lat="52.5096729" lon="13.3583959">
    <tag k="amenity" v="embassy"/>
    <tag k="created_by" v="JOSM"/>
    <tag k="name" v="JPN"/>
  </node>
  <node id="73690875" version="2" timestamp="2007-10-16T13:28:10Z" uid="6454" user="B10xxx" changeset="209069" lat="52.509675" lon="13.3583914">
    <tag k="amenity" v="embassy"/>
    <tag k="created_by" v="Potlatch 0.4a"/>
    <tag k="name" v="JPN"/>
  </node>
  <node id="73690875" version="3" timestamp="2008-04-30T15:56:25Z" uid="35787" user="Randbewohner" changeset="296836" lat="52.5093088" lon="13.3581305">
    <tag k="amenity" v="embassy"/>
    <tag k="created_by" v="Potlatch 0.8b"/>
    <tag k="name" v="JPN"/>
  </node>
  <node id="73690875" version="4" timestamp="2009-03-27T20:49:00Z" uid="64578" user="Serpens" changeset="863803" lat="52.5093088" lon="13.3581305">
    <tag k="amenity" v="embassy"/>
    <tag k="country" v="jp"/>
    <tag k="name" v="Botschaft von Japan"/>
  </node>
  <node id="73690875" version="5" timestamp="2009-12-10T01:52:52Z" uid="64578" user="Serpens" changeset="3338805" lat="52.5093088" lon="13.3581305">
    <tag k="amenity" v="embassy"/>
    <tag k="country" v="jp"/>
    <tag k="name" v="Botschaft von Japan"/>
  </node>
  <node id="73690879" version="1" timestamp="2007-10-15T18:25:25Z" uid="13673" user="Pholker" changeset="188603" lat="52.5096969" lon="13.3595641">
    <tag k="amenity" v="embassy"/>
    <tag k="created_by" v="JOSM"/>
    <tag k="name" v="ITA"/>
  </node>
  <node id="73690879" version="2" timestamp="2007-10-16T13:28:14Z" uid="6454" user="B10xxx" changeset="209069" lat="52.5097011" lon="13.3595587">
    <tag k="amenity" v="embassy"/>
    <tag k="created_by" v="Potlatch 0.4a"/>
    <tag k="name" v="ITA"/>
  </node>
  <node id="73690879" version="3" timestamp="2008-04-29T20:02:34Z" uid="35787" user="Randbewohner" changeset="290191" lat="52.5095834" lon="13.3596165">
    <tag k="amenity" v="embassy"/>
    <tag k="created_by" v="Potlatch 0.8b"/>
    <tag k="name" v="ITA"/>
  </node>
  <node id="73690879" version="4" timestamp="2008-07-03T15:46:10Z" uid="45016" user="surmont" changeset="385022" lat="52.5095872" lon="13.3596211">
    <tag k="amenity" v="embassy"/>
    <tag k="created_by" v="Potlatch 0.9c"/>
    <tag k="name" v="Italian Embassy"/>
  </node>
  <node id="73690879" version="5" timestamp="2009-03-27T20:49:00Z" uid="64578" user="Serpens" changeset="863803" lat="52.5095872" lon="13.3596211">
    <tag k="amenity" v="embassy"/>
    <tag k="country" v="it"/>
    <tag k="name" v="Italienische Botschaft"/>
    <tag k="name:en" v="Italian Embassy"/>
  </node>
  <node id="73690879" version="6" timestamp="2009-07-08T19:44:14Z" uid="115651" user="Konrad Aust" changeset="1775721" lat="52.5095008" lon="13.3595789">
    <tag k="amenity" v="embassy"/>
    <tag k="country" v="it"/>
    <tag k="name" v="Italienische Botschaft"/>
    <tag k="name:en" v="Italian Embassy"/>
  </node>
  <node id="73690879" version="7" timestamp="2009-12-10T01:52:52Z" uid="64578" user="Serpens" changeset="3338805" lat="52.5095008" lon="13.3595789">
    <tag k="amenity" v="embassy"/>
    <tag k="country" v="it"/>
    <tag k="name" v="Italienische Botschaft"/>
    <tag k="name:en" v="Italian Embassy"/>
  </node>
  <node id="73690901" version="3" timestamp="2007-12-04T23:09:43Z" uid="17602" user="B10xyz" changeset="79249" lat="52.5069532" lon="13.360932">
    <tag k="amenity" v="public_building"/>
    <tag k="created_by" v="Potlatch 0.5d"/>
    <tag k="name" v="Bundesministerium der Verteidigung (Dienstsitz Berlin)"/>
  </node>
  <node id="73690901" version="4" timestamp="2008-03-19T11:52:31Z" uid="6669" user="Elwood" changeset="349831" lat="52.5069532" lon="13.360932">
    <tag k="amenity" v="public_building"/>
    <tag k="created_by" v="Potlatch 0.5d"/>
    <tag k="name" v="Bundesministerium der Verteidigung (Dienstsitz Berlin)"/>
  </node>
  <node id="73690901" version="5" timestamp="2008-04-29T20:03:42Z" uid="35787" user="Randbewohner" changeset="290191" lat="52.5069557" lon="13.3609297">
    <tag k="amenity" v="public_building"/>
    <tag k="created_by" v="Potlatch 0.8b"/>
    <tag k="name" v="Bundesverteidigungsministerium"/>
  </node>
  <node id="73690901" version="6" timestamp="2008-04-30T15:40:52Z" uid="35787" user="Randbewohner" changeset="296836" lat="52.5069593" lon="13.3609342">
    <tag k="amenity" v="public_building"/>
    <tag k="created_by" v="Potlatch 0.8b"/>
    <tag k="name" v="Bundesministerium der Verteidigung"/>
  </node>
  <node id="73690901" version="7" timestamp="2008-04-30T15:41:53Z" uid="35787" user="Randbewohner" changeset="296836" lat="52.5069593" lon="13.3609342">
    <tag k="amenity" v="public_building"/>
    <tag k="created_by" v="Potlatch 0.8b"/>
    <tag k="name" v="Bundesministerium der Verteidigung (2. Dienstsitz)"/>
  </node>
  <node id="73690901" version="8" timestamp="2008-04-30T15:47:16Z" uid="35787" user="Randbewohner" changeset="296836" lat="52.5069593" lon="13.3609342">
    <tag k="amenity" v="public_building"/>
    <tag k="created_by" v="Potlatch 0.8b"/>
    <tag k="name" v="Bundesministerium der Verteidigung (2. Dienstsitz)"/>
    <tag k="name:en" v="German Ministry of Defense"/>
  </node>
  <node id="73690901" version="9" timestamp="2009-07-19T21:50:33Z" uid="34417" user="TobHaeg" changeset="1879258" lat="52.5069593" lon="13.3609342">
    <tag k="amenity" v="public_building"/>
    <tag k="name" v="Bundesministerium der Verteidigung (2. Dienstsitz)"/>
    <tag k="name:en" v="German Ministry of Defense"/>
  </node>
  <node id="73690901" version="10" timestamp="2011-08-07T17:35:52Z" uid="10549" user="toaster" changeset="8949792" lat="52.5069593" lon="13.3609342"/>
  <node id="73691018" version="1" timestamp="2007-10-15T18:25:29Z" uid="13673" user="Pholker" changeset="188603" lat="52.5096317" lon="13.3618536">
    <tag k="amenity" v="embassy"/>
    <tag k="created_by" v="JOSM"/>
    <tag k="name" v="ZAF"/>
  </node>
  <node id="73691018" version="2" timestamp="2007-10-16T13:28:19Z" uid="6454" user="B10xxx" changeset="209069" lat="52.5096332" lon="13.3618503">
    <tag k="amenity" v="embassy"/>
    <tag k="created_by" v="Potlatch 0.4a"/>
    <tag k="name" v="ZAF"/>
  </node>
  <node id="73691018" version="3" timestamp="2007-10-30T00:51:39Z" uid="16267" user="hedavid" changeset="364211" lat="52.5096377" lon="13.3618549">
    <tag k="amenity" v="embassy"/>
    <tag k="created_by" v="Potlatch 0.4b"/>
    <tag k="name" v="ZAF"/>
  </node>
  <node id="73691018" version="4" timestamp="2008-04-29T20:01:35Z" uid="35787" user="Randbewohner" changeset="290191" lat="52.5094633" lon="13.3615734">
    <tag k="amenity" v="embassy"/>
    <tag k="created_by" v="Potlatch 0.8b"/>
    <tag k="name" v="ZAF"/>
  </node>
  <node id="73691018" version="5" timestamp="2009-03-27T20:49:17Z" uid="64578" user="Serpens" changeset="863803" lat="52.5094633" lon="13.3615734">
    <tag k="amenity" v="embassy"/>
    <tag k="country" v="za"/>
    <tag k="name" v="Südafrikanische Botschaft"/>
  </node>
  <node id="73691018" version="6" timestamp="2009-07-08T19:43:02Z" uid="115651" user="Konrad Aust" changeset="1775721" lat="52.5094277" lon="13.361553">
    <tag k="amenity" v="embassy"/>
    <tag k="country" v="za"/>
    <tag k="name" v="Südafrikanische Botschaft"/>
  </node>
  <node id="73691018" version="7" timestamp="2009-12-10T01:52:52Z" uid="64578" user="Serpens" changeset="3338805" lat="52.5094277" lon="13.361553">
    <tag k="amenity" v="embassy"/>
    <tag k="country" v="za"/>
    <tag k="name" v="Südafrikanische Botschaft"/>
  </node>
  <node id="73691022" version="1" timestamp="2007-10-15T18:25:30Z" uid="13673" user="Pholker" changeset="188603" lat="52.5096487" lon="13.3624745">
    <tag k="amenity" v="embassy"/>
    <tag k="created_by" v="JOSM"/>
    <tag k="name" v="IND"/>
  </node>
  <node id="73691022" version="2" timestamp="2007-10-16T13:28:23Z" uid="6454" user="B10xxx" changeset="209069" lat="52.5096489" lon="13.3624683">
    <tag k="amenity" v="embassy"/>
    <tag k="created_by" v="Potlatch 0.4a"/>
    <tag k="name" v="IND"/>
  </node>
  <node id="73691022" version="3" timestamp="2008-04-29T20:01:25Z" uid="35787" user="Randbewohner" changeset="290191" lat="52.5094319" lon="13.3620884">
    <tag k="amenity" v="embassy"/>
    <tag k="created_by" v="Potlatch 0.8b"/>
    <tag k="name" v="IND"/>
  </node>
  <node id="73691022" version="4" timestamp="2009-03-27T20:49:18Z" uid="64578" user="Serpens" changeset="863803" lat="52.5094319" lon="13.3620884">
    <tag k="amenity" v="embassy"/>
    <tag k="country" v="in"/>
    <tag k="name" v="Indische Botschaft"/>
  </node>
  <node id="73691022" version="5" timestamp="2009-12-10T01:52:52Z" uid="64578" user="Serpens" changeset="3338805" lat="52.5094319" lon="13.3620884">
    <tag k="amenity" v="embassy"/>
    <tag k="country" v="in"/>
    <tag k="name" v="Indische Botschaft"/>
  </node>
  <node id="73691034" version="1" timestamp="2007-10-15T18:25:30Z" uid="13673" user="Pholker" changeset="188603" lat="52.5097848" lon="13.3639928">
    <tag k="amenity" v="embassy"/>
    <tag k="created_by" v="JOSM"/>
    <tag k="name" v="AUT"/>
  </node>
  <node id="73691034" version="2" timestamp="2007-10-16T13:28:37Z" uid="6454" user="B10xxx" changeset="209069" lat="52.5097899" lon="13.3639875">
    <tag k="amenity" v="embassy"/>
    <tag k="created_by" v="Potlatch 0.4a"/>
    <tag k="name" v="AUT"/>
  </node>
  <node id="73691034" version="3" timestamp="2007-10-16T13:30:19Z" uid="6454" user="B10xxx" changeset="209069" lat="52.5097899" lon="13.3639875">
    <tag k="amenity" v="embassy"/>
    <tag k="created_by" v="Potlatch 0.4a"/>
    <tag k="name" v="AUT"/>
  </node>
  <node id="73691034" version="4" timestamp="2008-04-29T19:59:09Z" uid="35787" user="Randbewohner" changeset="290191" lat="52.5093692" lon="13.3636934">
    <tag k="amenity" v="embassy"/>
    <tag k="created_by" v="Potlatch 0.8b"/>
    <tag k="name" v="AUT"/>
  </node>
  <node id="73691034" version="5" timestamp="2009-03-27T20:49:18Z" uid="64578" user="Serpens" changeset="863803" lat="52.5093692" lon="13.3636934">
    <tag k="amenity" v="embassy"/>
    <tag k="country" v="at"/>
    <tag k="name" v="Österreichische Botschaft"/>
  </node>
  <node id="73691034" version="6" timestamp="2009-08-19T19:45:20Z" uid="69102" user="Mathbau" changeset="2205270" lat="52.5093644" lon="13.3638459">
    <tag k="amenity" v="embassy"/>
    <tag k="building" v="yes"/>
    <tag k="country" v="at"/>
    <tag k="name" v="Österreichische Botschaft"/>
  </node>
  <node id="73691034" version="7" timestamp="2009-08-19T19:46:47Z" uid="69102" user="Mathbau" changeset="2205270" lat="52.5095577" lon="13.3638201">
    <tag k="amenity" v="embassy"/>
    <tag k="country" v="at"/>
    <tag k="name" v="Österreichische Botschaft"/>
  </node>
  <node id="73691034" version="8" timestamp="2009-09-30T18:56:57Z" uid="115651" user="Konrad Aust" changeset="2692269" lat="52.5095624" lon="13.3638159">
    <tag k="amenity" v="embassy"/>
    <tag k="country" v="at"/>
    <tag k="name" v="Österreichische Botschaft"/>
    <tag k="name:en" v="Austrian Embassy"/>
    <tag k="website" v="http://www.oesterreichische-botschaft.de"/>
  </node>
  <node id="73691034" version="9" timestamp="2010-01-03T20:09:30Z" uid="64578" user="Serpens" changeset="3531844" lat="52.5095624" lon="13.3638159">
    <tag k="amenity" v="embassy"/>
    <tag k="country" v="AT"/>
    <tag k="name" v="Österreichische Botschaft"/>
    <tag k="name:en" v="Austrian Embassy"/>
    <tag k="website" v="http://www.oesterreichische-botschaft.de"/>
  </node>
  <node id="73691034" version="10" timestamp="2010-04-13T20:17:55Z" uid="11567" user="Metehyi" changeset="4417407" lat="52.5095624" lon="13.3638159">
    <tag k="amenity" v="embassy"/>
    <tag k="country" v="AT"/>
    <tag k="name" v="Österreichische Botschaft"/>
    <tag k="name:ar" v="سفارة النمسا"/>
    <tag k="name:en" v="Austrian Embassy"/>
    <tag k="website" v="http://www.oesterreichische-botschaft.de"/>
  </node>
  <node id="73691034" version="11" timestamp="2010-09-12T15:11:37Z" uid="54763" user="pnoq" changeset="5760441" lat="52.5095624" lon="13.3638159">
    <tag k="amenity" v="embassy"/>
    <tag k="country" v="AT"/>
    <tag k="name" v="Österreichische Botschaft"/>
    <tag k="name:ar" v="سفارة النمسا"/>
    <tag k="name:en" v="Austrian Embassy"/>
    <tag k="website" v="http://www.oesterreichische-botschaft.de"/>
  </node>
  <node id="73691063" version="2" timestamp="2007-12-04T23:06:38Z" uid="17602" user="B10xyz" changeset="79249" lat="52.5079093" lon="13.3674208">
    <tag k="amenity" v="place_of_worship"/>
    <tag k="created_by" v="Potlatch 0.5d"/>
    <tag k="denomination" v="christian/evangelical"/>
    <tag k="name" v="St.Matthäus-Kirche"/>
    <tag k="religion" v="christian"/>
  </node>
  <node id="73691063" version="3" timestamp="2008-04-30T15:37:57Z" uid="35787" user="Randbewohner" changeset="296836" lat="52.5079101" lon="13.367423">
    <tag k="amenity" v="place_of_worship"/>
    <tag k="created_by" v="Potlatch 0.8b"/>
    <tag k="denomination" v="evangelical"/>
    <tag k="name" v="St. Matthäus-Kirche"/>
    <tag k="religion" v="christian"/>
  </node>
  <node id="73691063" version="4" timestamp="2009-11-03T21:41:10Z" uid="115651" user="Konrad Aust" changeset="3028587" lat="52.5079003" lon="13.3667136">
    <tag k="amenity" v="place_of_worship"/>
    <tag k="denomination" v="evangelical"/>
    <tag k="name" v="St. Matthäus-Kirche"/>
    <tag k="religion" v="christian"/>
  </node>
  <node id="73691063" version="5" timestamp="2009-11-03T21:41:20Z" uid="115651" user="Konrad Aust" changeset="3028587" lat="52.5079003" lon="13.3674689">
    <tag k="amenity" v="place_of_worship"/>
    <tag k="denomination" v="evangelical"/>
    <tag k="name" v="St. Matthäus-Kirche"/>
    <tag k="religion" v="christian"/>
  </node>
  <node id="73691063" version="6" timestamp="2010-06-25T18:11:00Z" uid="69102" user="Mathbau" changeset="5075658" lat="52.5079003" lon="13.3674689">
    <tag k="amenity" v="place_of_worship"/>
    <tag k="denomination" v="evangelical"/>
    <tag k="name" v="St. Matthäus-Kirche"/>
    <tag k="religion" v="christian"/>
  </node>
  <node id="73694586" version="3" timestamp="2008-05-04T03:46:29Z" uid="36809" user="pfoten_weg_!_" changeset="326538" lat="48.1121724" lon="11.5487946">
    <tag k="created_by" v="JOSM"/>
    <tag k="name" v="Brudermühlstraße"/>
    <tag k="railway" v="station"/>
  </node>
  <node id="73694586" version="4" timestamp="2008-08-21T23:16:27Z" uid="36809" user="pfoten_weg_!_" changeset="363581" lat="48.1121724" lon="11.5487946">
    <tag k="created_by" v="RambaZamba"/>
    <tag k="name" v="Brudermühlstraße"/>
    <tag k="railway" v="station"/>
  </node>
  <node id="73694586" version="5" timestamp="2008-09-13T12:37:57Z" uid="36809" user="pfoten_weg_!_" changeset="620497" lat="48.1121725" lon="11.5487951">
    <tag k="created_by" v="RambaZamba"/>
    <tag k="name" v="Brudermühlstraße"/>
    <tag k="railway" v="station"/>
  </node>
  <node id="73694586" version="6" timestamp="2008-09-20T03:50:30Z" uid="36809" user="pfoten_weg_!_" changeset="670006" lat="48.1121725" lon="11.5487952">
    <tag k="created_by" v="RambaZamba"/>
    <tag k="name" v="Brudermühlstraße"/>
    <tag k="railway" v="station"/>
  </node>
  <node id="73694586" version="7" timestamp="2008-10-01T01:19:26Z" uid="36809" user="pfoten_weg_!_" changeset="5644" lat="48.1121725" lon="11.5487952">
    <tag k="created_by" v="RambaZamba"/>
    <tag k="name" v="Brudermühlstraße"/>
    <tag k="railway" v="station"/>
  </node>
  <node id="73694586" version="8" timestamp="2009-02-15T13:01:51Z" uid="36809" user="pfoten_weg_!_" changeset="463903" lat="48.1121725" lon="11.5487952">
    <tag k="created_by" v="RambaZamba"/>
    <tag k="name" v="Brudermühlstraße"/>
    <tag k="railway" v="station"/>
    <tag k="source" v="survey"/>
  </node>
  <node id="73694586" version="9" timestamp="2009-06-08T12:00:30Z" uid="132988" user="ich-liebe-euch" changeset="1457959" lat="48.1121725" lon="11.5487952">
    <tag k="name" v="Brudermühlstraße"/>
    <tag k="railway" v="station"/>
    <tag k="source" v="survey"/>
  </node>
  <node id="73694586" version="10" timestamp="2009-06-08T13:38:25Z" uid="36809" user="pfoten_weg_!_" changeset="1458869" lat="48.1121725" lon="11.5487952">
    <tag k="created_by" v="RambaZamba"/>
    <tag k="name" v="Brudermühlstraße"/>
    <tag k="railway" v="station"/>
    <tag k="source" v="survey"/>
  </node>
  <node id="73694586" version="11" timestamp="2009-08-12T12:37:40Z" uid="156995" user="HampelZamba" changeset="2118306" lat="48.1121725" lon="11.5487952">
    <tag k="name" v="Brudermühlstraße"/>
    <tag k="railway" v="station"/>
    <tag k="source" v="survey"/>
  </node>
  <node id="73694586" version="12" timestamp="2009-08-26T09:26:08Z" uid="36809" user="pfoten_weg_!_" changeset="2265170" lat="48.1121725" lon="11.5487952">
    <tag k="name" v="Brudermühlstraße"/>
    <tag k="railway" v="station"/>
    <tag k="source" v="survey"/>
  </node>
  <node id="73694586" version="13" timestamp="2009-10-02T17:49:37Z" uid="86259" user="hasse_osm_korinthenkacker" changeset="2715119" lat="48.1121725" lon="11.5487952">
    <tag k="name" v="Brudermühlstraße"/>
    <tag k="railway" v="station"/>
  </node>
  <node id="73694871" version="3" timestamp="2010-01-29T17:54:13Z" uid="99207" user="Lar Kiesel" changeset="3745043" lat="32.153962" lon="-82.905964"/>
  <node id="73696619" version="6" timestamp="2007-12-04T23:06:55Z" uid="17602" user="B10xyz" changeset="79249" lat="52.5074339" lon="13.3711286">
    <tag k="amenity" v="library"/>
    <tag k="created_by" v="Potlatch 0.5d"/>
    <tag k="layer" v="3"/>
    <tag k="name" v="Staatsbibliothek zu Berlin"/>
  </node>
  <node id="73696619" version="7" timestamp="2010-01-31T15:27:01Z" uid="75340" user="Benway" changeset="3760123" lat="52.5074339" lon="13.3711285">
    <tag k="amenity" v="library"/>
    <tag k="layer" v="3"/>
    <tag k="name" v="Staatsbibliothek zu Berlin"/>
    <tag k="ref:isil" v="DE-1a"/>
  </node>
  <node id="73696619" version="8" timestamp="2010-11-04T10:52:51Z" uid="290680" user="wheelmap_visitor" changeset="6287425" lat="52.5074339" lon="13.3711285">
    <tag k="amenity" v="library"/>
    <tag k="layer" v="3"/>
    <tag k="name" v="Staatsbibliothek zu Berlin"/>
    <tag k="ref:isil" v="DE-1a"/>
    <tag k="wheelchair" v="yes"/>
  </node>
  <node id="73696619" version="9" timestamp="2011-12-30T16:55:25Z" uid="66391" user="geozeisig" changeset="10246765" lat="52.5074339" lon="13.3711285">
    <tag k="amenity" v="library"/>
    <tag k="layer" v="3"/>
    <tag k="name" v="Staatsbibliothek zu Berlin"/>
    <tag k="opening_hours" v="Mo-Fr 09:00-21:00; Sa 09:00-19:00"/>
    <tag k="ref:isil" v="DE-1a"/>
    <tag k="website" v="http://staatsbibliothek-berlin.de/"/>
    <tag k="wheelchair" v="yes"/>
  </node>
  <node id="73697102" version="2" timestamp="2010-05-24T14:33:09Z" uid="6975" user="ulfl" changeset="4794025" lat="52.3895583" lon="7.9426834">
    <tag k="name" v="Achmer"/>
    <tag k="traffic_sign" v="city_limit"/>
  </node>
  <node id="73694586" version="14" timestamp="2012-07-17T20:27:24Z" uid="722137" user="OSMF Redaction Account" changeset="12271880" lat="48.1121724" lon="11.5487946">
    <tag k="name" v="Brudermühlstraße"/>
    <tag k="railway" v="station"/>
  </node>
  <node id="73696619" version="10" timestamp="2012-07-19T16:06:26Z" uid="722137" user="OSMF Redaction Account" changeset="12337720" lat="52.5074304" lon="13.3711312">
    <tag k="amenity" v="library"/>
    <tag k="layer" v="3"/>
    <tag k="name" v="Staatsbibliothek zu Berlin"/>
    <tag k="opening_hours" v="Mo-Fr 09:00-21:00; Sa 09:00-19:00"/>
    <tag k="ref:isil" v="DE-1a"/>
    <tag k="website" v="http://staatsbibliothek-berlin.de/"/>
    <tag k="wheelchair" v="yes"/>
  </node>
  <node id="73697102" version="3" timestamp="2012-07-17T13:22:10Z" uid="722137" user="OSMF Redaction Account" changeset="12266409" lat="52.3896347" lon="7.942489"/>
</osm>
