<?xml version='1.0' encoding='UTF-8'?>
<osm version="0.6" generator="libosmium/2.20.0">
  <node id="738106911" version="2" timestamp="2010-11-21T17:32:19Z" uid="8619" user="cetest" changeset="6424711" lat="51.9493494" lon="4.8498802">
    <tag k="highway" v="bus_stop"/>
    <tag k="name" v="Stationsplein"/>
  </node>
  <node id="738106911" version="3" timestamp="2011-08-01T09:36:47Z" uid="26230" user="BugBlue" changeset="8888835" lat="51.9494035" lon="4.8499153">
    <tag k="cxx:code" v="53630070;53630071"/>
    <tag k="cxx:id" v="25588;53471"/>
    <tag k="highway" v="bus_stop"/>
    <tag k="name" v="Stationsplein"/>
    <tag k="source" v="CXX"/>
    <tag k="zone" v="5363"/>
  </node>
  <node id="738106911" version="4" timestamp="2012-08-25T08:05:43Z" uid="476789" user="CeesW" changeset="12852378" lat="51.9494035" lon="4.8499153">
    <tag k="cxx:code" v="53630070;53630071"/>
    <tag k="cxx:id" v="25588;53471"/>
    <tag k="highway" v="bus_stop"/>
    <tag k="name" v="Stationsplein"/>
    <tag k="operator" v="Connexion"/>
    <tag k="public_transport" v="stop_position"/>
    <tag k="route_ref" v="---"/>
    <tag k="source" v="CXX"/>
    <tag k="zone" v="5363"/>
  </node>
  <node id="738106911" version="5" timestamp="2012-08-26T20:29:43Z" uid="476789" user="CeesW" changeset="12871811" lat="51.9494035" lon="4.8499153">
    <tag k="cxx:code" v="53630070;53630071"/>
    <tag k="cxx:id" v="25588;53471"/>
    <tag k="highway" v="bus_stop"/>
    <tag k="name" v="Stationsplein"/>
    <tag k="operator" v="Connexion"/>
    <tag k="public_transport" v="stop_position"/>
    <tag k="route_ref" v="197"/>
    <tag k="source" v="CXX"/>
    <tag k="zone" v="5363"/>
  </node>
</osm>
