<?xml version='1.0' encoding='UTF-8'?>
<osm version="0.6" generator="libosmium/2.20.0">
  <node id="742013373" version="2" timestamp="2011-03-11T20:36:39Z" uid="16922" user="amai" changeset="7527263" lat="13.8024305" lon="100.5847561"/>
  <node id="742013373" version="3" timestamp="2012-03-23T19:38:42Z" uid="609760" user="Dan Wood" changeset="11077619" lat="13.8024291" lon="100.5847022"/>
  <node id="742016554" version="2" timestamp="2010-05-21T06:44:19Z" uid="38528" user="acrosscanadatrails" changeset="4763197" lat="45.76667" lon="19.1499999">
    <tag k="ele" v="93.503937007874"/>
    <tag k="fixme" v="not_reviewed"/>
    <tag k="is_in" v="serbia"/>
    <tag k="man_made" v="monitoring_station"/>
    <tag k="monitoring:weather" v="yes"/>
    <tag k="name" v="Sombor"/>
    <tag k="ncdc:id" v="30012877"/>
    <tag k="source" v="ncdc.noaa.gov"/>
    <tag k="source:ele" v="GROUND"/>
    <tag k="start_date" v="2007-10-02"/>
    <tag k="wmo:id" v="13160"/>
  </node>
  <node id="742016554" version="3" timestamp="2012-04-17T22:38:22Z" uid="500313" user="Pedja" changeset="11338870" lat="45.76667" lon="19.1499999">
    <tag k="ele" v="93.503937007874"/>
    <tag k="fixme" v="not_reviewed"/>
    <tag k="is_in" v="serbia"/>
    <tag k="man_made" v="monitoring_station"/>
    <tag k="monitoring:weather" v="yes"/>
    <tag k="name" v="Сомбор"/>
    <tag k="name:sr" v="Сомбор"/>
    <tag k="name:sr-Latn" v="Sombor"/>
    <tag k="ncdc:id" v="30012877"/>
    <tag k="source" v="ncdc.noaa.gov"/>
    <tag k="source:ele" v="GROUND"/>
    <tag k="start_date" v="2007-10-02"/>
    <tag k="wmo:id" v="13160"/>
  </node>
  <node id="742016554" version="4" timestamp="2012-07-20T02:31:15Z" uid="722137" user="OSMF Redaction Account" changeset="12358208" lat="45.76667" lon="19.1499999"/>
</osm>
