<?xml version='1.0' encoding='UTF-8'?>
<osm version="0.6" generator="libosmium/2.20.0">
  <node id="742682450" version="1" timestamp="2010-05-21T15:58:41Z" uid="256927" user="Timo Müller" changeset="4767287" lat="49.4085163" lon="8.68737">
    <tag k="addr:city" v="Heidelberg"/>
    <tag k="addr:country" v="DE"/>
    <tag k="addr:housenumber" v="46"/>
    <tag k="addr:street" v="Bergheimer Straße"/>
  </node>
  <node id="742682450" version="2" timestamp="2011-01-25T10:25:18Z" uid="55945" user="xeen" changeset="7082086" lat="49.4084466" lon="8.6873825">
    <tag k="addr:city" v="Heidelberg"/>
    <tag k="addr:country" v="DE"/>
    <tag k="addr:housenumber" v="46"/>
    <tag k="addr:street" v="Bergheimer Straße"/>
  </node>
  <node id="742682555" version="1" timestamp="2010-05-21T15:58:47Z" uid="256927" user="Timo Müller" changeset="4767287" lat="49.4077411" lon="8.684673">
    <tag k="addr:city" v="Heidelberg"/>
    <tag k="addr:country" v="DE"/>
    <tag k="addr:housenumber" v="81"/>
    <tag k="addr:street" v="Bergheimer Straße"/>
  </node>
  <node id="742682555" version="2" timestamp="2010-06-19T19:18:29Z" uid="160164" user="mahau" changeset="5027044" lat="49.4076916" lon="8.684693">
    <tag k="addr:city" v="Heidelberg"/>
    <tag k="addr:country" v="DE"/>
    <tag k="addr:housenumber" v="81"/>
    <tag k="addr:street" v="Bergheimer Straße"/>
  </node>
  <node id="742682555" version="3" timestamp="2011-12-08T22:24:00Z" uid="287306" user="Matthias Frank" changeset="10069387" lat="49.4077255" lon="8.6846825">
    <tag k="addr:city" v="Heidelberg"/>
    <tag k="addr:country" v="DE"/>
    <tag k="addr:housenumber" v="81"/>
    <tag k="addr:street" v="Bergheimer Straße"/>
  </node>
  <node id="742682556" version="1" timestamp="2010-05-21T15:58:47Z" uid="256927" user="Timo Müller" changeset="4767287" lat="49.4077025" lon="8.6859083">
    <tag k="addr:city" v="Heidelberg"/>
    <tag k="addr:country" v="DE"/>
    <tag k="addr:housenumber" v="69a"/>
    <tag k="addr:street" v="Bergheimer Straße"/>
  </node>
  <node id="742682556" version="2" timestamp="2010-06-19T19:18:27Z" uid="160164" user="mahau" changeset="5027044" lat="49.4076834" lon="8.6859483">
    <tag k="addr:city" v="Heidelberg"/>
    <tag k="addr:country" v="DE"/>
    <tag k="addr:housenumber" v="69a"/>
    <tag k="addr:street" v="Bergheimer Straße"/>
  </node>
  <node id="742682557" version="1" timestamp="2010-05-21T15:58:47Z" uid="256927" user="Timo Müller" changeset="4767287" lat="49.4088567" lon="8.6919329">
    <tag k="addr:city" v="Heidelberg"/>
    <tag k="addr:country" v="DE"/>
    <tag k="addr:housenumber" v="1b"/>
    <tag k="addr:street" v="Bergheimer Straße"/>
  </node>
  <node id="742682559" version="1" timestamp="2010-05-21T15:58:47Z" uid="256927" user="Timo Müller" changeset="4767287" lat="49.4081463" lon="8.6855132">
    <tag k="addr:housenumber" v="56a"/>
  </node>
  <node id="742682559" version="2" timestamp="2010-12-05T15:38:52Z" uid="378480" user="DakotaTB" changeset="6552095" lat="49.4081463" lon="8.6855132">
    <tag k="addr:city" v="Heidelberg"/>
    <tag k="addr:country" v="DE"/>
    <tag k="addr:housenumber" v="56a"/>
    <tag k="addr:postcode" v="69115"/>
    <tag k="addr:state" v="Baden-Württemberg"/>
    <tag k="addr:street" v="Bergheimer Straße"/>
  </node>
  <node id="742682559" version="3" timestamp="2011-01-25T10:25:42Z" uid="55945" user="xeen" changeset="7082086" lat="49.4081463" lon="8.6855132">
    <tag k="addr:city" v="Heidelberg"/>
    <tag k="addr:country" v="DE"/>
    <tag k="addr:housenumber" v="56a"/>
    <tag k="addr:postcode" v="69115"/>
    <tag k="addr:state" v="Baden-Württemberg"/>
    <tag k="addr:street" v="Bergheimer Straße"/>
  </node>
  <node id="742682560" version="1" timestamp="2010-05-21T15:58:47Z" uid="256927" user="Timo Müller" changeset="4767287" lat="49.4075798" lon="8.6880721">
    <tag k="addr:city" v="Heidelberg"/>
    <tag k="addr:country" v="DE"/>
    <tag k="addr:housenumber" v="42"/>
    <tag k="addr:street" v="Poststraße"/>
  </node>
  <node id="742682561" version="1" timestamp="2010-05-21T15:58:48Z" uid="256927" user="Timo Müller" changeset="4767287" lat="49.408077" lon="8.6858661"/>
  <node id="742682561" version="2" timestamp="2011-09-27T10:35:12Z" uid="165061" user="keinname" changeset="9409473" lat="49.4081491" lon="8.685856"/>
  <node id="742682561" version="3" timestamp="2011-10-25T11:21:44Z" uid="61922" user="Jensel" changeset="9651331" lat="49.4080636" lon="8.6859922"/>
  <node id="742682562" version="1" timestamp="2010-05-21T15:58:48Z" uid="256927" user="Timo Müller" changeset="4767287" lat="49.4085407" lon="8.6850031"/>
  <node id="742682562" version="2" timestamp="2012-03-15T21:02:54Z" uid="136321" user="Teddy73" changeset="10992640" lat="49.4085407" lon="8.6850031"/>
  <node id="742682563" version="1" timestamp="2010-05-21T15:58:48Z" uid="256927" user="Timo Müller" changeset="4767287" lat="49.4089051" lon="8.6922069">
    <tag k="addr:city" v="Heidelberg"/>
    <tag k="addr:country" v="DE"/>
    <tag k="addr:housenumber" v="1"/>
    <tag k="addr:street" v="Bergheimer Straße"/>
  </node>
  <node id="742682564" version="1" timestamp="2010-05-21T15:58:48Z" uid="256927" user="Timo Müller" changeset="4767287" lat="49.4087036" lon="8.6909333">
    <tag k="addr:city" v="Heidelberg"/>
    <tag k="addr:country" v="DE"/>
    <tag k="addr:housenumber" v="13"/>
    <tag k="addr:street" v="Bergheimer Straße"/>
  </node>
  <node id="742682565" version="1" timestamp="2010-05-21T15:58:48Z" uid="256927" user="Timo Müller" changeset="4767287" lat="49.4081007" lon="8.6871812">
    <tag k="addr:city" v="Heidelberg"/>
    <tag k="addr:country" v="DE"/>
    <tag k="addr:housenumber" v="59"/>
    <tag k="addr:street" v="Bergheimer Straße"/>
  </node>
  <node id="742682565" version="2" timestamp="2012-02-18T12:12:59Z" uid="583373" user="Drazhar" changeset="10719477" lat="49.4081007" lon="8.6871812"/>
  <node id="742682566" version="1" timestamp="2010-05-21T15:58:48Z" uid="256927" user="Timo Müller" changeset="4767287" lat="49.4079099" lon="8.6879999">
    <tag k="addr:city" v="Heidelberg"/>
    <tag k="addr:country" v="DE"/>
    <tag k="addr:housenumber" v="46"/>
    <tag k="addr:street" v="Poststraße"/>
  </node>
  <node id="742682568" version="1" timestamp="2010-05-21T15:58:48Z" uid="256927" user="Timo Müller" changeset="4767287" lat="49.4085486" lon="8.6876246">
    <tag k="addr:city" v="Heidelberg"/>
    <tag k="addr:country" v="DE"/>
    <tag k="addr:housenumber" v="44"/>
    <tag k="addr:street" v="Bergheimer Straße"/>
  </node>
  <node id="742682568" version="2" timestamp="2011-01-25T10:25:27Z" uid="55945" user="xeen" changeset="7082086" lat="49.4084836" lon="8.6876549">
    <tag k="addr:city" v="Heidelberg"/>
    <tag k="addr:country" v="DE"/>
    <tag k="addr:housenumber" v="44"/>
    <tag k="addr:street" v="Bergheimer Straße"/>
  </node>
  <node id="742682569" version="1" timestamp="2010-05-21T15:58:48Z" uid="256927" user="Timo Müller" changeset="4767287" lat="49.4090514" lon="8.6917732">
    <tag k="addr:city" v="Heidelberg"/>
    <tag k="addr:country" v="DE"/>
    <tag k="addr:housenumber" v="10-12"/>
    <tag k="addr:street" v="Bergheimer Straße"/>
  </node>
  <node id="742682569" version="2" timestamp="2011-01-28T18:34:11Z" uid="160164" user="mahau" changeset="7115606" lat="49.409135" lon="8.6917584">
    <tag k="addr:city" v="Heidelberg"/>
    <tag k="addr:country" v="DE"/>
    <tag k="addr:housenumber" v="10-12"/>
    <tag k="addr:street" v="Bergheimer Straße"/>
  </node>
  <node id="742682570" version="1" timestamp="2010-05-21T15:58:48Z" uid="256927" user="Timo Müller" changeset="4767287" lat="49.4082166" lon="8.6863449">
    <tag k="addr:city" v="Heidelberg"/>
    <tag k="addr:country" v="DE"/>
    <tag k="addr:housenumber" v="54"/>
    <tag k="addr:street" v="Bergheimer Straße"/>
  </node>
  <node id="742682570" version="2" timestamp="2011-01-25T10:25:24Z" uid="55945" user="xeen" changeset="7082086" lat="49.40827" lon="8.686369">
    <tag k="addr:city" v="Heidelberg"/>
    <tag k="addr:country" v="DE"/>
    <tag k="addr:housenumber" v="54"/>
    <tag k="addr:street" v="Bergheimer Straße"/>
  </node>
  <node id="742682571" version="1" timestamp="2010-05-21T15:58:48Z" uid="256927" user="Timo Müller" changeset="4767287" lat="49.40822" lon="8.6879904">
    <tag k="barrier" v="chain"/>
  </node>
  <node id="742682571" version="2" timestamp="2010-06-19T19:01:04Z" uid="160164" user="mahau" changeset="5026902" lat="49.4082193" lon="8.6879802">
    <tag k="barrier" v="chain"/>
  </node>
  <node id="742682571" version="3" timestamp="2012-03-15T20:55:55Z" uid="136321" user="Teddy73" changeset="10992640" lat="49.4082193" lon="8.6879802"/>
  <node id="742682573" version="1" timestamp="2010-05-21T15:58:48Z" uid="256927" user="Timo Müller" changeset="4767287" lat="49.4088447" lon="8.6917637">
    <tag k="addr:city" v="Heidelberg"/>
    <tag k="addr:country" v="DE"/>
    <tag k="addr:housenumber" v="1a"/>
    <tag k="addr:street" v="Bergheimer Straße"/>
  </node>
  <node id="742682574" version="1" timestamp="2010-05-21T15:58:48Z" uid="256927" user="Timo Müller" changeset="4767287" lat="49.4089934" lon="8.6913703">
    <tag k="addr:city" v="Heidelberg"/>
    <tag k="addr:country" v="DE"/>
    <tag k="addr:housenumber" v="14"/>
    <tag k="addr:street" v="Bergheimer Straße"/>
  </node>
  <node id="742682574" version="2" timestamp="2011-01-25T10:25:42Z" uid="55945" user="xeen" changeset="7082086" lat="49.4091179" lon="8.691229">
    <tag k="addr:city" v="Heidelberg"/>
    <tag k="addr:country" v="DE"/>
    <tag k="addr:housenumber" v="14"/>
    <tag k="addr:street" v="Bergheimer Straße"/>
  </node>
  <node id="742682575" version="1" timestamp="2010-05-21T15:58:48Z" uid="256927" user="Timo Müller" changeset="4767287" lat="49.4085757" lon="8.6901">
    <tag k="addr:city" v="Heidelberg"/>
    <tag k="addr:country" v="DE"/>
    <tag k="addr:housenumber" v="23"/>
    <tag k="addr:street" v="Bergheimer Straße"/>
  </node>
  <node id="742682577" version="1" timestamp="2010-05-21T15:58:48Z" uid="256927" user="Timo Müller" changeset="4767287" lat="49.4081827" lon="8.6861189">
    <tag k="addr:city" v="Heidelberg"/>
    <tag k="addr:country" v="DE"/>
    <tag k="addr:housenumber" v="56"/>
    <tag k="addr:street" v="Bergheimer Straße"/>
  </node>
  <node id="742682577" version="2" timestamp="2011-01-25T10:25:29Z" uid="55945" user="xeen" changeset="7082086" lat="49.4082303" lon="8.6861457">
    <tag k="addr:city" v="Heidelberg"/>
    <tag k="addr:country" v="DE"/>
    <tag k="addr:housenumber" v="56"/>
    <tag k="addr:street" v="Bergheimer Straße"/>
  </node>
  <node id="742682579" version="1" timestamp="2010-05-21T15:58:49Z" uid="256927" user="Timo Müller" changeset="4767287" lat="49.4082946" lon="8.6857845"/>
  <node id="742682579" version="2" timestamp="2011-10-25T11:21:44Z" uid="61922" user="Jensel" changeset="9651331" lat="49.4083109" lon="8.6858817"/>
  <node id="742682580" version="1" timestamp="2010-05-21T15:58:49Z" uid="256927" user="Timo Müller" changeset="4767287" lat="49.408728" lon="8.6910548">
    <tag k="addr:city" v="Heidelberg"/>
    <tag k="addr:country" v="DE"/>
    <tag k="addr:housenumber" v="9-11"/>
    <tag k="addr:street" v="Bergheimer Straße"/>
  </node>
  <node id="742682582" version="1" timestamp="2010-05-21T15:58:49Z" uid="256927" user="Timo Müller" changeset="4767287" lat="49.4083752" lon="8.6850444"/>
  <node id="742682582" version="2" timestamp="2012-03-15T21:02:54Z" uid="136321" user="Teddy73" changeset="10992640" lat="49.4083752" lon="8.6850444"/>
  <node id="742682584" version="1" timestamp="2010-05-21T15:58:49Z" uid="256927" user="Timo Müller" changeset="4767287" lat="49.4087842" lon="8.6849689"/>
  <node id="742682584" version="2" timestamp="2011-02-18T18:36:02Z" uid="160164" user="mahau" changeset="7325023" lat="49.4087842" lon="8.6849516"/>
  <node id="742682585" version="1" timestamp="2010-05-21T15:58:49Z" uid="256927" user="Timo Müller" changeset="4767287" lat="49.4075236" lon="8.6881866">
    <tag k="barrier" v="chain"/>
  </node>
  <node id="742682585" version="2" timestamp="2010-06-19T19:01:36Z" uid="160164" user="mahau" changeset="5026902" lat="49.4075034" lon="8.6880997">
    <tag k="barrier" v="chain"/>
  </node>
  <node id="742682586" version="1" timestamp="2010-05-21T15:58:49Z" uid="256927" user="Timo Müller" changeset="4767287" lat="49.4082681" lon="8.6866189">
    <tag k="addr:city" v="Heidelberg"/>
    <tag k="addr:country" v="DE"/>
    <tag k="addr:housenumber" v="52"/>
    <tag k="addr:street" v="Bergheimer Straße"/>
  </node>
  <node id="742682586" version="2" timestamp="2011-01-25T10:25:30Z" uid="55945" user="xeen" changeset="7082086" lat="49.4083041" lon="8.6866028">
    <tag k="addr:city" v="Heidelberg"/>
    <tag k="addr:country" v="DE"/>
    <tag k="addr:housenumber" v="52"/>
    <tag k="addr:street" v="Bergheimer Straße"/>
  </node>
  <node id="742682588" version="1" timestamp="2010-05-21T15:58:49Z" uid="256927" user="Timo Müller" changeset="4767287" lat="49.4077093" lon="8.6842022">
    <tag k="addr:city" v="Heidelberg"/>
    <tag k="addr:country" v="DE"/>
    <tag k="addr:housenumber" v="85"/>
    <tag k="addr:street" v="Bergheimer Straße"/>
  </node>
  <node id="742682588" version="2" timestamp="2010-05-24T17:38:38Z" uid="256927" user="Timo Müller" changeset="4796195" lat="49.4077093" lon="8.6842022">
    <tag k="addr:city" v="Heidelberg"/>
    <tag k="addr:country" v="DE"/>
    <tag k="addr:housenumber" v="85"/>
    <tag k="addr:street" v="Bergheimer Straße"/>
  </node>
  <node id="742682590" version="1" timestamp="2010-05-21T15:58:49Z" uid="256927" user="Timo Müller" changeset="4767287" lat="49.4080615" lon="8.6869522">
    <tag k="addr:city" v="Heidelberg"/>
    <tag k="addr:country" v="DE"/>
    <tag k="addr:housenumber" v="61"/>
    <tag k="addr:street" v="Bergheimer Straße"/>
  </node>
  <node id="742682590" version="2" timestamp="2012-02-18T12:12:59Z" uid="583373" user="Drazhar" changeset="10719477" lat="49.4080615" lon="8.6869522"/>
  <node id="742682592" version="1" timestamp="2010-05-21T15:58:49Z" uid="256927" user="Timo Müller" changeset="4767287" lat="49.4091159" lon="8.6920859">
    <tag k="addr:city" v="Heidelberg"/>
    <tag k="addr:country" v="DE"/>
    <tag k="addr:housenumber" v="8"/>
    <tag k="addr:street" v="Bergheimer Straße"/>
  </node>
  <node id="742682592" version="2" timestamp="2011-01-28T18:35:58Z" uid="160164" user="mahau" changeset="7115606" lat="49.4091892" lon="8.6920938">
    <tag k="addr:city" v="Heidelberg"/>
    <tag k="addr:country" v="DE"/>
    <tag k="addr:housenumber" v="8"/>
    <tag k="addr:street" v="Bergheimer Straße"/>
  </node>
  <node id="742682595" version="1" timestamp="2010-05-21T15:58:49Z" uid="256927" user="Timo Müller" changeset="4767287" lat="49.4087605" lon="8.6912393">
    <tag k="addr:city" v="Heidelberg"/>
    <tag k="addr:country" v="DE"/>
    <tag k="addr:housenumber" v="7"/>
    <tag k="addr:street" v="Bergheimer Straße"/>
  </node>
  <node id="742682597" version="1" timestamp="2010-05-21T15:58:49Z" uid="256927" user="Timo Müller" changeset="4767287" lat="49.4069765" lon="8.686366"/>
  <node id="742682597" version="2" timestamp="2010-06-19T19:18:33Z" uid="160164" user="mahau" changeset="5027044" lat="49.4069817" lon="8.686346"/>
  <node id="742682599" version="1" timestamp="2010-05-21T15:58:49Z" uid="256927" user="Timo Müller" changeset="4767287" lat="49.4083967" lon="8.6889725">
    <tag k="addr:city" v="Heidelberg"/>
    <tag k="addr:country" v="DE"/>
    <tag k="addr:housenumber" v="39"/>
    <tag k="addr:street" v="Bergheimer Straße"/>
  </node>
  <node id="742682601" version="1" timestamp="2010-05-21T15:58:49Z" uid="256927" user="Timo Müller" changeset="4767287" lat="49.4087347" lon="8.685021"/>
  <node id="742682601" version="2" timestamp="2012-03-15T21:02:54Z" uid="136321" user="Teddy73" changeset="10992640" lat="49.4087347" lon="8.685021"/>
  <node id="742682450" version="3" timestamp="2012-07-17T05:25:53Z" uid="722137" user="OSMF Redaction Account" changeset="12257703" lat="49.4084466" lon="8.6873825"/>
  <node id="742682555" version="4" timestamp="2012-07-17T05:25:49Z" uid="722137" user="OSMF Redaction Account" changeset="12257655" lat="49.4077255" lon="8.6846825"/>
  <node id="742682556" version="3" timestamp="2012-07-17T05:25:48Z" uid="722137" user="OSMF Redaction Account" changeset="12257655" lat="49.4076834" lon="8.6859483"/>
  <node id="742682557" version="2" timestamp="2012-07-17T05:05:58Z" uid="722137" user="OSMF Redaction Account" changeset="12257400" lat="49.4088567" lon="8.6919329"/>
  <node id="742682560" version="2" timestamp="2012-07-17T05:05:57Z" uid="722137" user="OSMF Redaction Account" changeset="12257400" lat="49.4075798" lon="8.6880721"/>
  <node id="742682563" version="2" timestamp="2012-07-17T05:05:58Z" uid="722137" user="OSMF Redaction Account" changeset="12257400" lat="49.4089051" lon="8.6922069"/>
  <node id="742682564" version="2" timestamp="2012-07-17T05:05:57Z" uid="722137" user="OSMF Redaction Account" changeset="12257400" lat="49.4087036" lon="8.6909333"/>
  <node id="742682566" version="2" timestamp="2012-07-17T05:05:57Z" uid="722137" user="OSMF Redaction Account" changeset="12257400" lat="49.4079099" lon="8.6879999"/>
  <node id="742682568" version="3" timestamp="2012-07-17T05:05:23Z" uid="722137" user="OSMF Redaction Account" changeset="12257386" lat="49.4084836" lon="8.6876549"/>
  <node id="742682569" version="3" timestamp="2012-07-17T05:05:24Z" uid="722137" user="OSMF Redaction Account" changeset="12257386" lat="49.409135" lon="8.6917584"/>
  <node id="742682570" version="3" timestamp="2012-04-17T09:50:36Z" uid="122489" user="Tryphon" changeset="11330824" lat="49.40827" lon="8.686369"/>
  <node id="742682573" version="2" timestamp="2012-07-17T05:05:58Z" uid="722137" user="OSMF Redaction Account" changeset="12257400" lat="49.4088447" lon="8.6917637"/>
  <node id="742682574" version="3" timestamp="2012-07-17T05:05:23Z" uid="722137" user="OSMF Redaction Account" changeset="12257386" lat="49.4091179" lon="8.691229"/>
  <node id="742682575" version="2" timestamp="2012-07-17T05:05:57Z" uid="722137" user="OSMF Redaction Account" changeset="12257400" lat="49.4085757" lon="8.6901"/>
  <node id="742682577" version="3" timestamp="2012-04-17T09:50:36Z" uid="122489" user="Tryphon" changeset="11330824" lat="49.4082303" lon="8.6861457"/>
  <node id="742682580" version="2" timestamp="2012-07-17T05:05:57Z" uid="722137" user="OSMF Redaction Account" changeset="12257400" lat="49.408728" lon="8.6910548"/>
  <node id="742682585" version="3" timestamp="2012-07-17T05:05:22Z" uid="722137" user="OSMF Redaction Account" changeset="12257386" lat="49.4075034" lon="8.6880997"/>
  <node id="742682586" version="3" timestamp="2012-04-17T09:50:36Z" uid="122489" user="Tryphon" changeset="11330824" lat="49.4083041" lon="8.6866028"/>
  <node id="742682592" version="3" timestamp="2012-07-17T05:05:24Z" uid="722137" user="OSMF Redaction Account" changeset="12257386" lat="49.4091892" lon="8.6920938"/>
  <node id="742682595" version="2" timestamp="2012-07-17T05:05:58Z" uid="722137" user="OSMF Redaction Account" changeset="12257400" lat="49.4087605" lon="8.6912393"/>
  <node id="742682597" version="3" timestamp="2012-05-31T14:19:01Z" uid="384910" user="padeshahekhoban" changeset="11758887" lat="49.4069892" lon="8.6863368"/>
  <node id="742682597" version="4" timestamp="2012-06-07T20:40:41Z" uid="202726" user="whb" changeset="11829670" lat="49.4069817" lon="8.686346"/>
  <node id="742682599" version="2" timestamp="2012-07-17T05:05:57Z" uid="722137" user="OSMF Redaction Account" changeset="12257400" lat="49.4083967" lon="8.6889725"/>
</osm>
