<?xml version='1.0' encoding='UTF-8'?>
<osm version="0.6" generator="libosmium/2.20.0">
  <node id="746756709" version="2" timestamp="2011-05-09T19:51:32Z" uid="30632" user="antblant" changeset="8096240" lat="50.8787638" lon="17.0244471">
    <tag k="name" v="Boreczek"/>
    <tag k="railway" v="station"/>
    <tag k="wikipedia" v="pl:Boreczek_(stacja_kolejowa)"/>
  </node>
  <node id="746756709" version="3" timestamp="2011-11-30T09:46:35Z" uid="94114" user="Jaszczur" changeset="9997287" lat="50.8787393" lon="17.0245384">
    <tag k="name" v="Boreczek"/>
    <tag k="railway" v="station"/>
    <tag k="wikipedia" v="pl:Boreczek_(stacja_kolejowa)"/>
  </node>
  <node id="746756710" version="2" timestamp="2011-05-09T19:51:28Z" uid="30632" user="antblant" changeset="8096240" lat="50.8284168" lon="17.0468525">
    <tag k="name" v="Warkocz"/>
    <tag k="railway" v="station"/>
    <tag k="wikipedia" v="pl:Warkocz_(przystanek_kolejowy)"/>
  </node>
  <node id="746758076" version="7" timestamp="2011-05-09T19:51:32Z" uid="30632" user="antblant" changeset="8096240" lat="50.5099192" lon="16.7583432">
    <tag k="name" v="Bardo Przyłęk"/>
    <tag k="railway" v="station"/>
    <tag k="wikipedia" v="pl:Bardo-Przyłęk"/>
  </node>
  <node id="746758076" version="8" timestamp="2012-03-09T18:39:19Z" uid="94114" user="Jaszczur" changeset="10923749" lat="50.5097987" lon="16.758453">
    <tag k="name" v="Bardo Przyłęk"/>
    <tag k="railway" v="station"/>
    <tag k="wikipedia" v="pl:Bardo-Przyłęk"/>
  </node>
  <node id="746758106" version="7" timestamp="2011-05-09T19:51:30Z" uid="30632" user="antblant" changeset="8096240" lat="50.5049024" lon="16.734319">
    <tag k="name" v="Bardo Śląskie"/>
    <tag k="railway" v="station"/>
    <tag k="wikipedia" v="pl:Bardo_Śląskie_(stacja_kolejowa)"/>
  </node>
  <node id="746758106" version="8" timestamp="2012-01-17T14:18:11Z" uid="94114" user="Jaszczur" changeset="10418074" lat="50.5048507" lon="16.7343171">
    <tag k="name" v="Bardo Śląskie"/>
    <tag k="railway" v="station"/>
    <tag k="wikipedia" v="pl:Bardo_Śląskie_(stacja_kolejowa)"/>
  </node>
  <node id="746759296" version="2" timestamp="2010-07-28T20:04:08Z" uid="74617" user="JohnSmith" changeset="5339329" lat="46.7468462" lon="8.1968892">
    <tag k="emergency" v="fire_hydrant"/>
  </node>
  <node id="746759296" version="3" timestamp="2010-07-30T17:47:57Z" uid="74617" user="JohnSmith" changeset="5356742" lat="46.7468462" lon="8.1968892">
    <tag k="amenity" v="fire_hydrant"/>
    <tag k="emergency" v="fire_hydrant"/>
  </node>
  <node id="746759296" version="4" timestamp="2010-10-11T18:12:50Z" uid="26348" user="Rodolphe Quiédeville" changeset="6014249" lat="46.7468462" lon="8.1968892">
    <tag k="emergency" v="fire_hydrant"/>
  </node>
  <node id="746759296" version="5" timestamp="2010-10-19T08:51:33Z" uid="26348" user="Rodolphe Quiédeville" changeset="6094638" lat="46.7468462" lon="8.1968892">
    <tag k="amenity" v="fire_hydrant"/>
    <tag k="emergency" v="fire_hydrant"/>
  </node>
  <node id="746759296" version="6" timestamp="2012-03-15T02:00:34Z" uid="178186" user="mdk" changeset="10984354" lat="46.7468462" lon="8.1968892"/>
  <node id="746759958" version="7" timestamp="2011-05-09T19:51:32Z" uid="30632" user="antblant" changeset="8096240" lat="50.4776055" lon="16.6707958">
    <tag k="name" v="Ławica"/>
    <tag k="railway" v="station"/>
    <tag k="wikipedia" v="pl:Ławica_(stacja_kolejowa)"/>
  </node>
  <node id="746756710" version="3" timestamp="2012-07-10T16:03:46Z" uid="94114" user="Jaszczur" changeset="12175464" lat="50.8283157" lon="17.046767">
    <tag k="name" v="Warkocz"/>
    <tag k="railway" v="station"/>
    <tag k="wikipedia" v="pl:Warkocz_(przystanek_kolejowy)"/>
  </node>
</osm>
