<?xml version='1.0' encoding='UTF-8'?>
<osm version="0.6" generator="libosmium/2.20.0">
  <node id="747000171" version="3" timestamp="2010-06-22T02:06:26Z" uid="20587" user="balrog-kun" changeset="5047946" lat="14.5812839" lon="121.0600476">
    <tag k="amenity" v="bank"/>
    <tag k="atm" v="yes"/>
    <tag k="branch" v="San Miguel"/>
    <tag k="name" v="ExportBank"/>
  </node>
  <node id="747000176" version="3" timestamp="2010-06-22T02:06:26Z" uid="20587" user="balrog-kun" changeset="5047946" lat="14.58118" lon="121.0599457">
    <tag k="amenity" v="bank"/>
    <tag k="atm" v="yes"/>
    <tag k="branch" v="San Miguel"/>
    <tag k="name" v="Maybank"/>
  </node>
  <node id="747000181" version="3" timestamp="2010-06-22T02:06:26Z" uid="20587" user="balrog-kun" changeset="5047946" lat="14.5814033" lon="121.060112">
    <tag k="name" v="Ministop"/>
    <tag k="opening_hours" v="24/7"/>
    <tag k="shop" v="convenience"/>
  </node>
  <node id="747000194" version="3" timestamp="2010-06-22T02:06:26Z" uid="20587" user="balrog-kun" changeset="5047946" lat="14.5804532" lon="121.0593341">
    <tag k="amenity" v="bank"/>
    <tag k="atm" v="yes"/>
    <tag k="branch" v="San Miguel"/>
    <tag k="name" v="EastWest Bank"/>
  </node>
  <node id="747000279" version="3" timestamp="2010-06-22T02:06:26Z" uid="20587" user="balrog-kun" changeset="5047946" lat="14.5809879" lon="121.0597526">
    <tag k="amenity" v="bank"/>
    <tag k="atm" v="yes"/>
    <tag k="branch" v="San Miguel"/>
    <tag k="name" v="PSBank"/>
  </node>
  <node id="747006521" version="2" timestamp="2010-09-02T21:53:05Z" uid="6975" user="ulfl" changeset="5666511" lat="36.0891617" lon="72.5464571">
    <tag k="ele" v="3730"/>
    <tag k="mountain_pass" v="yes"/>
    <tag k="name" v="Shandur Pass"/>
    <tag k="wikipedia" v="http://de.wikipedia.org/wiki/Shandur-Pass"/>
  </node>
  <node id="747006844" version="2" timestamp="2010-07-28T21:02:59Z" uid="74617" user="JohnSmith" changeset="5342181" lat="51.5751451" lon="0.1899321">
    <tag k="emergency" v="ambulance_station"/>
    <tag k="source" v="os_street_view"/>
  </node>
  <node id="747006521" version="3" timestamp="2012-07-20T14:11:04Z" uid="722137" user="OSMF Redaction Account" changeset="12379070" lat="36.0891617" lon="72.5464571">
    <tag k="ele" v="3730"/>
    <tag k="mountain_pass" v="yes"/>
    <tag k="name" v="Shandur Pass"/>
  </node>
  <node id="747006844" version="3" timestamp="2012-07-13T18:02:12Z" uid="722137" user="OSMF Redaction Account" changeset="12209432" lat="51.5751451" lon="0.1899321">
    <tag k="amenity" v="ambulance_station"/>
    <tag k="source" v="os_street_view"/>
  </node>
</osm>
