<?xml version='1.0' encoding='UTF-8'?>
<osm version="0.6" generator="libosmium/2.20.0">
  <node id="749768752" version="1" timestamp="2010-05-26T18:42:21Z" uid="6975" user="ulfl" changeset="4815615" lat="49.4396421" lon="11.0866564">
    <tag k="addr:city" v="Nürnberg"/>
    <tag k="addr:country" v="DE"/>
    <tag k="addr:housenumber" v="4"/>
    <tag k="addr:postcode" v="90459"/>
    <tag k="addr:street" v="Dovestraße"/>
  </node>
  <node id="749768752" version="2" timestamp="2011-12-11T09:16:10Z" uid="71557" user="Taroc" changeset="10087510" lat="49.4396421" lon="11.0866564"/>
  <node id="749768756" version="1" timestamp="2010-05-26T18:42:22Z" uid="6975" user="ulfl" changeset="4815615" lat="49.4387682" lon="11.0871313">
    <tag k="addr:city" v="Nürnberg"/>
    <tag k="addr:country" v="DE"/>
    <tag k="addr:housenumber" v="18"/>
    <tag k="addr:postcode" v="90459"/>
    <tag k="addr:street" v="Dovestraße"/>
  </node>
  <node id="749768756" version="2" timestamp="2011-12-11T09:16:08Z" uid="71557" user="Taroc" changeset="10087510" lat="49.4387682" lon="11.0871313"/>
</osm>
