<?xml version='1.0' encoding='UTF-8'?>
<osm version="0.6" generator="libosmium/2.20.0">
  <node id="75629672" version="3" timestamp="2008-02-16T20:15:48Z" uid="6975" user="ulfl" changeset="141861" lat="43.3759747" lon="-3.6781198">
    <tag k="amenity" v="hospital"/>
    <tag k="is_in" v="Barrio La Iglesia"/>
    <tag k="name" v="Consultorio Médico"/>
    <tag k="place_numbers" v="21"/>
  </node>
  <node id="75629672" version="4" timestamp="2009-11-01T16:36:19Z" uid="26599" user="cdavila" changeset="3008157" lat="43.3759747" lon="-3.6781198">
    <tag k="amenity" v="hospital"/>
    <tag k="is_in" v="Barrio La Iglesia;Entrambasaguas;Santander;Cantabria;España;Europe"/>
    <tag k="is_in:city" v="Entrambasaguas"/>
    <tag k="is_in:continent" v="Europe"/>
    <tag k="is_in:country" v="España"/>
    <tag k="is_in:province" v="Santander"/>
    <tag k="is_in:region" v="Cantabria"/>
    <tag k="name" v="Consultorio Médico"/>
    <tag k="place_numbers" v="21"/>
  </node>
  <node id="75629672" version="5" timestamp="2009-11-19T20:15:36Z" uid="26599" user="cdavila" changeset="3163522" lat="43.3759747" lon="-3.6781198">
    <tag k="amenity" v="hospital"/>
    <tag k="is_in" v="Barrio La Iglesia;Entrambasaguas;Santander;Cantabria;España;Europe"/>
    <tag k="is_in:city" v="Entrambasaguas"/>
    <tag k="is_in:continent" v="Europe"/>
    <tag k="is_in:country" v="España"/>
    <tag k="is_in:province" v="Cantabria"/>
    <tag k="is_in:region" v="Cantabria"/>
    <tag k="name" v="Consultorio Médico"/>
    <tag k="place_numbers" v="21"/>
  </node>
  <node id="75629672" version="6" timestamp="2009-11-19T22:20:43Z" uid="26599" user="cdavila" changeset="3164763" lat="43.3759747" lon="-3.6781198">
    <tag k="amenity" v="hospital"/>
    <tag k="is_in" v="Barrio La Iglesia;Entrambasaguas;Cantabria;Cantabria;España;Europe"/>
    <tag k="is_in:continent" v="Europe"/>
    <tag k="is_in:country" v="España"/>
    <tag k="is_in:municipality" v="Entrambasaguas"/>
    <tag k="is_in:province" v="Cantabria"/>
    <tag k="is_in:region" v="Cantabria"/>
    <tag k="name" v="Consultorio Médico"/>
    <tag k="place_numbers" v="21"/>
  </node>
  <node id="75629672" version="7" timestamp="2009-11-23T11:48:16Z" uid="6389" user="Jesús Gómez" changeset="3194835" lat="43.375994" lon="-3.6781005">
    <tag k="amenity" v="hospital"/>
    <tag k="is_in" v="Barrio La Iglesia;Entrambasaguas;Cantabria;Cantabria;España;Europe"/>
    <tag k="is_in:continent" v="Europe"/>
    <tag k="is_in:country" v="España"/>
    <tag k="is_in:municipality" v="Entrambasaguas"/>
    <tag k="is_in:province" v="Cantabria"/>
    <tag k="is_in:region" v="Cantabria"/>
    <tag k="name" v="Consultorio Médico"/>
    <tag k="place_numbers" v="21"/>
  </node>
  <node id="75629672" version="8" timestamp="2010-10-31T20:21:54Z" uid="103253" user="gormur" changeset="6245936" lat="43.375994" lon="-3.6781005">
    <tag k="addr:housenumber" v="21"/>
    <tag k="amenity" v="hospital"/>
    <tag k="is_in" v="Barrio La Iglesia;Entrambasaguas;Cantabria"/>
    <tag k="is_in:municipality" v="Entrambasaguas"/>
    <tag k="is_in:province" v="Cantabria"/>
    <tag k="is_in:region" v="Cantabria"/>
    <tag k="name" v="Consultorio Médico"/>
  </node>
  <node id="75629672" version="9" timestamp="2011-02-15T08:42:22Z" uid="6389" user="Jesús Gómez" changeset="7292775" lat="43.375994" lon="-3.6781005">
    <tag k="addr:city" v="Entrambasaguas"/>
    <tag k="addr:country" v="ES"/>
    <tag k="addr:housenumber" v="21"/>
    <tag k="addr:postcode" v="39715"/>
    <tag k="addr:street" v="Barrio La Iglesia"/>
    <tag k="amenity" v="hospital"/>
    <tag k="is_in" v="Barrio La Iglesia;Entrambasaguas;Cantabria"/>
    <tag k="is_in:municipality" v="Entrambasaguas"/>
    <tag k="is_in:province" v="Cantabria"/>
    <tag k="is_in:region" v="Cantabria"/>
    <tag k="name" v="Consultorio Médico"/>
  </node>
</osm>
