<?xml version='1.0' encoding='UTF-8'?>
<osm version="0.6" generator="libosmium/2.20.0">
  <node id="757216149" version="3" timestamp="2011-01-25T10:56:41Z" uid="115477" user="wowik" changeset="7082367" lat="55.8662276" lon="37.4419438">
    <tag k="addr:housenumber" v="89 к5"/>
    <tag k="addr:street" v="улица Свободы"/>
    <tag k="amenity" v="police"/>
    <tag k="name" v="Общественный  пункт охраны порядка №8 ОВД района Северное Тушино"/>
  </node>
  <node id="757216149" version="4" timestamp="2011-02-06T17:20:40Z" uid="206282" user="Amigo" changeset="7206539" lat="55.8662453" lon="37.4419667">
    <tag k="addr:housenumber" v="89 к5"/>
    <tag k="addr:street" v="улица Свободы"/>
    <tag k="amenity" v="police"/>
    <tag k="name" v="Общественный  пункт охраны порядка №8 ОВД района Северное Тушино"/>
  </node>
  <node id="757216149" version="5" timestamp="2012-03-28T06:27:39Z" uid="481934" user="iWowik" changeset="11123401" lat="55.8662453" lon="37.4419667">
    <tag k="addr:city" v="Москва"/>
    <tag k="addr:country" v="RU"/>
    <tag k="addr:housenumber" v="89 к5"/>
    <tag k="addr:street" v="улица Свободы"/>
    <tag k="amenity" v="police"/>
    <tag k="name" v="Общественный  пункт охраны порядка №8 ОВД района Северное Тушино"/>
  </node>
  <node id="757218596" version="2" timestamp="2011-03-17T17:54:28Z" uid="9581" user="Lobelt" changeset="7587859" lat="37.8144673" lon="140.9127597"/>
  <node id="757216149" version="6" timestamp="2012-08-12T13:12:25Z" uid="206282" user="Amigo" changeset="12701521" lat="55.8662378" lon="37.4419211">
    <tag k="addr:city" v="Москва"/>
    <tag k="addr:country" v="RU"/>
    <tag k="addr:housenumber" v="89 к5"/>
    <tag k="addr:street" v="улица Свободы"/>
    <tag k="amenity" v="police"/>
    <tag k="name" v="Общественный  пункт охраны порядка №8 ОВД района Северное Тушино"/>
  </node>
  <node id="757218596" version="3" timestamp="2012-07-21T12:07:08Z" uid="722137" user="OSMF Redaction Account" changeset="12408007" lat="37.814295" lon="140.91291"/>
</osm>
