<?xml version='1.0' encoding='UTF-8'?>
<osm version="0.6" generator="libosmium/2.20.0">
  <node id="761999107" version="2" timestamp="2010-06-02T19:55:31Z" uid="163746" user="anti_bot-nonsense" changeset="4887233" lat="47.9181666" lon="12.292927">
    <tag k="amenity" v="parking"/>
  </node>
  <node id="761999108" version="2" timestamp="2010-06-02T19:55:32Z" uid="163746" user="anti_bot-nonsense" changeset="4887233" lat="47.9179365" lon="12.2950792">
    <tag k="name" v="Norma"/>
    <tag k="shop" v="supermarket"/>
  </node>
  <node id="761999109" version="2" timestamp="2010-06-02T19:54:54Z" uid="163746" user="anti_bot-nonsense" changeset="4887233" lat="47.9177639" lon="12.2949011">
    <tag k="amenity" v="parking"/>
  </node>
  <node id="761999111" version="2" timestamp="2010-06-02T19:55:19Z" uid="163746" user="anti_bot-nonsense" changeset="4887233" lat="47.9175051" lon="12.2948089">
    <tag k="amenity" v="fast_food"/>
    <tag k="name" v="Grillalm Marcher"/>
  </node>
  <node id="761999114" version="2" timestamp="2010-06-02T19:55:35Z" uid="163746" user="anti_bot-nonsense" changeset="4887233" lat="47.9026474" lon="12.3051944">
    <tag k="name" v="EDEKA"/>
    <tag k="shop" v="supermarket"/>
  </node>
  <node id="761999117" version="2" timestamp="2010-06-02T19:55:21Z" uid="163746" user="anti_bot-nonsense" changeset="4887233" lat="47.9097675" lon="12.2976971">
    <tag k="amenity" v="restaurant"/>
    <tag k="name" v="Mediteran"/>
  </node>
  <node id="761999118" version="2" timestamp="2010-06-02T19:55:32Z" uid="163746" user="anti_bot-nonsense" changeset="4887233" lat="47.9168148" lon="12.2935772">
    <tag k="name" v="NETTO"/>
    <tag k="shop" v="supermarket"/>
  </node>
  <node id="761999119" version="2" timestamp="2010-06-02T19:55:36Z" uid="163746" user="anti_bot-nonsense" changeset="4887233" lat="47.9166422" lon="12.2934849">
    <tag k="amenity" v="parking"/>
  </node>
  <node id="761999120" version="2" timestamp="2010-06-02T19:55:06Z" uid="163746" user="anti_bot-nonsense" changeset="4887233" lat="47.9183392" lon="12.2929335">
    <tag k="name" v="Penny"/>
    <tag k="shop" v="supermarket"/>
  </node>
  <node id="761999121" version="2" timestamp="2010-06-02T19:55:18Z" uid="163746" user="anti_bot-nonsense" changeset="4887233" lat="47.9064018" lon="12.2996046">
    <tag k="amenity" v="cafe"/>
    <tag k="name" v="Goodies Cafe"/>
  </node>
  <node id="761999122" version="2" timestamp="2010-06-02T19:55:19Z" uid="163746" user="anti_bot-nonsense" changeset="4887233" lat="47.9068621" lon="12.2993278">
    <tag k="amenity" v="restaurant"/>
    <tag k="name" v="Gasthof WeissbrÃ¤u"/>
  </node>
  <node id="761999123" version="2" timestamp="2010-06-02T19:55:34Z" uid="163746" user="anti_bot-nonsense" changeset="4887233" lat="47.9049058" lon="12.3021173">
    <tag k="railway" v="station"/>
  </node>
  <node id="761999124" version="2" timestamp="2010-06-02T19:55:35Z" uid="163746" user="anti_bot-nonsense" changeset="4887233" lat="47.9061717" lon="12.2933562">
    <tag k="amenity" v="recycling"/>
    <tag k="name" v="Wertstoffhof"/>
  </node>
  <node id="761999125" version="2" timestamp="2010-06-02T19:55:06Z" uid="163746" user="anti_bot-nonsense" changeset="4887233" lat="47.9049921" lon="12.3033426">
    <tag k="amenity" v="pharmacy"/>
    <tag k="name" v="St. Jokobsapotheke"/>
  </node>
  <node id="761999126" version="2" timestamp="2010-06-02T19:55:07Z" uid="163746" user="anti_bot-nonsense" changeset="4887233" lat="47.9076388" lon="12.2982979">
    <tag k="amenity" v="school"/>
    <tag k="key" v="Grundschule"/>
  </node>
  <node id="761999127" version="2" timestamp="2010-06-02T19:55:20Z" uid="163746" user="anti_bot-nonsense" changeset="4887233" lat="47.9120113" lon="12.2934484">
    <tag k="amenity" v="school"/>
    <tag k="name" v="Hauptschule"/>
  </node>
  <node id="761999128" version="2" timestamp="2010-06-02T19:55:31Z" uid="163746" user="anti_bot-nonsense" changeset="4887233" lat="47.9011082" lon="12.2995424">
    <tag k="amenity" v="restaurant"/>
    <tag k="name" v="Cucina S"/>
  </node>
  <node id="761999129" version="2" timestamp="2010-06-02T14:24:39Z" uid="163746" user="anti_bot-nonsense" changeset="4884658" lat="47.8996984" lon="12.3014736">
    <tag k="amenity" v="restaurant"/>
    <tag k="name" v="Fohlenhof"/>
  </node>
  <node id="761999129" version="3" timestamp="2010-06-02T14:25:17Z" uid="163746" user="anti_bot-nonsense" changeset="4884664" lat="47.8996984" lon="12.3014736">
    <tag k="amenity" v="restaurant"/>
    <tag k="name" v="Fohlenhof"/>
  </node>
  <node id="761999130" version="2" timestamp="2010-06-02T19:55:36Z" uid="163746" user="anti_bot-nonsense" changeset="4887233" lat="47.9074374" lon="12.3015959">
    <tag k="amenity" v="pub"/>
    <tag k="name" v="Holzwurm"/>
  </node>
  <node id="761999131" version="2" timestamp="2010-06-02T19:55:07Z" uid="163746" user="anti_bot-nonsense" changeset="4887233" lat="47.9004033" lon="12.2917619">
    <tag k="name" v="Kurfer Hof"/>
    <tag k="tourism" v="hotel"/>
  </node>
  <node id="761999132" version="2" timestamp="2010-06-02T19:55:19Z" uid="163746" user="anti_bot-nonsense" changeset="4887233" lat="47.9039708" lon="12.3043361">
    <tag k="name" v="REWE Supermarkt"/>
    <tag k="shop" v="supermarket"/>
  </node>
  <node id="761999133" version="2" timestamp="2010-06-02T19:55:32Z" uid="163746" user="anti_bot-nonsense" changeset="4887233" lat="47.8959867" lon="12.3107004">
    <tag k="name" v="EDEKA"/>
    <tag k="shop" v="supermarket"/>
  </node>
  <node id="761999134" version="2" timestamp="2010-06-02T19:55:34Z" uid="163746" user="anti_bot-nonsense" changeset="4887233" lat="47.9046181" lon="12.3025529">
    <tag k="amenity" v="taxi"/>
  </node>
</osm>
