<?xml version='1.0' encoding='UTF-8'?>
<osm version="0.6" generator="libosmium/2.20.0">
  <node id="774821860" version="1" timestamp="2010-06-17T14:05:27Z" uid="43967" user="railsnail" changeset="5009096" lat="44.7075811" lon="7.6921953">
    <tag k="name" v="Cavallermaggiore"/>
    <tag k="railway" v="station"/>
  </node>
  <node id="774821860" version="2" timestamp="2011-07-15T10:43:39Z" uid="12473" user="mikelima" changeset="8729974" lat="44.7075811" lon="7.6921953">
    <tag k="name" v="Cavallermaggiore"/>
    <tag k="operator" v="RFI"/>
    <tag k="railway" v="station"/>
  </node>
  <node id="774821860" version="3" timestamp="2011-11-13T11:06:48Z" uid="12473" user="mikelima" changeset="9812415" lat="44.708177" lon="7.6920352">
    <tag k="name" v="Cavallermaggiore"/>
    <tag k="operator" v="RFI"/>
    <tag k="railway" v="station"/>
  </node>
  <node id="774823641" version="4" timestamp="2010-08-07T15:40:08Z" uid="20587" user="balrog-kun" changeset="5425441" lat="41.9844637" lon="2.8257105">
    <tag k="amenity" v="pub"/>
    <tag k="name" v="Irish Cafe Bar"/>
  </node>
  <node id="774825013" version="1" timestamp="2010-06-17T14:07:23Z" uid="43967" user="railsnail" changeset="5009109" lat="44.4962065" lon="7.5912">
    <tag k="name" v="Centallo"/>
    <tag k="railway" v="station"/>
  </node>
  <node id="774825013" version="2" timestamp="2011-11-19T23:49:53Z" uid="12473" user="mikelima" changeset="9879040" lat="44.4962269" lon="7.5911873">
    <tag k="name" v="Centallo"/>
    <tag k="operator" v="RFI"/>
    <tag k="railway" v="station"/>
  </node>
  <node id="774825013" version="3" timestamp="2011-12-28T19:38:30Z" uid="91490" user="Heinz_V" changeset="10229515" lat="44.4962269" lon="7.5911873"/>
  <node id="774821860" version="4" timestamp="2012-07-16T04:44:35Z" uid="722137" user="OSMF Redaction Account" changeset="12239450" lat="44.708177" lon="7.6920352">
    <tag k="operator" v="RFI"/>
  </node>
</osm>
