<?xml version='1.0' encoding='UTF-8'?>
<osm version="0.6" generator="libosmium/2.20.0">
  <node id="778441495" version="1" timestamp="2010-06-20T17:50:46Z" uid="33382" user="de_muur" changeset="5035389" lat="52.9230379" lon="9.2260159">
    <tag k="direction_northeast" v="Bahnhof 1.2km"/>
    <tag k="direction_southeast" v="Hoya 19km; Aller-Radweg 0.4km"/>
    <tag k="direction_southwest" v="Achim 19km; Dauelsen 2.8km"/>
    <tag k="information" v="guidepost"/>
    <tag k="network" v="lcn"/>
    <tag k="operator" v="Landkreis Verden"/>
    <tag k="route" v="bicycle"/>
    <tag k="tourism" v="information"/>
  </node>
  <node id="778441500" version="1" timestamp="2010-06-20T17:50:46Z" uid="33382" user="de_muur" changeset="5035389" lat="52.926072" lon="9.2268904">
    <tag k="name" v="Expert Bening"/>
    <tag k="shop" v="electronics"/>
  </node>
  <node id="778441500" version="2" timestamp="2011-04-11T15:44:13Z" uid="431336" user="bison166" changeset="7834302" lat="52.9260319" lon="9.2275068">
    <tag k="name" v="Expert Bening"/>
    <tag k="shop" v="hifi"/>
  </node>
  <node id="778441500" version="3" timestamp="2011-04-12T10:49:04Z" uid="431336" user="bison166" changeset="7841381" lat="52.9260319" lon="9.2275068">
    <tag k="name" v="Expert Bening"/>
    <tag k="shop" v="hifi"/>
  </node>
  <node id="778441495" version="2" timestamp="2012-07-18T14:31:58Z" uid="722137" user="OSMF Redaction Account" changeset="12285138" lat="52.9230379" lon="9.2260159"/>
</osm>
