<?xml version='1.0' encoding='UTF-8'?>
<osm version="0.6" generator="libosmium/2.20.0">
  <node id="784174432" version="1" timestamp="2010-06-23T13:14:12Z" uid="20587" user="balrog-kun" changeset="5058760" lat="52.1416237" lon="21.062267">
    <tag k="name" v="Decorador"/>
    <tag k="shop" v="furniture"/>
  </node>
  <node id="784174457" version="1" timestamp="2010-06-23T13:14:13Z" uid="20587" user="balrog-kun" changeset="5058760" lat="52.1431651" lon="21.0670832">
    <tag k="amenity" v="dentist"/>
  </node>
  <node id="784174466" version="1" timestamp="2010-06-23T13:14:13Z" uid="20587" user="balrog-kun" changeset="5058760" lat="52.2381758" lon="21.0978287">
    <tag k="amenity" v="dentist"/>
    <tag k="name" v="Maxilla"/>
  </node>
  <node id="784174478" version="1" timestamp="2010-06-23T13:14:13Z" uid="20587" user="balrog-kun" changeset="5058760" lat="52.1419561" lon="21.0638341">
    <tag k="traffic_calming" v="hump"/>
  </node>
  <node id="784174487" version="1" timestamp="2010-06-23T13:14:13Z" uid="20587" user="balrog-kun" changeset="5058760" lat="52.1424883" lon="21.0673186">
    <tag k="amenity" v="dentist"/>
  </node>
  <node id="784174490" version="1" timestamp="2010-06-23T13:14:13Z" uid="20587" user="balrog-kun" changeset="5058760" lat="52.1405505" lon="21.0592069">
    <tag k="amenity" v="pharmacy"/>
    <tag k="name" v="Superpharm"/>
  </node>
  <node id="784174490" version="2" timestamp="2011-04-30T23:20:46Z" uid="100448" user="kietlak" changeset="8016847" lat="52.1404642" lon="21.0588085">
    <tag k="amenity" v="pharmacy"/>
    <tag k="name" v="Superpharm"/>
    <tag k="opening_hours" v="Mo-Fr 07:00-21:00; Sa 08:00-21:00; Su 10:00-18:00"/>
  </node>
  <node id="784174512" version="1" timestamp="2010-06-23T13:14:14Z" uid="20587" user="balrog-kun" changeset="5058760" lat="52.1421995" lon="21.0648892">
    <tag k="amenity" v="restaurant"/>
    <tag k="name" v="Belgrad"/>
  </node>
  <node id="784174523" version="1" timestamp="2010-06-23T13:14:14Z" uid="20587" user="balrog-kun" changeset="5058760" lat="52.138748" lon="21.0518625">
    <tag k="amenity" v="pharmacy"/>
    <tag k="name" v="Dbam o Zdrowie"/>
    <tag k="note" v="TODO"/>
  </node>
  <node id="784174747" version="2" timestamp="2010-06-29T19:01:59Z" uid="74617" user="JohnSmith" changeset="5108182" lat="45.2802746" lon="5.8780659">
    <tag k="fixme" v="sport=football is ambiguous, see http://wiki.osm.org/wiki/Football for more details"/>
    <tag k="leisure" v="pitch"/>
    <tag k="sport" v="football"/>
    <tag k="surface" v="grass"/>
  </node>
  <node id="784174747" version="3" timestamp="2010-07-23T09:10:29Z" uid="148831" user="chimel38" changeset="5293852" lat="45.2802746" lon="5.8780659">
    <tag k="fixme" v="sport=football is ambiguous, see http://wiki.osm.org/wiki/Football for more details"/>
    <tag k="leisure" v="pitch"/>
    <tag k="sport" v="football"/>
    <tag k="surface" v="grass"/>
  </node>
  <node id="784174855" version="2" timestamp="2010-06-29T19:00:44Z" uid="74617" user="JohnSmith" changeset="5108182" lat="45.2796103" lon="5.8768643">
    <tag k="fixme" v="sport=football is ambiguous, see http://wiki.osm.org/wiki/Football for more details"/>
    <tag k="leisure" v="pitch"/>
    <tag k="sport" v="football"/>
  </node>
  <node id="784174855" version="3" timestamp="2010-07-23T09:10:29Z" uid="148831" user="chimel38" changeset="5293852" lat="45.2796103" lon="5.8768643">
    <tag k="fixme" v="sport=football is ambiguous, see http://wiki.osm.org/wiki/Football for more details"/>
    <tag k="leisure" v="pitch"/>
    <tag k="sport" v="football"/>
  </node>
  <node id="784174954" version="2" timestamp="2010-06-29T19:01:03Z" uid="74617" user="JohnSmith" changeset="5108182" lat="45.2785836" lon="5.8775295">
    <tag k="fixme" v="sport=football is ambiguous, see http://wiki.osm.org/wiki/Football for more details"/>
    <tag k="leisure" v="pitch"/>
    <tag k="sport" v="football"/>
  </node>
  <node id="784174954" version="3" timestamp="2012-03-12T23:02:30Z" uid="626343" user="Zopieux" changeset="10961746" lat="45.2785836" lon="5.8775295"/>
  <node id="784175036" version="3" timestamp="2010-06-29T19:01:39Z" uid="74617" user="JohnSmith" changeset="5108182" lat="45.2793083" lon="5.8785809">
    <tag k="fixme" v="sport=football is ambiguous, see http://wiki.osm.org/wiki/Football for more details"/>
    <tag k="leisure" v="playground"/>
    <tag k="name" v="Agorespace"/>
    <tag k="sport" v="football"/>
  </node>
  <node id="784175036" version="4" timestamp="2012-03-12T23:02:27Z" uid="626343" user="Zopieux" changeset="10961746" lat="45.2793083" lon="5.8785809"/>
  <node id="784174466" version="2" timestamp="2012-09-06T19:50:13Z" uid="842685" user="ancymon" changeset="13014768" lat="52.2381758" lon="21.0978287">
    <tag k="addr:housenumber" v="8"/>
    <tag k="addr:street" v="Mlądzka"/>
    <tag k="amenity" v="dentist"/>
    <tag k="name" v="Maxilla"/>
  </node>
  <node id="784174512" version="2" timestamp="2012-05-26T15:36:37Z" uid="688496" user="Michał Paluchowski" changeset="11707513" lat="52.1421995" lon="21.0648892">
    <tag k="amenity" v="restaurant"/>
    <tag k="name" v="Mały Belgrad"/>
  </node>
  <node id="784174523" version="2" timestamp="2012-05-08T10:57:52Z" uid="1722" user="Halibutt" changeset="11537665" lat="52.1388245" lon="21.0517769">
    <tag k="amenity" v="pharmacy"/>
    <tag k="name" v="Dbam o Zdrowie"/>
    <tag k="note" v="TODO"/>
  </node>
</osm>
