<?xml version='1.0' encoding='UTF-8'?>
<osm version="0.6" generator="libosmium/2.20.0">
  <node id="78538400" version="2" timestamp="2008-09-30T10:40:01Z" uid="1066" user="pavel" changeset="720911" lat="49.796311" lon="12.6342224">
    <tag k="is_in" v="Czech Republic, Europe"/>
    <tag k="name" v="Tachov"/>
    <tag k="place" v="town"/>
  </node>
  <node id="78538400" version="3" timestamp="2008-11-04T13:06:33Z" uid="308" user="MichaelCollinson" changeset="676656" lat="49.796311" lon="12.6342224">
    <tag k="is_in" v="Czech Republic, Europe"/>
    <tag k="is_in:continent" v="Europe"/>
    <tag k="is_in:country_code" v="cz"/>
    <tag k="name" v="Tachov"/>
    <tag k="place" v="town"/>
  </node>
  <node id="78538400" version="4" timestamp="2010-10-23T19:13:03Z" uid="127170" user="Ilis" changeset="6150621" lat="49.796311" lon="12.6342224">
    <tag k="is_in" v="Czech Republic, Europe"/>
    <tag k="is_in:continent" v="Europe"/>
    <tag k="is_in:country_code" v="cz"/>
    <tag k="name" v="Tachov"/>
    <tag k="name:ru" v="Тахов"/>
    <tag k="place" v="town"/>
  </node>
  <node id="78538400" version="5" timestamp="2011-10-19T13:45:00Z" uid="102554" user="Jezevec" changeset="9599953" lat="49.796311" lon="12.6342224">
    <tag k="is_in" v="Czech Republic, Europe"/>
    <tag k="is_in:continent" v="Europe"/>
    <tag k="is_in:country_code" v="cz"/>
    <tag k="lau1" v="CZ0327"/>
    <tag k="lau2" v="560715"/>
    <tag k="name" v="Tachov"/>
    <tag k="name:ru" v="Тахов"/>
    <tag k="place" v="town"/>
    <tag k="population" v="12418"/>
  </node>
  <node id="78538400" version="6" timestamp="2012-01-24T09:47:21Z" uid="229590" user="xificurk" changeset="10482791" lat="49.796311" lon="12.6342224"/>
</osm>
