<?xml version='1.0' encoding='UTF-8'?>
<osm version="0.6" generator="libosmium/2.20.0">
  <node id="78859304" version="2" timestamp="2008-09-29T23:56:50Z" uid="1066" user="pavel" changeset="720263" lat="50.5047346" lon="13.6775793">
    <tag k="is_in" v="Czech Republic, Europe"/>
    <tag k="name" v="Chánov"/>
    <tag k="place" v="village"/>
  </node>
  <node id="78859304" version="3" timestamp="2008-11-04T13:06:12Z" uid="308" user="MichaelCollinson" changeset="676656" lat="50.5047346" lon="13.6775793">
    <tag k="is_in" v="Czech Republic, Europe"/>
    <tag k="is_in:continent" v="Europe"/>
    <tag k="is_in:country_code" v="cz"/>
    <tag k="name" v="Chánov"/>
    <tag k="place" v="village"/>
  </node>
  <node id="78859304" version="4" timestamp="2012-01-27T23:37:46Z" uid="229590" user="xificurk" changeset="10517466" lat="50.5047346" lon="13.6775793"/>
  <node id="78859305" version="2" timestamp="2008-09-29T23:18:19Z" uid="1066" user="pavel" changeset="720263" lat="50.5038588" lon="13.6962749">
    <tag k="is_in" v="Czech Republic, Europe"/>
    <tag k="name" v="Obrnice"/>
    <tag k="place" v="village"/>
  </node>
  <node id="78859305" version="3" timestamp="2008-11-04T13:06:12Z" uid="308" user="MichaelCollinson" changeset="676656" lat="50.5038588" lon="13.6962749">
    <tag k="is_in" v="Czech Republic, Europe"/>
    <tag k="is_in:continent" v="Europe"/>
    <tag k="is_in:country_code" v="cz"/>
    <tag k="name" v="Obrnice"/>
    <tag k="place" v="village"/>
  </node>
  <node id="78859305" version="4" timestamp="2012-01-20T02:00:12Z" uid="536216" user="uir-zsj" changeset="10442865" lat="50.5038588" lon="13.6962749"/>
  <node id="78859307" version="2" timestamp="2008-09-30T00:02:42Z" uid="1066" user="pavel" changeset="720263" lat="50.5196821" lon="13.7465204">
    <tag k="is_in" v="Czech Republic, Europe"/>
    <tag k="name" v="Liběšice"/>
    <tag k="place" v="village"/>
  </node>
  <node id="78859307" version="3" timestamp="2008-11-04T13:06:13Z" uid="308" user="MichaelCollinson" changeset="676656" lat="50.5196821" lon="13.7465204">
    <tag k="is_in" v="Czech Republic, Europe"/>
    <tag k="is_in:continent" v="Europe"/>
    <tag k="is_in:country_code" v="cz"/>
    <tag k="name" v="Liběšice"/>
    <tag k="place" v="village"/>
  </node>
  <node id="78859307" version="4" timestamp="2012-01-20T02:00:12Z" uid="536216" user="uir-zsj" changeset="10442865" lat="50.5196821" lon="13.7465204"/>
  <node id="78859308" version="2" timestamp="2008-09-29T23:38:35Z" uid="1066" user="pavel" changeset="720263" lat="50.5272465" lon="13.7274729">
    <tag k="is_in" v="Czech Republic, Europe"/>
    <tag k="name" v="Želenice"/>
    <tag k="place" v="village"/>
  </node>
  <node id="78859308" version="3" timestamp="2008-11-04T13:06:12Z" uid="308" user="MichaelCollinson" changeset="676656" lat="50.5272465" lon="13.7274729">
    <tag k="is_in" v="Czech Republic, Europe"/>
    <tag k="is_in:continent" v="Europe"/>
    <tag k="is_in:country_code" v="cz"/>
    <tag k="name" v="Želenice"/>
    <tag k="place" v="village"/>
  </node>
  <node id="78859308" version="4" timestamp="2012-01-20T02:00:12Z" uid="536216" user="uir-zsj" changeset="10442865" lat="50.5272465" lon="13.7274729"/>
  <node id="78859309" version="2" timestamp="2008-09-29T23:23:33Z" uid="1066" user="pavel" changeset="720263" lat="50.5129445" lon="13.6994619">
    <tag k="is_in" v="Czech Republic, Europe"/>
    <tag k="name" v="České Zlatníky"/>
    <tag k="place" v="village"/>
  </node>
  <node id="78859309" version="3" timestamp="2008-11-04T13:06:12Z" uid="308" user="MichaelCollinson" changeset="676656" lat="50.5129445" lon="13.6994619">
    <tag k="is_in" v="Czech Republic, Europe"/>
    <tag k="is_in:continent" v="Europe"/>
    <tag k="is_in:country_code" v="cz"/>
    <tag k="name" v="České Zlatníky"/>
    <tag k="place" v="village"/>
  </node>
  <node id="78859309" version="4" timestamp="2012-01-20T02:00:12Z" uid="536216" user="uir-zsj" changeset="10442865" lat="50.5129445" lon="13.6994619"/>
</osm>
