<?xml version='1.0' encoding='UTF-8'?>
<osm version="0.6" generator="libosmium/2.20.0">
  <node id="791811290" version="2" timestamp="2010-11-28T13:23:58Z" uid="9581" user="Lobelt" changeset="6478107" lat="49.5620008" lon="8.6914865"/>
  <node id="791811293" version="2" timestamp="2010-11-28T13:23:57Z" uid="9581" user="Lobelt" changeset="6478107" lat="49.5627991" lon="8.69147"/>
  <node id="791811294" version="2" timestamp="2010-11-28T13:23:52Z" uid="9581" user="Lobelt" changeset="6478107" lat="49.5627838" lon="8.6906321"/>
  <node id="791811296" version="2" timestamp="2010-11-28T13:23:45Z" uid="9581" user="Lobelt" changeset="6478107" lat="49.5619612" lon="8.6906371"/>
  <node id="791811298" version="2" timestamp="2010-11-28T13:23:51Z" uid="9581" user="Lobelt" changeset="6478107" lat="49.5623985" lon="8.6915206"/>
  <node id="791811300" version="2" timestamp="2010-11-28T13:23:55Z" uid="9581" user="Lobelt" changeset="6478107" lat="49.5625682" lon="8.6916053"/>
  <node id="791811301" version="2" timestamp="2010-11-28T13:23:50Z" uid="9581" user="Lobelt" changeset="6478107" lat="49.5626659" lon="8.6916424"/>
  <node id="791811302" version="2" timestamp="2010-11-28T13:24:04Z" uid="9581" user="Lobelt" changeset="6478107" lat="49.5626533" lon="8.69177"/>
  <node id="791811303" version="2" timestamp="2010-11-28T13:23:54Z" uid="9581" user="Lobelt" changeset="6478107" lat="49.5625378" lon="8.6917457"/>
  <node id="791811305" version="2" timestamp="2010-11-28T13:23:55Z" uid="9581" user="Lobelt" changeset="6478107" lat="49.5623642" lon="8.6916685"/>
  <node id="791811976" version="1" timestamp="2010-06-26T21:24:35Z" uid="49111" user="Markus B" changeset="5084581" lat="49.4577256" lon="11.0924065">
    <tag k="addr:city" v="Nürnberg"/>
    <tag k="addr:country" v="DE"/>
    <tag k="addr:housenumber" v="22"/>
    <tag k="addr:postcode" v="90489"/>
    <tag k="addr:street" v="Sulzbacherstraße"/>
    <tag k="amenity" v="pub"/>
    <tag k="internet_access" v="wlan"/>
    <tag k="minage" v="18"/>
    <tag k="name" v="Veni Vidi Vici"/>
    <tag k="smoking" v="dedicated"/>
  </node>
  <node id="791811976" version="2" timestamp="2010-09-30T20:47:08Z" uid="49111" user="Markus B" changeset="5923459" lat="49.4577256" lon="11.0924065">
    <tag k="addr:city" v="Nürnberg"/>
    <tag k="addr:country" v="DE"/>
    <tag k="addr:housenumber" v="22"/>
    <tag k="addr:postcode" v="90489"/>
    <tag k="addr:street" v="Sulzbacherstraße"/>
    <tag k="amenity" v="pub"/>
    <tag k="internet_access" v="wlan"/>
    <tag k="minage" v="18"/>
    <tag k="name" v="Veni Vidi Vici"/>
    <tag k="smoking" v="no"/>
  </node>
  <node id="791811976" version="3" timestamp="2010-12-19T14:02:33Z" uid="133024" user="Universalmapper" changeset="6706281" lat="49.4577256" lon="11.0924065">
    <tag k="addr:city" v="Nürnberg"/>
    <tag k="addr:country" v="DE"/>
    <tag k="addr:housenumber" v="22"/>
    <tag k="addr:postcode" v="90489"/>
    <tag k="addr:street" v="Sulzbacher Straße"/>
    <tag k="amenity" v="pub"/>
    <tag k="internet_access" v="wlan"/>
    <tag k="minage" v="18"/>
    <tag k="name" v="Veni Vidi Vici"/>
    <tag k="smoking" v="no"/>
  </node>
  <node id="791811976" version="4" timestamp="2011-10-28T21:52:26Z" uid="346758" user="kukuk" changeset="9680603" lat="49.4577618" lon="11.0924012">
    <tag k="addr:city" v="Nürnberg"/>
    <tag k="addr:country" v="DE"/>
    <tag k="addr:housenumber" v="22"/>
    <tag k="addr:postcode" v="90489"/>
    <tag k="addr:street" v="Sulzbacher Straße"/>
    <tag k="amenity" v="pub"/>
    <tag k="internet_access" v="wlan"/>
    <tag k="minage" v="18"/>
    <tag k="name" v="Veni Vidi Vici"/>
    <tag k="smoking" v="no"/>
  </node>
  <node id="791811978" version="1" timestamp="2010-06-26T21:24:35Z" uid="49111" user="Markus B" changeset="5084581" lat="49.4588074" lon="11.0958808"/>
  <node id="791811978" version="2" timestamp="2011-10-23T21:07:34Z" uid="346758" user="kukuk" changeset="9638435" lat="49.4588074" lon="11.0958808"/>
  <node id="791811979" version="1" timestamp="2010-06-26T21:24:35Z" uid="49111" user="Markus B" changeset="5084581" lat="49.4588075" lon="11.0959211"/>
  <node id="791811979" version="2" timestamp="2011-10-23T21:07:34Z" uid="346758" user="kukuk" changeset="9638435" lat="49.4588075" lon="11.0959211"/>
  <node id="791811981" version="1" timestamp="2010-06-26T21:24:35Z" uid="49111" user="Markus B" changeset="5084581" lat="49.4587408" lon="11.0959214"/>
  <node id="791811981" version="2" timestamp="2011-10-23T21:07:34Z" uid="346758" user="kukuk" changeset="9638435" lat="49.4587408" lon="11.0959214"/>
  <node id="791811982" version="1" timestamp="2010-06-26T21:24:35Z" uid="49111" user="Markus B" changeset="5084581" lat="49.4587407" lon="11.0958811"/>
  <node id="791811982" version="2" timestamp="2011-10-23T21:07:34Z" uid="346758" user="kukuk" changeset="9638435" lat="49.4587407" lon="11.0958811"/>
  <node id="791811983" version="1" timestamp="2010-06-26T21:24:35Z" uid="49111" user="Markus B" changeset="5084581" lat="49.4588715" lon="11.0961692"/>
  <node id="791811983" version="2" timestamp="2011-10-23T21:07:33Z" uid="346758" user="kukuk" changeset="9638435" lat="49.4588837" lon="11.0961924"/>
  <node id="791811983" version="3" timestamp="2011-10-24T15:58:57Z" uid="346758" user="kukuk" changeset="9644648" lat="49.4588772" lon="11.0961871"/>
  <node id="791811983" version="4" timestamp="2011-11-21T21:50:05Z" uid="346758" user="kukuk" changeset="9902413" lat="49.4588772" lon="11.0961871"/>
  <node id="791811984" version="1" timestamp="2010-06-26T21:24:35Z" uid="49111" user="Markus B" changeset="5084581" lat="49.45831" lon="11.0975235"/>
  <node id="791811984" version="2" timestamp="2010-07-25T19:55:20Z" uid="71557" user="Taroc" changeset="5315977" lat="49.4582764" lon="11.0975459"/>
  <node id="791811984" version="3" timestamp="2011-10-19T21:52:43Z" uid="346758" user="kukuk" changeset="9604350" lat="49.4583148" lon="11.097492"/>
  <node id="791811984" version="4" timestamp="2011-11-21T21:50:06Z" uid="346758" user="kukuk" changeset="9902413" lat="49.4583148" lon="11.097492"/>
  <node id="791811986" version="1" timestamp="2010-06-26T21:24:35Z" uid="49111" user="Markus B" changeset="5084581" lat="49.4583802" lon="11.0974478"/>
  <node id="791811986" version="2" timestamp="2011-10-19T21:52:44Z" uid="346758" user="kukuk" changeset="9604350" lat="49.4583701" lon="11.0973948"/>
  <node id="791811986" version="3" timestamp="2011-11-21T21:50:06Z" uid="346758" user="kukuk" changeset="9902413" lat="49.4583701" lon="11.0973948"/>
  <node id="791811987" version="1" timestamp="2010-06-26T21:24:35Z" uid="49111" user="Markus B" changeset="5084581" lat="49.4586292" lon="11.0965695"/>
  <node id="791811987" version="2" timestamp="2010-07-25T19:55:18Z" uid="71557" user="Taroc" changeset="5315977" lat="49.4585799" lon="11.0965652"/>
  <node id="791811987" version="3" timestamp="2011-01-24T20:42:46Z" uid="346758" user="kukuk" changeset="7077757" lat="49.4586103" lon="11.0963647"/>
  <node id="791811987" version="4" timestamp="2011-10-22T19:53:46Z" uid="346758" user="kukuk" changeset="9627366" lat="49.458583" lon="11.0959587"/>
  <node id="791811988" version="1" timestamp="2010-06-26T21:24:35Z" uid="49111" user="Markus B" changeset="5084581" lat="49.4586086" lon="11.0965679"/>
  <node id="791811988" version="2" timestamp="2010-07-25T19:55:20Z" uid="71557" user="Taroc" changeset="5315977" lat="49.4585305" lon="11.0965751"/>
  <node id="791811988" version="3" timestamp="2011-01-24T20:42:46Z" uid="346758" user="kukuk" changeset="7077757" lat="49.4585262" lon="11.0963612"/>
  <node id="791811988" version="4" timestamp="2011-10-22T19:53:47Z" uid="346758" user="kukuk" changeset="9627366" lat="49.4585411" lon="11.0959662"/>
  <node id="791811989" version="1" timestamp="2010-06-26T21:24:35Z" uid="49111" user="Markus B" changeset="5084581" lat="49.4585718" lon="11.0967813">
    <tag k="addr:city" v="Nürnberg"/>
    <tag k="addr:country" v="DE"/>
    <tag k="addr:housenumber" v="6"/>
    <tag k="addr:postcode" v="90489"/>
    <tag k="addr:street" v="Stresemannplatz"/>
    <tag k="name" v="Norma"/>
    <tag k="shop" v="supermarket"/>
  </node>
  <node id="791811989" version="2" timestamp="2010-07-25T19:55:17Z" uid="71557" user="Taroc" changeset="5315977" lat="49.458492" lon="11.0966494">
    <tag k="addr:city" v="Nürnberg"/>
    <tag k="addr:country" v="DE"/>
    <tag k="addr:housenumber" v="6"/>
    <tag k="addr:postcode" v="90489"/>
    <tag k="addr:street" v="Stresemannplatz"/>
    <tag k="name" v="Norma"/>
    <tag k="shop" v="supermarket"/>
  </node>
  <node id="791811989" version="3" timestamp="2011-10-22T19:53:45Z" uid="346758" user="kukuk" changeset="9627366" lat="49.4585475" lon="11.0966307">
    <tag k="addr:city" v="Nürnberg"/>
    <tag k="addr:country" v="DE"/>
    <tag k="addr:housenumber" v="6"/>
    <tag k="addr:postcode" v="90489"/>
    <tag k="addr:street" v="Stresemannplatz"/>
    <tag k="name" v="Norma"/>
    <tag k="shop" v="supermarket"/>
  </node>
  <node id="791811990" version="1" timestamp="2010-06-26T21:24:35Z" uid="49111" user="Markus B" changeset="5084581" lat="49.4586355" lon="11.0969083"/>
  <node id="791811990" version="2" timestamp="2010-07-25T19:55:20Z" uid="71557" user="Taroc" changeset="5315977" lat="49.4586039" lon="11.0969155"/>
  <node id="791811990" version="3" timestamp="2011-10-22T19:53:49Z" uid="346758" user="kukuk" changeset="9627366" lat="49.4586039" lon="11.0969155"/>
  <node id="791811992" version="1" timestamp="2010-06-26T21:24:35Z" uid="49111" user="Markus B" changeset="5084581" lat="49.4586106" lon="11.0968971"/>
  <node id="791811992" version="2" timestamp="2010-07-25T19:55:23Z" uid="71557" user="Taroc" changeset="5315977" lat="49.4586106" lon="11.0968971"/>
  <node id="791811993" version="1" timestamp="2010-06-26T21:24:35Z" uid="49111" user="Markus B" changeset="5084581" lat="49.458574" lon="11.0969366">
    <tag k="addr:city" v="Nürnberg"/>
    <tag k="addr:country" v="DE"/>
    <tag k="addr:housenumber" v="8"/>
    <tag k="addr:postcode" v="90489"/>
    <tag k="addr:street" v="Stresemannplatz"/>
    <tag k="amenity" v="cinema"/>
    <tag k="name" v="Metropolis"/>
  </node>
  <node id="791811993" version="2" timestamp="2010-07-07T19:18:02Z" uid="40851" user="gypakk" changeset="5161024" lat="49.458574" lon="11.0969366">
    <tag k="addr:city" v="Nürnberg"/>
    <tag k="addr:country" v="DE"/>
    <tag k="addr:housenumber" v="8"/>
    <tag k="addr:postcode" v="90489"/>
    <tag k="addr:street" v="Stresemannplatz"/>
    <tag k="amenity" v="cinema"/>
    <tag k="name" v="Metropolis"/>
  </node>
  <node id="791811994" version="1" timestamp="2010-06-26T21:24:35Z" uid="49111" user="Markus B" changeset="5084581" lat="49.4585724" lon="11.0968877">
    <tag k="addr:city" v="Nürnberg"/>
    <tag k="addr:country" v="DE"/>
    <tag k="addr:housenumber" v="8"/>
    <tag k="addr:postcode" v="90489"/>
    <tag k="addr:street" v="Stresemannplatz"/>
    <tag k="amenity" v="restaurant"/>
    <tag k="name" v="Metropolis"/>
    <tag k="smoking" v="no"/>
    <tag k="smoking:outside" v="yes"/>
  </node>
  <node id="791811994" version="2" timestamp="2010-07-07T21:55:18Z" uid="10712" user="Kraeml" changeset="5162315" lat="49.4585724" lon="11.0968877">
    <tag k="addr:city" v="Nürnberg"/>
    <tag k="addr:country" v="DE"/>
    <tag k="addr:housenumber" v="8"/>
    <tag k="addr:postcode" v="90489"/>
    <tag k="addr:street" v="Stresemannplatz"/>
    <tag k="amenity" v="restaurant"/>
    <tag k="internet_access" v="no"/>
    <tag k="name" v="Metropolis"/>
    <tag k="opening_hours" v="Su-Th 18:00-24:00; Fr-Sa 18:00-01:00"/>
    <tag k="phone" v="+49-911-538848"/>
    <tag k="smoking" v="no"/>
    <tag k="smoking:outside" v="yes"/>
    <tag k="wheelchair" v="no"/>
  </node>
  <node id="791811994" version="3" timestamp="2010-07-25T19:55:17Z" uid="71557" user="Taroc" changeset="5315977" lat="49.4585119" lon="11.0968895">
    <tag k="addr:city" v="Nürnberg"/>
    <tag k="addr:country" v="DE"/>
    <tag k="addr:housenumber" v="8"/>
    <tag k="addr:postcode" v="90489"/>
    <tag k="addr:street" v="Stresemannplatz"/>
    <tag k="amenity" v="restaurant"/>
    <tag k="internet_access" v="no"/>
    <tag k="name" v="Metropolis"/>
    <tag k="opening_hours" v="Su-Th 18:00-24:00; Fr-Sa 18:00-01:00"/>
    <tag k="phone" v="+49-911-538848"/>
    <tag k="smoking" v="no"/>
    <tag k="smoking:outside" v="yes"/>
    <tag k="wheelchair" v="no"/>
  </node>
  <node id="791811994" version="4" timestamp="2010-09-24T23:17:45Z" uid="294059" user="smoky" changeset="5867369" lat="49.458512" lon="11.0968895">
    <tag k="addr:city" v="Nürnberg"/>
    <tag k="addr:country" v="DE"/>
    <tag k="addr:housenumber" v="8"/>
    <tag k="addr:postcode" v="90489"/>
    <tag k="addr:street" v="Stresemannplatz"/>
    <tag k="amenity" v="restaurant"/>
    <tag k="internet_access" v="no"/>
    <tag k="name" v="Metropolis"/>
    <tag k="opening_hours" v="Su-Th 18:00-24:00; Fr-Sa 18:00-01:00"/>
    <tag k="phone" v="+49-911-538848"/>
    <tag k="smoking" v="yes"/>
    <tag k="smoking:outside" v="yes"/>
    <tag k="smoking_hours" v="00:30+"/>
    <tag k="wheelchair" v="no"/>
  </node>
  <node id="791811994" version="5" timestamp="2010-09-30T20:47:07Z" uid="49111" user="Markus B" changeset="5923459" lat="49.458512" lon="11.0968895">
    <tag k="addr:city" v="Nürnberg"/>
    <tag k="addr:country" v="DE"/>
    <tag k="addr:housenumber" v="8"/>
    <tag k="addr:postcode" v="90489"/>
    <tag k="addr:street" v="Stresemannplatz"/>
    <tag k="amenity" v="restaurant"/>
    <tag k="internet_access" v="no"/>
    <tag k="name" v="Metropolis"/>
    <tag k="opening_hours" v="Su-Th 18:00-24:00; Fr-Sa 18:00-01:00"/>
    <tag k="phone" v="+49-911-538848"/>
    <tag k="smoking" v="no"/>
    <tag k="smoking:outside" v="yes"/>
    <tag k="smoking_hours" v="00:30+"/>
    <tag k="wheelchair" v="no"/>
  </node>
  <node id="791811994" version="6" timestamp="2011-10-22T19:53:45Z" uid="346758" user="kukuk" changeset="9627366" lat="49.4585675" lon="11.0968708">
    <tag k="addr:city" v="Nürnberg"/>
    <tag k="addr:country" v="DE"/>
    <tag k="addr:housenumber" v="8"/>
    <tag k="addr:postcode" v="90489"/>
    <tag k="addr:street" v="Stresemannplatz"/>
    <tag k="amenity" v="restaurant"/>
    <tag k="internet_access" v="no"/>
    <tag k="name" v="Metropolis"/>
    <tag k="opening_hours" v="Su-Th 18:00-24:00; Fr-Sa 18:00-01:00"/>
    <tag k="phone" v="+49-911-538848"/>
    <tag k="smoking" v="no"/>
    <tag k="smoking:outside" v="yes"/>
    <tag k="smoking_hours" v="00:30+"/>
    <tag k="wheelchair" v="no"/>
  </node>
  <node id="791811994" version="7" timestamp="2012-01-07T02:37:57Z" uid="71557" user="Taroc" changeset="10318022" lat="49.4585675" lon="11.0968708"/>
  <node id="791811995" version="1" timestamp="2010-06-26T21:24:35Z" uid="49111" user="Markus B" changeset="5084581" lat="49.4585966" lon="11.0968843"/>
  <node id="791811995" version="2" timestamp="2010-07-07T19:20:33Z" uid="40851" user="gypakk" changeset="5161024" lat="49.4585966" lon="11.0968843"/>
  <node id="791811996" version="1" timestamp="2010-06-26T21:24:35Z" uid="49111" user="Markus B" changeset="5084581" lat="49.4585828" lon="11.096884"/>
  <node id="791811996" version="2" timestamp="2010-07-07T19:20:33Z" uid="40851" user="gypakk" changeset="5161024" lat="49.4585828" lon="11.096884"/>
  <node id="791811997" version="1" timestamp="2010-06-26T21:24:36Z" uid="49111" user="Markus B" changeset="5084581" lat="49.4585824" lon="11.0969427"/>
  <node id="791811997" version="2" timestamp="2010-07-07T19:20:33Z" uid="40851" user="gypakk" changeset="5161024" lat="49.4585824" lon="11.0969427"/>
  <node id="791811998" version="1" timestamp="2010-06-26T21:24:36Z" uid="49111" user="Markus B" changeset="5084581" lat="49.4585962" lon="11.0969429"/>
  <node id="791811998" version="2" timestamp="2010-07-07T19:20:34Z" uid="40851" user="gypakk" changeset="5161024" lat="49.4585962" lon="11.0969429"/>
  <node id="791811999" version="1" timestamp="2010-06-26T21:24:36Z" uid="49111" user="Markus B" changeset="5084581" lat="49.4584324" lon="11.0975019"/>
  <node id="791811999" version="2" timestamp="2010-07-25T19:55:20Z" uid="71557" user="Taroc" changeset="5315977" lat="49.4584113" lon="11.0975188"/>
  <node id="791811999" version="3" timestamp="2011-10-19T21:52:44Z" uid="346758" user="kukuk" changeset="9604350" lat="49.4584497" lon="11.0974649"/>
  <node id="791811999" version="4" timestamp="2011-11-21T21:50:06Z" uid="346758" user="kukuk" changeset="9902413" lat="49.4584497" lon="11.0974649"/>
  <node id="791812000" version="1" timestamp="2010-06-26T21:24:36Z" uid="49111" user="Markus B" changeset="5084581" lat="49.4584002" lon="11.0974917"/>
  <node id="791812000" version="2" timestamp="2010-07-25T19:55:20Z" uid="71557" user="Taroc" changeset="5315977" lat="49.4583643" lon="11.0975159"/>
  <node id="791812000" version="3" timestamp="2011-10-19T21:52:44Z" uid="346758" user="kukuk" changeset="9604350" lat="49.4584027" lon="11.097462"/>
  <node id="791812000" version="4" timestamp="2011-11-21T21:50:07Z" uid="346758" user="kukuk" changeset="9902413" lat="49.4584027" lon="11.097462"/>
  <node id="791812001" version="1" timestamp="2010-06-26T21:24:36Z" uid="49111" user="Markus B" changeset="5084581" lat="49.458418" lon="11.0974486"/>
  <node id="791812001" version="2" timestamp="2011-10-19T21:52:48Z" uid="346758" user="kukuk" changeset="9604350" lat="49.458418" lon="11.0974486"/>
  <node id="791812002" version="1" timestamp="2010-06-26T21:24:36Z" uid="49111" user="Markus B" changeset="5084581" lat="49.4586707" lon="11.0972413"/>
  <node id="791812002" version="2" timestamp="2010-07-25T19:55:20Z" uid="71557" user="Taroc" changeset="5315977" lat="49.4586391" lon="11.0972399"/>
  <node id="791812002" version="3" timestamp="2011-10-19T21:52:44Z" uid="346758" user="kukuk" changeset="9604350" lat="49.4586572" lon="11.0972438"/>
  <node id="791812002" version="4" timestamp="2011-10-22T19:53:47Z" uid="346758" user="kukuk" changeset="9627366" lat="49.4586982" lon="11.0972286"/>
  <node id="791812002" version="5" timestamp="2011-11-21T21:50:07Z" uid="346758" user="kukuk" changeset="9902413" lat="49.4586982" lon="11.0972286"/>
  <node id="791812004" version="1" timestamp="2010-06-26T21:24:36Z" uid="49111" user="Markus B" changeset="5084581" lat="49.458623" lon="11.0972279"/>
  <node id="791812004" version="2" timestamp="2010-07-25T19:55:18Z" uid="71557" user="Taroc" changeset="5315977" lat="49.4586025" lon="11.0972322"/>
  <node id="791812004" version="3" timestamp="2011-10-22T19:53:47Z" uid="346758" user="kukuk" changeset="9627366" lat="49.45868" lon="11.0972273"/>
  <node id="791812005" version="1" timestamp="2010-06-26T21:24:36Z" uid="49111" user="Markus B" changeset="5084581" lat="49.4586003" lon="11.0972248"/>
  <node id="791812005" version="2" timestamp="2010-07-25T19:55:21Z" uid="71557" user="Taroc" changeset="5315977" lat="49.4585743" lon="11.0972348"/>
  <node id="791812005" version="3" timestamp="2011-10-22T19:53:47Z" uid="346758" user="kukuk" changeset="9627366" lat="49.4586382" lon="11.0972348"/>
  <node id="791812006" version="1" timestamp="2010-06-26T21:24:36Z" uid="49111" user="Markus B" changeset="5084581" lat="49.4589746" lon="11.0970612">
    <tag k="amenity" v="cafe"/>
    <tag k="name" v="Beck"/>
    <tag k="shop" v="bakery"/>
    <tag k="smoking" v="no"/>
  </node>
  <node id="791812006" version="2" timestamp="2011-10-24T18:01:56Z" uid="346758" user="kukuk" changeset="9645822" lat="49.4590201" lon="11.0970537">
    <tag k="amenity" v="cafe"/>
    <tag k="name" v="Beck"/>
    <tag k="shop" v="bakery"/>
    <tag k="smoking" v="no"/>
  </node>
  <node id="791812007" version="1" timestamp="2010-06-26T21:24:36Z" uid="49111" user="Markus B" changeset="5084581" lat="49.4583753" lon="11.0976355"/>
  <node id="791812007" version="2" timestamp="2010-07-25T19:55:22Z" uid="71557" user="Taroc" changeset="5315977" lat="49.4583389" lon="11.0976394"/>
  <node id="791812007" version="3" timestamp="2011-10-19T21:52:44Z" uid="346758" user="kukuk" changeset="9604350" lat="49.4583773" lon="11.0975855"/>
  <node id="791812007" version="4" timestamp="2011-11-21T21:50:07Z" uid="346758" user="kukuk" changeset="9902413" lat="49.4583773" lon="11.0975855"/>
  <node id="791812008" version="1" timestamp="2010-06-26T21:24:36Z" uid="49111" user="Markus B" changeset="5084581" lat="49.4583398" lon="11.0976965"/>
  <node id="791812008" version="2" timestamp="2010-07-25T19:55:22Z" uid="71557" user="Taroc" changeset="5315977" lat="49.4582949" lon="11.097696"/>
  <node id="791812008" version="3" timestamp="2011-10-19T21:52:44Z" uid="346758" user="kukuk" changeset="9604350" lat="49.4583333" lon="11.0976421"/>
  <node id="791812008" version="4" timestamp="2011-11-21T21:50:07Z" uid="346758" user="kukuk" changeset="9902413" lat="49.4583333" lon="11.0976421"/>
  <node id="791812009" version="1" timestamp="2010-06-26T21:24:36Z" uid="49111" user="Markus B" changeset="5084581" lat="49.4583844" lon="11.0976787"/>
  <node id="791812009" version="2" timestamp="2010-07-25T19:55:19Z" uid="71557" user="Taroc" changeset="5315977" lat="49.4583438" lon="11.0976806"/>
  <node id="791812009" version="3" timestamp="2011-10-19T21:52:44Z" uid="346758" user="kukuk" changeset="9604350" lat="49.4583822" lon="11.0976267"/>
  <node id="791812009" version="4" timestamp="2011-11-21T21:50:07Z" uid="346758" user="kukuk" changeset="9902413" lat="49.4583822" lon="11.0976267"/>
  <node id="791812010" version="1" timestamp="2010-06-26T21:24:36Z" uid="49111" user="Markus B" changeset="5084581" lat="49.4583852" lon="11.0976406"/>
  <node id="791812010" version="2" timestamp="2010-07-25T19:55:23Z" uid="71557" user="Taroc" changeset="5315977" lat="49.4583852" lon="11.0976406"/>
  <node id="791812011" version="1" timestamp="2010-06-26T21:24:36Z" uid="49111" user="Markus B" changeset="5084581" lat="49.458449" lon="11.0976087"/>
  <node id="791812011" version="2" timestamp="2010-07-25T19:55:20Z" uid="71557" user="Taroc" changeset="5315977" lat="49.4584211" lon="11.097616"/>
  <node id="791812011" version="3" timestamp="2011-10-19T21:52:44Z" uid="346758" user="kukuk" changeset="9604350" lat="49.4584595" lon="11.0975621"/>
  <node id="791812011" version="4" timestamp="2011-11-21T21:50:07Z" uid="346758" user="kukuk" changeset="9902413" lat="49.4584595" lon="11.0975621"/>
  <node id="791812012" version="1" timestamp="2010-06-26T21:24:36Z" uid="49111" user="Markus B" changeset="5084581" lat="49.4583921" lon="11.0976809"/>
  <node id="791812012" version="2" timestamp="2010-07-25T19:55:24Z" uid="71557" user="Taroc" changeset="5315977" lat="49.4583921" lon="11.0976809"/>
  <node id="791812013" version="1" timestamp="2010-06-26T21:24:36Z" uid="49111" user="Markus B" changeset="5084581" lat="49.4584488" lon="11.0976149"/>
  <node id="791812013" version="2" timestamp="2010-07-25T19:55:23Z" uid="71557" user="Taroc" changeset="5315977" lat="49.4584488" lon="11.0976149"/>
  <node id="791812014" version="1" timestamp="2010-06-26T21:24:36Z" uid="49111" user="Markus B" changeset="5084581" lat="49.4584556" lon="11.0976552"/>
  <node id="791812014" version="2" timestamp="2010-07-25T19:55:22Z" uid="71557" user="Taroc" changeset="5315977" lat="49.458426" lon="11.0976572"/>
  <node id="791812014" version="3" timestamp="2011-10-19T21:52:44Z" uid="346758" user="kukuk" changeset="9604350" lat="49.4584644" lon="11.0976033"/>
  <node id="791812014" version="4" timestamp="2011-11-21T21:50:08Z" uid="346758" user="kukuk" changeset="9902413" lat="49.4584644" lon="11.0976033"/>
  <node id="791812015" version="1" timestamp="2010-06-26T21:24:36Z" uid="49111" user="Markus B" changeset="5084581" lat="49.4597334" lon="11.0982569"/>
  <node id="791812015" version="2" timestamp="2011-10-24T19:26:13Z" uid="346758" user="kukuk" changeset="9646701" lat="49.4597754" lon="11.098288"/>
  <node id="791812016" version="1" timestamp="2010-06-26T21:24:36Z" uid="49111" user="Markus B" changeset="5084581" lat="49.4596669" lon="11.0985463">
    <tag k="leisure" v="playground"/>
  </node>
  <node id="791812016" version="2" timestamp="2011-10-24T19:26:13Z" uid="346758" user="kukuk" changeset="9646701" lat="49.4596938" lon="11.0985288">
    <tag k="leisure" v="playground"/>
  </node>
  <node id="791812018" version="1" timestamp="2010-06-26T21:24:36Z" uid="49111" user="Markus B" changeset="5084581" lat="49.4596392" lon="11.0984238"/>
  <node id="791812018" version="2" timestamp="2011-10-24T19:26:15Z" uid="346758" user="kukuk" changeset="9646701" lat="49.4596392" lon="11.0984238"/>
  <node id="791812019" version="1" timestamp="2010-06-26T21:24:36Z" uid="49111" user="Markus B" changeset="5084581" lat="49.4597143" lon="11.0985272"/>
  <node id="791812019" version="2" timestamp="2011-10-24T19:26:14Z" uid="346758" user="kukuk" changeset="9646701" lat="49.459763" lon="11.0984774"/>
  <node id="791812020" version="1" timestamp="2010-06-26T21:24:36Z" uid="49111" user="Markus B" changeset="5084581" lat="49.459852" lon="11.098217"/>
  <node id="791812020" version="2" timestamp="2011-10-24T19:26:14Z" uid="346758" user="kukuk" changeset="9646701" lat="49.4598727" lon="11.0981808"/>
  <node id="791812021" version="1" timestamp="2010-06-26T21:24:36Z" uid="49111" user="Markus B" changeset="5084581" lat="49.4599867" lon="11.0982607"/>
  <node id="791812021" version="2" timestamp="2011-10-24T19:26:14Z" uid="346758" user="kukuk" changeset="9646701" lat="49.4600284" lon="11.0982523"/>
  <node id="791812022" version="1" timestamp="2010-06-26T21:24:36Z" uid="49111" user="Markus B" changeset="5084581" lat="49.4600497" lon="11.0983938"/>
  <node id="791812022" version="2" timestamp="2011-10-24T19:26:14Z" uid="346758" user="kukuk" changeset="9646701" lat="49.4600851" lon="11.098517"/>
  <node id="791812023" version="1" timestamp="2010-06-26T21:24:36Z" uid="49111" user="Markus B" changeset="5084581" lat="49.460067" lon="11.0988501"/>
  <node id="791812023" version="2" timestamp="2011-10-24T19:26:14Z" uid="346758" user="kukuk" changeset="9646701" lat="49.4600985" lon="11.0987874"/>
  <node id="791812024" version="1" timestamp="2010-06-26T21:24:36Z" uid="49111" user="Markus B" changeset="5084581" lat="49.459194" lon="11.0992441">
    <tag k="addr:city" v="Nürnberg"/>
    <tag k="addr:country" v="DE"/>
    <tag k="addr:housenumber" v="80"/>
    <tag k="addr:postcode" v="90489"/>
    <tag k="addr:street" v="Sulzbacher Straße"/>
    <tag k="amenity" v="theatre"/>
    <tag k="name" v="Objektf"/>
    <tag k="website" v="http://objektfsahne.com"/>
  </node>
  <node id="791812024" version="2" timestamp="2011-02-05T20:46:41Z" uid="346758" user="kukuk" changeset="7197037" lat="49.459194" lon="11.0992441">
    <tag k="addr:city" v="Nürnberg"/>
    <tag k="addr:country" v="DE"/>
    <tag k="addr:housenumber" v="80"/>
    <tag k="addr:postcode" v="90489"/>
    <tag k="addr:street" v="Sulzbacher Straße"/>
    <tag k="amenity" v="theatre"/>
    <tag k="name" v="Objektf"/>
    <tag k="website" v="http://www.objektfsahne.com"/>
  </node>
  <node id="791812024" version="3" timestamp="2011-10-24T20:13:38Z" uid="346758" user="kukuk" changeset="9647146" lat="49.4592621" lon="11.0993949">
    <tag k="addr:city" v="Nürnberg"/>
    <tag k="addr:country" v="DE"/>
    <tag k="addr:housenumber" v="80"/>
    <tag k="addr:postcode" v="90489"/>
    <tag k="addr:street" v="Sulzbacher Straße"/>
    <tag k="amenity" v="theatre"/>
    <tag k="name" v="Objektf"/>
    <tag k="website" v="http://www.objektfsahne.com"/>
  </node>
  <node id="791812025" version="1" timestamp="2010-06-26T21:24:36Z" uid="49111" user="Markus B" changeset="5084581" lat="49.4593771" lon="11.1000299"/>
  <node id="791812025" version="2" timestamp="2011-10-19T21:52:48Z" uid="346758" user="kukuk" changeset="9604350" lat="49.4593771" lon="11.1000299"/>
  <node id="791812026" version="1" timestamp="2010-06-26T21:24:36Z" uid="49111" user="Markus B" changeset="5084581" lat="49.4593607" lon="11.100036"/>
  <node id="791812026" version="2" timestamp="2011-10-19T21:52:48Z" uid="346758" user="kukuk" changeset="9604350" lat="49.4593607" lon="11.100036"/>
  <node id="791812027" version="1" timestamp="2010-06-26T21:24:36Z" uid="49111" user="Markus B" changeset="5084581" lat="49.4593469" lon="11.0999483"/>
  <node id="791812027" version="2" timestamp="2011-10-19T21:52:48Z" uid="346758" user="kukuk" changeset="9604350" lat="49.4593469" lon="11.0999483"/>
  <node id="791812028" version="1" timestamp="2010-06-26T21:24:36Z" uid="49111" user="Markus B" changeset="5084581" lat="49.4593633" lon="11.0999422"/>
  <node id="791812028" version="2" timestamp="2011-10-19T21:52:48Z" uid="346758" user="kukuk" changeset="9604350" lat="49.4593633" lon="11.0999422"/>
  <node id="791812029" version="1" timestamp="2010-06-26T21:24:36Z" uid="49111" user="Markus B" changeset="5084581" lat="49.4598509" lon="11.0990492"/>
  <node id="791812029" version="2" timestamp="2011-10-24T19:26:14Z" uid="346758" user="kukuk" changeset="9646701" lat="49.459897" lon="11.0989825"/>
  <node id="791812030" version="1" timestamp="2010-06-26T21:24:36Z" uid="49111" user="Markus B" changeset="5084581" lat="49.4598713" lon="11.0989855"/>
  <node id="791812030" version="2" timestamp="2011-10-24T19:26:14Z" uid="346758" user="kukuk" changeset="9646701" lat="49.4599287" lon="11.0989061"/>
  <node id="791812032" version="1" timestamp="2010-06-26T21:24:36Z" uid="49111" user="Markus B" changeset="5084581" lat="49.4598788" lon="11.0990218"/>
  <node id="791812032" version="2" timestamp="2011-10-24T19:26:14Z" uid="346758" user="kukuk" changeset="9646701" lat="49.4599429" lon="11.0989754"/>
  <node id="791812033" version="1" timestamp="2010-06-26T21:24:36Z" uid="49111" user="Markus B" changeset="5084581" lat="49.4600337" lon="11.0989698"/>
  <node id="791812033" version="2" timestamp="2011-10-24T19:26:14Z" uid="346758" user="kukuk" changeset="9646701" lat="49.4600798" lon="11.0989031"/>
  <node id="791812035" version="1" timestamp="2010-06-26T21:24:36Z" uid="49111" user="Markus B" changeset="5084581" lat="49.4599352" lon="11.0989542"/>
  <node id="791812035" version="2" timestamp="2011-10-24T19:26:14Z" uid="346758" user="kukuk" changeset="9646701" lat="49.4600285" lon="11.0988579"/>
  <node id="791812036" version="1" timestamp="2010-06-26T21:24:37Z" uid="49111" user="Markus B" changeset="5084581" lat="49.4599427" lon="11.0989906"/>
  <node id="791812036" version="2" timestamp="2011-10-24T19:26:14Z" uid="346758" user="kukuk" changeset="9646701" lat="49.4600427" lon="11.0989271"/>
  <node id="791812037" version="1" timestamp="2010-06-26T21:24:37Z" uid="49111" user="Markus B" changeset="5084581" lat="49.4600302" lon="11.0995452"/>
  <node id="791812037" version="2" timestamp="2011-10-24T19:26:14Z" uid="346758" user="kukuk" changeset="9646701" lat="49.4600693" lon="11.0994624"/>
  <node id="791812038" version="1" timestamp="2010-06-26T21:24:37Z" uid="49111" user="Markus B" changeset="5084581" lat="49.5578877" lon="11.3427228"/>
  <node id="791812038" version="2" timestamp="2010-08-07T09:56:27Z" uid="82877" user="Wankmann" changeset="5423223" lat="49.5578877" lon="11.3426839"/>
  <node id="791812038" version="3" timestamp="2010-08-07T11:08:32Z" uid="82877" user="Wankmann" changeset="5423694" lat="49.5578455" lon="11.3426944"/>
  <node id="791812038" version="4" timestamp="2010-08-31T06:55:06Z" uid="49111" user="Markus B" changeset="5642694" lat="49.557857" lon="11.34269"/>
  <node id="791812038" version="5" timestamp="2010-12-08T09:37:00Z" uid="82877" user="Wankmann" changeset="6583091" lat="49.5578801" lon="11.3426645"/>
  <node id="791812038" version="6" timestamp="2011-01-06T23:51:57Z" uid="82877" user="Wankmann" changeset="6888523" lat="49.5578906" lon="11.3426508"/>
  <node id="791812038" version="7" timestamp="2011-01-07T00:32:36Z" uid="82877" user="Wankmann" changeset="6888705" lat="49.5578918" lon="11.342637"/>
  <node id="791812039" version="1" timestamp="2010-06-26T21:24:37Z" uid="49111" user="Markus B" changeset="5084581" lat="49.5578931" lon="11.3429481"/>
  <node id="791812039" version="2" timestamp="2010-08-07T11:08:38Z" uid="82877" user="Wankmann" changeset="5423694" lat="49.5578509" lon="11.3429586"/>
  <node id="791812039" version="3" timestamp="2010-08-31T06:55:03Z" uid="49111" user="Markus B" changeset="5642694" lat="49.5578595" lon="11.3429564"/>
  <node id="791812039" version="4" timestamp="2010-12-08T09:37:03Z" uid="82877" user="Wankmann" changeset="6583091" lat="49.5578826" lon="11.3429309"/>
  <node id="791812039" version="5" timestamp="2011-01-06T23:52:03Z" uid="82877" user="Wankmann" changeset="6888523" lat="49.5579047" lon="11.3428963"/>
  <node id="791812039" version="6" timestamp="2011-01-07T00:32:47Z" uid="82877" user="Wankmann" changeset="6888705" lat="49.557906" lon="11.3428775"/>
  <node id="791812041" version="1" timestamp="2010-06-26T21:24:37Z" uid="49111" user="Markus B" changeset="5084581" lat="49.558151" lon="11.3427133"/>
  <node id="791812041" version="2" timestamp="2010-08-07T09:56:33Z" uid="82877" user="Wankmann" changeset="5423223" lat="49.558148" lon="11.3425645"/>
  <node id="791812041" version="3" timestamp="2010-08-07T11:08:41Z" uid="82877" user="Wankmann" changeset="5423694" lat="49.5581058" lon="11.342575"/>
  <node id="791812041" version="4" timestamp="2010-12-08T09:36:55Z" uid="82877" user="Wankmann" changeset="6583091" lat="49.5581289" lon="11.3425495"/>
  <node id="791812041" version="5" timestamp="2011-01-06T23:51:51Z" uid="82877" user="Wankmann" changeset="6888523" lat="49.5581472" lon="11.3425281"/>
  <node id="791812041" version="6" timestamp="2011-01-07T00:32:25Z" uid="82877" user="Wankmann" changeset="6888705" lat="49.5581424" lon="11.3425164"/>
  <node id="791812042" version="1" timestamp="2010-06-26T21:24:37Z" uid="49111" user="Markus B" changeset="5084581" lat="49.5581564" lon="11.3428962"/>
  <node id="791812042" version="2" timestamp="2010-08-07T11:08:25Z" uid="82877" user="Wankmann" changeset="5423694" lat="49.5581142" lon="11.3429067"/>
  <node id="791812042" version="3" timestamp="2010-12-08T09:36:58Z" uid="82877" user="Wankmann" changeset="6583091" lat="49.5581373" lon="11.3428812"/>
  <node id="791812042" version="4" timestamp="2011-01-06T23:52:12Z" uid="82877" user="Wankmann" changeset="6888523" lat="49.5581548" lon="11.3428719"/>
  <node id="791812042" version="5" timestamp="2011-01-07T00:33:08Z" uid="82877" user="Wankmann" changeset="6888705" lat="49.5581628" lon="11.3428624"/>
  <node id="791815735" version="2" timestamp="2010-11-28T13:24:04Z" uid="9581" user="Lobelt" changeset="6478107" lat="49.5619968" lon="8.6915173"/>
  <node id="791819081" version="3" timestamp="2010-11-28T13:24:04Z" uid="9581" user="Lobelt" changeset="6478107" lat="49.5616556" lon="8.6913797"/>
  <node id="791819083" version="3" timestamp="2010-11-28T13:23:44Z" uid="9581" user="Lobelt" changeset="6478107" lat="49.5615785" lon="8.6910221"/>
  <node id="791819084" version="3" timestamp="2010-11-28T13:23:57Z" uid="9581" user="Lobelt" changeset="6478107" lat="49.5616713" lon="8.690992"/>
  <node id="791819085" version="3" timestamp="2010-11-28T13:23:52Z" uid="9581" user="Lobelt" changeset="6478107" lat="49.5617502" lon="8.6913304"/>
  <node id="791811290" version="3" timestamp="2012-04-21T16:23:51Z" uid="328555" user="peb12345" changeset="11375442" lat="49.5620008" lon="8.6914865"/>
  <node id="791811293" version="3" timestamp="2012-04-21T16:23:52Z" uid="328555" user="peb12345" changeset="11375442" lat="49.5627991" lon="8.69147"/>
  <node id="791811294" version="3" timestamp="2012-04-21T16:23:52Z" uid="328555" user="peb12345" changeset="11375442" lat="49.5627838" lon="8.6906321"/>
  <node id="791811296" version="3" timestamp="2012-04-21T16:23:52Z" uid="328555" user="peb12345" changeset="11375442" lat="49.5619612" lon="8.6906371"/>
  <node id="791811298" version="3" timestamp="2012-04-21T16:23:52Z" uid="328555" user="peb12345" changeset="11375442" lat="49.5623985" lon="8.6915206"/>
  <node id="791811300" version="3" timestamp="2012-04-21T16:23:52Z" uid="328555" user="peb12345" changeset="11375442" lat="49.5625682" lon="8.6916053"/>
  <node id="791811301" version="3" timestamp="2012-04-21T16:23:52Z" uid="328555" user="peb12345" changeset="11375442" lat="49.5626659" lon="8.6916424"/>
  <node id="791811302" version="3" timestamp="2012-04-21T16:23:52Z" uid="328555" user="peb12345" changeset="11375442" lat="49.5626533" lon="8.69177"/>
  <node id="791811303" version="3" timestamp="2012-04-21T16:23:52Z" uid="328555" user="peb12345" changeset="11375442" lat="49.5625378" lon="8.6917457"/>
  <node id="791811305" version="3" timestamp="2012-04-21T16:23:52Z" uid="328555" user="peb12345" changeset="11375442" lat="49.5623642" lon="8.6916685"/>
  <node id="791811976" version="5" timestamp="2012-07-22T12:43:12Z" uid="294059" user="smoky" changeset="12432205" lat="49.4577618" lon="11.0924012">
    <tag k="addr:city" v="Nürnberg"/>
    <tag k="addr:country" v="DE"/>
    <tag k="addr:housenumber" v="22"/>
    <tag k="addr:postcode" v="90489"/>
    <tag k="addr:street" v="Sulzbacher Straße"/>
    <tag k="amenity" v="pub"/>
    <tag k="internet_access" v="wlan"/>
    <tag k="minage" v="18"/>
    <tag k="name" v="Veni Vidi Vici"/>
    <tag k="smoking" v="yes"/>
    <tag k="smoking_hours" v="yes"/>
  </node>
  <node id="791812006" version="3" timestamp="2012-04-23T21:00:31Z" uid="290680" user="wheelmap_visitor" changeset="11392135" lat="49.4590201" lon="11.0970537">
    <tag k="amenity" v="cafe"/>
    <tag k="name" v="Beck"/>
    <tag k="shop" v="bakery"/>
    <tag k="smoking" v="no"/>
    <tag k="wheelchair" v="no"/>
  </node>
  <node id="791815735" version="3" timestamp="2012-04-21T16:23:52Z" uid="328555" user="peb12345" changeset="11375442" lat="49.5619968" lon="8.6915173"/>
  <node id="791819081" version="4" timestamp="2012-04-21T16:23:53Z" uid="328555" user="peb12345" changeset="11375442" lat="49.5616556" lon="8.6913797"/>
  <node id="791819083" version="4" timestamp="2012-04-21T16:23:53Z" uid="328555" user="peb12345" changeset="11375442" lat="49.5615785" lon="8.6910221"/>
  <node id="791819084" version="4" timestamp="2012-04-21T16:23:53Z" uid="328555" user="peb12345" changeset="11375442" lat="49.5616713" lon="8.690992"/>
  <node id="791819085" version="4" timestamp="2012-04-21T16:23:53Z" uid="328555" user="peb12345" changeset="11375442" lat="49.5617502" lon="8.6913304"/>
</osm>
