<?xml version='1.0' encoding='UTF-8'?>
<osm version="0.6" generator="libosmium/2.20.0">
  <node id="79794272" version="4" timestamp="2008-09-24T20:50:17Z" uid="6975" user="ulfl" changeset="690442" lat="52.7916143" lon="-2.0793398">
    <tag k="amenity" v="church_hall"/>
    <tag k="is_in" v="Baswich, Stafford, UK"/>
    <tag k="name" v="Saint Anne&apos;s Church Hall"/>
  </node>
  <node id="79794272" version="5" timestamp="2010-09-22T12:24:01Z" uid="65148" user="Pirat Michi" changeset="5845089" lat="52.7916143" lon="-2.0793398">
    <tag k="amenity" v="place_of_worship"/>
    <tag k="is_in" v="Baswich, Stafford, UK"/>
    <tag k="name" v="Saint Anne&apos;s Church Hall"/>
  </node>
  <node id="79794272" version="6" timestamp="2010-09-22T13:42:07Z" uid="65148" user="Pirat Michi" changeset="5845659" lat="52.7916143" lon="-2.0793398">
    <tag k="amenity" v="church_hall"/>
    <tag k="is_in" v="Baswich, Stafford, UK"/>
    <tag k="name" v="Saint Anne&apos;s Church Hall"/>
  </node>
  <node id="79794272" version="7" timestamp="2010-12-17T16:15:10Z" uid="318958" user="iain1940" changeset="6688106" lat="52.7914741" lon="-2.079325">
    <tag k="amenity" v="church_hall"/>
    <tag k="is_in" v="Baswich, Stafford, UK"/>
    <tag k="name" v="Saint Anne&apos;s Church Hall"/>
  </node>
</osm>
