<?xml version='1.0' encoding='UTF-8'?>
<osm version="0.6" generator="libosmium/2.20.0">
  <node id="798407349" version="1" timestamp="2010-07-01T13:23:47Z" uid="115477" user="wowik" changeset="5120579" lat="56.8025789" lon="38.1690261">
    <tag k="name" v="Малый Подолец"/>
    <tag k="place" v="hamlet"/>
  </node>
  <node id="798407349" version="2" timestamp="2012-01-26T21:12:33Z" uid="384084" user="Kostik" changeset="10507299" lat="56.8025789" lon="38.1690261">
    <tag k="name" v="Малый Подолец"/>
    <tag k="place" v="hamlet"/>
  </node>
  <node id="798407354" version="1" timestamp="2010-07-01T13:23:47Z" uid="115477" user="wowik" changeset="5120579" lat="56.8151243" lon="38.1669662">
    <tag k="name" v="Старово"/>
    <tag k="place" v="hamlet"/>
  </node>
  <node id="798407354" version="2" timestamp="2012-01-26T21:14:10Z" uid="384084" user="Kostik" changeset="10507299" lat="56.8151243" lon="38.1669662">
    <tag k="name" v="Старово"/>
    <tag k="place" v="hamlet"/>
  </node>
  <node id="798407357" version="1" timestamp="2010-07-01T13:23:47Z" uid="115477" user="wowik" changeset="5120579" lat="56.8163458" lon="38.1450793">
    <tag k="name" v="Акулово"/>
    <tag k="place" v="hamlet"/>
  </node>
  <node id="798407357" version="2" timestamp="2012-01-26T21:09:31Z" uid="384084" user="Kostik" changeset="10507299" lat="56.8163458" lon="38.1450793">
    <tag k="name" v="Акулово"/>
    <tag k="place" v="hamlet"/>
  </node>
  <node id="798407358" version="1" timestamp="2010-07-01T13:23:47Z" uid="115477" user="wowik" changeset="5120579" lat="56.8392167" lon="38.1135795">
    <tag k="name" v="Белоглазово"/>
    <tag k="place" v="hamlet"/>
  </node>
  <node id="798407358" version="2" timestamp="2012-01-26T21:09:49Z" uid="384084" user="Kostik" changeset="10507299" lat="56.8392167" lon="38.1135795">
    <tag k="name" v="Белоглазово"/>
    <tag k="place" v="hamlet"/>
  </node>
  <node id="798407363" version="1" timestamp="2010-07-01T13:23:47Z" uid="115477" user="wowik" changeset="5120579" lat="56.8483706" lon="38.1259391">
    <tag k="name" v="Деревеньки"/>
    <tag k="place" v="hamlet"/>
  </node>
  <node id="798407363" version="2" timestamp="2012-01-26T21:10:58Z" uid="384084" user="Kostik" changeset="10507299" lat="56.8483706" lon="38.1259391">
    <tag k="name" v="Деревеньки"/>
    <tag k="place" v="hamlet"/>
  </node>
  <node id="798407378" version="1" timestamp="2010-07-01T13:23:48Z" uid="115477" user="wowik" changeset="5120579" lat="56.8058261" lon="38.1759526">
    <tag k="amenity" v="place_of_worship"/>
    <tag k="name" v="Церковь Рождества Пресвятой Богородицы"/>
  </node>
  <node id="798407378" version="2" timestamp="2010-07-01T13:27:19Z" uid="115477" user="wowik" changeset="5120579" lat="56.8008871" lon="38.1739184">
    <tag k="amenity" v="place_of_worship"/>
    <tag k="denomination" v="orthodox"/>
    <tag k="name" v="Церковь Рождества Пресвятой Богородицы"/>
    <tag k="religion" v="christian"/>
  </node>
  <node id="798407378" version="3" timestamp="2010-07-01T13:36:40Z" uid="115477" user="wowik" changeset="5120579" lat="56.8006521" lon="38.173618">
    <tag k="amenity" v="place_of_worship"/>
    <tag k="denomination" v="orthodox"/>
    <tag k="name" v="Церковь Рождества Пресвятой Богородицы"/>
    <tag k="religion" v="christian"/>
  </node>
  <node id="798407378" version="4" timestamp="2012-01-26T21:14:53Z" uid="384084" user="Kostik" changeset="10507299" lat="56.8006521" lon="38.173618">
    <tag k="amenity" v="place_of_worship"/>
    <tag k="denomination" v="orthodox"/>
    <tag k="name" v="Церковь Рождества Пресвятой Богородицы"/>
    <tag k="religion" v="christian"/>
  </node>
  <node id="798407349" version="3" timestamp="2012-07-20T10:03:46Z" uid="722137" user="OSMF Redaction Account" changeset="12370594" lat="56.8025789" lon="38.1690261"/>
  <node id="798407354" version="3" timestamp="2012-07-20T10:03:46Z" uid="722137" user="OSMF Redaction Account" changeset="12370594" lat="56.8151243" lon="38.1669662"/>
  <node id="798407357" version="3" timestamp="2012-07-20T10:03:46Z" uid="722137" user="OSMF Redaction Account" changeset="12370594" lat="56.8163458" lon="38.1450793"/>
  <node id="798407358" version="3" timestamp="2012-07-20T10:05:02Z" uid="722137" user="OSMF Redaction Account" changeset="12370636" lat="56.8392167" lon="38.1135795"/>
  <node id="798407363" version="3" timestamp="2012-07-20T10:03:46Z" uid="722137" user="OSMF Redaction Account" changeset="12370594" lat="56.8483706" lon="38.1259391"/>
  <node id="798407378" version="5" timestamp="2012-07-20T10:03:46Z" uid="722137" user="OSMF Redaction Account" changeset="12370594" lat="56.8006521" lon="38.173618"/>
</osm>
