<?xml version='1.0' encoding='UTF-8'?>
<osm version="0.6" generator="libosmium/2.20.0">
  <node id="80031765" version="4" timestamp="2011-01-02T16:24:54Z" uid="49111" user="Markus B" changeset="6839975" lat="47.3561593" lon="8.5348668"/>
  <node id="80031766" version="4" timestamp="2011-01-02T16:23:27Z" uid="49111" user="Markus B" changeset="6839975" lat="47.3551178" lon="8.5345024"/>
  <node id="80033363" version="7" timestamp="2010-03-06T23:38:14Z" uid="6975" user="ulfl" changeset="4056262" lat="46.5424586" lon="10.4332075">
    <tag k="ele" v="2501"/>
    <tag k="mountain_pass" v="yes"/>
    <tag k="name" v="Umbrailpass"/>
    <tag k="name:it" v="Giogo di Santa Maria"/>
    <tag k="name:rm" v="Pass dal Umbrail"/>
    <tag k="wikipedia" v="http://de.wikipedia.org/wiki/Umbrailpass"/>
  </node>
  <node id="80033363" version="8" timestamp="2010-09-09T15:02:45Z" uid="61731" user="Eckloff" changeset="5733420" lat="46.5424586" lon="10.4332075">
    <tag k="ele" v="2501"/>
    <tag k="mountain_pass" v="yes"/>
    <tag k="name" v="Umbrailpass"/>
    <tag k="name:it" v="Giogo di Santa Maria"/>
    <tag k="name:rm" v="Pass dal Umbrail"/>
    <tag k="old_name:de" v="Wormser Joch"/>
    <tag k="wikipedia" v="http://de.wikipedia.org/wiki/Umbrailpass"/>
  </node>
  <node id="80033363" version="9" timestamp="2012-02-22T11:13:46Z" uid="174822" user="Canabis" changeset="10758138" lat="46.5424586" lon="10.4332075">
    <tag k="ele" v="2501"/>
    <tag k="mountain_pass" v="yes"/>
    <tag k="name" v="Umbrailpass"/>
    <tag k="name:it" v="Giogo di Santa Maria"/>
    <tag k="name:rm" v="Pass dal Umbrail"/>
    <tag k="name:ru" v="Умбраиль"/>
    <tag k="old_name:de" v="Wormser Joch"/>
    <tag k="wikipedia" v="http://de.wikipedia.org/wiki/Umbrailpass"/>
  </node>
  <node id="80033363" version="10" timestamp="2012-03-06T09:47:07Z" uid="178186" user="mdk" changeset="10888277" lat="46.5424586" lon="10.4332075"/>
  <node id="80033494" version="4" timestamp="2011-01-02T16:23:41Z" uid="49111" user="Markus B" changeset="6839975" lat="47.3495918" lon="8.5369063"/>
  <node id="80033495" version="2" timestamp="2011-01-02T16:27:04Z" uid="49111" user="Markus B" changeset="6839975" lat="47.3499633" lon="8.5366338"/>
  <node id="80033496" version="2" timestamp="2011-01-02T16:25:17Z" uid="49111" user="Markus B" changeset="6839975" lat="47.3500037" lon="8.5363769"/>
  <node id="80033498" version="2" timestamp="2011-01-02T16:27:02Z" uid="49111" user="Markus B" changeset="6839975" lat="47.3497774" lon="8.5363059"/>
  <node id="80033716" version="11" timestamp="2010-03-06T23:34:41Z" uid="6975" user="ulfl" changeset="4056234" lat="46.5294893" lon="10.4520046">
    <tag k="ele" v="2758"/>
    <tag k="mountain_pass" v="yes"/>
    <tag k="name" v="Passo dello Stelvio"/>
    <tag k="name:de" v="Stilfser Joch"/>
    <tag k="wikipedia" v="http://de.wikipedia.org/wiki/Stilfser_Joch"/>
  </node>
  <node id="80033716" version="12" timestamp="2010-08-19T17:08:03Z" uid="131835" user="DarkFlash" changeset="5537179" lat="46.5294994" lon="10.4520533">
    <tag k="ele" v="2758"/>
    <tag k="mountain_pass" v="yes"/>
    <tag k="name" v="Passo dello Stelvio"/>
    <tag k="name:de" v="Stilfser Joch"/>
    <tag k="wikipedia" v="http://de.wikipedia.org/wiki/Stilfser_Joch"/>
  </node>
  <node id="80033716" version="13" timestamp="2011-12-06T22:20:28Z" uid="287306" user="Matthias Frank" changeset="10054223" lat="46.5294994" lon="10.4520533"/>
  <node id="80037026" version="5" timestamp="2008-07-03T18:26:38Z" uid="6975" user="ulfl" changeset="379368" lat="47.3247415" lon="8.5231183">
    <tag k="amenity" v="drinking_water"/>
  </node>
  <node id="80033716" version="14" timestamp="2012-07-25T18:07:20Z" uid="495247" user="Daham" changeset="12489955" lat="46.5295224" lon="10.4520442"/>
</osm>
