<?xml version='1.0' encoding='UTF-8'?>
<osm version="0.6" generator="libosmium/2.20.0">
  <node id="80271852" version="3" timestamp="2008-08-15T00:11:50Z" uid="6975" user="ulfl" changeset="264731" lat="55.7064545" lon="12.4878479">
    <tag k="amenity" v="place_of_worship"/>
    <tag k="denomination" v="catholic"/>
    <tag k="name" v="Skt. Antonius"/>
    <tag k="religion" v="christian"/>
  </node>
  <node id="80273681" version="3" timestamp="2008-07-03T18:31:40Z" uid="6975" user="ulfl" changeset="379368" lat="63.5231845" lon="22.5308053">
    <tag k="amenity" v="cafe"/>
  </node>
  <node id="80273681" version="4" timestamp="2008-10-12T19:25:09Z" uid="20335" user="zeb" changeset="278852" lat="63.5231802" lon="22.5308626">
    <tag k="amenity" v="cafe"/>
  </node>
  <node id="80273681" version="5" timestamp="2009-07-04T23:21:35Z" uid="119241" user="ilari-x" changeset="1734426" lat="63.5231951" lon="22.530362">
    <tag k="amenity" v="cafe"/>
  </node>
  <node id="80273681" version="6" timestamp="2010-01-24T08:03:24Z" uid="119241" user="ilari-x" changeset="3698287" lat="63.5233925" lon="22.5305673">
    <tag k="amenity" v="cafe"/>
    <tag k="name" v="Lillkungs Konditori"/>
  </node>
  <node id="80273681" version="7" timestamp="2010-01-24T08:45:28Z" uid="119241" user="ilari-x" changeset="3698411" lat="63.5233925" lon="22.5305673">
    <tag k="addr:city" v="Nykarleby"/>
    <tag k="addr:housenumber" v="12"/>
    <tag k="addr:postcode" v="66900"/>
    <tag k="addr:street" v="Topeliusesplanaden"/>
    <tag k="amenity" v="cafe"/>
    <tag k="name" v="Lillkungs Konditori"/>
    <tag k="phone" v="(06) 722 0047"/>
  </node>
  <node id="80273681" version="8" timestamp="2010-06-11T03:55:17Z" uid="119241" user="ilari-x" changeset="4959636" lat="63.5233944" lon="22.5305481">
    <tag k="addr:city" v="Nykarleby"/>
    <tag k="addr:housenumber" v="12"/>
    <tag k="addr:postcode" v="66900"/>
    <tag k="addr:street" v="Topeliusesplanaden"/>
    <tag k="amenity" v="cafe"/>
    <tag k="name" v="Lillkungs Konditori"/>
    <tag k="phone" v="(06) 722 0047"/>
  </node>
  <node id="80273681" version="9" timestamp="2012-01-31T14:17:21Z" uid="306096" user="joakimfors" changeset="10549663" lat="63.5233944" lon="22.5305481"/>
  <node id="80277216" version="2" timestamp="2008-08-15T00:11:49Z" uid="6975" user="ulfl" changeset="264731" lat="54.7643119" lon="11.8782708">
    <tag k="amenity" v="place_of_worship"/>
    <tag k="denomination" v="catholic"/>
    <tag k="name" v="Hellig Kors"/>
    <tag k="religion" v="christian"/>
  </node>
  <node id="80271852" version="4" timestamp="2012-07-17T13:22:02Z" uid="722137" user="OSMF Redaction Account" changeset="12266405" lat="55.7064545" lon="12.4878479"/>
</osm>
