<?xml version='1.0' encoding='UTF-8'?>
<osm version="0.6" generator="libosmium/2.20.0">
  <node id="802870692" version="2" timestamp="2010-11-28T13:23:49Z" uid="9581" user="Lobelt" changeset="6478107" lat="49.5616275" lon="8.6914878"/>
  <node id="802870781" version="2" timestamp="2010-11-28T13:23:55Z" uid="9581" user="Lobelt" changeset="6478107" lat="49.5619716" lon="8.6915995">
    <tag k="railway" v="level_crossing"/>
  </node>
  <node id="802879044" version="1" timestamp="2010-07-05T21:55:25Z" uid="6975" user="ulfl" changeset="5146112" lat="44.390469" lon="7.547809">
    <tag k="addr:city" v="Cuneo"/>
    <tag k="addr:country" v="IT"/>
    <tag k="addr:housenumber" v="3"/>
    <tag k="addr:postcode" v="12100"/>
    <tag k="addr:street" v="Via Pascal"/>
    <tag k="fax" v="+39 0171699101"/>
    <tag k="internet_access" v="terminal"/>
    <tag k="internet_access:fee" v="no"/>
    <tag k="name" v="Hotel Royal Superga"/>
    <tag k="phone" v="+39 0171693223"/>
    <tag k="stars" v="3"/>
    <tag k="tourism" v="hotel"/>
    <tag k="website" v="http://www.hotelroyalsuperga.it/"/>
  </node>
  <node id="802870692" version="3" timestamp="2012-07-17T01:41:11Z" uid="722137" user="OSMF Redaction Account" changeset="12254888" lat="49.5616199" lon="8.6917028"/>
  <node id="802870781" version="4" timestamp="2012-07-17T01:41:12Z" uid="722137" user="OSMF Redaction Account" changeset="12254888" lat="49.5619911" lon="8.6915625"/>
  <node id="802879044" version="2" timestamp="2012-07-16T04:48:25Z" uid="722137" user="OSMF Redaction Account" changeset="12239477" lat="44.390469" lon="7.547809"/>
</osm>
