<?xml version='1.0' encoding='UTF-8'?>
<osm version="0.6" generator="libosmium/2.20.0">
  <node id="807123183" version="1" timestamp="2010-07-08T20:45:53Z" uid="10712" user="Kraeml" changeset="5169429" lat="49.4598971" lon="11.1035496">
    <tag k="addr:city" v="Nürnberg"/>
    <tag k="addr:country" v="DE"/>
    <tag k="addr:housenumber" v="1-3"/>
    <tag k="addr:postcode" v="90489"/>
    <tag k="addr:street" v="Äußere Sulzbacher Straße"/>
    <tag k="amenity" v="restaurant"/>
    <tag k="cuisine" v="german"/>
    <tag k="email" v="info@rdln.de"/>
    <tag k="fax" v="+49-911-506840"/>
    <tag k="name" v="Wirtsstuben Drei Linden"/>
    <tag k="opening_hours" v="Tu-Su 11:30-14:00; Mo-Su 18:00-22:00"/>
    <tag k="phone" v="+49-911-5068030"/>
    <tag k="website" v="www.rdln.de"/>
  </node>
  <node id="807123183" version="2" timestamp="2011-10-25T19:14:44Z" uid="346758" user="kukuk" changeset="9655045" lat="49.4598971" lon="11.1035496"/>
  <node id="807123191" version="1" timestamp="2010-07-08T20:45:53Z" uid="10712" user="Kraeml" changeset="5169429" lat="49.4593843" lon="11.1007131">
    <tag k="addr:city" v="Nürnberg"/>
    <tag k="addr:country" v="DE"/>
    <tag k="addr:housenumber" v="92"/>
    <tag k="addr:postcode" v="90489"/>
    <tag k="addr:street" v="Sulzbacher Straße"/>
    <tag k="amenity" v="fast_food"/>
    <tag k="cuisine" v="kebab"/>
    <tag k="name" v="Max Döner &amp; Grill"/>
    <tag k="opening_hours" v="Mo-Su 08:30-21:00"/>
    <tag k="smoking" v="no"/>
  </node>
  <node id="807123191" version="2" timestamp="2011-02-26T21:57:35Z" uid="346758" user="kukuk" changeset="7404975" lat="49.459429" lon="11.1010288">
    <tag k="addr:city" v="Nürnberg"/>
    <tag k="addr:country" v="DE"/>
    <tag k="addr:housenumber" v="92"/>
    <tag k="addr:postcode" v="90489"/>
    <tag k="addr:street" v="Sulzbacher Straße"/>
    <tag k="amenity" v="fast_food"/>
    <tag k="cuisine" v="kebab"/>
    <tag k="name" v="Max Döner &amp; Grill"/>
    <tag k="opening_hours" v="Mo-Su 08:30-21:00"/>
    <tag k="smoking" v="no"/>
  </node>
  <node id="807123191" version="3" timestamp="2011-08-26T12:30:51Z" uid="510995" user="sr82nbg" changeset="9129203" lat="49.459429" lon="11.1010288">
    <tag k="addr:city" v="Nürnberg"/>
    <tag k="addr:country" v="DE"/>
    <tag k="addr:housenumber" v="92"/>
    <tag k="addr:postcode" v="90489"/>
    <tag k="addr:street" v="Sulzbacher Straße"/>
    <tag k="amenity" v="fast_food"/>
    <tag k="cuisine" v="kebab"/>
    <tag k="name" v="Klasse Döner"/>
    <tag k="opening_hours" v="Mo-Su 08:30-21:00"/>
    <tag k="smoking" v="no"/>
  </node>
  <node id="807123191" version="4" timestamp="2011-10-24T20:26:39Z" uid="346758" user="kukuk" changeset="9647282" lat="49.459508" lon="11.1010594">
    <tag k="addr:city" v="Nürnberg"/>
    <tag k="addr:country" v="DE"/>
    <tag k="addr:housenumber" v="92"/>
    <tag k="addr:postcode" v="90489"/>
    <tag k="addr:street" v="Sulzbacher Straße"/>
    <tag k="amenity" v="fast_food"/>
    <tag k="cuisine" v="kebab"/>
    <tag k="name" v="Klasse Döner"/>
    <tag k="opening_hours" v="Mo-Su 08:30-21:00"/>
    <tag k="smoking" v="no"/>
  </node>
  <node id="807123191" version="5" timestamp="2012-01-07T02:37:56Z" uid="71557" user="Taroc" changeset="10318022" lat="49.459508" lon="11.1010594"/>
</osm>
