<?xml version='1.0' encoding='UTF-8'?>
<osm version="0.6" generator="libosmium/2.20.0">
  <node id="813740856" version="2" timestamp="2010-07-28T20:05:36Z" uid="74617" user="JohnSmith" changeset="5339329" lat="46.84667" lon="7.21517">
    <tag k="emergency" v="fire_hydrant"/>
  </node>
  <node id="813740856" version="3" timestamp="2010-07-30T17:44:04Z" uid="74617" user="JohnSmith" changeset="5356742" lat="46.84667" lon="7.21517">
    <tag k="amenity" v="fire_hydrant"/>
    <tag k="emergency" v="fire_hydrant"/>
  </node>
  <node id="813740856" version="4" timestamp="2010-08-12T08:42:11Z" uid="125339" user="efred" changeset="5470308" lat="46.84667" lon="7.21517">
    <tag k="amenity" v="fire_hydrant"/>
    <tag k="fire_hydrant" v="pillar"/>
  </node>
  <node id="813740856" version="5" timestamp="2010-10-09T17:35:28Z" uid="26348" user="Rodolphe Quiédeville" changeset="5995327" lat="46.84667" lon="7.21517">
    <tag k="emergency" v="fire_hydrant"/>
    <tag k="fire_hydrant" v="pillar"/>
  </node>
  <node id="813740856" version="6" timestamp="2010-10-19T08:52:05Z" uid="26348" user="Rodolphe Quiédeville" changeset="6094638" lat="46.84667" lon="7.21517">
    <tag k="amenity" v="fire_hydrant"/>
    <tag k="emergency" v="fire_hydrant"/>
    <tag k="fire_hydrant" v="pillar"/>
  </node>
  <node id="813740856" version="7" timestamp="2011-01-02T14:18:33Z" uid="299113" user="ribereth" changeset="6838829" lat="46.84667" lon="7.21517">
    <tag k="amenity" v="fire_hydrant"/>
    <tag k="emergency" v="fire_hydrant"/>
    <tag k="fire_hydrant" v="pillar"/>
  </node>
  <node id="813740856" version="8" timestamp="2012-01-05T14:32:52Z" uid="125339" user="efred" changeset="10301534" lat="46.84667" lon="7.21517"/>
  <node id="813745862" version="1" timestamp="2010-07-12T17:30:33Z" uid="115477" user="wowik" changeset="5200954" lat="57.1775087" lon="38.0660886">
    <tag k="name" v="Щипачево"/>
    <tag k="place" v="hamlet"/>
  </node>
  <node id="813745862" version="2" timestamp="2012-01-26T21:15:13Z" uid="384084" user="Kostik" changeset="10507299" lat="57.1775087" lon="38.0660886">
    <tag k="name" v="Щипачево"/>
    <tag k="place" v="hamlet"/>
  </node>
  <node id="813745865" version="1" timestamp="2010-07-12T17:30:33Z" uid="115477" user="wowik" changeset="5200954" lat="57.1330646" lon="38.0405261">
    <tag k="name" v="Гризинская"/>
    <tag k="place" v="locality"/>
  </node>
  <node id="813745865" version="2" timestamp="2012-01-26T21:10:49Z" uid="384084" user="Kostik" changeset="10507299" lat="57.1330646" lon="38.0405261">
    <tag k="name" v="Гризинская"/>
    <tag k="place" v="locality"/>
  </node>
  <node id="813745867" version="1" timestamp="2010-07-12T17:30:33Z" uid="115477" user="wowik" changeset="5200954" lat="57.1407433" lon="38.0590422">
    <tag k="name" v="Балахонка"/>
    <tag k="place" v="hamlet"/>
  </node>
  <node id="813745867" version="2" timestamp="2012-01-26T21:09:45Z" uid="384084" user="Kostik" changeset="10507299" lat="57.1407433" lon="38.0590422">
    <tag k="name" v="Балахонка"/>
    <tag k="place" v="hamlet"/>
  </node>
  <node id="813745877" version="1" timestamp="2010-07-12T17:30:33Z" uid="115477" user="wowik" changeset="5200954" lat="57.1238827" lon="38.0178318">
    <tag k="name" v="Крутец"/>
    <tag k="place" v="locality"/>
  </node>
  <node id="813745877" version="2" timestamp="2012-01-26T21:12:07Z" uid="384084" user="Kostik" changeset="10507299" lat="57.1238827" lon="38.0178318">
    <tag k="name" v="Крутец"/>
    <tag k="place" v="locality"/>
  </node>
  <node id="813745880" version="1" timestamp="2010-07-12T17:30:33Z" uid="115477" user="wowik" changeset="5200954" lat="57.0643885" lon="38.2453715">
    <tag k="name" v="Ногино"/>
    <tag k="place" v="hamlet"/>
  </node>
  <node id="813745880" version="2" timestamp="2012-01-26T21:13:02Z" uid="384084" user="Kostik" changeset="10507299" lat="57.0643885" lon="38.2453715">
    <tag k="name" v="Ногино"/>
    <tag k="place" v="hamlet"/>
  </node>
  <node id="813745883" version="1" timestamp="2010-07-12T17:30:34Z" uid="115477" user="wowik" changeset="5200954" lat="57.2164401" lon="38.2022293">
    <tag k="name" v="Есипово"/>
    <tag k="place" v="hamlet"/>
  </node>
  <node id="813745883" version="2" timestamp="2011-09-16T15:29:25Z" uid="441214" user="Чирикан" changeset="9317015" lat="57.2164401" lon="38.2022293"/>
  <node id="813745885" version="1" timestamp="2010-07-12T17:30:34Z" uid="115477" user="wowik" changeset="5200954" lat="57.0979591" lon="38.006405">
    <tag k="name" v="Макарьевская"/>
    <tag k="place" v="hamlet"/>
  </node>
  <node id="813745885" version="2" timestamp="2011-02-11T13:45:29Z" uid="115477" user="wowik" changeset="7255337" lat="57.0981586" lon="38.0058461">
    <tag k="name" v="Макарьевская"/>
    <tag k="place" v="hamlet"/>
  </node>
  <node id="813745885" version="3" timestamp="2012-01-26T21:12:28Z" uid="384084" user="Kostik" changeset="10507299" lat="57.0981586" lon="38.0058461">
    <tag k="name" v="Макарьевская"/>
    <tag k="place" v="hamlet"/>
  </node>
  <node id="813745886" version="1" timestamp="2010-07-12T17:30:34Z" uid="115477" user="wowik" changeset="5200954" lat="57.1229554" lon="38.0259457">
    <tag k="name" v="Аферьево"/>
    <tag k="place" v="hamlet"/>
  </node>
  <node id="813745886" version="2" timestamp="2012-01-26T21:09:42Z" uid="384084" user="Kostik" changeset="10507299" lat="57.1229554" lon="38.0259457">
    <tag k="name" v="Аферьево"/>
    <tag k="place" v="hamlet"/>
  </node>
  <node id="813745889" version="1" timestamp="2010-07-12T17:30:34Z" uid="115477" user="wowik" changeset="5200954" lat="57.107543" lon="38.2409037">
    <tag k="name" v="Ознобиха"/>
    <tag k="place" v="hamlet"/>
  </node>
  <node id="813745889" version="2" timestamp="2012-01-26T21:13:04Z" uid="384084" user="Kostik" changeset="10507299" lat="57.107543" lon="38.2409037">
    <tag k="name" v="Ознобиха"/>
    <tag k="place" v="hamlet"/>
  </node>
  <node id="813745890" version="1" timestamp="2010-07-12T17:30:34Z" uid="115477" user="wowik" changeset="5200954" lat="57.0431484" lon="38.008454">
    <tag k="name" v="Калабриево"/>
    <tag k="place" v="hamlet"/>
  </node>
  <node id="813745890" version="2" timestamp="2012-01-26T21:11:37Z" uid="384084" user="Kostik" changeset="10507299" lat="57.0431484" lon="38.008454">
    <tag k="name" v="Калабриево"/>
    <tag k="place" v="hamlet"/>
  </node>
  <node id="813745892" version="1" timestamp="2010-07-12T17:30:34Z" uid="115477" user="wowik" changeset="5200954" lat="57.2420543" lon="38.2775809">
    <tag k="name" v="Костенеево"/>
    <tag k="place" v="hamlet"/>
  </node>
  <node id="813745892" version="2" timestamp="2012-01-26T21:11:59Z" uid="384084" user="Kostik" changeset="10507299" lat="57.2420543" lon="38.2775809">
    <tag k="name" v="Костенеево"/>
    <tag k="place" v="hamlet"/>
  </node>
  <node id="813745892" version="3" timestamp="2012-02-11T20:45:06Z" uid="563357" user="lenux" changeset="10657193" lat="57.2420543" lon="38.2775809">
    <tag k="addr:country" v="RU"/>
    <tag k="addr:district" v="Угличский район"/>
    <tag k="addr:region" v="Ярославская область"/>
    <tag k="name" v="Костенеево"/>
    <tag k="place" v="hamlet"/>
  </node>
  <node id="813745894" version="1" timestamp="2010-07-12T17:30:34Z" uid="115477" user="wowik" changeset="5200954" lat="57.0704467" lon="38.2380487">
    <tag k="name" v="Павлово"/>
    <tag k="place" v="hamlet"/>
  </node>
  <node id="813745894" version="2" timestamp="2012-01-26T21:13:08Z" uid="384084" user="Kostik" changeset="10507299" lat="57.0704467" lon="38.2380487">
    <tag k="name" v="Павлово"/>
    <tag k="place" v="hamlet"/>
  </node>
  <node id="813745896" version="1" timestamp="2010-07-12T17:30:35Z" uid="115477" user="wowik" changeset="5200954" lat="57.1537846" lon="38.0901471">
    <tag k="name" v="Киселево"/>
    <tag k="place" v="hamlet"/>
  </node>
  <node id="813745896" version="2" timestamp="2012-01-26T21:11:43Z" uid="384084" user="Kostik" changeset="10507299" lat="57.1537846" lon="38.0901471">
    <tag k="name" v="Киселево"/>
    <tag k="place" v="hamlet"/>
  </node>
  <node id="813745899" version="1" timestamp="2010-07-12T17:30:35Z" uid="115477" user="wowik" changeset="5200954" lat="57.1071207" lon="38.2206872">
    <tag k="name" v="Сажино"/>
    <tag k="place" v="hamlet"/>
  </node>
  <node id="813745899" version="2" timestamp="2012-01-26T21:13:48Z" uid="384084" user="Kostik" changeset="10507299" lat="57.1071207" lon="38.2206872">
    <tag k="name" v="Сажино"/>
    <tag k="place" v="hamlet"/>
  </node>
  <node id="813745900" version="1" timestamp="2010-07-12T17:30:35Z" uid="115477" user="wowik" changeset="5200954" lat="57.0372744" lon="38.0650041">
    <tag k="name" v="Тимонино"/>
    <tag k="place" v="hamlet"/>
  </node>
  <node id="813745900" version="2" timestamp="2011-02-11T13:45:15Z" uid="115477" user="wowik" changeset="7255337" lat="57.037226" lon="38.065538">
    <tag k="name" v="Тимонино"/>
    <tag k="place" v="hamlet"/>
  </node>
  <node id="813745900" version="3" timestamp="2012-01-26T21:14:26Z" uid="384084" user="Kostik" changeset="10507299" lat="57.037226" lon="38.065538">
    <tag k="name" v="Тимонино"/>
    <tag k="place" v="hamlet"/>
  </node>
  <node id="813745902" version="1" timestamp="2010-07-12T17:30:35Z" uid="115477" user="wowik" changeset="5200954" lat="57.2501912" lon="38.3184462">
    <tag k="name" v="Черепенино"/>
    <tag k="place" v="hamlet"/>
  </node>
  <node id="813745902" version="2" timestamp="2011-09-16T14:04:45Z" uid="441214" user="Чирикан" changeset="9316166" lat="57.2501912" lon="38.3184462"/>
  <node id="813745904" version="1" timestamp="2010-07-12T17:30:35Z" uid="115477" user="wowik" changeset="5200954" lat="57.1289867" lon="38.0459331">
    <tag k="name" v="Монаково"/>
    <tag k="place" v="locality"/>
  </node>
  <node id="813745904" version="2" timestamp="2011-02-11T13:45:26Z" uid="115477" user="wowik" changeset="7255337" lat="57.1289867" lon="38.0459331">
    <tag k="name" v="Манаково"/>
    <tag k="place" v="hamlet"/>
  </node>
  <node id="813745904" version="3" timestamp="2012-01-26T21:12:33Z" uid="384084" user="Kostik" changeset="10507299" lat="57.1289867" lon="38.0459331">
    <tag k="name" v="Манаково"/>
    <tag k="place" v="hamlet"/>
  </node>
  <node id="813745905" version="1" timestamp="2010-07-12T17:30:35Z" uid="115477" user="wowik" changeset="5200954" lat="57.209206" lon="38.1805673">
    <tag k="name" v="Кунино"/>
    <tag k="place" v="hamlet"/>
  </node>
  <node id="813745905" version="2" timestamp="2011-09-16T15:26:14Z" uid="441214" user="Чирикан" changeset="9316999" lat="57.209206" lon="38.1805673"/>
  <node id="813745907" version="1" timestamp="2010-07-12T17:30:36Z" uid="115477" user="wowik" changeset="5200954" lat="57.235034" lon="38.0341456">
    <tag k="name" v="Покидово"/>
    <tag k="place" v="hamlet"/>
  </node>
  <node id="813745907" version="2" timestamp="2012-01-26T21:13:22Z" uid="384084" user="Kostik" changeset="10507299" lat="57.235034" lon="38.0341456">
    <tag k="name" v="Покидово"/>
    <tag k="place" v="hamlet"/>
  </node>
  <node id="813745908" version="1" timestamp="2010-07-12T17:30:36Z" uid="115477" user="wowik" changeset="5200954" lat="57.0956135" lon="38.1641641">
    <tag k="name" v="Сталино"/>
    <tag k="place" v="hamlet"/>
  </node>
  <node id="813745908" version="2" timestamp="2012-01-26T21:14:08Z" uid="384084" user="Kostik" changeset="10507299" lat="57.0956135" lon="38.1641641">
    <tag k="name" v="Сталино"/>
    <tag k="place" v="hamlet"/>
  </node>
  <node id="813745910" version="1" timestamp="2010-07-12T17:30:36Z" uid="115477" user="wowik" changeset="5200954" lat="57.026467" lon="38.1336001">
    <tag k="name" v="Льняки"/>
    <tag k="place" v="hamlet"/>
  </node>
  <node id="813745910" version="2" timestamp="2012-01-26T21:12:27Z" uid="384084" user="Kostik" changeset="10507299" lat="57.026467" lon="38.1336001">
    <tag k="name" v="Льняки"/>
    <tag k="place" v="hamlet"/>
  </node>
  <node id="813745912" version="1" timestamp="2010-07-12T17:30:36Z" uid="115477" user="wowik" changeset="5200954" lat="57.1237668" lon="38.0000024">
    <tag k="name" v="Рамино"/>
    <tag k="place" v="locality"/>
  </node>
  <node id="813745912" version="2" timestamp="2012-01-26T21:13:36Z" uid="384084" user="Kostik" changeset="10507299" lat="57.1237668" lon="38.0000024">
    <tag k="name" v="Рамино"/>
    <tag k="place" v="locality"/>
  </node>
  <node id="813745914" version="1" timestamp="2010-07-12T17:30:36Z" uid="115477" user="wowik" changeset="5200954" lat="57.1252201" lon="38.0804175">
    <tag k="name" v="Мининская"/>
    <tag k="place" v="hamlet"/>
  </node>
  <node id="813745914" version="2" timestamp="2012-01-26T21:12:42Z" uid="384084" user="Kostik" changeset="10507299" lat="57.1252201" lon="38.0804175">
    <tag k="name" v="Мининская"/>
    <tag k="place" v="hamlet"/>
  </node>
  <node id="813745923" version="1" timestamp="2010-07-12T17:30:36Z" uid="115477" user="wowik" changeset="5200954" lat="57.1342015" lon="38.0650436">
    <tag k="name" v="Сидоровская"/>
    <tag k="place" v="hamlet"/>
  </node>
  <node id="813745923" version="2" timestamp="2012-01-26T21:13:58Z" uid="384084" user="Kostik" changeset="10507299" lat="57.1342015" lon="38.0650436">
    <tag k="name" v="Сидоровская"/>
    <tag k="place" v="hamlet"/>
  </node>
  <node id="813745924" version="1" timestamp="2010-07-12T17:30:36Z" uid="115477" user="wowik" changeset="5200954" lat="57.0176224" lon="38.1703952">
    <tag k="name" v="Старово"/>
    <tag k="place" v="hamlet"/>
  </node>
  <node id="813745924" version="2" timestamp="2012-01-26T21:14:11Z" uid="384084" user="Kostik" changeset="10507299" lat="57.0176224" lon="38.1703952">
    <tag k="name" v="Старово"/>
    <tag k="place" v="hamlet"/>
  </node>
  <node id="813745925" version="1" timestamp="2010-07-12T17:30:37Z" uid="115477" user="wowik" changeset="5200954" lat="57.2685223" lon="38.036634">
    <tag k="name" v="Звездино"/>
    <tag k="place" v="hamlet"/>
  </node>
  <node id="813745925" version="2" timestamp="2012-01-26T21:11:24Z" uid="384084" user="Kostik" changeset="10507299" lat="57.2685223" lon="38.036634">
    <tag k="name" v="Звездино"/>
    <tag k="place" v="hamlet"/>
  </node>
  <node id="813745926" version="1" timestamp="2010-07-12T17:30:37Z" uid="115477" user="wowik" changeset="5200954" lat="57.1218476" lon="38.1526185">
    <tag k="name" v="Языково"/>
    <tag k="place" v="hamlet"/>
  </node>
  <node id="813745926" version="2" timestamp="2012-01-26T21:15:16Z" uid="384084" user="Kostik" changeset="10507299" lat="57.1218476" lon="38.1526185">
    <tag k="name" v="Языково"/>
    <tag k="place" v="hamlet"/>
  </node>
  <node id="813745927" version="1" timestamp="2010-07-12T17:30:37Z" uid="115477" user="wowik" changeset="5200954" lat="57.2380048" lon="38.0224253">
    <tag k="name" v="Злобино"/>
    <tag k="place" v="hamlet"/>
  </node>
  <node id="813745927" version="2" timestamp="2012-01-26T21:11:27Z" uid="384084" user="Kostik" changeset="10507299" lat="57.2380048" lon="38.0224253">
    <tag k="name" v="Злобино"/>
    <tag k="place" v="hamlet"/>
  </node>
  <node id="813745938" version="1" timestamp="2010-07-12T17:30:37Z" uid="115477" user="wowik" changeset="5200954" lat="57.1002347" lon="38.1801152">
    <tag k="name" v="Дыбулино"/>
    <tag k="place" v="hamlet"/>
  </node>
  <node id="813745938" version="2" timestamp="2012-01-26T21:11:09Z" uid="384084" user="Kostik" changeset="10507299" lat="57.1002347" lon="38.1801152">
    <tag k="name" v="Дыбулино"/>
    <tag k="place" v="hamlet"/>
  </node>
  <node id="813745939" version="1" timestamp="2010-07-12T17:30:38Z" uid="115477" user="wowik" changeset="5200954" lat="57.0275228" lon="38.1691436">
    <tag k="name" v="Плутино"/>
    <tag k="place" v="hamlet"/>
  </node>
  <node id="813745939" version="2" timestamp="2012-01-26T21:13:19Z" uid="384084" user="Kostik" changeset="10507299" lat="57.0275228" lon="38.1691436">
    <tag k="name" v="Плутино"/>
    <tag k="place" v="hamlet"/>
  </node>
  <node id="813745940" version="1" timestamp="2010-07-12T17:30:38Z" uid="115477" user="wowik" changeset="5200954" lat="57.2637247" lon="38.1550888">
    <tag k="name" v="Александроково"/>
    <tag k="place" v="hamlet"/>
  </node>
  <node id="813745940" version="2" timestamp="2012-01-26T21:09:33Z" uid="384084" user="Kostik" changeset="10507299" lat="57.2637247" lon="38.1550888">
    <tag k="name" v="Александроково"/>
    <tag k="place" v="hamlet"/>
  </node>
  <node id="813745944" version="1" timestamp="2010-07-12T17:30:38Z" uid="115477" user="wowik" changeset="5200954" lat="57.1508212" lon="38.0034188">
    <tag k="name" v="Никиткино"/>
    <tag k="place" v="locality"/>
  </node>
  <node id="813745944" version="2" timestamp="2012-01-26T21:12:55Z" uid="384084" user="Kostik" changeset="10507299" lat="57.1508212" lon="38.0034188">
    <tag k="name" v="Никиткино"/>
    <tag k="place" v="locality"/>
  </node>
  <node id="813745949" version="1" timestamp="2010-07-12T17:30:38Z" uid="115477" user="wowik" changeset="5200954" lat="57.2249044" lon="38.2149853">
    <tag k="name" v="Бронники"/>
    <tag k="place" v="hamlet"/>
  </node>
  <node id="813745949" version="2" timestamp="2011-09-16T05:07:51Z" uid="441214" user="Чирикан" changeset="9313088" lat="57.2249044" lon="38.2149853"/>
  <node id="813745953" version="1" timestamp="2010-07-12T17:30:39Z" uid="115477" user="wowik" changeset="5200954" lat="57.0960219" lon="38.2412769">
    <tag k="alt_name" v="Збуйнево"/>
    <tag k="name" v="Збуйново"/>
    <tag k="place" v="hamlet"/>
  </node>
  <node id="813745953" version="2" timestamp="2012-01-26T21:11:24Z" uid="384084" user="Kostik" changeset="10507299" lat="57.0960219" lon="38.2412769">
    <tag k="alt_name" v="Збуйнево"/>
    <tag k="name" v="Збуйново"/>
    <tag k="place" v="hamlet"/>
  </node>
  <node id="813745960" version="1" timestamp="2010-07-12T17:30:39Z" uid="115477" user="wowik" changeset="5200954" lat="57.1202359" lon="38.074759">
    <tag k="name" v="Бобики"/>
    <tag k="place" v="hamlet"/>
  </node>
  <node id="813745960" version="2" timestamp="2010-11-26T17:32:21Z" uid="115477" user="wowik" changeset="6463622" lat="57.1202359" lon="38.074759">
    <tag k="name" v="Бобики"/>
    <tag k="old_name" v="Бибиково"/>
    <tag k="place" v="hamlet"/>
  </node>
  <node id="813745960" version="3" timestamp="2012-01-26T21:09:56Z" uid="384084" user="Kostik" changeset="10507299" lat="57.1202359" lon="38.074759">
    <tag k="name" v="Бобики"/>
    <tag k="old_name" v="Бибиково"/>
    <tag k="place" v="hamlet"/>
  </node>
  <node id="813745964" version="1" timestamp="2010-07-12T17:30:39Z" uid="115477" user="wowik" changeset="5200954" lat="57.0143037" lon="38.3652481">
    <tag k="name" v="Степанцево"/>
    <tag k="place" v="hamlet"/>
  </node>
  <node id="813745964" version="2" timestamp="2012-01-26T21:14:16Z" uid="384084" user="Kostik" changeset="10507299" lat="57.0143037" lon="38.3652481">
    <tag k="name" v="Степанцево"/>
    <tag k="place" v="hamlet"/>
  </node>
  <node id="813745964" version="3" timestamp="2012-02-11T19:51:01Z" uid="563357" user="lenux" changeset="10656674" lat="57.0143037" lon="38.3652481">
    <tag k="addr:country" v="RU"/>
    <tag k="addr:district" v="Переславский район"/>
    <tag k="addr:region" v="Ярославская область"/>
    <tag k="name" v="Степанцево"/>
    <tag k="place" v="hamlet"/>
  </node>
  <node id="813745966" version="1" timestamp="2010-07-12T17:30:39Z" uid="115477" user="wowik" changeset="5200954" lat="57.0091931" lon="38.1837761">
    <tag k="name" v="Байкусово"/>
    <tag k="place" v="hamlet"/>
  </node>
  <node id="813745966" version="2" timestamp="2012-01-26T21:09:43Z" uid="384084" user="Kostik" changeset="10507299" lat="57.0091931" lon="38.1837761">
    <tag k="name" v="Байкусово"/>
    <tag k="place" v="hamlet"/>
  </node>
  <node id="813745968" version="1" timestamp="2010-07-12T17:30:40Z" uid="115477" user="wowik" changeset="5200954" lat="57.1442913" lon="38.1492605">
    <tag k="name" v="Малое Рогатино"/>
    <tag k="place" v="hamlet"/>
  </node>
  <node id="813745968" version="2" timestamp="2012-01-26T21:12:32Z" uid="384084" user="Kostik" changeset="10507299" lat="57.1442913" lon="38.1492605">
    <tag k="name" v="Малое Рогатино"/>
    <tag k="place" v="hamlet"/>
  </node>
  <node id="813745969" version="1" timestamp="2010-07-12T17:30:40Z" uid="115477" user="wowik" changeset="5200954" lat="57.1313" lon="38.0228496">
    <tag k="name" v="Патрикеевская"/>
    <tag k="place" v="hamlet"/>
  </node>
  <node id="813745969" version="2" timestamp="2012-01-26T21:13:11Z" uid="384084" user="Kostik" changeset="10507299" lat="57.1313" lon="38.0228496">
    <tag k="name" v="Патрикеевская"/>
    <tag k="place" v="hamlet"/>
  </node>
  <node id="813745973" version="1" timestamp="2010-07-12T17:30:40Z" uid="115477" user="wowik" changeset="5200954" lat="57.1179709" lon="38.0196467">
    <tag k="name" v="Калинино"/>
    <tag k="place" v="hamlet"/>
  </node>
  <node id="813745973" version="2" timestamp="2012-01-26T21:11:38Z" uid="384084" user="Kostik" changeset="10507299" lat="57.1179709" lon="38.0196467">
    <tag k="name" v="Калинино"/>
    <tag k="place" v="hamlet"/>
  </node>
  <node id="813745978" version="1" timestamp="2010-07-12T17:30:41Z" uid="115477" user="wowik" changeset="5200954" lat="57.2250442" lon="38.2264938">
    <tag k="name" v="Хребтово"/>
    <tag k="place" v="hamlet"/>
  </node>
  <node id="813745978" version="2" timestamp="2011-09-16T05:12:58Z" uid="441214" user="Чирикан" changeset="9313120" lat="57.2250442" lon="38.2264938"/>
  <node id="813745981" version="1" timestamp="2010-07-12T17:30:41Z" uid="115477" user="wowik" changeset="5200954" lat="57.171374" lon="38.0340597">
    <tag k="name" v="Плещеево"/>
    <tag k="place" v="hamlet"/>
  </node>
  <node id="813745981" version="2" timestamp="2012-01-26T21:13:18Z" uid="384084" user="Kostik" changeset="10507299" lat="57.171374" lon="38.0340597">
    <tag k="name" v="Плещеево"/>
    <tag k="place" v="hamlet"/>
  </node>
  <node id="813745983" version="1" timestamp="2010-07-12T17:30:41Z" uid="115477" user="wowik" changeset="5200954" lat="57.0248776" lon="38.3640748">
    <tag k="name" v="Старово"/>
    <tag k="place" v="hamlet"/>
  </node>
  <node id="813745983" version="2" timestamp="2010-07-12T18:45:08Z" uid="115477" user="wowik" changeset="5201572" lat="57.0248776" lon="38.3640747">
    <tag k="name" v="Старово"/>
    <tag k="place" v="hamlet"/>
  </node>
  <node id="813745983" version="3" timestamp="2012-01-26T21:14:11Z" uid="384084" user="Kostik" changeset="10507299" lat="57.0248776" lon="38.3640747">
    <tag k="name" v="Старово"/>
    <tag k="place" v="hamlet"/>
  </node>
  <node id="813745983" version="4" timestamp="2012-02-11T19:51:01Z" uid="563357" user="lenux" changeset="10656674" lat="57.0248776" lon="38.3640747">
    <tag k="addr:country" v="RU"/>
    <tag k="addr:district" v="Переславский район"/>
    <tag k="addr:region" v="Ярославская область"/>
    <tag k="name" v="Старово"/>
    <tag k="place" v="hamlet"/>
  </node>
  <node id="813745984" version="1" timestamp="2010-07-12T17:30:42Z" uid="115477" user="wowik" changeset="5200954" lat="57.2648161" lon="38.1675131">
    <tag k="name" v="Кожевня"/>
    <tag k="place" v="hamlet"/>
  </node>
  <node id="813745984" version="2" timestamp="2012-01-26T21:11:48Z" uid="384084" user="Kostik" changeset="10507299" lat="57.2648161" lon="38.1675131">
    <tag k="name" v="Кожевня"/>
    <tag k="place" v="hamlet"/>
  </node>
  <node id="813745987" version="1" timestamp="2010-07-12T17:30:42Z" uid="115477" user="wowik" changeset="5200954" lat="57.1381944" lon="38.0231699">
    <tag k="name" v="Батыевская"/>
    <tag k="place" v="hamlet"/>
  </node>
  <node id="813745987" version="2" timestamp="2012-01-26T21:09:48Z" uid="384084" user="Kostik" changeset="10507299" lat="57.1381944" lon="38.0231699">
    <tag k="name" v="Батыевская"/>
    <tag k="place" v="hamlet"/>
  </node>
  <node id="813745990" version="1" timestamp="2010-07-12T17:30:42Z" uid="115477" user="wowik" changeset="5200954" lat="57.1562066" lon="38.0701455">
    <tag k="name" v="Михалевка"/>
    <tag k="place" v="locality"/>
  </node>
  <node id="813745990" version="2" timestamp="2012-01-26T21:12:44Z" uid="384084" user="Kostik" changeset="10507299" lat="57.1562066" lon="38.0701455">
    <tag k="name" v="Михалевка"/>
    <tag k="place" v="locality"/>
  </node>
  <node id="813745993" version="1" timestamp="2010-07-12T17:30:42Z" uid="115477" user="wowik" changeset="5200954" lat="57.2130496" lon="38.194179">
    <tag k="name" v="Черногрязка"/>
    <tag k="place" v="hamlet"/>
  </node>
  <node id="813745993" version="2" timestamp="2011-09-16T15:23:38Z" uid="441214" user="Чирикан" changeset="9316977" lat="57.2130496" lon="38.194179"/>
  <node id="813745862" version="3" timestamp="2012-07-20T10:10:45Z" uid="722137" user="OSMF Redaction Account" changeset="12370828" lat="57.1775087" lon="38.0660886"/>
  <node id="813745865" version="3" timestamp="2012-07-20T10:11:10Z" uid="722137" user="OSMF Redaction Account" changeset="12370846" lat="57.1330646" lon="38.0405261"/>
  <node id="813745867" version="3" timestamp="2012-07-20T10:11:10Z" uid="722137" user="OSMF Redaction Account" changeset="12370846" lat="57.1407433" lon="38.0590422"/>
  <node id="813745877" version="3" timestamp="2012-07-20T10:12:06Z" uid="722137" user="OSMF Redaction Account" changeset="12370877" lat="57.1238827" lon="38.0178318"/>
  <node id="813745880" version="3" timestamp="2012-07-20T10:09:36Z" uid="722137" user="OSMF Redaction Account" changeset="12370794" lat="57.0643885" lon="38.2453715"/>
  <node id="813745885" version="4" timestamp="2012-07-20T10:12:06Z" uid="722137" user="OSMF Redaction Account" changeset="12370877" lat="57.0981586" lon="38.0058461"/>
  <node id="813745886" version="3" timestamp="2012-07-20T10:12:06Z" uid="722137" user="OSMF Redaction Account" changeset="12370877" lat="57.1229554" lon="38.0259457"/>
  <node id="813745889" version="3" timestamp="2012-07-20T10:09:36Z" uid="722137" user="OSMF Redaction Account" changeset="12370794" lat="57.107543" lon="38.2409037"/>
  <node id="813745890" version="3" timestamp="2012-07-20T10:12:05Z" uid="722137" user="OSMF Redaction Account" changeset="12370877" lat="57.0431484" lon="38.008454"/>
  <node id="813745892" version="4" timestamp="2012-07-20T10:07:14Z" uid="722137" user="OSMF Redaction Account" changeset="12370705" lat="57.2420543" lon="38.2775809"/>
  <node id="813745894" version="3" timestamp="2012-07-20T10:09:36Z" uid="722137" user="OSMF Redaction Account" changeset="12370794" lat="57.0704467" lon="38.2380487"/>
  <node id="813745896" version="3" timestamp="2012-07-20T10:10:45Z" uid="722137" user="OSMF Redaction Account" changeset="12370828" lat="57.1537846" lon="38.0901471"/>
  <node id="813745899" version="3" timestamp="2012-07-20T10:09:36Z" uid="722137" user="OSMF Redaction Account" changeset="12370794" lat="57.1071207" lon="38.2206872"/>
  <node id="813745900" version="4" timestamp="2012-07-20T10:11:34Z" uid="722137" user="OSMF Redaction Account" changeset="12370861" lat="57.037226" lon="38.065538"/>
  <node id="813745904" version="4" timestamp="2012-07-20T10:11:09Z" uid="722137" user="OSMF Redaction Account" changeset="12370846" lat="57.1289867" lon="38.0459331"/>
  <node id="813745907" version="3" timestamp="2012-07-20T10:11:10Z" uid="722137" user="OSMF Redaction Account" changeset="12370846" lat="57.235034" lon="38.0341456"/>
  <node id="813745908" version="3" timestamp="2012-07-20T10:10:08Z" uid="722137" user="OSMF Redaction Account" changeset="12370811" lat="57.0956135" lon="38.1641641"/>
  <node id="813745910" version="3" timestamp="2012-07-20T10:10:07Z" uid="722137" user="OSMF Redaction Account" changeset="12370811" lat="57.026467" lon="38.1336001"/>
  <node id="813745912" version="3" timestamp="2012-07-20T10:12:06Z" uid="722137" user="OSMF Redaction Account" changeset="12370877" lat="57.1237668" lon="38.0000024"/>
  <node id="813745914" version="3" timestamp="2012-07-20T10:10:45Z" uid="722137" user="OSMF Redaction Account" changeset="12370828" lat="57.1252201" lon="38.0804175"/>
  <node id="813745923" version="3" timestamp="2012-07-20T10:10:45Z" uid="722137" user="OSMF Redaction Account" changeset="12370828" lat="57.1342015" lon="38.0650436"/>
  <node id="813745924" version="3" timestamp="2012-07-20T10:10:07Z" uid="722137" user="OSMF Redaction Account" changeset="12370811" lat="57.0176224" lon="38.1703952"/>
  <node id="813745925" version="3" timestamp="2012-07-20T10:08:31Z" uid="722137" user="OSMF Redaction Account" changeset="12370755" lat="57.2685223" lon="38.036634"/>
  <node id="813745926" version="3" timestamp="2012-07-20T10:10:08Z" uid="722137" user="OSMF Redaction Account" changeset="12370811" lat="57.1218476" lon="38.1526185"/>
  <node id="813745927" version="3" timestamp="2012-07-20T10:11:10Z" uid="722137" user="OSMF Redaction Account" changeset="12370846" lat="57.2380048" lon="38.0224253"/>
  <node id="813745938" version="3" timestamp="2012-07-20T10:10:08Z" uid="722137" user="OSMF Redaction Account" changeset="12370811" lat="57.1002347" lon="38.1801152"/>
  <node id="813745939" version="3" timestamp="2012-07-20T10:10:07Z" uid="722137" user="OSMF Redaction Account" changeset="12370811" lat="57.0275228" lon="38.1691436"/>
  <node id="813745940" version="3" timestamp="2012-07-20T10:07:56Z" uid="722137" user="OSMF Redaction Account" changeset="12370722" lat="57.2637247" lon="38.1550888"/>
  <node id="813745944" version="3" timestamp="2012-07-20T10:11:10Z" uid="722137" user="OSMF Redaction Account" changeset="12370846" lat="57.1508212" lon="38.0034188"/>
  <node id="813745953" version="3" timestamp="2012-07-20T10:09:36Z" uid="722137" user="OSMF Redaction Account" changeset="12370794" lat="57.0960219" lon="38.2412769"/>
  <node id="813745960" version="4" timestamp="2012-07-20T10:11:34Z" uid="722137" user="OSMF Redaction Account" changeset="12370861" lat="57.1202359" lon="38.074759"/>
  <node id="813745964" version="4" timestamp="2012-07-20T10:07:18Z" uid="722137" user="OSMF Redaction Account" changeset="12370709" lat="57.0143037" lon="38.3652481"/>
  <node id="813745966" version="3" timestamp="2012-07-20T10:10:07Z" uid="722137" user="OSMF Redaction Account" changeset="12370811" lat="57.0091931" lon="38.1837761"/>
  <node id="813745968" version="3" timestamp="2012-07-20T10:09:22Z" uid="722137" user="OSMF Redaction Account" changeset="12370788" lat="57.1442913" lon="38.1492605"/>
  <node id="813745969" version="3" timestamp="2012-07-20T10:11:09Z" uid="722137" user="OSMF Redaction Account" changeset="12370846" lat="57.1313" lon="38.0228496"/>
  <node id="813745973" version="3" timestamp="2012-07-20T10:12:06Z" uid="722137" user="OSMF Redaction Account" changeset="12370877" lat="57.1179709" lon="38.0196467"/>
  <node id="813745981" version="3" timestamp="2012-07-20T10:11:10Z" uid="722137" user="OSMF Redaction Account" changeset="12370846" lat="57.171374" lon="38.0340597"/>
  <node id="813745983" version="5" timestamp="2012-07-20T10:07:18Z" uid="722137" user="OSMF Redaction Account" changeset="12370709" lat="57.0248776" lon="38.3640747"/>
  <node id="813745984" version="3" timestamp="2012-07-20T10:07:56Z" uid="722137" user="OSMF Redaction Account" changeset="12370722" lat="57.2648161" lon="38.1675131"/>
  <node id="813745987" version="3" timestamp="2012-07-20T10:11:10Z" uid="722137" user="OSMF Redaction Account" changeset="12370846" lat="57.1381944" lon="38.0231699"/>
  <node id="813745990" version="3" timestamp="2012-07-20T10:10:45Z" uid="722137" user="OSMF Redaction Account" changeset="12370828" lat="57.1562066" lon="38.0701455"/>
</osm>
