<?xml version='1.0' encoding='UTF-8'?>
<osm version="0.6" generator="libosmium/2.20.0">
  <node id="817485018" version="1" timestamp="2010-07-14T16:42:22Z" uid="115477" user="wowik" changeset="5219473" lat="57.4779275" lon="37.6930151">
    <tag k="name" v="Егорьевское"/>
    <tag k="place" v="hamlet"/>
    <tag k="source" v="Менге"/>
  </node>
  <node id="817485018" version="2" timestamp="2010-07-14T16:48:46Z" uid="115477" user="wowik" changeset="5219519" lat="57.4779275" lon="37.6930151">
    <tag k="name" v="Егорьевское"/>
    <tag k="place" v="locality"/>
    <tag k="source" v="Менге"/>
  </node>
  <node id="817485018" version="3" timestamp="2010-11-23T15:42:54Z" uid="115477" user="wowik" changeset="6440035" lat="57.4779275" lon="37.6930151">
    <tag k="name" v="Егорьевское"/>
    <tag k="place" v="locality"/>
    <tag k="source" v="Менде"/>
  </node>
  <node id="817485018" version="4" timestamp="2010-11-25T12:21:02Z" uid="115477" user="wowik" changeset="6453611" lat="57.4779275" lon="37.6930151">
    <tag k="description" v="Здесь было село, в отличие от соседней деревни"/>
    <tag k="name" v="Егорьевское"/>
    <tag k="place" v="locality"/>
    <tag k="source" v="Менде"/>
  </node>
  <node id="817485018" version="5" timestamp="2010-11-25T13:07:53Z" uid="115477" user="wowik" changeset="6453611" lat="57.4773781" lon="37.6920515">
    <tag k="description" v="Здесь было село, в отличие от соседней деревни"/>
    <tag k="name" v="Егорьевское"/>
    <tag k="place" v="locality"/>
    <tag k="source" v="Менде"/>
  </node>
  <node id="817485018" version="6" timestamp="2012-01-26T21:11:12Z" uid="384084" user="Kostik" changeset="10507299" lat="57.4773781" lon="37.6920515">
    <tag k="description" v="Здесь было село, в отличие от соседней деревни"/>
    <tag k="name" v="Егорьевское"/>
    <tag k="place" v="locality"/>
    <tag k="source" v="Менде"/>
  </node>
  <node id="817485024" version="1" timestamp="2010-07-14T16:42:22Z" uid="115477" user="wowik" changeset="5219473" lat="57.4887121" lon="37.6347262">
    <tag k="name" v="Колотилово"/>
    <tag k="place" v="hamlet"/>
    <tag k="source" v="Менге"/>
  </node>
  <node id="817485024" version="2" timestamp="2010-11-22T18:15:45Z" uid="115477" user="wowik" changeset="6432391" lat="57.4885619" lon="37.6348122">
    <tag k="name" v="Колотилово"/>
    <tag k="place" v="locality"/>
    <tag k="source" v="Менге"/>
  </node>
  <node id="817485024" version="3" timestamp="2010-11-23T15:42:53Z" uid="115477" user="wowik" changeset="6440035" lat="57.4885619" lon="37.6348122">
    <tag k="name" v="Колотилово"/>
    <tag k="place" v="locality"/>
    <tag k="source" v="Менде"/>
  </node>
  <node id="817485024" version="4" timestamp="2012-01-26T21:11:53Z" uid="384084" user="Kostik" changeset="10507299" lat="57.4885619" lon="37.6348122">
    <tag k="name" v="Колотилово"/>
    <tag k="place" v="locality"/>
    <tag k="source" v="Менде"/>
  </node>
  <node id="817485031" version="1" timestamp="2010-07-14T16:42:22Z" uid="115477" user="wowik" changeset="5219473" lat="57.5126664" lon="37.6953268">
    <tag k="name" v="Назарьево"/>
    <tag k="place" v="hamlet"/>
    <tag k="source" v="Менге"/>
  </node>
  <node id="817485031" version="2" timestamp="2010-11-25T13:07:54Z" uid="115477" user="wowik" changeset="6453611" lat="57.5126664" lon="37.6953268">
    <tag k="name" v="Назарьево"/>
    <tag k="place" v="hamlet"/>
    <tag k="source" v="Менде"/>
  </node>
  <node id="817485031" version="3" timestamp="2012-01-26T21:12:50Z" uid="384084" user="Kostik" changeset="10507299" lat="57.5126664" lon="37.6953268">
    <tag k="name" v="Назарьево"/>
    <tag k="place" v="hamlet"/>
    <tag k="source" v="Менде"/>
  </node>
  <node id="817485036" version="1" timestamp="2010-07-14T16:42:22Z" uid="115477" user="wowik" changeset="5219473" lat="57.4936153" lon="37.5974365">
    <tag k="name" v="Покров"/>
    <tag k="place" v="locality"/>
    <tag k="source" v="Менге"/>
  </node>
  <node id="817485036" version="2" timestamp="2010-11-23T15:42:52Z" uid="115477" user="wowik" changeset="6440035" lat="57.4936153" lon="37.5974365">
    <tag k="name" v="Покров"/>
    <tag k="place" v="locality"/>
    <tag k="source" v="Менде"/>
  </node>
  <node id="817485036" version="3" timestamp="2012-01-26T21:13:22Z" uid="384084" user="Kostik" changeset="10507299" lat="57.4936153" lon="37.5974365">
    <tag k="name" v="Покров"/>
    <tag k="place" v="locality"/>
    <tag k="source" v="Менде"/>
  </node>
  <node id="817485087" version="1" timestamp="2010-07-14T16:42:22Z" uid="115477" user="wowik" changeset="5219473" lat="57.4818509" lon="37.7312213">
    <tag k="name" v="Селиваново"/>
    <tag k="place" v="hamlet"/>
    <tag k="source" v="Менге"/>
  </node>
  <node id="817485087" version="2" timestamp="2010-07-14T16:52:54Z" uid="115477" user="wowik" changeset="5219550" lat="57.4817622" lon="37.7325418">
    <tag k="name" v="Селиваново"/>
    <tag k="place" v="locality"/>
    <tag k="source" v="Менге"/>
  </node>
  <node id="817485087" version="3" timestamp="2010-11-23T15:42:57Z" uid="115477" user="wowik" changeset="6440035" lat="57.4817622" lon="37.7325418">
    <tag k="name" v="Селиваново"/>
    <tag k="place" v="locality"/>
    <tag k="source" v="Менде"/>
  </node>
  <node id="817485087" version="4" timestamp="2012-01-26T21:13:53Z" uid="384084" user="Kostik" changeset="10507299" lat="57.4817622" lon="37.7325418">
    <tag k="name" v="Селиваново"/>
    <tag k="place" v="locality"/>
    <tag k="source" v="Менде"/>
  </node>
  <node id="817485098" version="1" timestamp="2010-07-14T16:42:23Z" uid="115477" user="wowik" changeset="5219473" lat="57.4638984" lon="37.6789795">
    <tag k="name" v="Лубенькино"/>
    <tag k="place" v="hamlet"/>
    <tag k="source" v="Менге"/>
  </node>
  <node id="817485098" version="2" timestamp="2010-07-14T16:48:46Z" uid="115477" user="wowik" changeset="5219519" lat="57.4638984" lon="37.6789795">
    <tag k="name" v="Лубеньки"/>
    <tag k="old_name" v="Лубенькино"/>
    <tag k="place" v="locality"/>
    <tag k="source" v="Менге"/>
  </node>
  <node id="817485098" version="3" timestamp="2010-07-14T16:52:54Z" uid="115477" user="wowik" changeset="5219550" lat="57.4629166" lon="37.6791148">
    <tag k="name" v="Лубеньки"/>
    <tag k="old_name" v="Лубенькино"/>
    <tag k="place" v="locality"/>
    <tag k="source" v="Менге"/>
  </node>
  <node id="817485098" version="4" timestamp="2010-11-23T15:42:54Z" uid="115477" user="wowik" changeset="6440035" lat="57.4629166" lon="37.6791148">
    <tag k="name" v="Лубеньки"/>
    <tag k="old_name" v="Лубенькино"/>
    <tag k="place" v="locality"/>
    <tag k="source" v="Менде"/>
  </node>
  <node id="817485098" version="5" timestamp="2012-01-26T21:12:24Z" uid="384084" user="Kostik" changeset="10507299" lat="57.4629166" lon="37.6791148">
    <tag k="name" v="Лубеньки"/>
    <tag k="old_name" v="Лубенькино"/>
    <tag k="place" v="locality"/>
    <tag k="source" v="Менде"/>
  </node>
  <node id="817485104" version="1" timestamp="2010-07-14T16:42:23Z" uid="115477" user="wowik" changeset="5219473" lat="57.5090743" lon="37.7252144">
    <tag k="name" v="Левоново"/>
    <tag k="place" v="hamlet"/>
    <tag k="source" v="Менге"/>
  </node>
  <node id="817485104" version="2" timestamp="2010-07-14T16:52:54Z" uid="115477" user="wowik" changeset="5219550" lat="57.5090743" lon="37.7252144">
    <tag k="name" v="Левоново"/>
    <tag k="place" v="locality"/>
    <tag k="source" v="Менге"/>
  </node>
  <node id="817485104" version="3" timestamp="2010-11-25T13:07:57Z" uid="115477" user="wowik" changeset="6453611" lat="57.5090743" lon="37.7252144">
    <tag k="name" v="Левоново"/>
    <tag k="place" v="locality"/>
    <tag k="source" v="Менде"/>
  </node>
  <node id="817485104" version="4" timestamp="2012-01-26T21:12:17Z" uid="384084" user="Kostik" changeset="10507299" lat="57.5090743" lon="37.7252144">
    <tag k="name" v="Левоново"/>
    <tag k="place" v="locality"/>
    <tag k="source" v="Менде"/>
  </node>
  <node id="817485111" version="1" timestamp="2010-07-14T16:42:23Z" uid="115477" user="wowik" changeset="5219473" lat="57.4537508" lon="37.7244233">
    <tag k="name" v="Ламоново"/>
    <tag k="place" v="locality"/>
    <tag k="source" v="Менге"/>
  </node>
  <node id="817485111" version="2" timestamp="2010-11-23T15:42:55Z" uid="115477" user="wowik" changeset="6440035" lat="57.4537508" lon="37.7244233">
    <tag k="name" v="Ламоново"/>
    <tag k="place" v="locality"/>
    <tag k="source" v="Менде"/>
  </node>
  <node id="817485111" version="3" timestamp="2012-01-26T21:12:15Z" uid="384084" user="Kostik" changeset="10507299" lat="57.4537508" lon="37.7244233">
    <tag k="name" v="Ламоново"/>
    <tag k="place" v="locality"/>
    <tag k="source" v="Менде"/>
  </node>
  <node id="817485118" version="1" timestamp="2010-07-14T16:42:23Z" uid="115477" user="wowik" changeset="5219473" lat="57.508276" lon="37.6208557">
    <tag k="name" v="Лобково"/>
    <tag k="place" v="hamlet"/>
    <tag k="source" v="Менге"/>
  </node>
  <node id="817485118" version="2" timestamp="2010-11-25T13:07:54Z" uid="115477" user="wowik" changeset="6453611" lat="57.508276" lon="37.6208557">
    <tag k="name" v="Лобково"/>
    <tag k="place" v="hamlet"/>
    <tag k="source" v="Менде"/>
  </node>
  <node id="817485118" version="3" timestamp="2012-01-26T21:12:22Z" uid="384084" user="Kostik" changeset="10507299" lat="57.508276" lon="37.6208557">
    <tag k="name" v="Лобково"/>
    <tag k="place" v="hamlet"/>
    <tag k="source" v="Менде"/>
  </node>
  <node id="817485124" version="1" timestamp="2010-07-14T16:42:23Z" uid="115477" user="wowik" changeset="5219473" lat="57.4124745" lon="37.6653008"/>
  <node id="817485129" version="1" timestamp="2010-07-14T16:42:24Z" uid="115477" user="wowik" changeset="5219473" lat="57.4887243" lon="37.7488698">
    <tag k="name" v="Буйково"/>
    <tag k="place" v="locality"/>
    <tag k="source" v="Менге"/>
  </node>
  <node id="817485129" version="2" timestamp="2010-11-25T13:07:54Z" uid="115477" user="wowik" changeset="6453611" lat="57.4887243" lon="37.7488698">
    <tag k="name" v="Буйково"/>
    <tag k="place" v="locality"/>
    <tag k="source" v="Менде"/>
  </node>
  <node id="817485129" version="3" timestamp="2012-01-26T21:10:07Z" uid="384084" user="Kostik" changeset="10507299" lat="57.4887243" lon="37.7488698">
    <tag k="name" v="Буйково"/>
    <tag k="place" v="locality"/>
    <tag k="source" v="Менде"/>
  </node>
  <node id="817485134" version="1" timestamp="2010-07-14T16:42:24Z" uid="115477" user="wowik" changeset="5219473" lat="57.5046834" lon="37.7428827">
    <tag k="name" v="Погост Веденский на ляму"/>
    <tag k="place" v="locality"/>
    <tag k="source" v="Менге"/>
  </node>
  <node id="817485134" version="2" timestamp="2010-11-25T13:07:54Z" uid="115477" user="wowik" changeset="6453611" lat="57.5046834" lon="37.7428827">
    <tag k="name" v="Погост Веденский на ляму"/>
    <tag k="place" v="locality"/>
    <tag k="source" v="Менде"/>
  </node>
  <node id="817485134" version="3" timestamp="2012-01-26T21:13:20Z" uid="384084" user="Kostik" changeset="10507299" lat="57.5046834" lon="37.7428827">
    <tag k="name" v="Погост Веденский на ляму"/>
    <tag k="place" v="locality"/>
    <tag k="source" v="Менде"/>
  </node>
  <node id="817485018" version="7" timestamp="2012-07-20T11:04:50Z" uid="722137" user="OSMF Redaction Account" changeset="12372254" lat="57.4773781" lon="37.6920515"/>
  <node id="817485024" version="5" timestamp="2012-07-17T11:55:50Z" uid="384084" user="Kostik" changeset="12264621" lat="57.4885586" lon="37.6348021">
    <tag k="name" v="Колотилово"/>
    <tag k="place" v="locality"/>
    <tag k="source" v="Менде"/>
  </node>
  <node id="817485024" version="6" timestamp="2012-07-20T11:06:13Z" uid="722137" user="OSMF Redaction Account" changeset="12372350" lat="57.4885586" lon="37.6348021"/>
  <node id="817485024" version="7" timestamp="2012-07-21T15:09:59Z" uid="127606" user="loir" changeset="12412810" lat="57.4885586" lon="37.6348021"/>
  <node id="817485031" version="4" timestamp="2012-07-20T10:45:18Z" uid="722137" user="OSMF Redaction Account" changeset="12371649" lat="57.5126664" lon="37.6953268"/>
  <node id="817485036" version="4" timestamp="2012-07-17T11:55:57Z" uid="384084" user="Kostik" changeset="12264621" lat="57.493612" lon="37.5974264">
    <tag k="name" v="Покров"/>
    <tag k="place" v="locality"/>
    <tag k="source" v="Менде"/>
  </node>
  <node id="817485036" version="5" timestamp="2012-07-20T11:13:59Z" uid="722137" user="OSMF Redaction Account" changeset="12372661" lat="57.493612" lon="37.5974264"/>
  <node id="817485036" version="6" timestamp="2012-07-21T15:34:28Z" uid="127606" user="loir" changeset="12413495" lat="57.493612" lon="37.5974264"/>
  <node id="817485087" version="5" timestamp="2012-07-20T11:04:50Z" uid="722137" user="OSMF Redaction Account" changeset="12372254" lat="57.4817622" lon="37.7325418"/>
  <node id="817485098" version="6" timestamp="2012-07-20T11:06:22Z" uid="722137" user="OSMF Redaction Account" changeset="12372350" lat="57.4629166" lon="37.6791148"/>
  <node id="817485104" version="5" timestamp="2012-07-20T10:45:18Z" uid="722137" user="OSMF Redaction Account" changeset="12371649" lat="57.5090743" lon="37.7252144"/>
  <node id="817485111" version="4" timestamp="2012-07-20T11:04:50Z" uid="722137" user="OSMF Redaction Account" changeset="12372254" lat="57.4537508" lon="37.7244233"/>
  <node id="817485118" version="4" timestamp="2012-07-17T11:55:52Z" uid="384084" user="Kostik" changeset="12264621" lat="57.5082727" lon="37.6208456">
    <tag k="name" v="Лобково"/>
    <tag k="place" v="hamlet"/>
    <tag k="source" v="Менде"/>
  </node>
  <node id="817485118" version="5" timestamp="2012-07-20T10:48:27Z" uid="722137" user="OSMF Redaction Account" changeset="12371750" lat="57.5082727" lon="37.6208456"/>
  <node id="817485118" version="6" timestamp="2012-07-21T15:09:59Z" uid="127606" user="loir" changeset="12412810" lat="57.5082727" lon="37.6208456"/>
  <node id="817485124" version="2" timestamp="2012-04-06T08:07:51Z" uid="384084" user="Kostik" changeset="11197383" lat="57.4124746" lon="37.6653022"/>
  <node id="817485124" version="3" timestamp="2012-07-21T15:34:28Z" uid="127606" user="loir" changeset="12413495" lat="57.4124746" lon="37.6653022"/>
  <node id="817485129" version="4" timestamp="2012-07-20T11:04:50Z" uid="722137" user="OSMF Redaction Account" changeset="12372254" lat="57.4887243" lon="37.7488698"/>
  <node id="817485134" version="4" timestamp="2012-07-20T10:45:17Z" uid="722137" user="OSMF Redaction Account" changeset="12371649" lat="57.5046834" lon="37.7428827"/>
</osm>
