<?xml version='1.0' encoding='UTF-8'?>
<osm version="0.6" generator="libosmium/2.20.0">
  <node id="819040644" version="1" timestamp="2010-07-15T16:33:53Z" uid="107674" user="GeoCounter" changeset="5228088" lat="50.0501581" lon="8.7839044">
    <tag k="addr:city" v="Heusenstamm"/>
    <tag k="addr:country" v="DE"/>
    <tag k="addr:housenumber" v="12"/>
    <tag k="addr:postcode" v="63150"/>
    <tag k="addr:street" v="Feldbergstraße"/>
  </node>
  <node id="819040644" version="2" timestamp="2012-01-03T12:19:42Z" uid="91490" user="Heinz_V" changeset="10280528" lat="50.0501581" lon="8.7839044">
    <tag k="addr:city" v="Heusenstamm"/>
    <tag k="addr:country" v="DE"/>
    <tag k="addr:housenumber" v="12"/>
    <tag k="addr:postcode" v="63150"/>
    <tag k="addr:street" v="Feldbergstraße"/>
    <tag k="odbl" v="clean"/>
  </node>
  <node id="819040649" version="1" timestamp="2010-07-15T16:33:53Z" uid="107674" user="GeoCounter" changeset="5228088" lat="50.0554515" lon="8.784868">
    <tag k="amenity" v="post_box"/>
    <tag k="operator" v="Deutsche Post"/>
  </node>
  <node id="819040649" version="2" timestamp="2012-01-03T12:17:46Z" uid="91490" user="Heinz_V" changeset="10280528" lat="50.0554515" lon="8.784868">
    <tag k="amenity" v="post_box"/>
    <tag k="odbl" v="clean"/>
    <tag k="operator" v="Deutsche Post"/>
  </node>
  <node id="819040649" version="3" timestamp="2012-02-20T16:52:41Z" uid="607175" user="Mariele" changeset="10742354" lat="50.0553914" lon="8.7847452">
    <tag k="amenity" v="post_box"/>
    <tag k="odbl" v="clean"/>
    <tag k="operator" v="Deutsche Post"/>
  </node>
  <node id="819040649" version="4" timestamp="2012-03-01T04:06:50Z" uid="210173" user="osmmaker" changeset="10834275" lat="50.0553914" lon="8.7847452">
    <tag k="amenity" v="post_box"/>
    <tag k="collection_times" v="FIXME"/>
    <tag k="odbl" v="clean"/>
    <tag k="operator" v="Deutsche Post"/>
    <tag k="ref:Deutsche_Post" v="FIXME"/>
  </node>
  <node id="819040649" version="5" timestamp="2012-03-04T00:27:32Z" uid="147510" user="woodpeck_fixbot" changeset="10861079" lat="50.0553914" lon="8.7847452">
    <tag k="amenity" v="post_box"/>
    <tag k="odbl" v="clean"/>
    <tag k="operator" v="Deutsche Post"/>
  </node>
  <node id="819040653" version="1" timestamp="2010-07-15T16:33:53Z" uid="107674" user="GeoCounter" changeset="5228088" lat="50.0554479" lon="8.784795">
    <tag k="amenity" v="telephone"/>
  </node>
  <node id="819040653" version="2" timestamp="2012-01-03T12:09:10Z" uid="91490" user="Heinz_V" changeset="10280528" lat="50.0554479" lon="8.784795">
    <tag k="amenity" v="telephone"/>
    <tag k="odbl" v="clean"/>
  </node>
  <node id="819040653" version="3" timestamp="2012-02-20T16:52:41Z" uid="607175" user="Mariele" changeset="10742354" lat="50.0554141" lon="8.7846752">
    <tag k="amenity" v="telephone"/>
    <tag k="odbl" v="clean"/>
  </node>
  <node id="819040656" version="1" timestamp="2010-07-15T16:33:53Z" uid="107674" user="GeoCounter" changeset="5228088" lat="50.0502248" lon="8.784242">
    <tag k="addr:city" v="Heusenstamm"/>
    <tag k="addr:country" v="DE"/>
    <tag k="addr:housenumber" v="10"/>
    <tag k="addr:postcode" v="63150"/>
    <tag k="addr:street" v="Feldbergstraße"/>
  </node>
  <node id="819040656" version="2" timestamp="2012-01-03T12:18:20Z" uid="91490" user="Heinz_V" changeset="10280528" lat="50.0502248" lon="8.784242">
    <tag k="addr:city" v="Heusenstamm"/>
    <tag k="addr:country" v="DE"/>
    <tag k="addr:housenumber" v="10"/>
    <tag k="addr:postcode" v="63150"/>
    <tag k="addr:street" v="Feldbergstraße"/>
    <tag k="odbl" v="clean"/>
  </node>
  <node id="819040672" version="1" timestamp="2010-07-15T16:33:54Z" uid="107674" user="GeoCounter" changeset="5228088" lat="50.0500147" lon="8.7826632">
    <tag k="addr:city" v="Heusenstamm"/>
    <tag k="addr:country" v="DE"/>
    <tag k="addr:housenumber" v="16"/>
    <tag k="addr:postcode" v="63150"/>
    <tag k="addr:street" v="Feldbergstraße"/>
  </node>
  <node id="819040672" version="2" timestamp="2012-01-03T12:08:43Z" uid="91490" user="Heinz_V" changeset="10280528" lat="50.0500147" lon="8.7826632">
    <tag k="addr:city" v="Heusenstamm"/>
    <tag k="addr:country" v="DE"/>
    <tag k="addr:housenumber" v="16"/>
    <tag k="addr:postcode" v="63150"/>
    <tag k="addr:street" v="Feldbergstraße"/>
    <tag k="odbl" v="clean"/>
  </node>
  <node id="819040675" version="1" timestamp="2010-07-15T16:33:54Z" uid="107674" user="GeoCounter" changeset="5228088" lat="50.0559135" lon="8.7848287">
    <tag k="amenity" v="recycling"/>
    <tag k="recycling:glass" v="yes"/>
  </node>
  <node id="819040675" version="2" timestamp="2012-01-03T12:13:15Z" uid="91490" user="Heinz_V" changeset="10280528" lat="50.0559135" lon="8.7848287">
    <tag k="amenity" v="recycling"/>
    <tag k="odbl" v="clean"/>
    <tag k="recycling:glass" v="yes"/>
  </node>
  <node id="819040679" version="1" timestamp="2010-07-15T16:33:54Z" uid="107674" user="GeoCounter" changeset="5228088" lat="50.0502848" lon="8.7845121">
    <tag k="addr:city" v="Heusenstamm"/>
    <tag k="addr:country" v="DE"/>
    <tag k="addr:housenumber" v="8"/>
    <tag k="addr:postcode" v="63150"/>
    <tag k="addr:street" v="Feldbergstraße"/>
  </node>
  <node id="819040679" version="2" timestamp="2012-01-03T12:17:34Z" uid="91490" user="Heinz_V" changeset="10280528" lat="50.0502848" lon="8.7845121">
    <tag k="addr:city" v="Heusenstamm"/>
    <tag k="addr:country" v="DE"/>
    <tag k="addr:housenumber" v="8"/>
    <tag k="addr:postcode" v="63150"/>
    <tag k="addr:street" v="Feldbergstraße"/>
    <tag k="odbl" v="clean"/>
  </node>
  <node id="819040684" version="1" timestamp="2010-07-15T16:33:54Z" uid="107674" user="GeoCounter" changeset="5228088" lat="50.0501014" lon="8.7830527">
    <tag k="addr:city" v="Heusenstamm"/>
    <tag k="addr:country" v="DE"/>
    <tag k="addr:housenumber" v="14"/>
    <tag k="addr:postcode" v="63150"/>
    <tag k="addr:street" v="Feldbergstraße"/>
  </node>
  <node id="819040684" version="2" timestamp="2012-01-03T12:08:00Z" uid="91490" user="Heinz_V" changeset="10280528" lat="50.0501014" lon="8.7830527">
    <tag k="addr:city" v="Heusenstamm"/>
    <tag k="addr:country" v="DE"/>
    <tag k="addr:housenumber" v="14"/>
    <tag k="addr:postcode" v="63150"/>
    <tag k="addr:street" v="Feldbergstraße"/>
    <tag k="odbl" v="clean"/>
  </node>
</osm>
