<?xml version='1.0' encoding='UTF-8'?>
<osm version="0.6" generator="libosmium/2.20.0">
  <node id="819075063" version="2" timestamp="2010-09-24T17:02:28Z" uid="88880" user="firsttimelinux" changeset="5864565" lat="49.8720921" lon="8.6540835">
    <tag k="amenity" v="atm"/>
    <tag k="note" v="moved from around the corner - 15.07.2010"/>
    <tag k="operator" v="Sparrkasse Darmstadt"/>
  </node>
  <node id="819075063" version="3" timestamp="2010-09-29T07:10:36Z" uid="61927" user="AlexPleiner" changeset="5909083" lat="49.8720921" lon="8.6540835">
    <tag k="amenity" v="atm"/>
    <tag k="note" v="moved from around the corner - 15.07.2010"/>
    <tag k="operator" v="Sparrkasse Darmstadt"/>
  </node>
  <node id="819075063" version="4" timestamp="2010-10-08T07:01:35Z" uid="61927" user="AlexPleiner" changeset="5983621" lat="49.8720921" lon="8.6540835">
    <tag k="amenity" v="atm"/>
    <tag k="note" v="moved from around the corner - 15.07.2010"/>
    <tag k="operator" v="Sparkasse Darmstadt"/>
  </node>
  <node id="819075063" version="5" timestamp="2010-10-22T07:11:44Z" uid="290680" user="wheelmap_visitor" changeset="6133243" lat="49.8720921" lon="8.6540835">
    <tag k="amenity" v="atm"/>
    <tag k="note" v="moved from around the corner - 15.07.2010"/>
    <tag k="operator" v="Sparkasse Darmstadt"/>
    <tag k="wheelchair" v="yes"/>
  </node>
  <node id="819075063" version="6" timestamp="2011-02-19T23:35:48Z" uid="21038" user="Joachim Schneider" changeset="7337816" lat="49.8721055" lon="8.6540766">
    <tag k="amenity" v="atm"/>
    <tag k="note" v="moved from around the corner - 15.07.2010"/>
    <tag k="operator" v="Sparkasse Darmstadt"/>
    <tag k="wheelchair" v="yes"/>
  </node>
</osm>
