<?xml version='1.0' encoding='UTF-8'?>
<osm version="0.6" generator="libosmium/2.20.0">
  <node id="8202487" version="4" timestamp="2008-08-12T20:48:40Z" uid="6975" user="ulfl" changeset="223340" lat="46.5727554" lon="8.4152048">
    <tag k="ele" v="2436"/>
    <tag k="mountain_pass" v="yes"/>
    <tag k="name" v="Furkapass"/>
  </node>
  <node id="8202487" version="5" timestamp="2008-10-07T19:22:26Z" uid="56631" user="dodger17" changeset="134662" lat="46.5727516" lon="8.4152576">
    <tag k="ele" v="2436"/>
    <tag k="mountain_pass" v="yes"/>
    <tag k="name" v="Furkapass"/>
  </node>
  <node id="8202487" version="6" timestamp="2010-03-07T00:32:29Z" uid="6975" user="ulfl" changeset="4056630" lat="46.5727516" lon="8.4152576">
    <tag k="ele" v="2436"/>
    <tag k="mountain_pass" v="yes"/>
    <tag k="name" v="Furkapass"/>
    <tag k="wikipedia" v="http://de.wikipedia.org/wiki/Furkapass"/>
  </node>
  <node id="8202487" version="7" timestamp="2010-07-14T09:30:30Z" uid="314684" user="krattbot" changeset="5215291" lat="46.5727516" lon="8.4152576">
    <tag k="ele" v="2436"/>
    <tag k="mountain_pass" v="yes"/>
    <tag k="name" v="Furkapass"/>
    <tag k="name:et" v="Furka kuru"/>
    <tag k="wikipedia" v="http://de.wikipedia.org/wiki/Furkapass"/>
  </node>
  <node id="8202487" version="8" timestamp="2012-01-25T07:26:20Z" uid="74900" user="FischersFritz" changeset="10490936" lat="46.5727516" lon="8.4152576"/>
  <node id="8204532" version="4" timestamp="2008-08-12T20:54:01Z" uid="6975" user="ulfl" changeset="223340" lat="46.5621114" lon="8.3441895">
    <tag k="created_by" v="JOSM"/>
    <tag k="ele" v="2165"/>
    <tag k="mountain_pass" v="yes"/>
    <tag k="name" v="Grimselpass"/>
  </node>
  <node id="8204532" version="5" timestamp="2008-08-27T21:58:04Z" uid="16698" user="holle" changeset="429609" lat="46.5621114" lon="8.3441895">
    <tag k="created_by" v="JOSM"/>
    <tag k="ele" v="2165"/>
    <tag k="mountain_pass" v="yes"/>
    <tag k="name" v="Grimselpass"/>
  </node>
  <node id="8204532" version="6" timestamp="2008-08-27T21:58:13Z" uid="16698" user="holle" changeset="429609" lat="46.5621114" lon="8.3441895">
    <tag k="created_by" v="JOSM"/>
  </node>
  <node id="8204532" version="7" timestamp="2008-10-07T13:07:50Z" uid="56631" user="dodger17" changeset="128822" lat="46.5621295" lon="8.3442882">
    <tag k="created_by" v="JOSM"/>
  </node>
  <node id="8204532" version="8" timestamp="2008-12-14T20:32:47Z" uid="77757" user="Schmiko" changeset="384820" lat="46.5621295" lon="8.3442882"/>
  <node id="8204544" version="5" timestamp="2010-03-07T00:34:59Z" uid="6975" user="ulfl" changeset="4056643" lat="46.561351" lon="8.3364934">
    <tag k="ele" v="2165"/>
    <tag k="mountain_pass" v="yes"/>
    <tag k="name" v="Grimselpass"/>
    <tag k="wikipedia" v="http://de.wikipedia.org/wiki/Grimselpass"/>
  </node>
  <node id="8204544" version="6" timestamp="2010-07-14T15:14:16Z" uid="314684" user="krattbot" changeset="5217669" lat="46.561351" lon="8.3364934">
    <tag k="ele" v="2165"/>
    <tag k="mountain_pass" v="yes"/>
    <tag k="name" v="Grimselpass"/>
    <tag k="name:et" v="Grimseli kuru"/>
    <tag k="wikipedia" v="http://de.wikipedia.org/wiki/Grimselpass"/>
  </node>
  <node id="8204544" version="7" timestamp="2012-01-25T07:26:20Z" uid="74900" user="FischersFritz" changeset="10490936" lat="46.561351" lon="8.3364934"/>
</osm>
