<?xml version='1.0' encoding='UTF-8'?>
<osm version="0.6" generator="libosmium/2.20.0">
  <node id="820770656" version="2" timestamp="2010-09-22T12:15:13Z" uid="115477" user="wowik" changeset="5845014" lat="55.1889864" lon="21.4331779">
    <tag k="name" v="Московское"/>
    <tag k="place" v="hamlet"/>
  </node>
  <node id="820772817" version="2" timestamp="2010-09-22T12:15:14Z" uid="115477" user="wowik" changeset="5845014" lat="55.1831476" lon="21.4100438">
    <tag k="name" v="Яснополянка"/>
    <tag k="place" v="hamlet"/>
  </node>
  <node id="820770656" version="3" timestamp="2012-07-20T02:48:14Z" uid="722137" user="OSMF Redaction Account" changeset="12358653" lat="55.1889863" lon="21.433178">
    <tag k="name" v="Московское"/>
    <tag k="place" v="village"/>
  </node>
  <node id="820772817" version="3" timestamp="2012-07-20T02:48:14Z" uid="722137" user="OSMF Redaction Account" changeset="12358653" lat="55.1831476" lon="21.4100437">
    <tag k="name" v="Яснополянка"/>
    <tag k="place" v="village"/>
  </node>
</osm>
