<?xml version='1.0' encoding='UTF-8'?>
<osm version="0.6" generator="libosmium/2.20.0">
  <node id="82351063" version="5" timestamp="2008-08-14T23:54:28Z" uid="6975" user="ulfl" changeset="264731" lat="54.5942839" lon="-5.9014087">
    <tag k="amenity" v="place_of_worship"/>
    <tag k="denomination" v="baptist"/>
    <tag k="name" v="Mountpottinger Baptist"/>
    <tag k="religion" v="christian"/>
  </node>
  <node id="82351063" version="6" timestamp="2011-09-24T21:00:34Z" uid="6367" user="mackerski" changeset="9387988" lat="54.5942839" lon="-5.9014087"/>
  <node id="82351177" version="1" timestamp="2007-10-21T06:52:09Z" uid="7617" user="Franc" changeset="271561" lat="-33.9538606" lon="151.2274061">
    <tag k="created_by" v="JOSM"/>
    <tag k="leisure" v="park"/>
    <tag k="name" v="Rhodes Street Reserve"/>
  </node>
  <node id="82351177" version="2" timestamp="2008-09-22T06:44:51Z" uid="7617" user="Franc" changeset="678348" lat="-33.9538606" lon="151.2274061">
    <tag k="created_by" v="JOSM"/>
    <tag k="leisure" v="park"/>
    <tag k="name" v="Rhodes Street Reserve"/>
  </node>
</osm>
