<?xml version='1.0' encoding='UTF-8'?>
<osm version="0.6" generator="libosmium/2.20.0">
  <node id="823630595" version="2" timestamp="2010-07-22T12:01:29Z" uid="115477" user="wowik" changeset="5286738" lat="54.6474641" lon="22.2811435">
    <tag k="name" v="Таманское"/>
    <tag k="place" v="hamlet"/>
  </node>
  <node id="823630595" version="3" timestamp="2012-06-27T13:11:04Z" uid="405966" user="Saxonyking" changeset="12036667" lat="54.6474641" lon="22.2811435">
    <tag k="name" v="Таманское"/>
    <tag k="name:de" v="Springen"/>
    <tag k="old_name" v="Springen"/>
    <tag k="place" v="hamlet"/>
  </node>
  <node id="823630595" version="4" timestamp="2012-06-29T07:05:27Z" uid="405966" user="Saxonyking" changeset="12053418" lat="54.6474641" lon="22.2811435">
    <tag k="name" v="Таманское"/>
    <tag k="name:de" v="Tamanskoje"/>
    <tag k="old_name" v="Springen"/>
    <tag k="place" v="hamlet"/>
  </node>
  <node id="823630595" version="5" timestamp="2012-07-24T20:22:13Z" uid="722137" user="OSMF Redaction Account" changeset="12475665" lat="54.647464" lon="22.2811435">
    <tag k="name" v="Гаманское"/>
    <tag k="name:de" v="Tamanskoje"/>
    <tag k="old_name" v="Springen"/>
    <tag k="place" v="village"/>
  </node>
</osm>
