<?xml version='1.0' encoding='UTF-8'?>
<osm version="0.6" generator="libosmium/2.20.0">
  <node id="824833595" version="1" timestamp="2010-07-19T17:52:02Z" uid="115477" user="wowik" changeset="5263458" lat="57.5636225" lon="37.4128253">
    <tag k="name" v="Трясцино"/>
    <tag k="place" v="hamlet"/>
    <tag k="source" v="Менге"/>
  </node>
  <node id="824833595" version="2" timestamp="2010-11-22T15:38:48Z" uid="115477" user="wowik" changeset="6432391" lat="57.5636225" lon="37.4128253">
    <tag k="name" v="Трясцино"/>
    <tag k="place" v="hamlet"/>
    <tag k="source" v="Менде"/>
  </node>
  <node id="824833595" version="3" timestamp="2012-01-26T21:14:30Z" uid="384084" user="Kostik" changeset="10507299" lat="57.5636225" lon="37.4128253">
    <tag k="name" v="Трясцино"/>
    <tag k="place" v="hamlet"/>
    <tag k="source" v="Менде"/>
  </node>
  <node id="824833609" version="1" timestamp="2010-07-19T17:52:02Z" uid="115477" user="wowik" changeset="5263458" lat="57.5691465" lon="37.4074179">
    <tag k="name" v="Вакорино"/>
    <tag k="place" v="hamlet"/>
    <tag k="source" v="Менге"/>
  </node>
  <node id="824833609" version="2" timestamp="2010-11-22T15:38:34Z" uid="115477" user="wowik" changeset="6432391" lat="57.5691465" lon="37.4074179">
    <tag k="name" v="Вакорино"/>
    <tag k="place" v="hamlet"/>
    <tag k="source" v="Менде"/>
  </node>
  <node id="824833609" version="3" timestamp="2012-01-26T21:10:12Z" uid="384084" user="Kostik" changeset="10507299" lat="57.5691465" lon="37.4074179">
    <tag k="name" v="Вакорино"/>
    <tag k="place" v="hamlet"/>
    <tag k="source" v="Менде"/>
  </node>
  <node id="824833617" version="1" timestamp="2010-07-19T17:52:02Z" uid="115477" user="wowik" changeset="5263458" lat="57.56841" lon="37.4359996">
    <tag k="name" v="Березовец"/>
    <tag k="old_name" v="Ново Покровское"/>
    <tag k="place" v="hamlet"/>
    <tag k="source" v="Менге"/>
  </node>
  <node id="824833617" version="2" timestamp="2010-11-22T15:39:16Z" uid="115477" user="wowik" changeset="6432391" lat="57.56841" lon="37.4359996">
    <tag k="name" v="Березовец"/>
    <tag k="old_name" v="Ново Покровское"/>
    <tag k="place" v="hamlet"/>
    <tag k="source" v="Менде"/>
  </node>
  <node id="824833617" version="3" timestamp="2012-01-26T21:09:52Z" uid="384084" user="Kostik" changeset="10507299" lat="57.56841" lon="37.4359996">
    <tag k="name" v="Березовец"/>
    <tag k="old_name" v="Ново Покровское"/>
    <tag k="place" v="hamlet"/>
    <tag k="source" v="Менде"/>
  </node>
  <node id="824836948" version="1" timestamp="2010-07-19T17:55:51Z" uid="115477" user="wowik" changeset="5263458" lat="57.5790415" lon="37.3801238">
    <tag k="name" v="Кошелево"/>
    <tag k="place" v="hamlet"/>
    <tag k="source" v="Менге"/>
  </node>
  <node id="824836948" version="2" timestamp="2010-11-22T15:38:59Z" uid="115477" user="wowik" changeset="6432391" lat="57.5790415" lon="37.3801238">
    <tag k="name" v="Кошелево"/>
    <tag k="place" v="hamlet"/>
    <tag k="source" v="Менде"/>
  </node>
  <node id="824836948" version="3" timestamp="2011-02-07T15:24:03Z" uid="115477" user="wowik" changeset="7217198" lat="57.5800153" lon="37.3788998">
    <tag k="name" v="Кошелево"/>
    <tag k="place" v="hamlet"/>
    <tag k="source" v="Менде"/>
  </node>
  <node id="824836948" version="4" timestamp="2012-01-26T21:12:01Z" uid="384084" user="Kostik" changeset="10507299" lat="57.5800153" lon="37.3788998">
    <tag k="name" v="Кошелево"/>
    <tag k="place" v="hamlet"/>
    <tag k="source" v="Менде"/>
  </node>
  <node id="824836949" version="1" timestamp="2010-07-19T17:55:51Z" uid="115477" user="wowik" changeset="5263458" lat="57.5657862" lon="37.3690516">
    <tag k="name" v="Коченово"/>
    <tag k="place" v="hamlet"/>
    <tag k="source" v="Менге"/>
  </node>
  <node id="824836949" version="2" timestamp="2010-11-22T15:38:54Z" uid="115477" user="wowik" changeset="6432391" lat="57.5657862" lon="37.3690516">
    <tag k="name" v="Коченово"/>
    <tag k="place" v="hamlet"/>
    <tag k="source" v="Менде"/>
  </node>
  <node id="824836949" version="3" timestamp="2012-01-26T21:12:01Z" uid="384084" user="Kostik" changeset="10507299" lat="57.5657862" lon="37.3690516">
    <tag k="name" v="Коченово"/>
    <tag k="place" v="hamlet"/>
    <tag k="source" v="Менде"/>
  </node>
  <node id="824837160" version="2" timestamp="2010-07-28T20:30:33Z" uid="74617" user="JohnSmith" changeset="5341853" lat="46.0758944" lon="-122.2080423">
    <tag k="emergency" v="phone"/>
    <tag k="source" v="local_knowledge"/>
  </node>
  <node id="824837160" version="3" timestamp="2010-07-29T08:19:11Z" uid="74617" user="JohnSmith" changeset="5344518" lat="46.0758944" lon="-122.2080423">
    <tag k="amenity" v="emergency_phone"/>
    <tag k="emergency" v="phone"/>
    <tag k="source" v="local_knowledge"/>
  </node>
  <node id="824837160" version="4" timestamp="2012-03-27T13:19:34Z" uid="67540" user="Cobra" changeset="11116336" lat="46.0758944" lon="-122.2080423">
    <tag k="amenity" v="emergency_phone"/>
    <tag k="emergency" v="phone"/>
    <tag k="odbl" v="clean"/>
    <tag k="source" v="local_knowledge"/>
  </node>
  <node id="824833595" version="4" timestamp="2012-07-17T11:56:02Z" uid="384084" user="Kostik" changeset="12264621" lat="57.5636192" lon="37.4128152">
    <tag k="name" v="Трясцино"/>
    <tag k="place" v="hamlet"/>
    <tag k="source" v="Менде"/>
  </node>
  <node id="824833595" version="5" timestamp="2012-07-20T11:29:33Z" uid="722137" user="OSMF Redaction Account" changeset="12373298" lat="57.5636192" lon="37.4128152"/>
  <node id="824833595" version="6" timestamp="2012-07-21T15:49:15Z" uid="127606" user="loir" changeset="12413875" lat="57.5636192" lon="37.4128152"/>
  <node id="824833609" version="4" timestamp="2012-07-17T11:55:45Z" uid="384084" user="Kostik" changeset="12264621" lat="57.5691432" lon="37.4074078">
    <tag k="name" v="Вакорино"/>
    <tag k="place" v="hamlet"/>
    <tag k="source" v="Менде"/>
  </node>
  <node id="824833609" version="5" timestamp="2012-07-20T11:29:33Z" uid="722137" user="OSMF Redaction Account" changeset="12373298" lat="57.5691432" lon="37.4074078"/>
  <node id="824833609" version="6" timestamp="2012-07-21T15:34:28Z" uid="127606" user="loir" changeset="12413495" lat="57.5691432" lon="37.4074078"/>
  <node id="824833617" version="4" timestamp="2012-07-17T11:55:43Z" uid="384084" user="Kostik" changeset="12264621" lat="57.5684067" lon="37.4359895">
    <tag k="name" v="Березовец"/>
    <tag k="old_name" v="Ново Покровское"/>
    <tag k="place" v="hamlet"/>
    <tag k="source" v="Менде"/>
  </node>
  <node id="824833617" version="5" timestamp="2012-07-20T11:29:33Z" uid="722137" user="OSMF Redaction Account" changeset="12373298" lat="57.5684067" lon="37.4359895"/>
  <node id="824833617" version="6" timestamp="2012-07-21T15:49:16Z" uid="127606" user="loir" changeset="12413875" lat="57.5684067" lon="37.4359895"/>
  <node id="824836948" version="5" timestamp="2012-07-17T11:55:51Z" uid="384084" user="Kostik" changeset="12264621" lat="57.580012" lon="37.3788897">
    <tag k="name" v="Кошелево"/>
    <tag k="place" v="hamlet"/>
    <tag k="source" v="Менде"/>
  </node>
  <node id="824836948" version="6" timestamp="2012-07-20T11:29:33Z" uid="722137" user="OSMF Redaction Account" changeset="12373298" lat="57.580012" lon="37.3788897"/>
  <node id="824836948" version="7" timestamp="2012-07-21T19:52:07Z" uid="127606" user="loir" changeset="12418830" lat="57.580012" lon="37.3788897"/>
  <node id="824836949" version="4" timestamp="2012-07-17T11:55:50Z" uid="384084" user="Kostik" changeset="12264621" lat="57.5657829" lon="37.3690415">
    <tag k="name" v="Коченово"/>
    <tag k="place" v="hamlet"/>
    <tag k="source" v="Менде"/>
  </node>
  <node id="824836949" version="5" timestamp="2012-07-20T11:31:24Z" uid="722137" user="OSMF Redaction Account" changeset="12373370" lat="57.5657829" lon="37.3690415"/>
  <node id="824836949" version="6" timestamp="2012-07-28T11:04:36Z" uid="384084" user="Kostik" changeset="12521697" lat="57.5657829" lon="37.3690415"/>
</osm>
