<?xml version='1.0' encoding='UTF-8'?>
<osm version="0.6" generator="libosmium/2.20.0">
  <node id="825443452" version="3" timestamp="2011-03-20T02:16:31Z" uid="6269" user="Mueck" changeset="7612251" lat="49.0058234" lon="8.386745">
    <tag k="addr:housenumber" v="1"/>
    <tag k="addr:street" v="Reinhold-Frank-Straße"/>
  </node>
  <node id="825444069" version="2" timestamp="2011-03-30T22:13:52Z" uid="6269" user="Mueck" changeset="7720894" lat="49.0055727" lon="8.3845404">
    <tag k="addr:housenumber" v="208"/>
    <tag k="addr:street" v="Kriegsstraße"/>
  </node>
  <node id="825444075" version="2" timestamp="2011-03-30T22:13:53Z" uid="6269" user="Mueck" changeset="7720894" lat="49.0056341" lon="8.3832977">
    <tag k="addr:housenumber" v="216a"/>
  </node>
  <node id="825448664" version="2" timestamp="2010-07-29T09:28:21Z" uid="74617" user="JohnSmith" changeset="5344848" lat="50.1886505" lon="9.0874874">
    <tag k="amenity" v="emergency_phone"/>
    <tag k="emergency" v="phone"/>
  </node>
  <node id="825448664" version="3" timestamp="2012-01-07T22:05:59Z" uid="302852" user="be-ju" changeset="10326284" lat="50.1886505" lon="9.0874874"/>
  <node id="825443452" version="4" timestamp="2012-04-16T08:33:42Z" uid="165061" user="mapper999" changeset="11318955" lat="49.0058234" lon="8.386745"/>
  <node id="825444069" version="3" timestamp="2012-04-16T08:33:35Z" uid="165061" user="mapper999" changeset="11318955" lat="49.0056469" lon="8.3845035">
    <tag k="addr:housenumber" v="208"/>
    <tag k="addr:street" v="Kriegsstraße"/>
  </node>
  <node id="825444069" version="4" timestamp="2012-07-21T16:15:59Z" uid="38515" user="soeren_gasch" changeset="12414430" lat="49.0056469" lon="8.3845035">
    <tag k="addr:city" v="Karlsruhe"/>
    <tag k="addr:country" v="DE"/>
    <tag k="addr:housenumber" v="208"/>
    <tag k="addr:street" v="Kriegsstraße"/>
  </node>
  <node id="825444075" version="3" timestamp="2012-04-16T08:33:36Z" uid="165061" user="mapper999" changeset="11318955" lat="49.0056941" lon="8.3832875">
    <tag k="addr:housenumber" v="216a"/>
  </node>
  <node id="825444075" version="4" timestamp="2012-07-21T16:16:00Z" uid="38515" user="soeren_gasch" changeset="12414430" lat="49.0056941" lon="8.3832875">
    <tag k="addr:city" v="Karlsruhe"/>
    <tag k="addr:country" v="DE"/>
    <tag k="addr:housenumber" v="216a"/>
  </node>
</osm>
