<?xml version='1.0' encoding='UTF-8'?>
<osm version="0.6" generator="libosmium/2.20.0">
  <node id="826543567" version="1" timestamp="2010-07-20T18:46:41Z" uid="115477" user="wowik" changeset="5273155" lat="57.5867716" lon="37.28789"/>
  <node id="826547704" version="2" timestamp="2011-04-01T17:32:29Z" uid="6269" user="Mueck" changeset="7737379" lat="49.000322" lon="8.3958664">
    <tag k="addr:housenumber" v="17"/>
    <tag k="addr:street" v="Bahnhofstraße"/>
    <tag k="amenity" v="restaurant"/>
    <tag k="name" v="garbo"/>
  </node>
  <node id="826547704" version="3" timestamp="2012-03-29T09:04:59Z" uid="290680" user="wheelmap_visitor" changeset="11133940" lat="49.000322" lon="8.3958664">
    <tag k="addr:housenumber" v="17"/>
    <tag k="addr:street" v="Bahnhofstraße"/>
    <tag k="amenity" v="restaurant"/>
    <tag k="name" v="garbo"/>
    <tag k="wheelchair" v="no"/>
  </node>
  <node id="826543567" version="2" timestamp="2012-04-06T08:08:41Z" uid="384084" user="Kostik" changeset="11197383" lat="57.5867717" lon="37.2878914"/>
  <node id="826543567" version="3" timestamp="2012-07-28T11:04:44Z" uid="384084" user="Kostik" changeset="12521697" lat="57.5867717" lon="37.2878914"/>
  <node id="826547704" version="4" timestamp="2012-05-29T14:56:36Z" uid="290680" user="wheelmap_visitor" changeset="11733671" lat="49.000322" lon="8.3958664">
    <tag k="addr:housenumber" v="17"/>
    <tag k="addr:street" v="Bahnhofstraße"/>
    <tag k="amenity" v="restaurant"/>
    <tag k="name" v="garbo"/>
    <tag k="wheelchair" v="limited"/>
  </node>
  <node id="826547704" version="5" timestamp="2012-06-01T08:31:11Z" uid="165061" user="mapper999" changeset="11765277" lat="49.0003305" lon="8.3959801">
    <tag k="addr:city" v="Karlsruhe"/>
    <tag k="addr:country" v="DE"/>
    <tag k="addr:housenumber" v="17"/>
    <tag k="addr:postcode" v="76137"/>
    <tag k="addr:street" v="Bahnhofstraße"/>
    <tag k="amenity" v="restaurant"/>
    <tag k="name" v="garbo"/>
    <tag k="wheelchair" v="limited"/>
  </node>
</osm>
