<?xml version='1.0' encoding='UTF-8'?>
<osm version="0.6" generator="libosmium/2.20.0">
  <node id="828547740" version="2" timestamp="2011-04-07T14:35:43Z" uid="6269" user="Mueck" changeset="7795160" lat="49.0092519" lon="8.3764787">
    <tag k="addr:city" v="Karlsruhe"/>
    <tag k="addr:country" v="DE"/>
    <tag k="addr:housenumber" v="19"/>
    <tag k="addr:postcode" v="76135"/>
    <tag k="addr:street" v="Nelkenstraße"/>
  </node>
  <node id="828547743" version="2" timestamp="2011-04-07T14:35:44Z" uid="6269" user="Mueck" changeset="7795160" lat="49.008308" lon="8.3759747">
    <tag k="addr:city" v="Karlsruhe"/>
    <tag k="addr:country" v="DE"/>
    <tag k="addr:housenumber" v="33"/>
    <tag k="addr:postcode" v="76135"/>
    <tag k="addr:street" v="Nelkenstraße"/>
  </node>
  <node id="828548622" version="3" timestamp="2011-03-23T20:05:21Z" uid="6269" user="Mueck" changeset="7649643" lat="48.9464064" lon="8.387691"/>
  <node id="828548622" version="4" timestamp="2011-07-20T11:45:14Z" uid="118006" user="vwistuttgart" changeset="8777790" lat="48.9464051" lon="8.3876693"/>
  <node id="828548645" version="2" timestamp="2011-03-23T20:05:24Z" uid="6269" user="Mueck" changeset="7649643" lat="48.9479299" lon="8.3879883"/>
  <node id="828548645" version="3" timestamp="2011-07-20T11:45:14Z" uid="118006" user="vwistuttgart" changeset="8777790" lat="48.9479377" lon="8.3879567"/>
  <node id="828548647" version="2" timestamp="2011-03-23T20:05:24Z" uid="6269" user="Mueck" changeset="7649643" lat="48.9479387" lon="8.387883"/>
  <node id="828548653" version="3" timestamp="2011-03-23T20:05:30Z" uid="6269" user="Mueck" changeset="7649643" lat="48.9464151" lon="8.3875857"/>
  <node id="828547740" version="3" timestamp="2012-04-08T21:27:40Z" uid="165061" user="mapper999" changeset="11230890" lat="49.0091998" lon="8.3764691">
    <tag k="addr:city" v="Karlsruhe"/>
    <tag k="addr:country" v="DE"/>
    <tag k="addr:housenumber" v="19"/>
    <tag k="addr:postcode" v="76135"/>
    <tag k="addr:street" v="Nelkenstraße"/>
    <tag k="amenity" v="restaurant"/>
    <tag k="cuisine" v="italian"/>
    <tag k="name" v="Osteria Carré"/>
    <tag k="wheelchair" v="no"/>
  </node>
  <node id="828547740" version="4" timestamp="2012-05-04T21:21:17Z" uid="35468" user="Blunauer" changeset="11502412" lat="49.009246" lon="8.3765056">
    <tag k="addr:city" v="Karlsruhe"/>
    <tag k="addr:country" v="DE"/>
    <tag k="addr:housenumber" v="19"/>
    <tag k="addr:postcode" v="76135"/>
    <tag k="addr:street" v="Nelkenstraße"/>
    <tag k="amenity" v="restaurant"/>
    <tag k="cuisine" v="italian"/>
    <tag k="name" v="Osteria Carré"/>
    <tag k="wheelchair" v="no"/>
  </node>
  <node id="828547743" version="3" timestamp="2012-04-08T21:27:40Z" uid="165061" user="mapper999" changeset="11230890" lat="49.0084498" lon="8.3760522">
    <tag k="addr:city" v="Karlsruhe"/>
    <tag k="addr:country" v="DE"/>
    <tag k="addr:housenumber" v="33"/>
    <tag k="addr:postcode" v="76135"/>
    <tag k="addr:street" v="Nelkenstraße"/>
    <tag k="name" v="Weinlade am Gutenbergplatz"/>
    <tag k="shop" v="alcohol"/>
    <tag k="wheelchair" v="no"/>
  </node>
  <node id="828548647" version="3" timestamp="2012-07-20T09:35:40Z" uid="722137" user="OSMF Redaction Account" changeset="12370034" lat="48.9480054" lon="8.3878885"/>
  <node id="828548647" version="4" timestamp="2012-08-30T16:40:39Z" uid="35468" user="Blunauer" changeset="12920290" lat="48.9479404" lon="8.387882"/>
  <node id="828548653" version="4" timestamp="2012-07-20T09:35:39Z" uid="722137" user="OSMF Redaction Account" changeset="12370034" lat="48.9464818" lon="8.3875912"/>
  <node id="828548653" version="5" timestamp="2012-08-30T16:40:39Z" uid="35468" user="Blunauer" changeset="12920290" lat="48.9464133" lon="8.3875837"/>
</osm>
