<?xml version='1.0' encoding='UTF-8'?>
<osm version="0.6" generator="libosmium/2.20.0">
  <node id="838510241" version="2" timestamp="2010-10-30T00:18:43Z" uid="34428" user="usm78-gis" changeset="6223524" lat="60.1789958" lon="29.483629">
    <tag k="addr:country" v="RU"/>
    <tag k="addr:district" v="Курортный район"/>
    <tag k="addr:postcode" v="197729"/>
    <tag k="addr:region" v="Санкт-Петербург город"/>
    <tag k="cladr:code" v="7800000003100"/>
    <tag k="cladr:name" v="Смолячково"/>
    <tag k="cladr:suffix" v="Поселок"/>
    <tag k="name" v="Смолячково"/>
    <tag k="name:fi" v="Lautaranta"/>
    <tag k="place" v="village"/>
  </node>
  <node id="838510241" version="3" timestamp="2011-05-24T16:00:40Z" uid="43262" user="KonTur" changeset="8236790" lat="60.1789958" lon="29.483629">
    <tag k="addr:country" v="RU"/>
    <tag k="addr:district" v="Курортный район"/>
    <tag k="addr:postcode" v="197729"/>
    <tag k="addr:region" v="Санкт-Петербург город"/>
    <tag k="cladr:code" v="7800000003100"/>
    <tag k="cladr:name" v="Смолячково"/>
    <tag k="cladr:suffix" v="Поселок"/>
    <tag k="kladr:user" v="7800000003100"/>
    <tag k="name" v="Смолячково"/>
    <tag k="name:fi" v="Lautaranta"/>
    <tag k="okato:user" v="40281557000"/>
    <tag k="place" v="village"/>
  </node>
  <node id="838512342" version="2" timestamp="2011-03-28T10:22:48Z" uid="4467" user="Rosscoe" changeset="7695206" lat="-32.0756073" lon="115.7744925"/>
  <node id="838512344" version="2" timestamp="2011-03-28T10:22:55Z" uid="4467" user="Rosscoe" changeset="7695206" lat="-32.0755933" lon="115.7744398"/>
  <node id="838512346" version="2" timestamp="2011-03-28T10:22:54Z" uid="4467" user="Rosscoe" changeset="7695206" lat="-32.0755773" lon="115.7744088"/>
  <node id="838512347" version="2" timestamp="2011-03-28T10:22:46Z" uid="4467" user="Rosscoe" changeset="7695206" lat="-32.0755453" lon="115.7743771"/>
  <node id="838512348" version="2" timestamp="2011-03-28T10:22:58Z" uid="4467" user="Rosscoe" changeset="7695206" lat="-32.0755389" lon="115.7742819"/>
  <node id="838512349" version="2" timestamp="2011-03-28T10:22:51Z" uid="4467" user="Rosscoe" changeset="7695206" lat="-32.0755499" lon="115.7741931"/>
  <node id="838512351" version="2" timestamp="2011-03-28T10:22:50Z" uid="4467" user="Rosscoe" changeset="7695206" lat="-32.0756078" lon="115.7749045"/>
  <node id="838510241" version="4" timestamp="2012-07-24T00:02:28Z" uid="722137" user="OSMF Redaction Account" changeset="12458801" lat="60.1789958" lon="29.483629">
    <tag k="addr:country" v="RU"/>
    <tag k="addr:district" v="Курортный район"/>
    <tag k="addr:postcode" v="197729"/>
    <tag k="addr:region" v="Санкт-Петербург город"/>
    <tag k="cladr:code" v="7800000003100"/>
    <tag k="cladr:name" v="Смолячково"/>
    <tag k="cladr:suffix" v="Поселок"/>
    <tag k="kladr:user" v="7800000003100"/>
    <tag k="name" v="Смолячково"/>
    <tag k="okato:user" v="40281557000"/>
    <tag k="place" v="village"/>
  </node>
  <node id="838512342" version="3" timestamp="2012-05-28T20:04:07Z" uid="189263" user="wildmyron" changeset="11731176" lat="-32.0756138" lon="115.7744771"/>
  <node id="838512344" version="3" timestamp="2012-05-28T20:04:07Z" uid="189263" user="wildmyron" changeset="11731176" lat="-32.0755998" lon="115.7744244"/>
  <node id="838512346" version="3" timestamp="2012-05-28T20:04:07Z" uid="189263" user="wildmyron" changeset="11731176" lat="-32.0755838" lon="115.7743934"/>
  <node id="838512347" version="3" timestamp="2012-05-28T20:04:07Z" uid="189263" user="wildmyron" changeset="11731176" lat="-32.0755518" lon="115.7743617"/>
  <node id="838512348" version="3" timestamp="2012-05-28T20:04:07Z" uid="189263" user="wildmyron" changeset="11731176" lat="-32.0755422" lon="115.7742806"/>
  <node id="838512349" version="3" timestamp="2012-05-28T20:04:07Z" uid="189263" user="wildmyron" changeset="11731176" lat="-32.0755445" lon="115.7741944"/>
  <node id="838512351" version="3" timestamp="2012-05-28T20:04:07Z" uid="189263" user="wildmyron" changeset="11731176" lat="-32.0756143" lon="115.7748916"/>
</osm>
