<?xml version='1.0' encoding='UTF-8'?>
<osm version="0.6" generator="libosmium/2.20.0">
  <node id="839003762" version="4" timestamp="2011-02-24T22:10:30Z" uid="17602" user="B10xyz" changeset="7385975" lat="52.5160133" lon="13.4183827">
    <tag k="highway" v="bus_stop"/>
    <tag k="name" v="U Jannowitzbr端cke"/>
    <tag k="operator" v="BVG"/>
    <tag k="wheelchair" v="no"/>
  </node>
  <node id="839003767" version="5" timestamp="2011-02-24T22:10:27Z" uid="17602" user="B10xyz" changeset="7385975" lat="52.5152758" lon="13.4185654">
    <tag k="highway" v="bus_stop"/>
    <tag k="name" v="U Jannowitzbr端cke"/>
    <tag k="operator" v="BVG"/>
    <tag k="wheelchair" v="no"/>
  </node>
  <node id="839003762" version="5" timestamp="2012-07-18T12:31:09Z" uid="722137" user="OSMF Redaction Account" changeset="12281912" lat="52.5157398" lon="13.4183051">
    <tag k="highway" v="bus_stop"/>
    <tag k="name" v="U Jannowitzbr端cke"/>
    <tag k="operator" v="BVG"/>
    <tag k="wheelchair" v="no"/>
  </node>
  <node id="839003767" version="6" timestamp="2012-07-18T12:31:09Z" uid="722137" user="OSMF Redaction Account" changeset="12281912" lat="52.5150934" lon="13.4184285">
    <tag k="highway" v="bus_stop"/>
    <tag k="name" v="U Jannowitzbr端cke"/>
    <tag k="operator" v="BVG"/>
    <tag k="wheelchair" v="no"/>
  </node>
</osm>
