<?xml version='1.0' encoding='UTF-8'?>
<osm version="0.6" generator="libosmium/2.20.0">
  <node id="84623679" version="4" timestamp="2009-04-12T20:13:04Z" uid="30632" user="antblant" changeset="444363" lat="53.0335291" lon="18.7304402"/>
  <node id="84623679" version="5" timestamp="2009-04-12T20:13:13Z" uid="30632" user="antblant" changeset="444363" lat="53.0335291" lon="18.7304402"/>
  <node id="84623679" version="6" timestamp="2011-02-01T14:50:47Z" uid="306326" user="Yaro" changeset="7155402" lat="53.033458" lon="18.7303821"/>
  <node id="84623679" version="7" timestamp="2011-05-30T05:53:31Z" uid="455923" user="czerstwy" changeset="8288787" lat="53.0335169" lon="18.73042"/>
  <node id="84623682" version="3" timestamp="2009-04-12T20:12:43Z" uid="30632" user="antblant" changeset="444363" lat="53.0350847" lon="18.7226036"/>
  <node id="84623683" version="5" timestamp="2009-04-12T20:12:09Z" uid="30632" user="antblant" changeset="444363" lat="53.0352015" lon="18.7224647"/>
  <node id="84623683" version="6" timestamp="2009-04-12T20:12:18Z" uid="30632" user="antblant" changeset="444363" lat="53.0352015" lon="18.7224647"/>
  <node id="84623683" version="7" timestamp="2009-12-07T16:54:35Z" uid="164487" user="LoveMaps" changeset="3317352" lat="53.0352012" lon="18.7224547"/>
  <node id="84623683" version="8" timestamp="2010-05-23T10:14:07Z" uid="39051" user="krokar" changeset="4781672" lat="53.0352221" lon="18.7223611"/>
  <node id="84623683" version="9" timestamp="2010-05-23T10:28:08Z" uid="39051" user="krokar" changeset="4781692" lat="53.0352221" lon="18.7223611"/>
  <node id="84623686" version="5" timestamp="2009-04-12T20:12:17Z" uid="30632" user="antblant" changeset="444363" lat="53.0352954" lon="18.7223772"/>
  <node id="84623686" version="6" timestamp="2009-04-12T20:12:18Z" uid="30632" user="antblant" changeset="444363" lat="53.0352954" lon="18.7223772"/>
  <node id="84623686" version="7" timestamp="2009-12-07T16:54:34Z" uid="164487" user="LoveMaps" changeset="3317352" lat="53.0352968" lon="18.7223794"/>
  <node id="84623686" version="8" timestamp="2010-05-23T10:13:51Z" uid="39051" user="krokar" changeset="4781672" lat="53.0353177" lon="18.7222858"/>
  <node id="84623686" version="9" timestamp="2010-05-23T10:28:04Z" uid="39051" user="krokar" changeset="4781692" lat="53.0353177" lon="18.7222858"/>
  <node id="84623688" version="5" timestamp="2009-04-12T20:12:17Z" uid="30632" user="antblant" changeset="444363" lat="53.0353286" lon="18.7222636"/>
  <node id="84623688" version="6" timestamp="2009-12-07T16:54:34Z" uid="164487" user="LoveMaps" changeset="3317352" lat="53.0353305" lon="18.7222641"/>
  <node id="84623688" version="7" timestamp="2010-05-23T10:13:47Z" uid="39051" user="krokar" changeset="4781672" lat="53.0353514" lon="18.7221705"/>
  <node id="84623688" version="8" timestamp="2010-05-23T10:28:02Z" uid="39051" user="krokar" changeset="4781692" lat="53.0353514" lon="18.7221705"/>
  <node id="84623689" version="5" timestamp="2009-04-12T20:12:17Z" uid="30632" user="antblant" changeset="444363" lat="53.0353269" lon="18.7221707"/>
  <node id="84623689" version="6" timestamp="2009-12-07T16:54:34Z" uid="164487" user="LoveMaps" changeset="3317352" lat="53.0353284" lon="18.7221701"/>
  <node id="84623689" version="7" timestamp="2010-05-23T10:13:52Z" uid="39051" user="krokar" changeset="4781672" lat="53.0353493" lon="18.7220765"/>
  <node id="84623689" version="8" timestamp="2010-05-23T10:28:04Z" uid="39051" user="krokar" changeset="4781692" lat="53.0353493" lon="18.7220765"/>
  <node id="84623696" version="5" timestamp="2009-04-12T20:12:18Z" uid="30632" user="antblant" changeset="444363" lat="53.0352937" lon="18.7220677"/>
  <node id="84623696" version="6" timestamp="2009-12-07T16:54:34Z" uid="164487" user="LoveMaps" changeset="3317352" lat="53.0352942" lon="18.7220669"/>
  <node id="84623696" version="7" timestamp="2010-05-23T10:13:52Z" uid="39051" user="krokar" changeset="4781672" lat="53.0353151" lon="18.7219733"/>
  <node id="84623696" version="8" timestamp="2010-05-23T10:28:05Z" uid="39051" user="krokar" changeset="4781692" lat="53.0353151" lon="18.7219733"/>
  <node id="84623699" version="5" timestamp="2009-04-12T20:12:18Z" uid="30632" user="antblant" changeset="444363" lat="53.0352114" lon="18.7219985"/>
  <node id="84623699" version="6" timestamp="2009-12-07T16:54:34Z" uid="164487" user="LoveMaps" changeset="3317352" lat="53.0352115" lon="18.7219978"/>
  <node id="84623699" version="7" timestamp="2010-05-23T10:13:51Z" uid="39051" user="krokar" changeset="4781672" lat="53.0352324" lon="18.7219042"/>
  <node id="84623699" version="8" timestamp="2010-05-23T10:28:04Z" uid="39051" user="krokar" changeset="4781692" lat="53.0352324" lon="18.7219042"/>
  <node id="84623704" version="5" timestamp="2009-04-12T20:12:18Z" uid="30632" user="antblant" changeset="444363" lat="53.0351326" lon="18.722019"/>
  <node id="84623704" version="6" timestamp="2009-12-07T16:54:35Z" uid="164487" user="LoveMaps" changeset="3317352" lat="53.0351329" lon="18.7220201"/>
  <node id="84623704" version="7" timestamp="2010-05-23T10:14:04Z" uid="39051" user="krokar" changeset="4781672" lat="53.0351538" lon="18.7219265"/>
  <node id="84623704" version="8" timestamp="2010-05-23T10:28:07Z" uid="39051" user="krokar" changeset="4781692" lat="53.0351538" lon="18.7219265"/>
  <node id="84623710" version="5" timestamp="2009-04-12T20:12:18Z" uid="30632" user="antblant" changeset="444363" lat="53.0350646" lon="18.7222889"/>
  <node id="84623710" version="6" timestamp="2009-12-07T16:54:35Z" uid="164487" user="LoveMaps" changeset="3317352" lat="53.0350621" lon="18.7222901"/>
  <node id="84623710" version="7" timestamp="2010-05-23T10:14:09Z" uid="39051" user="krokar" changeset="4781672" lat="53.035083" lon="18.7221965"/>
  <node id="84623710" version="8" timestamp="2010-05-23T10:28:09Z" uid="39051" user="krokar" changeset="4781692" lat="53.035083" lon="18.7221965"/>
  <node id="84623713" version="5" timestamp="2009-04-12T20:12:18Z" uid="30632" user="antblant" changeset="444363" lat="53.0351209" lon="18.7224207"/>
  <node id="84623713" version="6" timestamp="2009-04-12T20:12:43Z" uid="30632" user="antblant" changeset="444363" lat="53.0351209" lon="18.7224207"/>
  <node id="84623713" version="7" timestamp="2009-12-07T16:54:35Z" uid="164487" user="LoveMaps" changeset="3317352" lat="53.0351212" lon="18.7224199"/>
  <node id="84623713" version="8" timestamp="2010-05-23T10:14:09Z" uid="39051" user="krokar" changeset="4781672" lat="53.0351421" lon="18.7223263"/>
  <node id="84623713" version="9" timestamp="2010-05-23T10:28:10Z" uid="39051" user="krokar" changeset="4781692" lat="53.0351421" lon="18.7223263"/>
  <node id="84623888" version="7" timestamp="2009-05-01T18:53:06Z" uid="20587" user="balrog-kun" changeset="1040664" lat="53.0108706" lon="18.6068543">
    <tag k="addr:postcode" v="87-100"/>
    <tag k="is_in" v="województwo kujawsko-pomorskie, Poland"/>
    <tag k="is_in:continent" v="Europe"/>
    <tag k="is_in:country" v="Poland"/>
    <tag k="is_in:county" v="powiat tak"/>
    <tag k="is_in:province" v="województwo kujawsko-pomorskie"/>
    <tag k="name" v="Toruń"/>
    <tag k="old_name" v="Thorn"/>
    <tag k="place" v="city"/>
    <tag k="population" v="206346"/>
    <tag k="source:population" v="wikipedia"/>
    <tag k="teryt:rm" v="96"/>
    <tag k="teryt:simc" v="0982724"/>
    <tag k="teryt:stan_na" v="2009-01-01"/>
    <tag k="teryt:terc" v="0463011"/>
    <tag k="teryt:updated_by" v="teryt2osm combine.py v. 36M"/>
    <tag k="wikipedia" v="Toruń"/>
  </node>
  <node id="84623888" version="8" timestamp="2009-05-07T18:40:11Z" uid="115021" user="Jajcuś" changeset="1110351" lat="53.0108706" lon="18.6068543">
    <tag k="addr:postcode" v="87-100"/>
    <tag k="is_in" v="województwo kujawsko-pomorskie, Poland"/>
    <tag k="is_in:continent" v="Europe"/>
    <tag k="is_in:country" v="Poland"/>
    <tag k="is_in:province" v="województwo kujawsko-pomorskie"/>
    <tag k="name" v="Toruń"/>
    <tag k="old_name" v="Thorn"/>
    <tag k="place" v="city"/>
    <tag k="population" v="206346"/>
    <tag k="source:population" v="wikipedia"/>
    <tag k="teryt:rm" v="96"/>
    <tag k="teryt:simc" v="0982724"/>
    <tag k="teryt:stan_na" v="2009-01-01"/>
    <tag k="teryt:terc" v="0463011"/>
    <tag k="teryt:updated_by" v="teryt2osm combine.py v. 47M"/>
    <tag k="wikipedia" v="Toruń"/>
  </node>
  <node id="84623888" version="9" timestamp="2009-05-08T18:35:09Z" uid="115021" user="Jajcuś" changeset="1120425" lat="53.0108706" lon="18.6068543">
    <tag k="addr:postcode" v="87-100"/>
    <tag k="is_in" v="województwo kujawsko-pomorskie, Poland"/>
    <tag k="is_in:continent" v="Europe"/>
    <tag k="is_in:country" v="Poland"/>
    <tag k="is_in:county" v="powiat m. Toruń"/>
    <tag k="is_in:municipality" v="gmina m. Toruń"/>
    <tag k="is_in:province" v="województwo kujawsko-pomorskie"/>
    <tag k="name" v="Toruń"/>
    <tag k="old_name" v="Thorn"/>
    <tag k="place" v="city"/>
    <tag k="population" v="206346"/>
    <tag k="source:population" v="wikipedia"/>
    <tag k="teryt:rm" v="96"/>
    <tag k="teryt:simc" v="0982724"/>
    <tag k="teryt:stan_na" v="2009-01-01"/>
    <tag k="teryt:terc" v="0463011"/>
    <tag k="teryt:updated_by" v="teryt2osm combine.py v. 49"/>
    <tag k="wikipedia" v="Toruń"/>
  </node>
  <node id="84623888" version="10" timestamp="2009-08-18T19:14:22Z" uid="12973" user="MattGPS" changeset="2194036" lat="53.0108723" lon="18.6068511">
    <tag k="addr:postcode" v="87-100"/>
    <tag k="is_in" v="województwo kujawsko-pomorskie, Poland"/>
    <tag k="is_in:continent" v="Europe"/>
    <tag k="is_in:country" v="Poland"/>
    <tag k="is_in:county" v="powiat m. Toruń"/>
    <tag k="is_in:municipality" v="gmina m. Toruń"/>
    <tag k="is_in:province" v="województwo kujawsko-pomorskie"/>
    <tag k="name" v="Toruń"/>
    <tag k="name:de" v="Thorn"/>
    <tag k="old_name" v="Thorn"/>
    <tag k="place" v="city"/>
    <tag k="population" v="206346"/>
    <tag k="source:population" v="wikipedia"/>
    <tag k="teryt:rm" v="96"/>
    <tag k="teryt:simc" v="0982724"/>
    <tag k="teryt:stan_na" v="2009-01-01"/>
    <tag k="teryt:terc" v="0463011"/>
    <tag k="teryt:updated_by" v="teryt2osm combine.py v. 49"/>
    <tag k="wikipedia" v="Toruń"/>
  </node>
  <node id="84623888" version="11" timestamp="2009-10-21T14:09:31Z" uid="107566" user="Yabba" changeset="2912661" lat="53.0108758" lon="18.6068442">
    <tag k="addr:postcode" v="87-100"/>
    <tag k="is_in" v="województwo kujawsko-pomorskie, Poland"/>
    <tag k="is_in:continent" v="Europe"/>
    <tag k="is_in:country" v="Poland"/>
    <tag k="is_in:county" v="powiat m. Toruń"/>
    <tag k="is_in:municipality" v="gmina m. Toruń"/>
    <tag k="is_in:province" v="województwo kujawsko-pomorskie"/>
    <tag k="name" v="Toruń"/>
    <tag k="name:de" v="Torun (ehem. Thorn)"/>
    <tag k="name:en" v="Torun"/>
    <tag k="old_name" v="Thorn"/>
    <tag k="place" v="city"/>
    <tag k="population" v="206346"/>
    <tag k="source:population" v="wikipedia"/>
    <tag k="teryt:rm" v="96"/>
    <tag k="teryt:simc" v="0982724"/>
    <tag k="teryt:stan_na" v="2009-01-01"/>
    <tag k="teryt:terc" v="0463011"/>
    <tag k="teryt:updated_by" v="teryt2osm combine.py v. 49"/>
    <tag k="wikipedia" v="Toruń"/>
  </node>
  <node id="84623888" version="12" timestamp="2010-02-08T17:22:53Z" uid="91056" user="Yarl" changeset="3825220" lat="53.0108186" lon="18.6055711">
    <tag k="addr:postcode" v="87-100"/>
    <tag k="is_in" v="województwo kujawsko-pomorskie, Poland"/>
    <tag k="is_in:continent" v="Europe"/>
    <tag k="is_in:country" v="Poland"/>
    <tag k="is_in:county" v="powiat m. Toruń"/>
    <tag k="is_in:municipality" v="gmina m. Toruń"/>
    <tag k="is_in:province" v="województwo kujawsko-pomorskie"/>
    <tag k="name" v="Toruń"/>
    <tag k="name:de" v="Torun (ehem. Thorn)"/>
    <tag k="name:en" v="Torun"/>
    <tag k="old_name" v="Thorn"/>
    <tag k="place" v="city"/>
    <tag k="population" v="206346"/>
    <tag k="source:population" v="wikipedia"/>
    <tag k="teryt:rm" v="96"/>
    <tag k="teryt:simc" v="0982724"/>
    <tag k="teryt:stan_na" v="2009-01-01"/>
    <tag k="teryt:terc" v="0463011"/>
    <tag k="teryt:updated_by" v="teryt2osm combine.py v. 49"/>
    <tag k="wikipedia" v="Toruń"/>
  </node>
  <node id="84623888" version="13" timestamp="2010-02-08T17:55:56Z" uid="91056" user="Yarl" changeset="3825220" lat="53.0110337" lon="18.6053052">
    <tag k="addr:postcode" v="87-100"/>
    <tag k="is_in" v="województwo kujawsko-pomorskie, Poland"/>
    <tag k="is_in:continent" v="Europe"/>
    <tag k="is_in:country" v="Poland"/>
    <tag k="is_in:county" v="powiat m. Toruń"/>
    <tag k="is_in:municipality" v="gmina m. Toruń"/>
    <tag k="is_in:province" v="województwo kujawsko-pomorskie"/>
    <tag k="name" v="Toruń"/>
    <tag k="name:de" v="Torun (ehem. Thorn)"/>
    <tag k="name:en" v="Torun"/>
    <tag k="old_name" v="Thorn"/>
    <tag k="place" v="city"/>
    <tag k="population" v="206346"/>
    <tag k="source:population" v="wikipedia"/>
    <tag k="teryt:rm" v="96"/>
    <tag k="teryt:simc" v="0982724"/>
    <tag k="teryt:stan_na" v="2009-01-01"/>
    <tag k="teryt:terc" v="0463011"/>
    <tag k="teryt:updated_by" v="teryt2osm combine.py v. 49"/>
    <tag k="wikipedia" v="Toruń"/>
  </node>
  <node id="84623888" version="14" timestamp="2010-02-09T12:26:43Z" uid="166445" user="GranD" changeset="3831665" lat="53.0110338" lon="18.6053051">
    <tag k="addr:postcode" v="87-100"/>
    <tag k="is_in" v="województwo kujawsko-pomorskie, Poland"/>
    <tag k="is_in:continent" v="Europe"/>
    <tag k="is_in:country" v="Poland"/>
    <tag k="is_in:county" v="powiat m. Toruń"/>
    <tag k="is_in:municipality" v="gmina m. Toruń"/>
    <tag k="is_in:province" v="województwo kujawsko-pomorskie"/>
    <tag k="name" v="Toruń"/>
    <tag k="name:de" v="Torun (ehem. Thorn)"/>
    <tag k="name:en" v="Torun"/>
    <tag k="name:ru" v="Торунь"/>
    <tag k="old_name" v="Thorn"/>
    <tag k="place" v="city"/>
    <tag k="population" v="206346"/>
    <tag k="source:population" v="wikipedia"/>
    <tag k="teryt:rm" v="96"/>
    <tag k="teryt:simc" v="0982724"/>
    <tag k="teryt:stan_na" v="2009-01-01"/>
    <tag k="teryt:terc" v="0463011"/>
    <tag k="teryt:updated_by" v="teryt2osm combine.py v. 49"/>
    <tag k="wikipedia" v="Toruń"/>
  </node>
  <node id="84623888" version="15" timestamp="2010-04-04T16:11:09Z" uid="31118" user="Lulu-Ann" changeset="4324139" lat="53.0110338" lon="18.605305">
    <tag k="addr:postcode" v="87-100"/>
    <tag k="game:patrizier2:felle" v="1"/>
    <tag k="game:patrizier2:fleisch" v="2"/>
    <tag k="game:patrizier2:getreide" v="1"/>
    <tag k="game:patrizier2:holz" v="2"/>
    <tag k="game:patrizier2:honig" v="2"/>
    <tag k="game:patrizier2:keramik" v="2"/>
    <tag k="game:patrizier2:leder" v="2"/>
    <tag k="game:patrizier2:wolle" v="2"/>
    <tag k="is_in" v="województwo kujawsko-pomorskie, Poland"/>
    <tag k="is_in:continent" v="Europe"/>
    <tag k="is_in:country" v="Poland"/>
    <tag k="is_in:county" v="powiat m. Toruń"/>
    <tag k="is_in:municipality" v="gmina m. Toruń"/>
    <tag k="is_in:province" v="województwo kujawsko-pomorskie"/>
    <tag k="name" v="Toruń"/>
    <tag k="name:de" v="Torun (ehem. Thorn)"/>
    <tag k="name:en" v="Torun"/>
    <tag k="name:ru" v="Торунь"/>
    <tag k="old_name" v="Thorn"/>
    <tag k="place" v="city"/>
    <tag k="population" v="206346"/>
    <tag k="source:population" v="wikipedia"/>
    <tag k="teryt:rm" v="96"/>
    <tag k="teryt:simc" v="0982724"/>
    <tag k="teryt:stan_na" v="2009-01-01"/>
    <tag k="teryt:terc" v="0463011"/>
    <tag k="teryt:updated_by" v="teryt2osm combine.py v. 49"/>
    <tag k="wikipedia" v="Toruń"/>
  </node>
  <node id="84623888" version="16" timestamp="2010-04-11T04:37:35Z" uid="20587" user="balrog-kun" changeset="4389130" lat="53.0144377" lon="18.6050215">
    <tag k="addr:postcode" v="87-100"/>
    <tag k="game:patrizier2:felle" v="1"/>
    <tag k="game:patrizier2:fleisch" v="2"/>
    <tag k="game:patrizier2:getreide" v="1"/>
    <tag k="game:patrizier2:holz" v="2"/>
    <tag k="game:patrizier2:honig" v="2"/>
    <tag k="game:patrizier2:keramik" v="2"/>
    <tag k="game:patrizier2:leder" v="2"/>
    <tag k="game:patrizier2:wolle" v="2"/>
    <tag k="is_in" v="województwo kujawsko-pomorskie, Poland"/>
    <tag k="is_in:continent" v="Europe"/>
    <tag k="is_in:country" v="Poland"/>
    <tag k="is_in:county" v="powiat m. Toruń"/>
    <tag k="is_in:municipality" v="gmina m. Toruń"/>
    <tag k="is_in:province" v="województwo kujawsko-pomorskie"/>
    <tag k="name" v="Toruń"/>
    <tag k="name:de" v="Torun (ehem. Thorn)"/>
    <tag k="name:en" v="Torun"/>
    <tag k="name:ru" v="Торунь"/>
    <tag k="old_name" v="Thorn"/>
    <tag k="place" v="city"/>
    <tag k="population" v="206346"/>
    <tag k="source:population" v="wikipedia"/>
    <tag k="teryt:rm" v="96"/>
    <tag k="teryt:simc" v="0982724"/>
    <tag k="teryt:stan_na" v="2009-01-01"/>
    <tag k="teryt:terc" v="0463011"/>
    <tag k="teryt:updated_by" v="teryt2osm combine.py v. 49"/>
    <tag k="wikipedia" v="Toruń"/>
  </node>
  <node id="84623888" version="17" timestamp="2010-05-15T16:59:45Z" uid="29084" user="stoecker" changeset="4708283" lat="53.0144377" lon="18.6050215">
    <tag k="addr:postcode" v="87-100"/>
    <tag k="game:patrizier2:felle" v="1"/>
    <tag k="game:patrizier2:fleisch" v="2"/>
    <tag k="game:patrizier2:getreide" v="1"/>
    <tag k="game:patrizier2:holz" v="2"/>
    <tag k="game:patrizier2:honig" v="2"/>
    <tag k="game:patrizier2:keramik" v="2"/>
    <tag k="game:patrizier2:leder" v="2"/>
    <tag k="game:patrizier2:wolle" v="2"/>
    <tag k="is_in" v="województwo kujawsko-pomorskie, Poland"/>
    <tag k="is_in:continent" v="Europe"/>
    <tag k="is_in:country" v="Poland"/>
    <tag k="is_in:county" v="powiat m. Toruń"/>
    <tag k="is_in:municipality" v="gmina m. Toruń"/>
    <tag k="is_in:province" v="województwo kujawsko-pomorskie"/>
    <tag k="name" v="Toruń"/>
    <tag k="name:de" v="Thorn"/>
    <tag k="name:en" v="Torun"/>
    <tag k="name:ru" v="Торунь"/>
    <tag k="old_name" v="Thorn"/>
    <tag k="place" v="city"/>
    <tag k="population" v="206346"/>
    <tag k="source:population" v="wikipedia"/>
    <tag k="teryt:rm" v="96"/>
    <tag k="teryt:simc" v="0982724"/>
    <tag k="teryt:stan_na" v="2009-01-01"/>
    <tag k="teryt:terc" v="0463011"/>
    <tag k="teryt:updated_by" v="teryt2osm combine.py v. 49"/>
    <tag k="wikipedia" v="Toruń"/>
  </node>
  <node id="84623888" version="18" timestamp="2010-06-09T19:38:44Z" uid="115102" user="errt" changeset="4948428" lat="53.0144377" lon="18.6050215">
    <tag k="addr:postcode" v="87-100"/>
    <tag k="is_in" v="województwo kujawsko-pomorskie, Poland"/>
    <tag k="is_in:continent" v="Europe"/>
    <tag k="is_in:country" v="Poland"/>
    <tag k="is_in:county" v="powiat m. Toruń"/>
    <tag k="is_in:municipality" v="gmina m. Toruń"/>
    <tag k="is_in:province" v="województwo kujawsko-pomorskie"/>
    <tag k="name" v="Toruń"/>
    <tag k="name:de" v="Thorn"/>
    <tag k="name:en" v="Torun"/>
    <tag k="name:ru" v="Торунь"/>
    <tag k="old_name" v="Thorn"/>
    <tag k="place" v="city"/>
    <tag k="population" v="206346"/>
    <tag k="source:population" v="wikipedia"/>
    <tag k="teryt:rm" v="96"/>
    <tag k="teryt:simc" v="0982724"/>
    <tag k="teryt:stan_na" v="2009-01-01"/>
    <tag k="teryt:terc" v="0463011"/>
    <tag k="teryt:updated_by" v="teryt2osm combine.py v. 49"/>
    <tag k="wikipedia" v="Toruń"/>
  </node>
  <node id="84623888" version="19" timestamp="2011-07-21T14:05:41Z" uid="306326" user="Yaro" changeset="8788953" lat="53.0144377" lon="18.6050215">
    <tag k="addr:postcode" v="87-100"/>
    <tag k="is_in" v="województwo kujawsko-pomorskie, Poland"/>
    <tag k="is_in:continent" v="Europe"/>
    <tag k="is_in:country" v="Poland"/>
    <tag k="is_in:county" v="powiat m. Toruń"/>
    <tag k="is_in:municipality" v="gmina m. Toruń"/>
    <tag k="is_in:province" v="województwo kujawsko-pomorskie"/>
    <tag k="name" v="Toruń"/>
    <tag k="name:de" v="Thorn"/>
    <tag k="name:en" v="Torun"/>
    <tag k="name:ru" v="Торунь"/>
    <tag k="old_name" v="Thorn"/>
    <tag k="place" v="city"/>
    <tag k="population" v="206346"/>
    <tag k="source:population" v="wikipedia"/>
    <tag k="teryt:rm" v="96"/>
    <tag k="teryt:simc" v="0982724"/>
    <tag k="teryt:stan_na" v="2009-01-01"/>
    <tag k="teryt:terc" v="0463011"/>
    <tag k="wikipedia" v="Toruń"/>
  </node>
  <node id="84623888" version="20" timestamp="2011-07-21T16:44:25Z" uid="306326" user="Yaro" changeset="8790337" lat="53.0144377" lon="18.6050215">
    <tag k="addr:postcode" v="87-100"/>
    <tag k="is_in" v="województwo kujawsko-pomorskie, Poland"/>
    <tag k="is_in:continent" v="Europe"/>
    <tag k="is_in:country" v="Poland"/>
    <tag k="is_in:county" v="powiat m. Toruń"/>
    <tag k="is_in:municipality" v="gmina m. Toruń"/>
    <tag k="is_in:province" v="województwo kujawsko-pomorskie"/>
    <tag k="name" v="Toruń"/>
    <tag k="name:de" v="Thorn"/>
    <tag k="name:en" v="Torun"/>
    <tag k="name:ru" v="Торунь"/>
    <tag k="old_name" v="Thorn"/>
    <tag k="place" v="city"/>
    <tag k="population" v="205312"/>
    <tag k="source:population" v="wikipedia"/>
    <tag k="teryt:simc" v="0982724"/>
    <tag k="teryt:terc" v="0463011"/>
    <tag k="wikipedia" v="Toruń"/>
  </node>
  <node id="84623888" version="21" timestamp="2011-08-01T13:06:17Z" uid="29717" user="eumiro" changeset="8889790" lat="53.0144377" lon="18.6050215">
    <tag k="addr:postcode" v="87-100"/>
    <tag k="is_in" v="województwo kujawsko-pomorskie, Poland"/>
    <tag k="is_in:continent" v="Europe"/>
    <tag k="is_in:country" v="Poland"/>
    <tag k="is_in:county" v="powiat m. Toruń"/>
    <tag k="is_in:municipality" v="gmina m. Toruń"/>
    <tag k="is_in:province" v="województwo kujawsko-pomorskie"/>
    <tag k="name" v="Toruń"/>
    <tag k="name:de" v="Thorn"/>
    <tag k="name:en" v="Torun"/>
    <tag k="name:ru" v="Торунь"/>
    <tag k="name:sk" v="Toruň"/>
    <tag k="old_name" v="Thorn"/>
    <tag k="place" v="city"/>
    <tag k="population" v="205312"/>
    <tag k="source:population" v="wikipedia"/>
    <tag k="teryt:simc" v="0982724"/>
    <tag k="teryt:terc" v="0463011"/>
    <tag k="wikipedia" v="Toruń"/>
  </node>
  <node id="84623888" version="22" timestamp="2012-03-30T09:18:34Z" uid="306326" user="jaruch" changeset="11149314" lat="53.0144377" lon="18.6050215"/>
</osm>
