<?xml version='1.0' encoding='UTF-8'?>
<osm version="0.6" generator="libosmium/2.20.0">
  <node id="84710643" version="2" timestamp="2008-03-03T19:02:37Z" uid="8328" user="benpre" changeset="260633" lat="47.6005921" lon="7.6702882">
    <tag k="created_by" v="JOSM"/>
  </node>
  <node id="84710643" version="3" timestamp="2008-03-27T00:36:01Z" uid="7010" user="GarryX3D" changeset="406882" lat="47.6007295" lon="7.6702939">
    <tag k="created_by" v="JOSM"/>
  </node>
  <node id="84710643" version="4" timestamp="2009-07-10T17:05:53Z" uid="85761" user="klausis" changeset="1790834" lat="47.6007295" lon="7.6702939"/>
  <node id="84710643" version="5" timestamp="2010-12-07T19:05:21Z" uid="13436" user="hkucharek" changeset="6578250" lat="47.6006986" lon="7.6702977"/>
  <node id="84710643" version="6" timestamp="2011-01-01T10:50:18Z" uid="13436" user="hkucharek" changeset="6826563" lat="47.6006851" lon="7.6702894"/>
  <node id="84712111" version="3" timestamp="2008-09-30T10:30:45Z" uid="1066" user="pavel" changeset="720911" lat="49.4627897" lon="17.4456337">
    <tag k="is_in" v="Czech Republic, Europe"/>
    <tag k="name" v="Přerov"/>
    <tag k="place" v="town"/>
  </node>
  <node id="84712111" version="4" timestamp="2008-11-04T13:11:06Z" uid="308" user="MichaelCollinson" changeset="676656" lat="49.4627897" lon="17.4456337">
    <tag k="is_in" v="Czech Republic, Europe"/>
    <tag k="is_in:continent" v="Europe"/>
    <tag k="is_in:country_code" v="cz"/>
    <tag k="name" v="Přerov"/>
    <tag k="place" v="town"/>
  </node>
  <node id="84712111" version="5" timestamp="2009-07-03T12:02:25Z" uid="81148" user="Kuratkoo" changeset="1720263" lat="49.4549258" lon="17.4493047">
    <tag k="is_in" v="Czech Republic, Europe"/>
    <tag k="is_in:continent" v="Europe"/>
    <tag k="is_in:country_code" v="cz"/>
    <tag k="name" v="Přerov"/>
    <tag k="place" v="town"/>
  </node>
  <node id="84712111" version="6" timestamp="2009-07-03T12:48:31Z" uid="81148" user="Kuratkoo" changeset="1720635" lat="49.4549744" lon="17.4492652">
    <tag k="is_in" v="Czech Republic, Europe"/>
    <tag k="is_in:continent" v="Europe"/>
    <tag k="is_in:country_code" v="cz"/>
    <tag k="name" v="Přerov"/>
    <tag k="place" v="town"/>
  </node>
  <node id="84712111" version="7" timestamp="2009-08-05T17:51:27Z" uid="81148" user="Kuratkoo" changeset="2048356" lat="49.4551156" lon="17.4493224">
    <tag k="is_in" v="Czech Republic, Europe"/>
    <tag k="is_in:continent" v="Europe"/>
    <tag k="is_in:country_code" v="cz"/>
    <tag k="name" v="Přerov"/>
    <tag k="place" v="town"/>
  </node>
  <node id="84712111" version="8" timestamp="2010-10-23T19:13:03Z" uid="127170" user="Ilis" changeset="6150621" lat="49.4551156" lon="17.4493224">
    <tag k="is_in" v="Czech Republic, Europe"/>
    <tag k="is_in:continent" v="Europe"/>
    <tag k="is_in:country_code" v="cz"/>
    <tag k="name" v="Přerov"/>
    <tag k="name:ru" v="Пршеров"/>
    <tag k="place" v="town"/>
  </node>
  <node id="84712111" version="9" timestamp="2010-10-24T00:45:57Z" uid="152074" user="beweta" changeset="6152826" lat="49.4551156" lon="17.4493224">
    <tag k="is_in" v="Czech Republic, Europe"/>
    <tag k="is_in:continent" v="Europe"/>
    <tag k="is_in:country_code" v="cz"/>
    <tag k="name" v="Přerov"/>
    <tag k="name:de" v="Prerau"/>
    <tag k="name:ru" v="Пршеров"/>
    <tag k="place" v="town"/>
  </node>
  <node id="84712111" version="10" timestamp="2011-07-15T11:25:44Z" uid="102554" user="Jezevec" changeset="8730283" lat="49.4551156" lon="17.4493224">
    <tag k="is_in" v="Czech Republic, Europe"/>
    <tag k="is_in:continent" v="Europe"/>
    <tag k="is_in:country_code" v="cz"/>
    <tag k="lau1" v="CZ0714"/>
    <tag k="lau2" v="511382"/>
    <tag k="name" v="Přerov"/>
    <tag k="name:de" v="Prerau"/>
    <tag k="name:ru" v="Пршеров"/>
    <tag k="place" v="town"/>
    <tag k="population" v="45778"/>
  </node>
  <node id="84712111" version="11" timestamp="2012-01-21T01:04:13Z" uid="229590" user="xificurk" changeset="10452162" lat="49.4551156" lon="17.4493224"/>
  <node id="84713700" version="2" timestamp="2008-10-15T13:36:50Z" uid="27600" user="Islanit" changeset="356405" lat="53.4545749" lon="10.0705821"/>
  <node id="84713700" version="3" timestamp="2008-10-15T13:37:19Z" uid="27600" user="Islanit" changeset="356405" lat="53.4545749" lon="10.0705821"/>
  <node id="84713700" version="4" timestamp="2009-01-27T12:02:12Z" uid="41914" user="TheBo" changeset="843139" lat="53.4545246" lon="10.0707299"/>
  <node id="84717110" version="13" timestamp="2009-03-19T18:07:09Z" uid="27600" user="Islanit" changeset="832904" lat="53.3948887" lon="10.2305887"/>
  <node id="84717110" version="14" timestamp="2011-07-30T21:26:34Z" uid="100836" user="MrToiz" changeset="8876078" lat="53.3948887" lon="10.2305887"/>
</osm>
