<?xml version='1.0' encoding='UTF-8'?>
<osm version="0.6" generator="libosmium/2.20.0">
  <node id="854631913" version="1" timestamp="2010-08-11T13:49:48Z" uid="115477" user="wowik" changeset="5463052" lat="54.9437939" lon="20.1623517">
    <tag k="amenity" v="place_of_worship"/>
    <tag k="description" v="Построен на месте трагической гибели детского сада в результате падения военного самолета 16 мая 1972 года"/>
    <tag k="name" v="Храм-памятник в честь иконы Богоматери «Всех скорбящих Радость»"/>
  </node>
  <node id="854631913" version="2" timestamp="2010-08-11T14:10:50Z" uid="115477" user="wowik" changeset="5463052" lat="54.9437939" lon="20.1623517">
    <tag k="amenity" v="place_of_worship"/>
    <tag k="denomination" v="orthodox"/>
    <tag k="description" v="Построен на месте трагической гибели детского сада в результате падения военного самолета 16 мая 1972 года"/>
    <tag k="name" v="Храм-памятник в честь иконы Богоматери «Всех скорбящих Радость»"/>
    <tag k="religion" v="christian"/>
  </node>
  <node id="854631913" version="3" timestamp="2010-09-15T08:50:13Z" uid="115477" user="wowik" changeset="5784864" lat="54.9437938" lon="20.1623517">
    <tag k="addr:housenumber" v="5"/>
    <tag k="addr:street" v="улица Ленина"/>
    <tag k="amenity" v="place_of_worship"/>
    <tag k="denomination" v="orthodox"/>
    <tag k="description" v="Построен на месте трагической гибели детского сада в результате падения военного самолета 16 мая 1972 года"/>
    <tag k="name" v="Храм-памятник в честь иконы Богоматери «Всех скорбящих Радость»"/>
    <tag k="religion" v="christian"/>
  </node>
  <node id="854636379" version="2" timestamp="2011-04-14T15:44:08Z" uid="4467" user="Rosscoe" changeset="7861959" lat="-34.8209049" lon="138.7043729"/>
  <node id="854631913" version="4" timestamp="2012-07-24T19:51:53Z" uid="722137" user="OSMF Redaction Account" changeset="12475083" lat="54.9437938" lon="20.1623517"/>
  <node id="854636379" version="3" timestamp="2012-07-19T15:07:01Z" uid="722137" user="OSMF Redaction Account" changeset="12333240" lat="-34.8209101" lon="138.7043745"/>
</osm>
