<?xml version='1.0' encoding='UTF-8'?>
<osm version="0.6" generator="libosmium/2.20.0">
  <node id="85780006" version="8" timestamp="2008-09-14T20:01:44Z" uid="6975" user="ulfl" changeset="640534" lat="50.9871946" lon="13.8064142">
    <tag k="amenity" v="bank"/>
    <tag k="atm" v="yes"/>
    <tag k="name" v="Filiale Dresden Lockwitz"/>
    <tag k="operator" v="Ostsächsische Sparkasse Dresden"/>
  </node>
  <node id="85780006" version="9" timestamp="2008-09-16T12:25:43Z" uid="42123" user="Ropino" changeset="651962" lat="50.9871946" lon="13.8064142">
    <tag k="amenity" v="bank"/>
    <tag k="atm" v="yes"/>
    <tag k="name" v="Sparkasse"/>
    <tag k="operator" v="Ostsächsische Sparkasse Dresden"/>
  </node>
  <node id="85781840" version="1" timestamp="2007-10-24T13:53:36Z" uid="9581" user="Lobelt" changeset="305513" lat="51.9582275" lon="13.744911"/>
  <node id="85781840" version="2" timestamp="2008-04-17T08:32:08Z" uid="9581" user="Lobelt" changeset="167893" lat="51.9582584" lon="13.7449848"/>
  <node id="85781840" version="3" timestamp="2008-11-08T09:43:50Z" uid="17544" user="Donsen64" changeset="716071" lat="51.9582584" lon="13.7449848"/>
  <node id="85781840" version="4" timestamp="2008-11-08T09:44:09Z" uid="17544" user="Donsen64" changeset="716071" lat="51.9582584" lon="13.7449848"/>
  <node id="85781840" version="5" timestamp="2011-01-06T15:57:45Z" uid="109035" user="Teddy80" changeset="6883885" lat="51.9582584" lon="13.7449848">
    <tag k="TMC:cid_58:tabcd_1:Class" v="Point"/>
    <tag k="TMC:cid_58:tabcd_1:LCLversion" v="9.00"/>
    <tag k="TMC:cid_58:tabcd_1:LocationCode" v="34281"/>
  </node>
  <node id="85781840" version="6" timestamp="2011-01-06T19:22:26Z" uid="218283" user="TMCbot" changeset="6885991" lat="51.9582584" lon="13.7449848">
    <tag k="TMC:cid_58:tabcd_1:Class" v="Point"/>
    <tag k="TMC:cid_58:tabcd_1:LCLversion" v="9.00"/>
    <tag k="TMC:cid_58:tabcd_1:LocationCode" v="34281"/>
    <tag k="TMC:cid_58:tabcd_1:NextLocationCode" v="33914"/>
    <tag k="TMC:cid_58:tabcd_1:PrevLocationCode" v="20641"/>
  </node>
  <node id="85781841" version="1" timestamp="2007-10-24T13:53:36Z" uid="9581" user="Lobelt" changeset="305513" lat="51.9553554" lon="13.7579143"/>
  <node id="85781841" version="2" timestamp="2008-11-08T09:43:50Z" uid="17544" user="Donsen64" changeset="716071" lat="51.9553554" lon="13.7579143"/>
  <node id="85781841" version="3" timestamp="2008-11-08T09:44:09Z" uid="17544" user="Donsen64" changeset="716071" lat="51.9553554" lon="13.7579143"/>
  <node id="85781842" version="1" timestamp="2007-10-24T13:53:36Z" uid="9581" user="Lobelt" changeset="305513" lat="51.9546836" lon="13.7624204"/>
  <node id="85781842" version="2" timestamp="2008-01-03T23:40:25Z" uid="16268" user="MasterMG" changeset="535186" lat="51.9545581" lon="13.7632152"/>
  <node id="85781842" version="3" timestamp="2008-04-19T19:04:47Z" uid="12983" user="jorilla" changeset="191760" lat="51.9545019" lon="13.7632287"/>
  <node id="85781842" version="4" timestamp="2008-11-08T09:43:50Z" uid="17544" user="Donsen64" changeset="716071" lat="51.9545019" lon="13.7632287"/>
  <node id="85781842" version="5" timestamp="2008-11-08T09:44:09Z" uid="17544" user="Donsen64" changeset="716071" lat="51.9545019" lon="13.7632287"/>
  <node id="85781843" version="1" timestamp="2007-10-24T13:53:36Z" uid="9581" user="Lobelt" changeset="305513" lat="51.9535093" lon="13.7701709"/>
  <node id="85781843" version="2" timestamp="2008-01-03T23:40:26Z" uid="16268" user="MasterMG" changeset="535186" lat="51.9535093" lon="13.7701709"/>
  <node id="85781844" version="1" timestamp="2007-10-24T13:53:36Z" uid="9581" user="Lobelt" changeset="305513" lat="51.9534405" lon="13.7706001"/>
  <node id="85781844" version="2" timestamp="2008-04-19T19:04:48Z" uid="12983" user="jorilla" changeset="191760" lat="51.9534284" lon="13.7702466"/>
  <node id="85781844" version="3" timestamp="2008-11-08T09:43:50Z" uid="17544" user="Donsen64" changeset="716071" lat="51.9534284" lon="13.7702466"/>
  <node id="85781844" version="4" timestamp="2008-11-08T09:44:06Z" uid="17544" user="Donsen64" changeset="716071" lat="51.9534284" lon="13.7702466"/>
  <node id="85781844" version="5" timestamp="2008-11-08T09:44:12Z" uid="17544" user="Donsen64" changeset="716071" lat="51.9534284" lon="13.7702466"/>
  <node id="85781845" version="1" timestamp="2007-10-24T13:53:36Z" uid="9581" user="Lobelt" changeset="305513" lat="51.9534141" lon="13.7708747"/>
  <node id="85781845" version="2" timestamp="2008-01-03T23:40:26Z" uid="16268" user="MasterMG" changeset="535186" lat="51.9534141" lon="13.7708747"/>
  <node id="85782324" version="3" timestamp="2008-10-25T14:13:52Z" uid="13367" user="nubok" changeset="569443" lat="52.1364549" lon="11.6444279">
    <tag k="created_by" v="JOSM"/>
  </node>
  <node id="85782324" version="4" timestamp="2008-10-28T18:44:57Z" uid="42683" user="riechfield" changeset="614278" lat="52.1364632" lon="11.6444913">
    <tag k="created_by" v="JOSM"/>
  </node>
  <node id="85782324" version="5" timestamp="2008-10-28T18:45:38Z" uid="42683" user="riechfield" changeset="614278" lat="52.1364739" lon="11.6445217">
    <tag k="created_by" v="JOSM"/>
  </node>
  <node id="85782324" version="6" timestamp="2011-06-03T15:15:56Z" uid="41889" user="Kurt Krampmeier" changeset="8330434" lat="52.1364533" lon="11.6445412"/>
  <node id="85782478" version="15" timestamp="2010-10-09T20:49:35Z" uid="16922" user="amai" changeset="5997109" lat="13.7656649" lon="100.5400631"/>
  <node id="85782753" version="1" timestamp="2007-10-24T13:54:25Z" uid="9581" user="Lobelt" changeset="305513" lat="51.9608033" lon="13.7454689"/>
  <node id="85782754" version="1" timestamp="2007-10-24T13:54:25Z" uid="9581" user="Lobelt" changeset="305513" lat="51.9619298" lon="13.7459838"/>
  <node id="85782754" version="2" timestamp="2010-12-04T11:40:13Z" uid="43566" user="anbr" changeset="6535929" lat="51.9617658" lon="13.7461935"/>
  <node id="85782755" version="1" timestamp="2007-10-24T13:54:25Z" uid="9581" user="Lobelt" changeset="305513" lat="51.9627495" lon="13.7442844"/>
  <node id="85782755" version="2" timestamp="2010-12-04T11:40:18Z" uid="43566" user="anbr" changeset="6535929" lat="51.962665" lon="13.7442199"/>
  <node id="85782756" version="1" timestamp="2007-10-24T13:54:25Z" uid="9581" user="Lobelt" changeset="305513" lat="51.9637173" lon="13.7437093"/>
  <node id="85782758" version="1" timestamp="2007-10-24T13:54:25Z" uid="9581" user="Lobelt" changeset="305513" lat="51.9648279" lon="13.7443101"/>
  <node id="85782759" version="1" timestamp="2007-10-24T13:54:25Z" uid="9581" user="Lobelt" changeset="305513" lat="51.9651981" lon="13.7452285"/>
  <node id="85782759" version="2" timestamp="2010-12-04T11:40:31Z" uid="43566" user="anbr" changeset="6535929" lat="51.9650529" lon="13.7446592"/>
  <node id="85782761" version="1" timestamp="2007-10-24T13:54:25Z" uid="9581" user="Lobelt" changeset="305513" lat="51.9650765" lon="13.7464988"/>
  <node id="85782761" version="2" timestamp="2010-12-04T11:40:16Z" uid="43566" user="anbr" changeset="6535929" lat="51.9651113" lon="13.7465794"/>
  <node id="85782762" version="1" timestamp="2007-10-24T13:54:25Z" uid="9581" user="Lobelt" changeset="305513" lat="51.9654467" lon="13.7487991"/>
  <node id="85782762" version="2" timestamp="2010-12-04T11:40:31Z" uid="43566" user="anbr" changeset="6535929" lat="51.9655014" lon="13.7490975"/>
  <node id="85782763" version="1" timestamp="2007-10-24T13:54:25Z" uid="9581" user="Lobelt" changeset="305513" lat="51.9658697" lon="13.7497432"/>
  <node id="85782763" version="2" timestamp="2011-01-06T13:51:59Z" uid="109035" user="Teddy80" changeset="6882578" lat="51.9662073" lon="13.7501727"/>
  <node id="85782764" version="1" timestamp="2007-10-24T13:54:25Z" uid="9581" user="Lobelt" changeset="305513" lat="51.9673769" lon="13.7517345"/>
  <node id="85782765" version="1" timestamp="2007-10-24T13:54:25Z" uid="9581" user="Lobelt" changeset="305513" lat="51.9689263" lon="13.7546098"/>
  <node id="85782766" version="1" timestamp="2007-10-24T13:54:25Z" uid="9581" user="Lobelt" changeset="305513" lat="51.9702694" lon="13.7564981"/>
  <node id="85782766" version="2" timestamp="2009-08-13T22:14:17Z" uid="28234" user="derandi" changeset="2137373" lat="51.9700039" lon="13.7561986"/>
  <node id="85782767" version="1" timestamp="2007-10-24T13:54:25Z" uid="9581" user="Lobelt" changeset="305513" lat="51.9720143" lon="13.7593477"/>
  <node id="85782768" version="1" timestamp="2007-10-24T13:54:25Z" uid="9581" user="Lobelt" changeset="305513" lat="51.9740923" lon="13.763665"/>
  <node id="85782769" version="1" timestamp="2007-10-24T13:54:25Z" uid="9581" user="Lobelt" changeset="305513" lat="51.9747373" lon="13.7640941"/>
  <node id="85786161" version="1" timestamp="2007-10-24T13:58:46Z" uid="9581" user="Lobelt" changeset="305513" lat="51.6626985" lon="13.9077404"/>
  <node id="85786161" version="2" timestamp="2012-02-13T07:24:29Z" uid="40116" user="FilO" changeset="10670622" lat="51.6626985" lon="13.9077404"/>
  <node id="85786162" version="1" timestamp="2007-10-24T13:58:46Z" uid="9581" user="Lobelt" changeset="305513" lat="51.6621235" lon="13.9087102"/>
  <node id="85786162" version="2" timestamp="2012-02-13T07:24:29Z" uid="40116" user="FilO" changeset="10670622" lat="51.6621235" lon="13.9087102"/>
  <node id="85786163" version="1" timestamp="2007-10-24T13:58:46Z" uid="9581" user="Lobelt" changeset="305513" lat="51.6619265" lon="13.9096115"/>
  <node id="85786163" version="2" timestamp="2012-02-13T07:24:30Z" uid="40116" user="FilO" changeset="10670622" lat="51.6619265" lon="13.9096115"/>
  <node id="85786827" version="1" timestamp="2007-10-24T13:59:27Z" uid="9581" user="Lobelt" changeset="305513" lat="51.6649771" lon="13.9113281"/>
  <node id="85786827" version="2" timestamp="2008-08-18T08:54:53Z" uid="9581" user="Lobelt" changeset="305395" lat="51.6650845" lon="13.9111459"/>
  <node id="85786827" version="3" timestamp="2012-02-13T07:24:30Z" uid="40116" user="FilO" changeset="10670622" lat="51.6650845" lon="13.9111459"/>
  <node id="85788138" version="1" timestamp="2007-10-24T14:00:52Z" uid="9581" user="Lobelt" changeset="305513" lat="51.6614047" lon="13.9050624"/>
  <node id="85788138" version="2" timestamp="2012-02-13T07:24:30Z" uid="40116" user="FilO" changeset="10670622" lat="51.6614047" lon="13.9050624"/>
  <node id="85788139" version="1" timestamp="2007-10-24T14:00:52Z" uid="9581" user="Lobelt" changeset="305513" lat="51.6593549" lon="13.9019554"/>
  <node id="85788139" version="2" timestamp="2012-02-13T07:24:31Z" uid="40116" user="FilO" changeset="10670622" lat="51.6593549" lon="13.9019554"/>
  <node id="85788140" version="1" timestamp="2007-10-24T14:00:52Z" uid="9581" user="Lobelt" changeset="305513" lat="51.6547118" lon="13.8978527"/>
  <node id="85788140" version="2" timestamp="2011-08-05T21:15:13Z" uid="109035" user="Teddy80" changeset="8932936" lat="51.6565561" lon="13.8995043">
    <tag k="name" v="Saadow"/>
    <tag k="traffic_sign" v="city_limit"/>
  </node>
  <node id="85788140" version="3" timestamp="2012-02-13T07:24:04Z" uid="40116" user="FilO" changeset="10670622" lat="51.6565561" lon="13.8995043"/>
  <node id="85788141" version="1" timestamp="2007-10-24T14:00:52Z" uid="9581" user="Lobelt" changeset="305513" lat="51.6532474" lon="13.8965223"/>
  <node id="85788142" version="1" timestamp="2007-10-24T14:00:52Z" uid="9581" user="Lobelt" changeset="305513" lat="51.6513836" lon="13.8936899"/>
  <node id="85788142" version="2" timestamp="2010-01-30T18:32:26Z" uid="9581" user="Lobelt" changeset="3753568" lat="51.6513472" lon="13.8937745"/>
  <node id="85788143" version="1" timestamp="2007-10-24T14:00:52Z" uid="9581" user="Lobelt" changeset="305513" lat="51.6511546" lon="13.8927457"/>
  <node id="85788143" version="2" timestamp="2010-01-30T18:32:26Z" uid="9581" user="Lobelt" changeset="3753568" lat="51.6511102" lon="13.8927457"/>
  <node id="85788143" version="3" timestamp="2011-08-05T21:15:13Z" uid="109035" user="Teddy80" changeset="8932936" lat="51.6510798" lon="13.8925081">
    <tag k="name" v="Saadow"/>
    <tag k="traffic_sign" v="city_limit"/>
  </node>
  <node id="85788144" version="1" timestamp="2007-10-24T14:00:52Z" uid="9581" user="Lobelt" changeset="305513" lat="51.6504623" lon="13.8869264"/>
  <node id="85788144" version="2" timestamp="2010-01-30T18:32:26Z" uid="9581" user="Lobelt" changeset="3753568" lat="51.6504071" lon="13.8867102"/>
  <node id="85788145" version="1" timestamp="2007-10-24T14:00:52Z" uid="9581" user="Lobelt" changeset="305513" lat="51.6502865" lon="13.8825061"/>
  <node id="85788145" version="2" timestamp="2011-07-31T19:37:54Z" uid="109035" user="Teddy80" changeset="8884512" lat="51.6503392" lon="13.8825132"/>
  <node id="85788147" version="1" timestamp="2007-10-24T14:00:52Z" uid="9581" user="Lobelt" changeset="305513" lat="51.6501428" lon="13.8810041"/>
  <node id="85788147" version="2" timestamp="2011-07-31T19:37:54Z" uid="109035" user="Teddy80" changeset="8884512" lat="51.6502032" lon="13.8810572"/>
  <node id="85788149" version="1" timestamp="2007-10-24T14:00:52Z" uid="9581" user="Lobelt" changeset="305513" lat="51.6496209" lon="13.8786094"/>
  <node id="85788149" version="2" timestamp="2011-07-31T19:37:54Z" uid="109035" user="Teddy80" changeset="8884512" lat="51.6496813" lon="13.8785917"/>
  <node id="85788150" version="1" timestamp="2007-10-24T14:00:52Z" uid="9581" user="Lobelt" changeset="305513" lat="51.6480764" lon="13.8720863"/>
  <node id="85788150" version="2" timestamp="2011-05-15T07:42:24Z" uid="109035" user="Teddy80" changeset="8148454" lat="51.648109" lon="13.8720863"/>
  <node id="85788151" version="1" timestamp="2007-10-24T14:00:52Z" uid="9581" user="Lobelt" changeset="305513" lat="51.6415253" lon="13.8617866"/>
  <node id="85788151" version="2" timestamp="2007-12-06T10:53:05Z" uid="9581" user="Lobelt" changeset="131193" lat="51.6415253" lon="13.8617866"/>
  <node id="85788151" version="3" timestamp="2008-06-30T08:17:39Z" uid="9581" user="Lobelt" changeset="341887" lat="51.6414638" lon="13.8617271"/>
  <node id="85788293" version="17" timestamp="2009-07-22T19:58:59Z" uid="20587" user="balrog-kun" changeset="1908820" lat="47.4983353" lon="19.0404758">
    <tag k="capital" v="yes"/>
    <tag k="is_in" v="capital_cities; Közép-Magyarország; Magyarország"/>
    <tag k="is_in:continent" v="Europe"/>
    <tag k="name" v="Budapest"/>
    <tag k="name:he" v="בודפשט"/>
    <tag k="name:hr" v="Budimpešta"/>
    <tag k="name:pl" v="Budapeszt"/>
    <tag k="name:ru" v="Будапешт"/>
    <tag k="place" v="city"/>
    <tag k="population" v="1702297"/>
    <tag k="wikipedia" v="Budapest"/>
  </node>
  <node id="85788293" version="18" timestamp="2009-07-23T09:41:41Z" uid="3834" user="StefanB" changeset="1913665" lat="47.4983353" lon="19.0404758">
    <tag k="capital" v="yes"/>
    <tag k="is_in" v="capital_cities; Közép-Magyarország; Magyarország"/>
    <tag k="is_in:continent" v="Europe"/>
    <tag k="name" v="Budapest"/>
    <tag k="name:he" v="בודפשט"/>
    <tag k="name:hr" v="Budimpešta"/>
    <tag k="name:pl" v="Budapeszt"/>
    <tag k="name:ru" v="Будапешт"/>
    <tag k="name:sl" v="Budimpešta"/>
    <tag k="place" v="city"/>
    <tag k="population" v="1702297"/>
    <tag k="wikipedia" v="Budapest"/>
  </node>
  <node id="85788293" version="19" timestamp="2009-07-29T17:36:52Z" uid="80490" user="MichalP" changeset="1977837" lat="47.4983377" lon="19.0404712">
    <tag k="capital" v="yes"/>
    <tag k="is_in" v="capital_cities; Közép-Magyarország; Magyarország"/>
    <tag k="is_in:continent" v="Europe"/>
    <tag k="name" v="Budapest"/>
    <tag k="name:he" v="בודפשט"/>
    <tag k="name:hr" v="Budimpešta"/>
    <tag k="name:pl" v="Budapeszt"/>
    <tag k="name:ru" v="Будапешт"/>
    <tag k="name:sk" v="Budapešť"/>
    <tag k="name:sl" v="Budimpešta"/>
    <tag k="place" v="city"/>
    <tag k="population" v="1702297"/>
    <tag k="wikipedia" v="Budapest"/>
  </node>
  <node id="85788293" version="20" timestamp="2009-08-04T22:44:54Z" uid="10610" user="RedFox" changeset="2040817" lat="47.4983377" lon="19.0404712">
    <tag k="capital" v="yes"/>
    <tag k="is_in" v="Közép-Magyarország; Magyarország"/>
    <tag k="is_in:continent" v="Europe"/>
    <tag k="name" v="Budapest"/>
    <tag k="name:he" v="בודפשט"/>
    <tag k="name:hr" v="Budimpešta"/>
    <tag k="name:pl" v="Budapeszt"/>
    <tag k="name:ru" v="Будапешт"/>
    <tag k="name:sk" v="Budapešť"/>
    <tag k="name:sl" v="Budimpešta"/>
    <tag k="place" v="city"/>
    <tag k="population" v="1702297"/>
    <tag k="wikipedia" v="Budapest"/>
    <tag k="wikipedia:fr" v="Budapest"/>
  </node>
  <node id="85788293" version="21" timestamp="2009-08-16T10:40:16Z" uid="33377" user="Victor LP" changeset="2163565" lat="47.4983377" lon="19.0404712">
    <tag k="capital" v="yes"/>
    <tag k="is_in" v="Közép-Magyarország; Magyarország"/>
    <tag k="is_in:continent" v="Europe"/>
    <tag k="name" v="Budapest"/>
    <tag k="name:el" v="Βουδαπέστη"/>
    <tag k="name:he" v="בודפשט"/>
    <tag k="name:hr" v="Budimpešta"/>
    <tag k="name:nl" v="Boedapest"/>
    <tag k="name:pl" v="Budapeszt"/>
    <tag k="name:ru" v="Будапешт"/>
    <tag k="name:sk" v="Budapešť"/>
    <tag k="name:sl" v="Budimpešta"/>
    <tag k="place" v="city"/>
    <tag k="population" v="1702297"/>
    <tag k="wikipedia" v="Budapest"/>
    <tag k="wikipedia:fr" v="Budapest"/>
  </node>
  <node id="85788293" version="22" timestamp="2009-09-06T19:42:55Z" uid="24965" user="Ævar Arnfjörð Bjarmason" changeset="2395774" lat="47.4983377" lon="19.0404712">
    <tag k="capital" v="yes"/>
    <tag k="is_in" v="Közép-Magyarország; Magyarország"/>
    <tag k="is_in:continent" v="Europe"/>
    <tag k="name" v="Budapest"/>
    <tag k="name:el" v="Βουδαπέστη"/>
    <tag k="name:he" v="בודפשט"/>
    <tag k="name:hr" v="Budimpešta"/>
    <tag k="name:is" v="Búdapest"/>
    <tag k="name:nl" v="Boedapest"/>
    <tag k="name:pl" v="Budapeszt"/>
    <tag k="name:ru" v="Будапешт"/>
    <tag k="name:sk" v="Budapešť"/>
    <tag k="name:sl" v="Budimpešta"/>
    <tag k="place" v="city"/>
    <tag k="population" v="1702297"/>
    <tag k="wikipedia" v="Budapest"/>
    <tag k="wikipedia:fr" v="Budapest"/>
  </node>
  <node id="85788293" version="23" timestamp="2009-11-11T17:42:52Z" uid="18069" user="Claudius Henrichs" changeset="3092035" lat="47.4983377" lon="19.0404712">
    <tag k="capital" v="yes"/>
    <tag k="is_in" v="Közép-Magyarország; Magyarország"/>
    <tag k="is_in:continent" v="Europe"/>
    <tag k="name" v="Budapest"/>
    <tag k="name:el" v="Βουδαπέστη"/>
    <tag k="name:fa" v="بوداپست"/>
    <tag k="name:he" v="בודפשט"/>
    <tag k="name:hr" v="Budimpešta"/>
    <tag k="name:is" v="Búdapest"/>
    <tag k="name:nl" v="Boedapest"/>
    <tag k="name:pl" v="Budapeszt"/>
    <tag k="name:ru" v="Будапешт"/>
    <tag k="name:sk" v="Budapešť"/>
    <tag k="name:sl" v="Budimpešta"/>
    <tag k="place" v="city"/>
    <tag k="population" v="1702297"/>
    <tag k="wikipedia" v="Budapest"/>
    <tag k="wikipedia:fr" v="Budapest"/>
  </node>
  <node id="85788293" version="24" timestamp="2010-03-08T12:56:55Z" uid="221997" user="EuskalMapa" changeset="4071544" lat="47.4983377" lon="19.0404712">
    <tag k="capital" v="yes"/>
    <tag k="is_in" v="Közép-Magyarország; Magyarország"/>
    <tag k="is_in:continent" v="Europe"/>
    <tag k="name" v="Budapest"/>
    <tag k="name:el" v="Βουδαπέστη"/>
    <tag k="name:eu" v="Budapest"/>
    <tag k="name:fa" v="بوداپست"/>
    <tag k="name:he" v="בודפשט"/>
    <tag k="name:hr" v="Budimpešta"/>
    <tag k="name:is" v="Búdapest"/>
    <tag k="name:nl" v="Boedapest"/>
    <tag k="name:pl" v="Budapeszt"/>
    <tag k="name:ru" v="Будапешт"/>
    <tag k="name:sk" v="Budapešť"/>
    <tag k="name:sl" v="Budimpešta"/>
    <tag k="place" v="city"/>
    <tag k="population" v="1702297"/>
    <tag k="wikipedia" v="Budapest"/>
    <tag k="wikipedia:fr" v="Budapest"/>
  </node>
  <node id="85788293" version="25" timestamp="2010-04-20T19:44:39Z" uid="11629" user="Stanislav Brabec" changeset="4480948" lat="47.4983377" lon="19.0404712">
    <tag k="capital" v="yes"/>
    <tag k="is_in" v="Közép-Magyarország; Magyarország"/>
    <tag k="is_in:continent" v="Europe"/>
    <tag k="name" v="Budapest"/>
    <tag k="name:cs" v="Budapešť"/>
    <tag k="name:el" v="Βουδαπέστη"/>
    <tag k="name:eu" v="Budapest"/>
    <tag k="name:fa" v="بوداپست"/>
    <tag k="name:he" v="בודפשט"/>
    <tag k="name:hr" v="Budimpešta"/>
    <tag k="name:is" v="Búdapest"/>
    <tag k="name:nl" v="Boedapest"/>
    <tag k="name:pl" v="Budapeszt"/>
    <tag k="name:ru" v="Будапешт"/>
    <tag k="name:sk" v="Budapešť"/>
    <tag k="name:sl" v="Budimpešta"/>
    <tag k="place" v="city"/>
    <tag k="population" v="1702297"/>
    <tag k="wikipedia" v="Budapest"/>
    <tag k="wikipedia:fr" v="Budapest"/>
  </node>
  <node id="85788293" version="26" timestamp="2010-11-07T20:46:30Z" uid="76269" user="Snusmumriken" changeset="6315886" lat="47.4983377" lon="19.0404712">
    <tag k="capital" v="yes"/>
    <tag k="is_in" v="Közép-Magyarország; Magyarország"/>
    <tag k="is_in:continent" v="Europe"/>
    <tag k="name" v="Budapest"/>
    <tag k="name:cs" v="Budapešť"/>
    <tag k="name:el" v="Βουδαπέστη"/>
    <tag k="name:eu" v="Budapest"/>
    <tag k="name:fa" v="بوداپست"/>
    <tag k="name:he" v="בודפשט"/>
    <tag k="name:hr" v="Budimpešta"/>
    <tag k="name:is" v="Búdapest"/>
    <tag k="name:nl" v="Boedapest"/>
    <tag k="name:pl" v="Budapeszt"/>
    <tag k="name:ru" v="Будапешт"/>
    <tag k="name:sk" v="Budapešť"/>
    <tag k="name:sl" v="Budimpešta"/>
    <tag k="name:sv" v="Budapest"/>
    <tag k="place" v="city"/>
    <tag k="population" v="1702297"/>
    <tag k="wikipedia" v="Budapest"/>
    <tag k="wikipedia:fr" v="Budapest"/>
  </node>
  <node id="85788293" version="27" timestamp="2011-04-06T15:28:57Z" uid="7045" user="Xuacu" changeset="7786055" lat="47.4983377" lon="19.0404712">
    <tag k="capital" v="yes"/>
    <tag k="is_in" v="Közép-Magyarország; Magyarország"/>
    <tag k="is_in:continent" v="Europe"/>
    <tag k="name" v="Budapest"/>
    <tag k="name:ast" v="Budapest"/>
    <tag k="name:cs" v="Budapešť"/>
    <tag k="name:el" v="Βουδαπέστη"/>
    <tag k="name:es" v="Budapest"/>
    <tag k="name:eu" v="Budapest"/>
    <tag k="name:fa" v="بوداپست"/>
    <tag k="name:he" v="בודפשט"/>
    <tag k="name:hr" v="Budimpešta"/>
    <tag k="name:is" v="Búdapest"/>
    <tag k="name:nl" v="Boedapest"/>
    <tag k="name:pl" v="Budapeszt"/>
    <tag k="name:ru" v="Будапешт"/>
    <tag k="name:sk" v="Budapešť"/>
    <tag k="name:sl" v="Budimpešta"/>
    <tag k="name:sv" v="Budapest"/>
    <tag k="place" v="city"/>
    <tag k="population" v="1702297"/>
    <tag k="wikipedia" v="Budapest"/>
    <tag k="wikipedia:fr" v="Budapest"/>
  </node>
  <node id="85788293" version="28" timestamp="2011-05-12T05:27:46Z" uid="212207" user="SunCobalt" changeset="8118463" lat="47.4983377" lon="19.0404712">
    <tag k="capital" v="yes"/>
    <tag k="is_in" v="Közép-Magyarország; Magyarország"/>
    <tag k="is_in:continent" v="Europe"/>
    <tag k="name" v="Budapest"/>
    <tag k="name:ast" v="Budapest"/>
    <tag k="name:cs" v="Budapešť"/>
    <tag k="name:el" v="Βουδαπέστη"/>
    <tag k="name:es" v="Budapest"/>
    <tag k="name:eu" v="Budapest"/>
    <tag k="name:fa" v="بوداپست"/>
    <tag k="name:he" v="בודפשט"/>
    <tag k="name:hr" v="Budimpešta"/>
    <tag k="name:is" v="Búdapest"/>
    <tag k="name:nl" v="Boedapest"/>
    <tag k="name:pl" v="Budapeszt"/>
    <tag k="name:ru" v="Будапешт"/>
    <tag k="name:sk" v="Budapešť"/>
    <tag k="name:sl" v="Budimpešta"/>
    <tag k="name:sr" v="Будимпешта"/>
    <tag k="name:sv" v="Budapest"/>
    <tag k="place" v="city"/>
    <tag k="population" v="1702297"/>
    <tag k="wikipedia" v="Budapest"/>
    <tag k="wikipedia:fr" v="Budapest"/>
  </node>
  <node id="85788293" version="29" timestamp="2011-08-03T15:24:38Z" uid="39966" user="free_as_a_bird" changeset="8911062" lat="47.4983377" lon="19.0404712">
    <tag k="capital" v="yes"/>
    <tag k="is_in" v="Közép-Magyarország; Magyarország"/>
    <tag k="is_in:continent" v="Europe"/>
    <tag k="name" v="Budapest"/>
    <tag k="name:ast" v="Budapest"/>
    <tag k="name:cs" v="Budapešť"/>
    <tag k="name:el" v="Βουδαπέστη"/>
    <tag k="name:es" v="Budapest"/>
    <tag k="name:eu" v="Budapest"/>
    <tag k="name:fa" v="بوداپست"/>
    <tag k="name:he" v="בודפשט"/>
    <tag k="name:hr" v="Budimpešta"/>
    <tag k="name:is" v="Búdapest"/>
    <tag k="name:nl" v="Boedapest"/>
    <tag k="name:pl" v="Budapeszt"/>
    <tag k="name:ru" v="Будапешт"/>
    <tag k="name:sk" v="Budapešť"/>
    <tag k="name:sl" v="Budimpešta"/>
    <tag k="name:sr" v="Будимпешта"/>
    <tag k="name:sv" v="Budapest"/>
    <tag k="name:zh" v="布达佩斯"/>
    <tag k="place" v="city"/>
    <tag k="population" v="1702297"/>
    <tag k="wikipedia" v="Budapest"/>
    <tag k="wikipedia:fr" v="Budapest"/>
  </node>
  <node id="85788293" version="30" timestamp="2011-12-11T22:27:14Z" uid="408450" user="BáthoryPéter" changeset="10094610" lat="47.4983815" lon="19.0404707">
    <tag k="capital" v="yes"/>
    <tag k="is_in" v="Közép-Magyarország; Magyarország"/>
    <tag k="is_in:continent" v="Europe"/>
    <tag k="name" v="Budapest"/>
    <tag k="name:ast" v="Budapest"/>
    <tag k="name:cs" v="Budapešť"/>
    <tag k="name:el" v="Βουδαπέστη"/>
    <tag k="name:es" v="Budapest"/>
    <tag k="name:eu" v="Budapest"/>
    <tag k="name:fa" v="بوداپست"/>
    <tag k="name:he" v="בודפשט"/>
    <tag k="name:hr" v="Budimpešta"/>
    <tag k="name:is" v="Búdapest"/>
    <tag k="name:nl" v="Boedapest"/>
    <tag k="name:pl" v="Budapeszt"/>
    <tag k="name:ru" v="Будапешт"/>
    <tag k="name:sk" v="Budapešť"/>
    <tag k="name:sl" v="Budimpešta"/>
    <tag k="name:sr" v="Будимпешта"/>
    <tag k="name:sv" v="Budapest"/>
    <tag k="name:zh" v="布达佩斯"/>
    <tag k="place" v="city"/>
    <tag k="population" v="1702297"/>
    <tag k="wikipedia" v="Budapest"/>
    <tag k="wikipedia:fr" v="Budapest"/>
  </node>
  <node id="85788293" version="31" timestamp="2011-12-31T13:47:28Z" uid="91056" user="Yarl" changeset="10254855" lat="47.4983815" lon="19.0404707">
    <tag k="capital" v="yes"/>
    <tag k="is_in" v="Közép-Magyarország; Magyarország"/>
    <tag k="is_in:continent" v="Europe"/>
    <tag k="name" v="Budapest"/>
    <tag k="name:ast" v="Budapest"/>
    <tag k="name:cs" v="Budapešť"/>
    <tag k="name:el" v="Βουδαπέστη"/>
    <tag k="name:es" v="Budapest"/>
    <tag k="name:eu" v="Budapest"/>
    <tag k="name:fa" v="بوداپست"/>
    <tag k="name:he" v="בודפשט"/>
    <tag k="name:hr" v="Budimpešta"/>
    <tag k="name:is" v="Búdapest"/>
    <tag k="name:nl" v="Boedapest"/>
    <tag k="name:pl" v="Budapeszt"/>
    <tag k="name:ru" v="Будапешт"/>
    <tag k="name:sk" v="Budapešť"/>
    <tag k="name:sl" v="Budimpešta"/>
    <tag k="name:sr" v="Будимпешта"/>
    <tag k="name:sv" v="Budapest"/>
    <tag k="name:zh" v="布达佩斯"/>
    <tag k="place" v="city"/>
    <tag k="population" v="1702297"/>
    <tag k="wikipedia" v="Budapest"/>
  </node>
  <node id="85788293" version="32" timestamp="2012-03-30T22:25:55Z" uid="560896" user="Ghybu" changeset="11160795" lat="47.4983815" lon="19.0404707">
    <tag k="capital" v="yes"/>
    <tag k="is_in" v="Közép-Magyarország; Magyarország"/>
    <tag k="is_in:continent" v="Europe"/>
    <tag k="name" v="Budapest"/>
    <tag k="name:ast" v="Budapest"/>
    <tag k="name:cs" v="Budapešť"/>
    <tag k="name:el" v="Βουδαπέστη"/>
    <tag k="name:es" v="Budapest"/>
    <tag k="name:eu" v="Budapest"/>
    <tag k="name:fa" v="بوداپست"/>
    <tag k="name:he" v="בודפשט"/>
    <tag k="name:hr" v="Budimpešta"/>
    <tag k="name:is" v="Búdapest"/>
    <tag k="name:ku" v="Budapeşt"/>
    <tag k="name:nl" v="Boedapest"/>
    <tag k="name:pl" v="Budapeszt"/>
    <tag k="name:ru" v="Будапешт"/>
    <tag k="name:sk" v="Budapešť"/>
    <tag k="name:sl" v="Budimpešta"/>
    <tag k="name:sr" v="Будимпешта"/>
    <tag k="name:sv" v="Budapest"/>
    <tag k="name:zh" v="布达佩斯"/>
    <tag k="place" v="city"/>
    <tag k="population" v="1702297"/>
    <tag k="wikipedia" v="Budapest"/>
  </node>
  <node id="85781840" version="7" timestamp="2012-07-17T03:38:01Z" uid="722137" user="OSMF Redaction Account" changeset="12256254" lat="51.9582584" lon="13.7449848"/>
  <node id="85781841" version="4" timestamp="2012-07-17T02:37:48Z" uid="722137" user="OSMF Redaction Account" changeset="12255521" lat="51.9553554" lon="13.7579143"/>
  <node id="85781842" version="6" timestamp="2012-07-22T15:31:38Z" uid="95702" user="Balgofil" changeset="12434713" lat="51.954549" lon="13.7631109"/>
  <node id="85782478" version="16" timestamp="2012-07-20T18:53:21Z" uid="722137" user="OSMF Redaction Account" changeset="12387681" lat="13.763114" lon="100.5331145"/>
  <node id="85782478" version="17" timestamp="2012-07-22T07:00:56Z" uid="100662" user="Paul_012" changeset="12426820" lat="13.763114" lon="100.5331145"/>
  <node id="85782753" version="2" timestamp="2012-07-17T03:38:01Z" uid="722137" user="OSMF Redaction Account" changeset="12256254" lat="51.9608033" lon="13.7454689"/>
  <node id="85782755" version="3" timestamp="2012-06-03T14:16:11Z" uid="111462" user="Posemuckel" changeset="11787100" lat="51.9626866" lon="13.7442319"/>
  <node id="85782756" version="2" timestamp="2012-06-03T14:16:11Z" uid="111462" user="Posemuckel" changeset="11787100" lat="51.963651" lon="13.7436226"/>
  <node id="85782758" version="2" timestamp="2012-07-17T03:38:02Z" uid="722137" user="OSMF Redaction Account" changeset="12256254" lat="51.9648279" lon="13.7443101"/>
  <node id="85782763" version="3" timestamp="2012-05-06T05:57:17Z" uid="102899" user="stw1701" changeset="11514527" lat="51.9663742" lon="13.7504035">
    <tag k="name" v="Freiwalde"/>
    <tag k="traffic_sign" v="city_limit"/>
  </node>
  <node id="85782764" version="2" timestamp="2012-07-17T02:37:51Z" uid="722137" user="OSMF Redaction Account" changeset="12255521" lat="51.9673769" lon="13.7517345"/>
  <node id="85782765" version="2" timestamp="2012-07-17T02:37:52Z" uid="722137" user="OSMF Redaction Account" changeset="12255521" lat="51.9689263" lon="13.7546098"/>
  <node id="85782767" version="2" timestamp="2012-05-06T05:57:18Z" uid="102899" user="stw1701" changeset="11514527" lat="51.971657" lon="13.7586736"/>
  <node id="85782768" version="2" timestamp="2012-07-17T02:37:55Z" uid="722137" user="OSMF Redaction Account" changeset="12255521" lat="51.9740923" lon="13.763665"/>
  <node id="85782769" version="2" timestamp="2012-07-17T02:37:55Z" uid="722137" user="OSMF Redaction Account" changeset="12255521" lat="51.9747373" lon="13.7640941"/>
  <node id="85788141" version="2" timestamp="2012-04-26T06:04:03Z" uid="71557" user="Taroc" changeset="11420923" lat="51.6532474" lon="13.8965223"/>
  <node id="85788142" version="3" timestamp="2012-04-26T06:04:03Z" uid="71557" user="Taroc" changeset="11420923" lat="51.6513472" lon="13.8937745"/>
  <node id="85788144" version="3" timestamp="2012-04-26T06:04:03Z" uid="71557" user="Taroc" changeset="11420923" lat="51.6504071" lon="13.8867102"/>
  <node id="85788145" version="3" timestamp="2012-04-26T06:04:00Z" uid="71557" user="Taroc" changeset="11420923" lat="51.6503259" lon="13.8825227"/>
  <node id="85788151" version="4" timestamp="2012-04-27T21:17:50Z" uid="71557" user="Taroc" changeset="11436449" lat="51.6414638" lon="13.8617271"/>
  <node id="85788293" version="33" timestamp="2012-05-18T16:27:09Z" uid="47892" user="richlv" changeset="11634712" lat="47.4983815" lon="19.0404707">
    <tag k="capital" v="yes"/>
    <tag k="is_in" v="Közép-Magyarország; Magyarország"/>
    <tag k="is_in:continent" v="Europe"/>
    <tag k="name" v="Budapest"/>
    <tag k="name:ast" v="Budapest"/>
    <tag k="name:cs" v="Budapešť"/>
    <tag k="name:el" v="Βουδαπέστη"/>
    <tag k="name:es" v="Budapest"/>
    <tag k="name:eu" v="Budapest"/>
    <tag k="name:fa" v="بوداپست"/>
    <tag k="name:he" v="בודפשט"/>
    <tag k="name:hr" v="Budimpešta"/>
    <tag k="name:is" v="Búdapest"/>
    <tag k="name:ku" v="Budapeşt"/>
    <tag k="name:lv" v="Budapešta"/>
    <tag k="name:nl" v="Boedapest"/>
    <tag k="name:pl" v="Budapeszt"/>
    <tag k="name:ru" v="Будапешт"/>
    <tag k="name:sk" v="Budapešť"/>
    <tag k="name:sl" v="Budimpešta"/>
    <tag k="name:sr" v="Будимпешта"/>
    <tag k="name:sv" v="Budapest"/>
    <tag k="name:zh" v="布达佩斯"/>
    <tag k="place" v="city"/>
    <tag k="population" v="1702297"/>
    <tag k="wikipedia" v="Budapest"/>
  </node>
  <node id="85788293" version="34" timestamp="2012-06-06T21:27:05Z" uid="602999" user="rtafav2" changeset="11819941" lat="47.4983815" lon="19.0404707">
    <tag k="capital" v="yes"/>
    <tag k="is_in" v="Közép-Magyarország; Magyarország"/>
    <tag k="is_in:continent" v="Europe"/>
    <tag k="name" v="Budapest"/>
    <tag k="name:ast" v="Budapest"/>
    <tag k="name:cs" v="Budapešť"/>
    <tag k="name:el" v="Βουδαπέστη"/>
    <tag k="name:es" v="Budapest"/>
    <tag k="name:eu" v="Budapest"/>
    <tag k="name:fa" v="بوداپست"/>
    <tag k="name:he" v="בודפשט"/>
    <tag k="name:hr" v="Budimpešta"/>
    <tag k="name:is" v="Búdapest"/>
    <tag k="name:ku" v="Budapeşt"/>
    <tag k="name:lv" v="Budapešta"/>
    <tag k="name:nl" v="Boedapest"/>
    <tag k="name:pl" v="Budapeszt"/>
    <tag k="name:pt" v="Budapeste"/>
    <tag k="name:ru" v="Будапешт"/>
    <tag k="name:sk" v="Budapešť"/>
    <tag k="name:sl" v="Budimpešta"/>
    <tag k="name:sr" v="Будимпешта"/>
    <tag k="name:sv" v="Budapest"/>
    <tag k="name:zh" v="布达佩斯"/>
    <tag k="place" v="city"/>
    <tag k="population" v="1702297"/>
    <tag k="wikipedia" v="Budapest"/>
  </node>
  <node id="85788293" version="35" timestamp="2012-06-23T01:57:18Z" uid="247879" user="victorenator" changeset="11984817" lat="47.4983815" lon="19.0404707">
    <tag k="capital" v="yes"/>
    <tag k="is_in" v="Közép-Magyarország; Magyarország"/>
    <tag k="is_in:continent" v="Europe"/>
    <tag k="name" v="Budapest"/>
    <tag k="name:ast" v="Budapest"/>
    <tag k="name:be" v="Будапешт"/>
    <tag k="name:cs" v="Budapešť"/>
    <tag k="name:el" v="Βουδαπέστη"/>
    <tag k="name:es" v="Budapest"/>
    <tag k="name:eu" v="Budapest"/>
    <tag k="name:fa" v="بوداپست"/>
    <tag k="name:he" v="בודפשט"/>
    <tag k="name:hr" v="Budimpešta"/>
    <tag k="name:is" v="Búdapest"/>
    <tag k="name:ku" v="Budapeşt"/>
    <tag k="name:lv" v="Budapešta"/>
    <tag k="name:nl" v="Boedapest"/>
    <tag k="name:pl" v="Budapeszt"/>
    <tag k="name:pt" v="Budapeste"/>
    <tag k="name:ru" v="Будапешт"/>
    <tag k="name:sk" v="Budapešť"/>
    <tag k="name:sl" v="Budimpešta"/>
    <tag k="name:sr" v="Будимпешта"/>
    <tag k="name:sv" v="Budapest"/>
    <tag k="name:zh" v="布达佩斯"/>
    <tag k="place" v="city"/>
    <tag k="population" v="1702297"/>
    <tag k="wikipedia" v="Budapest"/>
  </node>
  <node id="85788293" version="36" timestamp="2012-07-20T03:13:48Z" uid="722137" user="OSMF Redaction Account" changeset="12359132" lat="47.4983815" lon="19.0404707">
    <tag k="capital" v="yes"/>
    <tag k="is_in" v="Közép-Magyarország; Magyarország"/>
    <tag k="is_in:continent" v="Europe"/>
    <tag k="name" v="Budapest"/>
    <tag k="name:ast" v="Budapest"/>
    <tag k="name:be" v="Будапешт"/>
    <tag k="name:cs" v="Budapešť"/>
    <tag k="name:el" v="Βουδαπέστη"/>
    <tag k="name:es" v="Budapest"/>
    <tag k="name:fa" v="بوداپست"/>
    <tag k="name:he" v="בודפשט"/>
    <tag k="name:hr" v="Budimpešta"/>
    <tag k="name:is" v="Búdapest"/>
    <tag k="name:ku" v="Budapeşt"/>
    <tag k="name:lv" v="Budapešta"/>
    <tag k="name:nl" v="Boedapest"/>
    <tag k="name:pl" v="Budapeszt"/>
    <tag k="name:pt" v="Budapeste"/>
    <tag k="name:ru" v="Будапешт"/>
    <tag k="name:sk" v="Budapešť"/>
    <tag k="name:sl" v="Budimpešta"/>
    <tag k="name:sr" v="Будимпешта"/>
    <tag k="name:sv" v="Budapest"/>
    <tag k="name:zh" v="布达佩斯"/>
    <tag k="place" v="city"/>
    <tag k="population" v="1702297"/>
    <tag k="wikipedia" v="Budapest"/>
  </node>
  <node id="85788293" version="37" timestamp="2012-08-02T12:47:46Z" uid="393321" user="jpuhr" changeset="12585587" lat="47.4983815" lon="19.0404707">
    <tag k="capital" v="yes"/>
    <tag k="is_in" v="Közép-Magyarország; Magyarország"/>
    <tag k="is_in:continent" v="Europe"/>
    <tag k="is_in:country" v="Hungary"/>
    <tag k="name" v="Budapest"/>
    <tag k="name:ast" v="Budapest"/>
    <tag k="name:be" v="Будапешт"/>
    <tag k="name:cs" v="Budapešť"/>
    <tag k="name:de" v="Budapest"/>
    <tag k="name:el" v="Βουδαπέστη"/>
    <tag k="name:en" v="Budapest"/>
    <tag k="name:es" v="Budapest"/>
    <tag k="name:fa" v="بوداپست"/>
    <tag k="name:he" v="בודפשט"/>
    <tag k="name:hr" v="Budimpešta"/>
    <tag k="name:is" v="Búdapest"/>
    <tag k="name:ku" v="Budapeşt"/>
    <tag k="name:lv" v="Budapešta"/>
    <tag k="name:nl" v="Boedapest"/>
    <tag k="name:pl" v="Budapeszt"/>
    <tag k="name:pt" v="Budapeste"/>
    <tag k="name:ru" v="Будапешт"/>
    <tag k="name:sk" v="Budapešť"/>
    <tag k="name:sl" v="Budimpešta"/>
    <tag k="name:sr" v="Будимпешта"/>
    <tag k="name:sv" v="Budapest"/>
    <tag k="name:zh" v="布达佩斯"/>
    <tag k="place" v="city"/>
    <tag k="population" v="1702297"/>
    <tag k="wikipedia" v="Budapest"/>
  </node>
  <node id="85788293" version="38" timestamp="2012-08-04T13:06:04Z" uid="16478" user="Raymond" changeset="12609229" lat="47.4983815" lon="19.0404707">
    <tag k="capital" v="yes"/>
    <tag k="is_in" v="Közép-Magyarország; Magyarország"/>
    <tag k="is_in:continent" v="Europe"/>
    <tag k="is_in:country" v="Hungary"/>
    <tag k="name" v="Budapest"/>
    <tag k="name:ast" v="Budapest"/>
    <tag k="name:be" v="Будапешт"/>
    <tag k="name:cs" v="Budapešť"/>
    <tag k="name:de" v="Budapest"/>
    <tag k="name:el" v="Βουδαπέστη"/>
    <tag k="name:en" v="Budapest"/>
    <tag k="name:es" v="Budapest"/>
    <tag k="name:fa" v="بوداپست"/>
    <tag k="name:he" v="בודפשט"/>
    <tag k="name:hr" v="Budimpešta"/>
    <tag k="name:is" v="Búdapest"/>
    <tag k="name:ku" v="Budapeşt"/>
    <tag k="name:lv" v="Budapešta"/>
    <tag k="name:nl" v="Boedapest"/>
    <tag k="name:pl" v="Budapeszt"/>
    <tag k="name:pt" v="Budapeste"/>
    <tag k="name:ru" v="Будапешт"/>
    <tag k="name:sk" v="Budapešť"/>
    <tag k="name:sl" v="Budimpešta"/>
    <tag k="name:sr" v="Будимпешта"/>
    <tag k="name:sv" v="Budapest"/>
    <tag k="name:zh" v="布达佩斯"/>
    <tag k="place" v="city"/>
    <tag k="population" v="1702297"/>
    <tag k="wikipedia" v="hu:Budapest"/>
  </node>
  <node id="85788293" version="39" timestamp="2012-08-30T12:18:09Z" uid="166969" user="occcy" changeset="12917265" lat="47.4983815" lon="19.0404707">
    <tag k="admin_level" v="2"/>
    <tag k="capital" v="yes"/>
    <tag k="is_in" v="Közép-Magyarország; Magyarország"/>
    <tag k="is_in:continent" v="Europe"/>
    <tag k="is_in:country" v="Hungary"/>
    <tag k="name" v="Budapest"/>
    <tag k="name:ast" v="Budapest"/>
    <tag k="name:be" v="Будапешт"/>
    <tag k="name:cs" v="Budapešť"/>
    <tag k="name:de" v="Budapest"/>
    <tag k="name:el" v="Βουδαπέστη"/>
    <tag k="name:en" v="Budapest"/>
    <tag k="name:es" v="Budapest"/>
    <tag k="name:fa" v="بوداپست"/>
    <tag k="name:he" v="בודפשט"/>
    <tag k="name:hr" v="Budimpešta"/>
    <tag k="name:is" v="Búdapest"/>
    <tag k="name:ku" v="Budapeşt"/>
    <tag k="name:lv" v="Budapešta"/>
    <tag k="name:nl" v="Boedapest"/>
    <tag k="name:pl" v="Budapeszt"/>
    <tag k="name:pt" v="Budapeste"/>
    <tag k="name:ru" v="Будапешт"/>
    <tag k="name:sk" v="Budapešť"/>
    <tag k="name:sl" v="Budimpešta"/>
    <tag k="name:sr" v="Будимпешта"/>
    <tag k="name:sv" v="Budapest"/>
    <tag k="name:zh" v="布达佩斯"/>
    <tag k="place" v="city"/>
    <tag k="population" v="1702297"/>
    <tag k="wikipedia" v="hu:Budapest"/>
  </node>
</osm>
