<?xml version='1.0' encoding='UTF-8'?>
<osm version="0.6" generator="libosmium/2.20.0">
  <node id="858733246" version="1" timestamp="2010-08-13T15:51:51Z" uid="115477" user="wowik" changeset="5482166" lat="54.9434739" lon="20.1032389">
    <tag k="name" v="СОЛ КГТУ Отрадное"/>
    <tag k="tourism" v="hotel"/>
  </node>
  <node id="858733253" version="1" timestamp="2010-08-13T15:51:51Z" uid="115477" user="wowik" changeset="5482166" lat="54.9389627" lon="20.1109422">
    <tag k="name" v="пансионат Мечта"/>
    <tag k="tourism" v="hotel"/>
  </node>
  <node id="858733253" version="2" timestamp="2010-08-13T17:16:49Z" uid="115477" user="wowik" changeset="5482166" lat="54.9384389" lon="20.1112748">
    <tag k="name" v="пансионат Мечта"/>
    <tag k="tourism" v="hotel"/>
  </node>
  <node id="858733253" version="3" timestamp="2010-08-13T17:27:50Z" uid="115477" user="wowik" changeset="5482166" lat="54.9384389" lon="20.1112748">
    <tag k="name" v="социально-оздоровительный центр Мечта"/>
    <tag k="tourism" v="hotel"/>
  </node>
  <node id="858733253" version="4" timestamp="2010-08-13T17:29:30Z" uid="115477" user="wowik" changeset="5482166" lat="54.9384389" lon="20.1112748">
    <tag k="name" v=" социально-оздоровительный центр Мечта"/>
    <tag k="tourism" v="hotel"/>
  </node>
  <node id="858733253" version="5" timestamp="2010-08-13T20:25:16Z" uid="70696" user="xybot" changeset="5485323" lat="54.9384389" lon="20.1112748">
    <tag k="name" v="социально-оздоровительный центр Мечта"/>
    <tag k="tourism" v="hotel"/>
  </node>
  <node id="858733253" version="6" timestamp="2010-09-16T11:58:04Z" uid="115477" user="wowik" changeset="5794859" lat="54.9384389" lon="20.1112748">
    <tag k="amenity" v="retirement_home"/>
    <tag k="name" v="Cоциально-оздоровительный центр Мечта"/>
    <tag k="tourism" v="hotel"/>
  </node>
  <node id="858733253" version="7" timestamp="2010-09-20T21:20:14Z" uid="65148" user="Pirat Michi" changeset="5833083" lat="54.9384389" lon="20.1112748">
    <tag k="amenity" v="nursing_home"/>
    <tag k="name" v="Cоциально-оздоровительный центр Мечта"/>
    <tag k="tourism" v="hotel"/>
  </node>
  <node id="858733253" version="8" timestamp="2010-09-23T12:59:08Z" uid="65148" user="Pirat Michi" changeset="5853860" lat="54.9384389" lon="20.1112748">
    <tag k="amenity" v="retirement_home"/>
    <tag k="name" v="Cоциально-оздоровительный центр Мечта"/>
    <tag k="tourism" v="hotel"/>
  </node>
  <node id="858733253" version="9" timestamp="2011-04-29T16:28:10Z" uid="115477" user="wowik" changeset="8004697" lat="54.9383453" lon="20.1116528">
    <tag k="amenity" v="retirement_home"/>
    <tag k="name" v="Cоциально-оздоровительный центр Мечта"/>
    <tag k="tourism" v="hotel"/>
  </node>
  <node id="858733246" version="2" timestamp="2012-07-24T20:01:26Z" uid="722137" user="OSMF Redaction Account" changeset="12475270" lat="54.9434739" lon="20.1032389"/>
  <node id="858733253" version="10" timestamp="2012-07-24T20:01:11Z" uid="722137" user="OSMF Redaction Account" changeset="12475254" lat="54.9383453" lon="20.1116528"/>
</osm>
