<?xml version='1.0' encoding='UTF-8'?>
<osm version="0.6" generator="libosmium/2.20.0">
  <node id="86451806" version="7" timestamp="2008-02-16T19:24:52Z" uid="6975" user="ulfl" changeset="141861" lat="54.5995374" lon="-5.930961">
    <tag k="name" v="Tesco Metro"/>
    <tag k="shop" v="supermarket"/>
  </node>
  <node id="86451806" version="8" timestamp="2008-10-13T23:29:20Z" uid="73062" user="richieE" changeset="341985" lat="54.5995404" lon="-5.9309645">
    <tag k="created_by" v="Potlatch 0.10e"/>
    <tag k="formerly" v="Provincial Bank"/>
    <tag k="name" v="Tesco Metro"/>
    <tag k="shop" v="supermarket"/>
  </node>
  <node id="86451806" version="9" timestamp="2009-08-16T16:31:40Z" uid="80126" user="sherbourne" changeset="2167645" lat="54.5995891" lon="-5.9306307">
    <tag k="formerly" v="Provincial Bank"/>
    <tag k="name" v="Tesco Metro"/>
    <tag k="shop" v="supermarket"/>
  </node>
  <node id="86451806" version="10" timestamp="2011-01-29T12:15:09Z" uid="393369" user="Rondon237" changeset="7121191" lat="54.599554" lon="-5.9309113">
    <tag k="formerly" v="Provincial Bank"/>
    <tag k="name" v="Tesco Metro"/>
    <tag k="shop" v="supermarket"/>
  </node>
  <node id="86451806" version="11" timestamp="2011-09-24T21:06:50Z" uid="6367" user="mackerski" changeset="9388041" lat="54.599554" lon="-5.9309113"/>
</osm>
