<?xml version='1.0' encoding='UTF-8'?>
<osm version="0.6" generator="libosmium/2.20.0">
  <node id="87018546" version="8" timestamp="2010-01-15T00:49:44Z" uid="216873" user="Goonie" changeset="3621449" lat="52.5236209" lon="13.438346"/>
  <node id="87018547" version="7" timestamp="2010-01-15T00:49:44Z" uid="216873" user="Goonie" changeset="3621449" lat="52.523275" lon="13.4357496"/>
  <node id="87018549" version="6" timestamp="2010-01-15T00:49:45Z" uid="216873" user="Goonie" changeset="3621449" lat="52.5232293" lon="13.4330459">
    <tag k="name" v="Platz der Vereinten Nationen"/>
    <tag k="railway" v="tram_stop"/>
    <tag k="shelter" v="yes"/>
    <tag k="tactile_paving" v="yes"/>
    <tag k="wheelchair" v="yes"/>
  </node>
  <node id="87018549" version="7" timestamp="2010-02-01T21:53:40Z" uid="227549" user="hotdog" changeset="3771912" lat="52.5232293" lon="13.4330459">
    <tag k="name" v="Platz der Vereinten Nationen"/>
    <tag k="railway" v="station"/>
    <tag k="shelter" v="yes"/>
    <tag k="tactile_paving" v="yes"/>
    <tag k="wheelchair" v="yes"/>
  </node>
  <node id="87018549" version="8" timestamp="2010-07-04T07:53:19Z" uid="115651" user="Konrad Aust" changeset="5130365" lat="52.5232293" lon="13.4330459">
    <tag k="name" v="Platz der Vereinten Nationen"/>
    <tag k="railway" v="tram_stop"/>
    <tag k="shelter" v="yes"/>
    <tag k="tactile_paving" v="yes"/>
    <tag k="wheelchair" v="yes"/>
  </node>
  <node id="87018549" version="9" timestamp="2010-11-23T21:08:22Z" uid="13203" user="bahnpirat" changeset="6442602" lat="52.5232333" lon="13.4334518">
    <tag k="name" v="Platz der Vereinten Nationen"/>
    <tag k="railway" v="tram_stop"/>
    <tag k="shelter" v="yes"/>
    <tag k="tactile_paving" v="yes"/>
    <tag k="wheelchair" v="yes"/>
  </node>
  <node id="87018550" version="6" timestamp="2010-01-15T00:49:45Z" uid="216873" user="Goonie" changeset="3621449" lat="52.5230924" lon="13.4272457">
    <tag k="name" v="Büschingstraße"/>
    <tag k="railway" v="tram_stop"/>
    <tag k="shelter" v="yes"/>
    <tag k="tactile_paving" v="yes"/>
    <tag k="wheelchair" v="yes"/>
  </node>
  <node id="87018550" version="7" timestamp="2010-11-23T21:08:23Z" uid="13203" user="bahnpirat" changeset="6442602" lat="52.5230924" lon="13.4272457">
    <tag k="name" v="Büschingstraße"/>
    <tag k="railway" v="tram_stop"/>
    <tag k="shelter" v="yes"/>
    <tag k="speisebezirk" v="querverbinder"/>
    <tag k="tactile_paving" v="yes"/>
    <tag k="wheelchair" v="yes"/>
  </node>
  <node id="87018552" version="6" timestamp="2010-01-15T00:49:45Z" uid="216873" user="Goonie" changeset="3621449" lat="52.5230924" lon="13.4265419"/>
  <node id="87018552" version="7" timestamp="2010-11-23T21:08:19Z" uid="13203" user="bahnpirat" changeset="6442602" lat="52.5230831" lon="13.4267677">
    <tag k="fixme" v="ref"/>
    <tag k="speisebezirk" v="speisung"/>
  </node>
  <node id="87018552" version="8" timestamp="2010-12-30T01:03:12Z" uid="13203" user="bahnpirat" changeset="6805221" lat="52.5230831" lon="13.4267677">
    <tag k="ref" v="204 09-2"/>
    <tag k="source" v="survey"/>
    <tag k="speisebezirk" v="speisung"/>
  </node>
  <node id="87018554" version="6" timestamp="2010-01-15T00:49:45Z" uid="216873" user="Goonie" changeset="3621449" lat="52.5232543" lon="13.4254861"/>
  <node id="87018546" version="9" timestamp="2012-06-14T22:31:04Z" uid="209498" user="nurinfo" changeset="11899949" lat="52.5236392" lon="13.4383479"/>
  <node id="87018546" version="10" timestamp="2012-08-04T06:10:14Z" uid="43566" user="anbr" changeset="12605412" lat="52.5236223" lon="13.4383479"/>
  <node id="87018549" version="10" timestamp="2012-08-10T20:07:02Z" uid="209498" user="nurinfo" changeset="12684082" lat="52.52323" lon="13.4334573">
    <tag k="name" v="Platz der Vereinten Nationen"/>
    <tag k="railway" v="tram_stop"/>
    <tag k="shelter" v="yes"/>
    <tag k="tactile_paving" v="yes"/>
    <tag k="wheelchair" v="yes"/>
  </node>
  <node id="87018550" version="8" timestamp="2012-05-25T08:32:04Z" uid="467783" user="philopsil" changeset="11696321" lat="52.523112" lon="13.4272457">
    <tag k="name" v="Büschingstraße"/>
    <tag k="railway" v="tram_stop"/>
    <tag k="shelter" v="yes"/>
    <tag k="speisebezirk" v="querverbinder"/>
    <tag k="tactile_paving" v="yes"/>
    <tag k="wheelchair" v="yes"/>
  </node>
  <node id="87018550" version="9" timestamp="2012-06-14T22:20:39Z" uid="209498" user="nurinfo" changeset="11899949" lat="52.5231217" lon="13.427247">
    <tag k="name" v="Büschingstraße"/>
    <tag k="railway" v="tram_stop"/>
    <tag k="shelter" v="yes"/>
    <tag k="speisebezirk" v="querverbinder"/>
    <tag k="tactile_paving" v="yes"/>
    <tag k="wheelchair" v="yes"/>
  </node>
  <node id="87018550" version="10" timestamp="2012-06-21T15:17:31Z" uid="209498" user="nurinfo" changeset="11969721" lat="52.5231242" lon="13.4274876">
    <tag k="name" v="Büschingstraße"/>
    <tag k="railway" v="tram_stop"/>
    <tag k="shelter" v="yes"/>
    <tag k="speisebezirk" v="querverbinder"/>
    <tag k="tactile_paving" v="yes"/>
    <tag k="wheelchair" v="yes"/>
  </node>
  <node id="87018550" version="11" timestamp="2012-08-10T20:07:02Z" uid="209498" user="nurinfo" changeset="12684082" lat="52.5231174" lon="13.4274974">
    <tag k="name" v="Büschingstraße"/>
    <tag k="railway" v="tram_stop"/>
    <tag k="shelter" v="yes"/>
    <tag k="speisebezirk" v="querverbinder"/>
    <tag k="tactile_paving" v="yes"/>
    <tag k="wheelchair" v="yes"/>
  </node>
  <node id="87018552" version="9" timestamp="2012-05-25T08:32:04Z" uid="467783" user="philopsil" changeset="11696321" lat="52.5231184" lon="13.4267935">
    <tag k="ref" v="204 09-2"/>
    <tag k="source" v="survey"/>
    <tag k="speisebezirk" v="speisung"/>
  </node>
  <node id="87018552" version="10" timestamp="2012-06-14T22:17:08Z" uid="209498" user="nurinfo" changeset="11899949" lat="52.5230998" lon="13.426667">
    <tag k="ref" v="204 09-2"/>
    <tag k="source" v="survey"/>
    <tag k="speisebezirk" v="speisung"/>
  </node>
  <node id="87018552" version="11" timestamp="2012-06-14T22:20:40Z" uid="209498" user="nurinfo" changeset="11899949" lat="52.5231095" lon="13.4266683">
    <tag k="ref" v="204 09-2"/>
    <tag k="source" v="survey"/>
    <tag k="speisebezirk" v="speisung"/>
  </node>
  <node id="87018552" version="12" timestamp="2012-06-21T15:17:31Z" uid="209498" user="nurinfo" changeset="11969721" lat="52.5230997" lon="13.4266595">
    <tag k="railway" v="crossing"/>
    <tag k="ref" v="204 09-2"/>
    <tag k="source" v="survey"/>
    <tag k="speisebezirk" v="speisung"/>
  </node>
  <node id="87018554" version="7" timestamp="2012-06-14T22:17:08Z" uid="209498" user="nurinfo" changeset="11899949" lat="52.5232344" lon="13.425465"/>
  <node id="87018554" version="8" timestamp="2012-06-14T22:20:40Z" uid="209498" user="nurinfo" changeset="11899949" lat="52.5232441" lon="13.4254663"/>
  <node id="87018554" version="9" timestamp="2012-06-21T15:28:53Z" uid="209498" user="nurinfo" changeset="11970000" lat="52.5232409" lon="13.4254588"/>
</osm>
