<?xml version='1.0' encoding='UTF-8'?>
<osm version="0.6" generator="libosmium/2.20.0">
  <node id="87194523" version="1" timestamp="2007-10-25T19:16:55Z" uid="17466" user="chisno" changeset="316480" lat="41.392682" lon="2.1445464">
    <tag k="created_by" v="Potlatch 0.4a"/>
  </node>
  <node id="87194523" version="2" timestamp="2007-10-25T19:17:57Z" uid="17466" user="chisno" changeset="316480" lat="41.392682" lon="2.1445464">
    <tag k="created_by" v="Potlatch 0.4a"/>
    <tag k="name" v="Plaça Francesc Macià"/>
    <tag k="place" v="town"/>
  </node>
  <node id="87194523" version="3" timestamp="2007-10-29T21:54:03Z" uid="13367" user="nubok" changeset="353061" lat="41.3926829" lon="2.1445381">
    <tag k="created_by" v="Potlatch 0.4b"/>
    <tag k="name" v="Plaça Francesc Macià"/>
    <tag k="place" v="town"/>
  </node>
  <node id="87194523" version="4" timestamp="2007-11-21T00:39:31Z" uid="19720" user="trevonio" changeset="589753" lat="41.3926852" lon="2.1445314">
    <tag k="created_by" v="Potlatch 0.5b"/>
    <tag k="name" v="Plaça Francesc Macià"/>
    <tag k="place" v="town"/>
  </node>
  <node id="87194523" version="5" timestamp="2007-12-06T10:07:45Z" uid="20502" user="miuet" changeset="126696" lat="41.3926852" lon="2.1445314">
    <tag k="created_by" v="Potlatch 0.5b"/>
    <tag k="name" v="Plaça Francesc Macià"/>
    <tag k="place" v="town"/>
  </node>
  <node id="87195246" version="8" timestamp="2011-03-18T15:17:50Z" uid="4467" user="Rosscoe" changeset="7596265" lat="-34.9423908" lon="138.5672884"/>
  <node id="87195246" version="9" timestamp="2012-07-19T22:55:06Z" uid="722137" user="OSMF Redaction Account" changeset="12351094" lat="-34.9424046" lon="138.5672188"/>
</osm>
