<?xml version='1.0' encoding='UTF-8'?>
<osm version="0.6" generator="libosmium/2.20.0">
  <node id="87255834" version="2" timestamp="2011-05-05T15:22:48Z" uid="115477" user="wowik" changeset="8057723" lat="55.7620406" lon="37.6863304"/>
  <node id="87255834" version="3" timestamp="2011-10-14T06:19:10Z" uid="433361" user="Dima M" changeset="9552781" lat="55.7620592" lon="37.686305"/>
  <node id="87256681" version="2" timestamp="2008-07-03T20:39:21Z" uid="6975" user="ulfl" changeset="386611" lat="48.9178278" lon="8.6649016">
    <tag k="highway" v="bus_stop"/>
    <tag k="name" v="Kämpfelbachquelle"/>
  </node>
  <node id="87256681" version="3" timestamp="2008-08-25T13:23:45Z" uid="58670" user="GlennFiddich" changeset="399302" lat="48.9178278" lon="8.6649016">
    <tag k="highway" v="bus_stop"/>
    <tag k="name" v="Haltestelle Kämpfelbachquelle"/>
  </node>
  <node id="87256681" version="4" timestamp="2008-09-30T12:44:05Z" uid="58670" user="GlennFiddich" changeset="723671" lat="48.9178278" lon="8.6649016">
    <tag k="tunnel" v="yes"/>
  </node>
  <node id="87256681" version="5" timestamp="2009-07-01T13:46:22Z" uid="58670" user="GlennFiddich" changeset="1701006" lat="48.9178278" lon="8.6649016"/>
  <node id="87256681" version="6" timestamp="2011-09-23T05:56:07Z" uid="442210" user="dwausr" changeset="9374035" lat="48.9178278" lon="8.6649016"/>
  <node id="87256684" version="3" timestamp="2008-07-03T20:39:20Z" uid="6975" user="ulfl" changeset="386611" lat="48.9113759" lon="8.6774641">
    <tag k="highway" v="bus_stop"/>
    <tag k="name" v="Mahler#"/>
  </node>
  <node id="87256684" version="4" timestamp="2008-11-14T10:08:54Z" uid="77204" user="aps" changeset="745913" lat="48.9113758" lon="8.6774641">
    <tag k="bus_lines" v="731"/>
    <tag k="created_by" v="Merkaartor 0.12"/>
    <tag k="highway" v="bus_stop"/>
    <tag k="name" v="Mahler"/>
    <tag k="operator" v="SüdwestBus"/>
  </node>
  <node id="87256684" version="5" timestamp="2008-11-19T21:20:30Z" uid="67142" user="zottel" changeset="769962" lat="48.9113681" lon="8.6774483">
    <tag k="bus_lines" v="731"/>
    <tag k="created_by" v="Merkaartor 0.12"/>
    <tag k="highway" v="bus_stop"/>
    <tag k="name" v="Mahler"/>
    <tag k="operator" v="SüdwestBus"/>
    <tag k="shelter" v="yes"/>
  </node>
  <node id="87256684" version="6" timestamp="2008-11-23T15:20:55Z" uid="77204" user="aps" changeset="783868" lat="48.911368" lon="8.6774482">
    <tag k="bus_lines" v="731"/>
    <tag k="created_by" v="Merkaartor 0.12"/>
    <tag k="highway" v="bus_stop"/>
    <tag k="name" v="Ispringen Mahler"/>
    <tag k="operator" v="SüdwestBus"/>
    <tag k="shelter" v="yes"/>
  </node>
  <node id="87256684" version="7" timestamp="2009-02-03T23:05:18Z" uid="64482" user="Claas Augner" changeset="118420" lat="48.911368" lon="8.6774482">
    <tag k="bus_lines" v="731"/>
    <tag k="highway" v="bus_stop"/>
    <tag k="name" v="Mahler"/>
    <tag k="operator" v="SüdwestBus"/>
    <tag k="shelter" v="yes"/>
    <tag k="uic_ref" v="721265"/>
  </node>
  <node id="87256684" version="8" timestamp="2011-09-23T08:23:03Z" uid="442210" user="dwausr" changeset="9374742" lat="48.911368" lon="8.6774482"/>
  <node id="87256689" version="2" timestamp="2008-07-03T20:39:23Z" uid="6975" user="ulfl" changeset="386611" lat="48.899248" lon="8.6913017">
    <tag k="highway" v="bus_stop"/>
    <tag k="name" v="Hauptfriedhof"/>
  </node>
  <node id="87256689" version="3" timestamp="2008-11-19T21:20:29Z" uid="67142" user="zottel" changeset="769962" lat="48.8991991" lon="8.6913562">
    <tag k="bus_lines" v="6"/>
    <tag k="highway" v="bus_stop"/>
    <tag k="name" v="Hauptfriedhof"/>
    <tag k="operator" v="SVP"/>
    <tag k="shelter" v="yes"/>
  </node>
  <node id="87256689" version="4" timestamp="2008-12-20T20:57:51Z" uid="64482" user="Claas Augner" changeset="512587" lat="48.8992149" lon="8.6913751">
    <tag k="bus_lines" v="6"/>
    <tag k="highway" v="bus_stop"/>
    <tag k="name" v="Hauptfriedhof"/>
    <tag k="operator" v="SVP"/>
    <tag k="shelter" v="yes"/>
  </node>
  <node id="87256689" version="5" timestamp="2009-02-03T23:05:23Z" uid="64482" user="Claas Augner" changeset="118420" lat="48.8992149" lon="8.6913751">
    <tag k="bus_lines" v="6"/>
    <tag k="highway" v="bus_stop"/>
    <tag k="name" v="Hauptfriedhof"/>
    <tag k="operator" v="SVP"/>
    <tag k="shelter" v="yes"/>
    <tag k="uic_ref" v="940659"/>
  </node>
  <node id="87256696" version="3" timestamp="2008-07-03T20:39:22Z" uid="6975" user="ulfl" changeset="386611" lat="48.8971841" lon="8.6986283">
    <tag k="highway" v="bus_stop"/>
    <tag k="name" v="Philippstraße"/>
  </node>
  <node id="87256696" version="4" timestamp="2008-12-20T20:31:52Z" uid="64482" user="Claas Augner" changeset="512587" lat="48.8971266" lon="8.6987925">
    <tag k="bus_lines" v="5;6;8"/>
    <tag k="highway" v="bus_stop"/>
    <tag k="name" v="Philippstraße"/>
    <tag k="operator" v="SVP"/>
  </node>
  <node id="87256696" version="5" timestamp="2009-02-03T23:05:22Z" uid="64482" user="Claas Augner" changeset="118420" lat="48.8971266" lon="8.6987925">
    <tag k="bus_lines" v="5;6;8"/>
    <tag k="highway" v="bus_stop"/>
    <tag k="name" v="Philippstraße"/>
    <tag k="operator" v="SVP"/>
    <tag k="uic_ref" v="940725"/>
  </node>
  <node id="87256703" version="2" timestamp="2008-07-03T20:39:21Z" uid="6975" user="ulfl" changeset="386611" lat="48.8972115" lon="8.6985718">
    <tag k="highway" v="bus_stop"/>
    <tag k="name" v="Philippstraße"/>
  </node>
  <node id="87256703" version="3" timestamp="2008-12-20T20:31:51Z" uid="64482" user="Claas Augner" changeset="512587" lat="48.8972846" lon="8.6984412">
    <tag k="bus_lines" v="5;6;8"/>
    <tag k="highway" v="bus_stop"/>
    <tag k="name" v="Philippstraße"/>
    <tag k="operator" v="SVP"/>
  </node>
  <node id="87256703" version="4" timestamp="2009-02-03T23:05:21Z" uid="64482" user="Claas Augner" changeset="118420" lat="48.8972846" lon="8.6984412">
    <tag k="bus_lines" v="5;6;8"/>
    <tag k="highway" v="bus_stop"/>
    <tag k="name" v="Philippstraße"/>
    <tag k="operator" v="SVP"/>
    <tag k="uic_ref" v="940725"/>
  </node>
  <node id="87256709" version="2" timestamp="2008-07-03T20:39:11Z" uid="6975" user="ulfl" changeset="386611" lat="48.8970325" lon="8.7028092">
    <tag k="highway" v="bus_stop"/>
    <tag k="name" v="Zähringerallee"/>
  </node>
  <node id="87256709" version="3" timestamp="2008-11-30T00:24:24Z" uid="63969" user="olvagor" changeset="811198" lat="48.8970551" lon="8.7025538">
    <tag k="bus_lines" v="3;6"/>
    <tag k="highway" v="bus_stop"/>
    <tag k="name" v="Zähringerallee"/>
    <tag k="shelter" v="no"/>
  </node>
  <node id="87256709" version="4" timestamp="2008-12-20T21:48:39Z" uid="64482" user="Claas Augner" changeset="512587" lat="48.8971393" lon="8.7025768">
    <tag k="bus_lines" v="3;6"/>
    <tag k="highway" v="bus_stop"/>
    <tag k="name" v="Zähringerallee"/>
    <tag k="operator" v="SVP"/>
    <tag k="shelter" v="no"/>
  </node>
  <node id="87256709" version="5" timestamp="2009-02-03T23:04:51Z" uid="64482" user="Claas Augner" changeset="118420" lat="48.8971393" lon="8.7025768">
    <tag k="bus_lines" v="3;6"/>
    <tag k="highway" v="bus_stop"/>
    <tag k="name" v="Zähringerallee"/>
    <tag k="operator" v="SVP"/>
    <tag k="shelter" v="no"/>
    <tag k="uic_ref" v="940788"/>
  </node>
  <node id="87256709" version="6" timestamp="2009-06-17T11:51:36Z" uid="77204" user="aps" changeset="1544652" lat="48.8971393" lon="8.7025768">
    <tag k="bus" v="yes"/>
    <tag k="bus_lines" v="3;6"/>
    <tag k="highway" v="bus_stop"/>
    <tag k="operator" v="SVP"/>
    <tag k="public_transport" v="platform"/>
    <tag k="shelter" v="no"/>
    <tag k="uic_ref" v="940788"/>
  </node>
  <node id="87256722" version="2" timestamp="2008-07-03T20:39:12Z" uid="6975" user="ulfl" changeset="386611" lat="48.8967867" lon="8.7052773">
    <tag k="highway" v="bus_stop"/>
    <tag k="name" v="Pfälzer Straße"/>
  </node>
  <node id="87256722" version="3" timestamp="2008-11-05T18:10:31Z" uid="63969" user="olvagor" changeset="685375" lat="48.8968327" lon="8.7050751">
    <tag k="highway" v="bus_stop"/>
    <tag k="name" v="Pfälzer Straße"/>
  </node>
  <node id="87256722" version="4" timestamp="2008-11-14T10:08:54Z" uid="77204" user="aps" changeset="745913" lat="48.8968326" lon="8.7050751">
    <tag k="bus_lines" v="3;6;731"/>
    <tag k="created_by" v="Merkaartor 0.12"/>
    <tag k="highway" v="bus_stop"/>
    <tag k="name" v="Pfälzer Straße"/>
    <tag k="operator" v="SVP;SüdwestBus"/>
  </node>
  <node id="87256722" version="5" timestamp="2008-12-20T20:31:50Z" uid="64482" user="Claas Augner" changeset="512587" lat="48.8968326" lon="8.7050751">
    <tag k="bus_lines" v="3;6;731"/>
    <tag k="created_by" v="Merkaartor 0.12"/>
    <tag k="highway" v="bus_stop"/>
    <tag k="name" v="Pfälzerstraße"/>
    <tag k="operator" v="SVP;SüdwestBus"/>
  </node>
  <node id="87256722" version="6" timestamp="2009-02-03T23:04:54Z" uid="64482" user="Claas Augner" changeset="118420" lat="48.8968326" lon="8.7050751">
    <tag k="bus_lines" v="3;6;731"/>
    <tag k="highway" v="bus_stop"/>
    <tag k="name" v="Pfälzerstraße"/>
    <tag k="operator" v="SVP;SüdwestBus"/>
    <tag k="uic_ref" v="940724"/>
  </node>
  <node id="87256722" version="7" timestamp="2012-01-05T10:44:17Z" uid="290680" user="wheelmap_visitor" changeset="10298277" lat="48.8968326" lon="8.7050751">
    <tag k="bus_lines" v="3;6;731"/>
    <tag k="highway" v="bus_stop"/>
    <tag k="name" v="Pfälzerstraße"/>
    <tag k="operator" v="SVP;SüdwestBus"/>
    <tag k="uic_ref" v="940724"/>
    <tag k="wheelchair" v="yes"/>
  </node>
  <node id="87256722" version="8" timestamp="2012-02-05T14:19:12Z" uid="63969" user="olvagor" changeset="10593921" lat="48.8968118" lon="8.7050458">
    <tag k="bus_lines" v="3;6;731"/>
    <tag k="highway" v="bus_stop"/>
    <tag k="name" v="Pfälzerstraße"/>
    <tag k="operator" v="SVP;SüdwestBus"/>
    <tag k="uic_ref" v="940724"/>
    <tag k="wheelchair" v="yes"/>
  </node>
  <node id="87259163" version="1" timestamp="2007-10-25T20:23:00Z" uid="8619" user="cetest" changeset="314714" lat="51.9809896" lon="4.3708736">
    <tag k="created_by" v="JOSM"/>
  </node>
  <node id="87259163" version="2" timestamp="2009-01-19T19:05:25Z" uid="8619" user="cetest" changeset="811694" lat="51.9810306" lon="4.3711623">
    <tag k="created_by" v="JOSM"/>
  </node>
  <node id="87259163" version="3" timestamp="2011-09-15T23:56:27Z" uid="191979" user="It&apos;s so funny" changeset="9312639" lat="51.9810306" lon="4.3711623"/>
  <node id="87259170" version="1" timestamp="2007-10-25T20:23:00Z" uid="8619" user="cetest" changeset="314714" lat="51.9809946" lon="4.3755775">
    <tag k="created_by" v="JOSM"/>
  </node>
  <node id="87259170" version="2" timestamp="2008-03-01T13:32:44Z" uid="10998" user="Woeka" changeset="238922" lat="51.9809767" lon="4.3755327"/>
  <node id="87259170" version="3" timestamp="2008-03-01T13:50:57Z" uid="10998" user="Woeka" changeset="238922" lat="51.9809381" lon="4.3755323"/>
  <node id="87259170" version="4" timestamp="2009-01-19T19:05:22Z" uid="8619" user="cetest" changeset="811694" lat="51.981126" lon="4.3755468"/>
  <node id="87259170" version="5" timestamp="2011-09-15T23:55:02Z" uid="191979" user="It&apos;s so funny" changeset="9312639" lat="51.9811304" lon="4.3755145"/>
  <node id="87259170" version="6" timestamp="2011-11-20T19:49:08Z" uid="36080" user="polderrunner" changeset="9889001" lat="51.9811304" lon="4.3755145"/>
  <node id="87259173" version="1" timestamp="2007-10-25T20:23:01Z" uid="8619" user="cetest" changeset="314714" lat="51.9754102" lon="4.3750926">
    <tag k="created_by" v="JOSM"/>
  </node>
  <node id="87259173" version="2" timestamp="2011-09-15T23:56:27Z" uid="191979" user="It&apos;s so funny" changeset="9312639" lat="51.9754102" lon="4.3750926"/>
  <node id="87259175" version="1" timestamp="2007-10-25T20:23:01Z" uid="8619" user="cetest" changeset="314714" lat="51.9752298" lon="4.3755548">
    <tag k="created_by" v="JOSM"/>
  </node>
  <node id="87259175" version="2" timestamp="2008-02-17T12:19:42Z" uid="8619" user="cetest" changeset="138160" lat="51.9751929" lon="4.3754616">
    <tag k="created_by" v="JOSM"/>
  </node>
  <node id="87259175" version="3" timestamp="2011-09-15T23:56:27Z" uid="191979" user="It&apos;s so funny" changeset="9312639" lat="51.9751929" lon="4.3754616"/>
  <node id="87259179" version="1" timestamp="2007-10-25T20:23:01Z" uid="8619" user="cetest" changeset="314714" lat="51.9748125" lon="4.376436">
    <tag k="created_by" v="JOSM"/>
  </node>
  <node id="87259179" version="2" timestamp="2008-12-21T13:07:36Z" uid="8619" user="cetest" changeset="523682" lat="51.9748375" lon="4.3763606">
    <tag k="created_by" v="JOSM"/>
  </node>
  <node id="87259179" version="3" timestamp="2011-09-15T23:56:28Z" uid="191979" user="It&apos;s so funny" changeset="9312639" lat="51.9748375" lon="4.3763606"/>
  <node id="87259181" version="1" timestamp="2007-10-25T20:23:01Z" uid="8619" user="cetest" changeset="314714" lat="51.9746472" lon="4.3765041">
    <tag k="created_by" v="JOSM"/>
  </node>
  <node id="87259181" version="2" timestamp="2008-12-21T13:07:35Z" uid="8619" user="cetest" changeset="523682" lat="51.9746472" lon="4.3764287">
    <tag k="created_by" v="JOSM"/>
  </node>
  <node id="87259181" version="3" timestamp="2011-09-15T23:56:28Z" uid="191979" user="It&apos;s so funny" changeset="9312639" lat="51.9746472" lon="4.3764287"/>
  <node id="87256689" version="6" timestamp="2012-07-19T15:41:04Z" uid="722137" user="OSMF Redaction Account" changeset="12335916" lat="48.8992149" lon="8.6913751">
    <tag k="highway" v="bus_stop"/>
    <tag k="name" v="Hauptfriedhof"/>
    <tag k="uic_ref" v="940659"/>
  </node>
</osm>
