<?xml version='1.0' encoding='UTF-8'?>
<osm version="0.6" generator="libosmium/2.20.0">
  <node id="87300079" version="2" timestamp="2008-07-17T21:53:08Z" uid="52384" user="NedFlanders" changeset="532403" lat="51.0544053" lon="7.0014523">
    <tag k="created_by" v="Potlatch 0.9c"/>
    <tag k="leisure" v="sports_centre"/>
    <tag k="name" v="MCFit"/>
  </node>
  <node id="87300079" version="3" timestamp="2009-11-30T18:52:05Z" uid="197719" user="JesosChristos" changeset="3258427" lat="51.0544053" lon="7.0014523">
    <tag k="created_by" v="Potlatch 0.9c"/>
    <tag k="leisure" v="sports_centre"/>
    <tag k="name" v="MCFit"/>
  </node>
  <node id="87304830" version="2" timestamp="2008-07-05T10:52:30Z" uid="6975" user="ulfl" changeset="398437" lat="52.0915038" lon="-0.0103719">
    <tag k="name" v="Hawthorn Park"/>
    <tag k="tourism" v="caravan_site"/>
  </node>
  <node id="87304830" version="3" timestamp="2012-02-05T16:16:06Z" uid="3582" user="davidearl" changeset="10595098" lat="52.0915038" lon="-0.0103719"/>
  <node id="87308165" version="4" timestamp="2010-02-09T02:02:33Z" uid="74617" user="JohnSmith" changeset="3828705" lat="-27.3336557" lon="153.044237">
    <tag k="power" v="tower"/>
  </node>
</osm>
