<?xml version='1.0' encoding='UTF-8'?>
<osm version="0.6" generator="libosmium/2.20.0">
  <node id="874333727" version="1" timestamp="2010-08-22T18:53:30Z" uid="9581" user="Lobelt" changeset="5564332" lat="50.8528194" lon="9.7238707"/>
  <node id="874333727" version="2" timestamp="2012-03-12T19:45:07Z" uid="131670" user="Ana Luisa" changeset="10959453" lat="50.8528194" lon="9.7238707"/>
  <node id="874333731" version="1" timestamp="2010-08-22T18:53:30Z" uid="9581" user="Lobelt" changeset="5564332" lat="50.8565055" lon="9.7199013"/>
  <node id="874333735" version="1" timestamp="2010-08-22T18:53:30Z" uid="9581" user="Lobelt" changeset="5564332" lat="50.8582316" lon="9.7232999">
    <tag k="addr:city" v="Bad Hersfeld"/>
    <tag k="addr:housenumber" v="3"/>
    <tag k="addr:postcode" v="36251"/>
    <tag k="addr:street" v="Car-Benz-Straße"/>
    <tag k="name" v="Sleep &amp; Go"/>
    <tag k="tourism" v="hotel"/>
  </node>
  <node id="874333735" version="2" timestamp="2012-02-24T12:13:09Z" uid="72483" user="DerUnsichtbare" changeset="10777450" lat="50.8582865" lon="9.7233362">
    <tag k="addr:city" v="Bad Hersfeld"/>
    <tag k="addr:housenumber" v="3"/>
    <tag k="addr:postcode" v="36251"/>
    <tag k="addr:street" v="Car-Benz-Straße"/>
    <tag k="email" v="info @ sleep-and-go.de"/>
    <tag k="fax" v="+49 (0) 6621 / 918 142"/>
    <tag k="layer" v="1"/>
    <tag k="name" v="sleep &amp; go"/>
    <tag k="operator" v="Familie Buschbacher"/>
    <tag k="phone" v="+49 (0) 6621 / 918 140"/>
    <tag k="smoking" v="separated"/>
    <tag k="tourism" v="hotel"/>
    <tag k="website" v="http://www.sleep-and-go.de/"/>
  </node>
  <node id="874333735" version="3" timestamp="2012-02-24T12:26:03Z" uid="72483" user="DerUnsichtbare" changeset="10777576" lat="50.8583011" lon="9.7233567">
    <tag k="addr:city" v="Bad Hersfeld"/>
    <tag k="addr:housenumber" v="3"/>
    <tag k="addr:postcode" v="36251"/>
    <tag k="addr:street" v="Car-Benz-Straße"/>
    <tag k="email" v="info @ sleep-and-go.de"/>
    <tag k="fax" v="+49 (0) 6621 / 918 142"/>
    <tag k="layer" v="1"/>
    <tag k="name" v="sleep &amp; go"/>
    <tag k="operator" v="Familie Buschbacher"/>
    <tag k="phone" v="+49 (0) 6621 / 918 140"/>
    <tag k="smoking" v="separated"/>
    <tag k="tourism" v="hotel"/>
    <tag k="website" v="http://www.sleep-and-go.de/"/>
  </node>
  <node id="874333743" version="1" timestamp="2010-08-22T18:53:30Z" uid="9581" user="Lobelt" changeset="5564332" lat="50.8526822" lon="9.7227758"/>
  <node id="874333743" version="2" timestamp="2012-03-12T19:45:07Z" uid="131670" user="Ana Luisa" changeset="10959453" lat="50.8526822" lon="9.7227758"/>
  <node id="874333749" version="1" timestamp="2010-08-22T18:53:30Z" uid="9581" user="Lobelt" changeset="5564332" lat="50.8512496" lon="9.7263886"/>
  <node id="874333749" version="2" timestamp="2010-11-14T19:19:54Z" uid="39807" user="Bernd36251" changeset="6369988" lat="50.851352" lon="9.7263606"/>
  <node id="874333749" version="3" timestamp="2010-12-29T19:56:28Z" uid="39504" user="malenki" changeset="6802551" lat="50.8513603" lon="9.7264816"/>
  <node id="874333749" version="4" timestamp="2011-10-16T22:24:30Z" uid="235372" user="miraculixOSM" changeset="9577664" lat="50.8513603" lon="9.7264816"/>
  <node id="874333751" version="1" timestamp="2010-08-22T18:53:30Z" uid="9581" user="Lobelt" changeset="5564332" lat="50.8528945" lon="9.7243259"/>
  <node id="874333751" version="2" timestamp="2012-03-12T19:45:07Z" uid="131670" user="Ana Luisa" changeset="10959453" lat="50.8528945" lon="9.7243259"/>
  <node id="874333754" version="1" timestamp="2010-08-22T18:53:31Z" uid="9581" user="Lobelt" changeset="5564332" lat="50.8531715" lon="9.7227102"/>
  <node id="874333754" version="2" timestamp="2012-03-12T19:45:07Z" uid="131670" user="Ana Luisa" changeset="10959453" lat="50.8531715" lon="9.7227102"/>
  <node id="874333757" version="1" timestamp="2010-08-22T18:53:31Z" uid="9581" user="Lobelt" changeset="5564332" lat="50.8590082" lon="9.7235197"/>
  <node id="874333757" version="2" timestamp="2010-11-14T19:20:02Z" uid="39807" user="Bernd36251" changeset="6369988" lat="50.8588341" lon="9.7232762"/>
  <node id="874333757" version="3" timestamp="2010-12-29T19:53:50Z" uid="39504" user="malenki" changeset="6802551" lat="50.8588424" lon="9.7233972"/>
  <node id="874333757" version="4" timestamp="2012-02-24T12:13:09Z" uid="72483" user="DerUnsichtbare" changeset="10777450" lat="50.8588367" lon="9.7234254"/>
  <node id="874333760" version="1" timestamp="2010-08-22T18:53:31Z" uid="9581" user="Lobelt" changeset="5564332" lat="50.8503368" lon="9.7209905"/>
  <node id="874333760" version="2" timestamp="2010-11-14T19:19:45Z" uid="39807" user="Bernd36251" changeset="6369988" lat="50.8505466" lon="9.7208768"/>
  <node id="874333763" version="1" timestamp="2010-08-22T18:53:31Z" uid="9581" user="Lobelt" changeset="5564332" lat="50.8526926" lon="9.7236944"/>
  <node id="874333763" version="2" timestamp="2012-03-12T19:45:08Z" uid="131670" user="Ana Luisa" changeset="10959453" lat="50.8526926" lon="9.7236944"/>
  <node id="874333766" version="1" timestamp="2010-08-22T18:53:31Z" uid="9581" user="Lobelt" changeset="5564332" lat="50.8533864" lon="9.7243095"/>
  <node id="874333766" version="2" timestamp="2012-03-12T19:45:08Z" uid="131670" user="Ana Luisa" changeset="10959453" lat="50.8533864" lon="9.7243095"/>
  <node id="874333768" version="1" timestamp="2010-08-22T18:53:31Z" uid="9581" user="Lobelt" changeset="5564332" lat="50.8581819" lon="9.7232671">
    <tag k="addr:city" v="Bad Hersfeld"/>
    <tag k="addr:housenumber" v="3"/>
    <tag k="addr:postcode" v="36251"/>
    <tag k="addr:street" v="Car-Benz-Straße"/>
    <tag k="amenity" v="restaurant"/>
    <tag k="name" v="Croatica"/>
  </node>
  <node id="874333768" version="2" timestamp="2011-09-24T19:59:45Z" uid="290680" user="wheelmap_visitor" changeset="9383846" lat="50.8581819" lon="9.7232671">
    <tag k="addr:city" v="Bad Hersfeld"/>
    <tag k="addr:housenumber" v="3"/>
    <tag k="addr:postcode" v="36251"/>
    <tag k="addr:street" v="Car-Benz-Straße"/>
    <tag k="amenity" v="restaurant"/>
    <tag k="name" v="Croatica"/>
    <tag k="wheelchair" v="yes"/>
  </node>
  <node id="874333768" version="3" timestamp="2012-02-24T12:13:07Z" uid="72483" user="DerUnsichtbare" changeset="10777450" lat="50.8581705" lon="9.7232744">
    <tag k="addr:city" v="Bad Hersfeld"/>
    <tag k="addr:housenumber" v="3"/>
    <tag k="addr:postcode" v="36251"/>
    <tag k="addr:street" v="Car-Benz-Straße"/>
    <tag k="amenity" v="restaurant"/>
    <tag k="cuisine" v="croatian"/>
    <tag k="email" v="info@croatica.de"/>
    <tag k="fax" v="+49 (0) 6621 - 918 301"/>
    <tag k="name" v="Croatica"/>
    <tag k="opening_hours" v="12:00-14:30, 17:30-23:00"/>
    <tag k="operator" v="Familie Miloloza"/>
    <tag k="phone" v="+49 (0) 6621 - 918 300"/>
    <tag k="website" v="http://croatica.de"/>
    <tag k="wheelchair" v="yes"/>
  </node>
  <node id="874333768" version="4" timestamp="2012-02-24T12:26:02Z" uid="72483" user="DerUnsichtbare" changeset="10777576" lat="50.8581947" lon="9.723282">
    <tag k="addr:city" v="Bad Hersfeld"/>
    <tag k="addr:housenumber" v="3"/>
    <tag k="addr:postcode" v="36251"/>
    <tag k="addr:street" v="Car-Benz-Straße"/>
    <tag k="amenity" v="restaurant"/>
    <tag k="cuisine" v="croatian"/>
    <tag k="email" v="info@croatica.de"/>
    <tag k="fax" v="+49 (0) 6621 - 918 301"/>
    <tag k="name" v="Croatica"/>
    <tag k="opening_hours" v="12:00-14:30, 17:30-23:00"/>
    <tag k="operator" v="Familie Miloloza"/>
    <tag k="phone" v="+49 (0) 6621 - 918 300"/>
    <tag k="website" v="http://croatica.de"/>
    <tag k="wheelchair" v="yes"/>
  </node>
  <node id="874333770" version="1" timestamp="2010-08-22T18:53:31Z" uid="9581" user="Lobelt" changeset="5564332" lat="50.8592408" lon="9.7183795"/>
  <node id="874333731" version="2" timestamp="2012-04-14T17:28:52Z" uid="72483" user="DerUnsichtbare" changeset="11301453" lat="50.8565055" lon="9.7199013"/>
  <node id="874333735" version="4" timestamp="2012-04-16T11:54:10Z" uid="72483" user="DerUnsichtbare" changeset="11321196" lat="50.8583011" lon="9.7233567"/>
  <node id="874333757" version="5" timestamp="2012-04-16T11:54:11Z" uid="72483" user="DerUnsichtbare" changeset="11321196" lat="50.8588367" lon="9.7234254"/>
  <node id="874333760" version="3" timestamp="2012-04-14T17:28:52Z" uid="72483" user="DerUnsichtbare" changeset="11301453" lat="50.8505466" lon="9.7208768"/>
  <node id="874333768" version="5" timestamp="2012-04-16T16:00:07Z" uid="72483" user="DerUnsichtbare" changeset="11323553" lat="50.8581947" lon="9.723282"/>
  <node id="874333770" version="2" timestamp="2012-04-14T17:28:52Z" uid="72483" user="DerUnsichtbare" changeset="11301453" lat="50.8592408" lon="9.7183795"/>
</osm>
