<?xml version='1.0' encoding='UTF-8'?>
<osm version="0.6" generator="libosmium/2.20.0">
  <node id="881836868" version="1" timestamp="2010-08-27T07:06:23Z" uid="6975" user="ulfl" changeset="5604969" lat="49.4414026" lon="11.0849776">
    <tag k="addr:city" v="Nürnberg"/>
    <tag k="addr:housenumber" v="41"/>
    <tag k="addr:street" v="Hummelsteiner Weg"/>
  </node>
  <node id="881836868" version="2" timestamp="2010-11-01T00:05:52Z" uid="202858" user="kellerma" changeset="6249810" lat="49.4414026" lon="11.0849776">
    <tag k="addr:city" v="Nürnberg"/>
    <tag k="addr:country" v="DE"/>
    <tag k="addr:housenumber" v="41"/>
    <tag k="addr:postcode" v="90459"/>
    <tag k="addr:street" v="Hummelsteiner Weg"/>
  </node>
  <node id="881836868" version="3" timestamp="2011-12-11T01:53:21Z" uid="71557" user="Taroc" changeset="10086348" lat="49.4414026" lon="11.0849776"/>
  <node id="881836869" version="1" timestamp="2010-08-27T07:06:23Z" uid="6975" user="ulfl" changeset="5604969" lat="49.4426063" lon="11.0825563">
    <tag k="addr:city" v="Nürnberg"/>
    <tag k="addr:housenumber" v="9"/>
    <tag k="addr:street" v="Comeniusstraße"/>
  </node>
  <node id="881836869" version="2" timestamp="2010-12-24T10:36:29Z" uid="133024" user="Universalmapper" changeset="6753300" lat="49.4426063" lon="11.0825563">
    <tag k="addr:city" v="Nürnberg"/>
    <tag k="addr:housenumber" v="9"/>
    <tag k="addr:street" v="Comeniusstraße"/>
  </node>
  <node id="881836877" version="1" timestamp="2010-08-27T07:06:23Z" uid="6975" user="ulfl" changeset="5604969" lat="49.4424052" lon="11.0835386">
    <tag k="addr:city" v="Nürnberg"/>
    <tag k="addr:housenumber" v="26"/>
    <tag k="addr:street" v="Hummelsteiner Weg"/>
  </node>
  <node id="881836877" version="2" timestamp="2011-07-10T20:47:55Z" uid="81983" user="Ogmios" changeset="8688404" lat="49.4424052" lon="11.0835386">
    <tag k="addr:city" v="Nürnberg"/>
    <tag k="addr:country" v="DE"/>
    <tag k="addr:housenumber" v="26"/>
    <tag k="addr:state" v="Bayern"/>
    <tag k="addr:street" v="Hummelsteiner Weg"/>
  </node>
  <node id="881836877" version="3" timestamp="2011-12-10T12:52:04Z" uid="71557" user="Taroc" changeset="10080691" lat="49.4424052" lon="11.0835386"/>
  <node id="881836878" version="1" timestamp="2010-08-27T07:06:24Z" uid="6975" user="ulfl" changeset="5604969" lat="49.443002" lon="11.0827757">
    <tag k="addr:city" v="Nürnberg"/>
    <tag k="addr:housenumber" v="14a"/>
    <tag k="addr:street" v="Hummelsteiner Weg"/>
  </node>
  <node id="881836878" version="2" timestamp="2011-07-10T20:47:54Z" uid="81983" user="Ogmios" changeset="8688404" lat="49.443002" lon="11.0827757">
    <tag k="addr:city" v="Nürnberg"/>
    <tag k="addr:country" v="DE"/>
    <tag k="addr:housenumber" v="14a"/>
    <tag k="addr:state" v="Bayern"/>
    <tag k="addr:street" v="Hummelsteiner Weg"/>
  </node>
  <node id="881836878" version="3" timestamp="2011-12-10T12:52:03Z" uid="71557" user="Taroc" changeset="10080691" lat="49.443002" lon="11.0827757"/>
  <node id="881836880" version="1" timestamp="2010-08-27T07:06:24Z" uid="6975" user="ulfl" changeset="5604969" lat="49.4430927" lon="11.0830025">
    <tag k="addr:city" v="Nürnberg"/>
    <tag k="addr:housenumber" v="14"/>
    <tag k="addr:street" v="Hummelsteiner Weg"/>
  </node>
  <node id="881836880" version="2" timestamp="2010-12-24T10:35:56Z" uid="133024" user="Universalmapper" changeset="6753300" lat="49.4431148" lon="11.0829979">
    <tag k="addr:city" v="Nürnberg"/>
    <tag k="addr:housenumber" v="14"/>
    <tag k="addr:street" v="Hummelsteiner Weg"/>
  </node>
  <node id="881836880" version="3" timestamp="2011-07-10T20:47:53Z" uid="81983" user="Ogmios" changeset="8688404" lat="49.4431148" lon="11.0829979">
    <tag k="addr:city" v="Nürnberg"/>
    <tag k="addr:country" v="DE"/>
    <tag k="addr:housenumber" v="14"/>
    <tag k="addr:state" v="Bayern"/>
    <tag k="addr:street" v="Hummelsteiner Weg"/>
  </node>
  <node id="881836880" version="4" timestamp="2011-12-10T12:52:03Z" uid="71557" user="Taroc" changeset="10080691" lat="49.4431148" lon="11.0829979"/>
  <node id="881836883" version="1" timestamp="2010-08-27T07:06:24Z" uid="6975" user="ulfl" changeset="5604969" lat="49.4415459" lon="11.0831021">
    <tag k="addr:city" v="Nürnberg"/>
    <tag k="addr:housenumber" v="12"/>
    <tag k="addr:street" v="Bulmannstraße"/>
  </node>
  <node id="881836883" version="2" timestamp="2011-12-11T01:53:19Z" uid="71557" user="Taroc" changeset="10086348" lat="49.4415459" lon="11.0831021"/>
  <node id="881836889" version="1" timestamp="2010-08-27T07:06:24Z" uid="6975" user="ulfl" changeset="5604969" lat="49.4434214" lon="11.082324">
    <tag k="addr:city" v="Nürnberg"/>
    <tag k="addr:housenumber" v="8"/>
    <tag k="addr:street" v="Galgenhofstraße"/>
  </node>
  <node id="881836889" version="2" timestamp="2010-12-24T10:36:34Z" uid="133024" user="Universalmapper" changeset="6753300" lat="49.4434214" lon="11.082324">
    <tag k="addr:city" v="Nürnberg"/>
    <tag k="addr:housenumber" v="8"/>
    <tag k="addr:street" v="Galgenhofstraße"/>
  </node>
  <node id="881836890" version="1" timestamp="2010-08-27T07:06:24Z" uid="6975" user="ulfl" changeset="5604969" lat="49.4412765" lon="11.0850321">
    <tag k="addr:city" v="Nürnberg"/>
    <tag k="addr:housenumber" v="43"/>
    <tag k="addr:street" v="Hummelsteiner Weg"/>
  </node>
  <node id="881836890" version="2" timestamp="2010-11-01T00:05:49Z" uid="202858" user="kellerma" changeset="6249810" lat="49.4412765" lon="11.0850321">
    <tag k="addr:city" v="Nürnberg"/>
    <tag k="addr:country" v="DE"/>
    <tag k="addr:housenumber" v="43"/>
    <tag k="addr:postcode" v="90459"/>
    <tag k="addr:street" v="Hummelsteiner Weg"/>
  </node>
  <node id="881836890" version="3" timestamp="2011-12-11T01:53:21Z" uid="71557" user="Taroc" changeset="10086348" lat="49.4412765" lon="11.0850321"/>
  <node id="881836891" version="1" timestamp="2010-08-27T07:06:24Z" uid="6975" user="ulfl" changeset="5604969" lat="49.4411128" lon="11.0831907">
    <tag k="addr:city" v="Nürnberg"/>
    <tag k="addr:country" v="DE"/>
    <tag k="addr:housenumber" v="16"/>
    <tag k="addr:street" v="Bulmannstraße"/>
  </node>
  <node id="881836891" version="2" timestamp="2011-12-11T01:53:19Z" uid="71557" user="Taroc" changeset="10086348" lat="49.4411128" lon="11.0831907"/>
  <node id="881836892" version="1" timestamp="2010-08-27T07:06:24Z" uid="6975" user="ulfl" changeset="5604969" lat="49.442496" lon="11.0834631">
    <tag k="addr:city" v="Nürnberg"/>
    <tag k="addr:housenumber" v="94"/>
  </node>
  <node id="881836892" version="2" timestamp="2010-10-31T22:35:54Z" uid="202858" user="kellerma" changeset="6248671" lat="49.442496" lon="11.0834631">
    <tag k="addr:city" v="Nürnberg"/>
    <tag k="addr:country" v="DE"/>
    <tag k="addr:housenumber" v="94"/>
    <tag k="addr:postcode" v="90459"/>
    <tag k="addr:street" v="Peter-Henlein-Straße"/>
  </node>
  <node id="881836892" version="3" timestamp="2011-07-10T20:47:56Z" uid="81983" user="Ogmios" changeset="8688404" lat="49.442496" lon="11.0834631">
    <tag k="addr:city" v="Nürnberg"/>
    <tag k="addr:country" v="DE"/>
    <tag k="addr:housenumber" v="94"/>
    <tag k="addr:postcode" v="90459"/>
    <tag k="addr:state" v="Bayern"/>
    <tag k="addr:street" v="Peter-Henlein-Straße"/>
  </node>
  <node id="881836892" version="4" timestamp="2011-12-10T12:52:04Z" uid="71557" user="Taroc" changeset="10080691" lat="49.442496" lon="11.0834631"/>
  <node id="881836893" version="1" timestamp="2010-08-27T07:06:24Z" uid="6975" user="ulfl" changeset="5604969" lat="49.4409184" lon="11.0832521">
    <tag k="addr:city" v="Nürnberg"/>
    <tag k="addr:housenumber" v="18"/>
    <tag k="addr:street" v="Bulmannstraße"/>
  </node>
  <node id="881836893" version="2" timestamp="2010-11-01T00:05:45Z" uid="202858" user="kellerma" changeset="6249810" lat="49.4409184" lon="11.0832521">
    <tag k="addr:city" v="Nürnberg"/>
    <tag k="addr:country" v="DE"/>
    <tag k="addr:housenumber" v="18"/>
    <tag k="addr:postcode" v="90459"/>
    <tag k="addr:street" v="Bulmannstraße"/>
  </node>
  <node id="881836893" version="3" timestamp="2011-12-11T01:53:20Z" uid="71557" user="Taroc" changeset="10086348" lat="49.4409184" lon="11.0832521"/>
  <node id="881836894" version="1" timestamp="2010-08-27T07:06:24Z" uid="6975" user="ulfl" changeset="5604969" lat="49.4420301" lon="11.0829589">
    <tag k="addr:city" v="Nürnberg"/>
    <tag k="addr:housenumber" v="6"/>
    <tag k="addr:street" v="Bulmannstraße"/>
  </node>
  <node id="881836894" version="2" timestamp="2011-12-10T12:52:04Z" uid="71557" user="Taroc" changeset="10080691" lat="49.4420301" lon="11.0829589"/>
  <node id="881836895" version="1" timestamp="2010-08-27T07:06:24Z" uid="6975" user="ulfl" changeset="5604969" lat="49.4409711" lon="11.085166">
    <tag k="addr:city" v="Nürnberg"/>
    <tag k="addr:housenumber" v="41"/>
    <tag k="addr:street" v="Wölckernstraße"/>
  </node>
  <node id="881836895" version="2" timestamp="2010-11-01T00:05:51Z" uid="202858" user="kellerma" changeset="6249810" lat="49.4409711" lon="11.085166">
    <tag k="addr:city" v="Nürnberg"/>
    <tag k="addr:country" v="DE"/>
    <tag k="addr:housenumber" v="41"/>
    <tag k="addr:postcode" v="90459"/>
    <tag k="addr:street" v="Wölckernstraße"/>
  </node>
  <node id="881836895" version="3" timestamp="2011-12-11T09:16:11Z" uid="71557" user="Taroc" changeset="10087510" lat="49.4409711" lon="11.085166"/>
  <node id="881836896" version="1" timestamp="2010-08-27T07:06:24Z" uid="6975" user="ulfl" changeset="5604969" lat="49.4433433" lon="11.0823151">
    <tag k="addr:city" v="Nürnberg"/>
    <tag k="addr:housenumber" v="1"/>
    <tag k="addr:street" v="Comeniusstraße"/>
    <tag k="name" v="Hotel Royal"/>
    <tag k="tourism" v="hotel"/>
  </node>
  <node id="881836896" version="2" timestamp="2010-12-24T10:36:10Z" uid="133024" user="Universalmapper" changeset="6753300" lat="49.4433433" lon="11.0823151">
    <tag k="name" v="Hotel Royal"/>
    <tag k="tourism" v="hotel"/>
  </node>
  <node id="881836896" version="3" timestamp="2011-07-10T20:47:53Z" uid="81983" user="Ogmios" changeset="8688404" lat="49.4433433" lon="11.0823151">
    <tag k="addr:city" v="Nürnberg"/>
    <tag k="addr:country" v="DE"/>
    <tag k="addr:state" v="Bayern"/>
    <tag k="name" v="Hotel Royal"/>
    <tag k="tourism" v="hotel"/>
  </node>
  <node id="881836896" version="4" timestamp="2011-12-10T12:52:04Z" uid="71557" user="Taroc" changeset="10080691" lat="49.4433433" lon="11.0823151"/>
  <node id="881836898" version="1" timestamp="2010-08-27T07:06:25Z" uid="6975" user="ulfl" changeset="5604969" lat="49.4432288" lon="11.0829641">
    <tag k="addr:city" v="Nürnberg"/>
    <tag k="addr:housenumber" v="12"/>
    <tag k="addr:street" v="Hummelsteiner Weg"/>
  </node>
  <node id="881836898" version="2" timestamp="2010-12-24T10:35:58Z" uid="133024" user="Universalmapper" changeset="6753300" lat="49.4432489" lon="11.0829687">
    <tag k="addr:city" v="Nürnberg"/>
    <tag k="addr:housenumber" v="12"/>
    <tag k="addr:street" v="Hummelsteiner Weg"/>
  </node>
  <node id="881836898" version="3" timestamp="2011-07-10T20:47:53Z" uid="81983" user="Ogmios" changeset="8688404" lat="49.4432489" lon="11.0829687">
    <tag k="addr:city" v="Nürnberg"/>
    <tag k="addr:country" v="DE"/>
    <tag k="addr:housenumber" v="12"/>
    <tag k="addr:state" v="Bayern"/>
    <tag k="addr:street" v="Hummelsteiner Weg"/>
  </node>
  <node id="881836898" version="4" timestamp="2011-12-10T12:52:03Z" uid="71557" user="Taroc" changeset="10080691" lat="49.4432489" lon="11.0829687"/>
  <node id="881836901" version="1" timestamp="2010-08-27T07:06:25Z" uid="6975" user="ulfl" changeset="5604969" lat="49.4418425" lon="11.08301">
    <tag k="addr:city" v="Nürnberg"/>
    <tag k="addr:housenumber" v="8"/>
    <tag k="addr:street" v="Bulmannstraße"/>
  </node>
  <node id="881836901" version="2" timestamp="2011-12-11T01:53:21Z" uid="71557" user="Taroc" changeset="10086348" lat="49.4418425" lon="11.08301"/>
  <node id="881836904" version="1" timestamp="2010-08-27T07:06:25Z" uid="6975" user="ulfl" changeset="5604969" lat="49.4405024" lon="11.0854618">
    <tag k="addr:city" v="Nürnberg"/>
    <tag k="addr:housenumber" v="49"/>
    <tag k="addr:street" v="Hummelsteiner Weg"/>
  </node>
  <node id="881836904" version="2" timestamp="2010-11-01T00:05:48Z" uid="202858" user="kellerma" changeset="6249810" lat="49.4405024" lon="11.0854618">
    <tag k="addr:city" v="Nürnberg"/>
    <tag k="addr:country" v="DE"/>
    <tag k="addr:housenumber" v="49"/>
    <tag k="addr:postcode" v="90459"/>
    <tag k="addr:street" v="Hummelsteiner Weg"/>
  </node>
  <node id="881836904" version="3" timestamp="2011-12-11T09:16:11Z" uid="71557" user="Taroc" changeset="10087510" lat="49.4405024" lon="11.0854618"/>
  <node id="881836907" version="1" timestamp="2010-08-27T07:06:25Z" uid="6975" user="ulfl" changeset="5604969" lat="49.4421938" lon="11.0846707">
    <tag k="addr:city" v="Nürnberg"/>
    <tag k="addr:housenumber" v="31"/>
    <tag k="addr:street" v="Hummelsteiner Weg"/>
  </node>
  <node id="881836907" version="2" timestamp="2010-11-01T00:05:44Z" uid="202858" user="kellerma" changeset="6249810" lat="49.4421938" lon="11.0846707">
    <tag k="addr:city" v="Nürnberg"/>
    <tag k="addr:country" v="DE"/>
    <tag k="addr:housenumber" v="31"/>
    <tag k="addr:postcode" v="90459"/>
    <tag k="addr:street" v="Hummelsteiner Weg"/>
  </node>
  <node id="881836907" version="3" timestamp="2011-12-11T09:16:09Z" uid="71557" user="Taroc" changeset="10087510" lat="49.4421938" lon="11.0846707"/>
  <node id="881836911" version="1" timestamp="2010-08-27T07:06:25Z" uid="6975" user="ulfl" changeset="5604969" lat="49.4415853" lon="11.0850229">
    <tag k="addr:city" v="Nürnberg"/>
    <tag k="addr:housenumber" v="38"/>
  </node>
  <node id="881836911" version="2" timestamp="2010-11-01T00:05:54Z" uid="202858" user="kellerma" changeset="6249810" lat="49.4415853" lon="11.0850229">
    <tag k="addr:city" v="Nürnberg"/>
    <tag k="addr:country" v="DE"/>
    <tag k="addr:housenumber" v="38"/>
    <tag k="addr:postcode" v="90459"/>
  </node>
  <node id="881836911" version="3" timestamp="2010-12-24T10:36:07Z" uid="133024" user="Universalmapper" changeset="6753300" lat="49.4415853" lon="11.0850229">
    <tag k="addr:city" v="Nürnberg"/>
    <tag k="addr:country" v="DE"/>
    <tag k="addr:housenumber" v="38"/>
    <tag k="addr:postcode" v="90459"/>
    <tag k="addr:street" v="Breitscheidstraße"/>
  </node>
  <node id="881836911" version="4" timestamp="2011-01-12T19:17:44Z" uid="394546" user="efwe" changeset="6950441" lat="49.4415853" lon="11.0850229">
    <tag k="addr:city" v="Nürnberg"/>
    <tag k="addr:country" v="DE"/>
    <tag k="addr:housenumber" v="38"/>
    <tag k="addr:postcode" v="90459"/>
    <tag k="addr:street" v="Breitscheidstraße"/>
    <tag k="shop" v="car_repair"/>
  </node>
  <node id="881836911" version="5" timestamp="2011-01-12T19:24:20Z" uid="394546" user="efwe" changeset="6950506" lat="49.4415853" lon="11.0850229">
    <tag k="addr:city" v="Nürnberg"/>
    <tag k="addr:country" v="DE"/>
    <tag k="addr:housenumber" v="38"/>
    <tag k="addr:postcode" v="90459"/>
    <tag k="addr:street" v="Breitscheidstraße"/>
    <tag k="shop" v="car_repair"/>
  </node>
  <node id="881836913" version="1" timestamp="2010-08-27T07:06:25Z" uid="6975" user="ulfl" changeset="5604969" lat="49.4418357" lon="11.084507">
    <tag k="addr:city" v="Nürnberg"/>
    <tag k="addr:housenumber" v="38"/>
    <tag k="addr:street" v="Hummelsteiner Weg"/>
  </node>
  <node id="881836913" version="2" timestamp="2011-12-10T12:52:04Z" uid="71557" user="Taroc" changeset="10080691" lat="49.4418357" lon="11.084507"/>
  <node id="881836916" version="1" timestamp="2010-08-27T07:06:25Z" uid="6975" user="ulfl" changeset="5604969" lat="49.4424222" lon="11.0828327">
    <tag k="addr:city" v="Nürnberg"/>
    <tag k="addr:housenumber" v="2"/>
    <tag k="addr:street" v="Bulmannstraße"/>
  </node>
  <node id="881836916" version="2" timestamp="2011-07-10T20:47:54Z" uid="81983" user="Ogmios" changeset="8688404" lat="49.4424222" lon="11.0828327">
    <tag k="addr:city" v="Nürnberg"/>
    <tag k="addr:country" v="DE"/>
    <tag k="addr:housenumber" v="2"/>
    <tag k="addr:state" v="Bayern"/>
    <tag k="addr:street" v="Bulmannstraße"/>
  </node>
  <node id="881836916" version="3" timestamp="2011-12-10T12:52:04Z" uid="71557" user="Taroc" changeset="10080691" lat="49.4424222" lon="11.0828327"/>
  <node id="881836919" version="1" timestamp="2010-08-27T07:06:25Z" uid="6975" user="ulfl" changeset="5604969" lat="49.4428868" lon="11.0831979">
    <tag k="addr:city" v="Nürnberg"/>
    <tag k="addr:housenumber" v="20"/>
    <tag k="addr:street" v="Hummelsteiner Weg"/>
  </node>
  <node id="881836919" version="2" timestamp="2010-10-31T22:35:57Z" uid="202858" user="kellerma" changeset="6248671" lat="49.4428868" lon="11.0831979">
    <tag k="addr:city" v="Nürnberg"/>
    <tag k="addr:country" v="DE"/>
    <tag k="addr:housenumber" v="20"/>
    <tag k="addr:postcode" v="90459"/>
    <tag k="addr:street" v="Hummelsteiner Weg"/>
  </node>
  <node id="881836919" version="3" timestamp="2011-07-10T20:47:54Z" uid="81983" user="Ogmios" changeset="8688404" lat="49.4428868" lon="11.0831979">
    <tag k="addr:city" v="Nürnberg"/>
    <tag k="addr:country" v="DE"/>
    <tag k="addr:housenumber" v="20"/>
    <tag k="addr:postcode" v="90459"/>
    <tag k="addr:state" v="Bayern"/>
    <tag k="addr:street" v="Hummelsteiner Weg"/>
  </node>
  <node id="881836919" version="4" timestamp="2011-12-10T12:52:04Z" uid="71557" user="Taroc" changeset="10080691" lat="49.4428868" lon="11.0831979"/>
  <node id="881836922" version="1" timestamp="2010-08-27T07:06:25Z" uid="6975" user="ulfl" changeset="5604969" lat="49.4417846" lon="11.0848446">
    <tag k="addr:city" v="Nürnberg"/>
    <tag k="addr:housenumber" v="35"/>
    <tag k="addr:street" v="Hummelsteiner Weg"/>
  </node>
  <node id="881836922" version="2" timestamp="2010-11-01T00:05:36Z" uid="202858" user="kellerma" changeset="6249810" lat="49.4417846" lon="11.0848446">
    <tag k="addr:city" v="Nürnberg"/>
    <tag k="addr:country" v="DE"/>
    <tag k="addr:housenumber" v="35"/>
    <tag k="addr:postcode" v="90459"/>
    <tag k="addr:street" v="Hummelsteiner Weg"/>
  </node>
  <node id="881836922" version="3" timestamp="2011-12-11T09:16:10Z" uid="71557" user="Taroc" changeset="10087510" lat="49.4417846" lon="11.0848446"/>
  <node id="881836925" version="1" timestamp="2010-08-27T07:06:25Z" uid="6975" user="ulfl" changeset="5604969" lat="49.4426152" lon="11.0827394">
    <tag k="addr:city" v="Nürnberg"/>
    <tag k="addr:housenumber" v="87"/>
  </node>
  <node id="881836925" version="2" timestamp="2010-12-24T10:36:01Z" uid="133024" user="Universalmapper" changeset="6753300" lat="49.4426132" lon="11.0826421">
    <tag k="addr:city" v="Nürnberg"/>
    <tag k="addr:housenumber" v="82"/>
    <tag k="addr:street" v="Peter-Henlein-Straße"/>
  </node>
  <node id="881836925" version="3" timestamp="2011-07-10T20:47:55Z" uid="81983" user="Ogmios" changeset="8688404" lat="49.4426132" lon="11.0826421">
    <tag k="addr:city" v="Nürnberg"/>
    <tag k="addr:country" v="DE"/>
    <tag k="addr:housenumber" v="82"/>
    <tag k="addr:state" v="Bayern"/>
    <tag k="addr:street" v="Peter-Henlein-Straße"/>
  </node>
  <node id="881836925" version="4" timestamp="2011-12-10T12:52:04Z" uid="71557" user="Taroc" changeset="10080691" lat="49.4426132" lon="11.0826421"/>
  <node id="881836928" version="1" timestamp="2010-08-27T07:06:25Z" uid="6975" user="ulfl" changeset="5604969" lat="49.4403353" lon="11.0855505">
    <tag k="addr:city" v="Nürnberg"/>
    <tag k="addr:housenumber" v="51"/>
    <tag k="addr:street" v="Hummelsteiner Weg"/>
  </node>
  <node id="881836928" version="2" timestamp="2010-11-01T00:05:47Z" uid="202858" user="kellerma" changeset="6249810" lat="49.4403353" lon="11.0855505">
    <tag k="addr:city" v="Nürnberg"/>
    <tag k="addr:country" v="DE"/>
    <tag k="addr:housenumber" v="51"/>
    <tag k="addr:postcode" v="90459"/>
    <tag k="addr:street" v="Hummelsteiner Weg"/>
  </node>
  <node id="881836928" version="3" timestamp="2011-12-11T09:16:11Z" uid="71557" user="Taroc" changeset="10087510" lat="49.4403353" lon="11.0855505"/>
  <node id="881836933" version="1" timestamp="2010-08-27T07:06:26Z" uid="6975" user="ulfl" changeset="5604969" lat="49.4420949" lon="11.0838727">
    <tag k="addr:city" v="Nürnberg"/>
    <tag k="addr:housenumber" v="30"/>
    <tag k="addr:street" v="Hummelsteiner Weg"/>
  </node>
  <node id="881836933" version="2" timestamp="2011-12-10T12:52:04Z" uid="71557" user="Taroc" changeset="10080691" lat="49.4420949" lon="11.0838727"/>
  <node id="881836936" version="1" timestamp="2010-08-27T07:06:26Z" uid="6975" user="ulfl" changeset="5604969" lat="49.4404274" lon="11.0837534">
    <tag k="addr:city" v="Nürnberg"/>
    <tag k="addr:country" v="DE"/>
    <tag k="addr:housenumber" v="29"/>
    <tag k="addr:street" v="Bulmannstraße"/>
  </node>
  <node id="881836936" version="2" timestamp="2011-12-11T09:16:09Z" uid="71557" user="Taroc" changeset="10087510" lat="49.4404274" lon="11.0837534"/>
  <node id="881836939" version="1" timestamp="2010-08-27T07:06:26Z" uid="6975" user="ulfl" changeset="5604969" lat="49.4427263" lon="11.083327">
    <tag k="addr:city" v="Nürnberg"/>
    <tag k="addr:housenumber" v="22"/>
    <tag k="addr:street" v="Hummelsteiner Weg"/>
  </node>
  <node id="881836939" version="2" timestamp="2010-10-31T22:35:56Z" uid="202858" user="kellerma" changeset="6248671" lat="49.4427263" lon="11.083327">
    <tag k="addr:city" v="Nürnberg"/>
    <tag k="addr:country" v="DE"/>
    <tag k="addr:housenumber" v="22"/>
    <tag k="addr:postcode" v="90459"/>
    <tag k="addr:street" v="Hummelsteiner Weg"/>
  </node>
  <node id="881836939" version="3" timestamp="2011-07-10T20:47:54Z" uid="81983" user="Ogmios" changeset="8688404" lat="49.4427263" lon="11.083327">
    <tag k="addr:city" v="Nürnberg"/>
    <tag k="addr:country" v="DE"/>
    <tag k="addr:housenumber" v="22"/>
    <tag k="addr:postcode" v="90459"/>
    <tag k="addr:state" v="Bayern"/>
    <tag k="addr:street" v="Hummelsteiner Weg"/>
  </node>
  <node id="881836939" version="4" timestamp="2011-12-10T12:52:04Z" uid="71557" user="Taroc" changeset="10080691" lat="49.4427263" lon="11.083327"/>
</osm>
