<?xml version='1.0' encoding='UTF-8'?>
<osm version="0.6" generator="libosmium/2.20.0">
  <node id="88191305" version="1" timestamp="2007-10-26T19:06:10Z" uid="8619" user="cetest" changeset="322456" lat="51.9790953" lon="4.3700025">
    <tag k="created_by" v="JOSM"/>
    <tag k="power" v="tower"/>
  </node>
  <node id="88191305" version="2" timestamp="2008-01-02T15:05:51Z" uid="22422" user="SimonA" changeset="516354" lat="51.9790953" lon="4.3700025">
    <tag k="created_by" v="JOSM"/>
    <tag k="power" v="tower"/>
  </node>
  <node id="88191305" version="3" timestamp="2011-11-21T22:18:16Z" uid="36080" user="polderrunner" changeset="9902734" lat="51.9790953" lon="4.3700025"/>
  <node id="88191308" version="1" timestamp="2007-10-26T19:06:11Z" uid="8619" user="cetest" changeset="322456" lat="51.9763003" lon="4.3714319">
    <tag k="created_by" v="JOSM"/>
    <tag k="power" v="tower"/>
  </node>
  <node id="88191308" version="2" timestamp="2008-01-02T15:05:51Z" uid="22422" user="SimonA" changeset="516354" lat="51.9763003" lon="4.3714319">
    <tag k="created_by" v="JOSM"/>
    <tag k="power" v="tower"/>
  </node>
  <node id="88191308" version="3" timestamp="2011-11-21T22:18:17Z" uid="36080" user="polderrunner" changeset="9902734" lat="51.9763003" lon="4.3714319"/>
  <node id="88191331" version="1" timestamp="2007-10-26T19:06:14Z" uid="8619" user="cetest" changeset="322456" lat="51.9735376" lon="4.372917">
    <tag k="created_by" v="JOSM"/>
    <tag k="power" v="tower"/>
  </node>
  <node id="88191331" version="2" timestamp="2008-01-02T15:05:51Z" uid="22422" user="SimonA" changeset="516354" lat="51.9735376" lon="4.372917">
    <tag k="created_by" v="JOSM"/>
    <tag k="power" v="tower"/>
  </node>
  <node id="88191331" version="3" timestamp="2011-11-21T22:18:17Z" uid="36080" user="polderrunner" changeset="9902734" lat="51.9735376" lon="4.372917"/>
  <node id="88191746" version="8" timestamp="2008-09-06T12:48:32Z" uid="6975" user="ulfl" changeset="548423" lat="52.3621714" lon="9.7050657">
    <tag k="amenity" v="biergarten"/>
    <tag k="name" v="Lindener Turm"/>
  </node>
  <node id="88191746" version="9" timestamp="2009-01-25T01:14:03Z" uid="62451" user="cornettonuss" changeset="836738" lat="52.3621729" lon="9.7050609">
    <tag k="amenity" v="pub"/>
    <tag k="created_by" v="Potlatch 0.10f"/>
    <tag k="name" v="Lindener Turm"/>
  </node>
  <node id="88191746" version="10" timestamp="2009-02-10T09:46:49Z" uid="11850" user="cs_" changeset="328784" lat="52.3621728" lon="9.7050609">
    <tag k="addr:housenumber" v="29a"/>
    <tag k="addr:postcode" v="30449"/>
    <tag k="addr:street" v="Am Lindener Berge"/>
    <tag k="amenity" v="pub"/>
    <tag k="created_by" v="Merkaartor 0.12"/>
    <tag k="name" v="Lindener Turm"/>
  </node>
  <node id="88191746" version="11" timestamp="2010-05-03T13:03:48Z" uid="45263" user="Noframe" changeset="4594620" lat="52.3621728" lon="9.7050609">
    <tag k="addr:housenumber" v="29a"/>
    <tag k="addr:postcode" v="30449"/>
    <tag k="addr:street" v="Am Lindener Berge"/>
    <tag k="amenity" v="pub"/>
    <tag k="created_by" v="Merkaartor 0.12"/>
    <tag k="name" v="Lindener Turm"/>
  </node>
  <node id="88195727" version="5" timestamp="2010-10-26T16:31:52Z" uid="33382" user="de_muur" changeset="6184292" lat="53.4744515" lon="10.2056289"/>
  <node id="88195727" version="6" timestamp="2011-05-31T22:08:02Z" uid="161619" user="FvGordon" changeset="8306254" lat="53.4744046" lon="10.2055943"/>
  <node id="88195727" version="7" timestamp="2012-02-29T09:26:57Z" uid="46145" user="Jacques_N" changeset="10826121" lat="53.4744049" lon="10.2055975"/>
  <node id="88195727" version="8" timestamp="2012-03-10T09:28:47Z" uid="63375" user="Divjo" changeset="10929544" lat="53.4743975" lon="10.2055975"/>
  <node id="88195727" version="9" timestamp="2012-03-24T11:51:06Z" uid="52495" user="seawolff" changeset="11083482" lat="53.4743324" lon="10.2059741"/>
  <node id="88195730" version="5" timestamp="2010-10-26T16:32:00Z" uid="33382" user="de_muur" changeset="6184292" lat="53.4744184" lon="10.2061636"/>
  <node id="88195731" version="5" timestamp="2010-10-26T16:32:00Z" uid="33382" user="de_muur" changeset="6184292" lat="53.4744593" lon="10.2064983"/>
  <node id="88195734" version="5" timestamp="2010-10-26T16:31:56Z" uid="33382" user="de_muur" changeset="6184292" lat="53.4745714" lon="10.2069509"/>
  <node id="88195734" version="6" timestamp="2012-02-29T09:26:57Z" uid="46145" user="Jacques_N" changeset="10826121" lat="53.474572" lon="10.2069551"/>
  <node id="88195734" version="7" timestamp="2012-03-24T11:51:06Z" uid="52495" user="seawolff" changeset="11083482" lat="53.4743554" lon="10.2064506"/>
  <node id="88195738" version="5" timestamp="2010-10-26T16:31:52Z" uid="33382" user="de_muur" changeset="6184292" lat="53.4748476" lon="10.2070066"/>
  <node id="88195738" version="6" timestamp="2012-02-29T09:26:58Z" uid="46145" user="Jacques_N" changeset="10826121" lat="53.4748476" lon="10.2070066"/>
  <node id="88195740" version="5" timestamp="2010-10-26T16:31:56Z" uid="33382" user="de_muur" changeset="6184292" lat="53.4750549" lon="10.2068871"/>
  <node id="88195740" version="6" timestamp="2012-02-29T09:26:58Z" uid="46145" user="Jacques_N" changeset="10826121" lat="53.4750549" lon="10.2068871"/>
  <node id="88195743" version="3" timestamp="2008-05-17T15:28:39Z" uid="27600" user="Islanit" changeset="468393" lat="53.4751461" lon="10.2066905">
    <tag k="created_by" v="JOSM"/>
  </node>
  <node id="88195744" version="5" timestamp="2010-10-26T16:31:59Z" uid="33382" user="de_muur" changeset="6184292" lat="53.4752136" lon="10.2066564"/>
  <node id="88195744" version="6" timestamp="2012-02-29T09:26:58Z" uid="46145" user="Jacques_N" changeset="10826121" lat="53.4752136" lon="10.2066564"/>
  <node id="88195745" version="3" timestamp="2008-06-20T08:26:35Z" uid="27600" user="Islanit" changeset="229244" lat="53.4752203" lon="10.2059889">
    <tag k="created_by" v="JOSM"/>
  </node>
  <node id="88195745" version="4" timestamp="2008-09-22T22:21:06Z" uid="41512" user="Kuddl Klien" changeset="683557" lat="53.4753533" lon="10.2062752">
    <tag k="created_by" v="JOSM"/>
  </node>
  <node id="88195745" version="5" timestamp="2008-09-22T22:24:15Z" uid="41512" user="Kuddl Klien" changeset="683557" lat="53.4753124" lon="10.2060949">
    <tag k="created_by" v="JOSM"/>
  </node>
  <node id="88195745" version="6" timestamp="2010-02-05T12:14:00Z" uid="63375" user="Divjo" changeset="3797336" lat="53.4753124" lon="10.2060949"/>
  <node id="88195745" version="7" timestamp="2010-02-09T08:03:56Z" uid="63375" user="Divjo" changeset="3829732" lat="53.4753124" lon="10.2060949">
    <tag k="TMC:cid_58:tabcd_1:Direction" v="positive"/>
    <tag k="TMC:cid_58:tabcd_1:LocationCode" v="10679"/>
    <tag k="highway" v="motorway_junction"/>
    <tag k="name" v="Hamburg-Bergedorf"/>
    <tag k="ref" v="5"/>
  </node>
  <node id="88195745" version="8" timestamp="2010-02-09T19:11:08Z" uid="218283" user="TMCbot" changeset="3834976" lat="53.4753124" lon="10.2060949">
    <tag k="TMC:cid_58:tabcd_1:Class" v="Point"/>
    <tag k="TMC:cid_58:tabcd_1:Direction" v="positive"/>
    <tag k="TMC:cid_58:tabcd_1:LCLversion" v="8.00"/>
    <tag k="TMC:cid_58:tabcd_1:LocationCode" v="10679"/>
    <tag k="TMC:cid_58:tabcd_1:NextLocationCode" v="10680"/>
    <tag k="TMC:cid_58:tabcd_1:PrevLocationCode" v="10678"/>
    <tag k="highway" v="motorway_junction"/>
    <tag k="name" v="Hamburg-Bergedorf"/>
    <tag k="ref" v="5"/>
  </node>
  <node id="88195745" version="9" timestamp="2010-10-26T16:31:51Z" uid="33382" user="de_muur" changeset="6184292" lat="53.4752713" lon="10.2057758">
    <tag k="TMC:cid_58:tabcd_1:Class" v="Point"/>
    <tag k="TMC:cid_58:tabcd_1:Direction" v="positive"/>
    <tag k="TMC:cid_58:tabcd_1:LCLversion" v="8.00"/>
    <tag k="TMC:cid_58:tabcd_1:LocationCode" v="10679"/>
    <tag k="TMC:cid_58:tabcd_1:NextLocationCode" v="10680"/>
    <tag k="TMC:cid_58:tabcd_1:PrevLocationCode" v="10678"/>
    <tag k="highway" v="motorway_junction"/>
    <tag k="name" v="Hamburg-Bergedorf"/>
    <tag k="ref" v="5"/>
  </node>
  <node id="88195745" version="10" timestamp="2012-03-12T08:40:52Z" uid="63375" user="Divjo" changeset="10952119" lat="53.4752713" lon="10.2057758"/>
  <node id="88195749" version="5" timestamp="2010-10-26T16:32:00Z" uid="33382" user="de_muur" changeset="6184292" lat="53.4750621" lon="10.2047817"/>
  <node id="88199919" version="5" timestamp="2009-01-05T13:47:42Z" uid="58091" user="Andreas M" changeset="740529" lat="48.1541913" lon="16.3822827">
    <tag k="highway" v="traffic_signals"/>
    <tag k="name" v="Alaudagasse"/>
    <tag k="railway" v="tram_stop"/>
  </node>
  <node id="88199919" version="6" timestamp="2011-01-08T22:54:29Z" uid="283266" user="Edmund_Humenberger" changeset="6910147" lat="48.1542352" lon="16.3822588">
    <tag k="highway" v="traffic_signals"/>
    <tag k="name" v="Alaudagasse"/>
    <tag k="railway" v="tram_stop"/>
  </node>
  <node id="88199919" version="7" timestamp="2011-10-02T20:33:05Z" uid="99692" user="that" changeset="9454938" lat="48.154238" lon="16.3822195">
    <tag k="highway" v="traffic_signals"/>
    <tag k="name" v="Alaudagasse"/>
    <tag k="railway" v="tram_stop"/>
  </node>
  <node id="88199919" version="8" timestamp="2011-11-11T14:55:20Z" uid="137798" user="HellSpawn" changeset="9797011" lat="48.154238" lon="16.3821665">
    <tag k="highway" v="traffic_signals"/>
    <tag k="name" v="Alaudagasse"/>
    <tag k="railway" v="tram_stop"/>
  </node>
  <node id="88199919" version="9" timestamp="2012-02-13T22:04:15Z" uid="283266" user="Edmund_Humenberger" changeset="10678270" lat="48.1542549" lon="16.3820429">
    <tag k="highway" v="traffic_signals"/>
    <tag k="name" v="Alaudagasse"/>
    <tag k="railway" v="tram_stop"/>
  </node>
  <node id="88199919" version="10" timestamp="2012-03-20T11:45:27Z" uid="283266" user="Edmund_Humenberger" changeset="11040323" lat="48.1542532" lon="16.3818979">
    <tag k="highway" v="traffic_signals"/>
    <tag k="name" v="Alaudagasse"/>
    <tag k="railway" v="tram_stop"/>
  </node>
  <node id="88195734" version="8" timestamp="2012-08-07T21:41:27Z" uid="349191" user="Glühwürmchen" changeset="12651243" lat="53.474358" lon="10.2064273"/>
  <node id="88199919" version="11" timestamp="2012-07-16T23:38:26Z" uid="722137" user="OSMF Redaction Account" changeset="12253586" lat="48.1542532" lon="16.3818979">
    <tag k="highway" v="traffic_signals"/>
  </node>
  <node id="88199919" version="12" timestamp="2012-08-04T05:08:52Z" uid="129531" user="almich" changeset="12605189" lat="48.1542532" lon="16.3818979">
    <tag k="highway" v="traffic_signals"/>
    <tag k="name" v="Alaudagasse"/>
    <tag k="railway" v="tram_stop"/>
  </node>
</osm>
