<?xml version='1.0' encoding='UTF-8'?>
<osm version="0.6" generator="libosmium/2.20.0">
  <node id="893371881" version="2" timestamp="2010-10-16T16:08:17Z" uid="34428" user="usm78-gis" changeset="6059028" lat="60.5242192" lon="29.6392751"/>
  <node id="893372132" version="2" timestamp="2010-10-26T06:23:26Z" uid="10712" user="Kraeml" changeset="6179315" lat="49.4633773" lon="11.1006974">
    <tag k="addr:city" v="Nürnberg"/>
    <tag k="addr:country" v="DE"/>
    <tag k="addr:housenumber" v="11"/>
    <tag k="addr:postcode" v="90491"/>
    <tag k="addr:street" v="Bismarckstraße"/>
    <tag k="amenity" v="restaurant"/>
    <tag k="cuisine" v="seafood"/>
    <tag k="email" v="halbmair@arcor.de"/>
    <tag k="fax" v="+49 911 5819845"/>
    <tag k="name" v="Fisch Halbmair"/>
    <tag k="opening_hours" v="Mo,Sa 08:00-14:00; Tu-Fr 08:00-18:00"/>
    <tag k="phone" v="+49 911 550627"/>
    <tag k="website" v="http://www.fisch-halbmair.de/"/>
  </node>
  <node id="893372132" version="3" timestamp="2010-10-26T06:30:49Z" uid="10712" user="Kraeml" changeset="6179349" lat="49.4633773" lon="11.1006974">
    <tag k="addr:city" v="Nürnberg"/>
    <tag k="addr:country" v="DE"/>
    <tag k="addr:housenumber" v="11"/>
    <tag k="addr:postcode" v="90491"/>
    <tag k="addr:street" v="Bismarckstraße"/>
    <tag k="amenity" v="restaurant"/>
    <tag k="cuisine" v="seafood"/>
    <tag k="email" v="halbmair@arcor.de"/>
    <tag k="fax" v="+49 911 5819845"/>
    <tag k="name" v="Fisch Halbmair"/>
    <tag k="opening_hours" v="Mo 8-14;Tu-Fr 8-18;Su 8-13"/>
    <tag k="phone" v="+49 911 550627"/>
    <tag k="website" v="http://www.fisch-halbmair.de/"/>
  </node>
  <node id="893372132" version="4" timestamp="2010-10-26T06:32:40Z" uid="10712" user="Kraeml" changeset="6179360" lat="49.4633773" lon="11.1006974">
    <tag k="addr:city" v="Nürnberg"/>
    <tag k="addr:country" v="DE"/>
    <tag k="addr:housenumber" v="11"/>
    <tag k="addr:postcode" v="90491"/>
    <tag k="addr:street" v="Bismarckstraße"/>
    <tag k="amenity" v="restaurant"/>
    <tag k="cuisine" v="seafood"/>
    <tag k="email" v="halbmair@arcor.de"/>
    <tag k="fax" v="+49 911 5819845"/>
    <tag k="name" v="Fisch Halbmair"/>
    <tag k="opening_hours" v="Mo 8-14; Tu-Fr 8-18; Su 8-13"/>
    <tag k="phone" v="+49 911 550627"/>
    <tag k="website" v="http://www.fisch-halbmair.de/"/>
  </node>
  <node id="893372132" version="5" timestamp="2010-11-26T19:06:15Z" uid="202858" user="kellerma" changeset="6464331" lat="49.4633773" lon="11.1006974">
    <tag k="addr:city" v="Nürnberg"/>
    <tag k="addr:country" v="DE"/>
    <tag k="addr:housenumber" v="11"/>
    <tag k="addr:postcode" v="90491"/>
    <tag k="addr:street" v="Bismarckstraße"/>
    <tag k="amenity" v="restaurant"/>
    <tag k="cuisine" v="seafood"/>
    <tag k="email" v="halbmair@arcor.de"/>
    <tag k="fax" v="+49 911 5819845"/>
    <tag k="name" v="Fisch Halbmair"/>
    <tag k="opening_hours" v="Mo 08:00-14:00; Tu-Fr 08:00-18:00; Sa 08:00-13:00"/>
    <tag k="phone" v="+49 911 550627"/>
    <tag k="website" v="http://www.fisch-halbmair.de/"/>
  </node>
  <node id="893372132" version="6" timestamp="2011-10-30T10:50:06Z" uid="346758" user="kukuk" changeset="9692357" lat="49.4634344" lon="11.1006472">
    <tag k="addr:city" v="Nürnberg"/>
    <tag k="addr:country" v="DE"/>
    <tag k="addr:housenumber" v="11"/>
    <tag k="addr:postcode" v="90491"/>
    <tag k="addr:street" v="Bismarckstraße"/>
    <tag k="amenity" v="restaurant"/>
    <tag k="cuisine" v="seafood"/>
    <tag k="email" v="halbmair@arcor.de"/>
    <tag k="fax" v="+49 911 5819845"/>
    <tag k="name" v="Fisch Halbmair"/>
    <tag k="opening_hours" v="Mo 08:00-14:00; Tu-Fr 08:00-18:00; Sa 08:00-13:00"/>
    <tag k="phone" v="+49 911 550627"/>
    <tag k="website" v="http://www.fisch-halbmair.de/"/>
  </node>
  <node id="893372132" version="7" timestamp="2011-12-28T17:18:43Z" uid="290680" user="wheelmap_visitor" changeset="10222046" lat="49.4634344" lon="11.1006472">
    <tag k="addr:city" v="Nürnberg"/>
    <tag k="addr:country" v="DE"/>
    <tag k="addr:housenumber" v="11"/>
    <tag k="addr:postcode" v="90491"/>
    <tag k="addr:street" v="Bismarckstraße"/>
    <tag k="amenity" v="restaurant"/>
    <tag k="cuisine" v="seafood"/>
    <tag k="email" v="halbmair@arcor.de"/>
    <tag k="fax" v="+49 911 5819845"/>
    <tag k="name" v="Fisch Halbmair"/>
    <tag k="opening_hours" v="Mo 08:00-14:00; Tu-Fr 08:00-18:00; Sa 08:00-13:00"/>
    <tag k="phone" v="+49 911 550627"/>
    <tag k="website" v="http://www.fisch-halbmair.de/"/>
    <tag k="wheelchair" v="no"/>
  </node>
  <node id="893372132" version="8" timestamp="2012-01-07T02:37:56Z" uid="71557" user="Taroc" changeset="10318022" lat="49.4634344" lon="11.1006472"/>
</osm>
