<?xml version='1.0' encoding='UTF-8'?>
<osm version="0.6" generator="libosmium/2.20.0">
  <node id="89381715" version="4" timestamp="2009-02-01T18:53:42Z" uid="6975" user="ulfl" changeset="27333" lat="51.2662348" lon="6.5436289">
    <tag k="crossing" v="island"/>
    <tag k="crossing_ref" v="zebra"/>
    <tag k="railway" v="level_crossing"/>
  </node>
  <node id="89381715" version="5" timestamp="2009-09-28T09:17:01Z" uid="51324" user="OPerivar" changeset="2662310" lat="51.2662348" lon="6.5436289">
    <tag k="crossing" v="island"/>
    <tag k="crossing_ref" v="zebra"/>
    <tag k="highway" v="crossing"/>
  </node>
  <node id="89381715" version="6" timestamp="2010-04-23T17:34:06Z" uid="109925" user="WanMil" changeset="4505267" lat="51.2662307" lon="6.5436251">
    <tag k="crossing" v="island"/>
    <tag k="crossing_ref" v="zebra"/>
    <tag k="highway" v="crossing"/>
  </node>
  <node id="89381715" version="7" timestamp="2011-02-20T11:59:15Z" uid="139501" user="Speichenquäler" changeset="7341301" lat="51.2662142" lon="6.5436149">
    <tag k="crossing" v="island"/>
    <tag k="crossing_ref" v="zebra"/>
    <tag k="highway" v="crossing"/>
  </node>
  <node id="89381715" version="8" timestamp="2011-07-05T17:26:59Z" uid="80537" user="Dr S Görg" changeset="8641019" lat="51.2661862" lon="6.5436366">
    <tag k="crossing_ref" v="zebra"/>
    <tag k="highway" v="crossing"/>
  </node>
  <node id="89382274" version="1" timestamp="2007-10-27T21:22:36Z" uid="16587" user="a1e" changeset="332348" lat="53.1457404" lon="8.2104973">
    <tag k="amenity" v="bank"/>
    <tag k="created_by" v="JOSM"/>
    <tag k="name" v="Sparda-Bank"/>
  </node>
  <node id="89382274" version="3" timestamp="2007-11-02T21:55:00Z" uid="8931" user="bluepup" changeset="387882" lat="53.1457441" lon="8.2104871">
    <tag k="amenity" v="bank"/>
    <tag k="created_by" v="Potlatch 0.4c"/>
    <tag k="name" v="Sparda-Bank"/>
  </node>
  <node id="89382274" version="4" timestamp="2007-11-04T11:47:18Z" uid="13367" user="nubok" changeset="406957" lat="53.1457441" lon="8.2104915">
    <tag k="amenity" v="bank"/>
    <tag k="created_by" v="Potlatch 0.4c"/>
    <tag k="name" v="Sparda-Bank"/>
  </node>
  <node id="89382274" version="5" timestamp="2007-11-04T11:48:09Z" uid="13367" user="nubok" changeset="406957" lat="53.1457461" lon="8.2104913">
    <tag k="amenity" v="bank"/>
    <tag k="created_by" v="Potlatch 0.4c"/>
    <tag k="name" v="Sparda-Bank"/>
  </node>
  <node id="89382274" version="6" timestamp="2008-11-19T20:13:35Z" uid="16085" user="artus70" changeset="770575" lat="53.1457814" lon="8.2106059">
    <tag k="amenity" v="bank"/>
    <tag k="created_by" v="Potlatch 0.4c"/>
    <tag k="name" v="Sparda-Bank"/>
  </node>
  <node id="89382274" version="7" timestamp="2009-05-27T00:32:07Z" uid="20622" user="Sebastian Reichel" changeset="1330324" lat="53.1457814" lon="8.2106059">
    <tag k="addr:city" v="Oldenburg"/>
    <tag k="addr:housenumber" v="45"/>
    <tag k="addr:street" v="Peterstraße"/>
    <tag k="amenity" v="bank"/>
    <tag k="atm" v="yes"/>
    <tag k="created_by" v="Potlatch 0.4c"/>
    <tag k="name" v="Sparda Oldenburg (Peterstraße)"/>
    <tag k="opening_hours" v="Mo 08:30-16:00; Tu 08:30-18:00; We 08:30-16:00; Th 08:30-18:00; Fr 08:30-14:00"/>
    <tag k="operator" v="Sparda Bank Münster"/>
  </node>
  <node id="89382274" version="8" timestamp="2009-05-27T00:32:26Z" uid="20622" user="Sebastian Reichel" changeset="1330325" lat="53.1457814" lon="8.2106059">
    <tag k="addr:city" v="Oldenburg"/>
    <tag k="addr:housenumber" v="45"/>
    <tag k="addr:postcode" v="26121"/>
    <tag k="addr:street" v="Peterstraße"/>
    <tag k="amenity" v="bank"/>
    <tag k="atm" v="yes"/>
    <tag k="created_by" v="Potlatch 0.4c"/>
    <tag k="name" v="Sparda Oldenburg (Peterstraße)"/>
    <tag k="opening_hours" v="Mo 08:30-16:00; Tu 08:30-18:00; We 08:30-16:00; Th 08:30-18:00; Fr 08:30-14:00"/>
    <tag k="operator" v="Sparda Bank Münster"/>
  </node>
  <node id="89382274" version="9" timestamp="2010-11-11T22:13:00Z" uid="290680" user="wheelmap_visitor" changeset="6341475" lat="53.1457814" lon="8.2106059">
    <tag k="addr:city" v="Oldenburg"/>
    <tag k="addr:housenumber" v="45"/>
    <tag k="addr:postcode" v="26121"/>
    <tag k="addr:street" v="Peterstraße"/>
    <tag k="amenity" v="bank"/>
    <tag k="atm" v="yes"/>
    <tag k="created_by" v="Potlatch 0.4c"/>
    <tag k="name" v="Sparda Oldenburg (Peterstraße)"/>
    <tag k="opening_hours" v="Mo 08:30-16:00; Tu 08:30-18:00; We 08:30-16:00; Th 08:30-18:00; Fr 08:30-14:00"/>
    <tag k="operator" v="Sparda Bank Münster"/>
    <tag k="wheelchair" v="yes"/>
  </node>
  <node id="89382274" version="10" timestamp="2010-11-11T22:13:01Z" uid="304900" user="rdhde" changeset="6347274" lat="53.1457814" lon="8.2106059">
    <tag k="addr:city" v="Oldenburg"/>
    <tag k="addr:housenumber" v="45"/>
    <tag k="addr:postcode" v="26121"/>
    <tag k="addr:street" v="Peterstraße"/>
    <tag k="amenity" v="bank"/>
    <tag k="atm" v="yes"/>
    <tag k="created_by" v="Potlatch 0.4c"/>
    <tag k="name" v="Sparda Oldenburg (Peterstraße)"/>
    <tag k="opening_hours" v="Mo 08:30-16:00; Tu 08:30-18:00; We 08:30-16:00; Th 08:30-18:00; Fr 08:30-14:00"/>
    <tag k="operator" v="Sparda Bank Münster"/>
    <tag k="wheelchair" v="unknown"/>
  </node>
  <node id="89382274" version="11" timestamp="2011-12-29T09:52:52Z" uid="290680" user="wheelmap_visitor" changeset="10232645" lat="53.1457814" lon="8.2106059">
    <tag k="addr:city" v="Oldenburg"/>
    <tag k="addr:housenumber" v="45"/>
    <tag k="addr:postcode" v="26121"/>
    <tag k="addr:street" v="Peterstraße"/>
    <tag k="amenity" v="bank"/>
    <tag k="atm" v="yes"/>
    <tag k="created_by" v="Potlatch 0.4c"/>
    <tag k="name" v="Sparda Oldenburg (Peterstraße)"/>
    <tag k="opening_hours" v="Mo 08:30-16:00; Tu 08:30-18:00; We 08:30-16:00; Th 08:30-18:00; Fr 08:30-14:00"/>
    <tag k="operator" v="Sparda Bank Münster"/>
    <tag k="wheelchair" v="limited"/>
  </node>
  <node id="89386201" version="2" timestamp="2009-07-27T19:15:49Z" uid="9581" user="Lobelt" changeset="1958855" lat="52.7217254" lon="10.7324818">
    <tag k="created_by" v="JOSM"/>
  </node>
  <node id="89386214" version="3" timestamp="2010-05-09T17:45:31Z" uid="9581" user="Lobelt" changeset="4651585" lat="52.7075613" lon="10.7153991"/>
  <node id="89386219" version="2" timestamp="2010-05-09T17:45:31Z" uid="9581" user="Lobelt" changeset="4651585" lat="52.7048879" lon="10.711658"/>
  <node id="89386221" version="2" timestamp="2010-05-09T17:45:31Z" uid="9581" user="Lobelt" changeset="4651585" lat="52.7043355" lon="10.7113024"/>
  <node id="89386229" version="4" timestamp="2010-05-09T19:21:15Z" uid="9581" user="Lobelt" changeset="4653013" lat="52.6811472" lon="10.7015455"/>
  <node id="89386229" version="5" timestamp="2012-03-05T19:48:56Z" uid="71226" user="Verirrt im Wald" changeset="10883530" lat="52.6811472" lon="10.7015455"/>
  <node id="89386235" version="6" timestamp="2010-05-09T19:21:15Z" uid="9581" user="Lobelt" changeset="4653013" lat="52.6789769" lon="10.7025839">
    <tag k="highway" v="traffic_signals"/>
  </node>
  <node id="89386235" version="7" timestamp="2011-02-17T23:03:32Z" uid="39457" user="Markus59" changeset="7318489" lat="52.6789971" lon="10.7026571">
    <tag k="highway" v="traffic_signals"/>
  </node>
  <node id="89386245" version="5" timestamp="2010-05-09T19:21:13Z" uid="9581" user="Lobelt" changeset="4653013" lat="52.6762623" lon="10.6999423">
    <tag k="name" v="Knesebeck"/>
    <tag k="place" v="village"/>
    <tag k="population" v="3000"/>
  </node>
  <node id="89386248" version="3" timestamp="2010-05-09T19:21:13Z" uid="9581" user="Lobelt" changeset="4653013" lat="52.6785798" lon="10.6992413"/>
  <node id="89386253" version="3" timestamp="2010-05-09T19:21:13Z" uid="9581" user="Lobelt" changeset="4653013" lat="52.6745367" lon="10.6910584"/>
  <node id="89386257" version="5" timestamp="2010-05-09T19:21:13Z" uid="9581" user="Lobelt" changeset="4653013" lat="52.6715182" lon="10.685603"/>
  <node id="89386266" version="6" timestamp="2010-05-09T19:21:13Z" uid="9581" user="Lobelt" changeset="4653013" lat="52.6649513" lon="10.6793719"/>
  <node id="89386269" version="4" timestamp="2010-05-09T19:21:12Z" uid="9581" user="Lobelt" changeset="4653013" lat="52.6565143" lon="10.6701402"/>
  <node id="89386270" version="3" timestamp="2010-05-09T19:21:12Z" uid="9581" user="Lobelt" changeset="4653013" lat="52.6517654" lon="10.6656155"/>
  <node id="89386271" version="3" timestamp="2010-05-09T19:21:12Z" uid="9581" user="Lobelt" changeset="4653013" lat="52.6438068" lon="10.6519178">
    <tag k="name" v="Vorhop"/>
    <tag k="traffic_sign" v="city_limit"/>
  </node>
  <node id="89386274" version="2" timestamp="2010-05-09T19:21:12Z" uid="9581" user="Lobelt" changeset="4653013" lat="52.6392781" lon="10.6448352"/>
  <node id="89386276" version="4" timestamp="2010-05-09T19:21:12Z" uid="9581" user="Lobelt" changeset="4653013" lat="52.6304749" lon="10.6351791"/>
  <node id="89386474" version="10" timestamp="2009-02-01T18:53:42Z" uid="6975" user="ulfl" changeset="27333" lat="51.2664408" lon="6.543401">
    <tag k="crossing" v="island"/>
    <tag k="crossing_ref" v="zebra"/>
    <tag k="railway" v="level_crossing"/>
  </node>
  <node id="89386474" version="11" timestamp="2009-09-28T09:17:02Z" uid="51324" user="OPerivar" changeset="2662310" lat="51.2664427" lon="6.5433741">
    <tag k="crossing" v="island"/>
    <tag k="crossing_ref" v="zebra"/>
    <tag k="highway" v="crossing"/>
  </node>
  <node id="89386474" version="12" timestamp="2011-02-20T11:59:16Z" uid="139501" user="Speichenquäler" changeset="7341301" lat="51.2664428" lon="6.5434232">
    <tag k="crossing" v="island"/>
    <tag k="crossing_ref" v="zebra"/>
    <tag k="highway" v="crossing"/>
  </node>
  <node id="89386474" version="13" timestamp="2011-07-05T17:27:00Z" uid="80537" user="Dr S Görg" changeset="8641019" lat="51.2664878" lon="6.5434232">
    <tag k="crossing_ref" v="zebra"/>
    <tag k="highway" v="crossing"/>
  </node>
  <node id="89388127" version="2" timestamp="2008-09-30T00:22:12Z" uid="1066" user="pavel" changeset="720263" lat="50.2540624" lon="14.1609531">
    <tag k="is_in" v="Czech Republic, Europe"/>
    <tag k="name" v="Luníkov"/>
    <tag k="place" v="village"/>
  </node>
  <node id="89388127" version="3" timestamp="2008-11-04T13:21:19Z" uid="308" user="MichaelCollinson" changeset="676656" lat="50.2540624" lon="14.1609531">
    <tag k="is_in" v="Czech Republic, Europe"/>
    <tag k="is_in:continent" v="Europe"/>
    <tag k="is_in:country_code" v="cz"/>
    <tag k="name" v="Luníkov"/>
    <tag k="place" v="village"/>
  </node>
  <node id="89388127" version="4" timestamp="2012-01-22T01:43:32Z" uid="536216" user="uir-zsj" changeset="10461410" lat="50.2540624" lon="14.1609531"/>
  <node id="89386201" version="3" timestamp="2012-07-18T19:16:17Z" uid="722137" user="OSMF Redaction Account" changeset="12294366" lat="52.7217667" lon="10.7322843"/>
  <node id="89386201" version="4" timestamp="2012-08-02T06:55:35Z" uid="9168" user="Thomas Krüger" changeset="12581890" lat="52.7197176" lon="10.7304378"/>
  <node id="89386214" version="4" timestamp="2012-07-18T19:16:16Z" uid="722137" user="OSMF Redaction Account" changeset="12294366" lat="52.706809" lon="10.7141146"/>
  <node id="89386219" version="3" timestamp="2012-07-18T19:16:16Z" uid="722137" user="OSMF Redaction Account" changeset="12294366" lat="52.7047529" lon="10.711267"/>
  <node id="89386221" version="3" timestamp="2012-07-18T19:16:16Z" uid="722137" user="OSMF Redaction Account" changeset="12294366" lat="52.7033389" lon="10.7106173"/>
  <node id="89386248" version="4" timestamp="2012-07-18T19:16:15Z" uid="722137" user="OSMF Redaction Account" changeset="12294366" lat="52.6786064" lon="10.6990221"/>
  <node id="89386253" version="4" timestamp="2012-07-18T19:16:14Z" uid="722137" user="OSMF Redaction Account" changeset="12294366" lat="52.6745677" lon="10.6910292"/>
  <node id="89386257" version="6" timestamp="2012-07-18T19:18:45Z" uid="722137" user="OSMF Redaction Account" changeset="12294457" lat="52.6715138" lon="10.6854349"/>
  <node id="89386266" version="7" timestamp="2012-07-18T19:18:45Z" uid="722137" user="OSMF Redaction Account" changeset="12294457" lat="52.6649375" lon="10.6795318"/>
  <node id="89386269" version="5" timestamp="2012-07-18T19:18:45Z" uid="722137" user="OSMF Redaction Account" changeset="12294457" lat="52.6563827" lon="10.6697292"/>
  <node id="89386270" version="4" timestamp="2012-07-18T19:18:45Z" uid="722137" user="OSMF Redaction Account" changeset="12294457" lat="52.6518554" lon="10.6656155"/>
  <node id="89386271" version="4" timestamp="2012-04-12T18:49:36Z" uid="38286" user="t_u_b_o" changeset="11279795" lat="52.6438079" lon="10.6518986">
    <tag k="name" v="Vorhop"/>
    <tag k="traffic_sign" v="city_limit"/>
  </node>
  <node id="89386271" version="5" timestamp="2012-07-18T19:18:45Z" uid="722137" user="OSMF Redaction Account" changeset="12294457" lat="52.6438079" lon="10.6518986"/>
  <node id="89386274" version="3" timestamp="2012-07-18T19:18:45Z" uid="722137" user="OSMF Redaction Account" changeset="12294457" lat="52.6397423" lon="10.6455089"/>
  <node id="89386276" version="5" timestamp="2012-05-28T06:54:11Z" uid="333167" user="biker@gf" changeset="11723039" lat="52.6304603" lon="10.6351581"/>
</osm>
