<?xml version='1.0' encoding='UTF-8'?>
<osm version="0.6" generator="libosmium/2.20.0">
  <node id="903498785" version="1" timestamp="2010-09-08T20:37:33Z" uid="6975" user="ulfl" changeset="5727872" lat="47.9970265" lon="7.8504016">
    <tag k="name" v="Das Landkartenhaus Freiburg"/>
    <tag k="shop" v="books"/>
  </node>
  <node id="903498785" version="2" timestamp="2010-09-08T21:05:50Z" uid="6975" user="ulfl" changeset="5728183" lat="47.9970265" lon="7.8504016">
    <tag k="addr:city" v="Freiburg im Breisgau"/>
    <tag k="addr:country" v="DE"/>
    <tag k="addr:housenumber" v="6"/>
    <tag k="addr:postcode" v="79098"/>
    <tag k="addr:street" v="Schiffstraße"/>
    <tag k="name" v="Das Landkartenhaus Freiburg"/>
    <tag k="phone" v="0761 23908"/>
    <tag k="shop" v="books"/>
    <tag k="website" v="www.das-landkartenhaus.de"/>
  </node>
  <node id="903498785" version="3" timestamp="2011-03-10T08:53:53Z" uid="164883" user="blan" changeset="7511901" lat="47.9970265" lon="7.8504016">
    <tag k="addr:city" v="Freiburg im Breisgau"/>
    <tag k="addr:country" v="DE"/>
    <tag k="addr:housenumber" v="6"/>
    <tag k="addr:postcode" v="79098"/>
    <tag k="addr:street" v="Schiffstraße"/>
    <tag k="contact:email" v="info@das-landkartenhaus.de"/>
    <tag k="contact:phone" v="+49 761 23908"/>
    <tag k="contact:website" v="http://www.das-landkartenhaus.de/"/>
    <tag k="name" v="Das Landkartenhaus Freiburg"/>
    <tag k="opening_hours" v="Mo-Fr 09:30-19:00; Sa 09:30-18:00"/>
    <tag k="shop" v="books"/>
  </node>
  <node id="903498785" version="4" timestamp="2011-04-29T16:11:38Z" uid="164883" user="blan" changeset="8004722" lat="47.9970205" lon="7.8505493">
    <tag k="addr:city" v="Freiburg im Breisgau"/>
    <tag k="addr:country" v="DE"/>
    <tag k="addr:housenumber" v="6"/>
    <tag k="addr:postcode" v="79098"/>
    <tag k="addr:street" v="Schiffstraße"/>
    <tag k="contact:email" v="info@das-landkartenhaus.de"/>
    <tag k="contact:phone" v="+49 761 23908"/>
    <tag k="contact:website" v="http://www.das-landkartenhaus.de/"/>
    <tag k="name" v="Das Landkartenhaus Freiburg"/>
    <tag k="opening_hours" v="Mo-Fr 09:30-19:00; Sa 09:30-18:00"/>
    <tag k="shop" v="books"/>
  </node>
  <node id="903498785" version="5" timestamp="2012-01-17T22:53:53Z" uid="11374" user="q_un_go" changeset="10423190" lat="47.9970205" lon="7.8505493"/>
</osm>
