<?xml version='1.0' encoding='UTF-8'?>
<osm version="0.6" generator="libosmium/2.20.0">
  <node id="904315691" version="1" timestamp="2010-09-09T18:18:10Z" uid="115477" user="wowik" changeset="5734979" lat="54.9264582" lon="20.3641139">
    <tag k="name" v="Сокольники"/>
    <tag k="place" v="hamlet"/>
  </node>
  <node id="904315691" version="2" timestamp="2010-09-09T18:39:27Z" uid="115477" user="wowik" changeset="5735128" lat="54.9273939" lon="20.3970527">
    <tag k="name" v="Сокольники"/>
    <tag k="place" v="hamlet"/>
  </node>
  <node id="904316715" version="1" timestamp="2010-09-09T18:19:11Z" uid="43967" user="railsnail" changeset="5734991" lat="40.4891763" lon="18.0007022">
    <tag k="name" v="San Pietro Vernotico"/>
    <tag k="railway" v="station"/>
  </node>
  <node id="904316715" version="2" timestamp="2011-05-28T15:10:11Z" uid="12473" user="mikelima" changeset="8272678" lat="40.4891763" lon="18.0007022">
    <tag k="name" v="San Pietro Vernotico"/>
    <tag k="operator" v="RFI"/>
    <tag k="railway" v="station"/>
  </node>
  <node id="904316715" version="3" timestamp="2011-11-02T22:05:16Z" uid="65798" user="Mich74" changeset="9726307" lat="40.489161" lon="18.000647">
    <tag k="name" v="San Pietro Vernotico"/>
    <tag k="operator" v="RFI"/>
    <tag k="railway" v="station"/>
  </node>
  <node id="904316717" version="1" timestamp="2010-09-09T18:19:11Z" uid="43967" user="railsnail" changeset="5734991" lat="40.4394046" lon="18.0457962">
    <tag k="name" v="Squinzano"/>
    <tag k="railway" v="station"/>
  </node>
  <node id="904316717" version="2" timestamp="2011-05-28T15:10:09Z" uid="12473" user="mikelima" changeset="8272678" lat="40.4394233" lon="18.0458477">
    <tag k="name" v="Squinzano"/>
    <tag k="operator" v="RFI"/>
    <tag k="railway" v="station"/>
  </node>
  <node id="904316719" version="1" timestamp="2010-09-09T18:19:11Z" uid="43967" user="railsnail" changeset="5734991" lat="40.4099438" lon="18.076757">
    <tag k="name" v="Trepuzzi"/>
    <tag k="railway" v="station"/>
  </node>
  <node id="904316719" version="2" timestamp="2010-09-14T11:25:22Z" uid="113023" user="glaucos" changeset="5777587" lat="40.4099167" lon="18.0766241">
    <tag k="name" v="Trepuzzi"/>
    <tag k="railway" v="station"/>
  </node>
  <node id="904316719" version="3" timestamp="2011-05-28T15:10:08Z" uid="12473" user="mikelima" changeset="8272678" lat="40.4099167" lon="18.0766241">
    <tag k="name" v="Trepuzzi"/>
    <tag k="operator" v="RFI"/>
    <tag k="railway" v="station"/>
  </node>
  <node id="904318587" version="1" timestamp="2010-09-09T18:21:46Z" uid="43967" user="railsnail" changeset="5735015" lat="40.737358" lon="17.6835181">
    <tag k="name" v="Carovigno"/>
    <tag k="railway" v="station"/>
  </node>
  <node id="904318587" version="2" timestamp="2011-05-28T15:19:44Z" uid="12473" user="mikelima" changeset="8272773" lat="40.737358" lon="17.6835181">
    <tag k="name" v="Carovigno"/>
    <tag k="operator" v="RFI"/>
    <tag k="railway" v="station"/>
  </node>
  <node id="904318588" version="1" timestamp="2010-09-09T18:21:46Z" uid="43967" user="railsnail" changeset="5735015" lat="40.7523958" lon="17.5804399">
    <tag k="name" v="Ostuni"/>
    <tag k="railway" v="station"/>
  </node>
  <node id="904318588" version="2" timestamp="2011-05-28T15:19:44Z" uid="12473" user="mikelima" changeset="8272773" lat="40.7523958" lon="17.5804399">
    <tag k="name" v="Ostuni"/>
    <tag k="operator" v="RFI"/>
    <tag k="railway" v="station"/>
  </node>
  <node id="904319168" version="1" timestamp="2010-09-09T18:23:34Z" uid="43967" user="railsnail" changeset="5735025" lat="40.8162285" lon="17.4564912">
    <tag k="name" v="Cisternino"/>
    <tag k="railway" v="station"/>
  </node>
  <node id="904319168" version="2" timestamp="2011-05-28T15:19:42Z" uid="12473" user="mikelima" changeset="8272773" lat="40.8165314" lon="17.4568514">
    <tag k="name" v="Cisternino"/>
    <tag k="operator" v="RFI"/>
    <tag k="railway" v="station"/>
  </node>
  <node id="904319170" version="1" timestamp="2010-09-09T18:23:34Z" uid="43967" user="railsnail" changeset="5735025" lat="40.8518896" lon="17.385544">
    <tag k="name" v="Fasano"/>
    <tag k="railway" v="station"/>
  </node>
  <node id="904319170" version="2" timestamp="2011-05-28T15:19:44Z" uid="12473" user="mikelima" changeset="8272773" lat="40.8517215" lon="17.3857959">
    <tag k="name" v="Fasano"/>
    <tag k="operator" v="RFI"/>
    <tag k="railway" v="station"/>
  </node>
  <node id="904319915" version="1" timestamp="2010-09-09T18:24:30Z" uid="43967" user="railsnail" changeset="5735031" lat="40.9521955" lon="17.2920058">
    <tag k="name" v="Monopoli"/>
    <tag k="railway" v="station"/>
  </node>
  <node id="904319915" version="2" timestamp="2011-05-28T15:19:43Z" uid="12473" user="mikelima" changeset="8272773" lat="40.9522297" lon="17.2919393">
    <tag k="name" v="Monopoli"/>
    <tag k="operator" v="RFI"/>
    <tag k="railway" v="station"/>
  </node>
  <node id="904315691" version="3" timestamp="2012-07-24T19:33:54Z" uid="722137" user="OSMF Redaction Account" changeset="12474690" lat="54.9273939" lon="20.3970527"/>
  <node id="904316715" version="4" timestamp="2012-07-15T14:19:20Z" uid="722137" user="OSMF Redaction Account" changeset="12229720" lat="40.489161" lon="18.000647">
    <tag k="operator" v="RFI"/>
  </node>
  <node id="904316715" version="5" timestamp="2012-08-16T16:09:53Z" uid="334153" user="Alexander Roalter" changeset="12752597" lat="40.489161" lon="18.000647"/>
  <node id="904316717" version="3" timestamp="2012-07-15T14:19:20Z" uid="722137" user="OSMF Redaction Account" changeset="12229720" lat="40.4394233" lon="18.0458477">
    <tag k="operator" v="RFI"/>
  </node>
  <node id="904316717" version="4" timestamp="2012-08-17T16:20:09Z" uid="334153" user="Alexander Roalter" changeset="12764288" lat="40.4392013" lon="18.0458826">
    <tag k="name" v="Squinzano"/>
    <tag k="operator" v="RFI"/>
    <tag k="railway" v="station"/>
  </node>
  <node id="904316719" version="4" timestamp="2012-07-15T14:19:03Z" uid="722137" user="OSMF Redaction Account" changeset="12229713" lat="40.4099167" lon="18.0766241">
    <tag k="operator" v="RFI"/>
  </node>
  <node id="904316719" version="5" timestamp="2012-08-17T00:17:48Z" uid="334153" user="Alexander Roalter" changeset="12757017" lat="40.4095582" lon="18.0767497">
    <tag k="name" v="Trepuzzi"/>
    <tag k="operator" v="RFI"/>
    <tag k="railway" v="station"/>
  </node>
  <node id="904318587" version="3" timestamp="2012-07-15T15:16:56Z" uid="722137" user="OSMF Redaction Account" changeset="12230797" lat="40.737358" lon="17.6835181"/>
  <node id="904318588" version="3" timestamp="2012-07-15T15:16:53Z" uid="722137" user="OSMF Redaction Account" changeset="12230796" lat="40.7523958" lon="17.5804399"/>
  <node id="904319168" version="3" timestamp="2012-07-15T15:21:41Z" uid="722137" user="OSMF Redaction Account" changeset="12230892" lat="40.8165314" lon="17.4568514">
    <tag k="operator" v="RFI"/>
  </node>
  <node id="904319168" version="4" timestamp="2012-08-15T12:38:34Z" uid="334153" user="Alexander Roalter" changeset="12738494" lat="40.8164557" lon="17.4568649">
    <tag k="name" v="Cisternino"/>
    <tag k="operator" v="RFI"/>
    <tag k="railway" v="station"/>
  </node>
  <node id="904319170" version="3" timestamp="2012-07-15T15:21:48Z" uid="722137" user="OSMF Redaction Account" changeset="12230899" lat="40.8517215" lon="17.3857959">
    <tag k="operator" v="RFI"/>
  </node>
  <node id="904319915" version="3" timestamp="2012-06-12T20:30:38Z" uid="334153" user="Alexander Roalter" changeset="11878812" lat="40.9522644" lon="17.2919563">
    <tag k="name" v="Monopoli"/>
    <tag k="operator" v="RFI"/>
    <tag k="railway" v="station"/>
  </node>
  <node id="904319915" version="4" timestamp="2012-07-15T15:21:56Z" uid="722137" user="OSMF Redaction Account" changeset="12230900" lat="40.9522644" lon="17.2919563">
    <tag k="operator" v="RFI"/>
  </node>
</osm>
