<?xml version='1.0' encoding='UTF-8'?>
<osm version="0.6" generator="libosmium/2.20.0">
  <node id="920062105" version="5" timestamp="2011-02-17T16:02:42Z" uid="20587" user="balrog-kun" changeset="7314472" lat="52.2159586" lon="21.2394065"/>
  <node id="920062105" version="6" timestamp="2011-02-19T13:27:31Z" uid="411429" user="SergeB_" changeset="7331773" lat="52.2158913" lon="21.2393144"/>
  <node id="920064130" version="5" timestamp="2011-02-17T16:02:40Z" uid="20587" user="balrog-kun" changeset="7314472" lat="52.2167833" lon="21.2432259">
    <tag k="amenity" v="place_of_worship"/>
    <tag k="name" v="św. Hieronima"/>
    <tag k="religion" v="christian"/>
  </node>
  <node id="920064130" version="6" timestamp="2011-02-19T02:13:19Z" uid="20587" user="balrog-kun" changeset="7328304" lat="52.2167833" lon="21.2432259">
    <tag k="amenity" v="place_of_worship"/>
    <tag k="name" v="Kościół świętego Hieronima"/>
    <tag k="religion" v="christian"/>
  </node>
  <node id="920064130" version="7" timestamp="2011-08-04T12:38:57Z" uid="500845" user="adoomer" changeset="8919271" lat="52.2167833" lon="21.2432259">
    <tag k="amenity" v="place_of_worship"/>
    <tag k="denomination" v="roman_catholic"/>
    <tag k="name" v="Kościół świętego Hieronima"/>
    <tag k="religion" v="christian"/>
  </node>
</osm>
