<?xml version='1.0' encoding='UTF-8'?>
<osm version="0.6" generator="libosmium/2.20.0">
  <node id="921130379" version="1" timestamp="2010-09-22T06:56:16Z" uid="6975" user="ulfl" changeset="5842916" lat="44.3880918" lon="6.6532452">
    <tag k="amenity" v="restaurant"/>
    <tag k="cuisine" v="chinese"/>
  </node>
  <node id="921130379" version="2" timestamp="2011-08-28T12:58:59Z" uid="411998" user="sergio7826" changeset="9146838" lat="44.388032" lon="6.6532523">
    <tag k="amenity" v="restaurant"/>
    <tag k="cuisine" v="chinese"/>
  </node>
  <node id="921130380" version="1" timestamp="2010-09-22T06:56:16Z" uid="6975" user="ulfl" changeset="5842916" lat="44.388265" lon="6.6534462">
    <tag k="addr:city" v="Barcelonnette"/>
    <tag k="addr:country" v="FR"/>
    <tag k="addr:housenumber" v="3"/>
    <tag k="addr:street" v="Rue François Arnaud"/>
    <tag k="amenity" v="restaurant"/>
    <tag k="fax" v="04 92 81 43 92"/>
    <tag k="internet_access" v="wlan"/>
    <tag k="internet_access:fee" v="no"/>
    <tag k="name" v="Hotel Azteca"/>
    <tag k="phone" v="04 92 81 46 36"/>
    <tag k="stars" v="3"/>
  </node>
  <node id="921130380" version="2" timestamp="2010-09-22T06:59:24Z" uid="6975" user="ulfl" changeset="5842926" lat="44.388265" lon="6.6534462">
    <tag k="addr:city" v="Barcelonnette"/>
    <tag k="addr:country" v="FR"/>
    <tag k="addr:housenumber" v="3"/>
    <tag k="addr:street" v="Rue François Arnaud"/>
    <tag k="fax" v="04 92 81 43 92"/>
    <tag k="internet_access" v="wlan"/>
    <tag k="internet_access:fee" v="no"/>
    <tag k="name" v="Hotel Azteca"/>
    <tag k="phone" v="04 92 81 46 36"/>
    <tag k="stars" v="3"/>
    <tag k="tourism" v="hotel"/>
  </node>
  <node id="921130380" version="3" timestamp="2011-07-31T09:37:18Z" uid="411998" user="sergio7826" changeset="8879070" lat="44.388265" lon="6.6534462">
    <tag k="addr:city" v="Barcelonnette"/>
    <tag k="addr:country" v="FR"/>
    <tag k="addr:housenumber" v="3"/>
    <tag k="addr:street" v="Rue François Arnaud"/>
    <tag k="fax" v="04 92 81 43 92"/>
    <tag k="internet_access" v="wlan"/>
    <tag k="internet_access:fee" v="no"/>
    <tag k="name" v="Hôtel Azteca"/>
    <tag k="phone" v="04 92 81 46 36"/>
    <tag k="stars" v="3"/>
    <tag k="tourism" v="hotel"/>
  </node>
  <node id="921130380" version="4" timestamp="2011-08-28T12:58:58Z" uid="411998" user="sergio7826" changeset="9146838" lat="44.3884642" lon="6.6535717">
    <tag k="addr:city" v="Barcelonnette"/>
    <tag k="addr:country" v="FR"/>
    <tag k="addr:housenumber" v="3"/>
    <tag k="addr:street" v="Rue François Arnaud"/>
    <tag k="fax" v="04 92 81 43 92"/>
    <tag k="internet_access" v="wlan"/>
    <tag k="internet_access:fee" v="no"/>
    <tag k="name" v="Hôtel Azteca"/>
    <tag k="phone" v="04 92 81 46 36"/>
    <tag k="stars" v="3"/>
    <tag k="tourism" v="hotel"/>
  </node>
  <node id="921135053" version="2" timestamp="2011-03-02T19:16:24Z" uid="9581" user="Lobelt" changeset="7440328" lat="49.4971958" lon="8.4726572"/>
  <node id="921135053" version="3" timestamp="2012-01-28T19:15:17Z" uid="564585" user="wegavision" changeset="10524132" lat="49.4972105" lon="8.4726726"/>
  <node id="921135054" version="2" timestamp="2011-03-02T19:16:31Z" uid="9581" user="Lobelt" changeset="7440328" lat="49.4979855" lon="8.4722752"/>
  <node id="921135054" version="3" timestamp="2012-01-28T19:15:17Z" uid="564585" user="wegavision" changeset="10524132" lat="49.4979822" lon="8.4722361"/>
  <node id="921135055" version="2" timestamp="2011-03-02T19:16:09Z" uid="9581" user="Lobelt" changeset="7440328" lat="49.4989322" lon="8.4719706"/>
  <node id="921135055" version="3" timestamp="2012-01-28T19:15:18Z" uid="564585" user="wegavision" changeset="10524132" lat="49.4989188" lon="8.4719048"/>
  <node id="921135055" version="4" timestamp="2012-02-28T21:20:39Z" uid="136321" user="Teddy73" changeset="10822320" lat="49.4989168" lon="8.4719048"/>
  <node id="921135056" version="2" timestamp="2011-03-02T19:16:30Z" uid="9581" user="Lobelt" changeset="7440328" lat="49.4993278" lon="8.4718167"/>
  <node id="921135056" version="3" timestamp="2012-01-28T19:45:58Z" uid="564585" user="wegavision" changeset="10524393" lat="49.4999575" lon="8.4715515"/>
  <node id="921135057" version="2" timestamp="2011-03-02T19:16:07Z" uid="9581" user="Lobelt" changeset="7440328" lat="49.500194" lon="8.4715304"/>
  <node id="921135057" version="4" timestamp="2011-04-03T23:28:18Z" uid="410505" user="Udini" changeset="7760111" lat="49.5001645" lon="8.4715347">
    <tag k="bicycle" v="yes"/>
    <tag k="crossing" v="traffic_signals"/>
    <tag k="highway" v="traffic_signals"/>
  </node>
  <node id="921135057" version="5" timestamp="2012-01-28T19:45:58Z" uid="564585" user="wegavision" changeset="10524393" lat="49.5001598" lon="8.4715018">
    <tag k="bicycle" v="yes"/>
    <tag k="crossing" v="traffic_signals"/>
    <tag k="highway" v="traffic_signals"/>
  </node>
  <node id="921135973" version="2" timestamp="2011-03-02T19:16:03Z" uid="9581" user="Lobelt" changeset="7440328" lat="49.5019688" lon="8.4708637"/>
  <node id="921135973" version="3" timestamp="2011-03-05T20:35:17Z" uid="410505" user="Udini" changeset="7467529" lat="49.5019649" lon="8.4708639"/>
  <node id="921135974" version="2" timestamp="2011-03-02T19:16:15Z" uid="9581" user="Lobelt" changeset="7440328" lat="49.5042549" lon="8.4701833"/>
  <node id="921135974" version="3" timestamp="2012-02-28T21:47:42Z" uid="136321" user="Teddy73" changeset="10822320" lat="49.5042549" lon="8.4701833"/>
  <node id="921135975" version="2" timestamp="2011-03-02T19:15:54Z" uid="9581" user="Lobelt" changeset="7440328" lat="49.5046676" lon="8.4702304"/>
  <node id="921135975" version="3" timestamp="2012-02-28T21:47:42Z" uid="136321" user="Teddy73" changeset="10822320" lat="49.5046676" lon="8.4702304"/>
  <node id="921135976" version="2" timestamp="2011-03-02T19:15:52Z" uid="9581" user="Lobelt" changeset="7440328" lat="49.5055296" lon="8.4701391"/>
  <node id="921135976" version="4" timestamp="2011-03-05T20:25:13Z" uid="410505" user="Udini" changeset="7467430" lat="49.5055481" lon="8.4701488">
    <tag k="bicycle" v="yes"/>
    <tag k="crossing" v="traffic_signals"/>
    <tag k="highway" v="traffic_signals"/>
  </node>
  <node id="921135977" version="2" timestamp="2011-03-02T19:16:24Z" uid="9581" user="Lobelt" changeset="7440328" lat="49.5085426" lon="8.4708483"/>
  <node id="921135979" version="2" timestamp="2011-03-02T19:16:09Z" uid="9581" user="Lobelt" changeset="7440328" lat="49.5109704" lon="8.471566"/>
  <node id="921135980" version="3" timestamp="2011-03-02T19:16:20Z" uid="9581" user="Lobelt" changeset="7440328" lat="49.5114338" lon="8.4717513"/>
  <node id="921130379" version="3" timestamp="2012-07-16T03:54:49Z" uid="722137" user="OSMF Redaction Account" changeset="12239201" lat="44.388032" lon="6.6532523"/>
  <node id="921130380" version="5" timestamp="2012-07-16T03:54:49Z" uid="722137" user="OSMF Redaction Account" changeset="12239201" lat="44.3884642" lon="6.6535717"/>
  <node id="921135053" version="4" timestamp="2012-08-27T15:10:52Z" uid="110838" user="Bernhard W" changeset="12880485" lat="49.4972127" lon="8.4726481"/>
  <node id="921135055" version="5" timestamp="2012-08-27T15:21:08Z" uid="110838" user="Bernhard W" changeset="12880715" lat="49.498923" lon="8.4719483"/>
  <node id="921135055" version="6" timestamp="2012-08-27T17:21:06Z" uid="110838" user="Bernhard W" changeset="12882165" lat="49.4989209" lon="8.4719475"/>
  <node id="921135056" version="4" timestamp="2012-08-27T15:21:08Z" uid="110838" user="Bernhard W" changeset="12880715" lat="49.4999772" lon="8.4715636"/>
  <node id="921135057" version="6" timestamp="2012-07-26T14:34:38Z" uid="110838" user="Bernhard W" changeset="12499826" lat="49.5002114" lon="8.4715351">
    <tag k="bicycle" v="yes"/>
    <tag k="crossing" v="traffic_signals"/>
    <tag k="highway" v="traffic_signals"/>
  </node>
  <node id="921135057" version="7" timestamp="2012-08-27T15:21:08Z" uid="110838" user="Bernhard W" changeset="12880715" lat="49.5002123" lon="8.4715427">
    <tag k="bicycle" v="yes"/>
    <tag k="crossing" v="traffic_signals"/>
    <tag k="highway" v="traffic_signals"/>
  </node>
  <node id="921135057" version="8" timestamp="2012-08-27T17:27:37Z" uid="110838" user="Bernhard W" changeset="12882165" lat="49.5002139" lon="8.471553">
    <tag k="bicycle" v="yes"/>
    <tag k="crossing" v="traffic_signals"/>
    <tag k="highway" v="traffic_signals"/>
  </node>
  <node id="921135057" version="9" timestamp="2012-08-27T17:59:18Z" uid="110838" user="Bernhard W" changeset="12882527" lat="49.5002191" lon="8.4715522">
    <tag k="bicycle" v="yes"/>
    <tag k="crossing" v="traffic_signals"/>
    <tag k="highway" v="traffic_signals"/>
  </node>
  <node id="921135973" version="4" timestamp="2012-06-14T21:34:06Z" uid="110838" user="Bernhard W" changeset="11899286" lat="49.5019284" lon="8.4708999"/>
  <node id="921135973" version="5" timestamp="2012-06-14T21:34:44Z" uid="110838" user="Bernhard W" changeset="11899286" lat="49.5019277" lon="8.4709112"/>
  <node id="921135973" version="6" timestamp="2012-06-14T21:35:09Z" uid="110838" user="Bernhard W" changeset="11899286" lat="49.5019322" lon="8.4709088"/>
  <node id="921135976" version="5" timestamp="2012-05-01T19:50:36Z" uid="136321" user="Teddy73" changeset="11472662" lat="49.5055409" lon="8.4701489">
    <tag k="bicycle" v="yes"/>
    <tag k="crossing" v="traffic_signals"/>
    <tag k="highway" v="traffic_signals"/>
  </node>
  <node id="921135977" version="4" timestamp="2012-08-03T20:11:39Z" uid="110838" user="Bernhard W" changeset="12602288" lat="49.5085155" lon="8.4708733"/>
  <node id="921135979" version="3" timestamp="2012-05-02T19:26:39Z" uid="136321" user="Teddy73" changeset="11482306" lat="49.5109704" lon="8.471566"/>
  <node id="921135980" version="4" timestamp="2012-05-02T19:51:45Z" uid="136321" user="Teddy73" changeset="11482306" lat="49.5114338" lon="8.4717513"/>
</osm>
