<?xml version='1.0' encoding='UTF-8'?>
<osm version="0.6" generator="libosmium/2.20.0">
  <node id="921120372" version="1" timestamp="2010-09-22T05:53:04Z" uid="4467" user="Rosscoe" changeset="5842612" lat="-22.678818" lon="117.7784778"/>
  <node id="921120372" version="2" timestamp="2010-09-22T05:53:14Z" uid="4467" user="Rosscoe" changeset="5842612" lat="-22.678818" lon="117.7784778"/>
  <node id="921120391" version="1" timestamp="2010-09-22T05:53:57Z" uid="4467" user="Rosscoe" changeset="5842612" lat="-22.6778479" lon="117.7876188"/>
  <node id="921120391" version="2" timestamp="2010-09-22T06:00:34Z" uid="4467" user="Rosscoe" changeset="5842612" lat="-22.6795605" lon="117.786503"/>
  <node id="921120391" version="3" timestamp="2010-09-26T01:15:57Z" uid="4467" user="Rosscoe" changeset="5875864" lat="-22.6795605" lon="117.786503"/>
  <node id="921121604" version="8" timestamp="2011-04-04T15:59:11Z" uid="4467" user="Rosscoe" changeset="7766323" lat="-26.4355205" lon="132.0594542"/>
  <node id="921121606" version="8" timestamp="2011-04-04T15:59:57Z" uid="4467" user="Rosscoe" changeset="7766323" lat="-26.4419618" lon="132.0578449"/>
  <node id="921121608" version="8" timestamp="2011-04-04T16:00:02Z" uid="4467" user="Rosscoe" changeset="7766323" lat="-26.4536475" lon="132.0550661"/>
  <node id="921121609" version="8" timestamp="2011-04-04T16:00:26Z" uid="4467" user="Rosscoe" changeset="7766323" lat="-26.4604989" lon="132.0536694"/>
  <node id="921121780" version="8" timestamp="2011-04-04T16:00:03Z" uid="4467" user="Rosscoe" changeset="7766323" lat="-26.3766491" lon="132.0567312"/>
  <node id="921121782" version="8" timestamp="2011-04-04T15:59:34Z" uid="4467" user="Rosscoe" changeset="7766323" lat="-26.3885612" lon="132.0566829"/>
  <node id="921121787" version="8" timestamp="2011-04-04T15:59:32Z" uid="4467" user="Rosscoe" changeset="7766323" lat="-26.4099247" lon="132.0604842"/>
  <node id="921122301" version="1" timestamp="2010-09-22T06:03:42Z" uid="4467" user="Rosscoe" changeset="5842612" lat="-22.6810949" lon="117.7815034"/>
  <node id="921122301" version="2" timestamp="2010-09-26T01:16:16Z" uid="4467" user="Rosscoe" changeset="5875864" lat="-22.6810949" lon="117.7815034"/>
  <node id="921124581" version="2" timestamp="2011-01-13T16:55:35Z" uid="115477" user="wowik" changeset="6959027" lat="55.88503" lon="37.0273684">
    <tag k="living_street" v="yes"/>
  </node>
  <node id="921126972" version="1" timestamp="2010-09-22T06:29:16Z" uid="6975" user="ulfl" changeset="5842786" lat="47.0370864" lon="8.1836373">
    <tag k="addr:city" v="Malters"/>
    <tag k="addr:country" v="CH"/>
    <tag k="addr:housenumber" v="63"/>
    <tag k="addr:postcode" v="6102"/>
    <tag k="addr:street" v="Luzernstrasse"/>
    <tag k="email" v="kreuz@malters.ch"/>
    <tag k="fax" v="+41 41 497 30 67"/>
    <tag k="internet_access" v="wlan"/>
    <tag k="internet_access:fee" v="no"/>
    <tag k="name" v="Hotel Kreuz Malters"/>
    <tag k="operator" v="Familie Fallegger"/>
    <tag k="phone" v="+41 41 497 14 01"/>
    <tag k="tourism" v="hotel"/>
    <tag k="website" v="www.kreuz-malters.ch"/>
  </node>
  <node id="921126972" version="2" timestamp="2010-09-22T06:32:02Z" uid="6975" user="ulfl" changeset="5842793" lat="47.0370864" lon="8.1836373">
    <tag k="addr:city" v="Malters"/>
    <tag k="addr:country" v="CH"/>
    <tag k="addr:housenumber" v="63"/>
    <tag k="addr:postcode" v="6102"/>
    <tag k="addr:street" v="Luzernstrasse"/>
    <tag k="amenity" v="restaurant"/>
    <tag k="cuisine" v="regional"/>
    <tag k="email" v="kreuz@malters.ch"/>
    <tag k="fax" v="+41 41 497 30 67"/>
    <tag k="internet_access" v="wlan"/>
    <tag k="internet_access:fee" v="no"/>
    <tag k="name" v="Hotel Kreuz Malters"/>
    <tag k="operator" v="Familie Fallegger"/>
    <tag k="phone" v="+41 41 497 14 01"/>
    <tag k="tourism" v="hotel"/>
    <tag k="website" v="www.kreuz-malters.ch"/>
  </node>
  <node id="921126972" version="3" timestamp="2012-03-25T04:27:48Z" uid="178186" user="mdk" changeset="11091125" lat="47.0370864" lon="8.1836373"/>
  <node id="921127098" version="1" timestamp="2010-09-22T06:34:20Z" uid="6975" user="ulfl" changeset="5842802" lat="47.038192" lon="8.1799607">
    <tag k="amenity" v="fuel"/>
  </node>
  <node id="921127098" version="2" timestamp="2012-03-23T15:09:44Z" uid="178186" user="mdk" changeset="11074840" lat="47.038192" lon="8.1799607"/>
  <node id="921127099" version="1" timestamp="2010-09-22T06:34:20Z" uid="6975" user="ulfl" changeset="5842802" lat="47.0388682" lon="8.1903727">
    <tag k="amenity" v="fuel"/>
    <tag k="fuel:octane_95" v="yes"/>
  </node>
  <node id="921127099" version="2" timestamp="2012-03-25T04:28:27Z" uid="178186" user="mdk" changeset="11091125" lat="47.0388682" lon="8.1903727"/>
  <node id="921127191" version="1" timestamp="2010-09-22T06:36:40Z" uid="6975" user="ulfl" changeset="5842810" lat="47.0371327" lon="8.1840262">
    <tag k="amenity" v="restaurant"/>
  </node>
  <node id="921127191" version="2" timestamp="2012-03-25T04:28:27Z" uid="178186" user="mdk" changeset="11091125" lat="47.0371327" lon="8.1840262"/>
  <node id="921128128" version="1" timestamp="2010-09-22T06:42:51Z" uid="6975" user="ulfl" changeset="5842841" lat="46.8180082" lon="7.7561457">
    <tag k="addr:city" v="Süderen"/>
    <tag k="addr:country" v="CH"/>
    <tag k="addr:postcode" v="3618"/>
    <tag k="amenity" v="restaurant"/>
    <tag k="cuisine" v="regional"/>
    <tag k="name" v="Gasthof zum Bären"/>
    <tag k="operator" v="Fam. M. + H. Fankhauser Ramseier"/>
    <tag k="phone" v="033 453 15 12"/>
    <tag k="website" v="www.baeren-suederen.ch"/>
  </node>
  <node id="921128128" version="2" timestamp="2012-01-14T16:23:09Z" uid="178186" user="mdk" changeset="10389336" lat="46.8180082" lon="7.7561457"/>
  <node id="921128928" version="1" timestamp="2010-09-22T06:52:16Z" uid="6975" user="ulfl" changeset="5842897" lat="45.6217013" lon="6.7740268">
    <tag k="amenity" v="restaurant"/>
    <tag k="name" v="Relais de la Vanoise"/>
    <tag k="operator" v="M.et Mme Yannick Gazengel"/>
    <tag k="phone" v="04 79 07 11 34"/>
    <tag k="stars" v="2"/>
    <tag k="tourism" v="hotel"/>
  </node>
  <node id="921128928" version="2" timestamp="2010-09-27T19:47:34Z" uid="6975" user="ulfl" changeset="5895129" lat="45.6217013" lon="6.7740268">
    <tag k="addr:city" v="Bourg St Maurice"/>
    <tag k="addr:country" v="FR"/>
    <tag k="addr:postcode" v="73700"/>
    <tag k="amenity" v="restaurant"/>
    <tag k="name" v="Relais de la Vanoise"/>
    <tag k="operator" v="M.et Mme Yannick Gazengel"/>
    <tag k="phone" v="04 79 07 11 34"/>
    <tag k="stars" v="2NN"/>
    <tag k="tourism" v="hotel"/>
  </node>
  <node id="921128931" version="1" timestamp="2010-09-22T06:52:16Z" uid="6975" user="ulfl" changeset="5842897" lat="45.6234222" lon="6.7778198">
    <tag k="amenity" v="fast_food"/>
    <tag k="cuisine" v="burger"/>
    <tag k="internet_access" v="wlan"/>
    <tag k="name" v="Mc Donalds"/>
  </node>
  <node id="921128931" version="2" timestamp="2010-10-16T14:41:34Z" uid="78656" user="Walter Schlögl" changeset="6058209" lat="45.6234222" lon="6.7778198">
    <tag k="amenity" v="fast_food"/>
    <tag k="cuisine" v="burger"/>
    <tag k="internet_access" v="wlan"/>
    <tag k="name" v="McDonald&apos;s"/>
  </node>
  <node id="921124581" version="3" timestamp="2012-04-07T09:51:38Z" uid="417178" user="Medoff" changeset="11211194" lat="55.88503" lon="37.0273684">
    <tag k="living_street" v="yes"/>
  </node>
  <node id="921124581" version="4" timestamp="2012-07-21T01:16:16Z" uid="722137" user="OSMF Redaction Account" changeset="12397810" lat="55.88503" lon="37.0273684"/>
  <node id="921126972" version="4" timestamp="2012-04-06T15:12:52Z" uid="178186" user="mdk" changeset="11202980" lat="47.0370864" lon="8.1836373">
    <tag k="addr:city" v="Malters"/>
    <tag k="addr:country" v="CH"/>
    <tag k="addr:housenumber" v="63"/>
    <tag k="addr:postcode" v="6102"/>
    <tag k="addr:street" v="Luzernstrasse"/>
    <tag k="amenity" v="restaurant"/>
    <tag k="cuisine" v="regional"/>
    <tag k="email" v="kreuz@malters.ch"/>
    <tag k="fax" v="+41 41 497 30 67"/>
    <tag k="internet_access" v="wlan"/>
    <tag k="internet_access:fee" v="no"/>
    <tag k="name" v="Hotel Kreuz Malters"/>
    <tag k="operator" v="Familie Fallegger"/>
    <tag k="phone" v="+41 41 497 14 01"/>
    <tag k="tourism" v="hotel"/>
    <tag k="website" v="www.kreuz-malters.ch"/>
  </node>
  <node id="921126972" version="5" timestamp="2012-07-17T04:07:47Z" uid="722137" user="OSMF Redaction Account" changeset="12256587" lat="47.0370864" lon="8.1836373"/>
  <node id="921127099" version="3" timestamp="2012-04-06T15:15:18Z" uid="178186" user="mdk" changeset="11202980" lat="47.0388682" lon="8.1903727">
    <tag k="amenity" v="fuel"/>
    <tag k="fuel:octane_95" v="yes"/>
  </node>
  <node id="921127099" version="4" timestamp="2012-07-17T04:07:41Z" uid="722137" user="OSMF Redaction Account" changeset="12256586" lat="47.0388682" lon="8.1903727"/>
  <node id="921127191" version="3" timestamp="2012-04-06T15:15:18Z" uid="178186" user="mdk" changeset="11202980" lat="47.0371327" lon="8.1840262">
    <tag k="amenity" v="restaurant"/>
  </node>
  <node id="921127191" version="4" timestamp="2012-07-17T04:07:47Z" uid="722137" user="OSMF Redaction Account" changeset="12256587" lat="47.0371327" lon="8.1840262"/>
  <node id="921128928" version="3" timestamp="2012-07-16T18:26:21Z" uid="722137" user="OSMF Redaction Account" changeset="12249263" lat="45.6217013" lon="6.7740268"/>
  <node id="921128931" version="3" timestamp="2012-07-16T18:26:21Z" uid="722137" user="OSMF Redaction Account" changeset="12249263" lat="45.6234222" lon="6.7778198"/>
</osm>
