<?xml version='1.0' encoding='UTF-8'?>
<osm version="0.6" generator="libosmium/2.20.0">
  <node id="921192626" version="3" timestamp="2011-05-05T11:47:17Z" uid="20587" user="balrog-kun" changeset="8056787" lat="50.3661305" lon="16.3742025">
    <tag k="ele" v="895"/>
    <tag k="name" v="SoÅ‚tysia Kopa"/>
    <tag k="name:de" v="Schulzkoppe"/>
    <tag k="natural" v="peak"/>
  </node>
  <node id="921192630" version="3" timestamp="2011-05-12T03:54:46Z" uid="20587" user="balrog-kun" changeset="8118120" lat="50.4125821" lon="16.3836844">
    <tag k="name" v="Ceglana"/>
    <tag k="name:de" v="Ziegelberg"/>
    <tag k="natural" v="peak"/>
  </node>
  <node id="921192634" version="4" timestamp="2011-05-05T11:47:17Z" uid="20587" user="balrog-kun" changeset="8056787" lat="50.4105768" lon="16.3921209">
    <tag k="ele" v="607"/>
    <tag k="name" v="Karwiec"/>
    <tag k="name:de" v="Heerde Berg"/>
    <tag k="natural" v="peak"/>
  </node>
  <node id="921192804" version="2" timestamp="2010-12-20T19:19:39Z" uid="23543" user="jkjk" changeset="6718947" lat="49.3351058" lon="17.4717313"/>
  <node id="921192829" version="2" timestamp="2010-12-20T19:19:18Z" uid="23543" user="jkjk" changeset="6718947" lat="49.3338953" lon="17.4791473"/>
  <node id="921199757" version="2" timestamp="2011-04-07T10:40:42Z" uid="4467" user="Rosscoe" changeset="7793262" lat="-27.6233827" lon="153.1157327">
    <tag k="name" v="A&amp;B Communications"/>
    <tag k="phone" v="+61733879999"/>
    <tag k="shop" v="mobile_phone"/>
  </node>
  <node id="921192804" version="3" timestamp="2012-07-17T08:48:44Z" uid="722137" user="OSMF Redaction Account" changeset="12260782" lat="49.3349986" lon="17.4718895"/>
  <node id="921192829" version="3" timestamp="2012-07-17T08:48:44Z" uid="722137" user="OSMF Redaction Account" changeset="12260782" lat="49.3337984" lon="17.4793208"/>
  <node id="921192829" version="4" timestamp="2012-07-17T11:04:36Z" uid="461574" user="Mar4s" changeset="12263707" lat="49.3337901" lon="17.4791932"/>
  <node id="921199757" version="3" timestamp="2012-07-20T07:25:15Z" uid="722137" user="OSMF Redaction Account" changeset="12366049" lat="-27.623394" lon="153.115974">
    <tag k="name" v="A&amp;B Communications"/>
    <tag k="phone" v="+61733879999"/>
    <tag k="shop" v="mobile_phone"/>
  </node>
</osm>
