<?xml version='1.0' encoding='UTF-8'?>
<osm version="0.6" generator="libosmium/2.20.0">
  <node id="92333733" version="2" timestamp="2011-03-19T07:47:26Z" uid="4467" user="Rosscoe" changeset="7602026" lat="-37.8148155" lon="147.6479512"/>
  <node id="92333749" version="2" timestamp="2011-03-19T07:47:29Z" uid="4467" user="Rosscoe" changeset="7602026" lat="-37.8121088" lon="147.6473103"/>
  <node id="92333768" version="2" timestamp="2011-03-19T07:47:30Z" uid="4467" user="Rosscoe" changeset="7602026" lat="-37.8103163" lon="147.6477301">
    <tag k="created_by" v="JOSM"/>
  </node>
  <node id="92333783" version="3" timestamp="2011-03-19T07:47:28Z" uid="4467" user="Rosscoe" changeset="7602026" lat="-37.8061648" lon="147.6500477"/>
  <node id="92335363" version="5" timestamp="2010-07-06T07:46:08Z" uid="4467" user="Rosscoe" changeset="5148043" lat="-37.8703938" lon="145.0673764"/>
  <node id="92335364" version="5" timestamp="2010-07-06T07:45:54Z" uid="4467" user="Rosscoe" changeset="5148043" lat="-37.8705735" lon="145.0674001"/>
  <node id="92335694" version="3" timestamp="2011-02-03T02:39:46Z" uid="4467" user="Rosscoe" changeset="7170603" lat="-27.5507549" lon="153.0578177"/>
  <node id="92336638" version="9" timestamp="2010-07-10T06:56:11Z" uid="4467" user="Rosscoe" changeset="5179736" lat="-37.860064" lon="145.0608779"/>
  <node id="92339762" version="4" timestamp="2010-05-12T07:05:16Z" uid="4467" user="Rosscoe" changeset="4674752" lat="-27.5191579" lon="153.0320706"/>
  <node id="92339763" version="4" timestamp="2010-05-12T07:05:17Z" uid="4467" user="Rosscoe" changeset="4674752" lat="-27.5190873" lon="153.0317639"/>
  <node id="92339764" version="4" timestamp="2010-05-12T07:05:17Z" uid="4467" user="Rosscoe" changeset="4674752" lat="-27.5188779" lon="153.0312352"/>
  <node id="92339823" version="6" timestamp="2008-12-07T18:31:26Z" uid="58091" user="Andreas M" changeset="244793" lat="48.2416718" lon="16.3854482">
    <tag k="layer" v="2"/>
    <tag k="name" v="Handelskai"/>
    <tag k="railway" v="station"/>
  </node>
  <node id="92339823" version="7" timestamp="2009-07-23T05:14:47Z" uid="56501" user="Rudolf_H" changeset="1911342" lat="48.2416718" lon="16.3854482">
    <tag k="layer" v="2"/>
    <tag k="name" v="Handelskai"/>
    <tag k="railway" v="station"/>
    <tag k="uic_name" v="Wien Handelskai (U6)"/>
    <tag k="uic_ref" v="8170072"/>
  </node>
  <node id="92339823" version="8" timestamp="2011-02-24T20:29:12Z" uid="99800" user="wolfbert" changeset="7384963" lat="48.2417211" lon="16.3854045">
    <tag k="layer" v="2"/>
    <tag k="name" v="Handelskai"/>
    <tag k="railway" v="station"/>
    <tag k="uic_name" v="Wien Handelskai (U6)"/>
    <tag k="uic_ref" v="8170072"/>
  </node>
  <node id="92339823" version="9" timestamp="2011-08-01T00:42:28Z" uid="29320" user="KomÑpa" changeset="8886564" lat="48.2417211" lon="16.3854045">
    <tag k="colour" v="brown"/>
    <tag k="layer" v="2"/>
    <tag k="name" v="Handelskai"/>
    <tag k="operator" v="Wiener Linien"/>
    <tag k="railway" v="station"/>
    <tag k="uic_name" v="Wien Handelskai (U6)"/>
    <tag k="uic_ref" v="8170072"/>
  </node>
  <node id="92339823" version="10" timestamp="2011-08-20T07:59:40Z" uid="56501" user="Rudolf_H" changeset="9071927" lat="48.2417211" lon="16.3854045">
    <tag k="colour" v="brown"/>
    <tag k="layer" v="2"/>
    <tag k="name" v="Handelskai"/>
    <tag k="operator" v="Wiener Linien"/>
    <tag k="railway" v="station"/>
    <tag k="ref" v="1705"/>
    <tag k="uic_name" v="Wien Handelskai (U6)"/>
    <tag k="uic_ref" v="8170072"/>
  </node>
  <node id="92339823" version="11" timestamp="2011-09-28T18:56:10Z" uid="290680" user="wheelmap_visitor" changeset="9416290" lat="48.2417211" lon="16.3854045">
    <tag k="colour" v="brown"/>
    <tag k="layer" v="2"/>
    <tag k="name" v="Handelskai"/>
    <tag k="operator" v="Wiener Linien"/>
    <tag k="railway" v="station"/>
    <tag k="ref" v="1705"/>
    <tag k="uic_name" v="Wien Handelskai (U6)"/>
    <tag k="uic_ref" v="8170072"/>
    <tag k="wheelchair" v="yes"/>
  </node>
  <node id="92333733" version="3" timestamp="2012-06-15T14:37:08Z" uid="67896" user="mrpulley" changeset="11905302" lat="-37.8148236" lon="147.6479512"/>
  <node id="92333749" version="3" timestamp="2012-06-15T14:37:08Z" uid="67896" user="mrpulley" changeset="11905302" lat="-37.8121169" lon="147.6473103"/>
  <node id="92333783" version="4" timestamp="2012-07-19T08:32:33Z" uid="722137" user="OSMF Redaction Account" changeset="12314019" lat="-37.8060636" lon="147.6498831"/>
  <node id="92335363" version="6" timestamp="2012-07-20T00:03:08Z" uid="722137" user="OSMF Redaction Account" changeset="12351950" lat="-37.8703981" lon="145.0673916"/>
  <node id="92335364" version="6" timestamp="2012-07-20T00:03:07Z" uid="722137" user="OSMF Redaction Account" changeset="12351950" lat="-37.8705337" lon="145.0674103"/>
  <node id="92335694" version="4" timestamp="2012-07-20T08:00:43Z" uid="722137" user="OSMF Redaction Account" changeset="12367247" lat="-27.5507322" lon="153.0578757"/>
  <node id="92335694" version="5" timestamp="2012-07-21T09:55:24Z" uid="84700" user="Tim 001" changeset="12405248" lat="-27.5507262" lon="153.0578971"/>
  <node id="92336638" version="10" timestamp="2012-07-20T00:23:40Z" uid="722137" user="OSMF Redaction Account" changeset="12352151" lat="-37.8600678" lon="145.0608995"/>
  <node id="92339762" version="5" timestamp="2012-07-20T08:01:24Z" uid="722137" user="OSMF Redaction Account" changeset="12367283" lat="-27.5191938" lon="153.0320728"/>
  <node id="92339764" version="5" timestamp="2012-07-20T08:01:24Z" uid="722137" user="OSMF Redaction Account" changeset="12367283" lat="-27.518897" lon="153.0312403"/>
  <node id="92339823" version="12" timestamp="2012-07-16T23:39:19Z" uid="722137" user="OSMF Redaction Account" changeset="12253597" lat="48.2417211" lon="16.3854045">
    <tag k="colour" v="brown"/>
    <tag k="layer" v="2"/>
    <tag k="operator" v="Wiener Linien"/>
    <tag k="railway" v="station"/>
    <tag k="ref" v="1705"/>
    <tag k="uic_name" v="Wien Handelskai (U6)"/>
    <tag k="uic_ref" v="8170072"/>
    <tag k="wheelchair" v="yes"/>
  </node>
  <node id="92339823" version="13" timestamp="2012-08-02T19:09:50Z" uid="26818" user="David &amp; Christine Schmitt" changeset="12589322" lat="48.2417246" lon="16.3853938">
    <tag k="colour" v="brown"/>
    <tag k="layer" v="2"/>
    <tag k="operator" v="Wiener Linien"/>
    <tag k="railway" v="station"/>
    <tag k="ref" v="1705"/>
    <tag k="uic_name" v="Wien Handelskai (U6)"/>
    <tag k="uic_ref" v="8170072"/>
    <tag k="wheelchair" v="yes"/>
  </node>
</osm>
