<?xml version='1.0' encoding='UTF-8'?>
<osm version="0.6" generator="libosmium/2.20.0">
  <node id="924150564" version="2" timestamp="2010-10-05T01:35:27Z" uid="20587" user="balrog-kun" changeset="5958352" lat="50.0913852" lon="20.0078884">
    <tag k="addr:city" v="Kraków@Kraków XV Mistrzejowice"/>
    <tag k="addr:housenumber" v="1"/>
    <tag k="addr:street" v="Osiedle Kombatantów"/>
    <tag k="source" v="http://ump.waw.pl/ retrieved 04:46:30 05/10/10 (UMP-Krakow/src/KRAKOW_XV_MISTRZEJOWICE.ulice.txt)"/>
  </node>
  <node id="924150564" version="3" timestamp="2011-08-02T20:05:31Z" uid="452548" user="yerry_b" changeset="8904132" lat="50.0913852" lon="20.0078884"/>
  <node id="924152385" version="2" timestamp="2010-10-05T01:35:12Z" uid="20587" user="balrog-kun" changeset="5958352" lat="50.0913665" lon="20.0080005">
    <tag k="addr:city" v="Kraków@Kraków XV Mistrzejowice"/>
    <tag k="addr:housenumber" v="1"/>
    <tag k="addr:street" v="Osiedle Kombatantów"/>
    <tag k="source" v="http://ump.waw.pl/ retrieved 04:46:30 05/10/10 (UMP-Krakow/src/KRAKOW_XV_MISTRZEJOWICE.ulice.txt)"/>
  </node>
  <node id="924152385" version="3" timestamp="2011-08-02T20:05:31Z" uid="452548" user="yerry_b" changeset="8904132" lat="50.0913665" lon="20.0080005"/>
  <node id="924153900" version="2" timestamp="2010-10-05T01:35:14Z" uid="20587" user="balrog-kun" changeset="5958352" lat="50.0913917" lon="20.00777">
    <tag k="addr:city" v="Kraków@Kraków XV Mistrzejowice"/>
    <tag k="addr:housenumber" v="1"/>
    <tag k="addr:street" v="Osiedle Kombatantów"/>
    <tag k="source" v="http://ump.waw.pl/ retrieved 04:46:30 05/10/10 (UMP-Krakow/src/KRAKOW_XV_MISTRZEJOWICE.ulice.txt)"/>
  </node>
  <node id="924153900" version="3" timestamp="2011-08-02T20:05:31Z" uid="452548" user="yerry_b" changeset="8904132" lat="50.0913917" lon="20.00777"/>
  <node id="924156348" version="2" timestamp="2010-10-05T01:33:22Z" uid="20587" user="balrog-kun" changeset="5958352" lat="50.0915167" lon="20.0066836">
    <tag k="addr:city" v="Kraków@Kraków XV Mistrzejowice"/>
    <tag k="addr:housenumber" v="14"/>
    <tag k="addr:street" v="Osiedle Kombatantów"/>
    <tag k="source" v="http://ump.waw.pl/ retrieved 04:46:30 05/10/10 (UMP-Krakow/src/KRAKOW_XV_MISTRZEJOWICE.ulice.txt)"/>
  </node>
  <node id="924156348" version="3" timestamp="2011-08-02T20:05:31Z" uid="452548" user="yerry_b" changeset="8904132" lat="50.0915167" lon="20.0066836"/>
  <node id="924157375" version="2" timestamp="2010-10-05T01:35:28Z" uid="20587" user="balrog-kun" changeset="5958352" lat="50.09152" lon="20.00659">
    <tag k="addr:city" v="Kraków"/>
    <tag k="addr:housenumber" v="14"/>
    <tag k="addr:street" v="Osiedle Kombatantów"/>
    <tag k="amenity" v="bank"/>
    <tag k="atm" v="yes"/>
    <tag k="name" v="BZ WBK"/>
    <tag k="phone" v="+48126428920"/>
    <tag k="source" v="http://ump.waw.pl/ retrieved 04:46:30 05/10/10 (UMP-Krakow/src/KRAKOW.bankomaty.pnt-converted.txt)"/>
  </node>
  <node id="924159057" version="2" timestamp="2010-09-28T04:47:54Z" uid="6975" user="ulfl" changeset="5899729" lat="44.6766333" lon="7.0593122">
    <tag k="ele" v="2872"/>
    <tag k="mountain_pass" v="yes"/>
    <tag k="name" v="Colle Losetta"/>
  </node>
  <node id="924157375" version="3" timestamp="2012-07-25T14:59:44Z" uid="722137" user="OSMF Redaction Account" changeset="12488110" lat="50.09152" lon="20.00659"/>
</osm>
