<?xml version='1.0' encoding='UTF-8'?>
<osm version="0.6" generator="libosmium/2.20.0">
  <node id="92666829" version="5" timestamp="2009-09-04T21:08:14Z" uid="36809" user="pfoten_weg_!_" changeset="2374562" lat="48.1042955" lon="11.5346091">
    <tag k="amenity" v="biergarten"/>
    <tag k="name" v="Münchner Haupt&apos;"/>
  </node>
  <node id="92666829" version="6" timestamp="2010-07-17T22:57:10Z" uid="30579" user="Tiramisu" changeset="5246869" lat="48.1042956" lon="11.5346091">
    <tag k="addr:city" v="München"/>
    <tag k="addr:housenumber" v="6"/>
    <tag k="addr:postcode" v="81379"/>
    <tag k="addr:street" v="Zielstattstraße"/>
    <tag k="amenity" v="biergarten"/>
    <tag k="name" v="Münchner Haupt&apos;"/>
  </node>
  <node id="92666829" version="7" timestamp="2010-08-08T14:55:18Z" uid="65148" user="Pirat Michi" changeset="5434023" lat="48.1042956" lon="11.5346091">
    <tag k="addr:city" v="München"/>
    <tag k="addr:housenumber" v="6"/>
    <tag k="addr:postcode" v="81379"/>
    <tag k="addr:street" v="Zielstattstraße"/>
    <tag k="amenity" v="biergarten"/>
    <tag k="beer" v="Kaltenberg"/>
    <tag k="capacity" v="2500"/>
    <tag k="contact:email" v="info ät muenchnerhaupt.de"/>
    <tag k="contact:fax" v="089/784453"/>
    <tag k="contact:phone" v="089/786940"/>
    <tag k="contact:website" v="http://www.muenchnerhaupt.de/"/>
    <tag k="name" v="Münchner Haupt&apos;"/>
    <tag k="opening_hours" v="Mo-Su 11:00-23:00"/>
    <tag k="website" v="http://www.muenchnerhaupt.de/"/>
    <tag k="wheelchair" v="yes"/>
  </node>
  <node id="92666829" version="8" timestamp="2010-09-01T20:40:40Z" uid="65148" user="Pirat Michi" changeset="5657303" lat="48.1042956" lon="11.5346091">
    <tag k="addr:city" v="München"/>
    <tag k="addr:housenumber" v="6"/>
    <tag k="addr:postcode" v="81379"/>
    <tag k="addr:street" v="Zielstattstraße"/>
    <tag k="amenity" v="biergarten"/>
    <tag k="brewery" v="Kaltenberg"/>
    <tag k="capacity" v="2500"/>
    <tag k="contact:email" v="info ät muenchnerhaupt.de"/>
    <tag k="contact:fax" v="089/784453"/>
    <tag k="contact:phone" v="089/786940"/>
    <tag k="contact:website" v="http://www.muenchnerhaupt.de/"/>
    <tag k="name" v="Münchner Haupt&apos;"/>
    <tag k="opening_hours" v="Mo-Su 11:00-23:00"/>
    <tag k="website" v="http://www.muenchnerhaupt.de/"/>
    <tag k="wheelchair" v="yes"/>
  </node>
  <node id="92666829" version="9" timestamp="2010-11-15T13:57:04Z" uid="65148" user="tixuwuoz" changeset="6377564" lat="48.1042956" lon="11.5346091">
    <tag k="addr:city" v="München"/>
    <tag k="addr:country" v="DE"/>
    <tag k="addr:housenumber" v="6"/>
    <tag k="addr:postcode" v="81379"/>
    <tag k="addr:street" v="Zielstattstraße"/>
    <tag k="amenity" v="biergarten"/>
    <tag k="brewery" v="Kaltenberg"/>
    <tag k="capacity" v="2500"/>
    <tag k="contact:email" v="info ät muenchnerhaupt.de"/>
    <tag k="contact:fax" v="089/784453"/>
    <tag k="contact:phone" v="089/786940"/>
    <tag k="contact:website" v="http://www.muenchnerhaupt.de/"/>
    <tag k="name" v="Münchner Haupt&apos;"/>
    <tag k="opening_hours" v="Mo-Su 11:00-23:00"/>
    <tag k="website" v="http://www.muenchnerhaupt.de/"/>
    <tag k="wheelchair" v="yes"/>
  </node>
  <node id="92666829" version="10" timestamp="2011-07-03T20:44:20Z" uid="480984" user="Fraeggl666" changeset="8623778" lat="48.1042956" lon="11.5346091">
    <tag k="addr:city" v="München"/>
    <tag k="addr:country" v="DE"/>
    <tag k="addr:housenumber" v="6"/>
    <tag k="addr:postcode" v="81379"/>
    <tag k="addr:street" v="Zielstattstraße"/>
    <tag k="amenity" v="restaurant"/>
    <tag k="brewery" v="Kaltenberg"/>
    <tag k="capacity" v="2500"/>
    <tag k="contact:email" v="info ät muenchnerhaupt.de"/>
    <tag k="contact:fax" v="089/784453"/>
    <tag k="contact:phone" v="089/786940"/>
    <tag k="contact:website" v="http://www.muenchnerhaupt.de/"/>
    <tag k="cuisine" v="bavarian"/>
    <tag k="name" v="Münchner Haupt&apos;"/>
    <tag k="opening_hours" v="Mo-Su 11:00-23:00"/>
    <tag k="website" v="http://www.muenchnerhaupt.de/"/>
    <tag k="wheelchair" v="yes"/>
  </node>
  <node id="92666829" version="11" timestamp="2011-07-03T20:46:53Z" uid="480984" user="Fraeggl666" changeset="8623810" lat="48.1042956" lon="11.5346091">
    <tag k="addr:city" v="München"/>
    <tag k="addr:country" v="DE"/>
    <tag k="addr:housenumber" v="6"/>
    <tag k="addr:postcode" v="81379"/>
    <tag k="addr:street" v="Zielstattstraße"/>
    <tag k="brewery" v="Kaltenberg"/>
    <tag k="capacity" v="2500"/>
    <tag k="contact:email" v="info ät muenchnerhaupt.de"/>
    <tag k="contact:fax" v="089/784453"/>
    <tag k="contact:phone" v="089/786940"/>
    <tag k="contact:website" v="http://www.muenchnerhaupt.de/"/>
    <tag k="cuisine" v="bavarian"/>
    <tag k="name" v="Münchner Haupt&apos;"/>
    <tag k="opening_hours" v="Mo-Su 11:00-23:00"/>
    <tag k="website" v="http://www.muenchnerhaupt.de/"/>
    <tag k="wheelchair" v="yes"/>
  </node>
  <node id="92666832" version="4" timestamp="2009-09-04T21:08:13Z" uid="36809" user="pfoten_weg_!_" changeset="2374562" lat="48.1039381" lon="11.5344837">
    <tag k="amenity" v="restaurant"/>
    <tag k="name" v="Münchner Haupt&apos;"/>
  </node>
  <node id="92666832" version="5" timestamp="2010-07-17T22:55:54Z" uid="30579" user="Tiramisu" changeset="5246869" lat="48.1039382" lon="11.5344837">
    <tag k="addr:city" v="München"/>
    <tag k="addr:housenumber" v="6"/>
    <tag k="addr:postcode" v="81379"/>
    <tag k="addr:street" v="Zielstattstraße"/>
    <tag k="amenity" v="restaurant"/>
    <tag k="cuisine" v="bavarian"/>
    <tag k="name" v="Münchner Haupt&apos;"/>
    <tag k="website" v="http://www.muenchnerhaupt.de/"/>
  </node>
  <node id="92666832" version="6" timestamp="2010-08-08T14:55:18Z" uid="65148" user="Pirat Michi" changeset="5434023" lat="48.1039382" lon="11.5344837">
    <tag k="addr:city" v="München"/>
    <tag k="addr:housenumber" v="6"/>
    <tag k="addr:postcode" v="81379"/>
    <tag k="addr:street" v="Zielstattstraße"/>
    <tag k="amenity" v="restaurant"/>
    <tag k="beer" v="Kaltenberg"/>
    <tag k="capacity" v="500"/>
    <tag k="contact:fax" v="089/784453"/>
    <tag k="contact:phone" v="089/786940"/>
    <tag k="contact:website" v="http://www.muenchnerhaupt.de/"/>
    <tag k="cuisine" v="bavarian"/>
    <tag k="name" v="Münchner Haupt&apos;"/>
    <tag k="website" v="http://www.muenchnerhaupt.de/"/>
  </node>
  <node id="92666832" version="7" timestamp="2010-09-01T20:40:41Z" uid="65148" user="Pirat Michi" changeset="5657303" lat="48.1039382" lon="11.5344837">
    <tag k="addr:city" v="München"/>
    <tag k="addr:housenumber" v="6"/>
    <tag k="addr:postcode" v="81379"/>
    <tag k="addr:street" v="Zielstattstraße"/>
    <tag k="amenity" v="restaurant"/>
    <tag k="brewery" v="Kaltenberg"/>
    <tag k="capacity" v="500"/>
    <tag k="contact:fax" v="089/784453"/>
    <tag k="contact:phone" v="089/786940"/>
    <tag k="contact:website" v="http://www.muenchnerhaupt.de/"/>
    <tag k="cuisine" v="bavarian"/>
    <tag k="name" v="Münchner Haupt&apos;"/>
    <tag k="website" v="http://www.muenchnerhaupt.de/"/>
  </node>
  <node id="92666832" version="8" timestamp="2010-11-15T13:56:22Z" uid="65148" user="tixuwuoz" changeset="6377564" lat="48.1039382" lon="11.5344837">
    <tag k="addr:city" v="München"/>
    <tag k="addr:country" v="DE"/>
    <tag k="addr:housenumber" v="6"/>
    <tag k="addr:postcode" v="81379"/>
    <tag k="addr:street" v="Zielstattstraße"/>
    <tag k="amenity" v="restaurant"/>
    <tag k="brewery" v="Kaltenberg"/>
    <tag k="capacity" v="500"/>
    <tag k="contact:fax" v="089/784453"/>
    <tag k="contact:phone" v="089/786940"/>
    <tag k="contact:website" v="http://www.muenchnerhaupt.de/"/>
    <tag k="cuisine" v="bavarian"/>
    <tag k="name" v="Münchner Haupt&apos;"/>
    <tag k="website" v="http://www.muenchnerhaupt.de/"/>
  </node>
  <node id="92666832" version="9" timestamp="2011-02-01T21:47:12Z" uid="290680" user="wheelmap_visitor" changeset="7156704" lat="48.1039382" lon="11.5344837">
    <tag k="addr:city" v="München"/>
    <tag k="addr:country" v="DE"/>
    <tag k="addr:housenumber" v="6"/>
    <tag k="addr:postcode" v="81379"/>
    <tag k="addr:street" v="Zielstattstraße"/>
    <tag k="amenity" v="restaurant"/>
    <tag k="brewery" v="Kaltenberg"/>
    <tag k="capacity" v="500"/>
    <tag k="contact:fax" v="089/784453"/>
    <tag k="contact:phone" v="089/786940"/>
    <tag k="contact:website" v="http://www.muenchnerhaupt.de/"/>
    <tag k="cuisine" v="bavarian"/>
    <tag k="name" v="Münchner Haupt&apos;"/>
    <tag k="website" v="http://www.muenchnerhaupt.de/"/>
    <tag k="wheelchair" v="limited"/>
  </node>
  <node id="92666829" version="12" timestamp="2012-07-28T23:23:51Z" uid="342705" user="KLMB" changeset="12529444" lat="48.1044802" lon="11.5347169">
    <tag k="addr:city" v="München"/>
    <tag k="addr:country" v="DE"/>
    <tag k="addr:housenumber" v="6"/>
    <tag k="addr:postcode" v="81379"/>
    <tag k="addr:street" v="Zielstattstraße"/>
    <tag k="amenity" v="biergarten"/>
    <tag k="brewery" v="Kaltenberg"/>
    <tag k="capacity" v="2500"/>
    <tag k="contact:email" v="info ät muenchnerhaupt.de"/>
    <tag k="contact:fax" v="089/784453"/>
    <tag k="contact:phone" v="089/786940"/>
    <tag k="contact:website" v="http://www.muenchnerhaupt.de/"/>
    <tag k="cuisine" v="bavarian"/>
    <tag k="name" v="Münchner Haupt&apos;"/>
    <tag k="opening_hours" v="Mo-Su 11:00-23:00"/>
    <tag k="website" v="http://www.muenchnerhaupt.de/"/>
    <tag k="wheelchair" v="yes"/>
  </node>
</osm>
