<?xml version='1.0' encoding='UTF-8'?>
<osm version="0.6" generator="libosmium/2.20.0">
  <node id="932281968" version="1" timestamp="2010-09-30T20:47:02Z" uid="49111" user="Markus B" changeset="5923459" lat="49.4527846" lon="11.0731659">
    <tag k="amenity" v="bar"/>
    <tag k="brewery" v="Tucher"/>
    <tag k="name" v="Mexican Beach Bar"/>
  </node>
  <node id="932281970" version="1" timestamp="2010-09-30T20:47:02Z" uid="49111" user="Markus B" changeset="5923459" lat="49.4524333" lon="11.0721856">
    <tag k="amenity" v="bar"/>
    <tag k="name" v="Schleuder"/>
    <tag k="smoking" v="yes"/>
  </node>
  <node id="932281970" version="2" timestamp="2010-10-30T12:39:29Z" uid="155259" user="siki" changeset="6226967" lat="49.4524333" lon="11.0721855">
    <tag k="amenity" v="pub"/>
    <tag k="name" v="Schleuder"/>
    <tag k="smoking" v="yes"/>
  </node>
  <node id="932281970" version="3" timestamp="2010-10-30T12:39:43Z" uid="155259" user="siki" changeset="6226967" lat="49.4524333" lon="11.0721855">
    <tag k="amenity" v="pub"/>
    <tag k="name" v="Schleuder"/>
    <tag k="smoking" v="no"/>
  </node>
  <node id="932281970" version="4" timestamp="2010-10-30T12:40:12Z" uid="155259" user="siki" changeset="6226967" lat="49.4524333" lon="11.0721855">
    <tag k="addr:city" v="Nürnberg"/>
    <tag k="addr:housenumber" v="19"/>
    <tag k="addr:postcode" v="90403"/>
    <tag k="addr:street" v="Obere Wörthstraße"/>
    <tag k="amenity" v="pub"/>
    <tag k="name" v="Kloster"/>
    <tag k="phone" v="+49 -911-209975‎"/>
    <tag k="smoking" v="no"/>
    <tag k="website" v="http://das-kloster.eu"/>
  </node>
  <node id="932281970" version="5" timestamp="2010-10-30T12:40:44Z" uid="155259" user="siki" changeset="6226967" lat="49.4524333" lon="11.0721855">
    <tag k="addr:city" v="Nürnberg"/>
    <tag k="amenity" v="pub"/>
    <tag k="name" v="Schleuder"/>
    <tag k="smoking" v="no"/>
  </node>
  <node id="932281970" version="6" timestamp="2010-11-08T19:14:21Z" uid="202858" user="kellerma" changeset="6323037" lat="49.4524333" lon="11.0721855">
    <tag k="addr:city" v="Nürnberg"/>
    <tag k="addr:country" v="DE"/>
    <tag k="amenity" v="pub"/>
    <tag k="name" v="Schleuder"/>
    <tag k="smoking" v="no"/>
  </node>
  <node id="932281970" version="7" timestamp="2010-12-24T11:18:17Z" uid="133024" user="Universalmapper" changeset="6753571" lat="49.4524333" lon="11.0721855">
    <tag k="amenity" v="pub"/>
    <tag k="name" v="Schleuder"/>
    <tag k="smoking" v="no"/>
  </node>
  <node id="932281970" version="8" timestamp="2011-10-17T09:37:32Z" uid="290680" user="wheelmap_visitor" changeset="9578325" lat="49.4524333" lon="11.0721855">
    <tag k="amenity" v="pub"/>
    <tag k="name" v="Schleuder"/>
    <tag k="smoking" v="no"/>
    <tag k="wheelchair" v="limited"/>
  </node>
  <node id="932281970" version="9" timestamp="2012-05-11T00:31:53Z" uid="497849" user="pyram" changeset="11564033" lat="49.4524897" lon="11.0721481">
    <tag k="amenity" v="pub"/>
    <tag k="name" v="Schleuder"/>
    <tag k="smoking" v="no"/>
    <tag k="wheelchair" v="limited"/>
  </node>
</osm>
