<?xml version='1.0' encoding='UTF-8'?>
<osm version="0.6" generator="libosmium/2.20.0">
  <node id="935994654" version="1" timestamp="2010-10-02T23:44:45Z" uid="61114" user="Trav" changeset="5940544" lat="-33.7191262" lon="151.101939">
    <tag k="addr:housenumber" v="55"/>
    <tag k="addr:postcode" v="2076"/>
    <tag k="addr:street" v="Denman Parade"/>
    <tag k="source" v="survey"/>
  </node>
  <node id="935994664" version="1" timestamp="2010-10-02T23:44:45Z" uid="61114" user="Trav" changeset="5940544" lat="-33.71902" lon="151.1020331">
    <tag k="addr:housenumber" v="57"/>
    <tag k="addr:postcode" v="2076"/>
    <tag k="addr:street" v="Denman Parade"/>
    <tag k="source" v="survey"/>
  </node>
  <node id="935994671" version="1" timestamp="2010-10-02T23:44:45Z" uid="61114" user="Trav" changeset="5940544" lat="-33.7189208" lon="151.1021137">
    <tag k="addr:housenumber" v="2-59"/>
    <tag k="addr:postcode" v="2076"/>
    <tag k="addr:street" v="Denman Parade"/>
    <tag k="source" v="survey"/>
  </node>
  <node id="935994674" version="1" timestamp="2010-10-02T23:44:45Z" uid="61114" user="Trav" changeset="5940544" lat="-33.7188607" lon="151.1021725">
    <tag k="addr:housenumber" v="1-59"/>
    <tag k="addr:postcode" v="2076"/>
    <tag k="addr:street" v="Denman Parade"/>
    <tag k="source" v="survey"/>
  </node>
  <node id="935994677" version="1" timestamp="2010-10-02T23:44:45Z" uid="61114" user="Trav" changeset="5940544" lat="-33.7187796" lon="151.1022548">
    <tag k="addr:housenumber" v="61"/>
    <tag k="addr:postcode" v="2076"/>
    <tag k="addr:street" v="Denman Parade"/>
    <tag k="source" v="survey"/>
  </node>
  <node id="935994685" version="1" timestamp="2010-10-02T23:44:46Z" uid="61114" user="Trav" changeset="5940544" lat="-33.7185714" lon="151.1027706"/>
  <node id="935994685" version="2" timestamp="2011-04-14T23:51:17Z" uid="9477" user="NilbogAus" changeset="7866054" lat="-33.7185714" lon="151.1027706"/>
  <node id="935994706" version="1" timestamp="2010-10-02T23:44:46Z" uid="61114" user="Trav" changeset="5940544" lat="-33.7185127" lon="151.1025673">
    <tag k="addr:housenumber" v="29"/>
    <tag k="addr:postcode" v="2076"/>
    <tag k="addr:street" v="Edwards Road"/>
    <tag k="source" v="survey"/>
  </node>
  <node id="935994711" version="1" timestamp="2010-10-02T23:44:46Z" uid="61114" user="Trav" changeset="5940544" lat="-33.7184065" lon="151.1023926">
    <tag k="addr:housenumber" v="31"/>
    <tag k="addr:postcode" v="2076"/>
    <tag k="addr:street" v="Edwards Road"/>
    <tag k="source" v="survey"/>
  </node>
  <node id="935994717" version="1" timestamp="2010-10-02T23:44:46Z" uid="61114" user="Trav" changeset="5940544" lat="-33.7183115" lon="151.1022431">
    <tag k="addr:housenumber" v="33"/>
    <tag k="addr:postcode" v="2076"/>
    <tag k="addr:street" v="Edwards Road"/>
    <tag k="source" v="survey"/>
  </node>
  <node id="935994740" version="1" timestamp="2010-10-02T23:44:47Z" uid="61114" user="Trav" changeset="5940544" lat="-33.7182081" lon="151.10207">
    <tag k="addr:housenumber" v="35"/>
    <tag k="addr:postcode" v="2076"/>
    <tag k="addr:street" v="Edwards Road"/>
    <tag k="source" v="survey"/>
  </node>
  <node id="935994741" version="1" timestamp="2010-10-02T23:44:47Z" uid="61114" user="Trav" changeset="5940544" lat="-33.7181466" lon="151.1019272">
    <tag k="addr:housenumber" v="37"/>
    <tag k="addr:postcode" v="2076"/>
    <tag k="addr:street" v="Edwards Road"/>
    <tag k="source" v="extrapolation"/>
  </node>
  <node id="935994747" version="1" timestamp="2010-10-02T23:44:47Z" uid="61114" user="Trav" changeset="5940544" lat="-33.7180697" lon="151.1017542">
    <tag k="addr:housenumber" v="39"/>
    <tag k="addr:postcode" v="2076"/>
    <tag k="addr:street" v="Edwards Road"/>
    <tag k="source" v="survey"/>
  </node>
  <node id="935994775" version="1" timestamp="2010-10-02T23:44:47Z" uid="61114" user="Trav" changeset="5940544" lat="-33.7179929" lon="151.1016382">
    <tag k="addr:housenumber" v="41"/>
    <tag k="addr:postcode" v="2076"/>
    <tag k="addr:street" v="Edwards Road"/>
    <tag k="source" v="survey"/>
  </node>
  <node id="935994776" version="1" timestamp="2010-10-02T23:44:47Z" uid="61114" user="Trav" changeset="5940544" lat="-33.7178866" lon="151.1014618">
    <tag k="addr:housenumber" v="43"/>
    <tag k="addr:postcode" v="2076"/>
    <tag k="addr:street" v="Edwards Road"/>
    <tag k="source" v="survey"/>
  </node>
  <node id="935994824" version="1" timestamp="2010-10-02T23:44:48Z" uid="61114" user="Trav" changeset="5940544" lat="-33.7178285" lon="151.1011646">
    <tag k="addr:housenumber" v="1"/>
    <tag k="addr:postcode" v="2076"/>
    <tag k="addr:street" v="Tracey Close"/>
    <tag k="source" v="survey"/>
  </node>
  <node id="935994827" version="1" timestamp="2010-10-02T23:44:48Z" uid="61114" user="Trav" changeset="5940544" lat="-33.7179856" lon="151.1009196">
    <tag k="addr:housenumber" v="2"/>
    <tag k="addr:postcode" v="2076"/>
    <tag k="addr:street" v="Tracey Close"/>
    <tag k="source" v="extrapolation"/>
  </node>
  <node id="935994836" version="1" timestamp="2010-10-02T23:44:48Z" uid="61114" user="Trav" changeset="5940544" lat="-33.718137" lon="151.100758">
    <tag k="addr:housenumber" v="3"/>
    <tag k="addr:postcode" v="2076"/>
    <tag k="addr:street" v="Tracey Close"/>
    <tag k="source" v="survey"/>
  </node>
  <node id="935994841" version="1" timestamp="2010-10-02T23:44:48Z" uid="61114" user="Trav" changeset="5940544" lat="-33.7189727" lon="151.1026502">
    <tag k="addr:housenumber" v="100"/>
    <tag k="addr:postcode" v="2076"/>
    <tag k="addr:street" v="Denman Parade"/>
    <tag k="source" v="survey"/>
  </node>
  <node id="935994841" version="2" timestamp="2010-10-04T08:10:45Z" uid="61114" user="Trav" changeset="5951124" lat="-33.7189882" lon="151.1026635">
    <tag k="addr:housenumber" v="100"/>
    <tag k="addr:postcode" v="2076"/>
    <tag k="addr:street" v="Denman Parade"/>
    <tag k="source" v="survey"/>
  </node>
  <node id="935994654" version="2" timestamp="2012-07-19T20:14:42Z" uid="722137" user="OSMF Redaction Account" changeset="12345876" lat="-33.7191262" lon="151.101939"/>
  <node id="935994664" version="2" timestamp="2012-07-19T20:14:43Z" uid="722137" user="OSMF Redaction Account" changeset="12345876" lat="-33.71902" lon="151.1020331"/>
  <node id="935994671" version="2" timestamp="2012-07-19T20:14:44Z" uid="722137" user="OSMF Redaction Account" changeset="12345876" lat="-33.7189208" lon="151.1021137"/>
  <node id="935994674" version="2" timestamp="2012-07-19T20:14:45Z" uid="722137" user="OSMF Redaction Account" changeset="12345876" lat="-33.7188607" lon="151.1021725"/>
  <node id="935994677" version="2" timestamp="2012-07-19T20:14:46Z" uid="722137" user="OSMF Redaction Account" changeset="12345876" lat="-33.7187796" lon="151.1022548"/>
  <node id="935994706" version="2" timestamp="2012-07-19T20:14:49Z" uid="722137" user="OSMF Redaction Account" changeset="12345876" lat="-33.7185127" lon="151.1025673"/>
  <node id="935994711" version="2" timestamp="2012-07-19T20:14:50Z" uid="722137" user="OSMF Redaction Account" changeset="12345876" lat="-33.7184065" lon="151.1023926"/>
  <node id="935994717" version="2" timestamp="2012-07-19T20:14:52Z" uid="722137" user="OSMF Redaction Account" changeset="12345876" lat="-33.7183115" lon="151.1022431"/>
  <node id="935994740" version="2" timestamp="2012-07-19T20:14:53Z" uid="722137" user="OSMF Redaction Account" changeset="12345876" lat="-33.7182081" lon="151.10207"/>
  <node id="935994741" version="2" timestamp="2012-07-19T20:14:54Z" uid="722137" user="OSMF Redaction Account" changeset="12345876" lat="-33.7181466" lon="151.1019272"/>
  <node id="935994747" version="2" timestamp="2012-07-19T20:14:54Z" uid="722137" user="OSMF Redaction Account" changeset="12345876" lat="-33.7180697" lon="151.1017542"/>
  <node id="935994775" version="2" timestamp="2012-07-19T20:14:55Z" uid="722137" user="OSMF Redaction Account" changeset="12345876" lat="-33.7179929" lon="151.1016382"/>
  <node id="935994776" version="2" timestamp="2012-07-19T20:14:55Z" uid="722137" user="OSMF Redaction Account" changeset="12345876" lat="-33.7178866" lon="151.1014618"/>
  <node id="935994824" version="2" timestamp="2012-07-19T20:14:56Z" uid="722137" user="OSMF Redaction Account" changeset="12345876" lat="-33.7178285" lon="151.1011646"/>
  <node id="935994827" version="2" timestamp="2012-07-19T20:14:55Z" uid="722137" user="OSMF Redaction Account" changeset="12345876" lat="-33.7179856" lon="151.1009196"/>
  <node id="935994836" version="2" timestamp="2012-07-19T20:14:54Z" uid="722137" user="OSMF Redaction Account" changeset="12345876" lat="-33.718137" lon="151.100758"/>
  <node id="935994841" version="3" timestamp="2012-07-19T20:14:43Z" uid="722137" user="OSMF Redaction Account" changeset="12345876" lat="-33.7189882" lon="151.1026635"/>
</osm>
