<?xml version='1.0' encoding='UTF-8'?>
<osm version="0.6" generator="libosmium/2.20.0">
  <node id="936116043" version="1" timestamp="2010-10-03T03:27:31Z" uid="20587" user="balrog-kun" changeset="5941061" lat="54.4393211" lon="18.5608226">
    <tag k="addr:city" v="Sopot"/>
    <tag k="addr:housenumber" v="753"/>
    <tag k="addr:street" v="Aleja Niepodległości"/>
    <tag k="amenity" v="atm"/>
    <tag k="atm_ref" v="ML0199A"/>
    <tag k="millennium:date" v="2009-05-21 17:13:02"/>
    <tag k="millennium:network" v="Millennium"/>
    <tag k="millennium:ref" v="18130"/>
    <tag k="millennium:subtype" v="Euronet"/>
    <tag k="name" v="Bankomat Millennium"/>
    <tag k="operator" v="Euronet Sp. z o.o."/>
  </node>
  <node id="936116043" version="2" timestamp="2012-01-07T20:55:53Z" uid="580594" user="sqmap3" changeset="10325614" lat="54.4393211" lon="18.5608226">
    <tag k="addr:city" v="Sopot"/>
    <tag k="addr:country" v="PL"/>
    <tag k="addr:housenumber" v="753"/>
    <tag k="addr:street" v="Aleja Niepodległości"/>
    <tag k="amenity" v="atm"/>
    <tag k="atm_ref" v="ML0199A"/>
    <tag k="millennium:date" v="2009-05-21 17:13:02"/>
    <tag k="millennium:network" v="Millennium"/>
    <tag k="millennium:ref" v="18130"/>
    <tag k="millennium:subtype" v="Euronet"/>
    <tag k="name" v="Bankomat Millennium"/>
    <tag k="operator" v="Euronet Sp. z o.o."/>
  </node>
  <node id="936116043" version="3" timestamp="2012-01-07T21:21:44Z" uid="580594" user="sqmap3" changeset="10325874" lat="54.4393211" lon="18.5608226">
    <tag k="addr:city" v="Sopot"/>
    <tag k="addr:country" v="PL"/>
    <tag k="addr:housenumber" v="753"/>
    <tag k="addr:street" v="aleja Niepodległości"/>
    <tag k="amenity" v="atm"/>
    <tag k="atm_ref" v="ML0199A"/>
    <tag k="millennium:date" v="2009-05-21 17:13:02"/>
    <tag k="millennium:network" v="Millennium"/>
    <tag k="millennium:ref" v="18130"/>
    <tag k="millennium:subtype" v="Euronet"/>
    <tag k="name" v="Bankomat Millennium"/>
    <tag k="operator" v="Euronet Sp. z o.o."/>
  </node>
  <node id="936116044" version="1" timestamp="2010-10-03T03:27:32Z" uid="20587" user="balrog-kun" changeset="5941061" lat="52.5422767" lon="19.6964611">
    <tag k="addr:city" v="Płock"/>
    <tag k="addr:housenumber" v="21"/>
    <tag k="addr:street" v="Kolegialna"/>
    <tag k="amenity" v="atm"/>
    <tag k="atm_ref" v="1333000"/>
    <tag k="millennium:date" v="2009-05-21 17:13:02"/>
    <tag k="millennium:network" v="BZ WBK"/>
    <tag k="millennium:ref" v="18506"/>
    <tag k="millennium:subtype" v="Euronet"/>
    <tag k="name" v="Bankomat BZ WBK"/>
    <tag k="operator" v="Euronet Sp. z o.o."/>
  </node>
  <node id="936116045" version="1" timestamp="2010-10-03T03:27:32Z" uid="20587" user="balrog-kun" changeset="5941061" lat="53.4088" lon="18.4496">
    <tag k="addr:city" v="Świecie"/>
    <tag k="addr:housenumber" v="14"/>
    <tag k="addr:street" v="Klasztorna"/>
    <tag k="amenity" v="atm"/>
    <tag k="atm_ref" v="1678220"/>
    <tag k="millennium:date" v="2009-05-21 17:13:02"/>
    <tag k="millennium:network" v="BZ WBK"/>
    <tag k="millennium:ref" v="18696"/>
    <tag k="millennium:subtype" v="Euronet"/>
    <tag k="name" v="Bankomat BZ WBK"/>
    <tag k="operator" v="Euronet Sp. z o.o."/>
  </node>
  <node id="936116046" version="1" timestamp="2010-10-03T03:27:32Z" uid="20587" user="balrog-kun" changeset="5941061" lat="53.4312" lon="14.5424">
    <tag k="addr:city" v="Szczecin"/>
    <tag k="addr:housenumber" v="87"/>
    <tag k="addr:street" v="Jagiellońska"/>
    <tag k="amenity" v="atm"/>
    <tag k="atm_ref" v="ML5837B"/>
    <tag k="millennium:date" v="2009-05-21 17:13:02"/>
    <tag k="millennium:network" v="Millennium"/>
    <tag k="millennium:ref" v="18144"/>
    <tag k="millennium:subtype" v="Euronet"/>
    <tag k="name" v="Bankomat Millennium"/>
    <tag k="operator" v="Euronet Sp. z o.o."/>
  </node>
  <node id="936116046" version="2" timestamp="2010-11-11T21:42:27Z" uid="30632" user="antblant" changeset="6347263" lat="53.4311085" lon="14.543246">
    <tag k="addr:city" v="Szczecin"/>
    <tag k="addr:housenumber" v="87"/>
    <tag k="addr:street" v="Jagiellońska"/>
    <tag k="amenity" v="atm"/>
    <tag k="atm_ref" v="ML5837B"/>
    <tag k="millennium:date" v="2009-05-21 17:13:02"/>
    <tag k="millennium:network" v="Millennium"/>
    <tag k="millennium:ref" v="18144"/>
    <tag k="millennium:subtype" v="Euronet"/>
    <tag k="name" v="Bankomat Millennium"/>
    <tag k="operator" v="Euronet Sp. z o.o."/>
  </node>
  <node id="936116047" version="1" timestamp="2010-10-03T03:27:32Z" uid="20587" user="balrog-kun" changeset="5941061" lat="53.3392407" lon="15.034441">
    <tag k="addr:city" v="Stargard Szczeciński"/>
    <tag k="addr:housenumber" v="8"/>
    <tag k="addr:street" v="Kardynała Stefana Wyszyńskiego"/>
    <tag k="amenity" v="atm"/>
    <tag k="atm_ref" v="2806210"/>
    <tag k="millennium:date" v="2009-05-21 17:13:02"/>
    <tag k="millennium:network" v="BZ WBK"/>
    <tag k="millennium:ref" v="19062"/>
    <tag k="millennium:subtype" v="Euronet"/>
    <tag k="name" v="Bankomat BZ WBK"/>
    <tag k="operator" v="Euronet Sp. z o.o."/>
  </node>
  <node id="936116048" version="1" timestamp="2010-10-03T03:27:33Z" uid="20587" user="balrog-kun" changeset="5941061" lat="52.8814296" lon="20.6183103">
    <tag k="addr:city" v="Ciechanów"/>
    <tag k="addr:housenumber" v="1/3"/>
    <tag k="addr:street" v="Warszawska"/>
    <tag k="amenity" v="atm"/>
    <tag k="atm_ref" v="ML1366A"/>
    <tag k="millennium:date" v="2009-05-21 17:13:02"/>
    <tag k="millennium:network" v="Millennium"/>
    <tag k="millennium:ref" v="18384"/>
    <tag k="millennium:subtype" v="Euronet"/>
    <tag k="name" v="Bankomat Millennium"/>
    <tag k="operator" v="Euronet Sp. z o.o."/>
  </node>
  <node id="936116049" version="1" timestamp="2010-10-03T03:27:33Z" uid="20587" user="balrog-kun" changeset="5941061" lat="54.3472533" lon="18.6619265">
    <tag k="addr:city" v="Gdańsk"/>
    <tag k="addr:housenumber" v="10"/>
    <tag k="addr:street" v="Długie Ogrody"/>
    <tag k="amenity" v="atm"/>
    <tag k="atm_ref" v="1098250"/>
    <tag k="millennium:date" v="2009-05-21 17:13:02"/>
    <tag k="millennium:network" v="BZ WBK"/>
    <tag k="millennium:ref" v="18925"/>
    <tag k="millennium:subtype" v="Euronet"/>
    <tag k="name" v="Bankomat BZ WBK"/>
    <tag k="operator" v="Euronet Sp. z o.o."/>
  </node>
  <node id="936116050" version="1" timestamp="2010-10-03T03:27:33Z" uid="20587" user="balrog-kun" changeset="5941061" lat="53.4311277" lon="14.5414843">
    <tag k="addr:city" v="Szczecin"/>
    <tag k="addr:housenumber" v="50"/>
    <tag k="addr:street" v="Wojska Polskiego"/>
    <tag k="amenity" v="atm"/>
    <tag k="atm_ref" v="ML5101A"/>
    <tag k="millennium:date" v="2009-05-21 17:13:02"/>
    <tag k="millennium:network" v="Millennium"/>
    <tag k="millennium:ref" v="18150"/>
    <tag k="millennium:subtype" v="Euronet"/>
    <tag k="name" v="Bankomat Millennium"/>
    <tag k="operator" v="Euronet Sp. z o.o."/>
  </node>
  <node id="936116052" version="1" timestamp="2010-10-03T03:27:33Z" uid="20587" user="balrog-kun" changeset="5941061" lat="53.4545956" lon="14.5519803">
    <tag k="addr:city" v="Szczecin"/>
    <tag k="addr:housenumber" v="128a"/>
    <tag k="addr:street" v="Przyjaciół Żołnierza"/>
    <tag k="amenity" v="atm"/>
    <tag k="atm_ref" v="ML5341A"/>
    <tag k="millennium:date" v="2009-05-21 17:13:02"/>
    <tag k="millennium:network" v="Millennium"/>
    <tag k="millennium:ref" v="18416"/>
    <tag k="millennium:subtype" v="Euronet"/>
    <tag k="name" v="Bankomat Millennium"/>
    <tag k="operator" v="Euronet Sp. z o.o."/>
  </node>
  <node id="936116053" version="1" timestamp="2010-10-03T03:27:34Z" uid="20587" user="balrog-kun" changeset="5941061" lat="53.4283" lon="14.5533">
    <tag k="addr:city" v="Szczecin"/>
    <tag k="addr:housenumber" v="1"/>
    <tag k="addr:street" v="Plac Żołnierza Polskiego"/>
    <tag k="amenity" v="atm"/>
    <tag k="atm_ref" v="ML5063A"/>
    <tag k="millennium:date" v="2009-05-21 17:13:02"/>
    <tag k="millennium:network" v="Millennium"/>
    <tag k="millennium:ref" v="18371"/>
    <tag k="millennium:subtype" v="Euronet"/>
    <tag k="name" v="Bankomat Millennium"/>
    <tag k="operator" v="Euronet Sp. z o.o."/>
  </node>
  <node id="936116053" version="2" timestamp="2010-11-11T21:18:53Z" uid="30632" user="antblant" changeset="6347094" lat="53.4283335" lon="14.5531123">
    <tag k="addr:city" v="Szczecin"/>
    <tag k="addr:housenumber" v="1"/>
    <tag k="addr:street" v="Plac Żołnierza Polskiego"/>
    <tag k="amenity" v="atm"/>
    <tag k="atm_ref" v="ML5063A"/>
    <tag k="millennium:date" v="2009-05-21 17:13:02"/>
    <tag k="millennium:network" v="Millennium"/>
    <tag k="millennium:ref" v="18371"/>
    <tag k="millennium:subtype" v="Euronet"/>
    <tag k="name" v="Bankomat Millennium"/>
    <tag k="operator" v="Euronet Sp. z o.o."/>
  </node>
  <node id="936116053" version="3" timestamp="2011-05-17T23:10:51Z" uid="30632" user="antblant" changeset="8177099" lat="53.4280843" lon="14.5530119">
    <tag k="addr:city" v="Szczecin"/>
    <tag k="addr:housenumber" v="1"/>
    <tag k="addr:street" v="Plac Żołnierza Polskiego"/>
    <tag k="amenity" v="atm"/>
    <tag k="atm_ref" v="ML5063A"/>
    <tag k="millennium:date" v="2009-05-21 17:13:02"/>
    <tag k="millennium:network" v="Millennium"/>
    <tag k="millennium:ref" v="18371"/>
    <tag k="millennium:subtype" v="Euronet"/>
    <tag k="name" v="Bankomat Millennium"/>
    <tag k="operator" v="Euronet Sp. z o.o."/>
  </node>
  <node id="936116054" version="1" timestamp="2010-10-03T03:27:34Z" uid="20587" user="balrog-kun" changeset="5941061" lat="53.2803263" lon="18.9476662">
    <tag k="addr:city" v="Wąbrzeźno"/>
    <tag k="addr:housenumber" v="23"/>
    <tag k="addr:street" v="Plac Jana Pawła II"/>
    <tag k="amenity" v="bank"/>
    <tag k="millennium:date" v="2009-09-14 14:49:45"/>
    <tag k="millennium:ref" v="20625"/>
    <tag k="millennium:usługi" v="Millennium"/>
    <tag k="name" v="Millennium Bank"/>
    <tag k="opening_hours" v="09.00-17.00 Mo-Fr"/>
  </node>
  <node id="936116055" version="1" timestamp="2010-10-03T03:27:34Z" uid="20587" user="balrog-kun" changeset="5941061" lat="53.5653" lon="20.9912">
    <tag k="addr:city" v="Szczytno"/>
    <tag k="addr:housenumber" v="1"/>
    <tag k="addr:street" v="Tadeusza Kościuszki"/>
    <tag k="amenity" v="atm"/>
    <tag k="atm_ref" v="ML0265A"/>
    <tag k="millennium:date" v="2009-05-21 17:13:02"/>
    <tag k="millennium:network" v="Millennium"/>
    <tag k="millennium:ref" v="18153"/>
    <tag k="millennium:subtype" v="Euronet"/>
    <tag k="name" v="Bankomat Millennium"/>
    <tag k="operator" v="Euronet Sp. z o.o."/>
  </node>
  <node id="936116055" version="2" timestamp="2012-03-02T12:57:09Z" uid="133239" user="wpedzich" changeset="10848033" lat="53.5652753" lon="20.9913006">
    <tag k="addr:city" v="Szczytno"/>
    <tag k="addr:housenumber" v="1"/>
    <tag k="addr:street" v="Tadeusza Kościuszki"/>
    <tag k="amenity" v="atm"/>
    <tag k="atm_ref" v="ML0265A"/>
    <tag k="millennium:date" v="2009-05-21 17:13:02"/>
    <tag k="millennium:network" v="Millennium"/>
    <tag k="millennium:ref" v="18153"/>
    <tag k="millennium:subtype" v="Euronet"/>
    <tag k="name" v="Bankomat Millennium"/>
    <tag k="operator" v="Euronet Sp. z o.o."/>
  </node>
  <node id="936116056" version="1" timestamp="2010-10-03T03:27:34Z" uid="20587" user="balrog-kun" changeset="5941061" lat="53.1302448" lon="18.008342">
    <tag k="addr:city" v="Bydgoszcz"/>
    <tag k="addr:housenumber" v="1"/>
    <tag k="addr:street" v="Juliusza Słowackiego"/>
    <tag k="amenity" v="atm"/>
    <tag k="atm_ref" v="MLA310A"/>
    <tag k="millennium:date" v="2009-05-21 17:13:02"/>
    <tag k="millennium:network" v="Millennium"/>
    <tag k="millennium:ref" v="17932"/>
    <tag k="millennium:subtype" v="Euronet"/>
    <tag k="name" v="Bankomat Millennium"/>
    <tag k="operator" v="Euronet Sp. z o.o."/>
  </node>
  <node id="936116057" version="1" timestamp="2010-10-03T03:27:34Z" uid="20587" user="balrog-kun" changeset="5941061" lat="54.4414702" lon="18.5638576">
    <tag k="addr:city" v="Sopot"/>
    <tag k="addr:housenumber" v="11"/>
    <tag k="addr:street" v="Kościuszki"/>
    <tag k="amenity" v="atm"/>
    <tag k="atm_ref" v="ML0200A"/>
    <tag k="millennium:date" v="2009-05-21 17:13:02"/>
    <tag k="millennium:network" v="Millennium"/>
    <tag k="millennium:ref" v="18132"/>
    <tag k="millennium:subtype" v="Euronet"/>
    <tag k="name" v="Bankomat Millennium"/>
    <tag k="operator" v="Euronet Sp. z o.o."/>
  </node>
  <node id="936116057" version="2" timestamp="2012-01-07T20:55:54Z" uid="580594" user="sqmap3" changeset="10325614" lat="54.4414702" lon="18.5638576">
    <tag k="addr:city" v="Sopot"/>
    <tag k="addr:country" v="PL"/>
    <tag k="addr:housenumber" v="11"/>
    <tag k="addr:street" v="Kościuszki"/>
    <tag k="amenity" v="atm"/>
    <tag k="atm_ref" v="ML0200A"/>
    <tag k="millennium:date" v="2009-05-21 17:13:02"/>
    <tag k="millennium:network" v="Millennium"/>
    <tag k="millennium:ref" v="18132"/>
    <tag k="millennium:subtype" v="Euronet"/>
    <tag k="name" v="Bankomat Millennium"/>
    <tag k="operator" v="Euronet Sp. z o.o."/>
  </node>
  <node id="936116057" version="3" timestamp="2012-01-07T21:21:44Z" uid="580594" user="sqmap3" changeset="10325874" lat="54.4414702" lon="18.5638576">
    <tag k="addr:city" v="Sopot"/>
    <tag k="addr:country" v="PL"/>
    <tag k="addr:housenumber" v="11"/>
    <tag k="addr:street" v="Tadeusza Kościuszki"/>
    <tag k="amenity" v="atm"/>
    <tag k="atm_ref" v="ML0200A"/>
    <tag k="millennium:date" v="2009-05-21 17:13:02"/>
    <tag k="millennium:network" v="Millennium"/>
    <tag k="millennium:ref" v="18132"/>
    <tag k="millennium:subtype" v="Euronet"/>
    <tag k="name" v="Bankomat Millennium"/>
    <tag k="operator" v="Euronet Sp. z o.o."/>
  </node>
  <node id="936116058" version="1" timestamp="2010-10-03T03:27:34Z" uid="20587" user="balrog-kun" changeset="5941061" lat="52.5348347" lon="17.6037674">
    <tag k="addr:city" v="Gniezno"/>
    <tag k="addr:housenumber" v="17"/>
    <tag k="addr:street" v="Henryka Sienkiewicza"/>
    <tag k="amenity" v="atm"/>
    <tag k="atm_ref" v="1375000"/>
    <tag k="millennium:date" v="2009-05-21 17:13:02"/>
    <tag k="millennium:network" v="BZ WBK"/>
    <tag k="millennium:ref" v="19123"/>
    <tag k="millennium:subtype" v="Euronet"/>
    <tag k="name" v="Bankomat BZ WBK"/>
    <tag k="operator" v="Euronet Sp. z o.o."/>
  </node>
  <node id="936116059" version="1" timestamp="2010-10-03T03:27:35Z" uid="20587" user="balrog-kun" changeset="5941061" lat="53.1302448" lon="18.008442">
    <tag k="addr:city" v="Bydgoszcz"/>
    <tag k="addr:housenumber" v="1"/>
    <tag k="addr:street" v="Juliusza Słowackiego"/>
    <tag k="amenity" v="bank"/>
    <tag k="millennium:date" v="2009-09-14 14:49:45"/>
    <tag k="millennium:ref" v="20649"/>
    <tag k="millennium:usługi" v="Millennium, Biznes"/>
    <tag k="name" v="Millennium Bank"/>
    <tag k="opening_hours" v="09.00-17.00 Mo-Fr"/>
  </node>
  <node id="936116060" version="1" timestamp="2010-10-03T03:27:35Z" uid="20587" user="balrog-kun" changeset="5941061" lat="53.7757305" lon="15.7728074">
    <tag k="addr:city" v="Świdwin"/>
    <tag k="addr:housenumber" v="24"/>
    <tag k="addr:street" v="1 Maja"/>
    <tag k="amenity" v="atm"/>
    <tag k="atm_ref" v="2662200"/>
    <tag k="millennium:date" v="2009-05-21 17:13:02"/>
    <tag k="millennium:network" v="BZ WBK"/>
    <tag k="millennium:ref" v="19001"/>
    <tag k="millennium:subtype" v="Euronet"/>
    <tag k="name" v="Bankomat BZ WBK"/>
    <tag k="operator" v="Euronet Sp. z o.o."/>
  </node>
  <node id="936116061" version="1" timestamp="2010-10-03T03:27:35Z" uid="20587" user="balrog-kun" changeset="5941061" lat="53.4089" lon="18.4481">
    <tag k="addr:city" v="Świecie"/>
    <tag k="addr:housenumber" v="20"/>
    <tag k="addr:street" v="Adama Mickiewicza"/>
    <tag k="amenity" v="atm"/>
    <tag k="atm_ref" v="MLA245A"/>
    <tag k="millennium:date" v="2009-05-21 17:13:02"/>
    <tag k="millennium:network" v="Millennium"/>
    <tag k="millennium:ref" v="18155"/>
    <tag k="millennium:subtype" v="Euronet"/>
    <tag k="name" v="Bankomat Millennium"/>
    <tag k="operator" v="Euronet Sp. z o.o."/>
  </node>
  <node id="936116061" version="2" timestamp="2011-02-06T11:53:44Z" uid="309867" user="Damian_Lisu" changeset="7202522" lat="53.4089" lon="18.4481">
    <tag k="addr:city" v="Świecie"/>
    <tag k="addr:housenumber" v="20"/>
    <tag k="addr:street" v="Adama Mickiewicza"/>
    <tag k="amenity" v="atm"/>
    <tag k="atm_ref" v="MLA245A"/>
    <tag k="millennium:date" v="2009-05-21 17:13:02"/>
    <tag k="millennium:network" v="Millennium"/>
    <tag k="millennium:ref" v="18155"/>
    <tag k="millennium:subtype" v="Euronet"/>
    <tag k="name" v="Bankomat Millennium"/>
    <tag k="operator" v="Euronet Sp. z o.o."/>
  </node>
  <node id="936116062" version="1" timestamp="2010-10-03T03:27:35Z" uid="20587" user="balrog-kun" changeset="5941061" lat="53.1167" lon="17.9700344">
    <tag k="addr:city" v="Bydgoszcz"/>
    <tag k="addr:housenumber" v="83"/>
    <tag k="addr:street" v="Szubińska"/>
    <tag k="amenity" v="atm"/>
    <tag k="atm_ref" v="1896000"/>
    <tag k="millennium:date" v="2009-05-21 17:13:02"/>
    <tag k="millennium:network" v="BZ WBK"/>
    <tag k="millennium:ref" v="18828"/>
    <tag k="millennium:subtype" v="Euronet"/>
    <tag k="name" v="Bankomat BZ WBK"/>
    <tag k="operator" v="Euronet Sp. z o.o."/>
  </node>
  <node id="936116063" version="1" timestamp="2010-10-03T03:27:35Z" uid="20587" user="balrog-kun" changeset="5941061" lat="52.5351089" lon="17.5988586">
    <tag k="addr:city" v="Gniezno"/>
    <tag k="addr:housenumber" v="11"/>
    <tag k="addr:street" v="Mieszka I"/>
    <tag k="amenity" v="atm"/>
    <tag k="atm_ref" v="ML4129A"/>
    <tag k="millennium:date" v="2009-05-21 17:13:02"/>
    <tag k="millennium:network" v="Millennium"/>
    <tag k="millennium:ref" v="17994"/>
    <tag k="millennium:subtype" v="Euronet"/>
    <tag k="name" v="Bankomat Millennium"/>
    <tag k="operator" v="Euronet Sp. z o.o."/>
  </node>
  <node id="936116064" version="1" timestamp="2010-10-03T03:27:36Z" uid="20587" user="balrog-kun" changeset="5941061" lat="53.2804" lon="18.9475">
    <tag k="addr:city" v="Wąbrzeźno"/>
    <tag k="addr:housenumber" v="23"/>
    <tag k="addr:street" v="Plac Jana Pawła II"/>
    <tag k="amenity" v="bank"/>
    <tag k="millennium:date" v="2009-09-15 15:44:07"/>
    <tag k="millennium:ref" v="20847"/>
    <tag k="millennium:usługi" v="Przedsiębiorstwa"/>
    <tag k="name" v="Millennium Przedsiębiorstwa"/>
    <tag k="opening_hours" v="9.00-17.00"/>
  </node>
  <node id="936116065" version="1" timestamp="2010-10-03T03:27:36Z" uid="20587" user="balrog-kun" changeset="5941061" lat="53.4312" lon="14.5424">
    <tag k="addr:city" v="Szczecin"/>
    <tag k="addr:housenumber" v="87"/>
    <tag k="addr:street" v="Jagiellońska"/>
    <tag k="amenity" v="atm"/>
    <tag k="atm_ref" v="ML5837A"/>
    <tag k="millennium:date" v="2009-05-21 17:13:02"/>
    <tag k="millennium:network" v="Millennium"/>
    <tag k="millennium:ref" v="18145"/>
    <tag k="millennium:subtype" v="Euronet"/>
    <tag k="name" v="Bankomat Millennium"/>
    <tag k="operator" v="Euronet Sp. z o.o."/>
  </node>
  <node id="936116065" version="2" timestamp="2010-11-11T21:42:28Z" uid="30632" user="antblant" changeset="6347263" lat="53.4310731" lon="14.5432398">
    <tag k="addr:city" v="Szczecin"/>
    <tag k="addr:housenumber" v="87"/>
    <tag k="addr:street" v="Jagiellońska"/>
    <tag k="amenity" v="atm"/>
    <tag k="atm_ref" v="ML5837A"/>
    <tag k="millennium:date" v="2009-05-21 17:13:02"/>
    <tag k="millennium:network" v="Millennium"/>
    <tag k="millennium:ref" v="18145"/>
    <tag k="millennium:subtype" v="Euronet"/>
    <tag k="name" v="Bankomat Millennium"/>
    <tag k="operator" v="Euronet Sp. z o.o."/>
  </node>
  <node id="936116066" version="1" timestamp="2010-10-03T03:27:36Z" uid="20587" user="balrog-kun" changeset="5941061" lat="54.0780326" lon="21.3739816">
    <tag k="addr:city" v="Kętrzyn"/>
    <tag k="addr:housenumber" v="1"/>
    <tag k="addr:street" v="Powstańców Warszawy"/>
    <tag k="amenity" v="atm"/>
    <tag k="atm_ref" v="ML0266A"/>
    <tag k="millennium:date" v="2009-05-21 17:13:02"/>
    <tag k="millennium:network" v="Millennium"/>
    <tag k="millennium:ref" v="18016"/>
    <tag k="millennium:subtype" v="Euronet"/>
    <tag k="name" v="Bankomat Millennium"/>
    <tag k="operator" v="Euronet Sp. z o.o."/>
  </node>
  <node id="936116067" version="1" timestamp="2010-10-03T03:27:36Z" uid="20587" user="balrog-kun" changeset="5941061" lat="54.0782243" lon="21.3743012">
    <tag k="addr:city" v="Kętrzyn"/>
    <tag k="addr:housenumber" v="11"/>
    <tag k="addr:street" v="Plac Marszałka Józefa Piłsudskiego"/>
    <tag k="amenity" v="bank"/>
    <tag k="millennium:date" v="2009-09-14 14:49:45"/>
    <tag k="millennium:ref" v="20721"/>
    <tag k="millennium:usługi" v="Millennium, Biznes"/>
    <tag k="name" v="Millennium Bank"/>
    <tag k="opening_hours" v="08.00-18.00 Mo-Fr"/>
  </node>
  <node id="936116068" version="1" timestamp="2010-10-03T03:27:36Z" uid="20587" user="balrog-kun" changeset="5941061" lat="52.5959" lon="21.4527">
    <tag k="addr:city" v="Wyszków"/>
    <tag k="addr:housenumber" v="28a"/>
    <tag k="addr:street" v="Pułtuska"/>
    <tag k="amenity" v="atm"/>
    <tag k="atm_ref" v="ML1376A"/>
    <tag k="millennium:date" v="2009-05-21 17:13:02"/>
    <tag k="millennium:network" v="Millennium"/>
    <tag k="millennium:ref" v="18248"/>
    <tag k="millennium:subtype" v="Euronet"/>
    <tag k="name" v="Bankomat Millennium"/>
    <tag k="operator" v="Euronet Sp. z o.o."/>
  </node>
  <node id="936116069" version="1" timestamp="2010-10-03T03:27:36Z" uid="20587" user="balrog-kun" changeset="5941061" lat="52.5473537" lon="19.6935614">
    <tag k="addr:city" v="Płock"/>
    <tag k="addr:housenumber" v="8"/>
    <tag k="addr:street" v="Nowy Rynek"/>
    <tag k="amenity" v="atm"/>
    <tag k="atm_ref" v="ML1455A"/>
    <tag k="millennium:date" v="2009-05-21 17:13:02"/>
    <tag k="millennium:network" v="Millennium"/>
    <tag k="millennium:ref" v="18093"/>
    <tag k="millennium:subtype" v="Euronet"/>
    <tag k="name" v="Bankomat Millennium"/>
    <tag k="operator" v="Euronet Sp. z o.o."/>
  </node>
  <node id="936116070" version="1" timestamp="2010-10-03T03:27:37Z" uid="20587" user="balrog-kun" changeset="5941061" lat="53.1316913" lon="17.9948952">
    <tag k="addr:city" v="Bydgoszcz"/>
    <tag k="addr:housenumber" v="18"/>
    <tag k="addr:street" v="Królowej Jadwigi"/>
    <tag k="amenity" v="atm"/>
    <tag k="atm_ref" v="1072000"/>
    <tag k="millennium:date" v="2009-05-21 17:13:02"/>
    <tag k="millennium:network" v="BZ WBK"/>
    <tag k="millennium:ref" v="19441"/>
    <tag k="millennium:subtype" v="Euronet"/>
    <tag k="name" v="Bankomat BZ WBK"/>
    <tag k="operator" v="Euronet Sp. z o.o."/>
  </node>
  <node id="936116071" version="1" timestamp="2010-10-03T03:27:37Z" uid="20587" user="balrog-kun" changeset="5941061" lat="53.4283007" lon="14.5532731">
    <tag k="addr:city" v="Szczecin"/>
    <tag k="addr:housenumber" v="1/1a"/>
    <tag k="addr:street" v="Plac Żołnierza Polskiego"/>
    <tag k="amenity" v="bank"/>
    <tag k="millennium:date" v="2009-09-14 14:49:45"/>
    <tag k="millennium:ref" v="20442"/>
    <tag k="millennium:usługi" v="Millennium"/>
    <tag k="name" v="Millennium Bank"/>
    <tag k="opening_hours" v="10.00-18.00 Mo-Fr"/>
  </node>
  <node id="936116071" version="2" timestamp="2010-11-11T21:18:54Z" uid="30632" user="antblant" changeset="6347094" lat="53.4283112" lon="14.553103">
    <tag k="addr:city" v="Szczecin"/>
    <tag k="addr:housenumber" v="1/1a"/>
    <tag k="addr:street" v="Plac Żołnierza Polskiego"/>
    <tag k="amenity" v="bank"/>
    <tag k="millennium:date" v="2009-09-14 14:49:45"/>
    <tag k="millennium:ref" v="20442"/>
    <tag k="millennium:usługi" v="Millennium"/>
    <tag k="name" v="Millennium Bank"/>
    <tag k="opening_hours" v="10.00-18.00 Mo-Fr"/>
  </node>
  <node id="936116071" version="3" timestamp="2011-01-17T21:14:40Z" uid="125718" user="Fabi2" changeset="7004456" lat="53.4283112" lon="14.553103">
    <tag k="addr:city" v="Szczecin"/>
    <tag k="addr:housenumber" v="1/1a"/>
    <tag k="addr:street" v="Plac Żołnierza Polskiego"/>
    <tag k="amenity" v="bank"/>
    <tag k="millennium:date" v="2009-09-14 14:49:45"/>
    <tag k="millennium:ref" v="20442"/>
    <tag k="millennium:usługi" v="Millennium"/>
    <tag k="name" v="Millennium Bank"/>
    <tag k="opening_hours" v="Mo-Fr 10:00-18:00; PH off"/>
  </node>
  <node id="936116071" version="4" timestamp="2011-05-17T23:10:51Z" uid="30632" user="antblant" changeset="8177099" lat="53.4281484" lon="14.5530394">
    <tag k="addr:city" v="Szczecin"/>
    <tag k="addr:housenumber" v="1/1a"/>
    <tag k="addr:street" v="Plac Żołnierza Polskiego"/>
    <tag k="amenity" v="bank"/>
    <tag k="millennium:date" v="2009-09-14 14:49:45"/>
    <tag k="millennium:ref" v="20442"/>
    <tag k="millennium:usługi" v="Millennium"/>
    <tag k="name" v="Millennium Bank"/>
    <tag k="opening_hours" v="Mo-Fr 10:00-18:00; PH off"/>
  </node>
  <node id="936116072" version="1" timestamp="2010-10-03T03:27:37Z" uid="20587" user="balrog-kun" changeset="5941061" lat="52.5473448" lon="19.6935561">
    <tag k="addr:city" v="Płock"/>
    <tag k="addr:housenumber" v="8"/>
    <tag k="addr:street" v="Nowy Rynek"/>
    <tag k="amenity" v="atm"/>
    <tag k="atm_ref" v="ML1455B"/>
    <tag k="millennium:date" v="2009-05-21 17:13:02"/>
    <tag k="millennium:network" v="Millennium"/>
    <tag k="millennium:ref" v="18094"/>
    <tag k="millennium:subtype" v="Euronet"/>
    <tag k="name" v="Bankomat Millennium"/>
    <tag k="operator" v="Euronet Sp. z o.o."/>
  </node>
  <node id="936116073" version="1" timestamp="2010-10-03T03:27:37Z" uid="20587" user="balrog-kun" changeset="5941061" lat="52.5443079" lon="19.6910251">
    <tag k="addr:city" v="Płock"/>
    <tag k="addr:housenumber" v="10"/>
    <tag k="addr:street" v="Tumska"/>
    <tag k="amenity" v="atm"/>
    <tag k="atm_ref" v="ML1939A"/>
    <tag k="millennium:date" v="2009-05-21 17:13:02"/>
    <tag k="millennium:network" v="Millennium"/>
    <tag k="millennium:ref" v="18092"/>
    <tag k="millennium:subtype" v="Euronet"/>
    <tag k="name" v="Bankomat Millennium"/>
    <tag k="operator" v="Euronet Sp. z o.o."/>
  </node>
  <node id="936116074" version="1" timestamp="2010-10-03T03:27:37Z" uid="20587" user="balrog-kun" changeset="5941061" lat="53.4089" lon="18.4481">
    <tag k="addr:city" v="Świecie"/>
    <tag k="addr:housenumber" v="20"/>
    <tag k="addr:street" v="Adama Mickiewicza"/>
    <tag k="amenity" v="atm"/>
    <tag k="atm_ref" v="MLF74228"/>
    <tag k="millennium:date" v="2009-05-21 17:13:02"/>
    <tag k="millennium:network" v="Millennium"/>
    <tag k="millennium:ref" v="17878"/>
    <tag k="millennium:subtype" v="Euronet"/>
    <tag k="name" v="Bankomat Millennium"/>
    <tag k="operator" v="Euronet Sp. z o.o."/>
  </node>
  <node id="936116074" version="2" timestamp="2011-02-06T11:52:01Z" uid="309867" user="Damian_Lisu" changeset="7202522" lat="53.4089045" lon="18.4480977">
    <tag k="addr:city" v="Świecie"/>
    <tag k="addr:housenumber" v="20"/>
    <tag k="addr:street" v="Adama Mickiewicza"/>
    <tag k="amenity" v="atm"/>
    <tag k="atm_ref" v="MLF74228"/>
    <tag k="millennium:date" v="2009-05-21 17:13:02"/>
    <tag k="millennium:network" v="Millennium"/>
    <tag k="millennium:ref" v="17878"/>
    <tag k="millennium:subtype" v="Euronet"/>
    <tag k="name" v="Bankomat Millennium"/>
    <tag k="operator" v="Euronet Sp. z o.o."/>
  </node>
  <node id="936116075" version="1" timestamp="2010-10-03T03:27:37Z" uid="20587" user="balrog-kun" changeset="5941061" lat="53.4376109" lon="14.5433697">
    <tag k="addr:city" v="Szczecin"/>
    <tag k="addr:housenumber" v="26"/>
    <tag k="addr:street" v="Aleja Papieża Jana Pawła II"/>
    <tag k="amenity" v="atm"/>
    <tag k="atm_ref" v="2806200"/>
    <tag k="millennium:date" v="2009-05-21 17:13:02"/>
    <tag k="millennium:network" v="BZ WBK"/>
    <tag k="millennium:ref" v="18606"/>
    <tag k="millennium:subtype" v="Euronet"/>
    <tag k="name" v="Bankomat BZ WBK"/>
    <tag k="operator" v="Euronet Sp. z o.o."/>
  </node>
  <node id="936116076" version="1" timestamp="2010-10-03T03:27:38Z" uid="20587" user="balrog-kun" changeset="5941061" lat="53.426" lon="14.5484">
    <tag k="addr:city" v="Szczecin"/>
    <tag k="addr:housenumber" v="1"/>
    <tag k="addr:street" v="Plac Zwycięstwa"/>
    <tag k="amenity" v="bank"/>
    <tag k="millennium:date" v="2009-09-14 14:49:45"/>
    <tag k="millennium:ref" v="20461"/>
    <tag k="millennium:usługi" v="Millennium"/>
    <tag k="name" v="Millennium Bank"/>
    <tag k="opening_hours" v="10.00-18.00 Mo-Fr"/>
  </node>
  <node id="936116076" version="2" timestamp="2010-11-25T20:21:51Z" uid="168387" user="Petermännchen" changeset="6457340" lat="53.4260001" lon="14.5484">
    <tag k="addr:city" v="Szczecin"/>
    <tag k="addr:housenumber" v="1"/>
    <tag k="addr:street" v="Plac Zwycięstwa"/>
    <tag k="amenity" v="bank"/>
    <tag k="millennium:date" v="2009-09-14 14:49:45"/>
    <tag k="millennium:ref" v="20461"/>
    <tag k="millennium:usługi" v="Millennium"/>
    <tag k="name" v="Millennium Bank"/>
    <tag k="opening_hours" v="Mo-Fr 10:00-18:00"/>
  </node>
  <node id="936116077" version="1" timestamp="2010-10-03T03:27:38Z" uid="20587" user="balrog-kun" changeset="5941061" lat="52.5348268" lon="17.6037544">
    <tag k="addr:city" v="Gniezno"/>
    <tag k="addr:housenumber" v="17"/>
    <tag k="addr:street" v="Henryka Sienkiewicza"/>
    <tag k="amenity" v="atm"/>
    <tag k="atm_ref" v="1375001"/>
    <tag k="millennium:date" v="2009-05-21 17:13:02"/>
    <tag k="millennium:network" v="BZ WBK"/>
    <tag k="millennium:ref" v="19115"/>
    <tag k="millennium:subtype" v="Euronet"/>
    <tag k="name" v="Bankomat BZ WBK"/>
    <tag k="operator" v="Euronet Sp. z o.o."/>
  </node>
  <node id="936116078" version="1" timestamp="2010-10-03T03:27:38Z" uid="20587" user="balrog-kun" changeset="5941061" lat="53.4305279" lon="14.547114">
    <tag k="addr:city" v="Szczecin"/>
    <tag k="addr:housenumber" v="43a"/>
    <tag k="addr:street" v="Śląska"/>
    <tag k="amenity" v="atm"/>
    <tag k="atm_ref" v="1492000"/>
    <tag k="millennium:date" v="2009-05-21 17:13:02"/>
    <tag k="millennium:network" v="BZ WBK"/>
    <tag k="millennium:ref" v="18608"/>
    <tag k="millennium:subtype" v="Euronet"/>
    <tag k="name" v="Bankomat BZ WBK"/>
    <tag k="operator" v="Euronet Sp. z o.o."/>
  </node>
  <node id="936116078" version="2" timestamp="2010-11-11T21:23:38Z" uid="30632" user="antblant" changeset="6347134" lat="53.4305333" lon="14.5470819">
    <tag k="addr:city" v="Szczecin"/>
    <tag k="addr:housenumber" v="43a"/>
    <tag k="addr:street" v="Śląska"/>
    <tag k="amenity" v="atm"/>
    <tag k="atm_ref" v="1492000"/>
    <tag k="millennium:date" v="2009-05-21 17:13:02"/>
    <tag k="millennium:network" v="BZ WBK"/>
    <tag k="millennium:ref" v="18608"/>
    <tag k="millennium:subtype" v="Euronet"/>
    <tag k="name" v="Bankomat BZ WBK"/>
    <tag k="operator" v="Euronet Sp. z o.o."/>
  </node>
  <node id="936116079" version="1" timestamp="2010-10-03T03:27:38Z" uid="20587" user="balrog-kun" changeset="5941061" lat="53.1570701" lon="18.1548023">
    <tag k="addr:city" v="Bydgoszcz"/>
    <tag k="addr:housenumber" v="8"/>
    <tag k="addr:street" v="Stanisława Skarżyńskiego"/>
    <tag k="amenity" v="atm"/>
    <tag k="atm_ref" v="1072512"/>
    <tag k="millennium:date" v="2009-05-21 17:13:02"/>
    <tag k="millennium:network" v="BZ WBK"/>
    <tag k="millennium:ref" v="19212"/>
    <tag k="millennium:subtype" v="Millennium"/>
    <tag k="name" v="Bankomat BZ WBK"/>
    <tag k="opening_hours" v="Mo-Sa 7.00-22.00 Su 7.00-20.00"/>
    <tag k="operator" v="Bank Millennium S.A."/>
  </node>
  <node id="936116080" version="1" timestamp="2010-10-03T03:27:38Z" uid="20587" user="balrog-kun" changeset="5941061" lat="54.351343" lon="18.6468833">
    <tag k="addr:city" v="Gdańsk"/>
    <tag k="addr:housenumber" v="14/16"/>
    <tag k="addr:street" v="Wały Jagiellońskie"/>
    <tag k="millennium:date" v="2009-09-14 14:49:45"/>
    <tag k="millennium:ref" v="20618"/>
    <tag k="millennium:usługi" v="Millennium"/>
    <tag k="name" v="Millennium Bank"/>
    <tag k="note:pl" v="Obiekt nieczynny"/>
    <tag k="old_amenity" v="bank"/>
    <tag k="opening_hours" v="10.00-18.00 Mo-Fr"/>
  </node>
  <node id="936116080" version="2" timestamp="2012-01-08T13:16:21Z" uid="500953" user="skradacz" changeset="10331194" lat="54.351347" lon="18.6468533">
    <tag k="addr:city" v="Gdańsk"/>
    <tag k="addr:housenumber" v="14/16"/>
    <tag k="addr:street" v="Wały Jagiellońskie"/>
    <tag k="millennium:date" v="2009-09-14 14:49:45"/>
    <tag k="millennium:ref" v="20618"/>
    <tag k="millennium:usługi" v="Millennium"/>
    <tag k="name" v="Millennium Bank"/>
    <tag k="note:pl" v="Obiekt nieczynny"/>
    <tag k="old_amenity" v="bank"/>
    <tag k="opening_hours" v="10.00-18.00 Mo-Fr"/>
  </node>
  <node id="936116081" version="1" timestamp="2010-10-03T03:27:38Z" uid="20587" user="balrog-kun" changeset="5941061" lat="53.4087783" lon="18.4510181">
    <tag k="addr:city" v="Świecie"/>
    <tag k="addr:housenumber" v="16"/>
    <tag k="addr:street" v="Duży Rynek"/>
    <tag k="amenity" v="atm"/>
    <tag k="atm_ref" v="MLA297A"/>
    <tag k="millennium:date" v="2009-05-21 17:13:02"/>
    <tag k="millennium:network" v="Millennium"/>
    <tag k="millennium:ref" v="18154"/>
    <tag k="millennium:subtype" v="Euronet"/>
    <tag k="name" v="Bankomat Millennium"/>
    <tag k="operator" v="Euronet Sp. z o.o."/>
  </node>
  <node id="936116082" version="1" timestamp="2010-10-03T03:27:39Z" uid="20587" user="balrog-kun" changeset="5941061" lat="54.4410697" lon="18.5648522">
    <tag k="addr:city" v="Sopot"/>
    <tag k="addr:housenumber" v="6"/>
    <tag k="addr:street" v="Chopina"/>
    <tag k="amenity" v="atm"/>
    <tag k="atm_ref" v="1098280"/>
    <tag k="millennium:date" v="2009-05-21 17:13:02"/>
    <tag k="millennium:network" v="BZ WBK"/>
    <tag k="millennium:ref" v="18649"/>
    <tag k="millennium:subtype" v="Euronet"/>
    <tag k="name" v="Bankomat BZ WBK"/>
    <tag k="operator" v="Euronet Sp. z o.o."/>
  </node>
  <node id="936116082" version="2" timestamp="2012-01-07T20:55:48Z" uid="580594" user="sqmap3" changeset="10325614" lat="54.4410697" lon="18.5648522">
    <tag k="addr:city" v="Sopot"/>
    <tag k="addr:country" v="PL"/>
    <tag k="addr:housenumber" v="6"/>
    <tag k="addr:street" v="Chopina"/>
    <tag k="amenity" v="atm"/>
    <tag k="atm_ref" v="1098280"/>
    <tag k="millennium:date" v="2009-05-21 17:13:02"/>
    <tag k="millennium:network" v="BZ WBK"/>
    <tag k="millennium:ref" v="18649"/>
    <tag k="millennium:subtype" v="Euronet"/>
    <tag k="name" v="Bankomat BZ WBK"/>
    <tag k="operator" v="Euronet Sp. z o.o."/>
  </node>
  <node id="936116082" version="3" timestamp="2012-01-08T14:58:55Z" uid="580594" user="sqmap3" changeset="10332355" lat="54.4410697" lon="18.5648522">
    <tag k="addr:city" v="Sopot"/>
    <tag k="addr:country" v="PL"/>
    <tag k="addr:housenumber" v="6"/>
    <tag k="addr:postcode" v="81-752"/>
    <tag k="addr:street" v="Fryderyka Chopina"/>
    <tag k="amenity" v="atm"/>
    <tag k="atm_ref" v="1098280"/>
    <tag k="millennium:date" v="2009-05-21 17:13:02"/>
    <tag k="millennium:network" v="BZ WBK"/>
    <tag k="millennium:ref" v="18649"/>
    <tag k="millennium:subtype" v="Euronet"/>
    <tag k="name" v="Bankomat BZ WBK"/>
    <tag k="operator" v="Euronet Sp. z o.o."/>
  </node>
  <node id="936116083" version="1" timestamp="2010-10-03T03:27:39Z" uid="20587" user="balrog-kun" changeset="5941061" lat="53.3387" lon="15.0342">
    <tag k="addr:city" v="Stargard Szczeciński"/>
    <tag k="addr:housenumber" v="16a-d"/>
    <tag k="addr:street" v="Kardynała Stefana Wyszyńskiego"/>
    <tag k="amenity" v="bank"/>
    <tag k="millennium:date" v="2009-09-14 14:49:45"/>
    <tag k="millennium:ref" v="20493"/>
    <tag k="millennium:usługi" v="Millennium, Biznes"/>
    <tag k="name" v="Millennium Bank"/>
    <tag k="opening_hours" v="09.00-17.00 Mo-Fr"/>
  </node>
  <node id="936116083" version="2" timestamp="2010-12-10T10:39:27Z" uid="352869" user="Hans Wurst" changeset="6603813" lat="53.3387001" lon="15.0342">
    <tag k="addr:city" v="Stargard Szczeciński"/>
    <tag k="addr:housenumber" v="16a-d"/>
    <tag k="addr:street" v="Kardynała Stefana Wyszyńskiego"/>
    <tag k="amenity" v="bank"/>
    <tag k="millennium:date" v="2009-09-14 14:49:45"/>
    <tag k="millennium:ref" v="20493"/>
    <tag k="millennium:usługi" v="Millennium, Biznes"/>
    <tag k="name" v="Millennium Bank"/>
    <tag k="opening_hours" v="09:00-17:00 Mo-Fr"/>
  </node>
  <node id="936116083" version="3" timestamp="2010-12-20T16:06:30Z" uid="32786" user="Netzwolf" changeset="6717328" lat="53.3387001" lon="15.0342">
    <tag k="addr:city" v="Stargard Szczeciński"/>
    <tag k="addr:housenumber" v="16a-d"/>
    <tag k="addr:street" v="Kardynała Stefana Wyszyńskiego"/>
    <tag k="amenity" v="bank"/>
    <tag k="millennium:date" v="2009-09-14 14:49:45"/>
    <tag k="millennium:ref" v="20493"/>
    <tag k="millennium:usługi" v="Millennium, Biznes"/>
    <tag k="name" v="Millennium Bank"/>
    <tag k="opening_hours" v="Mo-Fr 09:00-17:00"/>
  </node>
  <node id="936116084" version="1" timestamp="2010-10-03T03:27:39Z" uid="20587" user="balrog-kun" changeset="5941061" lat="53.4258417" lon="14.5485146">
    <tag k="addr:city" v="Szczecin"/>
    <tag k="addr:housenumber" v="1"/>
    <tag k="addr:street" v="Plac Zwycięstwa"/>
    <tag k="amenity" v="atm"/>
    <tag k="atm_ref" v="ML5087A"/>
    <tag k="millennium:date" v="2009-05-21 17:13:02"/>
    <tag k="millennium:network" v="Millennium"/>
    <tag k="millennium:ref" v="18143"/>
    <tag k="millennium:subtype" v="Euronet"/>
    <tag k="name" v="Bankomat Millennium"/>
    <tag k="operator" v="Euronet Sp. z o.o."/>
  </node>
  <node id="936116085" version="1" timestamp="2010-10-03T03:27:39Z" uid="20587" user="balrog-kun" changeset="5941061" lat="54.0782135" lon="21.3742104">
    <tag k="addr:city" v="Kętrzyn"/>
    <tag k="addr:housenumber" v="11"/>
    <tag k="addr:street" v="Plac Marszałka Józefa Piłsudskiego"/>
    <tag k="amenity" v="atm"/>
    <tag k="atm_ref" v="ML0446A"/>
    <tag k="millennium:date" v="2009-05-21 17:13:02"/>
    <tag k="millennium:network" v="Millennium"/>
    <tag k="millennium:ref" v="18015"/>
    <tag k="millennium:subtype" v="Euronet"/>
    <tag k="name" v="Bankomat Millennium"/>
    <tag k="operator" v="Euronet Sp. z o.o."/>
  </node>
  <node id="936116086" version="1" timestamp="2010-10-03T03:27:39Z" uid="20587" user="balrog-kun" changeset="5941061" lat="53.1302448" lon="18.008342">
    <tag k="addr:city" v="Bydgoszcz"/>
    <tag k="addr:housenumber" v="1"/>
    <tag k="addr:street" v="Juliusza Słowackiego"/>
    <tag k="amenity" v="atm"/>
    <tag k="atm_ref" v="MLA310B"/>
    <tag k="millennium:date" v="2009-05-21 17:13:02"/>
    <tag k="millennium:network" v="Millennium"/>
    <tag k="millennium:ref" v="17931"/>
    <tag k="millennium:subtype" v="Euronet"/>
    <tag k="name" v="Bankomat Millennium"/>
    <tag k="operator" v="Euronet Sp. z o.o."/>
  </node>
  <node id="936116086" version="2" timestamp="2011-08-02T17:55:59Z" uid="335496" user="NightRaven76" changeset="8903294" lat="53.1302846" lon="18.0083757">
    <tag k="addr:city" v="Bydgoszcz"/>
    <tag k="addr:housenumber" v="1"/>
    <tag k="addr:street" v="Juliusza Słowackiego"/>
    <tag k="amenity" v="atm"/>
    <tag k="atm_ref" v="MLA310B"/>
    <tag k="millennium:date" v="2009-05-21 17:13:02"/>
    <tag k="millennium:network" v="Millennium"/>
    <tag k="millennium:ref" v="17931"/>
    <tag k="millennium:subtype" v="Euronet"/>
    <tag k="name" v="Bankomat Millennium"/>
    <tag k="operator" v="Euronet Sp. z o.o."/>
  </node>
  <node id="936116087" version="1" timestamp="2010-10-03T03:27:40Z" uid="20587" user="balrog-kun" changeset="5941061" lat="53.1524234" lon="23.1255126">
    <tag k="addr:city" v="Białystok"/>
    <tag k="addr:housenumber" v="14b"/>
    <tag k="addr:street" v="Generała Zygmunta Berlinga"/>
    <tag k="amenity" v="atm"/>
    <tag k="atm_ref" v="ML9328A"/>
    <tag k="millennium:date" v="2009-05-21 17:13:02"/>
    <tag k="millennium:network" v="Millennium"/>
    <tag k="millennium:ref" v="17917"/>
    <tag k="millennium:subtype" v="Euronet"/>
    <tag k="name" v="Bankomat Millennium"/>
    <tag k="operator" v="Euronet Sp. z o.o."/>
  </node>
  <node id="936116088" version="1" timestamp="2010-10-03T03:27:40Z" uid="20587" user="balrog-kun" changeset="5941061" lat="54.3480096" lon="18.6543549">
    <tag k="addr:city" v="Gdańsk"/>
    <tag k="addr:housenumber" v="17/18"/>
    <tag k="addr:street" v="Długi Targ"/>
    <tag k="amenity" v="atm"/>
    <tag k="atm_ref" v="MLB424A"/>
    <tag k="millennium:date" v="2009-05-21 17:13:02"/>
    <tag k="millennium:network" v="Millennium"/>
    <tag k="millennium:ref" v="17953"/>
    <tag k="millennium:subtype" v="Euronet"/>
    <tag k="name" v="Bankomat Millennium"/>
    <tag k="operator" v="Euronet Sp. z o.o."/>
  </node>
  <node id="936116088" version="2" timestamp="2011-01-25T20:26:59Z" uid="378154" user="rosomak" changeset="7087671" lat="54.3479804" lon="18.6544311">
    <tag k="addr:city" v="Gdańsk"/>
    <tag k="addr:housenumber" v="17/18"/>
    <tag k="addr:street" v="Długi Targ"/>
    <tag k="amenity" v="atm"/>
    <tag k="atm_ref" v="MLB424A"/>
    <tag k="millennium:date" v="2009-05-21 17:13:02"/>
    <tag k="millennium:network" v="Millennium"/>
    <tag k="millennium:ref" v="17953"/>
    <tag k="millennium:subtype" v="Euronet"/>
    <tag k="name" v="Bankomat Millennium"/>
    <tag k="operator" v="Euronet Sp. z o.o."/>
  </node>
  <node id="936116089" version="1" timestamp="2010-10-03T03:27:40Z" uid="20587" user="balrog-kun" changeset="5941061" lat="54.3472193" lon="18.6590671">
    <tag k="addr:city" v="Gdańsk"/>
    <tag k="addr:housenumber" v="14"/>
    <tag k="addr:street" v="Stągiewna"/>
    <tag k="amenity" v="atm"/>
    <tag k="atm_ref" v="MLB422A"/>
    <tag k="millennium:date" v="2009-05-21 17:13:02"/>
    <tag k="millennium:network" v="Millennium"/>
    <tag k="millennium:ref" v="17977"/>
    <tag k="millennium:subtype" v="Euronet"/>
    <tag k="name" v="Bankomat Millennium"/>
    <tag k="operator" v="Euronet Sp. z o.o."/>
  </node>
  <node id="936116090" version="1" timestamp="2010-10-03T03:27:40Z" uid="20587" user="balrog-kun" changeset="5941061" lat="53.4311575" lon="14.5413814">
    <tag k="addr:city" v="Szczecin"/>
    <tag k="addr:housenumber" v="50"/>
    <tag k="addr:street" v="Wojska Polskiego"/>
    <tag k="amenity" v="bank"/>
    <tag k="millennium:date" v="2009-09-14 14:49:45"/>
    <tag k="millennium:ref" v="20474"/>
    <tag k="millennium:usługi" v="Millennium"/>
    <tag k="name" v="Millennium Bank"/>
    <tag k="opening_hours" v="10.00-18.00 Mo-Fr"/>
  </node>
  <node id="936116090" version="2" timestamp="2010-12-24T06:56:11Z" uid="13436" user="hkucharek" changeset="6752034" lat="53.4311575" lon="14.5413814">
    <tag k="addr:city" v="Szczecin"/>
    <tag k="addr:housenumber" v="50"/>
    <tag k="addr:street" v="Wojska Polskiego"/>
    <tag k="amenity" v="bank"/>
    <tag k="millennium:date" v="2009-09-14 14:49:45"/>
    <tag k="millennium:ref" v="20474"/>
    <tag k="millennium:usługi" v="Millennium"/>
    <tag k="name" v="Millennium Bank"/>
    <tag k="opening_hours" v="Mo-Fr 10:00-18:00"/>
  </node>
  <node id="936116091" version="1" timestamp="2010-10-03T03:27:40Z" uid="20587" user="balrog-kun" changeset="5941061" lat="52.5354355" lon="17.5959185">
    <tag k="addr:city" v="Gniezno"/>
    <tag k="addr:housenumber" v="4"/>
    <tag k="addr:street" v="Rynek"/>
    <tag k="amenity" v="atm"/>
    <tag k="atm_ref" v="2747200"/>
    <tag k="millennium:date" v="2009-05-21 17:13:02"/>
    <tag k="millennium:network" v="BZ WBK"/>
    <tag k="millennium:ref" v="18887"/>
    <tag k="millennium:subtype" v="Euronet"/>
    <tag k="name" v="Bankomat BZ WBK"/>
    <tag k="operator" v="Euronet Sp. z o.o."/>
  </node>
  <node id="936116043" version="4" timestamp="2012-05-21T14:17:01Z" uid="681295" user="przemas75" changeset="11662369" lat="54.4393219" lon="18.560826">
    <tag k="addr:city" v="Sopot"/>
    <tag k="addr:country" v="PL"/>
    <tag k="addr:housenumber" v="753"/>
    <tag k="addr:street" v="aleja Niepodległości"/>
    <tag k="amenity" v="atm"/>
    <tag k="atm_ref" v="ML0199A"/>
    <tag k="millennium:date" v="2009-05-21 17:13:02"/>
    <tag k="millennium:network" v="Millennium"/>
    <tag k="millennium:ref" v="18130"/>
    <tag k="millennium:subtype" v="Euronet"/>
    <tag k="name" v="Bankomat Millennium"/>
    <tag k="operator" v="Euronet Sp. z o.o."/>
  </node>
  <node id="936116049" version="2" timestamp="2012-06-03T05:11:31Z" uid="681295" user="przemas75" changeset="11782602" lat="54.3471481" lon="18.6617506">
    <tag k="addr:city" v="Gdańsk"/>
    <tag k="addr:housenumber" v="10"/>
    <tag k="addr:street" v="Długie Ogrody"/>
    <tag k="amenity" v="atm"/>
    <tag k="atm_ref" v="1098250"/>
    <tag k="millennium:date" v="2009-05-21 17:13:02"/>
    <tag k="millennium:network" v="BZ WBK"/>
    <tag k="millennium:ref" v="18925"/>
    <tag k="millennium:subtype" v="Euronet"/>
    <tag k="name" v="Bankomat BZ WBK"/>
    <tag k="operator" v="Euronet Sp. z o.o."/>
  </node>
  <node id="936116049" version="3" timestamp="2012-08-30T22:39:33Z" uid="500953" user="skradacz" changeset="12924475" lat="54.3471575" lon="18.6617346">
    <tag k="addr:city" v="Gdańsk"/>
    <tag k="addr:housenumber" v="10"/>
    <tag k="addr:street" v="Długie Ogrody"/>
    <tag k="amenity" v="atm"/>
    <tag k="atm_ref" v="1098250"/>
    <tag k="millennium:date" v="2009-05-21 17:13:02"/>
    <tag k="millennium:network" v="BZ WBK"/>
    <tag k="millennium:ref" v="18925"/>
    <tag k="millennium:subtype" v="Euronet"/>
    <tag k="name" v="Bankomat BZ WBK"/>
    <tag k="operator" v="Euronet Sp. z o.o."/>
  </node>
  <node id="936116049" version="4" timestamp="2012-09-06T12:17:42Z" uid="681407" user="Berrt" changeset="13009348" lat="54.3471597" lon="18.661683">
    <tag k="addr:city" v="Gdańsk"/>
    <tag k="addr:housenumber" v="10"/>
    <tag k="addr:street" v="Długie Ogrody"/>
    <tag k="amenity" v="atm"/>
    <tag k="atm_ref" v="1098250"/>
    <tag k="millennium:date" v="2009-05-21 17:13:02"/>
    <tag k="millennium:network" v="BZ WBK"/>
    <tag k="millennium:ref" v="18925"/>
    <tag k="millennium:subtype" v="Euronet"/>
    <tag k="name" v="Bankomat BZ WBK"/>
    <tag k="operator" v="Euronet Sp. z o.o."/>
  </node>
  <node id="936116089" version="2" timestamp="2012-06-29T10:48:08Z" uid="681295" user="przemas75" changeset="12055135" lat="54.3472825" lon="18.6588374">
    <tag k="addr:city" v="Gdańsk"/>
    <tag k="addr:housenumber" v="14"/>
    <tag k="addr:street" v="Stągiewna"/>
    <tag k="amenity" v="atm"/>
    <tag k="atm_ref" v="MLB422A"/>
    <tag k="millennium:date" v="2009-05-21 17:13:02"/>
    <tag k="millennium:network" v="Millennium"/>
    <tag k="millennium:ref" v="17977"/>
    <tag k="millennium:subtype" v="Euronet"/>
    <tag k="name" v="Bankomat Millennium"/>
    <tag k="operator" v="Euronet Sp. z o.o."/>
  </node>
</osm>
