<?xml version='1.0' encoding='UTF-8'?>
<osm version="0.6" generator="libosmium/2.20.0">
  <node id="937660064" version="1" timestamp="2010-10-04T13:43:39Z" uid="352682" user="bevenser" changeset="5953617" lat="52.9719276" lon="10.5324046">
    <tag k="amenity" v="hospital"/>
    <tag k="name" v="Klinikum Uelzen GmbH"/>
  </node>
  <node id="937660064" version="2" timestamp="2010-10-05T12:35:43Z" uid="43863" user="Rundling" changeset="5960967" lat="52.9719276" lon="10.5324046">
    <tag k="amenity" v="hospital"/>
    <tag k="name" v="Klinikum Uelzen GmbH"/>
  </node>
  <node id="937661679" version="1" timestamp="2010-10-04T13:47:56Z" uid="115477" user="wowik" changeset="5953174" lat="54.5926794" lon="20.6850658"/>
  <node id="937662163" version="1" timestamp="2010-10-04T13:50:51Z" uid="115477" user="wowik" changeset="5953174" lat="54.5806078" lon="20.4558209">
    <tag k="name" v="Полевое"/>
    <tag k="place" v="hamlet"/>
  </node>
  <node id="937669811" version="1" timestamp="2010-10-04T14:01:45Z" uid="115477" user="wowik" changeset="5953174" lat="54.586203" lon="20.568612">
    <tag k="name" v="Нивенское"/>
    <tag k="place" v="hamlet"/>
  </node>
  <node id="937669811" version="2" timestamp="2011-12-30T18:35:06Z" uid="260756" user="Felis Pimeja" changeset="10248219" lat="54.586203" lon="20.568612">
    <tag k="name" v="Нивенское"/>
    <tag k="official_status" v="ru:посёлок"/>
    <tag k="place" v="hamlet"/>
  </node>
  <node id="937669813" version="1" timestamp="2010-10-04T14:01:45Z" uid="115477" user="wowik" changeset="5953174" lat="54.5253193" lon="20.6031531">
    <tag k="name" v="Невское"/>
    <tag k="place" v="hamlet"/>
  </node>
  <node id="937669813" version="2" timestamp="2010-10-05T10:56:19Z" uid="115477" user="wowik" changeset="5960276" lat="54.5253193" lon="20.6031531">
    <tag k="name" v="Невское"/>
    <tag k="place" v="hamlet"/>
  </node>
  <node id="937669816" version="1" timestamp="2010-10-04T14:01:45Z" uid="115477" user="wowik" changeset="5953174" lat="54.5823676" lon="20.6914205">
    <tag k="name" v="Марийское"/>
    <tag k="place" v="hamlet"/>
  </node>
  <node id="937669816" version="2" timestamp="2011-04-24T15:40:29Z" uid="357344" user="RotBlau" changeset="7953861" lat="54.5823676" lon="20.6914205">
    <tag k="name" v="Марийское"/>
    <tag k="old_name" v="Weißenstein"/>
    <tag k="place" v="hamlet"/>
  </node>
  <node id="937669817" version="1" timestamp="2010-10-04T14:01:46Z" uid="115477" user="wowik" changeset="5953174" lat="54.5443035" lon="20.7260088">
    <tag k="name" v="Чехово"/>
    <tag k="place" v="hamlet"/>
  </node>
  <node id="937669817" version="2" timestamp="2011-04-24T15:40:29Z" uid="357344" user="RotBlau" changeset="7953861" lat="54.5443035" lon="20.7260088">
    <tag k="name" v="Чехово"/>
    <tag k="old_name" v="Uderwangen"/>
    <tag k="place" v="hamlet"/>
  </node>
  <node id="937669817" version="3" timestamp="2011-09-23T07:11:56Z" uid="383137" user="ErshKUS" changeset="9374193" lat="54.5411674" lon="20.728405">
    <tag k="name" v="Чехово"/>
    <tag k="old_name" v="Uderwangen"/>
    <tag k="place" v="hamlet"/>
  </node>
  <node id="937661679" version="2" timestamp="2012-07-24T18:26:24Z" uid="722137" user="OSMF Redaction Account" changeset="12473199" lat="54.5926794" lon="20.6850658"/>
  <node id="937662163" version="2" timestamp="2012-07-24T19:39:15Z" uid="722137" user="OSMF Redaction Account" changeset="12474794" lat="54.5806078" lon="20.4558209"/>
  <node id="937669811" version="3" timestamp="2012-05-02T11:13:50Z" uid="397835" user="Arhemed" changeset="11478460" lat="54.5864447" lon="20.5688553">
    <tag k="name" v="Нивенское"/>
    <tag k="official_status" v="ru:посёлок"/>
    <tag k="place" v="hamlet"/>
  </node>
  <node id="937669811" version="4" timestamp="2012-07-24T18:31:22Z" uid="722137" user="OSMF Redaction Account" changeset="12473319" lat="54.5864447" lon="20.5688553">
    <tag k="official_status" v="ru:посёлок"/>
  </node>
  <node id="937669816" version="3" timestamp="2012-07-24T18:26:07Z" uid="722137" user="OSMF Redaction Account" changeset="12473192" lat="54.5823676" lon="20.6914205"/>
  <node id="937669817" version="4" timestamp="2012-07-24T18:26:03Z" uid="722137" user="OSMF Redaction Account" changeset="12473192" lat="54.5411674" lon="20.728405">
    <tag k="old_name" v="Uderwangen"/>
  </node>
</osm>
