<?xml version='1.0' encoding='UTF-8'?>
<osm version="0.6" generator="libosmium/2.20.0">
  <node id="937882677" version="1" timestamp="2010-10-04T18:15:01Z" uid="20587" user="balrog-kun" changeset="5956007" lat="52.2443" lon="20.9908">
    <tag k="addr:city" v="Warszawa"/>
    <tag k="addr:housenumber" v="45a"/>
    <tag k="addr:street" v="Aleja Jana Pawła II"/>
    <tag k="amenity" v="bank"/>
    <tag k="millennium:date" v="2009-09-14 14:49:45"/>
    <tag k="millennium:ref" v="20766"/>
    <tag k="millennium:usługi" v="Millennium, Biznes"/>
    <tag k="name" v="Millennium Bank"/>
    <tag k="opening_hours" v="10.00-18.00 Mo-Fr"/>
  </node>
  <node id="937882677" version="2" timestamp="2011-01-12T20:04:37Z" uid="165509" user="koszatek" changeset="6950971" lat="52.2443246" lon="20.9908251">
    <tag k="addr:city" v="Warszawa"/>
    <tag k="addr:housenumber" v="45a"/>
    <tag k="addr:street" v="Aleja Jana Pawła II"/>
    <tag k="amenity" v="bank"/>
    <tag k="millennium:date" v="2009-09-14 14:49:45"/>
    <tag k="millennium:ref" v="20766"/>
    <tag k="millennium:usługi" v="Millennium, Biznes"/>
    <tag k="name" v="Millennium Bank"/>
    <tag k="opening_hours" v="10.00-18.00 Mo-Fr"/>
  </node>
  <node id="937882678" version="1" timestamp="2010-10-04T18:15:02Z" uid="20587" user="balrog-kun" changeset="5956007" lat="49.5648678" lon="22.2075829">
    <tag k="addr:city" v="Sanok"/>
    <tag k="addr:housenumber" v="10"/>
    <tag k="addr:street" v="Królowej Bony"/>
    <tag k="amenity" v="atm"/>
    <tag k="atm_ref" v="2750530"/>
    <tag k="millennium:date" v="2009-05-21 17:13:02"/>
    <tag k="millennium:network" v="BZ WBK"/>
    <tag k="millennium:ref" v="19315"/>
    <tag k="millennium:subtype" v="Millennium"/>
    <tag k="name" v="Bankomat BZ WBK"/>
    <tag k="note" v="TODO"/>
    <tag k="opening_hours" v="Mo-Sa 07.00-22.00"/>
    <tag k="operator" v="Bank Millennium S.A."/>
  </node>
  <node id="937882678" version="2" timestamp="2010-11-23T20:44:53Z" uid="369208" user="Slawek_n" changeset="6442417" lat="49.5648678" lon="22.2075829">
    <tag k="addr:city" v="Sanok"/>
    <tag k="addr:housenumber" v="10"/>
    <tag k="addr:street" v="Królowej Bony"/>
    <tag k="amenity" v="fuel"/>
    <tag k="atm_ref" v="2750530"/>
    <tag k="fuel:diesel" v="yes"/>
    <tag k="fuel:lpg" v="yes"/>
    <tag k="fuel:octane_95" v="yes"/>
    <tag k="millennium:date" v="2009-05-21 17:13:02"/>
    <tag k="millennium:network" v="BZ WBK"/>
    <tag k="millennium:ref" v="19315"/>
    <tag k="millennium:subtype" v="Millennium"/>
    <tag k="name" v="Bankomat BZ WBK"/>
    <tag k="note" v="TODO"/>
    <tag k="opening_hours" v="Mo-Sa 07.00-22.00"/>
    <tag k="operator" v="Bank Millennium S.A."/>
    <tag k="shop" v="yes"/>
  </node>
  <node id="937882678" version="3" timestamp="2010-12-20T18:49:11Z" uid="369208" user="Slawek_n" changeset="6718687" lat="49.5648679" lon="22.2075828">
    <tag k="addr:city" v="Sanok"/>
    <tag k="addr:housenumber" v="10"/>
    <tag k="addr:street" v="Królowej Bony"/>
    <tag k="amenity" v="atm"/>
    <tag k="atm_ref" v="2750530"/>
    <tag k="millennium:date" v="2009-05-21 17:13:02"/>
    <tag k="millennium:network" v="BZ WBK"/>
    <tag k="millennium:ref" v="19315"/>
    <tag k="millennium:subtype" v="Millennium"/>
    <tag k="name" v="Bankomat BZ WBK"/>
    <tag k="note" v="TODO"/>
    <tag k="opening_hours" v="Mo-Sa 07.00-22.00"/>
    <tag k="operator" v="Bank Millennium S.A."/>
    <tag k="shop" v="yes"/>
  </node>
  <node id="937882678" version="4" timestamp="2011-01-17T13:55:53Z" uid="289334" user="Soldier Boy" changeset="6999717" lat="49.5648679" lon="22.2075828">
    <tag k="addr:city" v="Sanok"/>
    <tag k="addr:housenumber" v="10"/>
    <tag k="addr:street" v="Królowej Bony"/>
    <tag k="amenity" v="atm"/>
    <tag k="atm_ref" v="2750530"/>
    <tag k="millennium:date" v="2009-05-21 17:13:02"/>
    <tag k="millennium:network" v="BZ WBK"/>
    <tag k="millennium:ref" v="19315"/>
    <tag k="millennium:subtype" v="Millennium"/>
    <tag k="name" v="Bankomat BZ WBK"/>
    <tag k="note" v="TODO"/>
    <tag k="opening_hours" v="Mo-Sa 07:00-22:00"/>
    <tag k="operator" v="Bank Millennium S.A."/>
    <tag k="shop" v="yes"/>
  </node>
  <node id="937882678" version="5" timestamp="2011-01-21T20:53:58Z" uid="369208" user="Slawek_n" changeset="7044505" lat="49.5668191" lon="22.2063359">
    <tag k="addr:city" v="Sanok"/>
    <tag k="addr:housenumber" v="10"/>
    <tag k="addr:street" v="Królowej Bony"/>
    <tag k="amenity" v="atm"/>
    <tag k="atm_ref" v="2750530"/>
    <tag k="millennium:date" v="2009-05-21 17:13:02"/>
    <tag k="millennium:network" v="BZ WBK"/>
    <tag k="millennium:ref" v="19315"/>
    <tag k="millennium:subtype" v="Millennium"/>
    <tag k="name" v="Bankomat BZ WBK"/>
    <tag k="note" v="TODO"/>
    <tag k="opening_hours" v="Mo-Sa 07:00-22:00"/>
    <tag k="operator" v="Bank Millennium S.A."/>
    <tag k="shop" v="yes"/>
  </node>
  <node id="937882679" version="1" timestamp="2010-10-04T18:15:02Z" uid="20587" user="balrog-kun" changeset="5956007" lat="52.5875009" lon="17.1780299"/>
  <node id="937882680" version="1" timestamp="2010-10-04T18:15:02Z" uid="20587" user="balrog-kun" changeset="5956007" lat="52.2339" lon="21.0189">
    <tag k="addr:city" v="Warszawa"/>
    <tag k="addr:housenumber" v="35"/>
    <tag k="addr:street" v="Nowy Świat"/>
    <tag k="amenity" v="atm"/>
    <tag k="atm_ref" v="ML1272A"/>
    <tag k="millennium:date" v="2009-05-21 17:13:02"/>
    <tag k="millennium:network" v="Millennium"/>
    <tag k="millennium:ref" v="18218"/>
    <tag k="millennium:subtype" v="Euronet"/>
    <tag k="name" v="Bankomat Millennium"/>
    <tag k="operator" v="Euronet Sp. z o.o."/>
  </node>
  <node id="937882681" version="1" timestamp="2010-10-04T18:15:02Z" uid="20587" user="balrog-kun" changeset="5956007" lat="52.3030764" lon="21.0571494">
    <tag k="addr:city" v="Warszawa"/>
    <tag k="addr:housenumber" v="15"/>
    <tag k="addr:street" v="Głębocka"/>
    <tag k="amenity" v="atm"/>
    <tag k="atm_ref" v="1014548"/>
    <tag k="millennium:date" v="2009-05-21 17:13:02"/>
    <tag k="millennium:network" v="BZ WBK"/>
    <tag k="millennium:ref" v="19430"/>
    <tag k="millennium:subtype" v="Millennium"/>
    <tag k="name" v="Bankomat BZ WBK"/>
    <tag k="opening_hours" v="Mo-Sa 10.00-21.00"/>
    <tag k="operator" v="Bank Millennium S.A."/>
  </node>
  <node id="937882682" version="1" timestamp="2010-10-04T18:15:03Z" uid="20587" user="balrog-kun" changeset="5956007" lat="52.2328881" lon="20.9992526">
    <tag k="addr:city" v="Warszawa"/>
    <tag k="addr:housenumber" v="1"/>
    <tag k="addr:street" v="Rondo"/>
    <tag k="amenity" v="atm"/>
    <tag k="atm_ref" v="ML1852A"/>
    <tag k="millennium:date" v="2009-05-21 17:13:02"/>
    <tag k="millennium:network" v="Millennium"/>
    <tag k="millennium:ref" v="18223"/>
    <tag k="millennium:subtype" v="Euronet"/>
    <tag k="name" v="Bankomat Millennium"/>
    <tag k="operator" v="Euronet Sp. z o.o."/>
  </node>
  <node id="937882683" version="1" timestamp="2010-10-04T18:15:03Z" uid="20587" user="balrog-kun" changeset="5956007" lat="54.16569" lon="19.4000508">
    <tag k="addr:city" v="Elbląg"/>
    <tag k="addr:housenumber" v="5"/>
    <tag k="addr:street" v="Teatralna"/>
    <tag k="amenity" v="atm"/>
    <tag k="atm_ref" v="1098570"/>
    <tag k="millennium:date" v="2009-05-21 17:13:02"/>
    <tag k="millennium:network" v="BZ WBK"/>
    <tag k="millennium:ref" v="19308"/>
    <tag k="millennium:subtype" v="Millennium"/>
    <tag k="name" v="Bankomat BZ WBK"/>
    <tag k="note" v="TODO"/>
    <tag k="opening_hours" v="Mo-Sa 07.00-22.00"/>
    <tag k="operator" v="Bank Millennium S.A."/>
  </node>
  <node id="937882684" version="1" timestamp="2010-10-04T18:15:03Z" uid="20587" user="balrog-kun" changeset="5956007" lat="51.9541719" lon="17.8421922"/>
  <node id="937882685" version="1" timestamp="2010-10-04T18:15:03Z" uid="20587" user="balrog-kun" changeset="5956007" lat="52.245478" lon="21.0841917">
    <tag k="addr:city" v="Warszawa"/>
    <tag k="addr:housenumber" v="2"/>
    <tag k="addr:street" v="Wiatraczna"/>
    <tag k="amenity" v="atm"/>
    <tag k="atm_ref" v="ML1194A"/>
    <tag k="indoor" v="yes"/>
    <tag k="millennium:date" v="2009-05-21 17:13:02"/>
    <tag k="millennium:network" v="Millennium"/>
    <tag k="millennium:ref" v="18230"/>
    <tag k="millennium:subtype" v="Euronet"/>
    <tag k="name" v="Bankomat Millennium"/>
    <tag k="operator" v="Euronet Sp. z o.o."/>
  </node>
  <node id="937882686" version="1" timestamp="2010-10-04T18:15:03Z" uid="20587" user="balrog-kun" changeset="5956007" lat="51.8943052" lon="19.2899578"/>
  <node id="937882687" version="1" timestamp="2010-10-04T18:15:04Z" uid="20587" user="balrog-kun" changeset="5956007" lat="52.2258988" lon="21.0135997">
    <tag k="addr:city" v="Warszawa"/>
    <tag k="addr:housenumber" v="83"/>
    <tag k="addr:street" v="Marszałkowska"/>
    <tag k="amenity" v="atm"/>
    <tag k="atm_ref" v="ML1030B"/>
    <tag k="millennium:date" v="2009-05-21 17:13:02"/>
    <tag k="millennium:network" v="Millennium"/>
    <tag k="millennium:ref" v="18211"/>
    <tag k="millennium:subtype" v="Euronet"/>
    <tag k="name" v="Bankomat Millennium"/>
    <tag k="operator" v="Euronet Sp. z o.o."/>
  </node>
  <node id="937882688" version="1" timestamp="2010-10-04T18:15:04Z" uid="20587" user="balrog-kun" changeset="5956007" lat="51.421835" lon="14.4966803"/>
  <node id="937882689" version="1" timestamp="2010-10-04T18:15:04Z" uid="20587" user="balrog-kun" changeset="5956007" lat="52.2226126" lon="20.9863235">
    <tag k="addr:city" v="Warszawa"/>
    <tag k="addr:housenumber" v="18/20"/>
    <tag k="addr:street" v="Grójecka"/>
    <tag k="amenity" v="atm"/>
    <tag k="atm_ref" v="MLF74714"/>
    <tag k="millennium:date" v="2009-05-21 17:13:02"/>
    <tag k="millennium:network" v="Millennium"/>
    <tag k="millennium:ref" v="18276"/>
    <tag k="millennium:subtype" v="Euronet"/>
    <tag k="name" v="Bankomat Millennium"/>
    <tag k="operator" v="Euronet Sp. z o.o."/>
  </node>
  <node id="937882690" version="1" timestamp="2010-10-04T18:15:04Z" uid="20587" user="balrog-kun" changeset="5956007" lat="52.2333597" lon="21.0544836">
    <tag k="addr:city" v="Warszawa"/>
    <tag k="addr:housenumber" v="15"/>
    <tag k="addr:street" v="Francuska"/>
    <tag k="amenity" v="atm"/>
    <tag k="atm_ref" v="ML1249A"/>
    <tag k="millennium:date" v="2009-05-21 17:13:02"/>
    <tag k="millennium:network" v="Millennium"/>
    <tag k="millennium:ref" v="18194"/>
    <tag k="millennium:subtype" v="Euronet"/>
    <tag k="name" v="Bankomat Millennium"/>
    <tag k="operator" v="Euronet Sp. z o.o."/>
  </node>
  <node id="937882691" version="1" timestamp="2010-10-04T18:15:04Z" uid="20587" user="balrog-kun" changeset="5956007" lat="50.5139385" lon="18.2887829">
    <tag k="addr:city" v="Strzelce Opolskie"/>
    <tag k="addr:housenumber" v="1"/>
    <tag k="addr:street" v="Strzelców Bytomskich"/>
    <tag k="amenity" v="atm"/>
    <tag k="atm_ref" v="2239503"/>
    <tag k="millennium:date" v="2009-05-21 17:13:02"/>
    <tag k="millennium:network" v="BZ WBK"/>
    <tag k="millennium:ref" v="19178"/>
    <tag k="millennium:subtype" v="Millennium"/>
    <tag k="name" v="Bankomat BZ WBK"/>
    <tag k="note" v="TODO"/>
    <tag k="opening_hours" v="Mo-Sa 7.00-22.00"/>
    <tag k="operator" v="Bank Millennium S.A."/>
  </node>
  <node id="937882692" version="1" timestamp="2010-10-04T18:15:05Z" uid="20587" user="balrog-kun" changeset="5956007" lat="52.3325" lon="20.9494">
    <tag k="addr:city" v="Warszawa"/>
    <tag k="addr:housenumber" v="8d"/>
    <tag k="addr:street" v="Pasłęcka"/>
    <tag k="amenity" v="bank"/>
    <tag k="millennium:date" v="2009-09-14 14:49:45"/>
    <tag k="millennium:ref" v="20696"/>
    <tag k="millennium:usługi" v="Millennium"/>
    <tag k="name" v="Millennium Bank"/>
    <tag k="opening_hours" v="10.00-18.00 Mo-Fr"/>
  </node>
  <node id="937882693" version="1" timestamp="2010-10-04T18:15:05Z" uid="20587" user="balrog-kun" changeset="5956007" lat="52.0955" lon="21.1169">
    <tag k="addr:city" v="Konstancin"/>
    <tag k="addr:housenumber" v="29"/>
    <tag k="addr:street" v="Warszawska"/>
    <tag k="amenity" v="atm"/>
    <tag k="atm_ref" v="ML1181A"/>
    <tag k="millennium:date" v="2009-05-21 17:13:02"/>
    <tag k="millennium:network" v="Millennium"/>
    <tag k="millennium:ref" v="18022"/>
    <tag k="millennium:subtype" v="Euronet"/>
    <tag k="name" v="Bankomat Millennium"/>
    <tag k="operator" v="Euronet Sp. z o.o."/>
  </node>
  <node id="937882693" version="2" timestamp="2011-05-15T11:51:49Z" uid="100448" user="kietlak" changeset="8150804" lat="52.0955783" lon="21.1168191">
    <tag k="addr:city" v="Konstancin"/>
    <tag k="amenity" v="atm"/>
    <tag k="atm_ref" v="ML1181A"/>
    <tag k="millennium:date" v="2009-05-21 17:13:02"/>
    <tag k="millennium:network" v="Millennium"/>
    <tag k="millennium:ref" v="18022"/>
    <tag k="millennium:subtype" v="Euronet"/>
    <tag k="name" v="Bankomat Millennium"/>
    <tag k="operator" v="Euronet Sp. z o.o."/>
  </node>
  <node id="937882694" version="1" timestamp="2010-10-04T18:15:05Z" uid="20587" user="balrog-kun" changeset="5956007" lat="52.2368888" lon="21.0060508">
    <tag k="addr:city" v="Warszawa"/>
    <tag k="addr:street" v="Metro Świętokrzyska"/>
    <tag k="amenity" v="atm"/>
    <tag k="atm_ref" v="9753"/>
    <tag k="millennium:date" v="2009-05-21 17:13:02"/>
    <tag k="millennium:network" v="Cash4You"/>
    <tag k="millennium:ref" v="19691"/>
    <tag k="millennium:subtype" v="Euronet"/>
    <tag k="name" v="Bankomat Cash4You"/>
    <tag k="operator" v="Euronet Sp. z o.o."/>
  </node>
  <node id="937882695" version="1" timestamp="2010-10-04T18:15:05Z" uid="20587" user="balrog-kun" changeset="5956007" lat="52.2287987" lon="21.0080727">
    <tag k="addr:city" v="Warszawa"/>
    <tag k="addr:housenumber" v="53"/>
    <tag k="addr:street" v="Aleje Jerozolimskie"/>
    <tag k="amenity" v="atm"/>
    <tag k="atm_ref" v="2851210"/>
    <tag k="millennium:date" v="2009-05-21 17:13:02"/>
    <tag k="millennium:network" v="BZ WBK"/>
    <tag k="millennium:ref" v="19159"/>
    <tag k="millennium:subtype" v="Euronet"/>
    <tag k="name" v="Bankomat BZ WBK"/>
    <tag k="operator" v="Euronet Sp. z o.o."/>
  </node>
  <node id="937882696" version="1" timestamp="2010-10-04T18:15:06Z" uid="20587" user="balrog-kun" changeset="5956007" lat="52.235734" lon="21.0195039">
    <tag k="addr:city" v="Warszawa"/>
    <tag k="addr:housenumber" v="11"/>
    <tag k="addr:street" v="Ordynacka"/>
    <tag k="amenity" v="atm"/>
    <tag k="atm_ref" v="1883210"/>
    <tag k="millennium:date" v="2009-05-21 17:13:02"/>
    <tag k="millennium:network" v="BZ WBK"/>
    <tag k="millennium:ref" v="18476"/>
    <tag k="millennium:subtype" v="Euronet"/>
    <tag k="name" v="Bankomat BZ WBK"/>
    <tag k="operator" v="Euronet Sp. z o.o."/>
  </node>
  <node id="937882697" version="1" timestamp="2010-10-04T18:15:06Z" uid="20587" user="balrog-kun" changeset="5956007" lat="52.7478038" lon="15.4700137"/>
  <node id="937882698" version="1" timestamp="2010-10-04T18:15:06Z" uid="20587" user="balrog-kun" changeset="5956007" lat="53.3308942" lon="15.0265402">
    <tag k="addr:city" v="Stargard Szczeciński"/>
    <tag k="addr:housenumber" v="73"/>
    <tag k="addr:street" v="Tadeusza Kościuszki"/>
    <tag k="amenity" v="atm"/>
    <tag k="atm_ref" v="2268541"/>
    <tag k="millennium:date" v="2009-05-21 17:13:02"/>
    <tag k="millennium:network" v="BZ WBK"/>
    <tag k="millennium:ref" v="19436"/>
    <tag k="millennium:subtype" v="Millennium"/>
    <tag k="name" v="Bankomat BZ WBK"/>
    <tag k="note" v="TODO"/>
    <tag k="opening_hours" v="Mo-Sa 07.00-22.00"/>
    <tag k="operator" v="Bank Millennium S.A."/>
  </node>
  <node id="937882698" version="2" timestamp="2010-12-10T10:38:38Z" uid="352869" user="Hans Wurst" changeset="6603808" lat="53.3308943" lon="15.0265401">
    <tag k="addr:city" v="Stargard Szczeciński"/>
    <tag k="addr:housenumber" v="73"/>
    <tag k="addr:street" v="Tadeusza Kościuszki"/>
    <tag k="amenity" v="atm"/>
    <tag k="atm_ref" v="2268541"/>
    <tag k="millennium:date" v="2009-05-21 17:13:02"/>
    <tag k="millennium:network" v="BZ WBK"/>
    <tag k="millennium:ref" v="19436"/>
    <tag k="millennium:subtype" v="Millennium"/>
    <tag k="name" v="Bankomat BZ WBK"/>
    <tag k="note" v="TODO"/>
    <tag k="opening_hours" v="Mo-Sa 07:00-22:00"/>
    <tag k="operator" v="Bank Millennium S.A."/>
  </node>
  <node id="937882699" version="1" timestamp="2010-10-04T18:15:06Z" uid="20587" user="balrog-kun" changeset="5956007" lat="51.8261184" lon="15.7895997"/>
  <node id="937882700" version="1" timestamp="2010-10-04T18:15:06Z" uid="20587" user="balrog-kun" changeset="5956007" lat="52.3486433" lon="14.5601412">
    <tag k="addr:city" v="Słubice"/>
    <tag k="addr:housenumber" v="2"/>
    <tag k="addr:street" v="Tadeusza Kościuszki"/>
    <tag k="amenity" v="atm"/>
    <tag k="atm_ref" v="1115001"/>
    <tag k="millennium:date" v="2009-05-21 17:13:02"/>
    <tag k="millennium:network" v="BZ WBK"/>
    <tag k="millennium:ref" v="18642"/>
    <tag k="millennium:subtype" v="Euronet"/>
    <tag k="name" v="Bankomat BZ WBK"/>
    <tag k="operator" v="Euronet Sp. z o.o."/>
  </node>
  <node id="937882700" version="2" timestamp="2010-11-28T18:36:45Z" uid="163437" user="r-michael" changeset="6480915" lat="52.3488101" lon="14.560346">
    <tag k="addr:city" v="Słubice"/>
    <tag k="addr:housenumber" v="2"/>
    <tag k="addr:street" v="Tadeusza Kościuszki"/>
    <tag k="amenity" v="atm"/>
    <tag k="atm_ref" v="1115001"/>
    <tag k="millennium:date" v="2009-05-21 17:13:02"/>
    <tag k="millennium:network" v="BZ WBK"/>
    <tag k="millennium:ref" v="18642"/>
    <tag k="millennium:subtype" v="Euronet"/>
    <tag k="name" v="Bankomat BZ WBK"/>
    <tag k="operator" v="Euronet Sp. z o.o."/>
  </node>
  <node id="937882701" version="1" timestamp="2010-10-04T18:15:06Z" uid="20587" user="balrog-kun" changeset="5956007" lat="52.2251518" lon="20.9915136">
    <tag k="addr:city" v="Warszawa"/>
    <tag k="addr:housenumber" v="121/123"/>
    <tag k="addr:street" v="Aleje Jerozolimskie"/>
    <tag k="amenity" v="atm"/>
    <tag k="atm_ref" v="ML1375A"/>
    <tag k="millennium:date" v="2009-05-21 17:13:02"/>
    <tag k="millennium:network" v="Millennium"/>
    <tag k="millennium:ref" v="18175"/>
    <tag k="millennium:subtype" v="Euronet"/>
    <tag k="name" v="Bankomat Millennium"/>
    <tag k="operator" v="Euronet Sp. z o.o."/>
  </node>
  <node id="937882702" version="1" timestamp="2010-10-04T18:15:07Z" uid="20587" user="balrog-kun" changeset="5956007" lat="52.2328881" lon="20.9992526">
    <tag k="addr:city" v="Warszawa"/>
    <tag k="addr:housenumber" v="1"/>
    <tag k="addr:street" v="Rondo"/>
    <tag k="amenity" v="atm"/>
    <tag k="atm_ref" v="ML1852B"/>
    <tag k="millennium:date" v="2009-05-21 17:13:02"/>
    <tag k="millennium:network" v="Millennium"/>
    <tag k="millennium:ref" v="18222"/>
    <tag k="millennium:subtype" v="Euronet"/>
    <tag k="name" v="Bankomat Millennium"/>
    <tag k="operator" v="Euronet Sp. z o.o."/>
  </node>
  <node id="937882702" version="2" timestamp="2011-12-12T13:30:28Z" uid="441027" user="muzzy" changeset="10099040" lat="52.2328881" lon="20.9992526">
    <tag k="addr:city" v="Warszawa"/>
    <tag k="addr:housenumber" v="1"/>
    <tag k="addr:street" v="Rondo ONZ"/>
    <tag k="amenity" v="atm"/>
    <tag k="atm_ref" v="ML1852B"/>
    <tag k="millennium:date" v="2009-05-21 17:13:02"/>
    <tag k="millennium:network" v="Millennium"/>
    <tag k="millennium:ref" v="18222"/>
    <tag k="millennium:subtype" v="Euronet"/>
    <tag k="name" v="Bankomat Millennium"/>
    <tag k="operator" v="Euronet Sp. z o.o."/>
  </node>
  <node id="937882703" version="1" timestamp="2010-10-04T18:15:07Z" uid="20587" user="balrog-kun" changeset="5956007" lat="52.2871345" lon="21.0746657">
    <tag k="addr:city" v="Warszawa"/>
    <tag k="addr:housenumber" v="1"/>
    <tag k="addr:street" v="Młodzieńcza"/>
    <tag k="amenity" v="atm"/>
    <tag k="atm_ref" v="ML1443A"/>
    <tag k="millennium:date" v="2009-05-21 17:13:02"/>
    <tag k="millennium:network" v="Millennium"/>
    <tag k="millennium:ref" v="18215"/>
    <tag k="millennium:subtype" v="Euronet"/>
    <tag k="name" v="Bankomat Millennium"/>
    <tag k="operator" v="Euronet Sp. z o.o."/>
  </node>
  <node id="937882705" version="1" timestamp="2010-10-04T18:15:07Z" uid="20587" user="balrog-kun" changeset="5956007" lat="52.2137147" lon="21.0223286">
    <tag k="addr:city" v="Warszawa"/>
    <tag k="addr:housenumber" v="14"/>
    <tag k="addr:street" v="Bagatela"/>
    <tag k="amenity" v="atm"/>
    <tag k="atm_ref" v="ML1040A"/>
    <tag k="millennium:date" v="2009-05-21 17:13:02"/>
    <tag k="millennium:network" v="Millennium"/>
    <tag k="millennium:ref" v="18181"/>
    <tag k="millennium:subtype" v="Euronet"/>
    <tag k="name" v="Bankomat Millennium"/>
    <tag k="operator" v="Euronet Sp. z o.o."/>
  </node>
  <node id="937882705" version="2" timestamp="2011-08-24T19:29:33Z" uid="508862" user="KeiDii" changeset="9115677" lat="52.2137622" lon="21.0224249">
    <tag k="addr:city" v="Warszawa"/>
    <tag k="addr:housenumber" v="14"/>
    <tag k="addr:street" v="Bagatela"/>
    <tag k="amenity" v="atm"/>
    <tag k="atm_ref" v="ML1040A"/>
    <tag k="millennium:date" v="2009-05-21 17:13:02"/>
    <tag k="millennium:network" v="Millennium"/>
    <tag k="millennium:ref" v="18181"/>
    <tag k="millennium:subtype" v="Euronet"/>
    <tag k="name" v="Bankomat Millennium"/>
    <tag k="operator" v="Euronet Sp. z o.o."/>
  </node>
  <node id="937882706" version="1" timestamp="2010-10-04T18:15:07Z" uid="20587" user="balrog-kun" changeset="5956007" lat="52.2499452" lon="21.0429738">
    <tag k="addr:city" v="Warszawa"/>
    <tag k="addr:housenumber" v="1"/>
    <tag k="addr:street" v="Kijowska"/>
    <tag k="amenity" v="atm"/>
    <tag k="atm_ref" v="ML1405A"/>
    <tag k="millennium:date" v="2009-05-21 17:13:02"/>
    <tag k="millennium:network" v="Millennium"/>
    <tag k="millennium:ref" v="18203"/>
    <tag k="millennium:subtype" v="Euronet"/>
    <tag k="name" v="Bankomat Millennium"/>
    <tag k="operator" v="Euronet Sp. z o.o."/>
  </node>
  <node id="937882706" version="2" timestamp="2011-08-16T12:05:52Z" uid="373244" user="Tomaszg" changeset="9035613" lat="52.2500082" lon="21.0429039">
    <tag k="addr:city" v="Warszawa"/>
    <tag k="addr:housenumber" v="1"/>
    <tag k="addr:street" v="Kijowska"/>
    <tag k="amenity" v="atm"/>
    <tag k="atm_ref" v="ML1405A"/>
    <tag k="millennium:date" v="2009-05-21 17:13:02"/>
    <tag k="millennium:network" v="Millennium"/>
    <tag k="millennium:ref" v="18203"/>
    <tag k="millennium:subtype" v="Euronet"/>
    <tag k="name" v="Bankomat Millennium"/>
    <tag k="operator" v="Euronet Sp. z o.o."/>
  </node>
  <node id="937882706" version="3" timestamp="2011-09-27T23:41:29Z" uid="373244" user="Tomekg" changeset="9415672" lat="52.2501375" lon="21.0428831">
    <tag k="addr:city" v="Warszawa"/>
    <tag k="addr:housenumber" v="1"/>
    <tag k="addr:street" v="Kijowska"/>
    <tag k="amenity" v="atm"/>
    <tag k="atm_ref" v="ML1405A"/>
    <tag k="millennium:date" v="2009-05-21 17:13:02"/>
    <tag k="millennium:network" v="Millennium"/>
    <tag k="millennium:ref" v="18203"/>
    <tag k="millennium:subtype" v="Euronet"/>
    <tag k="name" v="Bankomat Millennium"/>
    <tag k="operator" v="Euronet Sp. z o.o."/>
  </node>
  <node id="937882707" version="1" timestamp="2010-10-04T18:15:08Z" uid="20587" user="balrog-kun" changeset="5956007" lat="52.2045082" lon="20.9981714">
    <tag k="addr:city" v="Warszawa"/>
    <tag k="addr:housenumber" v="2a"/>
    <tag k="addr:street" v="Stanisława Żaryna"/>
    <tag k="amenity" v="atm"/>
    <tag k="atm_ref" v="ML1332B"/>
    <tag k="millennium:date" v="2009-05-21 17:13:02"/>
    <tag k="millennium:network" v="Millennium"/>
    <tag k="millennium:ref" v="18355"/>
    <tag k="millennium:subtype" v="Euronet"/>
    <tag k="name" v="Bankomat Millennium"/>
    <tag k="operator" v="Euronet Sp. z o.o."/>
  </node>
  <node id="937882709" version="1" timestamp="2010-10-04T18:15:08Z" uid="20587" user="balrog-kun" changeset="5956007" lat="53.7379978" lon="18.9386829">
    <tag k="addr:city" v="Kwidzyn"/>
    <tag k="addr:housenumber" v="4"/>
    <tag k="addr:street" v="Krótka"/>
    <tag k="amenity" v="atm"/>
    <tag k="atm_ref" v="1098630"/>
    <tag k="millennium:date" v="2009-05-21 17:13:02"/>
    <tag k="millennium:network" v="BZ WBK"/>
    <tag k="millennium:ref" v="19309"/>
    <tag k="millennium:subtype" v="Millennium"/>
    <tag k="name" v="Bankomat BZ WBK"/>
    <tag k="note" v="TODO"/>
    <tag k="opening_hours" v="Mo-Sa 07.00-22.00"/>
    <tag k="operator" v="Bank Millennium S.A."/>
  </node>
  <node id="937882710" version="1" timestamp="2010-10-04T18:15:08Z" uid="20587" user="balrog-kun" changeset="5956007" lat="52.233348" lon="20.9639391">
    <tag k="addr:city" v="Warszawa"/>
    <tag k="addr:housenumber" v="64"/>
    <tag k="addr:street" v="Wolska"/>
    <tag k="amenity" v="atm"/>
    <tag k="atm_ref" v="ML1184A"/>
    <tag k="millennium:date" v="2009-05-21 17:13:02"/>
    <tag k="millennium:network" v="Millennium"/>
    <tag k="millennium:ref" v="18231"/>
    <tag k="millennium:subtype" v="Euronet"/>
    <tag k="name" v="Bankomat Millennium"/>
    <tag k="operator" v="Euronet Sp. z o.o."/>
  </node>
  <node id="937882711" version="1" timestamp="2010-10-04T18:15:08Z" uid="20587" user="balrog-kun" changeset="5956007" lat="52.22515" lon="20.9915066">
    <tag k="addr:city" v="Warszawa"/>
    <tag k="addr:housenumber" v="121/123"/>
    <tag k="addr:street" v="Al. Jerozolimskie"/>
    <tag k="amenity" v="atm"/>
    <tag k="atm_ref" v="MLF74711"/>
    <tag k="millennium:date" v="2009-05-21 17:13:02"/>
    <tag k="millennium:network" v="Millennium"/>
    <tag k="millennium:ref" v="17881"/>
    <tag k="millennium:subtype" v="Euronet"/>
    <tag k="name" v="Bankomat Millennium"/>
    <tag k="operator" v="Euronet Sp. z o.o."/>
  </node>
  <node id="937882711" version="2" timestamp="2011-12-14T12:27:20Z" uid="441027" user="muzzy" changeset="10115593" lat="52.22515" lon="20.9915066">
    <tag k="addr:city" v="Warszawa"/>
    <tag k="addr:housenumber" v="121/123"/>
    <tag k="addr:street" v="Aleje Jerozolimskie"/>
    <tag k="amenity" v="atm"/>
    <tag k="atm_ref" v="MLF74711"/>
    <tag k="millennium:date" v="2009-05-21 17:13:02"/>
    <tag k="millennium:network" v="Millennium"/>
    <tag k="millennium:ref" v="17881"/>
    <tag k="millennium:subtype" v="Euronet"/>
    <tag k="name" v="Bankomat Millennium"/>
    <tag k="operator" v="Euronet Sp. z o.o."/>
  </node>
  <node id="937882712" version="1" timestamp="2010-10-04T18:15:09Z" uid="20587" user="balrog-kun" changeset="5956007" lat="52.4266094" lon="15.9986854"/>
  <node id="937882713" version="1" timestamp="2010-10-04T18:15:09Z" uid="20587" user="balrog-kun" changeset="5956007" lat="52.2279917" lon="21.0047286">
    <tag k="addr:city" v="Warszawa"/>
    <tag k="addr:housenumber" v="67/69"/>
    <tag k="addr:street" v="Aleje Jerozolimskie"/>
    <tag k="amenity" v="atm"/>
    <tag k="atm_ref" v="ML1078B"/>
    <tag k="millennium:date" v="2009-05-21 17:13:02"/>
    <tag k="millennium:network" v="Millennium"/>
    <tag k="millennium:ref" v="18177"/>
    <tag k="millennium:subtype" v="Euronet"/>
    <tag k="name" v="Bankomat Millennium"/>
    <tag k="operator" v="Euronet Sp. z o.o."/>
  </node>
  <node id="937882714" version="1" timestamp="2010-10-04T18:15:09Z" uid="20587" user="balrog-kun" changeset="5956007" lat="52.250015" lon="21.0420884">
    <tag k="addr:city" v="Warszawa"/>
    <tag k="addr:housenumber" v="24"/>
    <tag k="addr:street" v="Targowa"/>
    <tag k="amenity" v="atm"/>
    <tag k="atm_ref" v="1043260"/>
    <tag k="millennium:date" v="2009-05-21 17:13:02"/>
    <tag k="millennium:network" v="BZ WBK"/>
    <tag k="millennium:ref" v="18812"/>
    <tag k="millennium:subtype" v="Euronet"/>
    <tag k="name" v="Bankomat BZ WBK"/>
    <tag k="operator" v="Euronet Sp. z o.o."/>
  </node>
  <node id="937882714" version="2" timestamp="2011-08-16T12:05:52Z" uid="373244" user="Tomaszg" changeset="9035613" lat="52.250078" lon="21.0420185">
    <tag k="addr:city" v="Warszawa"/>
    <tag k="addr:housenumber" v="24"/>
    <tag k="addr:street" v="Targowa"/>
    <tag k="amenity" v="atm"/>
    <tag k="atm_ref" v="1043260"/>
    <tag k="millennium:date" v="2009-05-21 17:13:02"/>
    <tag k="millennium:network" v="BZ WBK"/>
    <tag k="millennium:ref" v="18812"/>
    <tag k="millennium:subtype" v="Euronet"/>
    <tag k="name" v="Bankomat BZ WBK"/>
    <tag k="operator" v="Euronet Sp. z o.o."/>
  </node>
  <node id="937882715" version="1" timestamp="2010-10-04T18:15:09Z" uid="20587" user="balrog-kun" changeset="5956007" lat="51.1210183" lon="24.9537171"/>
  <node id="937882716" version="1" timestamp="2010-10-04T18:15:09Z" uid="20587" user="balrog-kun" changeset="5956007" lat="53.3849629" lon="14.5055954">
    <tag k="addr:city" v="Szczecin"/>
    <tag k="addr:housenumber" v="45"/>
    <tag k="addr:postcode" v="72-001"/>
    <tag k="addr:street" v="Ustowo"/>
    <tag k="amenity" v="atm"/>
    <tag k="atm_ref" v="2268500"/>
    <tag k="millennium:date" v="2009-05-21 17:13:02"/>
    <tag k="millennium:network" v="BZ WBK"/>
    <tag k="millennium:ref" v="19344"/>
    <tag k="millennium:subtype" v="Millennium"/>
    <tag k="name" v="Bankomat BZ WBK"/>
    <tag k="note" v="TODO"/>
    <tag k="opening_hours" v="Mo-Sa 9.00-21.00"/>
    <tag k="operator" v="Bank Millennium S.A."/>
  </node>
  <node id="937882716" version="2" timestamp="2010-11-25T20:08:02Z" uid="168387" user="Petermännchen" changeset="6457229" lat="53.384963" lon="14.5055953">
    <tag k="addr:city" v="Szczecin"/>
    <tag k="addr:housenumber" v="45"/>
    <tag k="addr:postcode" v="72-001"/>
    <tag k="addr:street" v="Ustowo"/>
    <tag k="amenity" v="atm"/>
    <tag k="atm_ref" v="2268500"/>
    <tag k="millennium:date" v="2009-05-21 17:13:02"/>
    <tag k="millennium:network" v="BZ WBK"/>
    <tag k="millennium:ref" v="19344"/>
    <tag k="millennium:subtype" v="Millennium"/>
    <tag k="name" v="Bankomat BZ WBK"/>
    <tag k="note" v="TODO"/>
    <tag k="opening_hours" v="Mo-Sa 9:00-21:00"/>
    <tag k="operator" v="Bank Millennium S.A."/>
  </node>
  <node id="937882717" version="1" timestamp="2010-10-04T18:15:09Z" uid="20587" user="balrog-kun" changeset="5956007" lat="52.2031702" lon="21.0105297">
    <tag k="addr:city" v="Warszawa"/>
    <tag k="addr:housenumber" v="124"/>
    <tag k="addr:street" v="Aleja Niepodległości"/>
    <tag k="amenity" v="atm"/>
    <tag k="atm_ref" v="ML1105A"/>
    <tag k="millennium:date" v="2009-05-21 17:13:02"/>
    <tag k="millennium:network" v="Millennium"/>
    <tag k="millennium:ref" v="18217"/>
    <tag k="millennium:subtype" v="Euronet"/>
    <tag k="name" v="Bankomat Millennium"/>
    <tag k="operator" v="Euronet Sp. z o.o."/>
  </node>
  <node id="937882717" version="2" timestamp="2011-07-14T22:56:55Z" uid="100448" user="kietlak" changeset="8726962" lat="52.2032275" lon="21.0104933">
    <tag k="addr:city" v="Warszawa"/>
    <tag k="amenity" v="atm"/>
    <tag k="atm_ref" v="ML1105A"/>
    <tag k="millennium:date" v="2009-05-21 17:13:02"/>
    <tag k="millennium:network" v="Millennium"/>
    <tag k="millennium:ref" v="18217"/>
    <tag k="millennium:subtype" v="Euronet"/>
    <tag k="name" v="Bankomat Millennium"/>
    <tag k="operator" v="Euronet Sp. z o.o."/>
  </node>
  <node id="937882718" version="1" timestamp="2010-10-04T18:15:10Z" uid="20587" user="balrog-kun" changeset="5956007" lat="52.3037277" lon="21.0575973">
    <tag k="addr:city" v="Warszawa"/>
    <tag k="addr:housenumber" v="15"/>
    <tag k="addr:street" v="Głębocka"/>
    <tag k="amenity" v="bank"/>
    <tag k="millennium:date" v="2009-09-14 14:49:45"/>
    <tag k="millennium:ref" v="20662"/>
    <tag k="millennium:usługi" v="Millennium, Biznes"/>
    <tag k="name" v="Millennium Bank"/>
    <tag k="opening_hours" v="10.00-21.00 Mo-Sa ; 10.00-20.00 Su"/>
  </node>
  <node id="937882719" version="1" timestamp="2010-10-04T18:15:10Z" uid="20587" user="balrog-kun" changeset="5956007" lat="52.204539" lon="20.9981781">
    <tag k="addr:city" v="Warszawa"/>
    <tag k="addr:housenumber" v="2a"/>
    <tag k="addr:street" v="Stanisława Żaryna"/>
    <tag k="amenity" v="atm"/>
    <tag k="atm_ref" v="ML1332A"/>
    <tag k="millennium:date" v="2009-05-21 17:13:02"/>
    <tag k="millennium:network" v="Millennium"/>
    <tag k="millennium:ref" v="18354"/>
    <tag k="millennium:subtype" v="Euronet"/>
    <tag k="name" v="Bankomat Millennium"/>
    <tag k="operator" v="Euronet Sp. z o.o."/>
  </node>
  <node id="937882720" version="1" timestamp="2010-10-04T18:15:10Z" uid="20587" user="balrog-kun" changeset="5956007" lat="52.1572594" lon="21.03176">
    <tag k="addr:city" v="Warszawa"/>
    <tag k="addr:housenumber" v="97"/>
    <tag k="addr:street" v="Komisji Edukacji Narodowej"/>
    <tag k="amenity" v="atm"/>
    <tag k="atm_ref" v="ML1017A"/>
    <tag k="millennium:date" v="2009-05-21 17:13:02"/>
    <tag k="millennium:network" v="Millennium"/>
    <tag k="millennium:ref" v="18201"/>
    <tag k="millennium:subtype" v="Euronet"/>
    <tag k="name" v="Bankomat Millennium"/>
    <tag k="operator" v="Euronet Sp. z o.o."/>
  </node>
  <node id="937882721" version="1" timestamp="2010-10-04T18:15:10Z" uid="20587" user="balrog-kun" changeset="5956007" lat="52.0755381" lon="21.0247102">
    <tag k="addr:city" v="Piaseczno"/>
    <tag k="addr:housenumber" v="10"/>
    <tag k="addr:street" v="Jana Pawła II"/>
    <tag k="amenity" v="bank"/>
    <tag k="millennium:date" v="2009-09-14 14:49:45"/>
    <tag k="millennium:ref" v="20687"/>
    <tag k="millennium:usługi" v="Millennium, Biznes"/>
    <tag k="name" v="Millennium Bank"/>
    <tag k="opening_hours" v="10.00-18.00 Mo-Fr"/>
  </node>
  <node id="937882722" version="1" timestamp="2010-10-04T18:15:10Z" uid="20587" user="balrog-kun" changeset="5956007" lat="52.2081651" lon="21.0083352">
    <tag k="addr:city" v="Warszawa"/>
    <tag k="addr:housenumber" v="162"/>
    <tag k="addr:street" v="Aleja Niepodległości"/>
    <tag k="amenity" v="atm"/>
    <tag k="atm_ref" v="1014518"/>
    <tag k="millennium:date" v="2009-05-21 17:13:02"/>
    <tag k="millennium:network" v="BZ WBK"/>
    <tag k="millennium:ref" v="19138"/>
    <tag k="millennium:subtype" v="Millennium"/>
    <tag k="name" v="Bankomat BZ WBK"/>
    <tag k="opening_hours" v="Mo-Su 07.00-22.00"/>
    <tag k="operator" v="Bank Millennium S.A."/>
  </node>
  <node id="937882722" version="2" timestamp="2011-11-16T09:24:26Z" uid="550476" user="fishcrosser" changeset="9842483" lat="52.2081732" lon="21.0084921">
    <tag k="addr:city" v="Warszawa"/>
    <tag k="addr:housenumber" v="162"/>
    <tag k="addr:street" v="Aleja Niepodległości"/>
    <tag k="amenity" v="atm"/>
    <tag k="atm_ref" v="1014518"/>
    <tag k="millennium:date" v="2009-05-21 17:13:02"/>
    <tag k="millennium:network" v="BZ WBK"/>
    <tag k="millennium:ref" v="19138"/>
    <tag k="millennium:subtype" v="Millennium"/>
    <tag k="name" v="Bankomat BZ WBK"/>
    <tag k="opening_hours" v="Mo-Su 07.00-22.00"/>
    <tag k="operator" v="Bank Millennium S.A."/>
  </node>
  <node id="937882723" version="1" timestamp="2010-10-04T18:15:11Z" uid="20587" user="balrog-kun" changeset="5956007" lat="53.1354599" lon="23.1202768">
    <tag k="addr:city" v="Białystok"/>
    <tag k="addr:housenumber" v="16"/>
    <tag k="addr:street" v="Hetmańska"/>
    <tag k="amenity" v="atm"/>
    <tag k="atm_ref" v="2792607"/>
    <tag k="millennium:date" v="2009-05-21 17:13:02"/>
    <tag k="millennium:network" v="BZ WBK"/>
    <tag k="millennium:ref" v="19369"/>
    <tag k="millennium:subtype" v="Millennium"/>
    <tag k="name" v="Bankomat BZ WBK"/>
    <tag k="opening_hours" v="Mo-Sa 9.00-21.00"/>
    <tag k="operator" v="Bank Millennium S.A."/>
  </node>
  <node id="937882724" version="1" timestamp="2010-10-04T18:15:11Z" uid="20587" user="balrog-kun" changeset="5956007" lat="52.3486451" lon="14.5600987">
    <tag k="addr:city" v="Słubice"/>
    <tag k="addr:housenumber" v="2"/>
    <tag k="addr:street" v="Tadeusza Kościuszki"/>
    <tag k="amenity" v="atm"/>
    <tag k="atm_ref" v="1115000"/>
    <tag k="millennium:date" v="2009-05-21 17:13:02"/>
    <tag k="millennium:network" v="BZ WBK"/>
    <tag k="millennium:ref" v="18643"/>
    <tag k="millennium:subtype" v="Euronet"/>
    <tag k="name" v="Bankomat BZ WBK"/>
    <tag k="operator" v="Euronet Sp. z o.o."/>
  </node>
  <node id="937882724" version="2" timestamp="2010-11-28T18:37:05Z" uid="163437" user="r-michael" changeset="6480915" lat="52.3488119" lon="14.5603035">
    <tag k="addr:city" v="Słubice"/>
    <tag k="addr:housenumber" v="2"/>
    <tag k="addr:street" v="Tadeusza Kościuszki"/>
    <tag k="amenity" v="atm"/>
    <tag k="atm_ref" v="1115000"/>
    <tag k="millennium:date" v="2009-05-21 17:13:02"/>
    <tag k="millennium:network" v="BZ WBK"/>
    <tag k="millennium:ref" v="18643"/>
    <tag k="millennium:subtype" v="Euronet"/>
    <tag k="name" v="Bankomat BZ WBK"/>
    <tag k="operator" v="Euronet Sp. z o.o."/>
  </node>
  <node id="937882725" version="1" timestamp="2010-10-04T18:15:11Z" uid="20587" user="balrog-kun" changeset="5956007" lat="52.3323" lon="20.9492">
    <tag k="addr:city" v="Warszawa"/>
    <tag k="addr:housenumber" v="8d"/>
    <tag k="addr:street" v="Pasłęcka"/>
    <tag k="amenity" v="atm"/>
    <tag k="atm_ref" v="ML1416A"/>
    <tag k="millennium:date" v="2009-05-21 17:13:02"/>
    <tag k="millennium:network" v="Millennium"/>
    <tag k="millennium:ref" v="18219"/>
    <tag k="millennium:subtype" v="Euronet"/>
    <tag k="name" v="Bankomat Millennium"/>
    <tag k="operator" v="Euronet Sp. z o.o."/>
  </node>
  <node id="937882726" version="1" timestamp="2010-10-04T18:15:11Z" uid="20587" user="balrog-kun" changeset="5956007" lat="52.1925701" lon="21.0106307">
    <tag k="addr:city" v="Warszawa"/>
    <tag k="addr:housenumber" v="56"/>
    <tag k="addr:street" v="Antoniego Malczewskiego"/>
    <tag k="amenity" v="atm"/>
    <tag k="atm_ref" v="ML1020A"/>
    <tag k="millennium:date" v="2009-05-21 17:13:02"/>
    <tag k="millennium:network" v="Millennium"/>
    <tag k="millennium:ref" v="18210"/>
    <tag k="millennium:subtype" v="Euronet"/>
    <tag k="name" v="Bankomat Millennium"/>
    <tag k="operator" v="Euronet Sp. z o.o."/>
  </node>
  <node id="937882726" version="2" timestamp="2011-05-17T10:20:31Z" uid="52087" user="kocio" changeset="8169742" lat="52.1926237" lon="21.0105907">
    <tag k="addr:city" v="Warszawa"/>
    <tag k="addr:housenumber" v="56"/>
    <tag k="addr:street" v="Antoniego Malczewskiego"/>
    <tag k="amenity" v="atm"/>
    <tag k="atm_ref" v="ML1020A"/>
    <tag k="millennium:date" v="2009-05-21 17:13:02"/>
    <tag k="millennium:network" v="Millennium"/>
    <tag k="millennium:ref" v="18210"/>
    <tag k="millennium:subtype" v="Euronet"/>
    <tag k="name" v="Bankomat Millennium"/>
    <tag k="operator" v="Euronet Sp. z o.o."/>
  </node>
  <node id="937882727" version="1" timestamp="2010-10-04T18:15:12Z" uid="20587" user="balrog-kun" changeset="5956007" lat="52.2298348" lon="21.0220224">
    <tag k="addr:city" v="Warszawa"/>
    <tag k="addr:housenumber" v="16"/>
    <tag k="addr:street" v="Plac Trzech Krzyży"/>
    <tag k="amenity" v="atm"/>
    <tag k="atm_ref" v="ML1977A"/>
    <tag k="millennium:date" v="2009-05-21 17:13:02"/>
    <tag k="millennium:network" v="Millennium"/>
    <tag k="millennium:ref" v="18351"/>
    <tag k="millennium:subtype" v="Euronet"/>
    <tag k="name" v="Bankomat Millennium"/>
    <tag k="operator" v="Euronet Sp. z o.o."/>
  </node>
  <node id="937882728" version="1" timestamp="2010-10-04T18:15:12Z" uid="20587" user="balrog-kun" changeset="5956007" lat="52.259621" lon="21.0281573">
    <tag k="addr:city" v="Warszawa"/>
    <tag k="addr:housenumber" v="4"/>
    <tag k="addr:street" v="Generała Józefa Hallera"/>
    <tag k="amenity" v="atm"/>
    <tag k="atm_ref" v="ML1025A"/>
    <tag k="millennium:date" v="2009-05-21 17:13:02"/>
    <tag k="millennium:network" v="Millennium"/>
    <tag k="millennium:ref" v="18198"/>
    <tag k="millennium:subtype" v="Euronet"/>
    <tag k="name" v="Bankomat Millennium"/>
    <tag k="operator" v="Euronet Sp. z o.o."/>
  </node>
  <node id="937882729" version="1" timestamp="2010-10-04T18:15:12Z" uid="20587" user="balrog-kun" changeset="5956007" lat="52.2762" lon="20.98">
    <tag k="addr:city" v="Warszawa"/>
    <tag k="addr:housenumber" v="65"/>
    <tag k="addr:street" v="Mickiewicza"/>
    <tag k="amenity" v="atm"/>
    <tag k="atm_ref" v="1030200"/>
    <tag k="millennium:date" v="2009-05-21 17:13:02"/>
    <tag k="millennium:network" v="BZ WBK"/>
    <tag k="millennium:ref" v="18671"/>
    <tag k="millennium:subtype" v="Euronet"/>
    <tag k="name" v="Bankomat BZ WBK"/>
    <tag k="operator" v="Euronet Sp. z o.o."/>
  </node>
  <node id="937882729" version="2" timestamp="2011-12-03T09:14:23Z" uid="441027" user="muzzy" changeset="10022896" lat="52.2762" lon="20.98">
    <tag k="addr:city" v="Warszawa"/>
    <tag k="addr:housenumber" v="65"/>
    <tag k="addr:street" v="Adama Mickiewicza"/>
    <tag k="amenity" v="atm"/>
    <tag k="atm_ref" v="1030200"/>
    <tag k="millennium:date" v="2009-05-21 17:13:02"/>
    <tag k="millennium:network" v="BZ WBK"/>
    <tag k="millennium:ref" v="18671"/>
    <tag k="millennium:subtype" v="Euronet"/>
    <tag k="name" v="Bankomat BZ WBK"/>
    <tag k="operator" v="Euronet Sp. z o.o."/>
  </node>
  <node id="937882730" version="1" timestamp="2010-10-04T18:15:12Z" uid="20587" user="balrog-kun" changeset="5956007" lat="52.177367" lon="21.0017741">
    <tag k="addr:city" v="Warszawa"/>
    <tag k="addr:housenumber" v="53"/>
    <tag k="addr:street" v="Wincentego Rzymowskiego"/>
    <tag k="amenity" v="atm"/>
    <tag k="atm_ref" v="ML1023A"/>
    <tag k="millennium:date" v="2009-05-21 17:13:02"/>
    <tag k="millennium:network" v="Millennium"/>
    <tag k="millennium:ref" v="18224"/>
    <tag k="millennium:subtype" v="Euronet"/>
    <tag k="name" v="Bankomat Millennium"/>
    <tag k="operator" v="Euronet Sp. z o.o."/>
  </node>
  <node id="937882730" version="2" timestamp="2011-03-08T09:34:11Z" uid="37370" user="amateja" changeset="7492369" lat="52.1773439" lon="21.0014725">
    <tag k="addr:city" v="Warszawa"/>
    <tag k="addr:housenumber" v="53"/>
    <tag k="addr:street" v="Wincentego Rzymowskiego"/>
    <tag k="amenity" v="atm"/>
    <tag k="atm_ref" v="ML1023A"/>
    <tag k="millennium:date" v="2009-05-21 17:13:02"/>
    <tag k="millennium:network" v="Millennium"/>
    <tag k="millennium:ref" v="18224"/>
    <tag k="millennium:subtype" v="Euronet"/>
    <tag k="name" v="Bankomat Millennium"/>
    <tag k="operator" v="Euronet Sp. z o.o."/>
  </node>
  <node id="937882730" version="3" timestamp="2011-11-30T22:35:50Z" uid="100448" user="kietlak" changeset="10004029" lat="52.1773439" lon="21.0014725">
    <tag k="addr:city" v="Warszawa"/>
    <tag k="amenity" v="atm"/>
    <tag k="atm_ref" v="ML1023A"/>
    <tag k="millennium:date" v="2009-05-21 17:13:02"/>
    <tag k="millennium:network" v="Millennium"/>
    <tag k="millennium:ref" v="18224"/>
    <tag k="millennium:subtype" v="Euronet"/>
    <tag k="name" v="Bankomat Millennium"/>
    <tag k="operator" v="Euronet Sp. z o.o."/>
  </node>
  <node id="937882731" version="1" timestamp="2010-10-04T18:15:13Z" uid="20587" user="balrog-kun" changeset="5956007" lat="54.1590492" lon="19.3960014"/>
  <node id="937882731" version="2" timestamp="2011-05-29T01:12:18Z" uid="163896" user="Zbigniew Czernik" changeset="8276991" lat="54.1590492" lon="19.3960014"/>
  <node id="937882732" version="1" timestamp="2010-10-04T18:15:13Z" uid="20587" user="balrog-kun" changeset="5956007" lat="52.2279917" lon="21.0047286">
    <tag k="addr:city" v="Warszawa"/>
    <tag k="addr:housenumber" v="67/69"/>
    <tag k="addr:street" v="Aleje Jerozolimskie"/>
    <tag k="amenity" v="atm"/>
    <tag k="atm_ref" v="ML1078A"/>
    <tag k="millennium:date" v="2009-05-21 17:13:02"/>
    <tag k="millennium:network" v="Millennium"/>
    <tag k="millennium:ref" v="18174"/>
    <tag k="millennium:subtype" v="Euronet"/>
    <tag k="name" v="Bankomat Millennium"/>
    <tag k="operator" v="Euronet Sp. z o.o."/>
  </node>
  <node id="937882753" version="1" timestamp="2010-10-04T18:16:07Z" uid="115477" user="wowik" changeset="5955938" lat="54.4092014" lon="20.552878"/>
  <node id="937882754" version="1" timestamp="2010-10-04T18:16:07Z" uid="115477" user="wowik" changeset="5955938" lat="54.4165201" lon="20.6177298"/>
  <node id="937882755" version="1" timestamp="2010-10-04T18:16:07Z" uid="115477" user="wowik" changeset="5955938" lat="54.421783" lon="20.5210779"/>
  <node id="937882757" version="1" timestamp="2010-10-04T18:16:08Z" uid="115477" user="wowik" changeset="5955938" lat="54.409857" lon="20.5987517"/>
  <node id="937882758" version="1" timestamp="2010-10-04T18:16:08Z" uid="115477" user="wowik" changeset="5955938" lat="54.4096222" lon="20.5978044"/>
  <node id="937882758" version="2" timestamp="2011-09-25T07:13:29Z" uid="383137" user="ErshKUS" changeset="9389824" lat="54.4096222" lon="20.5978044"/>
  <node id="937882759" version="1" timestamp="2010-10-04T18:16:08Z" uid="115477" user="wowik" changeset="5955938" lat="54.4172515" lon="20.6348172"/>
  <node id="937882760" version="1" timestamp="2010-10-04T18:16:08Z" uid="115477" user="wowik" changeset="5955938" lat="54.4145529" lon="20.6098742"/>
  <node id="937882761" version="1" timestamp="2010-10-04T18:16:08Z" uid="115477" user="wowik" changeset="5955938" lat="54.3825564" lon="20.6517317"/>
  <node id="937882762" version="1" timestamp="2010-10-04T18:16:08Z" uid="115477" user="wowik" changeset="5955938" lat="54.4169418" lon="20.5026125"/>
  <node id="937882763" version="1" timestamp="2010-10-04T18:16:08Z" uid="115477" user="wowik" changeset="5955938" lat="54.4126297" lon="20.6239927"/>
  <node id="937882764" version="1" timestamp="2010-10-04T18:16:08Z" uid="115477" user="wowik" changeset="5955938" lat="54.3849693" lon="20.6489839"/>
  <node id="937882765" version="1" timestamp="2010-10-04T18:16:08Z" uid="115477" user="wowik" changeset="5955938" lat="54.4154984" lon="20.5358605"/>
  <node id="937882766" version="1" timestamp="2010-10-04T18:16:08Z" uid="115477" user="wowik" changeset="5955938" lat="54.4179765" lon="20.6151618"/>
  <node id="937887383" version="1" timestamp="2010-10-04T18:26:57Z" uid="115477" user="wowik" changeset="5955938" lat="54.4041307" lon="20.4314125"/>
  <node id="937887384" version="1" timestamp="2010-10-04T18:26:57Z" uid="115477" user="wowik" changeset="5955938" lat="54.3848139" lon="20.4811775"/>
  <node id="937887385" version="1" timestamp="2010-10-04T18:26:57Z" uid="115477" user="wowik" changeset="5955938" lat="54.391351" lon="20.4506889"/>
  <node id="937887386" version="1" timestamp="2010-10-04T18:26:57Z" uid="115477" user="wowik" changeset="5955938" lat="54.4054288" lon="20.4317564"/>
  <node id="937887387" version="1" timestamp="2010-10-04T18:26:57Z" uid="115477" user="wowik" changeset="5955938" lat="54.3861674" lon="20.4658421"/>
  <node id="937887388" version="1" timestamp="2010-10-04T18:26:57Z" uid="115477" user="wowik" changeset="5955938" lat="54.3997733" lon="20.4275277"/>
  <node id="937887388" version="2" timestamp="2010-10-05T15:45:46Z" uid="115477" user="wowik" changeset="5961937" lat="54.3999103" lon="20.4277377"/>
  <node id="937887389" version="1" timestamp="2010-10-04T18:26:57Z" uid="115477" user="wowik" changeset="5955938" lat="54.4054126" lon="20.4323112"/>
  <node id="937887390" version="1" timestamp="2010-10-04T18:26:57Z" uid="115477" user="wowik" changeset="5955938" lat="54.3709957" lon="20.6223451"/>
  <node id="937887392" version="1" timestamp="2010-10-04T18:26:57Z" uid="115477" user="wowik" changeset="5955938" lat="54.3991426" lon="20.4265696"/>
  <node id="937887392" version="2" timestamp="2010-10-05T15:45:43Z" uid="115477" user="wowik" changeset="5961937" lat="54.3991067" lon="20.4265407"/>
  <node id="937887393" version="1" timestamp="2010-10-04T18:26:57Z" uid="115477" user="wowik" changeset="5955938" lat="54.4068413" lon="20.4345109"/>
  <node id="937887395" version="1" timestamp="2010-10-04T18:26:57Z" uid="115477" user="wowik" changeset="5955938" lat="54.387482" lon="20.4550342"/>
  <node id="937887396" version="1" timestamp="2010-10-04T18:26:57Z" uid="115477" user="wowik" changeset="5955938" lat="54.4002925" lon="20.4281525"/>
  <node id="937887396" version="2" timestamp="2010-10-05T15:45:46Z" uid="115477" user="wowik" changeset="5961937" lat="54.4003536" lon="20.4282683"/>
  <node id="937887398" version="1" timestamp="2010-10-04T18:26:57Z" uid="115477" user="wowik" changeset="5955938" lat="54.4079212" lon="20.4267907"/>
  <node id="937887401" version="1" timestamp="2010-10-04T18:26:57Z" uid="115477" user="wowik" changeset="5955938" lat="54.3830984" lon="20.4977861"/>
  <node id="937887892" version="1" timestamp="2010-10-04T18:30:38Z" uid="115477" user="wowik" changeset="5956114" lat="54.3780154" lon="20.6196771"/>
  <node id="937887892" version="2" timestamp="2011-09-25T16:09:00Z" uid="383137" user="ErshKUS" changeset="9393968" lat="54.3780154" lon="20.6196771"/>
  <node id="937887893" version="1" timestamp="2010-10-04T18:30:38Z" uid="115477" user="wowik" changeset="5956114" lat="54.3825663" lon="20.6317614"/>
  <node id="937887893" version="2" timestamp="2011-09-25T16:09:00Z" uid="383137" user="ErshKUS" changeset="9393968" lat="54.3825663" lon="20.6317614"/>
  <node id="937887894" version="1" timestamp="2010-10-04T18:30:38Z" uid="115477" user="wowik" changeset="5956114" lat="54.3847171" lon="20.6345712"/>
  <node id="937887894" version="2" timestamp="2011-09-25T16:09:00Z" uid="383137" user="ErshKUS" changeset="9393968" lat="54.3847171" lon="20.6345712"/>
  <node id="937887895" version="1" timestamp="2010-10-04T18:30:38Z" uid="115477" user="wowik" changeset="5956114" lat="54.3805608" lon="20.6272275"/>
  <node id="937887895" version="2" timestamp="2011-09-25T16:09:00Z" uid="383137" user="ErshKUS" changeset="9393968" lat="54.3805608" lon="20.6272275"/>
  <node id="937887896" version="1" timestamp="2010-10-04T18:30:38Z" uid="115477" user="wowik" changeset="5956114" lat="54.3742596" lon="20.6099072"/>
  <node id="937887896" version="2" timestamp="2011-09-25T16:09:00Z" uid="383137" user="ErshKUS" changeset="9393968" lat="54.3742596" lon="20.6099072"/>
  <node id="937887897" version="1" timestamp="2010-10-04T18:30:38Z" uid="115477" user="wowik" changeset="5956114" lat="54.375128" lon="20.6118402"/>
  <node id="937887897" version="2" timestamp="2011-09-25T16:09:00Z" uid="383137" user="ErshKUS" changeset="9393968" lat="54.375128" lon="20.6118402"/>
  <node id="937887898" version="1" timestamp="2010-10-04T18:30:38Z" uid="115477" user="wowik" changeset="5956114" lat="54.3752642" lon="20.6122513"/>
  <node id="937887898" version="2" timestamp="2011-09-25T16:09:00Z" uid="383137" user="ErshKUS" changeset="9393968" lat="54.3752642" lon="20.6122513"/>
  <node id="937887899" version="1" timestamp="2010-10-04T18:30:38Z" uid="115477" user="wowik" changeset="5956114" lat="54.381632" lon="20.6298171"/>
  <node id="937887899" version="2" timestamp="2011-09-25T16:09:00Z" uid="383137" user="ErshKUS" changeset="9393968" lat="54.381632" lon="20.6298171"/>
  <node id="937887900" version="1" timestamp="2010-10-04T18:30:38Z" uid="115477" user="wowik" changeset="5956114" lat="54.3810249" lon="20.628492"/>
  <node id="937887900" version="2" timestamp="2011-09-25T16:09:00Z" uid="383137" user="ErshKUS" changeset="9393968" lat="54.3810249" lon="20.628492"/>
  <node id="937887901" version="1" timestamp="2010-10-04T18:30:38Z" uid="115477" user="wowik" changeset="5956114" lat="54.3853194" lon="20.6358104"/>
  <node id="937887901" version="2" timestamp="2010-10-04T18:38:10Z" uid="115477" user="wowik" changeset="5956114" lat="54.3853291" lon="20.635766"/>
  <node id="937887901" version="3" timestamp="2011-09-25T16:09:00Z" uid="383137" user="ErshKUS" changeset="9393968" lat="54.3853291" lon="20.635766"/>
  <node id="937887902" version="1" timestamp="2010-10-04T18:30:38Z" uid="115477" user="wowik" changeset="5956114" lat="54.3841084" lon="20.633424"/>
  <node id="937887902" version="2" timestamp="2011-09-25T16:09:00Z" uid="383137" user="ErshKUS" changeset="9393968" lat="54.3841084" lon="20.633424"/>
  <node id="937887903" version="1" timestamp="2010-10-04T18:30:39Z" uid="115477" user="wowik" changeset="5956114" lat="54.3851617" lon="20.6352517"/>
  <node id="937887903" version="2" timestamp="2010-10-04T18:38:11Z" uid="115477" user="wowik" changeset="5956114" lat="54.3852069" lon="20.6352794"/>
  <node id="937887903" version="3" timestamp="2011-09-25T16:09:00Z" uid="383137" user="ErshKUS" changeset="9393968" lat="54.3852069" lon="20.6352794"/>
  <node id="937882681" version="2" timestamp="2012-06-20T22:48:33Z" uid="247879" user="victorenator" changeset="11963993" lat="52.3030764" lon="21.0571494">
    <tag k="addr:city" v="Warszawa"/>
    <tag k="addr:housenumber" v="15"/>
    <tag k="addr:street" v="Głębocka"/>
    <tag k="amenity" v="atm"/>
    <tag k="atm_ref" v="1014548"/>
    <tag k="millennium:date" v="2009-05-21 17:13:02"/>
    <tag k="millennium:network" v="BZ WBK"/>
    <tag k="millennium:ref" v="19430"/>
    <tag k="millennium:subtype" v="Millennium"/>
    <tag k="name" v="Bankomat BZ WBK"/>
    <tag k="opening_hours" v="Mo-Sa 10:00-21:00"/>
    <tag k="operator" v="Bank Millennium S.A."/>
  </node>
  <node id="937882682" version="2" timestamp="2012-06-17T11:42:53Z" uid="441027" user="muzzy" changeset="11924662" lat="52.2328881" lon="20.9992526">
    <tag k="addr:city" v="Warszawa"/>
    <tag k="addr:housenumber" v="1"/>
    <tag k="addr:street" v="Rondo ONZ"/>
    <tag k="amenity" v="atm"/>
    <tag k="atm_ref" v="ML1852A"/>
    <tag k="millennium:date" v="2009-05-21 17:13:02"/>
    <tag k="millennium:network" v="Millennium"/>
    <tag k="millennium:ref" v="18223"/>
    <tag k="millennium:subtype" v="Euronet"/>
    <tag k="name" v="Bankomat Millennium"/>
    <tag k="operator" v="Euronet Sp. z o.o."/>
  </node>
  <node id="937882693" version="3" timestamp="2012-09-06T19:50:30Z" uid="842685" user="ancymon" changeset="13014772" lat="52.0955783" lon="21.1168191">
    <tag k="addr:city" v="Konstancin"/>
    <tag k="addr:housenumber" v="29"/>
    <tag k="addr:street" v="Warszawska"/>
    <tag k="amenity" v="atm"/>
    <tag k="atm_ref" v="ML1181A"/>
    <tag k="millennium:date" v="2009-05-21 17:13:02"/>
    <tag k="millennium:network" v="Millennium"/>
    <tag k="millennium:ref" v="18022"/>
    <tag k="millennium:subtype" v="Euronet"/>
    <tag k="name" v="Bankomat Millennium"/>
    <tag k="operator" v="Euronet Sp. z o.o."/>
  </node>
  <node id="937882706" version="4" timestamp="2012-06-07T19:02:07Z" uid="569550" user="DuoBelt" changeset="11827939" lat="52.2500756" lon="21.042953">
    <tag k="addr:city" v="Warszawa"/>
    <tag k="addr:housenumber" v="1"/>
    <tag k="addr:street" v="Kijowska"/>
    <tag k="amenity" v="atm"/>
    <tag k="atm_ref" v="ML1405A"/>
    <tag k="millennium:date" v="2009-05-21 17:13:02"/>
    <tag k="millennium:network" v="Millennium"/>
    <tag k="millennium:ref" v="18203"/>
    <tag k="millennium:subtype" v="Euronet"/>
    <tag k="name" v="Bankomat Millennium"/>
    <tag k="operator" v="Euronet Sp. z o.o."/>
  </node>
  <node id="937882714" version="3" timestamp="2012-06-07T18:57:02Z" uid="569550" user="DuoBelt" changeset="11827939" lat="52.250078" lon="21.0420185">
    <tag k="addr:city" v="Warszawa"/>
    <tag k="addr:housenumber" v="24"/>
    <tag k="addr:street" v="Targowa"/>
    <tag k="amenity" v="atm"/>
    <tag k="atm_ref" v="1043260"/>
    <tag k="millennium:date" v="2009-05-21 17:13:02"/>
    <tag k="millennium:network" v="BZ WBK"/>
    <tag k="millennium:ref" v="18812"/>
    <tag k="millennium:subtype" v="Euronet"/>
    <tag k="name" v="Bankomat BZ WBK"/>
    <tag k="operator" v="WBK Bank Zachodni"/>
  </node>
  <node id="937882717" version="3" timestamp="2012-09-06T19:50:30Z" uid="842685" user="ancymon" changeset="13014772" lat="52.2032275" lon="21.0104933">
    <tag k="addr:city" v="Warszawa"/>
    <tag k="addr:housenumber" v="124"/>
    <tag k="addr:street" v="Aleja Niepodległości"/>
    <tag k="amenity" v="atm"/>
    <tag k="atm_ref" v="ML1105A"/>
    <tag k="millennium:date" v="2009-05-21 17:13:02"/>
    <tag k="millennium:network" v="Millennium"/>
    <tag k="millennium:ref" v="18217"/>
    <tag k="millennium:subtype" v="Euronet"/>
    <tag k="name" v="Bankomat Millennium"/>
    <tag k="operator" v="Euronet Sp. z o.o."/>
  </node>
  <node id="937882718" version="2" timestamp="2012-06-20T22:48:39Z" uid="247879" user="victorenator" changeset="11963993" lat="52.3037277" lon="21.0575973">
    <tag k="addr:city" v="Warszawa"/>
    <tag k="addr:housenumber" v="15"/>
    <tag k="addr:street" v="Głębocka"/>
    <tag k="amenity" v="bank"/>
    <tag k="millennium:date" v="2009-09-14 14:49:45"/>
    <tag k="millennium:ref" v="20662"/>
    <tag k="millennium:usługi" v="Millennium, Biznes"/>
    <tag k="name" v="Millennium Bank"/>
    <tag k="opening_hours" v="Mo-Sa 10:00-21:00; Su 10:00-20:00"/>
  </node>
  <node id="937882723" version="2" timestamp="2012-06-20T22:48:34Z" uid="247879" user="victorenator" changeset="11963993" lat="53.1354599" lon="23.1202768">
    <tag k="addr:city" v="Białystok"/>
    <tag k="addr:housenumber" v="16"/>
    <tag k="addr:street" v="Hetmańska"/>
    <tag k="amenity" v="atm"/>
    <tag k="atm_ref" v="2792607"/>
    <tag k="millennium:date" v="2009-05-21 17:13:02"/>
    <tag k="millennium:network" v="BZ WBK"/>
    <tag k="millennium:ref" v="19369"/>
    <tag k="millennium:subtype" v="Millennium"/>
    <tag k="name" v="Bankomat BZ WBK"/>
    <tag k="opening_hours" v="Mo-Sa 9:00-21:00"/>
    <tag k="operator" v="Bank Millennium S.A."/>
  </node>
  <node id="937882724" version="3" timestamp="2012-08-16T12:17:03Z" uid="163437" user="r-michael" changeset="12749992" lat="52.3488119" lon="14.5603035"/>
  <node id="937882727" version="2" timestamp="2012-06-04T11:15:50Z" uid="99386" user="masti" changeset="11795449" lat="52.2299123" lon="21.0219907">
    <tag k="addr:city" v="Warszawa"/>
    <tag k="addr:housenumber" v="16"/>
    <tag k="addr:street" v="Plac Trzech Krzyży"/>
    <tag k="amenity" v="atm"/>
    <tag k="atm_ref" v="ML1977A"/>
    <tag k="millennium:date" v="2009-05-21 17:13:02"/>
    <tag k="millennium:network" v="Millennium"/>
    <tag k="millennium:ref" v="18351"/>
    <tag k="millennium:subtype" v="Euronet"/>
    <tag k="name" v="Bankomat Millennium"/>
    <tag k="operator" v="Euronet Sp. z o.o."/>
  </node>
  <node id="937882730" version="4" timestamp="2012-09-06T19:50:30Z" uid="842685" user="ancymon" changeset="13014772" lat="52.1773439" lon="21.0014725">
    <tag k="addr:city" v="Warszawa"/>
    <tag k="addr:housenumber" v="53"/>
    <tag k="addr:street" v="Wincentego Rzymowskiego"/>
    <tag k="amenity" v="atm"/>
    <tag k="atm_ref" v="ML1023A"/>
    <tag k="millennium:date" v="2009-05-21 17:13:02"/>
    <tag k="millennium:network" v="Millennium"/>
    <tag k="millennium:ref" v="18224"/>
    <tag k="millennium:subtype" v="Euronet"/>
    <tag k="name" v="Bankomat Millennium"/>
    <tag k="operator" v="Euronet Sp. z o.o."/>
  </node>
  <node id="937882753" version="2" timestamp="2012-07-24T19:09:48Z" uid="722137" user="OSMF Redaction Account" changeset="12474202" lat="54.4092014" lon="20.552878"/>
  <node id="937882754" version="2" timestamp="2012-07-24T19:08:12Z" uid="722137" user="OSMF Redaction Account" changeset="12474165" lat="54.4165201" lon="20.6177298"/>
  <node id="937882755" version="2" timestamp="2012-07-24T19:10:00Z" uid="722137" user="OSMF Redaction Account" changeset="12474202" lat="54.421783" lon="20.5210779"/>
  <node id="937882757" version="2" timestamp="2012-07-24T19:08:11Z" uid="722137" user="OSMF Redaction Account" changeset="12474165" lat="54.409857" lon="20.5987517"/>
  <node id="937882759" version="2" timestamp="2012-07-24T19:02:18Z" uid="722137" user="OSMF Redaction Account" changeset="12474019" lat="54.4172515" lon="20.6348172"/>
  <node id="937882760" version="2" timestamp="2012-07-24T19:08:12Z" uid="722137" user="OSMF Redaction Account" changeset="12474165" lat="54.4145529" lon="20.6098742"/>
  <node id="937882761" version="2" timestamp="2012-07-24T19:02:12Z" uid="722137" user="OSMF Redaction Account" changeset="12474019" lat="54.3825564" lon="20.6517317"/>
  <node id="937882762" version="2" timestamp="2012-07-24T19:09:56Z" uid="722137" user="OSMF Redaction Account" changeset="12474202" lat="54.4169418" lon="20.5026125"/>
  <node id="937882763" version="2" timestamp="2012-07-24T19:08:11Z" uid="722137" user="OSMF Redaction Account" changeset="12474165" lat="54.4126297" lon="20.6239927"/>
  <node id="937882764" version="2" timestamp="2012-07-24T19:02:13Z" uid="722137" user="OSMF Redaction Account" changeset="12474019" lat="54.3849693" lon="20.6489839"/>
  <node id="937882765" version="2" timestamp="2012-07-24T19:09:54Z" uid="722137" user="OSMF Redaction Account" changeset="12474202" lat="54.4154984" lon="20.5358605"/>
  <node id="937882766" version="2" timestamp="2012-07-24T19:08:13Z" uid="722137" user="OSMF Redaction Account" changeset="12474165" lat="54.4179765" lon="20.6151618"/>
  <node id="937887383" version="2" timestamp="2012-07-24T20:15:32Z" uid="722137" user="OSMF Redaction Account" changeset="12475535" lat="54.4041307" lon="20.4314125"/>
  <node id="937887384" version="2" timestamp="2012-05-06T20:30:56Z" uid="446741" user="navmaps_eu" changeset="11523033" lat="54.3848139" lon="20.4811775"/>
  <node id="937887385" version="2" timestamp="2012-07-24T20:14:37Z" uid="722137" user="OSMF Redaction Account" changeset="12475518" lat="54.391351" lon="20.4506889"/>
  <node id="937887386" version="2" timestamp="2012-07-24T20:15:32Z" uid="722137" user="OSMF Redaction Account" changeset="12475535" lat="54.4054288" lon="20.4317564"/>
  <node id="937887387" version="2" timestamp="2012-05-06T20:30:56Z" uid="446741" user="navmaps_eu" changeset="11523033" lat="54.3861674" lon="20.4658421"/>
  <node id="937887388" version="3" timestamp="2012-07-24T20:15:32Z" uid="722137" user="OSMF Redaction Account" changeset="12475535" lat="54.3999103" lon="20.4277377"/>
  <node id="937887389" version="2" timestamp="2012-07-24T20:15:32Z" uid="722137" user="OSMF Redaction Account" changeset="12475535" lat="54.4054126" lon="20.4323112"/>
  <node id="937887390" version="2" timestamp="2012-05-06T20:30:56Z" uid="446741" user="navmaps_eu" changeset="11523033" lat="54.3709957" lon="20.6223451"/>
  <node id="937887392" version="3" timestamp="2012-07-24T20:15:32Z" uid="722137" user="OSMF Redaction Account" changeset="12475535" lat="54.3991067" lon="20.4265407"/>
  <node id="937887393" version="2" timestamp="2012-07-24T20:15:33Z" uid="722137" user="OSMF Redaction Account" changeset="12475535" lat="54.4068413" lon="20.4345109"/>
  <node id="937887395" version="2" timestamp="2012-07-24T20:14:36Z" uid="722137" user="OSMF Redaction Account" changeset="12475518" lat="54.387482" lon="20.4550342"/>
  <node id="937887396" version="3" timestamp="2012-07-24T20:15:32Z" uid="722137" user="OSMF Redaction Account" changeset="12475535" lat="54.4003536" lon="20.4282683"/>
  <node id="937887398" version="2" timestamp="2012-07-24T20:15:33Z" uid="722137" user="OSMF Redaction Account" changeset="12475535" lat="54.4079212" lon="20.4267907"/>
  <node id="937887401" version="2" timestamp="2012-05-06T20:30:56Z" uid="446741" user="navmaps_eu" changeset="11523033" lat="54.3830984" lon="20.4977861"/>
</osm>
