<?xml version='1.0' encoding='UTF-8'?>
<osm version="0.6" generator="libosmium/2.20.0">
  <node id="938161819" version="2" timestamp="2011-01-06T14:26:13Z" uid="4467" user="Rosscoe" changeset="6882936" lat="-38.1819132" lon="144.3446918">
    <tag k="amenity" v="doctors"/>
    <tag k="name" v="South Barwon Medical Centre"/>
  </node>
  <node id="938166414" version="1" timestamp="2010-10-05T01:32:57Z" uid="20587" user="balrog-kun" changeset="5958352" lat="52.4085684" lon="16.9270458">
    <tag k="addr:city" v="Poznań"/>
    <tag k="addr:housenumber" v="16"/>
    <tag k="addr:street" v="Plac Wolności"/>
    <tag k="amenity" v="atm"/>
    <tag k="atm_ref" v="1463000"/>
    <tag k="millennium:date" v="2009-05-21 17:13:02"/>
    <tag k="millennium:network" v="BZ WBK"/>
    <tag k="millennium:ref" v="18712"/>
    <tag k="millennium:subtype" v="Euronet"/>
    <tag k="name" v="Bankomat BZ WBK"/>
    <tag k="operator" v="Euronet Sp. z o.o."/>
  </node>
  <node id="938166415" version="1" timestamp="2010-10-05T01:32:57Z" uid="20587" user="balrog-kun" changeset="5958352" lat="50.0194996" lon="22.0135759">
    <tag k="addr:city" v="Rzeszów"/>
    <tag k="addr:housenumber" v="13"/>
    <tag k="addr:street" v="Aleja Powstańców Warszawy"/>
    <tag k="amenity" v="atm"/>
    <tag k="atm_ref" v="9952"/>
    <tag k="millennium:date" v="2009-05-21 17:13:02"/>
    <tag k="millennium:network" v="Cash4You"/>
    <tag k="millennium:ref" v="19887"/>
    <tag k="millennium:subtype" v="Millennium"/>
    <tag k="name" v="Bankomat Cash4You"/>
    <tag k="operator" v="Bank Millennium S.A."/>
  </node>
  <node id="938166416" version="1" timestamp="2010-10-05T01:32:57Z" uid="20587" user="balrog-kun" changeset="5958352" lat="49.7825251" lon="22.7733815">
    <tag k="addr:city" v="Przemyśl"/>
    <tag k="addr:housenumber" v="1"/>
    <tag k="addr:street" v="Władycze"/>
    <tag k="amenity" v="bank"/>
    <tag k="millennium:date" v="2009-09-14 14:49:45"/>
    <tag k="millennium:ref" v="20555"/>
    <tag k="millennium:usługi" v="Millennium"/>
    <tag k="name" v="Millennium Bank"/>
    <tag k="opening_hours" v="09.00-17.00 Mo-Fr"/>
  </node>
  <node id="938166417" version="1" timestamp="2010-10-05T01:32:57Z" uid="20587" user="balrog-kun" changeset="5958352" lat="50.3465268" lon="18.9249476">
    <tag k="addr:city" v="Bytom"/>
    <tag k="addr:housenumber" v="1"/>
    <tag k="addr:street" v="Krakowska"/>
    <tag k="amenity" v="atm"/>
    <tag k="atm_ref" v="1779000"/>
    <tag k="millennium:date" v="2009-05-21 17:13:02"/>
    <tag k="millennium:network" v="BZ WBK"/>
    <tag k="millennium:ref" v="18900"/>
    <tag k="millennium:subtype" v="Euronet"/>
    <tag k="name" v="Bankomat BZ WBK"/>
    <tag k="operator" v="Euronet Sp. z o.o."/>
  </node>
  <node id="938166418" version="1" timestamp="2010-10-05T01:32:58Z" uid="20587" user="balrog-kun" changeset="5958352" lat="51.5304484" lon="20.0060452">
    <tag k="addr:city" v="Tomaszów Mazowiecki"/>
    <tag k="addr:housenumber" v="10"/>
    <tag k="addr:street" v="Plac Tadeusza Kościuszki"/>
    <tag k="amenity" v="atm"/>
    <tag k="atm_ref" v="ML7515A"/>
    <tag k="millennium:date" v="2009-05-21 17:13:02"/>
    <tag k="millennium:network" v="Millennium"/>
    <tag k="millennium:ref" v="18162"/>
    <tag k="millennium:subtype" v="Euronet"/>
    <tag k="name" v="Bankomat Millennium"/>
    <tag k="operator" v="Euronet Sp. z o.o."/>
  </node>
  <node id="938166419" version="1" timestamp="2010-10-05T01:32:58Z" uid="20587" user="balrog-kun" changeset="5958352" lat="51.7414543" lon="19.5623977">
    <tag k="addr:city" v="Łódź"/>
    <tag k="addr:housenumber" v="45"/>
    <tag k="addr:street" v="Zakładowa"/>
    <tag k="amenity" v="atm"/>
    <tag k="atm_ref" v="MBPL525A"/>
    <tag k="millennium:date" v="2009-05-21 17:13:02"/>
    <tag k="millennium:network" v="Millennium"/>
    <tag k="millennium:ref" v="18440"/>
    <tag k="millennium:subtype" v="Euronet"/>
    <tag k="name" v="Bankomat Millennium"/>
    <tag k="operator" v="Euronet Sp. z o.o."/>
  </node>
  <node id="938166420" version="1" timestamp="2010-10-05T01:32:58Z" uid="20587" user="balrog-kun" changeset="5958352" lat="51.418" lon="21.965">
    <tag k="addr:city" v="Puławy"/>
    <tag k="addr:housenumber" v="10"/>
    <tag k="addr:street" v="Centralna"/>
    <tag k="amenity" v="bank"/>
    <tag k="millennium:date" v="2009-09-14 14:49:45"/>
    <tag k="millennium:ref" v="20632"/>
    <tag k="millennium:usługi" v="Millennium"/>
    <tag k="name" v="Millennium Bank"/>
    <tag k="opening_hours" v="09.00-18.00 Mo-Fr"/>
  </node>
  <node id="938166421" version="1" timestamp="2010-10-05T01:32:58Z" uid="20587" user="balrog-kun" changeset="5958352" lat="50.0118169" lon="20.9809851"/>
  <node id="938166422" version="1" timestamp="2010-10-05T01:32:58Z" uid="20587" user="balrog-kun" changeset="5958352" lat="51.0592696" lon="17.0074107">
    <tag k="addr:city" v="Wrocław"/>
    <tag k="addr:housenumber" v="92d/7"/>
    <tag k="addr:street" v="Ołtaszyńska"/>
    <tag k="amenity" v="atm"/>
    <tag k="atm_ref" v="2486200"/>
    <tag k="millennium:date" v="2009-05-21 17:13:02"/>
    <tag k="millennium:network" v="BZ WBK"/>
    <tag k="millennium:ref" v="19383"/>
    <tag k="millennium:subtype" v="Euronet"/>
    <tag k="name" v="Bankomat BZ WBK"/>
    <tag k="operator" v="Euronet Sp. z o.o."/>
  </node>
  <node id="938166423" version="1" timestamp="2010-10-05T01:32:58Z" uid="20587" user="balrog-kun" changeset="5958352" lat="50.0180534" lon="21.0030001">
    <tag k="addr:city" v="Tarnów"/>
    <tag k="addr:housenumber" v="6"/>
    <tag k="addr:street" v="Bitwy o Wał Pomorski"/>
    <tag k="amenity" v="atm"/>
    <tag k="atm_ref" v="1838000"/>
    <tag k="millennium:date" v="2009-05-21 17:13:02"/>
    <tag k="millennium:network" v="BZ WBK"/>
    <tag k="millennium:ref" v="18734"/>
    <tag k="millennium:subtype" v="Euronet"/>
    <tag k="name" v="Bankomat BZ WBK"/>
    <tag k="operator" v="Euronet Sp. z o.o."/>
  </node>
  <node id="938166424" version="1" timestamp="2010-10-05T01:32:59Z" uid="20587" user="balrog-kun" changeset="5958352" lat="52.4126497" lon="16.9040226"/>
  <node id="938166424" version="2" timestamp="2011-02-18T23:21:16Z" uid="88909" user="miko101" changeset="7327618" lat="52.4126497" lon="16.9040226"/>
  <node id="938166425" version="1" timestamp="2010-10-05T01:32:59Z" uid="20587" user="balrog-kun" changeset="5958352" lat="51.1468179" lon="17.113581">
    <tag k="addr:city" v="Wrocław"/>
    <tag k="addr:housenumber" v="322"/>
    <tag k="addr:street" v="Bolesława Krzywoustego"/>
    <tag k="amenity" v="atm"/>
    <tag k="atm_ref" v="MBPL547A"/>
    <tag k="millennium:date" v="2009-05-21 17:13:02"/>
    <tag k="millennium:network" v="Millennium"/>
    <tag k="millennium:ref" v="18444"/>
    <tag k="millennium:subtype" v="Euronet"/>
    <tag k="name" v="Bankomat Millennium"/>
    <tag k="operator" v="Euronet Sp. z o.o."/>
  </node>
  <node id="938166426" version="1" timestamp="2010-10-05T01:32:59Z" uid="20587" user="balrog-kun" changeset="5958352" lat="51.120451" lon="17.0779351">
    <tag k="addr:city" v="Wrocław"/>
    <tag k="addr:housenumber" v="33"/>
    <tag k="addr:street" v="Aleja Jana Kochanowskiego"/>
    <tag k="amenity" v="atm"/>
    <tag k="atm_ref" v="1522240"/>
    <tag k="millennium:date" v="2009-05-21 17:13:02"/>
    <tag k="millennium:network" v="BZ WBK"/>
    <tag k="millennium:ref" v="18811"/>
    <tag k="millennium:subtype" v="Euronet"/>
    <tag k="name" v="Bankomat BZ WBK"/>
    <tag k="operator" v="Euronet Sp. z o.o."/>
  </node>
  <node id="938166427" version="1" timestamp="2010-10-05T01:32:59Z" uid="20587" user="balrog-kun" changeset="5958352" lat="50.0410987" lon="22.002754">
    <tag k="addr:city" v="Rzeszów"/>
    <tag k="addr:housenumber" v="34"/>
    <tag k="addr:street" v="Grunwaldzka"/>
    <tag k="amenity" v="atm"/>
    <tag k="atm_ref" v="ML8169A"/>
    <tag k="millennium:date" v="2009-05-21 17:13:02"/>
    <tag k="millennium:network" v="Millennium"/>
    <tag k="millennium:ref" v="18122"/>
    <tag k="millennium:subtype" v="Euronet"/>
    <tag k="name" v="Bankomat Millennium"/>
    <tag k="operator" v="Euronet Sp. z o.o."/>
  </node>
  <node id="938166428" version="1" timestamp="2010-10-05T01:32:59Z" uid="20587" user="balrog-kun" changeset="5958352" lat="51.2471991" lon="22.5619127">
    <tag k="addr:city" v="Lublin"/>
    <tag k="addr:housenumber" v="4"/>
    <tag k="addr:street" v="Kapucyńska"/>
    <tag k="amenity" v="atm"/>
    <tag k="atm_ref" v="ML8561A"/>
    <tag k="millennium:date" v="2009-05-21 17:13:02"/>
    <tag k="millennium:network" v="Millennium"/>
    <tag k="millennium:ref" v="18044"/>
    <tag k="millennium:subtype" v="Euronet"/>
    <tag k="name" v="Bankomat Millennium"/>
    <tag k="operator" v="Euronet Sp. z o.o."/>
  </node>
  <node id="938166429" version="1" timestamp="2010-10-05T01:33:00Z" uid="20587" user="balrog-kun" changeset="5958352" lat="52.4072535" lon="16.9207096">
    <tag k="addr:city" v="Poznań"/>
    <tag k="addr:housenumber" v="66/72"/>
    <tag k="addr:street" v="Święty Marcin"/>
    <tag k="amenity" v="atm"/>
    <tag k="atm_ref" v="1447000"/>
    <tag k="millennium:date" v="2009-05-21 17:13:02"/>
    <tag k="millennium:network" v="BZ WBK"/>
    <tag k="millennium:ref" v="18731"/>
    <tag k="millennium:subtype" v="Euronet"/>
    <tag k="name" v="Bankomat BZ WBK"/>
    <tag k="operator" v="Euronet Sp. z o.o."/>
  </node>
  <node id="938166430" version="1" timestamp="2010-10-05T01:33:00Z" uid="20587" user="balrog-kun" changeset="5958352" lat="51.1468536" lon="17.113517">
    <tag k="addr:city" v="Wrocław"/>
    <tag k="addr:housenumber" v="322"/>
    <tag k="addr:street" v="Bolesława Krzywoustego"/>
    <tag k="amenity" v="bank"/>
    <tag k="millennium:date" v="2009-09-14 14:49:45"/>
    <tag k="millennium:ref" v="20772"/>
    <tag k="millennium:usługi" v="Millennium"/>
    <tag k="name" v="Millennium Bank"/>
    <tag k="opening_hours" v="09.00-17.00 Mo-Fr"/>
  </node>
  <node id="938166431" version="1" timestamp="2010-10-05T01:33:00Z" uid="20587" user="balrog-kun" changeset="5958352" lat="50.1689854" lon="18.9047596">
    <tag k="addr:city" v="Mikołów"/>
    <tag k="addr:housenumber" v="6"/>
    <tag k="addr:street" v="Rynek"/>
    <tag k="amenity" v="atm"/>
    <tag k="atm_ref" v="ML2051A"/>
    <tag k="millennium:date" v="2009-05-21 17:13:02"/>
    <tag k="millennium:network" v="Millennium"/>
    <tag k="millennium:ref" v="18062"/>
    <tag k="millennium:subtype" v="Euronet"/>
    <tag k="name" v="Bankomat Millennium"/>
    <tag k="operator" v="Euronet Sp. z o.o."/>
  </node>
  <node id="938166431" version="2" timestamp="2012-02-26T12:28:54Z" uid="94017" user="AdiS" changeset="10797261" lat="50.1689854" lon="18.9047596"/>
  <node id="938166432" version="1" timestamp="2010-10-05T01:33:00Z" uid="20587" user="balrog-kun" changeset="5958352" lat="52.4118893" lon="16.9038272">
    <tag k="addr:city" v="Poznań"/>
    <tag k="addr:housenumber" v="1"/>
    <tag k="addr:street" v="Rynek Jeżycki"/>
    <tag k="millennium:date" v="2010-05-19 15:11:30"/>
    <tag k="millennium:ref" v="20910"/>
    <tag k="millennium:usługi" v="Millennium"/>
    <tag k="name" v="Millennium Bank"/>
    <tag k="note:pl" v="Obiekt nieczynny"/>
    <tag k="old_amenity" v="bank"/>
    <tag k="opening_hours" v="09.00-17.00 Mo-Fr rn"/>
  </node>
  <node id="938166433" version="1" timestamp="2010-10-05T01:33:00Z" uid="20587" user="balrog-kun" changeset="5958352" lat="50.8739304" lon="20.6198409">
    <tag k="addr:city" v="Kielce"/>
    <tag k="addr:housenumber" v="78"/>
    <tag k="addr:street" v="Henryka Sienkiewicza"/>
    <tag k="amenity" v="atm"/>
    <tag k="atm_ref" v="2040230"/>
    <tag k="millennium:date" v="2009-05-21 17:13:02"/>
    <tag k="millennium:network" v="BZ WBK"/>
    <tag k="millennium:ref" v="19027"/>
    <tag k="millennium:subtype" v="Euronet"/>
    <tag k="name" v="Bankomat BZ WBK"/>
    <tag k="operator" v="Euronet Sp. z o.o."/>
  </node>
  <node id="938166434" version="1" timestamp="2010-10-05T01:33:01Z" uid="20587" user="balrog-kun" changeset="5958352" lat="51.4013308" lon="21.1539843">
    <tag k="addr:city" v="Radom"/>
    <tag k="addr:housenumber" v="33"/>
    <tag k="addr:street" v="Stefana Żeromskiego"/>
    <tag k="amenity" v="atm"/>
    <tag k="atm_ref" v="ML1074A"/>
    <tag k="millennium:date" v="2009-05-21 17:13:02"/>
    <tag k="millennium:network" v="Millennium"/>
    <tag k="millennium:ref" v="18116"/>
    <tag k="millennium:subtype" v="Euronet"/>
    <tag k="name" v="Bankomat Millennium"/>
    <tag k="operator" v="Euronet Sp. z o.o."/>
  </node>
  <node id="938166435" version="1" timestamp="2010-10-05T01:33:01Z" uid="20587" user="balrog-kun" changeset="5958352" lat="50.0914564" lon="20.0065377">
    <tag k="addr:city" v="Kraków"/>
    <tag k="addr:housenumber" v="14"/>
    <tag k="addr:street" v="Osiedle Kombatantów"/>
    <tag k="amenity" v="atm"/>
    <tag k="atm_ref" v="1665240"/>
    <tag k="millennium:date" v="2009-05-21 17:13:02"/>
    <tag k="millennium:network" v="BZ WBK"/>
    <tag k="millennium:ref" v="19040"/>
    <tag k="millennium:subtype" v="Euronet"/>
    <tag k="name" v="Bankomat BZ WBK"/>
    <tag k="opening_hours" v="0-24"/>
    <tag k="operator" v="Euronet Sp. z o.o."/>
  </node>
  <node id="938166436" version="1" timestamp="2010-10-05T01:33:01Z" uid="20587" user="balrog-kun" changeset="5958352" lat="52.412642" lon="16.9040623"/>
  <node id="938166437" version="1" timestamp="2010-10-05T01:33:01Z" uid="20587" user="balrog-kun" changeset="5958352" lat="51.7575399" lon="19.4598024">
    <tag k="addr:city" v="Łódź"/>
    <tag k="addr:housenumber" v="183/187"/>
    <tag k="addr:street" v="Piotrkowska"/>
    <tag k="amenity" v="bank"/>
    <tag k="millennium:date" v="2009-09-14 14:49:45"/>
    <tag k="millennium:ref" v="20756"/>
    <tag k="millennium:usługi" v="Millennium"/>
    <tag k="name" v="Millennium Bank"/>
    <tag k="opening_hours" v="10.00-18.00 Mo-Fr"/>
  </node>
  <node id="938166437" version="2" timestamp="2011-04-17T11:37:50Z" uid="66036" user="h4v" changeset="7885583" lat="51.7574692" lon="19.4585925">
    <tag k="addr:city" v="Łódź"/>
    <tag k="addr:housenumber" v="183/187"/>
    <tag k="addr:street" v="Piotrkowska"/>
    <tag k="amenity" v="bank"/>
    <tag k="millennium:date" v="2009-09-14 14:49:45"/>
    <tag k="millennium:ref" v="20756"/>
    <tag k="millennium:usługi" v="Millennium"/>
    <tag k="name" v="Millennium Bank"/>
    <tag k="opening_hours" v="10.00-18.00 Mo-Fr"/>
  </node>
  <node id="938166438" version="1" timestamp="2010-10-05T01:33:01Z" uid="20587" user="balrog-kun" changeset="5958352" lat="51.9551" lon="14.7221">
    <tag k="addr:city" v="Gubin"/>
    <tag k="addr:housenumber" v="4"/>
    <tag k="addr:street" v="Piastowska"/>
    <tag k="amenity" v="atm"/>
    <tag k="atm_ref" v="1548000"/>
    <tag k="millennium:date" v="2009-05-21 17:13:02"/>
    <tag k="millennium:network" v="BZ WBK"/>
    <tag k="millennium:ref" v="18889"/>
    <tag k="millennium:subtype" v="Euronet"/>
    <tag k="name" v="Bankomat BZ WBK"/>
    <tag k="operator" v="Euronet Sp. z o.o."/>
  </node>
  <node id="938166438" version="2" timestamp="2011-07-29T16:31:34Z" uid="163437" user="r-michael" changeset="8864810" lat="51.9551555" lon="14.7224034">
    <tag k="addr:city" v="Gubin"/>
    <tag k="addr:housenumber" v="4"/>
    <tag k="addr:street" v="Piastowska"/>
    <tag k="amenity" v="atm"/>
    <tag k="atm_ref" v="1548000"/>
    <tag k="millennium:date" v="2009-05-21 17:13:02"/>
    <tag k="millennium:network" v="BZ WBK"/>
    <tag k="millennium:ref" v="18889"/>
    <tag k="millennium:subtype" v="Euronet"/>
    <tag k="name" v="Bankomat BZ WBK"/>
    <tag k="operator" v="Euronet Sp. z o.o."/>
  </node>
  <node id="938166439" version="1" timestamp="2010-10-05T01:33:02Z" uid="20587" user="balrog-kun" changeset="5958352" lat="50.0116498" lon="20.9849223">
    <tag k="addr:city" v="Tarnów"/>
    <tag k="addr:housenumber" v="2"/>
    <tag k="addr:street" v="Krakowska"/>
    <tag k="amenity" v="atm"/>
    <tag k="atm_ref" v="ML3154A"/>
    <tag k="millennium:date" v="2009-05-21 17:13:02"/>
    <tag k="millennium:network" v="Millennium"/>
    <tag k="millennium:ref" v="18157"/>
    <tag k="millennium:subtype" v="Euronet"/>
    <tag k="name" v="Bankomat Millennium"/>
    <tag k="operator" v="Euronet Sp. z o.o."/>
  </node>
  <node id="938166440" version="1" timestamp="2010-10-05T01:33:02Z" uid="20587" user="balrog-kun" changeset="5958352" lat="52.4119046" lon="16.9037402">
    <tag k="addr:city" v="Poznań"/>
    <tag k="addr:housenumber" v="1"/>
    <tag k="addr:street" v="Rynek Jeżycki"/>
    <tag k="amenity" v="atm"/>
    <tag k="atm_ref" v="ML4712A"/>
    <tag k="millennium:date" v="2009-05-21 17:13:02"/>
    <tag k="millennium:network" v="Millennium"/>
    <tag k="millennium:ref" v="18103"/>
    <tag k="millennium:subtype" v="Euronet"/>
    <tag k="name" v="Bankomat Millennium"/>
    <tag k="operator" v="Euronet Sp. z o.o."/>
  </node>
  <node id="938166441" version="1" timestamp="2010-10-05T01:33:02Z" uid="20587" user="balrog-kun" changeset="5958352" lat="52.4077621" lon="16.9264263">
    <tag k="addr:city" v="Poznań"/>
    <tag k="addr:housenumber" v="8"/>
    <tag k="addr:street" v="Plac Wolności"/>
    <tag k="amenity" v="atm"/>
    <tag k="atm_ref" v="ML4391A"/>
    <tag k="millennium:date" v="2009-05-21 17:13:02"/>
    <tag k="millennium:network" v="Millennium"/>
    <tag k="millennium:ref" v="18399"/>
    <tag k="millennium:subtype" v="Euronet"/>
    <tag k="name" v="Bankomat Millennium"/>
    <tag k="operator" v="Euronet Sp. z o.o."/>
  </node>
  <node id="938166442" version="1" timestamp="2010-10-05T01:33:02Z" uid="20587" user="balrog-kun" changeset="5958352" lat="51.8428746" lon="16.5703058">
    <tag k="addr:city" v="Leszno"/>
    <tag k="addr:housenumber" v="33"/>
    <tag k="addr:street" v="Słowiańska"/>
    <tag k="amenity" v="atm"/>
    <tag k="atm_ref" v="1245000"/>
    <tag k="millennium:date" v="2009-05-21 17:13:02"/>
    <tag k="millennium:network" v="BZ WBK"/>
    <tag k="millennium:ref" v="19453"/>
    <tag k="millennium:subtype" v="Euronet"/>
    <tag k="name" v="Bankomat BZ WBK"/>
    <tag k="operator" v="Euronet Sp. z o.o."/>
  </node>
  <node id="938166442" version="2" timestamp="2010-10-28T17:10:16Z" uid="113415" user="tomek-k" changeset="6210483" lat="51.842912" lon="16.5702421">
    <tag k="addr:city" v="Leszno"/>
    <tag k="addr:housenumber" v="33"/>
    <tag k="addr:street" v="Słowiańska"/>
    <tag k="amenity" v="atm"/>
    <tag k="atm_ref" v="1245000"/>
    <tag k="millennium:date" v="2009-05-21 17:13:02"/>
    <tag k="millennium:network" v="BZ WBK"/>
    <tag k="millennium:ref" v="19453"/>
    <tag k="millennium:subtype" v="Euronet"/>
    <tag k="name" v="Bankomat BZ WBK"/>
    <tag k="operator" v="Euronet Sp. z o.o."/>
  </node>
  <node id="938166443" version="1" timestamp="2010-10-05T01:33:02Z" uid="20587" user="balrog-kun" changeset="5958352" lat="52.4079233" lon="16.9310388">
    <tag k="addr:city" v="Poznań"/>
    <tag k="addr:housenumber" v="6"/>
    <tag k="addr:street" v="Ignacego Jana Paderewskiego"/>
    <tag k="amenity" v="atm"/>
    <tag k="atm_ref" v="ML4371A"/>
    <tag k="millennium:date" v="2009-05-21 17:13:02"/>
    <tag k="millennium:network" v="Millennium"/>
    <tag k="millennium:ref" v="18101"/>
    <tag k="millennium:subtype" v="Euronet"/>
    <tag k="name" v="Bankomat Millennium"/>
    <tag k="operator" v="Euronet Sp. z o.o."/>
  </node>
  <node id="938166444" version="1" timestamp="2010-10-05T01:33:03Z" uid="20587" user="balrog-kun" changeset="5958352" lat="51.8430219" lon="16.5672832">
    <tag k="addr:city" v="Leszno"/>
    <tag k="addr:housenumber" v="50"/>
    <tag k="addr:street" v="Słowiańska"/>
    <tag k="amenity" v="atm"/>
    <tag k="atm_ref" v="2125000"/>
    <tag k="millennium:date" v="2009-05-21 17:13:02"/>
    <tag k="millennium:network" v="BZ WBK"/>
    <tag k="millennium:ref" v="18536"/>
    <tag k="millennium:subtype" v="Euronet"/>
    <tag k="name" v="Bankomat BZ WBK"/>
    <tag k="operator" v="Euronet Sp. z o.o."/>
  </node>
  <node id="938166444" version="2" timestamp="2012-03-03T23:04:27Z" uid="113415" user="tomek-k" changeset="10863280" lat="51.8429864" lon="16.5673444">
    <tag k="addr:city" v="Leszno"/>
    <tag k="addr:housenumber" v="50"/>
    <tag k="addr:street" v="Słowiańska"/>
    <tag k="amenity" v="atm"/>
    <tag k="atm_ref" v="2125000"/>
    <tag k="millennium:date" v="2009-05-21 17:13:02"/>
    <tag k="millennium:network" v="BZ WBK"/>
    <tag k="millennium:ref" v="18536"/>
    <tag k="millennium:subtype" v="Euronet"/>
    <tag k="name" v="Bankomat BZ WBK"/>
    <tag k="operator" v="Euronet Sp. z o.o."/>
  </node>
  <node id="938166445" version="1" timestamp="2010-10-05T01:33:03Z" uid="20587" user="balrog-kun" changeset="5958352" lat="51.083527" lon="17.0399542">
    <tag k="addr:city" v="Wrocław"/>
    <tag k="addr:housenumber" v="12/14"/>
    <tag k="addr:street" v="Aleja Armii Krajowej"/>
    <tag k="amenity" v="atm"/>
    <tag k="atm_ref" v="ML6247A"/>
    <tag k="millennium:date" v="2009-05-21 17:13:02"/>
    <tag k="millennium:network" v="Millennium"/>
    <tag k="millennium:ref" v="18366"/>
    <tag k="millennium:subtype" v="Euronet"/>
    <tag k="name" v="Bankomat Millennium"/>
    <tag k="operator" v="Euronet Sp. z o.o."/>
  </node>
  <node id="938166446" version="1" timestamp="2010-10-05T01:33:03Z" uid="20587" user="balrog-kun" changeset="5958352" lat="51.247327" lon="22.5614982">
    <tag k="addr:city" v="Lublin"/>
    <tag k="addr:housenumber" v="1"/>
    <tag k="addr:street" v="Kapucyńska"/>
  </node>
  <node id="938166447" version="1" timestamp="2010-10-05T01:33:03Z" uid="20587" user="balrog-kun" changeset="5958352" lat="50.0621109" lon="19.935995">
    <tag k="addr:city" v="Kraków"/>
    <tag k="addr:housenumber" v="30"/>
    <tag k="addr:street" v="Rynek Główny"/>
    <tag k="amenity" v="atm"/>
    <tag k="atm_ref" v="1665200"/>
    <tag k="millennium:date" v="2009-05-21 17:13:02"/>
    <tag k="millennium:network" v="BZ WBK"/>
    <tag k="millennium:ref" v="18469"/>
    <tag k="millennium:subtype" v="Euronet"/>
    <tag k="name" v="Bankomat BZ WBK"/>
    <tag k="operator" v="Euronet Sp. z o.o."/>
  </node>
  <node id="938166447" version="2" timestamp="2012-03-08T14:02:20Z" uid="598456" user="vinci4352" changeset="10909503" lat="50.0620664" lon="19.9358996">
    <tag k="addr:city" v="Kraków"/>
    <tag k="addr:housenumber" v="30"/>
    <tag k="addr:street" v="Rynek Główny"/>
    <tag k="amenity" v="atm"/>
    <tag k="atm_ref" v="1665200"/>
    <tag k="millennium:date" v="2009-05-21 17:13:02"/>
    <tag k="millennium:network" v="BZ WBK"/>
    <tag k="millennium:ref" v="18469"/>
    <tag k="millennium:subtype" v="Euronet"/>
    <tag k="name" v="Bankomat BZ WBK"/>
    <tag k="operator" v="Euronet Sp. z o.o."/>
  </node>
  <node id="938166448" version="1" timestamp="2010-10-05T01:33:03Z" uid="20587" user="balrog-kun" changeset="5958352" lat="50.0621" lon="19.9359883">
    <tag k="addr:city" v="Kraków"/>
    <tag k="addr:housenumber" v="30"/>
    <tag k="addr:street" v="Rynek Główny"/>
    <tag k="amenity" v="atm"/>
    <tag k="atm_ref" v="1665201"/>
    <tag k="millennium:date" v="2009-05-21 17:13:02"/>
    <tag k="millennium:network" v="BZ WBK"/>
    <tag k="millennium:ref" v="18460"/>
    <tag k="millennium:subtype" v="Euronet"/>
    <tag k="name" v="Bankomat BZ WBK"/>
    <tag k="operator" v="Euronet Sp. z o.o."/>
  </node>
  <node id="938166448" version="2" timestamp="2012-03-08T14:02:19Z" uid="598456" user="vinci4352" changeset="10909503" lat="50.0620091" lon="19.9358987">
    <tag k="addr:city" v="Kraków"/>
    <tag k="addr:housenumber" v="30"/>
    <tag k="addr:street" v="Rynek Główny"/>
    <tag k="amenity" v="atm"/>
    <tag k="atm_ref" v="1665201"/>
    <tag k="millennium:date" v="2009-05-21 17:13:02"/>
    <tag k="millennium:network" v="BZ WBK"/>
    <tag k="millennium:ref" v="18460"/>
    <tag k="millennium:subtype" v="Euronet"/>
    <tag k="name" v="Bankomat BZ WBK"/>
    <tag k="operator" v="Euronet Sp. z o.o."/>
  </node>
  <node id="938166449" version="1" timestamp="2010-10-05T01:33:03Z" uid="20587" user="balrog-kun" changeset="5958352" lat="50.1685" lon="18.9043">
    <tag k="addr:city" v="Mikołów"/>
    <tag k="addr:housenumber" v="10"/>
    <tag k="addr:street" v="Rynek"/>
    <tag k="atm_ref" v="9743"/>
    <tag k="millennium:date" v="2009-05-21 17:13:02"/>
    <tag k="millennium:network" v="Cash4You"/>
    <tag k="millennium:ref" v="19682"/>
    <tag k="millennium:subtype" v="Euronet"/>
    <tag k="name" v="Bankomat Cash4You"/>
    <tag k="note:pl" v="Obiekt nieczynny"/>
    <tag k="old_amenity" v="atm"/>
    <tag k="operator" v="Euronet Sp. z o.o."/>
  </node>
  <node id="938166450" version="1" timestamp="2010-10-05T01:33:04Z" uid="20587" user="balrog-kun" changeset="5958352" lat="50.0114847" lon="20.9810294"/>
  <node id="938166451" version="1" timestamp="2010-10-05T01:33:04Z" uid="20587" user="balrog-kun" changeset="5958352" lat="51.2472823" lon="22.561941">
    <tag k="addr:city" v="Lublin"/>
    <tag k="addr:housenumber" v="4"/>
    <tag k="addr:street" v="Kapucyńska"/>
    <tag k="amenity" v="bank"/>
    <tag k="millennium:date" v="2009-09-15 15:24:39"/>
    <tag k="millennium:ref" v="20830"/>
    <tag k="millennium:usługi" v="Przedsiębiorstwa"/>
    <tag k="name" v="Millennium Przedsiębiorstwa"/>
    <tag k="opening_hours" v="8.30-16.30"/>
  </node>
  <node id="938166452" version="1" timestamp="2010-10-05T01:33:04Z" uid="20587" user="balrog-kun" changeset="5958352" lat="51.7846744" lon="14.9695916">
    <tag k="addr:city" v="Lubsko"/>
    <tag k="addr:housenumber" v="10"/>
    <tag k="addr:street" v="XX-lecia PRL"/>
    <tag k="amenity" v="atm"/>
    <tag k="atm_ref" v="1564000"/>
    <tag k="millennium:date" v="2009-05-21 17:13:02"/>
    <tag k="millennium:network" v="BZ WBK"/>
    <tag k="millennium:ref" v="18522"/>
    <tag k="millennium:subtype" v="Euronet"/>
    <tag k="name" v="Bankomat BZ WBK"/>
    <tag k="operator" v="Euronet Sp. z o.o."/>
  </node>
  <node id="938166453" version="1" timestamp="2010-10-05T01:33:04Z" uid="20587" user="balrog-kun" changeset="5958352" lat="52.4072574" lon="16.9206917">
    <tag k="addr:city" v="Poznań"/>
    <tag k="addr:housenumber" v="66/72"/>
    <tag k="addr:street" v="Święty Marcin"/>
    <tag k="amenity" v="atm"/>
    <tag k="atm_ref" v="1447001"/>
    <tag k="millennium:date" v="2009-05-21 17:13:02"/>
    <tag k="millennium:network" v="BZ WBK"/>
    <tag k="millennium:ref" v="18720"/>
    <tag k="millennium:subtype" v="Euronet"/>
    <tag k="name" v="Bankomat BZ WBK"/>
    <tag k="operator" v="Euronet Sp. z o.o."/>
  </node>
  <node id="938166454" version="1" timestamp="2010-10-05T01:33:04Z" uid="20587" user="balrog-kun" changeset="5958352" lat="50.0629587" lon="19.9399897">
    <tag k="addr:city" v="Kraków"/>
    <tag k="addr:housenumber" v="17"/>
    <tag k="addr:street" v="Floriańska"/>
    <tag k="amenity" v="atm"/>
    <tag k="atm_ref" v="ML3103A"/>
    <tag k="millennium:date" v="2009-05-21 17:13:02"/>
    <tag k="millennium:network" v="Millennium"/>
    <tag k="millennium:ref" v="18030"/>
    <tag k="millennium:subtype" v="Euronet"/>
    <tag k="name" v="Bankomat Millennium"/>
    <tag k="operator" v="Euronet Sp. z o.o."/>
  </node>
  <node id="938166454" version="2" timestamp="2012-03-04T09:50:09Z" uid="598456" user="vinci4352" changeset="10866280" lat="50.0629247" lon="19.9401705">
    <tag k="addr:city" v="Kraków"/>
    <tag k="addr:housenumber" v="17"/>
    <tag k="addr:street" v="Floriańska"/>
    <tag k="amenity" v="atm"/>
    <tag k="atm_ref" v="ML3103A"/>
    <tag k="millennium:date" v="2009-05-21 17:13:02"/>
    <tag k="millennium:network" v="Millennium"/>
    <tag k="millennium:ref" v="18030"/>
    <tag k="millennium:subtype" v="Euronet"/>
    <tag k="name" v="Bankomat Millennium"/>
    <tag k="operator" v="Euronet Sp. z o.o."/>
  </node>
  <node id="938166454" version="3" timestamp="2012-03-08T14:02:23Z" uid="598456" user="vinci4352" changeset="10909503" lat="50.0629006" lon="19.9400982">
    <tag k="addr:city" v="Kraków"/>
    <tag k="addr:housenumber" v="17"/>
    <tag k="addr:street" v="Floriańska"/>
    <tag k="amenity" v="atm"/>
    <tag k="atm_ref" v="ML3103A"/>
    <tag k="millennium:date" v="2009-05-21 17:13:02"/>
    <tag k="millennium:network" v="Millennium"/>
    <tag k="millennium:ref" v="18030"/>
    <tag k="millennium:subtype" v="Euronet"/>
    <tag k="name" v="Bankomat Millennium"/>
    <tag k="operator" v="Euronet Sp. z o.o."/>
  </node>
  <node id="938166455" version="1" timestamp="2010-10-05T01:33:05Z" uid="20587" user="balrog-kun" changeset="5958352" lat="51.2386921" lon="22.5283039">
    <tag k="addr:city" v="Lublin"/>
    <tag k="addr:housenumber" v="38b"/>
    <tag k="addr:street" v="Tomasza Zana"/>
    <tag k="amenity" v="atm"/>
    <tag k="atm_ref" v="8481"/>
    <tag k="millennium:date" v="2009-05-21 17:13:02"/>
    <tag k="millennium:network" v="Cash4You"/>
    <tag k="millennium:ref" v="19540"/>
    <tag k="millennium:subtype" v="Euronet"/>
    <tag k="name" v="Bankomat Cash4You"/>
    <tag k="operator" v="Euronet Sp. z o.o."/>
  </node>
  <node id="938166456" version="1" timestamp="2010-10-05T01:33:05Z" uid="20587" user="balrog-kun" changeset="5958352" lat="52.4112297" lon="16.9380487">
    <tag k="addr:city" v="Poznań"/>
    <tag k="addr:housenumber" v="9"/>
    <tag k="addr:street" v="Małe Garbary"/>
    <tag k="amenity" v="atm"/>
    <tag k="atm_ref" v="ML4464B"/>
    <tag k="millennium:date" v="2009-05-21 17:13:02"/>
    <tag k="millennium:network" v="Millennium"/>
    <tag k="millennium:ref" v="18387"/>
    <tag k="millennium:subtype" v="Euronet"/>
    <tag k="name" v="Bankomat Millennium"/>
    <tag k="operator" v="Euronet Sp. z o.o."/>
  </node>
  <node id="938166456" version="2" timestamp="2011-09-09T17:06:16Z" uid="91056" user="Yarl" changeset="9255964" lat="52.4113439" lon="16.9380574">
    <tag k="addr:city" v="Poznań"/>
    <tag k="addr:housenumber" v="9"/>
    <tag k="addr:street" v="Małe Garbary"/>
    <tag k="amenity" v="atm"/>
    <tag k="atm_ref" v="ML4464B"/>
    <tag k="millennium:date" v="2009-05-21 17:13:02"/>
    <tag k="millennium:network" v="Millennium"/>
    <tag k="millennium:ref" v="18387"/>
    <tag k="millennium:subtype" v="Euronet"/>
    <tag k="name" v="Bankomat Millennium"/>
    <tag k="operator" v="Euronet Sp. z o.o."/>
  </node>
  <node id="938166457" version="1" timestamp="2010-10-05T01:33:05Z" uid="20587" user="balrog-kun" changeset="5958352" lat="52.4084335" lon="16.9214486">
    <tag k="addr:city" v="Poznań"/>
    <tag k="addr:housenumber" v="1"/>
    <tag k="addr:street" v="Aleksandra Fredry"/>
    <tag k="amenity" v="atm"/>
    <tag k="atm_ref" v="ML4140A"/>
    <tag k="millennium:date" v="2009-05-21 17:13:02"/>
    <tag k="millennium:network" v="Millennium"/>
    <tag k="millennium:ref" v="18364"/>
    <tag k="millennium:subtype" v="Euronet"/>
    <tag k="name" v="Bankomat Millennium"/>
    <tag k="operator" v="Euronet Sp. z o.o."/>
  </node>
  <node id="938166457" version="2" timestamp="2011-08-24T12:58:11Z" uid="19417" user="xjr" changeset="9112365" lat="52.4084025" lon="16.9213742">
    <tag k="addr:city" v="Poznań"/>
    <tag k="addr:housenumber" v="1"/>
    <tag k="addr:street" v="Aleksandra Fredry"/>
    <tag k="amenity" v="atm"/>
    <tag k="atm_ref" v="ML4140A"/>
    <tag k="millennium:date" v="2009-05-21 17:13:02"/>
    <tag k="millennium:network" v="Millennium"/>
    <tag k="millennium:ref" v="18364"/>
    <tag k="millennium:subtype" v="Euronet"/>
    <tag k="name" v="Bankomat Millennium"/>
    <tag k="operator" v="Euronet Sp. z o.o."/>
  </node>
  <node id="938166458" version="1" timestamp="2010-10-05T01:33:05Z" uid="20587" user="balrog-kun" changeset="5958352" lat="51.4019574" lon="21.148553">
    <tag k="addr:city" v="Radom"/>
    <tag k="addr:housenumber" v="9"/>
    <tag k="addr:postcode" v="26-610"/>
    <tag k="addr:street" v="Stefana Żeromskiego"/>
    <tag k="amenity" v="atm"/>
    <tag k="atm_ref" v="2688270"/>
    <tag k="millennium:date" v="2009-05-21 17:13:02"/>
    <tag k="millennium:network" v="BZ WBK"/>
    <tag k="millennium:ref" v="19188"/>
    <tag k="millennium:subtype" v="Euronet"/>
    <tag k="name" v="Bankomat BZ WBK"/>
    <tag k="operator" v="Euronet Sp. z o.o."/>
  </node>
  <node id="938166459" version="1" timestamp="2010-10-05T01:33:05Z" uid="20587" user="balrog-kun" changeset="5958352" lat="52.4127413" lon="16.9039752">
    <tag k="addr:city" v="Poznań"/>
    <tag k="addr:housenumber" v="53/55"/>
    <tag k="addr:street" v="Jana Henryka Dąbrowskiego"/>
    <tag k="amenity" v="atm"/>
    <tag k="atm_ref" v="1359210"/>
    <tag k="millennium:date" v="2009-05-21 17:13:02"/>
    <tag k="millennium:network" v="BZ WBK"/>
    <tag k="millennium:ref" v="18722"/>
    <tag k="millennium:subtype" v="Euronet"/>
    <tag k="name" v="Bankomat BZ WBK"/>
    <tag k="operator" v="Euronet Sp. z o.o."/>
  </node>
  <node id="938166460" version="1" timestamp="2010-10-05T01:33:06Z" uid="20587" user="balrog-kun" changeset="5958352" lat="50.0478506" lon="21.9868788">
    <tag k="addr:city" v="Rzeszów"/>
    <tag k="addr:housenumber" v="10"/>
    <tag k="addr:street" v="Okulickiego"/>
    <tag k="amenity" v="atm"/>
    <tag k="atm_ref" v="8729"/>
    <tag k="millennium:date" v="2009-05-21 17:13:02"/>
    <tag k="millennium:network" v="Cash4You"/>
    <tag k="millennium:ref" v="19584"/>
    <tag k="millennium:subtype" v="Euronet"/>
    <tag k="name" v="Bankomat Cash4You"/>
    <tag k="operator" v="Euronet Sp. z o.o."/>
  </node>
  <node id="938166461" version="1" timestamp="2010-10-05T01:33:06Z" uid="20587" user="balrog-kun" changeset="5958352" lat="52.4127355" lon="16.9039961">
    <tag k="addr:city" v="Poznań"/>
    <tag k="addr:housenumber" v="53/55"/>
    <tag k="addr:street" v="Jana Henryka Dąbrowskiego"/>
    <tag k="amenity" v="atm"/>
    <tag k="atm_ref" v="1359211"/>
    <tag k="millennium:date" v="2009-05-21 17:13:02"/>
    <tag k="millennium:network" v="BZ WBK"/>
    <tag k="millennium:ref" v="18618"/>
    <tag k="millennium:subtype" v="Euronet"/>
    <tag k="name" v="Bankomat BZ WBK"/>
    <tag k="operator" v="Euronet Sp. z o.o."/>
  </node>
  <node id="938166462" version="1" timestamp="2010-10-05T01:33:06Z" uid="20587" user="balrog-kun" changeset="5958352" lat="50.5705" lon="22.0575">
    <tag k="addr:city" v="Stalowa Wola"/>
    <tag k="addr:housenumber" v="16b"/>
    <tag k="addr:street" v="Generała Leopolda Okulickiego"/>
    <tag k="amenity" v="atm"/>
    <tag k="atm_ref" v="2750230"/>
    <tag k="millennium:date" v="2009-05-21 17:13:02"/>
    <tag k="millennium:network" v="BZ WBK"/>
    <tag k="millennium:ref" v="19187"/>
    <tag k="millennium:subtype" v="Millennium"/>
    <tag k="name" v="Bankomat BZ WBK"/>
    <tag k="opening_hours" v="Mo-Fr 09.00-17.00"/>
    <tag k="operator" v="Bank Millennium S.A."/>
  </node>
  <node id="938166463" version="1" timestamp="2010-10-05T01:33:06Z" uid="20587" user="balrog-kun" changeset="5958352" lat="52.3884726" lon="16.7842748">
    <tag k="addr:city" v="Skórzewo"/>
    <tag k="addr:housenumber" v="11"/>
    <tag k="addr:street" v="Zakręt"/>
    <tag k="amenity" v="atm"/>
    <tag k="atm_ref" v="1346300"/>
    <tag k="millennium:date" v="2009-05-21 17:13:02"/>
    <tag k="millennium:network" v="BZ WBK"/>
    <tag k="millennium:ref" v="18636"/>
    <tag k="millennium:subtype" v="Euronet"/>
    <tag k="name" v="Bankomat BZ WBK"/>
    <tag k="operator" v="Euronet Sp. z o.o."/>
  </node>
  <node id="938166464" version="1" timestamp="2010-10-05T01:33:06Z" uid="20587" user="balrog-kun" changeset="5958352" lat="50.8719644" lon="20.6230353">
    <tag k="addr:city" v="Kielce"/>
    <tag k="addr:housenumber" v="2"/>
    <tag k="addr:street" v="Wspólna"/>
    <tag k="amenity" v="atm"/>
    <tag k="atm_ref" v="2040000"/>
    <tag k="millennium:date" v="2009-05-21 17:13:02"/>
    <tag k="millennium:network" v="BZ WBK"/>
    <tag k="millennium:ref" v="18835"/>
    <tag k="millennium:subtype" v="Euronet"/>
    <tag k="name" v="Bankomat BZ WBK"/>
    <tag k="operator" v="Euronet Sp. z o.o."/>
  </node>
  <node id="938166465" version="1" timestamp="2010-10-05T01:33:07Z" uid="20587" user="balrog-kun" changeset="5958352" lat="49.8838428" lon="19.4921143">
    <tag k="addr:city" v="Wadowice"/>
    <tag k="addr:housenumber" v="18"/>
    <tag k="addr:street" v="Plac Jana Pawła II"/>
    <tag k="amenity" v="bank"/>
    <tag k="millennium:date" v="2009-09-14 14:49:45"/>
    <tag k="millennium:ref" v="20449"/>
    <tag k="millennium:usługi" v="Millennium"/>
    <tag k="name" v="Millennium Bank"/>
    <tag k="opening_hours" v="09.00-17.00 Mo-Fr"/>
  </node>
  <node id="938166465" version="2" timestamp="2012-03-04T19:14:57Z" uid="147230" user="TomaszKoniaków" changeset="10872698" lat="49.8838461" lon="19.4919983">
    <tag k="addr:city" v="Wadowice"/>
    <tag k="addr:housenumber" v="18"/>
    <tag k="addr:street" v="Plac Jana Pawła II"/>
    <tag k="amenity" v="bank"/>
    <tag k="millennium:date" v="2009-09-14 14:49:45"/>
    <tag k="millennium:ref" v="20449"/>
    <tag k="millennium:usługi" v="Millennium"/>
    <tag k="name" v="Millennium Bank"/>
    <tag k="opening_hours" v="09.00-17.00 Mo-Fr"/>
  </node>
  <node id="938166466" version="1" timestamp="2010-10-05T01:33:07Z" uid="20587" user="balrog-kun" changeset="5958352" lat="51.4000751" lon="21.1621571">
    <tag k="addr:city" v="Radom"/>
    <tag k="addr:housenumber" v="72"/>
    <tag k="addr:street" v="Stefana Żeromskiego"/>
    <tag k="amenity" v="atm"/>
    <tag k="atm_ref" v="2688230"/>
    <tag k="millennium:date" v="2009-05-21 17:13:02"/>
    <tag k="millennium:network" v="BZ WBK"/>
    <tag k="millennium:ref" v="19041"/>
    <tag k="millennium:subtype" v="Euronet"/>
    <tag k="name" v="Bankomat BZ WBK"/>
    <tag k="operator" v="Euronet Sp. z o.o."/>
  </node>
  <node id="938166467" version="1" timestamp="2010-10-05T01:33:07Z" uid="20587" user="balrog-kun" changeset="5958352" lat="50.0103898" lon="20.981289">
    <tag k="addr:city" v="Tarnów"/>
    <tag k="addr:housenumber" v="1"/>
    <tag k="addr:street" v="Karola Kaczkowskiego"/>
    <tag k="amenity" v="atm"/>
    <tag k="atm_ref" v="1838200"/>
    <tag k="millennium:date" v="2009-05-21 17:13:02"/>
    <tag k="millennium:network" v="BZ WBK"/>
    <tag k="millennium:ref" v="18736"/>
    <tag k="millennium:subtype" v="Euronet"/>
    <tag k="name" v="Bankomat BZ WBK"/>
    <tag k="operator" v="Euronet Sp. z o.o."/>
  </node>
  <node id="938166468" version="1" timestamp="2010-10-05T01:33:07Z" uid="20587" user="balrog-kun" changeset="5958352" lat="50.019431" lon="22.0135277">
    <tag k="addr:city" v="Rzeszów"/>
    <tag k="addr:housenumber" v="13"/>
    <tag k="addr:street" v="Aleja Powstańców Warszawy"/>
    <tag k="amenity" v="atm"/>
    <tag k="atm_ref" v="2750502"/>
    <tag k="millennium:date" v="2009-05-21 17:13:02"/>
    <tag k="millennium:network" v="BZ WBK"/>
    <tag k="millennium:ref" v="19425"/>
    <tag k="millennium:subtype" v="Euronet"/>
    <tag k="name" v="Bankomat BZ WBK"/>
    <tag k="operator" v="Euronet Sp. z o.o."/>
  </node>
  <node id="938166469" version="1" timestamp="2010-10-05T01:33:07Z" uid="20587" user="balrog-kun" changeset="5958352" lat="52.4112237" lon="16.9379903">
    <tag k="addr:city" v="Poznań"/>
    <tag k="addr:housenumber" v="9"/>
    <tag k="addr:street" v="Małe Garbary"/>
    <tag k="amenity" v="atm"/>
    <tag k="atm_ref" v="ML4464A"/>
    <tag k="millennium:date" v="2009-05-21 17:13:02"/>
    <tag k="millennium:network" v="Millennium"/>
    <tag k="millennium:ref" v="18386"/>
    <tag k="millennium:subtype" v="Euronet"/>
    <tag k="name" v="Bankomat Millennium"/>
    <tag k="operator" v="Euronet Sp. z o.o."/>
  </node>
  <node id="938166469" version="2" timestamp="2011-09-09T17:06:16Z" uid="91056" user="Yarl" changeset="9255964" lat="52.4113379" lon="16.937999">
    <tag k="addr:city" v="Poznań"/>
    <tag k="addr:housenumber" v="9"/>
    <tag k="addr:street" v="Małe Garbary"/>
    <tag k="amenity" v="atm"/>
    <tag k="atm_ref" v="ML4464A"/>
    <tag k="millennium:date" v="2009-05-21 17:13:02"/>
    <tag k="millennium:network" v="Millennium"/>
    <tag k="millennium:ref" v="18386"/>
    <tag k="millennium:subtype" v="Euronet"/>
    <tag k="name" v="Bankomat Millennium"/>
    <tag k="operator" v="Euronet Sp. z o.o."/>
  </node>
  <node id="938161819" version="3" timestamp="2012-07-19T04:40:54Z" uid="722137" user="OSMF Redaction Account" changeset="12308400" lat="-38.182194" lon="144.344718">
    <tag k="amenity" v="doctors"/>
    <tag k="name" v="South Barwon Medical Centre"/>
  </node>
  <node id="938161819" version="4" timestamp="2012-07-26T03:44:23Z" uid="78837" user="modellerau" changeset="12494211" lat="-38.1820647" lon="144.3446827">
    <tag k="amenity" v="doctors"/>
    <tag k="name" v="South Barwon Medical Centre"/>
  </node>
  <node id="938166421" version="2" timestamp="2012-09-06T21:09:09Z" uid="467703" user="Zbigniew_Czernik" changeset="13015827" lat="50.0118169" lon="20.9809851"/>
  <node id="938166433" version="2" timestamp="2012-08-19T09:05:13Z" uid="816147" user="osinkowa" changeset="12780874" lat="50.8739304" lon="20.6198409">
    <tag k="addr:city" v="Kielce"/>
    <tag k="addr:housenumber" v="78"/>
    <tag k="addr:street" v="Henryka Sienkiewicza"/>
    <tag k="amenity" v="atm"/>
    <tag k="atm_ref" v="2040230"/>
    <tag k="millennium:date" v="2009-05-21 17:13:02"/>
    <tag k="millennium:network" v="BZ WBK"/>
    <tag k="millennium:ref" v="19027"/>
    <tag k="millennium:subtype" v="Euronet"/>
    <tag k="name" v="Bankomat BZ WBK"/>
    <tag k="operator" v="Euronet Sp. z o.o."/>
    <tag k="source" v="Bing"/>
  </node>
  <node id="938166434" version="2" timestamp="2012-08-10T11:11:21Z" uid="341566" user="firebwoy" changeset="12678786" lat="51.4013475" lon="21.1535924">
    <tag k="addr:city" v="Radom"/>
    <tag k="addr:housenumber" v="33"/>
    <tag k="addr:street" v="Stefana Żeromskiego"/>
    <tag k="amenity" v="atm"/>
    <tag k="atm_ref" v="ML1074A"/>
    <tag k="millennium:date" v="2009-05-21 17:13:02"/>
    <tag k="millennium:network" v="Millennium"/>
    <tag k="millennium:ref" v="18116"/>
    <tag k="millennium:subtype" v="Euronet"/>
    <tag k="name" v="Bankomat Millennium"/>
    <tag k="operator" v="Euronet Sp. z o.o."/>
  </node>
  <node id="938166437" version="3" timestamp="2012-07-24T13:32:34Z" uid="722137" user="OSMF Redaction Account" changeset="12466736" lat="51.7575399" lon="19.4598024">
    <tag k="addr:city" v="Łódź"/>
    <tag k="addr:housenumber" v="183/187"/>
    <tag k="addr:street" v="Piotrkowska"/>
    <tag k="amenity" v="bank"/>
    <tag k="millennium:date" v="2009-09-14 14:49:45"/>
    <tag k="millennium:ref" v="20756"/>
    <tag k="millennium:usługi" v="Millennium"/>
    <tag k="name" v="Millennium Bank"/>
    <tag k="opening_hours" v="10.00-18.00 Mo-Fr"/>
  </node>
  <node id="938166447" version="3" timestamp="2012-08-12T08:46:27Z" uid="797760" user="Jakub501" changeset="12698965" lat="50.0620162" lon="19.9359663">
    <tag k="addr:city" v="Kraków"/>
    <tag k="addr:housenumber" v="30"/>
    <tag k="addr:street" v="Rynek Główny"/>
    <tag k="amenity" v="atm"/>
    <tag k="atm_ref" v="1665200"/>
    <tag k="millennium:date" v="2009-05-21 17:13:02"/>
    <tag k="millennium:network" v="BZ WBK"/>
    <tag k="millennium:ref" v="18469"/>
    <tag k="millennium:subtype" v="Euronet"/>
    <tag k="name" v="Bankomat BZ WBK"/>
    <tag k="operator" v="BZ WBK "/>
  </node>
  <node id="938166448" version="3" timestamp="2012-08-12T08:46:28Z" uid="797760" user="Jakub501" changeset="12698965" lat="50.0619723" lon="19.9359208">
    <tag k="addr:city" v="Kraków"/>
    <tag k="addr:housenumber" v="30"/>
    <tag k="addr:street" v="Rynek Główny"/>
    <tag k="amenity" v="atm"/>
    <tag k="atm_ref" v="1665201"/>
    <tag k="millennium:date" v="2009-05-21 17:13:02"/>
    <tag k="millennium:network" v="BZ WBK"/>
    <tag k="millennium:ref" v="18460"/>
    <tag k="millennium:subtype" v="Euronet"/>
    <tag k="name" v="Bankomat BZ WBK"/>
    <tag k="operator" v="BZ WBK "/>
  </node>
  <node id="938166449" version="2" timestamp="2012-05-04T12:01:48Z" uid="94017" user="AdiS" changeset="11497105" lat="50.1685" lon="18.9043"/>
  <node id="938166450" version="2" timestamp="2012-07-25T21:49:34Z" uid="164910" user="ppece" changeset="12492302" lat="50.0114847" lon="20.9810294"/>
  <node id="938166455" version="2" timestamp="2012-08-19T01:07:50Z" uid="816147" user="osinkowa" changeset="12778801" lat="51.2386921" lon="22.5283039">
    <tag k="addr:city" v="Lublin"/>
    <tag k="addr:housenumber" v="38b"/>
    <tag k="addr:street" v="Tomasza Zana"/>
    <tag k="amenity" v="atm"/>
    <tag k="atm_ref" v="8481"/>
    <tag k="millennium:date" v="2009-05-21 17:13:02"/>
    <tag k="millennium:network" v="Cash4You"/>
    <tag k="millennium:ref" v="19540"/>
    <tag k="millennium:subtype" v="Euronet"/>
    <tag k="name" v="Bankomat Cash4You"/>
    <tag k="operator" v="Euronet Sp. z o.o."/>
  </node>
  <node id="938166464" version="2" timestamp="2012-08-19T09:05:13Z" uid="816147" user="osinkowa" changeset="12780874" lat="50.8719644" lon="20.6230353">
    <tag k="addr:city" v="Kielce"/>
    <tag k="addr:housenumber" v="2"/>
    <tag k="addr:street" v="Wspólna"/>
    <tag k="amenity" v="atm"/>
    <tag k="atm_ref" v="2040000"/>
    <tag k="millennium:date" v="2009-05-21 17:13:02"/>
    <tag k="millennium:network" v="BZ WBK"/>
    <tag k="millennium:ref" v="18835"/>
    <tag k="millennium:subtype" v="Euronet"/>
    <tag k="name" v="Bankomat BZ WBK"/>
    <tag k="operator" v="Euronet Sp. z o.o."/>
    <tag k="source" v="Bing"/>
  </node>
</osm>
