<?xml version='1.0' encoding='UTF-8'?>
<osm version="0.6" generator="libosmium/2.20.0">
  <node id="938471182" version="2" timestamp="2011-01-25T13:39:39Z" uid="115477" user="wowik" changeset="7083719" lat="55.852334" lon="37.4466407">
    <tag k="amenity" v="public_building"/>
    <tag k="name" v="ЗАГС"/>
  </node>
  <node id="938471182" version="3" timestamp="2011-01-27T08:50:58Z" uid="206282" user="Amigo" changeset="7101201" lat="55.852334" lon="37.4466407">
    <tag k="addr:housenumber" v="14"/>
    <tag k="addr:street" v="Химкинский бульвар"/>
    <tag k="amenity" v="public_building"/>
    <tag k="name" v="Тушинский отдел ЗАГС"/>
    <tag k="phone" v="+7-495-4932595"/>
    <tag k="website" v="http://zags.mgportal.ru/"/>
  </node>
  <node id="938471182" version="4" timestamp="2012-03-28T06:28:11Z" uid="481934" user="iWowik" changeset="11123401" lat="55.852334" lon="37.4466407">
    <tag k="addr:city" v="Москва"/>
    <tag k="addr:country" v="RU"/>
    <tag k="addr:housenumber" v="14"/>
    <tag k="addr:street" v="Химкинский бульвар"/>
    <tag k="amenity" v="public_building"/>
    <tag k="name" v="Тушинский отдел ЗАГС"/>
    <tag k="phone" v="+7-495-4932595"/>
    <tag k="website" v="http://zags.mgportal.ru/"/>
  </node>
  <node id="938471182" version="5" timestamp="2012-06-06T18:36:12Z" uid="206282" user="Amigo" changeset="11818063" lat="55.852334" lon="37.4466406">
    <tag k="addr:housenumber" v="14"/>
    <tag k="addr:street" v="Химкинский бульвар"/>
    <tag k="amenity" v="public_building"/>
    <tag k="name" v="Тушинский отдел ЗАГС"/>
    <tag k="phone" v="+7-495-4932595"/>
    <tag k="website" v="http://zags.mgportal.ru/"/>
  </node>
  <node id="938471182" version="6" timestamp="2012-07-21T06:48:25Z" uid="722137" user="OSMF Redaction Account" changeset="12401780" lat="55.852344" lon="37.4466407">
    <tag k="addr:housenumber" v="14"/>
    <tag k="addr:street" v="Химкинский бульвар"/>
    <tag k="amenity" v="public_building"/>
    <tag k="name" v="Тушинский отдел ЗАГС"/>
    <tag k="phone" v="+7-495-4932595"/>
    <tag k="website" v="http://zags.mgportal.ru/"/>
  </node>
  <node id="938471182" version="7" timestamp="2012-07-30T08:23:43Z" uid="206282" user="Amigo" changeset="12544441" lat="55.8523741" lon="37.4466407">
    <tag k="addr:housenumber" v="14"/>
    <tag k="addr:street" v="Химкинский бульвар"/>
    <tag k="amenity" v="public_building"/>
    <tag k="name" v="Тушинский отдел ЗАГС"/>
    <tag k="phone" v="+7-495-4932595"/>
    <tag k="website" v="http://zags.mgportal.ru/"/>
  </node>
</osm>
