<?xml version='1.0' encoding='UTF-8'?>
<osm version="0.6" generator="libosmium/2.20.0">
  <node id="93980558" version="3" timestamp="2008-07-09T23:56:08Z" uid="6975" user="ulfl" changeset="448234" lat="39.9227686" lon="32.8709259">
    <tag k="name" v="Halk Ekmek"/>
    <tag k="shop" v="bakery"/>
  </node>
  <node id="93980564" version="3" timestamp="2008-07-09T23:56:09Z" uid="6975" user="ulfl" changeset="448234" lat="39.9190101" lon="32.8760452">
    <tag k="name" v="Halk Ekmek"/>
    <tag k="shop" v="bakery"/>
  </node>
  <node id="93980564" version="4" timestamp="2008-11-04T13:46:29Z" uid="11395" user="XceptN" changeset="674268" lat="39.919056" lon="32.8760354">
    <tag k="name" v="Halk Ekmek"/>
    <tag k="shop" v="bakery"/>
  </node>
  <node id="93980569" version="3" timestamp="2008-07-09T23:56:10Z" uid="6975" user="ulfl" changeset="448234" lat="39.9107153" lon="32.8785151">
    <tag k="name" v="Halk Ekmek"/>
    <tag k="shop" v="bakery"/>
  </node>
  <node id="93980577" version="3" timestamp="2008-07-09T23:56:03Z" uid="6975" user="ulfl" changeset="448234" lat="39.9105733" lon="32.8828278">
    <tag k="name" v="Halk Ekmek"/>
    <tag k="shop" v="bakery"/>
  </node>
  <node id="93980619" version="3" timestamp="2008-07-09T23:56:14Z" uid="6975" user="ulfl" changeset="448234" lat="39.9122559" lon="32.8705691">
    <tag k="name" v="Halk Ekmek"/>
    <tag k="shop" v="bakery"/>
  </node>
  <node id="93982626" version="2" timestamp="2008-07-02T23:53:43Z" uid="6975" user="ulfl" changeset="377243" lat="60.4081442" lon="22.3612141">
    <tag k="is_in" v="Kaarina, Finland"/>
    <tag k="name" v="Alko"/>
    <tag k="note" v="alcohol"/>
    <tag k="shop" v="beverages"/>
  </node>
  <node id="93982626" version="3" timestamp="2009-03-10T12:26:02Z" uid="4660" user="alv" changeset="775619" lat="60.4081442" lon="22.3612141">
    <tag k="is_in" v="Kaarina, Finland"/>
    <tag k="name" v="Alko"/>
    <tag k="note" v="alcohol"/>
    <tag k="shop" v="alcohol"/>
  </node>
  <node id="93989735" version="2" timestamp="2008-02-16T19:15:37Z" uid="6975" user="ulfl" changeset="141861" lat="60.4497019" lon="22.2967192">
    <tag k="name" v="Euromarket"/>
    <tag k="shop" v="supermarket"/>
  </node>
  <node id="93989735" version="3" timestamp="2009-06-21T11:13:20Z" uid="110250" user="kslotte" changeset="1581969" lat="60.4497019" lon="22.2967192">
    <tag k="name" v="Euromarket"/>
    <tag k="shop" v="supermarket"/>
  </node>
  <node id="93989737" version="2" timestamp="2008-07-02T23:53:45Z" uid="6975" user="ulfl" changeset="377243" lat="60.4496712" lon="22.2966571">
    <tag k="is_in" v="Turku, Finland"/>
    <tag k="name" v="Alko"/>
    <tag k="note" v="alcohol"/>
    <tag k="shop" v="beverages"/>
  </node>
  <node id="93989737" version="3" timestamp="2009-03-10T12:25:56Z" uid="4660" user="alv" changeset="775619" lat="60.4496712" lon="22.2966571">
    <tag k="is_in" v="Turku, Finland"/>
    <tag k="name" v="Alko"/>
    <tag k="note" v="alcohol"/>
    <tag k="shop" v="alcohol"/>
  </node>
  <node id="93989737" version="4" timestamp="2009-06-21T11:13:19Z" uid="110250" user="kslotte" changeset="1581969" lat="60.4496712" lon="22.2966571">
    <tag k="is_in" v="Turku, Finland"/>
    <tag k="name" v="Alko"/>
    <tag k="note" v="alcohol"/>
    <tag k="shop" v="alcohol"/>
  </node>
</osm>
