<?xml version='1.0' encoding='UTF-8'?>
<osm version="0.6" generator="libosmium/2.20.0">
  <node id="941281422" version="1" timestamp="2010-10-08T08:41:22Z" uid="115477" user="wowik" changeset="5984136" lat="54.9594057" lon="19.9799173">
    <tag k="name" v="Маяк"/>
    <tag k="place" v="hamlet"/>
  </node>
  <node id="941281424" version="1" timestamp="2010-10-08T08:41:22Z" uid="115477" user="wowik" changeset="5984136" lat="54.9602065" lon="19.978587">
    <tag k="man made" v="lighthouse"/>
  </node>
  <node id="941281424" version="2" timestamp="2010-10-16T16:47:46Z" uid="5359" user="user_5359" changeset="6059375" lat="54.9602065" lon="19.978587">
    <tag k="man_made" v="lighthouse"/>
  </node>
  <node id="941281424" version="3" timestamp="2011-12-06T21:42:39Z" uid="291382" user="cleanerx" changeset="10053939" lat="54.9602065" lon="19.978587">
    <tag k="man_made" v="lighthouse"/>
    <tag k="seamark:landmark:height" v="29"/>
    <tag k="seamark:light:character" v="Oc"/>
    <tag k="seamark:light:colour" v="white"/>
    <tag k="seamark:light:group" v="3"/>
    <tag k="seamark:light:height" v="54"/>
    <tag k="seamark:light:period" v="15"/>
    <tag k="seamark:light:range" v="21"/>
    <tag k="seamark:light:ref" v="C 3256"/>
    <tag k="seamark:light:sequence" v="1.5+(1.5),1.5+(1.5),6+(3)"/>
    <tag k="seamark:name" v="Mys Taran."/>
    <tag k="seamark:type" v="light_major"/>
  </node>
  <node id="941288228" version="1" timestamp="2010-10-08T08:50:05Z" uid="115477" user="wowik" changeset="5984201" lat="54.951111" lon="19.984444">
    <tag k="gns:modify_date" v="2003-07-15"/>
    <tag k="name" v="Молодогвардейское"/>
    <tag k="place" v="hamlet"/>
    <tag k="source" v="GNS"/>
    <tag k="source:id" v="6793546"/>
  </node>
  <node id="941288228" version="2" timestamp="2010-10-08T15:17:02Z" uid="115477" user="wowik" changeset="5986870" lat="54.9514619" lon="19.991157">
    <tag k="gns:modify_date" v="2003-07-15"/>
    <tag k="name" v="Молодогвардейское"/>
    <tag k="name:de" v="Molodogwardejskoje"/>
    <tag k="name:lt" v="Molodogvardeiskojė"/>
    <tag k="old_name:de" v="Gut Finken"/>
    <tag k="place" v="hamlet"/>
    <tag k="source" v="GNS"/>
    <tag k="source:id" v="6793546"/>
  </node>
  <node id="941288228" version="3" timestamp="2010-10-08T16:37:47Z" uid="115477" user="wowik" changeset="5986870" lat="54.9433775" lon="20.0092351">
    <tag k="gns:modify_date" v="2003-07-15"/>
    <tag k="name" v="Молодогвардейское"/>
    <tag k="name:de" v="Molodogwardejskoje"/>
    <tag k="name:lt" v="Molodogvardeiskojė"/>
    <tag k="old_name:de" v="Gut Finken"/>
    <tag k="place" v="hamlet"/>
    <tag k="source" v="GNS"/>
    <tag k="source:id" v="6793546"/>
  </node>
  <node id="941281422" version="2" timestamp="2012-07-24T16:21:27Z" uid="722137" user="OSMF Redaction Account" changeset="12470178" lat="54.9594057" lon="19.9799173"/>
  <node id="941281424" version="4" timestamp="2012-07-24T16:21:27Z" uid="722137" user="OSMF Redaction Account" changeset="12470178" lat="54.9602065" lon="19.978587"/>
  <node id="941288228" version="4" timestamp="2012-07-24T20:03:40Z" uid="722137" user="OSMF Redaction Account" changeset="12475304" lat="54.9433775" lon="20.0092351"/>
</osm>
