<?xml version='1.0' encoding='UTF-8'?>
<osm version="0.6" generator="libosmium/2.20.0">
  <node id="94230211" version="5" timestamp="2010-09-02T21:31:10Z" uid="6975" user="ulfl" changeset="5666364" lat="43.0846001" lon="-5.2179405">
    <tag k="mountain_pass" v="yes"/>
    <tag k="name" v="Puerto de Tarna"/>
    <tag k="wikipedia" v="http://es.wikipedia.org/wiki/Puerto_de_Tarna"/>
  </node>
  <node id="94230211" version="6" timestamp="2012-03-08T14:43:58Z" uid="7045" user="Xuacu" changeset="10909736" lat="43.0846001" lon="-5.2179405">
    <tag k="mountain_pass" v="yes"/>
    <tag k="name" v="Puerto de Tarna"/>
    <tag k="name:ast" v="Puertu de Tarna"/>
    <tag k="wikipedia" v="http://es.wikipedia.org/wiki/Puerto_de_Tarna"/>
  </node>
  <node id="94236764" version="2" timestamp="2008-07-03T09:21:57Z" uid="43967" user="railsnail" changeset="378704" lat="51.3005701" lon="6.7521954">
    <tag k="created_by" v="JOSM"/>
    <tag k="highway" v="footway"/>
  </node>
  <node id="94236764" version="3" timestamp="2008-11-23T12:57:04Z" uid="29765" user="Glg11" changeset="783998" lat="51.3005701" lon="6.7521954">
    <tag k="created_by" v="JOSM"/>
  </node>
  <node id="94236764" version="4" timestamp="2009-11-11T18:30:45Z" uid="105462" user="Weide" changeset="3092490" lat="51.3005701" lon="6.7521954"/>
  <node id="94230211" version="7" timestamp="2012-05-05T14:53:50Z" uid="229489" user="jasonez" changeset="11508723" lat="43.0846258" lon="-5.2179156">
    <tag k="mountain_pass" v="yes"/>
    <tag k="name" v="Puerto de Tarna"/>
    <tag k="name:ast" v="Puertu de Tarna"/>
    <tag k="wikipedia" v="http://es.wikipedia.org/wiki/Puerto_de_Tarna"/>
  </node>
  <node id="94230211" version="8" timestamp="2012-07-15T16:50:47Z" uid="722137" user="OSMF Redaction Account" changeset="12232362" lat="43.0846258" lon="-5.2179156">
    <tag k="mountain_pass" v="yes"/>
    <tag k="name" v="Puerto de Tarna"/>
    <tag k="name:ast" v="Puertu de Tarna"/>
  </node>
  <node id="94236764" version="5" timestamp="2012-08-24T17:10:38Z" uid="99332" user="ekuester" changeset="12847465" lat="51.3005497" lon="6.7522053"/>
</osm>
