<?xml version='1.0' encoding='UTF-8'?>
<osm version="0.6" generator="libosmium/2.20.0">
  <node id="945363867" version="1" timestamp="2010-10-11T20:01:47Z" uid="20587" user="balrog-kun" changeset="6015517" lat="56.3493988" lon="30.5133095">
    <tag k="amenity" v="university"/>
    <tag k="name" v="Aкадемия физической культуры"/>
    <tag k="official_name" v="Великолукская государственная академия физической культуры и спорта"/>
    <tag k="source" v="wikipedia"/>
    <tag k="wikipedia" v="ru:Великолукская государственная академия физической культуры"/>
  </node>
  <node id="945363867" version="2" timestamp="2010-11-03T15:02:33Z" uid="366193" user="sergvl" changeset="6276786" lat="56.3500783" lon="30.5127855">
    <tag k="amenity" v="university"/>
    <tag k="name" v="Aкадемия физической культуры"/>
    <tag k="official_name" v="Великолукская государственная академия физической культуры и спорта"/>
    <tag k="source" v="wikipedia"/>
    <tag k="wikipedia" v="ru:Великолукская государственная академия физической культуры"/>
  </node>
  <node id="945363873" version="1" timestamp="2010-10-11T20:01:47Z" uid="20587" user="balrog-kun" changeset="6015517" lat="56.3417543" lon="30.509923">
    <tag k="historic" v="ruins"/>
    <tag k="wikipedia" v="ru:Великолукская крепость"/>
  </node>
  <node id="945363877" version="1" timestamp="2010-10-11T20:01:47Z" uid="20587" user="balrog-kun" changeset="6015517" lat="56.3214125" lon="30.5154013">
    <tag k="amenity" v="astronomic_observatory"/>
    <tag k="name" v="Aстрономическая обсерватория"/>
    <tag k="ref" v="C00"/>
    <tag k="source" v="wikipedia"/>
    <tag k="wikipedia" v="ru:Обсерватория Великие Луки"/>
  </node>
  <node id="945363877" version="2" timestamp="2012-01-16T16:38:03Z" uid="78656" user="Walter Schlögl" changeset="10409659" lat="56.3214125" lon="30.5154013">
    <tag k="man_made" v="observatory"/>
    <tag k="name" v="Aстрономическая обсерватория"/>
    <tag k="observatory:type" v="astronomical"/>
    <tag k="ref" v="C00"/>
    <tag k="source" v="wikipedia"/>
    <tag k="wikipedia" v="ru:Обсерватория Великие Луки"/>
  </node>
</osm>
