<?xml version='1.0' encoding='UTF-8'?>
<osm version="0.6" generator="libosmium/2.20.0">
  <node id="94772751" version="2" timestamp="2008-06-27T18:25:11Z" uid="6975" user="ulfl" changeset="313873" lat="49.4529068" lon="11.0914846">
    <tag k="amenity" v="place_of_worship"/>
    <tag k="created_by" v="JOSM"/>
    <tag k="denomination" v="jehovahs_witness"/>
    <tag k="name" v="Kirche Jesu Christi"/>
    <tag k="religion" v="christian"/>
  </node>
  <node id="94772751" version="3" timestamp="2008-06-27T18:27:42Z" uid="6975" user="ulfl" changeset="313873" lat="49.4529068" lon="11.0914846">
    <tag k="amenity" v="place_of_worship"/>
    <tag k="created_by" v="JOSM"/>
    <tag k="denomination" v="mormon"/>
    <tag k="name" v="Kirche Jesu Christi"/>
    <tag k="religion" v="christian"/>
  </node>
  <node id="94772751" version="4" timestamp="2010-08-31T05:00:53Z" uid="238266" user="bangla" changeset="5642164" lat="49.4529068" lon="11.0914846">
    <tag k="amenity" v="place_of_worship"/>
    <tag k="denomination" v="mormon"/>
    <tag k="name" v="Kirche Jesu Christi"/>
    <tag k="religion" v="christian"/>
  </node>
  <node id="94772751" version="5" timestamp="2011-11-03T12:37:44Z" uid="346758" user="kukuk" changeset="9730051" lat="49.4529068" lon="11.0914846"/>
  <node id="94777053" version="3" timestamp="2009-12-02T03:04:05Z" uid="200463" user="harmagedon" changeset="3269195" lat="47.7807083" lon="12.3242543"/>
</osm>
