<?xml version='1.0' encoding='UTF-8'?>
<osm version="0.6" generator="libosmium/2.20.0">
  <node id="9494075" version="1" timestamp="2007-10-06T17:09:06Z" uid="8328" user="benpre" changeset="48647" lat="43.5401121" lon="1.4818475">
    <tag k="created_by" v="JOSM"/>
  </node>
  <node id="9494156" version="1" timestamp="2007-10-06T17:31:50Z" uid="8328" user="benpre" changeset="48647" lat="43.516677" lon="1.4997283">
    <tag k="created_by" v="JOSM"/>
  </node>
  <node id="9494157" version="1" timestamp="2007-10-06T17:31:50Z" uid="8328" user="benpre" changeset="48647" lat="43.517109" lon="1.5010242">
    <tag k="created_by" v="JOSM"/>
  </node>
  <node id="9497273" version="1" timestamp="2007-06-14T11:57:33Z" uid="8328" user="benpre" changeset="95336" lat="48.7842453" lon="9.1820739">
    <tag k="created_by" v="JOSM"/>
    <tag k="is_in" v="Baden-Württemberg, Germany, Deutschland"/>
    <tag k="name" v="Stuttgart HBF"/>
    <tag k="railway" v="station"/>
  </node>
  <node id="9497273" version="2" timestamp="2007-10-13T14:53:07Z" uid="1185" user="dankarran" changeset="141949" lat="48.7841633" lon="9.1821559">
    <tag k="created_by" v="JOSM"/>
    <tag k="is_in" v="Baden-Württemberg, Germany, Deutschland"/>
    <tag k="name" v="Stuttgart HBF"/>
    <tag k="railway" v="station"/>
  </node>
  <node id="9497273" version="3" timestamp="2007-10-30T22:13:50Z" uid="5760" user="dekarl" changeset="362246" lat="48.7841633" lon="9.1821559">
    <tag k="is_in" v="Baden-Württemberg, Germany, Deutschland"/>
    <tag k="name" v="Stuttgart HBF"/>
    <tag k="railway" v="station"/>
    <tag k="uic_ref" v="8000096"/>
  </node>
  <node id="9497273" version="4" timestamp="2008-06-22T20:14:22Z" uid="44971" user="LayBack" changeset="264543" lat="48.7841633" lon="9.1821559">
    <tag k="is_in" v="Baden-Württemberg, Germany, Deutschland"/>
    <tag k="name" v="Stuttgart Hbf"/>
    <tag k="railway" v="station"/>
    <tag k="uic_ref" v="8000096"/>
  </node>
  <node id="9497273" version="5" timestamp="2008-09-03T18:05:17Z" uid="28556" user="cycleP" changeset="511415" lat="48.7841633" lon="9.1821559">
    <tag k="is_in" v="Baden-Württemberg, Germany, Deutschland"/>
    <tag k="name" v="Stuttgart Hbf"/>
    <tag k="railway" v="station"/>
    <tag k="uic_ref" v="8000096"/>
  </node>
  <node id="9497273" version="6" timestamp="2008-09-03T19:02:49Z" uid="28556" user="cycleP" changeset="511415" lat="48.7839304" lon="9.1820517">
    <tag k="is_in" v="Baden-Württemberg, Germany, Deutschland"/>
    <tag k="name" v="Stuttgart Hbf"/>
    <tag k="railway" v="station"/>
    <tag k="uic_ref" v="8000096"/>
  </node>
  <node id="9497273" version="7" timestamp="2009-07-30T05:27:45Z" uid="55462" user="Lübeck" changeset="1981402" lat="48.7839148" lon="9.1819045">
    <tag k="is_in" v="Baden-Württemberg, Germany, Deutschland"/>
    <tag k="name" v="Stuttgart Hbf"/>
    <tag k="railway" v="station"/>
    <tag k="uic_ref" v="8000096"/>
  </node>
  <node id="9497273" version="8" timestamp="2010-02-23T19:08:28Z" uid="196920" user="findus05" changeset="3957208" lat="48.7839148" lon="9.1819045">
    <tag k="TMC:cid_58:tabcd_1:LocationCode" v="26329"/>
    <tag k="is_in" v="Baden-Württemberg, Germany, Deutschland"/>
    <tag k="name" v="Stuttgart Hbf"/>
    <tag k="railway" v="station"/>
    <tag k="uic_ref" v="8000096"/>
  </node>
  <node id="9497273" version="9" timestamp="2010-02-24T10:13:45Z" uid="218283" user="TMCbot" changeset="3961501" lat="48.7839148" lon="9.1819045">
    <tag k="TMC:cid_58:tabcd_1:Class" v="Area"/>
    <tag k="TMC:cid_58:tabcd_1:LCLversion" v="9.00"/>
    <tag k="TMC:cid_58:tabcd_1:LocationCode" v="26329"/>
    <tag k="is_in" v="Baden-Württemberg, Germany, Deutschland"/>
    <tag k="name" v="Stuttgart Hbf"/>
    <tag k="railway" v="station"/>
    <tag k="uic_ref" v="8000096"/>
  </node>
  <node id="9497273" version="10" timestamp="2010-10-07T12:17:52Z" uid="12973" user="MattGPS" changeset="5977646" lat="48.7837337" lon="9.181704">
    <tag k="TMC:cid_58:tabcd_1:Class" v="Area"/>
    <tag k="TMC:cid_58:tabcd_1:LCLversion" v="9.00"/>
    <tag k="TMC:cid_58:tabcd_1:LocationCode" v="26329"/>
    <tag k="is_in" v="Baden-Württemberg, Germany, Deutschland"/>
    <tag k="name" v="Stuttgart Hbf"/>
    <tag k="railway" v="station"/>
    <tag k="uic_ref" v="8000096"/>
  </node>
  <node id="9497273" version="11" timestamp="2011-10-02T18:37:29Z" uid="290680" user="wheelmap_visitor" changeset="9447804" lat="48.7837337" lon="9.181704">
    <tag k="TMC:cid_58:tabcd_1:Class" v="Area"/>
    <tag k="TMC:cid_58:tabcd_1:LCLversion" v="9.00"/>
    <tag k="TMC:cid_58:tabcd_1:LocationCode" v="26329"/>
    <tag k="is_in" v="Baden-Württemberg, Germany, Deutschland"/>
    <tag k="name" v="Stuttgart Hbf"/>
    <tag k="railway" v="station"/>
    <tag k="uic_ref" v="8000096"/>
    <tag k="wheelchair" v="limited"/>
  </node>
  <node id="9497273" version="12" timestamp="2012-02-16T20:55:26Z" uid="20938" user="Loth" changeset="10705471" lat="48.7837337" lon="9.181704"/>
</osm>
