<?xml version='1.0' encoding='UTF-8'?>
<osm version="0.6" generator="libosmium/2.20.0">
  <node id="954860988" version="1" timestamp="2010-10-17T18:09:14Z" uid="49111" user="Markus B" changeset="6069930" lat="49.647355" lon="11.4000396">
    <tag k="ele" v="570"/>
    <tag k="name" v="Kuppenloch"/>
    <tag k="natural" v="cave_entrance"/>
    <tag k="note" v="Kuppelhöhle, 25x18m"/>
  </node>
  <node id="954860988" version="2" timestamp="2010-10-17T20:56:57Z" uid="49111" user="Markus B" changeset="6071867" lat="49.647355" lon="11.4000396">
    <tag k="alt:NHN" v="570"/>
    <tag k="ele" v="570"/>
    <tag k="name" v="Kuppenloch"/>
    <tag k="natural" v="cave_entrance"/>
    <tag k="note" v="Kuppelhöhle, 25x18m"/>
  </node>
  <node id="954860988" version="3" timestamp="2010-10-31T19:18:13Z" uid="87723" user="Shiega" changeset="6244941" lat="49.6472996" lon="11.3991732">
    <tag k="alt:NHN" v="570"/>
    <tag k="ele" v="570"/>
    <tag k="name" v="Kuppenloch"/>
    <tag k="natural" v="cave_entrance"/>
    <tag k="note" v="Kuppelhöhle, 25x18m"/>
  </node>
  <node id="954860988" version="4" timestamp="2011-06-06T18:13:47Z" uid="41113" user="cycling_zno" changeset="8362808" lat="49.6472996" lon="11.3991732">
    <tag k="alt:NHN" v="570"/>
    <tag k="cave:ref" v="D027"/>
    <tag k="ele" v="570"/>
    <tag k="name" v="Kuppenloch"/>
    <tag k="natural" v="cave_entrance"/>
    <tag k="note" v="Kuppelhöhle, 25x18m"/>
  </node>
</osm>
