<?xml version='1.0' encoding='UTF-8'?>
<osm version="0.6" generator="libosmium/2.20.0">
  <node id="968356151" version="2" timestamp="2011-02-16T11:30:09Z" uid="4467" user="Rosscoe" changeset="7302936" lat="-37.8079469" lon="144.9605334">
    <tag k="name" v="Drummond Golf"/>
    <tag k="shop" v="sports"/>
  </node>
  <node id="968356234" version="2" timestamp="2011-02-16T11:29:36Z" uid="4467" user="Rosscoe" changeset="7302936" lat="-37.8078854" lon="144.9607428">
    <tag k="amenity" v="parking"/>
    <tag k="name" v="58 Franklin Street Car Park"/>
  </node>
  <node id="968356576" version="2" timestamp="2011-02-16T11:28:54Z" uid="4467" user="Rosscoe" changeset="7302936" lat="-37.8078376" lon="144.9609623">
    <tag k="amenity" v="car_rental"/>
    <tag k="name" v="Aussie Rent-a-car"/>
    <tag k="phone" v="+61396503000"/>
    <tag k="website" v="http://www.aussierentacar.com.au/"/>
  </node>
  <node id="968356670" version="2" timestamp="2011-02-16T11:29:05Z" uid="4467" user="Rosscoe" changeset="7302936" lat="-37.8077495" lon="144.9612332">
    <tag k="amenity" v="cafe"/>
    <tag k="name" v="Melba Café"/>
  </node>
  <node id="968357495" version="2" timestamp="2011-02-16T11:29:07Z" uid="4467" user="Rosscoe" changeset="7302936" lat="-37.8089278" lon="144.9633013">
    <tag k="amenity" v="cafe"/>
    <tag k="name" v="Druids Cafe"/>
  </node>
  <node id="968357583" version="2" timestamp="2011-02-16T11:29:51Z" uid="4467" user="Rosscoe" changeset="7302936" lat="-37.8090347" lon="144.9633618">
    <tag k="name" v="FoodWorks"/>
    <tag k="shop" v="convenience"/>
  </node>
  <node id="968356151" version="3" timestamp="2012-07-19T11:55:15Z" uid="722137" user="OSMF Redaction Account" changeset="12323225" lat="-37.808008" lon="144.960568">
    <tag k="name" v="Drummond Golf"/>
    <tag k="shop" v="sports"/>
  </node>
  <node id="968356234" version="3" timestamp="2012-07-19T11:55:16Z" uid="722137" user="OSMF Redaction Account" changeset="12323225" lat="-37.807924" lon="144.960755">
    <tag k="amenity" v="parking"/>
    <tag k="name" v="58 Franklin Street Car Park"/>
  </node>
  <node id="968356576" version="3" timestamp="2012-07-19T11:55:16Z" uid="722137" user="OSMF Redaction Account" changeset="12323225" lat="-37.807881" lon="144.961001">
    <tag k="amenity" v="car_rental"/>
    <tag k="name" v="Aussie Rent-a-car"/>
    <tag k="phone" v="+61396503000"/>
    <tag k="website" v="http://www.aussierentacar.com.au/"/>
  </node>
  <node id="968356670" version="3" timestamp="2012-07-19T11:55:17Z" uid="722137" user="OSMF Redaction Account" changeset="12323225" lat="-37.807809" lon="144.96128">
    <tag k="amenity" v="cafe"/>
    <tag k="name" v="Melba Café"/>
  </node>
  <node id="968357495" version="3" timestamp="2012-07-19T11:55:09Z" uid="722137" user="OSMF Redaction Account" changeset="12323204" lat="-37.808894" lon="144.963401">
    <tag k="amenity" v="cafe"/>
    <tag k="name" v="Druids Cafe"/>
  </node>
  <node id="968357583" version="3" timestamp="2012-07-19T11:55:08Z" uid="722137" user="OSMF Redaction Account" changeset="12323204" lat="-37.809017" lon="144.963433">
    <tag k="name" v="FoodWorks"/>
    <tag k="shop" v="convenience"/>
  </node>
</osm>
