<?xml version='1.0' encoding='UTF-8'?>
<osm version="0.6" generator="libosmium/2.20.0">
  <node id="98014134" version="2" timestamp="2008-05-29T17:57:40Z" uid="40373" user="Daguru" changeset="549382" lat="51.6496847" lon="7.3198084">
    <tag k="created_by" v="dk3qu"/>
  </node>
  <node id="98014268" version="2" timestamp="2008-05-29T17:57:42Z" uid="40373" user="Daguru" changeset="549382" lat="51.6498608" lon="7.3179328">
    <tag k="created_by" v="dk3qu"/>
  </node>
  <node id="98014271" version="2" timestamp="2008-05-29T17:57:42Z" uid="40373" user="Daguru" changeset="549382" lat="51.6497618" lon="7.3177129">
    <tag k="created_by" v="dk3qu"/>
  </node>
  <node id="98014283" version="2" timestamp="2008-05-29T17:57:41Z" uid="40373" user="Daguru" changeset="549382" lat="51.6499009" lon="7.321636">
    <tag k="created_by" v="dk3qu"/>
  </node>
  <node id="98014487" version="2" timestamp="2008-05-29T17:57:41Z" uid="40373" user="Daguru" changeset="549382" lat="51.6497109" lon="7.3198035">
    <tag k="created_by" v="dk3qu"/>
  </node>
  <node id="98014489" version="2" timestamp="2008-05-29T17:57:40Z" uid="40373" user="Daguru" changeset="549382" lat="51.64943" lon="7.3174471">
    <tag k="created_by" v="dk3qu"/>
  </node>
  <node id="98014491" version="2" timestamp="2008-05-29T17:57:41Z" uid="40373" user="Daguru" changeset="549382" lat="51.6499193" lon="7.3216195">
    <tag k="created_by" v="dk3qu"/>
  </node>
  <node id="98016458" version="4" timestamp="2010-03-06T21:49:03Z" uid="6975" user="ulfl" changeset="4055252" lat="48.3834802" lon="7.2574933">
    <tag k="ele" v="961"/>
    <tag k="mountain_pass" v="yes"/>
    <tag k="name" v="Col de la Charbonnière"/>
    <tag k="wikipedia" v="http://fr.wikipedia.org/wiki/Col_de_la_Charbonni%C3%A8re"/>
  </node>
  <node id="98016458" version="5" timestamp="2010-03-12T10:12:42Z" uid="107257" user="FrViPofm" changeset="4104781" lat="48.3834802" lon="7.2574933">
    <tag k="ele" v="961"/>
    <tag k="mountain_pass" v="yes"/>
    <tag k="name" v="Col de la Charbonnière"/>
    <tag k="wikipedia:fr" v="Col de la Charbonnière"/>
  </node>
  <node id="98016458" version="6" timestamp="2011-12-29T08:13:45Z" uid="200426" user="gottferdom" changeset="10232825" lat="48.3834698" lon="7.2576672">
    <tag k="ele" v="961"/>
    <tag k="mountain_pass" v="yes"/>
    <tag k="name" v="Col de la Charbonnière"/>
    <tag k="wikipedia:fr" v="Col de la Charbonnière"/>
  </node>
  <node id="98017292" version="2" timestamp="2008-09-30T09:59:11Z" uid="1066" user="pavel" changeset="720911" lat="49.3673543" lon="16.3422528">
    <tag k="is_in" v="Czech Republic, Europe"/>
    <tag k="name" v="Horní Loučky"/>
    <tag k="place" v="village"/>
  </node>
  <node id="98017292" version="3" timestamp="2008-11-04T13:15:33Z" uid="308" user="MichaelCollinson" changeset="676656" lat="49.3673543" lon="16.3422528">
    <tag k="is_in" v="Czech Republic, Europe"/>
    <tag k="is_in:continent" v="Europe"/>
    <tag k="is_in:country_code" v="cz"/>
    <tag k="name" v="Horní Loučky"/>
    <tag k="place" v="village"/>
  </node>
  <node id="98017292" version="4" timestamp="2012-01-22T19:48:22Z" uid="536216" user="uir-zsj" changeset="10468923" lat="49.3673543" lon="16.3422528"/>
  <node id="98017294" version="2" timestamp="2008-09-30T10:22:18Z" uid="1066" user="pavel" changeset="720911" lat="49.3606283" lon="16.355782">
    <tag k="is_in" v="Czech Republic, Europe"/>
    <tag k="name" v="Dolní Loučky"/>
    <tag k="place" v="village"/>
  </node>
  <node id="98017294" version="3" timestamp="2008-11-04T13:15:33Z" uid="308" user="MichaelCollinson" changeset="676656" lat="49.3606283" lon="16.355782">
    <tag k="is_in" v="Czech Republic, Europe"/>
    <tag k="is_in:continent" v="Europe"/>
    <tag k="is_in:country_code" v="cz"/>
    <tag k="name" v="Dolní Loučky"/>
    <tag k="place" v="village"/>
  </node>
  <node id="98017294" version="4" timestamp="2012-01-22T19:48:22Z" uid="536216" user="uir-zsj" changeset="10468923" lat="49.3606283" lon="16.355782"/>
  <node id="98017649" version="2" timestamp="2008-08-14T18:54:46Z" uid="6975" user="ulfl" changeset="264731" lat="51.7991868" lon="-0.074819">
    <tag k="amenity" v="place_of_worship"/>
    <tag k="denomination" v="catholic"/>
    <tag k="name" v="Catholic Church of the Immaculate Conception and St Joseph"/>
    <tag k="religion" v="christian"/>
  </node>
  <node id="98017649" version="3" timestamp="2012-01-13T20:28:13Z" uid="5926" user="c2r" changeset="10381958" lat="51.7991868" lon="-0.074819"/>
  <node id="98016458" version="7" timestamp="2012-08-13T10:54:48Z" uid="67862" user="HolgerJeromin" changeset="12711284" lat="48.3834698" lon="7.2576672">
    <tag k="ele" v="961"/>
    <tag k="mountain_pass" v="yes"/>
    <tag k="name" v="Col de la Charbonnière"/>
    <tag k="wikipedia" v="fr:Col de la Charbonnière"/>
  </node>
</osm>
