<?xml version='1.0' encoding='UTF-8'?>
<osm version="0.6" generator="libosmium/2.20.0">
  <node id="987469892" version="2" timestamp="2011-01-06T11:28:54Z" uid="6269" user="Mueck" changeset="6881020" lat="53.5224027" lon="8.5899586">
    <tag k="highway" v="bus_stop"/>
    <tag k="name" v="Geestemünde-Süd"/>
    <tag k="public_transport" v="stop_position"/>
    <tag k="stop_ID" v="51601"/>
    <tag k="type" v="public_transport"/>
  </node>
  <node id="987469892" version="3" timestamp="2011-01-06T11:37:44Z" uid="6269" user="Mueck" changeset="6881124" lat="53.5221649" lon="8.5898363">
    <tag k="highway" v="bus_stop"/>
    <tag k="name" v="Geestemünde-Süd"/>
    <tag k="public_transport" v="stop_position"/>
    <tag k="stop_ID" v="51601"/>
    <tag k="type" v="public_transport"/>
  </node>
  <node id="987469892" version="4" timestamp="2011-03-14T23:22:30Z" uid="160164" user="mahau" changeset="7562225" lat="53.5221628" lon="8.5898684">
    <tag k="highway" v="bus_stop"/>
    <tag k="name" v="Geestemünde-Süd"/>
    <tag k="public_transport" v="stop_position"/>
    <tag k="stop_ID" v="51601"/>
    <tag k="type" v="public_transport"/>
  </node>
  <node id="987469893" version="2" timestamp="2010-12-19T21:41:05Z" uid="6269" user="Mueck" changeset="6711092" lat="53.5204295" lon="8.587938">
    <tag k="highway" v="bus_stop"/>
    <tag k="name" v="Schaufenster Fischereihafen"/>
    <tag k="public_transport" v="stop_position"/>
    <tag k="stop_ID" v="80101"/>
    <tag k="type" v="public_transport"/>
  </node>
  <node id="987469893" version="3" timestamp="2011-03-14T23:20:46Z" uid="160164" user="mahau" changeset="7562225" lat="53.5204475" lon="8.5879255">
    <tag k="highway" v="bus_stop"/>
    <tag k="name" v="Schaufenster Fischereihafen"/>
    <tag k="public_transport" v="stop_position"/>
    <tag k="stop_ID" v="80101"/>
    <tag k="type" v="public_transport"/>
  </node>
</osm>
