<?xml version='1.0' encoding='UTF-8'?>
<osm version="0.6" generator="libosmium/2.20.0">
  <node id="988497936" version="2" timestamp="2011-03-13T15:38:10Z" uid="4467" user="Rosscoe" changeset="7546455" lat="-37.8537108" lon="144.98268">
    <tag k="amenity" v="school"/>
    <tag k="name" v="Wesley College, Melbourne (St Kilda Road Campus)"/>
    <tag k="phone" v="+61 3 81026888"/>
    <tag k="undefined" v="Middle and Senior Schools are located at 577 St Kilda Road"/>
    <tag k="website" v="http://www.wesleycollege.net"/>
  </node>
  <node id="988499359" version="2" timestamp="2011-03-13T15:42:59Z" uid="4467" user="Rosscoe" changeset="7546535" lat="-37.8898563" lon="145.0097919">
    <tag k="amenity" v="school"/>
    <tag k="name" v="Wesley College, Melbourne (Elsternwick Campus)"/>
    <tag k="phone" v="+61 3 81026888"/>
    <tag k="website" v="http://www.wesleycollege.net"/>
  </node>
  <node id="988497936" version="3" timestamp="2012-07-19T11:58:49Z" uid="722137" user="OSMF Redaction Account" changeset="12323357" lat="-37.8537108" lon="144.98268"/>
  <node id="988499359" version="3" timestamp="2012-07-20T01:03:31Z" uid="722137" user="OSMF Redaction Account" changeset="12354147" lat="-37.8898563" lon="145.0097919"/>
</osm>
