<?xml version='1.0' encoding='UTF-8'?>
<osm version="0.6" generator="libosmium/2.20.0">
  <node id="989081344" version="3" timestamp="2011-01-04T23:36:05Z" uid="6269" user="Mueck" changeset="6866319" lat="53.5877608" lon="8.6131909">
    <tag k="highway" v="bus_stop"/>
    <tag k="name" v="Hans-Böckler-Straße Bad 1"/>
    <tag k="public_transport" v="stop_position"/>
    <tag k="stop_ID" v="21405"/>
    <tag k="type" v="public_transport"/>
  </node>
  <node id="989081352" version="3" timestamp="2011-01-04T23:36:02Z" uid="6269" user="Mueck" changeset="6866319" lat="53.5898622" lon="8.6097145">
    <tag k="highway" v="bus_stop"/>
    <tag k="name" v="Kurt-Schumacher-Straße"/>
    <tag k="public_transport" v="stop_position"/>
    <tag k="stop_ID" v="21506"/>
    <tag k="type" v="public_transport"/>
  </node>
  <node id="989081354" version="3" timestamp="2011-01-04T00:35:48Z" uid="6269" user="Mueck" changeset="6856599" lat="53.588872" lon="8.5973534">
    <tag k="highway" v="bus_stop"/>
    <tag k="name" v="Parkstraße"/>
    <tag k="public_transport" v="stop_position"/>
    <tag k="stop_ID" v="15106"/>
    <tag k="type" v="public_transport"/>
  </node>
  <node id="989081357" version="2" timestamp="2011-01-04T00:35:46Z" uid="6269" user="Mueck" changeset="6856599" lat="53.5884734" lon="8.5965737">
    <tag k="highway" v="bus_stop"/>
    <tag k="name" v="Parkstraße"/>
    <tag k="public_transport" v="stop_position"/>
    <tag k="stop_ID" v="15102"/>
    <tag k="type" v="public_transport"/>
  </node>
  <node id="989081365" version="3" timestamp="2011-01-04T23:35:59Z" uid="6269" user="Mueck" changeset="6866319" lat="53.5898208" lon="8.609758">
    <tag k="highway" v="bus_stop"/>
    <tag k="name" v="Kurt-Schumacher-Straße"/>
    <tag k="public_transport" v="stop_position"/>
    <tag k="stop_ID" v="21501"/>
    <tag k="type" v="public_transport"/>
  </node>
  <node id="989081369" version="2" timestamp="2011-01-04T23:36:04Z" uid="6269" user="Mueck" changeset="6866319" lat="53.5878659" lon="8.6135552">
    <tag k="highway" v="bus_stop"/>
    <tag k="name" v="Hans-Böckler-Straße Bad 1"/>
    <tag k="public_transport" v="stop_position"/>
    <tag k="stop_ID" v="21401"/>
    <tag k="type" v="public_transport"/>
  </node>
  <node id="989081375" version="3" timestamp="2010-12-17T00:43:23Z" uid="6269" user="Mueck" changeset="6683028" lat="53.5862685" lon="8.5906066">
    <tag k="highway" v="bus_stop"/>
    <tag k="name" v="Parktor"/>
    <tag k="public_transport" v="stop_position"/>
    <tag k="stop_ID" v="15201"/>
    <tag k="type" v="public_transport"/>
  </node>
  <node id="989081344" version="4" timestamp="2012-07-17T10:14:45Z" uid="722137" user="OSMF Redaction Account" changeset="12262730" lat="53.5877907" lon="8.6131808">
    <tag k="highway" v="bus_stop"/>
    <tag k="name" v="Hans-Böckler-Straße Bad 1"/>
    <tag k="public_transport" v="stop_position"/>
    <tag k="stop_ID" v="21405"/>
    <tag k="type" v="public_transport"/>
  </node>
  <node id="989081352" version="4" timestamp="2012-07-17T10:14:58Z" uid="722137" user="OSMF Redaction Account" changeset="12262745" lat="53.5898622" lon="8.6097802">
    <tag k="highway" v="bus_stop"/>
    <tag k="name" v="Kurt-Schumacher-Straße"/>
    <tag k="public_transport" v="stop_position"/>
    <tag k="stop_ID" v="21506"/>
    <tag k="type" v="public_transport"/>
  </node>
  <node id="989081352" version="5" timestamp="2012-07-22T19:13:37Z" uid="61005" user="nkbre" changeset="12438134" lat="53.5898516" lon="8.6097321">
    <tag k="highway" v="bus_stop"/>
    <tag k="name" v="Kurt-Schumacher-Straße"/>
    <tag k="public_transport" v="stop_position"/>
    <tag k="stop_ID" v="21506"/>
    <tag k="type" v="public_transport"/>
  </node>
  <node id="989081354" version="4" timestamp="2012-07-17T10:14:54Z" uid="722137" user="OSMF Redaction Account" changeset="12262745" lat="53.5888822" lon="8.597403">
    <tag k="highway" v="bus_stop"/>
    <tag k="name" v="Parkstraße"/>
    <tag k="public_transport" v="stop_position"/>
    <tag k="stop_ID" v="15106"/>
    <tag k="type" v="public_transport"/>
  </node>
  <node id="989081357" version="3" timestamp="2012-07-17T10:14:51Z" uid="722137" user="OSMF Redaction Account" changeset="12262730" lat="53.5884853" lon="8.5965737">
    <tag k="highway" v="bus_stop"/>
    <tag k="name" v="Parkstraße"/>
    <tag k="public_transport" v="stop_position"/>
    <tag k="stop_ID" v="15102"/>
    <tag k="type" v="public_transport"/>
  </node>
  <node id="989081365" version="4" timestamp="2012-07-17T10:14:58Z" uid="722137" user="OSMF Redaction Account" changeset="12262745" lat="53.5898358" lon="8.6098077">
    <tag k="highway" v="bus_stop"/>
    <tag k="name" v="Kurt-Schumacher-Straße"/>
    <tag k="public_transport" v="stop_position"/>
    <tag k="stop_ID" v="21501"/>
    <tag k="type" v="public_transport"/>
  </node>
  <node id="989081365" version="5" timestamp="2012-07-22T19:13:37Z" uid="61005" user="nkbre" changeset="12438134" lat="53.5898252" lon="8.6097596">
    <tag k="highway" v="bus_stop"/>
    <tag k="name" v="Kurt-Schumacher-Straße"/>
    <tag k="public_transport" v="stop_position"/>
    <tag k="stop_ID" v="21501"/>
    <tag k="type" v="public_transport"/>
  </node>
  <node id="989081369" version="3" timestamp="2012-07-17T10:14:46Z" uid="722137" user="OSMF Redaction Account" changeset="12262730" lat="53.5879285" lon="8.6134234">
    <tag k="highway" v="bus_stop"/>
    <tag k="name" v="Hans-Böckler-Straße Bad 1"/>
    <tag k="public_transport" v="stop_position"/>
    <tag k="stop_ID" v="21401"/>
    <tag k="type" v="public_transport"/>
  </node>
  <node id="989081375" version="4" timestamp="2012-07-17T10:14:36Z" uid="722137" user="OSMF Redaction Account" changeset="12262730" lat="53.586317" lon="8.5905299">
    <tag k="highway" v="bus_stop"/>
    <tag k="name" v="Parktor"/>
    <tag k="public_transport" v="stop_position"/>
    <tag k="stop_ID" v="15201"/>
    <tag k="type" v="public_transport"/>
  </node>
  <node id="989081375" version="5" timestamp="2012-08-05T21:54:39Z" uid="161619" user="FvGordon" changeset="12626872" lat="53.5862217" lon="8.590569">
    <tag k="highway" v="bus_stop"/>
    <tag k="name" v="Parktor"/>
    <tag k="public_transport" v="stop_position"/>
    <tag k="stop_ID" v="15201"/>
    <tag k="type" v="public_transport"/>
  </node>
</osm>
