<?xml version='1.0' encoding='UTF-8'?>
<osm version="0.6" generator="libosmium/2.20.0">
  <node id="99050535" version="2" timestamp="2008-02-16T20:08:17Z" uid="6975" user="ulfl" changeset="141861" lat="46.7965564" lon="-71.2530159">
    <tag k="amenity" v="hospital"/>
    <tag k="name" v="H么pital Jeffrey-Hale"/>
  </node>
  <node id="99050535" version="3" timestamp="2012-01-19T11:50:16Z" uid="589901" user="silleryjct" changeset="10436286" lat="46.7965564" lon="-71.2530159">
    <tag k="amenity" v="hospital"/>
    <tag k="designation" v="English Language Service"/>
    <tag k="emergency" v="yes"/>
    <tag k="name" v="H么pital Jeffrey-Hale"/>
  </node>
  <node id="99055378" version="2" timestamp="2008-02-16T20:08:17Z" uid="6975" user="ulfl" changeset="141861" lat="46.7995824" lon="-71.2464842">
    <tag k="amenity" v="hospital"/>
    <tag k="name" v="H么pital Saint-Sacrement"/>
  </node>
  <node id="99050535" version="4" timestamp="2012-05-06T12:25:26Z" uid="595246" user="Bruno Remy" changeset="11517843" lat="46.7965546" lon="-71.2530136">
    <tag k="amenity" v="hospital"/>
    <tag k="designation" v="English Language Service"/>
    <tag k="emergency" v="yes"/>
    <tag k="name" v="H么pital Jeffrey-Hale"/>
    <tag k="social_facility" v="healthcare"/>
  </node>
  <node id="99050535" version="5" timestamp="2012-05-21T16:58:29Z" uid="28895" user="PurpleMustang" changeset="11663863" lat="46.7965546" lon="-71.2530136"/>
  <node id="99055378" version="3" timestamp="2012-05-21T16:58:29Z" uid="28895" user="PurpleMustang" changeset="11663863" lat="46.7995824" lon="-71.2464842"/>
</osm>
