<?xml version='1.0' encoding='UTF-8'?>
<osm version="0.6" generator="libosmium/2.20.0">
  <node id="992659882" version="2" timestamp="2011-01-23T02:07:05Z" uid="6269" user="Mueck" changeset="7057261" lat="53.60865" lon="8.598978">
    <tag k="highway" v="bus_stop"/>
    <tag k="name" v="Langen Schule"/>
    <tag k="public_transport" v="stop_position"/>
    <tag k="stop_ID" v="26901"/>
    <tag k="type" v="public_transport"/>
  </node>
  <node id="992659882" version="3" timestamp="2011-01-25T22:56:32Z" uid="290680" user="wheelmap_visitor" changeset="7089190" lat="53.60865" lon="8.598978">
    <tag k="highway" v="bus_stop"/>
    <tag k="name" v="Langen Schule"/>
    <tag k="public_transport" v="stop_position"/>
    <tag k="stop_ID" v="26901"/>
    <tag k="type" v="public_transport"/>
    <tag k="wheelchair" v="yes"/>
  </node>
  <node id="992659882" version="4" timestamp="2012-03-03T01:30:08Z" uid="45882" user="smarties" changeset="10853996" lat="53.60865" lon="8.598978"/>
  <node id="992659886" version="2" timestamp="2011-01-23T02:07:04Z" uid="6269" user="Mueck" changeset="7057261" lat="53.6108838" lon="8.60926">
    <tag k="highway" v="bus_stop"/>
    <tag k="name" v="Friedhof Langen"/>
    <tag k="public_transport" v="stop_position"/>
    <tag k="stop_ID" v="26101"/>
    <tag k="type" v="public_transport"/>
  </node>
  <node id="992659886" version="3" timestamp="2012-03-03T01:30:07Z" uid="45882" user="smarties" changeset="10853996" lat="53.6108838" lon="8.60926"/>
</osm>
