<?xml version='1.0' encoding='UTF-8'?>
<osm version="0.6" generator="libosmium/2.20.0">
  <node id="993653684" version="2" timestamp="2010-12-18T17:16:32Z" uid="6269" user="Mueck" changeset="6696806" lat="53.5573818" lon="8.5850777">
    <tag k="highway" v="bus_stop"/>
    <tag k="name" v="Ernst-Reuter-Platz"/>
    <tag k="public_transport" v="stop_position"/>
    <tag k="stop_ID" v="41101"/>
    <tag k="type" v="public_transport"/>
  </node>
  <node id="993658015" version="2" timestamp="2010-12-17T11:45:59Z" uid="6269" user="Mueck" changeset="6685903" lat="53.5724698" lon="8.5964798">
    <tag k="highway" v="bus_stop"/>
    <tag k="name" v="Flötenkiel"/>
    <tag k="public_transport" v="stop_position"/>
    <tag k="stop_ID" v="15606"/>
    <tag k="type" v="public_transport"/>
  </node>
  <node id="993653684" version="3" timestamp="2012-07-17T10:12:38Z" uid="722137" user="OSMF Redaction Account" changeset="12262690" lat="53.5574431" lon="8.5851364">
    <tag k="highway" v="bus_stop"/>
    <tag k="name" v="Ernst-Reuter-Platz"/>
    <tag k="public_transport" v="stop_position"/>
    <tag k="stop_ID" v="41101"/>
    <tag k="type" v="public_transport"/>
  </node>
  <node id="993658015" version="3" timestamp="2012-07-17T10:13:53Z" uid="722137" user="OSMF Redaction Account" changeset="12262712" lat="53.5724301" lon="8.5964734">
    <tag k="highway" v="bus_stop"/>
    <tag k="name" v="Flötenkiel"/>
    <tag k="public_transport" v="stop_position"/>
    <tag k="stop_ID" v="15606"/>
    <tag k="type" v="public_transport"/>
  </node>
  <node id="993658015" version="4" timestamp="2012-07-22T11:37:04Z" uid="61005" user="nkbre" changeset="12431001" lat="53.572435" lon="8.5964845">
    <tag k="highway" v="bus_stop"/>
    <tag k="name" v="Flötenkiel"/>
    <tag k="public_transport" v="stop_position"/>
    <tag k="stop_ID" v="15606"/>
    <tag k="type" v="public_transport"/>
  </node>
</osm>
