<?xml version='1.0' encoding='UTF-8'?>
<osm version="0.6" generator="libosmium/2.20.0">
  <node id="99401806" version="6" timestamp="2009-09-30T12:51:48Z" uid="36809" user="pfoten_weg_!_" changeset="2687909" lat="48.187992" lon="11.2803345">
    <tag k="addr:city" v="Emmering"/>
    <tag k="addr:country" v="DE"/>
    <tag k="addr:housenumber" v="44"/>
    <tag k="addr:postcode" v="82275"/>
    <tag k="addr:street" v="Lantfridstraße"/>
    <tag k="name" v="Fleischmarkt"/>
    <tag k="shop" v="butcher"/>
    <tag k="url" v="http://www.fleischmarkt-emmering.de"/>
  </node>
  <node id="99401806" version="7" timestamp="2010-09-19T13:37:59Z" uid="65148" user="Pirat Michi" changeset="5819874" lat="48.187992" lon="11.2803345">
    <tag k="addr:city" v="Emmering"/>
    <tag k="addr:country" v="DE"/>
    <tag k="addr:housenumber" v="44"/>
    <tag k="addr:postcode" v="82275"/>
    <tag k="addr:street" v="Lantfridstraße"/>
    <tag k="name" v="Fleischmarkt"/>
    <tag k="shop" v="butcher"/>
    <tag k="website" v=""/>
  </node>
  <node id="99401806" version="8" timestamp="2010-09-19T13:50:48Z" uid="65148" user="Pirat Michi" changeset="5820009" lat="48.187992" lon="11.2803345">
    <tag k="addr:city" v="Emmering"/>
    <tag k="addr:country" v="DE"/>
    <tag k="addr:housenumber" v="44"/>
    <tag k="addr:postcode" v="82275"/>
    <tag k="addr:street" v="Lantfridstraße"/>
    <tag k="name" v="Fleischmarkt"/>
    <tag k="shop" v="butcher"/>
    <tag k="url" v="http://www.fleischmarkt-emmering.de"/>
  </node>
  <node id="99401806" version="9" timestamp="2010-09-19T14:19:04Z" uid="65148" user="Pirat Michi" changeset="5820274" lat="48.187992" lon="11.2803345">
    <tag k="addr:city" v="Emmering"/>
    <tag k="addr:country" v="DE"/>
    <tag k="addr:housenumber" v="44"/>
    <tag k="addr:postcode" v="82275"/>
    <tag k="addr:street" v="Lantfridstraße"/>
    <tag k="name" v="Fleischmarkt"/>
    <tag k="shop" v="butcher"/>
    <tag k="website" v="http://www.fleischmarkt-emmering.de"/>
  </node>
  <node id="99401806" version="10" timestamp="2010-09-19T14:48:28Z" uid="65148" user="Pirat Michi" changeset="5820386" lat="48.187992" lon="11.2803345">
    <tag k="addr:city" v="Emmering"/>
    <tag k="addr:country" v="DE"/>
    <tag k="addr:housenumber" v="44"/>
    <tag k="addr:postcode" v="82275"/>
    <tag k="addr:street" v="Lantfridstraße"/>
    <tag k="name" v="Fleischmarkt"/>
    <tag k="shop" v="butcher"/>
    <tag k="website" v="http://www.fleischmarkt-emmering.de"/>
  </node>
  <node id="99401812" version="8" timestamp="2009-09-30T12:51:42Z" uid="36809" user="pfoten_weg_!_" changeset="2687909" lat="48.1879007" lon="11.2800393">
    <tag k="addr:city" v="Emmering"/>
    <tag k="addr:country" v="DE"/>
    <tag k="addr:housenumber" v="44"/>
    <tag k="addr:postcode" v="82275"/>
    <tag k="addr:street" v="Lantfridstraße"/>
    <tag k="amenity" v="restaurant"/>
    <tag k="cuisine" v="italian"/>
    <tag k="name" v="San Marco"/>
  </node>
  <node id="99404345" version="3" timestamp="2008-05-01T16:20:23Z" uid="20587" user="balrog-kun" changeset="299566" lat="52.2395444" lon="20.9775565">
    <tag k="created_by" v="JOSM"/>
  </node>
  <node id="99404345" version="4" timestamp="2011-01-12T20:04:43Z" uid="165509" user="koszatek" changeset="6950971" lat="52.2395849" lon="20.9775418"/>
  <node id="99404357" version="2" timestamp="2008-05-01T16:20:23Z" uid="20587" user="balrog-kun" changeset="299566" lat="52.2392058" lon="20.9746728">
    <tag k="created_by" v="JOSM"/>
  </node>
  <node id="99404360" version="2" timestamp="2008-05-01T16:38:53Z" uid="20587" user="balrog-kun" changeset="299566" lat="52.2391393" lon="20.9712445">
    <tag k="created_by" v="JOSM"/>
  </node>
  <node id="99404360" version="3" timestamp="2009-02-28T15:20:09Z" uid="99738" user="tyrystorPL" changeset="696930" lat="52.2391393" lon="20.9712445"/>
  <node id="99404360" version="4" timestamp="2011-04-08T17:11:55Z" uid="98542" user="wajak" changeset="7805885" lat="52.2390761" lon="20.9712703"/>
  <node id="99404360" version="5" timestamp="2011-06-30T19:15:06Z" uid="477744" user="hormel" changeset="8593405" lat="52.2390761" lon="20.9712864"/>
  <node id="99404360" version="6" timestamp="2011-10-07T13:48:56Z" uid="373244" user="Tomekg" changeset="9493933" lat="52.2391049" lon="20.971209"/>
  <node id="99404362" version="2" timestamp="2008-05-01T16:38:53Z" uid="20587" user="balrog-kun" changeset="299566" lat="52.2385983" lon="20.967892">
    <tag k="created_by" v="JOSM"/>
  </node>
  <node id="99404362" version="3" timestamp="2008-11-18T20:37:27Z" uid="80534" user="Piotr_Edward" changeset="766830" lat="52.2385983" lon="20.967892"/>
  <node id="99404362" version="4" timestamp="2008-11-18T20:39:03Z" uid="80534" user="Piotr_Edward" changeset="766830" lat="52.2385983" lon="20.967892"/>
  <node id="99404362" version="5" timestamp="2011-05-23T06:29:34Z" uid="98542" user="wajak" changeset="8223399" lat="52.2386173" lon="20.9678892"/>
  <node id="99408492" version="3" timestamp="2008-05-01T16:20:23Z" uid="20587" user="balrog-kun" changeset="299566" lat="52.2398196" lon="20.9794302">
    <tag k="created_by" v="JOSM"/>
  </node>
  <node id="99408492" version="4" timestamp="2010-05-19T14:45:15Z" uid="277387" user="rogal" changeset="4748802" lat="52.2398196" lon="20.9794303"/>
  <node id="99408492" version="5" timestamp="2011-01-12T20:04:53Z" uid="165509" user="koszatek" changeset="6950971" lat="52.2398946" lon="20.9793886"/>
  <node id="99408492" version="6" timestamp="2011-01-24T14:39:57Z" uid="20587" user="balrog-kun" changeset="7073235" lat="52.2398888" lon="20.9793698"/>
  <node id="99408500" version="3" timestamp="2008-05-01T16:20:23Z" uid="20587" user="balrog-kun" changeset="299566" lat="52.2400798" lon="20.9813187">
    <tag k="created_by" v="JOSM"/>
  </node>
  <node id="99408500" version="4" timestamp="2011-01-12T20:04:39Z" uid="165509" user="koszatek" changeset="6950971" lat="52.2401578" lon="20.9812893"/>
  <node id="99408500" version="5" timestamp="2011-08-12T13:44:53Z" uid="98542" user="wajak" changeset="8996170" lat="52.2401709" lon="20.9813374"/>
  <node id="99408505" version="6" timestamp="2008-07-30T03:16:40Z" uid="20587" user="balrog-kun" changeset="629518" lat="52.2519426" lon="20.9884023">
    <tag k="created_by" v="JOSM"/>
    <tag k="highway" v="traffic_signals"/>
  </node>
  <node id="99408505" version="7" timestamp="2009-04-27T12:00:07Z" uid="20587" user="balrog-kun" changeset="989849" lat="52.251947" lon="20.9883915">
    <tag k="created_by" v="JOSM"/>
    <tag k="highway" v="traffic_signals"/>
  </node>
  <node id="99408505" version="8" timestamp="2010-11-30T17:42:34Z" uid="165509" user="koszatek" changeset="6496183" lat="52.2519523" lon="20.9883178">
    <tag k="highway" v="traffic_signals"/>
  </node>
  <node id="99408505" version="9" timestamp="2011-11-27T17:15:07Z" uid="165509" user="koszatek" changeset="9969420" lat="52.2519542" lon="20.9883336">
    <tag k="highway" v="traffic_signals"/>
  </node>
  <node id="99408507" version="2" timestamp="2008-07-30T03:16:40Z" uid="20587" user="balrog-kun" changeset="629518" lat="52.2521814" lon="20.9891594">
    <tag k="created_by" v="JOSM"/>
  </node>
  <node id="99408507" version="3" timestamp="2010-11-30T17:42:24Z" uid="165509" user="koszatek" changeset="6496183" lat="52.2521865" lon="20.989106"/>
  <node id="99408508" version="2" timestamp="2008-07-30T03:16:39Z" uid="20587" user="balrog-kun" changeset="629518" lat="52.2530509" lon="20.9909173">
    <tag k="created_by" v="JOSM"/>
  </node>
  <node id="99408508" version="3" timestamp="2009-04-27T12:00:07Z" uid="20587" user="balrog-kun" changeset="989849" lat="52.2530757" lon="20.9908858">
    <tag k="created_by" v="JOSM"/>
  </node>
  <node id="99408508" version="4" timestamp="2010-11-30T17:42:19Z" uid="165509" user="koszatek" changeset="6496183" lat="52.2531534" lon="20.9908795"/>
  <node id="99408508" version="5" timestamp="2011-11-18T12:53:20Z" uid="165509" user="koszatek" changeset="9863591" lat="52.2531553" lon="20.9909591"/>
  <node id="99408510" version="2" timestamp="2008-07-30T03:16:39Z" uid="20587" user="balrog-kun" changeset="629518" lat="52.2537692" lon="20.9929569">
    <tag k="created_by" v="JOSM"/>
  </node>
  <node id="99408510" version="3" timestamp="2010-11-30T17:42:44Z" uid="165509" user="koszatek" changeset="6496183" lat="52.2539051" lon="20.9928998"/>
  <node id="99408510" version="4" timestamp="2011-11-18T12:53:20Z" uid="165509" user="koszatek" changeset="9863591" lat="52.2538507" lon="20.9929519"/>
  <node id="99408513" version="2" timestamp="2009-04-27T12:00:07Z" uid="20587" user="balrog-kun" changeset="989849" lat="52.2540155" lon="20.9939761">
    <tag k="created_by" v="JOSM"/>
    <tag k="highway" v="crossing"/>
  </node>
  <node id="99408513" version="3" timestamp="2010-11-30T17:42:26Z" uid="165509" user="koszatek" changeset="6496183" lat="52.254066" lon="20.9940332">
    <tag k="highway" v="crossing"/>
  </node>
  <node id="99408513" version="4" timestamp="2011-11-18T12:53:20Z" uid="165509" user="koszatek" changeset="9863591" lat="52.2540285" lon="20.9939505">
    <tag k="highway" v="crossing"/>
  </node>
  <node id="99408517" version="2" timestamp="2008-07-30T03:16:39Z" uid="20587" user="balrog-kun" changeset="629518" lat="52.2538086" lon="20.9951123">
    <tag k="created_by" v="JOSM"/>
  </node>
  <node id="99408517" version="3" timestamp="2010-11-30T17:42:40Z" uid="165509" user="koszatek" changeset="6496183" lat="52.2538014" lon="20.9951296"/>
  <node id="99408517" version="4" timestamp="2011-11-26T16:01:02Z" uid="165509" user="koszatek" changeset="9957273" lat="52.2538114" lon="20.9951329"/>
  <node id="99408521" version="3" timestamp="2008-07-30T03:16:39Z" uid="20587" user="balrog-kun" changeset="629518" lat="52.2536125" lon="20.9962188">
    <tag k="created_by" v="JOSM"/>
  </node>
  <node id="99408521" version="4" timestamp="2010-11-30T17:42:33Z" uid="165509" user="koszatek" changeset="6496183" lat="52.2536629" lon="20.9962231"/>
  <node id="99408521" version="5" timestamp="2011-11-18T12:53:20Z" uid="165509" user="koszatek" changeset="9863591" lat="52.2536648" lon="20.9961649"/>
  <node id="99408521" version="6" timestamp="2011-11-26T16:01:02Z" uid="165509" user="koszatek" changeset="9957273" lat="52.2536748" lon="20.9961812"/>
  <node id="99408523" version="3" timestamp="2008-07-30T03:16:39Z" uid="20587" user="balrog-kun" changeset="629518" lat="52.2537429" lon="20.9977206">
    <tag k="created_by" v="JOSM"/>
    <tag k="highway" v="traffic_signals"/>
  </node>
  <node id="99408523" version="4" timestamp="2009-11-12T18:25:00Z" uid="20587" user="balrog-kun" changeset="3100350" lat="52.2537429" lon="20.9977206">
    <tag k="highway" v="traffic_signals"/>
    <tag k="traffic_signals:sound" v="yes"/>
  </node>
  <node id="99408523" version="5" timestamp="2010-11-30T17:42:22Z" uid="165509" user="koszatek" changeset="6496183" lat="52.2538241" lon="20.9976952">
    <tag k="highway" v="traffic_signals"/>
    <tag k="traffic_signals:sound" v="yes"/>
  </node>
  <node id="99408523" version="6" timestamp="2011-11-18T12:53:20Z" uid="165509" user="koszatek" changeset="9863591" lat="52.2538041" lon="20.9976715">
    <tag k="highway" v="traffic_signals"/>
    <tag k="traffic_signals:sound" v="yes"/>
  </node>
  <node id="99401812" version="9" timestamp="2012-07-23T16:07:26Z" uid="554744" user="Catweazle2011" changeset="12452729" lat="48.1879007" lon="11.2800393">
    <tag k="addr:city" v="Emmering"/>
    <tag k="addr:country" v="DE"/>
    <tag k="addr:housenumber" v="44"/>
    <tag k="addr:postcode" v="82275"/>
    <tag k="addr:street" v="Lantfriedstraße"/>
    <tag k="amenity" v="restaurant"/>
    <tag k="cuisine" v="italian"/>
    <tag k="name" v="Rosso Peperoncino"/>
    <tag k="website" v="rossopeperoncino.de"/>
  </node>
  <node id="99401812" version="10" timestamp="2012-07-23T16:21:09Z" uid="554744" user="Catweazle2011" changeset="12452962" lat="48.1879007" lon="11.2800393">
    <tag k="addr:city" v="Emmering"/>
    <tag k="addr:country" v="DE"/>
    <tag k="addr:housenumber" v="44"/>
    <tag k="addr:postcode" v="82275"/>
    <tag k="addr:street" v="Lantfriedstraße"/>
    <tag k="amenity" v="restaurant"/>
    <tag k="cuisine" v="italian"/>
    <tag k="name" v="Rosso Peperoncino"/>
    <tag k="operator" v="Ciro Punzo"/>
    <tag k="phone" v="08141 / 9 20 37"/>
    <tag k="website" v="rossopeperoncino.de"/>
  </node>
  <node id="99401812" version="11" timestamp="2012-07-23T16:36:13Z" uid="554744" user="Catweazle2011" changeset="12452962" lat="48.1879007" lon="11.2800393">
    <tag k="addr:city" v="Emmering"/>
    <tag k="addr:country" v="DE"/>
    <tag k="addr:housenumber" v="44"/>
    <tag k="addr:postcode" v="82275"/>
    <tag k="addr:street" v="Lantfridstraße"/>
    <tag k="amenity" v="restaurant"/>
    <tag k="cuisine" v="italian"/>
    <tag k="name" v="Rosso Peperoncino"/>
    <tag k="operator" v="Ciro Punzo"/>
    <tag k="phone" v="08141 / 9 20 37"/>
    <tag k="website" v="rossopeperoncino.de"/>
  </node>
  <node id="99404345" version="5" timestamp="2012-07-19T10:20:54Z" uid="407593" user="Polanin" changeset="12318244" lat="52.2395849" lon="20.9775418">
    <tag k="highway" v="traffic_signals"/>
  </node>
  <node id="99404360" version="7" timestamp="2012-08-09T10:45:31Z" uid="790246" user="madaky" changeset="12666971" lat="52.2391049" lon="20.971209">
    <tag k="highway" v="traffic_signals"/>
  </node>
  <node id="99408492" version="7" timestamp="2012-07-19T10:30:08Z" uid="407593" user="Polanin" changeset="12318244" lat="52.2398888" lon="20.9793698">
    <tag k="highway" v="traffic_signals"/>
  </node>
</osm>
