<?xml version='1.0' encoding='UTF-8'?>
<osm version="0.6" generator="libosmium/2.20.0">
  <node id="9994967" version="1" timestamp="2007-06-15T12:46:40Z" uid="8328" user="benpre" changeset="96351" lat="48.726771" lon="9.1308962">
    <tag k="name" v="SSB Zentrum"/>
    <tag k="railway" v="station"/>
  </node>
  <node id="9994967" version="2" timestamp="2007-11-23T00:25:42Z" uid="5735" user="ColinMarquardt" changeset="596967" lat="48.726771" lon="9.1308962">
    <tag k="name" v="SSB Zentrum"/>
    <tag k="railway" v="halt"/>
  </node>
  <node id="9994967" version="3" timestamp="2008-02-25T14:03:36Z" uid="13413" user="Notaris" changeset="203869" lat="48.726771" lon="9.1308962">
    <tag k="name" v="SSB Zentrum"/>
    <tag k="railway" v="halt"/>
  </node>
  <node id="9994967" version="4" timestamp="2008-03-24T15:46:28Z" uid="31725" user="Markus80" changeset="389044" lat="48.726771" lon="9.1308962">
    <tag k="name" v="SSB Zentrum"/>
    <tag k="railway" v="station"/>
  </node>
  <node id="9994967" version="5" timestamp="2008-04-03T17:25:15Z" uid="27522" user="morlockit" changeset="37713" lat="48.726771" lon="9.1308962">
    <tag k="name" v="SSB Zentrum"/>
    <tag k="railway" v="station"/>
  </node>
  <node id="9994967" version="6" timestamp="2008-07-01T12:54:33Z" uid="28556" user="cycleP" changeset="357240" lat="48.726771" lon="9.1308962">
    <tag k="name" v="SSB Zentrum"/>
    <tag k="railway" v="halt"/>
  </node>
  <node id="9994967" version="7" timestamp="2008-07-24T13:56:11Z" uid="28556" user="cycleP" changeset="581671" lat="48.726771" lon="9.1308962">
    <tag k="fee_zone" v="20"/>
    <tag k="name" v="SSB Zentrum"/>
    <tag k="railway" v="halt"/>
  </node>
  <node id="9994967" version="8" timestamp="2008-10-22T19:14:40Z" uid="16319" user="ipodolsk" changeset="510462" lat="48.7267435" lon="9.1309046">
    <tag k="created_by" v="Merkaartor 0.12"/>
    <tag k="fee_zone" v="20"/>
    <tag k="name" v="SSB Zentrum"/>
    <tag k="railway" v="halt"/>
  </node>
  <node id="9994967" version="9" timestamp="2009-01-28T21:08:00Z" uid="16268" user="MasterMG" changeset="848443" lat="48.7267543" lon="9.1309013"/>
  <node id="9994967" version="10" timestamp="2011-03-20T19:59:03Z" uid="153109" user="pschaefer" changeset="7620978" lat="48.7268159" lon="9.1308759"/>
  <node id="9995142" version="1" timestamp="2007-06-15T12:46:40Z" uid="8328" user="benpre" changeset="96351" lat="48.7289874" lon="9.1174021">
    <tag k="name" v="Jurastrasse"/>
    <tag k="railway" v="station"/>
  </node>
  <node id="9995142" version="2" timestamp="2007-11-22T09:31:03Z" uid="12982" user="Michael Schulze" changeset="591780" lat="48.7289874" lon="9.1174021">
    <tag k="name" v="Jurastraße"/>
    <tag k="railway" v="station"/>
  </node>
  <node id="9995142" version="3" timestamp="2007-11-23T00:25:46Z" uid="5735" user="ColinMarquardt" changeset="596967" lat="48.7289874" lon="9.1174021">
    <tag k="name" v="Jurastraße"/>
    <tag k="railway" v="halt"/>
  </node>
  <node id="9995142" version="4" timestamp="2008-02-25T14:03:36Z" uid="13413" user="Notaris" changeset="203869" lat="48.7289874" lon="9.1174021">
    <tag k="name" v="Jurastraße"/>
    <tag k="railway" v="halt"/>
  </node>
  <node id="9995142" version="5" timestamp="2008-03-03T19:29:56Z" uid="25345" user="vobs" changeset="262047" lat="48.7289027" lon="9.1173169">
    <tag k="name" v="Jurastraße"/>
    <tag k="railway" v="halt"/>
  </node>
  <node id="9995142" version="6" timestamp="2008-03-24T15:47:31Z" uid="31725" user="Markus80" changeset="389044" lat="48.7289027" lon="9.1173169">
    <tag k="name" v="Jurastraße"/>
    <tag k="railway" v="station"/>
  </node>
  <node id="9995142" version="7" timestamp="2008-05-31T13:35:06Z" uid="42047" user="alcatraz" changeset="559118" lat="48.7289027" lon="9.1173169">
    <tag k="name" v="Jurastraße"/>
    <tag k="railway" v="halt"/>
  </node>
  <node id="9995142" version="8" timestamp="2008-07-24T13:56:14Z" uid="28556" user="cycleP" changeset="581671" lat="48.7289027" lon="9.1173169">
    <tag k="fee_zone" v="20"/>
    <tag k="name" v="Jurastraße"/>
    <tag k="railway" v="halt"/>
  </node>
  <node id="9995142" version="9" timestamp="2008-08-18T21:40:25Z" uid="16319" user="ipodolsk" changeset="312097" lat="48.7289027" lon="9.1173169">
    <tag k="fee_zone" v="20"/>
    <tag k="lines" v="U3;U6;U8"/>
    <tag k="name" v="Jurastraße"/>
    <tag k="railway" v="halt"/>
  </node>
  <node id="9995142" version="10" timestamp="2008-10-22T19:14:29Z" uid="16319" user="ipodolsk" changeset="510462" lat="48.7288701" lon="9.1170939">
    <tag k="created_by" v="Merkaartor 0.12"/>
    <tag k="fee_zone" v="20"/>
    <tag k="lines" v="U3;U6;U8"/>
    <tag k="name" v="Jurastraße"/>
    <tag k="railway" v="halt"/>
  </node>
  <node id="9995142" version="11" timestamp="2009-01-28T20:40:44Z" uid="16268" user="MasterMG" changeset="848443" lat="48.7288701" lon="9.1170939">
    <tag k="created_by" v="Merkaartor 0.12"/>
    <tag k="fee_zone" v="20"/>
    <tag k="lines" v="U3;U8"/>
    <tag k="name" v="Jurastraße"/>
    <tag k="railway" v="halt"/>
  </node>
  <node id="9995142" version="12" timestamp="2009-04-29T18:04:43Z" uid="16268" user="MasterMG" changeset="1018889" lat="48.7288701" lon="9.1170939">
    <tag k="created_by" v="Merkaartor 0.12"/>
    <tag k="exit" v="right"/>
    <tag k="fee_zone" v="20"/>
    <tag k="lines" v="U3;U8"/>
    <tag k="name" v="Jurastraße"/>
    <tag k="railway" v="halt"/>
  </node>
  <node id="9995142" version="13" timestamp="2009-07-01T20:27:38Z" uid="61990" user="christianb" changeset="1704695" lat="48.7288701" lon="9.1170939">
    <tag k="created_by" v="Merkaartor 0.12"/>
    <tag k="exit" v="right"/>
    <tag k="fee_zone" v="20"/>
    <tag k="lines" v="U3;U8"/>
    <tag k="name" v="Jurastraße"/>
    <tag k="public_transport" v="stop_position"/>
    <tag k="railway" v="halt"/>
    <tag k="subway" v="yes"/>
  </node>
  <node id="9995142" version="14" timestamp="2009-09-03T21:15:07Z" uid="108831" user="navigate1972" changeset="2364649" lat="48.7288763" lon="9.1170945">
    <tag k="exit" v="right"/>
    <tag k="fee_zone" v="20"/>
    <tag k="lines" v="U3;U8"/>
    <tag k="name" v="Jurastraße"/>
    <tag k="operator" v="SSB AG"/>
    <tag k="public_transport" v="stop_position"/>
    <tag k="railway" v="halt"/>
    <tag k="subway" v="yes"/>
  </node>
  <node id="9995142" version="15" timestamp="2011-03-20T19:58:30Z" uid="153109" user="pschaefer" changeset="7620978" lat="48.7289286" lon="9.1170808">
    <tag k="exit" v="right"/>
    <tag k="fee_zone" v="20"/>
    <tag k="lines" v="U3;U8"/>
    <tag k="name" v="Jurastraße"/>
    <tag k="operator" v="SSB AG"/>
    <tag k="public_transport" v="stop_position"/>
    <tag k="railway" v="halt"/>
    <tag k="subway" v="yes"/>
  </node>
  <node id="9995142" version="16" timestamp="2011-03-21T20:54:57Z" uid="16268" user="MasterMG" changeset="7631817" lat="48.7289484" lon="9.1171778">
    <tag k="exit" v="right"/>
    <tag k="fee_zone" v="20"/>
    <tag k="lines" v="U3;U8"/>
    <tag k="name" v="Jurastraße"/>
    <tag k="operator" v="SSB AG"/>
    <tag k="public_transport" v="stop_position"/>
    <tag k="railway" v="halt"/>
    <tag k="subway" v="yes"/>
  </node>
  <node id="9995142" version="17" timestamp="2012-04-04T14:04:09Z" uid="290680" user="wheelmap_visitor" changeset="11176940" lat="48.7289484" lon="9.1171778">
    <tag k="exit" v="right"/>
    <tag k="fee_zone" v="20"/>
    <tag k="lines" v="U3;U8"/>
    <tag k="name" v="Jurastraße"/>
    <tag k="operator" v="SSB AG"/>
    <tag k="public_transport" v="stop_position"/>
    <tag k="railway" v="halt"/>
    <tag k="subway" v="yes"/>
    <tag k="wheelchair" v="yes"/>
  </node>
  <node id="9995142" version="18" timestamp="2012-07-19T20:02:14Z" uid="722137" user="OSMF Redaction Account" changeset="12345663" lat="48.7289484" lon="9.1171778">
    <tag k="exit" v="right"/>
    <tag k="fee_zone" v="20"/>
    <tag k="lines" v="U3;U8"/>
    <tag k="operator" v="SSB AG"/>
    <tag k="public_transport" v="stop_position"/>
    <tag k="railway" v="halt"/>
    <tag k="subway" v="yes"/>
    <tag k="wheelchair" v="yes"/>
  </node>
</osm>
