<?xml version='1.0' encoding='UTF-8'?>
<osm version="0.6" generator="libosmium/2.20.0">
  <node id="99932686" version="2" timestamp="2008-02-16T20:39:45Z" uid="6975" user="ulfl" changeset="141861" lat="52.5065069" lon="13.3062332">
    <tag k="amenity" v="restaurant"/>
    <tag k="name" v="McDonalds"/>
  </node>
  <node id="99932686" version="3" timestamp="2008-02-16T20:40:06Z" uid="6975" user="ulfl" changeset="141861" lat="52.5065069" lon="13.3062332">
    <tag k="amenity" v="fast_food"/>
    <tag k="name" v="McDonalds"/>
  </node>
  <node id="99932686" version="4" timestamp="2008-08-14T21:31:29Z" uid="36694" user="neufeind" changeset="268587" lat="52.5065069" lon="13.3062332">
    <tag k="amenity" v="fast_food"/>
    <tag k="name" v="McDonald&apos;s"/>
  </node>
  <node id="99932686" version="5" timestamp="2009-12-12T10:27:26Z" uid="6669" user="Elwood" changeset="3354663" lat="52.5065069" lon="13.3062332">
    <tag k="addr:city" v="Berlin"/>
    <tag k="addr:country" v="DE"/>
    <tag k="amenity" v="fast_food"/>
    <tag k="name" v="McDonald&apos;s"/>
  </node>
  <node id="99932686" version="6" timestamp="2010-08-06T16:51:32Z" uid="207745" user="NE2" changeset="5418228" lat="52.5065069" lon="13.3062332">
    <tag k="addr:city" v="Berlin"/>
    <tag k="addr:country" v="DE"/>
    <tag k="amenity" v="fast_food"/>
    <tag k="cuisine" v="burger"/>
    <tag k="name" v="McDonald&apos;s"/>
  </node>
  <node id="99932686" version="7" timestamp="2010-11-19T02:52:38Z" uid="290680" user="wheelmap_visitor" changeset="6404362" lat="52.5065069" lon="13.3062332">
    <tag k="addr:city" v="Berlin"/>
    <tag k="addr:country" v="DE"/>
    <tag k="amenity" v="fast_food"/>
    <tag k="cuisine" v="burger"/>
    <tag k="name" v="McDonald&apos;s"/>
    <tag k="wheelchair" v="yes"/>
  </node>
  <node id="99932686" version="8" timestamp="2010-11-19T03:13:39Z" uid="372792" user="Tobias1979" changeset="6404458" lat="52.5065069" lon="13.3062332">
    <tag k="addr:city" v="Berlin"/>
    <tag k="addr:country" v="DE"/>
    <tag k="amenity" v="fast_food"/>
    <tag k="cuisine" v="burger"/>
    <tag k="name" v="McDonald&apos;s"/>
    <tag k="wheelchair" v="yes"/>
    <tag k="wheelchair:description" v="Die obere Etage ist nicht per Rollstuhl erreichbar. "/>
  </node>
  <node id="99932686" version="9" timestamp="2010-11-19T20:06:17Z" uid="70696" user="xybot" changeset="6409791" lat="52.5065069" lon="13.3062332">
    <tag k="addr:city" v="Berlin"/>
    <tag k="addr:country" v="DE"/>
    <tag k="amenity" v="fast_food"/>
    <tag k="cuisine" v="burger"/>
    <tag k="name" v="McDonald&apos;s"/>
    <tag k="wheelchair" v="yes"/>
    <tag k="wheelchair:description" v="Die obere Etage ist nicht per Rollstuhl erreichbar."/>
  </node>
  <node id="99932686" version="10" timestamp="2011-02-22T14:20:41Z" uid="6669" user="Elwood" changeset="7363796" lat="52.5065069" lon="13.3062332">
    <tag k="addr:city" v="Berlin"/>
    <tag k="addr:country" v="DE"/>
    <tag k="addr:postcode" v="10627"/>
    <tag k="addr:street" v="Kantstraße"/>
    <tag k="amenity" v="fast_food"/>
    <tag k="cuisine" v="burger"/>
    <tag k="name" v="McDonald&apos;s"/>
    <tag k="wheelchair" v="yes"/>
    <tag k="wheelchair:description" v="Die obere Etage ist nicht per Rollstuhl erreichbar."/>
  </node>
  <node id="99932686" version="11" timestamp="2012-03-04T16:39:17Z" uid="364815" user="PatrickKaufmann" changeset="10870645" lat="52.5065069" lon="13.3062332">
    <tag k="addr:city" v="Berlin"/>
    <tag k="addr:country" v="DE"/>
    <tag k="addr:postcode" v="10627"/>
    <tag k="addr:street" v="Kantstraße"/>
    <tag k="amenity" v="fast_food"/>
    <tag k="cuisine" v="burger"/>
    <tag k="name" v="McDonald&apos;s"/>
    <tag k="wheelchair" v="limited"/>
    <tag k="wheelchair:description" v="Keine Behindertentoilette"/>
  </node>
  <node id="99932686" version="12" timestamp="2012-03-04T16:40:58Z" uid="290680" user="wheelmap_visitor" changeset="10865871" lat="52.5065069" lon="13.3062332">
    <tag k="addr:city" v="Berlin"/>
    <tag k="addr:country" v="DE"/>
    <tag k="addr:postcode" v="10627"/>
    <tag k="addr:street" v="Kantstraße"/>
    <tag k="amenity" v="fast_food"/>
    <tag k="cuisine" v="burger"/>
    <tag k="name" v="McDonald&apos;s"/>
    <tag k="wheelchair" v="yes"/>
    <tag k="wheelchair:description" v="Keine Behindertentoilette"/>
  </node>
  <node id="99932686" version="13" timestamp="2012-03-04T17:02:59Z" uid="364815" user="PatrickKaufmann" changeset="10870645" lat="52.5065069" lon="13.3062332">
    <tag k="addr:city" v="Berlin"/>
    <tag k="addr:country" v="DE"/>
    <tag k="addr:postcode" v="10627"/>
    <tag k="addr:street" v="Kantstraße"/>
    <tag k="amenity" v="fast_food"/>
    <tag k="cuisine" v="burger"/>
    <tag k="name" v="McDonald&apos;s"/>
    <tag k="wheelchair" v="yes"/>
    <tag k="wheelchair:description" v="Eine Behindertentoilette ist im Erdgeschoss rechts neben Verkaufstresen."/>
  </node>
  <node id="99933558" version="16" timestamp="2010-04-19T13:40:21Z" uid="4467" user="Rosscoe" changeset="4467919" lat="-37.7812176" lon="145.17508">
    <tag k="direction" v="clockwise"/>
    <tag k="highway" v="mini_roundabout"/>
  </node>
  <node id="99934492" version="3" timestamp="2011-02-27T10:17:06Z" uid="4467" user="Rosscoe" changeset="7408633" lat="-37.7817169" lon="145.1633895"/>
  <node id="99937311" version="3" timestamp="2010-07-26T06:03:45Z" uid="27600" user="Islanit" changeset="5318363" lat="26.71309" lon="-80.2293931"/>
  <node id="99937314" version="3" timestamp="2010-07-26T06:03:45Z" uid="27600" user="Islanit" changeset="5318363" lat="26.7127114" lon="-80.2294253"/>
  <node id="99937657" version="12" timestamp="2011-02-27T10:16:18Z" uid="4467" user="Rosscoe" changeset="7408633" lat="-37.7811545" lon="145.1771855"/>
  <node id="99938402" version="8" timestamp="2011-02-27T10:17:57Z" uid="4467" user="Rosscoe" changeset="7408633" lat="-37.7729976" lon="145.1785246"/>
  <node id="99938593" version="3" timestamp="2010-03-10T13:06:57Z" uid="115477" user="wowik" changeset="4089250" lat="55.9624229" lon="37.4185558"/>
  <node id="99938593" version="4" timestamp="2010-09-01T15:05:52Z" uid="316868" user="LexIgnatov" changeset="5654636" lat="55.9623306" lon="37.4184448"/>
  <node id="99938593" version="5" timestamp="2010-11-12T11:07:35Z" uid="316868" user="LexIgnatov" changeset="6350025" lat="55.9622979" lon="37.4182944"/>
  <node id="99938597" version="3" timestamp="2010-03-10T12:27:54Z" uid="115477" user="wowik" changeset="4088962" lat="55.9612023" lon="37.414323"/>
  <node id="99938597" version="4" timestamp="2010-03-10T13:06:58Z" uid="115477" user="wowik" changeset="4089250" lat="55.9610236" lon="37.4143286"/>
  <node id="99938597" version="5" timestamp="2010-11-12T11:08:06Z" uid="316868" user="LexIgnatov" changeset="6350025" lat="55.9612476" lon="37.414308"/>
  <node id="99939076" version="4" timestamp="2011-02-27T10:17:40Z" uid="4467" user="Rosscoe" changeset="7408633" lat="-37.7787789" lon="145.1773266"/>
  <node id="99939078" version="4" timestamp="2011-02-27T10:16:29Z" uid="4467" user="Rosscoe" changeset="7408633" lat="-37.7787771" lon="145.1770659"/>
  <node id="99939834" version="7" timestamp="2011-02-27T10:17:23Z" uid="4467" user="Rosscoe" changeset="7408633" lat="-37.7734232" lon="145.1784406"/>
  <node id="99934492" version="4" timestamp="2012-07-19T22:51:06Z" uid="722137" user="OSMF Redaction Account" changeset="12351015" lat="-37.781757" lon="145.1633509"/>
  <node id="99934492" version="5" timestamp="2012-08-13T07:27:41Z" uid="69319" user="Rhubarb" changeset="12710093" lat="-37.7817406" lon="145.1634149"/>
  <node id="99937311" version="4" timestamp="2012-07-18T12:02:26Z" uid="722137" user="OSMF Redaction Account" changeset="12281093" lat="26.713392" lon="-80.229387"/>
  <node id="99937314" version="4" timestamp="2012-07-18T12:02:25Z" uid="722137" user="OSMF Redaction Account" changeset="12281093" lat="26.712648" lon="-80.229404"/>
  <node id="99937657" version="13" timestamp="2012-07-19T22:51:06Z" uid="722137" user="OSMF Redaction Account" changeset="12351019" lat="-37.7811413" lon="145.1771319"/>
  <node id="99937657" version="14" timestamp="2012-08-13T07:27:41Z" uid="69319" user="Rhubarb" changeset="12710093" lat="-37.7811719" lon="145.1772029"/>
  <node id="99938402" version="9" timestamp="2012-07-19T22:51:11Z" uid="722137" user="OSMF Redaction Account" changeset="12351019" lat="-37.7730912" lon="145.1785719"/>
  <node id="99938593" version="6" timestamp="2012-05-17T20:38:05Z" uid="241531" user="dik_man" changeset="11627534" lat="55.9623164" lon="37.4182274"/>
  <node id="99939076" version="5" timestamp="2012-07-19T22:51:07Z" uid="722137" user="OSMF Redaction Account" changeset="12351019" lat="-37.778756" lon="145.1772598"/>
  <node id="99939078" version="5" timestamp="2012-07-19T22:51:07Z" uid="722137" user="OSMF Redaction Account" changeset="12351019" lat="-37.778756" lon="145.1770281"/>
  <node id="99939834" version="8" timestamp="2012-07-19T22:51:10Z" uid="722137" user="OSMF Redaction Account" changeset="12351019" lat="-37.7734847" lon="145.1784947"/>
</osm>
