<?xml version='1.0' encoding='UTF-8'?>
<osm version="0.6" generator="libosmium/2.20.0">
  <way id="10031060" version="1" timestamp="2007-10-21T07:28:51Z" uid="7617" user="Franc" changeset="271561">
    <nd ref="82390131"/>
    <nd ref="82390151"/>
    <tag k="created_by" v="JOSM"/>
    <tag k="highway" v="residential"/>
    <tag k="name" v="The Avenue"/>
    <tag k="source" v="survey"/>
  </way>
  <way id="10031060" version="2" timestamp="2010-07-08T02:39:24Z" uid="74617" user="JohnSmith" changeset="5163091">
    <nd ref="82390131"/>
    <nd ref="82390151"/>
    <tag k="highway" v="residential"/>
    <tag k="maxspeed" v="50"/>
    <tag k="maxspeed:source" v="default residential speed limit in Australia"/>
    <tag k="name" v="The Avenue"/>
    <tag k="source" v="survey"/>
  </way>
  <way id="10031060" version="3" timestamp="2012-01-15T09:09:35Z" uid="147510" user="woodpeck_fixbot" changeset="10395278">
    <nd ref="82390131"/>
    <nd ref="82390151"/>
    <tag k="highway" v="residential"/>
    <tag k="name" v="The Avenue"/>
    <tag k="source" v="survey"/>
  </way>
  <way id="10031061" version="1" timestamp="2007-10-21T07:28:52Z" uid="7617" user="Franc" changeset="271561">
    <nd ref="82390192"/>
    <nd ref="82390233"/>
    <nd ref="82390229"/>
    <nd ref="82390226"/>
    <nd ref="82390221"/>
    <nd ref="82390219"/>
    <nd ref="82390216"/>
    <nd ref="82390215"/>
    <nd ref="82390208"/>
    <nd ref="31998992"/>
    <tag k="created_by" v="JOSM"/>
    <tag k="highway" v="secondary"/>
    <tag k="name" v="Paisley Road"/>
    <tag k="source" v="survey"/>
  </way>
  <way id="10031061" version="2" timestamp="2007-12-27T05:54:47Z" uid="7617" user="Franc" changeset="435605">
    <nd ref="82390192"/>
    <nd ref="191520048"/>
    <nd ref="82390233"/>
    <nd ref="82390229"/>
    <nd ref="82390226"/>
    <nd ref="82390221"/>
    <nd ref="82390219"/>
    <nd ref="82390216"/>
    <nd ref="82390215"/>
    <nd ref="82390208"/>
    <nd ref="31998992"/>
    <tag k="created_by" v="JOSM"/>
    <tag k="highway" v="secondary"/>
    <tag k="name" v="Paisley Road"/>
    <tag k="source" v="survey"/>
  </way>
  <way id="10031061" version="3" timestamp="2008-04-23T13:08:57Z" uid="7617" user="Franc" changeset="236292">
    <nd ref="82390192"/>
    <nd ref="259439978"/>
    <nd ref="191520048"/>
    <nd ref="82390233"/>
    <nd ref="82390229"/>
    <nd ref="82390226"/>
    <nd ref="82390221"/>
    <nd ref="82390219"/>
    <nd ref="82390216"/>
    <nd ref="82390215"/>
    <nd ref="82390208"/>
    <nd ref="31998992"/>
    <tag k="created_by" v="JOSM"/>
    <tag k="highway" v="secondary"/>
    <tag k="name" v="Paisley Road"/>
    <tag k="source" v="survey"/>
  </way>
  <way id="10031061" version="4" timestamp="2008-04-23T13:15:03Z" uid="7617" user="Franc" changeset="236292">
    <nd ref="82390192"/>
    <nd ref="259439978"/>
    <nd ref="191520048"/>
    <nd ref="82390233"/>
    <nd ref="82390229"/>
    <nd ref="82390226"/>
    <nd ref="82390221"/>
    <nd ref="82390219"/>
    <nd ref="82390216"/>
    <nd ref="259441089"/>
    <nd ref="82390215"/>
    <nd ref="82390208"/>
    <nd ref="31998992"/>
    <tag k="created_by" v="JOSM"/>
    <tag k="highway" v="secondary"/>
    <tag k="name" v="Paisley Road"/>
    <tag k="source" v="survey"/>
  </way>
  <way id="10031061" version="5" timestamp="2008-10-01T12:13:19Z" uid="7617" user="Franc" changeset="13388">
    <nd ref="82390192"/>
    <nd ref="259439978"/>
    <nd ref="301361458"/>
    <nd ref="191520048"/>
    <nd ref="82390233"/>
    <nd ref="82390229"/>
    <nd ref="82390226"/>
    <nd ref="82390221"/>
    <nd ref="82390219"/>
    <nd ref="82390216"/>
    <nd ref="259441089"/>
    <nd ref="82390215"/>
    <nd ref="82390208"/>
    <nd ref="31998992"/>
    <tag k="created_by" v="JOSM"/>
    <tag k="highway" v="secondary"/>
    <tag k="name" v="Paisley Road"/>
    <tag k="source" v="survey"/>
  </way>
  <way id="10031061" version="6" timestamp="2009-02-10T11:21:10Z" uid="30201" user="rrankin" changeset="326420">
    <nd ref="82390192"/>
    <nd ref="259439978"/>
    <nd ref="344104409"/>
    <nd ref="344104402"/>
    <nd ref="82390233"/>
    <nd ref="82390229"/>
    <nd ref="82390226"/>
    <nd ref="82390221"/>
    <nd ref="82390219"/>
    <nd ref="82390216"/>
    <nd ref="259441089"/>
    <nd ref="82390215"/>
    <nd ref="82390208"/>
    <nd ref="31998992"/>
    <tag k="created_by" v="JOSM"/>
    <tag k="highway" v="secondary"/>
    <tag k="name" v="Paisley Road"/>
    <tag k="source" v="survey"/>
  </way>
  <way id="10031061" version="7" timestamp="2010-01-08T03:14:25Z" uid="30201" user="rrankin" changeset="3567476">
    <nd ref="608861223"/>
    <nd ref="259439978"/>
    <nd ref="344104409"/>
    <nd ref="344104402"/>
    <nd ref="82390233"/>
    <nd ref="82390229"/>
    <nd ref="82390226"/>
    <nd ref="82390221"/>
    <nd ref="82390219"/>
    <nd ref="82390216"/>
    <nd ref="259441089"/>
    <nd ref="82390215"/>
    <nd ref="82390208"/>
    <nd ref="31998992"/>
    <tag k="highway" v="secondary"/>
    <tag k="name" v="Paisley Road"/>
    <tag k="source" v="survey"/>
  </way>
  <way id="10031062" version="1" timestamp="2007-10-21T07:28:53Z" uid="7617" user="Franc" changeset="271561">
    <nd ref="82390240"/>
    <nd ref="31998992"/>
    <nd ref="31427726"/>
    <nd ref="31427727"/>
    <nd ref="31427728"/>
    <nd ref="31427729"/>
    <nd ref="31427760"/>
    <nd ref="19126640"/>
    <tag k="created_by" v="Brian Yap"/>
    <tag k="highway" v="residential"/>
  </way>
  <way id="10031062" version="2" timestamp="2007-12-18T00:06:36Z" uid="12203" user="brainwad" changeset="352855">
    <nd ref="82390240"/>
    <nd ref="31998992"/>
    <nd ref="175988738"/>
    <nd ref="31427726"/>
    <nd ref="31427727"/>
    <nd ref="31427728"/>
    <nd ref="31427729"/>
    <nd ref="31427760"/>
    <nd ref="19126640"/>
    <tag k="created_by" v="Potlatch 0.5d"/>
    <tag k="highway" v="residential"/>
  </way>
  <way id="10031062" version="3" timestamp="2007-12-31T11:20:01Z" uid="20949" user="Ebenezer" changeset="490544">
    <nd ref="82390240"/>
    <nd ref="31998992"/>
    <nd ref="175988738"/>
    <nd ref="198947128"/>
    <nd ref="31427726"/>
    <nd ref="31427727"/>
    <nd ref="31427728"/>
    <nd ref="31427729"/>
    <nd ref="31427760"/>
    <nd ref="19126640"/>
    <tag k="created_by" v="Potlatch 0.6"/>
    <tag k="highway" v="residential"/>
  </way>
  <way id="10031062" version="4" timestamp="2007-12-31T11:21:09Z" uid="20949" user="Ebenezer" changeset="490544">
    <nd ref="82390240"/>
    <nd ref="31998992"/>
    <nd ref="175988738"/>
    <nd ref="198947128"/>
    <nd ref="31427726"/>
    <nd ref="31427727"/>
    <nd ref="198948404"/>
    <tag k="created_by" v="Potlatch 0.6"/>
    <tag k="highway" v="residential"/>
    <tag k="name" v="Shaftsbury Road"/>
  </way>
  <way id="10031062" version="5" timestamp="2007-12-31T11:27:46Z" uid="20949" user="Ebenezer" changeset="490544">
    <nd ref="82390240"/>
    <nd ref="31998992"/>
    <nd ref="175988738"/>
    <nd ref="198947128"/>
    <nd ref="31427726"/>
    <nd ref="198956184"/>
    <nd ref="31427727"/>
    <nd ref="198948404"/>
    <tag k="created_by" v="Potlatch 0.6"/>
    <tag k="highway" v="residential"/>
    <tag k="name" v="Shaftsbury Road"/>
  </way>
  <way id="10031062" version="6" timestamp="2007-12-31T11:28:09Z" uid="20949" user="Ebenezer" changeset="490544">
    <nd ref="82390240"/>
    <nd ref="31998992"/>
    <nd ref="175988738"/>
    <nd ref="198956673"/>
    <nd ref="198947128"/>
    <nd ref="31427726"/>
    <nd ref="198956184"/>
    <nd ref="31427727"/>
    <nd ref="198948404"/>
    <tag k="created_by" v="Potlatch 0.6"/>
    <tag k="highway" v="residential"/>
    <tag k="name" v="Shaftsbury Road"/>
  </way>
  <way id="10031062" version="7" timestamp="2008-04-23T13:15:03Z" uid="7617" user="Franc" changeset="236292">
    <nd ref="82390240"/>
    <nd ref="31998992"/>
    <nd ref="259441090"/>
    <nd ref="175988738"/>
    <nd ref="259441086"/>
    <nd ref="198956673"/>
    <nd ref="198947128"/>
    <nd ref="31427726"/>
    <nd ref="198956184"/>
    <nd ref="31427727"/>
    <nd ref="198948404"/>
    <tag k="created_by" v="Potlatch 0.6"/>
    <tag k="highway" v="residential"/>
    <tag k="name" v="Shaftsbury Road"/>
  </way>
  <way id="10031062" version="8" timestamp="2008-09-16T01:21:06Z" uid="30201" user="rrankin" changeset="645396">
    <nd ref="82390240"/>
    <nd ref="31998992"/>
    <nd ref="259441090"/>
    <nd ref="175988738"/>
    <nd ref="259441086"/>
    <nd ref="198956673"/>
    <nd ref="198947128"/>
    <nd ref="31427726"/>
    <nd ref="198956184"/>
    <nd ref="31427727"/>
    <nd ref="198948404"/>
    <tag k="created_by" v="Potlatch 0.6"/>
    <tag k="highway" v="residential"/>
    <tag k="name" v="Shaftesbury Road"/>
  </way>
  <way id="10031062" version="9" timestamp="2009-02-10T10:50:22Z" uid="30201" user="rrankin" changeset="326420">
    <nd ref="82390240"/>
    <nd ref="31998992"/>
    <nd ref="259441090"/>
    <nd ref="175988738"/>
    <nd ref="259441086"/>
    <nd ref="198956673"/>
    <nd ref="198947128"/>
    <nd ref="31427726"/>
    <nd ref="198956184"/>
    <nd ref="31427727"/>
    <nd ref="344094507"/>
    <nd ref="344094504"/>
    <tag k="created_by" v="Potlatch 0.6"/>
    <tag k="highway" v="residential"/>
    <tag k="name" v="Shaftesbury Road"/>
  </way>
  <way id="10031062" version="10" timestamp="2009-12-10T06:02:00Z" uid="30201" user="rrankin" changeset="3339278">
    <nd ref="82390240"/>
    <nd ref="31998992"/>
    <tag k="highway" v="residential"/>
    <tag k="name" v="Shaftesbury Road"/>
  </way>
  <way id="10031062" version="11" timestamp="2010-07-08T02:35:46Z" uid="74617" user="JohnSmith" changeset="5163091">
    <nd ref="82390240"/>
    <nd ref="31998992"/>
    <tag k="highway" v="residential"/>
    <tag k="maxspeed" v="50"/>
    <tag k="maxspeed:source" v="default residential speed limit in Australia"/>
    <tag k="name" v="Shaftesbury Road"/>
  </way>
  <way id="10031062" version="12" timestamp="2012-01-15T09:09:37Z" uid="147510" user="woodpeck_fixbot" changeset="10395278">
    <nd ref="82390240"/>
    <nd ref="31998992"/>
    <tag k="highway" v="residential"/>
    <tag k="name" v="Shaftesbury Road"/>
  </way>
  <way id="10031063" version="1" timestamp="2007-10-21T07:28:53Z" uid="7617" user="Franc" changeset="271561">
    <nd ref="82390249"/>
    <nd ref="82390240"/>
    <tag k="bridge" v="yes"/>
    <tag k="created_by" v="Brian Yap"/>
    <tag k="highway" v="residential"/>
    <tag k="layer" v="1"/>
  </way>
  <way id="10031063" version="2" timestamp="2008-08-11T09:55:51Z" uid="7617" user="Franc" changeset="188546">
    <nd ref="82390249"/>
    <nd ref="82390240"/>
    <tag k="bridge" v="yes"/>
    <tag k="highway" v="residential"/>
    <tag k="layer" v="1"/>
    <tag k="name" v="Shaftesbury Road"/>
  </way>
  <way id="10031063" version="3" timestamp="2010-07-08T02:37:42Z" uid="74617" user="JohnSmith" changeset="5163091">
    <nd ref="82390249"/>
    <nd ref="82390240"/>
    <tag k="bridge" v="yes"/>
    <tag k="highway" v="residential"/>
    <tag k="layer" v="1"/>
    <tag k="maxspeed" v="50"/>
    <tag k="maxspeed:source" v="default residential speed limit in Australia"/>
    <tag k="name" v="Shaftesbury Road"/>
  </way>
  <way id="10031063" version="4" timestamp="2012-01-15T09:09:38Z" uid="147510" user="woodpeck_fixbot" changeset="10395278">
    <nd ref="82390249"/>
    <nd ref="82390240"/>
    <tag k="bridge" v="yes"/>
    <tag k="highway" v="residential"/>
    <tag k="layer" v="1"/>
    <tag k="name" v="Shaftesbury Road"/>
  </way>
  <way id="10031065" version="1" timestamp="2007-10-21T07:28:54Z" uid="7617" user="Franc" changeset="271561">
    <nd ref="31998666"/>
    <nd ref="82390265"/>
    <nd ref="82390279"/>
    <nd ref="82390276"/>
    <nd ref="82390255"/>
    <tag k="created_by" v="JOSM"/>
    <tag k="highway" v="unclassfied"/>
    <tag k="name" v="Deane Street"/>
    <tag k="oneway" v="yes"/>
  </way>
  <way id="10031065" version="2" timestamp="2007-12-23T21:24:16Z" uid="7617" user="Franc" changeset="404616">
    <nd ref="31998666"/>
    <nd ref="82390265"/>
    <nd ref="82390279"/>
    <nd ref="82390276"/>
    <nd ref="82390255"/>
    <tag k="created_by" v="JOSM"/>
    <tag k="highway" v="unclassified"/>
    <tag k="name" v="Deane Street"/>
    <tag k="oneway" v="yes"/>
  </way>
  <way id="10031065" version="3" timestamp="2010-06-09T20:22:20Z" uid="20949" user="Ebenezer" changeset="4948886"/>
  <way id="10031067" version="1" timestamp="2007-10-21T07:28:55Z" uid="7617" user="Franc" changeset="271561">
    <nd ref="82390290"/>
    <nd ref="82390313"/>
    <nd ref="82390304"/>
    <tag k="created_by" v="JOSM"/>
    <tag k="highway" v="unclassfied"/>
    <tag k="oneway" v="yes"/>
    <tag k="source" v="survey"/>
  </way>
  <way id="10031067" version="2" timestamp="2007-12-23T21:24:17Z" uid="7617" user="Franc" changeset="404616">
    <nd ref="82390290"/>
    <nd ref="82390313"/>
    <nd ref="82390304"/>
    <tag k="created_by" v="JOSM"/>
    <tag k="highway" v="unclassified"/>
    <tag k="oneway" v="yes"/>
    <tag k="source" v="survey"/>
  </way>
  <way id="10031067" version="3" timestamp="2007-12-31T20:11:04Z" uid="20949" user="Ebenezer" changeset="495221">
    <nd ref="199682523"/>
    <nd ref="82390290"/>
    <nd ref="82390313"/>
    <nd ref="82390304"/>
    <tag k="created_by" v="Potlatch 0.6"/>
    <tag k="highway" v="residential"/>
    <tag k="name" v="George Street"/>
    <tag k="oneway" v="yes"/>
    <tag k="source" v="survey"/>
  </way>
  <way id="10031067" version="4" timestamp="2007-12-31T20:12:35Z" uid="20949" user="Ebenezer" changeset="495221">
    <nd ref="199682523"/>
    <nd ref="199684280"/>
    <nd ref="82390290"/>
    <nd ref="82390313"/>
    <nd ref="82390304"/>
    <tag k="created_by" v="Potlatch 0.6"/>
    <tag k="highway" v="residential"/>
    <tag k="name" v="George Street"/>
    <tag k="oneway" v="yes"/>
    <tag k="source" v="survey"/>
  </way>
  <way id="10031067" version="5" timestamp="2007-12-31T20:13:03Z" uid="20949" user="Ebenezer" changeset="495221">
    <nd ref="199682523"/>
    <nd ref="199684733"/>
    <nd ref="199684280"/>
    <nd ref="82390290"/>
    <nd ref="82390313"/>
    <nd ref="82390304"/>
    <tag k="created_by" v="Potlatch 0.6"/>
    <tag k="highway" v="residential"/>
    <tag k="name" v="George Street"/>
    <tag k="oneway" v="yes"/>
    <tag k="source" v="survey"/>
  </way>
  <way id="10031067" version="6" timestamp="2008-10-02T06:41:02Z" uid="7617" user="Franc" changeset="23906">
    <nd ref="82390290"/>
    <nd ref="199684280"/>
    <tag k="created_by" v="Potlatch 0.6"/>
    <tag k="highway" v="residential"/>
    <tag k="name" v="George Street"/>
    <tag k="oneway" v="yes"/>
    <tag k="source" v="survey"/>
  </way>
  <way id="10031067" version="7" timestamp="2010-07-08T02:36:22Z" uid="74617" user="JohnSmith" changeset="5163091">
    <nd ref="82390290"/>
    <nd ref="199684280"/>
    <tag k="highway" v="residential"/>
    <tag k="maxspeed" v="50"/>
    <tag k="maxspeed:source" v="default residential speed limit in Australia"/>
    <tag k="name" v="George Street"/>
    <tag k="oneway" v="yes"/>
    <tag k="source" v="survey"/>
  </way>
  <way id="10031067" version="8" timestamp="2012-01-15T09:09:39Z" uid="147510" user="woodpeck_fixbot" changeset="10395278">
    <nd ref="82390290"/>
    <nd ref="199684280"/>
    <tag k="highway" v="residential"/>
    <tag k="name" v="George Street"/>
    <tag k="oneway" v="yes"/>
    <tag k="source" v="survey"/>
  </way>
  <way id="10031069" version="1" timestamp="2007-10-21T07:28:56Z" uid="7617" user="Franc" changeset="271561">
    <nd ref="82390255"/>
    <nd ref="82390313"/>
    <tag k="created_by" v="JOSM"/>
    <tag k="highway" v="service"/>
    <tag k="name" v="Mary Street"/>
    <tag k="oneway" v="yes"/>
  </way>
  <way id="10031069" version="2" timestamp="2010-06-09T20:22:17Z" uid="20949" user="Ebenezer" changeset="4948886">
    <nd ref="82390255"/>
    <nd ref="82390313"/>
    <tag k="highway" v="service"/>
    <tag k="lcn" v="yes"/>
    <tag k="name" v="Mary Street"/>
    <tag k="oneway" v="yes"/>
  </way>
  <way id="10031071" version="1" timestamp="2007-10-21T07:28:56Z" uid="7617" user="Franc" changeset="271561">
    <nd ref="82390336"/>
    <nd ref="82390371"/>
    <nd ref="82390363"/>
    <nd ref="82390350"/>
    <nd ref="82390336"/>
    <tag k="created_by" v="JOSM"/>
    <tag k="layer" v="-1"/>
    <tag k="leisure" v="park"/>
    <tag k="source" v="Yahoo Imagery"/>
  </way>
  <way id="10031071" version="2" timestamp="2007-12-31T20:02:31Z" uid="20949" user="Ebenezer" changeset="495221">
    <nd ref="82390336"/>
    <nd ref="82390371"/>
    <nd ref="82390363"/>
    <nd ref="82390350"/>
    <nd ref="82390336"/>
    <tag k="created_by" v="Potlatch 0.6"/>
    <tag k="layer" v="-1"/>
    <tag k="leisure" v="park"/>
    <tag k="name" v="Burwood Park"/>
    <tag k="source" v="Yahoo Imagery"/>
  </way>
  <way id="10031071" version="3" timestamp="2010-02-06T00:12:39Z" uid="30201" user="rrankin" changeset="3801878">
    <nd ref="82390336"/>
    <nd ref="82390371"/>
    <nd ref="631221551"/>
    <nd ref="82390363"/>
    <nd ref="82390350"/>
    <nd ref="631221520"/>
    <nd ref="82390336"/>
    <tag k="layer" v="-1"/>
    <tag k="leisure" v="park"/>
    <tag k="name" v="Burwood Park"/>
    <tag k="source" v="Yahoo Imagery"/>
  </way>
  <way id="10031072" version="1" timestamp="2007-10-21T07:28:57Z" uid="7617" user="Franc" changeset="271561">
    <nd ref="82390418"/>
    <nd ref="82390440"/>
    <nd ref="82390397"/>
    <tag k="created_by" v="JOSM"/>
    <tag k="highway" v="service"/>
    <tag k="source" v="Yahoo Imagery"/>
  </way>
  <way id="10031072" version="2" timestamp="2007-12-31T20:38:35Z" uid="20949" user="Ebenezer" changeset="495221">
    <nd ref="82390418"/>
    <nd ref="199713003"/>
    <nd ref="82390440"/>
    <nd ref="82390397"/>
    <tag k="created_by" v="Potlatch 0.6"/>
    <tag k="highway" v="service"/>
    <tag k="source" v="Yahoo Imagery"/>
  </way>
  <way id="10031072" version="3" timestamp="2010-04-13T11:20:00Z" uid="7617" user="Franc" changeset="4412736">
    <nd ref="82390418"/>
    <nd ref="199713003"/>
    <nd ref="82390440"/>
    <nd ref="82390397"/>
    <tag k="highway" v="service"/>
    <tag k="nostreetsign" v="20100411"/>
    <tag k="source" v="survey"/>
  </way>
  <way id="10031072" version="4" timestamp="2010-04-19T12:03:02Z" uid="7617" user="Franc" changeset="4467214">
    <nd ref="82390418"/>
    <nd ref="199713003"/>
    <nd ref="82390440"/>
    <nd ref="82390397"/>
    <tag k="highway" v="service"/>
    <tag k="nostreetsign" v="20100411"/>
    <tag k="source" v="survey"/>
  </way>
  <way id="10031072" version="5" timestamp="2010-04-23T09:07:18Z" uid="7617" user="Franc" changeset="4501825">
    <nd ref="82390418"/>
    <nd ref="199713003"/>
    <nd ref="82390440"/>
    <nd ref="82390397"/>
    <tag k="FCC" v="FCC"/>
    <tag k="highway" v="service"/>
    <tag k="nostreetsign" v="20100411"/>
    <tag k="source" v="survey"/>
  </way>
  <way id="10031072" version="6" timestamp="2010-04-23T09:07:42Z" uid="7617" user="Franc" changeset="4501826">
    <nd ref="82390418"/>
    <nd ref="199713003"/>
    <nd ref="82390440"/>
    <nd ref="82390397"/>
    <tag k="highway" v="service"/>
    <tag k="nostreetsign" v="20100411"/>
    <tag k="source" v="survey"/>
  </way>
  <way id="10031072" version="7" timestamp="2010-04-25T09:53:35Z" uid="7617" user="Franc" changeset="4519201">
    <nd ref="82390418"/>
    <nd ref="199713003"/>
    <nd ref="82390440"/>
    <nd ref="82390397"/>
    <tag k="fixme:sign:no" v="2010-04-11"/>
    <tag k="highway" v="service"/>
    <tag k="source" v="survey"/>
  </way>
  <way id="10031073" version="1" timestamp="2007-10-21T07:28:58Z" uid="7617" user="Franc" changeset="271561">
    <nd ref="82390440"/>
    <nd ref="82390434"/>
    <tag k="created_by" v="JOSM"/>
    <tag k="highway" v="service"/>
    <tag k="name" v="Webbs Lane"/>
    <tag k="source" v="survey"/>
  </way>
  <way id="10031073" version="2" timestamp="2007-12-31T20:38:08Z" uid="20949" user="Ebenezer" changeset="495221">
    <nd ref="82390440"/>
    <nd ref="82390434"/>
    <nd ref="199712469"/>
    <tag k="created_by" v="Potlatch 0.6"/>
    <tag k="highway" v="service"/>
    <tag k="name" v="Webbs Lane"/>
    <tag k="source" v="survey"/>
  </way>
  <way id="10031076" version="1" timestamp="2007-10-21T07:28:59Z" uid="7617" user="Franc" changeset="271561">
    <nd ref="20146929"/>
    <nd ref="82390448"/>
    <nd ref="82390442"/>
    <tag k="created_by" v="JOSM"/>
    <tag k="highway" v="residential"/>
    <tag k="name" v="Neich Parade"/>
    <tag k="source" v="survey"/>
  </way>
  <way id="10031076" version="2" timestamp="2007-12-31T20:36:29Z" uid="20949" user="Ebenezer" changeset="495221">
    <nd ref="20146929"/>
    <nd ref="82390448"/>
    <nd ref="199710441"/>
    <nd ref="82390442"/>
    <tag k="created_by" v="Potlatch 0.6"/>
    <tag k="highway" v="residential"/>
    <tag k="name" v="Neich Parade"/>
    <tag k="source" v="survey"/>
  </way>
  <way id="10031076" version="3" timestamp="2007-12-31T20:37:24Z" uid="20949" user="Ebenezer" changeset="495221">
    <nd ref="20146929"/>
    <nd ref="199711554"/>
    <nd ref="82390448"/>
    <nd ref="199710441"/>
    <nd ref="82390442"/>
    <tag k="created_by" v="Potlatch 0.6"/>
    <tag k="highway" v="residential"/>
    <tag k="name" v="Neich Parade"/>
    <tag k="source" v="survey"/>
  </way>
  <way id="10031076" version="4" timestamp="2008-09-27T05:09:01Z" uid="7617" user="Franc" changeset="703319">
    <nd ref="20146929"/>
    <nd ref="300215929"/>
    <nd ref="199711554"/>
    <nd ref="82390448"/>
    <nd ref="199710441"/>
    <nd ref="82390442"/>
    <tag k="created_by" v="Potlatch 0.6"/>
    <tag k="highway" v="residential"/>
    <tag k="name" v="Neich Parade"/>
    <tag k="source" v="survey"/>
  </way>
  <way id="10031076" version="5" timestamp="2010-02-15T15:03:38Z" uid="7617" user="Franc" changeset="3883877">
    <nd ref="20146929"/>
    <nd ref="300215929"/>
    <nd ref="199711554"/>
    <nd ref="82390448"/>
    <nd ref="639778303"/>
    <tag k="highway" v="residential"/>
    <tag k="name" v="Neich Parade"/>
    <tag k="source" v="survey"/>
  </way>
  <way id="10031076" version="6" timestamp="2010-07-08T02:36:06Z" uid="74617" user="JohnSmith" changeset="5163091">
    <nd ref="20146929"/>
    <nd ref="300215929"/>
    <nd ref="199711554"/>
    <nd ref="82390448"/>
    <nd ref="639778303"/>
    <tag k="highway" v="residential"/>
    <tag k="maxspeed" v="50"/>
    <tag k="maxspeed:source" v="default residential speed limit in Australia"/>
    <tag k="name" v="Neich Parade"/>
    <tag k="source" v="survey"/>
  </way>
  <way id="10031076" version="7" timestamp="2012-01-15T09:09:41Z" uid="147510" user="woodpeck_fixbot" changeset="10395278">
    <nd ref="20146929"/>
    <nd ref="300215929"/>
    <nd ref="199711554"/>
    <nd ref="82390448"/>
    <nd ref="639778303"/>
    <tag k="highway" v="residential"/>
    <tag k="name" v="Neich Parade"/>
    <tag k="source" v="survey"/>
  </way>
  <way id="10031078" version="1" timestamp="2007-10-21T07:28:59Z" uid="7617" user="Franc" changeset="271561">
    <nd ref="82390448"/>
    <nd ref="31427752"/>
    <tag k="created_by" v="JOSM"/>
    <tag k="highway" v="service"/>
    <tag k="source" v="Yahoo Imagery"/>
  </way>
  <way id="10031078" version="2" timestamp="2007-12-31T20:37:24Z" uid="20949" user="Ebenezer" changeset="495221">
    <nd ref="82390448"/>
    <nd ref="199711551"/>
    <nd ref="31427752"/>
    <tag k="created_by" v="Potlatch 0.6"/>
    <tag k="highway" v="service"/>
    <tag k="source" v="Yahoo Imagery"/>
  </way>
  <way id="10031078" version="3" timestamp="2008-10-02T06:41:13Z" uid="7617" user="Franc" changeset="23906">
    <nd ref="82390448"/>
    <nd ref="199711551"/>
    <nd ref="31427752"/>
    <tag k="created_by" v="Potlatch 0.6"/>
    <tag k="highway" v="service"/>
    <tag k="name" v="Milton Lane"/>
    <tag k="source" v="Yahoo Imagery"/>
    <tag k="source:name" v="survey"/>
  </way>
  <way id="10031081" version="1" timestamp="2007-10-21T07:29:00Z" uid="7617" user="Franc" changeset="271561">
    <nd ref="33302470"/>
    <nd ref="33302461"/>
    <tag k="created_by" v="JOSM"/>
    <tag k="highway" v="residential"/>
    <tag k="source" v="Yahoo Imagery"/>
  </way>
  <way id="10031081" version="2" timestamp="2008-09-25T06:22:53Z" uid="7617" user="Franc" changeset="695657"/>
  <way id="10031083" version="1" timestamp="2007-10-21T07:29:01Z" uid="7617" user="Franc" changeset="271561">
    <nd ref="33302461"/>
    <nd ref="33302612"/>
    <tag k="created_by" v="JOSM"/>
    <tag k="highway" v="residential"/>
    <tag k="source" v="Yahoo Imagery"/>
  </way>
  <way id="10031083" version="2" timestamp="2007-11-08T04:41:58Z" uid="7617" user="Franc" changeset="441827">
    <nd ref="33302461"/>
    <nd ref="33302612"/>
    <tag k="created_by" v="JOSM"/>
    <tag k="highway" v="residential"/>
    <tag k="name" v="Coles Street"/>
    <tag k="source" v="Yahoo Imagery"/>
    <tag k="source:name" v="survey"/>
  </way>
  <way id="10031083" version="3" timestamp="2008-09-25T06:21:48Z" uid="7617" user="Franc" changeset="695657">
    <nd ref="33302470"/>
    <nd ref="33302461"/>
    <nd ref="33302612"/>
    <tag k="created_by" v="JOSM"/>
    <tag k="highway" v="residential"/>
    <tag k="name" v="Coles Street"/>
    <tag k="source" v="Yahoo Imagery"/>
    <tag k="source:name" v="survey"/>
  </way>
  <way id="10031083" version="4" timestamp="2010-07-08T02:41:20Z" uid="74617" user="JohnSmith" changeset="5163091">
    <nd ref="33302470"/>
    <nd ref="33302461"/>
    <nd ref="33302612"/>
    <tag k="highway" v="residential"/>
    <tag k="maxspeed" v="50"/>
    <tag k="maxspeed:source" v="default residential speed limit in Australia"/>
    <tag k="name" v="Coles Street"/>
    <tag k="source" v="Yahoo Imagery"/>
    <tag k="source:name" v="survey"/>
  </way>
  <way id="10031083" version="5" timestamp="2012-01-15T09:09:42Z" uid="147510" user="woodpeck_fixbot" changeset="10395278">
    <nd ref="33302470"/>
    <nd ref="33302461"/>
    <nd ref="33302612"/>
    <tag k="highway" v="residential"/>
    <tag k="name" v="Coles Street"/>
    <tag k="source" v="Yahoo Imagery"/>
    <tag k="source:name" v="survey"/>
  </way>
  <way id="10031087" version="1" timestamp="2007-10-21T07:29:02Z" uid="7617" user="Franc" changeset="271561">
    <nd ref="82390452"/>
    <nd ref="34993076"/>
    <nd ref="34993075"/>
    <tag k="created_by" v="Potlatch alpha"/>
    <tag k="highway" v="residential"/>
    <tag k="name" v="Wentworth St"/>
  </way>
  <way id="10031087" version="2" timestamp="2007-10-21T07:32:09Z" uid="7617" user="Franc" changeset="271561">
    <nd ref="82390452"/>
    <nd ref="34993076"/>
    <tag k="created_by" v="Potlatch alpha"/>
    <tag k="highway" v="residential"/>
    <tag k="name" v="Wentworth St"/>
  </way>
  <way id="10031087" version="3" timestamp="2007-10-21T07:34:06Z" uid="7617" user="Franc" changeset="271561"/>
  <way id="10031096" version="5" timestamp="2010-04-07T02:44:03Z" uid="20587" user="balrog-kun" changeset="4350083">
    <nd ref="82523775"/>
    <nd ref="82523774"/>
    <nd ref="308907624"/>
    <nd ref="82523773"/>
    <nd ref="82523772"/>
    <nd ref="308907807"/>
    <nd ref="82390627"/>
    <tag k="created_by" v="Potlatch 0.10f"/>
    <tag k="highway" v="tertiary"/>
    <tag k="name" v="East Grapevine Mills Circle"/>
    <tag k="tiger:cfcc" v="A41"/>
    <tag k="tiger:county" v="Tarrant, TX"/>
    <tag k="tiger:name_base" v="Grapevine Mills"/>
    <tag k="tiger:name_direction_prefix" v="E"/>
    <tag k="tiger:name_type" v="Cir"/>
    <tag k="tiger:reviewed" v="no"/>
    <tag k="tiger:separated" v="no"/>
    <tag k="tiger:source" v="tiger_import_dch_v0.6_20070830"/>
    <tag k="tiger:tlid" v="102104733; 102107878"/>
  </way>
  <way id="10031316" version="2" timestamp="2008-12-17T15:20:18Z" uid="68769" user="david lynch" changeset="448367"/>
  <way id="10031416" version="1" timestamp="2007-10-21T07:32:08Z" uid="7617" user="Franc" changeset="271561">
    <nd ref="82392795"/>
    <nd ref="31427913"/>
    <tag k="created_by" v="Potlatch alpha"/>
    <tag k="highway" v="residential"/>
    <tag k="name" v="cooper st"/>
  </way>
  <way id="10031416" version="2" timestamp="2007-10-21T07:33:16Z" uid="7617" user="Franc" changeset="271561"/>
  <way id="10031450" version="1" timestamp="2007-10-21T07:32:24Z" uid="7617" user="Franc" changeset="271561">
    <nd ref="31427915"/>
    <nd ref="82392795"/>
    <tag k="created_by" v="Potlatch alpha"/>
    <tag k="highway" v="residential"/>
    <tag k="name" v="cooper st"/>
  </way>
  <way id="10031450" version="2" timestamp="2007-10-21T07:33:15Z" uid="7617" user="Franc" changeset="271561"/>
  <way id="10031524" version="1" timestamp="2007-10-21T07:33:11Z" uid="7617" user="Franc" changeset="271561">
    <nd ref="82393654"/>
    <nd ref="82392795"/>
    <nd ref="31427913"/>
    <tag k="created_by" v="Potlatch alpha"/>
    <tag k="highway" v="residential"/>
    <tag k="name" v="cooper st"/>
  </way>
  <way id="10031524" version="2" timestamp="2007-12-31T20:30:04Z" uid="20949" user="Ebenezer" changeset="495221">
    <nd ref="82393654"/>
    <nd ref="82392795"/>
    <nd ref="199702468"/>
    <nd ref="31427913"/>
    <tag k="created_by" v="Potlatch 0.6"/>
    <tag k="highway" v="residential"/>
    <tag k="name" v="cooper st"/>
  </way>
  <way id="10031524" version="3" timestamp="2007-12-31T20:30:29Z" uid="20949" user="Ebenezer" changeset="495221">
    <nd ref="82393654"/>
    <nd ref="82392795"/>
    <nd ref="199702932"/>
    <nd ref="199702468"/>
    <nd ref="31427913"/>
    <tag k="created_by" v="Potlatch 0.6"/>
    <tag k="highway" v="residential"/>
    <tag k="name" v="cooper st"/>
  </way>
  <way id="10031524" version="4" timestamp="2008-01-01T01:47:15Z" uid="20949" user="Ebenezer" changeset="502048">
    <nd ref="82393654"/>
    <nd ref="82392795"/>
    <nd ref="199702932"/>
    <nd ref="199702468"/>
    <nd ref="31427913"/>
    <nd ref="200079075"/>
    <tag k="created_by" v="Potlatch 0.6"/>
    <tag k="highway" v="residential"/>
    <tag k="name" v="Rowley Street"/>
  </way>
  <way id="10031524" version="5" timestamp="2008-03-06T23:13:51Z" uid="7617" user="Franc" changeset="278098">
    <nd ref="82393654"/>
    <nd ref="199702932"/>
    <nd ref="199702468"/>
    <nd ref="31427913"/>
    <nd ref="200079075"/>
    <tag k="created_by" v="Potlatch 0.6"/>
    <tag k="highway" v="residential"/>
    <tag k="name" v="Rowley Street"/>
  </way>
  <way id="10031524" version="6" timestamp="2010-02-15T15:03:40Z" uid="7617" user="Franc" changeset="3883877">
    <nd ref="82393654"/>
    <nd ref="639778286"/>
    <tag k="highway" v="residential"/>
    <tag k="name" v="Rowley Street"/>
  </way>
  <way id="10031524" version="7" timestamp="2010-06-07T20:11:14Z" uid="20949" user="Ebenezer" changeset="4931995"/>
  <way id="10031534" version="4" timestamp="2009-12-19T11:06:49Z" uid="30201" user="rrankin" changeset="3406016">
    <nd ref="82393730"/>
    <nd ref="82485468"/>
    <nd ref="38867554"/>
    <tag k="highway" v="residential"/>
    <tag k="name" v="Macpherson Street"/>
    <tag k="source" v="yahoo_imagery"/>
    <tag k="source:name" v="historical"/>
  </way>
  <way id="10031534" version="5" timestamp="2009-12-28T10:17:01Z" uid="7617" user="Franc" changeset="3469966">
    <nd ref="82393730"/>
    <nd ref="600325497"/>
    <nd ref="82485468"/>
    <nd ref="600325499"/>
    <nd ref="38867554"/>
    <tag k="highway" v="residential"/>
    <tag k="name" v="Macpherson Street"/>
    <tag k="source" v="yahoo_imagery"/>
    <tag k="source:name" v="historical"/>
  </way>
  <way id="10031534" version="6" timestamp="2010-07-08T01:18:35Z" uid="74617" user="JohnSmith" changeset="5162525">
    <nd ref="82393730"/>
    <nd ref="600325497"/>
    <nd ref="82485468"/>
    <nd ref="600325499"/>
    <nd ref="38867554"/>
    <tag k="highway" v="residential"/>
    <tag k="maxspeed" v="50"/>
    <tag k="maxspeed:source" v="default residential speed limit in Australia"/>
    <tag k="name" v="Macpherson Street"/>
    <tag k="source" v="yahoo_imagery"/>
    <tag k="source:name" v="historical"/>
  </way>
  <way id="10031534" version="7" timestamp="2012-01-15T09:09:45Z" uid="147510" user="woodpeck_fixbot" changeset="10395278">
    <nd ref="82393730"/>
    <nd ref="600325497"/>
    <nd ref="82485468"/>
    <nd ref="600325499"/>
    <nd ref="38867554"/>
    <tag k="highway" v="residential"/>
    <tag k="name" v="Macpherson Street"/>
    <tag k="source" v="yahoo_imagery"/>
    <tag k="source:name" v="historical"/>
  </way>
  <way id="10031614" version="1" timestamp="2007-10-21T07:34:02Z" uid="7617" user="Franc" changeset="271561">
    <nd ref="82390452"/>
    <nd ref="34993076"/>
    <nd ref="31427915"/>
    <tag k="created_by" v="Potlatch alpha"/>
    <tag k="highway" v="residential"/>
    <tag k="name" v="Wentworth St"/>
  </way>
  <way id="10031614" version="2" timestamp="2007-10-21T08:03:33Z" uid="7617" user="Franc" changeset="271561">
    <nd ref="82390452"/>
    <nd ref="34993076"/>
    <nd ref="31427915"/>
    <tag k="created_by" v="Potlatch alpha"/>
    <tag k="highway" v="residential"/>
    <tag k="name" v="Wentworth Street"/>
  </way>
  <way id="10031614" version="3" timestamp="2007-11-08T06:03:22Z" uid="7617" user="Franc" changeset="441827">
    <nd ref="82390452"/>
    <nd ref="34993076"/>
    <nd ref="31427915"/>
    <tag k="created_by" v="Potlatch alpha"/>
    <tag k="highway" v="residential"/>
    <tag k="name" v="Wentworth Street"/>
    <tag k="natural" v="Wentworth Road"/>
    <tag k="source:name" v="survey"/>
  </way>
  <way id="10031614" version="4" timestamp="2007-12-18T00:00:24Z" uid="12203" user="brainwad" changeset="352855">
    <nd ref="82390452"/>
    <nd ref="34993076"/>
    <nd ref="31427915"/>
    <tag k="created_by" v="Potlatch 0.5d"/>
    <tag k="highway" v="residential"/>
    <tag k="name" v="Wentworth Road"/>
  </way>
  <way id="10031614" version="5" timestamp="2008-01-01T01:47:47Z" uid="20949" user="Ebenezer" changeset="502048">
    <nd ref="82390452"/>
    <nd ref="34993076"/>
    <nd ref="200079728"/>
    <nd ref="31427915"/>
    <tag k="created_by" v="Potlatch 0.6"/>
    <tag k="highway" v="residential"/>
    <tag k="name" v="Wentworth Road"/>
  </way>
  <way id="10031614" version="6" timestamp="2008-01-01T01:48:13Z" uid="20949" user="Ebenezer" changeset="502048">
    <nd ref="82390452"/>
    <nd ref="34993076"/>
    <nd ref="200079728"/>
    <nd ref="200080210"/>
    <nd ref="31427915"/>
    <tag k="created_by" v="Potlatch 0.6"/>
    <tag k="highway" v="residential"/>
    <tag k="name" v="Wentworth Road"/>
  </way>
  <way id="10031614" version="7" timestamp="2008-01-06T18:22:56Z" uid="20949" user="Ebenezer" changeset="553811">
    <nd ref="82390452"/>
    <nd ref="34993076"/>
    <nd ref="200079728"/>
    <nd ref="200080210"/>
    <nd ref="31427915"/>
    <nd ref="82393654"/>
    <nd ref="199703593"/>
    <nd ref="31427917"/>
    <nd ref="199708442"/>
    <nd ref="199699573"/>
    <nd ref="199680893"/>
    <nd ref="175985039"/>
    <tag k="created_by" v="Potlatch 0.6a"/>
    <tag k="highway" v="secondary"/>
    <tag k="name" v="Wentworth Road"/>
  </way>
  <way id="10031614" version="8" timestamp="2008-02-12T03:19:23Z" uid="7617" user="Franc" changeset="104216">
    <nd ref="82390452"/>
    <nd ref="34993076"/>
    <nd ref="200079728"/>
    <nd ref="200080182"/>
    <nd ref="31427915"/>
    <nd ref="82393654"/>
    <nd ref="199703593"/>
    <nd ref="31427917"/>
    <nd ref="199708442"/>
    <nd ref="199699573"/>
    <nd ref="199680893"/>
    <nd ref="175985039"/>
    <tag k="created_by" v="Potlatch 0.6a"/>
    <tag k="highway" v="secondary"/>
    <tag k="name" v="Wentworth Road"/>
  </way>
  <way id="10031614" version="9" timestamp="2008-09-27T05:09:04Z" uid="7617" user="Franc" changeset="703319">
    <nd ref="82390452"/>
    <nd ref="300215895"/>
    <nd ref="34993076"/>
    <nd ref="200079728"/>
    <nd ref="200080182"/>
    <nd ref="31427915"/>
    <nd ref="82393654"/>
    <nd ref="199703593"/>
    <nd ref="31427917"/>
    <nd ref="199708442"/>
    <nd ref="199699573"/>
    <nd ref="199680893"/>
    <nd ref="175985039"/>
    <tag k="created_by" v="Potlatch 0.6a"/>
    <tag k="highway" v="secondary"/>
    <tag k="name" v="Wentworth Road"/>
  </way>
  <way id="10031614" version="10" timestamp="2010-01-05T12:47:18Z" uid="30201" user="rrankin" changeset="3544973">
    <nd ref="82390452"/>
    <nd ref="300215895"/>
    <nd ref="34993076"/>
    <nd ref="200079728"/>
    <nd ref="200080182"/>
    <nd ref="31427915"/>
    <nd ref="82393654"/>
    <nd ref="199703593"/>
    <nd ref="605335884"/>
    <tag k="highway" v="secondary"/>
    <tag k="name" v="Wentworth Road"/>
  </way>
  <way id="10031614" version="11" timestamp="2010-06-07T20:11:00Z" uid="20949" user="Ebenezer" changeset="4931995">
    <nd ref="82390452"/>
    <nd ref="300215895"/>
    <nd ref="34993076"/>
    <nd ref="200079728"/>
    <nd ref="200080182"/>
    <nd ref="31427915"/>
    <tag k="highway" v="secondary"/>
    <tag k="name" v="Wentworth Road"/>
  </way>
  <way id="10031614" version="12" timestamp="2011-06-19T12:54:52Z" uid="7617" user="Franc" changeset="8483675">
    <nd ref="82390452"/>
    <nd ref="300215895"/>
    <tag k="highway" v="secondary"/>
    <tag k="name" v="Wentworth Road"/>
  </way>
</osm>
