<?xml version='1.0' encoding='UTF-8'?>
<osm version="0.6" generator="libosmium/2.20.0">
  <way id="100594055" version="1" timestamp="2011-02-20T08:27:45Z" uid="4467" user="Rosscoe" changeset="7339494">
    <nd ref="1162996597"/>
    <nd ref="1162996596"/>
    <nd ref="1162996604"/>
    <nd ref="1162996599"/>
    <nd ref="1162996595"/>
    <nd ref="1162996605"/>
    <nd ref="363311458"/>
    <tag k="highway" v="tertiary"/>
    <tag k="name" v="Francis Road"/>
    <tag k="source" v="nearmap"/>
  </way>
  <way id="100594055" version="2" timestamp="2012-03-26T08:25:12Z" uid="22094" user="Chadzopkyo" changeset="11103281">
    <nd ref="1162996597"/>
    <nd ref="1162996604"/>
    <nd ref="1162996599"/>
    <nd ref="1162996595"/>
    <nd ref="1162996605"/>
    <nd ref="363311458"/>
    <tag k="highway" v="tertiary"/>
    <tag k="name" v="Francis Road"/>
    <tag k="source" v="nearmap"/>
  </way>
  <way id="100594056" version="1" timestamp="2011-02-20T08:27:45Z" uid="4467" user="Rosscoe" changeset="7339494">
    <nd ref="1162996603"/>
    <nd ref="1162996597"/>
    <tag k="bridge" v="yes"/>
    <tag k="highway" v="tertiary"/>
    <tag k="layer" v="1"/>
    <tag k="name" v="Francis Road"/>
    <tag k="source" v="nearmap"/>
  </way>
  <way id="100594056" version="2" timestamp="2012-03-26T08:25:12Z" uid="22094" user="Chadzopkyo" changeset="11103281">
    <nd ref="1162996603"/>
    <nd ref="1691661296"/>
    <nd ref="1162996597"/>
    <tag k="bridge" v="yes"/>
    <tag k="highway" v="tertiary"/>
    <tag k="layer" v="1"/>
    <tag k="name" v="Francis Road"/>
    <tag k="source" v="nearmap"/>
  </way>
  <way id="100594057" version="1" timestamp="2011-02-20T08:27:46Z" uid="4467" user="Rosscoe" changeset="7339494">
    <nd ref="268718758"/>
    <nd ref="1162996602"/>
    <nd ref="1162996606"/>
    <nd ref="1162996603"/>
    <tag k="highway" v="tertiary"/>
    <tag k="name" v="Francis Road"/>
    <tag k="source" v="nearmap"/>
  </way>
  <way id="100594057" version="2" timestamp="2012-03-26T08:25:12Z" uid="22094" user="Chadzopkyo" changeset="11103281">
    <nd ref="268718758"/>
    <nd ref="1691661266"/>
    <nd ref="1162996602"/>
    <nd ref="1162996606"/>
    <nd ref="1162996603"/>
    <tag k="highway" v="tertiary"/>
    <tag k="name" v="Francis Road"/>
    <tag k="source" v="nearmap"/>
  </way>
  <way id="100594161" version="1" timestamp="2011-02-20T08:31:19Z" uid="43863" user="Rundling" changeset="7339515">
    <nd ref="280698827"/>
    <nd ref="280698764"/>
    <nd ref="280698765"/>
    <tag k="highway" v="residential"/>
    <tag k="maxspeed" v="30"/>
    <tag k="name" v="Meisenweg"/>
  </way>
  <way id="100594162" version="1" timestamp="2011-02-20T08:31:20Z" uid="43863" user="Rundling" changeset="7339515">
    <nd ref="1162997356"/>
    <nd ref="280698827"/>
    <tag k="highway" v="track"/>
    <tag k="layer" v="-1"/>
    <tag k="tunnel" v="yes"/>
  </way>
  <way id="100594163" version="1" timestamp="2011-02-20T08:31:20Z" uid="43863" user="Rundling" changeset="7339515">
    <nd ref="1162997338"/>
    <nd ref="1162997355"/>
    <nd ref="1162997344"/>
    <nd ref="1162997348"/>
    <nd ref="1162997338"/>
    <tag k="building" v="yes"/>
  </way>
  <way id="100594164" version="1" timestamp="2011-02-20T08:31:20Z" uid="43863" user="Rundling" changeset="7339515">
    <nd ref="420671341"/>
    <nd ref="1162997339"/>
    <tag k="highway" v="residential"/>
    <tag k="maxspeed" v="30"/>
    <tag k="name" v="Immenbusch"/>
  </way>
</osm>
