<?xml version='1.0' encoding='UTF-8'?>
<osm version="0.6" generator="libosmium/2.20.0">
  <way id="100509465" version="2" timestamp="2011-04-20T12:59:33Z" uid="115477" user="wowik" changeset="7916018">
    <nd ref="1161887138"/>
    <nd ref="1161887252"/>
    <nd ref="594987497"/>
    <nd ref="594987491"/>
    <nd ref="1161887138"/>
    <tag k="addr:city" v="Москва"/>
    <tag k="addr:country" v="RU"/>
    <tag k="building" v="yes"/>
    <tag k="name" v="&quot;Дом педагогической книги&quot;"/>
    <tag k="shop" v="supermarket"/>
  </way>
  <way id="100509465" version="3" timestamp="2011-12-12T14:23:59Z" uid="126304" user="TarzanASG" changeset="10099449">
    <nd ref="1161887138"/>
    <nd ref="1161887252"/>
    <nd ref="594987497"/>
    <nd ref="594987491"/>
    <nd ref="1161887138"/>
    <tag k="addr:city" v="Москва"/>
    <tag k="addr:country" v="RU"/>
    <tag k="building" v="store"/>
    <tag k="name" v="&quot;Дом педагогической книги&quot;"/>
    <tag k="shop" v="supermarket"/>
  </way>
  <way id="100509465" version="4" timestamp="2011-12-12T17:15:50Z" uid="126304" user="TarzanASG" changeset="10100388">
    <nd ref="1161887138"/>
    <nd ref="1161887252"/>
    <nd ref="594987497"/>
    <nd ref="594987491"/>
    <nd ref="1161887138"/>
    <tag k="addr:city" v="Москва"/>
    <tag k="addr:country" v="RU"/>
    <tag k="building" v="retail"/>
    <tag k="name" v="&quot;Дом педагогической книги&quot;"/>
    <tag k="shop" v="supermarket"/>
  </way>
  <way id="100509465" version="5" timestamp="2011-12-14T12:47:28Z" uid="143266" user="Sergey Astakhov" changeset="10115724">
    <nd ref="1161887138"/>
    <nd ref="1161887252"/>
    <nd ref="594987497"/>
    <nd ref="594987491"/>
    <nd ref="1161887138"/>
    <tag k="addr:city" v="Москва"/>
    <tag k="addr:country" v="RU"/>
    <tag k="building" v="store"/>
    <tag k="name" v="&quot;Дом педагогической книги&quot;"/>
    <tag k="shop" v="supermarket"/>
  </way>
  <way id="100509465" version="6" timestamp="2011-12-14T13:56:26Z" uid="143266" user="Sergey Astakhov" changeset="10116192">
    <nd ref="1161887138"/>
    <nd ref="1161887252"/>
    <nd ref="594987497"/>
    <nd ref="594987491"/>
    <nd ref="1161887138"/>
    <tag k="addr:city" v="Москва"/>
    <tag k="addr:country" v="RU"/>
    <tag k="building" v="yes"/>
    <tag k="name" v="&quot;Дом педагогической книги&quot;"/>
    <tag k="shop" v="supermarket"/>
  </way>
  <way id="100509465" version="7" timestamp="2012-01-21T21:15:45Z" uid="174822" user="Canabis" changeset="10459840">
    <nd ref="1161887138"/>
    <nd ref="1161887252"/>
    <nd ref="594987497"/>
    <nd ref="594987491"/>
    <nd ref="1161887138"/>
    <tag k="addr:city" v="Москва"/>
    <tag k="addr:country" v="RU"/>
    <tag k="building" v="yes"/>
    <tag k="name" v="Дом педагогической книги"/>
    <tag k="shop" v="books"/>
  </way>
</osm>
