<?xml version='1.0' encoding='UTF-8'?>
<osm version="0.6" generator="libosmium/2.20.0">
  <way id="101065458" version="2" timestamp="2011-04-16T16:58:47Z" uid="6269" user="Mueck" changeset="7879954">
    <nd ref="1166990519"/>
    <nd ref="1247210708"/>
    <nd ref="1166990174"/>
    <nd ref="1166990699"/>
    <nd ref="1166990457"/>
    <nd ref="1166990519"/>
    <tag k="addr:housenumber" v="50"/>
    <tag k="addr:street" v="Wilhelmstraße"/>
    <tag k="building" v="yes"/>
    <tag k="source" v="LA-KA"/>
  </way>
  <way id="101065458" version="3" timestamp="2011-04-24T17:17:46Z" uid="6893" user="[HEK]the_other" changeset="7954790">
    <nd ref="1166990519"/>
    <nd ref="1166990174"/>
    <nd ref="1166990699"/>
    <nd ref="1166990457"/>
    <nd ref="1166990519"/>
    <tag k="addr:housenumber" v="50"/>
    <tag k="addr:street" v="Wilhelmstraße"/>
    <tag k="building" v="yes"/>
    <tag k="source" v="LA-KA"/>
  </way>
  <way id="101065591" version="3" timestamp="2011-04-14T11:19:37Z" uid="6269" user="Mueck" changeset="7859779">
    <nd ref="1166990719"/>
    <nd ref="1166990448"/>
    <nd ref="1166990701"/>
    <nd ref="1166990369"/>
    <nd ref="1166990719"/>
    <tag k="addr:city" v="Karlsruhe"/>
    <tag k="addr:country" v="DE"/>
    <tag k="addr:housenumber" v="10"/>
    <tag k="addr:postcode" v="76137"/>
    <tag k="addr:street" v="Schützenstraße"/>
    <tag k="amenity" v="fraternity"/>
    <tag k="building" v="yes"/>
    <tag k="building:use" v="dormitory"/>
    <tag k="name" v="Karlsruher Wingolf"/>
    <tag k="official_name" v="Karlsruher Wingolf"/>
    <tag k="verbindung:art" v="Wingolf"/>
    <tag k="verbindung:couleur" v="farbentragend"/>
    <tag k="verbindung:farben" v="schwarz-weiß-gold"/>
    <tag k="verbindung:fechten" v="nichtschlagend"/>
    <tag k="verbindung:konfession" v="ja"/>
    <tag k="verbindung:mitglieder" v="männlich"/>
    <tag k="verbindung:tramizu" v="karlsruher_wingolf_karlsruhe.html"/>
    <tag k="verbindung:typ" v="akademisch"/>
    <tag k="verbindung:verband" v="WB"/>
    <tag k="website" v="http://www.karlsruher-wingolf.de/"/>
  </way>
  <way id="101065591" version="4" timestamp="2011-04-14T20:52:26Z" uid="6269" user="Mueck" changeset="7865008">
    <nd ref="1166990719"/>
    <nd ref="1166990448"/>
    <nd ref="1166990701"/>
    <nd ref="1166990369"/>
    <nd ref="1166990719"/>
    <tag k="addr:city" v="Karlsruhe"/>
    <tag k="addr:country" v="DE"/>
    <tag k="addr:housenumber" v="10"/>
    <tag k="addr:postcode" v="76137"/>
    <tag k="addr:street" v="Schützenstraße"/>
    <tag k="amenity" v="fraternity"/>
    <tag k="building" v="yes"/>
    <tag k="building:use" v="dormitory"/>
    <tag k="name" v="Karlsruher Wingolf"/>
    <tag k="official_name" v="Karlsruher Wingolf"/>
    <tag k="verbindung" v="haus"/>
    <tag k="verbindung:art" v="Wingolf"/>
    <tag k="verbindung:couleur" v="farbentragend"/>
    <tag k="verbindung:farben" v="schwarz-weiß-gold"/>
    <tag k="verbindung:fechten" v="nichtschlagend"/>
    <tag k="verbindung:konfession" v="ja"/>
    <tag k="verbindung:mitglieder" v="männlich"/>
    <tag k="verbindung:tramizu" v="karlsruher_wingolf_karlsruhe.html"/>
    <tag k="verbindung:typ" v="akademisch"/>
    <tag k="verbindung:verband" v="WB"/>
    <tag k="website" v="http://www.karlsruher-wingolf.de/"/>
  </way>
  <way id="101065619" version="2" timestamp="2011-04-01T22:56:52Z" uid="6269" user="Mueck" changeset="7740223">
    <nd ref="16725993"/>
    <nd ref="1166990231"/>
    <nd ref="1228567419"/>
    <nd ref="1228567507"/>
    <nd ref="1228567542"/>
    <nd ref="1228567449"/>
    <nd ref="1228567391"/>
    <tag k="highway" v="service"/>
  </way>
</osm>
