<?xml version='1.0' encoding='UTF-8'?>
<osm version="0.6" generator="libosmium/2.20.0">
  <way id="101482551" version="1" timestamp="2011-02-25T07:20:48Z" uid="43863" user="Rundling" changeset="7387932">
    <nd ref="1171700361"/>
    <nd ref="1171700362"/>
    <tag k="bridge" v="yes"/>
    <tag k="highway" v="tertiary"/>
    <tag k="layer" v="1"/>
    <tag k="maxspeed" v="50"/>
    <tag k="ref" v="K 12"/>
  </way>
  <way id="101482553" version="1" timestamp="2011-02-25T07:20:49Z" uid="43863" user="Rundling" changeset="7387932">
    <nd ref="1171700362"/>
    <nd ref="300424049"/>
    <nd ref="300424050"/>
    <nd ref="300424051"/>
    <nd ref="31328778"/>
    <tag k="highway" v="tertiary"/>
    <tag k="maxspeed" v="50"/>
    <tag k="ref" v="K 12"/>
  </way>
  <way id="101482553" version="2" timestamp="2011-02-27T13:25:07Z" uid="413296" user="benedikt_xvi" changeset="7410608">
    <nd ref="1171700362"/>
    <nd ref="300424049"/>
    <nd ref="300424050"/>
    <nd ref="300424051"/>
    <nd ref="1177152494"/>
    <nd ref="31328778"/>
    <tag k="highway" v="tertiary"/>
    <tag k="maxspeed" v="50"/>
    <tag k="ref" v="K 12"/>
  </way>
</osm>
