<?xml version='1.0' encoding='UTF-8'?>
<osm version="0.6" generator="libosmium/2.20.0">
  <way id="101622193" version="2" timestamp="2011-03-02T19:15:53Z" uid="9581" user="Lobelt" changeset="7440328">
    <nd ref="279700266"/>
    <nd ref="307408022"/>
    <nd ref="279700571"/>
    <tag k="highway" v="tertiary"/>
    <tag k="name" v="Waldhofstraße"/>
    <tag k="oneway" v="yes"/>
  </way>
  <way id="101622193" version="4" timestamp="2012-02-28T21:20:41Z" uid="136321" user="Teddy73" changeset="10822320"/>
  <way id="101622194" version="2" timestamp="2011-03-02T19:15:59Z" uid="9581" user="Lobelt" changeset="7440328">
    <nd ref="249247095"/>
    <nd ref="288999613"/>
    <tag k="highway" v="tertiary"/>
    <tag k="name" v="Waldhofstraße"/>
    <tag k="oneway" v="yes"/>
  </way>
  <way id="101622194" version="4" timestamp="2012-02-28T21:20:41Z" uid="136321" user="Teddy73" changeset="10822320"/>
  <way id="101622195" version="2" timestamp="2011-03-02T19:16:32Z" uid="9581" user="Lobelt" changeset="7440328">
    <nd ref="288999613"/>
    <nd ref="26915516"/>
    <nd ref="279700266"/>
    <tag k="highway" v="tertiary"/>
    <tag k="name" v="Waldhofstraße"/>
    <tag k="oneway" v="yes"/>
  </way>
  <way id="101622195" version="3" timestamp="2012-02-28T21:20:38Z" uid="136321" user="Teddy73" changeset="10822320">
    <nd ref="288999613"/>
    <nd ref="1652054982"/>
    <tag k="highway" v="tertiary"/>
    <tag k="name" v="Waldhofstraße"/>
    <tag k="oneway" v="yes"/>
  </way>
  <way id="101622195" version="4" timestamp="2012-02-28T21:47:39Z" uid="136321" user="Teddy73" changeset="10822320"/>
</osm>
