<?xml version='1.0' encoding='UTF-8'?>
<osm version="0.6" generator="libosmium/2.20.0">
  <way id="10184058" version="3" timestamp="2010-08-27T15:12:57Z" uid="4467" user="Rosscoe" changeset="5608652">
    <nd ref="83918984"/>
    <nd ref="84049633"/>
    <nd ref="882487259"/>
    <nd ref="882487260"/>
    <nd ref="882487261"/>
    <nd ref="882487262"/>
    <nd ref="84020382"/>
    <nd ref="84049635"/>
    <nd ref="84049637"/>
    <nd ref="83970679"/>
    <tag k="highway" v="residential"/>
    <tag k="name" v="Corn Tassle Road"/>
    <tag k="tiger:cfcc" v="A41"/>
    <tag k="tiger:county" v="Fairfield, CT"/>
    <tag k="tiger:name_base" v="Corn Tassle"/>
    <tag k="tiger:name_type" v="Rd"/>
    <tag k="tiger:reviewed" v="no"/>
    <tag k="tiger:separated" v="no"/>
    <tag k="tiger:source" v="tiger_import_dch_v0.6_20070809"/>
    <tag k="tiger:tlid" v="3270747:3231081"/>
    <tag k="tiger:upload_uuid" v="bulk_upload.pl-9f1407d9-db1a-4106-9797-86a28f3b25b2"/>
    <tag k="tiger:zip_left" v="06811"/>
    <tag k="tiger:zip_right" v="06811"/>
  </way>
  <way id="10184081" version="2" timestamp="2008-02-12T03:08:03Z" uid="7617" user="Franc" changeset="104216">
    <nd ref="60715592"/>
    <nd ref="77626872"/>
    <nd ref="8965586"/>
    <tag k="created_by" v="Potlatch alpha"/>
    <tag k="highway" v="residential"/>
    <tag k="name" v="Thornton St."/>
  </way>
  <way id="10184081" version="3" timestamp="2008-02-19T11:19:40Z" uid="21578" user="ChrisJ" changeset="160402">
    <nd ref="60715592"/>
    <nd ref="77626872"/>
    <nd ref="8965586"/>
    <nd ref="8965586"/>
    <tag k="created_by" v="Potlatch alpha"/>
    <tag k="highway" v="residential"/>
    <tag k="name" v="Thornton Street"/>
  </way>
  <way id="10184081" version="4" timestamp="2008-03-13T08:00:35Z" uid="7617" user="Franc" changeset="313247">
    <nd ref="60715592"/>
    <nd ref="77626872"/>
    <nd ref="8965586"/>
    <tag k="created_by" v="Potlatch alpha"/>
    <tag k="highway" v="residential"/>
    <tag k="name" v="Thornton Street"/>
  </way>
  <way id="10184081" version="5" timestamp="2009-11-14T12:03:29Z" uid="117890" user="Jonathan Trott" changeset="3112508">
    <nd ref="60715592"/>
    <nd ref="77626872"/>
    <nd ref="8965586"/>
    <tag k="highway" v="residential"/>
    <tag k="name" v="Thornton Street"/>
  </way>
  <way id="10184081" version="6" timestamp="2010-02-14T02:40:52Z" uid="7617" user="Franc" changeset="3870267">
    <nd ref="60715592"/>
    <nd ref="638866946"/>
    <nd ref="77626872"/>
    <nd ref="8965586"/>
    <tag k="highway" v="residential"/>
    <tag k="name" v="Thornton Street"/>
  </way>
  <way id="10184081" version="7" timestamp="2010-07-07T22:15:13Z" uid="74617" user="JohnSmith" changeset="5161069">
    <nd ref="60715592"/>
    <nd ref="638866946"/>
    <nd ref="77626872"/>
    <nd ref="8965586"/>
    <tag k="highway" v="residential"/>
    <tag k="maxspeed" v="50"/>
    <tag k="maxspeed:source" v="default residential speed limit in Australia"/>
    <tag k="name" v="Thornton Street"/>
  </way>
  <way id="10184081" version="8" timestamp="2010-07-17T12:19:36Z" uid="7617" user="Franc" changeset="5242018">
    <nd ref="60715592"/>
    <nd ref="638866946"/>
    <nd ref="77626872"/>
    <nd ref="821812265"/>
    <tag k="highway" v="residential"/>
    <tag k="maxspeed" v="50"/>
    <tag k="maxspeed:source" v="default residential speed limit in Australia"/>
    <tag k="name" v="Thornton Street"/>
  </way>
  <way id="10184081" version="9" timestamp="2012-01-15T09:22:33Z" uid="147510" user="woodpeck_fixbot" changeset="10395278">
    <nd ref="60715592"/>
    <nd ref="638866946"/>
    <nd ref="77626872"/>
    <nd ref="821812265"/>
    <tag k="highway" v="residential"/>
    <tag k="name" v="Thornton Street"/>
  </way>
  <way id="10184084" version="7" timestamp="2010-07-07T22:14:13Z" uid="74617" user="JohnSmith" changeset="5161069">
    <nd ref="84049718"/>
    <nd ref="77626379"/>
    <tag k="highway" v="residential"/>
    <tag k="maxspeed" v="50"/>
    <tag k="maxspeed:source" v="default residential speed limit in Australia"/>
    <tag k="name" v="Addison Street"/>
  </way>
  <way id="10184084" version="8" timestamp="2012-01-15T09:22:34Z" uid="147510" user="woodpeck_fixbot" changeset="10395278">
    <nd ref="84049718"/>
    <nd ref="77626379"/>
    <tag k="highway" v="residential"/>
    <tag k="name" v="Addison Street"/>
  </way>
  <way id="10184085" version="4" timestamp="2010-07-07T22:14:30Z" uid="74617" user="JohnSmith" changeset="5161069">
    <nd ref="84049725"/>
    <nd ref="84049718"/>
    <nd ref="84049737"/>
    <tag k="highway" v="residential"/>
    <tag k="maxspeed" v="50"/>
    <tag k="maxspeed:source" v="default residential speed limit in Australia"/>
    <tag k="name" v="Hampton Street"/>
  </way>
  <way id="10184085" version="5" timestamp="2010-07-17T12:19:40Z" uid="7617" user="Franc" changeset="5242018">
    <nd ref="84049725"/>
    <nd ref="821812289"/>
    <nd ref="84049718"/>
    <nd ref="84049737"/>
    <tag k="highway" v="residential"/>
    <tag k="maxspeed" v="50"/>
    <tag k="maxspeed:source" v="default residential speed limit in Australia"/>
    <tag k="name" v="Hampton Street"/>
  </way>
  <way id="10184085" version="6" timestamp="2012-01-15T09:22:35Z" uid="147510" user="woodpeck_fixbot" changeset="10395278">
    <nd ref="84049725"/>
    <nd ref="821812289"/>
    <nd ref="84049718"/>
    <nd ref="84049737"/>
    <tag k="highway" v="residential"/>
    <tag k="name" v="Hampton Street"/>
  </way>
  <way id="10184086" version="4" timestamp="2010-02-14T01:33:23Z" uid="7617" user="Franc" changeset="3870065">
    <nd ref="84049747"/>
    <nd ref="293134354"/>
    <nd ref="293134340"/>
    <nd ref="293134352"/>
    <nd ref="638844978"/>
    <nd ref="84049759"/>
    <tag k="highway" v="residential"/>
    <tag k="name" v="Young Street"/>
  </way>
  <way id="10184086" version="5" timestamp="2010-07-07T22:15:30Z" uid="74617" user="JohnSmith" changeset="5161069">
    <nd ref="84049747"/>
    <nd ref="293134354"/>
    <nd ref="293134340"/>
    <nd ref="293134352"/>
    <nd ref="638844978"/>
    <nd ref="84049759"/>
    <tag k="highway" v="residential"/>
    <tag k="maxspeed" v="50"/>
    <tag k="maxspeed:source" v="default residential speed limit in Australia"/>
    <tag k="name" v="Young Street"/>
  </way>
  <way id="10184086" version="6" timestamp="2012-01-15T09:22:36Z" uid="147510" user="woodpeck_fixbot" changeset="10395278">
    <nd ref="84049747"/>
    <nd ref="293134354"/>
    <nd ref="293134340"/>
    <nd ref="293134352"/>
    <nd ref="638844978"/>
    <nd ref="84049759"/>
    <tag k="highway" v="residential"/>
    <tag k="name" v="Young Street"/>
  </way>
  <way id="10184089" version="5" timestamp="2010-02-10T12:09:39Z" uid="7617" user="Franc" changeset="3839702">
    <nd ref="84049779"/>
    <nd ref="634910232"/>
    <nd ref="84049769"/>
    <nd ref="293625893"/>
    <tag k="highway" v="service"/>
    <tag k="name" v="Gow Lane"/>
  </way>
  <way id="10184090" version="4" timestamp="2010-07-07T22:15:50Z" uid="74617" user="JohnSmith" changeset="5161069">
    <nd ref="84049785"/>
    <nd ref="84049789"/>
    <tag k="highway" v="residential"/>
    <tag k="maxspeed" v="50"/>
    <tag k="maxspeed:source" v="default residential speed limit in Australia"/>
    <tag k="name" v="Claremont Street"/>
  </way>
  <way id="10184090" version="5" timestamp="2012-01-15T09:22:38Z" uid="147510" user="woodpeck_fixbot" changeset="10395278">
    <nd ref="84049785"/>
    <nd ref="84049789"/>
    <tag k="highway" v="residential"/>
    <tag k="name" v="Claremont Street"/>
  </way>
  <way id="10184091" version="4" timestamp="2010-07-07T22:14:15Z" uid="74617" user="JohnSmith" changeset="5161069">
    <nd ref="84049782"/>
    <nd ref="84049786"/>
    <tag k="highway" v="residential"/>
    <tag k="maxspeed" v="50"/>
    <tag k="maxspeed:source" v="default residential speed limit in Australia"/>
    <tag k="name" v="Bridge Street"/>
  </way>
  <way id="10184091" version="5" timestamp="2012-01-15T09:22:39Z" uid="147510" user="woodpeck_fixbot" changeset="10395278">
    <nd ref="84049782"/>
    <nd ref="84049786"/>
    <tag k="highway" v="residential"/>
    <tag k="name" v="Bridge Street"/>
  </way>
  <way id="10184092" version="4" timestamp="2010-07-07T22:15:41Z" uid="74617" user="JohnSmith" changeset="5161069">
    <nd ref="84049781"/>
    <nd ref="84049787"/>
    <tag k="highway" v="residential"/>
    <tag k="maxspeed" v="50"/>
    <tag k="maxspeed:source" v="default residential speed limit in Australia"/>
    <tag k="name" v="Bayville Street"/>
  </way>
  <way id="10184092" version="5" timestamp="2012-01-15T09:22:41Z" uid="147510" user="woodpeck_fixbot" changeset="10395278">
    <nd ref="84049781"/>
    <nd ref="84049787"/>
    <tag k="highway" v="residential"/>
    <tag k="name" v="Bayville Street"/>
  </way>
  <way id="10184093" version="4" timestamp="2010-07-07T22:15:56Z" uid="74617" user="JohnSmith" changeset="5161069">
    <nd ref="84049802"/>
    <nd ref="293134313"/>
    <nd ref="84049795"/>
    <tag k="highway" v="residential"/>
    <tag k="maxspeed" v="50"/>
    <tag k="maxspeed:source" v="default residential speed limit in Australia"/>
    <tag k="name" v="Carieville Street"/>
  </way>
  <way id="10184093" version="5" timestamp="2012-01-15T09:22:42Z" uid="147510" user="woodpeck_fixbot" changeset="10395278">
    <nd ref="84049802"/>
    <nd ref="293134313"/>
    <nd ref="84049795"/>
    <tag k="highway" v="residential"/>
    <tag k="name" v="Carieville Street"/>
  </way>
</osm>
