<?xml version='1.0' encoding='UTF-8'?>
<osm version="0.6" generator="libosmium/2.20.0">
  <way id="102029098" version="1" timestamp="2011-02-27T21:12:42Z" uid="115477" user="wowik" changeset="7415539">
    <nd ref="1177942159"/>
    <nd ref="1177942127"/>
    <nd ref="1177942156"/>
    <nd ref="1177942165"/>
    <nd ref="1177942121"/>
    <nd ref="1177942133"/>
    <nd ref="1177942160"/>
    <nd ref="1177942168"/>
    <nd ref="1177942159"/>
    <tag k="building" v="yes"/>
    <tag k="building:levels" v="1"/>
  </way>
  <way id="102029098" version="2" timestamp="2012-03-27T16:57:38Z" uid="481934" user="iWowik" changeset="11118068">
    <nd ref="1177942159"/>
    <nd ref="1177942127"/>
    <nd ref="1177942156"/>
    <nd ref="1177942165"/>
    <nd ref="1177942121"/>
    <nd ref="1177942133"/>
    <nd ref="1177942160"/>
    <nd ref="1177942168"/>
    <nd ref="1177942159"/>
    <tag k="addr:city" v="Москва"/>
    <tag k="addr:country" v="RU"/>
    <tag k="building" v="yes"/>
    <tag k="building:levels" v="1"/>
  </way>
  <way id="102029099" version="1" timestamp="2011-02-27T21:12:42Z" uid="115477" user="wowik" changeset="7415539">
    <nd ref="1177942124"/>
    <nd ref="1177942171"/>
    <nd ref="1177942136"/>
    <nd ref="1177942131"/>
    <nd ref="1177942166"/>
    <nd ref="1177942162"/>
    <nd ref="1177942128"/>
    <nd ref="1177942118"/>
    <nd ref="1177942124"/>
    <tag k="building" v="yes"/>
    <tag k="building:levels" v="1"/>
  </way>
  <way id="102029099" version="2" timestamp="2012-03-27T16:57:33Z" uid="481934" user="iWowik" changeset="11118068">
    <nd ref="1177942124"/>
    <nd ref="1177942171"/>
    <nd ref="1177942136"/>
    <nd ref="1177942131"/>
    <nd ref="1177942166"/>
    <nd ref="1177942162"/>
    <nd ref="1177942128"/>
    <nd ref="1177942118"/>
    <nd ref="1177942124"/>
    <tag k="addr:city" v="Москва"/>
    <tag k="addr:country" v="RU"/>
    <tag k="building" v="yes"/>
    <tag k="building:levels" v="1"/>
  </way>
  <way id="102029797" version="1" timestamp="2011-02-27T21:25:00Z" uid="43863" user="Rundling" changeset="7415614">
    <nd ref="1177962678"/>
    <nd ref="1177962661"/>
    <nd ref="1177962666"/>
    <nd ref="1177962671"/>
    <nd ref="1177962678"/>
    <tag k="addr:city" v="Bohlsen"/>
    <tag k="addr:country" v="DE"/>
    <tag k="addr:housename" v="Büro Keksfabrik"/>
    <tag k="addr:housenumber" v="1"/>
    <tag k="addr:postcode" v="29581"/>
    <tag k="addr:street" v="Neuer Weg"/>
    <tag k="building" v="yes"/>
    <tag k="email" v="info@bohlensenermuehle.de"/>
    <tag k="fax" v="+49 5808 987 55"/>
    <tag k="phone" v="+49 5808 987 0"/>
    <tag k="website" v="www.bohlsenermuehle.de"/>
  </way>
  <way id="102029797" version="2" timestamp="2011-02-27T21:51:58Z" uid="409082" user="Zacko" changeset="7415877">
    <nd ref="1177962678"/>
    <nd ref="1177962661"/>
    <nd ref="1177962666"/>
    <nd ref="1178014450"/>
    <nd ref="1178014479"/>
    <nd ref="1177962671"/>
    <nd ref="1177962678"/>
    <tag k="addr:city" v="Bohlsen"/>
    <tag k="addr:country" v="DE"/>
    <tag k="addr:housename" v="Büro Keksfabrik"/>
    <tag k="addr:housenumber" v="1"/>
    <tag k="addr:postcode" v="29581"/>
    <tag k="addr:street" v="Neuer Weg"/>
    <tag k="building" v="yes"/>
    <tag k="email" v="info@bohlensenermuehle.de"/>
    <tag k="fax" v="+49 5808 987 55"/>
    <tag k="phone" v="+49 5808 987 0"/>
    <tag k="website" v="www.bohlsenermuehle.de"/>
  </way>
  <way id="102029797" version="3" timestamp="2011-02-27T22:11:55Z" uid="43863" user="Rundling" changeset="7416036">
    <nd ref="1177962678"/>
    <nd ref="1177962661"/>
    <nd ref="1177962666"/>
    <nd ref="1178014450"/>
    <nd ref="1178014479"/>
    <nd ref="1177962671"/>
    <nd ref="1177962678"/>
    <tag k="addr:city" v="Bohlsen"/>
    <tag k="addr:country" v="DE"/>
    <tag k="addr:housename" v="Bohlsener Mühle"/>
    <tag k="addr:housenumber" v="1"/>
    <tag k="addr:postcode" v="29581"/>
    <tag k="addr:street" v="Neuer Weg"/>
    <tag k="building" v="yes"/>
    <tag k="email" v="info@bohlensenermuehle.de"/>
    <tag k="fax" v="+49 5808 987 55"/>
    <tag k="phone" v="+49 5808 987 0"/>
    <tag k="website" v="www.bohlsenermuehle.de"/>
  </way>
</osm>
