<?xml version='1.0' encoding='UTF-8'?>
<osm version="0.6" generator="libosmium/2.20.0">
  <way id="102145689" version="2" timestamp="2011-05-08T09:12:58Z" uid="9581" user="Lobelt" changeset="8080437">
    <nd ref="1055495328"/>
    <nd ref="1057703630"/>
    <nd ref="506970488"/>
    <nd ref="1057703647"/>
    <nd ref="1057703584"/>
    <nd ref="506970489"/>
    <nd ref="506970490"/>
    <nd ref="506970491"/>
    <nd ref="286193914"/>
    <tag k="highway" v="tertiary"/>
    <tag k="name" v="Kreuznacher Straße"/>
    <tag k="ref" v="K 48"/>
    <tag k="source:name" v="http://www.allgemeine-zeitung.de/region/bad-kreuznach-bad-sobernheim-kirn/vg-langenlonsheim/guldental/7359055.htm"/>
  </way>
  <way id="102145689" version="3" timestamp="2011-07-01T22:25:55Z" uid="440308" user="spezialist" changeset="8603742">
    <nd ref="1055495328"/>
    <nd ref="1057703630"/>
    <nd ref="506970488"/>
    <nd ref="1057703647"/>
    <nd ref="1057703584"/>
    <nd ref="506970489"/>
    <nd ref="506970490"/>
    <nd ref="506970491"/>
    <nd ref="286193914"/>
    <tag k="highway" v="unclassified"/>
    <tag k="name" v="Kreuznacher Straße"/>
    <tag k="ref" v="K 48"/>
    <tag k="source:name" v="http://www.allgemeine-zeitung.de/region/bad-kreuznach-bad-sobernheim-kirn/vg-langenlonsheim/guldental/7359055.htm"/>
  </way>
  <way id="102145689" version="4" timestamp="2011-07-03T11:26:33Z" uid="454696" user="Mütze0670" changeset="8617404">
    <nd ref="1055495328"/>
    <nd ref="1057703630"/>
    <nd ref="506970488"/>
    <nd ref="1057703647"/>
    <nd ref="1057703584"/>
    <nd ref="506970489"/>
    <nd ref="506970490"/>
    <nd ref="506970491"/>
    <nd ref="286193914"/>
    <tag k="highway" v="unclassified"/>
    <tag k="name" v="Auf dem Wörth"/>
    <tag k="oneway" v="no"/>
    <tag k="ref" v="K 48"/>
    <tag k="source:name" v="http://www.allgemeine-zeitung.de/region/bad-kreuznach-bad-sobernheim-kirn/vg-langenlonsheim/guldental/7359055.htm"/>
  </way>
  <way id="102145689" version="5" timestamp="2011-07-14T17:00:06Z" uid="16696" user="Hike39" changeset="8723871">
    <nd ref="1055495328"/>
    <nd ref="1057703630"/>
    <nd ref="506970488"/>
    <nd ref="1057703647"/>
    <nd ref="1057703584"/>
    <nd ref="506970489"/>
    <nd ref="506970490"/>
    <tag k="highway" v="unclassified"/>
    <tag k="name" v="Auf dem Wörth"/>
    <tag k="oneway" v="no"/>
    <tag k="ref" v="K 48"/>
    <tag k="source:name" v="http://www.allgemeine-zeitung.de/region/bad-kreuznach-bad-sobernheim-kirn/vg-langenlonsheim/guldental/7359055.htm"/>
  </way>
</osm>
