<?xml version='1.0' encoding='UTF-8'?>
<osm version="0.6" generator="libosmium/2.20.0">
  <way id="102784207" version="2" timestamp="2011-04-28T09:33:38Z" uid="115477" user="wowik" changeset="7992841">
    <nd ref="1187076263"/>
    <nd ref="1187075594"/>
    <nd ref="1187075350"/>
    <nd ref="1187075042"/>
    <nd ref="1187076780"/>
    <nd ref="1187076482"/>
    <nd ref="1187076205"/>
    <nd ref="1187075801"/>
    <nd ref="1187075470"/>
    <nd ref="1187075256"/>
    <nd ref="1187076263"/>
    <tag k="addr:city" v="Москва"/>
    <tag k="addr:country" v="RU"/>
    <tag k="addr:housenumber" v="33"/>
    <tag k="addr:street" v="Валовая улица"/>
    <tag k="building" v="apartments"/>
    <tag k="building:levels" v="7"/>
  </way>
  <way id="102784224" version="2" timestamp="2011-04-28T09:33:38Z" uid="115477" user="wowik" changeset="7992841">
    <nd ref="1187075393"/>
    <nd ref="1187076075"/>
    <nd ref="474380481"/>
    <nd ref="1187076829"/>
    <nd ref="1187075541"/>
    <nd ref="474380483"/>
    <nd ref="474380484"/>
    <nd ref="1187075393"/>
    <tag k="addr:city" v="Москва"/>
    <tag k="addr:country" v="RU"/>
    <tag k="addr:housenumber" v="4 с1"/>
    <tag k="addr:street" v="Большой Строченовский переулок"/>
    <tag k="building" v="yes"/>
    <tag k="building:levels" v="6"/>
    <tag k="cladr:code" v="77000000000281600"/>
  </way>
  <way id="102784224" version="3" timestamp="2012-03-28T21:34:52Z" uid="336354" user="esaulenka" changeset="11131620"/>
</osm>
