<?xml version='1.0' encoding='UTF-8'?>
<osm version="0.6" generator="libosmium/2.20.0">
  <way id="102926125" version="1" timestamp="2011-03-06T03:10:12Z" uid="4467" user="Rosscoe" changeset="7469583">
    <nd ref="1188538082"/>
    <nd ref="1188538035"/>
    <nd ref="1188538058"/>
    <nd ref="1188538062"/>
    <nd ref="1188538032"/>
    <nd ref="1188538037"/>
    <tag k="highway" v="tertiary"/>
    <tag k="name" v="Wreckyn Street"/>
    <tag k="oneway" v="yes"/>
  </way>
  <way id="102926125" version="2" timestamp="2011-05-14T04:31:46Z" uid="11111" user="melb_guy" changeset="8137368">
    <nd ref="1188538082"/>
    <nd ref="1188538035"/>
    <nd ref="1188538058"/>
    <nd ref="1188538062"/>
    <nd ref="1188538032"/>
    <nd ref="1188538037"/>
    <tag k="highway" v="primary_link"/>
    <tag k="oneway" v="yes"/>
  </way>
  <way id="102926126" version="1" timestamp="2011-03-06T03:10:12Z" uid="4467" user="Rosscoe" changeset="7469583">
    <nd ref="1188538038"/>
    <nd ref="1188538018"/>
    <nd ref="1188538080"/>
    <nd ref="1188538077"/>
    <nd ref="611991919"/>
    <nd ref="611991920"/>
    <tag k="highway" v="residential"/>
    <tag k="maxspeed" v="50"/>
    <tag k="maxspeed:source" v="default residential speed limit in Australia"/>
    <tag k="name" v="Blackwood Street"/>
    <tag k="oneway" v="yes"/>
  </way>
  <way id="102926126" version="2" timestamp="2011-04-16T10:46:06Z" uid="4467" user="Rosscoe" changeset="7877170">
    <nd ref="1188538038"/>
    <nd ref="1188538018"/>
    <nd ref="1188538080"/>
    <nd ref="1188538077"/>
    <nd ref="611991919"/>
    <nd ref="611991920"/>
    <tag k="highway" v="residential"/>
    <tag k="maxspeed" v="50"/>
    <tag k="name" v="Blackwood Street"/>
    <tag k="oneway" v="yes"/>
    <tag k="source:maxspeed" v="default residential speed limit in Australia"/>
  </way>
  <way id="102926126" version="3" timestamp="2012-03-23T07:15:53Z" uid="84937" user="Neil Penman" changeset="11070938"/>
  <way id="102926128" version="1" timestamp="2011-03-06T03:10:12Z" uid="4467" user="Rosscoe" changeset="7469583">
    <nd ref="33238497"/>
    <nd ref="663121238"/>
    <nd ref="663121237"/>
    <nd ref="778814205"/>
    <tag k="highway" v="tertiary"/>
    <tag k="name" v="Grattan Street"/>
    <tag k="oneway" v="yes"/>
  </way>
  <way id="102926128" version="2" timestamp="2011-05-14T04:31:47Z" uid="11111" user="melb_guy" changeset="8137368">
    <nd ref="33238497"/>
    <nd ref="663121238"/>
    <nd ref="1283617968"/>
    <nd ref="1283617985"/>
    <nd ref="1283618028"/>
    <nd ref="1283617969"/>
    <nd ref="778814205"/>
    <tag k="highway" v="tertiary"/>
    <tag k="name" v="Grattan Street"/>
    <tag k="oneway" v="yes"/>
  </way>
  <way id="102926128" version="3" timestamp="2011-05-14T05:12:29Z" uid="11111" user="melb_guy" changeset="8137368">
    <nd ref="33238497"/>
    <nd ref="1283628985"/>
    <nd ref="1283628980"/>
    <nd ref="663121238"/>
    <nd ref="1283617968"/>
    <nd ref="1283617985"/>
    <nd ref="1283618028"/>
    <nd ref="1283617969"/>
    <nd ref="778814205"/>
    <tag k="highway" v="tertiary"/>
    <tag k="name" v="Grattan Street"/>
    <tag k="oneway" v="yes"/>
  </way>
  <way id="102926129" version="1" timestamp="2011-03-06T03:10:12Z" uid="4467" user="Rosscoe" changeset="7469583">
    <nd ref="1188538037"/>
    <nd ref="1188538016"/>
    <nd ref="1188538011"/>
    <nd ref="1188538019"/>
    <nd ref="1188538059"/>
    <nd ref="1188538064"/>
    <nd ref="1188538010"/>
    <nd ref="1188538014"/>
    <nd ref="475511480"/>
    <tag k="cycleway" v="lane"/>
    <tag k="highway" v="tertiary"/>
    <tag k="name" v="Wreckyn Street"/>
    <tag k="oneway" v="yes"/>
  </way>
  <way id="102926129" version="2" timestamp="2011-12-24T06:18:24Z" uid="11111" user="melb_guy" changeset="10191979">
    <nd ref="1188538037"/>
    <nd ref="1188538016"/>
    <nd ref="1188538011"/>
    <nd ref="1188538019"/>
    <nd ref="1188538059"/>
    <nd ref="1188538064"/>
    <nd ref="1188538010"/>
    <nd ref="1188538014"/>
    <nd ref="475511480"/>
    <tag k="cycleway" v="lane"/>
    <tag k="highway" v="tertiary"/>
    <tag k="lanes" v="1"/>
    <tag k="maxspeed" v="50"/>
    <tag k="name" v="Wreckyn Street"/>
    <tag k="oneway" v="yes"/>
    <tag k="surface" v="asphalt"/>
  </way>
  <way id="102926133" version="1" timestamp="2011-03-06T03:10:13Z" uid="4467" user="Rosscoe" changeset="7469583">
    <nd ref="778814205"/>
    <nd ref="1188538030"/>
    <nd ref="1188538056"/>
    <nd ref="1188538082"/>
    <tag k="highway" v="tertiary"/>
    <tag k="name" v="Grattan Street"/>
    <tag k="oneway" v="yes"/>
  </way>
  <way id="102926133" version="2" timestamp="2011-05-14T04:31:47Z" uid="11111" user="melb_guy" changeset="8137368">
    <nd ref="778814205"/>
    <nd ref="1283618040"/>
    <nd ref="1188538030"/>
    <nd ref="1188538056"/>
    <nd ref="1188538082"/>
    <tag k="highway" v="tertiary"/>
    <tag k="name" v="Grattan Street"/>
    <tag k="oneway" v="yes"/>
  </way>
  <way id="102926133" version="3" timestamp="2011-05-14T05:12:29Z" uid="11111" user="melb_guy" changeset="8137368">
    <nd ref="778814205"/>
    <nd ref="1283618040"/>
    <nd ref="1188538030"/>
    <nd ref="1188538056"/>
    <nd ref="1283628975"/>
    <nd ref="1283628981"/>
    <nd ref="1188538082"/>
    <tag k="highway" v="tertiary"/>
    <tag k="name" v="Grattan Street"/>
    <tag k="oneway" v="yes"/>
  </way>
</osm>
