<?xml version='1.0' encoding='UTF-8'?>
<osm version="0.6" generator="libosmium/2.20.0">
  <way id="103055152" version="1" timestamp="2011-03-06T20:20:23Z" uid="6269" user="Mueck" changeset="7477731">
    <nd ref="1189889092"/>
    <nd ref="1189889115"/>
    <nd ref="1189889111"/>
    <nd ref="1189889078"/>
    <nd ref="1189889116"/>
    <nd ref="1189889075"/>
    <nd ref="1189889092"/>
    <tag k="amenity" v="parking"/>
  </way>
  <way id="103055152" version="2" timestamp="2011-03-20T11:40:02Z" uid="165061" user="keinname" changeset="7615064">
    <nd ref="1189889092"/>
    <nd ref="1189889115"/>
    <nd ref="1210346615"/>
    <nd ref="1189889111"/>
    <nd ref="1210346643"/>
    <nd ref="1189889078"/>
    <nd ref="1189889116"/>
    <nd ref="1210346624"/>
    <nd ref="1189889075"/>
    <nd ref="1210346622"/>
    <nd ref="1189889092"/>
    <tag k="amenity" v="parking"/>
    <tag k="capacity" v="24"/>
  </way>
  <way id="103055152" version="3" timestamp="2011-03-23T22:14:21Z" uid="165061" user="keinname" changeset="7651131">
    <nd ref="1189889092"/>
    <nd ref="1189889115"/>
    <nd ref="1210346615"/>
    <nd ref="1189889111"/>
    <nd ref="1210346643"/>
    <nd ref="1189889078"/>
    <nd ref="1189889116"/>
    <nd ref="1210346624"/>
    <nd ref="1189889075"/>
    <nd ref="1210346622"/>
    <nd ref="1189889092"/>
    <tag k="amenity" v="parking"/>
    <tag k="capacity" v="24"/>
    <tag k="fee" v="yes"/>
  </way>
  <way id="103055155" version="1" timestamp="2011-03-06T20:20:24Z" uid="6269" user="Mueck" changeset="7477731">
    <nd ref="1014593442"/>
    <nd ref="1024106666"/>
    <nd ref="1024106848"/>
    <nd ref="534105640"/>
    <nd ref="1014593387"/>
    <nd ref="811376996"/>
    <nd ref="534105518"/>
    <nd ref="1014593435"/>
    <nd ref="1014593316"/>
    <nd ref="1014593399"/>
    <nd ref="1014593334"/>
    <nd ref="1014593472"/>
    <tag k="access" v="no"/>
    <tag k="highway" v="service"/>
  </way>
  <way id="103055156" version="1" timestamp="2011-03-06T20:20:24Z" uid="6269" user="Mueck" changeset="7477731">
    <nd ref="1189889123"/>
    <nd ref="1189875981"/>
    <nd ref="1189889148"/>
    <nd ref="1189889104"/>
    <nd ref="1189889106"/>
    <nd ref="1189889087"/>
    <nd ref="1189889098"/>
    <nd ref="1189889157"/>
    <nd ref="1189889128"/>
    <nd ref="1189889073"/>
    <nd ref="1189889119"/>
    <nd ref="1189889102"/>
    <nd ref="1189889088"/>
    <nd ref="1189889085"/>
    <nd ref="1014593442"/>
    <nd ref="1189889141"/>
    <nd ref="1189889166"/>
    <nd ref="1189889143"/>
    <nd ref="1189889123"/>
    <tag k="amenity" v="parking"/>
  </way>
  <way id="103055156" version="2" timestamp="2011-03-20T11:08:47Z" uid="165061" user="keinname" changeset="7615064">
    <nd ref="1189889123"/>
    <nd ref="1189875981"/>
    <nd ref="1189889148"/>
    <nd ref="1189889104"/>
    <nd ref="1189889106"/>
    <nd ref="1189889087"/>
    <nd ref="1189889098"/>
    <nd ref="1189889157"/>
    <nd ref="1189889128"/>
    <nd ref="1189889073"/>
    <nd ref="1189889119"/>
    <nd ref="1189889102"/>
    <nd ref="1189889088"/>
    <nd ref="1189889085"/>
    <nd ref="1014593442"/>
    <nd ref="1189889141"/>
    <nd ref="1189889166"/>
    <nd ref="1189889143"/>
    <nd ref="1189889123"/>
    <tag k="amenity" v="parking"/>
    <tag k="capacity" v="70"/>
    <tag k="fee" v="45€/month"/>
    <tag k="name" v="Hauptbahnhof P8"/>
    <tag k="opening_hours" v="24/7"/>
    <tag k="operator" v="Contipark Parkgaragen GmbH"/>
    <tag k="park_ride" v="train"/>
  </way>
  <way id="103055159" version="1" timestamp="2011-03-06T20:20:24Z" uid="6269" user="Mueck" changeset="7477731">
    <nd ref="1189889062"/>
    <nd ref="1189889164"/>
    <nd ref="1189889127"/>
    <nd ref="1189889091"/>
    <nd ref="1189889118"/>
    <nd ref="1189889158"/>
    <nd ref="1189889084"/>
    <nd ref="1189889138"/>
    <nd ref="1189889168"/>
    <nd ref="1189889086"/>
    <nd ref="1189889133"/>
    <nd ref="1189889163"/>
    <nd ref="1189889156"/>
    <nd ref="1189889126"/>
    <nd ref="1189889124"/>
    <nd ref="1189889063"/>
    <nd ref="1189889062"/>
    <tag k="amenity" v="parking"/>
    <tag k="fee" v="yes"/>
  </way>
  <way id="103055159" version="2" timestamp="2011-03-20T11:08:29Z" uid="165061" user="keinname" changeset="7615064">
    <nd ref="1189889062"/>
    <nd ref="1189889164"/>
    <nd ref="1189889127"/>
    <nd ref="1189889091"/>
    <nd ref="1189889118"/>
    <nd ref="1189889158"/>
    <nd ref="1189889084"/>
    <nd ref="1189889138"/>
    <nd ref="1189889168"/>
    <nd ref="1189889086"/>
    <nd ref="1189889133"/>
    <nd ref="1189889163"/>
    <nd ref="1189889156"/>
    <nd ref="1189889126"/>
    <nd ref="1189889124"/>
    <nd ref="1189889063"/>
    <nd ref="1189889062"/>
    <tag k="addr:city" v="Karlsruhe"/>
    <tag k="addr:country" v="DE"/>
    <tag k="addr:postcode" v="76137"/>
    <tag k="addr:street" v="Schwarzwaldstraße"/>
    <tag k="amenity" v="parking"/>
    <tag k="fee" v="yes"/>
    <tag k="name" v="Hauptbahnhof P3"/>
    <tag k="opening_hours" v="24/7"/>
    <tag k="operator" v="Karlsruher Fächer GmbH"/>
    <tag k="park_ride" v="train"/>
    <tag k="payment:account_cards" v="BahnCard"/>
    <tag k="payment:coins" v="yes"/>
    <tag k="payment:credit_cards" v="no"/>
    <tag k="payment:debit_cards" v="ec"/>
    <tag k="payment:electronic_purses" v="no"/>
    <tag k="payment:notes" v="yes"/>
    <tag k="payment:telephone_cards" v="no"/>
  </way>
  <way id="103055159" version="3" timestamp="2011-03-20T11:40:07Z" uid="165061" user="keinname" changeset="7615064">
    <nd ref="1189889062"/>
    <nd ref="1189889164"/>
    <nd ref="1189889127"/>
    <nd ref="1189889091"/>
    <nd ref="1189889118"/>
    <nd ref="1189889158"/>
    <nd ref="1189889084"/>
    <nd ref="1189889138"/>
    <nd ref="1189889168"/>
    <nd ref="1210346731"/>
    <nd ref="1189889086"/>
    <nd ref="1189889133"/>
    <nd ref="1189889163"/>
    <nd ref="1189889156"/>
    <nd ref="1189889126"/>
    <nd ref="1189889124"/>
    <nd ref="1189889063"/>
    <nd ref="1189889062"/>
    <tag k="addr:city" v="Karlsruhe"/>
    <tag k="addr:country" v="DE"/>
    <tag k="addr:postcode" v="76137"/>
    <tag k="addr:street" v="Schwarzwaldstraße"/>
    <tag k="amenity" v="parking"/>
    <tag k="fee" v="yes"/>
    <tag k="name" v="Hauptbahnhof P3"/>
    <tag k="opening_hours" v="24/7"/>
    <tag k="operator" v="Karlsruher Fächer GmbH"/>
    <tag k="park_ride" v="train"/>
    <tag k="payment:account_cards" v="BahnCard"/>
    <tag k="payment:coins" v="yes"/>
    <tag k="payment:credit_cards" v="no"/>
    <tag k="payment:debit_cards" v="ec"/>
    <tag k="payment:electronic_purses" v="no"/>
    <tag k="payment:notes" v="yes"/>
    <tag k="payment:telephone_cards" v="no"/>
  </way>
  <way id="103055159" version="4" timestamp="2011-03-23T22:14:25Z" uid="165061" user="keinname" changeset="7651131">
    <nd ref="1189889062"/>
    <nd ref="1189889164"/>
    <nd ref="1189889127"/>
    <nd ref="1189889091"/>
    <nd ref="1189889118"/>
    <nd ref="1189889158"/>
    <nd ref="1189889084"/>
    <nd ref="1189889138"/>
    <nd ref="1215431416"/>
    <nd ref="1189889168"/>
    <nd ref="1210346731"/>
    <nd ref="1189889086"/>
    <nd ref="1189889133"/>
    <nd ref="1189889163"/>
    <nd ref="1189889156"/>
    <nd ref="1189889126"/>
    <nd ref="1189889124"/>
    <nd ref="1189889063"/>
    <nd ref="1189889062"/>
    <tag k="addr:city" v="Karlsruhe"/>
    <tag k="addr:country" v="DE"/>
    <tag k="addr:postcode" v="76137"/>
    <tag k="addr:street" v="Schwarzwaldstraße"/>
    <tag k="amenity" v="parking"/>
    <tag k="fee" v="yes"/>
    <tag k="name" v="Hauptbahnhof P3"/>
    <tag k="opening_hours" v="24/7"/>
    <tag k="operator" v="Karlsruher Fächer GmbH"/>
    <tag k="park_ride" v="train"/>
    <tag k="parking" v="surface"/>
    <tag k="payment:account_cards" v="BahnCard"/>
    <tag k="payment:coins" v="yes"/>
    <tag k="payment:credit_cards" v="no"/>
    <tag k="payment:debit_cards" v="ec"/>
    <tag k="payment:electronic_purses" v="no"/>
    <tag k="payment:notes" v="yes"/>
    <tag k="payment:telephone_cards" v="no"/>
  </way>
  <way id="103055159" version="5" timestamp="2011-04-08T07:30:05Z" uid="165061" user="keinname" changeset="7801543">
    <nd ref="1189889062"/>
    <nd ref="1189889164"/>
    <nd ref="1189889127"/>
    <nd ref="1189889091"/>
    <nd ref="1189889118"/>
    <nd ref="1189889158"/>
    <nd ref="1189889084"/>
    <nd ref="1189889138"/>
    <nd ref="1215431416"/>
    <nd ref="1189889168"/>
    <nd ref="1210346731"/>
    <nd ref="1189889086"/>
    <nd ref="1189889133"/>
    <nd ref="1189889163"/>
    <nd ref="1189889156"/>
    <nd ref="1189889126"/>
    <nd ref="1189889124"/>
    <nd ref="1189889063"/>
    <nd ref="1189889062"/>
    <tag k="addr:city" v="Karlsruhe"/>
    <tag k="addr:country" v="DE"/>
    <tag k="addr:postcode" v="76137"/>
    <tag k="addr:street" v="Schwarzwaldstraße"/>
    <tag k="amenity" v="parking"/>
    <tag k="fee" v="yes"/>
    <tag k="name" v="Hauptbahnhof P3"/>
    <tag k="opening_hours" v="24/7"/>
    <tag k="operator" v="Karlsruher Fächer GmbH"/>
    <tag k="park_ride" v="train"/>
    <tag k="parking" v="surface"/>
    <tag k="payment:account_cards" v="BahnCard"/>
    <tag k="payment:coins" v="yes"/>
    <tag k="payment:credit_cards" v="no"/>
    <tag k="payment:electronic_purses" v="no"/>
    <tag k="payment:maestro" v="yes"/>
    <tag k="payment:notes" v="yes"/>
    <tag k="payment:telephone_cards" v="no"/>
  </way>
  <way id="103055161" version="1" timestamp="2011-03-06T20:20:25Z" uid="6269" user="Mueck" changeset="7477731">
    <nd ref="1189889139"/>
    <nd ref="1189889100"/>
    <nd ref="1189889112"/>
    <nd ref="1189889152"/>
    <nd ref="1189889090"/>
    <nd ref="1189889081"/>
    <nd ref="1189889147"/>
    <nd ref="1189889167"/>
    <nd ref="1189889072"/>
    <nd ref="1189889137"/>
    <nd ref="1189889139"/>
    <tag k="building" v="yes"/>
  </way>
  <way id="103055163" version="1" timestamp="2011-03-06T20:20:25Z" uid="6269" user="Mueck" changeset="7477731">
    <nd ref="1189889101"/>
    <nd ref="1189889162"/>
    <nd ref="1189889076"/>
    <nd ref="1189889142"/>
    <nd ref="1189889101"/>
    <tag k="amenity" v="parking"/>
  </way>
  <way id="103055163" version="2" timestamp="2011-03-20T11:08:22Z" uid="165061" user="keinname" changeset="7615064">
    <nd ref="1189889101"/>
    <nd ref="1189889162"/>
    <nd ref="1189889076"/>
    <nd ref="1189889142"/>
    <nd ref="1189889101"/>
    <tag k="amenity" v="parking"/>
  </way>
  <way id="103055163" version="3" timestamp="2011-03-20T11:40:04Z" uid="165061" user="keinname" changeset="7615064">
    <nd ref="1189889101"/>
    <nd ref="1189889162"/>
    <nd ref="1189889076"/>
    <nd ref="1189889142"/>
    <nd ref="1189889101"/>
    <tag k="amenity" v="parking"/>
    <tag k="capacity" v="5"/>
  </way>
  <way id="103055163" version="4" timestamp="2011-03-23T22:14:23Z" uid="165061" user="keinname" changeset="7651131">
    <nd ref="1189889101"/>
    <nd ref="1189889162"/>
    <nd ref="1189889076"/>
    <nd ref="1189889142"/>
    <nd ref="1189889101"/>
    <tag k="amenity" v="parking"/>
    <tag k="capacity" v="5"/>
    <tag k="fee" v="yes"/>
  </way>
  <way id="103055164" version="1" timestamp="2011-03-06T20:20:25Z" uid="6269" user="Mueck" changeset="7477731">
    <nd ref="1189889069"/>
    <nd ref="1189889105"/>
    <nd ref="1189889077"/>
    <nd ref="1189889113"/>
    <nd ref="1189889068"/>
    <nd ref="1189889069"/>
    <tag k="amenity" v="parking"/>
    <tag k="fee" v="yes"/>
  </way>
  <way id="103055164" version="2" timestamp="2011-03-20T11:40:11Z" uid="165061" user="keinname" changeset="7615064">
    <nd ref="1189889069"/>
    <nd ref="1189889105"/>
    <nd ref="1189889077"/>
    <nd ref="1189889113"/>
    <nd ref="1210346544"/>
    <nd ref="1189889068"/>
    <nd ref="1189889069"/>
    <tag k="amenity" v="parking"/>
    <tag k="fee" v="yes"/>
  </way>
  <way id="103055166" version="1" timestamp="2011-03-06T20:20:26Z" uid="6269" user="Mueck" changeset="7477731">
    <nd ref="1189889097"/>
    <nd ref="1189889140"/>
    <nd ref="1189889132"/>
    <nd ref="1189889110"/>
    <nd ref="1189889097"/>
    <tag k="amenity" v="parking"/>
  </way>
  <way id="103055166" version="2" timestamp="2011-03-20T11:40:01Z" uid="165061" user="keinname" changeset="7615064">
    <nd ref="1189889097"/>
    <nd ref="1189889140"/>
    <nd ref="1189889132"/>
    <nd ref="1189889110"/>
    <nd ref="1189889097"/>
    <tag k="amenity" v="parking"/>
    <tag k="capacity" v="8"/>
  </way>
  <way id="103055166" version="3" timestamp="2011-03-23T22:14:19Z" uid="165061" user="keinname" changeset="7651131">
    <nd ref="1189889097"/>
    <nd ref="1189889140"/>
    <nd ref="1189889132"/>
    <nd ref="1189889110"/>
    <nd ref="1189889097"/>
    <tag k="amenity" v="parking"/>
    <tag k="capacity" v="8"/>
    <tag k="fee" v="yes"/>
  </way>
  <way id="103055168" version="1" timestamp="2011-03-06T20:20:26Z" uid="6269" user="Mueck" changeset="7477731">
    <nd ref="1189889150"/>
    <nd ref="1189889066"/>
    <nd ref="1189889154"/>
    <nd ref="1189889065"/>
    <nd ref="1189889129"/>
    <tag k="abandoned" v="rail"/>
    <tag k="railway" v="abandoned"/>
  </way>
</osm>
