<?xml version='1.0' encoding='UTF-8'?>
<osm version="0.6" generator="libosmium/2.20.0">
  <way id="103380042" version="2" timestamp="2011-03-19T04:32:22Z" uid="4467" user="Rosscoe" changeset="7601347">
    <nd ref="599437517"/>
    <nd ref="625190100"/>
    <nd ref="623970169"/>
    <nd ref="625190990"/>
    <nd ref="623970178"/>
    <nd ref="270421000"/>
    <nd ref="474313049"/>
    <nd ref="1208292927"/>
    <nd ref="668714301"/>
    <nd ref="668711825"/>
    <nd ref="610732913"/>
    <tag k="cycleway" v="lane"/>
    <tag k="highway" v="secondary"/>
    <tag k="name" v="Boundary Road"/>
    <tag k="ref" v="C124"/>
    <tag k="source" v="NearMap"/>
  </way>
  <way id="103380277" version="1" timestamp="2011-03-09T05:32:03Z" uid="4467" user="Rosscoe" changeset="7500734">
    <nd ref="1193781121"/>
    <nd ref="1193781104"/>
    <nd ref="1193781099"/>
    <nd ref="1193781115"/>
    <nd ref="1193781092"/>
    <tag k="highway" v="tertiary"/>
    <tag k="name" v="Dorcas Street"/>
    <tag k="source" v="nearmap"/>
  </way>
  <way id="103380278" version="1" timestamp="2011-03-09T05:32:03Z" uid="4467" user="Rosscoe" changeset="7500734">
    <nd ref="1193781093"/>
    <nd ref="302161163"/>
    <tag k="highway" v="tertiary"/>
    <tag k="name" v="Dorcas Street"/>
    <tag k="source" v="nearmap"/>
  </way>
  <way id="103380279" version="1" timestamp="2011-03-09T05:32:03Z" uid="4467" user="Rosscoe" changeset="7500734">
    <nd ref="293817618"/>
    <nd ref="1193781124"/>
    <tag k="highway" v="residential"/>
    <tag k="maxspeed" v="50"/>
    <tag k="maxspeed:source" v="default residential speed limit in Australia"/>
    <tag k="name" v="Boundary Street"/>
    <tag k="oneway" v="yes"/>
  </way>
  <way id="103380279" version="2" timestamp="2011-03-09T12:54:26Z" uid="4467" user="Rosscoe" changeset="7503660">
    <nd ref="293817618"/>
    <nd ref="1193781124"/>
    <tag k="highway" v="residential"/>
    <tag k="maxspeed" v="50"/>
    <tag k="name" v="Boundary Street"/>
    <tag k="oneway" v="yes"/>
    <tag k="source:maxspeed" v="default residential speed limit in Australia"/>
  </way>
  <way id="103380280" version="1" timestamp="2011-03-09T05:32:03Z" uid="4467" user="Rosscoe" changeset="7500734">
    <nd ref="293817615"/>
    <nd ref="302159154"/>
    <nd ref="1193781086"/>
    <nd ref="463297756"/>
    <nd ref="560213049"/>
    <nd ref="302161227"/>
    <nd ref="1193781121"/>
    <nd ref="277123254"/>
    <nd ref="277123255"/>
    <nd ref="303457398"/>
    <nd ref="302434128"/>
    <nd ref="989898337"/>
    <nd ref="302429635"/>
    <nd ref="277123256"/>
    <nd ref="302461622"/>
    <nd ref="267226332"/>
    <nd ref="1193781094"/>
    <nd ref="571728486"/>
    <nd ref="571728404"/>
    <nd ref="267224814"/>
    <tag k="highway" v="tertiary"/>
    <tag k="name" v="Pickles Street"/>
    <tag k="oneway" v="yes"/>
    <tag k="source" v="nearmap"/>
  </way>
  <way id="103380280" version="2" timestamp="2011-03-09T12:58:20Z" uid="4467" user="Rosscoe" changeset="7503660">
    <nd ref="293817615"/>
    <nd ref="302159154"/>
    <nd ref="1193781086"/>
    <nd ref="463297756"/>
    <nd ref="560213049"/>
    <nd ref="302161227"/>
    <nd ref="1193781121"/>
    <nd ref="277123254"/>
    <nd ref="277123255"/>
    <nd ref="303457398"/>
    <nd ref="302434128"/>
    <nd ref="989898337"/>
    <nd ref="302429635"/>
    <nd ref="277123256"/>
    <nd ref="302461622"/>
    <nd ref="267226332"/>
    <nd ref="1194064869"/>
    <nd ref="1193781094"/>
    <nd ref="571728486"/>
    <nd ref="571728404"/>
    <nd ref="267224814"/>
    <tag k="highway" v="tertiary"/>
    <tag k="name" v="Pickles Street"/>
    <tag k="oneway" v="yes"/>
    <tag k="source" v="nearmap"/>
  </way>
  <way id="103380281" version="1" timestamp="2011-03-09T05:32:03Z" uid="4467" user="Rosscoe" changeset="7500734">
    <nd ref="302161163"/>
    <nd ref="827222140"/>
    <tag k="highway" v="tertiary"/>
    <tag k="name" v="Dorcas Street"/>
    <tag k="oneway" v="yes"/>
    <tag k="source" v="nearmap"/>
  </way>
  <way id="103380282" version="1" timestamp="2011-03-09T05:32:04Z" uid="4467" user="Rosscoe" changeset="7500734">
    <nd ref="1193781092"/>
    <nd ref="1193781126"/>
    <nd ref="1193781123"/>
    <nd ref="1193781117"/>
    <nd ref="302158308"/>
    <nd ref="1193781093"/>
    <tag k="cycleway" v="lane"/>
    <tag k="highway" v="tertiary"/>
    <tag k="name" v="Dorcas Street"/>
    <tag k="source" v="nearmap"/>
  </way>
  <way id="103380283" version="1" timestamp="2011-03-09T05:32:04Z" uid="4467" user="Rosscoe" changeset="7500734">
    <nd ref="568944205"/>
    <nd ref="1193781096"/>
    <tag k="highway" v="service"/>
    <tag k="name" v="Seisman Place"/>
  </way>
  <way id="103380284" version="1" timestamp="2011-03-09T05:32:04Z" uid="4467" user="Rosscoe" changeset="7500734">
    <nd ref="302158308"/>
    <nd ref="444355973"/>
    <tag k="highway" v="residential"/>
    <tag k="maxspeed" v="50"/>
    <tag k="maxspeed:source" v="default residential speed limit in Australia"/>
    <tag k="name" v="Nelson Road"/>
  </way>
  <way id="103380284" version="2" timestamp="2011-03-09T12:55:39Z" uid="4467" user="Rosscoe" changeset="7503660">
    <nd ref="302158308"/>
    <nd ref="444355973"/>
    <tag k="highway" v="residential"/>
    <tag k="maxspeed" v="50"/>
    <tag k="name" v="Nelson Road"/>
    <tag k="source:maxspeed" v="default residential speed limit in Australia"/>
  </way>
</osm>
