<?xml version='1.0' encoding='UTF-8'?>
<osm version="0.6" generator="libosmium/2.20.0">
  <way id="103425176" version="2" timestamp="2011-03-10T15:49:03Z" uid="66036" user="h4v" changeset="7515255">
    <nd ref="1194228231"/>
    <nd ref="1194228393"/>
    <nd ref="1194228381"/>
    <nd ref="1194228380"/>
    <nd ref="1194228231"/>
    <tag k="addr:housenumber" v="4"/>
    <tag k="building" v="yes"/>
    <tag k="source" v="bing"/>
  </way>
  <way id="103425177" version="2" timestamp="2011-04-13T17:00:51Z" uid="66036" user="h4v" changeset="7853641">
    <nd ref="1194228410"/>
    <nd ref="1194228364"/>
    <nd ref="1243473238"/>
    <nd ref="1243473199"/>
    <nd ref="1194228386"/>
    <nd ref="1194228338"/>
    <nd ref="1194228410"/>
    <tag k="building" v="school"/>
    <tag k="source" v="bing"/>
  </way>
  <way id="103425177" version="3" timestamp="2011-05-22T17:50:26Z" uid="66036" user="h4v" changeset="8218992">
    <nd ref="1194228410"/>
    <nd ref="1194228364"/>
    <nd ref="1243473238"/>
    <nd ref="1243473199"/>
    <nd ref="1194228386"/>
    <nd ref="1194228338"/>
    <nd ref="1194228410"/>
    <tag k="addr:housenumber" v="14"/>
    <tag k="building" v="school"/>
    <tag k="source" v="bing"/>
  </way>
  <way id="103425179" version="2" timestamp="2011-03-10T15:48:58Z" uid="66036" user="h4v" changeset="7515255">
    <nd ref="1194228255"/>
    <nd ref="1194228238"/>
    <nd ref="1194228235"/>
    <nd ref="1194228229"/>
    <nd ref="1194228255"/>
    <tag k="addr:housenumber" v="10"/>
    <tag k="building" v="yes"/>
    <tag k="source" v="bing"/>
  </way>
  <way id="103425180" version="2" timestamp="2011-03-10T15:49:05Z" uid="66036" user="h4v" changeset="7515255">
    <nd ref="1194228273"/>
    <nd ref="1194228415"/>
    <nd ref="1194228276"/>
    <nd ref="1194228315"/>
    <nd ref="1194228273"/>
    <tag k="addr:housenumber" v="6"/>
    <tag k="building" v="yes"/>
    <tag k="source" v="bing"/>
  </way>
  <way id="103425182" version="2" timestamp="2011-05-22T17:50:27Z" uid="66036" user="h4v" changeset="8218992">
    <nd ref="1194228421"/>
    <nd ref="1194228378"/>
    <nd ref="1194228482"/>
    <nd ref="1194228474"/>
    <nd ref="1194228421"/>
    <tag k="landuse" v="garages"/>
    <tag k="source" v="bing"/>
  </way>
  <way id="103425183" version="2" timestamp="2011-03-17T23:37:29Z" uid="66036" user="h4v" changeset="7591138">
    <nd ref="1194228443"/>
    <nd ref="1194228285"/>
    <nd ref="1194228423"/>
    <nd ref="1194228369"/>
    <nd ref="1206773606"/>
    <nd ref="1194228443"/>
    <tag k="building" v="yes"/>
    <tag k="source" v="bing"/>
  </way>
  <way id="103425183" version="3" timestamp="2011-05-22T17:50:23Z" uid="66036" user="h4v" changeset="8218992">
    <nd ref="1194228443"/>
    <nd ref="1194228285"/>
    <nd ref="1194228423"/>
    <nd ref="1194228369"/>
    <nd ref="1206773606"/>
    <nd ref="1194228443"/>
    <tag k="addr:housenumber" v="12"/>
    <tag k="building" v="yes"/>
    <tag k="source" v="bing"/>
  </way>
  <way id="103425186" version="2" timestamp="2011-05-22T17:49:58Z" uid="66036" user="h4v" changeset="8218992">
    <nd ref="1194228346"/>
    <nd ref="1194228336"/>
    <nd ref="1194228264"/>
    <nd ref="1194228308"/>
    <nd ref="1194228346"/>
    <tag k="addr:housenumber" v="10"/>
    <tag k="building" v="yes"/>
    <tag k="source" v="bing"/>
  </way>
  <way id="103425187" version="2" timestamp="2011-03-10T15:49:01Z" uid="66036" user="h4v" changeset="7515255">
    <nd ref="1194228331"/>
    <nd ref="1194228327"/>
    <nd ref="1194228434"/>
    <nd ref="1194228432"/>
    <nd ref="1194228331"/>
    <tag k="addr:housenumber" v="11"/>
    <tag k="building" v="yes"/>
    <tag k="source" v="bing"/>
  </way>
  <way id="103425189" version="2" timestamp="2011-03-10T15:48:58Z" uid="66036" user="h4v" changeset="7515255">
    <nd ref="1194228361"/>
    <nd ref="1194228430"/>
    <nd ref="1194228426"/>
    <nd ref="1194228495"/>
    <nd ref="1194228361"/>
    <tag k="addr:housenumber" v="21"/>
    <tag k="building" v="yes"/>
    <tag k="source" v="bing"/>
  </way>
  <way id="103425190" version="2" timestamp="2011-03-10T15:49:00Z" uid="66036" user="h4v" changeset="7515255">
    <nd ref="1194228321"/>
    <nd ref="1194228274"/>
    <nd ref="1194228414"/>
    <nd ref="1194228409"/>
    <nd ref="1194228321"/>
    <tag k="addr:housenumber" v="13"/>
    <tag k="building" v="yes"/>
    <tag k="source" v="bing"/>
  </way>
  <way id="103425195" version="2" timestamp="2011-03-10T15:49:06Z" uid="66036" user="h4v" changeset="7515255">
    <nd ref="1194228427"/>
    <nd ref="1194228402"/>
    <nd ref="1194228398"/>
    <nd ref="1194228391"/>
    <nd ref="1194228272"/>
    <nd ref="1194228259"/>
    <nd ref="1194228246"/>
    <nd ref="1194228232"/>
    <nd ref="1194228427"/>
    <tag k="building" v="yes"/>
    <tag k="name" v="MOPS"/>
    <tag k="source" v="bing"/>
  </way>
  <way id="103425195" version="3" timestamp="2011-04-13T17:00:50Z" uid="66036" user="h4v" changeset="7853641">
    <nd ref="1194228427"/>
    <nd ref="1194228402"/>
    <nd ref="1194228398"/>
    <nd ref="1194228391"/>
    <nd ref="1194228272"/>
    <nd ref="1194228259"/>
    <nd ref="1194228246"/>
    <nd ref="1194228232"/>
    <nd ref="1194228427"/>
    <tag k="addr:housenumber" v="16"/>
    <tag k="building" v="yes"/>
    <tag k="name" v="MOPS"/>
    <tag k="source" v="bing"/>
  </way>
  <way id="103425197" version="2" timestamp="2011-05-22T17:50:26Z" uid="66036" user="h4v" changeset="8218992">
    <nd ref="1194228446"/>
    <nd ref="1194228405"/>
    <nd ref="1194228372"/>
    <nd ref="1194228299"/>
    <nd ref="1194228446"/>
    <tag k="addr:housenumber" v="8"/>
    <tag k="building" v="yes"/>
    <tag k="source" v="bing"/>
  </way>
  <way id="103425198" version="2" timestamp="2011-03-10T15:49:05Z" uid="66036" user="h4v" changeset="7515255">
    <nd ref="1194228351"/>
    <nd ref="1194228314"/>
    <nd ref="1194228360"/>
    <nd ref="1194228505"/>
    <nd ref="1194228463"/>
    <nd ref="1194228501"/>
    <nd ref="1194228408"/>
    <nd ref="1194228477"/>
    <nd ref="1194228289"/>
    <nd ref="1194228351"/>
    <tag k="addr:housenumber" v="2"/>
    <tag k="building" v="yes"/>
    <tag k="source" v="bing"/>
  </way>
  <way id="103425200" version="2" timestamp="2011-05-22T17:50:02Z" uid="66036" user="h4v" changeset="8218992">
    <nd ref="1194228404"/>
    <nd ref="1194228359"/>
    <nd ref="1194228224"/>
    <nd ref="1194228481"/>
    <nd ref="1194228404"/>
    <tag k="addr:housenumber" v="11"/>
    <tag k="building" v="yes"/>
    <tag k="source" v="bing"/>
  </way>
  <way id="103425201" version="2" timestamp="2011-05-22T17:49:57Z" uid="66036" user="h4v" changeset="8218992">
    <nd ref="1194228325"/>
    <nd ref="1194228354"/>
    <nd ref="1296411243"/>
    <nd ref="1194228337"/>
    <nd ref="1194228332"/>
    <nd ref="1194228325"/>
    <tag k="addr:housenumber" v="4"/>
    <tag k="building" v="yes"/>
    <tag k="source" v="bing"/>
  </way>
  <way id="103425202" version="2" timestamp="2011-03-10T15:48:58Z" uid="66036" user="h4v" changeset="7515255">
    <nd ref="1194228376"/>
    <nd ref="1194228245"/>
    <nd ref="1194228457"/>
    <nd ref="1194228239"/>
    <nd ref="1194228376"/>
    <tag k="addr:housenumber" v="17"/>
    <tag k="building" v="yes"/>
    <tag k="source" v="bing"/>
  </way>
  <way id="103425205" version="2" timestamp="2011-03-10T15:49:00Z" uid="66036" user="h4v" changeset="7515255">
    <nd ref="1194228422"/>
    <nd ref="1194228496"/>
    <nd ref="1194228252"/>
    <nd ref="1194228413"/>
    <nd ref="1194228422"/>
    <tag k="addr:housenumber" v="15"/>
    <tag k="building" v="yes"/>
    <tag k="source" v="bing"/>
  </way>
  <way id="103425209" version="2" timestamp="2011-03-10T15:49:03Z" uid="66036" user="h4v" changeset="7515255">
    <nd ref="1194228242"/>
    <nd ref="1194228223"/>
    <nd ref="1194228215"/>
    <nd ref="1194228295"/>
    <nd ref="1194228242"/>
    <tag k="addr:housenumber" v="35"/>
    <tag k="building" v="yes"/>
    <tag k="landuse" v="garages"/>
    <tag k="source" v="bing"/>
  </way>
  <way id="103425217" version="2" timestamp="2011-05-22T17:50:24Z" uid="66036" user="h4v" changeset="8218992">
    <nd ref="1194228411"/>
    <nd ref="1194228366"/>
    <nd ref="1194228218"/>
    <nd ref="1194228445"/>
    <nd ref="1194228411"/>
    <tag k="addr:housenumber" v="9"/>
    <tag k="building" v="yes"/>
    <tag k="source" v="bing"/>
  </way>
  <way id="103425222" version="2" timestamp="2011-03-10T15:49:06Z" uid="66036" user="h4v" changeset="7515255">
    <nd ref="1194228329"/>
    <nd ref="1194228271"/>
    <nd ref="1194228263"/>
    <nd ref="1194228269"/>
    <nd ref="1194228329"/>
    <tag k="addr:housenumber" v="8"/>
    <tag k="building" v="yes"/>
    <tag k="source" v="bing"/>
  </way>
  <way id="103425226" version="2" timestamp="2011-03-10T15:48:58Z" uid="66036" user="h4v" changeset="7515255">
    <nd ref="1194228348"/>
    <nd ref="1194228339"/>
    <nd ref="1194228335"/>
    <nd ref="1194228334"/>
    <nd ref="1194228348"/>
    <tag k="addr:housenumber" v="12"/>
    <tag k="building" v="yes"/>
    <tag k="source" v="bing"/>
  </way>
  <way id="103425227" version="2" timestamp="2011-03-10T15:49:02Z" uid="66036" user="h4v" changeset="7515255">
    <nd ref="1194228357"/>
    <nd ref="1194228356"/>
    <nd ref="1194228362"/>
    <nd ref="1194228349"/>
    <nd ref="1194228357"/>
    <tag k="addr:housenumber" v="19"/>
    <tag k="building" v="yes"/>
    <tag k="source" v="bing"/>
  </way>
  <way id="103425229" version="2" timestamp="2011-03-10T15:49:00Z" uid="66036" user="h4v" changeset="7515255">
    <nd ref="1194228293"/>
    <nd ref="1194228268"/>
    <nd ref="1194228254"/>
    <nd ref="1194228499"/>
    <nd ref="1194228293"/>
    <tag k="addr:housenumber" v="19"/>
    <tag k="building" v="yes"/>
    <tag k="source" v="bing"/>
  </way>
  <way id="103425230" version="2" timestamp="2011-05-22T17:50:20Z" uid="66036" user="h4v" changeset="8218992">
    <nd ref="1194228375"/>
    <nd ref="1194228420"/>
    <nd ref="1194228261"/>
    <nd ref="1194228316"/>
    <nd ref="1194228375"/>
    <tag k="addr:housenumber" v="6"/>
    <tag k="building" v="yes"/>
    <tag k="source" v="bing"/>
  </way>
  <way id="103425231" version="2" timestamp="2011-03-10T15:49:05Z" uid="66036" user="h4v" changeset="7515255">
    <nd ref="1194228425"/>
    <nd ref="1194228401"/>
    <nd ref="1194228395"/>
    <nd ref="1194228389"/>
    <nd ref="1194228425"/>
    <tag k="addr:housenumber" v="14"/>
    <tag k="building" v="yes"/>
    <tag k="source" v="bing"/>
  </way>
  <way id="103425232" version="2" timestamp="2011-03-10T15:49:01Z" uid="66036" user="h4v" changeset="7515255">
    <nd ref="1194228441"/>
    <nd ref="1194228437"/>
    <nd ref="1194228433"/>
    <nd ref="1194228431"/>
    <nd ref="1194228441"/>
    <tag k="addr:housenumber" v="16"/>
    <tag k="building" v="yes"/>
    <tag k="source" v="bing"/>
  </way>
  <way id="103425241" version="2" timestamp="2011-03-11T17:38:06Z" uid="66036" user="h4v" changeset="7525639">
    <nd ref="1194228292"/>
    <nd ref="1194228493"/>
    <nd ref="1194228304"/>
    <nd ref="1194228363"/>
    <nd ref="1196990553"/>
    <nd ref="1194228292"/>
    <tag k="building" v="yes"/>
    <tag k="source" v="bing"/>
  </way>
  <way id="103425241" version="3" timestamp="2011-03-17T23:37:28Z" uid="66036" user="h4v" changeset="7591138">
    <nd ref="1194228292"/>
    <nd ref="1194228493"/>
    <nd ref="1194228304"/>
    <nd ref="1194228363"/>
    <nd ref="1194228292"/>
    <tag k="building" v="yes"/>
    <tag k="source" v="bing"/>
  </way>
  <way id="103425951" version="2" timestamp="2011-05-09T23:47:23Z" uid="66036" user="h4v" changeset="8098065">
    <nd ref="1194235253"/>
    <nd ref="1194235459"/>
    <nd ref="1194235242"/>
    <nd ref="1194235477"/>
    <nd ref="1194235304"/>
    <nd ref="1194235426"/>
    <nd ref="1194235336"/>
    <nd ref="1194235403"/>
    <nd ref="1194235486"/>
    <nd ref="1194235364"/>
    <nd ref="1194235250"/>
    <nd ref="1194235400"/>
    <nd ref="1194235432"/>
    <nd ref="1194235423"/>
    <nd ref="1194235461"/>
    <nd ref="1194235372"/>
    <nd ref="1194235365"/>
    <nd ref="1194235287"/>
    <nd ref="1194235281"/>
    <nd ref="1194235398"/>
    <nd ref="1194235253"/>
    <tag k="building" v="school"/>
    <tag k="source" v="bing"/>
  </way>
</osm>
