<?xml version='1.0' encoding='UTF-8'?>
<osm version="0.6" generator="libosmium/2.20.0">
  <way id="103960338" version="1" timestamp="2011-03-13T10:50:32Z" uid="4467" user="Rosscoe" changeset="7543059">
    <nd ref="247965894"/>
    <nd ref="247965922"/>
    <nd ref="247965923"/>
    <nd ref="247965924"/>
    <tag k="highway" v="tertiary"/>
    <tag k="name" v="Anderson Walk"/>
    <tag k="oneway" v="yes"/>
    <tag k="source" v="nearmap"/>
  </way>
  <way id="103960339" version="1" timestamp="2011-03-13T10:50:32Z" uid="4467" user="Rosscoe" changeset="7543059">
    <nd ref="247965667"/>
    <nd ref="247965669"/>
    <nd ref="247965668"/>
    <tag k="highway" v="tertiary"/>
    <tag k="maxspeed" v="60"/>
    <tag k="name" v="Uley Road"/>
    <tag k="source" v="nearmap"/>
  </way>
  <way id="103960341" version="1" timestamp="2011-03-13T10:50:33Z" uid="4467" user="Rosscoe" changeset="7543059">
    <nd ref="257015080"/>
    <nd ref="257015106"/>
    <tag k="highway" v="residential"/>
    <tag k="source" v="nearmap"/>
  </way>
  <way id="103960342" version="1" timestamp="2011-03-13T10:50:33Z" uid="4467" user="Rosscoe" changeset="7543059">
    <nd ref="247965622"/>
    <nd ref="1199956902"/>
    <nd ref="1199956750"/>
    <nd ref="1199956695"/>
    <nd ref="257015124"/>
    <nd ref="1199956873"/>
    <nd ref="247965686"/>
    <tag k="highway" v="tertiary"/>
    <tag k="maxspeed" v="60"/>
    <tag k="name" v="Uley Road"/>
    <tag k="source" v="survey;nearmap"/>
  </way>
  <way id="103960342" version="2" timestamp="2011-06-06T23:13:36Z" uid="328538" user="o&apos;cholio" changeset="8365700">
    <nd ref="247965622"/>
    <nd ref="1199956902"/>
    <nd ref="1199956750"/>
    <nd ref="1199956695"/>
    <nd ref="257015124"/>
    <tag k="highway" v="tertiary"/>
    <tag k="maxspeed" v="60"/>
    <tag k="name" v="Uley Road"/>
    <tag k="source" v="survey;nearmap"/>
  </way>
  <way id="103960343" version="1" timestamp="2011-03-13T10:50:33Z" uid="4467" user="Rosscoe" changeset="7543059">
    <nd ref="257015363"/>
    <nd ref="1199956722"/>
    <nd ref="1199956831"/>
    <nd ref="1199956845"/>
    <nd ref="1199956741"/>
    <nd ref="1199956777"/>
    <tag k="highway" v="tertiary"/>
    <tag k="maxspeed" v="60"/>
    <tag k="name" v="Adams Road"/>
    <tag k="source" v="survey"/>
  </way>
  <way id="103960343" version="2" timestamp="2011-06-06T23:13:36Z" uid="328538" user="o&apos;cholio" changeset="8365700">
    <nd ref="257015363"/>
    <nd ref="1199956722"/>
    <nd ref="1314640471"/>
    <tag k="highway" v="tertiary"/>
    <tag k="maxspeed" v="60"/>
    <tag k="name" v="Adams Road"/>
    <tag k="source" v="survey"/>
  </way>
  <way id="103960344" version="1" timestamp="2011-03-13T10:50:33Z" uid="4467" user="Rosscoe" changeset="7543059">
    <nd ref="1199956729"/>
    <nd ref="1199956835"/>
    <nd ref="1199956875"/>
    <nd ref="1199956714"/>
    <nd ref="1199956781"/>
    <nd ref="1199956903"/>
    <nd ref="1199956879"/>
    <nd ref="272690612"/>
    <nd ref="1199956742"/>
    <nd ref="250964857"/>
    <nd ref="250964858"/>
    <nd ref="250964859"/>
    <nd ref="247965497"/>
    <tag k="highway" v="secondary"/>
    <tag k="lanes" v="2"/>
    <tag k="maxspeed" v="60"/>
    <tag k="name" v="Yorktown Road"/>
    <tag k="oneway" v="yes"/>
    <tag k="source" v="survey"/>
  </way>
  <way id="103960345" version="1" timestamp="2011-03-13T10:50:34Z" uid="4467" user="Rosscoe" changeset="7543059">
    <nd ref="1199956776"/>
    <nd ref="1199956885"/>
    <tag k="highway" v="unclassified"/>
    <tag k="maxspeed" v="80"/>
    <tag k="name" v="Vivian Road"/>
    <tag k="source" v="survey"/>
  </way>
  <way id="103960346" version="1" timestamp="2011-03-13T10:50:34Z" uid="4467" user="Rosscoe" changeset="7543059">
    <nd ref="1199956729"/>
    <nd ref="250964864"/>
    <nd ref="250964865"/>
    <nd ref="250964866"/>
    <nd ref="848533390"/>
    <nd ref="250964880"/>
    <nd ref="250964881"/>
    <nd ref="1199956720"/>
    <tag k="highway" v="secondary"/>
    <tag k="lanes" v="2"/>
    <tag k="maxspeed" v="60"/>
    <tag k="name" v="Yorktown Road"/>
    <tag k="source" v="survey"/>
  </way>
</osm>
