<?xml version='1.0' encoding='UTF-8'?>
<osm version="0.6" generator="libosmium/2.20.0">
  <way id="104233382" version="2" timestamp="2011-04-12T22:39:32Z" uid="66036" user="h4v" changeset="7847596">
    <nd ref="1202831979"/>
    <nd ref="1202831868"/>
    <nd ref="1202832057"/>
    <nd ref="1202832080"/>
    <nd ref="1202831867"/>
    <nd ref="1202831905"/>
    <nd ref="1202832324"/>
    <nd ref="1202831806"/>
    <nd ref="1202832000"/>
    <nd ref="1202831947"/>
    <nd ref="1202831878"/>
    <nd ref="1202832073"/>
    <nd ref="1202831979"/>
    <tag k="addr:housenumber" v="6"/>
    <tag k="building" v="yes"/>
    <tag k="historic" v="building"/>
    <tag k="name" v="Kamienica Abrahama Dudaka"/>
    <tag k="source" v="wikipedia"/>
    <tag k="tourism" v="architecture"/>
  </way>
  <way id="104233382" version="3" timestamp="2011-06-14T08:19:32Z" uid="66036" user="h4v" changeset="8434685">
    <nd ref="1202831979"/>
    <nd ref="1324631920"/>
    <nd ref="1202831823"/>
    <nd ref="1202832057"/>
    <nd ref="1202832004"/>
    <nd ref="1202831889"/>
    <nd ref="1324631918"/>
    <nd ref="1324631892"/>
    <nd ref="1324631899"/>
    <nd ref="1202831867"/>
    <nd ref="1202831905"/>
    <nd ref="1202832324"/>
    <nd ref="1202831806"/>
    <nd ref="1202832000"/>
    <nd ref="1202831947"/>
    <nd ref="1202831878"/>
    <nd ref="1202832073"/>
    <nd ref="1202831979"/>
    <tag k="addr:housenumber" v="6"/>
    <tag k="building" v="yes"/>
    <tag k="heritage" v="2"/>
    <tag k="heritage:operator" v="nid"/>
    <tag k="historic" v="heritage"/>
    <tag k="name" v="Kamienica Abrahama Dudaka"/>
    <tag k="ref:nid" v="A/29"/>
    <tag k="source" v="wikipedia"/>
    <tag k="tourism" v="architecture"/>
  </way>
  <way id="104233393" version="2" timestamp="2011-06-12T12:43:16Z" uid="66036" user="h4v" changeset="8414690">
    <nd ref="1166434146"/>
    <nd ref="1202831882"/>
    <nd ref="1202831689"/>
    <nd ref="1202832408"/>
    <nd ref="1202831918"/>
    <nd ref="1166434437"/>
    <nd ref="1202831993"/>
    <nd ref="1202831833"/>
    <nd ref="1167817172"/>
    <tag k="highway" v="footway"/>
  </way>
  <way id="104233414" version="2" timestamp="2011-06-14T08:19:27Z" uid="66036" user="h4v" changeset="8434685">
    <nd ref="1202831856"/>
    <nd ref="1202831823"/>
    <nd ref="1202831879"/>
    <nd ref="1324631920"/>
    <nd ref="1324631895"/>
    <nd ref="1324631901"/>
    <nd ref="1202831741"/>
    <nd ref="1202831813"/>
    <nd ref="1202831865"/>
    <nd ref="1202831856"/>
    <tag k="addr:housenumber" v="4"/>
    <tag k="building" v="yes"/>
    <tag k="heritage" v="2"/>
    <tag k="heritage:operator" v="nid"/>
    <tag k="historic" v="heritage"/>
    <tag k="name" v="kamienica Dawida Tempela"/>
    <tag k="ref:nid" v="A/324"/>
  </way>
</osm>
