<?xml version='1.0' encoding='UTF-8'?>
<osm version="0.6" generator="libosmium/2.20.0">
  <way id="104401328" version="1" timestamp="2011-03-16T18:49:49Z" uid="33382" user="de_muur" changeset="7578365">
    <nd ref="33601174"/>
    <nd ref="33601178"/>
    <nd ref="33601188"/>
    <nd ref="256128419"/>
    <nd ref="33601192"/>
    <nd ref="33601194"/>
    <nd ref="1126774500"/>
    <tag k="highway" v="secondary"/>
    <tag k="maxspeed" v="50"/>
    <tag k="name" v="Hustedter Dorfstraße"/>
    <tag k="ref" v="L 202"/>
    <tag k="surface" v="paved"/>
  </way>
  <way id="104401328" version="2" timestamp="2012-03-04T16:37:59Z" uid="57645" user="KartoGrapHiti" changeset="10870627">
    <nd ref="33601174"/>
    <nd ref="33601178"/>
    <nd ref="33601188"/>
    <nd ref="256128419"/>
    <nd ref="33601192"/>
    <nd ref="33601194"/>
    <nd ref="1126774500"/>
    <tag k="highway" v="secondary"/>
    <tag k="maxspeed" v="50"/>
    <tag k="name" v="Hustedter Dorfstraße"/>
    <tag k="ref" v="L 202"/>
    <tag k="surface" v="asphalt"/>
  </way>
  <way id="104401329" version="1" timestamp="2011-03-16T18:49:50Z" uid="33382" user="de_muur" changeset="7578365">
    <nd ref="1204554781"/>
    <nd ref="88991023"/>
    <nd ref="88991024"/>
    <nd ref="88991025"/>
    <nd ref="88991026"/>
    <nd ref="276808384"/>
    <nd ref="783976534"/>
    <nd ref="88991027"/>
    <nd ref="88991028"/>
    <tag k="highway" v="secondary"/>
    <tag k="ref" v="L 331"/>
    <tag k="surface" v="paved"/>
  </way>
  <way id="104401329" version="2" timestamp="2011-10-24T15:03:54Z" uid="31089" user="behrang" changeset="9644244">
    <nd ref="1204554781"/>
    <nd ref="88991023"/>
    <nd ref="88991024"/>
    <nd ref="88991025"/>
    <nd ref="88991026"/>
    <nd ref="276808384"/>
    <nd ref="783976534"/>
    <nd ref="88991027"/>
    <nd ref="88991028"/>
    <tag k="highway" v="secondary"/>
    <tag k="name" v="Hoyaer Straße"/>
    <tag k="ref" v="L 331"/>
    <tag k="surface" v="paved"/>
  </way>
  <way id="104401329" version="3" timestamp="2011-10-25T19:33:26Z" uid="31089" user="behrang" changeset="9655280">
    <nd ref="1204554781"/>
    <nd ref="88991023"/>
    <nd ref="88991024"/>
    <nd ref="88991025"/>
    <nd ref="88991026"/>
    <nd ref="276808384"/>
    <nd ref="783976534"/>
    <nd ref="88991027"/>
    <nd ref="88991028"/>
    <tag k="highway" v="secondary"/>
    <tag k="is_in" v="Martfeld,Bruchhausen-Vilsen,Hannover,Niedersachsen,Bundesrepublik Deutschland,Europe"/>
    <tag k="name" v="Hoyaer Straße"/>
    <tag k="ref" v="L 331"/>
    <tag k="surface" v="paved"/>
  </way>
  <way id="104401329" version="4" timestamp="2012-01-02T19:12:38Z" uid="31089" user="behrang" changeset="10274598">
    <nd ref="1204554781"/>
    <nd ref="88991023"/>
    <nd ref="88991024"/>
    <nd ref="1574514514"/>
    <nd ref="88991025"/>
    <nd ref="88991026"/>
    <nd ref="276808384"/>
    <nd ref="783976534"/>
    <nd ref="88991027"/>
    <nd ref="88991028"/>
    <tag k="highway" v="secondary"/>
    <tag k="is_in" v="Martfeld,Bruchhausen-Vilsen,Hannover,Niedersachsen,Bundesrepublik Deutschland,Europe"/>
    <tag k="name" v="Hoyaer Straße"/>
    <tag k="ref" v="L 331"/>
    <tag k="surface" v="paved"/>
  </way>
  <way id="104401329" version="5" timestamp="2012-03-21T14:07:15Z" uid="31089" user="behrang" changeset="11052508">
    <nd ref="1204554781"/>
    <nd ref="88991023"/>
    <nd ref="88991024"/>
    <nd ref="1684539193"/>
    <nd ref="1574514514"/>
    <nd ref="88991025"/>
    <nd ref="88991026"/>
    <nd ref="276808384"/>
    <nd ref="783976534"/>
    <nd ref="88991027"/>
    <nd ref="88991028"/>
    <tag k="highway" v="secondary"/>
    <tag k="is_in" v="Martfeld,Bruchhausen-Vilsen,Hannover,Niedersachsen,Bundesrepublik Deutschland,Europe"/>
    <tag k="name" v="Hoyaer Straße"/>
    <tag k="ref" v="L 331"/>
    <tag k="surface" v="paved"/>
  </way>
  <way id="104401330" version="1" timestamp="2011-03-16T18:49:50Z" uid="33382" user="de_muur" changeset="7578365">
    <nd ref="1204554777"/>
    <nd ref="194383388"/>
    <nd ref="194383427"/>
    <nd ref="1057129206"/>
    <nd ref="33601174"/>
    <tag k="highway" v="residential"/>
    <tag k="name" v="Im Mallen"/>
    <tag k="surface" v="paved"/>
  </way>
  <way id="104401330" version="2" timestamp="2011-04-23T17:38:54Z" uid="57645" user="KartoGrapHiti" changeset="7945633">
    <nd ref="1204554777"/>
    <nd ref="194383388"/>
    <nd ref="194383427"/>
    <nd ref="1057129206"/>
    <nd ref="33601174"/>
    <tag k="highway" v="residential"/>
    <tag k="maxspeed" v="50"/>
    <tag k="name" v="Im Mallen"/>
    <tag k="surface" v="paved"/>
  </way>
  <way id="104401331" version="1" timestamp="2011-03-16T18:49:51Z" uid="33382" user="de_muur" changeset="7578365">
    <nd ref="1204554800"/>
    <nd ref="36738975"/>
    <tag k="highway" v="unclassified"/>
    <tag k="name" v="In der Weide"/>
    <tag k="surface" v="asphalt"/>
  </way>
  <way id="104401602" version="1" timestamp="2011-03-16T18:52:31Z" uid="33382" user="de_muur" changeset="7578387">
    <nd ref="1204558587"/>
    <nd ref="194383152"/>
    <nd ref="194383166"/>
    <nd ref="194383176"/>
    <nd ref="1204554803"/>
    <nd ref="194383170"/>
    <nd ref="194383173"/>
    <nd ref="194383246"/>
    <nd ref="1204554754"/>
    <nd ref="194383179"/>
    <nd ref="36738926"/>
    <tag k="highway" v="unclassified"/>
    <tag k="name" v="Gieschenstraße"/>
    <tag k="surface" v="paved"/>
  </way>
</osm>
