<?xml version='1.0' encoding='UTF-8'?>
<osm version="0.6" generator="libosmium/2.20.0">
  <way id="104511706" version="2" timestamp="2011-06-12T15:21:01Z" uid="66036" user="h4v" changeset="8416411">
    <nd ref="1205792728"/>
    <nd ref="1205792670"/>
    <nd ref="1205792582"/>
    <nd ref="1205792713"/>
    <nd ref="1205792516"/>
    <nd ref="1205792514"/>
    <nd ref="1205792457"/>
    <nd ref="1205792487"/>
    <nd ref="1205792525"/>
    <nd ref="1205792790"/>
    <nd ref="1205792728"/>
    <tag k="addr:housenumber" v="83"/>
    <tag k="amenity" v="public_building"/>
    <tag k="building" v="yes"/>
    <tag k="heritage" v="2"/>
    <tag k="heritage:operator" v="nid"/>
    <tag k="historic" v="heritage"/>
    <tag k="name" v="Izba Skarbowa"/>
    <tag k="ref:nid" v="A/94"/>
  </way>
  <way id="104511706" version="3" timestamp="2012-02-09T09:09:01Z" uid="73912" user="Jacek_lodz" changeset="10631827">
    <nd ref="1205792728"/>
    <nd ref="1205792670"/>
    <nd ref="1205792582"/>
    <nd ref="1205792713"/>
    <nd ref="1205792516"/>
    <nd ref="1205792514"/>
    <nd ref="1205792457"/>
    <nd ref="1205792487"/>
    <nd ref="1205792525"/>
    <nd ref="1205792790"/>
    <nd ref="1205792728"/>
    <tag k="addr:housenumber" v="83"/>
    <tag k="amenity" v="public_building"/>
    <tag k="building" v="yes"/>
    <tag k="heritage" v="2"/>
    <tag k="heritage:operator" v="nid"/>
    <tag k="historic" v="heritage"/>
    <tag k="name" v="Izba Skarbowa"/>
    <tag k="ref:nid" v="A/94"/>
    <tag k="tourism" v="attraction"/>
  </way>
  <way id="104511711" version="2" timestamp="2011-05-10T21:00:51Z" uid="66036" user="h4v" changeset="8106771">
    <nd ref="1205792769"/>
    <nd ref="1205792817"/>
    <nd ref="1205792499"/>
    <nd ref="1279681219"/>
    <nd ref="1205792531"/>
    <nd ref="1205792511"/>
    <nd ref="1205792453"/>
    <nd ref="1205792769"/>
    <tag k="building" v="yes"/>
    <tag k="source" v="bing"/>
  </way>
  <way id="104511734" version="2" timestamp="2011-04-16T10:29:56Z" uid="66036" user="h4v" changeset="7877061">
    <nd ref="1205792567"/>
    <nd ref="1246713479"/>
    <nd ref="1205792727"/>
    <nd ref="1205792522"/>
    <nd ref="1205792604"/>
    <nd ref="1205792535"/>
    <nd ref="1205792461"/>
    <nd ref="1205792653"/>
    <nd ref="1205792674"/>
    <nd ref="1205792549"/>
    <nd ref="1205792745"/>
    <nd ref="1205792785"/>
    <nd ref="1205792777"/>
    <nd ref="1205792757"/>
    <nd ref="1205792485"/>
    <nd ref="1205792567"/>
    <tag k="building" v="yes"/>
    <tag k="source" v="bing"/>
    <tag k="source:addr" v="wikipedia"/>
    <tag k="source:name" v="wikipedia"/>
  </way>
  <way id="104511734" version="3" timestamp="2011-12-09T10:06:34Z" uid="338611" user="marek kleciak" changeset="10071755">
    <nd ref="1205792567"/>
    <nd ref="1246713479"/>
    <nd ref="1205792727"/>
    <nd ref="1205792522"/>
    <nd ref="1205792604"/>
    <nd ref="1205792535"/>
    <nd ref="1205792461"/>
    <nd ref="1205792653"/>
    <nd ref="1205792674"/>
    <nd ref="1205792549"/>
    <nd ref="1205792745"/>
    <nd ref="1205792785"/>
    <nd ref="1205792777"/>
    <nd ref="1205792757"/>
    <nd ref="1205792485"/>
    <nd ref="1205792567"/>
    <tag k="building" v="yes"/>
    <tag k="source" v="bing"/>
  </way>
  <way id="104511738" version="1" timestamp="2011-03-17T15:53:48Z" uid="338611" user="marek kleciak" changeset="7586734">
    <nd ref="1205792675"/>
    <nd ref="1205792631"/>
    <nd ref="1205792517"/>
    <nd ref="1205792588"/>
    <nd ref="1205792675"/>
    <tag k="building" v="yes"/>
  </way>
  <way id="104511738" version="2" timestamp="2011-03-18T02:42:50Z" uid="66036" user="h4v" changeset="7591708">
    <nd ref="1205792675"/>
    <nd ref="1205792631"/>
    <nd ref="1205792517"/>
    <nd ref="1205792588"/>
    <nd ref="1205792675"/>
    <tag k="amenity" v="courthouse"/>
    <tag k="building" v="yes"/>
  </way>
  <way id="104511738" version="3" timestamp="2012-02-23T10:34:11Z" uid="607553" user="Duke83" changeset="10766924">
    <nd ref="1205792675"/>
    <nd ref="1205792631"/>
    <nd ref="1205792517"/>
    <nd ref="1205792588"/>
    <nd ref="1205792675"/>
    <tag k="amenity" v="courthouse"/>
    <tag k="building" v="yes"/>
    <tag k="building:levels" v="4"/>
  </way>
  <way id="104511738" version="4" timestamp="2012-02-28T12:05:55Z" uid="607553" user="Duke83" changeset="10818059">
    <nd ref="1205792675"/>
    <nd ref="1205792631"/>
    <nd ref="1205792517"/>
    <nd ref="1205792588"/>
    <nd ref="1205792675"/>
    <tag k="addr:housename" v="107/109"/>
    <tag k="addr:postcode" v="90-928"/>
    <tag k="addr:street" v="Tadeusza Kościuszki"/>
    <tag k="amenity" v="courthouse"/>
    <tag k="building" v="yes"/>
    <tag k="building:levels" v="4"/>
    <tag k="name" v="Sąd Rejonowy dla Łodzi-Śródmieścia w Łodzi"/>
  </way>
  <way id="104511738" version="5" timestamp="2012-03-05T07:58:17Z" uid="607553" user="Duke83" changeset="10876826">
    <nd ref="1205792675"/>
    <nd ref="1205792631"/>
    <nd ref="1205792517"/>
    <nd ref="1205792588"/>
    <nd ref="1205792675"/>
    <tag k="addr:housename" v="107/109"/>
    <tag k="addr:postcode" v="90-928"/>
    <tag k="addr:street" v="Tadeusza Kościuszki"/>
    <tag k="amenity" v="courthouse"/>
    <tag k="building" v="yes"/>
    <tag k="building:levels" v="5"/>
    <tag k="name" v="Sąd Rejonowy dla Łodzi-Śródmieścia w Łodzi"/>
  </way>
  <way id="104511738" version="6" timestamp="2012-03-05T18:08:40Z" uid="607553" user="Duke83" changeset="10882294">
    <nd ref="1205792675"/>
    <nd ref="1660972417"/>
    <nd ref="1205792631"/>
    <nd ref="1205792517"/>
    <nd ref="1205792588"/>
    <nd ref="1205792675"/>
    <tag k="addr:housename" v="107/109"/>
    <tag k="addr:postcode" v="90-928"/>
    <tag k="addr:street" v="Tadeusza Kościuszki"/>
    <tag k="amenity" v="courthouse"/>
    <tag k="building" v="yes"/>
    <tag k="building:levels" v="5"/>
    <tag k="name" v="Sąd Rejonowy dla Łodzi-Śródmieścia w Łodzi"/>
  </way>
  <way id="104511746" version="2" timestamp="2011-06-12T15:21:04Z" uid="66036" user="h4v" changeset="8416411"/>
  <way id="104511758" version="2" timestamp="2011-06-12T15:20:59Z" uid="66036" user="h4v" changeset="8416411">
    <nd ref="1205792587"/>
    <nd ref="1205792509"/>
    <nd ref="1205792676"/>
    <nd ref="1205792667"/>
    <nd ref="1205792633"/>
    <nd ref="1205792543"/>
    <nd ref="1205792498"/>
    <nd ref="1205792819"/>
    <nd ref="1205792647"/>
    <nd ref="1205792470"/>
    <nd ref="1205792762"/>
    <nd ref="1205792455"/>
    <nd ref="1205792693"/>
    <nd ref="1205792565"/>
    <nd ref="1205792775"/>
    <nd ref="1205792677"/>
    <nd ref="1205792587"/>
    <tag k="addr:housenumber" v="93"/>
    <tag k="alt_name" v="Kamienica Zygmunta Dejczmana"/>
    <tag k="building" v="yes"/>
    <tag k="heritage" v="2"/>
    <tag k="heritage:operator" v="nid"/>
    <tag k="historic" v="heritage"/>
    <tag k="name" v="Kamienica Heimanów"/>
    <tag k="ref:nid" v="A/28"/>
  </way>
  <way id="104511758" version="3" timestamp="2012-02-09T09:15:03Z" uid="73912" user="Jacek_lodz" changeset="10631827">
    <nd ref="1205792587"/>
    <nd ref="1205792509"/>
    <nd ref="1205792676"/>
    <nd ref="1205792667"/>
    <nd ref="1205792633"/>
    <nd ref="1205792543"/>
    <nd ref="1205792498"/>
    <nd ref="1205792819"/>
    <nd ref="1205792647"/>
    <nd ref="1205792470"/>
    <nd ref="1205792762"/>
    <nd ref="1205792455"/>
    <nd ref="1205792693"/>
    <nd ref="1205792565"/>
    <nd ref="1205792775"/>
    <nd ref="1205792677"/>
    <nd ref="1205792587"/>
    <tag k="addr:housenumber" v="93"/>
    <tag k="alt_name" v="Kamienica Zygmunta Dejczmana"/>
    <tag k="building" v="yes"/>
    <tag k="heritage" v="2"/>
    <tag k="heritage:operator" v="nid"/>
    <tag k="historic" v="heritage"/>
    <tag k="name" v="Kamienica Heimanów"/>
    <tag k="ref:nid" v="A/28"/>
    <tag k="tourism" v="attraction"/>
  </way>
  <way id="104511758" version="4" timestamp="2012-03-25T11:14:21Z" uid="607553" user="Duke83" changeset="11093870">
    <nd ref="1205792587"/>
    <nd ref="1205792509"/>
    <nd ref="1205792676"/>
    <nd ref="1205792667"/>
    <nd ref="1205792633"/>
    <nd ref="1205792543"/>
    <nd ref="1205792498"/>
    <nd ref="1205792819"/>
    <nd ref="1205792647"/>
    <nd ref="1205792470"/>
    <nd ref="1205792762"/>
    <nd ref="1205792455"/>
    <nd ref="1205792693"/>
    <nd ref="1205792565"/>
    <nd ref="1205792775"/>
    <nd ref="1205792677"/>
    <nd ref="1205792587"/>
    <tag k="addr:housenumber" v="93"/>
    <tag k="alt_name" v="Kamienica Zygmunta Dejczmana"/>
    <tag k="building" v="yes"/>
    <tag k="building:levels" v="4"/>
    <tag k="heritage" v="2"/>
    <tag k="heritage:operator" v="nid"/>
    <tag k="historic" v="heritage"/>
    <tag k="name" v="Kamienica Heimanów"/>
    <tag k="ref:nid" v="A/28"/>
    <tag k="tourism" v="attraction"/>
  </way>
</osm>
