<?xml version='1.0' encoding='UTF-8'?>
<osm version="0.6" generator="libosmium/2.20.0">
  <way id="104627795" version="1" timestamp="2011-03-18T02:42:44Z" uid="66036" user="h4v" changeset="7591708">
    <nd ref="1203470744"/>
    <nd ref="1206890545"/>
    <nd ref="1206890537"/>
    <nd ref="1206890529"/>
    <nd ref="1203470744"/>
    <tag k="building" v="yes"/>
    <tag k="operator" v="Państwowa Wyższa Szkoła Filmowa, Telewizyjna i Teatralna im. Leona Schillera"/>
    <tag k="source" v="bing"/>
  </way>
  <way id="104627796" version="1" timestamp="2011-03-18T02:42:45Z" uid="66036" user="h4v" changeset="7591708">
    <nd ref="1206890552"/>
    <nd ref="1206890523"/>
    <nd ref="1206890513"/>
    <nd ref="1206890569"/>
    <nd ref="1206890552"/>
    <tag k="landuse" v="commercial"/>
  </way>
  <way id="104627797" version="1" timestamp="2011-03-18T02:42:45Z" uid="66036" user="h4v" changeset="7591708">
    <nd ref="1203470744"/>
    <nd ref="1206890567"/>
    <nd ref="1203470697"/>
    <nd ref="1203470668"/>
    <nd ref="1203470744"/>
    <tag k="building" v="yes"/>
    <tag k="source" v="bing"/>
  </way>
  <way id="104627798" version="1" timestamp="2011-03-18T02:42:45Z" uid="66036" user="h4v" changeset="7591708">
    <nd ref="1206890568"/>
    <nd ref="1206890514"/>
    <nd ref="1206890504"/>
    <nd ref="1206890546"/>
    <nd ref="1206890530"/>
    <nd ref="1206890520"/>
    <nd ref="1206890510"/>
    <nd ref="1206890565"/>
    <nd ref="1206890555"/>
    <nd ref="1206890543"/>
    <nd ref="1206890534"/>
    <nd ref="1206890525"/>
    <nd ref="1206890516"/>
    <nd ref="1206890506"/>
    <nd ref="1206890559"/>
    <nd ref="1206890568"/>
    <tag k="building" v="yes"/>
    <tag k="name" v="Wydział Operatorski"/>
    <tag k="operator" v="Państwowa Wyższa Szkoła Filmowa, Telewizyjna i Teatralna im. Leona Schillera"/>
    <tag k="source" v="bing"/>
  </way>
  <way id="104627799" version="1" timestamp="2011-03-18T02:42:45Z" uid="66036" user="h4v" changeset="7591708">
    <nd ref="1206890553"/>
    <nd ref="1206890528"/>
    <nd ref="1206890511"/>
    <nd ref="1206890566"/>
    <nd ref="1206890556"/>
    <nd ref="1206890544"/>
    <nd ref="1206890553"/>
    <tag k="alt_name" v="Pałac Guzego"/>
    <tag k="amenity" v="university"/>
    <tag k="building" v="yes"/>
    <tag k="name" v="Wydział Organizacji Sztuki Filmowej"/>
    <tag k="operator" v="Państwowa Wyższa Szkoła Filmowa, Telewizyjna i Teatralna im. Leona Schillera"/>
    <tag k="source" v="bing"/>
  </way>
  <way id="104627800" version="1" timestamp="2011-03-18T02:42:45Z" uid="66036" user="h4v" changeset="7591708">
    <nd ref="1206890563"/>
    <nd ref="1206890535"/>
    <nd ref="1206890526"/>
    <nd ref="1206890517"/>
    <nd ref="1206890507"/>
    <nd ref="1206890561"/>
    <nd ref="1206890549"/>
    <nd ref="1206890540"/>
    <nd ref="1206890532"/>
    <nd ref="1206890521"/>
    <nd ref="1206890563"/>
    <tag k="amenity" v="university"/>
    <tag k="building" v="yes"/>
    <tag k="name" v="Budynek Senatu i Rektorat"/>
    <tag k="operator" v="Państwowa Wyższa Szkoła Filmowa, Telewizyjna i Teatralna im. Leona Schillera"/>
    <tag k="source" v="bing"/>
  </way>
  <way id="104627800" version="2" timestamp="2012-01-02T18:02:09Z" uid="577656" user="iwona_0202" changeset="10273464">
    <nd ref="1206890563"/>
    <nd ref="1206890535"/>
    <nd ref="1206890526"/>
    <nd ref="1206890517"/>
    <nd ref="1206890507"/>
    <nd ref="1206890561"/>
    <nd ref="1206890549"/>
    <nd ref="1206890540"/>
    <nd ref="1206890532"/>
    <nd ref="1206890521"/>
    <nd ref="1206890563"/>
    <tag k="amenity" v="university"/>
    <tag k="building" v="yes"/>
    <tag k="name" v="Budynek Senatu i Rektorat WSFiT"/>
    <tag k="operator" v="Państwowa Wyższa Szkoła Filmowa, Telewizyjna i Teatralna im. Leona Schillera"/>
    <tag k="source" v="bing"/>
  </way>
  <way id="104627801" version="1" timestamp="2011-03-18T02:42:46Z" uid="66036" user="h4v" changeset="7591708">
    <nd ref="1206890557"/>
    <nd ref="1206890509"/>
    <nd ref="1206890564"/>
    <nd ref="1206890554"/>
    <nd ref="1206890557"/>
    <tag k="building" v="yes"/>
    <tag k="source" v="bing"/>
  </way>
  <way id="104627802" version="1" timestamp="2011-03-18T02:42:46Z" uid="66036" user="h4v" changeset="7591708">
    <nd ref="1206890512"/>
    <nd ref="1206890551"/>
    <nd ref="1206890542"/>
    <nd ref="1206890533"/>
    <nd ref="1206890512"/>
    <tag k="building" v="yes"/>
    <tag k="name" v="Wydział Fotograficzny"/>
    <tag k="operator" v="Państwowa Wyższa Szkoła Filmowa, Telewizyjna i Teatralna im. Leona Schillera"/>
    <tag k="source" v="bing"/>
  </way>
  <way id="104627803" version="1" timestamp="2011-03-18T02:42:46Z" uid="66036" user="h4v" changeset="7591708">
    <nd ref="1206890522"/>
    <nd ref="1206890560"/>
    <nd ref="1206890548"/>
    <nd ref="1206890539"/>
    <nd ref="1206890522"/>
    <tag k="building" v="yes"/>
    <tag k="name" v="Magazyn"/>
    <tag k="old_name" v="Fabryka termometrów"/>
    <tag k="operator" v="Państwowa Wyższa Szkoła Filmowa, Telewizyjna i Teatralna im. Leona Schillera"/>
    <tag k="source" v="bing"/>
  </way>
  <way id="104627804" version="1" timestamp="2011-03-18T02:42:46Z" uid="66036" user="h4v" changeset="7591708">
    <nd ref="1206890519"/>
    <nd ref="1206890536"/>
    <nd ref="1206890527"/>
    <nd ref="1206890518"/>
    <nd ref="1206890508"/>
    <nd ref="1206890562"/>
    <nd ref="1206890550"/>
    <nd ref="1206890541"/>
    <nd ref="1206890524"/>
    <nd ref="1206890515"/>
    <nd ref="1206890505"/>
    <nd ref="1206890558"/>
    <nd ref="1206890547"/>
    <nd ref="1206890538"/>
    <nd ref="1206890531"/>
    <nd ref="1206890519"/>
    <tag k="addr:housenumber" v="32"/>
    <tag k="addr:postcode" v="90-716"/>
    <tag k="addr:street" v="Gdańska"/>
    <tag k="amenity" v="university"/>
    <tag k="building" v="yes"/>
    <tag k="name" v="Akademia Muzyczna im. Grażyny i Kiejstuta Bacewiczów"/>
    <tag k="website" v="http://www.amuz.lodz.pl"/>
    <tag k="wikipedia" v="pl:Akademia Muzyczna im. Grażyny i Kiejstuta Bacewiczów w Łodzi"/>
  </way>
  <way id="104627804" version="2" timestamp="2011-06-11T07:53:00Z" uid="66036" user="h4v" changeset="8403607">
    <nd ref="1206890519"/>
    <nd ref="1319790007"/>
    <nd ref="1206890536"/>
    <nd ref="1206890527"/>
    <nd ref="1206890518"/>
    <nd ref="1206890508"/>
    <nd ref="1206890562"/>
    <nd ref="1206890550"/>
    <nd ref="1206890541"/>
    <nd ref="1206890524"/>
    <nd ref="1206890515"/>
    <nd ref="1206890505"/>
    <nd ref="1206890558"/>
    <nd ref="1206890547"/>
    <nd ref="1206890538"/>
    <nd ref="1206890531"/>
    <nd ref="1206890519"/>
    <tag k="addr:housenumber" v="32"/>
    <tag k="addr:postcode" v="90-716"/>
    <tag k="addr:street" v="Gdańska"/>
    <tag k="amenity" v="university"/>
    <tag k="building" v="yes"/>
    <tag k="name" v="Akademia Muzyczna im. Grażyny i Kiejstuta Bacewiczów"/>
    <tag k="website" v="http://www.amuz.lodz.pl"/>
    <tag k="wikipedia" v="pl:Akademia Muzyczna im. Grażyny i Kiejstuta Bacewiczów w Łodzi"/>
  </way>
  <way id="104627922" version="1" timestamp="2011-03-18T02:54:01Z" uid="20587" user="balrog-kun" changeset="7591739">
    <nd ref="317078154"/>
    <nd ref="1206893705"/>
    <nd ref="370147072"/>
    <nd ref="1206893709"/>
    <nd ref="317078157"/>
    <nd ref="317078154"/>
    <tag k="landuse" v="construction"/>
    <tag k="name" v="Saint Mary&apos;s Square"/>
  </way>
  <way id="104627923" version="1" timestamp="2011-03-18T02:54:01Z" uid="20587" user="balrog-kun" changeset="7591739">
    <nd ref="1206893707"/>
    <nd ref="1206893700"/>
    <tag k="highway" v="service"/>
    <tag k="tunnel" v="yes"/>
  </way>
</osm>
