<?xml version='1.0' encoding='UTF-8'?>
<osm version="0.6" generator="libosmium/2.20.0">
  <way id="105612078" version="1" timestamp="2011-03-24T17:10:47Z" uid="43863" user="Rundling" changeset="7657709">
    <nd ref="1216115652"/>
    <nd ref="1216115640"/>
    <nd ref="277723980"/>
    <nd ref="1216115645"/>
    <tag k="highway" v="service"/>
    <tag k="service" v="driveway"/>
    <tag k="surface" v="asphalt"/>
  </way>
  <way id="105612079" version="1" timestamp="2011-03-24T17:10:47Z" uid="43863" user="Rundling" changeset="7657709">
    <nd ref="277723980"/>
    <nd ref="815252843"/>
    <nd ref="815252873"/>
    <tag k="highway" v="service"/>
    <tag k="service" v="driveway"/>
    <tag k="surface" v="asphalt"/>
  </way>
  <way id="105612080" version="1" timestamp="2011-03-24T17:10:47Z" uid="43863" user="Rundling" changeset="7657709">
    <nd ref="1216115634"/>
    <nd ref="1216115646"/>
    <nd ref="1216115635"/>
    <nd ref="1216115642"/>
    <nd ref="1216115634"/>
    <tag k="amenity" v="car_wash"/>
    <tag k="building" v="yes"/>
    <tag k="name" v="AutowÃ¤sche"/>
    <tag k="opening_hours" v="24/7"/>
    <tag k="operator" v="VSE"/>
  </way>
  <way id="105612081" version="1" timestamp="2011-03-24T17:10:48Z" uid="43863" user="Rundling" changeset="7657709">
    <nd ref="1216115636"/>
    <nd ref="1216115650"/>
    <nd ref="1216115638"/>
    <nd ref="1216115653"/>
    <nd ref="1216115636"/>
    <tag k="building" v="yes"/>
  </way>
</osm>
