<?xml version='1.0' encoding='UTF-8'?>
<osm version="0.6" generator="libosmium/2.20.0">
  <way id="106147643" version="1" timestamp="2011-03-27T18:59:25Z" uid="33382" user="de_muur" changeset="7689734">
    <nd ref="295020015"/>
    <nd ref="295020016"/>
    <nd ref="1221694039"/>
    <tag k="highway" v="track"/>
    <tag k="surface" v="paved"/>
    <tag k="tracktype" v="grade1"/>
  </way>
  <way id="106147643" version="2" timestamp="2011-04-26T20:37:39Z" uid="444863" user="kwitschi" changeset="7979449">
    <nd ref="295020015"/>
    <nd ref="295020016"/>
    <nd ref="1221694039"/>
    <tag k="highway" v="tertiary"/>
    <tag k="surface" v="paved"/>
    <tag k="tracktype" v="grade1"/>
  </way>
  <way id="106147643" version="3" timestamp="2011-04-26T20:40:12Z" uid="444863" user="kwitschi" changeset="7979449">
    <nd ref="295020015"/>
    <nd ref="295020016"/>
    <nd ref="1221694039"/>
    <tag k="alt_name" v="Poggenmoorstraße"/>
    <tag k="highway" v="tertiary"/>
    <tag k="int_name" v="Poggenmoorstraße"/>
    <tag k="name" v="Poggenmoorstraße"/>
    <tag k="surface" v="paved"/>
    <tag k="tracktype" v="grade1"/>
  </way>
  <way id="106147643" version="4" timestamp="2011-05-14T18:08:06Z" uid="42123" user="Ropino" changeset="8143848">
    <nd ref="295020015"/>
    <nd ref="295020016"/>
    <nd ref="1261325686"/>
    <nd ref="1221694039"/>
    <tag k="alt_name" v="Poggenmoorstraße"/>
    <tag k="highway" v="tertiary"/>
    <tag k="int_name" v="Poggenmoorstraße"/>
    <tag k="name" v="Poggenmoorstraße"/>
    <tag k="surface" v="paved"/>
    <tag k="tracktype" v="grade1"/>
  </way>
  <way id="106147643" version="5" timestamp="2011-06-14T10:49:09Z" uid="431336" user="bison166" changeset="8435940">
    <nd ref="295020015"/>
    <nd ref="295020016"/>
    <nd ref="1261325686"/>
    <nd ref="1221694039"/>
    <tag k="alt_name" v="Poggenmoorstraße"/>
    <tag k="highway" v="residential"/>
    <tag k="int_name" v="Poggenmoorstraße"/>
    <tag k="name" v="Poggenmoorstraße"/>
    <tag k="surface" v="paved"/>
    <tag k="tracktype" v="grade1"/>
  </way>
</osm>
