<?xml version='1.0' encoding='UTF-8'?>
<osm version="0.6" generator="libosmium/2.20.0">
  <way id="10629061" version="1" timestamp="2007-10-31T03:34:25Z" uid="7617" user="Franc" changeset="365765">
    <nd ref="17850465"/>
    <nd ref="10283704"/>
    <nd ref="17850464"/>
    <tag k="class" v="primary"/>
    <tag k="created_by" v="Potlatch alpha"/>
    <tag k="highway" v="primary"/>
    <tag k="name" v="King Street"/>
  </way>
  <way id="10629061" version="2" timestamp="2008-02-22T01:45:51Z" uid="7617" user="Franc" changeset="176180">
    <nd ref="17850465"/>
    <nd ref="10283704"/>
    <nd ref="17850464"/>
    <tag k="created_by" v="Potlatch alpha"/>
    <tag k="highway" v="primary"/>
    <tag k="name" v="King Street"/>
  </way>
  <way id="10629061" version="3" timestamp="2008-03-01T01:02:26Z" uid="7617" user="Franc" changeset="237129">
    <nd ref="17850465"/>
    <nd ref="17850464"/>
    <tag k="created_by" v="Potlatch alpha"/>
    <tag k="highway" v="primary"/>
    <tag k="name" v="King Street"/>
  </way>
  <way id="10629061" version="4" timestamp="2008-06-29T06:49:38Z" uid="12203" user="brainwad" changeset="336547">
    <nd ref="17850465"/>
    <nd ref="17850464"/>
    <tag k="created_by" v="Potlatch 0.9c"/>
    <tag k="highway" v="primary"/>
    <tag k="name" v="King Street"/>
    <tag k="ref" v="S54"/>
  </way>
  <way id="10629061" version="5" timestamp="2009-11-14T12:05:50Z" uid="117890" user="Jonathan Trott" changeset="3112508">
    <nd ref="17850465"/>
    <nd ref="17850464"/>
    <tag k="highway" v="primary"/>
    <tag k="name" v="King Street"/>
    <tag k="ref" v="S54"/>
  </way>
  <way id="10629061" version="6" timestamp="2009-12-27T06:14:53Z" uid="12203" user="brainwad" changeset="3460242">
    <nd ref="17850465"/>
    <nd ref="17850464"/>
    <tag k="highway" v="primary"/>
    <tag k="maxspeed" v="50"/>
    <tag k="name" v="King Street"/>
    <tag k="ref" v="S54"/>
  </way>
  <way id="10629061" version="7" timestamp="2010-04-01T17:17:40Z" uid="74617" user="JohnSmith" changeset="4295913">
    <nd ref="17850465"/>
    <nd ref="17850464"/>
    <tag k="highway" v="primary"/>
    <tag k="maxspeed" v="50"/>
    <tag k="name" v="King Street"/>
  </way>
  <way id="10629061" version="8" timestamp="2010-06-10T10:24:21Z" uid="7617" user="Franc" changeset="4952787">
    <nd ref="17850465"/>
    <nd ref="768505682"/>
    <nd ref="17850464"/>
    <tag k="highway" v="primary"/>
    <tag k="maxspeed" v="50"/>
    <tag k="name" v="King Street"/>
  </way>
  <way id="10629087" version="1" timestamp="2007-10-31T03:36:52Z" uid="7617" user="Franc" changeset="365765">
    <nd ref="93286116"/>
    <nd ref="17851877"/>
    <tag k="created_by" v="JOSM"/>
    <tag k="highway" v="footway"/>
    <tag k="source" v="survey"/>
    <tag k="surface" v="paved"/>
  </way>
  <way id="10629087" version="2" timestamp="2008-02-29T09:13:08Z" uid="7617" user="Franc" changeset="229386">
    <nd ref="93286116"/>
    <nd ref="17851877"/>
    <tag k="created_by" v="JOSM"/>
    <tag k="highway" v="pedestrian"/>
    <tag k="source" v="survey"/>
    <tag k="surface" v="paved"/>
  </way>
  <way id="10629087" version="3" timestamp="2008-05-26T10:01:17Z" uid="30201" user="rrankin" changeset="523263">
    <nd ref="93286116"/>
    <nd ref="17851877"/>
    <tag k="created_by" v="JOSM"/>
    <tag k="highway" v="footway"/>
    <tag k="source" v="survey"/>
    <tag k="surface" v="paved"/>
  </way>
  <way id="10629087" version="4" timestamp="2009-11-14T12:06:55Z" uid="117890" user="Jonathan Trott" changeset="3112508">
    <nd ref="93286116"/>
    <nd ref="17851877"/>
    <tag k="highway" v="footway"/>
    <tag k="source" v="survey"/>
    <tag k="surface" v="paved"/>
  </way>
  <way id="10629146" version="1" timestamp="2007-10-31T03:44:40Z" uid="7617" user="Franc" changeset="365765">
    <nd ref="93290266"/>
    <nd ref="93290263"/>
    <tag k="created_by" v="JOSM"/>
    <tag k="highway" v="service"/>
    <tag k="source" v="survey"/>
  </way>
  <way id="10629146" version="2" timestamp="2007-11-10T01:56:39Z" uid="7617" user="Franc" changeset="463636">
    <nd ref="93290266"/>
    <nd ref="93290263"/>
    <tag k="created_by" v="JOSM"/>
    <tag k="highway" v="service"/>
    <tag k="name" v="Paints Lane"/>
    <tag k="source" v="survey"/>
    <tag k="source:name" v="survey"/>
  </way>
  <way id="10629146" version="3" timestamp="2009-11-14T12:08:30Z" uid="117890" user="Jonathan Trott" changeset="3112508">
    <nd ref="93290266"/>
    <nd ref="93290263"/>
    <tag k="highway" v="service"/>
    <tag k="name" v="Paints Lane"/>
    <tag k="source" v="survey"/>
    <tag k="source:name" v="survey"/>
  </way>
  <way id="10629147" version="1" timestamp="2007-10-31T03:44:41Z" uid="7617" user="Franc" changeset="365765">
    <nd ref="93290263"/>
    <nd ref="93290286"/>
    <nd ref="93290269"/>
    <tag k="created_by" v="JOSM"/>
    <tag k="highway" v="service"/>
    <tag k="name" v="Paints Lane"/>
    <tag k="source" v="survey"/>
  </way>
  <way id="10629147" version="2" timestamp="2009-11-14T12:08:30Z" uid="117890" user="Jonathan Trott" changeset="3112508">
    <nd ref="93290263"/>
    <nd ref="93290286"/>
    <nd ref="93290269"/>
    <tag k="highway" v="service"/>
    <tag k="name" v="Paints Lane"/>
    <tag k="source" v="survey"/>
  </way>
  <way id="10629148" version="1" timestamp="2007-10-31T03:44:42Z" uid="7617" user="Franc" changeset="365765">
    <nd ref="93290279"/>
    <nd ref="93290275"/>
    <nd ref="93290280"/>
    <tag k="created_by" v="JOSM"/>
    <tag k="highway" v="service"/>
    <tag k="name" v="Shepherd Lane"/>
    <tag k="source" v="Yahoo Imagery"/>
    <tag k="source:name" v="survey"/>
  </way>
  <way id="10629148" version="2" timestamp="2009-11-14T12:08:28Z" uid="117890" user="Jonathan Trott" changeset="3112508">
    <nd ref="93290279"/>
    <nd ref="93290275"/>
    <nd ref="93290280"/>
    <tag k="highway" v="service"/>
    <tag k="name" v="Shepherd Lane"/>
    <tag k="source" v="Yahoo Imagery"/>
    <tag k="source:name" v="survey"/>
  </way>
  <way id="10629148" version="3" timestamp="2010-06-24T10:32:05Z" uid="7617" user="Franc" changeset="5065038">
    <nd ref="93290279"/>
    <nd ref="93290275"/>
    <nd ref="93290280"/>
    <nd ref="786898337"/>
    <tag k="highway" v="service"/>
    <tag k="name" v="Shepherd Lane"/>
    <tag k="source" v="nearmap"/>
    <tag k="source:name" v="survey"/>
  </way>
  <way id="10629149" version="1" timestamp="2007-10-31T03:44:42Z" uid="7617" user="Franc" changeset="365765">
    <nd ref="93290296"/>
    <nd ref="93290286"/>
    <tag k="created_by" v="JOSM"/>
    <tag k="highway" v="service"/>
    <tag k="note" v="position and size are approximate"/>
    <tag k="source" v="survey"/>
  </way>
  <way id="10629149" version="2" timestamp="2009-11-14T12:08:29Z" uid="117890" user="Jonathan Trott" changeset="3112508">
    <nd ref="93290296"/>
    <nd ref="93290286"/>
    <tag k="highway" v="service"/>
    <tag k="note" v="position and size are approximate"/>
    <tag k="source" v="survey"/>
  </way>
  <way id="10629149" version="3" timestamp="2010-07-05T11:14:48Z" uid="7617" user="Franc" changeset="5141101">
    <nd ref="93290296"/>
    <nd ref="93290286"/>
    <tag k="fixme:sign:no" v="2010-07-05"/>
    <tag k="highway" v="service"/>
    <tag k="source" v="nearmap"/>
  </way>
  <way id="10629149" version="4" timestamp="2010-11-07T10:59:19Z" uid="7617" user="Franc" changeset="6310020">
    <nd ref="980351224"/>
    <nd ref="93290286"/>
    <tag k="fixme:sign:no" v="2010-11-07"/>
    <tag k="highway" v="service"/>
    <tag k="source" v="nearmap"/>
  </way>
  <way id="10629185" version="1" timestamp="2007-10-31T03:49:59Z" uid="7617" user="Franc" changeset="365765">
    <nd ref="93292950"/>
    <nd ref="30387807"/>
    <tag k="created_by" v="JOSM"/>
  </way>
  <way id="10629185" version="2" timestamp="2007-11-10T01:56:40Z" uid="7617" user="Franc" changeset="463636">
    <nd ref="93292950"/>
    <nd ref="30387807"/>
    <tag k="created_by" v="JOSM"/>
    <tag k="name" v="Maze Lane"/>
    <tag k="source:name" v="survey"/>
  </way>
  <way id="10629185" version="3" timestamp="2008-05-19T11:15:33Z" uid="17425" user="jackb" changeset="481178">
    <nd ref="93292950"/>
    <nd ref="30387807"/>
    <tag k="created_by" v="JOSM"/>
    <tag k="highway" v="service"/>
    <tag k="name" v="Maze Lane"/>
    <tag k="source:name" v="survey"/>
  </way>
  <way id="10629185" version="4" timestamp="2009-11-14T12:08:22Z" uid="117890" user="Jonathan Trott" changeset="3112508">
    <nd ref="93292950"/>
    <nd ref="30387807"/>
    <tag k="highway" v="service"/>
    <tag k="name" v="Maze Lane"/>
    <tag k="source:name" v="survey"/>
  </way>
  <way id="10629186" version="1" timestamp="2007-10-31T03:50:00Z" uid="7617" user="Franc" changeset="365765">
    <nd ref="93292951"/>
    <nd ref="93292950"/>
    <tag k="created_by" v="JOSM"/>
    <tag k="highway" v="service"/>
    <tag k="source" v="survey"/>
  </way>
  <way id="10629186" version="2" timestamp="2009-08-20T08:03:11Z" uid="7617" user="Franc" changeset="2209116"/>
  <way id="10629187" version="1" timestamp="2007-10-31T03:50:00Z" uid="7617" user="Franc" changeset="365765">
    <nd ref="93292950"/>
    <nd ref="93292954"/>
    <tag k="created_by" v="JOSM"/>
    <tag k="highway" v="service"/>
    <tag k="source" v="survey"/>
  </way>
  <way id="10629187" version="2" timestamp="2009-08-20T08:03:11Z" uid="7617" user="Franc" changeset="2209116">
    <nd ref="93292951"/>
    <nd ref="93292950"/>
    <nd ref="93292954"/>
    <tag k="created_by" v="JOSM"/>
    <tag k="highway" v="service"/>
    <tag k="source" v="survey"/>
  </way>
  <way id="10629187" version="3" timestamp="2009-11-14T12:08:16Z" uid="117890" user="Jonathan Trott" changeset="3112508">
    <nd ref="93292951"/>
    <nd ref="93292950"/>
    <nd ref="93292954"/>
    <tag k="highway" v="service"/>
    <tag k="source" v="survey"/>
  </way>
  <way id="10629187" version="4" timestamp="2010-06-24T10:32:04Z" uid="7617" user="Franc" changeset="5065038">
    <nd ref="93292951"/>
    <nd ref="93292950"/>
    <nd ref="93292954"/>
    <tag k="fixme:sign:no" v="2010-06-24"/>
    <tag k="highway" v="service"/>
    <tag k="source" v="survey"/>
  </way>
  <way id="10629187" version="5" timestamp="2010-11-07T10:59:11Z" uid="7617" user="Franc" changeset="6310020">
    <nd ref="93292951"/>
    <nd ref="93292950"/>
    <nd ref="980351531"/>
    <tag k="fixme:sign:no" v="2010-06-24"/>
    <tag k="highway" v="service"/>
    <tag k="source" v="survey"/>
  </way>
  <way id="10629188" version="1" timestamp="2007-10-31T03:50:01Z" uid="7617" user="Franc" changeset="365765">
    <nd ref="93292951"/>
    <nd ref="93292952"/>
    <tag k="created_by" v="JOSM"/>
    <tag k="highway" v="service"/>
    <tag k="source" v="survey"/>
  </way>
  <way id="10629188" version="2" timestamp="2009-11-14T12:08:29Z" uid="117890" user="Jonathan Trott" changeset="3112508">
    <nd ref="93292951"/>
    <nd ref="93292952"/>
    <tag k="highway" v="service"/>
    <tag k="source" v="survey"/>
  </way>
  <way id="10629188" version="3" timestamp="2010-06-24T10:32:05Z" uid="7617" user="Franc" changeset="5065038">
    <nd ref="93292951"/>
    <nd ref="93292952"/>
    <tag k="highway" v="service"/>
    <tag k="name" v="Pine Lane"/>
    <tag k="source" v="survey"/>
  </way>
  <way id="10629189" version="1" timestamp="2007-10-31T03:50:02Z" uid="7617" user="Franc" changeset="365765">
    <nd ref="93292952"/>
    <nd ref="30387805"/>
    <nd ref="30387806"/>
    <tag k="created_by" v="JOSM"/>
    <tag k="highway" v="service"/>
    <tag k="name" v="Pine Lane"/>
    <tag k="source" v="survey"/>
  </way>
  <way id="10629189" version="2" timestamp="2009-11-14T12:08:16Z" uid="117890" user="Jonathan Trott" changeset="3112508">
    <nd ref="93292952"/>
    <nd ref="30387805"/>
    <nd ref="30387806"/>
    <tag k="highway" v="service"/>
    <tag k="name" v="Pine Lane"/>
    <tag k="source" v="survey"/>
  </way>
  <way id="10629189" version="3" timestamp="2010-04-25T07:08:05Z" uid="7617" user="Franc" changeset="4518185">
    <nd ref="93292952"/>
    <nd ref="705792102"/>
    <nd ref="30387805"/>
    <nd ref="30387806"/>
    <tag k="highway" v="service"/>
    <tag k="name" v="Pine Lane"/>
    <tag k="source" v="survey"/>
  </way>
  <way id="10629193" version="5" timestamp="2008-10-09T07:32:58Z" uid="27600" user="Islanit" changeset="188945">
    <nd ref="303226993"/>
    <nd ref="274188051"/>
    <nd ref="93292996"/>
    <nd ref="93292997"/>
    <tag k="created_by" v="Potlatch 0.10d"/>
    <tag k="highway" v="residential"/>
    <tag k="name" v="Hospitalstraße"/>
    <tag k="postal_code" v="22767"/>
  </way>
  <way id="10629193" version="6" timestamp="2008-12-13T21:33:45Z" uid="72576" user="Selter Gast" changeset="360185">
    <nd ref="303226993"/>
    <nd ref="318472752"/>
    <nd ref="274188051"/>
    <nd ref="93292996"/>
    <nd ref="93292997"/>
    <tag k="created_by" v="Potlatch 0.10f"/>
    <tag k="highway" v="residential"/>
    <tag k="name" v="Hospitalstraße"/>
    <tag k="postal_code" v="22767"/>
  </way>
  <way id="10629193" version="7" timestamp="2009-08-28T10:04:04Z" uid="55105" user="Maduser" changeset="2288113">
    <nd ref="303226993"/>
    <nd ref="475569284"/>
    <nd ref="318472752"/>
    <nd ref="274188051"/>
    <nd ref="93292996"/>
    <nd ref="93292997"/>
    <tag k="highway" v="residential"/>
    <tag k="name" v="Hospitalstraße"/>
    <tag k="postal_code" v="22767"/>
  </way>
  <way id="10629193" version="8" timestamp="2009-08-31T12:25:09Z" uid="55105" user="Maduser" changeset="2325731">
    <nd ref="303226993"/>
    <nd ref="475569284"/>
    <nd ref="318472752"/>
    <nd ref="274188051"/>
    <nd ref="93292996"/>
    <nd ref="93292997"/>
    <tag k="highway" v="residential"/>
    <tag k="maxspeed" v="30"/>
    <tag k="name" v="Hospitalstraße"/>
    <tag k="postal_code" v="22767"/>
  </way>
  <way id="10629193" version="9" timestamp="2011-11-12T14:00:46Z" uid="63375" user="Divjo" changeset="9804586">
    <nd ref="1499957214"/>
    <nd ref="475569284"/>
    <nd ref="318472752"/>
    <nd ref="274188051"/>
    <nd ref="93292996"/>
    <nd ref="93292997"/>
    <tag k="highway" v="residential"/>
    <tag k="maxspeed" v="30"/>
    <tag k="name" v="Hospitalstraße"/>
    <tag k="postal_code" v="22767"/>
  </way>
  <way id="10629193" version="10" timestamp="2011-12-29T17:12:56Z" uid="63375" user="Divjo" changeset="10237449"/>
  <way id="10629194" version="10" timestamp="2008-10-07T07:19:40Z" uid="27600" user="Islanit" changeset="123811">
    <nd ref="16940188"/>
    <nd ref="93291788"/>
    <nd ref="87946547"/>
    <nd ref="302779130"/>
    <nd ref="93292997"/>
    <tag k="created_by" v="Potlatch 0.10d"/>
    <tag k="highway" v="residential"/>
    <tag k="name" v="Chemnitzstraße"/>
    <tag k="oneway" v="yes"/>
    <tag k="postal_code" v="22767"/>
  </way>
  <way id="10629194" version="11" timestamp="2008-11-02T21:27:12Z" uid="34571" user="d-t-k-k-f" changeset="660068">
    <nd ref="16940188"/>
    <nd ref="93291788"/>
    <nd ref="87946547"/>
    <nd ref="302779130"/>
    <nd ref="93292997"/>
    <tag k="created_by" v="Potlatch 0.10f"/>
    <tag k="highway" v="residential"/>
    <tag k="lcn_ref" v="1"/>
    <tag k="name" v="Chemnitzstraße"/>
    <tag k="oneway" v="yes"/>
    <tag k="postal_code" v="22767"/>
  </way>
  <way id="10629194" version="12" timestamp="2008-11-09T22:03:37Z" uid="34571" user="d-t-k-k-f" changeset="724966">
    <nd ref="16940188"/>
    <nd ref="93291788"/>
    <nd ref="87946547"/>
    <nd ref="302779130"/>
    <nd ref="93292997"/>
    <tag k="created_by" v="Potlatch 0.10f"/>
    <tag k="highway" v="residential"/>
    <tag k="lcn" v="proposed"/>
    <tag k="lcn_ref" v="1"/>
    <tag k="name" v="Chemnitzstraße"/>
    <tag k="oneway" v="yes"/>
    <tag k="postal_code" v="22767"/>
  </way>
  <way id="10629194" version="13" timestamp="2009-04-28T19:45:12Z" uid="120452" user="Jörgi" changeset="1008678">
    <nd ref="16940188"/>
    <nd ref="93291788"/>
    <nd ref="87946547"/>
    <nd ref="302779130"/>
    <tag k="created_by" v="Potlatch 0.10f"/>
    <tag k="highway" v="residential"/>
    <tag k="lcn" v="proposed"/>
    <tag k="lcn_ref" v="1"/>
    <tag k="name" v="Chemnitzstraße"/>
    <tag k="oneway" v="yes"/>
    <tag k="postal_code" v="22767"/>
  </way>
  <way id="10629194" version="14" timestamp="2009-04-30T20:48:36Z" uid="87367" user="marl" changeset="1030826">
    <nd ref="16940188"/>
    <nd ref="93291788"/>
    <nd ref="387904314"/>
    <nd ref="387904310"/>
    <nd ref="87946547"/>
    <nd ref="387904308"/>
    <nd ref="302779130"/>
    <tag k="created_by" v="Potlatch 0.10f"/>
    <tag k="highway" v="residential"/>
    <tag k="lcn" v="proposed"/>
    <tag k="lcn_ref" v="1"/>
    <tag k="name" v="Chemnitzstraße"/>
    <tag k="oneway" v="yes"/>
    <tag k="postal_code" v="22767"/>
  </way>
  <way id="10629194" version="15" timestamp="2009-04-30T20:51:40Z" uid="87367" user="marl" changeset="1030860">
    <nd ref="16940188"/>
    <nd ref="93291788"/>
    <nd ref="387904314"/>
    <nd ref="387904310"/>
    <nd ref="87946547"/>
    <nd ref="387904947"/>
    <nd ref="387904308"/>
    <nd ref="302779130"/>
    <tag k="created_by" v="Potlatch 0.10f"/>
    <tag k="highway" v="residential"/>
    <tag k="lcn" v="proposed"/>
    <tag k="lcn_ref" v="1"/>
    <tag k="name" v="Chemnitzstraße"/>
    <tag k="oneway" v="yes"/>
    <tag k="postal_code" v="22767"/>
  </way>
  <way id="10629194" version="16" timestamp="2009-09-14T05:36:20Z" uid="63375" user="Divjo" changeset="2477796">
    <nd ref="16940188"/>
    <nd ref="93291788"/>
    <nd ref="387904314"/>
    <nd ref="387904310"/>
    <nd ref="87946547"/>
    <nd ref="387904947"/>
    <nd ref="387904308"/>
    <nd ref="302779130"/>
    <tag k="highway" v="residential"/>
    <tag k="lcn_ref" v="1"/>
    <tag k="name" v="Chemnitzstraße"/>
    <tag k="oneway" v="yes"/>
    <tag k="postal_code" v="22767"/>
  </way>
  <way id="10629194" version="17" timestamp="2009-10-02T15:53:34Z" uid="179890" user="Someone561" changeset="2714337">
    <nd ref="16940188"/>
    <nd ref="517812591"/>
    <nd ref="93291788"/>
    <nd ref="387904314"/>
    <nd ref="387904310"/>
    <nd ref="87946547"/>
    <nd ref="387904947"/>
    <nd ref="387904308"/>
    <nd ref="302779130"/>
    <tag k="highway" v="residential"/>
    <tag k="lcn_ref" v="1"/>
    <tag k="maxspeed" v="30"/>
    <tag k="name" v="Chemnitzstraße"/>
    <tag k="oneway" v="yes"/>
    <tag k="postal_code" v="22767"/>
  </way>
  <way id="10629194" version="18" timestamp="2010-10-16T08:14:01Z" uid="42429" user="FK270673" changeset="6055511">
    <nd ref="16940188"/>
    <nd ref="517812591"/>
    <nd ref="93291788"/>
    <nd ref="387904314"/>
    <nd ref="387904310"/>
    <nd ref="87946547"/>
    <nd ref="387904947"/>
    <nd ref="387904308"/>
    <nd ref="302779130"/>
    <tag k="highway" v="residential"/>
    <tag k="maxspeed" v="30"/>
    <tag k="name" v="Chemnitzstraße"/>
    <tag k="oneway" v="yes"/>
    <tag k="postal_code" v="22767"/>
  </way>
  <way id="10629194" version="19" timestamp="2011-02-02T10:40:11Z" uid="143317" user="georginakirrin" changeset="7163191">
    <nd ref="16940188"/>
    <nd ref="517812591"/>
    <nd ref="93291788"/>
    <nd ref="1132226239"/>
    <nd ref="1132226244"/>
    <nd ref="1132226246"/>
    <nd ref="387904314"/>
    <nd ref="387904310"/>
    <nd ref="87946547"/>
    <nd ref="387904947"/>
    <nd ref="387904308"/>
    <nd ref="302779130"/>
    <tag k="highway" v="residential"/>
    <tag k="maxspeed" v="30"/>
    <tag k="name" v="Chemnitzstraße"/>
    <tag k="oneway" v="yes"/>
    <tag k="postal_code" v="22767"/>
  </way>
  <way id="10629194" version="20" timestamp="2011-03-04T10:53:41Z" uid="333740" user="chkr" changeset="7453327">
    <nd ref="16940188"/>
    <nd ref="517812591"/>
    <nd ref="93291788"/>
    <nd ref="1132226246"/>
    <nd ref="387904314"/>
    <nd ref="387904310"/>
    <nd ref="387904947"/>
    <nd ref="387904308"/>
    <nd ref="302779130"/>
    <tag k="highway" v="residential"/>
    <tag k="maxspeed" v="30"/>
    <tag k="name" v="Chemnitzstraße"/>
    <tag k="oneway" v="yes"/>
    <tag k="postal_code" v="22767"/>
  </way>
  <way id="10629194" version="21" timestamp="2011-05-26T09:41:29Z" uid="40371" user="Zirbe" changeset="8251771">
    <nd ref="16940188"/>
    <nd ref="517812591"/>
    <nd ref="93291788"/>
    <nd ref="1132226246"/>
    <nd ref="387904314"/>
    <nd ref="387904310"/>
    <nd ref="387904947"/>
    <nd ref="387904308"/>
    <nd ref="302779130"/>
    <tag k="cycleway" v="opposite"/>
    <tag k="highway" v="residential"/>
    <tag k="maxspeed" v="30"/>
    <tag k="name" v="Chemnitzstraße"/>
    <tag k="oneway" v="yes"/>
    <tag k="postal_code" v="22767"/>
  </way>
  <way id="10629194" version="22" timestamp="2011-11-22T19:20:43Z" uid="548556" user="Donnerstag" changeset="9911878">
    <nd ref="16940188"/>
    <nd ref="517812591"/>
    <nd ref="93291788"/>
    <nd ref="1132226246"/>
    <nd ref="387904314"/>
    <nd ref="387904310"/>
    <nd ref="387904947"/>
    <nd ref="387904308"/>
    <nd ref="302779130"/>
    <tag k="cycleway" v="opposite"/>
    <tag k="highway" v="residential"/>
    <tag k="maxspeed" v="30"/>
    <tag k="name" v="Chemnitzstraße"/>
    <tag k="oneway" v="yes"/>
    <tag k="postal_code" v="22767"/>
  </way>
  <way id="10629194" version="23" timestamp="2011-12-29T17:12:55Z" uid="63375" user="Divjo" changeset="10237449"/>
  <way id="10629275" version="3" timestamp="2008-10-07T07:19:42Z" uid="27600" user="Islanit" changeset="123811">
    <nd ref="93297038"/>
    <nd ref="93297579"/>
    <nd ref="302779130"/>
    <tag k="created_by" v="Potlatch 0.10d"/>
    <tag k="highway" v="residential"/>
    <tag k="name" v="Warnholtzstraße"/>
    <tag k="postal_code" v="22767"/>
  </way>
  <way id="10629275" version="4" timestamp="2008-10-07T07:19:49Z" uid="27600" user="Islanit" changeset="123811">
    <nd ref="302779132"/>
    <nd ref="93297038"/>
    <nd ref="93297579"/>
    <nd ref="302779130"/>
    <tag k="created_by" v="Potlatch 0.10d"/>
    <tag k="highway" v="residential"/>
    <tag k="name" v="Warnholtzstraße"/>
    <tag k="postal_code" v="22767"/>
  </way>
  <way id="10629275" version="5" timestamp="2009-10-02T15:55:13Z" uid="179890" user="Someone561" changeset="2714354">
    <nd ref="302779132"/>
    <nd ref="93297038"/>
    <nd ref="93297579"/>
    <nd ref="302779130"/>
    <tag k="highway" v="residential"/>
    <tag k="maxspeed" v="30"/>
    <tag k="name" v="Warnholtzstraße"/>
    <tag k="postal_code" v="22767"/>
  </way>
  <way id="10629275" version="6" timestamp="2011-11-22T21:27:43Z" uid="548556" user="Donnerstag" changeset="9913343">
    <nd ref="302779132"/>
    <nd ref="93297038"/>
    <nd ref="1513289272"/>
    <nd ref="93297579"/>
    <nd ref="302779130"/>
    <tag k="highway" v="residential"/>
    <tag k="maxspeed" v="30"/>
    <tag k="name" v="Warnholtzstraße"/>
    <tag k="postal_code" v="22767"/>
  </way>
  <way id="10629275" version="7" timestamp="2011-12-29T17:12:57Z" uid="63375" user="Divjo" changeset="10237449"/>
  <way id="10629342" version="1" timestamp="2007-10-31T04:12:04Z" uid="7617" user="Franc" changeset="365765">
    <nd ref="93303091"/>
    <nd ref="29376701"/>
    <nd ref="29055509"/>
    <nd ref="26363948"/>
    <nd ref="29976436"/>
    <nd ref="12603341"/>
    <tag k="created_by" v="Potlatch alpha"/>
    <tag k="highway" v="primary"/>
    <tag k="name" v="Stanmore Road"/>
    <tag k="ref" v="S54"/>
  </way>
  <way id="10629342" version="2" timestamp="2009-01-02T11:41:13Z" uid="7617" user="Franc" changeset="711760">
    <nd ref="93303091"/>
    <nd ref="29376701"/>
    <nd ref="29055509"/>
    <nd ref="26363948"/>
    <nd ref="29976436"/>
    <nd ref="12603341"/>
    <tag k="created_by" v="Potlatch alpha"/>
    <tag k="highway" v="primary"/>
    <tag k="name" v="Stanmore Road"/>
    <tag k="ref" v="S54"/>
    <tag k="source" v="survey"/>
  </way>
  <way id="10629342" version="3" timestamp="2009-11-14T12:03:47Z" uid="117890" user="Jonathan Trott" changeset="3112508">
    <nd ref="93303091"/>
    <nd ref="29376701"/>
    <nd ref="29055509"/>
    <nd ref="26363948"/>
    <nd ref="29976436"/>
    <nd ref="12603341"/>
    <tag k="highway" v="primary"/>
    <tag k="name" v="Stanmore Road"/>
    <tag k="ref" v="S54"/>
    <tag k="source" v="survey"/>
  </way>
  <way id="10629342" version="4" timestamp="2009-12-27T06:14:40Z" uid="12203" user="brainwad" changeset="3460242">
    <nd ref="93303091"/>
    <nd ref="29376701"/>
    <nd ref="29055509"/>
    <nd ref="26363948"/>
    <nd ref="29976436"/>
    <nd ref="12603341"/>
    <tag k="highway" v="primary"/>
    <tag k="maxspeed" v="60"/>
    <tag k="name" v="Stanmore Road"/>
    <tag k="ref" v="S54"/>
    <tag k="source" v="survey"/>
  </way>
  <way id="10629342" version="5" timestamp="2010-04-01T17:17:36Z" uid="74617" user="JohnSmith" changeset="4295913">
    <nd ref="93303091"/>
    <nd ref="29376701"/>
    <nd ref="29055509"/>
    <nd ref="26363948"/>
    <nd ref="29976436"/>
    <nd ref="12603341"/>
    <tag k="highway" v="primary"/>
    <tag k="maxspeed" v="60"/>
    <tag k="name" v="Stanmore Road"/>
    <tag k="source" v="survey"/>
  </way>
  <way id="10629343" version="1" timestamp="2007-10-31T04:12:04Z" uid="7617" user="Franc" changeset="365765">
    <nd ref="93303108"/>
    <nd ref="93303137"/>
    <nd ref="93303124"/>
    <nd ref="93303151"/>
    <nd ref="93303091"/>
    <tag k="created_by" v="Potlatch alpha"/>
    <tag k="highway" v="primary"/>
    <tag k="name" v="Stanmore Road"/>
    <tag k="oneway" v="yes"/>
    <tag k="ref" v="S54"/>
  </way>
  <way id="10629343" version="2" timestamp="2009-01-02T11:41:12Z" uid="7617" user="Franc" changeset="711760">
    <nd ref="93303108"/>
    <nd ref="93303137"/>
    <nd ref="93303124"/>
    <nd ref="93303151"/>
    <nd ref="93303091"/>
    <tag k="created_by" v="Potlatch alpha"/>
    <tag k="highway" v="primary"/>
    <tag k="name" v="Stanmore Road"/>
    <tag k="oneway" v="yes"/>
    <tag k="ref" v="S54"/>
    <tag k="source" v="survey"/>
  </way>
  <way id="10629343" version="3" timestamp="2010-04-01T17:17:36Z" uid="74617" user="JohnSmith" changeset="4295913">
    <nd ref="93303108"/>
    <nd ref="93303137"/>
    <nd ref="93303124"/>
    <nd ref="93303151"/>
    <nd ref="93303091"/>
    <tag k="highway" v="primary"/>
    <tag k="name" v="Stanmore Road"/>
    <tag k="oneway" v="yes"/>
    <tag k="source" v="survey"/>
  </way>
  <way id="10629343" version="4" timestamp="2010-07-12T10:07:21Z" uid="30201" user="rrankin" changeset="5197434">
    <nd ref="93303108"/>
    <nd ref="93303137"/>
    <nd ref="93303124"/>
    <nd ref="93303151"/>
    <nd ref="93303091"/>
    <tag k="highway" v="primary"/>
    <tag k="maxspeed" v="60"/>
    <tag k="name" v="Stanmore Road"/>
    <tag k="oneway" v="yes"/>
    <tag k="source" v="survey"/>
  </way>
  <way id="10629344" version="1" timestamp="2007-10-31T04:12:05Z" uid="7617" user="Franc" changeset="365765">
    <nd ref="93303091"/>
    <nd ref="93303096"/>
    <nd ref="26364050"/>
    <nd ref="29376702"/>
    <nd ref="93303115"/>
    <nd ref="93303108"/>
    <tag k="created_by" v="Potlatch alpha"/>
    <tag k="highway" v="primary"/>
    <tag k="name" v="Stanmore Road"/>
    <tag k="oneway" v="yes"/>
    <tag k="ref" v="S54"/>
  </way>
  <way id="10629344" version="2" timestamp="2009-01-02T11:41:03Z" uid="7617" user="Franc" changeset="711760">
    <nd ref="93303091"/>
    <nd ref="93303096"/>
    <nd ref="26364050"/>
    <nd ref="29376702"/>
    <nd ref="93303115"/>
    <nd ref="93303108"/>
    <tag k="created_by" v="Potlatch alpha"/>
    <tag k="highway" v="primary"/>
    <tag k="name" v="Stanmore Road"/>
    <tag k="oneway" v="yes"/>
    <tag k="ref" v="S54"/>
    <tag k="source" v="survey"/>
  </way>
  <way id="10629344" version="3" timestamp="2009-12-02T04:46:06Z" uid="30201" user="rrankin" changeset="3269416">
    <nd ref="93303091"/>
    <nd ref="93303096"/>
    <nd ref="26364050"/>
    <nd ref="29376702"/>
    <tag k="highway" v="primary"/>
    <tag k="name" v="Stanmore Road"/>
    <tag k="oneway" v="yes"/>
    <tag k="ref" v="S54"/>
    <tag k="source" v="survey"/>
  </way>
  <way id="10629344" version="4" timestamp="2010-04-01T17:17:36Z" uid="74617" user="JohnSmith" changeset="4295913">
    <nd ref="93303091"/>
    <nd ref="93303096"/>
    <nd ref="26364050"/>
    <nd ref="29376702"/>
    <tag k="highway" v="primary"/>
    <tag k="name" v="Stanmore Road"/>
    <tag k="oneway" v="yes"/>
    <tag k="source" v="survey"/>
  </way>
  <way id="10629344" version="5" timestamp="2010-07-12T10:07:23Z" uid="30201" user="rrankin" changeset="5197434">
    <nd ref="93303091"/>
    <nd ref="93303096"/>
    <nd ref="26364050"/>
    <nd ref="29376702"/>
    <tag k="highway" v="primary"/>
    <tag k="maxspeed" v="60"/>
    <tag k="name" v="Stanmore Road"/>
    <tag k="oneway" v="yes"/>
    <tag k="source" v="survey"/>
  </way>
  <way id="10629673" version="4" timestamp="2010-03-27T17:17:00Z" uid="20587" user="balrog-kun" changeset="4248199">
    <nd ref="93323676"/>
    <nd ref="93323680"/>
    <nd ref="93323681"/>
    <nd ref="93323684"/>
    <nd ref="93323686"/>
    <nd ref="93323689"/>
    <nd ref="93323691"/>
    <nd ref="93323692"/>
    <nd ref="93323694"/>
    <nd ref="93323696"/>
    <nd ref="93323698"/>
    <nd ref="93323701"/>
    <nd ref="93430903"/>
    <nd ref="93430904"/>
    <nd ref="93430907"/>
    <nd ref="93430908"/>
    <nd ref="92846057"/>
    <nd ref="93430910"/>
    <nd ref="93430912"/>
    <nd ref="93430913"/>
    <nd ref="93430914"/>
    <nd ref="93430915"/>
    <nd ref="93430916"/>
    <nd ref="93430917"/>
    <nd ref="93430918"/>
    <nd ref="93430920"/>
    <nd ref="93430923"/>
    <nd ref="93430926"/>
    <nd ref="93430927"/>
    <nd ref="93426061"/>
    <nd ref="93430929"/>
    <nd ref="93430931"/>
    <nd ref="93430933"/>
    <nd ref="93430935"/>
    <nd ref="93140450"/>
    <nd ref="92923295"/>
    <nd ref="93430937"/>
    <nd ref="93430939"/>
    <nd ref="93430942"/>
    <nd ref="93430944"/>
    <nd ref="93430946"/>
    <nd ref="93430949"/>
    <nd ref="93430950"/>
    <nd ref="93430951"/>
    <nd ref="93357989"/>
    <nd ref="93430952"/>
    <nd ref="93430954"/>
    <nd ref="93430957"/>
    <nd ref="93430959"/>
    <nd ref="93430962"/>
    <nd ref="93430963"/>
    <nd ref="93430965"/>
    <nd ref="93430966"/>
    <nd ref="93430968"/>
    <nd ref="93430969"/>
    <nd ref="93430971"/>
    <nd ref="93430972"/>
    <nd ref="93430975"/>
    <nd ref="93430978"/>
    <nd ref="93430980"/>
    <nd ref="93430982"/>
    <nd ref="93430984"/>
    <nd ref="93430986"/>
    <nd ref="93162748"/>
    <tag k="created_by" v="Potlatch 0.10f"/>
    <tag k="highway" v="secondary"/>
    <tag k="name" v="Rawson Road"/>
    <tag k="tiger:cfcc" v="A41"/>
    <tag k="tiger:county" v="Tehama, CA"/>
    <tag k="tiger:name_base" v="Rawson"/>
    <tag k="tiger:name_type" v="Rd"/>
    <tag k="tiger:reviewed" v="no"/>
    <tag k="tiger:separated" v="no"/>
    <tag k="tiger:source" v="tiger_import_dch_v0.6_20070809"/>
    <tag k="tiger:tlid" v="119372073"/>
  </way>
  <way id="10629775" version="3" timestamp="2010-07-09T03:02:12Z" uid="74617" user="JohnSmith" changeset="5170739">
    <nd ref="93330879"/>
    <nd ref="93330880"/>
    <nd ref="33556716"/>
    <tag k="highway" v="residential"/>
    <tag k="maxspeed" v="50"/>
    <tag k="maxspeed:source" v="default residential speed limit in Australia"/>
    <tag k="name" v="Lux Way"/>
  </way>
  <way id="10629775" version="4" timestamp="2010-11-30T22:50:05Z" uid="84937" user="Neil Penman" changeset="6498818">
    <nd ref="93330879"/>
    <nd ref="1014043116"/>
    <nd ref="1014043088"/>
    <nd ref="93330880"/>
    <nd ref="33556716"/>
    <tag k="highway" v="residential"/>
    <tag k="maxspeed" v="50"/>
    <tag k="maxspeed:source" v="default residential speed limit in Australia"/>
    <tag k="name" v="Lux Way"/>
  </way>
  <way id="10629775" version="5" timestamp="2012-01-15T10:00:52Z" uid="147510" user="woodpeck_fixbot" changeset="10395278">
    <nd ref="93330879"/>
    <nd ref="1014043116"/>
    <nd ref="1014043088"/>
    <nd ref="93330880"/>
    <nd ref="33556716"/>
    <tag k="highway" v="residential"/>
    <tag k="name" v="Lux Way"/>
  </way>
  <way id="10629834" version="2" timestamp="2010-07-09T02:57:10Z" uid="74617" user="JohnSmith" changeset="5170739">
    <nd ref="93330885"/>
    <nd ref="93333352"/>
    <nd ref="93333382"/>
    <nd ref="93333355"/>
    <nd ref="93333362"/>
    <tag k="highway" v="residential"/>
    <tag k="maxspeed" v="50"/>
    <tag k="maxspeed:source" v="default residential speed limit in Australia"/>
    <tag k="name" v="Orient Grove"/>
  </way>
  <way id="10629834" version="3" timestamp="2012-01-15T10:00:54Z" uid="147510" user="woodpeck_fixbot" changeset="10395278">
    <nd ref="93330885"/>
    <nd ref="93333352"/>
    <nd ref="93333382"/>
    <nd ref="93333355"/>
    <nd ref="93333362"/>
    <tag k="highway" v="residential"/>
    <tag k="name" v="Orient Grove"/>
  </way>
  <way id="10629836" version="2" timestamp="2010-07-09T03:01:23Z" uid="74617" user="JohnSmith" changeset="5170739">
    <nd ref="93333462"/>
    <nd ref="93333479"/>
    <tag k="highway" v="residential"/>
    <tag k="maxspeed" v="50"/>
    <tag k="maxspeed:source" v="default residential speed limit in Australia"/>
    <tag k="name" v="Bryant Street"/>
  </way>
  <way id="10629836" version="3" timestamp="2012-01-15T10:00:55Z" uid="147510" user="woodpeck_fixbot" changeset="10395278">
    <nd ref="93333462"/>
    <nd ref="93333479"/>
    <tag k="highway" v="residential"/>
    <tag k="name" v="Bryant Street"/>
  </way>
  <way id="10629925" version="3" timestamp="2010-07-09T02:54:06Z" uid="74617" user="JohnSmith" changeset="5170739">
    <nd ref="93337946"/>
    <nd ref="93337955"/>
    <tag k="highway" v="residential"/>
    <tag k="maxspeed" v="50"/>
    <tag k="maxspeed:source" v="default residential speed limit in Australia"/>
    <tag k="name" v="Hennessy Street"/>
  </way>
  <way id="10629925" version="4" timestamp="2010-07-19T12:25:09Z" uid="84937" user="Neil Penman" changeset="5260610">
    <nd ref="93337946"/>
    <nd ref="824409524"/>
    <nd ref="824409627"/>
    <nd ref="93337955"/>
    <tag k="highway" v="residential"/>
    <tag k="maxspeed" v="50"/>
    <tag k="maxspeed:source" v="default residential speed limit in Australia"/>
    <tag k="name" v="Hennessy Street"/>
  </way>
  <way id="10629925" version="5" timestamp="2012-01-15T10:00:58Z" uid="147510" user="woodpeck_fixbot" changeset="10395278">
    <nd ref="93337946"/>
    <nd ref="824409524"/>
    <nd ref="824409627"/>
    <nd ref="93337955"/>
    <tag k="highway" v="residential"/>
    <tag k="name" v="Hennessy Street"/>
  </way>
  <way id="10629927" version="3" timestamp="2010-07-09T02:58:29Z" uid="74617" user="JohnSmith" changeset="5170739">
    <nd ref="93337959"/>
    <nd ref="93337963"/>
    <tag k="highway" v="residential"/>
    <tag k="maxspeed" v="50"/>
    <tag k="maxspeed:source" v="default residential speed limit in Australia"/>
    <tag k="name" v="O&apos;Grady Street"/>
  </way>
  <way id="10629927" version="4" timestamp="2010-07-19T12:25:07Z" uid="84937" user="Neil Penman" changeset="5260610">
    <nd ref="93337959"/>
    <nd ref="824409612"/>
    <nd ref="93337963"/>
    <tag k="highway" v="residential"/>
    <tag k="maxspeed" v="50"/>
    <tag k="maxspeed:source" v="default residential speed limit in Australia"/>
    <tag k="name" v="O&apos;Grady Street"/>
  </way>
  <way id="10629927" version="5" timestamp="2012-01-15T10:00:59Z" uid="147510" user="woodpeck_fixbot" changeset="10395278">
    <nd ref="93337959"/>
    <nd ref="824409612"/>
    <nd ref="93337963"/>
    <tag k="highway" v="residential"/>
    <tag k="name" v="O&apos;Grady Street"/>
  </way>
</osm>
