<?xml version='1.0' encoding='UTF-8'?>
<osm version="0.6" generator="libosmium/2.20.0">
  <way id="106412004" version="2" timestamp="2011-04-20T18:32:00Z" uid="88880" user="firsttimelinux" changeset="7918810">
    <nd ref="380356317"/>
    <nd ref="1224418753"/>
    <nd ref="1224418752"/>
    <nd ref="1224418745"/>
    <tag k="highway" v="path"/>
  </way>
  <way id="106412004" version="3" timestamp="2012-03-21T00:45:39Z" uid="178186" user="mdk" changeset="11047439"/>
  <way id="106412802" version="1" timestamp="2011-03-29T16:58:42Z" uid="115477" user="wowik" changeset="7708495">
    <nd ref="1224426495"/>
    <nd ref="1224426503"/>
    <nd ref="1224426512"/>
    <nd ref="1224426497"/>
    <nd ref="1224426499"/>
    <nd ref="1224426487"/>
    <nd ref="1224426491"/>
    <nd ref="1224426483"/>
    <nd ref="1224426485"/>
    <nd ref="1224426501"/>
    <nd ref="1224426506"/>
    <nd ref="1224426493"/>
    <nd ref="1224426495"/>
    <tag k="addr:housenumber" v="2"/>
    <tag k="addr:street" v="4-я улица Новосёлки"/>
    <tag k="amenity" v="townhall"/>
    <tag k="building" v="yes"/>
    <tag k="cladr:code" v="77000000000206300"/>
    <tag k="name" v="Управа района Молжаниновский"/>
  </way>
  <way id="106412802" version="2" timestamp="2011-05-20T15:56:02Z" uid="115477" user="wowik" changeset="8198206">
    <nd ref="1224426495"/>
    <nd ref="1224426503"/>
    <nd ref="1224426512"/>
    <nd ref="1224426497"/>
    <nd ref="1224426499"/>
    <nd ref="1224426487"/>
    <nd ref="1224426491"/>
    <nd ref="1224426483"/>
    <nd ref="1224426485"/>
    <nd ref="1224426501"/>
    <nd ref="1224426506"/>
    <nd ref="1224426493"/>
    <nd ref="1224426495"/>
    <tag k="addr:housenumber" v="8"/>
    <tag k="addr:street" v="Охтинский проезд"/>
    <tag k="amenity" v="townhall"/>
    <tag k="building" v="yes"/>
    <tag k="cladr:code" v="77000000000206300"/>
    <tag k="name" v="Управа района Молжаниновский"/>
  </way>
  <way id="106412802" version="3" timestamp="2011-09-20T14:30:54Z" uid="500680" user="Noooor" changeset="9351924">
    <nd ref="1224426495"/>
    <nd ref="1224426503"/>
    <nd ref="1224426512"/>
    <nd ref="1224426497"/>
    <nd ref="1224426499"/>
    <nd ref="1224426487"/>
    <nd ref="1224426491"/>
    <nd ref="1224426483"/>
    <nd ref="1224426485"/>
    <nd ref="1224426501"/>
    <nd ref="1224426506"/>
    <nd ref="1224426493"/>
    <nd ref="1224426495"/>
    <tag k="addr:housenumber" v="2"/>
    <tag k="addr:street" v="4-я улица Новосёлки"/>
    <tag k="amenity" v="townhall"/>
    <tag k="building" v="yes"/>
    <tag k="cladr:code" v="77000000000206300"/>
    <tag k="name" v="Управа района Молжаниновский"/>
  </way>
  <way id="106412802" version="4" timestamp="2011-12-09T09:24:09Z" uid="481934" user="iWowik" changeset="10071522">
    <nd ref="1224426495"/>
    <nd ref="1224426503"/>
    <nd ref="1224426512"/>
    <nd ref="1224426497"/>
    <nd ref="1224426499"/>
    <nd ref="1224426487"/>
    <nd ref="1224426491"/>
    <nd ref="1224426483"/>
    <nd ref="1224426485"/>
    <nd ref="1224426501"/>
    <nd ref="1224426506"/>
    <nd ref="1224426493"/>
    <nd ref="1224426495"/>
    <tag k="addr:housenumber" v="2"/>
    <tag k="addr:street" v="4-я улица Новосёлки"/>
    <tag k="amenity" v="townhall"/>
    <tag k="building" v="yes"/>
    <tag k="cladr:code" v="77000000000206300"/>
    <tag k="name" v="Управа района Молжаниновский"/>
    <tag k="name:be" v="Ўправа раёна Малжанiноўскi"/>
  </way>
</osm>
