<?xml version='1.0' encoding='UTF-8'?>
<osm version="0.6" generator="libosmium/2.20.0">
  <way id="10640012" version="24" timestamp="2009-02-11T00:57:52Z" uid="20587" user="balrog-kun" changeset="349418">
    <nd ref="344365985"/>
    <nd ref="301838371"/>
    <nd ref="93810979"/>
    <nd ref="301838288"/>
    <nd ref="93810980"/>
    <nd ref="301838372"/>
    <nd ref="93810981"/>
    <nd ref="301838471"/>
    <nd ref="301838111"/>
    <nd ref="93810982"/>
    <nd ref="93810983"/>
    <nd ref="93813677"/>
    <nd ref="93813678"/>
    <nd ref="286417202"/>
    <tag k="created_by" v="Potlatch 0.10c"/>
    <tag k="highway" v="trunk"/>
    <tag k="ref" v="A71"/>
  </way>
  <way id="10640012" version="25" timestamp="2009-06-28T22:33:40Z" uid="17857" user="marscot" changeset="1669837">
    <nd ref="344365985"/>
    <nd ref="301838371"/>
    <nd ref="93810979"/>
    <nd ref="301838288"/>
    <nd ref="93810980"/>
    <nd ref="301838372"/>
    <nd ref="93810981"/>
    <nd ref="301838471"/>
    <nd ref="301838111"/>
    <nd ref="93810982"/>
    <nd ref="93810983"/>
    <nd ref="93813677"/>
    <nd ref="93813678"/>
    <nd ref="430536536"/>
    <tag k="created_by" v="Potlatch 0.10c"/>
    <tag k="highway" v="trunk"/>
    <tag k="ref" v="A71"/>
  </way>
  <way id="10640012" version="26" timestamp="2009-07-24T14:30:35Z" uid="17857" user="marscot" changeset="1925927">
    <nd ref="344365985"/>
    <nd ref="301838371"/>
    <nd ref="93810979"/>
    <nd ref="301838288"/>
    <nd ref="93810980"/>
    <nd ref="301838372"/>
    <nd ref="93810981"/>
    <nd ref="301838471"/>
    <nd ref="301838111"/>
    <nd ref="93810982"/>
    <nd ref="93810983"/>
    <nd ref="93813677"/>
    <nd ref="93813678"/>
    <nd ref="430536536"/>
    <tag k="created_by" v="Potlatch 0.10c"/>
    <tag k="highway" v="trunk"/>
    <tag k="ref" v="A71"/>
    <tag k="source" v="survey"/>
  </way>
  <way id="10640012" version="27" timestamp="2010-05-21T13:28:05Z" uid="17857" user="marscot" changeset="4765763">
    <nd ref="344365985"/>
    <nd ref="301838371"/>
    <nd ref="93810979"/>
    <nd ref="301838288"/>
    <nd ref="93810980"/>
    <nd ref="301838372"/>
    <nd ref="93810981"/>
    <nd ref="301838471"/>
    <nd ref="301838111"/>
    <nd ref="93810982"/>
    <nd ref="93810983"/>
    <nd ref="93813677"/>
    <nd ref="742536519"/>
    <nd ref="93813678"/>
    <nd ref="430536536"/>
    <tag k="highway" v="trunk"/>
    <tag k="ref" v="A71"/>
    <tag k="source" v="survey"/>
  </way>
  <way id="10640012" version="28" timestamp="2010-05-24T16:02:13Z" uid="17857" user="marscot" changeset="4794611">
    <nd ref="344365985"/>
    <nd ref="301838371"/>
    <nd ref="93810979"/>
    <nd ref="747164121"/>
    <nd ref="301838288"/>
    <nd ref="93810980"/>
    <nd ref="301838372"/>
    <nd ref="93810981"/>
    <nd ref="301838471"/>
    <nd ref="301838111"/>
    <nd ref="93810982"/>
    <nd ref="93810983"/>
    <nd ref="93813677"/>
    <nd ref="742536519"/>
    <nd ref="93813678"/>
    <nd ref="430536536"/>
    <tag k="highway" v="trunk"/>
    <tag k="ref" v="A71"/>
    <tag k="source" v="survey"/>
  </way>
  <way id="10640012" version="29" timestamp="2011-01-30T20:40:38Z" uid="17857" user="marscot" changeset="7139260">
    <nd ref="344365985"/>
    <nd ref="301838371"/>
    <nd ref="93810979"/>
    <nd ref="747164121"/>
    <nd ref="301838288"/>
    <nd ref="93810980"/>
    <nd ref="301838372"/>
    <nd ref="93810981"/>
    <nd ref="301838471"/>
    <nd ref="301838111"/>
    <nd ref="93810982"/>
    <nd ref="93810983"/>
    <nd ref="93813677"/>
    <nd ref="742536519"/>
    <nd ref="93813678"/>
    <nd ref="430536536"/>
    <tag k="highway" v="trunk"/>
    <tag k="name" v="Overtown Road"/>
    <tag k="ref" v="A71"/>
    <tag k="source" v="survey"/>
  </way>
  <way id="10640234" version="22" timestamp="2010-07-12T03:00:04Z" uid="4467" user="Rosscoe" changeset="5195509">
    <nd ref="93814829"/>
    <nd ref="178431880"/>
    <nd ref="148151714"/>
    <nd ref="181317055"/>
    <nd ref="87176647"/>
    <nd ref="109683852"/>
    <nd ref="109683846"/>
    <nd ref="812666971"/>
    <tag k="highway" v="trunk"/>
    <tag k="is_in" v="Mile End South,South Austraila,Australia"/>
    <tag k="lanes" v="2"/>
    <tag k="maxspeed" v="60"/>
    <tag k="name" v="South Road"/>
    <tag k="oneway" v="yes"/>
    <tag k="postal_code" v="5031"/>
    <tag k="ref" v="A13"/>
    <tag k="source" v="survey"/>
  </way>
  <way id="10640234" version="23" timestamp="2010-09-04T08:41:00Z" uid="21143" user="hryciuk" changeset="5676458">
    <nd ref="93814829"/>
    <nd ref="895345835"/>
    <nd ref="178431880"/>
    <nd ref="148151714"/>
    <nd ref="181317055"/>
    <nd ref="87176647"/>
    <nd ref="109683852"/>
    <nd ref="109683846"/>
    <nd ref="812666971"/>
    <tag k="highway" v="trunk"/>
    <tag k="is_in" v="Mile End South,South Austraila,Australia"/>
    <tag k="lanes" v="2"/>
    <tag k="maxspeed" v="60"/>
    <tag k="name" v="South Road"/>
    <tag k="oneway" v="yes"/>
    <tag k="postal_code" v="5031"/>
    <tag k="ref" v="A13"/>
    <tag k="source" v="survey"/>
  </way>
  <way id="10640235" version="7" timestamp="2011-03-18T15:41:42Z" uid="4467" user="Rosscoe" changeset="7596453">
    <nd ref="93814829"/>
    <nd ref="93514744"/>
    <tag k="highway" v="trunk"/>
    <tag k="is_in" v="Mile End,South Australia,Australia"/>
    <tag k="maxspeed" v="60"/>
    <tag k="name" v="Sir Donald Bradman Drive"/>
    <tag k="old_name" v="Burbridge Road"/>
    <tag k="oneway" v="yes"/>
    <tag k="postal_code" v="5031"/>
    <tag k="ref" v="A6"/>
  </way>
  <way id="10640235" version="8" timestamp="2011-07-30T22:08:22Z" uid="428465" user="markinspace" changeset="8876256">
    <nd ref="93814829"/>
    <nd ref="93514744"/>
    <tag k="highway" v="trunk"/>
    <tag k="is_in" v="Mile End,South Australia,Australia"/>
    <tag k="lanes" v="2"/>
    <tag k="maxspeed" v="60"/>
    <tag k="name" v="Sir Donald Bradman Drive"/>
    <tag k="old_name" v="Burbridge Road"/>
    <tag k="oneway" v="yes"/>
    <tag k="postal_code" v="5031"/>
    <tag k="ref" v="A6"/>
  </way>
  <way id="10640236" version="18" timestamp="2010-07-12T02:59:01Z" uid="4467" user="Rosscoe" changeset="5195509">
    <nd ref="93514744"/>
    <nd ref="93814889"/>
    <nd ref="109692260"/>
    <nd ref="93814940"/>
    <nd ref="93815046"/>
    <nd ref="93815083"/>
    <nd ref="93815222"/>
    <nd ref="339085986"/>
    <nd ref="93815288"/>
    <nd ref="812666964"/>
    <nd ref="93815349"/>
    <nd ref="93815423"/>
    <nd ref="93815440"/>
    <nd ref="93815508"/>
    <nd ref="29749866"/>
    <tag k="highway" v="trunk"/>
    <tag k="is_in" v="Hilton,South Australia,Australia"/>
    <tag k="lanes" v="2"/>
    <tag k="maxspeed" v="60"/>
    <tag k="name" v="Sir Donald Bradman Drive"/>
    <tag k="old_name" v="Burbridge Road"/>
    <tag k="oneway" v="yes"/>
    <tag k="postal_code" v="5033"/>
    <tag k="ref" v="A6"/>
    <tag k="source" v="knowledge;survey"/>
    <tag k="source_ref:name" v="http://osm.beldin.org/2009/03/dscf8286.jpg"/>
  </way>
  <way id="10640236" version="19" timestamp="2010-07-22T05:36:51Z" uid="225080" user="ctreb" changeset="5284157">
    <nd ref="93514744"/>
    <nd ref="93814889"/>
    <nd ref="109692260"/>
    <nd ref="93814940"/>
    <nd ref="93815046"/>
    <nd ref="93815083"/>
    <nd ref="93815222"/>
    <nd ref="93815288"/>
    <nd ref="812666964"/>
    <nd ref="93815349"/>
    <nd ref="93815423"/>
    <nd ref="93815440"/>
    <nd ref="93815508"/>
    <nd ref="29749866"/>
    <tag k="highway" v="trunk"/>
    <tag k="is_in" v="Hilton,South Australia,Australia"/>
    <tag k="lanes" v="2"/>
    <tag k="maxspeed" v="60"/>
    <tag k="name" v="Sir Donald Bradman Drive"/>
    <tag k="old_name" v="Burbridge Road"/>
    <tag k="oneway" v="yes"/>
    <tag k="postal_code" v="5033"/>
    <tag k="ref" v="A6"/>
    <tag k="source" v="knowledge;survey"/>
    <tag k="source_ref:name" v="http://osm.beldin.org/2009/03/dscf8286.jpg"/>
  </way>
  <way id="10640236" version="20" timestamp="2011-04-24T11:07:23Z" uid="21143" user="hryciuk" changeset="7951646">
    <nd ref="93514744"/>
    <nd ref="93814889"/>
    <nd ref="109692260"/>
    <nd ref="93814940"/>
    <nd ref="93815046"/>
    <nd ref="93815083"/>
    <nd ref="93815222"/>
    <nd ref="93815288"/>
    <nd ref="812666964"/>
    <nd ref="93815349"/>
    <nd ref="93815423"/>
    <nd ref="93815440"/>
    <nd ref="93815508"/>
    <nd ref="29749866"/>
    <tag k="cycleway" v="lane"/>
    <tag k="highway" v="trunk"/>
    <tag k="is_in" v="Hilton,South Australia,Australia"/>
    <tag k="lanes" v="2"/>
    <tag k="maxspeed" v="60"/>
    <tag k="name" v="Sir Donald Bradman Drive"/>
    <tag k="old_name" v="Burbridge Road"/>
    <tag k="oneway" v="yes"/>
    <tag k="postal_code" v="5033"/>
    <tag k="ref" v="A6"/>
    <tag k="source" v="knowledge;survey"/>
    <tag k="source_ref:name" v="http://osm.beldin.org/2009/03/dscf8286.jpg"/>
  </way>
  <way id="10640238" version="5" timestamp="2011-03-18T15:43:51Z" uid="4467" user="Rosscoe" changeset="7596453">
    <nd ref="93814873"/>
    <nd ref="93814856"/>
    <tag k="highway" v="trunk"/>
    <tag k="maxspeed" v="60"/>
    <tag k="name" v="Sir Donald Bradman Drive"/>
    <tag k="oneway" v="yes"/>
    <tag k="ref" v="A6"/>
  </way>
  <way id="10640238" version="6" timestamp="2011-07-30T22:08:23Z" uid="428465" user="markinspace" changeset="8876256">
    <nd ref="93814873"/>
    <nd ref="93814856"/>
    <tag k="highway" v="trunk"/>
    <tag k="lanes" v="2"/>
    <tag k="maxspeed" v="60"/>
    <tag k="name" v="Sir Donald Bradman Drive"/>
    <tag k="oneway" v="yes"/>
    <tag k="ref" v="A6"/>
  </way>
  <way id="10640240" version="5" timestamp="2010-07-12T03:01:09Z" uid="4467" user="Rosscoe" changeset="5195509"/>
  <way id="10640241" version="6" timestamp="2010-07-12T03:00:33Z" uid="4467" user="Rosscoe" changeset="5195509">
    <nd ref="93637234"/>
    <nd ref="93638443"/>
    <nd ref="93817007"/>
    <nd ref="93815046"/>
    <tag k="highway" v="residential"/>
    <tag k="is_in" v="Hilton,South Australia,Australia"/>
    <tag k="maxspeed" v="50"/>
    <tag k="name" v="Pearson Street"/>
    <tag k="postal_code" v="5033"/>
  </way>
  <way id="10640242" version="5" timestamp="2010-07-12T03:00:59Z" uid="4467" user="Rosscoe" changeset="5195509"/>
  <way id="10640243" version="8" timestamp="2010-07-12T03:01:05Z" uid="4467" user="Rosscoe" changeset="5195509"/>
  <way id="10640244" version="6" timestamp="2010-07-12T03:01:10Z" uid="4467" user="Rosscoe" changeset="5195509"/>
  <way id="10640245" version="5" timestamp="2010-07-12T03:00:43Z" uid="4467" user="Rosscoe" changeset="5195509">
    <nd ref="93640706"/>
    <nd ref="93838391"/>
    <nd ref="93838378"/>
    <nd ref="93838364"/>
    <nd ref="93838349"/>
    <nd ref="93838331"/>
    <nd ref="93838323"/>
    <nd ref="93816745"/>
    <nd ref="812666964"/>
    <tag k="highway" v="residential"/>
    <tag k="is_in" v="Hilton,South Australia,Australia"/>
    <tag k="maxspeed" v="50"/>
    <tag k="name" v="Clarence Street"/>
    <tag k="postal_code" v="5033"/>
  </way>
  <way id="10640245" version="6" timestamp="2010-07-22T05:36:47Z" uid="225080" user="ctreb" changeset="5284157">
    <nd ref="93640706"/>
    <nd ref="93838349"/>
    <nd ref="93838331"/>
    <nd ref="93838323"/>
    <nd ref="93816745"/>
    <nd ref="812666964"/>
    <tag k="highway" v="residential"/>
    <tag k="is_in" v="Hilton,South Australia,Australia"/>
    <tag k="maxspeed" v="50"/>
    <tag k="name" v="Clarence Street"/>
    <tag k="postal_code" v="5033"/>
  </way>
  <way id="10640246" version="6" timestamp="2010-07-12T03:01:03Z" uid="4467" user="Rosscoe" changeset="5195509"/>
  <way id="10640247" version="4" timestamp="2010-07-12T02:59:14Z" uid="4467" user="Rosscoe" changeset="5195509">
    <nd ref="93815508"/>
    <nd ref="93817266"/>
    <nd ref="93817294"/>
    <tag k="highway" v="trunk_link"/>
    <tag k="maxspeed" v="50"/>
    <tag k="oneway" v="yes"/>
  </way>
  <way id="10640248" version="6" timestamp="2010-07-12T03:00:27Z" uid="4467" user="Rosscoe" changeset="5195509">
    <nd ref="93816519"/>
    <nd ref="93817359"/>
    <nd ref="93817375"/>
    <tag k="highway" v="trunk_link"/>
    <tag k="maxspeed" v="50"/>
    <tag k="oneway" v="yes"/>
  </way>
  <way id="10640249" version="6" timestamp="2010-07-12T03:01:18Z" uid="4467" user="Rosscoe" changeset="5195509"/>
  <way id="10640250" version="5" timestamp="2010-07-12T02:58:55Z" uid="4467" user="Rosscoe" changeset="5195509">
    <nd ref="148963863"/>
    <nd ref="148965642"/>
    <nd ref="93815665"/>
    <nd ref="93816420"/>
    <tag k="highway" v="residential"/>
    <tag k="is_in" v="Cowandilla, South Australia,Australia"/>
    <tag k="maxspeed" v="50"/>
    <tag k="name" v="Winifred Street"/>
    <tag k="postal_code" v="5033"/>
  </way>
  <way id="10640251" version="6" timestamp="2010-07-12T02:59:36Z" uid="4467" user="Rosscoe" changeset="5195509">
    <nd ref="93783466"/>
    <nd ref="93816335"/>
    <nd ref="93815748"/>
    <tag k="highway" v="residential"/>
    <tag k="is_in" v="Cowandilla,South Australia,Australia"/>
    <tag k="maxspeed" v="50"/>
    <tag k="name" v="Blackburn Avenue"/>
    <tag k="postal_code" v="5033"/>
  </way>
  <way id="10640252" version="5" timestamp="2010-07-11T07:56:02Z" uid="4467" user="Rosscoe" changeset="5187590">
    <nd ref="148963890"/>
    <nd ref="148965599"/>
    <nd ref="93815766"/>
    <nd ref="93816328"/>
    <tag k="highway" v="residential"/>
    <tag k="is_in" v="Cowandilla, South Australia,Australia"/>
    <tag k="maxspeed" v="50"/>
    <tag k="name" v="Augusta Street"/>
    <tag k="postal_code" v="5033"/>
  </way>
  <way id="10640253" version="7" timestamp="2010-07-11T07:56:33Z" uid="4467" user="Rosscoe" changeset="5187590"/>
  <way id="10640254" version="7" timestamp="2010-07-11T07:55:51Z" uid="4467" user="Rosscoe" changeset="5187590">
    <nd ref="93815924"/>
    <nd ref="93816217"/>
    <nd ref="93783438"/>
    <tag k="highway" v="residential"/>
    <tag k="is_in" v="Cowandilla,South Australia,Australia"/>
    <tag k="maxspeed" v="50"/>
    <tag k="name" v="Turner Street"/>
    <tag k="postal_code" v="5033"/>
  </way>
  <way id="10640255" version="6" timestamp="2010-07-11T07:56:30Z" uid="4467" user="Rosscoe" changeset="5187590"/>
  <way id="10640542" version="5" timestamp="2010-07-12T02:59:39Z" uid="4467" user="Rosscoe" changeset="5195509">
    <nd ref="93637217"/>
    <nd ref="102579336"/>
    <nd ref="93817100"/>
    <nd ref="93814940"/>
    <tag k="highway" v="residential"/>
    <tag k="is_in" v="Hilton,South Australia,Australia"/>
    <tag k="maxspeed" v="50"/>
    <tag k="name" v="Mallen Street"/>
    <tag k="postal_code" v="5033"/>
  </way>
  <way id="10640542" version="6" timestamp="2010-09-04T08:42:54Z" uid="21143" user="hryciuk" changeset="5676458">
    <nd ref="93637217"/>
    <nd ref="895346016"/>
    <nd ref="102579336"/>
    <nd ref="93817100"/>
    <nd ref="93814940"/>
    <tag k="highway" v="residential"/>
    <tag k="is_in" v="Hilton,South Australia,Australia"/>
    <tag k="maxspeed" v="50"/>
    <tag k="name" v="Mallen Street"/>
    <tag k="postal_code" v="5033"/>
  </way>
  <way id="10640648" version="4" timestamp="2010-07-12T03:01:11Z" uid="4467" user="Rosscoe" changeset="5195509"/>
  <way id="10640739" version="68" timestamp="2010-09-14T21:03:23Z" uid="16922" user="amai" changeset="5782331">
    <nd ref="292845498"/>
    <nd ref="494329239"/>
    <nd ref="282617352"/>
    <nd ref="93831522"/>
    <nd ref="471988130"/>
    <nd ref="282249392"/>
    <nd ref="282249227"/>
    <nd ref="93831520"/>
    <nd ref="280964185"/>
    <nd ref="282249869"/>
    <nd ref="93831519"/>
    <nd ref="280963628"/>
    <nd ref="280963624"/>
    <nd ref="282256668"/>
    <nd ref="282391742"/>
    <nd ref="280963533"/>
    <nd ref="93831518"/>
    <nd ref="282619744"/>
    <nd ref="280963536"/>
    <nd ref="100246442"/>
    <nd ref="93831517"/>
    <nd ref="281500022"/>
    <nd ref="471988126"/>
    <nd ref="93831516"/>
    <nd ref="93831515"/>
    <nd ref="93831513"/>
    <nd ref="281278422"/>
    <nd ref="614140692"/>
    <nd ref="93831512"/>
    <nd ref="282620220"/>
    <nd ref="282620275"/>
    <nd ref="280975513"/>
    <nd ref="280975541"/>
    <nd ref="93831511"/>
    <nd ref="280855120"/>
    <nd ref="280855387"/>
    <nd ref="280855112"/>
    <nd ref="282626410"/>
    <nd ref="93831510"/>
    <nd ref="280855030"/>
    <nd ref="280855029"/>
    <nd ref="100245356"/>
    <nd ref="775452487"/>
    <nd ref="100245355"/>
    <nd ref="591955293"/>
    <nd ref="100245353"/>
    <nd ref="280856234"/>
    <nd ref="281498950"/>
    <nd ref="100245352"/>
    <nd ref="281498649"/>
    <nd ref="281498952"/>
    <nd ref="281498204"/>
    <nd ref="100245351"/>
    <nd ref="281498894"/>
    <nd ref="280973177"/>
    <nd ref="280971641"/>
    <nd ref="281497917"/>
    <nd ref="281497948"/>
    <nd ref="282256663"/>
    <nd ref="281497733"/>
    <nd ref="100245350"/>
    <nd ref="281497721"/>
    <nd ref="100245349"/>
    <nd ref="281497951"/>
    <nd ref="100245348"/>
    <nd ref="281497561"/>
    <nd ref="100245347"/>
    <nd ref="281497722"/>
    <nd ref="100245346"/>
    <nd ref="100245345"/>
    <nd ref="100245344"/>
    <nd ref="100245343"/>
    <nd ref="280972568"/>
    <nd ref="281496001"/>
    <nd ref="281495999"/>
    <nd ref="100245342"/>
    <nd ref="650513211"/>
    <nd ref="100245341"/>
    <nd ref="100245340"/>
    <nd ref="590057061"/>
    <nd ref="100245339"/>
    <nd ref="100245338"/>
    <nd ref="100245336"/>
    <nd ref="590057064"/>
    <nd ref="100245335"/>
    <nd ref="100245334"/>
    <nd ref="712187056"/>
    <nd ref="100245333"/>
    <nd ref="100245332"/>
    <nd ref="590057082"/>
    <nd ref="100245331"/>
    <nd ref="590057083"/>
    <nd ref="912536062"/>
    <nd ref="100245330"/>
    <nd ref="590057084"/>
    <nd ref="912536047"/>
    <nd ref="590057085"/>
    <nd ref="282190600"/>
    <tag k="highway" v="primary"/>
    <tag k="name" v="Avenue Kaysone Phomvihane"/>
    <tag k="name:fr" v="Avenue Kaysone Phomvihane"/>
    <tag k="ref" v="13S"/>
  </way>
  <way id="10640739" version="69" timestamp="2011-02-10T15:39:13Z" uid="33155" user="webrian" changeset="7246412">
    <nd ref="292845498"/>
    <nd ref="494329239"/>
    <nd ref="282617352"/>
    <nd ref="93831522"/>
    <nd ref="471988130"/>
    <nd ref="282249392"/>
    <nd ref="282249227"/>
    <nd ref="93831520"/>
    <nd ref="280964185"/>
    <nd ref="282249869"/>
    <nd ref="93831519"/>
    <nd ref="280963628"/>
    <nd ref="280963624"/>
    <nd ref="282256668"/>
    <nd ref="282391742"/>
    <nd ref="280963533"/>
    <nd ref="93831518"/>
    <nd ref="282619744"/>
    <nd ref="280963536"/>
    <nd ref="100246442"/>
    <nd ref="1145508716"/>
    <tag k="highway" v="primary"/>
    <tag k="name" v="Avenue Kaysone Phomvihane"/>
    <tag k="name:fr" v="Avenue Kaysone Phomvihane"/>
    <tag k="ref" v="13S"/>
  </way>
  <way id="10640739" version="70" timestamp="2011-02-21T02:51:43Z" uid="140550" user="Beddhist" changeset="7349952">
    <nd ref="471975075"/>
    <nd ref="1164594497"/>
    <nd ref="1164594567"/>
    <nd ref="494329239"/>
    <tag k="highway" v="primary"/>
    <tag k="name" v="Avenue Kaysone Phomvihane"/>
    <tag k="name:fr" v="Avenue Kaysone Phomvihane"/>
    <tag k="oneway" v="yes"/>
    <tag k="ref" v="13S"/>
  </way>
  <way id="10640739" version="71" timestamp="2012-03-19T20:22:12Z" uid="61891" user="stephankn" changeset="11034378"/>
  <way id="10640985" version="6" timestamp="2010-07-12T02:59:09Z" uid="4467" user="Rosscoe" changeset="5195509">
    <nd ref="93838248"/>
    <nd ref="93838237"/>
    <nd ref="93815222"/>
    <nd ref="93816896"/>
    <tag k="highway" v="residential"/>
    <tag k="is_in" v="Hilton,South Australia,Australia"/>
    <tag k="maxspeed" v="50"/>
    <tag k="name" v="Milner Road"/>
    <tag k="postal_code" v="5033"/>
    <tag k="source" v="survey"/>
  </way>
  <way id="10640986" version="5" timestamp="2010-07-12T02:59:44Z" uid="4467" user="Rosscoe" changeset="5195509">
    <nd ref="87171735"/>
    <nd ref="93838293"/>
    <nd ref="93838282"/>
    <nd ref="93838278"/>
    <nd ref="93838276"/>
    <nd ref="93838273"/>
    <nd ref="93640694"/>
    <nd ref="93838260"/>
    <nd ref="93816814"/>
    <nd ref="93815288"/>
    <tag k="highway" v="residential"/>
    <tag k="is_in" v="Hilton,South Australia,Australia"/>
    <tag k="maxspeed" v="50"/>
    <tag k="name" v="Halifax Street"/>
    <tag k="postal_code" v="5033"/>
    <tag k="source" v="survey"/>
  </way>
  <way id="10640986" version="6" timestamp="2010-07-22T05:36:52Z" uid="225080" user="ctreb" changeset="5284157">
    <nd ref="87171735"/>
    <nd ref="93838282"/>
    <nd ref="93838276"/>
    <nd ref="93640694"/>
    <nd ref="93838260"/>
    <nd ref="93816814"/>
    <nd ref="93815288"/>
    <tag k="highway" v="residential"/>
    <tag k="is_in" v="Hilton,South Australia,Australia"/>
    <tag k="maxspeed" v="50"/>
    <tag k="name" v="Halifax Street"/>
    <tag k="postal_code" v="5033"/>
    <tag k="source" v="survey"/>
  </way>
  <way id="10640987" version="5" timestamp="2010-07-12T03:01:12Z" uid="4467" user="Rosscoe" changeset="5195509"/>
  <way id="10640988" version="3" timestamp="2010-07-12T02:58:49Z" uid="4467" user="Rosscoe" changeset="5195509">
    <nd ref="93815440"/>
    <nd ref="93816672"/>
    <nd ref="87171737"/>
    <tag k="highway" v="residential"/>
    <tag k="maxspeed" v="50"/>
    <tag k="name" v="Attrill Avenue"/>
  </way>
</osm>
