<?xml version='1.0' encoding='UTF-8'?>
<osm version="0.6" generator="libosmium/2.20.0">
  <way id="10795111" version="2" timestamp="2009-12-26T21:13:28Z" uid="27600" user="Islanit" changeset="3458323">
    <nd ref="96005675"/>
    <nd ref="96014292"/>
    <nd ref="95978719"/>
    <nd ref="599753469"/>
    <nd ref="96029230"/>
    <tag k="highway" v="residential"/>
    <tag k="name" v="NW 2nd St"/>
    <tag k="tiger:cfcc" v="A41"/>
    <tag k="tiger:county" v="Broward, FL"/>
    <tag k="tiger:name_base" v="2nd"/>
    <tag k="tiger:name_direction_prefix" v="NW"/>
    <tag k="tiger:name_type" v="St"/>
    <tag k="tiger:reviewed" v="no"/>
    <tag k="tiger:separated" v="no"/>
    <tag k="tiger:source" v="tiger_import_dch_v0.6_20070809"/>
    <tag k="tiger:tlid" v="114722776:114722778"/>
    <tag k="tiger:upload_uuid" v="bulk_upload.pl-71b7cb5d-f9c7-4ae7-9ccd-753918384a1d"/>
    <tag k="tiger:zip_left" v="33301"/>
    <tag k="tiger:zip_right" v="33301"/>
  </way>
  <way id="10795111" version="3" timestamp="2010-10-25T04:24:22Z" uid="207745" user="NE2" changeset="6167953"/>
  <way id="10795786" version="2" timestamp="2009-12-28T08:59:03Z" uid="27600" user="Islanit" changeset="3469514">
    <nd ref="95989197"/>
    <nd ref="95976797"/>
    <nd ref="96031900"/>
    <nd ref="600301610"/>
    <nd ref="96027407"/>
    <nd ref="96031901"/>
    <nd ref="96031909"/>
    <nd ref="96031910"/>
    <tag k="highway" v="residential"/>
    <tag k="name" v="NW 72nd Ave"/>
    <tag k="tiger:cfcc" v="A41"/>
    <tag k="tiger:county" v="Broward, FL"/>
    <tag k="tiger:name_base" v="72nd"/>
    <tag k="tiger:name_direction_prefix" v="NW"/>
    <tag k="tiger:name_type" v="Ave"/>
    <tag k="tiger:reviewed" v="no"/>
    <tag k="tiger:separated" v="no"/>
    <tag k="tiger:source" v="tiger_import_dch_v0.6_20070809"/>
    <tag k="tiger:tlid" v="114704385:114704426:114704428:114704389:114704431:114704390"/>
    <tag k="tiger:upload_uuid" v="bulk_upload.pl-71b7cb5d-f9c7-4ae7-9ccd-753918384a1d"/>
    <tag k="tiger:zip_left" v="33313"/>
    <tag k="tiger:zip_right" v="33313"/>
  </way>
  <way id="10795786" version="3" timestamp="2011-01-29T05:48:58Z" uid="369983" user="grouper" changeset="7119060">
    <nd ref="95989197"/>
    <nd ref="1125901705"/>
    <nd ref="95976797"/>
    <nd ref="1125901707"/>
    <nd ref="1125901708"/>
    <nd ref="96031900"/>
    <nd ref="600301610"/>
    <nd ref="96027407"/>
    <nd ref="96031901"/>
    <nd ref="96031909"/>
    <nd ref="96031910"/>
    <tag k="highway" v="residential"/>
    <tag k="name" v="NW 72nd Ave"/>
    <tag k="tiger:cfcc" v="A41"/>
    <tag k="tiger:county" v="Broward, FL"/>
    <tag k="tiger:name_base" v="72nd"/>
    <tag k="tiger:name_direction_prefix" v="NW"/>
    <tag k="tiger:name_type" v="Ave"/>
    <tag k="tiger:reviewed" v="no"/>
    <tag k="tiger:separated" v="no"/>
    <tag k="tiger:source" v="tiger_import_dch_v0.6_20070809"/>
    <tag k="tiger:tlid" v="114704385:114704426:114704428:114704389:114704431:114704390"/>
    <tag k="tiger:upload_uuid" v="bulk_upload.pl-71b7cb5d-f9c7-4ae7-9ccd-753918384a1d"/>
    <tag k="tiger:zip_left" v="33313"/>
    <tag k="tiger:zip_right" v="33313"/>
  </way>
  <way id="10795786" version="4" timestamp="2011-01-29T06:12:10Z" uid="369983" user="grouper" changeset="7119060">
    <nd ref="95989197"/>
    <nd ref="1125901705"/>
    <nd ref="95976797"/>
    <nd ref="1125901707"/>
    <nd ref="1125901708"/>
    <nd ref="96031900"/>
    <nd ref="600301610"/>
    <nd ref="96027407"/>
    <nd ref="96031901"/>
    <nd ref="96031909"/>
    <nd ref="1125907921"/>
    <nd ref="96031910"/>
    <tag k="highway" v="residential"/>
    <tag k="name" v="NW 72nd Ave"/>
    <tag k="tiger:cfcc" v="A41"/>
    <tag k="tiger:county" v="Broward, FL"/>
    <tag k="tiger:name_base" v="72nd"/>
    <tag k="tiger:name_direction_prefix" v="NW"/>
    <tag k="tiger:name_type" v="Ave"/>
    <tag k="tiger:reviewed" v="no"/>
    <tag k="tiger:separated" v="no"/>
    <tag k="tiger:source" v="tiger_import_dch_v0.6_20070809"/>
    <tag k="tiger:tlid" v="114704385:114704426:114704428:114704389:114704431:114704390"/>
    <tag k="tiger:upload_uuid" v="bulk_upload.pl-71b7cb5d-f9c7-4ae7-9ccd-753918384a1d"/>
    <tag k="tiger:zip_left" v="33313"/>
    <tag k="tiger:zip_right" v="33313"/>
  </way>
  <way id="10795786" version="5" timestamp="2012-03-08T04:52:07Z" uid="369983" user="grouper" changeset="10906081">
    <nd ref="95989197"/>
    <nd ref="1125901705"/>
    <nd ref="95976797"/>
    <nd ref="1125901707"/>
    <nd ref="1125901708"/>
    <nd ref="96031900"/>
    <nd ref="1665464863"/>
    <nd ref="1665464866"/>
    <nd ref="96027407"/>
    <nd ref="96031901"/>
    <nd ref="96031909"/>
    <nd ref="1125907921"/>
    <nd ref="96031910"/>
    <tag k="highway" v="residential"/>
    <tag k="name" v="NW 72nd Ave"/>
    <tag k="tiger:cfcc" v="A41"/>
    <tag k="tiger:county" v="Broward, FL"/>
    <tag k="tiger:name_base" v="72nd"/>
    <tag k="tiger:name_direction_prefix" v="NW"/>
    <tag k="tiger:name_type" v="Ave"/>
    <tag k="tiger:reviewed" v="no"/>
    <tag k="tiger:separated" v="no"/>
    <tag k="tiger:source" v="tiger_import_dch_v0.6_20070809"/>
    <tag k="tiger:tlid" v="114704385:114704426:114704428:114704389:114704431:114704390"/>
    <tag k="tiger:upload_uuid" v="bulk_upload.pl-71b7cb5d-f9c7-4ae7-9ccd-753918384a1d"/>
    <tag k="tiger:zip_left" v="33313"/>
    <tag k="tiger:zip_right" v="33313"/>
  </way>
  <way id="10795955" version="8" timestamp="2008-06-23T15:07:47Z" uid="27600" user="Islanit" changeset="270634">
    <nd ref="96032448"/>
    <nd ref="96032566"/>
    <nd ref="96032567"/>
    <nd ref="96032696"/>
    <tag k="created_by" v="Potlatch 0.8b"/>
    <tag k="highway" v="secondary"/>
    <tag k="history" v="Retrieved from v6"/>
    <tag k="name" v="Tessiner Straße"/>
    <tag k="oneway" v="yes"/>
    <tag k="ref" v="L191"/>
  </way>
  <way id="10795955" version="9" timestamp="2008-07-04T20:23:34Z" uid="46882" user="SvenHRO" changeset="394201">
    <nd ref="96032448"/>
    <nd ref="96032566"/>
    <nd ref="276271805"/>
    <nd ref="96032567"/>
    <nd ref="96032696"/>
    <tag k="created_by" v="Potlatch 0.9c"/>
    <tag k="highway" v="secondary"/>
    <tag k="history" v="Retrieved from v6"/>
    <tag k="name" v="Tessiner Straße"/>
    <tag k="oneway" v="yes"/>
    <tag k="ref" v="L191"/>
  </way>
  <way id="10795955" version="10" timestamp="2008-08-03T11:28:41Z" uid="46882" user="SvenHRO" changeset="34651">
    <nd ref="96032448"/>
    <nd ref="96032566"/>
    <nd ref="276271805"/>
    <nd ref="96032567"/>
    <nd ref="96032696"/>
    <tag k="created_by" v="Potlatch 0.10b"/>
    <tag k="highway" v="secondary"/>
    <tag k="history" v="Retrieved from v6"/>
    <tag k="name" v="Tessiner Straße"/>
    <tag k="oneway" v="yes"/>
    <tag k="ref" v="L 191"/>
  </way>
  <way id="10795955" version="11" timestamp="2008-12-14T08:20:07Z" uid="52602" user="falcius" changeset="365318">
    <nd ref="96032448"/>
    <nd ref="96032566"/>
    <nd ref="276271805"/>
    <nd ref="96032567"/>
    <nd ref="96032696"/>
    <tag k="created_by" v="Potlatch 0.10b"/>
    <tag k="highway" v="secondary"/>
    <tag k="history" v="Retrieved from v6"/>
    <tag k="maxspeed" v="60"/>
    <tag k="name" v="Tessiner Straße"/>
    <tag k="oneway" v="yes"/>
    <tag k="ref" v="L 191"/>
  </way>
  <way id="10795955" version="12" timestamp="2009-09-05T20:22:59Z" uid="92408" user="kilt" changeset="2385042">
    <nd ref="96032448"/>
    <nd ref="96032566"/>
    <nd ref="276271805"/>
    <nd ref="96032567"/>
    <nd ref="96032696"/>
    <tag k="created_by" v="Potlatch 0.10b"/>
    <tag k="highway" v="secondary"/>
    <tag k="history" v="Retrieved from v6"/>
    <tag k="maxspeed" v="50"/>
    <tag k="name" v="Tessiner Straße"/>
    <tag k="oneway" v="yes"/>
    <tag k="ref" v="L 191"/>
  </way>
  <way id="10795955" version="13" timestamp="2010-03-18T19:43:53Z" uid="52602" user="falcius" changeset="4164379">
    <nd ref="96032448"/>
    <nd ref="96032566"/>
    <nd ref="276271805"/>
    <nd ref="96032567"/>
    <nd ref="96032696"/>
    <tag k="highway" v="secondary"/>
    <tag k="history" v="Retrieved from v6"/>
    <tag k="maxspeed" v="50"/>
    <tag k="name" v="Tessiner Straße"/>
    <tag k="oneway" v="yes"/>
    <tag k="ref" v="L 191"/>
  </way>
  <way id="10795955" version="14" timestamp="2010-06-05T21:36:49Z" uid="92408" user="kilt" changeset="4912788">
    <nd ref="96032448"/>
    <nd ref="96032566"/>
    <nd ref="276271805"/>
    <nd ref="96032567"/>
    <nd ref="96032696"/>
    <tag k="bicycle" v="no"/>
    <tag k="highway" v="secondary"/>
    <tag k="history" v="Retrieved from v6"/>
    <tag k="maxspeed" v="50"/>
    <tag k="name" v="Tessiner Straße"/>
    <tag k="oneway" v="yes"/>
    <tag k="ref" v="L 191"/>
  </way>
  <way id="10795955" version="15" timestamp="2010-07-08T12:53:11Z" uid="67020" user="Nibbler" changeset="5166054">
    <nd ref="96032448"/>
    <nd ref="806580237"/>
    <nd ref="806580275"/>
    <nd ref="806580269"/>
    <nd ref="96032566"/>
    <nd ref="276271805"/>
    <nd ref="96032567"/>
    <nd ref="96032696"/>
    <tag k="bicycle" v="no"/>
    <tag k="highway" v="secondary"/>
    <tag k="history" v="Retrieved from v6"/>
    <tag k="maxspeed" v="50"/>
    <tag k="name" v="Tessiner Straße"/>
    <tag k="oneway" v="yes"/>
    <tag k="ref" v="L 191"/>
  </way>
  <way id="10795955" version="16" timestamp="2011-03-29T22:44:08Z" uid="56190" user="kmvar" changeset="7711860">
    <nd ref="96032448"/>
    <nd ref="806580237"/>
    <nd ref="806580275"/>
    <nd ref="806580269"/>
    <nd ref="96032566"/>
    <nd ref="276271805"/>
    <nd ref="96032567"/>
    <nd ref="96032696"/>
    <tag k="bicycle" v="no"/>
    <tag k="highway" v="secondary"/>
    <tag k="history" v="Retrieved from v6"/>
    <tag k="maxspeed" v="50"/>
    <tag k="name" v="Tessiner Straße"/>
    <tag k="oneway" v="yes"/>
    <tag k="ref" v="B 103"/>
  </way>
  <way id="10795955" version="17" timestamp="2011-04-01T10:35:27Z" uid="56190" user="kmvar" changeset="7734171">
    <nd ref="96032448"/>
    <nd ref="806580237"/>
    <nd ref="806580275"/>
    <nd ref="806580269"/>
    <nd ref="96032566"/>
    <nd ref="276271805"/>
    <nd ref="96032567"/>
    <nd ref="96032696"/>
    <tag k="bicycle" v="no"/>
    <tag k="highway" v="primary"/>
    <tag k="history" v="Retrieved from v6"/>
    <tag k="maxspeed" v="50"/>
    <tag k="name" v="Tessiner Straße"/>
    <tag k="oneway" v="yes"/>
    <tag k="ref" v="B 103"/>
  </way>
  <way id="10795955" version="18" timestamp="2011-05-02T10:57:18Z" uid="92408" user="kilt" changeset="8029554">
    <nd ref="96032448"/>
    <nd ref="806580237"/>
    <nd ref="806580275"/>
    <nd ref="806580269"/>
    <nd ref="96032566"/>
    <nd ref="276271805"/>
    <nd ref="96032567"/>
    <nd ref="1270160646"/>
    <nd ref="96032696"/>
    <tag k="bicycle" v="no"/>
    <tag k="highway" v="primary"/>
    <tag k="history" v="Retrieved from v6"/>
    <tag k="maxspeed" v="50"/>
    <tag k="name" v="Tessiner Straße"/>
    <tag k="oneway" v="yes"/>
    <tag k="ref" v="B 103"/>
  </way>
  <way id="10795955" version="19" timestamp="2011-05-10T08:48:22Z" uid="56190" user="kmvar" changeset="8100167">
    <nd ref="96032448"/>
    <nd ref="806580237"/>
    <nd ref="806580275"/>
    <nd ref="806580269"/>
    <nd ref="96032566"/>
    <nd ref="276271805"/>
    <nd ref="96032567"/>
    <nd ref="1270160646"/>
    <nd ref="96032696"/>
    <tag k="bicycle" v="no"/>
    <tag k="highway" v="secondary"/>
    <tag k="history" v="Retrieved from v6"/>
    <tag k="maxspeed" v="50"/>
    <tag k="name" v="Tessiner Straße"/>
    <tag k="oneway" v="yes"/>
    <tag k="ref" v="L 191"/>
  </way>
  <way id="10795955" version="20" timestamp="2011-05-18T10:52:50Z" uid="453819" user="gallo9" changeset="8179840">
    <nd ref="96032448"/>
    <nd ref="806580237"/>
    <nd ref="806580275"/>
    <nd ref="806580269"/>
    <nd ref="96032566"/>
    <nd ref="276271805"/>
    <nd ref="1290203570"/>
    <nd ref="96032567"/>
    <nd ref="1290203563"/>
    <nd ref="1270160646"/>
    <nd ref="96032696"/>
    <tag k="bicycle" v="no"/>
    <tag k="highway" v="secondary"/>
    <tag k="history" v="Retrieved from v6"/>
    <tag k="maxspeed" v="50"/>
    <tag k="name" v="Tessiner Straße"/>
    <tag k="oneway" v="yes"/>
    <tag k="ref" v="L 191"/>
  </way>
</osm>
