<?xml version='1.0' encoding='UTF-8'?>
<osm version="0.6" generator="libosmium/2.20.0">
  <way id="107954272" version="1" timestamp="2011-04-10T10:20:52Z" uid="18775" user="drlizau" changeset="7821307">
    <nd ref="1239613107"/>
    <nd ref="1239613115"/>
    <nd ref="1239613116"/>
    <nd ref="1239613117"/>
    <nd ref="1239613118"/>
    <nd ref="652116123"/>
    <nd ref="1239613119"/>
    <tag k="name" v="Centre Road"/>
    <tag k="source" v="nearmap"/>
    <tag k="source:name" v="survey"/>
  </way>
  <way id="107954272" version="2" timestamp="2012-02-07T21:19:52Z" uid="168136" user="goldfishxyz" changeset="10616886">
    <nd ref="1239613107"/>
    <nd ref="1239613115"/>
    <nd ref="1239613116"/>
    <nd ref="1239613117"/>
    <nd ref="1239613118"/>
    <nd ref="652116123"/>
    <nd ref="1239613119"/>
    <tag k="highway" v="unclassified"/>
    <tag k="name" v="Centre Road"/>
    <tag k="source" v="nearmap"/>
    <tag k="source:name" v="survey"/>
  </way>
  <way id="107954279" version="1" timestamp="2011-04-10T10:20:53Z" uid="18775" user="drlizau" changeset="7821307">
    <nd ref="358102301"/>
    <nd ref="1239613120"/>
    <tag k="highway" v="unclassified"/>
    <tag k="name" v="Nine Mile Road"/>
    <tag k="source" v="nearmap"/>
    <tag k="source:name" v="survey"/>
  </way>
  <way id="107954279" version="2" timestamp="2012-02-08T04:00:50Z" uid="168136" user="goldfishxyz" changeset="10619898">
    <nd ref="358102301"/>
    <nd ref="1239613120"/>
    <nd ref="1623190433"/>
    <nd ref="1623190425"/>
    <tag k="highway" v="unclassified"/>
    <tag k="name" v="Nine Mile Road"/>
    <tag k="source" v="nearmap"/>
    <tag k="source:name" v="survey"/>
  </way>
</osm>
