<?xml version='1.0' encoding='UTF-8'?>
<osm version="0.6" generator="libosmium/2.20.0">
  <way id="108072702" version="2" timestamp="2011-06-06T05:17:37Z" uid="27600" user="Islanit" changeset="8356334">
    <nd ref="617304003"/>
    <nd ref="1240640907"/>
    <nd ref="1240640922"/>
    <nd ref="1240640946"/>
    <nd ref="1240640904"/>
    <nd ref="1240640932"/>
    <nd ref="1240640888"/>
    <nd ref="1240640918"/>
    <nd ref="1240640944"/>
    <nd ref="1240640902"/>
    <nd ref="1240640937"/>
    <nd ref="1240640892"/>
    <nd ref="1240640925"/>
    <nd ref="1240640948"/>
    <nd ref="1240640942"/>
    <nd ref="1240640887"/>
    <nd ref="1240640912"/>
    <nd ref="1240640940"/>
    <nd ref="1240640895"/>
    <nd ref="1240640928"/>
    <tag k="bicycle" v="designated"/>
    <tag k="foot" v="designated"/>
    <tag k="highway" v="path"/>
    <tag k="segregated" v="no"/>
    <tag k="source" v="Bing"/>
  </way>
  <way id="108072889" version="1" timestamp="2011-04-11T08:18:19Z" uid="4467" user="Rosscoe" changeset="7830492">
    <nd ref="1227913835"/>
    <nd ref="895565139"/>
    <nd ref="1123346111"/>
    <nd ref="1123346151"/>
    <nd ref="176898479"/>
    <nd ref="1226703009"/>
    <nd ref="176898475"/>
    <nd ref="176898463"/>
    <nd ref="176898449"/>
    <nd ref="176898441"/>
    <nd ref="176898427"/>
    <nd ref="176898415"/>
    <nd ref="176898404"/>
    <nd ref="176898403"/>
    <nd ref="176898395"/>
    <tag k="highway" v="secondary"/>
    <tag k="name" v="Gembrook - Launching Place Road"/>
    <tag k="ref" v="C424"/>
    <tag k="surface" v="paved"/>
  </way>
  <way id="108072890" version="1" timestamp="2011-04-11T08:18:19Z" uid="4467" user="Rosscoe" changeset="7830492">
    <nd ref="176875417"/>
    <nd ref="1227913932"/>
    <nd ref="1227913889"/>
    <nd ref="176898482"/>
    <tag k="highway" v="secondary"/>
    <tag k="name" v="Gembrook Road"/>
    <tag k="oneway" v="yes"/>
    <tag k="ref" v="C424"/>
    <tag k="surface" v="paved"/>
  </way>
  <way id="108072890" version="2" timestamp="2011-05-26T14:50:50Z" uid="206929" user="Supt_of_Printing" changeset="8254296">
    <nd ref="176875417"/>
    <nd ref="1227913932"/>
    <nd ref="1227913889"/>
    <nd ref="176898482"/>
    <tag k="highway" v="secondary"/>
    <tag k="oneway" v="yes"/>
    <tag k="ref" v="C424"/>
    <tag k="surface" v="paved"/>
  </way>
</osm>
