<?xml version='1.0' encoding='UTF-8'?>
<osm version="0.6" generator="libosmium/2.20.0">
  <way id="10821031" version="6" timestamp="2010-07-09T18:24:17Z" uid="74617" user="JohnSmith" changeset="5175636">
    <nd ref="96186131"/>
    <nd ref="96186133"/>
    <nd ref="96186135"/>
    <nd ref="275227269"/>
    <nd ref="275227270"/>
    <nd ref="275227271"/>
    <nd ref="275227272"/>
    <nd ref="275227273"/>
    <nd ref="96186154"/>
    <nd ref="275227274"/>
    <nd ref="346255761"/>
    <nd ref="275227275"/>
    <nd ref="96186167"/>
    <tag k="highway" v="residential"/>
    <tag k="maxspeed" v="50"/>
    <tag k="maxspeed:source" v="default residential speed limit in Australia"/>
    <tag k="name" v="Bradley Way"/>
  </way>
  <way id="10821031" version="7" timestamp="2011-10-24T20:19:33Z" uid="142807" user="SDavies" changeset="9647178">
    <nd ref="96186131"/>
    <nd ref="96186133"/>
    <nd ref="96186135"/>
    <nd ref="275227269"/>
    <nd ref="275227270"/>
    <nd ref="1479444746"/>
    <nd ref="275227271"/>
    <nd ref="275227272"/>
    <nd ref="275227273"/>
    <nd ref="96186154"/>
    <nd ref="275227274"/>
    <nd ref="346255761"/>
    <nd ref="275227275"/>
    <nd ref="96186167"/>
    <tag k="highway" v="residential"/>
    <tag k="maxspeed" v="50"/>
    <tag k="maxspeed:source" v="default residential speed limit in Australia"/>
    <tag k="name" v="Bradley Way"/>
  </way>
  <way id="10821031" version="8" timestamp="2012-01-15T10:12:38Z" uid="147510" user="woodpeck_fixbot" changeset="10395278">
    <nd ref="96186131"/>
    <nd ref="96186133"/>
    <nd ref="96186135"/>
    <nd ref="275227269"/>
    <nd ref="275227270"/>
    <nd ref="1479444746"/>
    <nd ref="275227271"/>
    <nd ref="275227272"/>
    <nd ref="275227273"/>
    <nd ref="96186154"/>
    <nd ref="275227274"/>
    <nd ref="346255761"/>
    <nd ref="275227275"/>
    <nd ref="96186167"/>
    <tag k="highway" v="residential"/>
    <tag k="name" v="Bradley Way"/>
  </way>
  <way id="10821098" version="4" timestamp="2010-07-09T18:18:02Z" uid="74617" user="JohnSmith" changeset="5175636">
    <nd ref="96186133"/>
    <nd ref="96186764"/>
    <nd ref="96186765"/>
    <nd ref="96186768"/>
    <nd ref="96186769"/>
    <nd ref="96186770"/>
    <nd ref="96186771"/>
    <nd ref="96186772"/>
    <nd ref="594358553"/>
    <nd ref="96186774"/>
    <nd ref="96186775"/>
    <nd ref="96186776"/>
    <nd ref="96186777"/>
    <nd ref="96186778"/>
    <nd ref="96186779"/>
    <nd ref="96186780"/>
    <tag k="highway" v="residential"/>
    <tag k="maxspeed" v="50"/>
    <tag k="maxspeed:source" v="default residential speed limit in Australia"/>
    <tag k="name" v="Romani Court"/>
  </way>
  <way id="10821098" version="5" timestamp="2012-01-15T10:12:47Z" uid="147510" user="woodpeck_fixbot" changeset="10395278">
    <nd ref="96186133"/>
    <nd ref="96186764"/>
    <nd ref="96186765"/>
    <nd ref="96186768"/>
    <nd ref="96186769"/>
    <nd ref="96186770"/>
    <nd ref="96186771"/>
    <nd ref="96186772"/>
    <nd ref="594358553"/>
    <nd ref="96186774"/>
    <nd ref="96186775"/>
    <nd ref="96186776"/>
    <nd ref="96186777"/>
    <nd ref="96186778"/>
    <nd ref="96186779"/>
    <nd ref="96186780"/>
    <tag k="highway" v="residential"/>
    <tag k="name" v="Romani Court"/>
  </way>
  <way id="10821148" version="3" timestamp="2010-07-09T18:39:16Z" uid="74617" user="JohnSmith" changeset="5175636">
    <nd ref="96186135"/>
    <nd ref="275227300"/>
    <nd ref="275227301"/>
    <tag k="highway" v="residential"/>
    <tag k="maxspeed" v="50"/>
    <tag k="maxspeed:source" v="default residential speed limit in Australia"/>
    <tag k="name" v="Sinai Court"/>
  </way>
  <way id="10821148" version="4" timestamp="2012-01-15T10:12:53Z" uid="147510" user="woodpeck_fixbot" changeset="10395278">
    <nd ref="96186135"/>
    <nd ref="275227300"/>
    <nd ref="275227301"/>
    <tag k="highway" v="residential"/>
    <tag k="name" v="Sinai Court"/>
  </way>
  <way id="10821194" version="4" timestamp="2010-07-09T18:19:07Z" uid="74617" user="JohnSmith" changeset="5175636">
    <nd ref="275227272"/>
    <nd ref="96187743"/>
    <nd ref="96187744"/>
    <tag k="highway" v="residential"/>
    <tag k="maxspeed" v="50"/>
    <tag k="maxspeed:source" v="default residential speed limit in Australia"/>
    <tag k="name" v="Olin Rise"/>
  </way>
  <way id="10821194" version="5" timestamp="2012-01-15T10:12:59Z" uid="147510" user="woodpeck_fixbot" changeset="10395278">
    <nd ref="275227272"/>
    <nd ref="96187743"/>
    <nd ref="96187744"/>
    <tag k="highway" v="residential"/>
    <tag k="name" v="Olin Rise"/>
  </way>
  <way id="10821241" version="4" timestamp="2010-07-09T18:33:04Z" uid="74617" user="JohnSmith" changeset="5175636">
    <nd ref="96186154"/>
    <nd ref="96188200"/>
    <nd ref="96188204"/>
    <tag k="highway" v="residential"/>
    <tag k="maxspeed" v="50"/>
    <tag k="maxspeed:source" v="default residential speed limit in Australia"/>
    <tag k="name" v="Gillespie Court"/>
  </way>
  <way id="10821241" version="5" timestamp="2012-01-15T10:13:03Z" uid="147510" user="woodpeck_fixbot" changeset="10395278">
    <nd ref="96186154"/>
    <nd ref="96188200"/>
    <nd ref="96188204"/>
    <tag k="highway" v="residential"/>
    <tag k="name" v="Gillespie Court"/>
  </way>
  <way id="10821243" version="3" timestamp="2010-07-09T02:56:15Z" uid="74617" user="JohnSmith" changeset="5170739">
    <nd ref="96187963"/>
    <nd ref="96188229"/>
    <nd ref="96188211"/>
    <nd ref="96187968"/>
    <tag k="highway" v="residential"/>
    <tag k="maxspeed" v="50"/>
    <tag k="maxspeed:source" v="default residential speed limit in Australia"/>
    <tag k="name" v="Heliopolis Street"/>
  </way>
  <way id="10821243" version="4" timestamp="2012-01-15T10:13:05Z" uid="147510" user="woodpeck_fixbot" changeset="10395278">
    <nd ref="96187963"/>
    <nd ref="96188229"/>
    <nd ref="96188211"/>
    <nd ref="96187968"/>
    <tag k="highway" v="residential"/>
    <tag k="name" v="Heliopolis Street"/>
  </way>
  <way id="10821245" version="3" timestamp="2010-07-09T03:00:32Z" uid="74617" user="JohnSmith" changeset="5170739">
    <nd ref="96187972"/>
    <nd ref="96187976"/>
    <nd ref="96187968"/>
    <nd ref="96187980"/>
    <tag k="highway" v="residential"/>
    <tag k="maxspeed" v="50"/>
    <tag k="maxspeed:source" v="default residential speed limit in Australia"/>
    <tag k="name" v="Fontaine Street"/>
  </way>
  <way id="10821245" version="4" timestamp="2012-01-15T10:13:07Z" uid="147510" user="woodpeck_fixbot" changeset="10395278">
    <nd ref="96187972"/>
    <nd ref="96187976"/>
    <nd ref="96187968"/>
    <nd ref="96187980"/>
    <tag k="highway" v="residential"/>
    <tag k="name" v="Fontaine Street"/>
  </way>
  <way id="10821249" version="5" timestamp="2010-04-05T11:14:48Z" uid="74617" user="JohnSmith" changeset="4331807">
    <nd ref="96187987"/>
    <nd ref="96187994"/>
    <nd ref="96190205"/>
    <nd ref="96188002"/>
    <nd ref="96188014"/>
    <nd ref="96188020"/>
    <nd ref="96190192"/>
    <nd ref="96187980"/>
    <nd ref="96188031"/>
    <nd ref="357620760"/>
    <tag k="highway" v="residential"/>
    <tag k="name" v="Mitchell Parade"/>
  </way>
  <way id="10821249" version="6" timestamp="2010-07-09T03:02:13Z" uid="74617" user="JohnSmith" changeset="5170739">
    <nd ref="96187987"/>
    <nd ref="96187994"/>
    <nd ref="96190205"/>
    <nd ref="96188002"/>
    <nd ref="96188014"/>
    <nd ref="96188020"/>
    <nd ref="96190192"/>
    <nd ref="96187980"/>
    <nd ref="96188031"/>
    <nd ref="357620760"/>
    <tag k="highway" v="residential"/>
    <tag k="maxspeed" v="50"/>
    <tag k="maxspeed:source" v="default residential speed limit in Australia"/>
    <tag k="name" v="Mitchell Parade"/>
  </way>
  <way id="10821249" version="7" timestamp="2012-01-15T10:13:10Z" uid="147510" user="woodpeck_fixbot" changeset="10395278">
    <nd ref="96187987"/>
    <nd ref="96187994"/>
    <nd ref="96190205"/>
    <nd ref="96188002"/>
    <nd ref="96188014"/>
    <nd ref="96188020"/>
    <nd ref="96190192"/>
    <nd ref="96187980"/>
    <nd ref="96188031"/>
    <nd ref="357620760"/>
    <tag k="highway" v="residential"/>
    <tag k="name" v="Mitchell Parade"/>
  </way>
  <way id="10821251" version="5" timestamp="2010-07-09T02:56:30Z" uid="74617" user="JohnSmith" changeset="5170739">
    <nd ref="96188073"/>
    <nd ref="96188083"/>
    <nd ref="96188089"/>
    <nd ref="357621017"/>
    <tag k="highway" v="residential"/>
    <tag k="maxspeed" v="50"/>
    <tag k="maxspeed:source" v="default residential speed limit in Australia"/>
    <tag k="name" v="Somali Street"/>
  </way>
  <way id="10821251" version="6" timestamp="2012-01-15T10:13:11Z" uid="147510" user="woodpeck_fixbot" changeset="10395278">
    <nd ref="96188073"/>
    <nd ref="96188083"/>
    <nd ref="96188089"/>
    <nd ref="357621017"/>
    <tag k="highway" v="residential"/>
    <tag k="name" v="Somali Street"/>
  </way>
  <way id="10821252" version="3" timestamp="2010-07-09T02:58:36Z" uid="74617" user="JohnSmith" changeset="5170739">
    <nd ref="96188092"/>
    <nd ref="96188096"/>
    <nd ref="96188066"/>
    <tag k="highway" v="residential"/>
    <tag k="maxspeed" v="50"/>
    <tag k="maxspeed:source" v="default residential speed limit in Australia"/>
    <tag k="name" v="Vaux Street"/>
  </way>
  <way id="10821252" version="4" timestamp="2012-01-15T10:13:13Z" uid="147510" user="woodpeck_fixbot" changeset="10395278">
    <nd ref="96188092"/>
    <nd ref="96188096"/>
    <nd ref="96188066"/>
    <tag k="highway" v="residential"/>
    <tag k="name" v="Vaux Street"/>
  </way>
  <way id="10821253" version="3" timestamp="2010-07-09T03:00:44Z" uid="74617" user="JohnSmith" changeset="5170739">
    <nd ref="96188100"/>
    <nd ref="96188105"/>
    <nd ref="96188111"/>
    <tag k="highway" v="residential"/>
    <tag k="maxspeed" v="50"/>
    <tag k="maxspeed:source" v="default residential speed limit in Australia"/>
    <tag k="name" v="Moascar Street"/>
  </way>
  <way id="10821253" version="4" timestamp="2012-01-15T10:13:14Z" uid="147510" user="woodpeck_fixbot" changeset="10395278">
    <nd ref="96188100"/>
    <nd ref="96188105"/>
    <nd ref="96188111"/>
    <tag k="highway" v="residential"/>
    <tag k="name" v="Moascar Street"/>
  </way>
  <way id="10821254" version="3" timestamp="2010-07-09T03:02:37Z" uid="74617" user="JohnSmith" changeset="5170739">
    <nd ref="96188117"/>
    <nd ref="96188128"/>
    <nd ref="96183060"/>
    <tag k="highway" v="residential"/>
    <tag k="maxspeed" v="50"/>
    <tag k="maxspeed:source" v="default residential speed limit in Australia"/>
    <tag k="name" v="Le Cateau Street"/>
  </way>
  <way id="10821254" version="4" timestamp="2012-01-15T10:13:16Z" uid="147510" user="woodpeck_fixbot" changeset="10395278">
    <nd ref="96188117"/>
    <nd ref="96188128"/>
    <nd ref="96183060"/>
    <tag k="highway" v="residential"/>
    <tag k="name" v="Le Cateau Street"/>
  </way>
  <way id="10821255" version="3" timestamp="2010-07-09T02:54:50Z" uid="74617" user="JohnSmith" changeset="5170739">
    <nd ref="96188140"/>
    <nd ref="96188187"/>
    <nd ref="96187959"/>
    <tag k="highway" v="residential"/>
    <tag k="maxspeed" v="50"/>
    <tag k="maxspeed:source" v="default residential speed limit in Australia"/>
    <tag k="name" v="Gallipoli Parade"/>
  </way>
  <way id="10821255" version="4" timestamp="2012-01-15T10:13:17Z" uid="147510" user="woodpeck_fixbot" changeset="10395278">
    <nd ref="96188140"/>
    <nd ref="96188187"/>
    <nd ref="96187959"/>
    <tag k="highway" v="residential"/>
    <tag k="name" v="Gallipoli Parade"/>
  </way>
  <way id="10821256" version="3" timestamp="2010-07-09T02:57:07Z" uid="74617" user="JohnSmith" changeset="5170739">
    <nd ref="96188179"/>
    <nd ref="96188187"/>
    <tag k="highway" v="residential"/>
    <tag k="maxspeed" v="50"/>
    <tag k="maxspeed:source" v="default residential speed limit in Australia"/>
    <tag k="name" v="Vimy Court"/>
  </way>
  <way id="10821256" version="4" timestamp="2012-01-15T10:13:21Z" uid="147510" user="woodpeck_fixbot" changeset="10395278">
    <nd ref="96188179"/>
    <nd ref="96188187"/>
    <tag k="highway" v="residential"/>
    <tag k="name" v="Vimy Court"/>
  </way>
  <way id="10821257" version="3" timestamp="2010-07-09T02:59:12Z" uid="74617" user="JohnSmith" changeset="5170739">
    <nd ref="96188198"/>
    <nd ref="96188207"/>
    <nd ref="96188211"/>
    <tag k="highway" v="residential"/>
    <tag k="maxspeed" v="50"/>
    <tag k="maxspeed:source" v="default residential speed limit in Australia"/>
    <tag k="name" v="Peronne Street"/>
  </way>
  <way id="10821257" version="4" timestamp="2012-01-15T10:13:22Z" uid="147510" user="woodpeck_fixbot" changeset="10395278">
    <nd ref="96188198"/>
    <nd ref="96188207"/>
    <nd ref="96188211"/>
    <tag k="highway" v="residential"/>
    <tag k="name" v="Peronne Street"/>
  </way>
  <way id="10821258" version="3" timestamp="2010-07-09T03:14:03Z" uid="74617" user="JohnSmith" changeset="5170739">
    <nd ref="96188216"/>
    <nd ref="96188221"/>
    <nd ref="96188229"/>
    <tag k="highway" v="residential"/>
    <tag k="maxspeed" v="50"/>
    <tag k="maxspeed:source" v="default residential speed limit in Australia"/>
    <tag k="name" v="Gezireh Street"/>
  </way>
  <way id="10821258" version="4" timestamp="2012-01-15T10:13:24Z" uid="147510" user="woodpeck_fixbot" changeset="10395278">
    <nd ref="96188216"/>
    <nd ref="96188221"/>
    <nd ref="96188229"/>
    <tag k="highway" v="residential"/>
    <tag k="name" v="Gezireh Street"/>
  </way>
  <way id="10821299" version="4" timestamp="2010-07-09T18:20:54Z" uid="74617" user="JohnSmith" changeset="5175636">
    <nd ref="96188399"/>
    <nd ref="96188757"/>
    <nd ref="96188758"/>
    <nd ref="96188759"/>
    <tag k="highway" v="residential"/>
    <tag k="maxspeed" v="50"/>
    <tag k="maxspeed:source" v="default residential speed limit in Australia"/>
    <tag k="name" v="Yalgar Place"/>
  </way>
  <way id="10821299" version="5" timestamp="2012-01-15T10:13:25Z" uid="147510" user="woodpeck_fixbot" changeset="10395278">
    <nd ref="96188399"/>
    <nd ref="96188757"/>
    <nd ref="96188758"/>
    <nd ref="96188759"/>
    <tag k="highway" v="residential"/>
    <tag k="name" v="Yalgar Place"/>
  </way>
  <way id="10821381" version="3" timestamp="2010-07-09T18:30:21Z" uid="74617" user="JohnSmith" changeset="5175636">
    <nd ref="96189071"/>
    <nd ref="96189766"/>
    <nd ref="96189767"/>
    <nd ref="96189768"/>
    <nd ref="96189769"/>
    <nd ref="96189770"/>
    <nd ref="96189771"/>
    <nd ref="96189772"/>
    <nd ref="96189773"/>
    <tag k="highway" v="residential"/>
    <tag k="maxspeed" v="50"/>
    <tag k="maxspeed:source" v="default residential speed limit in Australia"/>
    <tag k="name" v="Yannarie Close"/>
  </way>
  <way id="10821381" version="4" timestamp="2012-01-15T10:13:27Z" uid="147510" user="woodpeck_fixbot" changeset="10395278">
    <nd ref="96189071"/>
    <nd ref="96189766"/>
    <nd ref="96189767"/>
    <nd ref="96189768"/>
    <nd ref="96189769"/>
    <nd ref="96189770"/>
    <nd ref="96189771"/>
    <nd ref="96189772"/>
    <nd ref="96189773"/>
    <tag k="highway" v="residential"/>
    <tag k="name" v="Yannarie Close"/>
  </way>
  <way id="10821431" version="5" timestamp="2010-04-05T11:14:38Z" uid="74617" user="JohnSmith" changeset="4331807">
    <nd ref="96190130"/>
    <nd ref="96190125"/>
    <nd ref="96190121"/>
    <nd ref="96190117"/>
    <nd ref="96190109"/>
    <nd ref="96190099"/>
    <nd ref="96190088"/>
    <nd ref="96190078"/>
    <tag k="highway" v="residential"/>
    <tag k="name" v="Greenbank Crescent"/>
    <tag k="oneway" v="yes"/>
  </way>
  <way id="10821431" version="6" timestamp="2010-07-09T03:10:09Z" uid="74617" user="JohnSmith" changeset="5170739">
    <nd ref="96190130"/>
    <nd ref="96190125"/>
    <nd ref="96190121"/>
    <nd ref="96190117"/>
    <nd ref="96190109"/>
    <nd ref="96190099"/>
    <nd ref="96190088"/>
    <nd ref="96190078"/>
    <tag k="highway" v="residential"/>
    <tag k="maxspeed" v="50"/>
    <tag k="maxspeed:source" v="default residential speed limit in Australia"/>
    <tag k="name" v="Greenbank Crescent"/>
    <tag k="oneway" v="yes"/>
  </way>
  <way id="10821431" version="7" timestamp="2012-01-15T10:13:30Z" uid="147510" user="woodpeck_fixbot" changeset="10395278">
    <nd ref="96190130"/>
    <nd ref="96190125"/>
    <nd ref="96190121"/>
    <nd ref="96190117"/>
    <nd ref="96190109"/>
    <nd ref="96190099"/>
    <nd ref="96190088"/>
    <nd ref="96190078"/>
    <tag k="highway" v="residential"/>
    <tag k="name" v="Greenbank Crescent"/>
    <tag k="oneway" v="yes"/>
  </way>
  <way id="10821433" version="6" timestamp="2010-07-09T02:58:32Z" uid="74617" user="JohnSmith" changeset="5170739">
    <nd ref="96453664"/>
    <nd ref="96453656"/>
    <nd ref="96190137"/>
    <nd ref="96190148"/>
    <nd ref="96190154"/>
    <nd ref="96190159"/>
    <nd ref="96190163"/>
    <nd ref="96190167"/>
    <nd ref="96190173"/>
    <nd ref="96190178"/>
    <tag k="highway" v="residential"/>
    <tag k="maxspeed" v="50"/>
    <tag k="maxspeed:source" v="default residential speed limit in Australia"/>
    <tag k="name" v="Wheeler Street"/>
    <tag k="oneway" v="yes"/>
  </way>
  <way id="10821433" version="7" timestamp="2012-01-15T10:13:31Z" uid="147510" user="woodpeck_fixbot" changeset="10395278">
    <nd ref="96453664"/>
    <nd ref="96453656"/>
    <nd ref="96190137"/>
    <nd ref="96190148"/>
    <nd ref="96190154"/>
    <nd ref="96190159"/>
    <nd ref="96190163"/>
    <nd ref="96190167"/>
    <nd ref="96190173"/>
    <nd ref="96190178"/>
    <tag k="highway" v="residential"/>
    <tag k="name" v="Wheeler Street"/>
    <tag k="oneway" v="yes"/>
  </way>
  <way id="10821434" version="3" timestamp="2010-07-09T03:00:40Z" uid="74617" user="JohnSmith" changeset="5170739">
    <nd ref="96190192"/>
    <nd ref="96190052"/>
    <tag k="highway" v="residential"/>
    <tag k="maxspeed" v="50"/>
    <tag k="maxspeed:source" v="default residential speed limit in Australia"/>
    <tag k="name" v="Thistle Street"/>
  </way>
  <way id="10821434" version="4" timestamp="2012-01-15T10:13:34Z" uid="147510" user="woodpeck_fixbot" changeset="10395278">
    <nd ref="96190192"/>
    <nd ref="96190052"/>
    <tag k="highway" v="residential"/>
    <tag k="name" v="Thistle Street"/>
  </way>
  <way id="10821437" version="3" timestamp="2010-07-09T03:15:18Z" uid="74617" user="JohnSmith" changeset="5170739">
    <nd ref="96190205"/>
    <nd ref="96190212"/>
    <tag k="highway" v="residential"/>
    <tag k="maxspeed" v="50"/>
    <tag k="maxspeed:source" v="default residential speed limit in Australia"/>
    <tag k="name" v="The Lane"/>
  </way>
  <way id="10821437" version="4" timestamp="2012-01-15T10:13:35Z" uid="147510" user="woodpeck_fixbot" changeset="10395278">
    <nd ref="96190205"/>
    <nd ref="96190212"/>
    <tag k="highway" v="residential"/>
    <tag k="name" v="The Lane"/>
  </way>
  <way id="10821503" version="4" timestamp="2010-07-09T18:29:21Z" uid="74617" user="JohnSmith" changeset="5175636">
    <nd ref="53651140"/>
    <nd ref="96190833"/>
    <nd ref="96190836"/>
    <nd ref="96190837"/>
    <nd ref="96190838"/>
    <nd ref="96190843"/>
    <tag k="highway" v="residential"/>
    <tag k="maxspeed" v="50"/>
    <tag k="maxspeed:source" v="default residential speed limit in Australia"/>
    <tag k="name" v="Sanford Court"/>
  </way>
  <way id="10821503" version="5" timestamp="2012-01-15T10:13:37Z" uid="147510" user="woodpeck_fixbot" changeset="10395278">
    <nd ref="53651140"/>
    <nd ref="96190833"/>
    <nd ref="96190836"/>
    <nd ref="96190837"/>
    <nd ref="96190838"/>
    <nd ref="96190843"/>
    <tag k="highway" v="residential"/>
    <tag k="name" v="Sanford Court"/>
  </way>
  <way id="10821574" version="4" timestamp="2010-07-09T18:22:15Z" uid="74617" user="JohnSmith" changeset="5175636">
    <nd ref="53254890"/>
    <nd ref="96191628"/>
    <nd ref="96191629"/>
    <nd ref="346255766"/>
    <nd ref="96191636"/>
    <nd ref="96191638"/>
    <nd ref="96191641"/>
    <tag k="highway" v="residential"/>
    <tag k="maxspeed" v="50"/>
    <tag k="maxspeed:source" v="default residential speed limit in Australia"/>
    <tag k="name" v="Devenish Road"/>
  </way>
  <way id="10821574" version="5" timestamp="2012-01-15T10:13:53Z" uid="147510" user="woodpeck_fixbot" changeset="10395278">
    <nd ref="53254890"/>
    <nd ref="96191628"/>
    <nd ref="96191629"/>
    <nd ref="346255766"/>
    <nd ref="96191636"/>
    <nd ref="96191638"/>
    <nd ref="96191641"/>
    <tag k="highway" v="residential"/>
    <tag k="name" v="Devenish Road"/>
  </way>
  <way id="10821652" version="5" timestamp="2010-07-09T18:39:10Z" uid="74617" user="JohnSmith" changeset="5175636">
    <nd ref="96191636"/>
    <nd ref="96192683"/>
    <nd ref="346255764"/>
    <nd ref="96192685"/>
    <nd ref="96192691"/>
    <nd ref="96192692"/>
    <nd ref="96192693"/>
    <nd ref="96192696"/>
    <tag k="highway" v="residential"/>
    <tag k="maxspeed" v="50"/>
    <tag k="maxspeed:source" v="default residential speed limit in Australia"/>
    <tag k="name" v="Gamage Way"/>
  </way>
  <way id="10821652" version="6" timestamp="2012-01-15T10:13:55Z" uid="147510" user="woodpeck_fixbot" changeset="10395278">
    <nd ref="96191636"/>
    <nd ref="96192683"/>
    <nd ref="346255764"/>
    <nd ref="96192685"/>
    <nd ref="96192691"/>
    <nd ref="96192692"/>
    <nd ref="96192693"/>
    <nd ref="96192696"/>
    <tag k="highway" v="residential"/>
    <tag k="name" v="Gamage Way"/>
  </way>
</osm>
