<?xml version='1.0' encoding='UTF-8'?>
<osm version="0.6" generator="libosmium/2.20.0">
  <way id="108279659" version="1" timestamp="2011-04-12T22:38:48Z" uid="88880" user="firsttimelinux" changeset="7847595">
    <nd ref="612582331"/>
    <nd ref="1236499344"/>
    <nd ref="612582333"/>
    <nd ref="612582334"/>
    <nd ref="612582336"/>
    <nd ref="1242570204"/>
    <nd ref="411340009"/>
    <tag k="fixme" v="genaue Länge;resurvey"/>
    <tag k="highway" v="residential"/>
    <tag k="name" v="Gaisgass"/>
    <tag k="vehicle" v="no"/>
  </way>
  <way id="108279659" version="2" timestamp="2012-03-02T14:01:40Z" uid="178186" user="mdk" changeset="10848589"/>
  <way id="108279660" version="1" timestamp="2011-04-12T22:38:48Z" uid="88880" user="firsttimelinux" changeset="7847595">
    <nd ref="1242570221"/>
    <nd ref="1242570256"/>
    <nd ref="1242570219"/>
    <nd ref="252795456"/>
    <nd ref="442984034"/>
    <nd ref="85561857"/>
    <nd ref="321545948"/>
    <tag k="highway" v="primary"/>
    <tag k="name" v="Bahnhofstrasse"/>
    <tag k="ref" v="7;13"/>
  </way>
  <way id="108279660" version="2" timestamp="2011-07-17T15:06:45Z" uid="334389" user="ueliw0" changeset="8748984">
    <nd ref="1242570221"/>
    <nd ref="1242570256"/>
    <nd ref="1242570219"/>
    <nd ref="1364566745"/>
    <nd ref="1364566726"/>
    <nd ref="1364566721"/>
    <nd ref="252795456"/>
    <nd ref="1364566639"/>
    <nd ref="442984034"/>
    <nd ref="85561857"/>
    <nd ref="321545948"/>
    <tag k="highway" v="primary"/>
    <tag k="name" v="Bahnhofstrasse"/>
    <tag k="ref" v="7;13"/>
  </way>
  <way id="108279660" version="3" timestamp="2011-07-17T15:28:26Z" uid="334389" user="ueliw0" changeset="8749147">
    <nd ref="1242570221"/>
    <nd ref="1242570256"/>
    <nd ref="1242570219"/>
    <nd ref="1364566745"/>
    <nd ref="1364566726"/>
    <nd ref="1364566721"/>
    <nd ref="252795456"/>
    <nd ref="1364566639"/>
    <tag k="highway" v="primary"/>
    <tag k="name" v="Bahnhofstrasse"/>
    <tag k="ref" v="7;13"/>
  </way>
  <way id="108279660" version="4" timestamp="2011-07-17T15:56:27Z" uid="334389" user="ueliw0" changeset="8749399">
    <nd ref="1242570221"/>
    <nd ref="1242570256"/>
    <nd ref="1364650819"/>
    <nd ref="1364650818"/>
    <nd ref="1364650817"/>
    <nd ref="1242570219"/>
    <nd ref="1364650812"/>
    <nd ref="1364566745"/>
    <nd ref="1364566726"/>
    <nd ref="1364566721"/>
    <nd ref="252795456"/>
    <nd ref="1364566639"/>
    <tag k="highway" v="primary"/>
    <tag k="name" v="Bahnhofstrasse"/>
    <tag k="ref" v="7;13"/>
  </way>
  <way id="108279660" version="5" timestamp="2012-01-04T17:55:38Z" uid="70696" user="xybot" changeset="10292690">
    <nd ref="1242570221"/>
    <nd ref="1242570256"/>
    <nd ref="1364650819"/>
    <nd ref="1364650818"/>
    <nd ref="1364650817"/>
    <nd ref="1242570219"/>
    <nd ref="1364650812"/>
    <nd ref="1364566745"/>
    <nd ref="1364566726"/>
    <nd ref="1364566721"/>
    <nd ref="252795456"/>
    <nd ref="1364566639"/>
    <tag k="highway" v="primary"/>
    <tag k="name" v="Bahnhofstraße"/>
    <tag k="ref" v="7;13"/>
  </way>
  <way id="108279660" version="6" timestamp="2012-01-12T08:50:49Z" uid="70696" user="xybot" changeset="10367344">
    <nd ref="1242570221"/>
    <nd ref="1242570256"/>
    <nd ref="1364650819"/>
    <nd ref="1364650818"/>
    <nd ref="1364650817"/>
    <nd ref="1242570219"/>
    <nd ref="1364650812"/>
    <nd ref="1364566745"/>
    <nd ref="1364566726"/>
    <nd ref="1364566721"/>
    <nd ref="252795456"/>
    <nd ref="1364566639"/>
    <tag k="highway" v="primary"/>
    <tag k="name" v="Bahnhofstrasse"/>
    <tag k="ref" v="7;13"/>
  </way>
  <way id="108279660" version="7" timestamp="2012-01-12T13:12:10Z" uid="2680" user="xylome" changeset="10369303">
    <nd ref="1242570221"/>
    <nd ref="1242570256"/>
    <nd ref="1364650819"/>
    <nd ref="1364650818"/>
    <nd ref="1364650817"/>
    <nd ref="1242570219"/>
    <nd ref="1364650812"/>
    <nd ref="1364566745"/>
    <nd ref="1364566726"/>
    <nd ref="1364566721"/>
    <nd ref="252795456"/>
    <nd ref="1364566639"/>
    <tag k="highway" v="primary"/>
    <tag k="is_in" v="CH"/>
    <tag k="name" v="Bahnhofstrasse"/>
    <tag k="ref" v="7;13"/>
  </way>
  <way id="108279660" version="8" timestamp="2012-01-27T09:53:26Z" uid="74900" user="FischersFritz" changeset="10510549"/>
  <way id="108279661" version="1" timestamp="2011-04-12T22:38:49Z" uid="88880" user="firsttimelinux" changeset="7847595">
    <nd ref="411340009"/>
    <nd ref="411340020"/>
    <nd ref="411340036"/>
    <nd ref="411340107"/>
    <nd ref="411340124"/>
    <nd ref="252796036"/>
    <nd ref="442984045"/>
    <nd ref="442984051"/>
    <nd ref="442984054"/>
    <nd ref="442984057"/>
    <nd ref="442984060"/>
    <nd ref="442984062"/>
    <nd ref="443004147"/>
    <nd ref="445407821"/>
    <nd ref="442984063"/>
    <nd ref="442984034"/>
    <tag k="highway" v="residential"/>
    <tag k="name" v="Hauptstrasse"/>
    <tag k="note" v="Provisorisch"/>
    <tag k="oneway" v="yes"/>
  </way>
  <way id="108279661" version="2" timestamp="2011-07-17T15:06:51Z" uid="334389" user="ueliw0" changeset="8748984">
    <nd ref="411340009"/>
    <nd ref="411340020"/>
    <nd ref="1364566731"/>
    <nd ref="411340036"/>
    <nd ref="1364566714"/>
    <nd ref="411340107"/>
    <nd ref="411340124"/>
    <nd ref="252796036"/>
    <tag k="highway" v="residential"/>
    <tag k="name" v="Hauptstrasse"/>
    <tag k="note" v="Provisorisch"/>
    <tag k="oneway" v="yes"/>
  </way>
  <way id="108279661" version="3" timestamp="2012-02-27T21:28:26Z" uid="122406" user="hanskuster" changeset="10813854"/>
  <way id="108279662" version="1" timestamp="2011-04-12T22:38:49Z" uid="88880" user="firsttimelinux" changeset="7847595">
    <nd ref="1242615368"/>
    <nd ref="1242570221"/>
    <tag k="highway" v="primary"/>
    <tag k="name" v="Bahnhofstrasse"/>
    <tag k="ref" v="7;13"/>
  </way>
  <way id="108279662" version="2" timestamp="2012-01-04T17:55:40Z" uid="70696" user="xybot" changeset="10292690">
    <nd ref="1242615368"/>
    <nd ref="1242570221"/>
    <tag k="highway" v="primary"/>
    <tag k="name" v="Bahnhofstraße"/>
    <tag k="ref" v="7;13"/>
  </way>
  <way id="108279662" version="3" timestamp="2012-01-12T08:50:50Z" uid="70696" user="xybot" changeset="10367344">
    <nd ref="1242615368"/>
    <nd ref="1242570221"/>
    <tag k="highway" v="primary"/>
    <tag k="name" v="Bahnhofstrasse"/>
    <tag k="ref" v="7;13"/>
  </way>
  <way id="108279662" version="4" timestamp="2012-01-12T13:12:12Z" uid="2680" user="xylome" changeset="10369303">
    <nd ref="1242615368"/>
    <nd ref="1242570221"/>
    <tag k="highway" v="primary"/>
    <tag k="is_in" v="CH"/>
    <tag k="name" v="Bahnhofstrasse"/>
    <tag k="ref" v="7;13"/>
  </way>
  <way id="108279662" version="5" timestamp="2012-01-27T09:53:26Z" uid="74900" user="FischersFritz" changeset="10510549"/>
  <way id="108279663" version="1" timestamp="2011-04-12T22:38:50Z" uid="88880" user="firsttimelinux" changeset="7847595">
    <nd ref="1242570179"/>
    <nd ref="1242570296"/>
    <nd ref="1242570169"/>
    <nd ref="411340002"/>
    <nd ref="470476511"/>
    <nd ref="411340009"/>
    <tag k="highway" v="residential"/>
    <tag k="name" v="Hauptstrasse"/>
    <tag k="note" v="Provisorisch"/>
    <tag k="oneway" v="yes"/>
  </way>
  <way id="108279663" version="2" timestamp="2011-07-17T15:06:50Z" uid="334389" user="ueliw0" changeset="8748984">
    <nd ref="1242570179"/>
    <nd ref="1242570296"/>
    <nd ref="1242570169"/>
    <nd ref="411340002"/>
    <nd ref="470476511"/>
    <nd ref="1364566736"/>
    <nd ref="411340009"/>
    <tag k="highway" v="residential"/>
    <tag k="name" v="Hauptstrasse"/>
    <tag k="note" v="Provisorisch"/>
    <tag k="oneway" v="yes"/>
  </way>
  <way id="108279663" version="3" timestamp="2012-02-27T21:28:26Z" uid="122406" user="hanskuster" changeset="10813854"/>
  <way id="108279668" version="1" timestamp="2011-04-12T22:39:03Z" uid="66036" user="h4v" changeset="7847596">
    <nd ref="1242615608"/>
    <nd ref="1242615616"/>
    <tag k="addr:inclusion" v="potential"/>
    <tag k="addr:interpolation" v="even"/>
    <tag k="source" v="wikipedia"/>
  </way>
  <way id="108279668" version="2" timestamp="2011-04-13T11:51:13Z" uid="66036" user="h4v" changeset="7851052">
    <nd ref="1242615608"/>
    <nd ref="1243143140"/>
    <tag k="addr:inclusion" v="potential"/>
    <tag k="addr:interpolation" v="even"/>
    <tag k="source" v="wikipedia"/>
    <tag k="source:addr" v="wikipedia"/>
  </way>
  <way id="108279669" version="1" timestamp="2011-04-12T22:39:03Z" uid="66036" user="h4v" changeset="7847596">
    <nd ref="738254106"/>
    <nd ref="616849764"/>
    <nd ref="616849769"/>
    <tag k="highway" v="service"/>
    <tag k="source" v="wikipedia"/>
  </way>
  <way id="108279670" version="1" timestamp="2011-04-12T22:39:03Z" uid="66036" user="h4v" changeset="7847596">
    <nd ref="1242615485"/>
    <nd ref="1242615635"/>
    <tag k="addr:inclusion" v="potential"/>
    <tag k="addr:interpolation" v="odd"/>
    <tag k="source" v="wikipedia"/>
  </way>
  <way id="108279670" version="2" timestamp="2011-04-16T10:29:55Z" uid="66036" user="h4v" changeset="7877061">
    <nd ref="1242615485"/>
    <nd ref="1246713483"/>
    <tag k="addr:inclusion" v="potential"/>
    <tag k="addr:interpolation" v="odd"/>
    <tag k="source" v="wikipedia"/>
  </way>
  <way id="108279670" version="3" timestamp="2011-06-13T11:06:34Z" uid="66036" user="h4v" changeset="8424619"/>
  <way id="108279671" version="1" timestamp="2011-04-12T22:39:03Z" uid="66036" user="h4v" changeset="7847596">
    <nd ref="1242615707"/>
    <nd ref="1242615435"/>
    <tag k="addr:inclusion" v="potential"/>
    <tag k="addr:interpolation" v="even"/>
    <tag k="source" v="wikipedia"/>
  </way>
  <way id="108279672" version="1" timestamp="2011-04-12T22:39:03Z" uid="66036" user="h4v" changeset="7847596">
    <nd ref="1242615553"/>
    <nd ref="1242615594"/>
    <tag k="addr:inclusion" v="potential"/>
    <tag k="addr:interpolation" v="odd"/>
    <tag k="source" v="wikipedia"/>
  </way>
  <way id="108279672" version="2" timestamp="2011-05-23T22:16:40Z" uid="66036" user="h4v" changeset="8231105">
    <nd ref="1242615553"/>
    <nd ref="1297822217"/>
    <tag k="addr:inclusion" v="potential"/>
    <tag k="addr:interpolation" v="odd"/>
    <tag k="source" v="wikipedia"/>
  </way>
  <way id="108279673" version="1" timestamp="2011-04-12T22:39:03Z" uid="66036" user="h4v" changeset="7847596">
    <nd ref="1242615550"/>
    <nd ref="1242615510"/>
    <tag k="addr:inclusion" v="potential"/>
    <tag k="addr:interpolation" v="even"/>
    <tag k="source" v="wikipedia"/>
  </way>
  <way id="108279674" version="1" timestamp="2011-04-12T22:39:03Z" uid="66036" user="h4v" changeset="7847596">
    <nd ref="1242615637"/>
    <nd ref="1242615692"/>
    <nd ref="1242615705"/>
    <tag k="addr:inclusion" v="potential"/>
    <tag k="addr:interpolation" v="odd"/>
    <tag k="source" v="wikipedia"/>
  </way>
  <way id="108279675" version="1" timestamp="2011-04-12T22:39:04Z" uid="66036" user="h4v" changeset="7847596">
    <nd ref="1242615691"/>
    <nd ref="1242615423"/>
    <nd ref="1242615620"/>
    <nd ref="1242615710"/>
    <nd ref="1242615691"/>
    <tag k="amenity" v="school"/>
    <tag k="name" v="Gimnazjum nr 10"/>
    <tag k="source" v="wikipedia"/>
  </way>
  <way id="108279675" version="2" timestamp="2011-07-14T12:43:11Z" uid="488339" user="Borostwory" changeset="8721740">
    <nd ref="1242615691"/>
    <nd ref="1242615423"/>
    <nd ref="1361444280"/>
    <nd ref="1361444278"/>
    <nd ref="1361444282"/>
    <nd ref="1361444284"/>
    <nd ref="1242615620"/>
    <nd ref="1242615710"/>
    <nd ref="1242615691"/>
    <tag k="amenity" v="school"/>
    <tag k="name" v="Gimnazjum nr 10"/>
    <tag k="source" v="wikipedia"/>
  </way>
  <way id="108279676" version="1" timestamp="2011-04-12T22:39:04Z" uid="66036" user="h4v" changeset="7847596">
    <nd ref="1242615647"/>
    <nd ref="1242615412"/>
    <nd ref="1242615505"/>
    <nd ref="1242615706"/>
    <nd ref="1242615647"/>
    <tag k="source" v="wikipedia"/>
  </way>
  <way id="108279677" version="1" timestamp="2011-04-12T22:39:04Z" uid="66036" user="h4v" changeset="7847596">
    <nd ref="1242615642"/>
    <nd ref="1242615696"/>
    <nd ref="1242615566"/>
    <nd ref="1242615654"/>
    <nd ref="1242615494"/>
    <nd ref="1242615672"/>
    <nd ref="1242615533"/>
    <nd ref="1242615623"/>
    <nd ref="1242615460"/>
    <nd ref="1242615584"/>
    <nd ref="1242615426"/>
    <nd ref="1242615525"/>
    <nd ref="1242615642"/>
    <tag k="addr:housenumber" v="21"/>
    <tag k="building" v="yes"/>
    <tag k="name" v="Budynek Towarzystwa Kredytowego m. Łodzi"/>
    <tag k="source" v="wikipedia"/>
  </way>
  <way id="108279677" version="2" timestamp="2011-06-13T11:06:24Z" uid="66036" user="h4v" changeset="8424619">
    <nd ref="1242615642"/>
    <nd ref="1242615696"/>
    <nd ref="1242615566"/>
    <nd ref="1242615654"/>
    <nd ref="1242615494"/>
    <nd ref="1242615672"/>
    <nd ref="1242615533"/>
    <nd ref="1242615623"/>
    <nd ref="1242615460"/>
    <nd ref="1242615584"/>
    <nd ref="1242615426"/>
    <nd ref="1242615525"/>
    <nd ref="1242615642"/>
    <tag k="addr:housenumber" v="21"/>
    <tag k="building" v="yes"/>
    <tag k="heritage" v="2"/>
    <tag k="heritage:operator" v="nid"/>
    <tag k="historic" v="heritage"/>
    <tag k="name" v="Budynek Towarzystwa Kredytowego m. Łodzi"/>
    <tag k="ref:nid" v="A/89"/>
    <tag k="source" v="wikipedia"/>
  </way>
  <way id="108279677" version="3" timestamp="2011-06-30T06:20:39Z" uid="338611" user="marek kleciak" changeset="8587259">
    <nd ref="1242615642"/>
    <nd ref="1242615696"/>
    <nd ref="1344157540"/>
    <nd ref="1242615566"/>
    <nd ref="1242615654"/>
    <nd ref="1242615494"/>
    <nd ref="1242615672"/>
    <nd ref="1242615533"/>
    <nd ref="1242615623"/>
    <nd ref="1242615460"/>
    <nd ref="1242615584"/>
    <nd ref="1242615426"/>
    <nd ref="1242615525"/>
    <nd ref="1242615642"/>
    <tag k="addr:housenumber" v="21"/>
    <tag k="building" v="yes"/>
    <tag k="heritage" v="2"/>
    <tag k="heritage:operator" v="nid"/>
    <tag k="historic" v="heritage"/>
    <tag k="name" v="Budynek Towarzystwa Kredytowego m. Łodzi"/>
    <tag k="ref:nid" v="A/89"/>
    <tag k="source" v="wikipedia"/>
  </way>
  <way id="108279677" version="4" timestamp="2011-07-21T05:47:11Z" uid="338611" user="marek kleciak" changeset="8785066"/>
  <way id="108279678" version="1" timestamp="2011-04-12T22:39:04Z" uid="66036" user="h4v" changeset="7847596">
    <nd ref="1242615573"/>
    <nd ref="1242615409"/>
    <nd ref="1242615501"/>
    <nd ref="297915693"/>
    <nd ref="297915692"/>
    <nd ref="1192587285"/>
    <nd ref="1192587324"/>
    <nd ref="1192587339"/>
    <nd ref="1192587280"/>
    <nd ref="1192587283"/>
    <nd ref="1192587294"/>
    <nd ref="1242615573"/>
    <tag k="amenity" v="school"/>
    <tag k="name" v="III Liceum Ogólnokształcące im. Tadeusza Kościuszki"/>
    <tag k="source" v="wikipedia"/>
  </way>
  <way id="108279678" version="2" timestamp="2011-06-14T08:19:29Z" uid="66036" user="h4v" changeset="8434685">
    <nd ref="1242615573"/>
    <nd ref="1242615409"/>
    <nd ref="1242615501"/>
    <nd ref="297915693"/>
    <nd ref="297915692"/>
    <nd ref="1192587285"/>
    <nd ref="1192587324"/>
    <nd ref="1192587339"/>
    <nd ref="1192587280"/>
    <nd ref="1192587283"/>
    <nd ref="1192587294"/>
    <nd ref="1242615573"/>
    <tag k="amenity" v="school"/>
    <tag k="heritage" v="2"/>
    <tag k="heritage:operator" v="nid"/>
    <tag k="historic" v="heritage"/>
    <tag k="name" v="III Liceum Ogólnokształcące im. Tadeusza Kościuszki"/>
    <tag k="old_name" v="Miejskie Gimnazjum Męskie"/>
    <tag k="ref:nid" v="A/88"/>
    <tag k="source" v="wikipedia"/>
  </way>
  <way id="108279679" version="1" timestamp="2011-04-12T22:39:04Z" uid="66036" user="h4v" changeset="7847596">
    <nd ref="1242615477"/>
    <nd ref="1242615582"/>
    <nd ref="1242615413"/>
    <nd ref="1242615520"/>
    <nd ref="1242615477"/>
    <tag k="addr:housenumber" v="445"/>
    <tag k="amenity" v="place_of_worship"/>
    <tag k="building" v="yes"/>
    <tag k="denomination" v="catholic"/>
    <tag k="name" v="Kościół św. Doroty"/>
    <tag k="source" v="wikipedia"/>
    <tag k="tourism" v="attraction"/>
  </way>
  <way id="108279679" version="2" timestamp="2011-04-13T17:48:34Z" uid="70696" user="xybot" changeset="7853917">
    <nd ref="1242615477"/>
    <nd ref="1242615582"/>
    <nd ref="1242615413"/>
    <nd ref="1242615520"/>
    <nd ref="1242615477"/>
    <tag k="addr:housenumber" v="445"/>
    <tag k="amenity" v="place_of_worship"/>
    <tag k="building" v="yes"/>
    <tag k="denomination" v="catholic"/>
    <tag k="name" v="Kościół św. Doroty"/>
    <tag k="religion" v="christian"/>
    <tag k="source" v="wikipedia"/>
    <tag k="tourism" v="attraction"/>
  </way>
  <way id="108279679" version="3" timestamp="2011-04-16T22:12:45Z" uid="66036" user="h4v" changeset="7882749">
    <nd ref="1242615477"/>
    <nd ref="1242615582"/>
    <nd ref="1242615413"/>
    <nd ref="1242615520"/>
    <nd ref="1242615477"/>
    <tag k="addr:housenumber" v="445"/>
    <tag k="amenity" v="place_of_worship"/>
    <tag k="building" v="yes"/>
    <tag k="denomination" v="catholic"/>
    <tag k="heritage" v="2"/>
    <tag k="heritage:operator" v="kobidz"/>
    <tag k="kobidz:ref" v="A/151/141"/>
    <tag k="name" v="Kościół św. Doroty"/>
    <tag k="religion" v="christian"/>
    <tag k="source" v="wikipedia"/>
    <tag k="source:addr" v="wikipedia"/>
    <tag k="source:name" v="wikipedia"/>
    <tag k="tourism" v="attraction"/>
  </way>
  <way id="108279679" version="4" timestamp="2011-06-06T02:31:03Z" uid="20587" user="balrog-kun" changeset="8355886">
    <nd ref="1242615477"/>
    <nd ref="1242615582"/>
    <nd ref="1242615413"/>
    <nd ref="1242615520"/>
    <nd ref="1242615477"/>
    <tag k="addr:housenumber" v="445"/>
    <tag k="amenity" v="place_of_worship"/>
    <tag k="building" v="yes"/>
    <tag k="denomination" v="catholic"/>
    <tag k="heritage" v="2"/>
    <tag k="heritage:operator" v="kobidz"/>
    <tag k="kobidz:ref" v="A/151/141"/>
    <tag k="name" v="Kościół świętej Doroty"/>
    <tag k="religion" v="christian"/>
    <tag k="source" v="wikipedia"/>
    <tag k="source:addr" v="wikipedia"/>
    <tag k="source:name" v="wikipedia"/>
    <tag k="tourism" v="attraction"/>
  </way>
  <way id="108279679" version="5" timestamp="2011-06-10T21:26:33Z" uid="66036" user="h4v" changeset="8401181">
    <nd ref="1242615477"/>
    <nd ref="1242615582"/>
    <nd ref="1242615413"/>
    <nd ref="1242615520"/>
    <nd ref="1242615477"/>
    <tag k="addr:housenumber" v="445"/>
    <tag k="amenity" v="place_of_worship"/>
    <tag k="building" v="yes"/>
    <tag k="denomination" v="catholic"/>
    <tag k="heritage" v="2"/>
    <tag k="heritage:operator" v="nid"/>
    <tag k="name" v="Kościół świętej Doroty"/>
    <tag k="ref:nid" v="A/151/141"/>
    <tag k="religion" v="christian"/>
    <tag k="source" v="wikipedia"/>
    <tag k="source:addr" v="wikipedia"/>
    <tag k="source:name" v="wikipedia"/>
    <tag k="tourism" v="attraction"/>
  </way>
  <way id="108279680" version="1" timestamp="2011-04-12T22:39:05Z" uid="66036" user="h4v" changeset="7847596">
    <nd ref="1242615561"/>
    <nd ref="1242615688"/>
    <tag k="addr:inclusion" v="potential"/>
    <tag k="addr:interpolation" v="even"/>
    <tag k="source" v="wikipedia"/>
  </way>
  <way id="108279681" version="1" timestamp="2011-04-12T22:39:05Z" uid="66036" user="h4v" changeset="7847596">
    <nd ref="1242615683"/>
    <nd ref="1242615406"/>
    <nd ref="1242615487"/>
    <nd ref="1242615694"/>
    <nd ref="1242615530"/>
    <nd ref="1242615400"/>
    <nd ref="1242615683"/>
    <tag k="addr:housenumber" v="8/10"/>
    <tag k="building" v="school"/>
    <tag k="source" v="wikipedia"/>
  </way>
  <way id="108279682" version="1" timestamp="2011-04-12T22:39:05Z" uid="66036" user="h4v" changeset="7847596">
    <nd ref="1242615471"/>
    <nd ref="1242615574"/>
    <tag k="addr:inclusion" v="potential"/>
    <tag k="addr:interpolation" v="odd"/>
    <tag k="source" v="wikipedia"/>
  </way>
  <way id="108279682" version="2" timestamp="2011-06-17T20:50:12Z" uid="66036" user="h4v" changeset="8468449">
    <nd ref="1242615471"/>
    <nd ref="1328918895"/>
    <nd ref="1242615574"/>
    <tag k="addr:inclusion" v="potential"/>
    <tag k="addr:interpolation" v="odd"/>
    <tag k="source" v="wikipedia"/>
  </way>
  <way id="108279683" version="1" timestamp="2011-04-12T22:39:05Z" uid="66036" user="h4v" changeset="7847596">
    <nd ref="1242615645"/>
    <nd ref="1242615612"/>
    <tag k="addr:inclusion" v="potential"/>
    <tag k="addr:interpolation" v="odd"/>
    <tag k="source" v="wikipedia"/>
  </way>
  <way id="108279684" version="1" timestamp="2011-04-12T22:39:05Z" uid="66036" user="h4v" changeset="7847596">
    <nd ref="1242615442"/>
    <nd ref="1242615661"/>
    <nd ref="1242615626"/>
    <tag k="addr:inclusion" v="potential"/>
    <tag k="addr:interpolation" v="even"/>
    <tag k="source" v="wikipedia"/>
  </way>
  <way id="108279684" version="2" timestamp="2011-06-14T08:19:30Z" uid="66036" user="h4v" changeset="8434685">
    <nd ref="1242615442"/>
    <nd ref="1324631921"/>
    <tag k="addr:inclusion" v="potential"/>
    <tag k="addr:interpolation" v="even"/>
    <tag k="source" v="wikipedia"/>
  </way>
  <way id="108279685" version="1" timestamp="2011-04-12T22:39:05Z" uid="66036" user="h4v" changeset="7847596">
    <nd ref="1242615686"/>
    <nd ref="1242615540"/>
    <tag k="highway" v="service"/>
    <tag k="source" v="wikipedia"/>
  </way>
  <way id="108279686" version="1" timestamp="2011-04-12T22:39:06Z" uid="66036" user="h4v" changeset="7847596">
    <nd ref="1242615444"/>
    <nd ref="1242615619"/>
    <nd ref="1242615689"/>
    <nd ref="1242615708"/>
    <nd ref="1242615457"/>
    <nd ref="1242615578"/>
    <nd ref="1242615515"/>
    <tag k="addr:inclusion" v="potential"/>
    <tag k="addr:interpolation" v="even"/>
  </way>
  <way id="108279686" version="2" timestamp="2011-04-13T21:54:43Z" uid="66036" user="h4v" changeset="7856409">
    <nd ref="1242615444"/>
    <nd ref="1242615619"/>
    <nd ref="1242615689"/>
    <nd ref="1242615708"/>
    <nd ref="1242615457"/>
    <nd ref="1243840348"/>
    <tag k="addr:inclusion" v="potential"/>
    <tag k="addr:interpolation" v="even"/>
    <tag k="source:addr" v="wikipedia"/>
    <tag k="source:name" v="wikipedia"/>
  </way>
  <way id="108279686" version="3" timestamp="2011-04-16T10:29:55Z" uid="66036" user="h4v" changeset="7877061">
    <nd ref="1242615444"/>
    <nd ref="1246713537"/>
    <tag k="addr:inclusion" v="potential"/>
    <tag k="addr:interpolation" v="even"/>
    <tag k="source:addr" v="wikipedia"/>
    <tag k="source:name" v="wikipedia"/>
  </way>
  <way id="108279686" version="4" timestamp="2011-06-13T11:06:34Z" uid="66036" user="h4v" changeset="8424619"/>
  <way id="108279687" version="1" timestamp="2011-04-12T22:39:06Z" uid="66036" user="h4v" changeset="7847596">
    <nd ref="1242615721"/>
    <nd ref="1242615447"/>
    <tag k="addr:inclusion" v="potential"/>
    <tag k="addr:interpolation" v="odd"/>
    <tag k="source" v="wikipedia"/>
  </way>
  <way id="108279688" version="1" timestamp="2011-04-12T22:39:06Z" uid="66036" user="h4v" changeset="7847596">
    <nd ref="1242615652"/>
    <nd ref="1242615709"/>
    <nd ref="1242615580"/>
    <nd ref="1242615658"/>
    <nd ref="1242615652"/>
    <tag k="addr:housenumber" v="437"/>
    <tag k="amenity" v="school"/>
    <tag k="building" v="yes"/>
    <tag k="name" v="Szkoła Podstawowa nr 203"/>
    <tag k="source" v="wikipedia"/>
  </way>
  <way id="108279689" version="1" timestamp="2011-04-12T22:39:06Z" uid="66036" user="h4v" changeset="7847596">
    <nd ref="1242615482"/>
    <nd ref="1242615632"/>
    <nd ref="1242615719"/>
    <nd ref="1242615592"/>
    <nd ref="1242615482"/>
    <tag k="leisure" v="pitch"/>
    <tag k="source" v="wikipedia"/>
  </way>
  <way id="108279690" version="1" timestamp="2011-04-12T22:39:07Z" uid="66036" user="h4v" changeset="7847596">
    <nd ref="1242615671"/>
    <nd ref="1242615569"/>
    <tag k="addr:inclusion" v="potential"/>
    <tag k="addr:interpolation" v="even"/>
    <tag k="source" v="wikipedia"/>
  </way>
  <way id="108279691" version="1" timestamp="2011-04-12T22:39:07Z" uid="66036" user="h4v" changeset="7847596">
    <nd ref="1242615655"/>
    <nd ref="1242615402"/>
    <tag k="addr:inclusion" v="potential"/>
    <tag k="addr:interpolation" v="odd"/>
    <tag k="source" v="wikipedia"/>
  </way>
  <way id="108279693" version="1" timestamp="2011-04-12T22:39:07Z" uid="66036" user="h4v" changeset="7847596">
    <nd ref="1242615467"/>
    <nd ref="1242615427"/>
    <tag k="addr:inclusion" v="potential"/>
    <tag k="addr:interpolation" v="even"/>
    <tag k="source" v="wikipedia"/>
  </way>
  <way id="108279693" version="2" timestamp="2011-07-22T12:22:44Z" uid="338611" user="marek kleciak" changeset="8797239">
    <nd ref="1242615467"/>
    <nd ref="1369934197"/>
    <nd ref="1242615427"/>
    <tag k="addr:inclusion" v="potential"/>
    <tag k="addr:interpolation" v="even"/>
    <tag k="source" v="wikipedia"/>
  </way>
  <way id="108279694" version="1" timestamp="2011-04-12T22:39:07Z" uid="66036" user="h4v" changeset="7847596">
    <nd ref="1242615673"/>
    <nd ref="1242615430"/>
    <nd ref="1242615488"/>
    <nd ref="1242615640"/>
    <nd ref="1242615673"/>
    <tag k="source" v="wikipedia"/>
  </way>
  <way id="108279695" version="1" timestamp="2011-04-12T22:39:07Z" uid="66036" user="h4v" changeset="7847596">
    <nd ref="1242615509"/>
    <nd ref="1242615607"/>
    <nd ref="1242615680"/>
    <nd ref="1242615537"/>
    <nd ref="1242615630"/>
    <nd ref="1242615463"/>
    <nd ref="1242615591"/>
    <nd ref="1242615428"/>
    <nd ref="1242615614"/>
    <nd ref="1242615453"/>
    <nd ref="1242615544"/>
    <nd ref="1242615404"/>
    <nd ref="1242615509"/>
    <tag k="addr:housenumber" v="16"/>
    <tag k="building" v="yes"/>
    <tag k="source" v="wikipedia"/>
  </way>
  <way id="108279695" version="2" timestamp="2011-06-13T11:06:26Z" uid="66036" user="h4v" changeset="8424619">
    <nd ref="1242615509"/>
    <nd ref="1242615607"/>
    <nd ref="1242615680"/>
    <nd ref="1242615537"/>
    <nd ref="1242615630"/>
    <nd ref="1242615463"/>
    <nd ref="1242615591"/>
    <nd ref="1242615428"/>
    <nd ref="1242615614"/>
    <nd ref="1242615453"/>
    <nd ref="1242615544"/>
    <nd ref="1242615404"/>
    <nd ref="1242615509"/>
    <tag k="addr:housenumber" v="16"/>
    <tag k="building" v="yes"/>
    <tag k="heritage" v="2"/>
    <tag k="heritage:operator" v="nid"/>
    <tag k="historic" v="heritage"/>
    <tag k="old_name" v="Gimnazjum Żeńskie"/>
    <tag k="ref:nid" v="A/289"/>
    <tag k="source" v="wikipedia"/>
  </way>
  <way id="108279695" version="3" timestamp="2012-03-04T22:47:20Z" uid="73912" user="Jacek_lodz" changeset="10874938">
    <nd ref="1242615509"/>
    <nd ref="1242615607"/>
    <nd ref="1242615680"/>
    <nd ref="1242615537"/>
    <nd ref="1242615630"/>
    <nd ref="1242615463"/>
    <nd ref="1242615591"/>
    <nd ref="1242615428"/>
    <nd ref="1242615614"/>
    <nd ref="1242615453"/>
    <nd ref="1242615544"/>
    <nd ref="1242615404"/>
    <nd ref="1242615509"/>
    <tag k="addr:housenumber" v="16"/>
    <tag k="building" v="yes"/>
    <tag k="heritage" v="2"/>
    <tag k="heritage:operator" v="nid"/>
    <tag k="historic" v="heritage"/>
    <tag k="old_name" v="Gimnazjum Żeńskie"/>
    <tag k="ref:nid" v="A/289"/>
    <tag k="source" v="wikipedia"/>
    <tag k="tourism" v="attraction"/>
  </way>
  <way id="108279696" version="1" timestamp="2011-04-12T22:39:14Z" uid="16922" user="amai" changeset="7847597">
    <nd ref="1242615434"/>
    <nd ref="1242615824"/>
    <tag k="bridge" v="yes"/>
    <tag k="highway" v="road"/>
    <tag k="source" v="Bing"/>
  </way>
  <way id="108279697" version="1" timestamp="2011-04-12T22:39:14Z" uid="16922" user="amai" changeset="7847597">
    <nd ref="1242615824"/>
    <nd ref="1242615541"/>
    <nd ref="1242615449"/>
    <nd ref="1242615774"/>
    <nd ref="1242615536"/>
    <nd ref="1242615478"/>
    <nd ref="1242615836"/>
    <nd ref="1242615475"/>
    <nd ref="1242615913"/>
    <nd ref="1242615602"/>
    <nd ref="1242615599"/>
    <nd ref="1242615504"/>
    <nd ref="1242615512"/>
    <nd ref="1242615846"/>
    <nd ref="1242615741"/>
    <nd ref="1242615738"/>
    <nd ref="1242615589"/>
    <nd ref="1242615565"/>
    <nd ref="1242615924"/>
    <nd ref="1242615762"/>
    <nd ref="1242615744"/>
    <nd ref="1242615628"/>
    <nd ref="1242615590"/>
    <nd ref="1242615735"/>
    <nd ref="1242615884"/>
    <nd ref="1242615714"/>
    <nd ref="1242615643"/>
    <nd ref="1242615648"/>
    <nd ref="1242615718"/>
    <nd ref="1242615888"/>
    <nd ref="1242615962"/>
    <nd ref="1242615823"/>
    <nd ref="1242615703"/>
    <nd ref="1242615960"/>
    <nd ref="1242615664"/>
    <nd ref="1242615814"/>
    <nd ref="1242615894"/>
    <nd ref="1242615895"/>
    <nd ref="1242615456"/>
    <nd ref="1242615539"/>
    <nd ref="1242615848"/>
    <nd ref="1242615898"/>
    <nd ref="1242615600"/>
    <nd ref="1242615682"/>
    <nd ref="1242615518"/>
    <nd ref="1242615791"/>
    <nd ref="1242615713"/>
    <nd ref="1242615862"/>
    <nd ref="1242615786"/>
    <nd ref="1242615965"/>
    <nd ref="1242615903"/>
    <nd ref="1242615875"/>
    <nd ref="1242615813"/>
    <nd ref="1242615473"/>
    <nd ref="1242615419"/>
    <nd ref="1242615837"/>
    <nd ref="1242615776"/>
    <nd ref="1242615825"/>
    <nd ref="1242615885"/>
    <nd ref="1242615410"/>
    <nd ref="1242615583"/>
    <nd ref="1242615804"/>
    <nd ref="1242615651"/>
    <nd ref="1242615695"/>
    <nd ref="1242615785"/>
    <nd ref="1242615756"/>
    <nd ref="1242615717"/>
    <nd ref="1242615609"/>
    <nd ref="1242615773"/>
    <nd ref="1242615749"/>
    <nd ref="1242615581"/>
    <nd ref="1242615452"/>
    <nd ref="1242615838"/>
    <nd ref="1242615843"/>
    <nd ref="1242615730"/>
    <nd ref="1242615613"/>
    <nd ref="1242615909"/>
    <nd ref="1242615415"/>
    <nd ref="1242615603"/>
    <nd ref="1242615420"/>
    <nd ref="1242615739"/>
    <nd ref="1242615459"/>
    <nd ref="1242615759"/>
    <nd ref="1242615817"/>
    <nd ref="1242615433"/>
    <nd ref="1242615575"/>
    <nd ref="1242615855"/>
    <nd ref="1242615842"/>
    <nd ref="1242615915"/>
    <nd ref="1242615408"/>
    <nd ref="1242615656"/>
    <nd ref="1242615931"/>
    <nd ref="1242615858"/>
    <nd ref="1242615820"/>
    <nd ref="1242615966"/>
    <nd ref="1242615610"/>
    <nd ref="1242615523"/>
    <nd ref="1242615450"/>
    <nd ref="1242615964"/>
    <nd ref="1242615916"/>
    <nd ref="1242615771"/>
    <nd ref="1242615876"/>
    <nd ref="1242615821"/>
    <nd ref="1242615908"/>
    <nd ref="1242615865"/>
    <nd ref="1242615611"/>
    <nd ref="1242615792"/>
    <nd ref="1242615899"/>
    <nd ref="1242615699"/>
    <nd ref="1242615757"/>
    <nd ref="1242615841"/>
    <nd ref="1242615615"/>
    <nd ref="1242615857"/>
    <nd ref="1242615724"/>
    <nd ref="1242615641"/>
    <nd ref="1242615646"/>
    <nd ref="1242615625"/>
    <nd ref="1242615864"/>
    <nd ref="1242615847"/>
    <nd ref="1242615869"/>
    <nd ref="1242615446"/>
    <nd ref="1242615588"/>
    <nd ref="1242615736"/>
    <nd ref="1242615918"/>
    <nd ref="1242615748"/>
    <nd ref="1242615666"/>
    <nd ref="1242615767"/>
    <nd ref="1242615437"/>
    <nd ref="1242615726"/>
    <nd ref="1242615854"/>
    <nd ref="1242615448"/>
    <nd ref="1242615663"/>
    <nd ref="1242615893"/>
    <nd ref="1242615516"/>
    <nd ref="1242615911"/>
    <nd ref="1242615528"/>
    <nd ref="1242615627"/>
    <nd ref="1242615752"/>
    <nd ref="1242615424"/>
    <nd ref="1242615535"/>
    <nd ref="1242615653"/>
    <nd ref="1242615466"/>
    <nd ref="1242615760"/>
    <nd ref="1242615872"/>
    <nd ref="1242615882"/>
    <nd ref="1242615416"/>
    <nd ref="1242615765"/>
    <nd ref="1242615624"/>
    <nd ref="1242615439"/>
    <nd ref="1242615469"/>
    <nd ref="1242615436"/>
    <nd ref="1242615617"/>
    <nd ref="1242615905"/>
    <nd ref="1242615866"/>
    <nd ref="1242615768"/>
    <nd ref="1242615634"/>
    <nd ref="1242615868"/>
    <nd ref="1242615481"/>
    <nd ref="1242615799"/>
    <nd ref="1242615879"/>
    <nd ref="1242615728"/>
    <nd ref="1242615462"/>
    <nd ref="1242615746"/>
    <nd ref="1242615484"/>
    <nd ref="1242615670"/>
    <nd ref="1242615932"/>
    <nd ref="1242615601"/>
    <nd ref="1242615562"/>
    <nd ref="1242615904"/>
    <nd ref="1242615856"/>
    <nd ref="1242615598"/>
    <tag k="highway" v="road"/>
    <tag k="source" v="Bing"/>
  </way>
  <way id="108279698" version="1" timestamp="2011-04-12T22:39:17Z" uid="16922" user="amai" changeset="7847597">
    <nd ref="1242615827"/>
    <nd ref="1242615668"/>
    <nd ref="1242615859"/>
    <nd ref="1242615921"/>
    <nd ref="1242615917"/>
    <nd ref="1242615639"/>
    <nd ref="1242615782"/>
    <nd ref="1242615526"/>
    <nd ref="1242615802"/>
    <nd ref="1242615534"/>
    <nd ref="1242615711"/>
    <nd ref="1242615883"/>
    <nd ref="1242615920"/>
    <nd ref="1242615787"/>
    <nd ref="1242615556"/>
    <nd ref="1242615907"/>
    <nd ref="1242615405"/>
    <nd ref="1242615925"/>
    <nd ref="1242615483"/>
    <nd ref="1242615793"/>
    <nd ref="1242615618"/>
    <nd ref="1242615543"/>
    <nd ref="1242615716"/>
    <nd ref="1242615567"/>
    <nd ref="1242615827"/>
    <tag k="natural" v="water"/>
    <tag k="source" v="Bing"/>
  </way>
  <way id="108279699" version="1" timestamp="2011-04-12T22:39:17Z" uid="16922" user="amai" changeset="7847597">
    <nd ref="1163116809"/>
    <nd ref="1242615697"/>
    <nd ref="1242615740"/>
    <nd ref="1242615587"/>
    <nd ref="1242615873"/>
    <nd ref="1242615887"/>
    <nd ref="1242615679"/>
    <nd ref="1242615489"/>
    <nd ref="1242615636"/>
    <nd ref="1242615780"/>
    <nd ref="1242615897"/>
    <nd ref="1242615831"/>
    <nd ref="1242615929"/>
    <nd ref="1242615812"/>
    <nd ref="1242615596"/>
    <nd ref="1242615950"/>
    <nd ref="1242615944"/>
    <nd ref="1242615896"/>
    <nd ref="1242615486"/>
    <nd ref="1242615938"/>
    <nd ref="1242615506"/>
    <nd ref="1242615500"/>
    <nd ref="1242615737"/>
    <nd ref="1242615572"/>
    <nd ref="1242615438"/>
    <nd ref="1242615957"/>
    <nd ref="1242615662"/>
    <nd ref="1242615769"/>
    <nd ref="1242615778"/>
    <nd ref="1242615491"/>
    <nd ref="1242615798"/>
    <nd ref="1242615547"/>
    <nd ref="1242615877"/>
    <nd ref="1242615942"/>
    <nd ref="1242615849"/>
    <nd ref="1242615720"/>
    <nd ref="1242615946"/>
    <nd ref="1242615766"/>
    <nd ref="1242615702"/>
    <nd ref="1242615559"/>
    <nd ref="1242615660"/>
    <nd ref="1242615579"/>
    <nd ref="1242615555"/>
    <nd ref="1242615805"/>
    <nd ref="1242615797"/>
    <nd ref="1242615502"/>
    <nd ref="1242615678"/>
    <nd ref="1242615521"/>
    <nd ref="1242615781"/>
    <nd ref="1242615810"/>
    <nd ref="1242615940"/>
    <nd ref="1242615826"/>
    <nd ref="1242615751"/>
    <nd ref="1242615704"/>
    <nd ref="1242615701"/>
    <nd ref="1242615758"/>
    <nd ref="1242615789"/>
    <nd ref="1242615753"/>
    <nd ref="1242615443"/>
    <nd ref="1242615833"/>
    <nd ref="1242615421"/>
    <nd ref="1242615445"/>
    <nd ref="1242615816"/>
    <nd ref="1242615819"/>
    <nd ref="1242615750"/>
    <nd ref="1242615844"/>
    <nd ref="1242615927"/>
    <nd ref="1242615495"/>
    <nd ref="1242615853"/>
    <nd ref="1242615429"/>
    <nd ref="1242615881"/>
    <nd ref="1242615806"/>
    <nd ref="1242615801"/>
    <nd ref="1242615870"/>
    <nd ref="1242615948"/>
    <nd ref="1242615777"/>
    <nd ref="1242615633"/>
    <nd ref="1242615832"/>
    <nd ref="1242615597"/>
    <nd ref="1242615906"/>
    <nd ref="1242615934"/>
    <nd ref="1242615468"/>
    <nd ref="1242615727"/>
    <nd ref="1242615497"/>
    <nd ref="1242615878"/>
    <nd ref="1242615432"/>
    <nd ref="1242615687"/>
    <nd ref="1242615676"/>
    <nd ref="1242615951"/>
    <nd ref="1242615677"/>
    <nd ref="1242615834"/>
    <nd ref="1242615685"/>
    <nd ref="1242615631"/>
    <nd ref="1242615867"/>
    <nd ref="1242615755"/>
    <nd ref="1242615889"/>
    <nd ref="1242615458"/>
    <nd ref="1242615770"/>
    <nd ref="1242615693"/>
    <nd ref="1242615464"/>
    <nd ref="1242615723"/>
    <nd ref="1242615729"/>
    <nd ref="1242615417"/>
    <nd ref="1242615731"/>
    <nd ref="1242615828"/>
    <nd ref="1242615434"/>
    <tag k="highway" v="road"/>
    <tag k="source" v="Bing"/>
  </way>
</osm>
