<?xml version='1.0' encoding='UTF-8'?>
<osm version="0.6" generator="libosmium/2.20.0">
  <way id="108394328" version="1" timestamp="2011-04-13T23:24:23Z" uid="66036" user="h4v" changeset="7856872">
    <nd ref="428961048"/>
    <nd ref="1243882374"/>
    <nd ref="428961052"/>
    <nd ref="1243882416"/>
    <nd ref="428961004"/>
    <nd ref="1243882367"/>
    <nd ref="428961011"/>
    <nd ref="1206773658"/>
    <nd ref="1243882371"/>
    <nd ref="1206773630"/>
    <nd ref="428961021"/>
    <nd ref="428961020"/>
    <nd ref="428961018"/>
    <nd ref="1243882377"/>
    <nd ref="428961033"/>
    <nd ref="1243882373"/>
    <nd ref="1243882420"/>
    <nd ref="1243882384"/>
    <nd ref="1243882400"/>
    <nd ref="440009069"/>
    <nd ref="1243882396"/>
    <nd ref="297867829"/>
    <nd ref="440009070"/>
    <nd ref="1243882393"/>
    <nd ref="1243882385"/>
    <nd ref="428961050"/>
    <nd ref="428961051"/>
    <nd ref="428961044"/>
    <nd ref="428961043"/>
    <nd ref="428961047"/>
    <nd ref="428961046"/>
    <nd ref="428961045"/>
    <nd ref="428961048"/>
    <tag k="area" v="yes"/>
    <tag k="highway" v="pedestrian"/>
    <tag k="name" v="Rynek Manufaktury"/>
  </way>
  <way id="108394329" version="1" timestamp="2011-04-13T23:24:24Z" uid="66036" user="h4v" changeset="7856872">
    <nd ref="1243882394"/>
    <nd ref="1243882421"/>
    <tag k="railway" v="platform"/>
  </way>
  <way id="108394330" version="1" timestamp="2011-04-13T23:24:24Z" uid="66036" user="h4v" changeset="7856872">
    <nd ref="1243882375"/>
    <nd ref="1243882365"/>
    <tag k="railway" v="platform"/>
  </way>
  <way id="108394331" version="1" timestamp="2011-04-13T23:24:24Z" uid="66036" user="h4v" changeset="7856872">
    <nd ref="510605556"/>
    <nd ref="1243882381"/>
    <tag k="highway" v="footway"/>
  </way>
  <way id="108394332" version="1" timestamp="2011-04-13T23:24:24Z" uid="66036" user="h4v" changeset="7856872">
    <nd ref="1243882418"/>
    <nd ref="1243882395"/>
    <nd ref="1243882381"/>
    <nd ref="1243882368"/>
    <nd ref="1243882383"/>
    <nd ref="1243882378"/>
    <nd ref="1243882398"/>
    <nd ref="1243882399"/>
    <nd ref="1243882363"/>
    <nd ref="1243882369"/>
    <nd ref="1243882376"/>
    <nd ref="1243882386"/>
    <nd ref="1243882418"/>
    <tag k="area" v="yes"/>
    <tag k="highway" v="pedestrian"/>
  </way>
  <way id="108394332" version="2" timestamp="2011-12-02T21:43:39Z" uid="338611" user="marek kleciak" changeset="10020367">
    <nd ref="1243882418"/>
    <nd ref="1243882395"/>
    <nd ref="1243882381"/>
    <nd ref="1243882368"/>
    <nd ref="1528845093"/>
    <nd ref="1243882383"/>
    <nd ref="1528845106"/>
    <nd ref="1243882378"/>
    <nd ref="1243882398"/>
    <nd ref="1528845068"/>
    <nd ref="1243882399"/>
    <nd ref="1528845160"/>
    <nd ref="1243882363"/>
    <nd ref="1243882369"/>
    <nd ref="1243882376"/>
    <nd ref="1528845115"/>
    <nd ref="1243882386"/>
    <nd ref="1528845064"/>
    <nd ref="1528845123"/>
    <nd ref="1243882418"/>
    <tag k="area" v="yes"/>
    <tag k="highway" v="pedestrian"/>
  </way>
  <way id="108394333" version="1" timestamp="2011-04-13T23:24:24Z" uid="66036" user="h4v" changeset="7856872">
    <nd ref="1243882409"/>
    <nd ref="1243882385"/>
    <nd ref="1243882366"/>
    <tag k="highway" v="footway"/>
  </way>
  <way id="108394718" version="1" timestamp="2011-04-13T23:36:21Z" uid="30632" user="antblant" changeset="7856924">
    <nd ref="1243885378"/>
    <nd ref="1243885381"/>
    <nd ref="1243885380"/>
    <nd ref="1243885379"/>
    <nd ref="1243885378"/>
    <tag k="landuse" v="allotments"/>
    <tag k="name" v="Rodzinny Ogród Działkowy imienia Powstańców Wielkopolskich"/>
    <tag k="website" v="http://www.rodpowstancowwielkopolskich.pl/"/>
  </way>
  <way id="108394724" version="1" timestamp="2011-04-13T23:39:57Z" uid="6269" user="Mueck" changeset="7856666">
    <nd ref="1243885805"/>
    <nd ref="1243885807"/>
    <nd ref="1243885806"/>
    <nd ref="1243885808"/>
    <nd ref="1243885805"/>
    <tag k="addr:city" v="Karlsruhe"/>
    <tag k="addr:country" v="DE"/>
    <tag k="addr:housename" v="Cimbernhaus"/>
    <tag k="addr:housenumber" v="2"/>
    <tag k="addr:postcode" v="76131"/>
    <tag k="addr:street" v="Stephanienstraße"/>
    <tag k="amenity" v="fraternity"/>
    <tag k="building" v="yes"/>
    <tag k="building:use" v="dormitory"/>
    <tag k="name" v="L! Cimbria-Fidelitas"/>
    <tag k="verbindung:art" v="Landsmannschaft"/>
    <tag k="verbindung:couleur" v="farbentragend"/>
    <tag k="verbindung:fechten" v="pflichtschlagend"/>
    <tag k="verbindung:konfession" v="nein"/>
    <tag k="verbindung:mitglieder" v="männlich"/>
    <tag k="verbindung:typ" v="akademisch"/>
    <tag k="verbindung:verband" v="CC"/>
    <tag k="website" v="http://www.cimbria-fidelitas.de/"/>
  </way>
  <way id="108394724" version="2" timestamp="2011-04-13T23:55:07Z" uid="6269" user="Mueck" changeset="7856666">
    <nd ref="1243885805"/>
    <nd ref="1243885807"/>
    <nd ref="1243885806"/>
    <nd ref="1243885808"/>
    <nd ref="1243885805"/>
    <tag k="addr:city" v="Karlsruhe"/>
    <tag k="addr:country" v="DE"/>
    <tag k="addr:housename" v="Cimbernhaus"/>
    <tag k="addr:housenumber" v="2"/>
    <tag k="addr:postcode" v="76131"/>
    <tag k="addr:street" v="Stephanienstraße"/>
    <tag k="amenity" v="fraternity"/>
    <tag k="building" v="yes"/>
    <tag k="building:use" v="dormitory"/>
    <tag k="name" v="L! Cimbria-Fidelitas"/>
    <tag k="verbindung:art" v="Landsmannschaft"/>
    <tag k="verbindung:couleur" v="farbentragend"/>
    <tag k="verbindung:farben" v="grün-gold-rot"/>
    <tag k="verbindung:fechten" v="pflichtschlagend"/>
    <tag k="verbindung:konfession" v="nein"/>
    <tag k="verbindung:mitglieder" v="männlich"/>
    <tag k="verbindung:tramizu" v="l_cimbria-fidelitas_karlsruhe.html"/>
    <tag k="verbindung:typ" v="akademisch"/>
    <tag k="verbindung:verband" v="CC"/>
    <tag k="website" v="http://www.cimbria-fidelitas.de/"/>
  </way>
  <way id="108394724" version="3" timestamp="2011-04-14T00:56:53Z" uid="6269" user="Mueck" changeset="7857104">
    <nd ref="1243885805"/>
    <nd ref="1243885807"/>
    <nd ref="1243885806"/>
    <nd ref="1243885808"/>
    <nd ref="1243885805"/>
    <tag k="addr:city" v="Karlsruhe"/>
    <tag k="addr:country" v="DE"/>
    <tag k="addr:housename" v="Cimbernhaus"/>
    <tag k="addr:housenumber" v="2"/>
    <tag k="addr:postcode" v="76131"/>
    <tag k="addr:street" v="Stephanienstraße"/>
    <tag k="amenity" v="fraternity"/>
    <tag k="building" v="yes"/>
    <tag k="building:use" v="dormitory"/>
    <tag k="name" v="L! Cimbria-Fidelitas"/>
    <tag k="official_name" v="Landsmannschaft im Coburger Convent Cimbria-Fidelitas"/>
    <tag k="verbindung:art" v="Landsmannschaft"/>
    <tag k="verbindung:couleur" v="farbentragend"/>
    <tag k="verbindung:farben" v="grün-gold-rot"/>
    <tag k="verbindung:fechten" v="pflichtschlagend"/>
    <tag k="verbindung:konfession" v="nein"/>
    <tag k="verbindung:mitglieder" v="männlich"/>
    <tag k="verbindung:tramizu" v="l_cimbria-fidelitas_karlsruhe.html"/>
    <tag k="verbindung:typ" v="akademisch"/>
    <tag k="verbindung:verband" v="CC"/>
    <tag k="website" v="http://www.cimbria-fidelitas.de/"/>
  </way>
  <way id="108394724" version="4" timestamp="2011-04-14T20:52:23Z" uid="6269" user="Mueck" changeset="7865008">
    <nd ref="1243885805"/>
    <nd ref="1243885807"/>
    <nd ref="1243885806"/>
    <nd ref="1243885808"/>
    <nd ref="1243885805"/>
    <tag k="addr:city" v="Karlsruhe"/>
    <tag k="addr:country" v="DE"/>
    <tag k="addr:housename" v="Cimbernhaus"/>
    <tag k="addr:housenumber" v="2"/>
    <tag k="addr:postcode" v="76131"/>
    <tag k="addr:street" v="Stephanienstraße"/>
    <tag k="amenity" v="fraternity"/>
    <tag k="building" v="yes"/>
    <tag k="building:use" v="dormitory"/>
    <tag k="name" v="L! Cimbria-Fidelitas"/>
    <tag k="official_name" v="Landsmannschaft im Coburger Convent Cimbria-Fidelitas"/>
    <tag k="verbindung" v="haus"/>
    <tag k="verbindung:art" v="Landsmannschaft"/>
    <tag k="verbindung:couleur" v="farbentragend"/>
    <tag k="verbindung:farben" v="grün-gold-rot"/>
    <tag k="verbindung:fechten" v="pflichtschlagend"/>
    <tag k="verbindung:konfession" v="nein"/>
    <tag k="verbindung:mitglieder" v="männlich"/>
    <tag k="verbindung:tramizu" v="l_cimbria-fidelitas_karlsruhe.html"/>
    <tag k="verbindung:typ" v="akademisch"/>
    <tag k="verbindung:verband" v="CC"/>
    <tag k="website" v="http://www.cimbria-fidelitas.de/"/>
  </way>
  <way id="108394724" version="5" timestamp="2011-04-17T20:56:03Z" uid="212553" user="ARWIE" changeset="7891955">
    <nd ref="1243885805"/>
    <nd ref="1249024032"/>
    <nd ref="1249023887"/>
    <nd ref="1249024577"/>
    <nd ref="1243885806"/>
    <nd ref="1243885808"/>
    <nd ref="1243885805"/>
    <tag k="addr:city" v="Karlsruhe"/>
    <tag k="addr:country" v="DE"/>
    <tag k="addr:housename" v="Cimbernhaus"/>
    <tag k="addr:housenumber" v="2"/>
    <tag k="addr:postcode" v="76131"/>
    <tag k="addr:street" v="Stephanienstraße"/>
    <tag k="amenity" v="fraternity"/>
    <tag k="building" v="yes"/>
    <tag k="building:use" v="dormitory"/>
    <tag k="name" v="L! Cimbria-Fidelitas"/>
    <tag k="official_name" v="Landsmannschaft im Coburger Convent Cimbria-Fidelitas"/>
    <tag k="verbindung" v="haus"/>
    <tag k="verbindung:art" v="Landsmannschaft"/>
    <tag k="verbindung:couleur" v="farbentragend"/>
    <tag k="verbindung:farben" v="grün-gold-rot"/>
    <tag k="verbindung:fechten" v="pflichtschlagend"/>
    <tag k="verbindung:konfession" v="nein"/>
    <tag k="verbindung:mitglieder" v="männlich"/>
    <tag k="verbindung:tramizu" v="l_cimbria-fidelitas_karlsruhe.html"/>
    <tag k="verbindung:typ" v="akademisch"/>
    <tag k="verbindung:verband" v="CC"/>
    <tag k="website" v="http://www.cimbria-fidelitas.de/"/>
  </way>
</osm>
