<?xml version='1.0' encoding='UTF-8'?>
<osm version="0.6" generator="libosmium/2.20.0">
  <way id="10845000" version="3" timestamp="2009-12-04T05:16:34Z" uid="30201" user="rrankin" changeset="3285963">
    <nd ref="96336662"/>
    <nd ref="96336669"/>
    <nd ref="96336704"/>
    <nd ref="96336561"/>
    <tag k="highway" v="residential"/>
    <tag k="name" v="Nolan Crescent"/>
    <tag k="source" v="yahoo_imagery"/>
  </way>
  <way id="10845000" version="4" timestamp="2010-07-08T00:59:37Z" uid="74617" user="JohnSmith" changeset="5162525">
    <nd ref="96336662"/>
    <nd ref="96336669"/>
    <nd ref="96336704"/>
    <nd ref="96336561"/>
    <tag k="highway" v="residential"/>
    <tag k="maxspeed" v="50"/>
    <tag k="maxspeed:source" v="default residential speed limit in Australia"/>
    <tag k="name" v="Nolan Crescent"/>
    <tag k="source" v="yahoo_imagery"/>
  </way>
  <way id="10845000" version="5" timestamp="2012-01-15T10:20:09Z" uid="147510" user="woodpeck_fixbot" changeset="10395278">
    <nd ref="96336662"/>
    <nd ref="96336669"/>
    <nd ref="96336704"/>
    <nd ref="96336561"/>
    <tag k="highway" v="residential"/>
    <tag k="name" v="Nolan Crescent"/>
    <tag k="source" v="yahoo_imagery"/>
  </way>
  <way id="10845002" version="2" timestamp="2008-09-28T08:05:46Z" uid="61114" user="Trav" changeset="709191">
    <nd ref="96336678"/>
    <nd ref="96336700"/>
    <nd ref="96336690"/>
    <tag k="abutters" v="residential"/>
    <tag k="created_by" v="Merkaartor 0.13"/>
    <tag k="highway" v="service"/>
    <tag k="name" v="Burke Lane"/>
    <tag k="source" v="yahoo_imagery"/>
    <tag k="source:name" v="survey"/>
  </way>
  <way id="10845002" version="3" timestamp="2009-12-04T05:16:26Z" uid="30201" user="rrankin" changeset="3285963">
    <nd ref="96336678"/>
    <nd ref="96336700"/>
    <nd ref="96336690"/>
    <tag k="highway" v="service"/>
    <tag k="name" v="Burke Lane"/>
    <tag k="source" v="yahoo_imagery"/>
    <tag k="source:name" v="survey"/>
  </way>
  <way id="10845003" version="2" timestamp="2008-09-28T08:05:46Z" uid="61114" user="Trav" changeset="709191">
    <nd ref="96336700"/>
    <nd ref="96336704"/>
    <tag k="abutters" v="residential"/>
    <tag k="created_by" v="Merkaartor 0.13"/>
    <tag k="highway" v="service"/>
    <tag k="name" v="Crowley Lane"/>
    <tag k="source" v="yahoo_imagery"/>
    <tag k="source:name" v="survey"/>
  </way>
  <way id="10845003" version="3" timestamp="2009-12-04T05:16:26Z" uid="30201" user="rrankin" changeset="3285963">
    <nd ref="96336700"/>
    <nd ref="96336704"/>
    <tag k="highway" v="service"/>
    <tag k="name" v="Crowley Lane"/>
    <tag k="source" v="yahoo_imagery"/>
    <tag k="source:name" v="survey"/>
  </way>
  <way id="10845004" version="2" timestamp="2009-12-04T05:16:44Z" uid="30201" user="rrankin" changeset="3285963">
    <nd ref="96336476"/>
    <nd ref="96336709"/>
    <nd ref="96336760"/>
    <nd ref="96336716"/>
    <nd ref="96327201"/>
    <tag k="highway" v="residential"/>
    <tag k="name" v="Ruth Street"/>
    <tag k="source" v="yahoo_imagery"/>
    <tag k="source:name" v="historical"/>
  </way>
  <way id="10845004" version="3" timestamp="2010-07-08T00:58:57Z" uid="74617" user="JohnSmith" changeset="5162525">
    <nd ref="96336476"/>
    <nd ref="96336709"/>
    <nd ref="96336760"/>
    <nd ref="96336716"/>
    <nd ref="96327201"/>
    <tag k="highway" v="residential"/>
    <tag k="maxspeed" v="50"/>
    <tag k="maxspeed:source" v="default residential speed limit in Australia"/>
    <tag k="name" v="Ruth Street"/>
    <tag k="source" v="yahoo_imagery"/>
    <tag k="source:name" v="historical"/>
  </way>
  <way id="10845004" version="4" timestamp="2011-10-13T12:41:01Z" uid="162096" user="Daz" changeset="9546105">
    <nd ref="96336476"/>
    <nd ref="96336709"/>
    <nd ref="96336760"/>
    <nd ref="96336716"/>
    <nd ref="96327201"/>
    <tag k="highway" v="residential"/>
    <tag k="lcn" v="yes"/>
    <tag k="maxspeed" v="50"/>
    <tag k="maxspeed:source" v="default residential speed limit in Australia"/>
    <tag k="name" v="Ruth Street"/>
    <tag k="source" v="yahoo_imagery"/>
    <tag k="source:name" v="historical"/>
  </way>
  <way id="10845004" version="5" timestamp="2012-01-15T10:20:10Z" uid="147510" user="woodpeck_fixbot" changeset="10395278">
    <nd ref="96336476"/>
    <nd ref="96336709"/>
    <nd ref="96336760"/>
    <nd ref="96336716"/>
    <nd ref="96327201"/>
    <tag k="highway" v="residential"/>
    <tag k="lcn" v="yes"/>
    <tag k="name" v="Ruth Street"/>
    <tag k="source" v="yahoo_imagery"/>
    <tag k="source:name" v="historical"/>
  </way>
  <way id="10845007" version="2" timestamp="2009-12-04T05:16:26Z" uid="30201" user="rrankin" changeset="3285963">
    <nd ref="96336721"/>
    <nd ref="96336727"/>
    <nd ref="96336734"/>
    <nd ref="96336748"/>
    <nd ref="96336753"/>
    <nd ref="96336760"/>
    <tag k="highway" v="residential"/>
    <tag k="name" v="Darigan Road"/>
    <tag k="source" v="yahoo_imagery"/>
    <tag k="source:name" v="historical"/>
  </way>
  <way id="10845007" version="3" timestamp="2010-05-15T02:15:23Z" uid="34243" user="Tom Brennan" changeset="4701974">
    <nd ref="96336721"/>
    <nd ref="96336727"/>
    <nd ref="96336734"/>
    <nd ref="96336748"/>
    <nd ref="96336753"/>
    <nd ref="96336760"/>
    <tag k="highway" v="residential"/>
    <tag k="name" v="Dargan Street"/>
    <tag k="source" v="nearmap"/>
  </way>
  <way id="10845007" version="4" timestamp="2010-07-08T00:57:59Z" uid="74617" user="JohnSmith" changeset="5162525">
    <nd ref="96336721"/>
    <nd ref="96336727"/>
    <nd ref="96336734"/>
    <nd ref="96336748"/>
    <nd ref="96336753"/>
    <nd ref="96336760"/>
    <tag k="highway" v="residential"/>
    <tag k="maxspeed" v="50"/>
    <tag k="maxspeed:source" v="default residential speed limit in Australia"/>
    <tag k="name" v="Dargan Street"/>
    <tag k="source" v="nearmap"/>
  </way>
  <way id="10845007" version="5" timestamp="2011-03-26T07:37:37Z" uid="7617" user="Franc" changeset="7672617">
    <nd ref="96336721"/>
    <nd ref="96336727"/>
    <nd ref="96336734"/>
    <nd ref="96336748"/>
    <nd ref="1218606761"/>
    <nd ref="96336753"/>
    <nd ref="96336760"/>
    <tag k="highway" v="residential"/>
    <tag k="maxspeed" v="50"/>
    <tag k="maxspeed:source" v="default residential speed limit in Australia"/>
    <tag k="name" v="Dargan Street"/>
    <tag k="source" v="nearmap"/>
  </way>
  <way id="10845007" version="6" timestamp="2012-01-15T10:20:12Z" uid="147510" user="woodpeck_fixbot" changeset="10395278">
    <nd ref="96336721"/>
    <nd ref="96336727"/>
    <nd ref="96336734"/>
    <nd ref="96336748"/>
    <nd ref="1218606761"/>
    <nd ref="96336753"/>
    <nd ref="96336760"/>
    <tag k="highway" v="residential"/>
    <tag k="name" v="Dargan Street"/>
    <tag k="source" v="nearmap"/>
  </way>
  <way id="10845293" version="3" timestamp="2011-02-05T22:38:20Z" uid="61114" user="Trav" changeset="7198176">
    <nd ref="96327169"/>
    <nd ref="96336511"/>
    <tag k="fixme:sign:no" v="20111-02-06"/>
    <tag k="highway" v="residential"/>
    <tag k="source" v="yahoo_imagery"/>
  </way>
  <way id="10845295" version="2" timestamp="2009-01-12T09:51:58Z" uid="61114" user="Trav" changeset="780291"/>
  <way id="10845299" version="3" timestamp="2009-12-04T05:16:37Z" uid="30201" user="rrankin" changeset="3285963">
    <nd ref="96339611"/>
    <nd ref="96339617"/>
    <tag k="highway" v="service"/>
    <tag k="name" v="Lane W85"/>
    <tag k="source" v="yahoo_imagery"/>
  </way>
  <way id="10845299" version="4" timestamp="2010-05-15T02:15:22Z" uid="34243" user="Tom Brennan" changeset="4701974">
    <nd ref="96339611"/>
    <nd ref="96339617"/>
    <tag k="highway" v="service"/>
    <tag k="name" v="John Allen Lane"/>
    <tag k="note" v="Formerly Lane W85"/>
    <tag k="source" v="nearmap"/>
  </way>
  <way id="10845302" version="2" timestamp="2008-09-28T08:05:45Z" uid="61114" user="Trav" changeset="709191">
    <nd ref="96339622"/>
    <nd ref="96339641"/>
    <nd ref="96339629"/>
    <tag k="abutters" v="residential"/>
    <tag k="created_by" v="Merkaartor 0.13"/>
    <tag k="highway" v="service"/>
    <tag k="name" v="Piper Lane"/>
    <tag k="source" v="yahoo_imagery"/>
    <tag k="source:name" v="survey"/>
  </way>
  <way id="10845302" version="3" timestamp="2009-12-04T05:16:45Z" uid="30201" user="rrankin" changeset="3285963">
    <nd ref="96339622"/>
    <nd ref="96339641"/>
    <nd ref="96339629"/>
    <tag k="highway" v="service"/>
    <tag k="name" v="Piper Lane"/>
    <tag k="source" v="yahoo_imagery"/>
    <tag k="source:name" v="survey"/>
  </way>
  <way id="10845304" version="3" timestamp="2009-12-04T05:16:45Z" uid="30201" user="rrankin" changeset="3285963">
    <nd ref="96339641"/>
    <nd ref="96339649"/>
    <nd ref="96339660"/>
    <tag k="highway" v="service"/>
    <tag k="name" v="Brown Lane"/>
    <tag k="source" v="yahoo_imagery"/>
  </way>
  <way id="10845306" version="2" timestamp="2009-12-04T05:16:45Z" uid="30201" user="rrankin" changeset="3285963">
    <nd ref="96339670"/>
    <nd ref="96339676"/>
    <nd ref="96339691"/>
    <nd ref="96339702"/>
    <nd ref="96336486"/>
    <tag k="highway" v="residential"/>
    <tag k="name" v="Olympia Road"/>
    <tag k="source" v="yahoo_imagery"/>
    <tag k="source:name" v="historical"/>
  </way>
  <way id="10845306" version="3" timestamp="2010-05-15T02:15:22Z" uid="34243" user="Tom Brennan" changeset="4701974">
    <nd ref="96339670"/>
    <nd ref="96339676"/>
    <nd ref="96339691"/>
    <nd ref="96339702"/>
    <nd ref="96336486"/>
    <tag k="highway" v="residential"/>
    <tag k="name" v="Olympia Road"/>
    <tag k="source" v="nearmap"/>
    <tag k="source:name" v="historical"/>
  </way>
  <way id="10845306" version="4" timestamp="2010-07-08T00:57:53Z" uid="74617" user="JohnSmith" changeset="5162525">
    <nd ref="96339670"/>
    <nd ref="96339676"/>
    <nd ref="96339691"/>
    <nd ref="96339702"/>
    <nd ref="96336486"/>
    <tag k="highway" v="residential"/>
    <tag k="maxspeed" v="50"/>
    <tag k="maxspeed:source" v="default residential speed limit in Australia"/>
    <tag k="name" v="Olympia Road"/>
    <tag k="source" v="nearmap"/>
    <tag k="source:name" v="historical"/>
  </way>
  <way id="10845306" version="5" timestamp="2011-03-26T07:37:06Z" uid="7617" user="Franc" changeset="7672617">
    <nd ref="96339670"/>
    <nd ref="96339676"/>
    <nd ref="96339691"/>
    <nd ref="1218606578"/>
    <nd ref="96339702"/>
    <nd ref="96336486"/>
    <tag k="highway" v="residential"/>
    <tag k="maxspeed" v="50"/>
    <tag k="maxspeed:source" v="default residential speed limit in Australia"/>
    <tag k="name" v="Olympia Road"/>
    <tag k="source" v="nearmap"/>
    <tag k="source:name" v="historical"/>
  </way>
  <way id="10845306" version="6" timestamp="2011-10-13T12:41:02Z" uid="162096" user="Daz" changeset="9546105">
    <nd ref="96339670"/>
    <nd ref="96339676"/>
    <nd ref="96339691"/>
    <nd ref="1218606578"/>
    <nd ref="96339702"/>
    <nd ref="96336486"/>
    <tag k="highway" v="residential"/>
    <tag k="lcn" v="yes"/>
    <tag k="maxspeed" v="50"/>
    <tag k="maxspeed:source" v="default residential speed limit in Australia"/>
    <tag k="name" v="Olympia Road"/>
    <tag k="source" v="nearmap"/>
    <tag k="source:name" v="historical"/>
  </way>
  <way id="10845306" version="7" timestamp="2012-01-15T10:20:14Z" uid="147510" user="woodpeck_fixbot" changeset="10395278">
    <nd ref="96339670"/>
    <nd ref="96339676"/>
    <nd ref="96339691"/>
    <nd ref="1218606578"/>
    <nd ref="96339702"/>
    <nd ref="96336486"/>
    <tag k="highway" v="residential"/>
    <tag k="lcn" v="yes"/>
    <tag k="name" v="Olympia Road"/>
    <tag k="source" v="nearmap"/>
    <tag k="source:name" v="historical"/>
  </way>
  <way id="10845551" version="4" timestamp="2010-07-08T19:52:34Z" uid="74617" user="JohnSmith" changeset="5168688">
    <nd ref="96342011"/>
    <nd ref="637009376"/>
    <nd ref="637009379"/>
    <nd ref="96341623"/>
    <tag k="highway" v="residential"/>
    <tag k="maxspeed" v="50"/>
    <tag k="maxspeed:source" v="default residential speed limit in Australia"/>
    <tag k="name" v="Campbell Street"/>
  </way>
  <way id="10845551" version="5" timestamp="2011-05-19T12:58:11Z" uid="206929" user="Supt_of_Printing" changeset="8189666">
    <nd ref="96342011"/>
    <nd ref="637009376"/>
    <nd ref="1291575987"/>
    <nd ref="637009379"/>
    <nd ref="1291575996"/>
    <nd ref="1291575995"/>
    <nd ref="96341623"/>
    <tag k="highway" v="residential"/>
    <tag k="maxspeed" v="50"/>
    <tag k="maxspeed:source" v="default residential speed limit in Australia"/>
    <tag k="name" v="Campbell Street"/>
  </way>
  <way id="10845551" version="6" timestamp="2012-01-15T10:20:16Z" uid="147510" user="woodpeck_fixbot" changeset="10395278">
    <nd ref="96342011"/>
    <nd ref="637009376"/>
    <nd ref="1291575987"/>
    <nd ref="637009379"/>
    <nd ref="1291575996"/>
    <nd ref="1291575995"/>
    <nd ref="96341623"/>
    <tag k="highway" v="residential"/>
    <tag k="name" v="Campbell Street"/>
  </way>
</osm>
