<?xml version='1.0' encoding='UTF-8'?>
<osm version="0.6" generator="libosmium/2.20.0">
  <way id="108436192" version="1" timestamp="2011-04-14T10:37:08Z" uid="6269" user="Mueck" changeset="7859152">
    <nd ref="1244223105"/>
    <nd ref="1244223100"/>
    <nd ref="1244223106"/>
    <nd ref="1244223111"/>
    <nd ref="1244223110"/>
    <nd ref="1244223109"/>
    <nd ref="1244223108"/>
    <nd ref="1244223103"/>
    <nd ref="1244223105"/>
    <tag k="addr:city" v="Karlsruhe"/>
    <tag k="addr:country" v="DE"/>
    <tag k="addr:housenumber" v="27"/>
    <tag k="addr:postcode" v="76135"/>
    <tag k="addr:street" v="Lessingstraße"/>
    <tag k="amenity" v="fraternity"/>
    <tag k="building" v="yes"/>
    <tag k="building:use" v="dormitory"/>
    <tag k="name" v="FL! Markomannia"/>
    <tag k="official_name" v="Freie Landsmannschaft Markomannia Karlsruhe"/>
    <tag k="verbindung:art" v="Landsmannschaft"/>
    <tag k="verbindung:couleur" v="farbentragend"/>
    <tag k="verbindung:farben" v="rot-weiß-grün"/>
    <tag k="verbindung:fechten" v="fakultativ schlagend"/>
    <tag k="verbindung:konfession" v="nein"/>
    <tag k="verbindung:mitglieder" v="männlich"/>
    <tag k="verbindung:tramizu" v="l_markomannia_karlsruhe.html"/>
    <tag k="verbindung:typ" v="akademisch"/>
    <tag k="verbindung:verband" v="BDIC"/>
    <tag k="website" v="http://www.fl-markomannia.de/"/>
  </way>
  <way id="108436192" version="2" timestamp="2011-04-14T10:42:28Z" uid="6269" user="Mueck" changeset="7859152">
    <nd ref="1244223105"/>
    <nd ref="1244223100"/>
    <nd ref="1244223106"/>
    <nd ref="1244223111"/>
    <nd ref="1244223110"/>
    <nd ref="1244223109"/>
    <nd ref="1244223108"/>
    <nd ref="1244223103"/>
    <nd ref="1244223105"/>
    <tag k="addr:city" v="Karlsruhe"/>
    <tag k="addr:country" v="DE"/>
    <tag k="addr:housenumber" v="27"/>
    <tag k="addr:postcode" v="76135"/>
    <tag k="addr:street" v="Lessingstraße"/>
    <tag k="amenity" v="fraternity"/>
    <tag k="building" v="yes"/>
    <tag k="building:use" v="dormitory"/>
    <tag k="name" v="FL! Markomannia"/>
    <tag k="official_name" v="Freie Landsmannschaft Markomannia Karlsruhe"/>
    <tag k="verbindung:art" v="Landsmannschaft"/>
    <tag k="verbindung:couleur" v="farbentragend"/>
    <tag k="verbindung:farben" v="rot-weiß-grün"/>
    <tag k="verbindung:fechten" v="nichtschlagend"/>
    <tag k="verbindung:konfession" v="nein"/>
    <tag k="verbindung:mitglieder" v="männlich"/>
    <tag k="verbindung:tramizu" v="l_markomannia_karlsruhe.html"/>
    <tag k="verbindung:typ" v="akademisch"/>
    <tag k="verbindung:verband" v="BDIC"/>
    <tag k="website" v="http://www.fl-markomannia.de/"/>
  </way>
  <way id="108436192" version="3" timestamp="2011-04-14T20:52:16Z" uid="6269" user="Mueck" changeset="7865008">
    <nd ref="1244223105"/>
    <nd ref="1244223100"/>
    <nd ref="1244223106"/>
    <nd ref="1244223111"/>
    <nd ref="1244223110"/>
    <nd ref="1244223109"/>
    <nd ref="1244223108"/>
    <nd ref="1244223103"/>
    <nd ref="1244223105"/>
    <tag k="addr:city" v="Karlsruhe"/>
    <tag k="addr:country" v="DE"/>
    <tag k="addr:housenumber" v="27"/>
    <tag k="addr:postcode" v="76135"/>
    <tag k="addr:street" v="Lessingstraße"/>
    <tag k="amenity" v="fraternity"/>
    <tag k="building" v="yes"/>
    <tag k="building:use" v="dormitory"/>
    <tag k="name" v="FL! Markomannia"/>
    <tag k="official_name" v="Freie Landsmannschaft Markomannia Karlsruhe"/>
    <tag k="verbindung" v="haus"/>
    <tag k="verbindung:art" v="Landsmannschaft"/>
    <tag k="verbindung:couleur" v="farbentragend"/>
    <tag k="verbindung:farben" v="rot-weiß-grün"/>
    <tag k="verbindung:fechten" v="nichtschlagend"/>
    <tag k="verbindung:konfession" v="nein"/>
    <tag k="verbindung:mitglieder" v="männlich"/>
    <tag k="verbindung:tramizu" v="l_markomannia_karlsruhe.html"/>
    <tag k="verbindung:typ" v="akademisch"/>
    <tag k="verbindung:verband" v="BDIC"/>
    <tag k="website" v="http://www.fl-markomannia.de/"/>
  </way>
  <way id="108436192" version="4" timestamp="2011-04-25T21:15:47Z" uid="212553" user="ARWIE" changeset="7969067">
    <nd ref="1244223105"/>
    <nd ref="1244223100"/>
    <nd ref="1244223106"/>
    <nd ref="1244223111"/>
    <nd ref="1244223110"/>
    <nd ref="1244223109"/>
    <nd ref="1244223108"/>
    <nd ref="1260232874"/>
    <nd ref="1244223103"/>
    <nd ref="1244223105"/>
    <tag k="addr:city" v="Karlsruhe"/>
    <tag k="addr:country" v="DE"/>
    <tag k="addr:housenumber" v="27"/>
    <tag k="addr:postcode" v="76135"/>
    <tag k="addr:street" v="Lessingstraße"/>
    <tag k="amenity" v="fraternity"/>
    <tag k="building" v="yes"/>
    <tag k="building:use" v="dormitory"/>
    <tag k="name" v="FL! Markomannia"/>
    <tag k="official_name" v="Freie Landsmannschaft Markomannia Karlsruhe"/>
    <tag k="verbindung" v="haus"/>
    <tag k="verbindung:art" v="Landsmannschaft"/>
    <tag k="verbindung:couleur" v="farbentragend"/>
    <tag k="verbindung:farben" v="rot-weiß-grün"/>
    <tag k="verbindung:fechten" v="nichtschlagend"/>
    <tag k="verbindung:konfession" v="nein"/>
    <tag k="verbindung:mitglieder" v="männlich"/>
    <tag k="verbindung:tramizu" v="l_markomannia_karlsruhe.html"/>
    <tag k="verbindung:typ" v="akademisch"/>
    <tag k="verbindung:verband" v="BDIC"/>
    <tag k="website" v="http://www.fl-markomannia.de/"/>
  </way>
  <way id="108436939" version="1" timestamp="2011-04-14T10:52:00Z" uid="6269" user="Mueck" changeset="7859152">
    <nd ref="1244230481"/>
    <nd ref="1244230482"/>
    <nd ref="1244230484"/>
    <nd ref="1244230483"/>
    <nd ref="1244230481"/>
    <tag k="addr:city" v="Karlsruhe"/>
    <tag k="addr:country" v="DE"/>
    <tag k="addr:housenumber" v="29"/>
    <tag k="addr:postcode" v="76133"/>
    <tag k="addr:street" v="Stephanienstraße"/>
    <tag k="amenity" v="fraternity"/>
    <tag k="building" v="yes"/>
    <tag k="building:use" v="dormitory"/>
    <tag k="name" v="KB! Ghibellinia "/>
    <tag k="official_name" v="Karlsruher Burschenschaft Ghibellinia "/>
    <tag k="verbindung:art" v="Burschenschaft"/>
    <tag k="verbindung:couleur" v="farbentragend"/>
    <tag k="verbindung:farben" v="gold-schwarz-weiß"/>
    <tag k="verbindung:fechten" v="nichtschlagend"/>
    <tag k="verbindung:konfession" v="nein"/>
    <tag k="verbindung:mitglieder" v="männlich"/>
    <tag k="verbindung:tramizu" v="ghibellinia_karlsruhe.html"/>
    <tag k="verbindung:typ" v="akademisch"/>
    <tag k="verbindung:verband" v="nein"/>
    <tag k="website" v="http://www.kb-ghibellinia.de/"/>
  </way>
  <way id="108436939" version="2" timestamp="2011-04-14T11:08:25Z" uid="6269" user="Mueck" changeset="7859779">
    <nd ref="1244230481"/>
    <nd ref="1244230482"/>
    <nd ref="1244230484"/>
    <nd ref="1244230483"/>
    <nd ref="1244230481"/>
    <tag k="addr:city" v="Karlsruhe"/>
    <tag k="addr:country" v="DE"/>
    <tag k="addr:housenumber" v="29"/>
    <tag k="addr:postcode" v="76133"/>
    <tag k="addr:street" v="Stephanienstraße"/>
    <tag k="amenity" v="fraternity"/>
    <tag k="building" v="yes"/>
    <tag k="building:use" v="dormitory"/>
    <tag k="name" v="KB! Ghibellinia "/>
    <tag k="official_name" v="Karlsruher Burschenschaft Ghibellinia "/>
    <tag k="verbindung:art" v="Burschenschaft"/>
    <tag k="verbindung:couleur" v="farbentragend"/>
    <tag k="verbindung:farben" v="gold-schwarz-weiß"/>
    <tag k="verbindung:fechten" v="nichtschlagend"/>
    <tag k="verbindung:konfession" v="nein"/>
    <tag k="verbindung:mitglieder" v="männlich"/>
    <tag k="verbindung:tramizu" v="ghibellinia_karlsruhe.html"/>
    <tag k="verbindung:typ" v="akademisch"/>
    <tag k="verbindung:verband" v="nein"/>
    <tag k="website" v="http://www.kb-ghibellinia.de/"/>
    <tag k="wikipedia" v="Karlsruher_Burschenschaft_Ghibellinia"/>
  </way>
  <way id="108436939" version="3" timestamp="2011-04-14T17:49:46Z" uid="70696" user="xybot" changeset="7862945">
    <nd ref="1244230481"/>
    <nd ref="1244230482"/>
    <nd ref="1244230484"/>
    <nd ref="1244230483"/>
    <nd ref="1244230481"/>
    <tag k="addr:city" v="Karlsruhe"/>
    <tag k="addr:country" v="DE"/>
    <tag k="addr:housenumber" v="29"/>
    <tag k="addr:postcode" v="76133"/>
    <tag k="addr:street" v="Stephanienstraße"/>
    <tag k="amenity" v="fraternity"/>
    <tag k="building" v="yes"/>
    <tag k="building:use" v="dormitory"/>
    <tag k="name" v="KB! Ghibellinia"/>
    <tag k="official_name" v="Karlsruher Burschenschaft Ghibellinia"/>
    <tag k="verbindung:art" v="Burschenschaft"/>
    <tag k="verbindung:couleur" v="farbentragend"/>
    <tag k="verbindung:farben" v="gold-schwarz-weiß"/>
    <tag k="verbindung:fechten" v="nichtschlagend"/>
    <tag k="verbindung:konfession" v="nein"/>
    <tag k="verbindung:mitglieder" v="männlich"/>
    <tag k="verbindung:tramizu" v="ghibellinia_karlsruhe.html"/>
    <tag k="verbindung:typ" v="akademisch"/>
    <tag k="verbindung:verband" v="nein"/>
    <tag k="website" v="http://www.kb-ghibellinia.de/"/>
    <tag k="wikipedia" v="Karlsruher_Burschenschaft_Ghibellinia"/>
  </way>
  <way id="108436939" version="4" timestamp="2011-04-14T20:52:28Z" uid="6269" user="Mueck" changeset="7865008">
    <nd ref="1244230481"/>
    <nd ref="1244230482"/>
    <nd ref="1244230484"/>
    <nd ref="1244230483"/>
    <nd ref="1244230481"/>
    <tag k="addr:city" v="Karlsruhe"/>
    <tag k="addr:country" v="DE"/>
    <tag k="addr:housenumber" v="29"/>
    <tag k="addr:postcode" v="76133"/>
    <tag k="addr:street" v="Stephanienstraße"/>
    <tag k="amenity" v="fraternity"/>
    <tag k="building" v="yes"/>
    <tag k="building:use" v="dormitory"/>
    <tag k="name" v="KB! Ghibellinia"/>
    <tag k="official_name" v="Karlsruher Burschenschaft Ghibellinia"/>
    <tag k="verbindung" v="haus"/>
    <tag k="verbindung:art" v="Burschenschaft"/>
    <tag k="verbindung:couleur" v="farbentragend"/>
    <tag k="verbindung:farben" v="gold-schwarz-weiß"/>
    <tag k="verbindung:fechten" v="nichtschlagend"/>
    <tag k="verbindung:konfession" v="nein"/>
    <tag k="verbindung:mitglieder" v="männlich"/>
    <tag k="verbindung:tramizu" v="ghibellinia_karlsruhe.html"/>
    <tag k="verbindung:typ" v="akademisch"/>
    <tag k="verbindung:verband" v="nein"/>
    <tag k="website" v="http://www.kb-ghibellinia.de/"/>
    <tag k="wikipedia:de" v="Karlsruher_Burschenschaft_Ghibellinia"/>
  </way>
  <way id="108436939" version="5" timestamp="2011-04-19T18:16:15Z" uid="212553" user="ARWIE" changeset="7909061">
    <nd ref="1244230481"/>
    <nd ref="1251514802"/>
    <nd ref="1244230482"/>
    <nd ref="1251514753"/>
    <nd ref="1244230484"/>
    <nd ref="1244230483"/>
    <nd ref="1251514815"/>
    <nd ref="1244230481"/>
    <tag k="addr:city" v="Karlsruhe"/>
    <tag k="addr:country" v="DE"/>
    <tag k="addr:housenumber" v="29"/>
    <tag k="addr:postcode" v="76133"/>
    <tag k="addr:street" v="Stephanienstraße"/>
    <tag k="amenity" v="fraternity"/>
    <tag k="building" v="yes"/>
    <tag k="building:use" v="dormitory"/>
    <tag k="name" v="KB! Ghibellinia"/>
    <tag k="official_name" v="Karlsruher Burschenschaft Ghibellinia"/>
    <tag k="verbindung" v="haus"/>
    <tag k="verbindung:art" v="Burschenschaft"/>
    <tag k="verbindung:couleur" v="farbentragend"/>
    <tag k="verbindung:farben" v="gold-schwarz-weiß"/>
    <tag k="verbindung:fechten" v="nichtschlagend"/>
    <tag k="verbindung:konfession" v="nein"/>
    <tag k="verbindung:mitglieder" v="männlich"/>
    <tag k="verbindung:tramizu" v="ghibellinia_karlsruhe.html"/>
    <tag k="verbindung:typ" v="akademisch"/>
    <tag k="verbindung:verband" v="nein"/>
    <tag k="website" v="http://www.kb-ghibellinia.de/"/>
    <tag k="wikipedia:de" v="Karlsruher_Burschenschaft_Ghibellinia"/>
  </way>
</osm>
