<?xml version='1.0' encoding='UTF-8'?>
<osm version="0.6" generator="libosmium/2.20.0">
  <way id="108439230" version="1" timestamp="2011-04-14T11:26:49Z" uid="4467" user="Rosscoe" changeset="7859926">
    <nd ref="32463241"/>
    <nd ref="1244255623"/>
    <nd ref="32463242"/>
    <nd ref="32463218"/>
    <tag k="highway" v="residential"/>
    <tag k="maxspeed" v="50"/>
    <tag k="maxspeed:source" v="default residential speed limit in Australia"/>
    <tag k="name" v="Fig Tree Pocket"/>
  </way>
  <way id="108439570" version="1" timestamp="2011-04-14T11:27:45Z" uid="6269" user="Mueck" changeset="7859779">
    <nd ref="1244256697"/>
    <nd ref="1244256695"/>
    <nd ref="1244256687"/>
    <nd ref="1244256699"/>
    <nd ref="1244256690"/>
    <nd ref="1244256697"/>
    <tag k="addr:city" v="Karlsruhe"/>
    <tag k="addr:country" v="DE"/>
    <tag k="addr:housenumber" v="6"/>
    <tag k="addr:postcode" v="76131"/>
    <tag k="addr:street" v="Sebastian-Kneipp-Straße"/>
    <tag k="amenity" v="fraternity"/>
    <tag k="building" v="yes"/>
    <tag k="building:use" v="dormitory"/>
    <tag k="name" v="K.D.St.V. Normannia"/>
    <tag k="official_name" v="Katholisch-Deutsche Studentenverbindung Normannia "/>
    <tag k="verbindung:art" v="Katholische Studentenverbindung"/>
    <tag k="verbindung:couleur" v="farbentragend"/>
    <tag k="verbindung:farben" v="moosgrün-rosa-weiß"/>
    <tag k="verbindung:fechten" v="nichtschlagend"/>
    <tag k="verbindung:konfession" v="katholisch"/>
    <tag k="verbindung:mitglieder" v="männlich"/>
    <tag k="verbindung:tramizu" v="normannia_karlsruhe.html"/>
    <tag k="verbindung:typ" v="akademisch"/>
    <tag k="verbindung:verband" v="CV"/>
    <tag k="website" v="http://www.kdstv-normannia.de/"/>
  </way>
  <way id="108439570" version="2" timestamp="2011-04-14T11:59:44Z" uid="6269" user="Mueck" changeset="7860188">
    <nd ref="1244256697"/>
    <nd ref="1244256695"/>
    <nd ref="1244256687"/>
    <nd ref="1244256699"/>
    <nd ref="1244256690"/>
    <nd ref="1244256697"/>
    <tag k="building" v="yes"/>
  </way>
  <way id="108439570" version="3" timestamp="2011-08-05T05:38:59Z" uid="29203" user="dc6iq" changeset="8925740">
    <nd ref="1244256695"/>
    <nd ref="1387092224"/>
    <nd ref="1387092222"/>
    <nd ref="1387092225"/>
    <nd ref="1244256695"/>
    <tag k="building" v="yes"/>
  </way>
  <way id="108439573" version="1" timestamp="2011-04-14T11:27:46Z" uid="6269" user="Mueck" changeset="7859779">
    <nd ref="1244256683"/>
    <nd ref="1244256693"/>
    <nd ref="1244256685"/>
    <nd ref="1244256697"/>
    <nd ref="1244256690"/>
    <nd ref="1244256683"/>
  </way>
  <way id="108439573" version="2" timestamp="2011-08-05T05:39:00Z" uid="29203" user="dc6iq" changeset="8925740"/>
</osm>
