<?xml version='1.0' encoding='UTF-8'?>
<osm version="0.6" generator="libosmium/2.20.0">
  <way id="10853000" version="2" timestamp="2008-07-06T01:01:01Z" uid="6975" user="ulfl" changeset="404092">
    <nd ref="71487572"/>
    <nd ref="96446228"/>
    <nd ref="96446232"/>
    <nd ref="96446234"/>
    <nd ref="96446237"/>
    <nd ref="96446240"/>
    <tag k="highway" v="residential"/>
    <tag k="maxspeed" v="50"/>
    <tag k="name" v="Kviddas väg"/>
  </way>
  <way id="10853003" version="2" timestamp="2008-07-06T01:01:00Z" uid="6975" user="ulfl" changeset="404092">
    <nd ref="71487603"/>
    <nd ref="96446242"/>
    <nd ref="96446246"/>
    <nd ref="96446256"/>
    <nd ref="96446252"/>
    <nd ref="96446247"/>
    <tag k="highway" v="residential"/>
    <tag k="maxspeed" v="50"/>
    <tag k="name" v="Tuppes Väg"/>
  </way>
  <way id="10853465" version="2" timestamp="2010-07-09T02:53:45Z" uid="74617" user="JohnSmith" changeset="5170739">
    <nd ref="96453670"/>
    <nd ref="96453678"/>
    <nd ref="96453664"/>
    <tag k="highway" v="residential"/>
    <tag k="maxspeed" v="50"/>
    <tag k="maxspeed:source" v="default residential speed limit in Australia"/>
    <tag k="name" v="Forster Court"/>
  </way>
  <way id="10853465" version="3" timestamp="2012-01-15T10:21:54Z" uid="147510" user="woodpeck_fixbot" changeset="10395278">
    <nd ref="96453670"/>
    <nd ref="96453678"/>
    <nd ref="96453664"/>
    <tag k="highway" v="residential"/>
    <tag k="name" v="Forster Court"/>
  </way>
  <way id="10853719" version="3" timestamp="2010-07-09T03:01:47Z" uid="74617" user="JohnSmith" changeset="5170739">
    <nd ref="96190178"/>
    <nd ref="96458870"/>
    <nd ref="96458862"/>
    <nd ref="96458855"/>
    <nd ref="96458841"/>
    <nd ref="96458828"/>
    <nd ref="96458821"/>
    <nd ref="96458813"/>
    <nd ref="96458800"/>
    <nd ref="96458786"/>
    <nd ref="96458775"/>
    <nd ref="96458764"/>
    <nd ref="96453664"/>
    <tag k="highway" v="residential"/>
    <tag k="maxspeed" v="50"/>
    <tag k="maxspeed:source" v="default residential speed limit in Australia"/>
    <tag k="name" v="Wheeler Street"/>
    <tag k="oneway" v="yes"/>
  </way>
  <way id="10853719" version="4" timestamp="2012-01-15T10:21:56Z" uid="147510" user="woodpeck_fixbot" changeset="10395278">
    <nd ref="96190178"/>
    <nd ref="96458870"/>
    <nd ref="96458862"/>
    <nd ref="96458855"/>
    <nd ref="96458841"/>
    <nd ref="96458828"/>
    <nd ref="96458821"/>
    <nd ref="96458813"/>
    <nd ref="96458800"/>
    <nd ref="96458786"/>
    <nd ref="96458775"/>
    <nd ref="96458764"/>
    <nd ref="96453664"/>
    <tag k="highway" v="residential"/>
    <tag k="name" v="Wheeler Street"/>
    <tag k="oneway" v="yes"/>
  </way>
</osm>
