<?xml version='1.0' encoding='UTF-8'?>
<osm version="0.6" generator="libosmium/2.20.0">
  <way id="108530187" version="1" timestamp="2011-04-14T23:56:03Z" uid="23543" user="jkjk" changeset="7866072">
    <nd ref="1244975096"/>
    <nd ref="189384379"/>
    <nd ref="187691590"/>
    <tag k="highway" v="footway"/>
    <tag k="name" v="Zborovská"/>
  </way>
  <way id="108530188" version="1" timestamp="2011-04-14T23:56:03Z" uid="23543" user="jkjk" changeset="7866072">
    <nd ref="1244975122"/>
    <nd ref="1244975081"/>
    <nd ref="1244975091"/>
    <nd ref="1244975076"/>
    <tag k="highway" v="residential"/>
    <tag k="name" v="Na Mýtince"/>
  </way>
  <way id="108530189" version="1" timestamp="2011-04-14T23:56:03Z" uid="23543" user="jkjk" changeset="7866072">
    <nd ref="29217845"/>
    <nd ref="187692626"/>
    <nd ref="187692630"/>
    <nd ref="187692640"/>
    <tag k="highway" v="residential"/>
    <tag k="name" v="Řípská"/>
  </way>
  <way id="108530190" version="1" timestamp="2011-04-14T23:56:03Z" uid="23543" user="jkjk" changeset="7866072">
    <nd ref="32642433"/>
    <nd ref="34663766"/>
    <nd ref="34663769"/>
    <nd ref="34663777"/>
    <nd ref="34663802"/>
    <nd ref="34663824"/>
    <nd ref="34663845"/>
    <nd ref="34663868"/>
    <nd ref="34663897"/>
    <nd ref="34663921"/>
    <tag k="highway" v="tertiary"/>
    <tag k="ref" v="10176"/>
    <tag k="source:ref" v="rsd_cr"/>
  </way>
  <way id="108530191" version="1" timestamp="2011-04-14T23:56:04Z" uid="23543" user="jkjk" changeset="7866072">
    <nd ref="116762662"/>
    <nd ref="116762660"/>
    <nd ref="116762656"/>
    <nd ref="116762655"/>
    <nd ref="282785512"/>
    <nd ref="116762652"/>
    <nd ref="282785511"/>
    <nd ref="116762650"/>
    <nd ref="116762649"/>
    <nd ref="116762648"/>
    <nd ref="116762647"/>
    <nd ref="116762644"/>
    <nd ref="116762641"/>
    <nd ref="937291311"/>
    <nd ref="116762639"/>
    <nd ref="116762638"/>
    <nd ref="116762637"/>
    <tag k="highway" v="tertiary"/>
    <tag k="name" v="Zděbradská"/>
    <tag k="ref" v="00325"/>
    <tag k="source:ref" v="rsd_cr"/>
  </way>
  <way id="108530191" version="2" timestamp="2011-07-24T08:57:30Z" uid="17615" user="Petr Dlouhý" changeset="8813183">
    <nd ref="116762662"/>
    <nd ref="116762660"/>
    <nd ref="1371922103"/>
    <nd ref="116762656"/>
    <nd ref="116762655"/>
    <nd ref="282785512"/>
    <nd ref="116762652"/>
    <nd ref="1371922094"/>
    <nd ref="282785511"/>
    <nd ref="116762650"/>
    <nd ref="1371922093"/>
    <nd ref="116762649"/>
    <nd ref="116762648"/>
    <nd ref="116762647"/>
    <nd ref="116762644"/>
    <nd ref="116762641"/>
    <nd ref="937291311"/>
    <nd ref="116762639"/>
    <nd ref="116762638"/>
    <nd ref="116762637"/>
    <tag k="highway" v="tertiary"/>
    <tag k="name" v="Zděbradská"/>
    <tag k="ref" v="00325"/>
    <tag k="source:ref" v="rsd_cr"/>
  </way>
  <way id="108530192" version="1" timestamp="2011-04-14T23:56:04Z" uid="23543" user="jkjk" changeset="7866072">
    <nd ref="1244975130"/>
    <nd ref="1244975092"/>
    <nd ref="359620516"/>
    <nd ref="359620517"/>
    <nd ref="359620519"/>
    <tag k="bicycle" v="yes"/>
    <tag k="foot" v="yes"/>
    <tag k="highway" v="residential"/>
    <tag k="motorcar" v="no"/>
    <tag k="motorcycle" v="no"/>
  </way>
  <way id="108530193" version="1" timestamp="2011-04-14T23:56:04Z" uid="23543" user="jkjk" changeset="7866072">
    <nd ref="26510279"/>
    <nd ref="308488709"/>
    <nd ref="189384365"/>
    <tag k="highway" v="primary"/>
    <tag k="name" v="Černokostelecká"/>
    <tag k="ref" v="2"/>
  </way>
  <way id="108530194" version="1" timestamp="2011-04-14T23:56:04Z" uid="23543" user="jkjk" changeset="7866072">
    <nd ref="1244975130"/>
    <nd ref="1244975114"/>
    <nd ref="1244975132"/>
    <nd ref="1244975073"/>
    <nd ref="1244975084"/>
    <tag k="highway" v="residential"/>
  </way>
  <way id="108530195" version="1" timestamp="2011-04-14T23:56:04Z" uid="23543" user="jkjk" changeset="7866072">
    <nd ref="187693842"/>
    <nd ref="770915375"/>
    <nd ref="187693122"/>
    <nd ref="189391008"/>
    <nd ref="189391017"/>
    <nd ref="189391029"/>
    <nd ref="189391042"/>
    <nd ref="189391053"/>
    <nd ref="308492175"/>
    <nd ref="187693613"/>
    <nd ref="189384174"/>
    <nd ref="189384184"/>
    <nd ref="189384194"/>
    <nd ref="291740859"/>
    <nd ref="189384159"/>
    <tag k="highway" v="tertiary"/>
    <tag k="name" v="Rýdlova"/>
  </way>
  <way id="108530196" version="1" timestamp="2011-04-14T23:56:05Z" uid="23543" user="jkjk" changeset="7866072">
    <nd ref="189384406"/>
    <nd ref="187693320"/>
    <tag k="highway" v="residential"/>
    <tag k="name" v="Gorkého"/>
  </way>
  <way id="108530197" version="1" timestamp="2011-04-14T23:56:05Z" uid="23543" user="jkjk" changeset="7866072">
    <nd ref="187692048"/>
    <nd ref="1244975125"/>
    <tag k="highway" v="residential"/>
    <tag k="name" v="Do Polí"/>
  </way>
  <way id="108530198" version="1" timestamp="2011-04-14T23:56:05Z" uid="23543" user="jkjk" changeset="7866072">
    <nd ref="189384397"/>
    <nd ref="189384446"/>
    <nd ref="189384494"/>
    <nd ref="835538700"/>
    <tag k="highway" v="primary"/>
    <tag k="name" v="Černokostelecká"/>
    <tag k="ref" v="2"/>
  </way>
  <way id="108530199" version="1" timestamp="2011-04-14T23:56:05Z" uid="23543" user="jkjk" changeset="7866072">
    <nd ref="296160734"/>
    <nd ref="187692696"/>
    <tag k="highway" v="residential"/>
    <tag k="name" v="Škroupova"/>
  </way>
  <way id="108530200" version="1" timestamp="2011-04-14T23:56:05Z" uid="23543" user="jkjk" changeset="7866072">
    <nd ref="96557783"/>
    <nd ref="96557793"/>
    <tag k="highway" v="secondary"/>
    <tag k="name" v="17. listopadu"/>
    <tag k="ref" v="107"/>
  </way>
  <way id="108530200" version="2" timestamp="2011-05-22T20:10:08Z" uid="17615" user="Petr Dlouhý" changeset="8220678">
    <nd ref="96557793"/>
    <nd ref="96557783"/>
    <tag k="highway" v="secondary"/>
    <tag k="name" v="17. listopadu"/>
    <tag k="ref" v="107"/>
  </way>
  <way id="108530200" version="3" timestamp="2011-07-25T08:33:33Z" uid="17615" user="Petr Dlouhý" changeset="8823815">
    <nd ref="96557793"/>
    <nd ref="1373547236"/>
    <nd ref="96557783"/>
    <tag k="highway" v="secondary"/>
    <tag k="name" v="17. listopadu"/>
    <tag k="ref" v="107"/>
  </way>
  <way id="108530201" version="1" timestamp="2011-04-14T23:56:05Z" uid="23543" user="jkjk" changeset="7866072">
    <nd ref="29217845"/>
    <nd ref="29217852"/>
    <nd ref="29217853"/>
    <nd ref="29217854"/>
    <nd ref="29217855"/>
    <nd ref="29217856"/>
    <nd ref="29217857"/>
    <nd ref="29217861"/>
    <nd ref="29217882"/>
    <tag k="highway" v="residential"/>
    <tag k="name" v="K Chobotu"/>
  </way>
  <way id="108530202" version="1" timestamp="2011-04-14T23:56:05Z" uid="23543" user="jkjk" changeset="7866072">
    <nd ref="679097628"/>
    <nd ref="679097632"/>
    <nd ref="679097637"/>
    <nd ref="679097642"/>
    <nd ref="679097648"/>
    <nd ref="677349124"/>
    <tag k="highway" v="track"/>
    <tag k="name" v="Výhledová"/>
    <tag k="source" v="cuzk:km"/>
  </way>
  <way id="108530203" version="1" timestamp="2011-04-14T23:56:06Z" uid="23543" user="jkjk" changeset="7866072">
    <nd ref="243765558"/>
    <nd ref="187693816"/>
    <nd ref="96557822"/>
    <tag k="highway" v="residential"/>
    <tag k="name" v="Jiráskova"/>
    <tag k="oneway" v="yes"/>
  </way>
  <way id="108530204" version="1" timestamp="2011-04-14T23:56:06Z" uid="23543" user="jkjk" changeset="7866072">
    <nd ref="582793980"/>
    <nd ref="1244975117"/>
    <tag k="power" v="line"/>
  </way>
  <way id="108530205" version="1" timestamp="2011-04-14T23:56:06Z" uid="23543" user="jkjk" changeset="7866072">
    <nd ref="96557822"/>
    <nd ref="292547059"/>
    <nd ref="96557824"/>
    <nd ref="96557828"/>
    <nd ref="96557833"/>
    <nd ref="96557836"/>
    <nd ref="96557840"/>
    <nd ref="96557844"/>
    <nd ref="96557850"/>
    <tag k="highway" v="secondary"/>
    <tag k="name" v="17. listopadu"/>
    <tag k="ref" v="107"/>
  </way>
  <way id="108530205" version="2" timestamp="2011-05-22T21:35:55Z" uid="17615" user="Petr Dlouhý" changeset="8221560">
    <nd ref="96557850"/>
    <nd ref="96557844"/>
    <nd ref="96557840"/>
    <nd ref="96557836"/>
    <nd ref="96557833"/>
    <nd ref="96557828"/>
    <nd ref="96557824"/>
    <nd ref="292547059"/>
    <nd ref="96557822"/>
    <tag k="highway" v="secondary"/>
    <tag k="name" v="17. listopadu"/>
    <tag k="ref" v="107"/>
  </way>
  <way id="108530206" version="1" timestamp="2011-04-14T23:56:06Z" uid="23543" user="jkjk" changeset="7866072">
    <nd ref="290051285"/>
    <nd ref="1244975064"/>
    <nd ref="1244975075"/>
    <nd ref="1244975093"/>
    <nd ref="1244975102"/>
    <nd ref="1244975116"/>
    <nd ref="1244975133"/>
    <nd ref="1244975106"/>
    <nd ref="1244975120"/>
    <nd ref="1244975078"/>
    <nd ref="1244975094"/>
    <nd ref="1244975104"/>
    <nd ref="1244975119"/>
    <nd ref="1244975053"/>
    <nd ref="1244975061"/>
    <nd ref="1244975055"/>
    <tag k="highway" v="track"/>
  </way>
  <way id="108530207" version="1" timestamp="2011-04-14T23:56:06Z" uid="23543" user="jkjk" changeset="7866072">
    <nd ref="296045810"/>
    <nd ref="296045808"/>
    <nd ref="187693790"/>
    <tag k="highway" v="residential"/>
    <tag k="name" v="Mlýnská"/>
  </way>
  <way id="108530208" version="1" timestamp="2011-04-14T23:56:06Z" uid="23543" user="jkjk" changeset="7866072">
    <nd ref="679097632"/>
    <nd ref="1244975091"/>
    <nd ref="1244975135"/>
    <tag k="highway" v="residential"/>
    <tag k="name" v="Maková"/>
  </way>
  <way id="108530209" version="1" timestamp="2011-04-14T23:56:06Z" uid="23543" user="jkjk" changeset="7866072">
    <nd ref="29217882"/>
    <nd ref="29217890"/>
    <nd ref="29217910"/>
    <nd ref="29218655"/>
    <nd ref="29218668"/>
    <tag k="highway" v="residential"/>
    <tag k="name" v="Do Lehovic"/>
  </way>
  <way id="108530210" version="1" timestamp="2011-04-14T23:56:07Z" uid="23543" user="jkjk" changeset="7866072">
    <nd ref="187700767"/>
    <nd ref="187700763"/>
    <nd ref="187700753"/>
    <nd ref="187700749"/>
    <nd ref="187700738"/>
    <nd ref="187700721"/>
    <tag k="highway" v="tertiary"/>
    <tag k="name" v="Lipanská"/>
    <tag k="ref" v="3339"/>
    <tag k="source:ref" v="rsd_cr"/>
  </way>
  <way id="108530211" version="1" timestamp="2011-04-14T23:56:07Z" uid="23543" user="jkjk" changeset="7866072">
    <nd ref="32642433"/>
    <nd ref="1244975112"/>
    <nd ref="1244975131"/>
    <nd ref="1244975058"/>
    <nd ref="1244975071"/>
    <nd ref="1244975080"/>
    <nd ref="1244975098"/>
    <nd ref="187692113"/>
    <tag k="highway" v="track"/>
  </way>
  <way id="108530212" version="1" timestamp="2011-04-14T23:56:07Z" uid="23543" user="jkjk" changeset="7866072">
    <nd ref="187693243"/>
    <nd ref="187693284"/>
    <nd ref="187693292"/>
    <nd ref="187693299"/>
    <nd ref="324666034"/>
    <nd ref="324666043"/>
    <nd ref="658673271"/>
    <nd ref="291694570"/>
    <tag k="highway" v="residential"/>
    <tag k="name" v="Edvarda Beneše"/>
  </way>
  <way id="108530212" version="2" timestamp="2011-05-13T23:00:52Z" uid="23543" user="jkjk" changeset="8136487">
    <nd ref="187693243"/>
    <nd ref="187693284"/>
    <nd ref="187693292"/>
    <nd ref="1283445324"/>
    <nd ref="187693299"/>
    <nd ref="324666034"/>
    <nd ref="1283445348"/>
    <nd ref="324666043"/>
    <nd ref="658673271"/>
    <nd ref="291694570"/>
    <tag k="highway" v="residential"/>
    <tag k="name" v="Edvarda Beneše"/>
  </way>
  <way id="108530213" version="1" timestamp="2011-04-14T23:56:07Z" uid="23543" user="jkjk" changeset="7866072">
    <nd ref="243770354"/>
    <nd ref="117514022"/>
    <tag k="highway" v="tertiary"/>
    <tag k="name" v="Kolovratská"/>
    <tag k="ref" v="33312"/>
    <tag k="source" v="uhul:ortofoto"/>
    <tag k="source:ref" v="rsd_cr"/>
  </way>
  <way id="108530214" version="1" timestamp="2011-04-14T23:56:07Z" uid="23543" user="jkjk" changeset="7866072">
    <nd ref="582793975"/>
    <nd ref="1244975137"/>
    <tag k="power" v="line"/>
  </way>
  <way id="108530215" version="1" timestamp="2011-04-14T23:56:07Z" uid="23543" user="jkjk" changeset="7866072">
    <nd ref="296160729"/>
    <nd ref="187693016"/>
    <tag k="highway" v="tertiary"/>
    <tag k="name" v="Olivova"/>
  </way>
  <way id="108530216" version="1" timestamp="2011-04-14T23:56:07Z" uid="23543" user="jkjk" changeset="7866072">
    <nd ref="187691560"/>
    <nd ref="187691570"/>
    <nd ref="187691590"/>
    <tag k="highway" v="residential"/>
    <tag k="name" v="Bezručova"/>
  </way>
  <way id="108530216" version="2" timestamp="2011-05-22T21:35:57Z" uid="17615" user="Petr Dlouhý" changeset="8221560">
    <nd ref="187691560"/>
    <nd ref="187691570"/>
    <nd ref="187691590"/>
    <tag k="highway" v="residential"/>
    <tag k="name" v="Bezručova"/>
    <tag k="oneway" v="yes"/>
  </way>
  <way id="108530217" version="1" timestamp="2011-04-14T23:56:08Z" uid="23543" user="jkjk" changeset="7866072">
    <nd ref="187692696"/>
    <nd ref="995585536"/>
    <tag k="highway" v="residential"/>
    <tag k="name" v="Škroupova"/>
  </way>
  <way id="108530218" version="1" timestamp="2011-04-14T23:56:08Z" uid="23543" user="jkjk" changeset="7866072">
    <nd ref="96557793"/>
    <nd ref="96557801"/>
    <nd ref="96557807"/>
    <nd ref="96557822"/>
    <tag k="highway" v="secondary"/>
    <tag k="name" v="17. listopadu"/>
    <tag k="ref" v="107"/>
  </way>
  <way id="108530218" version="2" timestamp="2011-05-22T20:10:17Z" uid="17615" user="Petr Dlouhý" changeset="8220678">
    <nd ref="96557822"/>
    <nd ref="96557807"/>
    <nd ref="96557801"/>
    <nd ref="96557793"/>
    <tag k="highway" v="secondary"/>
    <tag k="name" v="17. listopadu"/>
    <tag k="ref" v="107"/>
  </way>
  <way id="108530218" version="3" timestamp="2011-07-25T08:33:33Z" uid="17615" user="Petr Dlouhý" changeset="8823815">
    <nd ref="96557822"/>
    <nd ref="96557807"/>
    <nd ref="96557801"/>
    <nd ref="1373547237"/>
    <nd ref="96557793"/>
    <tag k="highway" v="secondary"/>
    <tag k="name" v="17. listopadu"/>
    <tag k="ref" v="107"/>
  </way>
  <way id="108530219" version="1" timestamp="2011-04-14T23:56:08Z" uid="23543" user="jkjk" changeset="7866072">
    <nd ref="189384432"/>
    <nd ref="189384406"/>
    <tag k="highway" v="residential"/>
    <tag k="name" v="Presslova"/>
  </way>
  <way id="108530220" version="1" timestamp="2011-04-14T23:56:08Z" uid="23543" user="jkjk" changeset="7866072">
    <nd ref="677349124"/>
    <nd ref="34664006"/>
    <tag k="highway" v="residential"/>
    <tag k="name" v="Výhledová"/>
    <tag k="source" v="cuzk:km"/>
  </way>
  <way id="108530221" version="1" timestamp="2011-04-14T23:56:08Z" uid="23543" user="jkjk" changeset="7866072">
    <nd ref="770928550"/>
    <nd ref="1244975090"/>
    <nd ref="770928770"/>
    <nd ref="1244975070"/>
    <nd ref="770928550"/>
    <tag k="power" v="line"/>
  </way>
  <way id="108530221" version="2" timestamp="2011-07-12T21:20:19Z" uid="248441" user="Jandrs" changeset="8707431">
    <nd ref="770928550"/>
    <nd ref="1244975090"/>
    <nd ref="770928770"/>
    <nd ref="1244975070"/>
    <nd ref="770928550"/>
    <tag k="power" v="minor_line"/>
    <tag k="voltage" v="22000"/>
  </way>
</osm>
