<?xml version='1.0' encoding='UTF-8'?>
<osm version="0.6" generator="libosmium/2.20.0">
  <way id="10872392" version="2" timestamp="2008-07-15T01:33:15Z" uid="6975" user="ulfl" changeset="496348">
    <nd ref="96598531"/>
    <nd ref="96598529"/>
    <nd ref="96598527"/>
    <tag k="highway" v="unclassified"/>
    <tag k="maxspeed" v="32"/>
    <tag k="name" v="Worrells Lane"/>
  </way>
  <way id="10872392" version="3" timestamp="2009-10-02T21:16:41Z" uid="3937" user="southglos" changeset="2717703">
    <nd ref="96598531"/>
    <nd ref="96598529"/>
    <nd ref="96598527"/>
    <tag k="highway" v="unclassified"/>
    <tag k="maxspeed" v="20mph"/>
    <tag k="name" v="Worrells Lane"/>
  </way>
  <way id="10872392" version="4" timestamp="2010-07-30T23:15:04Z" uid="3937" user="southglos" changeset="5359034">
    <nd ref="96598531"/>
    <nd ref="96598529"/>
    <nd ref="96598527"/>
    <tag k="highway" v="unclassified"/>
    <tag k="maxspeed" v="20mph"/>
    <tag k="name" v="Worrells Lane"/>
    <tag k="not:name" v="Worrel&apos;s Lane"/>
  </way>
  <way id="10872392" version="5" timestamp="2011-07-10T16:16:56Z" uid="365781" user="PawelJ" changeset="8685271">
    <nd ref="21259037"/>
    <nd ref="96598575"/>
    <nd ref="96598534"/>
    <nd ref="1356795021"/>
    <nd ref="96598532"/>
    <nd ref="1356795012"/>
    <nd ref="96598531"/>
    <nd ref="96598529"/>
    <nd ref="96598527"/>
    <tag k="highway" v="unclassified"/>
    <tag k="maxspeed" v="20mph"/>
    <tag k="name" v="Worrells Lane"/>
    <tag k="not:name" v="Worrel&apos;s Lane"/>
  </way>
  <way id="10872790" version="7" timestamp="2008-09-22T12:48:39Z" uid="30632" user="antblant" changeset="680284">
    <nd ref="96504573"/>
    <nd ref="248845328"/>
    <nd ref="96616558"/>
    <nd ref="96616560"/>
    <nd ref="96616562"/>
    <nd ref="96616564"/>
    <nd ref="96616568"/>
    <nd ref="281680184"/>
    <nd ref="96616570"/>
    <nd ref="281671171"/>
    <tag k="created_by" v="Potlatch 0.10b"/>
    <tag k="highway" v="motorway"/>
    <tag k="lanes" v="2"/>
    <tag k="oneway" v="yes"/>
    <tag k="ref" v="A 11"/>
  </way>
  <way id="10872790" version="8" timestamp="2008-10-05T13:09:36Z" uid="31911" user="Mathias Klein" changeset="84304">
    <nd ref="96504573"/>
    <nd ref="96616558"/>
    <nd ref="96616562"/>
    <nd ref="96616564"/>
    <nd ref="96616568"/>
    <nd ref="281680184"/>
    <nd ref="96616570"/>
    <nd ref="281671171"/>
    <tag k="created_by" v="Potlatch 0.10b"/>
    <tag k="highway" v="motorway"/>
    <tag k="lanes" v="2"/>
    <tag k="oneway" v="yes"/>
    <tag k="ref" v="A 11"/>
  </way>
  <way id="10872790" version="9" timestamp="2009-02-16T21:56:12Z" uid="9176" user="Maarten Deen" changeset="486420">
    <nd ref="96504573"/>
    <nd ref="96616558"/>
    <nd ref="96616562"/>
    <nd ref="96616564"/>
    <nd ref="96616568"/>
    <nd ref="281680184"/>
    <nd ref="96616570"/>
    <nd ref="281671171"/>
    <tag k="created_by" v="Potlatch 0.10b"/>
    <tag k="highway" v="motorway"/>
    <tag k="int_ref" v="E 28"/>
    <tag k="lanes" v="2"/>
    <tag k="oneway" v="yes"/>
    <tag k="ref" v="A 11"/>
  </way>
  <way id="10872790" version="10" timestamp="2009-11-05T04:01:58Z" uid="36809" user="pfoten_weg_!_" changeset="3037787">
    <nd ref="96504573"/>
    <nd ref="96616558"/>
    <nd ref="96616562"/>
    <nd ref="96616564"/>
    <nd ref="96616568"/>
    <nd ref="281680184"/>
    <nd ref="96616570"/>
    <nd ref="281671171"/>
    <tag k="highway" v="motorway"/>
    <tag k="int_ref" v="E 28"/>
    <tag k="lanes" v="2"/>
    <tag k="oneway" v="yes"/>
    <tag k="ref" v="A 11"/>
  </way>
  <way id="10872790" version="11" timestamp="2010-06-22T10:00:52Z" uid="152744" user="skyper" changeset="5049802">
    <nd ref="96504573"/>
    <nd ref="96616558"/>
    <tag k="highway" v="motorway"/>
    <tag k="int_ref" v="E 28"/>
    <tag k="lanes" v="2"/>
    <tag k="oneway" v="yes"/>
    <tag k="ref" v="A 11"/>
  </way>
  <way id="10872790" version="12" timestamp="2011-10-17T13:08:59Z" uid="30077" user="ChristianW" changeset="9581853">
    <nd ref="96504573"/>
    <nd ref="96616558"/>
    <tag k="highway" v="motorway"/>
    <tag k="int_ref" v="E 28"/>
    <tag k="lanes" v="2"/>
    <tag k="lit" v="no"/>
    <tag k="oneway" v="yes"/>
    <tag k="ref" v="A 11"/>
    <tag k="source:lit" v="http://www.autobahn-bilder.de"/>
  </way>
  <way id="10872811" version="2" timestamp="2009-09-30T15:32:29Z" uid="36809" user="pfoten_weg_!_" changeset="2689341">
    <nd ref="96616868"/>
    <nd ref="96616870"/>
    <nd ref="96616872"/>
    <tag k="highway" v="residential"/>
    <tag k="name" v="Leitenweg"/>
  </way>
  <way id="10872811" version="3" timestamp="2010-12-28T16:41:34Z" uid="72719" user="metaroll" changeset="6789317">
    <nd ref="96616868"/>
    <nd ref="96616870"/>
    <tag k="highway" v="residential"/>
    <tag k="name" v="Leitenweg"/>
  </way>
  <way id="10872812" version="6" timestamp="2009-09-30T15:32:24Z" uid="36809" user="pfoten_weg_!_" changeset="2689341">
    <nd ref="96616870"/>
    <nd ref="41844800"/>
    <tag k="highway" v="footway"/>
  </way>
  <way id="10872813" version="3" timestamp="2009-09-30T15:32:25Z" uid="36809" user="pfoten_weg_!_" changeset="2689341">
    <nd ref="96616875"/>
    <nd ref="96671074"/>
    <nd ref="96616881"/>
    <nd ref="96616886"/>
    <nd ref="96616888"/>
    <nd ref="96616889"/>
    <nd ref="96616891"/>
    <nd ref="96616892"/>
    <tag k="highway" v="residential"/>
    <tag k="name" v="Gartenäcker"/>
  </way>
  <way id="10872871" version="4" timestamp="2009-11-05T04:04:40Z" uid="36809" user="pfoten_weg_!_" changeset="3037787">
    <nd ref="96617440"/>
    <nd ref="96617441"/>
    <nd ref="96617444"/>
    <nd ref="96617447"/>
    <nd ref="96617450"/>
    <nd ref="96617453"/>
    <nd ref="96617458"/>
    <nd ref="96617459"/>
    <nd ref="96617460"/>
    <nd ref="96617462"/>
    <nd ref="96617464"/>
    <nd ref="96617466"/>
    <nd ref="96617467"/>
    <nd ref="96617468"/>
    <nd ref="96617469"/>
    <nd ref="96617470"/>
    <nd ref="96617471"/>
    <nd ref="96617472"/>
    <nd ref="96617474"/>
    <nd ref="96617440"/>
    <tag k="name" v="Großer See"/>
    <tag k="natural" v="water"/>
  </way>
  <way id="10872873" version="5" timestamp="2009-11-05T04:04:36Z" uid="36809" user="pfoten_weg_!_" changeset="3037787">
    <nd ref="96617475"/>
    <nd ref="96617476"/>
    <nd ref="96617478"/>
    <nd ref="96617479"/>
    <nd ref="96617482"/>
    <nd ref="96617485"/>
    <nd ref="96617486"/>
    <nd ref="96617487"/>
    <nd ref="96617489"/>
    <nd ref="96617491"/>
    <nd ref="96617492"/>
    <nd ref="281678181"/>
    <nd ref="281678182"/>
    <nd ref="281678180"/>
    <nd ref="96617493"/>
    <nd ref="96617495"/>
    <nd ref="96617496"/>
    <nd ref="96617497"/>
    <nd ref="96617499"/>
    <nd ref="96617500"/>
    <nd ref="96617475"/>
    <tag k="name" v="Kleinower See"/>
    <tag k="natural" v="water"/>
  </way>
</osm>
