<?xml version='1.0' encoding='UTF-8'?>
<osm version="0.6" generator="libosmium/2.20.0">
  <way id="108712648" version="1" timestamp="2011-04-16T03:38:29Z" uid="4467" user="Rosscoe" changeset="7875153">
    <nd ref="1246509217"/>
    <nd ref="1246509257"/>
    <nd ref="1246509225"/>
    <nd ref="1246509184"/>
    <nd ref="1246509286"/>
    <nd ref="1246509245"/>
    <nd ref="1246509212"/>
    <nd ref="1246509300"/>
    <nd ref="1246509275"/>
    <nd ref="1246509199"/>
    <nd ref="1246509303"/>
    <nd ref="1246509265"/>
    <nd ref="1246509232"/>
    <nd ref="1246509190"/>
    <nd ref="1246509291"/>
    <nd ref="1246509253"/>
    <nd ref="1246509218"/>
    <nd ref="1246509178"/>
    <nd ref="1246509278"/>
    <nd ref="1246509234"/>
    <nd ref="1246509217"/>
    <tag k="landuse" v="retail"/>
    <tag k="source" v="nearmap"/>
  </way>
  <way id="108712650" version="1" timestamp="2011-04-16T03:38:30Z" uid="4467" user="Rosscoe" changeset="7875153">
    <nd ref="1246509205"/>
    <nd ref="275236747"/>
    <nd ref="275236748"/>
    <nd ref="275236749"/>
    <nd ref="275236750"/>
    <nd ref="1246509181"/>
    <nd ref="30980031"/>
    <nd ref="30980027"/>
    <tag k="highway" v="trunk"/>
    <tag k="name" v="Reid Highway"/>
    <tag k="note" v="When construction complete these become highway=trunk_link and name and ref tag removed"/>
    <tag k="oneway" v="yes"/>
    <tag k="ref" v="S3"/>
  </way>
  <way id="108712650" version="2" timestamp="2012-01-22T13:00:36Z" uid="134344" user="Andrew Gregory" changeset="10464424">
    <nd ref="1246509205"/>
    <nd ref="275236747"/>
    <nd ref="275236748"/>
    <nd ref="275236749"/>
    <nd ref="275236750"/>
    <nd ref="1246509181"/>
    <nd ref="30980031"/>
    <nd ref="30980027"/>
    <tag k="highway" v="trunk_link"/>
    <tag k="oneway" v="yes"/>
    <tag k="source" v="nearmap"/>
  </way>
  <way id="108712653" version="1" timestamp="2011-04-16T03:38:30Z" uid="4467" user="Rosscoe" changeset="7875153">
    <nd ref="1246509181"/>
    <nd ref="1246509281"/>
    <nd ref="1246509238"/>
    <tag k="highway" v="trunk_link"/>
    <tag k="oneway" v="yes"/>
    <tag k="source" v="nearmap"/>
  </way>
  <way id="108712655" version="1" timestamp="2011-04-16T03:38:30Z" uid="4467" user="Rosscoe" changeset="7875153">
    <nd ref="1246509268"/>
    <nd ref="1246509222"/>
    <nd ref="1246509192"/>
    <tag k="highway" v="primary_link"/>
    <tag k="oneway" v="yes"/>
    <tag k="source" v="nearmap"/>
  </way>
  <way id="108712656" version="1" timestamp="2011-04-16T03:38:30Z" uid="4467" user="Rosscoe" changeset="7875153">
    <nd ref="1246509185"/>
    <nd ref="1246509287"/>
    <nd ref="1246509246"/>
    <nd ref="1246509213"/>
    <nd ref="1246509302"/>
    <nd ref="1246509276"/>
    <tag k="construction" v="trunk"/>
    <tag k="highway" v="construction"/>
    <tag k="name" v="Reid Highway"/>
    <tag k="ref" v="S3"/>
    <tag k="source" v="nearmap"/>
  </way>
  <way id="108712656" version="2" timestamp="2011-04-16T03:42:32Z" uid="4467" user="Rosscoe" changeset="7875159">
    <nd ref="1246509185"/>
    <nd ref="1246509287"/>
    <nd ref="1246509246"/>
    <nd ref="1246509213"/>
    <nd ref="1246509302"/>
    <nd ref="1246509276"/>
    <tag k="construction" v="trunk"/>
    <tag k="highway" v="construction"/>
    <tag k="name" v="Reid Highway"/>
    <tag k="opening_date" v="2011-07-01"/>
    <tag k="ref" v="S3"/>
    <tag k="source" v="nearmap"/>
  </way>
  <way id="108712656" version="3" timestamp="2012-01-22T13:00:36Z" uid="134344" user="Andrew Gregory" changeset="10464424">
    <nd ref="1246509185"/>
    <nd ref="1246509287"/>
    <nd ref="1246509246"/>
    <nd ref="1246509213"/>
    <nd ref="1246509302"/>
    <nd ref="1246509276"/>
    <tag k="highway" v="trunk"/>
    <tag k="name" v="Reid Highway"/>
    <tag k="oneway" v="yes"/>
    <tag k="opening_date" v="2011-07-01"/>
    <tag k="ref" v="S3"/>
    <tag k="source" v="nearmap"/>
  </way>
  <way id="108712657" version="1" timestamp="2011-04-16T03:38:30Z" uid="4467" user="Rosscoe" changeset="7875153">
    <nd ref="1246509236"/>
    <nd ref="275240025"/>
    <nd ref="361192428"/>
    <nd ref="275240026"/>
    <nd ref="275240027"/>
    <nd ref="275240028"/>
    <nd ref="275240029"/>
    <nd ref="361192573"/>
    <nd ref="561266008"/>
    <nd ref="561269237"/>
    <nd ref="972324499"/>
    <nd ref="31002399"/>
    <nd ref="31002400"/>
    <tag k="highway" v="primary"/>
    <tag k="name" v="Beach Road"/>
    <tag k="oneway" v="yes"/>
  </way>
  <way id="108712657" version="2" timestamp="2011-11-30T06:34:10Z" uid="142807" user="SDavies" changeset="9995977">
    <nd ref="1246509236"/>
    <nd ref="275240025"/>
    <nd ref="361192428"/>
    <nd ref="275240026"/>
    <nd ref="275240027"/>
    <nd ref="275240028"/>
    <nd ref="275240029"/>
    <nd ref="361192573"/>
    <nd ref="561266008"/>
    <nd ref="561269237"/>
    <nd ref="972324499"/>
    <nd ref="31002399"/>
    <nd ref="31002400"/>
    <tag k="highway" v="secondary"/>
    <tag k="name" v="Beach Road"/>
    <tag k="oneway" v="yes"/>
  </way>
  <way id="108712657" version="3" timestamp="2011-11-30T21:23:06Z" uid="142807" user="SDavies" changeset="10003299">
    <nd ref="1246509236"/>
    <nd ref="275240025"/>
    <nd ref="361192428"/>
    <nd ref="275240026"/>
    <nd ref="275240027"/>
    <nd ref="275240028"/>
    <nd ref="275240029"/>
    <nd ref="361192573"/>
    <nd ref="561266008"/>
    <nd ref="561269237"/>
    <nd ref="972324499"/>
    <nd ref="31002399"/>
    <tag k="highway" v="secondary"/>
    <tag k="name" v="Beach Road"/>
    <tag k="oneway" v="yes"/>
  </way>
  <way id="108712658" version="1" timestamp="2011-04-16T03:38:31Z" uid="4467" user="Rosscoe" changeset="7875153">
    <nd ref="1246509211"/>
    <nd ref="1246509299"/>
    <nd ref="1246509274"/>
    <tag k="highway" v="primary_link"/>
    <tag k="oneway" v="yes"/>
    <tag k="source" v="nearmap"/>
  </way>
  <way id="108712659" version="1" timestamp="2011-04-16T03:38:31Z" uid="4467" user="Rosscoe" changeset="7875153">
    <nd ref="275235742"/>
    <nd ref="275235743"/>
    <nd ref="275235746"/>
    <nd ref="275236805"/>
    <nd ref="275235748"/>
    <nd ref="275235749"/>
    <nd ref="972324242"/>
    <nd ref="30980341"/>
    <nd ref="275236555"/>
    <nd ref="275235750"/>
    <nd ref="275235751"/>
    <nd ref="275235752"/>
    <nd ref="275235753"/>
    <nd ref="275235754"/>
    <nd ref="275235756"/>
    <nd ref="275235757"/>
    <nd ref="275235758"/>
    <nd ref="275235759"/>
    <nd ref="275235760"/>
    <nd ref="275235761"/>
    <nd ref="275235762"/>
    <nd ref="31204502"/>
    <nd ref="32018827"/>
    <nd ref="31128579"/>
    <tag k="highway" v="trunk"/>
    <tag k="name" v="Reid Highway"/>
    <tag k="oneway" v="yes"/>
    <tag k="ref" v="S3"/>
  </way>
  <way id="108712659" version="2" timestamp="2011-09-14T16:33:58Z" uid="338866" user="tiger" changeset="9300896">
    <nd ref="275235742"/>
    <nd ref="275235743"/>
    <nd ref="275235746"/>
    <nd ref="275236805"/>
    <nd ref="275235748"/>
    <nd ref="275235749"/>
    <nd ref="972324242"/>
    <nd ref="30980341"/>
    <nd ref="275236555"/>
    <nd ref="1432789531"/>
    <nd ref="275235750"/>
    <nd ref="275235751"/>
    <nd ref="275235752"/>
    <nd ref="275235753"/>
    <nd ref="275235754"/>
    <nd ref="275235756"/>
    <nd ref="275235757"/>
    <nd ref="275235758"/>
    <nd ref="275235759"/>
    <nd ref="275235760"/>
    <nd ref="275235761"/>
    <nd ref="275235762"/>
    <nd ref="31204502"/>
    <nd ref="32018827"/>
    <nd ref="31128579"/>
    <tag k="highway" v="trunk"/>
    <tag k="name" v="Reid Highway"/>
    <tag k="oneway" v="yes"/>
    <tag k="ref" v="S3"/>
  </way>
  <way id="108712659" version="3" timestamp="2011-09-28T04:42:54Z" uid="142807" user="SDavies" changeset="9416138">
    <nd ref="275235742"/>
    <nd ref="275235743"/>
    <nd ref="275235746"/>
    <nd ref="275236805"/>
    <nd ref="275235748"/>
    <nd ref="275235749"/>
    <nd ref="972324242"/>
    <nd ref="30980341"/>
    <nd ref="275236555"/>
    <nd ref="1432789531"/>
    <nd ref="275235750"/>
    <nd ref="275235751"/>
    <nd ref="275235752"/>
    <nd ref="275235753"/>
    <nd ref="275235754"/>
    <nd ref="275235756"/>
    <nd ref="1447632643"/>
    <nd ref="275235757"/>
    <nd ref="275235758"/>
    <nd ref="275235759"/>
    <nd ref="275235760"/>
    <nd ref="1447632677"/>
    <nd ref="275235761"/>
    <nd ref="1447632681"/>
    <nd ref="275235762"/>
    <nd ref="1447632662"/>
    <nd ref="31204502"/>
    <nd ref="32018827"/>
    <nd ref="31128579"/>
    <tag k="highway" v="trunk"/>
    <tag k="name" v="Reid Highway"/>
    <tag k="oneway" v="yes"/>
    <tag k="ref" v="S3"/>
  </way>
  <way id="108712662" version="1" timestamp="2011-04-16T03:38:31Z" uid="4467" user="Rosscoe" changeset="7875153">
    <nd ref="1246509249"/>
    <nd ref="1246509255"/>
    <nd ref="1246509209"/>
    <tag k="highway" v="primary_link"/>
    <tag k="oneway" v="yes"/>
    <tag k="source" v="nearmap"/>
  </way>
  <way id="108712664" version="1" timestamp="2011-04-16T03:38:31Z" uid="4467" user="Rosscoe" changeset="7875153">
    <nd ref="275220186"/>
    <nd ref="1246509295"/>
    <nd ref="1246509269"/>
    <nd ref="1246509195"/>
    <tag k="highway" v="trunk_link"/>
    <tag k="oneway" v="yes"/>
    <tag k="source" v="nearmap"/>
  </way>
  <way id="108712666" version="1" timestamp="2011-04-16T03:38:32Z" uid="4467" user="Rosscoe" changeset="7875153">
    <nd ref="1246509259"/>
    <nd ref="1246509214"/>
    <nd ref="1246509304"/>
    <tag k="highway" v="residential"/>
    <tag k="maxspeed" v="50"/>
    <tag k="name" v="Capital Road"/>
    <tag k="oneway" v="yes"/>
    <tag k="source" v="nearmap"/>
    <tag k="source:maxspeed" v="default residential speed limit in Australia"/>
  </way>
  <way id="108712667" version="1" timestamp="2011-04-16T03:38:32Z" uid="4467" user="Rosscoe" changeset="7875153">
    <nd ref="1246509276"/>
    <nd ref="275235383"/>
    <nd ref="275235384"/>
    <nd ref="275235385"/>
    <nd ref="275235386"/>
    <nd ref="275235388"/>
    <nd ref="275235389"/>
    <nd ref="275235390"/>
    <nd ref="275235391"/>
    <nd ref="31002469"/>
    <nd ref="31002466"/>
    <nd ref="273128612"/>
    <nd ref="273128613"/>
    <nd ref="273128614"/>
    <nd ref="277839518"/>
    <tag k="highway" v="trunk"/>
    <tag k="name" v="Reid Highway"/>
    <tag k="oneway" v="yes"/>
    <tag k="ref" v="S3"/>
  </way>
  <way id="108712667" version="2" timestamp="2012-02-03T21:25:49Z" uid="599095" user="mikey_218" changeset="10579418">
    <nd ref="1246509276"/>
    <nd ref="275235383"/>
    <nd ref="275235384"/>
    <nd ref="275235385"/>
    <nd ref="275235386"/>
    <nd ref="275235388"/>
    <nd ref="275235389"/>
    <nd ref="275235390"/>
    <nd ref="275235391"/>
    <nd ref="31002469"/>
    <nd ref="31002466"/>
    <nd ref="273128612"/>
    <nd ref="273128613"/>
    <nd ref="273128614"/>
    <nd ref="277839518"/>
    <tag k="bridge" v="yes"/>
    <tag k="highway" v="trunk"/>
    <tag k="name" v="Reid Highway"/>
    <tag k="oneway" v="yes"/>
    <tag k="ref" v="S3"/>
  </way>
  <way id="108712669" version="1" timestamp="2011-04-16T03:38:32Z" uid="4467" user="Rosscoe" changeset="7875153">
    <nd ref="1246509260"/>
    <nd ref="1246509270"/>
    <nd ref="1246509223"/>
    <tag k="highway" v="primary_link"/>
    <tag k="oneway" v="yes"/>
    <tag k="source" v="nearmap"/>
  </way>
  <way id="108712670" version="1" timestamp="2011-04-16T03:38:32Z" uid="4467" user="Rosscoe" changeset="7875153">
    <nd ref="33122648"/>
    <nd ref="1246509285"/>
    <nd ref="1246509256"/>
    <tag k="highway" v="primary_link"/>
    <tag k="oneway" v="yes"/>
    <tag k="source" v="nearmap"/>
  </way>
  <way id="108712671" version="1" timestamp="2011-04-16T03:38:32Z" uid="4467" user="Rosscoe" changeset="7875153">
    <nd ref="1246509250"/>
    <nd ref="1246509216"/>
    <tag k="bridge" v="yes"/>
    <tag k="construction" v="trunk"/>
    <tag k="highway" v="construction"/>
    <tag k="layer" v="1"/>
    <tag k="name" v="Reid Highway"/>
    <tag k="ref" v="S3"/>
    <tag k="source" v="nearmap"/>
  </way>
  <way id="108712671" version="2" timestamp="2011-04-16T03:42:32Z" uid="4467" user="Rosscoe" changeset="7875159">
    <nd ref="1246509250"/>
    <nd ref="1246509216"/>
    <tag k="bridge" v="yes"/>
    <tag k="construction" v="trunk"/>
    <tag k="highway" v="construction"/>
    <tag k="layer" v="1"/>
    <tag k="name" v="Reid Highway"/>
    <tag k="opening_date" v="2011-07-01"/>
    <tag k="ref" v="S3"/>
    <tag k="source" v="nearmap"/>
  </way>
  <way id="108712671" version="3" timestamp="2012-01-22T13:00:36Z" uid="134344" user="Andrew Gregory" changeset="10464424">
    <nd ref="1246509250"/>
    <nd ref="1246509216"/>
    <tag k="bridge" v="yes"/>
    <tag k="highway" v="trunk"/>
    <tag k="layer" v="1"/>
    <tag k="name" v="Reid Highway"/>
    <tag k="oneway" v="yes"/>
    <tag k="opening_date" v="2011-07-01"/>
    <tag k="ref" v="S3"/>
    <tag k="source" v="nearmap"/>
  </way>
  <way id="108712672" version="1" timestamp="2011-04-16T03:38:33Z" uid="4467" user="Rosscoe" changeset="7875153">
    <nd ref="1246509288"/>
    <nd ref="1246509206"/>
    <nd ref="275239955"/>
    <nd ref="358462870"/>
    <nd ref="275239956"/>
    <nd ref="1246509298"/>
    <nd ref="1246509260"/>
    <nd ref="31002373"/>
    <nd ref="31002372"/>
    <tag k="highway" v="primary"/>
    <tag k="name" v="Beach Road"/>
    <tag k="oneway" v="yes"/>
  </way>
  <way id="108712674" version="1" timestamp="2011-04-16T03:38:33Z" uid="4467" user="Rosscoe" changeset="7875153">
    <nd ref="31293605"/>
    <nd ref="33122650"/>
    <nd ref="1246509259"/>
    <tag k="highway" v="residential"/>
    <tag k="maxspeed" v="50"/>
    <tag k="name" v="Capital Road"/>
    <tag k="oneway" v="yes"/>
    <tag k="source" v="nearmap"/>
    <tag k="source:maxspeed" v="default residential speed limit in Australia"/>
  </way>
  <way id="108712675" version="1" timestamp="2011-04-16T03:38:33Z" uid="4467" user="Rosscoe" changeset="7875153">
    <nd ref="33122652"/>
    <nd ref="1246509282"/>
    <nd ref="1246509240"/>
    <tag k="highway" v="primary_link"/>
    <tag k="oneway" v="yes"/>
    <tag k="source" v="nearmap"/>
  </way>
  <way id="108712676" version="1" timestamp="2011-04-16T03:38:33Z" uid="4467" user="Rosscoe" changeset="7875153">
    <nd ref="1246509226"/>
    <nd ref="1246509185"/>
    <tag k="bridge" v="yes"/>
    <tag k="construction" v="trunk"/>
    <tag k="highway" v="construction"/>
    <tag k="layer" v="1"/>
    <tag k="name" v="Reid Highway"/>
    <tag k="ref" v="S3"/>
    <tag k="source" v="nearmap"/>
  </way>
  <way id="108712676" version="2" timestamp="2011-04-16T03:42:33Z" uid="4467" user="Rosscoe" changeset="7875159">
    <nd ref="1246509226"/>
    <nd ref="1246509185"/>
    <tag k="bridge" v="yes"/>
    <tag k="construction" v="trunk"/>
    <tag k="highway" v="construction"/>
    <tag k="layer" v="1"/>
    <tag k="name" v="Reid Highway"/>
    <tag k="opening_date" v="2011-07-01"/>
    <tag k="ref" v="S3"/>
    <tag k="source" v="nearmap"/>
  </way>
  <way id="108712676" version="3" timestamp="2012-01-22T13:00:36Z" uid="134344" user="Andrew Gregory" changeset="10464424">
    <nd ref="1246509226"/>
    <nd ref="1246509185"/>
    <tag k="bridge" v="yes"/>
    <tag k="highway" v="trunk"/>
    <tag k="layer" v="1"/>
    <tag k="name" v="Reid Highway"/>
    <tag k="oneway" v="yes"/>
    <tag k="opening_date" v="2011-07-01"/>
    <tag k="ref" v="S3"/>
    <tag k="source" v="nearmap"/>
  </way>
  <way id="108712677" version="1" timestamp="2011-04-16T03:38:33Z" uid="4467" user="Rosscoe" changeset="7875153">
    <nd ref="1246509262"/>
    <nd ref="1246509230"/>
    <nd ref="1246509187"/>
    <nd ref="1246509289"/>
    <nd ref="1246509250"/>
    <tag k="construction" v="trunk"/>
    <tag k="highway" v="construction"/>
    <tag k="name" v="Reid Highway"/>
    <tag k="ref" v="S3"/>
    <tag k="source" v="nearmap"/>
  </way>
  <way id="108712677" version="2" timestamp="2011-04-16T03:42:32Z" uid="4467" user="Rosscoe" changeset="7875159">
    <nd ref="1246509262"/>
    <nd ref="1246509230"/>
    <nd ref="1246509187"/>
    <nd ref="1246509289"/>
    <nd ref="1246509250"/>
    <tag k="construction" v="trunk"/>
    <tag k="highway" v="construction"/>
    <tag k="name" v="Reid Highway"/>
    <tag k="opening_date" v="2011-07-01"/>
    <tag k="ref" v="S3"/>
    <tag k="source" v="nearmap"/>
  </way>
  <way id="108712677" version="3" timestamp="2012-01-22T13:00:37Z" uid="134344" user="Andrew Gregory" changeset="10464424">
    <nd ref="1246509262"/>
    <nd ref="1246509230"/>
    <nd ref="1246509187"/>
    <nd ref="1246509289"/>
    <nd ref="1246509250"/>
    <tag k="highway" v="trunk"/>
    <tag k="name" v="Reid Highway"/>
    <tag k="note" v="When construction complete these become highway=trunk_link and name and ref tag removed"/>
    <tag k="oneway" v="yes"/>
    <tag k="opening_date" v="2011-07-01"/>
    <tag k="ref" v="S3"/>
    <tag k="source" v="nearmap"/>
  </way>
  <way id="108712678" version="1" timestamp="2011-04-16T03:38:33Z" uid="4467" user="Rosscoe" changeset="7875153">
    <nd ref="1246509266"/>
    <nd ref="1246509273"/>
    <nd ref="1246509244"/>
    <tag k="highway" v="primary_link"/>
    <tag k="oneway" v="yes"/>
    <tag k="source" v="nearmap"/>
  </way>
  <way id="108712679" version="1" timestamp="2011-04-16T03:38:34Z" uid="4467" user="Rosscoe" changeset="7875153">
    <nd ref="1246509292"/>
    <nd ref="1246509267"/>
    <nd ref="1246509221"/>
    <tag k="highway" v="primary_link"/>
    <tag k="oneway" v="yes"/>
    <tag k="source" v="nearmap"/>
  </way>
  <way id="108712680" version="1" timestamp="2011-04-16T03:38:34Z" uid="4467" user="Rosscoe" changeset="7875153">
    <nd ref="1246509247"/>
    <nd ref="1246509228"/>
    <nd ref="1246509288"/>
    <nd ref="1246509280"/>
    <nd ref="1246509202"/>
    <nd ref="1246509180"/>
    <nd ref="1246509236"/>
    <nd ref="1246509186"/>
    <nd ref="1246509247"/>
    <tag k="highway" v="primary"/>
    <tag k="junction" v="roundabout"/>
    <tag k="source" v="nearmap"/>
  </way>
  <way id="108712681" version="1" timestamp="2011-04-16T03:38:34Z" uid="4467" user="Rosscoe" changeset="7875153">
    <nd ref="1246509262"/>
    <nd ref="275235512"/>
    <nd ref="275235513"/>
    <nd ref="275235515"/>
    <nd ref="558449750"/>
    <nd ref="30981532"/>
    <tag k="highway" v="trunk"/>
    <tag k="name" v="Reid Highway"/>
    <tag k="note" v="When construction complete these become highway=trunk_link and name and ref tag removed"/>
    <tag k="oneway" v="yes"/>
    <tag k="ref" v="S3"/>
  </way>
  <way id="108712681" version="2" timestamp="2012-01-22T13:00:37Z" uid="134344" user="Andrew Gregory" changeset="10464424">
    <nd ref="1246509262"/>
    <nd ref="275235512"/>
    <nd ref="275235513"/>
    <nd ref="275235515"/>
    <nd ref="558449750"/>
    <nd ref="30981532"/>
    <tag k="highway" v="trunk_link"/>
    <tag k="oneway" v="yes"/>
    <tag k="source" v="nearmap"/>
  </way>
  <way id="108712682" version="1" timestamp="2011-04-16T03:38:34Z" uid="4467" user="Rosscoe" changeset="7875153">
    <nd ref="1246509210"/>
    <nd ref="1246509197"/>
    <nd ref="277913123"/>
    <nd ref="1246509219"/>
    <nd ref="1246509256"/>
    <nd ref="1246509179"/>
    <nd ref="1246509279"/>
    <nd ref="1246509235"/>
    <nd ref="1246509305"/>
    <nd ref="1246509183"/>
    <nd ref="1246509284"/>
    <nd ref="1246509243"/>
    <nd ref="1246509208"/>
    <nd ref="1221072162"/>
    <tag k="highway" v="secondary"/>
    <tag k="name" v="Illawarra Crescent South"/>
    <tag k="oneway" v="yes"/>
    <tag k="source" v="nearmap"/>
  </way>
  <way id="108712684" version="1" timestamp="2011-04-16T03:38:34Z" uid="4467" user="Rosscoe" changeset="7875153">
    <nd ref="1246509283"/>
    <nd ref="1246509239"/>
    <nd ref="1246509261"/>
    <tag k="highway" v="primary_link"/>
    <tag k="oneway" v="yes"/>
    <tag k="source" v="nearmap"/>
  </way>
  <way id="108712685" version="1" timestamp="2011-04-16T03:38:34Z" uid="4467" user="Rosscoe" changeset="7875153">
    <nd ref="1246509205"/>
    <nd ref="1246509241"/>
    <nd ref="1246509196"/>
    <nd ref="1246509297"/>
    <nd ref="1246509258"/>
    <nd ref="1246509226"/>
    <tag k="construction" v="trunk"/>
    <tag k="highway" v="construction"/>
    <tag k="name" v="Reid Highway"/>
    <tag k="ref" v="S3"/>
    <tag k="source" v="nearmap"/>
  </way>
  <way id="108712685" version="2" timestamp="2011-04-16T03:42:32Z" uid="4467" user="Rosscoe" changeset="7875159">
    <nd ref="1246509205"/>
    <nd ref="1246509241"/>
    <nd ref="1246509196"/>
    <nd ref="1246509297"/>
    <nd ref="1246509258"/>
    <nd ref="1246509226"/>
    <tag k="construction" v="trunk"/>
    <tag k="highway" v="construction"/>
    <tag k="name" v="Reid Highway"/>
    <tag k="opening_date" v="2011-07-01"/>
    <tag k="ref" v="S3"/>
    <tag k="source" v="nearmap"/>
  </way>
  <way id="108712685" version="3" timestamp="2012-01-22T13:00:38Z" uid="134344" user="Andrew Gregory" changeset="10464424">
    <nd ref="1246509205"/>
    <nd ref="1246509241"/>
    <nd ref="1246509196"/>
    <nd ref="1246509297"/>
    <nd ref="1246509258"/>
    <nd ref="1246509226"/>
    <tag k="highway" v="trunk"/>
    <tag k="name" v="Reid Highway"/>
    <tag k="oneway" v="yes"/>
    <tag k="opening_date" v="2011-07-01"/>
    <tag k="ref" v="S3"/>
    <tag k="source" v="nearmap"/>
  </way>
  <way id="108712686" version="1" timestamp="2011-04-16T03:38:35Z" uid="4467" user="Rosscoe" changeset="7875153">
    <nd ref="1246509229"/>
    <nd ref="1246509254"/>
    <nd ref="1246509203"/>
    <tag k="highway" v="primary_link"/>
    <tag k="oneway" v="yes"/>
    <tag k="source" v="nearmap"/>
  </way>
  <way id="108712687" version="1" timestamp="2011-04-16T03:38:35Z" uid="4467" user="Rosscoe" changeset="7875153">
    <nd ref="1246509216"/>
    <nd ref="1246509306"/>
    <nd ref="1246509277"/>
    <nd ref="275235742"/>
    <tag k="construction" v="trunk"/>
    <tag k="highway" v="construction"/>
    <tag k="name" v="Reid Highway"/>
    <tag k="ref" v="S3"/>
    <tag k="source" v="nearmap"/>
  </way>
  <way id="108712687" version="2" timestamp="2011-04-16T03:42:32Z" uid="4467" user="Rosscoe" changeset="7875159">
    <nd ref="1246509216"/>
    <nd ref="1246509306"/>
    <nd ref="1246509277"/>
    <nd ref="275235742"/>
    <tag k="construction" v="trunk"/>
    <tag k="highway" v="construction"/>
    <tag k="name" v="Reid Highway"/>
    <tag k="opening_date" v="2011-07-01"/>
    <tag k="ref" v="S3"/>
    <tag k="source" v="nearmap"/>
  </way>
  <way id="108712687" version="3" timestamp="2012-01-22T13:00:38Z" uid="134344" user="Andrew Gregory" changeset="10464424">
    <nd ref="1246509216"/>
    <nd ref="1246509306"/>
    <nd ref="1246509277"/>
    <nd ref="275235742"/>
    <tag k="highway" v="trunk"/>
    <tag k="name" v="Reid Highway"/>
    <tag k="oneway" v="yes"/>
    <tag k="opening_date" v="2011-07-01"/>
    <tag k="ref" v="S3"/>
    <tag k="source" v="nearmap"/>
  </way>
</osm>
