<?xml version='1.0' encoding='UTF-8'?>
<osm version="0.6" generator="libosmium/2.20.0">
  <way id="108898607" version="1" timestamp="2011-04-17T13:20:03Z" uid="33382" user="de_muur" changeset="7886593">
    <nd ref="1248395408"/>
    <nd ref="29588068"/>
    <tag k="highway" v="tertiary"/>
    <tag k="name" v="Neddener Dorfstraße"/>
    <tag k="ref" v="K 13"/>
    <tag k="surface" v="paved"/>
  </way>
  <way id="108898607" version="2" timestamp="2011-05-01T12:11:49Z" uid="14078" user="fröstel" changeset="8020475">
    <nd ref="1248395408"/>
    <nd ref="1268726296"/>
    <tag k="highway" v="tertiary"/>
    <tag k="name" v="Neddener Dorfstraße"/>
    <tag k="ref" v="K 13"/>
    <tag k="surface" v="paved"/>
  </way>
  <way id="108898609" version="1" timestamp="2011-04-17T13:20:04Z" uid="33382" user="de_muur" changeset="7886593">
    <nd ref="308135338"/>
    <nd ref="94203198"/>
    <nd ref="1248395410"/>
    <nd ref="365463837"/>
    <nd ref="29588068"/>
    <tag k="highway" v="secondary"/>
    <tag k="ref" v="L 160"/>
    <tag k="surface" v="paved"/>
  </way>
  <way id="108898609" version="2" timestamp="2011-05-01T12:11:44Z" uid="14078" user="fröstel" changeset="8020475">
    <nd ref="308135338"/>
    <nd ref="94203198"/>
    <nd ref="1248395410"/>
    <nd ref="365463837"/>
    <nd ref="1268726296"/>
    <tag k="highway" v="secondary"/>
    <tag k="ref" v="L 160"/>
    <tag k="surface" v="paved"/>
  </way>
  <way id="108898610" version="1" timestamp="2011-04-17T13:20:04Z" uid="33382" user="de_muur" changeset="7886593">
    <nd ref="1248395408"/>
    <nd ref="1248395407"/>
    <tag k="highway" v="track"/>
    <tag k="note" v="to be continued"/>
  </way>
</osm>
