<?xml version='1.0' encoding='UTF-8'?>
<osm version="0.6" generator="libosmium/2.20.0">
  <way id="109188997" version="2" timestamp="2011-05-07T09:43:05Z" uid="7617" user="Franc" changeset="8071928">
    <nd ref="28375019"/>
    <nd ref="32878950"/>
    <nd ref="29415560"/>
    <nd ref="17854058"/>
    <tag k="highway" v="trunk"/>
    <tag k="maxspeed" v="60"/>
    <tag k="name" v="President Avenue"/>
    <tag k="network" v="MR"/>
    <tag k="oneway" v="yes"/>
    <tag k="ref" v="1"/>
  </way>
  <way id="109188997" version="3" timestamp="2012-02-01T01:38:48Z" uid="54784" user="Tom Hollander" changeset="10555374">
    <nd ref="28375019"/>
    <nd ref="32878950"/>
    <nd ref="29415560"/>
    <nd ref="17854058"/>
    <tag k="highway" v="trunk"/>
    <tag k="maxspeed" v="60"/>
    <tag k="name" v="President Avenue"/>
    <tag k="network" v="MR"/>
    <tag k="oneway" v="yes"/>
    <tag k="ref" v="MR1"/>
  </way>
  <way id="109188997" version="4" timestamp="2012-02-02T08:04:34Z" uid="7523" user="inas" changeset="10565177">
    <nd ref="28375019"/>
    <nd ref="32878950"/>
    <nd ref="29415560"/>
    <nd ref="17854058"/>
    <tag k="highway" v="trunk"/>
    <tag k="maxspeed" v="60"/>
    <tag k="name" v="President Avenue"/>
    <tag k="network" v="MR"/>
    <tag k="oneway" v="yes"/>
    <tag k="ref" v="1"/>
  </way>
  <way id="109188997" version="5" timestamp="2012-03-22T00:20:34Z" uid="7523" user="inas" changeset="11058517"/>
</osm>
