<?xml version='1.0' encoding='UTF-8'?>
<osm version="0.6" generator="libosmium/2.20.0">
  <way id="109282692" version="1" timestamp="2011-04-19T18:15:24Z" uid="33382" user="de_muur" changeset="7909057">
    <nd ref="253944808"/>
    <nd ref="968016109"/>
    <nd ref="1251513618"/>
    <nd ref="950700326"/>
    <nd ref="253944821"/>
    <nd ref="950698528"/>
    <nd ref="253944822"/>
    <nd ref="253944823"/>
    <nd ref="948353653"/>
    <tag k="highway" v="tertiary"/>
    <tag k="maxspeed" v="50"/>
    <tag k="ref" v="K 18"/>
    <tag k="surface" v="paved"/>
  </way>
  <way id="109282692" version="2" timestamp="2012-02-05T19:14:56Z" uid="14002" user="Gehrke" changeset="10597146"/>
  <way id="109282694" version="1" timestamp="2011-04-19T18:15:25Z" uid="33382" user="de_muur" changeset="7909057">
    <nd ref="948353653"/>
    <nd ref="253944824"/>
    <nd ref="253944825"/>
    <tag k="highway" v="tertiary"/>
    <tag k="maxspeed" v="50"/>
    <tag k="ref" v="K 18"/>
    <tag k="surface" v="paved"/>
  </way>
  <way id="109282694" version="2" timestamp="2012-02-05T19:14:55Z" uid="14002" user="Gehrke" changeset="10597146">
    <nd ref="948353653"/>
    <nd ref="253944824"/>
    <nd ref="253944825"/>
    <tag k="highway" v="tertiary"/>
    <tag k="maxspeed" v="50"/>
    <tag k="name" v="Schafwinkeler DorfstraÃŸe"/>
    <tag k="ref" v="K 18"/>
    <tag k="surface" v="paved"/>
  </way>
</osm>
