<?xml version='1.0' encoding='UTF-8'?>
<osm version="0.6" generator="libosmium/2.20.0">
  <way id="109815044" version="1" timestamp="2011-04-22T23:16:06Z" uid="7617" user="Franc" changeset="7939553">
    <nd ref="10282309"/>
    <nd ref="35630731"/>
    <nd ref="213418483"/>
    <nd ref="35634168"/>
    <tag k="highway" v="trunk"/>
    <tag k="maxspeed" v="70"/>
    <tag k="name" v="Princes Highway"/>
    <tag k="network" v="MR"/>
    <tag k="oneway" v="yes"/>
    <tag k="ref" v="1"/>
  </way>
  <way id="109815044" version="2" timestamp="2012-02-01T01:38:36Z" uid="54784" user="Tom Hollander" changeset="10555374">
    <nd ref="10282309"/>
    <nd ref="35630731"/>
    <nd ref="213418483"/>
    <nd ref="35634168"/>
    <tag k="highway" v="trunk"/>
    <tag k="maxspeed" v="70"/>
    <tag k="name" v="Princes Highway"/>
    <tag k="network" v="MR"/>
    <tag k="oneway" v="yes"/>
    <tag k="ref" v="MR1"/>
  </way>
  <way id="109815044" version="3" timestamp="2012-02-02T09:14:17Z" uid="7523" user="inas" changeset="10565546">
    <nd ref="10282309"/>
    <nd ref="35630731"/>
    <nd ref="213418483"/>
    <nd ref="35634168"/>
    <tag k="highway" v="trunk"/>
    <tag k="maxspeed" v="70"/>
    <tag k="name" v="Princes Highway"/>
    <tag k="network" v="MR"/>
    <tag k="oneway" v="yes"/>
    <tag k="ref" v="1"/>
  </way>
  <way id="109815044" version="4" timestamp="2012-03-20T04:23:53Z" uid="7523" user="inas" changeset="11037300"/>
  <way id="109815045" version="1" timestamp="2011-04-22T23:16:06Z" uid="7617" user="Franc" changeset="7939553">
    <nd ref="587611978"/>
    <nd ref="587611980"/>
    <nd ref="587611979"/>
    <nd ref="1256125928"/>
    <nd ref="587611976"/>
    <nd ref="587611977"/>
    <nd ref="587611975"/>
    <nd ref="587611972"/>
    <nd ref="587611973"/>
    <nd ref="587611971"/>
    <nd ref="587611970"/>
    <tag k="highway" v="trunk"/>
    <tag k="lanes" v="3"/>
    <tag k="maxspeed" v="70"/>
    <tag k="name" v="Princes Highway"/>
    <tag k="network" v="MR"/>
    <tag k="oneway" v="yes"/>
    <tag k="ref" v="1"/>
    <tag k="source" v="survey;nearmap"/>
  </way>
  <way id="109815045" version="2" timestamp="2012-02-01T01:38:37Z" uid="54784" user="Tom Hollander" changeset="10555374">
    <nd ref="587611978"/>
    <nd ref="587611980"/>
    <nd ref="587611979"/>
    <nd ref="1256125928"/>
    <nd ref="587611976"/>
    <nd ref="587611977"/>
    <nd ref="587611975"/>
    <nd ref="587611972"/>
    <nd ref="587611973"/>
    <nd ref="587611971"/>
    <nd ref="587611970"/>
    <tag k="highway" v="trunk"/>
    <tag k="lanes" v="3"/>
    <tag k="maxspeed" v="70"/>
    <tag k="name" v="Princes Highway"/>
    <tag k="network" v="MR"/>
    <tag k="oneway" v="yes"/>
    <tag k="ref" v="MR1"/>
    <tag k="source" v="survey;nearmap"/>
  </way>
  <way id="109815045" version="3" timestamp="2012-02-02T08:04:37Z" uid="7523" user="inas" changeset="10565177">
    <nd ref="587611978"/>
    <nd ref="587611980"/>
    <nd ref="587611979"/>
    <nd ref="1256125928"/>
    <nd ref="587611976"/>
    <nd ref="587611977"/>
    <nd ref="587611975"/>
    <nd ref="587611972"/>
    <nd ref="587611973"/>
    <nd ref="587611971"/>
    <nd ref="587611970"/>
    <tag k="highway" v="trunk"/>
    <tag k="lanes" v="3"/>
    <tag k="maxspeed" v="70"/>
    <tag k="name" v="Princes Highway"/>
    <tag k="network" v="MR"/>
    <tag k="oneway" v="yes"/>
    <tag k="ref" v="1"/>
    <tag k="source" v="survey;nearmap"/>
  </way>
  <way id="109815045" version="4" timestamp="2012-03-20T04:23:53Z" uid="7523" user="inas" changeset="11037300"/>
  <way id="109815046" version="1" timestamp="2011-04-22T23:16:07Z" uid="7617" user="Franc" changeset="7939553">
    <nd ref="35637110"/>
    <nd ref="35637085"/>
    <tag k="highway" v="unclassified"/>
    <tag k="name" v="Chapel Street"/>
    <tag k="oneway" v="yes"/>
    <tag k="source" v="survey"/>
  </way>
  <way id="109815047" version="1" timestamp="2011-04-22T23:16:07Z" uid="7617" user="Franc" changeset="7939553">
    <nd ref="575701209"/>
    <nd ref="1072787021"/>
    <nd ref="33226063"/>
    <tag k="highway" v="trunk"/>
    <tag k="maxspeed" v="60"/>
    <tag k="name" v="President Avenue"/>
    <tag k="oneway" v="yes"/>
  </way>
  <way id="109815047" version="2" timestamp="2012-02-01T01:38:37Z" uid="54784" user="Tom Hollander" changeset="10555374">
    <nd ref="575701209"/>
    <nd ref="1072787021"/>
    <nd ref="33226063"/>
    <tag k="highway" v="trunk"/>
    <tag k="maxspeed" v="60"/>
    <tag k="name" v="President Avenue"/>
    <tag k="oneway" v="yes"/>
    <tag k="ref" v="MR1"/>
  </way>
  <way id="109815047" version="3" timestamp="2012-02-02T09:14:13Z" uid="7523" user="inas" changeset="10565546">
    <nd ref="575701209"/>
    <nd ref="1072787021"/>
    <nd ref="33226063"/>
    <tag k="highway" v="trunk"/>
    <tag k="maxspeed" v="60"/>
    <tag k="name" v="President Avenue"/>
    <tag k="network" v="MR"/>
    <tag k="oneway" v="yes"/>
    <tag k="ref" v="1"/>
  </way>
  <way id="109815047" version="4" timestamp="2012-03-20T04:23:52Z" uid="7523" user="inas" changeset="11037300"/>
  <way id="109815048" version="1" timestamp="2011-04-22T23:16:07Z" uid="7617" user="Franc" changeset="7939553">
    <nd ref="587611978"/>
    <nd ref="474437973"/>
    <nd ref="221719538"/>
    <nd ref="221719539"/>
    <nd ref="221719541"/>
    <nd ref="221721251"/>
    <nd ref="221719542"/>
    <nd ref="221719545"/>
    <nd ref="221722323"/>
    <nd ref="221722853"/>
    <nd ref="221719549"/>
    <nd ref="18253584"/>
    <nd ref="221722337"/>
    <nd ref="588189388"/>
    <nd ref="18253588"/>
    <tag k="highway" v="residential"/>
    <tag k="lcn" v="yes"/>
    <tag k="maxspeed" v="50"/>
    <tag k="maxspeed:source" v="default residential speed limit in Australia"/>
    <tag k="name" v="Carwar Avenue"/>
    <tag k="source" v="survey"/>
  </way>
  <way id="109815048" version="2" timestamp="2011-04-26T08:02:40Z" uid="20949" user="Ebenezer" changeset="7971869">
    <nd ref="587611978"/>
    <nd ref="474437973"/>
    <nd ref="221719538"/>
    <nd ref="221719539"/>
    <nd ref="221719541"/>
    <nd ref="221721251"/>
    <nd ref="221719542"/>
    <nd ref="221719545"/>
    <nd ref="221722323"/>
    <nd ref="221722853"/>
    <nd ref="221719549"/>
    <nd ref="18253584"/>
    <tag k="highway" v="residential"/>
    <tag k="lcn" v="yes"/>
    <tag k="maxspeed" v="50"/>
    <tag k="maxspeed:source" v="default residential speed limit in Australia"/>
    <tag k="name" v="Carwar Avenue"/>
    <tag k="source" v="survey"/>
  </way>
  <way id="109815049" version="1" timestamp="2011-04-22T23:16:07Z" uid="7617" user="Franc" changeset="7939553">
    <nd ref="28548061"/>
    <nd ref="575727163"/>
    <tag k="highway" v="secondary"/>
    <tag k="lcn" v="yes"/>
    <tag k="maxspeed" v="60"/>
    <tag k="name" v="Park Road"/>
  </way>
  <way id="109815049" version="2" timestamp="2012-03-21T02:39:03Z" uid="7523" user="inas" changeset="11047814"/>
  <way id="109815050" version="1" timestamp="2011-04-22T23:16:07Z" uid="7617" user="Franc" changeset="7939553">
    <nd ref="1072786875"/>
    <nd ref="575701170"/>
    <tag k="highway" v="trunk"/>
    <tag k="maxspeed" v="60"/>
    <tag k="name" v="Princes Highway"/>
    <tag k="network" v="MR"/>
    <tag k="oneway" v="yes"/>
    <tag k="ref" v="1"/>
    <tag k="restriction" v="school_zone"/>
  </way>
  <way id="109815050" version="2" timestamp="2012-02-01T01:38:37Z" uid="54784" user="Tom Hollander" changeset="10555374">
    <nd ref="1072786875"/>
    <nd ref="575701170"/>
    <tag k="highway" v="trunk"/>
    <tag k="maxspeed" v="60"/>
    <tag k="name" v="Princes Highway"/>
    <tag k="network" v="MR"/>
    <tag k="oneway" v="yes"/>
    <tag k="ref" v="MR1"/>
    <tag k="restriction" v="school_zone"/>
  </way>
  <way id="109815050" version="3" timestamp="2012-02-02T08:04:47Z" uid="7523" user="inas" changeset="10565177">
    <nd ref="1072786875"/>
    <nd ref="575701170"/>
    <tag k="highway" v="trunk"/>
    <tag k="maxspeed" v="60"/>
    <tag k="name" v="Princes Highway"/>
    <tag k="network" v="MR"/>
    <tag k="oneway" v="yes"/>
    <tag k="ref" v="1"/>
    <tag k="restriction" v="school_zone"/>
  </way>
  <way id="109815050" version="4" timestamp="2012-03-20T04:23:53Z" uid="7523" user="inas" changeset="11037300"/>
  <way id="109815051" version="1" timestamp="2011-04-22T23:16:08Z" uid="7617" user="Franc" changeset="7939553">
    <nd ref="221719537"/>
    <nd ref="307341534"/>
    <nd ref="1256125950"/>
    <nd ref="221720899"/>
    <nd ref="10282295"/>
    <tag k="highway" v="trunk"/>
    <tag k="lanes" v="3"/>
    <tag k="maxspeed" v="70"/>
    <tag k="name" v="Princes Highway"/>
    <tag k="network" v="MR"/>
    <tag k="oneway" v="yes"/>
    <tag k="ref" v="1"/>
  </way>
  <way id="109815051" version="2" timestamp="2012-02-01T01:38:38Z" uid="54784" user="Tom Hollander" changeset="10555374">
    <nd ref="221719537"/>
    <nd ref="307341534"/>
    <nd ref="1256125950"/>
    <nd ref="221720899"/>
    <nd ref="10282295"/>
    <tag k="highway" v="trunk"/>
    <tag k="lanes" v="3"/>
    <tag k="maxspeed" v="70"/>
    <tag k="name" v="Princes Highway"/>
    <tag k="network" v="MR"/>
    <tag k="oneway" v="yes"/>
    <tag k="ref" v="MR1"/>
  </way>
  <way id="109815051" version="3" timestamp="2012-02-02T09:14:18Z" uid="7523" user="inas" changeset="10565546">
    <nd ref="221719537"/>
    <nd ref="307341534"/>
    <nd ref="1256125950"/>
    <nd ref="221720899"/>
    <nd ref="10282295"/>
    <tag k="highway" v="trunk"/>
    <tag k="lanes" v="3"/>
    <tag k="maxspeed" v="70"/>
    <tag k="name" v="Princes Highway"/>
    <tag k="network" v="MR"/>
    <tag k="oneway" v="yes"/>
    <tag k="ref" v="1"/>
  </way>
  <way id="109815051" version="4" timestamp="2012-03-20T04:23:53Z" uid="7523" user="inas" changeset="11037300"/>
  <way id="109815052" version="1" timestamp="2011-04-22T23:16:08Z" uid="7617" user="Franc" changeset="7939553">
    <nd ref="575727159"/>
    <nd ref="575727136"/>
    <nd ref="1256125943"/>
    <nd ref="587611555"/>
    <nd ref="587611978"/>
    <tag k="highway" v="trunk"/>
    <tag k="lanes" v="3"/>
    <tag k="maxspeed" v="70"/>
    <tag k="name" v="Princes Highway"/>
    <tag k="network" v="MR"/>
    <tag k="oneway" v="yes"/>
    <tag k="ref" v="1"/>
    <tag k="source" v="survey;nearmap"/>
  </way>
  <way id="109815052" version="2" timestamp="2012-02-01T01:38:38Z" uid="54784" user="Tom Hollander" changeset="10555374">
    <nd ref="575727159"/>
    <nd ref="575727136"/>
    <nd ref="1256125943"/>
    <nd ref="587611555"/>
    <nd ref="587611978"/>
    <tag k="highway" v="trunk"/>
    <tag k="lanes" v="3"/>
    <tag k="maxspeed" v="70"/>
    <tag k="name" v="Princes Highway"/>
    <tag k="network" v="MR"/>
    <tag k="oneway" v="yes"/>
    <tag k="ref" v="MR1"/>
    <tag k="source" v="survey;nearmap"/>
  </way>
  <way id="109815052" version="3" timestamp="2012-02-02T08:05:02Z" uid="7523" user="inas" changeset="10565177">
    <nd ref="575727159"/>
    <nd ref="575727136"/>
    <nd ref="1256125943"/>
    <nd ref="587611555"/>
    <nd ref="587611978"/>
    <tag k="highway" v="trunk"/>
    <tag k="lanes" v="3"/>
    <tag k="maxspeed" v="70"/>
    <tag k="name" v="Princes Highway"/>
    <tag k="network" v="MR"/>
    <tag k="oneway" v="yes"/>
    <tag k="ref" v="1"/>
    <tag k="source" v="survey;nearmap"/>
  </way>
  <way id="109815052" version="4" timestamp="2012-03-21T02:29:14Z" uid="7523" user="inas" changeset="11047788"/>
  <way id="109815053" version="1" timestamp="2011-04-22T23:16:08Z" uid="7617" user="Franc" changeset="7939553">
    <nd ref="575701138"/>
    <nd ref="575727169"/>
    <nd ref="575727172"/>
    <nd ref="575727165"/>
    <nd ref="575727163"/>
    <tag k="highway" v="trunk"/>
    <tag k="lanes" v="3"/>
    <tag k="maxspeed" v="70"/>
    <tag k="name" v="Princes Highway"/>
    <tag k="network" v="MR"/>
    <tag k="oneway" v="yes"/>
    <tag k="ref" v="1"/>
  </way>
  <way id="109815053" version="2" timestamp="2012-02-01T01:38:38Z" uid="54784" user="Tom Hollander" changeset="10555374">
    <nd ref="575701138"/>
    <nd ref="575727169"/>
    <nd ref="575727172"/>
    <nd ref="575727165"/>
    <nd ref="575727163"/>
    <tag k="highway" v="trunk"/>
    <tag k="lanes" v="3"/>
    <tag k="maxspeed" v="70"/>
    <tag k="name" v="Princes Highway"/>
    <tag k="network" v="MR"/>
    <tag k="oneway" v="yes"/>
    <tag k="ref" v="MR1"/>
  </way>
  <way id="109815053" version="3" timestamp="2012-02-02T08:05:04Z" uid="7523" user="inas" changeset="10565177">
    <nd ref="575701138"/>
    <nd ref="575727169"/>
    <nd ref="575727172"/>
    <nd ref="575727165"/>
    <nd ref="575727163"/>
    <tag k="highway" v="trunk"/>
    <tag k="lanes" v="3"/>
    <tag k="maxspeed" v="70"/>
    <tag k="name" v="Princes Highway"/>
    <tag k="network" v="MR"/>
    <tag k="oneway" v="yes"/>
    <tag k="ref" v="1"/>
  </way>
  <way id="109815053" version="4" timestamp="2012-03-20T04:23:53Z" uid="7523" user="inas" changeset="11037300"/>
  <way id="109815054" version="1" timestamp="2011-04-22T23:16:08Z" uid="7617" user="Franc" changeset="7939553">
    <nd ref="575701148"/>
    <nd ref="33225838"/>
    <tag k="highway" v="residential"/>
    <tag k="maxspeed" v="50"/>
    <tag k="maxspeed:source" v="default residential speed limit in Australia"/>
    <tag k="name" v="Gray Street"/>
    <tag k="source" v="survey"/>
  </way>
  <way id="109815055" version="1" timestamp="2011-04-22T23:16:08Z" uid="7617" user="Franc" changeset="7939553">
    <nd ref="1256125956"/>
    <nd ref="1256125937"/>
    <nd ref="1256125939"/>
    <nd ref="1256125942"/>
    <nd ref="1256125948"/>
    <nd ref="1256125952"/>
    <nd ref="202597355"/>
    <nd ref="1256125954"/>
    <nd ref="1256125958"/>
    <nd ref="1256125956"/>
    <tag k="amenity" v="school"/>
    <tag k="source" v="nearmap"/>
  </way>
  <way id="109815055" version="2" timestamp="2012-03-20T04:23:55Z" uid="7523" user="inas" changeset="11037300"/>
  <way id="109815056" version="1" timestamp="2011-04-22T23:16:09Z" uid="7617" user="Franc" changeset="7939553">
    <nd ref="10282295"/>
    <nd ref="215905625"/>
    <nd ref="215906958"/>
    <nd ref="215907456"/>
    <nd ref="1083056323"/>
    <nd ref="28548061"/>
    <tag k="highway" v="trunk"/>
    <tag k="lanes" v="3"/>
    <tag k="maxspeed" v="70"/>
    <tag k="name" v="Princes Highway"/>
    <tag k="network" v="MR"/>
    <tag k="oneway" v="yes"/>
    <tag k="ref" v="1"/>
  </way>
  <way id="109815056" version="2" timestamp="2012-02-01T01:38:39Z" uid="54784" user="Tom Hollander" changeset="10555374">
    <nd ref="10282295"/>
    <nd ref="215905625"/>
    <nd ref="215906958"/>
    <nd ref="215907456"/>
    <nd ref="1083056323"/>
    <nd ref="28548061"/>
    <tag k="highway" v="trunk"/>
    <tag k="lanes" v="3"/>
    <tag k="maxspeed" v="70"/>
    <tag k="name" v="Princes Highway"/>
    <tag k="network" v="MR"/>
    <tag k="oneway" v="yes"/>
    <tag k="ref" v="MR1"/>
  </way>
  <way id="109815056" version="3" timestamp="2012-02-02T09:14:18Z" uid="7523" user="inas" changeset="10565546">
    <nd ref="10282295"/>
    <nd ref="215905625"/>
    <nd ref="215906958"/>
    <nd ref="215907456"/>
    <nd ref="1083056323"/>
    <nd ref="28548061"/>
    <tag k="highway" v="trunk"/>
    <tag k="lanes" v="3"/>
    <tag k="maxspeed" v="70"/>
    <tag k="name" v="Princes Highway"/>
    <tag k="network" v="MR"/>
    <tag k="oneway" v="yes"/>
    <tag k="ref" v="1"/>
  </way>
  <way id="109815056" version="4" timestamp="2012-03-20T04:23:53Z" uid="7523" user="inas" changeset="11037300"/>
  <way id="109815057" version="1" timestamp="2011-04-22T23:16:09Z" uid="7617" user="Franc" changeset="7939553">
    <nd ref="33225838"/>
    <nd ref="1072794324"/>
    <tag k="highway" v="trunk"/>
    <tag k="maxspeed" v="60"/>
    <tag k="name" v="Princes Highway"/>
    <tag k="oneway" v="yes"/>
  </way>
  <way id="109815057" version="2" timestamp="2012-02-01T01:38:39Z" uid="54784" user="Tom Hollander" changeset="10555374">
    <nd ref="33225838"/>
    <nd ref="1072794324"/>
    <tag k="highway" v="trunk"/>
    <tag k="maxspeed" v="60"/>
    <tag k="name" v="Princes Highway"/>
    <tag k="oneway" v="yes"/>
    <tag k="ref" v="MR1"/>
  </way>
  <way id="109815057" version="3" timestamp="2012-02-02T09:14:15Z" uid="7523" user="inas" changeset="10565546">
    <nd ref="33225838"/>
    <nd ref="1072794324"/>
    <tag k="highway" v="trunk"/>
    <tag k="maxspeed" v="60"/>
    <tag k="name" v="Princes Highway"/>
    <tag k="network" v="MR"/>
    <tag k="oneway" v="yes"/>
    <tag k="ref" v="1"/>
  </way>
  <way id="109815057" version="4" timestamp="2012-03-20T04:23:53Z" uid="7523" user="inas" changeset="11037300"/>
  <way id="109815058" version="1" timestamp="2011-04-22T23:16:09Z" uid="7617" user="Franc" changeset="7939553">
    <nd ref="35995905"/>
    <nd ref="202597428"/>
    <nd ref="1072797827"/>
    <tag k="highway" v="unclassified"/>
    <tag k="maxspeed" v="50"/>
    <tag k="name" v="South Street"/>
    <tag k="restriction" v="school_zone"/>
    <tag k="source" v="survey"/>
  </way>
  <way id="109815058" version="2" timestamp="2012-03-21T03:15:49Z" uid="7523" user="inas" changeset="11047931">
    <nd ref="202597428"/>
    <nd ref="1072797827"/>
    <tag k="highway" v="unclassified"/>
    <tag k="maxspeed" v="50"/>
    <tag k="name" v="South Street"/>
    <tag k="restriction" v="school_zone"/>
    <tag k="source" v="survey"/>
  </way>
  <way id="109815059" version="1" timestamp="2011-04-22T23:16:09Z" uid="7617" user="Franc" changeset="7939553">
    <nd ref="1072786875"/>
    <nd ref="17854082"/>
    <tag k="highway" v="trunk"/>
    <tag k="maxspeed" v="60"/>
    <tag k="name" v="President Avenue"/>
    <tag k="oneway" v="yes"/>
    <tag k="restriction" v="school_zone"/>
  </way>
  <way id="109815059" version="2" timestamp="2012-03-21T03:15:50Z" uid="7523" user="inas" changeset="11047931"/>
  <way id="109815060" version="1" timestamp="2011-04-22T23:16:10Z" uid="7617" user="Franc" changeset="7939553">
    <nd ref="215911856"/>
    <nd ref="215916996"/>
    <nd ref="587611974"/>
    <nd ref="10279674"/>
    <nd ref="247301576"/>
    <nd ref="247301582"/>
    <nd ref="247301589"/>
    <nd ref="1256125955"/>
    <nd ref="10279679"/>
    <nd ref="307341533"/>
    <nd ref="221719537"/>
    <tag k="highway" v="trunk"/>
    <tag k="lanes" v="3"/>
    <tag k="maxspeed" v="70"/>
    <tag k="name" v="Princes Highway"/>
    <tag k="network" v="MR"/>
    <tag k="oneway" v="yes"/>
    <tag k="ref" v="1"/>
  </way>
  <way id="109815060" version="2" timestamp="2012-01-25T00:41:57Z" uid="7523" user="inas" changeset="10489899">
    <nd ref="215911856"/>
    <nd ref="215916996"/>
    <nd ref="1604307501"/>
    <nd ref="587611974"/>
    <nd ref="10279674"/>
    <nd ref="247301576"/>
    <nd ref="247301582"/>
    <nd ref="247301589"/>
    <nd ref="1256125955"/>
    <nd ref="10279679"/>
    <nd ref="307341533"/>
    <nd ref="221719537"/>
    <tag k="highway" v="trunk"/>
    <tag k="lanes" v="3"/>
    <tag k="maxspeed" v="70"/>
    <tag k="name" v="Princes Highway"/>
    <tag k="network" v="MR"/>
    <tag k="oneway" v="yes"/>
    <tag k="ref" v="1"/>
  </way>
  <way id="109815060" version="3" timestamp="2012-02-01T01:38:39Z" uid="54784" user="Tom Hollander" changeset="10555374">
    <nd ref="215911856"/>
    <nd ref="215916996"/>
    <nd ref="1604307501"/>
    <nd ref="587611974"/>
    <nd ref="10279674"/>
    <nd ref="247301576"/>
    <nd ref="247301582"/>
    <nd ref="247301589"/>
    <nd ref="1256125955"/>
    <nd ref="10279679"/>
    <nd ref="307341533"/>
    <nd ref="221719537"/>
    <tag k="highway" v="trunk"/>
    <tag k="lanes" v="3"/>
    <tag k="maxspeed" v="70"/>
    <tag k="name" v="Princes Highway"/>
    <tag k="network" v="MR"/>
    <tag k="oneway" v="yes"/>
    <tag k="ref" v="MR1"/>
  </way>
  <way id="109815060" version="4" timestamp="2012-02-02T09:14:14Z" uid="7523" user="inas" changeset="10565546">
    <nd ref="215911856"/>
    <nd ref="215916996"/>
    <nd ref="1604307501"/>
    <nd ref="587611974"/>
    <nd ref="10279674"/>
    <nd ref="247301576"/>
    <nd ref="247301582"/>
    <nd ref="247301589"/>
    <nd ref="1256125955"/>
    <nd ref="10279679"/>
    <nd ref="307341533"/>
    <nd ref="221719537"/>
    <tag k="highway" v="trunk"/>
    <tag k="lanes" v="3"/>
    <tag k="maxspeed" v="70"/>
    <tag k="name" v="Princes Highway"/>
    <tag k="network" v="MR"/>
    <tag k="oneway" v="yes"/>
    <tag k="ref" v="1"/>
  </way>
  <way id="109815060" version="5" timestamp="2012-03-20T04:23:54Z" uid="7523" user="inas" changeset="11037300"/>
  <way id="109815061" version="1" timestamp="2011-04-22T23:16:10Z" uid="7617" user="Franc" changeset="7939553">
    <nd ref="575701153"/>
    <nd ref="10282628"/>
    <tag k="highway" v="secondary"/>
    <tag k="maxspeed" v="60"/>
    <tag k="name" v="Rocky Point Road"/>
    <tag k="oneway" v="yes"/>
    <tag k="restriction" v="school_zone"/>
    <tag k="source" v="nearmap"/>
  </way>
  <way id="109815061" version="2" timestamp="2012-03-21T02:55:35Z" uid="7523" user="inas" changeset="11047862"/>
  <way id="109815062" version="1" timestamp="2011-04-22T23:16:10Z" uid="7617" user="Franc" changeset="7939553">
    <nd ref="10282295"/>
    <nd ref="575727159"/>
    <tag k="highway" v="tertiary"/>
    <tag k="maxspeed" v="50"/>
    <tag k="maxspeed:source" v="default residential speed limit in Australia"/>
    <tag k="name" v="West Street"/>
  </way>
  <way id="109815062" version="2" timestamp="2012-03-21T02:29:14Z" uid="7523" user="inas" changeset="11047788"/>
  <way id="109815063" version="1" timestamp="2011-04-22T23:16:10Z" uid="7617" user="Franc" changeset="7939553">
    <nd ref="10282628"/>
    <nd ref="35637422"/>
    <nd ref="35637417"/>
    <nd ref="271897087"/>
    <nd ref="35995905"/>
    <tag k="highway" v="trunk"/>
    <tag k="maxspeed" v="60"/>
    <tag k="name" v="Princes Highway"/>
    <tag k="oneway" v="yes"/>
    <tag k="restriction" v="school_zone"/>
  </way>
  <way id="109815063" version="2" timestamp="2012-02-01T01:38:40Z" uid="54784" user="Tom Hollander" changeset="10555374">
    <nd ref="10282628"/>
    <nd ref="35637422"/>
    <nd ref="35637417"/>
    <nd ref="271897087"/>
    <nd ref="35995905"/>
    <tag k="highway" v="trunk"/>
    <tag k="maxspeed" v="60"/>
    <tag k="name" v="Princes Highway"/>
    <tag k="oneway" v="yes"/>
    <tag k="ref" v="MR1"/>
    <tag k="restriction" v="school_zone"/>
  </way>
  <way id="109815063" version="3" timestamp="2012-02-02T09:14:17Z" uid="7523" user="inas" changeset="10565546">
    <nd ref="10282628"/>
    <nd ref="35637422"/>
    <nd ref="35637417"/>
    <nd ref="271897087"/>
    <nd ref="35995905"/>
    <tag k="highway" v="trunk"/>
    <tag k="maxspeed" v="60"/>
    <tag k="name" v="Princes Highway"/>
    <tag k="network" v="MR"/>
    <tag k="oneway" v="yes"/>
    <tag k="ref" v="1"/>
    <tag k="restriction" v="school_zone"/>
  </way>
  <way id="109815063" version="4" timestamp="2012-03-20T04:23:54Z" uid="7523" user="inas" changeset="11037300"/>
  <way id="109815064" version="1" timestamp="2011-04-22T23:16:10Z" uid="7617" user="Franc" changeset="7939553">
    <nd ref="575701153"/>
    <nd ref="575701154"/>
    <nd ref="575701155"/>
    <tag k="highway" v="trunk"/>
    <tag k="lanes" v="3"/>
    <tag k="maxspeed" v="60"/>
    <tag k="name" v="Princes Highway"/>
    <tag k="oneway" v="yes"/>
    <tag k="restriction" v="school_zone"/>
  </way>
  <way id="109815064" version="2" timestamp="2012-02-02T08:04:54Z" uid="7523" user="inas" changeset="10565177">
    <nd ref="575701153"/>
    <nd ref="575701154"/>
    <nd ref="575701155"/>
    <tag k="highway" v="trunk"/>
    <tag k="lanes" v="3"/>
    <tag k="maxspeed" v="60"/>
    <tag k="name" v="Princes Highway"/>
    <tag k="network" v="MR"/>
    <tag k="oneway" v="yes"/>
    <tag k="ref" v="1"/>
    <tag k="restriction" v="school_zone"/>
  </way>
  <way id="109815064" version="3" timestamp="2012-03-20T04:23:55Z" uid="7523" user="inas" changeset="11037300"/>
  <way id="109815065" version="1" timestamp="2011-04-22T23:16:11Z" uid="7617" user="Franc" changeset="7939553">
    <nd ref="215911856"/>
    <nd ref="587611970"/>
    <tag k="highway" v="secondary"/>
    <tag k="maxspeed" v="50"/>
    <tag k="name" v="Woniora Road"/>
  </way>
  <way id="109815066" version="1" timestamp="2011-04-22T23:16:11Z" uid="7617" user="Franc" changeset="7939553">
    <nd ref="1256125935"/>
    <nd ref="35637101"/>
    <nd ref="35637104"/>
    <tag k="highway" v="unclassified"/>
    <tag k="oneway" v="yes"/>
    <tag k="restriction" v="school_zone"/>
    <tag k="source" v="survey"/>
  </way>
  <way id="109815067" version="1" timestamp="2011-04-22T23:16:11Z" uid="7617" user="Franc" changeset="7939553">
    <nd ref="575701148"/>
    <nd ref="575701151"/>
    <nd ref="1074423488"/>
    <tag k="highway" v="trunk"/>
    <tag k="lanes" v="3"/>
    <tag k="maxspeed" v="60"/>
    <tag k="name" v="Princes Highway"/>
    <tag k="oneway" v="yes"/>
  </way>
  <way id="109815067" version="2" timestamp="2012-02-01T01:38:40Z" uid="54784" user="Tom Hollander" changeset="10555374">
    <nd ref="575701148"/>
    <nd ref="575701151"/>
    <nd ref="1074423488"/>
    <tag k="highway" v="trunk"/>
    <tag k="lanes" v="3"/>
    <tag k="maxspeed" v="60"/>
    <tag k="name" v="Princes Highway"/>
    <tag k="oneway" v="yes"/>
    <tag k="ref" v="MR1"/>
  </way>
  <way id="109815067" version="3" timestamp="2012-02-02T08:04:56Z" uid="7523" user="inas" changeset="10565177">
    <nd ref="575701148"/>
    <nd ref="575701151"/>
    <nd ref="1074423488"/>
    <tag k="highway" v="trunk"/>
    <tag k="lanes" v="3"/>
    <tag k="maxspeed" v="60"/>
    <tag k="name" v="Princes Highway"/>
    <tag k="network" v="MR"/>
    <tag k="oneway" v="yes"/>
    <tag k="ref" v="1"/>
  </way>
  <way id="109815067" version="4" timestamp="2012-03-20T04:23:54Z" uid="7523" user="inas" changeset="11037300"/>
  <way id="109815068" version="1" timestamp="2011-04-22T23:16:11Z" uid="7617" user="Franc" changeset="7939553">
    <nd ref="575701138"/>
    <nd ref="28273935"/>
    <nd ref="937424264"/>
    <nd ref="28273939"/>
    <nd ref="937424281"/>
    <nd ref="28273948"/>
    <nd ref="35635506"/>
    <nd ref="307417100"/>
    <nd ref="697326698"/>
    <tag k="highway" v="secondary"/>
    <tag k="maxspeed" v="50"/>
    <tag k="name" v="Jubilee Avenue"/>
    <tag k="source" v="survey"/>
  </way>
  <way id="109815068" version="2" timestamp="2012-03-07T05:23:26Z" uid="7523" user="inas" changeset="10896683">
    <nd ref="575701138"/>
    <nd ref="28273935"/>
    <nd ref="28273939"/>
    <nd ref="28273948"/>
    <nd ref="35635506"/>
    <nd ref="307417100"/>
    <nd ref="697326698"/>
    <tag k="highway" v="secondary"/>
    <tag k="maxspeed" v="50"/>
    <tag k="name" v="Jubilee Avenue"/>
    <tag k="source" v="survey"/>
  </way>
  <way id="109815068" version="3" timestamp="2012-03-21T03:42:41Z" uid="7523" user="inas" changeset="11048002"/>
  <way id="109815069" version="1" timestamp="2011-04-22T23:16:11Z" uid="7617" user="Franc" changeset="7939553">
    <nd ref="17854082"/>
    <nd ref="1072786899"/>
    <tag k="highway" v="trunk"/>
    <tag k="maxspeed" v="60"/>
    <tag k="name" v="Princes Highway"/>
    <tag k="network" v="MR"/>
    <tag k="oneway" v="yes"/>
    <tag k="ref" v="1"/>
    <tag k="restriction" v="school_zone"/>
  </way>
  <way id="109815069" version="2" timestamp="2012-03-21T03:15:50Z" uid="7523" user="inas" changeset="11047931"/>
  <way id="109815070" version="1" timestamp="2011-04-22T23:16:12Z" uid="7617" user="Franc" changeset="7939553">
    <nd ref="587611970"/>
    <nd ref="587611967"/>
    <nd ref="587611968"/>
    <nd ref="1082971275"/>
    <tag k="highway" v="trunk"/>
    <tag k="lanes" v="3"/>
    <tag k="maxspeed" v="70"/>
    <tag k="name" v="Princes Highway"/>
    <tag k="network" v="MR"/>
    <tag k="oneway" v="yes"/>
    <tag k="ref" v="1"/>
    <tag k="source" v="survey;nearmap"/>
  </way>
  <way id="109815070" version="2" timestamp="2011-04-23T12:54:11Z" uid="7617" user="Franc" changeset="7943317">
    <nd ref="587611970"/>
    <nd ref="587611967"/>
    <tag k="highway" v="trunk"/>
    <tag k="lanes" v="3"/>
    <tag k="maxspeed" v="70"/>
    <tag k="name" v="Princes Highway"/>
    <tag k="network" v="MR"/>
    <tag k="oneway" v="yes"/>
    <tag k="ref" v="1"/>
    <tag k="source" v="survey;nearmap"/>
  </way>
  <way id="109815070" version="3" timestamp="2012-02-01T01:38:40Z" uid="54784" user="Tom Hollander" changeset="10555374">
    <nd ref="587611970"/>
    <nd ref="587611967"/>
    <tag k="highway" v="trunk"/>
    <tag k="lanes" v="3"/>
    <tag k="maxspeed" v="70"/>
    <tag k="name" v="Princes Highway"/>
    <tag k="network" v="MR"/>
    <tag k="oneway" v="yes"/>
    <tag k="ref" v="MR1"/>
    <tag k="source" v="survey;nearmap"/>
  </way>
  <way id="109815070" version="4" timestamp="2012-02-02T08:04:48Z" uid="7523" user="inas" changeset="10565177">
    <nd ref="587611970"/>
    <nd ref="587611967"/>
    <tag k="highway" v="trunk"/>
    <tag k="lanes" v="3"/>
    <tag k="maxspeed" v="70"/>
    <tag k="name" v="Princes Highway"/>
    <tag k="network" v="MR"/>
    <tag k="oneway" v="yes"/>
    <tag k="ref" v="1"/>
    <tag k="source" v="survey;nearmap"/>
  </way>
  <way id="109815070" version="5" timestamp="2012-03-20T04:23:53Z" uid="7523" user="inas" changeset="11037300"/>
</osm>
