<?xml version='1.0' encoding='UTF-8'?>
<osm version="0.6" generator="libosmium/2.20.0">
  <way id="10988672" version="3" timestamp="2009-09-30T15:29:04Z" uid="36809" user="pfoten_weg_!_" changeset="2689341">
    <nd ref="41975312"/>
    <nd ref="97912472"/>
    <tag k="highway" v="residential"/>
    <tag k="name" v="Obere Straße"/>
  </way>
  <way id="10988957" version="8" timestamp="2008-08-15T15:56:59Z" uid="13367" user="nubok" changeset="266089">
    <nd ref="97916510"/>
    <nd ref="97913691"/>
    <nd ref="288210885"/>
    <nd ref="97913960"/>
    <tag k="created_by" v="Potlatch 0.4c"/>
    <tag k="highway" v="unclassified"/>
    <tag k="name" v="Grabower Straße"/>
    <tag k="oneway" v="yes"/>
  </way>
  <way id="10988957" version="9" timestamp="2008-11-03T19:04:15Z" uid="13565" user="hadhuey" changeset="668344">
    <nd ref="97916510"/>
    <nd ref="97913691"/>
    <nd ref="288210885"/>
    <nd ref="97913960"/>
    <tag k="created_by" v="Potlatch 0.10f"/>
    <tag k="highway" v="unclassified"/>
    <tag k="lanes" v="2"/>
    <tag k="name" v="Grabower Straße"/>
    <tag k="oneway" v="yes"/>
    <tag k="postal_code" v="39126"/>
  </way>
  <way id="10988957" version="10" timestamp="2010-02-12T19:05:43Z" uid="13565" user="hadhuey" changeset="3859326">
    <nd ref="97916510"/>
    <nd ref="97913691"/>
    <nd ref="288210885"/>
    <nd ref="97913960"/>
    <tag k="hgv" v="yes"/>
    <tag k="highway" v="unclassified"/>
    <tag k="lanes" v="2"/>
    <tag k="name" v="Grabower Straße"/>
    <tag k="oneway" v="yes"/>
    <tag k="postal_code" v="39126"/>
  </way>
  <way id="10988957" version="11" timestamp="2012-01-09T20:09:35Z" uid="13565" user="hadhuey" changeset="10345318">
    <nd ref="97916510"/>
    <nd ref="97913691"/>
    <nd ref="288210885"/>
    <nd ref="97913960"/>
    <nd ref="97917356"/>
    <tag k="hgv" v="yes"/>
    <tag k="highway" v="unclassified"/>
    <tag k="lanes" v="2"/>
    <tag k="maxspeed" v="50"/>
    <tag k="name" v="Grabower Straße"/>
    <tag k="oneway" v="yes"/>
    <tag k="postal_code" v="39126"/>
  </way>
  <way id="10988957" version="12" timestamp="2012-01-10T22:54:20Z" uid="13565" user="hadhuey" changeset="10356401">
    <nd ref="97916510"/>
    <nd ref="97913691"/>
    <nd ref="1585171220"/>
    <nd ref="97913960"/>
    <nd ref="97917356"/>
    <tag k="hgv" v="yes"/>
    <tag k="highway" v="unclassified"/>
    <tag k="lanes" v="2"/>
    <tag k="maxspeed" v="50"/>
    <tag k="name" v="Grabower Straße"/>
    <tag k="oneway" v="yes"/>
    <tag k="postal_code" v="39126"/>
  </way>
  <way id="10988957" version="13" timestamp="2012-01-17T20:03:24Z" uid="13565" user="hadhuey" changeset="10421398"/>
</osm>
