<?xml version='1.0' encoding='UTF-8'?>
<osm version="0.6" generator="libosmium/2.20.0">
  <way id="11002432" version="4" timestamp="2008-08-14T21:18:15Z" uid="6975" user="ulfl" changeset="264731">
    <nd ref="97991243"/>
    <nd ref="97991246"/>
    <tag k="bicycle" v="no"/>
    <tag k="foot" v="no"/>
    <tag k="highway" v="track"/>
    <tag k="motorcar" v="no"/>
    <tag k="tracktype" v="grade3"/>
  </way>
  <way id="11002432" version="5" timestamp="2010-02-14T17:11:00Z" uid="32786" user="Netzwolf" changeset="3873130"/>
  <way id="11002586" version="3" timestamp="2008-05-29T17:57:39Z" uid="40373" user="Daguru" changeset="549382">
    <nd ref="61147425"/>
    <nd ref="97992384"/>
    <nd ref="97992392"/>
    <nd ref="97992387"/>
    <nd ref="97992394"/>
    <tag k="created_by" v="dk3qu"/>
    <tag k="highway" v="unclassified"/>
    <tag k="name" v="Prozessionsweg"/>
  </way>
  <way id="11002586" version="4" timestamp="2009-08-15T12:03:33Z" uid="109925" user="WanMil" changeset="2153260">
    <nd ref="61147425"/>
    <nd ref="97992384"/>
    <nd ref="97992392"/>
    <nd ref="97992387"/>
    <nd ref="97992394"/>
    <tag k="highway" v="unclassified"/>
    <tag k="name" v="Prozessionsweg"/>
  </way>
  <way id="11002586" version="5" timestamp="2009-09-12T04:52:49Z" uid="43250" user="Mikrokosmonaut" changeset="2453712">
    <nd ref="61147425"/>
    <nd ref="97992384"/>
    <nd ref="97992392"/>
    <nd ref="97992387"/>
    <nd ref="97992394"/>
    <nd ref="493901007"/>
    <nd ref="493901008"/>
    <tag k="highway" v="unclassified"/>
    <tag k="name" v="Prozessionsweg"/>
  </way>
  <way id="11002586" version="6" timestamp="2010-09-26T18:45:24Z" uid="351563" user="bubiman" changeset="5884336">
    <nd ref="61147425"/>
    <nd ref="97992384"/>
    <nd ref="97992392"/>
    <nd ref="97992387"/>
    <nd ref="97992394"/>
    <nd ref="493901007"/>
    <nd ref="493901008"/>
    <tag k="highway" v="unclassified"/>
    <tag k="motor_vehicle" v="agricultural"/>
    <tag k="name" v="Prozessionsweg"/>
  </way>
  <way id="11002586" version="7" timestamp="2011-05-01T09:22:31Z" uid="43972" user="chris66" changeset="8019069">
    <nd ref="61147425"/>
    <nd ref="97992384"/>
    <nd ref="97992392"/>
    <nd ref="97992387"/>
    <nd ref="97992394"/>
    <nd ref="493901007"/>
    <nd ref="1268531858"/>
    <nd ref="493901008"/>
    <tag k="highway" v="unclassified"/>
    <tag k="motor_vehicle" v="agricultural"/>
    <tag k="name" v="Prozessionsweg"/>
  </way>
  <way id="11002594" version="2" timestamp="2008-05-28T20:37:37Z" uid="40373" user="Daguru" changeset="542660">
    <nd ref="97992396"/>
    <nd ref="34064142"/>
    <tag k="created_by" v="dk3qu"/>
    <tag k="highway" v="unclassified"/>
    <tag k="name" v="Prozessionsweg"/>
  </way>
  <way id="11002594" version="3" timestamp="2008-05-28T21:12:49Z" uid="40373" user="Daguru" changeset="542660">
    <nd ref="97992396"/>
    <nd ref="34064142"/>
    <tag k="created_by" v="dk3qu"/>
    <tag k="highway" v="unclassified"/>
    <tag k="name" v="Prozessionsweg"/>
  </way>
  <way id="11002594" version="4" timestamp="2009-05-11T16:18:05Z" uid="15729" user="dk3qu" changeset="1154344">
    <nd ref="97992396"/>
    <nd ref="393877819"/>
    <nd ref="34064142"/>
    <nd ref="393877820"/>
    <nd ref="393877821"/>
    <nd ref="393877822"/>
    <nd ref="393877823"/>
    <nd ref="393877824"/>
    <nd ref="393877825"/>
    <nd ref="393877826"/>
    <nd ref="393877827"/>
    <nd ref="393877828"/>
    <nd ref="393877829"/>
    <nd ref="393877030"/>
    <tag k="created_by" v="dk3qu"/>
    <tag k="highway" v="unclassified"/>
    <tag k="name" v="Prozessionsweg"/>
  </way>
  <way id="11002594" version="5" timestamp="2009-08-15T12:03:34Z" uid="109925" user="WanMil" changeset="2153260">
    <nd ref="97992396"/>
    <nd ref="393877819"/>
    <nd ref="34064142"/>
    <nd ref="393877820"/>
    <nd ref="393877821"/>
    <nd ref="393877822"/>
    <nd ref="393877823"/>
    <nd ref="393877824"/>
    <nd ref="393877825"/>
    <nd ref="393877826"/>
    <nd ref="393877827"/>
    <nd ref="393877828"/>
    <nd ref="393877829"/>
    <nd ref="393877030"/>
    <tag k="highway" v="unclassified"/>
    <tag k="name" v="Prozessionsweg"/>
  </way>
  <way id="11002594" version="6" timestamp="2009-09-12T04:50:18Z" uid="43250" user="Mikrokosmonaut" changeset="2453696">
    <nd ref="97992396"/>
    <nd ref="393877819"/>
    <nd ref="34064142"/>
    <tag k="highway" v="unclassified"/>
    <tag k="name" v="Prozessionsweg"/>
  </way>
  <way id="11002594" version="7" timestamp="2011-04-26T08:05:39Z" uid="31602" user="crazy-rat" changeset="7971871">
    <nd ref="97992396"/>
    <nd ref="393877819"/>
    <nd ref="1260508444"/>
    <nd ref="1260508432"/>
    <nd ref="1260508442"/>
    <nd ref="34064142"/>
    <tag k="highway" v="unclassified"/>
    <tag k="name" v="Prozessionsweg"/>
  </way>
  <way id="11002729" version="2" timestamp="2008-07-06T01:00:52Z" uid="6975" user="ulfl" changeset="404092">
    <nd ref="97993177"/>
    <nd ref="97993180"/>
    <nd ref="97993183"/>
    <nd ref="97993186"/>
    <nd ref="97993189"/>
    <tag k="highway" v="residential"/>
    <tag k="maxspeed" v="50"/>
    <tag k="name" v="Stånggatan"/>
  </way>
  <way id="11002729" version="3" timestamp="2010-06-09T21:51:45Z" uid="113813" user="AndersAndersson" changeset="4949593">
    <nd ref="97993177"/>
    <nd ref="97993180"/>
    <nd ref="97993183"/>
    <nd ref="97993186"/>
    <nd ref="97993189"/>
    <tag k="highway" v="residential"/>
    <tag k="maxspeed" v="50"/>
    <tag k="name" v="Stånggatan"/>
    <tag k="surface" v="asphalt"/>
  </way>
  <way id="11002731" version="2" timestamp="2008-07-06T01:00:49Z" uid="6975" user="ulfl" changeset="404092">
    <nd ref="97993183"/>
    <nd ref="97993190"/>
    <nd ref="97993191"/>
    <nd ref="97993192"/>
    <nd ref="97993193"/>
    <nd ref="97993194"/>
    <nd ref="97993195"/>
    <nd ref="97993196"/>
    <nd ref="97993198"/>
    <nd ref="97993190"/>
    <tag k="highway" v="residential"/>
    <tag k="maxspeed" v="50"/>
    <tag k="name" v="Tumgatan"/>
  </way>
  <way id="11002733" version="2" timestamp="2008-07-06T01:00:48Z" uid="6975" user="ulfl" changeset="404092">
    <nd ref="97993180"/>
    <nd ref="97993200"/>
    <nd ref="97993201"/>
    <nd ref="97993202"/>
    <nd ref="97993204"/>
    <nd ref="97993205"/>
    <nd ref="97993206"/>
    <nd ref="97993207"/>
    <nd ref="97993209"/>
    <nd ref="97993210"/>
    <nd ref="97993200"/>
    <tag k="highway" v="residential"/>
    <tag k="maxspeed" v="50"/>
    <tag k="name" v="Snesgatan"/>
  </way>
  <way id="11002733" version="3" timestamp="2010-06-09T21:51:48Z" uid="113813" user="AndersAndersson" changeset="4949593">
    <nd ref="97993180"/>
    <nd ref="97993200"/>
    <nd ref="97993201"/>
    <nd ref="97993202"/>
    <nd ref="97993204"/>
    <nd ref="97993205"/>
    <nd ref="97993206"/>
    <nd ref="97993207"/>
    <nd ref="97993209"/>
    <nd ref="97993210"/>
    <nd ref="768187759"/>
    <nd ref="97993200"/>
    <tag k="highway" v="residential"/>
    <tag k="maxspeed" v="50"/>
    <tag k="name" v="Snesgatan"/>
    <tag k="surface" v="asphalt"/>
  </way>
  <way id="11002735" version="4" timestamp="2008-07-06T01:00:48Z" uid="6975" user="ulfl" changeset="404092">
    <nd ref="97993221"/>
    <nd ref="97993220"/>
    <nd ref="97993219"/>
    <nd ref="248005489"/>
    <nd ref="248005313"/>
    <nd ref="97993217"/>
    <nd ref="97993211"/>
    <tag k="highway" v="residential"/>
    <tag k="maxspeed" v="50"/>
    <tag k="name" v="Plogstigen"/>
  </way>
  <way id="11002735" version="5" timestamp="2012-02-14T08:03:08Z" uid="351532" user="tothod" changeset="10680449">
    <nd ref="97993221"/>
    <nd ref="1632323631"/>
    <nd ref="97993220"/>
    <nd ref="97993219"/>
    <nd ref="248005489"/>
    <nd ref="248005313"/>
    <nd ref="97993217"/>
    <nd ref="97993211"/>
    <tag k="highway" v="residential"/>
    <tag k="maxspeed" v="50"/>
    <tag k="name" v="Plogstigen"/>
  </way>
  <way id="11002738" version="2" timestamp="2008-07-06T01:00:35Z" uid="6975" user="ulfl" changeset="404092">
    <nd ref="97993211"/>
    <nd ref="97993224"/>
    <nd ref="97993225"/>
    <nd ref="97993226"/>
    <nd ref="97993228"/>
    <nd ref="97993231"/>
    <tag k="highway" v="residential"/>
    <tag k="maxspeed" v="50"/>
    <tag k="name" v="Plogstigen"/>
  </way>
  <way id="11002738" version="3" timestamp="2009-07-15T19:39:10Z" uid="113813" user="AndersAndersson" changeset="1839656">
    <nd ref="97993211"/>
    <nd ref="97993224"/>
    <nd ref="442332071"/>
    <nd ref="97993225"/>
    <nd ref="97993226"/>
    <nd ref="97993228"/>
    <nd ref="442332075"/>
    <nd ref="97993231"/>
    <tag k="highway" v="residential"/>
    <tag k="maxspeed" v="50"/>
    <tag k="name" v="Plogstigen"/>
  </way>
  <way id="11002738" version="4" timestamp="2010-06-09T21:26:28Z" uid="113813" user="AndersAndersson" changeset="4949593">
    <nd ref="97993211"/>
    <nd ref="97993224"/>
    <nd ref="442332071"/>
    <nd ref="97993225"/>
    <nd ref="97993226"/>
    <nd ref="97993228"/>
    <nd ref="442332075"/>
    <nd ref="97993231"/>
    <tag k="highway" v="residential"/>
    <tag k="maxspeed" v="50"/>
    <tag k="name" v="Plogstigen"/>
    <tag k="source" v="survey"/>
    <tag k="surface" v="asphalt"/>
  </way>
  <way id="11002738" version="5" timestamp="2011-07-04T22:39:37Z" uid="480918" user="obidobi" changeset="8634687">
    <nd ref="97993211"/>
    <nd ref="97993224"/>
    <nd ref="442332071"/>
    <nd ref="97993225"/>
    <nd ref="97993226"/>
    <nd ref="97993228"/>
    <nd ref="442332075"/>
    <nd ref="1349721285"/>
    <nd ref="97993231"/>
    <tag k="highway" v="residential"/>
    <tag k="maxspeed" v="50"/>
    <tag k="name" v="Plogstigen"/>
    <tag k="source" v="survey"/>
    <tag k="surface" v="asphalt"/>
  </way>
  <way id="11002742" version="2" timestamp="2008-07-06T01:00:32Z" uid="6975" user="ulfl" changeset="404092">
    <nd ref="97993231"/>
    <nd ref="97993237"/>
    <nd ref="97993240"/>
    <tag k="highway" v="residential"/>
    <tag k="maxspeed" v="50"/>
    <tag k="name" v="Transtigen"/>
  </way>
  <way id="11002742" version="3" timestamp="2009-07-15T19:39:10Z" uid="113813" user="AndersAndersson" changeset="1839656">
    <nd ref="97993231"/>
    <nd ref="97993237"/>
    <nd ref="442332076"/>
    <nd ref="97993240"/>
    <tag k="highway" v="residential"/>
    <tag k="maxspeed" v="50"/>
    <tag k="name" v="Transtigen"/>
  </way>
  <way id="11002742" version="4" timestamp="2009-07-15T20:21:04Z" uid="113813" user="AndersAndersson" changeset="1840094">
    <nd ref="97993231"/>
    <nd ref="97993237"/>
    <nd ref="442332076"/>
    <nd ref="97993240"/>
    <tag k="highway" v="residential"/>
    <tag k="maxspeed" v="50"/>
    <tag k="name" v="Transtigen"/>
    <tag k="source" v="survey"/>
  </way>
  <way id="11002742" version="5" timestamp="2010-06-09T21:26:26Z" uid="113813" user="AndersAndersson" changeset="4949593">
    <nd ref="97993231"/>
    <nd ref="97993237"/>
    <nd ref="442332076"/>
    <nd ref="97993240"/>
    <tag k="highway" v="residential"/>
    <tag k="maxspeed" v="50"/>
    <tag k="name" v="Transtigen"/>
    <tag k="source" v="survey"/>
    <tag k="surface" v="asphalt"/>
  </way>
  <way id="11002742" version="6" timestamp="2010-07-08T08:39:24Z" uid="113813" user="AndersAndersson" changeset="5164339">
    <nd ref="97993231"/>
    <nd ref="97993237"/>
    <nd ref="442332076"/>
    <nd ref="97993240"/>
    <tag k="highway" v="residential"/>
    <tag k="maxspeed" v="50"/>
    <tag k="name" v="Plogstigen"/>
    <tag k="source" v="survey"/>
    <tag k="surface" v="asphalt"/>
  </way>
  <way id="11002742" version="7" timestamp="2011-07-04T22:39:37Z" uid="480918" user="obidobi" changeset="8634687">
    <nd ref="97993231"/>
    <nd ref="1349721209"/>
    <nd ref="97993237"/>
    <nd ref="442332076"/>
    <nd ref="97993240"/>
    <tag k="highway" v="residential"/>
    <tag k="maxspeed" v="50"/>
    <tag k="name" v="Plogstigen"/>
    <tag k="source" v="survey"/>
    <tag k="surface" v="asphalt"/>
  </way>
  <way id="11002744" version="2" timestamp="2008-07-06T01:00:39Z" uid="6975" user="ulfl" changeset="404092">
    <nd ref="97993231"/>
    <nd ref="97993241"/>
    <nd ref="97993243"/>
    <nd ref="97993245"/>
    <nd ref="97993246"/>
    <nd ref="97993248"/>
    <tag k="highway" v="residential"/>
    <tag k="maxspeed" v="50"/>
    <tag k="name" v="Spovstigen"/>
  </way>
  <way id="11002744" version="3" timestamp="2009-08-07T15:17:58Z" uid="113813" user="AndersAndersson" changeset="2066995">
    <nd ref="97993231"/>
    <nd ref="97993241"/>
    <nd ref="458224568"/>
    <nd ref="97993243"/>
    <nd ref="97993245"/>
    <nd ref="458224575"/>
    <nd ref="97993246"/>
    <nd ref="97993248"/>
    <tag k="highway" v="residential"/>
    <tag k="maxspeed" v="50"/>
    <tag k="name" v="Spovstigen"/>
    <tag k="source" v="survey"/>
  </way>
  <way id="11002744" version="4" timestamp="2009-11-22T12:48:18Z" uid="113813" user="AndersAndersson" changeset="3185136">
    <nd ref="97993231"/>
    <nd ref="568364381"/>
    <nd ref="97993241"/>
    <nd ref="458224568"/>
    <nd ref="97993243"/>
    <nd ref="97993245"/>
    <nd ref="458224575"/>
    <nd ref="97993246"/>
    <nd ref="97993248"/>
    <tag k="highway" v="residential"/>
    <tag k="maxspeed" v="50"/>
    <tag k="name" v="Spovstigen"/>
    <tag k="source" v="survey"/>
  </way>
  <way id="11002744" version="5" timestamp="2010-04-02T18:46:22Z" uid="113813" user="AndersAndersson" changeset="4306620">
    <nd ref="97993231"/>
    <nd ref="97993241"/>
    <nd ref="458224568"/>
    <nd ref="97993243"/>
    <nd ref="97993245"/>
    <nd ref="458224575"/>
    <nd ref="97993246"/>
    <nd ref="97993248"/>
    <tag k="highway" v="residential"/>
    <tag k="maxspeed" v="50"/>
    <tag k="name" v="Spovstigen"/>
    <tag k="source" v="survey"/>
  </way>
  <way id="11002746" version="2" timestamp="2008-07-06T01:00:39Z" uid="6975" user="ulfl" changeset="404092">
    <nd ref="97993240"/>
    <nd ref="97993250"/>
    <nd ref="97993255"/>
    <tag k="highway" v="residential"/>
    <tag k="maxspeed" v="50"/>
    <tag k="name" v="Jägarvägen"/>
  </way>
  <way id="11002746" version="3" timestamp="2009-07-15T19:39:11Z" uid="113813" user="AndersAndersson" changeset="1839656">
    <nd ref="97993240"/>
    <nd ref="442332085"/>
    <nd ref="97993250"/>
    <nd ref="442332090"/>
    <nd ref="97993255"/>
    <tag k="highway" v="residential"/>
    <tag k="maxspeed" v="50"/>
    <tag k="name" v="Jägarvägen"/>
  </way>
  <way id="11002746" version="4" timestamp="2009-07-15T20:21:03Z" uid="113813" user="AndersAndersson" changeset="1840094">
    <nd ref="97993240"/>
    <nd ref="442332085"/>
    <nd ref="97993250"/>
    <nd ref="442332090"/>
    <nd ref="97993255"/>
    <tag k="highway" v="residential"/>
    <tag k="maxspeed" v="50"/>
    <tag k="name" v="Transtigen"/>
    <tag k="source" v="survey"/>
  </way>
  <way id="11002746" version="5" timestamp="2009-08-07T15:16:25Z" uid="113813" user="AndersAndersson" changeset="2066995">
    <nd ref="97993240"/>
    <nd ref="442332085"/>
    <nd ref="458221859"/>
    <nd ref="97993250"/>
    <nd ref="458221871"/>
    <nd ref="442332090"/>
    <nd ref="97993255"/>
    <tag k="highway" v="residential"/>
    <tag k="maxspeed" v="50"/>
    <tag k="name" v="Transtigen"/>
    <tag k="source" v="survey"/>
  </way>
  <way id="11002746" version="6" timestamp="2010-06-09T21:26:30Z" uid="113813" user="AndersAndersson" changeset="4949593">
    <nd ref="97993240"/>
    <nd ref="442332085"/>
    <nd ref="458221859"/>
    <nd ref="97993250"/>
    <nd ref="458221871"/>
    <nd ref="442332090"/>
    <nd ref="97993255"/>
    <tag k="highway" v="residential"/>
    <tag k="maxspeed" v="50"/>
    <tag k="name" v="Transtigen"/>
    <tag k="source" v="survey"/>
    <tag k="surface" v="asphalt"/>
  </way>
  <way id="11002747" version="2" timestamp="2008-07-06T01:00:39Z" uid="6975" user="ulfl" changeset="404092">
    <nd ref="97993255"/>
    <nd ref="97993260"/>
    <nd ref="97993261"/>
    <tag k="highway" v="residential"/>
    <tag k="maxspeed" v="50"/>
    <tag k="name" v="Hägerstigen"/>
  </way>
  <way id="11002747" version="3" timestamp="2009-05-01T23:08:29Z" uid="113813" user="AndersAndersson" changeset="1043076">
    <nd ref="388437506"/>
    <nd ref="97993255"/>
    <nd ref="97993260"/>
    <nd ref="97993261"/>
    <tag k="highway" v="residential"/>
    <tag k="maxspeed" v="50"/>
    <tag k="name" v="Hägerstigen"/>
  </way>
  <way id="11002747" version="4" timestamp="2009-08-07T15:14:43Z" uid="113813" user="AndersAndersson" changeset="2066995">
    <nd ref="388437506"/>
    <nd ref="458220927"/>
    <nd ref="97993255"/>
    <nd ref="97993260"/>
    <nd ref="97993261"/>
    <tag k="highway" v="residential"/>
    <tag k="maxspeed" v="50"/>
    <tag k="name" v="Hägerstigen"/>
    <tag k="source" v="survey"/>
  </way>
  <way id="11002747" version="5" timestamp="2009-08-07T15:21:39Z" uid="113813" user="AndersAndersson" changeset="2066995">
    <nd ref="388437506"/>
    <nd ref="458220927"/>
    <nd ref="97993255"/>
    <nd ref="97993260"/>
    <nd ref="97993261"/>
    <nd ref="458225963"/>
    <tag k="highway" v="residential"/>
    <tag k="maxspeed" v="50"/>
    <tag k="name" v="Hägerstigen"/>
    <tag k="source" v="survey"/>
  </way>
</osm>
