<?xml version='1.0' encoding='UTF-8'?>
<osm version="0.6" generator="libosmium/2.20.0">
  <way id="110068541" version="2" timestamp="2011-06-12T12:43:47Z" uid="66036" user="h4v" changeset="8414690">
    <nd ref="674780597"/>
    <nd ref="1205571083"/>
    <nd ref="1205571074"/>
    <nd ref="81315118"/>
    <nd ref="484678871"/>
    <nd ref="1321725643"/>
    <nd ref="1201697711"/>
    <nd ref="1201697805"/>
    <nd ref="1201697828"/>
    <nd ref="1245593486"/>
    <nd ref="297915390"/>
    <nd ref="81315122"/>
    <nd ref="1195277662"/>
    <nd ref="297915760"/>
    <nd ref="1205571057"/>
    <nd ref="81315123"/>
    <nd ref="335714149"/>
    <nd ref="1195277652"/>
    <nd ref="1195277618"/>
    <nd ref="1195277670"/>
    <nd ref="81315124"/>
    <tag k="highway" v="secondary"/>
    <tag k="name" v="Tadeusza Kościuszki"/>
    <tag k="oneway" v="yes"/>
  </way>
  <way id="110068541" version="3" timestamp="2012-02-20T12:18:49Z" uid="607553" user="Duke83" changeset="10739888">
    <nd ref="674780597"/>
    <nd ref="1205571083"/>
    <nd ref="1205571074"/>
    <nd ref="81315118"/>
    <tag k="highway" v="secondary"/>
    <tag k="lanes" v="2"/>
    <tag k="name" v="Tadeusza Kościuszki"/>
    <tag k="oneway" v="yes"/>
    <tag k="surface" v="asphalt"/>
  </way>
  <way id="110068541" version="4" timestamp="2012-02-21T09:37:42Z" uid="607553" user="Duke83" changeset="10748473">
    <nd ref="674780597"/>
    <nd ref="1205571083"/>
    <nd ref="1205571074"/>
    <nd ref="81315118"/>
    <tag k="highway" v="secondary"/>
    <tag k="lanes" v="2"/>
    <tag k="name" v="Tadeusza Kościuszki"/>
    <tag k="oneway" v="yes"/>
    <tag k="restriction" v="no_left_turn"/>
    <tag k="surface" v="asphalt"/>
  </way>
  <way id="110068542" version="2" timestamp="2011-06-12T18:40:42Z" uid="66036" user="h4v" changeset="8418318">
    <nd ref="283376378"/>
    <nd ref="1322454820"/>
    <nd ref="29781394"/>
    <tag k="highway" v="unclassified"/>
    <tag k="name" v="Piotrkowska"/>
  </way>
  <way id="110068542" version="3" timestamp="2012-02-20T17:48:06Z" uid="607553" user="Duke83" changeset="10742838">
    <nd ref="283376378"/>
    <nd ref="1322454820"/>
    <nd ref="29781394"/>
    <tag k="highway" v="unclassified"/>
    <tag k="maxspeed" v="50"/>
    <tag k="name" v="Piotrkowska"/>
  </way>
  <way id="110068542" version="4" timestamp="2012-03-05T12:14:44Z" uid="607553" user="Duke83" changeset="10878669">
    <nd ref="283376378"/>
    <nd ref="1322454820"/>
    <nd ref="29781394"/>
    <tag k="highway" v="unclassified"/>
    <tag k="maxspeed" v="50"/>
    <tag k="name" v="Piotrkowska"/>
    <tag k="surface" v="asphalt"/>
  </way>
  <way id="110068543" version="2" timestamp="2011-05-10T21:00:52Z" uid="66036" user="h4v" changeset="8106771">
    <nd ref="283376890"/>
    <nd ref="1205570955"/>
    <nd ref="283378403"/>
    <nd ref="1205570997"/>
    <nd ref="1205571064"/>
    <nd ref="674780597"/>
    <tag k="highway" v="primary"/>
    <tag k="name" v="Aleja Adama Mickiewicza"/>
    <tag k="oneway" v="yes"/>
  </way>
  <way id="110068543" version="3" timestamp="2012-02-20T13:08:58Z" uid="607553" user="Duke83" changeset="10740355">
    <nd ref="283376890"/>
    <nd ref="1205570955"/>
    <nd ref="283378403"/>
    <tag k="highway" v="primary"/>
    <tag k="name" v="Aleja Adama Mickiewicza"/>
    <tag k="oneway" v="yes"/>
    <tag k="surface" v="asphalt"/>
  </way>
  <way id="110068543" version="4" timestamp="2012-02-20T13:45:42Z" uid="607553" user="Duke83" changeset="10740629">
    <nd ref="283376890"/>
    <nd ref="1205570955"/>
    <nd ref="283378403"/>
    <tag k="highway" v="secondary"/>
    <tag k="name" v="Aleja Adama Mickiewicza"/>
    <tag k="oneway" v="yes"/>
    <tag k="surface" v="asphalt"/>
  </way>
  <way id="110068543" version="5" timestamp="2012-02-25T11:59:53Z" uid="607553" user="Duke83" changeset="10786841">
    <nd ref="283376890"/>
    <nd ref="1205570955"/>
    <nd ref="283378403"/>
    <tag k="highway" v="secondary"/>
    <tag k="maxspeed" v="50"/>
    <tag k="name" v="Aleja Adama Mickiewicza"/>
    <tag k="oneway" v="yes"/>
    <tag k="surface" v="asphalt"/>
  </way>
</osm>
