<?xml version='1.0' encoding='UTF-8'?>
<osm version="0.6" generator="libosmium/2.20.0">
  <way id="11029237" version="5" timestamp="2009-10-11T01:49:02Z" uid="36809" user="pfoten_weg_!_" changeset="2809526">
    <nd ref="493380656"/>
    <nd ref="493380567"/>
    <tag k="bridge" v="true"/>
    <tag k="highway" v="tertiary"/>
    <tag k="layer" v="1"/>
    <tag k="ref" v="AS-355"/>
  </way>
  <way id="11029237" version="6" timestamp="2009-11-09T17:37:14Z" uid="26599" user="cdavila" changeset="3075492">
    <nd ref="493380656"/>
    <nd ref="493380567"/>
    <tag k="bridge" v="yes"/>
    <tag k="highway" v="tertiary"/>
    <tag k="layer" v="1"/>
    <tag k="ref" v="AS-355"/>
  </way>
  <way id="11029619" version="7" timestamp="2010-02-15T05:21:52Z" uid="74617" user="JohnSmith" changeset="3880269">
    <nd ref="98282661"/>
    <nd ref="98280592"/>
    <nd ref="95137388"/>
    <nd ref="98280595"/>
    <nd ref="98280596"/>
    <tag k="highway" v="residential"/>
    <tag k="maxspeed" v="50"/>
    <tag k="name" v="Gleason Street"/>
  </way>
  <way id="11029619" version="8" timestamp="2012-01-15T10:30:41Z" uid="147510" user="woodpeck_fixbot" changeset="10395278">
    <nd ref="98282661"/>
    <nd ref="98280592"/>
    <nd ref="95137388"/>
    <nd ref="98280595"/>
    <nd ref="98280596"/>
    <tag k="highway" v="residential"/>
    <tag k="name" v="Gleason Street"/>
  </way>
  <way id="11029673" version="7" timestamp="2010-02-15T05:21:52Z" uid="74617" user="JohnSmith" changeset="3880269">
    <nd ref="98282395"/>
    <nd ref="98281289"/>
    <nd ref="98281290"/>
    <tag k="highway" v="residential"/>
    <tag k="maxspeed" v="50"/>
    <tag k="name" v="Janssen Street"/>
  </way>
  <way id="11029673" version="8" timestamp="2012-01-15T10:30:43Z" uid="147510" user="woodpeck_fixbot" changeset="10395278">
    <nd ref="98282395"/>
    <nd ref="98281289"/>
    <nd ref="98281290"/>
    <tag k="highway" v="residential"/>
    <tag k="name" v="Janssen Street"/>
  </way>
  <way id="11029694" version="9" timestamp="2010-02-15T05:21:15Z" uid="74617" user="JohnSmith" changeset="3880269">
    <nd ref="95108339"/>
    <nd ref="98281576"/>
    <nd ref="98281577"/>
    <nd ref="98282395"/>
    <nd ref="98280596"/>
    <nd ref="98281578"/>
    <tag k="highway" v="residential"/>
    <tag k="maxspeed" v="50"/>
    <tag k="name" v="Wyngarde Street"/>
  </way>
  <way id="11029694" version="10" timestamp="2012-01-15T10:30:44Z" uid="147510" user="woodpeck_fixbot" changeset="10395278">
    <nd ref="95108339"/>
    <nd ref="98281576"/>
    <nd ref="98281577"/>
    <nd ref="98282395"/>
    <nd ref="98280596"/>
    <nd ref="98281578"/>
    <tag k="highway" v="residential"/>
    <tag k="name" v="Wyngarde Street"/>
  </way>
</osm>
