<?xml version='1.0' encoding='UTF-8'?>
<osm version="0.6" generator="libosmium/2.20.0">
  <way id="110391600" version="1" timestamp="2011-04-26T13:34:46Z" uid="7617" user="Franc" changeset="7974869">
    <nd ref="241862028"/>
    <nd ref="31292528"/>
    <nd ref="31436129"/>
    <nd ref="31292679"/>
    <tag k="highway" v="primary"/>
    <tag k="maxspeed" v="60"/>
    <tag k="name" v="Princes Highway"/>
    <tag k="note" v="This is only a primary road, as it is not a metroad."/>
    <tag k="oneway" v="yes"/>
  </way>
  <way id="110391600" version="2" timestamp="2011-06-12T22:06:20Z" uid="7617" user="Franc" changeset="8420502">
    <nd ref="241862028"/>
    <nd ref="31292528"/>
    <tag k="highway" v="primary"/>
    <tag k="maxspeed" v="60"/>
    <tag k="name" v="Princes Highway"/>
    <tag k="note" v="This is only a primary road, as it is not a metroad."/>
    <tag k="oneway" v="yes"/>
  </way>
  <way id="110391600" version="3" timestamp="2012-03-21T03:13:10Z" uid="7523" user="inas" changeset="11047903"/>
  <way id="110391602" version="1" timestamp="2011-04-26T13:34:46Z" uid="7617" user="Franc" changeset="7974869">
    <nd ref="31292868"/>
    <nd ref="31443989"/>
    <nd ref="10282662"/>
    <nd ref="31444583"/>
    <nd ref="31292869"/>
    <nd ref="29976432"/>
    <tag k="highway" v="primary"/>
    <tag k="maxspeed" v="60"/>
    <tag k="name" v="Princes Highway"/>
    <tag k="note" v="This is only a primary road, as it is not a metroad."/>
    <tag k="oneway" v="yes"/>
  </way>
  <way id="110391602" version="2" timestamp="2012-03-21T03:13:12Z" uid="7523" user="inas" changeset="11047903"/>
  <way id="110391605" version="1" timestamp="2011-04-26T13:34:46Z" uid="7617" user="Franc" changeset="7974869">
    <nd ref="1260783831"/>
    <nd ref="1260783843"/>
    <nd ref="1260783821"/>
    <nd ref="1260783783"/>
    <nd ref="1260783767"/>
    <nd ref="1260783831"/>
    <tag k="building" v="yes"/>
  </way>
  <way id="110391605" version="2" timestamp="2012-02-16T03:00:53Z" uid="7523" user="inas" changeset="10698479"/>
  <way id="110391607" version="1" timestamp="2011-04-26T13:34:46Z" uid="7617" user="Franc" changeset="7974869">
    <nd ref="26637217"/>
    <nd ref="291748415"/>
    <tag k="highway" v="primary"/>
    <tag k="maxspeed" v="60"/>
    <tag k="name" v="Forest Road"/>
    <tag k="source" v="yahoo_imagery"/>
  </way>
  <way id="110391607" version="2" timestamp="2012-03-22T23:27:59Z" uid="7523" user="inas" changeset="11069049"/>
  <way id="110391609" version="1" timestamp="2011-04-26T13:34:47Z" uid="7617" user="Franc" changeset="7974869">
    <nd ref="603459157"/>
    <nd ref="29976432"/>
    <tag k="highway" v="unclassified"/>
    <tag k="name" v="Subway Road"/>
  </way>
  <way id="110391609" version="2" timestamp="2012-03-21T03:13:13Z" uid="7523" user="inas" changeset="11047903"/>
  <way id="110391612" version="1" timestamp="2011-04-26T13:34:47Z" uid="7617" user="Franc" changeset="7974869">
    <nd ref="31293688"/>
    <nd ref="31293682"/>
    <nd ref="683068299"/>
    <nd ref="118703541"/>
    <nd ref="31293681"/>
    <nd ref="683068301"/>
    <nd ref="683068300"/>
    <nd ref="31293689"/>
    <tag k="highway" v="unclassified"/>
    <tag k="name" v="Argyle Street"/>
  </way>
  <way id="110391612" version="2" timestamp="2012-03-22T05:42:54Z" uid="7523" user="inas" changeset="11059252">
    <nd ref="31293688"/>
    <nd ref="31293682"/>
    <nd ref="683068299"/>
    <nd ref="118703541"/>
    <nd ref="31293681"/>
    <nd ref="683068301"/>
    <nd ref="683068300"/>
    <nd ref="1685442843"/>
    <tag k="highway" v="unclassified"/>
    <tag k="name" v="Argyle Street"/>
  </way>
  <way id="110391612" version="3" timestamp="2012-03-23T00:55:08Z" uid="7523" user="inas" changeset="11069282"/>
  <way id="110391614" version="1" timestamp="2011-04-26T13:34:47Z" uid="7617" user="Franc" changeset="7974869">
    <nd ref="291748439"/>
    <nd ref="307340294"/>
    <nd ref="291748440"/>
    <tag k="highway" v="primary"/>
    <tag k="maxspeed" v="60"/>
    <tag k="name" v="Princes Highway"/>
    <tag k="note" v="This is only a primary road, as it is not a metroad."/>
    <tag k="oneway" v="yes"/>
  </way>
  <way id="110391614" version="2" timestamp="2012-03-21T03:13:08Z" uid="7523" user="inas" changeset="11047903">
    <nd ref="291748439"/>
    <nd ref="307340294"/>
    <tag k="highway" v="primary"/>
    <tag k="maxspeed" v="60"/>
    <tag k="name" v="Princes Highway"/>
    <tag k="note" v="This is only a primary road, as it is not a metroad."/>
    <tag k="oneway" v="yes"/>
  </way>
  <way id="110391614" version="3" timestamp="2012-03-22T00:20:34Z" uid="7523" user="inas" changeset="11058517"/>
  <way id="110391617" version="1" timestamp="2011-04-26T13:34:47Z" uid="7617" user="Franc" changeset="7974869">
    <nd ref="291748409"/>
    <nd ref="291748410"/>
    <nd ref="683068297"/>
    <nd ref="291748411"/>
    <nd ref="1260783803"/>
    <nd ref="291748412"/>
    <nd ref="291748413"/>
    <nd ref="291748414"/>
    <tag k="highway" v="primary"/>
    <tag k="maxspeed" v="60"/>
    <tag k="name" v="Princes Highway"/>
    <tag k="note" v="This is only a primary road, as it is not a metroad."/>
    <tag k="oneway" v="yes"/>
  </way>
  <way id="110391617" version="2" timestamp="2011-06-04T10:02:32Z" uid="7617" user="Franc" changeset="8337628">
    <nd ref="291748409"/>
    <nd ref="291748410"/>
    <nd ref="683068297"/>
    <nd ref="291748411"/>
    <nd ref="1260783803"/>
    <nd ref="291748412"/>
    <nd ref="291748413"/>
    <nd ref="1311675308"/>
    <nd ref="1311675267"/>
    <nd ref="291748414"/>
    <tag k="highway" v="primary"/>
    <tag k="maxspeed" v="60"/>
    <tag k="name" v="Princes Highway"/>
    <tag k="note" v="This is only a primary road, as it is not a metroad."/>
    <tag k="oneway" v="yes"/>
  </way>
  <way id="110391617" version="3" timestamp="2012-03-22T00:43:53Z" uid="7523" user="inas" changeset="11058618"/>
  <way id="110391619" version="1" timestamp="2011-04-26T13:34:47Z" uid="7617" user="Franc" changeset="7974869">
    <nd ref="26637611"/>
    <nd ref="1260783852"/>
    <nd ref="33156367"/>
    <nd ref="775998397"/>
    <nd ref="10282874"/>
    <nd ref="172033734"/>
    <nd ref="683068294"/>
    <nd ref="31293679"/>
    <nd ref="31293688"/>
    <tag k="highway" v="primary"/>
    <tag k="maxspeed" v="60"/>
    <tag k="name" v="Princes Highway"/>
    <tag k="note" v="This is only a primary road, as it is not a metroad."/>
    <tag k="oneway" v="yes"/>
  </way>
  <way id="110391619" version="2" timestamp="2011-06-04T10:02:27Z" uid="7617" user="Franc" changeset="8337628">
    <nd ref="26637611"/>
    <nd ref="1260783852"/>
    <tag k="highway" v="primary"/>
    <tag k="maxspeed" v="60"/>
    <tag k="name" v="Princes Highway"/>
    <tag k="note" v="This is only a primary road, as it is not a metroad."/>
    <tag k="oneway" v="yes"/>
  </way>
  <way id="110391619" version="3" timestamp="2012-03-22T00:43:52Z" uid="7523" user="inas" changeset="11058618"/>
  <way id="110391621" version="1" timestamp="2011-04-26T13:34:48Z" uid="7617" user="Franc" changeset="7974869">
    <nd ref="29976432"/>
    <nd ref="291748431"/>
    <tag k="highway" v="unclassified"/>
    <tag k="name" v="Subway Road"/>
  </way>
  <way id="110391621" version="2" timestamp="2012-03-21T03:13:13Z" uid="7523" user="inas" changeset="11047903"/>
  <way id="110391623" version="1" timestamp="2011-04-26T13:34:48Z" uid="7617" user="Franc" changeset="7974869">
    <nd ref="15181144"/>
    <nd ref="274843266"/>
    <nd ref="31444046"/>
    <tag k="highway" v="primary"/>
    <tag k="maxspeed" v="60"/>
    <tag k="name" v="Princes Highway"/>
    <tag k="note" v="This is only a primary road, as it is not a metroad."/>
    <tag k="oneway" v="yes"/>
  </way>
  <way id="110391623" version="2" timestamp="2012-03-21T03:13:11Z" uid="7523" user="inas" changeset="11047903"/>
  <way id="110391625" version="1" timestamp="2011-04-26T13:34:48Z" uid="7617" user="Franc" changeset="7974869">
    <nd ref="31292679"/>
    <nd ref="31292692"/>
    <nd ref="31292691"/>
    <nd ref="31292696"/>
    <tag k="highway" v="unclassified"/>
    <tag k="name" v="Waines Crescent"/>
  </way>
  <way id="110391625" version="2" timestamp="2011-06-12T22:06:19Z" uid="7617" user="Franc" changeset="8420502">
    <nd ref="31292679"/>
    <nd ref="31292691"/>
    <nd ref="31292696"/>
    <tag k="highway" v="unclassified"/>
    <tag k="name" v="Waines Crescent"/>
  </way>
  <way id="110391625" version="3" timestamp="2012-03-21T03:13:09Z" uid="7523" user="inas" changeset="11047903">
    <nd ref="1684160095"/>
    <nd ref="31292691"/>
    <nd ref="31292696"/>
    <tag k="highway" v="unclassified"/>
    <tag k="name" v="Waines Crescent"/>
  </way>
  <way id="110391627" version="1" timestamp="2011-04-26T13:34:48Z" uid="7617" user="Franc" changeset="7974869">
    <nd ref="291748435"/>
    <nd ref="291748436"/>
    <tag k="highway" v="primary"/>
    <tag k="maxspeed" v="60"/>
    <tag k="name" v="Princes Highway"/>
    <tag k="note" v="This is only a primary road, as it is not a metroad."/>
    <tag k="oneway" v="yes"/>
  </way>
  <way id="110391627" version="2" timestamp="2012-03-21T03:13:11Z" uid="7523" user="inas" changeset="11047903"/>
  <way id="110391628" version="1" timestamp="2011-04-26T13:34:48Z" uid="7617" user="Franc" changeset="7974869">
    <nd ref="291748445"/>
    <nd ref="29058770"/>
    <tag k="highway" v="primary"/>
    <tag k="maxspeed" v="60"/>
    <tag k="name" v="Bay Street"/>
  </way>
  <way id="110391628" version="2" timestamp="2012-03-21T03:13:09Z" uid="7523" user="inas" changeset="11047903"/>
  <way id="110391630" version="1" timestamp="2011-04-26T13:34:48Z" uid="7617" user="Franc" changeset="7974869">
    <nd ref="31292679"/>
    <nd ref="31292690"/>
    <tag k="highway" v="primary"/>
    <tag k="maxspeed" v="60"/>
    <tag k="name" v="Princes Highway"/>
    <tag k="note" v="This is only a primary road, as it is not a metroad."/>
    <tag k="oneway" v="yes"/>
  </way>
  <way id="110391630" version="2" timestamp="2012-03-21T03:13:10Z" uid="7523" user="inas" changeset="11047903"/>
  <way id="110391632" version="1" timestamp="2011-04-26T13:34:48Z" uid="7617" user="Franc" changeset="7974869">
    <nd ref="26637165"/>
    <nd ref="263083178"/>
    <tag k="highway" v="primary"/>
    <tag k="maxspeed" v="60"/>
    <tag k="name" v="Princes Highway"/>
    <tag k="note" v="This is only a primary road, as it is not a metroad."/>
    <tag k="oneway" v="yes"/>
  </way>
  <way id="110391632" version="2" timestamp="2012-03-22T00:38:22Z" uid="7523" user="inas" changeset="11058591"/>
  <way id="110391634" version="1" timestamp="2011-04-26T13:34:49Z" uid="7617" user="Franc" changeset="7974869">
    <nd ref="60716694"/>
    <nd ref="60716671"/>
    <nd ref="291748594"/>
    <nd ref="291748403"/>
    <nd ref="291748408"/>
    <nd ref="291748409"/>
    <tag k="highway" v="primary"/>
    <tag k="maxspeed" v="60"/>
    <tag k="name" v="Princes Highway"/>
    <tag k="note" v="This is only a primary road, as it is not a metroad."/>
    <tag k="oneway" v="yes"/>
  </way>
  <way id="110391634" version="2" timestamp="2011-06-12T22:06:20Z" uid="7617" user="Franc" changeset="8420502">
    <nd ref="60716694"/>
    <nd ref="60716671"/>
    <nd ref="291748594"/>
    <tag k="highway" v="primary"/>
    <tag k="maxspeed" v="60"/>
    <tag k="name" v="Princes Highway"/>
    <tag k="note" v="This is only a primary road, as it is not a metroad."/>
    <tag k="oneway" v="yes"/>
  </way>
  <way id="110391634" version="3" timestamp="2012-03-22T00:43:53Z" uid="7523" user="inas" changeset="11058618"/>
  <way id="110391636" version="1" timestamp="2011-04-26T13:34:49Z" uid="7617" user="Franc" changeset="7974869">
    <nd ref="250779804"/>
    <nd ref="1252251440"/>
    <nd ref="961085922"/>
    <nd ref="291748445"/>
    <tag k="highway" v="primary"/>
    <tag k="maxspeed" v="60"/>
    <tag k="name" v="Bay Street"/>
  </way>
  <way id="110391636" version="2" timestamp="2012-03-21T03:13:07Z" uid="7523" user="inas" changeset="11047903">
    <nd ref="250779804"/>
    <nd ref="1252251440"/>
    <nd ref="961085922"/>
    <tag k="highway" v="primary"/>
    <tag k="maxspeed" v="60"/>
    <tag k="name" v="Bay Street"/>
  </way>
  <way id="110391636" version="3" timestamp="2012-03-22T00:38:12Z" uid="7523" user="inas" changeset="11058591">
    <nd ref="250779804"/>
    <nd ref="1252251440"/>
    <nd ref="961085922"/>
    <nd ref="1685281572"/>
    <tag k="highway" v="primary"/>
    <tag k="maxspeed" v="60"/>
    <tag k="name" v="Bay Street"/>
  </way>
  <way id="110391636" version="4" timestamp="2012-03-22T01:05:29Z" uid="7523" user="inas" changeset="11058680">
    <nd ref="250779804"/>
    <nd ref="1252251440"/>
    <nd ref="961085922"/>
    <nd ref="1685281572"/>
    <nd ref="29058770"/>
    <tag k="highway" v="primary"/>
    <tag k="maxspeed" v="60"/>
    <tag k="name" v="Bay Street"/>
  </way>
  <way id="110391637" version="1" timestamp="2011-04-26T13:34:49Z" uid="7617" user="Franc" changeset="7974869">
    <nd ref="291748436"/>
    <nd ref="31444046"/>
    <tag k="highway" v="residential"/>
    <tag k="maxspeed" v="50"/>
    <tag k="maxspeed:source" v="default residential speed limit in Australia"/>
    <tag k="name" v="Monahan Avenue"/>
    <tag k="source:name" v="DOL 1917"/>
    <tag k="source_ref" v="GPS:http://www.sl.nsw.gov.au/online/maps.cfm"/>
  </way>
  <way id="110391637" version="2" timestamp="2012-03-22T00:38:22Z" uid="7523" user="inas" changeset="11058591"/>
  <way id="110391640" version="1" timestamp="2011-04-26T13:34:49Z" uid="7617" user="Franc" changeset="7974869">
    <nd ref="291748431"/>
    <nd ref="291748433"/>
    <nd ref="291748434"/>
    <nd ref="291748435"/>
    <tag k="highway" v="primary"/>
    <tag k="maxspeed" v="60"/>
    <tag k="name" v="Princes Highway"/>
    <tag k="note" v="This is only a primary road, as it is not a metroad."/>
    <tag k="oneway" v="yes"/>
  </way>
  <way id="110391640" version="2" timestamp="2012-03-21T03:13:12Z" uid="7523" user="inas" changeset="11047903"/>
  <way id="110391643" version="1" timestamp="2011-04-26T13:34:49Z" uid="7617" user="Franc" changeset="7974869">
    <nd ref="29058770"/>
    <nd ref="961085901"/>
    <nd ref="241862028"/>
    <tag k="highway" v="primary"/>
    <tag k="maxspeed" v="60"/>
    <tag k="name" v="Princes Highway"/>
    <tag k="note" v="This is only a primary road, as it is not a metroad."/>
    <tag k="oneway" v="yes"/>
  </way>
  <way id="110391643" version="2" timestamp="2012-03-21T03:13:10Z" uid="7523" user="inas" changeset="11047903"/>
  <way id="110391644" version="1" timestamp="2011-04-26T13:34:50Z" uid="7617" user="Franc" changeset="7974869">
    <nd ref="971468643"/>
    <nd ref="1260783817"/>
    <nd ref="1260783796"/>
    <nd ref="1260783841"/>
    <nd ref="1260783820"/>
    <nd ref="1260783782"/>
    <nd ref="319137474"/>
    <tag k="addr:interpolation" v="odd"/>
  </way>
  <way id="110391644" version="2" timestamp="2012-02-16T02:50:40Z" uid="7523" user="inas" changeset="10698461">
    <nd ref="971468643"/>
    <nd ref="1260783817"/>
    <nd ref="1260783796"/>
    <nd ref="1260783841"/>
    <nd ref="1260783820"/>
    <nd ref="1260783782"/>
    <tag k="addr:interpolation" v="odd"/>
  </way>
  <way id="110391644" version="3" timestamp="2012-03-07T22:51:52Z" uid="7523" user="inas" changeset="10904797"/>
  <way id="110391648" version="1" timestamp="2011-04-26T13:34:50Z" uid="7617" user="Franc" changeset="7974869">
    <nd ref="31293688"/>
    <nd ref="10282881"/>
    <nd ref="31293689"/>
    <nd ref="291748595"/>
    <nd ref="17853383"/>
    <nd ref="17396345"/>
    <tag k="highway" v="primary"/>
    <tag k="maxspeed" v="60"/>
    <tag k="name" v="Princes Highway"/>
    <tag k="note" v="This is only a primary road, as it is not a metroad."/>
    <tag k="oneway" v="yes"/>
  </way>
  <way id="110391648" version="2" timestamp="2012-03-22T00:43:53Z" uid="7523" user="inas" changeset="11058618"/>
  <way id="110391650" version="1" timestamp="2011-04-26T13:34:50Z" uid="7617" user="Franc" changeset="7974869">
    <nd ref="60716694"/>
    <nd ref="469559261"/>
    <nd ref="17396338"/>
    <nd ref="17396341"/>
    <tag k="highway" v="unclassified"/>
    <tag k="name" v="Gertrude Street"/>
  </way>
  <way id="110391652" version="1" timestamp="2011-04-26T13:34:50Z" uid="7617" user="Franc" changeset="7974869">
    <nd ref="29976432"/>
    <nd ref="10282663"/>
    <nd ref="26637165"/>
    <tag k="highway" v="primary"/>
    <tag k="maxspeed" v="60"/>
    <tag k="name" v="Princes Highway"/>
    <tag k="note" v="This is only a primary road, as it is not a metroad."/>
    <tag k="oneway" v="yes"/>
  </way>
  <way id="110391652" version="2" timestamp="2012-03-21T03:13:11Z" uid="7523" user="inas" changeset="11047903"/>
  <way id="110391655" version="1" timestamp="2011-04-26T13:34:50Z" uid="7617" user="Franc" changeset="7974869">
    <nd ref="291748445"/>
    <nd ref="291748446"/>
    <nd ref="961085905"/>
    <nd ref="291748453"/>
    <nd ref="291748517"/>
    <tag k="highway" v="primary"/>
    <tag k="maxspeed" v="60"/>
    <tag k="name" v="Princes Highway"/>
    <tag k="note" v="This is only a primary road, as it is not a metroad."/>
    <tag k="oneway" v="yes"/>
  </way>
  <way id="110391655" version="2" timestamp="2012-03-21T03:13:12Z" uid="7523" user="inas" changeset="11047903"/>
  <way id="110391657" version="1" timestamp="2011-04-26T13:34:50Z" uid="7617" user="Franc" changeset="7974869">
    <nd ref="291748441"/>
    <nd ref="241862040"/>
    <nd ref="700948398"/>
    <tag k="highway" v="residential"/>
    <tag k="maxspeed" v="50"/>
    <tag k="maxspeed:source" v="default residential speed limit in Australia"/>
    <tag k="name" v="Bryant Street"/>
  </way>
  <way id="110391657" version="2" timestamp="2012-03-21T03:13:07Z" uid="7523" user="inas" changeset="11047903">
    <nd ref="241862040"/>
    <nd ref="700948398"/>
    <tag k="highway" v="residential"/>
    <tag k="maxspeed" v="50"/>
    <tag k="maxspeed:source" v="default residential speed limit in Australia"/>
    <tag k="name" v="Bryant Street"/>
  </way>
  <way id="110391661" version="1" timestamp="2011-04-26T13:34:51Z" uid="7617" user="Franc" changeset="7974869">
    <nd ref="291748437"/>
    <nd ref="1260783845"/>
    <nd ref="35986601"/>
    <nd ref="31436130"/>
    <nd ref="31436115"/>
    <nd ref="31436000"/>
    <nd ref="31443968"/>
    <nd ref="15181140"/>
    <nd ref="31435808"/>
    <nd ref="15181138"/>
    <nd ref="31429812"/>
    <nd ref="35986610"/>
    <nd ref="31436002"/>
    <nd ref="15181133"/>
    <tag k="highway" v="secondary"/>
    <tag k="maxspeed" v="60"/>
    <tag k="name" v="Bestic Street"/>
  </way>
  <way id="110391661" version="2" timestamp="2012-03-22T00:20:20Z" uid="7523" user="inas" changeset="11058517">
    <nd ref="1260783845"/>
    <nd ref="35986601"/>
    <nd ref="31436130"/>
    <nd ref="31436115"/>
    <nd ref="31436000"/>
    <nd ref="31443968"/>
    <nd ref="15181140"/>
    <nd ref="31435808"/>
    <nd ref="15181138"/>
    <nd ref="31429812"/>
    <nd ref="35986610"/>
    <nd ref="31436002"/>
    <nd ref="15181133"/>
    <tag k="highway" v="secondary"/>
    <tag k="maxspeed" v="60"/>
    <tag k="name" v="Bestic Street"/>
  </way>
  <way id="110391661" version="3" timestamp="2012-03-22T00:38:13Z" uid="7523" user="inas" changeset="11058591">
    <nd ref="1685281560"/>
    <nd ref="1260783845"/>
    <nd ref="35986601"/>
    <nd ref="31436130"/>
    <nd ref="31436115"/>
    <nd ref="31436000"/>
    <nd ref="31443968"/>
    <nd ref="15181140"/>
    <nd ref="31435808"/>
    <nd ref="15181138"/>
    <nd ref="31429812"/>
    <nd ref="35986610"/>
    <nd ref="31436002"/>
    <nd ref="15181133"/>
    <tag k="highway" v="secondary"/>
    <tag k="maxspeed" v="60"/>
    <tag k="name" v="Bestic Street"/>
  </way>
  <way id="110391667" version="1" timestamp="2011-04-26T13:34:51Z" uid="7617" user="Franc" changeset="7974869">
    <nd ref="291748427"/>
    <nd ref="31435640"/>
    <nd ref="31435639"/>
    <nd ref="29414594"/>
    <nd ref="31429702"/>
    <nd ref="601208904"/>
    <nd ref="31435202"/>
    <nd ref="683068265"/>
    <tag k="highway" v="unclassified"/>
    <tag k="maxspeed" v="50"/>
    <tag k="name" v="Spring Street"/>
    <tag k="source" v="yahoo_imagery"/>
  </way>
  <way id="110391667" version="2" timestamp="2012-03-22T00:38:18Z" uid="7523" user="inas" changeset="11058591">
    <nd ref="1685281545"/>
    <nd ref="31435640"/>
    <nd ref="31435639"/>
    <nd ref="29414594"/>
    <nd ref="31429702"/>
    <nd ref="601208904"/>
    <nd ref="31435202"/>
    <nd ref="683068265"/>
    <tag k="highway" v="unclassified"/>
    <tag k="maxspeed" v="50"/>
    <tag k="name" v="Spring Street"/>
    <tag k="source" v="yahoo_imagery"/>
  </way>
  <way id="110391670" version="1" timestamp="2011-04-26T13:34:51Z" uid="7617" user="Franc" changeset="7974869">
    <nd ref="12052608"/>
    <nd ref="60716669"/>
    <tag k="highway" v="residential"/>
    <tag k="maxspeed" v="50"/>
    <tag k="maxspeed:source" v="default residential speed limit in Australia"/>
    <tag k="name" v="Brodie Spark Drive"/>
  </way>
  <way id="110391674" version="1" timestamp="2011-04-26T13:34:52Z" uid="7617" user="Franc" changeset="7974869">
    <nd ref="31293044"/>
    <nd ref="244250304"/>
    <nd ref="31444370"/>
    <nd ref="10282665"/>
    <nd ref="10282854"/>
    <nd ref="250283944"/>
    <nd ref="601195822"/>
    <nd ref="26637217"/>
    <tag k="highway" v="primary"/>
    <tag k="maxspeed" v="60"/>
    <tag k="name" v="Princes Highway"/>
    <tag k="note" v="This is only a primary road, as it is not a metroad."/>
    <tag k="oneway" v="yes"/>
  </way>
  <way id="110391674" version="2" timestamp="2012-03-21T03:13:10Z" uid="7523" user="inas" changeset="11047903"/>
  <way id="110391677" version="1" timestamp="2011-04-26T13:34:52Z" uid="7617" user="Franc" changeset="7974869">
    <nd ref="12052608"/>
    <nd ref="15173506"/>
    <nd ref="10282890"/>
    <tag k="highway" v="primary"/>
    <tag k="maxspeed" v="60"/>
    <tag k="name" v="Princes Highway"/>
    <tag k="note" v="This is only a primary road, as it is not a metroad."/>
    <tag k="oneway" v="yes"/>
  </way>
  <way id="110391677" version="2" timestamp="2012-02-17T03:08:23Z" uid="7523" user="inas" changeset="10707581">
    <nd ref="12052608"/>
    <nd ref="10282890"/>
    <tag k="highway" v="primary"/>
    <tag k="maxspeed" v="60"/>
    <tag k="name" v="Princes Highway"/>
    <tag k="note" v="This is only a primary road, as it is not a metroad."/>
    <tag k="oneway" v="yes"/>
  </way>
  <way id="110391677" version="3" timestamp="2012-03-22T00:43:53Z" uid="7523" user="inas" changeset="11058618"/>
  <way id="110391683" version="1" timestamp="2011-04-26T13:34:52Z" uid="7617" user="Franc" changeset="7974869">
    <nd ref="291748437"/>
    <nd ref="291748439"/>
    <tag k="highway" v="primary"/>
    <tag k="maxspeed" v="60"/>
    <tag k="name" v="Princes Highway"/>
    <tag k="note" v="This is only a primary road, as it is not a metroad."/>
    <tag k="oneway" v="yes"/>
  </way>
  <way id="110391683" version="2" timestamp="2012-03-21T03:13:11Z" uid="7523" user="inas" changeset="11047903"/>
  <way id="110391685" version="1" timestamp="2011-04-26T13:34:52Z" uid="7617" user="Franc" changeset="7974869">
    <nd ref="263083178"/>
    <nd ref="31444278"/>
    <nd ref="31293044"/>
    <tag k="highway" v="primary"/>
    <tag k="maxspeed" v="60"/>
    <tag k="name" v="Princes Highway"/>
    <tag k="note" v="This is only a primary road, as it is not a metroad."/>
    <tag k="oneway" v="yes"/>
  </way>
  <way id="110391685" version="2" timestamp="2012-03-21T03:13:12Z" uid="7523" user="inas" changeset="11047903"/>
  <way id="110391686" version="1" timestamp="2011-04-26T13:34:52Z" uid="7617" user="Franc" changeset="7974869">
    <nd ref="291748440"/>
    <nd ref="291748441"/>
    <tag k="highway" v="primary"/>
    <tag k="maxspeed" v="60"/>
    <tag k="name" v="Princes Highway"/>
    <tag k="note" v="This is only a primary road, as it is not a metroad."/>
    <tag k="oneway" v="yes"/>
  </way>
  <way id="110391686" version="2" timestamp="2012-03-21T03:13:10Z" uid="7523" user="inas" changeset="11047903"/>
  <way id="110391689" version="1" timestamp="2011-04-26T13:34:53Z" uid="7617" user="Franc" changeset="7974869">
    <nd ref="603455236"/>
    <nd ref="26637217"/>
    <tag k="highway" v="primary"/>
    <tag k="maxspeed" v="60"/>
    <tag k="name" v="Forest Road"/>
    <tag k="source" v="yahoo_imagery"/>
  </way>
  <way id="110391689" version="2" timestamp="2012-03-22T23:27:59Z" uid="7523" user="inas" changeset="11069049"/>
  <way id="110391690" version="1" timestamp="2011-04-26T13:34:53Z" uid="7617" user="Franc" changeset="7974869">
    <nd ref="291748441"/>
    <nd ref="291748442"/>
    <nd ref="291748443"/>
    <tag k="highway" v="primary"/>
    <tag k="maxspeed" v="60"/>
    <tag k="name" v="Princes Highway"/>
    <tag k="note" v="This is only a primary road, as it is not a metroad."/>
    <tag k="oneway" v="yes"/>
  </way>
  <way id="110391690" version="2" timestamp="2012-03-21T03:13:10Z" uid="7523" user="inas" changeset="11047903"/>
  <way id="110391692" version="1" timestamp="2011-04-26T13:34:53Z" uid="7617" user="Franc" changeset="7974869">
    <nd ref="291748419"/>
    <nd ref="31293044"/>
    <tag k="highway" v="residential"/>
    <tag k="maxspeed" v="50"/>
    <tag k="maxspeed:source" v="default residential speed limit in Australia"/>
    <tag k="name" v="Terry Street"/>
  </way>
  <way id="110391692" version="2" timestamp="2012-03-22T00:38:22Z" uid="7523" user="inas" changeset="11058591"/>
  <way id="110391695" version="1" timestamp="2011-04-26T13:34:53Z" uid="7617" user="Franc" changeset="7974869">
    <nd ref="31444046"/>
    <nd ref="31292833"/>
    <nd ref="31292868"/>
    <tag k="highway" v="primary"/>
    <tag k="maxspeed" v="60"/>
    <tag k="name" v="Princes Highway"/>
    <tag k="note" v="This is only a primary road, as it is not a metroad."/>
    <tag k="oneway" v="yes"/>
  </way>
  <way id="110391695" version="2" timestamp="2012-03-21T03:13:10Z" uid="7523" user="inas" changeset="11047903"/>
  <way id="110391696" version="1" timestamp="2011-04-26T13:34:53Z" uid="7617" user="Franc" changeset="7974869">
    <nd ref="31292690"/>
    <nd ref="31292699"/>
    <nd ref="15181144"/>
    <tag k="highway" v="primary"/>
    <tag k="maxspeed" v="60"/>
    <tag k="name" v="Princes Highway"/>
    <tag k="note" v="This is only a primary road, as it is not a metroad."/>
    <tag k="oneway" v="yes"/>
  </way>
  <way id="110391696" version="2" timestamp="2012-03-21T03:13:12Z" uid="7523" user="inas" changeset="11047903"/>
  <way id="110391699" version="1" timestamp="2011-04-26T13:34:53Z" uid="7617" user="Franc" changeset="7974869">
    <nd ref="263083178"/>
    <nd ref="291748424"/>
    <tag k="fixme:sign:no" v="2010-05-08"/>
    <tag k="highway" v="unclassified"/>
    <tag k="maxspeed" v="50"/>
    <tag k="name" v="Beehag Avenue"/>
    <tag k="source" v="survey"/>
    <tag k="source:name" v="historical"/>
  </way>
  <way id="110391699" version="2" timestamp="2012-03-22T00:38:21Z" uid="7523" user="inas" changeset="11058591"/>
  <way id="110391701" version="1" timestamp="2011-04-26T13:34:54Z" uid="7617" user="Franc" changeset="7974869">
    <nd ref="291748443"/>
    <nd ref="961085932"/>
    <nd ref="291748445"/>
    <tag k="highway" v="primary"/>
    <tag k="maxspeed" v="60"/>
    <tag k="name" v="Princes Highway"/>
    <tag k="note" v="This is only a primary road, as it is not a metroad."/>
    <tag k="oneway" v="yes"/>
  </way>
  <way id="110391701" version="2" timestamp="2012-03-21T03:13:11Z" uid="7523" user="inas" changeset="11047903"/>
  <way id="110391703" version="1" timestamp="2011-04-26T13:34:54Z" uid="7617" user="Franc" changeset="7974869">
    <nd ref="1260783801"/>
    <nd ref="1260783780"/>
    <nd ref="1260783851"/>
    <nd ref="1260783864"/>
    <nd ref="1260783823"/>
    <nd ref="1260783786"/>
    <nd ref="1260783794"/>
    <nd ref="1260783773"/>
    <nd ref="1260783807"/>
    <nd ref="1260783839"/>
    <nd ref="1260783825"/>
    <nd ref="1260783770"/>
    <nd ref="1260783805"/>
    <nd ref="1260783801"/>
    <tag k="building" v="yes"/>
  </way>
  <way id="110391703" version="2" timestamp="2012-02-16T03:00:51Z" uid="7523" user="inas" changeset="10698479"/>
  <way id="110391705" version="1" timestamp="2011-04-26T13:34:54Z" uid="7617" user="Franc" changeset="7974869">
    <nd ref="291748436"/>
    <nd ref="291748437"/>
    <tag k="highway" v="primary"/>
    <tag k="maxspeed" v="60"/>
    <tag k="name" v="Princes Highway"/>
    <tag k="note" v="This is only a primary road, as it is not a metroad."/>
    <tag k="oneway" v="yes"/>
  </way>
  <way id="110391705" version="2" timestamp="2012-03-21T03:13:12Z" uid="7523" user="inas" changeset="11047903"/>
  <way id="110391707" version="1" timestamp="2011-04-26T13:34:54Z" uid="7617" user="Franc" changeset="7974869">
    <nd ref="291748427"/>
    <nd ref="291748428"/>
    <nd ref="291748431"/>
    <tag k="highway" v="primary"/>
    <tag k="maxspeed" v="60"/>
    <tag k="name" v="Princes Highway"/>
    <tag k="note" v="This is only a primary road, as it is not a metroad."/>
    <tag k="oneway" v="yes"/>
  </way>
  <way id="110391707" version="2" timestamp="2012-03-21T03:13:11Z" uid="7523" user="inas" changeset="11047903"/>
  <way id="110391709" version="1" timestamp="2011-04-26T13:34:54Z" uid="7617" user="Franc" changeset="7974869">
    <nd ref="60716669"/>
    <nd ref="430023664"/>
    <nd ref="60716670"/>
    <nd ref="60716694"/>
    <tag k="highway" v="primary"/>
    <tag k="maxspeed" v="60"/>
    <tag k="name" v="Princes Highway"/>
    <tag k="note" v="This is only a primary road, as it is not a metroad."/>
    <tag k="oneway" v="yes"/>
  </way>
  <way id="110391709" version="2" timestamp="2012-03-22T00:43:52Z" uid="7523" user="inas" changeset="11058618"/>
  <way id="110391712" version="1" timestamp="2011-04-26T13:34:54Z" uid="7617" user="Franc" changeset="7974869">
    <nd ref="31292696"/>
    <nd ref="31292690"/>
    <tag k="highway" v="unclassified"/>
    <tag k="name" v="Waines Crescent"/>
    <tag k="oneway" v="yes"/>
  </way>
  <way id="110391713" version="1" timestamp="2011-04-26T13:34:55Z" uid="7617" user="Franc" changeset="7974869">
    <nd ref="31292868"/>
    <nd ref="1260783849"/>
    <nd ref="1260783812"/>
    <nd ref="31292867"/>
    <nd ref="31292866"/>
    <nd ref="1260783834"/>
    <nd ref="1260783868"/>
    <nd ref="31292869"/>
    <tag k="highway" v="unclassified"/>
    <tag k="name" v="Hattersley Street"/>
  </way>
  <way id="110391713" version="2" timestamp="2012-03-21T03:13:08Z" uid="7523" user="inas" changeset="11047903">
    <nd ref="1684160092"/>
    <nd ref="1260783849"/>
    <nd ref="1260783812"/>
    <nd ref="31292867"/>
    <nd ref="31292866"/>
    <nd ref="1260783834"/>
    <nd ref="1260783868"/>
    <nd ref="31292869"/>
    <tag k="highway" v="unclassified"/>
    <tag k="name" v="Hattersley Street"/>
  </way>
  <way id="110391713" version="3" timestamp="2012-03-22T23:27:56Z" uid="7523" user="inas" changeset="11069049">
    <nd ref="1684160092"/>
    <nd ref="1260783849"/>
    <nd ref="1260783812"/>
    <nd ref="31292867"/>
    <nd ref="31292866"/>
    <nd ref="1260783834"/>
    <nd ref="1260783868"/>
    <nd ref="31292869"/>
    <nd ref="1686467374"/>
    <tag k="highway" v="unclassified"/>
    <tag k="name" v="Hattersley Street"/>
  </way>
  <way id="110391714" version="1" timestamp="2011-04-26T13:34:55Z" uid="7617" user="Franc" changeset="7974869">
    <nd ref="291748419"/>
    <nd ref="291748420"/>
    <nd ref="291748423"/>
    <nd ref="291748424"/>
    <tag k="highway" v="primary"/>
    <tag k="maxspeed" v="60"/>
    <tag k="name" v="Princes Highway"/>
    <tag k="note" v="This is only a primary road, as it is not a metroad."/>
    <tag k="oneway" v="yes"/>
  </way>
  <way id="110391714" version="2" timestamp="2012-03-21T03:13:11Z" uid="7523" user="inas" changeset="11047903"/>
  <way id="110391715" version="1" timestamp="2011-04-26T13:34:55Z" uid="7617" user="Franc" changeset="7974869">
    <nd ref="31292690"/>
    <nd ref="291748439"/>
    <tag k="highway" v="unclassified"/>
    <tag k="name" v="Waines Crescent"/>
    <tag k="oneway" v="yes"/>
  </way>
  <way id="110391715" version="2" timestamp="2012-03-22T00:20:28Z" uid="7523" user="inas" changeset="11058517">
    <nd ref="31292690"/>
    <nd ref="1685276578"/>
    <tag k="highway" v="unclassified"/>
    <tag k="name" v="Waines Crescent"/>
    <tag k="oneway" v="yes"/>
  </way>
</osm>
