<?xml version='1.0' encoding='UTF-8'?>
<osm version="0.6" generator="libosmium/2.20.0">
  <way id="11042346" version="2" timestamp="2009-08-03T13:58:01Z" uid="4467" user="Rosscoe" changeset="2025772">
    <nd ref="59728446"/>
    <nd ref="59728447"/>
    <tag k="bridge" v="yes"/>
    <tag k="highway" v="secondary"/>
    <tag k="layer" v="1"/>
    <tag k="name" v="Traralgon - Maffra Road"/>
    <tag k="ref" v="C105"/>
  </way>
  <way id="11042354" version="3" timestamp="2009-09-25T07:07:55Z" uid="4467" user="Rosscoe" changeset="2613415">
    <nd ref="59651475"/>
    <nd ref="59651477"/>
    <nd ref="59651478"/>
    <nd ref="59651479"/>
    <nd ref="59651480"/>
    <nd ref="59651481"/>
    <nd ref="59651483"/>
    <nd ref="59651485"/>
    <nd ref="84491518"/>
    <nd ref="59651487"/>
    <nd ref="59651488"/>
    <nd ref="59651489"/>
    <nd ref="59651490"/>
    <nd ref="59647272"/>
    <tag k="highway" v="secondary"/>
    <tag k="name" v="Tyers Road"/>
    <tag k="ref" v="C481"/>
    <tag k="source" v="survey"/>
    <tag k="surface" v="paved"/>
  </way>
</osm>
