<?xml version='1.0' encoding='UTF-8'?>
<osm version="0.6" generator="libosmium/2.20.0">
  <way id="11044845" version="5" timestamp="2008-08-23T04:42:22Z" uid="30201" user="rrankin" changeset="373650">
    <nd ref="72482482"/>
    <nd ref="98475085"/>
    <nd ref="98475078"/>
    <nd ref="98475091"/>
    <nd ref="268781740"/>
    <nd ref="268781756"/>
    <tag k="created_by" v="Potlatch 0.10"/>
    <tag k="highway" v="secondary"/>
    <tag k="layer" v="-1"/>
    <tag k="name" v="Thorsby Drive"/>
    <tag k="source" v="survey"/>
  </way>
  <way id="11044845" version="6" timestamp="2008-08-23T07:46:57Z" uid="30201" user="rrankin" changeset="374079">
    <nd ref="72482482"/>
    <nd ref="98475085"/>
    <nd ref="98475078"/>
    <nd ref="290334347"/>
    <tag k="created_by" v="Potlatch 0.10"/>
    <tag k="highway" v="secondary"/>
    <tag k="name" v="Thorsby Drive"/>
    <tag k="source" v="survey"/>
  </way>
  <way id="11044845" version="7" timestamp="2010-02-12T18:14:39Z" uid="33377" user="Victor LP" changeset="3858538">
    <nd ref="72482482"/>
    <nd ref="98475085"/>
    <nd ref="98475078"/>
    <nd ref="290334347"/>
    <tag k="highway" v="secondary"/>
    <tag k="name" v="Thorsby Drive"/>
    <tag k="source" v="survey"/>
  </way>
  <way id="11044845" version="8" timestamp="2010-02-22T03:44:23Z" uid="30201" user="rrankin" changeset="3940724">
    <nd ref="649992816"/>
    <nd ref="98475085"/>
    <nd ref="98475078"/>
    <nd ref="290334347"/>
    <tag k="highway" v="secondary"/>
    <tag k="name" v="Thorsby Drive"/>
    <tag k="source" v="survey"/>
  </way>
  <way id="11044845" version="9" timestamp="2010-08-17T08:53:52Z" uid="69319" user="Rhubarb" changeset="5515682">
    <nd ref="649992816"/>
    <nd ref="98475085"/>
    <nd ref="864540882"/>
    <nd ref="864540717"/>
    <nd ref="98475078"/>
    <nd ref="290334347"/>
    <tag k="highway" v="secondary"/>
    <tag k="name" v="Thorsby Drive"/>
    <tag k="source" v="survey"/>
  </way>
  <way id="11044845" version="10" timestamp="2010-08-17T11:39:10Z" uid="69319" user="Rhubarb" changeset="5516949">
    <nd ref="649992816"/>
    <nd ref="98475085"/>
    <nd ref="864540882"/>
    <nd ref="864657493"/>
    <nd ref="864540717"/>
    <nd ref="864657513"/>
    <nd ref="98475078"/>
    <nd ref="290334347"/>
    <tag k="highway" v="secondary"/>
    <tag k="name" v="Thorsby Drive"/>
    <tag k="source" v="survey"/>
  </way>
  <way id="11044845" version="11" timestamp="2010-09-19T13:12:35Z" uid="79475" user="AlexOnTheBus" changeset="5819599">
    <nd ref="649992816"/>
    <nd ref="98475085"/>
    <nd ref="864540882"/>
    <nd ref="864657493"/>
    <nd ref="864540717"/>
    <nd ref="864657513"/>
    <nd ref="98475078"/>
    <tag k="highway" v="secondary"/>
    <tag k="name" v="Thorsby Drive"/>
    <tag k="source" v="survey"/>
  </way>
  <way id="11044845" version="12" timestamp="2010-09-19T13:12:39Z" uid="79475" user="AlexOnTheBus" changeset="5819599">
    <nd ref="649992816"/>
    <nd ref="98475085"/>
    <nd ref="864540882"/>
    <nd ref="864657493"/>
    <nd ref="864540717"/>
    <nd ref="864657513"/>
    <nd ref="98475078"/>
    <tag k="highway" v="tertiary"/>
    <tag k="name" v="Thorsby Drive"/>
    <tag k="source" v="survey"/>
  </way>
</osm>
