<?xml version='1.0' encoding='UTF-8'?>
<osm version="0.6" generator="libosmium/2.20.0">
  <way id="11074029" version="4" timestamp="2010-07-07T09:20:15Z" uid="74617" user="JohnSmith" changeset="5156250">
    <nd ref="98760923"/>
    <nd ref="98708257"/>
    <tag k="highway" v="residential"/>
    <tag k="maxspeed" v="50"/>
    <tag k="maxspeed:source" v="default residential speed limit in Australia"/>
    <tag k="name" v="Myers Place"/>
  </way>
  <way id="11074029" version="5" timestamp="2012-01-15T10:33:01Z" uid="147510" user="woodpeck_fixbot" changeset="10395278">
    <nd ref="98760923"/>
    <nd ref="98708257"/>
    <tag k="highway" v="residential"/>
    <tag k="name" v="Myers Place"/>
  </way>
  <way id="11074058" version="4" timestamp="2010-07-07T09:18:17Z" uid="74617" user="JohnSmith" changeset="5156250">
    <nd ref="98761182"/>
    <nd ref="98761184"/>
    <nd ref="98708255"/>
    <tag k="highway" v="residential"/>
    <tag k="maxspeed" v="50"/>
    <tag k="maxspeed:source" v="default residential speed limit in Australia"/>
    <tag k="name" v="Paech Place"/>
  </way>
  <way id="11074058" version="5" timestamp="2012-01-15T10:33:02Z" uid="147510" user="woodpeck_fixbot" changeset="10395278">
    <nd ref="98761182"/>
    <nd ref="98761184"/>
    <nd ref="98708255"/>
    <tag k="highway" v="residential"/>
    <tag k="name" v="Paech Place"/>
  </way>
  <way id="11074084" version="5" timestamp="2010-07-07T09:14:09Z" uid="74617" user="JohnSmith" changeset="5156250">
    <nd ref="98761406"/>
    <nd ref="98761407"/>
    <nd ref="98708253"/>
    <tag k="highway" v="residential"/>
    <tag k="maxspeed" v="50"/>
    <tag k="maxspeed:source" v="default residential speed limit in Australia"/>
    <tag k="name" v="McKillop Circuit"/>
  </way>
  <way id="11074084" version="6" timestamp="2012-01-15T10:33:03Z" uid="147510" user="woodpeck_fixbot" changeset="10395278">
    <nd ref="98761406"/>
    <nd ref="98761407"/>
    <nd ref="98708253"/>
    <tag k="highway" v="residential"/>
    <tag k="name" v="McKillop Circuit"/>
  </way>
  <way id="11074114" version="4" timestamp="2010-07-07T09:11:52Z" uid="74617" user="JohnSmith" changeset="5156250">
    <nd ref="98761581"/>
    <nd ref="98761582"/>
    <nd ref="98708260"/>
    <tag k="highway" v="residential"/>
    <tag k="maxspeed" v="50"/>
    <tag k="maxspeed:source" v="default residential speed limit in Australia"/>
    <tag k="name" v="Bowler Place"/>
  </way>
  <way id="11074114" version="5" timestamp="2012-01-15T10:33:05Z" uid="147510" user="woodpeck_fixbot" changeset="10395278">
    <nd ref="98761581"/>
    <nd ref="98761582"/>
    <nd ref="98708260"/>
    <tag k="highway" v="residential"/>
    <tag k="name" v="Bowler Place"/>
  </way>
  <way id="11074153" version="4" timestamp="2010-07-07T09:17:08Z" uid="74617" user="JohnSmith" changeset="5156250">
    <nd ref="98761817"/>
    <nd ref="98761818"/>
    <nd ref="98761820"/>
    <nd ref="98708256"/>
    <tag k="highway" v="residential"/>
    <tag k="maxspeed" v="50"/>
    <tag k="maxspeed:source" v="default residential speed limit in Australia"/>
    <tag k="name" v="Crouch Place"/>
  </way>
  <way id="11074153" version="5" timestamp="2012-01-15T10:33:06Z" uid="147510" user="woodpeck_fixbot" changeset="10395278">
    <nd ref="98761817"/>
    <nd ref="98761818"/>
    <nd ref="98761820"/>
    <nd ref="98708256"/>
    <tag k="highway" v="residential"/>
    <tag k="name" v="Crouch Place"/>
  </way>
  <way id="11074209" version="4" timestamp="2010-07-07T09:10:39Z" uid="74617" user="JohnSmith" changeset="5156250">
    <nd ref="98762158"/>
    <nd ref="98762159"/>
    <nd ref="98708254"/>
    <tag k="highway" v="residential"/>
    <tag k="maxspeed" v="50"/>
    <tag k="maxspeed:source" v="default residential speed limit in Australia"/>
    <tag k="name" v="Ortloff Place"/>
  </way>
  <way id="11074209" version="5" timestamp="2012-01-15T10:33:07Z" uid="147510" user="woodpeck_fixbot" changeset="10395278">
    <nd ref="98762158"/>
    <nd ref="98762159"/>
    <nd ref="98708254"/>
    <tag k="highway" v="residential"/>
    <tag k="name" v="Ortloff Place"/>
  </way>
  <way id="11074314" version="4" timestamp="2010-07-07T09:13:00Z" uid="74617" user="JohnSmith" changeset="5156250">
    <nd ref="98762768"/>
    <nd ref="98762770"/>
    <nd ref="98708252"/>
    <tag k="highway" v="residential"/>
    <tag k="maxspeed" v="50"/>
    <tag k="maxspeed:source" v="default residential speed limit in Australia"/>
    <tag k="name" v="Paull Place"/>
  </way>
  <way id="11074314" version="5" timestamp="2012-01-15T10:33:08Z" uid="147510" user="woodpeck_fixbot" changeset="10395278">
    <nd ref="98762768"/>
    <nd ref="98762770"/>
    <nd ref="98708252"/>
    <tag k="highway" v="residential"/>
    <tag k="name" v="Paull Place"/>
  </way>
  <way id="11074315" version="2" timestamp="2009-09-26T02:46:32Z" uid="103576" user="DiverCTH" changeset="2633857">
    <nd ref="508029777"/>
    <nd ref="508029778"/>
    <nd ref="98762775"/>
    <nd ref="98762777"/>
    <nd ref="98762779"/>
    <nd ref="508029779"/>
    <tag k="highway" v="motorway_link"/>
    <tag k="oneway" v="yes"/>
    <tag k="tiger:cfcc" v="A63"/>
    <tag k="tiger:county" v="Marion, FL"/>
    <tag k="tiger:reviewed" v="aerial"/>
    <tag k="tiger:source" v="tiger_import_dch_v0.6_20070809"/>
    <tag k="tiger:tlid" v="116755268:116725929:116725943"/>
    <tag k="tiger:upload_uuid" v="bulk_upload.pl-f37aec8d-f52c-4744-8e67-d7f1d870dbd2"/>
  </way>
  <way id="11074315" version="3" timestamp="2011-11-11T23:12:32Z" uid="40397" user="Zartbitter" changeset="9800933">
    <nd ref="508029777"/>
    <nd ref="508029778"/>
    <nd ref="98762775"/>
    <nd ref="98762777"/>
    <tag k="highway" v="motorway_link"/>
    <tag k="oneway" v="yes"/>
    <tag k="tiger:cfcc" v="A63"/>
    <tag k="tiger:county" v="Marion, FL"/>
    <tag k="tiger:reviewed" v="aerial"/>
    <tag k="tiger:source" v="tiger_import_dch_v0.6_20070809"/>
    <tag k="tiger:tlid" v="116755268:116725929:116725943"/>
    <tag k="tiger:upload_uuid" v="bulk_upload.pl-f37aec8d-f52c-4744-8e67-d7f1d870dbd2"/>
  </way>
  <way id="11074315" version="4" timestamp="2012-01-23T00:24:57Z" uid="207745" user="NE2" changeset="10471409">
    <nd ref="508029777"/>
    <nd ref="98762775"/>
    <nd ref="98762777"/>
    <tag k="highway" v="motorway_link"/>
    <tag k="oneway" v="yes"/>
  </way>
  <way id="11074315" version="5" timestamp="2012-02-04T04:01:02Z" uid="207745" user="NE2" changeset="10581146"/>
  <way id="11074344" version="2" timestamp="2009-09-25T01:34:16Z" uid="103576" user="DiverCTH" changeset="2611211">
    <nd ref="98763002"/>
    <nd ref="98763000"/>
    <nd ref="506861714"/>
    <nd ref="98762998"/>
    <nd ref="98762996"/>
    <nd ref="98762994"/>
    <nd ref="98762980"/>
    <nd ref="98762976"/>
    <tag k="highway" v="motorway_link"/>
    <tag k="oneway" v="yes"/>
    <tag k="tiger:cfcc" v="A41"/>
    <tag k="tiger:county" v="Marion, FL"/>
    <tag k="tiger:reviewed" v="aerial"/>
    <tag k="tiger:separated" v="no"/>
    <tag k="tiger:source" v="tiger_import_dch_v0.6_20070809"/>
    <tag k="tiger:tlid" v="116723835"/>
    <tag k="tiger:upload_uuid" v="bulk_upload.pl-f37aec8d-f52c-4744-8e67-d7f1d870dbd2"/>
  </way>
  <way id="11074344" version="3" timestamp="2012-01-17T11:31:37Z" uid="207745" user="NE2" changeset="10416693">
    <nd ref="98763002"/>
    <nd ref="98763000"/>
    <nd ref="506861714"/>
    <nd ref="1594562713"/>
    <nd ref="98762996"/>
    <nd ref="98762994"/>
    <nd ref="98762980"/>
    <nd ref="98762976"/>
    <tag k="highway" v="motorway_link"/>
    <tag k="oneway" v="yes"/>
    <tag k="tiger:cfcc" v="A41"/>
    <tag k="tiger:county" v="Marion, FL"/>
    <tag k="tiger:reviewed" v="aerial"/>
    <tag k="tiger:separated" v="no"/>
    <tag k="tiger:source" v="tiger_import_dch_v0.6_20070809"/>
    <tag k="tiger:tlid" v="116723835"/>
    <tag k="tiger:upload_uuid" v="bulk_upload.pl-f37aec8d-f52c-4744-8e67-d7f1d870dbd2"/>
  </way>
  <way id="11074344" version="4" timestamp="2012-01-23T00:24:51Z" uid="207745" user="NE2" changeset="10471409">
    <nd ref="1601841837"/>
    <nd ref="1601841830"/>
    <nd ref="98763000"/>
    <nd ref="1601841825"/>
    <nd ref="1601841822"/>
    <nd ref="1594562713"/>
    <nd ref="98762994"/>
    <nd ref="1601841756"/>
    <nd ref="98762980"/>
    <nd ref="1601841738"/>
    <tag k="highway" v="motorway_link"/>
    <tag k="oneway" v="yes"/>
  </way>
  <way id="11074344" version="5" timestamp="2012-02-04T04:01:01Z" uid="207745" user="NE2" changeset="10581146"/>
  <way id="11074372" version="4" timestamp="2010-07-07T09:13:33Z" uid="74617" user="JohnSmith" changeset="5156250">
    <nd ref="98763257"/>
    <nd ref="98763258"/>
    <nd ref="98708249"/>
    <tag k="highway" v="residential"/>
    <tag k="maxspeed" v="50"/>
    <tag k="maxspeed:source" v="default residential speed limit in Australia"/>
    <tag k="name" v="Hopwood Place"/>
  </way>
  <way id="11074372" version="5" timestamp="2012-01-15T10:33:10Z" uid="147510" user="woodpeck_fixbot" changeset="10395278">
    <nd ref="98763257"/>
    <nd ref="98763258"/>
    <nd ref="98708249"/>
    <tag k="highway" v="residential"/>
    <tag k="name" v="Hopwood Place"/>
  </way>
  <way id="11074396" version="5" timestamp="2010-07-07T09:09:38Z" uid="74617" user="JohnSmith" changeset="5156250">
    <nd ref="98763403"/>
    <nd ref="98708245"/>
    <tag k="highway" v="residential"/>
    <tag k="maxspeed" v="50"/>
    <tag k="maxspeed:source" v="default residential speed limit in Australia"/>
    <tag k="name" v="McKillop Circuit"/>
  </way>
  <way id="11074396" version="6" timestamp="2012-01-15T10:33:10Z" uid="147510" user="woodpeck_fixbot" changeset="10395278">
    <nd ref="98763403"/>
    <nd ref="98708245"/>
    <tag k="highway" v="residential"/>
    <tag k="name" v="McKillop Circuit"/>
  </way>
  <way id="11074430" version="4" timestamp="2010-07-07T09:18:05Z" uid="74617" user="JohnSmith" changeset="5156250">
    <nd ref="98763631"/>
    <nd ref="98763632"/>
    <nd ref="98763634"/>
    <tag k="highway" v="residential"/>
    <tag k="maxspeed" v="50"/>
    <tag k="maxspeed:source" v="default residential speed limit in Australia"/>
    <tag k="name" v="Braund Place"/>
  </way>
  <way id="11074430" version="5" timestamp="2012-01-15T10:33:12Z" uid="147510" user="woodpeck_fixbot" changeset="10395278">
    <nd ref="98763631"/>
    <nd ref="98763632"/>
    <nd ref="98763634"/>
    <tag k="highway" v="residential"/>
    <tag k="name" v="Braund Place"/>
  </way>
  <way id="11074470" version="2" timestamp="2009-09-26T00:36:36Z" uid="103576" user="DiverCTH" changeset="2631604">
    <nd ref="508010240"/>
    <nd ref="98763961"/>
    <nd ref="508010241"/>
    <nd ref="98763963"/>
    <nd ref="508010243"/>
    <nd ref="508010244"/>
    <nd ref="508010246"/>
    <nd ref="508010264"/>
    <nd ref="508010265"/>
    <nd ref="508010267"/>
    <nd ref="508010268"/>
    <nd ref="508010269"/>
    <nd ref="508010263"/>
    <tag k="highway" v="service"/>
    <tag k="oneway" v="yes"/>
    <tag k="tiger:cfcc" v="A41"/>
    <tag k="tiger:county" v="Marion, FL"/>
    <tag k="tiger:separated" v="no"/>
    <tag k="tiger:source" v="tiger_import_dch_v0.6_20070809"/>
    <tag k="tiger:tlid" v="116717774"/>
    <tag k="tiger:upload_uuid" v="bulk_upload.pl-f37aec8d-f52c-4744-8e67-d7f1d870dbd2"/>
  </way>
  <way id="11074470" version="3" timestamp="2010-07-12T23:03:08Z" uid="207745" user="NE2" changeset="5203744">
    <nd ref="508010240"/>
    <nd ref="98763961"/>
    <nd ref="508010241"/>
    <tag k="highway" v="motorway_link"/>
    <tag k="oneway" v="yes"/>
    <tag k="tiger:cfcc" v="A41"/>
    <tag k="tiger:county" v="Marion, FL"/>
    <tag k="tiger:separated" v="no"/>
    <tag k="tiger:source" v="tiger_import_dch_v0.6_20070809"/>
    <tag k="tiger:tlid" v="116717774"/>
    <tag k="tiger:upload_uuid" v="bulk_upload.pl-f37aec8d-f52c-4744-8e67-d7f1d870dbd2"/>
  </way>
  <way id="11074470" version="4" timestamp="2012-01-23T00:25:36Z" uid="207745" user="NE2" changeset="10471409"/>
  <way id="11074523" version="6" timestamp="2010-07-07T09:19:28Z" uid="74617" user="JohnSmith" changeset="5156250">
    <nd ref="98764305"/>
    <nd ref="98764306"/>
    <nd ref="98764307"/>
    <nd ref="98764308"/>
    <nd ref="98764309"/>
    <nd ref="98708236"/>
    <tag k="highway" v="residential"/>
    <tag k="maxspeed" v="50"/>
    <tag k="maxspeed:source" v="default residential speed limit in Australia"/>
    <tag k="name" v="Maidment Place"/>
  </way>
  <way id="11074523" version="7" timestamp="2012-01-15T10:33:13Z" uid="147510" user="woodpeck_fixbot" changeset="10395278">
    <nd ref="98764305"/>
    <nd ref="98764306"/>
    <nd ref="98764307"/>
    <nd ref="98764308"/>
    <nd ref="98764309"/>
    <nd ref="98708236"/>
    <tag k="highway" v="residential"/>
    <tag k="name" v="Maidment Place"/>
  </way>
  <way id="11074592" version="4" timestamp="2010-07-07T09:16:04Z" uid="74617" user="JohnSmith" changeset="5156250">
    <nd ref="98764693"/>
    <nd ref="98764694"/>
    <nd ref="98764695"/>
    <nd ref="98708231"/>
    <tag k="highway" v="residential"/>
    <tag k="maxspeed" v="50"/>
    <tag k="maxspeed:source" v="default residential speed limit in Australia"/>
    <tag k="name" v="Kearne Place"/>
  </way>
  <way id="11074592" version="5" timestamp="2012-01-15T10:33:14Z" uid="147510" user="woodpeck_fixbot" changeset="10395278">
    <nd ref="98764693"/>
    <nd ref="98764694"/>
    <nd ref="98764695"/>
    <nd ref="98708231"/>
    <tag k="highway" v="residential"/>
    <tag k="name" v="Kearne Place"/>
  </way>
  <way id="11074650" version="4" timestamp="2010-07-07T09:17:39Z" uid="74617" user="JohnSmith" changeset="5156250">
    <nd ref="98765182"/>
    <nd ref="98765183"/>
    <nd ref="98765184"/>
    <nd ref="98765186"/>
    <nd ref="98765187"/>
    <tag k="highway" v="residential"/>
    <tag k="maxspeed" v="50"/>
    <tag k="maxspeed:source" v="default residential speed limit in Australia"/>
    <tag k="name" v="Salmon Place"/>
  </way>
  <way id="11074650" version="5" timestamp="2012-01-15T10:33:15Z" uid="147510" user="woodpeck_fixbot" changeset="10395278">
    <nd ref="98765182"/>
    <nd ref="98765183"/>
    <nd ref="98765184"/>
    <nd ref="98765186"/>
    <nd ref="98765187"/>
    <tag k="highway" v="residential"/>
    <tag k="name" v="Salmon Place"/>
  </way>
  <way id="11074726" version="3" timestamp="2010-07-07T09:11:08Z" uid="74617" user="JohnSmith" changeset="5156250">
    <nd ref="98765598"/>
    <nd ref="98765183"/>
    <tag k="highway" v="residential"/>
    <tag k="maxspeed" v="50"/>
    <tag k="maxspeed:source" v="default residential speed limit in Australia"/>
    <tag k="name" v="Salmon Place"/>
  </way>
  <way id="11074726" version="4" timestamp="2012-01-15T10:33:17Z" uid="147510" user="woodpeck_fixbot" changeset="10395278">
    <nd ref="98765598"/>
    <nd ref="98765183"/>
    <tag k="highway" v="residential"/>
    <tag k="name" v="Salmon Place"/>
  </way>
  <way id="11074754" version="4" timestamp="2010-07-07T09:19:22Z" uid="74617" user="JohnSmith" changeset="5156250">
    <nd ref="98765767"/>
    <nd ref="98708225"/>
    <tag k="highway" v="residential"/>
    <tag k="maxspeed" v="50"/>
    <tag k="maxspeed:source" v="default residential speed limit in Australia"/>
    <tag k="name" v="Baseby Place"/>
    <tag k="source" v="nearmap"/>
  </way>
  <way id="11074754" version="5" timestamp="2012-01-15T10:33:18Z" uid="147510" user="woodpeck_fixbot" changeset="10395278">
    <nd ref="98765767"/>
    <nd ref="98708225"/>
    <tag k="highway" v="residential"/>
    <tag k="name" v="Baseby Place"/>
    <tag k="source" v="nearmap"/>
  </way>
  <way id="11074786" version="5" timestamp="2010-07-07T09:13:25Z" uid="74617" user="JohnSmith" changeset="5156250">
    <nd ref="98766149"/>
    <nd ref="98766150"/>
    <nd ref="98766151"/>
    <nd ref="98708221"/>
    <tag k="highway" v="residential"/>
    <tag k="maxspeed" v="50"/>
    <tag k="maxspeed:source" v="default residential speed limit in Australia"/>
    <tag k="name" v="Rankine Place"/>
  </way>
  <way id="11074786" version="6" timestamp="2012-01-15T10:33:19Z" uid="147510" user="woodpeck_fixbot" changeset="10395278">
    <nd ref="98766149"/>
    <nd ref="98766150"/>
    <nd ref="98766151"/>
    <nd ref="98708221"/>
    <tag k="highway" v="residential"/>
    <tag k="name" v="Rankine Place"/>
  </way>
  <way id="11074812" version="4" timestamp="2010-07-07T09:16:15Z" uid="74617" user="JohnSmith" changeset="5156250">
    <nd ref="98766297"/>
    <nd ref="98766298"/>
    <nd ref="98766151"/>
    <tag k="highway" v="residential"/>
    <tag k="maxspeed" v="50"/>
    <tag k="maxspeed:source" v="default residential speed limit in Australia"/>
    <tag k="name" v="Rankine Place"/>
  </way>
  <way id="11074812" version="5" timestamp="2012-01-15T10:33:20Z" uid="147510" user="woodpeck_fixbot" changeset="10395278">
    <nd ref="98766297"/>
    <nd ref="98766298"/>
    <nd ref="98766151"/>
    <tag k="highway" v="residential"/>
    <tag k="name" v="Rankine Place"/>
  </way>
  <way id="11074879" version="7" timestamp="2010-07-07T09:11:06Z" uid="74617" user="JohnSmith" changeset="5156250">
    <nd ref="98766833"/>
    <nd ref="98766834"/>
    <nd ref="98766835"/>
    <nd ref="98766836"/>
    <nd ref="98766837"/>
    <nd ref="98766843"/>
    <tag k="highway" v="residential"/>
    <tag k="maxspeed" v="50"/>
    <tag k="maxspeed:source" v="default residential speed limit in Australia"/>
    <tag k="name" v="Richman Place"/>
  </way>
  <way id="11074879" version="8" timestamp="2012-01-15T10:33:21Z" uid="147510" user="woodpeck_fixbot" changeset="10395278">
    <nd ref="98766833"/>
    <nd ref="98766834"/>
    <nd ref="98766835"/>
    <nd ref="98766836"/>
    <nd ref="98766837"/>
    <nd ref="98766843"/>
    <tag k="highway" v="residential"/>
    <tag k="name" v="Richman Place"/>
  </way>
</osm>
