<?xml version='1.0' encoding='UTF-8'?>
<osm version="0.6" generator="libosmium/2.20.0">
  <way id="110988603" version="1" timestamp="2011-04-29T19:55:23Z" uid="66036" user="h4v" changeset="8006337">
    <nd ref="1265560439"/>
    <nd ref="1265560459"/>
    <nd ref="1265560595"/>
    <nd ref="1265560567"/>
    <nd ref="1265560484"/>
    <nd ref="1265560407"/>
    <nd ref="1265560439"/>
    <tag k="addr:housenumber" v="100"/>
    <tag k="building" v="yes"/>
    <tag k="source:addr" v="wikipedia"/>
  </way>
  <way id="110988603" version="2" timestamp="2011-05-23T22:16:44Z" uid="66036" user="h4v" changeset="8231105">
    <nd ref="1265560439"/>
    <nd ref="1265560459"/>
    <nd ref="1265560595"/>
    <nd ref="1265560567"/>
    <nd ref="1265560484"/>
    <nd ref="1265560407"/>
    <nd ref="1265560439"/>
    <tag k="addr:housenumber" v="100"/>
    <tag k="building" v="yes"/>
  </way>
  <way id="110988604" version="1" timestamp="2011-04-29T19:55:24Z" uid="66036" user="h4v" changeset="8006337">
    <nd ref="1265560488"/>
    <nd ref="1265560551"/>
    <nd ref="1265560547"/>
    <nd ref="1265560456"/>
    <nd ref="1265560561"/>
    <nd ref="1265560478"/>
    <nd ref="1265560475"/>
    <nd ref="1265560399"/>
    <nd ref="1265560494"/>
    <nd ref="1265560434"/>
    <nd ref="1265560410"/>
    <nd ref="1265560531"/>
    <nd ref="1265560488"/>
    <tag k="addr:housenumber" v="130"/>
    <tag k="building" v="yes"/>
    <tag k="name" v="Polskie Radio Łódź"/>
    <tag k="source:addr" v="wikipedia"/>
  </way>
  <way id="110988605" version="1" timestamp="2011-04-29T19:55:24Z" uid="66036" user="h4v" changeset="8006337">
    <nd ref="1265560449"/>
    <nd ref="1265560481"/>
    <tag k="addr:inclusion" v="potential"/>
    <tag k="addr:interpolation" v="even"/>
    <tag k="source:addr" v="wikipedia"/>
  </way>
  <way id="110988605" version="2" timestamp="2011-05-23T22:16:37Z" uid="66036" user="h4v" changeset="8231105">
    <nd ref="1265560449"/>
    <nd ref="1297822458"/>
    <tag k="addr:inclusion" v="potential"/>
    <tag k="addr:interpolation" v="even"/>
    <tag k="source:addr" v="wikipedia"/>
  </way>
  <way id="110988606" version="1" timestamp="2011-04-29T19:55:24Z" uid="66036" user="h4v" changeset="8006337">
    <nd ref="1265560515"/>
    <nd ref="1265560569"/>
    <tag k="addr:inclusion" v="estimate"/>
    <tag k="addr:interpolation" v="even"/>
    <tag k="source:addr" v="wikipedia"/>
  </way>
  <way id="110988607" version="1" timestamp="2011-04-29T19:55:24Z" uid="66036" user="h4v" changeset="8006337">
    <nd ref="1265560554"/>
    <nd ref="1265560441"/>
    <tag k="addr:inclusion" v="estimate"/>
    <tag k="addr:interpolation" v="even"/>
    <tag k="source:addr" v="wikipedia"/>
  </way>
</osm>
