<?xml version='1.0' encoding='UTF-8'?>
<osm version="0.6" generator="libosmium/2.20.0">
  <way id="11124166" version="3" timestamp="2009-10-11T01:55:29Z" uid="36809" user="pfoten_weg_!_" changeset="2809526">
    <nd ref="99113525"/>
    <nd ref="99113505"/>
    <nd ref="99113508"/>
    <tag k="highway" v="residential"/>
    <tag k="is_in" v="El Entrego;San Martín del Rey Aurelio,Asturias,Spain,Europe"/>
    <tag k="name" v="Calle del Rio Narcea"/>
  </way>
  <way id="11124166" version="4" timestamp="2009-10-11T17:49:28Z" uid="36809" user="pfoten_weg_!_" changeset="2817916"/>
  <way id="11124168" version="3" timestamp="2009-10-11T01:55:28Z" uid="36809" user="pfoten_weg_!_" changeset="2809526">
    <nd ref="99108429"/>
    <nd ref="99113513"/>
    <nd ref="99113518"/>
    <nd ref="99113521"/>
    <nd ref="99148383"/>
    <tag k="highway" v="residential"/>
    <tag k="is_in" v="El Entrego;San Martín del Rey Aurelio,Asturias,Spain,Europe"/>
    <tag k="name" v="Calle Torres Quevedo"/>
  </way>
  <way id="11124168" version="4" timestamp="2009-10-11T17:49:29Z" uid="36809" user="pfoten_weg_!_" changeset="2817916"/>
  <way id="11124576" version="2" timestamp="2009-10-11T01:55:28Z" uid="36809" user="pfoten_weg_!_" changeset="2809526">
    <nd ref="99107940"/>
    <nd ref="99117201"/>
    <nd ref="99117209"/>
    <nd ref="99117218"/>
    <tag k="highway" v="residential"/>
    <tag k="is_in" v="El Entrego;San Martín del Rey Aurelio,Asturias,Spain,Europe"/>
    <tag k="name" v="Calle Sor Sabina"/>
  </way>
  <way id="11124576" version="3" timestamp="2009-11-08T20:50:03Z" uid="26599" user="cdavila" changeset="3068361">
    <nd ref="99117201"/>
    <nd ref="99117209"/>
    <nd ref="99117218"/>
    <tag k="highway" v="residential"/>
    <tag k="is_in" v="El Entrego;San Martín del Rey Aurelio,Asturias,Spain,Europe"/>
    <tag k="name" v="Calle Sor Sabina"/>
  </way>
  <way id="11124576" version="4" timestamp="2009-11-09T18:27:53Z" uid="26599" user="cdavila" changeset="3075995">
    <nd ref="528998566"/>
    <nd ref="99117209"/>
    <nd ref="99117218"/>
    <tag k="highway" v="residential"/>
    <tag k="is_in" v="El Entrego;San Martín del Rey Aurelio,Asturias,Spain,Europe"/>
    <tag k="name" v="Calle Sor Sabina"/>
  </way>
  <way id="11124576" version="5" timestamp="2009-11-13T19:23:05Z" uid="26599" user="cdavila" changeset="3108210">
    <nd ref="528998566"/>
    <nd ref="99117209"/>
    <nd ref="99117218"/>
    <tag k="highway" v="residential"/>
    <tag k="is_in" v="El Entrego;San Martín del Rey Aurelio;Asturias;Principado de Asturias;España;Europe"/>
    <tag k="is_in:city" v="San Martín del Rey Aurelio"/>
    <tag k="is_in:continent" v="Europe"/>
    <tag k="is_in:country" v="España"/>
    <tag k="is_in:province" v="Asturias"/>
    <tag k="is_in:region" v="Principado de Asturias"/>
    <tag k="name" v="Calle Sor Sabina"/>
  </way>
  <way id="11124577" version="2" timestamp="2009-10-11T01:55:27Z" uid="36809" user="pfoten_weg_!_" changeset="2809526">
    <nd ref="99117228"/>
    <nd ref="99117233"/>
    <nd ref="99117239"/>
    <nd ref="99117243"/>
    <tag k="highway" v="residential"/>
    <tag k="is_in" v="El Entrego;San Martín del Rey Aurelio,Asturias,Spain,Europe"/>
    <tag k="name" v="Calle de la Xana"/>
  </way>
  <way id="11124577" version="3" timestamp="2009-11-08T22:13:02Z" uid="26599" user="cdavila" changeset="3069234">
    <nd ref="528998535"/>
    <nd ref="99117233"/>
    <nd ref="99117239"/>
    <nd ref="99117243"/>
    <tag k="highway" v="residential"/>
    <tag k="is_in" v="El Entrego;San Martín del Rey Aurelio,Asturias,Spain,Europe"/>
    <tag k="name" v="Calle de la Xana"/>
  </way>
  <way id="11124577" version="4" timestamp="2009-11-13T19:23:05Z" uid="26599" user="cdavila" changeset="3108210">
    <nd ref="528998535"/>
    <nd ref="99117233"/>
    <nd ref="99117239"/>
    <nd ref="99117243"/>
    <tag k="highway" v="residential"/>
    <tag k="is_in" v="El Entrego;San Martín del Rey Aurelio;Asturias;Principado de Asturias;España;Europe"/>
    <tag k="is_in:city" v="San Martín del Rey Aurelio"/>
    <tag k="is_in:continent" v="Europe"/>
    <tag k="is_in:country" v="España"/>
    <tag k="is_in:province" v="Asturias"/>
    <tag k="is_in:region" v="Principado de Asturias"/>
    <tag k="name" v="Calle de la Xana"/>
  </way>
</osm>
