<?xml version='1.0' encoding='UTF-8'?>
<osm version="0.6" generator="libosmium/2.20.0">
  <way id="111488222" version="1" timestamp="2011-05-02T07:52:02Z" uid="74617" user="JohnSmith" changeset="8028401">
    <nd ref="276831868"/>
    <nd ref="276831869"/>
    <nd ref="1270090917"/>
    <nd ref="276831870"/>
    <nd ref="276831871"/>
    <nd ref="276831872"/>
    <tag k="highway" v="unclassified"/>
    <tag k="name" v="Ayr Street"/>
    <tag k="source" v="survey"/>
  </way>
  <way id="111488223" version="1" timestamp="2011-05-02T07:52:02Z" uid="74617" user="JohnSmith" changeset="8028401">
    <nd ref="1270090924"/>
    <nd ref="1270090918"/>
    <tag k="highway" v="service"/>
    <tag k="source" v="approximation"/>
    <tag k="surface" v="unpaved"/>
  </way>
  <way id="111488224" version="1" timestamp="2011-05-02T07:52:02Z" uid="74617" user="JohnSmith" changeset="8028401">
    <nd ref="276831872"/>
    <nd ref="276831873"/>
    <nd ref="276831874"/>
    <nd ref="276831875"/>
    <nd ref="276831876"/>
    <nd ref="276831877"/>
    <nd ref="276831878"/>
    <nd ref="276831879"/>
    <nd ref="276831880"/>
    <nd ref="276831882"/>
    <tag k="highway" v="unclassified"/>
    <tag k="name" v="Edinburgh Street"/>
    <tag k="source" v="survey"/>
  </way>
  <way id="111488225" version="1" timestamp="2011-05-02T07:52:02Z" uid="74617" user="JohnSmith" changeset="8028401">
    <nd ref="1270014538"/>
    <nd ref="1270014597"/>
    <nd ref="1270053302"/>
    <nd ref="1270006084"/>
    <nd ref="1270006104"/>
    <nd ref="1270006067"/>
    <nd ref="1270006077"/>
    <tag k="highway" v="residential"/>
    <tag k="name" v="Cramsie Cresent"/>
    <tag k="source" v="survey"/>
    <tag k="surface" v="paved"/>
  </way>
  <way id="111488226" version="1" timestamp="2011-05-02T07:52:02Z" uid="74617" user="JohnSmith" changeset="8028401">
    <nd ref="1270090917"/>
    <nd ref="1270090922"/>
    <tag k="highway" v="unclassified"/>
    <tag k="name" v="Fawcett Road"/>
    <tag k="source" v="approximation"/>
    <tag k="surface" v="unpaved"/>
  </way>
  <way id="111488226" version="2" timestamp="2012-01-08T05:08:21Z" uid="67896" user="mrpulley" changeset="10328121">
    <nd ref="1270090917"/>
    <nd ref="1270090922"/>
    <nd ref="1582113107"/>
    <tag k="highway" v="unclassified"/>
    <tag k="name" v="Fawcett Road"/>
    <tag k="source" v="approximation"/>
    <tag k="surface" v="unpaved"/>
  </way>
  <way id="111488227" version="1" timestamp="2011-05-02T07:52:03Z" uid="74617" user="JohnSmith" changeset="8028401">
    <nd ref="1270090923"/>
    <nd ref="1270027468"/>
    <nd ref="1270090914"/>
    <nd ref="1270014502"/>
    <nd ref="1270090920"/>
    <nd ref="1270014474"/>
    <nd ref="1270014513"/>
    <nd ref="1270014583"/>
    <nd ref="1270014618"/>
    <nd ref="1270014496"/>
    <nd ref="1270014538"/>
    <tag k="highway" v="unclassified"/>
    <tag k="name" v="Cramsie Cresent"/>
    <tag k="source" v="survey"/>
    <tag k="surface" v="paved"/>
  </way>
  <way id="111488729" version="1" timestamp="2011-05-02T08:13:39Z" uid="74617" user="JohnSmith" changeset="8028516">
    <nd ref="302539646"/>
    <nd ref="1270095938"/>
    <nd ref="1270095926"/>
    <nd ref="1270095894"/>
    <tag k="highway" v="residential"/>
    <tag k="maxspeed" v="50"/>
    <tag k="name" v="Hall Street"/>
    <tag k="source" v="approximation"/>
    <tag k="surface" v="paved"/>
  </way>
  <way id="111488730" version="1" timestamp="2011-05-02T08:13:39Z" uid="74617" user="JohnSmith" changeset="8028516">
    <nd ref="1270095910"/>
    <nd ref="1270095899"/>
    <nd ref="1270095915"/>
    <nd ref="1270095940"/>
    <nd ref="1270095897"/>
    <tag k="highway" v="residential"/>
    <tag k="maxspeed" v="50"/>
    <tag k="name" v="Stannifer Street"/>
    <tag k="source" v="approximation"/>
    <tag k="surface" v="paved"/>
  </way>
  <way id="111488731" version="1" timestamp="2011-05-02T08:13:39Z" uid="74617" user="JohnSmith" changeset="8028516">
    <nd ref="1270095933"/>
    <nd ref="1270095919"/>
    <nd ref="1270095906"/>
    <nd ref="1270095924"/>
    <tag k="highway" v="residential"/>
    <tag k="maxspeed" v="50"/>
    <tag k="name" v="Park Street"/>
    <tag k="source" v="approximation"/>
    <tag k="surface" v="paved"/>
  </way>
  <way id="111488734" version="1" timestamp="2011-05-02T08:13:39Z" uid="74617" user="JohnSmith" changeset="8028516">
    <nd ref="1270095894"/>
    <nd ref="1270095940"/>
    <nd ref="1270095933"/>
    <tag k="highway" v="residential"/>
    <tag k="maxspeed" v="50"/>
    <tag k="name" v="Wood Street"/>
    <tag k="source" v="approximation"/>
    <tag k="surface" v="paved"/>
  </way>
  <way id="111488736" version="1" timestamp="2011-05-02T08:13:39Z" uid="74617" user="JohnSmith" changeset="8028516">
    <nd ref="1270095926"/>
    <nd ref="1270095915"/>
    <nd ref="1270095919"/>
    <tag k="highway" v="residential"/>
    <tag k="maxspeed" v="50"/>
    <tag k="name" v="Church Street"/>
    <tag k="source" v="approximation"/>
    <tag k="surface" v="paved"/>
  </way>
  <way id="111488739" version="1" timestamp="2011-05-02T08:13:40Z" uid="74617" user="JohnSmith" changeset="8028516">
    <nd ref="1270095938"/>
    <nd ref="1270095899"/>
    <nd ref="1270095906"/>
    <tag k="highway" v="residential"/>
    <tag k="name" v="Marsh Street"/>
    <tag k="source" v="approximation"/>
    <tag k="surface" v="paved"/>
  </way>
  <way id="111488741" version="1" timestamp="2011-05-02T08:13:40Z" uid="74617" user="JohnSmith" changeset="8028516">
    <nd ref="1270095904"/>
    <nd ref="1270095908"/>
    <nd ref="1270095892"/>
    <nd ref="1270095938"/>
    <tag k="highway" v="unclassified"/>
    <tag k="name" v="Guyra Road"/>
    <tag k="source" v="approximation"/>
    <tag k="surface" v="paved"/>
  </way>
  <way id="111488741" version="2" timestamp="2012-03-28T00:38:01Z" uid="5715" user="Hoylen Sue" changeset="11122284">
    <nd ref="1270095904"/>
    <nd ref="1693976636"/>
    <nd ref="1270095908"/>
    <nd ref="1270095892"/>
    <nd ref="1270095938"/>
    <tag k="highway" v="unclassified"/>
    <tag k="name" v="Short Street"/>
    <tag k="source" v="approximation"/>
    <tag k="surface" v="paved"/>
  </way>
  <way id="111488744" version="1" timestamp="2011-05-02T08:13:40Z" uid="74617" user="JohnSmith" changeset="8028516">
    <nd ref="1270095897"/>
    <nd ref="1270095917"/>
    <nd ref="1270095942"/>
    <nd ref="1270095931"/>
    <tag k="highway" v="residential"/>
    <tag k="maxspeed" v="50"/>
    <tag k="name" v="Old Stannifer Road"/>
    <tag k="source" v="approximation"/>
    <tag k="surface" v="paved"/>
  </way>
  <way id="111488747" version="1" timestamp="2011-05-02T08:13:40Z" uid="74617" user="JohnSmith" changeset="8028516">
    <nd ref="302539646"/>
    <nd ref="302539661"/>
    <tag k="highway" v="secondary"/>
    <tag k="maxspeed" v="100"/>
    <tag k="name" v="Tingha Road"/>
    <tag k="source" v="survey"/>
    <tag k="surface" v="paved"/>
  </way>
  <way id="111488749" version="1" timestamp="2011-05-02T08:13:40Z" uid="74617" user="JohnSmith" changeset="8028516">
    <nd ref="1270095924"/>
    <nd ref="1270095910"/>
    <nd ref="302539646"/>
    <tag k="highway" v="secondary"/>
    <tag k="maxspeed" v="50"/>
    <tag k="name" v="Marsh Street"/>
    <tag k="source" v="survey"/>
    <tag k="surface" v="paved"/>
  </way>
</osm>
