<?xml version='1.0' encoding='UTF-8'?>
<osm version="0.6" generator="libosmium/2.20.0">
  <way id="111476207" version="1" timestamp="2011-05-02T03:33:40Z" uid="74617" user="JohnSmith" changeset="8027514">
    <nd ref="1269982918"/>
    <nd ref="1269982916"/>
    <nd ref="1269982919"/>
    <tag k="highway" v="unclassified"/>
    <tag k="name" v="Kookaburra Lane"/>
    <tag k="source" v="approximation"/>
    <tag k="surface" v="paved"/>
  </way>
  <way id="111476208" version="1" timestamp="2011-05-02T03:33:40Z" uid="74617" user="JohnSmith" changeset="8027514">
    <nd ref="1269982919"/>
    <nd ref="1269982920"/>
    <nd ref="1269982917"/>
    <tag k="highway" v="unclassified"/>
    <tag k="name" v="Kookaburra Lane"/>
    <tag k="source" v="approximation"/>
    <tag k="surface" v="unpaved"/>
  </way>
  <way id="111476249" version="1" timestamp="2011-05-02T03:37:29Z" uid="74617" user="JohnSmith" changeset="8027520">
    <nd ref="1269983129"/>
    <nd ref="1269983136"/>
    <nd ref="1269983131"/>
    <nd ref="1269983137"/>
    <nd ref="1269983132"/>
    <tag k="highway" v="service"/>
    <tag k="name" v="Urabatta Lane"/>
    <tag k="source" v="approximation"/>
  </way>
  <way id="111476250" version="1" timestamp="2011-05-02T03:37:29Z" uid="74617" user="JohnSmith" changeset="8027520">
    <nd ref="1269983134"/>
    <nd ref="1269983130"/>
    <tag k="highway" v="service"/>
    <tag k="name" v="Swan Lane"/>
    <tag k="source" v="approximation"/>
  </way>
  <way id="111476251" version="1" timestamp="2011-05-02T03:37:29Z" uid="74617" user="JohnSmith" changeset="8027520">
    <nd ref="1269983133"/>
    <nd ref="1269983128"/>
    <nd ref="1269983135"/>
    <tag k="highway" v="service"/>
    <tag k="name" v="Jack Lane"/>
    <tag k="source" v="approximation"/>
  </way>
  <way id="111476252" version="1" timestamp="2011-05-02T03:38:42Z" uid="74617" user="JohnSmith" changeset="8027525">
    <nd ref="1269983146"/>
    <nd ref="1269983144"/>
    <nd ref="1269983142"/>
    <nd ref="1269983145"/>
    <nd ref="1269983143"/>
    <tag k="highway" v="service"/>
    <tag k="name" v="High Lane"/>
    <tag k="source" v="approximation"/>
  </way>
  <way id="111476275" version="1" timestamp="2011-05-02T03:41:21Z" uid="74617" user="JohnSmith" changeset="8027530">
    <nd ref="1269983271"/>
    <nd ref="1269983276"/>
    <tag k="highway" v="service"/>
    <tag k="name" v="Avern Lane"/>
    <tag k="source" v="approximation"/>
  </way>
  <way id="111476276" version="1" timestamp="2011-05-02T03:41:21Z" uid="74617" user="JohnSmith" changeset="8027530">
    <nd ref="405163793"/>
    <nd ref="1269983273"/>
    <tag k="highway" v="service"/>
    <tag k="name" v="Chisholm Lane"/>
    <tag k="source" v="approximation"/>
  </way>
  <way id="111476277" version="1" timestamp="2011-05-02T03:41:21Z" uid="74617" user="JohnSmith" changeset="8027530">
    <nd ref="1269983272"/>
    <nd ref="1269983274"/>
    <nd ref="1269983268"/>
    <nd ref="1269983275"/>
    <tag k="highway" v="service"/>
    <tag k="name" v="Andrew Lane"/>
    <tag k="source" v="approximation"/>
  </way>
  <way id="111476398" version="1" timestamp="2011-05-02T03:44:32Z" uid="74617" user="JohnSmith" changeset="8027536">
    <nd ref="1269984870"/>
    <nd ref="1269984874"/>
    <nd ref="1269984872"/>
    <tag k="highway" v="service"/>
    <tag k="name" v="Herbert Lane"/>
    <tag k="source" v="approximation"/>
  </way>
  <way id="111476399" version="1" timestamp="2011-05-02T03:44:33Z" uid="74617" user="JohnSmith" changeset="8027536">
    <nd ref="1269984871"/>
    <nd ref="1269984875"/>
    <tag k="highway" v="residential"/>
    <tag k="name" v="Plieffer Place"/>
    <tag k="source" v="approximation"/>
  </way>
  <way id="111476525" version="1" timestamp="2011-05-02T03:51:29Z" uid="74617" user="JohnSmith" changeset="8027557">
    <nd ref="405157986"/>
    <nd ref="1269986143"/>
    <tag k="highway" v="service"/>
    <tag k="maxspeed" v="50"/>
    <tag k="name" v="Cloonan Terrace"/>
    <tag k="source" v="survey"/>
    <tag k="surface" v="paved"/>
  </way>
  <way id="111476526" version="1" timestamp="2011-05-02T03:51:29Z" uid="74617" user="JohnSmith" changeset="8027557">
    <nd ref="1269986135"/>
    <nd ref="1269986133"/>
    <nd ref="1269986131"/>
    <tag k="highway" v="service"/>
    <tag k="name" v="George Lane"/>
    <tag k="source" v="approximation"/>
  </way>
  <way id="111476526" version="2" timestamp="2011-05-02T04:11:03Z" uid="74617" user="JohnSmith" changeset="8027598">
    <nd ref="1269986135"/>
    <nd ref="1269988807"/>
    <nd ref="1269988804"/>
    <nd ref="1269988806"/>
    <nd ref="1269986133"/>
    <nd ref="1269986131"/>
    <tag k="highway" v="service"/>
    <tag k="name" v="George Lane"/>
    <tag k="source" v="approximation"/>
  </way>
  <way id="111476527" version="1" timestamp="2011-05-02T03:51:30Z" uid="74617" user="JohnSmith" changeset="8027557">
    <nd ref="1269986132"/>
    <nd ref="1269986134"/>
    <nd ref="1269986146"/>
    <nd ref="1269986137"/>
    <nd ref="1269986143"/>
    <tag k="highway" v="service"/>
    <tag k="name" v="King Lane"/>
    <tag k="source" v="approximation"/>
  </way>
  <way id="111476528" version="1" timestamp="2011-05-02T03:51:30Z" uid="74617" user="JohnSmith" changeset="8027557">
    <nd ref="1269986130"/>
    <nd ref="1269986141"/>
    <nd ref="1269986139"/>
    <tag k="highway" v="service"/>
    <tag k="maxspeed" v="50"/>
    <tag k="name" v="Queens Terrace"/>
    <tag k="source" v="survey"/>
    <tag k="surface" v="paved"/>
  </way>
  <way id="111476529" version="1" timestamp="2011-05-02T03:51:30Z" uid="74617" user="JohnSmith" changeset="8027557">
    <nd ref="405156973"/>
    <nd ref="1269986132"/>
    <nd ref="405157016"/>
    <tag k="highway" v="service"/>
    <tag k="name" v="King Lane"/>
    <tag k="source" v="approximation"/>
  </way>
  <way id="111476640" version="1" timestamp="2011-05-02T03:54:22Z" uid="74617" user="JohnSmith" changeset="8027567">
    <nd ref="1269987035"/>
    <nd ref="1269987031"/>
    <tag k="highway" v="service"/>
    <tag k="name" v="Oswald Lane"/>
    <tag k="source" v="approximation"/>
  </way>
  <way id="111476640" version="2" timestamp="2011-05-02T04:11:03Z" uid="74617" user="JohnSmith" changeset="8027598">
    <nd ref="1269987035"/>
    <nd ref="1269988803"/>
    <nd ref="1269987031"/>
    <tag k="highway" v="service"/>
    <tag k="name" v="Oswald Lane"/>
    <tag k="source" v="approximation"/>
  </way>
  <way id="111476641" version="1" timestamp="2011-05-02T03:54:22Z" uid="74617" user="JohnSmith" changeset="8027567">
    <nd ref="1269987033"/>
    <nd ref="1269987032"/>
    <tag k="highway" v="service"/>
    <tag k="name" v="Prince Lane"/>
    <tag k="source" v="approximation"/>
  </way>
  <way id="111476642" version="1" timestamp="2011-05-02T03:54:22Z" uid="74617" user="JohnSmith" changeset="8027567">
    <nd ref="1269987031"/>
    <nd ref="1269987034"/>
    <tag k="highway" v="service"/>
    <tag k="name" v="Prince Terrace"/>
    <tag k="source" v="approximation"/>
  </way>
  <way id="111476706" version="1" timestamp="2011-05-02T03:59:31Z" uid="74617" user="JohnSmith" changeset="8027577">
    <nd ref="1269987432"/>
    <nd ref="1269987429"/>
    <nd ref="1269987433"/>
    <tag k="highway" v="service"/>
    <tag k="name" v="Byron Lane"/>
    <tag k="source" v="approximation"/>
  </way>
  <way id="111476707" version="1" timestamp="2011-05-02T03:59:31Z" uid="74617" user="JohnSmith" changeset="8027577">
    <nd ref="1269987430"/>
    <nd ref="1269987426"/>
    <nd ref="1269987431"/>
    <nd ref="1269987427"/>
    <nd ref="1269987428"/>
    <tag k="highway" v="service"/>
    <tag k="name" v="Byron Lane"/>
    <tag k="source" v="approximation"/>
  </way>
  <way id="111476743" version="1" timestamp="2011-05-02T04:01:05Z" uid="4467" user="Rosscoe" changeset="8027578">
    <nd ref="97508479"/>
    <nd ref="1269987667"/>
    <nd ref="97509232"/>
    <nd ref="97509234"/>
    <nd ref="97509235"/>
    <tag k="highway" v="residential"/>
    <tag k="maxspeed" v="50"/>
    <tag k="name" v="St James Road"/>
    <tag k="oneway" v="yes"/>
  </way>
  <way id="111476744" version="1" timestamp="2011-05-02T04:01:05Z" uid="4467" user="Rosscoe" changeset="8027578">
    <nd ref="97484316"/>
    <nd ref="1269987685"/>
    <tag k="bridge" v="yes"/>
    <tag k="highway" v="secondary"/>
    <tag k="layer" v="1"/>
    <tag k="name" v="Quarry Road"/>
    <tag k="oneway" v="yes"/>
    <tag k="source" v="nearmap"/>
  </way>
  <way id="111476745" version="1" timestamp="2011-05-02T04:01:05Z" uid="4467" user="Rosscoe" changeset="8027578">
    <nd ref="97498768"/>
    <nd ref="1269987657"/>
    <nd ref="1269987679"/>
    <nd ref="1269987660"/>
    <nd ref="1269987682"/>
    <nd ref="1269987668"/>
    <nd ref="1269987680"/>
    <nd ref="194890653"/>
    <nd ref="194890654"/>
    <nd ref="97491398"/>
    <tag k="highway" v="residential"/>
    <tag k="maxspeed" v="50"/>
    <tag k="name" v="Charles Street"/>
    <tag k="oneway" v="yes"/>
  </way>
  <way id="111476745" version="2" timestamp="2011-06-24T04:09:50Z" uid="22094" user="Chadzopkyo" changeset="8528663">
    <nd ref="97498768"/>
    <nd ref="1269987657"/>
    <nd ref="1269987679"/>
    <nd ref="1269987660"/>
    <nd ref="1269987682"/>
    <nd ref="1269987668"/>
    <nd ref="1269987680"/>
    <nd ref="1336321474"/>
    <nd ref="1336321476"/>
    <tag k="highway" v="residential"/>
    <tag k="maxspeed" v="50"/>
    <tag k="name" v="Charles Street"/>
    <tag k="oneway" v="yes"/>
  </way>
  <way id="111476746" version="1" timestamp="2011-05-02T04:01:06Z" uid="4467" user="Rosscoe" changeset="8027578">
    <nd ref="1269987648"/>
    <nd ref="194939408"/>
    <nd ref="194941815"/>
    <nd ref="194941823"/>
    <nd ref="194941830"/>
    <nd ref="194941837"/>
    <nd ref="569102609"/>
    <nd ref="569102610"/>
    <nd ref="194967446"/>
    <tag k="cycleway" v="track"/>
    <tag k="highway" v="cycleway"/>
  </way>
  <way id="111476747" version="1" timestamp="2011-05-02T04:01:06Z" uid="4467" user="Rosscoe" changeset="8027578">
    <nd ref="1269987685"/>
    <nd ref="97484317"/>
    <nd ref="1269987666"/>
    <nd ref="97484319"/>
    <nd ref="97484320"/>
    <nd ref="97484321"/>
    <nd ref="97484322"/>
    <nd ref="97484324"/>
    <nd ref="97484325"/>
    <nd ref="97501041"/>
    <nd ref="97504075"/>
    <nd ref="622269611"/>
    <nd ref="97504076"/>
    <nd ref="97504077"/>
    <nd ref="97504078"/>
    <nd ref="97504079"/>
    <nd ref="97504080"/>
    <nd ref="97504081"/>
    <nd ref="97504082"/>
    <nd ref="97504083"/>
    <nd ref="97504084"/>
    <nd ref="97504088"/>
    <nd ref="97506624"/>
    <nd ref="97506625"/>
    <nd ref="1269987663"/>
    <nd ref="97506627"/>
    <nd ref="1269987645"/>
    <nd ref="97506628"/>
    <nd ref="97508477"/>
    <tag k="highway" v="secondary"/>
    <tag k="name" v="Quarry Road"/>
    <tag k="oneway" v="yes"/>
    <tag k="source" v="nearmap"/>
  </way>
  <way id="111476747" version="2" timestamp="2011-06-24T04:09:51Z" uid="22094" user="Chadzopkyo" changeset="8528663">
    <nd ref="1269987685"/>
    <nd ref="1336321476"/>
    <nd ref="97484317"/>
    <nd ref="97484319"/>
    <nd ref="97484320"/>
    <nd ref="97484321"/>
    <nd ref="97484322"/>
    <nd ref="97484324"/>
    <nd ref="97484325"/>
    <nd ref="97501041"/>
    <nd ref="97504075"/>
    <nd ref="622269611"/>
    <nd ref="97504076"/>
    <nd ref="97504077"/>
    <nd ref="97504078"/>
    <nd ref="97504079"/>
    <nd ref="97504080"/>
    <nd ref="97504081"/>
    <nd ref="97504082"/>
    <nd ref="97504083"/>
    <nd ref="97504084"/>
    <nd ref="97504088"/>
    <nd ref="97506624"/>
    <nd ref="97506625"/>
    <nd ref="1269987663"/>
    <nd ref="97506627"/>
    <nd ref="1269987645"/>
    <nd ref="97506628"/>
    <nd ref="97508477"/>
    <tag k="highway" v="secondary"/>
    <tag k="name" v="Quarry Road"/>
    <tag k="oneway" v="yes"/>
    <tag k="source" v="nearmap"/>
  </way>
  <way id="111476748" version="1" timestamp="2011-05-02T04:01:06Z" uid="4467" user="Rosscoe" changeset="8027578">
    <nd ref="1269987667"/>
    <nd ref="1269987673"/>
    <nd ref="97506629"/>
    <tag k="highway" v="secondary_link"/>
    <tag k="oneway" v="yes"/>
    <tag k="source" v="nearmap"/>
  </way>
  <way id="111476749" version="1" timestamp="2011-05-02T04:01:06Z" uid="4467" user="Rosscoe" changeset="8027578">
    <nd ref="97491402"/>
    <nd ref="194938333"/>
    <nd ref="97491404"/>
    <nd ref="97491405"/>
    <nd ref="97481886"/>
    <tag k="highway" v="secondary"/>
    <tag k="name" v="Quarry Road"/>
    <tag k="oneway" v="yes"/>
    <tag k="source" v="nearmap"/>
  </way>
  <way id="111476749" version="2" timestamp="2011-06-24T04:09:52Z" uid="22094" user="Chadzopkyo" changeset="8528663">
    <nd ref="97491402"/>
    <nd ref="194938333"/>
    <nd ref="97491404"/>
    <nd ref="97481886"/>
    <tag k="highway" v="secondary"/>
    <tag k="name" v="Quarry Road"/>
    <tag k="oneway" v="yes"/>
    <tag k="source" v="nearmap"/>
  </way>
  <way id="111476750" version="1" timestamp="2011-05-02T04:01:06Z" uid="4467" user="Rosscoe" changeset="8027578">
    <nd ref="194938337"/>
    <nd ref="1269987648"/>
    <tag k="bridge" v="yes"/>
    <tag k="cycleway" v="track"/>
    <tag k="highway" v="cycleway"/>
    <tag k="layer" v="1"/>
  </way>
  <way id="111476751" version="1" timestamp="2011-05-02T04:01:06Z" uid="4467" user="Rosscoe" changeset="8027578">
    <nd ref="97649265"/>
    <nd ref="97649267"/>
    <tag k="highway" v="secondary"/>
    <tag k="name" v="Rickertt Road"/>
  </way>
  <way id="111476752" version="1" timestamp="2011-05-02T04:01:06Z" uid="4467" user="Rosscoe" changeset="8027578">
    <nd ref="1269987653"/>
    <nd ref="194796088"/>
    <tag k="boat" v="no"/>
    <tag k="layer" v="-1"/>
    <tag k="tunnel" v="yes"/>
    <tag k="waterway" v="drain"/>
  </way>
  <way id="111476753" version="1" timestamp="2011-05-02T04:01:07Z" uid="4467" user="Rosscoe" changeset="8027578">
    <nd ref="1269987677"/>
    <nd ref="1269987681"/>
    <nd ref="97509236"/>
    <tag k="highway" v="secondary_link"/>
    <tag k="oneway" v="yes"/>
    <tag k="source" v="nearmap"/>
  </way>
  <way id="111476754" version="1" timestamp="2011-05-02T04:01:07Z" uid="4467" user="Rosscoe" changeset="8027578">
    <nd ref="97509235"/>
    <nd ref="97509236"/>
    <nd ref="97509237"/>
    <nd ref="97509238"/>
    <nd ref="1269987647"/>
    <nd ref="1269987644"/>
    <nd ref="97508472"/>
    <tag k="highway" v="tertiary"/>
    <tag k="oneway" v="yes"/>
  </way>
  <way id="111476755" version="1" timestamp="2011-05-02T04:01:07Z" uid="4467" user="Rosscoe" changeset="8027578">
    <nd ref="97508474"/>
    <nd ref="1269987687"/>
    <nd ref="97508161"/>
    <tag k="highway" v="secondary_link"/>
    <tag k="oneway" v="yes"/>
    <tag k="source" v="nearmap"/>
  </way>
  <way id="111476756" version="1" timestamp="2011-05-02T04:01:07Z" uid="4467" user="Rosscoe" changeset="8027578">
    <nd ref="97491400"/>
    <nd ref="97491402"/>
    <tag k="bridge" v="yes"/>
    <tag k="highway" v="secondary"/>
    <tag k="layer" v="1"/>
    <tag k="name" v="Quarry Road"/>
    <tag k="oneway" v="yes"/>
    <tag k="source" v="nearmap"/>
  </way>
  <way id="111476757" version="1" timestamp="2011-05-02T04:01:07Z" uid="4467" user="Rosscoe" changeset="8027578">
    <nd ref="97504075"/>
    <nd ref="1269987654"/>
    <tag k="highway" v="secondary"/>
    <tag k="oneway" v="yes"/>
    <tag k="source" v="nearmap"/>
  </way>
  <way id="111476758" version="1" timestamp="2011-05-02T04:01:07Z" uid="4467" user="Rosscoe" changeset="8027578">
    <nd ref="1269987645"/>
    <nd ref="1269987643"/>
    <nd ref="97508478"/>
    <tag k="highway" v="secondary_link"/>
    <tag k="oneway" v="yes"/>
    <tag k="source" v="nearmap"/>
  </way>
  <way id="111476759" version="1" timestamp="2011-05-02T04:01:07Z" uid="4467" user="Rosscoe" changeset="8027578">
    <nd ref="97498768"/>
    <nd ref="97498771"/>
    <nd ref="97498772"/>
    <nd ref="194890907"/>
    <tag k="highway" v="residential"/>
    <tag k="maxspeed" v="50"/>
    <tag k="name" v="Charles Street"/>
  </way>
  <way id="111476760" version="1" timestamp="2011-05-02T04:01:08Z" uid="4467" user="Rosscoe" changeset="8027578">
    <nd ref="97508479"/>
    <nd ref="193433371"/>
    <nd ref="193433373"/>
    <nd ref="193433374"/>
    <nd ref="193433376"/>
    <nd ref="193433377"/>
    <nd ref="193433378"/>
    <nd ref="193433379"/>
    <nd ref="193433380"/>
    <nd ref="193433381"/>
    <nd ref="193433382"/>
    <nd ref="193433384"/>
    <nd ref="193433386"/>
    <tag k="highway" v="residential"/>
    <tag k="maxspeed" v="50"/>
    <tag k="name" v="St James Road"/>
  </way>
  <way id="111476761" version="1" timestamp="2011-05-02T04:01:08Z" uid="4467" user="Rosscoe" changeset="8027578">
    <nd ref="194936545"/>
    <nd ref="194939156"/>
    <tag k="bridge" v="yes"/>
    <tag k="cycleway" v="track"/>
    <tag k="highway" v="cycleway"/>
    <tag k="layer" v="1"/>
  </way>
  <way id="111476796" version="1" timestamp="2011-05-02T04:04:38Z" uid="74617" user="JohnSmith" changeset="8027588">
    <nd ref="1269987984"/>
    <nd ref="1269987990"/>
    <tag k="highway" v="service"/>
    <tag k="name" v="Ross Lane"/>
    <tag k="source" v="approximation"/>
  </way>
  <way id="111476797" version="1" timestamp="2011-05-02T04:04:38Z" uid="74617" user="JohnSmith" changeset="8027588">
    <nd ref="1269987986"/>
    <nd ref="1269987983"/>
    <nd ref="1269987991"/>
    <nd ref="1269987981"/>
    <tag k="highway" v="service"/>
    <tag k="name" v="Ross Lane"/>
    <tag k="source" v="approximation"/>
  </way>
  <way id="111476798" version="1" timestamp="2011-05-02T04:04:38Z" uid="74617" user="JohnSmith" changeset="8027588">
    <nd ref="1269987989"/>
    <nd ref="1269987985"/>
    <nd ref="1269987982"/>
    <nd ref="1269987988"/>
    <nd ref="1269987987"/>
    <tag k="highway" v="service"/>
    <tag k="name" v="Henderson Lane"/>
    <tag k="source" v="approximation"/>
  </way>
  <way id="111476913" version="1" timestamp="2011-05-02T04:09:17Z" uid="74617" user="JohnSmith" changeset="8027596">
    <nd ref="1269988609"/>
    <nd ref="1269988613"/>
    <nd ref="1269988603"/>
    <nd ref="1269988612"/>
    <nd ref="1269988601"/>
    <nd ref="1269988604"/>
    <tag k="highway" v="service"/>
    <tag k="name" v="Chester Lane"/>
    <tag k="source" v="approximation"/>
  </way>
  <way id="111476914" version="1" timestamp="2011-05-02T04:09:17Z" uid="74617" user="JohnSmith" changeset="8027596">
    <nd ref="1269988600"/>
    <nd ref="1269988608"/>
    <tag k="highway" v="service"/>
    <tag k="name" v="Greaves Lane"/>
    <tag k="source" v="approximation"/>
  </way>
  <way id="111476914" version="2" timestamp="2011-05-02T04:11:01Z" uid="74617" user="JohnSmith" changeset="8027598">
    <nd ref="1269988600"/>
    <nd ref="1269988802"/>
    <nd ref="1269988805"/>
    <nd ref="1269988608"/>
    <tag k="highway" v="service"/>
    <tag k="name" v="Greaves Lane"/>
    <tag k="source" v="approximation"/>
  </way>
  <way id="111476915" version="1" timestamp="2011-05-02T04:09:17Z" uid="74617" user="JohnSmith" changeset="8027596">
    <nd ref="1269988611"/>
    <nd ref="1269988605"/>
    <nd ref="1269988602"/>
    <nd ref="1269988610"/>
    <nd ref="1269988607"/>
    <nd ref="1269988599"/>
    <nd ref="1269988606"/>
    <tag k="highway" v="service"/>
    <tag k="name" v="Granville Lane"/>
    <tag k="source" v="approximation"/>
  </way>
</osm>
