<?xml version='1.0' encoding='UTF-8'?>
<osm version="0.6" generator="libosmium/2.20.0">
  <way id="111588878" version="2" timestamp="2011-05-15T09:32:13Z" uid="74617" user="JohnSmith" changeset="8149524">
    <nd ref="1271014716"/>
    <nd ref="1271014710"/>
    <nd ref="1271014712"/>
    <nd ref="1271014723"/>
    <nd ref="1271014726"/>
    <nd ref="1271014708"/>
    <nd ref="1271014724"/>
    <nd ref="1271014707"/>
    <nd ref="520573556"/>
    <tag k="highway" v="residential"/>
    <tag k="name" v="Maiden Street"/>
    <tag k="source" v="bing"/>
  </way>
  <way id="111588879" version="2" timestamp="2011-05-15T09:32:18Z" uid="74617" user="JohnSmith" changeset="8149524">
    <nd ref="1271014716"/>
    <nd ref="1271014718"/>
    <tag k="highway" v="residential"/>
    <tag k="name" v="Maiden Street"/>
    <tag k="source" v="bing"/>
    <tag k="surface" v="unpaved"/>
  </way>
  <way id="111588880" version="2" timestamp="2011-05-15T06:22:42Z" uid="74617" user="JohnSmith" changeset="8147928">
    <nd ref="1271014714"/>
    <nd ref="1271014690"/>
    <nd ref="1271014719"/>
    <nd ref="1271014721"/>
    <nd ref="1271014722"/>
    <nd ref="1271014699"/>
    <nd ref="1271014706"/>
    <nd ref="1271014702"/>
    <nd ref="1271014714"/>
    <tag k="leisure" v="track"/>
    <tag k="name" v="Bassett Park Showgrounds"/>
    <tag k="source" v="Bing"/>
    <tag k="sport" v="horse_racing"/>
  </way>
  <way id="111588882" version="2" timestamp="2011-05-15T09:32:17Z" uid="74617" user="JohnSmith" changeset="8149524">
    <nd ref="1271014710"/>
    <nd ref="1285970430"/>
    <nd ref="1271014725"/>
    <tag k="highway" v="residential"/>
    <tag k="name" v="Wehl Street"/>
    <tag k="source" v="bing"/>
  </way>
  <way id="111588882" version="3" timestamp="2011-12-31T05:46:47Z" uid="349913" user="Peter W34" changeset="10251975">
    <nd ref="1271014710"/>
    <nd ref="1570470516"/>
    <nd ref="1271014725"/>
    <tag k="highway" v="residential"/>
    <tag k="name" v="Wehl Street"/>
    <tag k="source" v="bing"/>
  </way>
  <way id="111588883" version="2" timestamp="2011-05-15T09:32:14Z" uid="74617" user="JohnSmith" changeset="8149524">
    <nd ref="1271014716"/>
    <nd ref="1285970435"/>
    <nd ref="1271014701"/>
    <tag k="highway" v="residential"/>
    <tag k="name" v="Martin Street"/>
    <tag k="source" v="bing"/>
  </way>
  <way id="111588883" version="3" timestamp="2011-12-31T05:46:45Z" uid="349913" user="Peter W34" changeset="10251975">
    <nd ref="1271014716"/>
    <nd ref="1570470515"/>
    <nd ref="1271014701"/>
    <tag k="highway" v="residential"/>
    <tag k="name" v="Martin Street"/>
    <tag k="source" v="bing"/>
  </way>
  <way id="111588885" version="2" timestamp="2011-05-15T09:12:23Z" uid="74617" user="JohnSmith" changeset="8149315">
    <nd ref="1271014717"/>
    <nd ref="520573559"/>
    <nd ref="520573561"/>
    <nd ref="520573562"/>
    <tag k="highway" v="unclassified"/>
    <tag k="name" v="Bassett Lane"/>
    <tag k="source" v="bing"/>
    <tag k="surface" v="unpaved"/>
  </way>
</osm>
