<?xml version='1.0' encoding='UTF-8'?>
<osm version="0.6" generator="libosmium/2.20.0">
  <way id="111829183" version="1" timestamp="2011-05-05T16:02:18Z" uid="115477" user="wowik" changeset="8058202">
    <nd ref="1273192425"/>
    <nd ref="1273192426"/>
    <nd ref="1273192424"/>
    <nd ref="1273192421"/>
    <nd ref="1273192425"/>
    <tag k="area" v="yes"/>
    <tag k="bridge" v="yes"/>
    <tag k="layer" v="1"/>
  </way>
  <way id="111829183" version="2" timestamp="2012-02-22T08:32:01Z" uid="382604" user="MosKartograf" changeset="10756709">
    <nd ref="1273192425"/>
    <nd ref="1642833055"/>
    <nd ref="1642833051"/>
    <nd ref="1273192426"/>
    <nd ref="1273192424"/>
    <nd ref="1642833056"/>
    <nd ref="1642833030"/>
    <nd ref="1273192421"/>
    <nd ref="1273192425"/>
    <tag k="area" v="yes"/>
    <tag k="bridge" v="yes"/>
    <tag k="layer" v="1"/>
  </way>
  <way id="111829184" version="1" timestamp="2011-05-05T16:02:18Z" uid="115477" user="wowik" changeset="8058202">
    <nd ref="1273192422"/>
    <nd ref="54627509"/>
    <tag k="addr:postcode" v="107564"/>
    <tag k="cladr" v="77000000000325200"/>
    <tag k="cladr:code" v="77000000000325200"/>
    <tag k="cladr:name" v="Богатырский Мост"/>
    <tag k="cladr:suffix" v="Улица"/>
    <tag k="highway" v="tertiary"/>
    <tag k="name" v="улица Богатырский Мост"/>
    <tag k="omkum:code" v="02050"/>
    <tag k="railway" v="tram"/>
    <tag k="sorting_name" v="Богатырский Мост  улица"/>
  </way>
  <way id="111829184" version="2" timestamp="2011-05-29T11:29:04Z" uid="391597" user="vovanet" changeset="8279931">
    <nd ref="1273192422"/>
    <nd ref="54627509"/>
    <tag k="addr:postcode" v="107564"/>
    <tag k="cladr" v="77000000000325200"/>
    <tag k="cladr:code" v="77000000000325200"/>
    <tag k="cladr:name" v="Богатырский Мост"/>
    <tag k="cladr:suffix" v="Улица"/>
    <tag k="highway" v="secondary"/>
    <tag k="name" v="улица Богатырский Мост"/>
    <tag k="omkum:code" v="02050"/>
    <tag k="railway" v="tram"/>
    <tag k="sorting_name" v="Богатырский Мост  улица"/>
  </way>
  <way id="111829184" version="3" timestamp="2011-12-08T09:53:23Z" uid="42429" user="FK270673" changeset="10063631">
    <nd ref="1273192422"/>
    <nd ref="54627509"/>
    <tag k="addr:postcode" v="107564"/>
    <tag k="cladr" v="77000000000325200"/>
    <tag k="cladr:code" v="77000000000325200"/>
    <tag k="cladr:name" v="Богатырский Мост"/>
    <tag k="cladr:suffix" v="Улица"/>
    <tag k="electrified" v="contact_line"/>
    <tag k="frequency" v="0"/>
    <tag k="gauge" v="1524"/>
    <tag k="highway" v="secondary"/>
    <tag k="name" v="улица Богатырский Мост"/>
    <tag k="omkum:code" v="02050"/>
    <tag k="railway" v="tram"/>
    <tag k="sorting_name" v="Богатырский Мост  улица"/>
    <tag k="voltage" v="550"/>
  </way>
  <way id="111829184" version="4" timestamp="2012-01-05T18:20:30Z" uid="397326" user="trolleway" changeset="10303792">
    <nd ref="1273192422"/>
    <nd ref="1578536179"/>
    <nd ref="54627509"/>
    <tag k="addr:postcode" v="107564"/>
    <tag k="cladr" v="77000000000325200"/>
    <tag k="cladr:code" v="77000000000325200"/>
    <tag k="cladr:name" v="Богатырский Мост"/>
    <tag k="cladr:suffix" v="Улица"/>
    <tag k="electrified" v="contact_line"/>
    <tag k="frequency" v="0"/>
    <tag k="gauge" v="1524"/>
    <tag k="highway" v="secondary"/>
    <tag k="name" v="улица Богатырский Мост"/>
    <tag k="omkum:code" v="02050"/>
    <tag k="railway" v="tram"/>
    <tag k="sorting_name" v="Богатырский Мост  улица"/>
    <tag k="voltage" v="550"/>
  </way>
  <way id="111829184" version="5" timestamp="2012-02-22T08:32:00Z" uid="382604" user="MosKartograf" changeset="10756709">
    <nd ref="1273192422"/>
    <nd ref="1578536179"/>
    <tag k="addr:postcode" v="107564"/>
    <tag k="cladr" v="77000000000325200"/>
    <tag k="cladr:code" v="77000000000325200"/>
    <tag k="cladr:name" v="Богатырский Мост"/>
    <tag k="cladr:suffix" v="Улица"/>
    <tag k="highway" v="secondary"/>
    <tag k="name" v="улица Богатырский Мост"/>
    <tag k="omkum:code" v="02050"/>
    <tag k="sorting_name" v="Богатырский Мост  улица"/>
  </way>
  <way id="111829185" version="1" timestamp="2011-05-05T16:02:18Z" uid="115477" user="wowik" changeset="8058202">
    <nd ref="1273192423"/>
    <nd ref="1273192422"/>
    <tag k="addr:postcode" v="107564"/>
    <tag k="bridge" v="yes"/>
    <tag k="cladr:code" v="77000000000325200"/>
    <tag k="cladr:name" v="Богатырский Мост"/>
    <tag k="cladr:suffix" v="Улица"/>
    <tag k="highway" v="secondary"/>
    <tag k="layer" v="1"/>
    <tag k="name" v="Богатырский мост"/>
    <tag k="omkum:code" v="93008"/>
    <tag k="railway" v="tram"/>
    <tag k="sorting_name" v="Богатырский  мост"/>
  </way>
  <way id="111829185" version="2" timestamp="2011-12-08T09:45:04Z" uid="42429" user="FK270673" changeset="10063631">
    <nd ref="1273192423"/>
    <nd ref="1273192422"/>
    <tag k="addr:postcode" v="107564"/>
    <tag k="bridge" v="yes"/>
    <tag k="cladr:code" v="77000000000325200"/>
    <tag k="cladr:name" v="Богатырский Мост"/>
    <tag k="cladr:suffix" v="Улица"/>
    <tag k="electrified" v="contact_line"/>
    <tag k="frequency" v="0"/>
    <tag k="gauge" v="1524"/>
    <tag k="highway" v="secondary"/>
    <tag k="layer" v="1"/>
    <tag k="name" v="Богатырский мост"/>
    <tag k="omkum:code" v="93008"/>
    <tag k="railway" v="tram"/>
    <tag k="sorting_name" v="Богатырский  мост"/>
    <tag k="voltage" v="550"/>
  </way>
  <way id="111829185" version="3" timestamp="2012-02-22T08:32:00Z" uid="382604" user="MosKartograf" changeset="10756709">
    <nd ref="1273192423"/>
    <nd ref="1273192422"/>
    <tag k="addr:postcode" v="107564"/>
    <tag k="bridge" v="yes"/>
    <tag k="cladr:code" v="77000000000325200"/>
    <tag k="cladr:name" v="Богатырский Мост"/>
    <tag k="cladr:suffix" v="Улица"/>
    <tag k="highway" v="secondary"/>
    <tag k="layer" v="1"/>
    <tag k="name" v="Богатырский мост"/>
    <tag k="omkum:code" v="93008"/>
    <tag k="sorting_name" v="Богатырский  мост"/>
  </way>
</osm>
