<?xml version='1.0' encoding='UTF-8'?>
<osm version="0.6" generator="libosmium/2.20.0">
  <way id="11199416" version="21" timestamp="2010-03-27T20:19:20Z" uid="20587" user="balrog-kun" changeset="4248199">
    <nd ref="53012188"/>
    <nd ref="667730644"/>
    <nd ref="53114595"/>
    <nd ref="53125497"/>
    <nd ref="295950097"/>
    <nd ref="667732532"/>
    <nd ref="53125495"/>
    <nd ref="667732063"/>
    <nd ref="99591350"/>
    <nd ref="667732334"/>
    <nd ref="53060629"/>
    <nd ref="436644861"/>
    <nd ref="667732400"/>
    <nd ref="99591466"/>
    <nd ref="436645152"/>
    <nd ref="53125487"/>
    <tag k="bridge" v="yes"/>
    <tag k="highway" v="primary"/>
    <tag k="layer" v="1"/>
    <tag k="name" v="West Grand Avenue"/>
    <tag k="oneway" v="yes"/>
    <tag k="tiger:cfcc" v="A41"/>
    <tag k="tiger:county" v="Alameda, CA"/>
    <tag k="tiger:name_base" v="Grand"/>
    <tag k="tiger:name_direction_prefix" v="W"/>
    <tag k="tiger:name_type" v="Ave"/>
    <tag k="tiger:separated" v="no"/>
    <tag k="tiger:source" v="tiger_import_dch_v0.6_20070809"/>
    <tag k="tiger:tlid" v="125080383:125074766:125074767:125074811:125074812:125074655:125074656:125054176:124995200:124995842:124995886:124995930:124995932:124995993:124995997:124995936:124995890:124995203:125074748:124996024:124996026:124996033:124996413:124996415:124996430:12499"/>
    <tag k="tiger:zip_left" v="94607"/>
    <tag k="tiger:zip_right" v="94607"/>
  </way>
  <way id="11199425" version="1" timestamp="2007-11-06T03:30:28Z" uid="7617" user="Franc" changeset="417769">
    <nd ref="26375768"/>
    <nd ref="34658955"/>
    <nd ref="29549418"/>
    <nd ref="99619398"/>
    <nd ref="69755802"/>
    <nd ref="34385370"/>
    <nd ref="26375851"/>
    <tag k="created_by" v="Potlatch alpha"/>
    <tag k="highway" v="primary"/>
    <tag k="name" v="Victoria Road"/>
    <tag k="oneway" v="yes"/>
  </way>
  <way id="11199425" version="2" timestamp="2007-11-06T03:42:45Z" uid="7617" user="Franc" changeset="417769">
    <nd ref="26375768"/>
    <nd ref="34658955"/>
    <nd ref="29549418"/>
    <nd ref="99619398"/>
    <nd ref="34385370"/>
    <nd ref="26375851"/>
    <tag k="created_by" v="Potlatch alpha"/>
    <tag k="highway" v="primary"/>
    <tag k="name" v="Victoria Road"/>
    <tag k="oneway" v="yes"/>
  </way>
  <way id="11199425" version="3" timestamp="2008-06-28T01:33:14Z" uid="12203" user="brainwad" changeset="321161">
    <nd ref="26375768"/>
    <nd ref="34658955"/>
    <nd ref="29549418"/>
    <nd ref="99619398"/>
    <nd ref="34385370"/>
    <nd ref="26375851"/>
    <tag k="created_by" v="Potlatch 0.9c"/>
    <tag k="highway" v="primary"/>
    <tag k="name" v="Victoria Road"/>
    <tag k="oneway" v="yes"/>
    <tag k="ref" v="S40"/>
  </way>
  <way id="11199425" version="4" timestamp="2009-12-05T13:41:49Z" uid="12203" user="brainwad" changeset="3294869">
    <nd ref="26375768"/>
    <nd ref="34658955"/>
    <nd ref="29549418"/>
    <nd ref="99619398"/>
    <nd ref="34385370"/>
    <nd ref="26375851"/>
    <tag k="highway" v="primary"/>
    <tag k="name" v="Victoria Road"/>
    <tag k="oneway" v="yes"/>
  </way>
  <way id="11199425" version="5" timestamp="2010-02-22T04:20:41Z" uid="7617" user="Franc" changeset="3940795">
    <nd ref="26375768"/>
    <nd ref="34658955"/>
    <nd ref="29549418"/>
    <nd ref="99619398"/>
    <nd ref="34385370"/>
    <nd ref="649999420"/>
    <nd ref="649999422"/>
    <nd ref="649999425"/>
    <nd ref="649999426"/>
    <nd ref="26375851"/>
    <tag k="highway" v="primary"/>
    <tag k="name" v="Victoria Road"/>
    <tag k="oneway" v="yes"/>
  </way>
  <way id="11199425" version="6" timestamp="2010-07-01T01:55:48Z" uid="299678" user="peteramjet" changeset="5117670">
    <nd ref="26375768"/>
    <nd ref="34658955"/>
    <nd ref="29549418"/>
    <nd ref="99619398"/>
    <nd ref="34385370"/>
    <nd ref="649999420"/>
    <nd ref="649999422"/>
    <nd ref="649999425"/>
    <nd ref="649999426"/>
    <nd ref="26375851"/>
    <tag k="highway" v="primary"/>
    <tag k="name" v="Victoria Road"/>
    <tag k="oneway" v="yes"/>
    <tag k="ref" v="S40"/>
  </way>
  <way id="11199425" version="7" timestamp="2010-07-05T06:20:49Z" uid="299678" user="peteramjet" changeset="5138906">
    <nd ref="26375768"/>
    <nd ref="34658955"/>
    <nd ref="29549418"/>
    <nd ref="99619398"/>
    <nd ref="34385370"/>
    <nd ref="649999420"/>
    <nd ref="649999422"/>
    <nd ref="649999425"/>
    <nd ref="649999426"/>
    <nd ref="26375851"/>
    <tag k="highway" v="primary"/>
    <tag k="name" v="Victoria Road"/>
    <tag k="oneway" v="yes"/>
  </way>
  <way id="11199425" version="8" timestamp="2010-07-08T05:41:53Z" uid="30201" user="rrankin" changeset="5163533">
    <nd ref="26375768"/>
    <nd ref="34658955"/>
    <nd ref="29549418"/>
    <nd ref="99619398"/>
    <nd ref="34385370"/>
    <nd ref="649999420"/>
    <tag k="highway" v="primary"/>
    <tag k="maxspeed" v="60"/>
    <tag k="name" v="Victoria Road"/>
    <tag k="oneway" v="yes"/>
  </way>
  <way id="11199425" version="9" timestamp="2011-02-05T03:51:41Z" uid="4467" user="Rosscoe" changeset="7189250">
    <nd ref="26375768"/>
    <nd ref="34658955"/>
    <nd ref="29549418"/>
    <nd ref="99619398"/>
    <nd ref="34385370"/>
    <nd ref="1136992731"/>
    <nd ref="649999420"/>
    <tag k="highway" v="primary"/>
    <tag k="maxspeed" v="60"/>
    <tag k="name" v="Victoria Road"/>
    <tag k="oneway" v="yes"/>
  </way>
  <way id="11199425" version="10" timestamp="2012-02-02T02:15:04Z" uid="54784" user="Tom Hollander" changeset="10564163">
    <nd ref="26375768"/>
    <nd ref="34658955"/>
    <nd ref="29549418"/>
    <nd ref="99619398"/>
    <nd ref="34385370"/>
    <nd ref="1136992731"/>
    <nd ref="649999420"/>
    <tag k="highway" v="primary"/>
    <tag k="maxspeed" v="60"/>
    <tag k="name" v="Victoria Road"/>
    <tag k="oneway" v="yes"/>
    <tag k="ref" v="SH40"/>
  </way>
  <way id="11199427" version="1" timestamp="2007-11-06T03:30:28Z" uid="7617" user="Franc" changeset="417769">
    <nd ref="8919660"/>
    <nd ref="8919661"/>
    <nd ref="28914463"/>
    <nd ref="69756137"/>
    <nd ref="69755499"/>
    <nd ref="12224433"/>
    <nd ref="99619413"/>
    <nd ref="99619419"/>
    <tag k="created_by" v="Potlatch alpha"/>
    <tag k="highway" v="primary"/>
    <tag k="image" v="80n:dsc04295.jpg"/>
    <tag k="name" v="Victoria Road"/>
    <tag k="oneway" v="yes"/>
  </way>
  <way id="11199427" version="2" timestamp="2007-11-06T03:42:46Z" uid="7617" user="Franc" changeset="417769">
    <nd ref="8919660"/>
    <nd ref="8919661"/>
    <nd ref="28914463"/>
    <nd ref="69755499"/>
    <nd ref="12224433"/>
    <nd ref="99619413"/>
    <nd ref="99619419"/>
    <tag k="created_by" v="Potlatch alpha"/>
    <tag k="highway" v="primary"/>
    <tag k="image" v="80n:dsc04295.jpg"/>
    <tag k="name" v="Victoria Road"/>
    <tag k="oneway" v="yes"/>
  </way>
  <way id="11199427" version="3" timestamp="2008-06-28T01:33:33Z" uid="12203" user="brainwad" changeset="321161">
    <nd ref="8919660"/>
    <nd ref="8919661"/>
    <nd ref="28914463"/>
    <nd ref="69755499"/>
    <nd ref="12224433"/>
    <nd ref="99619413"/>
    <nd ref="99619419"/>
    <tag k="created_by" v="Potlatch 0.9c"/>
    <tag k="highway" v="primary"/>
    <tag k="image" v="80n:dsc04295.jpg"/>
    <tag k="name" v="Victoria Road"/>
    <tag k="oneway" v="yes"/>
    <tag k="ref" v="S40"/>
  </way>
  <way id="11199427" version="4" timestamp="2009-12-05T13:41:42Z" uid="12203" user="brainwad" changeset="3294869">
    <nd ref="8919660"/>
    <nd ref="8919661"/>
    <nd ref="28914463"/>
    <nd ref="69755499"/>
    <nd ref="12224433"/>
    <nd ref="99619413"/>
    <nd ref="99619419"/>
    <tag k="highway" v="primary"/>
    <tag k="image" v="80n:dsc04295.jpg"/>
    <tag k="name" v="Victoria Road"/>
    <tag k="oneway" v="yes"/>
  </way>
  <way id="11199427" version="5" timestamp="2010-02-22T04:20:42Z" uid="7617" user="Franc" changeset="3940795">
    <nd ref="8919660"/>
    <nd ref="649999427"/>
    <nd ref="649999424"/>
    <nd ref="649999423"/>
    <nd ref="649999421"/>
    <nd ref="8919661"/>
    <nd ref="28914463"/>
    <nd ref="69755499"/>
    <nd ref="12224433"/>
    <nd ref="99619413"/>
    <nd ref="99619419"/>
    <tag k="highway" v="primary"/>
    <tag k="image" v="80n:dsc04295.jpg"/>
    <tag k="name" v="Victoria Road"/>
    <tag k="oneway" v="yes"/>
  </way>
  <way id="11199427" version="6" timestamp="2010-07-01T01:55:48Z" uid="299678" user="peteramjet" changeset="5117670">
    <nd ref="8919660"/>
    <nd ref="649999427"/>
    <nd ref="649999424"/>
    <nd ref="649999423"/>
    <nd ref="649999421"/>
    <nd ref="8919661"/>
    <nd ref="28914463"/>
    <nd ref="69755499"/>
    <nd ref="12224433"/>
    <nd ref="99619413"/>
    <nd ref="99619419"/>
    <tag k="highway" v="primary"/>
    <tag k="image" v="80n:dsc04295.jpg"/>
    <tag k="name" v="Victoria Road"/>
    <tag k="oneway" v="yes"/>
    <tag k="ref" v="S40"/>
  </way>
  <way id="11199427" version="7" timestamp="2010-07-05T06:20:55Z" uid="299678" user="peteramjet" changeset="5138906">
    <nd ref="8919660"/>
    <nd ref="649999427"/>
    <nd ref="649999424"/>
    <nd ref="649999423"/>
    <nd ref="649999421"/>
    <nd ref="8919661"/>
    <nd ref="28914463"/>
    <nd ref="69755499"/>
    <nd ref="12224433"/>
    <nd ref="99619413"/>
    <nd ref="99619419"/>
    <tag k="highway" v="primary"/>
    <tag k="image" v="80n:dsc04295.jpg"/>
    <tag k="name" v="Victoria Road"/>
    <tag k="oneway" v="yes"/>
  </way>
  <way id="11199427" version="8" timestamp="2010-07-08T05:42:01Z" uid="30201" user="rrankin" changeset="5163533">
    <nd ref="8919660"/>
    <nd ref="649999427"/>
    <nd ref="649999424"/>
    <nd ref="649999423"/>
    <nd ref="649999421"/>
    <tag k="highway" v="primary"/>
    <tag k="image" v="80n:dsc04295.jpg"/>
    <tag k="maxspeed" v="70"/>
    <tag k="name" v="Victoria Road"/>
    <tag k="oneway" v="yes"/>
  </way>
  <way id="11199427" version="9" timestamp="2012-02-02T02:15:04Z" uid="54784" user="Tom Hollander" changeset="10564163">
    <nd ref="8919660"/>
    <nd ref="649999427"/>
    <nd ref="649999424"/>
    <nd ref="649999423"/>
    <nd ref="649999421"/>
    <tag k="highway" v="primary"/>
    <tag k="image" v="80n:dsc04295.jpg"/>
    <tag k="maxspeed" v="70"/>
    <tag k="name" v="Victoria Road"/>
    <tag k="oneway" v="yes"/>
    <tag k="ref" v="SH40"/>
  </way>
  <way id="11199433" version="1" timestamp="2007-11-06T03:30:29Z" uid="7617" user="Franc" changeset="417769">
    <nd ref="99619419"/>
    <nd ref="99619429"/>
    <nd ref="99619433"/>
    <tag k="created_by" v="JOSM"/>
  </way>
  <way id="11199433" version="2" timestamp="2007-11-06T03:41:11Z" uid="7617" user="Franc" changeset="417769">
    <nd ref="99619419"/>
    <nd ref="99619429"/>
    <nd ref="99619433"/>
    <nd ref="99625744"/>
    <nd ref="99625747"/>
    <nd ref="99625750"/>
    <tag k="created_by" v="JOSM"/>
    <tag k="highway" v="primary"/>
    <tag k="name" v="Victoria Road"/>
    <tag k="oneway" v="yes"/>
  </way>
  <way id="11199433" version="3" timestamp="2007-11-27T09:10:30Z" uid="7617" user="Franc" changeset="630296">
    <nd ref="99619419"/>
    <nd ref="136862732"/>
    <nd ref="99619429"/>
    <nd ref="99619433"/>
    <nd ref="99625744"/>
    <nd ref="99625747"/>
    <nd ref="99625750"/>
    <tag k="created_by" v="JOSM"/>
    <tag k="highway" v="primary"/>
    <tag k="name" v="Victoria Road"/>
    <tag k="oneway" v="yes"/>
  </way>
  <way id="11199433" version="4" timestamp="2008-06-28T01:33:10Z" uid="12203" user="brainwad" changeset="321161">
    <nd ref="99619419"/>
    <nd ref="136862732"/>
    <nd ref="99619429"/>
    <nd ref="99619433"/>
    <nd ref="99625744"/>
    <nd ref="99625747"/>
    <nd ref="99625750"/>
    <tag k="created_by" v="Potlatch 0.9c"/>
    <tag k="highway" v="primary"/>
    <tag k="name" v="Victoria Road"/>
    <tag k="oneway" v="yes"/>
    <tag k="ref" v="S40"/>
  </way>
  <way id="11199433" version="5" timestamp="2008-10-06T08:47:39Z" uid="7617" user="Franc" changeset="105381">
    <nd ref="99619419"/>
    <nd ref="136862732"/>
    <nd ref="99619429"/>
    <nd ref="99619433"/>
    <tag k="created_by" v="Potlatch 0.9c"/>
    <tag k="highway" v="primary"/>
    <tag k="name" v="Victoria Road"/>
    <tag k="oneway" v="yes"/>
    <tag k="ref" v="S40"/>
  </way>
  <way id="11199433" version="6" timestamp="2009-03-14T10:47:01Z" uid="7617" user="Franc" changeset="807256">
    <nd ref="99619419"/>
    <nd ref="136862732"/>
    <nd ref="99619429"/>
    <tag k="created_by" v="Potlatch 0.9c"/>
    <tag k="highway" v="primary"/>
    <tag k="name" v="Victoria Road"/>
    <tag k="oneway" v="yes"/>
    <tag k="ref" v="S40"/>
  </way>
  <way id="11199433" version="7" timestamp="2009-12-05T13:42:57Z" uid="12203" user="brainwad" changeset="3294869">
    <nd ref="99619419"/>
    <nd ref="136862732"/>
    <nd ref="99619429"/>
    <tag k="highway" v="primary"/>
    <tag k="name" v="Victoria Road"/>
    <tag k="oneway" v="yes"/>
  </way>
  <way id="11199433" version="8" timestamp="2010-07-01T01:55:46Z" uid="299678" user="peteramjet" changeset="5117670">
    <nd ref="99619419"/>
    <nd ref="136862732"/>
    <nd ref="99619429"/>
    <tag k="highway" v="primary"/>
    <tag k="name" v="Victoria Road"/>
    <tag k="oneway" v="yes"/>
    <tag k="ref" v="S40"/>
  </way>
  <way id="11199433" version="9" timestamp="2010-07-05T06:20:47Z" uid="299678" user="peteramjet" changeset="5138906">
    <nd ref="99619419"/>
    <nd ref="136862732"/>
    <nd ref="99619429"/>
    <tag k="highway" v="primary"/>
    <tag k="name" v="Victoria Road"/>
    <tag k="oneway" v="yes"/>
  </way>
  <way id="11199433" version="10" timestamp="2010-07-08T05:41:55Z" uid="30201" user="rrankin" changeset="5163533">
    <nd ref="99619419"/>
    <nd ref="136862732"/>
    <nd ref="99619429"/>
    <tag k="highway" v="primary"/>
    <tag k="maxspeed" v="60"/>
    <tag k="name" v="Victoria Road"/>
    <tag k="oneway" v="yes"/>
  </way>
  <way id="11199433" version="11" timestamp="2012-02-02T02:15:05Z" uid="54784" user="Tom Hollander" changeset="10564163">
    <nd ref="99619419"/>
    <nd ref="136862732"/>
    <nd ref="99619429"/>
    <tag k="highway" v="primary"/>
    <tag k="maxspeed" v="60"/>
    <tag k="name" v="Victoria Road"/>
    <tag k="oneway" v="yes"/>
    <tag k="ref" v="SH40"/>
  </way>
</osm>
