<?xml version='1.0' encoding='UTF-8'?>
<osm version="0.6" generator="libosmium/2.20.0">
  <way id="111978268" version="1" timestamp="2011-05-06T09:30:49Z" uid="7617" user="Franc" changeset="8063834">
    <nd ref="1274112117"/>
    <nd ref="1274112162"/>
    <nd ref="1274112086"/>
    <nd ref="701870920"/>
    <tag k="highway" v="primary"/>
    <tag k="maxspeed" v="60"/>
    <tag k="name" v="Ricketty Road"/>
    <tag k="oneway" v="yes"/>
  </way>
  <way id="111978269" version="1" timestamp="2011-05-06T09:30:50Z" uid="7617" user="Franc" changeset="8063834">
    <nd ref="1274112095"/>
    <nd ref="1274111943"/>
    <nd ref="1274112132"/>
    <tag k="highway" v="primary"/>
    <tag k="maxspeed" v="60"/>
    <tag k="name" v="Gardeners Road"/>
    <tag k="oneway" v="yes"/>
  </way>
  <way id="111978270" version="1" timestamp="2011-05-06T09:30:50Z" uid="7617" user="Franc" changeset="8063834">
    <nd ref="1274112117"/>
    <nd ref="14754784"/>
    <tag k="highway" v="primary"/>
    <tag k="name" v="Kent Road"/>
  </way>
  <way id="111978271" version="1" timestamp="2011-05-06T09:30:50Z" uid="7617" user="Franc" changeset="8063834">
    <nd ref="1274111975"/>
    <nd ref="1274111974"/>
    <nd ref="1274112023"/>
    <tag k="highway" v="primary"/>
    <tag k="maxspeed" v="60"/>
    <tag k="name" v="Gardeners Road"/>
    <tag k="oneway" v="yes"/>
  </way>
  <way id="111978272" version="1" timestamp="2011-05-06T09:30:50Z" uid="7617" user="Franc" changeset="8063834">
    <nd ref="1274112030"/>
    <nd ref="1274112059"/>
    <nd ref="1274112148"/>
    <nd ref="1274112069"/>
    <nd ref="247702671"/>
    <tag k="highway" v="primary_link"/>
    <tag k="oneway" v="yes"/>
  </way>
  <way id="111978273" version="1" timestamp="2011-05-06T09:30:50Z" uid="7617" user="Franc" changeset="8063834">
    <nd ref="1274111936"/>
    <nd ref="1274111958"/>
    <tag k="highway" v="service"/>
    <tag k="source" v="nearmap"/>
  </way>
  <way id="111978274" version="1" timestamp="2011-05-06T09:30:50Z" uid="7617" user="Franc" changeset="8063834">
    <nd ref="247702671"/>
    <nd ref="247702674"/>
    <nd ref="14754780"/>
    <tag k="highway" v="primary"/>
    <tag k="maxspeed" v="60"/>
    <tag k="name" v="Gardeners Road"/>
    <tag k="oneway" v="yes"/>
  </way>
  <way id="111978275" version="1" timestamp="2011-05-06T09:30:51Z" uid="7617" user="Franc" changeset="8063834">
    <nd ref="701870920"/>
    <nd ref="1274111885"/>
    <nd ref="30430096"/>
    <nd ref="14754784"/>
    <tag k="highway" v="primary"/>
    <tag k="maxspeed" v="60"/>
    <tag k="name" v="Ricketty Road"/>
    <tag k="oneway" v="yes"/>
  </way>
  <way id="111978276" version="1" timestamp="2011-05-06T09:30:51Z" uid="7617" user="Franc" changeset="8063834">
    <nd ref="1274112138"/>
    <nd ref="1274112193"/>
    <tag k="addr:interpolation" v="odd"/>
  </way>
  <way id="111978276" version="2" timestamp="2012-02-16T05:58:06Z" uid="7523" user="inas" changeset="10698901"/>
  <way id="111978277" version="1" timestamp="2011-05-06T09:30:51Z" uid="7617" user="Franc" changeset="8063834">
    <nd ref="29388345"/>
    <nd ref="1274112017"/>
    <nd ref="1274112095"/>
    <tag k="highway" v="primary"/>
    <tag k="maxspeed" v="60"/>
    <tag k="name" v="Gardeners Road"/>
    <tag k="oneway" v="yes"/>
  </way>
  <way id="111978279" version="1" timestamp="2011-05-06T09:30:51Z" uid="7617" user="Franc" changeset="8063834">
    <nd ref="1274111883"/>
    <nd ref="1274112119"/>
    <nd ref="1274112047"/>
    <nd ref="1274111978"/>
    <nd ref="1274111907"/>
    <nd ref="1274112085"/>
    <nd ref="1274112019"/>
    <nd ref="1274111947"/>
    <nd ref="1274112207"/>
    <nd ref="1274112188"/>
    <nd ref="1274112117"/>
    <tag k="highway" v="primary"/>
    <tag k="maxspeed" v="60"/>
    <tag k="name" v="Kent Road"/>
    <tag k="oneway" v="yes"/>
  </way>
  <way id="111978281" version="1" timestamp="2011-05-06T09:30:51Z" uid="7617" user="Franc" changeset="8063834">
    <nd ref="247702671"/>
    <nd ref="1274112164"/>
    <nd ref="1274112088"/>
    <nd ref="1274111890"/>
    <nd ref="1274111978"/>
    <tag k="highway" v="primary_link"/>
    <tag k="oneway" v="yes"/>
  </way>
  <way id="111978282" version="1" timestamp="2011-05-06T09:30:51Z" uid="7617" user="Franc" changeset="8063834">
    <nd ref="1274112095"/>
    <nd ref="600901125"/>
    <tag k="highway" v="primary"/>
    <tag k="maxspeed" v="60"/>
    <tag k="name" v="Gardeners Road"/>
  </way>
  <way id="111978282" version="2" timestamp="2011-08-01T05:35:11Z" uid="498843" user="RamiusX" changeset="8887279">
    <nd ref="1274112095"/>
    <nd ref="600901125"/>
    <tag k="highway" v="primary"/>
    <tag k="maxspeed" v="60"/>
    <tag k="name" v="Gardeners Road"/>
    <tag k="oneway" v="no"/>
  </way>
  <way id="111978283" version="1" timestamp="2011-05-06T09:30:52Z" uid="7617" user="Franc" changeset="8063834">
    <nd ref="1274112159"/>
    <nd ref="1159591725"/>
    <tag k="addr:interpolation" v="odd"/>
  </way>
  <way id="111978283" version="2" timestamp="2012-02-13T05:25:01Z" uid="7523" user="inas" changeset="10670291"/>
  <way id="111978284" version="1" timestamp="2011-05-06T09:30:52Z" uid="7617" user="Franc" changeset="8063834">
    <nd ref="1274111936"/>
    <nd ref="12054653"/>
    <tag k="highway" v="primary"/>
    <tag k="maxspeed" v="60"/>
    <tag k="name" v="Gardeners Road"/>
    <tag k="oneway" v="yes"/>
  </way>
  <way id="111978285" version="1" timestamp="2011-05-06T09:30:52Z" uid="7617" user="Franc" changeset="8063834">
    <nd ref="1274112106"/>
    <nd ref="1274112070"/>
    <nd ref="1274111898"/>
    <tag k="addr:interpolation" v="even"/>
  </way>
  <way id="111978285" version="2" timestamp="2012-02-16T05:58:06Z" uid="7523" user="inas" changeset="10698901"/>
  <way id="111978286" version="1" timestamp="2011-05-06T09:30:52Z" uid="7617" user="Franc" changeset="8063834">
    <nd ref="29388345"/>
    <nd ref="1274112132"/>
    <tag k="highway" v="unclassified"/>
    <tag k="name" v="Ellis Avenue"/>
    <tag k="source:name" v="survey"/>
  </way>
  <way id="111978287" version="1" timestamp="2011-05-06T09:30:52Z" uid="7617" user="Franc" changeset="8063834">
    <nd ref="1274112023"/>
    <nd ref="1274112200"/>
    <nd ref="1274112161"/>
    <nd ref="1274112030"/>
    <nd ref="1274111960"/>
    <nd ref="1274111889"/>
    <nd ref="1274112131"/>
    <nd ref="1274111883"/>
    <tag k="highway" v="primary"/>
    <tag k="maxspeed" v="60"/>
    <tag k="name" v="Gardeners Road"/>
    <tag k="oneway" v="yes"/>
  </way>
  <way id="111978288" version="1" timestamp="2011-05-06T09:30:52Z" uid="7617" user="Franc" changeset="8063834">
    <nd ref="1274111961"/>
    <nd ref="1274111998"/>
    <tag k="addr:interpolation" v="odd"/>
  </way>
  <way id="111978288" version="2" timestamp="2012-02-13T05:25:01Z" uid="7523" user="inas" changeset="10670291"/>
  <way id="111978289" version="1" timestamp="2011-05-06T09:30:52Z" uid="7617" user="Franc" changeset="8063834">
    <nd ref="1274111975"/>
    <nd ref="12054653"/>
    <tag k="highway" v="primary"/>
    <tag k="maxspeed" v="60"/>
    <tag k="name" v="O&apos;Riordan Street"/>
  </way>
  <way id="111978290" version="1" timestamp="2011-05-06T09:30:52Z" uid="7617" user="Franc" changeset="8063834">
    <nd ref="1274112023"/>
    <nd ref="193166272"/>
    <nd ref="714319025"/>
    <nd ref="15080314"/>
    <nd ref="1146696888"/>
    <tag k="highway" v="tertiary"/>
    <tag k="maxspeed" v="50"/>
    <tag k="name" v="Bourke Road"/>
  </way>
  <way id="111978291" version="1" timestamp="2011-05-06T09:30:53Z" uid="7617" user="Franc" changeset="8063834">
    <nd ref="1274111974"/>
    <nd ref="1274111936"/>
    <tag k="highway" v="service"/>
    <tag k="oneway" v="yes"/>
    <tag k="source" v="nearmap"/>
  </way>
  <way id="111978293" version="1" timestamp="2011-05-06T09:30:53Z" uid="7617" user="Franc" changeset="8063834">
    <nd ref="1274112132"/>
    <nd ref="1274111975"/>
    <tag k="highway" v="primary"/>
    <tag k="maxspeed" v="60"/>
    <tag k="name" v="Gardeners Road"/>
    <tag k="oneway" v="yes"/>
  </way>
</osm>
