<?xml version='1.0' encoding='UTF-8'?>
<osm version="0.6" generator="libosmium/2.20.0">
  <way id="112151631" version="1" timestamp="2011-05-07T09:42:59Z" uid="7617" user="Franc" changeset="8071928">
    <nd ref="1275649295"/>
    <nd ref="1275649304"/>
    <tag k="addr:interpolation" v="even"/>
  </way>
  <way id="112151631" version="2" timestamp="2012-03-07T05:23:54Z" uid="7523" user="inas" changeset="10896683"/>
  <way id="112151632" version="1" timestamp="2011-05-07T09:42:59Z" uid="7617" user="Franc" changeset="8071928">
    <nd ref="1275649288"/>
    <nd ref="1275649281"/>
    <nd ref="1275649292"/>
    <nd ref="1275649284"/>
    <nd ref="1275649296"/>
    <nd ref="1275649287"/>
    <nd ref="1275649300"/>
    <nd ref="1275649288"/>
    <tag k="amenity" v="parking"/>
    <tag k="parking" v="multi-storey"/>
  </way>
  <way id="112151632" version="2" timestamp="2012-03-22T00:20:36Z" uid="7523" user="inas" changeset="11058517"/>
  <way id="112151633" version="1" timestamp="2011-05-07T09:42:59Z" uid="7617" user="Franc" changeset="8071928">
    <nd ref="1127229922"/>
    <nd ref="17854058"/>
    <tag k="highway" v="secondary"/>
    <tag k="maxspeed" v="60"/>
    <tag k="name" v="West Botany Street"/>
  </way>
  <way id="112151633" version="2" timestamp="2012-03-22T00:20:35Z" uid="7523" user="inas" changeset="11058517"/>
  <way id="112151634" version="1" timestamp="2011-05-07T09:42:59Z" uid="7617" user="Franc" changeset="8071928">
    <nd ref="937424297"/>
    <nd ref="1275649301"/>
    <nd ref="38768048"/>
    <nd ref="32879064"/>
    <nd ref="31293192"/>
    <tag k="highway" v="residential"/>
    <tag k="maxspeed" v="50"/>
    <tag k="maxspeed:source" v="default residential speed limit in Australia"/>
    <tag k="name" v="Trafalgar Street"/>
  </way>
  <way id="112151635" version="1" timestamp="2011-05-07T09:43:00Z" uid="7617" user="Franc" changeset="8071928">
    <nd ref="1275649283"/>
    <nd ref="1275649306"/>
    <nd ref="1275649293"/>
    <nd ref="1275649303"/>
    <tag k="highway" v="footway"/>
    <tag k="source" v="nearmap"/>
  </way>
  <way id="112151636" version="1" timestamp="2011-05-07T09:43:00Z" uid="7617" user="Franc" changeset="8071928">
    <nd ref="1275649285"/>
    <nd ref="1275649297"/>
    <tag k="addr:interpolation" v="odd"/>
  </way>
  <way id="112151636" version="2" timestamp="2012-03-07T05:23:54Z" uid="7523" user="inas" changeset="10896683"/>
  <way id="112151637" version="1" timestamp="2011-05-07T09:43:00Z" uid="7617" user="Franc" changeset="8071928">
    <nd ref="17854058"/>
    <nd ref="29057591"/>
    <nd ref="1127229924"/>
    <nd ref="1127229930"/>
    <tag k="highway" v="trunk"/>
    <tag k="maxspeed" v="60"/>
    <tag k="name" v="President Avenue"/>
    <tag k="network" v="MR"/>
    <tag k="oneway" v="yes"/>
    <tag k="ref" v="1"/>
  </way>
  <way id="112151637" version="2" timestamp="2012-02-01T01:38:43Z" uid="54784" user="Tom Hollander" changeset="10555374">
    <nd ref="17854058"/>
    <nd ref="29057591"/>
    <nd ref="1127229924"/>
    <nd ref="1127229930"/>
    <tag k="highway" v="trunk"/>
    <tag k="maxspeed" v="60"/>
    <tag k="name" v="President Avenue"/>
    <tag k="network" v="MR"/>
    <tag k="oneway" v="yes"/>
    <tag k="ref" v="MR1"/>
  </way>
  <way id="112151637" version="3" timestamp="2012-02-02T08:04:33Z" uid="7523" user="inas" changeset="10565177">
    <nd ref="17854058"/>
    <nd ref="29057591"/>
    <nd ref="1127229924"/>
    <nd ref="1127229930"/>
    <tag k="highway" v="trunk"/>
    <tag k="maxspeed" v="60"/>
    <tag k="name" v="President Avenue"/>
    <tag k="network" v="MR"/>
    <tag k="oneway" v="yes"/>
    <tag k="ref" v="1"/>
  </way>
  <way id="112151637" version="4" timestamp="2012-03-20T04:23:52Z" uid="7523" user="inas" changeset="11037300"/>
  <way id="112151638" version="1" timestamp="2011-05-07T09:43:00Z" uid="7617" user="Franc" changeset="8071928">
    <nd ref="1266920281"/>
    <nd ref="1275649289"/>
    <tag k="addr:interpolation" v="even"/>
  </way>
  <way id="112151638" version="2" timestamp="2012-03-07T05:23:54Z" uid="7523" user="inas" changeset="10896683"/>
  <way id="112151639" version="1" timestamp="2011-05-07T09:43:00Z" uid="7617" user="Franc" changeset="8071928">
    <nd ref="1127229922"/>
    <nd ref="1127229931"/>
    <nd ref="1127229928"/>
    <nd ref="1127229923"/>
    <tag k="highway" v="trunk"/>
    <tag k="maxspeed" v="60"/>
    <tag k="name" v="President Avenue"/>
    <tag k="network" v="MR"/>
    <tag k="oneway" v="yes"/>
    <tag k="ref" v="1"/>
  </way>
  <way id="112151639" version="2" timestamp="2011-07-30T22:29:37Z" uid="20949" user="Ebenezer" changeset="8876574">
    <nd ref="1127229922"/>
    <nd ref="1127229931"/>
    <nd ref="1379408423"/>
    <nd ref="1127229928"/>
    <nd ref="1127229923"/>
    <tag k="highway" v="trunk"/>
    <tag k="maxspeed" v="60"/>
    <tag k="name" v="President Avenue"/>
    <tag k="network" v="MR"/>
    <tag k="oneway" v="yes"/>
    <tag k="ref" v="1"/>
  </way>
  <way id="112151639" version="3" timestamp="2012-02-01T01:38:43Z" uid="54784" user="Tom Hollander" changeset="10555374">
    <nd ref="1127229922"/>
    <nd ref="1127229931"/>
    <nd ref="1379408423"/>
    <nd ref="1127229928"/>
    <nd ref="1127229923"/>
    <tag k="highway" v="trunk"/>
    <tag k="maxspeed" v="60"/>
    <tag k="name" v="President Avenue"/>
    <tag k="network" v="MR"/>
    <tag k="oneway" v="yes"/>
    <tag k="ref" v="MR1"/>
  </way>
  <way id="112151639" version="4" timestamp="2012-02-02T09:14:14Z" uid="7523" user="inas" changeset="10565546">
    <nd ref="1127229922"/>
    <nd ref="1127229931"/>
    <nd ref="1379408423"/>
    <nd ref="1127229928"/>
    <nd ref="1127229923"/>
    <tag k="highway" v="trunk"/>
    <tag k="maxspeed" v="60"/>
    <tag k="name" v="President Avenue"/>
    <tag k="network" v="MR"/>
    <tag k="oneway" v="yes"/>
    <tag k="ref" v="1"/>
  </way>
  <way id="112151639" version="5" timestamp="2012-03-20T04:23:52Z" uid="7523" user="inas" changeset="11037300"/>
  <way id="112151640" version="1" timestamp="2011-05-07T09:43:00Z" uid="7617" user="Franc" changeset="8071928">
    <nd ref="725201850"/>
    <nd ref="1275649290"/>
    <nd ref="1275649282"/>
    <nd ref="725201836"/>
    <nd ref="725201850"/>
    <tag k="landuse" v="industrial"/>
    <tag k="source" v="nearmap"/>
  </way>
  <way id="112151640" version="2" timestamp="2012-03-07T22:51:49Z" uid="7523" user="inas" changeset="10904797"/>
</osm>
