<?xml version='1.0' encoding='UTF-8'?>
<osm version="0.6" generator="libosmium/2.20.0">
  <way id="11217063" version="1" timestamp="2007-11-06T06:37:50Z" uid="7617" user="Franc" changeset="418528">
    <nd ref="99715181"/>
    <nd ref="99715179"/>
    <nd ref="99715184"/>
    <nd ref="99715164"/>
    <nd ref="99715189"/>
    <tag k="created_by" v="JOSM"/>
    <tag k="name" v="Macdonald Crescent"/>
    <tag k="source" v="survey"/>
  </way>
  <way id="11217063" version="2" timestamp="2007-11-06T06:37:59Z" uid="7617" user="Franc" changeset="418528">
    <nd ref="99715181"/>
    <nd ref="99715179"/>
    <nd ref="99715184"/>
    <nd ref="99715164"/>
    <nd ref="99715189"/>
    <tag k="created_by" v="JOSM"/>
    <tag k="highway" v="residential"/>
    <tag k="name" v="Macdonald Crescent"/>
    <tag k="source" v="survey"/>
  </way>
  <way id="11217063" version="3" timestamp="2010-07-08T02:10:52Z" uid="74617" user="JohnSmith" changeset="5162525">
    <nd ref="99715181"/>
    <nd ref="99715179"/>
    <nd ref="99715184"/>
    <nd ref="99715164"/>
    <nd ref="99715189"/>
    <tag k="highway" v="residential"/>
    <tag k="maxspeed" v="50"/>
    <tag k="maxspeed:source" v="default residential speed limit in Australia"/>
    <tag k="name" v="Macdonald Crescent"/>
    <tag k="source" v="survey"/>
  </way>
  <way id="11217063" version="4" timestamp="2010-11-14T06:38:22Z" uid="7617" user="Franc" changeset="6363993"/>
  <way id="11217066" version="1" timestamp="2007-11-06T06:37:51Z" uid="7617" user="Franc" changeset="418528">
    <nd ref="99715189"/>
    <nd ref="99715167"/>
    <nd ref="99715190"/>
    <nd ref="99715170"/>
    <nd ref="99715179"/>
    <tag k="created_by" v="JOSM"/>
    <tag k="name" v="Macdonald Crescent"/>
    <tag k="source" v="survey"/>
  </way>
  <way id="11217066" version="2" timestamp="2007-11-06T06:38:00Z" uid="7617" user="Franc" changeset="418528">
    <nd ref="99715189"/>
    <nd ref="99715167"/>
    <nd ref="99715190"/>
    <nd ref="99715170"/>
    <nd ref="99715179"/>
    <tag k="created_by" v="JOSM"/>
    <tag k="highway" v="residential"/>
    <tag k="name" v="Macdonald Crescent"/>
    <tag k="source" v="survey"/>
  </way>
  <way id="11217066" version="3" timestamp="2010-07-08T02:12:38Z" uid="74617" user="JohnSmith" changeset="5162525">
    <nd ref="99715189"/>
    <nd ref="99715167"/>
    <nd ref="99715190"/>
    <nd ref="99715170"/>
    <nd ref="99715179"/>
    <tag k="highway" v="residential"/>
    <tag k="maxspeed" v="50"/>
    <tag k="maxspeed:source" v="default residential speed limit in Australia"/>
    <tag k="name" v="Macdonald Crescent"/>
    <tag k="source" v="survey"/>
  </way>
  <way id="11217066" version="4" timestamp="2010-11-14T06:37:18Z" uid="7617" user="Franc" changeset="6363993">
    <nd ref="99715181"/>
    <nd ref="99715179"/>
    <nd ref="99715184"/>
    <nd ref="988537962"/>
    <nd ref="99715164"/>
    <nd ref="99715189"/>
    <nd ref="988537431"/>
    <nd ref="99715167"/>
    <nd ref="99715190"/>
    <nd ref="988537780"/>
    <nd ref="99715170"/>
    <nd ref="99715179"/>
    <tag k="highway" v="residential"/>
    <tag k="maxspeed" v="50"/>
    <tag k="maxspeed:source" v="default residential speed limit in Australia"/>
    <tag k="name" v="Macdonald Crescent"/>
    <tag k="source" v="survey"/>
  </way>
  <way id="11217066" version="5" timestamp="2012-01-15T10:38:27Z" uid="147510" user="woodpeck_fixbot" changeset="10395278">
    <nd ref="99715181"/>
    <nd ref="99715179"/>
    <nd ref="99715184"/>
    <nd ref="988537962"/>
    <nd ref="99715164"/>
    <nd ref="99715189"/>
    <nd ref="988537431"/>
    <nd ref="99715167"/>
    <nd ref="99715190"/>
    <nd ref="988537780"/>
    <nd ref="99715170"/>
    <nd ref="99715179"/>
    <tag k="highway" v="residential"/>
    <tag k="name" v="Macdonald Crescent"/>
    <tag k="source" v="survey"/>
  </way>
  <way id="11217893" version="1" timestamp="2007-11-06T06:41:49Z" uid="7617" user="Franc" changeset="418528">
    <nd ref="26638243"/>
    <nd ref="99717319"/>
    <nd ref="99717318"/>
    <nd ref="30430779"/>
    <tag k="created_by" v="JOSM"/>
    <tag k="highway" v="residential"/>
    <tag k="source" v="Yahoo Imagery"/>
  </way>
  <way id="11217893" version="2" timestamp="2008-01-21T11:13:58Z" uid="7617" user="Franc" changeset="677964">
    <nd ref="26638243"/>
    <nd ref="99717319"/>
    <nd ref="99717318"/>
    <nd ref="30430779"/>
    <tag k="created_by" v="JOSM"/>
    <tag k="highway" v="residential"/>
    <tag k="name" v="Barnsbury Grove"/>
    <tag k="source" v="Yahoo Imagery"/>
    <tag k="source:name" v="survey"/>
  </way>
  <way id="11217893" version="3" timestamp="2010-02-06T07:18:25Z" uid="20949" user="Ebenezer" changeset="3802951">
    <nd ref="26638243"/>
    <nd ref="99717319"/>
    <nd ref="99717318"/>
    <nd ref="30430779"/>
    <tag k="highway" v="residential"/>
    <tag k="lcn" v="yes"/>
    <tag k="name" v="Barnsbury Grove"/>
    <tag k="source" v="Yahoo Imagery"/>
    <tag k="source:name" v="survey"/>
  </way>
  <way id="11217893" version="4" timestamp="2010-02-15T20:54:09Z" uid="20949" user="Ebenezer" changeset="3886830">
    <nd ref="26638243"/>
    <nd ref="99717319"/>
    <nd ref="99717318"/>
    <nd ref="30430779"/>
    <tag k="highway" v="residential"/>
    <tag k="name" v="Barnsbury Grove"/>
    <tag k="source" v="Yahoo Imagery"/>
    <tag k="source:name" v="survey"/>
  </way>
  <way id="11217893" version="5" timestamp="2010-07-08T02:10:25Z" uid="74617" user="JohnSmith" changeset="5162525">
    <nd ref="26638243"/>
    <nd ref="99717319"/>
    <nd ref="99717318"/>
    <nd ref="30430779"/>
    <tag k="highway" v="residential"/>
    <tag k="maxspeed" v="50"/>
    <tag k="maxspeed:source" v="default residential speed limit in Australia"/>
    <tag k="name" v="Barnsbury Grove"/>
    <tag k="source" v="Yahoo Imagery"/>
    <tag k="source:name" v="survey"/>
  </way>
  <way id="11217893" version="6" timestamp="2012-01-15T10:38:29Z" uid="147510" user="woodpeck_fixbot" changeset="10395278">
    <nd ref="26638243"/>
    <nd ref="99717319"/>
    <nd ref="99717318"/>
    <nd ref="30430779"/>
    <tag k="highway" v="residential"/>
    <tag k="name" v="Barnsbury Grove"/>
    <tag k="source" v="Yahoo Imagery"/>
    <tag k="source:name" v="survey"/>
  </way>
  <way id="11217895" version="1" timestamp="2007-11-06T06:41:50Z" uid="7617" user="Franc" changeset="418528">
    <nd ref="99717319"/>
    <nd ref="99717327"/>
    <tag k="created_by" v="JOSM"/>
    <tag k="highway" v="residential"/>
    <tag k="name" v="Midleton Avenue"/>
    <tag k="source" v="survey"/>
  </way>
  <way id="11217895" version="2" timestamp="2010-07-08T02:11:23Z" uid="74617" user="JohnSmith" changeset="5162525">
    <nd ref="99717319"/>
    <nd ref="99717327"/>
    <tag k="highway" v="residential"/>
    <tag k="maxspeed" v="50"/>
    <tag k="maxspeed:source" v="default residential speed limit in Australia"/>
    <tag k="name" v="Midleton Avenue"/>
    <tag k="source" v="survey"/>
  </way>
  <way id="11217895" version="3" timestamp="2012-01-15T10:38:30Z" uid="147510" user="woodpeck_fixbot" changeset="10395278">
    <nd ref="99717319"/>
    <nd ref="99717327"/>
    <tag k="highway" v="residential"/>
    <tag k="name" v="Midleton Avenue"/>
    <tag k="source" v="survey"/>
  </way>
  <way id="11217896" version="1" timestamp="2007-11-06T06:41:50Z" uid="7617" user="Franc" changeset="418528">
    <nd ref="99717343"/>
    <nd ref="99717414"/>
    <nd ref="99717407"/>
    <nd ref="99717400"/>
    <nd ref="99717394"/>
    <nd ref="99717381"/>
    <nd ref="99717389"/>
    <nd ref="99717353"/>
    <nd ref="99717363"/>
    <nd ref="99717343"/>
    <tag k="created_by" v="JOSM"/>
    <tag k="layer" v="-1"/>
    <tag k="leisure" v="park"/>
    <tag k="source" v="Yahoo Imagery"/>
  </way>
  <way id="11217896" version="2" timestamp="2008-07-12T13:07:06Z" uid="7617" user="Franc" changeset="468309">
    <nd ref="99717343"/>
    <nd ref="99717414"/>
    <nd ref="99717407"/>
    <nd ref="99717400"/>
    <nd ref="99717394"/>
    <nd ref="99717381"/>
    <nd ref="99717389"/>
    <nd ref="99717353"/>
    <nd ref="99717363"/>
    <nd ref="99717343"/>
    <tag k="created_by" v="JOSM"/>
    <tag k="leisure" v="park"/>
    <tag k="name" v="Whitbread Park"/>
    <tag k="source" v="Yahoo Imagery"/>
    <tag k="source:name" v="survey"/>
  </way>
  <way id="11217896" version="3" timestamp="2010-04-03T12:58:53Z" uid="7617" user="Franc" changeset="4312733">
    <nd ref="99717389"/>
    <nd ref="683229413"/>
    <nd ref="99717353"/>
    <nd ref="99717363"/>
    <nd ref="99717389"/>
    <tag k="leisure" v="park"/>
    <tag k="name" v="Whitbread Park"/>
    <tag k="source" v="nearmap"/>
    <tag k="source:name" v="survey"/>
  </way>
  <way id="11217896" version="4" timestamp="2012-02-15T05:56:13Z" uid="7523" user="inas" changeset="10689409"/>
  <way id="11217909" version="13" timestamp="2010-07-10T08:22:58Z" uid="4467" user="Rosscoe" changeset="5180267">
    <nd ref="99714346"/>
    <nd ref="625582511"/>
    <nd ref="270092292"/>
    <nd ref="99717302"/>
    <nd ref="99717317"/>
    <nd ref="99717366"/>
    <nd ref="99717391"/>
    <nd ref="99717431"/>
    <nd ref="99717446"/>
    <nd ref="99717450"/>
    <nd ref="99717461"/>
    <nd ref="99717470"/>
    <nd ref="99717506"/>
    <nd ref="99717525"/>
    <nd ref="99717534"/>
    <nd ref="99717545"/>
    <nd ref="30036187"/>
    <tag k="highway" v="trunk"/>
    <tag k="is_in" v="West Hindmarsh,South Australia,Australia"/>
    <tag k="maxspeed" v="60"/>
    <tag k="name" v="South Road"/>
    <tag k="oneway" v="yes"/>
    <tag k="postal_code" v="5007"/>
    <tag k="ref" v="A13"/>
    <tag k="source" v="survey"/>
  </way>
  <way id="11217909" version="14" timestamp="2011-08-02T12:00:01Z" uid="428465" user="markinspace" changeset="8900166">
    <nd ref="99714346"/>
    <nd ref="625582511"/>
    <nd ref="270092292"/>
    <nd ref="99717302"/>
    <nd ref="99717317"/>
    <nd ref="99717366"/>
    <nd ref="99717391"/>
    <nd ref="99717431"/>
    <nd ref="99717446"/>
    <nd ref="99717450"/>
    <nd ref="99717461"/>
    <nd ref="99717470"/>
    <nd ref="99717506"/>
    <nd ref="99717525"/>
    <nd ref="99717534"/>
    <nd ref="99717545"/>
    <nd ref="30036187"/>
    <tag k="highway" v="trunk"/>
    <tag k="is_in" v="West Hindmarsh,South Australia,Australia"/>
    <tag k="lanes" v="2"/>
    <tag k="maxspeed" v="60"/>
    <tag k="name" v="South Road"/>
    <tag k="oneway" v="yes"/>
    <tag k="postal_code" v="5007"/>
    <tag k="ref" v="A13"/>
    <tag k="source" v="survey"/>
  </way>
  <way id="11217989" version="9" timestamp="2010-07-08T19:56:23Z" uid="74617" user="JohnSmith" changeset="5168688">
    <nd ref="99717917"/>
    <nd ref="99717920"/>
    <nd ref="255027428"/>
    <nd ref="131184497"/>
    <nd ref="255328046"/>
    <nd ref="255328076"/>
    <nd ref="255328075"/>
    <nd ref="99717927"/>
    <tag k="highway" v="residential"/>
    <tag k="maxspeed" v="50"/>
    <tag k="maxspeed:source" v="default residential speed limit in Australia"/>
    <tag k="name" v="Hallam North Road"/>
  </way>
  <way id="11217989" version="10" timestamp="2010-09-05T06:33:24Z" uid="201443" user="stevage" changeset="5684592">
    <nd ref="99717917"/>
    <nd ref="896777871"/>
    <nd ref="99717920"/>
    <nd ref="255027428"/>
    <nd ref="131184497"/>
    <nd ref="255328046"/>
    <nd ref="255328076"/>
    <nd ref="255328075"/>
    <nd ref="99717927"/>
    <tag k="highway" v="residential"/>
    <tag k="maxspeed" v="50"/>
    <tag k="maxspeed:source" v="default residential speed limit in Australia"/>
    <tag k="name" v="Hallam North Road"/>
  </way>
  <way id="11217989" version="11" timestamp="2010-09-05T06:34:28Z" uid="201443" user="stevage" changeset="5684592">
    <nd ref="99717917"/>
    <nd ref="896777909"/>
    <nd ref="896777871"/>
    <nd ref="99717920"/>
    <nd ref="255027428"/>
    <nd ref="131184497"/>
    <nd ref="896777910"/>
    <nd ref="255328046"/>
    <nd ref="255328076"/>
    <nd ref="255328075"/>
    <nd ref="99717927"/>
    <tag k="highway" v="residential"/>
    <tag k="maxspeed" v="50"/>
    <tag k="maxspeed:source" v="default residential speed limit in Australia"/>
    <tag k="name" v="Hallam North Road"/>
  </way>
  <way id="11217989" version="12" timestamp="2012-01-15T10:38:32Z" uid="147510" user="woodpeck_fixbot" changeset="10395278">
    <nd ref="99717917"/>
    <nd ref="896777909"/>
    <nd ref="896777871"/>
    <nd ref="99717920"/>
    <nd ref="255027428"/>
    <nd ref="131184497"/>
    <nd ref="896777910"/>
    <nd ref="255328046"/>
    <nd ref="255328076"/>
    <nd ref="255328075"/>
    <nd ref="99717927"/>
    <tag k="highway" v="residential"/>
    <tag k="name" v="Hallam North Road"/>
  </way>
  <way id="11217989" version="13" timestamp="2012-02-16T04:25:29Z" uid="11111" user="melb_guy" changeset="10698466">
    <nd ref="99717917"/>
    <nd ref="896777909"/>
    <nd ref="1634821416"/>
    <nd ref="1634821367"/>
    <nd ref="896777871"/>
    <nd ref="99717920"/>
    <nd ref="255027428"/>
    <nd ref="131184497"/>
    <nd ref="896777910"/>
    <nd ref="255328046"/>
    <nd ref="255328076"/>
    <nd ref="255328075"/>
    <nd ref="99717927"/>
    <tag k="highway" v="residential"/>
    <tag k="lanes" v="2"/>
    <tag k="maxspeed" v="60"/>
    <tag k="name" v="Hallam North Road"/>
    <tag k="surface" v="asphalt"/>
  </way>
</osm>
