<?xml version='1.0' encoding='UTF-8'?>
<osm version="0.6" generator="libosmium/2.20.0">
  <way id="11219273" version="4" timestamp="2009-10-22T21:42:30Z" uid="36809" user="pfoten_weg_!_" changeset="2925750">
    <nd ref="99725690"/>
    <nd ref="99725691"/>
    <nd ref="99725693"/>
    <nd ref="99725698"/>
    <nd ref="99725675"/>
    <tag k="highway" v="residential"/>
    <tag k="maxspeed" v="30"/>
    <tag k="name" v="Millöckerweg"/>
  </way>
  <way id="11219273" version="5" timestamp="2011-07-17T15:37:56Z" uid="42393" user="mawi42" changeset="8748958">
    <nd ref="99725690"/>
    <nd ref="1364636256"/>
    <nd ref="99725691"/>
    <nd ref="99725693"/>
    <nd ref="1364636033"/>
    <nd ref="99725698"/>
    <nd ref="99725675"/>
    <tag k="highway" v="residential"/>
    <tag k="maxspeed" v="30"/>
    <tag k="name" v="Millöckerweg"/>
  </way>
  <way id="11219275" version="5" timestamp="2009-10-20T14:23:02Z" uid="36809" user="pfoten_weg_!_" changeset="2903434">
    <nd ref="99725701"/>
    <nd ref="99725705"/>
    <nd ref="99725708"/>
    <nd ref="370882661"/>
    <nd ref="99725710"/>
    <nd ref="99725711"/>
    <tag k="highway" v="residential"/>
    <tag k="maxspeed" v="30"/>
    <tag k="name" v="Mozartweg"/>
    <tag k="source" v="survey"/>
  </way>
  <way id="11219275" version="6" timestamp="2009-10-22T21:41:25Z" uid="36809" user="pfoten_weg_!_" changeset="2925750">
    <nd ref="99725701"/>
    <nd ref="99725705"/>
    <nd ref="99725708"/>
    <nd ref="370882661"/>
    <nd ref="99725710"/>
    <nd ref="99725711"/>
    <tag k="highway" v="residential"/>
    <tag k="maxspeed" v="30"/>
    <tag k="name" v="Mozartweg"/>
  </way>
  <way id="11219275" version="7" timestamp="2011-07-01T15:08:07Z" uid="478790" user="Roland Brandl" changeset="8600358">
    <nd ref="99725701"/>
    <nd ref="99725705"/>
    <nd ref="99725708"/>
    <nd ref="370882661"/>
    <nd ref="1345857819"/>
    <nd ref="99725710"/>
    <nd ref="99725711"/>
    <tag k="highway" v="residential"/>
    <tag k="maxspeed" v="30"/>
    <tag k="name" v="Mozartweg"/>
  </way>
</osm>
