<?xml version='1.0' encoding='UTF-8'?>
<osm version="0.6" generator="libosmium/2.20.0">
  <way id="112431991" version="1" timestamp="2011-05-09T02:52:01Z" uid="4467" user="Rosscoe" changeset="8089228">
    <nd ref="1277886505"/>
    <nd ref="89707251"/>
    <tag k="bridge" v="yes"/>
    <tag k="highway" v="primary"/>
    <tag k="layer" v="1"/>
    <tag k="name" v="Horse Park Drive"/>
    <tag k="source" v="nearmap"/>
  </way>
  <way id="112431992" version="1" timestamp="2011-05-09T02:52:02Z" uid="4467" user="Rosscoe" changeset="8089228">
    <nd ref="615049296"/>
    <nd ref="1277886367"/>
    <nd ref="614515024"/>
    <tag k="highway" v="tertiary"/>
    <tag k="name" v="Overall Avenue"/>
    <tag k="oneway" v="yes"/>
  </way>
  <way id="112431993" version="1" timestamp="2011-05-09T02:52:02Z" uid="4467" user="Rosscoe" changeset="8089228">
    <nd ref="1277886327"/>
    <nd ref="1277886344"/>
    <nd ref="1277886420"/>
    <nd ref="1275558278"/>
    <tag k="highway" v="residential"/>
    <tag k="oneway" v="yes"/>
    <tag k="source" v="nearmap"/>
  </way>
  <way id="112431993" version="2" timestamp="2012-01-24T20:59:10Z" uid="12434" user="nm7s9" changeset="10488515"/>
  <way id="112431994" version="1" timestamp="2011-05-09T02:52:02Z" uid="4467" user="Rosscoe" changeset="8089228">
    <nd ref="1277886362"/>
    <nd ref="660445300"/>
    <tag k="bridge" v="yes"/>
    <tag k="bridge_number" v="1211"/>
    <tag k="highway" v="tertiary"/>
    <tag k="layer" v="1"/>
    <tag k="name" v="Kelleway Avenue"/>
    <tag k="oneway" v="yes"/>
  </way>
  <way id="112431995" version="1" timestamp="2011-05-09T02:52:02Z" uid="4467" user="Rosscoe" changeset="8089228">
    <nd ref="1277886296"/>
    <nd ref="89707471"/>
    <tag k="highway" v="primary"/>
    <tag k="name" v="Horse Park Drive"/>
  </way>
  <way id="112431997" version="1" timestamp="2011-05-09T02:52:02Z" uid="4467" user="Rosscoe" changeset="8089228">
    <nd ref="614515031"/>
    <nd ref="157211308"/>
    <tag k="highway" v="tertiary"/>
    <tag k="name" v="Overall Avenue"/>
    <tag k="oneway" v="yes"/>
    <tag k="source" v="survey"/>
  </way>
  <way id="112431997" version="2" timestamp="2011-05-24T00:13:47Z" uid="4467" user="Rosscoe" changeset="8231440">
    <nd ref="614515031"/>
    <nd ref="1297879435"/>
    <nd ref="157211308"/>
    <tag k="highway" v="tertiary"/>
    <tag k="name" v="Overall Avenue"/>
    <tag k="oneway" v="yes"/>
    <tag k="source" v="survey"/>
  </way>
  <way id="112431998" version="1" timestamp="2011-05-09T02:52:02Z" uid="4467" user="Rosscoe" changeset="8089228">
    <nd ref="1277886411"/>
    <nd ref="1277886296"/>
    <tag k="bridge" v="yes"/>
    <tag k="highway" v="primary"/>
    <tag k="layer" v="1"/>
    <tag k="name" v="Horse Park Drive"/>
  </way>
</osm>
