<?xml version='1.0' encoding='UTF-8'?>
<osm version="0.6" generator="libosmium/2.20.0">
  <way id="11249023" version="3" timestamp="2010-07-09T05:15:41Z" uid="74617" user="JohnSmith" changeset="5170986">
    <nd ref="99927945"/>
    <nd ref="99928280"/>
    <nd ref="99928281"/>
    <nd ref="99928282"/>
    <tag k="highway" v="residential"/>
    <tag k="maxspeed" v="50"/>
    <tag k="maxspeed:source" v="default residential speed limit in Australia"/>
    <tag k="name" v="Phoenix Court"/>
  </way>
  <way id="11249023" version="4" timestamp="2010-07-09T05:21:43Z" uid="74617" user="JohnSmith" changeset="5170972">
    <nd ref="99927945"/>
    <nd ref="99928280"/>
    <nd ref="99928281"/>
    <nd ref="99928282"/>
    <tag k="highway" v="residential"/>
    <tag k="maxspeed" v="50"/>
    <tag k="maxspeed:source" v="default residential speed limit in Australia"/>
    <tag k="name" v="Phoenix Court"/>
  </way>
  <way id="11249023" version="5" timestamp="2012-01-15T10:39:02Z" uid="147510" user="woodpeck_fixbot" changeset="10395278">
    <nd ref="99927945"/>
    <nd ref="99928280"/>
    <nd ref="99928281"/>
    <nd ref="99928282"/>
    <tag k="highway" v="residential"/>
    <tag k="name" v="Phoenix Court"/>
  </way>
  <way id="11249050" version="3" timestamp="2010-07-09T05:13:34Z" uid="74617" user="JohnSmith" changeset="5170986">
    <nd ref="99928365"/>
    <nd ref="99928608"/>
    <nd ref="99928610"/>
    <nd ref="99928611"/>
    <tag k="highway" v="residential"/>
    <tag k="maxspeed" v="50"/>
    <tag k="maxspeed:source" v="default residential speed limit in Australia"/>
    <tag k="name" v="Apollo Court"/>
  </way>
  <way id="11249050" version="4" timestamp="2010-07-09T05:22:35Z" uid="74617" user="JohnSmith" changeset="5170972">
    <nd ref="99928365"/>
    <nd ref="99928608"/>
    <nd ref="99928610"/>
    <nd ref="99928611"/>
    <tag k="highway" v="residential"/>
    <tag k="maxspeed" v="50"/>
    <tag k="maxspeed:source" v="default residential speed limit in Australia"/>
    <tag k="name" v="Apollo Court"/>
  </way>
  <way id="11249050" version="5" timestamp="2012-01-15T10:39:03Z" uid="147510" user="woodpeck_fixbot" changeset="10395278">
    <nd ref="99928365"/>
    <nd ref="99928608"/>
    <nd ref="99928610"/>
    <nd ref="99928611"/>
    <tag k="highway" v="residential"/>
    <tag k="name" v="Apollo Court"/>
  </way>
  <way id="11249077" version="3" timestamp="2010-07-09T05:03:27Z" uid="74617" user="JohnSmith" changeset="5170986">
    <nd ref="99928647"/>
    <nd ref="99928837"/>
    <tag k="highway" v="residential"/>
    <tag k="maxspeed" v="50"/>
    <tag k="maxspeed:source" v="default residential speed limit in Australia"/>
    <tag k="name" v="Taurus Road"/>
  </way>
  <way id="11249077" version="4" timestamp="2012-01-15T10:39:04Z" uid="147510" user="woodpeck_fixbot" changeset="10395278">
    <nd ref="99928647"/>
    <nd ref="99928837"/>
    <tag k="highway" v="residential"/>
    <tag k="name" v="Taurus Road"/>
  </way>
  <way id="11249311" version="4" timestamp="2010-07-09T05:19:32Z" uid="74617" user="JohnSmith" changeset="5170986">
    <nd ref="99930327"/>
    <nd ref="99930838"/>
    <nd ref="99930520"/>
    <tag k="highway" v="residential"/>
    <tag k="maxspeed" v="50"/>
    <tag k="maxspeed:source" v="default residential speed limit in Australia"/>
    <tag k="name" v="Capricorn Avenue"/>
  </way>
  <way id="11249311" version="5" timestamp="2010-07-09T05:21:54Z" uid="74617" user="JohnSmith" changeset="5170972">
    <nd ref="99930327"/>
    <nd ref="99930838"/>
    <nd ref="99930520"/>
    <tag k="highway" v="residential"/>
    <tag k="maxspeed" v="50"/>
    <tag k="maxspeed:source" v="default residential speed limit in Australia"/>
    <tag k="name" v="Capricorn Avenue"/>
  </way>
  <way id="11249311" version="6" timestamp="2012-01-15T10:39:05Z" uid="147510" user="woodpeck_fixbot" changeset="10395278">
    <nd ref="99930327"/>
    <nd ref="99930838"/>
    <nd ref="99930520"/>
    <tag k="highway" v="residential"/>
    <tag k="name" v="Capricorn Avenue"/>
  </way>
  <way id="11249344" version="3" timestamp="2010-07-09T05:02:50Z" uid="74617" user="JohnSmith" changeset="5170986">
    <nd ref="99930568"/>
    <nd ref="99930820"/>
    <nd ref="99930821"/>
    <nd ref="99930297"/>
    <tag k="highway" v="residential"/>
    <tag k="maxspeed" v="50"/>
    <tag k="maxspeed:source" v="default residential speed limit in Australia"/>
    <tag k="name" v="Centaur Grove"/>
  </way>
  <way id="11249344" version="4" timestamp="2012-01-15T10:39:07Z" uid="147510" user="woodpeck_fixbot" changeset="10395278">
    <nd ref="99930568"/>
    <nd ref="99930820"/>
    <nd ref="99930821"/>
    <nd ref="99930297"/>
    <tag k="highway" v="residential"/>
    <tag k="name" v="Centaur Grove"/>
  </way>
  <way id="11249373" version="3" timestamp="2010-07-09T05:18:29Z" uid="74617" user="JohnSmith" changeset="5170986">
    <nd ref="99930838"/>
    <nd ref="99931171"/>
    <nd ref="99931172"/>
    <nd ref="99931173"/>
    <nd ref="99931174"/>
    <tag k="highway" v="residential"/>
    <tag k="maxspeed" v="50"/>
    <tag k="maxspeed:source" v="default residential speed limit in Australia"/>
    <tag k="name" v="Gemini Close"/>
  </way>
  <way id="11249373" version="4" timestamp="2010-07-09T05:22:11Z" uid="74617" user="JohnSmith" changeset="5170972">
    <nd ref="99930838"/>
    <nd ref="99931171"/>
    <nd ref="99931172"/>
    <nd ref="99931173"/>
    <nd ref="99931174"/>
    <tag k="highway" v="residential"/>
    <tag k="maxspeed" v="50"/>
    <tag k="maxspeed:source" v="default residential speed limit in Australia"/>
    <tag k="name" v="Gemini Close"/>
  </way>
  <way id="11249373" version="5" timestamp="2012-01-15T10:39:09Z" uid="147510" user="woodpeck_fixbot" changeset="10395278">
    <nd ref="99930838"/>
    <nd ref="99931171"/>
    <nd ref="99931172"/>
    <nd ref="99931173"/>
    <nd ref="99931174"/>
    <tag k="highway" v="residential"/>
    <tag k="name" v="Gemini Close"/>
  </way>
  <way id="11249393" version="3" timestamp="2010-07-09T05:04:33Z" uid="74617" user="JohnSmith" changeset="5170986">
    <nd ref="99931186"/>
    <nd ref="99931333"/>
    <tag k="highway" v="residential"/>
    <tag k="maxspeed" v="50"/>
    <tag k="maxspeed:source" v="default residential speed limit in Australia"/>
    <tag k="name" v="Corona Court"/>
  </way>
  <way id="11249393" version="4" timestamp="2012-01-15T10:39:10Z" uid="147510" user="woodpeck_fixbot" changeset="10395278">
    <nd ref="99931186"/>
    <nd ref="99931333"/>
    <tag k="highway" v="residential"/>
    <tag k="name" v="Corona Court"/>
  </way>
  <way id="11249413" version="3" timestamp="2010-07-09T05:06:30Z" uid="74617" user="JohnSmith" changeset="5170986">
    <nd ref="99931186"/>
    <nd ref="99931542"/>
    <nd ref="99931543"/>
    <tag k="highway" v="residential"/>
    <tag k="maxspeed" v="50"/>
    <tag k="maxspeed:source" v="default residential speed limit in Australia"/>
    <tag k="name" v="Capella Place"/>
  </way>
  <way id="11249413" version="4" timestamp="2012-01-15T10:39:11Z" uid="147510" user="woodpeck_fixbot" changeset="10395278">
    <nd ref="99931186"/>
    <nd ref="99931542"/>
    <nd ref="99931543"/>
    <tag k="highway" v="residential"/>
    <tag k="name" v="Capella Place"/>
  </way>
  <way id="11249479" version="3" timestamp="2010-07-09T05:06:47Z" uid="74617" user="JohnSmith" changeset="5170986">
    <nd ref="99931573"/>
    <nd ref="99931956"/>
    <nd ref="99931957"/>
    <nd ref="99931958"/>
    <tag k="highway" v="residential"/>
    <tag k="maxspeed" v="50"/>
    <tag k="maxspeed:source" v="default residential speed limit in Australia"/>
    <tag k="name" v="Saturn Terrace"/>
  </way>
  <way id="11249479" version="4" timestamp="2012-01-15T10:39:13Z" uid="147510" user="woodpeck_fixbot" changeset="10395278">
    <nd ref="99931573"/>
    <nd ref="99931956"/>
    <nd ref="99931957"/>
    <nd ref="99931958"/>
    <tag k="highway" v="residential"/>
    <tag k="name" v="Saturn Terrace"/>
  </way>
  <way id="11249520" version="3" timestamp="2010-07-09T05:05:36Z" uid="74617" user="JohnSmith" changeset="5170986">
    <nd ref="99930287"/>
    <nd ref="99932315"/>
    <tag k="highway" v="residential"/>
    <tag k="maxspeed" v="50"/>
    <tag k="maxspeed:source" v="default residential speed limit in Australia"/>
    <tag k="name" v="Roberts Way"/>
  </way>
  <way id="11249520" version="4" timestamp="2012-01-15T10:39:16Z" uid="147510" user="woodpeck_fixbot" changeset="10395278">
    <nd ref="99930287"/>
    <nd ref="99932315"/>
    <tag k="highway" v="residential"/>
    <tag k="name" v="Roberts Way"/>
  </way>
  <way id="11249539" version="3" timestamp="2010-07-09T05:00:53Z" uid="74617" user="JohnSmith" changeset="5170986">
    <nd ref="99932337"/>
    <nd ref="99932479"/>
    <tag k="highway" v="residential"/>
    <tag k="maxspeed" v="50"/>
    <tag k="maxspeed:source" v="default residential speed limit in Australia"/>
    <tag k="name" v="Drysdale Place"/>
  </way>
  <way id="11249539" version="4" timestamp="2012-01-15T10:39:17Z" uid="147510" user="woodpeck_fixbot" changeset="10395278">
    <nd ref="99932337"/>
    <nd ref="99932479"/>
    <tag k="highway" v="residential"/>
    <tag k="name" v="Drysdale Place"/>
  </way>
  <way id="11249556" version="4" timestamp="2010-07-09T05:03:53Z" uid="74617" user="JohnSmith" changeset="5170986">
    <nd ref="99932488"/>
    <nd ref="685047961"/>
    <nd ref="99932617"/>
    <tag k="highway" v="residential"/>
    <tag k="maxspeed" v="50"/>
    <tag k="maxspeed:source" v="default residential speed limit in Australia"/>
    <tag k="name" v="Perceval Way"/>
  </way>
  <way id="11249556" version="5" timestamp="2012-01-15T10:39:18Z" uid="147510" user="woodpeck_fixbot" changeset="10395278">
    <nd ref="99932488"/>
    <nd ref="685047961"/>
    <nd ref="99932617"/>
    <tag k="highway" v="residential"/>
    <tag k="name" v="Perceval Way"/>
  </way>
  <way id="11249704" version="11" timestamp="2010-04-19T13:39:39Z" uid="4467" user="Rosscoe" changeset="4467919">
    <nd ref="701857456"/>
    <nd ref="99933560"/>
    <nd ref="99933561"/>
    <nd ref="99933562"/>
    <nd ref="99933563"/>
    <nd ref="99937350"/>
    <nd ref="99933564"/>
    <nd ref="99933565"/>
    <nd ref="99933566"/>
    <nd ref="99933567"/>
    <nd ref="99946835"/>
    <nd ref="99933568"/>
    <nd ref="99933569"/>
    <nd ref="99936143"/>
    <nd ref="99933570"/>
    <nd ref="99933571"/>
    <nd ref="99933572"/>
    <nd ref="99934848"/>
    <nd ref="99933573"/>
    <nd ref="99945288"/>
    <nd ref="99933574"/>
    <nd ref="99933575"/>
    <nd ref="587865518"/>
    <nd ref="587865522"/>
    <nd ref="99933576"/>
    <tag k="highway" v="residential"/>
    <tag k="name" v="Bellevue Avenue"/>
  </way>
  <way id="11249704" version="12" timestamp="2010-07-09T05:00:56Z" uid="74617" user="JohnSmith" changeset="5170986">
    <nd ref="701857456"/>
    <nd ref="99933560"/>
    <nd ref="99933561"/>
    <nd ref="99933562"/>
    <nd ref="99933563"/>
    <nd ref="99937350"/>
    <nd ref="99933564"/>
    <nd ref="99933565"/>
    <nd ref="99933566"/>
    <nd ref="99933567"/>
    <nd ref="99946835"/>
    <nd ref="99933568"/>
    <nd ref="99933569"/>
    <nd ref="99936143"/>
    <nd ref="99933570"/>
    <nd ref="99933571"/>
    <nd ref="99933572"/>
    <nd ref="99934848"/>
    <nd ref="99933573"/>
    <nd ref="99945288"/>
    <nd ref="99933574"/>
    <nd ref="99933575"/>
    <nd ref="587865518"/>
    <nd ref="587865522"/>
    <nd ref="99933576"/>
    <tag k="highway" v="residential"/>
    <tag k="maxspeed" v="50"/>
    <tag k="maxspeed:source" v="default residential speed limit in Australia"/>
    <tag k="name" v="Bellevue Avenue"/>
  </way>
  <way id="11249704" version="13" timestamp="2012-01-15T10:39:20Z" uid="147510" user="woodpeck_fixbot" changeset="10395278">
    <nd ref="701857456"/>
    <nd ref="99933560"/>
    <nd ref="99933561"/>
    <nd ref="99933562"/>
    <nd ref="99933563"/>
    <nd ref="99937350"/>
    <nd ref="99933564"/>
    <nd ref="99933565"/>
    <nd ref="99933566"/>
    <nd ref="99933567"/>
    <nd ref="99946835"/>
    <nd ref="99933568"/>
    <nd ref="99933569"/>
    <nd ref="99936143"/>
    <nd ref="99933570"/>
    <nd ref="99933571"/>
    <nd ref="99933572"/>
    <nd ref="99934848"/>
    <nd ref="99933573"/>
    <nd ref="99945288"/>
    <nd ref="99933574"/>
    <nd ref="99933575"/>
    <nd ref="587865518"/>
    <nd ref="587865522"/>
    <nd ref="99933576"/>
    <tag k="highway" v="residential"/>
    <tag k="name" v="Bellevue Avenue"/>
  </way>
  <way id="11249717" version="9" timestamp="2010-07-09T04:59:31Z" uid="74617" user="JohnSmith" changeset="5170986">
    <nd ref="334065403"/>
    <nd ref="99947446"/>
    <nd ref="99947418"/>
    <nd ref="99947117"/>
    <nd ref="99937657"/>
    <tag k="highway" v="residential"/>
    <tag k="maxspeed" v="50"/>
    <tag k="maxspeed:source" v="default residential speed limit in Australia"/>
    <tag k="name" v="Leslie Street"/>
  </way>
  <way id="11249717" version="10" timestamp="2012-01-15T10:39:23Z" uid="147510" user="woodpeck_fixbot" changeset="10395278">
    <nd ref="334065403"/>
    <nd ref="99947446"/>
    <nd ref="99947418"/>
    <nd ref="99947117"/>
    <nd ref="99937657"/>
    <tag k="highway" v="residential"/>
    <tag k="name" v="Leslie Street"/>
  </way>
  <way id="11249819" version="7" timestamp="2010-07-09T05:15:10Z" uid="74617" user="JohnSmith" changeset="5170986">
    <nd ref="99934206"/>
    <nd ref="99933576"/>
    <nd ref="469065343"/>
    <nd ref="99934498"/>
    <nd ref="99934303"/>
    <nd ref="99934208"/>
    <nd ref="99934210"/>
    <nd ref="99934211"/>
    <tag k="highway" v="residential"/>
    <tag k="maxspeed" v="50"/>
    <tag k="maxspeed:source" v="default residential speed limit in Australia"/>
    <tag k="name" v="Woorarra Avenue"/>
    <tag k="source" v="survey;Yahoo"/>
  </way>
  <way id="11249819" version="8" timestamp="2010-07-09T05:22:40Z" uid="74617" user="JohnSmith" changeset="5170972">
    <nd ref="99934206"/>
    <nd ref="99933576"/>
    <nd ref="469065343"/>
    <nd ref="99934498"/>
    <nd ref="99934303"/>
    <nd ref="99934208"/>
    <nd ref="99934210"/>
    <nd ref="99934211"/>
    <tag k="highway" v="residential"/>
    <tag k="maxspeed" v="50"/>
    <tag k="maxspeed:source" v="default residential speed limit in Australia"/>
    <tag k="name" v="Woorarra Avenue"/>
    <tag k="source" v="survey;Yahoo"/>
  </way>
  <way id="11249819" version="9" timestamp="2012-01-15T10:39:25Z" uid="147510" user="woodpeck_fixbot" changeset="10395278">
    <nd ref="99934206"/>
    <nd ref="99933576"/>
    <nd ref="469065343"/>
    <nd ref="99934498"/>
    <nd ref="99934303"/>
    <nd ref="99934208"/>
    <nd ref="99934210"/>
    <nd ref="99934211"/>
    <tag k="highway" v="residential"/>
    <tag k="name" v="Woorarra Avenue"/>
    <tag k="source" v="survey;Yahoo"/>
  </way>
  <way id="11249870" version="3" timestamp="2010-07-09T05:16:48Z" uid="74617" user="JohnSmith" changeset="5170986">
    <nd ref="99934303"/>
    <nd ref="99934492"/>
    <tag k="highway" v="residential"/>
    <tag k="maxspeed" v="50"/>
    <tag k="maxspeed:source" v="default residential speed limit in Australia"/>
    <tag k="name" v="Nonda Avenue"/>
  </way>
  <way id="11249870" version="4" timestamp="2010-07-09T05:22:26Z" uid="74617" user="JohnSmith" changeset="5170972">
    <nd ref="99934303"/>
    <nd ref="99934492"/>
    <tag k="highway" v="residential"/>
    <tag k="maxspeed" v="50"/>
    <tag k="maxspeed:source" v="default residential speed limit in Australia"/>
    <tag k="name" v="Nonda Avenue"/>
  </way>
  <way id="11249870" version="5" timestamp="2011-02-27T10:17:22Z" uid="4467" user="Rosscoe" changeset="7408633">
    <nd ref="99934303"/>
    <nd ref="99934492"/>
    <nd ref="217904567"/>
    <tag k="highway" v="residential"/>
    <tag k="maxspeed" v="50"/>
    <tag k="maxspeed:source" v="default residential speed limit in Australia"/>
    <tag k="name" v="Nonda Avenue"/>
  </way>
  <way id="11249870" version="6" timestamp="2012-01-15T10:39:26Z" uid="147510" user="woodpeck_fixbot" changeset="10395278">
    <nd ref="99934303"/>
    <nd ref="99934492"/>
    <nd ref="217904567"/>
    <tag k="highway" v="residential"/>
    <tag k="name" v="Nonda Avenue"/>
  </way>
  <way id="11249923" version="6" timestamp="2010-07-09T05:06:49Z" uid="74617" user="JohnSmith" changeset="5170986">
    <nd ref="99934498"/>
    <nd ref="99934840"/>
    <nd ref="99934841"/>
    <nd ref="99934842"/>
    <nd ref="99935247"/>
    <nd ref="99934843"/>
    <nd ref="99934844"/>
    <nd ref="99934845"/>
    <nd ref="99934846"/>
    <nd ref="99934847"/>
    <nd ref="99934848"/>
    <tag k="highway" v="residential"/>
    <tag k="maxspeed" v="50"/>
    <tag k="maxspeed:source" v="default residential speed limit in Australia"/>
    <tag k="name" v="McKenzie Street"/>
  </way>
  <way id="11249923" version="7" timestamp="2012-01-15T10:39:30Z" uid="147510" user="woodpeck_fixbot" changeset="10395278">
    <nd ref="99934498"/>
    <nd ref="99934840"/>
    <nd ref="99934841"/>
    <nd ref="99934842"/>
    <nd ref="99935247"/>
    <nd ref="99934843"/>
    <nd ref="99934844"/>
    <nd ref="99934845"/>
    <nd ref="99934846"/>
    <nd ref="99934847"/>
    <nd ref="99934848"/>
    <tag k="highway" v="residential"/>
    <tag k="name" v="McKenzie Street"/>
  </way>
  <way id="11249975" version="3" timestamp="2010-07-09T05:02:37Z" uid="74617" user="JohnSmith" changeset="5170986">
    <nd ref="99930295"/>
    <nd ref="99935245"/>
    <nd ref="99935246"/>
    <nd ref="99935247"/>
    <tag k="highway" v="residential"/>
    <tag k="maxspeed" v="50"/>
    <tag k="maxspeed:source" v="default residential speed limit in Australia"/>
    <tag k="name" v="Cassia Street"/>
  </way>
  <way id="11249975" version="4" timestamp="2012-01-15T10:39:32Z" uid="147510" user="woodpeck_fixbot" changeset="10395278">
    <nd ref="99930295"/>
    <nd ref="99935245"/>
    <nd ref="99935246"/>
    <nd ref="99935247"/>
    <tag k="highway" v="residential"/>
    <tag k="name" v="Cassia Street"/>
  </way>
</osm>
