<?xml version='1.0' encoding='UTF-8'?>
<osm version="0.6" generator="libosmium/2.20.0">
  <way id="11248007" version="4" timestamp="2010-07-09T05:03:18Z" uid="74617" user="JohnSmith" changeset="5170986">
    <nd ref="99921067"/>
    <nd ref="99921262"/>
    <nd ref="99921263"/>
    <nd ref="99921264"/>
    <tag k="highway" v="residential"/>
    <tag k="maxspeed" v="50"/>
    <tag k="maxspeed:source" v="default residential speed limit in Australia"/>
    <tag k="name" v="Reddington Terrace"/>
  </way>
  <way id="11248007" version="5" timestamp="2012-01-15T10:38:46Z" uid="147510" user="woodpeck_fixbot" changeset="10395278">
    <nd ref="99921067"/>
    <nd ref="99921262"/>
    <nd ref="99921263"/>
    <nd ref="99921264"/>
    <tag k="highway" v="residential"/>
    <tag k="name" v="Reddington Terrace"/>
  </way>
  <way id="11248041" version="4" timestamp="2010-07-09T05:01:28Z" uid="74617" user="JohnSmith" changeset="5170986">
    <nd ref="99695730"/>
    <nd ref="99921715"/>
    <nd ref="99921716"/>
    <nd ref="99921717"/>
    <nd ref="99921718"/>
    <nd ref="99921719"/>
    <nd ref="99921720"/>
    <nd ref="99921721"/>
    <nd ref="99921722"/>
    <nd ref="99921724"/>
    <nd ref="99921725"/>
    <tag k="highway" v="residential"/>
    <tag k="maxspeed" v="50"/>
    <tag k="maxspeed:source" v="default residential speed limit in Australia"/>
    <tag k="name" v="Lambert Place"/>
  </way>
  <way id="11248041" version="5" timestamp="2012-01-15T10:38:47Z" uid="147510" user="woodpeck_fixbot" changeset="10395278">
    <nd ref="99695730"/>
    <nd ref="99921715"/>
    <nd ref="99921716"/>
    <nd ref="99921717"/>
    <nd ref="99921718"/>
    <nd ref="99921719"/>
    <nd ref="99921720"/>
    <nd ref="99921721"/>
    <nd ref="99921722"/>
    <nd ref="99921724"/>
    <nd ref="99921725"/>
    <tag k="highway" v="residential"/>
    <tag k="name" v="Lambert Place"/>
  </way>
  <way id="11248104" version="3" timestamp="2010-07-09T05:07:06Z" uid="74617" user="JohnSmith" changeset="5170986">
    <nd ref="99921799"/>
    <nd ref="99922203"/>
    <nd ref="99922204"/>
    <nd ref="99922205"/>
    <nd ref="99922206"/>
    <nd ref="99922207"/>
    <nd ref="99922208"/>
    <nd ref="99922209"/>
    <nd ref="99922210"/>
    <tag k="highway" v="residential"/>
    <tag k="maxspeed" v="50"/>
    <tag k="maxspeed:source" v="default residential speed limit in Australia"/>
    <tag k="name" v="Buvelot Wynd"/>
  </way>
  <way id="11248104" version="4" timestamp="2012-01-15T10:38:48Z" uid="147510" user="woodpeck_fixbot" changeset="10395278">
    <nd ref="99921799"/>
    <nd ref="99922203"/>
    <nd ref="99922204"/>
    <nd ref="99922205"/>
    <nd ref="99922206"/>
    <nd ref="99922207"/>
    <nd ref="99922208"/>
    <nd ref="99922209"/>
    <nd ref="99922210"/>
    <tag k="highway" v="residential"/>
    <tag k="name" v="Buvelot Wynd"/>
  </way>
  <way id="11248171" version="5" timestamp="2010-07-09T05:05:23Z" uid="74617" user="JohnSmith" changeset="5170986">
    <nd ref="99920025"/>
    <nd ref="99922562"/>
    <nd ref="99922563"/>
    <nd ref="99922564"/>
    <nd ref="99922565"/>
    <nd ref="99922566"/>
    <nd ref="99922567"/>
    <nd ref="99922568"/>
    <tag k="highway" v="residential"/>
    <tag k="maxspeed" v="50"/>
    <tag k="maxspeed:source" v="default residential speed limit in Australia"/>
    <tag k="name" v="Wiarando Court"/>
  </way>
  <way id="11248171" version="6" timestamp="2012-01-15T10:38:49Z" uid="147510" user="woodpeck_fixbot" changeset="10395278">
    <nd ref="99920025"/>
    <nd ref="99922562"/>
    <nd ref="99922563"/>
    <nd ref="99922564"/>
    <nd ref="99922565"/>
    <nd ref="99922566"/>
    <nd ref="99922567"/>
    <nd ref="99922568"/>
    <tag k="highway" v="residential"/>
    <tag k="name" v="Wiarando Court"/>
  </way>
  <way id="11248208" version="4" timestamp="2010-07-09T04:58:59Z" uid="74617" user="JohnSmith" changeset="5170986">
    <nd ref="99922630"/>
    <nd ref="99922893"/>
    <nd ref="99922896"/>
    <nd ref="99922897"/>
    <nd ref="99922898"/>
    <nd ref="99922899"/>
    <tag k="highway" v="residential"/>
    <tag k="maxspeed" v="50"/>
    <tag k="maxspeed:source" v="default residential speed limit in Australia"/>
    <tag k="name" v="Roper Place"/>
  </way>
  <way id="11248208" version="5" timestamp="2012-01-15T10:38:50Z" uid="147510" user="woodpeck_fixbot" changeset="10395278">
    <nd ref="99922630"/>
    <nd ref="99922893"/>
    <nd ref="99922896"/>
    <nd ref="99922897"/>
    <nd ref="99922898"/>
    <nd ref="99922899"/>
    <tag k="highway" v="residential"/>
    <tag k="name" v="Roper Place"/>
  </way>
  <way id="11248298" version="3" timestamp="2010-07-09T05:06:23Z" uid="74617" user="JohnSmith" changeset="5170986">
    <nd ref="99922917"/>
    <nd ref="99923351"/>
    <nd ref="99923352"/>
    <nd ref="99923353"/>
    <nd ref="99923354"/>
    <nd ref="99923355"/>
    <nd ref="99923356"/>
    <nd ref="99923358"/>
    <tag k="highway" v="residential"/>
    <tag k="maxspeed" v="50"/>
    <tag k="maxspeed:source" v="default residential speed limit in Australia"/>
    <tag k="name" v="Longstaff Court"/>
  </way>
  <way id="11248298" version="4" timestamp="2012-01-15T10:38:52Z" uid="147510" user="woodpeck_fixbot" changeset="10395278">
    <nd ref="99922917"/>
    <nd ref="99923351"/>
    <nd ref="99923352"/>
    <nd ref="99923353"/>
    <nd ref="99923354"/>
    <nd ref="99923355"/>
    <nd ref="99923356"/>
    <nd ref="99923358"/>
    <tag k="highway" v="residential"/>
    <tag k="name" v="Longstaff Court"/>
  </way>
  <way id="11248341" version="3" timestamp="2010-05-31T08:31:23Z" uid="4467" user="Rosscoe" changeset="4860766">
    <nd ref="99923398"/>
    <nd ref="99923896"/>
    <nd ref="99923897"/>
    <nd ref="99923898"/>
    <nd ref="99923900"/>
    <tag k="highway" v="residential"/>
    <tag k="name" v="Ramsay Close"/>
  </way>
  <way id="11248341" version="4" timestamp="2010-07-09T05:19:17Z" uid="74617" user="JohnSmith" changeset="5170986">
    <nd ref="99923398"/>
    <nd ref="99923896"/>
    <nd ref="99923897"/>
    <nd ref="99923898"/>
    <nd ref="99923900"/>
    <tag k="highway" v="residential"/>
    <tag k="maxspeed" v="50"/>
    <tag k="maxspeed:source" v="default residential speed limit in Australia"/>
    <tag k="name" v="Ramsay Close"/>
  </way>
  <way id="11248341" version="5" timestamp="2010-07-09T05:22:13Z" uid="74617" user="JohnSmith" changeset="5170972">
    <nd ref="99923398"/>
    <nd ref="99923896"/>
    <nd ref="99923897"/>
    <nd ref="99923898"/>
    <nd ref="99923900"/>
    <tag k="highway" v="residential"/>
    <tag k="maxspeed" v="50"/>
    <tag k="maxspeed:source" v="default residential speed limit in Australia"/>
    <tag k="name" v="Ramsay Close"/>
  </way>
  <way id="11248341" version="6" timestamp="2012-01-15T10:38:54Z" uid="147510" user="woodpeck_fixbot" changeset="10395278">
    <nd ref="99923398"/>
    <nd ref="99923896"/>
    <nd ref="99923897"/>
    <nd ref="99923898"/>
    <nd ref="99923900"/>
    <tag k="highway" v="residential"/>
    <tag k="name" v="Ramsay Close"/>
  </way>
  <way id="11248395" version="4" timestamp="2010-07-09T05:05:40Z" uid="74617" user="JohnSmith" changeset="5170986">
    <nd ref="99924031"/>
    <nd ref="99924257"/>
    <nd ref="99924258"/>
    <nd ref="99924259"/>
    <tag k="highway" v="residential"/>
    <tag k="maxspeed" v="50"/>
    <tag k="maxspeed:source" v="default residential speed limit in Australia"/>
    <tag k="name" v="Streeton Lane"/>
  </way>
  <way id="11248395" version="5" timestamp="2012-01-15T10:38:55Z" uid="147510" user="woodpeck_fixbot" changeset="10395278">
    <nd ref="99924031"/>
    <nd ref="99924257"/>
    <nd ref="99924258"/>
    <nd ref="99924259"/>
    <tag k="highway" v="residential"/>
    <tag k="name" v="Streeton Lane"/>
  </way>
  <way id="11248417" version="3" timestamp="2010-07-09T05:01:32Z" uid="74617" user="JohnSmith" changeset="5170986">
    <nd ref="99924267"/>
    <nd ref="99924501"/>
    <tag k="highway" v="residential"/>
    <tag k="maxspeed" v="50"/>
    <tag k="maxspeed:source" v="default residential speed limit in Australia"/>
    <tag k="name" v="McCubbin Terrace"/>
  </way>
  <way id="11248417" version="4" timestamp="2012-01-15T10:38:56Z" uid="147510" user="woodpeck_fixbot" changeset="10395278">
    <nd ref="99924267"/>
    <nd ref="99924501"/>
    <tag k="highway" v="residential"/>
    <tag k="name" v="McCubbin Terrace"/>
  </way>
  <way id="11248464" version="3" timestamp="2010-07-09T05:05:43Z" uid="74617" user="JohnSmith" changeset="5170986">
    <nd ref="99695739"/>
    <nd ref="99924778"/>
    <nd ref="99924779"/>
    <nd ref="99924780"/>
    <tag k="highway" v="residential"/>
    <tag k="maxspeed" v="50"/>
    <tag k="maxspeed:source" v="default residential speed limit in Australia"/>
    <tag k="name" v="Heysen Grove"/>
  </way>
  <way id="11248464" version="4" timestamp="2012-01-15T10:38:57Z" uid="147510" user="woodpeck_fixbot" changeset="10395278">
    <nd ref="99695739"/>
    <nd ref="99924778"/>
    <nd ref="99924779"/>
    <nd ref="99924780"/>
    <tag k="highway" v="residential"/>
    <tag k="name" v="Heysen Grove"/>
  </way>
  <way id="11248534" version="3" timestamp="2010-05-31T08:31:37Z" uid="4467" user="Rosscoe" changeset="4860766">
    <nd ref="99924802"/>
    <nd ref="99925238"/>
    <nd ref="99925239"/>
    <nd ref="99925240"/>
    <nd ref="99925241"/>
    <tag k="highway" v="residential"/>
    <tag k="name" v="Meldrum Close"/>
  </way>
  <way id="11248534" version="4" timestamp="2010-07-09T04:58:48Z" uid="74617" user="JohnSmith" changeset="5170986">
    <nd ref="99924802"/>
    <nd ref="99925238"/>
    <nd ref="99925239"/>
    <nd ref="99925240"/>
    <nd ref="99925241"/>
    <tag k="highway" v="residential"/>
    <tag k="maxspeed" v="50"/>
    <tag k="maxspeed:source" v="default residential speed limit in Australia"/>
    <tag k="name" v="Meldrum Close"/>
  </way>
  <way id="11248534" version="5" timestamp="2012-01-15T10:38:58Z" uid="147510" user="woodpeck_fixbot" changeset="10395278">
    <nd ref="99924802"/>
    <nd ref="99925238"/>
    <nd ref="99925239"/>
    <nd ref="99925240"/>
    <nd ref="99925241"/>
    <tag k="highway" v="residential"/>
    <tag k="name" v="Meldrum Close"/>
  </way>
  <way id="11248577" version="4" timestamp="2010-07-09T05:06:21Z" uid="74617" user="JohnSmith" changeset="5170986">
    <nd ref="99695732"/>
    <nd ref="99925474"/>
    <nd ref="99925475"/>
    <tag k="highway" v="residential"/>
    <tag k="maxspeed" v="50"/>
    <tag k="maxspeed:source" v="default residential speed limit in Australia"/>
    <tag k="name" v="Watling Terrace"/>
  </way>
  <way id="11248577" version="5" timestamp="2012-01-15T10:39:00Z" uid="147510" user="woodpeck_fixbot" changeset="10395278">
    <nd ref="99695732"/>
    <nd ref="99925474"/>
    <nd ref="99925475"/>
    <tag k="highway" v="residential"/>
    <tag k="name" v="Watling Terrace"/>
  </way>
  <way id="11248653" version="4" timestamp="2010-07-09T05:00:31Z" uid="74617" user="JohnSmith" changeset="5170986">
    <nd ref="99695731"/>
    <nd ref="99926026"/>
    <tag k="highway" v="residential"/>
    <tag k="maxspeed" v="50"/>
    <tag k="maxspeed:source" v="default residential speed limit in Australia"/>
    <tag k="name" v="Dowling Grove"/>
  </way>
  <way id="11248653" version="5" timestamp="2012-01-15T10:39:01Z" uid="147510" user="woodpeck_fixbot" changeset="10395278">
    <nd ref="99695731"/>
    <nd ref="99926026"/>
    <tag k="highway" v="residential"/>
    <tag k="name" v="Dowling Grove"/>
  </way>
  <way id="11248725" version="6" timestamp="2010-08-24T19:44:45Z" uid="9581" user="Lobelt" changeset="5583320">
    <nd ref="25436293"/>
    <nd ref="344443396"/>
    <nd ref="344443395"/>
    <nd ref="262505310"/>
    <nd ref="344443385"/>
    <tag k="name" v="Bruchsaler Kurve"/>
    <tag k="railway" v="rail"/>
    <tag k="ref" v="4085"/>
  </way>
  <way id="11248725" version="7" timestamp="2011-04-16T09:43:14Z" uid="6893" user="[HEK]the_other" changeset="7876675">
    <nd ref="25436293"/>
    <nd ref="1246669939"/>
    <nd ref="1246669956"/>
    <nd ref="1246669907"/>
    <nd ref="344443396"/>
    <nd ref="344443395"/>
    <nd ref="262505310"/>
    <nd ref="344443385"/>
    <tag k="name" v="Bruchsaler Kurve"/>
    <tag k="railway" v="rail"/>
    <tag k="ref" v="4085"/>
  </way>
  <way id="11248725" version="8" timestamp="2011-05-17T11:58:12Z" uid="212897" user="richtest" changeset="8170970">
    <nd ref="25436293"/>
    <nd ref="1246669939"/>
    <nd ref="1246669956"/>
    <nd ref="1246669907"/>
    <nd ref="344443396"/>
    <nd ref="344443395"/>
    <nd ref="262505310"/>
    <nd ref="344443385"/>
    <tag k="electrified" v="contact_line"/>
    <tag k="frequency" v="16.7"/>
    <tag k="layer" v="1"/>
    <tag k="name" v="Bruchsaler Kurve"/>
    <tag k="railway" v="rail"/>
    <tag k="ref" v="4085"/>
    <tag k="voltage" v="15000"/>
  </way>
  <way id="11248725" version="9" timestamp="2011-07-26T12:50:58Z" uid="118006" user="vwistuttgart" changeset="8835526">
    <nd ref="25436293"/>
    <nd ref="1246669939"/>
    <nd ref="1246669956"/>
    <nd ref="1246669907"/>
    <nd ref="344443396"/>
    <nd ref="344443395"/>
    <nd ref="262505310"/>
    <nd ref="344443385"/>
    <tag k="electrified" v="contact_line"/>
    <tag k="frequency" v="16.7"/>
    <tag k="layer" v="1"/>
    <tag k="name" v="Bruchsaler Kurve"/>
    <tag k="railway" v="rail"/>
    <tag k="ref" v="4085"/>
    <tag k="tracks" v="1"/>
    <tag k="voltage" v="15000"/>
  </way>
  <way id="11248725" version="10" timestamp="2011-12-13T12:24:26Z" uid="165061" user="keinname" changeset="10106507">
    <nd ref="25436293"/>
    <nd ref="1246669939"/>
    <nd ref="1246669956"/>
    <nd ref="1246669907"/>
    <nd ref="344443396"/>
    <nd ref="344443395"/>
    <nd ref="262505310"/>
    <nd ref="344443385"/>
    <tag k="electrified" v="contact_line"/>
    <tag k="frequency" v="16.7"/>
    <tag k="layer" v="1"/>
    <tag k="maxspeed" v="100"/>
    <tag k="name" v="Bruchsaler Kurve"/>
    <tag k="railway" v="rail"/>
    <tag k="ref" v="4085"/>
    <tag k="tracks" v="1"/>
    <tag k="voltage" v="15000"/>
  </way>
  <way id="11248725" version="11" timestamp="2012-01-17T10:59:10Z" uid="442210" user="dwausr" changeset="10416380"/>
  <way id="11248804" version="4" timestamp="2010-04-19T13:39:43Z" uid="4467" user="Rosscoe" changeset="4467919">
    <nd ref="99926086"/>
    <nd ref="99927022"/>
    <nd ref="99927023"/>
    <nd ref="99927025"/>
    <nd ref="99927026"/>
    <nd ref="99927027"/>
    <nd ref="99927028"/>
    <nd ref="99927030"/>
    <nd ref="701857491"/>
    <tag k="highway" v="residential"/>
    <tag k="maxspeed" v="50"/>
    <tag k="name" v="Fullwood Parade"/>
  </way>
  <way id="11248898" version="6" timestamp="2009-07-25T04:15:18Z" uid="74617" user="JohnSmith" changeset="1930637">
    <nd ref="57010217"/>
    <nd ref="311938889"/>
    <nd ref="311938773"/>
    <nd ref="59898902"/>
    <tag k="highway" v="tertiary"/>
    <tag k="maxspeed" v="50"/>
    <tag k="name" v="Kingston Terrace"/>
    <tag k="source" v="survey"/>
  </way>
  <way id="11248898" version="7" timestamp="2010-03-21T14:11:30Z" uid="150488" user="ralmin" changeset="4191387">
    <nd ref="57010217"/>
    <nd ref="311938889"/>
    <nd ref="671419768"/>
    <nd ref="311938773"/>
    <nd ref="59898902"/>
    <tag k="highway" v="tertiary"/>
    <tag k="maxspeed" v="50"/>
    <tag k="name" v="Kingston Terrace"/>
    <tag k="source" v="survey"/>
  </way>
  <way id="11248899" version="6" timestamp="2009-07-25T04:15:47Z" uid="74617" user="JohnSmith" changeset="1930637">
    <nd ref="301927400"/>
    <nd ref="411721099"/>
    <tag k="highway" v="primary"/>
    <tag k="maxspeed" v="50"/>
    <tag k="name:link" v="North Terrace"/>
    <tag k="oneway" v="yes"/>
    <tag k="source" v="survey"/>
  </way>
  <way id="11248899" version="7" timestamp="2010-09-20T22:32:43Z" uid="79475" user="AlexOnTheBus" changeset="5833552">
    <nd ref="301927400"/>
    <nd ref="411721099"/>
    <tag k="highway" v="secondary"/>
    <tag k="maxspeed" v="50"/>
    <tag k="name:link" v="North Terrace"/>
    <tag k="oneway" v="yes"/>
    <tag k="source" v="survey"/>
  </way>
  <way id="11248899" version="8" timestamp="2011-10-18T01:52:25Z" uid="7898" user="Softgrow" changeset="9587499">
    <nd ref="301927400"/>
    <nd ref="411721099"/>
    <tag k="highway" v="secondary_link"/>
    <tag k="maxspeed" v="50"/>
    <tag k="name:link" v="North Terrace"/>
    <tag k="oneway" v="yes"/>
    <tag k="source" v="survey"/>
  </way>
  <way id="11248900" version="6" timestamp="2009-07-25T04:15:15Z" uid="74617" user="JohnSmith" changeset="1930637">
    <nd ref="59899805"/>
    <nd ref="137483985"/>
    <tag k="bridge" v="yes"/>
    <tag k="highway" v="secondary"/>
    <tag k="layer" v="1"/>
    <tag k="loc_name" v="Albert Bridge"/>
    <tag k="maxspeed" v="50"/>
    <tag k="name" v="Frome Road"/>
    <tag k="source" v="survey"/>
  </way>
  <way id="11248900" version="7" timestamp="2010-03-27T09:01:16Z" uid="10145" user="kizza" changeset="4244572">
    <nd ref="59899805"/>
    <nd ref="137483985"/>
    <tag k="bridge" v="yes"/>
    <tag k="cycleway" v="lane"/>
    <tag k="highway" v="secondary"/>
    <tag k="layer" v="1"/>
    <tag k="loc_name" v="Albert Bridge"/>
    <tag k="maxspeed" v="50"/>
    <tag k="name" v="Frome Road"/>
    <tag k="source" v="survey"/>
  </way>
  <way id="11248900" version="8" timestamp="2010-09-20T11:35:02Z" uid="79475" user="AlexOnTheBus" changeset="5828324">
    <nd ref="59899805"/>
    <nd ref="137483985"/>
    <tag k="bridge" v="yes"/>
    <tag k="cycleway" v="lane"/>
    <tag k="highway" v="tertiary"/>
    <tag k="layer" v="1"/>
    <tag k="loc_name" v="Albert Bridge"/>
    <tag k="maxspeed" v="50"/>
    <tag k="name" v="Frome Road"/>
    <tag k="source" v="survey"/>
  </way>
  <way id="11248901" version="5" timestamp="2009-07-25T04:15:14Z" uid="74617" user="JohnSmith" changeset="1930637">
    <nd ref="137483985"/>
    <nd ref="295316584"/>
    <nd ref="59899807"/>
    <nd ref="301923593"/>
    <nd ref="59899808"/>
    <nd ref="301923591"/>
    <tag k="highway" v="secondary"/>
    <tag k="layer" v="1"/>
    <tag k="maxspeed" v="50"/>
    <tag k="name" v="Frome Road"/>
    <tag k="source" v="survey"/>
    <tag k="source_ref:name" v="http://osm.beldin.org/dscf2191.jpg"/>
  </way>
  <way id="11248901" version="6" timestamp="2010-03-18T09:07:02Z" uid="150488" user="ralmin" changeset="4159565">
    <nd ref="137483985"/>
    <nd ref="295316584"/>
    <nd ref="59899807"/>
    <nd ref="668586241"/>
    <nd ref="301923593"/>
    <nd ref="59899808"/>
    <nd ref="301923591"/>
    <tag k="highway" v="secondary"/>
    <tag k="layer" v="1"/>
    <tag k="maxspeed" v="50"/>
    <tag k="name" v="Frome Road"/>
    <tag k="source" v="survey"/>
    <tag k="source_ref:name" v="http://osm.beldin.org/dscf2191.jpg"/>
  </way>
  <way id="11248901" version="7" timestamp="2010-03-19T13:23:49Z" uid="150488" user="ralmin" changeset="4169972">
    <nd ref="137483985"/>
    <nd ref="295316584"/>
    <nd ref="59899807"/>
    <nd ref="668586241"/>
    <nd ref="301923593"/>
    <nd ref="669584689"/>
    <nd ref="669584684"/>
    <nd ref="59899808"/>
    <nd ref="301923591"/>
    <tag k="highway" v="secondary"/>
    <tag k="layer" v="1"/>
    <tag k="maxspeed" v="50"/>
    <tag k="name" v="Frome Road"/>
    <tag k="source" v="survey"/>
    <tag k="source_ref:name" v="http://osm.beldin.org/dscf2191.jpg"/>
  </way>
  <way id="11248901" version="8" timestamp="2010-03-27T09:01:15Z" uid="10145" user="kizza" changeset="4244572">
    <nd ref="137483985"/>
    <nd ref="295316584"/>
    <nd ref="59899807"/>
    <nd ref="668586241"/>
    <nd ref="301923593"/>
    <nd ref="669584689"/>
    <nd ref="669584684"/>
    <nd ref="59899808"/>
    <nd ref="301923591"/>
    <tag k="cycleway" v="lane"/>
    <tag k="highway" v="secondary"/>
    <tag k="layer" v="1"/>
    <tag k="maxspeed" v="50"/>
    <tag k="name" v="Frome Road"/>
    <tag k="source" v="survey"/>
    <tag k="source_ref:name" v="http://osm.beldin.org/dscf2191.jpg"/>
  </way>
  <way id="11248901" version="9" timestamp="2010-09-20T11:35:01Z" uid="79475" user="AlexOnTheBus" changeset="5828324">
    <nd ref="137483985"/>
    <nd ref="295316584"/>
    <nd ref="59899807"/>
    <nd ref="668586241"/>
    <nd ref="301923593"/>
    <nd ref="669584689"/>
    <nd ref="669584684"/>
    <nd ref="59899808"/>
    <nd ref="301923591"/>
    <tag k="cycleway" v="lane"/>
    <tag k="highway" v="tertiary"/>
    <tag k="layer" v="1"/>
    <tag k="maxspeed" v="50"/>
    <tag k="name" v="Frome Road"/>
    <tag k="source" v="survey"/>
    <tag k="source_ref:name" v="http://osm.beldin.org/dscf2191.jpg"/>
  </way>
  <way id="11248901" version="10" timestamp="2010-11-26T21:47:53Z" uid="320632" user="Zulu99" changeset="6465622">
    <nd ref="137483985"/>
    <nd ref="295316584"/>
    <tag k="cycleway" v="lane"/>
    <tag k="highway" v="tertiary"/>
    <tag k="layer" v="1"/>
    <tag k="maxspeed" v="50"/>
    <tag k="name" v="Frome Road"/>
    <tag k="source" v="survey"/>
    <tag k="source_ref:name" v="http://osm.beldin.org/dscf2191.jpg"/>
  </way>
  <way id="11248901" version="11" timestamp="2011-06-27T07:26:39Z" uid="428465" user="markinspace" changeset="8559119">
    <nd ref="137483985"/>
    <nd ref="295316584"/>
    <nd ref="1340869194"/>
    <tag k="cycleway" v="lane"/>
    <tag k="highway" v="tertiary"/>
    <tag k="layer" v="1"/>
    <tag k="maxspeed" v="50"/>
    <tag k="name" v="Frome Road"/>
    <tag k="source" v="survey"/>
    <tag k="source_ref:name" v="http://osm.beldin.org/dscf2191.jpg"/>
  </way>
</osm>
