<?xml version='1.0' encoding='UTF-8'?>
<osm version="0.6" generator="libosmium/2.20.0">
  <way id="11251067" version="3" timestamp="2010-06-01T02:39:48Z" uid="4467" user="Rosscoe" changeset="4871078">
    <nd ref="99940362"/>
    <nd ref="99942587"/>
    <nd ref="99942589"/>
    <nd ref="99942590"/>
    <tag k="created_by" v="Potlatch 0.10f"/>
    <tag k="highway" v="residential"/>
    <tag k="name" v="Cameron Close"/>
  </way>
  <way id="11251067" version="4" timestamp="2010-07-09T05:04:28Z" uid="74617" user="JohnSmith" changeset="5170986">
    <nd ref="99940362"/>
    <nd ref="99942587"/>
    <nd ref="99942589"/>
    <nd ref="99942590"/>
    <tag k="highway" v="residential"/>
    <tag k="maxspeed" v="50"/>
    <tag k="maxspeed:source" v="default residential speed limit in Australia"/>
    <tag k="name" v="Cameron Close"/>
  </way>
  <way id="11251067" version="5" timestamp="2012-01-15T10:40:00Z" uid="147510" user="woodpeck_fixbot" changeset="10396281">
    <nd ref="99940362"/>
    <nd ref="99942587"/>
    <nd ref="99942589"/>
    <nd ref="99942590"/>
    <tag k="highway" v="residential"/>
    <tag k="name" v="Cameron Close"/>
  </way>
  <way id="11251321" version="7" timestamp="2010-07-09T05:19:43Z" uid="74617" user="JohnSmith" changeset="5170986">
    <nd ref="99943848"/>
    <nd ref="99944475"/>
    <nd ref="99944332"/>
    <nd ref="99934206"/>
    <nd ref="469065344"/>
    <nd ref="469065345"/>
    <nd ref="99944333"/>
    <nd ref="99944884"/>
    <nd ref="99944666"/>
    <nd ref="469065346"/>
    <tag k="highway" v="residential"/>
    <tag k="maxspeed" v="50"/>
    <tag k="maxspeed:source" v="default residential speed limit in Australia"/>
    <tag k="name" v="Banool Quadrant"/>
    <tag k="source" v="survey;Yahoo"/>
  </way>
  <way id="11251321" version="8" timestamp="2010-07-09T05:22:03Z" uid="74617" user="JohnSmith" changeset="5170972">
    <nd ref="99943848"/>
    <nd ref="99944475"/>
    <nd ref="99944332"/>
    <nd ref="99934206"/>
    <nd ref="469065344"/>
    <nd ref="469065345"/>
    <nd ref="99944333"/>
    <nd ref="99944884"/>
    <nd ref="99944666"/>
    <nd ref="469065346"/>
    <tag k="highway" v="residential"/>
    <tag k="maxspeed" v="50"/>
    <tag k="maxspeed:source" v="default residential speed limit in Australia"/>
    <tag k="name" v="Banool Quadrant"/>
    <tag k="source" v="survey;Yahoo"/>
  </way>
  <way id="11251321" version="9" timestamp="2012-01-15T10:40:03Z" uid="147510" user="woodpeck_fixbot" changeset="10396281">
    <nd ref="99943848"/>
    <nd ref="99944475"/>
    <nd ref="99944332"/>
    <nd ref="99934206"/>
    <nd ref="469065344"/>
    <nd ref="469065345"/>
    <nd ref="99944333"/>
    <nd ref="99944884"/>
    <nd ref="99944666"/>
    <nd ref="469065346"/>
    <tag k="highway" v="residential"/>
    <tag k="name" v="Banool Quadrant"/>
    <tag k="source" v="survey;Yahoo"/>
  </way>
  <way id="11251378" version="3" timestamp="2010-07-09T05:16:05Z" uid="74617" user="JohnSmith" changeset="5170986">
    <nd ref="99944475"/>
    <nd ref="99944605"/>
    <tag k="highway" v="residential"/>
    <tag k="maxspeed" v="50"/>
    <tag k="maxspeed:source" v="default residential speed limit in Australia"/>
    <tag k="name" v="Bambra Court"/>
  </way>
  <way id="11251378" version="4" timestamp="2012-01-15T10:40:04Z" uid="147510" user="woodpeck_fixbot" changeset="10396281">
    <nd ref="99944475"/>
    <nd ref="99944605"/>
    <tag k="highway" v="residential"/>
    <tag k="name" v="Bambra Court"/>
  </way>
  <way id="11251409" version="3" timestamp="2010-07-09T05:15:10Z" uid="74617" user="JohnSmith" changeset="5170986">
    <nd ref="99944666"/>
    <nd ref="99944774"/>
    <tag k="highway" v="residential"/>
    <tag k="maxspeed" v="50"/>
    <tag k="maxspeed:source" v="default residential speed limit in Australia"/>
    <tag k="name" v="Beenak Court"/>
  </way>
  <way id="11251409" version="4" timestamp="2012-01-15T10:40:06Z" uid="147510" user="woodpeck_fixbot" changeset="10396281">
    <nd ref="99944666"/>
    <nd ref="99944774"/>
    <tag k="highway" v="residential"/>
    <tag k="name" v="Beenak Court"/>
  </way>
  <way id="11251473" version="3" timestamp="2010-07-09T05:18:44Z" uid="74617" user="JohnSmith" changeset="5170986">
    <nd ref="99944884"/>
    <nd ref="99945247"/>
    <tag k="highway" v="residential"/>
    <tag k="maxspeed" v="50"/>
    <tag k="maxspeed:source" v="default residential speed limit in Australia"/>
    <tag k="name" v="Bogong Court"/>
  </way>
  <way id="11251473" version="4" timestamp="2012-01-15T10:40:09Z" uid="147510" user="woodpeck_fixbot" changeset="10396281">
    <nd ref="99944884"/>
    <nd ref="99945247"/>
    <tag k="highway" v="residential"/>
    <tag k="name" v="Bogong Court"/>
  </way>
  <way id="11251532" version="6" timestamp="2010-06-01T08:22:50Z" uid="4467" user="Rosscoe" changeset="4872615">
    <nd ref="99945288"/>
    <nd ref="99945522"/>
    <nd ref="99945794"/>
    <nd ref="99946238"/>
    <nd ref="99946281"/>
    <nd ref="469065349"/>
    <tag k="highway" v="residential"/>
    <tag k="name" v="Carrajong Street"/>
  </way>
  <way id="11251532" version="7" timestamp="2010-07-09T05:04:32Z" uid="74617" user="JohnSmith" changeset="5170986">
    <nd ref="99945288"/>
    <nd ref="99945522"/>
    <nd ref="99945794"/>
    <nd ref="99946238"/>
    <nd ref="99946281"/>
    <nd ref="469065349"/>
    <tag k="highway" v="residential"/>
    <tag k="maxspeed" v="50"/>
    <tag k="maxspeed:source" v="default residential speed limit in Australia"/>
    <tag k="name" v="Carrajong Street"/>
  </way>
  <way id="11251532" version="8" timestamp="2012-01-15T10:40:10Z" uid="147510" user="woodpeck_fixbot" changeset="10396281">
    <nd ref="99945288"/>
    <nd ref="99945522"/>
    <nd ref="99945794"/>
    <nd ref="99946238"/>
    <nd ref="99946281"/>
    <nd ref="469065349"/>
    <tag k="highway" v="residential"/>
    <tag k="name" v="Carrajong Street"/>
  </way>
  <way id="11251598" version="4" timestamp="2010-07-09T05:04:52Z" uid="74617" user="JohnSmith" changeset="5170986">
    <nd ref="99945794"/>
    <nd ref="99946106"/>
    <nd ref="99946108"/>
    <nd ref="99946109"/>
    <nd ref="587865452"/>
    <tag k="highway" v="residential"/>
    <tag k="maxspeed" v="50"/>
    <tag k="maxspeed:source" v="default residential speed limit in Australia"/>
    <tag k="name" v="Abelia Street"/>
  </way>
  <way id="11251598" version="5" timestamp="2012-01-15T10:40:13Z" uid="147510" user="woodpeck_fixbot" changeset="10396281">
    <nd ref="99945794"/>
    <nd ref="99946106"/>
    <nd ref="99946108"/>
    <nd ref="99946109"/>
    <nd ref="587865452"/>
    <tag k="highway" v="residential"/>
    <tag k="name" v="Abelia Street"/>
  </way>
  <way id="11251626" version="3" timestamp="2010-07-09T05:15:07Z" uid="74617" user="JohnSmith" changeset="5170986">
    <nd ref="99946108"/>
    <nd ref="99946185"/>
    <tag k="highway" v="residential"/>
    <tag k="maxspeed" v="50"/>
    <tag k="maxspeed:source" v="default residential speed limit in Australia"/>
    <tag k="name" v="Lantana Street"/>
  </way>
  <way id="11251626" version="4" timestamp="2010-07-09T05:21:57Z" uid="74617" user="JohnSmith" changeset="5170972">
    <nd ref="99946108"/>
    <nd ref="99946185"/>
    <tag k="highway" v="residential"/>
    <tag k="maxspeed" v="50"/>
    <tag k="maxspeed:source" v="default residential speed limit in Australia"/>
    <tag k="name" v="Lantana Street"/>
  </way>
  <way id="11251626" version="5" timestamp="2012-01-15T10:40:14Z" uid="147510" user="woodpeck_fixbot" changeset="10396281">
    <nd ref="99946108"/>
    <nd ref="99946185"/>
    <tag k="highway" v="residential"/>
    <tag k="name" v="Lantana Street"/>
  </way>
  <way id="11251642" version="4" timestamp="2010-07-09T05:06:57Z" uid="74617" user="JohnSmith" changeset="5170986">
    <nd ref="99946238"/>
    <nd ref="99946278"/>
    <tag k="highway" v="residential"/>
    <tag k="maxspeed" v="50"/>
    <tag k="maxspeed:source" v="default residential speed limit in Australia"/>
    <tag k="name" v="Correa Court"/>
  </way>
  <way id="11251642" version="5" timestamp="2012-01-15T10:40:15Z" uid="147510" user="woodpeck_fixbot" changeset="10396281">
    <nd ref="99946238"/>
    <nd ref="99946278"/>
    <tag k="highway" v="residential"/>
    <tag k="name" v="Correa Court"/>
  </way>
  <way id="11251661" version="4" timestamp="2010-07-09T05:01:59Z" uid="74617" user="JohnSmith" changeset="5170986">
    <nd ref="99946281"/>
    <nd ref="99946361"/>
    <nd ref="99946362"/>
    <nd ref="99946364"/>
    <nd ref="99946365"/>
    <nd ref="99946366"/>
    <nd ref="99946367"/>
    <nd ref="99946368"/>
    <nd ref="99946369"/>
    <nd ref="99946370"/>
    <nd ref="99946371"/>
    <nd ref="99946372"/>
    <nd ref="99946373"/>
    <nd ref="99937292"/>
    <tag k="highway" v="residential"/>
    <tag k="maxspeed" v="50"/>
    <tag k="maxspeed:source" v="default residential speed limit in Australia"/>
    <tag k="name" v="Snow Gum Road"/>
  </way>
  <way id="11251661" version="5" timestamp="2011-02-27T10:17:07Z" uid="4467" user="Rosscoe" changeset="7408633">
    <nd ref="99946281"/>
    <nd ref="99946361"/>
    <nd ref="99946362"/>
    <nd ref="99946364"/>
    <nd ref="99946365"/>
    <nd ref="99946366"/>
    <nd ref="99946367"/>
    <nd ref="99946368"/>
    <nd ref="99946369"/>
    <nd ref="99946370"/>
    <nd ref="99946371"/>
    <nd ref="99946372"/>
    <nd ref="99946373"/>
    <nd ref="1176878906"/>
    <tag k="highway" v="residential"/>
    <tag k="maxspeed" v="50"/>
    <tag k="maxspeed:source" v="default residential speed limit in Australia"/>
    <tag k="name" v="Snow Gum Road"/>
  </way>
  <way id="11251661" version="6" timestamp="2012-01-15T10:40:16Z" uid="147510" user="woodpeck_fixbot" changeset="10396281">
    <nd ref="99946281"/>
    <nd ref="99946361"/>
    <nd ref="99946362"/>
    <nd ref="99946364"/>
    <nd ref="99946365"/>
    <nd ref="99946366"/>
    <nd ref="99946367"/>
    <nd ref="99946368"/>
    <nd ref="99946369"/>
    <nd ref="99946370"/>
    <nd ref="99946371"/>
    <nd ref="99946372"/>
    <nd ref="99946373"/>
    <nd ref="1176878906"/>
    <tag k="highway" v="residential"/>
    <tag k="name" v="Snow Gum Road"/>
  </way>
  <way id="11251671" version="4" timestamp="2010-07-09T05:06:11Z" uid="74617" user="JohnSmith" changeset="5170986">
    <nd ref="99946372"/>
    <nd ref="99946416"/>
    <nd ref="99946417"/>
    <nd ref="99946418"/>
    <nd ref="99946419"/>
    <tag k="highway" v="residential"/>
    <tag k="maxspeed" v="50"/>
    <tag k="maxspeed:source" v="default residential speed limit in Australia"/>
    <tag k="name" v="Sanders Road"/>
  </way>
  <way id="11251671" version="5" timestamp="2012-01-15T10:40:18Z" uid="147510" user="woodpeck_fixbot" changeset="10396281">
    <nd ref="99946372"/>
    <nd ref="99946416"/>
    <nd ref="99946417"/>
    <nd ref="99946418"/>
    <nd ref="99946419"/>
    <tag k="highway" v="residential"/>
    <tag k="name" v="Sanders Road"/>
  </way>
  <way id="11251692" version="7" timestamp="2010-07-09T05:01:52Z" uid="74617" user="JohnSmith" changeset="5170986">
    <nd ref="99946418"/>
    <nd ref="99946511"/>
    <nd ref="99946512"/>
    <nd ref="99946670"/>
    <nd ref="99946513"/>
    <nd ref="99946514"/>
    <nd ref="99946515"/>
    <nd ref="99946516"/>
    <tag k="highway" v="residential"/>
    <tag k="maxspeed" v="50"/>
    <tag k="maxspeed:source" v="default residential speed limit in Australia"/>
    <tag k="name" v="Sabason Court"/>
  </way>
  <way id="11251692" version="8" timestamp="2012-01-15T10:40:20Z" uid="147510" user="woodpeck_fixbot" changeset="10396281">
    <nd ref="99946418"/>
    <nd ref="99946511"/>
    <nd ref="99946512"/>
    <nd ref="99946670"/>
    <nd ref="99946513"/>
    <nd ref="99946514"/>
    <nd ref="99946515"/>
    <nd ref="99946516"/>
    <tag k="highway" v="residential"/>
    <tag k="name" v="Sabason Court"/>
  </way>
  <way id="11251713" version="5" timestamp="2010-07-09T05:01:21Z" uid="74617" user="JohnSmith" changeset="5170986">
    <nd ref="99946669"/>
    <nd ref="99946670"/>
    <tag k="highway" v="residential"/>
    <tag k="maxspeed" v="50"/>
    <tag k="maxspeed:source" v="default residential speed limit in Australia"/>
    <tag k="name" v="Pajo Court"/>
  </way>
  <way id="11251713" version="6" timestamp="2012-01-15T10:40:22Z" uid="147510" user="woodpeck_fixbot" changeset="10396281">
    <nd ref="99946669"/>
    <nd ref="99946670"/>
    <tag k="highway" v="residential"/>
    <tag k="name" v="Pajo Court"/>
  </way>
  <way id="11251738" version="6" timestamp="2010-07-09T05:01:57Z" uid="74617" user="JohnSmith" changeset="5170986">
    <nd ref="99946830"/>
    <nd ref="685047948"/>
    <nd ref="99946831"/>
    <nd ref="99946832"/>
    <nd ref="99946834"/>
    <nd ref="99946835"/>
    <tag k="highway" v="residential"/>
    <tag k="maxspeed" v="50"/>
    <tag k="maxspeed:source" v="default residential speed limit in Australia"/>
    <tag k="name" v="Burge Court"/>
  </way>
  <way id="11251738" version="7" timestamp="2012-01-15T10:40:23Z" uid="147510" user="woodpeck_fixbot" changeset="10396281">
    <nd ref="99946830"/>
    <nd ref="685047948"/>
    <nd ref="99946831"/>
    <nd ref="99946832"/>
    <nd ref="99946834"/>
    <nd ref="99946835"/>
    <tag k="highway" v="residential"/>
    <tag k="name" v="Burge Court"/>
  </way>
  <way id="11251798" version="6" timestamp="2010-07-09T05:01:23Z" uid="74617" user="JohnSmith" changeset="5170986">
    <nd ref="99947116"/>
    <nd ref="99947117"/>
    <tag k="highway" v="residential"/>
    <tag k="maxspeed" v="50"/>
    <tag k="maxspeed:source" v="default residential speed limit in Australia"/>
    <tag k="name" v="Vistaway Court"/>
  </way>
  <way id="11251798" version="7" timestamp="2012-01-15T10:40:24Z" uid="147510" user="woodpeck_fixbot" changeset="10396281">
    <nd ref="99947116"/>
    <nd ref="99947117"/>
    <tag k="highway" v="residential"/>
    <tag k="name" v="Vistaway Court"/>
  </way>
  <way id="11251842" version="5" timestamp="2010-07-09T05:07:07Z" uid="74617" user="JohnSmith" changeset="5170986">
    <nd ref="99947417"/>
    <nd ref="99947418"/>
    <tag k="highway" v="residential"/>
    <tag k="maxspeed" v="50"/>
    <tag k="maxspeed:source" v="default residential speed limit in Australia"/>
    <tag k="name" v="Michellan Court"/>
  </way>
  <way id="11251842" version="6" timestamp="2012-01-15T10:40:26Z" uid="147510" user="woodpeck_fixbot" changeset="10396281">
    <nd ref="99947417"/>
    <nd ref="99947418"/>
    <tag k="highway" v="residential"/>
    <tag k="name" v="Michellan Court"/>
  </way>
</osm>
