<?xml version='1.0' encoding='UTF-8'?>
<osm version="0.6" generator="libosmium/2.20.0">
  <way id="112662074" version="1" timestamp="2011-05-11T08:33:04Z" uid="74617" user="JohnSmith" changeset="8109925">
    <nd ref="181818808"/>
    <nd ref="1280108436"/>
    <tag k="highway" v="residential"/>
    <tag k="maxspeed" v="50"/>
    <tag k="maxspeed:source" v="default residential speed limit in Australia"/>
    <tag k="name" v="Rawson Avenue"/>
    <tag k="source" v="survey"/>
  </way>
  <way id="112662075" version="1" timestamp="2011-05-11T08:33:04Z" uid="74617" user="JohnSmith" changeset="8109925">
    <nd ref="181818809"/>
    <nd ref="181818812"/>
    <nd ref="1087955112"/>
    <nd ref="181818814"/>
    <nd ref="181819744"/>
    <nd ref="181818815"/>
    <nd ref="1087955006"/>
    <nd ref="1087954791"/>
    <nd ref="1087954967"/>
    <nd ref="1087954900"/>
    <tag k="highway" v="residential"/>
    <tag k="maxspeed" v="50"/>
    <tag k="maxspeed:source" v="default residential speed limit in Australia"/>
    <tag k="name" v="Rawson Avenue"/>
    <tag k="source" v="survey"/>
  </way>
  <way id="112662075" version="2" timestamp="2011-06-13T06:32:44Z" uid="175661" user="tbthomas" changeset="8422218">
    <nd ref="181818809"/>
    <nd ref="1323215874"/>
    <nd ref="181818812"/>
    <nd ref="1087955112"/>
    <nd ref="181818814"/>
    <nd ref="181819744"/>
    <nd ref="181818815"/>
    <nd ref="1087955006"/>
    <nd ref="1087954791"/>
    <nd ref="1087954967"/>
    <nd ref="1087954900"/>
    <tag k="highway" v="residential"/>
    <tag k="maxspeed" v="50"/>
    <tag k="maxspeed:source" v="default residential speed limit in Australia"/>
    <tag k="name" v="Rawson Avenue"/>
    <tag k="source" v="survey"/>
  </way>
  <way id="112662075" version="3" timestamp="2011-11-22T11:34:50Z" uid="338866" user="tiger" changeset="9907871">
    <nd ref="181818809"/>
    <nd ref="1323215877"/>
    <nd ref="1323215878"/>
    <nd ref="1323215872"/>
    <nd ref="181818812"/>
    <nd ref="1087955112"/>
    <nd ref="181818814"/>
    <nd ref="181819744"/>
    <nd ref="181818815"/>
    <nd ref="1087955006"/>
    <nd ref="1087954791"/>
    <nd ref="1087954967"/>
    <nd ref="1087954900"/>
    <tag k="highway" v="residential"/>
    <tag k="maxspeed" v="50"/>
    <tag k="maxspeed:source" v="default residential speed limit in Australia"/>
    <tag k="name" v="Rawson Avenue"/>
    <tag k="source" v="survey"/>
  </way>
  <way id="112662075" version="4" timestamp="2012-01-09T12:21:22Z" uid="67896" user="mrpulley" changeset="10341244">
    <nd ref="181818809"/>
    <nd ref="1323215877"/>
    <nd ref="1323215878"/>
    <nd ref="1323215872"/>
    <nd ref="181818812"/>
    <nd ref="1087955112"/>
    <nd ref="181818814"/>
    <nd ref="181819744"/>
    <nd ref="181818815"/>
    <nd ref="1087955006"/>
    <nd ref="1087954791"/>
    <nd ref="1087954967"/>
    <nd ref="1087954900"/>
    <tag k="highway" v="residential"/>
    <tag k="maxspeed" v="50"/>
    <tag k="name" v="Rawson Avenue"/>
    <tag k="source" v="survey"/>
    <tag k="source:maxspeed" v="survey"/>
  </way>
  <way id="112662175" version="1" timestamp="2011-05-11T08:35:59Z" uid="74617" user="JohnSmith" changeset="8109943">
    <nd ref="1280109021"/>
    <nd ref="1280109022"/>
    <tag k="access" v="private"/>
    <tag k="highway" v="service"/>
    <tag k="source" v="Bing"/>
  </way>
  <way id="112662381" version="1" timestamp="2011-05-11T08:41:08Z" uid="74617" user="JohnSmith" changeset="8109975">
    <nd ref="1280110428"/>
    <nd ref="1280110431"/>
    <nd ref="1280110417"/>
    <nd ref="1280110421"/>
    <nd ref="1280110424"/>
    <nd ref="1280110427"/>
    <nd ref="1280014449"/>
    <nd ref="1280014446"/>
    <nd ref="1280014463"/>
    <nd ref="1280014464"/>
    <nd ref="843092595"/>
    <tag k="highway" v="service"/>
    <tag k="source" v="bing"/>
  </way>
  <way id="112662383" version="1" timestamp="2011-05-11T08:41:08Z" uid="74617" user="JohnSmith" changeset="8109975">
    <nd ref="1280110419"/>
    <nd ref="1280110432"/>
    <nd ref="1280110429"/>
    <tag k="access" v="private"/>
    <tag k="highway" v="service"/>
    <tag k="source" v="Bing"/>
  </way>
  <way id="112662384" version="1" timestamp="2011-05-11T08:41:08Z" uid="74617" user="JohnSmith" changeset="8109975">
    <nd ref="843092621"/>
    <nd ref="1280110433"/>
    <nd ref="1280110430"/>
    <tag k="access" v="private"/>
    <tag k="highway" v="service"/>
    <tag k="source" v="Bing"/>
  </way>
  <way id="112662459" version="1" timestamp="2011-05-11T08:42:41Z" uid="74617" user="JohnSmith" changeset="8109987">
    <nd ref="1280111072"/>
    <nd ref="1280111073"/>
    <tag k="barrier" v="fence"/>
    <tag k="source" v="bing"/>
  </way>
  <way id="112662695" version="1" timestamp="2011-05-11T08:49:49Z" uid="74617" user="JohnSmith" changeset="8110041">
    <nd ref="1280112973"/>
    <nd ref="1280112956"/>
    <nd ref="1280112955"/>
    <nd ref="1280112960"/>
    <nd ref="621846250"/>
    <nd ref="1280112971"/>
    <nd ref="621846252"/>
    <nd ref="621846254"/>
    <nd ref="621846257"/>
    <nd ref="621846259"/>
    <nd ref="621846262"/>
    <tag k="highway" v="residential"/>
    <tag k="maxspeed" v="50"/>
    <tag k="maxspeed:source" v="default residential speed limit in Australia"/>
    <tag k="name" v="Mullumbimby Close"/>
    <tag k="source" v="survey"/>
    <tag k="surface" v="asphalt"/>
  </way>
  <way id="112662696" version="1" timestamp="2011-05-11T08:49:49Z" uid="74617" user="JohnSmith" changeset="8110041">
    <nd ref="313310615"/>
    <nd ref="1127707482"/>
    <nd ref="313310616"/>
    <nd ref="1127707400"/>
    <nd ref="1127707490"/>
    <nd ref="1127707381"/>
    <nd ref="1127707395"/>
    <nd ref="1127707398"/>
    <nd ref="1127707399"/>
    <nd ref="1127707452"/>
    <nd ref="1127707485"/>
    <nd ref="1280112964"/>
    <nd ref="1280112957"/>
    <nd ref="1280112975"/>
    <tag k="highway" v="trunk"/>
    <tag k="maxspeed" v="60"/>
    <tag k="name" v="Goonoo Goonoo Road"/>
    <tag k="oneway" v="yes"/>
  </way>
  <way id="112662696" version="2" timestamp="2012-01-08T05:08:24Z" uid="67896" user="mrpulley" changeset="10328121">
    <nd ref="313310615"/>
    <nd ref="1127707482"/>
    <nd ref="313310616"/>
    <nd ref="1127707400"/>
    <nd ref="1127707490"/>
    <nd ref="1127707381"/>
    <nd ref="1127707395"/>
    <nd ref="1127707398"/>
    <nd ref="1127707399"/>
    <nd ref="1127707452"/>
    <nd ref="1127707485"/>
    <nd ref="1280112964"/>
    <nd ref="1280112957"/>
    <nd ref="1280112975"/>
    <tag k="alt_name" v="New England Highway"/>
    <tag k="highway" v="trunk"/>
    <tag k="maxspeed" v="60"/>
    <tag k="name" v="Goonoo Goonoo Road"/>
    <tag k="oneway" v="yes"/>
    <tag k="ref" v="NH15"/>
    <tag k="surface" v="asphalt"/>
  </way>
  <way id="112662697" version="1" timestamp="2011-05-11T08:49:49Z" uid="74617" user="JohnSmith" changeset="8110041">
    <nd ref="313310615"/>
    <nd ref="1280112966"/>
    <nd ref="621813164"/>
    <tag k="highway" v="trunk"/>
    <tag k="maxspeed" v="60"/>
    <tag k="name" v="Goonoo Goonoo Road"/>
  </way>
  <way id="112662697" version="2" timestamp="2011-05-12T08:11:43Z" uid="74617" user="JohnSmith" changeset="8119528">
    <nd ref="313310615"/>
    <nd ref="1281197876"/>
    <nd ref="1281197874"/>
    <nd ref="1280112966"/>
    <nd ref="621813164"/>
    <tag k="highway" v="trunk"/>
    <tag k="maxspeed" v="60"/>
    <tag k="name" v="Goonoo Goonoo Road"/>
  </way>
  <way id="112662697" version="3" timestamp="2012-01-08T05:08:27Z" uid="67896" user="mrpulley" changeset="10328121">
    <nd ref="313310615"/>
    <nd ref="1281197876"/>
    <nd ref="1281197874"/>
    <nd ref="1280112966"/>
    <nd ref="621813164"/>
    <tag k="alt_name" v="New England Highway"/>
    <tag k="highway" v="trunk"/>
    <tag k="maxspeed" v="60"/>
    <tag k="name" v="Goonoo Goonoo Road"/>
    <tag k="ref" v="NH15"/>
    <tag k="surface" v="asphalt"/>
  </way>
  <way id="112662697" version="4" timestamp="2012-02-11T04:10:20Z" uid="20949" user="Ebenezer" changeset="10649391">
    <nd ref="313310615"/>
    <nd ref="1280112966"/>
    <nd ref="621813164"/>
    <tag k="alt_name" v="New England Highway"/>
    <tag k="highway" v="trunk"/>
    <tag k="maxspeed" v="60"/>
    <tag k="name" v="Goonoo Goonoo Road"/>
    <tag k="ref" v="NH15"/>
    <tag k="surface" v="asphalt"/>
  </way>
  <way id="112662884" version="1" timestamp="2011-05-11T08:52:10Z" uid="74617" user="JohnSmith" changeset="8110055">
    <nd ref="1280114214"/>
    <nd ref="1280114216"/>
    <nd ref="1280114215"/>
    <nd ref="1280114211"/>
    <nd ref="1280114210"/>
    <nd ref="1280114208"/>
    <nd ref="1280114207"/>
    <nd ref="1280114213"/>
    <nd ref="1280114212"/>
    <nd ref="1280114209"/>
    <nd ref="1280114214"/>
    <tag k="power" v="sub_station"/>
    <tag k="source" v="bing"/>
  </way>
</osm>
