<?xml version='1.0' encoding='UTF-8'?>
<osm version="0.6" generator="libosmium/2.20.0">
  <way id="112779542" version="1" timestamp="2011-05-12T08:03:48Z" uid="74617" user="JohnSmith" changeset="8119471">
    <nd ref="1281191327"/>
    <nd ref="1281191292"/>
    <nd ref="1281191373"/>
    <nd ref="1281191339"/>
    <nd ref="1281191365"/>
    <tag k="highway" v="service"/>
    <tag k="source" v="bing"/>
    <tag k="surface" v="dirt"/>
  </way>
  <way id="112779543" version="1" timestamp="2011-05-12T08:03:48Z" uid="74617" user="JohnSmith" changeset="8119471">
    <nd ref="1281191335"/>
    <nd ref="1281191301"/>
    <nd ref="1281191381"/>
    <tag k="highway" v="service"/>
    <tag k="source" v="bing"/>
    <tag k="surface" v="dirt"/>
  </way>
  <way id="112779544" version="1" timestamp="2011-05-12T08:03:48Z" uid="74617" user="JohnSmith" changeset="8119471">
    <nd ref="382978933"/>
    <nd ref="1281191337"/>
    <nd ref="1281191303"/>
    <nd ref="1281191382"/>
    <tag k="access" v="private"/>
    <tag k="highway" v="service"/>
    <tag k="source" v="bing"/>
  </way>
  <way id="112779545" version="1" timestamp="2011-05-12T08:03:48Z" uid="74617" user="JohnSmith" changeset="8119471">
    <nd ref="313309531"/>
    <nd ref="383010377"/>
    <nd ref="35297463"/>
    <nd ref="621813187"/>
    <nd ref="383008053"/>
    <nd ref="313309532"/>
    <tag k="highway" v="trunk"/>
    <tag k="name" v="Scott Road"/>
  </way>
  <way id="112779545" version="2" timestamp="2011-11-22T11:28:11Z" uid="338866" user="tiger" changeset="9907841">
    <nd ref="313309531"/>
    <nd ref="383010377"/>
    <nd ref="35297463"/>
    <nd ref="621813187"/>
    <nd ref="383008053"/>
    <nd ref="1512612810"/>
    <nd ref="313309532"/>
    <tag k="highway" v="trunk"/>
    <tag k="name" v="Scott Road"/>
  </way>
  <way id="112779545" version="3" timestamp="2012-01-08T05:11:13Z" uid="67896" user="mrpulley" changeset="10328121">
    <nd ref="313309531"/>
    <nd ref="383010377"/>
    <nd ref="35297463"/>
    <nd ref="621813187"/>
    <nd ref="383008053"/>
    <nd ref="1512612810"/>
    <nd ref="313309532"/>
    <tag k="alt_name" v="New England Highway"/>
    <tag k="highway" v="trunk"/>
    <tag k="name" v="Scott Road"/>
    <tag k="ref" v="NH15"/>
    <tag k="surface" v="asphalt"/>
  </way>
  <way id="112779545" version="4" timestamp="2012-01-09T12:21:27Z" uid="67896" user="mrpulley" changeset="10341244">
    <nd ref="313309531"/>
    <nd ref="383010377"/>
    <nd ref="35297463"/>
    <nd ref="621813187"/>
    <nd ref="383008053"/>
    <nd ref="1512612810"/>
    <nd ref="313309532"/>
    <tag k="alt_name" v="New England Highway"/>
    <tag k="highway" v="trunk"/>
    <tag k="maxspeed" v="60"/>
    <tag k="name" v="Scott Road"/>
    <tag k="ref" v="NH15"/>
    <tag k="source:maxspeed" v="sign"/>
    <tag k="surface" v="asphalt"/>
  </way>
  <way id="112779546" version="1" timestamp="2011-05-12T08:03:49Z" uid="74617" user="JohnSmith" changeset="8119471">
    <nd ref="383018492"/>
    <nd ref="383019198"/>
    <tag k="highway" v="service"/>
    <tag k="source" v="bing"/>
    <tag k="surface" v="dirt"/>
  </way>
  <way id="112779547" version="1" timestamp="2011-05-12T08:03:49Z" uid="74617" user="JohnSmith" changeset="8119471">
    <nd ref="383019548"/>
    <nd ref="1281191344"/>
    <tag k="highway" v="service"/>
    <tag k="source" v="bing"/>
    <tag k="surface" v="dirt"/>
  </way>
  <way id="112779548" version="1" timestamp="2011-05-12T08:03:49Z" uid="74617" user="JohnSmith" changeset="8119471">
    <nd ref="1281191356"/>
    <nd ref="1281191339"/>
    <nd ref="1281191322"/>
    <tag k="highway" v="service"/>
    <tag k="source" v="bing"/>
    <tag k="surface" v="dirt"/>
  </way>
</osm>
