<?xml version='1.0' encoding='UTF-8'?>
<osm version="0.6" generator="libosmium/2.20.0">
  <way id="11290028" version="1" timestamp="2007-11-06T20:26:47Z" uid="8619" user="cetest" changeset="423773">
    <nd ref="30407720"/>
    <nd ref="44777272"/>
    <tag k="created_by" v="JOSM"/>
    <tag k="highway" v="footway"/>
    <tag k="name" v="Staringpad"/>
  </way>
  <way id="11290028" version="2" timestamp="2011-12-09T16:51:05Z" uid="221961" user="gvb" changeset="10074364">
    <nd ref="30407720"/>
    <nd ref="44777272"/>
    <tag k="highway" v="pedestrian"/>
    <tag k="name" v="Staringpad"/>
  </way>
  <way id="11290028" version="3" timestamp="2011-12-30T21:30:52Z" uid="476789" user="CeesW" changeset="10249915"/>
  <way id="11290287" version="2" timestamp="2009-02-23T12:28:58Z" uid="34428" user="usm78-gis" changeset="634299"/>
  <way id="11290380" version="7" timestamp="2010-08-25T07:47:54Z" uid="33382" user="de_muur" changeset="5586902">
    <nd ref="93745410"/>
    <nd ref="93745352"/>
    <nd ref="100318222"/>
    <nd ref="100318227"/>
    <nd ref="100318231"/>
    <nd ref="100318233"/>
    <nd ref="100318241"/>
    <nd ref="100318248"/>
    <nd ref="100318256"/>
    <nd ref="100318270"/>
    <nd ref="100318276"/>
    <nd ref="100318280"/>
    <nd ref="100318288"/>
    <nd ref="100318291"/>
    <nd ref="878406251"/>
    <tag k="highway" v="tertiary"/>
    <tag k="name" v="Lasbeker Straße"/>
    <tag k="ref" v="K 12"/>
    <tag k="surface" v="paved"/>
  </way>
  <way id="11290380" version="8" timestamp="2012-03-14T19:28:16Z" uid="63107" user="brogo" changeset="10981264">
    <nd ref="1674865099"/>
    <nd ref="93745352"/>
    <nd ref="100318222"/>
    <nd ref="100318227"/>
    <nd ref="100318231"/>
    <nd ref="100318233"/>
    <nd ref="100318241"/>
    <nd ref="100318248"/>
    <nd ref="100318256"/>
    <nd ref="100318270"/>
    <nd ref="100318276"/>
    <nd ref="100318280"/>
    <nd ref="100318288"/>
    <nd ref="100318291"/>
    <nd ref="878406251"/>
    <tag k="highway" v="tertiary"/>
    <tag k="name" v="Lasbeker Straße"/>
    <tag k="ref" v="K 12"/>
    <tag k="surface" v="paved"/>
  </way>
  <way id="11290380" version="9" timestamp="2012-03-25T23:14:25Z" uid="423438" user="streele" changeset="11100961">
    <nd ref="1674865099"/>
    <nd ref="93745352"/>
    <nd ref="100318222"/>
    <nd ref="100318227"/>
    <nd ref="100318231"/>
    <nd ref="100318233"/>
    <nd ref="100318241"/>
    <nd ref="100318248"/>
    <nd ref="100318256"/>
    <nd ref="100318270"/>
    <nd ref="100318276"/>
    <nd ref="100318280"/>
    <nd ref="100318288"/>
    <nd ref="100318291"/>
    <nd ref="878406251"/>
    <tag k="highway" v="tertiary"/>
    <tag k="name" v="Lasbeker Straße"/>
    <tag k="ref" v="K 12"/>
    <tag k="surface" v="paved"/>
  </way>
  <way id="11290380" version="10" timestamp="2012-03-25T23:17:08Z" uid="423438" user="streele" changeset="11100983">
    <nd ref="1674865099"/>
    <nd ref="93745352"/>
    <nd ref="100318222"/>
    <nd ref="100318227"/>
    <nd ref="100318231"/>
    <nd ref="100318233"/>
    <nd ref="100318241"/>
    <nd ref="100318248"/>
    <nd ref="100318256"/>
    <nd ref="100318270"/>
    <nd ref="100318276"/>
    <nd ref="100318280"/>
    <nd ref="100318288"/>
    <nd ref="100318291"/>
    <nd ref="1691270835"/>
    <nd ref="878406251"/>
    <tag k="highway" v="tertiary"/>
    <tag k="name" v="Lasbeker Straße"/>
    <tag k="ref" v="K 12"/>
    <tag k="surface" v="paved"/>
  </way>
  <way id="11290381" version="7" timestamp="2010-08-25T07:47:55Z" uid="33382" user="de_muur" changeset="5586902">
    <nd ref="100318344"/>
    <nd ref="100318351"/>
    <nd ref="100318361"/>
    <nd ref="100318372"/>
    <nd ref="336258955"/>
    <tag k="highway" v="tertiary"/>
    <tag k="maxspeed" v="50"/>
    <tag k="name" v="Lasbeker Straße"/>
    <tag k="ref" v="K 12"/>
    <tag k="surface" v="paved"/>
  </way>
  <way id="11290381" version="8" timestamp="2011-06-09T20:41:27Z" uid="140308" user="hroradler" changeset="8392153">
    <nd ref="100318344"/>
    <nd ref="1317756743"/>
    <nd ref="1317756755"/>
    <nd ref="100318351"/>
    <nd ref="100318361"/>
    <nd ref="100318372"/>
    <nd ref="336258955"/>
    <tag k="highway" v="tertiary"/>
    <tag k="maxspeed" v="50"/>
    <tag k="name" v="Lasbeker Straße"/>
    <tag k="ref" v="K 12"/>
    <tag k="surface" v="paved"/>
  </way>
  <way id="11290381" version="9" timestamp="2012-03-25T23:53:35Z" uid="423438" user="streele" changeset="11101162">
    <nd ref="100318344"/>
    <nd ref="1317756743"/>
    <nd ref="1317756755"/>
    <nd ref="100318351"/>
    <nd ref="100318361"/>
    <nd ref="100318372"/>
    <nd ref="336258955"/>
    <tag k="highway" v="tertiary"/>
    <tag k="maxspeed" v="50"/>
    <tag k="name" v="Lasbeker Straße"/>
    <tag k="ref" v="K 12"/>
    <tag k="surface" v="paved"/>
  </way>
  <way id="11290670" version="1" timestamp="2007-11-06T20:36:47Z" uid="8619" user="cetest" changeset="423773">
    <nd ref="30929538"/>
    <nd ref="100323725"/>
    <tag k="created_by" v="Potlatch alpha"/>
    <tag k="highway" v="cycleway"/>
    <tag k="lanes" v="1"/>
    <tag k="layer" v="-1"/>
    <tag k="name" v="Abtswoudsepad"/>
    <tag k="oneway" v="no"/>
    <tag k="surface" v="paved"/>
    <tag k="tunnel" v="true"/>
    <tag k="width" v="8"/>
  </way>
  <way id="11290670" version="2" timestamp="2008-11-14T13:55:02Z" uid="67958" user="West Erop" changeset="747053">
    <nd ref="30929538"/>
    <nd ref="311977068"/>
    <nd ref="100323725"/>
    <tag k="created_by" v="Potlatch 0.10f"/>
    <tag k="highway" v="cycleway"/>
    <tag k="lanes" v="1"/>
    <tag k="layer" v="-1"/>
    <tag k="name" v="Abtswoudsepad"/>
    <tag k="oneway" v="no"/>
    <tag k="surface" v="paved"/>
    <tag k="tunnel" v="true"/>
    <tag k="width" v="8"/>
  </way>
  <way id="11290670" version="3" timestamp="2009-04-26T18:45:25Z" uid="8619" user="cetest" changeset="979132">
    <nd ref="30929538"/>
    <nd ref="311977068"/>
    <tag k="created_by" v="Potlatch 0.10f"/>
    <tag k="highway" v="cycleway"/>
    <tag k="lanes" v="1"/>
    <tag k="layer" v="0"/>
    <tag k="name" v="Abtswoudsepad"/>
    <tag k="oneway" v="no"/>
    <tag k="surface" v="paved"/>
    <tag k="tunnel" v="no"/>
    <tag k="width" v="8"/>
  </way>
  <way id="11290670" version="4" timestamp="2009-09-01T21:37:49Z" uid="105512" user="datalogg" changeset="2343400"/>
  <way id="11290671" version="1" timestamp="2007-11-06T20:36:47Z" uid="8619" user="cetest" changeset="423773">
    <nd ref="100323725"/>
    <nd ref="30578197"/>
    <tag k="created_by" v="Potlatch alpha"/>
    <tag k="highway" v="cycleway"/>
    <tag k="name" v="Abtswoudsepad"/>
    <tag k="oneway" v="no"/>
  </way>
  <way id="11290671" version="2" timestamp="2010-12-16T19:50:33Z" uid="2050" user="Wilko Quak" changeset="6680626"/>
</osm>
