<?xml version='1.0' encoding='UTF-8'?>
<osm version="0.6" generator="libosmium/2.20.0">
  <way id="11317938" version="11" timestamp="2010-07-09T05:03:27Z" uid="74617" user="JohnSmith" changeset="5170986">
    <nd ref="100686610"/>
    <nd ref="595869334"/>
    <nd ref="595869330"/>
    <nd ref="100691090"/>
    <nd ref="595869331"/>
    <nd ref="100686661"/>
    <nd ref="595869332"/>
    <tag k="highway" v="unclassified"/>
    <tag k="maxspeed" v="50"/>
    <tag k="maxspeed:source" v="default residential speed limit in Australia"/>
    <tag k="name" v="Plaza Centre Way"/>
  </way>
  <way id="11317938" version="12" timestamp="2011-10-03T10:18:49Z" uid="206929" user="Supt_of_Printing" changeset="9458670">
    <nd ref="100686610"/>
    <nd ref="595869334"/>
    <nd ref="595869330"/>
    <nd ref="1453594754"/>
    <tag k="highway" v="unclassified"/>
    <tag k="maxspeed" v="50"/>
    <tag k="maxspeed:source" v="default residential speed limit in Australia"/>
    <tag k="name" v="Plaza Centre Way"/>
  </way>
  <way id="11317938" version="13" timestamp="2012-01-15T10:41:22Z" uid="147510" user="woodpeck_fixbot" changeset="10396281">
    <nd ref="100686610"/>
    <nd ref="595869334"/>
    <nd ref="595869330"/>
    <nd ref="1453594754"/>
    <tag k="highway" v="unclassified"/>
    <tag k="name" v="Plaza Centre Way"/>
  </way>
  <way id="11317943" version="7" timestamp="2010-07-09T05:02:57Z" uid="74617" user="JohnSmith" changeset="5170986">
    <nd ref="100686731"/>
    <nd ref="595878729"/>
    <nd ref="595878525"/>
    <nd ref="100686732"/>
    <nd ref="595878531"/>
    <nd ref="595869762"/>
    <tag k="highway" v="unclassified"/>
    <tag k="maxspeed" v="50"/>
    <tag k="maxspeed:source" v="default residential speed limit in Australia"/>
    <tag k="name" v="Adelaide Street"/>
  </way>
  <way id="11317943" version="8" timestamp="2012-01-15T10:41:23Z" uid="147510" user="woodpeck_fixbot" changeset="10396281">
    <nd ref="100686731"/>
    <nd ref="595878729"/>
    <nd ref="595878525"/>
    <nd ref="100686732"/>
    <nd ref="595878531"/>
    <nd ref="595869762"/>
    <tag k="highway" v="unclassified"/>
    <tag k="name" v="Adelaide Street"/>
  </way>
</osm>
