<?xml version='1.0' encoding='UTF-8'?>
<osm version="0.6" generator="libosmium/2.20.0">
  <way id="113247852" version="1" timestamp="2011-05-14T17:18:25Z" uid="33382" user="de_muur" changeset="8143346">
    <nd ref="267835761"/>
    <nd ref="267835965"/>
    <nd ref="267835728"/>
    <nd ref="267835929"/>
    <nd ref="267835922"/>
    <nd ref="267836151"/>
    <nd ref="30767899"/>
    <tag k="highway" v="tertiary"/>
    <tag k="name" v="Bergrader Weg"/>
    <tag k="ref" v="K 40"/>
    <tag k="surface" v="paved"/>
  </way>
  <way id="113247852" version="2" timestamp="2012-03-12T12:57:14Z" uid="63107" user="brogo" changeset="10954291">
    <nd ref="267835761"/>
    <nd ref="267835965"/>
    <nd ref="267835728"/>
    <nd ref="267835929"/>
    <nd ref="267835922"/>
    <nd ref="267836151"/>
    <nd ref="1671910021"/>
    <tag k="highway" v="tertiary"/>
    <tag k="name" v="Bergrader Weg"/>
    <tag k="ref" v="K 40"/>
    <tag k="surface" v="paved"/>
  </way>
  <way id="113247857" version="1" timestamp="2011-05-14T17:18:25Z" uid="33382" user="de_muur" changeset="8143346">
    <nd ref="1189814593"/>
    <nd ref="267835814"/>
    <nd ref="267835800"/>
    <nd ref="1189814677"/>
    <nd ref="267836019"/>
    <nd ref="267835784"/>
    <nd ref="267835989"/>
    <nd ref="267835761"/>
    <tag k="highway" v="tertiary"/>
    <tag k="name" v="Bergrader Weg"/>
    <tag k="ref" v="K 40"/>
    <tag k="surface" v="paved"/>
  </way>
  <way id="113247860" version="1" timestamp="2011-05-14T17:18:25Z" uid="33382" user="de_muur" changeset="8143346">
    <nd ref="267836117"/>
    <nd ref="267835893"/>
    <nd ref="267836146"/>
    <tag k="highway" v="tertiary"/>
    <tag k="maxspeed" v="50"/>
    <tag k="name" v="Bergrader Weg"/>
    <tag k="ref" v="K 40"/>
    <tag k="surface" v="paved"/>
  </way>
  <way id="113247862" version="1" timestamp="2011-05-14T17:18:25Z" uid="33382" user="de_muur" changeset="8143346">
    <nd ref="267836146"/>
    <nd ref="267835910"/>
    <nd ref="1189814563"/>
    <nd ref="267836161"/>
    <nd ref="267835714"/>
    <nd ref="267835951"/>
    <nd ref="267835736"/>
    <nd ref="267835976"/>
    <nd ref="267835768"/>
    <nd ref="267835994"/>
    <nd ref="267835846"/>
    <nd ref="267836095"/>
    <nd ref="1189814593"/>
    <tag k="highway" v="tertiary"/>
    <tag k="maxspeed" v="50"/>
    <tag k="name" v="Bergrader Weg"/>
    <tag k="ref" v="K 40"/>
    <tag k="surface" v="paved"/>
  </way>
  <way id="113247866" version="1" timestamp="2011-05-14T17:18:26Z" uid="33382" user="de_muur" changeset="8143346">
    <nd ref="1284839362"/>
    <nd ref="1284839323"/>
    <tag k="highway" v="track"/>
    <tag k="surface" v="paved"/>
    <tag k="tracktype" v="grade1"/>
  </way>
  <way id="113247868" version="1" timestamp="2011-05-14T17:18:26Z" uid="33382" user="de_muur" changeset="8143346">
    <nd ref="30767881"/>
    <nd ref="30767882"/>
    <nd ref="1189853158"/>
    <nd ref="30767883"/>
    <nd ref="30767885"/>
    <nd ref="30767887"/>
    <nd ref="30767889"/>
    <nd ref="30767890"/>
    <nd ref="30767892"/>
    <nd ref="30767894"/>
    <tag k="highway" v="secondary"/>
    <tag k="name" v="Duvenseer StraÃŸe"/>
    <tag k="ref" v="L 199"/>
    <tag k="surface" v="paved"/>
  </way>
  <way id="113247868" version="2" timestamp="2012-03-08T11:08:06Z" uid="63107" user="brogo" changeset="10908079"/>
  <way id="113247873" version="1" timestamp="2011-05-14T17:18:26Z" uid="33382" user="de_muur" changeset="8143346">
    <nd ref="267835761"/>
    <nd ref="1284839342"/>
    <nd ref="1284839346"/>
    <nd ref="1284839348"/>
    <nd ref="1284839350"/>
    <nd ref="1284839351"/>
    <nd ref="1284839354"/>
    <nd ref="1284839362"/>
    <tag k="highway" v="track"/>
    <tag k="surface" v="paved"/>
    <tag k="tracktype" v="grade1"/>
  </way>
  <way id="113247874" version="1" timestamp="2011-05-14T17:18:26Z" uid="33382" user="de_muur" changeset="8143346">
    <nd ref="1284839362"/>
    <nd ref="1284839368"/>
    <tag k="highway" v="track"/>
    <tag k="note" v="to be continued"/>
  </way>
</osm>
