<?xml version='1.0' encoding='UTF-8'?>
<osm version="0.6" generator="libosmium/2.20.0">
  <way id="11366062" version="5" timestamp="2008-12-17T10:36:29Z" uid="58091" user="Andreas M" changeset="447226">
    <nd ref="8091418"/>
    <nd ref="319483799"/>
    <nd ref="60737044"/>
    <tag k="created_by" v="Potlatch 0.4c"/>
    <tag k="highway" v="residential"/>
    <tag k="name" v="Josef Hindels-Gasse"/>
  </way>
  <way id="11366062" version="6" timestamp="2009-01-03T17:08:32Z" uid="58091" user="Andreas M" changeset="721411">
    <nd ref="325156475"/>
    <nd ref="8091418"/>
    <nd ref="319483799"/>
    <nd ref="60737044"/>
    <tag k="created_by" v="Potlatch 0.4c"/>
    <tag k="highway" v="residential"/>
    <tag k="name" v="Josef Hindels-Gasse"/>
  </way>
  <way id="11366062" version="7" timestamp="2011-03-10T18:31:44Z" uid="389867" user="guverneu" changeset="7516725">
    <nd ref="325156475"/>
    <nd ref="8091418"/>
    <nd ref="1195672774"/>
    <nd ref="319483799"/>
    <nd ref="60737044"/>
    <tag k="highway" v="residential"/>
    <tag k="name" v="Josef Hindels-Gasse"/>
  </way>
  <way id="11366062" version="8" timestamp="2011-08-13T10:50:55Z" uid="56501" user="Rudolf_H" changeset="9004265">
    <nd ref="325156475"/>
    <nd ref="8091418"/>
    <nd ref="1195672774"/>
    <nd ref="1396888431"/>
    <nd ref="319483799"/>
    <nd ref="1396888429"/>
    <nd ref="60737044"/>
    <tag k="highway" v="residential"/>
    <tag k="name" v="Josef Hindels-Gasse"/>
  </way>
  <way id="11366062" version="9" timestamp="2012-03-23T07:20:37Z" uid="26818" user="David &amp; Christine Schmitt" changeset="11070652">
    <nd ref="325156475"/>
    <nd ref="8091418"/>
    <nd ref="1195672774"/>
    <nd ref="319483799"/>
    <nd ref="1396888429"/>
    <nd ref="60737044"/>
    <tag k="highway" v="residential"/>
    <tag k="name" v="Josef Hindels-Gasse"/>
  </way>
  <way id="11366158" version="5" timestamp="2008-09-06T19:25:57Z" uid="58091" user="Andreas M" changeset="555001">
    <nd ref="61671044"/>
    <nd ref="60737043"/>
    <tag k="created_by" v="Potlatch 0.4c"/>
    <tag k="highway" v="unclassified"/>
    <tag k="name" v="Felix Braun-Gasse"/>
    <tag k="oneway" v="yes"/>
  </way>
  <way id="11366158" version="6" timestamp="2009-01-03T17:08:20Z" uid="58091" user="Andreas M" changeset="721411">
    <nd ref="325156467"/>
    <nd ref="61671044"/>
    <nd ref="60737043"/>
    <tag k="created_by" v="Potlatch 0.4c"/>
    <tag k="highway" v="unclassified"/>
    <tag k="name" v="Felix Braun-Gasse"/>
    <tag k="oneway" v="yes"/>
  </way>
  <way id="11366158" version="7" timestamp="2009-01-18T22:39:44Z" uid="92543" user="Gerhard Goeschl" changeset="813944">
    <nd ref="325156467"/>
    <nd ref="61671044"/>
    <nd ref="333305116"/>
    <nd ref="60737043"/>
    <tag k="created_by" v="Potlatch 0.10f"/>
    <tag k="highway" v="unclassified"/>
    <tag k="name" v="Felix Braun-Gasse"/>
    <tag k="oneway" v="yes"/>
  </way>
  <way id="11366158" version="8" timestamp="2009-12-29T21:49:00Z" uid="78656" user="Walter SchlÃ¶gl" changeset="3485629">
    <nd ref="325156467"/>
    <nd ref="61671044"/>
    <nd ref="333305116"/>
    <nd ref="60737043"/>
    <tag k="highway" v="residential"/>
    <tag k="name" v="Felix Braun-Gasse"/>
    <tag k="oneway" v="yes"/>
  </way>
</osm>
