<?xml version='1.0' encoding='UTF-8'?>
<osm version="0.6" generator="libosmium/2.20.0">
  <way id="11400065" version="9" timestamp="2008-12-14T15:15:30Z" uid="6975" user="ulfl" changeset="375714">
    <nd ref="2042853"/>
    <nd ref="31263545"/>
    <nd ref="31263546"/>
    <nd ref="279878615"/>
    <nd ref="31263544"/>
    <nd ref="31263543"/>
    <nd ref="31263542"/>
    <nd ref="31263554"/>
    <nd ref="280092507"/>
    <nd ref="269555647"/>
    <nd ref="280092414"/>
    <nd ref="31263541"/>
    <tag k="highway" v="primary"/>
    <tag k="name" v="Heinrich-Vogl-Straße"/>
    <tag k="oneway" v="yes"/>
    <tag k="ref" v="B 304"/>
  </way>
  <way id="11400065" version="10" timestamp="2008-12-24T22:14:16Z" uid="45769" user="dtbow" changeset="589833">
    <nd ref="2042853"/>
    <nd ref="31263545"/>
    <nd ref="31263546"/>
    <nd ref="279878615"/>
    <nd ref="31263544"/>
    <nd ref="31263543"/>
    <nd ref="31263542"/>
    <nd ref="31263554"/>
    <nd ref="269555647"/>
    <nd ref="280092414"/>
    <nd ref="31263541"/>
    <tag k="created_by" v="Potlatch 0.10f"/>
    <tag k="highway" v="primary"/>
    <tag k="name" v="Heinrich-Vogl-Straße"/>
    <tag k="oneway" v="yes"/>
    <tag k="ref" v="B 304"/>
  </way>
  <way id="11400065" version="11" timestamp="2008-12-24T22:14:21Z" uid="45769" user="dtbow" changeset="589833">
    <nd ref="2042853"/>
    <nd ref="31263545"/>
    <nd ref="31263546"/>
    <nd ref="279878615"/>
    <nd ref="31263544"/>
    <nd ref="31263543"/>
    <nd ref="31263542"/>
    <nd ref="31263554"/>
    <nd ref="269555647"/>
    <nd ref="280092414"/>
    <nd ref="31263541"/>
    <tag k="created_by" v="Potlatch 0.10f"/>
    <tag k="highway" v="primary"/>
    <tag k="name" v="Heinrich-Vogl-Straße"/>
    <tag k="oneway" v="yes"/>
    <tag k="ref" v="B 304"/>
  </way>
  <way id="11400065" version="12" timestamp="2008-12-24T22:14:54Z" uid="45769" user="dtbow" changeset="589833">
    <nd ref="2042853"/>
    <nd ref="31263545"/>
    <nd ref="31263546"/>
    <nd ref="279878615"/>
    <nd ref="31263544"/>
    <nd ref="31263543"/>
    <nd ref="31263542"/>
    <nd ref="31263554"/>
    <nd ref="269555647"/>
    <nd ref="280092414"/>
    <nd ref="31263541"/>
    <tag k="created_by" v="Potlatch 0.10f"/>
    <tag k="highway" v="primary"/>
    <tag k="name" v="Heinrich-Vogl-Straße"/>
    <tag k="oneway" v="yes"/>
    <tag k="ref" v="B 304"/>
  </way>
  <way id="11400065" version="13" timestamp="2009-04-27T18:39:29Z" uid="109029" user="shorty_de" changeset="995245">
    <nd ref="2042853"/>
    <nd ref="31263545"/>
    <nd ref="31263546"/>
    <nd ref="279879238"/>
    <nd ref="31263544"/>
    <nd ref="31263543"/>
    <nd ref="31263542"/>
    <nd ref="31263554"/>
    <nd ref="269555647"/>
    <nd ref="280092414"/>
    <nd ref="31263541"/>
    <tag k="created_by" v="Potlatch 0.10f"/>
    <tag k="highway" v="primary"/>
    <tag k="name" v="Heinrich-Vogl-Straße"/>
    <tag k="oneway" v="yes"/>
    <tag k="ref" v="B 304"/>
  </way>
  <way id="11400065" version="14" timestamp="2009-09-20T20:11:26Z" uid="70260" user="user18" changeset="2551307">
    <nd ref="2042853"/>
    <nd ref="31263545"/>
    <nd ref="31263546"/>
    <nd ref="279879238"/>
    <nd ref="31263544"/>
    <tag k="highway" v="primary"/>
    <tag k="name" v="Heinrich-Vogl-Straße"/>
    <tag k="oneway" v="yes"/>
    <tag k="ref" v="B 304"/>
  </way>
  <way id="11400065" version="15" timestamp="2010-01-20T14:15:05Z" uid="109029" user="shorty_de" changeset="3667066">
    <nd ref="2042853"/>
    <nd ref="617140533"/>
    <nd ref="31263545"/>
    <nd ref="617140518"/>
    <nd ref="617140519"/>
    <nd ref="31263546"/>
    <nd ref="617140489"/>
    <nd ref="279879238"/>
    <nd ref="617140481"/>
    <nd ref="31263544"/>
    <tag k="highway" v="primary"/>
    <tag k="name" v="Heinrich-Vogl-Straße"/>
    <tag k="oneway" v="yes"/>
    <tag k="ref" v="B 304"/>
  </way>
  <way id="11400065" version="16" timestamp="2010-12-11T12:18:11Z" uid="9402" user="ludwich" changeset="6622310">
    <nd ref="2042853"/>
    <nd ref="617140533"/>
    <nd ref="31263545"/>
    <nd ref="617140518"/>
    <nd ref="617140519"/>
    <nd ref="31263546"/>
    <nd ref="617140489"/>
    <nd ref="279879238"/>
    <nd ref="617140481"/>
    <nd ref="31263544"/>
    <tag k="highway" v="secondary"/>
    <tag k="name" v="Heinrich-Vogl-Straße"/>
    <tag k="oneway" v="yes"/>
    <tag k="ref" v="B 304"/>
  </way>
  <way id="11400065" version="17" timestamp="2010-12-11T21:34:32Z" uid="9402" user="ludwich" changeset="6629853">
    <nd ref="2042853"/>
    <nd ref="617140533"/>
    <nd ref="31263545"/>
    <nd ref="617140518"/>
    <nd ref="617140519"/>
    <nd ref="31263546"/>
    <nd ref="617140489"/>
    <nd ref="279879238"/>
    <nd ref="617140481"/>
    <nd ref="31263544"/>
    <tag k="highway" v="secondary"/>
    <tag k="name" v="Heinrich-Vogl-Straße"/>
    <tag k="oneway" v="yes"/>
  </way>
  <way id="11400065" version="18" timestamp="2011-04-27T10:33:43Z" uid="437696" user="feisen" changeset="7983685">
    <nd ref="2042853"/>
    <nd ref="617140533"/>
    <nd ref="31263545"/>
    <nd ref="617140518"/>
    <nd ref="617140519"/>
    <nd ref="31263546"/>
    <nd ref="617140489"/>
    <nd ref="279879238"/>
    <nd ref="617140481"/>
    <nd ref="31263544"/>
    <tag k="highway" v="secondary"/>
    <tag k="name" v="Heinrich-Vogl-Straße"/>
    <tag k="oneway" v="no"/>
  </way>
  <way id="11400086" version="6" timestamp="2008-07-06T01:00:02Z" uid="6975" user="ulfl" changeset="404092">
    <nd ref="64559360"/>
    <nd ref="101444851"/>
    <nd ref="101444852"/>
    <nd ref="101444854"/>
    <nd ref="101444855"/>
    <nd ref="101444856"/>
    <nd ref="101444857"/>
    <nd ref="101444858"/>
    <nd ref="101444860"/>
    <tag k="highway" v="residential"/>
    <tag k="maxspeed" v="50"/>
    <tag k="name" v="Bo Eriks Väg"/>
  </way>
  <way id="11400086" version="7" timestamp="2009-12-20T08:24:52Z" uid="113813" user="AndersAndersson" changeset="3411716">
    <nd ref="64559360"/>
    <nd ref="101444851"/>
    <nd ref="101444852"/>
    <nd ref="101444854"/>
    <nd ref="101444855"/>
    <nd ref="597113122"/>
    <nd ref="101444856"/>
    <nd ref="101444857"/>
    <nd ref="101444858"/>
    <nd ref="101444860"/>
    <tag k="highway" v="residential"/>
    <tag k="maxspeed" v="50"/>
    <tag k="name" v="Bo Eriks Väg"/>
  </way>
  <way id="11400086" version="8" timestamp="2009-12-20T08:25:34Z" uid="113813" user="AndersAndersson" changeset="3411716">
    <nd ref="64559360"/>
    <nd ref="101444851"/>
    <nd ref="597113467"/>
    <nd ref="101444854"/>
    <nd ref="101444855"/>
    <nd ref="597113122"/>
    <nd ref="101444856"/>
    <nd ref="101444857"/>
    <nd ref="597113466"/>
    <nd ref="101444858"/>
    <nd ref="101444860"/>
    <tag k="highway" v="residential"/>
    <tag k="maxspeed" v="50"/>
    <tag k="name" v="Bo Eriks Väg"/>
  </way>
  <way id="11400109" version="5" timestamp="2008-12-14T15:16:01Z" uid="6975" user="ulfl" changeset="375714">
    <nd ref="2042853"/>
    <nd ref="31263559"/>
    <nd ref="97990601"/>
    <nd ref="97975090"/>
    <nd ref="97986790"/>
    <nd ref="31264546"/>
    <nd ref="97975455"/>
    <tag k="highway" v="primary"/>
    <tag k="name" v="Marienplatz"/>
    <tag k="ref" v="B 304"/>
  </way>
  <way id="11400109" version="6" timestamp="2010-01-18T09:01:18Z" uid="109029" user="shorty_de" changeset="3648496">
    <nd ref="2042853"/>
    <nd ref="616106881"/>
    <nd ref="616106882"/>
    <nd ref="31263559"/>
    <nd ref="616106883"/>
    <nd ref="97990601"/>
    <nd ref="616106884"/>
    <nd ref="616106885"/>
    <nd ref="97975090"/>
    <nd ref="97986790"/>
    <nd ref="97975455"/>
    <tag k="highway" v="primary"/>
    <tag k="name" v="Marienplatz"/>
    <tag k="ref" v="B 304"/>
  </way>
  <way id="11400109" version="7" timestamp="2010-12-11T12:18:11Z" uid="9402" user="ludwich" changeset="6622310">
    <nd ref="2042853"/>
    <nd ref="616106881"/>
    <nd ref="616106882"/>
    <nd ref="31263559"/>
    <nd ref="616106883"/>
    <nd ref="97990601"/>
    <nd ref="616106884"/>
    <nd ref="616106885"/>
    <nd ref="97975090"/>
    <nd ref="97986790"/>
    <nd ref="97975455"/>
    <tag k="highway" v="secondary"/>
    <tag k="name" v="Marienplatz"/>
    <tag k="ref" v="B 304"/>
  </way>
  <way id="11400109" version="8" timestamp="2011-04-27T10:33:43Z" uid="437696" user="feisen" changeset="7983685">
    <nd ref="2042853"/>
    <nd ref="616106881"/>
    <nd ref="616106882"/>
    <nd ref="31263559"/>
    <nd ref="616106883"/>
    <nd ref="97990601"/>
    <nd ref="616106884"/>
    <nd ref="616106885"/>
    <nd ref="97975090"/>
    <nd ref="97986790"/>
    <nd ref="97975455"/>
    <tag k="highway" v="secondary"/>
    <tag k="name" v="Marienplatz"/>
    <tag k="oneway" v="-1"/>
    <tag k="ref" v="B 304"/>
  </way>
  <way id="11400379" version="8" timestamp="2008-12-14T15:15:38Z" uid="6975" user="ulfl" changeset="375714">
    <nd ref="9329014"/>
    <nd ref="2042849"/>
    <nd ref="31263539"/>
    <nd ref="31263538"/>
    <nd ref="31263537"/>
    <nd ref="2042852"/>
    <nd ref="279884804"/>
    <nd ref="31298399"/>
    <nd ref="274970431"/>
    <nd ref="31264542"/>
    <nd ref="31298398"/>
    <nd ref="97975455"/>
    <tag k="highway" v="primary"/>
    <tag k="name" v="Bahnhofstraße"/>
    <tag k="oneway" v="yes"/>
    <tag k="ref" v="B 304"/>
  </way>
  <way id="11400379" version="9" timestamp="2008-12-24T22:16:20Z" uid="45769" user="dtbow" changeset="589833">
    <nd ref="9329014"/>
    <nd ref="2042849"/>
    <nd ref="31263539"/>
    <nd ref="31263538"/>
    <nd ref="31263537"/>
    <nd ref="2042852"/>
    <nd ref="279884804"/>
    <nd ref="31298399"/>
    <nd ref="274970431"/>
    <nd ref="31298398"/>
    <nd ref="97975455"/>
    <tag k="created_by" v="Potlatch 0.10f"/>
    <tag k="highway" v="primary"/>
    <tag k="name" v="Bahnhofstraße"/>
    <tag k="oneway" v="yes"/>
    <tag k="ref" v="B 304"/>
  </way>
  <way id="11400379" version="10" timestamp="2008-12-24T22:16:33Z" uid="45769" user="dtbow" changeset="589833">
    <nd ref="9329014"/>
    <nd ref="2042849"/>
    <nd ref="31263539"/>
    <nd ref="31263538"/>
    <nd ref="31263537"/>
    <nd ref="2042852"/>
    <nd ref="279884804"/>
    <nd ref="31298399"/>
    <nd ref="274970431"/>
    <nd ref="31298398"/>
    <nd ref="97975455"/>
    <tag k="created_by" v="Potlatch 0.10f"/>
    <tag k="highway" v="primary"/>
    <tag k="name" v="Bahnhofstraße"/>
    <tag k="oneway" v="yes"/>
    <tag k="ref" v="B 304"/>
  </way>
  <way id="11400379" version="11" timestamp="2009-05-25T08:55:17Z" uid="127844" user="Linden85551" changeset="1314367">
    <nd ref="9329014"/>
    <nd ref="2042849"/>
    <tag k="created_by" v="Potlatch 0.10f"/>
    <tag k="highway" v="primary"/>
    <tag k="name" v="Bahnhofstraße"/>
    <tag k="ref" v="B 304"/>
  </way>
  <way id="11400379" version="12" timestamp="2010-01-22T07:13:16Z" uid="109029" user="shorty_de" changeset="3680643">
    <nd ref="9329014"/>
    <nd ref="617959409"/>
    <nd ref="2042849"/>
    <tag k="highway" v="primary"/>
    <tag k="name" v="Bahnhofstraße"/>
    <tag k="ref" v="B 304"/>
  </way>
  <way id="11400379" version="13" timestamp="2010-12-11T12:18:30Z" uid="9402" user="ludwich" changeset="6622310">
    <nd ref="9329014"/>
    <nd ref="617959409"/>
    <nd ref="2042849"/>
    <tag k="highway" v="secondary"/>
    <tag k="name" v="Bahnhofstraße"/>
    <tag k="ref" v="B 304"/>
  </way>
</osm>
