<?xml version='1.0' encoding='UTF-8'?>
<osm version="0.6" generator="libosmium/2.20.0">
  <way id="114143294" version="1" timestamp="2011-05-20T16:55:07Z" uid="115477" user="wowik" changeset="8200144">
    <nd ref="1293389062"/>
    <nd ref="1293388910"/>
    <nd ref="1293388870"/>
    <nd ref="1293388782"/>
    <nd ref="1293389062"/>
    <tag k="addr:city" v="Москва"/>
    <tag k="addr:country" v="RU"/>
    <tag k="addr:housenumber" v="20"/>
    <tag k="addr:street" v="Синявинская улица"/>
    <tag k="building" v="yes"/>
    <tag k="building:levels" v="1"/>
    <tag k="building:use" v="residential"/>
  </way>
  <way id="114143296" version="1" timestamp="2011-05-20T16:55:08Z" uid="115477" user="wowik" changeset="8200144">
    <nd ref="1293388846"/>
    <nd ref="1293389078"/>
    <nd ref="1293389029"/>
    <nd ref="1293388830"/>
    <nd ref="1293388779"/>
    <nd ref="1293389061"/>
    <nd ref="1293389009"/>
    <nd ref="1293388816"/>
    <nd ref="1293388846"/>
    <tag k="addr:city" v="Москва"/>
    <tag k="addr:country" v="RU"/>
    <tag k="addr:housenumber" v="26"/>
    <tag k="addr:street" v="Синявинская улица"/>
    <tag k="building" v="yes"/>
    <tag k="building:levels" v="1"/>
    <tag k="building:use" v="residential"/>
  </way>
  <way id="114143297" version="1" timestamp="2011-05-20T16:55:08Z" uid="115477" user="wowik" changeset="8200144">
    <nd ref="1293388883"/>
    <nd ref="1293389080"/>
    <nd ref="1293389031"/>
    <nd ref="1293388833"/>
    <nd ref="1293388883"/>
    <tag k="building" v="yes"/>
    <tag k="building:levels" v="1"/>
  </way>
  <way id="114143299" version="1" timestamp="2011-05-20T16:55:08Z" uid="115477" user="wowik" changeset="8200144">
    <nd ref="1293388885"/>
    <nd ref="1293388887"/>
    <nd ref="1293388824"/>
    <nd ref="1293388995"/>
    <nd ref="1293388885"/>
    <tag k="addr:city" v="Москва"/>
    <tag k="addr:country" v="RU"/>
    <tag k="addr:housenumber" v="6"/>
    <tag k="addr:street" v="Синявинская улица"/>
    <tag k="building" v="yes"/>
    <tag k="building:levels" v="1"/>
    <tag k="building:use" v="residential"/>
  </way>
  <way id="114143301" version="1" timestamp="2011-05-20T16:55:08Z" uid="115477" user="wowik" changeset="8200144">
    <nd ref="1293388876"/>
    <nd ref="1293388955"/>
    <nd ref="1293388768"/>
    <nd ref="1293389069"/>
    <nd ref="1293388876"/>
    <tag k="building" v="yes"/>
    <tag k="building:levels" v="1"/>
  </way>
  <way id="114143303" version="1" timestamp="2011-05-20T16:55:08Z" uid="115477" user="wowik" changeset="8200144">
    <nd ref="1293388929"/>
    <nd ref="1293388892"/>
    <nd ref="1293388834"/>
    <nd ref="1293388918"/>
    <nd ref="1293388929"/>
    <tag k="addr:city" v="Москва"/>
    <tag k="addr:country" v="RU"/>
    <tag k="addr:housenumber" v="24"/>
    <tag k="addr:street" v="Синявинская улица"/>
    <tag k="building" v="yes"/>
    <tag k="building:levels" v="1"/>
    <tag k="building:use" v="residential"/>
  </way>
  <way id="114143305" version="1" timestamp="2011-05-20T16:55:08Z" uid="115477" user="wowik" changeset="8200144">
    <nd ref="733704360"/>
    <nd ref="672075092"/>
    <tag k="highway" v="service"/>
    <tag k="living_street" v="yes"/>
  </way>
  <way id="114143306" version="1" timestamp="2011-05-20T16:55:08Z" uid="115477" user="wowik" changeset="8200144">
    <nd ref="1293388882"/>
    <nd ref="1293388970"/>
    <nd ref="1293389056"/>
    <nd ref="1293389002"/>
    <nd ref="1293388808"/>
    <nd ref="1293389107"/>
    <nd ref="1293389001"/>
    <nd ref="1293388935"/>
    <nd ref="1293389105"/>
    <nd ref="1293389054"/>
    <nd ref="1293388780"/>
    <nd ref="1293389079"/>
    <nd ref="1293388882"/>
    <tag k="addr:city" v="Москва"/>
    <tag k="addr:country" v="RU"/>
    <tag k="addr:housenumber" v="4А"/>
    <tag k="addr:street" v="Синявинская улица"/>
    <tag k="building" v="yes"/>
    <tag k="building:levels" v="1"/>
    <tag k="building:use" v="residential"/>
  </way>
  <way id="114143309" version="1" timestamp="2011-05-20T16:55:09Z" uid="115477" user="wowik" changeset="8200144">
    <nd ref="1293388787"/>
    <nd ref="1293388841"/>
    <nd ref="1293389081"/>
    <nd ref="1293388891"/>
    <nd ref="1293389033"/>
    <nd ref="1293133980"/>
    <tag k="highway" v="footway"/>
  </way>
  <way id="114143310" version="1" timestamp="2011-05-20T16:55:09Z" uid="115477" user="wowik" changeset="8200144">
    <nd ref="1293388957"/>
    <nd ref="1293388811"/>
    <nd ref="1293388974"/>
    <nd ref="1293388919"/>
    <nd ref="1293388957"/>
    <tag k="building" v="yes"/>
    <tag k="building:levels" v="1"/>
  </way>
  <way id="114143311" version="1" timestamp="2011-05-20T16:55:09Z" uid="115477" user="wowik" changeset="8200144">
    <nd ref="1293389096"/>
    <nd ref="1293388839"/>
    <nd ref="1293388922"/>
    <nd ref="1293388879"/>
    <nd ref="1293389096"/>
    <tag k="building" v="yes"/>
    <tag k="building:levels" v="1"/>
  </way>
  <way id="114143313" version="1" timestamp="2011-05-20T16:55:09Z" uid="115477" user="wowik" changeset="8200144">
    <nd ref="1293388989"/>
    <nd ref="1293388835"/>
    <nd ref="1293388783"/>
    <nd ref="1293388938"/>
    <nd ref="1293388989"/>
    <tag k="building" v="yes"/>
    <tag k="building:levels" v="1"/>
  </way>
  <way id="114143314" version="1" timestamp="2011-05-20T16:55:09Z" uid="115477" user="wowik" changeset="8200144">
    <nd ref="1293388788"/>
    <nd ref="1293388997"/>
    <nd ref="1293388933"/>
    <nd ref="1293389099"/>
    <nd ref="1293389049"/>
    <nd ref="1293388774"/>
    <nd ref="1293388788"/>
    <tag k="addr:city" v="Москва"/>
    <tag k="addr:country" v="RU"/>
    <tag k="addr:housenumber" v="28"/>
    <tag k="addr:street" v="Синявинская улица"/>
    <tag k="building" v="yes"/>
    <tag k="building:levels" v="1"/>
    <tag k="building:use" v="residential"/>
  </way>
  <way id="114143317" version="1" timestamp="2011-05-20T16:55:09Z" uid="115477" user="wowik" changeset="8200144">
    <nd ref="1293388986"/>
    <nd ref="1293388831"/>
    <nd ref="1293389075"/>
    <nd ref="1293389023"/>
    <nd ref="1293388986"/>
    <tag k="addr:city" v="Москва"/>
    <tag k="addr:country" v="RU"/>
    <tag k="addr:housenumber" v="1"/>
    <tag k="addr:street" v="Синявинская улица"/>
    <tag k="building" v="yes"/>
    <tag k="building:levels" v="1"/>
    <tag k="building:use" v="residential"/>
  </way>
  <way id="114143318" version="1" timestamp="2011-05-20T16:55:09Z" uid="115477" user="wowik" changeset="8200144">
    <nd ref="1293388972"/>
    <nd ref="1293389071"/>
    <nd ref="1293388884"/>
    <nd ref="1293388823"/>
    <nd ref="1293388972"/>
    <tag k="building" v="yes"/>
    <tag k="building:levels" v="1"/>
  </way>
  <way id="114143319" version="1" timestamp="2011-05-20T16:55:10Z" uid="115477" user="wowik" changeset="8200144">
    <nd ref="1293389063"/>
    <nd ref="1293388806"/>
    <nd ref="1293388890"/>
    <nd ref="1293388832"/>
    <nd ref="1293389063"/>
    <tag k="building" v="yes"/>
    <tag k="building:levels" v="1"/>
  </way>
  <way id="114143321" version="1" timestamp="2011-05-20T16:55:10Z" uid="115477" user="wowik" changeset="8200144">
    <nd ref="1293388873"/>
    <nd ref="1293388949"/>
    <nd ref="1293389044"/>
    <nd ref="1293388988"/>
    <nd ref="1293388796"/>
    <nd ref="1293389088"/>
    <nd ref="1293388873"/>
    <tag k="addr:city" v="Москва"/>
    <tag k="addr:country" v="RU"/>
    <tag k="addr:housenumber" v="30"/>
    <tag k="addr:street" v="Синявинская улица"/>
    <tag k="building" v="yes"/>
    <tag k="building:levels" v="1"/>
    <tag k="building:use" v="residential"/>
  </way>
  <way id="114143324" version="1" timestamp="2011-05-20T16:55:10Z" uid="115477" user="wowik" changeset="8200144">
    <nd ref="1293388798"/>
    <nd ref="1293389035"/>
    <nd ref="1293388973"/>
    <nd ref="1293388784"/>
    <nd ref="1293388798"/>
    <tag k="building" v="yes"/>
    <tag k="building:levels" v="1"/>
  </way>
  <way id="114143325" version="1" timestamp="2011-05-20T16:55:10Z" uid="115477" user="wowik" changeset="8200144">
    <nd ref="1293389104"/>
    <nd ref="1293388947"/>
    <nd ref="1293389043"/>
    <nd ref="1293388987"/>
    <nd ref="1293388793"/>
    <nd ref="1293389087"/>
    <nd ref="1293389104"/>
    <tag k="building" v="yes"/>
    <tag k="building:levels" v="1"/>
  </way>
  <way id="114143326" version="1" timestamp="2011-05-20T16:55:10Z" uid="115477" user="wowik" changeset="8200144">
    <nd ref="1293389039"/>
    <nd ref="672075101"/>
    <nd ref="672075084"/>
    <tag k="highway" v="footway"/>
  </way>
  <way id="114143326" version="2" timestamp="2011-06-04T16:45:20Z" uid="316868" user="LexIgnatov" changeset="8340676">
    <nd ref="1293389039"/>
    <nd ref="1312073539"/>
    <nd ref="672075101"/>
    <nd ref="672075084"/>
    <tag k="highway" v="footway"/>
  </way>
  <way id="114143327" version="1" timestamp="2011-05-20T16:55:10Z" uid="115477" user="wowik" changeset="8200144">
    <nd ref="1293388969"/>
    <nd ref="1293388820"/>
    <nd ref="1293389116"/>
    <nd ref="1293388927"/>
    <nd ref="1293388969"/>
    <tag k="building" v="yes"/>
    <tag k="building:levels" v="1"/>
  </way>
  <way id="114143330" version="1" timestamp="2011-05-20T16:55:10Z" uid="115477" user="wowik" changeset="8200144">
    <nd ref="1293389046"/>
    <nd ref="1293388894"/>
    <nd ref="1293389057"/>
    <nd ref="1293389003"/>
    <nd ref="1293389046"/>
    <tag k="building" v="yes"/>
    <tag k="building:levels" v="1"/>
  </way>
  <way id="114143331" version="1" timestamp="2011-05-20T16:55:11Z" uid="115477" user="wowik" changeset="8200144">
    <nd ref="1293389042"/>
    <nd ref="1293388999"/>
    <nd ref="1293388934"/>
    <nd ref="1293389027"/>
    <nd ref="1293388967"/>
    <nd ref="1293388778"/>
    <nd ref="1293389042"/>
    <tag k="addr:city" v="Москва"/>
    <tag k="addr:country" v="RU"/>
    <tag k="addr:housenumber" v="293"/>
    <tag k="addr:street" v="Ленинградское шоссе"/>
    <tag k="building" v="yes"/>
    <tag k="building:levels" v="1"/>
    <tag k="building:use" v="residential"/>
  </way>
  <way id="114143332" version="1" timestamp="2011-05-20T16:55:11Z" uid="115477" user="wowik" changeset="8200144">
    <nd ref="1293388821"/>
    <nd ref="1293388916"/>
    <nd ref="1293389053"/>
    <nd ref="1293389000"/>
    <nd ref="1293388821"/>
    <tag k="building" v="yes"/>
    <tag k="building:levels" v="1"/>
  </way>
  <way id="114143334" version="1" timestamp="2011-05-20T16:55:11Z" uid="115477" user="wowik" changeset="8200144">
    <nd ref="1293388954"/>
    <nd ref="1293389055"/>
    <nd ref="1293388874"/>
    <nd ref="1293388807"/>
    <nd ref="1293388954"/>
    <tag k="building" v="yes"/>
    <tag k="building:levels" v="1"/>
  </way>
  <way id="114143335" version="1" timestamp="2011-05-20T16:55:11Z" uid="115477" user="wowik" changeset="8200144">
    <nd ref="1293388946"/>
    <nd ref="1293389052"/>
    <nd ref="1293388863"/>
    <nd ref="1293388804"/>
    <nd ref="1293388946"/>
    <tag k="addr:city" v="Москва"/>
    <tag k="addr:country" v="RU"/>
    <tag k="addr:housenumber" v="7"/>
    <tag k="addr:street" v="Синявинская улица"/>
    <tag k="building" v="yes"/>
    <tag k="building:levels" v="1"/>
    <tag k="building:use" v="residential"/>
  </way>
  <way id="114143338" version="1" timestamp="2011-05-20T16:55:11Z" uid="115477" user="wowik" changeset="8200144">
    <nd ref="1293389036"/>
    <nd ref="1293388990"/>
    <nd ref="1293388930"/>
    <nd ref="1293388857"/>
    <nd ref="1293389036"/>
    <tag k="building" v="yes"/>
    <tag k="building:levels" v="1"/>
  </way>
  <way id="114143339" version="1" timestamp="2011-05-20T16:55:11Z" uid="115477" user="wowik" changeset="8200144">
    <nd ref="1293388826"/>
    <nd ref="1293389040"/>
    <nd ref="1293388842"/>
    <nd ref="1293388790"/>
    <nd ref="1293389067"/>
    <nd ref="1293389013"/>
    <nd ref="1293388819"/>
    <nd ref="1293389115"/>
    <nd ref="1293388826"/>
    <tag k="building" v="yes"/>
    <tag k="building:levels" v="1"/>
  </way>
  <way id="114143340" version="1" timestamp="2011-05-20T16:55:11Z" uid="115477" user="wowik" changeset="8200144">
    <nd ref="1293389028"/>
    <nd ref="1293388985"/>
    <nd ref="1293388926"/>
    <nd ref="1293388818"/>
    <nd ref="1293389028"/>
    <tag k="addr:city" v="Москва"/>
    <tag k="addr:country" v="RU"/>
    <tag k="addr:housenumber" v="18"/>
    <tag k="addr:street" v="Синявинская улица"/>
    <tag k="building" v="yes"/>
    <tag k="building:levels" v="1"/>
    <tag k="building:use" v="residential"/>
  </way>
  <way id="114143342" version="1" timestamp="2011-05-20T16:55:11Z" uid="115477" user="wowik" changeset="8200144">
    <nd ref="1293388785"/>
    <nd ref="1293388993"/>
    <nd ref="1293388931"/>
    <nd ref="1293389092"/>
    <nd ref="1293389047"/>
    <nd ref="1293388928"/>
    <nd ref="1293388785"/>
    <tag k="addr:city" v="Москва"/>
    <tag k="addr:country" v="RU"/>
    <tag k="addr:housenumber" v="295"/>
    <tag k="addr:street" v="Ленинградское шоссе"/>
    <tag k="building" v="yes"/>
    <tag k="building:levels" v="1"/>
    <tag k="building:use" v="residential"/>
  </way>
  <way id="114143346" version="1" timestamp="2011-05-20T16:55:12Z" uid="115477" user="wowik" changeset="8200144">
    <nd ref="1293389004"/>
    <nd ref="1293388852"/>
    <nd ref="1293389015"/>
    <nd ref="1293388956"/>
    <nd ref="1293389004"/>
    <tag k="addr:city" v="Москва"/>
    <tag k="addr:country" v="RU"/>
    <tag k="addr:housenumber" v="22"/>
    <tag k="addr:street" v="Синявинская улица"/>
    <tag k="building" v="yes"/>
    <tag k="building:levels" v="1"/>
    <tag k="building:use" v="residential"/>
  </way>
  <way id="114143348" version="1" timestamp="2011-05-20T16:55:12Z" uid="115477" user="wowik" changeset="8200144">
    <nd ref="1293388924"/>
    <nd ref="1293389025"/>
    <nd ref="1293388828"/>
    <nd ref="1293388777"/>
    <nd ref="1293388924"/>
    <tag k="addr:city" v="Москва"/>
    <tag k="addr:country" v="RU"/>
    <tag k="addr:housenumber" v="3"/>
    <tag k="addr:street" v="Синявинская улица"/>
    <tag k="building" v="yes"/>
    <tag k="building:levels" v="1"/>
    <tag k="building:use" v="residential"/>
  </way>
  <way id="114143349" version="1" timestamp="2011-05-20T16:55:12Z" uid="115477" user="wowik" changeset="8200144">
    <nd ref="1293388769"/>
    <nd ref="1293388877"/>
    <nd ref="1293389032"/>
    <nd ref="1293388971"/>
    <nd ref="1293388769"/>
    <tag k="addr:city" v="Москва"/>
    <tag k="addr:country" v="RU"/>
    <tag k="addr:housenumber" v="303"/>
    <tag k="addr:street" v="Ленинградское шоссе"/>
    <tag k="building" v="yes"/>
    <tag k="building:levels" v="1"/>
    <tag k="building:use" v="residential"/>
  </way>
  <way id="114143351" version="1" timestamp="2011-05-20T16:55:13Z" uid="115477" user="wowik" changeset="8200144">
    <nd ref="1293388837"/>
    <nd ref="1293388799"/>
    <nd ref="1293389093"/>
    <nd ref="672638418"/>
    <nd ref="1293389089"/>
    <tag k="highway" v="service"/>
    <tag k="living_street" v="yes"/>
  </way>
  <way id="114143353" version="1" timestamp="2011-05-20T16:55:13Z" uid="115477" user="wowik" changeset="8200144">
    <nd ref="1293389097"/>
    <nd ref="1293388942"/>
    <nd ref="1293388896"/>
    <nd ref="1293388977"/>
    <nd ref="1293389097"/>
    <tag k="addr:city" v="Москва"/>
    <tag k="addr:country" v="RU"/>
    <tag k="addr:housenumber" v="299А"/>
    <tag k="addr:street" v="Ленинградское шоссе"/>
    <tag k="building" v="yes"/>
    <tag k="building:levels" v="1"/>
    <tag k="building:use" v="residential"/>
  </way>
  <way id="114143354" version="1" timestamp="2011-05-20T16:55:13Z" uid="115477" user="wowik" changeset="8200144">
    <nd ref="1293388992"/>
    <nd ref="1293388939"/>
    <nd ref="1293388895"/>
    <nd ref="1293388815"/>
    <nd ref="1293388992"/>
    <tag k="addr:city" v="Москва"/>
    <tag k="addr:country" v="RU"/>
    <tag k="addr:housenumber" v="305"/>
    <tag k="addr:street" v="Ленинградское шоссе"/>
    <tag k="building" v="yes"/>
    <tag k="building:levels" v="1"/>
    <tag k="building:use" v="residential"/>
  </way>
  <way id="114143357" version="1" timestamp="2011-05-20T16:55:13Z" uid="115477" user="wowik" changeset="8200144">
    <nd ref="1293388961"/>
    <nd ref="1293388814"/>
    <nd ref="1293389110"/>
    <nd ref="1293388843"/>
    <nd ref="1293388930"/>
    <nd ref="1293389101"/>
    <nd ref="1293388961"/>
    <tag k="building" v="yes"/>
    <tag k="building:levels" v="1"/>
  </way>
  <way id="114143359" version="1" timestamp="2011-05-20T16:55:13Z" uid="115477" user="wowik" changeset="8200144">
    <nd ref="1293388829"/>
    <nd ref="1293388909"/>
    <nd ref="1293388859"/>
    <nd ref="1293389020"/>
    <nd ref="1293388962"/>
    <nd ref="1293389050"/>
    <nd ref="1293388829"/>
    <tag k="addr:city" v="Москва"/>
    <tag k="addr:country" v="RU"/>
    <tag k="addr:housenumber" v="299"/>
    <tag k="addr:street" v="Ленинградское шоссе"/>
    <tag k="building" v="yes"/>
    <tag k="building:levels" v="1"/>
    <tag k="building:use" v="residential"/>
  </way>
  <way id="114143361" version="1" timestamp="2011-05-20T16:55:14Z" uid="115477" user="wowik" changeset="8200144">
    <nd ref="902394342"/>
    <nd ref="1293388817"/>
    <nd ref="1293388880"/>
    <nd ref="1293388921"/>
    <nd ref="1293388975"/>
    <nd ref="1293388932"/>
    <nd ref="1293388886"/>
    <nd ref="1293388959"/>
    <nd ref="1293388787"/>
    <tag k="highway" v="footway"/>
  </way>
  <way id="114143361" version="2" timestamp="2011-06-04T16:45:56Z" uid="316868" user="LexIgnatov" changeset="8340676">
    <nd ref="902394342"/>
    <nd ref="1293388817"/>
    <nd ref="1312073554"/>
    <nd ref="1293388880"/>
    <nd ref="1293388921"/>
    <nd ref="1293388975"/>
    <nd ref="1293388932"/>
    <nd ref="1293388886"/>
    <nd ref="1293388959"/>
    <nd ref="1293388787"/>
    <tag k="highway" v="footway"/>
  </way>
  <way id="114143363" version="1" timestamp="2011-05-20T16:55:14Z" uid="115477" user="wowik" changeset="8200144">
    <nd ref="1293388994"/>
    <nd ref="1293388838"/>
    <nd ref="1293388786"/>
    <nd ref="1293388940"/>
    <nd ref="1293388994"/>
    <tag k="addr:city" v="Москва"/>
    <tag k="addr:country" v="RU"/>
    <tag k="addr:housenumber" v="5"/>
    <tag k="addr:street" v="Синявинская улица"/>
    <tag k="building" v="yes"/>
    <tag k="building:levels" v="1"/>
    <tag k="building:use" v="residential"/>
  </way>
  <way id="114143364" version="1" timestamp="2011-05-20T16:55:14Z" uid="115477" user="wowik" changeset="8200144">
    <nd ref="1293388998"/>
    <nd ref="1293388845"/>
    <nd ref="1293388925"/>
    <nd ref="1293388881"/>
    <nd ref="1293388998"/>
    <tag k="building" v="yes"/>
    <tag k="building:levels" v="1"/>
  </way>
  <way id="114143365" version="1" timestamp="2011-05-20T16:55:14Z" uid="115477" user="wowik" changeset="8200144">
    <nd ref="1293388775"/>
    <nd ref="1293388982"/>
    <nd ref="1293388789"/>
    <nd ref="1293389083"/>
    <nd ref="1293388775"/>
    <tag k="addr:city" v="Москва"/>
    <tag k="addr:country" v="RU"/>
    <tag k="addr:housenumber" v="9"/>
    <tag k="addr:street" v="Синявинская улица"/>
    <tag k="building" v="yes"/>
    <tag k="building:levels" v="1"/>
    <tag k="building:use" v="residential"/>
  </way>
  <way id="114143369" version="1" timestamp="2011-05-20T16:55:14Z" uid="115477" user="wowik" changeset="8200144">
    <nd ref="1293388923"/>
    <nd ref="1293388889"/>
    <nd ref="1293388827"/>
    <nd ref="1293388911"/>
    <nd ref="1293388871"/>
    <nd ref="1293389024"/>
    <nd ref="1293388965"/>
    <nd ref="1293388893"/>
    <nd ref="1293388836"/>
    <nd ref="1293388923"/>
    <tag k="natural" v="water"/>
  </way>
  <way id="114143370" version="1" timestamp="2011-05-20T16:55:14Z" uid="115477" user="wowik" changeset="8200144">
    <nd ref="1293388984"/>
    <nd ref="1293389021"/>
    <nd ref="1293388963"/>
    <nd ref="1293388773"/>
    <nd ref="1293388984"/>
    <tag k="building" v="yes"/>
    <tag k="building:levels" v="1"/>
  </way>
  <way id="114143371" version="1" timestamp="2011-05-20T16:55:14Z" uid="115477" user="wowik" changeset="8200144">
    <nd ref="1293388810"/>
    <nd ref="1293389016"/>
    <nd ref="1293389094"/>
    <nd ref="1293389048"/>
    <nd ref="1293388853"/>
    <nd ref="1293388800"/>
    <nd ref="1293389045"/>
    <nd ref="1293388991"/>
    <nd ref="1293388810"/>
    <tag k="addr:city" v="Москва"/>
    <tag k="addr:country" v="RU"/>
    <tag k="addr:housenumber" v="2 с2"/>
    <tag k="addr:street" v="Синявинская улица"/>
    <tag k="building" v="yes"/>
    <tag k="building:levels" v="1"/>
    <tag k="building:use" v="residential"/>
  </way>
  <way id="114143372" version="1" timestamp="2011-05-20T16:55:15Z" uid="115477" user="wowik" changeset="8200144">
    <nd ref="1293388958"/>
    <nd ref="1293388812"/>
    <nd ref="1293389108"/>
    <nd ref="1293388920"/>
    <nd ref="1293388958"/>
    <tag k="addr:city" v="Москва"/>
    <tag k="addr:country" v="RU"/>
    <tag k="addr:housenumber" v="10"/>
    <tag k="addr:street" v="Синявинская улица"/>
    <tag k="building" v="yes"/>
    <tag k="building:levels" v="1"/>
    <tag k="building:use" v="residential"/>
  </way>
  <way id="114143373" version="1" timestamp="2011-05-20T16:55:15Z" uid="115477" user="wowik" changeset="8200144">
    <nd ref="1293388803"/>
    <nd ref="1293389008"/>
    <nd ref="1293388945"/>
    <nd ref="1293389112"/>
    <nd ref="1293388803"/>
    <tag k="addr:city" v="Москва"/>
    <tag k="addr:country" v="RU"/>
    <tag k="addr:housenumber" v="309"/>
    <tag k="addr:street" v="Ленинградское шоссе"/>
    <tag k="building" v="yes"/>
    <tag k="building:levels" v="1"/>
    <tag k="building:use" v="residential"/>
  </way>
  <way id="114143376" version="1" timestamp="2011-05-20T16:55:15Z" uid="115477" user="wowik" changeset="8200144">
    <nd ref="1293389102"/>
    <nd ref="1293388944"/>
    <nd ref="1293389111"/>
    <nd ref="1293389060"/>
    <nd ref="1293388791"/>
    <nd ref="1293389084"/>
    <nd ref="1293389102"/>
    <tag k="addr:city" v="Москва"/>
    <tag k="addr:country" v="RU"/>
    <tag k="addr:housenumber" v="12"/>
    <tag k="addr:street" v="Синявинская улица"/>
    <tag k="building" v="yes"/>
    <tag k="building:levels" v="1"/>
    <tag k="building:use" v="residential"/>
  </way>
  <way id="114143377" version="1" timestamp="2011-05-20T16:55:15Z" uid="115477" user="wowik" changeset="8200144">
    <nd ref="1293388937"/>
    <nd ref="1293388795"/>
    <nd ref="1293388948"/>
    <nd ref="1293388899"/>
    <nd ref="1293388937"/>
    <tag k="addr:city" v="Москва"/>
    <tag k="addr:country" v="RU"/>
    <tag k="addr:housenumber" v="301"/>
    <tag k="addr:street" v="Ленинградское шоссе"/>
    <tag k="building" v="yes"/>
    <tag k="building:levels" v="1"/>
    <tag k="building:use" v="residential"/>
  </way>
  <way id="114143379" version="1" timestamp="2011-05-20T16:55:15Z" uid="115477" user="wowik" changeset="8200144">
    <nd ref="1293388898"/>
    <nd ref="1293389106"/>
    <nd ref="1293388913"/>
    <nd ref="1293388872"/>
    <nd ref="1293388898"/>
    <tag k="building" v="yes"/>
    <tag k="building:levels" v="1"/>
  </way>
  <way id="114143381" version="1" timestamp="2011-05-20T16:55:16Z" uid="115477" user="wowik" changeset="8200144">
    <nd ref="1293389100"/>
    <nd ref="733704354"/>
    <tag k="highway" v="service"/>
    <tag k="living_street" v="yes"/>
  </way>
  <way id="114143382" version="1" timestamp="2011-05-20T16:55:16Z" uid="115477" user="wowik" changeset="8200144">
    <nd ref="1293389034"/>
    <nd ref="1293388771"/>
    <nd ref="1293389012"/>
    <nd ref="1293388953"/>
    <nd ref="1293389034"/>
    <tag k="building" v="yes"/>
    <tag k="building:levels" v="1"/>
  </way>
  <way id="114143383" version="1" timestamp="2011-05-20T16:55:16Z" uid="115477" user="wowik" changeset="8200144">
    <nd ref="1293388976"/>
    <nd ref="1293388825"/>
    <nd ref="1293389072"/>
    <nd ref="1293389017"/>
    <nd ref="1293388976"/>
    <tag k="building" v="yes"/>
    <tag k="building:levels" v="1"/>
  </way>
  <way id="114143385" version="1" timestamp="2011-05-20T16:55:16Z" uid="115477" user="wowik" changeset="8200144">
    <nd ref="1293388960"/>
    <nd ref="1293389059"/>
    <nd ref="1293388878"/>
    <nd ref="1293388813"/>
    <nd ref="1293389022"/>
    <nd ref="1293388964"/>
    <nd ref="1293388776"/>
    <nd ref="1293389074"/>
    <nd ref="1293388805"/>
    <nd ref="1293389103"/>
    <nd ref="1293388960"/>
    <tag k="building" v="yes"/>
    <tag k="building:levels" v="1"/>
  </way>
  <way id="114143387" version="1" timestamp="2011-05-20T16:55:16Z" uid="115477" user="wowik" changeset="8200144">
    <nd ref="1293388772"/>
    <nd ref="1293389005"/>
    <nd ref="1293388941"/>
    <nd ref="1293389109"/>
    <nd ref="1293388772"/>
    <tag k="building" v="yes"/>
    <tag k="building:levels" v="1"/>
  </way>
  <way id="114143389" version="1" timestamp="2011-05-20T16:55:16Z" uid="115477" user="wowik" changeset="8200144">
    <nd ref="1293389064"/>
    <nd ref="1293388914"/>
    <nd ref="1293389077"/>
    <nd ref="1293389026"/>
    <nd ref="1293389064"/>
    <tag k="building" v="yes"/>
    <tag k="building:levels" v="1"/>
  </way>
  <way id="114143390" version="1" timestamp="2011-05-20T16:55:16Z" uid="115477" user="wowik" changeset="8200144">
    <nd ref="1293389007"/>
    <nd ref="1293388856"/>
    <nd ref="1293388801"/>
    <nd ref="1293388888"/>
    <nd ref="1293389007"/>
    <tag k="building" v="yes"/>
    <tag k="building:levels" v="1"/>
  </way>
  <way id="114143391" version="1" timestamp="2011-05-20T16:55:16Z" uid="115477" user="wowik" changeset="8200144">
    <nd ref="1293389058"/>
    <nd ref="1293388907"/>
    <nd ref="1293389073"/>
    <nd ref="1293389018"/>
    <nd ref="1293389058"/>
    <tag k="building" v="yes"/>
    <tag k="building:levels" v="1"/>
  </way>
  <way id="114143394" version="1" timestamp="2011-05-20T16:55:17Z" uid="115477" user="wowik" changeset="8200144">
    <nd ref="1293389014"/>
    <nd ref="1293388875"/>
    <nd ref="1293389030"/>
    <nd ref="1293388968"/>
    <nd ref="1293389014"/>
    <tag k="building" v="yes"/>
    <tag k="building:levels" v="1"/>
  </way>
  <way id="114143395" version="1" timestamp="2011-05-20T16:55:17Z" uid="115477" user="wowik" changeset="8200144">
    <nd ref="1293388936"/>
    <nd ref="1293388794"/>
    <nd ref="1293389041"/>
    <nd ref="1293388983"/>
    <nd ref="1293388936"/>
    <tag k="building" v="yes"/>
    <tag k="building:levels" v="1"/>
  </way>
  <way id="114143396" version="1" timestamp="2011-05-20T16:55:17Z" uid="115477" user="wowik" changeset="8200144">
    <nd ref="1293389085"/>
    <nd ref="1293388966"/>
    <nd ref="1293388912"/>
    <nd ref="1293389076"/>
    <nd ref="1293389085"/>
    <tag k="building" v="yes"/>
    <tag k="building:levels" v="1"/>
  </way>
  <way id="114143398" version="1" timestamp="2011-05-20T16:55:17Z" uid="115477" user="wowik" changeset="8200144">
    <nd ref="1293388822"/>
    <nd ref="1293388781"/>
    <nd ref="1293389082"/>
    <nd ref="1293388809"/>
    <nd ref="1293388822"/>
    <tag k="building" v="yes"/>
    <tag k="building:levels" v="1"/>
  </way>
  <way id="114143400" version="1" timestamp="2011-05-20T16:55:17Z" uid="115477" user="wowik" changeset="8200144">
    <nd ref="1293389098"/>
    <nd ref="1293388840"/>
    <nd ref="1293389006"/>
    <nd ref="1293388943"/>
    <nd ref="1293389038"/>
    <nd ref="1293388978"/>
    <nd ref="1293389098"/>
    <tag k="addr:city" v="Москва"/>
    <tag k="addr:country" v="RU"/>
    <tag k="addr:housenumber" v="307"/>
    <tag k="addr:street" v="Ленинградское шоссе"/>
    <tag k="building" v="yes"/>
    <tag k="building:levels" v="1"/>
    <tag k="building:use" v="residential"/>
  </way>
  <way id="114143402" version="1" timestamp="2011-05-20T16:55:17Z" uid="115477" user="wowik" changeset="8200144">
    <nd ref="1293389037"/>
    <nd ref="1293388908"/>
    <nd ref="1293388855"/>
    <nd ref="1293389019"/>
    <nd ref="1293389037"/>
    <tag k="addr:city" v="Москва"/>
    <tag k="addr:country" v="RU"/>
    <tag k="addr:housenumber" v="14"/>
    <tag k="addr:street" v="Синявинская улица"/>
    <tag k="building" v="yes"/>
    <tag k="building:levels" v="1"/>
    <tag k="building:use" v="residential"/>
  </way>
  <way id="114143404" version="1" timestamp="2011-05-20T16:55:17Z" uid="115477" user="wowik" changeset="8200144">
    <nd ref="1293388917"/>
    <nd ref="1293388770"/>
    <nd ref="1293389070"/>
    <nd ref="1293388952"/>
    <nd ref="1293388905"/>
    <nd ref="1293389066"/>
    <nd ref="1293389011"/>
    <nd ref="1293389090"/>
    <nd ref="1293388917"/>
    <tag k="addr:city" v="Москва"/>
    <tag k="addr:country" v="RU"/>
    <tag k="addr:housenumber" v="32"/>
    <tag k="addr:street" v="Синявинская улица"/>
    <tag k="building" v="yes"/>
    <tag k="building:levels" v="1"/>
    <tag k="building:use" v="residential"/>
  </way>
  <way id="114143407" version="1" timestamp="2011-05-20T16:55:18Z" uid="115477" user="wowik" changeset="8200144">
    <nd ref="1293388844"/>
    <nd ref="1293389051"/>
    <nd ref="1293388861"/>
    <nd ref="1293388802"/>
    <nd ref="1293389010"/>
    <nd ref="1293388950"/>
    <nd ref="1293389113"/>
    <nd ref="1293389065"/>
    <nd ref="1293388844"/>
    <tag k="addr:city" v="Москва"/>
    <tag k="addr:country" v="RU"/>
    <tag k="addr:housenumber" v="291"/>
    <tag k="addr:street" v="Ленинградское шоссе"/>
    <tag k="building" v="yes"/>
    <tag k="building:levels" v="1"/>
    <tag k="building:use" v="residential"/>
  </way>
  <way id="114143408" version="1" timestamp="2011-05-20T16:55:18Z" uid="115477" user="wowik" changeset="8200144">
    <nd ref="1293388915"/>
    <nd ref="1293388767"/>
    <nd ref="1293389068"/>
    <nd ref="1293388996"/>
    <nd ref="1293388915"/>
    <tag k="building" v="yes"/>
    <tag k="building:levels" v="1"/>
  </way>
</osm>
