<?xml version='1.0' encoding='UTF-8'?>
<osm version="0.6" generator="libosmium/2.20.0">
  <way id="11420090" version="9" timestamp="2010-03-27T20:19:37Z" uid="20587" user="balrog-kun" changeset="4248199">
    <nd ref="54184851"/>
    <nd ref="54304965"/>
    <nd ref="54882167"/>
    <tag k="highway" v="motorway"/>
    <tag k="lanes" v="5"/>
    <tag k="layer" v="1"/>
    <tag k="maxspeed" v="113"/>
    <tag k="maxspeed:truck" v="88"/>
    <tag k="name" v="CHP Ofcr. Reuben F. Rios, Sr. Mem. Freeway"/>
    <tag k="name_1" v="Mojave Freeway"/>
    <tag k="oneway" v="yes"/>
    <tag k="ref" v="I 15"/>
    <tag k="source" v="yahoo_imagry;CDOT"/>
    <tag k="tiger:cfcc" v="A15"/>
    <tag k="tiger:county" v="San Bernardino, CA"/>
    <tag k="tiger:name_base" v="I-15"/>
    <tag k="tiger:name_base_1" v="Mojave"/>
    <tag k="tiger:name_type_1" v="Fwy"/>
    <tag k="tiger:separated" v="yes"/>
    <tag k="tiger:source" v="tiger_import_dch_v0.6_20070809"/>
    <tag k="tiger:tlid" v="144638826:144639574:144767235:144767236:144639592:144639603:144639611:145225788:144591755:144591504:145225787:144638521:144590864:144638534:144639070:144639076:144723205:144723203:144723206:144639056:144731305:144731306:144638301:144638318:144638457:14463"/>
  </way>
  <way id="11420090" version="10" timestamp="2010-06-28T03:04:53Z" uid="239998" user="Sundance" changeset="5094561">
    <nd ref="54184851"/>
    <nd ref="54304965"/>
    <nd ref="54882167"/>
    <tag k="highway" v="motorway"/>
    <tag k="lanes" v="5"/>
    <tag k="layer" v="1"/>
    <tag k="maxspeed" v="113"/>
    <tag k="maxspeed:truck" v="88"/>
    <tag k="name" v="CHP Ofcr. Reuben F. Rios, Sr. Mem. Freeway"/>
    <tag k="name_1" v="Mojave Freeway"/>
    <tag k="name_2" v="Interstate 15"/>
    <tag k="oneway" v="yes"/>
    <tag k="ref" v="I 15"/>
    <tag k="source" v="yahoo_imagry;CDOT"/>
    <tag k="tiger:cfcc" v="A15"/>
    <tag k="tiger:county" v="San Bernardino, CA"/>
    <tag k="tiger:name_base_1" v="Mojave"/>
    <tag k="tiger:name_type_1" v="Fwy"/>
    <tag k="tiger:separated" v="yes"/>
    <tag k="tiger:source" v="tiger_import_dch_v0.6_20070809"/>
    <tag k="tiger:tlid" v="144638826:144639574:144767235:144767236:144639592:144639603:144639611:145225788:144591755:144591504:145225787:144638521:144590864:144638534:144639070:144639076:144723205:144723203:144723206:144639056:144731305:144731306:144638301:144638318:144638457:14463"/>
  </way>
  <way id="11420090" version="11" timestamp="2010-07-15T01:04:41Z" uid="82317" user="AM909" changeset="5223033">
    <nd ref="54184851"/>
    <nd ref="54304965"/>
    <nd ref="54882167"/>
    <tag k="highway" v="motorway"/>
    <tag k="lanes" v="5"/>
    <tag k="layer" v="1"/>
    <tag k="maxspeed" v="70 mph"/>
    <tag k="maxspeed:truck" v="88"/>
    <tag k="name" v="CHP Ofcr. Reuben F. Rios, Sr. Mem. Freeway"/>
    <tag k="name_1" v="Mojave Freeway"/>
    <tag k="name_2" v="Interstate 15"/>
    <tag k="oneway" v="yes"/>
    <tag k="ref" v="I 15"/>
    <tag k="source" v="yahoo_imagry;CDOT"/>
    <tag k="tiger:cfcc" v="A15"/>
    <tag k="tiger:county" v="San Bernardino, CA"/>
    <tag k="tiger:name_base_1" v="Mojave"/>
    <tag k="tiger:name_type_1" v="Fwy"/>
    <tag k="tiger:separated" v="yes"/>
    <tag k="tiger:source" v="tiger_import_dch_v0.6_20070809"/>
    <tag k="tiger:tlid" v="144638826:144639574:144767235:144767236:144639592:144639603:144639611:145225788:144591755:144591504:145225787:144638521:144590864:144638534:144639070:144639076:144723205:144723203:144723206:144639056:144731305:144731306:144638301:144638318:144638457:14463"/>
  </way>
  <way id="11420090" version="12" timestamp="2011-04-06T18:32:40Z" uid="207745" user="NE2" changeset="7787398">
    <nd ref="54184851"/>
    <nd ref="54304965"/>
    <nd ref="54882167"/>
    <tag k="highway" v="motorway"/>
    <tag k="lanes" v="5"/>
    <tag k="layer" v="1"/>
    <tag k="maxspeed" v="70 mph"/>
    <tag k="maxspeed:truck" v="55 mph"/>
    <tag k="name" v="CHP Ofcr. Reuben F. Rios, Sr. Mem. Freeway"/>
    <tag k="name_1" v="Mojave Freeway"/>
    <tag k="name_2" v="Interstate 15"/>
    <tag k="oneway" v="yes"/>
    <tag k="ref" v="I 15"/>
    <tag k="source" v="yahoo_imagry;CDOT"/>
    <tag k="tiger:cfcc" v="A15"/>
    <tag k="tiger:county" v="San Bernardino, CA"/>
    <tag k="tiger:name_base_1" v="Mojave"/>
    <tag k="tiger:name_type_1" v="Fwy"/>
    <tag k="tiger:separated" v="yes"/>
    <tag k="tiger:source" v="tiger_import_dch_v0.6_20070809"/>
    <tag k="tiger:tlid" v="144638826:144639574:144767235:144767236:144639592:144639603:144639611:145225788:144591755:144591504:145225787:144638521:144590864:144638534:144639070:144639076:144723205:144723203:144723206:144639056:144731305:144731306:144638301:144638318:144638457:14463"/>
  </way>
  <way id="11420090" version="13" timestamp="2011-06-27T18:56:01Z" uid="473471" user="NE3" changeset="8564771">
    <nd ref="54184851"/>
    <nd ref="54304965"/>
    <nd ref="54882167"/>
    <tag k="highway" v="motorway"/>
    <tag k="lanes" v="5"/>
    <tag k="layer" v="1"/>
    <tag k="maxspeed" v="70 mph"/>
    <tag k="maxspeed:truck" v="55 mph"/>
    <tag k="name" v="CHP Ofcr. Reuben F. Rios, Sr. Mem. Freeway"/>
    <tag k="name_1" v="Mojave Freeway"/>
    <tag k="oneway" v="yes"/>
    <tag k="ref" v="I 15"/>
    <tag k="source" v="yahoo_imagry;CDOT"/>
    <tag k="tiger:cfcc" v="A15"/>
    <tag k="tiger:county" v="San Bernardino, CA"/>
    <tag k="tiger:name_base_1" v="Mojave"/>
    <tag k="tiger:name_type_1" v="Fwy"/>
    <tag k="tiger:separated" v="yes"/>
    <tag k="tiger:source" v="tiger_import_dch_v0.6_20070809"/>
    <tag k="tiger:tlid" v="144638826:144639574:144767235:144767236:144639592:144639603:144639611:145225788:144591755:144591504:145225787:144638521:144590864:144638534:144639070:144639076:144723205:144723203:144723206:144639056:144731305:144731306:144638301:144638318:144638457:14463"/>
  </way>
  <way id="11420090" version="14" timestamp="2011-07-31T15:22:12Z" uid="207745" user="NE2" changeset="8881942">
    <nd ref="54184851"/>
    <nd ref="54304965"/>
    <nd ref="54882167"/>
    <tag k="highway" v="motorway"/>
    <tag k="lanes" v="5"/>
    <tag k="layer" v="1"/>
    <tag k="maxspeed" v="70 mph"/>
    <tag k="maxspeed:truck" v="55 mph"/>
    <tag k="name" v="Mojave Freeway"/>
    <tag k="official_name" v="CHP Ofcr. Reuben F. Rios, Sr. Mem. Freeway"/>
    <tag k="oneway" v="yes"/>
    <tag k="ref" v="I 15"/>
    <tag k="source" v="yahoo_imagry;CDOT"/>
    <tag k="tiger:cfcc" v="A15"/>
    <tag k="tiger:county" v="San Bernardino, CA"/>
    <tag k="tiger:name_base_1" v="Mojave"/>
    <tag k="tiger:name_type_1" v="Fwy"/>
    <tag k="tiger:separated" v="yes"/>
    <tag k="tiger:source" v="tiger_import_dch_v0.6_20070809"/>
    <tag k="tiger:tlid" v="144638826:144639574:144767235:144767236:144639592:144639603:144639611:145225788:144591755:144591504:145225787:144638521:144590864:144638534:144639070:144639076:144723205:144723203:144723206:144639056:144731305:144731306:144638301:144638318:144638457:14463"/>
  </way>
  <way id="11420090" version="15" timestamp="2011-11-25T14:42:04Z" uid="207745" user="NE2" changeset="9943893">
    <nd ref="54184851"/>
    <nd ref="54304965"/>
    <nd ref="54882167"/>
    <tag k="hgv" v="designated"/>
    <tag k="highway" v="motorway"/>
    <tag k="lanes" v="5"/>
    <tag k="layer" v="1"/>
    <tag k="maxspeed" v="70 mph"/>
    <tag k="maxspeed:truck" v="55 mph"/>
    <tag k="name" v="Mojave Freeway"/>
    <tag k="official_name" v="CHP Ofcr. Reuben F. Rios, Sr. Mem. Freeway"/>
    <tag k="oneway" v="yes"/>
    <tag k="ref" v="I 15"/>
    <tag k="source" v="yahoo_imagry;CDOT"/>
    <tag k="tiger:cfcc" v="A15"/>
    <tag k="tiger:county" v="San Bernardino, CA"/>
    <tag k="tiger:name_base_1" v="Mojave"/>
    <tag k="tiger:name_type_1" v="Fwy"/>
    <tag k="tiger:separated" v="yes"/>
    <tag k="tiger:source" v="tiger_import_dch_v0.6_20070809"/>
    <tag k="tiger:tlid" v="144638826:144639574:144767235:144767236:144639592:144639603:144639611:145225788:144591755:144591504:145225787:144638521:144590864:144638534:144639070:144639076:144723205:144723203:144723206:144639056:144731305:144731306:144638301:144638318:144638457:14463"/>
  </way>
  <way id="11420090" version="16" timestamp="2012-02-01T12:25:47Z" uid="82317" user="AM909" changeset="10558163">
    <nd ref="54184851"/>
    <nd ref="54304965"/>
    <tag k="alt_name" v="Historic Route 66"/>
    <tag k="hgv" v="designated"/>
    <tag k="highway" v="motorway"/>
    <tag k="lanes" v="5"/>
    <tag k="layer" v="1"/>
    <tag k="maxspeed" v="70 mph"/>
    <tag k="maxspeed:truck" v="55 mph"/>
    <tag k="name" v="Mojave Freeway"/>
    <tag k="official_name" v="CHP Ofcr. Reuben F. Rios, Sr. Mem. Freeway"/>
    <tag k="old_ref" v="US 66"/>
    <tag k="oneway" v="yes"/>
    <tag k="ref" v="I 15"/>
    <tag k="source" v="yahoo_imagry;CDOT"/>
    <tag k="tiger:cfcc" v="A15"/>
    <tag k="tiger:county" v="San Bernardino, CA"/>
    <tag k="tiger:name_base_1" v="Mojave"/>
    <tag k="tiger:name_type_1" v="Fwy"/>
    <tag k="tiger:separated" v="yes"/>
    <tag k="tiger:source" v="tiger_import_dch_v0.6_20070809"/>
    <tag k="tiger:tlid" v="144638826:144639574:144767235:144767236:144639592:144639603:144639611:145225788:144591755:144591504:145225787:144638521:144590864:144638534:144639070:144639076:144723205:144723203:144723206:144639056:144731305:144731306:144638301:144638318:144638457:14463"/>
  </way>
</osm>
