<?xml version='1.0' encoding='UTF-8'?>
<osm version="0.6" generator="libosmium/2.20.0">
  <way id="114249377" version="1" timestamp="2011-05-21T10:48:43Z" uid="66036" user="h4v" changeset="8205538">
    <nd ref="268829771"/>
    <nd ref="268829772"/>
    <nd ref="268829773"/>
    <nd ref="280868082"/>
    <nd ref="268829774"/>
    <tag k="highway" v="primary"/>
    <tag k="name" v="Kardynała Stefana Wyszyńskiego"/>
    <tag k="ref" v="70"/>
  </way>
  <way id="114249378" version="1" timestamp="2011-05-21T10:48:43Z" uid="66036" user="h4v" changeset="8205538">
    <nd ref="1294543504"/>
    <nd ref="1294543533"/>
    <tag k="addr:inclusion" v="actual"/>
    <tag k="addr:interpolation" v="even"/>
  </way>
  <way id="114249379" version="1" timestamp="2011-05-21T10:48:43Z" uid="66036" user="h4v" changeset="8205538">
    <nd ref="1294543490"/>
    <nd ref="1294543510"/>
    <tag k="addr:inclusion" v="actual"/>
    <tag k="addr:interpolation" v="even"/>
  </way>
  <way id="114249380" version="1" timestamp="2011-05-21T10:48:43Z" uid="66036" user="h4v" changeset="8205538">
    <nd ref="1294543508"/>
    <nd ref="1294543501"/>
    <tag k="addr:inclusion" v="actual"/>
    <tag k="addr:interpolation" v="odd"/>
  </way>
  <way id="114249381" version="1" timestamp="2011-05-21T10:48:43Z" uid="66036" user="h4v" changeset="8205538">
    <nd ref="1294543484"/>
    <nd ref="1294543522"/>
    <tag k="bridge" v="yes"/>
    <tag k="electrified" v="contact_line"/>
    <tag k="frequency" v="0"/>
    <tag k="layer" v="1"/>
    <tag k="maxspeed" v="140"/>
    <tag k="railway" v="rail"/>
    <tag k="voltage" v="3000"/>
  </way>
  <way id="114249381" version="2" timestamp="2011-11-01T06:59:54Z" uid="42429" user="FK270673" changeset="9709973">
    <nd ref="1294543484"/>
    <nd ref="1294543522"/>
    <tag k="bridge" v="yes"/>
    <tag k="electrified" v="contact_line"/>
    <tag k="frequency" v="0"/>
    <tag k="gauge" v="1435"/>
    <tag k="layer" v="1"/>
    <tag k="maxspeed" v="140"/>
    <tag k="railway" v="rail"/>
    <tag k="voltage" v="3000"/>
  </way>
  <way id="114249382" version="1" timestamp="2011-05-21T10:48:43Z" uid="66036" user="h4v" changeset="8205538">
    <nd ref="1294543505"/>
    <nd ref="1294543494"/>
    <nd ref="1294543529"/>
    <nd ref="1294543486"/>
    <nd ref="1294543521"/>
    <nd ref="1294543537"/>
    <nd ref="1294543513"/>
    <nd ref="1294543526"/>
    <nd ref="1294543536"/>
    <tag k="addr:inclusion" v="actual"/>
    <tag k="addr:interpolation" v="even"/>
  </way>
  <way id="114249383" version="1" timestamp="2011-05-21T10:48:44Z" uid="66036" user="h4v" changeset="8205538">
    <nd ref="1294543525"/>
    <nd ref="1294543503"/>
    <nd ref="1294543523"/>
    <nd ref="1294543500"/>
    <nd ref="1294543539"/>
    <nd ref="1294543511"/>
    <nd ref="1294543535"/>
    <nd ref="1294543488"/>
    <tag k="addr:inclusion" v="actual"/>
    <tag k="addr:interpolation" v="odd"/>
  </way>
  <way id="114249384" version="1" timestamp="2011-05-21T10:48:44Z" uid="66036" user="h4v" changeset="8205538">
    <nd ref="1294543522"/>
    <nd ref="463191144"/>
    <tag k="electrified" v="contact_line"/>
    <tag k="frequency" v="0"/>
    <tag k="maxspeed" v="140"/>
    <tag k="railway" v="rail"/>
    <tag k="voltage" v="3000"/>
  </way>
  <way id="114249384" version="2" timestamp="2011-11-01T06:59:02Z" uid="42429" user="FK270673" changeset="9709973">
    <nd ref="1294543522"/>
    <nd ref="463191144"/>
    <tag k="electrified" v="contact_line"/>
    <tag k="frequency" v="0"/>
    <tag k="gauge" v="1435"/>
    <tag k="maxspeed" v="140"/>
    <tag k="railway" v="rail"/>
    <tag k="voltage" v="3000"/>
  </way>
  <way id="114249385" version="1" timestamp="2011-05-21T10:48:44Z" uid="66036" user="h4v" changeset="8205538">
    <nd ref="1294543520"/>
    <nd ref="1294543516"/>
    <nd ref="1294543487"/>
    <tag k="addr:inclusion" v="actual"/>
    <tag k="addr:interpolation" v="odd"/>
  </way>
  <way id="114249386" version="1" timestamp="2011-05-21T10:48:44Z" uid="66036" user="h4v" changeset="8205538">
    <nd ref="1294543498"/>
    <nd ref="1294543530"/>
    <tag k="addr:inclusion" v="actual"/>
    <tag k="addr:interpolation" v="odd"/>
  </way>
  <way id="114249387" version="1" timestamp="2011-05-21T10:48:44Z" uid="66036" user="h4v" changeset="8205538">
    <nd ref="1294543482"/>
    <nd ref="1294543538"/>
    <nd ref="1294543514"/>
    <nd ref="1294543527"/>
    <tag k="addr:inclusion" v="actual"/>
    <tag k="addr:interpolation" v="even"/>
  </way>
  <way id="114249388" version="1" timestamp="2011-05-21T10:48:44Z" uid="66036" user="h4v" changeset="8205538">
    <nd ref="1294543502"/>
    <nd ref="1294543519"/>
    <tag k="addr:inclusion" v="actual"/>
    <tag k="addr:interpolation" v="odd"/>
  </way>
  <way id="114249389" version="1" timestamp="2011-05-21T10:48:44Z" uid="66036" user="h4v" changeset="8205538">
    <nd ref="1294543540"/>
    <nd ref="1294543531"/>
    <nd ref="1294543499"/>
    <nd ref="1294543518"/>
    <tag k="addr:inclusion" v="actual"/>
    <tag k="addr:interpolation" v="even"/>
  </way>
  <way id="114249390" version="1" timestamp="2011-05-21T10:48:44Z" uid="66036" user="h4v" changeset="8205538">
    <nd ref="1236926945"/>
    <nd ref="1236926981"/>
    <nd ref="1236926950"/>
    <nd ref="1236926911"/>
    <nd ref="1236927000"/>
    <nd ref="1236926989"/>
    <nd ref="1236926965"/>
    <nd ref="1236926922"/>
    <nd ref="1236927014"/>
    <nd ref="1236926998"/>
    <nd ref="1236926977"/>
    <nd ref="1236926935"/>
    <nd ref="1236926907"/>
    <nd ref="1236926987"/>
    <nd ref="1236926961"/>
    <nd ref="1236927009"/>
    <tag k="addr:inclusion" v="actual"/>
    <tag k="addr:interpolation" v="odd"/>
  </way>
  <way id="114249391" version="1" timestamp="2011-05-21T10:48:45Z" uid="66036" user="h4v" changeset="8205538">
    <nd ref="1294543515"/>
    <nd ref="1294543509"/>
    <tag k="addr:inclusion" v="actual"/>
    <tag k="addr:interpolation" v="even"/>
  </way>
  <way id="114249392" version="1" timestamp="2011-05-21T10:48:45Z" uid="66036" user="h4v" changeset="8205538">
    <nd ref="1294543496"/>
    <nd ref="1294543528"/>
    <tag k="addr:inclusion" v="actual"/>
    <tag k="addr:interpolation" v="even"/>
  </way>
  <way id="114249393" version="1" timestamp="2011-05-21T10:48:45Z" uid="66036" user="h4v" changeset="8205538">
    <nd ref="1294543481"/>
    <nd ref="1294543489"/>
    <tag k="addr:inclusion" v="actual"/>
    <tag k="addr:interpolation" v="even"/>
  </way>
  <way id="114249394" version="1" timestamp="2011-05-21T10:48:45Z" uid="66036" user="h4v" changeset="8205538">
    <nd ref="1294543485"/>
    <nd ref="1294543497"/>
    <tag k="addr:inclusion" v="actual"/>
    <tag k="addr:interpolation" v="odd"/>
  </way>
</osm>
