<?xml version='1.0' encoding='UTF-8'?>
<osm version="0.6" generator="libosmium/2.20.0">
  <way id="114396637" version="1" timestamp="2011-05-22T11:45:42Z" uid="8619" user="cetest" changeset="8215243">
    <nd ref="1038045579"/>
    <nd ref="1073600824"/>
    <tag k="AND:importance_level" v="5"/>
    <tag k="AND_nosr_r" v="15048949"/>
    <tag k="highway" v="unclassified"/>
    <tag k="name" v="Ravenseweg"/>
    <tag k="oneway" v="no"/>
  </way>
  <way id="114396637" version="2" timestamp="2012-02-26T10:28:25Z" uid="476789" user="CeesW" changeset="10796275"/>
  <way id="114396638" version="1" timestamp="2011-05-22T11:45:42Z" uid="8619" user="cetest" changeset="8215243">
    <nd ref="1090455222"/>
    <nd ref="764606534"/>
    <nd ref="764606531"/>
    <nd ref="44057764"/>
    <tag k="AND:importance_level" v="5"/>
    <tag k="AND_nosr_r" v="15048642;15048645"/>
    <tag k="highway" v="unclassified"/>
    <tag k="name" v="Ravenseweg"/>
  </way>
  <way id="114396638" version="2" timestamp="2011-11-06T20:44:46Z" uid="476789" user="CeesW" changeset="9759679">
    <nd ref="1090455222"/>
    <nd ref="777738426"/>
    <nd ref="764606534"/>
    <nd ref="764606531"/>
    <nd ref="44057764"/>
    <tag k="AND:importance_level" v="5"/>
    <tag k="AND_nosr_r" v="15048642;15048645"/>
    <tag k="highway" v="unclassified"/>
    <tag k="name" v="Ravenseweg"/>
  </way>
  <way id="114396638" version="3" timestamp="2012-01-21T14:53:09Z" uid="334075" user="eggie" changeset="10456222"/>
</osm>
