<?xml version='1.0' encoding='UTF-8'?>
<osm version="0.6" generator="libosmium/2.20.0">
  <way id="114448565" version="1" timestamp="2011-05-22T18:41:31Z" uid="244719" user="BigViking" changeset="8219604">
    <nd ref="1296486413"/>
    <nd ref="1296486412"/>
    <nd ref="1296486511"/>
    <nd ref="1296486508"/>
    <nd ref="1296486413"/>
    <tag k="addr:housenumber" v="30"/>
    <tag k="addr:street" v="Первомайская"/>
    <tag k="building" v="yes"/>
  </way>
  <way id="114448565" version="2" timestamp="2011-05-23T11:58:46Z" uid="115477" user="wowik" changeset="8225200">
    <nd ref="1296486413"/>
    <nd ref="1296486412"/>
    <nd ref="1297209819"/>
    <nd ref="1297209995"/>
    <nd ref="1296486511"/>
    <nd ref="1296486508"/>
    <nd ref="1296486413"/>
    <tag k="addr:housenumber" v="30"/>
    <tag k="addr:street" v="Первомайская"/>
    <tag k="building" v="yes"/>
  </way>
  <way id="114448565" version="3" timestamp="2011-05-26T16:24:48Z" uid="115477" user="wowik" changeset="8254922">
    <nd ref="1296486413"/>
    <nd ref="1296486412"/>
    <nd ref="1297209819"/>
    <nd ref="1297209995"/>
    <nd ref="1296486511"/>
    <nd ref="1296486508"/>
    <nd ref="1296486413"/>
    <tag k="addr:housenumber" v="30"/>
    <tag k="addr:street" v="Первомайская улица"/>
    <tag k="building" v="yes"/>
  </way>
  <way id="114448565" version="4" timestamp="2011-05-27T08:19:34Z" uid="115477" user="wowik" changeset="8259980"/>
  <way id="114448567" version="1" timestamp="2011-05-22T18:41:31Z" uid="244719" user="BigViking" changeset="8219604">
    <nd ref="306524432"/>
    <nd ref="306524459"/>
    <nd ref="332681134"/>
    <nd ref="332681183"/>
    <nd ref="332681137"/>
    <tag k="highway" v="tertiary_link"/>
    <tag k="name" v="проезд"/>
  </way>
  <way id="114448567" version="2" timestamp="2011-05-23T19:00:40Z" uid="115477" user="wowik" changeset="8229007">
    <nd ref="306524432"/>
    <nd ref="306524459"/>
    <nd ref="332681134"/>
    <nd ref="332681183"/>
    <nd ref="332681137"/>
    <tag k="description" v="проезд"/>
    <tag k="highway" v="unclassified"/>
  </way>
  <way id="114448567" version="3" timestamp="2011-06-06T13:49:51Z" uid="115477" user="wowik" changeset="8360438">
    <nd ref="306524432"/>
    <nd ref="306524459"/>
    <nd ref="1314107152"/>
    <nd ref="332681134"/>
    <nd ref="332681183"/>
    <nd ref="332681137"/>
    <tag k="description" v="проезд"/>
    <tag k="highway" v="unclassified"/>
  </way>
  <way id="114448569" version="1" timestamp="2011-05-22T18:41:31Z" uid="244719" user="BigViking" changeset="8219604">
    <nd ref="902393472"/>
    <nd ref="902393474"/>
    <nd ref="902393477"/>
    <nd ref="663889245"/>
    <nd ref="663889246"/>
    <nd ref="663889229"/>
    <tag k="highway" v="footway"/>
    <tag k="surface" v="gravel"/>
  </way>
  <way id="114448569" version="2" timestamp="2011-05-24T20:11:38Z" uid="115477" user="wowik" changeset="8239262">
    <nd ref="902393472"/>
    <nd ref="1298752500"/>
    <nd ref="902393477"/>
    <nd ref="663889245"/>
    <nd ref="663889246"/>
    <nd ref="663889229"/>
    <tag k="highway" v="footway"/>
    <tag k="surface" v="gravel"/>
  </way>
  <way id="114448571" version="2" timestamp="2011-05-26T16:24:49Z" uid="115477" user="wowik" changeset="8254922">
    <nd ref="1296486416"/>
    <nd ref="1296486439"/>
    <nd ref="1296486469"/>
    <nd ref="1296486479"/>
    <nd ref="1296486416"/>
    <tag k="addr:housenumber" v="24"/>
    <tag k="addr:street" v="Первомайская улица"/>
    <tag k="building" v="yes"/>
  </way>
  <way id="114448571" version="3" timestamp="2011-05-27T08:19:34Z" uid="115477" user="wowik" changeset="8259980"/>
  <way id="114448572" version="3" timestamp="2011-05-26T16:24:49Z" uid="115477" user="wowik" changeset="8254922">
    <nd ref="1296576787"/>
    <nd ref="902408841"/>
    <nd ref="332681137"/>
    <nd ref="332681233"/>
    <tag k="highway" v="tertiary"/>
    <tag k="name" v="Первомайская улица"/>
  </way>
  <way id="114448572" version="4" timestamp="2011-12-09T09:23:46Z" uid="481934" user="iWowik" changeset="10071522">
    <nd ref="1296576787"/>
    <nd ref="902408841"/>
    <nd ref="332681137"/>
    <nd ref="332681233"/>
    <tag k="highway" v="tertiary"/>
    <tag k="name" v="Первомайская улица"/>
    <tag k="name:be" v="Першамайская вулiца"/>
  </way>
  <way id="114448573" version="2" timestamp="2011-05-26T16:24:47Z" uid="115477" user="wowik" changeset="8254922">
    <nd ref="1296486464"/>
    <nd ref="1296486415"/>
    <nd ref="1296486410"/>
    <nd ref="1296486411"/>
    <nd ref="1296486464"/>
    <tag k="addr:housenumber" v="28"/>
    <tag k="addr:street" v="Первомайская улица"/>
    <tag k="building" v="yes"/>
  </way>
  <way id="114448573" version="3" timestamp="2011-05-27T08:19:33Z" uid="115477" user="wowik" changeset="8259980"/>
  <way id="114448574" version="1" timestamp="2011-05-22T18:41:32Z" uid="244719" user="BigViking" changeset="8219604">
    <nd ref="1296486465"/>
    <nd ref="1296486466"/>
    <nd ref="1296486457"/>
    <nd ref="1296486467"/>
    <nd ref="1296486465"/>
    <tag k="addr:housenumber" v="20"/>
    <tag k="addr:street" v="2-я Сестрорецкая"/>
    <tag k="building" v="yes"/>
  </way>
  <way id="114448574" version="2" timestamp="2011-05-23T13:16:24Z" uid="115477" user="wowik" changeset="8225200">
    <nd ref="1296486465"/>
    <nd ref="1296486466"/>
    <nd ref="1296486457"/>
    <nd ref="1296486467"/>
    <nd ref="1296486465"/>
    <tag k="addr:housenumber" v="20"/>
    <tag k="addr:street" v="2-я Сестрорецкая улица"/>
    <tag k="building" v="yes"/>
    <tag k="building:levels" v="1"/>
    <tag k="building:use" v="residential"/>
  </way>
  <way id="114448574" version="3" timestamp="2011-05-26T16:24:48Z" uid="115477" user="wowik" changeset="8254922">
    <nd ref="1296486465"/>
    <nd ref="1296486466"/>
    <nd ref="1296486457"/>
    <nd ref="1296486467"/>
    <nd ref="1296486465"/>
    <tag k="addr:street" v="Первомайская улица"/>
    <tag k="building" v="yes"/>
  </way>
  <way id="114448574" version="4" timestamp="2011-05-27T08:19:33Z" uid="115477" user="wowik" changeset="8259980">
    <nd ref="1296486465"/>
    <nd ref="1296486466"/>
    <nd ref="1296486457"/>
    <nd ref="1296486467"/>
    <nd ref="1296486465"/>
    <tag k="addr:housenumber" v="20"/>
    <tag k="addr:street" v="Первомайская улица"/>
    <tag k="building" v="yes"/>
    <tag k="building:levels" v="1"/>
    <tag k="building:use" v="residential"/>
  </way>
  <way id="114448576" version="1" timestamp="2011-05-22T18:41:32Z" uid="244719" user="BigViking" changeset="8219604">
    <nd ref="1296486528"/>
    <nd ref="1296486523"/>
    <nd ref="1296486525"/>
    <nd ref="1296486501"/>
    <nd ref="1296486528"/>
    <tag k="addr:housenumber" v="30"/>
    <tag k="addr:street" v="1-я Сестрорецкая"/>
    <tag k="building" v="yes"/>
  </way>
  <way id="114448576" version="2" timestamp="2011-05-23T12:44:21Z" uid="115477" user="wowik" changeset="8225200">
    <nd ref="1296486528"/>
    <nd ref="1297244849"/>
    <nd ref="1297244894"/>
    <nd ref="1296486523"/>
    <nd ref="1296486525"/>
    <nd ref="1297244826"/>
    <nd ref="1297244870"/>
    <nd ref="1296486501"/>
    <nd ref="1296486528"/>
    <tag k="addr:housenumber" v="31"/>
    <tag k="addr:street" v="1-я Сестрорецкая"/>
    <tag k="building" v="yes"/>
  </way>
  <way id="114448576" version="3" timestamp="2011-05-23T13:16:32Z" uid="115477" user="wowik" changeset="8225200">
    <nd ref="1296486528"/>
    <nd ref="1297244849"/>
    <nd ref="1297244894"/>
    <nd ref="1296486523"/>
    <nd ref="1296486525"/>
    <nd ref="1297244826"/>
    <nd ref="1297244870"/>
    <nd ref="1296486501"/>
    <nd ref="1296486528"/>
    <tag k="addr:housenumber" v="31"/>
    <tag k="addr:street" v="1-я Сестрорецкая улица"/>
    <tag k="building" v="yes"/>
    <tag k="building:levels" v="1"/>
    <tag k="building:use" v="residential"/>
  </way>
  <way id="114448577" version="2" timestamp="2011-05-26T16:24:48Z" uid="115477" user="wowik" changeset="8254922">
    <nd ref="1296486426"/>
    <nd ref="1296486485"/>
    <nd ref="1296486484"/>
    <nd ref="1296486483"/>
    <nd ref="1296486426"/>
    <tag k="addr:housenumber" v="32"/>
    <tag k="addr:street" v="Первомайская улица"/>
    <tag k="building" v="yes"/>
  </way>
  <way id="114448577" version="3" timestamp="2011-05-27T08:19:32Z" uid="115477" user="wowik" changeset="8259980">
    <nd ref="1296486426"/>
    <nd ref="1296486485"/>
    <nd ref="1296486484"/>
    <nd ref="1296486483"/>
    <nd ref="1296486426"/>
    <tag k="addr:housenumber" v="32"/>
    <tag k="addr:street" v="Первомайская улица"/>
    <tag k="building" v="yes"/>
    <tag k="building:levels" v="1"/>
    <tag k="building:use" v="residential"/>
  </way>
  <way id="114448580" version="1" timestamp="2011-05-22T18:41:33Z" uid="244719" user="BigViking" changeset="8219604">
    <nd ref="1296486526"/>
    <nd ref="1296486535"/>
    <nd ref="1296486470"/>
    <nd ref="1296486527"/>
    <nd ref="1296486526"/>
    <tag k="addr:housenumber" v="34"/>
    <tag k="addr:street" v="Первомайская"/>
    <tag k="building" v="yes"/>
  </way>
  <way id="114448580" version="2" timestamp="2011-05-23T11:58:46Z" uid="115477" user="wowik" changeset="8225200">
    <nd ref="1296486526"/>
    <nd ref="1296486535"/>
    <nd ref="1296486470"/>
    <nd ref="1296486527"/>
    <nd ref="1297209865"/>
    <nd ref="1297209936"/>
    <nd ref="1296486526"/>
    <tag k="addr:housenumber" v="34"/>
    <tag k="addr:street" v="Первомайская"/>
    <tag k="building" v="yes"/>
  </way>
  <way id="114448580" version="3" timestamp="2011-05-26T16:24:47Z" uid="115477" user="wowik" changeset="8254922">
    <nd ref="1296486526"/>
    <nd ref="1296486535"/>
    <nd ref="1296486470"/>
    <nd ref="1296486527"/>
    <nd ref="1297209865"/>
    <nd ref="1297209936"/>
    <nd ref="1296486526"/>
    <tag k="addr:housenumber" v="34"/>
    <tag k="addr:street" v="Первомайская улица"/>
    <tag k="building" v="yes"/>
  </way>
  <way id="114448580" version="4" timestamp="2011-05-27T08:19:33Z" uid="115477" user="wowik" changeset="8259980"/>
  <way id="114448583" version="1" timestamp="2011-05-22T18:41:33Z" uid="244719" user="BigViking" changeset="8219604">
    <nd ref="1296486442"/>
    <nd ref="663888714"/>
    <tag k="highway" v="footway"/>
  </way>
  <way id="114448583" version="2" timestamp="2011-05-24T20:12:11Z" uid="115477" user="wowik" changeset="8239262">
    <nd ref="1298752500"/>
    <nd ref="1296486442"/>
    <nd ref="663888714"/>
    <tag k="highway" v="footway"/>
  </way>
</osm>
