<?xml version='1.0' encoding='UTF-8'?>
<osm version="0.6" generator="libosmium/2.20.0">
  <way id="11456336" version="1" timestamp="2007-11-08T06:32:27Z" uid="7617" user="Franc" changeset="441827">
    <nd ref="31428459"/>
    <nd ref="31428460"/>
    <tag k="created_by" v="Potlatch alpha"/>
    <tag k="highway" v="motorway"/>
    <tag k="name" v="Western Motorway"/>
    <tag k="oneway" v="yes"/>
    <tag k="ref" v="MR4"/>
  </way>
  <way id="11456336" version="2" timestamp="2008-01-21T15:26:40Z" uid="12203" user="brainwad" changeset="678205"/>
  <way id="11456337" version="1" timestamp="2007-11-08T06:32:28Z" uid="7617" user="Franc" changeset="441827">
    <nd ref="101999468"/>
    <nd ref="31428462"/>
    <nd ref="36611407"/>
    <nd ref="31428463"/>
    <nd ref="31428464"/>
    <nd ref="31428465"/>
    <nd ref="26399869"/>
    <nd ref="26399864"/>
    <nd ref="26399870"/>
    <nd ref="36611323"/>
    <nd ref="26399871"/>
    <nd ref="26399872"/>
    <nd ref="26399862"/>
    <nd ref="26399863"/>
    <nd ref="36611324"/>
    <nd ref="26399843"/>
    <nd ref="26399858"/>
    <nd ref="26399859"/>
    <nd ref="26399860"/>
    <nd ref="26399861"/>
    <nd ref="37533990"/>
    <nd ref="31428466"/>
    <nd ref="26399109"/>
    <nd ref="26399111"/>
    <tag k="created_by" v="Potlatch alpha"/>
    <tag k="highway" v="motorway"/>
    <tag k="name" v="Western Motorway"/>
    <tag k="oneway" v="yes"/>
    <tag k="ref" v="MR4"/>
  </way>
  <way id="11456337" version="2" timestamp="2007-11-26T06:40:06Z" uid="12203" user="brainwad" changeset="621461">
    <nd ref="101999468"/>
    <nd ref="31428462"/>
    <nd ref="36611407"/>
    <nd ref="31428463"/>
    <nd ref="31428464"/>
    <nd ref="31428465"/>
    <nd ref="26399869"/>
    <nd ref="26399864"/>
    <nd ref="26399870"/>
    <nd ref="36611323"/>
    <nd ref="26399871"/>
    <nd ref="26399872"/>
    <nd ref="26399862"/>
    <nd ref="26399863"/>
    <nd ref="36611324"/>
    <nd ref="26399843"/>
    <nd ref="26399858"/>
    <nd ref="26399859"/>
    <nd ref="26399860"/>
    <nd ref="26399861"/>
    <nd ref="37533990"/>
    <nd ref="31428466"/>
    <nd ref="26399109"/>
    <nd ref="26399111"/>
    <tag k="created_by" v="Potlatch 0.5d"/>
    <tag k="highway" v="motorway"/>
    <tag k="name" v="Western Motorway"/>
    <tag k="oneway" v="yes"/>
    <tag k="ref" v="MR4"/>
  </way>
  <way id="11456337" version="3" timestamp="2008-01-21T15:25:17Z" uid="12203" user="brainwad" changeset="678205">
    <nd ref="101999468"/>
    <nd ref="31428462"/>
    <nd ref="36611407"/>
    <nd ref="241544196"/>
    <tag k="created_by" v="Potlatch 0.6c"/>
    <tag k="highway" v="motorway"/>
    <tag k="name" v="Western Motorway"/>
    <tag k="oneway" v="yes"/>
    <tag k="ref" v="MR4"/>
  </way>
  <way id="11456337" version="4" timestamp="2008-01-21T15:27:13Z" uid="12203" user="brainwad" changeset="678205">
    <nd ref="101999468"/>
    <nd ref="31428462"/>
    <nd ref="36611407"/>
    <nd ref="241544196"/>
    <tag k="created_by" v="Potlatch 0.6c"/>
    <tag k="highway" v="motorway"/>
    <tag k="lanes" v="2"/>
    <tag k="name" v="Western Motorway"/>
    <tag k="oneway" v="yes"/>
    <tag k="ref" v="MR4"/>
  </way>
  <way id="11456337" version="5" timestamp="2009-12-26T16:53:11Z" uid="12203" user="brainwad" changeset="3455356">
    <nd ref="101999468"/>
    <nd ref="31428462"/>
    <nd ref="36611407"/>
    <nd ref="241544196"/>
    <tag k="highway" v="motorway"/>
    <tag k="lanes" v="2"/>
    <tag k="maxspeed" v="signals"/>
    <tag k="name" v="Western Motorway"/>
    <tag k="oneway" v="yes"/>
    <tag k="ref" v="MR4"/>
  </way>
  <way id="11456337" version="6" timestamp="2010-04-01T07:51:09Z" uid="74617" user="JohnSmith" changeset="4291360">
    <nd ref="101999468"/>
    <nd ref="31428462"/>
    <nd ref="36611407"/>
    <nd ref="241544196"/>
    <tag k="highway" v="motorway"/>
    <tag k="lanes" v="2"/>
    <tag k="maxspeed" v="signals"/>
    <tag k="oneway" v="yes"/>
  </way>
  <way id="11456337" version="7" timestamp="2010-06-19T03:08:46Z" uid="299678" user="peteramjet" changeset="5020744">
    <nd ref="101999468"/>
    <nd ref="31428462"/>
    <nd ref="36611407"/>
    <nd ref="241544196"/>
    <tag k="highway" v="motorway"/>
    <tag k="lanes" v="2"/>
    <tag k="maxspeed" v="signals"/>
    <tag k="name" v="M4 Western Motorway"/>
    <tag k="oneway" v="yes"/>
  </way>
  <way id="11456337" version="8" timestamp="2010-06-30T08:05:27Z" uid="299678" user="peteramjet" changeset="5111489">
    <nd ref="101999468"/>
    <nd ref="31428462"/>
    <nd ref="36611407"/>
    <nd ref="241544196"/>
    <tag k="highway" v="motorway"/>
    <tag k="lanes" v="2"/>
    <tag k="maxspeed" v="signals"/>
    <tag k="name" v="M4 Western Motorway"/>
    <tag k="oneway" v="yes"/>
    <tag k="ref" v="MR4"/>
  </way>
  <way id="11456337" version="9" timestamp="2010-07-09T23:04:26Z" uid="299678" user="peteramjet" changeset="5177814">
    <nd ref="101999468"/>
    <nd ref="31428462"/>
    <nd ref="36611407"/>
    <nd ref="241544196"/>
    <tag k="highway" v="motorway"/>
    <tag k="lanes" v="2"/>
    <tag k="maxspeed" v="signals"/>
    <tag k="name" v="M4 Western Motorway"/>
    <tag k="oneway" v="yes"/>
  </way>
  <way id="11456337" version="10" timestamp="2011-07-01T08:45:36Z" uid="479985" user="Adutchoz" changeset="8597179">
    <nd ref="101999468"/>
    <nd ref="31428462"/>
    <nd ref="36611407"/>
    <nd ref="241544196"/>
    <tag k="highway" v="motorway"/>
    <tag k="lanes" v="2"/>
    <tag k="maxspeed" v="90"/>
    <tag k="name" v="M4 Western Motorway"/>
    <tag k="oneway" v="yes"/>
  </way>
  <way id="11456337" version="11" timestamp="2012-01-31T05:36:54Z" uid="54784" user="Tom Hollander" changeset="10546288">
    <nd ref="101999468"/>
    <nd ref="31428462"/>
    <nd ref="36611407"/>
    <nd ref="241544196"/>
    <tag k="highway" v="motorway"/>
    <tag k="lanes" v="2"/>
    <tag k="maxspeed" v="90"/>
    <tag k="name" v="M4 Western Motorway"/>
    <tag k="oneway" v="yes"/>
    <tag k="ref" v="M4"/>
  </way>
  <way id="11456339" version="1" timestamp="2007-11-08T06:32:29Z" uid="7617" user="Franc" changeset="441827">
    <nd ref="101999459"/>
    <nd ref="25630038"/>
    <nd ref="101999483"/>
    <tag k="bridge" v="yes"/>
    <tag k="created_by" v="Potlatch alpha"/>
    <tag k="highway" v="motorway"/>
    <tag k="layer" v="1"/>
    <tag k="name" v="Western Motorway"/>
    <tag k="oneway" v="yes"/>
    <tag k="ref" v="MR4"/>
  </way>
  <way id="11456339" version="2" timestamp="2008-01-21T15:26:57Z" uid="12203" user="brainwad" changeset="678205">
    <nd ref="101999459"/>
    <nd ref="25630038"/>
    <nd ref="101999483"/>
    <tag k="bridge" v="yes"/>
    <tag k="created_by" v="Potlatch 0.6c"/>
    <tag k="highway" v="motorway"/>
    <tag k="lanes" v="2"/>
    <tag k="layer" v="1"/>
    <tag k="name" v="Western Motorway"/>
    <tag k="oneway" v="yes"/>
    <tag k="ref" v="MR4"/>
  </way>
  <way id="11456339" version="3" timestamp="2009-12-26T16:53:18Z" uid="12203" user="brainwad" changeset="3455356">
    <nd ref="101999459"/>
    <nd ref="25630038"/>
    <nd ref="101999483"/>
    <tag k="bridge" v="yes"/>
    <tag k="highway" v="motorway"/>
    <tag k="lanes" v="2"/>
    <tag k="layer" v="1"/>
    <tag k="maxspeed" v="signals"/>
    <tag k="name" v="Western Motorway"/>
    <tag k="oneway" v="yes"/>
    <tag k="ref" v="MR4"/>
  </way>
  <way id="11456339" version="4" timestamp="2010-04-01T07:53:44Z" uid="74617" user="JohnSmith" changeset="4291360">
    <nd ref="101999459"/>
    <nd ref="25630038"/>
    <nd ref="101999483"/>
    <tag k="bridge" v="yes"/>
    <tag k="highway" v="motorway"/>
    <tag k="lanes" v="2"/>
    <tag k="layer" v="1"/>
    <tag k="maxspeed" v="signals"/>
    <tag k="oneway" v="yes"/>
  </way>
  <way id="11456339" version="5" timestamp="2010-06-19T03:08:49Z" uid="299678" user="peteramjet" changeset="5020744">
    <nd ref="101999459"/>
    <nd ref="25630038"/>
    <nd ref="101999483"/>
    <tag k="bridge" v="yes"/>
    <tag k="highway" v="motorway"/>
    <tag k="lanes" v="2"/>
    <tag k="layer" v="1"/>
    <tag k="maxspeed" v="signals"/>
    <tag k="name" v="M4 Western Motorway"/>
    <tag k="oneway" v="yes"/>
  </way>
  <way id="11456339" version="6" timestamp="2010-06-30T08:05:00Z" uid="299678" user="peteramjet" changeset="5111489">
    <nd ref="101999459"/>
    <nd ref="25630038"/>
    <nd ref="101999483"/>
    <tag k="bridge" v="yes"/>
    <tag k="highway" v="motorway"/>
    <tag k="lanes" v="2"/>
    <tag k="layer" v="1"/>
    <tag k="maxspeed" v="signals"/>
    <tag k="name" v="M4 Western Motorway"/>
    <tag k="oneway" v="yes"/>
    <tag k="ref" v="MR4"/>
  </way>
  <way id="11456339" version="7" timestamp="2010-07-09T23:00:57Z" uid="299678" user="peteramjet" changeset="5177814">
    <nd ref="101999459"/>
    <nd ref="25630038"/>
    <nd ref="101999483"/>
    <tag k="bridge" v="yes"/>
    <tag k="highway" v="motorway"/>
    <tag k="lanes" v="2"/>
    <tag k="layer" v="1"/>
    <tag k="maxspeed" v="signals"/>
    <tag k="name" v="M4 Western Motorway"/>
    <tag k="oneway" v="yes"/>
  </way>
  <way id="11456339" version="8" timestamp="2011-07-01T08:45:36Z" uid="479985" user="Adutchoz" changeset="8597179">
    <nd ref="101999459"/>
    <nd ref="25630038"/>
    <nd ref="101999483"/>
    <tag k="bridge" v="yes"/>
    <tag k="highway" v="motorway"/>
    <tag k="lanes" v="2"/>
    <tag k="layer" v="1"/>
    <tag k="maxspeed" v="90"/>
    <tag k="name" v="M4 Western Motorway"/>
    <tag k="oneway" v="yes"/>
  </way>
  <way id="11456339" version="9" timestamp="2012-01-31T05:36:56Z" uid="54784" user="Tom Hollander" changeset="10546288">
    <nd ref="101999459"/>
    <nd ref="25630038"/>
    <nd ref="101999483"/>
    <tag k="bridge" v="yes"/>
    <tag k="highway" v="motorway"/>
    <tag k="lanes" v="2"/>
    <tag k="layer" v="1"/>
    <tag k="maxspeed" v="90"/>
    <tag k="name" v="M4 Western Motorway"/>
    <tag k="oneway" v="yes"/>
    <tag k="ref" v="M4"/>
  </way>
  <way id="11456341" version="1" timestamp="2007-11-08T06:32:29Z" uid="7617" user="Franc" changeset="441827">
    <nd ref="31428460"/>
    <nd ref="31428461"/>
    <nd ref="101999468"/>
    <tag k="bridge" v="yes"/>
    <tag k="created_by" v="Potlatch alpha"/>
    <tag k="highway" v="motorway"/>
    <tag k="layer" v="1"/>
    <tag k="name" v="Western Motorway"/>
    <tag k="oneway" v="yes"/>
    <tag k="ref" v="MR4"/>
  </way>
  <way id="11456341" version="2" timestamp="2008-01-21T15:26:48Z" uid="12203" user="brainwad" changeset="678205">
    <nd ref="31428460"/>
    <nd ref="31428461"/>
    <nd ref="101999468"/>
    <tag k="bridge" v="yes"/>
    <tag k="created_by" v="Potlatch 0.6c"/>
    <tag k="highway" v="motorway"/>
    <tag k="lanes" v="2"/>
    <tag k="layer" v="1"/>
    <tag k="name" v="Western Motorway"/>
    <tag k="oneway" v="yes"/>
    <tag k="ref" v="MR4"/>
  </way>
  <way id="11456341" version="3" timestamp="2009-12-26T16:53:35Z" uid="12203" user="brainwad" changeset="3455356">
    <nd ref="31428460"/>
    <nd ref="31428461"/>
    <nd ref="101999468"/>
    <tag k="bridge" v="yes"/>
    <tag k="highway" v="motorway"/>
    <tag k="lanes" v="2"/>
    <tag k="layer" v="1"/>
    <tag k="maxspeed" v="signals"/>
    <tag k="name" v="Western Motorway"/>
    <tag k="oneway" v="yes"/>
    <tag k="ref" v="MR4"/>
  </way>
  <way id="11456341" version="4" timestamp="2010-04-01T07:53:44Z" uid="74617" user="JohnSmith" changeset="4291360">
    <nd ref="31428460"/>
    <nd ref="31428461"/>
    <nd ref="101999468"/>
    <tag k="bridge" v="yes"/>
    <tag k="highway" v="motorway"/>
    <tag k="lanes" v="2"/>
    <tag k="layer" v="1"/>
    <tag k="maxspeed" v="signals"/>
    <tag k="oneway" v="yes"/>
  </way>
  <way id="11456341" version="5" timestamp="2010-06-19T03:08:46Z" uid="299678" user="peteramjet" changeset="5020744">
    <nd ref="31428460"/>
    <nd ref="31428461"/>
    <nd ref="101999468"/>
    <tag k="bridge" v="yes"/>
    <tag k="highway" v="motorway"/>
    <tag k="lanes" v="2"/>
    <tag k="layer" v="1"/>
    <tag k="maxspeed" v="signals"/>
    <tag k="name" v="M4 Western Motorway"/>
    <tag k="oneway" v="yes"/>
  </way>
  <way id="11456341" version="6" timestamp="2010-06-30T08:05:00Z" uid="299678" user="peteramjet" changeset="5111489">
    <nd ref="31428460"/>
    <nd ref="31428461"/>
    <nd ref="101999468"/>
    <tag k="bridge" v="yes"/>
    <tag k="highway" v="motorway"/>
    <tag k="lanes" v="2"/>
    <tag k="layer" v="1"/>
    <tag k="maxspeed" v="signals"/>
    <tag k="name" v="M4 Western Motorway"/>
    <tag k="oneway" v="yes"/>
    <tag k="ref" v="MR4"/>
  </way>
  <way id="11456341" version="7" timestamp="2010-07-09T23:00:57Z" uid="299678" user="peteramjet" changeset="5177814">
    <nd ref="31428460"/>
    <nd ref="31428461"/>
    <nd ref="101999468"/>
    <tag k="bridge" v="yes"/>
    <tag k="highway" v="motorway"/>
    <tag k="lanes" v="2"/>
    <tag k="layer" v="1"/>
    <tag k="maxspeed" v="signals"/>
    <tag k="name" v="M4 Western Motorway"/>
    <tag k="oneway" v="yes"/>
  </way>
  <way id="11456341" version="8" timestamp="2011-07-01T08:45:36Z" uid="479985" user="Adutchoz" changeset="8597179">
    <nd ref="31428460"/>
    <nd ref="31428461"/>
    <nd ref="101999468"/>
    <tag k="bridge" v="yes"/>
    <tag k="highway" v="motorway"/>
    <tag k="lanes" v="2"/>
    <tag k="layer" v="1"/>
    <tag k="maxspeed" v="90"/>
    <tag k="name" v="M4 Western Motorway"/>
    <tag k="oneway" v="yes"/>
  </way>
  <way id="11456341" version="9" timestamp="2011-08-11T09:27:34Z" uid="162096" user="Daz" changeset="8983677">
    <nd ref="31428460"/>
    <nd ref="31428461"/>
    <nd ref="1394668403"/>
    <nd ref="101999468"/>
    <tag k="bridge" v="yes"/>
    <tag k="highway" v="motorway"/>
    <tag k="lanes" v="2"/>
    <tag k="layer" v="1"/>
    <tag k="maxspeed" v="90"/>
    <tag k="name" v="M4 Western Motorway"/>
    <tag k="oneway" v="yes"/>
  </way>
  <way id="11456341" version="10" timestamp="2012-01-31T05:36:55Z" uid="54784" user="Tom Hollander" changeset="10546288">
    <nd ref="31428460"/>
    <nd ref="31428461"/>
    <nd ref="1394668403"/>
    <nd ref="101999468"/>
    <tag k="bridge" v="yes"/>
    <tag k="highway" v="motorway"/>
    <tag k="lanes" v="2"/>
    <tag k="layer" v="1"/>
    <tag k="maxspeed" v="90"/>
    <tag k="name" v="M4 Western Motorway"/>
    <tag k="oneway" v="yes"/>
    <tag k="ref" v="M4"/>
  </way>
  <way id="11456342" version="1" timestamp="2007-11-08T06:32:30Z" uid="7617" user="Franc" changeset="441827">
    <nd ref="101999483"/>
    <nd ref="25630039"/>
    <nd ref="26769171"/>
    <nd ref="26769172"/>
    <nd ref="26769173"/>
    <nd ref="26769174"/>
    <nd ref="26769175"/>
    <nd ref="26769176"/>
    <nd ref="26769177"/>
    <nd ref="26769178"/>
    <nd ref="26769179"/>
    <nd ref="26769180"/>
    <nd ref="20146956"/>
    <tag k="created_by" v="Potlatch alpha"/>
    <tag k="highway" v="motorway"/>
    <tag k="name" v="Western Motorway"/>
    <tag k="oneway" v="yes"/>
    <tag k="ref" v="MR4"/>
  </way>
  <way id="11456342" version="2" timestamp="2008-01-21T15:26:22Z" uid="12203" user="brainwad" changeset="678205">
    <nd ref="101999483"/>
    <nd ref="25630039"/>
    <nd ref="26769171"/>
    <nd ref="26769172"/>
    <tag k="created_by" v="Potlatch 0.6c"/>
    <tag k="highway" v="motorway"/>
    <tag k="name" v="Western Motorway"/>
    <tag k="oneway" v="yes"/>
    <tag k="ref" v="MR4"/>
  </way>
  <way id="11456342" version="3" timestamp="2008-01-21T15:26:33Z" uid="12203" user="brainwad" changeset="678205">
    <nd ref="101999483"/>
    <nd ref="25630039"/>
    <nd ref="26769171"/>
    <nd ref="26769172"/>
    <tag k="created_by" v="Potlatch 0.6c"/>
    <tag k="highway" v="motorway"/>
    <tag k="lanes" v="2"/>
    <tag k="name" v="Western Motorway"/>
    <tag k="oneway" v="yes"/>
    <tag k="ref" v="MR4"/>
  </way>
  <way id="11456342" version="4" timestamp="2009-12-17T00:21:44Z" uid="30201" user="rrankin" changeset="3390791">
    <nd ref="101999483"/>
    <nd ref="25630039"/>
    <nd ref="26769171"/>
    <nd ref="26769172"/>
    <tag k="highway" v="motorway"/>
    <tag k="lanes" v="2"/>
    <tag k="maxspeed" v="60"/>
    <tag k="name" v="Western Motorway"/>
    <tag k="oneway" v="yes"/>
    <tag k="ref" v="MR4"/>
  </way>
  <way id="11456342" version="5" timestamp="2010-04-01T07:53:44Z" uid="74617" user="JohnSmith" changeset="4291360">
    <nd ref="101999483"/>
    <nd ref="25630039"/>
    <nd ref="679661739"/>
    <nd ref="26769171"/>
    <nd ref="26769172"/>
    <tag k="highway" v="motorway"/>
    <tag k="lanes" v="2"/>
    <tag k="maxspeed" v="60"/>
    <tag k="oneway" v="yes"/>
  </way>
  <way id="11456342" version="6" timestamp="2010-06-19T03:08:49Z" uid="299678" user="peteramjet" changeset="5020744">
    <nd ref="101999483"/>
    <nd ref="25630039"/>
    <nd ref="679661739"/>
    <nd ref="26769171"/>
    <nd ref="26769172"/>
    <tag k="highway" v="motorway"/>
    <tag k="lanes" v="2"/>
    <tag k="maxspeed" v="60"/>
    <tag k="name" v="M4 Western Motorway"/>
    <tag k="oneway" v="yes"/>
  </way>
  <way id="11456342" version="7" timestamp="2010-07-04T00:03:09Z" uid="299678" user="peteramjet" changeset="5129047">
    <nd ref="101999483"/>
    <nd ref="25630039"/>
    <nd ref="679661739"/>
    <nd ref="26769171"/>
    <nd ref="26769172"/>
    <tag k="highway" v="motorway"/>
    <tag k="lanes" v="2"/>
    <tag k="maxspeed" v="60"/>
    <tag k="name" v="M4 Western Motorway"/>
    <tag k="oneway" v="yes"/>
    <tag k="ref" v="MR4"/>
  </way>
  <way id="11456342" version="8" timestamp="2010-07-09T23:00:56Z" uid="299678" user="peteramjet" changeset="5177814">
    <nd ref="101999483"/>
    <nd ref="25630039"/>
    <nd ref="679661739"/>
    <nd ref="26769171"/>
    <nd ref="26769172"/>
    <tag k="highway" v="motorway"/>
    <tag k="lanes" v="2"/>
    <tag k="maxspeed" v="60"/>
    <tag k="name" v="M4 Western Motorway"/>
    <tag k="oneway" v="yes"/>
  </way>
  <way id="11456342" version="9" timestamp="2012-01-31T05:36:55Z" uid="54784" user="Tom Hollander" changeset="10546288">
    <nd ref="101999483"/>
    <nd ref="25630039"/>
    <nd ref="679661739"/>
    <nd ref="26769171"/>
    <nd ref="26769172"/>
    <tag k="highway" v="motorway"/>
    <tag k="lanes" v="2"/>
    <tag k="maxspeed" v="60"/>
    <tag k="name" v="M4 Western Motorway"/>
    <tag k="oneway" v="yes"/>
    <tag k="ref" v="M4"/>
  </way>
</osm>
