<?xml version='1.0' encoding='UTF-8'?>
<osm version="0.6" generator="libosmium/2.20.0">
  <way id="11486388" version="6" timestamp="2011-03-05T02:05:57Z" uid="4467" user="Rosscoe" changeset="7459719">
    <nd ref="258472197"/>
    <nd ref="258472198"/>
    <nd ref="258472199"/>
    <nd ref="258472200"/>
    <nd ref="563650809"/>
    <nd ref="1186750121"/>
    <nd ref="102359849"/>
    <tag k="highway" v="tertiary"/>
    <tag k="name" v="Hanvover Road"/>
    <tag k="oneway" v="yes"/>
  </way>
  <way id="11486388" version="7" timestamp="2011-08-09T15:21:14Z" uid="11111" user="melb_guy" changeset="8967942">
    <nd ref="258472197"/>
    <nd ref="258472198"/>
    <nd ref="258472199"/>
    <nd ref="258472200"/>
    <nd ref="563650809"/>
    <nd ref="1186750121"/>
    <nd ref="102359849"/>
    <tag k="highway" v="tertiary"/>
    <tag k="maxspeed" v="50"/>
    <tag k="name" v="Hanvover Road"/>
    <tag k="oneway" v="yes"/>
    <tag k="surface" v="asphalt"/>
  </way>
  <way id="11486388" version="8" timestamp="2011-08-11T03:16:10Z" uid="11111" user="melb_guy" changeset="8982008">
    <nd ref="258472197"/>
    <nd ref="258472199"/>
    <nd ref="258472200"/>
    <nd ref="1394379307"/>
    <nd ref="563650809"/>
    <nd ref="1186750121"/>
    <nd ref="102359849"/>
    <tag k="highway" v="tertiary"/>
    <tag k="maxspeed" v="50"/>
    <tag k="name" v="Hanvover Road"/>
    <tag k="oneway" v="yes"/>
    <tag k="surface" v="asphalt"/>
  </way>
  <way id="11486388" version="9" timestamp="2011-08-11T03:24:25Z" uid="11111" user="melb_guy" changeset="8982008">
    <nd ref="258472197"/>
    <nd ref="258472199"/>
    <nd ref="258472200"/>
    <nd ref="1394379307"/>
    <nd ref="563650809"/>
    <nd ref="1186750121"/>
    <tag k="highway" v="tertiary"/>
    <tag k="maxspeed" v="50"/>
    <tag k="name" v="Hanvover Road"/>
    <tag k="oneway" v="yes"/>
    <tag k="surface" v="asphalt"/>
  </way>
  <way id="11486388" version="10" timestamp="2012-01-15T04:29:06Z" uid="11111" user="melb_guy" changeset="10394651">
    <nd ref="258472197"/>
    <nd ref="258472199"/>
    <nd ref="258472200"/>
    <tag k="highway" v="tertiary"/>
    <tag k="maxspeed" v="50"/>
    <tag k="name" v="Hanvover Road"/>
    <tag k="oneway" v="yes"/>
    <tag k="surface" v="asphalt"/>
  </way>
  <way id="11486501" version="4" timestamp="2008-09-20T15:45:42Z" uid="65847" user="LKK" changeset="671250">
    <nd ref="102360342"/>
    <nd ref="102360350"/>
    <nd ref="102360353"/>
    <nd ref="102360358"/>
    <nd ref="102360367"/>
    <nd ref="102360371"/>
    <nd ref="102360376"/>
    <nd ref="102360380"/>
    <nd ref="102360384"/>
    <nd ref="215749189"/>
    <tag k="access" v="destination"/>
    <tag k="created_by" v="JOSM"/>
    <tag k="highway" v="residential"/>
    <tag k="maxspeed" v="7"/>
    <tag k="name" v="Seelbacher Straße"/>
  </way>
  <way id="11486501" version="5" timestamp="2009-03-23T17:00:23Z" uid="39762" user="dartial" changeset="849635">
    <nd ref="102360342"/>
    <nd ref="102360350"/>
    <nd ref="102360353"/>
    <nd ref="102360358"/>
    <nd ref="102360367"/>
    <tag k="access" v="destination"/>
    <tag k="created_by" v="Potlatch 0.10f"/>
    <tag k="highway" v="residential"/>
    <tag k="maxspeed" v="7"/>
    <tag k="name" v="Seelbacher Straße"/>
  </way>
  <way id="11486501" version="6" timestamp="2009-03-25T11:31:55Z" uid="39762" user="dartial" changeset="856183">
    <nd ref="102360342"/>
    <nd ref="102360350"/>
    <nd ref="102360353"/>
    <nd ref="102360358"/>
    <nd ref="102360367"/>
    <tag k="access" v="destination"/>
    <tag k="created_by" v="Potlatch 0.10f"/>
    <tag k="highway" v="living_street"/>
    <tag k="maxspeed" v="7"/>
    <tag k="name" v="Seelbacher Straße"/>
  </way>
  <way id="11486501" version="7" timestamp="2010-09-13T03:01:03Z" uid="104779" user="ABRob" changeset="5765845">
    <nd ref="102360342"/>
    <nd ref="102360350"/>
    <nd ref="102360353"/>
    <nd ref="102360358"/>
    <nd ref="102360367"/>
    <tag k="access" v="destination"/>
    <tag k="highway" v="living_street"/>
    <tag k="name" v="Seelbacher Straße"/>
  </way>
  <way id="11486507" version="3" timestamp="2008-09-25T12:53:21Z" uid="65847" user="LKK" changeset="694739">
    <nd ref="102360551"/>
    <nd ref="215718550"/>
    <nd ref="102360560"/>
    <nd ref="102360565"/>
    <nd ref="102360570"/>
    <nd ref="102360577"/>
    <nd ref="102360371"/>
    <tag k="created_by" v="JOSM"/>
    <tag k="highway" v="service"/>
    <tag k="name" v="Seelbacher Straße"/>
  </way>
</osm>
