<?xml version='1.0' encoding='UTF-8'?>
<osm version="0.6" generator="libosmium/2.20.0">
  <way id="114874302" version="1" timestamp="2011-05-25T20:27:45Z" uid="1066" user="pavel" changeset="8248456">
    <nd ref="1300119042"/>
    <nd ref="1300119067"/>
    <nd ref="1300119059"/>
    <tag k="highway" v="footway"/>
  </way>
  <way id="114874302" version="2" timestamp="2012-02-25T12:37:54Z" uid="84326" user="Mike Crash" changeset="10787215">
    <nd ref="1300119042"/>
    <nd ref="1300119067"/>
    <nd ref="1300119059"/>
    <tag k="highway" v="path"/>
    <tag k="wheelchair" v="no"/>
  </way>
  <way id="114874304" version="1" timestamp="2011-05-25T20:27:46Z" uid="1066" user="pavel" changeset="8248456">
    <nd ref="1300119050"/>
    <nd ref="1300119048"/>
    <nd ref="1300119036"/>
    <nd ref="1300119040"/>
    <nd ref="1300119061"/>
    <tag k="highway" v="footway"/>
    <tag k="note" v="?"/>
  </way>
  <way id="114874304" version="2" timestamp="2012-02-25T12:37:55Z" uid="84326" user="Mike Crash" changeset="10787215">
    <nd ref="1300119050"/>
    <nd ref="1300119048"/>
    <nd ref="1300119036"/>
    <nd ref="1300119040"/>
    <nd ref="1300119061"/>
    <tag k="highway" v="path"/>
    <tag k="note" v="?"/>
    <tag k="wheelchair" v="no"/>
  </way>
  <way id="114874305" version="1" timestamp="2011-05-25T20:27:46Z" uid="1066" user="pavel" changeset="8248456">
    <nd ref="427723246"/>
    <nd ref="1300119047"/>
    <nd ref="1300119046"/>
    <nd ref="1300119066"/>
    <nd ref="1300119055"/>
    <nd ref="1300119049"/>
    <tag k="highway" v="footway"/>
    <tag k="note" v="?"/>
  </way>
  <way id="114874305" version="2" timestamp="2012-02-25T12:37:56Z" uid="84326" user="Mike Crash" changeset="10787215">
    <nd ref="427723246"/>
    <nd ref="1300119047"/>
    <nd ref="1300119046"/>
    <nd ref="1300119066"/>
    <nd ref="1300119055"/>
    <nd ref="1300119049"/>
    <tag k="highway" v="path"/>
    <tag k="note" v="?"/>
    <tag k="wheelchair" v="no"/>
  </way>
  <way id="114874306" version="1" timestamp="2011-05-25T20:27:46Z" uid="1066" user="pavel" changeset="8248456">
    <nd ref="427723232"/>
    <nd ref="427723233"/>
    <nd ref="427723234"/>
    <nd ref="427723235"/>
    <nd ref="427723236"/>
    <nd ref="427723237"/>
    <nd ref="427723238"/>
    <nd ref="427723239"/>
    <nd ref="427723240"/>
    <nd ref="427723241"/>
    <nd ref="427723242"/>
    <nd ref="427723243"/>
    <nd ref="427723244"/>
    <nd ref="427723245"/>
    <nd ref="427723246"/>
    <nd ref="427723247"/>
    <nd ref="427723248"/>
    <nd ref="427723249"/>
    <nd ref="427723250"/>
    <nd ref="427723251"/>
    <nd ref="427723252"/>
    <nd ref="427723253"/>
    <nd ref="427723254"/>
    <nd ref="427723255"/>
    <nd ref="427723256"/>
    <nd ref="427723257"/>
    <nd ref="427723258"/>
    <nd ref="427723259"/>
    <nd ref="427723260"/>
    <nd ref="427723261"/>
    <nd ref="427723262"/>
    <nd ref="427723263"/>
    <nd ref="427723264"/>
    <nd ref="427723265"/>
    <nd ref="427723266"/>
    <nd ref="427723267"/>
    <nd ref="427723268"/>
    <nd ref="427723269"/>
    <tag k="highway" v="path"/>
  </way>
  <way id="114874308" version="1" timestamp="2011-05-25T20:27:46Z" uid="1066" user="pavel" changeset="8248456">
    <nd ref="1300119045"/>
    <nd ref="1300119068"/>
    <nd ref="1300119063"/>
    <nd ref="26163154"/>
    <tag k="highway" v="footway"/>
    <tag k="note" v="?"/>
  </way>
  <way id="114874308" version="2" timestamp="2012-02-25T12:37:56Z" uid="84326" user="Mike Crash" changeset="10787215">
    <nd ref="1300119045"/>
    <nd ref="1300119068"/>
    <nd ref="1300119063"/>
    <nd ref="26163154"/>
    <tag k="highway" v="path"/>
    <tag k="note" v="?"/>
    <tag k="wheelchair" v="no"/>
  </way>
  <way id="114874546" version="1" timestamp="2011-05-25T20:31:21Z" uid="9581" user="Lobelt" changeset="8248465">
    <nd ref="1300121109"/>
    <nd ref="1300119786"/>
    <nd ref="1300121139"/>
    <nd ref="1300122947"/>
    <nd ref="1300121990"/>
    <tag k="highway" v="motorway_link"/>
    <tag k="oneway" v="yes"/>
  </way>
  <way id="114874547" version="1" timestamp="2011-05-25T20:31:21Z" uid="9581" user="Lobelt" changeset="8248465">
    <nd ref="430677714"/>
    <nd ref="1300121361"/>
    <tag k="bridge" v="yes"/>
    <tag k="highway" v="motorway"/>
    <tag k="layer" v="1"/>
    <tag k="name" v="丹大高速"/>
    <tag k="name:en" v="Danda Expressway"/>
    <tag k="oneway" v="yes"/>
    <tag k="ref" v="G11"/>
  </way>
  <way id="114874548" version="1" timestamp="2011-05-25T20:31:22Z" uid="9581" user="Lobelt" changeset="8248465">
    <nd ref="1300124881"/>
    <nd ref="1300119836"/>
    <nd ref="1300124920"/>
    <nd ref="1300120545"/>
    <nd ref="1300122213"/>
    <nd ref="1300124496"/>
    <nd ref="1300120865"/>
    <nd ref="1300122576"/>
    <nd ref="1300124795"/>
    <nd ref="1300120408"/>
    <nd ref="1300119815"/>
    <nd ref="1300121166"/>
    <nd ref="1300123000"/>
    <nd ref="1300120296"/>
    <tag k="highway" v="motorway_link"/>
    <tag k="oneway" v="yes"/>
  </way>
  <way id="114874549" version="1" timestamp="2011-05-25T20:31:22Z" uid="9581" user="Lobelt" changeset="8248465">
    <nd ref="1300123912"/>
    <nd ref="1300121612"/>
    <nd ref="1300120258"/>
    <nd ref="1300124612"/>
    <nd ref="1300124297"/>
    <nd ref="1300119687"/>
    <nd ref="1300123294"/>
    <nd ref="1300122416"/>
    <nd ref="1300120691"/>
    <tag k="highway" v="motorway"/>
    <tag k="oneway" v="yes"/>
    <tag k="ref" v="G11"/>
  </way>
  <way id="114874550" version="1" timestamp="2011-05-25T20:31:23Z" uid="9581" user="Lobelt" changeset="8248465">
    <nd ref="1300122823"/>
    <nd ref="1300121072"/>
    <tag k="bridge" v="yes"/>
    <tag k="highway" v="motorway"/>
    <tag k="layer" v="1"/>
    <tag k="oneway" v="yes"/>
    <tag k="ref" v="G11"/>
  </way>
  <way id="114874551" version="1" timestamp="2011-05-25T20:31:23Z" uid="9581" user="Lobelt" changeset="8248465">
    <nd ref="1300124775"/>
    <nd ref="1300122547"/>
    <nd ref="1300123461"/>
    <nd ref="1300121422"/>
    <tag k="highway" v="motorway"/>
    <tag k="oneway" v="yes"/>
    <tag k="ref" v="G11"/>
  </way>
  <way id="114874552" version="1" timestamp="2011-05-25T20:31:23Z" uid="9581" user="Lobelt" changeset="8248465">
    <nd ref="1300120801"/>
    <nd ref="1300121439"/>
    <nd ref="1300123497"/>
    <nd ref="1300119754"/>
    <nd ref="1300124793"/>
    <nd ref="1300120407"/>
    <tag k="waterway" v="river"/>
  </way>
  <way id="114874553" version="1" timestamp="2011-05-25T20:31:23Z" uid="9581" user="Lobelt" changeset="8248465">
    <nd ref="1300122064"/>
    <nd ref="614306950"/>
    <nd ref="614321739"/>
    <nd ref="614306961"/>
    <nd ref="614306967"/>
    <tag k="highway" v="motorway"/>
    <tag k="name" v="丹大高速"/>
    <tag k="name:en" v="Danda Expressway"/>
    <tag k="oneway" v="yes"/>
    <tag k="ref" v="G11"/>
  </way>
  <way id="114874554" version="1" timestamp="2011-05-25T20:31:23Z" uid="9581" user="Lobelt" changeset="8248465">
    <nd ref="1300122762"/>
    <nd ref="1300125023"/>
    <tag k="bridge" v="yes"/>
    <tag k="highway" v="motorway"/>
    <tag k="layer" v="1"/>
    <tag k="name" v="丹大高速"/>
    <tag k="name:en" v="Danda Expressway"/>
    <tag k="oneway" v="yes"/>
    <tag k="ref" v="G11"/>
  </way>
  <way id="114874555" version="1" timestamp="2011-05-25T20:31:24Z" uid="9581" user="Lobelt" changeset="8248465">
    <nd ref="1300123752"/>
    <nd ref="1300121541"/>
    <tag k="bridge" v="yes"/>
    <tag k="highway" v="motorway"/>
    <tag k="layer" v="1"/>
    <tag k="oneway" v="yes"/>
    <tag k="ref" v="G11"/>
  </way>
  <way id="114874556" version="1" timestamp="2011-05-25T20:31:24Z" uid="9581" user="Lobelt" changeset="8248465">
    <nd ref="1300124782"/>
    <nd ref="614306502"/>
    <tag k="highway" v="motorway"/>
    <tag k="name" v="丹大高速"/>
    <tag k="name:en" v="Danda Expressway"/>
    <tag k="oneway" v="yes"/>
    <tag k="ref" v="G11"/>
  </way>
  <way id="114874557" version="1" timestamp="2011-05-25T20:31:24Z" uid="9581" user="Lobelt" changeset="8248465">
    <nd ref="1300122452"/>
    <nd ref="1300124665"/>
    <tag k="bridge" v="yes"/>
    <tag k="highway" v="motorway"/>
    <tag k="layer" v="1"/>
    <tag k="name" v="丹大高速"/>
    <tag k="name:en" v="Danda Expressway"/>
    <tag k="oneway" v="yes"/>
    <tag k="ref" v="G11"/>
  </way>
  <way id="114874558" version="1" timestamp="2011-05-25T20:31:24Z" uid="9581" user="Lobelt" changeset="8248465">
    <nd ref="1300123188"/>
    <nd ref="1300122410"/>
    <tag k="highway" v="motorway"/>
    <tag k="name" v="丹大高速"/>
    <tag k="name:en" v="Danda Expressway"/>
    <tag k="oneway" v="yes"/>
    <tag k="ref" v="G11"/>
  </way>
  <way id="114874559" version="1" timestamp="2011-05-25T20:31:25Z" uid="9581" user="Lobelt" changeset="8248465">
    <nd ref="430677812"/>
    <nd ref="430677815"/>
    <nd ref="1300124634"/>
    <tag k="highway" v="motorway"/>
    <tag k="name" v="丹大高速"/>
    <tag k="name:en" v="Danda Expressway"/>
    <tag k="oneway" v="yes"/>
    <tag k="ref" v="G11"/>
  </way>
  <way id="114874560" version="1" timestamp="2011-05-25T20:31:25Z" uid="9581" user="Lobelt" changeset="8248465">
    <nd ref="614306334"/>
    <nd ref="430677694"/>
    <tag k="bridge" v="yes"/>
    <tag k="highway" v="motorway"/>
    <tag k="layer" v="1"/>
    <tag k="name" v="丹大高速"/>
    <tag k="name:en" v="Danda Expressway"/>
    <tag k="oneway" v="yes"/>
    <tag k="ref" v="G11"/>
  </way>
  <way id="114874561" version="1" timestamp="2011-05-25T20:31:25Z" uid="9581" user="Lobelt" changeset="8248465">
    <nd ref="1300122485"/>
    <nd ref="1300121441"/>
    <tag k="bridge" v="yes"/>
    <tag k="highway" v="motorway_link"/>
    <tag k="layer" v="1"/>
    <tag k="oneway" v="yes"/>
  </way>
  <way id="114874562" version="1" timestamp="2011-05-25T20:31:25Z" uid="9581" user="Lobelt" changeset="8248465">
    <nd ref="1300125030"/>
    <nd ref="1300124049"/>
    <tag k="bridge" v="yes"/>
    <tag k="highway" v="motorway_link"/>
    <tag k="layer" v="1"/>
    <tag k="oneway" v="yes"/>
  </way>
  <way id="114874563" version="1" timestamp="2011-05-25T20:31:25Z" uid="9581" user="Lobelt" changeset="8248465">
    <nd ref="1300122657"/>
    <nd ref="1300120953"/>
    <tag k="bridge" v="yes"/>
    <tag k="highway" v="motorway"/>
    <tag k="layer" v="1"/>
    <tag k="oneway" v="yes"/>
    <tag k="ref" v="G11"/>
  </way>
  <way id="114874564" version="1" timestamp="2011-05-25T20:31:26Z" uid="9581" user="Lobelt" changeset="8248465">
    <nd ref="1300123710"/>
    <nd ref="1300121528"/>
    <tag k="bridge" v="yes"/>
    <tag k="highway" v="motorway"/>
    <tag k="layer" v="1"/>
    <tag k="oneway" v="yes"/>
    <tag k="ref" v="G11"/>
  </way>
  <way id="114874565" version="1" timestamp="2011-05-25T20:31:26Z" uid="9581" user="Lobelt" changeset="8248465">
    <nd ref="1300119748"/>
    <nd ref="1300121087"/>
    <tag k="bridge" v="yes"/>
    <tag k="layer" v="1"/>
    <tag k="railway" v="rail"/>
  </way>
  <way id="114874565" version="2" timestamp="2012-03-04T17:09:06Z" uid="17497" user="katpatuka" changeset="10870953"/>
  <way id="114874566" version="1" timestamp="2011-05-25T20:31:26Z" uid="9581" user="Lobelt" changeset="8248465">
    <nd ref="1300120698"/>
    <nd ref="1300122435"/>
    <tag k="bridge" v="yes"/>
    <tag k="highway" v="motorway_link"/>
    <tag k="layer" v="1"/>
    <tag k="oneway" v="yes"/>
  </way>
  <way id="114874567" version="1" timestamp="2011-05-25T20:31:26Z" uid="9581" user="Lobelt" changeset="8248465">
    <nd ref="1300120923"/>
    <nd ref="614307566"/>
    <nd ref="430677882"/>
    <tag k="highway" v="motorway"/>
    <tag k="name" v="丹大高速"/>
    <tag k="name:en" v="Danda Expressway"/>
    <tag k="oneway" v="yes"/>
    <tag k="ref" v="G11"/>
  </way>
  <way id="114874568" version="1" timestamp="2011-05-25T20:31:26Z" uid="9581" user="Lobelt" changeset="8248465">
    <nd ref="1300125000"/>
    <nd ref="430677683"/>
    <nd ref="1300123992"/>
    <tag k="highway" v="motorway"/>
    <tag k="name" v="丹大高速"/>
    <tag k="name:en" v="Danda Expressway"/>
    <tag k="oneway" v="yes"/>
    <tag k="ref" v="G11"/>
  </way>
  <way id="114874569" version="1" timestamp="2011-05-25T20:31:26Z" uid="9581" user="Lobelt" changeset="8248465">
    <nd ref="1300125176"/>
    <nd ref="430677674"/>
    <tag k="bridge" v="yes"/>
    <tag k="highway" v="motorway"/>
    <tag k="layer" v="1"/>
    <tag k="name" v="丹大高速"/>
    <tag k="name:en" v="Danda Expressway"/>
    <tag k="oneway" v="yes"/>
    <tag k="ref" v="G11"/>
  </way>
  <way id="114874570" version="1" timestamp="2011-05-25T20:31:27Z" uid="9581" user="Lobelt" changeset="8248465">
    <nd ref="1300122543"/>
    <nd ref="1300121839"/>
    <nd ref="1300120370"/>
    <tag k="highway" v="motorway"/>
    <tag k="oneway" v="yes"/>
    <tag k="ref" v="G11"/>
  </way>
  <way id="114874571" version="1" timestamp="2011-05-25T20:31:27Z" uid="9581" user="Lobelt" changeset="8248465">
    <nd ref="1300119761"/>
    <nd ref="1300121107"/>
    <tag k="bridge" v="yes"/>
    <tag k="highway" v="motorway"/>
    <tag k="layer" v="1"/>
    <tag k="name" v="丹大高速"/>
    <tag k="name:en" v="Danda Expressway"/>
    <tag k="oneway" v="yes"/>
    <tag k="ref" v="G11"/>
  </way>
  <way id="114874572" version="1" timestamp="2011-05-25T20:31:27Z" uid="9581" user="Lobelt" changeset="8248465">
    <nd ref="1300120421"/>
    <nd ref="1300121364"/>
    <nd ref="1300120038"/>
    <tag k="highway" v="motorway"/>
    <tag k="oneway" v="yes"/>
    <tag k="ref" v="G11"/>
  </way>
  <way id="114874573" version="1" timestamp="2011-05-25T20:31:27Z" uid="9581" user="Lobelt" changeset="8248465">
    <nd ref="1300122442"/>
    <nd ref="1300124649"/>
    <nd ref="1300120297"/>
    <nd ref="1300124032"/>
    <nd ref="1300120009"/>
    <nd ref="1300121344"/>
    <nd ref="1300120751"/>
    <nd ref="1300122473"/>
    <nd ref="1300124688"/>
    <nd ref="1300120323"/>
    <nd ref="1300120496"/>
    <nd ref="1300122073"/>
    <nd ref="1300124407"/>
    <nd ref="1300120154"/>
    <nd ref="1300125324"/>
    <nd ref="1300120941"/>
    <nd ref="1300122640"/>
    <nd ref="1300124876"/>
    <nd ref="1300123865"/>
    <nd ref="1300119867"/>
    <nd ref="1300121230"/>
    <nd ref="1300123112"/>
    <nd ref="1300122310"/>
    <nd ref="1300124581"/>
    <nd ref="1300120239"/>
    <nd ref="1300121583"/>
    <nd ref="1300121002"/>
    <nd ref="1300122715"/>
    <nd ref="1300124971"/>
    <nd ref="1300120606"/>
    <nd ref="1300119956"/>
    <nd ref="1300121302"/>
    <nd ref="1300123213"/>
    <nd ref="1300119657"/>
    <nd ref="1300124643"/>
    <nd ref="1300120294"/>
    <nd ref="1300121673"/>
    <nd ref="1300123969"/>
    <nd ref="1300122798"/>
    <tag k="railway" v="rail"/>
  </way>
  <way id="114874573" version="2" timestamp="2012-03-04T17:09:06Z" uid="17497" user="katpatuka" changeset="10870953"/>
  <way id="114874576" version="1" timestamp="2011-05-25T20:31:28Z" uid="9581" user="Lobelt" changeset="8248465">
    <nd ref="614307352"/>
    <nd ref="1300125208"/>
    <tag k="bridge" v="yes"/>
    <tag k="highway" v="motorway"/>
    <tag k="layer" v="1"/>
    <tag k="name" v="丹大高速"/>
    <tag k="name:en" v="Danda Expressway"/>
    <tag k="oneway" v="yes"/>
    <tag k="ref" v="G11"/>
  </way>
  <way id="114874578" version="1" timestamp="2011-05-25T20:31:28Z" uid="9581" user="Lobelt" changeset="8248465">
    <nd ref="1300122503"/>
    <nd ref="1300120774"/>
    <tag k="bridge" v="yes"/>
    <tag k="highway" v="motorway"/>
    <tag k="layer" v="1"/>
    <tag k="oneway" v="yes"/>
    <tag k="ref" v="G11"/>
  </way>
  <way id="114874579" version="1" timestamp="2011-05-25T20:31:28Z" uid="9581" user="Lobelt" changeset="8248465">
    <nd ref="1300120681"/>
    <nd ref="1300120033"/>
    <tag k="bridge" v="yes"/>
    <tag k="highway" v="motorway"/>
    <tag k="layer" v="1"/>
    <tag k="name" v="丹大高速"/>
    <tag k="name:en" v="Danda Expressway"/>
    <tag k="oneway" v="yes"/>
    <tag k="ref" v="G11"/>
  </way>
  <way id="114874580" version="1" timestamp="2011-05-25T20:31:28Z" uid="9581" user="Lobelt" changeset="8248465">
    <nd ref="1300120638"/>
    <nd ref="1300122295"/>
    <nd ref="1300120585"/>
    <tag k="highway" v="motorway"/>
    <tag k="oneway" v="yes"/>
    <tag k="ref" v="G11"/>
  </way>
  <way id="114874581" version="1" timestamp="2011-05-25T20:31:29Z" uid="9581" user="Lobelt" changeset="8248465">
    <nd ref="430677882"/>
    <nd ref="1300122629"/>
    <tag k="bridge" v="yes"/>
    <tag k="highway" v="motorway"/>
    <tag k="layer" v="1"/>
    <tag k="name" v="丹大高速"/>
    <tag k="name:en" v="Danda Expressway"/>
    <tag k="oneway" v="yes"/>
    <tag k="ref" v="G11"/>
  </way>
  <way id="114874583" version="1" timestamp="2011-05-25T20:31:29Z" uid="9581" user="Lobelt" changeset="8248465">
    <nd ref="1300123093"/>
    <nd ref="614322486"/>
    <nd ref="1300125311"/>
    <tag k="highway" v="motorway"/>
    <tag k="name" v="丹大高速"/>
    <tag k="name:en" v="Danda Expressway"/>
    <tag k="oneway" v="yes"/>
    <tag k="ref" v="G11"/>
  </way>
  <way id="114874585" version="1" timestamp="2011-05-25T20:31:29Z" uid="9581" user="Lobelt" changeset="8248465">
    <nd ref="430677830"/>
    <nd ref="1300119812"/>
    <tag k="bridge" v="yes"/>
    <tag k="highway" v="motorway"/>
    <tag k="layer" v="1"/>
    <tag k="name" v="丹大高速"/>
    <tag k="name:en" v="Danda Expressway"/>
    <tag k="oneway" v="yes"/>
    <tag k="ref" v="G11"/>
  </way>
  <way id="114874587" version="1" timestamp="2011-05-25T20:31:29Z" uid="9581" user="Lobelt" changeset="8248465">
    <nd ref="614307243"/>
    <nd ref="1300121985"/>
    <nd ref="1300124338"/>
    <nd ref="1300120128"/>
    <nd ref="1300121478"/>
    <nd ref="1300120905"/>
    <nd ref="1300122615"/>
    <nd ref="1300124835"/>
    <nd ref="1300122617"/>
    <tag k="highway" v="motorway_link"/>
    <tag k="oneway" v="yes"/>
  </way>
  <way id="114874591" version="1" timestamp="2011-05-25T20:31:30Z" uid="9581" user="Lobelt" changeset="8248465">
    <nd ref="1300120031"/>
    <nd ref="1300124070"/>
    <tag k="bridge" v="yes"/>
    <tag k="highway" v="motorway"/>
    <tag k="layer" v="1"/>
    <tag k="oneway" v="yes"/>
    <tag k="ref" v="G11"/>
  </way>
  <way id="114874593" version="1" timestamp="2011-05-25T20:31:30Z" uid="9581" user="Lobelt" changeset="8248465">
    <nd ref="1300122786"/>
    <nd ref="1300125034"/>
    <tag k="bridge" v="yes"/>
    <tag k="highway" v="motorway"/>
    <tag k="layer" v="1"/>
    <tag k="name" v="丹大高速"/>
    <tag k="name:en" v="Danda Expressway"/>
    <tag k="oneway" v="yes"/>
    <tag k="ref" v="G11"/>
  </way>
  <way id="114874596" version="1" timestamp="2011-05-25T20:31:30Z" uid="9581" user="Lobelt" changeset="8248465">
    <nd ref="1300125207"/>
    <nd ref="1300120835"/>
    <tag k="bridge" v="yes"/>
    <tag k="highway" v="motorway"/>
    <tag k="layer" v="1"/>
    <tag k="name" v="丹大高速"/>
    <tag k="name:en" v="Danda Expressway"/>
    <tag k="oneway" v="yes"/>
    <tag k="ref" v="G11"/>
  </way>
  <way id="114874597" version="1" timestamp="2011-05-25T20:31:30Z" uid="9581" user="Lobelt" changeset="8248465">
    <nd ref="1300123343"/>
    <nd ref="1300119704"/>
    <tag k="bridge" v="yes"/>
    <tag k="highway" v="motorway_link"/>
    <tag k="layer" v="1"/>
    <tag k="oneway" v="yes"/>
  </way>
  <way id="114874598" version="1" timestamp="2011-05-25T20:31:30Z" uid="9581" user="Lobelt" changeset="8248465">
    <nd ref="1300120058"/>
    <nd ref="1300121379"/>
    <tag k="bridge" v="yes"/>
    <tag k="highway" v="motorway"/>
    <tag k="layer" v="1"/>
    <tag k="oneway" v="yes"/>
    <tag k="ref" v="G11"/>
  </way>
  <way id="114874599" version="1" timestamp="2011-05-25T20:31:30Z" uid="9581" user="Lobelt" changeset="8248465">
    <nd ref="1300124595"/>
    <nd ref="1300120247"/>
    <tag k="bridge" v="yes"/>
    <tag k="highway" v="motorway_link"/>
    <tag k="layer" v="1"/>
    <tag k="oneway" v="yes"/>
  </way>
  <way id="114874600" version="1" timestamp="2011-05-25T20:31:31Z" uid="9581" user="Lobelt" changeset="8248465">
    <nd ref="1300123090"/>
    <nd ref="1300121210"/>
    <nd ref="1300119850"/>
    <nd ref="1300123799"/>
    <nd ref="1300124852"/>
    <nd ref="1300122622"/>
    <nd ref="1300119764"/>
    <nd ref="1300123525"/>
    <tag k="highway" v="motorway"/>
    <tag k="oneway" v="yes"/>
    <tag k="ref" v="G11"/>
  </way>
  <way id="114874601" version="1" timestamp="2011-05-25T20:31:31Z" uid="9581" user="Lobelt" changeset="8248465">
    <nd ref="1300119776"/>
    <nd ref="1300124822"/>
    <nd ref="1300120437"/>
    <nd ref="1300121953"/>
    <nd ref="1300124308"/>
    <nd ref="1300123057"/>
    <nd ref="1300125276"/>
    <nd ref="1300120886"/>
    <nd ref="1300122600"/>
    <nd ref="1300121542"/>
    <nd ref="1300121337"/>
    <nd ref="1300123287"/>
    <nd ref="1300119685"/>
    <nd ref="1300121029"/>
    <nd ref="1300120319"/>
    <nd ref="1300121725"/>
    <nd ref="1300124016"/>
    <nd ref="1300120000"/>
    <nd ref="1300125106"/>
    <nd ref="1300120747"/>
    <nd ref="1300122469"/>
    <nd ref="1300124684"/>
    <nd ref="1300123470"/>
    <nd ref="1300119747"/>
    <nd ref="1300121085"/>
    <nd ref="1300122844"/>
    <nd ref="1300121871"/>
    <nd ref="1300124217"/>
    <nd ref="1300120090"/>
    <nd ref="1300121424"/>
    <nd ref="1300120850"/>
    <nd ref="1300122556"/>
    <nd ref="1300124778"/>
    <nd ref="1300120385"/>
    <nd ref="1300119800"/>
    <nd ref="1300121156"/>
    <nd ref="1300122973"/>
    <nd ref="1300125218"/>
    <nd ref="1300124379"/>
    <nd ref="1300120143"/>
    <nd ref="1300121507"/>
    <nd ref="1300123644"/>
    <nd ref="1300120449"/>
    <nd ref="1300121976"/>
    <nd ref="1300124313"/>
    <nd ref="1300120123"/>
    <nd ref="1300125284"/>
    <nd ref="1300120889"/>
    <nd ref="1300122606"/>
    <nd ref="1300124831"/>
    <nd ref="1300123768"/>
    <nd ref="1300119837"/>
    <nd ref="1300121196"/>
    <nd ref="1300123062"/>
    <nd ref="1300122218"/>
    <nd ref="1300124502"/>
    <tag k="railway" v="rail"/>
  </way>
  <way id="114874601" version="2" timestamp="2012-03-04T17:09:06Z" uid="17497" user="katpatuka" changeset="10870953"/>
  <way id="114874602" version="1" timestamp="2011-05-25T20:31:31Z" uid="9581" user="Lobelt" changeset="8248465">
    <nd ref="1300124640"/>
    <nd ref="1300119650"/>
    <tag k="highway" v="motorway"/>
    <tag k="oneway" v="yes"/>
    <tag k="ref" v="G11"/>
  </way>
  <way id="114874603" version="1" timestamp="2011-05-25T20:31:32Z" uid="9581" user="Lobelt" changeset="8248465">
    <nd ref="1300124895"/>
    <nd ref="1300122664"/>
    <tag k="bridge" v="yes"/>
    <tag k="highway" v="motorway"/>
    <tag k="layer" v="1"/>
    <tag k="oneway" v="yes"/>
    <tag k="ref" v="G11"/>
  </way>
  <way id="114874604" version="1" timestamp="2011-05-25T20:31:32Z" uid="9581" user="Lobelt" changeset="8248465">
    <nd ref="1300122484"/>
    <nd ref="614306460"/>
    <tag k="highway" v="motorway"/>
    <tag k="name" v="丹大高速"/>
    <tag k="name:en" v="Danda Expressway"/>
    <tag k="oneway" v="yes"/>
    <tag k="ref" v="G11"/>
  </way>
  <way id="114874605" version="1" timestamp="2011-05-25T20:31:32Z" uid="9581" user="Lobelt" changeset="8248465">
    <nd ref="1300123889"/>
    <nd ref="1300119885"/>
    <tag k="bridge" v="yes"/>
    <tag k="highway" v="motorway_link"/>
    <tag k="layer" v="1"/>
    <tag k="oneway" v="yes"/>
  </way>
  <way id="114874606" version="1" timestamp="2011-05-25T20:31:32Z" uid="9581" user="Lobelt" changeset="8248465">
    <nd ref="1300122605"/>
    <nd ref="1300121554"/>
    <tag k="bridge" v="yes"/>
    <tag k="layer" v="1"/>
    <tag k="railway" v="rail"/>
  </way>
  <way id="114874606" version="2" timestamp="2012-03-04T17:09:07Z" uid="17497" user="katpatuka" changeset="10870953"/>
  <way id="114874607" version="1" timestamp="2011-05-25T20:31:32Z" uid="9581" user="Lobelt" changeset="8248465">
    <nd ref="1300121072"/>
    <nd ref="1300119726"/>
    <nd ref="1300123410"/>
    <nd ref="1300120158"/>
    <nd ref="1300124425"/>
    <tag k="highway" v="motorway"/>
    <tag k="oneway" v="yes"/>
    <tag k="ref" v="G11"/>
  </way>
  <way id="114874608" version="1" timestamp="2011-05-25T20:31:32Z" uid="9581" user="Lobelt" changeset="8248465">
    <nd ref="1300124620"/>
    <nd ref="1300119612"/>
    <nd ref="1300123153"/>
    <nd ref="1300121263"/>
    <nd ref="1300122607"/>
    <nd ref="1300120897"/>
    <tag k="highway" v="motorway"/>
    <tag k="oneway" v="yes"/>
    <tag k="ref" v="G11"/>
  </way>
  <way id="114874609" version="1" timestamp="2011-05-25T20:31:32Z" uid="9581" user="Lobelt" changeset="8248465">
    <nd ref="1300119616"/>
    <nd ref="1300120978"/>
    <nd ref="1300124415"/>
    <tag k="highway" v="motorway_link"/>
    <tag k="oneway" v="yes"/>
  </way>
  <way id="114874610" version="1" timestamp="2011-05-25T20:31:33Z" uid="9581" user="Lobelt" changeset="8248465">
    <nd ref="1300120936"/>
    <nd ref="1300125318"/>
    <tag k="bridge" v="yes"/>
    <tag k="highway" v="motorway"/>
    <tag k="layer" v="1"/>
    <tag k="oneway" v="yes"/>
    <tag k="ref" v="G11"/>
  </way>
  <way id="114874611" version="1" timestamp="2011-05-25T20:31:33Z" uid="9581" user="Lobelt" changeset="8248465">
    <nd ref="1300120318"/>
    <nd ref="430677721"/>
    <nd ref="1300119746"/>
    <nd ref="430677719"/>
    <nd ref="430677725"/>
    <nd ref="1300121084"/>
    <nd ref="1300122842"/>
    <nd ref="1300125105"/>
    <nd ref="430677723"/>
    <nd ref="430677729"/>
    <nd ref="430677726"/>
    <nd ref="1300124123"/>
    <tag k="highway" v="motorway"/>
    <tag k="name" v="丹大高速"/>
    <tag k="name:en" v="Danda Expressway"/>
    <tag k="oneway" v="yes"/>
    <tag k="ref" v="G11"/>
  </way>
  <way id="114874612" version="1" timestamp="2011-05-25T20:31:33Z" uid="9581" user="Lobelt" changeset="8248465">
    <nd ref="1300124425"/>
    <nd ref="1300122102"/>
    <tag k="bridge" v="yes"/>
    <tag k="highway" v="motorway"/>
    <tag k="layer" v="1"/>
    <tag k="oneway" v="yes"/>
    <tag k="ref" v="G11"/>
  </way>
  <way id="114874613" version="1" timestamp="2011-05-25T20:31:33Z" uid="9581" user="Lobelt" changeset="8248465">
    <nd ref="1300121093"/>
    <nd ref="1300119749"/>
    <tag k="bridge" v="yes"/>
    <tag k="highway" v="motorway"/>
    <tag k="layer" v="1"/>
    <tag k="oneway" v="yes"/>
    <tag k="ref" v="G11"/>
  </way>
  <way id="114874614" version="1" timestamp="2011-05-25T20:31:33Z" uid="9581" user="Lobelt" changeset="8248465">
    <nd ref="1300122892"/>
    <nd ref="1300124074"/>
    <tag k="highway" v="motorway"/>
    <tag k="oneway" v="yes"/>
    <tag k="ref" v="G11"/>
  </way>
  <way id="114874615" version="1" timestamp="2011-05-25T20:31:33Z" uid="9581" user="Lobelt" changeset="8248465">
    <nd ref="1300125210"/>
    <nd ref="1300122965"/>
    <tag k="bridge" v="yes"/>
    <tag k="highway" v="motorway"/>
    <tag k="layer" v="1"/>
    <tag k="oneway" v="yes"/>
    <tag k="ref" v="G11"/>
  </way>
  <way id="114874616" version="1" timestamp="2011-05-25T20:31:34Z" uid="9581" user="Lobelt" changeset="8248465">
    <nd ref="1300120691"/>
    <nd ref="1300125040"/>
    <tag k="bridge" v="yes"/>
    <tag k="highway" v="motorway"/>
    <tag k="layer" v="1"/>
    <tag k="oneway" v="yes"/>
    <tag k="ref" v="G11"/>
  </way>
  <way id="114874617" version="1" timestamp="2011-05-25T20:31:34Z" uid="9581" user="Lobelt" changeset="8248465">
    <nd ref="1300121332"/>
    <nd ref="1300122425"/>
    <nd ref="1300121365"/>
    <nd ref="1300123360"/>
    <nd ref="1300119712"/>
    <nd ref="1300121050"/>
    <nd ref="1300120345"/>
    <nd ref="1300121775"/>
    <nd ref="1300124082"/>
    <nd ref="1300122590"/>
    <nd ref="1300124816"/>
    <nd ref="1300120419"/>
    <nd ref="1300121919"/>
    <nd ref="1300121184"/>
    <nd ref="1300123033"/>
    <nd ref="1300125263"/>
    <nd ref="1300120879"/>
    <nd ref="1300120168"/>
    <nd ref="1300121531"/>
    <nd ref="1300123718"/>
    <nd ref="1300119827"/>
    <nd ref="1300124900"/>
    <nd ref="1300120526"/>
    <nd ref="1300122163"/>
    <nd ref="1300123528"/>
    <nd ref="1300122250"/>
    <nd ref="1300124539"/>
    <nd ref="1300120209"/>
    <nd ref="1300121561"/>
    <tag k="waterway" v="river"/>
  </way>
  <way id="114874618" version="1" timestamp="2011-05-25T20:31:34Z" uid="9581" user="Lobelt" changeset="8248465">
    <nd ref="1300122805"/>
    <nd ref="1300123981"/>
    <nd ref="1300121683"/>
    <nd ref="1300120296"/>
    <nd ref="1300124646"/>
    <tag k="highway" v="motorway"/>
    <tag k="oneway" v="yes"/>
    <tag k="ref" v="G11"/>
  </way>
  <way id="114874619" version="1" timestamp="2011-05-25T20:31:34Z" uid="9581" user="Lobelt" changeset="8248465">
    <nd ref="1300122754"/>
    <nd ref="1300124883"/>
    <nd ref="1300120514"/>
    <nd ref="1300122108"/>
    <nd ref="1300121234"/>
    <nd ref="1300123123"/>
    <nd ref="1300125331"/>
    <nd ref="1300120945"/>
    <nd ref="1300120242"/>
    <nd ref="1300121588"/>
    <nd ref="1300123881"/>
    <nd ref="1300119880"/>
    <nd ref="1300124986"/>
    <nd ref="1300120616"/>
    <nd ref="1300122332"/>
    <nd ref="1300124587"/>
    <tag k="highway" v="motorway_link"/>
    <tag k="oneway" v="yes"/>
  </way>
  <way id="114874620" version="1" timestamp="2011-05-25T20:31:34Z" uid="9581" user="Lobelt" changeset="8248465">
    <nd ref="1300124751"/>
    <nd ref="1300120366"/>
    <nd ref="1300121831"/>
    <nd ref="1300121141"/>
    <nd ref="1300122950"/>
    <nd ref="1300125187"/>
    <nd ref="1300120818"/>
    <nd ref="1300120135"/>
    <nd ref="1300121486"/>
    <nd ref="1300123605"/>
    <nd ref="1300119788"/>
    <nd ref="1300120393"/>
    <tag k="highway" v="motorway_link"/>
    <tag k="oneway" v="yes"/>
  </way>
  <way id="114874621" version="1" timestamp="2011-05-25T20:31:35Z" uid="9581" user="Lobelt" changeset="8248465">
    <nd ref="1300124451"/>
    <nd ref="1300119752"/>
    <tag k="highway" v="motorway"/>
    <tag k="name" v="丹大高速"/>
    <tag k="name:en" v="Danda Expressway"/>
    <tag k="oneway" v="yes"/>
    <tag k="ref" v="G11"/>
  </way>
  <way id="114874622" version="1" timestamp="2011-05-25T20:31:35Z" uid="9581" user="Lobelt" changeset="8248465">
    <nd ref="1300120953"/>
    <nd ref="1300125333"/>
    <nd ref="1300120163"/>
    <nd ref="1300124434"/>
    <nd ref="1300122127"/>
    <tag k="highway" v="motorway"/>
    <tag k="oneway" v="yes"/>
    <tag k="ref" v="G11"/>
  </way>
  <way id="114874623" version="1" timestamp="2011-05-25T20:31:35Z" uid="9581" user="Lobelt" changeset="8248465">
    <nd ref="1300120131"/>
    <nd ref="1300121481"/>
    <nd ref="1300124817"/>
    <nd ref="1300120429"/>
    <nd ref="1300121941"/>
    <nd ref="1300124275"/>
    <nd ref="1300123038"/>
    <nd ref="1300125270"/>
    <nd ref="1300120880"/>
    <nd ref="1300122594"/>
    <nd ref="1300121538"/>
    <nd ref="1300123727"/>
    <nd ref="1300119629"/>
    <tag k="highway" v="motorway_link"/>
    <tag k="oneway" v="yes"/>
  </way>
  <way id="114874624" version="1" timestamp="2011-05-25T20:31:35Z" uid="9581" user="Lobelt" changeset="8248465">
    <nd ref="1300124820"/>
    <nd ref="1300122598"/>
    <tag k="bridge" v="yes"/>
    <tag k="highway" v="motorway"/>
    <tag k="layer" v="1"/>
    <tag k="oneway" v="yes"/>
    <tag k="ref" v="G11"/>
  </way>
  <way id="114874625" version="1" timestamp="2011-05-25T20:31:35Z" uid="9581" user="Lobelt" changeset="8248465">
    <nd ref="1300124646"/>
    <nd ref="1300119856"/>
    <tag k="bridge" v="yes"/>
    <tag k="highway" v="motorway"/>
    <tag k="layer" v="1"/>
    <tag k="oneway" v="yes"/>
    <tag k="ref" v="G11"/>
  </way>
  <way id="114874626" version="1" timestamp="2011-05-25T20:31:36Z" uid="9581" user="Lobelt" changeset="8248465">
    <nd ref="1300123928"/>
    <nd ref="1300121630"/>
    <tag k="bridge" v="yes"/>
    <tag k="highway" v="motorway"/>
    <tag k="layer" v="1"/>
    <tag k="oneway" v="yes"/>
    <tag k="ref" v="G11"/>
  </way>
  <way id="114874627" version="1" timestamp="2011-05-25T20:31:36Z" uid="9581" user="Lobelt" changeset="8248465">
    <nd ref="1300124271"/>
    <nd ref="614307277"/>
    <tag k="highway" v="motorway"/>
    <tag k="name" v="丹大高速"/>
    <tag k="name:en" v="Danda Expressway"/>
    <tag k="oneway" v="yes"/>
    <tag k="ref" v="G11"/>
  </way>
  <way id="114874628" version="1" timestamp="2011-05-25T20:31:36Z" uid="9581" user="Lobelt" changeset="8248465">
    <nd ref="614306421"/>
    <nd ref="1300120342"/>
    <tag k="highway" v="motorway"/>
    <tag k="name" v="丹大高速"/>
    <tag k="name:en" v="Danda Expressway"/>
    <tag k="oneway" v="yes"/>
    <tag k="ref" v="G11"/>
  </way>
  <way id="114874629" version="1" timestamp="2011-05-25T20:31:36Z" uid="9581" user="Lobelt" changeset="8248465">
    <nd ref="1300120120"/>
    <nd ref="1300121034"/>
    <tag k="highway" v="motorway"/>
    <tag k="name" v="丹大高速"/>
    <tag k="name:en" v="Danda Expressway"/>
    <tag k="oneway" v="yes"/>
    <tag k="ref" v="G11"/>
  </way>
  <way id="114874630" version="1" timestamp="2011-05-25T20:31:36Z" uid="9581" user="Lobelt" changeset="8248465">
    <nd ref="1300120414"/>
    <nd ref="614307271"/>
    <tag k="bridge" v="yes"/>
    <tag k="highway" v="motorway"/>
    <tag k="layer" v="1"/>
    <tag k="name" v="丹大高速"/>
    <tag k="name:en" v="Danda Expressway"/>
    <tag k="oneway" v="yes"/>
    <tag k="ref" v="G11"/>
  </way>
  <way id="114874631" version="1" timestamp="2011-05-25T20:31:36Z" uid="9581" user="Lobelt" changeset="8248465">
    <nd ref="1300121938"/>
    <nd ref="1300120421"/>
    <tag k="bridge" v="yes"/>
    <tag k="highway" v="motorway"/>
    <tag k="layer" v="1"/>
    <tag k="oneway" v="yes"/>
    <tag k="ref" v="G11"/>
  </way>
  <way id="114874632" version="1" timestamp="2011-05-25T20:31:36Z" uid="9581" user="Lobelt" changeset="8248465">
    <nd ref="614307581"/>
    <nd ref="614307589"/>
    <tag k="bridge" v="yes"/>
    <tag k="highway" v="motorway"/>
    <tag k="layer" v="1"/>
    <tag k="name" v="丹大高速"/>
    <tag k="name:en" v="Danda Expressway"/>
    <tag k="oneway" v="yes"/>
    <tag k="ref" v="G11"/>
  </way>
  <way id="114874633" version="1" timestamp="2011-05-25T20:31:37Z" uid="9581" user="Lobelt" changeset="8248465">
    <nd ref="614307364"/>
    <nd ref="614307366"/>
    <tag k="bridge" v="yes"/>
    <tag k="highway" v="motorway"/>
    <tag k="layer" v="1"/>
    <tag k="name" v="丹大高速"/>
    <tag k="name:en" v="Danda Expressway"/>
    <tag k="oneway" v="yes"/>
    <tag k="ref" v="G11"/>
  </way>
  <way id="114874634" version="1" timestamp="2011-05-25T20:31:37Z" uid="9581" user="Lobelt" changeset="8248465">
    <nd ref="614307559"/>
    <nd ref="1300123093"/>
    <tag k="bridge" v="yes"/>
    <tag k="highway" v="motorway"/>
    <tag k="layer" v="1"/>
    <tag k="name" v="丹大高速"/>
    <tag k="name:en" v="Danda Expressway"/>
    <tag k="oneway" v="yes"/>
    <tag k="ref" v="G11"/>
  </way>
  <way id="114874635" version="1" timestamp="2011-05-25T20:31:37Z" uid="9581" user="Lobelt" changeset="8248465">
    <nd ref="1300119700"/>
    <nd ref="1300123333"/>
    <tag k="bridge" v="yes"/>
    <tag k="highway" v="motorway"/>
    <tag k="layer" v="1"/>
    <tag k="oneway" v="yes"/>
    <tag k="ref" v="G11"/>
  </way>
  <way id="114874636" version="1" timestamp="2011-05-25T20:31:37Z" uid="9581" user="Lobelt" changeset="8248465">
    <nd ref="1300122358"/>
    <nd ref="1300120638"/>
    <tag k="bridge" v="yes"/>
    <tag k="highway" v="motorway"/>
    <tag k="layer" v="1"/>
    <tag k="oneway" v="yes"/>
    <tag k="ref" v="G11"/>
  </way>
  <way id="114874637" version="1" timestamp="2011-05-25T20:31:37Z" uid="9581" user="Lobelt" changeset="8248465">
    <nd ref="1300124648"/>
    <nd ref="1300123375"/>
    <nd ref="1300119715"/>
    <nd ref="1300121058"/>
    <nd ref="1300120053"/>
    <nd ref="1300121376"/>
    <nd ref="1300121544"/>
    <nd ref="1300123756"/>
    <nd ref="1300119833"/>
    <nd ref="1300121191"/>
    <nd ref="1300120543"/>
    <nd ref="1300122199"/>
    <nd ref="1300124487"/>
    <tag k="railway" v="rail"/>
  </way>
  <way id="114874637" version="2" timestamp="2012-03-04T17:09:07Z" uid="17497" user="katpatuka" changeset="10870953"/>
  <way id="114874638" version="1" timestamp="2011-05-25T20:31:38Z" uid="9581" user="Lobelt" changeset="8248465">
    <nd ref="1300123964"/>
    <nd ref="1300121667"/>
    <tag k="bridge" v="yes"/>
    <tag k="highway" v="motorway"/>
    <tag k="layer" v="1"/>
    <tag k="oneway" v="yes"/>
    <tag k="ref" v="G11"/>
  </way>
  <way id="114874639" version="1" timestamp="2011-05-25T20:31:38Z" uid="9581" user="Lobelt" changeset="8248465">
    <nd ref="1300122265"/>
    <nd ref="1300121283"/>
    <tag k="bridge" v="yes"/>
    <tag k="layer" v="1"/>
    <tag k="railway" v="rail"/>
  </way>
  <way id="114874639" version="2" timestamp="2012-03-04T17:09:07Z" uid="17497" user="katpatuka" changeset="10870953"/>
  <way id="114874640" version="1" timestamp="2011-05-25T20:31:38Z" uid="9581" user="Lobelt" changeset="8248465">
    <nd ref="1300122545"/>
    <nd ref="1300124765"/>
    <tag k="bridge" v="yes"/>
    <tag k="highway" v="motorway_link"/>
    <tag k="layer" v="1"/>
    <tag k="oneway" v="yes"/>
  </way>
  <way id="114874641" version="1" timestamp="2011-05-25T20:31:38Z" uid="9581" user="Lobelt" changeset="8248465">
    <nd ref="1300119751"/>
    <nd ref="1300124780"/>
    <tag k="bridge" v="yes"/>
    <tag k="highway" v="motorway"/>
    <tag k="layer" v="1"/>
    <tag k="name" v="丹大高速"/>
    <tag k="name:en" v="Danda Expressway"/>
    <tag k="oneway" v="yes"/>
    <tag k="ref" v="G11"/>
  </way>
  <way id="114874642" version="1" timestamp="2011-05-25T20:31:38Z" uid="9581" user="Lobelt" changeset="8248465">
    <nd ref="1300122680"/>
    <nd ref="1300120238"/>
    <nd ref="1300122638"/>
    <nd ref="1300120939"/>
    <tag k="highway" v="motorway"/>
    <tag k="oneway" v="yes"/>
    <tag k="ref" v="G11"/>
  </way>
  <way id="114874643" version="1" timestamp="2011-05-25T20:31:38Z" uid="9581" user="Lobelt" changeset="8248465">
    <nd ref="1300120247"/>
    <nd ref="1300121605"/>
    <nd ref="1300123193"/>
    <tag k="highway" v="motorway_link"/>
    <tag k="oneway" v="yes"/>
  </way>
  <way id="114874644" version="1" timestamp="2011-05-25T20:31:38Z" uid="9581" user="Lobelt" changeset="8248465">
    <nd ref="1300121434"/>
    <nd ref="1300123491"/>
    <nd ref="1300119751"/>
    <tag k="highway" v="motorway"/>
    <tag k="name" v="丹大高速"/>
    <tag k="name:en" v="Danda Expressway"/>
    <tag k="oneway" v="yes"/>
    <tag k="ref" v="G11"/>
  </way>
  <way id="114874645" version="1" timestamp="2011-05-25T20:31:39Z" uid="9581" user="Lobelt" changeset="8248465">
    <nd ref="1300120993"/>
    <nd ref="1300120285"/>
    <nd ref="1300121658"/>
    <nd ref="1300123959"/>
    <nd ref="1300119943"/>
    <nd ref="1300125038"/>
    <nd ref="1300120684"/>
    <nd ref="1300122412"/>
    <nd ref="1300124638"/>
    <nd ref="1300120367"/>
    <nd ref="1300121834"/>
    <nd ref="1300124184"/>
    <nd ref="1300122952"/>
    <nd ref="1300125189"/>
    <nd ref="1300120820"/>
    <nd ref="1300122538"/>
    <nd ref="1300122689"/>
    <nd ref="1300124944"/>
    <nd ref="1300120570"/>
    <nd ref="1300122265"/>
    <tag k="railway" v="rail"/>
  </way>
  <way id="114874645" version="2" timestamp="2012-03-04T17:09:07Z" uid="17497" user="katpatuka" changeset="10870953"/>
  <way id="114874646" version="1" timestamp="2011-05-25T20:31:39Z" uid="9581" user="Lobelt" changeset="8248465">
    <nd ref="1300123314"/>
    <nd ref="1300122484"/>
    <tag k="bridge" v="yes"/>
    <tag k="highway" v="motorway"/>
    <tag k="layer" v="1"/>
    <tag k="name" v="丹大高速"/>
    <tag k="name:en" v="Danda Expressway"/>
    <tag k="oneway" v="yes"/>
    <tag k="ref" v="G11"/>
  </way>
  <way id="114874647" version="1" timestamp="2011-05-25T20:31:39Z" uid="9581" user="Lobelt" changeset="8248465">
    <nd ref="1300122238"/>
    <nd ref="1300120561"/>
    <tag k="highway" v="motorway"/>
    <tag k="oneway" v="yes"/>
    <tag k="ref" v="G11"/>
  </way>
  <way id="114874648" version="1" timestamp="2011-05-25T20:31:39Z" uid="9581" user="Lobelt" changeset="8248465">
    <nd ref="1300119670"/>
    <nd ref="1300121016"/>
    <tag k="bridge" v="yes"/>
    <tag k="highway" v="motorway"/>
    <tag k="layer" v="1"/>
    <tag k="name" v="丹大高速"/>
    <tag k="name:en" v="Danda Expressway"/>
    <tag k="oneway" v="yes"/>
    <tag k="ref" v="G11"/>
  </way>
  <way id="114874649" version="1" timestamp="2011-05-25T20:31:40Z" uid="9581" user="Lobelt" changeset="8248465">
    <nd ref="1300124671"/>
    <nd ref="1300120308"/>
    <tag k="bridge" v="yes"/>
    <tag k="highway" v="motorway_link"/>
    <tag k="layer" v="1"/>
    <tag k="oneway" v="yes"/>
  </way>
  <way id="114874650" version="1" timestamp="2011-05-25T20:31:40Z" uid="9581" user="Lobelt" changeset="8248465">
    <nd ref="1300124682"/>
    <nd ref="1300120318"/>
    <tag k="bridge" v="yes"/>
    <tag k="highway" v="motorway"/>
    <tag k="layer" v="1"/>
    <tag k="name" v="丹大高速"/>
    <tag k="name:en" v="Danda Expressway"/>
    <tag k="oneway" v="yes"/>
    <tag k="ref" v="G11"/>
  </way>
  <way id="114874651" version="1" timestamp="2011-05-25T20:31:40Z" uid="9581" user="Lobelt" changeset="8248465">
    <nd ref="1300120264"/>
    <nd ref="1300124622"/>
    <tag k="bridge" v="yes"/>
    <tag k="highway" v="motorway"/>
    <tag k="layer" v="1"/>
    <tag k="oneway" v="yes"/>
    <tag k="ref" v="G11"/>
  </way>
  <way id="114874652" version="1" timestamp="2011-05-25T20:31:40Z" uid="9581" user="Lobelt" changeset="8248465">
    <nd ref="1300120947"/>
    <nd ref="1300125332"/>
    <tag k="bridge" v="yes"/>
    <tag k="highway" v="motorway"/>
    <tag k="layer" v="1"/>
    <tag k="oneway" v="yes"/>
    <tag k="ref" v="G11"/>
  </way>
  <way id="114874653" version="1" timestamp="2011-05-25T20:31:40Z" uid="9581" user="Lobelt" changeset="8248465">
    <nd ref="614307458"/>
    <nd ref="1300120476"/>
    <nd ref="614307464"/>
    <nd ref="614307466"/>
    <nd ref="614307469"/>
    <nd ref="614307473"/>
    <nd ref="614307478"/>
    <nd ref="614307482"/>
    <nd ref="614307490"/>
    <nd ref="614307500"/>
    <nd ref="1300122024"/>
    <nd ref="614307510"/>
    <tag k="highway" v="motorway"/>
    <tag k="name" v="丹大高速"/>
    <tag k="name:en" v="Danda Expressway"/>
    <tag k="oneway" v="yes"/>
    <tag k="ref" v="G11"/>
  </way>
  <way id="114874654" version="1" timestamp="2011-05-25T20:31:41Z" uid="9581" user="Lobelt" changeset="8248465">
    <nd ref="1300122102"/>
    <nd ref="1300123007"/>
    <tag k="highway" v="motorway"/>
    <tag k="oneway" v="yes"/>
    <tag k="ref" v="G11"/>
  </way>
  <way id="114874655" version="1" timestamp="2011-05-25T20:31:41Z" uid="9581" user="Lobelt" changeset="8248465">
    <nd ref="1300121017"/>
    <nd ref="1300119671"/>
    <tag k="highway" v="motorway"/>
    <tag k="oneway" v="yes"/>
    <tag k="ref" v="G11"/>
  </way>
  <way id="114874656" version="1" timestamp="2011-05-25T20:31:41Z" uid="9581" user="Lobelt" changeset="8248465">
    <nd ref="1300122435"/>
    <nd ref="1300124645"/>
    <nd ref="1300123373"/>
    <nd ref="1300119713"/>
    <nd ref="1300121057"/>
    <nd ref="1300122804"/>
    <nd ref="1300121779"/>
    <nd ref="1300124114"/>
    <nd ref="1300120043"/>
    <nd ref="1300121372"/>
    <nd ref="1300125275"/>
    <tag k="highway" v="motorway_link"/>
    <tag k="oneway" v="yes"/>
  </way>
  <way id="114874657" version="1" timestamp="2011-05-25T20:31:41Z" uid="9581" user="Lobelt" changeset="8248465">
    <nd ref="614306888"/>
    <nd ref="1300121185"/>
    <nd ref="1300124384"/>
    <tag k="bridge" v="yes"/>
    <tag k="highway" v="motorway"/>
    <tag k="layer" v="1"/>
    <tag k="name" v="丹大高速"/>
    <tag k="name:en" v="Danda Expressway"/>
    <tag k="oneway" v="yes"/>
    <tag k="ref" v="G11"/>
  </way>
  <way id="114874658" version="1" timestamp="2011-05-25T20:31:41Z" uid="9581" user="Lobelt" changeset="8248465">
    <nd ref="1300122782"/>
    <nd ref="614321406"/>
    <nd ref="614321407"/>
    <nd ref="1300125032"/>
    <nd ref="614321411"/>
    <nd ref="614306627"/>
    <nd ref="614306631"/>
    <nd ref="614306637"/>
    <nd ref="614306645"/>
    <tag k="highway" v="motorway"/>
    <tag k="name" v="丹大高速"/>
    <tag k="name:en" v="Danda Expressway"/>
    <tag k="oneway" v="yes"/>
    <tag k="ref" v="G11"/>
  </way>
  <way id="114874659" version="1" timestamp="2011-05-25T20:31:41Z" uid="9581" user="Lobelt" changeset="8248465">
    <nd ref="1300121087"/>
    <nd ref="1300120386"/>
    <nd ref="1300121874"/>
    <nd ref="1300120845"/>
    <nd ref="1300122558"/>
    <nd ref="1300124776"/>
    <nd ref="1300123645"/>
    <nd ref="1300119806"/>
    <nd ref="1300121158"/>
    <nd ref="1300122967"/>
    <nd ref="1300122060"/>
    <nd ref="1300124368"/>
    <nd ref="1300120148"/>
    <nd ref="1300121503"/>
    <nd ref="1300120925"/>
    <nd ref="1300122630"/>
    <nd ref="1300124861"/>
    <nd ref="1300120481"/>
    <nd ref="1300119858"/>
    <tag k="railway" v="rail"/>
  </way>
  <way id="114874659" version="2" timestamp="2012-03-04T17:09:07Z" uid="17497" user="katpatuka" changeset="10870953"/>
  <way id="114874660" version="1" timestamp="2011-05-25T20:31:42Z" uid="9581" user="Lobelt" changeset="8248465">
    <nd ref="1300124428"/>
    <nd ref="1300122119"/>
    <tag k="bridge" v="yes"/>
    <tag k="highway" v="motorway"/>
    <tag k="layer" v="1"/>
    <tag k="oneway" v="yes"/>
    <tag k="ref" v="G11"/>
  </way>
  <way id="114874661" version="1" timestamp="2011-05-25T20:31:42Z" uid="9581" user="Lobelt" changeset="8248465">
    <nd ref="1300121441"/>
    <nd ref="1300121634"/>
    <tag k="highway" v="motorway_link"/>
    <tag k="oneway" v="yes"/>
  </way>
  <way id="114874662" version="1" timestamp="2011-05-25T20:31:42Z" uid="9581" user="Lobelt" changeset="8248465">
    <nd ref="1300121016"/>
    <nd ref="1300122736"/>
    <tag k="highway" v="motorway"/>
    <tag k="name" v="丹大高速"/>
    <tag k="name:en" v="Danda Expressway"/>
    <tag k="oneway" v="yes"/>
    <tag k="ref" v="G11"/>
  </way>
  <way id="114874663" version="1" timestamp="2011-05-25T20:31:42Z" uid="9581" user="Lobelt" changeset="8248465">
    <nd ref="1300125287"/>
    <nd ref="1300120126"/>
    <nd ref="1300124329"/>
    <nd ref="1300121980"/>
    <nd ref="1300120451"/>
    <tag k="highway" v="motorway"/>
    <tag k="oneway" v="yes"/>
    <tag k="ref" v="G11"/>
  </way>
  <way id="114874664" version="1" timestamp="2011-05-25T20:31:42Z" uid="9581" user="Lobelt" changeset="8248465">
    <nd ref="1300121111"/>
    <nd ref="430677641"/>
    <nd ref="614321220"/>
    <nd ref="1300122893"/>
    <tag k="highway" v="motorway"/>
    <tag k="name" v="丹大高速"/>
    <tag k="name:en" v="Danda Expressway"/>
    <tag k="oneway" v="yes"/>
    <tag k="ref" v="G11"/>
  </way>
  <way id="114874665" version="1" timestamp="2011-05-25T20:31:42Z" uid="9581" user="Lobelt" changeset="8248465">
    <nd ref="614318806"/>
    <nd ref="614318807"/>
    <nd ref="614318810"/>
    <nd ref="614318813"/>
    <nd ref="1300121123"/>
    <tag k="highway" v="motorway_link"/>
    <tag k="source" v="gps"/>
  </way>
  <way id="114874666" version="1" timestamp="2011-05-25T20:31:42Z" uid="9581" user="Lobelt" changeset="8248465">
    <nd ref="1300123525"/>
    <nd ref="1300121456"/>
    <tag k="bridge" v="yes"/>
    <tag k="highway" v="motorway"/>
    <tag k="layer" v="1"/>
    <tag k="oneway" v="yes"/>
    <tag k="ref" v="G11"/>
  </way>
  <way id="114874668" version="1" timestamp="2011-05-25T20:31:43Z" uid="9581" user="Lobelt" changeset="8248465">
    <nd ref="1300124947"/>
    <nd ref="1300124600"/>
    <tag k="bridge" v="yes"/>
    <tag k="highway" v="motorway"/>
    <tag k="layer" v="1"/>
    <tag k="oneway" v="yes"/>
    <tag k="ref" v="G11"/>
  </way>
  <way id="114874669" version="1" timestamp="2011-05-25T20:31:43Z" uid="9581" user="Lobelt" changeset="8248465">
    <nd ref="1300121107"/>
    <nd ref="1300120414"/>
    <tag k="highway" v="motorway"/>
    <tag k="name" v="丹大高速"/>
    <tag k="name:en" v="Danda Expressway"/>
    <tag k="oneway" v="yes"/>
    <tag k="ref" v="G11"/>
  </way>
  <way id="114874671" version="1" timestamp="2011-05-25T20:31:43Z" uid="9581" user="Lobelt" changeset="8248465">
    <nd ref="1300119660"/>
    <nd ref="1300123219"/>
    <tag k="bridge" v="yes"/>
    <tag k="highway" v="motorway"/>
    <tag k="layer" v="1"/>
    <tag k="oneway" v="yes"/>
    <tag k="ref" v="G11"/>
  </way>
  <way id="114874674" version="1" timestamp="2011-05-25T20:31:43Z" uid="9581" user="Lobelt" changeset="8248465">
    <nd ref="1300120253"/>
    <nd ref="1300121607"/>
    <nd ref="1300121019"/>
    <nd ref="1300122743"/>
    <nd ref="1300125003"/>
    <nd ref="1300120635"/>
    <nd ref="1300119987"/>
    <nd ref="1300121327"/>
    <nd ref="1300123256"/>
    <nd ref="1300119673"/>
    <nd ref="1300124671"/>
    <tag k="highway" v="motorway_link"/>
    <tag k="oneway" v="yes"/>
  </way>
  <way id="114874675" version="1" timestamp="2011-05-25T20:31:43Z" uid="9581" user="Lobelt" changeset="8248465">
    <nd ref="1300122429"/>
    <nd ref="1300123199"/>
    <tag k="bridge" v="yes"/>
    <tag k="highway" v="motorway"/>
    <tag k="layer" v="1"/>
    <tag k="oneway" v="yes"/>
    <tag k="ref" v="G11"/>
  </way>
  <way id="114874677" version="1" timestamp="2011-05-25T20:31:43Z" uid="9581" user="Lobelt" changeset="8248465">
    <nd ref="1300120592"/>
    <nd ref="1300124965"/>
    <tag k="bridge" v="yes"/>
    <tag k="highway" v="motorway"/>
    <tag k="layer" v="1"/>
    <tag k="oneway" v="yes"/>
    <tag k="ref" v="G11"/>
  </way>
  <way id="114874678" version="1" timestamp="2011-05-25T20:31:43Z" uid="9581" user="Lobelt" changeset="8248465">
    <nd ref="1300120322"/>
    <nd ref="1300124686"/>
    <tag k="bridge" v="yes"/>
    <tag k="highway" v="motorway"/>
    <tag k="layer" v="1"/>
    <tag k="oneway" v="yes"/>
    <tag k="ref" v="G11"/>
  </way>
  <way id="114874679" version="1" timestamp="2011-05-25T20:31:44Z" uid="9581" user="Lobelt" changeset="8248465">
    <nd ref="1300121462"/>
    <nd ref="1300123533"/>
    <nd ref="430677645"/>
    <tag k="highway" v="motorway"/>
    <tag k="name" v="丹大高速"/>
    <tag k="name:en" v="Danda Expressway"/>
    <tag k="oneway" v="yes"/>
    <tag k="ref" v="G11"/>
  </way>
  <way id="114874680" version="1" timestamp="2011-05-25T20:31:44Z" uid="9581" user="Lobelt" changeset="8248465">
    <nd ref="1300120744"/>
    <nd ref="1300122467"/>
    <tag k="highway" v="motorway"/>
    <tag k="name" v="丹大高速"/>
    <tag k="name:en" v="Danda Expressway"/>
    <tag k="oneway" v="yes"/>
    <tag k="ref" v="G11"/>
  </way>
  <way id="114874681" version="1" timestamp="2011-05-25T20:31:44Z" uid="9581" user="Lobelt" changeset="8248465">
    <nd ref="1300123333"/>
    <nd ref="1300120203"/>
    <nd ref="1300124529"/>
    <tag k="highway" v="motorway"/>
    <tag k="oneway" v="yes"/>
    <tag k="ref" v="G11"/>
  </way>
  <way id="114874682" version="1" timestamp="2011-05-25T20:31:44Z" uid="9581" user="Lobelt" changeset="8248465">
    <nd ref="1300124745"/>
    <nd ref="1300119755"/>
    <nd ref="1300121100"/>
    <nd ref="1300124179"/>
    <nd ref="1300120080"/>
    <nd ref="1300121408"/>
    <nd ref="1300123442"/>
    <nd ref="1300122530"/>
    <tag k="highway" v="motorway_link"/>
    <tag k="oneway" v="yes"/>
  </way>
  <way id="114874683" version="1" timestamp="2011-05-25T20:31:44Z" uid="9581" user="Lobelt" changeset="8248465">
    <nd ref="1300122542"/>
    <nd ref="1300120825"/>
    <tag k="bridge" v="yes"/>
    <tag k="highway" v="motorway"/>
    <tag k="layer" v="1"/>
    <tag k="oneway" v="yes"/>
    <tag k="ref" v="G11"/>
  </way>
  <way id="114874684" version="1" timestamp="2011-05-25T20:31:44Z" uid="9581" user="Lobelt" changeset="8248465">
    <nd ref="1300120141"/>
    <nd ref="1300121502"/>
    <tag k="bridge" v="yes"/>
    <tag k="highway" v="motorway"/>
    <tag k="layer" v="1"/>
    <tag k="name" v="丹大高速"/>
    <tag k="name:en" v="Danda Expressway"/>
    <tag k="oneway" v="yes"/>
    <tag k="ref" v="G11"/>
  </way>
  <way id="114874685" version="1" timestamp="2011-05-25T20:31:45Z" uid="9581" user="Lobelt" changeset="8248465">
    <nd ref="1300120666"/>
    <nd ref="1300125027"/>
    <tag k="bridge" v="yes"/>
    <tag k="highway" v="motorway"/>
    <tag k="layer" v="1"/>
    <tag k="oneway" v="yes"/>
    <tag k="ref" v="G11"/>
  </way>
  <way id="114874686" version="1" timestamp="2011-05-25T20:31:45Z" uid="9581" user="Lobelt" changeset="8248465">
    <nd ref="614318656"/>
    <nd ref="1300122729"/>
    <nd ref="1300124988"/>
    <nd ref="1300120618"/>
    <nd ref="1300122330"/>
    <nd ref="1300121310"/>
    <nd ref="1300123220"/>
    <tag k="highway" v="motorway_link"/>
  </way>
  <way id="114874687" version="1" timestamp="2011-05-25T20:31:45Z" uid="9581" user="Lobelt" changeset="8248465">
    <nd ref="614321261"/>
    <nd ref="614306190"/>
    <tag k="bridge" v="yes"/>
    <tag k="highway" v="motorway"/>
    <tag k="layer" v="1"/>
    <tag k="name" v="丹大高速"/>
    <tag k="name:en" v="Danda Expressway"/>
    <tag k="oneway" v="yes"/>
    <tag k="ref" v="G11"/>
  </way>
  <way id="114874688" version="1" timestamp="2011-05-25T20:31:45Z" uid="9581" user="Lobelt" changeset="8248465">
    <nd ref="1300125195"/>
    <nd ref="1300122954"/>
    <tag k="bridge" v="yes"/>
    <tag k="highway" v="motorway"/>
    <tag k="layer" v="1"/>
    <tag k="oneway" v="yes"/>
    <tag k="ref" v="G11"/>
  </way>
  <way id="114874689" version="1" timestamp="2011-05-25T20:31:45Z" uid="9581" user="Lobelt" changeset="8248465">
    <nd ref="614321390"/>
    <nd ref="1300125124"/>
    <tag k="highway" v="motorway"/>
    <tag k="name" v="丹大高速"/>
    <tag k="name:en" v="Danda Expressway"/>
    <tag k="oneway" v="yes"/>
    <tag k="ref" v="G11"/>
  </way>
  <way id="114874690" version="1" timestamp="2011-05-25T20:31:46Z" uid="9581" user="Lobelt" changeset="8248465">
    <nd ref="1300120308"/>
    <nd ref="1300121709"/>
    <nd ref="1300123998"/>
    <nd ref="1300120175"/>
    <nd ref="1300122828"/>
    <nd ref="1300125089"/>
    <nd ref="1300120732"/>
    <nd ref="1300122456"/>
    <nd ref="1300121404"/>
    <tag k="highway" v="motorway_link"/>
    <tag k="oneway" v="yes"/>
  </way>
  <way id="114874691" version="1" timestamp="2011-05-25T20:31:46Z" uid="9581" user="Lobelt" changeset="8248465">
    <nd ref="1300124721"/>
    <nd ref="1300122511"/>
    <nd ref="1300120794"/>
    <tag k="highway" v="motorway"/>
    <tag k="oneway" v="yes"/>
    <tag k="ref" v="G11"/>
  </way>
  <way id="114874692" version="1" timestamp="2011-05-25T20:31:46Z" uid="9581" user="Lobelt" changeset="8248465">
    <nd ref="1300122629"/>
    <nd ref="1300121573"/>
    <nd ref="1300124396"/>
    <tag k="highway" v="motorway"/>
    <tag k="name" v="丹大高速"/>
    <tag k="name:en" v="Danda Expressway"/>
    <tag k="oneway" v="yes"/>
    <tag k="ref" v="G11"/>
  </way>
  <way id="114874693" version="1" timestamp="2011-05-25T20:31:46Z" uid="9581" user="Lobelt" changeset="8248465">
    <nd ref="1300122084"/>
    <nd ref="1300120503"/>
    <nd ref="1300122822"/>
    <nd ref="1300122652"/>
    <tag k="highway" v="motorway"/>
    <tag k="oneway" v="yes"/>
    <tag k="ref" v="G11"/>
  </way>
  <way id="114874694" version="1" timestamp="2011-05-25T20:31:46Z" uid="9581" user="Lobelt" changeset="8248465">
    <nd ref="1300120887"/>
    <nd ref="1300122603"/>
    <nd ref="1300124824"/>
    <nd ref="1300123760"/>
    <tag k="bridge" v="yes"/>
    <tag k="highway" v="motorway_link"/>
    <tag k="layer" v="1"/>
    <tag k="oneway" v="yes"/>
  </way>
  <way id="114874695" version="1" timestamp="2011-05-25T20:31:46Z" uid="9581" user="Lobelt" changeset="8248465">
    <nd ref="1300121320"/>
    <nd ref="1300122354"/>
    <tag k="bridge" v="yes"/>
    <tag k="highway" v="motorway"/>
    <tag k="layer" v="1"/>
    <tag k="oneway" v="yes"/>
    <tag k="ref" v="G11"/>
  </way>
  <way id="114874696" version="1" timestamp="2011-05-25T20:31:46Z" uid="9581" user="Lobelt" changeset="8248465">
    <nd ref="430677786"/>
    <nd ref="1300121659"/>
    <tag k="bridge" v="yes"/>
    <tag k="highway" v="motorway"/>
    <tag k="layer" v="1"/>
    <tag k="name" v="丹大高速"/>
    <tag k="name:en" v="Danda Expressway"/>
    <tag k="oneway" v="yes"/>
    <tag k="ref" v="G11"/>
  </way>
  <way id="114874697" version="1" timestamp="2011-05-25T20:31:47Z" uid="9581" user="Lobelt" changeset="8248465">
    <nd ref="1300120498"/>
    <nd ref="614321630"/>
    <tag k="bridge" v="yes"/>
    <tag k="highway" v="motorway"/>
    <tag k="layer" v="1"/>
    <tag k="name" v="丹大高速"/>
    <tag k="name:en" v="Danda Expressway"/>
    <tag k="oneway" v="yes"/>
    <tag k="ref" v="G11"/>
  </way>
  <way id="114874698" version="1" timestamp="2011-05-25T20:31:47Z" uid="9581" user="Lobelt" changeset="8248465">
    <nd ref="1300120283"/>
    <nd ref="1300121655"/>
    <tag k="bridge" v="yes"/>
    <tag k="highway" v="motorway"/>
    <tag k="layer" v="1"/>
    <tag k="name" v="丹大高速"/>
    <tag k="name:en" v="Danda Expressway"/>
    <tag k="oneway" v="yes"/>
    <tag k="ref" v="G11"/>
  </way>
  <way id="114874699" version="1" timestamp="2011-05-25T20:31:47Z" uid="9581" user="Lobelt" changeset="8248465">
    <nd ref="1300124228"/>
    <nd ref="1300121879"/>
    <tag k="bridge" v="yes"/>
    <tag k="highway" v="motorway"/>
    <tag k="layer" v="1"/>
    <tag k="oneway" v="yes"/>
    <tag k="ref" v="G11"/>
  </way>
  <way id="114874700" version="1" timestamp="2011-05-25T20:31:47Z" uid="9581" user="Lobelt" changeset="8248465">
    <nd ref="1300121554"/>
    <nd ref="1300123764"/>
    <nd ref="1300120164"/>
    <nd ref="1300121526"/>
    <nd ref="1300123687"/>
    <nd ref="1300122660"/>
    <nd ref="1300124893"/>
    <nd ref="1300120520"/>
    <nd ref="1300122131"/>
    <nd ref="1300121242"/>
    <nd ref="1300123137"/>
    <nd ref="1300125342"/>
    <nd ref="1300120955"/>
    <nd ref="1300120244"/>
    <nd ref="1300121592"/>
    <nd ref="1300123884"/>
    <nd ref="1300119882"/>
    <nd ref="1300124992"/>
    <nd ref="1300120628"/>
    <nd ref="1300122336"/>
    <nd ref="1300124590"/>
    <nd ref="1300123226"/>
    <tag k="railway" v="rail"/>
  </way>
  <way id="114874700" version="2" timestamp="2012-03-04T17:09:08Z" uid="17497" user="katpatuka" changeset="10870953"/>
  <way id="114874701" version="1" timestamp="2011-05-25T20:31:47Z" uid="9581" user="Lobelt" changeset="8248465">
    <nd ref="1300121186"/>
    <nd ref="1300121938"/>
    <tag k="highway" v="motorway"/>
    <tag k="oneway" v="yes"/>
    <tag k="ref" v="G11"/>
  </way>
  <way id="114874702" version="1" timestamp="2011-05-25T20:31:47Z" uid="9581" user="Lobelt" changeset="8248465">
    <nd ref="1300121219"/>
    <nd ref="1300123097"/>
    <tag k="bridge" v="yes"/>
    <tag k="highway" v="motorway"/>
    <tag k="layer" v="1"/>
    <tag k="name" v="丹大高速"/>
    <tag k="name:en" v="Danda Expressway"/>
    <tag k="oneway" v="yes"/>
    <tag k="ref" v="G11"/>
  </way>
  <way id="114874703" version="1" timestamp="2011-05-25T20:31:48Z" uid="9581" user="Lobelt" changeset="8248465">
    <nd ref="1300124854"/>
    <nd ref="614307458"/>
    <tag k="bridge" v="yes"/>
    <tag k="highway" v="motorway"/>
    <tag k="layer" v="1"/>
    <tag k="name" v="丹大高速"/>
    <tag k="name:en" v="Danda Expressway"/>
    <tag k="oneway" v="yes"/>
    <tag k="ref" v="G11"/>
  </way>
  <way id="114874704" version="1" timestamp="2011-05-25T20:31:48Z" uid="9581" user="Lobelt" changeset="8248465">
    <nd ref="1300119661"/>
    <nd ref="614307581"/>
    <tag k="highway" v="motorway_link"/>
  </way>
  <way id="114874705" version="1" timestamp="2011-05-25T20:31:48Z" uid="9581" user="Lobelt" changeset="8248465">
    <nd ref="1300124622"/>
    <nd ref="1300119839"/>
    <nd ref="1300123774"/>
    <tag k="highway" v="motorway"/>
    <tag k="oneway" v="yes"/>
    <tag k="ref" v="G11"/>
  </way>
  <way id="114874706" version="1" timestamp="2011-05-25T20:31:48Z" uid="9581" user="Lobelt" changeset="8248465">
    <nd ref="614307257"/>
    <nd ref="1300124567"/>
    <tag k="bridge" v="yes"/>
    <tag k="highway" v="motorway"/>
    <tag k="layer" v="1"/>
    <tag k="name" v="丹大高速"/>
    <tag k="name:en" v="Danda Expressway"/>
    <tag k="oneway" v="yes"/>
    <tag k="ref" v="G11"/>
  </way>
  <way id="114874707" version="1" timestamp="2011-05-25T20:31:48Z" uid="9581" user="Lobelt" changeset="8248465">
    <nd ref="614306237"/>
    <nd ref="1300121317"/>
    <nd ref="614306230"/>
    <nd ref="1300123250"/>
    <nd ref="614306229"/>
    <tag k="highway" v="motorway"/>
    <tag k="name" v="丹大高速"/>
    <tag k="name:en" v="Danda Expressway"/>
    <tag k="oneway" v="yes"/>
    <tag k="ref" v="G11"/>
  </way>
  <way id="114874708" version="1" timestamp="2011-05-25T20:31:48Z" uid="9581" user="Lobelt" changeset="8248465">
    <nd ref="1300122664"/>
    <nd ref="1300123710"/>
    <tag k="highway" v="motorway"/>
    <tag k="oneway" v="yes"/>
    <tag k="ref" v="G11"/>
  </way>
  <way id="114874709" version="1" timestamp="2011-05-25T20:31:49Z" uid="9581" user="Lobelt" changeset="8248465">
    <nd ref="614306354"/>
    <nd ref="430677661"/>
    <tag k="bridge" v="yes"/>
    <tag k="highway" v="motorway"/>
    <tag k="layer" v="1"/>
    <tag k="name" v="丹大高速"/>
    <tag k="name:en" v="Danda Expressway"/>
    <tag k="oneway" v="yes"/>
    <tag k="ref" v="G11"/>
  </way>
  <way id="114874710" version="1" timestamp="2011-05-25T20:31:49Z" uid="9581" user="Lobelt" changeset="8248465">
    <nd ref="614321532"/>
    <nd ref="1300120943"/>
    <tag k="bridge" v="yes"/>
    <tag k="highway" v="motorway"/>
    <tag k="layer" v="1"/>
    <tag k="name" v="丹大高速"/>
    <tag k="name:en" v="Danda Expressway"/>
    <tag k="oneway" v="yes"/>
    <tag k="ref" v="G11"/>
  </way>
  <way id="114874711" version="1" timestamp="2011-05-25T20:31:49Z" uid="9581" user="Lobelt" changeset="8248465">
    <nd ref="614321316"/>
    <nd ref="1300121119"/>
    <nd ref="614306334"/>
    <tag k="highway" v="motorway"/>
    <tag k="name" v="丹大高速"/>
    <tag k="name:en" v="Danda Expressway"/>
    <tag k="oneway" v="yes"/>
    <tag k="ref" v="G11"/>
  </way>
  <way id="114874712" version="1" timestamp="2011-05-25T20:31:49Z" uid="9581" user="Lobelt" changeset="8248465">
    <nd ref="1300120343"/>
    <nd ref="1300124713"/>
    <tag k="bridge" v="yes"/>
    <tag k="highway" v="motorway"/>
    <tag k="layer" v="1"/>
    <tag k="oneway" v="yes"/>
    <tag k="ref" v="G11"/>
  </way>
  <way id="114874713" version="1" timestamp="2011-05-25T20:31:49Z" uid="9581" user="Lobelt" changeset="8248465">
    <nd ref="1300122585"/>
    <nd ref="1300123504"/>
    <tag k="bridge" v="yes"/>
    <tag k="highway" v="motorway"/>
    <tag k="layer" v="1"/>
    <tag k="oneway" v="yes"/>
    <tag k="ref" v="G11"/>
  </way>
  <way id="114874714" version="1" timestamp="2011-05-25T20:31:49Z" uid="9581" user="Lobelt" changeset="8248465">
    <nd ref="1300123774"/>
    <nd ref="1300121556"/>
    <tag k="bridge" v="yes"/>
    <tag k="highway" v="motorway"/>
    <tag k="layer" v="1"/>
    <tag k="oneway" v="yes"/>
    <tag k="ref" v="G11"/>
  </way>
  <way id="114874715" version="1" timestamp="2011-05-25T20:31:49Z" uid="9581" user="Lobelt" changeset="8248465">
    <nd ref="1300122127"/>
    <nd ref="1300120519"/>
    <tag k="bridge" v="yes"/>
    <tag k="highway" v="motorway"/>
    <tag k="layer" v="1"/>
    <tag k="oneway" v="yes"/>
    <tag k="ref" v="G11"/>
  </way>
  <way id="114874716" version="1" timestamp="2011-05-25T20:31:50Z" uid="9581" user="Lobelt" changeset="8248465">
    <nd ref="1300121508"/>
    <nd ref="614306926"/>
    <nd ref="614306930"/>
    <nd ref="614306931"/>
    <nd ref="614306933"/>
    <nd ref="614306934"/>
    <nd ref="614306937"/>
    <nd ref="614306940"/>
    <nd ref="1300124866"/>
    <nd ref="614306943"/>
    <nd ref="614306945"/>
    <nd ref="1300120486"/>
    <tag k="highway" v="motorway"/>
    <tag k="name" v="丹大高速"/>
    <tag k="name:en" v="Danda Expressway"/>
    <tag k="oneway" v="yes"/>
    <tag k="ref" v="G11"/>
  </way>
  <way id="114874717" version="1" timestamp="2011-05-25T20:31:50Z" uid="9581" user="Lobelt" changeset="8248465">
    <nd ref="1300121733"/>
    <nd ref="1300121091"/>
    <nd ref="1300122847"/>
    <nd ref="1300125108"/>
    <nd ref="1300120753"/>
    <tag k="bridge" v="yes"/>
    <tag k="highway" v="motorway_link"/>
    <tag k="layer" v="1"/>
  </way>
  <way id="114874718" version="1" timestamp="2011-05-25T20:31:50Z" uid="9581" user="Lobelt" changeset="8248465">
    <nd ref="1300119750"/>
    <nd ref="1300123489"/>
    <tag k="bridge" v="yes"/>
    <tag k="highway" v="motorway"/>
    <tag k="layer" v="1"/>
    <tag k="oneway" v="yes"/>
    <tag k="ref" v="G11"/>
  </way>
  <way id="114874719" version="1" timestamp="2011-05-25T20:31:50Z" uid="9581" user="Lobelt" changeset="8248465">
    <nd ref="1300121458"/>
    <nd ref="1300124777"/>
    <tag k="bridge" v="yes"/>
    <tag k="highway" v="motorway"/>
    <tag k="layer" v="1"/>
    <tag k="name" v="丹大高速"/>
    <tag k="name:en" v="Danda Expressway"/>
    <tag k="oneway" v="yes"/>
    <tag k="ref" v="G11"/>
  </way>
  <way id="114874720" version="1" timestamp="2011-05-25T20:31:50Z" uid="9581" user="Lobelt" changeset="8248465">
    <nd ref="1300121348"/>
    <nd ref="1300123314"/>
    <tag k="highway" v="motorway"/>
    <tag k="name" v="丹大高速"/>
    <tag k="name:en" v="Danda Expressway"/>
    <tag k="oneway" v="yes"/>
    <tag k="ref" v="G11"/>
  </way>
  <way id="114874722" version="1" timestamp="2011-05-25T20:31:51Z" uid="9581" user="Lobelt" changeset="8248465">
    <nd ref="1300120835"/>
    <nd ref="1300125151"/>
    <nd ref="1300120498"/>
    <tag k="highway" v="motorway"/>
    <tag k="name" v="丹大高速"/>
    <tag k="name:en" v="Danda Expressway"/>
    <tag k="oneway" v="yes"/>
    <tag k="ref" v="G11"/>
  </way>
  <way id="114874723" version="1" timestamp="2011-05-25T20:31:51Z" uid="9581" user="Lobelt" changeset="8248465">
    <nd ref="614307589"/>
    <nd ref="614307600"/>
    <nd ref="614307605"/>
    <nd ref="614307610"/>
    <nd ref="614307615"/>
    <nd ref="1300121233"/>
    <nd ref="614307628"/>
    <nd ref="614307634"/>
    <nd ref="614307639"/>
    <nd ref="1300123127"/>
    <nd ref="614307648"/>
    <nd ref="614307655"/>
    <nd ref="614307657"/>
    <nd ref="614307658"/>
    <nd ref="614307659"/>
    <nd ref="614307671"/>
    <tag k="highway" v="motorway"/>
    <tag k="name" v="丹大高速"/>
    <tag k="name:en" v="Danda Expressway"/>
    <tag k="oneway" v="yes"/>
    <tag k="ref" v="G11"/>
  </way>
  <way id="114874725" version="1" timestamp="2011-05-25T20:31:51Z" uid="9581" user="Lobelt" changeset="8248465">
    <nd ref="1300121502"/>
    <nd ref="614307414"/>
    <nd ref="1300123642"/>
    <nd ref="614307430"/>
    <nd ref="614307434"/>
    <nd ref="1300119797"/>
    <nd ref="614307438"/>
    <nd ref="614307442"/>
    <nd ref="614307448"/>
    <nd ref="614307451"/>
    <nd ref="1300124854"/>
    <tag k="highway" v="motorway"/>
    <tag k="name" v="丹大高速"/>
    <tag k="name:en" v="Danda Expressway"/>
    <tag k="oneway" v="yes"/>
    <tag k="ref" v="G11"/>
  </way>
  <way id="114874726" version="1" timestamp="2011-05-25T20:31:51Z" uid="9581" user="Lobelt" changeset="8248465">
    <nd ref="1300121379"/>
    <nd ref="1300124985"/>
    <nd ref="1300122728"/>
    <nd ref="1300122563"/>
    <nd ref="1300124034"/>
    <nd ref="1300125021"/>
    <nd ref="1300122754"/>
    <nd ref="1300121032"/>
    <nd ref="1300119690"/>
    <nd ref="1300120265"/>
    <nd ref="1300124625"/>
    <nd ref="1300122382"/>
    <tag k="highway" v="motorway"/>
    <tag k="oneway" v="yes"/>
    <tag k="ref" v="G11"/>
  </way>
  <way id="114874727" version="1" timestamp="2011-05-25T20:31:51Z" uid="9581" user="Lobelt" changeset="8248465">
    <nd ref="1300119812"/>
    <nd ref="1300121163"/>
    <nd ref="614321440"/>
    <nd ref="1300122997"/>
    <nd ref="614321450"/>
    <nd ref="614321460"/>
    <nd ref="1300122077"/>
    <nd ref="614321470"/>
    <nd ref="614306705"/>
    <nd ref="614321495"/>
    <nd ref="1300124411"/>
    <nd ref="614321503"/>
    <nd ref="1300120156"/>
    <nd ref="614306757"/>
    <nd ref="614306762"/>
    <nd ref="1300121515"/>
    <nd ref="614321532"/>
    <tag k="highway" v="motorway"/>
    <tag k="name" v="丹大高速"/>
    <tag k="name:en" v="Danda Expressway"/>
    <tag k="oneway" v="yes"/>
    <tag k="ref" v="G11"/>
  </way>
  <way id="114874728" version="1" timestamp="2011-05-25T20:31:52Z" uid="9581" user="Lobelt" changeset="8248465">
    <nd ref="1300120706"/>
    <nd ref="1300125069"/>
    <nd ref="1300122808"/>
    <nd ref="1300121066"/>
    <nd ref="1300121686"/>
    <nd ref="1300120300"/>
    <nd ref="1300120316"/>
    <nd ref="1300121028"/>
    <nd ref="1300119683"/>
    <nd ref="1300123269"/>
    <nd ref="1300121336"/>
    <nd ref="1300122368"/>
    <nd ref="1300120651"/>
    <nd ref="1300125009"/>
    <nd ref="1300122750"/>
    <tag k="highway" v="motorway"/>
    <tag k="oneway" v="yes"/>
    <tag k="ref" v="G11"/>
  </way>
  <way id="114874729" version="1" timestamp="2011-05-25T20:31:52Z" uid="9581" user="Lobelt" changeset="8248465">
    <nd ref="1300122934"/>
    <nd ref="430677672"/>
    <nd ref="1300125176"/>
    <tag k="highway" v="motorway"/>
    <tag k="name" v="丹大高速"/>
    <tag k="name:en" v="Danda Expressway"/>
    <tag k="oneway" v="yes"/>
    <tag k="ref" v="G11"/>
  </way>
  <way id="114874730" version="1" timestamp="2011-05-25T20:31:52Z" uid="9581" user="Lobelt" changeset="8248465">
    <nd ref="614306460"/>
    <nd ref="1300122246"/>
    <tag k="bridge" v="yes"/>
    <tag k="highway" v="motorway"/>
    <tag k="layer" v="1"/>
    <tag k="name" v="丹大高速"/>
    <tag k="name:en" v="Danda Expressway"/>
    <tag k="oneway" v="yes"/>
    <tag k="ref" v="G11"/>
  </way>
  <way id="114874731" version="1" timestamp="2011-05-25T20:31:52Z" uid="9581" user="Lobelt" changeset="8248465">
    <nd ref="1300124019"/>
    <nd ref="1300121728"/>
    <tag k="bridge" v="yes"/>
    <tag k="highway" v="motorway"/>
    <tag k="layer" v="1"/>
    <tag k="oneway" v="yes"/>
    <tag k="ref" v="G11"/>
  </way>
  <way id="114874732" version="1" timestamp="2011-05-25T20:31:53Z" uid="9581" user="Lobelt" changeset="8248465">
    <nd ref="1300123003"/>
    <nd ref="1300120947"/>
    <tag k="highway" v="motorway"/>
    <tag k="oneway" v="yes"/>
    <tag k="ref" v="G11"/>
  </way>
  <way id="114874733" version="1" timestamp="2011-05-25T20:31:53Z" uid="9581" user="Lobelt" changeset="8248465">
    <nd ref="1300120099"/>
    <nd ref="614306483"/>
    <tag k="bridge" v="yes"/>
    <tag k="highway" v="motorway"/>
    <tag k="layer" v="1"/>
    <tag k="name" v="丹大高速"/>
    <tag k="name:en" v="Danda Expressway"/>
    <tag k="oneway" v="yes"/>
    <tag k="ref" v="G11"/>
  </way>
  <way id="114874734" version="1" timestamp="2011-05-25T20:31:53Z" uid="9581" user="Lobelt" changeset="8248465">
    <nd ref="1300120939"/>
    <nd ref="1300125322"/>
    <tag k="bridge" v="yes"/>
    <tag k="highway" v="motorway"/>
    <tag k="layer" v="1"/>
    <tag k="oneway" v="yes"/>
    <tag k="ref" v="G11"/>
  </way>
  <way id="114874735" version="1" timestamp="2011-05-25T20:31:53Z" uid="9581" user="Lobelt" changeset="8248465">
    <nd ref="1300122750"/>
    <nd ref="1300123912"/>
    <tag k="bridge" v="yes"/>
    <tag k="highway" v="motorway"/>
    <tag k="layer" v="1"/>
    <tag k="oneway" v="yes"/>
    <tag k="ref" v="G11"/>
  </way>
  <way id="114874736" version="1" timestamp="2011-05-25T20:31:53Z" uid="9581" user="Lobelt" changeset="8248465">
    <nd ref="1300123252"/>
    <nd ref="1300121320"/>
    <tag k="highway" v="motorway"/>
    <tag k="oneway" v="yes"/>
    <tag k="ref" v="G11"/>
  </way>
  <way id="114874737" version="1" timestamp="2011-05-25T20:31:53Z" uid="9581" user="Lobelt" changeset="8248465">
    <nd ref="1300124797"/>
    <nd ref="1300122580"/>
    <tag k="bridge" v="yes"/>
    <tag k="highway" v="motorway"/>
    <tag k="layer" v="1"/>
    <tag k="oneway" v="yes"/>
    <tag k="ref" v="G11"/>
  </way>
  <way id="114874738" version="1" timestamp="2011-05-25T20:31:53Z" uid="9581" user="Lobelt" changeset="8248465">
    <nd ref="1300121291"/>
    <nd ref="1300123188"/>
    <tag k="bridge" v="yes"/>
    <tag k="highway" v="motorway"/>
    <tag k="layer" v="1"/>
    <tag k="name" v="丹大高速"/>
    <tag k="name:en" v="Danda Expressway"/>
    <tag k="oneway" v="yes"/>
    <tag k="ref" v="G11"/>
  </way>
  <way id="114874739" version="1" timestamp="2011-05-25T20:31:54Z" uid="9581" user="Lobelt" changeset="8248465">
    <nd ref="1300121879"/>
    <nd ref="1300123855"/>
    <nd ref="1300121578"/>
    <nd ref="1300122636"/>
    <nd ref="1300120936"/>
    <tag k="highway" v="motorway"/>
    <tag k="oneway" v="yes"/>
    <tag k="ref" v="G11"/>
  </way>
  <way id="114874740" version="1" timestamp="2011-05-25T20:31:54Z" uid="9581" user="Lobelt" changeset="8248465">
    <nd ref="1300120388"/>
    <nd ref="1300121124"/>
    <nd ref="1300122910"/>
    <nd ref="1300121955"/>
    <nd ref="1300124311"/>
    <nd ref="1300120121"/>
    <nd ref="1300120020"/>
    <nd ref="1300121349"/>
    <nd ref="1300123336"/>
    <nd ref="1300119701"/>
    <nd ref="1300121707"/>
    <nd ref="1300123996"/>
    <nd ref="1300119984"/>
    <nd ref="1300121326"/>
    <nd ref="1300120726"/>
    <nd ref="1300122454"/>
    <nd ref="1300124669"/>
    <nd ref="1300120306"/>
    <nd ref="1300119733"/>
    <tag k="waterway" v="river"/>
  </way>
  <way id="114874741" version="1" timestamp="2011-05-25T20:31:54Z" uid="9581" user="Lobelt" changeset="8248465">
    <nd ref="614306645"/>
    <nd ref="1300120677"/>
    <tag k="bridge" v="yes"/>
    <tag k="highway" v="motorway"/>
    <tag k="layer" v="1"/>
    <tag k="name" v="丹大高速"/>
    <tag k="name:en" v="Danda Expressway"/>
    <tag k="oneway" v="yes"/>
    <tag k="ref" v="G11"/>
  </way>
  <way id="114874742" version="1" timestamp="2011-05-25T20:31:54Z" uid="9581" user="Lobelt" changeset="8248465">
    <nd ref="430677684"/>
    <nd ref="614306237"/>
    <tag k="bridge" v="yes"/>
    <tag k="highway" v="motorway"/>
    <tag k="layer" v="1"/>
    <tag k="name" v="丹大高速"/>
    <tag k="name:en" v="Danda Expressway"/>
    <tag k="oneway" v="yes"/>
    <tag k="ref" v="G11"/>
  </way>
  <way id="114874743" version="1" timestamp="2011-05-25T20:31:54Z" uid="9581" user="Lobelt" changeset="8248465">
    <nd ref="1300122382"/>
    <nd ref="1300120657"/>
    <tag k="bridge" v="yes"/>
    <tag k="highway" v="motorway"/>
    <tag k="layer" v="1"/>
    <tag k="oneway" v="yes"/>
    <tag k="ref" v="G11"/>
  </way>
  <way id="114874744" version="1" timestamp="2011-05-25T20:31:55Z" uid="9581" user="Lobelt" changeset="8248465">
    <nd ref="1300125023"/>
    <nd ref="614307581"/>
    <tag k="highway" v="motorway"/>
    <tag k="name" v="丹大高速"/>
    <tag k="name:en" v="Danda Expressway"/>
    <tag k="oneway" v="yes"/>
    <tag k="ref" v="G11"/>
  </way>
  <way id="114874745" version="1" timestamp="2011-05-25T20:31:55Z" uid="9581" user="Lobelt" changeset="8248465">
    <nd ref="1300124049"/>
    <nd ref="1300120027"/>
    <nd ref="1300121355"/>
    <nd ref="1300124835"/>
    <tag k="highway" v="motorway_link"/>
    <tag k="oneway" v="yes"/>
  </way>
  <way id="114874746" version="1" timestamp="2011-05-25T20:31:55Z" uid="9581" user="Lobelt" changeset="8248465">
    <nd ref="614306483"/>
    <nd ref="1300121436"/>
    <tag k="highway" v="motorway"/>
    <tag k="name" v="丹大高速"/>
    <tag k="name:en" v="Danda Expressway"/>
    <tag k="oneway" v="yes"/>
    <tag k="ref" v="G11"/>
  </way>
  <way id="114874747" version="1" timestamp="2011-05-25T20:31:55Z" uid="9581" user="Lobelt" changeset="8248465">
    <nd ref="1300124804"/>
    <nd ref="430677860"/>
    <nd ref="1300121150"/>
    <nd ref="614307327"/>
    <nd ref="614307332"/>
    <nd ref="614307337"/>
    <nd ref="1300122961"/>
    <nd ref="614307347"/>
    <nd ref="614307352"/>
    <tag k="highway" v="motorway"/>
    <tag k="name" v="丹大高速"/>
    <tag k="name:en" v="Danda Expressway"/>
    <tag k="oneway" v="yes"/>
    <tag k="ref" v="G11"/>
  </way>
  <way id="114874748" version="1" timestamp="2011-05-25T20:31:55Z" uid="9581" user="Lobelt" changeset="8248465">
    <nd ref="1300125165"/>
    <nd ref="1300124310"/>
    <nd ref="614307572"/>
    <nd ref="1300121470"/>
    <nd ref="1300122762"/>
    <tag k="highway" v="motorway"/>
    <tag k="name" v="丹大高速"/>
    <tag k="name:en" v="Danda Expressway"/>
    <tag k="oneway" v="yes"/>
    <tag k="ref" v="G11"/>
  </way>
  <way id="114874749" version="1" timestamp="2011-05-25T20:31:55Z" uid="9581" user="Lobelt" changeset="8248465">
    <nd ref="1300121171"/>
    <nd ref="1300119819"/>
    <tag k="highway" v="motorway"/>
    <tag k="oneway" v="yes"/>
    <tag k="ref" v="G11"/>
  </way>
  <way id="114874750" version="1" timestamp="2011-05-25T20:31:56Z" uid="9581" user="Lobelt" changeset="8248465">
    <nd ref="1300120837"/>
    <nd ref="614307401"/>
    <nd ref="614307405"/>
    <nd ref="1300120141"/>
    <tag k="highway" v="motorway"/>
    <tag k="name" v="丹大高速"/>
    <tag k="name:en" v="Danda Expressway"/>
    <tag k="oneway" v="yes"/>
    <tag k="ref" v="G11"/>
  </way>
  <way id="114874751" version="1" timestamp="2011-05-25T20:31:56Z" uid="9581" user="Lobelt" changeset="8248465">
    <nd ref="1300123150"/>
    <nd ref="1300122370"/>
    <nd ref="1300124613"/>
    <nd ref="1300120259"/>
    <nd ref="1300121614"/>
    <nd ref="1300124818"/>
    <tag k="highway" v="motorway_link"/>
    <tag k="oneway" v="yes"/>
  </way>
  <way id="114874752" version="1" timestamp="2011-05-25T20:31:56Z" uid="9581" user="Lobelt" changeset="8248465">
    <nd ref="1300124713"/>
    <nd ref="1300121394"/>
    <tag k="highway" v="motorway"/>
    <tag k="oneway" v="yes"/>
    <tag k="ref" v="G11"/>
  </way>
  <way id="114874753" version="1" timestamp="2011-05-25T20:31:56Z" uid="9581" user="Lobelt" changeset="8248465">
    <nd ref="1300121914"/>
    <nd ref="1300122888"/>
    <tag k="bridge" v="yes"/>
    <tag k="highway" v="motorway"/>
    <tag k="layer" v="1"/>
    <tag k="oneway" v="yes"/>
    <tag k="ref" v="G11"/>
  </way>
  <way id="114874754" version="1" timestamp="2011-05-25T20:31:57Z" uid="9581" user="Lobelt" changeset="8248465">
    <nd ref="614307366"/>
    <nd ref="614307373"/>
    <nd ref="614307383"/>
    <nd ref="614307388"/>
    <tag k="highway" v="motorway"/>
    <tag k="name" v="丹大高速"/>
    <tag k="name:en" v="Danda Expressway"/>
    <tag k="oneway" v="yes"/>
    <tag k="ref" v="G11"/>
  </way>
  <way id="114874755" version="1" timestamp="2011-05-25T20:31:57Z" uid="9581" user="Lobelt" changeset="8248465">
    <nd ref="1300120018"/>
    <nd ref="1300121348"/>
    <tag k="bridge" v="yes"/>
    <tag k="highway" v="motorway"/>
    <tag k="layer" v="1"/>
    <tag k="name" v="丹大高速"/>
    <tag k="name:en" v="Danda Expressway"/>
    <tag k="oneway" v="yes"/>
    <tag k="ref" v="G11"/>
  </way>
  <way id="114874756" version="1" timestamp="2011-05-25T20:31:57Z" uid="9581" user="Lobelt" changeset="8248465">
    <nd ref="614307277"/>
    <nd ref="1300120106"/>
    <tag k="bridge" v="yes"/>
    <tag k="highway" v="motorway"/>
    <tag k="layer" v="1"/>
    <tag k="name" v="丹大高速"/>
    <tag k="name:en" v="Danda Expressway"/>
    <tag k="oneway" v="yes"/>
    <tag k="ref" v="G11"/>
  </way>
  <way id="114874757" version="1" timestamp="2011-05-25T20:31:57Z" uid="9581" user="Lobelt" changeset="8248465">
    <nd ref="1300124634"/>
    <nd ref="1300120279"/>
    <tag k="bridge" v="yes"/>
    <tag k="highway" v="motorway"/>
    <tag k="layer" v="1"/>
    <tag k="name" v="丹大高速"/>
    <tag k="name:en" v="Danda Expressway"/>
    <tag k="oneway" v="yes"/>
    <tag k="ref" v="G11"/>
  </way>
  <way id="114874758" version="1" timestamp="2011-05-25T20:31:57Z" uid="9581" user="Lobelt" changeset="8248465">
    <nd ref="1300122911"/>
    <nd ref="1300124223"/>
    <nd ref="1300120092"/>
    <nd ref="1300121430"/>
    <nd ref="1300120857"/>
    <nd ref="1300122561"/>
    <nd ref="1300124779"/>
    <nd ref="1300120390"/>
    <nd ref="1300119811"/>
    <nd ref="1300121161"/>
    <nd ref="1300122978"/>
    <nd ref="1300125229"/>
    <nd ref="430677679"/>
    <tag k="highway" v="motorway_link"/>
    <tag k="oneway" v="yes"/>
  </way>
  <way id="114874759" version="1" timestamp="2011-05-25T20:31:57Z" uid="9581" user="Lobelt" changeset="8248465">
    <nd ref="1300121946"/>
    <nd ref="1300125273"/>
    <nd ref="1300120882"/>
    <nd ref="1300120177"/>
    <nd ref="1300121539"/>
    <nd ref="1300123730"/>
    <nd ref="1300119831"/>
    <nd ref="1300124903"/>
    <nd ref="1300120539"/>
    <nd ref="1300122177"/>
    <nd ref="1300124470"/>
    <nd ref="1300123148"/>
    <nd ref="1300119588"/>
    <nd ref="1300120963"/>
    <nd ref="614306637"/>
    <tag k="highway" v="motorway_link"/>
    <tag k="oneway" v="yes"/>
  </way>
  <way id="114874760" version="1" timestamp="2011-05-25T20:31:58Z" uid="9581" user="Lobelt" changeset="8248465">
    <nd ref="1300121299"/>
    <nd ref="1300119953"/>
    <tag k="bridge" v="yes"/>
    <tag k="highway" v="motorway"/>
    <tag k="layer" v="1"/>
    <tag k="oneway" v="yes"/>
    <tag k="ref" v="G11"/>
  </way>
  <way id="114874761" version="1" timestamp="2011-05-25T20:31:58Z" uid="9581" user="Lobelt" changeset="8248465">
    <nd ref="430678421"/>
    <nd ref="1300120120"/>
    <tag k="bridge" v="yes"/>
    <tag k="highway" v="motorway"/>
    <tag k="layer" v="1"/>
    <tag k="name" v="丹大高速"/>
    <tag k="name:en" v="Danda Expressway"/>
    <tag k="oneway" v="yes"/>
    <tag k="ref" v="G11"/>
  </way>
  <way id="114874762" version="1" timestamp="2011-05-25T20:31:58Z" uid="9581" user="Lobelt" changeset="8248465">
    <nd ref="1300120440"/>
    <nd ref="1300121442"/>
    <nd ref="1300122487"/>
    <tag k="highway" v="motorway"/>
    <tag k="oneway" v="yes"/>
    <tag k="ref" v="G11"/>
  </way>
  <way id="114874763" version="1" timestamp="2011-05-25T20:31:58Z" uid="9581" user="Lobelt" changeset="8248465">
    <nd ref="1300123992"/>
    <nd ref="1300119975"/>
    <tag k="bridge" v="yes"/>
    <tag k="highway" v="motorway"/>
    <tag k="layer" v="1"/>
    <tag k="name" v="丹大高速"/>
    <tag k="name:en" v="Danda Expressway"/>
    <tag k="oneway" v="yes"/>
    <tag k="ref" v="G11"/>
  </way>
  <way id="114874764" version="1" timestamp="2011-05-25T20:31:59Z" uid="9581" user="Lobelt" changeset="8248465">
    <nd ref="1300120861"/>
    <nd ref="1300122565"/>
    <nd ref="430677832"/>
    <nd ref="430677829"/>
    <tag k="highway" v="motorway"/>
    <tag k="name" v="丹大高速"/>
    <tag k="name:en" v="Danda Expressway"/>
    <tag k="oneway" v="yes"/>
    <tag k="ref" v="G11"/>
  </way>
  <way id="114874765" version="1" timestamp="2011-05-25T20:31:59Z" uid="9581" user="Lobelt" changeset="8248465">
    <nd ref="1300123489"/>
    <nd ref="1300121431"/>
    <nd ref="1300122483"/>
    <tag k="highway" v="motorway"/>
    <tag k="oneway" v="yes"/>
    <tag k="ref" v="G11"/>
  </way>
  <way id="114874766" version="1" timestamp="2011-05-25T20:31:59Z" uid="9581" user="Lobelt" changeset="8248465">
    <nd ref="1300122328"/>
    <nd ref="1300120612"/>
    <nd ref="1300120058"/>
    <tag k="highway" v="motorway"/>
    <tag k="oneway" v="yes"/>
    <tag k="ref" v="G11"/>
  </way>
  <way id="114874767" version="1" timestamp="2011-05-25T20:31:59Z" uid="9581" user="Lobelt" changeset="8248465">
    <nd ref="1300124070"/>
    <nd ref="1300121751"/>
    <tag k="highway" v="motorway"/>
    <tag k="oneway" v="yes"/>
    <tag k="ref" v="G11"/>
  </way>
  <way id="114874768" version="1" timestamp="2011-05-25T20:31:59Z" uid="9581" user="Lobelt" changeset="8248465">
    <nd ref="1300122890"/>
    <nd ref="1300125133"/>
    <tag k="bridge" v="yes"/>
    <tag k="highway" v="motorway"/>
    <tag k="layer" v="1"/>
    <tag k="name" v="丹大高速"/>
    <tag k="name:en" v="Danda Expressway"/>
    <tag k="oneway" v="yes"/>
    <tag k="ref" v="G11"/>
  </way>
  <way id="114874769" version="1" timestamp="2011-05-25T20:31:59Z" uid="9581" user="Lobelt" changeset="8248465">
    <nd ref="1300119704"/>
    <nd ref="1300124702"/>
    <nd ref="1300120334"/>
    <nd ref="1300121747"/>
    <nd ref="1300124045"/>
    <nd ref="1300122868"/>
    <nd ref="1300125127"/>
    <nd ref="1300120763"/>
    <nd ref="1300122485"/>
    <tag k="highway" v="motorway_link"/>
    <tag k="oneway" v="yes"/>
  </way>
  <way id="114874770" version="1" timestamp="2011-05-25T20:32:00Z" uid="9581" user="Lobelt" changeset="8248465">
    <nd ref="1300124384"/>
    <nd ref="614306897"/>
    <nd ref="1300120150"/>
    <nd ref="614321673"/>
    <nd ref="614306907"/>
    <nd ref="614306925"/>
    <tag k="highway" v="motorway"/>
    <tag k="name" v="丹大高速"/>
    <tag k="name:en" v="Danda Expressway"/>
    <tag k="oneway" v="yes"/>
    <tag k="ref" v="G11"/>
  </way>
  <way id="114874771" version="1" timestamp="2011-05-25T20:32:00Z" uid="9581" user="Lobelt" changeset="8248465">
    <nd ref="1300121800"/>
    <nd ref="430677733"/>
    <nd ref="1300119967"/>
    <tag k="highway" v="motorway"/>
    <tag k="name" v="丹大高速"/>
    <tag k="name:en" v="Danda Expressway"/>
    <tag k="oneway" v="yes"/>
    <tag k="ref" v="G11"/>
  </way>
  <way id="114874772" version="1" timestamp="2011-05-25T20:32:00Z" uid="9581" user="Lobelt" changeset="8248465">
    <nd ref="430677664"/>
    <nd ref="430677735"/>
    <tag k="bridge" v="yes"/>
    <tag k="highway" v="motorway"/>
    <tag k="layer" v="1"/>
    <tag k="name" v="丹大高速"/>
    <tag k="name:en" v="Danda Expressway"/>
    <tag k="oneway" v="yes"/>
    <tag k="ref" v="G11"/>
  </way>
  <way id="114874773" version="1" timestamp="2011-05-25T20:32:00Z" uid="9581" user="Lobelt" changeset="8248465">
    <nd ref="1300121728"/>
    <nd ref="1300120320"/>
    <tag k="highway" v="motorway"/>
    <tag k="oneway" v="yes"/>
    <tag k="ref" v="G11"/>
  </way>
  <way id="114874774" version="1" timestamp="2011-05-25T20:32:00Z" uid="9581" user="Lobelt" changeset="8248465">
    <nd ref="1300124072"/>
    <nd ref="1300120744"/>
    <tag k="bridge" v="yes"/>
    <tag k="highway" v="motorway"/>
    <tag k="layer" v="1"/>
    <tag k="name" v="丹大高速"/>
    <tag k="name:en" v="Danda Expressway"/>
    <tag k="oneway" v="yes"/>
    <tag k="ref" v="G11"/>
  </way>
  <way id="114874775" version="1" timestamp="2011-05-25T20:32:00Z" uid="9581" user="Lobelt" changeset="8248465">
    <nd ref="1300125084"/>
    <nd ref="1300124157"/>
    <nd ref="430677637"/>
    <nd ref="1300120073"/>
    <nd ref="430677634"/>
    <nd ref="1300121393"/>
    <nd ref="430677635"/>
    <nd ref="430677632"/>
    <nd ref="1300123393"/>
    <nd ref="430677633"/>
    <nd ref="1300122526"/>
    <nd ref="430677628"/>
    <nd ref="1300124744"/>
    <nd ref="430677630"/>
    <nd ref="1300120357"/>
    <nd ref="430677623"/>
    <nd ref="430677626"/>
    <nd ref="430677607"/>
    <nd ref="430677620"/>
    <nd ref="430677676"/>
    <nd ref="1300121809"/>
    <tag k="highway" v="motorway"/>
    <tag k="name" v="丹大高速"/>
    <tag k="name:en" v="Danda Expressway"/>
    <tag k="oneway" v="yes"/>
    <tag k="ref" v="G11"/>
  </way>
  <way id="114874776" version="1" timestamp="2011-05-25T20:32:01Z" uid="9581" user="Lobelt" changeset="8248465">
    <nd ref="614306857"/>
    <nd ref="1300121537"/>
    <nd ref="1300123724"/>
    <nd ref="1300119830"/>
    <nd ref="1300121187"/>
    <nd ref="1300120538"/>
    <nd ref="1300122173"/>
    <nd ref="1300124468"/>
    <nd ref="1300120175"/>
    <tag k="highway" v="motorway_link"/>
    <tag k="oneway" v="yes"/>
  </way>
  <way id="114874777" version="1" timestamp="2011-05-25T20:32:01Z" uid="9581" user="Lobelt" changeset="8248465">
    <nd ref="1300120561"/>
    <nd ref="1300121202"/>
    <tag k="bridge" v="yes"/>
    <tag k="highway" v="motorway"/>
    <tag k="layer" v="1"/>
    <tag k="oneway" v="yes"/>
    <tag k="ref" v="G11"/>
  </way>
  <way id="114874778" version="1" timestamp="2011-05-25T20:32:01Z" uid="9581" user="Lobelt" changeset="8248465">
    <nd ref="1300125322"/>
    <nd ref="1300123110"/>
    <nd ref="1300124398"/>
    <nd ref="1300122068"/>
    <nd ref="1300120493"/>
    <nd ref="1300124874"/>
    <nd ref="1300119809"/>
    <nd ref="1300123657"/>
    <nd ref="1300121513"/>
    <nd ref="1300120153"/>
    <nd ref="1300121627"/>
    <nd ref="1300120262"/>
    <tag k="highway" v="motorway"/>
    <tag k="oneway" v="yes"/>
    <tag k="ref" v="G11"/>
  </way>
  <way id="114874779" version="1" timestamp="2011-05-25T20:32:01Z" uid="9581" user="Lobelt" changeset="8248465">
    <nd ref="1300119885"/>
    <nd ref="1300121248"/>
    <nd ref="1300123143"/>
    <nd ref="1300122347"/>
    <nd ref="1300124595"/>
    <tag k="highway" v="motorway_link"/>
    <tag k="oneway" v="yes"/>
  </way>
  <way id="114874780" version="1" timestamp="2011-05-25T20:32:02Z" uid="9581" user="Lobelt" changeset="8248465">
    <nd ref="1300121397"/>
    <nd ref="1300125109"/>
    <tag k="bridge" v="yes"/>
    <tag k="highway" v="motorway"/>
    <tag k="layer" v="1"/>
    <tag k="oneway" v="yes"/>
    <tag k="ref" v="G11"/>
  </way>
  <way id="114874781" version="1" timestamp="2011-05-25T20:32:02Z" uid="9581" user="Lobelt" changeset="8248465">
    <nd ref="1300122904"/>
    <nd ref="1300125155"/>
    <nd ref="1300120784"/>
    <nd ref="1300120117"/>
    <tag k="highway" v="motorway"/>
    <tag k="name" v="丹大高速"/>
    <tag k="name:en" v="Danda Expressway"/>
    <tag k="oneway" v="yes"/>
    <tag k="ref" v="G11"/>
  </way>
  <way id="114874782" version="1" timestamp="2011-05-25T20:32:02Z" uid="9581" user="Lobelt" changeset="8248465">
    <nd ref="1300121098"/>
    <nd ref="614321390"/>
    <tag k="bridge" v="yes"/>
    <tag k="highway" v="motorway"/>
    <tag k="layer" v="1"/>
    <tag k="name" v="丹大高速"/>
    <tag k="name:en" v="Danda Expressway"/>
    <tag k="oneway" v="yes"/>
    <tag k="ref" v="G11"/>
  </way>
  <way id="114874783" version="1" timestamp="2011-05-25T20:32:02Z" uid="9581" user="Lobelt" changeset="8248465">
    <nd ref="430677865"/>
    <nd ref="430677867"/>
    <nd ref="1300122890"/>
    <tag k="highway" v="motorway"/>
    <tag k="name" v="丹大高速"/>
    <tag k="name:en" v="Danda Expressway"/>
    <tag k="oneway" v="yes"/>
    <tag k="ref" v="G11"/>
  </way>
  <way id="114874784" version="1" timestamp="2011-05-25T20:32:02Z" uid="9581" user="Lobelt" changeset="8248465">
    <nd ref="1300120188"/>
    <nd ref="1300121552"/>
    <nd ref="1300120977"/>
    <nd ref="1300119904"/>
    <nd ref="1300121260"/>
    <nd ref="1300123152"/>
    <nd ref="1300119607"/>
    <nd ref="1300124617"/>
    <nd ref="1300120261"/>
    <nd ref="1300121617"/>
    <nd ref="1300123916"/>
    <nd ref="1300122752"/>
    <nd ref="1300125020"/>
    <nd ref="1300120653"/>
    <nd ref="1300122377"/>
    <nd ref="1300119665"/>
    <nd ref="1300121011"/>
    <nd ref="1300122732"/>
    <nd ref="1300124990"/>
    <nd ref="1300123989"/>
    <nd ref="1300119973"/>
    <nd ref="1300121316"/>
    <nd ref="1300123222"/>
    <nd ref="1300122447"/>
    <nd ref="1300124651"/>
    <nd ref="1300120301"/>
    <nd ref="1300121695"/>
    <nd ref="1300121069"/>
    <nd ref="1300122810"/>
    <nd ref="1300125072"/>
    <nd ref="1300120714"/>
    <nd ref="1300120072"/>
    <nd ref="1300121390"/>
    <nd ref="1300123386"/>
    <nd ref="1300119722"/>
    <nd ref="1300124741"/>
    <nd ref="1300120354"/>
    <nd ref="1300121804"/>
    <nd ref="1300124143"/>
    <nd ref="1300122931"/>
    <nd ref="1300125169"/>
    <nd ref="1300120803"/>
    <nd ref="1300122523"/>
    <nd ref="1300121473"/>
    <nd ref="1300123561"/>
    <nd ref="1300119781"/>
    <nd ref="1300121126"/>
    <nd ref="1300124262"/>
    <nd ref="1300120103"/>
    <nd ref="1300121444"/>
    <nd ref="1300123501"/>
    <nd ref="1300122582"/>
    <nd ref="1300124799"/>
    <nd ref="1300120409"/>
    <nd ref="1300121904"/>
    <nd ref="1300121177"/>
    <nd ref="1300123016"/>
    <nd ref="1300125073"/>
    <nd ref="1300124148"/>
    <nd ref="1300120066"/>
    <nd ref="1300121391"/>
    <nd ref="1300123389"/>
    <nd ref="1300122524"/>
    <nd ref="1300124739"/>
    <nd ref="1300120356"/>
    <nd ref="1300121802"/>
    <nd ref="1300121127"/>
    <nd ref="1300122914"/>
    <nd ref="1300125172"/>
    <nd ref="1300120799"/>
    <nd ref="1300120124"/>
    <nd ref="1300121474"/>
    <nd ref="1300123563"/>
    <nd ref="1300119778"/>
    <nd ref="1300124832"/>
    <nd ref="1300120443"/>
    <nd ref="1300121979"/>
    <nd ref="1300124312"/>
    <nd ref="1300123068"/>
    <nd ref="1300125278"/>
    <nd ref="1300120896"/>
    <nd ref="1300122605"/>
    <tag k="railway" v="rail"/>
  </way>
  <way id="114874784" version="2" timestamp="2012-03-04T17:09:08Z" uid="17497" user="katpatuka" changeset="10870953"/>
  <way id="114874785" version="1" timestamp="2011-05-25T20:32:03Z" uid="9581" user="Lobelt" changeset="8248465">
    <nd ref="1300119858"/>
    <nd ref="1300121218"/>
    <tag k="bridge" v="yes"/>
    <tag k="layer" v="1"/>
    <tag k="railway" v="rail"/>
  </way>
  <way id="114874785" version="2" timestamp="2012-03-04T17:09:08Z" uid="17497" user="katpatuka" changeset="10870953"/>
  <way id="114874786" version="1" timestamp="2011-05-25T20:32:03Z" uid="9581" user="Lobelt" changeset="8248465">
    <nd ref="1300125317"/>
    <nd ref="614321792"/>
    <nd ref="1300120927"/>
    <nd ref="614321811"/>
    <nd ref="614321820"/>
    <nd ref="614321832"/>
    <nd ref="1300120222"/>
    <nd ref="614307059"/>
    <nd ref="614307071"/>
    <nd ref="614307080"/>
    <nd ref="614307091"/>
    <nd ref="1300121575"/>
    <tag k="highway" v="motorway"/>
    <tag k="name" v="丹大高速"/>
    <tag k="name:en" v="Danda Expressway"/>
    <tag k="oneway" v="yes"/>
    <tag k="ref" v="G11"/>
  </way>
  <way id="114874787" version="1" timestamp="2011-05-25T20:32:03Z" uid="9581" user="Lobelt" changeset="8248465">
    <nd ref="1300119875"/>
    <nd ref="1300124973"/>
    <tag k="bridge" v="yes"/>
    <tag k="highway" v="motorway_link"/>
    <tag k="layer" v="1"/>
    <tag k="oneway" v="yes"/>
  </way>
  <way id="114874788" version="1" timestamp="2011-05-25T20:32:03Z" uid="9581" user="Lobelt" changeset="8248465">
    <nd ref="430677735"/>
    <nd ref="1300124120"/>
    <nd ref="430677737"/>
    <nd ref="430677739"/>
    <nd ref="430677741"/>
    <tag k="highway" v="motorway"/>
    <tag k="name" v="丹大高速"/>
    <tag k="name:en" v="Danda Expressway"/>
    <tag k="oneway" v="yes"/>
    <tag k="ref" v="G11"/>
  </way>
  <way id="114874789" version="1" timestamp="2011-05-25T20:32:04Z" uid="9581" user="Lobelt" changeset="8248465">
    <nd ref="1300119749"/>
    <nd ref="1300120326"/>
    <nd ref="1300124693"/>
    <nd ref="1300122482"/>
    <tag k="highway" v="motorway"/>
    <tag k="oneway" v="yes"/>
    <tag k="ref" v="G11"/>
  </way>
  <way id="114874790" version="1" timestamp="2011-05-25T20:32:04Z" uid="9581" user="Lobelt" changeset="8248465">
    <nd ref="1300123442"/>
    <nd ref="1300119825"/>
    <nd ref="1300121180"/>
    <nd ref="1300123029"/>
    <nd ref="1300122138"/>
    <nd ref="1300124446"/>
    <nd ref="1300119978"/>
    <tag k="highway" v="motorway_link"/>
    <tag k="oneway" v="yes"/>
  </way>
  <way id="114874791" version="1" timestamp="2011-05-25T20:32:04Z" uid="9581" user="Lobelt" changeset="8248465">
    <nd ref="614321391"/>
    <nd ref="1300124451"/>
    <tag k="bridge" v="yes"/>
    <tag k="highway" v="motorway"/>
    <tag k="layer" v="1"/>
    <tag k="name" v="丹大高速"/>
    <tag k="name:en" v="Danda Expressway"/>
    <tag k="oneway" v="yes"/>
    <tag k="ref" v="G11"/>
  </way>
  <way id="114874792" version="1" timestamp="2011-05-25T20:32:04Z" uid="9581" user="Lobelt" changeset="8248465">
    <nd ref="1300125040"/>
    <nd ref="1300119947"/>
    <nd ref="1300123961"/>
    <nd ref="1300125266"/>
    <nd ref="1300123035"/>
    <tag k="highway" v="motorway"/>
    <tag k="oneway" v="yes"/>
    <tag k="ref" v="G11"/>
  </way>
  <way id="114874793" version="1" timestamp="2011-05-25T20:32:04Z" uid="9581" user="Lobelt" changeset="8248465">
    <nd ref="1300119676"/>
    <nd ref="1300122406"/>
    <nd ref="1300124543"/>
    <nd ref="1300122260"/>
    <tag k="highway" v="motorway"/>
    <tag k="oneway" v="yes"/>
    <tag k="ref" v="G11"/>
  </way>
  <way id="114874794" version="1" timestamp="2011-05-25T20:32:04Z" uid="9581" user="Lobelt" changeset="8248465">
    <nd ref="614306469"/>
    <nd ref="614306473"/>
    <nd ref="1300121745"/>
    <nd ref="1300122867"/>
    <nd ref="1300121098"/>
    <tag k="highway" v="motorway"/>
    <tag k="name" v="丹大高速"/>
    <tag k="name:en" v="Danda Expressway"/>
    <tag k="oneway" v="yes"/>
    <tag k="ref" v="G11"/>
  </way>
  <way id="114874795" version="1" timestamp="2011-05-25T20:32:05Z" uid="9581" user="Lobelt" changeset="8248465">
    <nd ref="1300120754"/>
    <nd ref="1300121636"/>
    <nd ref="1300123941"/>
    <nd ref="1300119928"/>
    <nd ref="1300121279"/>
    <nd ref="1300120672"/>
    <nd ref="1300122403"/>
    <nd ref="1300124632"/>
    <nd ref="1300120274"/>
    <nd ref="1300119707"/>
    <nd ref="1300121041"/>
    <nd ref="1300122770"/>
    <nd ref="1300125030"/>
    <tag k="highway" v="motorway_link"/>
    <tag k="oneway" v="yes"/>
  </way>
  <way id="114874796" version="1" timestamp="2011-05-25T20:32:05Z" uid="9581" user="Lobelt" changeset="8248465">
    <nd ref="1300122866"/>
    <nd ref="430677751"/>
    <tag k="bridge" v="yes"/>
    <tag k="highway" v="motorway"/>
    <tag k="layer" v="1"/>
    <tag k="name" v="丹大高速"/>
    <tag k="name:en" v="Danda Expressway"/>
    <tag k="oneway" v="yes"/>
    <tag k="ref" v="G11"/>
  </way>
  <way id="114874797" version="1" timestamp="2011-05-25T20:32:05Z" uid="9581" user="Lobelt" changeset="8248465">
    <nd ref="1300121990"/>
    <nd ref="1300124342"/>
    <nd ref="1300120131"/>
    <tag k="bridge" v="yes"/>
    <tag k="highway" v="motorway_link"/>
    <tag k="layer" v="1"/>
    <tag k="oneway" v="yes"/>
  </way>
  <way id="114874798" version="1" timestamp="2011-05-25T20:32:05Z" uid="9581" user="Lobelt" changeset="8248465">
    <nd ref="1300120568"/>
    <nd ref="1300124943"/>
    <tag k="bridge" v="yes"/>
    <tag k="highway" v="motorway"/>
    <tag k="layer" v="1"/>
    <tag k="oneway" v="yes"/>
    <tag k="ref" v="G11"/>
  </way>
  <way id="114874799" version="1" timestamp="2011-05-25T20:32:05Z" uid="9581" user="Lobelt" changeset="8248465">
    <nd ref="1300122598"/>
    <nd ref="1300123541"/>
    <nd ref="1300121464"/>
    <nd ref="1300120118"/>
    <nd ref="1300124305"/>
    <nd ref="1300121146"/>
    <nd ref="1300119792"/>
    <nd ref="1300123608"/>
    <nd ref="1300121492"/>
    <tag k="highway" v="motorway"/>
    <tag k="oneway" v="yes"/>
    <tag k="ref" v="G11"/>
  </way>
  <way id="114874800" version="1" timestamp="2011-05-25T20:32:05Z" uid="9581" user="Lobelt" changeset="8248465">
    <nd ref="1300121586"/>
    <nd ref="1300122721"/>
    <nd ref="1300124983"/>
    <nd ref="1300120610"/>
    <nd ref="1300122326"/>
    <nd ref="1300125297"/>
    <nd ref="1300120903"/>
    <nd ref="1300122613"/>
    <nd ref="1300124834"/>
    <nd ref="1300122842"/>
    <tag k="highway" v="motorway_link"/>
    <tag k="oneway" v="yes"/>
  </way>
  <way id="114874801" version="1" timestamp="2011-05-25T20:32:06Z" uid="9581" user="Lobelt" changeset="8248465">
    <nd ref="1300121630"/>
    <nd ref="1300120333"/>
    <nd ref="1300124700"/>
    <nd ref="1300119700"/>
    <tag k="highway" v="motorway"/>
    <tag k="oneway" v="yes"/>
    <tag k="ref" v="G11"/>
  </way>
  <way id="114874802" version="1" timestamp="2011-05-25T20:32:06Z" uid="9581" user="Lobelt" changeset="8248465">
    <nd ref="1300121774"/>
    <nd ref="1300122789"/>
    <tag k="bridge" v="yes"/>
    <tag k="highway" v="motorway"/>
    <tag k="layer" v="1"/>
    <tag k="oneway" v="yes"/>
    <tag k="ref" v="G11"/>
  </way>
  <way id="114874803" version="1" timestamp="2011-05-25T20:32:06Z" uid="9581" user="Lobelt" changeset="8248465">
    <nd ref="1300125180"/>
    <nd ref="1300122936"/>
    <tag k="bridge" v="yes"/>
    <tag k="highway" v="motorway"/>
    <tag k="layer" v="1"/>
    <tag k="oneway" v="yes"/>
    <tag k="ref" v="G11"/>
  </way>
  <way id="114874804" version="1" timestamp="2011-05-25T20:32:06Z" uid="9581" user="Lobelt" changeset="8248465">
    <nd ref="1300119650"/>
    <nd ref="1300123198"/>
    <tag k="bridge" v="yes"/>
    <tag k="highway" v="motorway"/>
    <tag k="layer" v="1"/>
    <tag k="oneway" v="yes"/>
    <tag k="ref" v="G11"/>
  </way>
  <way id="114874805" version="1" timestamp="2011-05-25T20:32:06Z" uid="9581" user="Lobelt" changeset="8248465">
    <nd ref="1300124857"/>
    <nd ref="1300122632"/>
    <tag k="highway" v="motorway"/>
    <tag k="oneway" v="yes"/>
    <tag k="ref" v="G11"/>
  </way>
  <way id="114874806" version="1" timestamp="2011-05-25T20:32:06Z" uid="9581" user="Lobelt" changeset="8248465">
    <nd ref="1300124727"/>
    <nd ref="430677686"/>
    <nd ref="614306291"/>
    <nd ref="614306293"/>
    <nd ref="1300120055"/>
    <nd ref="614306295"/>
    <nd ref="1300121377"/>
    <nd ref="614306298"/>
    <tag k="highway" v="motorway"/>
    <tag k="name" v="丹大高速"/>
    <tag k="name:en" v="Danda Expressway"/>
    <tag k="oneway" v="yes"/>
    <tag k="ref" v="G11"/>
  </way>
  <way id="114874807" version="1" timestamp="2011-05-25T20:32:07Z" uid="9581" user="Lobelt" changeset="8248465">
    <nd ref="1300123610"/>
    <nd ref="1300119795"/>
    <tag k="bridge" v="yes"/>
    <tag k="layer" v="1"/>
    <tag k="railway" v="rail"/>
  </way>
  <way id="114874807" version="2" timestamp="2012-03-04T17:09:08Z" uid="17497" user="katpatuka" changeset="10870953"/>
  <way id="114874808" version="1" timestamp="2011-05-25T20:32:07Z" uid="9581" user="Lobelt" changeset="8248465">
    <nd ref="1300123491"/>
    <nd ref="1300123343"/>
    <tag k="highway" v="motorway_link"/>
    <tag k="oneway" v="yes"/>
  </way>
  <way id="114874809" version="1" timestamp="2011-05-25T20:32:07Z" uid="9581" user="Lobelt" changeset="8248465">
    <nd ref="1300122427"/>
    <nd ref="1300124639"/>
    <tag k="bridge" v="yes"/>
    <tag k="layer" v="1"/>
    <tag k="railway" v="rail"/>
  </way>
  <way id="114874809" version="2" timestamp="2012-03-04T17:09:08Z" uid="17497" user="katpatuka" changeset="10870953"/>
  <way id="114874810" version="1" timestamp="2011-05-25T20:32:07Z" uid="9581" user="Lobelt" changeset="8248465">
    <nd ref="1300125133"/>
    <nd ref="1300120775"/>
    <nd ref="430677869"/>
    <nd ref="1300122491"/>
    <nd ref="1300121448"/>
    <nd ref="1300123507"/>
    <nd ref="1300119761"/>
    <tag k="highway" v="motorway"/>
    <tag k="name" v="丹大高速"/>
    <tag k="name:en" v="Danda Expressway"/>
    <tag k="oneway" v="yes"/>
    <tag k="ref" v="G11"/>
  </way>
  <way id="114874811" version="1" timestamp="2011-05-25T20:32:07Z" uid="9581" user="Lobelt" changeset="8248465">
    <nd ref="1300119953"/>
    <nd ref="1300120592"/>
    <tag k="highway" v="motorway"/>
    <tag k="oneway" v="yes"/>
    <tag k="ref" v="G11"/>
  </way>
  <way id="114874812" version="1" timestamp="2011-05-25T20:32:07Z" uid="9581" user="Lobelt" changeset="8248465">
    <nd ref="1300120663"/>
    <nd ref="1300125024"/>
    <tag k="bridge" v="yes"/>
    <tag k="highway" v="motorway"/>
    <tag k="layer" v="1"/>
    <tag k="oneway" v="yes"/>
    <tag k="ref" v="G11"/>
  </way>
  <way id="114874813" version="1" timestamp="2011-05-25T20:32:07Z" uid="9581" user="Lobelt" changeset="8248465">
    <nd ref="1300120117"/>
    <nd ref="1300121462"/>
    <tag k="bridge" v="yes"/>
    <tag k="highway" v="motorway"/>
    <tag k="layer" v="1"/>
    <tag k="name" v="丹大高速"/>
    <tag k="name:en" v="Danda Expressway"/>
    <tag k="oneway" v="yes"/>
    <tag k="ref" v="G11"/>
  </way>
  <way id="114874814" version="1" timestamp="2011-05-25T20:32:08Z" uid="9581" user="Lobelt" changeset="8248465">
    <nd ref="1300121667"/>
    <nd ref="1300120288"/>
    <tag k="highway" v="motorway"/>
    <tag k="oneway" v="yes"/>
    <tag k="ref" v="G11"/>
  </way>
  <way id="114874815" version="1" timestamp="2011-05-25T20:32:08Z" uid="9581" user="Lobelt" changeset="8248465">
    <nd ref="1300120758"/>
    <nd ref="1300120097"/>
    <tag k="highway" v="motorway"/>
    <tag k="name" v="丹大高速"/>
    <tag k="name:en" v="Danda Expressway"/>
    <tag k="oneway" v="yes"/>
    <tag k="ref" v="G11"/>
  </way>
  <way id="114874817" version="1" timestamp="2011-05-25T20:32:08Z" uid="9581" user="Lobelt" changeset="8248465">
    <nd ref="1300121283"/>
    <nd ref="1300123172"/>
    <nd ref="1300119643"/>
    <nd ref="1300120990"/>
    <nd ref="1300120281"/>
    <nd ref="1300121650"/>
    <nd ref="1300120183"/>
    <nd ref="1300119601"/>
    <nd ref="1300120970"/>
    <nd ref="1300122673"/>
    <nd ref="1300124912"/>
    <nd ref="1300123911"/>
    <nd ref="1300119897"/>
    <nd ref="1300121252"/>
    <nd ref="1300123149"/>
    <nd ref="1300122364"/>
    <nd ref="1300124611"/>
    <nd ref="1300120256"/>
    <nd ref="1300121610"/>
    <nd ref="1300121026"/>
    <nd ref="1300122748"/>
    <nd ref="1300125007"/>
    <nd ref="1300120649"/>
    <nd ref="1300119995"/>
    <nd ref="1300121333"/>
    <nd ref="1300123265"/>
    <nd ref="1300119680"/>
    <nd ref="1300124679"/>
    <nd ref="1300120312"/>
    <nd ref="1300121721"/>
    <nd ref="1300124011"/>
    <nd ref="1300122840"/>
    <nd ref="1300125103"/>
    <nd ref="1300120740"/>
    <nd ref="1300122464"/>
    <nd ref="1300119720"/>
    <nd ref="1300121064"/>
    <nd ref="1300122807"/>
    <nd ref="1300125068"/>
    <nd ref="1300124125"/>
    <nd ref="1300120061"/>
    <nd ref="1300121380"/>
    <nd ref="1300123381"/>
    <nd ref="1300122521"/>
    <nd ref="1300124725"/>
    <nd ref="1300120353"/>
    <nd ref="1300121801"/>
    <nd ref="1300121121"/>
    <nd ref="1300122909"/>
    <nd ref="1300125162"/>
    <nd ref="1300120797"/>
    <nd ref="1300120119"/>
    <nd ref="1300121465"/>
    <nd ref="1300123560"/>
    <tag k="railway" v="rail"/>
  </way>
  <way id="114874817" version="2" timestamp="2012-03-04T17:09:08Z" uid="17497" user="katpatuka" changeset="10870953"/>
  <way id="114874819" version="1" timestamp="2011-05-25T20:32:08Z" uid="9581" user="Lobelt" changeset="8248465">
    <nd ref="1300122463"/>
    <nd ref="1300124675"/>
    <tag k="bridge" v="yes"/>
    <tag k="layer" v="1"/>
    <tag k="railway" v="rail"/>
  </way>
  <way id="114874819" version="2" timestamp="2012-03-04T17:09:08Z" uid="17497" user="katpatuka" changeset="10870953"/>
  <way id="114874820" version="1" timestamp="2011-05-25T20:32:09Z" uid="9581" user="Lobelt" changeset="8248465">
    <nd ref="430677677"/>
    <nd ref="1300122934"/>
    <tag k="bridge" v="yes"/>
    <tag k="highway" v="motorway"/>
    <tag k="layer" v="1"/>
    <tag k="name" v="丹大高速"/>
    <tag k="name:en" v="Danda Expressway"/>
    <tag k="oneway" v="yes"/>
    <tag k="ref" v="G11"/>
  </way>
  <way id="114874821" version="1" timestamp="2011-05-25T20:32:09Z" uid="9581" user="Lobelt" changeset="8248465">
    <nd ref="1300124923"/>
    <nd ref="1300122680"/>
    <tag k="bridge" v="yes"/>
    <tag k="highway" v="motorway"/>
    <tag k="layer" v="1"/>
    <tag k="oneway" v="yes"/>
    <tag k="ref" v="G11"/>
  </way>
  <way id="114874822" version="1" timestamp="2011-05-25T20:32:09Z" uid="9581" user="Lobelt" changeset="8248465">
    <nd ref="1300124839"/>
    <nd ref="1300122619"/>
    <tag k="bridge" v="yes"/>
    <tag k="highway" v="motorway"/>
    <tag k="layer" v="1"/>
    <tag k="oneway" v="yes"/>
    <tag k="ref" v="G11"/>
  </way>
  <way id="114874823" version="1" timestamp="2011-05-25T20:32:09Z" uid="9581" user="Lobelt" changeset="8248465">
    <nd ref="1300121759"/>
    <nd ref="1300124072"/>
    <tag k="highway" v="motorway"/>
    <tag k="name" v="丹大高速"/>
    <tag k="name:en" v="Danda Expressway"/>
    <tag k="oneway" v="yes"/>
    <tag k="ref" v="G11"/>
  </way>
  <way id="114874824" version="1" timestamp="2011-05-25T20:32:09Z" uid="9581" user="Lobelt" changeset="8248465">
    <nd ref="1300119646"/>
    <nd ref="1300120993"/>
    <tag k="bridge" v="yes"/>
    <tag k="layer" v="1"/>
    <tag k="railway" v="rail"/>
  </way>
  <way id="114874824" version="2" timestamp="2012-03-04T17:09:08Z" uid="17497" user="katpatuka" changeset="10870953"/>
  <way id="114874825" version="1" timestamp="2011-05-25T20:32:09Z" uid="9581" user="Lobelt" changeset="8248465">
    <nd ref="1300122795"/>
    <nd ref="1300121055"/>
    <tag k="bridge" v="yes"/>
    <tag k="highway" v="motorway"/>
    <tag k="layer" v="1"/>
    <tag k="oneway" v="yes"/>
    <tag k="ref" v="G11"/>
  </way>
  <way id="114874826" version="1" timestamp="2011-05-25T20:32:09Z" uid="9581" user="Lobelt" changeset="8248465">
    <nd ref="1300121214"/>
    <nd ref="1300119855"/>
    <nd ref="1300123811"/>
    <nd ref="1300123414"/>
    <nd ref="1300121397"/>
    <tag k="highway" v="motorway"/>
    <tag k="oneway" v="yes"/>
    <tag k="ref" v="G11"/>
  </way>
  <way id="114874827" version="1" timestamp="2011-05-25T20:32:10Z" uid="9581" user="Lobelt" changeset="8248465">
    <nd ref="1300124763"/>
    <nd ref="1300119739"/>
    <nd ref="1300123449"/>
    <nd ref="1300121413"/>
    <nd ref="1300120084"/>
    <nd ref="1300120738"/>
    <nd ref="1300122747"/>
    <nd ref="1300121025"/>
    <tag k="highway" v="motorway"/>
    <tag k="oneway" v="yes"/>
    <tag k="ref" v="G11"/>
  </way>
  <way id="114874828" version="1" timestamp="2011-05-25T20:32:10Z" uid="9581" user="Lobelt" changeset="8248465">
    <nd ref="1300124529"/>
    <nd ref="1300122238"/>
    <tag k="bridge" v="yes"/>
    <tag k="highway" v="motorway"/>
    <tag k="layer" v="1"/>
    <tag k="oneway" v="yes"/>
    <tag k="ref" v="G11"/>
  </way>
  <way id="114874829" version="1" timestamp="2011-05-25T20:32:10Z" uid="9581" user="Lobelt" changeset="8248465">
    <nd ref="1300122965"/>
    <nd ref="1300121151"/>
    <tag k="highway" v="motorway"/>
    <tag k="oneway" v="yes"/>
    <tag k="ref" v="G11"/>
  </way>
  <way id="114874830" version="1" timestamp="2011-05-25T20:32:10Z" uid="9581" user="Lobelt" changeset="8248465">
    <nd ref="1300120882"/>
    <nd ref="1300121677"/>
    <nd ref="1300123971"/>
    <nd ref="1300119960"/>
    <nd ref="1300125050"/>
    <nd ref="1300120698"/>
    <tag k="highway" v="motorway_link"/>
    <tag k="oneway" v="yes"/>
  </way>
  <way id="114874831" version="1" timestamp="2011-05-25T20:32:10Z" uid="9581" user="Lobelt" changeset="8248465">
    <nd ref="1300119696"/>
    <nd ref="430678424"/>
    <nd ref="430678425"/>
    <nd ref="1300123545"/>
    <nd ref="430678509"/>
    <tag k="highway" v="motorway"/>
    <tag k="name" v="丹大高速"/>
    <tag k="name:en" v="Danda Expressway"/>
    <tag k="oneway" v="yes"/>
    <tag k="ref" v="G11"/>
  </way>
  <way id="114874832" version="1" timestamp="2011-05-25T20:32:10Z" uid="9581" user="Lobelt" changeset="8248465">
    <nd ref="1300122617"/>
    <nd ref="1300120457"/>
    <tag k="bridge" v="yes"/>
    <tag k="highway" v="motorway_link"/>
    <tag k="layer" v="1"/>
    <tag k="oneway" v="yes"/>
  </way>
  <way id="114874833" version="1" timestamp="2011-05-25T20:32:10Z" uid="9581" user="Lobelt" changeset="8248465">
    <nd ref="1300121151"/>
    <nd ref="1300121863"/>
    <tag k="bridge" v="yes"/>
    <tag k="highway" v="motorway"/>
    <tag k="layer" v="1"/>
    <tag k="oneway" v="yes"/>
    <tag k="ref" v="G11"/>
  </way>
  <way id="114874834" version="1" timestamp="2011-05-25T20:32:11Z" uid="9581" user="Lobelt" changeset="8248465">
    <nd ref="1300120374"/>
    <nd ref="1300124775"/>
    <tag k="bridge" v="yes"/>
    <tag k="highway" v="motorway"/>
    <tag k="layer" v="1"/>
    <tag k="oneway" v="yes"/>
    <tag k="ref" v="G11"/>
  </way>
  <way id="114874835" version="1" timestamp="2011-05-25T20:32:11Z" uid="9581" user="Lobelt" changeset="8248465">
    <nd ref="1300119767"/>
    <nd ref="1300121111"/>
    <tag k="bridge" v="yes"/>
    <tag k="highway" v="motorway"/>
    <tag k="layer" v="1"/>
    <tag k="name" v="丹大高速"/>
    <tag k="name:en" v="Danda Expressway"/>
    <tag k="oneway" v="yes"/>
    <tag k="ref" v="G11"/>
  </way>
  <way id="114874836" version="1" timestamp="2011-05-25T20:32:11Z" uid="9581" user="Lobelt" changeset="8248465">
    <nd ref="1300124502"/>
    <nd ref="1300120188"/>
    <tag k="bridge" v="yes"/>
    <tag k="layer" v="1"/>
    <tag k="railway" v="rail"/>
  </way>
  <way id="114874836" version="2" timestamp="2012-03-04T17:09:08Z" uid="17497" user="katpatuka" changeset="10870953"/>
  <way id="114874837" version="1" timestamp="2011-05-25T20:32:11Z" uid="9581" user="Lobelt" changeset="8248465">
    <nd ref="1300121218"/>
    <nd ref="1300123099"/>
    <nd ref="1300125316"/>
    <nd ref="1300124565"/>
    <nd ref="1300120548"/>
    <nd ref="1300122208"/>
    <nd ref="1300124507"/>
    <nd ref="1300120190"/>
    <nd ref="1300119609"/>
    <nd ref="1300120975"/>
    <nd ref="1300122678"/>
    <nd ref="1300124918"/>
    <nd ref="1300123919"/>
    <nd ref="1300119902"/>
    <nd ref="1300121262"/>
    <tag k="railway" v="rail"/>
  </way>
  <way id="114874837" version="2" timestamp="2012-03-04T17:09:09Z" uid="17497" user="katpatuka" changeset="10870953"/>
  <way id="114874838" version="1" timestamp="2011-05-25T20:32:11Z" uid="9581" user="Lobelt" changeset="8248465">
    <nd ref="1300120196"/>
    <nd ref="1300119616"/>
    <tag k="bridge" v="yes"/>
    <tag k="highway" v="motorway_link"/>
    <tag k="layer" v="1"/>
    <tag k="oneway" v="yes"/>
  </way>
  <way id="114874839" version="1" timestamp="2011-05-25T20:32:11Z" uid="9581" user="Lobelt" changeset="8248465">
    <nd ref="1300120331"/>
    <nd ref="614306469"/>
    <tag k="bridge" v="yes"/>
    <tag k="highway" v="motorway"/>
    <tag k="layer" v="1"/>
    <tag k="name" v="丹大高速"/>
    <tag k="name:en" v="Danda Expressway"/>
    <tag k="oneway" v="yes"/>
    <tag k="ref" v="G11"/>
  </way>
  <way id="114874840" version="1" timestamp="2011-05-25T20:32:12Z" uid="9581" user="Lobelt" changeset="8248465">
    <nd ref="1300120304"/>
    <nd ref="1300121017"/>
    <tag k="bridge" v="yes"/>
    <tag k="highway" v="motorway"/>
    <tag k="layer" v="1"/>
    <tag k="oneway" v="yes"/>
    <tag k="ref" v="G11"/>
  </way>
  <way id="114874841" version="1" timestamp="2011-05-25T20:32:12Z" uid="9581" user="Lobelt" changeset="8248465">
    <nd ref="1300121738"/>
    <nd ref="1300121097"/>
    <nd ref="430677746"/>
    <nd ref="430677748"/>
    <nd ref="1300122866"/>
    <tag k="highway" v="motorway"/>
    <tag k="name" v="丹大高速"/>
    <tag k="name:en" v="Danda Expressway"/>
    <tag k="oneway" v="yes"/>
    <tag k="ref" v="G11"/>
  </way>
  <way id="114874842" version="1" timestamp="2011-05-25T20:32:12Z" uid="9581" user="Lobelt" changeset="8248465">
    <nd ref="1300122821"/>
    <nd ref="1300121245"/>
    <tag k="bridge" v="yes"/>
    <tag k="highway" v="motorway"/>
    <tag k="layer" v="1"/>
    <tag k="name" v="丹大高速"/>
    <tag k="name:en" v="Danda Expressway"/>
    <tag k="oneway" v="yes"/>
    <tag k="ref" v="G11"/>
  </way>
  <way id="114874843" version="1" timestamp="2011-05-25T20:32:12Z" uid="9581" user="Lobelt" changeset="8248465">
    <nd ref="430677661"/>
    <nd ref="1300121837"/>
    <nd ref="1300120151"/>
    <nd ref="1300124186"/>
    <tag k="highway" v="motorway"/>
    <tag k="name" v="丹大高速"/>
    <tag k="name:en" v="Danda Expressway"/>
    <tag k="oneway" v="yes"/>
    <tag k="ref" v="G11"/>
  </way>
  <way id="114874844" version="1" timestamp="2011-05-25T20:32:12Z" uid="9581" user="Lobelt" changeset="8248465">
    <nd ref="1300123504"/>
    <nd ref="1300121446"/>
    <nd ref="1300120104"/>
    <nd ref="1300124265"/>
    <nd ref="1300125131"/>
    <nd ref="1300122886"/>
    <nd ref="1300121105"/>
    <nd ref="1300119758"/>
    <nd ref="1300122525"/>
    <nd ref="1300120806"/>
    <nd ref="1300125175"/>
    <nd ref="1300122933"/>
    <nd ref="1300124152"/>
    <nd ref="1300121805"/>
    <nd ref="1300122389"/>
    <nd ref="1300120666"/>
    <tag k="highway" v="motorway"/>
    <tag k="oneway" v="yes"/>
    <tag k="ref" v="G11"/>
  </way>
  <way id="114874845" version="1" timestamp="2011-05-25T20:32:12Z" uid="9581" user="Lobelt" changeset="8248465">
    <nd ref="1300122119"/>
    <nd ref="1300120516"/>
    <nd ref="1300124885"/>
    <nd ref="1300119821"/>
    <nd ref="1300123684"/>
    <nd ref="1300121522"/>
    <nd ref="1300120161"/>
    <nd ref="1300120870"/>
    <nd ref="1300125247"/>
    <nd ref="1300120815"/>
    <nd ref="1300125180"/>
    <tag k="highway" v="motorway"/>
    <tag k="oneway" v="yes"/>
    <tag k="ref" v="G11"/>
  </way>
  <way id="114874846" version="1" timestamp="2011-05-25T20:32:13Z" uid="9581" user="Lobelt" changeset="8248465">
    <nd ref="614321405"/>
    <nd ref="1300122782"/>
    <tag k="bridge" v="yes"/>
    <tag k="highway" v="motorway"/>
    <tag k="layer" v="1"/>
    <tag k="name" v="丹大高速"/>
    <tag k="name:en" v="Danda Expressway"/>
    <tag k="oneway" v="yes"/>
    <tag k="ref" v="G11"/>
  </way>
  <way id="114874847" version="1" timestamp="2011-05-25T20:32:13Z" uid="9581" user="Lobelt" changeset="8248465">
    <nd ref="614306967"/>
    <nd ref="1300121222"/>
    <tag k="bridge" v="yes"/>
    <tag k="highway" v="motorway"/>
    <tag k="layer" v="1"/>
    <tag k="name" v="丹大高速"/>
    <tag k="name:en" v="Danda Expressway"/>
    <tag k="oneway" v="yes"/>
    <tag k="ref" v="G11"/>
  </way>
  <way id="114874848" version="1" timestamp="2011-05-25T20:32:13Z" uid="9581" user="Lobelt" changeset="8248465">
    <nd ref="1300121031"/>
    <nd ref="1300119686"/>
    <nd ref="1300123290"/>
    <nd ref="1300122414"/>
    <nd ref="1300120686"/>
    <nd ref="1300121295"/>
    <tag k="highway" v="motorway"/>
    <tag k="oneway" v="yes"/>
    <tag k="ref" v="G11"/>
  </way>
  <way id="114874849" version="1" timestamp="2011-05-25T20:32:13Z" uid="9581" user="Lobelt" changeset="8248465">
    <nd ref="1300123859"/>
    <nd ref="1300119863"/>
    <tag k="bridge" v="yes"/>
    <tag k="highway" v="motorway_link"/>
    <tag k="layer" v="1"/>
  </way>
  <way id="114874850" version="1" timestamp="2011-05-25T20:32:13Z" uid="9581" user="Lobelt" changeset="8248465">
    <nd ref="1300121456"/>
    <nd ref="1300122506"/>
    <tag k="highway" v="motorway"/>
    <tag k="oneway" v="yes"/>
    <tag k="ref" v="G11"/>
  </way>
  <way id="114874851" version="1" timestamp="2011-05-25T20:32:13Z" uid="9581" user="Lobelt" changeset="8248465">
    <nd ref="1300122736"/>
    <nd ref="1300125000"/>
    <tag k="bridge" v="yes"/>
    <tag k="highway" v="motorway"/>
    <tag k="layer" v="1"/>
    <tag k="name" v="丹大高速"/>
    <tag k="name:en" v="Danda Expressway"/>
    <tag k="oneway" v="yes"/>
    <tag k="ref" v="G11"/>
  </way>
  <way id="114874852" version="1" timestamp="2011-05-25T20:32:14Z" uid="9581" user="Lobelt" changeset="8248465">
    <nd ref="614306531"/>
    <nd ref="1300120859"/>
    <tag k="bridge" v="yes"/>
    <tag k="highway" v="motorway"/>
    <tag k="layer" v="1"/>
    <tag k="name" v="丹大高速"/>
    <tag k="name:en" v="Danda Expressway"/>
    <tag k="oneway" v="yes"/>
    <tag k="ref" v="G11"/>
  </way>
  <way id="114874853" version="1" timestamp="2011-05-25T20:32:14Z" uid="9581" user="Lobelt" changeset="8248465">
    <nd ref="1300120279"/>
    <nd ref="430677836"/>
    <nd ref="1300121647"/>
    <nd ref="430677837"/>
    <nd ref="430677833"/>
    <nd ref="614306584"/>
    <nd ref="614321401"/>
    <nd ref="614306596"/>
    <nd ref="1300123947"/>
    <nd ref="614321405"/>
    <tag k="highway" v="motorway"/>
    <tag k="name" v="丹大高速"/>
    <tag k="name:en" v="Danda Expressway"/>
    <tag k="oneway" v="yes"/>
    <tag k="ref" v="G11"/>
  </way>
  <way id="114874854" version="1" timestamp="2011-05-25T20:32:14Z" uid="9581" user="Lobelt" changeset="8248465">
    <nd ref="1300123219"/>
    <nd ref="1300121308"/>
    <tag k="highway" v="motorway"/>
    <tag k="oneway" v="yes"/>
    <tag k="ref" v="G11"/>
  </way>
  <way id="114874855" version="1" timestamp="2011-05-25T20:32:14Z" uid="9581" user="Lobelt" changeset="8248465">
    <nd ref="1300122634"/>
    <nd ref="1300123647"/>
    <tag k="highway" v="motorway"/>
    <tag k="name" v="丹大高速"/>
    <tag k="name:en" v="Danda Expressway"/>
    <tag k="oneway" v="yes"/>
    <tag k="ref" v="G11"/>
  </way>
  <way id="114874856" version="1" timestamp="2011-05-25T20:32:14Z" uid="9581" user="Lobelt" changeset="8248465">
    <nd ref="1300120395"/>
    <nd ref="1300121882"/>
    <nd ref="1300124234"/>
    <nd ref="614306521"/>
    <nd ref="1300122983"/>
    <nd ref="614306528"/>
    <nd ref="1300125239"/>
    <nd ref="614306531"/>
    <tag k="highway" v="motorway"/>
    <tag k="name" v="丹大高速"/>
    <tag k="name:en" v="Danda Expressway"/>
    <tag k="oneway" v="yes"/>
    <tag k="ref" v="G11"/>
  </way>
  <way id="114874857" version="1" timestamp="2011-05-25T20:32:15Z" uid="9581" user="Lobelt" changeset="8248465">
    <nd ref="1300120867"/>
    <nd ref="1300125244"/>
    <tag k="bridge" v="yes"/>
    <tag k="highway" v="motorway"/>
    <tag k="layer" v="1"/>
    <tag k="oneway" v="yes"/>
    <tag k="ref" v="G11"/>
  </way>
  <way id="114874858" version="1" timestamp="2011-05-25T20:32:15Z" uid="9581" user="Lobelt" changeset="8248465">
    <nd ref="1300123199"/>
    <nd ref="1300121300"/>
    <tag k="highway" v="motorway"/>
    <tag k="oneway" v="yes"/>
    <tag k="ref" v="G11"/>
  </way>
  <way id="114874859" version="1" timestamp="2011-05-25T20:32:15Z" uid="9581" user="Lobelt" changeset="8248465">
    <nd ref="1300124965"/>
    <nd ref="1300122709"/>
    <nd ref="1300120999"/>
    <nd ref="1300121579"/>
    <nd ref="1300120225"/>
    <nd ref="1300124573"/>
    <nd ref="1300119791"/>
    <nd ref="1300123607"/>
    <tag k="highway" v="motorway"/>
    <tag k="oneway" v="yes"/>
    <tag k="ref" v="G11"/>
  </way>
  <way id="114874860" version="1" timestamp="2011-05-25T20:32:15Z" uid="9581" user="Lobelt" changeset="8248465">
    <nd ref="1300123835"/>
    <nd ref="1300124857"/>
    <tag k="bridge" v="yes"/>
    <tag k="highway" v="motorway"/>
    <tag k="layer" v="1"/>
    <tag k="oneway" v="yes"/>
    <tag k="ref" v="G11"/>
  </way>
  <way id="114874861" version="1" timestamp="2011-05-25T20:32:15Z" uid="9581" user="Lobelt" changeset="8248465">
    <nd ref="1300121751"/>
    <nd ref="1300120338"/>
    <tag k="bridge" v="yes"/>
    <tag k="highway" v="motorway"/>
    <tag k="layer" v="1"/>
    <tag k="oneway" v="yes"/>
    <tag k="ref" v="G11"/>
  </way>
  <way id="114874862" version="1" timestamp="2011-05-25T20:32:16Z" uid="9581" user="Lobelt" changeset="8248465">
    <nd ref="1300120825"/>
    <nd ref="1300125195"/>
    <tag k="highway" v="motorway"/>
    <tag k="oneway" v="yes"/>
    <tag k="ref" v="G11"/>
  </way>
  <way id="114874863" version="1" timestamp="2011-05-25T20:32:16Z" uid="9581" user="Lobelt" changeset="8248465">
    <nd ref="1300121113"/>
    <nd ref="1300122895"/>
    <tag k="bridge" v="yes"/>
    <tag k="highway" v="motorway_link"/>
    <tag k="layer" v="1"/>
    <tag k="oneway" v="yes"/>
  </way>
  <way id="114874864" version="1" timestamp="2011-05-25T20:32:16Z" uid="9581" user="Lobelt" changeset="8248465">
    <nd ref="1300119710"/>
    <nd ref="614306418"/>
    <tag k="highway" v="motorway"/>
    <tag k="name" v="丹大高速"/>
    <tag k="name:en" v="Danda Expressway"/>
    <tag k="oneway" v="yes"/>
    <tag k="ref" v="G11"/>
  </way>
  <way id="114874865" version="1" timestamp="2011-05-25T20:32:16Z" uid="9581" user="Lobelt" changeset="8248465">
    <nd ref="1300125024"/>
    <nd ref="1300122764"/>
    <nd ref="1300121037"/>
    <nd ref="1300120899"/>
    <nd ref="1300125295"/>
    <nd ref="1300123070"/>
    <nd ref="1300121199"/>
    <nd ref="1300121982"/>
    <nd ref="1300120453"/>
    <nd ref="1300124833"/>
    <nd ref="1300120075"/>
    <nd ref="1300124154"/>
    <tag k="highway" v="motorway"/>
    <tag k="oneway" v="yes"/>
    <tag k="ref" v="G11"/>
  </way>
  <way id="114874866" version="1" timestamp="2011-05-25T20:32:16Z" uid="9581" user="Lobelt" changeset="8248465">
    <nd ref="1300122467"/>
    <nd ref="430677716"/>
    <tag k="bridge" v="yes"/>
    <tag k="highway" v="motorway"/>
    <tag k="layer" v="1"/>
    <tag k="name" v="丹大高速"/>
    <tag k="name:en" v="Danda Expressway"/>
    <tag k="oneway" v="yes"/>
    <tag k="ref" v="G11"/>
  </way>
  <way id="114874867" version="1" timestamp="2011-05-25T20:32:16Z" uid="9581" user="Lobelt" changeset="8248465">
    <nd ref="430677644"/>
    <nd ref="1300120479"/>
    <nd ref="1300122027"/>
    <nd ref="1300121215"/>
    <nd ref="1300123095"/>
    <nd ref="1300125314"/>
    <nd ref="1300122462"/>
    <tag k="highway" v="motorway_link"/>
    <tag k="oneway" v="yes"/>
  </way>
  <way id="114874868" version="1" timestamp="2011-05-25T20:32:16Z" uid="9581" user="Lobelt" changeset="8248465">
    <nd ref="1300124159"/>
    <nd ref="1300121815"/>
    <tag k="bridge" v="yes"/>
    <tag k="highway" v="motorway"/>
    <tag k="layer" v="1"/>
    <tag k="oneway" v="yes"/>
    <tag k="ref" v="G11"/>
  </way>
  <way id="114874869" version="1" timestamp="2011-05-25T20:32:17Z" uid="9581" user="Lobelt" changeset="8248465">
    <nd ref="1300124765"/>
    <nd ref="1300123618"/>
    <nd ref="1300119796"/>
    <nd ref="1300121149"/>
    <nd ref="1300122958"/>
    <nd ref="1300122020"/>
    <nd ref="1300124353"/>
    <nd ref="1300120139"/>
    <nd ref="1300121497"/>
    <nd ref="1300120220"/>
    <tag k="highway" v="motorway_link"/>
    <tag k="oneway" v="yes"/>
  </way>
  <way id="114874870" version="1" timestamp="2011-05-25T20:32:17Z" uid="9581" user="Lobelt" changeset="8248465">
    <nd ref="1300122588"/>
    <nd ref="1300124804"/>
    <tag k="bridge" v="yes"/>
    <tag k="highway" v="motorway"/>
    <tag k="layer" v="1"/>
    <tag k="name" v="丹大高速"/>
    <tag k="name:en" v="Danda Expressway"/>
    <tag k="oneway" v="yes"/>
    <tag k="ref" v="G11"/>
  </way>
  <way id="114874871" version="1" timestamp="2011-05-25T20:32:17Z" uid="9581" user="Lobelt" changeset="8248465">
    <nd ref="614307144"/>
    <nd ref="1300119859"/>
    <nd ref="614307155"/>
    <nd ref="614307163"/>
    <nd ref="614307167"/>
    <nd ref="614307174"/>
    <nd ref="614307181"/>
    <nd ref="614307208"/>
    <nd ref="614307223"/>
    <nd ref="1300124951"/>
    <nd ref="614307228"/>
    <nd ref="614307232"/>
    <nd ref="614307237"/>
    <nd ref="614307243"/>
    <nd ref="1300120588"/>
    <nd ref="614307253"/>
    <nd ref="1300122301"/>
    <nd ref="614307257"/>
    <tag k="highway" v="motorway"/>
    <tag k="name" v="丹大高速"/>
    <tag k="name:en" v="Danda Expressway"/>
    <tag k="oneway" v="yes"/>
    <tag k="ref" v="G11"/>
  </way>
  <way id="114874872" version="1" timestamp="2011-05-25T20:32:17Z" uid="9581" user="Lobelt" changeset="8248465">
    <nd ref="1300121860"/>
    <nd ref="1300124192"/>
    <nd ref="1300120087"/>
    <nd ref="1300121416"/>
    <nd ref="1300120839"/>
    <nd ref="1300122546"/>
    <nd ref="1300124767"/>
    <nd ref="1300120373"/>
    <tag k="highway" v="motorway_link"/>
    <tag k="oneway" v="yes"/>
  </way>
  <way id="114874873" version="1" timestamp="2011-05-25T20:32:18Z" uid="9581" user="Lobelt" changeset="8248465">
    <nd ref="1300125124"/>
    <nd ref="1300120760"/>
    <tag k="bridge" v="yes"/>
    <tag k="highway" v="motorway"/>
    <tag k="layer" v="1"/>
    <tag k="name" v="丹大高速"/>
    <tag k="name:en" v="Danda Expressway"/>
    <tag k="oneway" v="yes"/>
    <tag k="ref" v="G11"/>
  </way>
  <way id="114874874" version="1" timestamp="2011-05-25T20:32:18Z" uid="9581" user="Lobelt" changeset="8248465">
    <nd ref="1300124009"/>
    <nd ref="614306559"/>
    <nd ref="1300121282"/>
    <nd ref="614306574"/>
    <nd ref="1300123170"/>
    <nd ref="614306577"/>
    <nd ref="614306582"/>
    <nd ref="1300119636"/>
    <tag k="highway" v="motorway"/>
    <tag k="name" v="丹大高速"/>
    <tag k="name:en" v="Danda Expressway"/>
    <tag k="oneway" v="yes"/>
    <tag k="ref" v="G11"/>
  </way>
  <way id="114874875" version="1" timestamp="2011-05-25T20:32:18Z" uid="9581" user="Lobelt" changeset="8248465">
    <nd ref="1300124983"/>
    <nd ref="1300119618"/>
    <nd ref="1300124626"/>
    <nd ref="1300120266"/>
    <nd ref="1300121629"/>
    <nd ref="1300123922"/>
    <nd ref="1300122761"/>
    <nd ref="1300125022"/>
    <nd ref="1300120661"/>
    <nd ref="1300122386"/>
    <nd ref="1300121345"/>
    <nd ref="1300123298"/>
    <nd ref="1300119694"/>
    <nd ref="1300120265"/>
    <tag k="highway" v="motorway_link"/>
    <tag k="oneway" v="yes"/>
  </way>
  <way id="114874876" version="1" timestamp="2011-05-25T20:32:18Z" uid="9581" user="Lobelt" changeset="8248465">
    <nd ref="1300123134"/>
    <nd ref="1300124527"/>
    <nd ref="1300120201"/>
    <nd ref="1300119625"/>
    <nd ref="1300120985"/>
    <nd ref="1300122682"/>
    <nd ref="1300124926"/>
    <nd ref="1300123925"/>
    <nd ref="1300119906"/>
    <nd ref="1300121241"/>
    <nd ref="1300122334"/>
    <nd ref="1300121312"/>
    <nd ref="1300123221"/>
    <nd ref="1300119662"/>
    <nd ref="1300121010"/>
    <nd ref="1300123944"/>
    <nd ref="1300119930"/>
    <nd ref="1300121281"/>
    <nd ref="1300123169"/>
    <nd ref="1300122405"/>
    <nd ref="1300124633"/>
    <nd ref="1300120278"/>
    <nd ref="1300121645"/>
    <nd ref="1300121042"/>
    <nd ref="1300122773"/>
    <nd ref="1300125031"/>
    <nd ref="1300120674"/>
    <nd ref="1300120029"/>
    <nd ref="1300121357"/>
    <nd ref="1300123348"/>
    <nd ref="1300119708"/>
    <nd ref="1300124704"/>
    <nd ref="1300120335"/>
    <nd ref="1300121749"/>
    <nd ref="1300124066"/>
    <nd ref="1300122871"/>
    <tag k="waterway" v="river"/>
  </way>
  <way id="114874877" version="1" timestamp="2011-05-25T20:32:19Z" uid="9581" user="Lobelt" changeset="8248465">
    <nd ref="430677716"/>
    <nd ref="1300124682"/>
    <tag k="highway" v="motorway"/>
    <tag k="name" v="丹大高速"/>
    <tag k="name:en" v="Danda Expressway"/>
    <tag k="oneway" v="yes"/>
    <tag k="ref" v="G11"/>
  </way>
  <way id="114874878" version="1" timestamp="2011-05-25T20:32:19Z" uid="9581" user="Lobelt" changeset="8248465">
    <nd ref="614307388"/>
    <nd ref="1300120837"/>
    <tag k="bridge" v="yes"/>
    <tag k="highway" v="motorway"/>
    <tag k="layer" v="1"/>
    <tag k="name" v="丹大高速"/>
    <tag k="name:en" v="Danda Expressway"/>
    <tag k="oneway" v="yes"/>
    <tag k="ref" v="G11"/>
  </way>
  <way id="114874879" version="1" timestamp="2011-05-25T20:32:19Z" uid="9581" user="Lobelt" changeset="8248465">
    <nd ref="1300119752"/>
    <nd ref="1300124782"/>
    <tag k="bridge" v="yes"/>
    <tag k="highway" v="motorway"/>
    <tag k="layer" v="1"/>
    <tag k="name" v="丹大高速"/>
    <tag k="name:en" v="Danda Expressway"/>
    <tag k="oneway" v="yes"/>
    <tag k="ref" v="G11"/>
  </way>
  <way id="114874880" version="1" timestamp="2011-05-25T20:32:19Z" uid="9581" user="Lobelt" changeset="8248465">
    <nd ref="1300121245"/>
    <nd ref="1300122134"/>
    <tag k="highway" v="motorway"/>
    <tag k="name" v="丹大高速"/>
    <tag k="name:en" v="Danda Expressway"/>
    <tag k="oneway" v="yes"/>
    <tag k="ref" v="G11"/>
  </way>
  <way id="114874881" version="1" timestamp="2011-05-25T20:32:19Z" uid="9581" user="Lobelt" changeset="8248465">
    <nd ref="1300119736"/>
    <nd ref="1300120341"/>
    <nd ref="1300121757"/>
    <nd ref="1300121109"/>
    <nd ref="1300122891"/>
    <nd ref="1300125145"/>
    <nd ref="1300120777"/>
    <nd ref="1300120110"/>
    <nd ref="1300121450"/>
    <nd ref="1300123522"/>
    <nd ref="1300119762"/>
    <nd ref="1300121947"/>
    <tag k="highway" v="motorway_link"/>
    <tag k="oneway" v="yes"/>
  </way>
  <way id="114874882" version="1" timestamp="2011-05-25T20:32:20Z" uid="9581" user="Lobelt" changeset="8248465">
    <nd ref="1300121422"/>
    <nd ref="1300120088"/>
    <tag k="bridge" v="yes"/>
    <tag k="highway" v="motorway"/>
    <tag k="layer" v="1"/>
    <tag k="oneway" v="yes"/>
    <tag k="ref" v="G11"/>
  </way>
  <way id="114874883" version="1" timestamp="2011-05-25T20:32:20Z" uid="9581" user="Lobelt" changeset="8248465">
    <nd ref="1300121573"/>
    <nd ref="1300123859"/>
    <tag k="highway" v="motorway_link"/>
  </way>
  <way id="114874884" version="1" timestamp="2011-05-25T20:32:20Z" uid="9581" user="Lobelt" changeset="8248465">
    <nd ref="430677719"/>
    <nd ref="1300120505"/>
    <nd ref="1300119878"/>
    <nd ref="1300121231"/>
    <nd ref="1300123116"/>
    <nd ref="1300125328"/>
    <nd ref="1300124587"/>
    <nd ref="1300120241"/>
    <nd ref="1300121586"/>
    <tag k="highway" v="motorway_link"/>
    <tag k="oneway" v="yes"/>
  </way>
  <way id="114874885" version="1" timestamp="2011-05-25T20:32:20Z" uid="9581" user="Lobelt" changeset="8248465">
    <nd ref="1300125053"/>
    <nd ref="1300122805"/>
    <tag k="bridge" v="yes"/>
    <tag k="highway" v="motorway"/>
    <tag k="layer" v="1"/>
    <tag k="oneway" v="yes"/>
    <tag k="ref" v="G11"/>
  </way>
  <way id="114874886" version="1" timestamp="2011-05-25T20:32:20Z" uid="9581" user="Lobelt" changeset="8248465">
    <nd ref="1300125147"/>
    <nd ref="1300122892"/>
    <tag k="bridge" v="yes"/>
    <tag k="highway" v="motorway"/>
    <tag k="layer" v="1"/>
    <tag k="oneway" v="yes"/>
    <tag k="ref" v="G11"/>
  </way>
  <way id="114874887" version="1" timestamp="2011-05-25T20:32:20Z" uid="9581" user="Lobelt" changeset="8248465">
    <nd ref="430677751"/>
    <nd ref="430677753"/>
    <nd ref="614306375"/>
    <nd ref="614306377"/>
    <nd ref="614306379"/>
    <nd ref="614306385"/>
    <nd ref="614321353"/>
    <nd ref="614321357"/>
    <tag k="highway" v="motorway"/>
    <tag k="name" v="丹大高速"/>
    <tag k="name:en" v="Danda Expressway"/>
    <tag k="oneway" v="yes"/>
    <tag k="ref" v="G11"/>
  </way>
  <way id="114874888" version="1" timestamp="2011-05-25T20:32:21Z" uid="9581" user="Lobelt" changeset="8248465">
    <nd ref="1300121394"/>
    <nd ref="1300120076"/>
    <tag k="bridge" v="yes"/>
    <tag k="highway" v="motorway"/>
    <tag k="layer" v="1"/>
    <tag k="oneway" v="yes"/>
    <tag k="ref" v="G11"/>
  </way>
  <way id="114874889" version="1" timestamp="2011-05-25T20:32:21Z" uid="9581" user="Lobelt" changeset="8248465">
    <nd ref="1300121898"/>
    <nd ref="1300122929"/>
    <nd ref="1300125167"/>
    <nd ref="1300123497"/>
    <tag k="waterway" v="river"/>
  </way>
  <way id="114874890" version="1" timestamp="2011-05-25T20:32:21Z" uid="9581" user="Lobelt" changeset="8248465">
    <nd ref="1300121782"/>
    <nd ref="614321316"/>
    <tag k="bridge" v="yes"/>
    <tag k="highway" v="motorway"/>
    <tag k="layer" v="1"/>
    <tag k="name" v="丹大高速"/>
    <tag k="name:en" v="Danda Expressway"/>
    <tag k="oneway" v="yes"/>
    <tag k="ref" v="G11"/>
  </way>
  <way id="114874891" version="1" timestamp="2011-05-25T20:32:21Z" uid="9581" user="Lobelt" changeset="8248465">
    <nd ref="1300120519"/>
    <nd ref="1300121174"/>
    <nd ref="1300119823"/>
    <nd ref="1300123686"/>
    <nd ref="1300121524"/>
    <nd ref="1300122980"/>
    <nd ref="1300124228"/>
    <tag k="highway" v="motorway"/>
    <tag k="oneway" v="yes"/>
    <tag k="ref" v="G11"/>
  </way>
  <way id="114874892" version="1" timestamp="2011-05-25T20:32:22Z" uid="9581" user="Lobelt" changeset="8248465">
    <nd ref="1300121669"/>
    <nd ref="1300120293"/>
    <tag k="bridge" v="yes"/>
    <tag k="highway" v="motorway"/>
    <tag k="layer" v="1"/>
    <tag k="oneway" v="yes"/>
    <tag k="ref" v="G11"/>
  </way>
  <way id="114874893" version="1" timestamp="2011-05-25T20:32:22Z" uid="9581" user="Lobelt" changeset="8248465">
    <nd ref="614306627"/>
    <nd ref="1300119651"/>
    <nd ref="1300119772"/>
    <nd ref="1300121117"/>
    <nd ref="1300122902"/>
    <nd ref="1300125154"/>
    <nd ref="1300124277"/>
    <nd ref="1300120116"/>
    <nd ref="1300121460"/>
    <nd ref="1300123530"/>
    <nd ref="1300122596"/>
    <nd ref="1300124818"/>
    <nd ref="1300120431"/>
    <nd ref="1300121946"/>
    <tag k="highway" v="motorway_link"/>
    <tag k="oneway" v="yes"/>
  </way>
  <way id="114874894" version="1" timestamp="2011-05-25T20:32:22Z" uid="9581" user="Lobelt" changeset="8248465">
    <nd ref="1300120753"/>
    <nd ref="1300120091"/>
    <nd ref="1300121428"/>
    <nd ref="1300121000"/>
    <tag k="highway" v="motorway_link"/>
  </way>
  <way id="114874895" version="1" timestamp="2011-05-25T20:32:22Z" uid="9581" user="Lobelt" changeset="8248465">
    <nd ref="1300125311"/>
    <nd ref="1300120923"/>
    <tag k="bridge" v="yes"/>
    <tag k="highway" v="motorway"/>
    <tag k="layer" v="1"/>
    <tag k="name" v="丹大高速"/>
    <tag k="name:en" v="Danda Expressway"/>
    <tag k="oneway" v="yes"/>
    <tag k="ref" v="G11"/>
  </way>
  <way id="114874896" version="1" timestamp="2011-05-25T20:32:22Z" uid="9581" user="Lobelt" changeset="8248465">
    <nd ref="614306502"/>
    <nd ref="1300120395"/>
    <tag k="bridge" v="yes"/>
    <tag k="highway" v="motorway"/>
    <tag k="layer" v="1"/>
    <tag k="name" v="丹大高速"/>
    <tag k="name:en" v="Danda Expressway"/>
    <tag k="oneway" v="yes"/>
    <tag k="ref" v="G11"/>
  </way>
  <way id="114874897" version="1" timestamp="2011-05-25T20:32:22Z" uid="9581" user="Lobelt" changeset="8248465">
    <nd ref="1300121055"/>
    <nd ref="1300121669"/>
    <tag k="highway" v="motorway"/>
    <tag k="oneway" v="yes"/>
    <tag k="ref" v="G11"/>
  </way>
  <way id="114874898" version="1" timestamp="2011-05-25T20:32:23Z" uid="9581" user="Lobelt" changeset="8248465">
    <nd ref="430677674"/>
    <nd ref="1300122350"/>
    <nd ref="1300124598"/>
    <nd ref="1300120251"/>
    <nd ref="1300119670"/>
    <tag k="highway" v="motorway"/>
    <tag k="name" v="丹大高速"/>
    <tag k="name:en" v="Danda Expressway"/>
    <tag k="oneway" v="yes"/>
    <tag k="ref" v="G11"/>
  </way>
  <way id="114874899" version="1" timestamp="2011-05-25T20:32:23Z" uid="9581" user="Lobelt" changeset="8248465">
    <nd ref="1300121123"/>
    <nd ref="1300123653"/>
    <tag k="bridge" v="yes"/>
    <tag k="highway" v="motorway_link"/>
    <tag k="layer" v="1"/>
    <tag k="source" v="gps"/>
  </way>
  <way id="114874900" version="1" timestamp="2011-05-25T20:32:23Z" uid="9581" user="Lobelt" changeset="8248465">
    <nd ref="614306414"/>
    <nd ref="1300119710"/>
    <tag k="bridge" v="yes"/>
    <tag k="highway" v="motorway"/>
    <tag k="layer" v="1"/>
    <tag k="name" v="丹大高速"/>
    <tag k="name:en" v="Danda Expressway"/>
    <tag k="oneway" v="yes"/>
    <tag k="ref" v="G11"/>
  </way>
  <way id="114874901" version="1" timestamp="2011-05-25T20:32:23Z" uid="9581" user="Lobelt" changeset="8248465">
    <nd ref="1300120063"/>
    <nd ref="1300120706"/>
    <tag k="bridge" v="yes"/>
    <tag k="highway" v="motorway"/>
    <tag k="layer" v="1"/>
    <tag k="oneway" v="yes"/>
    <tag k="ref" v="G11"/>
  </way>
  <way id="114874902" version="1" timestamp="2011-05-25T20:32:23Z" uid="9581" user="Lobelt" changeset="8248465">
    <nd ref="1300124675"/>
    <nd ref="1300120311"/>
    <nd ref="1300124076"/>
    <nd ref="1300120036"/>
    <nd ref="1300121363"/>
    <nd ref="1300120782"/>
    <nd ref="1300122508"/>
    <nd ref="1300124715"/>
    <nd ref="1300120344"/>
    <nd ref="1300119769"/>
    <nd ref="1300121110"/>
    <nd ref="1300122894"/>
    <nd ref="1300125149"/>
    <nd ref="1300121426"/>
    <nd ref="1300123465"/>
    <nd ref="1300119748"/>
    <tag k="railway" v="rail"/>
  </way>
  <way id="114874902" version="2" timestamp="2012-03-04T17:09:10Z" uid="17497" user="katpatuka" changeset="10870953"/>
  <way id="114874903" version="1" timestamp="2011-05-25T20:32:24Z" uid="9581" user="Lobelt" changeset="8248465">
    <nd ref="1300122895"/>
    <nd ref="1300125151"/>
    <tag k="highway" v="motorway_link"/>
    <tag k="oneway" v="yes"/>
  </way>
  <way id="114874904" version="1" timestamp="2011-05-25T20:32:24Z" uid="9581" user="Lobelt" changeset="8248465">
    <nd ref="1300122440"/>
    <nd ref="1300124648"/>
    <tag k="bridge" v="yes"/>
    <tag k="layer" v="1"/>
    <tag k="railway" v="rail"/>
  </way>
  <way id="114874904" version="2" timestamp="2012-03-04T17:09:10Z" uid="17497" user="katpatuka" changeset="10870953"/>
  <way id="114874905" version="1" timestamp="2011-05-25T20:32:24Z" uid="9581" user="Lobelt" changeset="8248465">
    <nd ref="614318685"/>
    <nd ref="614318689"/>
    <nd ref="614318697"/>
    <nd ref="614318710"/>
    <nd ref="614318715"/>
    <nd ref="614318720"/>
    <nd ref="614318737"/>
    <nd ref="614318739"/>
    <nd ref="614318744"/>
    <nd ref="614318747"/>
    <nd ref="614318748"/>
    <nd ref="614318753"/>
    <nd ref="614318756"/>
    <nd ref="614318759"/>
    <nd ref="614318764"/>
    <nd ref="614318766"/>
    <nd ref="614318770"/>
    <nd ref="614318774"/>
    <nd ref="614318775"/>
    <nd ref="614318778"/>
    <nd ref="614318783"/>
    <tag k="highway" v="secondary"/>
    <tag k="source" v="gps"/>
  </way>
  <way id="114874906" version="1" timestamp="2011-05-25T20:32:24Z" uid="9581" user="Lobelt" changeset="8248465">
    <nd ref="1300121295"/>
    <nd ref="1300119945"/>
    <nd ref="1300123960"/>
    <tag k="bridge" v="yes"/>
    <tag k="highway" v="motorway"/>
    <tag k="layer" v="1"/>
    <tag k="oneway" v="yes"/>
    <tag k="ref" v="G11"/>
  </way>
  <way id="114874907" version="1" timestamp="2011-05-25T20:32:24Z" uid="9581" user="Lobelt" changeset="8248465">
    <nd ref="1300124123"/>
    <nd ref="1300121800"/>
    <tag k="bridge" v="yes"/>
    <tag k="highway" v="motorway"/>
    <tag k="layer" v="1"/>
    <tag k="name" v="丹大高速"/>
    <tag k="name:en" v="Danda Expressway"/>
    <tag k="oneway" v="yes"/>
    <tag k="ref" v="G11"/>
  </way>
  <way id="114874908" version="1" timestamp="2011-05-25T20:32:25Z" uid="9581" user="Lobelt" changeset="8248465">
    <nd ref="1300122246"/>
    <nd ref="1300124698"/>
    <tag k="highway" v="motorway"/>
    <tag k="name" v="丹大高速"/>
    <tag k="name:en" v="Danda Expressway"/>
    <tag k="oneway" v="yes"/>
    <tag k="ref" v="G11"/>
  </way>
  <way id="114874909" version="1" timestamp="2011-05-25T20:32:25Z" uid="9581" user="Lobelt" changeset="8248465">
    <nd ref="1300121809"/>
    <nd ref="1300121133"/>
    <tag k="bridge" v="yes"/>
    <tag k="highway" v="motorway"/>
    <tag k="layer" v="1"/>
    <tag k="name" v="丹大高速"/>
    <tag k="name:en" v="Danda Expressway"/>
    <tag k="oneway" v="yes"/>
    <tag k="ref" v="G11"/>
  </way>
  <way id="114874910" version="1" timestamp="2011-05-25T20:32:25Z" uid="9581" user="Lobelt" changeset="8248465">
    <nd ref="1300125318"/>
    <nd ref="1300123108"/>
    <nd ref="1300124389"/>
    <tag k="highway" v="motorway"/>
    <tag k="oneway" v="yes"/>
    <tag k="ref" v="G11"/>
  </way>
  <way id="114874911" version="1" timestamp="2011-05-25T20:32:25Z" uid="9581" user="Lobelt" changeset="8248465">
    <nd ref="1300123607"/>
    <nd ref="1300121490"/>
    <tag k="bridge" v="yes"/>
    <tag k="highway" v="motorway"/>
    <tag k="layer" v="1"/>
    <tag k="oneway" v="yes"/>
    <tag k="ref" v="G11"/>
  </way>
  <way id="114874912" version="1" timestamp="2011-05-25T20:32:25Z" uid="9581" user="Lobelt" changeset="8248465">
    <nd ref="1300121202"/>
    <nd ref="1300119832"/>
    <nd ref="1300123752"/>
    <tag k="highway" v="motorway"/>
    <tag k="oneway" v="yes"/>
    <tag k="ref" v="G11"/>
  </way>
  <way id="114874913" version="1" timestamp="2011-05-25T20:32:25Z" uid="9581" user="Lobelt" changeset="8248465">
    <nd ref="1300124364"/>
    <nd ref="614322395"/>
    <nd ref="614322452"/>
    <nd ref="614307553"/>
    <nd ref="614307559"/>
    <tag k="highway" v="motorway"/>
    <tag k="name" v="丹大高速"/>
    <tag k="name:en" v="Danda Expressway"/>
    <tag k="oneway" v="yes"/>
    <tag k="ref" v="G11"/>
  </way>
  <way id="114874914" version="1" timestamp="2011-05-25T20:32:26Z" uid="9581" user="Lobelt" changeset="8248465">
    <nd ref="1300123704"/>
    <nd ref="1300124836"/>
    <nd ref="1300120460"/>
    <nd ref="1300119845"/>
    <nd ref="1300121203"/>
    <nd ref="1300123079"/>
    <tag k="waterway" v="river"/>
  </way>
  <way id="114874914" version="2" timestamp="2012-03-05T14:12:28Z" uid="17497" user="katpatuka" changeset="10879847"/>
  <way id="114874915" version="1" timestamp="2011-05-25T20:32:26Z" uid="9581" user="Lobelt" changeset="8248465">
    <nd ref="1300123760"/>
    <nd ref="1300119835"/>
    <nd ref="1300121194"/>
    <nd ref="1300123060"/>
    <nd ref="1300122203"/>
    <nd ref="1300124491"/>
    <nd ref="1300120185"/>
    <nd ref="1300121550"/>
    <nd ref="1300120972"/>
    <nd ref="1300120651"/>
    <tag k="highway" v="motorway_link"/>
    <tag k="oneway" v="yes"/>
  </way>
  <way id="114874916" version="1" timestamp="2011-05-25T20:32:26Z" uid="9581" user="Lobelt" changeset="8248465">
    <nd ref="614321366"/>
    <nd ref="1300120758"/>
    <tag k="bridge" v="yes"/>
    <tag k="highway" v="motorway"/>
    <tag k="layer" v="1"/>
    <tag k="name" v="丹大高速"/>
    <tag k="name:en" v="Danda Expressway"/>
    <tag k="oneway" v="yes"/>
    <tag k="ref" v="G11"/>
  </way>
  <way id="114874917" version="1" timestamp="2011-05-25T20:32:26Z" uid="9581" user="Lobelt" changeset="8248465">
    <nd ref="1300122938"/>
    <nd ref="1300125184"/>
    <tag k="bridge" v="yes"/>
    <tag k="layer" v="1"/>
    <tag k="railway" v="rail"/>
  </way>
  <way id="114874917" version="2" timestamp="2012-03-04T17:09:10Z" uid="17497" user="katpatuka" changeset="10870953"/>
  <way id="114874918" version="1" timestamp="2011-05-25T20:32:26Z" uid="9581" user="Lobelt" changeset="8248465">
    <nd ref="1300125156"/>
    <nd ref="1300120057"/>
    <nd ref="1300124118"/>
    <nd ref="1300121785"/>
    <nd ref="1300125046"/>
    <nd ref="1300122795"/>
    <tag k="highway" v="motorway"/>
    <tag k="oneway" v="yes"/>
    <tag k="ref" v="G11"/>
  </way>
  <way id="114874919" version="1" timestamp="2011-05-25T20:32:26Z" uid="9581" user="Lobelt" changeset="8248465">
    <nd ref="1300122066"/>
    <nd ref="1300120492"/>
    <nd ref="1300124871"/>
    <nd ref="1300119808"/>
    <nd ref="1300123650"/>
    <nd ref="1300121511"/>
    <nd ref="1300121463"/>
    <nd ref="1300122513"/>
    <tag k="highway" v="motorway"/>
    <tag k="oneway" v="yes"/>
    <tag k="ref" v="G11"/>
  </way>
  <way id="114874920" version="1" timestamp="2011-05-25T20:32:27Z" uid="9581" user="Lobelt" changeset="8248465">
    <nd ref="430677741"/>
    <nd ref="1300124696"/>
    <tag k="bridge" v="yes"/>
    <tag k="highway" v="motorway"/>
    <tag k="layer" v="1"/>
    <tag k="name" v="丹大高速"/>
    <tag k="name:en" v="Danda Expressway"/>
    <tag k="oneway" v="yes"/>
    <tag k="ref" v="G11"/>
  </way>
  <way id="114874921" version="1" timestamp="2011-05-25T20:32:27Z" uid="9581" user="Lobelt" changeset="8248465">
    <nd ref="1300124074"/>
    <nd ref="1300121762"/>
    <tag k="bridge" v="yes"/>
    <tag k="highway" v="motorway"/>
    <tag k="layer" v="1"/>
    <tag k="oneway" v="yes"/>
    <tag k="ref" v="G11"/>
  </way>
  <way id="114874922" version="1" timestamp="2011-05-25T20:32:27Z" uid="9581" user="Lobelt" changeset="8248465">
    <nd ref="1300124069"/>
    <nd ref="430677865"/>
    <tag k="bridge" v="yes"/>
    <tag k="highway" v="motorway"/>
    <tag k="layer" v="1"/>
    <tag k="name" v="丹大高速"/>
    <tag k="name:en" v="Danda Expressway"/>
    <tag k="oneway" v="yes"/>
    <tag k="ref" v="G11"/>
  </way>
  <way id="114874923" version="1" timestamp="2011-05-25T20:32:27Z" uid="9581" user="Lobelt" changeset="8248465">
    <nd ref="1300120657"/>
    <nd ref="1300123964"/>
    <tag k="highway" v="motorway"/>
    <tag k="oneway" v="yes"/>
    <tag k="ref" v="G11"/>
  </way>
  <way id="114874924" version="1" timestamp="2011-05-25T20:32:27Z" uid="9581" user="Lobelt" changeset="8248465">
    <nd ref="1300121204"/>
    <nd ref="1300123086"/>
    <tag k="bridge" v="yes"/>
    <tag k="highway" v="motorway_link"/>
    <tag k="layer" v="1"/>
    <tag k="oneway" v="yes"/>
  </way>
  <way id="114874925" version="1" timestamp="2011-05-25T20:32:27Z" uid="9581" user="Lobelt" changeset="8248465">
    <nd ref="1300123953"/>
    <nd ref="1300119940"/>
    <tag k="bridge" v="yes"/>
    <tag k="highway" v="motorway"/>
    <tag k="layer" v="1"/>
    <tag k="name" v="丹大高速"/>
    <tag k="name:en" v="Danda Expressway"/>
    <tag k="oneway" v="yes"/>
    <tag k="ref" v="G11"/>
  </way>
  <way id="114874926" version="1" timestamp="2011-05-25T20:32:28Z" uid="9581" user="Lobelt" changeset="8248465">
    <nd ref="1300122805"/>
    <nd ref="1300120864"/>
    <nd ref="1300122567"/>
    <nd ref="1300121521"/>
    <nd ref="1300123680"/>
    <nd ref="1300119813"/>
    <nd ref="1300121164"/>
    <nd ref="1300120501"/>
    <nd ref="1300122080"/>
    <nd ref="1300124415"/>
    <nd ref="1300120157"/>
    <nd ref="1300125326"/>
    <nd ref="1300120944"/>
    <nd ref="1300122649"/>
    <tag k="highway" v="motorway_link"/>
    <tag k="oneway" v="yes"/>
  </way>
  <way id="114874927" version="1" timestamp="2011-05-25T20:32:28Z" uid="9581" user="Lobelt" changeset="8248465">
    <nd ref="1300121922"/>
    <nd ref="614306164"/>
    <nd ref="1300124272"/>
    <nd ref="614321226"/>
    <nd ref="614306156"/>
    <nd ref="1300120113"/>
    <nd ref="614306149"/>
    <nd ref="614306145"/>
    <nd ref="1300121458"/>
    <tag k="highway" v="motorway"/>
    <tag k="name" v="丹大高速"/>
    <tag k="name:en" v="Danda Expressway"/>
    <tag k="oneway" v="yes"/>
    <tag k="ref" v="G11"/>
  </way>
  <way id="114874928" version="1" timestamp="2011-05-25T20:32:28Z" uid="9581" user="Lobelt" changeset="8248465">
    <nd ref="1300123007"/>
    <nd ref="1300121171"/>
    <tag k="bridge" v="yes"/>
    <tag k="highway" v="motorway"/>
    <tag k="layer" v="1"/>
    <tag k="oneway" v="yes"/>
    <tag k="ref" v="G11"/>
  </way>
  <way id="114874929" version="1" timestamp="2011-05-25T20:32:28Z" uid="9581" user="Lobelt" changeset="8248465">
    <nd ref="1300119885"/>
    <nd ref="1300124838"/>
    <nd ref="1300120462"/>
    <nd ref="1300121988"/>
    <nd ref="1300121204"/>
    <tag k="highway" v="motorway_link"/>
    <tag k="oneway" v="yes"/>
  </way>
  <way id="114874930" version="1" timestamp="2011-05-25T20:32:28Z" uid="9581" user="Lobelt" changeset="8248465">
    <nd ref="1300121436"/>
    <nd ref="1300123494"/>
    <tag k="bridge" v="yes"/>
    <tag k="highway" v="motorway"/>
    <tag k="layer" v="1"/>
    <tag k="name" v="丹大高速"/>
    <tag k="name:en" v="Danda Expressway"/>
    <tag k="oneway" v="yes"/>
    <tag k="ref" v="G11"/>
  </way>
  <way id="114874931" version="1" timestamp="2011-05-25T20:32:29Z" uid="9581" user="Lobelt" changeset="8248465">
    <nd ref="1300122888"/>
    <nd ref="1300121108"/>
    <nd ref="1300119759"/>
    <nd ref="1300123510"/>
    <nd ref="1300120808"/>
    <nd ref="1300121373"/>
    <nd ref="1300122438"/>
    <nd ref="1300120702"/>
    <nd ref="1300125053"/>
    <tag k="highway" v="motorway"/>
    <tag k="oneway" v="yes"/>
    <tag k="ref" v="G11"/>
  </way>
  <way id="114874932" version="1" timestamp="2011-05-25T20:32:29Z" uid="9581" user="Lobelt" changeset="8248465">
    <nd ref="1300124483"/>
    <nd ref="1300122192"/>
    <nd ref="1300120541"/>
    <nd ref="1300123804"/>
    <nd ref="1300121570"/>
    <nd ref="1300120218"/>
    <nd ref="1300124551"/>
    <nd ref="1300125309"/>
    <nd ref="1300123092"/>
    <nd ref="1300121212"/>
    <nd ref="1300119851"/>
    <nd ref="1300120472"/>
    <nd ref="1300124853"/>
    <nd ref="1300122628"/>
    <nd ref="1300120920"/>
    <nd ref="1300121494"/>
    <nd ref="1300120138"/>
    <nd ref="1300124350"/>
    <nd ref="1300122018"/>
    <nd ref="1300122956"/>
    <nd ref="1300121148"/>
    <nd ref="1300119793"/>
    <nd ref="1300123615"/>
    <nd ref="1300124764"/>
    <nd ref="1300122544"/>
    <nd ref="1300120828"/>
    <nd ref="1300125197"/>
    <nd ref="1300120085"/>
    <nd ref="1300124190"/>
    <nd ref="1300121843"/>
    <nd ref="1300120371"/>
    <nd ref="1300121080"/>
    <nd ref="1300119740"/>
    <nd ref="1300123453"/>
    <nd ref="1300121415"/>
    <nd ref="1300125129"/>
    <nd ref="1300122873"/>
    <nd ref="1300121101"/>
    <nd ref="1300119757"/>
    <nd ref="1300120337"/>
    <nd ref="1300124707"/>
    <nd ref="1300122489"/>
    <nd ref="1300120773"/>
    <nd ref="1300120305"/>
    <nd ref="1300121044"/>
    <nd ref="1300122783"/>
    <nd ref="1300124667"/>
    <nd ref="1300122825"/>
    <nd ref="1300125088"/>
    <nd ref="1300120723"/>
    <tag k="waterway" v="river"/>
  </way>
  <way id="114874933" version="1" timestamp="2011-05-25T20:32:29Z" uid="9581" user="Lobelt" changeset="8248465">
    <nd ref="1300120796"/>
    <nd ref="1300125160"/>
    <nd ref="1300122908"/>
    <nd ref="1300122254"/>
    <nd ref="1300120568"/>
    <tag k="highway" v="motorway"/>
    <tag k="oneway" v="yes"/>
    <tag k="ref" v="G11"/>
  </way>
  <way id="114874934" version="1" timestamp="2011-05-25T20:32:30Z" uid="9581" user="Lobelt" changeset="8248465">
    <nd ref="1300119856"/>
    <nd ref="1300123835"/>
    <tag k="highway" v="motorway"/>
    <tag k="oneway" v="yes"/>
    <tag k="ref" v="G11"/>
  </way>
  <way id="114874935" version="1" timestamp="2011-05-25T20:32:30Z" uid="9581" user="Lobelt" changeset="8248465">
    <nd ref="1300124698"/>
    <nd ref="614306466"/>
    <tag k="bridge" v="yes"/>
    <tag k="highway" v="motorway"/>
    <tag k="layer" v="1"/>
    <tag k="name" v="丹大高速"/>
    <tag k="name:en" v="Danda Expressway"/>
    <tag k="oneway" v="yes"/>
    <tag k="ref" v="G11"/>
  </way>
  <way id="114874936" version="1" timestamp="2011-05-25T20:32:30Z" uid="9581" user="Lobelt" changeset="8248465">
    <nd ref="1300119863"/>
    <nd ref="1300121228"/>
    <nd ref="1300123109"/>
    <nd ref="1300122306"/>
    <nd ref="1300124576"/>
    <nd ref="1300120228"/>
    <nd ref="1300121582"/>
    <nd ref="1300121000"/>
    <nd ref="1300122711"/>
    <nd ref="1300124966"/>
    <nd ref="1300120601"/>
    <nd ref="1300123155"/>
    <nd ref="1300119621"/>
    <nd ref="614318689"/>
    <tag k="highway" v="motorway_link"/>
  </way>
  <way id="114874937" version="1" timestamp="2011-05-25T20:32:30Z" uid="9581" user="Lobelt" changeset="8248465">
    <nd ref="1300124078"/>
    <nd ref="1300121774"/>
    <tag k="highway" v="motorway"/>
    <tag k="oneway" v="yes"/>
    <tag k="ref" v="G11"/>
  </way>
  <way id="114874938" version="1" timestamp="2011-05-25T20:32:30Z" uid="9581" user="Lobelt" changeset="8248465">
    <nd ref="1300120330"/>
    <nd ref="1300121738"/>
    <tag k="bridge" v="yes"/>
    <tag k="highway" v="motorway"/>
    <tag k="layer" v="1"/>
    <tag k="name" v="丹大高速"/>
    <tag k="name:en" v="Danda Expressway"/>
    <tag k="oneway" v="yes"/>
    <tag k="ref" v="G11"/>
  </way>
  <way id="114874939" version="1" timestamp="2011-05-25T20:32:30Z" uid="9581" user="Lobelt" changeset="8248465">
    <nd ref="1300120293"/>
    <nd ref="1300124642"/>
    <nd ref="1300122429"/>
    <tag k="highway" v="motorway"/>
    <tag k="oneway" v="yes"/>
    <tag k="ref" v="G11"/>
  </way>
  <way id="114874940" version="1" timestamp="2011-05-25T20:32:30Z" uid="9581" user="Lobelt" changeset="8248465">
    <nd ref="1300120897"/>
    <nd ref="1300125287"/>
    <tag k="bridge" v="yes"/>
    <tag k="highway" v="motorway"/>
    <tag k="layer" v="1"/>
    <tag k="oneway" v="yes"/>
    <tag k="ref" v="G11"/>
  </way>
  <way id="114874941" version="1" timestamp="2011-05-25T20:32:31Z" uid="9581" user="Lobelt" changeset="8248465">
    <nd ref="1300121300"/>
    <nd ref="1300119955"/>
    <tag k="bridge" v="yes"/>
    <tag k="highway" v="motorway"/>
    <tag k="layer" v="1"/>
    <tag k="oneway" v="yes"/>
    <tag k="ref" v="G11"/>
  </way>
  <way id="114874942" version="1" timestamp="2011-05-25T20:32:31Z" uid="9581" user="Lobelt" changeset="8248465">
    <nd ref="1300122969"/>
    <nd ref="430677640"/>
    <tag k="bridge" v="yes"/>
    <tag k="highway" v="motorway"/>
    <tag k="layer" v="1"/>
    <tag k="name" v="丹大高速"/>
    <tag k="name:en" v="Danda Expressway"/>
    <tag k="oneway" v="yes"/>
    <tag k="ref" v="G11"/>
  </way>
  <way id="114874943" version="1" timestamp="2011-05-25T20:32:31Z" uid="9581" user="Lobelt" changeset="8248465">
    <nd ref="1300123107"/>
    <nd ref="1300121226"/>
    <tag k="bridge" v="yes"/>
    <tag k="highway" v="motorway"/>
    <tag k="layer" v="1"/>
    <tag k="oneway" v="yes"/>
    <tag k="ref" v="G11"/>
  </way>
  <way id="114874944" version="1" timestamp="2011-05-25T20:32:31Z" uid="9581" user="Lobelt" changeset="8248465">
    <nd ref="1300125026"/>
    <nd ref="1300119970"/>
    <nd ref="1300121314"/>
    <nd ref="1300120712"/>
    <tag k="waterway" v="river"/>
  </way>
  <way id="114874944" version="2" timestamp="2012-03-05T14:12:28Z" uid="17497" user="katpatuka" changeset="10879847"/>
  <way id="114874945" version="1" timestamp="2011-05-25T20:32:31Z" uid="9581" user="Lobelt" changeset="8248465">
    <nd ref="1300123776"/>
    <nd ref="1300122167"/>
    <nd ref="1300124463"/>
    <nd ref="1300120169"/>
    <nd ref="1300125351"/>
    <nd ref="1300120962"/>
    <nd ref="1300122669"/>
    <nd ref="1300124901"/>
    <nd ref="1300123889"/>
    <tag k="highway" v="motorway_link"/>
    <tag k="oneway" v="yes"/>
  </way>
  <way id="114874946" version="1" timestamp="2011-05-25T20:32:31Z" uid="9581" user="Lobelt" changeset="8248465">
    <nd ref="1300123935"/>
    <nd ref="1300122392"/>
    <nd ref="1300124630"/>
    <nd ref="1300123339"/>
    <nd ref="1300119703"/>
    <nd ref="1300121038"/>
    <nd ref="1300122765"/>
    <nd ref="1300119989"/>
    <nd ref="1300121328"/>
    <nd ref="1300123258"/>
    <nd ref="1300119674"/>
    <nd ref="1300124673"/>
    <nd ref="1300120309"/>
    <nd ref="1300121713"/>
    <tag k="highway" v="motorway_link"/>
    <tag k="oneway" v="yes"/>
  </way>
  <way id="114874947" version="1" timestamp="2011-05-25T20:32:32Z" uid="9581" user="Lobelt" changeset="8248465">
    <nd ref="1300119967"/>
    <nd ref="1300125067"/>
    <tag k="bridge" v="yes"/>
    <tag k="highway" v="motorway"/>
    <tag k="layer" v="1"/>
    <tag k="name" v="丹大高速"/>
    <tag k="name:en" v="Danda Expressway"/>
    <tag k="oneway" v="yes"/>
    <tag k="ref" v="G11"/>
  </way>
  <way id="114874948" version="1" timestamp="2011-05-25T20:32:32Z" uid="9581" user="Lobelt" changeset="8248465">
    <nd ref="614306287"/>
    <nd ref="1300124727"/>
    <tag k="bridge" v="yes"/>
    <tag k="highway" v="motorway"/>
    <tag k="layer" v="1"/>
    <tag k="name" v="丹大高速"/>
    <tag k="name:en" v="Danda Expressway"/>
    <tag k="oneway" v="yes"/>
    <tag k="ref" v="G11"/>
  </way>
  <way id="114874949" version="1" timestamp="2011-05-25T20:32:32Z" uid="9581" user="Lobelt" changeset="8248465">
    <nd ref="1300122632"/>
    <nd ref="1300120924"/>
    <tag k="bridge" v="yes"/>
    <tag k="highway" v="motorway"/>
    <tag k="layer" v="1"/>
    <tag k="oneway" v="yes"/>
    <tag k="ref" v="G11"/>
  </way>
  <way id="114874950" version="1" timestamp="2011-05-25T20:32:32Z" uid="9581" user="Lobelt" changeset="8248465">
    <nd ref="1300119671"/>
    <nd ref="1300123252"/>
    <tag k="bridge" v="yes"/>
    <tag k="highway" v="motorway"/>
    <tag k="layer" v="1"/>
    <tag k="oneway" v="yes"/>
    <tag k="ref" v="G11"/>
  </way>
  <way id="114874951" version="1" timestamp="2011-05-25T20:32:33Z" uid="9581" user="Lobelt" changeset="8248465">
    <nd ref="1300123647"/>
    <nd ref="1300121508"/>
    <tag k="bridge" v="yes"/>
    <tag k="highway" v="motorway"/>
    <tag k="layer" v="1"/>
    <tag k="name" v="丹大高速"/>
    <tag k="name:en" v="Danda Expressway"/>
    <tag k="oneway" v="yes"/>
    <tag k="ref" v="G11"/>
  </way>
  <way id="114874952" version="1" timestamp="2011-05-25T20:32:33Z" uid="9581" user="Lobelt" changeset="8248465">
    <nd ref="1300122482"/>
    <nd ref="1300120754"/>
    <tag k="bridge" v="yes"/>
    <tag k="highway" v="motorway"/>
    <tag k="layer" v="1"/>
    <tag k="oneway" v="yes"/>
    <tag k="ref" v="G11"/>
  </way>
  <way id="114874953" version="1" timestamp="2011-05-25T20:32:33Z" uid="9581" user="Lobelt" changeset="8248465">
    <nd ref="614321357"/>
    <nd ref="1300125120"/>
    <tag k="bridge" v="yes"/>
    <tag k="highway" v="motorway"/>
    <tag k="layer" v="1"/>
    <tag k="name" v="丹大高速"/>
    <tag k="name:en" v="Danda Expressway"/>
    <tag k="oneway" v="yes"/>
    <tag k="ref" v="G11"/>
  </way>
  <way id="114874954" version="1" timestamp="2011-05-25T20:32:33Z" uid="9581" user="Lobelt" changeset="8248465">
    <nd ref="1300121659"/>
    <nd ref="430677784"/>
    <nd ref="1300121754"/>
    <nd ref="430677863"/>
    <nd ref="1300124069"/>
    <tag k="highway" v="motorway"/>
    <tag k="name" v="丹大高速"/>
    <tag k="name:en" v="Danda Expressway"/>
    <tag k="oneway" v="yes"/>
    <tag k="ref" v="G11"/>
  </way>
  <way id="114874955" version="1" timestamp="2011-05-25T20:32:33Z" uid="9581" user="Lobelt" changeset="8248465">
    <nd ref="1300122578"/>
    <nd ref="1300123568"/>
    <nd ref="1300119784"/>
    <nd ref="1300121135"/>
    <tag k="waterway" v="river"/>
  </way>
  <way id="114874956" version="1" timestamp="2011-05-25T20:32:33Z" uid="9581" user="Lobelt" changeset="8248465">
    <nd ref="1300122290"/>
    <nd ref="1300120581"/>
    <tag k="bridge" v="yes"/>
    <tag k="highway" v="motorway"/>
    <tag k="layer" v="1"/>
    <tag k="oneway" v="yes"/>
    <tag k="ref" v="G11"/>
  </way>
  <way id="114874957" version="1" timestamp="2011-05-25T20:32:34Z" uid="9581" user="Lobelt" changeset="8248465">
    <nd ref="1300121490"/>
    <nd ref="1300122542"/>
    <tag k="highway" v="motorway"/>
    <tag k="oneway" v="yes"/>
    <tag k="ref" v="G11"/>
  </way>
  <way id="114874958" version="1" timestamp="2011-05-25T20:32:34Z" uid="9581" user="Lobelt" changeset="8248465">
    <nd ref="1300120486"/>
    <nd ref="1300122064"/>
    <tag k="bridge" v="yes"/>
    <tag k="highway" v="motorway"/>
    <tag k="layer" v="1"/>
    <tag k="name" v="丹大高速"/>
    <tag k="name:en" v="Danda Expressway"/>
    <tag k="oneway" v="yes"/>
    <tag k="ref" v="G11"/>
  </way>
  <way id="114874959" version="1" timestamp="2011-05-25T20:32:34Z" uid="9581" user="Lobelt" changeset="8248465">
    <nd ref="1300120399"/>
    <nd ref="1300121892"/>
    <tag k="highway" v="motorway"/>
    <tag k="name" v="丹大高速"/>
    <tag k="name:en" v="Danda Expressway"/>
    <tag k="oneway" v="yes"/>
    <tag k="ref" v="G11"/>
  </way>
  <way id="114874960" version="1" timestamp="2011-05-25T20:32:34Z" uid="9581" user="Lobelt" changeset="8248465">
    <nd ref="1300121575"/>
    <nd ref="614321848"/>
    <tag k="bridge" v="yes"/>
    <tag k="highway" v="motorway"/>
    <tag k="layer" v="1"/>
    <tag k="name" v="丹大高速"/>
    <tag k="name:en" v="Danda Expressway"/>
    <tag k="oneway" v="yes"/>
    <tag k="ref" v="G11"/>
  </way>
  <way id="114874961" version="1" timestamp="2011-05-25T20:32:34Z" uid="9581" user="Lobelt" changeset="8248465">
    <nd ref="1300125067"/>
    <nd ref="430677731"/>
    <tag k="highway" v="motorway"/>
    <tag k="name" v="丹大高速"/>
    <tag k="name:en" v="Danda Expressway"/>
    <tag k="oneway" v="yes"/>
    <tag k="ref" v="G11"/>
  </way>
  <way id="114874962" version="1" timestamp="2011-05-25T20:32:34Z" uid="9581" user="Lobelt" changeset="8248465">
    <nd ref="1300125109"/>
    <nd ref="1300122863"/>
    <nd ref="1300121093"/>
    <tag k="highway" v="motorway"/>
    <tag k="oneway" v="yes"/>
    <tag k="ref" v="G11"/>
  </way>
  <way id="114874963" version="1" timestamp="2011-05-25T20:32:35Z" uid="9581" user="Lobelt" changeset="8248465">
    <nd ref="1300122506"/>
    <nd ref="1300120779"/>
    <tag k="bridge" v="yes"/>
    <tag k="highway" v="motorway"/>
    <tag k="layer" v="1"/>
    <tag k="oneway" v="yes"/>
    <tag k="ref" v="G11"/>
  </way>
  <way id="114874964" version="1" timestamp="2011-05-25T20:32:35Z" uid="9581" user="Lobelt" changeset="8248465">
    <nd ref="1300120451"/>
    <nd ref="1300121132"/>
    <tag k="bridge" v="yes"/>
    <tag k="highway" v="motorway"/>
    <tag k="layer" v="1"/>
    <tag k="oneway" v="yes"/>
    <tag k="ref" v="G11"/>
  </way>
  <way id="114874965" version="1" timestamp="2011-05-25T20:32:35Z" uid="9581" user="Lobelt" changeset="8248465">
    <nd ref="1300121034"/>
    <nd ref="1300119696"/>
    <tag k="bridge" v="yes"/>
    <tag k="highway" v="motorway"/>
    <tag k="layer" v="1"/>
    <tag k="name" v="丹大高速"/>
    <tag k="name:en" v="Danda Expressway"/>
    <tag k="oneway" v="yes"/>
    <tag k="ref" v="G11"/>
  </way>
  <way id="114874966" version="1" timestamp="2011-05-25T20:32:35Z" uid="9581" user="Lobelt" changeset="8248465">
    <nd ref="430677694"/>
    <nd ref="430677696"/>
    <nd ref="1300121167"/>
    <tag k="highway" v="motorway"/>
    <tag k="name" v="丹大高速"/>
    <tag k="name:en" v="Danda Expressway"/>
    <tag k="oneway" v="yes"/>
    <tag k="ref" v="G11"/>
  </way>
  <way id="114874967" version="1" timestamp="2011-05-25T20:32:35Z" uid="9581" user="Lobelt" changeset="8248465">
    <nd ref="1300124567"/>
    <nd ref="1300123193"/>
    <nd ref="614307265"/>
    <nd ref="1300119647"/>
    <nd ref="1300120994"/>
    <tag k="highway" v="motorway"/>
    <tag k="name" v="丹大高速"/>
    <tag k="name:en" v="Danda Expressway"/>
    <tag k="oneway" v="yes"/>
    <tag k="ref" v="G11"/>
  </way>
  <way id="114874968" version="1" timestamp="2011-05-25T20:32:35Z" uid="9581" user="Lobelt" changeset="8248465">
    <nd ref="1300125006"/>
    <nd ref="1300124009"/>
    <tag k="bridge" v="yes"/>
    <tag k="highway" v="motorway"/>
    <tag k="layer" v="1"/>
    <tag k="name" v="丹大高速"/>
    <tag k="name:en" v="Danda Expressway"/>
    <tag k="oneway" v="yes"/>
    <tag k="ref" v="G11"/>
  </way>
  <way id="114874970" version="1" timestamp="2011-05-25T20:32:36Z" uid="9581" user="Lobelt" changeset="8248465">
    <nd ref="1300125048"/>
    <nd ref="1300120695"/>
    <nd ref="1300122432"/>
    <nd ref="1300119698"/>
    <nd ref="1300120303"/>
    <nd ref="1300121700"/>
    <nd ref="1300121074"/>
    <nd ref="1300122824"/>
    <nd ref="1300125086"/>
    <nd ref="1300120719"/>
    <nd ref="1300120078"/>
    <nd ref="1300121395"/>
    <nd ref="1300123412"/>
    <nd ref="1300119727"/>
    <nd ref="1300124746"/>
    <nd ref="1300120359"/>
    <nd ref="1300121825"/>
    <nd ref="1300124160"/>
    <nd ref="1300122935"/>
    <nd ref="1300125178"/>
    <nd ref="1300120814"/>
    <nd ref="1300122527"/>
    <nd ref="1300121477"/>
    <nd ref="1300123571"/>
    <nd ref="1300119785"/>
    <nd ref="1300121136"/>
    <nd ref="1300120455"/>
    <nd ref="1300121984"/>
    <nd ref="1300124334"/>
    <nd ref="1300120127"/>
    <nd ref="1300122589"/>
    <nd ref="1300124806"/>
    <nd ref="1300120417"/>
    <nd ref="1300121918"/>
    <nd ref="1300121182"/>
    <nd ref="1300123031"/>
    <nd ref="1300125258"/>
    <nd ref="1300120878"/>
    <nd ref="1300120166"/>
    <nd ref="1300121529"/>
    <nd ref="1300123712"/>
    <nd ref="1300119826"/>
    <nd ref="1300124898"/>
    <nd ref="1300120524"/>
    <nd ref="1300122159"/>
    <nd ref="1300124458"/>
    <nd ref="1300123141"/>
    <nd ref="1300125348"/>
    <nd ref="1300120959"/>
    <nd ref="1300122667"/>
    <nd ref="1300121602"/>
    <nd ref="1300123887"/>
    <nd ref="1300119884"/>
    <nd ref="1300121246"/>
    <nd ref="1300120631"/>
    <nd ref="1300122338"/>
    <nd ref="1300124592"/>
    <nd ref="1300120245"/>
    <nd ref="1300119669"/>
    <nd ref="1300121014"/>
    <nd ref="1300122734"/>
    <nd ref="1300124995"/>
    <nd ref="1300121294"/>
    <nd ref="1300123191"/>
    <nd ref="1300119646"/>
    <tag k="railway" v="rail"/>
  </way>
  <way id="114874970" version="2" timestamp="2012-03-04T17:09:10Z" uid="17497" user="katpatuka" changeset="10870953"/>
  <way id="114874975" version="1" timestamp="2011-05-25T20:32:36Z" uid="9581" user="Lobelt" changeset="8248465">
    <nd ref="1300120884"/>
    <nd ref="1300123814"/>
    <nd ref="1300122693"/>
    <nd ref="1300124949"/>
    <nd ref="1300120586"/>
    <nd ref="1300122298"/>
    <nd ref="1300119605"/>
    <nd ref="1300120974"/>
    <nd ref="1300122676"/>
    <nd ref="1300124915"/>
    <nd ref="1300123913"/>
    <nd ref="1300119899"/>
    <nd ref="1300121259"/>
    <tag k="highway" v="motorway_link"/>
    <tag k="oneway" v="yes"/>
  </way>
  <way id="114874978" version="1" timestamp="2011-05-25T20:32:36Z" uid="9581" user="Lobelt" changeset="8248465">
    <nd ref="1300122530"/>
    <nd ref="1300124751"/>
    <tag k="bridge" v="yes"/>
    <tag k="highway" v="motorway_link"/>
    <tag k="layer" v="1"/>
    <tag k="oneway" v="yes"/>
  </way>
  <way id="114874979" version="1" timestamp="2011-05-25T20:32:37Z" uid="9581" user="Lobelt" changeset="8248465">
    <nd ref="1300121528"/>
    <nd ref="1300120165"/>
    <nd ref="1300124441"/>
    <nd ref="1300125253"/>
    <nd ref="1300123021"/>
    <nd ref="1300121179"/>
    <nd ref="1300124268"/>
    <nd ref="1300121914"/>
    <tag k="highway" v="motorway"/>
    <tag k="oneway" v="yes"/>
    <tag k="ref" v="G11"/>
  </way>
  <way id="114874980" version="1" timestamp="2011-05-25T20:32:37Z" uid="9581" user="Lobelt" changeset="8248465">
    <nd ref="1300122836"/>
    <nd ref="1300125091"/>
    <nd ref="1300120733"/>
    <nd ref="1300122462"/>
    <nd ref="1300121406"/>
    <nd ref="1300123423"/>
    <tag k="highway" v="motorway_link"/>
    <tag k="oneway" v="yes"/>
  </way>
  <way id="114874981" version="1" timestamp="2011-05-25T20:32:37Z" uid="9581" user="Lobelt" changeset="8248465">
    <nd ref="614306466"/>
    <nd ref="1300120331"/>
    <tag k="highway" v="motorway"/>
    <tag k="name" v="丹大高速"/>
    <tag k="name:en" v="Danda Expressway"/>
    <tag k="oneway" v="yes"/>
    <tag k="ref" v="G11"/>
  </way>
  <way id="114874982" version="1" timestamp="2011-05-25T20:32:37Z" uid="9581" user="Lobelt" changeset="8248465">
    <nd ref="1300122789"/>
    <nd ref="1300121052"/>
    <nd ref="1300119711"/>
    <nd ref="1300124663"/>
    <nd ref="1300122503"/>
    <tag k="highway" v="motorway"/>
    <tag k="oneway" v="yes"/>
    <tag k="ref" v="G11"/>
  </way>
  <way id="114874983" version="1" timestamp="2011-05-25T20:32:37Z" uid="9581" user="Lobelt" changeset="8248465">
    <nd ref="1300121222"/>
    <nd ref="614306974"/>
    <nd ref="614321748"/>
    <nd ref="1300123106"/>
    <nd ref="614306999"/>
    <nd ref="614307021"/>
    <tag k="highway" v="motorway"/>
    <tag k="name" v="丹大高速"/>
    <tag k="name:en" v="Danda Expressway"/>
    <tag k="oneway" v="yes"/>
    <tag k="ref" v="G11"/>
  </way>
  <way id="114874984" version="1" timestamp="2011-05-25T20:32:37Z" uid="9581" user="Lobelt" changeset="8248465">
    <nd ref="1300120082"/>
    <nd ref="430677659"/>
    <nd ref="430677657"/>
    <nd ref="430677655"/>
    <nd ref="1300121411"/>
    <nd ref="430677670"/>
    <nd ref="1300124724"/>
    <nd ref="430677669"/>
    <nd ref="430677667"/>
    <tag k="highway" v="motorway"/>
    <tag k="name" v="丹大高速"/>
    <tag k="name:en" v="Danda Expressway"/>
    <tag k="oneway" v="yes"/>
    <tag k="ref" v="G11"/>
  </way>
  <way id="114874985" version="1" timestamp="2011-05-25T20:32:38Z" uid="9581" user="Lobelt" changeset="8248465">
    <nd ref="1300122893"/>
    <nd ref="1300121922"/>
    <tag k="bridge" v="yes"/>
    <tag k="highway" v="motorway"/>
    <tag k="layer" v="1"/>
    <tag k="name" v="丹大高速"/>
    <tag k="name:en" v="Danda Expressway"/>
    <tag k="oneway" v="yes"/>
    <tag k="ref" v="G11"/>
  </way>
  <way id="114874986" version="1" timestamp="2011-05-25T20:32:38Z" uid="9581" user="Lobelt" changeset="8248465">
    <nd ref="1300122936"/>
    <nd ref="1300124162"/>
    <nd ref="1300121827"/>
    <nd ref="1300120360"/>
    <nd ref="1300124747"/>
    <nd ref="1300119731"/>
    <nd ref="1300121383"/>
    <nd ref="1300120063"/>
    <tag k="highway" v="motorway"/>
    <tag k="oneway" v="yes"/>
    <tag k="ref" v="G11"/>
  </way>
  <way id="114874987" version="1" timestamp="2011-05-25T20:32:38Z" uid="9581" user="Lobelt" changeset="8248465">
    <nd ref="1300120859"/>
    <nd ref="614306534"/>
    <nd ref="614306541"/>
    <nd ref="614306552"/>
    <nd ref="1300125006"/>
    <tag k="highway" v="motorway"/>
    <tag k="name" v="丹大高速"/>
    <tag k="name:en" v="Danda Expressway"/>
    <tag k="oneway" v="yes"/>
    <tag k="ref" v="G11"/>
  </way>
  <way id="114874988" version="1" timestamp="2011-05-25T20:32:38Z" uid="9581" user="Lobelt" changeset="8248465">
    <nd ref="1300124777"/>
    <nd ref="614306136"/>
    <nd ref="430677638"/>
    <nd ref="1300120376"/>
    <nd ref="430677639"/>
    <nd ref="1300121867"/>
    <nd ref="430677636"/>
    <nd ref="1300122821"/>
    <tag k="highway" v="motorway"/>
    <tag k="name" v="丹大高速"/>
    <tag k="name:en" v="Danda Expressway"/>
    <tag k="oneway" v="yes"/>
    <tag k="ref" v="G11"/>
  </way>
  <way id="114874989" version="1" timestamp="2011-05-25T20:32:38Z" uid="9581" user="Lobelt" changeset="8248465">
    <nd ref="1300119955"/>
    <nd ref="1300123967"/>
    <nd ref="1300124967"/>
    <nd ref="1300122713"/>
    <nd ref="1300121001"/>
    <nd ref="1300119655"/>
    <nd ref="1300122358"/>
    <tag k="highway" v="motorway"/>
    <tag k="oneway" v="yes"/>
    <tag k="ref" v="G11"/>
  </way>
  <way id="114874990" version="1" timestamp="2011-05-25T20:32:38Z" uid="9581" user="Lobelt" changeset="8248465">
    <nd ref="1300123198"/>
    <nd ref="1300121299"/>
    <tag k="highway" v="motorway"/>
    <tag k="oneway" v="yes"/>
    <tag k="ref" v="G11"/>
  </way>
  <way id="114874991" version="1" timestamp="2011-05-25T20:32:39Z" uid="9581" user="Lobelt" changeset="8248465">
    <nd ref="1300123653"/>
    <nd ref="614318816"/>
    <nd ref="614318820"/>
    <nd ref="614318823"/>
    <nd ref="614318825"/>
    <nd ref="1300121442"/>
    <tag k="highway" v="motorway_link"/>
    <tag k="source" v="gps"/>
  </way>
  <way id="114874992" version="1" timestamp="2011-05-25T20:32:39Z" uid="9581" user="Lobelt" changeset="8248465">
    <nd ref="1300121226"/>
    <nd ref="1300119861"/>
    <nd ref="1300123851"/>
    <nd ref="1300124300"/>
    <nd ref="1300121950"/>
    <nd ref="1300122906"/>
    <nd ref="1300121120"/>
    <nd ref="1300119775"/>
    <nd ref="1300123538"/>
    <tag k="highway" v="motorway"/>
    <tag k="oneway" v="yes"/>
    <tag k="ref" v="G11"/>
  </way>
  <way id="114874993" version="1" timestamp="2011-05-25T20:32:39Z" uid="9581" user="Lobelt" changeset="8248465">
    <nd ref="430677698"/>
    <nd ref="1300123377"/>
    <nd ref="430677700"/>
    <nd ref="614306301"/>
    <nd ref="1300122510"/>
    <nd ref="614306303"/>
    <nd ref="1300124719"/>
    <nd ref="614306306"/>
    <nd ref="1300120348"/>
    <nd ref="614306324"/>
    <nd ref="1300121782"/>
    <tag k="highway" v="motorway"/>
    <tag k="name" v="丹大高速"/>
    <tag k="name:en" v="Danda Expressway"/>
    <tag k="oneway" v="yes"/>
    <tag k="ref" v="G11"/>
  </way>
  <way id="114874994" version="1" timestamp="2011-05-25T20:32:39Z" uid="9581" user="Lobelt" changeset="8248465">
    <nd ref="1300122483"/>
    <nd ref="1300120756"/>
    <tag k="bridge" v="yes"/>
    <tag k="highway" v="motorway"/>
    <tag k="layer" v="1"/>
    <tag k="oneway" v="yes"/>
    <tag k="ref" v="G11"/>
  </way>
  <way id="114874995" version="1" timestamp="2011-05-25T20:32:39Z" uid="9581" user="Lobelt" changeset="8248465">
    <nd ref="430678425"/>
    <nd ref="1300124036"/>
    <nd ref="1300120011"/>
    <nd ref="1300121346"/>
    <nd ref="1300123303"/>
    <nd ref="1300122479"/>
    <nd ref="1300124690"/>
    <nd ref="1300120325"/>
    <nd ref="1300121733"/>
    <tag k="highway" v="motorway_link"/>
  </way>
  <way id="114874996" version="1" timestamp="2011-05-25T20:32:40Z" uid="9581" user="Lobelt" changeset="8248465">
    <nd ref="1300119795"/>
    <nd ref="1300121147"/>
    <nd ref="1300120474"/>
    <nd ref="1300122017"/>
    <nd ref="1300122284"/>
    <nd ref="1300124547"/>
    <nd ref="1300120219"/>
    <nd ref="1300121568"/>
    <nd ref="1300120991"/>
    <nd ref="1300122687"/>
    <nd ref="1300124946"/>
    <nd ref="1300120579"/>
    <nd ref="1300119932"/>
    <nd ref="1300121285"/>
    <nd ref="1300123180"/>
    <tag k="railway" v="rail"/>
  </way>
  <way id="114874996" version="2" timestamp="2012-03-04T17:09:11Z" uid="17497" user="katpatuka" changeset="10870953"/>
  <way id="114874997" version="1" timestamp="2011-05-25T20:32:40Z" uid="9581" user="Lobelt" changeset="8248465">
    <nd ref="1300120774"/>
    <nd ref="1300125142"/>
    <nd ref="1300120031"/>
    <tag k="highway" v="motorway"/>
    <tag k="oneway" v="yes"/>
    <tag k="ref" v="G11"/>
  </way>
  <way id="114874998" version="1" timestamp="2011-05-25T20:32:40Z" uid="9581" user="Lobelt" changeset="8248465">
    <nd ref="1300122792"/>
    <nd ref="1300125044"/>
    <tag k="bridge" v="yes"/>
    <tag k="layer" v="1"/>
    <tag k="railway" v="rail"/>
  </way>
  <way id="114874998" version="2" timestamp="2012-03-04T17:09:11Z" uid="17497" user="katpatuka" changeset="10870953"/>
  <way id="114874999" version="1" timestamp="2011-05-25T20:32:40Z" uid="9581" user="Lobelt" changeset="8248465">
    <nd ref="1300124396"/>
    <nd ref="1300125165"/>
    <tag k="bridge" v="yes"/>
    <tag k="highway" v="motorway"/>
    <tag k="layer" v="1"/>
    <tag k="name" v="丹大高速"/>
    <tag k="name:en" v="Danda Expressway"/>
    <tag k="oneway" v="yes"/>
    <tag k="ref" v="G11"/>
  </way>
</osm>
