<?xml version='1.0' encoding='UTF-8'?>
<osm version="0.6" generator="libosmium/2.20.0">
  <way id="11537716" version="1" timestamp="2007-11-08T20:26:59Z" uid="6975" user="ulfl" changeset="441742">
    <nd ref="102862486"/>
    <nd ref="102862481"/>
    <tag k="bridge" v="yes"/>
    <tag k="created_by" v="JOSM"/>
    <tag k="highway" v="motorway"/>
    <tag k="layer" v="1"/>
    <tag k="name" v="A73"/>
    <tag k="oneway" v="true"/>
  </way>
  <way id="11537716" version="2" timestamp="2008-06-04T19:15:47Z" uid="24920" user="Schusch" changeset="49045">
    <nd ref="102862486"/>
    <nd ref="102862481"/>
    <tag k="bridge" v="yes"/>
    <tag k="created_by" v="Potlatch 0.9c"/>
    <tag k="highway" v="motorway"/>
    <tag k="layer" v="1"/>
    <tag k="name" v="A 73"/>
    <tag k="oneway" v="true"/>
  </way>
  <way id="11537716" version="3" timestamp="2008-08-14T11:14:57Z" uid="42123" user="Ropino" changeset="242069">
    <nd ref="102862486"/>
    <nd ref="102862481"/>
    <tag k="bridge" v="yes"/>
    <tag k="created_by" v="Potlatch 0.9c"/>
    <tag k="highway" v="motorway"/>
    <tag k="lanes" v="2"/>
    <tag k="layer" v="1"/>
    <tag k="name" v="A 73"/>
    <tag k="oneway" v="yes"/>
  </way>
  <way id="11537716" version="4" timestamp="2008-08-14T11:52:53Z" uid="42123" user="Ropino" changeset="242069">
    <nd ref="102862486"/>
    <nd ref="102862481"/>
    <tag k="bridge" v="yes"/>
    <tag k="created_by" v="Potlatch 0.9c"/>
    <tag k="highway" v="motorway"/>
    <tag k="lanes" v="2"/>
    <tag k="layer" v="1"/>
    <tag k="oneway" v="yes"/>
    <tag k="ref" v="A 73"/>
  </way>
  <way id="11537716" version="5" timestamp="2009-10-27T11:56:44Z" uid="118856" user="staehler" changeset="2964550">
    <nd ref="102862486"/>
    <nd ref="102862481"/>
    <tag k="bridge" v="yes"/>
    <tag k="highway" v="motorway"/>
    <tag k="lanes" v="2"/>
    <tag k="layer" v="1"/>
    <tag k="name" v="Frankenschnellweg"/>
    <tag k="oneway" v="yes"/>
    <tag k="ref" v="A 73"/>
  </way>
  <way id="11537716" version="6" timestamp="2011-09-05T19:20:11Z" uid="497849" user="pyram" changeset="9221030">
    <nd ref="102862486"/>
    <nd ref="102862481"/>
    <tag k="bridge" v="yes"/>
    <tag k="highway" v="motorway"/>
    <tag k="lanes" v="2"/>
    <tag k="layer" v="1"/>
    <tag k="name" v="Frankenschnellweg"/>
    <tag k="note" v="not A 73, but signed as Autobahn"/>
    <tag k="oneway" v="yes"/>
  </way>
  <way id="11537716" version="7" timestamp="2011-12-04T16:08:35Z" uid="71557" user="Taroc" changeset="10034620"/>
  <way id="11537717" version="1" timestamp="2007-11-08T20:26:59Z" uid="6975" user="ulfl" changeset="441742">
    <nd ref="102862481"/>
    <nd ref="20946743"/>
    <nd ref="29209356"/>
    <nd ref="25418991"/>
    <nd ref="20946744"/>
    <nd ref="28384273"/>
    <tag k="created_by" v="JOSM"/>
    <tag k="highway" v="motorway"/>
    <tag k="name" v="A73"/>
    <tag k="oneway" v="true"/>
  </way>
  <way id="11537717" version="2" timestamp="2008-03-14T09:56:44Z" uid="22727" user="Frankst" changeset="323318">
    <nd ref="102862481"/>
    <nd ref="20946743"/>
    <nd ref="29209356"/>
    <nd ref="25418991"/>
    <nd ref="20946744"/>
    <nd ref="252053103"/>
    <nd ref="28384273"/>
    <tag k="created_by" v="JOSM"/>
    <tag k="highway" v="motorway"/>
    <tag k="name" v="A73"/>
    <tag k="oneway" v="true"/>
  </way>
  <way id="11537717" version="3" timestamp="2008-06-04T19:10:41Z" uid="24920" user="Schusch" changeset="49045">
    <nd ref="102862481"/>
    <nd ref="20946743"/>
    <nd ref="29209356"/>
    <nd ref="25418991"/>
    <nd ref="20946744"/>
    <nd ref="252053103"/>
    <nd ref="28384273"/>
    <tag k="created_by" v="Potlatch 0.9c"/>
    <tag k="highway" v="motorway"/>
    <tag k="name" v="A 73"/>
    <tag k="oneway" v="true"/>
  </way>
  <way id="11537717" version="4" timestamp="2008-08-14T10:49:12Z" uid="42123" user="Ropino" changeset="242069">
    <nd ref="102862481"/>
    <nd ref="20946743"/>
    <nd ref="29209356"/>
    <nd ref="252053103"/>
    <nd ref="28384273"/>
    <tag k="created_by" v="Potlatch 0.9c"/>
    <tag k="highway" v="motorway"/>
    <tag k="name" v="A 73"/>
    <tag k="oneway" v="true"/>
  </way>
  <way id="11537717" version="5" timestamp="2008-08-14T10:54:48Z" uid="42123" user="Ropino" changeset="242069">
    <nd ref="102862481"/>
    <nd ref="20946743"/>
    <nd ref="29209356"/>
    <nd ref="287851079"/>
    <nd ref="252053103"/>
    <nd ref="28384273"/>
    <tag k="created_by" v="Potlatch 0.9c"/>
    <tag k="highway" v="motorway"/>
    <tag k="name" v="A 73"/>
    <tag k="oneway" v="true"/>
  </way>
  <way id="11537717" version="6" timestamp="2008-08-14T11:14:57Z" uid="42123" user="Ropino" changeset="242069">
    <nd ref="102862481"/>
    <nd ref="20946743"/>
    <nd ref="29209356"/>
    <nd ref="287851079"/>
    <nd ref="252053103"/>
    <nd ref="28384273"/>
    <tag k="created_by" v="Potlatch 0.9c"/>
    <tag k="highway" v="motorway"/>
    <tag k="lanes" v="2"/>
    <tag k="name" v="A 73"/>
    <tag k="oneway" v="yes"/>
  </way>
  <way id="11537717" version="7" timestamp="2008-08-14T11:52:54Z" uid="42123" user="Ropino" changeset="242069">
    <nd ref="102862481"/>
    <nd ref="20946743"/>
    <nd ref="29209356"/>
    <nd ref="287851079"/>
    <nd ref="252053103"/>
    <nd ref="28384273"/>
    <tag k="created_by" v="Potlatch 0.9c"/>
    <tag k="highway" v="motorway"/>
    <tag k="lanes" v="2"/>
    <tag k="oneway" v="yes"/>
    <tag k="ref" v="A 73"/>
  </way>
  <way id="11537717" version="8" timestamp="2008-11-04T21:10:24Z" uid="17099" user="matmai" changeset="678510">
    <nd ref="102862481"/>
    <nd ref="309944936"/>
    <nd ref="20946743"/>
    <nd ref="29209356"/>
    <nd ref="309945115"/>
    <nd ref="309945122"/>
    <nd ref="287851079"/>
    <nd ref="309945193"/>
    <nd ref="309945181"/>
    <nd ref="252053103"/>
    <nd ref="309945153"/>
    <nd ref="28384273"/>
    <tag k="created_by" v="Potlatch 0.9c"/>
    <tag k="highway" v="motorway"/>
    <tag k="lanes" v="2"/>
    <tag k="oneway" v="yes"/>
    <tag k="ref" v="A 73"/>
  </way>
  <way id="11537717" version="9" timestamp="2009-06-07T19:40:18Z" uid="80526" user="frawe" changeset="1452869">
    <nd ref="102862481"/>
    <nd ref="309944936"/>
    <nd ref="20946743"/>
    <nd ref="29209356"/>
    <nd ref="309945115"/>
    <nd ref="309945122"/>
    <nd ref="287851079"/>
    <nd ref="309945193"/>
    <nd ref="309945181"/>
    <nd ref="252053103"/>
    <nd ref="309945153"/>
    <nd ref="28384273"/>
    <tag k="highway" v="motorway"/>
    <tag k="lanes" v="2"/>
    <tag k="oneway" v="yes"/>
    <tag k="ref" v="A 73"/>
  </way>
  <way id="11537717" version="10" timestamp="2009-10-27T11:56:44Z" uid="118856" user="staehler" changeset="2964550">
    <nd ref="102862481"/>
    <nd ref="309944936"/>
    <nd ref="20946743"/>
    <nd ref="29209356"/>
    <nd ref="309945115"/>
    <nd ref="309945122"/>
    <nd ref="287851079"/>
    <nd ref="309945193"/>
    <nd ref="309945181"/>
    <nd ref="252053103"/>
    <nd ref="309945153"/>
    <nd ref="28384273"/>
    <tag k="highway" v="motorway"/>
    <tag k="lanes" v="2"/>
    <tag k="name" v="Frankenschnellweg"/>
    <tag k="oneway" v="yes"/>
    <tag k="ref" v="A 73"/>
  </way>
  <way id="11537717" version="11" timestamp="2009-11-03T10:03:15Z" uid="118856" user="staehler" changeset="3023239">
    <nd ref="102862481"/>
    <nd ref="309944936"/>
    <nd ref="20946743"/>
    <nd ref="29209356"/>
    <nd ref="309945115"/>
    <nd ref="309945122"/>
    <nd ref="287851079"/>
    <nd ref="309945193"/>
    <nd ref="309945181"/>
    <nd ref="252053103"/>
    <nd ref="309945153"/>
    <nd ref="28384273"/>
    <nd ref="28384339"/>
    <tag k="highway" v="motorway"/>
    <tag k="lanes" v="2"/>
    <tag k="name" v="Frankenschnellweg"/>
    <tag k="oneway" v="yes"/>
    <tag k="ref" v="A 73"/>
  </way>
  <way id="11537717" version="12" timestamp="2011-09-05T19:20:11Z" uid="497849" user="pyram" changeset="9221030">
    <nd ref="102862481"/>
    <nd ref="309944936"/>
    <nd ref="20946743"/>
    <nd ref="29209356"/>
    <nd ref="309945115"/>
    <nd ref="309945122"/>
    <nd ref="287851079"/>
    <nd ref="309945193"/>
    <nd ref="309945181"/>
    <nd ref="252053103"/>
    <nd ref="309945153"/>
    <nd ref="28384273"/>
    <nd ref="28384339"/>
    <tag k="highway" v="motorway"/>
    <tag k="lanes" v="2"/>
    <tag k="name" v="Frankenschnellweg"/>
    <tag k="note" v="not A 73, but signed as Autobahn"/>
    <tag k="oneway" v="yes"/>
  </way>
  <way id="11537717" version="13" timestamp="2011-09-05T22:20:36Z" uid="497849" user="pyram" changeset="9222986">
    <nd ref="102862481"/>
    <nd ref="309944936"/>
    <nd ref="20946743"/>
    <nd ref="29209356"/>
    <nd ref="309945115"/>
    <nd ref="1424641865"/>
    <tag k="highway" v="motorway"/>
    <tag k="lanes" v="2"/>
    <tag k="name" v="Frankenschnellweg"/>
    <tag k="note" v="not A 73, but signed as Autobahn"/>
    <tag k="oneway" v="yes"/>
  </way>
  <way id="11537717" version="14" timestamp="2011-12-04T16:08:35Z" uid="71557" user="Taroc" changeset="10034620"/>
  <way id="11537718" version="1" timestamp="2007-11-08T20:27:00Z" uid="6975" user="ulfl" changeset="441742">
    <nd ref="102862478"/>
    <nd ref="102862484"/>
    <tag k="bridge" v="yes"/>
    <tag k="created_by" v="JOSM"/>
    <tag k="highway" v="motorway"/>
    <tag k="layer" v="1"/>
    <tag k="name" v="A73"/>
    <tag k="oneway" v="true"/>
  </way>
  <way id="11537718" version="2" timestamp="2008-06-04T19:15:39Z" uid="24920" user="Schusch" changeset="49045">
    <nd ref="102862478"/>
    <nd ref="102862484"/>
    <tag k="bridge" v="yes"/>
    <tag k="created_by" v="Potlatch 0.9c"/>
    <tag k="highway" v="motorway"/>
    <tag k="layer" v="1"/>
    <tag k="name" v="A 73"/>
    <tag k="oneway" v="true"/>
  </way>
  <way id="11537718" version="3" timestamp="2008-08-14T11:14:57Z" uid="42123" user="Ropino" changeset="242069">
    <nd ref="102862478"/>
    <nd ref="102862484"/>
    <tag k="bridge" v="yes"/>
    <tag k="created_by" v="Potlatch 0.9c"/>
    <tag k="highway" v="motorway"/>
    <tag k="lanes" v="2"/>
    <tag k="layer" v="1"/>
    <tag k="name" v="A 73"/>
    <tag k="oneway" v="yes"/>
  </way>
  <way id="11537718" version="4" timestamp="2008-08-14T11:52:54Z" uid="42123" user="Ropino" changeset="242069">
    <nd ref="102862478"/>
    <nd ref="102862484"/>
    <tag k="bridge" v="yes"/>
    <tag k="created_by" v="Potlatch 0.9c"/>
    <tag k="highway" v="motorway"/>
    <tag k="lanes" v="2"/>
    <tag k="layer" v="1"/>
    <tag k="oneway" v="yes"/>
    <tag k="ref" v="A 73"/>
  </way>
  <way id="11537718" version="5" timestamp="2009-10-27T11:56:44Z" uid="118856" user="staehler" changeset="2964550">
    <nd ref="102862478"/>
    <nd ref="102862484"/>
    <tag k="bridge" v="yes"/>
    <tag k="highway" v="motorway"/>
    <tag k="lanes" v="2"/>
    <tag k="layer" v="1"/>
    <tag k="name" v="Frankenschnellweg"/>
    <tag k="oneway" v="yes"/>
    <tag k="ref" v="A 73"/>
  </way>
  <way id="11537718" version="6" timestamp="2011-09-05T19:20:11Z" uid="497849" user="pyram" changeset="9221030">
    <nd ref="102862478"/>
    <nd ref="102862484"/>
    <tag k="bridge" v="yes"/>
    <tag k="highway" v="motorway"/>
    <tag k="lanes" v="2"/>
    <tag k="layer" v="1"/>
    <tag k="name" v="Frankenschnellweg"/>
    <tag k="note" v="not A 73, but signed as Autobahn"/>
    <tag k="oneway" v="yes"/>
  </way>
  <way id="11537718" version="7" timestamp="2011-12-04T16:08:35Z" uid="71557" user="Taroc" changeset="10034620"/>
  <way id="11537719" version="1" timestamp="2007-11-08T20:27:00Z" uid="6975" user="ulfl" changeset="441742">
    <nd ref="102862484"/>
    <nd ref="15848396"/>
    <nd ref="15848400"/>
    <nd ref="15848399"/>
    <tag k="created_by" v="JOSM"/>
    <tag k="highway" v="motorway"/>
    <tag k="name" v="A73"/>
    <tag k="oneway" v="true"/>
  </way>
  <way id="11537719" version="2" timestamp="2007-12-12T22:59:32Z" uid="17099" user="matmai" changeset="290175"/>
</osm>
