<?xml version='1.0' encoding='UTF-8'?>
<osm version="0.6" generator="libosmium/2.20.0">
  <way id="115641547" version="1" timestamp="2011-05-30T15:43:21Z" uid="115477" user="wowik" changeset="8292512">
    <nd ref="1305935789"/>
    <nd ref="1305935800"/>
    <nd ref="1305935797"/>
    <nd ref="1305935859"/>
    <nd ref="1305935789"/>
    <tag k="building" v="yes"/>
    <tag k="name" v="rusroza.ru"/>
    <tag k="shop" v="garden_centre"/>
    <tag k="website" v="rusroza.ru"/>
  </way>
  <way id="115641547" version="2" timestamp="2011-12-12T14:27:35Z" uid="126304" user="TarzanASG" changeset="10099449">
    <nd ref="1305935789"/>
    <nd ref="1305935800"/>
    <nd ref="1305935797"/>
    <nd ref="1305935859"/>
    <nd ref="1305935789"/>
    <tag k="building" v="store"/>
    <tag k="name" v="rusroza.ru"/>
    <tag k="shop" v="garden_centre"/>
    <tag k="website" v="rusroza.ru"/>
  </way>
  <way id="115641547" version="3" timestamp="2011-12-12T17:19:00Z" uid="126304" user="TarzanASG" changeset="10100388">
    <nd ref="1305935789"/>
    <nd ref="1305935800"/>
    <nd ref="1305935797"/>
    <nd ref="1305935859"/>
    <nd ref="1305935789"/>
    <tag k="building" v="retail"/>
    <tag k="name" v="rusroza.ru"/>
    <tag k="shop" v="garden_centre"/>
    <tag k="website" v="rusroza.ru"/>
  </way>
  <way id="115641547" version="4" timestamp="2011-12-14T12:51:55Z" uid="143266" user="Sergey Astakhov" changeset="10115724">
    <nd ref="1305935789"/>
    <nd ref="1305935800"/>
    <nd ref="1305935797"/>
    <nd ref="1305935859"/>
    <nd ref="1305935789"/>
    <tag k="building" v="store"/>
    <tag k="name" v="rusroza.ru"/>
    <tag k="shop" v="garden_centre"/>
    <tag k="website" v="rusroza.ru"/>
  </way>
  <way id="115641547" version="5" timestamp="2011-12-14T14:00:53Z" uid="143266" user="Sergey Astakhov" changeset="10116192">
    <nd ref="1305935789"/>
    <nd ref="1305935800"/>
    <nd ref="1305935797"/>
    <nd ref="1305935859"/>
    <nd ref="1305935789"/>
    <tag k="building" v="yes"/>
    <tag k="name" v="rusroza.ru"/>
    <tag k="shop" v="garden_centre"/>
    <tag k="website" v="rusroza.ru"/>
  </way>
  <way id="115641548" version="1" timestamp="2011-05-30T15:43:21Z" uid="115477" user="wowik" changeset="8292512">
    <nd ref="1305935791"/>
    <nd ref="1305935825"/>
    <nd ref="1305935777"/>
    <nd ref="1305935862"/>
    <nd ref="1305935843"/>
    <nd ref="1305935785"/>
    <nd ref="1305935832"/>
    <nd ref="1305935781"/>
    <nd ref="1305935791"/>
    <tag k="barrier" v="wall"/>
    <tag k="genus" v="Rosa"/>
    <tag k="landuse" v="plant_nursery"/>
    <tag k="operator" v="rusroza.ru"/>
    <tag k="plant" v="flower"/>
  </way>
  <way id="115641549" version="1" timestamp="2011-05-30T15:43:21Z" uid="115477" user="wowik" changeset="8292512">
    <nd ref="1305935787"/>
    <nd ref="1305935847"/>
    <nd ref="1305935865"/>
    <nd ref="1305935856"/>
    <nd ref="1305935787"/>
    <tag k="building" v="yes"/>
  </way>
  <way id="115641550" version="1" timestamp="2011-05-30T15:43:21Z" uid="115477" user="wowik" changeset="8292512">
    <nd ref="1305935847"/>
    <nd ref="1305935836"/>
    <nd ref="1305935793"/>
    <nd ref="1305935865"/>
    <nd ref="1305935847"/>
    <tag k="building" v="yes"/>
  </way>
  <way id="115641551" version="1" timestamp="2011-05-30T15:43:22Z" uid="115477" user="wowik" changeset="8292512">
    <nd ref="1305935839"/>
    <nd ref="1305935852"/>
    <nd ref="1305935793"/>
    <nd ref="1305935836"/>
    <nd ref="1305935839"/>
    <tag k="building" v="yes"/>
  </way>
</osm>
