<?xml version='1.0' encoding='UTF-8'?>
<osm version="0.6" generator="libosmium/2.20.0">
  <way id="115742004" version="1" timestamp="2011-05-31T14:01:05Z" uid="115477" user="wowik" changeset="8301336">
    <nd ref="1306793656"/>
    <nd ref="1306793669"/>
    <nd ref="1306793630"/>
    <nd ref="1306793693"/>
    <nd ref="1306793662"/>
    <nd ref="1306793625"/>
    <nd ref="1306793678"/>
    <nd ref="1306793671"/>
    <nd ref="1306793633"/>
    <nd ref="1306793687"/>
    <nd ref="1306793641"/>
    <nd ref="1306793664"/>
    <nd ref="1306793656"/>
    <tag k="addr:city" v="Москва"/>
    <tag k="addr:country" v="RU"/>
    <tag k="addr:housenumber" v="2Б с4"/>
    <tag k="addr:street" v="Ленинградское шоссе"/>
    <tag k="building" v="yes"/>
  </way>
  <way id="115742004" version="2" timestamp="2011-05-31T14:36:45Z" uid="115477" user="wowik" changeset="8301336">
    <nd ref="1306793656"/>
    <nd ref="1306793669"/>
    <nd ref="1306793630"/>
    <nd ref="1306793693"/>
    <nd ref="1306793662"/>
    <nd ref="1306793625"/>
    <nd ref="1306793678"/>
    <nd ref="1306793671"/>
    <nd ref="1306793633"/>
    <nd ref="1306793687"/>
    <nd ref="1306793641"/>
    <nd ref="1306793664"/>
    <nd ref="1306793656"/>
    <tag k="addr:city" v="Москва"/>
    <tag k="addr:country" v="RU"/>
    <tag k="addr:housenumber" v="2Б с4"/>
    <tag k="addr:street" v="Ленинградское шоссе"/>
    <tag k="building" v="yes"/>
    <tag k="source" v="ggk"/>
  </way>
  <way id="115742005" version="1" timestamp="2011-05-31T14:01:05Z" uid="115477" user="wowik" changeset="8301336">
    <nd ref="1306793636"/>
    <nd ref="1306793659"/>
    <nd ref="1306793699"/>
    <nd ref="1306793668"/>
    <nd ref="1306793684"/>
    <nd ref="1306793640"/>
    <nd ref="1306793636"/>
    <tag k="addr:city" v="Москва"/>
    <tag k="addr:country" v="RU"/>
    <tag k="addr:housenumber" v="2Б с4"/>
    <tag k="addr:street" v="Ленинградское шоссе"/>
    <tag k="building" v="yes"/>
  </way>
  <way id="115742005" version="2" timestamp="2011-05-31T14:36:48Z" uid="115477" user="wowik" changeset="8301336">
    <nd ref="1306793636"/>
    <nd ref="1306793659"/>
    <nd ref="1306793699"/>
    <nd ref="1306793668"/>
    <nd ref="1306793684"/>
    <nd ref="1306793640"/>
    <nd ref="1306793636"/>
    <tag k="addr:city" v="Москва"/>
    <tag k="addr:country" v="RU"/>
    <tag k="addr:housenumber" v="2Б с4"/>
    <tag k="addr:street" v="Ленинградское шоссе"/>
    <tag k="building" v="yes"/>
    <tag k="source" v="ggk"/>
  </way>
  <way id="115742969" version="1" timestamp="2011-05-31T14:10:45Z" uid="115477" user="wowik" changeset="8301336">
    <nd ref="1306803035"/>
    <nd ref="1306802986"/>
    <nd ref="1306802996"/>
    <nd ref="1306803045"/>
    <nd ref="1306803035"/>
    <tag k="addr:city" v="Москва"/>
    <tag k="addr:country" v="RU"/>
    <tag k="building" v="yes"/>
    <tag k="source" v="ggk"/>
  </way>
  <way id="115742970" version="1" timestamp="2011-05-31T14:10:45Z" uid="115477" user="wowik" changeset="8301336">
    <nd ref="939143102"/>
    <nd ref="1306802993"/>
    <nd ref="1306803051"/>
    <nd ref="939143040"/>
    <nd ref="939143102"/>
    <tag k="addr:city" v="Москва"/>
    <tag k="addr:country" v="RU"/>
    <tag k="addr:housenumber" v="80 к11"/>
    <tag k="addr:postcode" v="125315"/>
    <tag k="addr:street" v="Ленинградский проспект"/>
    <tag k="building" v="yes"/>
    <tag k="man_made" v="works"/>
    <tag k="source" v="ggk"/>
  </way>
  <way id="115742971" version="1" timestamp="2011-05-31T14:10:46Z" uid="115477" user="wowik" changeset="8301336">
    <nd ref="939143098"/>
    <nd ref="1306802998"/>
    <nd ref="1306803050"/>
    <nd ref="1306803041"/>
    <nd ref="1306803006"/>
    <nd ref="1306802973"/>
    <nd ref="1306803024"/>
    <nd ref="939143098"/>
    <tag k="addr:city" v="Москва"/>
    <tag k="addr:country" v="RU"/>
    <tag k="addr:postcode" v="125315"/>
    <tag k="addr:street" v="Ленинградский проспект"/>
    <tag k="building" v="yes"/>
    <tag k="man_made" v="works"/>
    <tag k="source" v="ggk"/>
  </way>
  <way id="115742971" version="2" timestamp="2011-05-31T15:29:34Z" uid="115477" user="wowik" changeset="8301336">
    <nd ref="939143098"/>
    <nd ref="1306802998"/>
    <nd ref="1306803050"/>
    <nd ref="1306803041"/>
    <nd ref="1306803006"/>
    <nd ref="1306802973"/>
    <nd ref="1306803024"/>
    <nd ref="939143098"/>
    <tag k="addr:city" v="Москва"/>
    <tag k="addr:country" v="RU"/>
    <tag k="addr:housenumber" v="80 к40"/>
    <tag k="addr:street" v="Ленинградский проспект"/>
    <tag k="building" v="yes"/>
    <tag k="source" v="ggk"/>
  </way>
  <way id="115742972" version="1" timestamp="2011-05-31T14:10:46Z" uid="115477" user="wowik" changeset="8301336">
    <nd ref="1306803000"/>
    <nd ref="1306803032"/>
    <nd ref="1306803010"/>
    <nd ref="1306802975"/>
    <nd ref="1306803000"/>
    <tag k="addr:city" v="Москва"/>
    <tag k="addr:country" v="RU"/>
    <tag k="building" v="yes"/>
    <tag k="source" v="ggk"/>
  </way>
  <way id="115742973" version="1" timestamp="2011-05-31T14:10:46Z" uid="115477" user="wowik" changeset="8301336">
    <nd ref="1306802990"/>
    <nd ref="1306803004"/>
    <nd ref="1306803001"/>
    <nd ref="1306803058"/>
    <nd ref="1306803015"/>
    <nd ref="1306802982"/>
    <nd ref="1306802995"/>
    <nd ref="1306803043"/>
    <nd ref="1306803008"/>
    <nd ref="1306802974"/>
    <nd ref="1306803063"/>
    <nd ref="1306803018"/>
    <nd ref="1306802990"/>
    <tag k="addr:city" v="Москва"/>
    <tag k="addr:country" v="RU"/>
    <tag k="building" v="yes"/>
    <tag k="source" v="ggk"/>
  </way>
  <way id="115742973" version="2" timestamp="2011-05-31T15:29:32Z" uid="115477" user="wowik" changeset="8301336">
    <nd ref="1306802990"/>
    <nd ref="1306803004"/>
    <nd ref="1306803001"/>
    <nd ref="1306803058"/>
    <nd ref="1306803015"/>
    <nd ref="1306802982"/>
    <nd ref="1306802995"/>
    <nd ref="1306803043"/>
    <nd ref="1306803008"/>
    <nd ref="1306802974"/>
    <nd ref="1306803063"/>
    <nd ref="1306803018"/>
    <nd ref="1306802990"/>
    <tag k="addr:city" v="Москва"/>
    <tag k="addr:country" v="RU"/>
    <tag k="addr:housenumber" v="80 к42А"/>
    <tag k="addr:street" v="Ленинградский проспект"/>
    <tag k="building" v="yes"/>
    <tag k="source" v="ggk"/>
  </way>
  <way id="115742974" version="1" timestamp="2011-05-31T14:10:46Z" uid="115477" user="wowik" changeset="8301336">
    <nd ref="1306803065"/>
    <nd ref="1306803020"/>
    <nd ref="1306802988"/>
    <nd ref="1306802984"/>
    <nd ref="1306803065"/>
    <tag k="addr:city" v="Москва"/>
    <tag k="addr:country" v="RU"/>
    <tag k="building" v="yes"/>
    <tag k="source" v="ggk"/>
  </way>
</osm>
