<?xml version='1.0' encoding='UTF-8'?>
<osm version="0.6" generator="libosmium/2.20.0">
  <way id="11606044" version="8" timestamp="2010-03-20T17:12:59Z" uid="74617" user="JohnSmith" changeset="4182203">
    <nd ref="103538010"/>
    <nd ref="103538012"/>
    <nd ref="103538013"/>
    <nd ref="77661220"/>
    <tag k="highway" v="primary"/>
    <tag k="name" v="Bennetts Road"/>
    <tag k="oneway" v="yes"/>
  </way>
  <way id="11606044" version="9" timestamp="2010-06-20T05:29:39Z" uid="22094" user="Chadzopkyo" changeset="5029678">
    <nd ref="103538010"/>
    <nd ref="103538012"/>
    <nd ref="777854653"/>
    <nd ref="103538013"/>
    <nd ref="777854670"/>
    <nd ref="77661220"/>
    <tag k="highway" v="primary"/>
    <tag k="name" v="Bennetts Road"/>
    <tag k="oneway" v="yes"/>
  </way>
  <way id="11606044" version="10" timestamp="2011-08-04T22:52:46Z" uid="349913" user="Peter W34" changeset="8924239">
    <nd ref="103538010"/>
    <nd ref="103538012"/>
    <nd ref="777854653"/>
    <nd ref="103538013"/>
    <nd ref="777854670"/>
    <nd ref="77661220"/>
    <tag k="highway" v="primary"/>
    <tag k="maxspeed" v="60"/>
    <tag k="name" v="Bennetts Road"/>
    <tag k="oneway" v="yes"/>
  </way>
  <way id="11606076" version="7" timestamp="2009-07-25T03:46:50Z" uid="74617" user="JohnSmith" changeset="1930582">
    <nd ref="103531481"/>
    <nd ref="269654835"/>
    <nd ref="103531483"/>
    <nd ref="103531484"/>
    <nd ref="103531485"/>
    <nd ref="103531486"/>
    <nd ref="103538976"/>
    <nd ref="103538977"/>
    <nd ref="103538978"/>
    <nd ref="103575923"/>
    <tag k="highway" v="secondary"/>
    <tag k="name" v="Mountjoy Terrace"/>
  </way>
  <way id="11606076" version="8" timestamp="2009-08-12T02:02:44Z" uid="4467" user="Rosscoe" changeset="2114186"/>
  <way id="11606194" version="9" timestamp="2010-03-20T17:12:58Z" uid="74617" user="JohnSmith" changeset="4182203">
    <nd ref="77661220"/>
    <nd ref="77662862"/>
    <tag k="highway" v="primary"/>
    <tag k="name" v="Wynnum Road"/>
    <tag k="oneway" v="yes"/>
  </way>
  <way id="11606194" version="10" timestamp="2011-08-04T22:52:48Z" uid="349913" user="Peter W34" changeset="8924239">
    <nd ref="77661220"/>
    <nd ref="77662862"/>
    <tag k="highway" v="primary"/>
    <tag k="maxspeed" v="60"/>
    <tag k="name" v="Wynnum Road"/>
    <tag k="oneway" v="yes"/>
  </way>
  <way id="11606209" version="7" timestamp="2010-03-20T17:12:59Z" uid="74617" user="JohnSmith" changeset="4182203">
    <nd ref="77662862"/>
    <nd ref="103538016"/>
    <nd ref="103538018"/>
    <nd ref="103540260"/>
    <tag k="highway" v="primary"/>
    <tag k="name" v="Riding Road"/>
    <tag k="oneway" v="yes"/>
  </way>
  <way id="11606209" version="8" timestamp="2011-08-04T22:52:48Z" uid="349913" user="Peter W34" changeset="8924239">
    <nd ref="77662862"/>
    <nd ref="103538016"/>
    <nd ref="103538018"/>
    <nd ref="103540260"/>
    <tag k="highway" v="primary"/>
    <tag k="maxspeed" v="60"/>
    <tag k="name" v="Riding Road"/>
    <tag k="oneway" v="yes"/>
  </way>
  <way id="11606254" version="6" timestamp="2010-03-20T17:12:59Z" uid="74617" user="JohnSmith" changeset="4182203">
    <nd ref="103540260"/>
    <nd ref="103540526"/>
    <nd ref="103540527"/>
    <nd ref="77662863"/>
    <nd ref="77661086"/>
    <tag k="highway" v="primary"/>
    <tag k="name" v="Riding Road"/>
    <tag k="oneway" v="yes"/>
  </way>
  <way id="11606254" version="7" timestamp="2010-06-16T05:16:10Z" uid="22094" user="Chadzopkyo" changeset="4997517">
    <nd ref="103540260"/>
    <nd ref="103540526"/>
    <nd ref="103540527"/>
    <nd ref="77662863"/>
    <tag k="highway" v="primary"/>
    <tag k="name" v="Riding Road"/>
    <tag k="oneway" v="yes"/>
  </way>
  <way id="11606254" version="8" timestamp="2011-08-04T22:52:49Z" uid="349913" user="Peter W34" changeset="8924239">
    <nd ref="103540260"/>
    <nd ref="103540526"/>
    <nd ref="103540527"/>
    <nd ref="77662863"/>
    <tag k="highway" v="primary"/>
    <tag k="maxspeed" v="60"/>
    <tag k="name" v="Riding Road"/>
    <tag k="oneway" v="yes"/>
  </way>
  <way id="11606484" version="26" timestamp="2010-03-20T17:12:57Z" uid="74617" user="JohnSmith" changeset="4182203">
    <nd ref="103540260"/>
    <nd ref="170813805"/>
    <nd ref="103543588"/>
    <nd ref="170816553"/>
    <nd ref="103543590"/>
    <nd ref="103543591"/>
    <nd ref="103543592"/>
    <nd ref="170817670"/>
    <nd ref="103543593"/>
    <nd ref="170821352"/>
    <nd ref="103543594"/>
    <nd ref="103543595"/>
    <nd ref="103543596"/>
    <nd ref="170819433"/>
    <nd ref="337306172"/>
    <nd ref="103543597"/>
    <nd ref="337305781"/>
    <nd ref="171937695"/>
    <nd ref="337305376"/>
    <nd ref="103543598"/>
    <nd ref="103543599"/>
    <nd ref="171940481"/>
    <nd ref="337305842"/>
    <nd ref="103543600"/>
    <nd ref="103543601"/>
    <nd ref="103543602"/>
    <nd ref="202048069"/>
    <nd ref="202048071"/>
    <nd ref="202057382"/>
    <nd ref="103543604"/>
    <nd ref="103543606"/>
    <nd ref="103543607"/>
    <nd ref="103543608"/>
    <nd ref="103543609"/>
    <nd ref="103543610"/>
    <nd ref="103543611"/>
    <nd ref="170929130"/>
    <nd ref="103543612"/>
    <nd ref="170928726"/>
    <nd ref="170927921"/>
    <nd ref="103543613"/>
    <nd ref="103543614"/>
    <tag k="cycleway" v="lane"/>
    <tag k="highway" v="primary"/>
    <tag k="maxspeed" v="60"/>
    <tag k="name" v="Riding Road"/>
  </way>
  <way id="11606484" version="27" timestamp="2010-06-20T05:29:42Z" uid="22094" user="Chadzopkyo" changeset="5029678">
    <nd ref="103540260"/>
    <nd ref="170813805"/>
    <nd ref="103543588"/>
    <nd ref="170816553"/>
    <nd ref="103543590"/>
    <nd ref="103543591"/>
    <nd ref="103543592"/>
    <nd ref="170817670"/>
    <nd ref="103543593"/>
    <nd ref="170821352"/>
    <nd ref="103543594"/>
    <nd ref="103543595"/>
    <nd ref="103543596"/>
    <nd ref="170819433"/>
    <nd ref="337306172"/>
    <nd ref="103543597"/>
    <nd ref="337305781"/>
    <nd ref="171937695"/>
    <nd ref="337305376"/>
    <nd ref="103543598"/>
    <nd ref="103543599"/>
    <nd ref="171940481"/>
    <nd ref="337305842"/>
    <nd ref="103543600"/>
    <nd ref="103543601"/>
    <nd ref="777854663"/>
    <nd ref="103543602"/>
    <nd ref="202048069"/>
    <nd ref="202048071"/>
    <nd ref="202057382"/>
    <nd ref="103543604"/>
    <nd ref="777854671"/>
    <nd ref="777854667"/>
    <nd ref="103543606"/>
    <nd ref="103543607"/>
    <nd ref="103543608"/>
    <nd ref="777854674"/>
    <nd ref="103543609"/>
    <nd ref="103543610"/>
    <nd ref="103543611"/>
    <nd ref="170929130"/>
    <nd ref="103543612"/>
    <nd ref="170928726"/>
    <nd ref="170927921"/>
    <nd ref="103543613"/>
    <nd ref="103543614"/>
    <tag k="cycleway" v="lane"/>
    <tag k="highway" v="primary"/>
    <tag k="maxspeed" v="60"/>
    <tag k="name" v="Riding Road"/>
  </way>
  <way id="11606659" version="7" timestamp="2008-06-04T23:01:35Z" uid="36809" user="pfoten_weg_!_" changeset="53742">
    <nd ref="103563791"/>
    <nd ref="103563808"/>
    <nd ref="138889223"/>
    <nd ref="103563804"/>
    <nd ref="103563803"/>
    <nd ref="103563800"/>
    <nd ref="103563795"/>
    <nd ref="103563792"/>
    <nd ref="122405854"/>
    <tag k="created_by" v="Potlatch 0.9c"/>
    <tag k="highway" v="secondary"/>
    <tag k="name" v="Forstenrieder Straße"/>
    <tag k="oneway" v="true"/>
  </way>
  <way id="11606659" version="8" timestamp="2008-07-05T16:41:13Z" uid="36809" user="pfoten_weg_!_" changeset="397984">
    <nd ref="103563791"/>
    <nd ref="103563808"/>
    <nd ref="138889223"/>
    <nd ref="103563804"/>
    <nd ref="103563803"/>
    <nd ref="103563800"/>
    <nd ref="103563795"/>
    <nd ref="122405854"/>
    <tag k="created_by" v="Potlatch 0.9c"/>
    <tag k="highway" v="secondary"/>
    <tag k="name" v="Forstenrieder Straße"/>
    <tag k="oneway" v="true"/>
  </way>
  <way id="11606659" version="9" timestamp="2008-07-05T18:56:43Z" uid="36809" user="pfoten_weg_!_" changeset="401798">
    <nd ref="103563791"/>
    <nd ref="103563808"/>
    <nd ref="138889223"/>
    <nd ref="103563804"/>
    <nd ref="103563803"/>
    <nd ref="103563800"/>
    <nd ref="103563795"/>
    <nd ref="122405854"/>
    <tag k="created_by" v="Potlatch 0.9c"/>
    <tag k="highway" v="secondary"/>
    <tag k="name" v="Forstenrieder Straße"/>
    <tag k="oneway" v="true"/>
  </way>
  <way id="11606659" version="10" timestamp="2008-07-26T18:43:49Z" uid="39150" user="account_deleted_1011" changeset="601286">
    <nd ref="103563791"/>
    <nd ref="103563808"/>
    <nd ref="138889223"/>
    <nd ref="103563804"/>
    <nd ref="103563803"/>
    <nd ref="103563800"/>
    <nd ref="103563795"/>
    <nd ref="281259986"/>
    <nd ref="122405854"/>
    <tag k="created_by" v="Potlatch 0.9c"/>
    <tag k="highway" v="secondary"/>
    <tag k="name" v="Forstenrieder Straße"/>
    <tag k="oneway" v="true"/>
  </way>
  <way id="11606659" version="11" timestamp="2008-09-22T01:06:08Z" uid="36809" user="pfoten_weg_!_" changeset="678890">
    <nd ref="103563791"/>
    <nd ref="103563808"/>
    <nd ref="138889223"/>
    <nd ref="103563804"/>
    <nd ref="103563803"/>
    <nd ref="103563800"/>
    <nd ref="103563795"/>
    <nd ref="281259986"/>
    <nd ref="122405854"/>
    <tag k="created_by" v="Potlatch 0.9c"/>
    <tag k="highway" v="secondary"/>
    <tag k="name" v="Forstenrieder Straße"/>
    <tag k="oneway" v="true"/>
  </way>
  <way id="11606659" version="12" timestamp="2008-10-01T02:11:13Z" uid="36809" user="pfoten_weg_!_" changeset="5644">
    <nd ref="103563791"/>
    <nd ref="103563808"/>
    <nd ref="138889223"/>
    <nd ref="103563804"/>
    <nd ref="103563803"/>
    <nd ref="103563800"/>
    <nd ref="103563795"/>
    <nd ref="281259986"/>
    <nd ref="122405854"/>
    <tag k="created_by" v="RambaZamba"/>
    <tag k="highway" v="secondary"/>
    <tag k="name" v="Forstenrieder Straße"/>
    <tag k="oneway" v="true"/>
  </way>
  <way id="11606659" version="13" timestamp="2009-01-27T13:03:36Z" uid="44811" user="laufstar1" changeset="843970">
    <nd ref="103563791"/>
    <nd ref="103563808"/>
    <nd ref="138889223"/>
    <nd ref="103563804"/>
    <nd ref="103563803"/>
    <nd ref="103563800"/>
    <nd ref="103563795"/>
    <nd ref="281259986"/>
    <nd ref="122405854"/>
    <tag k="created_by" v="Potlatch 0.10f"/>
    <tag k="highway" v="secondary"/>
    <tag k="maxspeed" v="50"/>
    <tag k="name" v="Forstenrieder Straße"/>
    <tag k="oneway" v="true"/>
  </way>
  <way id="11606659" version="14" timestamp="2009-03-25T03:18:13Z" uid="106615" user="matafumar" changeset="855469">
    <nd ref="103563791"/>
    <nd ref="103563808"/>
    <nd ref="138889223"/>
    <nd ref="103563804"/>
    <nd ref="103563803"/>
    <nd ref="103563800"/>
    <nd ref="103563795"/>
    <nd ref="365484587"/>
    <nd ref="281259986"/>
    <nd ref="122405854"/>
    <tag k="created_by" v="Potlatch 0.10f"/>
    <tag k="highway" v="secondary"/>
    <tag k="maxspeed" v="50"/>
    <tag k="name" v="Forstenrieder Straße"/>
    <tag k="oneway" v="true"/>
  </way>
  <way id="11606659" version="15" timestamp="2009-03-30T03:49:16Z" uid="36809" user="pfoten_weg_!_" changeset="869124">
    <nd ref="103563791"/>
    <nd ref="103563808"/>
    <nd ref="138889223"/>
    <nd ref="103563804"/>
    <nd ref="103563803"/>
    <nd ref="367130584"/>
    <nd ref="103563795"/>
    <nd ref="367130571"/>
    <nd ref="365484587"/>
    <nd ref="281259986"/>
    <nd ref="122405854"/>
    <tag k="created_by" v="Potlatch 0.10f"/>
    <tag k="highway" v="secondary"/>
    <tag k="maxspeed" v="50"/>
    <tag k="name" v="Forstenrieder Straße"/>
    <tag k="oneway" v="true"/>
  </way>
  <way id="11606659" version="16" timestamp="2009-04-11T14:17:28Z" uid="7596" user="ck3d" changeset="406628">
    <nd ref="103563791"/>
    <nd ref="103563808"/>
    <nd ref="138889223"/>
    <nd ref="103563804"/>
    <nd ref="103563803"/>
    <nd ref="367130584"/>
    <nd ref="103563795"/>
    <nd ref="367130571"/>
    <nd ref="365484587"/>
    <nd ref="281259986"/>
    <nd ref="122405854"/>
    <tag k="created_by" v="Potlatch 0.10f"/>
    <tag k="highway" v="secondary"/>
    <tag k="maxspeed" v="50"/>
    <tag k="name" v="Forstenrieder Straße"/>
    <tag k="oneway" v="true"/>
    <tag k="ref" v="St 2344"/>
  </way>
  <way id="11606659" version="17" timestamp="2009-04-17T00:39:25Z" uid="103885" user="logicbot" changeset="603450">
    <nd ref="103563791"/>
    <nd ref="103563808"/>
    <nd ref="138889223"/>
    <nd ref="103563804"/>
    <nd ref="103563803"/>
    <nd ref="367130584"/>
    <nd ref="103563795"/>
    <nd ref="367130571"/>
    <nd ref="365484587"/>
    <nd ref="281259986"/>
    <nd ref="122405854"/>
    <tag k="created_by" v="Potlatch 0.10f"/>
    <tag k="highway" v="secondary"/>
    <tag k="maxspeed" v="50"/>
    <tag k="name" v="Forstenrieder Straße"/>
    <tag k="oneway" v="yes"/>
    <tag k="ref" v="St 2344"/>
  </way>
  <way id="11606659" version="18" timestamp="2009-04-21T20:42:54Z" uid="118197" user="JosmJo" changeset="888486">
    <nd ref="103563791"/>
    <nd ref="103563808"/>
    <nd ref="138889223"/>
    <nd ref="103563804"/>
    <nd ref="103563803"/>
    <nd ref="367130584"/>
    <nd ref="379759261"/>
    <nd ref="103563795"/>
    <nd ref="367130571"/>
    <nd ref="365484587"/>
    <nd ref="281259986"/>
    <nd ref="122405854"/>
    <tag k="created_by" v="Potlatch 0.10f"/>
    <tag k="highway" v="secondary"/>
    <tag k="maxspeed" v="50"/>
    <tag k="name" v="Forstenrieder Straße"/>
    <tag k="oneway" v="yes"/>
    <tag k="ref" v="St 2344"/>
  </way>
  <way id="11606659" version="19" timestamp="2009-06-30T17:44:53Z" uid="118197" user="JosmJo" changeset="1694012">
    <nd ref="103563791"/>
    <nd ref="103563808"/>
    <nd ref="138889223"/>
    <nd ref="103563804"/>
    <nd ref="103563803"/>
    <nd ref="367130584"/>
    <nd ref="379759261"/>
    <nd ref="103563795"/>
    <nd ref="367130571"/>
    <nd ref="365484587"/>
    <nd ref="431253292"/>
    <nd ref="281259986"/>
    <nd ref="122405854"/>
    <tag k="created_by" v="Potlatch 0.10f"/>
    <tag k="highway" v="secondary"/>
    <tag k="maxspeed" v="50"/>
    <tag k="name" v="Forstenrieder Straße"/>
    <tag k="oneway" v="yes"/>
    <tag k="ref" v="St 2344"/>
  </way>
  <way id="11606659" version="20" timestamp="2009-10-07T16:16:50Z" uid="86259" user="hasse_osm_korinthenkacker" changeset="2773292">
    <nd ref="103563791"/>
    <nd ref="103563808"/>
    <nd ref="138889223"/>
    <nd ref="103563804"/>
    <nd ref="103563803"/>
    <nd ref="367130584"/>
    <nd ref="379759261"/>
    <nd ref="103563795"/>
    <nd ref="367130571"/>
    <nd ref="365484587"/>
    <nd ref="431253292"/>
    <nd ref="281259986"/>
    <nd ref="122405854"/>
    <tag k="highway" v="secondary"/>
    <tag k="maxspeed" v="50"/>
    <tag k="name" v="Forstenrieder Straße"/>
    <tag k="oneway" v="yes"/>
    <tag k="ref" v="St 2344"/>
  </way>
  <way id="11606659" version="21" timestamp="2011-10-25T07:23:48Z" uid="482628" user="gumul" changeset="9649764">
    <nd ref="103563791"/>
    <nd ref="103563808"/>
    <nd ref="138889223"/>
    <nd ref="103563804"/>
    <nd ref="103563803"/>
    <nd ref="367130584"/>
    <nd ref="379759261"/>
    <nd ref="103563795"/>
    <nd ref="367130571"/>
    <nd ref="365484587"/>
    <nd ref="1479982442"/>
    <nd ref="431253292"/>
    <nd ref="281259986"/>
    <nd ref="122405854"/>
    <tag k="highway" v="secondary"/>
    <tag k="maxspeed" v="50"/>
    <tag k="name" v="Forstenrieder Straße"/>
    <tag k="oneway" v="yes"/>
    <tag k="ref" v="St 2344"/>
  </way>
  <way id="11606659" version="22" timestamp="2011-12-03T22:53:07Z" uid="554744" user="Catweazle2011" changeset="10029108">
    <nd ref="103563791"/>
    <nd ref="103563808"/>
    <nd ref="1530292385"/>
    <nd ref="138889223"/>
    <tag k="highway" v="secondary"/>
    <tag k="maxspeed" v="50"/>
    <tag k="name" v="Forstenrieder Straße"/>
    <tag k="oneway" v="yes"/>
    <tag k="ref" v="St 2344"/>
  </way>
  <way id="11606660" version="10" timestamp="2008-10-01T02:11:14Z" uid="36809" user="pfoten_weg_!_" changeset="5644">
    <nd ref="103545368"/>
    <nd ref="122377702"/>
    <nd ref="122036611"/>
    <nd ref="122495356"/>
    <nd ref="122394668"/>
    <nd ref="30781476"/>
    <nd ref="122432497"/>
    <nd ref="122393417"/>
    <nd ref="268866330"/>
    <nd ref="30781520"/>
    <tag k="created_by" v="RambaZamba"/>
    <tag k="highway" v="residential"/>
    <tag k="maxspeed" v="30"/>
    <tag k="name" v="Maxhofstraße"/>
  </way>
  <way id="11606660" version="11" timestamp="2008-10-16T08:31:37Z" uid="36809" user="pfoten_weg_!_" changeset="366961"/>
</osm>
