<?xml version='1.0' encoding='UTF-8'?>
<osm version="0.6" generator="libosmium/2.20.0">
  <way id="11635490" version="2" timestamp="2008-07-06T19:13:36Z" uid="6975" user="ulfl" changeset="415781">
    <nd ref="103900553"/>
    <nd ref="103900554"/>
    <nd ref="103900556"/>
    <nd ref="103900557"/>
    <nd ref="103900553"/>
    <tag k="leisure" v="pitch"/>
  </way>
  <way id="11635490" version="3" timestamp="2011-10-08T18:15:33Z" uid="308" user="MichaelCollinson" changeset="9504014"/>
  <way id="11635623" version="4" timestamp="2008-07-06T19:13:41Z" uid="6975" user="ulfl" changeset="415781">
    <nd ref="103901934"/>
    <nd ref="103901935"/>
    <nd ref="103901936"/>
    <nd ref="103901937"/>
    <nd ref="103901934"/>
    <tag k="leisure" v="pitch"/>
  </way>
  <way id="11635728" version="6" timestamp="2008-08-24T14:22:43Z" uid="7617" user="Franc" changeset="389881">
    <nd ref="32561403"/>
    <nd ref="29660176"/>
    <tag k="created_by" v="Potlatch 0.9c"/>
    <tag k="highway" v="primary"/>
    <tag k="maxspeed" v="60"/>
    <tag k="name" v="Boundary Street"/>
    <tag k="ref" v="S29"/>
  </way>
  <way id="11635728" version="7" timestamp="2010-04-01T17:46:58Z" uid="74617" user="JohnSmith" changeset="4295913">
    <nd ref="32561403"/>
    <nd ref="29660176"/>
    <tag k="highway" v="primary"/>
    <tag k="maxspeed" v="60"/>
    <tag k="name" v="Boundary Street"/>
  </way>
  <way id="11635728" version="8" timestamp="2012-02-01T01:53:46Z" uid="54784" user="Tom Hollander" changeset="10555431">
    <nd ref="32561403"/>
    <nd ref="29660176"/>
    <tag k="highway" v="primary"/>
    <tag k="maxspeed" v="60"/>
    <tag k="name" v="Boundary Street"/>
    <tag k="ref" v="SH29"/>
  </way>
  <way id="11635733" version="2" timestamp="2010-02-12T08:50:13Z" uid="74617" user="JohnSmith" changeset="3854473">
    <nd ref="103902858"/>
    <nd ref="25922648"/>
    <tag k="bridge" v="yes"/>
    <tag k="layer" v="1"/>
    <tag k="railway" v="rail"/>
    <tag k="source" v="nearmap"/>
  </way>
  <way id="11635733" version="3" timestamp="2011-12-22T06:12:11Z" uid="77586" user="wolftracker" changeset="10177071"/>
  <way id="11635737" version="3" timestamp="2010-02-12T08:50:12Z" uid="74617" user="JohnSmith" changeset="3854473">
    <nd ref="25922648"/>
    <nd ref="636831017"/>
    <nd ref="636831016"/>
    <nd ref="636831009"/>
    <nd ref="636831007"/>
    <nd ref="636831005"/>
    <nd ref="636831000"/>
    <nd ref="25922647"/>
    <nd ref="636830993"/>
    <nd ref="103906697"/>
    <tag k="railway" v="rail"/>
    <tag k="source" v="nearmap"/>
  </way>
  <way id="11635737" version="4" timestamp="2011-12-22T06:12:08Z" uid="77586" user="wolftracker" changeset="10177071"/>
  <way id="11635740" version="2" timestamp="2010-02-12T08:50:12Z" uid="74617" user="JohnSmith" changeset="3854473">
    <nd ref="25922649"/>
    <nd ref="26705449"/>
    <nd ref="103902858"/>
    <tag k="railway" v="rail"/>
    <tag k="source" v="nearmap"/>
  </way>
  <way id="11635740" version="3" timestamp="2011-12-22T06:12:11Z" uid="77586" user="wolftracker" changeset="10177071"/>
  <way id="11635742" version="2" timestamp="2010-02-12T08:50:13Z" uid="74617" user="JohnSmith" changeset="3854473">
    <nd ref="103902866"/>
    <nd ref="25922649"/>
    <tag k="bridge" v="yes"/>
    <tag k="layer" v="1"/>
    <tag k="railway" v="rail"/>
    <tag k="source" v="nearmap"/>
  </way>
  <way id="11635742" version="3" timestamp="2011-12-22T06:12:09Z" uid="77586" user="wolftracker" changeset="10177071"/>
  <way id="11635743" version="2" timestamp="2009-12-18T07:29:11Z" uid="30201" user="rrankin" changeset="3398669">
    <nd ref="103902896"/>
    <nd ref="103902915"/>
    <tag k="highway" v="residential"/>
    <tag k="name" v="Ashley Street"/>
    <tag k="source" v="yahoo_imagery"/>
  </way>
  <way id="11635743" version="3" timestamp="2010-02-25T10:18:56Z" uid="7617" user="Franc" changeset="3970215">
    <nd ref="103902896"/>
    <nd ref="653177179"/>
    <nd ref="103902915"/>
    <tag k="highway" v="residential"/>
    <tag k="name" v="Ashley Street"/>
    <tag k="source" v="yahoo_imagery"/>
  </way>
  <way id="11635743" version="4" timestamp="2010-03-14T08:52:44Z" uid="7617" user="Franc" changeset="4121833">
    <nd ref="665740476"/>
    <nd ref="103902896"/>
    <nd ref="653177179"/>
    <nd ref="103902915"/>
    <tag k="highway" v="residential"/>
    <tag k="name" v="Ashley Street"/>
    <tag k="source" v="yahoo_imagery"/>
  </way>
  <way id="11635743" version="5" timestamp="2010-07-08T00:21:22Z" uid="74617" user="JohnSmith" changeset="5162525">
    <nd ref="665740476"/>
    <nd ref="103902896"/>
    <nd ref="653177179"/>
    <nd ref="103902915"/>
    <tag k="highway" v="residential"/>
    <tag k="maxspeed" v="50"/>
    <tag k="maxspeed:source" v="default residential speed limit in Australia"/>
    <tag k="name" v="Ashley Street"/>
    <tag k="source" v="yahoo_imagery"/>
  </way>
  <way id="11635743" version="6" timestamp="2011-06-18T21:29:30Z" uid="7617" user="Franc" changeset="8478321">
    <nd ref="665740476"/>
    <nd ref="103902896"/>
    <tag k="highway" v="residential"/>
    <tag k="maxspeed" v="50"/>
    <tag k="maxspeed:source" v="default residential speed limit in Australia"/>
    <tag k="name" v="Ashley Street"/>
    <tag k="source" v="yahoo_imagery"/>
  </way>
  <way id="11635743" version="7" timestamp="2012-01-15T10:49:21Z" uid="147510" user="woodpeck_fixbot" changeset="10396281">
    <nd ref="665740476"/>
    <nd ref="103902896"/>
    <tag k="highway" v="residential"/>
    <tag k="name" v="Ashley Street"/>
    <tag k="source" v="yahoo_imagery"/>
  </way>
  <way id="11635745" version="2" timestamp="2009-12-18T07:29:10Z" uid="30201" user="rrankin" changeset="3398669">
    <nd ref="103902915"/>
    <nd ref="103902928"/>
    <tag k="bridge" v="yes"/>
    <tag k="highway" v="residential"/>
    <tag k="layer" v="1"/>
    <tag k="name" v="Ashley Street"/>
    <tag k="source" v="yahoo_imagery"/>
  </way>
  <way id="11635745" version="3" timestamp="2010-07-08T00:24:54Z" uid="74617" user="JohnSmith" changeset="5162525">
    <nd ref="103902915"/>
    <nd ref="103902928"/>
    <tag k="bridge" v="yes"/>
    <tag k="highway" v="residential"/>
    <tag k="layer" v="1"/>
    <tag k="maxspeed" v="50"/>
    <tag k="maxspeed:source" v="default residential speed limit in Australia"/>
    <tag k="name" v="Ashley Street"/>
    <tag k="source" v="yahoo_imagery"/>
  </way>
  <way id="11635745" version="4" timestamp="2012-01-15T10:49:26Z" uid="147510" user="woodpeck_fixbot" changeset="10396281">
    <nd ref="103902915"/>
    <nd ref="103902928"/>
    <tag k="bridge" v="yes"/>
    <tag k="highway" v="residential"/>
    <tag k="layer" v="1"/>
    <tag k="name" v="Ashley Street"/>
    <tag k="source" v="yahoo_imagery"/>
  </way>
  <way id="11635747" version="3" timestamp="2009-12-18T07:28:56Z" uid="30201" user="rrankin" changeset="3398669">
    <nd ref="103902928"/>
    <nd ref="109561010"/>
    <nd ref="29660236"/>
    <nd ref="103902939"/>
    <nd ref="103902946"/>
    <nd ref="33165898"/>
    <tag k="highway" v="residential"/>
    <tag k="name" v="Ashley Street"/>
    <tag k="source" v="yahoo_imagery"/>
  </way>
  <way id="11635747" version="4" timestamp="2010-01-19T06:28:12Z" uid="30201" user="rrankin" changeset="3656321">
    <nd ref="103902928"/>
    <nd ref="109561010"/>
    <nd ref="29660236"/>
    <nd ref="103902939"/>
    <nd ref="616564545"/>
    <tag k="highway" v="residential"/>
    <tag k="name" v="Ashley Street"/>
    <tag k="source" v="yahoo_imagery"/>
  </way>
  <way id="11635747" version="5" timestamp="2010-02-25T10:18:56Z" uid="7617" user="Franc" changeset="3970215">
    <nd ref="103902928"/>
    <nd ref="109561010"/>
    <nd ref="103902939"/>
    <nd ref="653177192"/>
    <nd ref="616564545"/>
    <tag k="highway" v="residential"/>
    <tag k="name" v="Ashley Street"/>
    <tag k="source" v="yahoo_imagery"/>
  </way>
  <way id="11635747" version="6" timestamp="2010-07-08T00:21:58Z" uid="74617" user="JohnSmith" changeset="5162525">
    <nd ref="103902928"/>
    <nd ref="109561010"/>
    <nd ref="103902939"/>
    <nd ref="653177192"/>
    <nd ref="616564545"/>
    <tag k="highway" v="residential"/>
    <tag k="maxspeed" v="50"/>
    <tag k="maxspeed:source" v="default residential speed limit in Australia"/>
    <tag k="name" v="Ashley Street"/>
    <tag k="source" v="yahoo_imagery"/>
  </way>
  <way id="11635747" version="7" timestamp="2012-01-15T10:49:28Z" uid="147510" user="woodpeck_fixbot" changeset="10396281">
    <nd ref="103902928"/>
    <nd ref="109561010"/>
    <nd ref="103902939"/>
    <nd ref="653177192"/>
    <nd ref="616564545"/>
    <tag k="highway" v="residential"/>
    <tag k="name" v="Ashley Street"/>
    <tag k="source" v="yahoo_imagery"/>
  </way>
  <way id="11635747" version="8" timestamp="2012-03-12T22:29:55Z" uid="7523" user="inas" changeset="10961483">
    <nd ref="103902928"/>
    <nd ref="109561010"/>
    <nd ref="103902939"/>
    <nd ref="616564545"/>
    <tag k="highway" v="residential"/>
    <tag k="name" v="Ashley Street"/>
    <tag k="source" v="yahoo_imagery"/>
  </way>
  <way id="11635789" version="7" timestamp="2010-07-06T09:52:00Z" uid="74617" user="JohnSmith" changeset="5147679">
    <nd ref="103877452"/>
    <nd ref="103903402"/>
    <nd ref="103903403"/>
    <nd ref="103902277"/>
    <nd ref="103903405"/>
    <nd ref="103903406"/>
    <nd ref="103903407"/>
    <nd ref="103902282"/>
    <nd ref="103902287"/>
    <tag k="highway" v="residential"/>
    <tag k="maxspeed" v="50"/>
    <tag k="maxspeed:source" v="default residential speed limit in Australia"/>
    <tag k="name" v="Penelope Street"/>
  </way>
  <way id="11635789" version="8" timestamp="2010-07-13T05:39:39Z" uid="211951" user="Dr Paul Martin" changeset="5204706">
    <nd ref="103877452"/>
    <nd ref="103903402"/>
    <nd ref="103903403"/>
    <nd ref="103902277"/>
    <nd ref="103903405"/>
    <nd ref="103903406"/>
    <nd ref="103903407"/>
    <nd ref="814618244"/>
    <nd ref="814618245"/>
    <nd ref="103902282"/>
    <nd ref="103902287"/>
    <tag k="highway" v="residential"/>
    <tag k="maxspeed" v="50"/>
    <tag k="maxspeed:source" v="default residential speed limit in Australia"/>
    <tag k="name" v="Penelope Street"/>
  </way>
  <way id="11635789" version="9" timestamp="2010-11-29T07:56:03Z" uid="22094" user="Chadzopkyo" changeset="6484313">
    <nd ref="103877452"/>
    <nd ref="103903402"/>
    <nd ref="103903403"/>
    <nd ref="103902277"/>
    <nd ref="103903405"/>
    <nd ref="103903406"/>
    <nd ref="103903407"/>
    <nd ref="814618244"/>
    <nd ref="103902282"/>
    <nd ref="103902287"/>
    <tag k="highway" v="residential"/>
    <tag k="maxspeed" v="50"/>
    <tag k="maxspeed:source" v="default residential speed limit in Australia"/>
    <tag k="name" v="Penelope Street"/>
  </way>
  <way id="11635789" version="10" timestamp="2010-11-29T08:49:56Z" uid="22094" user="Chadzopkyo" changeset="6484606">
    <nd ref="103877452"/>
    <nd ref="103903402"/>
    <nd ref="103903403"/>
    <nd ref="103902277"/>
    <nd ref="103903405"/>
    <nd ref="103903406"/>
    <nd ref="103903407"/>
    <nd ref="814618244"/>
    <nd ref="103902282"/>
    <nd ref="103902287"/>
    <tag k="highway" v="residential"/>
    <tag k="maxspeed" v="50"/>
    <tag k="maxspeed:source" v="default residential speed limit in Australia"/>
    <tag k="name" v="Penelope Street"/>
    <tag k="source" v="GPS"/>
  </way>
  <way id="11635789" version="11" timestamp="2011-08-13T04:44:54Z" uid="22094" user="Chadzopkyo" changeset="9002068">
    <nd ref="103877452"/>
    <nd ref="103903402"/>
    <nd ref="103903403"/>
    <nd ref="103902277"/>
    <nd ref="103903406"/>
    <nd ref="103903407"/>
    <nd ref="814618244"/>
    <nd ref="103902287"/>
    <tag k="highway" v="residential"/>
    <tag k="maxspeed" v="50"/>
    <tag k="maxspeed:source" v="default residential speed limit in Australia"/>
    <tag k="name" v="Penelope Street"/>
    <tag k="source" v="GPS"/>
  </way>
  <way id="11635789" version="12" timestamp="2012-01-15T10:49:29Z" uid="147510" user="woodpeck_fixbot" changeset="10396281">
    <nd ref="103877452"/>
    <nd ref="103903402"/>
    <nd ref="103903403"/>
    <nd ref="103902277"/>
    <nd ref="103903406"/>
    <nd ref="103903407"/>
    <nd ref="814618244"/>
    <nd ref="103902287"/>
    <tag k="highway" v="residential"/>
    <tag k="name" v="Penelope Street"/>
    <tag k="source" v="GPS"/>
  </way>
</osm>
