<?xml version='1.0' encoding='UTF-8'?>
<osm version="0.6" generator="libosmium/2.20.0">
  <way id="11678613" version="7" timestamp="2007-11-19T20:39:53Z" uid="8328" user="benpre" changeset="568748">
    <nd ref="51585471"/>
    <nd ref="87958390"/>
    <nd ref="91547143"/>
    <nd ref="93940923"/>
    <nd ref="93941785"/>
    <nd ref="31403003"/>
    <nd ref="104445397"/>
    <nd ref="104444309"/>
    <nd ref="104444311"/>
    <nd ref="31403017"/>
    <tag k="created_by" v="Potlatch 0.5"/>
    <tag k="highway" v="secondary"/>
    <tag k="name" v="Rüsselsheimer Straße"/>
    <tag k="ref" v="L3012"/>
  </way>
  <way id="11678613" version="8" timestamp="2007-12-22T23:03:41Z" uid="17097" user="Mary" changeset="399481">
    <nd ref="51585471"/>
    <nd ref="87958390"/>
    <nd ref="91547143"/>
    <nd ref="93940923"/>
    <nd ref="93941785"/>
    <nd ref="183946878"/>
    <nd ref="31403003"/>
    <nd ref="104445397"/>
    <nd ref="104444309"/>
    <nd ref="104444311"/>
    <nd ref="31403017"/>
    <tag k="created_by" v="Potlatch 0.5d"/>
    <tag k="highway" v="secondary"/>
    <tag k="name" v="Rüsselsheimer Straße"/>
    <tag k="ref" v="L3012"/>
  </way>
  <way id="11678613" version="9" timestamp="2008-08-08T14:35:06Z" uid="24920" user="Schusch" changeset="141606">
    <nd ref="51585471"/>
    <nd ref="87958390"/>
    <nd ref="91547143"/>
    <nd ref="93940923"/>
    <nd ref="93941785"/>
    <nd ref="183946878"/>
    <nd ref="31403003"/>
    <nd ref="104445397"/>
    <nd ref="104444309"/>
    <nd ref="104444311"/>
    <nd ref="31403017"/>
    <tag k="created_by" v="Potlatch 0.5d"/>
    <tag k="highway" v="secondary"/>
    <tag k="name" v="Rüsselsheimer Straße"/>
    <tag k="ref" v="L 3012"/>
  </way>
  <way id="11678613" version="10" timestamp="2008-09-30T04:23:27Z" uid="49317" user="Gary68" changeset="721193">
    <nd ref="51585471"/>
    <nd ref="87958390"/>
    <nd ref="91547143"/>
    <nd ref="93940923"/>
    <nd ref="93941785"/>
    <nd ref="183946878"/>
    <nd ref="252972414"/>
    <nd ref="31403003"/>
    <nd ref="104445397"/>
    <nd ref="104444309"/>
    <nd ref="104444311"/>
    <nd ref="31403017"/>
    <tag k="created_by" v="Potlatch 0.5d"/>
    <tag k="highway" v="secondary"/>
    <tag k="name" v="Rüsselsheimer Straße"/>
    <tag k="ref" v="L 3012"/>
  </way>
  <way id="11678613" version="11" timestamp="2008-12-21T13:26:45Z" uid="49317" user="Gary68" changeset="529523">
    <nd ref="51585471"/>
    <nd ref="87958390"/>
    <nd ref="91547143"/>
    <nd ref="93940923"/>
    <nd ref="93941785"/>
    <nd ref="183946878"/>
    <nd ref="252972414"/>
    <nd ref="31403003"/>
    <nd ref="104433681"/>
    <nd ref="104445397"/>
    <nd ref="104444309"/>
    <nd ref="104444311"/>
    <nd ref="31403017"/>
    <tag k="created_by" v="Potlatch 0.5d"/>
    <tag k="highway" v="secondary"/>
    <tag k="name" v="Rüsselsheimer Straße"/>
    <tag k="ref" v="L 3012"/>
  </way>
  <way id="11678613" version="12" timestamp="2009-07-03T11:36:14Z" uid="49317" user="Gary68" changeset="1719920">
    <nd ref="87958390"/>
    <nd ref="91547143"/>
    <nd ref="93940923"/>
    <nd ref="93941785"/>
    <nd ref="183946878"/>
    <nd ref="252972414"/>
    <nd ref="31403003"/>
    <nd ref="104433681"/>
    <nd ref="104445397"/>
    <nd ref="104444309"/>
    <nd ref="104444311"/>
    <nd ref="31403017"/>
    <tag k="created_by" v="Potlatch 0.5d"/>
    <tag k="highway" v="secondary"/>
    <tag k="name" v="Rüsselsheimer Straße"/>
    <tag k="ref" v="L 3012"/>
  </way>
  <way id="11678613" version="13" timestamp="2009-09-17T13:34:22Z" uid="120369" user="tom63452" changeset="2512445">
    <nd ref="499042035"/>
    <nd ref="499042065"/>
    <nd ref="499042062"/>
    <nd ref="499042059"/>
    <nd ref="499042056"/>
    <nd ref="499042054"/>
    <nd ref="499042042"/>
    <nd ref="499042050"/>
    <nd ref="87958390"/>
    <nd ref="499042047"/>
    <nd ref="499042046"/>
    <nd ref="499042035"/>
    <tag k="highway" v="secondary"/>
    <tag k="name" v="Rüsselsheimer Straße"/>
    <tag k="oneway" v="yes"/>
    <tag k="ref" v="L 3012"/>
  </way>
  <way id="11678613" version="14" timestamp="2009-09-17T14:14:39Z" uid="120369" user="tom63452" changeset="2512873">
    <nd ref="499042035"/>
    <nd ref="499042065"/>
    <nd ref="499042062"/>
    <nd ref="499042059"/>
    <nd ref="499042056"/>
    <nd ref="499042054"/>
    <nd ref="499042042"/>
    <nd ref="499042050"/>
    <nd ref="87958390"/>
    <nd ref="499042047"/>
    <nd ref="499042046"/>
    <nd ref="499042035"/>
    <tag k="highway" v="secondary"/>
    <tag k="junction" v="roundabout"/>
    <tag k="name" v="Rüsselsheimer Straße"/>
    <tag k="oneway" v="yes"/>
    <tag k="ref" v="L 3012"/>
  </way>
  <way id="11678613" version="15" timestamp="2010-11-15T10:09:07Z" uid="40397" user="Zartbitter" changeset="6376146">
    <nd ref="499042035"/>
    <nd ref="499042065"/>
    <nd ref="499042062"/>
    <nd ref="499042059"/>
    <nd ref="499042056"/>
    <nd ref="499042054"/>
    <nd ref="499042042"/>
    <nd ref="499042050"/>
    <nd ref="87958390"/>
    <nd ref="499042047"/>
    <nd ref="499042046"/>
    <nd ref="499042035"/>
    <tag k="highway" v="secondary"/>
    <tag k="junction" v="roundabout"/>
    <tag k="name" v="Rüsselsheimer Straße"/>
    <tag k="ref" v="L 3012"/>
  </way>
  <way id="11678613" version="16" timestamp="2012-02-18T12:40:40Z" uid="559890" user="Stambeskopp" changeset="10719537">
    <nd ref="499042035"/>
    <nd ref="499042065"/>
    <nd ref="1637614218"/>
    <nd ref="499042062"/>
    <nd ref="1637614262"/>
    <nd ref="499042059"/>
    <nd ref="1637614187"/>
    <nd ref="499042056"/>
    <nd ref="1637614298"/>
    <nd ref="499042054"/>
    <nd ref="499042042"/>
    <nd ref="1637614315"/>
    <nd ref="1637614283"/>
    <nd ref="499042050"/>
    <nd ref="1637614294"/>
    <nd ref="87958390"/>
    <nd ref="1637614291"/>
    <nd ref="499042047"/>
    <nd ref="1637614259"/>
    <nd ref="499042046"/>
    <nd ref="1637614299"/>
    <nd ref="499042035"/>
    <tag k="highway" v="secondary"/>
    <tag k="junction" v="roundabout"/>
    <tag k="name" v="Rüsselsheimer Straße"/>
    <tag k="ref" v="L 3012"/>
  </way>
  <way id="11678613" version="17" timestamp="2012-03-16T14:51:08Z" uid="55687" user="dschuwa" changeset="10999017"/>
  <way id="11678946" version="4" timestamp="2007-11-19T20:39:55Z" uid="8328" user="benpre" changeset="568748">
    <nd ref="104447029"/>
    <nd ref="104447031"/>
    <nd ref="104447032"/>
    <nd ref="104447034"/>
    <nd ref="104447036"/>
    <nd ref="104447037"/>
    <nd ref="104447039"/>
    <nd ref="92433826"/>
    <nd ref="104450965"/>
    <nd ref="104445397"/>
    <tag k="created_by" v="Potlatch 0.4c"/>
    <tag k="cycleway" v="lane"/>
    <tag k="foot" v="yes"/>
    <tag k="highway" v="cycleway"/>
    <tag k="name" v="Am Burggraben"/>
  </way>
  <way id="11678946" version="5" timestamp="2010-01-13T11:07:22Z" uid="46169" user="wolter" changeset="3609060">
    <nd ref="104447029"/>
    <nd ref="104447031"/>
    <nd ref="104447032"/>
    <nd ref="104447034"/>
    <nd ref="104447036"/>
    <nd ref="104447037"/>
    <nd ref="104447039"/>
    <nd ref="92433826"/>
    <nd ref="104450965"/>
    <nd ref="104445397"/>
    <tag k="foot" v="yes"/>
    <tag k="highway" v="cycleway"/>
    <tag k="name" v="Am Burggraben"/>
  </way>
  <way id="11678946" version="6" timestamp="2010-04-12T18:46:32Z" uid="263596" user="Oberförster" changeset="4407395">
    <nd ref="104447029"/>
    <nd ref="104447031"/>
    <nd ref="104447032"/>
    <nd ref="104447034"/>
    <nd ref="104447036"/>
    <nd ref="104447037"/>
    <nd ref="104447039"/>
    <nd ref="92433826"/>
    <nd ref="104450965"/>
    <nd ref="104445397"/>
    <tag k="bicycle" v="designated"/>
    <tag k="foot" v="designated"/>
    <tag k="highway" v="path"/>
    <tag k="name" v="Am Burggraben"/>
    <tag k="segregated" v="no"/>
    <tag k="surface" v="cobblestone"/>
  </way>
  <way id="11678946" version="7" timestamp="2012-02-29T14:22:40Z" uid="559890" user="Stambeskopp" changeset="10828253">
    <nd ref="104447029"/>
    <nd ref="104447031"/>
    <nd ref="104447032"/>
    <nd ref="104447034"/>
    <nd ref="1652839829"/>
    <nd ref="104447037"/>
    <nd ref="92433826"/>
    <nd ref="104450965"/>
    <nd ref="104445397"/>
    <tag k="bicycle" v="designated"/>
    <tag k="foot" v="designated"/>
    <tag k="highway" v="path"/>
    <tag k="name" v="Am Burggraben"/>
    <tag k="segregated" v="no"/>
    <tag k="surface" v="cobblestone"/>
  </way>
  <way id="11678946" version="8" timestamp="2012-03-16T14:51:05Z" uid="55687" user="dschuwa" changeset="10999017"/>
</osm>
