<?xml version='1.0' encoding='UTF-8'?>
<osm version="0.6" generator="libosmium/2.20.0">
  <way id="11692020" version="2" timestamp="2008-04-28T07:11:30Z" uid="36099" user="olli_g" changeset="273148">
    <nd ref="104604468"/>
    <nd ref="104605376"/>
    <nd ref="104603016"/>
    <tag k="created_by" v="Potlatch 0.8b"/>
    <tag k="highway" v="residential"/>
    <tag k="name" v="Louis-Köhler-Weg"/>
  </way>
  <way id="11692020" version="3" timestamp="2008-04-28T11:09:24Z" uid="36099" user="olli_g" changeset="280940">
    <nd ref="104604468"/>
    <nd ref="104605376"/>
    <nd ref="104603016"/>
    <tag k="created_by" v="Potlatch 0.8b"/>
    <tag k="highway" v="residential"/>
    <tag k="name" v="Louis-Köhler-Weg"/>
  </way>
  <way id="11692020" version="4" timestamp="2008-05-04T15:14:34Z" uid="29084" user="stoecker" changeset="330798">
    <nd ref="104604468"/>
    <nd ref="104605376"/>
    <nd ref="104603016"/>
    <tag k="created_by" v="Potlatch 0.8b"/>
    <tag k="highway" v="residential"/>
    <tag k="name" v="Louis-Köhler-Weg"/>
  </way>
  <way id="11692020" version="5" timestamp="2008-06-22T17:51:02Z" uid="36099" user="olli_g" changeset="262920">
    <nd ref="104604468"/>
    <nd ref="104605376"/>
    <nd ref="104603016"/>
    <tag k="created_by" v="Potlatch 0.9c"/>
    <tag k="highway" v="residential"/>
    <tag k="name" v="Louis-Köhler-Weg"/>
  </way>
  <way id="11692020" version="6" timestamp="2008-06-22T17:53:33Z" uid="36099" user="olli_g" changeset="262920">
    <nd ref="104604468"/>
    <nd ref="104605376"/>
    <nd ref="104603016"/>
    <tag k="created_by" v="Potlatch 0.9c"/>
    <tag k="highway" v="residential"/>
    <tag k="name" v="Erich-Ockert-Weg"/>
  </way>
  <way id="11692020" version="7" timestamp="2008-11-19T21:34:11Z" uid="5735" user="ColinMarquardt" changeset="768424"/>
  <way id="11692173" version="8" timestamp="2008-07-05T22:20:09Z" uid="6975" user="ulfl" changeset="404092">
    <nd ref="162897816"/>
    <nd ref="130136513"/>
    <nd ref="104606877"/>
    <nd ref="104606878"/>
    <nd ref="104606879"/>
    <nd ref="104606880"/>
    <nd ref="104606881"/>
    <nd ref="104606882"/>
    <nd ref="104606883"/>
    <nd ref="104606884"/>
    <tag k="description" v="Žiežmariai - Kaišiadorys"/>
    <tag k="highway" v="secondary"/>
    <tag k="ref" v="142"/>
  </way>
  <way id="11692173" version="9" timestamp="2008-09-26T21:11:08Z" uid="10457" user="Marius Gedminas" changeset="700631">
    <nd ref="162897816"/>
    <nd ref="130136513"/>
    <nd ref="104606877"/>
    <nd ref="104606878"/>
    <nd ref="104606879"/>
    <nd ref="104606880"/>
    <nd ref="104606881"/>
    <nd ref="104606882"/>
    <nd ref="104606883"/>
    <nd ref="104606884"/>
    <tag k="created_by" v="Potlatch 0.10c"/>
    <tag k="description" v="Žiežmariai - Kaišiadorys"/>
    <tag k="highway" v="trunk_link"/>
    <tag k="ref" v="142"/>
  </way>
  <way id="11692173" version="10" timestamp="2008-09-26T21:11:54Z" uid="10457" user="Marius Gedminas" changeset="700631">
    <nd ref="162897816"/>
    <nd ref="130136513"/>
    <nd ref="104606877"/>
    <nd ref="104606878"/>
    <nd ref="104606879"/>
    <nd ref="104606880"/>
    <nd ref="104606881"/>
    <nd ref="104606882"/>
    <nd ref="104606883"/>
    <nd ref="104606884"/>
    <tag k="created_by" v="Potlatch 0.10c"/>
    <tag k="description" v="Žiežmariai - Kaišiadorys"/>
    <tag k="highway" v="trunk_link"/>
    <tag k="oneway" v="yes"/>
    <tag k="ref" v="142"/>
  </way>
  <way id="11692173" version="11" timestamp="2008-09-26T21:17:43Z" uid="10457" user="Marius Gedminas" changeset="700631">
    <nd ref="162897816"/>
    <nd ref="130136513"/>
    <tag k="created_by" v="Potlatch 0.10c"/>
    <tag k="description" v="Žiežmariai - Kaišiadorys"/>
    <tag k="highway" v="trunk_link"/>
    <tag k="oneway" v="yes"/>
    <tag k="ref" v="142"/>
  </way>
  <way id="11692173" version="12" timestamp="2008-09-26T21:17:47Z" uid="10457" user="Marius Gedminas" changeset="700631"/>
  <way id="11692377" version="3" timestamp="2008-07-06T19:13:38Z" uid="6975" user="ulfl" changeset="415781">
    <nd ref="104610004"/>
    <nd ref="104610005"/>
    <nd ref="104610006"/>
    <nd ref="104610007"/>
    <nd ref="104610004"/>
    <tag k="leisure" v="pitch"/>
  </way>
  <way id="11692377" version="4" timestamp="2011-10-23T14:39:12Z" uid="308" user="MichaelCollinson" changeset="9633467"/>
  <way id="11692646" version="16" timestamp="2008-11-18T14:08:36Z" uid="67142" user="zottel" changeset="764564">
    <nd ref="25972033"/>
    <nd ref="268088981"/>
    <nd ref="25972034"/>
    <nd ref="300468705"/>
    <nd ref="25972035"/>
    <tag k="created_by" v="Potlatch 0.9c"/>
    <tag k="highway" v="primary"/>
    <tag k="lanes" v="4"/>
    <tag k="maxspeed" v="50"/>
    <tag k="name" v="Eutinger Straße"/>
    <tag k="ref" v="B 10"/>
    <tag k="surface" v="paved"/>
  </way>
  <way id="11692646" version="17" timestamp="2009-08-18T21:48:42Z" uid="63969" user="olvagor" changeset="2195671">
    <nd ref="25972033"/>
    <nd ref="268088981"/>
    <nd ref="470677048"/>
    <nd ref="470677061"/>
    <nd ref="25972034"/>
    <nd ref="300468705"/>
    <nd ref="25972035"/>
    <tag k="highway" v="primary"/>
    <tag k="lanes" v="4"/>
    <tag k="maxspeed" v="50"/>
    <tag k="name" v="Eutinger Straße"/>
    <tag k="ref" v="B 10"/>
    <tag k="surface" v="asphalt"/>
  </way>
  <way id="11692646" version="18" timestamp="2009-09-05T15:29:24Z" uid="63969" user="olvagor" changeset="2381978">
    <nd ref="25972033"/>
    <nd ref="268088981"/>
    <nd ref="470677048"/>
    <nd ref="470677061"/>
    <nd ref="25972034"/>
    <nd ref="300468705"/>
    <nd ref="25972035"/>
    <tag k="highway" v="primary"/>
    <tag k="lanes" v="4"/>
    <tag k="lit" v="yes"/>
    <tag k="maxspeed" v="50"/>
    <tag k="name" v="Eutinger Straße"/>
    <tag k="ref" v="B 10"/>
    <tag k="surface" v="asphalt"/>
  </way>
  <way id="11692646" version="19" timestamp="2009-10-21T08:58:53Z" uid="77204" user="aps" changeset="2910208">
    <nd ref="25972033"/>
    <nd ref="268088981"/>
    <nd ref="470677048"/>
    <nd ref="470677061"/>
    <nd ref="537542195"/>
    <nd ref="25972034"/>
    <nd ref="300468705"/>
    <nd ref="25972035"/>
    <tag k="highway" v="primary"/>
    <tag k="lanes" v="4"/>
    <tag k="lit" v="yes"/>
    <tag k="maxspeed" v="50"/>
    <tag k="name" v="Eutinger Straße"/>
    <tag k="ref" v="B 10"/>
    <tag k="surface" v="asphalt"/>
  </way>
  <way id="11692646" version="20" timestamp="2010-03-18T10:27:30Z" uid="175434" user="skywalkerer" changeset="4160027">
    <nd ref="25972033"/>
    <nd ref="268088981"/>
    <nd ref="470677048"/>
    <nd ref="470677061"/>
    <nd ref="537542195"/>
    <nd ref="25972034"/>
    <nd ref="300468705"/>
    <nd ref="25972035"/>
    <tag k="highway" v="primary"/>
    <tag k="lanes" v="4"/>
    <tag k="lit" v="yes"/>
    <tag k="maxspeed" v="50"/>
    <tag k="motorroad" v="yes"/>
    <tag k="name" v="Eutinger Straße"/>
    <tag k="ref" v="B 10"/>
    <tag k="surface" v="asphalt"/>
  </way>
  <way id="11692646" version="21" timestamp="2010-04-17T13:32:45Z" uid="263596" user="Oberförster" changeset="4447744">
    <nd ref="25972033"/>
    <nd ref="268088981"/>
    <nd ref="470677048"/>
    <nd ref="470677061"/>
    <nd ref="537542195"/>
    <nd ref="25972034"/>
    <nd ref="300468705"/>
    <nd ref="25972035"/>
    <tag k="highway" v="primary"/>
    <tag k="lanes" v="4"/>
    <tag k="lit" v="yes"/>
    <tag k="maxspeed" v="50"/>
    <tag k="motorroad" v="no"/>
    <tag k="name" v="Eutinger Straße"/>
    <tag k="ref" v="B 10"/>
    <tag k="surface" v="asphalt"/>
  </way>
  <way id="11692646" version="22" timestamp="2012-01-09T11:28:43Z" uid="442210" user="dwausr" changeset="10340699"/>
</osm>
