<?xml version='1.0' encoding='UTF-8'?>
<osm version="0.6" generator="libosmium/2.20.0">
  <way id="117091213" version="1" timestamp="2011-06-10T15:32:29Z" uid="66036" user="h4v" changeset="8398258">
    <nd ref="1319031739"/>
    <nd ref="1319031742"/>
    <nd ref="1319031767"/>
    <nd ref="1319031751"/>
    <nd ref="1319031739"/>
    <tag k="addr:housenumber" v="10"/>
    <tag k="building" v="yes"/>
  </way>
  <way id="117091214" version="1" timestamp="2011-06-10T15:32:29Z" uid="66036" user="h4v" changeset="8398258">
    <nd ref="1319031740"/>
    <nd ref="1319031753"/>
    <nd ref="1319031775"/>
    <nd ref="1319031755"/>
    <nd ref="1319031740"/>
    <tag k="building" v="yes"/>
  </way>
  <way id="117091215" version="1" timestamp="2011-06-10T15:32:29Z" uid="66036" user="h4v" changeset="8398258">
    <nd ref="1319031774"/>
    <nd ref="1319031749"/>
    <nd ref="1319031768"/>
    <nd ref="1319031764"/>
    <nd ref="1319031774"/>
    <tag k="addr:housenumber" v="24"/>
    <tag k="building" v="yes"/>
  </way>
  <way id="117091216" version="1" timestamp="2011-06-10T15:32:30Z" uid="66036" user="h4v" changeset="8398258">
    <nd ref="1319031746"/>
    <nd ref="1319031757"/>
    <tag k="addr:inclusion" v="estimate"/>
    <tag k="addr:interpolation" v="even"/>
  </way>
  <way id="117091217" version="1" timestamp="2011-06-10T15:32:30Z" uid="66036" user="h4v" changeset="8398258">
    <nd ref="1319031751"/>
    <nd ref="1319031744"/>
    <nd ref="1319031756"/>
    <nd ref="1319031739"/>
    <nd ref="1319031751"/>
    <tag k="addr:housenumber" v="8"/>
    <tag k="building" v="yes"/>
  </way>
  <way id="117091218" version="1" timestamp="2011-06-10T15:32:30Z" uid="66036" user="h4v" changeset="8398258">
    <nd ref="1319031750"/>
    <nd ref="1319031761"/>
    <nd ref="1319031748"/>
    <nd ref="1319031772"/>
    <nd ref="1319031750"/>
    <tag k="addr:housenumber" v="27"/>
    <tag k="building" v="yes"/>
  </way>
  <way id="117091219" version="1" timestamp="2011-06-10T15:32:30Z" uid="66036" user="h4v" changeset="8398258">
    <nd ref="1319031758"/>
    <nd ref="1319031766"/>
    <nd ref="1319031754"/>
    <nd ref="1319031743"/>
    <nd ref="1319031758"/>
    <tag k="addr:housenumber" v="21a"/>
    <tag k="building" v="yes"/>
  </way>
  <way id="117091220" version="1" timestamp="2011-06-10T15:32:30Z" uid="66036" user="h4v" changeset="8398258">
    <nd ref="1319031771"/>
    <nd ref="1319031752"/>
    <nd ref="1319031773"/>
    <nd ref="1319031759"/>
    <nd ref="1319031745"/>
    <nd ref="1319031762"/>
    <nd ref="1319031771"/>
    <tag k="addr:housenumber" v="20"/>
    <tag k="building" v="yes"/>
  </way>
  <way id="117091221" version="1" timestamp="2011-06-10T15:32:30Z" uid="66036" user="h4v" changeset="8398258">
    <nd ref="1319031763"/>
    <nd ref="1319031738"/>
    <nd ref="1319031760"/>
    <nd ref="1319031747"/>
    <nd ref="1319031763"/>
    <tag k="addr:housenumber" v="6"/>
    <tag k="building" v="yes"/>
  </way>
  <way id="117091753" version="1" timestamp="2011-06-10T15:41:14Z" uid="26515" user="Simon Ward" changeset="8398327">
    <nd ref="3356298"/>
    <nd ref="3356299"/>
    <tag k="highway" v="primary"/>
    <tag k="name" v="Grosvenor Street"/>
    <tag k="oneway" v="yes"/>
    <tag k="ref" v="A34"/>
  </way>
  <way id="117091753" version="2" timestamp="2012-03-14T07:39:51Z" uid="9065" user="brianboru" changeset="10975042"/>
  <way id="117091754" version="1" timestamp="2011-06-10T15:41:14Z" uid="26515" user="Simon Ward" changeset="8398327">
    <nd ref="1181397132"/>
    <nd ref="3356298"/>
    <tag k="cycleway:left" v="lane"/>
    <tag k="cycleway:right" v="track"/>
    <tag k="highway" v="primary"/>
    <tag k="name" v="Grosvenor Street"/>
    <tag k="oneway" v="yes"/>
    <tag k="oneway:bicycle" v="no"/>
    <tag k="ref" v="A34"/>
  </way>
  <way id="117091754" version="2" timestamp="2011-11-10T02:24:59Z" uid="549376" user="Delusion23" changeset="9786201">
    <nd ref="1181397132"/>
    <nd ref="1496838991"/>
    <nd ref="3356298"/>
    <tag k="cycleway:left" v="lane"/>
    <tag k="cycleway:right" v="track"/>
    <tag k="highway" v="primary"/>
    <tag k="name" v="Grosvenor Street"/>
    <tag k="oneway" v="yes"/>
    <tag k="oneway:bicycle" v="no"/>
    <tag k="ref" v="A34"/>
  </way>
  <way id="117091754" version="3" timestamp="2012-03-14T07:39:51Z" uid="9065" user="brianboru" changeset="10975042"/>
</osm>
