<?xml version='1.0' encoding='UTF-8'?>
<osm version="0.6" generator="libosmium/2.20.0">
  <way id="11707333" version="1" timestamp="2007-11-10T00:52:21Z" uid="7617" user="Franc" changeset="463636">
    <nd ref="104785368"/>
    <nd ref="29976433"/>
    <nd ref="26637217"/>
    <tag k="created_by" v="Potlatch alpha"/>
    <tag k="highway" v="primary"/>
    <tag k="name" v="Forest Road"/>
    <tag k="ref" v="D5"/>
    <tag k="source" v="yahoo_imagery"/>
  </way>
  <way id="11707333" version="2" timestamp="2009-12-02T23:37:49Z" uid="30201" user="rrankin" changeset="3276630"/>
  <way id="11707335" version="1" timestamp="2007-11-10T00:52:22Z" uid="7617" user="Franc" changeset="463636">
    <nd ref="104785355"/>
    <nd ref="104785368"/>
    <tag k="bridge" v="yes"/>
    <tag k="created_by" v="Potlatch alpha"/>
    <tag k="highway" v="primary"/>
    <tag k="layer" v="1"/>
    <tag k="name" v="Forest Road"/>
    <tag k="ref" v="D5"/>
    <tag k="source" v="yahoo_imagery"/>
  </way>
  <way id="11707335" version="2" timestamp="2009-12-27T06:14:28Z" uid="12203" user="brainwad" changeset="3460242">
    <nd ref="104785355"/>
    <nd ref="104785368"/>
    <tag k="bridge" v="yes"/>
    <tag k="highway" v="primary"/>
    <tag k="layer" v="1"/>
    <tag k="maxspeed" v="60"/>
    <tag k="name" v="Forest Road"/>
    <tag k="ref" v="D5"/>
    <tag k="source" v="yahoo_imagery"/>
  </way>
  <way id="11707335" version="3" timestamp="2010-04-03T07:59:32Z" uid="7617" user="Franc" changeset="4310344">
    <nd ref="104785355"/>
    <nd ref="104785368"/>
    <tag k="bridge" v="yes"/>
    <tag k="highway" v="primary"/>
    <tag k="layer" v="1"/>
    <tag k="maxspeed" v="60"/>
    <tag k="name" v="Forest Road"/>
    <tag k="ref" v="D5"/>
    <tag k="restriction" v="school_zone"/>
    <tag k="source" v="yahoo_imagery"/>
  </way>
  <way id="11707335" version="4" timestamp="2010-07-10T08:13:17Z" uid="299678" user="peteramjet" changeset="5180191">
    <nd ref="104785355"/>
    <nd ref="104785368"/>
    <tag k="bridge" v="yes"/>
    <tag k="highway" v="primary"/>
    <tag k="layer" v="1"/>
    <tag k="maxspeed" v="60"/>
    <tag k="name" v="Forest Road"/>
    <tag k="restriction" v="school_zone"/>
    <tag k="source" v="yahoo_imagery"/>
  </way>
  <way id="11707335" version="5" timestamp="2012-01-06T20:20:46Z" uid="77586" user="wolftracker" changeset="10315483">
    <nd ref="104785355"/>
    <nd ref="104785368"/>
    <tag k="highway" v="primary"/>
    <tag k="maxspeed" v="60"/>
    <tag k="name" v="Forest Road"/>
    <tag k="restriction" v="school_zone"/>
    <tag k="source" v="yahoo_imagery"/>
  </way>
  <way id="11707335" version="6" timestamp="2012-03-23T00:55:09Z" uid="7523" user="inas" changeset="11069282"/>
  <way id="11707337" version="1" timestamp="2007-11-10T00:52:23Z" uid="7617" user="Franc" changeset="463636">
    <nd ref="26637217"/>
    <nd ref="29414608"/>
    <nd ref="29414599"/>
    <nd ref="26637636"/>
    <nd ref="26637218"/>
    <tag k="created_by" v="Potlatch alpha"/>
    <tag k="highway" v="primary"/>
    <tag k="name" v="Wickham Street"/>
    <tag k="ref" v="D5"/>
  </way>
  <way id="11707337" version="2" timestamp="2008-08-28T11:52:15Z" uid="7617" user="Franc" changeset="440105">
    <nd ref="26637217"/>
    <nd ref="291748415"/>
    <nd ref="29414608"/>
    <nd ref="29414599"/>
    <nd ref="26637636"/>
    <nd ref="26637218"/>
    <tag k="created_by" v="Potlatch alpha"/>
    <tag k="highway" v="primary"/>
    <tag k="name" v="Wickham Street"/>
    <tag k="ref" v="D5"/>
  </way>
  <way id="11707337" version="3" timestamp="2009-12-02T23:37:35Z" uid="30201" user="rrankin" changeset="3276630">
    <nd ref="104785368"/>
    <nd ref="29976433"/>
    <nd ref="26637217"/>
    <nd ref="291748415"/>
    <tag k="highway" v="primary"/>
    <tag k="name" v="Forest Road"/>
    <tag k="ref" v="D5"/>
    <tag k="source" v="yahoo_imagery"/>
  </way>
  <way id="11707337" version="4" timestamp="2009-12-27T06:14:28Z" uid="12203" user="brainwad" changeset="3460242">
    <nd ref="104785368"/>
    <nd ref="29976433"/>
    <nd ref="26637217"/>
    <nd ref="291748415"/>
    <tag k="highway" v="primary"/>
    <tag k="maxspeed" v="60"/>
    <tag k="name" v="Forest Road"/>
    <tag k="ref" v="D5"/>
    <tag k="source" v="yahoo_imagery"/>
  </way>
  <way id="11707337" version="5" timestamp="2010-01-03T05:08:26Z" uid="74617" user="JohnSmith" changeset="3525361">
    <nd ref="104785368"/>
    <nd ref="29976433"/>
    <nd ref="603455237"/>
    <nd ref="603455236"/>
    <nd ref="26637217"/>
    <nd ref="291748415"/>
    <tag k="highway" v="primary"/>
    <tag k="maxspeed" v="60"/>
    <tag k="name" v="Forest Road"/>
    <tag k="ref" v="D5"/>
    <tag k="source" v="yahoo_imagery"/>
  </way>
  <way id="11707337" version="6" timestamp="2010-04-03T07:59:31Z" uid="7617" user="Franc" changeset="4310344">
    <nd ref="104785368"/>
    <nd ref="29976433"/>
    <nd ref="603455237"/>
    <tag k="highway" v="primary"/>
    <tag k="maxspeed" v="60"/>
    <tag k="name" v="Forest Road"/>
    <tag k="ref" v="D5"/>
    <tag k="restriction" v="school_zone"/>
    <tag k="source" v="yahoo_imagery"/>
  </way>
  <way id="11707337" version="7" timestamp="2010-07-10T08:13:14Z" uid="299678" user="peteramjet" changeset="5180191">
    <nd ref="104785368"/>
    <nd ref="29976433"/>
    <nd ref="603455237"/>
    <tag k="highway" v="primary"/>
    <tag k="maxspeed" v="60"/>
    <tag k="name" v="Forest Road"/>
    <tag k="restriction" v="school_zone"/>
    <tag k="source" v="yahoo_imagery"/>
  </way>
  <way id="11707337" version="8" timestamp="2010-09-19T11:20:32Z" uid="7617" user="Franc" changeset="5818777">
    <nd ref="104785368"/>
    <nd ref="918176267"/>
    <nd ref="29976433"/>
    <nd ref="603455237"/>
    <tag k="highway" v="primary"/>
    <tag k="maxspeed" v="60"/>
    <tag k="name" v="Forest Road"/>
    <tag k="restriction" v="school_zone"/>
    <tag k="source" v="yahoo_imagery"/>
  </way>
  <way id="11707337" version="9" timestamp="2012-03-22T23:27:59Z" uid="7523" user="inas" changeset="11069049"/>
  <way id="11707427" version="3" timestamp="2008-11-17T17:31:46Z" uid="79904" user="VanceK" changeset="763589">
    <nd ref="104786209"/>
    <nd ref="104786217"/>
    <tag k="created_by" v="Potlatch 0.10f"/>
    <tag k="highway" v="residential"/>
    <tag k="name" v="Welsford Street"/>
    <tag k="tiger:cfcc" v="A41"/>
    <tag k="tiger:name_base" v="Wellsford"/>
    <tag k="tiger:name_type" v="St"/>
    <tag k="tiger:reviewed" v="yes"/>
    <tag k="tiger:separated" v="no"/>
    <tag k="tiger:source" v="tiger_import_dch_v0.7_20071109"/>
    <tag k="tiger:tlid" v="51649123"/>
    <tag k="tiger:zip_left" v="15213"/>
    <tag k="tiger:zip_right" v="15213"/>
  </way>
  <way id="11707427" version="4" timestamp="2008-11-17T17:32:44Z" uid="79904" user="VanceK" changeset="763589">
    <nd ref="104786217"/>
    <nd ref="104786209"/>
    <tag k="created_by" v="Potlatch 0.10f"/>
    <tag k="highway" v="residential"/>
    <tag k="name" v="Welsford Street"/>
    <tag k="tiger:cfcc" v="A41"/>
    <tag k="tiger:name_base" v="Wellsford"/>
    <tag k="tiger:name_type" v="St"/>
    <tag k="tiger:reviewed" v="yes"/>
    <tag k="tiger:separated" v="no"/>
    <tag k="tiger:source" v="tiger_import_dch_v0.7_20071109"/>
    <tag k="tiger:tlid" v="51649123"/>
    <tag k="tiger:zip_left" v="15213"/>
    <tag k="tiger:zip_right" v="15213"/>
  </way>
  <way id="11707427" version="5" timestamp="2008-11-17T17:40:27Z" uid="79904" user="VanceK" changeset="763589">
    <nd ref="104786217"/>
    <nd ref="104786209"/>
    <tag k="created_by" v="Potlatch 0.10f"/>
    <tag k="highway" v="residential"/>
    <tag k="name" v="Welsford Street"/>
    <tag k="oneway" v="yes"/>
    <tag k="tiger:cfcc" v="A41"/>
    <tag k="tiger:name_base" v="Wellsford"/>
    <tag k="tiger:name_type" v="St"/>
    <tag k="tiger:reviewed" v="yes"/>
    <tag k="tiger:separated" v="no"/>
    <tag k="tiger:source" v="tiger_import_dch_v0.7_20071109"/>
    <tag k="tiger:tlid" v="51649123"/>
    <tag k="tiger:zip_left" v="15213"/>
    <tag k="tiger:zip_right" v="15213"/>
  </way>
  <way id="11707427" version="6" timestamp="2012-03-22T12:54:14Z" uid="252811" user="rickmastfan67" changeset="11062543">
    <nd ref="104786217"/>
    <nd ref="104786209"/>
    <tag k="highway" v="residential"/>
    <tag k="name" v="Welsford Street"/>
    <tag k="odbl" v="clean"/>
    <tag k="odbl:note" v="The &quot;Declining&quot; user expanded the road name (St &gt; Street). It can be considered as a trivial edit. He also added the oneway=yes tag, but I can&apos; verify and have deleted it. Tthe way is now clean."/>
    <tag k="tiger:cfcc" v="A41"/>
    <tag k="tiger:name_base" v="Wellsford"/>
    <tag k="tiger:name_type" v="St"/>
    <tag k="tiger:separated" v="no"/>
    <tag k="tiger:source" v="tiger_import_dch_v0.7_20071109"/>
    <tag k="tiger:tlid" v="51649123"/>
    <tag k="tiger:zip_left" v="15213"/>
    <tag k="tiger:zip_right" v="15213"/>
  </way>
  <way id="11707689" version="1" timestamp="2007-11-10T00:55:23Z" uid="7617" user="Franc" changeset="463636">
    <nd ref="104788887"/>
    <nd ref="104788892"/>
    <tag k="created_by" v="JOSM"/>
    <tag k="highway" v="service"/>
    <tag k="source" v="survey"/>
  </way>
  <way id="11707689" version="2" timestamp="2008-03-03T07:19:27Z" uid="7617" user="Franc" changeset="257791">
    <nd ref="104788887"/>
    <nd ref="104788892"/>
    <tag k="created_by" v="JOSM"/>
    <tag k="highway" v="service"/>
    <tag k="name" v="Butterworth Lane"/>
    <tag k="source" v="survey"/>
  </way>
  <way id="11707689" version="3" timestamp="2012-03-08T05:56:51Z" uid="7523" user="inas" changeset="10906275">
    <nd ref="104788887"/>
    <nd ref="104788892"/>
    <tag k="highway" v="service"/>
    <tag k="name" v="Butterworth Lane"/>
    <tag k="source" v="survey"/>
  </way>
</osm>
