<?xml version='1.0' encoding='UTF-8'?>
<osm version="0.6" generator="libosmium/2.20.0">
  <way id="11743046" version="2" timestamp="2010-07-08T00:01:11Z" uid="74617" user="JohnSmith" changeset="5162525">
    <nd ref="105143159"/>
    <nd ref="105143785"/>
    <tag k="highway" v="residential"/>
    <tag k="maxspeed" v="50"/>
    <tag k="maxspeed:source" v="default residential speed limit in Australia"/>
    <tag k="name" v="Sabina Place"/>
  </way>
  <way id="11743046" version="3" timestamp="2010-07-08T00:11:16Z" uid="74617" user="JohnSmith" changeset="5162525">
    <nd ref="105143159"/>
    <nd ref="105143785"/>
    <tag k="highway" v="residential"/>
    <tag k="maxspeed" v="50"/>
    <tag k="maxspeed:source" v="default residential speed limit in Australia"/>
    <tag k="name" v="Sabina Place"/>
  </way>
  <way id="11743046" version="4" timestamp="2012-01-15T10:53:01Z" uid="147510" user="woodpeck_fixbot" changeset="10396281">
    <nd ref="105143159"/>
    <nd ref="105143785"/>
    <tag k="highway" v="residential"/>
    <tag k="name" v="Sabina Place"/>
  </way>
  <way id="11743129" version="3" timestamp="2010-07-09T05:22:36Z" uid="74617" user="JohnSmith" changeset="5170972">
    <nd ref="105144404"/>
    <nd ref="105139829"/>
    <tag k="highway" v="residential"/>
    <tag k="maxspeed" v="50"/>
    <tag k="maxspeed:source" v="default residential speed limit in Australia"/>
    <tag k="name" v="Houndswood Close"/>
  </way>
  <way id="11743129" version="4" timestamp="2012-01-15T10:53:02Z" uid="147510" user="woodpeck_fixbot" changeset="10396281">
    <nd ref="105144404"/>
    <nd ref="105139829"/>
    <tag k="highway" v="residential"/>
    <tag k="name" v="Houndswood Close"/>
  </way>
  <way id="11743186" version="3" timestamp="2010-07-09T05:22:43Z" uid="74617" user="JohnSmith" changeset="5170972">
    <nd ref="105144883"/>
    <nd ref="105144884"/>
    <tag k="highway" v="residential"/>
    <tag k="maxspeed" v="50"/>
    <tag k="maxspeed:source" v="default residential speed limit in Australia"/>
    <tag k="name" v="Monteath Place"/>
  </way>
  <way id="11743186" version="4" timestamp="2012-01-15T10:53:05Z" uid="147510" user="woodpeck_fixbot" changeset="10396281">
    <nd ref="105144883"/>
    <nd ref="105144884"/>
    <tag k="highway" v="residential"/>
    <tag k="name" v="Monteath Place"/>
  </way>
  <way id="11743193" version="5" timestamp="2010-07-08T00:01:10Z" uid="74617" user="JohnSmith" changeset="5162525">
    <nd ref="96291241"/>
    <nd ref="105142844"/>
    <nd ref="105147042"/>
    <nd ref="105159413"/>
    <nd ref="26391340"/>
    <tag k="highway" v="residential"/>
    <tag k="maxspeed" v="50"/>
    <tag k="maxspeed:source" v="default residential speed limit in Australia"/>
    <tag k="name" v="Ayres Road"/>
  </way>
  <way id="11743193" version="6" timestamp="2010-07-08T00:11:15Z" uid="74617" user="JohnSmith" changeset="5162525">
    <nd ref="96291241"/>
    <nd ref="105142844"/>
    <nd ref="105147042"/>
    <nd ref="105159413"/>
    <nd ref="26391340"/>
    <tag k="highway" v="residential"/>
    <tag k="maxspeed" v="50"/>
    <tag k="maxspeed:source" v="default residential speed limit in Australia"/>
    <tag k="name" v="Ayres Road"/>
  </way>
  <way id="11743193" version="7" timestamp="2012-01-15T10:53:07Z" uid="147510" user="woodpeck_fixbot" changeset="10396281">
    <nd ref="96291241"/>
    <nd ref="105142844"/>
    <nd ref="105147042"/>
    <nd ref="105159413"/>
    <nd ref="26391340"/>
    <tag k="highway" v="residential"/>
    <tag k="name" v="Ayres Road"/>
  </way>
  <way id="11743257" version="4" timestamp="2010-07-09T05:22:26Z" uid="74617" user="JohnSmith" changeset="5170972">
    <nd ref="105145902"/>
    <nd ref="105145905"/>
    <nd ref="105145906"/>
    <nd ref="105145907"/>
    <nd ref="105139834"/>
    <tag k="highway" v="residential"/>
    <tag k="maxspeed" v="50"/>
    <tag k="maxspeed:source" v="default residential speed limit in Australia"/>
    <tag k="name" v="Ravenswood Court"/>
  </way>
  <way id="11743257" version="5" timestamp="2012-01-15T10:53:08Z" uid="147510" user="woodpeck_fixbot" changeset="10396281">
    <nd ref="105145902"/>
    <nd ref="105145905"/>
    <nd ref="105145906"/>
    <nd ref="105145907"/>
    <nd ref="105139834"/>
    <tag k="highway" v="residential"/>
    <tag k="name" v="Ravenswood Court"/>
  </way>
  <way id="11743271" version="4" timestamp="2010-07-08T00:03:00Z" uid="74617" user="JohnSmith" changeset="5162525">
    <nd ref="105145723"/>
    <nd ref="105147043"/>
    <nd ref="105146029"/>
    <nd ref="105146030"/>
    <tag k="highway" v="residential"/>
    <tag k="maxspeed" v="50"/>
    <tag k="maxspeed:source" v="default residential speed limit in Australia"/>
    <tag k="name" v="Carissa Avenue"/>
  </way>
  <way id="11743271" version="5" timestamp="2010-07-08T00:13:13Z" uid="74617" user="JohnSmith" changeset="5162525">
    <nd ref="105145723"/>
    <nd ref="105147043"/>
    <nd ref="105146029"/>
    <nd ref="105146030"/>
    <tag k="highway" v="residential"/>
    <tag k="maxspeed" v="50"/>
    <tag k="maxspeed:source" v="default residential speed limit in Australia"/>
    <tag k="name" v="Carissa Avenue"/>
  </way>
  <way id="11743271" version="6" timestamp="2012-01-15T10:53:09Z" uid="147510" user="woodpeck_fixbot" changeset="10396281">
    <nd ref="105145723"/>
    <nd ref="105147043"/>
    <nd ref="105146029"/>
    <nd ref="105146030"/>
    <tag k="highway" v="residential"/>
    <tag k="name" v="Carissa Avenue"/>
  </way>
  <way id="11743314" version="12" timestamp="2010-04-19T13:01:11Z" uid="4467" user="Rosscoe" changeset="4467619">
    <nd ref="536355628"/>
    <nd ref="105146487"/>
    <nd ref="105146489"/>
    <nd ref="701842030"/>
    <tag k="highway" v="tertiary"/>
    <tag k="maxspeed" v="50"/>
    <tag k="name" v="Serpells Road"/>
  </way>
  <way id="11743314" version="13" timestamp="2011-03-14T00:24:01Z" uid="320632" user="Zulu99" changeset="7552137">
    <nd ref="536355628"/>
    <nd ref="1201080628"/>
    <tag k="highway" v="tertiary"/>
    <tag k="maxspeed" v="50"/>
    <tag k="name" v="Serpells Road"/>
  </way>
  <way id="11743378" version="3" timestamp="2010-07-08T00:04:08Z" uid="74617" user="JohnSmith" changeset="5162525">
    <nd ref="105146029"/>
    <nd ref="105147042"/>
    <tag k="highway" v="residential"/>
    <tag k="maxspeed" v="50"/>
    <tag k="maxspeed:source" v="default residential speed limit in Australia"/>
    <tag k="name" v="Carissa Avenue"/>
  </way>
  <way id="11743378" version="4" timestamp="2010-07-08T00:14:36Z" uid="74617" user="JohnSmith" changeset="5162525">
    <nd ref="105146029"/>
    <nd ref="105147042"/>
    <tag k="highway" v="residential"/>
    <tag k="maxspeed" v="50"/>
    <tag k="maxspeed:source" v="default residential speed limit in Australia"/>
    <tag k="name" v="Carissa Avenue"/>
  </way>
  <way id="11743378" version="5" timestamp="2012-01-15T10:53:11Z" uid="147510" user="woodpeck_fixbot" changeset="10396281">
    <nd ref="105146029"/>
    <nd ref="105147042"/>
    <tag k="highway" v="residential"/>
    <tag k="name" v="Carissa Avenue"/>
  </way>
  <way id="11743394" version="3" timestamp="2010-07-09T05:03:14Z" uid="74617" user="JohnSmith" changeset="5170986">
    <nd ref="105147157"/>
    <nd ref="105147158"/>
    <tag k="highway" v="residential"/>
    <tag k="maxspeed" v="50"/>
    <tag k="maxspeed:source" v="default residential speed limit in Australia"/>
    <tag k="name" v="Briarwood Court"/>
  </way>
  <way id="11743394" version="4" timestamp="2012-01-15T10:53:12Z" uid="147510" user="woodpeck_fixbot" changeset="10396281">
    <nd ref="105147157"/>
    <nd ref="105147158"/>
    <tag k="highway" v="residential"/>
    <tag k="name" v="Briarwood Court"/>
  </way>
  <way id="11743487" version="6" timestamp="2010-07-09T04:04:21Z" uid="74617" user="JohnSmith" changeset="5170825">
    <nd ref="105148078"/>
    <nd ref="105148079"/>
    <nd ref="105148999"/>
    <nd ref="105148080"/>
    <nd ref="105148081"/>
    <nd ref="105148082"/>
    <nd ref="105148083"/>
    <nd ref="105148084"/>
    <tag k="highway" v="residential"/>
    <tag k="maxspeed" v="50"/>
    <tag k="maxspeed:source" v="default residential speed limit in Australia"/>
    <tag k="name" v="Wimbleton Court"/>
  </way>
  <way id="11743487" version="7" timestamp="2012-01-15T10:53:13Z" uid="147510" user="woodpeck_fixbot" changeset="10396281">
    <nd ref="105148078"/>
    <nd ref="105148079"/>
    <nd ref="105148999"/>
    <nd ref="105148080"/>
    <nd ref="105148081"/>
    <nd ref="105148082"/>
    <nd ref="105148083"/>
    <nd ref="105148084"/>
    <tag k="highway" v="residential"/>
    <tag k="name" v="Wimbleton Court"/>
  </way>
  <way id="11743491" version="7" timestamp="2010-04-19T13:01:11Z" uid="4467" user="Rosscoe" changeset="4467619">
    <nd ref="701842036"/>
    <nd ref="105148108"/>
    <nd ref="105148110"/>
    <nd ref="105148111"/>
    <nd ref="105148112"/>
    <nd ref="105148113"/>
    <nd ref="105148114"/>
    <nd ref="105148115"/>
    <nd ref="105148116"/>
    <nd ref="105151024"/>
    <nd ref="105150398"/>
    <nd ref="105148078"/>
    <tag k="highway" v="residential"/>
    <tag k="name" v="Laurie Road"/>
  </way>
  <way id="11743491" version="8" timestamp="2010-07-09T04:07:00Z" uid="74617" user="JohnSmith" changeset="5170825">
    <nd ref="701842036"/>
    <nd ref="105148108"/>
    <nd ref="105148110"/>
    <nd ref="105148111"/>
    <nd ref="105148112"/>
    <nd ref="105148113"/>
    <nd ref="105148114"/>
    <nd ref="105148115"/>
    <nd ref="105148116"/>
    <nd ref="105151024"/>
    <nd ref="105150398"/>
    <nd ref="105148078"/>
    <tag k="highway" v="residential"/>
    <tag k="maxspeed" v="50"/>
    <tag k="maxspeed:source" v="default residential speed limit in Australia"/>
    <tag k="name" v="Laurie Road"/>
  </way>
  <way id="11743491" version="9" timestamp="2012-01-15T10:53:14Z" uid="147510" user="woodpeck_fixbot" changeset="10396281">
    <nd ref="701842036"/>
    <nd ref="105148108"/>
    <nd ref="105148110"/>
    <nd ref="105148111"/>
    <nd ref="105148112"/>
    <nd ref="105148113"/>
    <nd ref="105148114"/>
    <nd ref="105148115"/>
    <nd ref="105148116"/>
    <nd ref="105151024"/>
    <nd ref="105150398"/>
    <nd ref="105148078"/>
    <tag k="highway" v="residential"/>
    <tag k="name" v="Laurie Road"/>
  </way>
  <way id="11743549" version="3" timestamp="2010-07-08T00:02:38Z" uid="74617" user="JohnSmith" changeset="5162525">
    <nd ref="26391340"/>
    <nd ref="105148564"/>
    <nd ref="598350217"/>
    <tag k="highway" v="residential"/>
    <tag k="maxspeed" v="50"/>
    <tag k="maxspeed:source" v="default residential speed limit in Australia"/>
    <tag k="name" v="Durack Place"/>
  </way>
  <way id="11743549" version="4" timestamp="2010-07-08T00:12:51Z" uid="74617" user="JohnSmith" changeset="5162525">
    <nd ref="26391340"/>
    <nd ref="105148564"/>
    <nd ref="598350217"/>
    <tag k="highway" v="residential"/>
    <tag k="maxspeed" v="50"/>
    <tag k="maxspeed:source" v="default residential speed limit in Australia"/>
    <tag k="name" v="Durack Place"/>
  </way>
  <way id="11743549" version="5" timestamp="2012-01-15T10:53:15Z" uid="147510" user="woodpeck_fixbot" changeset="10396281">
    <nd ref="26391340"/>
    <nd ref="105148564"/>
    <nd ref="598350217"/>
    <tag k="highway" v="residential"/>
    <tag k="name" v="Durack Place"/>
  </way>
  <way id="11743582" version="3" timestamp="2010-07-09T04:09:06Z" uid="74617" user="JohnSmith" changeset="5170825">
    <nd ref="105148994"/>
    <nd ref="105148995"/>
    <nd ref="105148996"/>
    <nd ref="105148997"/>
    <nd ref="105148998"/>
    <nd ref="105148999"/>
    <tag k="highway" v="residential"/>
    <tag k="maxspeed" v="50"/>
    <tag k="maxspeed:source" v="default residential speed limit in Australia"/>
    <tag k="name" v="St James Court"/>
  </way>
  <way id="11743582" version="4" timestamp="2012-01-15T10:53:16Z" uid="147510" user="woodpeck_fixbot" changeset="10396281">
    <nd ref="105148994"/>
    <nd ref="105148995"/>
    <nd ref="105148996"/>
    <nd ref="105148997"/>
    <nd ref="105148998"/>
    <nd ref="105148999"/>
    <tag k="highway" v="residential"/>
    <tag k="name" v="St James Court"/>
  </way>
  <way id="11743657" version="3" timestamp="2010-07-09T04:10:59Z" uid="74617" user="JohnSmith" changeset="5170825">
    <nd ref="105149700"/>
    <nd ref="105148078"/>
    <tag k="highway" v="residential"/>
    <tag k="maxspeed" v="50"/>
    <tag k="maxspeed:source" v="default residential speed limit in Australia"/>
    <tag k="name" v="Chestnut Court"/>
  </way>
  <way id="11743657" version="4" timestamp="2012-01-15T10:53:18Z" uid="147510" user="woodpeck_fixbot" changeset="10396281">
    <nd ref="105149700"/>
    <nd ref="105148078"/>
    <tag k="highway" v="residential"/>
    <tag k="name" v="Chestnut Court"/>
  </way>
  <way id="11743658" version="2" timestamp="2010-07-08T00:01:30Z" uid="74617" user="JohnSmith" changeset="5162525">
    <nd ref="105148676"/>
    <nd ref="105149701"/>
    <tag k="highway" v="residential"/>
    <tag k="maxspeed" v="50"/>
    <tag k="maxspeed:source" v="default residential speed limit in Australia"/>
    <tag k="name" v="Chapala Close"/>
  </way>
  <way id="11743658" version="3" timestamp="2010-07-08T00:11:39Z" uid="74617" user="JohnSmith" changeset="5162525">
    <nd ref="105148676"/>
    <nd ref="105149701"/>
    <tag k="highway" v="residential"/>
    <tag k="maxspeed" v="50"/>
    <tag k="maxspeed:source" v="default residential speed limit in Australia"/>
    <tag k="name" v="Chapala Close"/>
  </way>
  <way id="11743658" version="4" timestamp="2012-01-15T10:53:19Z" uid="147510" user="woodpeck_fixbot" changeset="10396281">
    <nd ref="105148676"/>
    <nd ref="105149701"/>
    <tag k="highway" v="residential"/>
    <tag k="name" v="Chapala Close"/>
  </way>
  <way id="11743714" version="3" timestamp="2010-07-09T04:03:32Z" uid="74617" user="JohnSmith" changeset="5170825">
    <nd ref="105150393"/>
    <nd ref="105150394"/>
    <nd ref="105150395"/>
    <nd ref="105150396"/>
    <nd ref="105150397"/>
    <nd ref="105150398"/>
    <tag k="highway" v="residential"/>
    <tag k="maxspeed" v="50"/>
    <tag k="maxspeed:source" v="default residential speed limit in Australia"/>
    <tag k="name" v="Cherryblossom Court"/>
  </way>
  <way id="11743714" version="4" timestamp="2012-01-15T10:53:20Z" uid="147510" user="woodpeck_fixbot" changeset="10396281">
    <nd ref="105150393"/>
    <nd ref="105150394"/>
    <nd ref="105150395"/>
    <nd ref="105150396"/>
    <nd ref="105150397"/>
    <nd ref="105150398"/>
    <tag k="highway" v="residential"/>
    <tag k="name" v="Cherryblossom Court"/>
  </way>
  <way id="11743757" version="2" timestamp="2010-07-08T00:04:29Z" uid="74617" user="JohnSmith" changeset="5162525">
    <nd ref="105150886"/>
    <nd ref="96291241"/>
    <tag k="highway" v="residential"/>
    <tag k="maxspeed" v="50"/>
    <tag k="maxspeed:source" v="default residential speed limit in Australia"/>
    <tag k="name" v="Ayres Road East"/>
  </way>
  <way id="11743757" version="3" timestamp="2010-07-08T00:15:05Z" uid="74617" user="JohnSmith" changeset="5162525">
    <nd ref="105150886"/>
    <nd ref="96291241"/>
    <tag k="highway" v="residential"/>
    <tag k="maxspeed" v="50"/>
    <tag k="maxspeed:source" v="default residential speed limit in Australia"/>
    <tag k="name" v="Ayres Road East"/>
  </way>
  <way id="11743757" version="4" timestamp="2012-01-15T10:53:21Z" uid="147510" user="woodpeck_fixbot" changeset="10396281">
    <nd ref="105150886"/>
    <nd ref="96291241"/>
    <tag k="highway" v="residential"/>
    <tag k="name" v="Ayres Road East"/>
  </way>
  <way id="11743767" version="3" timestamp="2010-07-09T05:22:25Z" uid="74617" user="JohnSmith" changeset="5170972">
    <nd ref="105151023"/>
    <nd ref="105151024"/>
    <tag k="highway" v="residential"/>
    <tag k="maxspeed" v="50"/>
    <tag k="maxspeed:source" v="default residential speed limit in Australia"/>
    <tag k="name" v="Peartree Court"/>
  </way>
  <way id="11743767" version="4" timestamp="2012-01-15T10:53:21Z" uid="147510" user="woodpeck_fixbot" changeset="10396281">
    <nd ref="105151023"/>
    <nd ref="105151024"/>
    <tag k="highway" v="residential"/>
    <tag k="name" v="Peartree Court"/>
  </way>
  <way id="11743829" version="4" timestamp="2010-07-09T05:22:41Z" uid="74617" user="JohnSmith" changeset="5170972">
    <nd ref="105151605"/>
    <nd ref="105151606"/>
    <nd ref="105151608"/>
    <nd ref="105151609"/>
    <nd ref="105148111"/>
    <tag k="highway" v="residential"/>
    <tag k="maxspeed" v="50"/>
    <tag k="maxspeed:source" v="default residential speed limit in Australia"/>
    <tag k="name" v="Whistlewood Close"/>
  </way>
  <way id="11743829" version="5" timestamp="2012-01-15T10:53:22Z" uid="147510" user="woodpeck_fixbot" changeset="10396281">
    <nd ref="105151605"/>
    <nd ref="105151606"/>
    <nd ref="105151608"/>
    <nd ref="105151609"/>
    <nd ref="105148111"/>
    <tag k="highway" v="residential"/>
    <tag k="name" v="Whistlewood Close"/>
  </way>
  <way id="11743874" version="8" timestamp="2009-09-11T12:09:55Z" uid="74617" user="JohnSmith" changeset="2445921">
    <nd ref="264791152"/>
    <nd ref="493351061"/>
    <nd ref="264791117"/>
    <nd ref="264791118"/>
    <nd ref="264791119"/>
    <nd ref="264791120"/>
    <nd ref="264791121"/>
    <nd ref="264791122"/>
    <nd ref="264791123"/>
    <nd ref="264791124"/>
    <nd ref="264791125"/>
    <nd ref="264791126"/>
    <nd ref="264791127"/>
    <nd ref="264791024"/>
    <nd ref="264791025"/>
    <nd ref="264791026"/>
    <nd ref="264791027"/>
    <nd ref="264791028"/>
    <nd ref="264791029"/>
    <nd ref="264791030"/>
    <nd ref="264791031"/>
    <nd ref="264791032"/>
    <nd ref="264791033"/>
    <nd ref="264791034"/>
    <nd ref="264791035"/>
    <nd ref="264791036"/>
    <nd ref="264791037"/>
    <nd ref="264791038"/>
    <nd ref="264790815"/>
    <nd ref="264790816"/>
    <nd ref="264790817"/>
    <nd ref="264790818"/>
    <nd ref="264790819"/>
    <nd ref="264790820"/>
    <nd ref="264790821"/>
    <nd ref="264790822"/>
    <nd ref="264790823"/>
    <nd ref="105138045"/>
    <tag k="highway" v="secondary"/>
  </way>
  <way id="11743874" version="9" timestamp="2009-11-21T10:22:40Z" uid="66376" user="Tony Morris" changeset="3174585">
    <nd ref="264791152"/>
    <nd ref="493351061"/>
    <nd ref="264791117"/>
    <nd ref="264791118"/>
    <nd ref="264791119"/>
    <nd ref="264791120"/>
    <nd ref="264791121"/>
    <nd ref="264791122"/>
    <nd ref="264791123"/>
    <nd ref="264791124"/>
    <nd ref="264791125"/>
    <nd ref="264791126"/>
    <nd ref="264791127"/>
    <nd ref="264791024"/>
    <nd ref="264791025"/>
    <nd ref="264791026"/>
    <nd ref="264791027"/>
    <nd ref="264791028"/>
    <nd ref="264791029"/>
    <nd ref="264791030"/>
    <nd ref="264791031"/>
    <nd ref="264791032"/>
    <nd ref="264791033"/>
    <nd ref="264791034"/>
    <nd ref="264791035"/>
    <nd ref="264791036"/>
    <nd ref="264791037"/>
    <nd ref="264791038"/>
    <nd ref="264790815"/>
    <nd ref="264790816"/>
    <nd ref="264790817"/>
    <nd ref="264790818"/>
    <nd ref="264790819"/>
    <nd ref="264790820"/>
    <nd ref="264790821"/>
    <nd ref="264790822"/>
    <nd ref="264790823"/>
    <nd ref="105138045"/>
    <tag k="highway" v="secondary"/>
  </way>
  <way id="11743874" version="10" timestamp="2010-04-10T16:45:56Z" uid="74617" user="JohnSmith" changeset="4383428">
    <nd ref="264791152"/>
    <nd ref="493351061"/>
    <nd ref="264791117"/>
    <nd ref="264791118"/>
    <nd ref="264791119"/>
    <nd ref="691686680"/>
    <nd ref="264791120"/>
    <nd ref="264791121"/>
    <nd ref="264791122"/>
    <nd ref="264791123"/>
    <nd ref="264791124"/>
    <nd ref="264791125"/>
    <nd ref="264791126"/>
    <nd ref="264791127"/>
    <nd ref="264791024"/>
    <nd ref="264791025"/>
    <nd ref="264791026"/>
    <nd ref="264791027"/>
    <nd ref="264791028"/>
    <nd ref="264791029"/>
    <nd ref="264791030"/>
    <nd ref="264791031"/>
    <nd ref="264791032"/>
    <nd ref="264791033"/>
    <nd ref="264791034"/>
    <nd ref="264791035"/>
    <nd ref="264791036"/>
    <nd ref="264791037"/>
    <nd ref="264791038"/>
    <nd ref="264790815"/>
    <nd ref="264790816"/>
    <nd ref="264790817"/>
    <nd ref="264790818"/>
    <nd ref="264790819"/>
    <nd ref="264790820"/>
    <nd ref="264790821"/>
    <nd ref="264790822"/>
    <nd ref="264790823"/>
    <nd ref="105138045"/>
    <tag k="highway" v="secondary"/>
  </way>
  <way id="11743909" version="2" timestamp="2010-02-18T08:13:22Z" uid="7617" user="Franc" changeset="3906977">
    <nd ref="105150931"/>
    <nd ref="105152582"/>
    <tag k="highway" v="residential"/>
    <tag k="name" v="Scott Place"/>
  </way>
  <way id="11743909" version="3" timestamp="2010-07-08T00:01:25Z" uid="74617" user="JohnSmith" changeset="5162525">
    <nd ref="105150931"/>
    <nd ref="105152582"/>
    <tag k="highway" v="residential"/>
    <tag k="maxspeed" v="50"/>
    <tag k="maxspeed:source" v="default residential speed limit in Australia"/>
    <tag k="name" v="Scott Place"/>
  </way>
  <way id="11743909" version="4" timestamp="2010-07-08T00:11:33Z" uid="74617" user="JohnSmith" changeset="5162525">
    <nd ref="105150931"/>
    <nd ref="105152582"/>
    <tag k="highway" v="residential"/>
    <tag k="maxspeed" v="50"/>
    <tag k="maxspeed:source" v="default residential speed limit in Australia"/>
    <tag k="name" v="Scott Place"/>
  </way>
  <way id="11743909" version="5" timestamp="2012-01-15T10:53:23Z" uid="147510" user="woodpeck_fixbot" changeset="10396281">
    <nd ref="105150931"/>
    <nd ref="105152582"/>
    <tag k="highway" v="residential"/>
    <tag k="name" v="Scott Place"/>
  </way>
</osm>
