<?xml version='1.0' encoding='UTF-8'?>
<osm version="0.6" generator="libosmium/2.20.0">
  <way id="117618402" version="1" timestamp="2011-06-14T09:43:06Z" uid="66036" user="h4v" changeset="8435400">
    <nd ref="1324672119"/>
    <nd ref="1324672100"/>
    <nd ref="1324672137"/>
    <nd ref="1192636421"/>
    <nd ref="738257524"/>
    <nd ref="1192636485"/>
    <nd ref="1192617305"/>
    <nd ref="1324672106"/>
    <nd ref="297867662"/>
    <nd ref="297867663"/>
    <nd ref="1166434496"/>
    <nd ref="297867664"/>
    <nd ref="297867665"/>
    <nd ref="297867666"/>
    <nd ref="1324672134"/>
    <nd ref="1324672112"/>
    <nd ref="1324672119"/>
    <tag k="addr:housenumber" v="19"/>
    <tag k="addr:street" v="Smugowa"/>
    <tag k="fixme" v="outline"/>
    <tag k="heritage" v="2"/>
    <tag k="heritage:operator" v="nid"/>
    <tag k="historic" v="ruins"/>
    <tag k="name" v="zespół budynków dawnej fabryki R. Biedermanna"/>
    <tag k="ref:nid" v="A/62"/>
  </way>
  <way id="117618402" version="2" timestamp="2011-06-17T20:50:08Z" uid="66036" user="h4v" changeset="8468449">
    <nd ref="1324672119"/>
    <nd ref="1324672100"/>
    <nd ref="1324672137"/>
    <nd ref="1192636421"/>
    <nd ref="738257524"/>
    <nd ref="1192636485"/>
    <nd ref="1192617305"/>
    <nd ref="1324672106"/>
    <nd ref="297867662"/>
    <nd ref="297867663"/>
    <nd ref="1166434496"/>
    <nd ref="297867664"/>
    <nd ref="297867665"/>
    <nd ref="297867666"/>
    <nd ref="1324672112"/>
    <nd ref="1324672119"/>
    <tag k="addr:housenumber" v="19"/>
    <tag k="addr:street" v="Smugowa"/>
    <tag k="fixme" v="outline"/>
    <tag k="heritage" v="2"/>
    <tag k="heritage:operator" v="nid"/>
    <tag k="historic" v="ruins"/>
    <tag k="name" v="zespół budynków dawnej fabryki R. Biedermanna"/>
    <tag k="ref:nid" v="A/62"/>
  </way>
  <way id="117618402" version="3" timestamp="2012-01-13T10:13:38Z" uid="338611" user="marek kleciak" changeset="10376894">
    <nd ref="1324672119"/>
    <nd ref="1324672100"/>
    <nd ref="1324672137"/>
    <nd ref="1192636421"/>
    <nd ref="738257524"/>
    <nd ref="1192636485"/>
    <nd ref="1192617305"/>
    <nd ref="1324672106"/>
    <nd ref="297867662"/>
    <nd ref="297867663"/>
    <nd ref="1166434496"/>
    <nd ref="297867664"/>
    <nd ref="1588219678"/>
    <nd ref="1588219695"/>
    <nd ref="297867665"/>
    <nd ref="297867666"/>
    <nd ref="1588219605"/>
    <nd ref="1324672112"/>
    <nd ref="1324672119"/>
    <tag k="addr:housenumber" v="19"/>
    <tag k="addr:street" v="Smugowa"/>
    <tag k="fixme" v="outline"/>
    <tag k="heritage" v="2"/>
    <tag k="heritage:operator" v="nid"/>
    <tag k="historic" v="ruins"/>
    <tag k="name" v="zespół budynków dawnej fabryki R. Biedermanna"/>
    <tag k="ref:nid" v="A/62"/>
  </way>
  <way id="117618402" version="4" timestamp="2012-02-10T09:58:45Z" uid="73912" user="Jacek_lodz" changeset="10641827">
    <nd ref="1324672119"/>
    <nd ref="1324672100"/>
    <nd ref="1324672137"/>
    <nd ref="1192636421"/>
    <nd ref="738257524"/>
    <nd ref="1192636485"/>
    <nd ref="1192617305"/>
    <nd ref="1324672106"/>
    <nd ref="297867662"/>
    <nd ref="297867663"/>
    <nd ref="1166434496"/>
    <nd ref="297867664"/>
    <nd ref="1588219678"/>
    <nd ref="1588219695"/>
    <nd ref="297867665"/>
    <nd ref="297867666"/>
    <nd ref="1588219605"/>
    <nd ref="1324672112"/>
    <nd ref="1324672119"/>
    <tag k="addr:housenumber" v="19"/>
    <tag k="addr:street" v="Smugowa"/>
    <tag k="fixme" v="outline"/>
    <tag k="heritage" v="2"/>
    <tag k="heritage:operator" v="nid"/>
    <tag k="historic" v="ruins"/>
    <tag k="name" v="zespół budynków dawnej fabryki R. Biedermanna"/>
    <tag k="ref:nid" v="A/62"/>
    <tag k="tourism" v="attraction"/>
  </way>
  <way id="117618405" version="1" timestamp="2011-06-14T09:43:06Z" uid="66036" user="h4v" changeset="8435400">
    <nd ref="1324672126"/>
    <nd ref="1324672128"/>
    <nd ref="1324672108"/>
    <nd ref="1324672118"/>
    <nd ref="1324672126"/>
    <tag k="building" v="yes"/>
  </way>
  <way id="117618406" version="1" timestamp="2011-06-14T09:43:06Z" uid="66036" user="h4v" changeset="8435400">
    <nd ref="1324672140"/>
    <nd ref="1324672121"/>
    <nd ref="1324672102"/>
    <nd ref="1324672110"/>
    <nd ref="1324672140"/>
    <tag k="building" v="yes"/>
  </way>
  <way id="117618407" version="1" timestamp="2011-06-14T09:43:06Z" uid="66036" user="h4v" changeset="8435400">
    <nd ref="1324672127"/>
    <nd ref="1324672136"/>
    <nd ref="1324672124"/>
    <nd ref="1324672115"/>
    <nd ref="1324672127"/>
    <tag k="heritage" v="2"/>
    <tag k="heritage:operator" v="nid"/>
    <tag k="historic" v="heritage"/>
    <tag k="name" v="zespół willi Oskara Zieglera"/>
    <tag k="ref:nid" v="A/272"/>
  </way>
  <way id="117618407" version="2" timestamp="2012-02-09T09:09:02Z" uid="73912" user="Jacek_lodz" changeset="10631827">
    <nd ref="1324672127"/>
    <nd ref="1324672136"/>
    <nd ref="1324672124"/>
    <nd ref="1324672115"/>
    <nd ref="1324672127"/>
    <tag k="heritage" v="2"/>
    <tag k="heritage:operator" v="nid"/>
    <tag k="historic" v="heritage"/>
    <tag k="name" v="zespół willi Oskara Zieglera"/>
    <tag k="ref:nid" v="A/272"/>
    <tag k="tourism" v="attraction"/>
  </way>
  <way id="117618410" version="1" timestamp="2011-06-14T09:43:07Z" uid="66036" user="h4v" changeset="8435400">
    <nd ref="1324672138"/>
    <nd ref="1324672120"/>
    <nd ref="1324672129"/>
    <nd ref="1324672109"/>
    <nd ref="1324672138"/>
    <tag k="building" v="yes"/>
  </way>
  <way id="117618410" version="2" timestamp="2011-11-29T14:34:04Z" uid="338611" user="marek kleciak" changeset="9988266">
    <nd ref="1324672138"/>
    <nd ref="1324672120"/>
    <nd ref="1324672129"/>
    <nd ref="1324672109"/>
    <nd ref="1324672138"/>
    <tag k="building" v="yes"/>
    <tag k="source" v="bing"/>
  </way>
  <way id="117618411" version="1" timestamp="2011-06-14T09:43:07Z" uid="66036" user="h4v" changeset="8435400">
    <nd ref="1324672133"/>
    <nd ref="1324672114"/>
    <nd ref="1324672123"/>
    <nd ref="1324672103"/>
    <nd ref="1324672133"/>
    <tag k="building" v="yes"/>
  </way>
  <way id="117618412" version="1" timestamp="2011-06-14T09:43:07Z" uid="66036" user="h4v" changeset="8435400">
    <nd ref="1324672131"/>
    <nd ref="1324672113"/>
    <tag k="addr:inclusion" v="potential"/>
    <tag k="addr:interpolation" v="odd"/>
  </way>
  <way id="117618413" version="1" timestamp="2011-06-14T09:43:07Z" uid="66036" user="h4v" changeset="8435400">
    <nd ref="1324672107"/>
    <nd ref="1324672117"/>
    <nd ref="1324672105"/>
    <nd ref="1324672098"/>
    <nd ref="1324672107"/>
    <tag k="addr:housenumber" v="1/3"/>
    <tag k="building" v="yes"/>
    <tag k="fixme" v="check"/>
    <tag k="heritage" v="2"/>
    <tag k="heritage:operator" v="nid"/>
    <tag k="historic" v="heritage"/>
    <tag k="old_name" v="szkoła powszechna"/>
    <tag k="ref:nid" v="A/103"/>
  </way>
  <way id="117618414" version="1" timestamp="2011-06-14T09:43:07Z" uid="66036" user="h4v" changeset="8435400">
    <nd ref="1324672099"/>
    <nd ref="1324672125"/>
    <nd ref="1324672116"/>
    <nd ref="1324672104"/>
    <nd ref="1324672142"/>
    <nd ref="1324672135"/>
    <nd ref="1324672141"/>
    <nd ref="1324672132"/>
    <nd ref="1324672122"/>
    <nd ref="1324672111"/>
    <nd ref="1324672101"/>
    <nd ref="1324672139"/>
    <nd ref="1324672099"/>
    <tag k="addr:housenumber" v="11"/>
    <tag k="building" v="yes"/>
    <tag k="name" v="Willa Oskara Zieglera"/>
  </way>
</osm>
