<?xml version='1.0' encoding='UTF-8'?>
<osm version="0.6" generator="libosmium/2.20.0">
  <way id="117858258" version="1" timestamp="2011-06-15T18:28:36Z" uid="88880" user="firsttimelinux" changeset="8449589">
    <nd ref="282055655"/>
    <nd ref="282055656"/>
    <nd ref="282055657"/>
    <nd ref="479307438"/>
    <nd ref="282055658"/>
    <nd ref="282055659"/>
    <nd ref="282055660"/>
    <nd ref="282055662"/>
    <nd ref="282055664"/>
    <nd ref="282055665"/>
    <nd ref="794105958"/>
    <nd ref="794105965"/>
    <nd ref="282055666"/>
    <nd ref="794105967"/>
    <nd ref="794105970"/>
    <nd ref="794105974"/>
    <nd ref="282055667"/>
    <nd ref="794105979"/>
    <nd ref="282055668"/>
    <nd ref="282055669"/>
    <nd ref="282055670"/>
    <nd ref="282055671"/>
    <nd ref="282057102"/>
    <tag k="highway" v="track"/>
    <tag k="tracktype" v="grade2"/>
  </way>
  <way id="117858259" version="1" timestamp="2011-06-15T18:28:37Z" uid="88880" user="firsttimelinux" changeset="8449589">
    <nd ref="319097289"/>
    <nd ref="319097291"/>
    <nd ref="319097293"/>
    <nd ref="319097295"/>
    <nd ref="319097297"/>
    <nd ref="319097299"/>
    <nd ref="319097006"/>
    <nd ref="1091983452"/>
    <nd ref="319097007"/>
    <nd ref="1091983931"/>
    <nd ref="319097008"/>
    <nd ref="1091982737"/>
    <nd ref="1091983652"/>
    <nd ref="319155368"/>
    <nd ref="60270397"/>
    <tag k="highway" v="residential"/>
    <tag k="name" v="Solit체denstrasse"/>
  </way>
  <way id="117858259" version="2" timestamp="2011-11-17T22:47:06Z" uid="44456" user="twalter" changeset="9858893">
    <nd ref="319097289"/>
    <nd ref="319097291"/>
    <nd ref="319097293"/>
    <nd ref="319097295"/>
    <nd ref="319097297"/>
    <nd ref="319097299"/>
    <nd ref="319097006"/>
    <nd ref="1091983452"/>
    <nd ref="319097007"/>
    <nd ref="1506831500"/>
    <nd ref="1091983931"/>
    <nd ref="319097008"/>
    <nd ref="1091982737"/>
    <nd ref="1091983652"/>
    <nd ref="319155368"/>
    <nd ref="60270397"/>
    <tag k="highway" v="residential"/>
    <tag k="name" v="Solit체denstrasse"/>
  </way>
  <way id="117858260" version="1" timestamp="2011-06-15T18:28:37Z" uid="88880" user="firsttimelinux" changeset="8449589">
    <nd ref="60635034"/>
    <nd ref="1092338885"/>
    <nd ref="60635035"/>
    <nd ref="1156784266"/>
    <nd ref="60635036"/>
    <tag k="cycleway:right" v="lane"/>
    <tag k="highway" v="secondary"/>
    <tag k="loc_ref" v="5"/>
    <tag k="name" v="Speicherstrasse"/>
    <tag k="nat_ref" v="446"/>
    <tag k="ref" v="446"/>
  </way>
  <way id="117858260" version="2" timestamp="2011-12-25T22:51:19Z" uid="44456" user="twalter" changeset="10203663">
    <nd ref="60635034"/>
    <nd ref="1092338885"/>
    <nd ref="60635035"/>
    <nd ref="1156784266"/>
    <nd ref="60635036"/>
    <tag k="cycleway:right" v="lane"/>
    <tag k="highway" v="secondary"/>
    <tag k="loc_ref" v="5"/>
    <tag k="maxspeed" v="80"/>
    <tag k="name" v="Speicherstrasse"/>
    <tag k="nat_ref" v="446"/>
    <tag k="ref" v="446"/>
  </way>
  <way id="117858260" version="3" timestamp="2012-03-21T22:22:18Z" uid="44456" user="twalter" changeset="11057921">
    <nd ref="60635034"/>
    <nd ref="1092338885"/>
    <nd ref="60635035"/>
    <nd ref="1156784266"/>
    <nd ref="60635036"/>
    <tag k="cycleway:right" v="lane"/>
    <tag k="highway" v="secondary"/>
    <tag k="lit" v="yes"/>
    <tag k="loc_ref" v="5"/>
    <tag k="maxspeed" v="80"/>
    <tag k="name" v="Speicherstrasse"/>
    <tag k="nat_ref" v="446"/>
    <tag k="ref" v="446"/>
  </way>
  <way id="117858261" version="1" timestamp="2011-06-15T18:28:37Z" uid="88880" user="firsttimelinux" changeset="8449589">
    <nd ref="1235642541"/>
    <nd ref="267735601"/>
    <nd ref="267735602"/>
    <nd ref="267735605"/>
    <nd ref="267735606"/>
    <nd ref="267735607"/>
    <nd ref="267735608"/>
    <nd ref="267735612"/>
    <tag k="highway" v="residential"/>
    <tag k="name" v="Obere Berneggstrasse"/>
  </way>
  <way id="117858261" version="2" timestamp="2011-10-31T10:29:20Z" uid="44456" user="twalter" changeset="9701956"/>
  <way id="117858262" version="1" timestamp="2011-06-15T18:28:37Z" uid="88880" user="firsttimelinux" changeset="8449589">
    <nd ref="974036442"/>
    <nd ref="1098737498"/>
    <nd ref="974035946"/>
    <nd ref="974036317"/>
    <nd ref="974036406"/>
    <nd ref="974036165"/>
    <nd ref="974036379"/>
    <tag k="highway" v="track"/>
    <tag k="mtb:scale" v="1"/>
    <tag k="mtb:scale:uphill" v="2"/>
    <tag k="name" v="Kapfweg"/>
    <tag k="surface" v="grass"/>
    <tag k="tracktype" v="grade5"/>
  </way>
  <way id="117858263" version="1" timestamp="2011-06-15T18:28:38Z" uid="88880" user="firsttimelinux" changeset="8449589">
    <nd ref="319492601"/>
    <nd ref="60635123"/>
    <nd ref="60635124"/>
    <tag k="highway" v="tertiary"/>
    <tag k="name" v="Sankt Georgenstrasse"/>
  </way>
  <way id="117858263" version="2" timestamp="2012-02-22T10:57:45Z" uid="178186" user="mdk" changeset="10758041"/>
  <way id="117858264" version="1" timestamp="2011-06-15T18:28:38Z" uid="88880" user="firsttimelinux" changeset="8449589">
    <nd ref="60270397"/>
    <nd ref="738070129"/>
    <nd ref="309633743"/>
    <nd ref="738070110"/>
    <nd ref="738070138"/>
    <tag k="highway" v="secondary"/>
    <tag k="loc_ref" v="12"/>
    <tag k="name" v="Teufenerstrasse"/>
    <tag k="nat_ref" v="447"/>
    <tag k="note" v="Kantonsstrasse I. Klasse"/>
    <tag k="ref" v="447"/>
    <tag k="trolley_wire" v="yes"/>
  </way>
  <way id="117858264" version="2" timestamp="2011-07-02T14:16:03Z" uid="334389" user="ueliw0" changeset="8608407">
    <nd ref="60270397"/>
    <nd ref="738070129"/>
    <nd ref="309633743"/>
    <nd ref="738070110"/>
    <nd ref="1346889659"/>
    <nd ref="738070138"/>
    <tag k="cycleway:right" v="lane"/>
    <tag k="highway" v="secondary"/>
    <tag k="loc_ref" v="12"/>
    <tag k="name" v="Teufenerstrasse"/>
    <tag k="nat_ref" v="447"/>
    <tag k="note" v="Kantonsstrasse I. Klasse"/>
    <tag k="ref" v="447"/>
    <tag k="trolley_wire" v="yes"/>
  </way>
  <way id="117858265" version="1" timestamp="2011-06-15T18:28:38Z" uid="88880" user="firsttimelinux" changeset="8449589">
    <nd ref="1326676762"/>
    <nd ref="320933823"/>
    <tag k="cycleway" v="opposite_lane"/>
    <tag k="highway" v="residential"/>
    <tag k="name" v="Haggenhaldenstrasse"/>
    <tag k="oneway" v="yes"/>
  </way>
  <way id="117858265" version="2" timestamp="2011-07-02T12:34:03Z" uid="334389" user="ueliw0" changeset="8607528">
    <nd ref="1326676762"/>
    <nd ref="320933823"/>
    <tag k="highway" v="residential"/>
    <tag k="name" v="Haggenhaldenstrasse"/>
    <tag k="oneway" v="yes"/>
  </way>
  <way id="117858266" version="1" timestamp="2011-06-15T18:28:38Z" uid="88880" user="firsttimelinux" changeset="8449589">
    <nd ref="539400615"/>
    <nd ref="539400610"/>
    <nd ref="60635034"/>
    <tag k="highway" v="service"/>
    <tag k="name" v="B채renweg"/>
    <tag k="service" v="parking_aisle"/>
  </way>
  <way id="117858267" version="1" timestamp="2011-06-15T18:28:39Z" uid="88880" user="firsttimelinux" changeset="8449589">
    <nd ref="320932044"/>
    <nd ref="282057109"/>
    <nd ref="282057110"/>
    <nd ref="282057111"/>
    <nd ref="1091983561"/>
    <nd ref="320947326"/>
    <nd ref="1091984263"/>
    <nd ref="282057112"/>
    <tag k="cycleway" v="opposite_track"/>
    <tag k="highway" v="residential"/>
    <tag k="name" v="Oberstrasse"/>
  </way>
  <way id="117858267" version="2" timestamp="2011-07-02T12:34:08Z" uid="334389" user="ueliw0" changeset="8607528">
    <nd ref="320932044"/>
    <nd ref="282057109"/>
    <nd ref="282057110"/>
    <nd ref="282057111"/>
    <nd ref="1091983561"/>
    <nd ref="320947326"/>
    <nd ref="1091984263"/>
    <nd ref="282057112"/>
    <tag k="highway" v="residential"/>
    <tag k="name" v="Oberstrasse"/>
  </way>
  <way id="117858268" version="1" timestamp="2011-06-15T18:28:39Z" uid="88880" user="firsttimelinux" changeset="8449589">
    <nd ref="974035957"/>
    <nd ref="289744389"/>
    <nd ref="539400585"/>
    <nd ref="539400582"/>
    <nd ref="539400584"/>
    <nd ref="539400581"/>
    <nd ref="289744390"/>
    <nd ref="1098737442"/>
    <nd ref="539400580"/>
    <tag k="highway" v="track"/>
    <tag k="name" v="Kapfwaldweg"/>
  </way>
  <way id="117858269" version="1" timestamp="2011-06-15T18:28:39Z" uid="88880" user="firsttimelinux" changeset="8449589">
    <nd ref="738070061"/>
    <nd ref="738070020"/>
    <nd ref="1241280844"/>
    <nd ref="1241280891"/>
    <nd ref="738070086"/>
    <nd ref="1241280899"/>
    <nd ref="738070054"/>
    <tag k="highway" v="residential"/>
    <tag k="name" v="Nestweiherstrasse"/>
  </way>
  <way id="117858270" version="1" timestamp="2011-06-15T18:28:39Z" uid="88880" user="firsttimelinux" changeset="8449589">
    <nd ref="320932648"/>
    <nd ref="320932650"/>
    <nd ref="320932044"/>
    <tag k="highway" v="residential"/>
    <tag k="name" v="Haselstrasse"/>
  </way>
  <way id="117858271" version="1" timestamp="2011-06-15T18:28:39Z" uid="88880" user="firsttimelinux" changeset="8449589">
    <nd ref="479311456"/>
    <nd ref="479311475"/>
    <nd ref="479311492"/>
    <nd ref="479311520"/>
    <nd ref="479311559"/>
    <nd ref="479311601"/>
    <nd ref="479311620"/>
    <nd ref="479311709"/>
    <tag k="highway" v="track"/>
    <tag k="name" v="Solit체denweg"/>
    <tag k="tracktype" v="grade2"/>
  </way>
  <way id="117858272" version="1" timestamp="2011-06-15T18:28:40Z" uid="88880" user="firsttimelinux" changeset="8449589">
    <nd ref="320932043"/>
    <nd ref="320932044"/>
    <tag k="cycleway" v="opposite_track"/>
    <tag k="highway" v="residential"/>
    <tag k="name" v="Oberstrasse"/>
  </way>
  <way id="117858272" version="2" timestamp="2011-07-02T12:34:06Z" uid="334389" user="ueliw0" changeset="8607528">
    <nd ref="320932043"/>
    <nd ref="320932044"/>
    <tag k="highway" v="residential"/>
    <tag k="name" v="Oberstrasse"/>
  </way>
  <way id="117858273" version="1" timestamp="2011-06-15T18:28:40Z" uid="88880" user="firsttimelinux" changeset="8449589">
    <nd ref="312741455"/>
    <nd ref="312741469"/>
    <nd ref="60635037"/>
    <nd ref="60635038"/>
    <nd ref="60635039"/>
    <nd ref="60635040"/>
    <nd ref="60635041"/>
    <nd ref="60635042"/>
    <nd ref="60635043"/>
    <nd ref="60635044"/>
    <nd ref="60635045"/>
    <nd ref="60635046"/>
    <nd ref="60635047"/>
    <nd ref="60635048"/>
    <nd ref="60635049"/>
    <nd ref="1104037000"/>
    <nd ref="60635050"/>
    <nd ref="60635051"/>
    <nd ref="60635052"/>
    <nd ref="60635053"/>
    <nd ref="60635054"/>
    <nd ref="1170313641"/>
    <nd ref="60635055"/>
    <nd ref="60635056"/>
    <nd ref="60635057"/>
    <nd ref="60635058"/>
    <nd ref="60635059"/>
    <nd ref="330923237"/>
    <nd ref="1170313009"/>
    <nd ref="330923307"/>
    <nd ref="60635061"/>
    <nd ref="60635062"/>
    <nd ref="1170313857"/>
    <nd ref="60635064"/>
    <tag k="highway" v="unclassified"/>
    <tag k="maxspeed" v="60"/>
    <tag k="name" v="Sankt Georgenstrasse"/>
  </way>
  <way id="117858273" version="2" timestamp="2012-03-21T22:22:19Z" uid="44456" user="twalter" changeset="11057921"/>
  <way id="117858274" version="1" timestamp="2011-06-15T18:28:40Z" uid="88880" user="firsttimelinux" changeset="8449589">
    <nd ref="267735612"/>
    <nd ref="738070061"/>
    <tag k="highway" v="residential"/>
    <tag k="name" v="Nestweiherstrasse"/>
  </way>
  <way id="117858275" version="1" timestamp="2011-06-15T18:28:41Z" uid="88880" user="firsttimelinux" changeset="8449589">
    <nd ref="312739576"/>
    <nd ref="269470774"/>
    <nd ref="1159360889"/>
    <nd ref="269470775"/>
    <nd ref="1159360078"/>
    <nd ref="269470776"/>
    <nd ref="269470777"/>
    <nd ref="269470778"/>
    <nd ref="269470779"/>
    <nd ref="269470780"/>
    <nd ref="269470781"/>
    <nd ref="269470782"/>
    <nd ref="269470783"/>
    <nd ref="269470784"/>
    <nd ref="269470785"/>
    <nd ref="974036350"/>
    <nd ref="269470786"/>
    <nd ref="269470787"/>
    <nd ref="269470788"/>
    <nd ref="269470789"/>
    <nd ref="269470790"/>
    <tag k="highway" v="residential"/>
    <tag k="name" v="Dreilindenstrasse"/>
  </way>
  <way id="117858275" version="2" timestamp="2012-02-22T10:57:43Z" uid="178186" user="mdk" changeset="10758041"/>
  <way id="117858276" version="1" timestamp="2011-06-15T18:28:41Z" uid="88880" user="firsttimelinux" changeset="8449589">
    <nd ref="738070138"/>
    <nd ref="267735613"/>
    <nd ref="738070105"/>
    <nd ref="1091983829"/>
    <nd ref="60270394"/>
    <nd ref="60635818"/>
    <tag k="highway" v="secondary"/>
    <tag k="loc_ref" v="12"/>
    <tag k="name" v="Teufenerstrasse"/>
    <tag k="nat_ref" v="447"/>
    <tag k="note" v="Kantonsstrasse I. Klasse"/>
    <tag k="ref" v="447"/>
    <tag k="trolley_wire" v="yes"/>
  </way>
  <way id="117858276" version="2" timestamp="2011-07-02T14:16:04Z" uid="334389" user="ueliw0" changeset="8608407">
    <nd ref="738070138"/>
    <nd ref="267735613"/>
    <nd ref="1346889578"/>
    <nd ref="738070105"/>
    <nd ref="1091983829"/>
    <nd ref="60270394"/>
    <nd ref="60635818"/>
    <tag k="cycleway:right" v="lane"/>
    <tag k="highway" v="secondary"/>
    <tag k="loc_ref" v="12"/>
    <tag k="name" v="Teufenerstrasse"/>
    <tag k="nat_ref" v="447"/>
    <tag k="note" v="Kantonsstrasse I. Klasse"/>
    <tag k="ref" v="447"/>
    <tag k="trolley_wire" v="yes"/>
  </way>
</osm>
