<?xml version='1.0' encoding='UTF-8'?>
<osm version="0.6" generator="libosmium/2.20.0">
  <way id="11813768" version="2" timestamp="2010-01-10T10:26:13Z" uid="20587" user="balrog-kun" changeset="3585409">
    <nd ref="105757851"/>
    <nd ref="105757854"/>
    <nd ref="105757892"/>
    <nd ref="105757883"/>
    <nd ref="105757842"/>
    <nd ref="105757858"/>
    <tag k="highway" v="residential"/>
    <tag k="maxweight" v="2.5"/>
    <tag k="name" v="Poznańska"/>
    <tag k="oneway" v="yes"/>
  </way>
  <way id="11813768" version="3" timestamp="2010-08-18T16:04:44Z" uid="20587" user="balrog-kun" changeset="5528047"/>
  <way id="11813770" version="3" timestamp="2008-11-14T20:56:42Z" uid="20587" user="balrog-kun" changeset="747594">
    <nd ref="32049248"/>
    <nd ref="105757863"/>
    <nd ref="312054455"/>
    <nd ref="108023846"/>
    <nd ref="312054456"/>
    <nd ref="312054490"/>
    <nd ref="105757844"/>
    <nd ref="105757858"/>
    <tag k="created_by" v="JOSM"/>
    <tag k="highway" v="residential"/>
    <tag k="name" v="Poznańska"/>
    <tag k="oneway" v="yes"/>
  </way>
  <way id="11813770" version="4" timestamp="2011-06-18T06:05:15Z" uid="20587" user="balrog-kun" changeset="8470341">
    <nd ref="32049248"/>
    <nd ref="1329315919"/>
    <nd ref="1329316101"/>
    <nd ref="105757863"/>
    <nd ref="312054455"/>
    <nd ref="108023846"/>
    <nd ref="312054456"/>
    <nd ref="312054490"/>
    <nd ref="1329316112"/>
    <nd ref="105757844"/>
    <nd ref="1329315990"/>
    <nd ref="105757858"/>
    <tag k="highway" v="residential"/>
    <tag k="name" v="Poznańska"/>
    <tag k="oneway" v="yes"/>
  </way>
  <way id="11813770" version="5" timestamp="2011-06-19T01:00:50Z" uid="20587" user="balrog-kun" changeset="8479249">
    <nd ref="32049248"/>
    <nd ref="1329315919"/>
    <nd ref="1329316101"/>
    <nd ref="105757863"/>
    <nd ref="312054455"/>
    <nd ref="108023846"/>
    <nd ref="312054456"/>
    <nd ref="312054490"/>
    <nd ref="1329316112"/>
    <nd ref="105757844"/>
    <nd ref="1329315990"/>
    <nd ref="1330269555"/>
    <nd ref="105757858"/>
    <tag k="highway" v="residential"/>
    <tag k="name" v="Poznańska"/>
    <tag k="oneway" v="yes"/>
  </way>
  <way id="11813770" version="6" timestamp="2011-08-18T13:23:20Z" uid="475943" user="sir-mapalot" changeset="9056957">
    <nd ref="32049248"/>
    <nd ref="1329315919"/>
    <nd ref="1329316101"/>
    <nd ref="105757863"/>
    <nd ref="312054455"/>
    <nd ref="108023846"/>
    <nd ref="312054456"/>
    <nd ref="312054490"/>
    <nd ref="1329316112"/>
    <nd ref="105757844"/>
    <tag k="highway" v="residential"/>
    <tag k="name" v="Poznańska"/>
    <tag k="oneway" v="yes"/>
    <tag k="surface" v="asphalt"/>
  </way>
  <way id="11813771" version="2" timestamp="2008-02-19T18:46:14Z" uid="20587" user="balrog-kun" changeset="160261">
    <nd ref="105757883"/>
    <nd ref="105757879"/>
    <nd ref="105757873"/>
    <nd ref="248460725"/>
    <nd ref="105757871"/>
    <nd ref="105757866"/>
    <tag k="created_by" v="JOSM"/>
    <tag k="highway" v="residential"/>
    <tag k="name" v="Św. Barbary"/>
    <tag k="oneway" v="yes"/>
  </way>
  <way id="11813771" version="3" timestamp="2008-07-05T00:05:05Z" uid="20587" user="balrog-kun" changeset="400893">
    <nd ref="105757883"/>
    <nd ref="105757879"/>
    <nd ref="105757873"/>
    <nd ref="248460725"/>
    <nd ref="105757871"/>
    <nd ref="105757866"/>
    <tag k="created_by" v="JOSM"/>
    <tag k="highway" v="residential"/>
    <tag k="name" v="Świętej Barbary"/>
    <tag k="oneway" v="yes"/>
  </way>
  <way id="11813771" version="4" timestamp="2011-06-19T00:48:37Z" uid="20587" user="balrog-kun" changeset="8479249">
    <nd ref="105757883"/>
    <nd ref="105757879"/>
    <nd ref="105757873"/>
    <nd ref="1330266104"/>
    <nd ref="248460725"/>
    <nd ref="105757871"/>
    <nd ref="105757866"/>
    <tag k="highway" v="residential"/>
    <tag k="name" v="Świętej Barbary"/>
    <tag k="oneway" v="yes"/>
  </way>
  <way id="11813773" version="2" timestamp="2009-02-25T16:27:26Z" uid="20587" user="balrog-kun" changeset="666062">
    <nd ref="105757890"/>
    <nd ref="32553125"/>
    <tag k="created_by" v="JOSM"/>
    <tag k="highway" v="residential"/>
    <tag k="name" v="Jana Pankiewicza"/>
    <tag k="oneway" v="yes"/>
  </way>
  <way id="11813773" version="3" timestamp="2011-06-19T00:48:48Z" uid="20587" user="balrog-kun" changeset="8479249">
    <nd ref="105757890"/>
    <nd ref="1330266150"/>
    <nd ref="1330266254"/>
    <nd ref="32553125"/>
    <tag k="highway" v="residential"/>
    <tag k="name" v="Jana Pankiewicza"/>
    <tag k="oneway" v="yes"/>
  </way>
  <way id="11813775" version="2" timestamp="2008-02-20T20:09:03Z" uid="20587" user="balrog-kun" changeset="164283"/>
</osm>
