<?xml version='1.0' encoding='UTF-8'?>
<osm version="0.6" generator="libosmium/2.20.0">
  <way id="11841239" version="1" timestamp="2007-11-10T21:04:14Z" uid="8931" user="bluepup" changeset="463745">
    <nd ref="105869225"/>
    <nd ref="105869406"/>
    <nd ref="105869412"/>
    <tag k="created_by" v="JOSM"/>
    <tag k="highway" v="residential"/>
  </way>
  <way id="11841239" version="2" timestamp="2008-01-31T20:03:04Z" uid="21756" user="Torfnase" changeset="715961">
    <nd ref="105869257"/>
    <nd ref="105869254"/>
    <nd ref="105869249"/>
    <nd ref="105869245"/>
    <nd ref="105869340"/>
    <nd ref="105869241"/>
    <nd ref="105869238"/>
    <nd ref="105869233"/>
    <nd ref="105869228"/>
    <nd ref="105869225"/>
    <nd ref="105869406"/>
    <tag k="created_by" v="JOSM"/>
    <tag k="highway" v="residential"/>
    <tag k="maxspeed" v="30"/>
    <tag k="name" v="Anton-Heinen-Straße"/>
  </way>
  <way id="11841239" version="3" timestamp="2008-02-01T19:36:00Z" uid="21756" user="Torfnase" changeset="8860">
    <nd ref="105869257"/>
    <nd ref="244525434"/>
    <nd ref="105869254"/>
    <nd ref="244525429"/>
    <nd ref="105869249"/>
    <nd ref="105869245"/>
    <nd ref="105869340"/>
    <nd ref="105869241"/>
    <nd ref="105869238"/>
    <nd ref="105869233"/>
    <nd ref="105869228"/>
    <nd ref="105869225"/>
    <nd ref="105869406"/>
    <tag k="created_by" v="JOSM"/>
    <tag k="highway" v="residential"/>
    <tag k="maxspeed" v="30"/>
    <tag k="name" v="Anton-Heinen-Straße"/>
  </way>
  <way id="11841239" version="4" timestamp="2008-08-27T00:26:43Z" uid="29639" user="bielebog" changeset="430291">
    <nd ref="105869257"/>
    <nd ref="244525434"/>
    <nd ref="291469929"/>
    <nd ref="105869254"/>
    <nd ref="291469931"/>
    <nd ref="244525429"/>
    <nd ref="105869249"/>
    <nd ref="291469934"/>
    <nd ref="105869245"/>
    <nd ref="105869340"/>
    <nd ref="105869241"/>
    <nd ref="105869238"/>
    <nd ref="105869233"/>
    <nd ref="105869228"/>
    <nd ref="105869225"/>
    <nd ref="105869406"/>
    <tag k="created_by" v="JOSM"/>
    <tag k="highway" v="residential"/>
    <tag k="maxspeed" v="30"/>
    <tag k="name" v="Anton-Heinen-Straße"/>
  </way>
  <way id="11841239" version="5" timestamp="2009-06-28T10:14:19Z" uid="81732" user="zahilb" changeset="1660999">
    <nd ref="105869257"/>
    <nd ref="244525434"/>
    <nd ref="291469929"/>
    <nd ref="291469931"/>
    <nd ref="244525429"/>
    <nd ref="105869249"/>
    <nd ref="291469934"/>
    <nd ref="105869340"/>
    <nd ref="105869238"/>
    <nd ref="105869228"/>
    <nd ref="105869225"/>
    <nd ref="105869406"/>
    <tag k="created_by" v="JOSM"/>
    <tag k="highway" v="residential"/>
    <tag k="maxspeed" v="30"/>
    <tag k="name" v="Anton-Heinen-Straße"/>
  </way>
  <way id="11841239" version="6" timestamp="2011-09-04T17:35:58Z" uid="29639" user="bielebog" changeset="9210908">
    <nd ref="105869257"/>
    <nd ref="244525434"/>
    <nd ref="291469929"/>
    <nd ref="291469931"/>
    <nd ref="244525429"/>
    <nd ref="105869249"/>
    <nd ref="291469934"/>
    <nd ref="105869340"/>
    <nd ref="105869238"/>
    <nd ref="105869228"/>
    <nd ref="105869225"/>
    <nd ref="105869406"/>
    <tag k="addr:city" v="Paderborn"/>
    <tag k="addr:country" v="DE"/>
    <tag k="addr:housenumber" v="19"/>
    <tag k="addr:street" v="Anton-Heinen-Straße"/>
    <tag k="highway" v="residential"/>
    <tag k="maxspeed" v="30"/>
    <tag k="name" v="Anton-Heinen-Straße"/>
  </way>
  <way id="11841239" version="7" timestamp="2011-09-25T21:28:08Z" uid="29639" user="bielebog" changeset="9397244">
    <nd ref="105869257"/>
    <nd ref="244525434"/>
    <nd ref="291469929"/>
    <nd ref="291469931"/>
    <nd ref="244525429"/>
    <nd ref="105869249"/>
    <nd ref="291469934"/>
    <nd ref="105869340"/>
    <nd ref="105869238"/>
    <nd ref="105869228"/>
    <nd ref="105869225"/>
    <nd ref="1445805655"/>
    <nd ref="105869406"/>
    <tag k="addr:city" v="Paderborn"/>
    <tag k="addr:country" v="DE"/>
    <tag k="addr:housenumber" v="19"/>
    <tag k="addr:street" v="Anton-Heinen-Straße"/>
    <tag k="highway" v="residential"/>
    <tag k="maxspeed" v="30"/>
    <tag k="name" v="Anton-Heinen-Straße"/>
  </way>
  <way id="11841239" version="8" timestamp="2012-02-17T09:55:24Z" uid="131670" user="Ana Luisa" changeset="10709419"/>
  <way id="11841427" version="7" timestamp="2009-02-23T12:18:59Z" uid="34428" user="usm78-gis" changeset="634299"/>
  <way id="11841504" version="2" timestamp="2008-07-04T09:01:24Z" uid="6975" user="ulfl" changeset="389415">
    <nd ref="106138230"/>
    <nd ref="106138226"/>
    <tag k="highway" v="track"/>
    <tag k="name" v="Friedhofstraße"/>
    <tag k="tracktype" v="grade2"/>
  </way>
  <way id="11841504" version="3" timestamp="2009-09-19T15:24:45Z" uid="16882" user="doktrino" changeset="2535753">
    <nd ref="106138230"/>
    <nd ref="501937921"/>
    <nd ref="106138226"/>
    <tag k="highway" v="track"/>
    <tag k="name" v="Friedhofstraße"/>
    <tag k="tracktype" v="grade2"/>
  </way>
  <way id="11841667" version="6" timestamp="2010-07-03T21:11:34Z" uid="4467" user="Rosscoe" changeset="5128056">
    <nd ref="106045409"/>
    <nd ref="106143414"/>
    <nd ref="106143417"/>
    <nd ref="106143420"/>
    <nd ref="798994954"/>
    <nd ref="106143423"/>
    <nd ref="798995343"/>
    <nd ref="106143427"/>
    <nd ref="106143429"/>
    <nd ref="106143433"/>
    <nd ref="106143435"/>
    <nd ref="444193054"/>
    <nd ref="106143439"/>
    <nd ref="106143443"/>
    <nd ref="106143447"/>
    <nd ref="106143449"/>
    <tag k="highway" v="residential"/>
    <tag k="name" v="University Drive"/>
    <tag k="tiger:cfcc" v="A41"/>
    <tag k="tiger:county" v="Centre, PA"/>
    <tag k="tiger:name_base" v="University"/>
    <tag k="tiger:name_type" v="Dr"/>
    <tag k="tiger:separated" v="no"/>
    <tag k="tiger:source" v="tiger_import_dch_v0.6_20070829"/>
    <tag k="tiger:tlid" v="50395872:50395871:50404138:50383493:50393473:50378461:50381923:50380021:50377725:50370799"/>
    <tag k="tiger:upload_uuid" v="bulk_upload.pl-581644c1-bab1-48ed-84ed-ad8c17badfb4"/>
  </way>
  <way id="11841667" version="7" timestamp="2012-03-01T07:33:43Z" uid="252811" user="rickmastfan67" changeset="10834929">
    <nd ref="106045409"/>
    <nd ref="106143414"/>
    <nd ref="106143417"/>
    <nd ref="106143420"/>
    <nd ref="798994954"/>
    <nd ref="106143423"/>
    <nd ref="798995343"/>
    <nd ref="106143427"/>
    <nd ref="106143429"/>
    <nd ref="106143433"/>
    <nd ref="106143435"/>
    <nd ref="444193054"/>
    <nd ref="106143439"/>
    <nd ref="106143443"/>
    <nd ref="106143447"/>
    <nd ref="106143449"/>
    <tag k="highway" v="residential"/>
    <tag k="lanes" v="2"/>
    <tag k="name" v="University Drive"/>
    <tag k="odbl" v="clean"/>
    <tag k="odbl:note" v="The &quot;Declining&quot; user only expanded the road name (Dr &gt; Drive). It can be considered as a trivial edit, thus the way is clean."/>
    <tag k="tiger:cfcc" v="A41"/>
    <tag k="tiger:county" v="Centre, PA"/>
    <tag k="tiger:name_base" v="University"/>
    <tag k="tiger:name_type" v="Dr"/>
    <tag k="tiger:separated" v="no"/>
    <tag k="tiger:source" v="tiger_import_dch_v0.6_20070829"/>
    <tag k="tiger:tlid" v="50395872:50395871:50404138:50383493:50393473:50378461:50381923:50380021:50377725:50370799"/>
    <tag k="tiger:upload_uuid" v="bulk_upload.pl-581644c1-bab1-48ed-84ed-ad8c17badfb4"/>
  </way>
  <way id="11841990" version="17" timestamp="2010-07-03T21:17:31Z" uid="4467" user="Rosscoe" changeset="5128089">
    <nd ref="106155135"/>
    <nd ref="106155137"/>
    <nd ref="105991800"/>
    <nd ref="106155138"/>
    <nd ref="105955302"/>
    <tag k="highway" v="trunk"/>
    <tag k="maxspeed" v="45 mph"/>
    <tag k="name" v="Jacksonville Road"/>
    <tag k="old_ref_legislative" v="14028"/>
    <tag k="oneway" v="yes"/>
    <tag k="ref" v="US 220;PA 26"/>
    <tag k="tiger:cfcc" v="A35; A41"/>
    <tag k="tiger:county" v="Centre, PA"/>
    <tag k="tiger:separated" v="yes"/>
    <tag k="tiger:source" v="tiger_import_dch_v0.6_20070829"/>
    <tag k="tiger:tlid" v="50398930:50398931:50361122:50397746:50397747:50399712; 50406164:50406165:50406148:50406149"/>
    <tag k="tiger:upload_uuid" v="bulk_upload.pl-581644c1-bab1-48ed-84ed-ad8c17badfb4"/>
  </way>
  <way id="11841990" version="18" timestamp="2010-12-12T10:51:30Z" uid="207745" user="NE2" changeset="6633389">
    <nd ref="106155135"/>
    <nd ref="106155137"/>
    <nd ref="105991800"/>
    <nd ref="106155138"/>
    <nd ref="105955302"/>
    <tag k="NHS_High_Priority_Corridor" v="9"/>
    <tag k="highway" v="trunk"/>
    <tag k="maxspeed" v="45 mph"/>
    <tag k="name" v="Jacksonville Road"/>
    <tag k="old_ref_legislative" v="14028"/>
    <tag k="oneway" v="yes"/>
    <tag k="ref" v="US 220;PA 26"/>
    <tag k="tiger:cfcc" v="A35; A41"/>
    <tag k="tiger:county" v="Centre, PA"/>
    <tag k="tiger:separated" v="yes"/>
    <tag k="tiger:source" v="tiger_import_dch_v0.6_20070829"/>
    <tag k="tiger:tlid" v="50398930:50398931:50361122:50397746:50397747:50399712; 50406164:50406165:50406148:50406149"/>
    <tag k="tiger:upload_uuid" v="bulk_upload.pl-581644c1-bab1-48ed-84ed-ad8c17badfb4"/>
  </way>
  <way id="11841990" version="19" timestamp="2010-12-12T22:13:05Z" uid="207745" user="NE2" changeset="6642711">
    <nd ref="106155135"/>
    <nd ref="106155137"/>
    <nd ref="105991800"/>
    <nd ref="106155138"/>
    <nd ref="105955302"/>
    <tag k="highway" v="trunk"/>
    <tag k="maxspeed" v="45 mph"/>
    <tag k="name" v="Jacksonville Road"/>
    <tag k="old_ref_legislative" v="14028"/>
    <tag k="oneway" v="yes"/>
    <tag k="ref" v="US 220;PA 26"/>
    <tag k="tiger:cfcc" v="A35; A41"/>
    <tag k="tiger:county" v="Centre, PA"/>
    <tag k="tiger:separated" v="yes"/>
    <tag k="tiger:source" v="tiger_import_dch_v0.6_20070829"/>
    <tag k="tiger:tlid" v="50398930:50398931:50361122:50397746:50397747:50399712; 50406164:50406165:50406148:50406149"/>
    <tag k="tiger:upload_uuid" v="bulk_upload.pl-581644c1-bab1-48ed-84ed-ad8c17badfb4"/>
  </way>
  <way id="11841990" version="20" timestamp="2011-06-03T22:50:50Z" uid="207745" user="NE2" changeset="8334380">
    <nd ref="106155135"/>
    <nd ref="106155137"/>
    <nd ref="1311148628"/>
    <tag k="highway" v="trunk"/>
    <tag k="lanes" v="1"/>
    <tag k="maxspeed" v="45 mph"/>
    <tag k="name" v="Jacksonville Road"/>
    <tag k="old_ref_legislative" v="14028"/>
    <tag k="oneway" v="yes"/>
    <tag k="ref" v="US 220;PA 26"/>
    <tag k="tiger:cfcc" v="A35; A41"/>
    <tag k="tiger:county" v="Centre, PA"/>
    <tag k="tiger:separated" v="yes"/>
    <tag k="tiger:source" v="tiger_import_dch_v0.6_20070829"/>
    <tag k="tiger:tlid" v="50398930:50398931:50361122:50397746:50397747:50399712; 50406164:50406165:50406148:50406149"/>
    <tag k="tiger:upload_uuid" v="bulk_upload.pl-581644c1-bab1-48ed-84ed-ad8c17badfb4"/>
  </way>
  <way id="11841990" version="21" timestamp="2011-07-20T02:36:47Z" uid="473471" user="NE3" changeset="8774429">
    <nd ref="106155135"/>
    <nd ref="106155137"/>
    <nd ref="1311148628"/>
    <tag k="NHS" v="yes"/>
    <tag k="highway" v="trunk"/>
    <tag k="lanes" v="1"/>
    <tag k="maxspeed" v="45 mph"/>
    <tag k="name" v="Jacksonville Road"/>
    <tag k="old_ref_legislative" v="14028"/>
    <tag k="oneway" v="yes"/>
    <tag k="ref" v="US 220;PA 26"/>
    <tag k="tiger:cfcc" v="A35; A41"/>
    <tag k="tiger:county" v="Centre, PA"/>
    <tag k="tiger:separated" v="yes"/>
    <tag k="tiger:source" v="tiger_import_dch_v0.6_20070829"/>
    <tag k="tiger:tlid" v="50398930:50398931:50361122:50397746:50397747:50399712; 50406164:50406165:50406148:50406149"/>
    <tag k="tiger:upload_uuid" v="bulk_upload.pl-581644c1-bab1-48ed-84ed-ad8c17badfb4"/>
  </way>
  <way id="11841990" version="22" timestamp="2011-11-30T16:33:23Z" uid="207745" user="NE2" changeset="10000043">
    <nd ref="106155135"/>
    <nd ref="106155137"/>
    <nd ref="1311148628"/>
    <tag k="NHS" v="yes"/>
    <tag k="hgv" v="yes"/>
    <tag k="highway" v="trunk"/>
    <tag k="lanes" v="1"/>
    <tag k="maxspeed" v="45 mph"/>
    <tag k="name" v="Jacksonville Road"/>
    <tag k="old_ref_legislative" v="14028"/>
    <tag k="oneway" v="yes"/>
    <tag k="ref" v="US 220;PA 26"/>
    <tag k="tiger:cfcc" v="A35; A41"/>
    <tag k="tiger:county" v="Centre, PA"/>
    <tag k="tiger:separated" v="yes"/>
    <tag k="tiger:source" v="tiger_import_dch_v0.6_20070829"/>
    <tag k="tiger:tlid" v="50398930:50398931:50361122:50397746:50397747:50399712; 50406164:50406165:50406148:50406149"/>
    <tag k="tiger:upload_uuid" v="bulk_upload.pl-581644c1-bab1-48ed-84ed-ad8c17badfb4"/>
  </way>
  <way id="11841990" version="23" timestamp="2011-12-07T01:05:39Z" uid="207745" user="NE2" changeset="10054668">
    <nd ref="106155135"/>
    <nd ref="106155137"/>
    <nd ref="1311148628"/>
    <tag k="NHS" v="yes"/>
    <tag k="hgv" v="yes"/>
    <tag k="highway" v="trunk"/>
    <tag k="lanes" v="1"/>
    <tag k="maxspeed" v="45 mph"/>
    <tag k="name" v="Jacksonville Road"/>
    <tag k="old_ref_legislative" v="14028"/>
    <tag k="oneway" v="yes"/>
    <tag k="ref" v="US 220;PA 26"/>
    <tag k="source:hgv" v="PennDOT ftp://ftp.dot.state.pa.us/public/Bureaus/BOMO/MC/Publication411.pdf"/>
    <tag k="tiger:cfcc" v="A35; A41"/>
    <tag k="tiger:county" v="Centre, PA"/>
    <tag k="tiger:separated" v="yes"/>
    <tag k="tiger:source" v="tiger_import_dch_v0.6_20070829"/>
    <tag k="tiger:tlid" v="50398930:50398931:50361122:50397746:50397747:50399712; 50406164:50406165:50406148:50406149"/>
    <tag k="tiger:upload_uuid" v="bulk_upload.pl-581644c1-bab1-48ed-84ed-ad8c17badfb4"/>
  </way>
  <way id="11841990" version="24" timestamp="2012-03-04T16:13:50Z" uid="252811" user="rickmastfan67" changeset="10870338">
    <nd ref="106155135"/>
    <nd ref="106155137"/>
    <nd ref="1311148628"/>
    <tag k="NHS" v="yes"/>
    <tag k="hgv" v="yes"/>
    <tag k="highway" v="trunk"/>
    <tag k="lanes" v="1"/>
    <tag k="maxspeed" v="45 mph"/>
    <tag k="name" v="Jacksonville Road"/>
    <tag k="odbl" v="clean"/>
    <tag k="odbl:note" v="The &quot;Declining&quot; user only expanded the road name (Rd &gt; Road). It can be considered as a trivial edit, thus the way is clean."/>
    <tag k="old_ref_legislative" v="14028"/>
    <tag k="oneway" v="yes"/>
    <tag k="ref" v="US 220;PA 26"/>
    <tag k="source:hgv" v="PennDOT ftp://ftp.dot.state.pa.us/public/Bureaus/BOMO/MC/Publication411.pdf"/>
    <tag k="tiger:cfcc" v="A35; A41"/>
    <tag k="tiger:county" v="Centre, PA"/>
    <tag k="tiger:separated" v="yes"/>
    <tag k="tiger:source" v="tiger_import_dch_v0.6_20070829"/>
    <tag k="tiger:tlid" v="50398930:50398931:50361122:50397746:50397747:50399712; 50406164:50406165:50406148:50406149"/>
    <tag k="tiger:upload_uuid" v="bulk_upload.pl-581644c1-bab1-48ed-84ed-ad8c17badfb4"/>
  </way>
  <way id="11841993" version="14" timestamp="2010-07-03T21:17:20Z" uid="4467" user="Rosscoe" changeset="5128089">
    <nd ref="106155150"/>
    <nd ref="106155432"/>
    <nd ref="106016599"/>
    <tag k="highway" v="trunk"/>
    <tag k="maxspeed" v="45 mph"/>
    <tag k="name" v="Jacksonville Road"/>
    <tag k="old_ref_legislative" v="1049"/>
    <tag k="oneway" v="yes"/>
    <tag k="ref" v="US 220;PA 26"/>
    <tag k="tiger:cfcc" v="A31"/>
    <tag k="tiger:county" v="Centre, PA"/>
    <tag k="tiger:name_base" v="State Route 26"/>
    <tag k="tiger:separated" v="no"/>
    <tag k="tiger:source" v="tiger_import_dch_v0.6_20070829"/>
    <tag k="tiger:tlid" v="50397768:50397769:50361300:50361442:50397792:50397793:50361419"/>
    <tag k="tiger:upload_uuid" v="bulk_upload.pl-581644c1-bab1-48ed-84ed-ad8c17badfb4"/>
  </way>
  <way id="11841993" version="15" timestamp="2010-12-12T10:47:33Z" uid="207745" user="NE2" changeset="6633389">
    <nd ref="106155150"/>
    <nd ref="106155432"/>
    <nd ref="106016599"/>
    <tag k="NHS_High_Priority_Corridor" v="9"/>
    <tag k="highway" v="trunk"/>
    <tag k="maxspeed" v="45 mph"/>
    <tag k="name" v="Jacksonville Road"/>
    <tag k="old_ref_legislative" v="1049"/>
    <tag k="oneway" v="yes"/>
    <tag k="ref" v="US 220;PA 26"/>
    <tag k="tiger:cfcc" v="A31"/>
    <tag k="tiger:county" v="Centre, PA"/>
    <tag k="tiger:name_base" v="State Route 26"/>
    <tag k="tiger:separated" v="no"/>
    <tag k="tiger:source" v="tiger_import_dch_v0.6_20070829"/>
    <tag k="tiger:tlid" v="50397768:50397769:50361300:50361442:50397792:50397793:50361419"/>
    <tag k="tiger:upload_uuid" v="bulk_upload.pl-581644c1-bab1-48ed-84ed-ad8c17badfb4"/>
  </way>
  <way id="11841993" version="16" timestamp="2010-12-12T22:11:23Z" uid="207745" user="NE2" changeset="6642711">
    <nd ref="106155150"/>
    <nd ref="106155432"/>
    <nd ref="106016599"/>
    <tag k="highway" v="trunk"/>
    <tag k="maxspeed" v="45 mph"/>
    <tag k="name" v="Jacksonville Road"/>
    <tag k="old_ref_legislative" v="1049"/>
    <tag k="oneway" v="yes"/>
    <tag k="ref" v="US 220;PA 26"/>
    <tag k="tiger:cfcc" v="A31"/>
    <tag k="tiger:county" v="Centre, PA"/>
    <tag k="tiger:name_base" v="State Route 26"/>
    <tag k="tiger:separated" v="no"/>
    <tag k="tiger:source" v="tiger_import_dch_v0.6_20070829"/>
    <tag k="tiger:tlid" v="50397768:50397769:50361300:50361442:50397792:50397793:50361419"/>
    <tag k="tiger:upload_uuid" v="bulk_upload.pl-581644c1-bab1-48ed-84ed-ad8c17badfb4"/>
  </way>
  <way id="11841993" version="17" timestamp="2011-06-03T23:19:10Z" uid="207745" user="NE2" changeset="8334380">
    <nd ref="106155150"/>
    <nd ref="106155432"/>
    <nd ref="106016599"/>
    <tag k="highway" v="trunk"/>
    <tag k="lanes" v="2"/>
    <tag k="maxspeed" v="45 mph"/>
    <tag k="name" v="Jacksonville Road"/>
    <tag k="old_ref_legislative" v="1049"/>
    <tag k="oneway" v="yes"/>
    <tag k="ref" v="US 220;PA 26"/>
    <tag k="tiger:cfcc" v="A31"/>
    <tag k="tiger:county" v="Centre, PA"/>
    <tag k="tiger:name_base" v="State Route 26"/>
    <tag k="tiger:separated" v="no"/>
    <tag k="tiger:source" v="tiger_import_dch_v0.6_20070829"/>
    <tag k="tiger:tlid" v="50397768:50397769:50361300:50361442:50397792:50397793:50361419"/>
    <tag k="tiger:upload_uuid" v="bulk_upload.pl-581644c1-bab1-48ed-84ed-ad8c17badfb4"/>
  </way>
  <way id="11841993" version="18" timestamp="2011-07-20T02:36:48Z" uid="473471" user="NE3" changeset="8774429">
    <nd ref="106155150"/>
    <nd ref="106155432"/>
    <nd ref="106016599"/>
    <tag k="NHS" v="yes"/>
    <tag k="highway" v="trunk"/>
    <tag k="lanes" v="2"/>
    <tag k="maxspeed" v="45 mph"/>
    <tag k="name" v="Jacksonville Road"/>
    <tag k="old_ref_legislative" v="1049"/>
    <tag k="oneway" v="yes"/>
    <tag k="ref" v="US 220;PA 26"/>
    <tag k="tiger:cfcc" v="A31"/>
    <tag k="tiger:county" v="Centre, PA"/>
    <tag k="tiger:name_base" v="State Route 26"/>
    <tag k="tiger:separated" v="no"/>
    <tag k="tiger:source" v="tiger_import_dch_v0.6_20070829"/>
    <tag k="tiger:tlid" v="50397768:50397769:50361300:50361442:50397792:50397793:50361419"/>
    <tag k="tiger:upload_uuid" v="bulk_upload.pl-581644c1-bab1-48ed-84ed-ad8c17badfb4"/>
  </way>
  <way id="11841993" version="19" timestamp="2011-11-30T16:33:24Z" uid="207745" user="NE2" changeset="10000043">
    <nd ref="106155150"/>
    <nd ref="106155432"/>
    <nd ref="106016599"/>
    <tag k="NHS" v="yes"/>
    <tag k="hgv" v="yes"/>
    <tag k="highway" v="trunk"/>
    <tag k="lanes" v="2"/>
    <tag k="maxspeed" v="45 mph"/>
    <tag k="name" v="Jacksonville Road"/>
    <tag k="old_ref_legislative" v="1049"/>
    <tag k="oneway" v="yes"/>
    <tag k="ref" v="US 220;PA 26"/>
    <tag k="tiger:cfcc" v="A31"/>
    <tag k="tiger:county" v="Centre, PA"/>
    <tag k="tiger:name_base" v="State Route 26"/>
    <tag k="tiger:separated" v="no"/>
    <tag k="tiger:source" v="tiger_import_dch_v0.6_20070829"/>
    <tag k="tiger:tlid" v="50397768:50397769:50361300:50361442:50397792:50397793:50361419"/>
    <tag k="tiger:upload_uuid" v="bulk_upload.pl-581644c1-bab1-48ed-84ed-ad8c17badfb4"/>
  </way>
  <way id="11841993" version="20" timestamp="2011-12-07T01:05:38Z" uid="207745" user="NE2" changeset="10054668">
    <nd ref="106155150"/>
    <nd ref="106155432"/>
    <nd ref="106016599"/>
    <tag k="NHS" v="yes"/>
    <tag k="hgv" v="yes"/>
    <tag k="highway" v="trunk"/>
    <tag k="lanes" v="2"/>
    <tag k="maxspeed" v="45 mph"/>
    <tag k="name" v="Jacksonville Road"/>
    <tag k="old_ref_legislative" v="1049"/>
    <tag k="oneway" v="yes"/>
    <tag k="ref" v="US 220;PA 26"/>
    <tag k="source:hgv" v="PennDOT ftp://ftp.dot.state.pa.us/public/Bureaus/BOMO/MC/Publication411.pdf"/>
    <tag k="tiger:cfcc" v="A31"/>
    <tag k="tiger:county" v="Centre, PA"/>
    <tag k="tiger:name_base" v="State Route 26"/>
    <tag k="tiger:separated" v="no"/>
    <tag k="tiger:source" v="tiger_import_dch_v0.6_20070829"/>
    <tag k="tiger:tlid" v="50397768:50397769:50361300:50361442:50397792:50397793:50361419"/>
    <tag k="tiger:upload_uuid" v="bulk_upload.pl-581644c1-bab1-48ed-84ed-ad8c17badfb4"/>
  </way>
  <way id="11841993" version="21" timestamp="2012-03-04T16:14:09Z" uid="252811" user="rickmastfan67" changeset="10870338">
    <nd ref="106155150"/>
    <nd ref="106155432"/>
    <nd ref="106016599"/>
    <tag k="NHS" v="yes"/>
    <tag k="hgv" v="yes"/>
    <tag k="highway" v="trunk"/>
    <tag k="lanes" v="2"/>
    <tag k="maxspeed" v="45 mph"/>
    <tag k="odbl" v="clean"/>
    <tag k="odbl:note" v="The &quot;Declining&quot; user only expanded the road name (Rd &gt; Road). However, this section of road shouldn&apos;t have had the name in the first place and has been deleted. It can be considered as clean now."/>
    <tag k="old_ref_legislative" v="1049"/>
    <tag k="oneway" v="yes"/>
    <tag k="ref" v="US 220;PA 26"/>
    <tag k="source:hgv" v="PennDOT ftp://ftp.dot.state.pa.us/public/Bureaus/BOMO/MC/Publication411.pdf"/>
    <tag k="tiger:cfcc" v="A31"/>
    <tag k="tiger:county" v="Centre, PA"/>
    <tag k="tiger:name_base" v="State Route 26"/>
    <tag k="tiger:separated" v="no"/>
    <tag k="tiger:source" v="tiger_import_dch_v0.6_20070829"/>
    <tag k="tiger:tlid" v="50397768:50397769:50361300:50361442:50397792:50397793:50361419"/>
    <tag k="tiger:upload_uuid" v="bulk_upload.pl-581644c1-bab1-48ed-84ed-ad8c17badfb4"/>
  </way>
</osm>
