<?xml version='1.0' encoding='UTF-8'?>
<osm version="0.6" generator="libosmium/2.20.0">
  <way id="11866238" version="9" timestamp="2010-07-06T10:12:19Z" uid="74617" user="JohnSmith" changeset="5147679">
    <nd ref="81919361"/>
    <nd ref="106532789"/>
    <nd ref="217326693"/>
    <nd ref="385281323"/>
    <tag k="highway" v="residential"/>
    <tag k="maxspeed" v="50"/>
    <tag k="maxspeed:source" v="default residential speed limit in Australia"/>
    <tag k="name" v="Temple Street"/>
  </way>
  <way id="11866238" version="10" timestamp="2012-01-15T10:56:11Z" uid="147510" user="woodpeck_fixbot" changeset="10396281">
    <nd ref="81919361"/>
    <nd ref="106532789"/>
    <nd ref="217326693"/>
    <nd ref="385281323"/>
    <tag k="highway" v="residential"/>
    <tag k="name" v="Temple Street"/>
  </way>
  <way id="11866265" version="10" timestamp="2010-02-14T15:47:03Z" uid="74617" user="JohnSmith" changeset="3874884">
    <nd ref="106495324"/>
    <nd ref="268562100"/>
    <nd ref="106495325"/>
    <nd ref="106495950"/>
    <nd ref="106496705"/>
    <nd ref="106495327"/>
    <tag k="highway" v="residential"/>
    <tag k="maxspeed" v="50"/>
    <tag k="name" v="Duggan Street"/>
  </way>
  <way id="11866265" version="11" timestamp="2012-01-15T10:56:13Z" uid="147510" user="woodpeck_fixbot" changeset="10396281">
    <nd ref="106495324"/>
    <nd ref="268562100"/>
    <nd ref="106495325"/>
    <nd ref="106495950"/>
    <nd ref="106496705"/>
    <nd ref="106495327"/>
    <tag k="highway" v="residential"/>
    <tag k="name" v="Duggan Street"/>
  </way>
  <way id="11866303" version="6" timestamp="2010-02-14T15:47:03Z" uid="74617" user="JohnSmith" changeset="3874884">
    <nd ref="268562233"/>
    <nd ref="268562101"/>
    <nd ref="268562100"/>
    <nd ref="106495941"/>
    <nd ref="106495943"/>
    <nd ref="106495944"/>
    <nd ref="106495945"/>
    <nd ref="106495947"/>
    <nd ref="106495948"/>
    <nd ref="106495949"/>
    <nd ref="106495950"/>
    <tag k="highway" v="residential"/>
    <tag k="maxspeed" v="50"/>
    <tag k="name" v="Doorey Street"/>
  </way>
  <way id="11866303" version="7" timestamp="2011-03-08T01:18:38Z" uid="4467" user="Rosscoe" changeset="7490646">
    <nd ref="1192027168"/>
    <nd ref="268562101"/>
    <nd ref="268562100"/>
    <nd ref="106495941"/>
    <nd ref="106495943"/>
    <nd ref="106495944"/>
    <nd ref="106495945"/>
    <nd ref="106495947"/>
    <nd ref="106495948"/>
    <nd ref="106495949"/>
    <nd ref="106495950"/>
    <tag k="highway" v="residential"/>
    <tag k="maxspeed" v="50"/>
    <tag k="name" v="Doorey Street"/>
  </way>
  <way id="11866303" version="8" timestamp="2012-01-15T10:56:14Z" uid="147510" user="woodpeck_fixbot" changeset="10396281">
    <nd ref="1192027168"/>
    <nd ref="268562101"/>
    <nd ref="268562100"/>
    <nd ref="106495941"/>
    <nd ref="106495943"/>
    <nd ref="106495944"/>
    <nd ref="106495945"/>
    <nd ref="106495947"/>
    <nd ref="106495948"/>
    <nd ref="106495949"/>
    <nd ref="106495950"/>
    <tag k="highway" v="residential"/>
    <tag k="name" v="Doorey Street"/>
  </way>
  <way id="11866379" version="5" timestamp="2010-02-14T15:47:03Z" uid="74617" user="JohnSmith" changeset="3874884">
    <nd ref="106496702"/>
    <nd ref="106496704"/>
    <nd ref="106496705"/>
    <tag k="highway" v="residential"/>
    <tag k="maxspeed" v="50"/>
    <tag k="name" v="Dash Street"/>
  </way>
  <way id="11866379" version="6" timestamp="2012-01-15T10:56:15Z" uid="147510" user="woodpeck_fixbot" changeset="10396281">
    <nd ref="106496702"/>
    <nd ref="106496704"/>
    <nd ref="106496705"/>
    <tag k="highway" v="residential"/>
    <tag k="name" v="Dash Street"/>
  </way>
  <way id="11866757" version="3" timestamp="2010-07-10T14:18:19Z" uid="4467" user="Rosscoe" changeset="5182936">
    <nd ref="106501436"/>
    <nd ref="106501477"/>
    <tag k="bridge" v="yes"/>
    <tag k="highway" v="secondary"/>
    <tag k="layer" v="1"/>
    <tag k="name" v="Edi-Cheshunt Road"/>
    <tag k="source" v="survey"/>
  </way>
  <way id="11866836" version="8" timestamp="2010-07-06T09:59:08Z" uid="74617" user="JohnSmith" changeset="5147679">
    <nd ref="106502627"/>
    <nd ref="106502629"/>
    <nd ref="217318754"/>
    <nd ref="222289153"/>
    <nd ref="222277534"/>
    <tag k="highway" v="residential"/>
    <tag k="maxspeed" v="50"/>
    <tag k="maxspeed:source" v="default residential speed limit in Australia"/>
    <tag k="name" v="Burke Street"/>
  </way>
  <way id="11866836" version="9" timestamp="2011-09-26T13:07:14Z" uid="103574" user="El Segundo can&apos;t win" changeset="9401957">
    <nd ref="1446223567"/>
    <nd ref="106502629"/>
    <nd ref="217318754"/>
    <nd ref="222289153"/>
    <nd ref="222277534"/>
    <tag k="highway" v="residential"/>
    <tag k="maxspeed" v="50"/>
    <tag k="maxspeed:source" v="default residential speed limit in Australia"/>
    <tag k="name" v="Burke Street"/>
  </way>
  <way id="11866836" version="10" timestamp="2012-01-15T10:56:17Z" uid="147510" user="woodpeck_fixbot" changeset="10396281">
    <nd ref="1446223567"/>
    <nd ref="106502629"/>
    <nd ref="217318754"/>
    <nd ref="222289153"/>
    <nd ref="222277534"/>
    <tag k="highway" v="residential"/>
    <tag k="name" v="Burke Street"/>
  </way>
</osm>
