<?xml version='1.0' encoding='UTF-8'?>
<osm version="0.6" generator="libosmium/2.20.0">
  <way id="11955254" version="6" timestamp="2010-07-03T21:20:46Z" uid="4467" user="Rosscoe" changeset="5128148">
    <nd ref="107364131"/>
    <nd ref="529733493"/>
    <nd ref="107629835"/>
    <nd ref="107538824"/>
    <tag k="highway" v="secondary"/>
    <tag k="name" v="Penn Square"/>
    <tag k="old_ref_legislative" v="36190"/>
    <tag k="oneway" v="yes"/>
    <tag k="ref" v="72"/>
    <tag k="tiger:cfcc" v="A31"/>
    <tag k="tiger:county" v="Lancaster, PA"/>
    <tag k="tiger:name_base" v="Penn"/>
    <tag k="tiger:name_base_1" v="State Route 72"/>
    <tag k="tiger:name_type" v="Sq"/>
    <tag k="tiger:reviewed" v="no"/>
    <tag k="tiger:separated" v="no"/>
    <tag k="tiger:source" v="tiger_import_dch_v0.6_20070829"/>
    <tag k="tiger:tlid" v="179694442"/>
    <tag k="tiger:upload_uuid" v="bulk_upload.pl-262e17cb-728c-45c4-8ca4-90ccde8322e2"/>
  </way>
  <way id="11955254" version="7" timestamp="2011-06-06T00:58:34Z" uid="207745" user="NE2" changeset="8355588">
    <nd ref="107364131"/>
    <nd ref="529733493"/>
    <nd ref="107629835"/>
    <nd ref="107538824"/>
    <tag k="highway" v="secondary"/>
    <tag k="name" v="Penn Square"/>
    <tag k="old_ref_legislative" v="36190"/>
    <tag k="oneway" v="yes"/>
    <tag k="ref" v="PA 72"/>
    <tag k="tiger:cfcc" v="A31"/>
    <tag k="tiger:county" v="Lancaster, PA"/>
    <tag k="tiger:name_base" v="Penn"/>
    <tag k="tiger:name_base_1" v="State Route 72"/>
    <tag k="tiger:name_type" v="Sq"/>
    <tag k="tiger:reviewed" v="no"/>
    <tag k="tiger:separated" v="no"/>
    <tag k="tiger:source" v="tiger_import_dch_v0.6_20070829"/>
    <tag k="tiger:tlid" v="179694442"/>
    <tag k="tiger:upload_uuid" v="bulk_upload.pl-262e17cb-728c-45c4-8ca4-90ccde8322e2"/>
  </way>
  <way id="11955564" version="10" timestamp="2010-10-11T17:57:22Z" uid="33382" user="de_muur" changeset="6014132">
    <nd ref="107633506"/>
    <nd ref="107633500"/>
    <nd ref="146765855"/>
    <nd ref="157166977"/>
    <nd ref="107633501"/>
    <nd ref="945270589"/>
    <tag k="highway" v="unclassified"/>
    <tag k="name" v="Amedorfer Twachte"/>
    <tag k="surface" v="paved"/>
  </way>
  <way id="11955564" version="11" timestamp="2010-12-12T20:08:20Z" uid="57645" user="KartoGrapHiti" changeset="6641063">
    <nd ref="107633506"/>
    <nd ref="1036370094"/>
    <nd ref="107633500"/>
    <nd ref="146765855"/>
    <nd ref="157166977"/>
    <nd ref="107633501"/>
    <nd ref="945270589"/>
    <tag k="highway" v="unclassified"/>
    <tag k="name" v="Amedorfer Twachte"/>
    <tag k="surface" v="paved"/>
  </way>
  <way id="11955564" version="12" timestamp="2011-12-11T18:37:04Z" uid="57645" user="KartoGrapHiti" changeset="10092775">
    <nd ref="107633506"/>
    <nd ref="1036370094"/>
    <nd ref="107633500"/>
    <nd ref="146765855"/>
    <nd ref="157166977"/>
    <nd ref="107633501"/>
    <nd ref="945270589"/>
    <tag k="footway" v="no"/>
    <tag k="highway" v="unclassified"/>
    <tag k="name" v="Amedorfer Twachte"/>
    <tag k="surface" v="paved"/>
  </way>
  <way id="11955564" version="13" timestamp="2012-01-27T19:53:11Z" uid="57645" user="KartoGrapHiti" changeset="10515710">
    <nd ref="107633506"/>
    <nd ref="1607761831"/>
    <nd ref="1036370094"/>
    <nd ref="107633500"/>
    <nd ref="146765855"/>
    <nd ref="157166977"/>
    <nd ref="107633501"/>
    <nd ref="945270589"/>
    <tag k="footway" v="no"/>
    <tag k="highway" v="unclassified"/>
    <tag k="name" v="Amedorfer Twachte"/>
    <tag k="surface" v="paved"/>
  </way>
  <way id="11955568" version="11" timestamp="2010-07-12T14:45:50Z" uid="33382" user="de_muur" changeset="5199715">
    <nd ref="33601161"/>
    <nd ref="107633019"/>
    <tag k="highway" v="secondary"/>
    <tag k="maxspeed" v="50"/>
    <tag k="name" v="Oister Dorfstraße"/>
    <tag k="ref" v="L 201"/>
    <tag k="surface" v="paved"/>
  </way>
  <way id="11955568" version="12" timestamp="2010-12-12T19:04:54Z" uid="57645" user="KartoGrapHiti" changeset="6640324">
    <nd ref="33601161"/>
    <nd ref="1036272944"/>
    <nd ref="107633019"/>
    <tag k="highway" v="secondary"/>
    <tag k="maxspeed" v="50"/>
    <tag k="name" v="Oister Dorfstraße"/>
    <tag k="ref" v="L 201"/>
    <tag k="surface" v="paved"/>
  </way>
  <way id="11955568" version="13" timestamp="2011-08-02T12:03:18Z" uid="470667" user="Schefti" changeset="8900191">
    <nd ref="107633019"/>
    <nd ref="1036272944"/>
    <nd ref="33601161"/>
    <tag k="highway" v="secondary"/>
    <tag k="maxspeed" v="50"/>
    <tag k="name" v="Oister Dorfstraße"/>
    <tag k="ref" v="L 201"/>
    <tag k="surface" v="paved"/>
  </way>
  <way id="11955571" version="8" timestamp="2011-03-13T20:09:25Z" uid="33382" user="de_muur" changeset="7549737">
    <nd ref="107633496"/>
    <nd ref="1057129421"/>
    <nd ref="1057129135"/>
    <nd ref="1057129531"/>
    <nd ref="107633495"/>
    <nd ref="107633493"/>
    <nd ref="1057129729"/>
    <nd ref="1057129172"/>
    <nd ref="107633467"/>
    <nd ref="1025481801"/>
    <tag k="highway" v="track"/>
    <tag k="surface" v="paved"/>
    <tag k="tracktype" v="grade1"/>
  </way>
  <way id="11955571" version="9" timestamp="2012-03-04T17:08:20Z" uid="57645" user="KartoGrapHiti" changeset="10870995">
    <nd ref="107633496"/>
    <nd ref="1057129421"/>
    <nd ref="1057129135"/>
    <nd ref="1057129531"/>
    <nd ref="107633495"/>
    <nd ref="107633493"/>
    <nd ref="1057129729"/>
    <nd ref="1057129172"/>
    <nd ref="107633467"/>
    <nd ref="1025481801"/>
    <tag k="highway" v="track"/>
    <tag k="lcn" v="yes"/>
    <tag k="surface" v="paved"/>
    <tag k="tracktype" v="grade1"/>
  </way>
  <way id="11955571" version="10" timestamp="2012-03-04T17:15:32Z" uid="57645" user="KartoGrapHiti" changeset="10871074"/>
  <way id="11955574" version="7" timestamp="2008-07-06T20:13:14Z" uid="6975" user="ulfl" changeset="415781">
    <nd ref="107633019"/>
    <nd ref="114305241"/>
    <nd ref="194383073"/>
    <tag k="agricultural" v="yes"/>
    <tag k="highway" v="unclassified"/>
    <tag k="motorcar" v="no"/>
  </way>
  <way id="11955574" version="8" timestamp="2008-10-31T12:05:20Z" uid="35574" user="Schorse" changeset="639802">
    <nd ref="107633019"/>
    <nd ref="114305241"/>
    <nd ref="194383073"/>
    <tag k="agricultural" v="yes"/>
    <tag k="highway" v="unclassified"/>
    <tag k="motorcar" v="no"/>
    <tag k="name" v="Hustedter Weg"/>
  </way>
  <way id="11955574" version="9" timestamp="2011-03-14T19:47:28Z" uid="33382" user="de_muur" changeset="7560133">
    <nd ref="107633019"/>
    <nd ref="1202015102"/>
    <tag k="highway" v="residential"/>
    <tag k="name" v="Hustedter Weg"/>
    <tag k="surface" v="paved"/>
  </way>
  <way id="11955574" version="10" timestamp="2011-08-02T12:02:54Z" uid="470667" user="Schefti" changeset="8900191">
    <nd ref="1202015102"/>
    <nd ref="107633019"/>
    <tag k="highway" v="residential"/>
    <tag k="name" v="Hustedter Weg"/>
    <tag k="surface" v="paved"/>
  </way>
  <way id="11955579" version="4" timestamp="2010-04-24T09:40:58Z" uid="33382" user="de_muur" changeset="4510311">
    <nd ref="107633414"/>
    <nd ref="292693234"/>
    <nd ref="36732715"/>
    <tag k="highway" v="secondary"/>
    <tag k="lcn" v="yes"/>
    <tag k="name" v="Hauptstraße"/>
  </way>
  <way id="11955579" version="5" timestamp="2010-10-05T09:55:32Z" uid="45882" user="smarties" changeset="5959919">
    <nd ref="107633414"/>
    <nd ref="292693234"/>
    <nd ref="36732715"/>
    <tag k="highway" v="secondary"/>
    <tag k="lcn" v="yes"/>
    <tag k="name" v="Hauptstraße"/>
    <tag k="ref" v="L 331"/>
  </way>
  <way id="11955579" version="6" timestamp="2011-10-03T22:07:35Z" uid="492542" user="cronos884" changeset="9465303">
    <nd ref="107633414"/>
    <nd ref="292693234"/>
    <nd ref="36732715"/>
    <tag k="highway" v="secondary"/>
    <tag k="lcn" v="yes"/>
    <tag k="maxspeed" v="50"/>
    <tag k="name" v="Hauptstraße"/>
    <tag k="ref" v="L 331"/>
  </way>
</osm>
