<?xml version='1.0' encoding='UTF-8'?>
<osm version="0.6" generator="libosmium/2.20.0">
  <way id="12048023" version="8" timestamp="2010-07-03T23:10:59Z" uid="4467" user="Rosscoe" changeset="5128870">
    <nd ref="665589031"/>
    <nd ref="108976144"/>
    <nd ref="108976158"/>
    <nd ref="108832610"/>
    <nd ref="108976172"/>
    <tag k="highway" v="primary"/>
    <tag k="name" v="S Water Street"/>
    <tag k="old_ref_legislative" v="203"/>
    <tag k="ref" v="US 422 Business"/>
    <tag k="tiger:cfcc" v="A31:A35"/>
    <tag k="tiger:name_base" v="Water"/>
    <tag k="tiger:name_direction_prefix" v="S"/>
    <tag k="tiger:name_type" v="St"/>
    <tag k="tiger:reviewed" v="no"/>
    <tag k="tiger:separated" v="no:yes"/>
    <tag k="tiger:source" v="tiger_import_dch_v0.7_20071109"/>
    <tag k="tiger:tlid" v="52477108:52477114:52477969:52477978:52480673:52480674:52480677:52480678"/>
  </way>
  <way id="12048023" version="9" timestamp="2011-07-24T10:34:55Z" uid="252811" user="rickmastfan67" changeset="8814146">
    <nd ref="108976172"/>
    <nd ref="1372008145"/>
    <nd ref="108832610"/>
    <tag k="highway" v="primary"/>
    <tag k="landuse" v="1"/>
    <tag k="name" v="South Water Street"/>
    <tag k="old_ref_legislative" v="203"/>
    <tag k="oneway" v="yes"/>
    <tag k="ref" v="US 422 Business"/>
    <tag k="tiger:cfcc" v="A31:A35"/>
    <tag k="tiger:name_base" v="Water"/>
    <tag k="tiger:name_direction_prefix" v="S"/>
    <tag k="tiger:name_type" v="St"/>
    <tag k="tiger:separated" v="yes"/>
    <tag k="tiger:source" v="tiger_import_dch_v0.7_20071109"/>
    <tag k="tiger:tlid" v="52477108:52477114:52477969:52477978:52480673:52480674:52480677:52480678"/>
  </way>
  <way id="12048023" version="10" timestamp="2012-02-28T11:42:57Z" uid="252811" user="rickmastfan67" changeset="10817896">
    <nd ref="108976172"/>
    <nd ref="1372008145"/>
    <nd ref="108832610"/>
    <tag k="highway" v="primary"/>
    <tag k="landuse" v="1"/>
    <tag k="name" v="South Water Street"/>
    <tag k="odbl" v="clean"/>
    <tag k="odbl:note" v="The &quot;Declining&quot; user only expanded the road name (St &gt; Street). It can be considered as a trivial edit, thus the way is clean."/>
    <tag k="old_ref_legislative" v="203"/>
    <tag k="oneway" v="yes"/>
    <tag k="ref" v="US 422 Business"/>
    <tag k="tiger:cfcc" v="A31:A35"/>
    <tag k="tiger:name_base" v="Water"/>
    <tag k="tiger:name_direction_prefix" v="S"/>
    <tag k="tiger:name_type" v="St"/>
    <tag k="tiger:separated" v="yes"/>
    <tag k="tiger:source" v="tiger_import_dch_v0.7_20071109"/>
    <tag k="tiger:tlid" v="52477108:52477114:52477969:52477978:52480673:52480674:52480677:52480678"/>
  </way>
</osm>
