<?xml version='1.0' encoding='UTF-8'?>
<osm version="0.6" generator="libosmium/2.20.0">
  <way id="12060219" version="2" timestamp="2010-07-01T12:39:58Z" uid="207745" user="NE2" changeset="5120031">
    <nd ref="109110130"/>
    <nd ref="109110139"/>
    <tag k="highway" v="secondary"/>
    <tag k="name" v="River Ave"/>
    <tag k="name_1" v="State Route 268"/>
    <tag k="ref" v="268"/>
    <tag k="tiger:cfcc" v="A31"/>
    <tag k="tiger:name_base" v="River"/>
    <tag k="tiger:name_base_1" v="State Route 268"/>
    <tag k="tiger:name_type" v="Ave"/>
    <tag k="tiger:reviewed" v="no"/>
    <tag k="tiger:separated" v="no"/>
    <tag k="tiger:source" v="tiger_import_dch_v0.7_20071109"/>
    <tag k="tiger:tlid" v="52472352"/>
  </way>
  <way id="12060219" version="4" timestamp="2010-07-03T22:08:53Z" uid="4467" user="Rosscoe" changeset="5128505">
    <nd ref="109110130"/>
    <nd ref="109110139"/>
    <tag k="highway" v="secondary"/>
    <tag k="name" v="River Avenue"/>
    <tag k="name_1" v="State Route 268"/>
    <tag k="old_ref_legislative" v="251"/>
    <tag k="ref" v="268"/>
    <tag k="tiger:cfcc" v="A31"/>
    <tag k="tiger:name_base" v="River"/>
    <tag k="tiger:name_base_1" v="State Route 268"/>
    <tag k="tiger:name_type" v="Ave"/>
    <tag k="tiger:reviewed" v="no"/>
    <tag k="tiger:separated" v="no"/>
    <tag k="tiger:source" v="tiger_import_dch_v0.7_20071109"/>
    <tag k="tiger:tlid" v="52472352"/>
  </way>
  <way id="12060219" version="5" timestamp="2011-06-03T22:20:47Z" uid="207745" user="NE2" changeset="8334380">
    <nd ref="109110130"/>
    <nd ref="109110139"/>
    <tag k="highway" v="secondary"/>
    <tag k="name" v="River Avenue"/>
    <tag k="old_ref_legislative" v="251"/>
    <tag k="ref" v="268"/>
    <tag k="tiger:cfcc" v="A31"/>
    <tag k="tiger:name_base" v="River"/>
    <tag k="tiger:name_base_1" v="State Route 268"/>
    <tag k="tiger:name_type" v="Ave"/>
    <tag k="tiger:reviewed" v="no"/>
    <tag k="tiger:separated" v="no"/>
    <tag k="tiger:source" v="tiger_import_dch_v0.7_20071109"/>
    <tag k="tiger:tlid" v="52472352"/>
  </way>
  <way id="12060219" version="6" timestamp="2011-06-06T01:34:29Z" uid="207745" user="NE2" changeset="8355588">
    <nd ref="109110130"/>
    <nd ref="109110139"/>
    <tag k="highway" v="secondary"/>
    <tag k="name" v="River Avenue"/>
    <tag k="old_ref_legislative" v="251"/>
    <tag k="ref" v="PA 268"/>
    <tag k="tiger:cfcc" v="A31"/>
    <tag k="tiger:name_base" v="River"/>
    <tag k="tiger:name_base_1" v="State Route 268"/>
    <tag k="tiger:name_type" v="Ave"/>
    <tag k="tiger:reviewed" v="no"/>
    <tag k="tiger:separated" v="no"/>
    <tag k="tiger:source" v="tiger_import_dch_v0.7_20071109"/>
    <tag k="tiger:tlid" v="52472352"/>
  </way>
  <way id="12060219" version="7" timestamp="2012-02-28T11:42:59Z" uid="252811" user="rickmastfan67" changeset="10817896">
    <nd ref="109110130"/>
    <nd ref="109110139"/>
    <tag k="highway" v="secondary"/>
    <tag k="lanes" v="2"/>
    <tag k="name" v="Washington Street"/>
    <tag k="odbl" v="clean"/>
    <tag k="odbl:note" v="decliner touched tag that has been overwritten since"/>
    <tag k="old_ref_legislative" v="251"/>
    <tag k="ref" v="PA 268"/>
    <tag k="source:name" v="Tiger 2011 Data"/>
    <tag k="tiger:cfcc" v="A31"/>
    <tag k="tiger:name_base" v="River"/>
    <tag k="tiger:name_base_1" v="State Route 268"/>
    <tag k="tiger:name_type" v="Ave"/>
    <tag k="tiger:reviewed" v="no"/>
    <tag k="tiger:separated" v="no"/>
    <tag k="tiger:source" v="tiger_import_dch_v0.7_20071109"/>
    <tag k="tiger:tlid" v="52472352"/>
  </way>
  <way id="12060255" version="2" timestamp="2010-07-01T12:40:31Z" uid="207745" user="NE2" changeset="5120031">
    <nd ref="109110296"/>
    <nd ref="109110304"/>
    <nd ref="109110315"/>
    <nd ref="109110326"/>
    <nd ref="109110334"/>
    <nd ref="109110345"/>
    <nd ref="109110350"/>
    <nd ref="109110359"/>
    <nd ref="109110376"/>
    <nd ref="108951701"/>
    <nd ref="109110386"/>
    <nd ref="109110395"/>
    <nd ref="109110401"/>
    <nd ref="109079425"/>
    <tag k="highway" v="secondary"/>
    <tag k="name" v="River Ave"/>
    <tag k="name_1" v="State Route 268"/>
    <tag k="ref" v="268"/>
    <tag k="tiger:cfcc" v="A31"/>
    <tag k="tiger:name_base" v="River"/>
    <tag k="tiger:name_base_1" v="State Route 268"/>
    <tag k="tiger:name_type" v="Ave"/>
    <tag k="tiger:reviewed" v="no"/>
    <tag k="tiger:separated" v="no"/>
    <tag k="tiger:source" v="tiger_import_dch_v0.7_20071109"/>
    <tag k="tiger:tlid" v="52490265:52472527:52472344:52490266"/>
  </way>
  <way id="12060255" version="4" timestamp="2010-07-03T22:08:51Z" uid="4467" user="Rosscoe" changeset="5128505">
    <nd ref="109110296"/>
    <nd ref="109110304"/>
    <nd ref="109110315"/>
    <nd ref="109110326"/>
    <nd ref="109110334"/>
    <nd ref="109110345"/>
    <nd ref="109110350"/>
    <nd ref="109110359"/>
    <nd ref="109110376"/>
    <nd ref="108951701"/>
    <nd ref="109110386"/>
    <nd ref="109110395"/>
    <nd ref="109110401"/>
    <nd ref="109079425"/>
    <tag k="highway" v="secondary"/>
    <tag k="name" v="River Avenue"/>
    <tag k="name_1" v="State Route 268"/>
    <tag k="old_ref_legislative" v="251"/>
    <tag k="ref" v="268"/>
    <tag k="tiger:cfcc" v="A31"/>
    <tag k="tiger:name_base" v="River"/>
    <tag k="tiger:name_base_1" v="State Route 268"/>
    <tag k="tiger:name_type" v="Ave"/>
    <tag k="tiger:reviewed" v="no"/>
    <tag k="tiger:separated" v="no"/>
    <tag k="tiger:source" v="tiger_import_dch_v0.7_20071109"/>
    <tag k="tiger:tlid" v="52490265:52472527:52472344:52490266"/>
  </way>
  <way id="12060255" version="5" timestamp="2011-06-03T22:34:04Z" uid="207745" user="NE2" changeset="8334380">
    <nd ref="109110296"/>
    <nd ref="109110304"/>
    <nd ref="109110315"/>
    <nd ref="109110326"/>
    <nd ref="109110334"/>
    <nd ref="109110345"/>
    <nd ref="109110350"/>
    <nd ref="109110359"/>
    <nd ref="109110376"/>
    <nd ref="108951701"/>
    <nd ref="109110386"/>
    <nd ref="109110395"/>
    <nd ref="109110401"/>
    <nd ref="109079425"/>
    <tag k="highway" v="secondary"/>
    <tag k="name" v="River Avenue"/>
    <tag k="old_ref_legislative" v="251"/>
    <tag k="ref" v="268"/>
    <tag k="tiger:cfcc" v="A31"/>
    <tag k="tiger:name_base" v="River"/>
    <tag k="tiger:name_base_1" v="State Route 268"/>
    <tag k="tiger:name_type" v="Ave"/>
    <tag k="tiger:reviewed" v="no"/>
    <tag k="tiger:separated" v="no"/>
    <tag k="tiger:source" v="tiger_import_dch_v0.7_20071109"/>
    <tag k="tiger:tlid" v="52490265:52472527:52472344:52490266"/>
  </way>
  <way id="12060255" version="6" timestamp="2011-06-06T00:36:47Z" uid="207745" user="NE2" changeset="8355588">
    <nd ref="109110296"/>
    <nd ref="109110304"/>
    <nd ref="109110315"/>
    <nd ref="109110326"/>
    <nd ref="109110334"/>
    <nd ref="109110345"/>
    <nd ref="109110350"/>
    <nd ref="109110359"/>
    <nd ref="109110376"/>
    <nd ref="108951701"/>
    <nd ref="109110386"/>
    <nd ref="109110395"/>
    <nd ref="109110401"/>
    <nd ref="109079425"/>
    <tag k="highway" v="secondary"/>
    <tag k="name" v="River Avenue"/>
    <tag k="old_ref_legislative" v="251"/>
    <tag k="ref" v="PA 268"/>
    <tag k="tiger:cfcc" v="A31"/>
    <tag k="tiger:name_base" v="River"/>
    <tag k="tiger:name_base_1" v="State Route 268"/>
    <tag k="tiger:name_type" v="Ave"/>
    <tag k="tiger:reviewed" v="no"/>
    <tag k="tiger:separated" v="no"/>
    <tag k="tiger:source" v="tiger_import_dch_v0.7_20071109"/>
    <tag k="tiger:tlid" v="52490265:52472527:52472344:52490266"/>
  </way>
  <way id="12060255" version="7" timestamp="2012-02-28T11:42:55Z" uid="252811" user="rickmastfan67" changeset="10817896">
    <nd ref="109110296"/>
    <nd ref="109110304"/>
    <nd ref="109110315"/>
    <nd ref="109110326"/>
    <nd ref="109110334"/>
    <nd ref="109110345"/>
    <nd ref="109110350"/>
    <nd ref="109110359"/>
    <nd ref="109110376"/>
    <nd ref="108951701"/>
    <nd ref="109110386"/>
    <nd ref="109110395"/>
    <nd ref="109110401"/>
    <nd ref="109079425"/>
    <tag k="highway" v="secondary"/>
    <tag k="lanes" v="2"/>
    <tag k="name" v="River Avenue"/>
    <tag k="odbl" v="clean"/>
    <tag k="odbl:note" v="The &quot;Declining&quot; user only expanded the road name (Ave &gt; Avenue). It can be considered as a trivial edit, thus the way is clean."/>
    <tag k="old_ref_legislative" v="251"/>
    <tag k="ref" v="PA 268"/>
    <tag k="tiger:cfcc" v="A31"/>
    <tag k="tiger:name_base" v="River"/>
    <tag k="tiger:name_base_1" v="State Route 268"/>
    <tag k="tiger:name_type" v="Ave"/>
    <tag k="tiger:reviewed" v="no"/>
    <tag k="tiger:separated" v="no"/>
    <tag k="tiger:source" v="tiger_import_dch_v0.7_20071109"/>
    <tag k="tiger:tlid" v="52490265:52472527:52472344:52490266"/>
  </way>
</osm>
