<?xml version='1.0' encoding='UTF-8'?>
<osm version="0.6" generator="libosmium/2.20.0">
  <way id="12076517" version="6" timestamp="2010-07-03T22:11:02Z" uid="4467" user="Rosscoe" changeset="5128524">
    <nd ref="109007870"/>
    <nd ref="109252149"/>
    <nd ref="109252153"/>
    <nd ref="109252156"/>
    <nd ref="109252160"/>
    <nd ref="108975196"/>
    <tag k="highway" v="primary"/>
    <tag k="name" v="Benjamin Franklin Highway"/>
    <tag k="name_1" v="United States Highway 422 Business"/>
    <tag k="old_ref_legislative" v="251"/>
    <tag k="ref" v="US 422 Business"/>
    <tag k="tiger:cfcc" v="A31"/>
    <tag k="tiger:name_base" v="Benjamin Franklin"/>
    <tag k="tiger:name_base_1" v="United States Highway 422 Business"/>
    <tag k="tiger:name_type" v="Hwy"/>
    <tag k="tiger:reviewed" v="no"/>
    <tag k="tiger:separated" v="no"/>
    <tag k="tiger:source" v="tiger_import_dch_v0.7_20071109"/>
    <tag k="tiger:tlid" v="52464935:52464964:52465367"/>
  </way>
  <way id="12076517" version="7" timestamp="2011-06-03T22:55:01Z" uid="207745" user="NE2" changeset="8334380">
    <nd ref="109007870"/>
    <nd ref="109252149"/>
    <nd ref="109252153"/>
    <nd ref="109252156"/>
    <nd ref="109252160"/>
    <nd ref="108975196"/>
    <tag k="highway" v="primary"/>
    <tag k="name" v="Benjamin Franklin Highway"/>
    <tag k="old_ref_legislative" v="251"/>
    <tag k="ref" v="US 422 Business"/>
    <tag k="tiger:cfcc" v="A31"/>
    <tag k="tiger:name_base" v="Benjamin Franklin"/>
    <tag k="tiger:name_base_1" v="United States Highway 422 Business"/>
    <tag k="tiger:name_type" v="Hwy"/>
    <tag k="tiger:reviewed" v="no"/>
    <tag k="tiger:separated" v="no"/>
    <tag k="tiger:source" v="tiger_import_dch_v0.7_20071109"/>
    <tag k="tiger:tlid" v="52464935:52464964:52465367"/>
  </way>
  <way id="12076517" version="8" timestamp="2011-07-24T10:34:33Z" uid="252811" user="rickmastfan67" changeset="8814146">
    <nd ref="109007870"/>
    <nd ref="109252149"/>
    <nd ref="109252153"/>
    <nd ref="109252156"/>
    <nd ref="109252160"/>
    <tag k="bridge" v="yes"/>
    <tag k="highway" v="primary"/>
    <tag k="layer" v="1"/>
    <tag k="name" v="Benjamin Franklin Highway"/>
    <tag k="old_ref_legislative" v="251"/>
    <tag k="ref" v="US 422 Business"/>
    <tag k="tiger:cfcc" v="A31"/>
    <tag k="tiger:name_base" v="Benjamin Franklin"/>
    <tag k="tiger:name_base_1" v="United States Highway 422 Business"/>
    <tag k="tiger:name_type" v="Hwy"/>
    <tag k="tiger:separated" v="no"/>
    <tag k="tiger:source" v="tiger_import_dch_v0.7_20071109"/>
    <tag k="tiger:tlid" v="52464935:52464964:52465367"/>
  </way>
  <way id="12076517" version="9" timestamp="2012-02-28T11:42:40Z" uid="252811" user="rickmastfan67" changeset="10817896">
    <nd ref="109007870"/>
    <nd ref="109252149"/>
    <nd ref="109252153"/>
    <nd ref="109252156"/>
    <nd ref="109252160"/>
    <tag k="bridge" v="yes"/>
    <tag k="highway" v="primary"/>
    <tag k="lanes" v="2"/>
    <tag k="layer" v="1"/>
    <tag k="name" v="Benjamin Franklin Highway"/>
    <tag k="odbl" v="clean"/>
    <tag k="odbl:note" v="The &quot;Declining&quot; user only expanded the road name (Hwy &gt; Highway). It can be considered as a trivial edit, thus the way is clean."/>
    <tag k="old_ref_legislative" v="251"/>
    <tag k="ref" v="US 422 Business"/>
    <tag k="tiger:cfcc" v="A31"/>
    <tag k="tiger:name_base" v="Benjamin Franklin"/>
    <tag k="tiger:name_base_1" v="United States Highway 422 Business"/>
    <tag k="tiger:name_type" v="Hwy"/>
    <tag k="tiger:separated" v="no"/>
    <tag k="tiger:source" v="tiger_import_dch_v0.7_20071109"/>
    <tag k="tiger:tlid" v="52464935:52464964:52465367"/>
  </way>
</osm>
