<?xml version='1.0' encoding='UTF-8'?>
<osm version="0.6" generator="libosmium/2.20.0">
  <way id="12266745" version="20" timestamp="2011-06-15T16:42:52Z" uid="33382" user="de_muur" changeset="8448646">
    <nd ref="29004762"/>
    <nd ref="767066532"/>
    <tag k="cycleway" v="track"/>
    <tag k="highway" v="primary"/>
    <tag k="maxspeed" v="50"/>
    <tag k="name" v="Weserbrücke"/>
    <tag k="ref" v="B 3;B 80"/>
    <tag k="surface" v="paved"/>
  </way>
  <way id="12266745" version="21" timestamp="2011-08-02T12:04:37Z" uid="470667" user="Schefti" changeset="8900191">
    <nd ref="767066532"/>
    <nd ref="29004762"/>
    <tag k="cycleway" v="track"/>
    <tag k="highway" v="primary"/>
    <tag k="maxspeed" v="50"/>
    <tag k="name" v="Weserbrücke"/>
    <tag k="ref" v="B 3;B 80"/>
    <tag k="surface" v="paved"/>
  </way>
  <way id="12266745" version="22" timestamp="2011-12-21T18:07:53Z" uid="388460" user="nhenze" changeset="10173369">
    <nd ref="767066532"/>
    <nd ref="29004762"/>
    <tag k="cycleway" v="track"/>
    <tag k="highway" v="primary"/>
    <tag k="maxspeed" v="50"/>
    <tag k="name" v="Weserbrücke"/>
    <tag k="oneway" v="no"/>
    <tag k="ref" v="B 3;B 80"/>
    <tag k="surface" v="paved"/>
  </way>
  <way id="12266781" version="15" timestamp="2011-06-15T16:42:50Z" uid="33382" user="de_muur" changeset="8448646">
    <nd ref="29004759"/>
    <nd ref="1326625716"/>
    <nd ref="29004761"/>
    <tag k="cycleway" v="track"/>
    <tag k="highway" v="primary"/>
    <tag k="maxspeed" v="50"/>
    <tag k="ref" v="B 3;B 80"/>
    <tag k="surface" v="paved"/>
  </way>
  <way id="12266781" version="16" timestamp="2011-07-06T16:53:53Z" uid="248366" user="kriskrisu" changeset="8649980">
    <nd ref="29004759"/>
    <nd ref="1326625716"/>
    <nd ref="29004761"/>
    <tag k="cycleway" v="track"/>
    <tag k="highway" v="primary"/>
    <tag k="maxspeed" v="50"/>
    <tag k="ref" v="B 3"/>
    <tag k="surface" v="paved"/>
  </way>
  <way id="12266781" version="17" timestamp="2011-07-29T14:03:17Z" uid="463879" user="tumsi" changeset="8863626">
    <nd ref="29004759"/>
    <nd ref="1326625716"/>
    <nd ref="1377637371"/>
    <nd ref="29004761"/>
    <tag k="cycleway" v="track"/>
    <tag k="highway" v="primary"/>
    <tag k="maxspeed" v="50"/>
    <tag k="ref" v="B 3"/>
    <tag k="surface" v="paved"/>
  </way>
  <way id="12266781" version="18" timestamp="2011-08-02T12:02:17Z" uid="470667" user="Schefti" changeset="8900191">
    <nd ref="29004761"/>
    <nd ref="1377637371"/>
    <nd ref="1326625716"/>
    <nd ref="29004759"/>
    <tag k="cycleway" v="track"/>
    <tag k="highway" v="primary"/>
    <tag k="maxspeed" v="50"/>
    <tag k="ref" v="B 3"/>
    <tag k="surface" v="paved"/>
  </way>
  <way id="12266781" version="19" timestamp="2011-12-21T18:06:41Z" uid="388460" user="nhenze" changeset="10173369">
    <nd ref="29004761"/>
    <nd ref="1377637371"/>
    <nd ref="1326625716"/>
    <nd ref="29004759"/>
    <tag k="cycleway" v="track"/>
    <tag k="highway" v="primary"/>
    <tag k="maxspeed" v="50"/>
    <tag k="oneway" v="no"/>
    <tag k="ref" v="B 3"/>
    <tag k="surface" v="paved"/>
  </way>
</osm>
