<?xml version='1.0' encoding='UTF-8'?>
<osm version="0.6" generator="libosmium/2.20.0">
  <way id="12683274" version="3" timestamp="2008-07-06T19:13:38Z" uid="6975" user="ulfl" changeset="415781">
    <nd ref="115838205"/>
    <nd ref="115838206"/>
    <nd ref="115838207"/>
    <nd ref="115838209"/>
    <nd ref="115838205"/>
    <tag k="leisure" v="pitch"/>
  </way>
  <way id="12683796" version="1" timestamp="2007-11-15T19:00:25Z" uid="8619" user="cetest" changeset="521918">
    <nd ref="44788076"/>
    <nd ref="115843783"/>
    <nd ref="115843789"/>
    <nd ref="115843814"/>
    <tag k="created_by" v="JOSM"/>
    <tag k="highway" v="unclassified"/>
    <tag k="name" v="Rijksstraatweg"/>
  </way>
  <way id="12683796" version="2" timestamp="2008-05-04T13:18:01Z" uid="5487" user="Jeroen Dekkers" changeset="332309">
    <nd ref="44788076"/>
    <nd ref="262134054"/>
    <nd ref="115843783"/>
    <nd ref="115843789"/>
    <nd ref="115843814"/>
    <tag k="created_by" v="JOSM"/>
    <tag k="highway" v="unclassified"/>
    <tag k="name" v="Rijksstraatweg"/>
  </way>
  <way id="12683796" version="3" timestamp="2009-04-04T21:04:05Z" uid="36080" user="polderrunner" changeset="182010">
    <nd ref="44788076"/>
    <nd ref="262134054"/>
    <nd ref="115843783"/>
    <nd ref="115843789"/>
    <nd ref="115843814"/>
    <tag k="created_by" v="JOSM"/>
    <tag k="highway" v="tertiary"/>
    <tag k="name" v="Rijksstraatweg"/>
  </way>
  <way id="12683796" version="4" timestamp="2009-11-15T15:49:28Z" uid="161542" user="textlijn" changeset="3122977">
    <nd ref="44788076"/>
    <nd ref="262134054"/>
    <nd ref="115843783"/>
    <nd ref="115843814"/>
    <tag k="highway" v="tertiary"/>
    <tag k="name" v="Rijksstraatweg"/>
  </way>
  <way id="12683796" version="5" timestamp="2010-01-09T20:59:10Z" uid="26230" user="BugBlue" changeset="3580954">
    <nd ref="44788076"/>
    <nd ref="262134054"/>
    <tag k="highway" v="tertiary"/>
    <tag k="name" v="Rijksstraatweg"/>
  </way>
  <way id="12683796" version="6" timestamp="2011-08-31T21:28:14Z" uid="36080" user="polderrunner" changeset="9180330"/>
  <way id="12683797" version="1" timestamp="2007-11-15T19:00:25Z" uid="8619" user="cetest" changeset="521918">
    <nd ref="115843814"/>
    <nd ref="115843817"/>
    <tag k="bridge" v="true"/>
    <tag k="created_by" v="JOSM"/>
    <tag k="highway" v="unclassified"/>
    <tag k="lanes" v="2"/>
    <tag k="layer" v="1"/>
    <tag k="name" v="Rijksstraatweg"/>
    <tag k="surface" v="paved"/>
    <tag k="width" v="8"/>
  </way>
  <way id="12683797" version="2" timestamp="2007-11-16T20:24:23Z" uid="8619" user="cetest" changeset="534378">
    <nd ref="115843814"/>
    <nd ref="117993445"/>
    <tag k="bridge" v="true"/>
    <tag k="created_by" v="JOSM"/>
    <tag k="highway" v="unclassified"/>
    <tag k="lanes" v="2"/>
    <tag k="layer" v="1"/>
    <tag k="name" v="Rijksstraatweg"/>
    <tag k="surface" v="paved"/>
    <tag k="width" v="8"/>
  </way>
  <way id="12683797" version="3" timestamp="2009-01-14T21:39:25Z" uid="67958" user="West Erop" changeset="788681">
    <nd ref="115843814"/>
    <nd ref="117993445"/>
    <tag k="bridge" v="true"/>
    <tag k="created_by" v="Potlatch 0.10f"/>
    <tag k="highway" v="unclassified"/>
    <tag k="lanes" v="2"/>
    <tag k="layer" v="1"/>
    <tag k="name" v="Rijksstraatweg"/>
    <tag k="surface" v="paved"/>
    <tag k="width" v="8"/>
  </way>
  <way id="12683797" version="4" timestamp="2009-01-14T21:39:52Z" uid="67958" user="West Erop" changeset="788681">
    <nd ref="115843814"/>
    <nd ref="117993445"/>
    <tag k="bridge" v="true"/>
    <tag k="created_by" v="Potlatch 0.10f"/>
    <tag k="highway" v="unclassified"/>
    <tag k="layer" v="1"/>
    <tag k="name" v="Rijksstraatweg"/>
    <tag k="surface" v="paved"/>
    <tag k="width" v="8"/>
  </way>
  <way id="12683797" version="5" timestamp="2009-04-04T21:04:07Z" uid="36080" user="polderrunner" changeset="182010">
    <nd ref="115843814"/>
    <nd ref="117993445"/>
    <tag k="bridge" v="true"/>
    <tag k="created_by" v="Potlatch 0.10f"/>
    <tag k="highway" v="tertiary"/>
    <tag k="layer" v="1"/>
    <tag k="name" v="Rijksstraatweg"/>
    <tag k="surface" v="paved"/>
    <tag k="width" v="8"/>
  </way>
  <way id="12683797" version="6" timestamp="2010-02-03T23:41:04Z" uid="204153" user="mfvl" changeset="3787305">
    <nd ref="115843814"/>
    <nd ref="117993445"/>
    <tag k="bridge" v="yes"/>
    <tag k="highway" v="tertiary"/>
    <tag k="layer" v="1"/>
    <tag k="name" v="Rijksstraatweg"/>
    <tag k="surface" v="paved"/>
    <tag k="width" v="8"/>
  </way>
  <way id="12683797" version="7" timestamp="2011-09-28T23:23:55Z" uid="191979" user="It&apos;s so funny" changeset="9423877"/>
  <way id="12683798" version="1" timestamp="2007-11-15T19:00:25Z" uid="8619" user="cetest" changeset="521918">
    <nd ref="114975841"/>
    <nd ref="114975840"/>
    <tag k="created_by" v="JOSM"/>
  </way>
  <way id="12683798" version="2" timestamp="2007-11-15T19:14:16Z" uid="8619" user="cetest" changeset="521918"/>
</osm>
