<?xml version='1.0' encoding='UTF-8'?>
<osm version="0.6" generator="libosmium/2.20.0">
  <way id="12952187" version="1" timestamp="2007-11-17T09:27:55Z" uid="18775" user="drlizau" changeset="543682">
    <nd ref="119076941"/>
    <nd ref="119076972"/>
    <tag k="created_by" v="JOSM"/>
    <tag k="highway" v="residential"/>
    <tag k="name" v="Davis Street"/>
  </way>
  <way id="12952187" version="2" timestamp="2007-12-25T04:35:33Z" uid="18775" user="drlizau" changeset="417294">
    <nd ref="119076941"/>
    <nd ref="117927524"/>
    <tag k="created_by" v="JOSM"/>
    <tag k="highway" v="residential"/>
    <tag k="name" v="Davis Street"/>
  </way>
  <way id="12952187" version="3" timestamp="2007-12-25T04:39:14Z" uid="18775" user="drlizau" changeset="417294">
    <nd ref="117927491"/>
    <nd ref="117927524"/>
    <tag k="created_by" v="JOSM"/>
    <tag k="highway" v="residential"/>
    <tag k="name" v="Davis Street"/>
  </way>
  <way id="12952187" version="4" timestamp="2008-04-25T09:42:18Z" uid="19626" user="Swamp" changeset="249913">
    <nd ref="117927491"/>
    <nd ref="117927524"/>
    <tag k="created_by" v="JOSM"/>
    <tag k="highway" v="residential"/>
    <tag k="maxspeed" v="50"/>
    <tag k="name" v="Davis Street"/>
  </way>
  <way id="12952187" version="5" timestamp="2008-11-16T11:05:27Z" uid="18775" user="drlizau" changeset="756879">
    <nd ref="117927491"/>
    <nd ref="117927524"/>
    <tag k="created_by" v="JOSM"/>
    <tag k="highway" v="residential"/>
    <tag k="maxspeed" v="50"/>
    <tag k="name" v="Davis Street"/>
  </way>
  <way id="12952187" version="6" timestamp="2008-11-16T11:33:44Z" uid="18775" user="drlizau" changeset="756879">
    <nd ref="117927491"/>
    <nd ref="117927524"/>
    <tag k="created_by" v="JOSM"/>
    <tag k="highway" v="residential"/>
    <tag k="maxspeed" v="50"/>
    <tag k="name" v="Davis Street"/>
    <tag k="source" v="survey"/>
  </way>
  <way id="12952293" version="6" timestamp="2010-07-06T09:59:45Z" uid="74617" user="JohnSmith" changeset="5147679">
    <nd ref="119077907"/>
    <nd ref="119077910"/>
    <tag k="highway" v="residential"/>
    <tag k="maxspeed" v="50"/>
    <tag k="maxspeed:source" v="default residential speed limit in Australia"/>
    <tag k="name" v="Talbot Street"/>
    <tag k="surface" v="asphalt"/>
  </way>
  <way id="12952293" version="7" timestamp="2012-01-15T11:21:27Z" uid="147510" user="woodpeck_fixbot" changeset="10396281">
    <nd ref="119077907"/>
    <nd ref="119077910"/>
    <tag k="highway" v="residential"/>
    <tag k="name" v="Talbot Street"/>
    <tag k="surface" v="asphalt"/>
  </way>
  <way id="12952474" version="22" timestamp="2008-10-10T08:01:17Z" uid="65847" user="LKK" changeset="209907">
    <nd ref="141802825"/>
    <nd ref="207560285"/>
    <nd ref="245965882"/>
    <nd ref="245965732"/>
    <nd ref="150462714"/>
    <tag k="created_by" v="Potlatch 0.7"/>
    <tag k="highway" v="primary"/>
  </way>
  <way id="12952474" version="23" timestamp="2008-10-10T16:29:46Z" uid="65847" user="LKK" changeset="235948">
    <nd ref="141802825"/>
    <nd ref="207560285"/>
    <nd ref="245965882"/>
    <nd ref="245965732"/>
    <nd ref="150462714"/>
    <tag k="created_by" v="Potlatch 0.7"/>
    <tag k="highway" v="primary"/>
    <tag k="name" v="бул. Ген. Михаил Скобелев"/>
  </way>
  <way id="12952474" version="24" timestamp="2009-05-16T20:00:50Z" uid="41176" user="Veso" changeset="1214906">
    <nd ref="141802825"/>
    <nd ref="401874970"/>
    <nd ref="207560285"/>
    <nd ref="245965882"/>
    <nd ref="245965732"/>
    <nd ref="150462714"/>
    <tag k="created_by" v="Potlatch 0.7"/>
    <tag k="highway" v="primary"/>
    <tag k="name" v="бул. Ген. Михаил Скобелев"/>
  </way>
  <way id="12952474" version="25" timestamp="2009-08-18T06:28:23Z" uid="28427" user="skunk" changeset="2185797">
    <nd ref="141802825"/>
    <nd ref="401874970"/>
    <nd ref="207560285"/>
    <nd ref="245965882"/>
    <nd ref="245965732"/>
    <nd ref="470210565"/>
    <nd ref="150462714"/>
    <tag k="highway" v="primary"/>
    <tag k="name" v="бул. Ген. Михаил Скобелев"/>
  </way>
  <way id="12952474" version="26" timestamp="2011-01-23T22:27:13Z" uid="94353" user="Fips" changeset="7068144">
    <nd ref="141802825"/>
    <nd ref="401874970"/>
    <nd ref="207560285"/>
    <nd ref="245965882"/>
    <nd ref="245965732"/>
    <nd ref="470210565"/>
    <nd ref="1117754519"/>
    <nd ref="1117754190"/>
    <nd ref="1117754439"/>
    <nd ref="150462714"/>
    <tag k="highway" v="primary"/>
    <tag k="name" v="бул. Ген. Михаил Скобелев"/>
  </way>
  <way id="12952474" version="27" timestamp="2011-12-21T13:41:36Z" uid="112109" user="philepile" changeset="10171673">
    <nd ref="243063606"/>
    <nd ref="1557137309"/>
    <nd ref="1557137297"/>
    <nd ref="401874970"/>
    <nd ref="207560285"/>
    <nd ref="245965882"/>
    <nd ref="245965732"/>
    <nd ref="470210565"/>
    <nd ref="1117754519"/>
    <nd ref="1117754190"/>
    <nd ref="1117754439"/>
    <nd ref="150462714"/>
    <tag k="highway" v="primary"/>
    <tag k="name" v="бул. Ген. Михаил Скобелев"/>
  </way>
  <way id="12952692" version="37" timestamp="2008-10-11T15:34:26Z" uid="65847" user="LKK" changeset="251067">
    <nd ref="150476505"/>
    <nd ref="150476513"/>
    <nd ref="150476512"/>
    <nd ref="245963380"/>
    <nd ref="245963449"/>
    <nd ref="141800689"/>
    <tag k="highway" v="residential"/>
    <tag k="name" v="бул. Македония"/>
    <tag k="oneway" v="yes"/>
  </way>
  <way id="12952692" version="38" timestamp="2011-01-23T21:58:23Z" uid="94353" user="Fips" changeset="7067899">
    <nd ref="150476505"/>
    <nd ref="1117702117"/>
    <nd ref="1117701962"/>
    <nd ref="1117701977"/>
    <nd ref="1117701994"/>
    <nd ref="150476513"/>
    <nd ref="150476512"/>
    <nd ref="245963380"/>
    <nd ref="245963449"/>
    <nd ref="141800689"/>
    <tag k="highway" v="residential"/>
    <tag k="name" v="бул. Македония"/>
    <tag k="oneway" v="yes"/>
  </way>
  <way id="12952692" version="39" timestamp="2011-12-21T13:41:36Z" uid="112109" user="philepile" changeset="10171673">
    <nd ref="150476505"/>
    <nd ref="1117702117"/>
    <nd ref="1117701962"/>
    <nd ref="1117701977"/>
    <nd ref="1117701994"/>
    <nd ref="150476513"/>
    <nd ref="150476512"/>
    <nd ref="245963380"/>
    <nd ref="245963449"/>
    <nd ref="1557137286"/>
    <nd ref="141800689"/>
    <tag k="highway" v="residential"/>
    <tag k="name" v="бул. Македония"/>
    <tag k="oneway" v="yes"/>
  </way>
  <way id="12952796" version="7" timestamp="2010-07-06T10:11:50Z" uid="74617" user="JohnSmith" changeset="5147679">
    <nd ref="119082111"/>
    <nd ref="119077801"/>
    <nd ref="119082118"/>
    <nd ref="778026446"/>
    <nd ref="119082122"/>
    <nd ref="778026466"/>
    <nd ref="778053970"/>
    <nd ref="119082126"/>
    <nd ref="778026449"/>
    <nd ref="81952720"/>
    <tag k="highway" v="residential"/>
    <tag k="maxspeed" v="50"/>
    <tag k="maxspeed:source" v="default residential speed limit in Australia"/>
    <tag k="name" v="Halstead Street"/>
    <tag k="source" v="GPS"/>
    <tag k="surface" v="asphalt"/>
  </way>
  <way id="12952796" version="8" timestamp="2012-01-15T11:21:31Z" uid="147510" user="woodpeck_fixbot" changeset="10396281">
    <nd ref="119082111"/>
    <nd ref="119077801"/>
    <nd ref="119082118"/>
    <nd ref="778026446"/>
    <nd ref="119082122"/>
    <nd ref="778026466"/>
    <nd ref="778053970"/>
    <nd ref="119082126"/>
    <nd ref="778026449"/>
    <nd ref="81952720"/>
    <tag k="highway" v="residential"/>
    <tag k="name" v="Halstead Street"/>
    <tag k="source" v="GPS"/>
    <tag k="surface" v="asphalt"/>
  </way>
</osm>
