<?xml version='1.0' encoding='UTF-8'?>
<osm version="0.6" generator="libosmium/2.20.0">
  <way id="13484747" version="2" timestamp="2008-05-01T19:07:04Z" uid="20587" user="balrog-kun" changeset="300418">
    <nd ref="123934922"/>
    <nd ref="123934930"/>
    <nd ref="261078012"/>
    <nd ref="123934933"/>
    <tag k="created_by" v="JOSM"/>
    <tag k="highway" v="tertiary"/>
    <tag k="name" v="Rynek"/>
  </way>
  <way id="13484747" version="3" timestamp="2009-01-29T19:19:02Z" uid="59223" user="Briquollo" changeset="852725">
    <nd ref="123934922"/>
    <nd ref="123934930"/>
    <nd ref="261078012"/>
    <nd ref="123934933"/>
    <tag k="created_by" v="JOSM"/>
    <tag k="highway" v="tertiary"/>
    <tag k="name" v="Rynek"/>
  </way>
  <way id="13484747" version="4" timestamp="2009-07-29T18:35:46Z" uid="151055" user="rydzejak" changeset="1978325">
    <nd ref="123934922"/>
    <nd ref="450939911"/>
    <nd ref="123934930"/>
    <nd ref="261078012"/>
    <nd ref="123934933"/>
    <tag k="created_by" v="JOSM"/>
    <tag k="highway" v="tertiary"/>
    <tag k="name" v="Rynek"/>
  </way>
  <way id="13484747" version="5" timestamp="2009-07-29T18:49:01Z" uid="151055" user="rydzejak" changeset="1978513">
    <nd ref="123934922"/>
    <nd ref="450939911"/>
    <tag k="created_by" v="JOSM"/>
    <tag k="highway" v="tertiary"/>
    <tag k="name" v="Rynek"/>
  </way>
  <way id="13484747" version="6" timestamp="2009-07-29T18:53:55Z" uid="151055" user="rydzejak" changeset="1978513">
    <nd ref="123934922"/>
    <nd ref="450946407"/>
    <tag k="created_by" v="JOSM"/>
    <tag k="highway" v="tertiary"/>
    <tag k="name" v="Rynek"/>
  </way>
  <way id="13484747" version="7" timestamp="2009-07-29T18:54:09Z" uid="151055" user="rydzejak" changeset="1978513"/>
  <way id="13484750" version="2" timestamp="2008-05-01T19:07:04Z" uid="20587" user="balrog-kun" changeset="300418">
    <nd ref="123934933"/>
    <nd ref="123934937"/>
    <nd ref="261078031"/>
    <nd ref="261077902"/>
    <tag k="created_by" v="JOSM"/>
    <tag k="highway" v="tertiary"/>
  </way>
  <way id="13484750" version="3" timestamp="2009-01-29T18:41:11Z" uid="59223" user="Briquollo" changeset="852725">
    <nd ref="123934933"/>
    <nd ref="261078031"/>
    <nd ref="261077902"/>
    <tag k="created_by" v="JOSM"/>
    <tag k="highway" v="tertiary"/>
  </way>
  <way id="13484750" version="4" timestamp="2009-01-29T19:30:50Z" uid="59223" user="Briquollo" changeset="852725">
    <nd ref="123934933"/>
    <nd ref="261078031"/>
    <nd ref="261077902"/>
    <tag k="created_by" v="JOSM"/>
    <tag k="highway" v="tertiary"/>
    <tag k="name" v="Generała Leopolda Okulickiego"/>
  </way>
  <way id="13484750" version="5" timestamp="2010-09-07T21:35:09Z" uid="59223" user="Briquollo" changeset="5712488">
    <nd ref="123934933"/>
    <nd ref="261078031"/>
    <nd ref="901659893"/>
    <nd ref="261077902"/>
    <tag k="highway" v="tertiary"/>
    <tag k="name" v="Generała Leopolda Okulickiego"/>
  </way>
  <way id="13484750" version="6" timestamp="2010-11-18T14:26:29Z" uid="165509" user="koszatek" changeset="6400392">
    <nd ref="123934933"/>
    <nd ref="261078031"/>
    <nd ref="901659893"/>
    <nd ref="261077902"/>
    <tag k="highway" v="secondary"/>
    <tag k="name" v="Generała Leopolda Okulickiego"/>
    <tag k="ref" v="898"/>
  </way>
</osm>
