<?xml version='1.0' encoding='UTF-8'?>
<osm version="0.6" generator="libosmium/2.20.0">
  <way id="13512541" version="1" timestamp="2007-11-19T20:11:57Z" uid="8328" user="benpre" changeset="568748">
    <nd ref="90680886"/>
    <nd ref="90680888"/>
    <nd ref="90680892"/>
    <nd ref="90680896"/>
    <tag k="created_by" v="JOSM"/>
    <tag k="highway" v="residential"/>
    <tag k="name" v="Herdweg"/>
  </way>
  <way id="13512541" version="2" timestamp="2008-12-14T21:13:56Z" uid="12178" user="edwin-ldbg" changeset="376352">
    <nd ref="90680886"/>
    <nd ref="90680888"/>
    <nd ref="90680892"/>
    <nd ref="318752543"/>
    <nd ref="90680896"/>
    <tag k="created_by" v="Potlatch 0.10f"/>
    <tag k="highway" v="residential"/>
    <tag k="name" v="Herdweg"/>
  </way>
  <way id="13512541" version="3" timestamp="2011-06-14T17:43:47Z" uid="79348" user="HaStMe" changeset="8439802">
    <nd ref="90680886"/>
    <nd ref="1325378062"/>
    <nd ref="90680888"/>
    <nd ref="90680892"/>
    <nd ref="318752543"/>
    <nd ref="90680896"/>
    <tag k="highway" v="residential"/>
    <tag k="name" v="Herdweg"/>
  </way>
  <way id="13512820" version="2" timestamp="2008-10-01T02:12:49Z" uid="36809" user="pfoten_weg_!_" changeset="5644">
    <nd ref="124162086"/>
    <nd ref="124162095"/>
    <tag k="bridge" v="yes"/>
    <tag k="created_by" v="RambaZamba"/>
    <tag k="highway" v="tertiary"/>
    <tag k="layer" v="1"/>
    <tag k="name" v="Tierparkstraße"/>
    <tag k="osmarender:renderName" v="no"/>
  </way>
  <way id="13512820" version="3" timestamp="2009-02-15T13:13:05Z" uid="36809" user="pfoten_weg_!_" changeset="463903">
    <nd ref="124162086"/>
    <nd ref="124162095"/>
    <tag k="bridge" v="yes"/>
    <tag k="created_by" v="RambaZamba"/>
    <tag k="highway" v="tertiary"/>
    <tag k="layer" v="1"/>
    <tag k="name" v="Tierparkstraße"/>
    <tag k="osmarender:renderName" v="no"/>
    <tag k="source" v="survey"/>
  </way>
  <way id="13512820" version="4" timestamp="2009-08-28T19:52:40Z" uid="156995" user="HampelZamba" changeset="2294580">
    <nd ref="124162086"/>
    <nd ref="124162095"/>
    <tag k="bridge" v="yes"/>
    <tag k="highway" v="tertiary"/>
    <tag k="layer" v="1"/>
    <tag k="name" v="Tierparkstraße"/>
    <tag k="osmarender:renderName" v="no"/>
    <tag k="source" v="survey"/>
  </way>
  <way id="13512820" version="5" timestamp="2009-09-01T10:39:21Z" uid="36809" user="pfoten_weg_!_" changeset="2335754">
    <nd ref="124162086"/>
    <nd ref="124162095"/>
    <tag k="bridge" v="yes"/>
    <tag k="highway" v="tertiary"/>
    <tag k="layer" v="1"/>
    <tag k="name" v="Tierparkstraße"/>
    <tag k="osmarender:renderName" v="no"/>
    <tag k="source" v="survey"/>
  </way>
  <way id="13512820" version="6" timestamp="2009-10-13T23:50:11Z" uid="36809" user="pfoten_weg_!_" changeset="2841273">
    <nd ref="124162086"/>
    <nd ref="124162095"/>
    <tag k="bridge" v="yes"/>
    <tag k="highway" v="tertiary"/>
    <tag k="layer" v="1"/>
    <tag k="name" v="Tierparkstraße"/>
    <tag k="osmarender:renderName" v="no"/>
  </way>
  <way id="13512820" version="7" timestamp="2011-09-01T02:43:08Z" uid="207745" user="NE2" changeset="9181205">
    <nd ref="124162086"/>
    <nd ref="124162095"/>
    <tag k="bridge" v="yes"/>
    <tag k="highway" v="tertiary"/>
    <tag k="layer" v="1"/>
    <tag k="name" v="Tierparkstraße"/>
  </way>
  <way id="13512820" version="8" timestamp="2012-02-25T11:54:09Z" uid="367380" user="Mloni" changeset="10786830">
    <nd ref="124162086"/>
    <nd ref="124162095"/>
    <tag k="bridge" v="yes"/>
    <tag k="highway" v="secondary"/>
    <tag k="layer" v="1"/>
    <tag k="name" v="Tierparkstraße"/>
  </way>
  <way id="13512822" version="4" timestamp="2008-10-01T02:12:48Z" uid="36809" user="pfoten_weg_!_" changeset="5644">
    <nd ref="124162095"/>
    <nd ref="97749276"/>
    <nd ref="1956223"/>
    <nd ref="21133334"/>
    <tag k="created_by" v="RambaZamba"/>
    <tag k="highway" v="tertiary"/>
    <tag k="name" v="Tierparkstraße"/>
  </way>
  <way id="13512822" version="5" timestamp="2008-11-28T14:56:58Z" uid="37850" user="mawis" changeset="804516">
    <nd ref="124162095"/>
    <nd ref="97749276"/>
    <nd ref="1956223"/>
    <nd ref="21133334"/>
    <tag k="highway" v="tertiary"/>
    <tag k="name" v="Tierparkstraße"/>
  </way>
  <way id="13512822" version="6" timestamp="2011-05-07T16:07:18Z" uid="71041" user="TomRadfahrer" changeset="8074632">
    <nd ref="124162095"/>
    <nd ref="97749276"/>
    <nd ref="1956223"/>
    <nd ref="1275928287"/>
    <nd ref="21133334"/>
    <tag k="highway" v="tertiary"/>
    <tag k="name" v="Tierparkstraße"/>
  </way>
  <way id="13512822" version="7" timestamp="2011-05-10T10:39:43Z" uid="379063" user="MrRoute" changeset="8100985">
    <nd ref="124162095"/>
    <nd ref="97749276"/>
    <nd ref="1956223"/>
    <nd ref="1275928287"/>
    <nd ref="21133334"/>
    <tag k="foot" v="no"/>
    <tag k="highway" v="tertiary"/>
    <tag k="name" v="Tierparkstraße"/>
  </way>
  <way id="13512822" version="8" timestamp="2012-02-23T20:28:16Z" uid="367380" user="Mloni" changeset="10772027">
    <nd ref="124162095"/>
    <nd ref="97749276"/>
    <nd ref="1956223"/>
    <nd ref="1275928287"/>
    <tag k="foot" v="no"/>
    <tag k="highway" v="tertiary"/>
    <tag k="name" v="Tierparkstraße"/>
  </way>
  <way id="13512822" version="9" timestamp="2012-02-25T11:54:11Z" uid="367380" user="Mloni" changeset="10786830">
    <nd ref="124162095"/>
    <nd ref="97749276"/>
    <nd ref="1956223"/>
    <nd ref="1275928287"/>
    <tag k="foot" v="no"/>
    <tag k="highway" v="secondary"/>
    <tag k="name" v="Tierparkstraße"/>
  </way>
  <way id="13512825" version="2" timestamp="2008-10-01T02:12:44Z" uid="36809" user="pfoten_weg_!_" changeset="5644">
    <nd ref="104395553"/>
    <nd ref="124162121"/>
    <nd ref="124162129"/>
    <nd ref="124162138"/>
    <tag k="bicycle" v="yes"/>
    <tag k="created_by" v="RambaZamba"/>
    <tag k="highway" v="footway"/>
    <tag k="surface" v="paved"/>
  </way>
  <way id="13512825" version="3" timestamp="2009-02-15T13:13:05Z" uid="36809" user="pfoten_weg_!_" changeset="463903">
    <nd ref="104395553"/>
    <nd ref="124162121"/>
    <nd ref="124162129"/>
    <nd ref="124162138"/>
    <tag k="bicycle" v="yes"/>
    <tag k="created_by" v="RambaZamba"/>
    <tag k="highway" v="footway"/>
    <tag k="source" v="survey"/>
    <tag k="surface" v="paved"/>
  </way>
  <way id="13512825" version="4" timestamp="2009-08-28T19:52:41Z" uid="156995" user="HampelZamba" changeset="2294580">
    <nd ref="104395553"/>
    <nd ref="124162121"/>
    <nd ref="124162129"/>
    <nd ref="124162138"/>
    <tag k="bicycle" v="yes"/>
    <tag k="highway" v="footway"/>
    <tag k="source" v="survey"/>
    <tag k="surface" v="paved"/>
  </way>
  <way id="13512825" version="5" timestamp="2009-09-01T10:47:18Z" uid="36809" user="pfoten_weg_!_" changeset="2335754">
    <nd ref="104395553"/>
    <nd ref="124162121"/>
    <nd ref="124162129"/>
    <nd ref="124162138"/>
    <tag k="bicycle" v="yes"/>
    <tag k="highway" v="footway"/>
    <tag k="source" v="survey"/>
    <tag k="surface" v="paved"/>
  </way>
  <way id="13512825" version="6" timestamp="2009-10-13T23:50:04Z" uid="36809" user="pfoten_weg_!_" changeset="2841273">
    <nd ref="104395553"/>
    <nd ref="124162121"/>
    <nd ref="124162129"/>
    <nd ref="124162138"/>
    <tag k="bicycle" v="yes"/>
    <tag k="highway" v="footway"/>
    <tag k="surface" v="paved"/>
  </way>
</osm>
