<?xml version='1.0' encoding='UTF-8'?>
<osm version="0.6" generator="libosmium/2.20.0">
  <way id="13594083" version="1" timestamp="2007-11-20T06:52:59Z" uid="7617" user="Franc" changeset="578612">
    <nd ref="20954603"/>
    <nd ref="18553997"/>
    <nd ref="18553989"/>
    <nd ref="18553974"/>
    <nd ref="18553960"/>
    <nd ref="124835733"/>
    <nd ref="18553950"/>
    <nd ref="18553939"/>
    <nd ref="18553928"/>
    <nd ref="18553913"/>
    <nd ref="18553906"/>
    <nd ref="18553897"/>
    <nd ref="18553881"/>
    <nd ref="18553866"/>
    <nd ref="18553850"/>
    <nd ref="14698336"/>
    <nd ref="14698335"/>
    <nd ref="18450866"/>
    <nd ref="14698338"/>
    <nd ref="14698340"/>
    <nd ref="14698342"/>
    <nd ref="14698499"/>
    <nd ref="84435762"/>
    <nd ref="14698500"/>
    <tag k="created_by" v="Potlatch alpha"/>
    <tag k="highway" v="primary"/>
    <tag k="name" v="Alison Road"/>
  </way>
  <way id="13594083" version="2" timestamp="2009-02-07T13:13:19Z" uid="7617" user="Franc" changeset="238602">
    <nd ref="20954603"/>
    <nd ref="18553997"/>
    <nd ref="18553989"/>
    <nd ref="18553974"/>
    <nd ref="18553960"/>
    <nd ref="124835733"/>
    <nd ref="18553950"/>
    <nd ref="18553939"/>
    <nd ref="18553928"/>
    <nd ref="18553913"/>
    <nd ref="18553906"/>
    <nd ref="18553897"/>
    <nd ref="18553881"/>
    <nd ref="18553866"/>
    <nd ref="18553850"/>
    <nd ref="14698336"/>
    <nd ref="14698335"/>
    <nd ref="18450866"/>
    <nd ref="14698338"/>
    <nd ref="14698340"/>
    <nd ref="342979344"/>
    <nd ref="14698342"/>
    <nd ref="342979375"/>
    <nd ref="14698499"/>
    <nd ref="84435762"/>
    <nd ref="14698500"/>
    <tag k="created_by" v="Potlatch alpha"/>
    <tag k="highway" v="primary"/>
    <tag k="name" v="Alison Road"/>
  </way>
  <way id="13594083" version="3" timestamp="2009-05-22T16:53:34Z" uid="47419" user="ploppy" changeset="1288263">
    <nd ref="20954603"/>
    <nd ref="18553997"/>
    <nd ref="18553989"/>
    <nd ref="18553974"/>
    <nd ref="18553960"/>
    <nd ref="124835733"/>
    <nd ref="18553950"/>
    <nd ref="18553939"/>
    <nd ref="18553928"/>
    <nd ref="18553913"/>
    <nd ref="18553906"/>
    <nd ref="18553897"/>
    <nd ref="18553881"/>
    <nd ref="18553866"/>
    <nd ref="18553850"/>
    <nd ref="14698336"/>
    <nd ref="14698335"/>
    <nd ref="18450866"/>
    <nd ref="14698338"/>
    <nd ref="14698340"/>
    <nd ref="342979344"/>
    <nd ref="14698342"/>
    <nd ref="342979375"/>
    <nd ref="14698499"/>
    <nd ref="84435762"/>
    <nd ref="14698500"/>
    <tag k="created_by" v="Potlatch alpha"/>
    <tag k="highway" v="primary"/>
    <tag k="name" v="Alison Road"/>
    <tag k="source" v="yahoo_imagery"/>
  </way>
  <way id="13594083" version="4" timestamp="2009-05-22T18:59:26Z" uid="47419" user="ploppy" changeset="1289371"/>
  <way id="13594250" version="10" timestamp="2011-03-16T10:54:57Z" uid="4467" user="Rosscoe" changeset="7574339">
    <nd ref="1204092645"/>
    <nd ref="458229225"/>
    <nd ref="457372279"/>
    <nd ref="458229224"/>
    <nd ref="457373193"/>
    <nd ref="1204092568"/>
    <nd ref="1204092714"/>
    <tag k="highway" v="tertiary"/>
    <tag k="name" v="Tarneit Road"/>
    <tag k="oneway" v="yes"/>
    <tag k="postal_code" v="3029"/>
    <tag k="source" v="nearmap"/>
  </way>
  <way id="13594250" version="11" timestamp="2011-12-09T04:13:53Z" uid="11111" user="melb_guy" changeset="10070214">
    <nd ref="1204092714"/>
    <nd ref="1204092568"/>
    <nd ref="457373193"/>
    <nd ref="458229224"/>
    <nd ref="457372279"/>
    <nd ref="458229225"/>
    <nd ref="1537726729"/>
    <nd ref="1204092645"/>
    <tag k="highway" v="secondary"/>
    <tag k="name" v="Tarneit Road"/>
    <tag k="oneway" v="yes"/>
    <tag k="postal_code" v="3029"/>
    <tag k="source" v="nearmap"/>
    <tag k="surface" v="asphalt"/>
  </way>
  <way id="13594941" version="1" timestamp="2007-11-20T06:57:33Z" uid="7617" user="Franc" changeset="578612">
    <nd ref="125117957"/>
    <nd ref="125117992"/>
    <nd ref="125117976"/>
    <tag k="created_by" v="JOSM"/>
    <tag k="highway" v="primary"/>
    <tag k="name" v="Rainbow Street"/>
    <tag k="oneway" v="yes"/>
    <tag k="source" v="survey"/>
  </way>
  <way id="13594941" version="2" timestamp="2008-02-11T11:56:49Z" uid="7617" user="Franc" changeset="99839">
    <nd ref="125117957"/>
    <nd ref="125117992"/>
    <nd ref="125117976"/>
    <tag k="created_by" v="JOSM"/>
    <tag k="highway" v="secondary"/>
    <tag k="name" v="Rainbow Street"/>
    <tag k="oneway" v="yes"/>
    <tag k="source" v="survey"/>
  </way>
  <way id="13594941" version="3" timestamp="2009-12-27T03:35:34Z" uid="12203" user="brainwad" changeset="3460027">
    <nd ref="125117957"/>
    <nd ref="125117992"/>
    <nd ref="125117976"/>
    <tag k="highway" v="secondary"/>
    <tag k="maxspeed" v="60"/>
    <tag k="name" v="Rainbow Street"/>
    <tag k="oneway" v="yes"/>
    <tag k="source" v="survey"/>
  </way>
  <way id="13594941" version="4" timestamp="2010-09-15T09:43:02Z" uid="79475" user="AlexOnTheBus" changeset="5785269">
    <nd ref="125117957"/>
    <nd ref="125117992"/>
    <nd ref="125117976"/>
    <tag k="highway" v="primary"/>
    <tag k="maxspeed" v="60"/>
    <tag k="name" v="Rainbow Street"/>
    <tag k="oneway" v="yes"/>
    <tag k="source" v="survey"/>
  </way>
  <way id="13594942" version="1" timestamp="2007-11-20T06:57:34Z" uid="7617" user="Franc" changeset="578612">
    <nd ref="125117976"/>
    <nd ref="18319864"/>
    <nd ref="125117957"/>
    <tag k="created_by" v="Potlatch alpha"/>
    <tag k="highway" v="primary"/>
    <tag k="name" v="Rainbow Street"/>
    <tag k="oneway" v="yes"/>
    <tag k="source" v="survey"/>
  </way>
  <way id="13594942" version="2" timestamp="2008-02-11T11:56:50Z" uid="7617" user="Franc" changeset="99839">
    <nd ref="125117976"/>
    <nd ref="18319864"/>
    <nd ref="125117957"/>
    <tag k="created_by" v="Potlatch alpha"/>
    <tag k="highway" v="secondary"/>
    <tag k="name" v="Rainbow Street"/>
    <tag k="oneway" v="yes"/>
    <tag k="source" v="survey"/>
  </way>
  <way id="13594942" version="3" timestamp="2009-12-27T03:35:34Z" uid="12203" user="brainwad" changeset="3460027">
    <nd ref="125117976"/>
    <nd ref="18319864"/>
    <nd ref="125117957"/>
    <tag k="highway" v="secondary"/>
    <tag k="maxspeed" v="60"/>
    <tag k="name" v="Rainbow Street"/>
    <tag k="oneway" v="yes"/>
    <tag k="source" v="survey"/>
  </way>
  <way id="13594942" version="4" timestamp="2010-09-15T09:43:05Z" uid="79475" user="AlexOnTheBus" changeset="5785269">
    <nd ref="125117976"/>
    <nd ref="18319864"/>
    <nd ref="125117957"/>
    <tag k="highway" v="primary"/>
    <tag k="maxspeed" v="60"/>
    <tag k="name" v="Rainbow Street"/>
    <tag k="oneway" v="yes"/>
    <tag k="source" v="survey"/>
  </way>
  <way id="13594946" version="1" timestamp="2007-11-20T06:57:34Z" uid="7617" user="Franc" changeset="578612">
    <nd ref="125117976"/>
    <nd ref="48686660"/>
    <nd ref="42719148"/>
    <nd ref="18320708"/>
    <tag k="created_by" v="Potlatch alpha"/>
    <tag k="highway" v="primary"/>
    <tag k="name" v="Rainbow Street"/>
  </way>
  <way id="13594946" version="2" timestamp="2008-02-11T11:56:48Z" uid="7617" user="Franc" changeset="99839">
    <nd ref="125117976"/>
    <nd ref="48686660"/>
    <nd ref="42719148"/>
    <nd ref="18320708"/>
    <tag k="created_by" v="Potlatch alpha"/>
    <tag k="highway" v="secondary"/>
    <tag k="name" v="Rainbow Street"/>
    <tag k="source" v="survey"/>
  </way>
  <way id="13594946" version="3" timestamp="2009-09-17T09:12:27Z" uid="7617" user="Franc" changeset="2510243">
    <nd ref="125117976"/>
    <nd ref="48686660"/>
    <nd ref="42719148"/>
    <nd ref="498817273"/>
    <nd ref="18320708"/>
    <tag k="created_by" v="Potlatch alpha"/>
    <tag k="highway" v="secondary"/>
    <tag k="name" v="Rainbow Street"/>
    <tag k="source" v="survey"/>
  </way>
  <way id="13594946" version="4" timestamp="2009-12-27T03:35:31Z" uid="12203" user="brainwad" changeset="3460027">
    <nd ref="125117976"/>
    <nd ref="48686660"/>
    <nd ref="42719148"/>
    <nd ref="498817273"/>
    <nd ref="18320708"/>
    <tag k="highway" v="secondary"/>
    <tag k="maxspeed" v="60"/>
    <tag k="name" v="Rainbow Street"/>
    <tag k="source" v="survey"/>
  </way>
  <way id="13594946" version="5" timestamp="2009-12-29T15:01:25Z" uid="12203" user="brainwad" changeset="3481945">
    <nd ref="125117976"/>
    <nd ref="48686660"/>
    <tag k="highway" v="secondary"/>
    <tag k="maxspeed" v="60"/>
    <tag k="name" v="Rainbow Street"/>
    <tag k="source" v="survey"/>
  </way>
  <way id="13594946" version="6" timestamp="2010-09-15T09:42:57Z" uid="79475" user="AlexOnTheBus" changeset="5785269">
    <nd ref="125117976"/>
    <nd ref="48686660"/>
    <tag k="highway" v="primary"/>
    <tag k="maxspeed" v="60"/>
    <tag k="name" v="Rainbow Street"/>
    <tag k="source" v="survey"/>
  </way>
  <way id="13594949" version="1" timestamp="2007-11-20T06:57:35Z" uid="7617" user="Franc" changeset="578612">
    <nd ref="125117992"/>
    <nd ref="42699866"/>
    <nd ref="42701250"/>
    <nd ref="42700366"/>
    <nd ref="32489344"/>
    <nd ref="32489363"/>
    <tag k="created_by" v="JOSM"/>
    <tag k="highway" v="residential"/>
    <tag k="name" v="Botany Street"/>
  </way>
  <way id="13594949" version="2" timestamp="2009-09-17T09:12:27Z" uid="7617" user="Franc" changeset="2510243">
    <nd ref="125117992"/>
    <nd ref="42699866"/>
    <nd ref="42701250"/>
    <nd ref="42700366"/>
    <nd ref="32489344"/>
    <nd ref="32489363"/>
    <tag k="created_by" v="JOSM"/>
    <tag k="highway" v="tertiary"/>
    <tag k="name" v="Botany Street"/>
  </way>
  <way id="13594949" version="3" timestamp="2009-12-27T03:35:32Z" uid="12203" user="brainwad" changeset="3460027">
    <nd ref="125117992"/>
    <nd ref="42699866"/>
    <nd ref="42701250"/>
    <nd ref="42700366"/>
    <nd ref="32489344"/>
    <nd ref="32489363"/>
    <tag k="highway" v="tertiary"/>
    <tag k="maxspeed" v="50"/>
    <tag k="name" v="Botany Street"/>
  </way>
  <way id="13594949" version="4" timestamp="2010-03-20T04:36:15Z" uid="20949" user="Ebenezer" changeset="4176403">
    <nd ref="125117992"/>
    <nd ref="670133193"/>
    <nd ref="42699866"/>
    <nd ref="42701250"/>
    <nd ref="42700366"/>
    <nd ref="32489344"/>
    <nd ref="32489363"/>
    <tag k="highway" v="tertiary"/>
    <tag k="lcn" v="yes"/>
    <tag k="maxspeed" v="50"/>
    <tag k="name" v="Botany Street"/>
  </way>
  <way id="13594971" version="9" timestamp="2010-05-01T05:56:58Z" uid="4467" user="Rosscoe" changeset="4571708">
    <nd ref="38719305"/>
    <nd ref="125118362"/>
    <nd ref="125118363"/>
    <nd ref="347425114"/>
    <nd ref="125118364"/>
    <nd ref="347425060"/>
    <nd ref="347425057"/>
    <nd ref="125118366"/>
    <nd ref="347415087"/>
    <nd ref="125118367"/>
    <nd ref="125118368"/>
    <nd ref="125118369"/>
    <nd ref="125120907"/>
    <tag k="highway" v="tertiary"/>
    <tag k="name" v="Hogans Road"/>
    <tag k="oneway" v="yes"/>
  </way>
  <way id="13594971" version="10" timestamp="2010-05-15T08:56:29Z" uid="11111" user="lakeyboy" changeset="4703862">
    <nd ref="38719305"/>
    <nd ref="125118362"/>
    <nd ref="125118363"/>
    <nd ref="347425114"/>
    <nd ref="125118364"/>
    <nd ref="347425060"/>
    <nd ref="347425057"/>
    <nd ref="125118366"/>
    <nd ref="347415087"/>
    <nd ref="125118367"/>
    <nd ref="125118368"/>
    <nd ref="734894663"/>
    <nd ref="125118369"/>
    <nd ref="125120907"/>
    <tag k="highway" v="tertiary"/>
    <tag k="name" v="Hogans Road"/>
    <tag k="oneway" v="yes"/>
  </way>
  <way id="13594971" version="11" timestamp="2010-05-15T08:56:40Z" uid="11111" user="lakeyboy" changeset="4703862">
    <nd ref="38719305"/>
    <nd ref="125118362"/>
    <nd ref="125118363"/>
    <nd ref="347425114"/>
    <nd ref="125118364"/>
    <nd ref="347425060"/>
    <nd ref="347425057"/>
    <nd ref="125118366"/>
    <nd ref="347415087"/>
    <nd ref="125118367"/>
    <nd ref="125118368"/>
    <nd ref="734894738"/>
    <nd ref="734894663"/>
    <nd ref="125118369"/>
    <nd ref="125120907"/>
    <tag k="highway" v="tertiary"/>
    <tag k="name" v="Hogans Road"/>
    <tag k="oneway" v="yes"/>
  </way>
  <way id="13594971" version="12" timestamp="2010-05-18T04:16:37Z" uid="4467" user="Rosscoe" changeset="4735152">
    <nd ref="38719305"/>
    <nd ref="125118362"/>
    <nd ref="125118363"/>
    <nd ref="347425114"/>
    <nd ref="125118364"/>
    <nd ref="347425060"/>
    <nd ref="347425057"/>
    <nd ref="125118366"/>
    <nd ref="347415087"/>
    <nd ref="125118367"/>
    <nd ref="734894663"/>
    <nd ref="125118369"/>
    <nd ref="125120907"/>
    <tag k="highway" v="tertiary"/>
    <tag k="name" v="Hogans Road"/>
    <tag k="oneway" v="yes"/>
  </way>
</osm>
