<?xml version='1.0' encoding='UTF-8'?>
<osm version="0.6" generator="libosmium/2.20.0">
  <way id="13613243" version="4" timestamp="2010-06-01T06:26:53Z" uid="4467" user="Rosscoe" changeset="4872015">
    <nd ref="125290709"/>
    <nd ref="125290751"/>
    <nd ref="729659873"/>
    <nd ref="125290784"/>
    <nd ref="125291057"/>
    <nd ref="125292344"/>
    <nd ref="125291566"/>
    <nd ref="125290819"/>
    <tag k="highway" v="residential"/>
    <tag k="name" v="Armanta Drive"/>
  </way>
  <way id="13613243" version="5" timestamp="2010-06-06T13:33:30Z" uid="261730" user="Davoz" changeset="4917721"/>
  <way id="13613245" version="3" timestamp="2010-06-02T01:53:43Z" uid="4467" user="Rosscoe" changeset="4880068">
    <nd ref="125290819"/>
    <nd ref="125290945"/>
    <nd ref="125290859"/>
    <nd ref="125290884"/>
    <tag k="highway" v="residential"/>
    <tag k="name" v="Godwin Street"/>
  </way>
  <way id="13613245" version="4" timestamp="2010-06-06T13:33:24Z" uid="261730" user="Davoz" changeset="4917721">
    <nd ref="765763052"/>
    <nd ref="125290819"/>
    <nd ref="125290945"/>
    <nd ref="125290859"/>
    <nd ref="125290884"/>
    <nd ref="765763069"/>
    <nd ref="765763073"/>
    <tag k="highway" v="residential"/>
    <tag k="name" v="Godwin Street"/>
  </way>
  <way id="13613245" version="5" timestamp="2010-07-09T06:18:00Z" uid="74617" user="JohnSmith" changeset="5171128">
    <nd ref="765763052"/>
    <nd ref="125290819"/>
    <nd ref="125290945"/>
    <nd ref="125290859"/>
    <nd ref="125290884"/>
    <nd ref="765763069"/>
    <nd ref="765763073"/>
    <tag k="highway" v="residential"/>
    <tag k="maxspeed" v="50"/>
    <tag k="maxspeed:source" v="default residential speed limit in Australia"/>
    <tag k="name" v="Godwin Street"/>
  </way>
  <way id="13613245" version="6" timestamp="2010-08-29T23:13:56Z" uid="3516" user="BiIbo" changeset="5631294">
    <nd ref="765763095"/>
    <nd ref="125290819"/>
    <nd ref="125290945"/>
    <nd ref="125290859"/>
    <nd ref="125290884"/>
    <nd ref="765763069"/>
    <nd ref="765763073"/>
    <tag k="highway" v="residential"/>
    <tag k="maxspeed" v="50"/>
    <tag k="maxspeed:source" v="default residential speed limit in Australia"/>
    <tag k="name" v="Godwin Street"/>
  </way>
  <way id="13613245" version="7" timestamp="2012-01-15T11:45:01Z" uid="147510" user="woodpeck_fixbot" changeset="10396281">
    <nd ref="765763095"/>
    <nd ref="125290819"/>
    <nd ref="125290945"/>
    <nd ref="125290859"/>
    <nd ref="125290884"/>
    <nd ref="765763069"/>
    <nd ref="765763073"/>
    <tag k="highway" v="residential"/>
    <tag k="name" v="Godwin Street"/>
  </way>
  <way id="13613247" version="3" timestamp="2010-06-01T02:39:58Z" uid="4467" user="Rosscoe" changeset="4871078">
    <nd ref="125290920"/>
    <nd ref="125290945"/>
    <tag k="highway" v="residential"/>
    <tag k="name" v="Young Close"/>
  </way>
  <way id="13613247" version="4" timestamp="2010-07-09T06:23:35Z" uid="74617" user="JohnSmith" changeset="5171128">
    <nd ref="125290920"/>
    <nd ref="125290945"/>
    <tag k="highway" v="residential"/>
    <tag k="maxspeed" v="50"/>
    <tag k="maxspeed:source" v="default residential speed limit in Australia"/>
    <tag k="name" v="Young Close"/>
  </way>
  <way id="13613247" version="5" timestamp="2012-01-15T11:45:02Z" uid="147510" user="woodpeck_fixbot" changeset="10396281">
    <nd ref="125290920"/>
    <nd ref="125290945"/>
    <tag k="highway" v="residential"/>
    <tag k="name" v="Young Close"/>
  </way>
  <way id="13613250" version="3" timestamp="2011-04-23T02:10:04Z" uid="4467" user="Rosscoe" changeset="7940033">
    <nd ref="125290970"/>
    <nd ref="125290996"/>
    <nd ref="125291020"/>
    <nd ref="470349162"/>
    <nd ref="125291093"/>
    <nd ref="125291121"/>
    <nd ref="125291140"/>
    <nd ref="125291159"/>
    <nd ref="125291185"/>
    <nd ref="125291222"/>
    <nd ref="125291257"/>
    <nd ref="125291302"/>
    <nd ref="125291330"/>
    <nd ref="125291364"/>
    <nd ref="125291400"/>
    <nd ref="125291438"/>
    <nd ref="125291477"/>
    <nd ref="125291515"/>
    <nd ref="125291535"/>
    <nd ref="125290970"/>
    <tag k="leisure" v="park"/>
  </way>
  <way id="13613254" version="3" timestamp="2010-06-02T08:01:11Z" uid="4467" user="Rosscoe" changeset="4881676">
    <nd ref="125291566"/>
    <nd ref="125291684"/>
    <nd ref="125291741"/>
    <nd ref="125292233"/>
    <nd ref="125291794"/>
    <nd ref="125291598"/>
    <tag k="highway" v="residential"/>
    <tag k="name" v="Waterwitch Street"/>
  </way>
  <way id="13613254" version="4" timestamp="2010-07-09T06:19:24Z" uid="74617" user="JohnSmith" changeset="5171128">
    <nd ref="125291566"/>
    <nd ref="125291684"/>
    <nd ref="125291741"/>
    <nd ref="125292233"/>
    <nd ref="125291794"/>
    <nd ref="125291598"/>
    <tag k="highway" v="residential"/>
    <tag k="maxspeed" v="50"/>
    <tag k="maxspeed:source" v="default residential speed limit in Australia"/>
    <tag k="name" v="Waterwitch Street"/>
  </way>
  <way id="13613254" version="5" timestamp="2011-04-23T02:09:58Z" uid="4467" user="Rosscoe" changeset="7940033">
    <nd ref="125291566"/>
    <nd ref="125291684"/>
    <nd ref="125291741"/>
    <nd ref="125292233"/>
    <nd ref="125291794"/>
    <nd ref="125291598"/>
    <tag k="highway" v="residential"/>
    <tag k="maxspeed" v="50"/>
    <tag k="name" v="Waterwitch Street"/>
    <tag k="source:maxspeed" v="default residential speed limit in Australia"/>
  </way>
  <way id="13613254" version="6" timestamp="2012-01-15T11:45:04Z" uid="147510" user="woodpeck_fixbot" changeset="10396281">
    <nd ref="125291566"/>
    <nd ref="125291684"/>
    <nd ref="125291741"/>
    <nd ref="125292233"/>
    <nd ref="125291794"/>
    <nd ref="125291598"/>
    <tag k="highway" v="residential"/>
    <tag k="name" v="Waterwitch Street"/>
    <tag k="source:maxspeed" v="default residential speed limit in Australia"/>
  </way>
  <way id="13613256" version="3" timestamp="2010-06-02T03:50:48Z" uid="4467" user="Rosscoe" changeset="4880447">
    <nd ref="125291646"/>
    <nd ref="125291684"/>
    <tag k="highway" v="residential"/>
    <tag k="name" v="Madras Street"/>
  </way>
  <way id="13613256" version="4" timestamp="2010-07-09T06:22:03Z" uid="74617" user="JohnSmith" changeset="5171128">
    <nd ref="125291646"/>
    <nd ref="125291684"/>
    <tag k="highway" v="residential"/>
    <tag k="maxspeed" v="50"/>
    <tag k="maxspeed:source" v="default residential speed limit in Australia"/>
    <tag k="name" v="Madras Street"/>
  </way>
  <way id="13613256" version="5" timestamp="2012-01-15T11:45:06Z" uid="147510" user="woodpeck_fixbot" changeset="10396281">
    <nd ref="125291646"/>
    <nd ref="125291684"/>
    <tag k="highway" v="residential"/>
    <tag k="name" v="Madras Street"/>
  </way>
  <way id="13613259" version="3" timestamp="2010-06-01T14:12:11Z" uid="4467" user="Rosscoe" changeset="4874893">
    <nd ref="125291717"/>
    <nd ref="125291741"/>
    <tag k="highway" v="residential"/>
    <tag k="name" v="Corana Street"/>
  </way>
  <way id="13613259" version="4" timestamp="2010-07-09T06:16:06Z" uid="74617" user="JohnSmith" changeset="5171128">
    <nd ref="125291717"/>
    <nd ref="125291741"/>
    <tag k="highway" v="residential"/>
    <tag k="maxspeed" v="50"/>
    <tag k="maxspeed:source" v="default residential speed limit in Australia"/>
    <tag k="name" v="Corana Street"/>
  </way>
  <way id="13613259" version="5" timestamp="2011-04-23T02:10:00Z" uid="4467" user="Rosscoe" changeset="7940033">
    <nd ref="125291717"/>
    <nd ref="125291741"/>
    <tag k="highway" v="residential"/>
    <tag k="maxspeed" v="50"/>
    <tag k="name" v="Corana Street"/>
    <tag k="source:maxspeed" v="default residential speed limit in Australia"/>
  </way>
  <way id="13613259" version="6" timestamp="2012-01-15T11:45:07Z" uid="147510" user="woodpeck_fixbot" changeset="10396281">
    <nd ref="125291717"/>
    <nd ref="125291741"/>
    <tag k="highway" v="residential"/>
    <tag k="name" v="Corana Street"/>
    <tag k="source:maxspeed" v="default residential speed limit in Australia"/>
  </way>
  <way id="13613266" version="3" timestamp="2010-06-02T03:52:17Z" uid="4467" user="Rosscoe" changeset="4880447">
    <nd ref="125291760"/>
    <nd ref="125291794"/>
    <tag k="highway" v="residential"/>
    <tag k="name" v="Midas Street"/>
  </way>
  <way id="13613266" version="4" timestamp="2010-07-09T06:17:15Z" uid="74617" user="JohnSmith" changeset="5171128">
    <nd ref="125291760"/>
    <nd ref="125291794"/>
    <tag k="highway" v="residential"/>
    <tag k="maxspeed" v="50"/>
    <tag k="maxspeed:source" v="default residential speed limit in Australia"/>
    <tag k="name" v="Midas Street"/>
  </way>
  <way id="13613266" version="5" timestamp="2011-04-23T02:09:57Z" uid="4467" user="Rosscoe" changeset="7940033">
    <nd ref="125291760"/>
    <nd ref="125291794"/>
    <tag k="highway" v="residential"/>
    <tag k="maxspeed" v="50"/>
    <tag k="name" v="Midas Street"/>
    <tag k="source:maxspeed" v="default residential speed limit in Australia"/>
  </way>
  <way id="13613266" version="6" timestamp="2012-01-15T11:45:09Z" uid="147510" user="woodpeck_fixbot" changeset="10396281">
    <nd ref="125291760"/>
    <nd ref="125291794"/>
    <tag k="highway" v="residential"/>
    <tag k="name" v="Midas Street"/>
    <tag k="source:maxspeed" v="default residential speed limit in Australia"/>
  </way>
  <way id="13613269" version="3" timestamp="2010-06-01T08:24:02Z" uid="4467" user="Rosscoe" changeset="4872615">
    <nd ref="726617982"/>
    <nd ref="726617983"/>
    <nd ref="125291598"/>
    <nd ref="125291823"/>
    <tag k="highway" v="residential"/>
    <tag k="name" v="Ciara Street"/>
  </way>
  <way id="13613269" version="4" timestamp="2010-06-06T13:33:15Z" uid="261730" user="Davoz" changeset="4917721">
    <nd ref="726617982"/>
    <nd ref="726617983"/>
    <nd ref="125291598"/>
    <nd ref="125291823"/>
    <nd ref="765762947"/>
    <tag k="highway" v="residential"/>
    <tag k="name" v="Ciara Street"/>
  </way>
  <way id="13613269" version="5" timestamp="2010-07-09T06:17:47Z" uid="74617" user="JohnSmith" changeset="5171128">
    <nd ref="726617982"/>
    <nd ref="726617983"/>
    <nd ref="125291598"/>
    <nd ref="125291823"/>
    <nd ref="765762947"/>
    <tag k="highway" v="residential"/>
    <tag k="maxspeed" v="50"/>
    <tag k="maxspeed:source" v="default residential speed limit in Australia"/>
    <tag k="name" v="Ciara Street"/>
  </way>
  <way id="13613269" version="6" timestamp="2011-04-23T02:10:00Z" uid="4467" user="Rosscoe" changeset="7940033">
    <nd ref="726617982"/>
    <nd ref="726617983"/>
    <nd ref="125291598"/>
    <nd ref="125291823"/>
    <nd ref="765762947"/>
    <tag k="highway" v="residential"/>
    <tag k="maxspeed" v="50"/>
    <tag k="name" v="Ciara Street"/>
    <tag k="source:maxspeed" v="default residential speed limit in Australia"/>
  </way>
  <way id="13613269" version="7" timestamp="2012-01-15T11:45:11Z" uid="147510" user="woodpeck_fixbot" changeset="10396281">
    <nd ref="726617982"/>
    <nd ref="726617983"/>
    <nd ref="125291598"/>
    <nd ref="125291823"/>
    <nd ref="765762947"/>
    <tag k="highway" v="residential"/>
    <tag k="name" v="Ciara Street"/>
    <tag k="source:maxspeed" v="default residential speed limit in Australia"/>
  </way>
  <way id="13613271" version="2" timestamp="2010-06-02T04:50:00Z" uid="4467" user="Rosscoe" changeset="4880669">
    <nd ref="125291823"/>
    <nd ref="125291940"/>
    <nd ref="125291847"/>
    <tag k="created_by" v="JOSM"/>
    <tag k="highway" v="residential"/>
    <tag k="name" v="Palmerston Street"/>
  </way>
  <way id="13613271" version="3" timestamp="2010-06-06T13:33:31Z" uid="261730" user="Davoz" changeset="4917721"/>
  <way id="13613273" version="3" timestamp="2010-06-02T04:51:00Z" uid="4467" user="Rosscoe" changeset="4880669">
    <nd ref="125291847"/>
    <nd ref="125291885"/>
    <tag k="highway" v="residential"/>
    <tag k="name" v="Plato Street"/>
  </way>
  <way id="13613273" version="4" timestamp="2010-06-06T13:33:19Z" uid="261730" user="Davoz" changeset="4917721">
    <nd ref="765762995"/>
    <nd ref="125291847"/>
    <nd ref="125291885"/>
    <tag k="highway" v="residential"/>
    <tag k="name" v="Plato Street"/>
  </way>
  <way id="13613273" version="5" timestamp="2010-07-09T06:16:22Z" uid="74617" user="JohnSmith" changeset="5171128">
    <nd ref="765762995"/>
    <nd ref="125291847"/>
    <nd ref="125291885"/>
    <tag k="highway" v="residential"/>
    <tag k="maxspeed" v="50"/>
    <tag k="maxspeed:source" v="default residential speed limit in Australia"/>
    <tag k="name" v="Plato Street"/>
  </way>
  <way id="13613273" version="6" timestamp="2011-04-23T02:10:03Z" uid="4467" user="Rosscoe" changeset="7940033">
    <nd ref="765762995"/>
    <nd ref="125291847"/>
    <nd ref="125291885"/>
    <tag k="highway" v="residential"/>
    <tag k="maxspeed" v="50"/>
    <tag k="name" v="Plato Street"/>
    <tag k="source:maxspeed" v="default residential speed limit in Australia"/>
  </way>
  <way id="13613273" version="7" timestamp="2011-11-08T15:34:17Z" uid="338866" user="tiger" changeset="9774144">
    <nd ref="765762951"/>
    <nd ref="125291847"/>
    <nd ref="125291885"/>
    <tag k="highway" v="residential"/>
    <tag k="maxspeed" v="50"/>
    <tag k="name" v="Plato Street"/>
    <tag k="source:maxspeed" v="default residential speed limit in Australia"/>
  </way>
  <way id="13613273" version="8" timestamp="2012-01-15T11:45:13Z" uid="147510" user="woodpeck_fixbot" changeset="10396281">
    <nd ref="765762951"/>
    <nd ref="125291847"/>
    <nd ref="125291885"/>
    <tag k="highway" v="residential"/>
    <tag k="name" v="Plato Street"/>
    <tag k="source:maxspeed" v="default residential speed limit in Australia"/>
  </way>
  <way id="13613275" version="3" timestamp="2010-06-01T14:13:05Z" uid="4467" user="Rosscoe" changeset="4874893">
    <nd ref="125291921"/>
    <nd ref="125292042"/>
    <nd ref="125292009"/>
    <nd ref="125291940"/>
    <tag k="highway" v="residential"/>
    <tag k="name" v="Dalhousie Street"/>
  </way>
  <way id="13613275" version="4" timestamp="2010-07-09T06:21:53Z" uid="74617" user="JohnSmith" changeset="5171128">
    <nd ref="125291921"/>
    <nd ref="125292042"/>
    <nd ref="125292009"/>
    <nd ref="125291940"/>
    <tag k="highway" v="residential"/>
    <tag k="maxspeed" v="50"/>
    <tag k="maxspeed:source" v="default residential speed limit in Australia"/>
    <tag k="name" v="Dalhousie Street"/>
  </way>
  <way id="13613275" version="5" timestamp="2011-04-23T02:09:53Z" uid="4467" user="Rosscoe" changeset="7940033">
    <nd ref="125291921"/>
    <nd ref="125292042"/>
    <nd ref="125292009"/>
    <nd ref="125291940"/>
    <tag k="highway" v="residential"/>
    <tag k="maxspeed" v="50"/>
    <tag k="name" v="Dalhousie Street"/>
    <tag k="source:maxspeed" v="default residential speed limit in Australia"/>
  </way>
  <way id="13613275" version="6" timestamp="2012-01-15T11:45:15Z" uid="147510" user="woodpeck_fixbot" changeset="10396281">
    <nd ref="125291921"/>
    <nd ref="125292042"/>
    <nd ref="125292009"/>
    <nd ref="125291940"/>
    <tag k="highway" v="residential"/>
    <tag k="name" v="Dalhousie Street"/>
    <tag k="source:maxspeed" v="default residential speed limit in Australia"/>
  </way>
  <way id="13613277" version="3" timestamp="2010-07-09T06:24:21Z" uid="74617" user="JohnSmith" changeset="5171128">
    <nd ref="125291970"/>
    <nd ref="125292009"/>
    <tag k="highway" v="residential"/>
    <tag k="maxspeed" v="50"/>
    <tag k="maxspeed:source" v="default residential speed limit in Australia"/>
    <tag k="name" v="Bramble Cove"/>
  </way>
  <way id="13613277" version="4" timestamp="2011-04-23T02:09:58Z" uid="4467" user="Rosscoe" changeset="7940033">
    <nd ref="125291970"/>
    <nd ref="125292009"/>
    <tag k="highway" v="residential"/>
    <tag k="maxspeed" v="50"/>
    <tag k="name" v="Bramble Cove"/>
    <tag k="source:maxspeed" v="default residential speed limit in Australia"/>
  </way>
  <way id="13613277" version="5" timestamp="2012-01-15T11:45:16Z" uid="147510" user="woodpeck_fixbot" changeset="10396281">
    <nd ref="125291970"/>
    <nd ref="125292009"/>
    <tag k="highway" v="residential"/>
    <tag k="name" v="Bramble Cove"/>
    <tag k="source:maxspeed" v="default residential speed limit in Australia"/>
  </way>
  <way id="13613280" version="3" timestamp="2010-06-01T02:48:28Z" uid="4467" user="Rosscoe" changeset="4871091">
    <nd ref="125292042"/>
    <nd ref="125291885"/>
    <nd ref="125292085"/>
    <tag k="highway" v="residential"/>
    <tag k="name" v="Kinkella Drive"/>
  </way>
  <way id="13613280" version="4" timestamp="2010-07-09T06:22:52Z" uid="74617" user="JohnSmith" changeset="5171128">
    <nd ref="125292042"/>
    <nd ref="125291885"/>
    <nd ref="125292085"/>
    <tag k="highway" v="residential"/>
    <tag k="maxspeed" v="50"/>
    <tag k="maxspeed:source" v="default residential speed limit in Australia"/>
    <tag k="name" v="Kinkella Drive"/>
  </way>
  <way id="13613280" version="5" timestamp="2011-04-23T02:10:03Z" uid="4467" user="Rosscoe" changeset="7940033">
    <nd ref="125292042"/>
    <nd ref="1256280950"/>
    <nd ref="125291885"/>
    <nd ref="125292085"/>
    <tag k="highway" v="residential"/>
    <tag k="maxspeed" v="50"/>
    <tag k="name" v="Kinkella Drive"/>
    <tag k="source:maxspeed" v="default residential speed limit in Australia"/>
  </way>
  <way id="13613280" version="6" timestamp="2012-01-15T11:45:18Z" uid="147510" user="woodpeck_fixbot" changeset="10396281">
    <nd ref="125292042"/>
    <nd ref="1256280950"/>
    <nd ref="125291885"/>
    <nd ref="125292085"/>
    <tag k="highway" v="residential"/>
    <tag k="name" v="Kinkella Drive"/>
    <tag k="source:maxspeed" v="default residential speed limit in Australia"/>
  </way>
  <way id="13613283" version="3" timestamp="2010-06-02T05:51:52Z" uid="4467" user="Rosscoe" changeset="4881008">
    <nd ref="125291921"/>
    <nd ref="125292124"/>
    <nd ref="125292169"/>
    <tag k="highway" v="residential"/>
    <tag k="name" v="Raglan Street"/>
  </way>
  <way id="13613283" version="4" timestamp="2010-07-09T06:16:41Z" uid="74617" user="JohnSmith" changeset="5171128">
    <nd ref="125291921"/>
    <nd ref="125292124"/>
    <nd ref="125292169"/>
    <tag k="highway" v="residential"/>
    <tag k="maxspeed" v="50"/>
    <tag k="maxspeed:source" v="default residential speed limit in Australia"/>
    <tag k="name" v="Raglan Street"/>
  </way>
  <way id="13613283" version="5" timestamp="2011-04-23T02:10:04Z" uid="4467" user="Rosscoe" changeset="7940033">
    <nd ref="125291921"/>
    <nd ref="125292124"/>
    <nd ref="125292169"/>
    <tag k="highway" v="residential"/>
    <tag k="maxspeed" v="50"/>
    <tag k="name" v="Raglan Street"/>
    <tag k="source:maxspeed" v="default residential speed limit in Australia"/>
  </way>
  <way id="13613283" version="6" timestamp="2012-01-15T11:45:19Z" uid="147510" user="woodpeck_fixbot" changeset="10396281">
    <nd ref="125291921"/>
    <nd ref="125292124"/>
    <nd ref="125292169"/>
    <tag k="highway" v="residential"/>
    <tag k="name" v="Raglan Street"/>
    <tag k="source:maxspeed" v="default residential speed limit in Australia"/>
  </way>
  <way id="13613285" version="9" timestamp="2009-12-16T05:42:12Z" uid="4467" user="Rosscoe" changeset="3384575">
    <nd ref="125279341"/>
    <nd ref="125299305"/>
    <nd ref="354783447"/>
    <nd ref="125294379"/>
    <tag k="highway" v="tertiary"/>
    <tag k="name" v="Boardwalk Boulevard"/>
    <tag k="oneway" v="yes"/>
  </way>
  <way id="13613285" version="10" timestamp="2010-12-12T15:08:17Z" uid="11111" user="lakeyboy" changeset="6636037">
    <nd ref="125279341"/>
    <nd ref="125299305"/>
    <nd ref="354783447"/>
    <nd ref="125294379"/>
    <tag k="highway" v="secondary"/>
    <tag k="lanes" v="2"/>
    <tag k="maxspeed" v="70"/>
    <tag k="name" v="Boardwalk Boulevard"/>
    <tag k="oneway" v="yes"/>
    <tag k="source" v="nearmap"/>
  </way>
  <way id="13613286" version="3" timestamp="2010-07-09T06:17:21Z" uid="74617" user="JohnSmith" changeset="5171128">
    <nd ref="125291921"/>
    <nd ref="125292203"/>
    <nd ref="125291057"/>
    <tag k="highway" v="residential"/>
    <tag k="maxspeed" v="50"/>
    <tag k="maxspeed:source" v="default residential speed limit in Australia"/>
    <tag k="name" v="Twlight Terrace"/>
  </way>
  <way id="13613286" version="4" timestamp="2011-04-23T02:10:01Z" uid="4467" user="Rosscoe" changeset="7940033">
    <nd ref="125291921"/>
    <nd ref="125292203"/>
    <nd ref="125291057"/>
    <tag k="highway" v="residential"/>
    <tag k="maxspeed" v="50"/>
    <tag k="name" v="Twlight Terrace"/>
    <tag k="source:maxspeed" v="default residential speed limit in Australia"/>
  </way>
  <way id="13613286" version="5" timestamp="2012-01-15T11:45:21Z" uid="147510" user="woodpeck_fixbot" changeset="10396281">
    <nd ref="125291921"/>
    <nd ref="125292203"/>
    <nd ref="125291057"/>
    <tag k="highway" v="residential"/>
    <tag k="name" v="Twlight Terrace"/>
    <tag k="source:maxspeed" v="default residential speed limit in Australia"/>
  </way>
  <way id="13613288" version="3" timestamp="2010-06-02T06:51:48Z" uid="4467" user="Rosscoe" changeset="4881307">
    <nd ref="125292203"/>
    <nd ref="125292277"/>
    <nd ref="125292233"/>
    <tag k="highway" v="residential"/>
    <tag k="name" v="Solglot Street"/>
  </way>
  <way id="13613288" version="4" timestamp="2010-07-09T06:19:49Z" uid="74617" user="JohnSmith" changeset="5171128">
    <nd ref="125292203"/>
    <nd ref="125292277"/>
    <nd ref="125292233"/>
    <tag k="highway" v="residential"/>
    <tag k="maxspeed" v="50"/>
    <tag k="maxspeed:source" v="default residential speed limit in Australia"/>
    <tag k="name" v="Solglot Street"/>
  </way>
  <way id="13613288" version="5" timestamp="2011-04-23T02:10:00Z" uid="4467" user="Rosscoe" changeset="7940033">
    <nd ref="125292203"/>
    <nd ref="125292277"/>
    <nd ref="125292233"/>
    <tag k="highway" v="residential"/>
    <tag k="maxspeed" v="50"/>
    <tag k="name" v="Solglot Street"/>
    <tag k="source:maxspeed" v="default residential speed limit in Australia"/>
  </way>
  <way id="13613288" version="6" timestamp="2012-01-15T11:45:22Z" uid="147510" user="woodpeck_fixbot" changeset="10396281">
    <nd ref="125292203"/>
    <nd ref="125292277"/>
    <nd ref="125292233"/>
    <tag k="highway" v="residential"/>
    <tag k="name" v="Solglot Street"/>
    <tag k="source:maxspeed" v="default residential speed limit in Australia"/>
  </way>
  <way id="13613292" version="3" timestamp="2010-06-01T02:40:00Z" uid="4467" user="Rosscoe" changeset="4871078">
    <nd ref="125292249"/>
    <nd ref="125292277"/>
    <tag k="highway" v="residential"/>
    <tag k="name" v="Cingalese Close"/>
  </way>
  <way id="13613292" version="4" timestamp="2010-07-09T06:18:30Z" uid="74617" user="JohnSmith" changeset="5171128">
    <nd ref="125292249"/>
    <nd ref="125292277"/>
    <tag k="highway" v="residential"/>
    <tag k="maxspeed" v="50"/>
    <tag k="maxspeed:source" v="default residential speed limit in Australia"/>
    <tag k="name" v="Cingalese Close"/>
  </way>
  <way id="13613292" version="5" timestamp="2011-04-23T02:09:56Z" uid="4467" user="Rosscoe" changeset="7940033">
    <nd ref="125292249"/>
    <nd ref="125292277"/>
    <tag k="highway" v="residential"/>
    <tag k="maxspeed" v="50"/>
    <tag k="name" v="Cingalese Close"/>
    <tag k="source:maxspeed" v="default residential speed limit in Australia"/>
  </way>
  <way id="13613292" version="6" timestamp="2012-01-15T11:45:24Z" uid="147510" user="woodpeck_fixbot" changeset="10396281">
    <nd ref="125292249"/>
    <nd ref="125292277"/>
    <tag k="highway" v="residential"/>
    <tag k="name" v="Cingalese Close"/>
    <tag k="source:maxspeed" v="default residential speed limit in Australia"/>
  </way>
  <way id="13613294" version="3" timestamp="2010-06-01T02:55:47Z" uid="4467" user="Rosscoe" changeset="4871118">
    <nd ref="125292320"/>
    <nd ref="125292344"/>
    <tag k="highway" v="residential"/>
    <tag k="name" v="Beagle Place"/>
  </way>
  <way id="13613294" version="4" timestamp="2010-07-09T06:23:59Z" uid="74617" user="JohnSmith" changeset="5171128">
    <nd ref="125292320"/>
    <nd ref="125292344"/>
    <tag k="highway" v="residential"/>
    <tag k="maxspeed" v="50"/>
    <tag k="maxspeed:source" v="default residential speed limit in Australia"/>
    <tag k="name" v="Beagle Place"/>
  </way>
  <way id="13613294" version="5" timestamp="2012-01-15T11:45:25Z" uid="147510" user="woodpeck_fixbot" changeset="10396281">
    <nd ref="125292320"/>
    <nd ref="125292344"/>
    <tag k="highway" v="residential"/>
    <tag k="name" v="Beagle Place"/>
  </way>
  <way id="13613296" version="4" timestamp="2010-06-02T07:59:44Z" uid="4467" user="Rosscoe" changeset="4881676">
    <nd ref="125292361"/>
    <nd ref="125292489"/>
    <nd ref="240478831"/>
    <nd ref="125292085"/>
    <nd ref="125292395"/>
    <nd ref="125292425"/>
    <tag k="highway" v="secondary"/>
    <tag k="name" v="Underwood Street"/>
  </way>
  <way id="13613296" version="5" timestamp="2010-06-06T13:33:31Z" uid="261730" user="Davoz" changeset="4917721"/>
  <way id="13613300" version="6" timestamp="2010-05-21T01:07:41Z" uid="4467" user="Rosscoe" changeset="4762527">
    <nd ref="32671069"/>
    <nd ref="125292361"/>
    <nd ref="240478209"/>
    <nd ref="729659278"/>
    <nd ref="741749831"/>
    <nd ref="741749812"/>
    <tag k="highway" v="secondary"/>
    <tag k="name" v="Brittain Road"/>
  </way>
  <way id="13613300" version="7" timestamp="2010-05-21T01:19:38Z" uid="4467" user="Rosscoe" changeset="4762527">
    <nd ref="32671069"/>
    <nd ref="125292361"/>
    <nd ref="240478209"/>
    <nd ref="729659278"/>
    <nd ref="741751353"/>
    <nd ref="741751341"/>
    <tag k="highway" v="secondary"/>
    <tag k="name" v="Brittain Road"/>
  </way>
  <way id="13613300" version="8" timestamp="2011-04-23T02:10:03Z" uid="4467" user="Rosscoe" changeset="7940033">
    <nd ref="1256280897"/>
    <nd ref="1256280932"/>
    <nd ref="125292361"/>
    <nd ref="240478209"/>
    <nd ref="729659278"/>
    <nd ref="741751353"/>
    <nd ref="741751341"/>
    <tag k="highway" v="secondary"/>
    <tag k="name" v="Brittain Road"/>
  </way>
  <way id="13613301" version="4" timestamp="2010-07-09T06:15:49Z" uid="74617" user="JohnSmith" changeset="5171128">
    <nd ref="125292489"/>
    <nd ref="125292520"/>
    <nd ref="125292552"/>
    <nd ref="125292587"/>
    <nd ref="125292650"/>
    <nd ref="125292677"/>
    <nd ref="125292709"/>
    <nd ref="125292773"/>
    <nd ref="125292804"/>
    <nd ref="125292947"/>
    <nd ref="125292972"/>
    <nd ref="125292993"/>
    <nd ref="726617955"/>
    <nd ref="726617957"/>
    <tag k="highway" v="residential"/>
    <tag k="maxspeed" v="50"/>
    <tag k="maxspeed:source" v="default residential speed limit in Australia"/>
    <tag k="name" v="Neilsen Grove"/>
  </way>
  <way id="13613301" version="5" timestamp="2011-04-23T02:10:02Z" uid="4467" user="Rosscoe" changeset="7940033">
    <nd ref="125292489"/>
    <nd ref="125292520"/>
    <nd ref="125292552"/>
    <nd ref="125292587"/>
    <nd ref="1256280894"/>
    <nd ref="1256280884"/>
    <tag k="highway" v="residential"/>
    <tag k="maxspeed" v="50"/>
    <tag k="name" v="Neilsen Grove"/>
    <tag k="source:maxspeed" v="default residential speed limit in Australia"/>
  </way>
  <way id="13613301" version="6" timestamp="2012-01-15T11:45:27Z" uid="147510" user="woodpeck_fixbot" changeset="10396281">
    <nd ref="125292489"/>
    <nd ref="125292520"/>
    <nd ref="125292552"/>
    <nd ref="125292587"/>
    <nd ref="1256280894"/>
    <nd ref="1256280884"/>
    <tag k="highway" v="residential"/>
    <tag k="name" v="Neilsen Grove"/>
    <tag k="source:maxspeed" v="default residential speed limit in Australia"/>
  </way>
  <way id="13613304" version="3" timestamp="2010-06-01T02:55:50Z" uid="4467" user="Rosscoe" changeset="4871118">
    <nd ref="125292650"/>
    <nd ref="125293277"/>
    <nd ref="125293058"/>
    <nd ref="125293079"/>
    <nd ref="125293110"/>
    <nd ref="125293129"/>
    <nd ref="125293155"/>
    <nd ref="125293209"/>
    <nd ref="125293241"/>
    <nd ref="125293263"/>
    <tag k="highway" v="residential"/>
    <tag k="name" v="Holtzman Place"/>
  </way>
  <way id="13613304" version="4" timestamp="2010-07-09T06:16:17Z" uid="74617" user="JohnSmith" changeset="5171128">
    <nd ref="125292650"/>
    <nd ref="125293277"/>
    <nd ref="125293058"/>
    <nd ref="125293079"/>
    <nd ref="125293110"/>
    <nd ref="125293129"/>
    <nd ref="125293155"/>
    <nd ref="125293209"/>
    <nd ref="125293241"/>
    <nd ref="125293263"/>
    <tag k="highway" v="residential"/>
    <tag k="maxspeed" v="50"/>
    <tag k="maxspeed:source" v="default residential speed limit in Australia"/>
    <tag k="name" v="Holtzman Place"/>
  </way>
  <way id="13613304" version="5" timestamp="2011-04-23T02:09:55Z" uid="4467" user="Rosscoe" changeset="7940033">
    <nd ref="1256280913"/>
    <nd ref="1256280892"/>
    <nd ref="125293277"/>
    <nd ref="125293058"/>
    <nd ref="125293079"/>
    <nd ref="125293110"/>
    <nd ref="125293129"/>
    <nd ref="125293155"/>
    <nd ref="125293209"/>
    <nd ref="125293241"/>
    <nd ref="125293263"/>
    <tag k="highway" v="residential"/>
    <tag k="maxspeed" v="50"/>
    <tag k="name" v="Holtzman Place"/>
    <tag k="source:maxspeed" v="default residential speed limit in Australia"/>
  </way>
  <way id="13613304" version="6" timestamp="2012-01-15T11:45:28Z" uid="147510" user="woodpeck_fixbot" changeset="10396281">
    <nd ref="1256280913"/>
    <nd ref="1256280892"/>
    <nd ref="125293277"/>
    <nd ref="125293058"/>
    <nd ref="125293079"/>
    <nd ref="125293110"/>
    <nd ref="125293129"/>
    <nd ref="125293155"/>
    <nd ref="125293209"/>
    <nd ref="125293241"/>
    <nd ref="125293263"/>
    <tag k="highway" v="residential"/>
    <tag k="name" v="Holtzman Place"/>
    <tag k="source:maxspeed" v="default residential speed limit in Australia"/>
  </way>
  <way id="13613314" version="3" timestamp="2010-06-01T02:55:51Z" uid="4467" user="Rosscoe" changeset="4871118">
    <nd ref="125293277"/>
    <nd ref="125293296"/>
    <nd ref="726617961"/>
    <nd ref="726617962"/>
    <tag k="highway" v="residential"/>
    <tag k="name" v="Rodgers Place"/>
  </way>
  <way id="13613314" version="4" timestamp="2010-07-09T06:17:34Z" uid="74617" user="JohnSmith" changeset="5171128">
    <nd ref="125293277"/>
    <nd ref="125293296"/>
    <nd ref="726617961"/>
    <nd ref="726617962"/>
    <tag k="highway" v="residential"/>
    <tag k="maxspeed" v="50"/>
    <tag k="maxspeed:source" v="default residential speed limit in Australia"/>
    <tag k="name" v="Rodgers Place"/>
  </way>
  <way id="13613314" version="5" timestamp="2011-04-23T02:10:03Z" uid="4467" user="Rosscoe" changeset="7940033">
    <nd ref="125293277"/>
    <nd ref="125293296"/>
    <nd ref="726617961"/>
    <nd ref="726617962"/>
    <tag k="highway" v="residential"/>
    <tag k="maxspeed" v="50"/>
    <tag k="name" v="Rodgers Place"/>
    <tag k="source" v="nearmap"/>
    <tag k="source:maxspeed" v="default residential speed limit in Australia"/>
  </way>
  <way id="13613314" version="6" timestamp="2012-01-15T11:45:31Z" uid="147510" user="woodpeck_fixbot" changeset="10396281">
    <nd ref="125293277"/>
    <nd ref="125293296"/>
    <nd ref="726617961"/>
    <nd ref="726617962"/>
    <tag k="highway" v="residential"/>
    <tag k="name" v="Rodgers Place"/>
    <tag k="source" v="nearmap"/>
    <tag k="source:maxspeed" v="default residential speed limit in Australia"/>
  </way>
  <way id="13613317" version="2" timestamp="2010-06-01T02:55:53Z" uid="4467" user="Rosscoe" changeset="4871118">
    <nd ref="125293129"/>
    <nd ref="125293331"/>
    <tag k="created_by" v="JOSM"/>
    <tag k="highway" v="residential"/>
    <tag k="name" v="Bergersen Place"/>
  </way>
  <way id="13613317" version="3" timestamp="2010-07-09T06:18:12Z" uid="74617" user="JohnSmith" changeset="5171128">
    <nd ref="125293129"/>
    <nd ref="125293331"/>
    <tag k="highway" v="residential"/>
    <tag k="maxspeed" v="50"/>
    <tag k="maxspeed:source" v="default residential speed limit in Australia"/>
    <tag k="name" v="Bergersen Place"/>
  </way>
  <way id="13613317" version="4" timestamp="2011-04-23T02:09:55Z" uid="4467" user="Rosscoe" changeset="7940033">
    <nd ref="125293129"/>
    <nd ref="125293331"/>
    <tag k="highway" v="residential"/>
    <tag k="maxspeed" v="50"/>
    <tag k="name" v="Bergersen Place"/>
    <tag k="source" v="nearmap"/>
    <tag k="source:maxspeed" v="default residential speed limit in Australia"/>
  </way>
  <way id="13613317" version="5" timestamp="2012-01-15T11:45:32Z" uid="147510" user="woodpeck_fixbot" changeset="10396281">
    <nd ref="125293129"/>
    <nd ref="125293331"/>
    <tag k="highway" v="residential"/>
    <tag k="name" v="Bergersen Place"/>
    <tag k="source" v="nearmap"/>
    <tag k="source:maxspeed" v="default residential speed limit in Australia"/>
  </way>
  <way id="13613320" version="3" timestamp="2010-07-09T06:18:42Z" uid="74617" user="JohnSmith" changeset="5171128">
    <nd ref="125293369"/>
    <nd ref="125293382"/>
    <nd ref="33235539"/>
    <nd ref="125293400"/>
    <tag k="highway" v="residential"/>
    <tag k="maxspeed" v="50"/>
    <tag k="maxspeed:source" v="default residential speed limit in Australia"/>
    <tag k="name" v="Paisley Street"/>
  </way>
  <way id="13613320" version="4" timestamp="2011-04-17T01:01:06Z" uid="4467" user="Rosscoe" changeset="7883328">
    <nd ref="125293369"/>
    <nd ref="1247832494"/>
    <nd ref="125293382"/>
    <nd ref="1247832473"/>
    <nd ref="33235539"/>
    <nd ref="125293400"/>
    <nd ref="1247832493"/>
    <tag k="highway" v="residential"/>
    <tag k="maxspeed" v="50"/>
    <tag k="maxspeed:source" v="default residential speed limit in Australia"/>
    <tag k="name" v="Paisley Street"/>
  </way>
  <way id="13613320" version="5" timestamp="2011-04-17T01:36:52Z" uid="4467" user="Rosscoe" changeset="7883426">
    <nd ref="125293369"/>
    <nd ref="1247832494"/>
    <nd ref="125293382"/>
    <nd ref="1247832473"/>
    <nd ref="33235539"/>
    <nd ref="125293400"/>
    <nd ref="1247832493"/>
    <tag k="highway" v="residential"/>
    <tag k="maxspeed" v="50"/>
    <tag k="name" v="Paisley Street"/>
    <tag k="source:maxspeed" v="default residential speed limit in Australia"/>
  </way>
  <way id="13613320" version="6" timestamp="2012-01-15T11:45:34Z" uid="147510" user="woodpeck_fixbot" changeset="10396281">
    <nd ref="125293369"/>
    <nd ref="1247832494"/>
    <nd ref="125293382"/>
    <nd ref="1247832473"/>
    <nd ref="33235539"/>
    <nd ref="125293400"/>
    <nd ref="1247832493"/>
    <tag k="highway" v="residential"/>
    <tag k="name" v="Paisley Street"/>
    <tag k="source:maxspeed" v="default residential speed limit in Australia"/>
  </way>
  <way id="13613323" version="3" timestamp="2011-04-17T01:01:03Z" uid="4467" user="Rosscoe" changeset="7883328">
    <nd ref="125293424"/>
    <nd ref="125293446"/>
    <nd ref="125293469"/>
    <nd ref="125293506"/>
    <nd ref="125293529"/>
    <nd ref="1247832500"/>
    <nd ref="125293554"/>
    <nd ref="125293568"/>
    <nd ref="125293424"/>
    <tag k="amenity" v="school"/>
    <tag k="name" v="South Bunbury Primary School"/>
  </way>
  <way id="13613330" version="3" timestamp="2011-04-17T01:01:06Z" uid="4467" user="Rosscoe" changeset="7883328">
    <nd ref="125293690"/>
    <nd ref="125293714"/>
    <nd ref="125293746"/>
    <nd ref="1247832505"/>
    <nd ref="125293777"/>
    <nd ref="125293813"/>
    <nd ref="125293690"/>
    <tag k="amenity" v="school"/>
    <tag k="name" v="St. Marys Catholic Primary School"/>
  </way>
  <way id="13613468" version="6" timestamp="2009-12-16T05:42:13Z" uid="4467" user="Rosscoe" changeset="3384575">
    <nd ref="125294380"/>
    <nd ref="354254545"/>
    <nd ref="125296651"/>
    <nd ref="125296652"/>
    <nd ref="354254528"/>
    <nd ref="125296653"/>
    <nd ref="354254360"/>
    <nd ref="125296655"/>
    <nd ref="125296657"/>
    <nd ref="125296658"/>
    <nd ref="125297194"/>
    <nd ref="125297189"/>
    <tag k="highway" v="tertiary"/>
    <tag k="name" v="Boardwalk Boulevard"/>
    <tag k="oneway" v="yes"/>
    <tag k="source" v="nearmap"/>
  </way>
  <way id="13613468" version="7" timestamp="2010-12-12T15:08:19Z" uid="11111" user="lakeyboy" changeset="6636037">
    <nd ref="125294380"/>
    <nd ref="354254545"/>
    <nd ref="125296651"/>
    <nd ref="125296652"/>
    <nd ref="354254528"/>
    <nd ref="125296653"/>
    <nd ref="354254360"/>
    <nd ref="125296655"/>
    <nd ref="125296657"/>
    <nd ref="125296658"/>
    <nd ref="125297194"/>
    <nd ref="125297189"/>
    <tag k="highway" v="secondary"/>
    <tag k="lanes" v="2"/>
    <tag k="maxspeed" v="70"/>
    <tag k="name" v="Boardwalk Boulevard"/>
    <tag k="oneway" v="yes"/>
    <tag k="source" v="nearmap"/>
  </way>
  <way id="13613483" version="7" timestamp="2009-12-16T05:42:14Z" uid="4467" user="Rosscoe" changeset="3384575">
    <nd ref="125297041"/>
    <nd ref="125297042"/>
    <nd ref="125297043"/>
    <nd ref="125297044"/>
    <nd ref="125297046"/>
    <nd ref="125297048"/>
    <nd ref="125297049"/>
    <nd ref="125297051"/>
    <nd ref="125297052"/>
    <nd ref="125297053"/>
    <nd ref="125297055"/>
    <nd ref="125297189"/>
    <nd ref="125297041"/>
    <tag k="highway" v="tertiary"/>
    <tag k="junction" v="roundabout"/>
    <tag k="source" v="nearmap"/>
  </way>
  <way id="13613483" version="8" timestamp="2010-12-12T15:08:20Z" uid="11111" user="lakeyboy" changeset="6636037">
    <nd ref="125297041"/>
    <nd ref="125297042"/>
    <nd ref="125297043"/>
    <nd ref="125297044"/>
    <nd ref="125297046"/>
    <nd ref="125297048"/>
    <nd ref="125297049"/>
    <nd ref="125297051"/>
    <nd ref="125297052"/>
    <nd ref="125297053"/>
    <nd ref="125297055"/>
    <nd ref="125297189"/>
    <nd ref="125297041"/>
    <tag k="highway" v="secondary"/>
    <tag k="junction" v="roundabout"/>
    <tag k="source" v="nearmap"/>
  </way>
  <way id="13613562" version="9" timestamp="2009-12-16T05:42:14Z" uid="4467" user="Rosscoe" changeset="3384575">
    <nd ref="125297052"/>
    <nd ref="125298296"/>
    <nd ref="593052571"/>
    <nd ref="354254553"/>
    <nd ref="593052572"/>
    <nd ref="125298297"/>
    <nd ref="125298298"/>
    <nd ref="354254582"/>
    <nd ref="593052575"/>
    <nd ref="354781710"/>
    <nd ref="125298301"/>
    <tag k="highway" v="tertiary"/>
    <tag k="name" v="Boardwalk Boulevard"/>
    <tag k="oneway" v="yes"/>
    <tag k="source" v="nearmap"/>
  </way>
  <way id="13613562" version="10" timestamp="2010-12-12T15:08:20Z" uid="11111" user="lakeyboy" changeset="6636037">
    <nd ref="125297052"/>
    <nd ref="125298296"/>
    <nd ref="593052571"/>
    <nd ref="354254553"/>
    <nd ref="593052572"/>
    <nd ref="125298297"/>
    <nd ref="125298298"/>
    <nd ref="354254582"/>
    <nd ref="593052575"/>
    <nd ref="354781710"/>
    <nd ref="125298301"/>
    <tag k="highway" v="secondary"/>
    <tag k="lanes" v="2"/>
    <tag k="maxspeed" v="70"/>
    <tag k="name" v="Boardwalk Boulevard"/>
    <tag k="oneway" v="yes"/>
    <tag k="source" v="nearmap"/>
  </way>
  <way id="13613645" version="6" timestamp="2009-12-16T05:42:14Z" uid="4467" user="Rosscoe" changeset="3384575">
    <nd ref="34219382"/>
    <nd ref="125299300"/>
    <nd ref="125299301"/>
    <nd ref="125299302"/>
    <nd ref="125299303"/>
    <nd ref="125299305"/>
    <tag k="highway" v="motorway_link"/>
    <tag k="name" v="Forsyth Road Offramp"/>
    <tag k="oneway" v="yes"/>
    <tag k="source" v="nearmap"/>
  </way>
  <way id="13613681" version="5" timestamp="2009-12-16T05:42:12Z" uid="4467" user="Rosscoe" changeset="3384575">
    <nd ref="125299522"/>
    <nd ref="125299643"/>
    <nd ref="125299645"/>
    <nd ref="34219986"/>
    <tag k="highway" v="motorway_link"/>
    <tag k="name" v="Princes Freeway Onramp"/>
    <tag k="oneway" v="yes"/>
    <tag k="source" v="nearmap"/>
  </way>
  <way id="13613914" version="5" timestamp="2009-12-16T05:42:06Z" uid="4467" user="Rosscoe" changeset="3384575">
    <nd ref="125297043"/>
    <nd ref="125302598"/>
    <nd ref="125302600"/>
    <nd ref="593052569"/>
    <nd ref="125303302"/>
    <nd ref="125303303"/>
    <nd ref="125303304"/>
    <nd ref="125303307"/>
    <nd ref="369924892"/>
    <nd ref="125303312"/>
    <tag k="highway" v="tertiary"/>
    <tag k="name" v="Boardwalk Boulevard"/>
    <tag k="oneway" v="yes"/>
    <tag k="source" v="nearmap"/>
  </way>
  <way id="13613914" version="6" timestamp="2009-12-31T23:13:32Z" uid="1679" user="andrewpmk" changeset="3504439">
    <nd ref="125297043"/>
    <nd ref="125302598"/>
    <nd ref="125302600"/>
    <nd ref="593052569"/>
    <nd ref="602363956"/>
    <nd ref="602363973"/>
    <nd ref="125303302"/>
    <nd ref="125303303"/>
    <nd ref="125303304"/>
    <nd ref="125303307"/>
    <nd ref="369924892"/>
    <nd ref="125303312"/>
    <tag k="highway" v="tertiary"/>
    <tag k="name" v="Boardwalk Boulevard"/>
    <tag k="oneway" v="yes"/>
    <tag k="source" v="nearmap"/>
  </way>
  <way id="13613914" version="7" timestamp="2010-09-16T07:39:40Z" uid="320632" user="Zulu99" changeset="5793040">
    <nd ref="125297043"/>
    <nd ref="125302598"/>
    <nd ref="914233484"/>
    <nd ref="125302600"/>
    <tag k="highway" v="tertiary"/>
    <tag k="name" v="Boardwalk Boulevard"/>
    <tag k="oneway" v="yes"/>
    <tag k="source" v="nearmap"/>
  </way>
  <way id="13613914" version="8" timestamp="2010-12-12T15:08:22Z" uid="11111" user="lakeyboy" changeset="6636037">
    <nd ref="125297043"/>
    <nd ref="125302598"/>
    <nd ref="914233484"/>
    <nd ref="125302600"/>
    <tag k="highway" v="secondary"/>
    <tag k="lanes" v="2"/>
    <tag k="maxspeed" v="70"/>
    <tag k="name" v="Boardwalk Boulevard"/>
    <tag k="oneway" v="yes"/>
    <tag k="source" v="nearmap"/>
  </way>
  <way id="13613973" version="5" timestamp="2009-12-16T05:42:23Z" uid="4467" user="Rosscoe" changeset="3384575"/>
</osm>
