<?xml version='1.0' encoding='UTF-8'?>
<osm version="0.6" generator="libosmium/2.20.0">
  <way id="13634067" version="13" timestamp="2010-03-07T08:48:34Z" uid="58091" user="Andreas M" changeset="4058292">
    <nd ref="31273803"/>
    <nd ref="31273804"/>
    <nd ref="254102920"/>
    <nd ref="31273806"/>
    <nd ref="385287243"/>
    <nd ref="31275289"/>
    <tag k="highway" v="secondary"/>
    <tag k="is_in:city" v="Stockerau"/>
    <tag k="is_in:country_code" v="AT"/>
    <tag k="name" v="Stögergasse"/>
    <tag k="postal_code" v="2000"/>
    <tag k="ref" v="L26"/>
  </way>
  <way id="13634067" version="14" timestamp="2010-12-24T13:12:48Z" uid="362390" user="AndiPersti" changeset="6754451">
    <nd ref="31273803"/>
    <nd ref="31273804"/>
    <nd ref="254102920"/>
    <nd ref="1061823213"/>
    <nd ref="1061823073"/>
    <nd ref="31273806"/>
    <nd ref="385287243"/>
    <nd ref="31275289"/>
    <tag k="highway" v="secondary"/>
    <tag k="name" v="Stögergasse"/>
    <tag k="ref" v="L26"/>
  </way>
  <way id="13634067" version="15" timestamp="2010-12-27T13:36:08Z" uid="362390" user="AndiPersti" changeset="6777839">
    <nd ref="31273803"/>
    <nd ref="31273804"/>
    <nd ref="254102920"/>
    <nd ref="1061823213"/>
    <nd ref="1061823073"/>
    <nd ref="31273806"/>
    <nd ref="385287243"/>
    <nd ref="31275289"/>
    <nd ref="1061822982"/>
    <nd ref="1067693705"/>
    <nd ref="31273808"/>
    <nd ref="31273809"/>
    <tag k="highway" v="secondary"/>
    <tag k="name" v="Stögergasse"/>
    <tag k="ref" v="L26"/>
  </way>
  <way id="13634067" version="16" timestamp="2011-01-16T08:55:18Z" uid="362390" user="AndiPersti" changeset="6985007">
    <nd ref="31273803"/>
    <nd ref="31273804"/>
    <nd ref="254102920"/>
    <nd ref="1061823213"/>
    <nd ref="1061823073"/>
    <nd ref="31273806"/>
    <nd ref="385287243"/>
    <nd ref="31275289"/>
    <nd ref="1061822982"/>
    <nd ref="1067693705"/>
    <nd ref="31273808"/>
    <nd ref="31273809"/>
    <tag k="highway" v="secondary"/>
    <tag k="maxspeed" v="50"/>
    <tag k="name" v="Stögergasse"/>
    <tag k="ref" v="L26"/>
  </way>
  <way id="13634429" version="5" timestamp="2010-02-09T02:05:25Z" uid="74617" user="JohnSmith" changeset="3828705">
    <nd ref="125533957"/>
    <nd ref="125006222"/>
    <tag k="highway" v="residential"/>
    <tag k="maxspeed" v="50"/>
    <tag k="name" v="Apperley Street"/>
  </way>
  <way id="13634429" version="6" timestamp="2010-12-05T12:33:31Z" uid="22094" user="Chadzopkyo" changeset="6549962">
    <nd ref="125533957"/>
    <nd ref="125006222"/>
    <tag k="highway" v="residential"/>
    <tag k="maxspeed" v="50"/>
    <tag k="name" v="Apperley Street"/>
    <tag k="source" v="GPS"/>
    <tag k="surface" v="asphalt"/>
  </way>
  <way id="13634429" version="7" timestamp="2012-01-15T11:45:56Z" uid="147510" user="woodpeck_fixbot" changeset="10396281">
    <nd ref="125533957"/>
    <nd ref="125006222"/>
    <tag k="highway" v="residential"/>
    <tag k="name" v="Apperley Street"/>
    <tag k="source" v="GPS"/>
    <tag k="surface" v="asphalt"/>
  </way>
  <way id="13634850" version="8" timestamp="2010-03-07T08:48:32Z" uid="58091" user="Andreas M" changeset="4058292">
    <nd ref="254103796"/>
    <nd ref="254103795"/>
    <nd ref="254103821"/>
    <nd ref="254103794"/>
    <nd ref="254103793"/>
    <nd ref="254103792"/>
    <nd ref="254103791"/>
    <nd ref="254103790"/>
    <nd ref="254103789"/>
    <nd ref="31275199"/>
    <nd ref="31330391"/>
    <nd ref="299141116"/>
    <nd ref="31275201"/>
    <tag k="highway" v="residential"/>
    <tag k="is_in:city" v="Stockerau"/>
    <tag k="is_in:country_code" v="AT"/>
    <tag k="name" v="Johann-Brunner-Gasse"/>
    <tag k="postal_code" v="2000"/>
  </way>
  <way id="13634850" version="9" timestamp="2010-12-23T16:21:40Z" uid="362390" user="AndiPersti" changeset="6747013">
    <nd ref="254103796"/>
    <nd ref="254103795"/>
    <nd ref="254103821"/>
    <nd ref="254103794"/>
    <nd ref="254103793"/>
    <nd ref="254103792"/>
    <nd ref="254103791"/>
    <nd ref="254103790"/>
    <nd ref="254103789"/>
    <nd ref="31275199"/>
    <nd ref="31330391"/>
    <nd ref="299141116"/>
    <nd ref="31275201"/>
    <tag k="highway" v="residential"/>
    <tag k="name" v="Johann-Brunner-Gasse"/>
  </way>
  <way id="13634850" version="10" timestamp="2010-12-26T13:22:39Z" uid="362390" user="AndiPersti" changeset="6768020">
    <nd ref="254103796"/>
    <nd ref="1065776060"/>
    <nd ref="254103821"/>
    <tag k="highway" v="footway"/>
  </way>
  <way id="13634850" version="11" timestamp="2010-12-28T18:34:58Z" uid="362390" user="AndiPersti" changeset="6790996">
    <nd ref="254103796"/>
    <nd ref="1069553720"/>
    <nd ref="1069554156"/>
    <nd ref="1069554176"/>
    <nd ref="1065776060"/>
    <nd ref="1069554254"/>
    <nd ref="1069553071"/>
    <nd ref="1069554092"/>
    <nd ref="254103821"/>
    <tag k="highway" v="footway"/>
  </way>
  <way id="13634913" version="4" timestamp="2010-02-09T02:05:21Z" uid="74617" user="JohnSmith" changeset="3828705">
    <nd ref="125006225"/>
    <nd ref="125537049"/>
    <nd ref="125537051"/>
    <nd ref="125537053"/>
    <nd ref="125537054"/>
    <nd ref="125537055"/>
    <tag k="highway" v="tertiary"/>
    <tag k="name" v="Red Hill Road"/>
  </way>
  <way id="13634913" version="5" timestamp="2010-12-05T12:33:50Z" uid="22094" user="Chadzopkyo" changeset="6549962">
    <nd ref="125006225"/>
    <nd ref="125537049"/>
    <nd ref="125537051"/>
    <nd ref="125537053"/>
    <nd ref="125537054"/>
    <nd ref="125537055"/>
    <tag k="highway" v="tertiary"/>
    <tag k="name" v="Red Hill Road"/>
    <tag k="source" v="GPS"/>
    <tag k="surface" v="asphalt"/>
  </way>
</osm>
