<?xml version='1.0' encoding='UTF-8'?>
<osm version="0.6" generator="libosmium/2.20.0">
  <way id="13656128" version="2" timestamp="2007-12-24T23:36:00Z" uid="1066" user="pavel" changeset="420681">
    <nd ref="125787772"/>
    <nd ref="125793940"/>
    <tag k="created_by" v="JOSM"/>
    <tag k="highway" v="residential"/>
  </way>
  <way id="13656128" version="3" timestamp="2008-01-31T03:56:12Z" uid="3516" user="BiIbo" changeset="713458">
    <nd ref="244252286"/>
    <nd ref="125787772"/>
    <nd ref="125793940"/>
    <tag k="created_by" v="JOSM"/>
    <tag k="highway" v="residential"/>
  </way>
  <way id="13656128" version="4" timestamp="2008-09-16T10:44:43Z" uid="1066" user="pavel" changeset="646258">
    <nd ref="244252286"/>
    <nd ref="125787772"/>
    <nd ref="125793940"/>
    <tag k="created_by" v="JOSM"/>
    <tag k="highway" v="residential"/>
    <tag k="name" v="Stehlíkova"/>
    <tag k="name:source" v="nameit/uir-adr"/>
  </way>
  <way id="13656128" version="5" timestamp="2009-03-06T18:57:34Z" uid="3516" user="BiIbo" changeset="744675">
    <nd ref="244252286"/>
    <nd ref="125787772"/>
    <nd ref="125793940"/>
    <tag k="highway" v="residential"/>
    <tag k="name" v="Stehlíkova"/>
    <tag k="source:name" v="nameit/uir-adr"/>
  </way>
  <way id="13656128" version="6" timestamp="2010-05-20T04:06:27Z" uid="3516" user="BiIbo" changeset="4753228">
    <nd ref="244252286"/>
    <nd ref="125787772"/>
    <nd ref="740355218"/>
    <nd ref="125793940"/>
    <tag k="highway" v="residential"/>
    <tag k="name" v="Stehlíkova"/>
    <tag k="source:name" v="nameit/uir-adr"/>
  </way>
  <way id="13656128" version="7" timestamp="2011-04-27T08:33:15Z" uid="248441" user="Jandrs" changeset="7982700">
    <nd ref="244252286"/>
    <nd ref="1261889182"/>
    <nd ref="125787772"/>
    <nd ref="740355218"/>
    <nd ref="125793940"/>
    <tag k="highway" v="residential"/>
    <tag k="name" v="Stehlíkova"/>
    <tag k="source:name" v="nameit/uir-adr"/>
  </way>
  <way id="13656128" version="8" timestamp="2011-04-27T09:27:36Z" uid="248441" user="Jandrs" changeset="7983144">
    <nd ref="1261917343"/>
    <nd ref="1261917345"/>
    <nd ref="1261917286"/>
    <nd ref="244252286"/>
    <nd ref="1261889182"/>
    <nd ref="125787772"/>
    <nd ref="740355218"/>
    <nd ref="125793940"/>
    <tag k="highway" v="residential"/>
    <tag k="name" v="Stehlíkova"/>
    <tag k="source:name" v="nameit/uir-adr"/>
  </way>
  <way id="13656130" version="2" timestamp="2007-12-24T23:35:27Z" uid="1066" user="pavel" changeset="420681">
    <nd ref="125787800"/>
    <nd ref="125793946"/>
    <tag k="created_by" v="JOSM"/>
    <tag k="highway" v="residential"/>
  </way>
  <way id="13656130" version="3" timestamp="2008-09-16T10:44:53Z" uid="1066" user="pavel" changeset="646258">
    <nd ref="125787800"/>
    <nd ref="125793946"/>
    <tag k="created_by" v="JOSM"/>
    <tag k="highway" v="residential"/>
    <tag k="name" v="Lysolajská"/>
    <tag k="name:source" v="nameit/uir-adr"/>
  </way>
  <way id="13656130" version="4" timestamp="2009-03-06T18:57:35Z" uid="3516" user="BiIbo" changeset="744675">
    <nd ref="125787800"/>
    <nd ref="125793946"/>
    <tag k="highway" v="residential"/>
    <tag k="name" v="Lysolajská"/>
    <tag k="source:name" v="nameit/uir-adr"/>
  </way>
  <way id="13656130" version="5" timestamp="2010-05-20T04:06:24Z" uid="3516" user="BiIbo" changeset="4753228">
    <nd ref="125787800"/>
    <nd ref="740355173"/>
    <nd ref="125793946"/>
    <tag k="highway" v="residential"/>
    <tag k="name" v="Lysolajská"/>
    <tag k="source:name" v="nameit/uir-adr"/>
  </way>
  <way id="13656131" version="2" timestamp="2007-12-24T23:35:48Z" uid="1066" user="pavel" changeset="420681">
    <nd ref="125787780"/>
    <nd ref="125793961"/>
    <nd ref="125793969"/>
    <tag k="created_by" v="JOSM"/>
    <tag k="highway" v="residential"/>
  </way>
  <way id="13656131" version="3" timestamp="2008-09-16T10:42:57Z" uid="1066" user="pavel" changeset="646258">
    <nd ref="125787780"/>
    <nd ref="125793961"/>
    <nd ref="125793969"/>
    <tag k="created_by" v="JOSM"/>
    <tag k="highway" v="residential"/>
    <tag k="name" v="Májová"/>
    <tag k="name:source" v="nameit/uir-adr"/>
  </way>
  <way id="13656131" version="4" timestamp="2009-03-06T18:57:34Z" uid="3516" user="BiIbo" changeset="744675">
    <nd ref="125787780"/>
    <nd ref="125793961"/>
    <nd ref="125793969"/>
    <tag k="highway" v="residential"/>
    <tag k="name" v="Májová"/>
    <tag k="source:name" v="nameit/uir-adr"/>
  </way>
  <way id="13656131" version="5" timestamp="2010-05-20T04:06:24Z" uid="3516" user="BiIbo" changeset="4753228">
    <nd ref="125787780"/>
    <nd ref="740355152"/>
    <nd ref="125793961"/>
    <nd ref="125793969"/>
    <tag k="highway" v="residential"/>
    <tag k="name" v="Májová"/>
    <tag k="source:name" v="nameit/uir-adr"/>
  </way>
  <way id="13656131" version="6" timestamp="2011-10-10T20:10:29Z" uid="100163" user="Hlav" changeset="9525627">
    <nd ref="1461672603"/>
    <nd ref="1461672604"/>
    <nd ref="125787780"/>
    <nd ref="740355152"/>
    <nd ref="125793961"/>
    <nd ref="125793969"/>
    <tag k="highway" v="residential"/>
    <tag k="name" v="Májová"/>
    <tag k="source:name" v="nameit/uir-adr"/>
  </way>
  <way id="13656132" version="2" timestamp="2007-12-24T23:35:58Z" uid="1066" user="pavel" changeset="420681">
    <nd ref="125793969"/>
    <nd ref="125793971"/>
    <nd ref="125787800"/>
    <tag k="created_by" v="JOSM"/>
    <tag k="highway" v="residential"/>
  </way>
  <way id="13656132" version="3" timestamp="2008-09-16T10:44:31Z" uid="1066" user="pavel" changeset="646258">
    <nd ref="125793969"/>
    <nd ref="125793971"/>
    <nd ref="125787800"/>
    <tag k="created_by" v="JOSM"/>
    <tag k="highway" v="residential"/>
    <tag k="name" v="Lysolajská"/>
    <tag k="name:source" v="nameit/uir-adr"/>
  </way>
  <way id="13656132" version="4" timestamp="2009-03-06T18:57:32Z" uid="3516" user="BiIbo" changeset="744675">
    <nd ref="125793969"/>
    <nd ref="125793971"/>
    <nd ref="125787800"/>
    <tag k="highway" v="residential"/>
    <tag k="name" v="Lysolajská"/>
    <tag k="source:name" v="nameit/uir-adr"/>
  </way>
  <way id="13656132" version="5" timestamp="2011-04-27T08:33:12Z" uid="248441" user="Jandrs" changeset="7982700">
    <nd ref="125793969"/>
    <nd ref="1261889185"/>
    <nd ref="125793971"/>
    <nd ref="125787800"/>
    <tag k="highway" v="residential"/>
    <tag k="name" v="Lysolajská"/>
    <tag k="source:name" v="nameit/uir-adr"/>
  </way>
  <way id="13656133" version="2" timestamp="2007-12-24T23:34:10Z" uid="1066" user="pavel" changeset="420681">
    <nd ref="125789475"/>
    <nd ref="28023903"/>
    <tag k="created_by" v="JOSM"/>
    <tag k="highway" v="residential"/>
  </way>
  <way id="13656133" version="3" timestamp="2008-09-16T10:42:53Z" uid="1066" user="pavel" changeset="646258">
    <nd ref="125789475"/>
    <nd ref="28023903"/>
    <tag k="created_by" v="JOSM"/>
    <tag k="highway" v="residential"/>
    <tag k="name" v="U Nového Suchdola"/>
    <tag k="name:source" v="nameit/uir-adr"/>
  </way>
  <way id="13656133" version="4" timestamp="2009-03-06T18:57:31Z" uid="3516" user="BiIbo" changeset="744675">
    <nd ref="125789475"/>
    <nd ref="28023903"/>
    <tag k="highway" v="residential"/>
    <tag k="name" v="U Nového Suchdola"/>
    <tag k="source:name" v="nameit/uir-adr"/>
  </way>
  <way id="13656133" version="5" timestamp="2012-02-06T21:34:15Z" uid="17615" user="Petr Dlouhý" changeset="10607323">
    <nd ref="125789475"/>
    <nd ref="1620807675"/>
    <nd ref="28023903"/>
    <tag k="highway" v="residential"/>
    <tag k="name" v="U Nového Suchdola"/>
    <tag k="source:name" v="nameit/uir-adr"/>
  </way>
  <way id="13656133" version="6" timestamp="2012-02-07T08:02:28Z" uid="17615" user="Petr Dlouhý" changeset="10609803">
    <nd ref="125789475"/>
    <nd ref="1620807675"/>
    <nd ref="1621255887"/>
    <nd ref="28023903"/>
    <tag k="highway" v="residential"/>
    <tag k="name" v="U Nového Suchdola"/>
    <tag k="source:name" v="nameit/uir-adr"/>
  </way>
  <way id="13656135" version="2" timestamp="2008-09-16T10:42:58Z" uid="1066" user="pavel" changeset="646258">
    <nd ref="125789480"/>
    <nd ref="125793956"/>
    <nd ref="125793961"/>
    <nd ref="125787809"/>
    <nd ref="125793940"/>
    <nd ref="125793966"/>
    <tag k="created_by" v="JOSM"/>
    <tag k="highway" v="residential"/>
    <tag k="name" v="Osvobození"/>
    <tag k="name:source" v="nameit/uir-adr"/>
  </way>
  <way id="13656135" version="3" timestamp="2009-03-06T18:57:32Z" uid="3516" user="BiIbo" changeset="744675">
    <nd ref="125789480"/>
    <nd ref="125793956"/>
    <nd ref="125793961"/>
    <nd ref="125787809"/>
    <nd ref="125793940"/>
    <nd ref="125793966"/>
    <tag k="highway" v="residential"/>
    <tag k="name" v="Osvobození"/>
    <tag k="source:name" v="nameit/uir-adr"/>
  </way>
  <way id="13656135" version="4" timestamp="2010-05-20T04:06:27Z" uid="3516" user="BiIbo" changeset="4753228">
    <nd ref="125789480"/>
    <nd ref="125793956"/>
    <nd ref="125793961"/>
    <nd ref="125787809"/>
    <nd ref="125793940"/>
    <nd ref="740355228"/>
    <nd ref="125793966"/>
    <tag k="highway" v="residential"/>
    <tag k="name" v="Osvobození"/>
    <tag k="source:name" v="nameit/uir-adr"/>
  </way>
  <way id="13656402" version="2" timestamp="2007-12-24T23:34:39Z" uid="1066" user="pavel" changeset="420681">
    <nd ref="125796290"/>
    <nd ref="125796291"/>
    <nd ref="125796294"/>
    <tag k="created_by" v="JOSM"/>
    <tag k="highway" v="residential"/>
  </way>
  <way id="13656402" version="3" timestamp="2008-09-16T10:42:26Z" uid="1066" user="pavel" changeset="646258">
    <nd ref="125796290"/>
    <nd ref="125796291"/>
    <nd ref="125796294"/>
    <tag k="created_by" v="JOSM"/>
    <tag k="highway" v="residential"/>
    <tag k="name" v="Při hranici"/>
    <tag k="name:source" v="nameit/uir-adr"/>
  </way>
  <way id="13656402" version="4" timestamp="2009-02-23T16:25:47Z" uid="3516" user="BiIbo" changeset="633633">
    <nd ref="125796290"/>
    <nd ref="125796291"/>
    <nd ref="125796294"/>
    <tag k="created_by" v="JOSM"/>
    <tag k="highway" v="residential"/>
    <tag k="name" v="Při Hranici"/>
    <tag k="name:source" v="nameit/uir-adr"/>
  </way>
  <way id="13656402" version="5" timestamp="2009-03-06T18:57:33Z" uid="3516" user="BiIbo" changeset="744675">
    <nd ref="125796290"/>
    <nd ref="125796291"/>
    <nd ref="125796294"/>
    <tag k="highway" v="residential"/>
    <tag k="name" v="Při Hranici"/>
    <tag k="source:name" v="nameit/uir-adr"/>
  </way>
  <way id="13656402" version="6" timestamp="2010-05-30T22:44:24Z" uid="3516" user="BiIbo" changeset="4858087">
    <nd ref="125796290"/>
    <nd ref="125796291"/>
    <nd ref="760002066"/>
    <nd ref="125796294"/>
    <tag k="highway" v="residential"/>
    <tag k="name" v="Při Hranici"/>
    <tag k="source:name" v="nameit/uir-adr"/>
  </way>
  <way id="13656403" version="2" timestamp="2007-12-24T23:34:55Z" uid="1066" user="pavel" changeset="420681">
    <nd ref="125796294"/>
    <nd ref="125796298"/>
    <nd ref="125796301"/>
    <nd ref="125796303"/>
    <tag k="created_by" v="JOSM"/>
    <tag k="highway" v="residential"/>
  </way>
  <way id="13656403" version="3" timestamp="2008-09-16T10:44:21Z" uid="1066" user="pavel" changeset="646258">
    <nd ref="125796294"/>
    <nd ref="125796298"/>
    <nd ref="125796301"/>
    <nd ref="125796303"/>
    <tag k="created_by" v="JOSM"/>
    <tag k="highway" v="residential"/>
    <tag k="name" v="Výjezdní"/>
    <tag k="name:source" v="nameit/uir-adr"/>
  </way>
  <way id="13656403" version="4" timestamp="2009-03-06T18:57:34Z" uid="3516" user="BiIbo" changeset="744675">
    <nd ref="125796294"/>
    <nd ref="125796298"/>
    <nd ref="125796301"/>
    <nd ref="125796303"/>
    <tag k="highway" v="residential"/>
    <tag k="name" v="Výjezdní"/>
    <tag k="source:name" v="nameit/uir-adr"/>
  </way>
  <way id="13656403" version="5" timestamp="2011-04-27T08:33:15Z" uid="248441" user="Jandrs" changeset="7982700">
    <nd ref="125796294"/>
    <nd ref="125796298"/>
    <nd ref="1261889218"/>
    <nd ref="1261889224"/>
    <nd ref="1261889195"/>
    <nd ref="125796301"/>
    <nd ref="125796303"/>
    <tag k="highway" v="residential"/>
    <tag k="name" v="Výjezdní"/>
    <tag k="source:name" v="nameit/uir-adr"/>
  </way>
  <way id="13656405" version="2" timestamp="2007-12-24T23:35:22Z" uid="1066" user="pavel" changeset="420681">
    <nd ref="125787794"/>
    <nd ref="125796306"/>
    <nd ref="125796309"/>
    <nd ref="125796313"/>
    <nd ref="125796315"/>
    <nd ref="125796317"/>
    <nd ref="125796319"/>
    <nd ref="125796323"/>
    <nd ref="125787785"/>
    <nd ref="125796327"/>
    <nd ref="125796329"/>
    <nd ref="125796331"/>
    <nd ref="125796333"/>
    <nd ref="125796335"/>
    <nd ref="125796336"/>
    <nd ref="125796339"/>
    <nd ref="125796342"/>
    <nd ref="125796344"/>
    <nd ref="125787794"/>
    <tag k="created_by" v="JOSM"/>
    <tag k="highway" v="residential"/>
  </way>
  <way id="13656405" version="3" timestamp="2008-09-16T10:44:20Z" uid="1066" user="pavel" changeset="646258">
    <nd ref="125787794"/>
    <nd ref="125796306"/>
    <nd ref="125796309"/>
    <nd ref="125796313"/>
    <nd ref="125796315"/>
    <nd ref="125796317"/>
    <nd ref="125796319"/>
    <nd ref="125796323"/>
    <nd ref="125787785"/>
    <nd ref="125796327"/>
    <nd ref="125796329"/>
    <nd ref="125796331"/>
    <nd ref="125796333"/>
    <nd ref="125796335"/>
    <nd ref="125796336"/>
    <nd ref="125796339"/>
    <nd ref="125796342"/>
    <nd ref="125796344"/>
    <nd ref="125787794"/>
    <tag k="created_by" v="JOSM"/>
    <tag k="highway" v="residential"/>
    <tag k="name" v="Internacionální"/>
    <tag k="name:source" v="nameit/uir-adr"/>
  </way>
  <way id="13656405" version="4" timestamp="2009-03-06T18:57:33Z" uid="3516" user="BiIbo" changeset="744675">
    <nd ref="125787794"/>
    <nd ref="125796306"/>
    <nd ref="125796309"/>
    <nd ref="125796313"/>
    <nd ref="125796315"/>
    <nd ref="125796317"/>
    <nd ref="125796319"/>
    <nd ref="125796323"/>
    <nd ref="125787785"/>
    <nd ref="125796327"/>
    <nd ref="125796329"/>
    <nd ref="125796331"/>
    <nd ref="125796333"/>
    <nd ref="125796335"/>
    <nd ref="125796336"/>
    <nd ref="125796339"/>
    <nd ref="125796342"/>
    <nd ref="125796344"/>
    <nd ref="125787794"/>
    <tag k="highway" v="residential"/>
    <tag k="name" v="Internacionální"/>
    <tag k="source:name" v="nameit/uir-adr"/>
  </way>
  <way id="13656405" version="5" timestamp="2009-03-20T09:17:15Z" uid="109057" user="Jozef Pastrnak" changeset="838145">
    <nd ref="125787794"/>
    <nd ref="125796306"/>
    <nd ref="125796309"/>
    <nd ref="125796313"/>
    <nd ref="125796315"/>
    <nd ref="125796317"/>
    <nd ref="125796319"/>
    <nd ref="125796323"/>
    <nd ref="125787785"/>
    <nd ref="125796327"/>
    <nd ref="125796329"/>
    <nd ref="125796331"/>
    <nd ref="125796333"/>
    <nd ref="125796335"/>
    <nd ref="125796336"/>
    <nd ref="125796339"/>
    <nd ref="125796342"/>
    <nd ref="125796344"/>
    <nd ref="125787794"/>
    <tag k="created_by" v="Potlatch 0.10f"/>
    <tag k="highway" v="residential"/>
    <tag k="name" v="Suchdolske namesti"/>
    <tag k="source:name" v="nameit/uir-adr"/>
  </way>
  <way id="13656405" version="6" timestamp="2009-03-20T09:19:09Z" uid="109057" user="Jozef Pastrnak" changeset="838145">
    <nd ref="125787794"/>
    <nd ref="125796306"/>
    <nd ref="125796309"/>
    <nd ref="125796313"/>
    <nd ref="125796315"/>
    <nd ref="125796317"/>
    <nd ref="125796319"/>
    <nd ref="125796323"/>
    <nd ref="125787785"/>
    <nd ref="125796327"/>
    <nd ref="125796329"/>
    <nd ref="125796331"/>
    <nd ref="125796333"/>
    <nd ref="125796335"/>
    <nd ref="125796336"/>
    <nd ref="125796339"/>
    <nd ref="125796342"/>
    <nd ref="125796344"/>
    <nd ref="125787794"/>
    <tag k="created_by" v="Potlatch 0.10f"/>
    <tag k="highway" v="residential"/>
    <tag k="name" v="Suchdolske namesti"/>
    <tag k="source:name" v="nameit/uir-adr"/>
  </way>
  <way id="13656405" version="7" timestamp="2009-03-20T09:23:02Z" uid="109057" user="Jozef Pastrnak" changeset="838145">
    <nd ref="125787794"/>
    <nd ref="125796306"/>
    <nd ref="125796309"/>
    <nd ref="125796313"/>
    <nd ref="125796315"/>
    <nd ref="125796317"/>
    <nd ref="125796319"/>
    <nd ref="125796323"/>
    <nd ref="125787785"/>
    <nd ref="125796327"/>
    <nd ref="125796329"/>
    <nd ref="125796331"/>
    <nd ref="125796333"/>
    <nd ref="125796335"/>
    <nd ref="125796336"/>
    <nd ref="125796339"/>
    <nd ref="125796342"/>
    <nd ref="125796344"/>
    <nd ref="125787794"/>
    <tag k="created_by" v="Potlatch 0.10f"/>
    <tag k="highway" v="residential"/>
    <tag k="name" v="Suchdolské náměstí"/>
    <tag k="source:name" v="nameit/uir-adr"/>
  </way>
  <way id="13656405" version="8" timestamp="2011-04-27T08:15:25Z" uid="248441" user="Jandrs" changeset="7982569">
    <nd ref="125787794"/>
    <nd ref="125796306"/>
    <nd ref="125796309"/>
    <nd ref="125796313"/>
    <nd ref="125796315"/>
    <nd ref="125796317"/>
    <nd ref="125796319"/>
    <nd ref="125796323"/>
    <nd ref="125787785"/>
    <nd ref="125796327"/>
    <nd ref="125796329"/>
    <nd ref="125796331"/>
    <nd ref="125796333"/>
    <nd ref="125796335"/>
    <nd ref="125796336"/>
    <nd ref="125796339"/>
    <nd ref="125796342"/>
    <nd ref="125796344"/>
    <nd ref="125787794"/>
    <tag k="highway" v="residential"/>
    <tag k="name" v="Suchdolské náměstí"/>
    <tag k="oneway" v="yes"/>
    <tag k="source:name" v="nameit/uir-adr"/>
  </way>
  <way id="13656406" version="2" timestamp="2007-12-24T23:35:41Z" uid="1066" user="pavel" changeset="420681">
    <nd ref="125793956"/>
    <nd ref="125796335"/>
    <tag k="created_by" v="JOSM"/>
    <tag k="highway" v="residential"/>
  </way>
  <way id="13656406" version="3" timestamp="2008-09-16T10:42:21Z" uid="1066" user="pavel" changeset="646258">
    <nd ref="125793956"/>
    <nd ref="125796335"/>
    <tag k="created_by" v="JOSM"/>
    <tag k="highway" v="residential"/>
    <tag k="name" v="Osvobození"/>
    <tag k="name:source" v="nameit/uir-adr"/>
  </way>
  <way id="13656406" version="4" timestamp="2009-03-06T18:57:31Z" uid="3516" user="BiIbo" changeset="744675">
    <nd ref="125793956"/>
    <nd ref="125796335"/>
    <tag k="highway" v="residential"/>
    <tag k="name" v="Osvobození"/>
    <tag k="source:name" v="nameit/uir-adr"/>
  </way>
  <way id="13656406" version="5" timestamp="2010-05-20T04:06:21Z" uid="3516" user="BiIbo" changeset="4753228">
    <nd ref="125793956"/>
    <nd ref="125796335"/>
    <nd ref="740355183"/>
    <tag k="highway" v="residential"/>
    <tag k="name" v="Osvobození"/>
    <tag k="source:name" v="nameit/uir-adr"/>
  </way>
  <way id="13656406" version="6" timestamp="2011-10-10T20:10:30Z" uid="100163" user="Hlav" changeset="9525627">
    <nd ref="125793956"/>
    <nd ref="125796335"/>
    <nd ref="740355183"/>
    <tag k="highway" v="residential"/>
    <tag k="name" v="U Hotelu"/>
    <tag k="source:name" v="nameit/uir-adr"/>
  </way>
</osm>
