<?xml version='1.0' encoding='UTF-8'?>
<osm version="0.6" generator="libosmium/2.20.0">
  <way id="13657021" version="2" timestamp="2007-12-24T23:36:06Z" uid="1066" user="pavel" changeset="420681">
    <nd ref="28023765"/>
    <nd ref="125802164"/>
    <nd ref="125802166"/>
    <nd ref="125802167"/>
    <tag k="created_by" v="JOSM"/>
    <tag k="highway" v="residential"/>
  </way>
  <way id="13657021" version="3" timestamp="2008-09-16T10:45:49Z" uid="1066" user="pavel" changeset="646258">
    <nd ref="28023765"/>
    <nd ref="125802164"/>
    <nd ref="125802166"/>
    <nd ref="125802167"/>
    <tag k="created_by" v="JOSM"/>
    <tag k="highway" v="residential"/>
    <tag k="name" v="Novosuchdolská"/>
    <tag k="name:source" v="nameit/uir-adr"/>
  </way>
  <way id="13657021" version="4" timestamp="2009-03-06T18:57:31Z" uid="3516" user="BiIbo" changeset="744675">
    <nd ref="28023765"/>
    <nd ref="125802164"/>
    <nd ref="125802166"/>
    <nd ref="125802167"/>
    <tag k="highway" v="residential"/>
    <tag k="name" v="Novosuchdolská"/>
    <tag k="source:name" v="nameit/uir-adr"/>
  </way>
  <way id="13657025" version="2" timestamp="2007-12-24T23:35:40Z" uid="1066" user="pavel" changeset="420681">
    <nd ref="28020083"/>
    <nd ref="125802173"/>
    <nd ref="125802175"/>
    <nd ref="125802176"/>
    <nd ref="125789488"/>
    <tag k="created_by" v="JOSM"/>
    <tag k="highway" v="residential"/>
  </way>
  <way id="13657025" version="3" timestamp="2008-09-16T10:42:18Z" uid="1066" user="pavel" changeset="646258">
    <nd ref="28020083"/>
    <nd ref="125802173"/>
    <nd ref="125802175"/>
    <nd ref="125802176"/>
    <nd ref="125789488"/>
    <tag k="created_by" v="JOSM"/>
    <tag k="highway" v="residential"/>
    <tag k="name" v="K Roztokům"/>
    <tag k="name:source" v="nameit/uir-adr"/>
  </way>
  <way id="13657025" version="4" timestamp="2009-03-06T18:57:47Z" uid="3516" user="BiIbo" changeset="744675">
    <nd ref="28020083"/>
    <nd ref="125802173"/>
    <nd ref="125802175"/>
    <nd ref="125802176"/>
    <nd ref="125789488"/>
    <tag k="highway" v="residential"/>
    <tag k="name" v="K Roztokům"/>
    <tag k="source:name" v="nameit/uir-adr"/>
  </way>
  <way id="13657025" version="5" timestamp="2010-05-20T02:18:24Z" uid="3516" user="BiIbo" changeset="4753228">
    <nd ref="28020083"/>
    <nd ref="740270435"/>
    <nd ref="125802173"/>
    <nd ref="125802175"/>
    <nd ref="125802176"/>
    <nd ref="125789488"/>
    <tag k="highway" v="residential"/>
    <tag k="name" v="K Roztokům"/>
    <tag k="source:name" v="nameit/uir-adr"/>
  </way>
  <way id="13657026" version="2" timestamp="2007-12-24T23:34:23Z" uid="1066" user="pavel" changeset="420681">
    <nd ref="125802175"/>
    <nd ref="125802166"/>
    <nd ref="125802144"/>
    <nd ref="125802158"/>
    <tag k="created_by" v="JOSM"/>
    <tag k="highway" v="residential"/>
  </way>
  <way id="13657026" version="3" timestamp="2008-09-16T10:44:21Z" uid="1066" user="pavel" changeset="646258">
    <nd ref="125802175"/>
    <nd ref="125802166"/>
    <nd ref="125802144"/>
    <nd ref="125802158"/>
    <tag k="created_by" v="JOSM"/>
    <tag k="highway" v="residential"/>
    <tag k="name" v="Za Rájem"/>
    <tag k="name:source" v="nameit/uir-adr"/>
  </way>
  <way id="13657026" version="4" timestamp="2009-03-06T18:57:47Z" uid="3516" user="BiIbo" changeset="744675">
    <nd ref="125802175"/>
    <nd ref="125802166"/>
    <nd ref="125802144"/>
    <nd ref="125802158"/>
    <tag k="highway" v="residential"/>
    <tag k="name" v="Za Rájem"/>
    <tag k="source:name" v="nameit/uir-adr"/>
  </way>
  <way id="13657027" version="2" timestamp="2007-12-24T23:35:00Z" uid="1066" user="pavel" changeset="420681">
    <nd ref="125802164"/>
    <nd ref="28023817"/>
    <nd ref="28023813"/>
    <nd ref="125802179"/>
    <tag k="created_by" v="JOSM"/>
    <tag k="highway" v="residential"/>
  </way>
  <way id="13657027" version="3" timestamp="2008-09-16T10:45:41Z" uid="1066" user="pavel" changeset="646258">
    <nd ref="125802164"/>
    <nd ref="28023817"/>
    <nd ref="28023813"/>
    <nd ref="125802179"/>
    <tag k="created_by" v="JOSM"/>
    <tag k="highway" v="residential"/>
    <tag k="name" v="Staročeská"/>
    <tag k="name:source" v="nameit/uir-adr"/>
  </way>
  <way id="13657027" version="4" timestamp="2009-03-06T18:57:47Z" uid="3516" user="BiIbo" changeset="744675">
    <nd ref="125802164"/>
    <nd ref="28023817"/>
    <nd ref="28023813"/>
    <nd ref="125802179"/>
    <tag k="highway" v="residential"/>
    <tag k="name" v="Staročeská"/>
    <tag k="source:name" v="nameit/uir-adr"/>
  </way>
  <way id="13657029" version="3" timestamp="2007-12-24T23:34:44Z" uid="1066" user="pavel" changeset="420681">
    <nd ref="28020083"/>
    <nd ref="125802183"/>
    <nd ref="125802188"/>
    <tag k="created_by" v="JOSM"/>
    <tag k="highway" v="residential"/>
  </way>
  <way id="13657029" version="4" timestamp="2008-09-16T10:42:50Z" uid="1066" user="pavel" changeset="646258">
    <nd ref="28020083"/>
    <nd ref="125802183"/>
    <nd ref="125802188"/>
    <tag k="created_by" v="JOSM"/>
    <tag k="highway" v="residential"/>
    <tag k="name" v="Zákolanská"/>
    <tag k="name:source" v="nameit/uir-adr"/>
  </way>
  <way id="13657029" version="5" timestamp="2009-03-06T18:57:48Z" uid="3516" user="BiIbo" changeset="744675">
    <nd ref="28020083"/>
    <nd ref="125802183"/>
    <nd ref="125802188"/>
    <tag k="highway" v="residential"/>
    <tag k="name" v="Zákolanská"/>
    <tag k="source:name" v="nameit/uir-adr"/>
  </way>
  <way id="13657029" version="6" timestamp="2010-05-20T02:20:20Z" uid="3516" user="BiIbo" changeset="4753228"/>
  <way id="13657031" version="2" timestamp="2007-12-24T23:35:11Z" uid="1066" user="pavel" changeset="420681">
    <nd ref="28020102"/>
    <nd ref="125802193"/>
    <tag k="created_by" v="JOSM"/>
    <tag k="highway" v="residential"/>
  </way>
  <way id="13657031" version="3" timestamp="2008-09-16T10:42:40Z" uid="1066" user="pavel" changeset="646258">
    <nd ref="28020102"/>
    <nd ref="125802193"/>
    <tag k="created_by" v="JOSM"/>
    <tag k="highway" v="residential"/>
    <tag k="name" v="K Roztokům"/>
    <tag k="name:source" v="nameit/uir-adr"/>
  </way>
  <way id="13657031" version="4" timestamp="2009-03-06T18:57:48Z" uid="3516" user="BiIbo" changeset="744675">
    <nd ref="28020102"/>
    <nd ref="125802193"/>
    <tag k="highway" v="residential"/>
    <tag k="name" v="K Roztokům"/>
    <tag k="source:name" v="nameit/uir-adr"/>
  </way>
</osm>
