<?xml version='1.0' encoding='UTF-8'?>
<osm version="0.6" generator="libosmium/2.20.0">
  <way id="13687575" version="2" timestamp="2008-09-15T00:16:04Z" uid="6975" user="ulfl" changeset="640534">
    <nd ref="126132739"/>
    <nd ref="126133014"/>
    <tag k="highway" v="tertiary"/>
  </way>
  <way id="13687575" version="3" timestamp="2009-02-09T08:29:39Z" uid="18072" user="Ciprian" changeset="303805">
    <nd ref="126132739"/>
    <nd ref="126133014"/>
    <tag k="highway" v="secondary"/>
    <tag k="name" v="Bulevardul Traian Vuia"/>
  </way>
  <way id="13687575" version="4" timestamp="2011-01-06T07:08:22Z" uid="204685" user="Flaviu" changeset="6878993">
    <nd ref="126132739"/>
    <nd ref="126133014"/>
    <tag k="highway" v="secondary"/>
    <tag k="maxspeed" v="RO:urban"/>
    <tag k="name" v="Bulevardul Traian Vuia"/>
  </way>
  <way id="13687575" version="5" timestamp="2011-01-20T17:03:49Z" uid="204685" user="Flaviu" changeset="7032182">
    <nd ref="126132739"/>
    <nd ref="126133014"/>
    <tag k="highway" v="secondary"/>
    <tag k="is_in:city" v="GalaÈ›i"/>
    <tag k="maxspeed" v="RO:urban"/>
    <tag k="name" v="Bulevardul Traian Vuia"/>
  </way>
</osm>
