<?xml version='1.0' encoding='UTF-8'?>
<osm version="0.6" generator="libosmium/2.20.0">
  <way id="13732168" version="3" timestamp="2008-07-05T19:29:19Z" uid="6975" user="ulfl" changeset="398437">
    <nd ref="127071714"/>
    <nd ref="127071715"/>
    <tag k="bridge" v="yes"/>
    <tag k="highway" v="motorway"/>
    <tag k="layer" v="1"/>
    <tag k="note" v="FIXME previously unwayed segment"/>
  </way>
  <way id="13732168" version="4" timestamp="2009-01-08T19:26:09Z" uid="5611" user="alexrudd" changeset="757103">
    <nd ref="127071714"/>
    <nd ref="127071715"/>
    <tag k="bridge" v="yes"/>
    <tag k="created_by" v="Potlatch 0.10f"/>
    <tag k="highway" v="motorway"/>
    <tag k="layer" v="1"/>
    <tag k="name" v="Tri-State Tollway"/>
    <tag k="oneway" v="yes"/>
    <tag k="ref" v="I-294"/>
  </way>
  <way id="13732168" version="5" timestamp="2009-02-21T20:17:45Z" uid="18480" user="nickvet419" changeset="595672">
    <nd ref="127071714"/>
    <nd ref="127071715"/>
    <tag k="bridge" v="yes"/>
    <tag k="created_by" v="Potlatch 0.10f"/>
    <tag k="highway" v="trunk"/>
    <tag k="layer" v="1"/>
    <tag k="name" v="Tri State Tollway"/>
    <tag k="oneway" v="yes"/>
    <tag k="ref" v="I 294"/>
  </way>
  <way id="13732168" version="6" timestamp="2009-02-27T07:29:05Z" uid="18480" user="nickvet419" changeset="686233">
    <nd ref="127071714"/>
    <nd ref="127071715"/>
    <tag k="bridge" v="yes"/>
    <tag k="created_by" v="Potlatch 0.10f"/>
    <tag k="highway" v="motorway"/>
    <tag k="layer" v="1"/>
    <tag k="name" v="Tri State Tollway"/>
    <tag k="oneway" v="yes"/>
    <tag k="ref" v="I 294"/>
    <tag k="toll" v="yes"/>
  </way>
  <way id="13732168" version="7" timestamp="2010-06-13T02:32:19Z" uid="120468" user="Nakor" changeset="4975283">
    <nd ref="127071714"/>
    <nd ref="127071715"/>
    <tag k="bridge" v="yes"/>
    <tag k="highway" v="motorway"/>
    <tag k="layer" v="1"/>
    <tag k="name" v="Tri State Tollway"/>
    <tag k="oneway" v="yes"/>
    <tag k="ref" v="I 294"/>
    <tag k="toll" v="yes"/>
  </way>
  <way id="13732168" version="8" timestamp="2010-12-17T04:23:47Z" uid="207745" user="NE2" changeset="6683316">
    <nd ref="127071714"/>
    <nd ref="127071715"/>
    <tag k="bridge" v="yes"/>
    <tag k="highway" v="motorway"/>
    <tag k="layer" v="1"/>
    <tag k="name" v="Tri-State Tollway"/>
    <tag k="oneway" v="yes"/>
    <tag k="ref" v="I 294"/>
    <tag k="toll" v="yes"/>
  </way>
  <way id="13732168" version="9" timestamp="2011-08-04T01:15:10Z" uid="207745" user="NE2" changeset="8915807">
    <nd ref="127071714"/>
    <nd ref="127071715"/>
    <tag k="bridge" v="yes"/>
    <tag k="highway" v="motorway"/>
    <tag k="lanes" v="4"/>
    <tag k="layer" v="1"/>
    <tag k="name" v="Tri-State Tollway"/>
    <tag k="oneway" v="yes"/>
    <tag k="ref" v="I 294"/>
    <tag k="toll" v="yes"/>
  </way>
  <way id="13732168" version="10" timestamp="2011-11-22T13:00:35Z" uid="207745" user="NE2" changeset="9908156">
    <nd ref="127071714"/>
    <nd ref="127071715"/>
    <tag k="bicycle" v="no"/>
    <tag k="bridge" v="yes"/>
    <tag k="foot" v="no"/>
    <tag k="hgv" v="designated"/>
    <tag k="highway" v="motorway"/>
    <tag k="horse" v="no"/>
    <tag k="lanes" v="4"/>
    <tag k="layer" v="1"/>
    <tag k="name" v="Tri-State Tollway"/>
    <tag k="oneway" v="yes"/>
    <tag k="ref" v="I 294"/>
    <tag k="sidewalk" v="none"/>
    <tag k="toll" v="yes"/>
  </way>
  <way id="13732465" version="3" timestamp="2010-04-03T13:34:31Z" uid="20587" user="balrog-kun" changeset="4312936">
    <nd ref="127078072"/>
    <nd ref="127078076"/>
    <nd ref="127078079"/>
    <nd ref="127078082"/>
    <nd ref="127078084"/>
    <nd ref="127078086"/>
    <nd ref="127078089"/>
    <nd ref="127078093"/>
    <tag k="created_by" v="Potlatch 0.10f"/>
    <tag k="highway" v="residential"/>
    <tag k="name" v="Milligan Road"/>
    <tag k="tiger:cfcc" v="A41"/>
    <tag k="tiger:county" v="Bonneville, ID"/>
    <tag k="tiger:reviewed" v="no"/>
    <tag k="tiger:separated" v="no"/>
    <tag k="tiger:source" v="tiger_import_dch_v0.6_20070809"/>
    <tag k="tiger:tlid" v="119183713"/>
  </way>
  <way id="13732465" version="4" timestamp="2011-09-21T15:02:19Z" uid="224106" user="Jiri Kadlec" changeset="9360954">
    <nd ref="127078093"/>
    <nd ref="127557670"/>
    <nd ref="127557672"/>
    <nd ref="127557675"/>
    <nd ref="1439354684"/>
    <nd ref="127557678"/>
    <nd ref="1439373834"/>
    <nd ref="127557680"/>
    <nd ref="1439373832"/>
    <nd ref="127557682"/>
    <nd ref="127078072"/>
    <nd ref="127078076"/>
    <nd ref="127078079"/>
    <nd ref="127078082"/>
    <nd ref="1439373829"/>
    <nd ref="127078084"/>
    <nd ref="1439373827"/>
    <nd ref="127078086"/>
    <nd ref="127078089"/>
    <nd ref="127078093"/>
    <tag k="highway" v="residential"/>
    <tag k="name" v="Milligan Road"/>
    <tag k="tiger:cfcc" v="A41"/>
    <tag k="tiger:county" v="Bonneville, ID"/>
    <tag k="tiger:name_base" v="Milligan"/>
    <tag k="tiger:name_type" v="Rd"/>
    <tag k="tiger:reviewed" v="no"/>
    <tag k="tiger:separated" v="no"/>
    <tag k="tiger:source" v="tiger_import_dch_v0.6_20070809"/>
    <tag k="tiger:tlid" v="119183713; 119169676"/>
  </way>
  <way id="13732465" version="5" timestamp="2011-09-23T00:21:50Z" uid="224106" user="Jiri Kadlec" changeset="9373372">
    <nd ref="127078093"/>
    <nd ref="127557670"/>
    <nd ref="127557672"/>
    <nd ref="127557675"/>
    <nd ref="1439354684"/>
    <nd ref="127557678"/>
    <nd ref="1439373834"/>
    <nd ref="127557680"/>
    <nd ref="1439373832"/>
    <nd ref="127557682"/>
    <nd ref="127078072"/>
    <nd ref="127078076"/>
    <nd ref="127078079"/>
    <nd ref="127078082"/>
    <nd ref="1439373829"/>
    <nd ref="127078084"/>
    <nd ref="1439373827"/>
    <nd ref="127078086"/>
    <nd ref="127078089"/>
    <nd ref="127078093"/>
    <tag k="highway" v="residential"/>
    <tag k="tiger:cfcc" v="A41"/>
    <tag k="tiger:county" v="Bonneville, ID"/>
    <tag k="tiger:name_base" v="Milligan"/>
    <tag k="tiger:name_type" v="Rd"/>
    <tag k="tiger:reviewed" v="no"/>
    <tag k="tiger:separated" v="no"/>
    <tag k="tiger:source" v="tiger_import_dch_v0.6_20070809"/>
    <tag k="tiger:tlid" v="119183713; 119169676"/>
  </way>
  <way id="13732996" version="6" timestamp="2010-05-17T06:16:58Z" uid="4467" user="Rosscoe" changeset="4725911">
    <nd ref="51651991"/>
    <nd ref="127090872"/>
    <nd ref="425000985"/>
    <tag k="highway" v="residential"/>
    <tag k="name" v="Melrose Avenue"/>
  </way>
  <way id="13732996" version="7" timestamp="2010-07-08T03:40:49Z" uid="74617" user="JohnSmith" changeset="5163091">
    <nd ref="51651991"/>
    <nd ref="127090872"/>
    <nd ref="425000985"/>
    <tag k="highway" v="residential"/>
    <tag k="maxspeed" v="50"/>
    <tag k="maxspeed:source" v="default residential speed limit in Australia"/>
    <tag k="name" v="Melrose Avenue"/>
  </way>
  <way id="13732996" version="8" timestamp="2012-01-15T11:47:32Z" uid="147510" user="woodpeck_fixbot" changeset="10396281">
    <nd ref="51651991"/>
    <nd ref="127090872"/>
    <nd ref="425000985"/>
    <tag k="highway" v="residential"/>
    <tag k="name" v="Melrose Avenue"/>
  </way>
</osm>
