<?xml version='1.0' encoding='UTF-8'?>
<osm version="0.6" generator="libosmium/2.20.0">
  <way id="13734132" version="1" timestamp="2007-11-21T04:31:37Z" uid="19738" user="ferret" changeset="582950">
    <nd ref="126880205"/>
    <nd ref="126879986"/>
    <tag k="created_by" v="JOSM"/>
  </way>
  <way id="13734132" version="2" timestamp="2007-11-26T13:25:54Z" uid="18775" user="drlizau" changeset="624578">
    <nd ref="126880205"/>
    <nd ref="126879986"/>
    <tag k="created_by" v="JOSM"/>
    <tag k="highway" v="residential"/>
    <tag k="name" v="Cambridge Street"/>
  </way>
  <way id="13734132" version="3" timestamp="2008-04-25T01:15:38Z" uid="18775" user="drlizau" changeset="249278">
    <nd ref="126880205"/>
    <nd ref="259743442"/>
    <nd ref="126879986"/>
    <tag k="created_by" v="JOSM"/>
    <tag k="highway" v="residential"/>
    <tag k="name" v="Cambridge Street"/>
  </way>
  <way id="13734132" version="4" timestamp="2010-12-15T04:49:05Z" uid="18775" user="drlizau" changeset="6664557">
    <nd ref="126880205"/>
    <nd ref="259743442"/>
    <nd ref="126879986"/>
    <tag k="highway" v="residential"/>
    <tag k="name" v="Cambridge Street"/>
    <tag k="source" v="survey"/>
  </way>
  <way id="13734133" version="1" timestamp="2007-11-21T04:31:38Z" uid="19738" user="ferret" changeset="582950">
    <nd ref="126880083"/>
    <nd ref="127117153"/>
    <tag k="created_by" v="JOSM"/>
    <tag k="highway" v="residential"/>
    <tag k="name" v="Glover Street"/>
  </way>
  <way id="13734133" version="2" timestamp="2008-04-25T01:15:35Z" uid="18775" user="drlizau" changeset="249278">
    <nd ref="126880083"/>
    <nd ref="259743442"/>
    <nd ref="259743443"/>
    <nd ref="259743444"/>
    <nd ref="127117153"/>
    <tag k="created_by" v="JOSM"/>
    <tag k="highway" v="residential"/>
    <tag k="name" v="Glover Street"/>
  </way>
  <way id="13734133" version="3" timestamp="2010-12-15T04:48:58Z" uid="18775" user="drlizau" changeset="6664557">
    <nd ref="126880083"/>
    <nd ref="259743442"/>
    <nd ref="259743443"/>
    <nd ref="259743444"/>
    <nd ref="127117153"/>
    <tag k="highway" v="residential"/>
    <tag k="name" v="Glover Street"/>
    <tag k="source" v="survey"/>
  </way>
</osm>
