<?xml version='1.0' encoding='UTF-8'?>
<osm version="0.6" generator="libosmium/2.20.0">
  <way id="13748035" version="11" timestamp="2010-04-05T21:08:22Z" uid="74617" user="JohnSmith" changeset="4338595">
    <nd ref="29936552"/>
    <nd ref="31477193"/>
    <nd ref="537510271"/>
    <nd ref="127416559"/>
    <nd ref="31477199"/>
    <nd ref="210771921"/>
    <nd ref="21643829"/>
    <tag k="highway" v="primary"/>
    <tag k="lanes" v="2"/>
    <tag k="maxspeed" v="60"/>
    <tag k="name" v="Princess Street"/>
    <tag k="oneway" v="yes"/>
    <tag k="source" v="survey"/>
  </way>
  <way id="13748035" version="12" timestamp="2011-10-31T12:54:35Z" uid="206929" user="Supt_of_Printing" changeset="9703221">
    <nd ref="29936552"/>
    <nd ref="1487228038"/>
    <nd ref="1487228160"/>
    <nd ref="31477193"/>
    <nd ref="537510271"/>
    <nd ref="127416559"/>
    <nd ref="1487228165"/>
    <nd ref="31477199"/>
    <nd ref="1487228045"/>
    <nd ref="210771921"/>
    <nd ref="21643829"/>
    <tag k="highway" v="primary"/>
    <tag k="lanes" v="2"/>
    <tag k="maxspeed" v="60"/>
    <tag k="name" v="Princess Street"/>
    <tag k="oneway" v="yes"/>
    <tag k="source" v="survey"/>
  </way>
  <way id="13748035" version="13" timestamp="2011-11-29T03:09:41Z" uid="11111" user="melb_guy" changeset="9984188">
    <nd ref="1522566152"/>
    <nd ref="1522566343"/>
    <nd ref="537510271"/>
    <nd ref="127416559"/>
    <nd ref="1487228165"/>
    <nd ref="31477199"/>
    <nd ref="1487228045"/>
    <nd ref="21643829"/>
    <tag k="highway" v="primary"/>
    <tag k="lanes" v="2"/>
    <tag k="maxspeed" v="60"/>
    <tag k="name" v="Princess Street"/>
    <tag k="oneway" v="yes"/>
    <tag k="source" v="survey"/>
  </way>
  <way id="13748035" version="14" timestamp="2011-11-29T07:48:37Z" uid="11111" user="melb_guy" changeset="9985155">
    <nd ref="1522566201"/>
    <nd ref="1522834481"/>
    <nd ref="1522834451"/>
    <tag k="highway" v="primary"/>
    <tag k="lanes" v="2"/>
    <tag k="maxspeed" v="60"/>
    <tag k="name" v="Princess Street"/>
    <tag k="oneway" v="yes"/>
    <tag k="source" v="survey"/>
  </way>
  <way id="13748035" version="15" timestamp="2011-11-29T10:16:14Z" uid="11111" user="melb_guy" changeset="9986140">
    <nd ref="1522566201"/>
    <nd ref="1522834481"/>
    <nd ref="1522977004"/>
    <nd ref="1522834451"/>
    <tag k="highway" v="primary"/>
    <tag k="lanes" v="2"/>
    <tag k="maxspeed" v="60"/>
    <tag k="name" v="Princess Street"/>
    <tag k="oneway" v="yes"/>
    <tag k="source" v="survey"/>
  </way>
  <way id="13748086" version="7" timestamp="2010-04-05T21:08:21Z" uid="74617" user="JohnSmith" changeset="4338595">
    <nd ref="21643697"/>
    <nd ref="518303408"/>
    <nd ref="21643828"/>
    <nd ref="210734592"/>
    <tag k="highway" v="primary"/>
    <tag k="lanes" v="2"/>
    <tag k="maxspeed" v="60"/>
    <tag k="name" v="Denmark Street"/>
    <tag k="source" v="survey"/>
  </way>
  <way id="13748125" version="4" timestamp="2010-04-05T21:08:20Z" uid="74617" user="JohnSmith" changeset="4338595">
    <nd ref="127417125"/>
    <nd ref="21643831"/>
    <tag k="highway" v="primary"/>
    <tag k="lanes" v="2"/>
    <tag k="maxspeed" v="60"/>
    <tag k="name" v="Princess Street"/>
    <tag k="source" v="survey"/>
  </way>
  <way id="13748188" version="4" timestamp="2010-04-05T21:08:22Z" uid="74617" user="JohnSmith" changeset="4338595">
    <nd ref="127418804"/>
    <nd ref="452809191"/>
    <nd ref="127418807"/>
    <nd ref="452809192"/>
    <nd ref="452809193"/>
    <nd ref="452809194"/>
    <nd ref="127418809"/>
    <nd ref="452809195"/>
    <nd ref="127418811"/>
    <nd ref="452809196"/>
    <nd ref="127418812"/>
    <nd ref="452809197"/>
    <nd ref="452809198"/>
    <nd ref="127418815"/>
    <nd ref="452809199"/>
    <nd ref="452809201"/>
    <nd ref="452809202"/>
    <nd ref="127418816"/>
    <nd ref="452809203"/>
    <nd ref="127418804"/>
    <tag k="highway" v="primary"/>
    <tag k="junction" v="roundabout"/>
  </way>
  <way id="13748188" version="5" timestamp="2011-11-01T02:57:24Z" uid="206929" user="Supt_of_Printing" changeset="9709465"/>
  <way id="13748202" version="6" timestamp="2010-04-05T21:08:20Z" uid="74617" user="JohnSmith" changeset="4338595">
    <nd ref="127418816"/>
    <nd ref="127417125"/>
    <tag k="highway" v="primary"/>
    <tag k="lanes" v="2"/>
    <tag k="maxspeed" v="60"/>
    <tag k="name" v="Princess Street"/>
    <tag k="oneway" v="yes"/>
    <tag k="source" v="survey"/>
  </way>
  <way id="13748202" version="7" timestamp="2011-11-01T02:57:22Z" uid="206929" user="Supt_of_Printing" changeset="9709465">
    <nd ref="1488024278"/>
    <nd ref="1488024285"/>
    <nd ref="1488024203"/>
    <nd ref="127418816"/>
    <nd ref="127417125"/>
    <tag k="highway" v="primary"/>
    <tag k="lanes" v="2"/>
    <tag k="maxspeed" v="60"/>
    <tag k="oneway" v="yes"/>
    <tag k="source" v="survey"/>
  </way>
  <way id="13748238" version="5" timestamp="2010-04-05T21:08:21Z" uid="74617" user="JohnSmith" changeset="4338595">
    <nd ref="127418811"/>
    <nd ref="127420428"/>
    <tag k="highway" v="primary"/>
    <tag k="lanes" v="2"/>
    <tag k="maxspeed" v="60"/>
    <tag k="name" v="Princess Street"/>
    <tag k="oneway" v="yes"/>
    <tag k="source" v="survey"/>
  </way>
  <way id="13748238" version="6" timestamp="2011-11-01T02:57:20Z" uid="206929" user="Supt_of_Printing" changeset="9709465">
    <nd ref="1488024229"/>
    <nd ref="1488024258"/>
    <nd ref="1488024202"/>
    <nd ref="1488024283"/>
    <nd ref="1488024286"/>
    <nd ref="127418811"/>
    <nd ref="127420428"/>
    <tag k="highway" v="primary"/>
    <tag k="lanes" v="2"/>
    <tag k="maxspeed" v="60"/>
    <tag k="oneway" v="yes"/>
    <tag k="source" v="survey"/>
  </way>
  <way id="13748304" version="5" timestamp="2010-07-09T04:58:01Z" uid="74617" user="JohnSmith" changeset="5170972">
    <nd ref="127412246"/>
    <nd ref="127422081"/>
    <nd ref="127423270"/>
    <nd ref="127422094"/>
    <tag k="highway" v="residential"/>
    <tag k="maxspeed" v="50"/>
    <tag k="maxspeed:source" v="default residential speed limit in Australia"/>
    <tag k="name" v="Grandview Terrace"/>
  </way>
  <way id="13748304" version="6" timestamp="2012-01-15T11:47:53Z" uid="147510" user="woodpeck_fixbot" changeset="10396281">
    <nd ref="127412246"/>
    <nd ref="127422081"/>
    <nd ref="127423270"/>
    <nd ref="127422094"/>
    <tag k="highway" v="residential"/>
    <tag k="name" v="Grandview Terrace"/>
  </way>
  <way id="13748352" version="16" timestamp="2010-07-09T04:57:28Z" uid="74617" user="JohnSmith" changeset="5170972">
    <nd ref="309979013"/>
    <nd ref="370479436"/>
    <nd ref="309991303"/>
    <nd ref="309979012"/>
    <nd ref="309979014"/>
    <nd ref="309978934"/>
    <nd ref="127422134"/>
    <nd ref="311905216"/>
    <nd ref="127423266"/>
    <nd ref="127432921"/>
    <nd ref="127423268"/>
    <nd ref="127423270"/>
    <nd ref="127424395"/>
    <nd ref="127423271"/>
    <tag k="highway" v="residential"/>
    <tag k="maxspeed" v="50"/>
    <tag k="maxspeed:source" v="default residential speed limit in Australia"/>
    <tag k="name" v="Peel Street"/>
  </way>
  <way id="13748352" version="17" timestamp="2012-01-15T11:47:54Z" uid="147510" user="woodpeck_fixbot" changeset="10396281">
    <nd ref="309979013"/>
    <nd ref="370479436"/>
    <nd ref="309991303"/>
    <nd ref="309979012"/>
    <nd ref="309979014"/>
    <nd ref="309978934"/>
    <nd ref="127422134"/>
    <nd ref="311905216"/>
    <nd ref="127423266"/>
    <nd ref="127432921"/>
    <nd ref="127423268"/>
    <nd ref="127423270"/>
    <nd ref="127424395"/>
    <nd ref="127423271"/>
    <tag k="highway" v="residential"/>
    <tag k="name" v="Peel Street"/>
  </way>
  <way id="13748371" version="4" timestamp="2010-04-03T13:42:55Z" uid="20587" user="balrog-kun" changeset="4312936">
    <nd ref="127423647"/>
    <nd ref="127423650"/>
    <nd ref="127423655"/>
    <tag k="created_by" v="Potlatch 0.10f"/>
    <tag k="highway" v="residential"/>
    <tag k="name" v="Chapparal Drive"/>
    <tag k="tiger:cfcc" v="A41"/>
    <tag k="tiger:county" v="Bonneville, ID"/>
    <tag k="tiger:reviewed" v="no"/>
    <tag k="tiger:separated" v="no"/>
    <tag k="tiger:source" v="tiger_import_dch_v0.6_20070809"/>
    <tag k="tiger:tlid" v="119138195"/>
  </way>
  <way id="13748375" version="3" timestamp="2010-04-03T13:42:56Z" uid="20587" user="balrog-kun" changeset="4312936">
    <nd ref="127423826"/>
    <nd ref="127423828"/>
    <tag k="created_by" v="Potlatch 0.10f"/>
    <tag k="highway" v="residential"/>
    <tag k="name" v="Escalante Avenue"/>
    <tag k="tiger:cfcc" v="A41"/>
    <tag k="tiger:county" v="Bonneville, ID"/>
    <tag k="tiger:reviewed" v="no"/>
    <tag k="tiger:separated" v="no"/>
    <tag k="tiger:source" v="tiger_import_dch_v0.6_20070809"/>
    <tag k="tiger:tlid" v="119138198"/>
  </way>
  <way id="13748379" version="7" timestamp="2010-07-09T04:56:51Z" uid="74617" user="JohnSmith" changeset="5170972">
    <nd ref="127423898"/>
    <nd ref="127423897"/>
    <nd ref="127423895"/>
    <nd ref="127423894"/>
    <nd ref="127423271"/>
    <tag k="highway" v="residential"/>
    <tag k="maxspeed" v="50"/>
    <tag k="maxspeed:source" v="default residential speed limit in Australia"/>
    <tag k="name" v="Peel Street"/>
    <tag k="oneway" v="yes"/>
  </way>
  <way id="13748379" version="8" timestamp="2012-01-15T11:47:55Z" uid="147510" user="woodpeck_fixbot" changeset="10396281">
    <nd ref="127423898"/>
    <nd ref="127423897"/>
    <nd ref="127423895"/>
    <nd ref="127423894"/>
    <nd ref="127423271"/>
    <tag k="highway" v="residential"/>
    <tag k="name" v="Peel Street"/>
    <tag k="oneway" v="yes"/>
  </way>
  <way id="13748393" version="5" timestamp="2010-07-09T04:53:59Z" uid="74617" user="JohnSmith" changeset="5170972">
    <nd ref="127424324"/>
    <nd ref="127423271"/>
    <tag k="highway" v="residential"/>
    <tag k="maxspeed" v="50"/>
    <tag k="maxspeed:source" v="default residential speed limit in Australia"/>
    <tag k="name" v="Barnard Grove"/>
    <tag k="oneway" v="yes"/>
  </way>
  <way id="13748393" version="6" timestamp="2012-01-15T11:47:58Z" uid="147510" user="woodpeck_fixbot" changeset="10396281">
    <nd ref="127424324"/>
    <nd ref="127423271"/>
    <tag k="highway" v="residential"/>
    <tag k="name" v="Barnard Grove"/>
    <tag k="oneway" v="yes"/>
  </way>
  <way id="13748407" version="6" timestamp="2010-07-09T04:59:11Z" uid="74617" user="JohnSmith" changeset="5170972">
    <nd ref="127424395"/>
    <nd ref="127424582"/>
    <tag k="highway" v="residential"/>
    <tag k="maxspeed" v="50"/>
    <tag k="maxspeed:source" v="default residential speed limit in Australia"/>
    <tag k="name" v="Barnard Grove"/>
    <tag k="oneway" v="yes"/>
  </way>
  <way id="13748407" version="7" timestamp="2012-01-15T11:47:59Z" uid="147510" user="woodpeck_fixbot" changeset="10396281">
    <nd ref="127424395"/>
    <nd ref="127424582"/>
    <tag k="highway" v="residential"/>
    <tag k="name" v="Barnard Grove"/>
    <tag k="oneway" v="yes"/>
  </way>
  <way id="13748548" version="2" timestamp="2010-07-07T10:29:36Z" uid="74617" user="JohnSmith" changeset="5157498">
    <nd ref="36252268"/>
    <nd ref="36252266"/>
    <nd ref="33291261"/>
    <nd ref="36253509"/>
    <nd ref="36253511"/>
    <nd ref="33291260"/>
    <tag k="highway" v="residential"/>
    <tag k="maxspeed" v="50"/>
    <tag k="maxspeed:source" v="default residential speed limit in Australia"/>
    <tag k="name" v="Sydney Avenue"/>
    <tag k="source" v="yahoo"/>
  </way>
  <way id="13748548" version="3" timestamp="2012-01-15T11:48:00Z" uid="147510" user="woodpeck_fixbot" changeset="10396281">
    <nd ref="36252268"/>
    <nd ref="36252266"/>
    <nd ref="33291261"/>
    <nd ref="36253509"/>
    <nd ref="36253511"/>
    <nd ref="33291260"/>
    <tag k="highway" v="residential"/>
    <tag k="name" v="Sydney Avenue"/>
    <tag k="source" v="yahoo"/>
  </way>
  <way id="13748599" version="5" timestamp="2010-07-09T05:02:13Z" uid="74617" user="JohnSmith" changeset="5170972">
    <nd ref="127423276"/>
    <nd ref="127423277"/>
    <tag k="highway" v="residential"/>
    <tag k="maxspeed" v="50"/>
    <tag k="maxspeed:source" v="default residential speed limit in Australia"/>
    <tag k="name" v="Kellett Grove"/>
    <tag k="oneway" v="yes"/>
  </way>
  <way id="13748599" version="6" timestamp="2012-01-15T11:48:02Z" uid="147510" user="woodpeck_fixbot" changeset="10396281">
    <nd ref="127423276"/>
    <nd ref="127423277"/>
    <tag k="highway" v="residential"/>
    <tag k="name" v="Kellett Grove"/>
    <tag k="oneway" v="yes"/>
  </way>
  <way id="13748603" version="5" timestamp="2010-07-09T04:57:11Z" uid="74617" user="JohnSmith" changeset="5170972">
    <nd ref="127397148"/>
    <nd ref="127423899"/>
    <nd ref="127423898"/>
    <tag k="highway" v="residential"/>
    <tag k="maxspeed" v="50"/>
    <tag k="maxspeed:source" v="default residential speed limit in Australia"/>
    <tag k="name" v="Kellett Grove"/>
    <tag k="oneway" v="yes"/>
  </way>
  <way id="13748603" version="6" timestamp="2012-01-15T11:48:04Z" uid="147510" user="woodpeck_fixbot" changeset="10396281">
    <nd ref="127397148"/>
    <nd ref="127423899"/>
    <nd ref="127423898"/>
    <tag k="highway" v="residential"/>
    <tag k="name" v="Kellett Grove"/>
    <tag k="oneway" v="yes"/>
  </way>
  <way id="13748631" version="4" timestamp="2008-07-05T09:08:11Z" uid="6975" user="ulfl" changeset="396365">
    <nd ref="127429313"/>
    <nd ref="127429315"/>
    <nd ref="127429316"/>
    <nd ref="127429318"/>
    <nd ref="127429321"/>
    <nd ref="127429323"/>
    <nd ref="127429325"/>
    <tag k="highway" v="living_street"/>
  </way>
  <way id="13748706" version="4" timestamp="2010-07-09T05:03:19Z" uid="74617" user="JohnSmith" changeset="5170972">
    <nd ref="127423271"/>
    <nd ref="127423272"/>
    <nd ref="127423273"/>
    <nd ref="127423274"/>
    <nd ref="127423275"/>
    <nd ref="127423276"/>
    <tag k="highway" v="residential"/>
    <tag k="maxspeed" v="50"/>
    <tag k="maxspeed:source" v="default residential speed limit in Australia"/>
    <tag k="name" v="Peel Street"/>
    <tag k="oneway" v="yes"/>
  </way>
  <way id="13748706" version="5" timestamp="2012-01-15T11:48:05Z" uid="147510" user="woodpeck_fixbot" changeset="10396281">
    <nd ref="127423271"/>
    <nd ref="127423272"/>
    <nd ref="127423273"/>
    <nd ref="127423274"/>
    <nd ref="127423275"/>
    <nd ref="127423276"/>
    <tag k="highway" v="residential"/>
    <tag k="name" v="Peel Street"/>
    <tag k="oneway" v="yes"/>
  </way>
  <way id="13748826" version="2" timestamp="2010-07-09T04:55:37Z" uid="74617" user="JohnSmith" changeset="5170972">
    <nd ref="127432921"/>
    <nd ref="127433660"/>
    <tag k="highway" v="residential"/>
    <tag k="maxspeed" v="50"/>
    <tag k="maxspeed:source" v="default residential speed limit in Australia"/>
    <tag k="name" v="View Point"/>
  </way>
  <way id="13748826" version="3" timestamp="2012-01-15T11:48:06Z" uid="147510" user="woodpeck_fixbot" changeset="10396281">
    <nd ref="127432921"/>
    <nd ref="127433660"/>
    <tag k="highway" v="residential"/>
    <tag k="name" v="View Point"/>
  </way>
</osm>
