<?xml version='1.0' encoding='UTF-8'?>
<osm version="0.6" generator="libosmium/2.20.0">
  <way id="14241158" version="1" timestamp="2007-11-27T04:36:45Z" uid="18775" user="drlizau" changeset="629602">
    <nd ref="136357216"/>
    <nd ref="136357235"/>
    <nd ref="136357252"/>
    <nd ref="136357279"/>
    <nd ref="136357294"/>
    <nd ref="136357311"/>
    <nd ref="136349610"/>
    <tag k="created_by" v="JOSM"/>
    <tag k="highway" v="unclassified"/>
    <tag k="name" v="Harward Road"/>
  </way>
  <way id="14241158" version="2" timestamp="2007-11-27T04:37:17Z" uid="18775" user="drlizau" changeset="629602">
    <nd ref="136357216"/>
    <nd ref="136357235"/>
    <nd ref="136357252"/>
    <nd ref="136357279"/>
    <nd ref="136357294"/>
    <nd ref="136357311"/>
    <nd ref="136349610"/>
    <tag k="created_by" v="JOSM"/>
    <tag k="highway" v="unclassified"/>
    <tag k="name" v="Harward Road"/>
  </way>
  <way id="14241158" version="3" timestamp="2007-12-25T05:00:04Z" uid="18775" user="drlizau" changeset="417294">
    <nd ref="136357216"/>
    <nd ref="136357235"/>
    <tag k="created_by" v="JOSM"/>
    <tag k="highway" v="unclassified"/>
    <tag k="name" v="Harward Road"/>
  </way>
  <way id="14241158" version="4" timestamp="2007-12-25T05:01:58Z" uid="18775" user="drlizau" changeset="417294">
    <nd ref="136357235"/>
    <nd ref="136357216"/>
    <nd ref="188119828"/>
    <nd ref="188119849"/>
    <nd ref="188119861"/>
    <nd ref="188119879"/>
    <nd ref="188119907"/>
    <nd ref="188119930"/>
    <tag k="created_by" v="JOSM"/>
    <tag k="highway" v="unclassified"/>
    <tag k="name" v="Harward Road"/>
  </way>
  <way id="14241158" version="5" timestamp="2007-12-29T08:08:27Z" uid="18775" user="drlizau" changeset="459672">
    <nd ref="136357235"/>
    <nd ref="136357216"/>
    <nd ref="188119828"/>
    <nd ref="188119930"/>
    <tag k="created_by" v="JOSM"/>
    <tag k="highway" v="unclassified"/>
    <tag k="name" v="Harward Road"/>
  </way>
  <way id="14241158" version="6" timestamp="2007-12-30T07:04:36Z" uid="18775" user="drlizau" changeset="482858">
    <nd ref="136357235"/>
    <nd ref="136357216"/>
    <nd ref="196932304"/>
    <nd ref="188119930"/>
    <tag k="created_by" v="JOSM"/>
    <tag k="highway" v="unclassified"/>
    <tag k="name" v="Harward Road"/>
  </way>
  <way id="14241158" version="7" timestamp="2008-03-29T08:23:30Z" uid="18775" user="drlizau" changeset="419028">
    <nd ref="188119930"/>
    <nd ref="196932304"/>
    <nd ref="136357216"/>
    <nd ref="136357235"/>
    <nd ref="136357252"/>
    <nd ref="136357279"/>
    <nd ref="136357294"/>
    <nd ref="136357311"/>
    <nd ref="136349610"/>
    <nd ref="250447949"/>
    <nd ref="250447950"/>
    <tag k="created_by" v="JOSM"/>
    <tag k="highway" v="unclassified"/>
    <tag k="name" v="Harward Road"/>
  </way>
  <way id="14241158" version="8" timestamp="2008-11-16T11:06:00Z" uid="18775" user="drlizau" changeset="756879">
    <nd ref="188119930"/>
    <nd ref="196932304"/>
    <nd ref="136357216"/>
    <nd ref="136357235"/>
    <nd ref="136357252"/>
    <nd ref="136357279"/>
    <nd ref="136357294"/>
    <nd ref="136357311"/>
    <nd ref="136349610"/>
    <nd ref="250447949"/>
    <nd ref="250447950"/>
    <tag k="created_by" v="JOSM"/>
    <tag k="highway" v="unclassified"/>
    <tag k="name" v="Harward Road"/>
  </way>
  <way id="14241158" version="9" timestamp="2008-11-16T11:34:16Z" uid="18775" user="drlizau" changeset="756879">
    <nd ref="188119930"/>
    <nd ref="196932304"/>
    <nd ref="136357216"/>
    <nd ref="136357235"/>
    <nd ref="136357252"/>
    <nd ref="136357279"/>
    <nd ref="136357294"/>
    <nd ref="136357311"/>
    <nd ref="136349610"/>
    <nd ref="250447949"/>
    <nd ref="250447950"/>
    <tag k="created_by" v="JOSM"/>
    <tag k="highway" v="unclassified"/>
    <tag k="name" v="Harward Road"/>
    <tag k="source" v="survey"/>
  </way>
  <way id="14241158" version="10" timestamp="2009-07-25T04:16:18Z" uid="74617" user="JohnSmith" changeset="1930637">
    <nd ref="188119930"/>
    <nd ref="196932304"/>
    <nd ref="136357216"/>
    <nd ref="136357235"/>
    <nd ref="136357252"/>
    <nd ref="136357279"/>
    <nd ref="136357294"/>
    <nd ref="136357311"/>
    <nd ref="136349610"/>
    <nd ref="250447949"/>
    <nd ref="250447950"/>
    <tag k="highway" v="unclassified"/>
    <tag k="name" v="Harward Road"/>
    <tag k="source" v="survey"/>
  </way>
  <way id="14241158" version="11" timestamp="2009-07-26T08:06:35Z" uid="18775" user="drlizau" changeset="1941772">
    <nd ref="188119930"/>
    <nd ref="196932304"/>
    <nd ref="448136225"/>
    <nd ref="136357216"/>
    <nd ref="136357235"/>
    <nd ref="136357252"/>
    <nd ref="136357279"/>
    <nd ref="136357294"/>
    <nd ref="136357311"/>
    <nd ref="136349610"/>
    <nd ref="250447949"/>
    <nd ref="250447950"/>
    <tag k="highway" v="unclassified"/>
    <tag k="name" v="Harward Road"/>
    <tag k="source" v="survey"/>
  </way>
  <way id="14241159" version="1" timestamp="2007-11-27T04:36:46Z" uid="18775" user="drlizau" changeset="629602">
    <nd ref="136357333"/>
    <nd ref="136357372"/>
    <nd ref="136357395"/>
    <nd ref="136357413"/>
    <nd ref="136357437"/>
    <tag k="created_by" v="JOSM"/>
    <tag k="highway" v="residential"/>
    <tag k="name" v="Rose Road"/>
  </way>
  <way id="14241159" version="2" timestamp="2007-11-27T04:37:17Z" uid="18775" user="drlizau" changeset="629602">
    <nd ref="136357235"/>
    <nd ref="136357372"/>
    <nd ref="136357395"/>
    <nd ref="136357413"/>
    <nd ref="136357437"/>
    <tag k="created_by" v="JOSM"/>
    <tag k="highway" v="residential"/>
    <tag k="name" v="Rose Road"/>
  </way>
  <way id="14241159" version="3" timestamp="2007-12-25T05:12:49Z" uid="18775" user="drlizau" changeset="417294">
    <nd ref="136357235"/>
    <nd ref="136357372"/>
    <nd ref="136357395"/>
    <nd ref="136357413"/>
    <nd ref="136357437"/>
    <nd ref="188133122"/>
    <tag k="created_by" v="JOSM"/>
    <tag k="highway" v="residential"/>
    <tag k="name" v="Rose Road"/>
  </way>
  <way id="14241159" version="4" timestamp="2007-12-30T07:11:17Z" uid="18775" user="drlizau" changeset="482858">
    <nd ref="136357235"/>
    <nd ref="136357372"/>
    <nd ref="136357395"/>
    <nd ref="136357413"/>
    <nd ref="136357437"/>
    <nd ref="188133122"/>
    <tag k="created_by" v="JOSM"/>
    <tag k="highway" v="residential"/>
    <tag k="name" v="Rose Road"/>
  </way>
  <way id="14241159" version="5" timestamp="2007-12-30T07:23:01Z" uid="18775" user="drlizau" changeset="482858">
    <nd ref="136357235"/>
    <nd ref="136357372"/>
    <nd ref="136357395"/>
    <nd ref="136357437"/>
    <nd ref="188133122"/>
    <tag k="created_by" v="JOSM"/>
    <tag k="highway" v="residential"/>
    <tag k="name" v="Rose Road"/>
  </way>
  <way id="14241159" version="6" timestamp="2008-04-25T11:06:16Z" uid="19626" user="Swamp" changeset="254805">
    <nd ref="136357235"/>
    <nd ref="136357372"/>
    <nd ref="136357395"/>
    <nd ref="136357437"/>
    <nd ref="188133122"/>
    <tag k="created_by" v="JOSM"/>
    <tag k="highway" v="residential"/>
    <tag k="maxspeed" v="50"/>
    <tag k="name" v="Rose Road"/>
  </way>
  <way id="14241159" version="7" timestamp="2008-11-16T11:06:07Z" uid="18775" user="drlizau" changeset="756879">
    <nd ref="136357235"/>
    <nd ref="136357372"/>
    <nd ref="136357395"/>
    <nd ref="136357437"/>
    <nd ref="188133122"/>
    <tag k="created_by" v="JOSM"/>
    <tag k="highway" v="residential"/>
    <tag k="maxspeed" v="50"/>
    <tag k="name" v="Rose Road"/>
  </way>
  <way id="14241159" version="8" timestamp="2008-11-16T11:34:23Z" uid="18775" user="drlizau" changeset="756879">
    <nd ref="136357235"/>
    <nd ref="136357372"/>
    <nd ref="136357395"/>
    <nd ref="136357437"/>
    <nd ref="188133122"/>
    <tag k="created_by" v="JOSM"/>
    <tag k="highway" v="residential"/>
    <tag k="maxspeed" v="50"/>
    <tag k="name" v="Rose Road"/>
    <tag k="source" v="survey"/>
  </way>
  <way id="14241160" version="1" timestamp="2007-11-27T04:36:47Z" uid="18775" user="drlizau" changeset="629602">
    <nd ref="136357460"/>
    <nd ref="136357485"/>
    <tag k="created_by" v="JOSM"/>
    <tag k="highway" v="residential"/>
    <tag k="name" v="Day Street"/>
  </way>
  <way id="14241160" version="2" timestamp="2007-12-25T05:06:15Z" uid="18775" user="drlizau" changeset="417294">
    <nd ref="136357460"/>
    <nd ref="136357485"/>
    <tag k="created_by" v="JOSM"/>
    <tag k="highway" v="residential"/>
    <tag k="name" v="Day Street"/>
  </way>
  <way id="14241160" version="3" timestamp="2007-12-30T07:11:16Z" uid="18775" user="drlizau" changeset="482858">
    <nd ref="136357437"/>
    <nd ref="136357485"/>
    <tag k="created_by" v="JOSM"/>
    <tag k="highway" v="residential"/>
    <tag k="name" v="Day Street"/>
  </way>
  <way id="14241160" version="4" timestamp="2008-03-03T22:46:19Z" uid="18775" user="drlizau" changeset="263253">
    <nd ref="136357437"/>
    <nd ref="136357485"/>
    <nd ref="188128556"/>
    <tag k="created_by" v="JOSM"/>
    <tag k="highway" v="residential"/>
    <tag k="name" v="Day Street"/>
  </way>
  <way id="14241160" version="5" timestamp="2008-04-25T11:06:15Z" uid="19626" user="Swamp" changeset="254805">
    <nd ref="136357437"/>
    <nd ref="136357485"/>
    <nd ref="188128556"/>
    <tag k="created_by" v="JOSM"/>
    <tag k="highway" v="residential"/>
    <tag k="maxspeed" v="50"/>
    <tag k="name" v="Day Street"/>
  </way>
  <way id="14241160" version="6" timestamp="2008-04-27T10:12:02Z" uid="19626" user="Swamp" changeset="270222">
    <nd ref="136357437"/>
    <nd ref="136357485"/>
    <nd ref="188128556"/>
    <tag k="created_by" v="JOSM"/>
    <tag k="highway" v="residential"/>
    <tag k="maxspeed" v="50"/>
    <tag k="name" v="Day Street"/>
  </way>
  <way id="14241160" version="7" timestamp="2008-11-16T11:05:20Z" uid="18775" user="drlizau" changeset="756879">
    <nd ref="136357437"/>
    <nd ref="136357485"/>
    <nd ref="188128556"/>
    <tag k="created_by" v="JOSM"/>
    <tag k="highway" v="residential"/>
    <tag k="maxspeed" v="50"/>
    <tag k="name" v="Day Street"/>
  </way>
  <way id="14241160" version="8" timestamp="2008-11-16T11:33:35Z" uid="18775" user="drlizau" changeset="756879">
    <nd ref="136357437"/>
    <nd ref="136357485"/>
    <nd ref="188128556"/>
    <tag k="created_by" v="JOSM"/>
    <tag k="highway" v="residential"/>
    <tag k="maxspeed" v="50"/>
    <tag k="name" v="Day Street"/>
    <tag k="source" v="survey"/>
  </way>
  <way id="14241161" version="1" timestamp="2007-11-27T04:36:48Z" uid="18775" user="drlizau" changeset="629602">
    <nd ref="136357513"/>
    <nd ref="136357545"/>
    <nd ref="136357564"/>
    <tag k="created_by" v="JOSM"/>
    <tag k="highway" v="residential"/>
    <tag k="name" v="Erskine Road"/>
  </way>
  <way id="14241161" version="2" timestamp="2007-12-25T05:06:14Z" uid="18775" user="drlizau" changeset="417294">
    <nd ref="136357485"/>
    <nd ref="188125760"/>
    <nd ref="136357545"/>
    <nd ref="136357564"/>
    <tag k="created_by" v="JOSM"/>
    <tag k="highway" v="residential"/>
    <tag k="name" v="Erskine Road"/>
  </way>
  <way id="14241161" version="3" timestamp="2007-12-25T05:12:02Z" uid="18775" user="drlizau" changeset="417294">
    <nd ref="136357564"/>
    <nd ref="136357545"/>
    <nd ref="188125760"/>
    <nd ref="136357485"/>
    <nd ref="188132258"/>
    <tag k="created_by" v="JOSM"/>
    <tag k="highway" v="residential"/>
    <tag k="name" v="Erskine Road"/>
  </way>
  <way id="14241161" version="4" timestamp="2007-12-25T05:14:39Z" uid="18775" user="drlizau" changeset="417294">
    <nd ref="136357564"/>
    <nd ref="136357545"/>
    <nd ref="188125760"/>
    <nd ref="136357485"/>
    <nd ref="188132258"/>
    <tag k="created_by" v="JOSM"/>
    <tag k="highway" v="residential"/>
    <tag k="name" v="Erskine Road"/>
  </way>
  <way id="14241161" version="5" timestamp="2007-12-30T07:04:33Z" uid="18775" user="drlizau" changeset="482858">
    <nd ref="136357545"/>
    <nd ref="188125760"/>
    <nd ref="136357485"/>
    <nd ref="188132258"/>
    <tag k="created_by" v="JOSM"/>
    <tag k="highway" v="residential"/>
    <tag k="name" v="Erskine Road"/>
  </way>
  <way id="14241161" version="6" timestamp="2008-03-29T08:23:03Z" uid="18775" user="drlizau" changeset="419028">
    <nd ref="188132258"/>
    <nd ref="136357485"/>
    <nd ref="188125760"/>
    <nd ref="136357545"/>
    <nd ref="196932354"/>
    <nd ref="196932376"/>
    <nd ref="196932329"/>
    <nd ref="149879857"/>
    <nd ref="149879950"/>
    <nd ref="149880000"/>
    <nd ref="149880016"/>
    <tag k="created_by" v="JOSM"/>
    <tag k="highway" v="residential"/>
    <tag k="name" v="Erskine Road"/>
  </way>
  <way id="14241161" version="7" timestamp="2008-04-27T10:12:03Z" uid="19626" user="Swamp" changeset="270222">
    <nd ref="188132258"/>
    <nd ref="136357485"/>
    <nd ref="188125760"/>
    <nd ref="136357545"/>
    <nd ref="196932354"/>
    <nd ref="196932376"/>
    <nd ref="196932329"/>
    <nd ref="149879857"/>
    <nd ref="149879950"/>
    <nd ref="149880000"/>
    <nd ref="149880016"/>
    <tag k="created_by" v="JOSM"/>
    <tag k="highway" v="residential"/>
    <tag k="maxspeed" v="50"/>
    <tag k="name" v="Erskine Road"/>
  </way>
  <way id="14241161" version="8" timestamp="2008-11-16T11:05:24Z" uid="18775" user="drlizau" changeset="756879">
    <nd ref="188132258"/>
    <nd ref="136357485"/>
    <nd ref="188125760"/>
    <nd ref="136357545"/>
    <nd ref="196932354"/>
    <nd ref="196932376"/>
    <nd ref="196932329"/>
    <nd ref="149879857"/>
    <nd ref="149879950"/>
    <nd ref="149880000"/>
    <nd ref="149880016"/>
    <tag k="created_by" v="JOSM"/>
    <tag k="highway" v="residential"/>
    <tag k="maxspeed" v="50"/>
    <tag k="name" v="Erskine Road"/>
  </way>
  <way id="14241161" version="9" timestamp="2008-11-16T11:33:41Z" uid="18775" user="drlizau" changeset="756879">
    <nd ref="188132258"/>
    <nd ref="136357485"/>
    <nd ref="188125760"/>
    <nd ref="136357545"/>
    <nd ref="196932354"/>
    <nd ref="196932376"/>
    <nd ref="196932329"/>
    <nd ref="149879857"/>
    <nd ref="149879950"/>
    <nd ref="149880000"/>
    <nd ref="149880016"/>
    <tag k="created_by" v="JOSM"/>
    <tag k="highway" v="residential"/>
    <tag k="maxspeed" v="50"/>
    <tag k="name" v="Erskine Road"/>
    <tag k="source" v="survey"/>
  </way>
  <way id="14241161" version="10" timestamp="2009-07-25T04:16:22Z" uid="74617" user="JohnSmith" changeset="1930637">
    <nd ref="188132258"/>
    <nd ref="136357485"/>
    <nd ref="188125760"/>
    <nd ref="136357545"/>
    <nd ref="196932354"/>
    <nd ref="196932376"/>
    <nd ref="196932329"/>
    <nd ref="149879857"/>
    <nd ref="149879950"/>
    <nd ref="149880000"/>
    <nd ref="149880016"/>
    <tag k="highway" v="residential"/>
    <tag k="maxspeed" v="50"/>
    <tag k="name" v="Erskine Road"/>
    <tag k="source" v="survey"/>
  </way>
  <way id="14241161" version="11" timestamp="2009-07-26T08:06:34Z" uid="18775" user="drlizau" changeset="1941772">
    <nd ref="188132258"/>
    <nd ref="136357485"/>
    <nd ref="188125760"/>
    <nd ref="136357545"/>
    <nd ref="196932354"/>
    <nd ref="448136224"/>
    <nd ref="196932376"/>
    <nd ref="196932329"/>
    <nd ref="149879857"/>
    <nd ref="149879950"/>
    <nd ref="149880000"/>
    <nd ref="149880016"/>
    <tag k="highway" v="residential"/>
    <tag k="maxspeed" v="50"/>
    <tag k="name" v="Erskine Road"/>
    <tag k="source" v="survey"/>
  </way>
  <way id="14241161" version="12" timestamp="2010-05-16T09:59:25Z" uid="19626" user="Swamp" changeset="4715041">
    <nd ref="188132258"/>
    <nd ref="136357485"/>
    <nd ref="188125760"/>
    <nd ref="736207668"/>
    <nd ref="136357545"/>
    <nd ref="196932354"/>
    <nd ref="448136224"/>
    <nd ref="196932376"/>
    <nd ref="196932329"/>
    <nd ref="149879857"/>
    <nd ref="149879950"/>
    <nd ref="149880000"/>
    <nd ref="149880016"/>
    <tag k="highway" v="residential"/>
    <tag k="maxspeed" v="50"/>
    <tag k="name" v="Erskine Road"/>
    <tag k="source" v="survey"/>
  </way>
  <way id="14241208" version="6" timestamp="2010-01-21T11:39:07Z" uid="7617" user="Franc" changeset="3673847">
    <nd ref="136342208"/>
    <nd ref="136358984"/>
    <nd ref="457820863"/>
    <nd ref="136358987"/>
    <nd ref="136358991"/>
    <tag k="cycleway" v="track"/>
    <tag k="highway" v="residential"/>
    <tag k="maxspeed" v="50"/>
    <tag k="name" v="Norman Street"/>
    <tag k="rcn" v="yes"/>
    <tag k="source:maxspeed" v="state_limit"/>
  </way>
  <way id="14241229" version="3" timestamp="2010-03-07T08:11:17Z" uid="7617" user="Franc" changeset="4058045">
    <nd ref="136342209"/>
    <nd ref="136359309"/>
    <nd ref="136359310"/>
    <tag k="highway" v="residential"/>
    <tag k="maxspeed" v="50"/>
    <tag k="name" v="Lewis Street"/>
    <tag k="source" v="survey"/>
    <tag k="source:maxspeed" v="state_limit"/>
  </way>
  <way id="14241275" version="2" timestamp="2010-04-17T13:17:26Z" uid="7617" user="Franc" changeset="4447612">
    <nd ref="136360914"/>
    <nd ref="136360915"/>
    <nd ref="136360916"/>
    <nd ref="136360917"/>
    <nd ref="136360918"/>
    <nd ref="136360919"/>
    <nd ref="699728379"/>
    <nd ref="699728381"/>
    <nd ref="699728378"/>
    <nd ref="136360922"/>
    <nd ref="699728282"/>
    <nd ref="136360923"/>
    <nd ref="136360914"/>
    <tag k="amenity" v="school"/>
    <tag k="name" v="Hilltop Public School"/>
  </way>
  <way id="14241280" version="4" timestamp="2010-07-03T23:06:45Z" uid="4467" user="Rosscoe" changeset="5128847">
    <nd ref="136260166"/>
    <nd ref="538482930"/>
    <tag k="highway" v="primary"/>
    <tag k="name" v="New Bridge Road"/>
    <tag k="old_ref_legislative" v="(built after 1987)"/>
    <tag k="ref" v="US 522"/>
    <tag k="tiger:cfcc" v="A41"/>
    <tag k="tiger:county" v="Mifflin, PA"/>
    <tag k="tiger:name_base" v="New Bridge"/>
    <tag k="tiger:name_type" v="Rd"/>
    <tag k="tiger:reviewed" v="ae"/>
    <tag k="tiger:separated" v="no"/>
    <tag k="tiger:source" v="tiger_import_dch_v0.6_20070829"/>
    <tag k="tiger:tlid" v="48026061"/>
    <tag k="tiger:upload_uuid" v="bulk_upload.pl-4db5ef2d-f327-4d8f-b479-bac6fd8fa3cf"/>
  </way>
  <way id="14241280" version="5" timestamp="2011-07-07T16:28:55Z" uid="473471" user="NE3" changeset="8658775">
    <nd ref="136260166"/>
    <nd ref="538482930"/>
    <tag k="NHS" v="yes"/>
    <tag k="highway" v="primary"/>
    <tag k="name" v="New Bridge Road"/>
    <tag k="old_ref_legislative" v="(built after 1987)"/>
    <tag k="ref" v="US 522"/>
    <tag k="tiger:cfcc" v="A41"/>
    <tag k="tiger:county" v="Mifflin, PA"/>
    <tag k="tiger:name_base" v="New Bridge"/>
    <tag k="tiger:name_type" v="Rd"/>
    <tag k="tiger:reviewed" v="ae"/>
    <tag k="tiger:separated" v="no"/>
    <tag k="tiger:source" v="tiger_import_dch_v0.6_20070829"/>
    <tag k="tiger:tlid" v="48026061"/>
    <tag k="tiger:upload_uuid" v="bulk_upload.pl-4db5ef2d-f327-4d8f-b479-bac6fd8fa3cf"/>
  </way>
  <way id="14241280" version="6" timestamp="2011-07-14T01:59:57Z" uid="473471" user="NE3" changeset="8718021">
    <nd ref="136260166"/>
    <nd ref="538482930"/>
    <tag k="NHS" v="yes"/>
    <tag k="highway" v="trunk"/>
    <tag k="lanes" v="2"/>
    <tag k="name" v="New Bridge Road"/>
    <tag k="old_ref_legislative" v="(built after 1987)"/>
    <tag k="ref" v="US 522"/>
    <tag k="tiger:cfcc" v="A41"/>
    <tag k="tiger:county" v="Mifflin, PA"/>
    <tag k="tiger:name_base" v="New Bridge"/>
    <tag k="tiger:name_type" v="Rd"/>
    <tag k="tiger:reviewed" v="ae"/>
    <tag k="tiger:separated" v="no"/>
    <tag k="tiger:source" v="tiger_import_dch_v0.6_20070829"/>
    <tag k="tiger:tlid" v="48026061"/>
    <tag k="tiger:upload_uuid" v="bulk_upload.pl-4db5ef2d-f327-4d8f-b479-bac6fd8fa3cf"/>
  </way>
  <way id="14241280" version="7" timestamp="2011-12-07T01:17:06Z" uid="207745" user="NE2" changeset="10054668">
    <nd ref="136260166"/>
    <nd ref="538482930"/>
    <tag k="NHS" v="yes"/>
    <tag k="hgv" v="yes"/>
    <tag k="highway" v="trunk"/>
    <tag k="lanes" v="2"/>
    <tag k="name" v="New Bridge Road"/>
    <tag k="old_ref_legislative" v="(built after 1987)"/>
    <tag k="ref" v="US 522"/>
    <tag k="source:hgv" v="PennDOT ftp://ftp.dot.state.pa.us/public/Bureaus/BOMO/MC/Publication411.pdf"/>
    <tag k="tiger:cfcc" v="A41"/>
    <tag k="tiger:county" v="Mifflin, PA"/>
    <tag k="tiger:name_base" v="New Bridge"/>
    <tag k="tiger:name_type" v="Rd"/>
    <tag k="tiger:reviewed" v="ae"/>
    <tag k="tiger:separated" v="no"/>
    <tag k="tiger:source" v="tiger_import_dch_v0.6_20070829"/>
    <tag k="tiger:tlid" v="48026061"/>
    <tag k="tiger:upload_uuid" v="bulk_upload.pl-4db5ef2d-f327-4d8f-b479-bac6fd8fa3cf"/>
  </way>
  <way id="14241280" version="8" timestamp="2012-03-02T14:42:18Z" uid="252811" user="rickmastfan67" changeset="10849007">
    <nd ref="136260166"/>
    <nd ref="538482930"/>
    <tag k="NHS" v="yes"/>
    <tag k="hgv" v="yes"/>
    <tag k="highway" v="trunk"/>
    <tag k="lanes" v="2"/>
    <tag k="name" v="New Bridge Road"/>
    <tag k="odbl" v="clean"/>
    <tag k="odbl:note" v="The &quot;Declining&quot; user only expanded the road name (Rd &gt; Road). It can be considered as a trivial edit, thus the way is clean."/>
    <tag k="old_ref_legislative" v="(built after 1987)"/>
    <tag k="ref" v="US 522"/>
    <tag k="source:hgv" v="PennDOT ftp://ftp.dot.state.pa.us/public/Bureaus/BOMO/MC/Publication411.pdf"/>
    <tag k="tiger:cfcc" v="A41"/>
    <tag k="tiger:county" v="Mifflin, PA"/>
    <tag k="tiger:name_base" v="New Bridge"/>
    <tag k="tiger:name_type" v="Rd"/>
    <tag k="tiger:reviewed" v="ae"/>
    <tag k="tiger:separated" v="no"/>
    <tag k="tiger:source" v="tiger_import_dch_v0.6_20070829"/>
    <tag k="tiger:tlid" v="48026061"/>
    <tag k="tiger:upload_uuid" v="bulk_upload.pl-4db5ef2d-f327-4d8f-b479-bac6fd8fa3cf"/>
  </way>
  <way id="14241297" version="8" timestamp="2009-12-05T23:23:05Z" uid="30201" user="rrankin" changeset="3299421">
    <nd ref="136362256"/>
    <nd ref="136931556"/>
    <nd ref="136460451"/>
    <nd ref="582245782"/>
    <tag k="highway" v="residential"/>
    <tag k="name" v="Holroyd Road"/>
  </way>
  <way id="14241297" version="9" timestamp="2009-12-30T05:49:53Z" uid="12203" user="brainwad" changeset="3487263">
    <nd ref="136362256"/>
    <nd ref="136931556"/>
    <nd ref="136460451"/>
    <nd ref="582245782"/>
    <tag k="highway" v="residential"/>
    <tag k="maxspeed" v="50"/>
    <tag k="name" v="Holroyd Road"/>
    <tag k="source:maxspeed" v="state_limit"/>
  </way>
  <way id="14241297" version="10" timestamp="2010-03-07T08:11:21Z" uid="7617" user="Franc" changeset="4058045">
    <nd ref="136362256"/>
    <nd ref="662019586"/>
    <nd ref="136931556"/>
    <nd ref="136460451"/>
    <nd ref="582245782"/>
    <tag k="highway" v="residential"/>
    <tag k="maxspeed" v="50"/>
    <tag k="name" v="Holroyd Road"/>
    <tag k="source:maxspeed" v="state_limit"/>
  </way>
  <way id="14241320" version="5" timestamp="2010-01-21T11:39:08Z" uid="7617" user="Franc" changeset="3673847">
    <nd ref="136354782"/>
    <nd ref="617565575"/>
    <tag k="highway" v="residential"/>
    <tag k="maxspeed" v="50"/>
    <tag k="name" v="Douglas Street"/>
    <tag k="restriction" v="school_zone"/>
    <tag k="source:maxspeed" v="state_limit"/>
  </way>
  <way id="14241574" version="1" timestamp="2007-11-27T04:42:42Z" uid="18775" user="drlizau" changeset="629602">
    <nd ref="129981036"/>
    <nd ref="129981049"/>
    <nd ref="129981060"/>
    <nd ref="129981071"/>
    <nd ref="129981077"/>
    <nd ref="129981087"/>
    <nd ref="129981095"/>
    <nd ref="129981108"/>
    <tag k="created_by" v="JOSM"/>
    <tag k="highway" v="unclassified"/>
    <tag k="name" v="North Kooba Settlers Road"/>
  </way>
  <way id="14241574" version="2" timestamp="2008-02-24T08:43:04Z" uid="19626" user="Swamp" changeset="195877">
    <nd ref="129981036"/>
    <nd ref="129981049"/>
    <nd ref="129981060"/>
    <nd ref="129981071"/>
    <nd ref="129981077"/>
    <nd ref="129981087"/>
    <nd ref="129981108"/>
    <tag k="created_by" v="JOSM"/>
    <tag k="highway" v="unclassified"/>
    <tag k="name" v="North Kooba Settlers Road"/>
  </way>
  <way id="14241574" version="3" timestamp="2008-04-06T06:38:58Z" uid="19626" user="Swamp" changeset="67313">
    <nd ref="129981036"/>
    <nd ref="129981049"/>
    <nd ref="129981060"/>
    <nd ref="129981071"/>
    <nd ref="129981077"/>
    <nd ref="129981087"/>
    <nd ref="129981108"/>
    <nd ref="255996607"/>
    <tag k="created_by" v="JOSM"/>
    <tag k="highway" v="unclassified"/>
    <tag k="maxspeed" v="100"/>
    <tag k="name" v="Pelizzer Road"/>
  </way>
</osm>
