<?xml version='1.0' encoding='UTF-8'?>
<osm version="0.6" generator="libosmium/2.20.0">
  <way id="14498798" version="6" timestamp="2009-09-30T13:10:24Z" uid="36809" user="pfoten_weg_!_" changeset="2687909">
    <nd ref="142522253"/>
    <nd ref="142522394"/>
    <nd ref="142521591"/>
    <tag k="highway" v="residential"/>
    <tag k="name" v="Kiefernstraße"/>
  </way>
  <way id="14498798" version="7" timestamp="2010-08-12T12:26:55Z" uid="7596" user="ck3d" changeset="5472762">
    <nd ref="142522253"/>
    <nd ref="142522394"/>
    <nd ref="142521591"/>
    <tag k="highway" v="residential"/>
    <tag k="name" v="Kiefernstraße"/>
    <tag k="zone:traffic" v="DE:urban"/>
  </way>
  <way id="14498872" version="3" timestamp="2009-09-30T13:07:24Z" uid="36809" user="pfoten_weg_!_" changeset="2687909">
    <nd ref="142521588"/>
    <nd ref="142523386"/>
    <tag k="highway" v="residential"/>
    <tag k="name" v="Eschenstraße"/>
  </way>
  <way id="14498872" version="4" timestamp="2010-08-12T12:29:48Z" uid="7596" user="ck3d" changeset="5472762">
    <nd ref="142521588"/>
    <nd ref="142523386"/>
    <tag k="highway" v="residential"/>
    <tag k="name" v="Eschenstraße"/>
    <tag k="zone:traffic" v="DE:urban"/>
  </way>
  <way id="14498963" version="4" timestamp="2009-09-30T13:07:19Z" uid="36809" user="pfoten_weg_!_" changeset="2687909">
    <nd ref="142542189"/>
    <nd ref="142542190"/>
    <nd ref="142525158"/>
    <nd ref="142525161"/>
    <nd ref="142525162"/>
    <nd ref="142523386"/>
    <nd ref="142525164"/>
    <tag k="highway" v="residential"/>
    <tag k="name" v="Lindenstraße"/>
  </way>
  <way id="14498963" version="5" timestamp="2010-08-12T12:27:53Z" uid="7596" user="ck3d" changeset="5472762">
    <nd ref="142542189"/>
    <nd ref="142542190"/>
    <nd ref="142525158"/>
    <nd ref="142525161"/>
    <nd ref="142525162"/>
    <nd ref="142523386"/>
    <nd ref="142525164"/>
    <tag k="highway" v="residential"/>
    <tag k="name" v="Lindenstraße"/>
    <tag k="zone:traffic" v="DE:urban"/>
  </way>
  <way id="14498987" version="3" timestamp="2009-09-30T13:07:04Z" uid="36809" user="pfoten_weg_!_" changeset="2687909">
    <nd ref="142524058"/>
    <nd ref="142525162"/>
    <tag k="highway" v="residential"/>
    <tag k="name" v="Eichenstraße"/>
  </way>
  <way id="14498987" version="4" timestamp="2010-08-12T12:29:27Z" uid="7596" user="ck3d" changeset="5472762">
    <nd ref="142524058"/>
    <nd ref="142525162"/>
    <tag k="highway" v="residential"/>
    <tag k="name" v="Eichenstraße"/>
    <tag k="zone:traffic" v="DE:urban"/>
  </way>
</osm>
