<?xml version='1.0' encoding='UTF-8'?>
<osm version="0.6" generator="libosmium/2.20.0">
  <way id="14499005" version="3" timestamp="2009-09-30T13:07:12Z" uid="36809" user="pfoten_weg_!_" changeset="2687909">
    <nd ref="142524057"/>
    <nd ref="142525161"/>
    <tag k="highway" v="residential"/>
    <tag k="name" v="Birkenstraße"/>
  </way>
  <way id="14499005" version="4" timestamp="2010-08-12T12:28:53Z" uid="7596" user="ck3d" changeset="5472762">
    <nd ref="142524057"/>
    <nd ref="142525161"/>
    <tag k="highway" v="residential"/>
    <tag k="name" v="Birkenstraße"/>
    <tag k="zone:traffic" v="DE:urban"/>
  </way>
  <way id="14499054" version="5" timestamp="2009-09-30T13:07:19Z" uid="36809" user="pfoten_weg_!_" changeset="2687909">
    <nd ref="142526227"/>
    <nd ref="282759971"/>
    <nd ref="142521585"/>
    <tag k="highway" v="residential"/>
    <tag k="name" v="Buchenauer Platz"/>
  </way>
  <way id="14499054" version="6" timestamp="2010-08-12T12:28:21Z" uid="7596" user="ck3d" changeset="5472762">
    <nd ref="142526227"/>
    <nd ref="282759971"/>
    <nd ref="142521585"/>
    <tag k="highway" v="residential"/>
    <tag k="name" v="Buchenauer Platz"/>
    <tag k="zone:traffic" v="DE:urban"/>
  </way>
  <way id="14499151" version="6" timestamp="2009-09-30T13:08:18Z" uid="36809" user="pfoten_weg_!_" changeset="2687909">
    <nd ref="142527355"/>
    <nd ref="142543220"/>
    <nd ref="142543222"/>
    <nd ref="322698842"/>
    <tag k="highway" v="residential"/>
    <tag k="name" v="Kirschbaumstraße"/>
  </way>
  <way id="14499151" version="7" timestamp="2010-08-12T12:27:12Z" uid="7596" user="ck3d" changeset="5472762">
    <nd ref="142527355"/>
    <nd ref="142543220"/>
    <nd ref="142543222"/>
    <nd ref="322698842"/>
    <tag k="highway" v="residential"/>
    <tag k="name" v="Kirschbaumstraße"/>
    <tag k="zone:traffic" v="DE:urban"/>
  </way>
  <way id="14499273" version="1" timestamp="2007-11-29T21:35:03Z" uid="7617" user="Franc" changeset="646386">
    <nd ref="28828881"/>
    <nd ref="28829243"/>
    <tag k="created_by" v="JOSM"/>
    <tag k="highway" v="residential"/>
    <tag k="source" v="Yahoo Imagery"/>
  </way>
  <way id="14499273" version="2" timestamp="2009-04-05T07:17:17Z" uid="7617" user="Franc" changeset="199118">
    <nd ref="28828881"/>
    <nd ref="28829243"/>
    <tag k="created_by" v="JOSM"/>
    <tag k="highway" v="residential"/>
    <tag k="name" v="Lincoln Street"/>
    <tag k="source" v="survey"/>
  </way>
  <way id="14499273" version="3" timestamp="2010-07-08T00:25:52Z" uid="74617" user="JohnSmith" changeset="5162525">
    <nd ref="28828881"/>
    <nd ref="28829243"/>
    <tag k="highway" v="residential"/>
    <tag k="maxspeed" v="50"/>
    <tag k="maxspeed:source" v="default residential speed limit in Australia"/>
    <tag k="name" v="Lincoln Street"/>
    <tag k="source" v="survey"/>
  </way>
  <way id="14499273" version="4" timestamp="2010-08-07T11:50:51Z" uid="7617" user="Franc" changeset="5423946">
    <nd ref="28828881"/>
    <nd ref="848549404"/>
    <tag k="highway" v="residential"/>
    <tag k="maxspeed" v="50"/>
    <tag k="maxspeed:source" v="default residential speed limit in Australia"/>
    <tag k="name" v="Lincoln Street"/>
    <tag k="source" v="survey"/>
  </way>
  <way id="14499273" version="5" timestamp="2012-01-15T12:45:46Z" uid="147510" user="woodpeck_fixbot" changeset="10396281">
    <nd ref="28828881"/>
    <nd ref="848549404"/>
    <tag k="highway" v="residential"/>
    <tag k="name" v="Lincoln Street"/>
    <tag k="source" v="survey"/>
  </way>
  <way id="14499274" version="1" timestamp="2007-11-29T21:35:04Z" uid="7617" user="Franc" changeset="646386">
    <nd ref="142529488"/>
    <nd ref="142529492"/>
    <nd ref="142529497"/>
    <nd ref="142529505"/>
    <nd ref="142529512"/>
    <nd ref="142529519"/>
    <nd ref="142529524"/>
    <nd ref="142529527"/>
    <nd ref="142529533"/>
    <nd ref="142529488"/>
    <tag k="created_by" v="JOSM"/>
    <tag k="leisure" v="pitch"/>
    <tag k="source" v="Yahoo Imagery"/>
  </way>
  <way id="14499274" version="2" timestamp="2010-08-07T11:50:50Z" uid="7617" user="Franc" changeset="5423946">
    <nd ref="142529488"/>
    <nd ref="142529492"/>
    <nd ref="848549402"/>
    <nd ref="848549408"/>
    <nd ref="142529497"/>
    <nd ref="142529505"/>
    <nd ref="142529512"/>
    <nd ref="142529519"/>
    <nd ref="142529524"/>
    <nd ref="142529527"/>
    <nd ref="142529533"/>
    <nd ref="142529488"/>
    <tag k="leisure" v="playground"/>
  </way>
  <way id="14499274" version="3" timestamp="2012-03-12T05:22:04Z" uid="7523" user="inas" changeset="10950679"/>
  <way id="14499275" version="1" timestamp="2007-11-29T21:35:05Z" uid="7617" user="Franc" changeset="646386">
    <nd ref="142529542"/>
    <nd ref="142529549"/>
    <nd ref="142529564"/>
    <nd ref="142529555"/>
    <nd ref="142529560"/>
    <tag k="created_by" v="JOSM"/>
    <tag k="highway" v="residential"/>
    <tag k="source" v="Yahoo Imagery"/>
  </way>
  <way id="14499275" version="2" timestamp="2009-04-05T07:17:16Z" uid="7617" user="Franc" changeset="199118">
    <nd ref="142529542"/>
    <nd ref="142529564"/>
    <nd ref="142529560"/>
    <tag k="created_by" v="JOSM"/>
    <tag k="highway" v="residential"/>
    <tag k="name" v="Wood Street"/>
    <tag k="source" v="survey"/>
  </way>
  <way id="14499275" version="3" timestamp="2010-07-08T00:23:04Z" uid="74617" user="JohnSmith" changeset="5162525">
    <nd ref="142529542"/>
    <nd ref="142529564"/>
    <nd ref="142529560"/>
    <tag k="highway" v="residential"/>
    <tag k="maxspeed" v="50"/>
    <tag k="maxspeed:source" v="default residential speed limit in Australia"/>
    <tag k="name" v="Wood Street"/>
    <tag k="source" v="survey"/>
  </way>
  <way id="14499275" version="4" timestamp="2012-01-15T12:45:47Z" uid="147510" user="woodpeck_fixbot" changeset="10396281">
    <nd ref="142529542"/>
    <nd ref="142529564"/>
    <nd ref="142529560"/>
    <tag k="highway" v="residential"/>
    <tag k="name" v="Wood Street"/>
    <tag k="source" v="survey"/>
  </way>
  <way id="14499276" version="1" timestamp="2007-11-29T21:35:06Z" uid="7617" user="Franc" changeset="646386">
    <nd ref="142529564"/>
    <nd ref="28828883"/>
    <tag k="created_by" v="JOSM"/>
    <tag k="highway" v="residential"/>
    <tag k="source" v="Yahoo Imagery"/>
  </way>
  <way id="14499276" version="2" timestamp="2009-04-05T07:17:15Z" uid="7617" user="Franc" changeset="199118">
    <nd ref="142529564"/>
    <nd ref="28828883"/>
    <tag k="created_by" v="JOSM"/>
    <tag k="highway" v="residential"/>
    <tag k="name" v="Wood Street"/>
    <tag k="source" v="survey"/>
  </way>
  <way id="14499276" version="3" timestamp="2010-07-08T00:23:28Z" uid="74617" user="JohnSmith" changeset="5162525">
    <nd ref="142529564"/>
    <nd ref="28828883"/>
    <tag k="highway" v="residential"/>
    <tag k="maxspeed" v="50"/>
    <tag k="maxspeed:source" v="default residential speed limit in Australia"/>
    <tag k="name" v="Wood Street"/>
    <tag k="source" v="survey"/>
  </way>
  <way id="14499276" version="4" timestamp="2012-01-15T12:45:48Z" uid="147510" user="woodpeck_fixbot" changeset="10396281">
    <nd ref="142529564"/>
    <nd ref="28828883"/>
    <tag k="highway" v="residential"/>
    <tag k="name" v="Wood Street"/>
    <tag k="source" v="survey"/>
  </way>
  <way id="14499451" version="6" timestamp="2009-09-30T13:08:36Z" uid="36809" user="pfoten_weg_!_" changeset="2687909">
    <nd ref="142531921"/>
    <nd ref="414978953"/>
    <nd ref="142532143"/>
    <nd ref="142532144"/>
    <nd ref="142532145"/>
    <nd ref="142554238"/>
    <tag k="highway" v="residential"/>
    <tag k="name" v="Paul-Gerhardt-Straße"/>
  </way>
  <way id="14499451" version="7" timestamp="2010-06-15T20:40:30Z" uid="7596" user="ck3d" changeset="4995464">
    <nd ref="142531921"/>
    <nd ref="142532143"/>
    <nd ref="142532144"/>
    <nd ref="142532145"/>
    <nd ref="142554238"/>
    <tag k="highway" v="residential"/>
    <tag k="name" v="Paul-Gerhardt-Straße"/>
  </way>
  <way id="14499451" version="8" timestamp="2010-08-12T12:27:46Z" uid="7596" user="ck3d" changeset="5472762">
    <nd ref="142531921"/>
    <nd ref="142532143"/>
    <nd ref="142532144"/>
    <nd ref="142532145"/>
    <nd ref="142554238"/>
    <tag k="highway" v="residential"/>
    <tag k="name" v="Paul-Gerhardt-Straße"/>
    <tag k="zone:traffic" v="DE:urban"/>
  </way>
  <way id="14499451" version="9" timestamp="2012-02-21T19:04:17Z" uid="7596" user="ck3d" changeset="10752833">
    <nd ref="142531921"/>
    <nd ref="142532143"/>
    <nd ref="142532144"/>
    <nd ref="142532145"/>
    <nd ref="1642123835"/>
    <nd ref="1642123837"/>
    <nd ref="142554238"/>
    <tag k="highway" v="residential"/>
    <tag k="name" v="Paul-Gerhardt-Straße"/>
    <tag k="zone:traffic" v="DE:urban"/>
  </way>
  <way id="14499451" version="10" timestamp="2012-02-25T08:27:28Z" uid="7596" user="ck3d" changeset="10785499">
    <nd ref="142531921"/>
    <nd ref="142532143"/>
    <nd ref="142532144"/>
    <nd ref="142532145"/>
    <nd ref="1642123835"/>
    <nd ref="1642123837"/>
    <nd ref="1646657254"/>
    <nd ref="142554238"/>
    <tag k="highway" v="residential"/>
    <tag k="name" v="Paul-Gerhardt-Straße"/>
    <tag k="zone:traffic" v="DE:urban"/>
  </way>
  <way id="14499590" version="7" timestamp="2009-09-30T13:09:02Z" uid="36809" user="pfoten_weg_!_" changeset="2687909">
    <nd ref="142533817"/>
    <nd ref="142534114"/>
    <nd ref="142534064"/>
    <tag k="highway" v="residential"/>
    <tag k="maxspeed" v="30"/>
    <tag k="name" v="Pellhammerstraße"/>
  </way>
  <way id="14499590" version="8" timestamp="2010-08-12T12:29:04Z" uid="7596" user="ck3d" changeset="5472762">
    <nd ref="142533817"/>
    <nd ref="142534114"/>
    <nd ref="142534064"/>
    <tag k="highway" v="residential"/>
    <tag k="maxspeed" v="30"/>
    <tag k="name" v="Pellhammerstraße"/>
    <tag k="zone:traffic" v="DE:urban"/>
  </way>
  <way id="14499613" version="8" timestamp="2009-09-30T13:09:01Z" uid="36809" user="pfoten_weg_!_" changeset="2687909">
    <nd ref="142534114"/>
    <nd ref="442881847"/>
    <nd ref="442881848"/>
    <nd ref="142534319"/>
    <tag k="highway" v="residential"/>
    <tag k="maxspeed" v="30"/>
    <tag k="name" v="Dallmayrstraße"/>
  </way>
  <way id="14499613" version="9" timestamp="2010-08-12T12:27:15Z" uid="7596" user="ck3d" changeset="5472762">
    <nd ref="142534114"/>
    <nd ref="442881847"/>
    <nd ref="442881848"/>
    <nd ref="142534319"/>
    <tag k="highway" v="residential"/>
    <tag k="maxspeed" v="30"/>
    <tag k="name" v="Dallmayrstraße"/>
    <tag k="zone:traffic" v="DE:urban"/>
  </way>
  <way id="14499632" version="10" timestamp="2009-09-30T13:09:04Z" uid="36809" user="pfoten_weg_!_" changeset="2687909">
    <nd ref="142534368"/>
    <nd ref="442881846"/>
    <nd ref="142534802"/>
    <nd ref="142534667"/>
    <nd ref="142534064"/>
    <nd ref="142535409"/>
    <nd ref="278348278"/>
    <tag k="highway" v="residential"/>
    <tag k="maxspeed" v="30"/>
    <tag k="name" v="Asambogen"/>
  </way>
  <way id="14499632" version="11" timestamp="2010-08-12T12:26:51Z" uid="7596" user="ck3d" changeset="5472762">
    <nd ref="142534368"/>
    <nd ref="442881846"/>
    <nd ref="142534802"/>
    <nd ref="142534667"/>
    <nd ref="142534064"/>
    <nd ref="142535409"/>
    <nd ref="278348278"/>
    <tag k="highway" v="residential"/>
    <tag k="maxspeed" v="30"/>
    <tag k="name" v="Asambogen"/>
    <tag k="zone:traffic" v="DE:urban"/>
  </way>
  <way id="14499782" version="9" timestamp="2009-09-30T13:08:54Z" uid="36809" user="pfoten_weg_!_" changeset="2687909">
    <nd ref="142536268"/>
    <nd ref="142536193"/>
    <nd ref="142550069"/>
    <nd ref="142536845"/>
    <nd ref="142535949"/>
    <nd ref="142559045"/>
    <nd ref="142536849"/>
    <nd ref="142551126"/>
    <tag k="highway" v="residential"/>
    <tag k="name" v="Zugspitzstraße"/>
  </way>
  <way id="14499782" version="10" timestamp="2010-08-12T12:27:54Z" uid="7596" user="ck3d" changeset="5472762">
    <nd ref="142536268"/>
    <nd ref="142536193"/>
    <nd ref="142550069"/>
    <nd ref="142536845"/>
    <nd ref="142535949"/>
    <nd ref="142559045"/>
    <nd ref="142536849"/>
    <nd ref="142551126"/>
    <tag k="highway" v="residential"/>
    <tag k="name" v="Zugspitzstraße"/>
    <tag k="zone:traffic" v="DE:urban"/>
  </way>
  <way id="14499912" version="9" timestamp="2009-09-30T12:56:52Z" uid="36809" user="pfoten_weg_!_" changeset="2687909">
    <nd ref="142538850"/>
    <nd ref="142538852"/>
    <nd ref="142538854"/>
    <nd ref="142538855"/>
    <nd ref="142538856"/>
    <nd ref="142538857"/>
    <nd ref="142538858"/>
    <nd ref="142538859"/>
    <nd ref="142538861"/>
    <nd ref="322672167"/>
    <nd ref="142538862"/>
    <nd ref="142538863"/>
    <nd ref="142538864"/>
    <nd ref="142538868"/>
    <tag k="highway" v="living_street"/>
    <tag k="name" v="Fliederstraße"/>
  </way>
  <way id="14499912" version="10" timestamp="2010-08-12T12:27:59Z" uid="7596" user="ck3d" changeset="5472762">
    <nd ref="142538850"/>
    <nd ref="142538852"/>
    <nd ref="142538854"/>
    <nd ref="142538855"/>
    <nd ref="142538856"/>
    <nd ref="142538857"/>
    <nd ref="142538858"/>
    <nd ref="142538859"/>
    <nd ref="142538861"/>
    <nd ref="322672167"/>
    <nd ref="142538862"/>
    <nd ref="142538863"/>
    <nd ref="142538864"/>
    <nd ref="142538868"/>
    <tag k="highway" v="living_street"/>
    <tag k="name" v="Fliederstraße"/>
    <tag k="zone:traffic" v="DE:urban"/>
  </way>
  <way id="14499912" version="11" timestamp="2012-02-21T20:45:59Z" uid="7596" user="ck3d" changeset="10753745">
    <nd ref="142538850"/>
    <nd ref="142538852"/>
    <nd ref="142538854"/>
    <nd ref="142538855"/>
    <nd ref="142538856"/>
    <nd ref="142538857"/>
    <nd ref="142538858"/>
    <nd ref="142538859"/>
    <nd ref="322672167"/>
    <nd ref="142538862"/>
    <nd ref="142538863"/>
    <nd ref="142538864"/>
    <nd ref="1642235989"/>
    <tag k="highway" v="living_street"/>
    <tag k="name" v="Fliederstraße"/>
    <tag k="zone:traffic" v="DE:urban"/>
  </way>
  <way id="14499918" version="6" timestamp="2009-09-30T12:56:54Z" uid="36809" user="pfoten_weg_!_" changeset="2687909">
    <nd ref="142538857"/>
    <nd ref="142539047"/>
    <nd ref="433635427"/>
    <nd ref="142539048"/>
    <tag k="highway" v="living_street"/>
    <tag k="name" v="Holunderweg"/>
  </way>
  <way id="14499918" version="7" timestamp="2010-08-12T12:28:51Z" uid="7596" user="ck3d" changeset="5472762">
    <nd ref="142538857"/>
    <nd ref="142539047"/>
    <nd ref="433635427"/>
    <nd ref="142539048"/>
    <tag k="highway" v="living_street"/>
    <tag k="name" v="Holunderweg"/>
    <tag k="zone:traffic" v="DE:urban"/>
  </way>
  <way id="14499918" version="8" timestamp="2011-04-19T16:55:21Z" uid="7596" user="ck3d" changeset="7908320">
    <nd ref="142538857"/>
    <nd ref="433635427"/>
    <nd ref="142539048"/>
    <tag k="highway" v="living_street"/>
    <tag k="name" v="Holunderweg"/>
    <tag k="zone:traffic" v="DE:urban"/>
  </way>
  <way id="14499981" version="4" timestamp="2009-09-30T12:56:38Z" uid="36809" user="pfoten_weg_!_" changeset="2687909">
    <nd ref="142539679"/>
    <nd ref="142540104"/>
    <nd ref="142538872"/>
    <tag k="highway" v="residential"/>
    <tag k="name" v="Kastanienweg"/>
  </way>
  <way id="14499981" version="5" timestamp="2010-08-12T12:28:35Z" uid="7596" user="ck3d" changeset="5472762">
    <nd ref="142539679"/>
    <nd ref="142540104"/>
    <nd ref="142538872"/>
    <tag k="highway" v="residential"/>
    <tag k="name" v="Kastanienweg"/>
    <tag k="zone:traffic" v="DE:urban"/>
  </way>
  <way id="14499981" version="6" timestamp="2012-02-21T20:46:01Z" uid="7596" user="ck3d" changeset="10753745">
    <nd ref="142539679"/>
    <nd ref="1642235998"/>
    <nd ref="142540104"/>
    <nd ref="142538872"/>
    <tag k="highway" v="residential"/>
    <tag k="name" v="Kastanienweg"/>
    <tag k="zone:traffic" v="DE:urban"/>
  </way>
</osm>
