<?xml version='1.0' encoding='UTF-8'?>
<osm version="0.6" generator="libosmium/2.20.0">
  <way id="14504048" version="3" timestamp="2009-09-30T13:04:53Z" uid="36809" user="pfoten_weg_!_" changeset="2687909">
    <nd ref="142595430"/>
    <nd ref="142595432"/>
    <nd ref="315874899"/>
    <nd ref="142595433"/>
    <tag k="highway" v="residential"/>
    <tag k="maxspeed" v="30"/>
    <tag k="name" v="Weichselstraße"/>
  </way>
  <way id="14504048" version="4" timestamp="2009-10-07T17:35:00Z" uid="7596" user="ck3d" changeset="2774264">
    <nd ref="142595430"/>
    <nd ref="142595432"/>
    <nd ref="315874899"/>
    <nd ref="142595433"/>
    <tag k="highway" v="residential"/>
    <tag k="maxspeed" v="30"/>
    <tag k="name" v="Weichselstraße"/>
    <tag k="zone:traffic" v="DE:urban"/>
  </way>
  <way id="14504100" version="3" timestamp="2009-09-30T13:04:21Z" uid="36809" user="pfoten_weg_!_" changeset="2687909">
    <nd ref="142595729"/>
    <nd ref="142595433"/>
    <nd ref="142596019"/>
    <tag k="highway" v="residential"/>
    <tag k="maxspeed" v="30"/>
    <tag k="name" v="Föhrenstraße"/>
  </way>
  <way id="14504100" version="4" timestamp="2009-10-07T17:34:56Z" uid="7596" user="ck3d" changeset="2774264">
    <nd ref="142595729"/>
    <nd ref="142595433"/>
    <nd ref="142596019"/>
    <tag k="highway" v="residential"/>
    <tag k="maxspeed" v="30"/>
    <tag k="name" v="Föhrenstraße"/>
    <tag k="zone:traffic" v="DE:urban"/>
  </way>
  <way id="14504149" version="3" timestamp="2009-09-30T13:04:42Z" uid="36809" user="pfoten_weg_!_" changeset="2687909">
    <nd ref="142595728"/>
    <nd ref="142595432"/>
    <tag k="highway" v="residential"/>
    <tag k="maxspeed" v="30"/>
    <tag k="name" v="Am Lindenplatz"/>
  </way>
  <way id="14504149" version="4" timestamp="2010-08-04T15:30:08Z" uid="7596" user="ck3d" changeset="5400143">
    <nd ref="142595728"/>
    <nd ref="142595432"/>
    <tag k="highway" v="residential"/>
    <tag k="maxspeed" v="30"/>
    <tag k="name" v="Am Lindenplatz"/>
    <tag k="zone:traffic" v="DE:urban"/>
  </way>
  <way id="14504165" version="3" timestamp="2009-09-30T13:04:35Z" uid="36809" user="pfoten_weg_!_" changeset="2687909">
    <nd ref="142596602"/>
    <nd ref="142596800"/>
    <tag k="highway" v="residential"/>
    <tag k="maxspeed" v="30"/>
    <tag k="name" v="Eibenstraße"/>
  </way>
  <way id="14504165" version="4" timestamp="2009-10-24T13:21:56Z" uid="7596" user="ck3d" changeset="2937701">
    <nd ref="142596602"/>
    <nd ref="142596800"/>
    <tag k="highway" v="residential"/>
    <tag k="maxspeed" v="30"/>
    <tag k="name" v="Eibenstraße"/>
    <tag k="zone:traffic" v="DE:urban"/>
  </way>
  <way id="14504187" version="5" timestamp="2009-09-30T13:04:33Z" uid="36809" user="pfoten_weg_!_" changeset="2687909">
    <nd ref="142597093"/>
    <nd ref="155206207"/>
    <tag k="highway" v="residential"/>
    <tag k="maxspeed" v="30"/>
    <tag k="name" v="Am Hart"/>
  </way>
  <way id="14504187" version="6" timestamp="2010-08-12T12:28:13Z" uid="7596" user="ck3d" changeset="5472762">
    <nd ref="142597093"/>
    <nd ref="155206207"/>
    <tag k="highway" v="residential"/>
    <tag k="maxspeed" v="30"/>
    <tag k="name" v="Am Hart"/>
    <tag k="zone:traffic" v="DE:urban"/>
  </way>
  <way id="14504187" version="7" timestamp="2011-08-18T05:39:55Z" uid="7596" user="ck3d" changeset="9053767">
    <nd ref="142597093"/>
    <nd ref="1402989647"/>
    <nd ref="155206207"/>
    <tag k="highway" v="residential"/>
    <tag k="maxspeed" v="30"/>
    <tag k="name" v="Am Hart"/>
    <tag k="zone:traffic" v="DE:urban"/>
  </way>
  <way id="14504360" version="3" timestamp="2009-09-30T13:05:00Z" uid="36809" user="pfoten_weg_!_" changeset="2687909">
    <nd ref="142599037"/>
    <nd ref="142599480"/>
    <nd ref="142599481"/>
    <nd ref="142599482"/>
    <tag k="highway" v="residential"/>
    <tag k="name" v="Ludwig-Thoma-Straße"/>
  </way>
  <way id="14504360" version="4" timestamp="2009-10-24T13:21:57Z" uid="7596" user="ck3d" changeset="2937701">
    <nd ref="142599037"/>
    <nd ref="142599480"/>
    <nd ref="142599481"/>
    <nd ref="142599482"/>
    <tag k="highway" v="residential"/>
    <tag k="name" v="Ludwig-Thoma-Straße"/>
    <tag k="zone:traffic" v="DE:urban"/>
  </way>
  <way id="14504453" version="3" timestamp="2009-09-30T13:03:38Z" uid="36809" user="pfoten_weg_!_" changeset="2687909">
    <nd ref="142600408"/>
    <nd ref="142600759"/>
    <nd ref="142600761"/>
    <nd ref="142600762"/>
    <nd ref="142600764"/>
    <nd ref="142600766"/>
    <nd ref="142600767"/>
    <nd ref="142600285"/>
    <tag k="highway" v="residential"/>
    <tag k="name" v="Adalbert-Stifter-Ring"/>
  </way>
  <way id="14504453" version="4" timestamp="2009-10-24T13:21:55Z" uid="7596" user="ck3d" changeset="2937701">
    <nd ref="142600408"/>
    <nd ref="142600761"/>
    <nd ref="142600762"/>
    <nd ref="142600764"/>
    <nd ref="142600766"/>
    <nd ref="142600767"/>
    <nd ref="539506843"/>
    <nd ref="142600285"/>
    <tag k="highway" v="residential"/>
    <tag k="name" v="Adalbert-Stifter-Ring"/>
    <tag k="zone:traffic" v="DE:urban"/>
  </way>
  <way id="14504500" version="4" timestamp="2009-09-30T13:03:41Z" uid="36809" user="pfoten_weg_!_" changeset="2687909">
    <nd ref="142599035"/>
    <nd ref="142601258"/>
    <nd ref="142601260"/>
    <nd ref="142601261"/>
    <nd ref="142601263"/>
    <nd ref="142601265"/>
    <nd ref="142601267"/>
    <nd ref="142601268"/>
    <nd ref="258479"/>
    <tag k="highway" v="residential"/>
    <tag k="maxspeed" v="30"/>
    <tag k="name" v="Nordendstraße"/>
  </way>
  <way id="14504500" version="5" timestamp="2009-10-24T13:21:54Z" uid="7596" user="ck3d" changeset="2937701">
    <nd ref="142599035"/>
    <nd ref="142601258"/>
    <nd ref="142601260"/>
    <nd ref="142601261"/>
    <nd ref="142601263"/>
    <nd ref="142601265"/>
    <nd ref="142601267"/>
    <nd ref="142601268"/>
    <nd ref="258479"/>
    <tag k="highway" v="residential"/>
    <tag k="maxspeed" v="30"/>
    <tag k="name" v="Nordendstraße"/>
    <tag k="zone:traffic" v="DE:urban"/>
  </way>
  <way id="14504538" version="3" timestamp="2009-09-30T13:03:45Z" uid="36809" user="pfoten_weg_!_" changeset="2687909">
    <nd ref="142601358"/>
    <nd ref="142601514"/>
    <nd ref="142601516"/>
    <nd ref="142601517"/>
    <nd ref="142601260"/>
    <tag k="highway" v="residential"/>
    <tag k="maxspeed" v="30"/>
  </way>
  <way id="14504538" version="4" timestamp="2009-10-24T13:21:56Z" uid="7596" user="ck3d" changeset="2937701">
    <nd ref="142601358"/>
    <nd ref="142601516"/>
    <nd ref="142601517"/>
    <nd ref="142601260"/>
    <tag k="highway" v="residential"/>
    <tag k="maxspeed" v="30"/>
    <tag k="zone:traffic" v="DE:urban"/>
  </way>
  <way id="14504681" version="16" timestamp="2009-09-30T13:03:35Z" uid="36809" user="pfoten_weg_!_" changeset="2687909">
    <nd ref="142604278"/>
    <nd ref="266675662"/>
    <nd ref="266676020"/>
    <nd ref="142603312"/>
    <tag k="highway" v="living_street"/>
    <tag k="name" v="Willy-Buchauer-Ring"/>
    <tag k="note" v="maxspeed=walk gelöscht: highway=living_street impliziert in DE maxspeed=7"/>
  </way>
  <way id="14504697" version="11" timestamp="2009-09-30T13:03:33Z" uid="36809" user="pfoten_weg_!_" changeset="2687909">
    <nd ref="142603454"/>
    <nd ref="142603676"/>
    <tag k="highway" v="living_street"/>
    <tag k="name" v="Willy-Buchauer-Ring"/>
    <tag k="note" v="maxspeed=walk gelöscht: highway=living_street impliziert in DE maxspeed=7"/>
  </way>
  <way id="14504852" version="5" timestamp="2009-09-30T13:04:00Z" uid="36809" user="pfoten_weg_!_" changeset="2687909">
    <nd ref="142605215"/>
    <nd ref="142605399"/>
    <tag k="highway" v="residential"/>
    <tag k="maxspeed" v="30"/>
    <tag k="name" v="Neulindacher Straße"/>
  </way>
  <way id="14504852" version="6" timestamp="2009-10-24T07:40:52Z" uid="7596" user="ck3d" changeset="2935201">
    <nd ref="142605215"/>
    <nd ref="142605399"/>
    <tag k="highway" v="residential"/>
    <tag k="maxspeed" v="30"/>
    <tag k="name" v="Neulindacher Straße"/>
    <tag k="zone:traffic" v="DE:urban"/>
  </way>
  <way id="14504852" version="7" timestamp="2009-11-14T22:54:58Z" uid="7596" user="ck3d" changeset="3117917">
    <nd ref="142605215"/>
    <nd ref="564298268"/>
    <nd ref="142605399"/>
    <tag k="highway" v="residential"/>
    <tag k="maxspeed" v="30"/>
    <tag k="name" v="Neulindacher Straße"/>
    <tag k="zone:traffic" v="DE:urban"/>
  </way>
  <way id="14504885" version="7" timestamp="2009-09-30T13:04:01Z" uid="36809" user="pfoten_weg_!_" changeset="2687909">
    <nd ref="142605452"/>
    <nd ref="142605987"/>
    <nd ref="293944576"/>
    <nd ref="293944575"/>
    <nd ref="142605989"/>
    <nd ref="142605991"/>
    <nd ref="142605994"/>
    <nd ref="142605996"/>
    <nd ref="142605998"/>
    <nd ref="142606000"/>
    <nd ref="142606004"/>
    <tag k="highway" v="living_street"/>
    <tag k="name" v="Rebhuhnweg"/>
    <tag k="note" v="maxspeed=walk gelöscht: highway=living_street impliziert in DE maxspeed=7"/>
  </way>
  <way id="14504885" version="8" timestamp="2010-08-12T12:28:09Z" uid="7596" user="ck3d" changeset="5472762">
    <nd ref="142605452"/>
    <nd ref="142605987"/>
    <nd ref="293944576"/>
    <nd ref="293944575"/>
    <nd ref="142605989"/>
    <nd ref="142605991"/>
    <nd ref="142605994"/>
    <nd ref="142605996"/>
    <nd ref="142605998"/>
    <nd ref="142606000"/>
    <nd ref="142606004"/>
    <tag k="highway" v="living_street"/>
    <tag k="name" v="Rebhuhnweg"/>
    <tag k="note" v="maxspeed=walk gelöscht: highway=living_street impliziert in DE maxspeed=7"/>
    <tag k="zone:traffic" v="DE:urban"/>
  </way>
  <way id="14504912" version="6" timestamp="2009-09-30T13:04:05Z" uid="36809" user="pfoten_weg_!_" changeset="2687909">
    <nd ref="142606312"/>
    <nd ref="293944577"/>
    <nd ref="142606311"/>
    <nd ref="293944578"/>
    <tag k="highway" v="residential"/>
    <tag k="maxspeed" v="30"/>
    <tag k="name" v="Meisenstraße"/>
  </way>
  <way id="14504912" version="7" timestamp="2009-10-24T07:40:53Z" uid="7596" user="ck3d" changeset="2935201">
    <nd ref="142606312"/>
    <nd ref="293944577"/>
    <nd ref="142606311"/>
    <nd ref="293944578"/>
    <tag k="highway" v="residential"/>
    <tag k="maxspeed" v="30"/>
    <tag k="name" v="Meisenstraße"/>
    <tag k="zone:traffic" v="DE:urban"/>
  </way>
</osm>
