<?xml version='1.0' encoding='UTF-8'?>
<osm version="0.6" generator="libosmium/2.20.0">
  <way id="14817376" version="9" timestamp="2011-02-09T15:28:20Z" uid="4467" user="Rosscoe" changeset="7237061">
    <nd ref="1143936859"/>
    <nd ref="1143936879"/>
    <nd ref="649878003"/>
    <nd ref="649878005"/>
    <nd ref="649878009"/>
    <tag k="highway" v="tertiary"/>
    <tag k="maxspeed" v="60"/>
    <tag k="name" v="Braybrooke Street"/>
    <tag k="oneway" v="yes"/>
    <tag k="source" v="nearmap"/>
  </way>
  <way id="14817749" version="7" timestamp="2008-06-30T15:47:45Z" uid="33382" user="de_muur" changeset="348434">
    <nd ref="33649638"/>
    <nd ref="146357186"/>
    <nd ref="146357188"/>
    <nd ref="146357196"/>
    <nd ref="146357199"/>
    <nd ref="146357205"/>
    <nd ref="146357209"/>
    <nd ref="146357215"/>
    <nd ref="146357223"/>
    <tag k="created_by" v="Potlatch 0.5d"/>
    <tag k="highway" v="tertiary"/>
    <tag k="name" v="Paterbusch"/>
    <tag k="surface" v="paved"/>
  </way>
  <way id="14817749" version="8" timestamp="2008-07-18T16:24:38Z" uid="43441" user="Alagris" changeset="531048">
    <nd ref="33649638"/>
    <nd ref="146357186"/>
    <nd ref="146357188"/>
    <nd ref="146357196"/>
    <nd ref="146357199"/>
    <nd ref="279317098"/>
    <nd ref="146357205"/>
    <nd ref="146357209"/>
    <nd ref="146357215"/>
    <nd ref="146357223"/>
    <tag k="created_by" v="Potlatch 0.5d"/>
    <tag k="highway" v="tertiary"/>
    <tag k="name" v="Paterbusch"/>
    <tag k="surface" v="paved"/>
  </way>
  <way id="14817749" version="9" timestamp="2008-09-10T08:18:05Z" uid="31231" user="Andre68" changeset="595443">
    <nd ref="33649638"/>
    <nd ref="146357186"/>
    <nd ref="146357188"/>
    <nd ref="279317098"/>
    <nd ref="146357215"/>
    <nd ref="146357223"/>
    <tag k="created_by" v="Potlatch 0.5d"/>
    <tag k="highway" v="tertiary"/>
    <tag k="name" v="Paterbusch"/>
    <tag k="surface" v="paved"/>
  </way>
  <way id="14817749" version="10" timestamp="2010-12-31T14:21:11Z" uid="57645" user="KartoGrapHiti" changeset="6820128">
    <nd ref="33649638"/>
    <nd ref="146357186"/>
    <nd ref="146357188"/>
    <nd ref="279317098"/>
    <nd ref="146357215"/>
    <nd ref="146357223"/>
    <tag k="highway" v="tertiary"/>
    <tag k="name" v="Paterbusch"/>
    <tag k="surface" v="paved"/>
  </way>
  <way id="14817749" version="11" timestamp="2011-05-13T22:58:41Z" uid="45882" user="smarties" changeset="8136478">
    <nd ref="33649638"/>
    <nd ref="146357186"/>
    <nd ref="146357188"/>
    <nd ref="279317098"/>
    <nd ref="146357215"/>
    <nd ref="146357223"/>
    <tag k="highway" v="tertiary"/>
    <tag k="name" v="Paterbusch"/>
    <tag k="ref" v="K 207"/>
    <tag k="surface" v="paved"/>
  </way>
  <way id="14817749" version="12" timestamp="2012-02-05T18:59:09Z" uid="14002" user="Gehrke" changeset="10597041">
    <nd ref="33649638"/>
    <nd ref="277312637"/>
    <nd ref="146357188"/>
    <nd ref="279317098"/>
    <nd ref="146357215"/>
    <nd ref="146357223"/>
    <tag k="highway" v="tertiary"/>
    <tag k="name" v="Paterbusch"/>
    <tag k="ref" v="K 207"/>
    <tag k="surface" v="paved"/>
  </way>
  <way id="14817749" version="13" timestamp="2012-02-08T14:44:27Z" uid="45882" user="smarties" changeset="10625210"/>
</osm>
