<?xml version='1.0' encoding='UTF-8'?>
<osm version="0.6" generator="libosmium/2.20.0">
  <way id="15265121" version="3" timestamp="2010-02-15T05:21:52Z" uid="74617" user="JohnSmith" changeset="3880269">
    <nd ref="143311125"/>
    <nd ref="143312258"/>
    <nd ref="143310701"/>
    <nd ref="151294757"/>
    <tag k="highway" v="residential"/>
    <tag k="maxspeed" v="50"/>
    <tag k="name" v="Borgnine Street"/>
  </way>
  <way id="15265121" version="4" timestamp="2012-01-15T13:27:25Z" uid="147510" user="woodpeck_fixbot" changeset="10397711">
    <nd ref="143311125"/>
    <nd ref="143312258"/>
    <nd ref="143310701"/>
    <nd ref="151294757"/>
    <tag k="highway" v="residential"/>
    <tag k="name" v="Borgnine Street"/>
  </way>
  <way id="15265207" version="7" timestamp="2010-02-15T05:21:51Z" uid="74617" user="JohnSmith" changeset="3880269">
    <nd ref="151295575"/>
    <nd ref="151295577"/>
    <tag k="highway" v="residential"/>
    <tag k="maxspeed" v="50"/>
    <tag k="name" v="Groucho Place"/>
  </way>
  <way id="15265207" version="8" timestamp="2012-01-15T13:27:26Z" uid="147510" user="woodpeck_fixbot" changeset="10397711">
    <nd ref="151295575"/>
    <nd ref="151295577"/>
    <tag k="highway" v="residential"/>
    <tag k="name" v="Groucho Place"/>
  </way>
  <way id="15265303" version="4" timestamp="2010-02-15T05:21:57Z" uid="74617" user="JohnSmith" changeset="3880269">
    <nd ref="151296406"/>
    <nd ref="151296409"/>
    <tag k="highway" v="residential"/>
    <tag k="maxspeed" v="50"/>
    <tag k="name" v="Harpo Place"/>
  </way>
  <way id="15265303" version="5" timestamp="2012-01-15T13:27:27Z" uid="147510" user="woodpeck_fixbot" changeset="10397711">
    <nd ref="151296406"/>
    <nd ref="151296409"/>
    <tag k="highway" v="residential"/>
    <tag k="name" v="Harpo Place"/>
  </way>
  <way id="15265509" version="3" timestamp="2010-02-15T05:21:57Z" uid="74617" user="JohnSmith" changeset="3880269">
    <nd ref="151298336"/>
    <nd ref="151298337"/>
    <tag k="highway" v="residential"/>
    <tag k="maxspeed" v="50"/>
    <tag k="name" v="Zeppo Place"/>
  </way>
  <way id="15265509" version="4" timestamp="2012-01-15T13:27:29Z" uid="147510" user="woodpeck_fixbot" changeset="10397711">
    <nd ref="151298336"/>
    <nd ref="151298337"/>
    <tag k="highway" v="residential"/>
    <tag k="name" v="Zeppo Place"/>
  </way>
  <way id="15265549" version="2" timestamp="2010-02-15T05:21:55Z" uid="74617" user="JohnSmith" changeset="3880269">
    <nd ref="151298701"/>
    <nd ref="151298337"/>
    <tag k="highway" v="residential"/>
    <tag k="maxspeed" v="50"/>
    <tag k="name" v="Chico Place"/>
  </way>
  <way id="15265549" version="3" timestamp="2012-01-15T13:27:30Z" uid="147510" user="woodpeck_fixbot" changeset="10397711">
    <nd ref="151298701"/>
    <nd ref="151298337"/>
    <tag k="highway" v="residential"/>
    <tag k="name" v="Chico Place"/>
  </way>
</osm>
