<?xml version='1.0' encoding='UTF-8'?>
<osm version="0.6" generator="libosmium/2.20.0">
  <way id="1533186" version="7" timestamp="2010-05-14T12:58:09Z" uid="58091" user="Andreas M" changeset="4695805">
    <nd ref="392129"/>
    <nd ref="6542783"/>
    <nd ref="6975507"/>
    <tag k="highway" v="tertiary"/>
    <tag k="maxspeed" v="50"/>
    <tag k="name" v="Spiegelgrundstraße"/>
  </way>
  <way id="1533186" version="8" timestamp="2011-03-19T22:03:53Z" uid="56986" user="alice23" changeset="7610823">
    <nd ref="392129"/>
    <nd ref="1209640494"/>
    <nd ref="6542783"/>
    <nd ref="6975507"/>
    <tag k="highway" v="tertiary"/>
    <tag k="maxspeed" v="50"/>
    <tag k="name" v="Spiegelgrundstraße"/>
  </way>
  <way id="1533186" version="9" timestamp="2011-09-23T21:10:00Z" uid="129531" user="almich" changeset="9380118">
    <nd ref="392129"/>
    <nd ref="1209640494"/>
    <nd ref="1443503720"/>
    <nd ref="6542783"/>
    <nd ref="6975507"/>
    <tag k="highway" v="tertiary"/>
    <tag k="maxspeed" v="50"/>
    <tag k="name" v="Spiegelgrundstraße"/>
  </way>
</osm>
