<?xml version='1.0' encoding='UTF-8'?>
<osm version="0.6" generator="libosmium/2.20.0">
  <way id="15512963" version="7" timestamp="2008-07-07T00:37:09Z" uid="6975" user="ulfl" changeset="415781">
    <nd ref="154708395"/>
    <nd ref="154678981"/>
    <nd ref="154708396"/>
    <nd ref="154678982"/>
    <nd ref="207309395"/>
    <nd ref="154709254"/>
    <nd ref="154678983"/>
    <nd ref="154678984"/>
    <nd ref="154678985"/>
    <nd ref="154678986"/>
    <nd ref="154678988"/>
    <nd ref="154678990"/>
    <nd ref="154678991"/>
    <nd ref="154678995"/>
    <nd ref="154678996"/>
    <nd ref="154678997"/>
    <nd ref="154678998"/>
    <nd ref="154678999"/>
    <nd ref="154679000"/>
    <nd ref="154678968"/>
    <tag k="bridge" v="yes"/>
    <tag k="height m" v="65"/>
    <tag k="highway" v="motorway"/>
    <tag k="int_ref" v="E55"/>
    <tag k="layer" v="1"/>
    <tag k="length" v="2295"/>
    <tag k="loc_name" v="Charilaos-Trikoupis Bridge"/>
    <tag k="name" v="Rio-Antirio Bridge"/>
    <tag k="oneway" v="true"/>
    <tag k="ref" v="A5"/>
  </way>
  <way id="15512963" version="8" timestamp="2008-07-07T08:41:09Z" uid="6975" user="ulfl" changeset="418206">
    <nd ref="154708395"/>
    <nd ref="154678981"/>
    <nd ref="154708396"/>
    <nd ref="154678982"/>
    <nd ref="207309395"/>
    <nd ref="154709254"/>
    <nd ref="154678983"/>
    <nd ref="154678984"/>
    <nd ref="154678985"/>
    <nd ref="154678986"/>
    <nd ref="154678988"/>
    <nd ref="154678990"/>
    <nd ref="154678991"/>
    <nd ref="154678995"/>
    <nd ref="154678996"/>
    <nd ref="154678997"/>
    <nd ref="154678998"/>
    <nd ref="154678999"/>
    <nd ref="154679000"/>
    <nd ref="154678968"/>
    <tag k="bridge" v="yes"/>
    <tag k="ele" v="65"/>
    <tag k="highway" v="motorway"/>
    <tag k="int_ref" v="E55"/>
    <tag k="layer" v="1"/>
    <tag k="length" v="2295"/>
    <tag k="loc_name" v="Charilaos-Trikoupis Bridge"/>
    <tag k="name" v="Rio-Antirio Bridge"/>
    <tag k="oneway" v="true"/>
    <tag k="ref" v="A5"/>
  </way>
  <way id="15512963" version="9" timestamp="2008-09-10T00:40:58Z" uid="14235" user="AiNikolas" changeset="592194">
    <nd ref="154708395"/>
    <nd ref="154678981"/>
    <nd ref="154708396"/>
    <nd ref="154678982"/>
    <nd ref="207309395"/>
    <nd ref="154709254"/>
    <nd ref="154678983"/>
    <nd ref="154678984"/>
    <nd ref="154678985"/>
    <nd ref="154678986"/>
    <nd ref="154678988"/>
    <nd ref="295521633"/>
    <nd ref="295521634"/>
    <nd ref="295521635"/>
    <nd ref="295521636"/>
    <nd ref="295521637"/>
    <tag k="bridge" v="yes"/>
    <tag k="created_by" v="Potlatch 0.10b"/>
    <tag k="ele" v="65"/>
    <tag k="highway" v="motorway"/>
    <tag k="int_ref" v="E55"/>
    <tag k="layer" v="1"/>
    <tag k="length" v="2295"/>
    <tag k="loc_name" v="Charilaos-Trikoupis Bridge"/>
    <tag k="name" v="Rio-Antirio Bridge"/>
    <tag k="oneway" v="true"/>
    <tag k="ref" v="A5"/>
  </way>
  <way id="15512963" version="10" timestamp="2008-09-10T00:41:40Z" uid="14235" user="AiNikolas" changeset="592194">
    <nd ref="154708395"/>
    <nd ref="154678981"/>
    <nd ref="154708396"/>
    <nd ref="154678982"/>
    <nd ref="207309395"/>
    <nd ref="154709254"/>
    <nd ref="154678983"/>
    <nd ref="154678984"/>
    <nd ref="154678985"/>
    <nd ref="154678986"/>
    <nd ref="154678988"/>
    <nd ref="295521675"/>
    <nd ref="295521633"/>
    <tag k="bridge" v="yes"/>
    <tag k="created_by" v="Potlatch 0.10b"/>
    <tag k="ele" v="65"/>
    <tag k="highway" v="motorway"/>
    <tag k="int_ref" v="E55"/>
    <tag k="layer" v="1"/>
    <tag k="length" v="2295"/>
    <tag k="loc_name" v="Charilaos-Trikoupis Bridge"/>
    <tag k="name" v="Rio-Antirio Bridge"/>
    <tag k="oneway" v="true"/>
    <tag k="ref" v="A5"/>
  </way>
  <way id="15512963" version="11" timestamp="2008-09-10T00:44:12Z" uid="14235" user="AiNikolas" changeset="592194">
    <nd ref="154708395"/>
    <nd ref="154678981"/>
    <nd ref="154708396"/>
    <nd ref="154678982"/>
    <nd ref="207309395"/>
    <nd ref="154709254"/>
    <nd ref="154678983"/>
    <nd ref="154678984"/>
    <nd ref="154678985"/>
    <nd ref="154678986"/>
    <nd ref="154678988"/>
    <nd ref="295521675"/>
    <nd ref="295521633"/>
    <tag k="bridge" v="yes"/>
    <tag k="created_by" v="Potlatch 0.10b"/>
    <tag k="ele" v="65"/>
    <tag k="highway" v="motorway"/>
    <tag k="int_ref" v="E55"/>
    <tag k="layer" v="1"/>
    <tag k="length" v="2295"/>
    <tag k="loc_name" v="Charilaos-Trikoupis Bridge"/>
    <tag k="name" v="Rio-Antirio Bridge"/>
    <tag k="oneway" v="true"/>
    <tag k="ref" v="A5"/>
  </way>
  <way id="15512963" version="12" timestamp="2008-09-10T00:48:15Z" uid="14235" user="AiNikolas" changeset="592194">
    <nd ref="154708395"/>
    <nd ref="154678981"/>
    <nd ref="154708396"/>
    <nd ref="154678982"/>
    <nd ref="207309395"/>
    <nd ref="154709254"/>
    <nd ref="154678983"/>
    <nd ref="154678984"/>
    <nd ref="154678985"/>
    <nd ref="154678986"/>
    <nd ref="154678988"/>
    <nd ref="295521675"/>
    <nd ref="295521633"/>
    <tag k="bridge" v="yes"/>
    <tag k="created_by" v="Potlatch 0.10b"/>
    <tag k="ele" v="65"/>
    <tag k="highway" v="motorway"/>
    <tag k="int_ref" v="E55"/>
    <tag k="lanes" v="3"/>
    <tag k="layer" v="1"/>
    <tag k="length" v="2295"/>
    <tag k="loc_name" v="Γέφυρα Ρίου-Αντιρρίου; Charilaos-Trikoupis Bridge"/>
    <tag k="name" v="Γέφυρα Χαρίλαος Τρικούπης; Rio-Antirio Bridge"/>
    <tag k="name:de" v="Charilaos-Trikoupis Brücke"/>
    <tag k="name:el" v="Γέφυρα Χαρίλαος Τρικούπης"/>
    <tag k="name:en" v="Charilaos-Trikoupis Bridge"/>
    <tag k="name:fr" v="Pont Charilaos Trikoupis"/>
    <tag k="oneway" v="true"/>
    <tag k="ref" v="A5"/>
  </way>
  <way id="15512963" version="13" timestamp="2008-09-10T00:50:49Z" uid="14235" user="AiNikolas" changeset="592194">
    <nd ref="154708395"/>
    <nd ref="154678981"/>
    <nd ref="154708396"/>
    <nd ref="154678982"/>
    <nd ref="207309395"/>
    <nd ref="154709254"/>
    <nd ref="154678983"/>
    <nd ref="154678984"/>
    <nd ref="154678985"/>
    <nd ref="154678986"/>
    <nd ref="154678988"/>
    <nd ref="295521675"/>
    <nd ref="295522731"/>
    <nd ref="295521633"/>
    <tag k="bridge" v="yes"/>
    <tag k="created_by" v="Potlatch 0.10b"/>
    <tag k="ele" v="65"/>
    <tag k="highway" v="motorway"/>
    <tag k="int_ref" v="E55"/>
    <tag k="lanes" v="3"/>
    <tag k="layer" v="1"/>
    <tag k="length" v="2295"/>
    <tag k="loc_name" v="Γέφυρα Ρίου-Αντιρρίου; Charilaos-Trikoupis Bridge"/>
    <tag k="name" v="Γέφυρα Χαρίλαος Τρικούπης; Rio-Antirio Bridge"/>
    <tag k="name:de" v="Charilaos-Trikoupis Brücke"/>
    <tag k="name:el" v="Γέφυρα Χαρίλαος Τρικούπης"/>
    <tag k="name:en" v="Charilaos-Trikoupis Bridge"/>
    <tag k="name:fr" v="Pont Charilaos Trikoupis"/>
    <tag k="oneway" v="true"/>
    <tag k="ref" v="A5"/>
  </way>
  <way id="15512963" version="14" timestamp="2008-09-10T00:51:47Z" uid="14235" user="AiNikolas" changeset="592194">
    <nd ref="154708395"/>
    <nd ref="154678981"/>
    <nd ref="154708396"/>
    <nd ref="154678982"/>
    <nd ref="207309395"/>
    <nd ref="154709254"/>
    <nd ref="154678983"/>
    <nd ref="154678984"/>
    <nd ref="154678985"/>
    <nd ref="154678986"/>
    <nd ref="154678988"/>
    <nd ref="295521675"/>
    <nd ref="295522731"/>
    <nd ref="295521633"/>
    <tag k="bridge" v="yes"/>
    <tag k="created_by" v="Potlatch 0.10b"/>
    <tag k="ele" v="65"/>
    <tag k="highway" v="motorway"/>
    <tag k="int_ref" v="E55"/>
    <tag k="lanes" v="3"/>
    <tag k="layer" v="1"/>
    <tag k="length" v="2295"/>
    <tag k="loc_name" v="Γέφυρα Ρίου-Αντιρρίου; Charilaos-Trikoupis Bridge"/>
    <tag k="name" v="Γέφυρα Χαρίλαος Τρικούπης; Rio-Antirio Bridge"/>
    <tag k="name:de" v="Charilaos-Trikoupis Brücke"/>
    <tag k="name:el" v="Γέφυρα Χαρίλαος Τρικούπης"/>
    <tag k="name:en" v="Charilaos-Trikoupis Bridge"/>
    <tag k="name:fr" v="Pont Charilaos Trikoupis"/>
    <tag k="oneway" v="true"/>
    <tag k="ref" v="A5"/>
  </way>
  <way id="15512963" version="15" timestamp="2008-10-15T16:07:49Z" uid="27541" user="Galactic" changeset="356351">
    <nd ref="154708395"/>
    <nd ref="154678981"/>
    <nd ref="154708396"/>
    <nd ref="154678982"/>
    <nd ref="207309395"/>
    <nd ref="154709254"/>
    <nd ref="154678983"/>
    <nd ref="154678984"/>
    <nd ref="154678985"/>
    <nd ref="154678986"/>
    <nd ref="154678988"/>
    <nd ref="295521675"/>
    <nd ref="295522731"/>
    <nd ref="295521633"/>
    <tag k="bridge" v="yes"/>
    <tag k="created_by" v="Potlatch 0.10e"/>
    <tag k="ele" v="65"/>
    <tag k="highway" v="motorway"/>
    <tag k="int_ref" v="E55"/>
    <tag k="lanes" v="3"/>
    <tag k="layer" v="1"/>
    <tag k="length" v="2295"/>
    <tag k="loc_name" v="Γέφυρα Ρίου-Αντιρρίου; Charilaos-Trikoupis Bridge"/>
    <tag k="name" v="Γέφυρα Χαρίλαος Τρικούπης; Rio-Antirio Bridge"/>
    <tag k="name:de" v="Charilaos-Trikoupis Brücke"/>
    <tag k="name:el" v="Γέφυρα Χαρίλαος Τρικούπης"/>
    <tag k="name:en" v="Charilaos-Trikoupis Bridge"/>
    <tag k="name:fr" v="Pont Charilaos Trikoupis"/>
    <tag k="oneway" v="true"/>
    <tag k="ref" v="A5"/>
  </way>
  <way id="15512963" version="16" timestamp="2008-10-15T16:08:26Z" uid="27541" user="Galactic" changeset="356351">
    <nd ref="154708395"/>
    <nd ref="154678981"/>
    <nd ref="154708396"/>
    <nd ref="154678982"/>
    <nd ref="207309395"/>
    <nd ref="154709254"/>
    <nd ref="154678983"/>
    <nd ref="154678984"/>
    <nd ref="154678985"/>
    <nd ref="154678986"/>
    <nd ref="154678988"/>
    <nd ref="295521675"/>
    <nd ref="295522731"/>
    <nd ref="295521633"/>
    <tag k="bridge" v="yes"/>
    <tag k="created_by" v="Potlatch 0.10e"/>
    <tag k="ele" v="65"/>
    <tag k="highway" v="motorway"/>
    <tag k="int_ref" v="E55"/>
    <tag k="lanes" v="3"/>
    <tag k="layer" v="1"/>
    <tag k="length" v="2295"/>
    <tag k="loc_name" v="Γέφυρα Ρίου-Αντιρρίου; Charilaos-Trikoupis Bridge"/>
    <tag k="name" v="Γέφυρα Χαρίλαος Τρικούπης; Rio-Antirio Bridge"/>
    <tag k="name:de" v="Charilaos-Trikoupis Brücke"/>
    <tag k="name:el" v="Γέφυρα Χαρίλαος Τρικούπης"/>
    <tag k="name:en" v="Charilaos-Trikoupis Bridge"/>
    <tag k="name:fr" v="Pont Charilaos Trikoupis"/>
    <tag k="oneway" v="true"/>
    <tag k="ref" v="A5"/>
  </way>
  <way id="15512963" version="17" timestamp="2008-10-15T16:10:10Z" uid="27541" user="Galactic" changeset="356351">
    <nd ref="154708395"/>
    <nd ref="154678981"/>
    <nd ref="154708396"/>
    <nd ref="154678982"/>
    <nd ref="207309395"/>
    <nd ref="154709254"/>
    <nd ref="154678983"/>
    <nd ref="154678984"/>
    <nd ref="154678985"/>
    <nd ref="154678986"/>
    <nd ref="154678988"/>
    <nd ref="295521675"/>
    <nd ref="295522731"/>
    <nd ref="295521633"/>
    <tag k="bridge" v="yes"/>
    <tag k="created_by" v="Potlatch 0.10e"/>
    <tag k="ele" v="65"/>
    <tag k="highway" v="motorway"/>
    <tag k="int_ref" v="E55"/>
    <tag k="lanes" v="3"/>
    <tag k="layer" v="1"/>
    <tag k="length" v="2295"/>
    <tag k="loc_name" v="Γέφυρα Ρίου-Αντιρρίου; Charilaos-Trikoupis Bridge"/>
    <tag k="name" v="Γέφυρα Χαρίλαος Τρικούπης; Rio-Antirio Bridge"/>
    <tag k="name:de" v="Charilaos-Trikoupis Brücke"/>
    <tag k="name:el" v="Γέφυρα Χαρίλαος Τρικούπης"/>
    <tag k="name:en" v="Charilaos-Trikoupis Bridge"/>
    <tag k="name:fr" v="Pont Charilaos Trikoupis"/>
    <tag k="oneway" v="true"/>
    <tag k="ref" v="A5"/>
  </way>
  <way id="15512963" version="18" timestamp="2009-02-28T22:27:47Z" uid="14235" user="AiNikolas" changeset="705543">
    <nd ref="154708395"/>
    <nd ref="154678981"/>
    <nd ref="154708396"/>
    <nd ref="154678982"/>
    <nd ref="207309395"/>
    <nd ref="154709254"/>
    <nd ref="154678983"/>
    <nd ref="154678984"/>
    <nd ref="154678985"/>
    <nd ref="154678986"/>
    <nd ref="154678988"/>
    <nd ref="295521675"/>
    <nd ref="295522731"/>
    <nd ref="295521633"/>
    <tag k="bridge" v="yes"/>
    <tag k="created_by" v="Potlatch 0.10f"/>
    <tag k="ele" v="65"/>
    <tag k="highway" v="motorway"/>
    <tag k="int_ref" v="E55"/>
    <tag k="lanes" v="3"/>
    <tag k="layer" v="1"/>
    <tag k="length" v="2295"/>
    <tag k="loc_name" v="Γέφυρα Ρίου-Αντιρρίου; Charilaos-Trikoupis Bridge"/>
    <tag k="name" v="Γέφυρα Χαρίλαος Τρικούπης; Rio-Antirio Bridge"/>
    <tag k="name:de" v="Charilaos-Trikoupis Brücke"/>
    <tag k="name:el" v="Γέφυρα Χαρίλαος Τρικούπης"/>
    <tag k="name:en" v="Charilaos-Trikoupis Bridge"/>
    <tag k="name:fr" v="Pont Charilaos Trikoupis"/>
    <tag k="oneway" v="yes"/>
    <tag k="ref" v="A5"/>
  </way>
  <way id="15512963" version="19" timestamp="2009-03-22T16:53:31Z" uid="9176" user="Maarten Deen" changeset="843428">
    <nd ref="154708395"/>
    <nd ref="154678981"/>
    <nd ref="154708396"/>
    <nd ref="154678982"/>
    <nd ref="207309395"/>
    <nd ref="154709254"/>
    <nd ref="154678983"/>
    <nd ref="154678984"/>
    <nd ref="154678985"/>
    <nd ref="154678986"/>
    <nd ref="154678988"/>
    <nd ref="295521675"/>
    <nd ref="295522731"/>
    <nd ref="295521633"/>
    <tag k="bridge" v="yes"/>
    <tag k="ele" v="65"/>
    <tag k="highway" v="motorway"/>
    <tag k="int_ref" v="E 55"/>
    <tag k="lanes" v="3"/>
    <tag k="layer" v="1"/>
    <tag k="length" v="2295"/>
    <tag k="loc_name" v="Γέφυρα Ρίου-Αντιρρίου; Charilaos-Trikoupis Bridge"/>
    <tag k="name" v="Γέφυρα Χαρίλαος Τρικούπης; Rio-Antirio Bridge"/>
    <tag k="name:de" v="Charilaos-Trikoupis Brücke"/>
    <tag k="name:el" v="Γέφυρα Χαρίλαος Τρικούπης"/>
    <tag k="name:en" v="Charilaos-Trikoupis Bridge"/>
    <tag k="name:fr" v="Pont Charilaos Trikoupis"/>
    <tag k="oneway" v="yes"/>
    <tag k="ref" v="A5"/>
  </way>
  <way id="15512963" version="20" timestamp="2009-08-29T20:34:51Z" uid="136321" user="Teddy73" changeset="2306123">
    <nd ref="154708395"/>
    <nd ref="154678981"/>
    <nd ref="154708396"/>
    <nd ref="154678982"/>
    <nd ref="207309395"/>
    <nd ref="154709254"/>
    <nd ref="154678983"/>
    <nd ref="154678984"/>
    <nd ref="154678985"/>
    <nd ref="154678986"/>
    <nd ref="154678988"/>
    <nd ref="295521675"/>
    <nd ref="476912352"/>
    <nd ref="295521633"/>
    <tag k="bridge" v="yes"/>
    <tag k="ele" v="65"/>
    <tag k="highway" v="motorway"/>
    <tag k="int_ref" v="E 55"/>
    <tag k="lanes" v="2"/>
    <tag k="layer" v="1"/>
    <tag k="length" v="2295"/>
    <tag k="loc_name" v="Γέφυρα Ρίου-Αντιρρίου; Charilaos-Trikoupis Bridge"/>
    <tag k="name" v="Γέφυρα Χαρίλαος Τρικούπης; Rio-Antirio Bridge"/>
    <tag k="name:de" v="Charilaos-Trikoupis Brücke"/>
    <tag k="name:el" v="Γέφυρα Χαρίλαος Τρικούπης"/>
    <tag k="name:en" v="Charilaos-Trikoupis Bridge"/>
    <tag k="name:fr" v="Pont Charilaos Trikoupis"/>
    <tag k="oneway" v="yes"/>
    <tag k="ref" v="A5"/>
  </way>
  <way id="15512963" version="21" timestamp="2009-08-31T15:32:34Z" uid="136321" user="Teddy73" changeset="2327560">
    <nd ref="154708395"/>
    <nd ref="154678981"/>
    <nd ref="154708396"/>
    <nd ref="154678982"/>
    <nd ref="207309395"/>
    <nd ref="154709254"/>
    <nd ref="154678983"/>
    <nd ref="154678984"/>
    <nd ref="154678985"/>
    <nd ref="154678986"/>
    <nd ref="154678988"/>
    <nd ref="295521675"/>
    <nd ref="476912352"/>
    <tag k="bridge" v="yes"/>
    <tag k="ele" v="65"/>
    <tag k="highway" v="motorway"/>
    <tag k="int_ref" v="E 55"/>
    <tag k="lanes" v="2"/>
    <tag k="layer" v="1"/>
    <tag k="length" v="2295"/>
    <tag k="loc_name" v="Γέφυρα Ρίου-Αντιρρίου; Charilaos-Trikoupis Bridge"/>
    <tag k="name" v="Γέφυρα Χαρίλαος Τρικούπης; Rio-Antirio Bridge"/>
    <tag k="name:de" v="Charilaos-Trikoupis Brücke"/>
    <tag k="name:el" v="Γέφυρα Χαρίλαος Τρικούπης"/>
    <tag k="name:en" v="Charilaos-Trikoupis Bridge"/>
    <tag k="name:fr" v="Pont Charilaos Trikoupis"/>
    <tag k="oneway" v="yes"/>
    <tag k="ref" v="A5"/>
  </way>
  <way id="15512963" version="22" timestamp="2010-01-13T17:41:33Z" uid="23785" user="Simon Kokolakis" changeset="3611565">
    <nd ref="154708395"/>
    <nd ref="154678981"/>
    <nd ref="154708396"/>
    <nd ref="154678982"/>
    <nd ref="207309395"/>
    <nd ref="154709254"/>
    <nd ref="154678983"/>
    <nd ref="154678984"/>
    <nd ref="154678985"/>
    <nd ref="154678986"/>
    <nd ref="154678988"/>
    <nd ref="295521675"/>
    <nd ref="476912352"/>
    <tag k="bridge" v="yes"/>
    <tag k="ele" v="65"/>
    <tag k="highway" v="motorway"/>
    <tag k="lanes" v="2"/>
    <tag k="layer" v="1"/>
    <tag k="length" v="2295"/>
    <tag k="loc_name" v="Γέφυρα Ρίου-Αντιρρίου; Charilaos-Trikoupis Bridge"/>
    <tag k="name" v="Γέφυρα Χαρίλαος Τρικούπης; Rio-Antirio Bridge"/>
    <tag k="name:de" v="Charilaos-Trikoupis Brücke"/>
    <tag k="name:el" v="Γέφυρα Χαρίλαος Τρικούπης"/>
    <tag k="name:en" v="Charilaos-Trikoupis Bridge"/>
    <tag k="name:fr" v="Pont Charilaos Trikoupis"/>
    <tag k="oneway" v="yes"/>
  </way>
  <way id="15512963" version="23" timestamp="2010-02-14T01:43:49Z" uid="23785" user="Simon Kokolakis" changeset="3870035"/>
</osm>
