<?xml version='1.0' encoding='UTF-8'?>
<osm version="0.6" generator="libosmium/2.20.0">
  <way id="15513754" version="2" timestamp="2010-07-08T17:47:36Z" uid="74617" user="JohnSmith" changeset="5167338">
    <nd ref="154729982"/>
    <nd ref="154730074"/>
    <nd ref="154730014"/>
    <nd ref="154730209"/>
    <nd ref="154730052"/>
    <tag k="highway" v="residential"/>
    <tag k="maxspeed" v="50"/>
    <tag k="maxspeed:source" v="default residential speed limit in Australia"/>
    <tag k="name" v="Hamilton Street"/>
  </way>
  <way id="15513754" version="3" timestamp="2012-01-15T13:52:57Z" uid="147510" user="woodpeck_fixbot" changeset="10397711">
    <nd ref="154729982"/>
    <nd ref="154730074"/>
    <nd ref="154730014"/>
    <nd ref="154730209"/>
    <nd ref="154730052"/>
    <tag k="highway" v="residential"/>
    <tag k="name" v="Hamilton Street"/>
  </way>
  <way id="15513757" version="2" timestamp="2010-07-08T17:48:02Z" uid="74617" user="JohnSmith" changeset="5167338">
    <nd ref="139638020"/>
    <nd ref="154730142"/>
    <nd ref="154730074"/>
    <tag k="highway" v="residential"/>
    <tag k="maxspeed" v="50"/>
    <tag k="maxspeed:source" v="default residential speed limit in Australia"/>
    <tag k="name" v="Railway Road"/>
  </way>
  <way id="15513757" version="3" timestamp="2012-01-15T13:52:58Z" uid="147510" user="woodpeck_fixbot" changeset="10397711">
    <nd ref="139638020"/>
    <nd ref="154730142"/>
    <nd ref="154730074"/>
    <tag k="highway" v="residential"/>
    <tag k="name" v="Railway Road"/>
  </way>
  <way id="15513759" version="2" timestamp="2010-07-08T17:50:38Z" uid="74617" user="JohnSmith" changeset="5167338">
    <nd ref="154730110"/>
    <nd ref="154730142"/>
    <nd ref="154730174"/>
    <tag k="highway" v="residential"/>
    <tag k="maxspeed" v="50"/>
    <tag k="maxspeed:source" v="default residential speed limit in Australia"/>
    <tag k="name" v="Johnstone Street"/>
  </way>
  <way id="15513759" version="3" timestamp="2012-01-15T13:52:59Z" uid="147510" user="woodpeck_fixbot" changeset="10397711">
    <nd ref="154730110"/>
    <nd ref="154730142"/>
    <nd ref="154730174"/>
    <tag k="highway" v="residential"/>
    <tag k="name" v="Johnstone Street"/>
  </way>
</osm>
