<?xml version='1.0' encoding='UTF-8'?>
<osm version="0.6" generator="libosmium/2.20.0">
  <way id="15574313" version="5" timestamp="2008-04-12T18:33:41Z" uid="6269" user="Mueck" changeset="122070">
    <nd ref="71872272"/>
    <nd ref="246626440"/>
    <nd ref="257099850"/>
    <nd ref="257099862"/>
    <nd ref="257099910"/>
    <nd ref="257099909"/>
    <nd ref="155335916"/>
    <tag k="created_by" v="Potlatch 0.7"/>
    <tag k="highway" v="tertiary"/>
    <tag k="name" v="Rheinstraße"/>
  </way>
  <way id="15574313" version="6" timestamp="2008-10-11T20:41:47Z" uid="42429" user="FK270673" changeset="278927">
    <nd ref="71872272"/>
    <nd ref="246626440"/>
    <nd ref="257099850"/>
    <nd ref="257099862"/>
    <nd ref="257099910"/>
    <nd ref="257099909"/>
    <nd ref="155335916"/>
    <tag k="created_by" v="Potlatch 0.10d"/>
    <tag k="highway" v="tertiary"/>
    <tag k="maxspeed" v="50"/>
    <tag k="name" v="Rheinstraße"/>
    <tag k="surface" v="paved"/>
  </way>
  <way id="15574313" version="7" timestamp="2008-11-08T22:46:44Z" uid="42429" user="FK270673" changeset="720046">
    <nd ref="71872272"/>
    <nd ref="246626440"/>
    <nd ref="257099850"/>
    <nd ref="257099862"/>
    <nd ref="257099910"/>
    <nd ref="257099909"/>
    <nd ref="155335916"/>
    <tag k="created_by" v="Potlatch 0.10f"/>
    <tag k="highway" v="tertiary"/>
    <tag k="maxspeed" v="50"/>
    <tag k="name" v="Rheinstraße"/>
    <tag k="surface" v="paved"/>
  </way>
  <way id="15574313" version="8" timestamp="2009-04-15T10:10:07Z" uid="4652" user="Deelkar" changeset="559423">
    <nd ref="155335916"/>
    <nd ref="257099909"/>
    <nd ref="257099910"/>
    <nd ref="257099862"/>
    <nd ref="257099850"/>
    <nd ref="246626440"/>
    <tag k="created_by" v="Potlatch 0.10f"/>
    <tag k="highway" v="tertiary"/>
    <tag k="maxspeed" v="50"/>
    <tag k="name" v="Rheinstraße"/>
    <tag k="surface" v="paved"/>
  </way>
  <way id="15574313" version="9" timestamp="2009-11-16T21:11:50Z" uid="42429" user="FK270673" changeset="3136043">
    <nd ref="155335916"/>
    <nd ref="257099909"/>
    <nd ref="257099910"/>
    <nd ref="257099862"/>
    <nd ref="257099850"/>
    <nd ref="246626440"/>
    <tag k="highway" v="tertiary"/>
    <tag k="maxspeed" v="50"/>
    <tag k="name" v="Rheinstraße"/>
    <tag k="surface" v="paved"/>
  </way>
  <way id="15574313" version="10" timestamp="2011-02-13T18:59:35Z" uid="114813" user="Chrisuu" changeset="7279051">
    <nd ref="155335916"/>
    <nd ref="257099909"/>
    <nd ref="257099910"/>
    <nd ref="257099862"/>
    <nd ref="257099850"/>
    <nd ref="246626440"/>
    <tag k="cycleway" v="track"/>
    <tag k="highway" v="tertiary"/>
    <tag k="maxspeed" v="50"/>
    <tag k="name" v="Rheinstraße"/>
    <tag k="surface" v="asphalt"/>
  </way>
</osm>
