<?xml version='1.0' encoding='UTF-8'?>
<osm version="0.6" generator="libosmium/2.20.0">
  <way id="15572122" version="5" timestamp="2008-04-23T23:16:15Z" uid="6269" user="Mueck" changeset="241331">
    <nd ref="155335889"/>
    <nd ref="155335890"/>
    <nd ref="218450081"/>
    <tag k="created_by" v="Potlatch 0.8a"/>
    <tag k="highway" v="residential"/>
    <tag k="name" v="Johann-Wichels-Weg"/>
  </way>
  <way id="15572122" version="6" timestamp="2009-06-24T20:37:55Z" uid="42429" user="FK270673" changeset="1616135">
    <nd ref="155335889"/>
    <nd ref="155335890"/>
    <nd ref="218450081"/>
    <tag k="created_by" v="Potlatch 0.8a"/>
    <tag k="highway" v="unclassified"/>
    <tag k="maxspeed" v="50"/>
    <tag k="name" v="Johann-Wichels-Weg"/>
    <tag k="source" v="GPS"/>
    <tag k="surface" v="paved"/>
    <tag k="width" v="6"/>
  </way>
  <way id="15572122" version="7" timestamp="2009-06-24T20:39:04Z" uid="42429" user="FK270673" changeset="1616135">
    <nd ref="218450081"/>
    <nd ref="155335890"/>
    <nd ref="155335889"/>
    <nd ref="428937911"/>
    <tag k="created_by" v="Potlatch 0.8a"/>
    <tag k="highway" v="unclassified"/>
    <tag k="maxspeed" v="50"/>
    <tag k="name" v="Johann-Wichels-Weg"/>
    <tag k="source" v="GPS"/>
    <tag k="surface" v="paved"/>
    <tag k="width" v="6"/>
  </way>
  <way id="15572122" version="8" timestamp="2009-06-25T07:54:33Z" uid="42429" user="FK270673" changeset="1619210">
    <nd ref="218450081"/>
    <nd ref="155335890"/>
    <nd ref="155335889"/>
    <tag k="created_by" v="Potlatch 0.8a"/>
    <tag k="highway" v="unclassified"/>
    <tag k="maxspeed" v="50"/>
    <tag k="name" v="Johann-Wichels-Weg"/>
    <tag k="source" v="GPS"/>
    <tag k="surface" v="paved"/>
    <tag k="width" v="6"/>
  </way>
  <way id="15572122" version="9" timestamp="2010-07-18T14:27:29Z" uid="315628" user="lottolotar" changeset="5251669">
    <nd ref="218450081"/>
    <nd ref="823241437"/>
    <nd ref="823241390"/>
    <nd ref="155335890"/>
    <nd ref="155335889"/>
    <tag k="highway" v="unclassified"/>
    <tag k="maxspeed" v="50"/>
    <tag k="name" v="Johann-Wichels-Weg"/>
    <tag k="source" v="GPS"/>
    <tag k="surface" v="paved"/>
    <tag k="width" v="6"/>
  </way>
  <way id="15572122" version="10" timestamp="2011-01-29T10:56:19Z" uid="114813" user="Chrisuu" changeset="7120725">
    <nd ref="218450081"/>
    <nd ref="823241437"/>
    <nd ref="823241390"/>
    <nd ref="155335890"/>
    <nd ref="155335889"/>
    <tag k="highway" v="unclassified"/>
    <tag k="maxspeed" v="50"/>
    <tag k="name" v="Johann-Wichels-Weg"/>
    <tag k="source" v="GPS"/>
    <tag k="surface" v="asphalt"/>
    <tag k="width" v="6"/>
  </way>
  <way id="15572458" version="3" timestamp="2008-04-15T15:26:17Z" uid="6269" user="Mueck" changeset="153723">
    <nd ref="155335894"/>
    <nd ref="257737651"/>
    <nd ref="257737664"/>
    <nd ref="257737749"/>
    <nd ref="155335895"/>
    <tag k="created_by" v="Potlatch 0.5d"/>
    <tag k="highway" v="unclassified"/>
    <tag k="name" v="Adolf-Hoff-Weg"/>
  </way>
  <way id="15572458" version="4" timestamp="2008-04-16T18:37:47Z" uid="6269" user="Mueck" changeset="162638">
    <nd ref="155335894"/>
    <nd ref="257737651"/>
    <nd ref="257737664"/>
    <nd ref="257737749"/>
    <nd ref="155335895"/>
    <tag k="created_by" v="Potlatch 0.5d"/>
    <tag k="highway" v="residential"/>
    <tag k="name" v="Adolf-Hoff-Weg"/>
  </way>
  <way id="15572458" version="5" timestamp="2008-04-23T23:10:49Z" uid="6269" user="Mueck" changeset="241331">
    <nd ref="155335894"/>
    <nd ref="257737651"/>
    <nd ref="257737664"/>
    <tag k="created_by" v="Potlatch 0.8a"/>
    <tag k="highway" v="residential"/>
    <tag k="name" v="Adolf-Hoff-Weg"/>
  </way>
  <way id="15572458" version="6" timestamp="2008-04-23T23:14:13Z" uid="6269" user="Mueck" changeset="241331">
    <nd ref="218450030"/>
    <nd ref="155335892"/>
    <nd ref="155335893"/>
    <nd ref="155335894"/>
    <nd ref="257737651"/>
    <nd ref="257737664"/>
    <tag k="created_by" v="Potlatch 0.8a"/>
    <tag k="highway" v="residential"/>
    <tag k="name" v="Johann-Wichels-Weg"/>
  </way>
  <way id="15572458" version="7" timestamp="2008-04-24T00:08:15Z" uid="6269" user="Mueck" changeset="241331">
    <nd ref="218450030"/>
    <nd ref="155335892"/>
    <nd ref="155335893"/>
    <nd ref="155335894"/>
    <nd ref="259573244"/>
    <nd ref="257737651"/>
    <nd ref="257737664"/>
    <tag k="created_by" v="Potlatch 0.8a"/>
    <tag k="highway" v="residential"/>
    <tag k="name" v="Johann-Wichels-Weg"/>
  </way>
  <way id="15572458" version="8" timestamp="2009-06-25T07:53:13Z" uid="42429" user="FK270673" changeset="1619210">
    <nd ref="218450030"/>
    <nd ref="155335892"/>
    <nd ref="155335893"/>
    <nd ref="155335894"/>
    <nd ref="259573244"/>
    <nd ref="257737651"/>
    <nd ref="257737664"/>
    <tag k="created_by" v="Potlatch 0.8a"/>
    <tag k="highway" v="unclassified"/>
    <tag k="maxspeed" v="50"/>
    <tag k="name" v="Johann-Wichels-Weg"/>
    <tag k="source" v="GPS"/>
    <tag k="surface" v="paved"/>
    <tag k="width" v="6"/>
  </way>
  <way id="15572458" version="9" timestamp="2009-06-25T07:53:38Z" uid="42429" user="FK270673" changeset="1619210">
    <nd ref="218450030"/>
    <nd ref="155335892"/>
    <nd ref="155335893"/>
    <nd ref="155335894"/>
    <nd ref="259573244"/>
    <tag k="created_by" v="Potlatch 0.8a"/>
    <tag k="highway" v="unclassified"/>
    <tag k="maxspeed" v="50"/>
    <tag k="name" v="Johann-Wichels-Weg"/>
    <tag k="source" v="GPS"/>
    <tag k="surface" v="paved"/>
    <tag k="width" v="6"/>
  </way>
  <way id="15572458" version="10" timestamp="2009-09-22T16:02:34Z" uid="166598" user="Moonwalker" changeset="2573109">
    <nd ref="218450030"/>
    <nd ref="155335892"/>
    <nd ref="505378217"/>
    <nd ref="155335893"/>
    <nd ref="155335894"/>
    <nd ref="259573244"/>
    <tag k="highway" v="unclassified"/>
    <tag k="maxspeed" v="50"/>
    <tag k="name" v="Johann-Wichels-Weg"/>
    <tag k="source" v="GPS"/>
    <tag k="surface" v="paved"/>
    <tag k="width" v="6"/>
  </way>
  <way id="15572458" version="11" timestamp="2010-08-18T21:46:42Z" uid="6269" user="Mueck" changeset="5531017">
    <nd ref="218450030"/>
    <nd ref="155335892"/>
    <nd ref="505378217"/>
    <nd ref="867452533"/>
    <tag k="highway" v="unclassified"/>
    <tag k="maxspeed" v="50"/>
    <tag k="name" v="Johann-Wichels-Weg"/>
    <tag k="source" v="GPS"/>
    <tag k="surface" v="asphalt"/>
    <tag k="width" v="6"/>
  </way>
  <way id="15572589" version="3" timestamp="2008-04-15T15:26:18Z" uid="6269" user="Mueck" changeset="153723">
    <nd ref="155335895"/>
    <nd ref="257737591"/>
    <nd ref="155335896"/>
    <nd ref="155335898"/>
    <tag k="created_by" v="Potlatch 0.5d"/>
    <tag k="highway" v="residential"/>
    <tag k="name" v="Kammerweg"/>
  </way>
  <way id="15572589" version="4" timestamp="2008-04-23T23:22:42Z" uid="6269" user="Mueck" changeset="241331"/>
  <way id="15572681" version="5" timestamp="2008-04-15T15:26:24Z" uid="6269" user="Mueck" changeset="153723">
    <nd ref="155335898"/>
    <nd ref="155335900"/>
    <nd ref="246627598"/>
    <nd ref="155335901"/>
    <nd ref="246627510"/>
    <nd ref="257737781"/>
    <nd ref="155335902"/>
    <tag k="created_by" v="Potlatch 0.7"/>
    <tag k="highway" v="residential"/>
    <tag k="name" v="Walter-Delius-Straße"/>
  </way>
  <way id="15572681" version="6" timestamp="2008-04-23T23:21:52Z" uid="6269" user="Mueck" changeset="241331">
    <nd ref="257737458"/>
    <nd ref="257737457"/>
    <nd ref="257737456"/>
    <nd ref="257737455"/>
    <nd ref="257737454"/>
    <nd ref="257737453"/>
    <nd ref="257737452"/>
    <nd ref="155335898"/>
    <nd ref="155335900"/>
    <nd ref="246627598"/>
    <nd ref="155335901"/>
    <nd ref="246627510"/>
    <nd ref="257737781"/>
    <nd ref="155335902"/>
    <tag k="created_by" v="Potlatch 0.8a"/>
    <tag k="highway" v="residential"/>
    <tag k="name" v="Walter-Delius-Straße"/>
  </way>
  <way id="15572681" version="7" timestamp="2008-12-12T01:06:33Z" uid="42429" user="FK270673" changeset="325856">
    <nd ref="257737458"/>
    <nd ref="257737457"/>
    <nd ref="257737456"/>
    <nd ref="257737455"/>
    <nd ref="257737454"/>
    <nd ref="257737453"/>
    <nd ref="257737452"/>
    <nd ref="155335898"/>
    <nd ref="155335900"/>
    <nd ref="246627598"/>
    <nd ref="155335901"/>
    <nd ref="246627510"/>
    <nd ref="257737781"/>
    <nd ref="155335902"/>
    <tag k="created_by" v="Potlatch 0.10f"/>
    <tag k="highway" v="residential"/>
    <tag k="maxspeed" v="30"/>
    <tag k="name" v="Walter-Delius-Straße"/>
  </way>
  <way id="15572681" version="8" timestamp="2009-11-16T21:14:41Z" uid="42429" user="FK270673" changeset="3136043">
    <nd ref="257737458"/>
    <nd ref="257737457"/>
    <nd ref="257737456"/>
    <nd ref="257737455"/>
    <nd ref="257737454"/>
    <nd ref="257737453"/>
    <nd ref="257737452"/>
    <nd ref="155335898"/>
    <nd ref="155335900"/>
    <nd ref="246627598"/>
    <nd ref="155335901"/>
    <nd ref="246627510"/>
    <nd ref="257737781"/>
    <nd ref="155335902"/>
    <tag k="highway" v="residential"/>
    <tag k="maxspeed" v="30"/>
    <tag k="name" v="Walter-Delius-Straße"/>
  </way>
  <way id="15572681" version="9" timestamp="2010-08-18T21:59:12Z" uid="6269" user="Mueck" changeset="5531017">
    <nd ref="257737458"/>
    <nd ref="257737457"/>
    <nd ref="257737456"/>
    <nd ref="867473558"/>
    <nd ref="257737455"/>
    <nd ref="257737454"/>
    <nd ref="257737453"/>
    <nd ref="257737452"/>
    <nd ref="155335898"/>
    <nd ref="155335900"/>
    <nd ref="246627598"/>
    <nd ref="155335901"/>
    <nd ref="246627510"/>
    <nd ref="257737781"/>
    <nd ref="155335902"/>
    <tag k="highway" v="residential"/>
    <tag k="maxspeed" v="30"/>
    <tag k="name" v="Walter-Delius-Straße"/>
  </way>
  <way id="15572681" version="10" timestamp="2010-12-05T13:19:06Z" uid="6269" user="Mueck" changeset="6549831">
    <nd ref="257737458"/>
    <nd ref="257737457"/>
    <nd ref="1022651167"/>
    <nd ref="257737456"/>
    <nd ref="867473558"/>
    <nd ref="257737455"/>
    <nd ref="257737454"/>
    <nd ref="257737453"/>
    <nd ref="257737452"/>
    <nd ref="155335898"/>
    <nd ref="155335900"/>
    <nd ref="246627598"/>
    <nd ref="155335901"/>
    <nd ref="246627510"/>
    <nd ref="257737781"/>
    <nd ref="155335902"/>
    <tag k="highway" v="residential"/>
    <tag k="maxspeed" v="30"/>
    <tag k="name" v="Walter-Delius-Straße"/>
  </way>
  <way id="15572681" version="11" timestamp="2011-02-14T19:05:09Z" uid="114813" user="Chrisuu" changeset="7288360">
    <nd ref="257737458"/>
    <nd ref="257737457"/>
    <nd ref="1022651167"/>
    <nd ref="257737456"/>
    <nd ref="867473558"/>
    <nd ref="257737455"/>
    <nd ref="257737454"/>
    <nd ref="257737453"/>
    <nd ref="257737452"/>
    <nd ref="155335898"/>
    <nd ref="155335900"/>
    <nd ref="246627598"/>
    <nd ref="155335901"/>
    <nd ref="246627510"/>
    <nd ref="257737781"/>
    <nd ref="155335902"/>
    <tag k="highway" v="residential"/>
    <tag k="maxspeed" v="30"/>
    <tag k="name" v="Walter-Delius-Straße"/>
    <tag k="surface" v="asphalt"/>
  </way>
  <way id="15572681" version="12" timestamp="2011-02-28T09:36:00Z" uid="114813" user="Chrisuu" changeset="7418757">
    <nd ref="257737458"/>
    <nd ref="257737457"/>
    <nd ref="1022651167"/>
    <nd ref="257737456"/>
    <nd ref="867473558"/>
    <nd ref="257737455"/>
    <nd ref="257737454"/>
    <nd ref="1178846264"/>
    <nd ref="257737453"/>
    <nd ref="257737452"/>
    <nd ref="155335898"/>
    <nd ref="155335900"/>
    <nd ref="246627598"/>
    <nd ref="155335901"/>
    <nd ref="246627510"/>
    <nd ref="257737781"/>
    <nd ref="155335902"/>
    <tag k="highway" v="residential"/>
    <tag k="maxspeed" v="30"/>
    <tag k="name" v="Walter-Delius-Straße"/>
    <tag k="surface" v="asphalt"/>
  </way>
  <way id="15572735" version="4" timestamp="2008-02-11T15:53:40Z" uid="6269" user="Mueck" changeset="100882">
    <nd ref="246627509"/>
    <nd ref="155335902"/>
    <nd ref="155335904"/>
    <nd ref="155335905"/>
    <tag k="created_by" v="Potlatch 0.7"/>
    <tag k="highway" v="residential"/>
    <tag k="name" v="Hartwigstraße"/>
    <tag k="oneway" v="true"/>
  </way>
  <way id="15572735" version="5" timestamp="2008-04-15T15:26:20Z" uid="6269" user="Mueck" changeset="153723">
    <nd ref="246627509"/>
    <nd ref="155335902"/>
    <nd ref="257737445"/>
    <nd ref="155335904"/>
    <nd ref="257737444"/>
    <nd ref="155335905"/>
    <tag k="created_by" v="Potlatch 0.7"/>
    <tag k="highway" v="residential"/>
    <tag k="name" v="Hartwigstraße"/>
    <tag k="oneway" v="true"/>
  </way>
  <way id="15572735" version="6" timestamp="2008-04-18T00:13:12Z" uid="6269" user="Mueck" changeset="181080">
    <nd ref="246627509"/>
    <nd ref="155335902"/>
    <tag k="created_by" v="Potlatch 0.8a"/>
    <tag k="highway" v="residential"/>
    <tag k="name" v="Hartwigstraße"/>
    <tag k="oneway" v="true"/>
  </way>
  <way id="15572735" version="7" timestamp="2008-04-18T00:13:22Z" uid="6269" user="Mueck" changeset="181080">
    <nd ref="246627509"/>
    <nd ref="155335902"/>
    <tag k="created_by" v="Potlatch 0.8a"/>
    <tag k="cycleway" v="opposite_lane"/>
    <tag k="highway" v="residential"/>
    <tag k="name" v="Hartwigstraße"/>
    <tag k="oneway" v="true"/>
  </way>
  <way id="15572735" version="8" timestamp="2009-04-17T00:56:17Z" uid="103885" user="logicbot" changeset="603450">
    <nd ref="246627509"/>
    <nd ref="155335902"/>
    <tag k="created_by" v="Potlatch 0.8a"/>
    <tag k="cycleway" v="opposite_lane"/>
    <tag k="highway" v="residential"/>
    <tag k="name" v="Hartwigstraße"/>
    <tag k="oneway" v="yes"/>
  </way>
  <way id="15572735" version="9" timestamp="2009-11-16T21:12:12Z" uid="42429" user="FK270673" changeset="3136043">
    <nd ref="246627509"/>
    <nd ref="155335902"/>
    <tag k="cycleway" v="opposite_lane"/>
    <tag k="highway" v="residential"/>
    <tag k="name" v="Hartwigstraße"/>
    <tag k="oneway" v="yes"/>
  </way>
  <way id="15572735" version="10" timestamp="2010-08-22T21:14:27Z" uid="6269" user="Mueck" changeset="5565943">
    <nd ref="246627509"/>
    <nd ref="874457382"/>
    <nd ref="155335902"/>
    <tag k="cycleway" v="opposite_lane"/>
    <tag k="highway" v="residential"/>
    <tag k="name" v="Hartwigstraße"/>
    <tag k="oneway" v="yes"/>
  </way>
  <way id="15572735" version="11" timestamp="2011-02-14T19:05:09Z" uid="114813" user="Chrisuu" changeset="7288360">
    <nd ref="246627509"/>
    <nd ref="874457382"/>
    <nd ref="155335902"/>
    <tag k="cycleway" v="opposite_lane"/>
    <tag k="highway" v="residential"/>
    <tag k="name" v="Hartwigstraße"/>
    <tag k="oneway" v="yes"/>
    <tag k="surface" v="asphalt"/>
  </way>
  <way id="15572735" version="12" timestamp="2011-02-24T18:32:29Z" uid="114813" user="Chrisuu" changeset="7384040">
    <nd ref="246627509"/>
    <nd ref="874457382"/>
    <nd ref="155335902"/>
    <tag k="cycleway" v="opposite_lane"/>
    <tag k="highway" v="residential"/>
    <tag k="maxspeed" v="30"/>
    <tag k="name" v="Hartwigstraße"/>
    <tag k="oneway" v="yes"/>
    <tag k="surface" v="asphalt"/>
  </way>
</osm>
