<?xml version='1.0' encoding='UTF-8'?>
<osm version="0.6" generator="libosmium/2.20.0">
  <way id="15675252" version="4" timestamp="2010-07-07T23:59:47Z" uid="74617" user="JohnSmith" changeset="5162525">
    <nd ref="129680857"/>
    <nd ref="26391710"/>
    <tag k="highway" v="residential"/>
    <tag k="maxspeed" v="50"/>
    <tag k="maxspeed:source" v="default residential speed limit in Australia"/>
    <tag k="name" v="Miller Avenue"/>
    <tag k="source" v="survey"/>
  </way>
  <way id="15675252" version="5" timestamp="2010-07-08T00:09:43Z" uid="74617" user="JohnSmith" changeset="5162525">
    <nd ref="129680857"/>
    <nd ref="26391710"/>
    <tag k="highway" v="residential"/>
    <tag k="maxspeed" v="50"/>
    <tag k="maxspeed:source" v="default residential speed limit in Australia"/>
    <tag k="name" v="Miller Avenue"/>
    <tag k="source" v="survey"/>
  </way>
  <way id="15675252" version="6" timestamp="2012-01-15T13:54:14Z" uid="147510" user="woodpeck_fixbot" changeset="10397711">
    <nd ref="129680857"/>
    <nd ref="26391710"/>
    <tag k="highway" v="residential"/>
    <tag k="name" v="Miller Avenue"/>
    <tag k="source" v="survey"/>
  </way>
  <way id="15675634" version="2" timestamp="2008-07-04T07:13:28Z" uid="6975" user="ulfl" changeset="389415">
    <nd ref="28582237"/>
    <nd ref="156333196"/>
    <nd ref="156333197"/>
    <tag k="highway" v="pedestrian"/>
  </way>
  <way id="15675634" version="3" timestamp="2008-10-03T17:58:39Z" uid="36731" user="Nagi" changeset="43759">
    <nd ref="28582237"/>
    <nd ref="156333196"/>
    <nd ref="156333197"/>
    <tag k="highway" v="pedestrian"/>
    <tag k="name" v="Lutherstrasse"/>
  </way>
  <way id="15675634" version="4" timestamp="2008-10-07T07:54:40Z" uid="56287" user="RalpH_himself" changeset="128334">
    <nd ref="28582237"/>
    <nd ref="156333196"/>
    <nd ref="302782946"/>
    <nd ref="156333197"/>
    <tag k="created_by" v="Potlatch 0.10d"/>
    <tag k="highway" v="pedestrian"/>
    <tag k="name" v="Lutherstrasse"/>
  </way>
  <way id="15675634" version="5" timestamp="2010-11-17T08:23:36Z" uid="186651" user="Teddych" changeset="6390904">
    <nd ref="28582237"/>
    <nd ref="156333196"/>
    <nd ref="302782946"/>
    <nd ref="156333197"/>
    <tag k="highway" v="pedestrian"/>
    <tag k="name" v="Lutherstrasse"/>
  </way>
  <way id="15675634" version="6" timestamp="2011-03-13T22:42:45Z" uid="52921" user="t-i" changeset="7551520">
    <nd ref="28582237"/>
    <nd ref="156333196"/>
    <nd ref="302782946"/>
    <tag k="highway" v="pedestrian"/>
    <tag k="name" v="Lutherstrasse"/>
    <tag k="vehicle" v="no"/>
  </way>
  <way id="15675781" version="3" timestamp="2008-07-04T07:13:26Z" uid="6975" user="ulfl" changeset="389415">
    <nd ref="156337286"/>
    <nd ref="156337287"/>
    <nd ref="156337288"/>
    <nd ref="156337289"/>
    <nd ref="107197657"/>
    <tag k="highway" v="pedestrian"/>
    <tag k="name" v="Strassburgstrasse"/>
  </way>
  <way id="15675781" version="4" timestamp="2008-09-18T17:40:09Z" uid="36731" user="Nagi" changeset="660459">
    <nd ref="156337286"/>
    <nd ref="156337287"/>
    <nd ref="156337288"/>
    <nd ref="156337289"/>
    <nd ref="107197657"/>
    <tag k="created_by" v="Potlatch 0.10b"/>
    <tag k="foot" v="yes"/>
    <tag k="highway" v="footway"/>
    <tag k="name" v="Strassburgstrasse"/>
  </way>
  <way id="15675781" version="5" timestamp="2008-09-19T21:56:33Z" uid="36731" user="Nagi" changeset="665300">
    <nd ref="156337286"/>
    <nd ref="156337287"/>
    <nd ref="156337288"/>
    <nd ref="156337289"/>
    <nd ref="107197657"/>
    <tag k="created_by" v="Potlatch 0.10b"/>
    <tag k="foot" v="yes"/>
    <tag k="highway" v="footway"/>
    <tag k="name" v="Strassburgstrasse"/>
    <tag k="oneway" v="no"/>
  </way>
  <way id="15675781" version="6" timestamp="2009-03-22T21:42:59Z" uid="36731" user="Nagi" changeset="845018">
    <nd ref="156337286"/>
    <nd ref="156337287"/>
    <nd ref="156337288"/>
    <nd ref="156337289"/>
    <nd ref="364829576"/>
    <nd ref="107197657"/>
    <tag k="created_by" v="Potlatch 0.10b"/>
    <tag k="foot" v="yes"/>
    <tag k="highway" v="footway"/>
    <tag k="name" v="Strassburgstrasse"/>
    <tag k="oneway" v="no"/>
  </way>
  <way id="15675781" version="7" timestamp="2009-03-27T07:46:10Z" uid="13840" user="mcdmx" changeset="862976">
    <nd ref="156337286"/>
    <nd ref="156337287"/>
    <nd ref="156337288"/>
    <nd ref="297562383"/>
    <nd ref="156337289"/>
    <nd ref="364829576"/>
    <nd ref="107197657"/>
    <tag k="created_by" v="Potlatch 0.10b"/>
    <tag k="foot" v="yes"/>
    <tag k="highway" v="footway"/>
    <tag k="name" v="Strassburgstrasse"/>
    <tag k="oneway" v="no"/>
  </way>
  <way id="15675781" version="8" timestamp="2010-10-03T17:15:07Z" uid="78090" user="Roman Fischer" changeset="5946254">
    <nd ref="156337286"/>
    <nd ref="936942806"/>
    <nd ref="156337287"/>
    <nd ref="156337288"/>
    <nd ref="297562383"/>
    <nd ref="936942716"/>
    <nd ref="156337289"/>
    <nd ref="364829576"/>
    <nd ref="107197657"/>
    <tag k="foot" v="yes"/>
    <tag k="highway" v="footway"/>
    <tag k="name" v="Strassburgstrasse"/>
    <tag k="oneway" v="no"/>
  </way>
  <way id="15675781" version="9" timestamp="2011-07-09T09:34:18Z" uid="3516" user="BiIbo" changeset="8672801">
    <nd ref="156337286"/>
    <nd ref="936942806"/>
    <nd ref="156337287"/>
    <nd ref="156337288"/>
    <nd ref="297562383"/>
    <nd ref="936942716"/>
    <nd ref="156337289"/>
    <nd ref="364829576"/>
    <nd ref="107197657"/>
    <tag k="highway" v="footway"/>
    <tag k="name" v="Strassburgstrasse"/>
    <tag k="oneway" v="no"/>
  </way>
  <way id="15675793" version="5" timestamp="2010-04-03T02:43:36Z" uid="9719" user="dvaey" changeset="4309526"/>
  <way id="15675880" version="2" timestamp="2008-03-10T07:11:25Z" uid="7617" user="Franc" changeset="299079">
    <nd ref="156340494"/>
    <nd ref="156340495"/>
    <nd ref="156340497"/>
    <nd ref="156340498"/>
    <nd ref="156340499"/>
    <nd ref="156340500"/>
    <nd ref="156340501"/>
    <nd ref="156340502"/>
    <nd ref="156340494"/>
    <tag k="amenity" v="school"/>
    <tag k="created_by" v="Potlatch 0.5d"/>
    <tag k="name" v="Normanhurst Boys High School"/>
  </way>
  <way id="15675880" version="3" timestamp="2009-10-14T08:53:30Z" uid="185500" user="cdw1993" changeset="2843411">
    <nd ref="156340494"/>
    <nd ref="156340495"/>
    <nd ref="156340497"/>
    <nd ref="156340498"/>
    <nd ref="156340499"/>
    <nd ref="156340500"/>
    <nd ref="156340501"/>
    <nd ref="156340502"/>
    <nd ref="156340494"/>
    <tag k="amenity" v="school"/>
    <tag k="name" v="Normanhurst Boys&apos; High School"/>
  </way>
  <way id="15675880" version="4" timestamp="2009-12-31T06:19:02Z" uid="61114" user="Trav" changeset="3496304">
    <nd ref="156340494"/>
    <nd ref="156340495"/>
    <nd ref="156340497"/>
    <nd ref="156340498"/>
    <nd ref="156340499"/>
    <nd ref="156340500"/>
    <nd ref="156340501"/>
    <nd ref="156340502"/>
    <nd ref="156340494"/>
    <tag k="amenity" v="school"/>
    <tag k="layer" v="-2"/>
    <tag k="name" v="Normanhurst Boys&apos; High School"/>
  </way>
</osm>
