<?xml version='1.0' encoding='UTF-8'?>
<osm version="0.6" generator="libosmium/2.20.0">
  <way id="15734377" version="4" timestamp="2010-02-15T05:06:36Z" uid="74617" user="JohnSmith" changeset="3880242">
    <nd ref="157375467"/>
    <nd ref="157375869"/>
    <nd ref="157376121"/>
    <nd ref="157375870"/>
    <tag k="highway" v="residential"/>
    <tag k="maxspeed" v="50"/>
    <tag k="name" v="Vera Street"/>
  </way>
  <way id="15734377" version="5" timestamp="2012-01-15T14:23:28Z" uid="147510" user="woodpeck_fixbot" changeset="10398186">
    <nd ref="157375467"/>
    <nd ref="157375869"/>
    <nd ref="157376121"/>
    <nd ref="157375870"/>
    <tag k="highway" v="residential"/>
    <tag k="name" v="Vera Street"/>
  </way>
  <way id="15734389" version="3" timestamp="2010-07-07T07:38:36Z" uid="74617" user="JohnSmith" changeset="5156250">
    <nd ref="157375971"/>
    <nd ref="631464852"/>
    <nd ref="157376276"/>
    <tag k="highway" v="residential"/>
    <tag k="maxspeed" v="50"/>
    <tag k="maxspeed:source" v="default residential speed limit in Australia"/>
    <tag k="name" v="Bourke Street"/>
  </way>
  <way id="15734389" version="4" timestamp="2011-01-07T08:25:28Z" uid="4467" user="Rosscoe" changeset="6890142">
    <nd ref="157375971"/>
    <nd ref="1087954950"/>
    <nd ref="1087954774"/>
    <nd ref="631464852"/>
    <nd ref="157376276"/>
    <tag k="highway" v="residential"/>
    <tag k="maxspeed" v="50"/>
    <tag k="maxspeed:source" v="default residential speed limit in Australia"/>
    <tag k="name" v="Bourke Street"/>
  </way>
  <way id="15734389" version="5" timestamp="2012-01-15T14:23:29Z" uid="147510" user="woodpeck_fixbot" changeset="10398186">
    <nd ref="157375971"/>
    <nd ref="1087954950"/>
    <nd ref="1087954774"/>
    <nd ref="631464852"/>
    <nd ref="157376276"/>
    <tag k="highway" v="residential"/>
    <tag k="name" v="Bourke Street"/>
  </way>
  <way id="15734397" version="4" timestamp="2010-02-15T05:06:39Z" uid="74617" user="JohnSmith" changeset="3880242">
    <nd ref="157363669"/>
    <nd ref="187801653"/>
    <nd ref="157376121"/>
    <tag k="highway" v="residential"/>
    <tag k="maxspeed" v="50"/>
    <tag k="name" v="Warrawee Street"/>
  </way>
  <way id="15734397" version="5" timestamp="2012-01-15T14:23:37Z" uid="147510" user="woodpeck_fixbot" changeset="10398186">
    <nd ref="157363669"/>
    <nd ref="187801653"/>
    <nd ref="157376121"/>
    <tag k="highway" v="residential"/>
    <tag k="name" v="Warrawee Street"/>
  </way>
  <way id="15734406" version="2" timestamp="2010-07-07T07:39:49Z" uid="74617" user="JohnSmith" changeset="5156250">
    <nd ref="157376276"/>
    <nd ref="157376792"/>
    <tag k="highway" v="residential"/>
    <tag k="maxspeed" v="50"/>
    <tag k="maxspeed:source" v="default residential speed limit in Australia"/>
    <tag k="name" v="Mirool Street"/>
  </way>
  <way id="15734406" version="3" timestamp="2011-01-07T08:26:19Z" uid="4467" user="Rosscoe" changeset="6890142">
    <nd ref="157376276"/>
    <nd ref="1087954956"/>
    <nd ref="157376792"/>
    <tag k="highway" v="residential"/>
    <tag k="maxspeed" v="50"/>
    <tag k="maxspeed:source" v="default residential speed limit in Australia"/>
    <tag k="name" v="Mirool Street"/>
  </way>
  <way id="15734406" version="4" timestamp="2012-01-15T14:23:39Z" uid="147510" user="woodpeck_fixbot" changeset="10398186">
    <nd ref="157376276"/>
    <nd ref="1087954956"/>
    <nd ref="157376792"/>
    <tag k="highway" v="residential"/>
    <tag k="name" v="Mirool Street"/>
  </way>
  <way id="15734438" version="16" timestamp="2010-07-07T07:40:06Z" uid="74617" user="JohnSmith" changeset="5156250">
    <nd ref="157376792"/>
    <nd ref="181800300"/>
    <nd ref="181804463"/>
    <nd ref="157377636"/>
    <nd ref="181798904"/>
    <nd ref="181791292"/>
    <nd ref="181802122"/>
    <nd ref="181803195"/>
    <nd ref="157377637"/>
    <nd ref="186348248"/>
    <nd ref="597558603"/>
    <nd ref="186347147"/>
    <nd ref="600695811"/>
    <nd ref="186347090"/>
    <nd ref="186347038"/>
    <nd ref="157377639"/>
    <tag k="highway" v="residential"/>
    <tag k="maxspeed" v="50"/>
    <tag k="maxspeed:source" v="default residential speed limit in Australia"/>
    <tag k="name" v="Piper Street"/>
    <tag k="source" v="survey"/>
  </way>
  <way id="15734438" version="17" timestamp="2010-08-01T22:18:50Z" uid="20949" user="Ebenezer" changeset="5375711">
    <nd ref="157376792"/>
    <nd ref="181800300"/>
    <nd ref="181804463"/>
    <nd ref="157377636"/>
    <nd ref="181798904"/>
    <nd ref="181791292"/>
    <nd ref="181802122"/>
    <nd ref="181803195"/>
    <nd ref="157377637"/>
    <nd ref="186348248"/>
    <nd ref="597558603"/>
    <nd ref="186347147"/>
    <nd ref="600695811"/>
    <nd ref="186347090"/>
    <nd ref="186347038"/>
    <nd ref="842601261"/>
    <nd ref="842601263"/>
    <tag k="highway" v="residential"/>
    <tag k="maxspeed" v="50"/>
    <tag k="name" v="Piper Street"/>
    <tag k="source" v="survey"/>
  </way>
  <way id="15734438" version="18" timestamp="2011-01-07T08:25:56Z" uid="4467" user="Rosscoe" changeset="6890142">
    <nd ref="1087955043"/>
    <nd ref="157376792"/>
    <nd ref="181800300"/>
    <nd ref="181804463"/>
    <nd ref="1087955070"/>
    <tag k="highway" v="residential"/>
    <tag k="maxspeed" v="50"/>
    <tag k="name" v="Piper Street"/>
    <tag k="source" v="survey"/>
  </way>
  <way id="15734438" version="19" timestamp="2012-01-15T14:23:44Z" uid="147510" user="woodpeck_fixbot" changeset="10398186">
    <nd ref="1087955043"/>
    <nd ref="157376792"/>
    <nd ref="181800300"/>
    <nd ref="181804463"/>
    <nd ref="1087955070"/>
    <tag k="highway" v="residential"/>
    <tag k="name" v="Piper Street"/>
    <tag k="source" v="survey"/>
  </way>
  <way id="15734500" version="5" timestamp="2010-02-15T05:06:33Z" uid="74617" user="JohnSmith" changeset="3880242">
    <nd ref="59852639"/>
    <nd ref="436831678"/>
    <nd ref="157363429"/>
    <nd ref="157363407"/>
    <nd ref="157363344"/>
    <nd ref="59852641"/>
    <nd ref="157363651"/>
    <tag k="highway" v="residential"/>
    <tag k="maxspeed" v="50"/>
    <tag k="name" v="Elizabeth Street"/>
  </way>
  <way id="15734500" version="6" timestamp="2010-07-04T07:02:29Z" uid="211951" user="Dr Paul Martin" changeset="5130094">
    <nd ref="59852639"/>
    <nd ref="436831678"/>
    <nd ref="800051256"/>
    <nd ref="157363429"/>
    <nd ref="157363407"/>
    <nd ref="157363344"/>
    <nd ref="59852641"/>
    <nd ref="157363651"/>
    <tag k="highway" v="residential"/>
    <tag k="maxspeed" v="50"/>
    <tag k="name" v="Elizabeth Street"/>
  </way>
  <way id="15734500" version="7" timestamp="2012-01-15T14:23:45Z" uid="147510" user="woodpeck_fixbot" changeset="10398186">
    <nd ref="59852639"/>
    <nd ref="436831678"/>
    <nd ref="800051256"/>
    <nd ref="157363429"/>
    <nd ref="157363407"/>
    <nd ref="157363344"/>
    <nd ref="59852641"/>
    <nd ref="157363651"/>
    <tag k="highway" v="residential"/>
    <tag k="name" v="Elizabeth Street"/>
  </way>
  <way id="15734514" version="14" timestamp="2010-07-07T07:39:43Z" uid="74617" user="JohnSmith" changeset="5156250">
    <nd ref="187954071"/>
    <nd ref="187954072"/>
    <nd ref="187954069"/>
    <nd ref="157380836"/>
    <nd ref="157378272"/>
    <nd ref="186347057"/>
    <nd ref="186347067"/>
    <nd ref="186347148"/>
    <nd ref="597558606"/>
    <nd ref="186347491"/>
    <nd ref="186348103"/>
    <nd ref="157379177"/>
    <tag k="highway" v="residential"/>
    <tag k="maxspeed" v="50"/>
    <tag k="maxspeed:source" v="default residential speed limit in Australia"/>
    <tag k="name" v="Johnston Street"/>
    <tag k="source" v="survey"/>
  </way>
  <way id="15734514" version="15" timestamp="2011-01-07T09:30:29Z" uid="4467" user="Rosscoe" changeset="6890598">
    <nd ref="187954071"/>
    <nd ref="187954072"/>
    <nd ref="187954069"/>
    <nd ref="1088025734"/>
    <tag k="highway" v="residential"/>
    <tag k="maxspeed" v="50"/>
    <tag k="maxspeed:source" v="default residential speed limit in Australia"/>
    <tag k="name" v="Johnston Street"/>
    <tag k="source" v="survey"/>
  </way>
  <way id="15734514" version="16" timestamp="2012-01-15T14:23:47Z" uid="147510" user="woodpeck_fixbot" changeset="10398186">
    <nd ref="187954071"/>
    <nd ref="187954072"/>
    <nd ref="187954069"/>
    <nd ref="1088025734"/>
    <tag k="highway" v="residential"/>
    <tag k="name" v="Johnston Street"/>
    <tag k="source" v="survey"/>
  </way>
  <way id="15734631" version="3" timestamp="2010-07-07T07:38:51Z" uid="74617" user="JohnSmith" changeset="5156250">
    <nd ref="157381924"/>
    <nd ref="157382329"/>
    <nd ref="157382330"/>
    <nd ref="157382332"/>
    <nd ref="157382334"/>
    <tag k="highway" v="residential"/>
    <tag k="maxspeed" v="50"/>
    <tag k="maxspeed:source" v="default residential speed limit in Australia"/>
    <tag k="name" v="Anchor Road"/>
  </way>
  <way id="15734631" version="4" timestamp="2012-01-15T14:23:49Z" uid="147510" user="woodpeck_fixbot" changeset="10398186">
    <nd ref="157381924"/>
    <nd ref="157382329"/>
    <nd ref="157382330"/>
    <nd ref="157382332"/>
    <nd ref="157382334"/>
    <tag k="highway" v="residential"/>
    <tag k="name" v="Anchor Road"/>
  </way>
  <way id="15734716" version="7" timestamp="2010-07-07T07:40:27Z" uid="74617" user="JohnSmith" changeset="5156250">
    <nd ref="313310609"/>
    <nd ref="621846175"/>
    <nd ref="157384226"/>
    <nd ref="323096345"/>
    <nd ref="323096346"/>
    <nd ref="383080666"/>
    <nd ref="631463076"/>
    <nd ref="621846102"/>
    <tag k="highway" v="residential"/>
    <tag k="maxspeed" v="50"/>
    <tag k="maxspeed:source" v="default residential speed limit in Australia"/>
    <tag k="name" v="The Ringers Road"/>
    <tag k="source" v="survey"/>
    <tag k="surface" v="asphalt"/>
  </way>
  <way id="15734716" version="8" timestamp="2010-08-02T09:32:30Z" uid="20949" user="Ebenezer" changeset="5378307">
    <nd ref="313310609"/>
    <nd ref="621846175"/>
    <nd ref="157384226"/>
    <nd ref="323096345"/>
    <nd ref="323096346"/>
    <nd ref="383080666"/>
    <nd ref="843115113"/>
    <nd ref="631463076"/>
    <nd ref="621846102"/>
    <tag k="highway" v="residential"/>
    <tag k="maxspeed" v="50"/>
    <tag k="name" v="The Ringers Road"/>
    <tag k="source" v="survey"/>
    <tag k="surface" v="asphalt"/>
  </way>
  <way id="15734716" version="9" timestamp="2011-01-30T10:18:57Z" uid="20949" user="Ebenezer" changeset="7131885">
    <nd ref="1127707400"/>
    <nd ref="313310609"/>
    <nd ref="1127707441"/>
    <nd ref="621846175"/>
    <nd ref="157384226"/>
    <nd ref="323096345"/>
    <nd ref="323096346"/>
    <nd ref="383080666"/>
    <nd ref="843115113"/>
    <nd ref="631463076"/>
    <nd ref="1127707414"/>
    <nd ref="621846102"/>
    <tag k="highway" v="residential"/>
    <tag k="maxspeed" v="50"/>
    <tag k="name" v="The Ringers Road"/>
    <tag k="source" v="survey"/>
    <tag k="surface" v="asphalt"/>
  </way>
  <way id="15734716" version="10" timestamp="2011-05-11T08:15:57Z" uid="74617" user="JohnSmith" changeset="8109761">
    <nd ref="1127707400"/>
    <nd ref="313310609"/>
    <nd ref="1127707441"/>
    <nd ref="621846175"/>
    <nd ref="157384226"/>
    <nd ref="323096345"/>
    <nd ref="323096346"/>
    <nd ref="383080666"/>
    <nd ref="843115148"/>
    <nd ref="843115113"/>
    <nd ref="631463076"/>
    <nd ref="843115103"/>
    <nd ref="621846102"/>
    <tag k="highway" v="residential"/>
    <tag k="maxspeed" v="50"/>
    <tag k="name" v="The Ringers Road"/>
    <tag k="source" v="survey"/>
    <tag k="surface" v="asphalt"/>
  </way>
  <way id="15734716" version="11" timestamp="2011-05-11T08:18:37Z" uid="74617" user="JohnSmith" changeset="8109786">
    <nd ref="1127707400"/>
    <nd ref="313310609"/>
    <nd ref="1127707441"/>
    <nd ref="621846175"/>
    <nd ref="157384226"/>
    <nd ref="323096345"/>
    <nd ref="1280103799"/>
    <nd ref="323096346"/>
    <nd ref="383080666"/>
    <nd ref="843115148"/>
    <nd ref="843115113"/>
    <nd ref="631463076"/>
    <nd ref="843115103"/>
    <nd ref="621846102"/>
    <tag k="highway" v="residential"/>
    <tag k="maxspeed" v="50"/>
    <tag k="name" v="The Ringers Road"/>
    <tag k="source" v="survey"/>
    <tag k="surface" v="asphalt"/>
  </way>
  <way id="15734716" version="12" timestamp="2012-01-15T14:23:50Z" uid="147510" user="woodpeck_fixbot" changeset="10398186">
    <nd ref="1127707400"/>
    <nd ref="313310609"/>
    <nd ref="1127707441"/>
    <nd ref="621846175"/>
    <nd ref="157384226"/>
    <nd ref="323096345"/>
    <nd ref="1280103799"/>
    <nd ref="323096346"/>
    <nd ref="383080666"/>
    <nd ref="843115148"/>
    <nd ref="843115113"/>
    <nd ref="631463076"/>
    <nd ref="843115103"/>
    <nd ref="621846102"/>
    <tag k="highway" v="residential"/>
    <tag k="name" v="The Ringers Road"/>
    <tag k="source" v="survey"/>
    <tag k="surface" v="asphalt"/>
  </way>
  <way id="15734814" version="15" timestamp="2011-05-11T08:49:51Z" uid="74617" user="JohnSmith" changeset="8110041">
    <nd ref="1280112964"/>
    <nd ref="157384721"/>
    <nd ref="1127707383"/>
    <nd ref="1127707494"/>
    <nd ref="843115150"/>
    <nd ref="323096343"/>
    <tag k="highway" v="tertiary"/>
    <tag k="name" v="Greg Norman Drive"/>
    <tag k="source" v="survey"/>
    <tag k="surface" v="asphalt"/>
  </way>
</osm>
