<?xml version='1.0' encoding='UTF-8'?>
<osm version="0.6" generator="libosmium/2.20.0">
  <way id="15778017" version="6" timestamp="2010-02-14T15:44:26Z" uid="74617" user="JohnSmith" changeset="3874884">
    <nd ref="158165662"/>
    <nd ref="158165661"/>
    <nd ref="158165660"/>
    <nd ref="158165659"/>
    <nd ref="158165658"/>
    <nd ref="158154023"/>
    <nd ref="158154024"/>
    <nd ref="158154027"/>
    <tag k="highway" v="residential"/>
    <tag k="maxspeed" v="50"/>
    <tag k="name" v="Fairleigh Street"/>
  </way>
  <way id="15778017" version="7" timestamp="2012-01-15T14:49:19Z" uid="147510" user="woodpeck_fixbot" changeset="10398186">
    <nd ref="158165662"/>
    <nd ref="158165661"/>
    <nd ref="158165660"/>
    <nd ref="158165659"/>
    <nd ref="158165658"/>
    <nd ref="158154023"/>
    <nd ref="158154024"/>
    <nd ref="158154027"/>
    <tag k="highway" v="residential"/>
    <tag k="name" v="Fairleigh Street"/>
  </way>
  <way id="15778136" version="5" timestamp="2010-02-14T15:44:55Z" uid="74617" user="JohnSmith" changeset="3874884">
    <nd ref="72895468"/>
    <nd ref="158156102"/>
    <nd ref="158156103"/>
    <nd ref="158156104"/>
    <tag k="highway" v="service"/>
    <tag k="maxspeed" v="50"/>
    <tag k="name" v="Somerset Street"/>
  </way>
  <way id="15778136" version="6" timestamp="2012-01-15T14:49:22Z" uid="147510" user="woodpeck_fixbot" changeset="10398186">
    <nd ref="72895468"/>
    <nd ref="158156102"/>
    <nd ref="158156103"/>
    <nd ref="158156104"/>
    <tag k="highway" v="service"/>
    <tag k="name" v="Somerset Street"/>
  </way>
  <way id="15778167" version="4" timestamp="2010-02-14T15:44:55Z" uid="74617" user="JohnSmith" changeset="3874884">
    <nd ref="158156104"/>
    <nd ref="158156522"/>
    <nd ref="158156523"/>
    <nd ref="158156524"/>
    <tag k="foot" v="yes"/>
    <tag k="highway" v="footway"/>
    <tag k="name" v="Somerset Street"/>
  </way>
  <way id="15778287" version="6" timestamp="2010-02-14T15:44:34Z" uid="74617" user="JohnSmith" changeset="3874884">
    <nd ref="72515855"/>
    <nd ref="158136006"/>
    <nd ref="158136009"/>
    <nd ref="158136010"/>
    <nd ref="158136011"/>
    <nd ref="158136013"/>
    <nd ref="158136014"/>
    <nd ref="158136016"/>
    <nd ref="158136017"/>
    <nd ref="158136018"/>
    <nd ref="158136020"/>
    <nd ref="158136021"/>
    <nd ref="158136023"/>
    <nd ref="158136024"/>
    <nd ref="158136025"/>
    <nd ref="158136026"/>
    <nd ref="158136028"/>
    <nd ref="158136030"/>
    <nd ref="158136031"/>
    <nd ref="158136032"/>
    <nd ref="158136034"/>
    <nd ref="158136035"/>
    <tag k="highway" v="residential"/>
    <tag k="maxspeed" v="50"/>
    <tag k="name" v="Eildon Road"/>
  </way>
  <way id="15778287" version="7" timestamp="2012-01-15T14:49:26Z" uid="147510" user="woodpeck_fixbot" changeset="10398186">
    <nd ref="72515855"/>
    <nd ref="158136006"/>
    <nd ref="158136009"/>
    <nd ref="158136010"/>
    <nd ref="158136011"/>
    <nd ref="158136013"/>
    <nd ref="158136014"/>
    <nd ref="158136016"/>
    <nd ref="158136017"/>
    <nd ref="158136018"/>
    <nd ref="158136020"/>
    <nd ref="158136021"/>
    <nd ref="158136023"/>
    <nd ref="158136024"/>
    <nd ref="158136025"/>
    <nd ref="158136026"/>
    <nd ref="158136028"/>
    <nd ref="158136030"/>
    <nd ref="158136031"/>
    <nd ref="158136032"/>
    <nd ref="158136034"/>
    <nd ref="158136035"/>
    <tag k="highway" v="residential"/>
    <tag k="name" v="Eildon Road"/>
  </way>
  <way id="15778741" version="14" timestamp="2010-02-14T15:44:58Z" uid="74617" user="JohnSmith" changeset="3874884">
    <nd ref="156552811"/>
    <nd ref="156552810"/>
    <nd ref="156552809"/>
    <nd ref="156552808"/>
    <nd ref="156552807"/>
    <nd ref="353173768"/>
    <nd ref="156552806"/>
    <nd ref="156552805"/>
    <nd ref="353173769"/>
    <nd ref="156552804"/>
    <nd ref="156552802"/>
    <nd ref="353173823"/>
    <nd ref="156561345"/>
    <nd ref="353174070"/>
    <nd ref="156561346"/>
    <nd ref="353174950"/>
    <nd ref="353174951"/>
    <nd ref="156561347"/>
    <tag k="highway" v="tertiary"/>
    <tag k="name" v="Fuller Street"/>
  </way>
  <way id="15778789" version="3" timestamp="2010-02-14T15:44:26Z" uid="74617" user="JohnSmith" changeset="3874884">
    <nd ref="158165602"/>
    <nd ref="26338313"/>
    <nd ref="26338312"/>
    <nd ref="26338323"/>
    <tag k="highway" v="residential"/>
    <tag k="maxspeed" v="50"/>
    <tag k="name" v="Stoneleigh Street"/>
  </way>
  <way id="15778789" version="4" timestamp="2012-01-15T14:49:29Z" uid="147510" user="woodpeck_fixbot" changeset="10398186">
    <nd ref="158165602"/>
    <nd ref="26338313"/>
    <nd ref="26338312"/>
    <nd ref="26338323"/>
    <tag k="highway" v="residential"/>
    <tag k="name" v="Stoneleigh Street"/>
  </way>
  <way id="15778811" version="4" timestamp="2010-02-14T15:45:35Z" uid="74617" user="JohnSmith" changeset="3874884">
    <nd ref="158165602"/>
    <nd ref="158168182"/>
    <nd ref="158168183"/>
    <nd ref="72468775"/>
    <tag k="highway" v="residential"/>
    <tag k="maxspeed" v="50"/>
    <tag k="name" v="Stoneleigh Street"/>
    <tag k="oneway" v="yes"/>
  </way>
  <way id="15778811" version="5" timestamp="2012-01-15T14:49:33Z" uid="147510" user="woodpeck_fixbot" changeset="10398186">
    <nd ref="158165602"/>
    <nd ref="158168182"/>
    <nd ref="158168183"/>
    <nd ref="72468775"/>
    <tag k="highway" v="residential"/>
    <tag k="name" v="Stoneleigh Street"/>
    <tag k="oneway" v="yes"/>
  </way>
  <way id="15778876" version="5" timestamp="2010-02-14T15:41:57Z" uid="74617" user="JohnSmith" changeset="3874884">
    <nd ref="26338185"/>
    <nd ref="158169099"/>
    <nd ref="158169101"/>
    <nd ref="158169102"/>
    <tag k="highway" v="residential"/>
    <tag k="maxspeed" v="50"/>
    <tag k="name" v="Lucas Street"/>
    <tag k="surface" v="asphalt"/>
  </way>
  <way id="15778876" version="6" timestamp="2011-05-24T00:41:57Z" uid="129262" user="ElderKorean" changeset="8231504">
    <nd ref="26338185"/>
    <nd ref="158169102"/>
    <tag k="highway" v="residential"/>
    <tag k="maxspeed" v="50"/>
    <tag k="name" v="Lucas Street"/>
    <tag k="surface" v="asphalt"/>
  </way>
  <way id="15778876" version="7" timestamp="2012-01-15T14:49:34Z" uid="147510" user="woodpeck_fixbot" changeset="10398186">
    <nd ref="26338185"/>
    <nd ref="158169102"/>
    <tag k="highway" v="residential"/>
    <tag k="name" v="Lucas Street"/>
    <tag k="surface" v="asphalt"/>
  </way>
  <way id="15778896" version="7" timestamp="2010-02-14T15:45:37Z" uid="74617" user="JohnSmith" changeset="3874884">
    <nd ref="156577964"/>
    <nd ref="158169472"/>
    <tag k="highway" v="service"/>
    <tag k="maxspeed" v="50"/>
    <tag k="name" v="Reid Lane"/>
    <tag k="service" v="alley"/>
    <tag k="surface" v="asphalt"/>
  </way>
  <way id="15778896" version="8" timestamp="2012-01-15T14:49:35Z" uid="147510" user="woodpeck_fixbot" changeset="10398186">
    <nd ref="156577964"/>
    <nd ref="158169472"/>
    <tag k="highway" v="service"/>
    <tag k="name" v="Reid Lane"/>
    <tag k="service" v="alley"/>
    <tag k="surface" v="asphalt"/>
  </way>
  <way id="15778960" version="3" timestamp="2010-02-14T15:50:01Z" uid="74617" user="JohnSmith" changeset="3874884">
    <nd ref="158170112"/>
    <nd ref="158170308"/>
    <nd ref="158170310"/>
    <tag k="highway" v="residential"/>
    <tag k="maxspeed" v="50"/>
    <tag k="name" v="Thistle Street"/>
    <tag k="oneway" v="yes"/>
  </way>
  <way id="15778960" version="4" timestamp="2011-05-20T05:13:46Z" uid="129262" user="ElderKorean" changeset="8195262"/>
</osm>
