<?xml version='1.0' encoding='UTF-8'?>
<osm version="0.6" generator="libosmium/2.20.0">
  <way id="15822149" version="1" timestamp="2007-12-10T01:21:53Z" uid="17602" user="B10xyz" changeset="246950">
    <nd ref="159001113"/>
    <nd ref="159005826"/>
    <tag k="created_by" v="Potlatch 0.5d"/>
    <tag k="highway" v="residential"/>
  </way>
  <way id="15822149" version="2" timestamp="2008-11-02T15:09:17Z" uid="66391" user="geozeisig" changeset="662332">
    <nd ref="159001113"/>
    <nd ref="309404207"/>
    <nd ref="159005826"/>
    <tag k="created_by" v="Potlatch 0.5d"/>
    <tag k="highway" v="residential"/>
    <tag k="name" v="Samantenweg"/>
    <tag k="surface" v="unpaved"/>
  </way>
  <way id="15822149" version="3" timestamp="2008-11-02T15:13:14Z" uid="66391" user="geozeisig" changeset="662332">
    <nd ref="159001113"/>
    <nd ref="309404207"/>
    <nd ref="309405661"/>
    <nd ref="159005826"/>
    <tag k="created_by" v="Potlatch 0.5d"/>
    <tag k="highway" v="residential"/>
    <tag k="name" v="Samantenweg"/>
    <tag k="surface" v="unpaved"/>
  </way>
  <way id="15822149" version="4" timestamp="2009-02-21T19:53:15Z" uid="101355" user="ottokar55" changeset="591860">
    <nd ref="159001113"/>
    <nd ref="309404207"/>
    <nd ref="309405661"/>
    <nd ref="159005826"/>
    <tag k="created_by" v="Potlatch 0.10f"/>
    <tag k="highway" v="residential"/>
    <tag k="name" v="Samatenweg"/>
    <tag k="surface" v="unpaved"/>
  </way>
  <way id="15822149" version="5" timestamp="2010-12-06T07:50:26Z" uid="66391" user="geozeisig" changeset="6559756">
    <nd ref="159001113"/>
    <nd ref="309404207"/>
    <nd ref="309405661"/>
    <nd ref="1024582196"/>
    <nd ref="159005826"/>
    <tag k="highway" v="residential"/>
    <tag k="name" v="Samatenweg"/>
    <tag k="surface" v="unpaved"/>
  </way>
  <way id="15822149" version="6" timestamp="2011-06-28T21:09:38Z" uid="101355" user="ottokar55" changeset="8575836">
    <nd ref="159001113"/>
    <nd ref="309404207"/>
    <nd ref="309405661"/>
    <nd ref="1024582196"/>
    <nd ref="159005826"/>
    <tag k="highway" v="residential"/>
    <tag k="name" v="Samatenweg"/>
    <tag k="surface" v="unpaved"/>
    <tag k="tracktype" v="grade3"/>
  </way>
  <way id="15822149" version="7" timestamp="2012-02-02T09:04:17Z" uid="66391" user="geozeisig" changeset="10565492"/>
  <way id="15822891" version="5" timestamp="2010-12-30T21:29:33Z" uid="9581" user="Lobelt" changeset="6814301">
    <nd ref="35504813"/>
    <nd ref="206127217"/>
    <nd ref="206127216"/>
    <nd ref="159013982"/>
    <nd ref="35504814"/>
    <nd ref="159014014"/>
    <nd ref="35504816"/>
    <tag k="highway" v="tertiary"/>
    <tag k="maxspeed" v="100"/>
    <tag k="oneway" v="yes"/>
    <tag k="ref" v="K 41"/>
  </way>
  <way id="15822891" version="6" timestamp="2011-11-14T19:36:34Z" uid="5735" user="ColinMarquardt" changeset="9827481"/>
  <way id="15822894" version="7" timestamp="2010-12-30T21:29:53Z" uid="9581" user="Lobelt" changeset="6814301">
    <nd ref="35504816"/>
    <nd ref="122744047"/>
    <nd ref="206127218"/>
    <nd ref="604003337"/>
    <nd ref="35504817"/>
    <nd ref="35504819"/>
    <nd ref="604003333"/>
    <nd ref="122744048"/>
    <nd ref="35504820"/>
    <nd ref="35504821"/>
    <tag k="highway" v="tertiary"/>
    <tag k="maxspeed" v="100"/>
    <tag k="ref" v="K 41"/>
  </way>
  <way id="15822894" version="8" timestamp="2011-03-11T20:10:32Z" uid="47051" user="ttobi" changeset="7527017">
    <nd ref="35504816"/>
    <nd ref="1197248104"/>
    <nd ref="122744047"/>
    <nd ref="206127218"/>
    <nd ref="604003337"/>
    <nd ref="35504817"/>
    <nd ref="35504819"/>
    <nd ref="604003333"/>
    <nd ref="122744048"/>
    <nd ref="35504820"/>
    <nd ref="35504821"/>
    <tag k="highway" v="tertiary"/>
    <tag k="maxspeed" v="100"/>
    <tag k="ref" v="K 41"/>
  </way>
  <way id="15822894" version="9" timestamp="2012-03-23T06:43:25Z" uid="118134" user="scai" changeset="11070763"/>
  <way id="15822896" version="4" timestamp="2010-12-30T21:29:52Z" uid="9581" user="Lobelt" changeset="6814301">
    <nd ref="35504816"/>
    <nd ref="159014005"/>
    <nd ref="159013992"/>
    <nd ref="159013990"/>
    <nd ref="159013989"/>
    <nd ref="35504813"/>
    <tag k="highway" v="tertiary"/>
    <tag k="maxspeed" v="100"/>
    <tag k="oneway" v="yes"/>
    <tag k="ref" v="K 41"/>
  </way>
  <way id="15822896" version="5" timestamp="2011-11-14T19:36:30Z" uid="5735" user="ColinMarquardt" changeset="9827481">
    <nd ref="35504816"/>
    <nd ref="159014005"/>
    <nd ref="159013992"/>
    <nd ref="159013990"/>
    <nd ref="1503223877"/>
    <nd ref="1503223871"/>
    <tag k="highway" v="tertiary"/>
    <tag k="maxspeed" v="100"/>
    <tag k="oneway" v="yes"/>
    <tag k="ref" v="K 41"/>
  </way>
  <way id="15822896" version="6" timestamp="2011-11-14T20:23:10Z" uid="5735" user="ColinMarquardt" changeset="9827481">
    <nd ref="35504816"/>
    <nd ref="159014005"/>
    <nd ref="159013992"/>
    <nd ref="159013990"/>
    <nd ref="1503312717"/>
    <nd ref="1503223877"/>
    <nd ref="1503223871"/>
    <tag k="highway" v="tertiary"/>
    <tag k="maxspeed" v="100"/>
    <tag k="oneway" v="yes"/>
    <tag k="ref" v="K 41"/>
  </way>
</osm>
