<?xml version='1.0' encoding='UTF-8'?>
<osm version="0.6" generator="libosmium/2.20.0">
  <way id="15833048" version="3" timestamp="2010-02-08T07:56:26Z" uid="74617" user="JohnSmith" changeset="3821217">
    <nd ref="159105532"/>
    <nd ref="159105533"/>
    <tag k="highway" v="residential"/>
    <tag k="maxspeed" v="50"/>
    <tag k="name" v="Eighteenth Ave"/>
  </way>
  <way id="15833048" version="4" timestamp="2010-06-01T02:37:38Z" uid="4467" user="Rosscoe" changeset="4871073">
    <nd ref="159105532"/>
    <nd ref="159105533"/>
    <tag k="highway" v="residential"/>
    <tag k="maxspeed" v="50"/>
    <tag k="name" v="Eighteenth Avenue"/>
  </way>
  <way id="15833048" version="5" timestamp="2012-01-15T15:03:39Z" uid="147510" user="woodpeck_fixbot" changeset="10398186">
    <nd ref="159105532"/>
    <nd ref="159105533"/>
    <tag k="highway" v="residential"/>
    <tag k="name" v="Eighteenth Avenue"/>
  </way>
  <way id="15833087" version="6" timestamp="2010-02-08T07:56:27Z" uid="74617" user="JohnSmith" changeset="3821217">
    <nd ref="159087606"/>
    <nd ref="457893591"/>
    <nd ref="159106471"/>
    <nd ref="579535740"/>
    <nd ref="159077825"/>
    <tag k="highway" v="residential"/>
    <tag k="maxspeed" v="50"/>
    <tag k="name" v="Nineteenth Ave"/>
  </way>
  <way id="15833087" version="7" timestamp="2010-05-26T11:52:10Z" uid="22094" user="Chadzopkyo" changeset="4812314">
    <nd ref="159087606"/>
    <nd ref="457893591"/>
    <nd ref="159106471"/>
    <nd ref="579535740"/>
    <nd ref="159077825"/>
    <tag k="highway" v="residential"/>
    <tag k="maxspeed" v="50"/>
    <tag k="name" v="Nineteenth Avenue"/>
  </way>
  <way id="15833087" version="8" timestamp="2012-01-15T15:03:40Z" uid="147510" user="woodpeck_fixbot" changeset="10398186">
    <nd ref="159087606"/>
    <nd ref="457893591"/>
    <nd ref="159106471"/>
    <nd ref="579535740"/>
    <nd ref="159077825"/>
    <tag k="highway" v="residential"/>
    <tag k="name" v="Nineteenth Avenue"/>
  </way>
  <way id="15833088" version="1" timestamp="2007-12-10T03:04:22Z" uid="4467" user="Rosscoe" changeset="226395">
    <nd ref="159106275"/>
    <nd ref="31524052"/>
    <tag k="created_by" v="Potlatch alpha"/>
    <tag k="highway" v="trunk"/>
    <tag k="name" v="Flinders Highway; Stuart Drive"/>
  </way>
  <way id="15833088" version="2" timestamp="2007-12-10T03:16:02Z" uid="4467" user="Rosscoe" changeset="226395">
    <nd ref="159106275"/>
    <nd ref="31524052"/>
    <tag k="created_by" v="Potlatch alpha"/>
    <tag k="highway" v="trunk"/>
    <tag k="name" v="Flinders Highway; Stuart Drive"/>
    <tag k="ref" v="A6;78"/>
  </way>
  <way id="15833088" version="3" timestamp="2009-01-19T12:13:35Z" uid="4467" user="Rosscoe" changeset="811584">
    <nd ref="159106275"/>
    <nd ref="31524052"/>
    <tag k="created_by" v="Potlatch alpha"/>
    <tag k="highway" v="trunk"/>
    <tag k="name" v="Flinders Highway; Stuart Drive"/>
    <tag k="ref" v="A6;78"/>
    <tag k="source" v="survey"/>
  </way>
  <way id="15833088" version="4" timestamp="2009-08-20T10:21:09Z" uid="74617" user="JohnSmith" changeset="2210481">
    <nd ref="159106275"/>
    <nd ref="31524052"/>
    <tag k="highway" v="trunk"/>
    <tag k="name" v="Stuart Drive"/>
    <tag k="source" v="survey"/>
  </way>
  <way id="15833088" version="5" timestamp="2011-11-09T05:23:29Z" uid="547843" user="Scott Pardon" changeset="9778817">
    <nd ref="159106275"/>
    <nd ref="31524052"/>
    <nd ref="1496087502"/>
    <nd ref="1496087499"/>
    <nd ref="1496087501"/>
    <nd ref="1496087494"/>
    <nd ref="1496087498"/>
    <nd ref="1496087495"/>
    <nd ref="1496087500"/>
    <nd ref="1496087497"/>
    <nd ref="1496087496"/>
    <nd ref="1496087503"/>
    <nd ref="1489452934"/>
    <nd ref="1489452936"/>
    <nd ref="1489452938"/>
    <nd ref="1489452939"/>
    <nd ref="1489452941"/>
    <nd ref="1489499415"/>
    <nd ref="1489452916"/>
    <nd ref="1489452942"/>
    <nd ref="1489458548"/>
    <nd ref="1489458541"/>
    <tag k="highway" v="trunk"/>
    <tag k="maxspeed" v="70"/>
    <tag k="name" v="Stuart Drive"/>
    <tag k="oneway" v="no"/>
    <tag k="source" v="survey"/>
  </way>
  <way id="15833095" version="2" timestamp="2010-02-08T07:56:27Z" uid="74617" user="JohnSmith" changeset="3821217">
    <nd ref="159106470"/>
    <nd ref="159106471"/>
    <tag k="highway" v="residential"/>
    <tag k="maxspeed" v="50"/>
    <tag k="name" v="Binden St"/>
  </way>
  <way id="15833095" version="3" timestamp="2010-05-26T11:52:09Z" uid="22094" user="Chadzopkyo" changeset="4812314">
    <nd ref="159106470"/>
    <nd ref="159106471"/>
    <tag k="highway" v="residential"/>
    <tag k="maxspeed" v="50"/>
    <tag k="name" v="Binden Street"/>
  </way>
  <way id="15833095" version="4" timestamp="2012-01-15T15:03:42Z" uid="147510" user="woodpeck_fixbot" changeset="10398186">
    <nd ref="159106470"/>
    <nd ref="159106471"/>
    <tag k="highway" v="residential"/>
    <tag k="name" v="Binden Street"/>
  </way>
  <way id="15833096" version="1" timestamp="2007-12-10T03:12:07Z" uid="4467" user="Rosscoe" changeset="226395">
    <nd ref="159106281"/>
    <nd ref="32434329"/>
    <tag k="created_by" v="Potlatch alpha"/>
    <tag k="highway" v="unclassified"/>
    <tag k="oneway" v="yes"/>
  </way>
  <way id="15833096" version="2" timestamp="2008-09-12T05:25:04Z" uid="4467" user="Rosscoe" changeset="610100"/>
  <way id="15833098" version="4" timestamp="2010-02-08T07:56:15Z" uid="74617" user="JohnSmith" changeset="3821217">
    <nd ref="159106476"/>
    <nd ref="565912532"/>
    <nd ref="565912040"/>
    <tag k="highway" v="residential"/>
    <tag k="maxspeed" v="50"/>
    <tag k="name" v="Duke St"/>
  </way>
  <way id="15833098" version="5" timestamp="2010-05-26T11:52:09Z" uid="22094" user="Chadzopkyo" changeset="4812314">
    <nd ref="159106476"/>
    <nd ref="565912532"/>
    <nd ref="565912040"/>
    <tag k="highway" v="residential"/>
    <tag k="maxspeed" v="50"/>
    <tag k="name" v="Duke Street"/>
  </way>
  <way id="15833098" version="6" timestamp="2012-01-15T15:03:43Z" uid="147510" user="woodpeck_fixbot" changeset="10398186">
    <nd ref="159106476"/>
    <nd ref="565912532"/>
    <nd ref="565912040"/>
    <tag k="highway" v="residential"/>
    <tag k="name" v="Duke Street"/>
  </way>
  <way id="15833102" version="6" timestamp="2010-02-08T07:56:15Z" uid="74617" user="JohnSmith" changeset="3821217">
    <nd ref="159106477"/>
    <nd ref="565912040"/>
    <nd ref="159106478"/>
    <nd ref="159106480"/>
    <nd ref="579262351"/>
    <nd ref="579262577"/>
    <tag k="highway" v="residential"/>
    <tag k="maxspeed" v="50"/>
    <tag k="name" v="Prince St"/>
  </way>
  <way id="15833102" version="7" timestamp="2010-05-26T11:52:10Z" uid="22094" user="Chadzopkyo" changeset="4812314">
    <nd ref="159106477"/>
    <nd ref="565912040"/>
    <nd ref="159106478"/>
    <nd ref="159106480"/>
    <nd ref="579262351"/>
    <nd ref="579262577"/>
    <tag k="highway" v="residential"/>
    <tag k="maxspeed" v="50"/>
    <tag k="name" v="Prince Street"/>
  </way>
  <way id="15833102" version="8" timestamp="2012-01-15T15:03:44Z" uid="147510" user="woodpeck_fixbot" changeset="10398186">
    <nd ref="159106477"/>
    <nd ref="565912040"/>
    <nd ref="159106478"/>
    <nd ref="159106480"/>
    <nd ref="579262351"/>
    <nd ref="579262577"/>
    <tag k="highway" v="residential"/>
    <tag k="name" v="Prince Street"/>
  </way>
  <way id="15833103" version="1" timestamp="2007-12-10T03:12:12Z" uid="4467" user="Rosscoe" changeset="226395">
    <nd ref="159106286"/>
    <nd ref="32434369"/>
    <nd ref="32434370"/>
    <nd ref="32434343"/>
    <tag k="created_by" v="Potlatch alpha"/>
    <tag k="highway" v="trunk"/>
    <tag k="oneway" v="yes"/>
  </way>
  <way id="15833103" version="2" timestamp="2008-09-12T05:19:07Z" uid="4467" user="Rosscoe" changeset="610100">
    <nd ref="159106286"/>
    <nd ref="32434369"/>
    <nd ref="32434370"/>
    <nd ref="32434343"/>
    <tag k="created_by" v="Potlatch 0.10b"/>
    <tag k="highway" v="trunk"/>
    <tag k="name" v="Flinders Highway; Stuart Drive"/>
    <tag k="oneway" v="yes"/>
    <tag k="ref" v="A6;78"/>
  </way>
  <way id="15833103" version="3" timestamp="2009-08-20T10:21:08Z" uid="74617" user="JohnSmith" changeset="2210481">
    <nd ref="32434325"/>
    <nd ref="32434334"/>
    <nd ref="32434335"/>
    <nd ref="319876649"/>
    <nd ref="159106286"/>
    <nd ref="32434369"/>
    <nd ref="32434370"/>
    <nd ref="32434343"/>
    <tag k="highway" v="trunk"/>
    <tag k="name" v="Stuart Drive"/>
    <tag k="oneway" v="yes"/>
  </way>
  <way id="15833104" version="6" timestamp="2010-02-08T07:56:24Z" uid="74617" user="JohnSmith" changeset="3821217">
    <nd ref="159106480"/>
    <nd ref="565912532"/>
    <tag k="highway" v="residential"/>
    <tag k="maxspeed" v="50"/>
    <tag k="name" v="Longstaff St"/>
  </way>
  <way id="15833104" version="7" timestamp="2010-05-26T11:52:08Z" uid="22094" user="Chadzopkyo" changeset="4812314">
    <nd ref="159106480"/>
    <nd ref="565912532"/>
    <tag k="highway" v="residential"/>
    <tag k="maxspeed" v="50"/>
    <tag k="name" v="Longstaff Street"/>
  </way>
  <way id="15833104" version="8" timestamp="2012-01-15T15:03:45Z" uid="147510" user="woodpeck_fixbot" changeset="10398186">
    <nd ref="159106480"/>
    <nd ref="565912532"/>
    <tag k="highway" v="residential"/>
    <tag k="name" v="Longstaff Street"/>
  </way>
  <way id="15833105" version="5" timestamp="2010-02-08T07:56:15Z" uid="74617" user="JohnSmith" changeset="3821217">
    <nd ref="159106483"/>
    <nd ref="579262354"/>
    <nd ref="565913230"/>
    <tag k="highway" v="residential"/>
    <tag k="maxspeed" v="50"/>
    <tag k="name" v="Princess St"/>
  </way>
  <way id="15833105" version="6" timestamp="2010-05-26T11:52:10Z" uid="22094" user="Chadzopkyo" changeset="4812314">
    <nd ref="159106483"/>
    <nd ref="579262354"/>
    <nd ref="565913230"/>
    <tag k="highway" v="residential"/>
    <tag k="maxspeed" v="50"/>
    <tag k="name" v="Princess Street"/>
  </way>
  <way id="15833105" version="7" timestamp="2012-01-15T15:03:46Z" uid="147510" user="woodpeck_fixbot" changeset="10398186">
    <nd ref="159106483"/>
    <nd ref="579262354"/>
    <nd ref="565913230"/>
    <tag k="highway" v="residential"/>
    <tag k="name" v="Princess Street"/>
  </way>
  <way id="15833107" version="4" timestamp="2010-02-08T07:56:15Z" uid="74617" user="JohnSmith" changeset="3821217">
    <nd ref="159106504"/>
    <nd ref="159106491"/>
    <tag k="highway" v="residential"/>
    <tag k="maxspeed" v="50"/>
    <tag k="name" v="Shepherd St"/>
  </way>
  <way id="15833107" version="5" timestamp="2010-05-26T11:52:11Z" uid="22094" user="Chadzopkyo" changeset="4812314">
    <nd ref="159106504"/>
    <nd ref="159106491"/>
    <tag k="highway" v="residential"/>
    <tag k="maxspeed" v="50"/>
    <tag k="name" v="Shepherd Street"/>
  </way>
  <way id="15833107" version="6" timestamp="2012-01-15T15:03:48Z" uid="147510" user="woodpeck_fixbot" changeset="10398186">
    <nd ref="159106504"/>
    <nd ref="159106491"/>
    <tag k="highway" v="residential"/>
    <tag k="name" v="Shepherd Street"/>
  </way>
  <way id="15833116" version="5" timestamp="2010-02-08T07:56:21Z" uid="74617" user="JohnSmith" changeset="3821217">
    <nd ref="159106504"/>
    <nd ref="565913230"/>
    <nd ref="159106505"/>
    <nd ref="579535698"/>
    <nd ref="159106507"/>
    <tag k="highway" v="residential"/>
    <tag k="maxspeed" v="50"/>
    <tag k="name" v="Bayview Road"/>
  </way>
  <way id="15833116" version="6" timestamp="2012-01-15T15:03:49Z" uid="147510" user="woodpeck_fixbot" changeset="10398186">
    <nd ref="159106504"/>
    <nd ref="565913230"/>
    <nd ref="159106505"/>
    <nd ref="579535698"/>
    <nd ref="159106507"/>
    <tag k="highway" v="residential"/>
    <tag k="name" v="Bayview Road"/>
  </way>
  <way id="15833137" version="4" timestamp="2010-02-09T02:07:35Z" uid="74617" user="JohnSmith" changeset="3828705">
    <nd ref="264165434"/>
    <nd ref="159106596"/>
    <tag k="highway" v="secondary"/>
    <tag k="name" v="Brisbane St"/>
    <tag k="ref" v="27"/>
  </way>
  <way id="15833137" version="5" timestamp="2010-03-20T11:00:26Z" uid="74617" user="JohnSmith" changeset="4178352">
    <nd ref="264165434"/>
    <nd ref="159106596"/>
    <tag k="highway" v="secondary"/>
    <tag k="name" v="Brisbane St"/>
  </way>
  <way id="15833137" version="6" timestamp="2010-06-01T08:21:00Z" uid="4467" user="Rosscoe" changeset="4872615">
    <nd ref="264165434"/>
    <nd ref="159106596"/>
    <tag k="highway" v="secondary"/>
    <tag k="name" v="Brisbane Street"/>
  </way>
  <way id="15833139" version="7" timestamp="2010-02-09T02:06:23Z" uid="74617" user="JohnSmith" changeset="3828705">
    <nd ref="159106610"/>
    <nd ref="262448350"/>
    <nd ref="262448353"/>
    <nd ref="264165434"/>
    <tag k="highway" v="tertiary"/>
    <tag k="name" v="Wakefield St"/>
    <tag k="ref" v="27"/>
  </way>
  <way id="15833139" version="8" timestamp="2010-06-02T08:00:25Z" uid="4467" user="Rosscoe" changeset="4881676">
    <nd ref="159106610"/>
    <nd ref="262448350"/>
    <nd ref="262448353"/>
    <nd ref="264165434"/>
    <tag k="highway" v="tertiary"/>
    <tag k="name" v="Wakefield Street"/>
    <tag k="ref" v="27"/>
  </way>
  <way id="15833316" version="11" timestamp="2010-02-09T02:07:33Z" uid="74617" user="JohnSmith" changeset="3828705">
    <nd ref="269284134"/>
    <nd ref="269283847"/>
    <nd ref="159108701"/>
    <nd ref="269284136"/>
    <nd ref="565923372"/>
    <nd ref="579253180"/>
    <nd ref="159109655"/>
    <tag k="highway" v="residential"/>
    <tag k="maxspeed" v="50"/>
    <tag k="name" v="Keogh St"/>
  </way>
  <way id="15833316" version="12" timestamp="2010-05-26T11:48:12Z" uid="22094" user="Chadzopkyo" changeset="4812271">
    <nd ref="269284134"/>
    <nd ref="269283847"/>
    <nd ref="159108701"/>
    <nd ref="269284136"/>
    <nd ref="565923372"/>
    <nd ref="579253180"/>
    <nd ref="159109655"/>
    <tag k="highway" v="residential"/>
    <tag k="maxspeed" v="50"/>
    <tag k="name" v="Keogh Street"/>
  </way>
  <way id="15833316" version="13" timestamp="2012-01-15T15:03:50Z" uid="147510" user="woodpeck_fixbot" changeset="10398186">
    <nd ref="269284134"/>
    <nd ref="269283847"/>
    <nd ref="159108701"/>
    <nd ref="269284136"/>
    <nd ref="565923372"/>
    <nd ref="579253180"/>
    <nd ref="159109655"/>
    <tag k="highway" v="residential"/>
    <tag k="name" v="Keogh Street"/>
  </way>
  <way id="15833366" version="4" timestamp="2010-02-09T02:07:33Z" uid="74617" user="JohnSmith" changeset="3828705">
    <nd ref="269284135"/>
    <nd ref="159109458"/>
    <nd ref="159108701"/>
    <tag k="highway" v="residential"/>
    <tag k="maxspeed" v="50"/>
    <tag k="name" v="Hoskins St"/>
  </way>
  <way id="15833366" version="5" timestamp="2010-05-26T11:48:10Z" uid="22094" user="Chadzopkyo" changeset="4812271">
    <nd ref="269284135"/>
    <nd ref="159109458"/>
    <nd ref="159108701"/>
    <tag k="highway" v="residential"/>
    <tag k="maxspeed" v="50"/>
    <tag k="name" v="Hoskins Street"/>
  </way>
  <way id="15833366" version="6" timestamp="2012-01-15T15:03:52Z" uid="147510" user="woodpeck_fixbot" changeset="10398186">
    <nd ref="269284135"/>
    <nd ref="159109458"/>
    <nd ref="159108701"/>
    <tag k="highway" v="residential"/>
    <tag k="name" v="Hoskins Street"/>
  </way>
  <way id="15833382" version="9" timestamp="2010-02-09T02:07:33Z" uid="74617" user="JohnSmith" changeset="3828705">
    <nd ref="159110299"/>
    <nd ref="159109655"/>
    <nd ref="159109656"/>
    <nd ref="579144473"/>
    <nd ref="159110429"/>
    <nd ref="264247451"/>
    <nd ref="264247452"/>
    <nd ref="579144504"/>
    <nd ref="159110760"/>
    <tag k="highway" v="residential"/>
    <tag k="maxspeed" v="50"/>
    <tag k="name" v="Lagoon St"/>
  </way>
  <way id="15833382" version="10" timestamp="2010-06-01T07:28:24Z" uid="4467" user="Rosscoe" changeset="4872324">
    <nd ref="159110299"/>
    <nd ref="761072857"/>
    <nd ref="761072701"/>
    <nd ref="159109655"/>
    <nd ref="159109656"/>
    <nd ref="579144473"/>
    <nd ref="159110429"/>
    <nd ref="264247451"/>
    <nd ref="264247452"/>
    <nd ref="579144504"/>
    <nd ref="159110760"/>
    <tag k="highway" v="residential"/>
    <tag k="maxspeed" v="50"/>
    <tag k="name" v="Lagoon Street"/>
  </way>
  <way id="15833382" version="11" timestamp="2011-04-13T14:48:04Z" uid="129262" user="ElderKorean" changeset="7852213">
    <nd ref="159110299"/>
    <nd ref="761072857"/>
    <nd ref="761072701"/>
    <nd ref="159109655"/>
    <nd ref="159109656"/>
    <nd ref="1243309379"/>
    <nd ref="579144473"/>
    <nd ref="159110429"/>
    <nd ref="1243309317"/>
    <nd ref="264247452"/>
    <nd ref="1243309322"/>
    <nd ref="579144504"/>
    <nd ref="159110760"/>
    <tag k="highway" v="residential"/>
    <tag k="maxspeed" v="50"/>
    <tag k="name" v="Lagoon Street"/>
  </way>
  <way id="15833382" version="12" timestamp="2012-01-15T15:03:53Z" uid="147510" user="woodpeck_fixbot" changeset="10398186">
    <nd ref="159110299"/>
    <nd ref="761072857"/>
    <nd ref="761072701"/>
    <nd ref="159109655"/>
    <nd ref="159109656"/>
    <nd ref="1243309379"/>
    <nd ref="579144473"/>
    <nd ref="159110429"/>
    <nd ref="1243309317"/>
    <nd ref="264247452"/>
    <nd ref="1243309322"/>
    <nd ref="579144504"/>
    <nd ref="159110760"/>
    <tag k="highway" v="residential"/>
    <tag k="name" v="Lagoon Street"/>
  </way>
  <way id="15833445" version="5" timestamp="2010-02-09T02:07:32Z" uid="74617" user="JohnSmith" changeset="3828705">
    <nd ref="565938932"/>
    <nd ref="565937430"/>
    <nd ref="159110429"/>
    <tag k="highway" v="residential"/>
    <tag k="maxspeed" v="50"/>
    <tag k="name" v="Hancock St"/>
  </way>
  <way id="15833445" version="6" timestamp="2010-12-02T04:17:31Z" uid="4467" user="Rosscoe" changeset="6511051">
    <nd ref="565938932"/>
    <nd ref="565937430"/>
    <nd ref="159110429"/>
    <tag k="highway" v="residential"/>
    <tag k="maxspeed" v="50"/>
    <tag k="name" v="Hancock Street"/>
  </way>
  <way id="15833445" version="7" timestamp="2011-04-13T14:48:04Z" uid="129262" user="ElderKorean" changeset="7852213">
    <nd ref="565938932"/>
    <nd ref="565937430"/>
    <nd ref="1243309336"/>
    <nd ref="159110429"/>
    <tag k="highway" v="residential"/>
    <tag k="maxspeed" v="50"/>
    <tag k="name" v="Hancock Street"/>
  </way>
  <way id="15833445" version="8" timestamp="2012-01-15T15:03:55Z" uid="147510" user="woodpeck_fixbot" changeset="10398186">
    <nd ref="565938932"/>
    <nd ref="565937430"/>
    <nd ref="1243309336"/>
    <nd ref="159110429"/>
    <tag k="highway" v="residential"/>
    <tag k="name" v="Hancock Street"/>
  </way>
  <way id="15833486" version="8" timestamp="2010-02-09T02:07:33Z" uid="74617" user="JohnSmith" changeset="3828705">
    <nd ref="269284136"/>
    <nd ref="565935892"/>
    <nd ref="263697477"/>
    <tag k="highway" v="residential"/>
    <tag k="maxspeed" v="50"/>
    <tag k="name" v="Lunn St"/>
  </way>
  <way id="15833486" version="9" timestamp="2010-05-26T11:48:12Z" uid="22094" user="Chadzopkyo" changeset="4812271">
    <nd ref="269284136"/>
    <nd ref="565935892"/>
    <nd ref="263697477"/>
    <tag k="highway" v="residential"/>
    <tag k="maxspeed" v="50"/>
    <tag k="name" v="Lunn Street"/>
  </way>
  <way id="15833486" version="10" timestamp="2012-01-15T15:03:56Z" uid="147510" user="woodpeck_fixbot" changeset="10398186">
    <nd ref="269284136"/>
    <nd ref="565935892"/>
    <nd ref="263697477"/>
    <tag k="highway" v="residential"/>
    <tag k="name" v="Lunn Street"/>
  </way>
  <way id="15833493" version="6" timestamp="2010-04-03T13:49:50Z" uid="20587" user="balrog-kun" changeset="4313011">
    <nd ref="172370814"/>
    <nd ref="172370807"/>
    <nd ref="172370795"/>
    <nd ref="172370781"/>
    <nd ref="172370767"/>
    <nd ref="172370756"/>
    <nd ref="158112124"/>
    <nd ref="188066396"/>
    <nd ref="172370742"/>
    <nd ref="172370732"/>
    <nd ref="159111423"/>
    <nd ref="159111414"/>
    <nd ref="172370814"/>
    <nd ref="159111405"/>
    <nd ref="158112070"/>
    <nd ref="159111408"/>
    <nd ref="158112062"/>
    <nd ref="158112050"/>
    <nd ref="148874762"/>
    <nd ref="41562439"/>
    <nd ref="158112074"/>
    <nd ref="41562442"/>
    <nd ref="41562444"/>
    <nd ref="41562448"/>
    <nd ref="41562451"/>
    <nd ref="41562453"/>
    <nd ref="41562455"/>
    <nd ref="172281936"/>
    <nd ref="41562457"/>
    <tag k="created_by" v="Potlatch 0.10f"/>
    <tag k="highway" v="residential"/>
    <tag k="name" v="East Pima Canyon Road"/>
    <tag k="tiger:cfcc" v="A41"/>
    <tag k="tiger:county" v="Maricopa, AZ"/>
    <tag k="tiger:name_base" v="Pima Canyon"/>
    <tag k="tiger:name_direction_prefix" v="E"/>
    <tag k="tiger:name_type" v="Rd"/>
    <tag k="tiger:reviewed" v="no"/>
    <tag k="tiger:separated" v="no"/>
    <tag k="tiger:source" v="tiger_import_dch_v0.6_20070809"/>
    <tag k="tiger:tlid" v="128367630:128367634:128825626:128781384:128807437"/>
    <tag k="tiger:zip_left" v="85040"/>
    <tag k="tiger:zip_right" v="85040"/>
  </way>
  <way id="15833493" version="7" timestamp="2011-12-18T23:28:49Z" uid="292665" user="Dr Kludge" changeset="10151993">
    <nd ref="172370814"/>
    <nd ref="172370807"/>
    <nd ref="172370795"/>
    <nd ref="172370781"/>
    <nd ref="172370767"/>
    <nd ref="172370756"/>
    <nd ref="158112124"/>
    <nd ref="188066396"/>
    <nd ref="172370742"/>
    <nd ref="172370732"/>
    <nd ref="159111423"/>
    <nd ref="159111414"/>
    <nd ref="172370814"/>
    <nd ref="159111405"/>
    <nd ref="158112070"/>
    <nd ref="159111408"/>
    <nd ref="158112062"/>
    <nd ref="158112050"/>
    <nd ref="148874762"/>
    <nd ref="41562439"/>
    <nd ref="158112074"/>
    <nd ref="41562442"/>
    <nd ref="41562444"/>
    <nd ref="41562448"/>
    <nd ref="41562451"/>
    <nd ref="41562453"/>
    <nd ref="41562455"/>
    <nd ref="172281936"/>
    <nd ref="41562457"/>
    <tag k="highway" v="residential"/>
    <tag k="name" v="East Pima Canyon Road"/>
    <tag k="tiger:cfcc" v="A41"/>
    <tag k="tiger:county" v="Maricopa, AZ"/>
    <tag k="tiger:name_base" v="Pima Canyon"/>
    <tag k="tiger:name_direction_prefix" v="E"/>
    <tag k="tiger:name_type" v="Rd"/>
    <tag k="tiger:reviewed" v="no"/>
    <tag k="tiger:separated" v="no"/>
    <tag k="tiger:source" v="tiger_import_dch_v0.6_20070809"/>
    <tag k="tiger:tlid" v="128367630:128367634:128825626:128781384:128807437"/>
    <tag k="tiger:zip_left" v="85040"/>
    <tag k="tiger:zip_right" v="85040"/>
  </way>
  <way id="15833502" version="8" timestamp="2010-03-20T11:00:26Z" uid="74617" user="JohnSmith" changeset="4178352">
    <nd ref="159111818"/>
    <nd ref="159111748"/>
    <nd ref="565934850"/>
    <nd ref="159108101"/>
    <nd ref="565934869"/>
    <nd ref="159111750"/>
    <nd ref="159111751"/>
    <nd ref="159111753"/>
    <nd ref="159111755"/>
    <nd ref="159111757"/>
    <nd ref="565934876"/>
    <nd ref="159111759"/>
    <nd ref="159111818"/>
    <tag k="highway" v="secondary"/>
    <tag k="junction" v="roundabout"/>
  </way>
  <way id="15833502" version="9" timestamp="2011-03-09T12:00:30Z" uid="206339" user="chas66" changeset="7503217">
    <nd ref="159111818"/>
    <nd ref="1194022466"/>
    <nd ref="159111748"/>
    <nd ref="565934850"/>
    <nd ref="159108101"/>
    <nd ref="565934869"/>
    <nd ref="159111750"/>
    <nd ref="1194022473"/>
    <nd ref="159111751"/>
    <nd ref="1194022477"/>
    <nd ref="159111753"/>
    <nd ref="1194022484"/>
    <nd ref="159111755"/>
    <nd ref="1194022487"/>
    <nd ref="159111757"/>
    <nd ref="565934876"/>
    <nd ref="159111759"/>
    <nd ref="1194022490"/>
    <nd ref="159111818"/>
    <tag k="highway" v="secondary"/>
    <tag k="junction" v="roundabout"/>
  </way>
  <way id="15833502" version="10" timestamp="2011-04-13T12:18:17Z" uid="129262" user="ElderKorean" changeset="7851291">
    <nd ref="159111818"/>
    <nd ref="1194022466"/>
    <nd ref="159111748"/>
    <nd ref="565934850"/>
    <nd ref="159108101"/>
    <nd ref="565934869"/>
    <nd ref="159111750"/>
    <nd ref="1194022473"/>
    <nd ref="159111751"/>
    <nd ref="1194022477"/>
    <nd ref="159111753"/>
    <nd ref="1194022484"/>
    <nd ref="159111755"/>
    <nd ref="1194022487"/>
    <nd ref="159111757"/>
    <nd ref="565934876"/>
    <nd ref="159111759"/>
    <nd ref="1194022490"/>
    <nd ref="159111818"/>
    <tag k="highway" v="secondary"/>
    <tag k="junction" v="roundabout"/>
    <tag k="lanes" v="2"/>
  </way>
  <way id="15833631" version="2" timestamp="2010-03-27T22:19:59Z" uid="20587" user="balrog-kun" changeset="4250871">
    <nd ref="122649623"/>
    <nd ref="122649626"/>
    <tag k="created_by" v="JOSM"/>
    <tag k="highway" v="residential"/>
    <tag k="name" v="Southampton Drive"/>
    <tag k="tiger:cfcc" v="A41"/>
    <tag k="tiger:county" v="Orange, CA"/>
    <tag k="tiger:name_base" v="Southampton"/>
    <tag k="tiger:name_type" v="Dr"/>
    <tag k="tiger:reviewed" v="no"/>
    <tag k="tiger:separated" v="no"/>
    <tag k="tiger:source" v="tiger_import_dch_v0.6_20070809"/>
    <tag k="tiger:tlid" v="144002172:144002173:144002164:144002180:144002197:144002199:144000552:144000560:144000566:144000567:144002200:144002215"/>
    <tag k="tiger:zip_left" v="90630"/>
    <tag k="tiger:zip_right" v="90630"/>
  </way>
  <way id="15833904" version="3" timestamp="2010-04-07T17:17:39Z" uid="20587" user="balrog-kun" changeset="4355872">
    <nd ref="159118338"/>
    <nd ref="159118342"/>
    <nd ref="159118345"/>
    <nd ref="159118348"/>
    <nd ref="159118350"/>
    <nd ref="159118352"/>
    <nd ref="159118354"/>
    <nd ref="159118359"/>
    <nd ref="159118362"/>
    <nd ref="159118366"/>
    <nd ref="159118367"/>
    <nd ref="159118371"/>
    <nd ref="159118374"/>
    <nd ref="159118377"/>
    <nd ref="159118381"/>
    <nd ref="159118386"/>
    <nd ref="159118389"/>
    <nd ref="159118394"/>
    <nd ref="159118395"/>
    <nd ref="159118397"/>
    <nd ref="159118398"/>
    <nd ref="159118400"/>
    <nd ref="159118401"/>
    <nd ref="159118402"/>
    <nd ref="159118404"/>
    <nd ref="159118405"/>
    <nd ref="159118406"/>
    <nd ref="159336184"/>
    <tag k="highway" v="residential"/>
    <tag k="name" v="610th Street"/>
    <tag k="name_1" v="County Highway C63"/>
    <tag k="tiger:cfcc" v="A41"/>
    <tag k="tiger:county" v="Buena Vista, IA"/>
    <tag k="tiger:name_base" v="610th"/>
    <tag k="tiger:name_base_1" v="County Highway C63"/>
    <tag k="tiger:name_type" v="St"/>
    <tag k="tiger:reviewed" v="no"/>
    <tag k="tiger:separated" v="no"/>
    <tag k="tiger:source" v="tiger_import_dch_v0.6_20070810"/>
    <tag k="tiger:tlid" v="77377418:77377705:77377708:77377972:77377975:77377807:77377711:77377709:77377979:77377713:77378102:77377967"/>
    <tag k="tiger:zip_left" v="51002"/>
    <tag k="tiger:zip_right" v="51002"/>
  </way>
  <way id="15833904" version="4" timestamp="2010-05-18T01:55:27Z" uid="257613" user="iowahwyman" changeset="4734886">
    <nd ref="159118338"/>
    <nd ref="159118342"/>
    <nd ref="159118345"/>
    <nd ref="159118348"/>
    <nd ref="159118350"/>
    <nd ref="159118352"/>
    <nd ref="159118354"/>
    <nd ref="159118359"/>
    <nd ref="159118362"/>
    <nd ref="159118366"/>
    <nd ref="159118367"/>
    <nd ref="159118371"/>
    <nd ref="159118374"/>
    <nd ref="159118377"/>
    <nd ref="159118381"/>
    <nd ref="159118386"/>
    <nd ref="159118389"/>
    <nd ref="159118394"/>
    <nd ref="159118395"/>
    <nd ref="159118397"/>
    <nd ref="159118398"/>
    <nd ref="159118400"/>
    <nd ref="159118401"/>
    <nd ref="159118402"/>
    <nd ref="159118404"/>
    <nd ref="159118405"/>
    <nd ref="159118406"/>
    <nd ref="159336184"/>
    <tag k="highway" v="tertiary"/>
    <tag k="name" v="610th Street"/>
    <tag k="name_1" v="County Highway C63"/>
    <tag k="tiger:cfcc" v="A41"/>
    <tag k="tiger:county" v="Buena Vista, IA"/>
    <tag k="tiger:name_base" v="610th"/>
    <tag k="tiger:name_base_1" v="County Highway C63"/>
    <tag k="tiger:name_type" v="St"/>
    <tag k="tiger:reviewed" v="no"/>
    <tag k="tiger:separated" v="no"/>
    <tag k="tiger:source" v="tiger_import_dch_v0.6_20070810"/>
    <tag k="tiger:tlid" v="77377418:77377705:77377708:77377972:77377975:77377807:77377711:77377709:77377979:77377713:77378102:77377967"/>
    <tag k="tiger:zip_left" v="51002"/>
    <tag k="tiger:zip_right" v="51002"/>
  </way>
  <way id="15833917" version="2" timestamp="2010-04-07T17:17:40Z" uid="20587" user="balrog-kun" changeset="4355872">
    <nd ref="159118544"/>
    <nd ref="159118545"/>
    <nd ref="159118546"/>
    <nd ref="159118547"/>
    <nd ref="159118549"/>
    <nd ref="159118552"/>
    <nd ref="159118554"/>
    <nd ref="159118557"/>
    <nd ref="159118561"/>
    <nd ref="159118564"/>
    <nd ref="159118568"/>
    <nd ref="159118573"/>
    <nd ref="159118577"/>
    <nd ref="159118582"/>
    <nd ref="159118589"/>
    <nd ref="159118592"/>
    <nd ref="159118598"/>
    <nd ref="159118600"/>
    <nd ref="159118602"/>
    <nd ref="159118605"/>
    <nd ref="159118607"/>
    <nd ref="159118609"/>
    <tag k="highway" v="residential"/>
    <tag k="name" v="South River Road"/>
    <tag k="name_1" v="420th Avenue"/>
    <tag k="tiger:cfcc" v="A41"/>
    <tag k="tiger:county" v="Buena Vista, IA"/>
    <tag k="tiger:name_base" v="River"/>
    <tag k="tiger:name_base_1" v="420th"/>
    <tag k="tiger:name_direction_prefix" v="S"/>
    <tag k="tiger:name_type" v="Rd"/>
    <tag k="tiger:name_type_1" v="Ave"/>
    <tag k="tiger:reviewed" v="no"/>
    <tag k="tiger:separated" v="no"/>
    <tag k="tiger:source" v="tiger_import_dch_v0.6_20070810"/>
    <tag k="tiger:tlid" v="77375593:77375463:77375523:77375447"/>
    <tag k="tiger:zip_left" v="51047"/>
    <tag k="tiger:zip_right" v="51047"/>
  </way>
  <way id="15833917" version="3" timestamp="2011-05-15T20:15:27Z" uid="334153" user="Alexander Roalter" changeset="8156478">
    <nd ref="159118544"/>
    <nd ref="1286864019"/>
    <nd ref="1286863776"/>
    <nd ref="159118545"/>
    <nd ref="1286865011"/>
    <nd ref="1286863559"/>
    <nd ref="159118546"/>
    <nd ref="1286864407"/>
    <nd ref="1286864714"/>
    <nd ref="159118547"/>
    <nd ref="1286862655"/>
    <nd ref="1286863893"/>
    <nd ref="1286865185"/>
    <nd ref="1286864877"/>
    <nd ref="159118549"/>
    <nd ref="1286863029"/>
    <nd ref="159118552"/>
    <nd ref="159118554"/>
    <nd ref="1286864582"/>
    <nd ref="159118557"/>
    <nd ref="1286862554"/>
    <nd ref="1286862798"/>
    <nd ref="159118561"/>
    <nd ref="159118564"/>
    <nd ref="1286863684"/>
    <nd ref="159118568"/>
    <nd ref="1286862611"/>
    <nd ref="1286863508"/>
    <nd ref="159118573"/>
    <nd ref="1286863729"/>
    <nd ref="159118577"/>
    <nd ref="1286864643"/>
    <nd ref="159118582"/>
    <nd ref="1286863254"/>
    <nd ref="1286864109"/>
    <nd ref="1286864354"/>
    <nd ref="1286862375"/>
    <nd ref="1286863632"/>
    <nd ref="1286864520"/>
    <nd ref="159118589"/>
    <nd ref="159118592"/>
    <nd ref="1286864809"/>
    <nd ref="1286862742"/>
    <nd ref="1286864252"/>
    <nd ref="159118598"/>
    <nd ref="159118600"/>
    <nd ref="1286862952"/>
    <nd ref="1286863831"/>
    <nd ref="159118602"/>
    <nd ref="1286862775"/>
    <nd ref="159118605"/>
    <nd ref="1286863660"/>
    <nd ref="159118607"/>
    <nd ref="1286863868"/>
    <nd ref="1286864270"/>
    <nd ref="159118609"/>
    <tag k="highway" v="residential"/>
    <tag k="name" v="South River Road"/>
    <tag k="name_1" v="420th Avenue"/>
    <tag k="tiger:cfcc" v="A41"/>
    <tag k="tiger:county" v="Buena Vista, IA"/>
    <tag k="tiger:name_base" v="River"/>
    <tag k="tiger:name_base_1" v="420th"/>
    <tag k="tiger:name_direction_prefix" v="S"/>
    <tag k="tiger:name_type" v="Rd"/>
    <tag k="tiger:name_type_1" v="Ave"/>
    <tag k="tiger:separated" v="no"/>
    <tag k="tiger:source" v="tiger_import_dch_v0.6_20070810"/>
    <tag k="tiger:tlid" v="77375593:77375463:77375523:77375447"/>
    <tag k="tiger:zip_left" v="51047"/>
    <tag k="tiger:zip_right" v="51047"/>
  </way>
  <way id="15833918" version="2" timestamp="2010-04-07T17:17:40Z" uid="20587" user="balrog-kun" changeset="4355872">
    <nd ref="159118628"/>
    <nd ref="159118633"/>
    <nd ref="159118636"/>
    <tag k="highway" v="residential"/>
    <tag k="name" v="South River Road"/>
    <tag k="name_1" v="420th Avenue"/>
    <tag k="tiger:cfcc" v="A41"/>
    <tag k="tiger:county" v="Buena Vista, IA"/>
    <tag k="tiger:name_base" v="River"/>
    <tag k="tiger:name_base_1" v="420th"/>
    <tag k="tiger:name_direction_prefix" v="S"/>
    <tag k="tiger:name_type" v="Rd"/>
    <tag k="tiger:name_type_1" v="Ave"/>
    <tag k="tiger:reviewed" v="no"/>
    <tag k="tiger:separated" v="no"/>
    <tag k="tiger:source" v="tiger_import_dch_v0.6_20070810"/>
    <tag k="tiger:tlid" v="77384020"/>
    <tag k="tiger:zip_left" v="51047"/>
    <tag k="tiger:zip_right" v="51047"/>
  </way>
  <way id="15833918" version="3" timestamp="2011-05-15T14:07:40Z" uid="334153" user="Alexander Roalter" changeset="8152243"/>
  <way id="15833921" version="3" timestamp="2010-04-07T17:17:40Z" uid="20587" user="balrog-kun" changeset="4355872">
    <nd ref="159118647"/>
    <nd ref="159118650"/>
    <nd ref="159119340"/>
    <nd ref="159118656"/>
    <nd ref="159118660"/>
    <nd ref="159118661"/>
    <nd ref="159118663"/>
    <nd ref="159118667"/>
    <nd ref="159118669"/>
    <nd ref="159118672"/>
    <nd ref="159118673"/>
    <nd ref="159118675"/>
    <nd ref="159118677"/>
    <nd ref="159118680"/>
    <nd ref="159118683"/>
    <nd ref="159118686"/>
    <nd ref="159118689"/>
    <nd ref="159118692"/>
    <nd ref="159118695"/>
    <nd ref="159118699"/>
    <nd ref="159118702"/>
    <nd ref="159118706"/>
    <nd ref="159118712"/>
    <nd ref="159118719"/>
    <nd ref="159118722"/>
    <nd ref="159118726"/>
    <nd ref="159118728"/>
    <nd ref="159118731"/>
    <nd ref="159118734"/>
    <tag k="highway" v="residential"/>
    <tag k="name" v="South River Road"/>
    <tag k="name_1" v="420th Avenue"/>
    <tag k="tiger:cfcc" v="A41"/>
    <tag k="tiger:county" v="Buena Vista, IA"/>
    <tag k="tiger:name_base" v="River"/>
    <tag k="tiger:name_base_1" v="420th"/>
    <tag k="tiger:name_direction_prefix" v="S"/>
    <tag k="tiger:name_type" v="Rd"/>
    <tag k="tiger:name_type_1" v="Ave"/>
    <tag k="tiger:reviewed" v="no"/>
    <tag k="tiger:separated" v="no"/>
    <tag k="tiger:source" v="tiger_import_dch_v0.6_20070810"/>
    <tag k="tiger:tlid" v="77375498:77375470:77375513"/>
  </way>
</osm>
