<?xml version='1.0' encoding='UTF-8'?>
<osm version="0.6" generator="libosmium/2.20.0">
  <way id="15832012" version="4" timestamp="2010-02-09T02:07:39Z" uid="74617" user="JohnSmith" changeset="3828705">
    <nd ref="159093111"/>
    <nd ref="159092386"/>
    <nd ref="159093113"/>
    <nd ref="159093115"/>
    <tag k="highway" v="residential"/>
    <tag k="maxspeed" v="50"/>
    <tag k="name" v="Eleventh Ave"/>
  </way>
  <way id="15832012" version="5" timestamp="2010-05-26T11:52:09Z" uid="22094" user="Chadzopkyo" changeset="4812314">
    <nd ref="159093111"/>
    <nd ref="159092386"/>
    <nd ref="159093113"/>
    <nd ref="159093115"/>
    <tag k="highway" v="residential"/>
    <tag k="maxspeed" v="50"/>
    <tag k="name" v="Eleventh Avenue"/>
  </way>
  <way id="15832012" version="6" timestamp="2012-01-15T15:03:18Z" uid="147510" user="woodpeck_fixbot" changeset="10398186">
    <nd ref="159093111"/>
    <nd ref="159092386"/>
    <nd ref="159093113"/>
    <nd ref="159093115"/>
    <tag k="highway" v="residential"/>
    <tag k="name" v="Eleventh Avenue"/>
  </way>
  <way id="15832070" version="3" timestamp="2010-02-09T02:07:39Z" uid="74617" user="JohnSmith" changeset="3828705">
    <nd ref="159093115"/>
    <nd ref="565915695"/>
    <tag k="highway" v="residential"/>
    <tag k="maxspeed" v="50"/>
    <tag k="name" v="Dickson St"/>
  </way>
  <way id="15832070" version="4" timestamp="2010-05-26T11:52:09Z" uid="22094" user="Chadzopkyo" changeset="4812314">
    <nd ref="159093115"/>
    <nd ref="565915695"/>
    <tag k="highway" v="residential"/>
    <tag k="maxspeed" v="50"/>
    <tag k="name" v="Dickson Street"/>
  </way>
  <way id="15832070" version="5" timestamp="2012-01-15T15:03:19Z" uid="147510" user="woodpeck_fixbot" changeset="10398186">
    <nd ref="159093115"/>
    <nd ref="565915695"/>
    <tag k="highway" v="residential"/>
    <tag k="name" v="Dickson Street"/>
  </way>
  <way id="15832144" version="5" timestamp="2010-02-09T02:07:39Z" uid="74617" user="JohnSmith" changeset="3828705">
    <nd ref="159094855"/>
    <nd ref="565915695"/>
    <nd ref="579262478"/>
    <tag k="highway" v="residential"/>
    <tag k="maxspeed" v="50"/>
    <tag k="name" v="Twelfth Ave"/>
  </way>
  <way id="15832144" version="6" timestamp="2010-05-26T11:52:09Z" uid="22094" user="Chadzopkyo" changeset="4812314">
    <nd ref="159094855"/>
    <nd ref="565915695"/>
    <nd ref="579262478"/>
    <tag k="highway" v="residential"/>
    <tag k="maxspeed" v="50"/>
    <tag k="name" v="Twelfth Avenue"/>
  </way>
  <way id="15832144" version="7" timestamp="2012-01-15T15:03:20Z" uid="147510" user="woodpeck_fixbot" changeset="10398186">
    <nd ref="159094855"/>
    <nd ref="565915695"/>
    <nd ref="579262478"/>
    <tag k="highway" v="residential"/>
    <tag k="name" v="Twelfth Avenue"/>
  </way>
  <way id="15832227" version="6" timestamp="2010-02-08T07:56:25Z" uid="74617" user="JohnSmith" changeset="3821217">
    <nd ref="159095807"/>
    <nd ref="579262475"/>
    <nd ref="159087602"/>
    <tag k="highway" v="residential"/>
    <tag k="maxspeed" v="50"/>
    <tag k="name" v="Thirteenth Ave"/>
  </way>
  <way id="15832227" version="7" timestamp="2010-05-26T11:52:10Z" uid="22094" user="Chadzopkyo" changeset="4812314">
    <nd ref="159095807"/>
    <nd ref="579262475"/>
    <nd ref="159087602"/>
    <tag k="highway" v="residential"/>
    <tag k="maxspeed" v="50"/>
    <tag k="name" v="Thirteenth Avenue"/>
  </way>
  <way id="15832227" version="8" timestamp="2012-01-15T15:03:21Z" uid="147510" user="woodpeck_fixbot" changeset="10398186">
    <nd ref="159095807"/>
    <nd ref="579262475"/>
    <nd ref="159087602"/>
    <tag k="highway" v="residential"/>
    <tag k="name" v="Thirteenth Avenue"/>
  </way>
  <way id="15832271" version="6" timestamp="2010-02-08T07:56:25Z" uid="74617" user="JohnSmith" changeset="3821217">
    <nd ref="159096852"/>
    <nd ref="159099075"/>
    <nd ref="269283820"/>
    <nd ref="269283729"/>
    <tag k="highway" v="residential"/>
    <tag k="maxspeed" v="50"/>
    <tag k="name" v="Fourteen Ave"/>
  </way>
  <way id="15832271" version="7" timestamp="2010-05-26T11:52:09Z" uid="22094" user="Chadzopkyo" changeset="4812314">
    <nd ref="159096852"/>
    <nd ref="159099075"/>
    <nd ref="269283820"/>
    <nd ref="269283729"/>
    <tag k="highway" v="residential"/>
    <tag k="maxspeed" v="50"/>
    <tag k="name" v="Fourteen Avenue"/>
  </way>
  <way id="15832271" version="8" timestamp="2012-01-15T15:03:23Z" uid="147510" user="woodpeck_fixbot" changeset="10398186">
    <nd ref="159096852"/>
    <nd ref="159099075"/>
    <nd ref="269283820"/>
    <nd ref="269283729"/>
    <tag k="highway" v="residential"/>
    <tag k="name" v="Fourteen Avenue"/>
  </way>
  <way id="15832339" version="5" timestamp="2010-02-08T07:56:24Z" uid="74617" user="JohnSmith" changeset="3821217">
    <nd ref="269283820"/>
    <nd ref="159097525"/>
    <nd ref="159097526"/>
    <nd ref="579262534"/>
    <nd ref="159097527"/>
    <tag k="highway" v="residential"/>
    <tag k="maxspeed" v="50"/>
    <tag k="name" v="Conn St"/>
  </way>
  <way id="15832339" version="6" timestamp="2010-05-26T11:52:11Z" uid="22094" user="Chadzopkyo" changeset="4812314">
    <nd ref="269283820"/>
    <nd ref="159097525"/>
    <nd ref="159097526"/>
    <nd ref="579262534"/>
    <nd ref="159097527"/>
    <tag k="highway" v="residential"/>
    <tag k="maxspeed" v="50"/>
    <tag k="name" v="Conn Street"/>
  </way>
  <way id="15832339" version="7" timestamp="2012-01-15T15:03:24Z" uid="147510" user="woodpeck_fixbot" changeset="10398186">
    <nd ref="269283820"/>
    <nd ref="159097525"/>
    <nd ref="159097526"/>
    <nd ref="579262534"/>
    <nd ref="159097527"/>
    <tag k="highway" v="residential"/>
    <tag k="name" v="Conn Street"/>
  </way>
  <way id="15832416" version="3" timestamp="2010-02-08T07:56:25Z" uid="74617" user="JohnSmith" changeset="3821217">
    <nd ref="159098546"/>
    <nd ref="159099074"/>
    <nd ref="159098548"/>
    <tag k="highway" v="residential"/>
    <tag k="maxspeed" v="50"/>
    <tag k="name" v="Axholme St"/>
  </way>
  <way id="15832416" version="4" timestamp="2010-05-26T11:52:08Z" uid="22094" user="Chadzopkyo" changeset="4812314">
    <nd ref="159098546"/>
    <nd ref="159099074"/>
    <nd ref="159098548"/>
    <tag k="highway" v="residential"/>
    <tag k="maxspeed" v="50"/>
    <tag k="name" v="Axholme Street"/>
  </way>
  <way id="15832416" version="5" timestamp="2012-01-15T15:03:26Z" uid="147510" user="woodpeck_fixbot" changeset="10398186">
    <nd ref="159098546"/>
    <nd ref="159099074"/>
    <nd ref="159098548"/>
    <tag k="highway" v="residential"/>
    <tag k="name" v="Axholme Street"/>
  </way>
  <way id="15832451" version="5" timestamp="2010-02-08T07:56:25Z" uid="74617" user="JohnSmith" changeset="3821217">
    <nd ref="159099074"/>
    <nd ref="159099075"/>
    <tag k="highway" v="residential"/>
    <tag k="maxspeed" v="50"/>
    <tag k="name" v="Bugden St"/>
  </way>
  <way id="15832451" version="6" timestamp="2010-05-26T11:52:09Z" uid="22094" user="Chadzopkyo" changeset="4812314">
    <nd ref="159099074"/>
    <nd ref="159099075"/>
    <tag k="highway" v="residential"/>
    <tag k="maxspeed" v="50"/>
    <tag k="name" v="Bugden Street"/>
  </way>
  <way id="15832451" version="7" timestamp="2012-01-15T15:03:28Z" uid="147510" user="woodpeck_fixbot" changeset="10398186">
    <nd ref="159099074"/>
    <nd ref="159099075"/>
    <tag k="highway" v="residential"/>
    <tag k="name" v="Bugden Street"/>
  </way>
  <way id="15832598" version="3" timestamp="2010-02-08T07:56:25Z" uid="74617" user="JohnSmith" changeset="3821217">
    <nd ref="159100568"/>
    <nd ref="159100569"/>
    <tag k="highway" v="residential"/>
    <tag k="maxspeed" v="50"/>
    <tag k="name" v="Fifteenth Ave"/>
  </way>
  <way id="15832598" version="4" timestamp="2010-05-26T11:52:11Z" uid="22094" user="Chadzopkyo" changeset="4812314">
    <nd ref="159100568"/>
    <nd ref="159100569"/>
    <tag k="highway" v="residential"/>
    <tag k="maxspeed" v="50"/>
    <tag k="name" v="Fifteenth Avenue"/>
  </way>
  <way id="15832598" version="5" timestamp="2012-01-15T15:03:29Z" uid="147510" user="woodpeck_fixbot" changeset="10398186">
    <nd ref="159100568"/>
    <nd ref="159100569"/>
    <tag k="highway" v="residential"/>
    <tag k="name" v="Fifteenth Avenue"/>
  </way>
  <way id="15832684" version="6" timestamp="2010-02-08T07:56:26Z" uid="74617" user="JohnSmith" changeset="3821217">
    <nd ref="159101460"/>
    <nd ref="159102279"/>
    <nd ref="579535708"/>
    <nd ref="565913575"/>
    <tag k="highway" v="residential"/>
    <tag k="maxspeed" v="50"/>
    <tag k="name" v="Sixteenth Ave"/>
  </way>
  <way id="15832684" version="7" timestamp="2010-05-26T11:52:08Z" uid="22094" user="Chadzopkyo" changeset="4812314">
    <nd ref="159101460"/>
    <nd ref="159102279"/>
    <nd ref="579535708"/>
    <nd ref="565913575"/>
    <tag k="highway" v="residential"/>
    <tag k="maxspeed" v="50"/>
    <tag k="name" v="Sixteenth Avenue"/>
  </way>
  <way id="15832684" version="8" timestamp="2012-01-15T15:03:32Z" uid="147510" user="woodpeck_fixbot" changeset="10398186">
    <nd ref="159101460"/>
    <nd ref="159102279"/>
    <nd ref="579535708"/>
    <nd ref="565913575"/>
    <tag k="highway" v="residential"/>
    <tag k="name" v="Sixteenth Avenue"/>
  </way>
  <way id="15832713" version="4" timestamp="2009-11-09T04:03:27Z" uid="4467" user="Rosscoe" changeset="3070603">
    <nd ref="159100928"/>
    <nd ref="159100951"/>
    <tag k="bridge" v="yes"/>
    <tag k="highway" v="secondary"/>
    <tag k="layer" v="1"/>
  </way>
  <way id="15832734" version="2" timestamp="2010-02-08T07:56:26Z" uid="74617" user="JohnSmith" changeset="3821217">
    <nd ref="159102275"/>
    <nd ref="159102278"/>
    <nd ref="159102279"/>
    <tag k="highway" v="residential"/>
    <tag k="maxspeed" v="50"/>
    <tag k="name" v="Baldry St"/>
  </way>
  <way id="15832734" version="3" timestamp="2010-05-26T11:52:09Z" uid="22094" user="Chadzopkyo" changeset="4812314">
    <nd ref="159102275"/>
    <nd ref="159102278"/>
    <nd ref="159102279"/>
    <tag k="highway" v="residential"/>
    <tag k="maxspeed" v="50"/>
    <tag k="name" v="Baldry Street"/>
  </way>
  <way id="15832734" version="4" timestamp="2012-01-15T15:03:34Z" uid="147510" user="woodpeck_fixbot" changeset="10398186">
    <nd ref="159102275"/>
    <nd ref="159102278"/>
    <nd ref="159102279"/>
    <tag k="highway" v="residential"/>
    <tag k="name" v="Baldry Street"/>
  </way>
  <way id="15832894" version="7" timestamp="2010-02-08T07:56:27Z" uid="74617" user="JohnSmith" changeset="3821217">
    <nd ref="159103768"/>
    <nd ref="159103769"/>
    <nd ref="579262597"/>
    <nd ref="579262587"/>
    <nd ref="159103770"/>
    <nd ref="579535726"/>
    <nd ref="159103771"/>
    <nd ref="159103774"/>
    <nd ref="579262615"/>
    <nd ref="159103775"/>
    <nd ref="159077822"/>
    <tag k="highway" v="residential"/>
    <tag k="maxspeed" v="50"/>
    <tag k="name" v="Seventeenth Ave"/>
  </way>
  <way id="15832894" version="8" timestamp="2010-05-26T11:52:11Z" uid="22094" user="Chadzopkyo" changeset="4812314">
    <nd ref="159103768"/>
    <nd ref="159103769"/>
    <nd ref="579262597"/>
    <nd ref="579262587"/>
    <nd ref="159103770"/>
    <nd ref="579535726"/>
    <nd ref="159103771"/>
    <nd ref="159103774"/>
    <nd ref="579262615"/>
    <nd ref="159103775"/>
    <nd ref="159077822"/>
    <tag k="highway" v="residential"/>
    <tag k="maxspeed" v="50"/>
    <tag k="name" v="Seventeenth Avenue"/>
  </way>
  <way id="15832894" version="9" timestamp="2012-01-15T15:03:36Z" uid="147510" user="woodpeck_fixbot" changeset="10398186">
    <nd ref="159103768"/>
    <nd ref="159103769"/>
    <nd ref="579262597"/>
    <nd ref="579262587"/>
    <nd ref="159103770"/>
    <nd ref="579535726"/>
    <nd ref="159103771"/>
    <nd ref="159103774"/>
    <nd ref="579262615"/>
    <nd ref="159103775"/>
    <nd ref="159077822"/>
    <tag k="highway" v="residential"/>
    <tag k="name" v="Seventeenth Avenue"/>
  </way>
  <way id="15832988" version="7" timestamp="2010-02-08T07:56:26Z" uid="74617" user="JohnSmith" changeset="3821217">
    <nd ref="159087605"/>
    <nd ref="159105533"/>
    <nd ref="579535729"/>
    <nd ref="579535732"/>
    <tag k="highway" v="residential"/>
    <tag k="maxspeed" v="50"/>
    <tag k="name" v="Eighteenth Ave"/>
  </way>
  <way id="15832988" version="8" timestamp="2010-05-26T11:52:09Z" uid="22094" user="Chadzopkyo" changeset="4812314">
    <nd ref="159087605"/>
    <nd ref="159105533"/>
    <nd ref="579535729"/>
    <nd ref="579535732"/>
    <tag k="highway" v="residential"/>
    <tag k="maxspeed" v="50"/>
    <tag k="name" v="Eighteenth Avenue"/>
  </way>
  <way id="15832988" version="9" timestamp="2012-01-15T15:03:37Z" uid="147510" user="woodpeck_fixbot" changeset="10398186">
    <nd ref="159087605"/>
    <nd ref="159105533"/>
    <nd ref="579535729"/>
    <nd ref="579535732"/>
    <tag k="highway" v="residential"/>
    <tag k="name" v="Eighteenth Avenue"/>
  </way>
</osm>
