<?xml version='1.0' encoding='UTF-8'?>
<osm version="0.6" generator="libosmium/2.20.0">
  <way id="15868514" version="1" timestamp="2007-12-10T07:32:55Z" uid="7617" user="Franc" changeset="239139">
    <nd ref="26637787"/>
    <nd ref="30452118"/>
    <nd ref="31247385"/>
    <nd ref="30430309"/>
    <nd ref="30452117"/>
    <nd ref="30430310"/>
    <nd ref="30452116"/>
    <nd ref="30430311"/>
    <nd ref="30430312"/>
    <nd ref="30430304"/>
    <tag k="created_by" v="Potlatch alpha"/>
    <tag k="highway" v="tertiary"/>
    <tag k="name" v="Homer Street"/>
    <tag k="source" v="yahoo_imagery"/>
    <tag k="source:name" v="survey"/>
  </way>
  <way id="15868514" version="2" timestamp="2007-12-21T00:45:57Z" uid="7617" user="Franc" changeset="382153">
    <nd ref="26637787"/>
    <nd ref="30452118"/>
    <nd ref="31247385"/>
    <nd ref="30430309"/>
    <nd ref="30452117"/>
    <nd ref="30430310"/>
    <nd ref="30452116"/>
    <nd ref="30430311"/>
    <nd ref="30430312"/>
    <nd ref="30430304"/>
    <tag k="created_by" v="Potlatch alpha"/>
    <tag k="highway" v="tertiary"/>
    <tag k="name" v="Homer Street"/>
    <tag k="source" v="survey"/>
  </way>
  <way id="15868514" version="3" timestamp="2007-12-28T21:11:54Z" uid="7617" user="Franc" changeset="455453">
    <nd ref="26637787"/>
    <nd ref="30452118"/>
    <nd ref="31247385"/>
    <nd ref="30430309"/>
    <nd ref="30452117"/>
    <nd ref="30430310"/>
    <nd ref="30452116"/>
    <nd ref="30430311"/>
    <nd ref="30430304"/>
    <nd ref="194464392"/>
    <tag k="created_by" v="Potlatch alpha"/>
    <tag k="highway" v="tertiary"/>
    <tag k="name" v="Homer Street"/>
    <tag k="source" v="survey"/>
  </way>
  <way id="15868514" version="4" timestamp="2008-03-18T06:52:42Z" uid="7617" user="Franc" changeset="343791">
    <nd ref="26637787"/>
    <nd ref="30452118"/>
    <nd ref="31247385"/>
    <nd ref="30452117"/>
    <nd ref="30430310"/>
    <nd ref="30452116"/>
    <nd ref="30430311"/>
    <nd ref="30430304"/>
    <nd ref="194464392"/>
    <tag k="created_by" v="Potlatch alpha"/>
    <tag k="highway" v="tertiary"/>
    <tag k="name" v="Homer Street"/>
    <tag k="source" v="survey"/>
  </way>
  <way id="15868514" version="5" timestamp="2008-03-18T07:07:17Z" uid="7617" user="Franc" changeset="343791">
    <nd ref="26637787"/>
    <nd ref="30452118"/>
    <nd ref="31247385"/>
    <nd ref="30452117"/>
    <nd ref="30430310"/>
    <nd ref="30452116"/>
    <nd ref="252685214"/>
    <nd ref="30430311"/>
    <nd ref="30430304"/>
    <nd ref="194464392"/>
    <tag k="created_by" v="Potlatch alpha"/>
    <tag k="highway" v="tertiary"/>
    <tag k="name" v="Homer Street"/>
    <tag k="source" v="survey"/>
  </way>
  <way id="15868514" version="6" timestamp="2010-01-26T04:02:38Z" uid="30201" user="rrankin" changeset="3716588">
    <nd ref="26637787"/>
    <nd ref="30452118"/>
    <nd ref="31247385"/>
    <nd ref="30452117"/>
    <nd ref="30430310"/>
    <nd ref="30452116"/>
    <nd ref="252685214"/>
    <nd ref="30430311"/>
    <nd ref="30430304"/>
    <nd ref="620365932"/>
    <tag k="highway" v="tertiary"/>
    <tag k="name" v="Homer Street"/>
    <tag k="source" v="survey"/>
  </way>
  <way id="15868514" version="7" timestamp="2010-03-08T02:04:59Z" uid="7617" user="Franc" changeset="4068432">
    <nd ref="26637787"/>
    <nd ref="30452118"/>
    <nd ref="31247385"/>
    <nd ref="662717811"/>
    <tag k="highway" v="tertiary"/>
    <tag k="name" v="Homer Street"/>
    <tag k="source" v="survey"/>
  </way>
  <way id="15868514" version="8" timestamp="2010-09-12T09:58:22Z" uid="30201" user="rrankin" changeset="5757549">
    <nd ref="26637787"/>
    <nd ref="30452118"/>
    <nd ref="31247385"/>
    <nd ref="662717811"/>
    <tag k="highway" v="tertiary"/>
    <tag k="maxspeed" v="50"/>
    <tag k="name" v="Homer Street"/>
    <tag k="source" v="survey"/>
  </way>
  <way id="15868514" version="9" timestamp="2012-02-15T23:34:01Z" uid="7523" user="inas" changeset="10697848">
    <nd ref="26637787"/>
    <nd ref="30452118"/>
    <nd ref="31247385"/>
    <nd ref="662717811"/>
    <nd ref="1634689475"/>
    <tag k="highway" v="tertiary"/>
    <tag k="maxspeed" v="50"/>
    <tag k="name" v="Homer Street"/>
    <tag k="source" v="survey"/>
  </way>
  <way id="15868514" version="10" timestamp="2012-02-16T00:04:25Z" uid="7523" user="inas" changeset="10697992"/>
  <way id="15868956" version="6" timestamp="2011-03-12T05:09:29Z" uid="4467" user="Rosscoe" changeset="7529689">
    <nd ref="159459249"/>
    <nd ref="575432809"/>
    <nd ref="159459250"/>
    <nd ref="159459192"/>
    <nd ref="159459302"/>
    <tag k="highway" v="tertiary"/>
    <tag k="name" v="Lakeside Drive"/>
    <tag k="oneway" v="yes"/>
  </way>
  <way id="15868956" version="7" timestamp="2012-03-10T09:22:20Z" uid="378737" user="Scrup" changeset="10929503">
    <nd ref="159459249"/>
    <nd ref="1668394730"/>
    <nd ref="1668394733"/>
    <nd ref="575432809"/>
    <nd ref="1668394740"/>
    <nd ref="159459192"/>
    <nd ref="159459302"/>
    <tag k="highway" v="tertiary"/>
    <tag k="name" v="Lakeside Drive"/>
    <tag k="oneway" v="yes"/>
  </way>
  <way id="15868961" version="8" timestamp="2011-03-12T05:09:36Z" uid="4467" user="Rosscoe" changeset="7529689"/>
</osm>
