<?xml version='1.0' encoding='UTF-8'?>
<osm version="0.6" generator="libosmium/2.20.0">
  <way id="15882347" version="4" timestamp="2010-07-06T08:50:54Z" uid="74617" user="JohnSmith" changeset="5147679">
    <nd ref="159585845"/>
    <nd ref="159594695"/>
    <tag k="highway" v="unclassified"/>
    <tag k="maxspeed" v="50"/>
    <tag k="maxspeed:source" v="default residential speed limit in Australia"/>
    <tag k="name" v="Blivest Street"/>
  </way>
  <way id="15882347" version="5" timestamp="2012-01-15T15:06:52Z" uid="147510" user="woodpeck_fixbot" changeset="10398186">
    <nd ref="159585845"/>
    <nd ref="159594695"/>
    <tag k="highway" v="unclassified"/>
    <tag k="name" v="Blivest Street"/>
  </way>
  <way id="15882475" version="3" timestamp="2010-07-06T08:54:30Z" uid="74617" user="JohnSmith" changeset="5147679">
    <nd ref="159594695"/>
    <nd ref="159595521"/>
    <nd ref="159595522"/>
    <nd ref="159595523"/>
    <nd ref="159595525"/>
    <nd ref="159595526"/>
    <nd ref="159595527"/>
    <nd ref="159595528"/>
    <nd ref="159595530"/>
    <nd ref="159595531"/>
    <nd ref="159594695"/>
    <tag k="highway" v="unclassified"/>
    <tag k="maxspeed" v="50"/>
    <tag k="maxspeed:source" v="default residential speed limit in Australia"/>
    <tag k="name" v="Blivest Street"/>
    <tag k="oneway" v="yes"/>
  </way>
  <way id="15882475" version="4" timestamp="2012-01-15T15:06:53Z" uid="147510" user="woodpeck_fixbot" changeset="10398186">
    <nd ref="159594695"/>
    <nd ref="159595521"/>
    <nd ref="159595522"/>
    <nd ref="159595523"/>
    <nd ref="159595525"/>
    <nd ref="159595526"/>
    <nd ref="159595527"/>
    <nd ref="159595528"/>
    <nd ref="159595530"/>
    <nd ref="159595531"/>
    <nd ref="159594695"/>
    <tag k="highway" v="unclassified"/>
    <tag k="name" v="Blivest Street"/>
    <tag k="oneway" v="yes"/>
  </way>
  <way id="15882633" version="3" timestamp="2010-02-15T06:35:13Z" uid="74617" user="JohnSmith" changeset="3880421">
    <nd ref="100003575"/>
    <nd ref="159596844"/>
    <nd ref="159596846"/>
    <nd ref="159596847"/>
    <tag k="highway" v="tertiary"/>
    <tag k="oneway" v="yes"/>
  </way>
  <way id="15882633" version="4" timestamp="2010-10-19T14:58:34Z" uid="103782" user="Jordan Anderson" changeset="6100056">
    <nd ref="100003575"/>
    <nd ref="159596844"/>
    <nd ref="159596846"/>
    <nd ref="159596847"/>
    <tag k="highway" v="tertiary"/>
    <tag k="name" v="Rudd Street"/>
    <tag k="oneway" v="yes"/>
  </way>
  <way id="15882732" version="3" timestamp="2010-02-15T06:35:13Z" uid="74617" user="JohnSmith" changeset="3880421">
    <nd ref="159596847"/>
    <nd ref="159597382"/>
    <nd ref="159597384"/>
    <nd ref="100003579"/>
    <tag k="highway" v="tertiary"/>
    <tag k="oneway" v="yes"/>
  </way>
  <way id="15882732" version="4" timestamp="2010-10-19T14:58:33Z" uid="103782" user="Jordan Anderson" changeset="6100056">
    <nd ref="159596847"/>
    <nd ref="159597382"/>
    <nd ref="159597384"/>
    <nd ref="100003579"/>
    <tag k="highway" v="tertiary"/>
    <tag k="name" v="Rudd Street"/>
    <tag k="oneway" v="yes"/>
  </way>
  <way id="15882744" version="2" timestamp="2010-03-11T14:49:52Z" uid="7617" user="Franc" changeset="4098277">
    <nd ref="159596298"/>
    <nd ref="159597494"/>
    <nd ref="159597496"/>
    <nd ref="159597498"/>
    <nd ref="159597500"/>
    <nd ref="159597501"/>
    <nd ref="664043774"/>
    <nd ref="159597502"/>
    <tag k="highway" v="residential"/>
    <tag k="name" v="Prince Street"/>
  </way>
  <way id="15882744" version="3" timestamp="2010-07-08T01:44:41Z" uid="74617" user="JohnSmith" changeset="5162525">
    <nd ref="159596298"/>
    <nd ref="159597494"/>
    <nd ref="159597496"/>
    <nd ref="159597498"/>
    <nd ref="159597500"/>
    <nd ref="159597501"/>
    <nd ref="664043774"/>
    <nd ref="159597502"/>
    <tag k="highway" v="residential"/>
    <tag k="maxspeed" v="50"/>
    <tag k="maxspeed:source" v="default residential speed limit in Australia"/>
    <tag k="name" v="Prince Street"/>
  </way>
  <way id="15882744" version="4" timestamp="2012-01-15T15:06:58Z" uid="147510" user="woodpeck_fixbot" changeset="10398186">
    <nd ref="159596298"/>
    <nd ref="159597494"/>
    <nd ref="159597496"/>
    <nd ref="159597498"/>
    <nd ref="159597500"/>
    <nd ref="159597501"/>
    <nd ref="664043774"/>
    <nd ref="159597502"/>
    <tag k="highway" v="residential"/>
    <tag k="name" v="Prince Street"/>
  </way>
  <way id="15882755" version="2" timestamp="2009-06-21T21:33:33Z" uid="7617" user="Franc" changeset="1588896">
    <nd ref="159597521"/>
    <nd ref="427807995"/>
    <nd ref="159597615"/>
    <tag k="created_by" v="Potlatch 0.5d"/>
    <tag k="highway" v="residential"/>
    <tag k="name" v="Brooker Avenue"/>
    <tag k="source" v="survey"/>
  </way>
  <way id="15882755" version="3" timestamp="2010-03-01T11:54:39Z" uid="7617" user="Franc" changeset="4007908">
    <nd ref="159597521"/>
    <nd ref="159597615"/>
    <tag k="highway" v="residential"/>
    <tag k="name" v="Brooker Avenue"/>
    <tag k="source" v="survey"/>
  </way>
  <way id="15882755" version="4" timestamp="2010-07-08T01:45:27Z" uid="74617" user="JohnSmith" changeset="5162525">
    <nd ref="159597521"/>
    <nd ref="159597615"/>
    <tag k="highway" v="residential"/>
    <tag k="maxspeed" v="50"/>
    <tag k="maxspeed:source" v="default residential speed limit in Australia"/>
    <tag k="name" v="Brooker Avenue"/>
    <tag k="source" v="survey"/>
  </way>
  <way id="15882755" version="5" timestamp="2012-01-15T15:06:59Z" uid="147510" user="woodpeck_fixbot" changeset="10398186">
    <nd ref="159597521"/>
    <nd ref="159597615"/>
    <tag k="highway" v="residential"/>
    <tag k="name" v="Brooker Avenue"/>
    <tag k="source" v="survey"/>
  </way>
  <way id="15882796" version="2" timestamp="2009-06-21T21:33:36Z" uid="7617" user="Franc" changeset="1588896">
    <nd ref="159598007"/>
    <nd ref="159598009"/>
    <nd ref="159598010"/>
    <nd ref="159598011"/>
    <nd ref="159598012"/>
    <nd ref="159597615"/>
    <tag k="created_by" v="Potlatch 0.5d"/>
    <tag k="highway" v="residential"/>
    <tag k="name" v="Brooker Avenue"/>
    <tag k="source" v="survey"/>
  </way>
  <way id="15882796" version="3" timestamp="2010-07-08T01:45:18Z" uid="74617" user="JohnSmith" changeset="5162525">
    <nd ref="159598007"/>
    <nd ref="159598009"/>
    <nd ref="159598010"/>
    <nd ref="159598011"/>
    <nd ref="159598012"/>
    <nd ref="159597615"/>
    <tag k="highway" v="residential"/>
    <tag k="maxspeed" v="50"/>
    <tag k="maxspeed:source" v="default residential speed limit in Australia"/>
    <tag k="name" v="Brooker Avenue"/>
    <tag k="source" v="survey"/>
  </way>
  <way id="15882796" version="4" timestamp="2012-01-15T15:07:02Z" uid="147510" user="woodpeck_fixbot" changeset="10398186">
    <nd ref="159598007"/>
    <nd ref="159598009"/>
    <nd ref="159598010"/>
    <nd ref="159598011"/>
    <nd ref="159598012"/>
    <nd ref="159597615"/>
    <tag k="highway" v="residential"/>
    <tag k="name" v="Brooker Avenue"/>
    <tag k="source" v="survey"/>
  </way>
  <way id="15882804" version="4" timestamp="2010-02-15T06:35:12Z" uid="74617" user="JohnSmith" changeset="3880421">
    <nd ref="159596847"/>
    <nd ref="159598066"/>
    <tag k="highway" v="tertiary"/>
    <tag k="name" v="Rudd Street"/>
  </way>
  <way id="15882861" version="3" timestamp="2010-02-15T06:35:13Z" uid="74617" user="JohnSmith" changeset="3880421">
    <nd ref="159598066"/>
    <nd ref="159598622"/>
    <nd ref="159598623"/>
    <nd ref="159598626"/>
    <nd ref="159598627"/>
    <tag k="highway" v="tertiary"/>
    <tag k="oneway" v="yes"/>
  </way>
  <way id="15882861" version="4" timestamp="2012-02-16T00:48:22Z" uid="103574" user="Here is the repulsant snozzcumber!" changeset="10698016">
    <nd ref="159598066"/>
    <nd ref="159598622"/>
    <nd ref="159598623"/>
    <nd ref="159598626"/>
    <nd ref="1634726124"/>
    <tag k="highway" v="tertiary"/>
    <tag k="oneway" v="yes"/>
  </way>
  <way id="15882863" version="2" timestamp="2009-06-21T21:33:36Z" uid="7617" user="Franc" changeset="1588896">
    <nd ref="159598667"/>
    <nd ref="159598668"/>
    <nd ref="159598669"/>
    <tag k="created_by" v="Potlatch 0.5d"/>
    <tag k="highway" v="residential"/>
    <tag k="name" v="St Aidans Avenue"/>
    <tag k="source" v="survey"/>
  </way>
  <way id="15882863" version="3" timestamp="2010-07-08T01:43:08Z" uid="74617" user="JohnSmith" changeset="5162525">
    <nd ref="159598667"/>
    <nd ref="159598668"/>
    <nd ref="159598669"/>
    <tag k="highway" v="residential"/>
    <tag k="maxspeed" v="50"/>
    <tag k="maxspeed:source" v="default residential speed limit in Australia"/>
    <tag k="name" v="St Aidans Avenue"/>
    <tag k="source" v="survey"/>
  </way>
  <way id="15882863" version="4" timestamp="2012-01-15T15:07:03Z" uid="147510" user="woodpeck_fixbot" changeset="10398186">
    <nd ref="159598667"/>
    <nd ref="159598668"/>
    <nd ref="159598669"/>
    <tag k="highway" v="residential"/>
    <tag k="name" v="St Aidans Avenue"/>
    <tag k="source" v="survey"/>
  </way>
  <way id="15882874" version="3" timestamp="2009-06-21T21:33:34Z" uid="7617" user="Franc" changeset="1588896">
    <nd ref="159598668"/>
    <nd ref="159598899"/>
    <nd ref="159598900"/>
    <nd ref="427808013"/>
    <tag k="created_by" v="Potlatch 0.5d"/>
    <tag k="highway" v="residential"/>
    <tag k="name" v="St Aidans Avenue"/>
    <tag k="source" v="survey"/>
  </way>
  <way id="15882874" version="4" timestamp="2010-07-08T01:43:36Z" uid="74617" user="JohnSmith" changeset="5162525">
    <nd ref="159598668"/>
    <nd ref="159598899"/>
    <nd ref="159598900"/>
    <nd ref="427808013"/>
    <tag k="highway" v="residential"/>
    <tag k="maxspeed" v="50"/>
    <tag k="maxspeed:source" v="default residential speed limit in Australia"/>
    <tag k="name" v="St Aidans Avenue"/>
    <tag k="source" v="survey"/>
  </way>
  <way id="15882874" version="5" timestamp="2012-01-15T15:07:05Z" uid="147510" user="woodpeck_fixbot" changeset="10398186">
    <nd ref="159598668"/>
    <nd ref="159598899"/>
    <nd ref="159598900"/>
    <nd ref="427808013"/>
    <tag k="highway" v="residential"/>
    <tag k="name" v="St Aidans Avenue"/>
    <tag k="source" v="survey"/>
  </way>
  <way id="15882889" version="2" timestamp="2009-06-21T21:33:34Z" uid="7617" user="Franc" changeset="1588896">
    <nd ref="159599143"/>
    <nd ref="159599144"/>
    <nd ref="159599145"/>
    <nd ref="159599146"/>
    <tag k="created_by" v="Potlatch 0.5d"/>
    <tag k="highway" v="residential"/>
    <tag k="name" v="Greens Avenue"/>
  </way>
  <way id="15882889" version="3" timestamp="2010-01-09T11:56:18Z" uid="30201" user="rrankin" changeset="3576938">
    <nd ref="159599143"/>
    <nd ref="159599144"/>
    <nd ref="159599145"/>
    <nd ref="610270240"/>
    <tag k="highway" v="residential"/>
    <tag k="name" v="Greens Avenue"/>
  </way>
  <way id="15882889" version="4" timestamp="2010-07-08T01:45:35Z" uid="74617" user="JohnSmith" changeset="5162525">
    <nd ref="159599143"/>
    <nd ref="159599144"/>
    <nd ref="159599145"/>
    <nd ref="610270240"/>
    <tag k="highway" v="residential"/>
    <tag k="maxspeed" v="50"/>
    <tag k="maxspeed:source" v="default residential speed limit in Australia"/>
    <tag k="name" v="Greens Avenue"/>
  </way>
  <way id="15882889" version="5" timestamp="2012-01-15T15:07:06Z" uid="147510" user="woodpeck_fixbot" changeset="10398186">
    <nd ref="159599143"/>
    <nd ref="159599144"/>
    <nd ref="159599145"/>
    <nd ref="610270240"/>
    <tag k="highway" v="residential"/>
    <tag k="name" v="Greens Avenue"/>
  </way>
  <way id="15882915" version="5" timestamp="2010-02-15T06:35:13Z" uid="74617" user="JohnSmith" changeset="3880421">
    <nd ref="159598627"/>
    <nd ref="159599569"/>
    <nd ref="159599571"/>
    <nd ref="159599330"/>
    <tag k="highway" v="service"/>
    <tag k="maxspeed" v="50"/>
    <tag k="oneway" v="yes"/>
  </way>
  <way id="15882915" version="6" timestamp="2011-02-13T08:52:41Z" uid="398552" user="cam73" changeset="7272728">
    <nd ref="159599330"/>
    <nd ref="159599571"/>
    <nd ref="159599569"/>
    <nd ref="159598627"/>
    <tag k="highway" v="service"/>
    <tag k="maxspeed" v="50"/>
    <tag k="oneway" v="yes"/>
  </way>
  <way id="15882915" version="7" timestamp="2012-01-15T15:07:07Z" uid="147510" user="woodpeck_fixbot" changeset="10398186">
    <nd ref="159599330"/>
    <nd ref="159599571"/>
    <nd ref="159599569"/>
    <nd ref="159598627"/>
    <tag k="highway" v="service"/>
    <tag k="oneway" v="yes"/>
  </way>
  <way id="15882915" version="8" timestamp="2012-02-16T00:48:23Z" uid="103574" user="Here is the repulsant snozzcumber!" changeset="10698016">
    <nd ref="159599330"/>
    <nd ref="159599571"/>
    <nd ref="159599569"/>
    <nd ref="1634726124"/>
    <tag k="highway" v="service"/>
    <tag k="oneway" v="yes"/>
  </way>
  <way id="15882959" version="5" timestamp="2009-06-21T21:33:33Z" uid="7617" user="Franc" changeset="1588896">
    <nd ref="159599146"/>
    <nd ref="159605246"/>
    <nd ref="159599776"/>
    <nd ref="159600433"/>
    <nd ref="427808011"/>
    <nd ref="159599778"/>
    <tag k="created_by" v="Potlatch 0.5d"/>
    <tag k="highway" v="residential"/>
    <tag k="name" v="Greens Avenue"/>
  </way>
  <way id="15882959" version="6" timestamp="2010-02-10T09:10:48Z" uid="9477" user="NilbogAus" changeset="3838578">
    <nd ref="159599146"/>
    <nd ref="159605246"/>
    <nd ref="159599776"/>
    <nd ref="159600433"/>
    <nd ref="427808011"/>
    <nd ref="159599778"/>
    <tag k="highway" v="residential"/>
    <tag k="name" v="Greens Avenue"/>
    <tag k="source" v="survey"/>
  </way>
  <way id="15882959" version="7" timestamp="2010-07-08T01:44:38Z" uid="74617" user="JohnSmith" changeset="5162525">
    <nd ref="159599146"/>
    <nd ref="159605246"/>
    <nd ref="159599776"/>
    <nd ref="159600433"/>
    <nd ref="427808011"/>
    <nd ref="159599778"/>
    <tag k="highway" v="residential"/>
    <tag k="maxspeed" v="50"/>
    <tag k="maxspeed:source" v="default residential speed limit in Australia"/>
    <tag k="name" v="Greens Avenue"/>
    <tag k="source" v="survey"/>
  </way>
  <way id="15882959" version="8" timestamp="2012-01-15T15:07:08Z" uid="147510" user="woodpeck_fixbot" changeset="10398186">
    <nd ref="159599146"/>
    <nd ref="159605246"/>
    <nd ref="159599776"/>
    <nd ref="159600433"/>
    <nd ref="427808011"/>
    <nd ref="159599778"/>
    <tag k="highway" v="residential"/>
    <tag k="name" v="Greens Avenue"/>
    <tag k="source" v="survey"/>
  </way>
  <way id="15882963" version="3" timestamp="2010-02-15T06:35:13Z" uid="74617" user="JohnSmith" changeset="3880421">
    <nd ref="159599330"/>
    <nd ref="159599879"/>
    <tag k="highway" v="service"/>
    <tag k="maxspeed" v="50"/>
  </way>
  <way id="15882963" version="4" timestamp="2012-01-15T15:07:11Z" uid="147510" user="woodpeck_fixbot" changeset="10398186">
    <nd ref="159599330"/>
    <nd ref="159599879"/>
    <tag k="highway" v="service"/>
  </way>
  <way id="15882990" version="3" timestamp="2009-06-21T21:33:35Z" uid="7617" user="Franc" changeset="1588896">
    <nd ref="159599778"/>
    <nd ref="159599780"/>
    <nd ref="427808015"/>
    <nd ref="159600193"/>
    <nd ref="159600786"/>
    <nd ref="159600195"/>
    <nd ref="159600197"/>
    <nd ref="159600199"/>
    <tag k="created_by" v="Potlatch 0.5d"/>
    <tag k="highway" v="residential"/>
    <tag k="name" v="Holmes Avenue"/>
    <tag k="source" v="survey"/>
  </way>
  <way id="15882990" version="4" timestamp="2010-07-08T01:44:45Z" uid="74617" user="JohnSmith" changeset="5162525">
    <nd ref="159599778"/>
    <nd ref="159599780"/>
    <nd ref="427808015"/>
    <nd ref="159600193"/>
    <nd ref="159600786"/>
    <nd ref="159600195"/>
    <nd ref="159600197"/>
    <nd ref="159600199"/>
    <tag k="highway" v="residential"/>
    <tag k="maxspeed" v="50"/>
    <tag k="maxspeed:source" v="default residential speed limit in Australia"/>
    <tag k="name" v="Holmes Avenue"/>
    <tag k="source" v="survey"/>
  </way>
  <way id="15882990" version="5" timestamp="2012-01-15T15:07:12Z" uid="147510" user="woodpeck_fixbot" changeset="10398186">
    <nd ref="159599778"/>
    <nd ref="159599780"/>
    <nd ref="427808015"/>
    <nd ref="159600193"/>
    <nd ref="159600786"/>
    <nd ref="159600195"/>
    <nd ref="159600197"/>
    <nd ref="159600199"/>
    <tag k="highway" v="residential"/>
    <tag k="name" v="Holmes Avenue"/>
    <tag k="source" v="survey"/>
  </way>
</osm>
