<?xml version='1.0' encoding='UTF-8'?>
<osm version="0.6" generator="libosmium/2.20.0">
  <way id="16126076" version="18" timestamp="2008-07-07T00:27:29Z" uid="6975" user="ulfl" changeset="415781">
    <nd ref="195946080"/>
    <nd ref="195946564"/>
    <nd ref="162730514"/>
    <nd ref="162729433"/>
    <nd ref="162731489"/>
    <nd ref="162730515"/>
    <nd ref="268232569"/>
    <nd ref="162730517"/>
    <nd ref="265627119"/>
    <nd ref="162730518"/>
    <tag k="highway" v="secondary"/>
    <tag k="lanes" v="2"/>
    <tag k="name" v="Al. Niepodległości"/>
    <tag k="oneway" v="yes"/>
  </way>
  <way id="16126076" version="19" timestamp="2008-10-13T20:48:56Z" uid="53100" user="Jakub Klawiter" changeset="328363">
    <nd ref="195946080"/>
    <nd ref="195946564"/>
    <nd ref="162730514"/>
    <nd ref="162729433"/>
    <nd ref="162731489"/>
    <nd ref="162730515"/>
    <nd ref="268232569"/>
    <nd ref="162730517"/>
    <nd ref="265627119"/>
    <nd ref="162730518"/>
    <tag k="highway" v="secondary"/>
    <tag k="lanes" v="2"/>
    <tag k="name" v="aleja Niepodległości"/>
    <tag k="oneway" v="yes"/>
  </way>
  <way id="16126076" version="20" timestamp="2008-10-17T21:33:47Z" uid="53100" user="Jakub Klawiter" changeset="408627">
    <nd ref="195946080"/>
    <nd ref="195946564"/>
    <nd ref="162730514"/>
    <nd ref="162729433"/>
    <nd ref="162731489"/>
    <nd ref="162730515"/>
    <nd ref="268232569"/>
    <nd ref="162730517"/>
    <nd ref="265627119"/>
    <nd ref="162730518"/>
    <tag k="highway" v="secondary"/>
    <tag k="lanes" v="2"/>
    <tag k="name" v="Aleja Niepodległości"/>
    <tag k="oneway" v="yes"/>
  </way>
  <way id="16126076" version="21" timestamp="2009-07-28T17:41:19Z" uid="88909" user="miko101" changeset="1967666">
    <nd ref="195946080"/>
    <nd ref="450153681"/>
    <nd ref="195946564"/>
    <nd ref="162730514"/>
    <nd ref="162729433"/>
    <nd ref="162731489"/>
    <nd ref="162730515"/>
    <nd ref="268232569"/>
    <nd ref="162730517"/>
    <nd ref="265627119"/>
    <nd ref="162730518"/>
    <tag k="highway" v="secondary"/>
    <tag k="lanes" v="2"/>
    <tag k="name" v="Aleja Niepodległości"/>
    <tag k="oneway" v="yes"/>
  </way>
  <way id="16126076" version="22" timestamp="2009-11-25T18:12:56Z" uid="19417" user="xjr" changeset="3214553">
    <nd ref="195946080"/>
    <nd ref="450153681"/>
    <nd ref="195946564"/>
    <tag k="highway" v="secondary"/>
    <tag k="lanes" v="2"/>
    <tag k="name" v="Aleja Niepodległości"/>
    <tag k="oneway" v="yes"/>
  </way>
  <way id="16126076" version="23" timestamp="2011-09-09T09:35:09Z" uid="91056" user="Yarl" changeset="9252679">
    <nd ref="195946080"/>
    <nd ref="450153681"/>
    <nd ref="195946564"/>
    <tag k="highway" v="tertiary"/>
    <tag k="lanes" v="2"/>
    <tag k="name" v="Aleja Niepodległości"/>
    <tag k="oneway" v="yes"/>
  </way>
  <way id="16126283" version="10" timestamp="2010-02-12T20:51:28Z" uid="20587" user="balrog-kun" changeset="3860201">
    <nd ref="162728826"/>
    <nd ref="162729433"/>
    <nd ref="265636272"/>
    <nd ref="195954293"/>
    <nd ref="162729436"/>
    <nd ref="162729437"/>
    <nd ref="162734359"/>
    <tag k="highway" v="primary"/>
    <tag k="name" v="Solna"/>
    <tag k="oneway" v="yes"/>
  </way>
  <way id="16126283" version="11" timestamp="2011-09-09T09:35:17Z" uid="91056" user="Yarl" changeset="9252679">
    <nd ref="162728825"/>
    <nd ref="162729433"/>
    <nd ref="265636272"/>
    <nd ref="195954293"/>
    <nd ref="162729436"/>
    <nd ref="162729437"/>
    <nd ref="162734359"/>
    <tag k="highway" v="tertiary"/>
    <tag k="name" v="Solna"/>
    <tag k="oneway" v="yes"/>
  </way>
  <way id="16126424" version="9" timestamp="2010-02-12T20:51:31Z" uid="20587" user="balrog-kun" changeset="3860201">
    <nd ref="162737304"/>
    <nd ref="162737306"/>
    <nd ref="637765409"/>
    <nd ref="162737308"/>
    <nd ref="162737309"/>
    <nd ref="162740364"/>
    <nd ref="246041481"/>
    <nd ref="162740646"/>
    <tag k="highway" v="primary"/>
    <tag k="name" v="Małe Garbary"/>
    <tag k="oneway" v="yes"/>
  </way>
  <way id="16126424" version="10" timestamp="2010-06-24T19:27:23Z" uid="19417" user="xjr" changeset="5068674">
    <nd ref="162737304"/>
    <nd ref="162737306"/>
    <nd ref="637765409"/>
    <nd ref="162737308"/>
    <nd ref="162737309"/>
    <nd ref="162740364"/>
    <nd ref="246041481"/>
    <tag k="highway" v="primary"/>
    <tag k="name" v="Małe Garbary"/>
    <tag k="oneway" v="yes"/>
  </way>
  <way id="16126424" version="11" timestamp="2010-12-11T20:39:55Z" uid="19417" user="xjr" changeset="6629328">
    <nd ref="162737304"/>
    <nd ref="1033925699"/>
    <nd ref="162737306"/>
    <nd ref="637765409"/>
    <nd ref="162737308"/>
    <nd ref="162737309"/>
    <nd ref="162740364"/>
    <nd ref="246041481"/>
    <tag k="highway" v="primary"/>
    <tag k="name" v="Małe Garbary"/>
    <tag k="oneway" v="yes"/>
  </way>
  <way id="16126424" version="12" timestamp="2011-04-07T17:18:24Z" uid="338611" user="marek kleciak" changeset="7796464">
    <nd ref="162737304"/>
    <nd ref="1033925699"/>
    <nd ref="1236304425"/>
    <nd ref="1236304431"/>
    <nd ref="162737306"/>
    <nd ref="637765409"/>
    <nd ref="162737308"/>
    <nd ref="1236304424"/>
    <nd ref="162737309"/>
    <nd ref="162740364"/>
    <nd ref="246041481"/>
    <tag k="highway" v="primary"/>
    <tag k="name" v="Małe Garbary"/>
    <tag k="oneway" v="yes"/>
  </way>
  <way id="16126424" version="13" timestamp="2011-06-17T11:02:46Z" uid="91056" user="Yarl" changeset="8463602">
    <nd ref="162737304"/>
    <nd ref="1236304425"/>
    <nd ref="1236304431"/>
    <nd ref="162737306"/>
    <nd ref="162737308"/>
    <nd ref="1236304424"/>
    <nd ref="162737309"/>
    <nd ref="162740364"/>
    <nd ref="246041481"/>
    <tag k="highway" v="primary"/>
    <tag k="name" v="Małe Garbary"/>
    <tag k="oneway" v="yes"/>
  </way>
  <way id="16126424" version="14" timestamp="2011-09-09T09:35:15Z" uid="91056" user="Yarl" changeset="9252679">
    <nd ref="162737304"/>
    <nd ref="1236304425"/>
    <nd ref="1236304431"/>
    <nd ref="162737306"/>
    <nd ref="162737308"/>
    <nd ref="1236304424"/>
    <nd ref="162737309"/>
    <nd ref="162740364"/>
    <nd ref="246041481"/>
    <tag k="highway" v="tertiary"/>
    <tag k="name" v="Małe Garbary"/>
    <tag k="oneway" v="yes"/>
  </way>
  <way id="16126494" version="20" timestamp="2009-06-29T01:55:44Z" uid="20587" user="balrog-kun" changeset="1672485">
    <nd ref="162759655"/>
    <nd ref="317722792"/>
    <nd ref="259414926"/>
    <nd ref="317725183"/>
    <nd ref="357389601"/>
    <nd ref="317722849"/>
    <nd ref="162761936"/>
    <nd ref="295996181"/>
    <nd ref="426745339"/>
    <nd ref="162761935"/>
    <nd ref="291988225"/>
    <nd ref="162761934"/>
    <nd ref="162761932"/>
    <nd ref="247129585"/>
    <nd ref="162761930"/>
    <nd ref="148026998"/>
    <nd ref="30244739"/>
    <tag k="created_by" v="Merkaartor 0.12"/>
    <tag k="highway" v="tertiary"/>
    <tag k="name" v="Garbary"/>
    <tag k="oneway" v="yes"/>
  </way>
  <way id="16126494" version="21" timestamp="2009-07-26T23:52:24Z" uid="88909" user="miko101" changeset="1950627">
    <nd ref="162759655"/>
    <nd ref="317722792"/>
    <nd ref="259414926"/>
    <nd ref="317725183"/>
    <nd ref="357389601"/>
    <nd ref="317722849"/>
    <nd ref="162761936"/>
    <nd ref="295996181"/>
    <nd ref="426745339"/>
    <nd ref="162761935"/>
    <nd ref="291988225"/>
    <nd ref="162761934"/>
    <nd ref="162761932"/>
    <nd ref="448784531"/>
    <nd ref="247129585"/>
    <nd ref="162761930"/>
    <nd ref="148026998"/>
    <nd ref="30244739"/>
    <tag k="created_by" v="Merkaartor 0.12"/>
    <tag k="highway" v="tertiary"/>
    <tag k="name" v="Garbary"/>
    <tag k="oneway" v="yes"/>
  </way>
  <way id="16126494" version="22" timestamp="2009-09-09T16:42:27Z" uid="88909" user="miko101" changeset="2427255">
    <nd ref="162759655"/>
    <nd ref="317722792"/>
    <nd ref="259414926"/>
    <nd ref="317725183"/>
    <nd ref="357389601"/>
    <nd ref="317722849"/>
    <nd ref="162761936"/>
    <nd ref="295996181"/>
    <nd ref="426745339"/>
    <nd ref="162761935"/>
    <nd ref="291988225"/>
    <nd ref="162761934"/>
    <nd ref="162761932"/>
    <nd ref="448784531"/>
    <nd ref="247129585"/>
    <nd ref="162761930"/>
    <nd ref="148026998"/>
    <nd ref="491406923"/>
    <nd ref="30244739"/>
    <tag k="highway" v="tertiary"/>
    <tag k="name" v="Garbary"/>
    <tag k="oneway" v="yes"/>
  </way>
  <way id="16126494" version="23" timestamp="2010-06-24T19:27:24Z" uid="19417" user="xjr" changeset="5068674">
    <nd ref="162759655"/>
    <nd ref="317722792"/>
    <nd ref="259414926"/>
    <nd ref="317725183"/>
    <nd ref="357389601"/>
    <nd ref="317722849"/>
    <nd ref="162761936"/>
    <nd ref="295996181"/>
    <nd ref="426745339"/>
    <nd ref="162761935"/>
    <tag k="highway" v="tertiary"/>
    <tag k="name" v="Garbary"/>
    <tag k="oneway" v="yes"/>
  </way>
  <way id="16126494" version="24" timestamp="2010-08-25T15:10:08Z" uid="88909" user="miko101" changeset="5590509">
    <nd ref="162759655"/>
    <nd ref="317722792"/>
    <nd ref="259414926"/>
    <nd ref="317725183"/>
    <nd ref="357389601"/>
    <nd ref="317722849"/>
    <nd ref="162761936"/>
    <nd ref="878888053"/>
    <nd ref="295996181"/>
    <nd ref="426745339"/>
    <nd ref="162761935"/>
    <tag k="highway" v="tertiary"/>
    <tag k="name" v="Garbary"/>
    <tag k="oneway" v="yes"/>
  </way>
  <way id="16126494" version="25" timestamp="2011-02-10T15:55:24Z" uid="88909" user="miko101" changeset="7246543">
    <nd ref="162759655"/>
    <nd ref="317722792"/>
    <nd ref="259414926"/>
    <nd ref="317725183"/>
    <nd ref="357389601"/>
    <nd ref="317722849"/>
    <nd ref="162761936"/>
    <nd ref="878888053"/>
    <nd ref="1145519265"/>
    <nd ref="295996181"/>
    <nd ref="1145519260"/>
    <nd ref="426745339"/>
    <nd ref="162761935"/>
    <tag k="highway" v="tertiary"/>
    <tag k="name" v="Garbary"/>
    <tag k="oneway" v="yes"/>
  </way>
  <way id="16126494" version="26" timestamp="2011-09-08T17:36:50Z" uid="91056" user="Yarl" changeset="9247651">
    <nd ref="162759655"/>
    <nd ref="317722792"/>
    <nd ref="259414926"/>
    <nd ref="317725183"/>
    <nd ref="357389601"/>
    <nd ref="317722849"/>
    <nd ref="162761936"/>
    <nd ref="1145519265"/>
    <nd ref="295996181"/>
    <nd ref="1145519260"/>
    <nd ref="1427219232"/>
    <nd ref="426745339"/>
    <nd ref="162761935"/>
    <tag k="highway" v="tertiary"/>
    <tag k="name" v="Garbary"/>
    <tag k="oneway" v="yes"/>
    <tag k="source" v="Bing"/>
  </way>
  <way id="16126494" version="27" timestamp="2011-09-09T17:47:19Z" uid="91056" user="Yarl" changeset="9256309">
    <nd ref="162759655"/>
    <nd ref="1428185895"/>
    <nd ref="317722792"/>
    <nd ref="259414926"/>
    <nd ref="317725183"/>
    <nd ref="357389601"/>
    <nd ref="317722849"/>
    <nd ref="162761936"/>
    <nd ref="1145519265"/>
    <nd ref="295996181"/>
    <nd ref="1145519260"/>
    <nd ref="1427219232"/>
    <nd ref="426745339"/>
    <nd ref="162761935"/>
    <tag k="highway" v="tertiary"/>
    <tag k="name" v="Garbary"/>
    <tag k="oneway" v="yes"/>
    <tag k="source" v="Bing"/>
  </way>
  <way id="16126494" version="28" timestamp="2011-10-07T14:28:44Z" uid="19417" user="xjr" changeset="9494447">
    <nd ref="162759655"/>
    <nd ref="1428185895"/>
    <nd ref="317722792"/>
    <nd ref="259414926"/>
    <nd ref="317725183"/>
    <nd ref="357389601"/>
    <nd ref="317722849"/>
    <nd ref="162761936"/>
    <nd ref="1145519265"/>
    <nd ref="295996181"/>
    <tag k="highway" v="tertiary"/>
    <tag k="name" v="Garbary"/>
    <tag k="oneway" v="yes"/>
    <tag k="source" v="Bing"/>
  </way>
  <way id="16126571" version="1" timestamp="2007-12-11T20:27:45Z" uid="6975" user="ulfl" changeset="261495">
    <nd ref="32913201"/>
    <nd ref="122198857"/>
    <nd ref="162740714"/>
    <tag k="created_by" v="JOSM"/>
    <tag k="highway" v="residential"/>
  </way>
  <way id="16126571" version="2" timestamp="2008-03-07T23:55:18Z" uid="6975" user="ulfl" changeset="286695">
    <nd ref="32913201"/>
    <nd ref="122198857"/>
    <tag k="created_by" v="JOSM"/>
    <tag k="highway" v="residential"/>
    <tag k="oneway" v="true"/>
  </way>
  <way id="16126571" version="3" timestamp="2008-03-08T00:19:52Z" uid="6975" user="ulfl" changeset="286695">
    <nd ref="32913201"/>
    <nd ref="122198857"/>
    <tag k="created_by" v="JOSM"/>
    <tag k="highway" v="residential"/>
    <tag k="name" v="Gustav-Schickedanz-Straße"/>
    <tag k="oneway" v="true"/>
  </way>
  <way id="16126571" version="4" timestamp="2008-03-08T19:48:36Z" uid="30053" user="Red Rooster" changeset="289627"/>
  <way id="16126572" version="1" timestamp="2007-12-11T20:27:45Z" uid="6975" user="ulfl" changeset="261495">
    <nd ref="90444095"/>
    <nd ref="90444090"/>
    <tag k="created_by" v="JOSM"/>
    <tag k="highway" v="secondary"/>
    <tag k="name" v="Kirchenweg"/>
    <tag k="oneway" v="true"/>
  </way>
  <way id="16126572" version="2" timestamp="2008-03-07T23:53:28Z" uid="6975" user="ulfl" changeset="286695">
    <nd ref="90444095"/>
    <nd ref="90444090"/>
    <tag k="created_by" v="JOSM"/>
    <tag k="highway" v="secondary"/>
    <tag k="name" v="Kirchenstraße"/>
    <tag k="oneway" v="true"/>
  </way>
  <way id="16126572" version="3" timestamp="2008-10-07T21:37:36Z" uid="68911" user="Purzel" changeset="149025">
    <nd ref="90444095"/>
    <nd ref="90444090"/>
    <tag k="created_by" v="JOSM"/>
    <tag k="highway" v="secondary"/>
    <tag k="name" v="Kirchenstraße"/>
    <tag k="oneway" v="yes"/>
  </way>
  <way id="16126572" version="4" timestamp="2009-07-20T10:51:43Z" uid="69127" user="GeoGrafiker" changeset="1883478">
    <nd ref="90444095"/>
    <nd ref="90444090"/>
    <tag k="highway" v="residential"/>
    <tag k="name" v="Kirchenstraße"/>
    <tag k="oneway" v="yes"/>
  </way>
  <way id="16126572" version="5" timestamp="2009-09-14T12:30:37Z" uid="46201" user="smial" changeset="2481336">
    <nd ref="90444095"/>
    <nd ref="496111427"/>
    <nd ref="90444090"/>
    <tag k="highway" v="residential"/>
    <tag k="name" v="Kirchenstraße"/>
    <tag k="oneway" v="yes"/>
  </way>
  <way id="16126572" version="6" timestamp="2012-01-18T11:45:57Z" uid="82877" user="Wankmann" changeset="10426593"/>
  <way id="16126574" version="1" timestamp="2007-12-11T20:27:45Z" uid="6975" user="ulfl" changeset="261495">
    <nd ref="90444095"/>
    <nd ref="162740720"/>
    <tag k="created_by" v="JOSM"/>
    <tag k="highway" v="secondary"/>
  </way>
  <way id="16126574" version="2" timestamp="2008-01-07T07:30:04Z" uid="9364" user="keichwa" changeset="567713">
    <nd ref="90444095"/>
    <nd ref="207910590"/>
    <nd ref="162740720"/>
    <tag k="created_by" v="JOSM"/>
    <tag k="highway" v="secondary"/>
  </way>
  <way id="16126574" version="3" timestamp="2008-03-08T19:48:35Z" uid="30053" user="Red Rooster" changeset="289627">
    <nd ref="90444095"/>
    <nd ref="207910590"/>
    <nd ref="162740720"/>
    <tag k="created_by" v="JOSM"/>
    <tag k="highway" v="secondary"/>
    <tag k="name" v="Gabelsbergerstraße"/>
    <tag k="ref" v="B8"/>
  </way>
  <way id="16126574" version="4" timestamp="2008-03-21T20:26:33Z" uid="31644" user="meissnerj" changeset="367679">
    <nd ref="90444095"/>
    <nd ref="207910590"/>
    <nd ref="162740720"/>
    <tag k="created_by" v="Potlatch 0.7b"/>
    <tag k="highway" v="secondary"/>
    <tag k="name" v="Gabelsbergerstraße"/>
    <tag k="ref" v="B8"/>
  </way>
  <way id="16126574" version="5" timestamp="2008-03-21T20:27:11Z" uid="31644" user="meissnerj" changeset="367679">
    <nd ref="90444095"/>
    <nd ref="207910590"/>
    <nd ref="162740720"/>
    <tag k="created_by" v="Potlatch 0.7b"/>
    <tag k="highway" v="secondary"/>
    <tag k="name" v="Gabelsbergerstraße"/>
    <tag k="ref" v="B8"/>
  </way>
  <way id="16126574" version="6" timestamp="2008-09-03T18:59:39Z" uid="39243" user="Diogenes" changeset="515710">
    <nd ref="90444095"/>
    <nd ref="207910590"/>
    <nd ref="162740720"/>
    <tag k="created_by" v="Potlatch 0.10b"/>
    <tag k="highway" v="secondary"/>
    <tag k="name" v="Gabelsbergerstraße"/>
    <tag k="ref" v="B 8"/>
  </way>
  <way id="16126574" version="7" timestamp="2009-06-24T12:49:39Z" uid="135604" user="someplacesometime" changeset="1610955">
    <nd ref="90444090"/>
    <nd ref="90444095"/>
    <nd ref="207910590"/>
    <nd ref="162740720"/>
    <tag k="created_by" v="Potlatch 0.10b"/>
    <tag k="highway" v="secondary"/>
    <tag k="name" v="Gabelsbergerstraße"/>
    <tag k="ref" v="B 8"/>
  </way>
  <way id="16126574" version="8" timestamp="2009-07-20T10:51:45Z" uid="69127" user="GeoGrafiker" changeset="1883478"/>
  <way id="16126575" version="1" timestamp="2007-12-11T20:27:45Z" uid="6975" user="ulfl" changeset="261495">
    <nd ref="162740720"/>
    <nd ref="162740723"/>
    <nd ref="162740729"/>
    <nd ref="162740736"/>
    <nd ref="162740746"/>
    <nd ref="162740753"/>
    <nd ref="162740760"/>
    <nd ref="162740765"/>
    <nd ref="162740774"/>
    <nd ref="162740784"/>
    <nd ref="162740792"/>
    <nd ref="162740800"/>
    <nd ref="162740807"/>
    <nd ref="162740809"/>
    <nd ref="31172493"/>
    <tag k="created_by" v="JOSM"/>
    <tag k="highway" v="secondary"/>
  </way>
  <way id="16126575" version="2" timestamp="2008-01-07T07:55:05Z" uid="9364" user="keichwa" changeset="567713">
    <nd ref="162740720"/>
    <nd ref="162740723"/>
    <nd ref="162740729"/>
    <nd ref="207960349"/>
    <nd ref="207960392"/>
    <nd ref="162740736"/>
    <nd ref="162740746"/>
    <nd ref="162740753"/>
    <nd ref="162740760"/>
    <nd ref="162740765"/>
    <nd ref="162740774"/>
    <nd ref="162740784"/>
    <nd ref="162740792"/>
    <nd ref="162740800"/>
    <nd ref="162740807"/>
    <nd ref="162740809"/>
    <nd ref="31172493"/>
    <tag k="created_by" v="JOSM"/>
    <tag k="highway" v="secondary"/>
  </way>
  <way id="16126575" version="3" timestamp="2008-02-07T06:10:54Z" uid="9364" user="keichwa" changeset="67011">
    <nd ref="162740720"/>
    <nd ref="162740723"/>
    <nd ref="162740729"/>
    <nd ref="207960349"/>
    <nd ref="207960392"/>
    <nd ref="162740736"/>
    <nd ref="162740746"/>
    <nd ref="162740753"/>
    <nd ref="162740760"/>
    <nd ref="162740765"/>
    <nd ref="162740774"/>
    <nd ref="162740784"/>
    <nd ref="162740792"/>
    <tag k="created_by" v="JOSM"/>
    <tag k="highway" v="secondary"/>
  </way>
  <way id="16126575" version="4" timestamp="2008-02-23T09:49:13Z" uid="6975" user="ulfl" changeset="184302">
    <nd ref="162740720"/>
    <nd ref="162740723"/>
    <nd ref="162740729"/>
    <nd ref="207960349"/>
    <nd ref="207960392"/>
    <nd ref="162740736"/>
    <nd ref="162740746"/>
    <nd ref="162740753"/>
    <nd ref="162740760"/>
    <nd ref="162740765"/>
    <nd ref="162740774"/>
    <nd ref="162740784"/>
    <nd ref="162740792"/>
    <tag k="created_by" v="Potlatch 0.7b"/>
    <tag k="highway" v="secondary"/>
  </way>
  <way id="16126575" version="5" timestamp="2008-02-23T09:49:44Z" uid="6975" user="ulfl" changeset="184302">
    <nd ref="162740720"/>
    <nd ref="162740723"/>
    <nd ref="162740729"/>
    <nd ref="207960349"/>
    <nd ref="207960392"/>
    <nd ref="162740736"/>
    <nd ref="162740746"/>
    <nd ref="162740753"/>
    <nd ref="162740760"/>
    <nd ref="162740765"/>
    <nd ref="162740774"/>
    <nd ref="162740784"/>
    <nd ref="162740792"/>
    <tag k="created_by" v="Potlatch 0.7b"/>
    <tag k="highway" v="secondary"/>
  </way>
  <way id="16126575" version="6" timestamp="2008-02-23T09:50:09Z" uid="6975" user="ulfl" changeset="184302">
    <nd ref="162740720"/>
    <nd ref="162740723"/>
    <nd ref="162740729"/>
    <nd ref="207960349"/>
    <nd ref="207960392"/>
    <nd ref="162740736"/>
    <nd ref="162740746"/>
    <nd ref="162740753"/>
    <nd ref="162740760"/>
    <nd ref="162740765"/>
    <nd ref="162740774"/>
    <nd ref="162740784"/>
    <nd ref="162740792"/>
    <tag k="created_by" v="Potlatch 0.7b"/>
    <tag k="highway" v="secondary"/>
  </way>
  <way id="16126575" version="7" timestamp="2008-03-08T19:48:36Z" uid="30053" user="Red Rooster" changeset="289627">
    <nd ref="162740720"/>
    <nd ref="162740723"/>
    <nd ref="162740729"/>
    <nd ref="207960349"/>
    <nd ref="207960392"/>
    <nd ref="162740736"/>
    <nd ref="162740746"/>
    <nd ref="162740753"/>
    <nd ref="162740760"/>
    <nd ref="162740765"/>
    <nd ref="162740774"/>
    <nd ref="162740784"/>
    <nd ref="162740792"/>
    <tag k="created_by" v="Potlatch 0.7b"/>
    <tag k="highway" v="secondary"/>
    <tag k="name" v="Gephardtstraße"/>
    <tag k="ref" v="B8"/>
  </way>
  <way id="16126575" version="8" timestamp="2008-03-10T21:23:04Z" uid="30053" user="Red Rooster" changeset="299613">
    <nd ref="162740720"/>
    <nd ref="162740723"/>
    <nd ref="207960349"/>
    <nd ref="207960392"/>
    <nd ref="162740736"/>
    <nd ref="162740746"/>
    <nd ref="162740753"/>
    <nd ref="162740760"/>
    <nd ref="162740765"/>
    <nd ref="162740774"/>
    <nd ref="162740784"/>
    <nd ref="162740792"/>
    <tag k="created_by" v="Potlatch 0.7b"/>
    <tag k="highway" v="secondary"/>
    <tag k="name" v="Gephardtstraße"/>
    <tag k="ref" v="B8"/>
  </way>
  <way id="16126575" version="9" timestamp="2008-05-26T13:30:12Z" uid="40073" user="Ikovsky" changeset="529618">
    <nd ref="162740720"/>
    <nd ref="162740723"/>
    <nd ref="207960349"/>
    <nd ref="207960392"/>
    <nd ref="162740736"/>
    <nd ref="162740746"/>
    <nd ref="162740753"/>
    <nd ref="162740760"/>
    <nd ref="162740765"/>
    <nd ref="162740774"/>
    <nd ref="162740784"/>
    <nd ref="162740792"/>
    <tag k="created_by" v="Potlatch 0.9a"/>
    <tag k="highway" v="secondary"/>
    <tag k="name" v="Gebhardtstraße"/>
    <tag k="ref" v="B8"/>
  </way>
  <way id="16126575" version="10" timestamp="2008-06-04T19:17:23Z" uid="24920" user="Schusch" changeset="49045">
    <nd ref="162740720"/>
    <nd ref="162740723"/>
    <nd ref="207960349"/>
    <nd ref="207960392"/>
    <nd ref="162740736"/>
    <nd ref="162740746"/>
    <nd ref="162740753"/>
    <nd ref="162740760"/>
    <nd ref="162740765"/>
    <nd ref="162740774"/>
    <nd ref="162740784"/>
    <nd ref="162740792"/>
    <tag k="created_by" v="Potlatch 0.9c"/>
    <tag k="highway" v="secondary"/>
    <tag k="name" v="Gebhardtstraße"/>
    <tag k="ref" v="B 8"/>
  </way>
  <way id="16126575" version="11" timestamp="2008-06-25T16:08:57Z" uid="47619" user="Philipp Schwab" changeset="297895">
    <nd ref="162740720"/>
    <nd ref="162740723"/>
    <nd ref="207960349"/>
    <nd ref="207960392"/>
    <nd ref="162740736"/>
    <nd ref="162740746"/>
    <nd ref="162740753"/>
    <nd ref="162740760"/>
    <nd ref="162740765"/>
    <nd ref="162740774"/>
    <nd ref="162740784"/>
    <nd ref="162740792"/>
    <tag k="created_by" v="Potlatch 0.9c"/>
    <tag k="highway" v="secondary"/>
    <tag k="name" v="Gebhardtstraße"/>
    <tag k="oneway" v="yes"/>
    <tag k="ref" v="B 8"/>
  </way>
  <way id="16126575" version="12" timestamp="2009-07-20T10:51:43Z" uid="69127" user="GeoGrafiker" changeset="1883478">
    <nd ref="162740720"/>
    <nd ref="162740723"/>
    <nd ref="207960349"/>
    <nd ref="207960392"/>
    <nd ref="162740736"/>
    <nd ref="162740746"/>
    <nd ref="162740753"/>
    <nd ref="162740760"/>
    <nd ref="162740765"/>
    <nd ref="162740774"/>
    <nd ref="162740784"/>
    <nd ref="162740792"/>
    <tag k="highway" v="primary"/>
    <tag k="name" v="Gebhardtstraße"/>
    <tag k="oneway" v="yes"/>
  </way>
  <way id="16126575" version="13" timestamp="2009-08-13T20:26:12Z" uid="51324" user="OPerivar" changeset="2136503">
    <nd ref="162740720"/>
    <nd ref="162740723"/>
    <nd ref="463232499"/>
    <nd ref="207960392"/>
    <nd ref="162740736"/>
    <nd ref="162740746"/>
    <nd ref="162740753"/>
    <nd ref="162740760"/>
    <nd ref="162740765"/>
    <nd ref="162740774"/>
    <nd ref="162740784"/>
    <nd ref="162740792"/>
    <tag k="highway" v="primary"/>
    <tag k="name" v="Gebhardtstraße"/>
    <tag k="oneway" v="yes"/>
  </way>
  <way id="16126575" version="14" timestamp="2010-04-03T15:51:04Z" uid="81175" user="robome" changeset="4314391">
    <nd ref="162740720"/>
    <nd ref="162740723"/>
    <nd ref="463232499"/>
    <nd ref="207960392"/>
    <nd ref="683367231"/>
    <nd ref="162740736"/>
    <nd ref="162740746"/>
    <nd ref="683367246"/>
    <nd ref="683367247"/>
    <nd ref="162740753"/>
    <nd ref="162740760"/>
    <nd ref="162740765"/>
    <nd ref="162740774"/>
    <nd ref="162740784"/>
    <nd ref="162740792"/>
    <tag k="highway" v="primary"/>
    <tag k="name" v="Gebhardtstraße"/>
    <tag k="oneway" v="yes"/>
  </way>
  <way id="16126575" version="15" timestamp="2010-08-15T19:12:34Z" uid="202858" user="kellerma" changeset="5503259">
    <nd ref="162740720"/>
    <nd ref="162740723"/>
    <nd ref="463232499"/>
    <nd ref="207960392"/>
    <nd ref="683367231"/>
    <nd ref="162740736"/>
    <nd ref="162740746"/>
    <nd ref="683367246"/>
    <nd ref="683367247"/>
    <nd ref="162740753"/>
    <nd ref="162740760"/>
    <nd ref="162740765"/>
    <nd ref="162740774"/>
    <nd ref="162740784"/>
    <nd ref="162740792"/>
    <tag k="highway" v="primary"/>
    <tag k="maxspeed" v="50"/>
    <tag k="name" v="Gebhardtstraße"/>
    <tag k="oneway" v="yes"/>
  </way>
  <way id="16126575" version="16" timestamp="2011-12-04T15:01:40Z" uid="71557" user="Taroc" changeset="10033983">
    <nd ref="162740720"/>
    <nd ref="162740723"/>
    <nd ref="463232499"/>
    <nd ref="207960392"/>
    <nd ref="683367231"/>
    <nd ref="162740736"/>
    <nd ref="162740746"/>
    <nd ref="683367246"/>
    <nd ref="683367247"/>
    <nd ref="162740753"/>
    <nd ref="162740760"/>
    <nd ref="162740765"/>
    <nd ref="162740774"/>
    <nd ref="162740784"/>
    <nd ref="1531181174"/>
    <tag k="highway" v="primary"/>
    <tag k="maxspeed" v="50"/>
    <tag k="name" v="Gebhardtstraße"/>
    <tag k="oneway" v="yes"/>
  </way>
  <way id="16126575" version="17" timestamp="2012-01-06T09:28:54Z" uid="96069" user="theophrastos" changeset="10309284">
    <nd ref="162740720"/>
    <nd ref="162740723"/>
    <nd ref="463232499"/>
    <nd ref="207960392"/>
    <nd ref="683367231"/>
    <nd ref="162740736"/>
    <nd ref="162740746"/>
    <tag k="highway" v="primary"/>
    <tag k="maxspeed" v="50"/>
    <tag k="name" v="Gebhardtstraße"/>
    <tag k="oneway" v="yes"/>
  </way>
  <way id="16126575" version="18" timestamp="2012-01-18T11:45:55Z" uid="82877" user="Wankmann" changeset="10426593"/>
  <way id="16126666" version="16" timestamp="2010-02-12T20:51:30Z" uid="20587" user="balrog-kun" changeset="3860201">
    <nd ref="162740647"/>
    <nd ref="247470732"/>
    <nd ref="126151691"/>
    <nd ref="126151682"/>
    <nd ref="268230381"/>
    <nd ref="126151673"/>
    <nd ref="637765407"/>
    <nd ref="126151664"/>
    <tag k="highway" v="primary"/>
    <tag k="name" v="Małe Garbary"/>
    <tag k="oneway" v="yes"/>
  </way>
  <way id="16126666" version="17" timestamp="2010-06-24T19:27:29Z" uid="19417" user="xjr" changeset="5068674">
    <nd ref="162740647"/>
    <nd ref="247470732"/>
    <tag k="highway" v="primary"/>
    <tag k="name" v="Małe Garbary"/>
    <tag k="oneway" v="yes"/>
  </way>
  <way id="16126666" version="18" timestamp="2011-09-09T09:35:15Z" uid="91056" user="Yarl" changeset="9252679">
    <nd ref="162740647"/>
    <nd ref="247470732"/>
    <tag k="highway" v="tertiary"/>
    <tag k="name" v="Małe Garbary"/>
    <tag k="oneway" v="yes"/>
  </way>
</osm>
