<?xml version='1.0' encoding='UTF-8'?>
<osm version="0.6" generator="libosmium/2.20.0">
  <way id="16161129" version="10" timestamp="2010-10-09T13:11:18Z" uid="7617" user="Franc" changeset="5993222">
    <nd ref="163430214"/>
    <nd ref="942541007"/>
    <nd ref="163430213"/>
    <nd ref="163428301"/>
    <nd ref="163428303"/>
    <nd ref="163428304"/>
    <nd ref="163428305"/>
    <nd ref="163428306"/>
    <nd ref="163428307"/>
    <nd ref="163428308"/>
    <nd ref="942540964"/>
    <nd ref="163428310"/>
    <nd ref="163428311"/>
    <nd ref="163428312"/>
    <nd ref="163428314"/>
    <nd ref="163428316"/>
    <nd ref="942540831"/>
    <nd ref="163428317"/>
    <nd ref="163428318"/>
    <nd ref="163428320"/>
    <nd ref="942540875"/>
    <nd ref="163428322"/>
    <nd ref="163428323"/>
    <nd ref="163428324"/>
    <nd ref="163428325"/>
    <nd ref="163428326"/>
    <tag k="bicycle" v="yes"/>
    <tag k="cycleway" v="track"/>
    <tag k="foot" v="yes"/>
    <tag k="highway" v="footway"/>
    <tag k="surface" v="unpaved"/>
  </way>
  <way id="16161129" version="11" timestamp="2011-09-28T06:06:13Z" uid="11898" user="Markkt" changeset="9416367">
    <nd ref="163430214"/>
    <nd ref="942541007"/>
    <nd ref="163430213"/>
    <nd ref="163428301"/>
    <nd ref="163428303"/>
    <nd ref="163428304"/>
    <nd ref="163428305"/>
    <nd ref="163428306"/>
    <nd ref="163428307"/>
    <nd ref="163428308"/>
    <nd ref="942540964"/>
    <nd ref="163428310"/>
    <nd ref="163428311"/>
    <nd ref="163428312"/>
    <nd ref="163428314"/>
    <nd ref="163428316"/>
    <nd ref="942540831"/>
    <nd ref="163428317"/>
    <nd ref="163428318"/>
    <nd ref="163428320"/>
    <nd ref="942540875"/>
    <nd ref="163428322"/>
    <nd ref="163428323"/>
    <nd ref="163428324"/>
    <nd ref="163428325"/>
    <nd ref="163428326"/>
    <tag k="bicycle" v="yes"/>
    <tag k="cycleway" v="track"/>
    <tag k="foot" v="yes"/>
    <tag k="highway" v="path"/>
    <tag k="surface" v="unpaved"/>
  </way>
  <way id="16161707" version="4" timestamp="2010-03-06T13:05:15Z" uid="7617" user="Franc" changeset="4049938">
    <nd ref="29698926"/>
    <nd ref="29698928"/>
    <tag k="bridge" v="yes"/>
    <tag k="highway" v="trunk"/>
    <tag k="layer" v="1"/>
    <tag k="maxspeed" v="60"/>
    <tag k="name" v="Pittwater Road"/>
    <tag k="oneway" v="yes"/>
    <tag k="ref" v="MR10"/>
  </way>
  <way id="16161707" version="5" timestamp="2010-03-31T07:59:20Z" uid="74617" user="JohnSmith" changeset="4283194">
    <nd ref="29698926"/>
    <nd ref="29698928"/>
    <tag k="bridge" v="yes"/>
    <tag k="highway" v="trunk"/>
    <tag k="layer" v="1"/>
    <tag k="maxspeed" v="60"/>
    <tag k="name" v="Pittwater Road"/>
    <tag k="oneway" v="yes"/>
  </way>
  <way id="16161707" version="6" timestamp="2010-03-31T08:16:39Z" uid="74617" user="JohnSmith" changeset="4283307">
    <nd ref="29698926"/>
    <nd ref="29698928"/>
    <tag k="bridge" v="yes"/>
    <tag k="highway" v="trunk"/>
    <tag k="layer" v="1"/>
    <tag k="maxspeed" v="60"/>
    <tag k="oneway" v="yes"/>
  </way>
  <way id="16161707" version="7" timestamp="2010-06-28T07:43:43Z" uid="299678" user="peteramjet" changeset="5095437">
    <nd ref="29698926"/>
    <nd ref="29698928"/>
    <tag k="bridge" v="yes"/>
    <tag k="highway" v="trunk"/>
    <tag k="layer" v="1"/>
    <tag k="maxspeed" v="60"/>
    <tag k="oneway" v="yes"/>
    <tag k="ref" v="MR10"/>
  </way>
  <way id="16161707" version="8" timestamp="2010-07-08T10:31:42Z" uid="299678" user="peteramjet" changeset="5164989">
    <nd ref="29698926"/>
    <nd ref="29698928"/>
    <tag k="bridge" v="yes"/>
    <tag k="highway" v="trunk"/>
    <tag k="layer" v="1"/>
    <tag k="maxspeed" v="60"/>
    <tag k="oneway" v="yes"/>
  </way>
  <way id="16161707" version="9" timestamp="2010-07-08T10:32:30Z" uid="299678" user="peteramjet" changeset="5164989">
    <nd ref="29698926"/>
    <nd ref="29698928"/>
    <tag k="bridge" v="yes"/>
    <tag k="highway" v="trunk"/>
    <tag k="layer" v="1"/>
    <tag k="maxspeed" v="60"/>
    <tag k="name" v="Pittwater Road"/>
    <tag k="oneway" v="yes"/>
  </way>
  <way id="16161707" version="10" timestamp="2012-02-02T01:39:14Z" uid="54784" user="Tom Hollander" changeset="10564136">
    <nd ref="29698926"/>
    <nd ref="29698928"/>
    <tag k="bridge" v="yes"/>
    <tag k="highway" v="trunk"/>
    <tag k="layer" v="1"/>
    <tag k="maxspeed" v="60"/>
    <tag k="name" v="Pittwater Road"/>
    <tag k="oneway" v="yes"/>
    <tag k="ref" v="MR10"/>
  </way>
  <way id="16161713" version="12" timestamp="2010-03-06T13:05:13Z" uid="7617" user="Franc" changeset="4049938">
    <nd ref="29698928"/>
    <nd ref="661074192"/>
    <nd ref="29698927"/>
    <nd ref="124844017"/>
    <nd ref="21401210"/>
    <nd ref="26381334"/>
    <nd ref="124840991"/>
    <nd ref="26381277"/>
    <nd ref="124839520"/>
    <nd ref="124839015"/>
    <nd ref="248417189"/>
    <tag k="highway" v="trunk"/>
    <tag k="maxspeed" v="60"/>
    <tag k="name" v="Pittwater Road"/>
    <tag k="oneway" v="yes"/>
    <tag k="ref" v="MR10"/>
  </way>
  <way id="16161713" version="13" timestamp="2010-03-31T07:59:20Z" uid="74617" user="JohnSmith" changeset="4283194">
    <nd ref="29698928"/>
    <nd ref="661074192"/>
    <nd ref="29698927"/>
    <nd ref="124844017"/>
    <nd ref="21401210"/>
    <nd ref="26381334"/>
    <nd ref="124840991"/>
    <nd ref="26381277"/>
    <nd ref="124839520"/>
    <nd ref="124839015"/>
    <nd ref="248417189"/>
    <tag k="highway" v="trunk"/>
    <tag k="maxspeed" v="60"/>
    <tag k="name" v="Pittwater Road"/>
    <tag k="oneway" v="yes"/>
  </way>
  <way id="16161713" version="14" timestamp="2010-06-28T07:43:47Z" uid="299678" user="peteramjet" changeset="5095437">
    <nd ref="29698928"/>
    <nd ref="661074192"/>
    <nd ref="29698927"/>
    <nd ref="124844017"/>
    <nd ref="21401210"/>
    <nd ref="26381334"/>
    <nd ref="124840991"/>
    <nd ref="26381277"/>
    <nd ref="124839520"/>
    <nd ref="124839015"/>
    <nd ref="248417189"/>
    <tag k="highway" v="trunk"/>
    <tag k="maxspeed" v="60"/>
    <tag k="name" v="Pittwater Road"/>
    <tag k="oneway" v="yes"/>
    <tag k="ref" v="MR10"/>
  </way>
  <way id="16161713" version="15" timestamp="2010-07-08T10:31:42Z" uid="299678" user="peteramjet" changeset="5164989">
    <nd ref="29698928"/>
    <nd ref="661074192"/>
    <nd ref="29698927"/>
    <nd ref="124844017"/>
    <nd ref="21401210"/>
    <nd ref="26381334"/>
    <nd ref="124840991"/>
    <nd ref="26381277"/>
    <nd ref="124839520"/>
    <nd ref="124839015"/>
    <nd ref="248417189"/>
    <tag k="highway" v="trunk"/>
    <tag k="maxspeed" v="60"/>
    <tag k="name" v="Pittwater Road"/>
    <tag k="oneway" v="yes"/>
  </way>
  <way id="16161713" version="16" timestamp="2012-02-02T01:39:14Z" uid="54784" user="Tom Hollander" changeset="10564136">
    <nd ref="29698928"/>
    <nd ref="661074192"/>
    <nd ref="29698927"/>
    <nd ref="124844017"/>
    <nd ref="21401210"/>
    <nd ref="26381334"/>
    <nd ref="124840991"/>
    <nd ref="26381277"/>
    <nd ref="124839520"/>
    <nd ref="124839015"/>
    <nd ref="248417189"/>
    <tag k="highway" v="trunk"/>
    <tag k="maxspeed" v="60"/>
    <tag k="name" v="Pittwater Road"/>
    <tag k="oneway" v="yes"/>
    <tag k="ref" v="MR10"/>
  </way>
  <way id="16161713" version="17" timestamp="2012-02-12T12:08:21Z" uid="18713" user="Diego" changeset="10662197">
    <nd ref="29698928"/>
    <nd ref="661074192"/>
    <nd ref="29698927"/>
    <nd ref="1629636871"/>
    <nd ref="124844017"/>
    <nd ref="21401210"/>
    <nd ref="26381334"/>
    <nd ref="124840991"/>
    <nd ref="26381277"/>
    <nd ref="124839520"/>
    <nd ref="124839015"/>
    <nd ref="248417189"/>
    <tag k="highway" v="trunk"/>
    <tag k="maxspeed" v="60"/>
    <tag k="name" v="Pittwater Road"/>
    <tag k="oneway" v="yes"/>
    <tag k="ref" v="MR10"/>
  </way>
</osm>
