<?xml version='1.0' encoding='UTF-8'?>
<osm version="0.6" generator="libosmium/2.20.0">
  <way id="16167386" version="2" timestamp="2008-12-13T21:45:56Z" uid="6975" user="ulfl" changeset="352865">
    <nd ref="163531824"/>
    <nd ref="163531830"/>
    <nd ref="163531827"/>
    <tag k="highway" v="residential"/>
    <tag k="name" v="Martin Close"/>
  </way>
  <way id="16167387" version="2" timestamp="2008-12-13T21:45:57Z" uid="6975" user="ulfl" changeset="352865">
    <nd ref="163531830"/>
    <nd ref="163531832"/>
    <tag k="highway" v="residential"/>
    <tag k="name" v="Martin Close"/>
  </way>
  <way id="16167464" version="5" timestamp="2009-07-06T03:52:18Z" uid="61114" user="Trav" changeset="1745380">
    <nd ref="163533382"/>
    <nd ref="277919445"/>
    <nd ref="277918108"/>
    <nd ref="114325816"/>
    <tag k="highway" v="residential"/>
    <tag k="name" v="Lantana Avenue"/>
    <tag k="source:name" v="survey"/>
  </way>
  <way id="16167464" version="6" timestamp="2010-07-07T23:33:38Z" uid="74617" user="JohnSmith" changeset="5162525">
    <nd ref="163533382"/>
    <nd ref="277919445"/>
    <nd ref="277918108"/>
    <nd ref="114325816"/>
    <tag k="highway" v="residential"/>
    <tag k="maxspeed" v="50"/>
    <tag k="maxspeed:source" v="default residential speed limit in Australia"/>
    <tag k="name" v="Lantana Avenue"/>
    <tag k="source:name" v="survey"/>
  </way>
  <way id="16167464" version="7" timestamp="2012-01-15T15:25:34Z" uid="147510" user="woodpeck_fixbot" changeset="10398186">
    <nd ref="163533382"/>
    <nd ref="277919445"/>
    <nd ref="277918108"/>
    <nd ref="114325816"/>
    <tag k="highway" v="residential"/>
    <tag k="name" v="Lantana Avenue"/>
    <tag k="source:name" v="survey"/>
  </way>
  <way id="16167667" version="6" timestamp="2009-07-06T03:52:29Z" uid="61114" user="Trav" changeset="1745380">
    <nd ref="114323987"/>
    <nd ref="163538009"/>
    <nd ref="163537480"/>
    <nd ref="163537481"/>
    <nd ref="163538807"/>
    <nd ref="163537482"/>
    <tag k="highway" v="residential"/>
    <tag k="name" v="Greystoke Street"/>
    <tag k="source:name" v="survey"/>
  </way>
  <way id="16167667" version="7" timestamp="2010-01-23T12:11:00Z" uid="30201" user="rrankin" changeset="3690907">
    <nd ref="114323987"/>
    <nd ref="618623900"/>
    <nd ref="163538009"/>
    <nd ref="163537480"/>
    <nd ref="163537481"/>
    <nd ref="163538807"/>
    <nd ref="163537482"/>
    <tag k="highway" v="residential"/>
    <tag k="name" v="Greystoke Street"/>
    <tag k="source:name" v="survey"/>
  </way>
  <way id="16167667" version="8" timestamp="2010-07-07T23:34:12Z" uid="74617" user="JohnSmith" changeset="5162525">
    <nd ref="114323987"/>
    <nd ref="618623900"/>
    <nd ref="163538009"/>
    <nd ref="163537480"/>
    <nd ref="163537481"/>
    <nd ref="163538807"/>
    <nd ref="163537482"/>
    <tag k="highway" v="residential"/>
    <tag k="maxspeed" v="50"/>
    <tag k="maxspeed:source" v="default residential speed limit in Australia"/>
    <tag k="name" v="Greystoke Street"/>
    <tag k="source:name" v="survey"/>
  </way>
  <way id="16167667" version="9" timestamp="2012-01-15T15:25:36Z" uid="147510" user="woodpeck_fixbot" changeset="10398186">
    <nd ref="114323987"/>
    <nd ref="618623900"/>
    <nd ref="163538009"/>
    <nd ref="163537480"/>
    <nd ref="163537481"/>
    <nd ref="163538807"/>
    <nd ref="163537482"/>
    <tag k="highway" v="residential"/>
    <tag k="name" v="Greystoke Street"/>
    <tag k="source:name" v="survey"/>
  </way>
  <way id="16167693" version="3" timestamp="2009-07-06T03:52:19Z" uid="61114" user="Trav" changeset="1745380">
    <nd ref="163537481"/>
    <nd ref="163538005"/>
    <nd ref="163538006"/>
    <nd ref="163538008"/>
    <nd ref="163538009"/>
    <tag k="highway" v="residential"/>
    <tag k="name" v="Ennerdale Crescent"/>
    <tag k="source:name" v="survey"/>
  </way>
  <way id="16167693" version="4" timestamp="2010-07-07T23:33:55Z" uid="74617" user="JohnSmith" changeset="5162525">
    <nd ref="163537481"/>
    <nd ref="163538005"/>
    <nd ref="163538006"/>
    <nd ref="163538008"/>
    <nd ref="163538009"/>
    <tag k="highway" v="residential"/>
    <tag k="maxspeed" v="50"/>
    <tag k="maxspeed:source" v="default residential speed limit in Australia"/>
    <tag k="name" v="Ennerdale Crescent"/>
    <tag k="source:name" v="survey"/>
  </way>
  <way id="16167693" version="5" timestamp="2012-01-15T15:25:38Z" uid="147510" user="woodpeck_fixbot" changeset="10398186">
    <nd ref="163537481"/>
    <nd ref="163538005"/>
    <nd ref="163538006"/>
    <nd ref="163538008"/>
    <nd ref="163538009"/>
    <tag k="highway" v="residential"/>
    <tag k="name" v="Ennerdale Crescent"/>
    <tag k="source:name" v="survey"/>
  </way>
  <way id="16167762" version="2" timestamp="2009-07-06T03:52:30Z" uid="61114" user="Trav" changeset="1745380">
    <nd ref="163538807"/>
    <nd ref="163539932"/>
    <nd ref="114323975"/>
    <tag k="highway" v="residential"/>
    <tag k="name" v="Bowness Street"/>
    <tag k="source:name" v="survey"/>
  </way>
  <way id="16167762" version="3" timestamp="2010-07-07T23:32:48Z" uid="74617" user="JohnSmith" changeset="5162525">
    <nd ref="163538807"/>
    <nd ref="163539932"/>
    <nd ref="114323975"/>
    <tag k="highway" v="residential"/>
    <tag k="maxspeed" v="50"/>
    <tag k="maxspeed:source" v="default residential speed limit in Australia"/>
    <tag k="name" v="Bowness Street"/>
    <tag k="source:name" v="survey"/>
  </way>
  <way id="16167762" version="4" timestamp="2012-01-15T15:25:41Z" uid="147510" user="woodpeck_fixbot" changeset="10398186">
    <nd ref="163538807"/>
    <nd ref="163539932"/>
    <nd ref="114323975"/>
    <tag k="highway" v="residential"/>
    <tag k="name" v="Bowness Street"/>
    <tag k="source:name" v="survey"/>
  </way>
  <way id="16167771" version="2" timestamp="2009-07-06T03:52:31Z" uid="61114" user="Trav" changeset="1745380">
    <nd ref="163540040"/>
    <nd ref="114323970"/>
    <tag k="highway" v="residential"/>
    <tag k="name" v="Alice Close"/>
  </way>
  <way id="16167771" version="3" timestamp="2010-07-07T23:31:47Z" uid="74617" user="JohnSmith" changeset="5162525">
    <nd ref="163540040"/>
    <nd ref="114323970"/>
    <tag k="highway" v="residential"/>
    <tag k="maxspeed" v="50"/>
    <tag k="maxspeed:source" v="default residential speed limit in Australia"/>
    <tag k="name" v="Alice Close"/>
  </way>
  <way id="16167771" version="4" timestamp="2012-01-15T15:25:43Z" uid="147510" user="woodpeck_fixbot" changeset="10398186">
    <nd ref="163540040"/>
    <nd ref="114323970"/>
    <tag k="highway" v="residential"/>
    <tag k="name" v="Alice Close"/>
  </way>
  <way id="16167806" version="3" timestamp="2009-07-06T03:52:45Z" uid="61114" user="Trav" changeset="1745380"/>
  <way id="16167837" version="2" timestamp="2009-07-06T03:52:30Z" uid="61114" user="Trav" changeset="1745380">
    <nd ref="163541086"/>
    <nd ref="163541088"/>
    <nd ref="114323975"/>
    <tag k="highway" v="residential"/>
    <tag k="name" v="Windermere Place"/>
    <tag k="source:name" v="survey"/>
  </way>
  <way id="16167837" version="3" timestamp="2010-07-07T23:34:04Z" uid="74617" user="JohnSmith" changeset="5162525">
    <nd ref="163541086"/>
    <nd ref="163541088"/>
    <nd ref="114323975"/>
    <tag k="highway" v="residential"/>
    <tag k="maxspeed" v="50"/>
    <tag k="maxspeed:source" v="default residential speed limit in Australia"/>
    <tag k="name" v="Windermere Place"/>
    <tag k="source:name" v="survey"/>
  </way>
  <way id="16167837" version="4" timestamp="2012-01-15T15:25:44Z" uid="147510" user="woodpeck_fixbot" changeset="10398186">
    <nd ref="163541086"/>
    <nd ref="163541088"/>
    <nd ref="114323975"/>
    <tag k="highway" v="residential"/>
    <tag k="name" v="Windermere Place"/>
    <tag k="source:name" v="survey"/>
  </way>
  <way id="16167884" version="3" timestamp="2009-07-06T03:52:27Z" uid="61114" user="Trav" changeset="1745380">
    <nd ref="163541645"/>
    <nd ref="163542982"/>
    <nd ref="163542984"/>
    <nd ref="163542985"/>
    <nd ref="163542986"/>
    <tag k="highway" v="residential"/>
    <tag k="name" v="Grasmere Crescent"/>
    <tag k="source:name" v="survey"/>
  </way>
  <way id="16167884" version="4" timestamp="2009-10-13T19:14:52Z" uid="184929" user="jaybee767" changeset="2839508">
    <nd ref="163541645"/>
    <nd ref="163542982"/>
    <nd ref="163542984"/>
    <nd ref="163542985"/>
    <nd ref="163542986"/>
    <tag k="highway" v="residential"/>
    <tag k="maxspeed" v="50"/>
    <tag k="name" v="Grasmere Crescent"/>
    <tag k="source:name" v="survey"/>
  </way>
  <way id="16167886" version="4" timestamp="2009-06-06T03:22:02Z" uid="61114" user="Trav" changeset="1434233">
    <nd ref="114323978"/>
    <nd ref="163543026"/>
    <nd ref="163543028"/>
    <nd ref="163545211"/>
    <nd ref="163543029"/>
    <nd ref="163543030"/>
    <nd ref="163543031"/>
    <nd ref="163543033"/>
    <nd ref="163543034"/>
    <nd ref="163543035"/>
    <nd ref="163543037"/>
    <tag k="highway" v="residential"/>
    <tag k="name" v="Coniston Street"/>
    <tag k="source:name" v="survey"/>
  </way>
  <way id="16167886" version="5" timestamp="2009-10-13T19:14:54Z" uid="184929" user="jaybee767" changeset="2839508">
    <nd ref="114323978"/>
    <nd ref="163543026"/>
    <nd ref="163543028"/>
    <nd ref="163545211"/>
    <nd ref="163543029"/>
    <nd ref="163543030"/>
    <nd ref="163543031"/>
    <nd ref="163543033"/>
    <nd ref="163543034"/>
    <nd ref="163543035"/>
    <nd ref="163543037"/>
    <tag k="highway" v="residential"/>
    <tag k="maxspeed" v="50"/>
    <tag k="name" v="Coniston Street"/>
    <tag k="source:name" v="survey"/>
  </way>
  <way id="16167920" version="5" timestamp="2009-06-06T03:21:59Z" uid="61114" user="Trav" changeset="1434233">
    <nd ref="114317592"/>
    <nd ref="163544077"/>
    <nd ref="163543037"/>
    <nd ref="163544078"/>
    <nd ref="163544079"/>
    <nd ref="163544080"/>
    <nd ref="163548147"/>
    <nd ref="163546392"/>
    <nd ref="163544081"/>
    <nd ref="114323981"/>
    <tag k="highway" v="residential"/>
    <tag k="name" v="Kirkstone Road"/>
    <tag k="source:name" v="survey"/>
  </way>
  <way id="16167920" version="6" timestamp="2009-10-13T19:14:57Z" uid="184929" user="jaybee767" changeset="2839508">
    <nd ref="114317592"/>
    <nd ref="163544077"/>
    <nd ref="163543037"/>
    <nd ref="163544078"/>
    <nd ref="163544079"/>
    <nd ref="163544080"/>
    <nd ref="163548147"/>
    <nd ref="163546392"/>
    <nd ref="163544081"/>
    <nd ref="114323981"/>
    <tag k="highway" v="residential"/>
    <tag k="maxspeed" v="50"/>
    <tag k="name" v="Kirkstone Road"/>
    <tag k="source:name" v="survey"/>
  </way>
  <way id="16167920" version="7" timestamp="2010-01-23T08:40:09Z" uid="30201" user="rrankin" changeset="3689609">
    <nd ref="114317592"/>
    <nd ref="163544077"/>
    <nd ref="163543037"/>
    <nd ref="163544078"/>
    <nd ref="163544079"/>
    <nd ref="163544080"/>
    <nd ref="163548147"/>
    <nd ref="163546392"/>
    <nd ref="163544081"/>
    <nd ref="529664405"/>
    <nd ref="114323981"/>
    <tag k="highway" v="residential"/>
    <tag k="maxspeed" v="50"/>
    <tag k="name" v="Kirkstone Road"/>
    <tag k="source:name" v="survey"/>
  </way>
  <way id="16167929" version="3" timestamp="2009-06-06T03:21:58Z" uid="61114" user="Trav" changeset="1434233">
    <nd ref="114318384"/>
    <nd ref="163544080"/>
    <tag k="highway" v="residential"/>
    <tag k="name" v="Heather Street"/>
    <tag k="source:name" v="survey"/>
  </way>
  <way id="16167929" version="4" timestamp="2010-07-07T23:32:19Z" uid="74617" user="JohnSmith" changeset="5162525">
    <nd ref="114318384"/>
    <nd ref="163544080"/>
    <tag k="highway" v="residential"/>
    <tag k="maxspeed" v="50"/>
    <tag k="maxspeed:source" v="default residential speed limit in Australia"/>
    <tag k="name" v="Heather Street"/>
    <tag k="source:name" v="survey"/>
  </way>
  <way id="16167929" version="5" timestamp="2012-01-15T15:25:46Z" uid="147510" user="woodpeck_fixbot" changeset="10398186">
    <nd ref="114318384"/>
    <nd ref="163544080"/>
    <tag k="highway" v="residential"/>
    <tag k="name" v="Heather Street"/>
    <tag k="source:name" v="survey"/>
  </way>
  <way id="16167968" version="2" timestamp="2009-06-06T03:22:02Z" uid="61114" user="Trav" changeset="1434233">
    <nd ref="163545210"/>
    <nd ref="163545211"/>
    <tag k="highway" v="residential"/>
    <tag k="name" v="Torver Place"/>
    <tag k="source:name" v="survey"/>
  </way>
  <way id="16167968" version="3" timestamp="2009-10-13T19:15:01Z" uid="184929" user="jaybee767" changeset="2839508">
    <nd ref="163545210"/>
    <nd ref="163545211"/>
    <tag k="highway" v="residential"/>
    <tag k="maxspeed" v="50"/>
    <tag k="name" v="Torver Place"/>
    <tag k="source:name" v="survey"/>
  </way>
  <way id="16167982" version="3" timestamp="2009-06-06T03:22:01Z" uid="61114" user="Trav" changeset="1434233">
    <nd ref="163545498"/>
    <nd ref="114317594"/>
    <tag k="highway" v="residential"/>
    <tag k="name" v="Lake Street"/>
    <tag k="source:name" v="survey"/>
  </way>
  <way id="16167982" version="4" timestamp="2009-10-13T19:14:57Z" uid="184929" user="jaybee767" changeset="2839508">
    <nd ref="163545498"/>
    <nd ref="114317594"/>
    <tag k="highway" v="residential"/>
    <tag k="maxspeed" v="50"/>
    <tag k="name" v="Lake Street"/>
    <tag k="source:name" v="survey"/>
  </way>
</osm>
