<?xml version='1.0' encoding='UTF-8'?>
<osm version="0.6" generator="libosmium/2.20.0">
  <way id="16213543" version="2" timestamp="2010-07-08T17:47:10Z" uid="74617" user="JohnSmith" changeset="5167338">
    <nd ref="164635149"/>
    <nd ref="164635210"/>
    <nd ref="164635262"/>
    <tag k="highway" v="residential"/>
    <tag k="maxspeed" v="50"/>
    <tag k="maxspeed:source" v="default residential speed limit in Australia"/>
    <tag k="name" v="Maude Street"/>
  </way>
  <way id="16213543" version="3" timestamp="2012-01-15T15:33:53Z" uid="147510" user="woodpeck_fixbot" changeset="10398186">
    <nd ref="164635149"/>
    <nd ref="164635210"/>
    <nd ref="164635262"/>
    <tag k="highway" v="residential"/>
    <tag k="name" v="Maude Street"/>
  </way>
  <way id="16213544" version="2" timestamp="2010-07-08T17:47:36Z" uid="74617" user="JohnSmith" changeset="5167338">
    <nd ref="164635297"/>
    <nd ref="164635334"/>
    <nd ref="164635370"/>
    <nd ref="164635414"/>
    <nd ref="164635445"/>
    <tag k="highway" v="residential"/>
    <tag k="maxspeed" v="50"/>
    <tag k="maxspeed:source" v="default residential speed limit in Australia"/>
    <tag k="name" v="Michelle Court"/>
  </way>
  <way id="16213544" version="3" timestamp="2012-01-15T15:33:54Z" uid="147510" user="woodpeck_fixbot" changeset="10398186">
    <nd ref="164635297"/>
    <nd ref="164635334"/>
    <nd ref="164635370"/>
    <nd ref="164635414"/>
    <nd ref="164635445"/>
    <tag k="highway" v="residential"/>
    <tag k="name" v="Michelle Court"/>
  </way>
  <way id="16213547" version="2" timestamp="2010-07-08T17:49:27Z" uid="74617" user="JohnSmith" changeset="5167338">
    <nd ref="60669336"/>
    <nd ref="60669384"/>
    <nd ref="164635476"/>
    <tag k="highway" v="residential"/>
    <tag k="maxspeed" v="50"/>
    <tag k="maxspeed:source" v="default residential speed limit in Australia"/>
    <tag k="name" v="Vindon Avenue"/>
  </way>
  <way id="16213547" version="3" timestamp="2012-01-15T15:33:57Z" uid="147510" user="woodpeck_fixbot" changeset="10398186">
    <nd ref="60669336"/>
    <nd ref="60669384"/>
    <nd ref="164635476"/>
    <tag k="highway" v="residential"/>
    <tag k="name" v="Vindon Avenue"/>
  </way>
  <way id="16213549" version="2" timestamp="2010-07-08T17:50:38Z" uid="74617" user="JohnSmith" changeset="5167338">
    <nd ref="164635512"/>
    <nd ref="164635535"/>
    <nd ref="164635555"/>
    <tag k="highway" v="residential"/>
    <tag k="maxspeed" v="50"/>
    <tag k="maxspeed:source" v="default residential speed limit in Australia"/>
    <tag k="name" v="Doherty Avenue"/>
  </way>
  <way id="16213549" version="3" timestamp="2012-01-15T15:33:58Z" uid="147510" user="woodpeck_fixbot" changeset="10398186">
    <nd ref="164635512"/>
    <nd ref="164635535"/>
    <nd ref="164635555"/>
    <tag k="highway" v="residential"/>
    <tag k="name" v="Doherty Avenue"/>
  </way>
  <way id="16213551" version="2" timestamp="2010-07-08T17:48:44Z" uid="74617" user="JohnSmith" changeset="5167338">
    <nd ref="164635560"/>
    <nd ref="164635585"/>
    <nd ref="164635616"/>
    <nd ref="164635654"/>
    <tag k="highway" v="residential"/>
    <tag k="maxspeed" v="50"/>
    <tag k="maxspeed:source" v="default residential speed limit in Australia"/>
    <tag k="name" v="Botany Street"/>
  </way>
  <way id="16213551" version="3" timestamp="2012-01-15T15:33:59Z" uid="147510" user="woodpeck_fixbot" changeset="10398186">
    <nd ref="164635560"/>
    <nd ref="164635585"/>
    <nd ref="164635616"/>
    <nd ref="164635654"/>
    <tag k="highway" v="residential"/>
    <tag k="name" v="Botany Street"/>
  </way>
  <way id="16213553" version="2" timestamp="2010-07-08T17:47:00Z" uid="74617" user="JohnSmith" changeset="5167338">
    <nd ref="164635683"/>
    <nd ref="164635732"/>
    <nd ref="164635782"/>
    <nd ref="164635797"/>
    <tag k="highway" v="residential"/>
    <tag k="maxspeed" v="50"/>
    <tag k="maxspeed:source" v="default residential speed limit in Australia"/>
    <tag k="name" v="Fairfield Square"/>
  </way>
  <way id="16213553" version="3" timestamp="2012-01-15T15:34:00Z" uid="147510" user="woodpeck_fixbot" changeset="10398186">
    <nd ref="164635683"/>
    <nd ref="164635732"/>
    <nd ref="164635782"/>
    <nd ref="164635797"/>
    <tag k="highway" v="residential"/>
    <tag k="name" v="Fairfield Square"/>
  </way>
</osm>
