<?xml version='1.0' encoding='UTF-8'?>
<osm version="0.6" generator="libosmium/2.20.0">
  <way id="16242007" version="2" timestamp="2010-07-08T17:49:28Z" uid="74617" user="JohnSmith" changeset="5167338">
    <nd ref="165198398"/>
    <nd ref="165198453"/>
    <nd ref="165198543"/>
    <tag k="highway" v="residential"/>
    <tag k="maxspeed" v="50"/>
    <tag k="maxspeed:source" v="default residential speed limit in Australia"/>
    <tag k="name" v="Robert Street"/>
  </way>
  <way id="16242007" version="3" timestamp="2012-01-15T15:35:05Z" uid="147510" user="woodpeck_fixbot" changeset="10398186">
    <nd ref="165198398"/>
    <nd ref="165198453"/>
    <nd ref="165198543"/>
    <tag k="highway" v="residential"/>
    <tag k="name" v="Robert Street"/>
  </way>
  <way id="16242010" version="2" timestamp="2010-07-08T17:47:54Z" uid="74617" user="JohnSmith" changeset="5167338">
    <nd ref="165198517"/>
    <nd ref="165198543"/>
    <nd ref="165198560"/>
    <nd ref="165198590"/>
    <tag k="highway" v="residential"/>
    <tag k="maxspeed" v="50"/>
    <tag k="maxspeed:source" v="default residential speed limit in Australia"/>
    <tag k="name" v="Mulcare Street"/>
  </way>
  <way id="16242010" version="3" timestamp="2012-01-15T15:35:08Z" uid="147510" user="woodpeck_fixbot" changeset="10398186">
    <nd ref="165198517"/>
    <nd ref="165198543"/>
    <nd ref="165198560"/>
    <nd ref="165198590"/>
    <tag k="highway" v="residential"/>
    <tag k="name" v="Mulcare Street"/>
  </way>
  <way id="16242013" version="2" timestamp="2010-07-08T17:48:11Z" uid="74617" user="JohnSmith" changeset="5167338">
    <nd ref="165198543"/>
    <nd ref="165198487"/>
    <tag k="highway" v="residential"/>
    <tag k="maxspeed" v="50"/>
    <tag k="maxspeed:source" v="default residential speed limit in Australia"/>
    <tag k="name" v="Robert Court"/>
  </way>
  <way id="16242013" version="3" timestamp="2012-01-15T15:35:09Z" uid="147510" user="woodpeck_fixbot" changeset="10398186">
    <nd ref="165198543"/>
    <nd ref="165198487"/>
    <tag k="highway" v="residential"/>
    <tag k="name" v="Robert Court"/>
  </way>
  <way id="16242142" version="1" timestamp="2007-12-12T22:27:45Z" uid="6454" user="B10xxx" changeset="276009">
    <nd ref="33812999"/>
    <nd ref="165200211"/>
    <nd ref="165200204"/>
    <nd ref="165200199"/>
    <nd ref="165200192"/>
    <tag k="created_by" v="JOSM"/>
    <tag k="highway" v="residential"/>
  </way>
  <way id="16242142" version="2" timestamp="2008-06-26T07:49:41Z" uid="47606" user="Oktober" changeset="306666">
    <nd ref="33812999"/>
    <nd ref="165200211"/>
    <nd ref="165200204"/>
    <nd ref="165200199"/>
    <nd ref="165200192"/>
    <tag k="created_by" v="Potlatch 0.9c"/>
    <tag k="highway" v="residential"/>
    <tag k="name" v="Bahnhofstraße"/>
  </way>
  <way id="16242142" version="3" timestamp="2008-11-18T09:04:46Z" uid="47606" user="Oktober" changeset="763977">
    <nd ref="33812999"/>
    <nd ref="165200211"/>
    <nd ref="165200204"/>
    <nd ref="165200199"/>
    <nd ref="165200192"/>
    <tag k="created_by" v="Potlatch 0.10f"/>
    <tag k="highway" v="residential"/>
    <tag k="name" v="Bahnhofstraße"/>
  </way>
  <way id="16242142" version="4" timestamp="2008-11-18T09:05:21Z" uid="47606" user="Oktober" changeset="763977">
    <nd ref="33812999"/>
    <nd ref="165200211"/>
    <nd ref="165200204"/>
    <nd ref="165200199"/>
    <nd ref="165200192"/>
    <tag k="created_by" v="Potlatch 0.10f"/>
    <tag k="highway" v="residential"/>
    <tag k="name" v="Bahnhofstraße"/>
  </way>
  <way id="16242142" version="5" timestamp="2008-11-18T09:09:45Z" uid="47606" user="Oktober" changeset="763977">
    <nd ref="33812999"/>
    <nd ref="165200211"/>
    <nd ref="165200204"/>
    <nd ref="165200199"/>
    <nd ref="165200192"/>
    <tag k="created_by" v="Potlatch 0.10f"/>
    <tag k="highway" v="residential"/>
    <tag k="name" v="Bahnhofstraße"/>
  </way>
  <way id="16242142" version="6" timestamp="2008-11-18T09:10:36Z" uid="47606" user="Oktober" changeset="763977">
    <nd ref="33812999"/>
    <nd ref="165200211"/>
    <nd ref="165200204"/>
    <nd ref="165200199"/>
    <nd ref="165200192"/>
    <tag k="created_by" v="Potlatch 0.10f"/>
    <tag k="highway" v="residential"/>
    <tag k="name" v="Bahnhofstraße"/>
  </way>
  <way id="16242142" version="7" timestamp="2008-11-18T09:11:00Z" uid="47606" user="Oktober" changeset="763977">
    <nd ref="33812999"/>
    <nd ref="165200211"/>
    <nd ref="165200204"/>
    <nd ref="165200199"/>
    <nd ref="165200192"/>
    <tag k="created_by" v="Potlatch 0.10f"/>
    <tag k="highway" v="residential"/>
    <tag k="name" v="Bahnhofstraße"/>
  </way>
  <way id="16242142" version="8" timestamp="2008-11-18T09:11:50Z" uid="47606" user="Oktober" changeset="763977">
    <nd ref="33812999"/>
    <nd ref="165200211"/>
    <nd ref="165200204"/>
    <tag k="created_by" v="Potlatch 0.10f"/>
    <tag k="highway" v="residential"/>
    <tag k="name" v="Bahnhofstraße"/>
  </way>
  <way id="16242142" version="9" timestamp="2008-11-18T09:16:31Z" uid="47606" user="Oktober" changeset="763977">
    <nd ref="33812999"/>
    <nd ref="312945640"/>
    <nd ref="165200211"/>
    <nd ref="165200204"/>
    <tag k="created_by" v="Potlatch 0.10f"/>
    <tag k="highway" v="residential"/>
    <tag k="name" v="Bahnhofstraße"/>
  </way>
  <way id="16242142" version="10" timestamp="2008-11-18T09:21:19Z" uid="47606" user="Oktober" changeset="763977">
    <nd ref="33812999"/>
    <nd ref="312945640"/>
    <nd ref="165200211"/>
    <tag k="created_by" v="Potlatch 0.10f"/>
    <tag k="highway" v="residential"/>
    <tag k="name" v="Bahnhofstraße"/>
  </way>
  <way id="16242142" version="11" timestamp="2008-11-18T09:21:44Z" uid="47606" user="Oktober" changeset="763977">
    <nd ref="33812999"/>
    <nd ref="312945640"/>
    <nd ref="165200211"/>
    <tag k="created_by" v="Potlatch 0.10f"/>
    <tag k="highway" v="residential"/>
    <tag k="name" v="Bahnhofstraße"/>
  </way>
  <way id="16242142" version="12" timestamp="2008-11-18T09:22:01Z" uid="47606" user="Oktober" changeset="763977"/>
  <way id="16242270" version="2" timestamp="2010-07-08T17:49:05Z" uid="74617" user="JohnSmith" changeset="5167338">
    <nd ref="165202022"/>
    <nd ref="165202048"/>
    <tag k="highway" v="residential"/>
    <tag k="maxspeed" v="50"/>
    <tag k="maxspeed:source" v="default residential speed limit in Australia"/>
    <tag k="name" v="Keat Court"/>
  </way>
  <way id="16242270" version="3" timestamp="2012-01-15T15:35:13Z" uid="147510" user="woodpeck_fixbot" changeset="10398186">
    <nd ref="165202022"/>
    <nd ref="165202048"/>
    <tag k="highway" v="residential"/>
    <tag k="name" v="Keat Court"/>
  </way>
  <way id="16242273" version="2" timestamp="2010-07-08T17:48:40Z" uid="74617" user="JohnSmith" changeset="5167338">
    <nd ref="165202064"/>
    <nd ref="165202092"/>
    <tag k="highway" v="residential"/>
    <tag k="maxspeed" v="50"/>
    <tag k="maxspeed:source" v="default residential speed limit in Australia"/>
    <tag k="name" v="Dwyer Court"/>
  </way>
  <way id="16242273" version="3" timestamp="2012-01-15T15:35:15Z" uid="147510" user="woodpeck_fixbot" changeset="10398186">
    <nd ref="165202064"/>
    <nd ref="165202092"/>
    <tag k="highway" v="residential"/>
    <tag k="name" v="Dwyer Court"/>
  </way>
  <way id="16242274" version="2" timestamp="2010-07-08T17:47:32Z" uid="74617" user="JohnSmith" changeset="5167338">
    <nd ref="165202121"/>
    <nd ref="165202143"/>
    <tag k="highway" v="residential"/>
    <tag k="maxspeed" v="50"/>
    <tag k="maxspeed:source" v="default residential speed limit in Australia"/>
    <tag k="name" v="Nowa Court"/>
  </way>
  <way id="16242274" version="3" timestamp="2012-01-15T15:35:17Z" uid="147510" user="woodpeck_fixbot" changeset="10398186">
    <nd ref="165202121"/>
    <nd ref="165202143"/>
    <tag k="highway" v="residential"/>
    <tag k="name" v="Nowa Court"/>
  </way>
  <way id="16242275" version="2" timestamp="2010-07-08T17:51:08Z" uid="74617" user="JohnSmith" changeset="5167338">
    <nd ref="165202164"/>
    <nd ref="165202191"/>
    <tag k="highway" v="residential"/>
    <tag k="maxspeed" v="50"/>
    <tag k="maxspeed:source" v="default residential speed limit in Australia"/>
    <tag k="name" v="Nuntin Court"/>
  </way>
  <way id="16242275" version="3" timestamp="2012-01-15T15:35:19Z" uid="147510" user="woodpeck_fixbot" changeset="10398186">
    <nd ref="165202164"/>
    <nd ref="165202191"/>
    <tag k="highway" v="residential"/>
    <tag k="name" v="Nuntin Court"/>
  </way>
  <way id="16242385" version="8" timestamp="2010-01-23T15:17:32Z" uid="58091" user="Andreas M" changeset="3692579">
    <nd ref="165203800"/>
    <nd ref="428836700"/>
    <nd ref="165203801"/>
    <nd ref="165199221"/>
    <nd ref="337411341"/>
    <nd ref="165200172"/>
    <nd ref="165200560"/>
    <nd ref="165199226"/>
    <nd ref="165199227"/>
    <tag k="highway" v="residential"/>
    <tag k="maxspeed" v="30"/>
    <tag k="name" v="Scheiblingsteingasse"/>
  </way>
  <way id="16242385" version="9" timestamp="2012-02-25T13:59:28Z" uid="202392" user="imagic" changeset="10787880">
    <nd ref="165203800"/>
    <nd ref="428836700"/>
    <nd ref="165199221"/>
    <nd ref="165200172"/>
    <nd ref="165200560"/>
    <nd ref="165199226"/>
    <nd ref="165199227"/>
    <tag k="highway" v="residential"/>
    <tag k="maxspeed" v="30"/>
    <tag k="name" v="Scheiblingsteingasse"/>
  </way>
  <way id="16242561" version="2" timestamp="2010-07-08T17:50:33Z" uid="74617" user="JohnSmith" changeset="5167338">
    <nd ref="165206026"/>
    <nd ref="165206055"/>
    <nd ref="165206079"/>
    <tag k="highway" v="residential"/>
    <tag k="maxspeed" v="50"/>
    <tag k="maxspeed:source" v="default residential speed limit in Australia"/>
    <tag k="name" v="Jennifer Court"/>
  </way>
  <way id="16242561" version="3" timestamp="2012-01-15T15:35:20Z" uid="147510" user="woodpeck_fixbot" changeset="10398186">
    <nd ref="165206026"/>
    <nd ref="165206055"/>
    <nd ref="165206079"/>
    <tag k="highway" v="residential"/>
    <tag k="name" v="Jennifer Court"/>
  </way>
</osm>
