<?xml version='1.0' encoding='UTF-8'?>
<osm version="0.6" generator="libosmium/2.20.0">
  <way id="16292193" version="6" timestamp="2011-02-12T16:03:41Z" uid="4467" user="Rosscoe" changeset="7266347">
    <nd ref="166383969"/>
    <nd ref="166383971"/>
    <nd ref="166383972"/>
    <nd ref="166383973"/>
    <nd ref="166383975"/>
    <nd ref="1149205975"/>
    <nd ref="1149205978"/>
    <nd ref="566341006"/>
    <tag k="railway" v="rail"/>
    <tag k="source" v="nearmap"/>
  </way>
  <way id="16292195" version="4" timestamp="2010-04-03T05:27:42Z" uid="74617" user="JohnSmith" changeset="4309757">
    <nd ref="166316246"/>
    <nd ref="166316248"/>
    <nd ref="166259656"/>
    <nd ref="166362169"/>
    <nd ref="166362171"/>
    <nd ref="207721321"/>
    <nd ref="53946547"/>
    <tag k="highway" v="primary"/>
    <tag k="name" v="Sherwood Road"/>
  </way>
  <way id="16292315" version="2" timestamp="2010-02-15T06:57:56Z" uid="74617" user="JohnSmith" changeset="3880463">
    <nd ref="166255653"/>
    <nd ref="166255654"/>
    <nd ref="166255657"/>
    <nd ref="166255658"/>
    <nd ref="166255659"/>
    <nd ref="166255660"/>
    <nd ref="166255662"/>
    <nd ref="166255663"/>
    <nd ref="166255664"/>
    <nd ref="166255665"/>
    <nd ref="166255666"/>
    <nd ref="166366833"/>
    <nd ref="166366834"/>
    <nd ref="166366835"/>
    <nd ref="166366836"/>
    <nd ref="166366837"/>
    <nd ref="166366838"/>
    <nd ref="166366839"/>
    <nd ref="166366840"/>
    <nd ref="166366841"/>
    <nd ref="166366842"/>
    <nd ref="166366843"/>
    <nd ref="166366844"/>
    <nd ref="166366845"/>
    <nd ref="166366846"/>
    <nd ref="166366847"/>
    <nd ref="166366848"/>
    <nd ref="166366849"/>
    <nd ref="166366850"/>
    <nd ref="166366851"/>
    <nd ref="166366852"/>
    <nd ref="166366853"/>
    <nd ref="166366854"/>
    <nd ref="166366855"/>
    <nd ref="166366856"/>
    <nd ref="166366857"/>
    <tag k="boat" v="yes"/>
    <tag k="name" v="Oxley Creek"/>
    <tag k="waterway" v="river"/>
  </way>
  <way id="16292315" version="3" timestamp="2010-03-22T04:47:44Z" uid="103574" user="Fairfield" changeset="4198998">
    <nd ref="166255653"/>
    <nd ref="166255654"/>
    <nd ref="166255657"/>
    <nd ref="166255658"/>
    <nd ref="166255659"/>
    <nd ref="166255660"/>
    <nd ref="166255662"/>
    <nd ref="166255663"/>
    <nd ref="166255664"/>
    <nd ref="166255665"/>
    <nd ref="166255666"/>
    <nd ref="671863911"/>
    <nd ref="166366833"/>
    <nd ref="166366834"/>
    <nd ref="166366835"/>
    <nd ref="166366836"/>
    <nd ref="166366837"/>
    <nd ref="166366838"/>
    <nd ref="166366839"/>
    <nd ref="166366840"/>
    <nd ref="166366841"/>
    <nd ref="166366842"/>
    <nd ref="166366843"/>
    <nd ref="166366844"/>
    <nd ref="166366845"/>
    <nd ref="166366846"/>
    <nd ref="166366847"/>
    <nd ref="166366848"/>
    <nd ref="166366849"/>
    <nd ref="166366850"/>
    <nd ref="166366851"/>
    <nd ref="166366852"/>
    <nd ref="166366853"/>
    <nd ref="166366854"/>
    <nd ref="166366855"/>
    <nd ref="166366856"/>
    <nd ref="166366857"/>
    <tag k="boat" v="yes"/>
    <tag k="name" v="Oxley Creek"/>
    <tag k="waterway" v="river"/>
  </way>
  <way id="16292366" version="3" timestamp="2010-07-06T08:39:18Z" uid="74617" user="JohnSmith" changeset="5147679">
    <nd ref="166318830"/>
    <nd ref="166389636"/>
    <nd ref="166389637"/>
    <tag k="highway" v="unclassified"/>
    <tag k="maxspeed" v="50"/>
    <tag k="maxspeed:source" v="default residential speed limit in Australia"/>
    <tag k="name" v="Lofter Street"/>
  </way>
  <way id="16292366" version="4" timestamp="2012-01-15T15:44:13Z" uid="147510" user="woodpeck_fixbot" changeset="10398186">
    <nd ref="166318830"/>
    <nd ref="166389636"/>
    <nd ref="166389637"/>
    <tag k="highway" v="unclassified"/>
    <tag k="name" v="Lofter Street"/>
  </way>
  <way id="16292377" version="4" timestamp="2010-07-06T08:39:18Z" uid="74617" user="JohnSmith" changeset="5147679">
    <nd ref="166389636"/>
    <nd ref="166389965"/>
    <tag k="highway" v="unclassified"/>
    <tag k="maxspeed" v="50"/>
    <tag k="maxspeed:source" v="default residential speed limit in Australia"/>
    <tag k="name" v="Goodwin Street"/>
  </way>
  <way id="16292377" version="5" timestamp="2012-01-15T15:44:14Z" uid="147510" user="woodpeck_fixbot" changeset="10398186">
    <nd ref="166389636"/>
    <nd ref="166389965"/>
    <tag k="highway" v="unclassified"/>
    <tag k="name" v="Goodwin Street"/>
  </way>
  <way id="16292429" version="5" timestamp="2010-07-06T08:30:18Z" uid="74617" user="JohnSmith" changeset="5147679">
    <nd ref="166372076"/>
    <nd ref="166393907"/>
    <nd ref="166393909"/>
    <nd ref="166393911"/>
    <nd ref="166393912"/>
    <nd ref="166393913"/>
    <nd ref="166393914"/>
    <nd ref="166393915"/>
    <nd ref="166393917"/>
    <nd ref="166393918"/>
    <nd ref="166393919"/>
    <nd ref="166393921"/>
    <nd ref="166391865"/>
    <tag k="highway" v="residential"/>
    <tag k="maxspeed" v="50"/>
    <tag k="maxspeed:source" v="default residential speed limit in Australia"/>
    <tag k="name" v="Lancelot Street"/>
  </way>
  <way id="16292429" version="6" timestamp="2012-01-15T15:44:15Z" uid="147510" user="woodpeck_fixbot" changeset="10398186">
    <nd ref="166372076"/>
    <nd ref="166393907"/>
    <nd ref="166393909"/>
    <nd ref="166393911"/>
    <nd ref="166393912"/>
    <nd ref="166393913"/>
    <nd ref="166393914"/>
    <nd ref="166393915"/>
    <nd ref="166393917"/>
    <nd ref="166393918"/>
    <nd ref="166393919"/>
    <nd ref="166393921"/>
    <nd ref="166391865"/>
    <tag k="highway" v="residential"/>
    <tag k="name" v="Lancelot Street"/>
  </way>
  <way id="16292452" version="4" timestamp="2010-07-06T08:32:18Z" uid="74617" user="JohnSmith" changeset="5147679">
    <nd ref="166391865"/>
    <nd ref="166392621"/>
    <nd ref="166392623"/>
    <nd ref="166392625"/>
    <nd ref="81300289"/>
    <tag k="highway" v="residential"/>
    <tag k="maxspeed" v="50"/>
    <tag k="maxspeed:source" v="default residential speed limit in Australia"/>
    <tag k="name" v="David Street"/>
  </way>
  <way id="16292452" version="5" timestamp="2012-01-15T15:44:17Z" uid="147510" user="woodpeck_fixbot" changeset="10398186">
    <nd ref="166391865"/>
    <nd ref="166392621"/>
    <nd ref="166392623"/>
    <nd ref="166392625"/>
    <nd ref="81300289"/>
    <tag k="highway" v="residential"/>
    <tag k="name" v="David Street"/>
  </way>
  <way id="16292544" version="5" timestamp="2010-07-06T08:39:36Z" uid="74617" user="JohnSmith" changeset="5147679">
    <nd ref="166318828"/>
    <nd ref="166396163"/>
    <nd ref="166396164"/>
    <nd ref="166396165"/>
    <nd ref="166396167"/>
    <nd ref="79367925"/>
    <tag k="highway" v="unclassified"/>
    <tag k="maxspeed" v="50"/>
    <tag k="maxspeed:source" v="default residential speed limit in Australia"/>
    <tag k="name" v="Walker Street"/>
  </way>
  <way id="16292544" version="6" timestamp="2012-01-15T15:44:18Z" uid="147510" user="woodpeck_fixbot" changeset="10398186">
    <nd ref="166318828"/>
    <nd ref="166396163"/>
    <nd ref="166396164"/>
    <nd ref="166396165"/>
    <nd ref="166396167"/>
    <nd ref="79367925"/>
    <tag k="highway" v="unclassified"/>
    <tag k="name" v="Walker Street"/>
  </way>
  <way id="16292720" version="2" timestamp="2010-07-08T17:50:00Z" uid="74617" user="JohnSmith" changeset="5167338">
    <nd ref="166403396"/>
    <nd ref="166403511"/>
    <nd ref="166403496"/>
    <nd ref="166403540"/>
    <nd ref="166403419"/>
    <nd ref="166403569"/>
    <nd ref="166403458"/>
    <nd ref="166403608"/>
    <nd ref="166403396"/>
    <tag k="highway" v="residential"/>
    <tag k="junction" v="roundabout"/>
    <tag k="maxspeed" v="50"/>
    <tag k="maxspeed:source" v="default residential speed limit in Australia"/>
  </way>
  <way id="16292720" version="3" timestamp="2012-01-15T15:44:19Z" uid="147510" user="woodpeck_fixbot" changeset="10398186">
    <nd ref="166403396"/>
    <nd ref="166403511"/>
    <nd ref="166403496"/>
    <nd ref="166403540"/>
    <nd ref="166403419"/>
    <nd ref="166403569"/>
    <nd ref="166403458"/>
    <nd ref="166403608"/>
    <nd ref="166403396"/>
    <tag k="highway" v="residential"/>
    <tag k="junction" v="roundabout"/>
  </way>
  <way id="16292721" version="3" timestamp="2010-07-08T17:49:01Z" uid="74617" user="JohnSmith" changeset="5167338">
    <nd ref="158669531"/>
    <nd ref="158669593"/>
    <nd ref="166403396"/>
    <tag k="highway" v="residential"/>
    <tag k="maxspeed" v="50"/>
    <tag k="maxspeed:source" v="default residential speed limit in Australia"/>
    <tag k="name" v="Heritage Boulevard"/>
  </way>
  <way id="16292721" version="4" timestamp="2012-01-15T15:44:21Z" uid="147510" user="woodpeck_fixbot" changeset="10398186">
    <nd ref="158669531"/>
    <nd ref="158669593"/>
    <nd ref="166403396"/>
    <tag k="highway" v="residential"/>
    <tag k="name" v="Heritage Boulevard"/>
  </way>
  <way id="16292722" version="3" timestamp="2010-07-08T17:48:04Z" uid="74617" user="JohnSmith" changeset="5167338">
    <nd ref="166403419"/>
    <nd ref="166403640"/>
    <tag k="highway" v="residential"/>
    <tag k="maxspeed" v="50"/>
    <tag k="maxspeed:source" v="default residential speed limit in Australia"/>
    <tag k="name" v="Heritage Boulevard"/>
  </way>
  <way id="16292722" version="4" timestamp="2012-01-15T15:44:22Z" uid="147510" user="woodpeck_fixbot" changeset="10398186">
    <nd ref="166403419"/>
    <nd ref="166403640"/>
    <tag k="highway" v="residential"/>
    <tag k="name" v="Heritage Boulevard"/>
  </way>
  <way id="16292724" version="3" timestamp="2010-07-08T17:49:20Z" uid="74617" user="JohnSmith" changeset="5167338">
    <nd ref="166403656"/>
    <nd ref="166403496"/>
    <tag k="highway" v="residential"/>
    <tag k="maxspeed" v="50"/>
    <tag k="maxspeed:source" v="default residential speed limit in Australia"/>
    <tag k="name" v="Skeldale Wynd"/>
  </way>
  <way id="16292724" version="4" timestamp="2012-01-15T15:44:23Z" uid="147510" user="woodpeck_fixbot" changeset="10398186">
    <nd ref="166403656"/>
    <nd ref="166403496"/>
    <tag k="highway" v="residential"/>
    <tag k="name" v="Skeldale Wynd"/>
  </way>
  <way id="16292725" version="3" timestamp="2010-07-08T17:48:20Z" uid="74617" user="JohnSmith" changeset="5167338">
    <nd ref="166403458"/>
    <nd ref="166403669"/>
    <nd ref="166403841"/>
    <nd ref="166403778"/>
    <nd ref="166403757"/>
    <nd ref="166403694"/>
    <nd ref="166403723"/>
    <nd ref="166403746"/>
    <tag k="highway" v="residential"/>
    <tag k="maxspeed" v="50"/>
    <tag k="maxspeed:source" v="default residential speed limit in Australia"/>
    <tag k="name" v="Skeldale Wynd"/>
  </way>
  <way id="16292725" version="4" timestamp="2012-01-15T15:44:25Z" uid="147510" user="woodpeck_fixbot" changeset="10398186">
    <nd ref="166403458"/>
    <nd ref="166403669"/>
    <nd ref="166403841"/>
    <nd ref="166403778"/>
    <nd ref="166403757"/>
    <nd ref="166403694"/>
    <nd ref="166403723"/>
    <nd ref="166403746"/>
    <tag k="highway" v="residential"/>
    <tag k="name" v="Skeldale Wynd"/>
  </way>
  <way id="16292728" version="2" timestamp="2010-07-08T17:46:40Z" uid="74617" user="JohnSmith" changeset="5167338">
    <nd ref="166403778"/>
    <nd ref="166403786"/>
    <nd ref="166403814"/>
    <tag k="highway" v="residential"/>
    <tag k="maxspeed" v="50"/>
    <tag k="maxspeed:source" v="default residential speed limit in Australia"/>
    <tag k="name" v="Hambleton Slope"/>
  </way>
  <way id="16292728" version="3" timestamp="2012-01-15T15:44:27Z" uid="147510" user="woodpeck_fixbot" changeset="10398186">
    <nd ref="166403778"/>
    <nd ref="166403786"/>
    <nd ref="166403814"/>
    <tag k="highway" v="residential"/>
    <tag k="name" v="Hambleton Slope"/>
  </way>
  <way id="16292730" version="2" timestamp="2010-07-08T17:49:30Z" uid="74617" user="JohnSmith" changeset="5167338">
    <nd ref="166403841"/>
    <nd ref="166403880"/>
    <nd ref="166403908"/>
    <tag k="highway" v="residential"/>
    <tag k="maxspeed" v="50"/>
    <tag k="maxspeed:source" v="default residential speed limit in Australia"/>
    <tag k="name" v="Allerdale Rise"/>
  </way>
  <way id="16292730" version="3" timestamp="2012-01-15T15:44:28Z" uid="147510" user="woodpeck_fixbot" changeset="10398186">
    <nd ref="166403841"/>
    <nd ref="166403880"/>
    <nd ref="166403908"/>
    <tag k="highway" v="residential"/>
    <tag k="name" v="Allerdale Rise"/>
  </way>
  <way id="16292734" version="2" timestamp="2010-07-08T17:48:49Z" uid="74617" user="JohnSmith" changeset="5167338">
    <nd ref="166403768"/>
    <nd ref="166403980"/>
    <tag k="highway" v="residential"/>
    <tag k="maxspeed" v="50"/>
    <tag k="maxspeed:source" v="default residential speed limit in Australia"/>
    <tag k="name" v="Danotty Close"/>
  </way>
  <way id="16292734" version="3" timestamp="2012-01-15T15:44:30Z" uid="147510" user="woodpeck_fixbot" changeset="10398186">
    <nd ref="166403768"/>
    <nd ref="166403980"/>
    <tag k="highway" v="residential"/>
    <tag k="name" v="Danotty Close"/>
  </way>
  <way id="16292737" version="2" timestamp="2010-07-08T17:48:18Z" uid="74617" user="JohnSmith" changeset="5167338">
    <nd ref="166403757"/>
    <nd ref="166403768"/>
    <nd ref="166403943"/>
    <nd ref="166403954"/>
    <tag k="highway" v="residential"/>
    <tag k="maxspeed" v="50"/>
    <tag k="maxspeed:source" v="default residential speed limit in Australia"/>
    <tag k="name" v="Manor Rise"/>
  </way>
  <way id="16292737" version="3" timestamp="2012-01-15T15:44:32Z" uid="147510" user="woodpeck_fixbot" changeset="10398186">
    <nd ref="166403757"/>
    <nd ref="166403768"/>
    <nd ref="166403943"/>
    <nd ref="166403954"/>
    <tag k="highway" v="residential"/>
    <tag k="name" v="Manor Rise"/>
  </way>
  <way id="16292741" version="3" timestamp="2010-07-08T17:47:27Z" uid="74617" user="JohnSmith" changeset="5167338">
    <nd ref="166404004"/>
    <nd ref="166403746"/>
    <nd ref="166404131"/>
    <nd ref="166404040"/>
    <nd ref="166404070"/>
    <nd ref="166404098"/>
    <tag k="highway" v="residential"/>
    <tag k="maxspeed" v="50"/>
    <tag k="maxspeed:source" v="default residential speed limit in Australia"/>
    <tag k="name" v="Ashley Avenue"/>
  </way>
  <way id="16292741" version="4" timestamp="2012-01-15T15:44:33Z" uid="147510" user="woodpeck_fixbot" changeset="10398186">
    <nd ref="166404004"/>
    <nd ref="166403746"/>
    <nd ref="166404131"/>
    <nd ref="166404040"/>
    <nd ref="166404070"/>
    <nd ref="166404098"/>
    <tag k="highway" v="residential"/>
    <tag k="name" v="Ashley Avenue"/>
  </way>
  <way id="16292743" version="3" timestamp="2010-07-08T17:50:15Z" uid="74617" user="JohnSmith" changeset="5167338">
    <nd ref="166404131"/>
    <nd ref="166404138"/>
    <tag k="highway" v="residential"/>
    <tag k="maxspeed" v="50"/>
    <tag k="maxspeed:source" v="default residential speed limit in Australia"/>
    <tag k="name" v="Dales Drive"/>
  </way>
  <way id="16292743" version="4" timestamp="2012-01-15T15:44:34Z" uid="147510" user="woodpeck_fixbot" changeset="10398186">
    <nd ref="166404131"/>
    <nd ref="166404138"/>
    <tag k="highway" v="residential"/>
    <tag k="name" v="Dales Drive"/>
  </way>
  <way id="16292778" version="8" timestamp="2008-10-11T10:28:56Z" uid="65847" user="LKK" changeset="247438">
    <nd ref="166406926"/>
    <nd ref="303716428"/>
    <nd ref="166405607"/>
    <nd ref="166405609"/>
    <nd ref="166405612"/>
    <tag k="created_by" v="Potlatch 0.8a"/>
    <tag k="highway" v="primary"/>
    <tag k="is_in" v="Sofia,,Bulgaria"/>
    <tag k="name" v="бул. Княз Александър Дондуков"/>
    <tag k="oneway" v="yes"/>
  </way>
  <way id="16292778" version="9" timestamp="2011-02-05T15:42:24Z" uid="41176" user="Veso" changeset="7193794">
    <nd ref="166406926"/>
    <nd ref="303716428"/>
    <nd ref="1137607284"/>
    <nd ref="166405607"/>
    <nd ref="166405609"/>
    <nd ref="166405612"/>
    <tag k="highway" v="primary"/>
    <tag k="is_in" v="Sofia,,Bulgaria"/>
    <tag k="name" v="бул. Княз Александър Дондуков"/>
    <tag k="oneway" v="yes"/>
  </way>
  <way id="16292778" version="10" timestamp="2011-02-05T15:42:49Z" uid="41176" user="Veso" changeset="7193794">
    <nd ref="166406926"/>
    <nd ref="303716428"/>
    <nd ref="1137607284"/>
    <nd ref="166405607"/>
    <nd ref="166405609"/>
    <nd ref="166405612"/>
    <tag k="highway" v="primary"/>
    <tag k="is_in" v="Sofia,,Bulgaria"/>
    <tag k="name" v="бул. Княз Александър Дондуков"/>
  </way>
  <way id="16292844" version="4" timestamp="2010-07-06T08:39:13Z" uid="74617" user="JohnSmith" changeset="5147679">
    <nd ref="166318822"/>
    <nd ref="166408461"/>
    <nd ref="166408462"/>
    <nd ref="166408463"/>
    <tag k="highway" v="unclassified"/>
    <tag k="maxspeed" v="50"/>
    <tag k="maxspeed:source" v="default residential speed limit in Australia"/>
    <tag k="name" v="Curzon Street"/>
  </way>
  <way id="16292844" version="5" timestamp="2012-01-15T15:44:36Z" uid="147510" user="woodpeck_fixbot" changeset="10398186">
    <nd ref="166318822"/>
    <nd ref="166408461"/>
    <nd ref="166408462"/>
    <nd ref="166408463"/>
    <tag k="highway" v="unclassified"/>
    <tag k="name" v="Curzon Street"/>
  </way>
  <way id="16292892" version="4" timestamp="2010-07-06T08:39:10Z" uid="74617" user="JohnSmith" changeset="5147679">
    <nd ref="166408463"/>
    <nd ref="166411389"/>
    <nd ref="166411390"/>
    <nd ref="166318826"/>
    <tag k="highway" v="unclassified"/>
    <tag k="maxspeed" v="50"/>
    <tag k="maxspeed:source" v="default residential speed limit in Australia"/>
    <tag k="name" v="Curzon Street"/>
  </way>
  <way id="16292892" version="5" timestamp="2012-01-15T15:44:38Z" uid="147510" user="woodpeck_fixbot" changeset="10398186">
    <nd ref="166408463"/>
    <nd ref="166411389"/>
    <nd ref="166411390"/>
    <nd ref="166318826"/>
    <tag k="highway" v="unclassified"/>
    <tag k="name" v="Curzon Street"/>
  </way>
</osm>
