<?xml version='1.0' encoding='UTF-8'?>
<osm version="0.6" generator="libosmium/2.20.0">
  <way id="16340566" version="7" timestamp="2008-10-01T02:52:23Z" uid="36809" user="pfoten_weg_!_" changeset="5644">
    <nd ref="167802779"/>
    <nd ref="267091882"/>
    <nd ref="96930461"/>
    <nd ref="98087813"/>
    <nd ref="266721080"/>
    <nd ref="96931832"/>
    <nd ref="254656254"/>
    <tag k="created_by" v="RambaZamba"/>
    <tag k="highway" v="residential"/>
    <tag k="maxspeed" v="30"/>
    <tag k="name" v="Einhornallee"/>
  </way>
  <way id="16340566" version="8" timestamp="2009-02-15T13:18:04Z" uid="36809" user="pfoten_weg_!_" changeset="463903">
    <nd ref="167802779"/>
    <nd ref="267091882"/>
    <nd ref="96930461"/>
    <nd ref="98087813"/>
    <nd ref="266721080"/>
    <nd ref="96931832"/>
    <nd ref="254656254"/>
    <tag k="created_by" v="RambaZamba"/>
    <tag k="highway" v="residential"/>
    <tag k="maxspeed" v="30"/>
    <tag k="name" v="Einhornallee"/>
    <tag k="source" v="survey"/>
  </way>
  <way id="16340566" version="9" timestamp="2009-06-20T18:16:20Z" uid="85761" user="klausis" changeset="1577174">
    <nd ref="167802779"/>
    <nd ref="267091882"/>
    <nd ref="96930461"/>
    <nd ref="98087813"/>
    <nd ref="266721080"/>
    <nd ref="96931832"/>
    <nd ref="254656254"/>
    <tag k="highway" v="residential"/>
    <tag k="maxspeed" v="30"/>
    <tag k="name" v="Einhornallee"/>
    <tag k="source" v="survey"/>
  </way>
  <way id="16340566" version="10" timestamp="2009-09-04T21:16:43Z" uid="36809" user="pfoten_weg_!_" changeset="2374562">
    <nd ref="167802779"/>
    <nd ref="267091882"/>
    <nd ref="96930461"/>
    <nd ref="98087813"/>
    <nd ref="266721080"/>
    <nd ref="96931832"/>
    <nd ref="254656254"/>
    <tag k="highway" v="residential"/>
    <tag k="maxspeed" v="30"/>
    <tag k="name" v="Einhornallee"/>
    <tag k="source" v="survey"/>
  </way>
  <way id="16340566" version="11" timestamp="2010-12-18T22:23:03Z" uid="367380" user="Mloni" changeset="6701170">
    <nd ref="167802779"/>
    <nd ref="267091882"/>
    <nd ref="96930461"/>
    <nd ref="98087813"/>
    <tag k="highway" v="residential"/>
    <tag k="maxspeed" v="30"/>
    <tag k="name" v="Einhornallee"/>
    <tag k="source" v="survey"/>
  </way>
</osm>
