<?xml version='1.0' encoding='UTF-8'?>
<osm version="0.6" generator="libosmium/2.20.0">
  <way id="16343329" version="9" timestamp="2010-05-25T14:19:34Z" uid="4467" user="Rosscoe" changeset="4804000">
    <nd ref="167855060"/>
    <nd ref="167855062"/>
    <tag k="bridge" v="yes"/>
    <tag k="highway" v="trunk"/>
    <tag k="lanes" v="2"/>
    <tag k="layer" v="1"/>
    <tag k="maxspeed" v="80"/>
    <tag k="name" v="Dandenong Bypass"/>
    <tag k="oneway" v="yes"/>
    <tag k="source" v="nearmap"/>
  </way>
  <way id="16343331" version="8" timestamp="2010-05-25T14:15:20Z" uid="4467" user="Rosscoe" changeset="4804000">
    <nd ref="167855135"/>
    <nd ref="620359954"/>
    <nd ref="167855136"/>
    <nd ref="620359945"/>
    <nd ref="167855060"/>
    <tag k="highway" v="trunk"/>
    <tag k="lanes" v="2"/>
    <tag k="maxspeed" v="80"/>
    <tag k="name" v="Dandenong Bypass"/>
    <tag k="oneway" v="yes"/>
    <tag k="source" v="nearmap"/>
  </way>
  <way id="16343334" version="11" timestamp="2010-05-25T14:15:31Z" uid="4467" user="Rosscoe" changeset="4804000">
    <nd ref="167855062"/>
    <nd ref="167855063"/>
    <nd ref="167855064"/>
    <nd ref="167855065"/>
    <tag k="highway" v="trunk"/>
    <tag k="lanes" v="2"/>
    <tag k="maxspeed" v="80"/>
    <tag k="name" v="Dandenong Bypass"/>
    <tag k="oneway" v="yes"/>
    <tag k="source" v="nearmap"/>
  </way>
  <way id="16343337" version="7" timestamp="2010-05-25T14:15:55Z" uid="4467" user="Rosscoe" changeset="4804000">
    <nd ref="167855095"/>
    <nd ref="167855023"/>
    <tag k="bridge" v="yes"/>
    <tag k="highway" v="trunk"/>
    <tag k="lanes" v="2"/>
    <tag k="layer" v="1"/>
    <tag k="maxspeed" v="80"/>
    <tag k="name" v="Dandenong Bypass"/>
    <tag k="oneway" v="yes"/>
    <tag k="source" v="nearmap"/>
  </way>
  <way id="16343352" version="7" timestamp="2010-05-25T07:35:28Z" uid="4467" user="Rosscoe" changeset="4801016">
    <nd ref="167855081"/>
    <nd ref="167855082"/>
    <nd ref="747692272"/>
    <nd ref="747692065"/>
    <nd ref="747692279"/>
    <nd ref="363177630"/>
    <nd ref="747692155"/>
    <nd ref="167857212"/>
    <nd ref="30428893"/>
    <tag k="highway" v="primary"/>
    <tag k="name" v="Perry Road"/>
    <tag k="oneway" v="yes"/>
    <tag k="source" v="nearmap"/>
  </way>
  <way id="16343352" version="8" timestamp="2010-06-27T02:17:20Z" uid="79475" user="AlexOnTheBus" changeset="5086076">
    <nd ref="167855081"/>
    <nd ref="167855082"/>
    <tag k="highway" v="primary"/>
    <tag k="name" v="Perry Road"/>
    <tag k="oneway" v="yes"/>
    <tag k="source" v="nearmap"/>
  </way>
  <way id="16343352" version="9" timestamp="2010-06-27T02:17:22Z" uid="79475" user="AlexOnTheBus" changeset="5086076">
    <nd ref="167855081"/>
    <nd ref="167855082"/>
    <tag k="highway" v="trunk"/>
    <tag k="name" v="Perry Road"/>
    <tag k="oneway" v="yes"/>
    <tag k="source" v="nearmap"/>
  </way>
  <way id="16343352" version="10" timestamp="2011-05-07T03:46:01Z" uid="11111" user="melb_guy" changeset="8070338">
    <nd ref="167855081"/>
    <nd ref="167855082"/>
    <tag k="highway" v="trunk_link"/>
    <tag k="lanes" v="2"/>
    <tag k="maxspeed" v="80"/>
    <tag k="name" v="Perry Road"/>
    <tag k="oneway" v="yes"/>
    <tag k="source" v="nearmap"/>
  </way>
  <way id="16343353" version="11" timestamp="2010-05-25T07:36:31Z" uid="4467" user="Rosscoe" changeset="4801016">
    <nd ref="167855082"/>
    <nd ref="167858092"/>
    <nd ref="747692232"/>
    <nd ref="167855084"/>
    <nd ref="275180841"/>
    <nd ref="275181074"/>
    <tag k="highway" v="trunk"/>
    <tag k="maxspeed" v="80"/>
    <tag k="name" v="Dandenong Bypass"/>
    <tag k="oneway" v="yes"/>
  </way>
  <way id="16343353" version="12" timestamp="2010-05-25T13:14:34Z" uid="4467" user="Rosscoe" changeset="4803553">
    <nd ref="167855082"/>
    <nd ref="167858092"/>
    <nd ref="747692232"/>
    <nd ref="747821674"/>
    <nd ref="747821694"/>
    <nd ref="167855084"/>
    <nd ref="747821647"/>
    <nd ref="747821678"/>
    <nd ref="275180841"/>
    <nd ref="275181074"/>
    <tag k="highway" v="trunk"/>
    <tag k="maxspeed" v="80"/>
    <tag k="name" v="Dandenong Bypass"/>
    <tag k="oneway" v="yes"/>
    <tag k="source" v="nearmap"/>
  </way>
  <way id="16343353" version="13" timestamp="2011-05-07T03:46:01Z" uid="11111" user="melb_guy" changeset="8070338">
    <nd ref="167855082"/>
    <nd ref="167858092"/>
    <nd ref="1275277693"/>
    <nd ref="747692232"/>
    <nd ref="747821674"/>
    <nd ref="747821694"/>
    <nd ref="1275277692"/>
    <nd ref="167855084"/>
    <nd ref="747821647"/>
    <nd ref="747821678"/>
    <nd ref="275180841"/>
    <nd ref="275181074"/>
    <tag k="highway" v="trunk"/>
    <tag k="maxspeed" v="80"/>
    <tag k="name" v="Dandenong Bypass"/>
    <tag k="oneway" v="yes"/>
    <tag k="source" v="nearmap"/>
  </way>
  <way id="16343397" version="4" timestamp="2010-05-25T07:36:12Z" uid="4467" user="Rosscoe" changeset="4801016">
    <nd ref="167857547"/>
    <nd ref="167858091"/>
    <nd ref="747692138"/>
    <nd ref="747692059"/>
    <nd ref="747692205"/>
    <nd ref="747692038"/>
    <nd ref="747692128"/>
    <nd ref="747692221"/>
    <nd ref="747692035"/>
    <nd ref="167858092"/>
    <nd ref="167858094"/>
    <tag k="highway" v="primary"/>
    <tag k="name" v="Perry Road"/>
    <tag k="oneway" v="yes"/>
    <tag k="source" v="nearmap"/>
  </way>
  <way id="16343397" version="5" timestamp="2010-06-27T02:17:12Z" uid="79475" user="AlexOnTheBus" changeset="5086076">
    <nd ref="167857547"/>
    <nd ref="167858091"/>
    <nd ref="747692138"/>
    <nd ref="747692059"/>
    <nd ref="747692205"/>
    <nd ref="747692038"/>
    <nd ref="747692128"/>
    <nd ref="747692221"/>
    <nd ref="747692035"/>
    <nd ref="167858092"/>
    <tag k="highway" v="primary"/>
    <tag k="name" v="Perry Road"/>
    <tag k="oneway" v="yes"/>
    <tag k="source" v="nearmap"/>
  </way>
  <way id="16343397" version="6" timestamp="2010-07-10T11:10:18Z" uid="79475" user="AlexOnTheBus" changeset="5181616">
    <nd ref="167857547"/>
    <nd ref="167858091"/>
    <tag k="highway" v="primary"/>
    <tag k="name" v="Perry Road"/>
    <tag k="oneway" v="yes"/>
    <tag k="source" v="nearmap"/>
  </way>
  <way id="16343397" version="7" timestamp="2010-07-10T11:10:26Z" uid="79475" user="AlexOnTheBus" changeset="5181616">
    <nd ref="167857547"/>
    <nd ref="167858091"/>
    <tag k="highway" v="trunk"/>
    <tag k="oneway" v="yes"/>
    <tag k="source" v="nearmap"/>
  </way>
  <way id="16343401" version="2" timestamp="2009-09-25T06:03:59Z" uid="74617" user="JohnSmith" changeset="2612508"/>
  <way id="16343423" version="6" timestamp="2010-05-25T07:35:05Z" uid="4467" user="Rosscoe" changeset="4801016">
    <nd ref="167858094"/>
    <nd ref="747692212"/>
    <nd ref="167858657"/>
    <nd ref="167858659"/>
    <tag k="highway" v="secondary"/>
    <tag k="name" v="Perry Road"/>
    <tag k="oneway" v="yes"/>
  </way>
  <way id="16343423" version="7" timestamp="2010-05-25T13:15:23Z" uid="4467" user="Rosscoe" changeset="4803553"/>
  <way id="16343435" version="3" timestamp="2010-05-25T13:14:23Z" uid="4467" user="Rosscoe" changeset="4803553">
    <nd ref="747821663"/>
    <nd ref="747821684"/>
    <nd ref="747821649"/>
    <nd ref="616946575"/>
    <nd ref="747821668"/>
    <nd ref="167855081"/>
    <tag k="highway" v="secondary"/>
    <tag k="name" v="Perry Road"/>
    <tag k="oneway" v="yes"/>
    <tag k="source" v="nearmap"/>
  </way>
  <way id="16343435" version="4" timestamp="2010-06-27T02:17:09Z" uid="79475" user="AlexOnTheBus" changeset="5086076">
    <nd ref="747821663"/>
    <nd ref="747821684"/>
    <nd ref="747821649"/>
    <nd ref="616946575"/>
    <nd ref="747821668"/>
    <nd ref="167855081"/>
    <tag k="highway" v="tertiary"/>
    <tag k="name" v="Perry Road"/>
    <tag k="oneway" v="yes"/>
    <tag k="source" v="nearmap"/>
  </way>
  <way id="16343435" version="5" timestamp="2011-05-07T03:46:06Z" uid="11111" user="melb_guy" changeset="8070338"/>
  <way id="16343439" version="2" timestamp="2009-09-25T06:03:59Z" uid="74617" user="JohnSmith" changeset="2612508"/>
  <way id="16343440" version="2" timestamp="2009-09-25T06:03:59Z" uid="74617" user="JohnSmith" changeset="2612508"/>
  <way id="16343446" version="2" timestamp="2009-09-25T06:03:59Z" uid="74617" user="JohnSmith" changeset="2612508"/>
  <way id="16343567" version="4" timestamp="2010-07-07T09:12:16Z" uid="74617" user="JohnSmith" changeset="5156250">
    <nd ref="167867314"/>
    <nd ref="167867450"/>
    <tag k="highway" v="residential"/>
    <tag k="maxspeed" v="50"/>
    <tag k="maxspeed:source" v="default residential speed limit in Australia"/>
    <tag k="name" v="Butterley Place"/>
    <tag k="source" v="audio"/>
  </way>
  <way id="16343567" version="5" timestamp="2012-01-15T15:47:49Z" uid="147510" user="woodpeck_fixbot" changeset="10398186">
    <nd ref="167867314"/>
    <nd ref="167867450"/>
    <tag k="highway" v="residential"/>
    <tag k="name" v="Butterley Place"/>
    <tag k="source" v="audio"/>
  </way>
  <way id="16343568" version="5" timestamp="2010-07-07T09:17:58Z" uid="74617" user="JohnSmith" changeset="5156250">
    <nd ref="167867478"/>
    <nd ref="167867509"/>
    <nd ref="167867605"/>
    <tag k="highway" v="residential"/>
    <tag k="maxspeed" v="50"/>
    <tag k="maxspeed:source" v="default residential speed limit in Australia"/>
    <tag k="name" v="Strachan Place"/>
    <tag k="source" v="audio"/>
  </way>
  <way id="16343568" version="6" timestamp="2012-01-15T15:47:50Z" uid="147510" user="woodpeck_fixbot" changeset="10398186">
    <nd ref="167867478"/>
    <nd ref="167867509"/>
    <nd ref="167867605"/>
    <tag k="highway" v="residential"/>
    <tag k="name" v="Strachan Place"/>
    <tag k="source" v="audio"/>
  </way>
  <way id="16343569" version="4" timestamp="2010-07-07T09:12:06Z" uid="74617" user="JohnSmith" changeset="5156250">
    <nd ref="167867653"/>
    <nd ref="167867746"/>
    <tag k="highway" v="residential"/>
    <tag k="maxspeed" v="50"/>
    <tag k="maxspeed:source" v="default residential speed limit in Australia"/>
    <tag k="name" v="Lobb Place"/>
    <tag k="source" v="audio"/>
  </way>
  <way id="16343569" version="5" timestamp="2012-01-15T15:47:51Z" uid="147510" user="woodpeck_fixbot" changeset="10398186">
    <nd ref="167867653"/>
    <nd ref="167867746"/>
    <tag k="highway" v="residential"/>
    <tag k="name" v="Lobb Place"/>
    <tag k="source" v="audio"/>
  </way>
</osm>
