<?xml version='1.0' encoding='UTF-8'?>
<osm version="0.6" generator="libosmium/2.20.0">
  <way id="16361012" version="7" timestamp="2010-07-09T03:56:28Z" uid="74617" user="JohnSmith" changeset="5170838">
    <nd ref="168377525"/>
    <nd ref="168383965"/>
    <nd ref="176684166"/>
    <nd ref="168384014"/>
    <nd ref="168385919"/>
    <nd ref="168377553"/>
    <tag k="highway" v="unclassified"/>
    <tag k="maxspeed" v="50"/>
    <tag k="maxspeed:source" v="default residential speed limit in Australia"/>
    <tag k="name" v="Sutherland Street"/>
  </way>
  <way id="16361012" version="8" timestamp="2011-04-16T10:46:07Z" uid="4467" user="Rosscoe" changeset="7877170">
    <nd ref="168377525"/>
    <nd ref="168383965"/>
    <nd ref="176684166"/>
    <nd ref="168384014"/>
    <nd ref="168385919"/>
    <nd ref="168377553"/>
    <tag k="highway" v="unclassified"/>
    <tag k="maxspeed" v="50"/>
    <tag k="name" v="Sutherland Street"/>
    <tag k="source:maxspeed" v="default residential speed limit in Australia"/>
  </way>
  <way id="16361012" version="9" timestamp="2012-01-15T15:49:18Z" uid="147510" user="woodpeck_fixbot" changeset="10398186">
    <nd ref="168377525"/>
    <nd ref="168383965"/>
    <nd ref="176684166"/>
    <nd ref="168384014"/>
    <nd ref="168385919"/>
    <nd ref="168377553"/>
    <tag k="highway" v="unclassified"/>
    <tag k="name" v="Sutherland Street"/>
    <tag k="source:maxspeed" v="default residential speed limit in Australia"/>
  </way>
  <way id="16361972" version="3" timestamp="2008-02-11T07:55:30Z" uid="9581" user="Lobelt" changeset="98134">
    <nd ref="31124681"/>
    <nd ref="247145413"/>
    <nd ref="31124683"/>
    <nd ref="31124685"/>
    <nd ref="247145405"/>
    <nd ref="31124687"/>
    <nd ref="31124688"/>
    <nd ref="31124690"/>
    <nd ref="31124692"/>
    <nd ref="31124693"/>
    <nd ref="31124695"/>
    <nd ref="31124697"/>
    <nd ref="31124698"/>
    <tag k="created_by" v="Potlatch 0.5d"/>
    <tag k="highway" v="tertiary"/>
    <tag k="name" v="Fichtestraße"/>
    <tag k="ref" v="K7130"/>
  </way>
  <way id="16361972" version="4" timestamp="2008-02-25T09:21:58Z" uid="9581" user="Lobelt" changeset="200136">
    <nd ref="31124681"/>
    <nd ref="247145413"/>
    <nd ref="249227039"/>
    <nd ref="31124683"/>
    <nd ref="31124685"/>
    <nd ref="247145405"/>
    <nd ref="31124687"/>
    <nd ref="31124688"/>
    <nd ref="31124690"/>
    <nd ref="31124692"/>
    <nd ref="31124693"/>
    <nd ref="31124695"/>
    <nd ref="31124697"/>
    <nd ref="31124698"/>
    <tag k="created_by" v="Potlatch 0.5d"/>
    <tag k="highway" v="tertiary"/>
    <tag k="name" v="Fichtestraße"/>
    <tag k="ref" v="K7130"/>
  </way>
  <way id="16361972" version="5" timestamp="2008-06-03T12:11:23Z" uid="9581" user="Lobelt" changeset="29979">
    <nd ref="31124681"/>
    <nd ref="247145413"/>
    <nd ref="249227039"/>
    <nd ref="31124683"/>
    <nd ref="31124685"/>
    <nd ref="247145405"/>
    <nd ref="31124687"/>
    <tag k="created_by" v="Potlatch 0.9c"/>
    <tag k="highway" v="tertiary"/>
    <tag k="name" v="Fichtestraße"/>
    <tag k="ref" v="K7130"/>
  </way>
  <way id="16361972" version="6" timestamp="2008-09-16T23:14:25Z" uid="31059" user="DaBear" changeset="653506">
    <nd ref="31124681"/>
    <nd ref="247145413"/>
    <nd ref="249227039"/>
    <nd ref="31124683"/>
    <nd ref="31124685"/>
    <nd ref="247145405"/>
    <nd ref="31124687"/>
    <tag k="created_by" v="Potlatch 0.9c"/>
    <tag k="highway" v="tertiary"/>
    <tag k="name" v="Fichtestraße"/>
    <tag k="ref" v="K 7130"/>
  </way>
  <way id="16361972" version="7" timestamp="2011-09-02T10:12:50Z" uid="28234" user="derandi" changeset="9191814"/>
</osm>
