<?xml version='1.0' encoding='UTF-8'?>
<osm version="0.6" generator="libosmium/2.20.0">
  <way id="16385608" version="3" timestamp="2009-07-29T23:19:02Z" uid="36809" user="pfoten_weg_!_" changeset="1980427">
    <nd ref="168982238"/>
    <nd ref="160604480"/>
    <nd ref="158220530"/>
    <tag k="discovered_by" v="RambaZamba"/>
    <tag k="highway" v="residential"/>
    <tag k="name" v="Marienstraße"/>
    <tag k="source" v="survey"/>
  </way>
  <way id="16385608" version="4" timestamp="2009-08-28T19:53:20Z" uid="156995" user="HampelZamba" changeset="2294580">
    <nd ref="168982238"/>
    <nd ref="160604480"/>
    <nd ref="158220530"/>
    <tag k="highway" v="residential"/>
    <tag k="name" v="Marienstraße"/>
    <tag k="source" v="survey"/>
  </way>
  <way id="16385608" version="5" timestamp="2009-08-28T21:13:41Z" uid="36809" user="pfoten_weg_!_" changeset="2295155">
    <nd ref="168982238"/>
    <nd ref="160604480"/>
    <nd ref="158220530"/>
    <tag k="discovered_by" v="RambaZamba"/>
    <tag k="highway" v="residential"/>
    <tag k="name" v="Marienstraße"/>
    <tag k="source" v="survey"/>
  </way>
  <way id="16385608" version="6" timestamp="2009-08-30T09:20:39Z" uid="156995" user="HampelZamba" changeset="2310659">
    <nd ref="168982238"/>
    <nd ref="160604480"/>
    <nd ref="158220530"/>
    <tag k="highway" v="residential"/>
    <tag k="name" v="Marienstraße"/>
    <tag k="source" v="survey"/>
  </way>
  <way id="16385608" version="7" timestamp="2009-08-31T17:44:57Z" uid="36809" user="pfoten_weg_!_" changeset="2328905">
    <nd ref="168982238"/>
    <nd ref="160604480"/>
    <nd ref="158220530"/>
    <tag k="highway" v="residential"/>
    <tag k="name" v="Marienstraße"/>
    <tag k="source" v="survey"/>
  </way>
  <way id="16385608" version="8" timestamp="2009-10-02T18:13:00Z" uid="86259" user="hasse_osm_korinthenkacker" changeset="2715119">
    <nd ref="168982238"/>
    <nd ref="160604480"/>
    <nd ref="158220530"/>
    <tag k="highway" v="residential"/>
    <tag k="name" v="Marienstraße"/>
  </way>
  <way id="16385608" version="9" timestamp="2011-11-16T08:00:35Z" uid="482628" user="gumul" changeset="9841907">
    <nd ref="168982238"/>
    <nd ref="1504835039"/>
    <nd ref="160604480"/>
    <nd ref="158220530"/>
    <tag k="highway" v="residential"/>
    <tag k="name" v="Marienstraße"/>
  </way>
  <way id="16385608" version="10" timestamp="2012-03-01T20:19:27Z" uid="482628" user="gumul" changeset="10841837">
    <nd ref="168982238"/>
    <nd ref="1504835039"/>
    <nd ref="160604480"/>
    <nd ref="158220530"/>
    <tag k="highway" v="residential"/>
    <tag k="maxspeed" v="30"/>
    <tag k="name" v="Marienstraße"/>
  </way>
  <way id="16385834" version="2" timestamp="2009-09-29T01:15:30Z" uid="36809" user="pfoten_weg_!_" changeset="2671973">
    <nd ref="168988133"/>
    <nd ref="168988135"/>
    <nd ref="168988137"/>
    <tag k="highway" v="service"/>
  </way>
</osm>
