<?xml version='1.0' encoding='UTF-8'?>
<osm version="0.6" generator="libosmium/2.20.0">
  <way id="16386133" version="4" timestamp="2009-09-29T01:14:20Z" uid="36809" user="pfoten_weg_!_" changeset="2671973">
    <nd ref="169000054"/>
    <nd ref="169000056"/>
    <nd ref="169000057"/>
    <nd ref="169000059"/>
    <nd ref="169000060"/>
    <nd ref="169000061"/>
    <nd ref="169000062"/>
    <nd ref="169000064"/>
    <tag k="access" v="destination"/>
    <tag k="highway" v="residential"/>
    <tag k="name" v="Pfarrweg"/>
  </way>
  <way id="16386133" version="5" timestamp="2011-02-05T09:45:10Z" uid="38998" user="befega" changeset="7190353">
    <nd ref="169000054"/>
    <nd ref="169000056"/>
    <nd ref="169000057"/>
    <nd ref="1137216804"/>
    <nd ref="169000059"/>
    <nd ref="169000060"/>
    <nd ref="169000061"/>
    <nd ref="1137216966"/>
    <nd ref="169000062"/>
    <nd ref="169000064"/>
    <tag k="access" v="destination"/>
    <tag k="highway" v="residential"/>
    <tag k="name" v="Pfarrweg"/>
  </way>
  <way id="16386200" version="3" timestamp="2009-09-29T01:14:19Z" uid="36809" user="pfoten_weg_!_" changeset="2671973">
    <nd ref="169002279"/>
    <nd ref="169002280"/>
    <nd ref="169002281"/>
    <tag k="highway" v="footway"/>
  </way>
  <way id="16386222" version="2" timestamp="2009-09-29T01:14:20Z" uid="36809" user="pfoten_weg_!_" changeset="2671973">
    <nd ref="169002282"/>
    <nd ref="168993040"/>
    <tag k="highway" v="footway"/>
  </way>
  <way id="16386227" version="5" timestamp="2009-10-12T22:05:51Z" uid="36809" user="pfoten_weg_!_" changeset="2831291">
    <nd ref="169002281"/>
    <nd ref="169002282"/>
    <tag k="bridge" v="yes"/>
    <tag k="highway" v="footway"/>
    <tag k="layer" v="1"/>
  </way>
  <way id="16386419" version="6" timestamp="2009-10-12T22:05:54Z" uid="36809" user="pfoten_weg_!_" changeset="2831291">
    <nd ref="169010963"/>
    <nd ref="169010965"/>
    <nd ref="282351529"/>
    <nd ref="169010966"/>
    <nd ref="169010968"/>
    <nd ref="169010970"/>
    <nd ref="169010972"/>
    <nd ref="169010975"/>
    <tag k="highway" v="residential"/>
    <tag k="name" v="Am Würmufer"/>
  </way>
  <way id="16386419" version="7" timestamp="2012-02-02T12:10:33Z" uid="482628" user="gumul" changeset="10566834">
    <nd ref="169010963"/>
    <nd ref="169010965"/>
    <nd ref="282351529"/>
    <nd ref="169010966"/>
    <nd ref="169010968"/>
    <nd ref="169010970"/>
    <nd ref="169010972"/>
    <nd ref="169010975"/>
    <tag k="highway" v="residential"/>
    <tag k="maxspeed" v="30"/>
    <tag k="name" v="Am Würmufer"/>
  </way>
  <way id="16386425" version="4" timestamp="2009-10-12T22:05:53Z" uid="36809" user="pfoten_weg_!_" changeset="2831291">
    <nd ref="169011224"/>
    <nd ref="281908415"/>
    <nd ref="169010968"/>
    <tag k="highway" v="residential"/>
    <tag k="name" v="Am Würmufer"/>
    <tag k="surface" v="paved"/>
  </way>
  <way id="16386425" version="5" timestamp="2012-02-02T12:10:34Z" uid="482628" user="gumul" changeset="10566834">
    <nd ref="169011224"/>
    <nd ref="281908415"/>
    <nd ref="169010968"/>
    <tag k="highway" v="residential"/>
    <tag k="maxspeed" v="30"/>
    <tag k="name" v="Am Würmufer"/>
    <tag k="surface" v="paved"/>
  </way>
  <way id="16386481" version="2" timestamp="2009-09-29T01:14:12Z" uid="36809" user="pfoten_weg_!_" changeset="2671973">
    <nd ref="157402427"/>
    <nd ref="157408608"/>
    <nd ref="157408610"/>
    <nd ref="157408612"/>
    <nd ref="157408613"/>
    <tag k="highway" v="residential"/>
    <tag k="name" v="Hangstraße"/>
  </way>
  <way id="16386481" version="3" timestamp="2012-01-28T15:47:18Z" uid="482628" user="gumul" changeset="10522106">
    <nd ref="157402427"/>
    <nd ref="157408608"/>
    <nd ref="157408610"/>
    <nd ref="157408612"/>
    <nd ref="157408613"/>
    <tag k="highway" v="residential"/>
    <tag k="maxspeed" v="40"/>
    <tag k="name" v="Hangstraße"/>
  </way>
  <way id="16386481" version="4" timestamp="2012-02-02T12:10:34Z" uid="482628" user="gumul" changeset="10566834">
    <nd ref="157402427"/>
    <nd ref="157408608"/>
    <nd ref="157408610"/>
    <nd ref="157408612"/>
    <nd ref="157408613"/>
    <tag k="highway" v="residential"/>
    <tag k="maxspeed" v="30"/>
    <tag k="name" v="Hangstraße"/>
  </way>
  <way id="16386495" version="2" timestamp="2009-09-29T01:14:13Z" uid="36809" user="pfoten_weg_!_" changeset="2671973">
    <nd ref="157403700"/>
    <nd ref="157408605"/>
    <nd ref="157408606"/>
    <nd ref="157408607"/>
    <nd ref="157402427"/>
    <tag k="highway" v="residential"/>
    <tag k="name" v="Hangstraße"/>
  </way>
  <way id="16386495" version="3" timestamp="2012-02-02T12:10:34Z" uid="482628" user="gumul" changeset="10566834">
    <nd ref="157403700"/>
    <nd ref="157408605"/>
    <nd ref="157408606"/>
    <nd ref="157408607"/>
    <nd ref="157402427"/>
    <tag k="highway" v="residential"/>
    <tag k="maxspeed" v="30"/>
    <tag k="name" v="Hangstraße"/>
  </way>
  <way id="16386511" version="2" timestamp="2009-09-29T01:14:08Z" uid="36809" user="pfoten_weg_!_" changeset="2671973">
    <nd ref="158852885"/>
    <nd ref="158852886"/>
    <nd ref="158852887"/>
    <nd ref="158852888"/>
    <nd ref="158852889"/>
    <nd ref="158852890"/>
    <nd ref="158852891"/>
    <nd ref="35658187"/>
    <tag k="highway" v="residential"/>
    <tag k="name" v="Hubertusstraße"/>
  </way>
  <way id="16386511" version="3" timestamp="2011-11-29T11:43:45Z" uid="482628" user="gumul" changeset="9986789">
    <nd ref="158852885"/>
    <nd ref="158852886"/>
    <nd ref="158852887"/>
    <nd ref="1523044435"/>
    <nd ref="158852888"/>
    <nd ref="158852889"/>
    <nd ref="158852890"/>
    <nd ref="158852891"/>
    <nd ref="35658187"/>
    <tag k="highway" v="residential"/>
    <tag k="name" v="Hubertusstraße"/>
  </way>
  <way id="16386511" version="4" timestamp="2012-01-28T15:47:18Z" uid="482628" user="gumul" changeset="10522106">
    <nd ref="158852885"/>
    <nd ref="158852886"/>
    <nd ref="158852887"/>
    <nd ref="1523044435"/>
    <nd ref="158852888"/>
    <nd ref="158852889"/>
    <nd ref="158852890"/>
    <nd ref="158852891"/>
    <nd ref="35658187"/>
    <tag k="highway" v="residential"/>
    <tag k="maxspeed" v="30"/>
    <tag k="name" v="Hubertusstraße"/>
  </way>
  <way id="16386521" version="2" timestamp="2009-09-29T01:14:08Z" uid="36809" user="pfoten_weg_!_" changeset="2671973">
    <nd ref="158854593"/>
    <nd ref="158854595"/>
    <nd ref="158854596"/>
    <nd ref="158854006"/>
    <nd ref="158854007"/>
    <nd ref="158854008"/>
    <nd ref="158852885"/>
    <tag k="highway" v="residential"/>
    <tag k="name" v="Hubertusstraße"/>
  </way>
  <way id="16386521" version="3" timestamp="2011-11-29T09:11:51Z" uid="482628" user="gumul" changeset="9985646">
    <nd ref="158854593"/>
    <nd ref="158854595"/>
    <nd ref="158854596"/>
    <nd ref="158854006"/>
    <nd ref="158854007"/>
    <nd ref="1522924603"/>
    <nd ref="158854008"/>
    <nd ref="158852885"/>
    <tag k="highway" v="residential"/>
    <tag k="name" v="Hubertusstraße"/>
  </way>
  <way id="16386521" version="4" timestamp="2011-11-29T12:01:35Z" uid="482628" user="gumul" changeset="9986789">
    <nd ref="158854593"/>
    <nd ref="158854595"/>
    <nd ref="158854596"/>
    <nd ref="158854006"/>
    <nd ref="158854007"/>
    <nd ref="1522924603"/>
    <nd ref="1523063184"/>
    <nd ref="158854008"/>
    <nd ref="158852885"/>
    <tag k="highway" v="residential"/>
    <tag k="name" v="Hubertusstraße"/>
  </way>
  <way id="16386521" version="5" timestamp="2011-12-04T18:29:40Z" uid="482628" user="gumul" changeset="10036148">
    <nd ref="158854593"/>
    <nd ref="1531498463"/>
    <nd ref="158854595"/>
    <nd ref="158854596"/>
    <nd ref="158854006"/>
    <nd ref="158854007"/>
    <nd ref="1522924603"/>
    <nd ref="1523063184"/>
    <nd ref="158854008"/>
    <nd ref="158852885"/>
    <tag k="highway" v="residential"/>
    <tag k="name" v="Hubertusstraße"/>
  </way>
  <way id="16386521" version="6" timestamp="2012-01-28T15:47:19Z" uid="482628" user="gumul" changeset="10522106">
    <nd ref="158854593"/>
    <nd ref="1531498463"/>
    <nd ref="158854595"/>
    <nd ref="158854596"/>
    <nd ref="158854006"/>
    <nd ref="158854007"/>
    <nd ref="1522924603"/>
    <nd ref="1523063184"/>
    <nd ref="158854008"/>
    <nd ref="158852885"/>
    <tag k="highway" v="residential"/>
    <tag k="maxspeed" v="30"/>
    <tag k="name" v="Hubertusstraße"/>
  </way>
  <way id="16386667" version="17" timestamp="2011-05-05T16:33:31Z" uid="115477" user="wowik" changeset="8058202">
    <nd ref="169021267"/>
    <nd ref="1098001739"/>
    <nd ref="1098001784"/>
    <nd ref="1098001898"/>
    <nd ref="297651828"/>
    <tag k="cladr:code" v="77000000000100900"/>
    <tag k="cladr:name" v="Волоколамское"/>
    <tag k="cladr:suffix" v="Шоссе"/>
    <tag k="highway" v="primary_link"/>
    <tag k="name" v="Волоколамское шоссе"/>
    <tag k="omkum:code" v="03930"/>
    <tag k="oneway" v="yes"/>
    <tag k="sorting_name" v="Волоколамское  шоссе"/>
  </way>
  <way id="16386667" version="18" timestamp="2011-12-12T20:11:07Z" uid="397326" user="trolleway" changeset="10102473">
    <nd ref="169021267"/>
    <nd ref="1098001739"/>
    <nd ref="1098001784"/>
    <nd ref="1098001898"/>
    <nd ref="297651828"/>
    <tag k="cladr:code" v="77000000000100900"/>
    <tag k="cladr:name" v="Волоколамское"/>
    <tag k="cladr:suffix" v="Шоссе"/>
    <tag k="highway" v="primary_link"/>
    <tag k="name" v="Волоколамское шоссе"/>
    <tag k="omkum:code" v="03930"/>
    <tag k="oneway" v="yes"/>
    <tag k="sorting_name" v="Волоколамское  шоссе"/>
    <tag k="trolley_wire" v="yes"/>
  </way>
</osm>
