<?xml version='1.0' encoding='UTF-8'?>
<osm version="0.6" generator="libosmium/2.20.0">
  <way id="16409500" version="3" timestamp="2008-07-06T01:00:15Z" uid="6975" user="ulfl" changeset="404092">
    <nd ref="18107065"/>
    <nd ref="67028219"/>
    <nd ref="18107070"/>
    <nd ref="67028246"/>
    <nd ref="18107069"/>
    <nd ref="67028244"/>
    <nd ref="18107067"/>
    <nd ref="67028225"/>
    <nd ref="18107065"/>
    <tag k="highway" v="secondary"/>
    <tag k="maxspeed" v="50"/>
    <tag k="name" v="Jakobsgårdsrondellen"/>
  </way>
  <way id="16409500" version="4" timestamp="2009-05-03T08:49:05Z" uid="113813" user="AndersAndersson" changeset="1057509">
    <nd ref="18107065"/>
    <nd ref="67028219"/>
    <nd ref="18107070"/>
    <nd ref="67028246"/>
    <nd ref="18107069"/>
    <nd ref="67028244"/>
    <nd ref="18107067"/>
    <nd ref="67028225"/>
    <nd ref="18107065"/>
    <tag k="junction" v="roundabout"/>
    <tag k="maxspeed" v="50"/>
    <tag k="name" v="Jakobsgårdsrondellen"/>
  </way>
  <way id="16409500" version="5" timestamp="2009-05-04T19:40:52Z" uid="113813" user="AndersAndersson" changeset="1079505">
    <nd ref="18107065"/>
    <nd ref="67028219"/>
    <nd ref="18107070"/>
    <nd ref="67028246"/>
    <nd ref="18107069"/>
    <nd ref="67028244"/>
    <nd ref="18107067"/>
    <nd ref="67028225"/>
    <nd ref="18107065"/>
    <tag k="highway" v="secondary"/>
    <tag k="junction" v="roundabout"/>
    <tag k="maxspeed" v="50"/>
    <tag k="name" v="Jakobsgårdsrondellen"/>
  </way>
  <way id="16409500" version="6" timestamp="2009-06-06T21:45:21Z" uid="113813" user="AndersAndersson" changeset="1442797">
    <nd ref="18107065"/>
    <nd ref="67028219"/>
    <nd ref="18107070"/>
    <nd ref="67028246"/>
    <nd ref="18107069"/>
    <nd ref="67028244"/>
    <nd ref="18107067"/>
    <nd ref="67028225"/>
    <nd ref="18107065"/>
    <tag k="highway" v="tertiary"/>
    <tag k="junction" v="roundabout"/>
    <tag k="maxspeed" v="50"/>
    <tag k="name" v="Jakobsgårdsrondellen"/>
  </way>
  <way id="16409500" version="7" timestamp="2010-03-14T21:10:47Z" uid="113813" user="AndersAndersson" changeset="4129670">
    <nd ref="18107065"/>
    <nd ref="67028219"/>
    <nd ref="18107070"/>
    <nd ref="67028246"/>
    <nd ref="18107069"/>
    <nd ref="67028244"/>
    <nd ref="18107067"/>
    <nd ref="67028225"/>
    <nd ref="18107065"/>
    <tag k="alt_name" v="Jakobsgårdsrondellen"/>
    <tag k="highway" v="tertiary"/>
    <tag k="junction" v="roundabout"/>
    <tag k="maxspeed" v="50"/>
    <tag k="name" v="Jaxrondellen"/>
  </way>
  <way id="16409506" version="2" timestamp="2008-07-06T00:59:25Z" uid="6975" user="ulfl" changeset="404092">
    <nd ref="169364927"/>
    <nd ref="169364954"/>
    <nd ref="169364933"/>
    <tag k="highway" v="residential"/>
    <tag k="maxspeed" v="50"/>
    <tag k="name" v="Karl Johans Väg"/>
  </way>
  <way id="16409531" version="11" timestamp="2009-08-03T13:34:25Z" uid="4467" user="Rosscoe" changeset="2025552">
    <nd ref="115986621"/>
    <nd ref="417266065"/>
    <nd ref="417266043"/>
    <nd ref="115989192"/>
    <nd ref="301564355"/>
    <nd ref="115989197"/>
    <nd ref="301564379"/>
    <tag k="highway" v="trunk"/>
    <tag k="lanes" v="2"/>
    <tag k="layer" v="1"/>
    <tag k="name" v="Main South Road"/>
    <tag k="oneway" v="yes"/>
    <tag k="ref" v="1"/>
  </way>
  <way id="16409531" version="12" timestamp="2011-04-26T10:28:21Z" uid="44659" user="Phil Shipley" changeset="7972973">
    <nd ref="115986621"/>
    <nd ref="417266065"/>
    <nd ref="417266043"/>
    <nd ref="115989192"/>
    <nd ref="1260600365"/>
    <nd ref="301564355"/>
    <nd ref="1260600443"/>
    <nd ref="115989197"/>
    <nd ref="301564379"/>
    <tag k="highway" v="trunk"/>
    <tag k="lanes" v="2"/>
    <tag k="layer" v="1"/>
    <tag k="name" v="Main South Road"/>
    <tag k="oneway" v="yes"/>
    <tag k="ref" v="1"/>
  </way>
  <way id="16409531" version="13" timestamp="2011-05-21T05:15:56Z" uid="341519" user="lcmortensen" changeset="8203850">
    <nd ref="115986621"/>
    <nd ref="417266065"/>
    <nd ref="417266043"/>
    <nd ref="115989192"/>
    <tag k="highway" v="trunk"/>
    <tag k="lanes" v="2"/>
    <tag k="layer" v="1"/>
    <tag k="name" v="Main South Road"/>
    <tag k="oneway" v="yes"/>
    <tag k="ref" v="1"/>
  </way>
  <way id="16409531" version="14" timestamp="2012-01-25T03:55:42Z" uid="341519" user="lcmortensen" changeset="10490359">
    <nd ref="115986621"/>
    <nd ref="417266065"/>
    <nd ref="417266043"/>
    <nd ref="115989192"/>
    <tag k="highway" v="trunk"/>
    <tag k="lanes" v="2"/>
    <tag k="layer" v="1"/>
    <tag k="maxspeed" v="50"/>
    <tag k="name" v="Main South Road"/>
    <tag k="oneway" v="yes"/>
    <tag k="ref" v="1"/>
  </way>
  <way id="16409531" version="15" timestamp="2012-03-20T23:09:40Z" uid="341519" user="lcmortensen" changeset="11046879">
    <nd ref="115986621"/>
    <nd ref="417266065"/>
    <nd ref="417266043"/>
    <nd ref="115989192"/>
    <tag k="highway" v="trunk"/>
    <tag k="lanes" v="2"/>
    <tag k="layer" v="1"/>
    <tag k="maxspeed" v="50"/>
    <tag k="name" v="Main South Road"/>
    <tag k="oneway" v="yes"/>
    <tag k="ref" v="SH 1"/>
  </way>
  <way id="16409717" version="5" timestamp="2008-09-14T18:30:43Z" uid="6975" user="ulfl" changeset="640534">
    <nd ref="169367045"/>
    <nd ref="169367046"/>
    <nd ref="169367047"/>
    <nd ref="169367048"/>
    <nd ref="169367045"/>
    <tag k="amenity" v="townhall"/>
    <tag k="building" v="yes"/>
    <tag k="name" v="Westminster City Hall"/>
  </way>
  <way id="16409717" version="6" timestamp="2011-06-22T11:59:26Z" uid="37137" user="Derick Rethans" changeset="8513484">
    <nd ref="169367045"/>
    <nd ref="169367046"/>
    <nd ref="169367047"/>
    <nd ref="169367048"/>
    <nd ref="1232048224"/>
    <nd ref="1232048563"/>
    <nd ref="169367045"/>
    <tag k="amenity" v="townhall"/>
    <tag k="building" v="yes"/>
    <tag k="name" v="Westminster City Hall"/>
  </way>
</osm>
