<?xml version='1.0' encoding='UTF-8'?>
<osm version="0.6" generator="libosmium/2.20.0">
  <way id="16434000" version="6" timestamp="2009-04-29T14:19:47Z" uid="30632" user="antblant" changeset="1015966">
    <nd ref="169611370"/>
    <nd ref="169614362"/>
    <nd ref="169614363"/>
    <nd ref="169614364"/>
    <nd ref="169614366"/>
    <nd ref="169614367"/>
    <nd ref="169614368"/>
    <nd ref="126122867"/>
    <tag k="created_by" v="Merkaartor 0.12"/>
    <tag k="highway" v="primary"/>
    <tag k="lanes" v="2"/>
    <tag k="lines" v="2"/>
    <tag k="name" v="Lutycka"/>
    <tag k="oneway" v="yes"/>
    <tag k="ref" v="92"/>
  </way>
  <way id="16434000" version="7" timestamp="2010-03-16T22:46:44Z" uid="163746" user="anti_bot-nonsense" changeset="4147795">
    <nd ref="169611370"/>
    <nd ref="169614362"/>
    <nd ref="169614363"/>
    <nd ref="169614364"/>
    <nd ref="169614366"/>
    <nd ref="169614367"/>
    <nd ref="169614368"/>
    <nd ref="126122867"/>
    <tag k="highway" v="primary"/>
    <tag k="lanes" v="2"/>
    <tag k="lines" v="2"/>
    <tag k="name" v="Lutycka"/>
    <tag k="oneway" v="yes"/>
    <tag k="ref" v="92"/>
  </way>
  <way id="16434119" version="8" timestamp="2010-03-16T22:46:44Z" uid="163746" user="anti_bot-nonsense" changeset="4147795">
    <nd ref="169615609"/>
    <nd ref="169615803"/>
    <nd ref="169615611"/>
    <nd ref="169615612"/>
    <nd ref="169615613"/>
    <nd ref="169615615"/>
    <nd ref="169615616"/>
    <nd ref="169611370"/>
    <tag k="highway" v="primary"/>
    <tag k="lanes" v="2"/>
    <tag k="name" v="Lutycka"/>
    <tag k="oneway" v="yes"/>
    <tag k="ref" v="92"/>
  </way>
  <way id="16434295" version="11" timestamp="2009-04-29T14:17:44Z" uid="30632" user="antblant" changeset="1015966">
    <nd ref="126122867"/>
    <nd ref="346952731"/>
    <nd ref="298894104"/>
    <nd ref="126122862"/>
    <nd ref="126122858"/>
    <nd ref="126122855"/>
    <nd ref="126122849"/>
    <nd ref="346952736"/>
    <nd ref="126122841"/>
    <nd ref="346952740"/>
    <nd ref="126122836"/>
    <nd ref="126122832"/>
    <nd ref="126122825"/>
    <nd ref="283764438"/>
    <nd ref="126122822"/>
    <tag k="created_by" v="Potlatch 0.10f"/>
    <tag k="highway" v="primary"/>
    <tag k="lines" v="2"/>
    <tag k="name" v="Jana Henryka Dąbrowskiego"/>
    <tag k="oneway" v="yes"/>
    <tag k="ref" v="92"/>
  </way>
  <way id="16434295" version="12" timestamp="2009-06-16T17:52:49Z" uid="88909" user="miko101" changeset="1537347">
    <nd ref="126122867"/>
    <nd ref="346952731"/>
    <nd ref="298894104"/>
    <nd ref="126122862"/>
    <nd ref="126122858"/>
    <nd ref="126122855"/>
    <nd ref="126122849"/>
    <nd ref="346952736"/>
    <tag k="created_by" v="Potlatch 0.10f"/>
    <tag k="highway" v="primary"/>
    <tag k="lines" v="2"/>
    <tag k="name" v="Jana Henryka Dąbrowskiego"/>
    <tag k="oneway" v="yes"/>
    <tag k="ref" v="92"/>
  </way>
  <way id="16434295" version="13" timestamp="2009-06-23T10:22:41Z" uid="19417" user="xjr" changeset="1600913">
    <nd ref="126122867"/>
    <nd ref="298894104"/>
    <nd ref="126122862"/>
    <nd ref="126122858"/>
    <nd ref="126122855"/>
    <nd ref="126122849"/>
    <nd ref="346952736"/>
    <tag k="created_by" v="Potlatch 0.10f"/>
    <tag k="highway" v="primary"/>
    <tag k="lines" v="2"/>
    <tag k="name" v="Jana Henryka Dąbrowskiego"/>
    <tag k="oneway" v="yes"/>
    <tag k="ref" v="92"/>
  </way>
  <way id="16434295" version="14" timestamp="2009-06-23T10:22:53Z" uid="19417" user="xjr" changeset="1600913">
    <nd ref="126122867"/>
    <nd ref="298894104"/>
    <tag k="created_by" v="Potlatch 0.10f"/>
    <tag k="highway" v="primary"/>
    <tag k="lines" v="2"/>
    <tag k="name" v="Jana Henryka Dąbrowskiego"/>
    <tag k="oneway" v="yes"/>
    <tag k="ref" v="92"/>
  </way>
  <way id="16434295" version="15" timestamp="2010-03-16T22:46:54Z" uid="163746" user="anti_bot-nonsense" changeset="4147795">
    <nd ref="126122867"/>
    <nd ref="298894104"/>
    <tag k="highway" v="primary"/>
    <tag k="lines" v="2"/>
    <tag k="name" v="Jana Henryka Dąbrowskiego"/>
    <tag k="oneway" v="yes"/>
    <tag k="ref" v="92"/>
  </way>
  <way id="16434306" version="3" timestamp="2008-06-07T00:20:40Z" uid="34428" user="usm78-gis" changeset="88988">
    <nd ref="223748"/>
    <nd ref="259761685"/>
    <tag k="created_by" v="Potlatch 0.9c"/>
    <tag k="highway" v="residential"/>
  </way>
  <way id="16434306" version="4" timestamp="2008-06-07T00:20:44Z" uid="34428" user="usm78-gis" changeset="88988"/>
  <way id="16434495" version="12" timestamp="2009-04-29T14:17:50Z" uid="30632" user="antblant" changeset="1015966">
    <nd ref="169619081"/>
    <nd ref="315275885"/>
    <nd ref="169619083"/>
    <nd ref="169619084"/>
    <nd ref="192805062"/>
    <nd ref="265244857"/>
    <nd ref="346954970"/>
    <nd ref="169619086"/>
    <nd ref="346954972"/>
    <nd ref="346954973"/>
    <nd ref="169619087"/>
    <nd ref="169619088"/>
    <nd ref="169619089"/>
    <nd ref="346954988"/>
    <nd ref="346954989"/>
    <nd ref="169615609"/>
    <tag k="created_by" v="Potlatch 0.10f"/>
    <tag k="highway" v="primary"/>
    <tag k="lines" v="2"/>
    <tag k="name" v="Jana Henryka Dąbrowskiego"/>
    <tag k="oneway" v="yes"/>
    <tag k="ref" v="92"/>
  </way>
  <way id="16434495" version="13" timestamp="2009-06-23T10:23:34Z" uid="19417" user="xjr" changeset="1600913">
    <nd ref="169619081"/>
    <nd ref="315275885"/>
    <nd ref="169619083"/>
    <nd ref="169619084"/>
    <nd ref="192805062"/>
    <nd ref="265244857"/>
    <nd ref="346954970"/>
    <nd ref="169619086"/>
    <nd ref="346954972"/>
    <nd ref="346954973"/>
    <nd ref="169619087"/>
    <nd ref="169619088"/>
    <nd ref="428304374"/>
    <nd ref="169619089"/>
    <nd ref="346954988"/>
    <nd ref="169615609"/>
    <tag k="created_by" v="Potlatch 0.10f"/>
    <tag k="highway" v="primary"/>
    <tag k="lines" v="2"/>
    <tag k="name" v="Jana Henryka Dąbrowskiego"/>
    <tag k="oneway" v="yes"/>
    <tag k="ref" v="92"/>
  </way>
  <way id="16434495" version="14" timestamp="2009-06-23T10:23:38Z" uid="19417" user="xjr" changeset="1600913">
    <nd ref="169619081"/>
    <nd ref="315275885"/>
    <nd ref="169619083"/>
    <nd ref="169619084"/>
    <nd ref="192805062"/>
    <nd ref="265244857"/>
    <nd ref="346954970"/>
    <nd ref="169619086"/>
    <nd ref="346954972"/>
    <nd ref="346954973"/>
    <nd ref="169619087"/>
    <nd ref="169619088"/>
    <nd ref="428304374"/>
    <nd ref="169619089"/>
    <tag k="created_by" v="Potlatch 0.10f"/>
    <tag k="highway" v="primary"/>
    <tag k="lines" v="2"/>
    <tag k="name" v="Jana Henryka Dąbrowskiego"/>
    <tag k="oneway" v="yes"/>
    <tag k="ref" v="92"/>
  </way>
  <way id="16434495" version="15" timestamp="2009-07-25T14:26:03Z" uid="19417" user="xjr" changeset="1934843">
    <nd ref="169619081"/>
    <nd ref="315275885"/>
    <nd ref="169619083"/>
    <nd ref="169619084"/>
    <nd ref="192805062"/>
    <tag k="created_by" v="Potlatch 0.10f"/>
    <tag k="highway" v="primary"/>
    <tag k="lines" v="2"/>
    <tag k="name" v="Jana Henryka Dąbrowskiego"/>
    <tag k="oneway" v="yes"/>
    <tag k="ref" v="92"/>
  </way>
  <way id="16434495" version="16" timestamp="2009-09-06T20:52:12Z" uid="88909" user="miko101" changeset="2396990">
    <nd ref="169619081"/>
    <nd ref="315275885"/>
    <nd ref="169619083"/>
    <nd ref="169619084"/>
    <nd ref="192805062"/>
    <tag k="highway" v="trunk"/>
    <tag k="lines" v="2"/>
    <tag k="name" v="Jana Henryka Dąbrowskiego"/>
    <tag k="oneway" v="yes"/>
    <tag k="ref" v="92"/>
  </way>
  <way id="16434495" version="17" timestamp="2010-03-27T08:40:11Z" uid="113415" user="tomek-k" changeset="4244450">
    <nd ref="169619081"/>
    <nd ref="315275885"/>
    <nd ref="169619083"/>
    <nd ref="169619084"/>
    <nd ref="192805062"/>
    <tag k="highway" v="primary"/>
    <tag k="lines" v="2"/>
    <tag k="name" v="Jana Henryka Dąbrowskiego"/>
    <tag k="oneway" v="yes"/>
    <tag k="ref" v="92"/>
  </way>
  <way id="16434495" version="18" timestamp="2010-04-19T17:50:28Z" uid="88909" user="miko101" changeset="4470219">
    <nd ref="169619081"/>
    <nd ref="315275885"/>
    <nd ref="169619083"/>
    <nd ref="169619084"/>
    <nd ref="192805062"/>
    <tag k="highway" v="trunk"/>
    <tag k="lines" v="2"/>
    <tag k="name" v="Jana Henryka Dąbrowskiego"/>
    <tag k="oneway" v="yes"/>
    <tag k="ref" v="92"/>
  </way>
  <way id="16434495" version="19" timestamp="2011-12-02T19:17:04Z" uid="524053" user="k11" changeset="10019380">
    <nd ref="169619081"/>
    <nd ref="315275885"/>
    <nd ref="169619083"/>
    <nd ref="169619084"/>
    <nd ref="192805062"/>
    <tag k="highway" v="primary"/>
    <tag k="lines" v="2"/>
    <tag k="name" v="Jana Henryka Dąbrowskiego"/>
    <tag k="oneway" v="yes"/>
    <tag k="ref" v="92"/>
  </way>
  <way id="16434803" version="8" timestamp="2010-03-16T22:46:43Z" uid="163746" user="anti_bot-nonsense" changeset="4147795">
    <nd ref="169615609"/>
    <nd ref="346954990"/>
    <nd ref="346954992"/>
    <nd ref="169622019"/>
    <nd ref="346954994"/>
    <nd ref="169622020"/>
    <nd ref="346954995"/>
    <nd ref="169588592"/>
    <tag k="highway" v="primary_link"/>
    <tag k="lines" v="2"/>
    <tag k="name" v="Jana Henryka Dąbrowskiego"/>
    <tag k="oneway" v="yes"/>
  </way>
</osm>
