<?xml version='1.0' encoding='UTF-8'?>
<osm version="0.6" generator="libosmium/2.20.0">
  <way id="16496970" version="9" timestamp="2008-11-05T18:54:22Z" uid="65847" user="LKK" changeset="689949">
    <nd ref="170317036"/>
    <nd ref="170337789"/>
    <nd ref="170317034"/>
    <tag k="boat" v="no"/>
    <tag k="created_by" v="Potlatch 0.7b"/>
    <tag k="layer" v="-1"/>
    <tag k="name" v="р. Владайска"/>
    <tag k="waterway" v="canal"/>
  </way>
  <way id="16496970" version="10" timestamp="2009-03-17T05:21:40Z" uid="28427" user="skunk" changeset="822753">
    <nd ref="170317036"/>
    <nd ref="170337789"/>
    <nd ref="170317034"/>
    <tag k="boat" v="no"/>
    <tag k="created_by" v="Potlatch 0.7b"/>
    <tag k="layer" v="-1"/>
    <tag k="name" v="р. Владайска"/>
    <tag k="waterway" v="stream"/>
  </way>
  <way id="16496970" version="11" timestamp="2010-05-10T15:17:20Z" uid="94353" user="Fips" changeset="4659950">
    <nd ref="170317036"/>
    <nd ref="170337789"/>
    <nd ref="170317034"/>
    <tag k="boat" v="no"/>
    <tag k="layer" v="-1"/>
    <tag k="name" v="р. Владайска"/>
    <tag k="name:en" v="Vladaya River"/>
    <tag k="waterway" v="stream"/>
  </way>
  <way id="16496970" version="12" timestamp="2011-01-24T20:19:30Z" uid="94353" user="Fips" changeset="7077443">
    <nd ref="170317036"/>
    <nd ref="1119209400"/>
    <nd ref="1119209695"/>
    <nd ref="170317034"/>
    <tag k="boat" v="no"/>
    <tag k="layer" v="-1"/>
    <tag k="name" v="р. Владайска"/>
    <tag k="name:en" v="Vladaya River"/>
    <tag k="waterway" v="river"/>
  </way>
</osm>
