<?xml version='1.0' encoding='UTF-8'?>
<osm version="0.6" generator="libosmium/2.20.0">
  <way id="16507105" version="2" timestamp="2011-03-18T15:43:14Z" uid="4467" user="Rosscoe" changeset="7596453">
    <nd ref="170424361"/>
    <nd ref="170424407"/>
    <nd ref="170424443"/>
    <nd ref="170424487"/>
    <nd ref="170424361"/>
    <tag k="amenity" v="parking"/>
  </way>
  <way id="16507110" version="2" timestamp="2011-03-18T15:42:36Z" uid="4467" user="Rosscoe" changeset="7596453">
    <nd ref="170424529"/>
    <nd ref="170424573"/>
    <nd ref="170424602"/>
    <nd ref="170424629"/>
    <nd ref="170424529"/>
    <tag k="amenity" v="parking"/>
  </way>
  <way id="16507464" version="9" timestamp="2010-03-20T17:23:49Z" uid="74617" user="JohnSmith" changeset="4182357">
    <nd ref="74803234"/>
    <nd ref="26336244"/>
    <nd ref="329978981"/>
    <nd ref="330385891"/>
    <nd ref="26336192"/>
    <nd ref="327131761"/>
    <nd ref="327131741"/>
    <tag k="highway" v="primary"/>
    <tag k="name" v="Vulture Street"/>
    <tag k="oneway" v="yes"/>
  </way>
  <way id="16507464" version="10" timestamp="2011-12-13T06:27:46Z" uid="103574" user="El Segundo can&apos;t win" changeset="10105152">
    <nd ref="74803234"/>
    <nd ref="1543857770"/>
    <nd ref="329978981"/>
    <nd ref="330385891"/>
    <nd ref="26336192"/>
    <nd ref="327131761"/>
    <nd ref="327131741"/>
    <tag k="highway" v="primary"/>
    <tag k="name" v="Vulture Street"/>
    <tag k="oneway" v="yes"/>
  </way>
  <way id="16507464" version="11" timestamp="2012-01-09T01:50:28Z" uid="103574" user="Here is the repulsant snozzcumber!" changeset="10338572">
    <nd ref="1583431845"/>
    <nd ref="1543857770"/>
    <nd ref="329978981"/>
    <nd ref="330385891"/>
    <nd ref="26336192"/>
    <nd ref="327131761"/>
    <nd ref="327131741"/>
    <tag k="highway" v="primary"/>
    <tag k="name" v="Vulture Street"/>
    <tag k="oneway" v="yes"/>
  </way>
  <way id="16507464" version="12" timestamp="2012-01-09T01:51:26Z" uid="103574" user="Here is the repulsant snozzcumber!" changeset="10338572"/>
  <way id="16507470" version="15" timestamp="2010-02-14T17:09:47Z" uid="74617" user="JohnSmith" changeset="3875836">
    <nd ref="74808035"/>
    <nd ref="74808034"/>
    <nd ref="305109536"/>
    <nd ref="74808033"/>
    <nd ref="248510967"/>
    <nd ref="248510932"/>
    <nd ref="248510917"/>
    <nd ref="74808030"/>
    <nd ref="74808029"/>
    <nd ref="74808028"/>
    <nd ref="74808027"/>
    <nd ref="74812799"/>
    <nd ref="86871126"/>
    <nd ref="309853987"/>
    <nd ref="74828435"/>
    <nd ref="26336249"/>
    <tag k="highway" v="primary"/>
    <tag k="name" v="Vulture Street"/>
    <tag k="oneway" v="yes"/>
    <tag k="ref" v="S41"/>
  </way>
  <way id="16507470" version="16" timestamp="2010-03-09T05:34:44Z" uid="211951" user="Dr Paul Martin" changeset="4078221">
    <nd ref="74808035"/>
    <nd ref="74808034"/>
    <nd ref="305109536"/>
    <nd ref="74808033"/>
    <nd ref="248510967"/>
    <nd ref="248510932"/>
    <nd ref="248510917"/>
    <nd ref="74808030"/>
    <tag k="highway" v="primary"/>
    <tag k="name" v="Vulture Street"/>
    <tag k="oneway" v="yes"/>
    <tag k="ref" v="S41"/>
  </way>
  <way id="16507470" version="17" timestamp="2010-03-20T17:23:50Z" uid="74617" user="JohnSmith" changeset="4182357">
    <nd ref="74808035"/>
    <nd ref="74808034"/>
    <nd ref="305109536"/>
    <nd ref="74808033"/>
    <nd ref="248510967"/>
    <nd ref="248510932"/>
    <nd ref="248510917"/>
    <nd ref="74808030"/>
    <tag k="highway" v="primary"/>
    <tag k="name" v="Vulture Street"/>
    <tag k="oneway" v="yes"/>
  </way>
  <way id="16507470" version="18" timestamp="2010-07-14T04:50:11Z" uid="103574" user="El Segundo can&apos;t win" changeset="5213888">
    <nd ref="74808035"/>
    <nd ref="74808034"/>
    <nd ref="305109536"/>
    <nd ref="816324383"/>
    <nd ref="74808033"/>
    <nd ref="248510967"/>
    <nd ref="248510932"/>
    <nd ref="248510917"/>
    <nd ref="74808030"/>
    <tag k="highway" v="primary"/>
    <tag k="name" v="Vulture Street"/>
    <tag k="oneway" v="yes"/>
  </way>
  <way id="16507470" version="19" timestamp="2010-08-21T03:25:45Z" uid="128470" user="vkungys" changeset="5548793">
    <nd ref="74808035"/>
    <nd ref="74808034"/>
    <nd ref="305109536"/>
    <nd ref="816324383"/>
    <nd ref="74808033"/>
    <tag k="highway" v="primary"/>
    <tag k="name" v="Vulture Street"/>
    <tag k="oneway" v="yes"/>
  </way>
  <way id="16507470" version="20" timestamp="2012-01-11T02:52:56Z" uid="103574" user="Here is the repulsant snozzcumber!" changeset="10357385"/>
  <way id="16507475" version="6" timestamp="2010-02-14T17:09:59Z" uid="74617" user="JohnSmith" changeset="3875836">
    <nd ref="74808036"/>
    <nd ref="74808035"/>
    <tag k="bridge" v="yes"/>
    <tag k="highway" v="primary"/>
    <tag k="layer" v="1"/>
    <tag k="name" v="Vulture Street"/>
    <tag k="oneway" v="yes"/>
    <tag k="ref" v="S41"/>
  </way>
  <way id="16507475" version="7" timestamp="2010-03-20T17:23:50Z" uid="74617" user="JohnSmith" changeset="4182357">
    <nd ref="74808036"/>
    <nd ref="74808035"/>
    <tag k="bridge" v="yes"/>
    <tag k="highway" v="primary"/>
    <tag k="layer" v="1"/>
    <tag k="name" v="Vulture Street"/>
    <tag k="oneway" v="yes"/>
  </way>
  <way id="16507475" version="8" timestamp="2010-07-19T04:04:35Z" uid="103574" user="El Segundo can&apos;t win" changeset="5257365">
    <nd ref="74808036"/>
    <nd ref="824047718"/>
    <nd ref="74808035"/>
    <tag k="bridge" v="yes"/>
    <tag k="highway" v="primary"/>
    <tag k="layer" v="1"/>
    <tag k="name" v="Vulture Street"/>
    <tag k="oneway" v="yes"/>
  </way>
  <way id="16507475" version="9" timestamp="2010-07-19T04:06:02Z" uid="103574" user="El Segundo can&apos;t win" changeset="5257365">
    <nd ref="74808036"/>
    <nd ref="824048386"/>
    <nd ref="824047718"/>
    <nd ref="74808035"/>
    <tag k="bridge" v="yes"/>
    <tag k="highway" v="primary"/>
    <tag k="layer" v="1"/>
    <tag k="name" v="Vulture Street"/>
    <tag k="oneway" v="yes"/>
  </way>
  <way id="16507475" version="10" timestamp="2012-01-06T03:15:55Z" uid="103574" user="Here is the repulsant snozzcumber!" changeset="10307628"/>
  <way id="16507496" version="6" timestamp="2010-02-14T17:03:10Z" uid="74617" user="JohnSmith" changeset="3875836">
    <nd ref="88474976"/>
    <nd ref="354430761"/>
    <nd ref="82436523"/>
    <nd ref="82436493"/>
    <nd ref="330147901"/>
    <nd ref="76474027"/>
    <tag k="highway" v="residential"/>
    <tag k="maxspeed" v="50"/>
    <tag k="name" v="Boundary Street"/>
  </way>
  <way id="16507496" version="7" timestamp="2010-06-19T01:31:22Z" uid="103574" user="Fairfield" changeset="5020588">
    <nd ref="88474976"/>
    <nd ref="354430761"/>
    <nd ref="82436523"/>
    <nd ref="775903020"/>
    <nd ref="775903019"/>
    <nd ref="775903018"/>
    <tag k="highway" v="residential"/>
    <tag k="maxspeed" v="50"/>
    <tag k="name" v="Boundary Street"/>
  </way>
  <way id="16507496" version="8" timestamp="2010-06-19T01:33:01Z" uid="103574" user="Fairfield" changeset="5020588">
    <nd ref="775903120"/>
    <nd ref="775903119"/>
    <nd ref="775903118"/>
    <nd ref="775903020"/>
    <nd ref="775903019"/>
    <nd ref="775903018"/>
    <tag k="highway" v="residential"/>
    <tag k="maxspeed" v="50"/>
    <tag k="name" v="Boundary Street"/>
  </way>
  <way id="16507496" version="9" timestamp="2010-06-19T01:33:21Z" uid="103574" user="Fairfield" changeset="5020588">
    <nd ref="775903120"/>
    <nd ref="775903119"/>
    <nd ref="775903118"/>
    <nd ref="775903133"/>
    <nd ref="775903133"/>
    <nd ref="775903020"/>
    <nd ref="775903019"/>
    <nd ref="775903018"/>
    <tag k="highway" v="residential"/>
    <tag k="maxspeed" v="50"/>
    <tag k="name" v="Boundary Street"/>
  </way>
  <way id="16507496" version="10" timestamp="2010-06-19T01:33:36Z" uid="103574" user="Fairfield" changeset="5020588">
    <nd ref="775903120"/>
    <nd ref="775903119"/>
    <nd ref="775903156"/>
    <nd ref="775903156"/>
    <nd ref="775903118"/>
    <nd ref="775903133"/>
    <nd ref="775903133"/>
    <nd ref="775903020"/>
    <nd ref="775903019"/>
    <nd ref="775903018"/>
    <tag k="highway" v="residential"/>
    <tag k="maxspeed" v="50"/>
    <tag k="name" v="Boundary Street"/>
  </way>
  <way id="16507496" version="11" timestamp="2010-06-19T19:32:33Z" uid="70696" user="xybot" changeset="5026580">
    <nd ref="775903120"/>
    <nd ref="775903119"/>
    <nd ref="775903156"/>
    <nd ref="775903118"/>
    <nd ref="775903133"/>
    <nd ref="775903020"/>
    <nd ref="775903019"/>
    <nd ref="775903018"/>
    <tag k="highway" v="residential"/>
    <tag k="maxspeed" v="50"/>
    <tag k="name" v="Boundary Street"/>
  </way>
  <way id="16507496" version="12" timestamp="2012-01-15T15:59:35Z" uid="147510" user="woodpeck_fixbot" changeset="10398186">
    <nd ref="775903120"/>
    <nd ref="775903119"/>
    <nd ref="775903156"/>
    <nd ref="775903118"/>
    <nd ref="775903133"/>
    <nd ref="775903020"/>
    <nd ref="775903019"/>
    <nd ref="775903018"/>
    <tag k="highway" v="residential"/>
    <tag k="name" v="Boundary Street"/>
  </way>
</osm>
