<?xml version='1.0' encoding='UTF-8'?>
<osm version="0.6" generator="libosmium/2.20.0">
  <way id="16527073" version="7" timestamp="2010-07-07T09:14:45Z" uid="74617" user="JohnSmith" changeset="5156250">
    <nd ref="170533253"/>
    <nd ref="170533255"/>
    <nd ref="170533256"/>
    <nd ref="170533258"/>
    <nd ref="170533259"/>
    <nd ref="170533261"/>
    <nd ref="170533262"/>
    <nd ref="170533264"/>
    <nd ref="170533266"/>
    <nd ref="170533268"/>
    <nd ref="170533270"/>
    <nd ref="170533272"/>
    <nd ref="170533274"/>
    <nd ref="170534857"/>
    <nd ref="170533277"/>
    <nd ref="170533278"/>
    <nd ref="170533253"/>
    <nd ref="170533279"/>
    <nd ref="170533281"/>
    <nd ref="170533283"/>
    <nd ref="170535392"/>
    <nd ref="170534175"/>
    <nd ref="170533760"/>
    <nd ref="170533285"/>
    <tag k="highway" v="residential"/>
    <tag k="maxspeed" v="50"/>
    <tag k="maxspeed:source" v="default residential speed limit in Australia"/>
    <tag k="name" v="Rohan Street"/>
    <tag k="surface" v="paved"/>
  </way>
  <way id="16527073" version="8" timestamp="2012-01-15T15:59:40Z" uid="147510" user="woodpeck_fixbot" changeset="10398186">
    <nd ref="170533253"/>
    <nd ref="170533255"/>
    <nd ref="170533256"/>
    <nd ref="170533258"/>
    <nd ref="170533259"/>
    <nd ref="170533261"/>
    <nd ref="170533262"/>
    <nd ref="170533264"/>
    <nd ref="170533266"/>
    <nd ref="170533268"/>
    <nd ref="170533270"/>
    <nd ref="170533272"/>
    <nd ref="170533274"/>
    <nd ref="170534857"/>
    <nd ref="170533277"/>
    <nd ref="170533278"/>
    <nd ref="170533253"/>
    <nd ref="170533279"/>
    <nd ref="170533281"/>
    <nd ref="170533283"/>
    <nd ref="170535392"/>
    <nd ref="170534175"/>
    <nd ref="170533760"/>
    <nd ref="170533285"/>
    <tag k="highway" v="residential"/>
    <tag k="name" v="Rohan Street"/>
    <tag k="surface" v="paved"/>
  </way>
  <way id="16527133" version="3" timestamp="2010-07-07T09:10:36Z" uid="74617" user="JohnSmith" changeset="5156250">
    <nd ref="170533758"/>
    <nd ref="170533759"/>
    <nd ref="170533760"/>
    <tag k="highway" v="residential"/>
    <tag k="maxspeed" v="50"/>
    <tag k="maxspeed:source" v="default residential speed limit in Australia"/>
    <tag k="name" v="Cottrell Place"/>
    <tag k="surface" v="paved"/>
  </way>
  <way id="16527133" version="4" timestamp="2012-01-15T15:59:41Z" uid="147510" user="woodpeck_fixbot" changeset="10398186">
    <nd ref="170533758"/>
    <nd ref="170533759"/>
    <nd ref="170533760"/>
    <tag k="highway" v="residential"/>
    <tag k="name" v="Cottrell Place"/>
    <tag k="surface" v="paved"/>
  </way>
  <way id="16527189" version="3" timestamp="2010-07-07T09:17:29Z" uid="74617" user="JohnSmith" changeset="5156250">
    <nd ref="170534174"/>
    <nd ref="170534175"/>
    <tag k="highway" v="residential"/>
    <tag k="maxspeed" v="50"/>
    <tag k="maxspeed:source" v="default residential speed limit in Australia"/>
    <tag k="name" v="Hourigan Place"/>
    <tag k="surface" v="paved"/>
  </way>
  <way id="16527189" version="4" timestamp="2012-01-15T15:59:43Z" uid="147510" user="woodpeck_fixbot" changeset="10398186">
    <nd ref="170534174"/>
    <nd ref="170534175"/>
    <tag k="highway" v="residential"/>
    <tag k="name" v="Hourigan Place"/>
    <tag k="surface" v="paved"/>
  </way>
  <way id="16527251" version="3" timestamp="2010-07-07T09:20:49Z" uid="74617" user="JohnSmith" changeset="5156250">
    <nd ref="170534604"/>
    <nd ref="170534605"/>
    <nd ref="170533283"/>
    <tag k="highway" v="residential"/>
    <tag k="maxspeed" v="50"/>
    <tag k="maxspeed:source" v="default residential speed limit in Australia"/>
    <tag k="name" v="Pogney Place"/>
    <tag k="surface" v="paved"/>
  </way>
  <way id="16527251" version="4" timestamp="2012-01-15T15:59:45Z" uid="147510" user="woodpeck_fixbot" changeset="10398186">
    <nd ref="170534604"/>
    <nd ref="170534605"/>
    <nd ref="170533283"/>
    <tag k="highway" v="residential"/>
    <tag k="name" v="Pogney Place"/>
    <tag k="surface" v="paved"/>
  </way>
  <way id="16527293" version="4" timestamp="2010-07-07T09:14:52Z" uid="74617" user="JohnSmith" changeset="5156250">
    <nd ref="170534852"/>
    <nd ref="170534854"/>
    <nd ref="170535396"/>
    <nd ref="170534856"/>
    <nd ref="170534857"/>
    <tag k="highway" v="residential"/>
    <tag k="maxspeed" v="50"/>
    <tag k="maxspeed:source" v="default residential speed limit in Australia"/>
    <tag k="name" v="Mack Street"/>
    <tag k="surface" v="paved"/>
  </way>
  <way id="16527293" version="5" timestamp="2012-01-15T15:59:48Z" uid="147510" user="woodpeck_fixbot" changeset="10398186">
    <nd ref="170534852"/>
    <nd ref="170534854"/>
    <nd ref="170535396"/>
    <nd ref="170534856"/>
    <nd ref="170534857"/>
    <tag k="highway" v="residential"/>
    <tag k="name" v="Mack Street"/>
    <tag k="surface" v="paved"/>
  </way>
  <way id="16527348" version="6" timestamp="2010-07-07T09:13:43Z" uid="74617" user="JohnSmith" changeset="5156250">
    <nd ref="170535392"/>
    <nd ref="170535393"/>
    <nd ref="170535394"/>
    <nd ref="170535729"/>
    <nd ref="170535396"/>
    <tag k="highway" v="residential"/>
    <tag k="maxspeed" v="50"/>
    <tag k="maxspeed:source" v="default residential speed limit in Australia"/>
    <tag k="name" v="Mack Street"/>
    <tag k="surface" v="paved"/>
  </way>
  <way id="16527348" version="7" timestamp="2012-01-15T15:59:49Z" uid="147510" user="woodpeck_fixbot" changeset="10398186">
    <nd ref="170535392"/>
    <nd ref="170535393"/>
    <nd ref="170535394"/>
    <nd ref="170535729"/>
    <nd ref="170535396"/>
    <tag k="highway" v="residential"/>
    <tag k="name" v="Mack Street"/>
    <tag k="surface" v="paved"/>
  </way>
  <way id="16527393" version="3" timestamp="2010-07-07T09:20:25Z" uid="74617" user="JohnSmith" changeset="5156250">
    <nd ref="170535726"/>
    <nd ref="170535729"/>
    <tag k="highway" v="residential"/>
    <tag k="maxspeed" v="50"/>
    <tag k="maxspeed:source" v="default residential speed limit in Australia"/>
    <tag k="name" v="Oakey Place"/>
    <tag k="surface" v="paved"/>
  </way>
  <way id="16527393" version="4" timestamp="2012-01-15T15:59:50Z" uid="147510" user="woodpeck_fixbot" changeset="10398186">
    <nd ref="170535726"/>
    <nd ref="170535729"/>
    <tag k="highway" v="residential"/>
    <tag k="name" v="Oakey Place"/>
    <tag k="surface" v="paved"/>
  </way>
  <way id="16527448" version="6" timestamp="2010-05-23T13:49:43Z" uid="4467" user="Rosscoe" changeset="4783427">
    <nd ref="746489595"/>
    <nd ref="170536069"/>
    <tag k="highway" v="service"/>
    <tag k="oneway" v="yes"/>
    <tag k="service" v="driveway"/>
    <tag k="surface" v="paved"/>
  </way>
  <way id="16527448" version="7" timestamp="2012-01-29T08:09:54Z" uid="12434" user="nm7s9" changeset="10527365"/>
  <way id="16527760" version="10" timestamp="2010-07-07T09:14:38Z" uid="74617" user="JohnSmith" changeset="5156250">
    <nd ref="170538226"/>
    <nd ref="170538227"/>
    <nd ref="170538228"/>
    <nd ref="170538229"/>
    <nd ref="170538230"/>
    <nd ref="170538231"/>
    <nd ref="170540012"/>
    <nd ref="170538232"/>
    <nd ref="170538233"/>
    <nd ref="170540029"/>
    <nd ref="170538234"/>
    <nd ref="170538235"/>
    <nd ref="170538520"/>
    <nd ref="170538236"/>
    <nd ref="170538237"/>
    <nd ref="170538817"/>
    <nd ref="170538969"/>
    <nd ref="170538238"/>
    <nd ref="170538239"/>
    <nd ref="170538240"/>
    <nd ref="170539223"/>
    <nd ref="170538241"/>
    <nd ref="170538242"/>
    <nd ref="170538244"/>
    <tag k="highway" v="residential"/>
    <tag k="maxspeed" v="50"/>
    <tag k="maxspeed:source" v="default residential speed limit in Australia"/>
    <tag k="name" v="McBurney Crescent"/>
  </way>
  <way id="16527760" version="11" timestamp="2012-01-15T15:59:52Z" uid="147510" user="woodpeck_fixbot" changeset="10398186">
    <nd ref="170538226"/>
    <nd ref="170538227"/>
    <nd ref="170538228"/>
    <nd ref="170538229"/>
    <nd ref="170538230"/>
    <nd ref="170538231"/>
    <nd ref="170540012"/>
    <nd ref="170538232"/>
    <nd ref="170538233"/>
    <nd ref="170540029"/>
    <nd ref="170538234"/>
    <nd ref="170538235"/>
    <nd ref="170538520"/>
    <nd ref="170538236"/>
    <nd ref="170538237"/>
    <nd ref="170538817"/>
    <nd ref="170538969"/>
    <nd ref="170538238"/>
    <nd ref="170538239"/>
    <nd ref="170538240"/>
    <nd ref="170539223"/>
    <nd ref="170538241"/>
    <nd ref="170538242"/>
    <nd ref="170538244"/>
    <tag k="highway" v="residential"/>
    <tag k="name" v="McBurney Crescent"/>
  </way>
  <way id="16527798" version="3" timestamp="2010-07-07T09:19:33Z" uid="74617" user="JohnSmith" changeset="5156250">
    <nd ref="170538519"/>
    <nd ref="170538520"/>
    <tag k="highway" v="residential"/>
    <tag k="maxspeed" v="50"/>
    <tag k="maxspeed:source" v="default residential speed limit in Australia"/>
    <tag k="name" v="Kennewell Place"/>
  </way>
  <way id="16527798" version="4" timestamp="2012-01-15T15:59:54Z" uid="147510" user="woodpeck_fixbot" changeset="10398186">
    <nd ref="170538519"/>
    <nd ref="170538520"/>
    <tag k="highway" v="residential"/>
    <tag k="name" v="Kennewell Place"/>
  </way>
  <way id="16527834" version="3" timestamp="2010-07-07T09:19:56Z" uid="74617" user="JohnSmith" changeset="5156250">
    <nd ref="170538816"/>
    <nd ref="170538817"/>
    <tag k="highway" v="residential"/>
    <tag k="maxspeed" v="50"/>
    <tag k="maxspeed:source" v="default residential speed limit in Australia"/>
    <tag k="name" v="Pedley Place"/>
  </way>
  <way id="16527834" version="4" timestamp="2012-01-15T15:59:56Z" uid="147510" user="woodpeck_fixbot" changeset="10398186">
    <nd ref="170538816"/>
    <nd ref="170538817"/>
    <tag k="highway" v="residential"/>
    <tag k="name" v="Pedley Place"/>
  </way>
  <way id="16527867" version="3" timestamp="2010-07-07T09:09:46Z" uid="74617" user="JohnSmith" changeset="5156250">
    <nd ref="170538968"/>
    <nd ref="170538969"/>
    <tag k="highway" v="residential"/>
    <tag k="maxspeed" v="50"/>
    <tag k="maxspeed:source" v="default residential speed limit in Australia"/>
    <tag k="name" v="Streeter Place"/>
  </way>
  <way id="16527867" version="4" timestamp="2012-01-15T15:59:57Z" uid="147510" user="woodpeck_fixbot" changeset="10398186">
    <nd ref="170538968"/>
    <nd ref="170538969"/>
    <tag k="highway" v="residential"/>
    <tag k="name" v="Streeter Place"/>
  </way>
  <way id="16527904" version="3" timestamp="2010-07-07T09:10:55Z" uid="74617" user="JohnSmith" changeset="5156250">
    <nd ref="170539220"/>
    <nd ref="170539221"/>
    <nd ref="170539223"/>
    <tag k="highway" v="residential"/>
    <tag k="maxspeed" v="50"/>
    <tag k="maxspeed:source" v="default residential speed limit in Australia"/>
    <tag k="name" v="Mellish Place"/>
  </way>
  <way id="16527904" version="4" timestamp="2012-01-15T15:59:59Z" uid="147510" user="woodpeck_fixbot" changeset="10398186">
    <nd ref="170539220"/>
    <nd ref="170539221"/>
    <nd ref="170539223"/>
    <tag k="highway" v="residential"/>
    <tag k="name" v="Mellish Place"/>
  </way>
</osm>
