<?xml version='1.0' encoding='UTF-8'?>
<osm version="0.6" generator="libosmium/2.20.0">
  <way id="16549197" version="5" timestamp="2010-07-06T10:02:43Z" uid="74617" user="JohnSmith" changeset="5147679">
    <nd ref="170765594"/>
    <nd ref="170766029"/>
    <nd ref="170766033"/>
    <tag k="highway" v="residential"/>
    <tag k="maxspeed" v="50"/>
    <tag k="maxspeed:source" v="default residential speed limit in Australia"/>
    <tag k="name" v="Hope Street"/>
  </way>
  <way id="16549197" version="6" timestamp="2012-01-15T16:05:07Z" uid="147510" user="woodpeck_fixbot" changeset="10398186">
    <nd ref="170765594"/>
    <nd ref="170766029"/>
    <nd ref="170766033"/>
    <tag k="highway" v="residential"/>
    <tag k="name" v="Hope Street"/>
  </way>
  <way id="16549493" version="3" timestamp="2010-07-09T06:16:24Z" uid="74617" user="JohnSmith" changeset="5171128">
    <nd ref="170684684"/>
    <nd ref="170766119"/>
    <nd ref="170766145"/>
    <nd ref="170766174"/>
    <nd ref="725884465"/>
    <nd ref="725884466"/>
    <tag k="highway" v="residential"/>
    <tag k="maxspeed" v="50"/>
    <tag k="maxspeed:source" v="default residential speed limit in Australia"/>
    <tag k="name" v="Joel Crescent"/>
  </way>
  <way id="16549493" version="4" timestamp="2012-01-15T16:05:11Z" uid="147510" user="woodpeck_fixbot" changeset="10398186">
    <nd ref="170684684"/>
    <nd ref="170766119"/>
    <nd ref="170766145"/>
    <nd ref="170766174"/>
    <nd ref="725884465"/>
    <nd ref="725884466"/>
    <tag k="highway" v="residential"/>
    <tag k="name" v="Joel Crescent"/>
  </way>
  <way id="16549496" version="3" timestamp="2010-07-09T06:16:50Z" uid="74617" user="JohnSmith" changeset="5171128">
    <nd ref="725884602"/>
    <nd ref="170766201"/>
    <nd ref="170684739"/>
    <nd ref="170766327"/>
    <nd ref="127836661"/>
    <tag k="highway" v="residential"/>
    <tag k="maxspeed" v="50"/>
    <tag k="maxspeed:source" v="default residential speed limit in Australia"/>
    <tag k="name" v="Sunningdale Street"/>
  </way>
  <way id="16549496" version="4" timestamp="2011-04-17T01:36:56Z" uid="4467" user="Rosscoe" changeset="7883426">
    <nd ref="725884602"/>
    <nd ref="170766201"/>
    <nd ref="170684739"/>
    <nd ref="170766327"/>
    <nd ref="127836661"/>
    <tag k="highway" v="residential"/>
    <tag k="maxspeed" v="50"/>
    <tag k="name" v="Sunningdale Street"/>
    <tag k="source:maxspeed" v="default residential speed limit in Australia"/>
  </way>
  <way id="16549496" version="5" timestamp="2012-01-15T16:05:15Z" uid="147510" user="woodpeck_fixbot" changeset="10398186">
    <nd ref="725884602"/>
    <nd ref="170766201"/>
    <nd ref="170684739"/>
    <nd ref="170766327"/>
    <nd ref="127836661"/>
    <tag k="highway" v="residential"/>
    <tag k="name" v="Sunningdale Street"/>
    <tag k="source:maxspeed" v="default residential speed limit in Australia"/>
  </way>
  <way id="16549499" version="3" timestamp="2010-07-09T06:20:17Z" uid="74617" user="JohnSmith" changeset="5171128">
    <nd ref="725884604"/>
    <nd ref="725884605"/>
    <nd ref="725884606"/>
    <nd ref="170766223"/>
    <nd ref="170766249"/>
    <nd ref="170766276"/>
    <nd ref="170766303"/>
    <nd ref="170766327"/>
    <tag k="highway" v="residential"/>
    <tag k="maxspeed" v="50"/>
    <tag k="maxspeed:source" v="default residential speed limit in Australia"/>
    <tag k="name" v="Elizabeth Crescent"/>
  </way>
  <way id="16549499" version="4" timestamp="2011-04-17T01:36:49Z" uid="4467" user="Rosscoe" changeset="7883426">
    <nd ref="725884604"/>
    <nd ref="725884605"/>
    <nd ref="725884606"/>
    <nd ref="170766223"/>
    <nd ref="170766249"/>
    <nd ref="170766276"/>
    <nd ref="170766303"/>
    <nd ref="170766327"/>
    <tag k="highway" v="residential"/>
    <tag k="maxspeed" v="50"/>
    <tag k="name" v="Elizabeth Crescent"/>
    <tag k="source:maxspeed" v="default residential speed limit in Australia"/>
  </way>
  <way id="16549499" version="5" timestamp="2012-01-15T16:05:17Z" uid="147510" user="woodpeck_fixbot" changeset="10398186">
    <nd ref="725884604"/>
    <nd ref="725884605"/>
    <nd ref="725884606"/>
    <nd ref="170766223"/>
    <nd ref="170766249"/>
    <nd ref="170766276"/>
    <nd ref="170766303"/>
    <nd ref="170766327"/>
    <tag k="highway" v="residential"/>
    <tag k="name" v="Elizabeth Crescent"/>
    <tag k="source:maxspeed" v="default residential speed limit in Australia"/>
  </way>
  <way id="16549501" version="3" timestamp="2010-07-09T06:23:04Z" uid="74617" user="JohnSmith" changeset="5171128">
    <nd ref="170766355"/>
    <nd ref="170766249"/>
    <tag k="highway" v="residential"/>
    <tag k="maxspeed" v="50"/>
    <tag k="maxspeed:source" v="default residential speed limit in Australia"/>
    <tag k="name" v="Louise Close"/>
  </way>
  <way id="16549501" version="4" timestamp="2011-04-17T01:36:51Z" uid="4467" user="Rosscoe" changeset="7883426">
    <nd ref="170766355"/>
    <nd ref="170766249"/>
    <tag k="highway" v="residential"/>
    <tag k="maxspeed" v="50"/>
    <tag k="name" v="Louise Close"/>
    <tag k="source:maxspeed" v="default residential speed limit in Australia"/>
  </way>
  <way id="16549501" version="5" timestamp="2012-01-15T16:05:19Z" uid="147510" user="woodpeck_fixbot" changeset="10398186">
    <nd ref="170766355"/>
    <nd ref="170766249"/>
    <tag k="highway" v="residential"/>
    <tag k="name" v="Louise Close"/>
    <tag k="source:maxspeed" v="default residential speed limit in Australia"/>
  </way>
  <way id="16549503" version="6" timestamp="2010-05-09T04:26:10Z" uid="4467" user="Rosscoe" changeset="4644713">
    <nd ref="170766415"/>
    <nd ref="725884651"/>
    <nd ref="252713354"/>
    <nd ref="170766439"/>
    <nd ref="210620121"/>
    <nd ref="210619768"/>
    <nd ref="170766492"/>
    <nd ref="725884607"/>
    <nd ref="170766463"/>
    <nd ref="170766395"/>
    <tag k="highway" v="residential"/>
    <tag k="name" v="Clarke Street"/>
  </way>
  <way id="16549503" version="7" timestamp="2010-07-09T06:18:53Z" uid="74617" user="JohnSmith" changeset="5171128">
    <nd ref="170766415"/>
    <nd ref="725884651"/>
    <nd ref="252713354"/>
    <nd ref="170766439"/>
    <nd ref="210620121"/>
    <nd ref="210619768"/>
    <nd ref="170766492"/>
    <nd ref="725884607"/>
    <nd ref="170766463"/>
    <nd ref="170766395"/>
    <tag k="highway" v="residential"/>
    <tag k="maxspeed" v="50"/>
    <tag k="maxspeed:source" v="default residential speed limit in Australia"/>
    <tag k="name" v="Clarke Street"/>
  </way>
  <way id="16549503" version="8" timestamp="2011-04-17T01:01:12Z" uid="4467" user="Rosscoe" changeset="7883328">
    <nd ref="170766415"/>
    <nd ref="1247832481"/>
    <nd ref="1247832497"/>
    <nd ref="725884651"/>
    <nd ref="252713354"/>
    <nd ref="170766439"/>
    <nd ref="210620121"/>
    <nd ref="210619768"/>
    <nd ref="170766492"/>
    <nd ref="725884607"/>
    <nd ref="170766463"/>
    <nd ref="170766395"/>
    <tag k="highway" v="residential"/>
    <tag k="maxspeed" v="50"/>
    <tag k="maxspeed:source" v="default residential speed limit in Australia"/>
    <tag k="name" v="Clarke Street"/>
  </way>
  <way id="16549503" version="9" timestamp="2011-04-17T01:36:54Z" uid="4467" user="Rosscoe" changeset="7883426">
    <nd ref="170766415"/>
    <nd ref="1247832481"/>
    <nd ref="1247832497"/>
    <nd ref="725884651"/>
    <nd ref="252713354"/>
    <nd ref="170766439"/>
    <nd ref="210620121"/>
    <nd ref="210619768"/>
    <nd ref="170766492"/>
    <nd ref="725884607"/>
    <nd ref="170766463"/>
    <nd ref="170766395"/>
    <tag k="highway" v="residential"/>
    <tag k="maxspeed" v="50"/>
    <tag k="name" v="Clarke Street"/>
    <tag k="source:maxspeed" v="default residential speed limit in Australia"/>
  </way>
  <way id="16549503" version="10" timestamp="2011-04-28T07:21:28Z" uid="261730" user="Davoz" changeset="7991405">
    <nd ref="170766415"/>
    <nd ref="1247832481"/>
    <nd ref="1247832497"/>
    <nd ref="725884651"/>
    <nd ref="252713354"/>
    <nd ref="170766439"/>
    <nd ref="210620121"/>
    <nd ref="210619768"/>
    <nd ref="1263101996"/>
    <nd ref="170766492"/>
    <nd ref="725884607"/>
    <nd ref="170766463"/>
    <nd ref="170766395"/>
    <tag k="highway" v="residential"/>
    <tag k="maxspeed" v="50"/>
    <tag k="name" v="Clarke Street"/>
    <tag k="source:maxspeed" v="default residential speed limit in Australia"/>
  </way>
  <way id="16549503" version="11" timestamp="2011-09-29T16:17:18Z" uid="338866" user="tiger" changeset="9428534">
    <nd ref="170766415"/>
    <nd ref="1247832481"/>
    <nd ref="1247832497"/>
    <nd ref="725884651"/>
    <nd ref="252713354"/>
    <nd ref="170766439"/>
    <nd ref="210620121"/>
    <nd ref="210619768"/>
    <nd ref="170766492"/>
    <nd ref="725884607"/>
    <nd ref="170766463"/>
    <nd ref="170766395"/>
    <tag k="highway" v="residential"/>
    <tag k="maxspeed" v="50"/>
    <tag k="name" v="Clarke Street"/>
    <tag k="source:maxspeed" v="default residential speed limit in Australia"/>
  </way>
  <way id="16549503" version="12" timestamp="2012-01-15T16:05:23Z" uid="147510" user="woodpeck_fixbot" changeset="10398186">
    <nd ref="170766415"/>
    <nd ref="1247832481"/>
    <nd ref="1247832497"/>
    <nd ref="725884651"/>
    <nd ref="252713354"/>
    <nd ref="170766439"/>
    <nd ref="210620121"/>
    <nd ref="210619768"/>
    <nd ref="170766492"/>
    <nd ref="725884607"/>
    <nd ref="170766463"/>
    <nd ref="170766395"/>
    <tag k="highway" v="residential"/>
    <tag k="name" v="Clarke Street"/>
    <tag k="source:maxspeed" v="default residential speed limit in Australia"/>
  </way>
  <way id="16549504" version="8" timestamp="2010-07-06T10:02:45Z" uid="74617" user="JohnSmith" changeset="5147679">
    <nd ref="106523095"/>
    <nd ref="170770053"/>
    <nd ref="170770054"/>
    <nd ref="170770055"/>
    <nd ref="170770059"/>
    <nd ref="170770061"/>
    <tag k="highway" v="residential"/>
    <tag k="lcn" v="yes"/>
    <tag k="maxspeed" v="50"/>
    <tag k="maxspeed:source" v="default residential speed limit in Australia"/>
    <tag k="name" v="Rome Street"/>
  </way>
  <way id="16549504" version="9" timestamp="2012-01-15T16:05:28Z" uid="147510" user="woodpeck_fixbot" changeset="10398186">
    <nd ref="106523095"/>
    <nd ref="170770053"/>
    <nd ref="170770054"/>
    <nd ref="170770055"/>
    <nd ref="170770059"/>
    <nd ref="170770061"/>
    <tag k="highway" v="residential"/>
    <tag k="lcn" v="yes"/>
    <tag k="name" v="Rome Street"/>
  </way>
  <way id="16549506" version="4" timestamp="2010-07-09T06:18:21Z" uid="74617" user="JohnSmith" changeset="5171128">
    <nd ref="170766492"/>
    <nd ref="170766564"/>
    <nd ref="210623414"/>
    <nd ref="725884753"/>
    <nd ref="170766516"/>
    <tag k="highway" v="residential"/>
    <tag k="maxspeed" v="50"/>
    <tag k="maxspeed:source" v="default residential speed limit in Australia"/>
    <tag k="name" v="Gibson Street"/>
  </way>
  <way id="16549506" version="5" timestamp="2011-04-28T07:21:29Z" uid="261730" user="Davoz" changeset="7991405">
    <nd ref="170766492"/>
    <nd ref="170766564"/>
    <nd ref="210623414"/>
    <nd ref="725884753"/>
    <nd ref="170766516"/>
    <tag k="highway" v="residential"/>
    <tag k="maxspeed" v="50"/>
    <tag k="maxspeed:source" v="default residential speed limit in Australia"/>
    <tag k="name" v="Gibson Street"/>
  </way>
  <way id="16549506" version="6" timestamp="2012-01-15T16:05:30Z" uid="147510" user="woodpeck_fixbot" changeset="10398186">
    <nd ref="170766492"/>
    <nd ref="170766564"/>
    <nd ref="210623414"/>
    <nd ref="725884753"/>
    <nd ref="170766516"/>
    <tag k="highway" v="residential"/>
    <tag k="name" v="Gibson Street"/>
  </way>
  <way id="16549508" version="3" timestamp="2010-07-09T06:20:50Z" uid="74617" user="JohnSmith" changeset="5171128">
    <nd ref="725884734"/>
    <nd ref="170766539"/>
    <nd ref="170766706"/>
    <nd ref="170766564"/>
    <tag k="highway" v="residential"/>
    <tag k="maxspeed" v="50"/>
    <tag k="maxspeed:source" v="default residential speed limit in Australia"/>
    <tag k="name" v="Lee Street"/>
  </way>
  <way id="16549508" version="4" timestamp="2012-01-15T16:05:33Z" uid="147510" user="woodpeck_fixbot" changeset="10398186">
    <nd ref="725884734"/>
    <nd ref="170766539"/>
    <nd ref="170766706"/>
    <nd ref="170766564"/>
    <tag k="highway" v="residential"/>
    <tag k="name" v="Lee Street"/>
  </way>
  <way id="16549513" version="3" timestamp="2010-07-09T06:17:25Z" uid="74617" user="JohnSmith" changeset="5171128">
    <nd ref="170684253"/>
    <nd ref="170766578"/>
    <nd ref="170766602"/>
    <nd ref="170766625"/>
    <nd ref="170766654"/>
    <nd ref="170766678"/>
    <nd ref="170766706"/>
    <tag k="highway" v="residential"/>
    <tag k="maxspeed" v="50"/>
    <tag k="maxspeed:source" v="default residential speed limit in Australia"/>
    <tag k="name" v="Parry Street"/>
  </way>
  <way id="16549513" version="4" timestamp="2011-04-17T01:36:52Z" uid="4467" user="Rosscoe" changeset="7883426">
    <nd ref="170684253"/>
    <nd ref="170766578"/>
    <nd ref="170766602"/>
    <nd ref="170766625"/>
    <nd ref="170766654"/>
    <nd ref="170766678"/>
    <nd ref="170766706"/>
    <tag k="highway" v="residential"/>
    <tag k="maxspeed" v="50"/>
    <tag k="name" v="Parry Street"/>
    <tag k="source:maxspeed" v="default residential speed limit in Australia"/>
  </way>
  <way id="16549513" version="5" timestamp="2012-01-15T16:05:35Z" uid="147510" user="woodpeck_fixbot" changeset="10398186">
    <nd ref="170684253"/>
    <nd ref="170766578"/>
    <nd ref="170766602"/>
    <nd ref="170766625"/>
    <nd ref="170766654"/>
    <nd ref="170766678"/>
    <nd ref="170766706"/>
    <tag k="highway" v="residential"/>
    <tag k="name" v="Parry Street"/>
    <tag k="source:maxspeed" v="default residential speed limit in Australia"/>
  </way>
  <way id="16549518" version="2" timestamp="2010-07-09T06:23:34Z" uid="74617" user="JohnSmith" changeset="5171128">
    <nd ref="170766729"/>
    <nd ref="170766625"/>
    <tag k="highway" v="residential"/>
    <tag k="maxspeed" v="50"/>
    <tag k="maxspeed:source" v="default residential speed limit in Australia"/>
    <tag k="name" v="Morgan Place"/>
  </way>
  <way id="16549518" version="3" timestamp="2012-01-15T16:05:39Z" uid="147510" user="woodpeck_fixbot" changeset="10398186">
    <nd ref="170766729"/>
    <nd ref="170766625"/>
    <tag k="highway" v="residential"/>
    <tag k="name" v="Morgan Place"/>
  </way>
  <way id="16549520" version="3" timestamp="2010-07-09T06:18:40Z" uid="74617" user="JohnSmith" changeset="5171128">
    <nd ref="170766750"/>
    <nd ref="170766984"/>
    <nd ref="170767028"/>
    <nd ref="170766778"/>
    <nd ref="170766808"/>
    <nd ref="170766837"/>
    <nd ref="170766858"/>
    <nd ref="170766888"/>
    <nd ref="170766917"/>
    <nd ref="170766933"/>
    <tag k="highway" v="residential"/>
    <tag k="maxspeed" v="50"/>
    <tag k="maxspeed:source" v="default residential speed limit in Australia"/>
    <tag k="name" v="College Row"/>
  </way>
  <way id="16549520" version="4" timestamp="2012-01-15T16:05:41Z" uid="147510" user="woodpeck_fixbot" changeset="10398186">
    <nd ref="170766750"/>
    <nd ref="170766984"/>
    <nd ref="170767028"/>
    <nd ref="170766778"/>
    <nd ref="170766808"/>
    <nd ref="170766837"/>
    <nd ref="170766858"/>
    <nd ref="170766888"/>
    <nd ref="170766917"/>
    <nd ref="170766933"/>
    <tag k="highway" v="residential"/>
    <tag k="name" v="College Row"/>
  </way>
  <way id="16549522" version="3" timestamp="2010-07-09T06:24:08Z" uid="74617" user="JohnSmith" changeset="5171128">
    <nd ref="170766957"/>
    <nd ref="170766984"/>
    <tag k="highway" v="residential"/>
    <tag k="maxspeed" v="50"/>
    <tag k="maxspeed:source" v="default residential speed limit in Australia"/>
    <tag k="name" v="Evedon Street"/>
  </way>
  <way id="16549522" version="4" timestamp="2012-01-15T16:05:44Z" uid="147510" user="woodpeck_fixbot" changeset="10398186">
    <nd ref="170766957"/>
    <nd ref="170766984"/>
    <tag k="highway" v="residential"/>
    <tag k="name" v="Evedon Street"/>
  </way>
  <way id="16549526" version="3" timestamp="2010-07-09T06:22:35Z" uid="74617" user="JohnSmith" changeset="5171128">
    <nd ref="170767002"/>
    <nd ref="170767060"/>
    <nd ref="170767028"/>
    <tag k="highway" v="residential"/>
    <tag k="maxspeed" v="50"/>
    <tag k="maxspeed:source" v="default residential speed limit in Australia"/>
    <tag k="name" v="Keddie Street"/>
  </way>
  <way id="16549526" version="4" timestamp="2012-01-15T16:05:46Z" uid="147510" user="woodpeck_fixbot" changeset="10398186">
    <nd ref="170767002"/>
    <nd ref="170767060"/>
    <nd ref="170767028"/>
    <tag k="highway" v="residential"/>
    <tag k="name" v="Keddie Street"/>
  </way>
  <way id="16549529" version="3" timestamp="2010-07-09T06:23:22Z" uid="74617" user="JohnSmith" changeset="5171128">
    <nd ref="170767060"/>
    <nd ref="170767085"/>
    <nd ref="170767112"/>
    <nd ref="170767134"/>
    <nd ref="170767162"/>
    <tag k="highway" v="residential"/>
    <tag k="maxspeed" v="50"/>
    <tag k="maxspeed:source" v="default residential speed limit in Australia"/>
    <tag k="name" v="Houston Crescent"/>
  </way>
  <way id="16549529" version="4" timestamp="2012-01-15T16:05:50Z" uid="147510" user="woodpeck_fixbot" changeset="10398186">
    <nd ref="170767060"/>
    <nd ref="170767085"/>
    <nd ref="170767112"/>
    <nd ref="170767134"/>
    <nd ref="170767162"/>
    <tag k="highway" v="residential"/>
    <tag k="name" v="Houston Crescent"/>
  </way>
  <way id="16549531" version="3" timestamp="2010-07-09T06:19:08Z" uid="74617" user="JohnSmith" changeset="5171128">
    <nd ref="170767188"/>
    <nd ref="170767212"/>
    <nd ref="170767241"/>
    <nd ref="170767264"/>
    <nd ref="170767288"/>
    <tag k="highway" v="residential"/>
    <tag k="maxspeed" v="50"/>
    <tag k="maxspeed:source" v="default residential speed limit in Australia"/>
    <tag k="name" v="Smythe Crescent"/>
  </way>
  <way id="16549531" version="4" timestamp="2012-01-15T16:05:52Z" uid="147510" user="woodpeck_fixbot" changeset="10398186">
    <nd ref="170767188"/>
    <nd ref="170767212"/>
    <nd ref="170767241"/>
    <nd ref="170767264"/>
    <nd ref="170767288"/>
    <tag k="highway" v="residential"/>
    <tag k="name" v="Smythe Crescent"/>
  </way>
  <way id="16549533" version="3" timestamp="2010-07-09T06:21:49Z" uid="74617" user="JohnSmith" changeset="5171128">
    <nd ref="170767264"/>
    <nd ref="170767349"/>
    <nd ref="170767313"/>
    <tag k="highway" v="residential"/>
    <tag k="maxspeed" v="50"/>
    <tag k="maxspeed:source" v="default residential speed limit in Australia"/>
    <tag k="name" v="Parnell Street"/>
  </way>
  <way id="16549533" version="4" timestamp="2012-01-15T16:05:54Z" uid="147510" user="woodpeck_fixbot" changeset="10398186">
    <nd ref="170767264"/>
    <nd ref="170767349"/>
    <nd ref="170767313"/>
    <tag k="highway" v="residential"/>
    <tag k="name" v="Parnell Street"/>
  </way>
  <way id="16549536" version="3" timestamp="2010-07-09T06:20:02Z" uid="74617" user="JohnSmith" changeset="5171128">
    <nd ref="726351654"/>
    <nd ref="726351656"/>
    <nd ref="726351661"/>
    <nd ref="170767330"/>
    <nd ref="170767349"/>
    <tag k="highway" v="residential"/>
    <tag k="maxspeed" v="50"/>
    <tag k="maxspeed:source" v="default residential speed limit in Australia"/>
    <tag k="name" v="Ingram Court"/>
  </way>
  <way id="16549536" version="4" timestamp="2012-01-15T16:05:57Z" uid="147510" user="woodpeck_fixbot" changeset="10398186">
    <nd ref="726351654"/>
    <nd ref="726351656"/>
    <nd ref="726351661"/>
    <nd ref="170767330"/>
    <nd ref="170767349"/>
    <tag k="highway" v="residential"/>
    <tag k="name" v="Ingram Court"/>
  </way>
  <way id="16549538" version="3" timestamp="2010-07-09T06:16:14Z" uid="74617" user="JohnSmith" changeset="5171128">
    <nd ref="726351643"/>
    <nd ref="170767368"/>
    <nd ref="170767389"/>
    <nd ref="170767313"/>
    <tag k="highway" v="residential"/>
    <tag k="maxspeed" v="50"/>
    <tag k="maxspeed:source" v="default residential speed limit in Australia"/>
    <tag k="name" v="Wenn Court"/>
  </way>
  <way id="16549538" version="4" timestamp="2012-01-15T16:06:00Z" uid="147510" user="woodpeck_fixbot" changeset="10398186">
    <nd ref="726351643"/>
    <nd ref="170767368"/>
    <nd ref="170767389"/>
    <nd ref="170767313"/>
    <tag k="highway" v="residential"/>
    <tag k="name" v="Wenn Court"/>
  </way>
  <way id="16549539" version="4" timestamp="2010-07-09T06:23:48Z" uid="74617" user="JohnSmith" changeset="5171128">
    <nd ref="170767419"/>
    <nd ref="170767507"/>
    <nd ref="170767550"/>
    <nd ref="729658493"/>
    <nd ref="170767593"/>
    <nd ref="170767437"/>
    <nd ref="170767461"/>
    <nd ref="726351701"/>
    <nd ref="726351705"/>
    <tag k="highway" v="residential"/>
    <tag k="maxspeed" v="50"/>
    <tag k="maxspeed:source" v="default residential speed limit in Australia"/>
    <tag k="name" v="Snow Place"/>
  </way>
  <way id="16549539" version="5" timestamp="2012-01-15T16:06:04Z" uid="147510" user="woodpeck_fixbot" changeset="10398186">
    <nd ref="170767419"/>
    <nd ref="170767507"/>
    <nd ref="170767550"/>
    <nd ref="729658493"/>
    <nd ref="170767593"/>
    <nd ref="170767437"/>
    <nd ref="170767461"/>
    <nd ref="726351701"/>
    <nd ref="726351705"/>
    <tag k="highway" v="residential"/>
    <tag k="name" v="Snow Place"/>
  </way>
  <way id="16549541" version="3" timestamp="2010-07-09T06:16:38Z" uid="74617" user="JohnSmith" changeset="5171128">
    <nd ref="170767477"/>
    <nd ref="170767507"/>
    <tag k="highway" v="residential"/>
    <tag k="maxspeed" v="50"/>
    <tag k="maxspeed:source" v="default residential speed limit in Australia"/>
    <tag k="name" v="Craddock Place"/>
  </way>
  <way id="16549541" version="4" timestamp="2012-01-15T16:06:06Z" uid="147510" user="woodpeck_fixbot" changeset="10398186">
    <nd ref="170767477"/>
    <nd ref="170767507"/>
    <tag k="highway" v="residential"/>
    <tag k="name" v="Craddock Place"/>
  </way>
  <way id="16549543" version="3" timestamp="2010-07-09T06:22:10Z" uid="74617" user="JohnSmith" changeset="5171128">
    <nd ref="726351528"/>
    <nd ref="726351531"/>
    <nd ref="170767526"/>
    <nd ref="170767550"/>
    <tag k="highway" v="residential"/>
    <tag k="maxspeed" v="50"/>
    <tag k="maxspeed:source" v="default residential speed limit in Australia"/>
    <tag k="name" v="Cummins Place"/>
  </way>
  <way id="16549543" version="4" timestamp="2012-01-15T16:06:10Z" uid="147510" user="woodpeck_fixbot" changeset="10398186">
    <nd ref="726351528"/>
    <nd ref="726351531"/>
    <nd ref="170767526"/>
    <nd ref="170767550"/>
    <tag k="highway" v="residential"/>
    <tag k="name" v="Cummins Place"/>
  </way>
  <way id="16549545" version="4" timestamp="2010-07-09T06:24:38Z" uid="74617" user="JohnSmith" changeset="5171128">
    <nd ref="170767568"/>
    <nd ref="729658506"/>
    <nd ref="170767643"/>
    <nd ref="170767593"/>
    <tag k="highway" v="residential"/>
    <tag k="maxspeed" v="50"/>
    <tag k="maxspeed:source" v="default residential speed limit in Australia"/>
    <tag k="name" v="Cannon Place"/>
  </way>
  <way id="16549545" version="5" timestamp="2012-01-15T16:06:13Z" uid="147510" user="woodpeck_fixbot" changeset="10398186">
    <nd ref="170767568"/>
    <nd ref="729658506"/>
    <nd ref="170767643"/>
    <nd ref="170767593"/>
    <tag k="highway" v="residential"/>
    <tag k="name" v="Cannon Place"/>
  </way>
  <way id="16549546" version="3" timestamp="2010-07-09T06:22:45Z" uid="74617" user="JohnSmith" changeset="5171128">
    <nd ref="170767611"/>
    <nd ref="170767684"/>
    <nd ref="170767643"/>
    <tag k="highway" v="residential"/>
    <tag k="maxspeed" v="50"/>
    <tag k="maxspeed:source" v="default residential speed limit in Australia"/>
    <tag k="name" v="Prentice Street"/>
  </way>
  <way id="16549546" version="4" timestamp="2012-01-15T16:06:15Z" uid="147510" user="woodpeck_fixbot" changeset="10398186">
    <nd ref="170767611"/>
    <nd ref="170767684"/>
    <nd ref="170767643"/>
    <tag k="highway" v="residential"/>
    <tag k="name" v="Prentice Street"/>
  </way>
  <way id="16549547" version="3" timestamp="2010-07-09T06:20:40Z" uid="74617" user="JohnSmith" changeset="5171128">
    <nd ref="726351583"/>
    <nd ref="170767664"/>
    <nd ref="170767684"/>
    <tag k="highway" v="residential"/>
    <tag k="maxspeed" v="50"/>
    <tag k="maxspeed:source" v="default residential speed limit in Australia"/>
    <tag k="name" v="Ivey Court"/>
  </way>
  <way id="16549547" version="4" timestamp="2012-01-15T16:06:22Z" uid="147510" user="woodpeck_fixbot" changeset="10398186">
    <nd ref="726351583"/>
    <nd ref="170767664"/>
    <nd ref="170767684"/>
    <tag k="highway" v="residential"/>
    <tag k="name" v="Ivey Court"/>
  </way>
  <way id="16549549" version="3" timestamp="2010-07-09T06:23:28Z" uid="74617" user="JohnSmith" changeset="5171128">
    <nd ref="726351285"/>
    <nd ref="170767701"/>
    <nd ref="170767725"/>
    <tag k="highway" v="residential"/>
    <tag k="maxspeed" v="50"/>
    <tag k="maxspeed:source" v="default residential speed limit in Australia"/>
    <tag k="name" v="Stirton Court"/>
  </way>
  <way id="16549549" version="4" timestamp="2012-01-15T16:06:27Z" uid="147510" user="woodpeck_fixbot" changeset="10398186">
    <nd ref="726351285"/>
    <nd ref="170767701"/>
    <nd ref="170767725"/>
    <tag k="highway" v="residential"/>
    <tag k="name" v="Stirton Court"/>
  </way>
  <way id="16549550" version="4" timestamp="2010-07-09T06:21:14Z" uid="74617" user="JohnSmith" changeset="5171128">
    <nd ref="170767742"/>
    <nd ref="170767913"/>
    <nd ref="170767864"/>
    <nd ref="170767824"/>
    <nd ref="726345309"/>
    <nd ref="725884661"/>
    <nd ref="170767800"/>
    <tag k="highway" v="residential"/>
    <tag k="maxspeed" v="50"/>
    <tag k="maxspeed:source" v="default residential speed limit in Australia"/>
    <tag k="name" v="Goldsmith Street"/>
  </way>
  <way id="16549550" version="5" timestamp="2011-04-17T01:36:56Z" uid="4467" user="Rosscoe" changeset="7883426">
    <nd ref="170767742"/>
    <nd ref="170767913"/>
    <nd ref="170767864"/>
    <nd ref="170767824"/>
    <nd ref="726345309"/>
    <nd ref="725884661"/>
    <nd ref="170767800"/>
    <tag k="highway" v="residential"/>
    <tag k="maxspeed" v="50"/>
    <tag k="name" v="Goldsmith Street"/>
    <tag k="source:maxspeed" v="default residential speed limit in Australia"/>
  </way>
  <way id="16549550" version="6" timestamp="2011-04-17T01:41:14Z" uid="4467" user="Rosscoe" changeset="7883439">
    <nd ref="170767742"/>
    <nd ref="170767913"/>
    <nd ref="170767864"/>
    <nd ref="170767824"/>
    <nd ref="726345309"/>
    <nd ref="725884661"/>
    <nd ref="725884662"/>
    <nd ref="170767800"/>
    <tag k="highway" v="residential"/>
    <tag k="maxspeed" v="50"/>
    <tag k="name" v="Goldsmith Street"/>
    <tag k="source:maxspeed" v="default residential speed limit in Australia"/>
  </way>
  <way id="16549550" version="7" timestamp="2012-01-15T16:06:50Z" uid="147510" user="woodpeck_fixbot" changeset="10398186">
    <nd ref="170767742"/>
    <nd ref="170767913"/>
    <nd ref="170767864"/>
    <nd ref="170767824"/>
    <nd ref="726345309"/>
    <nd ref="725884661"/>
    <nd ref="725884662"/>
    <nd ref="170767800"/>
    <tag k="highway" v="residential"/>
    <tag k="name" v="Goldsmith Street"/>
    <tag k="source:maxspeed" v="default residential speed limit in Australia"/>
  </way>
  <way id="16549552" version="2" timestamp="2010-07-09T06:16:30Z" uid="74617" user="JohnSmith" changeset="5171128">
    <nd ref="170767824"/>
    <nd ref="170767844"/>
    <tag k="highway" v="residential"/>
    <tag k="maxspeed" v="50"/>
    <tag k="maxspeed:source" v="default residential speed limit in Australia"/>
    <tag k="name" v="Mossop Street"/>
  </way>
  <way id="16549552" version="3" timestamp="2011-04-17T01:36:48Z" uid="4467" user="Rosscoe" changeset="7883426">
    <nd ref="170767824"/>
    <nd ref="170767844"/>
    <tag k="highway" v="residential"/>
    <tag k="maxspeed" v="50"/>
    <tag k="name" v="Mossop Street"/>
    <tag k="source:maxspeed" v="default residential speed limit in Australia"/>
  </way>
  <way id="16549552" version="4" timestamp="2012-01-15T16:07:02Z" uid="147510" user="woodpeck_fixbot" changeset="10398186">
    <nd ref="170767824"/>
    <nd ref="170767844"/>
    <tag k="highway" v="residential"/>
    <tag k="name" v="Mossop Street"/>
    <tag k="source:maxspeed" v="default residential speed limit in Australia"/>
  </way>
  <way id="16549554" version="2" timestamp="2010-07-09T06:22:01Z" uid="74617" user="JohnSmith" changeset="5171128">
    <nd ref="170767864"/>
    <nd ref="170767888"/>
    <tag k="highway" v="residential"/>
    <tag k="maxspeed" v="50"/>
    <tag k="maxspeed:source" v="default residential speed limit in Australia"/>
    <tag k="name" v="Gregory Street"/>
  </way>
  <way id="16549554" version="3" timestamp="2011-04-17T01:36:50Z" uid="4467" user="Rosscoe" changeset="7883426">
    <nd ref="170767864"/>
    <nd ref="170767888"/>
    <tag k="highway" v="residential"/>
    <tag k="maxspeed" v="50"/>
    <tag k="name" v="Gregory Street"/>
    <tag k="source:maxspeed" v="default residential speed limit in Australia"/>
  </way>
  <way id="16549554" version="4" timestamp="2012-01-15T16:07:04Z" uid="147510" user="woodpeck_fixbot" changeset="10398186">
    <nd ref="170767864"/>
    <nd ref="170767888"/>
    <tag k="highway" v="residential"/>
    <tag k="name" v="Gregory Street"/>
    <tag k="source:maxspeed" v="default residential speed limit in Australia"/>
  </way>
  <way id="16549556" version="4" timestamp="2010-07-09T06:24:30Z" uid="74617" user="JohnSmith" changeset="5171128">
    <nd ref="170767913"/>
    <nd ref="170767970"/>
    <nd ref="170767937"/>
    <tag k="highway" v="residential"/>
    <tag k="maxspeed" v="50"/>
    <tag k="maxspeed:source" v="default residential speed limit in Australia"/>
    <tag k="name" v="Lattrielle Road"/>
  </way>
  <way id="16549556" version="5" timestamp="2011-04-17T01:36:51Z" uid="4467" user="Rosscoe" changeset="7883426">
    <nd ref="170767913"/>
    <nd ref="170767970"/>
    <nd ref="170767937"/>
    <tag k="highway" v="residential"/>
    <tag k="maxspeed" v="50"/>
    <tag k="name" v="Lattrielle Road"/>
    <tag k="source:maxspeed" v="default residential speed limit in Australia"/>
  </way>
  <way id="16549556" version="6" timestamp="2012-01-15T16:07:12Z" uid="147510" user="woodpeck_fixbot" changeset="10398186">
    <nd ref="170767913"/>
    <nd ref="170767970"/>
    <nd ref="170767937"/>
    <tag k="highway" v="residential"/>
    <tag k="name" v="Lattrielle Road"/>
    <tag k="source:maxspeed" v="default residential speed limit in Australia"/>
  </way>
  <way id="16549561" version="3" timestamp="2010-07-09T06:21:01Z" uid="74617" user="JohnSmith" changeset="5171128">
    <nd ref="725884652"/>
    <nd ref="725884653"/>
    <nd ref="725884654"/>
    <nd ref="170767954"/>
    <nd ref="170767970"/>
    <tag k="highway" v="residential"/>
    <tag k="maxspeed" v="50"/>
    <tag k="maxspeed:source" v="default residential speed limit in Australia"/>
    <tag k="name" v="Austin Street"/>
  </way>
  <way id="16549561" version="4" timestamp="2011-04-17T01:36:46Z" uid="4467" user="Rosscoe" changeset="7883426">
    <nd ref="725884652"/>
    <nd ref="725884653"/>
    <nd ref="725884654"/>
    <nd ref="170767954"/>
    <nd ref="170767970"/>
    <tag k="highway" v="residential"/>
    <tag k="maxspeed" v="50"/>
    <tag k="name" v="Austin Street"/>
    <tag k="source:maxspeed" v="default residential speed limit in Australia"/>
  </way>
  <way id="16549561" version="5" timestamp="2012-01-15T16:07:22Z" uid="147510" user="woodpeck_fixbot" changeset="10398186">
    <nd ref="725884652"/>
    <nd ref="725884653"/>
    <nd ref="725884654"/>
    <nd ref="170767954"/>
    <nd ref="170767970"/>
    <tag k="highway" v="residential"/>
    <tag k="name" v="Austin Street"/>
    <tag k="source:maxspeed" v="default residential speed limit in Australia"/>
  </way>
  <way id="16549563" version="4" timestamp="2010-07-09T06:17:02Z" uid="74617" user="JohnSmith" changeset="5171128">
    <nd ref="170767989"/>
    <nd ref="599053191"/>
    <nd ref="170768003"/>
    <nd ref="170768447"/>
    <nd ref="170768022"/>
    <nd ref="170768289"/>
    <nd ref="170768114"/>
    <nd ref="170768137"/>
    <nd ref="170768043"/>
    <nd ref="726351313"/>
    <nd ref="726351315"/>
    <nd ref="726351317"/>
    <nd ref="726351327"/>
    <nd ref="726351335"/>
    <tag k="highway" v="residential"/>
    <tag k="maxspeed" v="50"/>
    <tag k="maxspeed:source" v="default residential speed limit in Australia"/>
    <tag k="name" v="Ashrose Drive"/>
  </way>
  <way id="16549563" version="5" timestamp="2011-01-16T04:40:25Z" uid="4467" user="Rosscoe" changeset="6984203">
    <nd ref="170767989"/>
    <nd ref="599053191"/>
    <nd ref="1105773267"/>
    <nd ref="1105773290"/>
    <nd ref="170768003"/>
    <nd ref="170768447"/>
    <nd ref="170768022"/>
    <nd ref="170768289"/>
    <nd ref="170768114"/>
    <nd ref="1105773274"/>
    <nd ref="170768137"/>
    <nd ref="170768043"/>
    <nd ref="726351313"/>
    <nd ref="726351315"/>
    <nd ref="726351317"/>
    <nd ref="726351327"/>
    <nd ref="726351335"/>
    <tag k="highway" v="residential"/>
    <tag k="maxspeed" v="50"/>
    <tag k="maxspeed:source" v="default residential speed limit in Australia"/>
    <tag k="name" v="Ashrose Drive"/>
  </way>
  <way id="16549563" version="6" timestamp="2011-09-29T16:17:16Z" uid="338866" user="tiger" changeset="9428534">
    <nd ref="170767989"/>
    <nd ref="599053191"/>
    <nd ref="1105773267"/>
    <nd ref="1105773290"/>
    <nd ref="170768003"/>
    <nd ref="170768447"/>
    <nd ref="170768022"/>
    <nd ref="170768289"/>
    <nd ref="170768114"/>
    <nd ref="1105773274"/>
    <nd ref="170768137"/>
    <nd ref="170768043"/>
    <nd ref="726351313"/>
    <nd ref="726351315"/>
    <nd ref="170768277"/>
    <nd ref="726351317"/>
    <nd ref="726351327"/>
    <nd ref="726351335"/>
    <tag k="highway" v="residential"/>
    <tag k="maxspeed" v="50"/>
    <tag k="maxspeed:source" v="default residential speed limit in Australia"/>
    <tag k="name" v="Ashrose Drive"/>
  </way>
  <way id="16549563" version="7" timestamp="2012-01-15T16:07:28Z" uid="147510" user="woodpeck_fixbot" changeset="10398186">
    <nd ref="170767989"/>
    <nd ref="599053191"/>
    <nd ref="1105773267"/>
    <nd ref="1105773290"/>
    <nd ref="170768003"/>
    <nd ref="170768447"/>
    <nd ref="170768022"/>
    <nd ref="170768289"/>
    <nd ref="170768114"/>
    <nd ref="1105773274"/>
    <nd ref="170768137"/>
    <nd ref="170768043"/>
    <nd ref="726351313"/>
    <nd ref="726351315"/>
    <nd ref="170768277"/>
    <nd ref="726351317"/>
    <nd ref="726351327"/>
    <nd ref="726351335"/>
    <tag k="highway" v="residential"/>
    <tag k="name" v="Ashrose Drive"/>
  </way>
  <way id="16549566" version="3" timestamp="2010-07-09T06:17:38Z" uid="74617" user="JohnSmith" changeset="5171128">
    <nd ref="170768070"/>
    <nd ref="170768082"/>
    <nd ref="170768096"/>
    <nd ref="170768114"/>
    <tag k="highway" v="residential"/>
    <tag k="maxspeed" v="50"/>
    <tag k="maxspeed:source" v="default residential speed limit in Australia"/>
    <tag k="name" v="Crews Court"/>
  </way>
  <way id="16549566" version="4" timestamp="2012-01-15T16:07:33Z" uid="147510" user="woodpeck_fixbot" changeset="10398186">
    <nd ref="170768070"/>
    <nd ref="170768082"/>
    <nd ref="170768096"/>
    <nd ref="170768114"/>
    <tag k="highway" v="residential"/>
    <tag k="name" v="Crews Court"/>
  </way>
  <way id="16549569" version="3" timestamp="2010-07-09T06:24:32Z" uid="74617" user="JohnSmith" changeset="5171128">
    <nd ref="170768137"/>
    <nd ref="170768156"/>
    <nd ref="170768177"/>
    <nd ref="170768193"/>
    <nd ref="170768223"/>
    <tag k="highway" v="residential"/>
    <tag k="maxspeed" v="50"/>
    <tag k="maxspeed:source" v="default residential speed limit in Australia"/>
    <tag k="name" v="Whatman Way"/>
  </way>
  <way id="16549569" version="4" timestamp="2012-01-15T16:07:38Z" uid="147510" user="woodpeck_fixbot" changeset="10398186">
    <nd ref="170768137"/>
    <nd ref="170768156"/>
    <nd ref="170768177"/>
    <nd ref="170768193"/>
    <nd ref="170768223"/>
    <tag k="highway" v="residential"/>
    <tag k="name" v="Whatman Way"/>
  </way>
  <way id="16549575" version="3" timestamp="2010-07-09T06:19:02Z" uid="74617" user="JohnSmith" changeset="5171128">
    <nd ref="170768277"/>
    <nd ref="170768156"/>
    <tag k="highway" v="residential"/>
    <tag k="maxspeed" v="50"/>
    <tag k="maxspeed:source" v="default residential speed limit in Australia"/>
    <tag k="name" v="Halo Way"/>
  </way>
  <way id="16549575" version="4" timestamp="2012-01-15T16:07:40Z" uid="147510" user="woodpeck_fixbot" changeset="10398186">
    <nd ref="170768277"/>
    <nd ref="170768156"/>
    <tag k="highway" v="residential"/>
    <tag k="name" v="Halo Way"/>
  </way>
  <way id="16549577" version="3" timestamp="2010-07-09T06:21:42Z" uid="74617" user="JohnSmith" changeset="5171128">
    <nd ref="170768289"/>
    <nd ref="170768320"/>
    <nd ref="170768348"/>
    <nd ref="170768370"/>
    <nd ref="170768389"/>
    <nd ref="170768420"/>
    <tag k="highway" v="residential"/>
    <tag k="maxspeed" v="50"/>
    <tag k="maxspeed:source" v="default residential speed limit in Australia"/>
    <tag k="name" v="Littlefair Drive"/>
  </way>
  <way id="16549577" version="4" timestamp="2012-01-15T16:07:41Z" uid="147510" user="woodpeck_fixbot" changeset="10398186">
    <nd ref="170768289"/>
    <nd ref="170768320"/>
    <nd ref="170768348"/>
    <nd ref="170768370"/>
    <nd ref="170768389"/>
    <nd ref="170768420"/>
    <tag k="highway" v="residential"/>
    <tag k="name" v="Littlefair Drive"/>
  </way>
  <way id="16549581" version="2" timestamp="2010-07-09T06:20:05Z" uid="74617" user="JohnSmith" changeset="5171128">
    <nd ref="170768420"/>
    <nd ref="170768436"/>
    <tag k="highway" v="residential"/>
    <tag k="maxspeed" v="50"/>
    <tag k="maxspeed:source" v="default residential speed limit in Australia"/>
    <tag k="name" v="Hallo Way"/>
  </way>
  <way id="16549581" version="3" timestamp="2012-01-15T16:07:44Z" uid="147510" user="woodpeck_fixbot" changeset="10398186">
    <nd ref="170768420"/>
    <nd ref="170768436"/>
    <tag k="highway" v="residential"/>
    <tag k="name" v="Hallo Way"/>
  </way>
  <way id="16549583" version="3" timestamp="2010-07-09T06:16:17Z" uid="74617" user="JohnSmith" changeset="5171128">
    <nd ref="170768447"/>
    <nd ref="170768463"/>
    <nd ref="170768532"/>
    <nd ref="170768544"/>
    <nd ref="170768555"/>
    <nd ref="170768587"/>
    <nd ref="170768436"/>
    <nd ref="170768223"/>
    <nd ref="170768601"/>
    <nd ref="170768618"/>
    <nd ref="170768638"/>
    <tag k="highway" v="residential"/>
    <tag k="maxspeed" v="50"/>
    <tag k="maxspeed:source" v="default residential speed limit in Australia"/>
    <tag k="name" v="Lockwood Crescent"/>
  </way>
  <way id="16549583" version="4" timestamp="2012-01-15T16:07:48Z" uid="147510" user="woodpeck_fixbot" changeset="10398186">
    <nd ref="170768447"/>
    <nd ref="170768463"/>
    <nd ref="170768532"/>
    <nd ref="170768544"/>
    <nd ref="170768555"/>
    <nd ref="170768587"/>
    <nd ref="170768436"/>
    <nd ref="170768223"/>
    <nd ref="170768601"/>
    <nd ref="170768618"/>
    <nd ref="170768638"/>
    <tag k="highway" v="residential"/>
    <tag k="name" v="Lockwood Crescent"/>
  </way>
  <way id="16549587" version="3" timestamp="2010-07-09T06:16:48Z" uid="74617" user="JohnSmith" changeset="5171128">
    <nd ref="170768601"/>
    <nd ref="170768661"/>
    <nd ref="170768692"/>
    <nd ref="170768723"/>
    <nd ref="170768752"/>
    <nd ref="170768775"/>
    <nd ref="170768803"/>
    <tag k="highway" v="residential"/>
    <tag k="maxspeed" v="50"/>
    <tag k="maxspeed:source" v="default residential speed limit in Australia"/>
    <tag k="name" v="Sweeting Way"/>
  </way>
  <way id="16549587" version="4" timestamp="2012-01-15T16:07:50Z" uid="147510" user="woodpeck_fixbot" changeset="10398186">
    <nd ref="170768601"/>
    <nd ref="170768661"/>
    <nd ref="170768692"/>
    <nd ref="170768723"/>
    <nd ref="170768752"/>
    <nd ref="170768775"/>
    <nd ref="170768803"/>
    <tag k="highway" v="residential"/>
    <tag k="name" v="Sweeting Way"/>
  </way>
  <way id="16549590" version="2" timestamp="2009-06-21T01:12:43Z" uid="4467" user="Rosscoe" changeset="1579631">
    <nd ref="170768723"/>
    <nd ref="170768827"/>
    <tag k="created_by" v="JOSM"/>
    <tag k="highway" v="unclassified"/>
    <tag k="name" v="Guile Fairway"/>
  </way>
  <way id="16549590" version="3" timestamp="2009-06-21T01:13:20Z" uid="4467" user="Rosscoe" changeset="1579631">
    <nd ref="170768723"/>
    <nd ref="170768827"/>
    <tag k="created_by" v="JOSM"/>
    <tag k="highway" v="residential"/>
    <tag k="name" v="Guile Fairway"/>
  </way>
  <way id="16549590" version="4" timestamp="2010-05-08T12:01:01Z" uid="261730" user="Davoz" changeset="4638298">
    <nd ref="170768723"/>
    <nd ref="170768827"/>
    <tag k="highway" v="residential"/>
    <tag k="name" v="Guile Fairway"/>
  </way>
  <way id="16549590" version="5" timestamp="2010-05-21T01:07:36Z" uid="4467" user="Rosscoe" changeset="4762527">
    <nd ref="170768723"/>
    <nd ref="741749837"/>
    <nd ref="170768827"/>
    <tag k="highway" v="residential"/>
    <tag k="name" v="Guile Fairway"/>
  </way>
  <way id="16549590" version="6" timestamp="2010-05-21T01:19:36Z" uid="4467" user="Rosscoe" changeset="4762527">
    <nd ref="170768723"/>
    <nd ref="741751357"/>
    <nd ref="170768827"/>
    <tag k="highway" v="residential"/>
    <tag k="name" v="Guile Fairway"/>
  </way>
  <way id="16549590" version="7" timestamp="2010-07-09T06:17:27Z" uid="74617" user="JohnSmith" changeset="5171128">
    <nd ref="170768723"/>
    <nd ref="741751357"/>
    <nd ref="170768827"/>
    <tag k="highway" v="residential"/>
    <tag k="maxspeed" v="50"/>
    <tag k="maxspeed:source" v="default residential speed limit in Australia"/>
    <tag k="name" v="Guile Fairway"/>
  </way>
  <way id="16549590" version="8" timestamp="2012-01-15T16:07:54Z" uid="147510" user="woodpeck_fixbot" changeset="10398186">
    <nd ref="170768723"/>
    <nd ref="741751357"/>
    <nd ref="170768827"/>
    <tag k="highway" v="residential"/>
    <tag k="name" v="Guile Fairway"/>
  </way>
  <way id="16549591" version="3" timestamp="2010-07-09T06:15:36Z" uid="74617" user="JohnSmith" changeset="5171128">
    <nd ref="170768775"/>
    <nd ref="170768879"/>
    <nd ref="170769078"/>
    <nd ref="170768856"/>
    <nd ref="170768544"/>
    <tag k="highway" v="residential"/>
    <tag k="maxspeed" v="50"/>
    <tag k="maxspeed:source" v="default residential speed limit in Australia"/>
    <tag k="name" v="Rendell Elbow"/>
  </way>
  <way id="16549591" version="4" timestamp="2012-01-15T16:07:59Z" uid="147510" user="woodpeck_fixbot" changeset="10398186">
    <nd ref="170768775"/>
    <nd ref="170768879"/>
    <nd ref="170769078"/>
    <nd ref="170768856"/>
    <nd ref="170768544"/>
    <tag k="highway" v="residential"/>
    <tag k="name" v="Rendell Elbow"/>
  </way>
  <way id="16549594" version="3" timestamp="2010-07-09T06:16:06Z" uid="74617" user="JohnSmith" changeset="5171128">
    <nd ref="170768879"/>
    <nd ref="170768898"/>
    <nd ref="170768912"/>
    <nd ref="170768935"/>
    <nd ref="170768963"/>
    <tag k="highway" v="residential"/>
    <tag k="maxspeed" v="50"/>
    <tag k="maxspeed:source" v="default residential speed limit in Australia"/>
    <tag k="name" v="Craven Court"/>
  </way>
  <way id="16549594" version="4" timestamp="2011-04-30T14:15:13Z" uid="261730" user="Davoz" changeset="8012017">
    <nd ref="1267261478"/>
    <nd ref="170768898"/>
    <nd ref="170768912"/>
    <nd ref="170768935"/>
    <nd ref="170768963"/>
    <tag k="highway" v="residential"/>
    <tag k="maxspeed" v="50"/>
    <tag k="maxspeed:source" v="default residential speed limit in Australia"/>
    <tag k="name" v="Craven Court"/>
  </way>
  <way id="16549594" version="5" timestamp="2011-09-29T16:17:18Z" uid="338866" user="tiger" changeset="9428534">
    <nd ref="170768879"/>
    <nd ref="170768898"/>
    <nd ref="170768912"/>
    <nd ref="170768935"/>
    <nd ref="170768963"/>
    <tag k="highway" v="residential"/>
    <tag k="maxspeed" v="50"/>
    <tag k="maxspeed:source" v="default residential speed limit in Australia"/>
    <tag k="name" v="Craven Court"/>
  </way>
  <way id="16549594" version="6" timestamp="2012-01-15T16:08:03Z" uid="147510" user="woodpeck_fixbot" changeset="10398186">
    <nd ref="170768879"/>
    <nd ref="170768898"/>
    <nd ref="170768912"/>
    <nd ref="170768935"/>
    <nd ref="170768963"/>
    <tag k="highway" v="residential"/>
    <tag k="name" v="Craven Court"/>
  </way>
  <way id="16549596" version="3" timestamp="2010-07-09T06:18:36Z" uid="74617" user="JohnSmith" changeset="5171128">
    <nd ref="170768898"/>
    <nd ref="170768989"/>
    <nd ref="170769012"/>
    <nd ref="170769033"/>
    <nd ref="170769052"/>
    <nd ref="170769078"/>
    <tag k="highway" v="residential"/>
    <tag k="maxspeed" v="50"/>
    <tag k="maxspeed:source" v="default residential speed limit in Australia"/>
    <tag k="name" v="Glover Street"/>
  </way>
  <way id="16549596" version="4" timestamp="2012-01-15T16:08:05Z" uid="147510" user="woodpeck_fixbot" changeset="10398186">
    <nd ref="170768898"/>
    <nd ref="170768989"/>
    <nd ref="170769012"/>
    <nd ref="170769033"/>
    <nd ref="170769052"/>
    <nd ref="170769078"/>
    <tag k="highway" v="residential"/>
    <tag k="name" v="Glover Street"/>
  </way>
  <way id="16549597" version="3" timestamp="2010-07-09T06:16:31Z" uid="74617" user="JohnSmith" changeset="5171128">
    <nd ref="726348652"/>
    <nd ref="170769098"/>
    <nd ref="170768989"/>
    <tag k="highway" v="residential"/>
    <tag k="maxspeed" v="50"/>
    <tag k="maxspeed:source" v="default residential speed limit in Australia"/>
    <tag k="name" v="Shaw Close"/>
  </way>
  <way id="16549597" version="4" timestamp="2012-01-15T16:08:10Z" uid="147510" user="woodpeck_fixbot" changeset="10398186">
    <nd ref="726348652"/>
    <nd ref="170769098"/>
    <nd ref="170768989"/>
    <tag k="highway" v="residential"/>
    <tag k="name" v="Shaw Close"/>
  </way>
  <way id="16549599" version="3" timestamp="2010-05-21T01:07:43Z" uid="4467" user="Rosscoe" changeset="4762527">
    <nd ref="170769123"/>
    <nd ref="170769150"/>
    <nd ref="170769164"/>
    <nd ref="741749819"/>
    <nd ref="170769184"/>
    <nd ref="741749832"/>
    <nd ref="741749800"/>
    <nd ref="170769211"/>
    <nd ref="170769234"/>
    <nd ref="170769247"/>
    <nd ref="170769277"/>
    <nd ref="170769123"/>
    <tag k="amenity" v="school"/>
    <tag k="name" v="St Josephs Primary School"/>
  </way>
  <way id="16549599" version="4" timestamp="2010-05-21T01:19:39Z" uid="4467" user="Rosscoe" changeset="4762527">
    <nd ref="170769123"/>
    <nd ref="170769150"/>
    <nd ref="170769164"/>
    <nd ref="741751346"/>
    <nd ref="170769184"/>
    <nd ref="741751354"/>
    <nd ref="741751331"/>
    <nd ref="170769211"/>
    <nd ref="170769234"/>
    <nd ref="170769247"/>
    <nd ref="170769277"/>
    <nd ref="170769123"/>
    <tag k="amenity" v="school"/>
    <tag k="name" v="St Josephs Primary School"/>
  </way>
  <way id="16549673" version="4" timestamp="2010-07-06T10:06:47Z" uid="74617" user="JohnSmith" changeset="5147679">
    <nd ref="106523094"/>
    <nd ref="106521596"/>
    <nd ref="170766795"/>
    <nd ref="170766796"/>
    <tag k="highway" v="residential"/>
    <tag k="maxspeed" v="50"/>
    <tag k="maxspeed:source" v="default residential speed limit in Australia"/>
    <tag k="name" v="Landsdowne Street"/>
  </way>
  <way id="16549673" version="5" timestamp="2012-01-15T16:08:15Z" uid="147510" user="woodpeck_fixbot" changeset="10398186">
    <nd ref="106523094"/>
    <nd ref="106521596"/>
    <nd ref="170766795"/>
    <nd ref="170766796"/>
    <tag k="highway" v="residential"/>
    <tag k="name" v="Landsdowne Street"/>
  </way>
  <way id="16549704" version="4" timestamp="2010-07-06T10:13:03Z" uid="74617" user="JohnSmith" changeset="5147679">
    <nd ref="106501372"/>
    <nd ref="170768908"/>
    <nd ref="170768909"/>
    <tag k="highway" v="residential"/>
    <tag k="maxspeed" v="50"/>
    <tag k="maxspeed:source" v="default residential speed limit in Australia"/>
    <tag k="name" v="Rowland Street"/>
  </way>
  <way id="16549704" version="5" timestamp="2012-01-15T16:08:16Z" uid="147510" user="woodpeck_fixbot" changeset="10398186">
    <nd ref="106501372"/>
    <nd ref="170768908"/>
    <nd ref="170768909"/>
    <tag k="highway" v="residential"/>
    <tag k="name" v="Rowland Street"/>
  </way>
  <way id="16549762" version="3" timestamp="2010-05-31T04:16:55Z" uid="74617" user="JohnSmith" changeset="4859196">
    <nd ref="74863015"/>
    <nd ref="74863017"/>
    <tag k="bridge" v="yes"/>
    <tag k="layer" v="1"/>
    <tag k="railway" v="rail"/>
    <tag k="source" v="nearmap"/>
  </way>
  <way id="16549952" version="5" timestamp="2010-07-06T10:12:00Z" uid="74617" user="JohnSmith" changeset="5147679">
    <nd ref="170770053"/>
    <nd ref="170774820"/>
    <nd ref="170774821"/>
    <nd ref="170774822"/>
    <nd ref="170774823"/>
    <tag k="highway" v="residential"/>
    <tag k="maxspeed" v="50"/>
    <tag k="maxspeed:source" v="default residential speed limit in Australia"/>
    <tag k="name" v="Venice Street"/>
  </way>
  <way id="16549952" version="6" timestamp="2012-01-15T16:08:19Z" uid="147510" user="woodpeck_fixbot" changeset="10398186">
    <nd ref="170770053"/>
    <nd ref="170774820"/>
    <nd ref="170774821"/>
    <nd ref="170774822"/>
    <nd ref="170774823"/>
    <tag k="highway" v="residential"/>
    <tag k="name" v="Venice Street"/>
  </way>
</osm>
