<?xml version='1.0' encoding='UTF-8'?>
<osm version="0.6" generator="libosmium/2.20.0">
  <way id="16556088" version="7" timestamp="2010-02-14T17:16:57Z" uid="74617" user="JohnSmith" changeset="3875836">
    <nd ref="170856227"/>
    <nd ref="170851463"/>
    <nd ref="170851483"/>
    <nd ref="170851484"/>
    <nd ref="170851485"/>
    <nd ref="170851487"/>
    <nd ref="170851357"/>
    <tag k="cycleway" v="lane"/>
    <tag k="highway" v="tertiary"/>
    <tag k="name" v="Merthyr Road"/>
  </way>
  <way id="16556196" version="2" timestamp="2010-02-14T17:16:55Z" uid="74617" user="JohnSmith" changeset="3875836">
    <nd ref="170857783"/>
    <nd ref="170857784"/>
    <nd ref="170857787"/>
    <nd ref="170857790"/>
    <nd ref="170857793"/>
    <nd ref="170857796"/>
    <nd ref="170857799"/>
    <nd ref="170857801"/>
    <nd ref="170857805"/>
    <nd ref="170857808"/>
    <nd ref="170857810"/>
    <nd ref="170857812"/>
    <nd ref="170857783"/>
    <tag k="building" v="yes"/>
  </way>
  <way id="16556300" version="6" timestamp="2010-07-06T09:53:00Z" uid="74617" user="JohnSmith" changeset="5147679">
    <nd ref="170822621"/>
    <nd ref="170859704"/>
    <nd ref="170859874"/>
    <tag k="highway" v="residential"/>
    <tag k="maxspeed" v="50"/>
    <tag k="maxspeed:source" v="default residential speed limit in Australia"/>
    <tag k="name" v="Stewart Street"/>
  </way>
  <way id="16556300" version="7" timestamp="2012-01-15T16:12:17Z" uid="147510" user="woodpeck_fixbot" changeset="10398186">
    <nd ref="170822621"/>
    <nd ref="170859704"/>
    <nd ref="170859874"/>
    <tag k="highway" v="residential"/>
    <tag k="name" v="Stewart Street"/>
  </way>
  <way id="16556707" version="5" timestamp="2010-07-06T09:52:17Z" uid="74617" user="JohnSmith" changeset="5147679">
    <nd ref="170867091"/>
    <nd ref="170867092"/>
    <nd ref="170867095"/>
    <nd ref="428992554"/>
    <nd ref="170867096"/>
    <nd ref="170867099"/>
    <nd ref="170864756"/>
    <nd ref="170867100"/>
    <tag k="highway" v="residential"/>
    <tag k="maxspeed" v="50"/>
    <tag k="maxspeed:source" v="default residential speed limit in Australia"/>
    <tag k="name" v="Leura Avenue"/>
  </way>
  <way id="16556707" version="6" timestamp="2012-01-15T16:12:19Z" uid="147510" user="woodpeck_fixbot" changeset="10398186">
    <nd ref="170867091"/>
    <nd ref="170867092"/>
    <nd ref="170867095"/>
    <nd ref="428992554"/>
    <nd ref="170867096"/>
    <nd ref="170867099"/>
    <nd ref="170864756"/>
    <nd ref="170867100"/>
    <tag k="highway" v="residential"/>
    <tag k="name" v="Leura Avenue"/>
  </way>
  <way id="16556788" version="5" timestamp="2010-07-06T09:47:55Z" uid="74617" user="JohnSmith" changeset="5147679">
    <nd ref="170863456"/>
    <nd ref="170869229"/>
    <nd ref="170867096"/>
    <tag k="highway" v="residential"/>
    <tag k="maxspeed" v="50"/>
    <tag k="maxspeed:source" v="default residential speed limit in Australia"/>
    <tag k="name" v="Govett Avenue"/>
  </way>
  <way id="16556788" version="6" timestamp="2012-01-15T16:12:23Z" uid="147510" user="woodpeck_fixbot" changeset="10398186">
    <nd ref="170863456"/>
    <nd ref="170869229"/>
    <nd ref="170867096"/>
    <tag k="highway" v="residential"/>
    <tag k="name" v="Govett Avenue"/>
  </way>
  <way id="16556817" version="11" timestamp="2010-07-06T09:48:55Z" uid="74617" user="JohnSmith" changeset="5147679">
    <nd ref="428992554"/>
    <nd ref="315043719"/>
    <nd ref="170869965"/>
    <tag k="highway" v="residential"/>
    <tag k="maxspeed" v="50"/>
    <tag k="maxspeed:source" v="default residential speed limit in Australia"/>
    <tag k="name" v="Stuart Street"/>
  </way>
  <way id="16556817" version="12" timestamp="2012-01-15T16:12:27Z" uid="147510" user="woodpeck_fixbot" changeset="10398186">
    <nd ref="428992554"/>
    <nd ref="315043719"/>
    <nd ref="170869965"/>
    <tag k="highway" v="residential"/>
    <tag k="name" v="Stuart Street"/>
  </way>
  <way id="16556828" version="3" timestamp="2010-03-27T22:51:41Z" uid="20587" user="balrog-kun" changeset="4250871">
    <nd ref="35519587"/>
    <nd ref="496720584"/>
    <nd ref="496720586"/>
    <nd ref="496720578"/>
    <nd ref="496720718"/>
    <nd ref="122986942"/>
    <tag k="highway" v="residential"/>
    <tag k="name" v="North Sparks Street"/>
    <tag k="tiger:cfcc" v="A41"/>
    <tag k="tiger:county" v="Los Angeles, CA"/>
    <tag k="tiger:name_base" v="Sparks"/>
    <tag k="tiger:name_direction_prefix" v="N"/>
    <tag k="tiger:name_type" v="St"/>
    <tag k="tiger:separated" v="no"/>
    <tag k="tiger:source" v="tiger_import_dch_v0.6_20070809"/>
    <tag k="tiger:tlid" v="141592750:141592775"/>
    <tag k="tiger:zip_left" v="91506"/>
    <tag k="tiger:zip_right" v="91506"/>
  </way>
  <way id="16556828" version="4" timestamp="2010-09-14T23:06:58Z" uid="82317" user="AM909" changeset="5783063">
    <nd ref="35519587"/>
    <nd ref="496720586"/>
    <nd ref="496720578"/>
    <nd ref="496720718"/>
    <nd ref="122986942"/>
    <tag k="highway" v="residential"/>
    <tag k="name" v="North Sparks Street"/>
    <tag k="source" v="usgs_imagery"/>
    <tag k="tiger:cfcc" v="A41"/>
    <tag k="tiger:county" v="Los Angeles, CA"/>
    <tag k="tiger:name_base" v="Sparks"/>
    <tag k="tiger:name_direction_prefix" v="N"/>
    <tag k="tiger:name_type" v="St"/>
    <tag k="tiger:separated" v="no"/>
    <tag k="tiger:source" v="tiger_import_dch_v0.6_20070809"/>
    <tag k="tiger:tlid" v="141592750:141592775"/>
    <tag k="tiger:zip_left" v="91506"/>
    <tag k="tiger:zip_right" v="91506"/>
  </way>
  <way id="16556936" version="4" timestamp="2010-07-06T09:52:26Z" uid="74617" user="JohnSmith" changeset="5147679">
    <nd ref="170871936"/>
    <nd ref="170871937"/>
    <nd ref="170871938"/>
    <tag k="highway" v="residential"/>
    <tag k="maxspeed" v="50"/>
    <tag k="maxspeed:source" v="default residential speed limit in Australia"/>
    <tag k="name" v="Redcar Street"/>
  </way>
  <way id="16556936" version="5" timestamp="2012-01-15T16:12:29Z" uid="147510" user="woodpeck_fixbot" changeset="10398186">
    <nd ref="170871936"/>
    <nd ref="170871937"/>
    <nd ref="170871938"/>
    <tag k="highway" v="residential"/>
    <tag k="name" v="Redcar Street"/>
  </way>
</osm>
