<?xml version='1.0' encoding='UTF-8'?>
<osm version="0.6" generator="libosmium/2.20.0">
  <way id="16583186" version="5" timestamp="2010-03-31T21:16:52Z" uid="163746" user="anti_bot-nonsense" changeset="4289355">
    <nd ref="171193249"/>
    <nd ref="171197050"/>
    <nd ref="171197051"/>
    <nd ref="171197052"/>
    <nd ref="291843623"/>
    <nd ref="267426445"/>
    <tag k="highway" v="tertiary"/>
  </way>
  <way id="16583240" version="3" timestamp="2010-08-22T01:54:59Z" uid="4467" user="Rosscoe" changeset="5557306">
    <nd ref="445123177"/>
    <nd ref="171197922"/>
    <nd ref="171197926"/>
    <nd ref="171197930"/>
    <nd ref="171197933"/>
    <tag k="highway" v="residential"/>
    <tag k="name" v="J L Martin Drive"/>
    <tag k="name_1" v="State Road 2815"/>
    <tag k="tiger:cfcc" v="A41"/>
    <tag k="tiger:county" v="Guilford, NC"/>
    <tag k="tiger:name_base" v="J L Martin"/>
    <tag k="tiger:name_base_1" v="State Road 2815"/>
    <tag k="tiger:name_type" v="Dr"/>
    <tag k="tiger:reviewed" v="no"/>
    <tag k="tiger:separated" v="no"/>
    <tag k="tiger:source" v="tiger_import_dch_v0.6_20070829"/>
    <tag k="tiger:tlid" v="131037352"/>
    <tag k="tiger:upload_uuid" v="bulk_upload.pl-b9196a86-5128-44bd-981b-4a82adc1c807"/>
    <tag k="tiger:zip_left" v="27301"/>
    <tag k="tiger:zip_right" v="27301"/>
  </way>
  <way id="16583488" version="8" timestamp="2010-03-31T21:11:17Z" uid="163746" user="anti_bot-nonsense" changeset="4289355">
    <nd ref="171202151"/>
    <nd ref="309489173"/>
    <nd ref="171202148"/>
    <nd ref="171202147"/>
    <nd ref="427567949"/>
    <nd ref="171202146"/>
    <nd ref="353218548"/>
    <tag k="highway" v="tertiary"/>
    <tag k="name" v="Mieleszyńska"/>
  </way>
  <way id="16583514" version="2" timestamp="2010-10-31T14:08:40Z" uid="33382" user="de_muur" changeset="6238959">
    <nd ref="171202611"/>
    <nd ref="171202617"/>
    <tag k="bridge" v="yes"/>
    <tag k="highway" v="unclassified"/>
    <tag k="layer" v="1"/>
    <tag k="surface" v="paved"/>
  </way>
  <way id="16583514" version="3" timestamp="2012-03-18T13:49:28Z" uid="45882" user="smarties" changeset="11018991"/>
  <way id="16583527" version="9" timestamp="2010-03-31T21:22:43Z" uid="163746" user="anti_bot-nonsense" changeset="4289355">
    <nd ref="280577184"/>
    <nd ref="171203002"/>
    <nd ref="171202999"/>
    <nd ref="171202151"/>
    <tag k="highway" v="tertiary"/>
    <tag k="name" v="Nowe Kotowo"/>
  </way>
  <way id="16583581" version="14" timestamp="2010-03-31T21:10:08Z" uid="163746" user="anti_bot-nonsense" changeset="4289355">
    <nd ref="171204117"/>
    <nd ref="171203013"/>
    <tag k="highway" v="residential"/>
    <tag k="name" v="Kotowo"/>
  </way>
  <way id="16583803" version="22" timestamp="2010-03-31T20:50:46Z" uid="163746" user="anti_bot-nonsense" changeset="4289355">
    <nd ref="171208186"/>
    <nd ref="246690318"/>
    <nd ref="299787511"/>
    <nd ref="351647065"/>
    <nd ref="427595802"/>
    <nd ref="171208188"/>
    <nd ref="197969241"/>
    <nd ref="291843593"/>
    <nd ref="291843579"/>
    <nd ref="427574191"/>
    <nd ref="197969242"/>
    <nd ref="299787490"/>
    <nd ref="364331654"/>
    <nd ref="351640446"/>
    <nd ref="246652622"/>
    <nd ref="299787422"/>
    <tag k="highway" v="tertiary"/>
    <tag k="name" v="Księcia Józefa Poniatowskiego"/>
  </way>
  <way id="16583803" version="23" timestamp="2012-03-22T15:00:27Z" uid="631683" user="nbmx" changeset="11063684">
    <nd ref="171208186"/>
    <nd ref="246690318"/>
    <nd ref="299787511"/>
    <nd ref="351647065"/>
    <nd ref="427595802"/>
    <nd ref="171208188"/>
    <nd ref="197969241"/>
    <nd ref="291843593"/>
    <nd ref="291843579"/>
    <nd ref="427574191"/>
    <nd ref="197969242"/>
    <nd ref="299787490"/>
    <nd ref="364331654"/>
    <nd ref="351640446"/>
    <nd ref="246652622"/>
    <nd ref="299787422"/>
    <tag k="highway" v="tertiary"/>
    <tag k="name" v="Księcia Józefa Poniatowskiego"/>
    <tag k="surface" v="asphalt"/>
  </way>
  <way id="16583935" version="23" timestamp="2008-12-14T14:53:11Z" uid="6975" user="ulfl" changeset="375714">
    <nd ref="171209756"/>
    <nd ref="171209692"/>
    <nd ref="269003894"/>
    <nd ref="269004181"/>
    <nd ref="33553213"/>
    <nd ref="269003895"/>
    <nd ref="269003896"/>
    <nd ref="33553212"/>
    <nd ref="33553211"/>
    <nd ref="33553210"/>
    <nd ref="307815359"/>
    <nd ref="257969837"/>
    <nd ref="307815388"/>
    <tag k="highway" v="secondary"/>
    <tag k="maxspeed" v="100"/>
    <tag k="name" v="Röthenbacher Straße"/>
    <tag k="ref" v="St 2241"/>
  </way>
  <way id="16583935" version="24" timestamp="2009-12-26T12:26:34Z" uid="202858" user="kellerma" changeset="3454239">
    <nd ref="171209756"/>
    <nd ref="171209692"/>
    <nd ref="269003894"/>
    <nd ref="269004181"/>
    <nd ref="33553213"/>
    <nd ref="269003895"/>
    <nd ref="269003896"/>
    <nd ref="33553212"/>
    <nd ref="33553211"/>
    <nd ref="33553210"/>
    <nd ref="307815359"/>
    <nd ref="257969837"/>
    <tag k="highway" v="secondary"/>
    <tag k="maxspeed" v="100"/>
    <tag k="name" v="Röthenbacher Straße"/>
    <tag k="ref" v="St 2241"/>
  </way>
  <way id="16583935" version="25" timestamp="2011-02-24T11:56:16Z" uid="89943" user="Bengatzer" changeset="7380823">
    <nd ref="257969837"/>
    <nd ref="307815359"/>
    <nd ref="33553210"/>
    <nd ref="33553211"/>
    <nd ref="33553212"/>
    <nd ref="269003896"/>
    <nd ref="269003895"/>
    <nd ref="33553213"/>
    <tag k="highway" v="secondary"/>
    <tag k="maxspeed" v="100"/>
    <tag k="name" v="Röthenbacher Straße"/>
    <tag k="ref" v="St 2241"/>
  </way>
  <way id="16583935" version="26" timestamp="2011-02-24T12:38:02Z" uid="89943" user="Bengatzer" changeset="7381149">
    <nd ref="33553213"/>
    <nd ref="269003895"/>
    <nd ref="269003896"/>
    <nd ref="33553212"/>
    <nd ref="33553211"/>
    <nd ref="33553210"/>
    <nd ref="307815359"/>
    <tag k="highway" v="secondary"/>
    <tag k="maxspeed" v="100"/>
    <tag k="name" v="Röthenbacher Straße"/>
    <tag k="ref" v="St 2241"/>
  </way>
  <way id="16583935" version="27" timestamp="2011-08-23T18:41:03Z" uid="479256" user="geodreieck4711" changeset="9106220">
    <nd ref="33553213"/>
    <nd ref="269003895"/>
    <nd ref="269003896"/>
    <nd ref="33553212"/>
    <nd ref="33553211"/>
    <nd ref="33553210"/>
    <tag k="highway" v="secondary"/>
    <tag k="maxspeed" v="100"/>
    <tag k="name" v="Röthenbacher Straße"/>
    <tag k="ref" v="St 2241"/>
  </way>
  <way id="16583935" version="28" timestamp="2012-01-23T21:47:20Z" uid="82877" user="Wankmann" changeset="10479642"/>
</osm>
