<?xml version='1.0' encoding='UTF-8'?>
<osm version="0.6" generator="libosmium/2.20.0">
  <way id="16655112" version="4" timestamp="2009-08-03T13:38:42Z" uid="4467" user="Rosscoe" changeset="2025590">
    <nd ref="172046456"/>
    <nd ref="172049172"/>
    <tag k="highway" v="trunk"/>
    <tag k="oneway" v="yes"/>
    <tag k="ref" v="SH58"/>
  </way>
  <way id="16655112" version="5" timestamp="2010-01-10T07:41:33Z" uid="21778" user="Andrew McMillan" changeset="3584452">
    <nd ref="172046456"/>
    <nd ref="172049172"/>
    <tag k="highway" v="primary"/>
    <tag k="oneway" v="yes"/>
    <tag k="ref" v="58"/>
  </way>
  <way id="16655112" version="6" timestamp="2010-10-30T13:31:53Z" uid="341519" user="lcmortensen" changeset="6227661">
    <nd ref="172046456"/>
    <nd ref="172049172"/>
    <tag k="highway" v="trunk"/>
    <tag k="oneway" v="yes"/>
    <tag k="ref" v="58"/>
  </way>
  <way id="16655112" version="7" timestamp="2012-03-30T06:42:59Z" uid="341519" user="lcmortensen" changeset="11147495">
    <nd ref="172046456"/>
    <nd ref="172049172"/>
    <tag k="highway" v="trunk"/>
    <tag k="lanes" v="1"/>
    <tag k="maxspeed" v="80"/>
    <tag k="oneway" v="yes"/>
    <tag k="ref" v="SH 58"/>
  </way>
</osm>
