<?xml version='1.0' encoding='UTF-8'?>
<osm version="0.6" generator="libosmium/2.20.0">
  <way id="16666006" version="4" timestamp="2010-10-23T09:59:54Z" uid="7617" user="Franc" changeset="6143418">
    <nd ref="172228285"/>
    <nd ref="961354073"/>
    <nd ref="961354128"/>
    <nd ref="172228279"/>
    <tag k="highway" v="footway"/>
    <tag k="name" v="Thames Street"/>
  </way>
  <way id="16666008" version="5" timestamp="2010-07-07T22:15:41Z" uid="74617" user="JohnSmith" changeset="5161069">
    <nd ref="172228279"/>
    <nd ref="26410171"/>
    <nd ref="26410172"/>
    <tag k="highway" v="residential"/>
    <tag k="maxspeed" v="50"/>
    <tag k="maxspeed:source" v="default residential speed limit in Australia"/>
    <tag k="name" v="Thames Street"/>
  </way>
  <way id="16666008" version="6" timestamp="2012-01-15T16:16:30Z" uid="147510" user="woodpeck_fixbot" changeset="10398186">
    <nd ref="172228279"/>
    <nd ref="26410171"/>
    <nd ref="26410172"/>
    <tag k="highway" v="residential"/>
    <tag k="name" v="Thames Street"/>
  </way>
  <way id="16666010" version="3" timestamp="2011-04-03T07:49:51Z" uid="7617" user="Franc" changeset="7750988">
    <nd ref="172228296"/>
    <nd ref="172228314"/>
    <tag k="fixme:sign:no" v="2011-04-02"/>
    <tag k="highway" v="service"/>
  </way>
  <way id="16666011" version="3" timestamp="2011-04-03T07:50:06Z" uid="7617" user="Franc" changeset="7750988">
    <nd ref="172228334"/>
    <nd ref="172228357"/>
    <tag k="highway" v="service"/>
    <tag k="name" v="Marshall Street"/>
  </way>
  <way id="16666140" version="4" timestamp="2010-02-10T10:15:09Z" uid="7617" user="Franc" changeset="3838915">
    <nd ref="33219142"/>
    <nd ref="8965595"/>
    <tag k="highway" v="residential"/>
    <tag k="name" v="Eaton Street"/>
    <tag k="oneway" v="yes"/>
    <tag k="restriction" v="school_zone"/>
    <tag k="source" v="Yahoo Imagery"/>
  </way>
  <way id="16666140" version="5" timestamp="2010-07-07T22:14:29Z" uid="74617" user="JohnSmith" changeset="5161069">
    <nd ref="33219142"/>
    <nd ref="8965595"/>
    <tag k="highway" v="residential"/>
    <tag k="maxspeed" v="50"/>
    <tag k="maxspeed:source" v="default residential speed limit in Australia"/>
    <tag k="name" v="Eaton Street"/>
    <tag k="oneway" v="yes"/>
    <tag k="restriction" v="school_zone"/>
    <tag k="source" v="Yahoo Imagery"/>
  </way>
  <way id="16666140" version="6" timestamp="2012-01-15T16:16:35Z" uid="147510" user="woodpeck_fixbot" changeset="10398186">
    <nd ref="33219142"/>
    <nd ref="8965595"/>
    <tag k="highway" v="residential"/>
    <tag k="name" v="Eaton Street"/>
    <tag k="oneway" v="yes"/>
    <tag k="restriction" v="school_zone"/>
    <tag k="source" v="Yahoo Imagery"/>
  </way>
  <way id="16666679" version="4" timestamp="2010-02-10T10:15:10Z" uid="7617" user="Franc" changeset="3838915">
    <nd ref="38414519"/>
    <nd ref="634867753"/>
    <nd ref="33219142"/>
    <tag k="highway" v="residential"/>
    <tag k="name" v="Eaton Street"/>
    <tag k="restriction" v="school_zone"/>
    <tag k="source" v="Yahoo Imagery"/>
  </way>
  <way id="16666679" version="5" timestamp="2010-07-07T22:14:32Z" uid="74617" user="JohnSmith" changeset="5161069">
    <nd ref="38414519"/>
    <nd ref="634867753"/>
    <nd ref="33219142"/>
    <tag k="highway" v="residential"/>
    <tag k="maxspeed" v="50"/>
    <tag k="maxspeed:source" v="default residential speed limit in Australia"/>
    <tag k="name" v="Eaton Street"/>
    <tag k="restriction" v="school_zone"/>
    <tag k="source" v="Yahoo Imagery"/>
  </way>
  <way id="16666679" version="6" timestamp="2012-01-15T16:16:37Z" uid="147510" user="woodpeck_fixbot" changeset="10398186">
    <nd ref="38414519"/>
    <nd ref="634867753"/>
    <nd ref="33219142"/>
    <tag k="highway" v="residential"/>
    <tag k="name" v="Eaton Street"/>
    <tag k="restriction" v="school_zone"/>
    <tag k="source" v="Yahoo Imagery"/>
  </way>
</osm>
