<?xml version='1.0' encoding='UTF-8'?>
<osm version="0.6" generator="libosmium/2.20.0">
  <way id="16688235" version="1" timestamp="2007-12-16T06:38:44Z" uid="4467" user="Rosscoe" changeset="323265">
    <nd ref="172521045"/>
    <nd ref="150053389"/>
    <nd ref="150056629"/>
    <nd ref="150056642"/>
    <nd ref="150056656"/>
    <nd ref="150056673"/>
    <tag k="created_by" v="JOSM"/>
    <tag k="highway" v="residential"/>
    <tag k="name" v="Faust Street"/>
    <tag k="source" v="gpsdrivetrack"/>
    <tag k="surface" v="paved"/>
  </way>
  <way id="16688235" version="2" timestamp="2007-12-21T23:55:38Z" uid="4467" user="Rosscoe" changeset="385886">
    <nd ref="172521045"/>
    <nd ref="178288631"/>
    <nd ref="150053389"/>
    <nd ref="178287867"/>
    <nd ref="178288253"/>
    <nd ref="178289302"/>
    <nd ref="178288907"/>
    <nd ref="178288941"/>
    <nd ref="178288312"/>
    <nd ref="150056629"/>
    <nd ref="150056642"/>
    <nd ref="150056656"/>
    <nd ref="150056673"/>
    <tag k="created_by" v="JOSM"/>
    <tag k="highway" v="residential"/>
    <tag k="name" v="Faust Street"/>
    <tag k="source" v="gpsdrivetrack"/>
    <tag k="surface" v="paved"/>
  </way>
  <way id="16688235" version="3" timestamp="2008-01-09T22:48:28Z" uid="4467" user="Rosscoe" changeset="589280">
    <nd ref="172521045"/>
    <nd ref="178288631"/>
    <nd ref="150053389"/>
    <nd ref="178287867"/>
    <nd ref="178288253"/>
    <nd ref="178289302"/>
    <nd ref="178288907"/>
    <nd ref="178288941"/>
    <nd ref="178288312"/>
    <nd ref="150056629"/>
    <nd ref="150056642"/>
    <nd ref="150056656"/>
    <nd ref="150056673"/>
    <tag k="created_by" v="JOSM"/>
    <tag k="highway" v="residential"/>
    <tag k="name" v="Faust Street"/>
    <tag k="source" v="gpsdrivetrack"/>
    <tag k="surface" v="paved"/>
  </way>
  <way id="16688235" version="4" timestamp="2008-01-10T02:37:21Z" uid="4467" user="Rosscoe" changeset="589280">
    <nd ref="172521045"/>
    <nd ref="178288631"/>
    <nd ref="150053389"/>
    <nd ref="178287867"/>
    <nd ref="178288253"/>
    <nd ref="178289302"/>
    <nd ref="178288907"/>
    <nd ref="178288941"/>
    <nd ref="178288312"/>
    <nd ref="150056629"/>
    <nd ref="150056642"/>
    <nd ref="150056656"/>
    <nd ref="150056673"/>
    <tag k="created_by" v="JOSM"/>
    <tag k="highway" v="residential"/>
    <tag k="name" v="Faust Street"/>
    <tag k="source" v="gpsdrivetrack"/>
    <tag k="surface" v="paved"/>
  </way>
  <way id="16688235" version="5" timestamp="2008-03-27T03:57:19Z" uid="4467" user="Rosscoe" changeset="404153">
    <nd ref="172521045"/>
    <nd ref="178288631"/>
    <nd ref="150053389"/>
    <nd ref="178287867"/>
    <nd ref="178288253"/>
    <nd ref="178289302"/>
    <nd ref="178288907"/>
    <nd ref="178288941"/>
    <nd ref="178288312"/>
    <nd ref="150056629"/>
    <nd ref="150056642"/>
    <nd ref="150056656"/>
    <nd ref="150056673"/>
    <tag k="created_by" v="Potlatch 0.8"/>
    <tag k="highway" v="residential"/>
    <tag k="name" v="Faust Street"/>
    <tag k="source" v="gpsdrivetrack"/>
    <tag k="surface" v="paved"/>
  </way>
  <way id="16688235" version="6" timestamp="2008-10-14T21:59:58Z" uid="4467" user="Rosscoe" changeset="342472">
    <nd ref="172521045"/>
    <nd ref="178288631"/>
    <nd ref="150053389"/>
    <nd ref="178287867"/>
    <nd ref="178288253"/>
    <nd ref="178289302"/>
    <nd ref="178288907"/>
    <nd ref="178288941"/>
    <nd ref="178288312"/>
    <nd ref="150056629"/>
    <nd ref="150056642"/>
    <nd ref="150056656"/>
    <nd ref="150056673"/>
    <tag k="created_by" v="Potlatch 0.10e"/>
    <tag k="highway" v="residential"/>
    <tag k="name" v="Faust Street"/>
    <tag k="source" v="survey"/>
    <tag k="surface" v="paved"/>
  </way>
  <way id="16688235" version="7" timestamp="2008-11-07T07:39:39Z" uid="4467" user="Rosscoe" changeset="705922">
    <nd ref="172521045"/>
    <nd ref="178288631"/>
    <nd ref="150053389"/>
    <nd ref="178287867"/>
    <nd ref="178288253"/>
    <nd ref="178289302"/>
    <nd ref="178288907"/>
    <nd ref="178288941"/>
    <nd ref="178288312"/>
    <nd ref="150056629"/>
    <nd ref="150056642"/>
    <nd ref="150056656"/>
    <nd ref="150056673"/>
    <tag k="created_by" v="Potlatch 0.10f"/>
    <tag k="highway" v="tertiary"/>
    <tag k="name" v="Faust Street"/>
    <tag k="source" v="survey"/>
    <tag k="surface" v="paved"/>
  </way>
  <way id="16688235" version="8" timestamp="2009-06-27T13:49:09Z" uid="4467" user="Rosscoe" changeset="1650174">
    <nd ref="172521045"/>
    <nd ref="178288631"/>
    <nd ref="150053389"/>
    <nd ref="178287867"/>
    <tag k="created_by" v="Potlatch 0.10f"/>
    <tag k="highway" v="tertiary"/>
    <tag k="name" v="Faust Street"/>
    <tag k="source" v="survey"/>
    <tag k="surface" v="paved"/>
  </way>
  <way id="16688235" version="9" timestamp="2009-06-27T13:49:19Z" uid="4467" user="Rosscoe" changeset="1650174"/>
  <way id="16688236" version="1" timestamp="2007-12-16T06:38:45Z" uid="4467" user="Rosscoe" changeset="323265">
    <nd ref="150056673"/>
    <nd ref="150056693"/>
    <nd ref="150056710"/>
    <nd ref="150056724"/>
    <nd ref="150056746"/>
    <tag k="created_by" v="JOSM"/>
    <tag k="highway" v="residential"/>
    <tag k="name" v="Faust Street"/>
    <tag k="source" v="gpsdrivetrack"/>
    <tag k="surface" v="paved"/>
  </way>
  <way id="16688236" version="2" timestamp="2007-12-21T23:55:44Z" uid="4467" user="Rosscoe" changeset="385886">
    <nd ref="150056673"/>
    <nd ref="150056693"/>
    <nd ref="150056710"/>
    <nd ref="150056724"/>
    <nd ref="178289066"/>
    <nd ref="178288395"/>
    <nd ref="178288291"/>
    <nd ref="150056746"/>
    <tag k="created_by" v="JOSM"/>
    <tag k="highway" v="residential"/>
    <tag k="name" v="Faust Street"/>
    <tag k="source" v="gpsdrivetrack"/>
    <tag k="surface" v="paved"/>
  </way>
  <way id="16688236" version="3" timestamp="2008-01-10T02:37:34Z" uid="4467" user="Rosscoe" changeset="589280">
    <nd ref="150056673"/>
    <nd ref="150056693"/>
    <nd ref="150056710"/>
    <nd ref="150056724"/>
    <nd ref="178289066"/>
    <nd ref="178288395"/>
    <nd ref="178288291"/>
    <nd ref="150056746"/>
    <tag k="created_by" v="JOSM"/>
    <tag k="highway" v="residential"/>
    <tag k="name" v="Faust Street"/>
    <tag k="source" v="gpsdrivetrack"/>
    <tag k="surface" v="paved"/>
  </way>
  <way id="16688236" version="4" timestamp="2008-04-07T04:25:29Z" uid="4467" user="Rosscoe" changeset="70902">
    <nd ref="150056673"/>
    <nd ref="150056693"/>
    <nd ref="150056710"/>
    <nd ref="150056724"/>
    <nd ref="178289066"/>
    <nd ref="178288395"/>
    <nd ref="178288291"/>
    <nd ref="256184250"/>
    <tag k="created_by" v="JOSM"/>
    <tag k="highway" v="residential"/>
    <tag k="name" v="Faust Street"/>
    <tag k="source" v="gpsdrivetrack"/>
    <tag k="surface" v="paved"/>
  </way>
  <way id="16688236" version="5" timestamp="2008-10-14T21:59:13Z" uid="4467" user="Rosscoe" changeset="342472">
    <nd ref="150056673"/>
    <nd ref="150056693"/>
    <nd ref="150056710"/>
    <nd ref="150056724"/>
    <nd ref="178289066"/>
    <nd ref="178288395"/>
    <nd ref="178288291"/>
    <nd ref="256184250"/>
    <tag k="created_by" v="Potlatch 0.10e"/>
    <tag k="highway" v="residential"/>
    <tag k="name" v="Faust Street"/>
    <tag k="source" v="survey"/>
    <tag k="surface" v="paved"/>
  </way>
  <way id="16688236" version="6" timestamp="2008-11-07T07:39:20Z" uid="4467" user="Rosscoe" changeset="705922">
    <nd ref="150056673"/>
    <nd ref="150056693"/>
    <nd ref="150056710"/>
    <nd ref="150056724"/>
    <nd ref="178289066"/>
    <nd ref="178288395"/>
    <nd ref="178288291"/>
    <nd ref="256184250"/>
    <tag k="created_by" v="Potlatch 0.10f"/>
    <tag k="highway" v="tertiary"/>
    <tag k="name" v="Faust Street"/>
    <tag k="source" v="survey"/>
    <tag k="surface" v="paved"/>
  </way>
  <way id="16688462" version="3" timestamp="2010-07-09T02:59:22Z" uid="74617" user="JohnSmith" changeset="5170739">
    <nd ref="172524399"/>
    <nd ref="172524665"/>
    <nd ref="172524522"/>
    <nd ref="172524413"/>
    <tag k="highway" v="residential"/>
    <tag k="maxspeed" v="50"/>
    <tag k="maxspeed:source" v="default residential speed limit in Australia"/>
    <tag k="name" v="Balmoral Avenue"/>
  </way>
  <way id="16688462" version="4" timestamp="2012-01-15T16:19:14Z" uid="147510" user="woodpeck_fixbot" changeset="10398186">
    <nd ref="172524399"/>
    <nd ref="172524665"/>
    <nd ref="172524522"/>
    <nd ref="172524413"/>
    <tag k="highway" v="residential"/>
    <tag k="name" v="Balmoral Avenue"/>
  </way>
  <way id="16688463" version="3" timestamp="2010-07-09T03:01:32Z" uid="74617" user="JohnSmith" changeset="5170739">
    <nd ref="172524432"/>
    <nd ref="172524684"/>
    <nd ref="172524542"/>
    <nd ref="172524450"/>
    <tag k="highway" v="residential"/>
    <tag k="maxspeed" v="50"/>
    <tag k="maxspeed:source" v="default residential speed limit in Australia"/>
    <tag k="name" v="Waverly Parade"/>
  </way>
  <way id="16688463" version="4" timestamp="2012-01-15T16:19:18Z" uid="147510" user="woodpeck_fixbot" changeset="10398186">
    <nd ref="172524432"/>
    <nd ref="172524684"/>
    <nd ref="172524542"/>
    <nd ref="172524450"/>
    <tag k="highway" v="residential"/>
    <tag k="name" v="Waverly Parade"/>
  </way>
  <way id="16688465" version="3" timestamp="2010-07-09T02:57:56Z" uid="74617" user="JohnSmith" changeset="5170739">
    <nd ref="172524463"/>
    <nd ref="172524705"/>
    <nd ref="172524567"/>
    <nd ref="172524465"/>
    <tag k="highway" v="residential"/>
    <tag k="maxspeed" v="50"/>
    <tag k="maxspeed:source" v="default residential speed limit in Australia"/>
    <tag k="name" v="Grandview Avenue"/>
  </way>
  <way id="16688465" version="4" timestamp="2012-01-15T16:19:20Z" uid="147510" user="woodpeck_fixbot" changeset="10398186">
    <nd ref="172524463"/>
    <nd ref="172524705"/>
    <nd ref="172524567"/>
    <nd ref="172524465"/>
    <tag k="highway" v="residential"/>
    <tag k="name" v="Grandview Avenue"/>
  </way>
  <way id="16688467" version="4" timestamp="2010-07-09T03:02:12Z" uid="74617" user="JohnSmith" changeset="5170739">
    <nd ref="172524467"/>
    <nd ref="172524735"/>
    <nd ref="172524586"/>
    <nd ref="172524484"/>
    <tag k="highway" v="residential"/>
    <tag k="maxspeed" v="50"/>
    <tag k="maxspeed:source" v="default residential speed limit in Australia"/>
    <tag k="name" v="Springhall Parade"/>
  </way>
  <way id="16688467" version="5" timestamp="2012-01-15T16:19:21Z" uid="147510" user="woodpeck_fixbot" changeset="10398186">
    <nd ref="172524467"/>
    <nd ref="172524735"/>
    <nd ref="172524586"/>
    <nd ref="172524484"/>
    <tag k="highway" v="residential"/>
    <tag k="name" v="Springhall Parade"/>
  </way>
  <way id="16688469" version="5" timestamp="2010-07-09T02:56:30Z" uid="74617" user="JohnSmith" changeset="5170739">
    <nd ref="172524504"/>
    <nd ref="172524522"/>
    <nd ref="172524542"/>
    <nd ref="172524567"/>
    <nd ref="172524586"/>
    <nd ref="172524611"/>
    <tag k="highway" v="residential"/>
    <tag k="maxspeed" v="50"/>
    <tag k="maxspeed:source" v="default residential speed limit in Australia"/>
    <tag k="name" v="Princess Terrace"/>
  </way>
  <way id="16688469" version="6" timestamp="2012-01-15T16:19:24Z" uid="147510" user="woodpeck_fixbot" changeset="10398186">
    <nd ref="172524504"/>
    <nd ref="172524522"/>
    <nd ref="172524542"/>
    <nd ref="172524567"/>
    <nd ref="172524586"/>
    <nd ref="172524611"/>
    <tag k="highway" v="residential"/>
    <tag k="name" v="Princess Terrace"/>
  </way>
  <way id="16688471" version="5" timestamp="2010-07-09T03:00:42Z" uid="74617" user="JohnSmith" changeset="5170739">
    <nd ref="172524636"/>
    <nd ref="172524665"/>
    <nd ref="172524684"/>
    <nd ref="172524705"/>
    <nd ref="172524735"/>
    <nd ref="172524762"/>
    <tag k="highway" v="residential"/>
    <tag k="maxspeed" v="50"/>
    <tag k="maxspeed:source" v="default residential speed limit in Australia"/>
    <tag k="name" v="Brearley Parade"/>
  </way>
  <way id="16688471" version="6" timestamp="2012-01-15T16:19:26Z" uid="147510" user="woodpeck_fixbot" changeset="10398186">
    <nd ref="172524636"/>
    <nd ref="172524665"/>
    <nd ref="172524684"/>
    <nd ref="172524705"/>
    <nd ref="172524735"/>
    <nd ref="172524762"/>
    <tag k="highway" v="residential"/>
    <tag k="name" v="Brearley Parade"/>
  </way>
  <way id="16688667" version="1" timestamp="2007-12-16T06:43:25Z" uid="4467" user="Rosscoe" changeset="323265">
    <nd ref="129510279"/>
    <nd ref="129510531"/>
    <nd ref="129511163"/>
    <tag k="created_by" v="JOSM"/>
    <tag k="highway" v="trunk"/>
    <tag k="name" v="Bruce Hwy; Main Street"/>
    <tag k="ref" v="A1"/>
    <tag k="source" v="gpsdrivetrack"/>
    <tag k="surface" v="paved"/>
  </way>
  <way id="16688667" version="2" timestamp="2007-12-27T01:50:00Z" uid="4467" user="Rosscoe" changeset="434591">
    <nd ref="129510279"/>
    <nd ref="129510531"/>
    <nd ref="191218263"/>
    <nd ref="129511163"/>
    <tag k="created_by" v="JOSM"/>
    <tag k="highway" v="trunk"/>
    <tag k="name" v="Bruce Hwy; Main Street"/>
    <tag k="ref" v="A1"/>
    <tag k="source" v="gpsdrivetrack"/>
    <tag k="surface" v="paved"/>
  </way>
  <way id="16688667" version="3" timestamp="2008-01-10T02:35:23Z" uid="4467" user="Rosscoe" changeset="589280">
    <nd ref="129510279"/>
    <nd ref="129510531"/>
    <nd ref="191218263"/>
    <nd ref="129511163"/>
    <tag k="created_by" v="JOSM"/>
    <tag k="highway" v="trunk"/>
    <tag k="name" v="Bruce Hwy; Main Street"/>
    <tag k="ref" v="A1"/>
    <tag k="source" v="gpsdrivetrack"/>
    <tag k="surface" v="paved"/>
  </way>
  <way id="16688667" version="4" timestamp="2008-04-07T05:00:05Z" uid="4467" user="Rosscoe" changeset="70902">
    <nd ref="129510279"/>
    <nd ref="256186011"/>
    <nd ref="129510531"/>
    <nd ref="191218263"/>
    <nd ref="129511163"/>
    <tag k="created_by" v="JOSM"/>
    <tag k="highway" v="trunk"/>
    <tag k="name" v="Bruce Hwy; Main Street"/>
    <tag k="ref" v="A1"/>
    <tag k="source" v="gpsdrivetrack"/>
    <tag k="surface" v="paved"/>
  </way>
  <way id="16688667" version="5" timestamp="2008-08-20T10:45:55Z" uid="28406" user="Coco" changeset="332530">
    <nd ref="129510279"/>
    <nd ref="256186011"/>
    <nd ref="289635036"/>
    <nd ref="129510531"/>
    <nd ref="191218263"/>
    <nd ref="129511163"/>
    <tag k="created_by" v="JOSM"/>
    <tag k="highway" v="trunk"/>
    <tag k="name" v="Bruce Hwy; Main Street"/>
    <tag k="ref" v="A1"/>
    <tag k="source" v="gpsdrivetrack"/>
    <tag k="surface" v="paved"/>
  </way>
  <way id="16688667" version="6" timestamp="2008-10-14T22:02:14Z" uid="4467" user="Rosscoe" changeset="342472">
    <nd ref="129510279"/>
    <nd ref="256186011"/>
    <nd ref="289635036"/>
    <nd ref="129510531"/>
    <nd ref="191218263"/>
    <nd ref="129511163"/>
    <tag k="created_by" v="Potlatch 0.10e"/>
    <tag k="highway" v="trunk"/>
    <tag k="layer" v="1"/>
    <tag k="name" v="Bruce Hwy; Main Street"/>
    <tag k="ref" v="A1"/>
    <tag k="source" v="gpsdrivetrack"/>
    <tag k="surface" v="paved"/>
  </way>
  <way id="16688667" version="7" timestamp="2009-01-09T06:56:39Z" uid="4467" user="Rosscoe" changeset="759967">
    <nd ref="129510279"/>
    <nd ref="256186011"/>
    <nd ref="289635036"/>
    <nd ref="129510531"/>
    <nd ref="191218263"/>
    <nd ref="129511163"/>
    <tag k="created_by" v="Potlatch 0.10e"/>
    <tag k="highway" v="trunk"/>
    <tag k="layer" v="1"/>
    <tag k="maxspeed" v="60"/>
    <tag k="name" v="Bruce Hwy; Main Street"/>
    <tag k="ref" v="A1"/>
    <tag k="source" v="gpsdrivetrack"/>
    <tag k="surface" v="paved"/>
  </way>
  <way id="16688667" version="8" timestamp="2009-01-25T00:07:25Z" uid="4467" user="Rosscoe" changeset="832900">
    <nd ref="129510279"/>
    <nd ref="256186011"/>
    <nd ref="289635036"/>
    <nd ref="129510531"/>
    <nd ref="191218263"/>
    <nd ref="129511163"/>
    <tag k="created_by" v="Potlatch 0.10e"/>
    <tag k="highway" v="trunk"/>
    <tag k="layer" v="1"/>
    <tag k="maxspeed" v="60"/>
    <tag k="name" v="Bruce Hwy; Main Street"/>
    <tag k="ref" v="A1"/>
    <tag k="source" v="survey"/>
    <tag k="surface" v="paved"/>
  </way>
  <way id="16688667" version="9" timestamp="2009-01-25T02:52:04Z" uid="4467" user="Rosscoe" changeset="835181">
    <nd ref="129510279"/>
    <nd ref="256186011"/>
    <nd ref="289635036"/>
    <nd ref="129510531"/>
    <nd ref="191218263"/>
    <nd ref="129511163"/>
    <tag k="created_by" v="Potlatch 0.10e"/>
    <tag k="highway" v="trunk"/>
    <tag k="layer" v="1"/>
    <tag k="maxspeed" v="60"/>
    <tag k="name" v="Bruce Highway; Main Street"/>
    <tag k="ref" v="A1"/>
    <tag k="source" v="survey"/>
    <tag k="surface" v="paved"/>
  </way>
  <way id="16688667" version="10" timestamp="2009-05-21T12:02:37Z" uid="4467" user="Rosscoe" changeset="1275414">
    <nd ref="129510279"/>
    <nd ref="256186011"/>
    <nd ref="289635036"/>
    <nd ref="129510531"/>
    <nd ref="408915189"/>
    <nd ref="191218263"/>
    <nd ref="129511163"/>
    <tag k="created_by" v="Potlatch 0.10e"/>
    <tag k="highway" v="trunk"/>
    <tag k="layer" v="1"/>
    <tag k="maxspeed" v="60"/>
    <tag k="name" v="Bruce Highway; Main Street"/>
    <tag k="ref" v="A1"/>
    <tag k="source" v="survey"/>
    <tag k="surface" v="paved"/>
  </way>
  <way id="16688667" version="11" timestamp="2009-06-04T03:17:10Z" uid="4467" user="Rosscoe" changeset="1418127">
    <nd ref="129510279"/>
    <nd ref="256186011"/>
    <nd ref="289635036"/>
    <nd ref="129510531"/>
    <nd ref="408915189"/>
    <nd ref="191218263"/>
    <nd ref="415529969"/>
    <nd ref="129511163"/>
    <tag k="created_by" v="Potlatch 0.10e"/>
    <tag k="highway" v="trunk"/>
    <tag k="layer" v="1"/>
    <tag k="maxspeed" v="60"/>
    <tag k="name" v="Bruce Highway; Main Street"/>
    <tag k="ref" v="A1"/>
    <tag k="source" v="survey"/>
    <tag k="surface" v="paved"/>
  </way>
  <way id="16688667" version="12" timestamp="2009-08-16T14:59:22Z" uid="74617" user="JohnSmith" changeset="2166481">
    <nd ref="129510279"/>
    <nd ref="256186011"/>
    <nd ref="289635036"/>
    <nd ref="129510531"/>
    <nd ref="408915189"/>
    <nd ref="191218263"/>
    <nd ref="415529969"/>
    <nd ref="129511163"/>
    <tag k="highway" v="trunk"/>
    <tag k="maxspeed" v="60"/>
    <tag k="name" v="Main Street"/>
    <tag k="source" v="survey"/>
  </way>
  <way id="16688667" version="13" timestamp="2011-11-15T21:21:59Z" uid="35673" user="gzin" changeset="9839198">
    <nd ref="129510279"/>
    <nd ref="256186011"/>
    <nd ref="1504449492"/>
    <nd ref="289635036"/>
    <nd ref="1504449487"/>
    <nd ref="129510531"/>
    <nd ref="408915189"/>
    <nd ref="191218263"/>
    <nd ref="415529969"/>
    <nd ref="129511163"/>
    <tag k="highway" v="trunk"/>
    <tag k="maxspeed" v="60"/>
    <tag k="name" v="Main Street"/>
    <tag k="source" v="survey"/>
  </way>
  <way id="16688951" version="3" timestamp="2010-07-09T03:01:25Z" uid="74617" user="JohnSmith" changeset="5170739">
    <nd ref="172532138"/>
    <nd ref="172532226"/>
    <nd ref="172532271"/>
    <nd ref="172532160"/>
    <tag k="highway" v="residential"/>
    <tag k="maxspeed" v="50"/>
    <tag k="maxspeed:source" v="default residential speed limit in Australia"/>
    <tag k="name" v="Royal Parade"/>
  </way>
  <way id="16688951" version="4" timestamp="2012-01-15T16:19:27Z" uid="147510" user="woodpeck_fixbot" changeset="10398186">
    <nd ref="172532138"/>
    <nd ref="172532226"/>
    <nd ref="172532271"/>
    <nd ref="172532160"/>
    <tag k="highway" v="residential"/>
    <tag k="name" v="Royal Parade"/>
  </way>
  <way id="16688953" version="4" timestamp="2010-07-09T02:55:33Z" uid="74617" user="JohnSmith" changeset="5170739">
    <nd ref="172532179"/>
    <nd ref="172532248"/>
    <tag k="highway" v="residential"/>
    <tag k="maxspeed" v="50"/>
    <tag k="maxspeed:source" v="default residential speed limit in Australia"/>
    <tag k="name" v="Rose Street"/>
  </way>
  <way id="16688953" version="5" timestamp="2012-01-15T16:19:31Z" uid="147510" user="woodpeck_fixbot" changeset="10398186">
    <nd ref="172532179"/>
    <nd ref="172532248"/>
    <tag k="highway" v="residential"/>
    <tag k="name" v="Rose Street"/>
  </way>
</osm>
