<?xml version='1.0' encoding='UTF-8'?>
<osm version="0.6" generator="libosmium/2.20.0">
  <way id="16735109" version="3" timestamp="2010-07-08T00:23:40Z" uid="74617" user="JohnSmith" changeset="5162525">
    <nd ref="173027060"/>
    <nd ref="173028143"/>
    <tag k="highway" v="residential"/>
    <tag k="maxspeed" v="50"/>
    <tag k="maxspeed:source" v="default residential speed limit in Australia"/>
    <tag k="name" v="Essex Street"/>
  </way>
  <way id="16735109" version="4" timestamp="2012-01-15T16:24:42Z" uid="147510" user="woodpeck_fixbot" changeset="10398186">
    <nd ref="173027060"/>
    <nd ref="173028143"/>
    <tag k="highway" v="residential"/>
    <tag k="name" v="Essex Street"/>
  </way>
  <way id="16735464" version="3" timestamp="2010-07-08T00:27:09Z" uid="74617" user="JohnSmith" changeset="5162525">
    <nd ref="173029883"/>
    <nd ref="173031300"/>
    <nd ref="172994903"/>
    <nd ref="173031302"/>
    <nd ref="173031304"/>
    <tag k="highway" v="residential"/>
    <tag k="maxspeed" v="50"/>
    <tag k="maxspeed:source" v="default residential speed limit in Australia"/>
    <tag k="name" v="York Street"/>
  </way>
  <way id="16735464" version="4" timestamp="2012-01-15T16:24:43Z" uid="147510" user="woodpeck_fixbot" changeset="10398186">
    <nd ref="173029883"/>
    <nd ref="173031300"/>
    <nd ref="172994903"/>
    <nd ref="173031302"/>
    <nd ref="173031304"/>
    <tag k="highway" v="residential"/>
    <tag k="name" v="York Street"/>
  </way>
  <way id="16735562" version="3" timestamp="2010-07-08T00:24:43Z" uid="74617" user="JohnSmith" changeset="5162525">
    <nd ref="173031304"/>
    <nd ref="173032145"/>
    <tag k="highway" v="residential"/>
    <tag k="maxspeed" v="50"/>
    <tag k="maxspeed:source" v="default residential speed limit in Australia"/>
    <tag k="name" v="Bartil Close"/>
  </way>
  <way id="16735562" version="4" timestamp="2012-01-15T16:24:45Z" uid="147510" user="woodpeck_fixbot" changeset="10398186">
    <nd ref="173031304"/>
    <nd ref="173032145"/>
    <tag k="highway" v="residential"/>
    <tag k="name" v="Bartil Close"/>
  </way>
  <way id="16735649" version="3" timestamp="2010-07-08T00:22:03Z" uid="74617" user="JohnSmith" changeset="5162525">
    <nd ref="173033082"/>
    <nd ref="276382180"/>
    <nd ref="173033084"/>
    <nd ref="172981425"/>
    <nd ref="173033085"/>
    <tag k="highway" v="residential"/>
    <tag k="maxspeed" v="50"/>
    <tag k="maxspeed:source" v="default residential speed limit in Australia"/>
    <tag k="name" v="Gloucester Road"/>
  </way>
  <way id="16735649" version="4" timestamp="2012-01-15T16:24:46Z" uid="147510" user="woodpeck_fixbot" changeset="10398186">
    <nd ref="173033082"/>
    <nd ref="276382180"/>
    <nd ref="173033084"/>
    <nd ref="172981425"/>
    <nd ref="173033085"/>
    <tag k="highway" v="residential"/>
    <tag k="name" v="Gloucester Road"/>
  </way>
  <way id="16735886" version="2" timestamp="2010-07-08T00:28:02Z" uid="74617" user="JohnSmith" changeset="5162525">
    <nd ref="173034276"/>
    <nd ref="173035284"/>
    <nd ref="173035286"/>
    <nd ref="173035287"/>
    <tag k="highway" v="residential"/>
    <tag k="maxspeed" v="50"/>
    <tag k="maxspeed:source" v="default residential speed limit in Australia"/>
    <tag k="name" v="Constance Close"/>
  </way>
  <way id="16735886" version="3" timestamp="2012-01-15T16:24:47Z" uid="147510" user="woodpeck_fixbot" changeset="10398186">
    <nd ref="173034276"/>
    <nd ref="173035284"/>
    <nd ref="173035286"/>
    <nd ref="173035287"/>
    <tag k="highway" v="residential"/>
    <tag k="name" v="Constance Close"/>
  </way>
  <way id="16735999" version="2" timestamp="2009-09-30T13:08:31Z" uid="36809" user="pfoten_weg_!_" changeset="2687909">
    <nd ref="173036452"/>
    <nd ref="173036458"/>
    <nd ref="173036467"/>
    <nd ref="173036473"/>
    <nd ref="173036481"/>
    <nd ref="173036489"/>
    <nd ref="173036496"/>
    <nd ref="173036500"/>
    <nd ref="173036504"/>
    <nd ref="173036511"/>
    <nd ref="173036514"/>
    <nd ref="173036517"/>
    <nd ref="173036452"/>
    <tag k="building" v="yes"/>
  </way>
</osm>
