<?xml version='1.0' encoding='UTF-8'?>
<osm version="0.6" generator="libosmium/2.20.0">
  <way id="17169149" version="11" timestamp="2009-06-25T03:39:18Z" uid="23543" user="jkjk" changeset="1618000">
    <nd ref="25972787"/>
    <nd ref="366432118"/>
    <nd ref="21678382"/>
    <nd ref="65412365"/>
    <nd ref="316727512"/>
    <nd ref="21678381"/>
    <nd ref="370445946"/>
    <nd ref="25972624"/>
    <nd ref="316727496"/>
    <nd ref="21678380"/>
    <nd ref="365931815"/>
    <nd ref="366878018"/>
    <nd ref="65412360"/>
    <nd ref="366878021"/>
    <nd ref="21311927"/>
    <tag k="highway" v="secondary"/>
    <tag k="name" v="Bělocerkevská"/>
    <tag k="oneway" v="yes"/>
    <tag k="ref" v="243"/>
    <tag k="source:ref" v="HELP SERVICE - REMOTE SENSING spol. s r.o. http://www.bnhelp.cz"/>
  </way>
  <way id="17169149" version="12" timestamp="2009-11-08T10:06:33Z" uid="22108" user="afonin" changeset="3061924">
    <nd ref="25972787"/>
    <nd ref="366432118"/>
    <nd ref="21678382"/>
    <nd ref="65412365"/>
    <nd ref="316727512"/>
    <nd ref="21678381"/>
    <nd ref="370445946"/>
    <nd ref="25972624"/>
    <nd ref="316727496"/>
    <nd ref="21678380"/>
    <nd ref="365931815"/>
    <nd ref="366878018"/>
    <nd ref="65412360"/>
    <nd ref="366878021"/>
    <nd ref="21311927"/>
    <tag k="highway" v="secondary"/>
    <tag k="name" v="Bělocerkevská"/>
    <tag k="name:ru" v="Белоцерковская улица"/>
    <tag k="oneway" v="yes"/>
    <tag k="ref" v="243"/>
    <tag k="source:ref" v="HELP SERVICE - REMOTE SENSING spol. s r.o. http://www.bnhelp.cz"/>
  </way>
  <way id="17169149" version="13" timestamp="2010-09-25T20:38:40Z" uid="17615" user="Petr Dlouhý" changeset="5874395">
    <nd ref="25972787"/>
    <nd ref="366432118"/>
    <nd ref="21678382"/>
    <nd ref="65412365"/>
    <nd ref="316727512"/>
    <nd ref="21678381"/>
    <nd ref="370445946"/>
    <tag k="highway" v="secondary"/>
    <tag k="name" v="Bělocerkevská"/>
    <tag k="name:ru" v="Белоцерковская улица"/>
    <tag k="oneway" v="yes"/>
    <tag k="ref" v="243"/>
    <tag k="source:ref" v="HELP SERVICE - REMOTE SENSING spol. s r.o. http://www.bnhelp.cz"/>
  </way>
  <way id="17169150" version="8" timestamp="2009-11-18T13:09:29Z" uid="23543" user="jkjk" changeset="3150310">
    <nd ref="21678376"/>
    <nd ref="316729228"/>
    <nd ref="316729231"/>
    <nd ref="316729223"/>
    <nd ref="566622412"/>
    <nd ref="316729226"/>
    <nd ref="65412390"/>
    <nd ref="316816671"/>
    <nd ref="65412382"/>
    <nd ref="482474507"/>
    <nd ref="21678385"/>
    <tag k="highway" v="secondary"/>
    <tag k="lanes" v="2"/>
    <tag k="name" v="Bohdalecká"/>
    <tag k="oneway" v="yes"/>
    <tag k="ref" v="243"/>
  </way>
  <way id="17169150" version="9" timestamp="2011-05-03T13:55:45Z" uid="25867" user="adamos" changeset="8039626">
    <nd ref="21678376"/>
    <nd ref="1271133319"/>
    <nd ref="316729228"/>
    <nd ref="316729231"/>
    <nd ref="316729223"/>
    <nd ref="566622412"/>
    <nd ref="1271133333"/>
    <nd ref="316729226"/>
    <nd ref="65412390"/>
    <nd ref="316816671"/>
    <nd ref="65412382"/>
    <nd ref="482474507"/>
    <nd ref="21678385"/>
    <tag k="highway" v="secondary"/>
    <tag k="lanes" v="2"/>
    <tag k="name" v="Bohdalecká"/>
    <tag k="oneway" v="yes"/>
    <tag k="ref" v="243"/>
  </way>
  <way id="17169150" version="10" timestamp="2011-05-23T02:29:54Z" uid="3516" user="BiIbo" changeset="8222560">
    <nd ref="21678376"/>
    <nd ref="1296888956"/>
    <nd ref="1271133319"/>
    <nd ref="316729228"/>
    <nd ref="1296888905"/>
    <nd ref="316729231"/>
    <nd ref="316729223"/>
    <nd ref="566622412"/>
    <nd ref="1271133333"/>
    <nd ref="316729226"/>
    <nd ref="65412390"/>
    <nd ref="316816671"/>
    <nd ref="65412382"/>
    <nd ref="482474507"/>
    <nd ref="21678385"/>
    <tag k="highway" v="secondary"/>
    <tag k="lanes" v="2"/>
    <tag k="name" v="Bohdalecká"/>
    <tag k="oneway" v="yes"/>
    <tag k="ref" v="243"/>
  </way>
  <way id="17169150" version="11" timestamp="2011-08-15T13:46:02Z" uid="17615" user="Petr Dlouhý" changeset="9027234">
    <nd ref="21678376"/>
    <nd ref="1296888956"/>
    <nd ref="1271133319"/>
    <nd ref="316729228"/>
    <nd ref="1296888905"/>
    <nd ref="316729231"/>
    <nd ref="316729223"/>
    <nd ref="566622412"/>
    <nd ref="1271133333"/>
    <tag k="busway" v="lane"/>
    <tag k="cycleway:right" v="share_busway"/>
    <tag k="highway" v="secondary"/>
    <tag k="lanes" v="2"/>
    <tag k="name" v="Bohdalecká"/>
    <tag k="oneway" v="yes"/>
    <tag k="ref" v="243"/>
  </way>
  <way id="17169152" version="16" timestamp="2009-11-18T13:09:24Z" uid="23543" user="jkjk" changeset="3150310">
    <nd ref="704070"/>
    <nd ref="566622408"/>
    <nd ref="288127303"/>
    <nd ref="271278134"/>
    <nd ref="378188567"/>
    <nd ref="21678377"/>
    <nd ref="65472519"/>
    <nd ref="21678378"/>
    <nd ref="65472531"/>
    <nd ref="32814332"/>
    <nd ref="355951402"/>
    <tag k="highway" v="secondary"/>
    <tag k="lanes" v="2"/>
    <tag k="name" v="Chodovská"/>
    <tag k="oneway" v="yes"/>
    <tag k="ref" v="243"/>
  </way>
  <way id="17169152" version="17" timestamp="2010-10-14T18:57:17Z" uid="10345" user="Mormegil" changeset="6042044">
    <nd ref="704070"/>
    <nd ref="566622408"/>
    <nd ref="288127303"/>
    <nd ref="271278134"/>
    <nd ref="378188567"/>
    <nd ref="21678377"/>
    <nd ref="65472519"/>
    <nd ref="21678378"/>
    <nd ref="65472531"/>
    <nd ref="948470444"/>
    <nd ref="32814332"/>
    <nd ref="355951402"/>
    <tag k="highway" v="secondary"/>
    <tag k="lanes" v="2"/>
    <tag k="name" v="Chodovská"/>
    <tag k="oneway" v="yes"/>
    <tag k="ref" v="243"/>
  </way>
  <way id="17169152" version="18" timestamp="2011-05-23T02:29:52Z" uid="3516" user="BiIbo" changeset="8222560">
    <nd ref="704070"/>
    <nd ref="1296889014"/>
    <nd ref="566622408"/>
    <nd ref="288127303"/>
    <nd ref="271278134"/>
    <nd ref="378188567"/>
    <nd ref="21678377"/>
    <nd ref="65472519"/>
    <nd ref="21678378"/>
    <nd ref="65472531"/>
    <nd ref="948470444"/>
    <nd ref="32814332"/>
    <nd ref="355951402"/>
    <tag k="highway" v="secondary"/>
    <tag k="lanes" v="2"/>
    <tag k="name" v="Chodovská"/>
    <tag k="oneway" v="yes"/>
    <tag k="ref" v="243"/>
  </way>
  <way id="17169152" version="19" timestamp="2011-12-18T21:14:18Z" uid="527259" user="Vratislav Filler" changeset="10150903">
    <nd ref="704070"/>
    <nd ref="1296889014"/>
    <nd ref="566622408"/>
    <nd ref="288127303"/>
    <nd ref="271278134"/>
    <tag k="highway" v="secondary"/>
    <tag k="lanes" v="2"/>
    <tag k="name" v="Chodovská"/>
    <tag k="oneway" v="yes"/>
    <tag k="ref" v="243"/>
  </way>
  <way id="17169152" version="20" timestamp="2011-12-21T15:03:42Z" uid="10345" user="Mormegil" changeset="10172387">
    <nd ref="704070"/>
    <nd ref="1296889014"/>
    <nd ref="288127303"/>
    <nd ref="271278134"/>
    <tag k="highway" v="secondary"/>
    <tag k="lanes" v="2"/>
    <tag k="name" v="Chodovská"/>
    <tag k="oneway" v="yes"/>
    <tag k="ref" v="243"/>
  </way>
  <way id="17169157" version="13" timestamp="2009-06-26T17:20:47Z" uid="23543" user="jkjk" changeset="1642980">
    <nd ref="21678379"/>
    <nd ref="65472780"/>
    <nd ref="704065"/>
    <nd ref="65472630"/>
    <nd ref="704064"/>
    <tag k="created_by" v="Potlatch 0.10d"/>
    <tag k="highway" v="secondary"/>
    <tag k="int_ref" v="E 55;E 65"/>
    <tag k="lanes" v="2"/>
    <tag k="name" v="Spořilovská"/>
    <tag k="oneway" v="yes"/>
    <tag k="ref" v="243"/>
  </way>
  <way id="17169157" version="14" timestamp="2009-11-17T14:26:54Z" uid="23543" user="jkjk" changeset="3141443">
    <nd ref="21678379"/>
    <nd ref="65472780"/>
    <nd ref="704065"/>
    <nd ref="65472630"/>
    <nd ref="704064"/>
    <tag k="highway" v="trunk"/>
    <tag k="int_ref" v="E 55;E 65"/>
    <tag k="lanes" v="2"/>
    <tag k="name" v="Spořilovská"/>
    <tag k="oneway" v="yes"/>
    <tag k="ref" v="243"/>
  </way>
  <way id="17169157" version="15" timestamp="2011-04-03T22:02:00Z" uid="25867" user="adamos" changeset="7759558">
    <nd ref="21678379"/>
    <nd ref="65472780"/>
    <nd ref="704065"/>
    <nd ref="65472630"/>
    <nd ref="704064"/>
    <tag k="highway" v="trunk"/>
    <tag k="int_ref" v="E 55;E 65"/>
    <tag k="lanes" v="2"/>
    <tag k="maxspeed" v="50"/>
    <tag k="name" v="Spořilovská"/>
    <tag k="oneway" v="yes"/>
    <tag k="ref" v="243"/>
  </way>
  <way id="17169157" version="16" timestamp="2011-09-10T09:47:44Z" uid="17615" user="Petr Dlouhý" changeset="9260646">
    <nd ref="21678379"/>
    <nd ref="65472780"/>
    <nd ref="704065"/>
    <nd ref="65472630"/>
    <nd ref="704064"/>
    <tag k="highway" v="secondary"/>
    <tag k="lanes" v="2"/>
    <tag k="maxspeed" v="50"/>
    <tag k="name" v="Spořilovská"/>
    <tag k="oneway" v="yes"/>
    <tag k="ref" v="243"/>
  </way>
  <way id="17169159" version="10" timestamp="2009-06-25T03:39:17Z" uid="23543" user="jkjk" changeset="1618000">
    <nd ref="178304558"/>
    <nd ref="178304562"/>
    <nd ref="423017471"/>
    <nd ref="178304567"/>
    <nd ref="55189454"/>
    <nd ref="178304569"/>
    <nd ref="178304574"/>
    <nd ref="178304604"/>
    <tag k="highway" v="secondary"/>
    <tag k="name" v="Vinohradská"/>
    <tag k="oneway" v="yes"/>
    <tag k="ref" v="333"/>
    <tag k="source:ref" v="HELP SERVICE - REMOTE SENSING spol. s r.o. http://www.bnhelp.cz"/>
  </way>
  <way id="17169159" version="11" timestamp="2009-11-03T21:55:40Z" uid="3516" user="BiIbo" changeset="3028758">
    <nd ref="178304558"/>
    <nd ref="178304562"/>
    <nd ref="423017471"/>
    <nd ref="553453169"/>
    <nd ref="553453172"/>
    <nd ref="178304567"/>
    <nd ref="55189454"/>
    <nd ref="553453139"/>
    <nd ref="178304569"/>
    <nd ref="178304574"/>
    <nd ref="178304604"/>
    <tag k="highway" v="secondary"/>
    <tag k="name" v="Vinohradská"/>
    <tag k="oneway" v="yes"/>
    <tag k="ref" v="333"/>
    <tag k="source:ref" v="HELP SERVICE - REMOTE SENSING spol. s r.o. http://www.bnhelp.cz"/>
  </way>
  <way id="17169159" version="12" timestamp="2009-11-03T22:04:39Z" uid="3516" user="BiIbo" changeset="3028758">
    <nd ref="178304558"/>
    <nd ref="178304562"/>
    <nd ref="423017471"/>
    <nd ref="553453169"/>
    <nd ref="553453172"/>
    <nd ref="178304567"/>
    <nd ref="55189454"/>
    <nd ref="553453139"/>
    <nd ref="553466132"/>
    <nd ref="553466087"/>
    <nd ref="178304569"/>
    <nd ref="178304574"/>
    <nd ref="178304604"/>
    <tag k="highway" v="secondary"/>
    <tag k="name" v="Vinohradská"/>
    <tag k="oneway" v="yes"/>
    <tag k="ref" v="333"/>
    <tag k="source:ref" v="HELP SERVICE - REMOTE SENSING spol. s r.o. http://www.bnhelp.cz"/>
  </way>
  <way id="17169159" version="13" timestamp="2009-11-03T22:16:25Z" uid="3516" user="BiIbo" changeset="3028758">
    <nd ref="178304558"/>
    <nd ref="178304562"/>
    <nd ref="553481963"/>
    <nd ref="423017471"/>
    <nd ref="553453169"/>
    <nd ref="553453172"/>
    <nd ref="178304567"/>
    <nd ref="55189454"/>
    <nd ref="553453139"/>
    <nd ref="553466132"/>
    <nd ref="553466087"/>
    <nd ref="178304569"/>
    <nd ref="178304574"/>
    <nd ref="178304604"/>
    <tag k="highway" v="secondary"/>
    <tag k="name" v="Vinohradská"/>
    <tag k="oneway" v="yes"/>
    <tag k="ref" v="333"/>
    <tag k="source:ref" v="HELP SERVICE - REMOTE SENSING spol. s r.o. http://www.bnhelp.cz"/>
  </way>
  <way id="17169159" version="14" timestamp="2009-11-03T22:18:01Z" uid="3516" user="BiIbo" changeset="3028758">
    <nd ref="178304558"/>
    <nd ref="553484856"/>
    <nd ref="553484854"/>
    <nd ref="178304562"/>
    <nd ref="553484834"/>
    <nd ref="553481963"/>
    <nd ref="423017471"/>
    <nd ref="553453169"/>
    <nd ref="553453172"/>
    <nd ref="178304567"/>
    <nd ref="55189454"/>
    <nd ref="553453139"/>
    <nd ref="553466132"/>
    <nd ref="553466087"/>
    <nd ref="178304569"/>
    <nd ref="178304574"/>
    <nd ref="178304604"/>
    <tag k="highway" v="secondary"/>
    <tag k="name" v="Vinohradská"/>
    <tag k="oneway" v="yes"/>
    <tag k="ref" v="333"/>
    <tag k="source:ref" v="HELP SERVICE - REMOTE SENSING spol. s r.o. http://www.bnhelp.cz"/>
  </way>
  <way id="17169159" version="15" timestamp="2009-11-03T22:21:10Z" uid="3516" user="BiIbo" changeset="3028758">
    <nd ref="178304558"/>
    <nd ref="553489232"/>
    <nd ref="553484856"/>
    <nd ref="553484854"/>
    <nd ref="178304562"/>
    <nd ref="553484834"/>
    <nd ref="553481963"/>
    <nd ref="423017471"/>
    <nd ref="553453169"/>
    <nd ref="553453172"/>
    <nd ref="178304567"/>
    <nd ref="55189454"/>
    <nd ref="553453139"/>
    <nd ref="553466132"/>
    <nd ref="553466087"/>
    <nd ref="178304569"/>
    <nd ref="178304574"/>
    <nd ref="178304604"/>
    <tag k="highway" v="secondary"/>
    <tag k="name" v="Vinohradská"/>
    <tag k="oneway" v="yes"/>
    <tag k="ref" v="333"/>
    <tag k="source:ref" v="HELP SERVICE - REMOTE SENSING spol. s r.o. http://www.bnhelp.cz"/>
  </way>
  <way id="17169159" version="16" timestamp="2009-11-03T22:26:38Z" uid="3516" user="BiIbo" changeset="3028758">
    <nd ref="178304558"/>
    <nd ref="553489232"/>
    <nd ref="553492218"/>
    <nd ref="553484856"/>
    <nd ref="553484854"/>
    <nd ref="178304562"/>
    <nd ref="553484834"/>
    <nd ref="553481963"/>
    <nd ref="423017471"/>
    <nd ref="553453169"/>
    <nd ref="553453172"/>
    <nd ref="178304567"/>
    <nd ref="55189454"/>
    <nd ref="553453139"/>
    <nd ref="553466132"/>
    <nd ref="553466087"/>
    <nd ref="178304569"/>
    <nd ref="178304574"/>
    <nd ref="178304604"/>
    <tag k="highway" v="secondary"/>
    <tag k="name" v="Vinohradská"/>
    <tag k="oneway" v="yes"/>
    <tag k="ref" v="333"/>
    <tag k="source:ref" v="HELP SERVICE - REMOTE SENSING spol. s r.o. http://www.bnhelp.cz"/>
  </way>
  <way id="17169159" version="17" timestamp="2011-05-04T19:47:04Z" uid="10345" user="Mormegil" changeset="8052021">
    <nd ref="178304558"/>
    <nd ref="553489232"/>
    <nd ref="553492218"/>
    <nd ref="553484856"/>
    <nd ref="553484854"/>
    <nd ref="178304562"/>
    <nd ref="553484834"/>
    <nd ref="553481963"/>
    <nd ref="423017471"/>
    <nd ref="553453169"/>
    <nd ref="553453172"/>
    <nd ref="178304567"/>
    <nd ref="55189454"/>
    <nd ref="553453139"/>
    <nd ref="553466132"/>
    <nd ref="553466087"/>
    <nd ref="178304574"/>
    <nd ref="178304604"/>
    <tag k="highway" v="secondary"/>
    <tag k="name" v="Vinohradská"/>
    <tag k="oneway" v="yes"/>
    <tag k="ref" v="333"/>
    <tag k="source:ref" v="HELP SERVICE - REMOTE SENSING spol. s r.o. http://www.bnhelp.cz"/>
  </way>
  <way id="17169159" version="18" timestamp="2011-05-23T15:06:37Z" uid="3516" user="BiIbo" changeset="8225819">
    <nd ref="178304558"/>
    <nd ref="553489232"/>
    <nd ref="553492218"/>
    <nd ref="553484856"/>
    <nd ref="553484854"/>
    <nd ref="178304562"/>
    <nd ref="553484834"/>
    <nd ref="553481963"/>
    <nd ref="423017471"/>
    <nd ref="553453169"/>
    <nd ref="553453172"/>
    <nd ref="178304567"/>
    <nd ref="55189454"/>
    <nd ref="553453139"/>
    <nd ref="553466132"/>
    <nd ref="1297360199"/>
    <nd ref="553466087"/>
    <nd ref="178304574"/>
    <nd ref="178304604"/>
    <tag k="highway" v="secondary"/>
    <tag k="name" v="Vinohradská"/>
    <tag k="oneway" v="yes"/>
    <tag k="ref" v="333"/>
    <tag k="source:ref" v="HELP SERVICE - REMOTE SENSING spol. s r.o. http://www.bnhelp.cz"/>
  </way>
  <way id="17169159" version="19" timestamp="2011-08-30T21:19:23Z" uid="17615" user="Petr Dlouhý" changeset="9171681">
    <nd ref="178304558"/>
    <nd ref="553489232"/>
    <nd ref="553492218"/>
    <nd ref="553484856"/>
    <nd ref="553484854"/>
    <nd ref="178304562"/>
    <nd ref="553484834"/>
    <nd ref="553481963"/>
    <nd ref="423017471"/>
    <nd ref="553453169"/>
    <nd ref="553453172"/>
    <nd ref="178304567"/>
    <nd ref="55189454"/>
    <tag k="highway" v="secondary"/>
    <tag k="name" v="Vinohradská"/>
    <tag k="oneway" v="yes"/>
    <tag k="ref" v="333"/>
    <tag k="source:ref" v="HELP SERVICE - REMOTE SENSING spol. s r.o. http://www.bnhelp.cz"/>
  </way>
  <way id="17169159" version="20" timestamp="2011-12-21T15:59:07Z" uid="527259" user="Vratislav Filler" changeset="10172865">
    <nd ref="178304558"/>
    <nd ref="553489232"/>
    <nd ref="553492218"/>
    <nd ref="553484854"/>
    <nd ref="178304562"/>
    <nd ref="553484834"/>
    <nd ref="553481963"/>
    <nd ref="423017471"/>
    <nd ref="553453169"/>
    <nd ref="553453172"/>
    <nd ref="178304567"/>
    <nd ref="55189454"/>
    <tag k="highway" v="secondary"/>
    <tag k="name" v="Vinohradská"/>
    <tag k="oneway" v="yes"/>
    <tag k="ref" v="333"/>
    <tag k="source:ref" v="HELP SERVICE - REMOTE SENSING spol. s r.o. http://www.bnhelp.cz"/>
  </way>
  <way id="17169161" version="4" timestamp="2009-06-26T17:04:35Z" uid="23543" user="jkjk" changeset="1642841">
    <nd ref="25972914"/>
    <nd ref="21311902"/>
    <tag k="created_by" v="Potlatch 0.10c"/>
    <tag k="highway" v="residential"/>
    <tag k="name" v="Pod Židovskými hřbitovy"/>
  </way>
  <way id="17169346" version="3" timestamp="2010-08-14T13:48:49Z" uid="4467" user="Rosscoe" changeset="5490873">
    <nd ref="178282214"/>
    <nd ref="178305775"/>
    <nd ref="178305788"/>
    <nd ref="178305789"/>
    <nd ref="178305790"/>
    <nd ref="178305792"/>
    <nd ref="178305794"/>
    <nd ref="178305811"/>
    <nd ref="178305813"/>
    <nd ref="178305814"/>
    <nd ref="178305815"/>
    <nd ref="178305817"/>
    <nd ref="178305831"/>
    <nd ref="178275683"/>
    <nd ref="178305833"/>
    <nd ref="846172772"/>
    <nd ref="846172800"/>
    <nd ref="846172840"/>
    <nd ref="178259516"/>
    <tag k="highway" v="residential"/>
    <tag k="name" v="Hayes Avenue"/>
    <tag k="tiger:cfcc" v="A41"/>
    <tag k="tiger:county" v="Tolland, CT"/>
    <tag k="tiger:name_base" v="Hayes"/>
    <tag k="tiger:name_type" v="Ave"/>
    <tag k="tiger:reviewed" v="no"/>
    <tag k="tiger:separated" v="no"/>
    <tag k="tiger:source" v="tiger_import_dch_v0.6_20070809"/>
    <tag k="tiger:tlid" v="56996233:56996394"/>
    <tag k="tiger:upload_uuid" v="bulk_upload.pl-0f61ee35-a061-4bbe-810f-3b7b41308fb2"/>
    <tag k="tiger:zip_left" v="06029"/>
    <tag k="tiger:zip_right" v="06029"/>
  </way>
  <way id="17169346" version="4" timestamp="2010-10-06T18:46:55Z" uid="24403" user="Tomash Pilshchik" changeset="5971996">
    <nd ref="178282214"/>
    <nd ref="178305775"/>
    <nd ref="178305788"/>
    <nd ref="178305789"/>
    <nd ref="178305790"/>
    <nd ref="178305792"/>
    <nd ref="178305794"/>
    <nd ref="178305811"/>
    <nd ref="178305813"/>
    <nd ref="178305814"/>
    <nd ref="178305815"/>
    <nd ref="178305817"/>
    <nd ref="178305831"/>
    <nd ref="178275683"/>
    <nd ref="178305833"/>
    <nd ref="846172772"/>
    <nd ref="846172800"/>
    <nd ref="846172840"/>
    <nd ref="178259516"/>
    <tag k="highway" v="residential"/>
    <tag k="name" v="Hayes Avenue"/>
    <tag k="tiger:cfcc" v="A41"/>
    <tag k="tiger:county" v="Tolland, CT"/>
    <tag k="tiger:name_base" v="Hayes"/>
    <tag k="tiger:name_type" v="Ave"/>
    <tag k="tiger:reviewed" v="no"/>
    <tag k="tiger:separated" v="no"/>
    <tag k="tiger:source" v="tiger_import_dch_v0.6_20070809"/>
    <tag k="tiger:tlid" v="56996233:56996394"/>
    <tag k="tiger:zip_left" v="06029"/>
    <tag k="tiger:zip_right" v="06029"/>
  </way>
  <way id="17169593" version="3" timestamp="2010-08-18T08:00:25Z" uid="4467" user="Rosscoe" changeset="5524193">
    <nd ref="178285326"/>
    <nd ref="864106815"/>
    <nd ref="178307553"/>
    <nd ref="178307555"/>
    <nd ref="178307557"/>
    <nd ref="178307559"/>
    <nd ref="178285333"/>
    <tag k="highway" v="residential"/>
    <tag k="name" v="Center Street"/>
    <tag k="name_1" v="Center Rd"/>
    <tag k="tiger:cfcc" v="A41"/>
    <tag k="tiger:county" v="Tolland, CT"/>
    <tag k="tiger:name_base" v="Center"/>
    <tag k="tiger:name_base_1" v="Center"/>
    <tag k="tiger:name_type" v="St"/>
    <tag k="tiger:name_type_1" v="Rd"/>
    <tag k="tiger:reviewed" v="no"/>
    <tag k="tiger:separated" v="no"/>
    <tag k="tiger:source" v="tiger_import_dch_v0.6_20070809"/>
    <tag k="tiger:tlid" v="57001483"/>
    <tag k="tiger:upload_uuid" v="bulk_upload.pl-0f61ee35-a061-4bbe-810f-3b7b41308fb2"/>
    <tag k="tiger:zip_left" v="06232"/>
    <tag k="tiger:zip_right" v="06232"/>
  </way>
  <way id="17169593" version="4" timestamp="2011-10-06T04:12:59Z" uid="207745" user="NE2" changeset="9482794">
    <nd ref="178285326"/>
    <nd ref="864106815"/>
    <nd ref="178307553"/>
    <nd ref="178307555"/>
    <tag k="highway" v="residential"/>
    <tag k="name" v="Center Street"/>
    <tag k="name_1" v="Center Rd"/>
    <tag k="tiger:cfcc" v="A41"/>
    <tag k="tiger:county" v="Tolland, CT"/>
    <tag k="tiger:name_base" v="Center"/>
    <tag k="tiger:name_base_1" v="Center"/>
    <tag k="tiger:name_type" v="St"/>
    <tag k="tiger:name_type_1" v="Rd"/>
    <tag k="tiger:reviewed" v="no"/>
    <tag k="tiger:separated" v="no"/>
    <tag k="tiger:source" v="tiger_import_dch_v0.6_20070809"/>
    <tag k="tiger:tlid" v="57001483"/>
    <tag k="tiger:upload_uuid" v="bulk_upload.pl-0f61ee35-a061-4bbe-810f-3b7b41308fb2"/>
    <tag k="tiger:zip_left" v="06232"/>
    <tag k="tiger:zip_right" v="06232"/>
  </way>
  <way id="17169900" version="4" timestamp="2010-08-18T07:59:45Z" uid="4467" user="Rosscoe" changeset="5524185">
    <nd ref="178299061"/>
    <nd ref="178309238"/>
    <nd ref="178309248"/>
    <nd ref="178309251"/>
    <nd ref="178309256"/>
    <tag k="highway" v="residential"/>
    <tag k="name" v="Oak Farms Road"/>
    <tag k="tiger:cfcc" v="A41"/>
    <tag k="tiger:county" v="Tolland, CT"/>
    <tag k="tiger:name_base" v="Oak Farms"/>
    <tag k="tiger:name_type" v="Rd"/>
    <tag k="tiger:reviewed" v="no"/>
    <tag k="tiger:separated" v="no"/>
    <tag k="tiger:source" v="tiger_import_dch_v0.6_20070809"/>
    <tag k="tiger:tlid" v="57007966:57001269"/>
    <tag k="tiger:upload_uuid" v="bulk_upload.pl-0f61ee35-a061-4bbe-810f-3b7b41308fb2"/>
  </way>
</osm>
