<?xml version='1.0' encoding='UTF-8'?>
<osm version="0.6" generator="libosmium/2.20.0">
  <way id="17175007" version="2" timestamp="2008-01-07T00:43:49Z" uid="1066" user="pavel" changeset="565415">
    <nd ref="178343309"/>
    <nd ref="178343328"/>
    <tag k="created_by" v="JOSM"/>
    <tag k="highway" v="residential"/>
    <tag k="name" v="Brjanská"/>
  </way>
  <way id="17175009" version="2" timestamp="2008-01-07T00:45:22Z" uid="1066" user="pavel" changeset="565415">
    <nd ref="73489188"/>
    <nd ref="178343328"/>
    <nd ref="178343333"/>
    <nd ref="178343331"/>
    <tag k="created_by" v="JOSM"/>
    <tag k="highway" v="residential"/>
    <tag k="name" v="Studentská"/>
    <tag k="source:name" v="uir_adr"/>
  </way>
  <way id="17175009" version="3" timestamp="2009-02-11T11:57:51Z" uid="17615" user="Petr Dlouhý" changeset="343236">
    <nd ref="73489188"/>
    <nd ref="344422826"/>
    <nd ref="178343328"/>
    <nd ref="178343333"/>
    <nd ref="178343331"/>
    <tag k="created_by" v="JOSM"/>
    <tag k="highway" v="residential"/>
    <tag k="name" v="Studentská"/>
    <tag k="source:name" v="uir_adr"/>
  </way>
  <way id="17175009" version="4" timestamp="2012-01-07T13:39:41Z" uid="285123" user="Puclik1" changeset="10321093">
    <nd ref="73489188"/>
    <nd ref="344422826"/>
    <nd ref="178343328"/>
    <nd ref="178343333"/>
    <nd ref="1580902936"/>
    <nd ref="1580902937"/>
    <nd ref="178343331"/>
    <tag k="highway" v="residential"/>
    <tag k="name" v="Studentská"/>
    <tag k="source:name" v="uir_adr"/>
  </way>
  <way id="17175011" version="2" timestamp="2008-01-07T00:45:16Z" uid="1066" user="pavel" changeset="565415">
    <nd ref="178343333"/>
    <nd ref="178343335"/>
    <tag k="created_by" v="JOSM"/>
    <tag k="highway" v="residential"/>
    <tag k="name" v="Římská"/>
    <tag k="source:name" v="uir_adr"/>
  </way>
  <way id="17175011" version="3" timestamp="2012-01-07T13:39:42Z" uid="285123" user="Puclik1" changeset="10321093">
    <nd ref="178343333"/>
    <nd ref="1580902929"/>
    <nd ref="1580902923"/>
    <nd ref="178343335"/>
    <tag k="highway" v="residential"/>
    <tag k="name" v="Římská"/>
    <tag k="source:name" v="uir_adr"/>
  </way>
  <way id="17175012" version="2" timestamp="2008-01-07T00:45:34Z" uid="1066" user="pavel" changeset="565415">
    <nd ref="178343349"/>
    <nd ref="178343335"/>
    <nd ref="178343338"/>
    <nd ref="178343343"/>
    <nd ref="73438957"/>
    <tag k="created_by" v="JOSM"/>
    <tag k="highway" v="residential"/>
    <tag k="name" v="Míru"/>
    <tag k="source:name" v="uir_adr"/>
  </way>
  <way id="17175012" version="3" timestamp="2009-02-11T11:57:51Z" uid="17615" user="Petr Dlouhý" changeset="343236">
    <nd ref="178343349"/>
    <nd ref="178343335"/>
    <nd ref="178343338"/>
    <nd ref="178343343"/>
    <nd ref="344422825"/>
    <nd ref="73438957"/>
    <tag k="created_by" v="JOSM"/>
    <tag k="highway" v="residential"/>
    <tag k="name" v="Míru"/>
    <tag k="source:name" v="uir_adr"/>
  </way>
  <way id="17175012" version="4" timestamp="2009-08-29T07:02:14Z" uid="50217" user="michalelsCZ" changeset="2297793">
    <nd ref="178343349"/>
    <nd ref="178343335"/>
    <nd ref="178343338"/>
    <nd ref="178343343"/>
    <nd ref="344422825"/>
    <nd ref="73438957"/>
    <tag k="highway" v="residential"/>
    <tag k="name" v="Míru"/>
    <tag k="source:name" v="uir_adr"/>
  </way>
  <way id="17175012" version="5" timestamp="2012-01-07T13:39:40Z" uid="285123" user="Puclik1" changeset="10321093">
    <nd ref="178343349"/>
    <nd ref="178343335"/>
    <nd ref="178343338"/>
    <nd ref="178343343"/>
    <nd ref="1580902910"/>
    <nd ref="344422825"/>
    <nd ref="73438957"/>
    <tag k="highway" v="residential"/>
    <tag k="name" v="Míru"/>
    <tag k="source:name" v="uir_adr"/>
  </way>
  <way id="17175014" version="2" timestamp="2008-01-07T00:44:30Z" uid="1066" user="pavel" changeset="565415">
    <nd ref="178343331"/>
    <nd ref="178343349"/>
    <tag k="created_by" v="JOSM"/>
    <tag k="highway" v="residential"/>
    <tag k="name" v="Sevastopolská"/>
    <tag k="source" v="UHUL:ortofoto"/>
  </way>
  <way id="17175014" version="3" timestamp="2008-09-29T21:37:08Z" uid="17615" user="Petr Dlouhý" changeset="720136">
    <nd ref="178343331"/>
    <nd ref="178343349"/>
    <tag k="highway" v="residential"/>
    <tag k="name" v="Sevastopolská"/>
    <tag k="source" v="uhul:ortofoto"/>
  </way>
  <way id="17175014" version="4" timestamp="2012-01-07T13:39:40Z" uid="285123" user="Puclik1" changeset="10321093">
    <nd ref="178343331"/>
    <nd ref="1580902939"/>
    <nd ref="1580902934"/>
    <nd ref="1580902931"/>
    <nd ref="178343349"/>
    <tag k="highway" v="residential"/>
    <tag k="name" v="Sevastopolská"/>
    <tag k="source" v="uhul:ortofoto"/>
  </way>
  <way id="17175207" version="3" timestamp="2009-10-12T22:06:33Z" uid="36809" user="pfoten_weg_!_" changeset="2831291">
    <nd ref="178344672"/>
    <nd ref="178344673"/>
    <nd ref="178344674"/>
    <nd ref="178344675"/>
    <nd ref="178329243"/>
    <nd ref="178338736"/>
    <nd ref="178344676"/>
    <nd ref="178337816"/>
    <tag k="highway" v="track"/>
    <tag k="tracktype" v="grade2"/>
  </way>
  <way id="17175207" version="4" timestamp="2010-08-14T16:18:21Z" uid="323389" user="Michael_H" changeset="5492198">
    <nd ref="178344672"/>
    <nd ref="860288160"/>
    <nd ref="178344673"/>
    <nd ref="178344674"/>
    <nd ref="178344675"/>
    <nd ref="178329243"/>
    <nd ref="178338736"/>
    <nd ref="178344676"/>
    <nd ref="178337816"/>
    <tag k="highway" v="track"/>
    <tag k="surface" v="gravel"/>
    <tag k="tracktype" v="grade2"/>
  </way>
  <way id="17175789" version="4" timestamp="2008-07-03T22:13:27Z" uid="6975" user="ulfl" changeset="386611">
    <nd ref="178348596"/>
    <nd ref="178348597"/>
    <nd ref="178348598"/>
    <nd ref="178348600"/>
    <nd ref="178348601"/>
    <nd ref="178348603"/>
    <nd ref="178348604"/>
    <nd ref="178348605"/>
    <nd ref="178348606"/>
    <nd ref="178348608"/>
    <nd ref="178348596"/>
    <tag k="landuse" v="recreation_ground"/>
    <tag k="name" v="Leap Valley"/>
    <tag k="natural" v="wetland; woodland, stream"/>
  </way>
  <way id="17175789" version="5" timestamp="2009-11-16T18:35:45Z" uid="57932" user="Strange but untrue" changeset="3134538">
    <nd ref="178348596"/>
    <nd ref="178348597"/>
    <nd ref="178348598"/>
    <nd ref="178348600"/>
    <nd ref="178348601"/>
    <nd ref="178348603"/>
    <nd ref="178348604"/>
    <nd ref="178348605"/>
    <nd ref="178348606"/>
    <nd ref="178348608"/>
    <nd ref="178348596"/>
    <tag k="landuse" v="recreation_ground"/>
    <tag k="name" v="Leap Valley"/>
    <tag k="natural" v="wetland;wood;stream"/>
  </way>
  <way id="17175789" version="6" timestamp="2010-05-04T15:34:43Z" uid="21972" user="Tim Rawling" changeset="4605187">
    <nd ref="178348596"/>
    <nd ref="178348597"/>
    <nd ref="178348598"/>
    <nd ref="178348600"/>
    <nd ref="178348601"/>
    <nd ref="178348603"/>
    <nd ref="721046884"/>
    <nd ref="178348604"/>
    <nd ref="178348605"/>
    <nd ref="178348606"/>
    <nd ref="178348608"/>
    <nd ref="178348596"/>
    <tag k="landuse" v="recreation_ground"/>
    <tag k="name" v="Leap Valley"/>
    <tag k="natural" v="wetland;wood;stream"/>
  </way>
  <way id="17175789" version="7" timestamp="2010-07-08T16:06:38Z" uid="21972" user="Tim Rawling" changeset="5167171">
    <nd ref="178348596"/>
    <nd ref="178348597"/>
    <nd ref="178348598"/>
    <nd ref="178348600"/>
    <nd ref="178348601"/>
    <nd ref="178348603"/>
    <nd ref="721046884"/>
    <nd ref="806760011"/>
    <nd ref="178348604"/>
    <nd ref="178348605"/>
    <nd ref="178348606"/>
    <nd ref="178348608"/>
    <nd ref="178348596"/>
    <tag k="landuse" v="recreation_ground"/>
    <tag k="name" v="Leap Valley"/>
    <tag k="natural" v="wetland;wood;stream"/>
  </way>
</osm>
