<?xml version='1.0' encoding='UTF-8'?>
<osm version="0.6" generator="libosmium/2.20.0">
  <way id="17194672" version="1" timestamp="2007-12-19T11:18:01Z" uid="7617" user="Franc" changeset="360949">
    <nd ref="18449008"/>
    <nd ref="26359538"/>
    <tag k="created_by" v="Potlatch 0.5d"/>
    <tag k="highway" v="secondary"/>
  </way>
  <way id="17194672" version="2" timestamp="2009-08-29T12:52:08Z" uid="47419" user="ploppy" changeset="2301260">
    <nd ref="18449008"/>
    <nd ref="26359538"/>
    <nd ref="18449012"/>
    <nd ref="18449014"/>
    <nd ref="356626815"/>
    <nd ref="342979229"/>
    <nd ref="18449018"/>
    <nd ref="18449023"/>
    <nd ref="18449026"/>
    <nd ref="15446538"/>
    <tag k="highway" v="secondary"/>
    <tag k="name" v="O&apos;Dea Avenue"/>
    <tag k="source" v="survey"/>
  </way>
  <way id="17194672" version="3" timestamp="2009-11-14T12:04:41Z" uid="117890" user="Jonathan Trott" changeset="3112508">
    <nd ref="18449008"/>
    <nd ref="26359538"/>
    <nd ref="18449012"/>
    <nd ref="18449014"/>
    <nd ref="356626815"/>
    <nd ref="342979229"/>
    <nd ref="18449018"/>
    <nd ref="18449023"/>
    <nd ref="18449026"/>
    <nd ref="15446538"/>
    <tag k="highway" v="secondary"/>
    <tag k="name" v="O&apos;Dea Avenue"/>
    <tag k="source" v="survey"/>
  </way>
  <way id="17194672" version="4" timestamp="2009-11-17T06:24:51Z" uid="5753" user="yewenyi" changeset="3138575">
    <nd ref="18449008"/>
    <nd ref="26359538"/>
    <nd ref="18449012"/>
    <nd ref="18449014"/>
    <nd ref="356626815"/>
    <nd ref="342979229"/>
    <nd ref="18449018"/>
    <nd ref="18449023"/>
    <nd ref="18449026"/>
    <nd ref="15446538"/>
    <tag k="bicycle" v="yes"/>
    <tag k="highway" v="secondary"/>
    <tag k="lcn" v="yes"/>
    <tag k="name" v="O&apos;Dea Avenue"/>
    <tag k="source" v="survey"/>
  </way>
  <way id="17194672" version="5" timestamp="2009-12-04T08:04:33Z" uid="7617" user="Franc" changeset="3286537">
    <nd ref="18449008"/>
    <nd ref="26359538"/>
    <nd ref="18449012"/>
    <nd ref="18449014"/>
    <nd ref="580661843"/>
    <nd ref="356626815"/>
    <nd ref="342979229"/>
    <nd ref="18449018"/>
    <nd ref="18449023"/>
    <nd ref="18449026"/>
    <nd ref="15446538"/>
    <tag k="bicycle" v="yes"/>
    <tag k="highway" v="secondary"/>
    <tag k="lcn" v="yes"/>
    <tag k="name" v="O&apos;Dea Avenue"/>
    <tag k="source" v="survey"/>
  </way>
  <way id="17194672" version="6" timestamp="2010-02-04T23:25:02Z" uid="1679" user="andrewpmk" changeset="3794426">
    <nd ref="18449008"/>
    <nd ref="26359538"/>
    <tag k="bicycle" v="yes"/>
    <tag k="highway" v="secondary"/>
    <tag k="lcn" v="yes"/>
    <tag k="name" v="O&apos;Dea Avenue"/>
    <tag k="oneway" v="yes"/>
    <tag k="source" v="survey"/>
  </way>
  <way id="17194672" version="7" timestamp="2010-12-31T08:39:18Z" uid="389517" user="good2010" changeset="6817269">
    <nd ref="18449008"/>
    <nd ref="26359538"/>
    <tag k="bicycle" v="yes"/>
    <tag k="highway" v="secondary"/>
    <tag k="lcn" v="yes"/>
    <tag k="maxspeed" v="60"/>
    <tag k="name" v="O&apos;Dea Avenue"/>
    <tag k="oneway" v="yes"/>
    <tag k="source" v="survey"/>
  </way>
  <way id="17194672" version="8" timestamp="2011-03-20T18:48:59Z" uid="47419" user="ploppy" changeset="7620128">
    <nd ref="18449008"/>
    <nd ref="26359538"/>
    <tag k="highway" v="secondary"/>
  </way>
  <way id="17194674" version="1" timestamp="2007-12-19T11:18:02Z" uid="7617" user="Franc" changeset="360949">
    <nd ref="26359538"/>
    <nd ref="18449012"/>
    <nd ref="18449014"/>
    <nd ref="18449018"/>
    <nd ref="18449023"/>
    <nd ref="18449026"/>
    <nd ref="15446538"/>
    <tag k="created_by" v="Potlatch 0.5d"/>
    <tag k="highway" v="secondary"/>
    <tag k="name" v="O&apos;Dea Avenue"/>
    <tag k="source" v="survey"/>
  </way>
  <way id="17194674" version="2" timestamp="2009-02-07T13:13:10Z" uid="7617" user="Franc" changeset="238602">
    <nd ref="26359538"/>
    <nd ref="18449012"/>
    <nd ref="18449014"/>
    <nd ref="342979229"/>
    <nd ref="18449018"/>
    <nd ref="18449023"/>
    <nd ref="18449026"/>
    <nd ref="15446538"/>
    <tag k="created_by" v="Potlatch 0.5d"/>
    <tag k="highway" v="secondary"/>
    <tag k="name" v="O&apos;Dea Avenue"/>
    <tag k="source" v="survey"/>
  </way>
  <way id="17194674" version="3" timestamp="2009-03-07T09:51:25Z" uid="67896" user="mrpulley" changeset="753113">
    <nd ref="26359538"/>
    <nd ref="18449012"/>
    <nd ref="18449014"/>
    <nd ref="356626815"/>
    <nd ref="342979229"/>
    <nd ref="18449018"/>
    <nd ref="18449023"/>
    <nd ref="18449026"/>
    <nd ref="15446538"/>
    <tag k="created_by" v="Potlatch 0.10f"/>
    <tag k="highway" v="secondary"/>
    <tag k="name" v="O&apos;Dea Avenue"/>
    <tag k="source" v="survey"/>
  </way>
  <way id="17194674" version="4" timestamp="2009-08-29T12:52:08Z" uid="47419" user="ploppy" changeset="2301260"/>
  <way id="17194677" version="1" timestamp="2007-12-19T11:18:03Z" uid="7617" user="Franc" changeset="360949">
    <nd ref="178455105"/>
    <nd ref="26359517"/>
    <tag k="created_by" v="YahooApplet 1.0"/>
    <tag k="highway" v="unclassified"/>
    <tag k="name" v="Wolseley Grove"/>
  </way>
  <way id="17194677" version="2" timestamp="2009-11-14T12:05:46Z" uid="117890" user="Jonathan Trott" changeset="3112508">
    <nd ref="178455105"/>
    <nd ref="26359517"/>
    <tag k="highway" v="unclassified"/>
    <tag k="name" v="Wolseley Grove"/>
  </way>
  <way id="17194677" version="3" timestamp="2010-12-19T10:51:04Z" uid="7617" user="Franc" changeset="6704320">
    <nd ref="26359517"/>
    <nd ref="1048298604"/>
    <nd ref="1048298694"/>
    <nd ref="178455105"/>
    <tag k="highway" v="unclassified"/>
    <tag k="name" v="Wolseley Grove"/>
    <tag k="oneway" v="yes"/>
  </way>
  <way id="17194677" version="4" timestamp="2010-12-31T08:39:16Z" uid="389517" user="good2010" changeset="6817269">
    <nd ref="26359517"/>
    <nd ref="1048298604"/>
    <nd ref="1048298694"/>
    <nd ref="178455105"/>
    <tag k="highway" v="unclassified"/>
    <tag k="lanes" v="1"/>
    <tag k="name" v="Wolseley Grove"/>
    <tag k="oneway" v="yes"/>
  </way>
  <way id="17194682" version="1" timestamp="2007-12-19T11:18:04Z" uid="7617" user="Franc" changeset="360949">
    <nd ref="178455058"/>
    <nd ref="178455069"/>
    <nd ref="178455082"/>
    <nd ref="178455094"/>
    <tag k="created_by" v="JOSM"/>
    <tag k="highway" v="unclassified"/>
    <tag k="name" v="Wolseley Grove"/>
    <tag k="oneway" v="yes"/>
  </way>
  <way id="17194682" version="2" timestamp="2009-11-14T12:05:42Z" uid="117890" user="Jonathan Trott" changeset="3112508">
    <nd ref="178455058"/>
    <nd ref="178455069"/>
    <nd ref="178455082"/>
    <nd ref="178455094"/>
    <tag k="highway" v="unclassified"/>
    <tag k="name" v="Wolseley Grove"/>
    <tag k="oneway" v="yes"/>
  </way>
  <way id="17194690" version="1" timestamp="2007-12-19T11:18:05Z" uid="7617" user="Franc" changeset="360949">
    <nd ref="178455197"/>
    <nd ref="178455208"/>
    <tag k="created_by" v="JOSM"/>
    <tag k="highway" v="unclassified"/>
    <tag k="name" v="Leyland Grove"/>
  </way>
  <way id="17194690" version="2" timestamp="2009-11-14T12:05:44Z" uid="117890" user="Jonathan Trott" changeset="3112508">
    <nd ref="178455197"/>
    <nd ref="178455208"/>
    <tag k="highway" v="unclassified"/>
    <tag k="name" v="Leyland Grove"/>
  </way>
  <way id="17194694" version="1" timestamp="2007-12-19T11:18:06Z" uid="7617" user="Franc" changeset="360949">
    <nd ref="178455220"/>
    <nd ref="178455334"/>
    <nd ref="178455280"/>
    <nd ref="178455228"/>
    <nd ref="178455241"/>
    <tag k="created_by" v="JOSM"/>
    <tag k="highway" v="unclassified"/>
    <tag k="name" v="Hutchinson Walk"/>
    <tag k="oneway" v="yes"/>
  </way>
  <way id="17194694" version="2" timestamp="2009-11-14T12:05:46Z" uid="117890" user="Jonathan Trott" changeset="3112508">
    <nd ref="178455220"/>
    <nd ref="178455334"/>
    <nd ref="178455280"/>
    <nd ref="178455228"/>
    <nd ref="178455241"/>
    <tag k="highway" v="unclassified"/>
    <tag k="name" v="Hutchinson Walk"/>
    <tag k="oneway" v="yes"/>
  </way>
  <way id="17194698" version="1" timestamp="2007-12-19T11:18:07Z" uid="7617" user="Franc" changeset="360949">
    <nd ref="178455260"/>
    <nd ref="178455280"/>
    <nd ref="178455299"/>
    <tag k="created_by" v="JOSM"/>
    <tag k="highway" v="unclassified"/>
    <tag k="name" v="George Julius Avenue"/>
    <tag k="source" v="survey"/>
  </way>
  <way id="17194698" version="2" timestamp="2009-11-14T12:05:46Z" uid="117890" user="Jonathan Trott" changeset="3112508">
    <nd ref="178455260"/>
    <nd ref="178455280"/>
    <nd ref="178455299"/>
    <tag k="highway" v="unclassified"/>
    <tag k="name" v="George Julius Avenue"/>
    <tag k="source" v="survey"/>
  </way>
  <way id="17194703" version="1" timestamp="2007-12-19T11:18:08Z" uid="7617" user="Franc" changeset="360949">
    <nd ref="178455317"/>
    <nd ref="178455417"/>
    <nd ref="178455334"/>
    <nd ref="178455350"/>
    <tag k="created_by" v="JOSM"/>
    <tag k="highway" v="unclassified"/>
    <tag k="name" v="Ascot Avenue"/>
    <tag k="source" v="survey"/>
  </way>
  <way id="17194703" version="2" timestamp="2009-11-14T12:05:46Z" uid="117890" user="Jonathan Trott" changeset="3112508">
    <nd ref="178455317"/>
    <nd ref="178455417"/>
    <nd ref="178455334"/>
    <nd ref="178455350"/>
    <tag k="highway" v="unclassified"/>
    <tag k="name" v="Ascot Avenue"/>
    <tag k="source" v="survey"/>
  </way>
  <way id="17194707" version="1" timestamp="2007-12-19T11:18:08Z" uid="7617" user="Franc" changeset="360949">
    <nd ref="26359530"/>
    <nd ref="178455393"/>
    <nd ref="178455260"/>
    <nd ref="178455411"/>
    <nd ref="178455317"/>
    <tag k="created_by" v="YahooApplet 1.0"/>
    <tag k="highway" v="unclassified"/>
    <tag k="name" v="Kirby Walk"/>
  </way>
  <way id="17194707" version="2" timestamp="2009-11-14T12:05:42Z" uid="117890" user="Jonathan Trott" changeset="3112508">
    <nd ref="26359530"/>
    <nd ref="178455393"/>
    <nd ref="178455260"/>
    <nd ref="178455411"/>
    <nd ref="178455317"/>
    <tag k="highway" v="unclassified"/>
    <tag k="name" v="Kirby Walk"/>
  </way>
  <way id="17194711" version="1" timestamp="2007-12-19T11:18:09Z" uid="7617" user="Franc" changeset="360949">
    <nd ref="178455425"/>
    <nd ref="178455435"/>
    <nd ref="178455466"/>
    <tag k="created_by" v="JOSM"/>
    <tag k="highway" v="unclassified"/>
    <tag k="name" v="Morris Grove"/>
    <tag k="oneway" v="yes"/>
    <tag k="source" v="survey"/>
  </way>
  <way id="17194711" version="2" timestamp="2009-11-14T12:05:43Z" uid="117890" user="Jonathan Trott" changeset="3112508">
    <nd ref="178455425"/>
    <nd ref="178455435"/>
    <nd ref="178455466"/>
    <tag k="highway" v="unclassified"/>
    <tag k="name" v="Morris Grove"/>
    <tag k="oneway" v="yes"/>
    <tag k="source" v="survey"/>
  </way>
  <way id="17194713" version="1" timestamp="2007-12-19T11:18:10Z" uid="7617" user="Franc" changeset="360949">
    <nd ref="178455481"/>
    <nd ref="178455499"/>
    <nd ref="178455518"/>
    <tag k="created_by" v="JOSM"/>
    <tag k="highway" v="unclassified"/>
    <tag k="name" v="Morris Grove"/>
    <tag k="oneway" v="yes"/>
    <tag k="source" v="survey"/>
  </way>
  <way id="17194713" version="2" timestamp="2009-11-14T12:05:43Z" uid="117890" user="Jonathan Trott" changeset="3112508">
    <nd ref="178455481"/>
    <nd ref="178455499"/>
    <nd ref="178455518"/>
    <tag k="highway" v="unclassified"/>
    <tag k="name" v="Morris Grove"/>
    <tag k="oneway" v="yes"/>
    <tag k="source" v="survey"/>
  </way>
  <way id="17194715" version="1" timestamp="2007-12-19T11:18:11Z" uid="7617" user="Franc" changeset="360949">
    <nd ref="178455541"/>
    <nd ref="178455550"/>
    <tag k="created_by" v="JOSM"/>
    <tag k="highway" v="unclassified"/>
    <tag k="name" v="Austin Grove"/>
    <tag k="oneway" v="yes"/>
    <tag k="source" v="survey"/>
  </way>
  <way id="17194715" version="2" timestamp="2009-11-14T12:05:44Z" uid="117890" user="Jonathan Trott" changeset="3112508">
    <nd ref="178455541"/>
    <nd ref="178455550"/>
    <tag k="highway" v="unclassified"/>
    <tag k="name" v="Austin Grove"/>
    <tag k="oneway" v="yes"/>
    <tag k="source" v="survey"/>
  </way>
  <way id="17194716" version="1" timestamp="2007-12-19T11:18:11Z" uid="7617" user="Franc" changeset="360949">
    <nd ref="178455566"/>
    <nd ref="178455588"/>
    <tag k="created_by" v="JOSM"/>
    <tag k="highway" v="unclassified"/>
    <tag k="name" v="Austin Grove"/>
    <tag k="oneway" v="yes"/>
    <tag k="source" v="survey"/>
  </way>
  <way id="17194716" version="2" timestamp="2009-11-14T12:05:44Z" uid="117890" user="Jonathan Trott" changeset="3112508">
    <nd ref="178455566"/>
    <nd ref="178455588"/>
    <tag k="highway" v="unclassified"/>
    <tag k="name" v="Austin Grove"/>
    <tag k="oneway" v="yes"/>
    <tag k="source" v="survey"/>
  </way>
  <way id="17194718" version="1" timestamp="2007-12-19T11:18:12Z" uid="7617" user="Franc" changeset="360949">
    <nd ref="178455611"/>
    <nd ref="178455628"/>
    <tag k="created_by" v="JOSM"/>
    <tag k="highway" v="unclassified"/>
    <tag k="name" v="Levey Walk"/>
    <tag k="oneway" v="yes"/>
  </way>
  <way id="17194718" version="2" timestamp="2009-11-14T12:05:43Z" uid="117890" user="Jonathan Trott" changeset="3112508">
    <nd ref="178455611"/>
    <nd ref="178455628"/>
    <tag k="highway" v="unclassified"/>
    <tag k="name" v="Levey Walk"/>
    <tag k="oneway" v="yes"/>
  </way>
  <way id="17194718" version="3" timestamp="2011-10-13T05:25:22Z" uid="536877" user="SeanCohen" changeset="9544307">
    <nd ref="178455611"/>
    <nd ref="178455628"/>
    <tag k="highway" v="unclassified"/>
    <tag k="name" v="Levy Walk"/>
    <tag k="oneway" v="yes"/>
  </way>
</osm>
