<?xml version='1.0' encoding='UTF-8'?>
<osm version="0.6" generator="libosmium/2.20.0">
  <way id="17210116" version="3" timestamp="2010-07-09T08:02:28Z" uid="74617" user="JohnSmith" changeset="5171412">
    <nd ref="178564506"/>
    <nd ref="178565324"/>
    <nd ref="178565325"/>
    <nd ref="178565326"/>
    <nd ref="178565328"/>
    <nd ref="178565329"/>
    <tag k="highway" v="residential"/>
    <tag k="maxspeed" v="50"/>
    <tag k="maxspeed:source" v="default residential speed limit in Australia"/>
    <tag k="name" v="Exmouth Place"/>
  </way>
  <way id="17210116" version="4" timestamp="2012-01-15T17:13:33Z" uid="147510" user="woodpeck_fixbot" changeset="10398186">
    <nd ref="178564506"/>
    <nd ref="178565324"/>
    <nd ref="178565325"/>
    <nd ref="178565326"/>
    <nd ref="178565328"/>
    <nd ref="178565329"/>
    <tag k="highway" v="residential"/>
    <tag k="name" v="Exmouth Place"/>
  </way>
  <way id="17210265" version="3" timestamp="2010-07-09T08:10:11Z" uid="74617" user="JohnSmith" changeset="5171412">
    <nd ref="178566108"/>
    <nd ref="178566356"/>
    <nd ref="178566358"/>
    <tag k="highway" v="residential"/>
    <tag k="maxspeed" v="50"/>
    <tag k="maxspeed:source" v="default residential speed limit in Australia"/>
    <tag k="name" v="Campden Court"/>
  </way>
  <way id="17210265" version="4" timestamp="2012-01-15T17:13:34Z" uid="147510" user="woodpeck_fixbot" changeset="10398186">
    <nd ref="178566108"/>
    <nd ref="178566356"/>
    <nd ref="178566358"/>
    <tag k="highway" v="residential"/>
    <tag k="name" v="Campden Court"/>
  </way>
  <way id="17210367" version="3" timestamp="2010-08-22T18:48:18Z" uid="4467" user="Rosscoe" changeset="5564270">
    <nd ref="178567212"/>
    <nd ref="178567213"/>
    <nd ref="178567215"/>
    <nd ref="178567217"/>
    <nd ref="178567218"/>
    <nd ref="178567219"/>
    <nd ref="178567220"/>
    <nd ref="178567221"/>
    <nd ref="178567223"/>
    <nd ref="178567225"/>
    <nd ref="178567227"/>
    <nd ref="178567229"/>
    <nd ref="178567230"/>
    <nd ref="178567231"/>
    <nd ref="178567232"/>
    <nd ref="178567233"/>
    <nd ref="178567234"/>
    <nd ref="178567236"/>
    <nd ref="178567238"/>
    <nd ref="178567240"/>
    <nd ref="178567242"/>
    <nd ref="178567244"/>
    <nd ref="178564203"/>
    <nd ref="178567246"/>
    <nd ref="178567247"/>
    <nd ref="178567248"/>
    <nd ref="178567249"/>
    <nd ref="178567250"/>
    <nd ref="178567251"/>
    <nd ref="178567252"/>
    <nd ref="178567253"/>
    <nd ref="178567254"/>
    <nd ref="178557825"/>
    <nd ref="178567256"/>
    <nd ref="178567258"/>
    <nd ref="178567259"/>
    <nd ref="178567260"/>
    <nd ref="178567261"/>
    <nd ref="178567262"/>
    <nd ref="178567264"/>
    <nd ref="178567266"/>
    <nd ref="178567267"/>
    <nd ref="178560477"/>
    <tag k="highway" v="tertiary"/>
    <tag k="name" v="Crystal Road"/>
    <tag k="name_1" v="Road 189"/>
    <tag k="ref" v="RD 189"/>
    <tag k="tiger:cfcc" v="A41"/>
    <tag k="tiger:county" v="Kent, DE"/>
    <tag k="tiger:name_base" v="Crystal"/>
    <tag k="tiger:name_base_1" v="Road 189"/>
    <tag k="tiger:name_type" v="Rd"/>
    <tag k="tiger:reviewed" v="no"/>
    <tag k="tiger:separated" v="no"/>
    <tag k="tiger:source" v="tiger_import_dch_v0.6_20070809"/>
    <tag k="tiger:tlid" v="68086888:68086622:68086870:68086633:68086660"/>
    <tag k="tiger:upload_uuid" v="bulk_upload.pl-a58b231f-4f32-4f51-ae8e-e061fdd79350"/>
    <tag k="tiger:zip_left" v="19953"/>
  </way>
  <way id="17210392" version="3" timestamp="2010-07-09T07:57:48Z" uid="74617" user="JohnSmith" changeset="5171412">
    <nd ref="178567137"/>
    <nd ref="178567373"/>
    <nd ref="178567374"/>
    <nd ref="178567375"/>
    <nd ref="178567376"/>
    <nd ref="178563277"/>
    <tag k="highway" v="residential"/>
    <tag k="maxspeed" v="50"/>
    <tag k="maxspeed:source" v="default residential speed limit in Australia"/>
    <tag k="name" v="Jurien Way"/>
  </way>
  <way id="17210392" version="4" timestamp="2012-01-15T17:13:35Z" uid="147510" user="woodpeck_fixbot" changeset="10398186">
    <nd ref="178567137"/>
    <nd ref="178567373"/>
    <nd ref="178567374"/>
    <nd ref="178567375"/>
    <nd ref="178567376"/>
    <nd ref="178563277"/>
    <tag k="highway" v="residential"/>
    <tag k="name" v="Jurien Way"/>
  </way>
  <way id="17210428" version="6" timestamp="2010-05-07T14:41:25Z" uid="4467" user="Rosscoe" changeset="4630660">
    <nd ref="178567116"/>
    <nd ref="178567810"/>
    <nd ref="178567811"/>
    <nd ref="178567812"/>
    <nd ref="178567815"/>
    <nd ref="178567871"/>
    <nd ref="178567816"/>
    <tag k="highway" v="tertiary"/>
    <tag k="name" v="Tullamore Avenue"/>
  </way>
  <way id="17210428" version="7" timestamp="2010-05-17T13:23:18Z" uid="4467" user="Rosscoe" changeset="4728762">
    <nd ref="178567116"/>
    <nd ref="178567810"/>
    <nd ref="178567811"/>
    <nd ref="178567812"/>
    <nd ref="178567815"/>
    <nd ref="178567871"/>
    <nd ref="737347055"/>
    <nd ref="178567816"/>
    <tag k="highway" v="tertiary"/>
    <tag k="name" v="Tullamore Avenue"/>
  </way>
  <way id="17210428" version="8" timestamp="2010-09-17T12:36:26Z" uid="294850" user="Q4004" changeset="5803250">
    <nd ref="178567116"/>
    <nd ref="178567810"/>
    <nd ref="178567811"/>
    <nd ref="178567812"/>
    <nd ref="178567815"/>
    <nd ref="178567871"/>
    <nd ref="737347055"/>
    <nd ref="178567816"/>
    <tag k="highway" v="secondary"/>
    <tag k="name" v="Tullamore Avenue"/>
  </way>
  <way id="17210439" version="3" timestamp="2010-07-06T17:14:03Z" uid="74617" user="JohnSmith" changeset="5152225">
    <nd ref="178567975"/>
    <nd ref="178567976"/>
    <nd ref="178563550"/>
    <tag k="highway" v="residential"/>
    <tag k="maxspeed" v="50"/>
    <tag k="maxspeed:source" v="default residential speed limit in Australia"/>
    <tag k="name" v="Cutter Court"/>
  </way>
  <way id="17210439" version="4" timestamp="2010-08-12T10:39:15Z" uid="4467" user="Rosscoe" changeset="5471917">
    <nd ref="178567975"/>
    <nd ref="178567976"/>
    <nd ref="178563550"/>
    <tag k="highway" v="residential"/>
    <tag k="maxspeed" v="50"/>
    <tag k="name" v="Cutter Court"/>
    <tag k="source:maxspeed" v="default residential speed limit in Australia"/>
  </way>
  <way id="17210439" version="5" timestamp="2012-01-03T04:01:04Z" uid="349913" user="Peter W34" changeset="10278241"/>
  <way id="17210466" version="4" timestamp="2010-07-09T08:04:35Z" uid="74617" user="JohnSmith" changeset="5171412">
    <nd ref="178567871"/>
    <nd ref="178568132"/>
    <nd ref="178568406"/>
    <nd ref="178568134"/>
    <nd ref="178568136"/>
    <tag k="highway" v="residential"/>
    <tag k="maxspeed" v="50"/>
    <tag k="maxspeed:source" v="default residential speed limit in Australia"/>
    <tag k="name" v="Shelburn Way"/>
  </way>
  <way id="17210466" version="5" timestamp="2012-01-15T17:13:37Z" uid="147510" user="woodpeck_fixbot" changeset="10398186">
    <nd ref="178567871"/>
    <nd ref="178568132"/>
    <nd ref="178568406"/>
    <nd ref="178568134"/>
    <nd ref="178568136"/>
    <tag k="highway" v="residential"/>
    <tag k="name" v="Shelburn Way"/>
  </way>
  <way id="17210510" version="3" timestamp="2010-07-09T07:56:21Z" uid="74617" user="JohnSmith" changeset="5171412">
    <nd ref="178567810"/>
    <nd ref="178568380"/>
    <nd ref="178568136"/>
    <nd ref="178568381"/>
    <nd ref="178568382"/>
    <tag k="highway" v="residential"/>
    <tag k="maxspeed" v="50"/>
    <tag k="maxspeed:source" v="default residential speed limit in Australia"/>
    <tag k="name" v="Ripplewood Avenue"/>
  </way>
  <way id="17210510" version="4" timestamp="2012-01-15T17:13:38Z" uid="147510" user="woodpeck_fixbot" changeset="10398186">
    <nd ref="178567810"/>
    <nd ref="178568380"/>
    <nd ref="178568136"/>
    <nd ref="178568381"/>
    <nd ref="178568382"/>
    <tag k="highway" v="residential"/>
    <tag k="name" v="Ripplewood Avenue"/>
  </way>
  <way id="17210595" version="3" timestamp="2009-01-01T12:21:49Z" uid="43863" user="Rundling" changeset="702079">
    <nd ref="178578043"/>
    <nd ref="178568942"/>
    <nd ref="324240224"/>
    <nd ref="178568943"/>
    <nd ref="178568944"/>
    <nd ref="178568945"/>
    <nd ref="178568946"/>
    <nd ref="178578042"/>
    <tag k="created_by" v="Potlatch 0.5d"/>
    <tag k="highway" v="track"/>
  </way>
  <way id="17210610" version="7" timestamp="2010-07-09T07:59:49Z" uid="74617" user="JohnSmith" changeset="5171412">
    <nd ref="178568406"/>
    <nd ref="178575258"/>
    <nd ref="178568382"/>
    <nd ref="178569096"/>
    <nd ref="178569097"/>
    <nd ref="178569098"/>
    <nd ref="178569099"/>
    <nd ref="178569101"/>
    <nd ref="178569926"/>
    <nd ref="178569104"/>
    <nd ref="178567125"/>
    <nd ref="178569106"/>
    <nd ref="178569107"/>
    <nd ref="178569108"/>
    <nd ref="178569109"/>
    <nd ref="178569351"/>
    <nd ref="178569110"/>
    <tag k="highway" v="residential"/>
    <tag k="maxspeed" v="50"/>
    <tag k="maxspeed:source" v="default residential speed limit in Australia"/>
    <tag k="name" v="Parkside Drive"/>
  </way>
  <way id="17210610" version="8" timestamp="2010-09-25T13:27:59Z" uid="346429" user="Bluey" changeset="5870910">
    <nd ref="178568406"/>
    <nd ref="178575258"/>
    <nd ref="178568382"/>
    <nd ref="178569096"/>
    <nd ref="178569097"/>
    <nd ref="178569098"/>
    <nd ref="178569099"/>
    <nd ref="178569101"/>
    <nd ref="178569926"/>
    <nd ref="178569104"/>
    <nd ref="178567125"/>
    <nd ref="178569106"/>
    <nd ref="178569107"/>
    <nd ref="178569108"/>
    <nd ref="178569109"/>
    <nd ref="178569351"/>
    <nd ref="925368655"/>
    <nd ref="178569110"/>
    <tag k="highway" v="residential"/>
    <tag k="maxspeed" v="50"/>
    <tag k="maxspeed:source" v="default residential speed limit in Australia"/>
    <tag k="name" v="Parkside Drive"/>
  </way>
  <way id="17210610" version="9" timestamp="2012-01-15T17:13:39Z" uid="147510" user="woodpeck_fixbot" changeset="10398186">
    <nd ref="178568406"/>
    <nd ref="178575258"/>
    <nd ref="178568382"/>
    <nd ref="178569096"/>
    <nd ref="178569097"/>
    <nd ref="178569098"/>
    <nd ref="178569099"/>
    <nd ref="178569101"/>
    <nd ref="178569926"/>
    <nd ref="178569104"/>
    <nd ref="178567125"/>
    <nd ref="178569106"/>
    <nd ref="178569107"/>
    <nd ref="178569108"/>
    <nd ref="178569109"/>
    <nd ref="178569351"/>
    <nd ref="925368655"/>
    <nd ref="178569110"/>
    <tag k="highway" v="residential"/>
    <tag k="name" v="Parkside Drive"/>
  </way>
  <way id="17210639" version="4" timestamp="2010-07-09T07:54:48Z" uid="74617" user="JohnSmith" changeset="5171412">
    <nd ref="178567123"/>
    <nd ref="178569348"/>
    <nd ref="605460536"/>
    <nd ref="178569350"/>
    <nd ref="178569351"/>
    <tag k="highway" v="residential"/>
    <tag k="maxspeed" v="50"/>
    <tag k="maxspeed:source" v="default residential speed limit in Australia"/>
    <tag k="name" v="Spelhurst Terrace"/>
  </way>
  <way id="17210639" version="5" timestamp="2012-01-15T17:13:40Z" uid="147510" user="woodpeck_fixbot" changeset="10398186">
    <nd ref="178567123"/>
    <nd ref="178569348"/>
    <nd ref="605460536"/>
    <nd ref="178569350"/>
    <nd ref="178569351"/>
    <tag k="highway" v="residential"/>
    <tag k="name" v="Spelhurst Terrace"/>
  </way>
  <way id="17210662" version="3" timestamp="2010-07-09T08:06:55Z" uid="74617" user="JohnSmith" changeset="5171412">
    <nd ref="178569350"/>
    <nd ref="178569534"/>
    <tag k="highway" v="residential"/>
    <tag k="maxspeed" v="50"/>
    <tag k="maxspeed:source" v="default residential speed limit in Australia"/>
    <tag k="name" v="Avon Court"/>
  </way>
  <way id="17210662" version="4" timestamp="2012-01-15T17:13:41Z" uid="147510" user="woodpeck_fixbot" changeset="10398186">
    <nd ref="178569350"/>
    <nd ref="178569534"/>
    <tag k="highway" v="residential"/>
    <tag k="name" v="Avon Court"/>
  </way>
  <way id="17210715" version="3" timestamp="2010-07-09T07:59:47Z" uid="74617" user="JohnSmith" changeset="5171412">
    <nd ref="178567117"/>
    <nd ref="178569922"/>
    <nd ref="178569924"/>
    <nd ref="178569925"/>
    <nd ref="178569926"/>
    <tag k="highway" v="residential"/>
    <tag k="maxspeed" v="50"/>
    <tag k="maxspeed:source" v="default residential speed limit in Australia"/>
    <tag k="name" v="Helena Crescent"/>
  </way>
  <way id="17210715" version="4" timestamp="2012-01-15T17:13:42Z" uid="147510" user="woodpeck_fixbot" changeset="10398186">
    <nd ref="178567117"/>
    <nd ref="178569922"/>
    <nd ref="178569924"/>
    <nd ref="178569925"/>
    <nd ref="178569926"/>
    <tag k="highway" v="residential"/>
    <tag k="name" v="Helena Crescent"/>
  </way>
  <way id="17210751" version="4" timestamp="2010-07-09T08:00:38Z" uid="74617" user="JohnSmith" changeset="5171412">
    <nd ref="178567115"/>
    <nd ref="178570186"/>
    <nd ref="178570476"/>
    <nd ref="178570187"/>
    <nd ref="178570188"/>
    <tag k="highway" v="residential"/>
    <tag k="maxspeed" v="50"/>
    <tag k="maxspeed:source" v="default residential speed limit in Australia"/>
    <tag k="name" v="Crossford Street"/>
  </way>
  <way id="17210751" version="5" timestamp="2012-01-15T17:13:44Z" uid="147510" user="woodpeck_fixbot" changeset="10398186">
    <nd ref="178567115"/>
    <nd ref="178570186"/>
    <nd ref="178570476"/>
    <nd ref="178570187"/>
    <nd ref="178570188"/>
    <tag k="highway" v="residential"/>
    <tag k="name" v="Crossford Street"/>
  </way>
  <way id="17210773" version="2" timestamp="2010-07-06T17:17:58Z" uid="74617" user="JohnSmith" changeset="5152225">
    <nd ref="178570347"/>
    <nd ref="178570348"/>
    <nd ref="178570349"/>
    <nd ref="178570350"/>
    <nd ref="178570351"/>
    <tag k="highway" v="residential"/>
    <tag k="maxspeed" v="50"/>
    <tag k="maxspeed:source" v="default residential speed limit in Australia"/>
    <tag k="name" v="Plimsoll Place"/>
  </way>
  <way id="17210773" version="3" timestamp="2010-08-12T10:38:37Z" uid="4467" user="Rosscoe" changeset="5471917">
    <nd ref="178570347"/>
    <nd ref="178570348"/>
    <nd ref="178570349"/>
    <nd ref="178570350"/>
    <nd ref="178570351"/>
    <tag k="highway" v="residential"/>
    <tag k="maxspeed" v="50"/>
    <tag k="name" v="Plimsoll Place"/>
    <tag k="source:maxspeed" v="default residential speed limit in Australia"/>
  </way>
  <way id="17210773" version="4" timestamp="2012-01-03T04:01:05Z" uid="349913" user="Peter W34" changeset="10278241"/>
  <way id="17210800" version="3" timestamp="2010-07-09T07:54:44Z" uid="74617" user="JohnSmith" changeset="5171412">
    <nd ref="178570187"/>
    <nd ref="178570469"/>
    <nd ref="178570470"/>
    <nd ref="178570471"/>
    <nd ref="178570473"/>
    <nd ref="178570474"/>
    <nd ref="178570475"/>
    <nd ref="178570476"/>
    <tag k="highway" v="residential"/>
    <tag k="maxspeed" v="50"/>
    <tag k="maxspeed:source" v="default residential speed limit in Australia"/>
    <tag k="name" v="Kelton Way"/>
  </way>
  <way id="17210800" version="4" timestamp="2012-01-15T17:13:46Z" uid="147510" user="woodpeck_fixbot" changeset="10398186">
    <nd ref="178570187"/>
    <nd ref="178570469"/>
    <nd ref="178570470"/>
    <nd ref="178570471"/>
    <nd ref="178570473"/>
    <nd ref="178570474"/>
    <nd ref="178570475"/>
    <nd ref="178570476"/>
    <tag k="highway" v="residential"/>
    <tag k="name" v="Kelton Way"/>
  </way>
  <way id="17210851" version="4" timestamp="2010-05-17T13:23:23Z" uid="4467" user="Rosscoe" changeset="4728762">
    <nd ref="32678246"/>
    <nd ref="178571083"/>
    <nd ref="178570188"/>
    <nd ref="178570755"/>
    <nd ref="178567815"/>
    <tag k="highway" v="residential"/>
    <tag k="name" v="Kenmare Avenue"/>
  </way>
  <way id="17210851" version="5" timestamp="2010-07-09T08:07:08Z" uid="74617" user="JohnSmith" changeset="5171412">
    <nd ref="32678246"/>
    <nd ref="178571083"/>
    <nd ref="178570188"/>
    <nd ref="178570755"/>
    <nd ref="178567815"/>
    <tag k="highway" v="residential"/>
    <tag k="maxspeed" v="50"/>
    <tag k="maxspeed:source" v="default residential speed limit in Australia"/>
    <tag k="name" v="Kenmare Avenue"/>
  </way>
  <way id="17210851" version="6" timestamp="2010-09-25T06:30:27Z" uid="346429" user="Bluey" changeset="5868317">
    <nd ref="32678246"/>
    <nd ref="925058432"/>
    <nd ref="178571083"/>
    <nd ref="178570188"/>
    <nd ref="178570755"/>
    <nd ref="178567815"/>
    <tag k="highway" v="residential"/>
    <tag k="maxspeed" v="50"/>
    <tag k="maxspeed:source" v="default residential speed limit in Australia"/>
    <tag k="name" v="Kenmare Avenue"/>
  </way>
  <way id="17210851" version="7" timestamp="2010-10-10T09:23:48Z" uid="346429" user="Bluey" changeset="5999964">
    <nd ref="32678246"/>
    <nd ref="925058432"/>
    <nd ref="943359286"/>
    <nd ref="178571083"/>
    <nd ref="178570188"/>
    <nd ref="178570755"/>
    <nd ref="178567815"/>
    <tag k="highway" v="residential"/>
    <tag k="maxspeed" v="50"/>
    <tag k="maxspeed:source" v="default residential speed limit in Australia"/>
    <tag k="name" v="Kenmare Avenue"/>
  </way>
  <way id="17210851" version="8" timestamp="2011-01-25T05:16:49Z" uid="189263" user="wildmyron" changeset="7080447">
    <nd ref="32678246"/>
    <nd ref="32678246"/>
    <nd ref="925058432"/>
    <nd ref="943359286"/>
    <nd ref="178571083"/>
    <nd ref="178570188"/>
    <nd ref="178570755"/>
    <nd ref="178567815"/>
    <tag k="highway" v="residential"/>
    <tag k="maxspeed" v="50"/>
    <tag k="maxspeed:source" v="default residential speed limit in Australia"/>
    <tag k="name" v="Kenmare Avenue"/>
  </way>
  <way id="17210851" version="9" timestamp="2011-01-25T19:56:47Z" uid="70696" user="xybot" changeset="7086919">
    <nd ref="32678246"/>
    <nd ref="925058432"/>
    <nd ref="943359286"/>
    <nd ref="178571083"/>
    <nd ref="178570188"/>
    <nd ref="178570755"/>
    <nd ref="178567815"/>
    <tag k="highway" v="residential"/>
    <tag k="maxspeed" v="50"/>
    <tag k="maxspeed:source" v="default residential speed limit in Australia"/>
    <tag k="name" v="Kenmare Avenue"/>
  </way>
  <way id="17210851" version="10" timestamp="2012-01-15T17:13:48Z" uid="147510" user="woodpeck_fixbot" changeset="10398186">
    <nd ref="32678246"/>
    <nd ref="925058432"/>
    <nd ref="943359286"/>
    <nd ref="178571083"/>
    <nd ref="178570188"/>
    <nd ref="178570755"/>
    <nd ref="178567815"/>
    <tag k="highway" v="residential"/>
    <tag k="name" v="Kenmare Avenue"/>
  </way>
  <way id="17210890" version="3" timestamp="2010-05-17T13:23:22Z" uid="4467" user="Rosscoe" changeset="4728762">
    <nd ref="178570755"/>
    <nd ref="178571000"/>
    <nd ref="737347012"/>
    <nd ref="737347005"/>
    <nd ref="178571001"/>
    <tag k="highway" v="residential"/>
    <tag k="name" v="Cranwell Street"/>
  </way>
  <way id="17210890" version="4" timestamp="2010-07-09T08:02:52Z" uid="74617" user="JohnSmith" changeset="5171412">
    <nd ref="178570755"/>
    <nd ref="178571000"/>
    <nd ref="737347012"/>
    <nd ref="737347005"/>
    <nd ref="178571001"/>
    <tag k="highway" v="residential"/>
    <tag k="maxspeed" v="50"/>
    <tag k="maxspeed:source" v="default residential speed limit in Australia"/>
    <tag k="name" v="Cranwell Street"/>
  </way>
  <way id="17210890" version="5" timestamp="2012-01-15T17:13:50Z" uid="147510" user="woodpeck_fixbot" changeset="10398186">
    <nd ref="178570755"/>
    <nd ref="178571000"/>
    <nd ref="737347012"/>
    <nd ref="737347005"/>
    <nd ref="178571001"/>
    <tag k="highway" v="residential"/>
    <tag k="name" v="Cranwell Street"/>
  </way>
  <way id="17210940" version="3" timestamp="2011-02-19T11:43:46Z" uid="4467" user="Rosscoe" changeset="7330870">
    <nd ref="178571296"/>
    <nd ref="178571298"/>
    <tag k="highway" v="residential"/>
  </way>
  <way id="17210942" version="5" timestamp="2010-05-17T13:23:22Z" uid="4467" user="Rosscoe" changeset="4728762">
    <nd ref="178571083"/>
    <nd ref="178571309"/>
    <nd ref="178571672"/>
    <nd ref="178571479"/>
    <nd ref="737346977"/>
    <nd ref="737346961"/>
    <nd ref="737347049"/>
    <nd ref="178571310"/>
    <tag k="highway" v="residential"/>
    <tag k="name" v="Wicklow Street"/>
  </way>
  <way id="17210942" version="6" timestamp="2010-07-09T07:58:28Z" uid="74617" user="JohnSmith" changeset="5171412">
    <nd ref="178571083"/>
    <nd ref="178571309"/>
    <nd ref="178571672"/>
    <nd ref="178571479"/>
    <nd ref="737346977"/>
    <nd ref="737346961"/>
    <nd ref="737347049"/>
    <nd ref="178571310"/>
    <tag k="highway" v="residential"/>
    <tag k="maxspeed" v="50"/>
    <tag k="maxspeed:source" v="default residential speed limit in Australia"/>
    <tag k="name" v="Wicklow Street"/>
  </way>
  <way id="17210942" version="7" timestamp="2012-01-15T17:13:53Z" uid="147510" user="woodpeck_fixbot" changeset="10398186">
    <nd ref="178571083"/>
    <nd ref="178571309"/>
    <nd ref="178571672"/>
    <nd ref="178571479"/>
    <nd ref="737346977"/>
    <nd ref="737346961"/>
    <nd ref="737347049"/>
    <nd ref="178571310"/>
    <tag k="highway" v="residential"/>
    <tag k="name" v="Wicklow Street"/>
  </way>
  <way id="17210954" version="5" timestamp="2010-05-07T14:41:22Z" uid="4467" user="Rosscoe" changeset="4630660">
    <nd ref="178571478"/>
    <nd ref="197084975"/>
    <nd ref="178571479"/>
    <tag k="created_by" v="Potlatch 0.6"/>
    <tag k="highway" v="residential"/>
    <tag k="name" v="Burnley Street"/>
  </way>
  <way id="17210954" version="6" timestamp="2010-05-17T13:23:24Z" uid="4467" user="Rosscoe" changeset="4728762">
    <nd ref="737347039"/>
    <nd ref="178571478"/>
    <tag k="highway" v="service"/>
    <tag k="source" v="nearmap"/>
  </way>
  <way id="17210963" version="3" timestamp="2010-07-06T17:17:02Z" uid="74617" user="JohnSmith" changeset="5152225">
    <nd ref="178571531"/>
    <nd ref="178571532"/>
    <nd ref="178571534"/>
    <nd ref="178571296"/>
    <nd ref="178571535"/>
    <nd ref="178571536"/>
    <nd ref="178571537"/>
    <nd ref="178571538"/>
    <tag k="highway" v="unclassified"/>
    <tag k="maxspeed" v="50"/>
    <tag k="maxspeed:source" v="default residential speed limit in Australia"/>
  </way>
  <way id="17210963" version="4" timestamp="2010-08-12T10:39:19Z" uid="4467" user="Rosscoe" changeset="5471917">
    <nd ref="178571531"/>
    <nd ref="178571532"/>
    <nd ref="178571534"/>
    <nd ref="178571296"/>
    <nd ref="178571535"/>
    <nd ref="178571536"/>
    <nd ref="178571537"/>
    <nd ref="178571538"/>
    <tag k="highway" v="unclassified"/>
    <tag k="maxspeed" v="50"/>
    <tag k="source:maxspeed" v="default residential speed limit in Australia"/>
  </way>
  <way id="17210963" version="5" timestamp="2012-01-15T17:13:54Z" uid="147510" user="woodpeck_fixbot" changeset="10398186">
    <nd ref="178571531"/>
    <nd ref="178571532"/>
    <nd ref="178571534"/>
    <nd ref="178571296"/>
    <nd ref="178571535"/>
    <nd ref="178571536"/>
    <nd ref="178571537"/>
    <nd ref="178571538"/>
    <tag k="highway" v="unclassified"/>
    <tag k="source:maxspeed" v="default residential speed limit in Australia"/>
  </way>
  <way id="17210992" version="3" timestamp="2010-07-09T07:55:26Z" uid="74617" user="JohnSmith" changeset="5171412">
    <nd ref="178571670"/>
    <nd ref="178571672"/>
    <tag k="highway" v="residential"/>
    <tag k="maxspeed" v="50"/>
    <tag k="maxspeed:source" v="default residential speed limit in Australia"/>
    <tag k="name" v="Earls Court"/>
  </way>
  <way id="17210992" version="4" timestamp="2012-01-15T17:13:57Z" uid="147510" user="woodpeck_fixbot" changeset="10398186">
    <nd ref="178571670"/>
    <nd ref="178571672"/>
    <tag k="highway" v="residential"/>
    <tag k="name" v="Earls Court"/>
  </way>
</osm>
