<?xml version='1.0' encoding='UTF-8'?>
<osm version="0.6" generator="libosmium/2.20.0">
  <way id="17228089" version="4" timestamp="2010-08-22T15:49:07Z" uid="4467" user="Rosscoe" changeset="5562396">
    <nd ref="178641292"/>
    <nd ref="178641293"/>
    <nd ref="178674040"/>
    <nd ref="178674042"/>
    <nd ref="178674044"/>
    <nd ref="178674046"/>
    <nd ref="178674047"/>
    <nd ref="178674048"/>
    <tag k="highway" v="tertiary"/>
    <tag k="name" v="Clayton Road"/>
    <tag k="ref" v="RD 40"/>
    <tag k="tiger:cfcc" v="A41"/>
    <tag k="tiger:county" v="New Castle, DE"/>
    <tag k="tiger:name_base" v="Clayton"/>
    <tag k="tiger:name_type" v="Rd"/>
    <tag k="tiger:reviewed" v="no"/>
    <tag k="tiger:separated" v="no"/>
    <tag k="tiger:source" v="tiger_import_dch_v0.6_20070809"/>
    <tag k="tiger:tlid" v="187249904"/>
    <tag k="tiger:upload_uuid" v="bulk_upload.pl-b84bfbe9-4c3e-494a-9f35-9a1c8e3da44a"/>
  </way>
  <way id="17228089" version="5" timestamp="2011-05-23T05:47:10Z" uid="207745" user="NE2" changeset="8223186">
    <nd ref="178641292"/>
    <nd ref="178641293"/>
    <nd ref="178674040"/>
    <nd ref="178674042"/>
    <nd ref="178674044"/>
    <nd ref="178674046"/>
    <nd ref="178674047"/>
    <nd ref="178674048"/>
    <tag k="highway" v="secondary"/>
    <tag k="name" v="Clayton Road"/>
    <tag k="ref" v="RD 40"/>
    <tag k="tiger:cfcc" v="A41"/>
    <tag k="tiger:county" v="New Castle, DE"/>
    <tag k="tiger:name_base" v="Clayton"/>
    <tag k="tiger:name_type" v="Rd"/>
    <tag k="tiger:reviewed" v="no"/>
    <tag k="tiger:separated" v="no"/>
    <tag k="tiger:source" v="tiger_import_dch_v0.6_20070809"/>
    <tag k="tiger:tlid" v="187249904"/>
    <tag k="tiger:upload_uuid" v="bulk_upload.pl-b84bfbe9-4c3e-494a-9f35-9a1c8e3da44a"/>
  </way>
  <way id="17228089" version="6" timestamp="2011-12-30T14:07:15Z" uid="146680" user="ceyockey" changeset="10245566">
    <nd ref="178641292"/>
    <nd ref="1569218568"/>
    <tag k="highway" v="secondary"/>
    <tag k="name" v="Clayton Road"/>
    <tag k="ref" v="RD 40"/>
    <tag k="source" v="Bing"/>
    <tag k="tiger:cfcc" v="A41"/>
    <tag k="tiger:county" v="New Castle, DE"/>
    <tag k="tiger:name_base" v="Clayton"/>
    <tag k="tiger:name_type" v="Rd"/>
    <tag k="tiger:source" v="tiger_import_dch_v0.6_20070809"/>
    <tag k="tiger:tlid" v="187249904"/>
    <tag k="tiger:upload_uuid" v="bulk_upload.pl-b84bfbe9-4c3e-494a-9f35-9a1c8e3da44a"/>
  </way>
  <way id="17228089" version="7" timestamp="2012-03-23T11:35:38Z" uid="247807" user="asciiphil" changeset="11072854">
    <nd ref="178641292"/>
    <nd ref="1569218568"/>
    <tag k="highway" v="secondary"/>
    <tag k="name" v="Clayton Road"/>
    <tag k="odbl" v="clean"/>
    <tag k="odbl:note" v="The only non-CT-compliant edit to this way was expanding abbreviations in its name."/>
    <tag k="ref" v="RD 40"/>
    <tag k="source" v="Bing"/>
    <tag k="tiger:cfcc" v="A41"/>
    <tag k="tiger:county" v="New Castle, DE"/>
    <tag k="tiger:name_base" v="Clayton"/>
    <tag k="tiger:name_type" v="Rd"/>
    <tag k="tiger:source" v="tiger_import_dch_v0.6_20070809"/>
    <tag k="tiger:tlid" v="187249904"/>
    <tag k="tiger:upload_uuid" v="bulk_upload.pl-b84bfbe9-4c3e-494a-9f35-9a1c8e3da44a"/>
  </way>
</osm>
