<?xml version='1.0' encoding='UTF-8'?>
<osm version="0.6" generator="libosmium/2.20.0">
  <way id="17244108" version="3" timestamp="2010-08-22T16:57:39Z" uid="4467" user="Rosscoe" changeset="5563081">
    <nd ref="178760069"/>
    <nd ref="178731104"/>
    <nd ref="872536898"/>
    <tag k="highway" v="residential"/>
    <tag k="name" v="Delaware Avenue"/>
    <tag k="tiger:cfcc" v="A41"/>
    <tag k="tiger:county" v="Sussex, DE"/>
    <tag k="tiger:name_base" v="Delaware"/>
    <tag k="tiger:name_type" v="Ave"/>
    <tag k="tiger:reviewed" v="no"/>
    <tag k="tiger:separated" v="no"/>
    <tag k="tiger:source" v="tiger_import_dch_v0.6_20070809"/>
    <tag k="tiger:tlid" v="106131587:106127985"/>
    <tag k="tiger:upload_uuid" v="bulk_upload.pl-9c98282e-391b-484f-a318-893167c6576a"/>
    <tag k="tiger:zip_left" v="19971"/>
    <tag k="tiger:zip_right" v="19971"/>
  </way>
  <way id="17244615" version="8" timestamp="2010-07-11T14:43:22Z" uid="4467" user="Rosscoe" changeset="5191011">
    <nd ref="178770519"/>
    <nd ref="92535099"/>
    <nd ref="92535112"/>
    <nd ref="92535123"/>
    <nd ref="92535128"/>
    <nd ref="92535462"/>
    <nd ref="92535174"/>
    <nd ref="92535212"/>
    <nd ref="92535240"/>
    <nd ref="92535259"/>
    <nd ref="675602544"/>
    <nd ref="92535274"/>
    <tag k="highway" v="trunk"/>
    <tag k="is_in" v="Queenstown,South Australia,Australia"/>
    <tag k="lanes" v="2"/>
    <tag k="name" v="Tapleys Hill Road"/>
    <tag k="oneway" v="yes"/>
    <tag k="postal_code" v="5014"/>
    <tag k="ref" v="A15"/>
    <tag k="source" v="survey;Yahoo"/>
  </way>
  <way id="17244615" version="9" timestamp="2010-07-12T01:03:37Z" uid="4467" user="Rosscoe" changeset="5195348">
    <nd ref="178770519"/>
    <nd ref="92535099"/>
    <nd ref="92535112"/>
    <nd ref="92535123"/>
    <nd ref="92535462"/>
    <nd ref="812622755"/>
    <nd ref="92535174"/>
    <nd ref="92535212"/>
    <nd ref="92535240"/>
    <nd ref="675602544"/>
    <nd ref="92535274"/>
    <tag k="highway" v="trunk"/>
    <tag k="is_in" v="Queenstown,South Australia,Australia"/>
    <tag k="lanes" v="2"/>
    <tag k="name" v="Tapleys Hill Road"/>
    <tag k="oneway" v="yes"/>
    <tag k="postal_code" v="5014"/>
    <tag k="ref" v="A15"/>
    <tag k="source" v="survey;Yahoo"/>
  </way>
  <way id="17244615" version="10" timestamp="2010-09-27T01:17:44Z" uid="79475" user="AlexOnTheBus" changeset="5887960">
    <nd ref="178770519"/>
    <nd ref="92535099"/>
    <nd ref="92535112"/>
    <nd ref="92535123"/>
    <nd ref="92535462"/>
    <nd ref="812622755"/>
    <nd ref="92535174"/>
    <nd ref="92535212"/>
    <nd ref="92535240"/>
    <nd ref="675602544"/>
    <nd ref="92535274"/>
    <tag k="highway" v="primary"/>
    <tag k="is_in" v="Queenstown,South Australia,Australia"/>
    <tag k="lanes" v="2"/>
    <tag k="name" v="Tapleys Hill Road"/>
    <tag k="oneway" v="yes"/>
    <tag k="postal_code" v="5014"/>
    <tag k="ref" v="A15"/>
    <tag k="source" v="survey;Yahoo"/>
  </way>
  <way id="17244615" version="11" timestamp="2011-08-06T07:01:38Z" uid="428465" user="markinspace" changeset="8935152">
    <nd ref="178770519"/>
    <nd ref="92535099"/>
    <nd ref="92535112"/>
    <nd ref="92535123"/>
    <nd ref="92535462"/>
    <nd ref="812622755"/>
    <nd ref="92535174"/>
    <nd ref="92535212"/>
    <nd ref="92535240"/>
    <nd ref="675602544"/>
    <nd ref="92535274"/>
    <tag k="highway" v="primary"/>
    <tag k="is_in" v="Queenstown,South Australia,Australia"/>
    <tag k="lanes" v="2"/>
    <tag k="maxspeed" v="60"/>
    <tag k="name" v="Tapleys Hill Road"/>
    <tag k="oneway" v="yes"/>
    <tag k="postal_code" v="5014"/>
    <tag k="ref" v="A15"/>
    <tag k="source" v="survey;Yahoo"/>
  </way>
  <way id="17244616" version="10" timestamp="2010-07-11T14:49:34Z" uid="4467" user="Rosscoe" changeset="5191011"/>
  <way id="17244617" version="7" timestamp="2010-07-11T14:44:30Z" uid="4467" user="Rosscoe" changeset="5191011">
    <nd ref="811489634"/>
    <nd ref="178779552"/>
    <nd ref="178779547"/>
    <nd ref="178779545"/>
    <nd ref="676763498"/>
    <nd ref="31393742"/>
    <nd ref="676758896"/>
    <nd ref="178770519"/>
    <tag k="highway" v="trunk"/>
    <tag k="lanes" v="2"/>
    <tag k="maxspeed" v="60"/>
    <tag k="name" v="Tapleys Hill Road"/>
    <tag k="oneway" v="yes"/>
    <tag k="postal_code" v="5014"/>
    <tag k="ref" v="A15"/>
  </way>
  <way id="17244617" version="8" timestamp="2010-09-27T01:17:29Z" uid="79475" user="AlexOnTheBus" changeset="5887960">
    <nd ref="811489634"/>
    <nd ref="178779552"/>
    <nd ref="178779547"/>
    <nd ref="178779545"/>
    <nd ref="676763498"/>
    <nd ref="31393742"/>
    <nd ref="676758896"/>
    <nd ref="178770519"/>
    <tag k="highway" v="primary"/>
    <tag k="lanes" v="2"/>
    <tag k="maxspeed" v="60"/>
    <tag k="name" v="Tapleys Hill Road"/>
    <tag k="oneway" v="yes"/>
    <tag k="postal_code" v="5014"/>
    <tag k="ref" v="A15"/>
  </way>
  <way id="17244617" version="9" timestamp="2010-11-26T06:15:23Z" uid="320632" user="Zulu99" changeset="6459482">
    <nd ref="811489634"/>
    <nd ref="178779552"/>
    <nd ref="178779547"/>
    <nd ref="178779545"/>
    <tag k="cycleway" v="lane"/>
    <tag k="highway" v="primary"/>
    <tag k="lanes" v="2"/>
    <tag k="maxspeed" v="60"/>
    <tag k="name" v="Tapleys Hill Road"/>
    <tag k="oneway" v="yes"/>
    <tag k="postal_code" v="5014"/>
    <tag k="ref" v="A15"/>
  </way>
</osm>
