<?xml version='1.0' encoding='UTF-8'?>
<osm version="0.6" generator="libosmium/2.20.0">
  <way id="17246175" version="10" timestamp="2010-07-11T14:45:18Z" uid="4467" user="Rosscoe" changeset="5191011">
    <nd ref="31393743"/>
    <nd ref="178779586"/>
    <nd ref="253710115"/>
    <nd ref="178779626"/>
    <nd ref="178779635"/>
    <nd ref="178779650"/>
    <nd ref="178779704"/>
    <nd ref="178779769"/>
    <nd ref="178779786"/>
    <nd ref="253710083"/>
    <nd ref="253710082"/>
    <nd ref="178779920"/>
    <nd ref="89124789"/>
    <tag k="highway" v="trunk"/>
    <tag k="is_in" v="Hendon,South Australia,Australia"/>
    <tag k="lanes" v="2"/>
    <tag k="maxspeed" v="60"/>
    <tag k="name" v="Tapleys Hill Road"/>
    <tag k="oneway" v="yes"/>
    <tag k="postal_code" v="5014"/>
    <tag k="ref" v="A15"/>
    <tag k="source" v="survey"/>
  </way>
  <way id="17246175" version="11" timestamp="2010-09-27T01:16:39Z" uid="79475" user="AlexOnTheBus" changeset="5887960">
    <nd ref="31393743"/>
    <nd ref="178779586"/>
    <nd ref="253710115"/>
    <nd ref="178779626"/>
    <nd ref="178779635"/>
    <nd ref="178779650"/>
    <nd ref="178779704"/>
    <nd ref="178779769"/>
    <nd ref="178779786"/>
    <nd ref="253710083"/>
    <nd ref="253710082"/>
    <nd ref="178779920"/>
    <nd ref="89124789"/>
    <tag k="highway" v="primary"/>
    <tag k="is_in" v="Hendon,South Australia,Australia"/>
    <tag k="lanes" v="2"/>
    <tag k="maxspeed" v="60"/>
    <tag k="name" v="Tapleys Hill Road"/>
    <tag k="oneway" v="yes"/>
    <tag k="postal_code" v="5014"/>
    <tag k="ref" v="A15"/>
    <tag k="source" v="survey"/>
  </way>
  <way id="17246175" version="12" timestamp="2010-11-26T06:15:39Z" uid="320632" user="Zulu99" changeset="6459482">
    <nd ref="31393743"/>
    <nd ref="178779586"/>
    <nd ref="253710115"/>
    <nd ref="178779626"/>
    <nd ref="178779635"/>
    <nd ref="178779650"/>
    <nd ref="178779704"/>
    <nd ref="178779769"/>
    <nd ref="178779786"/>
    <nd ref="253710083"/>
    <nd ref="253710082"/>
    <nd ref="178779920"/>
    <nd ref="1005014070"/>
    <tag k="cycleway" v="lane"/>
    <tag k="highway" v="primary"/>
    <tag k="is_in" v="Hendon,South Australia,Australia"/>
    <tag k="lanes" v="2"/>
    <tag k="maxspeed" v="60"/>
    <tag k="name" v="Tapleys Hill Road"/>
    <tag k="oneway" v="yes"/>
    <tag k="postal_code" v="5014"/>
    <tag k="ref" v="A15"/>
    <tag k="source" v="survey"/>
  </way>
  <way id="17246186" version="9" timestamp="2010-07-11T14:52:44Z" uid="4467" user="Rosscoe" changeset="5191011"/>
  <way id="17246572" version="3" timestamp="2010-07-08T18:34:53Z" uid="74617" user="JohnSmith" changeset="5167338">
    <nd ref="178782163"/>
    <nd ref="178782389"/>
    <nd ref="178782390"/>
    <tag k="highway" v="residential"/>
    <tag k="maxspeed" v="50"/>
    <tag k="maxspeed:source" v="default residential speed limit in Australia"/>
    <tag k="name" v="Templeman Court"/>
  </way>
  <way id="17246572" version="4" timestamp="2012-01-15T17:24:25Z" uid="147510" user="woodpeck_fixbot" changeset="10398186">
    <nd ref="178782163"/>
    <nd ref="178782389"/>
    <nd ref="178782390"/>
    <tag k="highway" v="residential"/>
    <tag k="name" v="Templeman Court"/>
  </way>
  <way id="17246582" version="4" timestamp="2010-07-08T18:21:30Z" uid="74617" user="JohnSmith" changeset="5167338">
    <nd ref="33997700"/>
    <nd ref="178782705"/>
    <nd ref="178782706"/>
    <nd ref="178782707"/>
    <nd ref="178782708"/>
    <tag k="highway" v="residential"/>
    <tag k="maxspeed" v="50"/>
    <tag k="maxspeed:source" v="default residential speed limit in Australia"/>
    <tag k="name" v="Angie Court"/>
  </way>
  <way id="17246582" version="5" timestamp="2012-01-15T17:24:28Z" uid="147510" user="woodpeck_fixbot" changeset="10398186">
    <nd ref="33997700"/>
    <nd ref="178782705"/>
    <nd ref="178782706"/>
    <nd ref="178782707"/>
    <nd ref="178782708"/>
    <tag k="highway" v="residential"/>
    <tag k="name" v="Angie Court"/>
  </way>
  <way id="17246596" version="4" timestamp="2010-07-08T18:32:16Z" uid="74617" user="JohnSmith" changeset="5167338">
    <nd ref="178782716"/>
    <nd ref="178783048"/>
    <nd ref="178783049"/>
    <nd ref="178783050"/>
    <nd ref="178783051"/>
    <tag k="highway" v="residential"/>
    <tag k="maxspeed" v="50"/>
    <tag k="maxspeed:source" v="default residential speed limit in Australia"/>
    <tag k="name" v="Joelle Court"/>
  </way>
  <way id="17246596" version="5" timestamp="2012-01-15T17:24:37Z" uid="147510" user="woodpeck_fixbot" changeset="10398186">
    <nd ref="178782716"/>
    <nd ref="178783048"/>
    <nd ref="178783049"/>
    <nd ref="178783050"/>
    <nd ref="178783051"/>
    <tag k="highway" v="residential"/>
    <tag k="name" v="Joelle Court"/>
  </way>
  <way id="17246646" version="3" timestamp="2010-07-08T18:38:16Z" uid="74617" user="JohnSmith" changeset="5167338">
    <nd ref="178783485"/>
    <nd ref="178783487"/>
    <nd ref="178783488"/>
    <tag k="highway" v="residential"/>
    <tag k="maxspeed" v="50"/>
    <tag k="maxspeed:source" v="default residential speed limit in Australia"/>
    <tag k="name" v="Jones Court"/>
  </way>
  <way id="17246646" version="4" timestamp="2012-01-15T17:24:40Z" uid="147510" user="woodpeck_fixbot" changeset="10398186">
    <nd ref="178783485"/>
    <nd ref="178783487"/>
    <nd ref="178783488"/>
    <tag k="highway" v="residential"/>
    <tag k="name" v="Jones Court"/>
  </way>
  <way id="17246688" version="4" timestamp="2009-10-15T21:51:15Z" uid="28000" user="RufusB" changeset="2859921">
    <nd ref="178783734"/>
    <nd ref="26086493"/>
    <nd ref="532646558"/>
    <nd ref="26086494"/>
    <nd ref="26086495"/>
    <nd ref="26086496"/>
    <nd ref="26086497"/>
    <nd ref="295985092"/>
    <tag k="railway" v="rail"/>
  </way>
  <way id="17246688" version="5" timestamp="2009-10-22T16:33:08Z" uid="9581" user="Lobelt" changeset="2923071">
    <nd ref="178783734"/>
    <nd ref="538400076"/>
    <nd ref="538400077"/>
    <nd ref="26086493"/>
    <nd ref="538400078"/>
    <nd ref="538400079"/>
    <nd ref="538400081"/>
    <nd ref="538400082"/>
    <tag k="railway" v="rail"/>
  </way>
  <way id="17246688" version="6" timestamp="2010-04-11T17:36:09Z" uid="9176" user="Maarten Deen" changeset="4396445">
    <nd ref="178783734"/>
    <nd ref="538400076"/>
    <nd ref="538400077"/>
    <nd ref="26086493"/>
    <nd ref="538400078"/>
    <nd ref="538400079"/>
    <nd ref="538400081"/>
    <nd ref="538400082"/>
    <tag k="electrified" v="contact_line"/>
    <tag k="frequency" v="16.7"/>
    <tag k="railway" v="rail"/>
    <tag k="voltage" v="15000"/>
  </way>
  <way id="17246688" version="7" timestamp="2011-11-02T16:48:58Z" uid="42429" user="FK270673" changeset="9723356">
    <nd ref="178783734"/>
    <nd ref="538400076"/>
    <nd ref="538400077"/>
    <nd ref="26086493"/>
    <nd ref="538400078"/>
    <nd ref="538400079"/>
    <nd ref="538400081"/>
    <nd ref="538400082"/>
    <tag k="electrified" v="contact_line"/>
    <tag k="frequency" v="16.7"/>
    <tag k="gauge" v="1435"/>
    <tag k="railway" v="rail"/>
    <tag k="voltage" v="15000"/>
  </way>
  <way id="17246720" version="6" timestamp="2010-07-08T18:17:30Z" uid="74617" user="JohnSmith" changeset="5167338">
    <nd ref="178783542"/>
    <nd ref="178783897"/>
    <nd ref="178783898"/>
    <nd ref="33998148"/>
    <nd ref="178783900"/>
    <nd ref="591728998"/>
    <nd ref="591728628"/>
    <nd ref="466941494"/>
    <tag k="highway" v="residential"/>
    <tag k="maxspeed" v="50"/>
    <tag k="maxspeed:source" v="default residential speed limit in Australia"/>
    <tag k="name" v="Wells Road Service Road"/>
    <tag k="oneway" v="yes"/>
  </way>
  <way id="17246720" version="7" timestamp="2012-01-15T17:24:53Z" uid="147510" user="woodpeck_fixbot" changeset="10398186">
    <nd ref="178783542"/>
    <nd ref="178783897"/>
    <nd ref="178783898"/>
    <nd ref="33998148"/>
    <nd ref="178783900"/>
    <nd ref="591728998"/>
    <nd ref="591728628"/>
    <nd ref="466941494"/>
    <tag k="highway" v="residential"/>
    <tag k="name" v="Wells Road Service Road"/>
    <tag k="oneway" v="yes"/>
  </way>
  <way id="17246747" version="7" timestamp="2010-07-08T18:20:12Z" uid="74617" user="JohnSmith" changeset="5167338">
    <nd ref="178783898"/>
    <nd ref="591727267"/>
    <nd ref="178784059"/>
    <nd ref="178784060"/>
    <nd ref="178784062"/>
    <nd ref="255634569"/>
    <tag k="highway" v="residential"/>
    <tag k="maxspeed" v="50"/>
    <tag k="maxspeed:source" v="default residential speed limit in Australia"/>
    <tag k="name" v="McIntosh Crescent"/>
  </way>
  <way id="17246747" version="8" timestamp="2012-01-15T17:25:04Z" uid="147510" user="woodpeck_fixbot" changeset="10398186">
    <nd ref="178783898"/>
    <nd ref="591727267"/>
    <nd ref="178784059"/>
    <nd ref="178784060"/>
    <nd ref="178784062"/>
    <nd ref="255634569"/>
    <tag k="highway" v="residential"/>
    <tag k="name" v="McIntosh Crescent"/>
  </way>
  <way id="17246762" version="3" timestamp="2010-07-08T18:23:05Z" uid="74617" user="JohnSmith" changeset="5167338">
    <nd ref="178784060"/>
    <nd ref="178784147"/>
    <nd ref="178784148"/>
    <tag k="highway" v="residential"/>
    <tag k="maxspeed" v="50"/>
    <tag k="maxspeed:source" v="default residential speed limit in Australia"/>
    <tag k="name" v="Carla Court"/>
  </way>
  <way id="17246762" version="4" timestamp="2012-01-15T17:25:09Z" uid="147510" user="woodpeck_fixbot" changeset="10398186">
    <nd ref="178784060"/>
    <nd ref="178784147"/>
    <nd ref="178784148"/>
    <tag k="highway" v="residential"/>
    <tag k="name" v="Carla Court"/>
  </way>
  <way id="17246842" version="4" timestamp="2011-03-15T09:27:44Z" uid="4467" user="Rosscoe" changeset="7564425">
    <nd ref="32476512"/>
    <nd ref="29211199"/>
    <nd ref="29211179"/>
    <nd ref="29211185"/>
    <nd ref="29211183"/>
    <nd ref="29211186"/>
    <nd ref="29211187"/>
    <nd ref="29211189"/>
    <nd ref="29211190"/>
    <tag k="highway" v="residential"/>
    <tag k="maxspeed" v="50"/>
    <tag k="maxspeed:source" v="default residential speed limit in Australia"/>
    <tag k="name" v="Forbes Drive"/>
  </way>
  <way id="17246940" version="2" timestamp="2011-03-15T09:27:39Z" uid="4467" user="Rosscoe" changeset="7564425">
    <nd ref="29211139"/>
    <nd ref="29211149"/>
    <nd ref="606216252"/>
    <nd ref="703034533"/>
    <nd ref="703034517"/>
    <nd ref="198536913"/>
    <nd ref="29211151"/>
    <tag k="highway" v="residential"/>
    <tag k="maxspeed" v="50"/>
    <tag k="maxspeed:source" v="default residential speed limit in Australia"/>
    <tag k="name" v="Langslow Road"/>
  </way>
  <way id="17246992" version="3" timestamp="2011-03-15T09:27:46Z" uid="4467" user="Rosscoe" changeset="7564425"/>
</osm>
