<?xml version='1.0' encoding='UTF-8'?>
<osm version="0.6" generator="libosmium/2.20.0">
  <way id="17288731" version="4" timestamp="2010-03-21T07:14:08Z" uid="74617" user="JohnSmith" changeset="4187634">
    <nd ref="179068254"/>
    <nd ref="179140249"/>
    <nd ref="179124171"/>
    <nd ref="179066663"/>
    <nd ref="179066664"/>
    <nd ref="179066665"/>
    <nd ref="179066666"/>
    <nd ref="179058526"/>
    <nd ref="176864210"/>
    <nd ref="176864211"/>
    <tag k="highway" v="primary"/>
    <tag k="name" v="Logan Road"/>
  </way>
  <way id="17288731" version="5" timestamp="2011-09-01T22:36:32Z" uid="349913" user="Peter W34" changeset="9189216">
    <nd ref="179068254"/>
    <nd ref="179140249"/>
    <nd ref="179124171"/>
    <nd ref="179066663"/>
    <nd ref="179066664"/>
    <nd ref="179066665"/>
    <nd ref="179066666"/>
    <nd ref="179058526"/>
    <nd ref="176864210"/>
    <nd ref="176864211"/>
    <tag k="highway" v="primary"/>
    <tag k="maxspeed" v="60"/>
    <tag k="name" v="Logan Road"/>
  </way>
  <way id="17288731" version="6" timestamp="2012-01-07T04:28:24Z" uid="67896" user="mrpulley" changeset="10318232">
    <nd ref="179068254"/>
    <nd ref="179140249"/>
    <nd ref="179124171"/>
    <nd ref="179066663"/>
    <nd ref="179066664"/>
    <nd ref="179066665"/>
    <nd ref="179066666"/>
    <nd ref="179058526"/>
    <nd ref="176864210"/>
    <nd ref="176864211"/>
    <tag k="highway" v="primary"/>
    <tag k="maxspeed" v="60"/>
    <tag k="name" v="Logan Road"/>
    <tag k="ref" v="S95"/>
  </way>
  <way id="17288797" version="5" timestamp="2010-03-20T16:59:52Z" uid="74617" user="JohnSmith" changeset="4182056">
    <nd ref="92416784"/>
    <nd ref="179093977"/>
    <nd ref="179093978"/>
    <nd ref="92415988"/>
    <nd ref="92415989"/>
    <nd ref="92415990"/>
    <nd ref="92415272"/>
    <tag k="highway" v="primary"/>
    <tag k="name" v="Esher Street"/>
    <tag k="oneway" v="yes"/>
  </way>
  <way id="17288884" version="4" timestamp="2010-07-06T08:42:56Z" uid="74617" user="JohnSmith" changeset="5147679">
    <nd ref="92415272"/>
    <nd ref="179095642"/>
    <nd ref="179095643"/>
    <tag k="highway" v="residential"/>
    <tag k="maxspeed" v="50"/>
    <tag k="maxspeed:source" v="default residential speed limit in Australia"/>
    <tag k="name" v="Edric Street"/>
    <tag k="source" v="survey"/>
  </way>
  <way id="17288884" version="5" timestamp="2012-01-15T17:39:38Z" uid="147510" user="woodpeck_fixbot" changeset="10400850">
    <nd ref="92415272"/>
    <nd ref="179095642"/>
    <nd ref="179095643"/>
    <tag k="highway" v="residential"/>
    <tag k="name" v="Edric Street"/>
    <tag k="source" v="survey"/>
  </way>
</osm>
