<?xml version='1.0' encoding='UTF-8'?>
<osm version="0.6" generator="libosmium/2.20.0">
  <way id="17289047" version="5" timestamp="2010-07-06T08:46:09Z" uid="74617" user="JohnSmith" changeset="5147679">
    <nd ref="92415275"/>
    <nd ref="179097179"/>
    <nd ref="179097180"/>
    <nd ref="179097182"/>
    <nd ref="179097183"/>
    <nd ref="179097184"/>
    <nd ref="179097185"/>
    <nd ref="179097186"/>
    <nd ref="179097187"/>
    <nd ref="179097189"/>
    <nd ref="179097190"/>
    <nd ref="179097191"/>
    <nd ref="179097193"/>
    <nd ref="179097195"/>
    <nd ref="186987245"/>
    <tag k="highway" v="residential"/>
    <tag k="maxspeed" v="50"/>
    <tag k="maxspeed:source" v="default residential speed limit in Australia"/>
    <tag k="name" v="Mananda Street"/>
    <tag k="source" v="survey"/>
  </way>
  <way id="17289047" version="6" timestamp="2012-01-15T17:39:41Z" uid="147510" user="woodpeck_fixbot" changeset="10400850">
    <nd ref="92415275"/>
    <nd ref="179097179"/>
    <nd ref="179097180"/>
    <nd ref="179097182"/>
    <nd ref="179097183"/>
    <nd ref="179097184"/>
    <nd ref="179097185"/>
    <nd ref="179097186"/>
    <nd ref="179097187"/>
    <nd ref="179097189"/>
    <nd ref="179097190"/>
    <nd ref="179097191"/>
    <nd ref="179097193"/>
    <nd ref="179097195"/>
    <nd ref="186987245"/>
    <tag k="highway" v="residential"/>
    <tag k="name" v="Mananda Street"/>
    <tag k="source" v="survey"/>
  </way>
  <way id="17289093" version="4" timestamp="2010-07-06T08:46:57Z" uid="74617" user="JohnSmith" changeset="5147679">
    <nd ref="179097187"/>
    <nd ref="179097708"/>
    <nd ref="179097709"/>
    <nd ref="179097710"/>
    <tag k="highway" v="residential"/>
    <tag k="maxspeed" v="50"/>
    <tag k="maxspeed:source" v="default residential speed limit in Australia"/>
    <tag k="name" v="Mansted Street"/>
    <tag k="source" v="survey"/>
  </way>
  <way id="17289093" version="5" timestamp="2012-01-15T17:39:44Z" uid="147510" user="woodpeck_fixbot" changeset="10400850">
    <nd ref="179097187"/>
    <nd ref="179097708"/>
    <nd ref="179097709"/>
    <nd ref="179097710"/>
    <tag k="highway" v="residential"/>
    <tag k="name" v="Mansted Street"/>
    <tag k="source" v="survey"/>
  </way>
  <way id="17289173" version="4" timestamp="2010-07-06T08:47:57Z" uid="74617" user="JohnSmith" changeset="5147679">
    <nd ref="179098448"/>
    <nd ref="179097193"/>
    <nd ref="179098446"/>
    <nd ref="186990831"/>
    <nd ref="186991736"/>
    <nd ref="186991737"/>
    <nd ref="186991738"/>
    <tag k="highway" v="residential"/>
    <tag k="maxspeed" v="50"/>
    <tag k="maxspeed:source" v="default residential speed limit in Australia"/>
    <tag k="name" v="Sorbiston Street"/>
    <tag k="source" v="survey"/>
  </way>
  <way id="17289173" version="5" timestamp="2012-01-15T17:39:48Z" uid="147510" user="woodpeck_fixbot" changeset="10400850">
    <nd ref="179098448"/>
    <nd ref="179097193"/>
    <nd ref="179098446"/>
    <nd ref="186990831"/>
    <nd ref="186991736"/>
    <nd ref="186991737"/>
    <nd ref="186991738"/>
    <tag k="highway" v="residential"/>
    <tag k="name" v="Sorbiston Street"/>
    <tag k="source" v="survey"/>
  </way>
  <way id="17289305" version="4" timestamp="2010-07-06T09:51:53Z" uid="74617" user="JohnSmith" changeset="5147679">
    <nd ref="26342946"/>
    <nd ref="204790970"/>
    <nd ref="26342971"/>
    <tag k="highway" v="residential"/>
    <tag k="maxspeed" v="50"/>
    <tag k="maxspeed:source" v="default residential speed limit in Australia"/>
    <tag k="name" v="Adelaide Street East"/>
  </way>
  <way id="17289305" version="5" timestamp="2012-01-15T17:39:50Z" uid="147510" user="woodpeck_fixbot" changeset="10400850">
    <nd ref="26342946"/>
    <nd ref="204790970"/>
    <nd ref="26342971"/>
    <tag k="highway" v="residential"/>
    <tag k="name" v="Adelaide Street East"/>
  </way>
  <way id="17289724" version="6" timestamp="2010-06-01T02:56:08Z" uid="4467" user="Rosscoe" changeset="4871118">
    <nd ref="179103116"/>
    <nd ref="179103692"/>
    <nd ref="179103693"/>
    <nd ref="179103695"/>
    <nd ref="179103696"/>
    <nd ref="179103697"/>
    <nd ref="179103698"/>
    <nd ref="179103699"/>
    <nd ref="179103701"/>
    <tag k="highway" v="residential"/>
    <tag k="name" v="Carrington Place"/>
  </way>
  <way id="17289724" version="7" timestamp="2010-07-06T08:44:48Z" uid="74617" user="JohnSmith" changeset="5147679">
    <nd ref="179103116"/>
    <nd ref="179103692"/>
    <nd ref="179103693"/>
    <nd ref="179103695"/>
    <nd ref="179103696"/>
    <nd ref="179103697"/>
    <nd ref="179103698"/>
    <nd ref="179103699"/>
    <nd ref="179103701"/>
    <tag k="highway" v="residential"/>
    <tag k="maxspeed" v="50"/>
    <tag k="maxspeed:source" v="default residential speed limit in Australia"/>
    <tag k="name" v="Carrington Place"/>
  </way>
  <way id="17289724" version="8" timestamp="2012-01-15T17:39:54Z" uid="147510" user="woodpeck_fixbot" changeset="10400850">
    <nd ref="179103116"/>
    <nd ref="179103692"/>
    <nd ref="179103693"/>
    <nd ref="179103695"/>
    <nd ref="179103696"/>
    <nd ref="179103697"/>
    <nd ref="179103698"/>
    <nd ref="179103699"/>
    <nd ref="179103701"/>
    <tag k="highway" v="residential"/>
    <tag k="name" v="Carrington Place"/>
  </way>
</osm>
