<?xml version='1.0' encoding='UTF-8'?>
<osm version="0.6" generator="libosmium/2.20.0">
  <way id="17282274" version="5" timestamp="2010-07-06T08:45:20Z" uid="74617" user="JohnSmith" changeset="5147679">
    <nd ref="179040042"/>
    <nd ref="186322101"/>
    <nd ref="179047669"/>
    <tag k="highway" v="residential"/>
    <tag k="maxspeed" v="50"/>
    <tag k="maxspeed:source" v="default residential speed limit in Australia"/>
    <tag k="name" v="Tpoaz Street"/>
  </way>
  <way id="17282274" version="6" timestamp="2012-01-03T03:30:35Z" uid="22094" user="Chadzopkyo" changeset="10278191">
    <nd ref="179040042"/>
    <nd ref="186322101"/>
    <nd ref="179047669"/>
    <nd ref="179048670"/>
    <nd ref="179048672"/>
    <tag k="highway" v="residential"/>
    <tag k="maxspeed" v="50"/>
    <tag k="maxspeed:source" v="default residential speed limit in Australia"/>
    <tag k="name" v="Tpoaz Street"/>
    <tag k="source" v="GPS"/>
    <tag k="surface" v="asphalt"/>
  </way>
  <way id="17282274" version="7" timestamp="2012-01-15T17:38:15Z" uid="147510" user="woodpeck_fixbot" changeset="10400850">
    <nd ref="179040042"/>
    <nd ref="186322101"/>
    <nd ref="179047669"/>
    <nd ref="179048670"/>
    <nd ref="179048672"/>
    <tag k="highway" v="residential"/>
    <tag k="name" v="Tpoaz Street"/>
    <tag k="source" v="GPS"/>
    <tag k="surface" v="asphalt"/>
  </way>
  <way id="17282277" version="4" timestamp="2010-07-06T08:45:37Z" uid="74617" user="JohnSmith" changeset="5147679">
    <nd ref="179040051"/>
    <nd ref="81984555"/>
    <tag k="highway" v="residential"/>
    <tag k="maxspeed" v="50"/>
    <tag k="maxspeed:source" v="default residential speed limit in Australia"/>
    <tag k="name" v="Crystal Street"/>
  </way>
  <way id="17282277" version="5" timestamp="2012-01-03T03:30:29Z" uid="22094" user="Chadzopkyo" changeset="10278191">
    <nd ref="179040051"/>
    <nd ref="81984555"/>
    <tag k="highway" v="residential"/>
    <tag k="maxspeed" v="50"/>
    <tag k="maxspeed:source" v="default residential speed limit in Australia"/>
    <tag k="name" v="Crystal Street"/>
    <tag k="source" v="GPS"/>
    <tag k="surface" v="asphalt"/>
  </way>
  <way id="17282277" version="6" timestamp="2012-01-15T17:38:17Z" uid="147510" user="woodpeck_fixbot" changeset="10400850">
    <nd ref="179040051"/>
    <nd ref="81984555"/>
    <tag k="highway" v="residential"/>
    <tag k="name" v="Crystal Street"/>
    <tag k="source" v="GPS"/>
    <tag k="surface" v="asphalt"/>
  </way>
  <way id="17282326" version="5" timestamp="2010-07-06T08:43:07Z" uid="74617" user="JohnSmith" changeset="5147679">
    <nd ref="179040045"/>
    <nd ref="179047695"/>
    <nd ref="179047697"/>
    <nd ref="179047698"/>
    <nd ref="179047700"/>
    <nd ref="179048253"/>
    <nd ref="179048254"/>
    <nd ref="179048256"/>
    <nd ref="179048258"/>
    <nd ref="179047669"/>
    <nd ref="179048260"/>
    <nd ref="179048262"/>
    <nd ref="179040027"/>
    <tag k="highway" v="residential"/>
    <tag k="maxspeed" v="50"/>
    <tag k="maxspeed:source" v="default residential speed limit in Australia"/>
    <tag k="name" v="Diamond Street"/>
  </way>
  <way id="17282326" version="6" timestamp="2012-01-03T03:30:30Z" uid="22094" user="Chadzopkyo" changeset="10278191">
    <nd ref="179040045"/>
    <nd ref="179047695"/>
    <nd ref="179048253"/>
    <nd ref="179048256"/>
    <nd ref="179048258"/>
    <nd ref="179047669"/>
    <nd ref="179048260"/>
    <nd ref="179040027"/>
    <tag k="highway" v="residential"/>
    <tag k="maxspeed" v="50"/>
    <tag k="maxspeed:source" v="default residential speed limit in Australia"/>
    <tag k="name" v="Diamond Street"/>
    <tag k="source" v="GPS"/>
    <tag k="surface" v="asphalt"/>
  </way>
  <way id="17282326" version="7" timestamp="2012-01-15T17:38:33Z" uid="147510" user="woodpeck_fixbot" changeset="10400850">
    <nd ref="179040045"/>
    <nd ref="179047695"/>
    <nd ref="179048253"/>
    <nd ref="179048256"/>
    <nd ref="179048258"/>
    <nd ref="179047669"/>
    <nd ref="179048260"/>
    <nd ref="179040027"/>
    <tag k="highway" v="residential"/>
    <tag k="name" v="Diamond Street"/>
    <tag k="source" v="GPS"/>
    <tag k="surface" v="asphalt"/>
  </way>
  <way id="17282375" version="4" timestamp="2010-07-06T08:46:56Z" uid="74617" user="JohnSmith" changeset="5147679">
    <nd ref="179047669"/>
    <nd ref="179048670"/>
    <nd ref="179048671"/>
    <nd ref="179048672"/>
    <tag k="highway" v="residential"/>
    <tag k="maxspeed" v="50"/>
    <tag k="maxspeed:source" v="default residential speed limit in Australia"/>
    <tag k="name" v="Tpoaz Street"/>
  </way>
  <way id="17282375" version="5" timestamp="2012-01-03T03:30:53Z" uid="22094" user="Chadzopkyo" changeset="10278191"/>
  <way id="17282426" version="4" timestamp="2010-07-06T08:44:26Z" uid="74617" user="JohnSmith" changeset="5147679">
    <nd ref="179040027"/>
    <nd ref="179049149"/>
    <nd ref="179049151"/>
    <nd ref="179049152"/>
    <nd ref="179049153"/>
    <tag k="highway" v="residential"/>
    <tag k="maxspeed" v="50"/>
    <tag k="maxspeed:source" v="default residential speed limit in Australia"/>
    <tag k="name" v="Diamond Street"/>
  </way>
  <way id="17282426" version="5" timestamp="2012-01-03T03:30:29Z" uid="22094" user="Chadzopkyo" changeset="10278191">
    <nd ref="179040027"/>
    <nd ref="179049153"/>
    <tag k="highway" v="residential"/>
    <tag k="maxspeed" v="50"/>
    <tag k="maxspeed:source" v="default residential speed limit in Australia"/>
    <tag k="name" v="Diamond Street"/>
  </way>
  <way id="17282426" version="6" timestamp="2012-01-15T17:38:38Z" uid="147510" user="woodpeck_fixbot" changeset="10400850">
    <nd ref="179040027"/>
    <nd ref="179049153"/>
    <tag k="highway" v="residential"/>
    <tag k="name" v="Diamond Street"/>
  </way>
  <way id="17282471" version="4" timestamp="2010-07-06T08:44:48Z" uid="74617" user="JohnSmith" changeset="5147679">
    <nd ref="179040050"/>
    <nd ref="179049468"/>
    <nd ref="179049153"/>
    <nd ref="179040026"/>
    <tag k="highway" v="residential"/>
    <tag k="maxspeed" v="50"/>
    <tag k="maxspeed:source" v="default residential speed limit in Australia"/>
    <tag k="name" v="Carnellian Street"/>
  </way>
  <way id="17282471" version="5" timestamp="2012-01-03T03:30:29Z" uid="22094" user="Chadzopkyo" changeset="10278191">
    <nd ref="179040050"/>
    <nd ref="179049153"/>
    <nd ref="179040026"/>
    <nd ref="179050204"/>
    <nd ref="179050205"/>
    <tag k="highway" v="residential"/>
    <tag k="maxspeed" v="50"/>
    <tag k="maxspeed:source" v="default residential speed limit in Australia"/>
    <tag k="name" v="Carnelian Street"/>
    <tag k="source" v="GPS"/>
    <tag k="surface" v="asphalt"/>
  </way>
  <way id="17282471" version="6" timestamp="2012-01-15T17:38:44Z" uid="147510" user="woodpeck_fixbot" changeset="10400850">
    <nd ref="179040050"/>
    <nd ref="179049153"/>
    <nd ref="179040026"/>
    <nd ref="179050204"/>
    <nd ref="179050205"/>
    <tag k="highway" v="residential"/>
    <tag k="name" v="Carnelian Street"/>
    <tag k="source" v="GPS"/>
    <tag k="surface" v="asphalt"/>
  </way>
  <way id="17282530" version="4" timestamp="2010-07-06T08:44:18Z" uid="74617" user="JohnSmith" changeset="5147679">
    <nd ref="179040026"/>
    <nd ref="179050204"/>
    <nd ref="179050205"/>
    <tag k="highway" v="residential"/>
    <tag k="maxspeed" v="50"/>
    <tag k="maxspeed:source" v="default residential speed limit in Australia"/>
    <tag k="name" v="Carnellian Street"/>
  </way>
  <way id="17282530" version="5" timestamp="2012-01-03T03:30:53Z" uid="22094" user="Chadzopkyo" changeset="10278191"/>
  <way id="17282543" version="3" timestamp="2010-07-06T08:44:02Z" uid="74617" user="JohnSmith" changeset="5147679">
    <nd ref="179050205"/>
    <nd ref="179050206"/>
    <nd ref="179050208"/>
    <nd ref="179050209"/>
    <nd ref="179050211"/>
    <nd ref="179050212"/>
    <nd ref="179050213"/>
    <nd ref="179050215"/>
    <tag k="highway" v="residential"/>
    <tag k="maxspeed" v="50"/>
    <tag k="maxspeed:source" v="default residential speed limit in Australia"/>
    <tag k="name" v="Pine Mountain Road"/>
  </way>
  <way id="17282543" version="4" timestamp="2011-05-27T09:33:02Z" uid="22094" user="Chadzopkyo" changeset="8260748">
    <nd ref="179050205"/>
    <nd ref="179050206"/>
    <nd ref="179050208"/>
    <nd ref="179050209"/>
    <nd ref="179050211"/>
    <nd ref="179050213"/>
    <nd ref="179050215"/>
    <tag k="highway" v="residential"/>
    <tag k="maxspeed" v="50"/>
    <tag k="maxspeed:source" v="default residential speed limit in Australia"/>
    <tag k="name" v="Pine Mountain Road"/>
  </way>
  <way id="17282543" version="5" timestamp="2012-01-03T03:30:32Z" uid="22094" user="Chadzopkyo" changeset="10278191">
    <nd ref="179050205"/>
    <nd ref="179050208"/>
    <nd ref="179050209"/>
    <nd ref="1575035665"/>
    <nd ref="179050213"/>
    <nd ref="179050215"/>
    <tag k="highway" v="residential"/>
    <tag k="maxspeed" v="50"/>
    <tag k="maxspeed:source" v="default residential speed limit in Australia"/>
    <tag k="name" v="Pine Mountain Road"/>
    <tag k="source" v="GPS"/>
    <tag k="surface" v="asphalt"/>
  </way>
  <way id="17282543" version="6" timestamp="2012-01-15T17:38:46Z" uid="147510" user="woodpeck_fixbot" changeset="10400850">
    <nd ref="179050205"/>
    <nd ref="179050208"/>
    <nd ref="179050209"/>
    <nd ref="1575035665"/>
    <nd ref="179050213"/>
    <nd ref="179050215"/>
    <tag k="highway" v="residential"/>
    <tag k="name" v="Pine Mountain Road"/>
    <tag k="source" v="GPS"/>
    <tag k="surface" v="asphalt"/>
  </way>
  <way id="17282569" version="11" timestamp="2010-07-09T05:14:43Z" uid="74617" user="JohnSmith" changeset="5170986">
    <nd ref="179050603"/>
    <nd ref="306747214"/>
    <nd ref="300493550"/>
    <nd ref="306747250"/>
    <nd ref="306747274"/>
    <nd ref="306747279"/>
    <nd ref="314092047"/>
    <tag k="highway" v="residential"/>
    <tag k="maxspeed" v="50"/>
    <tag k="maxspeed:source" v="default residential speed limit in Australia"/>
    <tag k="name" v="Hawthorn Road"/>
  </way>
  <way id="17282569" version="12" timestamp="2012-01-15T17:38:48Z" uid="147510" user="woodpeck_fixbot" changeset="10400850">
    <nd ref="179050603"/>
    <nd ref="306747214"/>
    <nd ref="300493550"/>
    <nd ref="306747250"/>
    <nd ref="306747274"/>
    <nd ref="306747279"/>
    <nd ref="314092047"/>
    <tag k="highway" v="residential"/>
    <tag k="name" v="Hawthorn Road"/>
  </way>
  <way id="17282667" version="8" timestamp="2010-07-06T09:58:47Z" uid="74617" user="JohnSmith" changeset="5147679">
    <nd ref="179052320"/>
    <nd ref="179051397"/>
    <nd ref="274899097"/>
    <nd ref="179051398"/>
    <nd ref="179051399"/>
    <nd ref="179051400"/>
    <nd ref="179051401"/>
    <tag k="highway" v="residential"/>
    <tag k="maxspeed" v="50"/>
    <tag k="maxspeed:source" v="default residential speed limit in Australia"/>
    <tag k="name" v="Ben Ean Street"/>
  </way>
  <way id="17282667" version="9" timestamp="2011-05-27T09:33:06Z" uid="22094" user="Chadzopkyo" changeset="8260748">
    <nd ref="179052320"/>
    <nd ref="179051397"/>
    <nd ref="179051398"/>
    <nd ref="179051399"/>
    <nd ref="179051400"/>
    <nd ref="179051401"/>
    <tag k="highway" v="residential"/>
    <tag k="maxspeed" v="50"/>
    <tag k="maxspeed:source" v="default residential speed limit in Australia"/>
    <tag k="name" v="Ben Ean Street"/>
  </way>
  <way id="17282667" version="10" timestamp="2012-01-03T03:30:28Z" uid="22094" user="Chadzopkyo" changeset="10278191">
    <nd ref="179052320"/>
    <nd ref="179051397"/>
    <nd ref="179051398"/>
    <nd ref="179051400"/>
    <nd ref="179051401"/>
    <tag k="highway" v="residential"/>
    <tag k="maxspeed" v="50"/>
    <tag k="maxspeed:source" v="default residential speed limit in Australia"/>
    <tag k="name" v="Ben Ean Street"/>
    <tag k="source" v="GPS"/>
    <tag k="surface" v="asphalt"/>
  </way>
  <way id="17282667" version="11" timestamp="2012-01-15T17:38:51Z" uid="147510" user="woodpeck_fixbot" changeset="10400850">
    <nd ref="179052320"/>
    <nd ref="179051397"/>
    <nd ref="179051398"/>
    <nd ref="179051400"/>
    <nd ref="179051401"/>
    <tag k="highway" v="residential"/>
    <tag k="name" v="Ben Ean Street"/>
    <tag k="source" v="GPS"/>
    <tag k="surface" v="asphalt"/>
  </way>
  <way id="17282804" version="4" timestamp="2010-07-06T10:11:11Z" uid="74617" user="JohnSmith" changeset="5147679">
    <nd ref="179050215"/>
    <nd ref="179052546"/>
    <nd ref="179052547"/>
    <nd ref="179052548"/>
    <nd ref="179051401"/>
    <nd ref="179052549"/>
    <nd ref="179052550"/>
    <tag k="highway" v="residential"/>
    <tag k="maxspeed" v="50"/>
    <tag k="maxspeed:source" v="default residential speed limit in Australia"/>
    <tag k="name" v="Glenliniton Street"/>
  </way>
  <way id="17282804" version="5" timestamp="2011-05-27T09:33:03Z" uid="22094" user="Chadzopkyo" changeset="8260748">
    <nd ref="179050215"/>
    <nd ref="179052546"/>
    <nd ref="179052548"/>
    <nd ref="1301755875"/>
    <nd ref="179051401"/>
    <nd ref="179052550"/>
    <tag k="highway" v="residential"/>
    <tag k="maxspeed" v="50"/>
    <tag k="maxspeed:source" v="default residential speed limit in Australia"/>
    <tag k="name" v="Glenliniton Street"/>
  </way>
  <way id="17282804" version="6" timestamp="2012-01-03T03:30:31Z" uid="22094" user="Chadzopkyo" changeset="10278191">
    <nd ref="179050215"/>
    <nd ref="179052546"/>
    <nd ref="179052548"/>
    <nd ref="1301755875"/>
    <nd ref="179051401"/>
    <nd ref="179052550"/>
    <tag k="highway" v="residential"/>
    <tag k="maxspeed" v="50"/>
    <tag k="maxspeed:source" v="default residential speed limit in Australia"/>
    <tag k="name" v="Glenliniton Street"/>
    <tag k="source" v="GPS"/>
    <tag k="surface" v="asphalt"/>
  </way>
  <way id="17282804" version="7" timestamp="2012-01-15T17:38:54Z" uid="147510" user="woodpeck_fixbot" changeset="10400850">
    <nd ref="179050215"/>
    <nd ref="179052546"/>
    <nd ref="179052548"/>
    <nd ref="1301755875"/>
    <nd ref="179051401"/>
    <nd ref="179052550"/>
    <tag k="highway" v="residential"/>
    <tag k="name" v="Glenliniton Street"/>
    <tag k="source" v="GPS"/>
    <tag k="surface" v="asphalt"/>
  </way>
  <way id="17282906" version="4" timestamp="2010-07-06T08:45:18Z" uid="74617" user="JohnSmith" changeset="5147679">
    <nd ref="179053153"/>
    <nd ref="179039967"/>
    <tag k="highway" v="residential"/>
    <tag k="maxspeed" v="50"/>
    <tag k="maxspeed:source" v="default residential speed limit in Australia"/>
    <tag k="name" v="Rita Street"/>
  </way>
  <way id="17282906" version="5" timestamp="2012-01-15T17:38:56Z" uid="147510" user="woodpeck_fixbot" changeset="10400850">
    <nd ref="179053153"/>
    <nd ref="179039967"/>
    <tag k="highway" v="residential"/>
    <tag k="name" v="Rita Street"/>
  </way>
  <way id="17282925" version="5" timestamp="2010-07-06T08:43:33Z" uid="74617" user="JohnSmith" changeset="5147679">
    <nd ref="179053155"/>
    <nd ref="601447396"/>
    <nd ref="179039966"/>
    <nd ref="179039974"/>
    <tag k="highway" v="residential"/>
    <tag k="maxspeed" v="50"/>
    <tag k="maxspeed:source" v="default residential speed limit in Australia"/>
    <tag k="name" v="Stella Street"/>
    <tag k="source:name" v="survey"/>
  </way>
  <way id="17282925" version="6" timestamp="2012-01-15T17:38:58Z" uid="147510" user="woodpeck_fixbot" changeset="10400850">
    <nd ref="179053155"/>
    <nd ref="601447396"/>
    <nd ref="179039966"/>
    <nd ref="179039974"/>
    <tag k="highway" v="residential"/>
    <tag k="name" v="Stella Street"/>
    <tag k="source:name" v="survey"/>
  </way>
  <way id="17282958" version="4" timestamp="2010-07-06T08:43:02Z" uid="74617" user="JohnSmith" changeset="5147679">
    <nd ref="179053156"/>
    <nd ref="179053664"/>
    <nd ref="179039965"/>
    <tag k="highway" v="residential"/>
    <tag k="maxspeed" v="50"/>
    <tag k="maxspeed:source" v="default residential speed limit in Australia"/>
    <tag k="name" v="Reuben Street"/>
  </way>
  <way id="17282958" version="5" timestamp="2012-01-15T17:39:00Z" uid="147510" user="woodpeck_fixbot" changeset="10400850">
    <nd ref="179053156"/>
    <nd ref="179053664"/>
    <nd ref="179039965"/>
    <tag k="highway" v="residential"/>
    <tag k="name" v="Reuben Street"/>
  </way>
</osm>
