<?xml version='1.0' encoding='UTF-8'?>
<osm version="0.6" generator="libosmium/2.20.0">
  <way id="17295007" version="4" timestamp="2010-07-06T08:43:55Z" uid="74617" user="JohnSmith" changeset="5147679">
    <nd ref="179143908"/>
    <nd ref="179144228"/>
    <nd ref="179144229"/>
    <nd ref="179039989"/>
    <tag k="highway" v="residential"/>
    <tag k="maxspeed" v="50"/>
    <tag k="maxspeed:source" v="default residential speed limit in Australia"/>
    <tag k="name" v="Rita Street"/>
  </way>
  <way id="17295007" version="5" timestamp="2012-01-15T17:44:59Z" uid="147510" user="woodpeck_fixbot" changeset="10400850">
    <nd ref="179143908"/>
    <nd ref="179144228"/>
    <nd ref="179144229"/>
    <nd ref="179039989"/>
    <tag k="highway" v="residential"/>
    <tag k="name" v="Rita Street"/>
  </way>
  <way id="17295359" version="9" timestamp="2010-07-06T09:18:50Z" uid="74617" user="JohnSmith" changeset="5147679">
    <nd ref="261689086"/>
    <nd ref="143292421"/>
    <nd ref="143290966"/>
    <nd ref="279437010"/>
    <nd ref="143291262"/>
    <nd ref="179146280"/>
    <nd ref="179146284"/>
    <nd ref="179146287"/>
    <nd ref="260100047"/>
    <nd ref="179146289"/>
    <nd ref="179146292"/>
    <nd ref="143291541"/>
    <tag k="highway" v="residential"/>
    <tag k="maxspeed" v="50"/>
    <tag k="maxspeed:source" v="default residential speed limit in Australia"/>
    <tag k="name" v="Shelgate Street"/>
  </way>
  <way id="17295359" version="10" timestamp="2011-08-15T08:24:02Z" uid="22094" user="Chadzopkyo" changeset="9024312">
    <nd ref="261689086"/>
    <nd ref="143292421"/>
    <nd ref="143290966"/>
    <nd ref="279437010"/>
    <nd ref="143291262"/>
    <nd ref="179146280"/>
    <tag k="highway" v="residential"/>
    <tag k="maxspeed" v="50"/>
    <tag k="maxspeed:source" v="default residential speed limit in Australia"/>
    <tag k="name" v="Shelgate Street"/>
  </way>
  <way id="17295359" version="11" timestamp="2012-01-15T17:45:03Z" uid="147510" user="woodpeck_fixbot" changeset="10400850">
    <nd ref="261689086"/>
    <nd ref="143292421"/>
    <nd ref="143290966"/>
    <nd ref="279437010"/>
    <nd ref="143291262"/>
    <nd ref="179146280"/>
    <tag k="highway" v="residential"/>
    <tag k="name" v="Shelgate Street"/>
  </way>
  <way id="17295406" version="5" timestamp="2010-07-06T09:14:40Z" uid="74617" user="JohnSmith" changeset="5147679">
    <nd ref="179146696"/>
    <nd ref="416265602"/>
    <nd ref="179146699"/>
    <tag k="highway" v="residential"/>
    <tag k="maxspeed" v="50"/>
    <tag k="maxspeed:source" v="default residential speed limit in Australia"/>
    <tag k="name" v="Maundrell Terrace"/>
  </way>
  <way id="17295406" version="6" timestamp="2012-01-15T17:45:05Z" uid="147510" user="woodpeck_fixbot" changeset="10400850">
    <nd ref="179146696"/>
    <nd ref="416265602"/>
    <nd ref="179146699"/>
    <tag k="highway" v="residential"/>
    <tag k="name" v="Maundrell Terrace"/>
  </way>
  <way id="17295467" version="6" timestamp="2010-07-06T08:45:56Z" uid="74617" user="JohnSmith" changeset="5147679">
    <nd ref="179064798"/>
    <nd ref="179147265"/>
    <nd ref="179147267"/>
    <nd ref="179147268"/>
    <nd ref="179147269"/>
    <nd ref="179147270"/>
    <nd ref="179147272"/>
    <nd ref="179147273"/>
    <tag k="highway" v="residential"/>
    <tag k="maxspeed" v="50"/>
    <tag k="maxspeed:source" v="default residential speed limit in Australia"/>
    <tag k="name" v="Geelong Avenue"/>
  </way>
  <way id="17295467" version="7" timestamp="2012-01-15T17:45:08Z" uid="147510" user="woodpeck_fixbot" changeset="10400850">
    <nd ref="179064798"/>
    <nd ref="179147265"/>
    <nd ref="179147267"/>
    <nd ref="179147268"/>
    <nd ref="179147269"/>
    <nd ref="179147270"/>
    <nd ref="179147272"/>
    <nd ref="179147273"/>
    <tag k="highway" v="residential"/>
    <tag k="name" v="Geelong Avenue"/>
  </way>
  <way id="17295705" version="4" timestamp="2010-07-06T08:43:54Z" uid="74617" user="JohnSmith" changeset="5147679">
    <nd ref="179143905"/>
    <nd ref="179149331"/>
    <nd ref="179149333"/>
    <nd ref="179149334"/>
    <nd ref="179144819"/>
    <tag k="highway" v="residential"/>
    <tag k="maxspeed" v="50"/>
    <tag k="maxspeed:source" v="default residential speed limit in Australia"/>
    <tag k="name" v="Wilbur Street"/>
  </way>
  <way id="17295705" version="5" timestamp="2012-01-15T17:45:12Z" uid="147510" user="woodpeck_fixbot" changeset="10400850">
    <nd ref="179143905"/>
    <nd ref="179149331"/>
    <nd ref="179149333"/>
    <nd ref="179149334"/>
    <nd ref="179144819"/>
    <tag k="highway" v="residential"/>
    <tag k="name" v="Wilbur Street"/>
  </way>
  <way id="17295781" version="5" timestamp="2010-07-06T08:46:30Z" uid="74617" user="JohnSmith" changeset="5147679">
    <nd ref="179149331"/>
    <nd ref="179150027"/>
    <nd ref="179150029"/>
    <nd ref="179150031"/>
    <nd ref="179150033"/>
    <nd ref="179064798"/>
    <tag k="highway" v="residential"/>
    <tag k="maxspeed" v="50"/>
    <tag k="maxspeed:source" v="default residential speed limit in Australia"/>
    <tag k="name" v="Geelong Avenue"/>
  </way>
  <way id="17295781" version="6" timestamp="2012-01-15T17:45:14Z" uid="147510" user="woodpeck_fixbot" changeset="10400850">
    <nd ref="179149331"/>
    <nd ref="179150027"/>
    <nd ref="179150029"/>
    <nd ref="179150031"/>
    <nd ref="179150033"/>
    <nd ref="179064798"/>
    <tag k="highway" v="residential"/>
    <tag k="name" v="Geelong Avenue"/>
  </way>
  <way id="17295867" version="5" timestamp="2010-07-06T08:47:38Z" uid="74617" user="JohnSmith" changeset="5147679">
    <nd ref="179039999"/>
    <nd ref="179150859"/>
    <nd ref="179150860"/>
    <nd ref="179157208"/>
    <tag k="highway" v="residential"/>
    <tag k="maxspeed" v="50"/>
    <tag k="maxspeed:source" v="default residential speed limit in Australia"/>
    <tag k="name" v="Victor Street"/>
  </way>
  <way id="17295867" version="6" timestamp="2012-01-15T17:45:17Z" uid="147510" user="woodpeck_fixbot" changeset="10400850">
    <nd ref="179039999"/>
    <nd ref="179150859"/>
    <nd ref="179150860"/>
    <nd ref="179157208"/>
    <tag k="highway" v="residential"/>
    <tag k="name" v="Victor Street"/>
  </way>
  <way id="17295968" version="6" timestamp="2010-07-06T09:19:16Z" uid="74617" user="JohnSmith" changeset="5147679">
    <nd ref="150299601"/>
    <nd ref="179151947"/>
    <nd ref="179151948"/>
    <nd ref="179151949"/>
    <nd ref="259801011"/>
    <tag k="highway" v="residential"/>
    <tag k="maxspeed" v="50"/>
    <tag k="maxspeed:source" v="default residential speed limit in Australia"/>
    <tag k="name" v="Eastbourne Street"/>
  </way>
  <way id="17295968" version="7" timestamp="2012-01-15T17:45:23Z" uid="147510" user="woodpeck_fixbot" changeset="10400850">
    <nd ref="150299601"/>
    <nd ref="179151947"/>
    <nd ref="179151948"/>
    <nd ref="179151949"/>
    <nd ref="259801011"/>
    <tag k="highway" v="residential"/>
    <tag k="name" v="Eastbourne Street"/>
  </way>
</osm>
