<?xml version='1.0' encoding='UTF-8'?>
<osm version="0.6" generator="libosmium/2.20.0">
  <way id="17384206" version="5" timestamp="2010-06-14T14:14:45Z" uid="4467" user="Rosscoe" changeset="4988306">
    <nd ref="180028488"/>
    <nd ref="180028489"/>
    <nd ref="714557278"/>
    <nd ref="180028491"/>
    <nd ref="180028492"/>
    <nd ref="714557295"/>
    <nd ref="180028494"/>
    <nd ref="180028495"/>
    <nd ref="180028496"/>
    <nd ref="714557309"/>
    <nd ref="180028498"/>
    <nd ref="714557314"/>
    <nd ref="180028500"/>
    <nd ref="714557323"/>
    <nd ref="180028502"/>
    <nd ref="714557330"/>
    <nd ref="180028503"/>
    <nd ref="180028504"/>
    <nd ref="180028488"/>
    <tag k="highway" v="tertiary"/>
    <tag k="junction" v="roundabout"/>
  </way>
  <way id="17384244" version="4" timestamp="2009-11-26T06:46:28Z" uid="4467" user="Rosscoe" changeset="3218016">
    <nd ref="180028985"/>
    <nd ref="180028986"/>
    <nd ref="180028987"/>
    <nd ref="180038582"/>
    <nd ref="180028989"/>
    <nd ref="180025473"/>
    <nd ref="180028991"/>
    <tag k="highway" v="residential"/>
    <tag k="name" v="Bauer Street"/>
    <tag k="source" v="nearmap"/>
  </way>
  <way id="17384244" version="5" timestamp="2009-11-26T07:20:59Z" uid="4467" user="Rosscoe" changeset="3218146">
    <nd ref="180028985"/>
    <nd ref="180028987"/>
    <nd ref="180038582"/>
    <nd ref="180028989"/>
    <nd ref="180025473"/>
    <nd ref="180028991"/>
    <tag k="highway" v="residential"/>
    <tag k="name" v="Bauer Street"/>
    <tag k="source" v="nearmap"/>
  </way>
  <way id="17384244" version="6" timestamp="2009-11-26T07:43:07Z" uid="4467" user="Rosscoe" changeset="3218239">
    <nd ref="180029275"/>
    <nd ref="180029276"/>
    <nd ref="180029277"/>
    <nd ref="571358222"/>
    <nd ref="180028985"/>
    <nd ref="180028987"/>
    <nd ref="180038582"/>
    <nd ref="180028989"/>
    <nd ref="180025473"/>
    <nd ref="180028991"/>
    <tag k="highway" v="residential"/>
    <tag k="name" v="Bauer Street"/>
    <tag k="source" v="nearmap"/>
  </way>
  <way id="17384244" version="7" timestamp="2010-01-30T12:31:21Z" uid="22094" user="Chadzopkyo" changeset="3750530">
    <nd ref="180029275"/>
    <nd ref="623057715"/>
    <nd ref="180029276"/>
    <nd ref="180029277"/>
    <nd ref="571358222"/>
    <nd ref="623057716"/>
    <tag k="highway" v="residential"/>
    <tag k="name" v="Akes Avenue"/>
    <tag k="surface" v="asphalt"/>
  </way>
  <way id="17384244" version="8" timestamp="2010-07-06T17:31:07Z" uid="74617" user="JohnSmith" changeset="5152225">
    <nd ref="180029275"/>
    <nd ref="623057715"/>
    <nd ref="180029276"/>
    <nd ref="180029277"/>
    <nd ref="571358222"/>
    <nd ref="623057716"/>
    <tag k="highway" v="residential"/>
    <tag k="maxspeed" v="50"/>
    <tag k="maxspeed:source" v="default residential speed limit in Australia"/>
    <tag k="name" v="Akes Avenue"/>
    <tag k="surface" v="asphalt"/>
  </way>
  <way id="17384244" version="9" timestamp="2012-01-15T18:11:05Z" uid="147510" user="woodpeck_fixbot" changeset="10400850">
    <nd ref="180029275"/>
    <nd ref="623057715"/>
    <nd ref="180029276"/>
    <nd ref="180029277"/>
    <nd ref="571358222"/>
    <nd ref="623057716"/>
    <tag k="highway" v="residential"/>
    <tag k="name" v="Akes Avenue"/>
    <tag k="surface" v="asphalt"/>
  </way>
  <way id="17384246" version="4" timestamp="2008-05-19T14:42:40Z" uid="27600" user="Islanit" changeset="481777">
    <nd ref="175237713"/>
    <nd ref="262239195"/>
    <nd ref="262236900"/>
    <nd ref="180028689"/>
    <nd ref="180028703"/>
    <nd ref="180028707"/>
    <nd ref="180028821"/>
    <nd ref="180028713"/>
    <nd ref="180028728"/>
    <nd ref="180028735"/>
    <nd ref="180028740"/>
    <nd ref="180028750"/>
    <tag k="created_by" v="Potlatch 0.8c"/>
    <tag k="highway" v="residential"/>
  </way>
  <way id="17384246" version="5" timestamp="2008-08-29T14:58:39Z" uid="63799" user="platipodium" changeset="456506">
    <nd ref="175237713"/>
    <nd ref="262239195"/>
    <nd ref="262236900"/>
    <nd ref="180028689"/>
    <nd ref="180028703"/>
    <nd ref="180028707"/>
    <nd ref="180028821"/>
    <nd ref="180028713"/>
    <nd ref="180028728"/>
    <nd ref="180028735"/>
    <nd ref="180028740"/>
    <nd ref="180028750"/>
    <tag k="created_by" v="Potlatch 0.10b"/>
    <tag k="highway" v="residential"/>
    <tag k="name" v="An der Ilmenau"/>
  </way>
  <way id="17384246" version="6" timestamp="2008-09-04T07:33:35Z" uid="63799" user="platipodium" changeset="532281">
    <nd ref="175237713"/>
    <nd ref="262239195"/>
    <nd ref="262236900"/>
    <nd ref="180028689"/>
    <nd ref="180028703"/>
    <nd ref="180028707"/>
    <nd ref="180028821"/>
    <nd ref="180028713"/>
    <nd ref="180028728"/>
    <nd ref="180028735"/>
    <nd ref="180028740"/>
    <nd ref="180028750"/>
    <tag k="created_by" v="Potlatch 0.10b"/>
    <tag k="highway" v="residential"/>
    <tag k="name" v="Ilmenaustraße"/>
  </way>
  <way id="17384246" version="7" timestamp="2008-09-07T11:21:43Z" uid="66212" user="dboeliii" changeset="561366">
    <nd ref="175237713"/>
    <nd ref="262239195"/>
    <nd ref="262236900"/>
    <nd ref="180028689"/>
    <nd ref="180028703"/>
    <nd ref="180028707"/>
    <nd ref="180028821"/>
    <nd ref="180028713"/>
    <nd ref="180028728"/>
    <nd ref="180028735"/>
    <nd ref="180028740"/>
    <nd ref="180028750"/>
    <tag k="created_by" v="Potlatch 0.10b"/>
    <tag k="highway" v="residential"/>
    <tag k="name" v="Ilmenaustraße"/>
  </way>
  <way id="17384246" version="8" timestamp="2008-09-14T13:51:02Z" uid="2566" user="Sven S_" changeset="631216">
    <nd ref="175237713"/>
    <nd ref="262239195"/>
    <nd ref="262236900"/>
    <nd ref="180028689"/>
    <nd ref="180028703"/>
    <nd ref="180028821"/>
    <nd ref="180028713"/>
    <nd ref="180028735"/>
    <nd ref="180028740"/>
    <nd ref="180028750"/>
    <tag k="created_by" v="Potlatch 0.10b"/>
    <tag k="highway" v="residential"/>
    <tag k="name" v="Ilmenaustraße"/>
  </way>
  <way id="17384246" version="9" timestamp="2008-11-04T20:22:00Z" uid="25608" user="stephan75" changeset="678987">
    <nd ref="175237713"/>
    <nd ref="262239195"/>
    <nd ref="309938039"/>
    <nd ref="262236900"/>
    <nd ref="180028689"/>
    <nd ref="180028703"/>
    <nd ref="180028821"/>
    <nd ref="180028713"/>
    <nd ref="180028735"/>
    <nd ref="180028740"/>
    <nd ref="180028750"/>
    <tag k="created_by" v="Potlatch 0.10f"/>
    <tag k="highway" v="residential"/>
    <tag k="name" v="Ilmenaustraße"/>
  </way>
  <way id="17384246" version="10" timestamp="2008-12-31T17:09:27Z" uid="72235" user="Basstoelpel" changeset="692672">
    <nd ref="175237713"/>
    <nd ref="262239195"/>
    <tag k="highway" v="residential"/>
    <tag k="name" v="Am Berge"/>
  </way>
  <way id="17384246" version="11" timestamp="2012-03-17T00:00:16Z" uid="45882" user="smarties" changeset="11003819"/>
  <way id="17384288" version="3" timestamp="2009-11-26T07:21:00Z" uid="4467" user="Rosscoe" changeset="3218146">
    <nd ref="180029275"/>
    <nd ref="180029276"/>
    <nd ref="180029277"/>
    <nd ref="571358222"/>
    <nd ref="180028985"/>
    <tag k="highway" v="residential"/>
  </way>
  <way id="17384288" version="4" timestamp="2009-11-26T07:43:10Z" uid="4467" user="Rosscoe" changeset="3218239"/>
  <way id="17384414" version="2" timestamp="2009-11-26T07:20:59Z" uid="4467" user="Rosscoe" changeset="3218146">
    <nd ref="180031203"/>
    <nd ref="571358232"/>
    <tag k="highway" v="residential"/>
    <tag k="name" v="Chester Terrace"/>
    <tag k="oneway" v="yes"/>
  </way>
  <way id="17384414" version="3" timestamp="2010-07-06T17:32:22Z" uid="74617" user="JohnSmith" changeset="5152225">
    <nd ref="180031203"/>
    <nd ref="571358232"/>
    <tag k="highway" v="residential"/>
    <tag k="maxspeed" v="50"/>
    <tag k="maxspeed:source" v="default residential speed limit in Australia"/>
    <tag k="name" v="Chester Terrace"/>
    <tag k="oneway" v="yes"/>
  </way>
  <way id="17384414" version="4" timestamp="2012-01-15T18:11:07Z" uid="147510" user="woodpeck_fixbot" changeset="10400850">
    <nd ref="180031203"/>
    <nd ref="571358232"/>
    <tag k="highway" v="residential"/>
    <tag k="name" v="Chester Terrace"/>
    <tag k="oneway" v="yes"/>
  </way>
  <way id="17384536" version="2" timestamp="2009-11-26T07:20:59Z" uid="4467" user="Rosscoe" changeset="3218146">
    <nd ref="180025476"/>
    <nd ref="180032385"/>
    <nd ref="179946950"/>
    <tag k="highway" v="residential"/>
    <tag k="name" v="Waverley Streeet"/>
    <tag k="source" v="nearmap"/>
  </way>
  <way id="17384536" version="3" timestamp="2010-07-06T17:32:42Z" uid="74617" user="JohnSmith" changeset="5152225">
    <nd ref="180025476"/>
    <nd ref="180032385"/>
    <nd ref="179946950"/>
    <tag k="highway" v="residential"/>
    <tag k="maxspeed" v="50"/>
    <tag k="maxspeed:source" v="default residential speed limit in Australia"/>
    <tag k="name" v="Waverley Streeet"/>
    <tag k="source" v="nearmap"/>
  </way>
  <way id="17384536" version="4" timestamp="2012-01-15T18:11:08Z" uid="147510" user="woodpeck_fixbot" changeset="10400850">
    <nd ref="180025476"/>
    <nd ref="180032385"/>
    <nd ref="179946950"/>
    <tag k="highway" v="residential"/>
    <tag k="name" v="Waverley Streeet"/>
    <tag k="source" v="nearmap"/>
  </way>
  <way id="17384563" version="3" timestamp="2009-11-26T07:21:00Z" uid="4467" user="Rosscoe" changeset="3218146">
    <nd ref="180031205"/>
    <nd ref="180025475"/>
    <nd ref="180032644"/>
    <nd ref="571358235"/>
    <nd ref="571358236"/>
    <tag k="highway" v="residential"/>
    <tag k="name" v="Lenneberg Streeet"/>
    <tag k="source" v="nearmap"/>
  </way>
  <way id="17384563" version="4" timestamp="2010-07-06T17:24:34Z" uid="74617" user="JohnSmith" changeset="5152225">
    <nd ref="180031205"/>
    <nd ref="180025475"/>
    <nd ref="180032644"/>
    <nd ref="571358235"/>
    <nd ref="571358236"/>
    <tag k="highway" v="residential"/>
    <tag k="maxspeed" v="50"/>
    <tag k="maxspeed:source" v="default residential speed limit in Australia"/>
    <tag k="name" v="Lenneberg Streeet"/>
    <tag k="source" v="nearmap"/>
  </way>
  <way id="17384563" version="5" timestamp="2012-01-15T18:11:09Z" uid="147510" user="woodpeck_fixbot" changeset="10400850">
    <nd ref="180031205"/>
    <nd ref="180025475"/>
    <nd ref="180032644"/>
    <nd ref="571358235"/>
    <nd ref="571358236"/>
    <tag k="highway" v="residential"/>
    <tag k="name" v="Lenneberg Streeet"/>
    <tag k="source" v="nearmap"/>
  </way>
  <way id="17384707" version="4" timestamp="2009-11-26T04:25:44Z" uid="4467" user="Rosscoe" changeset="3217733">
    <nd ref="180032385"/>
    <nd ref="180032644"/>
    <tag k="highway" v="residential"/>
    <tag k="name" v="Andrews Street"/>
  </way>
  <way id="17384707" version="5" timestamp="2010-07-06T17:24:57Z" uid="74617" user="JohnSmith" changeset="5152225">
    <nd ref="180032385"/>
    <nd ref="180032644"/>
    <tag k="highway" v="residential"/>
    <tag k="maxspeed" v="50"/>
    <tag k="maxspeed:source" v="default residential speed limit in Australia"/>
    <tag k="name" v="Andrews Street"/>
  </way>
  <way id="17384707" version="6" timestamp="2012-01-15T18:11:11Z" uid="147510" user="woodpeck_fixbot" changeset="10400850">
    <nd ref="180032385"/>
    <nd ref="180032644"/>
    <tag k="highway" v="residential"/>
    <tag k="name" v="Andrews Street"/>
  </way>
  <way id="17384881" version="3" timestamp="2009-11-26T06:46:28Z" uid="4467" user="Rosscoe" changeset="3218016">
    <nd ref="180025474"/>
    <nd ref="180035560"/>
    <tag k="highway" v="residential"/>
    <tag k="name" v="Lather Street"/>
    <tag k="source" v="nearmap"/>
  </way>
  <way id="17384881" version="4" timestamp="2010-07-06T17:27:34Z" uid="74617" user="JohnSmith" changeset="5152225">
    <nd ref="180025474"/>
    <nd ref="180035560"/>
    <tag k="highway" v="residential"/>
    <tag k="maxspeed" v="50"/>
    <tag k="maxspeed:source" v="default residential speed limit in Australia"/>
    <tag k="name" v="Lather Street"/>
    <tag k="source" v="nearmap"/>
  </way>
  <way id="17384881" version="5" timestamp="2012-01-15T18:11:13Z" uid="147510" user="woodpeck_fixbot" changeset="10400850">
    <nd ref="180025474"/>
    <nd ref="180035560"/>
    <tag k="highway" v="residential"/>
    <tag k="name" v="Lather Street"/>
    <tag k="source" v="nearmap"/>
  </way>
</osm>
