<?xml version='1.0' encoding='UTF-8'?>
<osm version="0.6" generator="libosmium/2.20.0">
  <way id="17510783" version="5" timestamp="2008-09-16T19:44:18Z" uid="65847" user="LKK" changeset="650758">
    <nd ref="181374383"/>
    <nd ref="181374391"/>
    <nd ref="297557249"/>
    <nd ref="181374396"/>
    <tag k="created_by" v="Potlatch 0.9a"/>
    <tag k="highway" v="secondary"/>
    <tag k="junction" v="roundabout"/>
    <tag k="maxspeed" v="50"/>
    <tag k="ref" v="L 3026"/>
  </way>
  <way id="17510783" version="6" timestamp="2008-09-24T18:59:00Z" uid="65847" user="LKK" changeset="689745">
    <nd ref="181374383"/>
    <nd ref="181374391"/>
    <nd ref="297557249"/>
    <nd ref="181374396"/>
    <tag k="created_by" v="Potlatch 0.9a"/>
    <tag k="highway" v="secondary"/>
    <tag k="maxspeed" v="50"/>
    <tag k="ref" v="L 3026"/>
  </way>
  <way id="17510783" version="7" timestamp="2009-04-06T14:35:45Z" uid="39762" user="dartial" changeset="270863">
    <nd ref="181374383"/>
    <nd ref="181374391"/>
    <nd ref="297557249"/>
    <tag k="created_by" v="Potlatch 0.10f"/>
    <tag k="highway" v="secondary"/>
    <tag k="maxspeed" v="50"/>
    <tag k="ref" v="L 3026"/>
  </way>
  <way id="17510783" version="8" timestamp="2009-04-29T08:41:07Z" uid="39762" user="dartial" changeset="1012742">
    <nd ref="181374383"/>
    <nd ref="181374391"/>
    <nd ref="297557249"/>
    <nd ref="181374396"/>
    <tag k="created_by" v="Potlatch 0.10f"/>
    <tag k="highway" v="secondary"/>
    <tag k="maxspeed" v="50"/>
    <tag k="ref" v="L 3026"/>
  </way>
  <way id="17510783" version="9" timestamp="2009-08-14T13:33:24Z" uid="39762" user="dartial" changeset="2143030">
    <nd ref="181374383"/>
    <nd ref="181374391"/>
    <nd ref="181374396"/>
    <tag k="created_by" v="Potlatch 0.10f"/>
    <tag k="highway" v="secondary"/>
    <tag k="maxspeed" v="50"/>
    <tag k="ref" v="L 3026"/>
  </way>
  <way id="17510786" version="9" timestamp="2008-09-26T14:46:21Z" uid="65847" user="LKK" changeset="700129">
    <nd ref="181374550"/>
    <nd ref="266707310"/>
    <nd ref="266700786"/>
    <nd ref="181374509"/>
    <nd ref="266700801"/>
    <nd ref="181374467"/>
    <nd ref="181374460"/>
    <nd ref="181374456"/>
    <nd ref="181374421"/>
    <tag k="created_by" v="Potlatch 0.9a"/>
    <tag k="highway" v="secondary"/>
    <tag k="maxspeed" v="50"/>
    <tag k="name" v="Hauptstraße"/>
    <tag k="ref" v="L 3026"/>
  </way>
  <way id="17510786" version="10" timestamp="2008-09-27T17:25:42Z" uid="65847" user="LKK" changeset="708098">
    <nd ref="181374550"/>
    <nd ref="266707310"/>
    <nd ref="266700786"/>
    <nd ref="181374509"/>
    <nd ref="266700801"/>
    <nd ref="300389280"/>
    <nd ref="181374467"/>
    <nd ref="181374460"/>
    <nd ref="181374456"/>
    <nd ref="181374421"/>
    <tag k="created_by" v="Potlatch 0.9a"/>
    <tag k="highway" v="secondary"/>
    <tag k="maxspeed" v="50"/>
    <tag k="name" v="Hauptstraße"/>
    <tag k="ref" v="L 3026"/>
  </way>
  <way id="17510786" version="11" timestamp="2009-02-15T17:37:28Z" uid="39762" user="dartial" changeset="458637">
    <nd ref="181374550"/>
    <nd ref="266707310"/>
    <nd ref="266700786"/>
    <nd ref="181374509"/>
    <nd ref="345718407"/>
    <nd ref="266700801"/>
    <nd ref="300389280"/>
    <nd ref="181374467"/>
    <nd ref="181374460"/>
    <nd ref="181374456"/>
    <nd ref="181374421"/>
    <tag k="created_by" v="Potlatch 0.10f"/>
    <tag k="highway" v="secondary"/>
    <tag k="maxspeed" v="50"/>
    <tag k="name" v="Hauptstraße"/>
    <tag k="ref" v="L 3026"/>
  </way>
  <way id="17510786" version="12" timestamp="2009-02-16T10:06:28Z" uid="39762" user="dartial" changeset="478806">
    <nd ref="181374550"/>
    <nd ref="266707310"/>
    <nd ref="266700786"/>
    <nd ref="181374509"/>
    <nd ref="345718407"/>
    <nd ref="266700801"/>
    <nd ref="300389280"/>
    <nd ref="181374467"/>
    <nd ref="181374460"/>
    <nd ref="181374456"/>
    <nd ref="346132036"/>
    <nd ref="181374421"/>
    <tag k="created_by" v="Potlatch 0.10f"/>
    <tag k="highway" v="secondary"/>
    <tag k="maxspeed" v="50"/>
    <tag k="name" v="Hauptstraße"/>
    <tag k="ref" v="L 3026"/>
  </way>
  <way id="17510786" version="13" timestamp="2009-02-17T11:45:11Z" uid="39762" user="dartial" changeset="516547">
    <nd ref="181374550"/>
    <nd ref="266707310"/>
    <nd ref="346638600"/>
    <nd ref="266700786"/>
    <nd ref="181374509"/>
    <nd ref="345718407"/>
    <nd ref="266700801"/>
    <nd ref="300389280"/>
    <nd ref="181374467"/>
    <nd ref="181374460"/>
    <nd ref="181374456"/>
    <nd ref="346132036"/>
    <nd ref="181374421"/>
    <tag k="created_by" v="Potlatch 0.10f"/>
    <tag k="highway" v="secondary"/>
    <tag k="maxspeed" v="50"/>
    <tag k="name" v="Hauptstraße"/>
    <tag k="ref" v="L 3026"/>
  </way>
  <way id="17510786" version="14" timestamp="2009-02-17T11:45:27Z" uid="39762" user="dartial" changeset="516547">
    <nd ref="181374550"/>
    <nd ref="266707310"/>
    <nd ref="346638600"/>
    <nd ref="266700786"/>
    <nd ref="181374509"/>
    <nd ref="345718407"/>
    <nd ref="266700801"/>
    <nd ref="300389280"/>
    <nd ref="181374467"/>
    <nd ref="181374460"/>
    <nd ref="181374456"/>
    <nd ref="346132036"/>
    <nd ref="181374421"/>
    <tag k="created_by" v="Potlatch 0.10f"/>
    <tag k="highway" v="secondary"/>
    <tag k="maxspeed" v="50"/>
    <tag k="name" v="Hauptstraße"/>
    <tag k="ref" v="L 3026"/>
  </way>
  <way id="17510786" version="15" timestamp="2009-04-16T08:09:12Z" uid="39762" user="dartial" changeset="581633">
    <nd ref="181374550"/>
    <nd ref="266707310"/>
    <nd ref="346638600"/>
    <nd ref="266700786"/>
    <nd ref="181374509"/>
    <nd ref="345718407"/>
    <nd ref="266700801"/>
    <tag k="created_by" v="Potlatch 0.10f"/>
    <tag k="highway" v="secondary"/>
    <tag k="maxspeed" v="50"/>
    <tag k="name" v="Hauptstraße"/>
    <tag k="ref" v="L 3026"/>
  </way>
  <way id="17510786" version="16" timestamp="2009-04-16T08:09:42Z" uid="39762" user="dartial" changeset="581633">
    <nd ref="266707310"/>
    <nd ref="346638600"/>
    <nd ref="266700786"/>
    <nd ref="181374509"/>
    <nd ref="345718407"/>
    <nd ref="266700801"/>
    <tag k="created_by" v="Potlatch 0.10f"/>
    <tag k="highway" v="secondary"/>
    <tag k="maxspeed" v="50"/>
    <tag k="name" v="Hauptstraße"/>
    <tag k="ref" v="L 3026"/>
  </way>
  <way id="17510786" version="17" timestamp="2009-04-16T08:09:58Z" uid="39762" user="dartial" changeset="581633">
    <nd ref="181374550"/>
    <nd ref="266707310"/>
    <nd ref="346638600"/>
    <nd ref="266700786"/>
    <nd ref="181374509"/>
    <nd ref="345718407"/>
    <nd ref="266700801"/>
    <tag k="created_by" v="Potlatch 0.10f"/>
    <tag k="highway" v="secondary"/>
    <tag k="maxspeed" v="50"/>
    <tag k="name" v="Hauptstraße"/>
    <tag k="ref" v="L 3026"/>
  </way>
  <way id="17510786" version="18" timestamp="2009-04-16T08:10:21Z" uid="39762" user="dartial" changeset="581633">
    <nd ref="181374550"/>
    <nd ref="266707310"/>
    <tag k="created_by" v="Potlatch 0.10f"/>
    <tag k="highway" v="secondary"/>
    <tag k="maxspeed" v="50"/>
    <tag k="name" v="Hauptstraße"/>
    <tag k="ref" v="L 3026"/>
  </way>
  <way id="17510786" version="19" timestamp="2009-04-16T08:10:43Z" uid="39762" user="dartial" changeset="581633">
    <nd ref="247334411"/>
    <nd ref="345741100"/>
    <nd ref="181374609"/>
    <nd ref="266701845"/>
    <nd ref="181374604"/>
    <nd ref="266701224"/>
    <nd ref="345675656"/>
    <nd ref="181374600"/>
    <nd ref="181374591"/>
    <nd ref="181374582"/>
    <nd ref="266700799"/>
    <nd ref="181374573"/>
    <nd ref="345674677"/>
    <nd ref="181374567"/>
    <nd ref="181374558"/>
    <nd ref="181374550"/>
    <nd ref="266707310"/>
    <tag k="created_by" v="Potlatch 0.10f"/>
    <tag k="highway" v="secondary"/>
    <tag k="maxspeed" v="30"/>
    <tag k="name" v="Hauptstraße"/>
    <tag k="ref" v="L 3026"/>
  </way>
  <way id="17510786" version="20" timestamp="2010-05-13T17:50:59Z" uid="28378" user="PHerison" changeset="4688870">
    <nd ref="247334411"/>
    <nd ref="345741100"/>
    <nd ref="181374609"/>
    <nd ref="266701845"/>
    <nd ref="181374604"/>
    <nd ref="266701224"/>
    <nd ref="345675656"/>
    <nd ref="181374600"/>
    <nd ref="181374591"/>
    <nd ref="181374582"/>
    <nd ref="266700799"/>
    <nd ref="181374573"/>
    <nd ref="345674677"/>
    <nd ref="732627069"/>
    <nd ref="181374567"/>
    <nd ref="181374558"/>
    <nd ref="181374550"/>
    <nd ref="266707310"/>
    <tag k="highway" v="secondary"/>
    <tag k="maxspeed" v="30"/>
    <tag k="name" v="Hauptstraße"/>
    <tag k="ref" v="L 3026"/>
  </way>
  <way id="17510786" version="21" timestamp="2011-08-27T15:46:31Z" uid="31846" user="Tracker" changeset="9139075">
    <nd ref="247334411"/>
    <nd ref="345741100"/>
    <nd ref="181374609"/>
    <nd ref="266701845"/>
    <nd ref="181374604"/>
    <nd ref="266701224"/>
    <nd ref="345675656"/>
    <nd ref="181374600"/>
    <nd ref="181374591"/>
    <nd ref="181374582"/>
    <nd ref="1414899894"/>
    <nd ref="266700799"/>
    <nd ref="181374573"/>
    <nd ref="345674677"/>
    <nd ref="732627069"/>
    <nd ref="181374567"/>
    <nd ref="181374558"/>
    <nd ref="181374550"/>
    <nd ref="266707310"/>
    <tag k="highway" v="secondary"/>
    <tag k="maxspeed" v="30"/>
    <tag k="name" v="Hauptstraße"/>
    <tag k="ref" v="L 3026"/>
  </way>
  <way id="17510786" version="22" timestamp="2011-08-27T15:50:21Z" uid="31846" user="Tracker" changeset="9139103">
    <nd ref="247334411"/>
    <nd ref="1414905260"/>
    <nd ref="345741100"/>
    <nd ref="181374609"/>
    <nd ref="1414905252"/>
    <nd ref="266701845"/>
    <nd ref="1414905249"/>
    <nd ref="181374604"/>
    <nd ref="266701224"/>
    <nd ref="345675656"/>
    <nd ref="181374600"/>
    <nd ref="181374591"/>
    <nd ref="181374582"/>
    <nd ref="1414899894"/>
    <nd ref="266700799"/>
    <nd ref="181374573"/>
    <nd ref="345674677"/>
    <nd ref="732627069"/>
    <nd ref="181374567"/>
    <nd ref="181374558"/>
    <nd ref="181374550"/>
    <nd ref="266707310"/>
    <tag k="highway" v="secondary"/>
    <tag k="maxspeed" v="30"/>
    <tag k="name" v="Hauptstraße"/>
    <tag k="ref" v="L 3026"/>
  </way>
  <way id="17510788" version="5" timestamp="2008-09-16T18:15:59Z" uid="65847" user="LKK" changeset="647306">
    <nd ref="181374647"/>
    <nd ref="181374653"/>
    <nd ref="181374659"/>
    <nd ref="181374665"/>
    <nd ref="181374674"/>
    <nd ref="181374681"/>
    <nd ref="181374689"/>
    <nd ref="181374697"/>
    <nd ref="181374701"/>
    <nd ref="181374707"/>
    <nd ref="181374716"/>
    <nd ref="181374726"/>
    <nd ref="265810306"/>
    <nd ref="181374732"/>
    <nd ref="181374738"/>
    <nd ref="181374744"/>
    <nd ref="181374752"/>
    <nd ref="181374759"/>
    <nd ref="181374766"/>
    <nd ref="181374773"/>
    <nd ref="181374781"/>
    <nd ref="181374790"/>
    <nd ref="181374797"/>
    <nd ref="181374800"/>
    <nd ref="181374810"/>
    <nd ref="181374818"/>
    <nd ref="181374829"/>
    <nd ref="181374833"/>
    <nd ref="181374840"/>
    <nd ref="181374849"/>
    <nd ref="181374857"/>
    <nd ref="181374860"/>
    <nd ref="181374869"/>
    <nd ref="181374872"/>
    <nd ref="181374880"/>
    <tag k="created_by" v="JOSM"/>
    <tag k="highway" v="secondary"/>
    <tag k="ref" v="L 3026"/>
    <tag k="source" v="GPS"/>
  </way>
  <way id="17510788" version="6" timestamp="2009-04-06T14:25:05Z" uid="39762" user="dartial" changeset="270863">
    <nd ref="181374647"/>
    <nd ref="181374653"/>
    <nd ref="181374659"/>
    <nd ref="181374665"/>
    <nd ref="181374674"/>
    <nd ref="181374681"/>
    <nd ref="181374689"/>
    <nd ref="181374697"/>
    <nd ref="181374701"/>
    <nd ref="181374707"/>
    <nd ref="181374716"/>
    <nd ref="181374726"/>
    <nd ref="265810306"/>
    <nd ref="181374732"/>
    <nd ref="181374738"/>
    <nd ref="181374744"/>
    <nd ref="181374752"/>
    <nd ref="181374759"/>
    <nd ref="181374766"/>
    <nd ref="181374773"/>
    <nd ref="181374781"/>
    <nd ref="181374790"/>
    <nd ref="181374797"/>
    <nd ref="181374800"/>
    <nd ref="181374810"/>
    <nd ref="181374818"/>
    <nd ref="181374829"/>
    <nd ref="181374833"/>
    <nd ref="181374840"/>
    <nd ref="181374849"/>
    <nd ref="181374857"/>
    <nd ref="181374860"/>
    <nd ref="181374869"/>
    <nd ref="181374872"/>
    <nd ref="181374880"/>
    <tag k="created_by" v="Potlatch 0.10f"/>
    <tag k="highway" v="secondary"/>
    <tag k="ref" v="L 3026"/>
    <tag k="source" v="GPS"/>
  </way>
  <way id="17510788" version="7" timestamp="2009-04-16T10:33:06Z" uid="39762" user="dartial" changeset="581633"/>
  <way id="17510792" version="6" timestamp="2008-09-16T18:16:03Z" uid="65847" user="LKK" changeset="647306">
    <nd ref="181374880"/>
    <nd ref="297528172"/>
    <nd ref="266741566"/>
    <nd ref="266744701"/>
    <nd ref="266741568"/>
    <nd ref="181374889"/>
    <nd ref="181374898"/>
    <nd ref="181374916"/>
    <nd ref="266744742"/>
    <nd ref="266741570"/>
    <nd ref="181374947"/>
    <tag k="created_by" v="JOSM"/>
    <tag k="highway" v="secondary"/>
    <tag k="maxspeed" v="30"/>
    <tag k="name" v="Idsteiner Straße"/>
    <tag k="ref" v="L 3026"/>
    <tag k="source" v="GPS"/>
  </way>
  <way id="17510792" version="7" timestamp="2008-10-21T21:14:23Z" uid="28378" user="PHerison" changeset="490881">
    <nd ref="181374880"/>
    <nd ref="297528172"/>
    <tag k="created_by" v="Potlatch 0.10e"/>
    <tag k="highway" v="secondary"/>
    <tag k="maxspeed" v="30"/>
    <tag k="name" v="Idsteiner Straße"/>
    <tag k="ref" v="L 3026"/>
    <tag k="source" v="GPS"/>
  </way>
  <way id="17510792" version="8" timestamp="2012-03-22T11:25:40Z" uid="52759" user="b166er" changeset="11061776">
    <nd ref="181374880"/>
    <nd ref="297528172"/>
    <tag k="highway" v="secondary"/>
    <tag k="maxspeed" v="30"/>
    <tag k="name" v="Idsteiner Straße"/>
    <tag k="ref" v="L 3026"/>
    <tag k="source" v="GPS"/>
    <tag k="surface" v="asphalt"/>
  </way>
</osm>
