<?xml version='1.0' encoding='UTF-8'?>
<osm version="0.6" generator="libosmium/2.20.0">
  <way id="17581126" version="3" timestamp="2010-07-08T02:13:41Z" uid="74617" user="JohnSmith" changeset="5162525">
    <nd ref="175656072"/>
    <nd ref="182016413"/>
    <nd ref="182013321"/>
    <tag k="highway" v="residential"/>
    <tag k="maxspeed" v="50"/>
    <tag k="maxspeed:source" v="default residential speed limit in Australia"/>
    <tag k="name" v="Orange Street"/>
  </way>
  <way id="17581126" version="4" timestamp="2012-01-15T18:18:27Z" uid="147510" user="woodpeck_fixbot" changeset="10400850">
    <nd ref="175656072"/>
    <nd ref="182016413"/>
    <nd ref="182013321"/>
    <tag k="highway" v="residential"/>
    <tag k="name" v="Orange Street"/>
  </way>
  <way id="17581461" version="2" timestamp="2008-03-06T07:57:12Z" uid="7617" user="Franc" changeset="273411">
    <nd ref="182015637"/>
    <nd ref="182016413"/>
    <nd ref="250789549"/>
    <nd ref="175655452"/>
    <tag k="created_by" v="Potlatch 0.5d"/>
    <tag k="highway" v="residential"/>
    <tag k="name" v="Vine Street"/>
  </way>
  <way id="17581461" version="3" timestamp="2010-02-23T09:05:22Z" uid="7617" user="Franc" changeset="3950847">
    <nd ref="182015637"/>
    <nd ref="182016413"/>
    <nd ref="651296096"/>
    <nd ref="651296097"/>
    <tag k="highway" v="residential"/>
    <tag k="name" v="Vine Street"/>
  </way>
  <way id="17581461" version="4" timestamp="2010-07-08T02:12:14Z" uid="74617" user="JohnSmith" changeset="5162525">
    <nd ref="182015637"/>
    <nd ref="182016413"/>
    <nd ref="651296096"/>
    <nd ref="651296097"/>
    <tag k="highway" v="residential"/>
    <tag k="maxspeed" v="50"/>
    <tag k="maxspeed:source" v="default residential speed limit in Australia"/>
    <tag k="name" v="Vine Street"/>
  </way>
  <way id="17581461" version="5" timestamp="2012-01-15T18:18:30Z" uid="147510" user="woodpeck_fixbot" changeset="10400850">
    <nd ref="182015637"/>
    <nd ref="182016413"/>
    <nd ref="651296096"/>
    <nd ref="651296097"/>
    <tag k="highway" v="residential"/>
    <tag k="name" v="Vine Street"/>
  </way>
  <way id="17581461" version="6" timestamp="2012-03-07T05:23:41Z" uid="7523" user="inas" changeset="10896683">
    <nd ref="182015637"/>
    <nd ref="182016413"/>
    <nd ref="651296097"/>
    <tag k="highway" v="residential"/>
    <tag k="name" v="Vine Street"/>
  </way>
  <way id="17581522" version="3" timestamp="2010-07-08T02:11:48Z" uid="74617" user="JohnSmith" changeset="5162525">
    <nd ref="175655454"/>
    <nd ref="182017027"/>
    <nd ref="182017029"/>
    <tag k="highway" v="residential"/>
    <tag k="maxspeed" v="50"/>
    <tag k="maxspeed:source" v="default residential speed limit in Australia"/>
    <tag k="name" v="Docos Crescent"/>
  </way>
  <way id="17581522" version="4" timestamp="2012-01-15T18:18:31Z" uid="147510" user="woodpeck_fixbot" changeset="10400850">
    <nd ref="175655454"/>
    <nd ref="182017027"/>
    <nd ref="182017029"/>
    <tag k="highway" v="residential"/>
    <tag k="name" v="Docos Crescent"/>
  </way>
  <way id="17581561" version="2" timestamp="2010-02-23T09:05:20Z" uid="7617" user="Franc" changeset="3950847">
    <nd ref="182017027"/>
    <nd ref="651296100"/>
    <nd ref="182017481"/>
    <tag k="highway" v="residential"/>
    <tag k="name" v="Docos Crescent"/>
  </way>
  <way id="17581561" version="3" timestamp="2010-07-08T02:12:31Z" uid="74617" user="JohnSmith" changeset="5162525">
    <nd ref="182017027"/>
    <nd ref="651296100"/>
    <nd ref="182017481"/>
    <tag k="highway" v="residential"/>
    <tag k="maxspeed" v="50"/>
    <tag k="maxspeed:source" v="default residential speed limit in Australia"/>
    <tag k="name" v="Docos Crescent"/>
  </way>
  <way id="17581561" version="4" timestamp="2012-01-15T18:18:33Z" uid="147510" user="woodpeck_fixbot" changeset="10400850">
    <nd ref="182017027"/>
    <nd ref="651296100"/>
    <nd ref="182017481"/>
    <tag k="highway" v="residential"/>
    <tag k="name" v="Docos Crescent"/>
  </way>
  <way id="17581729" version="2" timestamp="2009-03-28T13:02:41Z" uid="7617" user="Franc" changeset="865362">
    <nd ref="175656070"/>
    <nd ref="182018825"/>
    <tag k="created_by" v="Potlatch 0.5d"/>
    <tag k="highway" v="residential"/>
    <tag k="name" v="Romani Avenue"/>
    <tag k="source" v="survey"/>
  </way>
  <way id="17581729" version="3" timestamp="2010-07-08T02:11:41Z" uid="74617" user="JohnSmith" changeset="5162525">
    <nd ref="175656070"/>
    <nd ref="182018825"/>
    <tag k="highway" v="residential"/>
    <tag k="maxspeed" v="50"/>
    <tag k="maxspeed:source" v="default residential speed limit in Australia"/>
    <tag k="name" v="Romani Avenue"/>
    <tag k="source" v="survey"/>
  </way>
  <way id="17581729" version="4" timestamp="2012-01-15T18:18:39Z" uid="147510" user="woodpeck_fixbot" changeset="10400850">
    <nd ref="175656070"/>
    <nd ref="182018825"/>
    <tag k="highway" v="residential"/>
    <tag k="name" v="Romani Avenue"/>
    <tag k="source" v="survey"/>
  </way>
  <way id="17581825" version="2" timestamp="2009-03-28T13:02:35Z" uid="7617" user="Franc" changeset="865362">
    <nd ref="182019443"/>
    <nd ref="175655460"/>
    <tag k="created_by" v="Potlatch 0.5d"/>
    <tag k="highway" v="residential"/>
    <tag k="name" v="Romani Avenue"/>
    <tag k="source" v="survey"/>
  </way>
  <way id="17581825" version="3" timestamp="2010-07-08T02:12:39Z" uid="74617" user="JohnSmith" changeset="5162525">
    <nd ref="182019443"/>
    <nd ref="175655460"/>
    <tag k="highway" v="residential"/>
    <tag k="maxspeed" v="50"/>
    <tag k="maxspeed:source" v="default residential speed limit in Australia"/>
    <tag k="name" v="Romani Avenue"/>
    <tag k="source" v="survey"/>
  </way>
  <way id="17581825" version="4" timestamp="2012-01-15T18:18:41Z" uid="147510" user="woodpeck_fixbot" changeset="10400850">
    <nd ref="182019443"/>
    <nd ref="175655460"/>
    <tag k="highway" v="residential"/>
    <tag k="name" v="Romani Avenue"/>
    <tag k="source" v="survey"/>
  </way>
</osm>
