<?xml version='1.0' encoding='UTF-8'?>
<osm version="0.6" generator="libosmium/2.20.0">
  <way id="17592037" version="6" timestamp="2010-02-23T09:50:51Z" uid="7617" user="Franc" changeset="3951734">
    <nd ref="182114287"/>
    <nd ref="651305738"/>
    <tag k="highway" v="residential"/>
    <tag k="name" v="Regent Street"/>
    <tag k="oneway" v="yes"/>
  </way>
  <way id="17592037" version="7" timestamp="2010-07-08T02:12:00Z" uid="74617" user="JohnSmith" changeset="5162525">
    <nd ref="182114287"/>
    <nd ref="651305738"/>
    <tag k="highway" v="residential"/>
    <tag k="maxspeed" v="50"/>
    <tag k="maxspeed:source" v="default residential speed limit in Australia"/>
    <tag k="name" v="Regent Street"/>
    <tag k="oneway" v="yes"/>
  </way>
  <way id="17592037" version="8" timestamp="2012-01-15T18:19:44Z" uid="147510" user="woodpeck_fixbot" changeset="10400850">
    <nd ref="182114287"/>
    <nd ref="651305738"/>
    <tag k="highway" v="residential"/>
    <tag k="name" v="Regent Street"/>
    <tag k="oneway" v="yes"/>
  </way>
  <way id="17592151" version="4" timestamp="2010-07-08T02:08:45Z" uid="74617" user="JohnSmith" changeset="5162525">
    <nd ref="175655462"/>
    <nd ref="182117171"/>
    <tag k="highway" v="residential"/>
    <tag k="maxspeed" v="50"/>
    <tag k="maxspeed:source" v="default residential speed limit in Australia"/>
    <tag k="name" v="Basil Road"/>
  </way>
  <way id="17592151" version="5" timestamp="2012-01-15T18:19:46Z" uid="147510" user="woodpeck_fixbot" changeset="10400850">
    <nd ref="175655462"/>
    <nd ref="182117171"/>
    <tag k="highway" v="residential"/>
    <tag k="name" v="Basil Road"/>
  </way>
  <way id="17592213" version="3" timestamp="2010-07-08T02:06:50Z" uid="74617" user="JohnSmith" changeset="5162525">
    <nd ref="182116693"/>
    <nd ref="182117170"/>
    <tag k="highway" v="residential"/>
    <tag k="maxspeed" v="50"/>
    <tag k="maxspeed:source" v="default residential speed limit in Australia"/>
    <tag k="name" v="Leslie Road"/>
  </way>
  <way id="17592213" version="4" timestamp="2012-01-15T18:19:47Z" uid="147510" user="woodpeck_fixbot" changeset="10400850">
    <nd ref="182116693"/>
    <nd ref="182117170"/>
    <tag k="highway" v="residential"/>
    <tag k="name" v="Leslie Road"/>
  </way>
  <way id="17592248" version="6" timestamp="2010-07-08T02:11:54Z" uid="74617" user="JohnSmith" changeset="5162525">
    <nd ref="182117170"/>
    <nd ref="182117171"/>
    <nd ref="182123337"/>
    <nd ref="182123338"/>
    <tag k="highway" v="residential"/>
    <tag k="maxspeed" v="50"/>
    <tag k="maxspeed:source" v="default residential speed limit in Australia"/>
    <tag k="name" v="St Vincent Road"/>
  </way>
  <way id="17592248" version="7" timestamp="2012-01-15T18:19:48Z" uid="147510" user="woodpeck_fixbot" changeset="10400850">
    <nd ref="182117170"/>
    <nd ref="182117171"/>
    <nd ref="182123337"/>
    <nd ref="182123338"/>
    <tag k="highway" v="residential"/>
    <tag k="name" v="St Vincent Road"/>
  </way>
  <way id="17592302" version="3" timestamp="2010-07-08T02:08:42Z" uid="74617" user="JohnSmith" changeset="5162525">
    <nd ref="182117171"/>
    <nd ref="182116482"/>
    <nd ref="182116483"/>
    <nd ref="182116486"/>
    <nd ref="182116487"/>
    <nd ref="182116488"/>
    <nd ref="182116489"/>
    <tag k="highway" v="residential"/>
    <tag k="maxspeed" v="50"/>
    <tag k="maxspeed:source" v="default residential speed limit in Australia"/>
    <tag k="name" v="Basil Road"/>
    <tag k="oneway" v="yes"/>
  </way>
  <way id="17592302" version="4" timestamp="2010-09-20T08:51:40Z" uid="7617" user="Franc" changeset="5827121">
    <nd ref="182117171"/>
    <nd ref="182116482"/>
    <nd ref="182116483"/>
    <nd ref="182116486"/>
    <nd ref="919457183"/>
    <nd ref="182116487"/>
    <nd ref="182116488"/>
    <nd ref="182116489"/>
    <tag k="highway" v="residential"/>
    <tag k="maxspeed" v="50"/>
    <tag k="maxspeed:source" v="default residential speed limit in Australia"/>
    <tag k="name" v="Basil Road"/>
    <tag k="oneway" v="yes"/>
  </way>
  <way id="17592302" version="5" timestamp="2012-01-15T18:19:50Z" uid="147510" user="woodpeck_fixbot" changeset="10400850">
    <nd ref="182117171"/>
    <nd ref="182116482"/>
    <nd ref="182116483"/>
    <nd ref="182116486"/>
    <nd ref="919457183"/>
    <nd ref="182116487"/>
    <nd ref="182116488"/>
    <nd ref="182116489"/>
    <tag k="highway" v="residential"/>
    <tag k="name" v="Basil Road"/>
    <tag k="oneway" v="yes"/>
  </way>
  <way id="17592505" version="2" timestamp="2010-09-20T08:51:53Z" uid="7617" user="Franc" changeset="5827121">
    <nd ref="182120088"/>
    <nd ref="182120089"/>
    <nd ref="182120091"/>
    <nd ref="182120092"/>
    <nd ref="182120093"/>
    <nd ref="182120094"/>
    <nd ref="182120095"/>
    <nd ref="182120096"/>
    <nd ref="182120097"/>
    <nd ref="182120098"/>
    <nd ref="182120100"/>
    <nd ref="182120102"/>
    <nd ref="182120103"/>
    <nd ref="182120105"/>
    <nd ref="919457072"/>
    <nd ref="182120088"/>
    <tag k="leisure" v="park"/>
    <tag k="name" v="Evatt Park"/>
  </way>
  <way id="17592593" version="4" timestamp="2010-07-08T02:11:01Z" uid="74617" user="JohnSmith" changeset="5162525">
    <nd ref="175655459"/>
    <nd ref="182123337"/>
    <nd ref="182123430"/>
    <nd ref="182121200"/>
    <tag k="highway" v="residential"/>
    <tag k="maxspeed" v="50"/>
    <tag k="maxspeed:source" v="default residential speed limit in Australia"/>
    <tag k="name" v="Kenyon Road"/>
  </way>
  <way id="17592593" version="5" timestamp="2010-09-20T08:52:03Z" uid="7617" user="Franc" changeset="5827121">
    <nd ref="175655459"/>
    <nd ref="182123337"/>
    <nd ref="919457139"/>
    <nd ref="182123430"/>
    <nd ref="182121200"/>
    <tag k="highway" v="residential"/>
    <tag k="maxspeed" v="50"/>
    <tag k="maxspeed:source" v="default residential speed limit in Australia"/>
    <tag k="name" v="Kenyon Road"/>
  </way>
  <way id="17592593" version="6" timestamp="2012-01-15T18:19:52Z" uid="147510" user="woodpeck_fixbot" changeset="10400850">
    <nd ref="175655459"/>
    <nd ref="182123337"/>
    <nd ref="919457139"/>
    <nd ref="182123430"/>
    <nd ref="182121200"/>
    <tag k="highway" v="residential"/>
    <tag k="name" v="Kenyon Road"/>
  </way>
  <way id="17592949" version="2" timestamp="2010-07-08T02:07:06Z" uid="74617" user="JohnSmith" changeset="5162525">
    <nd ref="182123430"/>
    <nd ref="182111679"/>
    <nd ref="182124116"/>
    <nd ref="182124117"/>
    <tag k="highway" v="residential"/>
    <tag k="maxspeed" v="50"/>
    <tag k="maxspeed:source" v="default residential speed limit in Australia"/>
    <tag k="name" v="Haigh Street"/>
  </way>
  <way id="17592949" version="3" timestamp="2011-05-23T11:46:21Z" uid="459102" user="neromonk" changeset="8225541">
    <nd ref="182123430"/>
    <nd ref="182111679"/>
    <nd ref="182124116"/>
    <nd ref="182124117"/>
    <tag k="highway" v="residential"/>
    <tag k="maxspeed" v="50"/>
    <tag k="maxspeed:source" v="default residential speed limit in Australia"/>
    <tag k="name" v="Haig Street"/>
  </way>
  <way id="17592949" version="4" timestamp="2012-01-15T18:19:54Z" uid="147510" user="woodpeck_fixbot" changeset="10400850">
    <nd ref="182123430"/>
    <nd ref="182111679"/>
    <nd ref="182124116"/>
    <nd ref="182124117"/>
    <tag k="highway" v="residential"/>
    <tag k="name" v="Haig Street"/>
  </way>
</osm>
