<?xml version='1.0' encoding='UTF-8'?>
<osm version="0.6" generator="libosmium/2.20.0">
  <way id="17728111" version="5" timestamp="2010-07-07T07:39:36Z" uid="74617" user="JohnSmith" changeset="5156250">
    <nd ref="183733108"/>
    <nd ref="183735099"/>
    <nd ref="183735100"/>
    <nd ref="183731061"/>
    <nd ref="183735102"/>
    <nd ref="183735209"/>
    <nd ref="183735104"/>
    <nd ref="183735105"/>
    <nd ref="183735106"/>
    <nd ref="183735108"/>
    <nd ref="183735110"/>
    <nd ref="183735111"/>
    <nd ref="183735113"/>
    <nd ref="183735114"/>
    <nd ref="183735118"/>
    <nd ref="183735119"/>
    <tag k="highway" v="residential"/>
    <tag k="maxspeed" v="50"/>
    <tag k="maxspeed:source" v="default residential speed limit in Australia"/>
    <tag k="name" v="Dunoon Road"/>
    <tag k="source" v="survey"/>
  </way>
  <way id="17728111" version="6" timestamp="2012-01-15T18:21:07Z" uid="147510" user="woodpeck_fixbot" changeset="10400850">
    <nd ref="183733108"/>
    <nd ref="183735099"/>
    <nd ref="183735100"/>
    <nd ref="183731061"/>
    <nd ref="183735102"/>
    <nd ref="183735209"/>
    <nd ref="183735104"/>
    <nd ref="183735105"/>
    <nd ref="183735106"/>
    <nd ref="183735108"/>
    <nd ref="183735110"/>
    <nd ref="183735111"/>
    <nd ref="183735113"/>
    <nd ref="183735114"/>
    <nd ref="183735118"/>
    <nd ref="183735119"/>
    <tag k="highway" v="residential"/>
    <tag k="name" v="Dunoon Road"/>
    <tag k="source" v="survey"/>
  </way>
  <way id="17728212" version="2" timestamp="2010-07-07T07:38:46Z" uid="74617" user="JohnSmith" changeset="5156250">
    <nd ref="183735209"/>
    <nd ref="183735955"/>
    <nd ref="183735957"/>
    <nd ref="183735958"/>
    <nd ref="183735960"/>
    <nd ref="183735961"/>
    <tag k="highway" v="residential"/>
    <tag k="maxspeed" v="50"/>
    <tag k="maxspeed:source" v="default residential speed limit in Australia"/>
    <tag k="name" v="Mornington Crescent"/>
    <tag k="source" v="survey"/>
  </way>
  <way id="17728212" version="3" timestamp="2012-01-15T18:21:09Z" uid="147510" user="woodpeck_fixbot" changeset="10400850">
    <nd ref="183735209"/>
    <nd ref="183735955"/>
    <nd ref="183735957"/>
    <nd ref="183735958"/>
    <nd ref="183735960"/>
    <nd ref="183735961"/>
    <tag k="highway" v="residential"/>
    <tag k="name" v="Mornington Crescent"/>
    <tag k="source" v="survey"/>
  </way>
  <way id="17728290" version="6" timestamp="2010-07-07T07:39:50Z" uid="74617" user="JohnSmith" changeset="5156250">
    <nd ref="183735105"/>
    <nd ref="183736711"/>
    <nd ref="183736713"/>
    <nd ref="183736714"/>
    <nd ref="183736903"/>
    <nd ref="183736715"/>
    <nd ref="183736717"/>
    <tag k="highway" v="residential"/>
    <tag k="maxspeed" v="50"/>
    <tag k="maxspeed:source" v="default residential speed limit in Australia"/>
    <tag k="name" v="Fiona Drive"/>
    <tag k="source" v="survey"/>
  </way>
  <way id="17728290" version="7" timestamp="2012-01-15T18:21:13Z" uid="147510" user="woodpeck_fixbot" changeset="10400850">
    <nd ref="183735105"/>
    <nd ref="183736711"/>
    <nd ref="183736713"/>
    <nd ref="183736714"/>
    <nd ref="183736903"/>
    <nd ref="183736715"/>
    <nd ref="183736717"/>
    <tag k="highway" v="residential"/>
    <tag k="name" v="Fiona Drive"/>
    <tag k="source" v="survey"/>
  </way>
  <way id="17728340" version="5" timestamp="2010-07-07T07:40:33Z" uid="74617" user="JohnSmith" changeset="5156250">
    <nd ref="183736903"/>
    <nd ref="183737134"/>
    <tag k="highway" v="residential"/>
    <tag k="maxspeed" v="50"/>
    <tag k="maxspeed:source" v="default residential speed limit in Australia"/>
    <tag k="name" v="Nelson Place"/>
    <tag k="source" v="survey"/>
  </way>
  <way id="17728340" version="6" timestamp="2012-01-15T18:21:16Z" uid="147510" user="woodpeck_fixbot" changeset="10400850">
    <nd ref="183736903"/>
    <nd ref="183737134"/>
    <tag k="highway" v="residential"/>
    <tag k="name" v="Nelson Place"/>
    <tag k="source" v="survey"/>
  </way>
  <way id="17728402" version="3" timestamp="2010-07-07T07:39:44Z" uid="74617" user="JohnSmith" changeset="5156250">
    <nd ref="183736719"/>
    <nd ref="183737754"/>
    <tag k="highway" v="residential"/>
    <tag k="maxspeed" v="50"/>
    <tag k="maxspeed:source" v="default residential speed limit in Australia"/>
    <tag k="name" v="Hillstone Crescent"/>
    <tag k="source" v="survey"/>
  </way>
  <way id="17728402" version="4" timestamp="2012-01-15T18:21:17Z" uid="147510" user="woodpeck_fixbot" changeset="10400850">
    <nd ref="183736719"/>
    <nd ref="183737754"/>
    <tag k="highway" v="residential"/>
    <tag k="name" v="Hillstone Crescent"/>
    <tag k="source" v="survey"/>
  </way>
  <way id="17728427" version="4" timestamp="2010-07-07T07:38:25Z" uid="74617" user="JohnSmith" changeset="5156250">
    <nd ref="183736717"/>
    <nd ref="183737965"/>
    <nd ref="183737967"/>
    <tag k="highway" v="residential"/>
    <tag k="maxspeed" v="50"/>
    <tag k="maxspeed:source" v="default residential speed limit in Australia"/>
    <tag k="name" v="Fiona Drive"/>
    <tag k="source" v="survey"/>
  </way>
  <way id="17728427" version="5" timestamp="2012-01-15T18:21:19Z" uid="147510" user="woodpeck_fixbot" changeset="10400850">
    <nd ref="183736717"/>
    <nd ref="183737965"/>
    <nd ref="183737967"/>
    <tag k="highway" v="residential"/>
    <tag k="name" v="Fiona Drive"/>
    <tag k="source" v="survey"/>
  </way>
  <way id="17728450" version="3" timestamp="2010-07-07T07:40:48Z" uid="74617" user="JohnSmith" changeset="5156250">
    <nd ref="183736723"/>
    <nd ref="183738279"/>
    <nd ref="183738281"/>
    <nd ref="183738282"/>
    <tag k="highway" v="residential"/>
    <tag k="maxspeed" v="50"/>
    <tag k="maxspeed:source" v="default residential speed limit in Australia"/>
    <tag k="name" v="Carey Place"/>
    <tag k="source" v="survey"/>
  </way>
  <way id="17728450" version="4" timestamp="2012-01-15T18:21:21Z" uid="147510" user="woodpeck_fixbot" changeset="10400850">
    <nd ref="183736723"/>
    <nd ref="183738279"/>
    <nd ref="183738281"/>
    <nd ref="183738282"/>
    <tag k="highway" v="residential"/>
    <tag k="name" v="Carey Place"/>
    <tag k="source" v="survey"/>
  </way>
  <way id="17728769" version="1" timestamp="2007-12-22T21:04:48Z" uid="1066" user="pavel" changeset="393250">
    <nd ref="183741391"/>
    <nd ref="183741407"/>
    <nd ref="183741426"/>
    <tag k="created_by" v="JOSM"/>
    <tag k="highway" v="residential"/>
  </way>
  <way id="17728769" version="2" timestamp="2008-09-05T10:53:54Z" uid="1066" user="pavel" changeset="539695">
    <nd ref="183741391"/>
    <nd ref="183741407"/>
    <nd ref="183741426"/>
    <tag k="created_by" v="JOSM"/>
    <tag k="highway" v="residential"/>
    <tag k="name" v="Srnečkova"/>
    <tag k="name:source" v="nameit/uir-adr"/>
  </way>
  <way id="17728769" version="3" timestamp="2009-03-04T15:37:50Z" uid="3516" user="BiIbo" changeset="734836">
    <nd ref="183741391"/>
    <nd ref="183741407"/>
    <nd ref="183741426"/>
    <tag k="created_by" v="JOSM"/>
    <tag k="highway" v="residential"/>
    <tag k="name" v="Srnečkova"/>
    <tag k="source:name" v="nameit/uir-adr"/>
  </way>
  <way id="17728769" version="4" timestamp="2009-06-04T20:32:11Z" uid="3516" user="BiIbo" changeset="1424648">
    <nd ref="183741391"/>
    <nd ref="183741407"/>
    <nd ref="415797138"/>
    <nd ref="183741426"/>
    <tag k="highway" v="residential"/>
    <tag k="name" v="Srnečkova"/>
    <tag k="source:name" v="nameit/uir-adr"/>
  </way>
  <way id="17728769" version="5" timestamp="2009-11-23T13:39:01Z" uid="1066" user="pavel" changeset="3195697">
    <nd ref="183741391"/>
    <nd ref="183741407"/>
    <nd ref="415797138"/>
    <nd ref="183741426"/>
    <tag k="highway" v="residential"/>
    <tag k="kct_green" v="major"/>
    <tag k="name" v="Srnečkova"/>
    <tag k="source:name" v="nameit/uir-adr"/>
  </way>
  <way id="17728769" version="6" timestamp="2009-12-23T22:25:20Z" uid="17615" user="Petr Dlouhý" changeset="3438331">
    <nd ref="183741391"/>
    <nd ref="183741407"/>
    <nd ref="415797138"/>
    <nd ref="183741426"/>
    <tag k="highway" v="residential"/>
    <tag k="name" v="Srnečkova"/>
    <tag k="source:name" v="nameit/uir-adr"/>
  </way>
  <way id="17728770" version="1" timestamp="2007-12-22T21:04:49Z" uid="1066" user="pavel" changeset="393250">
    <nd ref="183741426"/>
    <nd ref="183723115"/>
    <nd ref="183723096"/>
    <nd ref="183723076"/>
    <nd ref="183723038"/>
    <nd ref="183722781"/>
    <nd ref="183741442"/>
    <nd ref="183722885"/>
    <tag k="created_by" v="JOSM"/>
    <tag k="highway" v="residential"/>
  </way>
  <way id="17728770" version="2" timestamp="2008-09-05T10:54:35Z" uid="1066" user="pavel" changeset="539695">
    <nd ref="183741426"/>
    <nd ref="183723115"/>
    <nd ref="183723096"/>
    <nd ref="183723076"/>
    <nd ref="183723038"/>
    <nd ref="183722781"/>
    <nd ref="183741442"/>
    <nd ref="183722885"/>
    <tag k="created_by" v="JOSM"/>
    <tag k="highway" v="residential"/>
    <tag k="name" v="Čmelická"/>
    <tag k="name:source" v="nameit/uir-adr"/>
  </way>
  <way id="17728770" version="3" timestamp="2009-03-04T15:37:50Z" uid="3516" user="BiIbo" changeset="734836">
    <nd ref="183741426"/>
    <nd ref="183723115"/>
    <nd ref="183723096"/>
    <nd ref="183723076"/>
    <nd ref="183723038"/>
    <nd ref="183722781"/>
    <nd ref="183741442"/>
    <nd ref="183722885"/>
    <tag k="created_by" v="JOSM"/>
    <tag k="highway" v="residential"/>
    <tag k="name" v="Čmelická"/>
    <tag k="source:name" v="nameit/uir-adr"/>
  </way>
  <way id="17728770" version="4" timestamp="2009-06-04T20:20:12Z" uid="3516" user="BiIbo" changeset="1424569">
    <nd ref="183741426"/>
    <nd ref="183723115"/>
    <nd ref="183723096"/>
    <nd ref="183723076"/>
    <nd ref="183723038"/>
    <tag k="highway" v="residential"/>
    <tag k="name" v="Čmelická"/>
    <tag k="source:name" v="nameit/uir-adr"/>
  </way>
  <way id="17728773" version="1" timestamp="2007-12-22T21:04:49Z" uid="1066" user="pavel" changeset="393250">
    <nd ref="32643030"/>
    <nd ref="183741454"/>
    <nd ref="183741472"/>
    <tag k="created_by" v="JOSM"/>
    <tag k="highway" v="residential"/>
  </way>
  <way id="17728775" version="1" timestamp="2007-12-22T21:04:50Z" uid="1066" user="pavel" changeset="393250">
    <nd ref="73316443"/>
    <nd ref="183741613"/>
    <nd ref="183741630"/>
    <nd ref="183741640"/>
    <tag k="created_by" v="JOSM"/>
    <tag k="highway" v="tertiary"/>
  </way>
  <way id="17728775" version="2" timestamp="2008-08-14T20:25:06Z" uid="3516" user="BiIbo" changeset="257596"/>
  <way id="17728778" version="1" timestamp="2007-12-22T21:04:50Z" uid="1066" user="pavel" changeset="393250">
    <nd ref="73342431"/>
    <nd ref="183741666"/>
    <nd ref="183741692"/>
    <tag k="created_by" v="JOSM"/>
  </way>
  <way id="17728778" version="2" timestamp="2008-01-30T19:35:00Z" uid="3516" user="BiIbo" changeset="712694">
    <nd ref="73342431"/>
    <nd ref="183741666"/>
    <nd ref="183741692"/>
    <tag k="created_by" v="JOSM"/>
    <tag k="highway" v="residential"/>
  </way>
  <way id="17728778" version="3" timestamp="2009-06-04T19:44:19Z" uid="3516" user="BiIbo" changeset="1424199">
    <nd ref="73342431"/>
    <nd ref="183741666"/>
    <nd ref="183741692"/>
    <tag k="highway" v="residential"/>
    <tag k="name" v="Čapkova"/>
  </way>
  <way id="17728892" version="3" timestamp="2010-07-07T07:38:57Z" uid="74617" user="JohnSmith" changeset="5156250">
    <nd ref="183736717"/>
    <nd ref="183736718"/>
    <nd ref="183736719"/>
    <nd ref="183736720"/>
    <nd ref="183736721"/>
    <nd ref="183736723"/>
    <nd ref="183736725"/>
    <nd ref="183736727"/>
    <nd ref="183736728"/>
    <tag k="highway" v="residential"/>
    <tag k="maxspeed" v="50"/>
    <tag k="maxspeed:source" v="default residential speed limit in Australia"/>
    <tag k="name" v="Tregarthen Road"/>
    <tag k="source" v="survey"/>
  </way>
  <way id="17728892" version="4" timestamp="2012-01-15T18:21:23Z" uid="147510" user="woodpeck_fixbot" changeset="10400850">
    <nd ref="183736717"/>
    <nd ref="183736718"/>
    <nd ref="183736719"/>
    <nd ref="183736720"/>
    <nd ref="183736721"/>
    <nd ref="183736723"/>
    <nd ref="183736725"/>
    <nd ref="183736727"/>
    <nd ref="183736728"/>
    <tag k="highway" v="residential"/>
    <tag k="name" v="Tregarthen Road"/>
    <tag k="source" v="survey"/>
  </way>
</osm>
