<?xml version='1.0' encoding='UTF-8'?>
<osm version="0.6" generator="libosmium/2.20.0">
  <way id="17752193" version="3" timestamp="2009-08-11T11:04:13Z" uid="4467" user="Rosscoe" changeset="2107049">
    <nd ref="183922588"/>
    <nd ref="206109443"/>
    <nd ref="21478090"/>
    <tag k="highway" v="primary"/>
    <tag k="is_in" v="Brisbane, QLD, Queensland, Australia"/>
    <tag k="name" v="Ipswich Road"/>
    <tag k="oneway" v="yes"/>
  </way>
  <way id="17752193" version="4" timestamp="2009-11-06T14:07:27Z" uid="14505" user="David Dean" changeset="3048530">
    <nd ref="183922588"/>
    <nd ref="206109443"/>
    <nd ref="558300192"/>
    <nd ref="21478090"/>
    <tag k="highway" v="primary"/>
    <tag k="is_in" v="Brisbane, QLD, Queensland, Australia"/>
    <tag k="name" v="Ipswich Road"/>
    <tag k="oneway" v="yes"/>
  </way>
  <way id="17752193" version="5" timestamp="2010-02-14T17:10:39Z" uid="74617" user="JohnSmith" changeset="3875836">
    <nd ref="183922588"/>
    <nd ref="206109443"/>
    <nd ref="558300192"/>
    <nd ref="21478090"/>
    <tag k="highway" v="primary"/>
    <tag k="name" v="Ipswich Road"/>
    <tag k="oneway" v="yes"/>
  </way>
  <way id="17752193" version="6" timestamp="2010-03-09T05:28:37Z" uid="211951" user="Dr Paul Martin" changeset="4078140">
    <nd ref="183922588"/>
    <nd ref="663132943"/>
    <nd ref="558300192"/>
    <nd ref="21478090"/>
    <tag k="highway" v="primary"/>
    <tag k="name" v="Ipswich Road"/>
    <tag k="oneway" v="yes"/>
  </way>
  <way id="17752193" version="7" timestamp="2010-03-09T05:29:52Z" uid="211951" user="Dr Paul Martin" changeset="4078140">
    <nd ref="183922588"/>
    <nd ref="663133040"/>
    <nd ref="663132943"/>
    <nd ref="558300192"/>
    <nd ref="21478090"/>
    <tag k="highway" v="primary"/>
    <tag k="name" v="Ipswich Road"/>
    <tag k="oneway" v="yes"/>
  </way>
  <way id="17752193" version="8" timestamp="2010-03-21T15:14:58Z" uid="74617" user="JohnSmith" changeset="4192148">
    <nd ref="183922588"/>
    <nd ref="663133040"/>
    <nd ref="663132943"/>
    <nd ref="558300192"/>
    <nd ref="21478090"/>
    <tag k="highway" v="primary"/>
    <tag k="oneway" v="yes"/>
  </way>
  <way id="17752193" version="9" timestamp="2011-01-04T16:14:15Z" uid="103782" user="Jordan Anderson" changeset="6862402">
    <nd ref="183922588"/>
    <nd ref="663133040"/>
    <nd ref="663132943"/>
    <nd ref="558300192"/>
    <nd ref="21478090"/>
    <tag k="highway" v="primary"/>
    <tag k="name" v="Ipswich Road"/>
    <tag k="oneway" v="yes"/>
  </way>
  <way id="17752336" version="4" timestamp="2010-02-14T17:10:39Z" uid="74617" user="JohnSmith" changeset="3875836">
    <nd ref="183934084"/>
    <nd ref="183974532"/>
    <nd ref="355543313"/>
    <nd ref="183974533"/>
    <tag k="highway" v="primary"/>
    <tag k="name" v="Ipswich Road"/>
    <tag k="oneway" v="yes"/>
  </way>
  <way id="17752336" version="5" timestamp="2010-03-09T05:27:52Z" uid="211951" user="Dr Paul Martin" changeset="4078140">
    <nd ref="183934084"/>
    <nd ref="183974532"/>
    <nd ref="355543313"/>
    <nd ref="663132707"/>
    <nd ref="663132708"/>
    <nd ref="183974533"/>
    <tag k="highway" v="primary"/>
    <tag k="name" v="Ipswich Road"/>
    <tag k="oneway" v="yes"/>
  </way>
  <way id="17752336" version="6" timestamp="2010-03-09T05:29:35Z" uid="211951" user="Dr Paul Martin" changeset="4078140">
    <nd ref="183934084"/>
    <nd ref="663132987"/>
    <nd ref="183974532"/>
    <nd ref="663132989"/>
    <nd ref="355543313"/>
    <nd ref="663132707"/>
    <nd ref="663132708"/>
    <nd ref="183974533"/>
    <tag k="highway" v="primary"/>
    <tag k="name" v="Ipswich Road"/>
    <tag k="oneway" v="yes"/>
  </way>
  <way id="17752336" version="7" timestamp="2011-06-05T12:21:46Z" uid="22094" user="Chadzopkyo" changeset="8348479">
    <nd ref="183934084"/>
    <nd ref="663132989"/>
    <nd ref="355543313"/>
    <nd ref="663132708"/>
    <nd ref="183974533"/>
    <tag k="highway" v="primary"/>
    <tag k="name" v="Ipswich Road"/>
    <tag k="oneway" v="yes"/>
  </way>
  <way id="17752365" version="5" timestamp="2008-09-22T12:56:43Z" uid="30632" user="antblant" changeset="680284">
    <nd ref="183974718"/>
    <nd ref="60635601"/>
    <tag k="bridge" v="yes"/>
    <tag k="created_by" v="Potlatch 0.10b"/>
    <tag k="highway" v="motorway"/>
    <tag k="lanes" v="2"/>
    <tag k="layer" v="1"/>
    <tag k="oneway" v="yes"/>
    <tag k="ref" v="A 11"/>
  </way>
  <way id="17752365" version="6" timestamp="2009-02-16T21:56:12Z" uid="9176" user="Maarten Deen" changeset="486420">
    <nd ref="183974718"/>
    <nd ref="60635601"/>
    <tag k="bridge" v="yes"/>
    <tag k="created_by" v="Potlatch 0.10b"/>
    <tag k="highway" v="motorway"/>
    <tag k="int_ref" v="E 28"/>
    <tag k="lanes" v="2"/>
    <tag k="layer" v="1"/>
    <tag k="oneway" v="yes"/>
    <tag k="ref" v="A 11"/>
  </way>
  <way id="17752365" version="7" timestamp="2009-07-29T13:15:54Z" uid="145520" user="km_01" changeset="1975742">
    <nd ref="183974718"/>
    <nd ref="60635601"/>
    <tag k="highway" v="motorway"/>
    <tag k="int_ref" v="E 28"/>
    <tag k="lanes" v="2"/>
    <tag k="layer" v="1"/>
    <tag k="oneway" v="yes"/>
    <tag k="ref" v="A 11"/>
  </way>
  <way id="17752365" version="8" timestamp="2011-06-23T18:20:55Z" uid="42123" user="Ropino" changeset="8525218">
    <nd ref="183974718"/>
    <nd ref="60635601"/>
    <tag k="bridge" v="yes"/>
    <tag k="highway" v="motorway"/>
    <tag k="int_ref" v="E 28"/>
    <tag k="lanes" v="2"/>
    <tag k="layer" v="1"/>
    <tag k="oneway" v="yes"/>
    <tag k="ref" v="A 11"/>
  </way>
  <way id="17752365" version="9" timestamp="2011-10-17T13:08:39Z" uid="30077" user="ChristianW" changeset="9581853">
    <nd ref="183974718"/>
    <nd ref="60635601"/>
    <tag k="bridge" v="yes"/>
    <tag k="highway" v="motorway"/>
    <tag k="int_ref" v="E 28"/>
    <tag k="lanes" v="2"/>
    <tag k="layer" v="1"/>
    <tag k="lit" v="no"/>
    <tag k="oneway" v="yes"/>
    <tag k="ref" v="A 11"/>
    <tag k="source:lit" v="http://www.autobahn-bilder.de"/>
    <tag k="surface" v="concrete"/>
  </way>
  <way id="17752366" version="5" timestamp="2008-09-22T12:56:27Z" uid="30632" user="antblant" changeset="680284">
    <nd ref="60635601"/>
    <nd ref="60635344"/>
    <tag k="created_by" v="Potlatch 0.10b"/>
    <tag k="highway" v="motorway"/>
    <tag k="lanes" v="2"/>
    <tag k="name" v="„Berlinka“"/>
    <tag k="oneway" v="yes"/>
    <tag k="ref" v="A 11"/>
  </way>
  <way id="17752366" version="6" timestamp="2009-02-16T21:56:13Z" uid="9176" user="Maarten Deen" changeset="486420">
    <nd ref="60635601"/>
    <nd ref="60635344"/>
    <tag k="created_by" v="Potlatch 0.10b"/>
    <tag k="highway" v="motorway"/>
    <tag k="int_ref" v="E 28"/>
    <tag k="lanes" v="2"/>
    <tag k="name" v="„Berlinka“"/>
    <tag k="oneway" v="yes"/>
    <tag k="ref" v="A 11"/>
  </way>
  <way id="17752366" version="7" timestamp="2009-10-16T15:42:59Z" uid="65298" user="Torsten OSM" changeset="2865946">
    <nd ref="60635601"/>
    <nd ref="60635344"/>
    <tag k="highway" v="motorway"/>
    <tag k="int_ref" v="E 28"/>
    <tag k="lanes" v="2"/>
    <tag k="name:pl" v="„Berlinka“"/>
    <tag k="oneway" v="yes"/>
    <tag k="ref" v="A 11"/>
  </way>
  <way id="17752366" version="8" timestamp="2011-10-17T13:08:40Z" uid="30077" user="ChristianW" changeset="9581853">
    <nd ref="60635601"/>
    <nd ref="60635344"/>
    <tag k="highway" v="motorway"/>
    <tag k="int_ref" v="E 28"/>
    <tag k="lanes" v="2"/>
    <tag k="lit" v="no"/>
    <tag k="name:pl" v="„Berlinka“"/>
    <tag k="oneway" v="yes"/>
    <tag k="ref" v="A 11"/>
    <tag k="source:lit" v="http://www.autobahn-bilder.de"/>
    <tag k="surface" v="concrete"/>
  </way>
  <way id="17752566" version="7" timestamp="2010-02-14T17:07:30Z" uid="74617" user="JohnSmith" changeset="3875836">
    <nd ref="183894826"/>
    <nd ref="363425777"/>
    <nd ref="183976722"/>
    <tag k="highway" v="residential"/>
    <tag k="maxspeed" v="50"/>
    <tag k="name" v="Trinity Lane"/>
  </way>
  <way id="17752566" version="8" timestamp="2010-03-09T05:25:32Z" uid="211951" user="Dr Paul Martin" changeset="4078140">
    <nd ref="183894826"/>
    <nd ref="363425777"/>
    <tag k="highway" v="residential"/>
    <tag k="maxspeed" v="50"/>
    <tag k="name" v="Trinity Lane"/>
  </way>
  <way id="17752566" version="9" timestamp="2011-12-18T01:46:17Z" uid="103574" user="El Segundo can&apos;t win" changeset="10143307"/>
  <way id="17752649" version="4" timestamp="2010-02-14T17:08:56Z" uid="74617" user="JohnSmith" changeset="3875836">
    <nd ref="183977740"/>
    <nd ref="355543369"/>
    <nd ref="94668592"/>
    <tag k="highway" v="unclassified"/>
    <tag k="maxspeed" v="50"/>
    <tag k="name" v="Jurgens Street"/>
    <tag k="oneway" v="yes"/>
  </way>
  <way id="17752649" version="5" timestamp="2012-01-15T18:21:48Z" uid="147510" user="woodpeck_fixbot" changeset="10400850">
    <nd ref="183977740"/>
    <nd ref="355543369"/>
    <nd ref="94668592"/>
    <tag k="highway" v="unclassified"/>
    <tag k="name" v="Jurgens Street"/>
    <tag k="oneway" v="yes"/>
  </way>
  <way id="17752662" version="5" timestamp="2010-02-14T17:08:56Z" uid="74617" user="JohnSmith" changeset="3875836">
    <nd ref="94668588"/>
    <nd ref="183977990"/>
    <nd ref="183977740"/>
    <tag k="highway" v="unclassified"/>
    <tag k="maxspeed" v="50"/>
    <tag k="name" v="Jurgens Street"/>
    <tag k="oneway" v="yes"/>
  </way>
  <way id="17752662" version="6" timestamp="2012-01-15T18:21:49Z" uid="147510" user="woodpeck_fixbot" changeset="10400850">
    <nd ref="94668588"/>
    <nd ref="183977990"/>
    <nd ref="183977740"/>
    <tag k="highway" v="unclassified"/>
    <tag k="name" v="Jurgens Street"/>
    <tag k="oneway" v="yes"/>
  </way>
  <way id="17752778" version="5" timestamp="2010-02-14T17:08:55Z" uid="74617" user="JohnSmith" changeset="3875836">
    <nd ref="94673054"/>
    <nd ref="183979289"/>
    <nd ref="183977740"/>
    <tag k="highway" v="unclassified"/>
    <tag k="maxspeed" v="50"/>
    <tag k="name" v="Jurgens Street"/>
  </way>
  <way id="17752778" version="6" timestamp="2012-01-15T18:21:51Z" uid="147510" user="woodpeck_fixbot" changeset="10400850">
    <nd ref="94673054"/>
    <nd ref="183979289"/>
    <nd ref="183977740"/>
    <tag k="highway" v="unclassified"/>
    <tag k="name" v="Jurgens Street"/>
  </way>
  <way id="17752778" version="7" timestamp="2012-02-28T04:19:39Z" uid="103574" user="Here is the repulsant snozzcumber!" changeset="10815545">
    <nd ref="1651138144"/>
    <nd ref="183979289"/>
    <nd ref="183977740"/>
    <tag k="highway" v="unclassified"/>
    <tag k="name" v="Jurgens Street"/>
  </way>
  <way id="17752808" version="7" timestamp="2010-02-14T17:09:29Z" uid="74617" user="JohnSmith" changeset="3875836">
    <nd ref="74853994"/>
    <nd ref="183979485"/>
    <nd ref="183979486"/>
    <nd ref="183979487"/>
    <nd ref="206109934"/>
    <tag k="access" v="no"/>
    <tag k="highway" v="unclassified"/>
    <tag k="maxspeed" v="50"/>
    <tag k="name" v="Stanley Street"/>
    <tag k="oneway" v="yes"/>
    <tag k="psv" v="yes"/>
  </way>
  <way id="17752808" version="8" timestamp="2012-01-15T18:21:52Z" uid="147510" user="woodpeck_fixbot" changeset="10400850">
    <nd ref="74853994"/>
    <nd ref="183979485"/>
    <nd ref="183979486"/>
    <nd ref="183979487"/>
    <nd ref="206109934"/>
    <tag k="access" v="no"/>
    <tag k="highway" v="unclassified"/>
    <tag k="name" v="Stanley Street"/>
    <tag k="oneway" v="yes"/>
    <tag k="psv" v="yes"/>
  </way>
</osm>
