<?xml version='1.0' encoding='UTF-8'?>
<osm version="0.6" generator="libosmium/2.20.0">
  <way id="17782071" version="3" timestamp="2010-03-15T11:03:39Z" uid="74617" user="JohnSmith" changeset="4133546">
    <nd ref="181233942"/>
    <nd ref="92313919"/>
    <tag k="highway" v="motorway"/>
    <tag k="oneway" v="yes"/>
  </way>
  <way id="17782071" version="4" timestamp="2010-08-06T23:33:51Z" uid="299678" user="peteramjet" changeset="5421319">
    <nd ref="181233942"/>
    <nd ref="92313919"/>
    <tag k="highway" v="motorway"/>
    <tag k="name" v="Pacific Motorway"/>
    <tag k="oneway" v="yes"/>
  </way>
  <way id="17782071" version="5" timestamp="2010-12-29T10:48:26Z" uid="349913" user="Peter W34" changeset="6796693">
    <nd ref="181233942"/>
    <nd ref="92313919"/>
    <tag k="highway" v="motorway"/>
    <tag k="maxspeed" v="90"/>
    <tag k="name" v="Pacific Motorway"/>
    <tag k="oneway" v="yes"/>
  </way>
  <way id="17782071" version="6" timestamp="2011-09-20T04:00:54Z" uid="103574" user="El Segundo can&apos;t win" changeset="9347957">
    <nd ref="181233942"/>
    <nd ref="92313919"/>
    <tag k="highway" v="motorway"/>
    <tag k="maxspeed" v="90"/>
    <tag k="name" v="Pacific Motorway"/>
    <tag k="oneway" v="yes"/>
    <tag k="ref" v="M3"/>
  </way>
  <way id="17782071" version="7" timestamp="2012-03-29T05:22:07Z" uid="349913" user="Peter W34" changeset="11133414"/>
  <way id="17782512" version="3" timestamp="2010-06-29T19:04:24Z" uid="74617" user="JohnSmith" changeset="5108182">
    <nd ref="184258470"/>
    <nd ref="184258476"/>
    <nd ref="184258482"/>
    <nd ref="184258487"/>
    <nd ref="184258470"/>
    <tag k="fixme" v="sport=football is ambiguous, see http://wiki.osm.org/wiki/Football for more details"/>
    <tag k="sport" v="football"/>
  </way>
  <way id="17782513" version="24" timestamp="2009-10-31T19:39:00Z" uid="85955" user="Gerd Höweler" changeset="3000735">
    <nd ref="186044414"/>
    <nd ref="265636054"/>
    <nd ref="331194664"/>
    <nd ref="186044486"/>
    <nd ref="316986190"/>
    <tag k="highway" v="secondary"/>
    <tag k="maxspeed" v="50"/>
    <tag k="name" v="Beckendorfstraße"/>
    <tag k="ref" v="L 543"/>
  </way>
  <way id="17782513" version="25" timestamp="2011-07-27T09:46:11Z" uid="461103" user="nomatrix" changeset="8843322">
    <nd ref="186044414"/>
    <nd ref="265636054"/>
    <nd ref="186044486"/>
    <nd ref="316986190"/>
    <tag k="highway" v="secondary"/>
    <tag k="maxspeed" v="50"/>
    <tag k="name" v="Beckendorfstraße"/>
    <tag k="ref" v="L 543"/>
  </way>
  <way id="17782513" version="26" timestamp="2012-02-16T18:42:48Z" uid="479529" user="flodbl" changeset="10704435">
    <nd ref="186044414"/>
    <nd ref="1635544608"/>
    <nd ref="265636054"/>
    <nd ref="186044486"/>
    <nd ref="316986190"/>
    <tag k="highway" v="secondary"/>
    <tag k="maxspeed" v="50"/>
    <tag k="name" v="Beckendorfstraße"/>
    <tag k="ref" v="L 543"/>
  </way>
  <way id="17782558" version="3" timestamp="2009-07-27T12:34:56Z" uid="74617" user="JohnSmith" changeset="1955076">
    <nd ref="74816248"/>
    <nd ref="74816250"/>
    <tag k="bridge" v="yes"/>
    <tag k="layer" v="1"/>
    <tag k="railway" v="rail"/>
  </way>
  <way id="17782558" version="4" timestamp="2009-11-15T03:19:55Z" uid="16385" user="morb_au" changeset="3118928">
    <nd ref="74816248"/>
    <nd ref="74816250"/>
    <tag k="bridge" v="yes"/>
    <tag k="layer" v="1"/>
    <tag k="name" v="Gold Coast Railway"/>
    <tag k="railway" v="rail"/>
    <tag k="source" v="nearmap"/>
  </way>
  <way id="17782558" version="5" timestamp="2012-01-04T04:14:58Z" uid="103574" user="Here is the repulsant snozzcumber!" changeset="10287918">
    <nd ref="74816248"/>
    <nd ref="1576400579"/>
    <tag k="bridge" v="yes"/>
    <tag k="layer" v="1"/>
    <tag k="name" v="Gold Coast Railway"/>
    <tag k="railway" v="rail"/>
    <tag k="source" v="nearmap"/>
  </way>
  <way id="17782558" version="6" timestamp="2012-01-04T04:17:05Z" uid="103574" user="Here is the repulsant snozzcumber!" changeset="10287918"/>
  <way id="17782561" version="3" timestamp="2009-07-27T12:34:54Z" uid="74617" user="JohnSmith" changeset="1955076">
    <nd ref="92303611"/>
    <nd ref="92303614"/>
    <tag k="bridge" v="yes"/>
    <tag k="layer" v="1"/>
    <tag k="railway" v="rail"/>
  </way>
  <way id="17782561" version="4" timestamp="2011-12-14T02:37:53Z" uid="103574" user="El Segundo can&apos;t win" changeset="10112611">
    <nd ref="92303611"/>
    <nd ref="1545261692"/>
    <tag k="bridge" v="yes"/>
    <tag k="layer" v="1"/>
    <tag k="railway" v="rail"/>
  </way>
  <way id="17782561" version="5" timestamp="2011-12-20T05:49:10Z" uid="103574" user="El Segundo can&apos;t win" changeset="10161082"/>
</osm>
