<?xml version='1.0' encoding='UTF-8'?>
<osm version="0.6" generator="libosmium/2.20.0">
  <way id="17804950" version="5" timestamp="2010-07-06T08:44:18Z" uid="74617" user="JohnSmith" changeset="5147679">
    <nd ref="184478016"/>
    <nd ref="184480963"/>
    <nd ref="184202308"/>
    <tag k="highway" v="residential"/>
    <tag k="maxspeed" v="50"/>
    <tag k="maxspeed:source" v="default residential speed limit in Australia"/>
    <tag k="name" v="Querrin Street"/>
  </way>
  <way id="17804950" version="6" timestamp="2010-12-03T09:29:59Z" uid="22094" user="Chadzopkyo" changeset="6523908">
    <nd ref="184478016"/>
    <nd ref="184202308"/>
    <tag k="highway" v="residential"/>
    <tag k="maxspeed" v="50"/>
    <tag k="maxspeed:source" v="default residential speed limit in Australia"/>
    <tag k="name" v="Querrin Street"/>
  </way>
  <way id="17804950" version="7" timestamp="2012-01-15T18:24:11Z" uid="147510" user="woodpeck_fixbot" changeset="10400850">
    <nd ref="184478016"/>
    <nd ref="184202308"/>
    <tag k="highway" v="residential"/>
    <tag k="name" v="Querrin Street"/>
  </way>
  <way id="17804950" version="8" timestamp="2012-02-09T05:10:49Z" uid="103574" user="Here is the repulsant snozzcumber!" changeset="10630778"/>
</osm>
