<?xml version='1.0' encoding='UTF-8'?>
<osm version="0.6" generator="libosmium/2.20.0">
  <way id="17805119" version="15" timestamp="2010-10-29T07:31:34Z" uid="4467" user="Rosscoe" changeset="6215110">
    <nd ref="38770260"/>
    <nd ref="968498850"/>
    <nd ref="258315331"/>
    <nd ref="258315333"/>
    <nd ref="258315321"/>
    <nd ref="62329744"/>
    <nd ref="62328584"/>
    <nd ref="75115237"/>
    <tag k="highway" v="trunk"/>
    <tag k="name" v="Ballarat Road"/>
    <tag k="ref" v="8"/>
    <tag k="source" v="yahoo"/>
    <tag k="source:name" v="survey"/>
  </way>
  <way id="17805728" version="3" timestamp="2009-08-11T13:12:33Z" uid="4467" user="Rosscoe" changeset="2108285">
    <nd ref="184464140"/>
    <nd ref="184488300"/>
    <nd ref="79368578"/>
    <tag k="highway" v="secondary"/>
    <tag k="name" v="Fairfield Road"/>
    <tag k="oneway" v="yes"/>
  </way>
  <way id="17805728" version="4" timestamp="2012-02-02T03:23:54Z" uid="103574" user="Here is the repulsant snozzcumber!" changeset="10564227"/>
</osm>
