<?xml version='1.0' encoding='UTF-8'?>
<osm version="0.6" generator="libosmium/2.20.0">
  <way id="17830160" version="5" timestamp="2010-02-14T17:10:26Z" uid="74617" user="JohnSmith" changeset="3875836">
    <nd ref="74847803"/>
    <nd ref="184705081"/>
    <nd ref="184705083"/>
    <tag k="access" v="no"/>
    <tag k="highway" v="unclassified"/>
    <tag k="maxspeed" v="50"/>
    <tag k="name" v="South East Busway"/>
    <tag k="oneway" v="yes"/>
    <tag k="psv" v="permissive"/>
  </way>
  <way id="17830160" version="6" timestamp="2011-12-13T06:34:11Z" uid="103574" user="El Segundo can&apos;t win" changeset="10105152">
    <nd ref="74847803"/>
    <nd ref="184705081"/>
    <nd ref="1543859576"/>
    <tag k="access" v="no"/>
    <tag k="highway" v="unclassified"/>
    <tag k="maxspeed" v="50"/>
    <tag k="name" v="South East Busway"/>
    <tag k="oneway" v="yes"/>
    <tag k="psv" v="permissive"/>
  </way>
  <way id="17830160" version="7" timestamp="2011-12-14T12:07:42Z" uid="103574" user="El Segundo can&apos;t win" changeset="10114906"/>
  <way id="17830329" version="4" timestamp="2010-02-14T17:10:31Z" uid="74617" user="JohnSmith" changeset="3875836">
    <nd ref="184705083"/>
    <nd ref="184706853"/>
    <nd ref="331700669"/>
    <tag k="highway" v="unclassified"/>
    <tag k="maxspeed" v="50"/>
    <tag k="name" v="South East Busway"/>
    <tag k="oneway" v="yes"/>
  </way>
  <way id="17830329" version="5" timestamp="2011-12-13T06:34:11Z" uid="103574" user="El Segundo can&apos;t win" changeset="10105152">
    <nd ref="1543859576"/>
    <nd ref="1543859568"/>
    <nd ref="331700669"/>
    <tag k="highway" v="unclassified"/>
    <tag k="maxspeed" v="50"/>
    <tag k="name" v="South East Busway"/>
    <tag k="oneway" v="yes"/>
  </way>
  <way id="17830329" version="6" timestamp="2011-12-14T12:07:42Z" uid="103574" user="El Segundo can&apos;t win" changeset="10114906"/>
  <way id="17830779" version="6" timestamp="2010-02-14T17:10:26Z" uid="74617" user="JohnSmith" changeset="3875836">
    <nd ref="184699540"/>
    <nd ref="184711471"/>
    <nd ref="184731089"/>
    <tag k="highway" v="service"/>
    <tag k="maxspeed" v="50"/>
    <tag k="name" v="Jacob Lane"/>
  </way>
  <way id="17830779" version="7" timestamp="2011-07-26T23:14:53Z" uid="103574" user="El Segundo can&apos;t win" changeset="8840897">
    <nd ref="184699540"/>
    <nd ref="1375327384"/>
    <nd ref="184711471"/>
    <nd ref="184731089"/>
    <tag k="highway" v="service"/>
    <tag k="maxspeed" v="50"/>
    <tag k="name" v="Jacob Lane"/>
  </way>
  <way id="17830779" version="8" timestamp="2011-12-13T06:30:54Z" uid="103574" user="El Segundo can&apos;t win" changeset="10105152"/>
</osm>
