<?xml version='1.0' encoding='UTF-8'?>
<osm version="0.6" generator="libosmium/2.20.0">
  <way id="17927336" version="3" timestamp="2009-12-26T06:33:37Z" uid="4467" user="Rosscoe" changeset="3452375">
    <nd ref="185629351"/>
    <nd ref="185609413"/>
    <tag k="highway" v="residential"/>
    <tag k="name" v="Kallay Street"/>
    <tag k="oneway" v="yes"/>
    <tag k="source" v="nearmap"/>
  </way>
  <way id="17927336" version="4" timestamp="2010-07-06T17:45:40Z" uid="74617" user="JohnSmith" changeset="5152225">
    <nd ref="185629351"/>
    <nd ref="185609413"/>
    <tag k="highway" v="residential"/>
    <tag k="maxspeed" v="50"/>
    <tag k="maxspeed:source" v="default residential speed limit in Australia"/>
    <tag k="name" v="Kallay Street"/>
    <tag k="oneway" v="yes"/>
    <tag k="source" v="nearmap"/>
  </way>
  <way id="17927336" version="5" timestamp="2012-01-15T18:27:43Z" uid="147510" user="woodpeck_fixbot" changeset="10400850">
    <nd ref="185629351"/>
    <nd ref="185609413"/>
    <tag k="highway" v="residential"/>
    <tag k="name" v="Kallay Street"/>
    <tag k="oneway" v="yes"/>
    <tag k="source" v="nearmap"/>
  </way>
  <way id="17927434" version="3" timestamp="2009-12-26T07:00:58Z" uid="4467" user="Rosscoe" changeset="3452458">
    <nd ref="185630166"/>
    <nd ref="185630167"/>
    <nd ref="185630320"/>
    <nd ref="185630170"/>
    <nd ref="185630171"/>
    <tag k="highway" v="residential"/>
    <tag k="name" v="Kiers Road"/>
  </way>
  <way id="17927434" version="4" timestamp="2010-07-06T17:48:38Z" uid="74617" user="JohnSmith" changeset="5152225">
    <nd ref="185630166"/>
    <nd ref="185630167"/>
    <nd ref="185630320"/>
    <nd ref="185630170"/>
    <nd ref="185630171"/>
    <tag k="highway" v="residential"/>
    <tag k="maxspeed" v="50"/>
    <tag k="maxspeed:source" v="default residential speed limit in Australia"/>
    <tag k="name" v="Kiers Road"/>
  </way>
  <way id="17927434" version="5" timestamp="2012-01-15T18:27:45Z" uid="147510" user="woodpeck_fixbot" changeset="10400850">
    <nd ref="185630166"/>
    <nd ref="185630167"/>
    <nd ref="185630320"/>
    <nd ref="185630170"/>
    <nd ref="185630171"/>
    <tag k="highway" v="residential"/>
    <tag k="name" v="Kiers Road"/>
  </way>
</osm>
