<?xml version='1.0' encoding='UTF-8'?>
<osm version="0.6" generator="libosmium/2.20.0">
  <way id="17943241" version="4" timestamp="2009-07-15T06:53:46Z" uid="7617" user="Franc" changeset="1833483">
    <nd ref="185774991"/>
    <nd ref="442024012"/>
    <nd ref="185774298"/>
    <tag k="created_by" v="Potlatch 0.5d"/>
    <tag k="highway" v="residential"/>
    <tag k="name" v="Ocean Street"/>
  </way>
  <way id="17943241" version="5" timestamp="2010-07-06T17:44:50Z" uid="74617" user="JohnSmith" changeset="5152225">
    <nd ref="185774991"/>
    <nd ref="442024012"/>
    <nd ref="185774298"/>
    <tag k="highway" v="residential"/>
    <tag k="maxspeed" v="50"/>
    <tag k="maxspeed:source" v="default residential speed limit in Australia"/>
    <tag k="name" v="Ocean Street"/>
  </way>
  <way id="17943241" version="6" timestamp="2011-09-04T12:00:05Z" uid="349913" user="Peter W34" changeset="9207099">
    <nd ref="185774991"/>
    <nd ref="442024012"/>
    <nd ref="1422932593"/>
    <nd ref="1422932582"/>
    <nd ref="1422932574"/>
    <nd ref="1422932607"/>
    <nd ref="1422932556"/>
    <nd ref="185774298"/>
    <tag k="highway" v="residential"/>
    <tag k="maxspeed" v="50"/>
    <tag k="maxspeed:source" v="default residential speed limit in Australia"/>
    <tag k="name" v="Ocean Street"/>
  </way>
  <way id="17943241" version="7" timestamp="2012-01-15T18:31:03Z" uid="147510" user="woodpeck_fixbot" changeset="10400850">
    <nd ref="185774991"/>
    <nd ref="442024012"/>
    <nd ref="1422932593"/>
    <nd ref="1422932582"/>
    <nd ref="1422932574"/>
    <nd ref="1422932607"/>
    <nd ref="1422932556"/>
    <nd ref="185774298"/>
    <tag k="highway" v="residential"/>
    <tag k="name" v="Ocean Street"/>
  </way>
  <way id="17943385" version="2" timestamp="2009-07-15T06:53:44Z" uid="7617" user="Franc" changeset="1833483">
    <nd ref="185776621"/>
    <nd ref="442024014"/>
    <nd ref="185776622"/>
    <tag k="created_by" v="Potlatch 0.5d"/>
    <tag k="highway" v="residential"/>
    <tag k="name" v="Dudley Street"/>
  </way>
  <way id="17943385" version="3" timestamp="2010-07-06T17:38:39Z" uid="74617" user="JohnSmith" changeset="5152225">
    <nd ref="185776621"/>
    <nd ref="442024014"/>
    <nd ref="185776622"/>
    <tag k="highway" v="residential"/>
    <tag k="maxspeed" v="50"/>
    <tag k="maxspeed:source" v="default residential speed limit in Australia"/>
    <tag k="name" v="Dudley Street"/>
  </way>
  <way id="17943385" version="4" timestamp="2012-01-15T18:31:08Z" uid="147510" user="woodpeck_fixbot" changeset="10400850">
    <nd ref="185776621"/>
    <nd ref="442024014"/>
    <nd ref="185776622"/>
    <tag k="highway" v="residential"/>
    <tag k="name" v="Dudley Street"/>
  </way>
  <way id="17943453" version="2" timestamp="2009-12-18T09:12:28Z" uid="4467" user="Rosscoe" changeset="3399054">
    <nd ref="185777465"/>
    <nd ref="595542212"/>
    <nd ref="185777466"/>
    <tag k="highway" v="residential"/>
    <tag k="name" v="Francis Street"/>
  </way>
  <way id="17943453" version="3" timestamp="2010-07-06T17:43:38Z" uid="74617" user="JohnSmith" changeset="5152225">
    <nd ref="185777465"/>
    <nd ref="595542212"/>
    <nd ref="185777466"/>
    <tag k="highway" v="residential"/>
    <tag k="maxspeed" v="50"/>
    <tag k="maxspeed:source" v="default residential speed limit in Australia"/>
    <tag k="name" v="Francis Street"/>
  </way>
  <way id="17943453" version="4" timestamp="2012-01-15T18:31:11Z" uid="147510" user="woodpeck_fixbot" changeset="10400850">
    <nd ref="185777465"/>
    <nd ref="595542212"/>
    <nd ref="185777466"/>
    <tag k="highway" v="residential"/>
    <tag k="name" v="Francis Street"/>
  </way>
  <way id="17943489" version="3" timestamp="2009-12-18T09:12:28Z" uid="4467" user="Rosscoe" changeset="3399054">
    <nd ref="185778088"/>
    <nd ref="185777781"/>
    <tag k="highway" v="residential"/>
    <tag k="name" v="Montana Road"/>
  </way>
  <way id="17943489" version="4" timestamp="2010-07-06T17:43:44Z" uid="74617" user="JohnSmith" changeset="5152225">
    <nd ref="185778088"/>
    <nd ref="185777781"/>
    <tag k="highway" v="residential"/>
    <tag k="maxspeed" v="50"/>
    <tag k="maxspeed:source" v="default residential speed limit in Australia"/>
    <tag k="name" v="Montana Road"/>
  </way>
  <way id="17943489" version="5" timestamp="2012-01-15T18:31:13Z" uid="147510" user="woodpeck_fixbot" changeset="10400850">
    <nd ref="185778088"/>
    <nd ref="185777781"/>
    <tag k="highway" v="residential"/>
    <tag k="name" v="Montana Road"/>
  </way>
  <way id="17943560" version="2" timestamp="2009-09-23T08:18:59Z" uid="9581" user="Lobelt" changeset="2591895">
    <nd ref="85858320"/>
    <nd ref="506104217"/>
    <tag k="highway" v="residential"/>
  </way>
  <way id="17943561" version="3" timestamp="2009-09-23T08:18:57Z" uid="9581" user="Lobelt" changeset="2591895">
    <nd ref="185778947"/>
    <nd ref="185778955"/>
    <nd ref="185778963"/>
    <nd ref="506104216"/>
    <nd ref="185778974"/>
    <nd ref="185778985"/>
    <nd ref="185778991"/>
    <nd ref="185778996"/>
    <nd ref="185779005"/>
    <tag k="highway" v="residential"/>
  </way>
  <way id="17943561" version="4" timestamp="2010-01-07T06:11:05Z" uid="216257" user="The_Spirit_of_69" changeset="3559287">
    <nd ref="185778947"/>
    <nd ref="185778955"/>
    <nd ref="185778963"/>
    <nd ref="506104216"/>
    <nd ref="185778974"/>
    <nd ref="185778985"/>
    <nd ref="185778991"/>
    <nd ref="185778996"/>
    <nd ref="185779005"/>
    <tag k="highway" v="residential"/>
    <tag k="oneway" v="yes"/>
  </way>
  <way id="17943561" version="5" timestamp="2010-08-17T20:39:23Z" uid="282048" user="Bareil" changeset="5521558">
    <nd ref="185778947"/>
    <nd ref="185778955"/>
    <nd ref="185778963"/>
    <nd ref="506104216"/>
    <nd ref="185778974"/>
    <nd ref="185778985"/>
    <nd ref="185778991"/>
    <nd ref="185778996"/>
    <nd ref="185779005"/>
    <tag k="highway" v="residential"/>
    <tag k="name" v="Schloßstraße"/>
    <tag k="oneway" v="yes"/>
  </way>
</osm>
