<?xml version='1.0' encoding='UTF-8'?>
<osm version="0.6" generator="libosmium/2.20.0">
  <way id="17968029" version="3" timestamp="2009-02-14T01:20:08Z" uid="36809" user="pfoten_weg_!_" changeset="423851">
    <nd ref="2039859"/>
    <nd ref="185990907"/>
    <nd ref="185990905"/>
    <nd ref="185990902"/>
    <nd ref="2040880"/>
    <nd ref="185990911"/>
    <nd ref="93029761"/>
    <nd ref="185990910"/>
    <nd ref="2039859"/>
    <tag k="created_by" v="RambaZamba"/>
    <tag k="highway" v="primary"/>
    <tag k="junction" v="roundabout"/>
    <tag k="name" v="Freisinger Straße"/>
    <tag k="ref" v="B 11"/>
    <tag k="source" v="survey"/>
  </way>
  <way id="17968029" version="4" timestamp="2009-03-23T14:09:04Z" uid="44811" user="laufstar1" changeset="847683">
    <nd ref="2039859"/>
    <nd ref="185990907"/>
    <nd ref="185990905"/>
    <nd ref="185990902"/>
    <nd ref="2040880"/>
    <nd ref="185990911"/>
    <nd ref="93029761"/>
    <nd ref="185990910"/>
    <nd ref="2039859"/>
    <tag k="created_by" v="Potlatch 0.10f"/>
    <tag k="highway" v="primary"/>
    <tag k="junction" v="roundabout"/>
    <tag k="name" v="Freisinger Straße"/>
    <tag k="oneway" v="yes"/>
    <tag k="ref" v="B 11"/>
    <tag k="source" v="survey"/>
  </way>
  <way id="17968029" version="5" timestamp="2009-07-07T12:52:57Z" uid="59819" user="Fuss-im-Ohr" changeset="1761905">
    <nd ref="2039859"/>
    <nd ref="185990907"/>
    <nd ref="185990905"/>
    <nd ref="185990902"/>
    <nd ref="2040880"/>
    <nd ref="185990911"/>
    <nd ref="93029761"/>
    <nd ref="185990910"/>
    <nd ref="2039859"/>
    <tag k="highway" v="primary"/>
    <tag k="junction" v="roundabout"/>
    <tag k="name" v="Freisinger Straße"/>
    <tag k="oneway" v="yes"/>
    <tag k="ref" v="B 11"/>
    <tag k="source" v="survey"/>
  </way>
  <way id="17968029" version="6" timestamp="2009-12-13T21:25:12Z" uid="56526" user="JJ Rammerl" changeset="3367291">
    <nd ref="2039859"/>
    <nd ref="185990907"/>
    <nd ref="185990905"/>
    <nd ref="185990902"/>
    <nd ref="2040880"/>
    <tag k="highway" v="primary"/>
    <tag k="junction" v="roundabout"/>
    <tag k="name" v="Freisinger Straße"/>
    <tag k="oneway" v="yes"/>
    <tag k="ref" v="B 11"/>
    <tag k="source" v="survey"/>
  </way>
  <way id="17968029" version="7" timestamp="2011-06-16T08:44:52Z" uid="338611" user="marek kleciak" changeset="8454068">
    <nd ref="2040880"/>
    <nd ref="185990911"/>
    <nd ref="93029761"/>
    <nd ref="872421138"/>
    <nd ref="1327215213"/>
    <nd ref="185990910"/>
    <nd ref="1327215214"/>
    <nd ref="2039859"/>
    <nd ref="185990907"/>
    <nd ref="1327215215"/>
    <nd ref="185990905"/>
    <nd ref="1327215211"/>
    <nd ref="185990902"/>
    <nd ref="2040880"/>
    <tag k="highway" v="primary"/>
    <tag k="junction" v="roundabout"/>
    <tag k="name" v="Freisinger Straße"/>
    <tag k="oneway" v="yes"/>
    <tag k="ref" v="B 11"/>
    <tag k="source" v="survey"/>
  </way>
  <way id="17968029" version="8" timestamp="2011-06-16T22:58:44Z" uid="56526" user="JJ Rammerl" changeset="8460957">
    <nd ref="2040880"/>
    <nd ref="185990911"/>
    <nd ref="93029761"/>
    <nd ref="872421138"/>
    <nd ref="1327215213"/>
    <nd ref="185990910"/>
    <nd ref="1327215214"/>
    <nd ref="2039859"/>
    <tag k="highway" v="primary"/>
    <tag k="junction" v="roundabout"/>
    <tag k="name" v="Freisinger Straße"/>
    <tag k="oneway" v="yes"/>
    <tag k="ref" v="B 11"/>
    <tag k="source" v="survey"/>
  </way>
  <way id="17968029" version="9" timestamp="2011-08-25T18:33:13Z" uid="42393" user="mawi42" changeset="9123682">
    <nd ref="2040880"/>
    <nd ref="1412481612"/>
    <nd ref="185990911"/>
    <nd ref="1412481609"/>
    <nd ref="93029761"/>
    <nd ref="872421138"/>
    <nd ref="1327215213"/>
    <nd ref="185990910"/>
    <nd ref="1327215214"/>
    <nd ref="2039859"/>
    <tag k="highway" v="primary"/>
    <tag k="junction" v="roundabout"/>
    <tag k="name" v="Freisinger Straße"/>
    <tag k="oneway" v="yes"/>
    <tag k="ref" v="B 11"/>
    <tag k="source" v="survey"/>
  </way>
  <way id="17968031" version="4" timestamp="2009-02-14T01:20:08Z" uid="36809" user="pfoten_weg_!_" changeset="423851">
    <nd ref="2039859"/>
    <nd ref="94959116"/>
    <tag k="created_by" v="RambaZamba"/>
    <tag k="highway" v="primary"/>
    <tag k="name" v="Freisinger Straße"/>
    <tag k="ref" v="B 11"/>
    <tag k="source" v="survey"/>
  </way>
  <way id="17968031" version="5" timestamp="2009-04-12T20:10:41Z" uid="72235" user="Basstoelpel" changeset="455749">
    <nd ref="2039859"/>
    <nd ref="373457312"/>
    <nd ref="373457304"/>
    <nd ref="94959116"/>
    <tag k="created_by" v="RambaZamba"/>
    <tag k="highway" v="primary"/>
    <tag k="name" v="Freisinger Straße"/>
    <tag k="ref" v="B 11"/>
    <tag k="source" v="survey"/>
  </way>
  <way id="17968031" version="6" timestamp="2009-07-07T12:53:15Z" uid="59819" user="Fuss-im-Ohr" changeset="1761905">
    <nd ref="2039859"/>
    <nd ref="373457312"/>
    <nd ref="373457304"/>
    <nd ref="94959116"/>
    <tag k="highway" v="primary"/>
    <tag k="name" v="Freisinger Straße"/>
    <tag k="ref" v="B 11"/>
    <tag k="source" v="survey"/>
  </way>
  <way id="17968031" version="7" timestamp="2010-03-21T16:45:32Z" uid="208592" user="gf2009d" changeset="4193433">
    <nd ref="2039859"/>
    <nd ref="373457312"/>
    <nd ref="373457304"/>
    <nd ref="94959116"/>
    <tag k="highway" v="primary"/>
    <tag k="maxspeed" v="50"/>
    <tag k="name" v="Freisinger Straße"/>
    <tag k="ref" v="B 11"/>
    <tag k="source" v="survey"/>
  </way>
  <way id="17968031" version="8" timestamp="2011-06-06T10:07:28Z" uid="338611" user="marek kleciak" changeset="8358426">
    <nd ref="2039859"/>
    <nd ref="373457312"/>
    <nd ref="373457304"/>
    <nd ref="1313962417"/>
    <nd ref="94959116"/>
    <tag k="highway" v="primary"/>
    <tag k="maxspeed" v="50"/>
    <tag k="name" v="Freisinger Straße"/>
    <tag k="ref" v="B 11"/>
    <tag k="source" v="survey"/>
  </way>
  <way id="17968031" version="9" timestamp="2011-06-16T22:58:44Z" uid="56526" user="JJ Rammerl" changeset="8460957">
    <nd ref="2039859"/>
    <nd ref="373457312"/>
    <nd ref="373457304"/>
    <nd ref="1313962417"/>
    <tag k="highway" v="primary"/>
    <tag k="maxspeed" v="50"/>
    <tag k="name" v="Freisinger Straße"/>
    <tag k="ref" v="B 11"/>
    <tag k="source" v="survey"/>
  </way>
  <way id="17968031" version="10" timestamp="2011-08-25T14:57:23Z" uid="484116" user="ichuber" changeset="9122062">
    <nd ref="2039859"/>
    <nd ref="373457312"/>
    <nd ref="373457304"/>
    <nd ref="1313962417"/>
    <nd ref="1313962419"/>
    <nd ref="1412254840"/>
    <nd ref="1313962410"/>
    <nd ref="1313962408"/>
    <nd ref="1313962409"/>
    <nd ref="1313962420"/>
    <nd ref="1313962418"/>
    <tag k="access" v="yes"/>
    <tag k="highway" v="primary"/>
    <tag k="horse" v="no"/>
    <tag k="maxspeed" v="50"/>
    <tag k="motor_vehicle" v="yes"/>
    <tag k="name" v="Freisinger Straße"/>
    <tag k="oneway" v="yes"/>
    <tag k="ref" v="B 11"/>
    <tag k="source" v="survey"/>
  </way>
  <way id="17968031" version="11" timestamp="2011-12-29T23:56:21Z" uid="56526" user="JJ Rammerl" changeset="10240253">
    <nd ref="2039859"/>
    <nd ref="373457312"/>
    <nd ref="373457304"/>
    <nd ref="1313962417"/>
    <tag k="access" v="yes"/>
    <tag k="highway" v="primary"/>
    <tag k="horse" v="no"/>
    <tag k="maxspeed" v="50"/>
    <tag k="motor_vehicle" v="yes"/>
    <tag k="name" v="Freisinger Straße"/>
    <tag k="oneway" v="yes"/>
    <tag k="ref" v="B 11"/>
    <tag k="source" v="survey"/>
  </way>
  <way id="17968031" version="12" timestamp="2012-01-13T22:53:52Z" uid="583341" user="lopimopi" changeset="10383632">
    <nd ref="2039859"/>
    <nd ref="373457312"/>
    <nd ref="373457304"/>
    <nd ref="1313962417"/>
    <tag k="access" v="yes"/>
    <tag k="highway" v="primary"/>
    <tag k="horse" v="no"/>
    <tag k="maxspeed" v="50"/>
    <tag k="motor_vehicle" v="yes"/>
    <tag k="name" v="Freisinger Straße"/>
    <tag k="ref" v="B 11"/>
    <tag k="source" v="survey"/>
  </way>
  <way id="17968370" version="3" timestamp="2009-06-29T08:14:27Z" uid="74617" user="JohnSmith" changeset="1674248">
    <nd ref="185991841"/>
    <nd ref="185991862"/>
    <nd ref="185991885"/>
    <nd ref="185991990"/>
    <nd ref="185992053"/>
    <nd ref="185992074"/>
    <nd ref="185992138"/>
    <nd ref="185992150"/>
    <nd ref="185992164"/>
    <nd ref="430636142"/>
    <nd ref="185992178"/>
    <nd ref="430636144"/>
    <nd ref="185992191"/>
    <nd ref="185992200"/>
    <nd ref="185992207"/>
    <nd ref="185992217"/>
    <nd ref="185992222"/>
    <nd ref="185992227"/>
    <nd ref="185992236"/>
    <nd ref="185992303"/>
    <nd ref="185992322"/>
    <nd ref="185992331"/>
    <nd ref="185992343"/>
    <nd ref="185992355"/>
    <nd ref="430636224"/>
    <nd ref="185992379"/>
    <nd ref="185992402"/>
    <nd ref="185992416"/>
    <nd ref="185992434"/>
    <nd ref="185992457"/>
    <nd ref="185992477"/>
    <nd ref="185992497"/>
    <nd ref="185992515"/>
    <nd ref="185992532"/>
    <nd ref="185992560"/>
    <nd ref="185992570"/>
    <nd ref="185992600"/>
    <nd ref="185992619"/>
    <nd ref="430636261"/>
    <nd ref="430636260"/>
    <nd ref="185992637"/>
    <nd ref="430636262"/>
    <nd ref="185992655"/>
    <nd ref="430636263"/>
    <nd ref="430636264"/>
    <nd ref="185992672"/>
    <nd ref="430636265"/>
    <nd ref="185992688"/>
    <nd ref="185992702"/>
    <nd ref="185992722"/>
    <nd ref="185992736"/>
    <nd ref="185992760"/>
    <nd ref="185992783"/>
    <nd ref="185992804"/>
    <nd ref="185992827"/>
    <nd ref="185992847"/>
    <nd ref="185992858"/>
    <nd ref="185992877"/>
    <nd ref="185992894"/>
    <nd ref="185992905"/>
    <nd ref="185992926"/>
    <nd ref="185992939"/>
    <nd ref="185992956"/>
    <nd ref="185992970"/>
    <nd ref="185992988"/>
    <nd ref="185993010"/>
    <nd ref="185993030"/>
    <nd ref="184362638"/>
    <tag k="created_by" v="JOSM"/>
    <tag k="highway" v="tertiary"/>
    <tag k="name" v="Imbil Kandanga Road"/>
  </way>
  <way id="17968370" version="4" timestamp="2009-06-29T08:31:05Z" uid="74617" user="JohnSmith" changeset="1674382">
    <nd ref="185991841"/>
    <nd ref="185991862"/>
    <nd ref="185991885"/>
    <nd ref="185991990"/>
    <nd ref="185992053"/>
    <nd ref="185992074"/>
    <nd ref="185992138"/>
    <nd ref="185992150"/>
    <nd ref="185992164"/>
    <nd ref="430636142"/>
    <nd ref="185992178"/>
    <nd ref="430636144"/>
    <nd ref="185992191"/>
    <nd ref="185992200"/>
    <nd ref="185992207"/>
    <nd ref="185992217"/>
    <nd ref="185992222"/>
    <nd ref="185992227"/>
    <nd ref="185992236"/>
    <nd ref="185992303"/>
    <nd ref="185992322"/>
    <nd ref="185992331"/>
    <nd ref="185992343"/>
    <nd ref="185992355"/>
    <nd ref="430636224"/>
    <nd ref="185992379"/>
    <nd ref="185992402"/>
    <nd ref="185992416"/>
    <nd ref="185992434"/>
    <nd ref="185992457"/>
    <nd ref="185992477"/>
    <nd ref="185992497"/>
    <nd ref="185992515"/>
    <nd ref="185992532"/>
    <nd ref="185992560"/>
    <nd ref="185992570"/>
    <nd ref="185992600"/>
    <nd ref="185992619"/>
    <nd ref="430636261"/>
    <nd ref="430636260"/>
    <nd ref="185992637"/>
    <nd ref="430636262"/>
    <nd ref="185992655"/>
    <nd ref="430636263"/>
    <nd ref="430636264"/>
    <nd ref="185992672"/>
    <nd ref="430636265"/>
    <nd ref="185992688"/>
    <nd ref="185992702"/>
    <nd ref="185992722"/>
    <nd ref="185992736"/>
    <nd ref="185992760"/>
    <nd ref="185992783"/>
    <nd ref="185992804"/>
    <nd ref="185992827"/>
    <nd ref="185992847"/>
    <nd ref="185992858"/>
    <nd ref="185992877"/>
    <nd ref="185992894"/>
    <nd ref="185992905"/>
    <nd ref="185992926"/>
    <nd ref="430644084"/>
    <nd ref="185992939"/>
    <nd ref="430644083"/>
    <nd ref="185992956"/>
    <nd ref="185992970"/>
    <nd ref="185992988"/>
    <nd ref="185993010"/>
    <nd ref="185993030"/>
    <nd ref="184362638"/>
    <tag k="created_by" v="JOSM"/>
    <tag k="highway" v="tertiary"/>
    <tag k="name" v="Imbil Kandanga Road"/>
  </way>
  <way id="17968370" version="5" timestamp="2009-06-29T09:39:34Z" uid="74617" user="JohnSmith" changeset="1675026">
    <nd ref="185991841"/>
    <nd ref="185991862"/>
    <nd ref="185991885"/>
    <nd ref="185991990"/>
    <nd ref="185992053"/>
    <nd ref="185992074"/>
    <nd ref="185992138"/>
    <nd ref="185992150"/>
    <nd ref="185992164"/>
    <nd ref="430636142"/>
    <nd ref="185992178"/>
    <nd ref="430636144"/>
    <nd ref="185992191"/>
    <nd ref="185992200"/>
    <nd ref="185992207"/>
    <nd ref="185992217"/>
    <nd ref="185992222"/>
    <nd ref="185992227"/>
    <nd ref="185992236"/>
    <nd ref="185992303"/>
    <nd ref="185992322"/>
    <nd ref="185992331"/>
    <nd ref="185992343"/>
    <nd ref="185992355"/>
    <nd ref="430636224"/>
    <nd ref="185992379"/>
    <nd ref="185992402"/>
    <nd ref="430679174"/>
    <nd ref="185992416"/>
    <nd ref="430679172"/>
    <nd ref="430679169"/>
    <nd ref="185992434"/>
    <nd ref="185992457"/>
    <nd ref="185992477"/>
    <nd ref="185992497"/>
    <nd ref="430679167"/>
    <nd ref="185992515"/>
    <nd ref="430679166"/>
    <nd ref="185992532"/>
    <nd ref="185992560"/>
    <nd ref="430679164"/>
    <nd ref="185992570"/>
    <nd ref="430679163"/>
    <nd ref="185992600"/>
    <nd ref="430679161"/>
    <nd ref="185992619"/>
    <nd ref="430636261"/>
    <nd ref="430636260"/>
    <nd ref="185992637"/>
    <nd ref="430636262"/>
    <nd ref="185992655"/>
    <nd ref="430636263"/>
    <nd ref="430636264"/>
    <nd ref="185992672"/>
    <nd ref="430636265"/>
    <nd ref="185992688"/>
    <nd ref="185992702"/>
    <nd ref="185992722"/>
    <nd ref="185992736"/>
    <nd ref="185992760"/>
    <nd ref="185992783"/>
    <nd ref="185992804"/>
    <nd ref="185992827"/>
    <nd ref="185992847"/>
    <nd ref="185992858"/>
    <nd ref="185992877"/>
    <nd ref="185992894"/>
    <nd ref="185992905"/>
    <nd ref="185992926"/>
    <nd ref="430644084"/>
    <nd ref="185992939"/>
    <nd ref="430644083"/>
    <nd ref="185992956"/>
    <nd ref="185992970"/>
    <nd ref="185992988"/>
    <nd ref="185993010"/>
    <nd ref="185993030"/>
    <nd ref="184362638"/>
    <tag k="created_by" v="JOSM"/>
    <tag k="highway" v="tertiary"/>
    <tag k="name" v="Imbil Kandanga Road"/>
  </way>
</osm>
