<?xml version='1.0' encoding='UTF-8'?>
<osm version="0.6" generator="libosmium/2.20.0">
  <way id="17992041" version="3" timestamp="2010-02-14T15:45:27Z" uid="74617" user="JohnSmith" changeset="3874884">
    <nd ref="186201444"/>
    <nd ref="186201690"/>
    <nd ref="186201691"/>
    <nd ref="186201692"/>
    <nd ref="186201693"/>
    <tag k="highway" v="service"/>
    <tag k="maxspeed" v="50"/>
    <tag k="name" v="Harris Lane"/>
  </way>
  <way id="17992041" version="4" timestamp="2012-01-15T18:33:45Z" uid="147510" user="woodpeck_fixbot" changeset="10400850">
    <nd ref="186201444"/>
    <nd ref="186201690"/>
    <nd ref="186201691"/>
    <nd ref="186201692"/>
    <nd ref="186201693"/>
    <tag k="highway" v="service"/>
    <tag k="name" v="Harris Lane"/>
  </way>
  <way id="17992122" version="4" timestamp="2010-02-14T15:45:27Z" uid="74617" user="JohnSmith" changeset="3874884">
    <nd ref="186202257"/>
    <nd ref="186202258"/>
    <nd ref="186202260"/>
    <nd ref="186202261"/>
    <nd ref="186202262"/>
    <nd ref="186202263"/>
    <nd ref="268411238"/>
    <nd ref="186202266"/>
    <nd ref="186202257"/>
    <tag k="amenity" v="school"/>
    <tag k="name" v="Windsor State School"/>
  </way>
  <way id="17992215" version="2" timestamp="2010-02-14T15:45:28Z" uid="74617" user="JohnSmith" changeset="3874884">
    <nd ref="186202774"/>
    <nd ref="186202775"/>
    <nd ref="186202776"/>
    <nd ref="186202777"/>
    <nd ref="186202774"/>
    <tag k="building" v="yes"/>
  </way>
  <way id="17992284" version="2" timestamp="2010-02-14T15:45:28Z" uid="74617" user="JohnSmith" changeset="3874884">
    <nd ref="186203298"/>
    <nd ref="186203300"/>
    <nd ref="186203301"/>
    <nd ref="186203302"/>
    <nd ref="186203304"/>
    <nd ref="186203305"/>
    <nd ref="186203306"/>
    <nd ref="186203307"/>
    <nd ref="186203308"/>
    <nd ref="186203310"/>
    <nd ref="186203311"/>
    <nd ref="186203312"/>
    <nd ref="186203298"/>
    <tag k="building" v="yes"/>
  </way>
  <way id="17992359" version="2" timestamp="2010-02-14T15:45:28Z" uid="74617" user="JohnSmith" changeset="3874884">
    <nd ref="186203782"/>
    <nd ref="186203783"/>
    <nd ref="186203784"/>
    <nd ref="186203785"/>
    <nd ref="186203782"/>
    <tag k="sport" v="swimming"/>
  </way>
  <way id="17992433" version="3" timestamp="2010-02-14T15:45:28Z" uid="74617" user="JohnSmith" changeset="3874884">
    <nd ref="186202262"/>
    <nd ref="186202261"/>
    <nd ref="268411239"/>
    <nd ref="186202263"/>
    <nd ref="186202262"/>
    <tag k="landuse" v="retail"/>
  </way>
  <way id="17992641" version="2" timestamp="2009-09-30T13:06:14Z" uid="36809" user="pfoten_weg_!_" changeset="2687909">
    <nd ref="60127233"/>
    <nd ref="60127221"/>
    <tag k="highway" v="residential"/>
    <tag k="lit" v="yes"/>
    <tag k="maxspeed" v="30"/>
    <tag k="name" v="Persenstraße"/>
  </way>
  <way id="17992641" version="3" timestamp="2010-06-18T13:39:36Z" uid="188295" user="danst0" changeset="5016406">
    <nd ref="60127233"/>
    <nd ref="60127221"/>
    <tag k="highway" v="residential"/>
    <tag k="lit" v="yes"/>
    <tag k="maxspeed" v="30"/>
    <tag k="name" v="Petersenstraße"/>
  </way>
  <way id="17992641" version="4" timestamp="2010-08-10T13:20:56Z" uid="7596" user="ck3d" changeset="5453863">
    <nd ref="60127233"/>
    <nd ref="60127221"/>
    <tag k="highway" v="residential"/>
    <tag k="lit" v="yes"/>
    <tag k="maxspeed" v="30"/>
    <tag k="name" v="Petersenstraße"/>
    <tag k="zone:traffic" v="DE:urban"/>
  </way>
  <way id="17992641" version="5" timestamp="2010-08-12T12:29:14Z" uid="7596" user="ck3d" changeset="5472762">
    <nd ref="60127233"/>
    <nd ref="60127221"/>
    <tag k="highway" v="residential"/>
    <tag k="lit" v="automatic"/>
    <tag k="maxspeed" v="30"/>
    <tag k="name" v="Petersenstraße"/>
    <tag k="zone:traffic" v="DE:urban"/>
  </way>
  <way id="17992641" version="6" timestamp="2010-08-14T10:05:57Z" uid="7596" user="ck3d" changeset="5488990">
    <nd ref="60127233"/>
    <nd ref="60127221"/>
    <tag k="highway" v="residential"/>
    <tag k="lit" v="yes"/>
    <tag k="maxspeed" v="30"/>
    <tag k="name" v="Petersenstraße"/>
    <tag k="zone:traffic" v="DE:urban"/>
  </way>
  <way id="17992643" version="2" timestamp="2009-09-30T13:06:13Z" uid="36809" user="pfoten_weg_!_" changeset="2687909">
    <nd ref="60127234"/>
    <nd ref="60127235"/>
    <tag k="highway" v="residential"/>
    <tag k="lit" v="yes"/>
    <tag k="maxspeed" v="30"/>
    <tag k="name" v="Hans-Bierling-Straße"/>
  </way>
  <way id="17992643" version="3" timestamp="2009-10-20T14:45:16Z" uid="188295" user="danst0" changeset="2903860">
    <nd ref="60127234"/>
    <nd ref="536680490"/>
    <nd ref="536680486"/>
    <nd ref="536680502"/>
    <nd ref="536680498"/>
    <nd ref="536680499"/>
    <nd ref="60127235"/>
    <tag k="highway" v="residential"/>
    <tag k="lit" v="yes"/>
    <tag k="maxspeed" v="30"/>
    <tag k="name" v="Hans-Bierling-Straße"/>
  </way>
  <way id="17992643" version="4" timestamp="2009-10-23T07:14:17Z" uid="7596" user="ck3d" changeset="2927223">
    <nd ref="60127234"/>
    <nd ref="536680490"/>
    <nd ref="536680502"/>
    <nd ref="536680499"/>
    <nd ref="60127235"/>
    <tag k="highway" v="residential"/>
    <tag k="lit" v="yes"/>
    <tag k="maxspeed" v="30"/>
    <tag k="name" v="Hans-Bierling-Straße"/>
  </way>
  <way id="17992643" version="5" timestamp="2010-08-12T12:27:24Z" uid="7596" user="ck3d" changeset="5472762">
    <nd ref="60127234"/>
    <nd ref="536680490"/>
    <nd ref="536680502"/>
    <nd ref="536680499"/>
    <nd ref="60127235"/>
    <tag k="highway" v="residential"/>
    <tag k="lit" v="automatic"/>
    <tag k="maxspeed" v="30"/>
    <tag k="name" v="Hans-Bierling-Straße"/>
    <tag k="zone:traffic" v="DE:urban"/>
  </way>
  <way id="17992643" version="6" timestamp="2010-08-14T10:06:15Z" uid="7596" user="ck3d" changeset="5488990">
    <nd ref="60127234"/>
    <nd ref="536680490"/>
    <nd ref="536680502"/>
    <nd ref="536680499"/>
    <nd ref="60127235"/>
    <tag k="highway" v="residential"/>
    <tag k="lit" v="yes"/>
    <tag k="maxspeed" v="30"/>
    <tag k="name" v="Hans-Bierling-Straße"/>
    <tag k="zone:traffic" v="DE:urban"/>
  </way>
</osm>
