<?xml version='1.0' encoding='UTF-8'?>
<osm version="0.6" generator="libosmium/2.20.0">
  <way id="18005166" version="4" timestamp="2009-08-09T00:59:35Z" uid="4467" user="Rosscoe" changeset="2080743">
    <nd ref="92215087"/>
    <nd ref="459400974"/>
    <nd ref="186288497"/>
    <nd ref="186287107"/>
    <nd ref="186287109"/>
    <nd ref="186287110"/>
    <nd ref="186287111"/>
    <nd ref="92216233"/>
    <tag k="highway" v="secondary"/>
    <tag k="name" v="Marshall Road"/>
    <tag k="oneway" v="yes"/>
  </way>
  <way id="18005166" version="5" timestamp="2009-09-18T00:41:44Z" uid="14505" user="David Dean" changeset="2518556">
    <nd ref="92215087"/>
    <nd ref="459400974"/>
    <nd ref="186288497"/>
    <nd ref="186287107"/>
    <nd ref="186287109"/>
    <nd ref="186287111"/>
    <nd ref="92216233"/>
    <tag k="highway" v="secondary"/>
    <tag k="name" v="Marshall Road"/>
    <tag k="oneway" v="yes"/>
  </way>
  <way id="18005166" version="6" timestamp="2010-07-30T06:31:32Z" uid="4467" user="Rosscoe" changeset="5351975">
    <nd ref="92215087"/>
    <nd ref="186287107"/>
    <nd ref="186287109"/>
    <nd ref="186287111"/>
    <nd ref="92216233"/>
    <tag k="highway" v="secondary"/>
    <tag k="name" v="Marshall Road"/>
    <tag k="oneway" v="yes"/>
  </way>
  <way id="18005210" version="4" timestamp="2010-07-30T06:31:54Z" uid="4467" user="Rosscoe" changeset="5351975">
    <nd ref="186284748"/>
    <nd ref="186287430"/>
    <nd ref="186287109"/>
    <tag k="highway" v="secondary"/>
    <tag k="name" v="Marshall Road"/>
    <tag k="oneway" v="yes"/>
  </way>
  <way id="18005376" version="4" timestamp="2010-07-30T06:32:14Z" uid="4467" user="Rosscoe" changeset="5351975"/>
</osm>
