<?xml version='1.0' encoding='UTF-8'?>
<osm version="0.6" generator="libosmium/2.20.0">
  <way id="18009073" version="4" timestamp="2010-07-06T08:44:06Z" uid="74617" user="JohnSmith" changeset="5147679">
    <nd ref="186315597"/>
    <nd ref="186315599"/>
    <nd ref="186315601"/>
    <tag k="highway" v="residential"/>
    <tag k="maxspeed" v="50"/>
    <tag k="maxspeed:source" v="default residential speed limit in Australia"/>
    <tag k="name" v="Bramston Street"/>
  </way>
  <way id="18009073" version="5" timestamp="2012-01-15T18:34:22Z" uid="147510" user="woodpeck_fixbot" changeset="10400850">
    <nd ref="186315597"/>
    <nd ref="186315599"/>
    <nd ref="186315601"/>
    <tag k="highway" v="residential"/>
    <tag k="name" v="Bramston Street"/>
  </way>
  <way id="18009125" version="1" timestamp="2007-12-24T01:37:45Z" uid="6454" user="B10xxx" changeset="413562">
    <nd ref="61078164"/>
    <nd ref="186315993"/>
    <nd ref="186315997"/>
    <nd ref="186316001"/>
    <nd ref="186316006"/>
    <tag k="created_by" v="JOSM"/>
    <tag k="highway" v="footway"/>
  </way>
  <way id="18009125" version="2" timestamp="2008-06-21T10:09:11Z" uid="31450" user="sanna" changeset="239989">
    <nd ref="61078164"/>
    <nd ref="186315993"/>
    <nd ref="186315997"/>
    <nd ref="186316001"/>
    <nd ref="186316006"/>
    <tag k="highway" v="footway"/>
  </way>
  <way id="18009125" version="3" timestamp="2008-09-03T14:47:05Z" uid="17602" user="B10xyz" changeset="514172">
    <nd ref="61078164"/>
    <nd ref="186315993"/>
    <nd ref="186315997"/>
    <nd ref="186316001"/>
    <nd ref="186316006"/>
    <tag k="highway" v="footway"/>
    <tag k="name" v="FONDAMENTA DE LE ROMITE"/>
  </way>
  <way id="18009125" version="4" timestamp="2009-07-10T23:20:55Z" uid="17602" user="B10xyz" changeset="1793392">
    <nd ref="61078164"/>
    <nd ref="186315993"/>
    <nd ref="186315997"/>
    <nd ref="186316001"/>
    <nd ref="186316006"/>
    <tag k="highway" v="footway"/>
    <tag k="visible_name" v="FONDAMENTA DE LE ROMITE"/>
  </way>
  <way id="18009125" version="5" timestamp="2009-11-17T18:20:33Z" uid="17602" user="B10xyz" changeset="3143268">
    <nd ref="61078164"/>
    <nd ref="566315239"/>
    <nd ref="566315411"/>
    <nd ref="186315993"/>
    <nd ref="186315997"/>
    <nd ref="186316001"/>
    <nd ref="186316006"/>
    <tag k="highway" v="footway"/>
    <tag k="visible_name" v="FONDAMENTA DE LE ROMITE"/>
  </way>
  <way id="18009125" version="6" timestamp="2011-05-13T16:50:17Z" uid="451916" user="PamlynJ" changeset="8133215">
    <nd ref="61078164"/>
    <nd ref="566315239"/>
    <nd ref="566315411"/>
    <nd ref="186315993"/>
    <nd ref="186315997"/>
    <nd ref="186316001"/>
    <nd ref="186316006"/>
    <tag k="highway" v="footway"/>
    <tag k="name" v="Fondamenta de le Romite"/>
    <tag k="visible_name" v="FONDAMENTA DE LE ROMITE"/>
  </way>
  <way id="18009125" version="7" timestamp="2011-07-14T11:44:49Z" uid="486260" user="Luca81" changeset="8720853">
    <nd ref="61078164"/>
    <nd ref="566315239"/>
    <nd ref="566315411"/>
    <nd ref="186315993"/>
    <nd ref="186315997"/>
    <nd ref="186316001"/>
    <nd ref="186316006"/>
    <tag k="highway" v="pedestrian"/>
    <tag k="name" v="Fondamenta de le Romite"/>
    <tag k="visible_name" v="FONDAMENTA DE LE ROMITE"/>
  </way>
  <way id="18009128" version="1" timestamp="2007-12-24T01:37:45Z" uid="6454" user="B10xxx" changeset="413562">
    <nd ref="186316001"/>
    <nd ref="186316011"/>
    <tag k="bridge" v="yes"/>
    <tag k="created_by" v="JOSM"/>
    <tag k="highway" v="footway"/>
  </way>
  <way id="18009128" version="2" timestamp="2008-06-21T10:10:01Z" uid="31450" user="sanna" changeset="239989">
    <nd ref="186316001"/>
    <nd ref="186316011"/>
    <tag k="bridge" v="yes"/>
    <tag k="highway" v="footway"/>
  </way>
  <way id="18009128" version="3" timestamp="2008-06-21T13:46:11Z" uid="31450" user="sanna" changeset="243518">
    <nd ref="186316001"/>
    <nd ref="186316011"/>
    <tag k="bridge" v="yes"/>
    <tag k="highway" v="footway"/>
    <tag k="layer" v="1"/>
  </way>
  <way id="18009128" version="4" timestamp="2010-03-21T21:30:12Z" uid="17602" user="B10xyz" changeset="4195922">
    <nd ref="186316001"/>
    <nd ref="186316011"/>
    <tag k="bridge" v="yes"/>
    <tag k="highway" v="footway"/>
    <tag k="layer" v="1"/>
    <tag k="note" v="n_n_vis"/>
  </way>
  <way id="18009128" version="5" timestamp="2011-07-14T11:49:45Z" uid="486260" user="Luca81" changeset="8720853">
    <nd ref="186316001"/>
    <nd ref="186316011"/>
    <tag k="bridge" v="yes"/>
    <tag k="highway" v="steps"/>
    <tag k="layer" v="1"/>
    <tag k="note" v="n_n_vis"/>
  </way>
  <way id="18009151" version="4" timestamp="2010-07-06T08:45:38Z" uid="74617" user="JohnSmith" changeset="5147679">
    <nd ref="186315601"/>
    <nd ref="186316230"/>
    <nd ref="186316231"/>
    <nd ref="186316232"/>
    <nd ref="186316233"/>
    <nd ref="186316234"/>
    <nd ref="186316235"/>
    <nd ref="186316236"/>
    <nd ref="186316237"/>
    <nd ref="186316239"/>
    <nd ref="92215588"/>
    <tag k="highway" v="residential"/>
    <tag k="maxspeed" v="50"/>
    <tag k="maxspeed:source" v="default residential speed limit in Australia"/>
    <tag k="name" v="Chamberlain Street"/>
  </way>
  <way id="18009151" version="5" timestamp="2012-01-15T18:34:24Z" uid="147510" user="woodpeck_fixbot" changeset="10400850">
    <nd ref="186315601"/>
    <nd ref="186316230"/>
    <nd ref="186316231"/>
    <nd ref="186316232"/>
    <nd ref="186316233"/>
    <nd ref="186316234"/>
    <nd ref="186316235"/>
    <nd ref="186316236"/>
    <nd ref="186316237"/>
    <nd ref="186316239"/>
    <nd ref="92215588"/>
    <tag k="highway" v="residential"/>
    <tag k="name" v="Chamberlain Street"/>
  </way>
  <way id="18009225" version="6" timestamp="2010-07-06T08:43:45Z" uid="74617" user="JohnSmith" changeset="5147679">
    <nd ref="186316232"/>
    <nd ref="186316903"/>
    <nd ref="186316904"/>
    <nd ref="186319130"/>
    <nd ref="186320030"/>
    <nd ref="92216235"/>
    <tag k="highway" v="residential"/>
    <tag k="maxspeed" v="50"/>
    <tag k="maxspeed:source" v="default residential speed limit in Australia"/>
    <tag k="name" v="Heathwhite Street"/>
  </way>
  <way id="18009225" version="7" timestamp="2012-01-15T18:34:28Z" uid="147510" user="woodpeck_fixbot" changeset="10400850">
    <nd ref="186316232"/>
    <nd ref="186316903"/>
    <nd ref="186316904"/>
    <nd ref="186319130"/>
    <nd ref="186320030"/>
    <nd ref="92216235"/>
    <tag k="highway" v="residential"/>
    <tag k="name" v="Heathwhite Street"/>
  </way>
  <way id="18009296" version="5" timestamp="2010-07-06T08:44:07Z" uid="74617" user="JohnSmith" changeset="5147679">
    <nd ref="92215587"/>
    <nd ref="186304859"/>
    <nd ref="254574854"/>
    <tag k="highway" v="residential"/>
    <tag k="maxspeed" v="50"/>
    <tag k="maxspeed:source" v="default residential speed limit in Australia"/>
    <tag k="name" v="Pope Street"/>
  </way>
  <way id="18009296" version="6" timestamp="2012-01-15T18:34:29Z" uid="147510" user="woodpeck_fixbot" changeset="10400850">
    <nd ref="92215587"/>
    <nd ref="186304859"/>
    <nd ref="254574854"/>
    <tag k="highway" v="residential"/>
    <tag k="name" v="Pope Street"/>
  </way>
  <way id="18009529" version="6" timestamp="2009-06-22T10:34:41Z" uid="74617" user="JohnSmith" changeset="1592129">
    <nd ref="221997916"/>
    <nd ref="204276009"/>
    <nd ref="204275864"/>
    <nd ref="204275783"/>
    <nd ref="204275760"/>
    <nd ref="186198256"/>
    <nd ref="186318796"/>
    <nd ref="186318858"/>
    <nd ref="204275740"/>
    <nd ref="427931186"/>
    <tag k="created_by" v="JOSM"/>
    <tag k="highway" v="tertiary"/>
    <tag k="name" v="Reef Street"/>
  </way>
  <way id="18009529" version="7" timestamp="2009-06-23T04:40:24Z" uid="74617" user="JohnSmith" changeset="1598893">
    <nd ref="221997916"/>
    <nd ref="204276009"/>
    <nd ref="204275864"/>
    <nd ref="204275783"/>
    <nd ref="204275760"/>
    <nd ref="186198256"/>
    <tag k="created_by" v="JOSM"/>
    <tag k="highway" v="tertiary"/>
    <tag k="name" v="Reef Street"/>
  </way>
  <way id="18009529" version="8" timestamp="2009-06-25T03:50:21Z" uid="74617" user="JohnSmith" changeset="1618018">
    <nd ref="221997916"/>
    <nd ref="204276009"/>
    <nd ref="204275864"/>
    <nd ref="204275783"/>
    <nd ref="204275760"/>
    <nd ref="186198256"/>
    <tag k="highway" v="tertiary"/>
    <tag k="name" v="Reef Street"/>
  </way>
  <way id="18009529" version="9" timestamp="2009-07-08T12:49:01Z" uid="74617" user="JohnSmith" changeset="1772299">
    <nd ref="221997916"/>
    <nd ref="204276009"/>
    <nd ref="204275783"/>
    <nd ref="204275760"/>
    <nd ref="186198256"/>
    <tag k="highway" v="residential"/>
    <tag k="name" v="Reef Street"/>
  </way>
  <way id="18009529" version="10" timestamp="2009-08-12T04:02:29Z" uid="74617" user="JohnSmith" changeset="2114476">
    <nd ref="221997916"/>
    <nd ref="204276009"/>
    <nd ref="204275783"/>
    <nd ref="204275760"/>
    <nd ref="186198256"/>
    <tag k="highway" v="residential"/>
    <tag k="maxspeed" v="50"/>
    <tag k="name" v="Reef Street"/>
  </way>
  <way id="18009529" version="11" timestamp="2012-01-15T18:34:31Z" uid="147510" user="woodpeck_fixbot" changeset="10400850">
    <nd ref="221997916"/>
    <nd ref="204276009"/>
    <nd ref="204275783"/>
    <nd ref="204275760"/>
    <nd ref="186198256"/>
    <tag k="highway" v="residential"/>
    <tag k="name" v="Reef Street"/>
  </way>
  <way id="18009531" version="6" timestamp="2009-06-25T03:50:21Z" uid="74617" user="JohnSmith" changeset="1618018">
    <nd ref="222014582"/>
    <nd ref="222014560"/>
    <nd ref="222014532"/>
    <nd ref="186198325"/>
    <tag k="highway" v="tertiary"/>
    <tag k="name" v="Barter Street"/>
  </way>
  <way id="18009531" version="7" timestamp="2009-07-08T12:49:02Z" uid="74617" user="JohnSmith" changeset="1772299">
    <nd ref="222014582"/>
    <nd ref="222014560"/>
    <nd ref="222014532"/>
    <nd ref="186198325"/>
    <tag k="highway" v="residential"/>
    <tag k="name" v="Barter Street"/>
  </way>
  <way id="18009531" version="8" timestamp="2009-08-12T04:01:51Z" uid="74617" user="JohnSmith" changeset="2114476">
    <nd ref="222014582"/>
    <nd ref="222014560"/>
    <nd ref="222014532"/>
    <nd ref="186198325"/>
    <tag k="highway" v="residential"/>
    <tag k="maxspeed" v="50"/>
    <tag k="name" v="Barter Street"/>
  </way>
  <way id="18009531" version="9" timestamp="2012-01-15T18:34:33Z" uid="147510" user="woodpeck_fixbot" changeset="10400850">
    <nd ref="222014582"/>
    <nd ref="222014560"/>
    <nd ref="222014532"/>
    <nd ref="186198325"/>
    <tag k="highway" v="residential"/>
    <tag k="name" v="Barter Street"/>
  </way>
  <way id="18009533" version="9" timestamp="2009-06-22T10:34:41Z" uid="74617" user="JohnSmith" changeset="1592129"/>
  <way id="18009536" version="9" timestamp="2009-06-22T10:34:41Z" uid="74617" user="JohnSmith" changeset="1592129">
    <nd ref="60967009"/>
    <nd ref="186257455"/>
    <nd ref="230330344"/>
    <nd ref="186257487"/>
    <nd ref="186257508"/>
    <nd ref="186257519"/>
    <nd ref="427931167"/>
    <tag k="created_by" v="JOSM"/>
    <tag k="highway" v="tertiary"/>
    <tag k="name" v="Monkland Stree"/>
  </way>
  <way id="18009536" version="10" timestamp="2009-06-25T03:49:59Z" uid="74617" user="JohnSmith" changeset="1618018">
    <nd ref="60967009"/>
    <nd ref="186257455"/>
    <nd ref="230330344"/>
    <nd ref="186257487"/>
    <nd ref="186257508"/>
    <nd ref="186257519"/>
    <nd ref="427931167"/>
    <tag k="highway" v="tertiary"/>
    <tag k="name" v="Monkland Stree"/>
  </way>
  <way id="18009536" version="11" timestamp="2009-07-05T12:09:45Z" uid="74617" user="JohnSmith" changeset="1738611">
    <nd ref="60967009"/>
    <nd ref="186257455"/>
    <nd ref="186257487"/>
    <nd ref="186257508"/>
    <nd ref="186257519"/>
    <nd ref="427931167"/>
    <tag k="highway" v="tertiary"/>
    <tag k="name" v="Monkland Stree"/>
  </way>
  <way id="18009536" version="12" timestamp="2009-07-23T13:35:38Z" uid="74617" user="JohnSmith" changeset="1915714">
    <nd ref="60967009"/>
    <nd ref="186257455"/>
    <nd ref="186257487"/>
    <nd ref="186257508"/>
    <nd ref="186257519"/>
    <nd ref="427931167"/>
    <tag k="highway" v="tertiary"/>
    <tag k="maxspeed" v="40"/>
    <tag k="name" v="Monkland Street"/>
    <tag k="source" v="survey"/>
    <tag k="surface" v="paved"/>
  </way>
  <way id="18009536" version="13" timestamp="2009-09-06T03:49:58Z" uid="74617" user="JohnSmith" changeset="2386718">
    <nd ref="60967009"/>
    <nd ref="186257455"/>
    <nd ref="186257487"/>
    <nd ref="186257508"/>
    <nd ref="186257519"/>
    <nd ref="427931167"/>
    <tag k="highway" v="tertiary"/>
    <tag k="maxspeed" v="40"/>
    <tag k="name" v="Monkland Street"/>
    <tag k="source" v="survey"/>
  </way>
  <way id="18009536" version="14" timestamp="2009-10-06T13:09:19Z" uid="74617" user="JohnSmith" changeset="2760519">
    <nd ref="60967009"/>
    <nd ref="186257455"/>
    <nd ref="522822631"/>
    <nd ref="186257487"/>
    <nd ref="186257508"/>
    <nd ref="186257519"/>
    <nd ref="427931167"/>
    <tag k="highway" v="tertiary"/>
    <tag k="maxspeed" v="40"/>
    <tag k="name" v="Monkland Street"/>
    <tag k="source" v="survey"/>
  </way>
  <way id="18009536" version="15" timestamp="2012-01-15T18:34:36Z" uid="147510" user="woodpeck_fixbot" changeset="10400850">
    <nd ref="60967009"/>
    <nd ref="186257455"/>
    <nd ref="522822631"/>
    <nd ref="186257487"/>
    <nd ref="186257508"/>
    <nd ref="186257519"/>
    <nd ref="427931167"/>
    <tag k="highway" v="tertiary"/>
    <tag k="name" v="Monkland Street"/>
    <tag k="source" v="survey"/>
  </way>
  <way id="18009539" version="6" timestamp="2009-06-25T03:49:58Z" uid="74617" user="JohnSmith" changeset="1618018">
    <nd ref="198528170"/>
    <nd ref="230330369"/>
    <nd ref="186319206"/>
    <nd ref="186319187"/>
    <nd ref="186319174"/>
    <nd ref="243950918"/>
    <nd ref="186319161"/>
    <nd ref="186319142"/>
    <nd ref="200052382"/>
    <nd ref="60967009"/>
    <tag k="highway" v="secondary"/>
    <tag k="name" v="River Terrace"/>
  </way>
  <way id="18009539" version="7" timestamp="2009-06-29T03:29:20Z" uid="74617" user="JohnSmith" changeset="1672638">
    <nd ref="198528158"/>
    <nd ref="198528170"/>
    <nd ref="230330369"/>
    <nd ref="186319206"/>
    <nd ref="186319187"/>
    <nd ref="186319174"/>
    <nd ref="243950918"/>
    <nd ref="186319161"/>
    <nd ref="186319142"/>
    <nd ref="200052382"/>
    <nd ref="60967009"/>
    <tag k="highway" v="secondary"/>
    <tag k="name" v="River Terrace"/>
    <tag k="source" v="survey"/>
  </way>
  <way id="18009539" version="8" timestamp="2009-06-30T07:11:26Z" uid="74617" user="JohnSmith" changeset="1684734">
    <nd ref="198528158"/>
    <nd ref="431039298"/>
    <nd ref="198528170"/>
    <nd ref="431039299"/>
    <nd ref="230330369"/>
    <nd ref="186319206"/>
    <nd ref="186319187"/>
    <nd ref="431039300"/>
    <nd ref="431039301"/>
    <nd ref="186319174"/>
    <nd ref="431039303"/>
    <nd ref="243950918"/>
    <nd ref="431039302"/>
    <nd ref="186319142"/>
    <nd ref="200052382"/>
    <nd ref="60967009"/>
    <tag k="highway" v="secondary"/>
    <tag k="name" v="River Terrace"/>
    <tag k="source" v="survey"/>
  </way>
  <way id="18009539" version="9" timestamp="2009-10-06T13:16:38Z" uid="74617" user="JohnSmith" changeset="2760572">
    <nd ref="198528158"/>
    <nd ref="431039298"/>
    <nd ref="522823748"/>
    <nd ref="198528170"/>
    <nd ref="230330369"/>
    <nd ref="186319206"/>
    <nd ref="186319187"/>
    <nd ref="431039300"/>
    <nd ref="431039301"/>
    <nd ref="186319174"/>
    <nd ref="431039303"/>
    <nd ref="243950918"/>
    <nd ref="431039302"/>
    <nd ref="186319142"/>
    <nd ref="200052382"/>
    <nd ref="60967009"/>
    <tag k="highway" v="secondary"/>
    <tag k="name" v="River Terrace"/>
    <tag k="source" v="survey"/>
  </way>
  <way id="18009832" version="1" timestamp="2007-12-24T01:42:30Z" uid="6454" user="B10xxx" changeset="413562">
    <nd ref="29229059"/>
    <nd ref="186322054"/>
    <tag k="created_by" v="JOSM"/>
    <tag k="highway" v="footway"/>
  </way>
  <way id="18009832" version="2" timestamp="2008-02-20T23:12:50Z" uid="17602" user="B10xyz" changeset="168782">
    <nd ref="29229059"/>
    <nd ref="186322054"/>
    <tag k="bridge" v="yes"/>
    <tag k="created_by" v="JOSM"/>
    <tag k="highway" v="footway"/>
    <tag k="name" v="PONTE DEL SOCORSO"/>
  </way>
  <way id="18009832" version="3" timestamp="2008-03-10T14:49:14Z" uid="4526" user="EdoM" changeset="299998">
    <nd ref="29229059"/>
    <nd ref="186322054"/>
    <tag k="bridge" v="yes"/>
    <tag k="created_by" v="Potlatch 0.7b"/>
    <tag k="highway" v="steps"/>
    <tag k="name" v="Ponte del socorso"/>
  </way>
  <way id="18009832" version="4" timestamp="2008-06-21T13:13:19Z" uid="31450" user="sanna" changeset="243518">
    <nd ref="29229059"/>
    <nd ref="186322054"/>
    <tag k="bridge" v="yes"/>
    <tag k="created_by" v="Potlatch 0.7b"/>
    <tag k="highway" v="steps"/>
    <tag k="layer" v="1"/>
    <tag k="name" v="Ponte del socorso"/>
  </way>
  <way id="18009832" version="5" timestamp="2008-12-03T14:30:28Z" uid="17602" user="B10xyz" changeset="73579">
    <nd ref="29229059"/>
    <nd ref="186322054"/>
    <tag k="bridge" v="yes"/>
    <tag k="created_by" v="Potlatch 0.7b"/>
    <tag k="highway" v="steps"/>
    <tag k="layer" v="1"/>
    <tag k="name" v="Ponte del socorso"/>
    <tag k="visible_name" v="PONTE DEL SOCORSO"/>
  </way>
  <way id="18009832" version="6" timestamp="2009-11-17T18:20:40Z" uid="17602" user="B10xyz" changeset="3143268">
    <nd ref="29229059"/>
    <nd ref="186322054"/>
    <tag k="bridge" v="yes"/>
    <tag k="highway" v="steps"/>
    <tag k="layer" v="1"/>
    <tag k="name" v="Ponte del socorso"/>
    <tag k="visible_name" v="PONTE DEL SOCORSO"/>
  </way>
  <way id="18009837" version="4" timestamp="2010-07-06T08:43:52Z" uid="74617" user="JohnSmith" changeset="5147679">
    <nd ref="179040025"/>
    <nd ref="186322101"/>
    <tag k="highway" v="unclassified"/>
    <tag k="maxspeed" v="50"/>
    <tag k="maxspeed:source" v="default residential speed limit in Australia"/>
    <tag k="name" v="Aquamarine Street"/>
  </way>
  <way id="18009837" version="5" timestamp="2012-01-03T03:30:27Z" uid="22094" user="Chadzopkyo" changeset="10278191">
    <nd ref="179040025"/>
    <nd ref="186322101"/>
    <tag k="highway" v="service"/>
    <tag k="maxspeed" v="50"/>
    <tag k="maxspeed:source" v="default residential speed limit in Australia"/>
    <tag k="name" v="Aquamarine Street"/>
    <tag k="service" v="alley"/>
    <tag k="source" v="GPS"/>
    <tag k="surface" v="asphalt"/>
  </way>
  <way id="18009837" version="6" timestamp="2012-01-15T18:34:37Z" uid="147510" user="woodpeck_fixbot" changeset="10400850">
    <nd ref="179040025"/>
    <nd ref="186322101"/>
    <tag k="highway" v="service"/>
    <tag k="name" v="Aquamarine Street"/>
    <tag k="service" v="alley"/>
    <tag k="source" v="GPS"/>
    <tag k="surface" v="asphalt"/>
  </way>
</osm>
