<?xml version='1.0' encoding='UTF-8'?>
<osm version="0.6" generator="libosmium/2.20.0">
  <way id="18019224" version="3" timestamp="2010-06-23T22:02:01Z" uid="4467" user="Rosscoe" changeset="5062470">
    <nd ref="186371342"/>
    <nd ref="785870154"/>
    <nd ref="186387408"/>
    <nd ref="186387409"/>
    <nd ref="186387411"/>
    <nd ref="186387413"/>
    <nd ref="186387415"/>
    <nd ref="186387417"/>
    <nd ref="186387418"/>
    <nd ref="186387419"/>
    <nd ref="186376245"/>
    <nd ref="186387422"/>
    <nd ref="186387426"/>
    <tag k="highway" v="tertiary"/>
    <tag k="name" v="581st Avenue"/>
    <tag k="name_1" v="County Road 7"/>
    <tag k="ref" v="CR 7"/>
    <tag k="tiger:cfcc" v="A41"/>
    <tag k="tiger:county" v="Blue Earth, MN"/>
    <tag k="tiger:name_base" v="581st"/>
    <tag k="tiger:name_base_1" v="County Road 7"/>
    <tag k="tiger:name_type" v="Ave"/>
    <tag k="tiger:reviewed" v="no"/>
    <tag k="tiger:separated" v="no"/>
    <tag k="tiger:source" v="tiger_import_dch_v0.6_20070813"/>
    <tag k="tiger:tlid" v="28126047:28126049:28118634:28094894"/>
    <tag k="tiger:upload_uuid" v="bulk_upload.pl-07e5d1cc-6690-4645-a278-6f1afc620e28"/>
  </way>
  <way id="18019549" version="3" timestamp="2010-06-23T22:06:11Z" uid="4467" user="Rosscoe" changeset="5062500">
    <nd ref="186389036"/>
    <nd ref="186381102"/>
    <tag k="highway" v="tertiary"/>
    <tag k="name" v="145th Street"/>
    <tag k="name_1" v="County Road 4"/>
    <tag k="ref" v="CR 4"/>
    <tag k="tiger:cfcc" v="A41"/>
    <tag k="tiger:county" v="Blue Earth, MN"/>
    <tag k="tiger:name_base" v="145th"/>
    <tag k="tiger:name_base_1" v="County Road 4"/>
    <tag k="tiger:name_type" v="St"/>
    <tag k="tiger:reviewed" v="no"/>
    <tag k="tiger:separated" v="no"/>
    <tag k="tiger:source" v="tiger_import_dch_v0.6_20070813"/>
    <tag k="tiger:tlid" v="28107974"/>
    <tag k="tiger:upload_uuid" v="bulk_upload.pl-07e5d1cc-6690-4645-a278-6f1afc620e28"/>
  </way>
  <way id="18019970" version="3" timestamp="2010-06-23T22:01:59Z" uid="4467" user="Rosscoe" changeset="5062470">
    <nd ref="186392273"/>
    <nd ref="186392289"/>
    <nd ref="186378672"/>
    <nd ref="186392307"/>
    <tag k="highway" v="tertiary"/>
    <tag k="name" v="580th Avenue"/>
    <tag k="name_1" v="County Road 7"/>
    <tag k="ref" v="CR 7"/>
    <tag k="tiger:cfcc" v="A41"/>
    <tag k="tiger:county" v="Blue Earth, MN"/>
    <tag k="tiger:name_base" v="580th"/>
    <tag k="tiger:name_base_1" v="County Road 7"/>
    <tag k="tiger:name_type" v="Ave"/>
    <tag k="tiger:reviewed" v="no"/>
    <tag k="tiger:separated" v="no"/>
    <tag k="tiger:source" v="tiger_import_dch_v0.6_20070813"/>
    <tag k="tiger:tlid" v="28121010:28095656"/>
    <tag k="tiger:upload_uuid" v="bulk_upload.pl-07e5d1cc-6690-4645-a278-6f1afc620e28"/>
  </way>
</osm>
