<?xml version='1.0' encoding='UTF-8'?>
<osm version="0.6" generator="libosmium/2.20.0">
  <way id="18028182" version="5" timestamp="2009-08-09T00:29:42Z" uid="4467" user="Rosscoe" changeset="2080668">
    <nd ref="185017475"/>
    <nd ref="186446383"/>
    <nd ref="186446384"/>
    <nd ref="186446385"/>
    <nd ref="186446387"/>
    <nd ref="186446390"/>
    <nd ref="186446393"/>
    <nd ref="186446396"/>
    <nd ref="186446398"/>
    <nd ref="186446399"/>
    <nd ref="186446401"/>
    <nd ref="186446403"/>
    <nd ref="186446404"/>
    <nd ref="186446406"/>
    <nd ref="186446408"/>
    <nd ref="186446409"/>
    <nd ref="186446411"/>
    <nd ref="186446413"/>
    <nd ref="186446415"/>
    <nd ref="186446416"/>
    <nd ref="186450063"/>
    <nd ref="186450064"/>
    <nd ref="186450065"/>
    <nd ref="186450066"/>
    <nd ref="186450067"/>
    <nd ref="186450068"/>
    <nd ref="186450070"/>
    <tag k="highway" v="residential"/>
    <tag k="name" v="Monkton Street"/>
  </way>
  <way id="18028182" version="6" timestamp="2009-09-18T00:41:39Z" uid="14505" user="David Dean" changeset="2518556">
    <nd ref="185017475"/>
    <nd ref="186446383"/>
    <nd ref="186446384"/>
    <nd ref="186446385"/>
    <nd ref="186446387"/>
    <nd ref="186446390"/>
    <nd ref="186446393"/>
    <nd ref="186446396"/>
    <nd ref="186446398"/>
    <tag k="highway" v="residential"/>
    <tag k="name" v="Monkton Street"/>
  </way>
  <way id="18028182" version="7" timestamp="2009-11-06T14:07:25Z" uid="14505" user="David Dean" changeset="3048530">
    <nd ref="185017475"/>
    <nd ref="186446383"/>
    <nd ref="186446384"/>
    <nd ref="186446385"/>
    <nd ref="186446387"/>
    <tag k="highway" v="residential"/>
    <tag k="name" v="Monkton Street"/>
  </way>
  <way id="18028182" version="8" timestamp="2010-02-15T07:03:27Z" uid="74617" user="JohnSmith" changeset="3880463">
    <nd ref="185017475"/>
    <nd ref="186446383"/>
    <nd ref="186446384"/>
    <nd ref="186446385"/>
    <nd ref="186446387"/>
    <tag k="highway" v="residential"/>
    <tag k="maxspeed" v="50"/>
    <tag k="name" v="Monkton Street"/>
  </way>
  <way id="18028182" version="9" timestamp="2012-01-15T18:38:46Z" uid="147510" user="woodpeck_fixbot" changeset="10400850">
    <nd ref="185017475"/>
    <nd ref="186446383"/>
    <nd ref="186446384"/>
    <nd ref="186446385"/>
    <nd ref="186446387"/>
    <tag k="highway" v="residential"/>
    <tag k="name" v="Monkton Street"/>
  </way>
  <way id="18028534" version="7" timestamp="2010-03-15T10:57:11Z" uid="74617" user="JohnSmith" changeset="4133503">
    <nd ref="53945359"/>
    <nd ref="186675460"/>
    <tag k="bridge" v="yes"/>
    <tag k="highway" v="motorway"/>
    <tag k="layer" v="1"/>
    <tag k="oneway" v="yes"/>
  </way>
  <way id="18028534" version="8" timestamp="2010-08-06T23:28:58Z" uid="299678" user="peteramjet" changeset="5421319">
    <nd ref="53945359"/>
    <nd ref="186675460"/>
    <tag k="bridge" v="yes"/>
    <tag k="highway" v="motorway"/>
    <tag k="layer" v="1"/>
    <tag k="name" v="Pacific Motorway"/>
    <tag k="oneway" v="yes"/>
  </way>
  <way id="18028534" version="9" timestamp="2010-12-29T10:17:00Z" uid="349913" user="Peter W34" changeset="6796693">
    <nd ref="53945359"/>
    <nd ref="186675460"/>
    <tag k="bridge" v="yes"/>
    <tag k="highway" v="motorway"/>
    <tag k="layer" v="1"/>
    <tag k="maxspeed" v="100"/>
    <tag k="name" v="Pacific Motorway"/>
    <tag k="oneway" v="yes"/>
  </way>
  <way id="18028534" version="10" timestamp="2011-10-22T23:49:36Z" uid="103574" user="El Segundo can&apos;t win" changeset="9628754">
    <nd ref="53945359"/>
    <nd ref="186675460"/>
    <tag k="bridge" v="yes"/>
    <tag k="highway" v="motorway"/>
    <tag k="layer" v="1"/>
    <tag k="maxspeed" v="100"/>
    <tag k="name" v="Pacific Motorway"/>
    <tag k="oneway" v="yes"/>
    <tag k="ref" v="M3"/>
  </way>
  <way id="18028534" version="11" timestamp="2012-03-29T04:29:43Z" uid="349913" user="Peter W34" changeset="11133414"/>
  <way id="18028771" version="5" timestamp="2010-02-15T07:02:37Z" uid="74617" user="JohnSmith" changeset="3880463">
    <nd ref="186446384"/>
    <nd ref="186762182"/>
    <nd ref="186443447"/>
    <tag k="highway" v="residential"/>
    <tag k="maxspeed" v="50"/>
    <tag k="name" v="Cranham Street"/>
  </way>
  <way id="18028771" version="6" timestamp="2012-01-15T18:39:16Z" uid="147510" user="woodpeck_fixbot" changeset="10400850">
    <nd ref="186446384"/>
    <nd ref="186762182"/>
    <nd ref="186443447"/>
    <tag k="highway" v="residential"/>
    <tag k="name" v="Cranham Street"/>
  </way>
  <way id="18028825" version="5" timestamp="2010-04-21T05:09:36Z" uid="4467" user="Rosscoe" changeset="4483374">
    <nd ref="186446387"/>
    <nd ref="186449909"/>
    <nd ref="703047373"/>
    <tag k="highway" v="residential"/>
    <tag k="name" v="Garioch Street"/>
  </way>
  <way id="18028825" version="6" timestamp="2010-07-06T08:43:24Z" uid="74617" user="JohnSmith" changeset="5147679">
    <nd ref="186446387"/>
    <nd ref="186449909"/>
    <nd ref="703047373"/>
    <tag k="highway" v="residential"/>
    <tag k="maxspeed" v="50"/>
    <tag k="maxspeed:source" v="default residential speed limit in Australia"/>
    <tag k="name" v="Garioch Street"/>
  </way>
  <way id="18028825" version="7" timestamp="2012-01-15T18:39:41Z" uid="147510" user="woodpeck_fixbot" changeset="10400850">
    <nd ref="186446387"/>
    <nd ref="186449909"/>
    <nd ref="703047373"/>
    <tag k="highway" v="residential"/>
    <tag k="name" v="Garioch Street"/>
  </way>
  <way id="18028872" version="8" timestamp="2010-07-06T08:44:11Z" uid="74617" user="JohnSmith" changeset="5147679">
    <nd ref="174210714"/>
    <nd ref="186450166"/>
    <nd ref="186450070"/>
    <nd ref="186453089"/>
    <nd ref="186453093"/>
    <nd ref="186453096"/>
    <nd ref="499720869"/>
    <nd ref="186453101"/>
    <nd ref="186453104"/>
    <tag k="highway" v="residential"/>
    <tag k="maxspeed" v="50"/>
    <tag k="maxspeed:source" v="default residential speed limit in Australia"/>
    <tag k="name" v="Kuring Gai Avenue"/>
  </way>
  <way id="18028872" version="9" timestamp="2011-02-26T10:33:13Z" uid="4467" user="Rosscoe" changeset="7398308">
    <nd ref="1174273877"/>
    <nd ref="186450166"/>
    <nd ref="186450070"/>
    <nd ref="186453089"/>
    <nd ref="186453093"/>
    <nd ref="186453096"/>
    <nd ref="499720869"/>
    <nd ref="186453101"/>
    <nd ref="186453104"/>
    <tag k="highway" v="residential"/>
    <tag k="maxspeed" v="50"/>
    <tag k="maxspeed:source" v="default residential speed limit in Australia"/>
    <tag k="name" v="Kuring Gai Avenue"/>
  </way>
  <way id="18028872" version="10" timestamp="2012-01-15T18:39:49Z" uid="147510" user="woodpeck_fixbot" changeset="10400850">
    <nd ref="1174273877"/>
    <nd ref="186450166"/>
    <nd ref="186450070"/>
    <nd ref="186453089"/>
    <nd ref="186453093"/>
    <nd ref="186453096"/>
    <nd ref="499720869"/>
    <nd ref="186453101"/>
    <nd ref="186453104"/>
    <tag k="highway" v="residential"/>
    <tag k="name" v="Kuring Gai Avenue"/>
  </way>
</osm>
