<?xml version='1.0' encoding='UTF-8'?>
<osm version="0.6" generator="libosmium/2.20.0">
  <way id="18222049" version="4" timestamp="2010-07-07T07:40:45Z" uid="74617" user="JohnSmith" changeset="5156250">
    <nd ref="187953064"/>
    <nd ref="187954069"/>
    <nd ref="187955425"/>
    <nd ref="187953589"/>
    <tag k="highway" v="residential"/>
    <tag k="maxspeed" v="50"/>
    <tag k="maxspeed:source" v="default residential speed limit in Australia"/>
    <tag k="name" v="Swan Street"/>
    <tag k="source" v="survey"/>
  </way>
  <way id="18222049" version="5" timestamp="2012-01-15T18:50:57Z" uid="147510" user="woodpeck_fixbot" changeset="10400850">
    <nd ref="187953064"/>
    <nd ref="187954069"/>
    <nd ref="187955425"/>
    <nd ref="187953589"/>
    <tag k="highway" v="residential"/>
    <tag k="name" v="Swan Street"/>
    <tag k="source" v="survey"/>
  </way>
  <way id="18222196" version="2" timestamp="2010-07-07T07:39:09Z" uid="74617" user="JohnSmith" changeset="5156250">
    <nd ref="187954072"/>
    <nd ref="187954392"/>
    <tag k="highway" v="residential"/>
    <tag k="maxspeed" v="50"/>
    <tag k="maxspeed:source" v="default residential speed limit in Australia"/>
    <tag k="name" v="Levy Street"/>
    <tag k="source" v="survey"/>
  </way>
  <way id="18222196" version="3" timestamp="2012-01-15T18:51:00Z" uid="147510" user="woodpeck_fixbot" changeset="10400850">
    <nd ref="187954072"/>
    <nd ref="187954392"/>
    <tag k="highway" v="residential"/>
    <tag k="name" v="Levy Street"/>
    <tag k="source" v="survey"/>
  </way>
  <way id="18222369" version="2" timestamp="2010-07-07T07:41:42Z" uid="74617" user="JohnSmith" changeset="5156250">
    <nd ref="140689987"/>
    <nd ref="187955421"/>
    <nd ref="187955422"/>
    <nd ref="187955423"/>
    <nd ref="187955424"/>
    <nd ref="187955425"/>
    <tag k="highway" v="residential"/>
    <tag k="maxspeed" v="50"/>
    <tag k="maxspeed:source" v="default residential speed limit in Australia"/>
    <tag k="name" v="Riverview Street"/>
    <tag k="source" v="survey"/>
  </way>
  <way id="18222369" version="3" timestamp="2012-01-15T18:51:13Z" uid="147510" user="woodpeck_fixbot" changeset="10400850">
    <nd ref="140689987"/>
    <nd ref="187955421"/>
    <nd ref="187955422"/>
    <nd ref="187955423"/>
    <nd ref="187955424"/>
    <nd ref="187955425"/>
    <tag k="highway" v="residential"/>
    <tag k="name" v="Riverview Street"/>
    <tag k="source" v="survey"/>
  </way>
</osm>
