<?xml version='1.0' encoding='UTF-8'?>
<osm version="0.6" generator="libosmium/2.20.0">
  <way id="18221095" version="2" timestamp="2010-07-07T07:39:20Z" uid="74617" user="JohnSmith" changeset="5156250">
    <nd ref="187947087"/>
    <nd ref="187947764"/>
    <nd ref="187947765"/>
    <nd ref="187947767"/>
    <nd ref="187947768"/>
    <tag k="highway" v="residential"/>
    <tag k="maxspeed" v="50"/>
    <tag k="maxspeed:source" v="default residential speed limit in Australia"/>
    <tag k="name" v="Alexandra Street"/>
    <tag k="source" v="survey"/>
  </way>
  <way id="18221095" version="3" timestamp="2012-01-15T18:50:15Z" uid="147510" user="woodpeck_fixbot" changeset="10400850">
    <nd ref="187947087"/>
    <nd ref="187947764"/>
    <nd ref="187947765"/>
    <nd ref="187947767"/>
    <nd ref="187947768"/>
    <tag k="highway" v="residential"/>
    <tag k="name" v="Alexandra Street"/>
    <tag k="source" v="survey"/>
  </way>
  <way id="18221170" version="2" timestamp="2010-07-07T07:41:57Z" uid="74617" user="JohnSmith" changeset="5156250">
    <nd ref="187947767"/>
    <nd ref="187948307"/>
    <nd ref="187948308"/>
    <tag k="highway" v="residential"/>
    <tag k="maxspeed" v="50"/>
    <tag k="maxspeed:source" v="default residential speed limit in Australia"/>
    <tag k="name" v="Fiona Street"/>
    <tag k="source" v="survey"/>
  </way>
  <way id="18221170" version="3" timestamp="2012-01-15T18:50:16Z" uid="147510" user="woodpeck_fixbot" changeset="10400850">
    <nd ref="187947767"/>
    <nd ref="187948307"/>
    <nd ref="187948308"/>
    <tag k="highway" v="residential"/>
    <tag k="name" v="Fiona Street"/>
    <tag k="source" v="survey"/>
  </way>
  <way id="18221343" version="5" timestamp="2010-07-07T07:40:14Z" uid="74617" user="JohnSmith" changeset="5156250">
    <nd ref="382971777"/>
    <nd ref="187949250"/>
    <nd ref="187949251"/>
    <nd ref="187949252"/>
    <nd ref="187949253"/>
    <nd ref="187949255"/>
    <nd ref="382971987"/>
    <nd ref="382971413"/>
    <tag k="highway" v="residential"/>
    <tag k="maxspeed" v="50"/>
    <tag k="maxspeed:source" v="default residential speed limit in Australia"/>
    <tag k="name" v="Curlew Crescent"/>
    <tag k="source" v="survey"/>
  </way>
  <way id="18221343" version="6" timestamp="2011-01-07T10:10:01Z" uid="4467" user="Rosscoe" changeset="6890946">
    <nd ref="382971777"/>
    <nd ref="187949250"/>
    <nd ref="187949251"/>
    <nd ref="187949252"/>
    <nd ref="187949253"/>
    <nd ref="1088058990"/>
    <nd ref="187949255"/>
    <nd ref="382971987"/>
    <nd ref="382971413"/>
    <tag k="highway" v="residential"/>
    <tag k="maxspeed" v="50"/>
    <tag k="maxspeed:source" v="default residential speed limit in Australia"/>
    <tag k="name" v="Curlew Crescent"/>
    <tag k="source" v="survey"/>
  </way>
  <way id="18221343" version="7" timestamp="2012-01-15T18:50:24Z" uid="147510" user="woodpeck_fixbot" changeset="10400850">
    <nd ref="382971777"/>
    <nd ref="187949250"/>
    <nd ref="187949251"/>
    <nd ref="187949252"/>
    <nd ref="187949253"/>
    <nd ref="1088058990"/>
    <nd ref="187949255"/>
    <nd ref="382971987"/>
    <nd ref="382971413"/>
    <tag k="highway" v="residential"/>
    <tag k="name" v="Curlew Crescent"/>
    <tag k="source" v="survey"/>
  </way>
  <way id="18221492" version="4" timestamp="2010-07-07T07:38:41Z" uid="74617" user="JohnSmith" changeset="5156250">
    <nd ref="187950228"/>
    <nd ref="187950229"/>
    <nd ref="187950555"/>
    <nd ref="187950231"/>
    <nd ref="187950232"/>
    <nd ref="187951890"/>
    <nd ref="187950233"/>
    <tag k="highway" v="residential"/>
    <tag k="maxspeed" v="50"/>
    <tag k="maxspeed:source" v="default residential speed limit in Australia"/>
    <tag k="name" v="Conimbla Close"/>
    <tag k="source" v="survey"/>
  </way>
  <way id="18221492" version="5" timestamp="2012-01-15T18:50:32Z" uid="147510" user="woodpeck_fixbot" changeset="10400850">
    <nd ref="187950228"/>
    <nd ref="187950229"/>
    <nd ref="187950555"/>
    <nd ref="187950231"/>
    <nd ref="187950232"/>
    <nd ref="187951890"/>
    <nd ref="187950233"/>
    <tag k="highway" v="residential"/>
    <tag k="name" v="Conimbla Close"/>
    <tag k="source" v="survey"/>
  </way>
  <way id="18221619" version="2" timestamp="2010-07-07T07:41:27Z" uid="74617" user="JohnSmith" changeset="5156250">
    <nd ref="187950555"/>
    <nd ref="187950842"/>
    <nd ref="187950843"/>
    <tag k="highway" v="residential"/>
    <tag k="maxspeed" v="50"/>
    <tag k="maxspeed:source" v="default residential speed limit in Australia"/>
    <tag k="name" v="Warrumbungle Close"/>
    <tag k="source" v="survey"/>
  </way>
  <way id="18221619" version="3" timestamp="2012-01-15T18:50:42Z" uid="147510" user="woodpeck_fixbot" changeset="10400850">
    <nd ref="187950555"/>
    <nd ref="187950842"/>
    <nd ref="187950843"/>
    <tag k="highway" v="residential"/>
    <tag k="name" v="Warrumbungle Close"/>
    <tag k="source" v="survey"/>
  </way>
  <way id="18221773" version="2" timestamp="2010-07-07T07:40:16Z" uid="74617" user="JohnSmith" changeset="5156250">
    <nd ref="187950842"/>
    <nd ref="187951791"/>
    <tag k="highway" v="residential"/>
    <tag k="maxspeed" v="50"/>
    <tag k="maxspeed:source" v="default residential speed limit in Australia"/>
    <tag k="name" v="Warrabah Close"/>
    <tag k="source" v="survey"/>
  </way>
  <way id="18221773" version="3" timestamp="2012-01-15T18:50:46Z" uid="147510" user="woodpeck_fixbot" changeset="10400850">
    <nd ref="187950842"/>
    <nd ref="187951791"/>
    <tag k="highway" v="residential"/>
    <tag k="name" v="Warrabah Close"/>
    <tag k="source" v="survey"/>
  </way>
  <way id="18221857" version="2" timestamp="2010-07-07T07:39:34Z" uid="74617" user="JohnSmith" changeset="5156250">
    <nd ref="187951890"/>
    <nd ref="187952403"/>
    <nd ref="187952404"/>
    <tag k="highway" v="residential"/>
    <tag k="maxspeed" v="50"/>
    <tag k="maxspeed:source" v="default residential speed limit in Australia"/>
    <tag k="name" v="Wollemi Close"/>
    <tag k="source" v="survey"/>
  </way>
  <way id="18221857" version="3" timestamp="2012-01-15T18:50:47Z" uid="147510" user="woodpeck_fixbot" changeset="10400850">
    <nd ref="187951890"/>
    <nd ref="187952403"/>
    <nd ref="187952404"/>
    <tag k="highway" v="residential"/>
    <tag k="name" v="Wollemi Close"/>
    <tag k="source" v="survey"/>
  </way>
  <way id="18221971" version="2" timestamp="2010-07-07T07:40:16Z" uid="74617" user="JohnSmith" changeset="5156250">
    <nd ref="187950231"/>
    <nd ref="187952949"/>
    <tag k="highway" v="residential"/>
    <tag k="maxspeed" v="50"/>
    <tag k="maxspeed:source" v="default residential speed limit in Australia"/>
    <tag k="source" v="survey"/>
  </way>
  <way id="18221971" version="3" timestamp="2012-01-15T18:50:55Z" uid="147510" user="woodpeck_fixbot" changeset="10400850">
    <nd ref="187950231"/>
    <nd ref="187952949"/>
    <tag k="highway" v="residential"/>
    <tag k="source" v="survey"/>
  </way>
</osm>
