<?xml version='1.0' encoding='UTF-8'?>
<osm version="0.6" generator="libosmium/2.20.0">
  <way id="18220206" version="3" timestamp="2010-07-07T07:39:31Z" uid="74617" user="JohnSmith" changeset="5156250">
    <nd ref="187942077"/>
    <nd ref="187943407"/>
    <nd ref="187942671"/>
    <tag k="highway" v="residential"/>
    <tag k="maxspeed" v="50"/>
    <tag k="maxspeed:source" v="default residential speed limit in Australia"/>
    <tag k="name" v="Brolga Way"/>
    <tag k="source" v="survey"/>
  </way>
  <way id="18220206" version="4" timestamp="2011-01-07T10:10:05Z" uid="4467" user="Rosscoe" changeset="6890946">
    <nd ref="187942077"/>
    <nd ref="187943407"/>
    <nd ref="1088059007"/>
    <nd ref="187942671"/>
    <tag k="highway" v="residential"/>
    <tag k="maxspeed" v="50"/>
    <tag k="maxspeed:source" v="default residential speed limit in Australia"/>
    <tag k="name" v="Brolga Way"/>
    <tag k="source" v="survey"/>
  </way>
  <way id="18220206" version="5" timestamp="2012-01-15T18:49:58Z" uid="147510" user="woodpeck_fixbot" changeset="10400850">
    <nd ref="187942077"/>
    <nd ref="187943407"/>
    <nd ref="1088059007"/>
    <nd ref="187942671"/>
    <tag k="highway" v="residential"/>
    <tag k="name" v="Brolga Way"/>
    <tag k="source" v="survey"/>
  </way>
  <way id="18220354" version="4" timestamp="2010-07-07T07:39:53Z" uid="74617" user="JohnSmith" changeset="5156250">
    <nd ref="187942671"/>
    <nd ref="187945053"/>
    <nd ref="187943383"/>
    <nd ref="187943385"/>
    <nd ref="187943388"/>
    <nd ref="230252868"/>
    <nd ref="187943389"/>
    <tag k="highway" v="residential"/>
    <tag k="maxspeed" v="50"/>
    <tag k="maxspeed:source" v="default residential speed limit in Australia"/>
    <tag k="name" v="Brolga Crescent"/>
    <tag k="source" v="survey"/>
  </way>
  <way id="18220354" version="5" timestamp="2011-01-07T10:10:06Z" uid="4467" user="Rosscoe" changeset="6890946">
    <nd ref="187942671"/>
    <nd ref="187945053"/>
    <nd ref="187943383"/>
    <nd ref="187943385"/>
    <nd ref="187943388"/>
    <nd ref="230252868"/>
    <tag k="highway" v="residential"/>
    <tag k="maxspeed" v="50"/>
    <tag k="maxspeed:source" v="default residential speed limit in Australia"/>
    <tag k="name" v="Brolga Crescent"/>
    <tag k="source" v="survey"/>
  </way>
  <way id="18220354" version="6" timestamp="2012-01-15T18:50:01Z" uid="147510" user="woodpeck_fixbot" changeset="10400850">
    <nd ref="187942671"/>
    <nd ref="187945053"/>
    <nd ref="187943383"/>
    <nd ref="187943385"/>
    <nd ref="187943388"/>
    <nd ref="230252868"/>
    <tag k="highway" v="residential"/>
    <tag k="name" v="Brolga Crescent"/>
    <tag k="source" v="survey"/>
  </way>
  <way id="18220489" version="2" timestamp="2010-07-07T07:40:36Z" uid="74617" user="JohnSmith" changeset="5156250">
    <nd ref="187943407"/>
    <nd ref="187943872"/>
    <nd ref="187943873"/>
    <nd ref="187943874"/>
    <nd ref="187943875"/>
    <tag k="highway" v="residential"/>
    <tag k="maxspeed" v="50"/>
    <tag k="maxspeed:source" v="default residential speed limit in Australia"/>
    <tag k="name" v="Jacaranda Place"/>
    <tag k="source" v="survey"/>
  </way>
  <way id="18220489" version="3" timestamp="2011-01-07T10:10:01Z" uid="4467" user="Rosscoe" changeset="6890946">
    <nd ref="1088059024"/>
    <nd ref="187943407"/>
    <tag k="highway" v="residential"/>
    <tag k="maxspeed" v="50"/>
    <tag k="maxspeed:source" v="default residential speed limit in Australia"/>
  </way>
  <way id="18220489" version="4" timestamp="2012-01-15T18:50:05Z" uid="147510" user="woodpeck_fixbot" changeset="10400850">
    <nd ref="1088059024"/>
    <nd ref="187943407"/>
    <tag k="highway" v="residential"/>
  </way>
  <way id="18220634" version="2" timestamp="2010-07-07T07:38:43Z" uid="74617" user="JohnSmith" changeset="5156250">
    <nd ref="187943872"/>
    <nd ref="187944486"/>
    <nd ref="187944487"/>
    <nd ref="187944488"/>
    <tag k="highway" v="residential"/>
    <tag k="maxspeed" v="50"/>
    <tag k="maxspeed:source" v="default residential speed limit in Australia"/>
    <tag k="name" v="Ford Street"/>
    <tag k="source" v="survey"/>
  </way>
  <way id="18220634" version="3" timestamp="2012-01-15T18:50:06Z" uid="147510" user="woodpeck_fixbot" changeset="10400850">
    <nd ref="187943872"/>
    <nd ref="187944486"/>
    <nd ref="187944487"/>
    <nd ref="187944488"/>
    <tag k="highway" v="residential"/>
    <tag k="name" v="Ford Street"/>
    <tag k="source" v="survey"/>
  </way>
  <way id="18220702" version="6" timestamp="2010-07-07T07:39:21Z" uid="74617" user="JohnSmith" changeset="5156250">
    <nd ref="187945032"/>
    <nd ref="187945775"/>
    <nd ref="187947088"/>
    <nd ref="187947768"/>
    <nd ref="187945033"/>
    <nd ref="187948308"/>
    <nd ref="187945034"/>
    <tag k="highway" v="residential"/>
    <tag k="maxspeed" v="50"/>
    <tag k="maxspeed:source" v="default residential speed limit in Australia"/>
    <tag k="name" v="Yarmouth Parade"/>
    <tag k="source" v="survey"/>
  </way>
  <way id="18220702" version="7" timestamp="2012-01-15T18:50:08Z" uid="147510" user="woodpeck_fixbot" changeset="10400850">
    <nd ref="187945032"/>
    <nd ref="187945775"/>
    <nd ref="187947088"/>
    <nd ref="187947768"/>
    <nd ref="187945033"/>
    <nd ref="187948308"/>
    <nd ref="187945034"/>
    <tag k="highway" v="residential"/>
    <tag k="name" v="Yarmouth Parade"/>
    <tag k="source" v="survey"/>
  </way>
  <way id="18220787" version="2" timestamp="2010-07-07T07:39:00Z" uid="74617" user="JohnSmith" changeset="5156250">
    <nd ref="187945053"/>
    <nd ref="187945774"/>
    <nd ref="187945775"/>
    <tag k="highway" v="residential"/>
    <tag k="maxspeed" v="50"/>
    <tag k="maxspeed:source" v="default residential speed limit in Australia"/>
    <tag k="name" v="Lesley Street"/>
    <tag k="source" v="survey"/>
  </way>
  <way id="18220787" version="3" timestamp="2012-01-15T18:50:10Z" uid="147510" user="woodpeck_fixbot" changeset="10400850">
    <nd ref="187945053"/>
    <nd ref="187945774"/>
    <nd ref="187945775"/>
    <tag k="highway" v="residential"/>
    <tag k="name" v="Lesley Street"/>
    <tag k="source" v="survey"/>
  </way>
  <way id="18220908" version="3" timestamp="2010-07-07T07:38:31Z" uid="74617" user="JohnSmith" changeset="5156250">
    <nd ref="187945774"/>
    <nd ref="187946400"/>
    <tag k="highway" v="residential"/>
    <tag k="maxspeed" v="50"/>
    <tag k="maxspeed:source" v="default residential speed limit in Australia"/>
    <tag k="name" v="Ford Street"/>
    <tag k="source" v="survey"/>
  </way>
  <way id="18220908" version="4" timestamp="2012-01-15T18:50:11Z" uid="147510" user="woodpeck_fixbot" changeset="10400850">
    <nd ref="187945774"/>
    <nd ref="187946400"/>
    <tag k="highway" v="residential"/>
    <tag k="name" v="Ford Street"/>
    <tag k="source" v="survey"/>
  </way>
  <way id="18220987" version="2" timestamp="2010-07-07T07:39:32Z" uid="74617" user="JohnSmith" changeset="5156250">
    <nd ref="187943383"/>
    <nd ref="187947087"/>
    <nd ref="187947088"/>
    <tag k="highway" v="residential"/>
    <tag k="maxspeed" v="50"/>
    <tag k="maxspeed:source" v="default residential speed limit in Australia"/>
    <tag k="name" v="Ernest Street"/>
    <tag k="source" v="survey"/>
  </way>
  <way id="18220987" version="3" timestamp="2012-01-15T18:50:13Z" uid="147510" user="woodpeck_fixbot" changeset="10400850">
    <nd ref="187943383"/>
    <nd ref="187947087"/>
    <nd ref="187947088"/>
    <tag k="highway" v="residential"/>
    <tag k="name" v="Ernest Street"/>
    <tag k="source" v="survey"/>
  </way>
</osm>
