<?xml version='1.0' encoding='UTF-8'?>
<osm version="0.6" generator="libosmium/2.20.0">
  <way id="18305476" version="9" timestamp="2010-05-31T00:06:17Z" uid="4467" user="Rosscoe" changeset="4858786">
    <nd ref="38416728"/>
    <nd ref="734823913"/>
    <nd ref="734823914"/>
    <nd ref="38416727"/>
    <nd ref="38416720"/>
    <nd ref="38416718"/>
    <nd ref="734823912"/>
    <nd ref="734823906"/>
    <nd ref="38416717"/>
    <nd ref="389539524"/>
    <nd ref="734823905"/>
    <tag k="highway" v="secondary"/>
    <tag k="maxspeed" v="70"/>
    <tag k="name" v="Industrial Drive"/>
    <tag k="oneway" v="yes"/>
    <tag k="ref" v="124"/>
  </way>
  <way id="18305476" version="10" timestamp="2010-10-05T22:25:08Z" uid="79475" user="AlexOnTheBus" changeset="5965470">
    <nd ref="38416728"/>
    <nd ref="734823913"/>
    <nd ref="734823914"/>
    <nd ref="38416727"/>
    <nd ref="38416720"/>
    <nd ref="38416718"/>
    <nd ref="734823912"/>
    <nd ref="734823906"/>
    <nd ref="38416717"/>
    <nd ref="389539524"/>
    <nd ref="734823905"/>
    <tag k="highway" v="primary"/>
    <tag k="maxspeed" v="70"/>
    <tag k="name" v="Industrial Drive"/>
    <tag k="oneway" v="yes"/>
    <tag k="ref" v="S 124"/>
  </way>
</osm>
