<?xml version='1.0' encoding='UTF-8'?>
<osm version="0.6" generator="libosmium/2.20.0">
  <way id="18407350" version="1" timestamp="2007-12-26T05:02:30Z" uid="7617" user="Franc" changeset="425617">
    <nd ref="189769919"/>
    <nd ref="189758558"/>
    <nd ref="189769946"/>
    <tag k="created_by" v="JOSM"/>
    <tag k="highway" v="residential"/>
    <tag k="source" v="yahoo_imagery"/>
  </way>
  <way id="18407350" version="2" timestamp="2008-03-20T12:25:53Z" uid="7617" user="Franc" changeset="358141">
    <nd ref="189769919"/>
    <nd ref="189758558"/>
    <tag k="created_by" v="JOSM"/>
    <tag k="highway" v="residential"/>
    <tag k="name" v="Belmont Street"/>
    <tag k="source" v="yahoo_imagery"/>
    <tag k="source:name" v="extrapolation"/>
  </way>
  <way id="18407350" version="3" timestamp="2008-11-24T07:06:27Z" uid="7617" user="Franc" changeset="786627">
    <nd ref="189769919"/>
    <nd ref="314148193"/>
    <tag k="created_by" v="JOSM"/>
    <tag k="highway" v="residential"/>
    <tag k="name" v="Belmont Street"/>
    <tag k="source" v="survey"/>
  </way>
  <way id="18407350" version="4" timestamp="2009-04-07T10:29:18Z" uid="5753" user="yewenyi" changeset="297688">
    <nd ref="189769919"/>
    <nd ref="314148193"/>
    <tag k="bicycle" v="yes"/>
    <tag k="created_by" v="JOSM"/>
    <tag k="highway" v="residential"/>
    <tag k="name" v="Belmont Street"/>
    <tag k="source" v="survey"/>
  </way>
  <way id="18407350" version="5" timestamp="2009-10-31T05:44:23Z" uid="5753" user="yewenyi" changeset="2994942"/>
  <way id="18407352" version="1" timestamp="2007-12-26T05:02:31Z" uid="7617" user="Franc" changeset="425617">
    <nd ref="189769960"/>
    <nd ref="30790436"/>
    <nd ref="189769980"/>
    <nd ref="189769998"/>
    <tag k="created_by" v="JOSM"/>
    <tag k="highway" v="unclassified"/>
    <tag k="source" v="yahoo_imagery"/>
  </way>
  <way id="18407352" version="2" timestamp="2008-03-20T12:25:55Z" uid="7617" user="Franc" changeset="358141">
    <nd ref="189769960"/>
    <nd ref="30790436"/>
    <nd ref="189769980"/>
    <nd ref="189769998"/>
    <tag k="created_by" v="JOSM"/>
    <tag k="highway" v="residential"/>
    <tag k="name" v="Lawrence Street"/>
    <tag k="source" v="survey"/>
  </way>
  <way id="18407352" version="3" timestamp="2009-11-14T12:04:50Z" uid="117890" user="Jonathan Trott" changeset="3112508">
    <nd ref="189769960"/>
    <nd ref="30790436"/>
    <nd ref="189769980"/>
    <nd ref="189769998"/>
    <tag k="highway" v="residential"/>
    <tag k="name" v="Lawrence Street"/>
    <tag k="source" v="survey"/>
  </way>
  <way id="18407352" version="4" timestamp="2010-01-30T06:10:54Z" uid="30201" user="rrankin" changeset="3748418">
    <nd ref="189769960"/>
    <nd ref="622831893"/>
    <tag k="highway" v="residential"/>
    <tag k="name" v="Lawrence Street"/>
    <tag k="source" v="survey"/>
  </way>
  <way id="18407352" version="5" timestamp="2010-07-07T22:11:03Z" uid="74617" user="JohnSmith" changeset="5161069">
    <nd ref="189769960"/>
    <nd ref="622831893"/>
    <tag k="highway" v="residential"/>
    <tag k="maxspeed" v="50"/>
    <tag k="maxspeed:source" v="default residential speed limit in Australia"/>
    <tag k="name" v="Lawrence Street"/>
    <tag k="source" v="survey"/>
  </way>
  <way id="18407352" version="6" timestamp="2012-01-15T19:00:37Z" uid="147510" user="woodpeck_fixbot" changeset="10400850">
    <nd ref="189769960"/>
    <nd ref="622831893"/>
    <tag k="highway" v="residential"/>
    <tag k="name" v="Lawrence Street"/>
    <tag k="source" v="survey"/>
  </way>
  <way id="18407356" version="1" timestamp="2007-12-26T05:02:32Z" uid="7617" user="Franc" changeset="425617">
    <nd ref="189770026"/>
    <nd ref="30790435"/>
    <nd ref="30790433"/>
    <nd ref="189770041"/>
    <nd ref="189769980"/>
    <nd ref="189770065"/>
    <nd ref="189770048"/>
    <tag k="created_by" v="JOSM"/>
    <tag k="highway" v="unclassified"/>
    <tag k="source" v="yahoo_imagery"/>
  </way>
  <way id="18407356" version="2" timestamp="2008-03-20T12:25:56Z" uid="7617" user="Franc" changeset="358141">
    <nd ref="189770026"/>
    <nd ref="30790435"/>
    <nd ref="30790433"/>
    <nd ref="189770041"/>
    <nd ref="189769980"/>
    <nd ref="189770065"/>
    <nd ref="189770048"/>
    <tag k="created_by" v="JOSM"/>
    <tag k="highway" v="residential"/>
    <tag k="name" v="Harley Street"/>
    <tag k="source" v="survey"/>
  </way>
  <way id="18407356" version="3" timestamp="2009-11-14T12:04:50Z" uid="117890" user="Jonathan Trott" changeset="3112508">
    <nd ref="189770026"/>
    <nd ref="30790435"/>
    <nd ref="30790433"/>
    <nd ref="189770041"/>
    <nd ref="189769980"/>
    <nd ref="189770065"/>
    <nd ref="189770048"/>
    <tag k="highway" v="residential"/>
    <tag k="name" v="Harley Street"/>
    <tag k="source" v="survey"/>
  </way>
  <way id="18407356" version="4" timestamp="2009-11-17T06:24:52Z" uid="5753" user="yewenyi" changeset="3138575">
    <nd ref="189770026"/>
    <nd ref="30790435"/>
    <nd ref="30790433"/>
    <nd ref="189770041"/>
    <nd ref="189769980"/>
    <nd ref="189770065"/>
    <nd ref="189770048"/>
    <tag k="bicycle" v="yes"/>
    <tag k="highway" v="residential"/>
    <tag k="lcn" v="yes"/>
    <tag k="name" v="Harley Street"/>
    <tag k="source" v="survey"/>
  </way>
  <way id="18407356" version="5" timestamp="2010-06-14T13:05:57Z" uid="231385" user="moo2u2" changeset="4987853">
    <nd ref="189770026"/>
    <nd ref="30790435"/>
    <nd ref="30790433"/>
    <nd ref="189770041"/>
    <nd ref="189769980"/>
    <nd ref="189770065"/>
    <nd ref="189770048"/>
    <tag k="bicycle" v="yes"/>
    <tag k="highway" v="residential"/>
    <tag k="lcn" v="yes"/>
    <tag k="name" v="Harley Street"/>
    <tag k="source" v="survey"/>
  </way>
  <way id="18407356" version="6" timestamp="2010-07-07T22:11:44Z" uid="74617" user="JohnSmith" changeset="5161069">
    <nd ref="189770026"/>
    <nd ref="30790435"/>
    <nd ref="30790433"/>
    <nd ref="189770041"/>
    <nd ref="189769980"/>
    <nd ref="189770065"/>
    <nd ref="189770048"/>
    <tag k="bicycle" v="yes"/>
    <tag k="highway" v="residential"/>
    <tag k="lcn" v="yes"/>
    <tag k="maxspeed" v="50"/>
    <tag k="maxspeed:source" v="default residential speed limit in Australia"/>
    <tag k="name" v="Harley Street"/>
    <tag k="source" v="survey"/>
  </way>
  <way id="18407356" version="7" timestamp="2012-01-15T19:00:38Z" uid="147510" user="woodpeck_fixbot" changeset="10400850">
    <nd ref="189770026"/>
    <nd ref="30790435"/>
    <nd ref="30790433"/>
    <nd ref="189770041"/>
    <nd ref="189769980"/>
    <nd ref="189770065"/>
    <nd ref="189770048"/>
    <tag k="bicycle" v="yes"/>
    <tag k="highway" v="residential"/>
    <tag k="lcn" v="yes"/>
    <tag k="name" v="Harley Street"/>
    <tag k="source" v="survey"/>
  </way>
  <way id="18407357" version="1" timestamp="2007-12-26T05:02:32Z" uid="7617" user="Franc" changeset="425617">
    <nd ref="189770065"/>
    <nd ref="30790437"/>
    <tag k="created_by" v="JOSM"/>
    <tag k="highway" v="service"/>
    <tag k="source" v="yahoo_imagery"/>
  </way>
  <way id="18407357" version="2" timestamp="2008-03-20T12:25:57Z" uid="7617" user="Franc" changeset="358141">
    <nd ref="189770065"/>
    <nd ref="30790437"/>
    <tag k="created_by" v="JOSM"/>
    <tag k="highway" v="service"/>
    <tag k="name" v="Euston Lane"/>
    <tag k="source" v="survey"/>
    <tag k="source:name" v="extrapolation"/>
  </way>
  <way id="18407357" version="3" timestamp="2009-11-14T12:05:31Z" uid="117890" user="Jonathan Trott" changeset="3112508">
    <nd ref="189770065"/>
    <nd ref="30790437"/>
    <tag k="highway" v="service"/>
    <tag k="name" v="Euston Lane"/>
    <tag k="source" v="survey"/>
    <tag k="source:name" v="extrapolation"/>
  </way>
  <way id="18407748" version="7" timestamp="2009-06-25T03:49:45Z" uid="74617" user="JohnSmith" changeset="1618018">
    <nd ref="186366090"/>
    <nd ref="230331018"/>
    <nd ref="189778564"/>
    <nd ref="196700786"/>
    <nd ref="189778589"/>
    <nd ref="189778603"/>
    <nd ref="190968680"/>
    <tag k="highway" v="tertiary"/>
    <tag k="name" v="Crown Road"/>
  </way>
  <way id="18407748" version="8" timestamp="2009-08-12T04:33:59Z" uid="74617" user="JohnSmith" changeset="2114560"/>
</osm>
