<?xml version='1.0' encoding='UTF-8'?>
<osm version="0.6" generator="libosmium/2.20.0">
  <way id="18543044" version="2" timestamp="2010-07-09T02:56:33Z" uid="74617" user="JohnSmith" changeset="5170739">
    <nd ref="191203357"/>
    <nd ref="191203370"/>
    <tag k="highway" v="residential"/>
    <tag k="maxspeed" v="50"/>
    <tag k="maxspeed:source" v="default residential speed limit in Australia"/>
    <tag k="name" v="Lascelles Street"/>
  </way>
  <way id="18543044" version="3" timestamp="2012-01-15T19:14:32Z" uid="147510" user="woodpeck_fixbot" changeset="10400850">
    <nd ref="191203357"/>
    <nd ref="191203370"/>
    <tag k="highway" v="residential"/>
    <tag k="name" v="Lascelles Street"/>
  </way>
  <way id="18543044" version="4" timestamp="2012-02-24T04:44:36Z" uid="201443" user="stevage" changeset="10774689">
    <nd ref="191203357"/>
    <nd ref="1645179829"/>
    <nd ref="1645179815"/>
    <nd ref="191203370"/>
    <tag k="highway" v="residential"/>
    <tag k="name" v="Lascelles Street"/>
  </way>
  <way id="18543046" version="2" timestamp="2010-07-09T03:00:46Z" uid="74617" user="JohnSmith" changeset="5170739">
    <nd ref="191203378"/>
    <nd ref="191203392"/>
    <tag k="highway" v="residential"/>
    <tag k="maxspeed" v="50"/>
    <tag k="maxspeed:source" v="default residential speed limit in Australia"/>
    <tag k="name" v="Shackell Street"/>
  </way>
  <way id="18543046" version="3" timestamp="2012-01-15T19:14:33Z" uid="147510" user="woodpeck_fixbot" changeset="10400850">
    <nd ref="191203378"/>
    <nd ref="191203392"/>
    <tag k="highway" v="residential"/>
    <tag k="name" v="Shackell Street"/>
  </way>
  <way id="18543046" version="4" timestamp="2012-02-24T04:44:35Z" uid="201443" user="stevage" changeset="10774689">
    <nd ref="191203378"/>
    <nd ref="1645179806"/>
    <nd ref="191203392"/>
    <tag k="highway" v="residential"/>
    <tag k="name" v="Shackell Street"/>
  </way>
  <way id="18543047" version="2" timestamp="2010-07-09T03:02:39Z" uid="74617" user="JohnSmith" changeset="5170739">
    <nd ref="191203399"/>
    <nd ref="191203410"/>
    <tag k="highway" v="residential"/>
    <tag k="maxspeed" v="50"/>
    <tag k="maxspeed:source" v="default residential speed limit in Australia"/>
    <tag k="name" v="Jamieson Street"/>
  </way>
  <way id="18543047" version="3" timestamp="2012-01-15T19:14:35Z" uid="147510" user="woodpeck_fixbot" changeset="10400850">
    <nd ref="191203399"/>
    <nd ref="191203410"/>
    <tag k="highway" v="residential"/>
    <tag k="name" v="Jamieson Street"/>
  </way>
  <way id="18543047" version="4" timestamp="2012-02-24T04:44:36Z" uid="201443" user="stevage" changeset="10774689">
    <nd ref="191203399"/>
    <nd ref="1645179840"/>
    <nd ref="191203410"/>
    <tag k="highway" v="residential"/>
    <tag k="name" v="Jamieson Street"/>
  </way>
  <way id="18543175" version="2" timestamp="2010-07-09T02:53:32Z" uid="74617" user="JohnSmith" changeset="5170739">
    <nd ref="191205075"/>
    <nd ref="191205090"/>
    <tag k="highway" v="residential"/>
    <tag k="maxspeed" v="50"/>
    <tag k="maxspeed:source" v="default residential speed limit in Australia"/>
    <tag k="name" v="Liverpool Street"/>
  </way>
  <way id="18543175" version="3" timestamp="2012-01-15T19:14:36Z" uid="147510" user="woodpeck_fixbot" changeset="10400850">
    <nd ref="191205075"/>
    <nd ref="191205090"/>
    <tag k="highway" v="residential"/>
    <tag k="name" v="Liverpool Street"/>
  </way>
  <way id="18543177" version="3" timestamp="2010-07-09T02:58:00Z" uid="74617" user="JohnSmith" changeset="5170739">
    <nd ref="191205090"/>
    <nd ref="196191105"/>
    <nd ref="191205094"/>
    <tag k="highway" v="residential"/>
    <tag k="maxspeed" v="50"/>
    <tag k="maxspeed:source" v="default residential speed limit in Australia"/>
    <tag k="name" v="Linsey Street"/>
  </way>
  <way id="18543177" version="4" timestamp="2012-01-15T19:14:37Z" uid="147510" user="woodpeck_fixbot" changeset="10400850">
    <nd ref="191205090"/>
    <nd ref="196191105"/>
    <nd ref="191205094"/>
    <tag k="highway" v="residential"/>
    <tag k="name" v="Linsey Street"/>
  </way>
  <way id="18543334" version="7" timestamp="2010-07-09T02:54:50Z" uid="74617" user="JohnSmith" changeset="5170739">
    <nd ref="196191085"/>
    <nd ref="191208750"/>
    <nd ref="191240388"/>
    <nd ref="191240404"/>
    <nd ref="191240424"/>
    <nd ref="191240446"/>
    <nd ref="191240460"/>
    <nd ref="191240480"/>
    <nd ref="191240498"/>
    <nd ref="304516270"/>
    <nd ref="191240515"/>
    <nd ref="196217612"/>
    <tag k="highway" v="residential"/>
    <tag k="maxspeed" v="50"/>
    <tag k="maxspeed:source" v="default residential speed limit in Australia"/>
    <tag k="name" v="Victoria Street"/>
  </way>
  <way id="18543334" version="8" timestamp="2012-01-15T19:14:39Z" uid="147510" user="woodpeck_fixbot" changeset="10400850">
    <nd ref="196191085"/>
    <nd ref="191208750"/>
    <nd ref="191240388"/>
    <nd ref="191240404"/>
    <nd ref="191240424"/>
    <nd ref="191240446"/>
    <nd ref="191240460"/>
    <nd ref="191240480"/>
    <nd ref="191240498"/>
    <nd ref="304516270"/>
    <nd ref="191240515"/>
    <nd ref="196217612"/>
    <tag k="highway" v="residential"/>
    <tag k="name" v="Victoria Street"/>
  </way>
  <way id="18543334" version="9" timestamp="2012-02-24T04:44:36Z" uid="201443" user="stevage" changeset="10774689">
    <nd ref="196191085"/>
    <nd ref="191208750"/>
    <nd ref="191240388"/>
    <nd ref="191240404"/>
    <nd ref="191240424"/>
    <nd ref="1645179824"/>
    <nd ref="191240446"/>
    <nd ref="1645179820"/>
    <nd ref="191240460"/>
    <nd ref="1645179811"/>
    <nd ref="191240480"/>
    <nd ref="1645179805"/>
    <nd ref="191240498"/>
    <nd ref="304516270"/>
    <nd ref="191240515"/>
    <nd ref="196217612"/>
    <tag k="highway" v="residential"/>
    <tag k="name" v="Victoria Street"/>
  </way>
  <way id="18543471" version="2" timestamp="2010-07-09T02:54:53Z" uid="74617" user="JohnSmith" changeset="5170739">
    <nd ref="191206991"/>
    <nd ref="80713878"/>
    <tag k="highway" v="residential"/>
    <tag k="maxspeed" v="50"/>
    <tag k="maxspeed:source" v="default residential speed limit in Australia"/>
    <tag k="name" v="Preston Street"/>
  </way>
  <way id="18543471" version="3" timestamp="2012-01-15T19:14:41Z" uid="147510" user="woodpeck_fixbot" changeset="10400850">
    <nd ref="191206991"/>
    <nd ref="80713878"/>
    <tag k="highway" v="residential"/>
    <tag k="name" v="Preston Street"/>
  </way>
  <way id="18543730" version="8" timestamp="2010-03-27T23:26:26Z" uid="20587" user="balrog-kun" changeset="4250871">
    <nd ref="137423357"/>
    <nd ref="313871106"/>
    <nd ref="313871107"/>
    <nd ref="313871108"/>
    <nd ref="313871109"/>
    <nd ref="313871110"/>
    <nd ref="305100471"/>
    <nd ref="137226119"/>
    <nd ref="137677860"/>
    <nd ref="137331320"/>
    <nd ref="137677863"/>
    <nd ref="137677866"/>
    <nd ref="137677869"/>
    <nd ref="137677875"/>
    <nd ref="137677878"/>
    <nd ref="137677881"/>
    <nd ref="304725296"/>
    <nd ref="137620035"/>
    <nd ref="137677884"/>
    <nd ref="137677887"/>
    <nd ref="137411609"/>
    <nd ref="137677890"/>
    <nd ref="137677892"/>
    <nd ref="137316969"/>
    <nd ref="304292371"/>
    <nd ref="137677895"/>
    <nd ref="137677898"/>
    <nd ref="137380197"/>
    <nd ref="137677901"/>
    <nd ref="137677904"/>
    <nd ref="137603687"/>
    <nd ref="137637277"/>
    <nd ref="305100406"/>
    <nd ref="305100414"/>
    <nd ref="137677907"/>
    <nd ref="305100412"/>
    <nd ref="137575196"/>
    <nd ref="137677910"/>
    <nd ref="305099907"/>
    <nd ref="305099906"/>
    <nd ref="305099961"/>
    <nd ref="305099926"/>
    <nd ref="137492062"/>
    <nd ref="137230799"/>
    <tag k="created_by" v="Potlatch 0.10f"/>
    <tag k="highway" v="tertiary"/>
    <tag k="name" v="East Patrick Lane"/>
    <tag k="tiger:cfcc" v="A41"/>
    <tag k="tiger:county" v="Clark, NV"/>
    <tag k="tiger:name_base" v="Patrick"/>
    <tag k="tiger:name_direction_prefix" v="E"/>
    <tag k="tiger:name_type" v="Ln"/>
    <tag k="tiger:reviewed" v="no"/>
    <tag k="tiger:separated" v="no"/>
    <tag k="tiger:source" v="tiger_import_dch_v0.6_20070813"/>
    <tag k="tiger:tlid" v="201949056:201897629:201949681:201949682:201873212:201873214:201879134:201879140:201911802:201872711:202000905:201974712:201872684:201872699:201872700"/>
    <tag k="tiger:zip_left" v="89120"/>
    <tag k="tiger:zip_right" v="89120"/>
  </way>
  <way id="18543784" version="3" timestamp="2010-07-09T03:01:53Z" uid="74617" user="JohnSmith" changeset="5170739">
    <nd ref="191213033"/>
    <nd ref="81093518"/>
    <tag k="highway" v="residential"/>
    <tag k="maxspeed" v="50"/>
    <tag k="maxspeed:source" v="default residential speed limit in Australia"/>
    <tag k="name" v="Phillips Street"/>
  </way>
  <way id="18543784" version="4" timestamp="2012-01-15T19:14:42Z" uid="147510" user="woodpeck_fixbot" changeset="10400850">
    <nd ref="191213033"/>
    <nd ref="81093518"/>
    <tag k="highway" v="residential"/>
    <tag k="name" v="Phillips Street"/>
  </way>
  <way id="18543784" version="5" timestamp="2012-02-24T04:44:38Z" uid="201443" user="stevage" changeset="10774689">
    <nd ref="191213033"/>
    <nd ref="1645179807"/>
    <nd ref="81093518"/>
    <tag k="highway" v="residential"/>
    <tag k="name" v="Phillips Street"/>
  </way>
  <way id="18543787" version="3" timestamp="2010-07-09T02:58:10Z" uid="74617" user="JohnSmith" changeset="5170739">
    <nd ref="30044103"/>
    <nd ref="191240388"/>
    <nd ref="191213050"/>
    <tag k="highway" v="residential"/>
    <tag k="maxspeed" v="50"/>
    <tag k="maxspeed:source" v="default residential speed limit in Australia"/>
    <tag k="name" v="Kelson Street"/>
  </way>
  <way id="18543787" version="4" timestamp="2012-01-15T19:14:43Z" uid="147510" user="woodpeck_fixbot" changeset="10400850">
    <nd ref="30044103"/>
    <nd ref="191240388"/>
    <nd ref="191213050"/>
    <tag k="highway" v="residential"/>
    <tag k="name" v="Kelson Street"/>
  </way>
  <way id="18543787" version="5" timestamp="2012-02-24T04:44:38Z" uid="201443" user="stevage" changeset="10774689">
    <nd ref="30044103"/>
    <nd ref="1645179845"/>
    <nd ref="1645179834"/>
    <nd ref="191240388"/>
    <nd ref="191213050"/>
    <tag k="highway" v="residential"/>
    <tag k="name" v="Kelson Street"/>
  </way>
  <way id="18543789" version="3" timestamp="2010-07-09T03:02:24Z" uid="74617" user="JohnSmith" changeset="5170739">
    <nd ref="191213062"/>
    <nd ref="191240404"/>
    <nd ref="191213020"/>
    <tag k="highway" v="residential"/>
    <tag k="maxspeed" v="50"/>
    <tag k="maxspeed:source" v="default residential speed limit in Australia"/>
    <tag k="name" v="Vincent Street"/>
  </way>
  <way id="18543789" version="4" timestamp="2012-01-15T19:14:44Z" uid="147510" user="woodpeck_fixbot" changeset="10400850">
    <nd ref="191213062"/>
    <nd ref="191240404"/>
    <nd ref="191213020"/>
    <tag k="highway" v="residential"/>
    <tag k="name" v="Vincent Street"/>
  </way>
  <way id="18543789" version="5" timestamp="2012-02-24T04:44:38Z" uid="201443" user="stevage" changeset="10774689">
    <nd ref="191213062"/>
    <nd ref="1645179843"/>
    <nd ref="1645179833"/>
    <nd ref="191240404"/>
    <nd ref="191213020"/>
    <tag k="highway" v="residential"/>
    <tag k="name" v="Vincent Street"/>
  </way>
</osm>
