<?xml version='1.0' encoding='UTF-8'?>
<osm version="0.6" generator="libosmium/2.20.0">
  <way id="18561328" version="3" timestamp="2010-02-14T15:48:50Z" uid="74617" user="JohnSmith" changeset="3874884">
    <nd ref="68234903"/>
    <nd ref="191382677"/>
    <nd ref="191382678"/>
    <nd ref="191382679"/>
    <nd ref="191382680"/>
    <tag k="highway" v="residential"/>
    <tag k="maxspeed" v="50"/>
    <tag k="name" v="Byth Street"/>
  </way>
  <way id="18561328" version="4" timestamp="2012-01-15T19:17:59Z" uid="147510" user="woodpeck_fixbot" changeset="10400850">
    <nd ref="68234903"/>
    <nd ref="191382677"/>
    <nd ref="191382678"/>
    <nd ref="191382679"/>
    <nd ref="191382680"/>
    <tag k="highway" v="residential"/>
    <tag k="name" v="Byth Street"/>
  </way>
  <way id="18561343" version="4" timestamp="2010-02-14T15:48:28Z" uid="74617" user="JohnSmith" changeset="3874884">
    <nd ref="94597016"/>
    <nd ref="191382804"/>
    <tag k="highway" v="residential"/>
    <tag k="maxspeed" v="50"/>
    <tag k="name" v="Brennan Street"/>
  </way>
  <way id="18561343" version="5" timestamp="2012-01-15T19:18:00Z" uid="147510" user="woodpeck_fixbot" changeset="10400850">
    <nd ref="94597016"/>
    <nd ref="191382804"/>
    <tag k="highway" v="residential"/>
    <tag k="name" v="Brennan Street"/>
  </way>
  <way id="18561365" version="5" timestamp="2010-02-14T15:48:28Z" uid="74617" user="JohnSmith" changeset="3874884">
    <nd ref="94597014"/>
    <nd ref="307562268"/>
    <nd ref="191383094"/>
    <nd ref="191382979"/>
    <tag k="highway" v="residential"/>
    <tag k="maxspeed" v="50"/>
    <tag k="name" v="Sheehy Street"/>
  </way>
  <way id="18561365" version="6" timestamp="2012-01-15T19:18:02Z" uid="147510" user="woodpeck_fixbot" changeset="10400850">
    <nd ref="94597014"/>
    <nd ref="307562268"/>
    <nd ref="191383094"/>
    <nd ref="191382979"/>
    <tag k="highway" v="residential"/>
    <tag k="name" v="Sheehy Street"/>
  </way>
  <way id="18561405" version="3" timestamp="2010-02-14T15:48:28Z" uid="74617" user="JohnSmith" changeset="3874884">
    <nd ref="191383094"/>
    <nd ref="191383298"/>
    <nd ref="191383299"/>
    <nd ref="191383300"/>
    <nd ref="191383301"/>
    <tag k="highway" v="residential"/>
    <tag k="maxspeed" v="50"/>
    <tag k="name" v="Matthews Street"/>
  </way>
  <way id="18561405" version="4" timestamp="2012-01-15T19:18:02Z" uid="147510" user="woodpeck_fixbot" changeset="10400850">
    <nd ref="191383094"/>
    <nd ref="191383298"/>
    <nd ref="191383299"/>
    <nd ref="191383300"/>
    <nd ref="191383301"/>
    <tag k="highway" v="residential"/>
    <tag k="name" v="Matthews Street"/>
  </way>
  <way id="18561454" version="3" timestamp="2010-02-14T15:47:29Z" uid="74617" user="JohnSmith" changeset="3874884">
    <nd ref="191383300"/>
    <nd ref="191382979"/>
    <nd ref="191382804"/>
    <nd ref="191383655"/>
    <nd ref="191382677"/>
    <nd ref="191383656"/>
    <nd ref="94598823"/>
    <tag k="highway" v="residential"/>
    <tag k="maxspeed" v="50"/>
    <tag k="name" v="MacNaughton Street"/>
  </way>
  <way id="18561454" version="4" timestamp="2012-01-15T19:18:04Z" uid="147510" user="woodpeck_fixbot" changeset="10400850">
    <nd ref="191383300"/>
    <nd ref="191382979"/>
    <nd ref="191382804"/>
    <nd ref="191383655"/>
    <nd ref="191382677"/>
    <nd ref="191383656"/>
    <nd ref="94598823"/>
    <tag k="highway" v="residential"/>
    <tag k="name" v="MacNaughton Street"/>
  </way>
  <way id="18561562" version="3" timestamp="2010-02-14T15:47:32Z" uid="74617" user="JohnSmith" changeset="3874884">
    <nd ref="191384526"/>
    <nd ref="191384528"/>
    <nd ref="191384530"/>
    <nd ref="191384531"/>
    <nd ref="191384526"/>
    <tag k="leisure" v="park"/>
    <tag k="name" v="Roy Harvey Park"/>
    <tag k="old_name" v="Sparkes Hill Reserve"/>
  </way>
  <way id="18561606" version="4" timestamp="2010-02-14T15:47:31Z" uid="74617" user="JohnSmith" changeset="3874884">
    <nd ref="191383301"/>
    <nd ref="191384819"/>
    <tag k="highway" v="residential"/>
    <tag k="maxspeed" v="50"/>
    <tag k="name" v="McCawley Street"/>
  </way>
  <way id="18561606" version="5" timestamp="2012-01-15T19:18:05Z" uid="147510" user="woodpeck_fixbot" changeset="10400850">
    <nd ref="191383301"/>
    <nd ref="191384819"/>
    <tag k="highway" v="residential"/>
    <tag k="name" v="McCawley Street"/>
  </way>
  <way id="18561673" version="3" timestamp="2010-02-14T15:48:55Z" uid="74617" user="JohnSmith" changeset="3874884">
    <nd ref="191383655"/>
    <nd ref="191384819"/>
    <nd ref="191385246"/>
    <nd ref="191385247"/>
    <tag k="highway" v="residential"/>
    <tag k="maxspeed" v="50"/>
    <tag k="name" v="Webb Street"/>
  </way>
  <way id="18561673" version="4" timestamp="2012-01-15T19:18:06Z" uid="147510" user="woodpeck_fixbot" changeset="10400850">
    <nd ref="191383655"/>
    <nd ref="191384819"/>
    <nd ref="191385246"/>
    <nd ref="191385247"/>
    <tag k="highway" v="residential"/>
    <tag k="name" v="Webb Street"/>
  </way>
  <way id="18561711" version="5" timestamp="2010-02-14T15:48:54Z" uid="74617" user="JohnSmith" changeset="3874884">
    <nd ref="191385247"/>
    <nd ref="191385457"/>
    <nd ref="191385459"/>
    <nd ref="191385460"/>
    <tag k="highway" v="residential"/>
    <tag k="maxspeed" v="50"/>
    <tag k="name" v="Webb Street"/>
    <tag k="oneway" v="yes"/>
  </way>
  <way id="18561711" version="6" timestamp="2012-01-15T19:18:07Z" uid="147510" user="woodpeck_fixbot" changeset="10400850">
    <nd ref="191385247"/>
    <nd ref="191385457"/>
    <nd ref="191385459"/>
    <nd ref="191385460"/>
    <tag k="highway" v="residential"/>
    <tag k="name" v="Webb Street"/>
    <tag k="oneway" v="yes"/>
  </way>
  <way id="18561759" version="4" timestamp="2010-02-14T15:48:53Z" uid="74617" user="JohnSmith" changeset="3874884">
    <nd ref="191385460"/>
    <nd ref="191385780"/>
    <nd ref="191385782"/>
    <nd ref="191385783"/>
    <nd ref="191385247"/>
    <tag k="highway" v="residential"/>
    <tag k="maxspeed" v="50"/>
    <tag k="name" v="Webb Street"/>
    <tag k="oneway" v="yes"/>
  </way>
  <way id="18561759" version="5" timestamp="2012-01-15T19:18:08Z" uid="147510" user="woodpeck_fixbot" changeset="10400850">
    <nd ref="191385460"/>
    <nd ref="191385780"/>
    <nd ref="191385782"/>
    <nd ref="191385783"/>
    <nd ref="191385247"/>
    <tag k="highway" v="residential"/>
    <tag k="name" v="Webb Street"/>
    <tag k="oneway" v="yes"/>
  </way>
  <way id="18561814" version="4" timestamp="2010-02-14T15:48:54Z" uid="74617" user="JohnSmith" changeset="3874884">
    <nd ref="191385460"/>
    <nd ref="191386334"/>
    <nd ref="191386336"/>
    <tag k="highway" v="residential"/>
    <tag k="maxspeed" v="50"/>
    <tag k="name" v="Webb Street"/>
  </way>
  <way id="18561814" version="5" timestamp="2012-01-15T19:18:10Z" uid="147510" user="woodpeck_fixbot" changeset="10400850">
    <nd ref="191385460"/>
    <nd ref="191386334"/>
    <nd ref="191386336"/>
    <tag k="highway" v="residential"/>
    <tag k="name" v="Webb Street"/>
  </way>
  <way id="18561879" version="3" timestamp="2010-02-14T15:47:30Z" uid="74617" user="JohnSmith" changeset="3874884">
    <nd ref="191387030"/>
    <nd ref="191385246"/>
    <nd ref="191382678"/>
    <nd ref="191387031"/>
    <nd ref="191387033"/>
    <tag k="highway" v="residential"/>
    <tag k="maxspeed" v="50"/>
    <tag k="name" v="Cockle Street"/>
  </way>
  <way id="18561879" version="4" timestamp="2011-08-15T03:37:16Z" uid="22094" user="Chadzopkyo" changeset="9023068">
    <nd ref="191387030"/>
    <nd ref="191385246"/>
    <nd ref="191382678"/>
    <nd ref="191387031"/>
    <tag k="highway" v="residential"/>
    <tag k="maxspeed" v="50"/>
    <tag k="name" v="Cockle Street"/>
  </way>
  <way id="18561879" version="5" timestamp="2012-01-15T19:18:11Z" uid="147510" user="woodpeck_fixbot" changeset="10400850">
    <nd ref="191387030"/>
    <nd ref="191385246"/>
    <nd ref="191382678"/>
    <nd ref="191387031"/>
    <tag k="highway" v="residential"/>
    <tag k="name" v="Cockle Street"/>
  </way>
  <way id="18561911" version="3" timestamp="2010-02-14T15:48:53Z" uid="74617" user="JohnSmith" changeset="3874884">
    <nd ref="191385782"/>
    <nd ref="191382679"/>
    <nd ref="191387242"/>
    <nd ref="191387243"/>
    <tag k="highway" v="residential"/>
    <tag k="maxspeed" v="50"/>
    <tag k="name" v="Stumm Street"/>
    <tag k="oneway" v="yes"/>
  </way>
  <way id="18561911" version="4" timestamp="2012-01-15T19:18:12Z" uid="147510" user="woodpeck_fixbot" changeset="10400850">
    <nd ref="191385782"/>
    <nd ref="191382679"/>
    <nd ref="191387242"/>
    <nd ref="191387243"/>
    <tag k="highway" v="residential"/>
    <tag k="name" v="Stumm Street"/>
    <tag k="oneway" v="yes"/>
  </way>
</osm>
