<?xml version='1.0' encoding='UTF-8'?>
<osm version="0.6" generator="libosmium/2.20.0">
  <way id="18572767" version="2" timestamp="2010-06-04T13:10:09Z" uid="28378" user="PHerison" changeset="4901040">
    <nd ref="191520213"/>
    <nd ref="191520215"/>
    <nd ref="191520217"/>
    <nd ref="191520220"/>
    <nd ref="191520222"/>
    <nd ref="191520223"/>
    <nd ref="191520224"/>
    <nd ref="191520226"/>
    <nd ref="191520228"/>
    <nd ref="191520230"/>
    <nd ref="191520232"/>
    <nd ref="191520234"/>
    <nd ref="191520236"/>
    <tag k="highway" v="residential"/>
    <tag k="name" v="E Sunset Dr"/>
    <tag k="tiger:cfcc" v="A41"/>
    <tag k="tiger:county" v="Macon, MO"/>
    <tag k="tiger:name_base" v="Sunset"/>
    <tag k="tiger:name_direction_prefix" v="E"/>
    <tag k="tiger:name_type" v="Dr"/>
    <tag k="tiger:reviewed" v="no"/>
    <tag k="tiger:separated" v="no"/>
    <tag k="tiger:source" v="tiger_import_dch_v0.6_20070813"/>
    <tag k="tiger:tlid" v="24961580"/>
    <tag k="tiger:upload_uuid" v="bulk_upload.pl-448d4c5d-7135-401d-b019-f7f615fe50d1"/>
  </way>
  <way id="18572767" version="3" timestamp="2010-06-05T23:27:04Z" uid="4467" user="Rosscoe" changeset="4913442">
    <nd ref="191520213"/>
    <nd ref="191520215"/>
    <nd ref="191520217"/>
    <nd ref="191520220"/>
    <nd ref="191520222"/>
    <nd ref="191520223"/>
    <nd ref="191520224"/>
    <nd ref="191520226"/>
    <nd ref="191520228"/>
    <nd ref="191520230"/>
    <nd ref="191520232"/>
    <nd ref="191520234"/>
    <nd ref="191520236"/>
    <tag k="highway" v="residential"/>
    <tag k="name" v="E Sunset Drive"/>
    <tag k="tiger:cfcc" v="A41"/>
    <tag k="tiger:county" v="Macon, MO"/>
    <tag k="tiger:name_base" v="Sunset"/>
    <tag k="tiger:name_direction_prefix" v="E"/>
    <tag k="tiger:name_type" v="Dr"/>
    <tag k="tiger:reviewed" v="no"/>
    <tag k="tiger:separated" v="no"/>
    <tag k="tiger:source" v="tiger_import_dch_v0.6_20070813"/>
    <tag k="tiger:tlid" v="24961580"/>
    <tag k="tiger:upload_uuid" v="bulk_upload.pl-448d4c5d-7135-401d-b019-f7f615fe50d1"/>
  </way>
  <way id="18572810" version="2" timestamp="2010-06-04T13:19:05Z" uid="28378" user="PHerison" changeset="4901040">
    <nd ref="191520580"/>
    <nd ref="191520583"/>
    <nd ref="191520585"/>
    <nd ref="191520587"/>
    <nd ref="764398572"/>
    <nd ref="191520589"/>
    <nd ref="191520591"/>
    <nd ref="191520593"/>
    <nd ref="191520595"/>
    <nd ref="191520597"/>
    <nd ref="191520599"/>
    <nd ref="191520601"/>
    <nd ref="191520603"/>
    <nd ref="191520605"/>
    <nd ref="191520608"/>
    <nd ref="191520610"/>
    <nd ref="191520612"/>
    <nd ref="191520613"/>
    <nd ref="191520614"/>
    <nd ref="191520615"/>
    <nd ref="191520616"/>
    <nd ref="191520617"/>
    <nd ref="191520619"/>
    <nd ref="191520621"/>
    <nd ref="191520623"/>
    <nd ref="191520627"/>
    <nd ref="191520628"/>
    <nd ref="191516156"/>
    <nd ref="191520629"/>
    <nd ref="191520631"/>
    <tag k="highway" v="residential"/>
    <tag k="name" v="Kasota Pl"/>
    <tag k="name_1" v="County Road 634"/>
    <tag k="tiger:cfcc" v="A41"/>
    <tag k="tiger:county" v="Macon, MO"/>
    <tag k="tiger:name_base" v="Kasota"/>
    <tag k="tiger:name_base_1" v="County Road 634"/>
    <tag k="tiger:name_type" v="Pl"/>
    <tag k="tiger:reviewed" v="no"/>
    <tag k="tiger:separated" v="no"/>
    <tag k="tiger:source" v="tiger_import_dch_v0.6_20070813"/>
    <tag k="tiger:tlid" v="24954925:24967599:24967626:24985235"/>
    <tag k="tiger:upload_uuid" v="bulk_upload.pl-448d4c5d-7135-401d-b019-f7f615fe50d1"/>
    <tag k="tiger:zip_left" v="63552"/>
    <tag k="tiger:zip_right" v="63552"/>
  </way>
  <way id="18572810" version="3" timestamp="2010-06-05T23:31:45Z" uid="4467" user="Rosscoe" changeset="4913468">
    <nd ref="191520580"/>
    <nd ref="191520583"/>
    <nd ref="191520585"/>
    <nd ref="191520587"/>
    <nd ref="764398572"/>
    <nd ref="191520589"/>
    <nd ref="191520591"/>
    <nd ref="191520593"/>
    <nd ref="191520595"/>
    <nd ref="191520597"/>
    <nd ref="191520599"/>
    <nd ref="191520601"/>
    <nd ref="191520603"/>
    <nd ref="191520605"/>
    <nd ref="191520608"/>
    <nd ref="191520610"/>
    <nd ref="191520612"/>
    <nd ref="191520613"/>
    <nd ref="191520614"/>
    <nd ref="191520615"/>
    <nd ref="191520616"/>
    <nd ref="191520617"/>
    <nd ref="191520619"/>
    <nd ref="191520621"/>
    <nd ref="191520623"/>
    <nd ref="191520627"/>
    <nd ref="191520628"/>
    <nd ref="191516156"/>
    <nd ref="191520629"/>
    <nd ref="191520631"/>
    <tag k="highway" v="residential"/>
    <tag k="name" v="Kasota Place"/>
    <tag k="name_1" v="County Road 634"/>
    <tag k="tiger:cfcc" v="A41"/>
    <tag k="tiger:county" v="Macon, MO"/>
    <tag k="tiger:name_base" v="Kasota"/>
    <tag k="tiger:name_base_1" v="County Road 634"/>
    <tag k="tiger:name_type" v="Pl"/>
    <tag k="tiger:reviewed" v="no"/>
    <tag k="tiger:separated" v="no"/>
    <tag k="tiger:source" v="tiger_import_dch_v0.6_20070813"/>
    <tag k="tiger:tlid" v="24954925:24967599:24967626:24985235"/>
    <tag k="tiger:upload_uuid" v="bulk_upload.pl-448d4c5d-7135-401d-b019-f7f615fe50d1"/>
    <tag k="tiger:zip_left" v="63552"/>
    <tag k="tiger:zip_right" v="63552"/>
  </way>
  <way id="18572816" version="1" timestamp="2007-12-27T05:53:43Z" uid="7617" user="Franc" changeset="435605">
    <nd ref="191519946"/>
    <nd ref="82456314"/>
    <nd ref="191520027"/>
    <nd ref="37813031"/>
    <tag k="created_by" v="Potlatch alpha"/>
    <tag k="highway" v="residential"/>
    <tag k="name" v="Wright Street"/>
    <tag k="source:name" v="survey"/>
  </way>
  <way id="18572816" version="2" timestamp="2008-02-10T19:34:43Z" uid="20949" user="Ebenezer" changeset="96244">
    <nd ref="191519946"/>
    <nd ref="82456314"/>
    <nd ref="191520027"/>
    <nd ref="37813031"/>
    <tag k="created_by" v="Potlatch 0.7"/>
    <tag k="highway" v="residential"/>
    <tag k="name" v="Wright Street"/>
    <tag k="source" v="survey"/>
  </way>
  <way id="18572816" version="3" timestamp="2010-07-08T02:38:09Z" uid="74617" user="JohnSmith" changeset="5163091">
    <nd ref="191519946"/>
    <nd ref="82456314"/>
    <nd ref="191520027"/>
    <nd ref="37813031"/>
    <tag k="highway" v="residential"/>
    <tag k="maxspeed" v="50"/>
    <tag k="maxspeed:source" v="default residential speed limit in Australia"/>
    <tag k="name" v="Wright Street"/>
    <tag k="source" v="survey"/>
  </way>
  <way id="18572816" version="4" timestamp="2012-01-15T19:18:23Z" uid="147510" user="woodpeck_fixbot" changeset="10400850">
    <nd ref="191519946"/>
    <nd ref="82456314"/>
    <nd ref="191520027"/>
    <nd ref="37813031"/>
    <tag k="highway" v="residential"/>
    <tag k="name" v="Wright Street"/>
    <tag k="source" v="survey"/>
  </way>
  <way id="18572820" version="1" timestamp="2007-12-27T05:53:44Z" uid="7617" user="Franc" changeset="435605">
    <nd ref="191519934"/>
    <nd ref="37815608"/>
    <nd ref="37815695"/>
    <nd ref="37813768"/>
    <nd ref="191520037"/>
    <nd ref="37813096"/>
    <nd ref="191520195"/>
    <tag k="created_by" v="Potlatch alpha"/>
    <tag k="highway" v="residential"/>
    <tag k="name" v="Young Street"/>
    <tag k="source:name" v="survey"/>
  </way>
  <way id="18572820" version="2" timestamp="2008-02-10T19:32:06Z" uid="20949" user="Ebenezer" changeset="96244">
    <nd ref="191519934"/>
    <nd ref="37815608"/>
    <nd ref="37815695"/>
    <nd ref="37813768"/>
    <nd ref="191520037"/>
    <nd ref="37813096"/>
    <nd ref="191520195"/>
    <nd ref="37812879"/>
    <tag k="created_by" v="Potlatch 0.7"/>
    <tag k="highway" v="residential"/>
    <tag k="name" v="Young Street"/>
    <tag k="source:name" v="survey"/>
  </way>
  <way id="18572820" version="3" timestamp="2008-02-10T19:32:25Z" uid="20949" user="Ebenezer" changeset="96244"/>
  <way id="18572823" version="1" timestamp="2007-12-27T05:53:45Z" uid="7617" user="Franc" changeset="435605">
    <nd ref="191520007"/>
    <nd ref="191520027"/>
    <nd ref="191520037"/>
    <tag k="created_by" v="JOSM"/>
    <tag k="highway" v="residential"/>
    <tag k="name" v="MacGregor Street"/>
    <tag k="oneway" v="yes"/>
    <tag k="source" v="survey"/>
  </way>
  <way id="18572823" version="2" timestamp="2010-07-08T02:34:49Z" uid="74617" user="JohnSmith" changeset="5163091">
    <nd ref="191520007"/>
    <nd ref="191520027"/>
    <nd ref="191520037"/>
    <tag k="highway" v="residential"/>
    <tag k="maxspeed" v="50"/>
    <tag k="maxspeed:source" v="default residential speed limit in Australia"/>
    <tag k="name" v="MacGregor Street"/>
    <tag k="oneway" v="yes"/>
    <tag k="source" v="survey"/>
  </way>
  <way id="18572823" version="3" timestamp="2012-01-15T19:18:24Z" uid="147510" user="woodpeck_fixbot" changeset="10400850">
    <nd ref="191520007"/>
    <nd ref="191520027"/>
    <nd ref="191520037"/>
    <tag k="highway" v="residential"/>
    <tag k="name" v="MacGregor Street"/>
    <tag k="oneway" v="yes"/>
    <tag k="source" v="survey"/>
  </way>
  <way id="18572827" version="1" timestamp="2007-12-27T05:53:45Z" uid="7617" user="Franc" changeset="435605">
    <nd ref="37815599"/>
    <nd ref="31998660"/>
    <tag k="created_by" v="Potlatch alpha"/>
    <tag k="highway" v="unclassified"/>
  </way>
  <way id="18572827" version="2" timestamp="2008-10-02T06:41:15Z" uid="7617" user="Franc" changeset="23906"/>
  <way id="18572830" version="1" timestamp="2007-12-27T05:53:46Z" uid="7617" user="Franc" changeset="435605">
    <nd ref="37812879"/>
    <nd ref="31998658"/>
    <tag k="created_by" v="Potlatch alpha"/>
    <tag k="highway" v="residential"/>
    <tag k="name" v="Young Street"/>
    <tag k="source:name" v="survey"/>
  </way>
  <way id="18572830" version="2" timestamp="2008-02-10T19:31:52Z" uid="20949" user="Ebenezer" changeset="96244">
    <nd ref="37812879"/>
    <nd ref="31998658"/>
    <tag k="created_by" v="Potlatch 0.7"/>
    <tag k="highway" v="residential"/>
    <tag k="name" v="Young Street"/>
    <tag k="source" v="survey"/>
  </way>
  <way id="18572830" version="3" timestamp="2008-02-10T19:32:24Z" uid="20949" user="Ebenezer" changeset="96244">
    <nd ref="191519934"/>
    <nd ref="37815608"/>
    <nd ref="37815695"/>
    <nd ref="37813768"/>
    <nd ref="191520037"/>
    <nd ref="37813096"/>
    <nd ref="191520195"/>
    <nd ref="37812879"/>
    <nd ref="31998658"/>
    <tag k="created_by" v="Potlatch 0.7"/>
    <tag k="highway" v="residential"/>
    <tag k="name" v="Young Street"/>
    <tag k="source" v="survey"/>
  </way>
  <way id="18572830" version="4" timestamp="2008-02-10T19:32:37Z" uid="20949" user="Ebenezer" changeset="96244">
    <nd ref="191519934"/>
    <nd ref="37815608"/>
    <nd ref="37815695"/>
    <nd ref="37813768"/>
    <nd ref="191520037"/>
    <nd ref="37813096"/>
    <nd ref="191520195"/>
    <nd ref="37812879"/>
    <nd ref="31998658"/>
    <nd ref="191520113"/>
    <nd ref="31998655"/>
    <tag k="created_by" v="Potlatch 0.7"/>
    <tag k="highway" v="residential"/>
    <tag k="name" v="Young Street"/>
    <tag k="source" v="survey"/>
  </way>
  <way id="18572830" version="5" timestamp="2008-10-05T00:47:20Z" uid="7617" user="Franc" changeset="70858">
    <nd ref="191519934"/>
    <nd ref="37815608"/>
    <nd ref="37815695"/>
    <nd ref="37813768"/>
    <nd ref="191520037"/>
    <nd ref="37813096"/>
    <nd ref="302147957"/>
    <nd ref="191520195"/>
    <nd ref="37812879"/>
    <nd ref="31998658"/>
    <nd ref="191520113"/>
    <nd ref="31998655"/>
    <tag k="created_by" v="Potlatch 0.7"/>
    <tag k="highway" v="residential"/>
    <tag k="name" v="Young Street"/>
    <tag k="source" v="survey"/>
  </way>
  <way id="18572830" version="6" timestamp="2010-02-16T10:59:25Z" uid="7617" user="Franc" changeset="3891079">
    <nd ref="191519934"/>
    <nd ref="37815608"/>
    <nd ref="37815695"/>
    <nd ref="37813768"/>
    <nd ref="191520037"/>
    <nd ref="641297302"/>
    <tag k="highway" v="residential"/>
    <tag k="name" v="Young Street"/>
    <tag k="source" v="survey"/>
  </way>
  <way id="18572830" version="7" timestamp="2010-07-08T02:39:03Z" uid="74617" user="JohnSmith" changeset="5163091">
    <nd ref="191519934"/>
    <nd ref="37815608"/>
    <nd ref="37815695"/>
    <nd ref="37813768"/>
    <nd ref="191520037"/>
    <nd ref="641297302"/>
    <tag k="highway" v="residential"/>
    <tag k="maxspeed" v="50"/>
    <tag k="maxspeed:source" v="default residential speed limit in Australia"/>
    <tag k="name" v="Young Street"/>
    <tag k="source" v="survey"/>
  </way>
  <way id="18572830" version="8" timestamp="2012-01-15T19:18:25Z" uid="147510" user="woodpeck_fixbot" changeset="10400850">
    <nd ref="191519934"/>
    <nd ref="37815608"/>
    <nd ref="37815695"/>
    <nd ref="37813768"/>
    <nd ref="191520037"/>
    <nd ref="641297302"/>
    <tag k="highway" v="residential"/>
    <tag k="name" v="Young Street"/>
    <tag k="source" v="survey"/>
  </way>
  <way id="18572832" version="1" timestamp="2007-12-27T05:53:47Z" uid="7617" user="Franc" changeset="435605">
    <nd ref="191520205"/>
    <nd ref="31428358"/>
    <tag k="created_by" v="JOSM"/>
    <tag k="highway" v="unclassified"/>
    <tag k="source" v="yahoo_imagery"/>
  </way>
  <way id="18572832" version="2" timestamp="2008-02-10T19:33:18Z" uid="20949" user="Ebenezer" changeset="96244">
    <nd ref="191520205"/>
    <nd ref="31428358"/>
    <tag k="created_by" v="Potlatch 0.7"/>
    <tag k="highway" v="residential"/>
    <tag k="name" v="Meta Street"/>
    <tag k="source" v="yahoo_imagery"/>
  </way>
  <way id="18572832" version="3" timestamp="2010-07-08T02:34:31Z" uid="74617" user="JohnSmith" changeset="5163091">
    <nd ref="191520205"/>
    <nd ref="31428358"/>
    <tag k="highway" v="residential"/>
    <tag k="maxspeed" v="50"/>
    <tag k="maxspeed:source" v="default residential speed limit in Australia"/>
    <tag k="name" v="Meta Street"/>
    <tag k="source" v="yahoo_imagery"/>
  </way>
  <way id="18572832" version="4" timestamp="2012-01-15T19:18:26Z" uid="147510" user="woodpeck_fixbot" changeset="10400850">
    <nd ref="191520205"/>
    <nd ref="31428358"/>
    <tag k="highway" v="residential"/>
    <tag k="name" v="Meta Street"/>
    <tag k="source" v="yahoo_imagery"/>
  </way>
  <way id="18572833" version="1" timestamp="2007-12-27T05:53:48Z" uid="7617" user="Franc" changeset="435605">
    <nd ref="191520219"/>
    <nd ref="191520345"/>
    <nd ref="191520273"/>
    <nd ref="191520237"/>
    <nd ref="191520358"/>
    <nd ref="191520388"/>
    <nd ref="191520378"/>
    <nd ref="191520289"/>
    <nd ref="191520307"/>
    <nd ref="191520252"/>
    <nd ref="191520326"/>
    <nd ref="191520354"/>
    <nd ref="191520219"/>
    <tag k="amenity" v="school"/>
    <tag k="created_by" v="JOSM"/>
    <tag k="name" v="Presbyterian Ladies College"/>
    <tag k="source" v="yahoo_imagery"/>
    <tag k="source:name" v="survey"/>
  </way>
  <way id="18572833" version="2" timestamp="2008-02-10T19:31:26Z" uid="20949" user="Ebenezer" changeset="96244">
    <nd ref="191520219"/>
    <nd ref="191520345"/>
    <nd ref="191520273"/>
    <nd ref="191520237"/>
    <nd ref="191520358"/>
    <nd ref="191520388"/>
    <nd ref="191520378"/>
    <nd ref="191520289"/>
    <nd ref="191520307"/>
    <nd ref="191520252"/>
    <nd ref="191520326"/>
    <nd ref="191520354"/>
    <nd ref="191520219"/>
    <tag k="amenity" v="school"/>
    <tag k="created_by" v="Potlatch 0.7"/>
    <tag k="name" v="Presbyterian Ladies College"/>
    <tag k="source" v="yahoo_imagery"/>
  </way>
  <way id="18572833" version="3" timestamp="2010-02-16T10:59:20Z" uid="7617" user="Franc" changeset="3891079">
    <nd ref="191520219"/>
    <nd ref="191520345"/>
    <nd ref="191520273"/>
    <nd ref="641297306"/>
    <nd ref="191520237"/>
    <nd ref="641297269"/>
    <nd ref="641297273"/>
    <nd ref="641297272"/>
    <nd ref="641297271"/>
    <nd ref="641297270"/>
    <nd ref="191520358"/>
    <nd ref="641297262"/>
    <nd ref="191520388"/>
    <nd ref="191520378"/>
    <nd ref="191520289"/>
    <nd ref="191520307"/>
    <nd ref="191520252"/>
    <nd ref="191520326"/>
    <nd ref="191520354"/>
    <nd ref="191520219"/>
    <tag k="amenity" v="school"/>
    <tag k="name" v="Presbyterian Ladies College"/>
    <tag k="source" v="yahoo_imagery"/>
  </way>
  <way id="18572837" version="1" timestamp="2007-12-27T05:53:48Z" uid="7617" user="Franc" changeset="435605">
    <nd ref="191520419"/>
    <nd ref="191520433"/>
    <nd ref="191520444"/>
    <nd ref="191520461"/>
    <nd ref="191520419"/>
    <tag k="amenity" v="school"/>
    <tag k="created_by" v="JOSM"/>
    <tag k="name" v="Croydon Public School"/>
    <tag k="source" v="yahoo_imagery"/>
    <tag k="source:name" v="survey"/>
  </way>
  <way id="18572837" version="2" timestamp="2010-02-16T10:59:24Z" uid="7617" user="Franc" changeset="3891079">
    <nd ref="191520419"/>
    <nd ref="191520433"/>
    <nd ref="191520444"/>
    <nd ref="191520461"/>
    <nd ref="641297279"/>
    <nd ref="641297280"/>
    <nd ref="641297288"/>
    <nd ref="191520419"/>
    <tag k="amenity" v="school"/>
    <tag k="name" v="Croydon Public School"/>
    <tag k="source" v="yahoo_imagery"/>
    <tag k="source:name" v="survey"/>
  </way>
  <way id="18572839" version="1" timestamp="2007-12-27T05:53:49Z" uid="7617" user="Franc" changeset="435605">
    <nd ref="172736837"/>
    <nd ref="37805800"/>
    <nd ref="37802746"/>
    <nd ref="37802747"/>
    <tag k="created_by" v="Potlatch alpha"/>
    <tag k="highway" v="residential"/>
    <tag k="name" v="Lucy Street"/>
    <tag k="source:name" v="survey"/>
  </way>
  <way id="18572839" version="2" timestamp="2008-02-07T19:33:41Z" uid="20949" user="Ebenezer" changeset="68208">
    <nd ref="37802491"/>
    <nd ref="172736837"/>
    <nd ref="37805800"/>
    <nd ref="37802746"/>
    <nd ref="37802747"/>
    <tag k="created_by" v="Potlatch 0.7"/>
    <tag k="highway" v="residential"/>
    <tag k="name" v="Lucy Street"/>
    <tag k="source:name" v="survey"/>
  </way>
  <way id="18572839" version="3" timestamp="2008-02-07T19:33:52Z" uid="20949" user="Ebenezer" changeset="68208">
    <nd ref="37802491"/>
    <nd ref="172736837"/>
    <nd ref="37805800"/>
    <nd ref="37802746"/>
    <nd ref="37802747"/>
    <tag k="created_by" v="Potlatch 0.7"/>
    <tag k="highway" v="residential"/>
    <tag k="name" v="Lucy Street"/>
    <tag k="source" v="survey"/>
    <tag k="source:name" v="survey"/>
  </way>
  <way id="18572839" version="4" timestamp="2008-02-07T19:34:07Z" uid="20949" user="Ebenezer" changeset="68208">
    <nd ref="37802491"/>
    <nd ref="172736837"/>
    <nd ref="37805800"/>
    <nd ref="37802746"/>
    <nd ref="37802747"/>
    <tag k="created_by" v="Potlatch 0.7"/>
    <tag k="highway" v="residential"/>
    <tag k="name" v="Lucy Street"/>
    <tag k="source" v="survey"/>
  </way>
  <way id="18572839" version="5" timestamp="2008-10-05T01:19:11Z" uid="7617" user="Franc" changeset="70858">
    <nd ref="37802491"/>
    <nd ref="302151420"/>
    <tag k="created_by" v="Potlatch 0.7"/>
    <tag k="highway" v="residential"/>
    <tag k="name" v="Lucy Street"/>
    <tag k="source" v="survey"/>
  </way>
  <way id="18572839" version="6" timestamp="2010-07-08T02:40:04Z" uid="74617" user="JohnSmith" changeset="5163091">
    <nd ref="37802491"/>
    <nd ref="302151420"/>
    <tag k="highway" v="residential"/>
    <tag k="maxspeed" v="50"/>
    <tag k="maxspeed:source" v="default residential speed limit in Australia"/>
    <tag k="name" v="Lucy Street"/>
    <tag k="source" v="survey"/>
  </way>
  <way id="18572839" version="7" timestamp="2012-01-15T19:18:27Z" uid="147510" user="woodpeck_fixbot" changeset="10400850">
    <nd ref="37802491"/>
    <nd ref="302151420"/>
    <tag k="highway" v="residential"/>
    <tag k="name" v="Lucy Street"/>
    <tag k="source" v="survey"/>
  </way>
  <way id="18572843" version="1" timestamp="2007-12-27T05:53:50Z" uid="7617" user="Franc" changeset="435605">
    <nd ref="172736837"/>
    <nd ref="37801849"/>
    <nd ref="37802478"/>
    <tag k="created_by" v="Potlatch alpha"/>
    <tag k="highway" v="residential"/>
    <tag k="name" v="Church Street"/>
    <tag k="source:name" v="survey"/>
  </way>
  <way id="18572843" version="2" timestamp="2008-02-12T18:44:04Z" uid="20949" user="Ebenezer" changeset="109520">
    <nd ref="172736837"/>
    <nd ref="37801849"/>
    <nd ref="37802478"/>
    <tag k="created_by" v="Potlatch 0.7a"/>
    <tag k="highway" v="residential"/>
    <tag k="name" v="Church Street"/>
    <tag k="source" v="survey"/>
  </way>
  <way id="18572843" version="3" timestamp="2010-04-17T21:50:42Z" uid="20949" user="Ebenezer" changeset="4452759">
    <nd ref="172736837"/>
    <nd ref="37801849"/>
    <nd ref="37802478"/>
    <tag k="highway" v="residential"/>
    <tag k="lcn" v="yes"/>
    <tag k="name" v="Church Street"/>
    <tag k="source" v="survey"/>
  </way>
  <way id="18572843" version="4" timestamp="2010-07-08T02:38:53Z" uid="74617" user="JohnSmith" changeset="5163091">
    <nd ref="172736837"/>
    <nd ref="37801849"/>
    <nd ref="37802478"/>
    <tag k="highway" v="residential"/>
    <tag k="lcn" v="yes"/>
    <tag k="maxspeed" v="50"/>
    <tag k="maxspeed:source" v="default residential speed limit in Australia"/>
    <tag k="name" v="Church Street"/>
    <tag k="source" v="survey"/>
  </way>
  <way id="18572843" version="5" timestamp="2010-09-23T10:08:48Z" uid="7617" user="Franc" changeset="5852751">
    <nd ref="172736837"/>
    <nd ref="37801849"/>
    <nd ref="922434908"/>
    <nd ref="37802478"/>
    <tag k="highway" v="residential"/>
    <tag k="lcn" v="yes"/>
    <tag k="maxspeed" v="50"/>
    <tag k="maxspeed:source" v="default residential speed limit in Australia"/>
    <tag k="name" v="Church Street"/>
    <tag k="source" v="survey"/>
  </way>
  <way id="18572843" version="6" timestamp="2012-01-15T19:18:29Z" uid="147510" user="woodpeck_fixbot" changeset="10400850">
    <nd ref="172736837"/>
    <nd ref="37801849"/>
    <nd ref="922434908"/>
    <nd ref="37802478"/>
    <tag k="highway" v="residential"/>
    <tag k="lcn" v="yes"/>
    <tag k="name" v="Church Street"/>
    <tag k="source" v="survey"/>
  </way>
  <way id="18572846" version="1" timestamp="2007-12-27T05:53:51Z" uid="7617" user="Franc" changeset="435605">
    <nd ref="191520474"/>
    <nd ref="191520526"/>
    <nd ref="191520544"/>
    <nd ref="191520486"/>
    <nd ref="191520500"/>
    <nd ref="191520514"/>
    <tag k="created_by" v="JOSM"/>
    <tag k="highway" v="residential"/>
    <tag k="source" v="yahoo_imagery"/>
  </way>
  <way id="18572846" version="2" timestamp="2008-02-12T18:47:14Z" uid="20949" user="Ebenezer" changeset="109520">
    <nd ref="191520474"/>
    <nd ref="191520526"/>
    <nd ref="191520544"/>
    <nd ref="191520486"/>
    <nd ref="191520500"/>
    <nd ref="191520514"/>
    <tag k="created_by" v="Potlatch 0.7a"/>
    <tag k="highway" v="residential"/>
    <tag k="name" v="Royce Avenue"/>
    <tag k="source" v="yahoo_imagery"/>
  </way>
  <way id="18572846" version="3" timestamp="2008-04-21T08:09:52Z" uid="7617" user="Franc" changeset="215057">
    <nd ref="191520474"/>
    <nd ref="258982179"/>
    <nd ref="191520526"/>
    <nd ref="191520544"/>
    <nd ref="191520486"/>
    <nd ref="191520500"/>
    <nd ref="191520514"/>
    <tag k="created_by" v="Potlatch 0.7a"/>
    <tag k="highway" v="residential"/>
    <tag k="name" v="Royce Avenue"/>
    <tag k="source" v="yahoo_imagery"/>
  </way>
  <way id="18572846" version="4" timestamp="2008-09-27T05:09:17Z" uid="7617" user="Franc" changeset="703319"/>
  <way id="18572849" version="1" timestamp="2007-12-27T05:53:52Z" uid="7617" user="Franc" changeset="435605">
    <nd ref="82456277"/>
    <nd ref="191520526"/>
    <tag k="created_by" v="JOSM"/>
    <tag k="highway" v="residential"/>
    <tag k="name" v="Rostherne Avenue"/>
    <tag k="source" v="yahoo_imagery"/>
    <tag k="source:name" v="survey"/>
  </way>
  <way id="18572849" version="2" timestamp="2008-02-12T18:45:57Z" uid="20949" user="Ebenezer" changeset="109520">
    <nd ref="82456277"/>
    <nd ref="191520526"/>
    <tag k="created_by" v="Potlatch 0.7a"/>
    <tag k="highway" v="residential"/>
    <tag k="name" v="Rostherne Avenue"/>
    <tag k="source" v="yahoo_imagery"/>
  </way>
  <way id="18572849" version="3" timestamp="2010-07-08T02:32:20Z" uid="74617" user="JohnSmith" changeset="5163091">
    <nd ref="82456277"/>
    <nd ref="191520526"/>
    <tag k="highway" v="residential"/>
    <tag k="maxspeed" v="50"/>
    <tag k="maxspeed:source" v="default residential speed limit in Australia"/>
    <tag k="name" v="Rostherne Avenue"/>
    <tag k="source" v="yahoo_imagery"/>
  </way>
  <way id="18572849" version="4" timestamp="2012-01-15T19:18:31Z" uid="147510" user="woodpeck_fixbot" changeset="10400850">
    <nd ref="82456277"/>
    <nd ref="191520526"/>
    <tag k="highway" v="residential"/>
    <tag k="name" v="Rostherne Avenue"/>
    <tag k="source" v="yahoo_imagery"/>
  </way>
  <way id="18572852" version="1" timestamp="2007-12-27T05:53:52Z" uid="7617" user="Franc" changeset="435605">
    <nd ref="191520544"/>
    <nd ref="191520581"/>
    <nd ref="191520645"/>
    <nd ref="191520558"/>
    <tag k="created_by" v="JOSM"/>
    <tag k="name" v="Monash Parade"/>
    <tag k="source" v="yahoo_imagery"/>
    <tag k="source:name" v="survey"/>
  </way>
  <way id="18572852" version="2" timestamp="2008-02-12T18:46:55Z" uid="20949" user="Ebenezer" changeset="109520">
    <nd ref="191520544"/>
    <nd ref="191520581"/>
    <nd ref="191520645"/>
    <nd ref="191520558"/>
    <tag k="created_by" v="Potlatch 0.7a"/>
    <tag k="highway" v="residential"/>
    <tag k="name" v="Monash Parade"/>
    <tag k="source" v="yahoo_imagery"/>
  </way>
  <way id="18572852" version="3" timestamp="2010-07-08T02:38:41Z" uid="74617" user="JohnSmith" changeset="5163091">
    <nd ref="191520544"/>
    <nd ref="191520581"/>
    <nd ref="191520645"/>
    <nd ref="191520558"/>
    <tag k="highway" v="residential"/>
    <tag k="maxspeed" v="50"/>
    <tag k="maxspeed:source" v="default residential speed limit in Australia"/>
    <tag k="name" v="Monash Parade"/>
    <tag k="source" v="yahoo_imagery"/>
  </way>
  <way id="18572852" version="4" timestamp="2012-01-15T19:18:32Z" uid="147510" user="woodpeck_fixbot" changeset="10400850">
    <nd ref="191520544"/>
    <nd ref="191520581"/>
    <nd ref="191520645"/>
    <nd ref="191520558"/>
    <tag k="highway" v="residential"/>
    <tag k="name" v="Monash Parade"/>
    <tag k="source" v="yahoo_imagery"/>
  </way>
  <way id="18572855" version="1" timestamp="2007-12-27T05:53:53Z" uid="7617" user="Franc" changeset="435605">
    <nd ref="191520569"/>
    <nd ref="191520607"/>
    <nd ref="191520581"/>
    <tag k="created_by" v="JOSM"/>
    <tag k="highway" v="residential"/>
    <tag k="name" v="King Edward Street"/>
    <tag k="source" v="yahoo_imagery"/>
    <tag k="source:name" v="survey"/>
  </way>
  <way id="18572855" version="2" timestamp="2008-02-12T18:46:42Z" uid="20949" user="Ebenezer" changeset="109520">
    <nd ref="191520569"/>
    <nd ref="191520607"/>
    <nd ref="191520581"/>
    <tag k="created_by" v="Potlatch 0.7a"/>
    <tag k="highway" v="residential"/>
    <tag k="name" v="King Edward Street"/>
    <tag k="source" v="yahoo_imagery"/>
  </way>
  <way id="18572855" version="3" timestamp="2010-07-08T02:36:58Z" uid="74617" user="JohnSmith" changeset="5163091">
    <nd ref="191520569"/>
    <nd ref="191520607"/>
    <nd ref="191520581"/>
    <tag k="highway" v="residential"/>
    <tag k="maxspeed" v="50"/>
    <tag k="maxspeed:source" v="default residential speed limit in Australia"/>
    <tag k="name" v="King Edward Street"/>
    <tag k="source" v="yahoo_imagery"/>
  </way>
  <way id="18572855" version="4" timestamp="2012-01-15T19:18:35Z" uid="147510" user="woodpeck_fixbot" changeset="10400850">
    <nd ref="191520569"/>
    <nd ref="191520607"/>
    <nd ref="191520581"/>
    <tag k="highway" v="residential"/>
    <tag k="name" v="King Edward Street"/>
    <tag k="source" v="yahoo_imagery"/>
  </way>
  <way id="18572858" version="1" timestamp="2007-12-27T05:53:54Z" uid="7617" user="Franc" changeset="435605">
    <nd ref="191520607"/>
    <nd ref="191520636"/>
    <nd ref="191520625"/>
    <tag k="created_by" v="JOSM"/>
    <tag k="highway" v="residential"/>
    <tag k="name" v="Wychbury Avenue"/>
    <tag k="source" v="yahoo_imagery"/>
    <tag k="source:name" v="survey"/>
  </way>
  <way id="18572858" version="2" timestamp="2008-02-12T18:46:31Z" uid="20949" user="Ebenezer" changeset="109520">
    <nd ref="191520607"/>
    <nd ref="191520636"/>
    <nd ref="191520625"/>
    <tag k="created_by" v="Potlatch 0.7a"/>
    <tag k="highway" v="residential"/>
    <tag k="name" v="Wychbury Avenue"/>
    <tag k="source" v="yahoo_imagery"/>
  </way>
  <way id="18572858" version="3" timestamp="2010-07-08T02:33:03Z" uid="74617" user="JohnSmith" changeset="5163091">
    <nd ref="191520607"/>
    <nd ref="191520636"/>
    <nd ref="191520625"/>
    <tag k="highway" v="residential"/>
    <tag k="maxspeed" v="50"/>
    <tag k="maxspeed:source" v="default residential speed limit in Australia"/>
    <tag k="name" v="Wychbury Avenue"/>
    <tag k="source" v="yahoo_imagery"/>
  </way>
  <way id="18572858" version="4" timestamp="2012-01-15T19:18:38Z" uid="147510" user="woodpeck_fixbot" changeset="10400850">
    <nd ref="191520607"/>
    <nd ref="191520636"/>
    <nd ref="191520625"/>
    <tag k="highway" v="residential"/>
    <tag k="name" v="Wychbury Avenue"/>
    <tag k="source" v="yahoo_imagery"/>
  </way>
  <way id="18572860" version="1" timestamp="2007-12-27T05:53:55Z" uid="7617" user="Franc" changeset="435605">
    <nd ref="191520636"/>
    <nd ref="191520645"/>
    <tag k="created_by" v="JOSM"/>
    <tag k="highway" v="residential"/>
    <tag k="name" v="Alexandra Avenue"/>
    <tag k="source" v="yahoo_imagery"/>
    <tag k="source:name" v="survey"/>
  </way>
  <way id="18572860" version="2" timestamp="2010-07-08T02:36:00Z" uid="74617" user="JohnSmith" changeset="5163091">
    <nd ref="191520636"/>
    <nd ref="191520645"/>
    <tag k="highway" v="residential"/>
    <tag k="maxspeed" v="50"/>
    <tag k="maxspeed:source" v="default residential speed limit in Australia"/>
    <tag k="name" v="Alexandra Avenue"/>
    <tag k="source" v="yahoo_imagery"/>
    <tag k="source:name" v="survey"/>
  </way>
  <way id="18572860" version="3" timestamp="2012-01-15T19:18:39Z" uid="147510" user="woodpeck_fixbot" changeset="10400850">
    <nd ref="191520636"/>
    <nd ref="191520645"/>
    <tag k="highway" v="residential"/>
    <tag k="name" v="Alexandra Avenue"/>
    <tag k="source" v="yahoo_imagery"/>
    <tag k="source:name" v="survey"/>
  </way>
  <way id="18572863" version="1" timestamp="2007-12-27T05:53:55Z" uid="7617" user="Franc" changeset="435605">
    <nd ref="37809499"/>
    <nd ref="37809446"/>
    <tag k="created_by" v="Potlatch alpha"/>
    <tag k="highway" v="residential"/>
  </way>
  <way id="18572863" version="2" timestamp="2008-02-10T19:35:55Z" uid="20949" user="Ebenezer" changeset="96244"/>
</osm>
