<?xml version='1.0' encoding='UTF-8'?>
<osm version="0.6" generator="libosmium/2.20.0">
  <way id="18609773" version="2" timestamp="2008-05-04T15:17:29Z" uid="36809" user="pfoten_weg_!_" changeset="336054">
    <nd ref="191972535"/>
    <nd ref="191972536"/>
    <nd ref="53355409"/>
    <tag k="created_by" v="Potlatch 0.8c"/>
    <tag k="highway" v="residential"/>
  </way>
  <way id="18609773" version="3" timestamp="2008-05-11T07:25:41Z" uid="36809" user="pfoten_weg_!_" changeset="402799">
    <nd ref="191972535"/>
    <nd ref="191972536"/>
    <nd ref="53355409"/>
    <tag k="created_by" v="Potlatch 0.9"/>
    <tag k="highway" v="residential"/>
  </way>
  <way id="18609773" version="4" timestamp="2008-05-15T15:42:55Z" uid="36809" user="pfoten_weg_!_" changeset="452054">
    <nd ref="191972535"/>
    <nd ref="191972536"/>
    <nd ref="53355409"/>
    <tag k="created_by" v="Potlatch 0.9a"/>
    <tag k="highway" v="residential"/>
    <tag k="name" v="Gabriel-von-Seidl-Straße"/>
  </way>
  <way id="18609773" version="5" timestamp="2008-05-16T16:59:23Z" uid="36809" user="pfoten_weg_!_" changeset="458529">
    <nd ref="191972535"/>
    <nd ref="191972536"/>
    <nd ref="53355409"/>
    <tag k="created_by" v="Potlatch 0.9a"/>
    <tag k="highway" v="residential"/>
    <tag k="name" v="Gabriel-von-Seidl-Straße"/>
    <tag k="undefined" v="30"/>
  </way>
  <way id="18609773" version="6" timestamp="2008-05-16T17:01:05Z" uid="36809" user="pfoten_weg_!_" changeset="458529">
    <nd ref="191972535"/>
    <nd ref="191972536"/>
    <nd ref="264929602"/>
    <nd ref="53355409"/>
    <tag k="created_by" v="Potlatch 0.9a"/>
    <tag k="highway" v="residential"/>
    <tag k="name" v="Gabriel-von-Seidl-Straße"/>
    <tag k="undefined" v="30"/>
  </way>
  <way id="18609773" version="7" timestamp="2008-08-18T12:07:20Z" uid="36809" user="pfoten_weg_!_" changeset="306127">
    <nd ref="191972535"/>
    <nd ref="191972536"/>
    <nd ref="264929602"/>
    <nd ref="53355409"/>
    <tag k="created_by" v="RambaZamba"/>
    <tag k="highway" v="residential"/>
    <tag k="name" v="Gabriel-von-Seidl-Straße"/>
    <tag k="undefined" v="30"/>
  </way>
  <way id="18609773" version="8" timestamp="2008-09-13T00:28:52Z" uid="55961" user="rambazamba" changeset="625690">
    <nd ref="191972535"/>
    <nd ref="296264031"/>
    <nd ref="191972536"/>
    <nd ref="264929602"/>
    <nd ref="53355409"/>
    <tag k="created_by" v="RambaZamba"/>
    <tag k="highway" v="residential"/>
    <tag k="name" v="Gabriel-von-Seidl-Straße"/>
    <tag k="undefined" v="30"/>
  </way>
  <way id="18609773" version="9" timestamp="2008-09-22T01:05:57Z" uid="36809" user="pfoten_weg_!_" changeset="678890">
    <nd ref="191972535"/>
    <nd ref="296264031"/>
    <nd ref="191972536"/>
    <nd ref="264929602"/>
    <nd ref="53355409"/>
    <tag k="created_by" v="RambaZamba"/>
    <tag k="highway" v="residential"/>
    <tag k="name" v="Gabriel-von-Seidl-Straße"/>
    <tag k="undefined" v="30"/>
  </way>
  <way id="18609773" version="10" timestamp="2008-10-01T02:49:27Z" uid="36809" user="pfoten_weg_!_" changeset="5644">
    <nd ref="191972535"/>
    <nd ref="296264031"/>
    <nd ref="191972536"/>
    <nd ref="264929602"/>
    <nd ref="53355409"/>
    <tag k="created_by" v="RambaZamba"/>
    <tag k="highway" v="residential"/>
    <tag k="name" v="Gabriel-von-Seidl-Straße"/>
    <tag k="undefined" v="30"/>
  </way>
  <way id="18609773" version="11" timestamp="2008-10-14T17:59:19Z" uid="59819" user="Fuss-im-Ohr" changeset="328603">
    <nd ref="191972535"/>
    <nd ref="296264031"/>
    <nd ref="191972536"/>
    <nd ref="264929602"/>
    <nd ref="53355409"/>
    <tag k="created_by" v="RambaZamba"/>
    <tag k="highway" v="residential"/>
    <tag k="maxspeed" v="30"/>
    <tag k="name" v="Gabriel-von-Seidl-Straße"/>
  </way>
  <way id="18609773" version="12" timestamp="2008-10-15T19:36:48Z" uid="36809" user="pfoten_weg_!_" changeset="352384">
    <nd ref="191972535"/>
    <nd ref="296264031"/>
    <nd ref="191972536"/>
    <nd ref="264929602"/>
    <nd ref="53355409"/>
    <tag k="created_by" v="RambaZamba"/>
    <tag k="highway" v="residential"/>
    <tag k="maxspeed" v="30"/>
    <tag k="name" v="Gabriel-von-Seidl-Straße"/>
    <tag k="noexit" v="yes"/>
  </way>
  <way id="18609773" version="13" timestamp="2008-11-05T21:40:10Z" uid="36809" user="pfoten_weg_!_" changeset="691666">
    <nd ref="191972535"/>
    <nd ref="296264031"/>
    <nd ref="191972536"/>
    <nd ref="264929602"/>
    <nd ref="53355409"/>
    <tag k="created_by" v="RambaZamba"/>
    <tag k="highway" v="residential"/>
    <tag k="maxspeed" v="30"/>
    <tag k="name" v="Gabriel-von-Seidl-Straße"/>
    <tag k="noexit" v="yes"/>
    <tag k="source" v="survey"/>
  </way>
  <way id="18609773" version="14" timestamp="2009-07-16T22:17:36Z" uid="36809" user="pfoten_weg_!_" changeset="1849704">
    <nd ref="191972535"/>
    <nd ref="296264031"/>
    <nd ref="191972536"/>
    <nd ref="264929602"/>
    <nd ref="53355409"/>
    <tag k="discovered_by" v="RambaZamba"/>
    <tag k="highway" v="residential"/>
    <tag k="maxspeed" v="30"/>
    <tag k="name" v="Gabriel-von-Seidl-Straße"/>
    <tag k="noexit" v="yes"/>
    <tag k="source" v="survey"/>
  </way>
  <way id="18609773" version="15" timestamp="2009-08-25T19:17:41Z" uid="36809" user="pfoten_weg_!_" changeset="2260586">
    <nd ref="296264031"/>
    <nd ref="191972536"/>
    <nd ref="264929602"/>
    <nd ref="53355409"/>
    <tag k="discovered_by" v="RambaZamba"/>
    <tag k="highway" v="residential"/>
    <tag k="maxspeed" v="30"/>
    <tag k="name" v="Gabriel-von-Seidl-Straße"/>
    <tag k="noexit" v="yes"/>
    <tag k="source" v="survey"/>
  </way>
  <way id="18609773" version="16" timestamp="2009-08-28T19:53:42Z" uid="156995" user="HampelZamba" changeset="2294580">
    <nd ref="296264031"/>
    <nd ref="191972536"/>
    <nd ref="264929602"/>
    <nd ref="53355409"/>
    <tag k="highway" v="residential"/>
    <tag k="maxspeed" v="30"/>
    <tag k="name" v="Gabriel-von-Seidl-Straße"/>
    <tag k="noexit" v="yes"/>
    <tag k="source" v="survey"/>
  </way>
  <way id="18609773" version="17" timestamp="2009-08-28T21:07:19Z" uid="36809" user="pfoten_weg_!_" changeset="2295155">
    <nd ref="296264031"/>
    <nd ref="191972536"/>
    <nd ref="264929602"/>
    <nd ref="53355409"/>
    <tag k="discovered_by" v="RambaZamba"/>
    <tag k="highway" v="residential"/>
    <tag k="maxspeed" v="30"/>
    <tag k="name" v="Gabriel-von-Seidl-Straße"/>
    <tag k="noexit" v="yes"/>
    <tag k="source" v="survey"/>
  </way>
  <way id="18609773" version="18" timestamp="2009-08-30T09:20:58Z" uid="156995" user="HampelZamba" changeset="2310659">
    <nd ref="296264031"/>
    <nd ref="191972536"/>
    <nd ref="264929602"/>
    <nd ref="53355409"/>
    <tag k="highway" v="residential"/>
    <tag k="maxspeed" v="30"/>
    <tag k="name" v="Gabriel-von-Seidl-Straße"/>
    <tag k="noexit" v="yes"/>
    <tag k="source" v="survey"/>
  </way>
  <way id="18609773" version="19" timestamp="2009-09-01T10:52:42Z" uid="36809" user="pfoten_weg_!_" changeset="2335754">
    <nd ref="296264031"/>
    <nd ref="191972536"/>
    <nd ref="264929602"/>
    <nd ref="53355409"/>
    <tag k="highway" v="residential"/>
    <tag k="maxspeed" v="30"/>
    <tag k="name" v="Gabriel-von-Seidl-Straße"/>
    <tag k="noexit" v="yes"/>
    <tag k="source" v="survey"/>
  </way>
  <way id="18609773" version="20" timestamp="2009-10-12T21:13:50Z" uid="36809" user="pfoten_weg_!_" changeset="2831027">
    <nd ref="296264031"/>
    <nd ref="191972536"/>
    <nd ref="264929602"/>
    <nd ref="53355409"/>
    <tag k="highway" v="residential"/>
    <tag k="maxspeed" v="30"/>
    <tag k="name" v="Gabriel-von-Seidl-Straße"/>
    <tag k="noexit" v="yes"/>
  </way>
  <way id="18609773" version="21" timestamp="2009-10-16T00:12:57Z" uid="36809" user="pfoten_weg_!_" changeset="2860228">
    <nd ref="532731321"/>
    <nd ref="296264031"/>
    <nd ref="191972536"/>
    <nd ref="532731312"/>
    <nd ref="264929602"/>
    <nd ref="53355409"/>
    <tag k="highway" v="residential"/>
    <tag k="maxspeed" v="30"/>
    <tag k="name" v="Gabriel-von-Seidl-Straße"/>
    <tag k="noexit" v="yes"/>
  </way>
  <way id="18609773" version="22" timestamp="2011-09-27T09:13:53Z" uid="42393" user="mawi42" changeset="9408903">
    <nd ref="532731321"/>
    <nd ref="296264031"/>
    <nd ref="532731312"/>
    <nd ref="264929602"/>
    <nd ref="1446857444"/>
    <nd ref="53355409"/>
    <tag k="highway" v="residential"/>
    <tag k="maxspeed" v="30"/>
    <tag k="name" v="Gabriel-von-Seidl-Straße"/>
    <tag k="noexit" v="yes"/>
  </way>
</osm>
