<?xml version='1.0' encoding='UTF-8'?>
<osm version="0.6" generator="libosmium/2.20.0">
  <way id="1861433" version="3" timestamp="2008-07-15T01:52:28Z" uid="6975" user="ulfl" changeset="496348">
    <nd ref="7992175"/>
    <nd ref="7992174"/>
    <tag k="highway" v="tertiary"/>
    <tag k="maxspeed" v="96"/>
    <tag k="name" v="Clodhall Lane"/>
  </way>
  <way id="1861433" version="4" timestamp="2008-07-18T11:20:50Z" uid="50107" user="slaughteredlamb" changeset="532064">
    <nd ref="7992175"/>
    <nd ref="7992174"/>
    <tag k="highway" v="tertiary"/>
    <tag k="maxspeed" v="96"/>
    <tag k="name" v="Clodhall Lane"/>
  </way>
  <way id="1861433" version="5" timestamp="2009-04-26T08:14:51Z" uid="104845" user="InTheUK" changeset="969260">
    <nd ref="7992175"/>
    <nd ref="385099166"/>
    <nd ref="7992174"/>
    <tag k="highway" v="tertiary"/>
    <tag k="maxspeed" v="96"/>
    <tag k="name" v="Clodhall Lane"/>
  </way>
  <way id="1861433" version="6" timestamp="2010-02-27T18:16:07Z" uid="91657" user="Pink Duck" changeset="3990785">
    <nd ref="7992175"/>
    <nd ref="385099166"/>
    <nd ref="7992174"/>
    <tag k="highway" v="tertiary"/>
    <tag k="maxspeed" v="60 mph"/>
    <tag k="name" v="Clodhall Lane"/>
  </way>
  <way id="1861433" version="7" timestamp="2010-02-27T19:29:31Z" uid="91657" user="Pink Duck" changeset="3990785">
    <nd ref="7992175"/>
    <nd ref="385099166"/>
    <nd ref="7992174"/>
    <tag k="highway" v="tertiary"/>
    <tag k="maxspeed" v="60 mph"/>
    <tag k="name" v="Clodhall Lane"/>
  </way>
  <way id="1861433" version="8" timestamp="2011-03-11T18:44:04Z" uid="8235" user="chriscf" changeset="7524671">
    <nd ref="7992175"/>
    <nd ref="385099166"/>
    <nd ref="7992174"/>
    <tag k="FIXME:nsl" v="inferred single-carriageway NSL - remove this tag once verified"/>
    <tag k="highway" v="tertiary"/>
    <tag k="maxspeed" v="60 mph"/>
    <tag k="name" v="Clodhall Lane"/>
    <tag k="source:maxspeed" v="UK:nsl_single"/>
  </way>
</osm>
