<?xml version='1.0' encoding='UTF-8'?>
<osm version="0.6" generator="libosmium/2.20.0">
  <way id="18642097" version="5" timestamp="2008-11-11T22:19:39Z" uid="36809" user="pfoten_weg_!_" changeset="736643">
    <nd ref="192331994"/>
    <nd ref="192333271"/>
    <nd ref="192331995"/>
    <nd ref="192331996"/>
    <nd ref="192331997"/>
    <nd ref="192331998"/>
    <nd ref="192331999"/>
    <nd ref="192332000"/>
    <nd ref="192332001"/>
    <tag k="created_by" v="JOSM"/>
    <tag k="fixme" v="Straßenname fehlt"/>
    <tag k="highway" v="residential"/>
    <tag k="name" v="NoName"/>
  </way>
  <way id="18642097" version="6" timestamp="2008-12-30T23:33:59Z" uid="87002" user="Stevey" changeset="683556">
    <nd ref="192331994"/>
    <nd ref="192333271"/>
    <nd ref="192331995"/>
    <tag k="created_by" v="Potlatch 0.10f"/>
    <tag k="fixme" v="Straßenname fehlt"/>
    <tag k="highway" v="residential"/>
    <tag k="name" v="NoName"/>
  </way>
  <way id="18642097" version="7" timestamp="2009-10-12T21:50:54Z" uid="36809" user="pfoten_weg_!_" changeset="2831247">
    <nd ref="192331994"/>
    <nd ref="192333271"/>
    <nd ref="192331995"/>
    <tag k="fixme" v="Straßenname fehlt"/>
    <tag k="highway" v="residential"/>
    <tag k="name" v="NoName"/>
  </way>
  <way id="18642097" version="8" timestamp="2010-03-16T13:32:24Z" uid="166889" user="strangemeister" changeset="4143375">
    <nd ref="192331994"/>
    <nd ref="192333271"/>
    <nd ref="192331995"/>
    <tag k="highway" v="residential"/>
    <tag k="name" v="Frühlingsstraße"/>
  </way>
  <way id="18642110" version="2" timestamp="2008-11-11T22:19:38Z" uid="36809" user="pfoten_weg_!_" changeset="736643">
    <nd ref="192333066"/>
    <nd ref="192333067"/>
    <nd ref="192331998"/>
    <tag k="created_by" v="JOSM"/>
    <tag k="fixme" v="Straßenname fehlt"/>
    <tag k="highway" v="residential"/>
    <tag k="name" v="NoName"/>
  </way>
  <way id="18642110" version="3" timestamp="2008-12-29T23:36:44Z" uid="87002" user="Stevey" changeset="670519">
    <nd ref="192333066"/>
    <nd ref="192333067"/>
    <nd ref="192331998"/>
    <tag k="created_by" v="Potlatch 0.10f"/>
    <tag k="fixme" v="Straßenname fehlt"/>
    <tag k="highway" v="residential"/>
    <tag k="name" v="Moosanger"/>
  </way>
  <way id="18642110" version="4" timestamp="2008-12-29T23:37:07Z" uid="87002" user="Stevey" changeset="670519">
    <nd ref="192333066"/>
    <nd ref="192333067"/>
    <nd ref="192331998"/>
    <tag k="created_by" v="Potlatch 0.10f"/>
    <tag k="highway" v="residential"/>
    <tag k="name" v="Moosanger"/>
  </way>
  <way id="18642110" version="5" timestamp="2009-10-12T21:50:48Z" uid="36809" user="pfoten_weg_!_" changeset="2831247">
    <nd ref="192333066"/>
    <nd ref="192333067"/>
    <nd ref="192331998"/>
    <tag k="highway" v="residential"/>
    <tag k="name" v="Moosanger"/>
  </way>
  <way id="18642129" version="2" timestamp="2008-11-11T22:19:29Z" uid="36809" user="pfoten_weg_!_" changeset="736643">
    <nd ref="192333270"/>
    <nd ref="192333271"/>
    <tag k="created_by" v="JOSM"/>
    <tag k="fixme" v="Straßenname fehlt"/>
    <tag k="highway" v="residential"/>
    <tag k="name" v="NoName"/>
  </way>
  <way id="18642129" version="3" timestamp="2009-10-12T21:50:48Z" uid="36809" user="pfoten_weg_!_" changeset="2831247">
    <nd ref="192333270"/>
    <nd ref="192333271"/>
    <tag k="fixme" v="Straßenname fehlt"/>
    <tag k="highway" v="residential"/>
    <tag k="name" v="NoName"/>
  </way>
  <way id="18642129" version="4" timestamp="2010-03-16T13:32:24Z" uid="166889" user="strangemeister" changeset="4143375">
    <nd ref="192333270"/>
    <nd ref="192333271"/>
    <tag k="highway" v="residential"/>
    <tag k="name" v="Eschenweg"/>
  </way>
  <way id="18642213" version="2" timestamp="2008-08-14T14:21:34Z" uid="36809" user="pfoten_weg_!_" changeset="250529">
    <nd ref="192334998"/>
    <nd ref="192335000"/>
    <nd ref="192335001"/>
    <nd ref="192335002"/>
    <nd ref="192335004"/>
    <nd ref="192335005"/>
    <nd ref="192335007"/>
    <nd ref="192335010"/>
    <nd ref="192335012"/>
    <nd ref="192335014"/>
    <nd ref="192335016"/>
    <nd ref="192335018"/>
    <nd ref="192335019"/>
    <nd ref="192335021"/>
    <nd ref="192335024"/>
    <nd ref="192335025"/>
    <nd ref="192335027"/>
    <nd ref="192335028"/>
    <nd ref="192335030"/>
    <nd ref="192335031"/>
    <tag k="created_by" v="RambaZamba"/>
    <tag k="highway" v="residential"/>
    <tag k="name" v="Heimatshausener Straße"/>
  </way>
  <way id="18642213" version="3" timestamp="2009-08-28T19:53:48Z" uid="156995" user="HampelZamba" changeset="2294580">
    <nd ref="192334998"/>
    <nd ref="192335000"/>
    <nd ref="192335001"/>
    <nd ref="192335002"/>
    <nd ref="192335004"/>
    <nd ref="192335005"/>
    <nd ref="192335007"/>
    <nd ref="192335010"/>
    <nd ref="192335012"/>
    <nd ref="192335014"/>
    <nd ref="192335016"/>
    <nd ref="192335018"/>
    <nd ref="192335019"/>
    <nd ref="192335021"/>
    <nd ref="192335024"/>
    <nd ref="192335025"/>
    <nd ref="192335027"/>
    <nd ref="192335028"/>
    <nd ref="192335030"/>
    <nd ref="192335031"/>
    <tag k="highway" v="residential"/>
    <tag k="name" v="Heimatshausener Straße"/>
  </way>
  <way id="18642213" version="4" timestamp="2009-08-28T21:33:58Z" uid="36809" user="pfoten_weg_!_" changeset="2295609">
    <nd ref="192334998"/>
    <nd ref="192335000"/>
    <nd ref="192335001"/>
    <nd ref="192335002"/>
    <nd ref="192335004"/>
    <nd ref="192335005"/>
    <nd ref="192335007"/>
    <nd ref="192335010"/>
    <nd ref="192335012"/>
    <nd ref="192335014"/>
    <nd ref="192335016"/>
    <nd ref="192335018"/>
    <nd ref="192335019"/>
    <nd ref="192335021"/>
    <nd ref="192335024"/>
    <nd ref="192335025"/>
    <nd ref="192335027"/>
    <nd ref="192335028"/>
    <nd ref="192335030"/>
    <nd ref="192335031"/>
    <tag k="discovered_by" v="RambaZamba"/>
    <tag k="highway" v="residential"/>
    <tag k="name" v="Heimatshausener Straße"/>
    <tag k="source" v="survey"/>
  </way>
  <way id="18642213" version="5" timestamp="2009-08-30T09:21:04Z" uid="156995" user="HampelZamba" changeset="2310659">
    <nd ref="192334998"/>
    <nd ref="192335000"/>
    <nd ref="192335001"/>
    <nd ref="192335002"/>
    <nd ref="192335004"/>
    <nd ref="192335005"/>
    <nd ref="192335007"/>
    <nd ref="192335010"/>
    <nd ref="192335012"/>
    <nd ref="192335014"/>
    <nd ref="192335016"/>
    <nd ref="192335018"/>
    <nd ref="192335019"/>
    <nd ref="192335021"/>
    <nd ref="192335024"/>
    <nd ref="192335025"/>
    <nd ref="192335027"/>
    <nd ref="192335028"/>
    <nd ref="192335030"/>
    <nd ref="192335031"/>
    <tag k="highway" v="residential"/>
    <tag k="name" v="Heimatshausener Straße"/>
    <tag k="source" v="survey"/>
  </way>
  <way id="18642213" version="6" timestamp="2009-08-31T17:46:57Z" uid="36809" user="pfoten_weg_!_" changeset="2328905">
    <nd ref="192334998"/>
    <nd ref="192335000"/>
    <nd ref="192335001"/>
    <nd ref="192335002"/>
    <nd ref="192335004"/>
    <nd ref="192335005"/>
    <nd ref="192335007"/>
    <nd ref="192335010"/>
    <nd ref="192335012"/>
    <nd ref="192335014"/>
    <nd ref="192335016"/>
    <nd ref="192335018"/>
    <nd ref="192335019"/>
    <nd ref="192335021"/>
    <nd ref="192335024"/>
    <nd ref="192335025"/>
    <nd ref="192335027"/>
    <nd ref="192335028"/>
    <nd ref="192335030"/>
    <nd ref="192335031"/>
    <tag k="highway" v="residential"/>
    <tag k="name" v="Heimatshausener Straße"/>
    <tag k="source" v="survey"/>
  </way>
  <way id="18642213" version="7" timestamp="2009-08-31T18:05:58Z" uid="38907" user="hongakonga" changeset="2329141">
    <nd ref="192334998"/>
    <nd ref="192335000"/>
    <nd ref="192335001"/>
    <nd ref="192335002"/>
    <nd ref="192335004"/>
    <nd ref="192335005"/>
    <nd ref="192335007"/>
    <nd ref="192335010"/>
    <nd ref="192335012"/>
    <nd ref="192335014"/>
    <nd ref="192335016"/>
    <nd ref="479233315"/>
    <nd ref="192335018"/>
    <nd ref="192335019"/>
    <nd ref="192335021"/>
    <nd ref="192335024"/>
    <nd ref="192335025"/>
    <nd ref="192335027"/>
    <nd ref="192335028"/>
    <nd ref="192335030"/>
    <nd ref="192335031"/>
    <tag k="highway" v="residential"/>
    <tag k="name" v="Heimatshausener Straße"/>
    <tag k="source" v="survey"/>
  </way>
  <way id="18642213" version="8" timestamp="2009-10-02T18:07:52Z" uid="86259" user="hasse_osm_korinthenkacker" changeset="2715119">
    <nd ref="192334998"/>
    <nd ref="192335000"/>
    <nd ref="192335001"/>
    <nd ref="192335002"/>
    <nd ref="192335004"/>
    <nd ref="192335005"/>
    <nd ref="192335007"/>
    <nd ref="192335010"/>
    <nd ref="192335012"/>
    <nd ref="192335014"/>
    <nd ref="192335016"/>
    <nd ref="479233315"/>
    <nd ref="192335018"/>
    <nd ref="192335019"/>
    <nd ref="192335021"/>
    <nd ref="192335024"/>
    <nd ref="192335025"/>
    <nd ref="192335027"/>
    <nd ref="192335028"/>
    <nd ref="192335030"/>
    <nd ref="192335031"/>
    <tag k="highway" v="residential"/>
    <tag k="name" v="Heimatshausener Straße"/>
  </way>
  <way id="18642213" version="9" timestamp="2011-02-01T10:49:22Z" uid="62236" user="Paulchen Panther" changeset="7153442">
    <nd ref="192334998"/>
    <nd ref="192335000"/>
    <nd ref="192335001"/>
    <nd ref="192335002"/>
    <nd ref="192335005"/>
    <nd ref="192335007"/>
    <nd ref="192335010"/>
    <nd ref="192335012"/>
    <nd ref="192335014"/>
    <nd ref="192335016"/>
    <nd ref="479233315"/>
    <nd ref="192335018"/>
    <nd ref="192335019"/>
    <nd ref="192335021"/>
    <nd ref="192335024"/>
    <nd ref="192335025"/>
    <nd ref="192335027"/>
    <nd ref="192335028"/>
    <nd ref="192335030"/>
    <nd ref="192335031"/>
    <tag k="highway" v="residential"/>
    <tag k="name" v="Heimatshausener Straße"/>
  </way>
  <way id="18642305" version="2" timestamp="2008-11-11T22:19:35Z" uid="36809" user="pfoten_weg_!_" changeset="736643">
    <nd ref="192336720"/>
    <nd ref="192336722"/>
    <nd ref="31256792"/>
    <tag k="created_by" v="JOSM"/>
    <tag k="fixme" v="Straßenname fehlt"/>
    <tag k="highway" v="residential"/>
    <tag k="name" v="NoName"/>
  </way>
  <way id="18642305" version="3" timestamp="2008-12-29T23:38:27Z" uid="87002" user="Stevey" changeset="670519">
    <nd ref="192336720"/>
    <nd ref="192336722"/>
    <nd ref="31256792"/>
    <tag k="created_by" v="Potlatch 0.10f"/>
    <tag k="highway" v="residential"/>
    <tag k="name" v="Birkenweg"/>
  </way>
  <way id="18642305" version="4" timestamp="2008-12-29T23:42:24Z" uid="87002" user="Stevey" changeset="670519">
    <nd ref="192336720"/>
    <nd ref="192336722"/>
    <nd ref="31256792"/>
    <tag k="created_by" v="Potlatch 0.10f"/>
    <tag k="highway" v="residential"/>
    <tag k="name" v="Birkenweg"/>
  </way>
  <way id="18642305" version="5" timestamp="2008-12-29T23:42:38Z" uid="87002" user="Stevey" changeset="670519">
    <nd ref="192336720"/>
    <nd ref="192336722"/>
    <nd ref="31256792"/>
    <tag k="created_by" v="Potlatch 0.10f"/>
    <tag k="highway" v="residential"/>
    <tag k="name" v="Birkenweg"/>
  </way>
  <way id="18642305" version="6" timestamp="2008-12-29T23:43:29Z" uid="87002" user="Stevey" changeset="670519">
    <nd ref="192336720"/>
    <nd ref="192336722"/>
    <nd ref="31256792"/>
    <tag k="created_by" v="Potlatch 0.10f"/>
    <tag k="highway" v="residential"/>
    <tag k="name" v="Birkenweg"/>
  </way>
  <way id="18642305" version="7" timestamp="2009-10-12T21:50:45Z" uid="36809" user="pfoten_weg_!_" changeset="2831247">
    <nd ref="192336720"/>
    <nd ref="192336722"/>
    <nd ref="31256792"/>
    <tag k="highway" v="residential"/>
    <tag k="name" v="Birkenweg"/>
  </way>
  <way id="18642328" version="1" timestamp="2007-12-27T17:28:34Z" uid="3451" user="sascha_silbe" changeset="439928">
    <nd ref="192337088"/>
    <nd ref="191104912"/>
    <nd ref="192337094"/>
    <tag k="admin_level" v="10"/>
    <tag k="boundary" v="administrative"/>
    <tag k="created_by" v="JOSM"/>
    <tag k="is_in" v="Wetzlar, Landkreis Lahn-Dill-Kreis, Hessen, Germany"/>
    <tag k="left:name" v="Garbenheim"/>
    <tag k="source" v="survey"/>
  </way>
  <way id="18642328" version="2" timestamp="2011-07-07T22:16:48Z" uid="57645" user="KartoGrapHiti" changeset="8661824"/>
  <way id="18642330" version="1" timestamp="2007-12-27T17:28:34Z" uid="3451" user="sascha_silbe" changeset="439928">
    <nd ref="192337114"/>
    <nd ref="192337120"/>
    <nd ref="192337127"/>
    <tag k="admin_level" v="10"/>
    <tag k="boundary" v="administrative"/>
    <tag k="created_by" v="JOSM"/>
    <tag k="is_in" v="Wetzlar, Landkreis Lahn-Dill-Kreis, Hessen, Germany"/>
    <tag k="right:suburb" v="Garbenheim"/>
    <tag k="source" v="survey"/>
  </way>
  <way id="18642330" version="2" timestamp="2008-05-08T17:47:10Z" uid="18141" user="Hobby Navigator" changeset="367558">
    <nd ref="192337114"/>
    <nd ref="129995332"/>
    <nd ref="192337127"/>
    <tag k="admin_level" v="10"/>
    <tag k="boundary" v="administrative"/>
    <tag k="created_by" v="JOSM"/>
    <tag k="is_in" v="Wetzlar, Landkreis Lahn-Dill-Kreis, Hessen, Germany"/>
    <tag k="right:suburb" v="Garbenheim"/>
    <tag k="source" v="survey"/>
  </way>
  <way id="18642330" version="3" timestamp="2010-01-16T16:22:09Z" uid="57645" user="KartoGrapHiti" changeset="3632950">
    <nd ref="192337114"/>
    <nd ref="129995332"/>
    <nd ref="614744770"/>
    <tag k="admin_level" v="10"/>
    <tag k="boundary" v="administrative"/>
    <tag k="is_in" v="Wetzlar, Landkreis Lahn-Dill-Kreis, Hessen, Germany"/>
    <tag k="right:suburb" v="Garbenheim"/>
    <tag k="source" v="survey"/>
  </way>
  <way id="18642331" version="1" timestamp="2007-12-27T17:28:34Z" uid="3451" user="sascha_silbe" changeset="439928">
    <nd ref="192337120"/>
    <nd ref="129995332"/>
    <tag k="created_by" v="JOSM"/>
    <tag k="highway" v="tertiary"/>
    <tag k="source" v="survey"/>
  </way>
  <way id="18642331" version="2" timestamp="2008-05-08T17:47:13Z" uid="18141" user="Hobby Navigator" changeset="367558"/>
  <way id="18642332" version="1" timestamp="2007-12-27T17:28:35Z" uid="3451" user="sascha_silbe" changeset="439928">
    <nd ref="191104912"/>
    <nd ref="192337100"/>
    <nd ref="192337104"/>
    <nd ref="192337120"/>
    <tag k="created_by" v="JOSM"/>
    <tag k="highway" v="tertiary"/>
    <tag k="source" v="survey"/>
  </way>
  <way id="18642332" version="2" timestamp="2008-01-07T20:09:11Z" uid="18141" user="Hobby Navigator" changeset="569405">
    <nd ref="191104912"/>
    <nd ref="192337100"/>
    <nd ref="192337104"/>
    <nd ref="192337120"/>
    <tag k="created_by" v="Potlatch 0.6a"/>
    <tag k="highway" v="secondary"/>
    <tag k="name" v="Kreisstraße"/>
    <tag k="source" v="survey"/>
  </way>
  <way id="18642332" version="3" timestamp="2008-01-07T20:09:21Z" uid="18141" user="Hobby Navigator" changeset="569405">
    <nd ref="191104912"/>
    <nd ref="192337100"/>
    <nd ref="192337104"/>
    <nd ref="192337120"/>
    <tag k="created_by" v="Potlatch 0.6a"/>
    <tag k="highway" v="secondary"/>
    <tag k="name" v="Kreisstraße"/>
    <tag k="ref" v="L3020"/>
    <tag k="source" v="survey"/>
  </way>
  <way id="18642332" version="4" timestamp="2008-05-08T17:47:11Z" uid="18141" user="Hobby Navigator" changeset="367558">
    <nd ref="191104912"/>
    <nd ref="262845207"/>
    <nd ref="192337100"/>
    <nd ref="262845208"/>
    <nd ref="192337104"/>
    <nd ref="262845210"/>
    <nd ref="262845209"/>
    <nd ref="129995332"/>
    <tag k="created_by" v="Potlatch 0.6a"/>
    <tag k="highway" v="secondary"/>
    <tag k="name" v="Kreisstraße"/>
    <tag k="ref" v="L3020"/>
    <tag k="source" v="survey"/>
  </way>
  <way id="18642332" version="5" timestamp="2008-05-14T17:10:32Z" uid="18141" user="Hobby Navigator" changeset="445262">
    <nd ref="191104912"/>
    <nd ref="262845207"/>
    <nd ref="192337100"/>
    <nd ref="262845208"/>
    <nd ref="192337104"/>
    <nd ref="262845210"/>
    <nd ref="129995332"/>
    <tag k="created_by" v="Potlatch 0.9a"/>
    <tag k="highway" v="secondary"/>
    <tag k="name" v="Kreisstraße"/>
    <tag k="ref" v="L3020"/>
    <tag k="source" v="survey"/>
  </way>
  <way id="18642332" version="6" timestamp="2008-06-16T20:41:32Z" uid="24920" user="Schusch" changeset="195383">
    <nd ref="191104912"/>
    <nd ref="262845207"/>
    <nd ref="192337100"/>
    <nd ref="262845208"/>
    <nd ref="192337104"/>
    <nd ref="262845210"/>
    <nd ref="129995332"/>
    <tag k="created_by" v="Potlatch 0.9c"/>
    <tag k="highway" v="secondary"/>
    <tag k="name" v="Kreisstraße"/>
    <tag k="ref" v="L 3020"/>
    <tag k="source" v="survey"/>
  </way>
  <way id="18642332" version="7" timestamp="2008-07-21T06:09:16Z" uid="18141" user="Hobby Navigator" changeset="558733">
    <nd ref="191104912"/>
    <nd ref="262845207"/>
    <nd ref="192337100"/>
    <nd ref="192337104"/>
    <nd ref="262845210"/>
    <nd ref="129995332"/>
    <tag k="created_by" v="Potlatch 0.10"/>
    <tag k="highway" v="secondary"/>
    <tag k="name" v="Kreisstraße"/>
    <tag k="ref" v="L 3020"/>
    <tag k="source" v="survey"/>
  </way>
  <way id="18642332" version="8" timestamp="2008-07-22T17:37:02Z" uid="6879" user="Longbow4u" changeset="569246">
    <nd ref="191104912"/>
    <nd ref="262845207"/>
    <nd ref="192337100"/>
    <nd ref="280284581"/>
    <nd ref="192337104"/>
    <nd ref="262845210"/>
    <nd ref="280284544"/>
    <nd ref="280284529"/>
    <nd ref="129995332"/>
    <tag k="created_by" v="Potlatch 0.10"/>
    <tag k="highway" v="secondary"/>
    <tag k="name" v="Kreisstraße"/>
    <tag k="ref" v="L 3020"/>
    <tag k="source" v="survey"/>
  </way>
  <way id="18642332" version="9" timestamp="2008-07-26T15:37:00Z" uid="6879" user="Longbow4u" changeset="597701">
    <nd ref="191104912"/>
    <nd ref="281228128"/>
    <nd ref="281228135"/>
    <nd ref="281227989"/>
    <nd ref="262845207"/>
    <nd ref="192337100"/>
    <nd ref="280284581"/>
    <nd ref="192337104"/>
    <nd ref="262845210"/>
    <nd ref="280284544"/>
    <nd ref="280284529"/>
    <nd ref="129995332"/>
    <tag k="created_by" v="Potlatch 0.10"/>
    <tag k="highway" v="secondary"/>
    <tag k="name" v="Kreisstraße"/>
    <tag k="ref" v="L 3020"/>
    <tag k="source" v="survey"/>
  </way>
  <way id="18642332" version="10" timestamp="2008-07-26T16:03:08Z" uid="6879" user="Longbow4u" changeset="597701">
    <nd ref="191104912"/>
    <nd ref="281228128"/>
    <nd ref="281231642"/>
    <nd ref="281228135"/>
    <nd ref="281227989"/>
    <nd ref="262845207"/>
    <nd ref="192337100"/>
    <nd ref="281231719"/>
    <nd ref="280284581"/>
    <nd ref="192337104"/>
    <nd ref="262845210"/>
    <nd ref="280284544"/>
    <nd ref="280284529"/>
    <nd ref="129995332"/>
    <tag k="created_by" v="Potlatch 0.10"/>
    <tag k="highway" v="secondary"/>
    <tag k="name" v="Kreisstraße"/>
    <tag k="ref" v="L 3020"/>
    <tag k="source" v="survey"/>
  </way>
  <way id="18642332" version="11" timestamp="2008-07-26T16:06:28Z" uid="6879" user="Longbow4u" changeset="597701">
    <nd ref="191104912"/>
    <nd ref="281228128"/>
    <nd ref="281231642"/>
    <nd ref="281228135"/>
    <nd ref="281227989"/>
    <nd ref="262845207"/>
    <nd ref="192337100"/>
    <nd ref="281231719"/>
    <nd ref="280284581"/>
    <nd ref="281232557"/>
    <nd ref="192337104"/>
    <nd ref="262845210"/>
    <nd ref="280284544"/>
    <nd ref="280284529"/>
    <nd ref="129995332"/>
    <tag k="created_by" v="Potlatch 0.10"/>
    <tag k="highway" v="secondary"/>
    <tag k="name" v="Kreisstraße"/>
    <tag k="ref" v="L 3020"/>
    <tag k="source" v="survey"/>
  </way>
  <way id="18642332" version="12" timestamp="2008-07-26T16:44:49Z" uid="6879" user="Longbow4u" changeset="597701">
    <nd ref="191104912"/>
    <nd ref="281228128"/>
    <nd ref="281237470"/>
    <nd ref="281231642"/>
    <nd ref="281228135"/>
    <nd ref="281227989"/>
    <nd ref="281237021"/>
    <nd ref="262845207"/>
    <nd ref="192337100"/>
    <nd ref="281231719"/>
    <nd ref="281236991"/>
    <nd ref="280284581"/>
    <nd ref="281232557"/>
    <nd ref="192337104"/>
    <nd ref="262845210"/>
    <nd ref="280284544"/>
    <nd ref="280284529"/>
    <nd ref="129995332"/>
    <tag k="created_by" v="Potlatch 0.10"/>
    <tag k="highway" v="secondary"/>
    <tag k="name" v="Kreisstraße"/>
    <tag k="ref" v="L 3020"/>
    <tag k="source" v="survey"/>
  </way>
  <way id="18642332" version="13" timestamp="2008-07-26T17:02:18Z" uid="6879" user="Longbow4u" changeset="597701">
    <nd ref="191104912"/>
    <nd ref="281228128"/>
    <nd ref="281237470"/>
    <nd ref="281231642"/>
    <nd ref="281228135"/>
    <nd ref="281227989"/>
    <nd ref="281237021"/>
    <nd ref="262845207"/>
    <nd ref="192337100"/>
    <nd ref="281241130"/>
    <nd ref="281231719"/>
    <nd ref="281236991"/>
    <nd ref="281241136"/>
    <nd ref="280284581"/>
    <nd ref="281232557"/>
    <nd ref="192337104"/>
    <nd ref="262845210"/>
    <nd ref="280284544"/>
    <nd ref="280284529"/>
    <nd ref="129995332"/>
    <tag k="created_by" v="Potlatch 0.10"/>
    <tag k="highway" v="secondary"/>
    <tag k="name" v="Kreisstraße"/>
    <tag k="ref" v="L 3020"/>
    <tag k="source" v="survey"/>
  </way>
  <way id="18642332" version="14" timestamp="2008-08-31T10:13:19Z" uid="61570" user="pundak" changeset="469391"/>
  <way id="18642333" version="1" timestamp="2007-12-27T17:28:35Z" uid="3451" user="sascha_silbe" changeset="439928">
    <nd ref="129995316"/>
    <nd ref="129995317"/>
    <nd ref="129995318"/>
    <nd ref="129995319"/>
    <nd ref="129995322"/>
    <nd ref="129995324"/>
    <nd ref="129995325"/>
    <nd ref="129995326"/>
    <nd ref="129995328"/>
    <nd ref="129995329"/>
    <nd ref="129995331"/>
    <nd ref="134048657"/>
    <nd ref="129995332"/>
    <tag k="created_by" v="Potlatch 0.5d"/>
    <tag k="highway" v="secondary"/>
    <tag k="layer" v="0"/>
    <tag k="maxspeed" v="50"/>
    <tag k="ref" v="L3020"/>
  </way>
  <way id="18642333" version="2" timestamp="2008-05-08T17:47:11Z" uid="18141" user="Hobby Navigator" changeset="367558">
    <nd ref="129995316"/>
    <nd ref="129995317"/>
    <nd ref="129995318"/>
    <nd ref="129995319"/>
    <nd ref="129995322"/>
    <nd ref="129995324"/>
    <nd ref="129995325"/>
    <nd ref="129995326"/>
    <nd ref="129995328"/>
    <nd ref="129995329"/>
    <nd ref="129995331"/>
    <nd ref="134048657"/>
    <nd ref="129995332"/>
    <tag k="created_by" v="Potlatch 0.5d"/>
    <tag k="highway" v="secondary"/>
    <tag k="layer" v="0"/>
    <tag k="maxspeed" v="50"/>
    <tag k="name" v="Kreisstraße"/>
    <tag k="ref" v="L3020"/>
  </way>
  <way id="18642333" version="3" timestamp="2008-05-14T17:10:48Z" uid="18141" user="Hobby Navigator" changeset="445262">
    <nd ref="129995316"/>
    <nd ref="129995317"/>
    <nd ref="129995318"/>
    <nd ref="129995319"/>
    <nd ref="129995322"/>
    <nd ref="129995324"/>
    <nd ref="129995325"/>
    <nd ref="129995326"/>
    <nd ref="129995328"/>
    <nd ref="129995329"/>
    <nd ref="134048657"/>
    <nd ref="129995332"/>
    <tag k="created_by" v="Potlatch 0.9a"/>
    <tag k="highway" v="secondary"/>
    <tag k="layer" v="0"/>
    <tag k="maxspeed" v="50"/>
    <tag k="name" v="Kreisstraße"/>
    <tag k="ref" v="L3020"/>
  </way>
  <way id="18642333" version="4" timestamp="2008-06-16T20:42:11Z" uid="24920" user="Schusch" changeset="195383">
    <nd ref="129995316"/>
    <nd ref="129995317"/>
    <nd ref="129995318"/>
    <nd ref="129995319"/>
    <nd ref="129995322"/>
    <nd ref="129995324"/>
    <nd ref="129995325"/>
    <nd ref="129995326"/>
    <nd ref="129995328"/>
    <nd ref="129995329"/>
    <nd ref="134048657"/>
    <nd ref="129995332"/>
    <tag k="created_by" v="Potlatch 0.9c"/>
    <tag k="highway" v="secondary"/>
    <tag k="layer" v="0"/>
    <tag k="maxspeed" v="50"/>
    <tag k="name" v="Kreisstraße"/>
    <tag k="ref" v="L 3020"/>
  </way>
  <way id="18642333" version="5" timestamp="2008-07-21T06:08:55Z" uid="18141" user="Hobby Navigator" changeset="558733">
    <nd ref="129995316"/>
    <nd ref="129995317"/>
    <nd ref="129995319"/>
    <nd ref="129995322"/>
    <nd ref="129995324"/>
    <nd ref="129995325"/>
    <nd ref="129995326"/>
    <nd ref="129995328"/>
    <nd ref="129995329"/>
    <nd ref="134048657"/>
    <nd ref="129995332"/>
    <tag k="created_by" v="Potlatch 0.10"/>
    <tag k="highway" v="secondary"/>
    <tag k="layer" v="0"/>
    <tag k="maxspeed" v="50"/>
    <tag k="name" v="Kreisstraße"/>
    <tag k="ref" v="L 3020"/>
  </way>
  <way id="18642333" version="6" timestamp="2008-07-22T17:44:44Z" uid="6879" user="Longbow4u" changeset="569246">
    <nd ref="129995316"/>
    <nd ref="129995317"/>
    <nd ref="129995319"/>
    <nd ref="129995322"/>
    <nd ref="129995324"/>
    <nd ref="129995325"/>
    <nd ref="129995326"/>
    <nd ref="129995328"/>
    <nd ref="129995329"/>
    <nd ref="280286338"/>
    <nd ref="134048657"/>
    <nd ref="129995332"/>
    <tag k="created_by" v="Potlatch 0.10"/>
    <tag k="highway" v="secondary"/>
    <tag k="layer" v="0"/>
    <tag k="maxspeed" v="50"/>
    <tag k="name" v="Kreisstraße"/>
    <tag k="ref" v="L 3020"/>
  </way>
  <way id="18642333" version="7" timestamp="2008-08-25T08:31:37Z" uid="15998" user="ctnews" changeset="402403">
    <nd ref="129995317"/>
    <nd ref="129995319"/>
    <nd ref="129995322"/>
    <nd ref="129995324"/>
    <nd ref="129995325"/>
    <nd ref="129995326"/>
    <nd ref="129995328"/>
    <nd ref="129995329"/>
    <nd ref="280286338"/>
    <nd ref="134048657"/>
    <nd ref="129995332"/>
    <tag k="created_by" v="Potlatch 0.10b"/>
    <tag k="highway" v="secondary"/>
    <tag k="layer" v="0"/>
    <tag k="maxspeed" v="50"/>
    <tag k="name" v="Kreisstraße"/>
    <tag k="ref" v="L 3020"/>
  </way>
  <way id="18642333" version="8" timestamp="2008-08-25T08:31:44Z" uid="15998" user="ctnews" changeset="402403">
    <nd ref="129995313"/>
    <nd ref="290897307"/>
    <nd ref="129995317"/>
    <nd ref="129995319"/>
    <nd ref="129995322"/>
    <nd ref="129995324"/>
    <nd ref="129995325"/>
    <nd ref="129995326"/>
    <nd ref="129995328"/>
    <nd ref="129995329"/>
    <nd ref="280286338"/>
    <nd ref="134048657"/>
    <nd ref="129995332"/>
    <tag k="created_by" v="Potlatch 0.10b"/>
    <tag k="highway" v="secondary"/>
    <tag k="layer" v="0"/>
    <tag k="maxspeed" v="50"/>
    <tag k="name" v="Kreisstraße"/>
    <tag k="ref" v="L 3020"/>
  </way>
  <way id="18642333" version="9" timestamp="2008-08-25T08:31:54Z" uid="15998" user="ctnews" changeset="402403">
    <nd ref="129995313"/>
    <nd ref="290897307"/>
    <nd ref="129995317"/>
    <nd ref="129995319"/>
    <nd ref="129995322"/>
    <nd ref="290897314"/>
    <nd ref="129995324"/>
    <nd ref="129995325"/>
    <nd ref="129995326"/>
    <nd ref="129995328"/>
    <nd ref="129995329"/>
    <nd ref="280286338"/>
    <nd ref="134048657"/>
    <nd ref="129995332"/>
    <tag k="created_by" v="Potlatch 0.10b"/>
    <tag k="highway" v="secondary"/>
    <tag k="layer" v="0"/>
    <tag k="maxspeed" v="50"/>
    <tag k="name" v="Kreisstraße"/>
    <tag k="ref" v="L 3020"/>
  </way>
  <way id="18642333" version="10" timestamp="2008-08-31T10:01:22Z" uid="61570" user="pundak" changeset="469391">
    <nd ref="129995313"/>
    <nd ref="290897307"/>
    <nd ref="129995317"/>
    <nd ref="129995319"/>
    <nd ref="129995322"/>
    <nd ref="290897314"/>
    <nd ref="129995324"/>
    <nd ref="129995325"/>
    <nd ref="129995326"/>
    <nd ref="129995328"/>
    <nd ref="129995329"/>
    <nd ref="280286338"/>
    <nd ref="134048657"/>
    <nd ref="292506645"/>
    <nd ref="129995332"/>
    <tag k="created_by" v="Potlatch 0.10b"/>
    <tag k="highway" v="secondary"/>
    <tag k="layer" v="0"/>
    <tag k="maxspeed" v="50"/>
    <tag k="name" v="Kreisstraße"/>
    <tag k="ref" v="L 3020"/>
  </way>
  <way id="18642333" version="11" timestamp="2008-08-31T10:10:39Z" uid="61570" user="pundak" changeset="469391">
    <nd ref="129995313"/>
    <nd ref="290897307"/>
    <nd ref="129995317"/>
    <nd ref="129995319"/>
    <nd ref="129995322"/>
    <nd ref="290897314"/>
    <nd ref="129995324"/>
    <nd ref="129995325"/>
    <nd ref="129995326"/>
    <nd ref="129995328"/>
    <nd ref="292508905"/>
    <nd ref="129995329"/>
    <nd ref="280286338"/>
    <nd ref="134048657"/>
    <nd ref="292506645"/>
    <nd ref="129995332"/>
    <tag k="created_by" v="Potlatch 0.10b"/>
    <tag k="highway" v="secondary"/>
    <tag k="layer" v="0"/>
    <tag k="maxspeed" v="50"/>
    <tag k="name" v="Kreisstraße"/>
    <tag k="ref" v="L 3020"/>
  </way>
  <way id="18642333" version="12" timestamp="2008-08-31T10:13:18Z" uid="61570" user="pundak" changeset="469391">
    <nd ref="129995313"/>
    <nd ref="290897307"/>
    <nd ref="129995317"/>
    <nd ref="129995319"/>
    <nd ref="129995322"/>
    <nd ref="290897314"/>
    <nd ref="129995324"/>
    <nd ref="129995325"/>
    <nd ref="129995326"/>
    <nd ref="129995328"/>
    <nd ref="292508905"/>
    <nd ref="129995329"/>
    <nd ref="280286338"/>
    <nd ref="134048657"/>
    <nd ref="292506645"/>
    <nd ref="129995332"/>
    <nd ref="280284529"/>
    <nd ref="280284544"/>
    <nd ref="262845210"/>
    <nd ref="192337104"/>
    <nd ref="281232557"/>
    <nd ref="280284581"/>
    <nd ref="281241136"/>
    <nd ref="281236991"/>
    <nd ref="281231719"/>
    <nd ref="281241130"/>
    <nd ref="192337100"/>
    <nd ref="262845207"/>
    <nd ref="281237021"/>
    <nd ref="281227989"/>
    <nd ref="281228135"/>
    <nd ref="281231642"/>
    <nd ref="281237470"/>
    <nd ref="281228128"/>
    <nd ref="191104912"/>
    <tag k="created_by" v="Potlatch 0.10b"/>
    <tag k="highway" v="secondary"/>
    <tag k="layer" v="0"/>
    <tag k="maxspeed" v="50"/>
    <tag k="name" v="Kreisstraße"/>
    <tag k="ref" v="L 3020"/>
    <tag k="source" v="survey"/>
  </way>
  <way id="18642333" version="13" timestamp="2008-08-31T10:13:21Z" uid="61570" user="pundak" changeset="469391">
    <nd ref="129995313"/>
    <nd ref="290897307"/>
    <nd ref="129995317"/>
    <nd ref="129995319"/>
    <nd ref="129995322"/>
    <nd ref="290897314"/>
    <nd ref="129995324"/>
    <nd ref="129995325"/>
    <nd ref="129995326"/>
    <nd ref="129995328"/>
    <nd ref="292508905"/>
    <nd ref="129995329"/>
    <nd ref="280286338"/>
    <nd ref="134048657"/>
    <nd ref="292506645"/>
    <nd ref="129995332"/>
    <tag k="created_by" v="Potlatch 0.10b"/>
    <tag k="highway" v="secondary"/>
    <tag k="layer" v="0"/>
    <tag k="maxspeed" v="50"/>
    <tag k="name" v="Kreisstraße"/>
    <tag k="ref" v="L 3020"/>
  </way>
  <way id="18642333" version="14" timestamp="2010-04-06T13:13:41Z" uid="36894" user="rab" changeset="4343924">
    <nd ref="129995313"/>
    <nd ref="290897307"/>
    <nd ref="129995317"/>
    <nd ref="129995319"/>
    <nd ref="129995322"/>
    <nd ref="290897314"/>
    <nd ref="129995324"/>
    <nd ref="129995325"/>
    <nd ref="129995326"/>
    <nd ref="129995328"/>
    <nd ref="292508905"/>
    <nd ref="129995329"/>
    <nd ref="280286338"/>
    <nd ref="134048657"/>
    <nd ref="292506645"/>
    <nd ref="129995332"/>
    <tag k="highway" v="secondary"/>
    <tag k="maxspeed" v="50"/>
    <tag k="name" v="Kreisstraße"/>
    <tag k="ref" v="L 3020"/>
  </way>
  <way id="18642334" version="1" timestamp="2007-12-27T17:28:36Z" uid="3451" user="sascha_silbe" changeset="439928">
    <nd ref="192337132"/>
    <nd ref="129995316"/>
    <nd ref="192337136"/>
    <tag k="admin_level" v="8"/>
    <tag k="boundary" v="administrative"/>
    <tag k="created_by" v="JOSM"/>
    <tag k="is_in" v="Landkreis Lahn-Dill-Kreis, Hessen, Germany"/>
    <tag k="left:city" v="Wetzlar"/>
    <tag k="source" v="survey"/>
  </way>
  <way id="18642334" version="2" timestamp="2008-08-25T08:21:17Z" uid="15998" user="ctnews" changeset="402403">
    <nd ref="192337132"/>
    <nd ref="129995316"/>
    <nd ref="192337136"/>
    <tag k="admin_level" v="8"/>
    <tag k="boundary" v="administrative"/>
    <tag k="created_by" v="Potlatch 0.10b"/>
    <tag k="is_in" v="Landkreis Lahn-Dill-Kreis, Hessen, Germany"/>
    <tag k="left:city" v="Wetzlar"/>
    <tag k="source" v="survey"/>
  </way>
  <way id="18642334" version="3" timestamp="2008-08-25T08:31:15Z" uid="15998" user="ctnews" changeset="402403">
    <nd ref="192337132"/>
    <nd ref="129995316"/>
    <tag k="admin_level" v="8"/>
    <tag k="boundary" v="administrative"/>
    <tag k="created_by" v="Potlatch 0.10b"/>
    <tag k="is_in" v="Landkreis Lahn-Dill-Kreis, Hessen, Germany"/>
    <tag k="left:city" v="Wetzlar"/>
    <tag k="source" v="survey"/>
  </way>
  <way id="18642334" version="4" timestamp="2008-08-25T08:31:25Z" uid="15998" user="ctnews" changeset="402403"/>
  <way id="18642337" version="2" timestamp="2008-11-11T22:19:39Z" uid="36809" user="pfoten_weg_!_" changeset="736643">
    <nd ref="192335028"/>
    <nd ref="192337327"/>
    <nd ref="192336722"/>
    <tag k="created_by" v="JOSM"/>
    <tag k="fixme" v="Straßenname fehlt"/>
    <tag k="highway" v="residential"/>
    <tag k="name" v="NoName"/>
  </way>
  <way id="18642337" version="3" timestamp="2008-12-29T23:37:55Z" uid="87002" user="Stevey" changeset="670519">
    <nd ref="192335028"/>
    <nd ref="192337327"/>
    <nd ref="192336722"/>
    <tag k="created_by" v="Potlatch 0.10f"/>
    <tag k="highway" v="residential"/>
    <tag k="name" v="Enzianstr."/>
  </way>
  <way id="18642337" version="4" timestamp="2008-12-30T23:42:38Z" uid="87002" user="Stevey" changeset="683556">
    <nd ref="192335028"/>
    <nd ref="192337327"/>
    <nd ref="192336722"/>
    <tag k="created_by" v="Potlatch 0.10f"/>
    <tag k="highway" v="residential"/>
    <tag k="name" v="Enzianstraße"/>
  </way>
  <way id="18642337" version="5" timestamp="2009-10-12T21:50:46Z" uid="36809" user="pfoten_weg_!_" changeset="2831247">
    <nd ref="192335028"/>
    <nd ref="192337327"/>
    <nd ref="192336722"/>
    <tag k="highway" v="residential"/>
    <tag k="name" v="Enzianstraße"/>
  </way>
  <way id="18642348" version="3" timestamp="2008-11-11T22:19:38Z" uid="36809" user="pfoten_weg_!_" changeset="736643">
    <nd ref="192331995"/>
    <nd ref="260733948"/>
    <nd ref="260733949"/>
    <nd ref="260733950"/>
    <nd ref="192337534"/>
    <nd ref="192335030"/>
    <tag k="created_by" v="JOSM"/>
    <tag k="fixme" v="Straßenname fehlt"/>
    <tag k="highway" v="residential"/>
    <tag k="name" v="NoName"/>
  </way>
  <way id="18642348" version="4" timestamp="2008-12-30T23:34:15Z" uid="87002" user="Stevey" changeset="683556">
    <nd ref="192331995"/>
    <nd ref="260733948"/>
    <nd ref="260733949"/>
    <nd ref="260733950"/>
    <nd ref="192337534"/>
    <nd ref="192335030"/>
    <tag k="created_by" v="Potlatch 0.10f"/>
    <tag k="highway" v="residential"/>
    <tag k="name" v="Enzianstr."/>
  </way>
  <way id="18642348" version="5" timestamp="2008-12-30T23:42:32Z" uid="87002" user="Stevey" changeset="683556">
    <nd ref="192331995"/>
    <nd ref="260733948"/>
    <nd ref="260733949"/>
    <nd ref="260733950"/>
    <nd ref="192337534"/>
    <nd ref="192335030"/>
    <tag k="created_by" v="Potlatch 0.10f"/>
    <tag k="highway" v="residential"/>
    <tag k="name" v="Enzianstraße"/>
  </way>
  <way id="18642348" version="6" timestamp="2009-10-12T21:50:54Z" uid="36809" user="pfoten_weg_!_" changeset="2831247">
    <nd ref="192331995"/>
    <nd ref="260733948"/>
    <nd ref="260733949"/>
    <nd ref="260733950"/>
    <nd ref="192337534"/>
    <nd ref="192335030"/>
    <tag k="highway" v="residential"/>
    <tag k="name" v="Enzianstraße"/>
  </way>
  <way id="18642460" version="3" timestamp="2010-01-10T23:16:08Z" uid="30201" user="rrankin" changeset="3592562">
    <nd ref="192339053"/>
    <nd ref="192339537"/>
    <nd ref="192339560"/>
    <nd ref="473368359"/>
    <nd ref="473369165"/>
    <nd ref="472496170"/>
    <tag k="highway" v="footway"/>
  </way>
  <way id="18642460" version="4" timestamp="2011-08-06T05:21:54Z" uid="501738" user="Nrg800" changeset="8934845">
    <nd ref="192339053"/>
    <nd ref="192339537"/>
    <nd ref="192339560"/>
    <nd ref="473368359"/>
    <nd ref="1388145599"/>
    <nd ref="473369165"/>
    <nd ref="472496170"/>
    <tag k="highway" v="footway"/>
  </way>
  <way id="18642460" version="5" timestamp="2012-01-01T07:31:22Z" uid="111529" user="ReinerMeyer" changeset="10259420">
    <nd ref="192339053"/>
    <nd ref="1572389984"/>
    <nd ref="192339537"/>
    <nd ref="192339560"/>
    <nd ref="473368359"/>
    <nd ref="1388145599"/>
    <nd ref="473369165"/>
    <nd ref="472496170"/>
    <tag k="highway" v="footway"/>
  </way>
</osm>
