<?xml version='1.0' encoding='UTF-8'?>
<osm version="0.6" generator="libosmium/2.20.0">
  <way id="18682331" version="1" timestamp="2007-12-27T23:40:19Z" uid="7617" user="Franc" changeset="445236">
    <nd ref="192854793"/>
    <nd ref="192854801"/>
    <tag k="created_by" v="JOSM"/>
    <tag k="highway" v="residential"/>
    <tag k="source" v="yahoo_imagery"/>
  </way>
  <way id="18682331" version="2" timestamp="2008-02-02T02:51:26Z" uid="7617" user="Franc" changeset="11697">
    <nd ref="192854793"/>
    <nd ref="192854801"/>
    <tag k="created_by" v="JOSM"/>
    <tag k="highway" v="residential"/>
    <tag k="name" v="Olwyn Place"/>
    <tag k="source" v="survey"/>
  </way>
  <way id="18682331" version="3" timestamp="2008-04-03T05:27:28Z" uid="7617" user="Franc" changeset="20654">
    <nd ref="192854793"/>
    <nd ref="255478072"/>
    <nd ref="192854801"/>
    <tag k="created_by" v="JOSM"/>
    <tag k="highway" v="residential"/>
    <tag k="name" v="Olwyn Place"/>
    <tag k="source" v="survey"/>
  </way>
  <way id="18682331" version="4" timestamp="2010-07-08T02:53:45Z" uid="74617" user="JohnSmith" changeset="5163091">
    <nd ref="192854793"/>
    <nd ref="255478072"/>
    <nd ref="192854801"/>
    <tag k="highway" v="residential"/>
    <tag k="maxspeed" v="50"/>
    <tag k="maxspeed:source" v="default residential speed limit in Australia"/>
    <tag k="name" v="Olwyn Place"/>
    <tag k="source" v="survey"/>
  </way>
  <way id="18682331" version="5" timestamp="2012-01-15T19:23:07Z" uid="147510" user="woodpeck_fixbot" changeset="10400850">
    <nd ref="192854793"/>
    <nd ref="255478072"/>
    <nd ref="192854801"/>
    <tag k="highway" v="residential"/>
    <tag k="name" v="Olwyn Place"/>
    <tag k="source" v="survey"/>
  </way>
  <way id="18682375" version="7" timestamp="2009-01-18T06:55:46Z" uid="55964" user="Evan Sebire" changeset="804066">
    <nd ref="30462516"/>
    <nd ref="192856022"/>
    <nd ref="192856023"/>
    <nd ref="192856025"/>
    <nd ref="332944310"/>
    <nd ref="192855239"/>
    <nd ref="192855240"/>
    <nd ref="192856894"/>
    <nd ref="192855242"/>
    <nd ref="192855244"/>
    <nd ref="192854816"/>
    <tag k="created_by" v="Merkaartor 0.13"/>
    <tag k="highway" v="primary"/>
    <tag k="name" v="Warburton Highway"/>
    <tag k="oneway" v="yes"/>
    <tag k="ref" v="B380"/>
  </way>
  <way id="18682375" version="8" timestamp="2012-02-12T06:47:29Z" uid="11111" user="melb_guy" changeset="10659949"/>
  <way id="18682669" version="4" timestamp="2011-01-28T09:01:03Z" uid="55964" user="Evan Sebire" changeset="7110943">
    <nd ref="192858175"/>
    <nd ref="1124646778"/>
    <nd ref="192858390"/>
    <nd ref="192849456"/>
    <tag k="highway" v="secondary"/>
    <tag k="name" v="Clegg Road"/>
    <tag k="oneway" v="yes"/>
    <tag k="ref" v="C402"/>
  </way>
  <way id="18682669" version="5" timestamp="2012-02-12T06:47:29Z" uid="11111" user="melb_guy" changeset="10659949"/>
  <way id="18682776" version="1" timestamp="2007-12-27T23:43:33Z" uid="7617" user="Franc" changeset="445236">
    <nd ref="12054557"/>
    <nd ref="32846512"/>
    <nd ref="15079428"/>
    <nd ref="15079427"/>
    <nd ref="15079426"/>
    <nd ref="15079425"/>
    <nd ref="15079423"/>
    <nd ref="15079421"/>
    <nd ref="32846585"/>
    <nd ref="15079419"/>
    <nd ref="15079418"/>
    <nd ref="32846592"/>
    <nd ref="17606077"/>
    <nd ref="32846786"/>
    <nd ref="32846748"/>
    <nd ref="15079417"/>
    <nd ref="32846749"/>
    <nd ref="15173569"/>
    <nd ref="192859467"/>
    <nd ref="15173560"/>
    <nd ref="15173556"/>
    <nd ref="12052656"/>
    <tag k="created_by" v="Potlatch alpha"/>
    <tag k="highway" v="secondary"/>
    <tag k="name" v="Airport Drive"/>
    <tag k="oneway" v="yes"/>
  </way>
  <way id="18682776" version="2" timestamp="2008-05-06T12:39:07Z" uid="30201" user="rrankin" changeset="347952">
    <nd ref="12054557"/>
    <nd ref="32846512"/>
    <nd ref="15079428"/>
    <nd ref="15079427"/>
    <nd ref="15079426"/>
    <nd ref="15079425"/>
    <nd ref="15079423"/>
    <nd ref="15079421"/>
    <nd ref="32846585"/>
    <nd ref="15079419"/>
    <nd ref="15079418"/>
    <nd ref="32846592"/>
    <nd ref="17606077"/>
    <nd ref="32846786"/>
    <nd ref="32846748"/>
    <nd ref="15079417"/>
    <tag k="created_by" v="Potlatch alpha"/>
    <tag k="highway" v="secondary"/>
    <tag k="name" v="Airport Drive"/>
    <tag k="oneway" v="yes"/>
  </way>
  <way id="18682776" version="3" timestamp="2009-08-27T12:12:16Z" uid="47419" user="ploppy" changeset="2277296">
    <nd ref="12054557"/>
    <nd ref="32846512"/>
    <nd ref="15079428"/>
    <nd ref="15079427"/>
    <nd ref="15079426"/>
    <nd ref="15079425"/>
    <nd ref="15079423"/>
    <nd ref="15079421"/>
    <nd ref="32846585"/>
    <nd ref="475028926"/>
    <nd ref="15079419"/>
    <nd ref="15079418"/>
    <nd ref="32846592"/>
    <nd ref="17606077"/>
    <nd ref="32846786"/>
    <nd ref="32846748"/>
    <nd ref="15079417"/>
    <tag k="highway" v="secondary"/>
    <tag k="name" v="Airport Drive"/>
    <tag k="oneway" v="yes"/>
  </way>
  <way id="18682776" version="4" timestamp="2009-08-29T12:52:07Z" uid="47419" user="ploppy" changeset="2301260">
    <nd ref="12054557"/>
    <nd ref="32846512"/>
    <nd ref="15079428"/>
    <nd ref="15079427"/>
    <nd ref="15079426"/>
    <nd ref="15079425"/>
    <nd ref="15079423"/>
    <nd ref="15079421"/>
    <nd ref="32846585"/>
    <nd ref="475028926"/>
    <nd ref="15079419"/>
    <tag k="highway" v="secondary"/>
    <tag k="name" v="Airport Drive"/>
    <tag k="oneway" v="yes"/>
  </way>
  <way id="18682776" version="5" timestamp="2009-12-27T06:14:14Z" uid="12203" user="brainwad" changeset="3460242">
    <nd ref="12054557"/>
    <nd ref="32846512"/>
    <nd ref="15079428"/>
    <nd ref="15079427"/>
    <nd ref="15079426"/>
    <nd ref="15079425"/>
    <nd ref="15079423"/>
    <nd ref="15079421"/>
    <nd ref="599901541"/>
    <tag k="highway" v="secondary"/>
    <tag k="maxspeed" v="70"/>
    <tag k="name" v="Airport Drive"/>
    <tag k="oneway" v="yes"/>
  </way>
  <way id="18682776" version="6" timestamp="2010-09-15T10:14:36Z" uid="79475" user="AlexOnTheBus" changeset="5785571">
    <nd ref="12054557"/>
    <nd ref="32846512"/>
    <nd ref="15079428"/>
    <nd ref="15079427"/>
    <nd ref="15079426"/>
    <nd ref="15079425"/>
    <nd ref="15079423"/>
    <nd ref="15079421"/>
    <nd ref="599901541"/>
    <tag k="highway" v="primary"/>
    <tag k="maxspeed" v="70"/>
    <tag k="name" v="Airport Drive"/>
    <tag k="oneway" v="yes"/>
  </way>
  <way id="18682776" version="7" timestamp="2010-11-04T09:11:03Z" uid="237525" user="aharvey" changeset="6286731">
    <nd ref="12054557"/>
    <nd ref="32846512"/>
    <nd ref="15079428"/>
    <nd ref="15079427"/>
    <nd ref="15079426"/>
    <nd ref="15079425"/>
    <nd ref="15079423"/>
    <nd ref="976473343"/>
    <tag k="highway" v="primary"/>
    <tag k="lanes" v="2"/>
    <tag k="maxspeed" v="70"/>
    <tag k="name" v="Airport Drive"/>
    <tag k="oneway" v="yes"/>
  </way>
</osm>
