<?xml version='1.0' encoding='UTF-8'?>
<osm version="0.6" generator="libosmium/2.20.0">
  <way id="18710883" version="18" timestamp="2010-05-01T20:28:52Z" uid="151899" user="Bikeman2000" changeset="4579089">
    <nd ref="251058061"/>
    <nd ref="715852228"/>
    <nd ref="408755617"/>
    <nd ref="193089129"/>
    <nd ref="27193510"/>
    <nd ref="277801632"/>
    <tag k="cycleway" v="track"/>
    <tag k="foot" v="yes"/>
    <tag k="highway" v="primary"/>
    <tag k="maxspeed" v="50"/>
    <tag k="name" v="Südring"/>
    <tag k="oneway" v="yes"/>
    <tag k="ref" v="B 326"/>
  </way>
  <way id="18710883" version="19" timestamp="2011-04-09T10:14:35Z" uid="385765" user="gruensucher" changeset="7811715">
    <nd ref="251058061"/>
    <nd ref="715852228"/>
    <nd ref="408755617"/>
    <nd ref="1238398377"/>
    <nd ref="193089129"/>
    <nd ref="27193510"/>
    <nd ref="277801632"/>
    <tag k="cycleway" v="track"/>
    <tag k="foot" v="yes"/>
    <tag k="highway" v="primary"/>
    <tag k="maxspeed" v="50"/>
    <tag k="name" v="Südring"/>
    <tag k="oneway" v="yes"/>
    <tag k="ref" v="B 326"/>
  </way>
  <way id="18710883" version="20" timestamp="2012-01-13T11:35:10Z" uid="12614" user="rabenkind" changeset="10377571"/>
  <way id="18710897" version="8" timestamp="2010-06-23T22:03:08Z" uid="4467" user="Rosscoe" changeset="5062473">
    <nd ref="192999890"/>
    <nd ref="471609283"/>
    <tag k="highway" v="residential"/>
    <tag k="name" v="Bitterfield Court"/>
    <tag k="tiger:cfcc" v="A41"/>
    <tag k="tiger:county" v="St. Louis, MO"/>
    <tag k="tiger:name_base" v="Bitterfield"/>
    <tag k="tiger:name_type" v="Ct"/>
    <tag k="tiger:reviewed" v="no"/>
    <tag k="tiger:separated" v="no"/>
    <tag k="tiger:source" v="tiger_import_dch_v0.6_20070813"/>
    <tag k="tiger:tlid" v="100123469"/>
    <tag k="tiger:upload_uuid" v="bulk_upload.pl-6143e1a9-589d-43a0-9248-e95658773ef4"/>
    <tag k="tiger:zip_left" v="63011"/>
    <tag k="tiger:zip_right" v="63011"/>
  </way>
  <way id="18710955" version="13" timestamp="2010-05-01T21:56:01Z" uid="151899" user="Bikeman2000" changeset="4579862">
    <nd ref="27193497"/>
    <nd ref="715899509"/>
    <nd ref="193089834"/>
    <nd ref="715899511"/>
    <nd ref="193089838"/>
    <nd ref="715899515"/>
    <nd ref="277801628"/>
    <nd ref="193089564"/>
    <nd ref="193089567"/>
    <tag k="highway" v="trunk_link"/>
    <tag k="maxspeed" v="50"/>
    <tag k="name" v="Münchener Straße"/>
    <tag k="oneway" v="yes"/>
  </way>
  <way id="18710955" version="14" timestamp="2011-05-26T21:21:32Z" uid="24644" user="Athemis" changeset="8257532">
    <nd ref="27193497"/>
    <nd ref="715899509"/>
    <nd ref="193089834"/>
    <nd ref="715899511"/>
    <nd ref="193089838"/>
    <nd ref="715899515"/>
    <nd ref="277801628"/>
    <nd ref="193089564"/>
    <nd ref="1301237821"/>
    <nd ref="193089567"/>
    <tag k="highway" v="trunk_link"/>
    <tag k="maxspeed" v="50"/>
    <tag k="name" v="Münchener Straße"/>
    <tag k="oneway" v="yes"/>
  </way>
  <way id="18710955" version="15" timestamp="2011-12-29T10:44:40Z" uid="12614" user="rabenkind" changeset="10233849"/>
</osm>
