<?xml version='1.0' encoding='UTF-8'?>
<osm version="0.6" generator="libosmium/2.20.0">
  <way id="18749885" version="13" timestamp="2010-04-03T03:41:35Z" uid="20587" user="balrog-kun" changeset="4309442">
    <nd ref="193497076"/>
    <nd ref="256631014"/>
    <nd ref="330570254"/>
    <nd ref="256631015"/>
    <nd ref="330570284"/>
    <tag k="highway" v="motorway"/>
    <tag k="name" v="Maricopa Freeway"/>
    <tag k="oneway" v="yes"/>
    <tag k="ref" v="I 17;US 60"/>
  </way>
  <way id="18749885" version="14" timestamp="2011-03-24T02:48:59Z" uid="207745" user="NE2" changeset="7652364">
    <nd ref="193497076"/>
    <nd ref="256631014"/>
    <nd ref="330570254"/>
    <nd ref="256631015"/>
    <nd ref="330570284"/>
    <tag k="adot_name" v="Phoenix-Cordes Junction Highway"/>
    <tag k="highway" v="motorway"/>
    <tag k="name" v="Maricopa Freeway"/>
    <tag k="oneway" v="yes"/>
    <tag k="ref" v="I 17;US 60"/>
  </way>
  <way id="18749885" version="15" timestamp="2011-06-25T20:01:08Z" uid="473471" user="NE3" changeset="8546285">
    <nd ref="193497076"/>
    <nd ref="256631014"/>
    <nd ref="330570254"/>
    <nd ref="256631015"/>
    <nd ref="330570284"/>
    <tag k="adot_name" v="Phoenix-Cordes Junction Highway"/>
    <tag k="highway" v="motorway"/>
    <tag k="lanes" v="3"/>
    <tag k="name" v="Maricopa Freeway"/>
    <tag k="oneway" v="yes"/>
    <tag k="ref" v="I 17;US 60"/>
  </way>
  <way id="18749885" version="16" timestamp="2011-10-14T13:28:30Z" uid="207745" user="NE2" changeset="9555438">
    <nd ref="193497076"/>
    <nd ref="256631014"/>
    <nd ref="330570254"/>
    <nd ref="256631015"/>
    <nd ref="330570284"/>
    <tag k="adot_name" v="Phoenix-Cordes Junction Highway"/>
    <tag k="bicycle" v="no"/>
    <tag k="highway" v="motorway"/>
    <tag k="lanes" v="3"/>
    <tag k="name" v="Maricopa Freeway"/>
    <tag k="oneway" v="yes"/>
    <tag k="ref" v="I 17;US 60"/>
  </way>
  <way id="18749885" version="17" timestamp="2011-11-21T21:53:45Z" uid="207745" user="NE2" changeset="9902166">
    <nd ref="193497076"/>
    <nd ref="256631014"/>
    <nd ref="330570254"/>
    <nd ref="256631015"/>
    <nd ref="330570284"/>
    <tag k="adot_name" v="Phoenix-Cordes Junction Highway"/>
    <tag k="bicycle" v="no"/>
    <tag k="hgv" v="designated"/>
    <tag k="highway" v="motorway"/>
    <tag k="lanes" v="3"/>
    <tag k="name" v="Maricopa Freeway"/>
    <tag k="oneway" v="yes"/>
    <tag k="ref" v="I 17;US 60"/>
  </way>
  <way id="18749885" version="18" timestamp="2011-11-28T16:10:17Z" uid="207745" user="NE2" changeset="9979174">
    <nd ref="193497076"/>
    <nd ref="256631014"/>
    <nd ref="330570254"/>
    <nd ref="256631015"/>
    <nd ref="330570284"/>
    <tag k="adot_name" v="Phoenix-Cordes Junction Highway"/>
    <tag k="bicycle" v="no"/>
    <tag k="hazmat" v="designated"/>
    <tag k="hgv" v="designated"/>
    <tag k="highway" v="motorway"/>
    <tag k="lanes" v="3"/>
    <tag k="name" v="Maricopa Freeway"/>
    <tag k="oneway" v="yes"/>
    <tag k="ref" v="I 17;US 60"/>
  </way>
</osm>
