<?xml version='1.0' encoding='UTF-8'?>
<osm version="0.6" generator="libosmium/2.20.0">
  <way id="18857080" version="5" timestamp="2010-07-06T08:54:40Z" uid="74617" user="JohnSmith" changeset="5147679">
    <nd ref="194875862"/>
    <nd ref="194913581"/>
    <nd ref="194913583"/>
    <nd ref="194913584"/>
    <nd ref="194913585"/>
    <nd ref="194913587"/>
    <tag k="highway" v="residential"/>
    <tag k="maxspeed" v="50"/>
    <tag k="maxspeed:source" v="default residential speed limit in Australia"/>
    <tag k="name" v="Jagarra Place"/>
  </way>
  <way id="18857080" version="6" timestamp="2012-01-15T19:27:20Z" uid="147510" user="woodpeck_fixbot" changeset="10400850">
    <nd ref="194875862"/>
    <nd ref="194913581"/>
    <nd ref="194913583"/>
    <nd ref="194913584"/>
    <nd ref="194913585"/>
    <nd ref="194913587"/>
    <tag k="highway" v="residential"/>
    <tag k="name" v="Jagarra Place"/>
  </way>
  <way id="18857106" version="4" timestamp="2010-07-06T08:53:16Z" uid="74617" user="JohnSmith" changeset="5147679">
    <nd ref="194874098"/>
    <nd ref="194913856"/>
    <nd ref="194913857"/>
    <nd ref="194913858"/>
    <nd ref="194913859"/>
    <nd ref="194913860"/>
    <nd ref="194913861"/>
    <tag k="highway" v="residential"/>
    <tag k="maxspeed" v="50"/>
    <tag k="maxspeed:source" v="default residential speed limit in Australia"/>
    <tag k="name" v="Donnelly Court"/>
  </way>
  <way id="18857106" version="5" timestamp="2012-01-15T19:27:26Z" uid="147510" user="woodpeck_fixbot" changeset="10400850">
    <nd ref="194874098"/>
    <nd ref="194913856"/>
    <nd ref="194913857"/>
    <nd ref="194913858"/>
    <nd ref="194913859"/>
    <nd ref="194913860"/>
    <nd ref="194913861"/>
    <tag k="highway" v="residential"/>
    <tag k="name" v="Donnelly Court"/>
  </way>
  <way id="18857164" version="4" timestamp="2010-07-06T08:53:26Z" uid="74617" user="JohnSmith" changeset="5147679">
    <nd ref="194874093"/>
    <nd ref="194914324"/>
    <nd ref="194914325"/>
    <nd ref="194914326"/>
    <nd ref="194914327"/>
    <nd ref="194914328"/>
    <tag k="highway" v="residential"/>
    <tag k="maxspeed" v="50"/>
    <tag k="maxspeed:source" v="default residential speed limit in Australia"/>
    <tag k="name" v="Buscall Court"/>
  </way>
  <way id="18857164" version="5" timestamp="2012-01-15T19:27:41Z" uid="147510" user="woodpeck_fixbot" changeset="10400850">
    <nd ref="194874093"/>
    <nd ref="194914324"/>
    <nd ref="194914325"/>
    <nd ref="194914326"/>
    <nd ref="194914327"/>
    <nd ref="194914328"/>
    <tag k="highway" v="residential"/>
    <tag k="name" v="Buscall Court"/>
  </way>
  <way id="18857214" version="4" timestamp="2010-07-06T08:52:42Z" uid="74617" user="JohnSmith" changeset="5147679">
    <nd ref="194833135"/>
    <nd ref="194914919"/>
    <nd ref="194914921"/>
    <nd ref="194914923"/>
    <nd ref="194914925"/>
    <nd ref="194914926"/>
    <tag k="highway" v="residential"/>
    <tag k="maxspeed" v="50"/>
    <tag k="maxspeed:source" v="default residential speed limit in Australia"/>
    <tag k="name" v="Greenhill Court"/>
  </way>
  <way id="18857214" version="5" timestamp="2012-01-15T19:27:54Z" uid="147510" user="woodpeck_fixbot" changeset="10400850">
    <nd ref="194833135"/>
    <nd ref="194914919"/>
    <nd ref="194914921"/>
    <nd ref="194914923"/>
    <nd ref="194914925"/>
    <nd ref="194914926"/>
    <tag k="highway" v="residential"/>
    <tag k="name" v="Greenhill Court"/>
  </way>
  <way id="18857269" version="4" timestamp="2010-07-06T08:50:52Z" uid="74617" user="JohnSmith" changeset="5147679">
    <nd ref="194833130"/>
    <nd ref="194915379"/>
    <nd ref="194915380"/>
    <nd ref="194915382"/>
    <nd ref="194915384"/>
    <tag k="highway" v="residential"/>
    <tag k="maxspeed" v="50"/>
    <tag k="maxspeed:source" v="default residential speed limit in Australia"/>
    <tag k="name" v="Alieda Court"/>
  </way>
  <way id="18857269" version="5" timestamp="2012-01-15T19:28:00Z" uid="147510" user="woodpeck_fixbot" changeset="10400850">
    <nd ref="194833130"/>
    <nd ref="194915379"/>
    <nd ref="194915380"/>
    <nd ref="194915382"/>
    <nd ref="194915384"/>
    <tag k="highway" v="residential"/>
    <tag k="name" v="Alieda Court"/>
  </way>
  <way id="18857293" version="4" timestamp="2010-07-06T08:51:03Z" uid="74617" user="JohnSmith" changeset="5147679">
    <nd ref="194833126"/>
    <nd ref="194915547"/>
    <nd ref="194915548"/>
    <nd ref="194915550"/>
    <nd ref="194915551"/>
    <nd ref="194915552"/>
    <tag k="highway" v="residential"/>
    <tag k="maxspeed" v="50"/>
    <tag k="maxspeed:source" v="default residential speed limit in Australia"/>
    <tag k="name" v="Buckle Court"/>
  </way>
  <way id="18857293" version="5" timestamp="2012-01-15T19:28:08Z" uid="147510" user="woodpeck_fixbot" changeset="10400850">
    <nd ref="194833126"/>
    <nd ref="194915547"/>
    <nd ref="194915548"/>
    <nd ref="194915550"/>
    <nd ref="194915551"/>
    <nd ref="194915552"/>
    <tag k="highway" v="residential"/>
    <tag k="name" v="Buckle Court"/>
  </way>
  <way id="18857304" version="4" timestamp="2010-07-06T08:50:49Z" uid="74617" user="JohnSmith" changeset="5147679">
    <nd ref="194833124"/>
    <nd ref="194915707"/>
    <nd ref="194915709"/>
    <nd ref="194915710"/>
    <nd ref="194915711"/>
    <tag k="highway" v="residential"/>
    <tag k="maxspeed" v="50"/>
    <tag k="maxspeed:source" v="default residential speed limit in Australia"/>
    <tag k="name" v="Sim Jue Court"/>
  </way>
  <way id="18857304" version="5" timestamp="2012-01-15T19:28:19Z" uid="147510" user="woodpeck_fixbot" changeset="10400850">
    <nd ref="194833124"/>
    <nd ref="194915707"/>
    <nd ref="194915709"/>
    <nd ref="194915710"/>
    <nd ref="194915711"/>
    <tag k="highway" v="residential"/>
    <tag k="name" v="Sim Jue Court"/>
  </way>
</osm>
