<?xml version='1.0' encoding='UTF-8'?>
<osm version="0.6" generator="libosmium/2.20.0">
  <way id="18881022" version="3" timestamp="2010-02-15T05:08:55Z" uid="74617" user="JohnSmith" changeset="3880242">
    <nd ref="195285441"/>
    <nd ref="195289539"/>
    <tag k="highway" v="residential"/>
    <tag k="maxspeed" v="50"/>
    <tag k="name" v="Pelion Street"/>
  </way>
  <way id="18881022" version="4" timestamp="2012-01-15T19:29:55Z" uid="147510" user="woodpeck_fixbot" changeset="10400850">
    <nd ref="195285441"/>
    <nd ref="195289539"/>
    <tag k="highway" v="residential"/>
    <tag k="name" v="Pelion Street"/>
  </way>
  <way id="18881046" version="4" timestamp="2010-02-15T05:08:54Z" uid="74617" user="JohnSmith" changeset="3880242">
    <nd ref="195289978"/>
    <nd ref="195289979"/>
    <nd ref="195289980"/>
    <nd ref="195289981"/>
    <nd ref="195289982"/>
    <nd ref="195289539"/>
    <tag k="highway" v="residential"/>
    <tag k="maxspeed" v="50"/>
    <tag k="name" v="Pelion Street"/>
    <tag k="oneway" v="yes"/>
  </way>
  <way id="18881046" version="5" timestamp="2012-01-15T19:29:57Z" uid="147510" user="woodpeck_fixbot" changeset="10400850">
    <nd ref="195289978"/>
    <nd ref="195289979"/>
    <nd ref="195289980"/>
    <nd ref="195289981"/>
    <nd ref="195289982"/>
    <nd ref="195289539"/>
    <tag k="highway" v="residential"/>
    <tag k="name" v="Pelion Street"/>
    <tag k="oneway" v="yes"/>
  </way>
  <way id="18881052" version="4" timestamp="2010-02-15T05:08:54Z" uid="74617" user="JohnSmith" changeset="3880242">
    <nd ref="195289539"/>
    <nd ref="195290023"/>
    <nd ref="195290026"/>
    <nd ref="195290029"/>
    <nd ref="195290031"/>
    <nd ref="195289978"/>
    <tag k="highway" v="residential"/>
    <tag k="maxspeed" v="50"/>
    <tag k="name" v="Pelion Street"/>
    <tag k="oneway" v="yes"/>
  </way>
  <way id="18881052" version="5" timestamp="2012-01-15T19:29:57Z" uid="147510" user="woodpeck_fixbot" changeset="10400850">
    <nd ref="195289539"/>
    <nd ref="195290023"/>
    <nd ref="195290026"/>
    <nd ref="195290029"/>
    <nd ref="195290031"/>
    <nd ref="195289978"/>
    <tag k="highway" v="residential"/>
    <tag k="name" v="Pelion Street"/>
    <tag k="oneway" v="yes"/>
  </way>
  <way id="18881076" version="4" timestamp="2010-04-21T13:14:55Z" uid="4467" user="Rosscoe" changeset="4486342"/>
  <way id="18881079" version="4" timestamp="2009-04-04T22:55:59Z" uid="36809" user="pfoten_weg_!_" changeset="196576">
    <nd ref="195290542"/>
    <nd ref="195290544"/>
    <nd ref="195290545"/>
    <nd ref="195290546"/>
    <nd ref="195290542"/>
    <tag k="created_by" v="RambaZamba"/>
    <tag k="leisure" v="pitch"/>
    <tag k="source" v="survey"/>
    <tag k="sport" v="soccer"/>
  </way>
  <way id="18881079" version="5" timestamp="2009-08-28T19:53:53Z" uid="156995" user="HampelZamba" changeset="2294580">
    <nd ref="195290542"/>
    <nd ref="195290544"/>
    <nd ref="195290545"/>
    <nd ref="195290546"/>
    <nd ref="195290542"/>
    <tag k="leisure" v="pitch"/>
    <tag k="source" v="survey"/>
    <tag k="sport" v="soccer"/>
  </way>
  <way id="18881079" version="6" timestamp="2009-08-28T21:04:50Z" uid="36809" user="pfoten_weg_!_" changeset="2295155">
    <nd ref="195290542"/>
    <nd ref="195290544"/>
    <nd ref="195290545"/>
    <nd ref="195290546"/>
    <nd ref="195290542"/>
    <tag k="discovered_by" v="RambaZamba"/>
    <tag k="leisure" v="pitch"/>
    <tag k="source" v="survey"/>
    <tag k="sport" v="soccer"/>
  </way>
  <way id="18881079" version="7" timestamp="2009-08-30T09:21:08Z" uid="156995" user="HampelZamba" changeset="2310659">
    <nd ref="195290542"/>
    <nd ref="195290544"/>
    <nd ref="195290545"/>
    <nd ref="195290546"/>
    <nd ref="195290542"/>
    <tag k="leisure" v="pitch"/>
    <tag k="source" v="survey"/>
    <tag k="sport" v="soccer"/>
  </way>
  <way id="18881079" version="8" timestamp="2009-08-31T17:47:06Z" uid="36809" user="pfoten_weg_!_" changeset="2328905">
    <nd ref="195290542"/>
    <nd ref="195290544"/>
    <nd ref="195290545"/>
    <nd ref="195290546"/>
    <nd ref="195290542"/>
    <tag k="leisure" v="pitch"/>
    <tag k="source" v="survey"/>
    <tag k="sport" v="soccer"/>
  </way>
  <way id="18881079" version="9" timestamp="2009-10-02T18:04:48Z" uid="86259" user="hasse_osm_korinthenkacker" changeset="2715119">
    <nd ref="195290542"/>
    <nd ref="195290544"/>
    <nd ref="195290545"/>
    <nd ref="195290546"/>
    <nd ref="195290542"/>
    <tag k="leisure" v="pitch"/>
    <tag k="sport" v="soccer"/>
  </way>
  <way id="18881121" version="3" timestamp="2010-02-15T05:08:39Z" uid="74617" user="JohnSmith" changeset="3880242">
    <nd ref="195289978"/>
    <nd ref="195291478"/>
    <nd ref="195291480"/>
    <nd ref="195291481"/>
    <nd ref="195291482"/>
    <tag k="highway" v="residential"/>
    <tag k="maxspeed" v="50"/>
    <tag k="name" v="Pelion Street"/>
  </way>
  <way id="18881121" version="4" timestamp="2011-10-11T05:01:24Z" uid="535696" user="Greg Wallace" changeset="9527692">
    <nd ref="195289978"/>
    <nd ref="195291478"/>
    <nd ref="1462080828"/>
    <nd ref="195291480"/>
    <nd ref="195291481"/>
    <nd ref="195291482"/>
    <tag k="highway" v="residential"/>
    <tag k="maxspeed" v="50"/>
    <tag k="name" v="Pelion Street"/>
  </way>
  <way id="18881121" version="5" timestamp="2012-01-15T19:29:59Z" uid="147510" user="woodpeck_fixbot" changeset="10400850">
    <nd ref="195289978"/>
    <nd ref="195291478"/>
    <nd ref="1462080828"/>
    <nd ref="195291480"/>
    <nd ref="195291481"/>
    <nd ref="195291482"/>
    <tag k="highway" v="residential"/>
    <tag k="name" v="Pelion Street"/>
  </way>
  <way id="18881185" version="5" timestamp="2010-02-15T05:08:38Z" uid="74617" user="JohnSmith" changeset="3880242">
    <nd ref="195291761"/>
    <nd ref="195292712"/>
    <nd ref="195291482"/>
    <nd ref="298567980"/>
    <nd ref="195293567"/>
    <nd ref="195293566"/>
    <nd ref="195293564"/>
    <nd ref="298568021"/>
    <nd ref="298567982"/>
    <nd ref="195285442"/>
    <tag k="highway" v="residential"/>
    <tag k="maxspeed" v="50"/>
    <tag k="name" v="Carroll Street"/>
  </way>
  <way id="18881185" version="6" timestamp="2012-01-15T19:30:00Z" uid="147510" user="woodpeck_fixbot" changeset="10400850">
    <nd ref="195291761"/>
    <nd ref="195292712"/>
    <nd ref="195291482"/>
    <nd ref="298567980"/>
    <nd ref="195293567"/>
    <nd ref="195293566"/>
    <nd ref="195293564"/>
    <nd ref="298568021"/>
    <nd ref="298567982"/>
    <nd ref="195285442"/>
    <tag k="highway" v="residential"/>
    <tag k="name" v="Carroll Street"/>
  </way>
  <way id="18881208" version="3" timestamp="2010-07-09T07:57:43Z" uid="74617" user="JohnSmith" changeset="5171412">
    <nd ref="195055597"/>
    <nd ref="195290944"/>
    <nd ref="195290155"/>
    <nd ref="195290245"/>
    <tag k="highway" v="residential"/>
    <tag k="maxspeed" v="50"/>
    <tag k="maxspeed:source" v="default residential speed limit in Australia"/>
    <tag k="name" v="Homestead Road"/>
  </way>
  <way id="18881208" version="4" timestamp="2012-01-15T19:30:01Z" uid="147510" user="woodpeck_fixbot" changeset="10400850">
    <nd ref="195055597"/>
    <nd ref="195290944"/>
    <nd ref="195290155"/>
    <nd ref="195290245"/>
    <tag k="highway" v="residential"/>
    <tag k="name" v="Homestead Road"/>
  </way>
  <way id="18881210" version="5" timestamp="2010-07-09T08:07:32Z" uid="74617" user="JohnSmith" changeset="5171412">
    <nd ref="195290269"/>
    <nd ref="195290318"/>
    <nd ref="195290367"/>
    <nd ref="195290290"/>
    <tag k="highway" v="residential"/>
    <tag k="maxspeed" v="50"/>
    <tag k="maxspeed:source" v="default residential speed limit in Australia"/>
    <tag k="name" v="Foreshore Place"/>
  </way>
  <way id="18881210" version="6" timestamp="2012-01-15T19:30:02Z" uid="147510" user="woodpeck_fixbot" changeset="10400850">
    <nd ref="195290269"/>
    <nd ref="195290318"/>
    <nd ref="195290367"/>
    <nd ref="195290290"/>
    <tag k="highway" v="residential"/>
    <tag k="name" v="Foreshore Place"/>
  </way>
  <way id="18881212" version="4" timestamp="2010-07-09T07:55:05Z" uid="74617" user="JohnSmith" changeset="5171412">
    <nd ref="195290318"/>
    <nd ref="195290344"/>
    <tag k="highway" v="residential"/>
    <tag k="maxspeed" v="50"/>
    <tag k="maxspeed:source" v="default residential speed limit in Australia"/>
    <tag k="name" v="Hadzy Court"/>
  </way>
  <way id="18881212" version="5" timestamp="2012-01-15T19:30:04Z" uid="147510" user="woodpeck_fixbot" changeset="10400850">
    <nd ref="195290318"/>
    <nd ref="195290344"/>
    <tag k="highway" v="residential"/>
    <tag k="name" v="Hadzy Court"/>
  </way>
  <way id="18881215" version="5" timestamp="2010-07-09T08:08:34Z" uid="74617" user="JohnSmith" changeset="5171412">
    <nd ref="195290367"/>
    <nd ref="195290396"/>
    <nd ref="410395158"/>
    <nd ref="195290415"/>
    <nd ref="195290439"/>
    <nd ref="195290466"/>
    <nd ref="195290502"/>
    <nd ref="195290531"/>
    <nd ref="195290550"/>
    <nd ref="195290577"/>
    <nd ref="410395160"/>
    <nd ref="195290592"/>
    <tag k="highway" v="residential"/>
    <tag k="maxspeed" v="50"/>
    <tag k="maxspeed:source" v="default residential speed limit in Australia"/>
    <tag k="name" v="River Bank Drive"/>
  </way>
  <way id="18881215" version="6" timestamp="2012-01-15T19:30:05Z" uid="147510" user="woodpeck_fixbot" changeset="10400850">
    <nd ref="195290367"/>
    <nd ref="195290396"/>
    <nd ref="410395158"/>
    <nd ref="195290415"/>
    <nd ref="195290439"/>
    <nd ref="195290466"/>
    <nd ref="195290502"/>
    <nd ref="195290531"/>
    <nd ref="195290550"/>
    <nd ref="195290577"/>
    <nd ref="410395160"/>
    <nd ref="195290592"/>
    <tag k="highway" v="residential"/>
    <tag k="name" v="River Bank Drive"/>
  </way>
  <way id="18881217" version="4" timestamp="2010-07-09T08:08:20Z" uid="74617" user="JohnSmith" changeset="5171412">
    <nd ref="195290616"/>
    <nd ref="195290629"/>
    <nd ref="410395482"/>
    <nd ref="195290439"/>
    <tag k="highway" v="residential"/>
    <tag k="maxspeed" v="50"/>
    <tag k="maxspeed:source" v="default residential speed limit in Australia"/>
    <tag k="name" v="Settlers Way"/>
  </way>
  <way id="18881217" version="5" timestamp="2012-01-15T19:30:06Z" uid="147510" user="woodpeck_fixbot" changeset="10400850">
    <nd ref="195290616"/>
    <nd ref="195290629"/>
    <nd ref="410395482"/>
    <nd ref="195290439"/>
    <tag k="highway" v="residential"/>
    <tag k="name" v="Settlers Way"/>
  </way>
  <way id="18881218" version="3" timestamp="2010-07-09T07:57:26Z" uid="74617" user="JohnSmith" changeset="5171412">
    <nd ref="195290657"/>
    <nd ref="195290680"/>
    <tag k="highway" v="residential"/>
    <tag k="maxspeed" v="50"/>
    <tag k="maxspeed:source" v="default residential speed limit in Australia"/>
    <tag k="name" v="Derrick Street"/>
  </way>
  <way id="18881218" version="4" timestamp="2012-01-15T19:30:07Z" uid="147510" user="woodpeck_fixbot" changeset="10400850">
    <nd ref="195290657"/>
    <nd ref="195290680"/>
    <tag k="highway" v="residential"/>
    <tag k="name" v="Derrick Street"/>
  </way>
  <way id="18881220" version="3" timestamp="2010-07-09T08:00:59Z" uid="74617" user="JohnSmith" changeset="5171412">
    <nd ref="195290702"/>
    <nd ref="195290726"/>
    <nd ref="195290737"/>
    <tag k="highway" v="residential"/>
    <tag k="maxspeed" v="50"/>
    <tag k="maxspeed:source" v="default residential speed limit in Australia"/>
    <tag k="name" v="Trayner Close"/>
  </way>
  <way id="18881220" version="4" timestamp="2012-01-15T19:30:08Z" uid="147510" user="woodpeck_fixbot" changeset="10400850">
    <nd ref="195290702"/>
    <nd ref="195290726"/>
    <nd ref="195290737"/>
    <tag k="highway" v="residential"/>
    <tag k="name" v="Trayner Close"/>
  </way>
  <way id="18881221" version="3" timestamp="2010-07-09T08:05:06Z" uid="74617" user="JohnSmith" changeset="5171412">
    <nd ref="195264553"/>
    <nd ref="243654349"/>
    <nd ref="195290759"/>
    <nd ref="195290737"/>
    <nd ref="195290785"/>
    <nd ref="195290801"/>
    <nd ref="195290825"/>
    <nd ref="195290680"/>
    <nd ref="195290847"/>
    <nd ref="195290869"/>
    <nd ref="195290895"/>
    <nd ref="195290963"/>
    <nd ref="195290918"/>
    <tag k="highway" v="residential"/>
    <tag k="maxspeed" v="50"/>
    <tag k="maxspeed:source" v="default residential speed limit in Australia"/>
    <tag k="name" v="Lauterbach Drive"/>
  </way>
  <way id="18881221" version="4" timestamp="2012-01-15T19:30:10Z" uid="147510" user="woodpeck_fixbot" changeset="10400850">
    <nd ref="195264553"/>
    <nd ref="243654349"/>
    <nd ref="195290759"/>
    <nd ref="195290737"/>
    <nd ref="195290785"/>
    <nd ref="195290801"/>
    <nd ref="195290825"/>
    <nd ref="195290680"/>
    <nd ref="195290847"/>
    <nd ref="195290869"/>
    <nd ref="195290895"/>
    <nd ref="195290963"/>
    <nd ref="195290918"/>
    <tag k="highway" v="residential"/>
    <tag k="name" v="Lauterbach Drive"/>
  </way>
  <way id="18881224" version="3" timestamp="2010-07-09T08:09:50Z" uid="74617" user="JohnSmith" changeset="5171412">
    <nd ref="195290944"/>
    <nd ref="195290985"/>
    <nd ref="195290963"/>
    <tag k="highway" v="residential"/>
    <tag k="maxspeed" v="50"/>
    <tag k="maxspeed:source" v="default residential speed limit in Australia"/>
    <tag k="name" v="Lauterbach Drive"/>
  </way>
  <way id="18881224" version="4" timestamp="2012-01-15T19:30:12Z" uid="147510" user="woodpeck_fixbot" changeset="10400850">
    <nd ref="195290944"/>
    <nd ref="195290985"/>
    <nd ref="195290963"/>
    <tag k="highway" v="residential"/>
    <tag k="name" v="Lauterbach Drive"/>
  </way>
  <way id="18881227" version="3" timestamp="2010-07-09T08:06:09Z" uid="74617" user="JohnSmith" changeset="5171412">
    <nd ref="195290985"/>
    <nd ref="195291006"/>
    <nd ref="195291027"/>
    <nd ref="195291042"/>
    <nd ref="195291063"/>
    <tag k="highway" v="residential"/>
    <tag k="maxspeed" v="50"/>
    <tag k="maxspeed:source" v="default residential speed limit in Australia"/>
    <tag k="name" v="Howells Place"/>
  </way>
  <way id="18881227" version="4" timestamp="2012-01-15T19:30:13Z" uid="147510" user="woodpeck_fixbot" changeset="10400850">
    <nd ref="195290985"/>
    <nd ref="195291006"/>
    <nd ref="195291027"/>
    <nd ref="195291042"/>
    <nd ref="195291063"/>
    <tag k="highway" v="residential"/>
    <tag k="name" v="Howells Place"/>
  </way>
  <way id="18881230" version="5" timestamp="2010-05-08T00:49:09Z" uid="4467" user="Rosscoe" changeset="4635250">
    <nd ref="33401536"/>
    <nd ref="33401538"/>
    <nd ref="638900296"/>
    <nd ref="638900297"/>
    <nd ref="33018580"/>
    <tag k="highway" v="trunk"/>
    <tag k="name" v="Albany Highway"/>
    <tag k="ref" v="S30"/>
  </way>
  <way id="18881230" version="6" timestamp="2010-11-16T12:21:07Z" uid="294850" user="Q4004" changeset="6384616">
    <nd ref="33018580"/>
    <nd ref="638900297"/>
    <nd ref="638900296"/>
    <nd ref="33401538"/>
    <nd ref="33401536"/>
    <tag k="highway" v="trunk"/>
    <tag k="name" v="Albany Highway"/>
    <tag k="oneway" v="yes"/>
    <tag k="ref" v="S30"/>
  </way>
  <way id="18881238" version="5" timestamp="2008-07-07T02:43:36Z" uid="6975" user="ulfl" changeset="415781">
    <nd ref="33018573"/>
    <nd ref="195291296"/>
    <nd ref="195291208"/>
    <nd ref="195291229"/>
    <nd ref="195292290"/>
    <nd ref="195292392"/>
    <nd ref="195291249"/>
    <tag k="highway" v="minor"/>
    <tag k="name" v="George Street"/>
  </way>
  <way id="18881238" version="6" timestamp="2009-05-16T09:57:07Z" uid="16558" user="tiger" changeset="1208247">
    <nd ref="33018573"/>
    <nd ref="195291296"/>
    <nd ref="195291208"/>
    <nd ref="195291229"/>
    <nd ref="195292290"/>
    <nd ref="195292392"/>
    <nd ref="195291249"/>
    <tag k="highway" v="residential"/>
    <tag k="name" v="George Street"/>
  </way>
  <way id="18881238" version="7" timestamp="2009-05-24T02:50:57Z" uid="127777" user="RodCub" changeset="1301042">
    <nd ref="33018573"/>
    <nd ref="195291296"/>
    <nd ref="195291208"/>
    <nd ref="195291229"/>
    <nd ref="195292290"/>
    <nd ref="195292392"/>
    <nd ref="195291249"/>
    <nd ref="195366699"/>
    <tag k="highway" v="residential"/>
    <tag k="name" v="George Street"/>
  </way>
  <way id="18881238" version="8" timestamp="2010-02-23T10:05:29Z" uid="84853" user="mdp553" changeset="3951814">
    <nd ref="33018573"/>
    <nd ref="195291296"/>
    <nd ref="195291208"/>
    <nd ref="195291229"/>
    <nd ref="195292290"/>
    <nd ref="195292392"/>
    <nd ref="195291249"/>
    <tag k="highway" v="secondary"/>
    <tag k="name" v="George Street"/>
  </way>
  <way id="18881238" version="9" timestamp="2010-04-21T13:14:21Z" uid="4467" user="Rosscoe" changeset="4486342">
    <nd ref="33018573"/>
    <nd ref="195291296"/>
    <nd ref="195291208"/>
    <nd ref="195291229"/>
    <nd ref="195292290"/>
    <nd ref="195292392"/>
    <nd ref="703211499"/>
    <tag k="highway" v="secondary"/>
    <tag k="name" v="George Street"/>
  </way>
  <way id="18881238" version="10" timestamp="2010-05-18T01:42:52Z" uid="4467" user="Rosscoe" changeset="4734925">
    <nd ref="33018573"/>
    <nd ref="195291296"/>
    <nd ref="195291208"/>
    <nd ref="195291229"/>
    <nd ref="195292290"/>
    <nd ref="195292392"/>
    <nd ref="738186801"/>
    <nd ref="703211499"/>
    <tag k="highway" v="secondary"/>
    <tag k="name" v="George Street"/>
  </way>
  <way id="18881238" version="11" timestamp="2010-11-16T12:21:10Z" uid="294850" user="Q4004" changeset="6384616">
    <nd ref="33018573"/>
    <nd ref="991130935"/>
    <nd ref="195291296"/>
    <nd ref="195291208"/>
    <nd ref="195291229"/>
    <nd ref="195292290"/>
    <nd ref="195292392"/>
    <nd ref="738186801"/>
    <nd ref="703211499"/>
    <tag k="highway" v="secondary"/>
    <tag k="name" v="George Street"/>
  </way>
  <way id="18881240" version="3" timestamp="2010-07-09T08:02:00Z" uid="74617" user="JohnSmith" changeset="5171412">
    <nd ref="195291296"/>
    <nd ref="195291322"/>
    <nd ref="195291344"/>
    <nd ref="195291370"/>
    <nd ref="195291397"/>
    <tag k="highway" v="residential"/>
    <tag k="maxspeed" v="50"/>
    <tag k="maxspeed:source" v="default residential speed limit in Australia"/>
    <tag k="name" v="Risby Street"/>
  </way>
  <way id="18881240" version="4" timestamp="2012-01-15T19:30:14Z" uid="147510" user="woodpeck_fixbot" changeset="10400850">
    <nd ref="195291296"/>
    <nd ref="195291322"/>
    <nd ref="195291344"/>
    <nd ref="195291370"/>
    <nd ref="195291397"/>
    <tag k="highway" v="residential"/>
    <tag k="name" v="Risby Street"/>
  </way>
  <way id="18881242" version="3" timestamp="2010-07-09T07:56:02Z" uid="74617" user="JohnSmith" changeset="5171412">
    <nd ref="195291322"/>
    <nd ref="195291414"/>
    <tag k="highway" v="residential"/>
    <tag k="maxspeed" v="50"/>
    <tag k="maxspeed:source" v="default residential speed limit in Australia"/>
    <tag k="name" v="Blean Street"/>
  </way>
  <way id="18881242" version="4" timestamp="2012-01-15T19:30:15Z" uid="147510" user="woodpeck_fixbot" changeset="10400850">
    <nd ref="195291322"/>
    <nd ref="195291414"/>
    <tag k="highway" v="residential"/>
    <tag k="name" v="Blean Street"/>
  </way>
  <way id="18881245" version="5" timestamp="2010-07-09T08:03:07Z" uid="74617" user="JohnSmith" changeset="5171412">
    <nd ref="195291443"/>
    <nd ref="410402098"/>
    <nd ref="195291458"/>
    <nd ref="195291583"/>
    <nd ref="195291477"/>
    <nd ref="195291753"/>
    <nd ref="195291505"/>
    <nd ref="195291525"/>
    <tag k="highway" v="residential"/>
    <tag k="maxspeed" v="50"/>
    <tag k="maxspeed:source" v="default residential speed limit in Australia"/>
    <tag k="name" v="Lyminge Street"/>
  </way>
  <way id="18881245" version="6" timestamp="2012-01-15T19:30:16Z" uid="147510" user="woodpeck_fixbot" changeset="10400850">
    <nd ref="195291443"/>
    <nd ref="410402098"/>
    <nd ref="195291458"/>
    <nd ref="195291583"/>
    <nd ref="195291477"/>
    <nd ref="195291753"/>
    <nd ref="195291505"/>
    <nd ref="195291525"/>
    <tag k="highway" v="residential"/>
    <tag k="name" v="Lyminge Street"/>
  </way>
  <way id="18881250" version="3" timestamp="2010-07-09T08:00:29Z" uid="74617" user="JohnSmith" changeset="5171412">
    <nd ref="195291583"/>
    <nd ref="195291612"/>
    <nd ref="195291713"/>
    <nd ref="195291817"/>
    <nd ref="195291665"/>
    <nd ref="195291642"/>
    <tag k="highway" v="residential"/>
    <tag k="maxspeed" v="50"/>
    <tag k="maxspeed:source" v="default residential speed limit in Australia"/>
    <tag k="name" v="Orlestone Street"/>
  </way>
  <way id="18881250" version="4" timestamp="2012-01-15T19:30:19Z" uid="147510" user="woodpeck_fixbot" changeset="10400850">
    <nd ref="195291583"/>
    <nd ref="195291612"/>
    <nd ref="195291713"/>
    <nd ref="195291817"/>
    <nd ref="195291665"/>
    <nd ref="195291642"/>
    <tag k="highway" v="residential"/>
    <tag k="name" v="Orlestone Street"/>
  </way>
  <way id="18881252" version="5" timestamp="2010-05-18T01:42:53Z" uid="4467" user="Rosscoe" changeset="4734925">
    <nd ref="195291665"/>
    <nd ref="410402097"/>
    <tag k="highway" v="residential"/>
    <tag k="name" v="Lydd Street"/>
    <tag k="source" v="nearmap"/>
  </way>
  <way id="18881252" version="6" timestamp="2010-07-09T08:05:34Z" uid="74617" user="JohnSmith" changeset="5171412">
    <nd ref="195291665"/>
    <nd ref="410402097"/>
    <tag k="highway" v="residential"/>
    <tag k="maxspeed" v="50"/>
    <tag k="maxspeed:source" v="default residential speed limit in Australia"/>
    <tag k="name" v="Lydd Street"/>
    <tag k="source" v="nearmap"/>
  </way>
  <way id="18881252" version="7" timestamp="2012-01-15T19:30:20Z" uid="147510" user="woodpeck_fixbot" changeset="10400850">
    <nd ref="195291665"/>
    <nd ref="410402097"/>
    <tag k="highway" v="residential"/>
    <tag k="name" v="Lydd Street"/>
    <tag k="source" v="nearmap"/>
  </way>
  <way id="18881255" version="4" timestamp="2010-07-09T08:01:09Z" uid="74617" user="JohnSmith" changeset="5171412">
    <nd ref="195291713"/>
    <nd ref="410402096"/>
    <tag k="highway" v="residential"/>
    <tag k="maxspeed" v="50"/>
    <tag k="maxspeed:source" v="default residential speed limit in Australia"/>
    <tag k="name" v="Lyne Street"/>
  </way>
  <way id="18881255" version="5" timestamp="2012-01-15T19:30:23Z" uid="147510" user="woodpeck_fixbot" changeset="10400850">
    <nd ref="195291713"/>
    <nd ref="410402096"/>
    <tag k="highway" v="residential"/>
    <tag k="name" v="Lyne Street"/>
  </way>
  <way id="18881256" version="3" timestamp="2010-07-09T07:56:43Z" uid="74617" user="JohnSmith" changeset="5171412">
    <nd ref="195291753"/>
    <nd ref="195291777"/>
    <nd ref="195291838"/>
    <nd ref="195291564"/>
    <nd ref="195291802"/>
    <tag k="highway" v="residential"/>
    <tag k="maxspeed" v="50"/>
    <tag k="maxspeed:source" v="default residential speed limit in Australia"/>
    <tag k="name" v="Ospringe Street"/>
  </way>
  <way id="18881256" version="4" timestamp="2012-01-15T19:30:24Z" uid="147510" user="woodpeck_fixbot" changeset="10400850">
    <nd ref="195291753"/>
    <nd ref="195291777"/>
    <nd ref="195291838"/>
    <nd ref="195291564"/>
    <nd ref="195291802"/>
    <tag k="highway" v="residential"/>
    <tag k="name" v="Ospringe Street"/>
  </way>
  <way id="18881257" version="4" timestamp="2010-07-09T07:59:47Z" uid="74617" user="JohnSmith" changeset="5171412">
    <nd ref="195291817"/>
    <nd ref="195291838"/>
    <tag k="highway" v="residential"/>
    <tag k="maxspeed" v="50"/>
    <tag k="maxspeed:source" v="default residential speed limit in Australia"/>
    <tag k="name" v="Ryde Street"/>
  </way>
  <way id="18881257" version="5" timestamp="2012-01-15T19:30:27Z" uid="147510" user="woodpeck_fixbot" changeset="10400850">
    <nd ref="195291817"/>
    <nd ref="195291838"/>
    <tag k="highway" v="residential"/>
    <tag k="name" v="Ryde Street"/>
  </way>
  <way id="18881258" version="3" timestamp="2010-05-18T01:42:54Z" uid="4467" user="Rosscoe" changeset="4734925">
    <nd ref="195291857"/>
    <nd ref="195291881"/>
    <nd ref="195291908"/>
    <nd ref="195291929"/>
    <nd ref="738186802"/>
    <nd ref="195291857"/>
    <tag k="leisure" v="park"/>
  </way>
  <way id="18881262" version="7" timestamp="2010-04-21T13:14:23Z" uid="4467" user="Rosscoe" changeset="4486342">
    <nd ref="195366620"/>
    <nd ref="410402095"/>
    <nd ref="195291802"/>
    <nd ref="195366877"/>
    <nd ref="703211501"/>
    <tag k="highway" v="secondary"/>
    <tag k="name" v="King Street"/>
  </way>
  <way id="18881262" version="8" timestamp="2010-05-18T01:42:55Z" uid="4467" user="Rosscoe" changeset="4734925">
    <nd ref="195366620"/>
    <nd ref="410402095"/>
    <nd ref="195291802"/>
    <nd ref="195366877"/>
    <nd ref="703211501"/>
    <tag k="highway" v="secondary"/>
    <tag k="name" v="King Street"/>
    <tag k="source" v="nearmap"/>
  </way>
  <way id="18881262" version="9" timestamp="2010-10-17T08:53:04Z" uid="346429" user="Bluey" changeset="6064513">
    <nd ref="195366620"/>
    <nd ref="410402095"/>
    <nd ref="195291802"/>
    <nd ref="195366877"/>
    <nd ref="703211501"/>
    <tag k="cycleway" v="lane"/>
    <tag k="highway" v="secondary"/>
    <tag k="name" v="King Street"/>
    <tag k="source" v="nearmap"/>
  </way>
  <way id="18881264" version="3" timestamp="2010-07-09T08:00:52Z" uid="74617" user="JohnSmith" changeset="5171412">
    <nd ref="195292144"/>
    <nd ref="195292161"/>
    <nd ref="195292247"/>
    <nd ref="195292209"/>
    <nd ref="195292183"/>
    <tag k="highway" v="residential"/>
    <tag k="maxspeed" v="50"/>
    <tag k="maxspeed:source" v="default residential speed limit in Australia"/>
    <tag k="name" v="Eynesford Street"/>
  </way>
  <way id="18881264" version="4" timestamp="2012-01-15T19:30:28Z" uid="147510" user="woodpeck_fixbot" changeset="10400850">
    <nd ref="195292144"/>
    <nd ref="195292161"/>
    <nd ref="195292247"/>
    <nd ref="195292209"/>
    <nd ref="195292183"/>
    <tag k="highway" v="residential"/>
    <tag k="name" v="Eynesford Street"/>
  </way>
  <way id="18881266" version="3" timestamp="2010-07-09T07:54:36Z" uid="74617" user="JohnSmith" changeset="5171412">
    <nd ref="195292209"/>
    <nd ref="195292227"/>
    <tag k="highway" v="residential"/>
    <tag k="maxspeed" v="50"/>
    <tag k="maxspeed:source" v="default residential speed limit in Australia"/>
    <tag k="name" v="Alby Street"/>
  </way>
  <way id="18881266" version="4" timestamp="2012-01-15T19:30:31Z" uid="147510" user="woodpeck_fixbot" changeset="10400850">
    <nd ref="195292209"/>
    <nd ref="195292227"/>
    <tag k="highway" v="residential"/>
    <tag k="name" v="Alby Street"/>
  </way>
  <way id="18881267" version="3" timestamp="2010-02-15T05:08:39Z" uid="74617" user="JohnSmith" changeset="3880242">
    <nd ref="195292714"/>
    <nd ref="195293566"/>
    <tag k="highway" v="residential"/>
    <tag k="maxspeed" v="50"/>
    <tag k="name" v="Carroll Street"/>
  </way>
  <way id="18881267" version="4" timestamp="2012-01-15T19:30:32Z" uid="147510" user="woodpeck_fixbot" changeset="10400850">
    <nd ref="195292714"/>
    <nd ref="195293566"/>
    <tag k="highway" v="residential"/>
    <tag k="name" v="Carroll Street"/>
  </way>
  <way id="18881268" version="3" timestamp="2010-07-09T07:58:59Z" uid="74617" user="JohnSmith" changeset="5171412">
    <nd ref="195292247"/>
    <nd ref="195292263"/>
    <tag k="highway" v="residential"/>
    <tag k="maxspeed" v="50"/>
    <tag k="maxspeed:source" v="default residential speed limit in Australia"/>
    <tag k="name" v="Brome Street"/>
  </way>
  <way id="18881268" version="4" timestamp="2012-01-15T19:30:33Z" uid="147510" user="woodpeck_fixbot" changeset="10400850">
    <nd ref="195292247"/>
    <nd ref="195292263"/>
    <tag k="highway" v="residential"/>
    <tag k="name" v="Brome Street"/>
  </way>
  <way id="18881269" version="3" timestamp="2010-07-09T08:01:39Z" uid="74617" user="JohnSmith" changeset="5171412">
    <nd ref="195292290"/>
    <nd ref="195292311"/>
    <nd ref="195292429"/>
    <nd ref="195292347"/>
    <nd ref="195292376"/>
    <tag k="highway" v="residential"/>
    <tag k="maxspeed" v="50"/>
    <tag k="maxspeed:source" v="default residential speed limit in Australia"/>
    <tag k="name" v="Cheisfield Street"/>
  </way>
  <way id="18881269" version="4" timestamp="2012-01-15T19:30:34Z" uid="147510" user="woodpeck_fixbot" changeset="10400850">
    <nd ref="195292290"/>
    <nd ref="195292311"/>
    <nd ref="195292429"/>
    <nd ref="195292347"/>
    <nd ref="195292376"/>
    <tag k="highway" v="residential"/>
    <tag k="name" v="Cheisfield Street"/>
  </way>
  <way id="18881271" version="3" timestamp="2010-07-09T07:55:37Z" uid="74617" user="JohnSmith" changeset="5171412">
    <nd ref="195292392"/>
    <nd ref="195292447"/>
    <nd ref="195292405"/>
    <nd ref="195292429"/>
    <tag k="highway" v="residential"/>
    <tag k="maxspeed" v="50"/>
    <tag k="maxspeed:source" v="default residential speed limit in Australia"/>
    <tag k="name" v="Teigh Street"/>
  </way>
  <way id="18881271" version="4" timestamp="2012-01-15T19:30:35Z" uid="147510" user="woodpeck_fixbot" changeset="10400850">
    <nd ref="195292392"/>
    <nd ref="195292447"/>
    <nd ref="195292405"/>
    <nd ref="195292429"/>
    <tag k="highway" v="residential"/>
    <tag k="name" v="Teigh Street"/>
  </way>
  <way id="18881272" version="3" timestamp="2010-07-09T08:07:02Z" uid="74617" user="JohnSmith" changeset="5171412">
    <nd ref="195292447"/>
    <nd ref="195292470"/>
    <tag k="highway" v="residential"/>
    <tag k="maxspeed" v="50"/>
    <tag k="maxspeed:source" v="default residential speed limit in Australia"/>
    <tag k="name" v="Drilby Way"/>
  </way>
  <way id="18881272" version="4" timestamp="2012-01-15T19:30:36Z" uid="147510" user="woodpeck_fixbot" changeset="10400850">
    <nd ref="195292447"/>
    <nd ref="195292470"/>
    <tag k="highway" v="residential"/>
    <tag k="name" v="Drilby Way"/>
  </way>
  <way id="18881274" version="9" timestamp="2010-04-21T13:14:22Z" uid="4467" user="Rosscoe" changeset="4486342">
    <nd ref="195292654"/>
    <nd ref="410400314"/>
    <nd ref="410400310"/>
    <nd ref="195292950"/>
    <nd ref="195292751"/>
    <nd ref="703211523"/>
    <tag k="highway" v="tertiary"/>
    <tag k="name" v="Terence Street"/>
  </way>
  <way id="18881276" version="5" timestamp="2010-07-09T08:03:26Z" uid="74617" user="JohnSmith" changeset="5171412">
    <nd ref="195292721"/>
    <nd ref="410400733"/>
    <nd ref="195292751"/>
    <nd ref="195292894"/>
    <nd ref="195292853"/>
    <nd ref="195292769"/>
    <tag k="highway" v="residential"/>
    <tag k="maxspeed" v="50"/>
    <tag k="maxspeed:source" v="default residential speed limit in Australia"/>
    <tag k="name" v="Walter Street"/>
  </way>
  <way id="18881276" version="6" timestamp="2012-01-15T19:30:43Z" uid="147510" user="woodpeck_fixbot" changeset="10400850">
    <nd ref="195292721"/>
    <nd ref="410400733"/>
    <nd ref="195292751"/>
    <nd ref="195292894"/>
    <nd ref="195292853"/>
    <nd ref="195292769"/>
    <tag k="highway" v="residential"/>
    <tag k="name" v="Walter Street"/>
  </way>
  <way id="18881278" version="5" timestamp="2010-07-09T07:57:13Z" uid="74617" user="JohnSmith" changeset="5171412">
    <nd ref="195292894"/>
    <nd ref="195292923"/>
    <tag k="highway" v="residential"/>
    <tag k="maxspeed" v="50"/>
    <tag k="maxspeed:source" v="default residential speed limit in Australia"/>
    <tag k="name" v="Chilham Place"/>
  </way>
  <way id="18881278" version="6" timestamp="2012-01-15T19:30:44Z" uid="147510" user="woodpeck_fixbot" changeset="10400850">
    <nd ref="195292894"/>
    <nd ref="195292923"/>
    <tag k="highway" v="residential"/>
    <tag k="name" v="Chilham Place"/>
  </way>
  <way id="18881281" version="5" timestamp="2010-07-09T07:53:53Z" uid="74617" user="JohnSmith" changeset="5171412">
    <nd ref="195293003"/>
    <nd ref="195293031"/>
    <tag k="highway" v="residential"/>
    <tag k="maxspeed" v="50"/>
    <tag k="maxspeed:source" v="default residential speed limit in Australia"/>
    <tag k="name" v="Wyton Place"/>
  </way>
  <way id="18881281" version="6" timestamp="2012-01-15T19:30:45Z" uid="147510" user="woodpeck_fixbot" changeset="10400850">
    <nd ref="195293003"/>
    <nd ref="195293031"/>
    <tag k="highway" v="residential"/>
    <tag k="name" v="Wyton Place"/>
  </way>
  <way id="18881284" version="5" timestamp="2010-07-09T08:03:48Z" uid="74617" user="JohnSmith" changeset="5171412">
    <nd ref="195293113"/>
    <nd ref="195293130"/>
    <tag k="highway" v="residential"/>
    <tag k="maxspeed" v="50"/>
    <tag k="maxspeed:source" v="default residential speed limit in Australia"/>
    <tag k="name" v="Webb Street"/>
  </way>
  <way id="18881284" version="6" timestamp="2012-01-15T19:30:46Z" uid="147510" user="woodpeck_fixbot" changeset="10400850">
    <nd ref="195293113"/>
    <nd ref="195293130"/>
    <tag k="highway" v="residential"/>
    <tag k="name" v="Webb Street"/>
  </way>
  <way id="18881287" version="7" timestamp="2010-04-21T13:14:23Z" uid="4467" user="Rosscoe" changeset="4486342">
    <nd ref="195293153"/>
    <nd ref="195366683"/>
    <nd ref="195367314"/>
    <nd ref="703211495"/>
    <tag k="highway" v="secondary"/>
    <tag k="name" v="Eudoria Street"/>
  </way>
  <way id="18881287" version="8" timestamp="2010-05-18T02:07:05Z" uid="4467" user="Rosscoe" changeset="4734953">
    <nd ref="195293153"/>
    <nd ref="195366683"/>
    <nd ref="195367314"/>
    <nd ref="738187699"/>
    <nd ref="703211495"/>
    <tag k="highway" v="secondary"/>
    <tag k="name" v="Eudoria Street"/>
    <tag k="oneway" v="yes"/>
    <tag k="source" v="nearmap"/>
  </way>
  <way id="18881287" version="9" timestamp="2010-10-17T08:53:07Z" uid="346429" user="Bluey" changeset="6064513">
    <nd ref="195293153"/>
    <nd ref="195366683"/>
    <nd ref="195367314"/>
    <nd ref="738187699"/>
    <nd ref="703211495"/>
    <tag k="cycleway" v="lane"/>
    <tag k="highway" v="secondary"/>
    <tag k="name" v="Eudoria Street"/>
    <tag k="oneway" v="yes"/>
    <tag k="source" v="nearmap"/>
  </way>
  <way id="18881290" version="8" timestamp="2010-04-21T13:14:24Z" uid="4467" user="Rosscoe" changeset="4486342">
    <nd ref="195293222"/>
    <nd ref="195366163"/>
    <nd ref="703211518"/>
    <tag k="highway" v="secondary"/>
    <tag k="name" v="Stalker Road"/>
  </way>
  <way id="18881341" version="3" timestamp="2009-08-04T06:53:06Z" uid="4467" user="Rosscoe" changeset="2032490"/>
  <way id="18881357" version="4" timestamp="2010-02-15T05:08:54Z" uid="74617" user="JohnSmith" changeset="3880242">
    <nd ref="195286838"/>
    <nd ref="195296432"/>
    <tag k="highway" v="residential"/>
    <tag k="maxspeed" v="50"/>
    <tag k="name" v="Ward Street"/>
    <tag k="oneway" v="yes"/>
  </way>
  <way id="18881357" version="5" timestamp="2012-01-15T19:30:50Z" uid="147510" user="woodpeck_fixbot" changeset="10400850">
    <nd ref="195286838"/>
    <nd ref="195296432"/>
    <tag k="highway" v="residential"/>
    <tag k="name" v="Ward Street"/>
    <tag k="oneway" v="yes"/>
  </way>
  <way id="18881692" version="10" timestamp="2009-04-04T22:56:39Z" uid="36809" user="pfoten_weg_!_" changeset="196576">
    <nd ref="157242413"/>
    <nd ref="156705600"/>
    <nd ref="195401713"/>
    <nd ref="156705602"/>
    <nd ref="156705603"/>
    <nd ref="195307799"/>
    <nd ref="195401927"/>
    <nd ref="195401928"/>
    <nd ref="156705605"/>
    <nd ref="157247449"/>
    <nd ref="156705606"/>
    <nd ref="157247236"/>
    <nd ref="157265197"/>
    <nd ref="157248513"/>
    <nd ref="156705607"/>
    <tag k="created_by" v="RambaZamba"/>
    <tag k="highway" v="tertiary"/>
    <tag k="maxspeed" v="30"/>
    <tag k="name" v="Neurieder Straße"/>
    <tag k="source" v="survey"/>
  </way>
  <way id="18881692" version="11" timestamp="2009-04-05T15:38:40Z" uid="7596" user="ck3d" changeset="213398">
    <nd ref="157242413"/>
    <nd ref="156705600"/>
    <nd ref="195401713"/>
    <nd ref="156705602"/>
    <nd ref="156705603"/>
    <nd ref="195307799"/>
    <nd ref="195401927"/>
    <nd ref="195401928"/>
    <nd ref="156705605"/>
    <nd ref="157247449"/>
    <nd ref="156705606"/>
    <nd ref="157247236"/>
    <nd ref="157265197"/>
    <nd ref="157248513"/>
    <nd ref="156705607"/>
    <tag k="created_by" v="RambaZamba"/>
    <tag k="highway" v="unclassified"/>
    <tag k="maxspeed" v="30"/>
    <tag k="name" v="Neurieder Straße"/>
    <tag k="source" v="survey"/>
  </way>
  <way id="18881692" version="12" timestamp="2009-05-10T18:52:51Z" uid="64536" user="Michael Forster" changeset="1143738">
    <nd ref="157242413"/>
    <nd ref="156705600"/>
    <nd ref="195401713"/>
    <nd ref="156705602"/>
    <nd ref="156705603"/>
    <nd ref="195307799"/>
    <nd ref="195401927"/>
    <nd ref="195401928"/>
    <nd ref="156705605"/>
    <nd ref="157247449"/>
    <nd ref="156705606"/>
    <nd ref="157247236"/>
    <nd ref="157265197"/>
    <nd ref="157248513"/>
    <tag k="created_by" v="RambaZamba"/>
    <tag k="highway" v="unclassified"/>
    <tag k="maxspeed" v="30"/>
    <tag k="name" v="Neurieder Straße"/>
    <tag k="source" v="survey"/>
  </way>
  <way id="18881692" version="13" timestamp="2009-05-10T18:53:31Z" uid="64536" user="Michael Forster" changeset="1143752">
    <nd ref="157242413"/>
    <nd ref="156705600"/>
    <nd ref="195401713"/>
    <nd ref="156705602"/>
    <nd ref="156705603"/>
    <nd ref="195307799"/>
    <nd ref="195401927"/>
    <nd ref="195401928"/>
    <nd ref="156705605"/>
    <nd ref="157247449"/>
    <nd ref="156705606"/>
    <nd ref="157247236"/>
    <nd ref="157265197"/>
    <tag k="created_by" v="RambaZamba"/>
    <tag k="highway" v="unclassified"/>
    <tag k="maxspeed" v="30"/>
    <tag k="name" v="Neurieder Straße"/>
    <tag k="source" v="survey"/>
  </way>
  <way id="18881692" version="14" timestamp="2009-08-28T19:53:53Z" uid="156995" user="HampelZamba" changeset="2294580">
    <nd ref="157242413"/>
    <nd ref="156705600"/>
    <nd ref="195401713"/>
    <nd ref="156705602"/>
    <nd ref="156705603"/>
    <nd ref="195307799"/>
    <nd ref="195401927"/>
    <nd ref="195401928"/>
    <nd ref="156705605"/>
    <nd ref="157247449"/>
    <nd ref="156705606"/>
    <nd ref="157247236"/>
    <nd ref="157265197"/>
    <tag k="highway" v="unclassified"/>
    <tag k="maxspeed" v="30"/>
    <tag k="name" v="Neurieder Straße"/>
    <tag k="source" v="survey"/>
  </way>
  <way id="18881692" version="15" timestamp="2009-08-28T21:07:54Z" uid="36809" user="pfoten_weg_!_" changeset="2295155">
    <nd ref="157242413"/>
    <nd ref="156705600"/>
    <nd ref="195401713"/>
    <nd ref="156705602"/>
    <nd ref="156705603"/>
    <nd ref="195307799"/>
    <nd ref="195401927"/>
    <nd ref="195401928"/>
    <nd ref="156705605"/>
    <nd ref="157247449"/>
    <nd ref="156705606"/>
    <nd ref="157247236"/>
    <nd ref="157265197"/>
    <tag k="discovered_by" v="RambaZamba"/>
    <tag k="highway" v="unclassified"/>
    <tag k="maxspeed" v="30"/>
    <tag k="name" v="Neurieder Straße"/>
    <tag k="source" v="survey"/>
  </way>
  <way id="18881692" version="16" timestamp="2009-08-30T09:21:08Z" uid="156995" user="HampelZamba" changeset="2310659">
    <nd ref="157242413"/>
    <nd ref="156705600"/>
    <nd ref="195401713"/>
    <nd ref="156705602"/>
    <nd ref="156705603"/>
    <nd ref="195307799"/>
    <nd ref="195401927"/>
    <nd ref="195401928"/>
    <nd ref="156705605"/>
    <nd ref="157247449"/>
    <nd ref="156705606"/>
    <nd ref="157247236"/>
    <nd ref="157265197"/>
    <tag k="highway" v="unclassified"/>
    <tag k="maxspeed" v="30"/>
    <tag k="name" v="Neurieder Straße"/>
    <tag k="source" v="survey"/>
  </way>
  <way id="18881692" version="17" timestamp="2009-08-31T17:46:06Z" uid="36809" user="pfoten_weg_!_" changeset="2328905">
    <nd ref="157242413"/>
    <nd ref="156705600"/>
    <nd ref="195401713"/>
    <nd ref="156705602"/>
    <nd ref="156705603"/>
    <nd ref="195307799"/>
    <nd ref="195401927"/>
    <nd ref="195401928"/>
    <nd ref="156705605"/>
    <nd ref="157247449"/>
    <nd ref="156705606"/>
    <nd ref="157247236"/>
    <nd ref="157265197"/>
    <tag k="highway" v="unclassified"/>
    <tag k="maxspeed" v="30"/>
    <tag k="name" v="Neurieder Straße"/>
    <tag k="source" v="survey"/>
  </way>
  <way id="18881692" version="18" timestamp="2009-10-12T22:05:31Z" uid="36809" user="pfoten_weg_!_" changeset="2831291">
    <nd ref="157242413"/>
    <nd ref="156705600"/>
    <nd ref="195401713"/>
    <nd ref="156705602"/>
    <nd ref="156705603"/>
    <nd ref="195307799"/>
    <nd ref="195401927"/>
    <nd ref="195401928"/>
    <nd ref="156705605"/>
    <nd ref="157247449"/>
    <nd ref="156705606"/>
    <nd ref="157247236"/>
    <nd ref="157265197"/>
    <tag k="highway" v="unclassified"/>
    <tag k="maxspeed" v="30"/>
    <tag k="name" v="Neurieder Straße"/>
  </way>
  <way id="18881692" version="19" timestamp="2010-12-26T20:51:08Z" uid="72719" user="metaroll" changeset="6772064">
    <nd ref="157242413"/>
    <nd ref="156705600"/>
    <nd ref="195401713"/>
    <nd ref="156705602"/>
    <nd ref="156705603"/>
    <nd ref="195307799"/>
    <nd ref="195401927"/>
    <nd ref="195401928"/>
    <nd ref="156705605"/>
    <nd ref="157247449"/>
    <nd ref="156705606"/>
    <nd ref="157247236"/>
    <nd ref="157265197"/>
    <tag k="highway" v="tertiary"/>
    <tag k="maxspeed" v="30"/>
    <tag k="name" v="Neurieder Straße"/>
  </way>
  <way id="18881692" version="20" timestamp="2011-06-16T06:00:03Z" uid="137711" user="avus" changeset="8453132">
    <nd ref="157242413"/>
    <nd ref="156705600"/>
    <nd ref="195401713"/>
    <nd ref="156705602"/>
    <nd ref="156705603"/>
    <nd ref="195307799"/>
    <nd ref="195401927"/>
    <nd ref="195401928"/>
    <nd ref="156705605"/>
    <nd ref="157247449"/>
    <nd ref="156705606"/>
    <nd ref="157247236"/>
    <nd ref="157265197"/>
    <tag k="highway" v="unclassified"/>
    <tag k="maxspeed" v="30"/>
    <tag k="name" v="Neurieder Straße"/>
  </way>
  <way id="18881692" version="21" timestamp="2011-06-29T15:32:24Z" uid="42393" user="mawi42" changeset="8582032">
    <nd ref="157242413"/>
    <nd ref="156705600"/>
    <nd ref="195401713"/>
    <nd ref="156705602"/>
    <nd ref="156705603"/>
    <nd ref="195307799"/>
    <nd ref="195401927"/>
    <nd ref="195401928"/>
    <nd ref="1343356179"/>
    <nd ref="156705605"/>
    <nd ref="1343356148"/>
    <nd ref="157247449"/>
    <nd ref="156705606"/>
    <nd ref="157247236"/>
    <nd ref="157265197"/>
    <tag k="highway" v="unclassified"/>
    <tag k="maxspeed" v="30"/>
    <tag k="name" v="Neurieder Straße"/>
  </way>
  <way id="18881692" version="22" timestamp="2011-06-29T19:18:03Z" uid="42393" user="mawi42" changeset="8583990">
    <nd ref="157242413"/>
    <nd ref="156705600"/>
    <nd ref="195401713"/>
    <nd ref="156705602"/>
    <nd ref="156705603"/>
    <nd ref="195307799"/>
    <nd ref="195401927"/>
    <nd ref="195401928"/>
    <nd ref="1343356179"/>
    <nd ref="156705605"/>
    <nd ref="1343356148"/>
    <nd ref="157247449"/>
    <nd ref="156705606"/>
    <nd ref="157247236"/>
    <nd ref="1343664180"/>
    <nd ref="1343664182"/>
    <nd ref="157265197"/>
    <tag k="highway" v="unclassified"/>
    <tag k="maxspeed" v="30"/>
    <tag k="name" v="Neurieder Straße"/>
  </way>
  <way id="18881692" version="23" timestamp="2011-09-15T19:22:45Z" uid="522630" user="delphinauge" changeset="9310810">
    <nd ref="157242413"/>
    <nd ref="156705600"/>
    <nd ref="195401713"/>
    <nd ref="156705602"/>
    <nd ref="156705603"/>
    <nd ref="195307799"/>
    <nd ref="195401927"/>
    <nd ref="195401928"/>
    <nd ref="1343356179"/>
    <nd ref="156705605"/>
    <nd ref="1343356148"/>
    <nd ref="157247449"/>
    <nd ref="156705606"/>
    <nd ref="157247236"/>
    <nd ref="1343664180"/>
    <nd ref="1343664182"/>
    <nd ref="157265197"/>
    <tag k="bicycle" v="yes"/>
    <tag k="highway" v="unclassified"/>
    <tag k="maxspeed" v="30"/>
    <tag k="name" v="Neurieder Straße"/>
  </way>
  <way id="18881692" version="24" timestamp="2012-03-07T16:30:48Z" uid="42393" user="mawi42" changeset="10901368">
    <nd ref="157242413"/>
    <nd ref="156705600"/>
    <nd ref="1664544063"/>
    <nd ref="195401713"/>
    <nd ref="156705602"/>
    <nd ref="156705603"/>
    <nd ref="195307799"/>
    <nd ref="195401927"/>
    <nd ref="195401928"/>
    <nd ref="1343356179"/>
    <nd ref="156705605"/>
    <nd ref="1343356148"/>
    <nd ref="157247449"/>
    <nd ref="156705606"/>
    <nd ref="157247236"/>
    <nd ref="1343664180"/>
    <nd ref="1343664182"/>
    <nd ref="157265197"/>
    <tag k="bicycle" v="yes"/>
    <tag k="highway" v="unclassified"/>
    <tag k="maxspeed" v="30"/>
    <tag k="name" v="Neurieder Straße"/>
  </way>
  <way id="18881692" version="25" timestamp="2012-03-07T17:09:35Z" uid="42393" user="mawi42" changeset="10901684">
    <nd ref="157242413"/>
    <nd ref="156705600"/>
    <nd ref="1664544063"/>
    <nd ref="195401713"/>
    <nd ref="156705602"/>
    <nd ref="156705603"/>
    <nd ref="195307799"/>
    <nd ref="195401927"/>
    <nd ref="195401928"/>
    <nd ref="1343356179"/>
    <nd ref="156705605"/>
    <nd ref="1343356148"/>
    <nd ref="157247449"/>
    <nd ref="156705606"/>
    <nd ref="1664608302"/>
    <nd ref="157247236"/>
    <nd ref="1343664180"/>
    <nd ref="1343664182"/>
    <nd ref="157265197"/>
    <tag k="bicycle" v="yes"/>
    <tag k="highway" v="unclassified"/>
    <tag k="maxspeed" v="30"/>
    <tag k="name" v="Neurieder Straße"/>
  </way>
  <way id="18881853" version="7" timestamp="2010-07-09T06:19:39Z" uid="74617" user="JohnSmith" changeset="5171134">
    <nd ref="195306711"/>
    <nd ref="280221489"/>
    <nd ref="251730564"/>
    <nd ref="251730569"/>
    <nd ref="195306731"/>
    <nd ref="311303703"/>
    <nd ref="195306781"/>
    <nd ref="311303717"/>
    <nd ref="195306744"/>
    <nd ref="195306805"/>
    <nd ref="311303718"/>
    <nd ref="195306760"/>
    <tag k="highway" v="residential"/>
    <tag k="maxspeed" v="50"/>
    <tag k="maxspeed:source" v="default residential speed limit in Australia"/>
    <tag k="name" v="Highgate Street"/>
  </way>
  <way id="18881853" version="8" timestamp="2010-07-26T04:10:19Z" uid="171576" user="Conquest" changeset="5318124">
    <nd ref="195306711"/>
    <nd ref="280221489"/>
    <nd ref="251730564"/>
    <nd ref="833659888"/>
    <nd ref="251730569"/>
    <nd ref="195306731"/>
    <nd ref="311303703"/>
    <nd ref="195306781"/>
    <nd ref="311303717"/>
    <nd ref="195306744"/>
    <nd ref="195306805"/>
    <nd ref="311303718"/>
    <nd ref="195306760"/>
    <tag k="highway" v="residential"/>
    <tag k="maxspeed" v="50"/>
    <tag k="maxspeed:source" v="default residential speed limit in Australia"/>
    <tag k="name" v="Highgate Street"/>
  </way>
  <way id="18881853" version="9" timestamp="2010-07-26T04:16:37Z" uid="171576" user="Conquest" changeset="5318124">
    <nd ref="195306711"/>
    <nd ref="280221489"/>
    <nd ref="833659888"/>
    <nd ref="251730569"/>
    <nd ref="195306731"/>
    <nd ref="311303703"/>
    <nd ref="195306781"/>
    <nd ref="311303717"/>
    <nd ref="195306744"/>
    <nd ref="195306805"/>
    <nd ref="311303718"/>
    <nd ref="195306760"/>
    <tag k="highway" v="residential"/>
    <tag k="maxspeed" v="50"/>
    <tag k="maxspeed:source" v="default residential speed limit in Australia"/>
    <tag k="name" v="Highgate Street"/>
  </way>
  <way id="18881853" version="10" timestamp="2010-07-26T04:19:08Z" uid="171576" user="Conquest" changeset="5318124">
    <nd ref="195306711"/>
    <nd ref="280221489"/>
    <nd ref="833660205"/>
    <nd ref="833659888"/>
    <nd ref="251730569"/>
    <nd ref="195306731"/>
    <nd ref="311303703"/>
    <nd ref="195306781"/>
    <nd ref="311303717"/>
    <nd ref="195306744"/>
    <nd ref="195306805"/>
    <nd ref="311303718"/>
    <nd ref="195306760"/>
    <tag k="highway" v="residential"/>
    <tag k="maxspeed" v="50"/>
    <tag k="maxspeed:source" v="default residential speed limit in Australia"/>
    <tag k="name" v="Highgate Street"/>
  </way>
  <way id="18881853" version="11" timestamp="2010-07-26T04:29:19Z" uid="171576" user="Conquest" changeset="5318124">
    <nd ref="195306711"/>
    <nd ref="833660205"/>
    <nd ref="833659888"/>
    <nd ref="251730569"/>
    <nd ref="195306731"/>
    <nd ref="311303703"/>
    <nd ref="195306781"/>
    <nd ref="311303717"/>
    <nd ref="195306744"/>
    <nd ref="195306805"/>
    <nd ref="311303718"/>
    <nd ref="195306760"/>
    <tag k="highway" v="residential"/>
    <tag k="maxspeed" v="50"/>
    <tag k="maxspeed:source" v="default residential speed limit in Australia"/>
    <tag k="name" v="Highgate Street"/>
  </way>
  <way id="18881853" version="12" timestamp="2010-07-26T04:29:54Z" uid="171576" user="Conquest" changeset="5318124">
    <nd ref="195306711"/>
    <nd ref="833660205"/>
    <nd ref="833659888"/>
    <nd ref="251730569"/>
    <nd ref="311303703"/>
    <nd ref="195306781"/>
    <nd ref="311303717"/>
    <nd ref="195306805"/>
    <nd ref="311303718"/>
    <nd ref="195306760"/>
    <tag k="highway" v="residential"/>
    <tag k="maxspeed" v="50"/>
    <tag k="maxspeed:source" v="default residential speed limit in Australia"/>
    <tag k="name" v="Highgate Street"/>
  </way>
  <way id="18881853" version="13" timestamp="2010-07-26T06:06:13Z" uid="4467" user="Rosscoe" changeset="5318371">
    <nd ref="195306711"/>
    <nd ref="833660205"/>
    <nd ref="833659888"/>
    <nd ref="251730569"/>
    <nd ref="311303703"/>
    <nd ref="195306781"/>
    <nd ref="311303717"/>
    <nd ref="833667783"/>
    <tag k="highway" v="residential"/>
    <tag k="maxspeed" v="50"/>
    <tag k="maxspeed:source" v="default residential speed limit in Australia"/>
    <tag k="name" v="Highgate Street"/>
  </way>
  <way id="18881853" version="14" timestamp="2011-08-01T10:48:58Z" uid="428465" user="markinspace" changeset="8889307">
    <nd ref="195306711"/>
    <nd ref="833660205"/>
    <nd ref="833659888"/>
    <nd ref="251730569"/>
    <nd ref="311303703"/>
    <nd ref="195306781"/>
    <nd ref="311303717"/>
    <nd ref="833667783"/>
    <tag k="highway" v="residential"/>
    <tag k="maxspeed" v="40"/>
    <tag k="maxspeed:source" v="default residential speed limit in Australia"/>
    <tag k="name" v="Highgate Street"/>
  </way>
  <way id="18881853" version="15" timestamp="2012-01-15T19:30:53Z" uid="147510" user="woodpeck_fixbot" changeset="10400850">
    <nd ref="195306711"/>
    <nd ref="833660205"/>
    <nd ref="833659888"/>
    <nd ref="251730569"/>
    <nd ref="311303703"/>
    <nd ref="195306781"/>
    <nd ref="311303717"/>
    <nd ref="833667783"/>
    <tag k="highway" v="residential"/>
    <tag k="name" v="Highgate Street"/>
  </way>
  <way id="18881856" version="2" timestamp="2010-07-09T06:19:42Z" uid="74617" user="JohnSmith" changeset="5171134">
    <nd ref="195306688"/>
    <nd ref="195306781"/>
    <tag k="highway" v="residential"/>
    <tag k="maxspeed" v="50"/>
    <tag k="maxspeed:source" v="default residential speed limit in Australia"/>
    <tag k="name" v="Invergowrie Avenue"/>
  </way>
  <way id="18881856" version="3" timestamp="2011-08-02T00:51:53Z" uid="428465" user="markinspace" changeset="8896714">
    <nd ref="195306688"/>
    <nd ref="195306781"/>
    <tag k="highway" v="residential"/>
    <tag k="maxspeed" v="40"/>
    <tag k="maxspeed:source" v="default residential speed limit in Australia"/>
    <tag k="name" v="Invergowrie Avenue"/>
  </way>
  <way id="18881856" version="4" timestamp="2012-01-15T19:30:54Z" uid="147510" user="woodpeck_fixbot" changeset="10400850">
    <nd ref="195306688"/>
    <nd ref="195306781"/>
    <tag k="highway" v="residential"/>
    <tag k="name" v="Invergowrie Avenue"/>
  </way>
  <way id="18881858" version="4" timestamp="2010-07-26T06:06:11Z" uid="4467" user="Rosscoe" changeset="5318371">
    <nd ref="833667788"/>
    <nd ref="195306847"/>
    <nd ref="195306825"/>
    <tag k="highway" v="residential"/>
    <tag k="maxspeed" v="40"/>
    <tag k="name" v="Avenue Road"/>
    <tag k="source" v="survey"/>
    <tag k="source_ref:name" v="http://osm.beldin.org/2009/05/DSCF9674.JPG"/>
  </way>
  <way id="18881861" version="3" timestamp="2010-07-09T06:21:50Z" uid="74617" user="JohnSmith" changeset="5171134">
    <nd ref="195306847"/>
    <nd ref="311302695"/>
    <nd ref="195306861"/>
    <tag k="highway" v="residential"/>
    <tag k="maxspeed" v="50"/>
    <tag k="maxspeed:source" v="default residential speed limit in Australia"/>
    <tag k="name" v="Hampstead Avenue"/>
  </way>
  <way id="18881861" version="4" timestamp="2010-07-26T04:13:01Z" uid="171576" user="Conquest" changeset="5318124">
    <nd ref="195306847"/>
    <nd ref="833660062"/>
    <nd ref="311302695"/>
    <nd ref="195306861"/>
    <tag k="highway" v="residential"/>
    <tag k="maxspeed" v="50"/>
    <tag k="maxspeed:source" v="default residential speed limit in Australia"/>
    <tag k="name" v="Hampstead Avenue"/>
  </way>
  <way id="18881861" version="5" timestamp="2011-05-05T09:03:44Z" uid="21143" user="hryciuk" changeset="8055661">
    <nd ref="195306847"/>
    <nd ref="833660062"/>
    <nd ref="311302695"/>
    <nd ref="1272902473"/>
    <tag k="highway" v="residential"/>
    <tag k="maxspeed" v="50"/>
    <tag k="maxspeed:source" v="default residential speed limit in Australia"/>
    <tag k="name" v="Hampstead Avenue"/>
  </way>
  <way id="18881861" version="6" timestamp="2011-08-02T00:51:53Z" uid="428465" user="markinspace" changeset="8896714">
    <nd ref="195306847"/>
    <nd ref="833660062"/>
    <nd ref="311302695"/>
    <nd ref="1272902473"/>
    <tag k="highway" v="residential"/>
    <tag k="maxspeed" v="40"/>
    <tag k="maxspeed:source" v="default residential speed limit in Australia"/>
    <tag k="name" v="Hampstead Avenue"/>
  </way>
  <way id="18881861" version="7" timestamp="2012-01-15T19:30:55Z" uid="147510" user="woodpeck_fixbot" changeset="10400850">
    <nd ref="195306847"/>
    <nd ref="833660062"/>
    <nd ref="311302695"/>
    <nd ref="1272902473"/>
    <tag k="highway" v="residential"/>
    <tag k="name" v="Hampstead Avenue"/>
  </way>
  <way id="18881897" version="2" timestamp="2009-04-04T22:55:47Z" uid="36809" user="pfoten_weg_!_" changeset="196576">
    <nd ref="195307791"/>
    <nd ref="195307793"/>
    <nd ref="195307794"/>
    <nd ref="195307795"/>
    <nd ref="195307796"/>
    <nd ref="195307797"/>
    <nd ref="195307798"/>
    <nd ref="195307799"/>
    <tag k="created_by" v="RambaZamba"/>
    <tag k="highway" v="service"/>
    <tag k="source" v="survey"/>
  </way>
  <way id="18881897" version="3" timestamp="2009-08-28T19:53:53Z" uid="156995" user="HampelZamba" changeset="2294580">
    <nd ref="195307791"/>
    <nd ref="195307793"/>
    <nd ref="195307794"/>
    <nd ref="195307795"/>
    <nd ref="195307796"/>
    <nd ref="195307797"/>
    <nd ref="195307798"/>
    <nd ref="195307799"/>
    <tag k="highway" v="service"/>
    <tag k="source" v="survey"/>
  </way>
  <way id="18881897" version="4" timestamp="2009-08-28T21:06:16Z" uid="36809" user="pfoten_weg_!_" changeset="2295155">
    <nd ref="195307791"/>
    <nd ref="195307793"/>
    <nd ref="195307794"/>
    <nd ref="195307795"/>
    <nd ref="195307796"/>
    <nd ref="195307797"/>
    <nd ref="195307798"/>
    <nd ref="195307799"/>
    <tag k="discovered_by" v="RambaZamba"/>
    <tag k="highway" v="service"/>
    <tag k="source" v="survey"/>
  </way>
  <way id="18881897" version="5" timestamp="2009-08-30T09:21:09Z" uid="156995" user="HampelZamba" changeset="2310659">
    <nd ref="195307791"/>
    <nd ref="195307793"/>
    <nd ref="195307794"/>
    <nd ref="195307795"/>
    <nd ref="195307796"/>
    <nd ref="195307797"/>
    <nd ref="195307798"/>
    <nd ref="195307799"/>
    <tag k="highway" v="service"/>
    <tag k="source" v="survey"/>
  </way>
  <way id="18881897" version="6" timestamp="2009-08-31T17:49:56Z" uid="36809" user="pfoten_weg_!_" changeset="2328905">
    <nd ref="195307791"/>
    <nd ref="195307793"/>
    <nd ref="195307794"/>
    <nd ref="195307795"/>
    <nd ref="195307796"/>
    <nd ref="195307797"/>
    <nd ref="195307798"/>
    <nd ref="195307799"/>
    <tag k="highway" v="service"/>
    <tag k="source" v="survey"/>
  </way>
  <way id="18881897" version="7" timestamp="2009-10-12T22:05:39Z" uid="36809" user="pfoten_weg_!_" changeset="2831291">
    <nd ref="195307791"/>
    <nd ref="195307793"/>
    <nd ref="195307794"/>
    <nd ref="195307795"/>
    <nd ref="195307796"/>
    <nd ref="195307797"/>
    <nd ref="195307798"/>
    <nd ref="195307799"/>
    <tag k="highway" v="service"/>
  </way>
  <way id="18881969" version="3" timestamp="2009-04-04T22:56:05Z" uid="36809" user="pfoten_weg_!_" changeset="196576">
    <nd ref="195309224"/>
    <nd ref="195309225"/>
    <nd ref="195309227"/>
    <nd ref="195309229"/>
    <nd ref="195309230"/>
    <nd ref="195309231"/>
    <nd ref="195309233"/>
    <nd ref="195309235"/>
    <nd ref="195309236"/>
    <nd ref="195309237"/>
    <nd ref="195309239"/>
    <nd ref="195309240"/>
    <nd ref="195309224"/>
    <tag k="created_by" v="RambaZamba"/>
    <tag k="landuse" v="forest"/>
    <tag k="natural" v="wood"/>
    <tag k="source" v="survey"/>
  </way>
  <way id="18881969" version="4" timestamp="2009-08-28T19:53:54Z" uid="156995" user="HampelZamba" changeset="2294580">
    <nd ref="195309224"/>
    <nd ref="195309225"/>
    <nd ref="195309227"/>
    <nd ref="195309229"/>
    <nd ref="195309230"/>
    <nd ref="195309231"/>
    <nd ref="195309233"/>
    <nd ref="195309235"/>
    <nd ref="195309236"/>
    <nd ref="195309237"/>
    <nd ref="195309239"/>
    <nd ref="195309240"/>
    <nd ref="195309224"/>
    <tag k="landuse" v="forest"/>
    <tag k="natural" v="wood"/>
    <tag k="source" v="survey"/>
  </way>
  <way id="18881969" version="5" timestamp="2009-08-28T21:16:54Z" uid="36809" user="pfoten_weg_!_" changeset="2295155">
    <nd ref="195309224"/>
    <nd ref="195309225"/>
    <nd ref="195309227"/>
    <nd ref="195309229"/>
    <nd ref="195309230"/>
    <nd ref="195309231"/>
    <nd ref="195309233"/>
    <nd ref="195309235"/>
    <nd ref="195309236"/>
    <nd ref="195309237"/>
    <nd ref="195309239"/>
    <nd ref="195309240"/>
    <nd ref="195309224"/>
    <tag k="discovered_by" v="RambaZamba"/>
    <tag k="landuse" v="forest"/>
    <tag k="natural" v="wood"/>
    <tag k="source" v="survey"/>
  </way>
  <way id="18881969" version="6" timestamp="2009-08-30T09:21:09Z" uid="156995" user="HampelZamba" changeset="2310659">
    <nd ref="195309224"/>
    <nd ref="195309225"/>
    <nd ref="195309227"/>
    <nd ref="195309229"/>
    <nd ref="195309230"/>
    <nd ref="195309231"/>
    <nd ref="195309233"/>
    <nd ref="195309235"/>
    <nd ref="195309236"/>
    <nd ref="195309237"/>
    <nd ref="195309239"/>
    <nd ref="195309240"/>
    <nd ref="195309224"/>
    <tag k="landuse" v="forest"/>
    <tag k="natural" v="wood"/>
    <tag k="source" v="survey"/>
  </way>
  <way id="18881969" version="7" timestamp="2009-08-31T17:49:49Z" uid="36809" user="pfoten_weg_!_" changeset="2328905">
    <nd ref="195309224"/>
    <nd ref="195309225"/>
    <nd ref="195309227"/>
    <nd ref="195309229"/>
    <nd ref="195309230"/>
    <nd ref="195309231"/>
    <nd ref="195309233"/>
    <nd ref="195309235"/>
    <nd ref="195309236"/>
    <nd ref="195309237"/>
    <nd ref="195309239"/>
    <nd ref="195309240"/>
    <nd ref="195309224"/>
    <tag k="landuse" v="forest"/>
    <tag k="natural" v="wood"/>
    <tag k="source" v="survey"/>
  </way>
  <way id="18881969" version="8" timestamp="2009-10-12T22:04:46Z" uid="36809" user="pfoten_weg_!_" changeset="2831291">
    <nd ref="195309224"/>
    <nd ref="195309225"/>
    <nd ref="195309227"/>
    <nd ref="195309229"/>
    <nd ref="195309230"/>
    <nd ref="195309231"/>
    <nd ref="195309233"/>
    <nd ref="195309235"/>
    <nd ref="195309236"/>
    <nd ref="195309237"/>
    <nd ref="195309239"/>
    <nd ref="195309240"/>
    <nd ref="195309224"/>
    <tag k="landuse" v="forest"/>
    <tag k="natural" v="wood"/>
  </way>
  <way id="18881969" version="9" timestamp="2011-02-01T11:06:46Z" uid="62236" user="Paulchen Panther" changeset="7153562">
    <nd ref="195309224"/>
    <nd ref="195309225"/>
    <nd ref="195309227"/>
    <nd ref="195309229"/>
    <nd ref="195309230"/>
    <nd ref="195309231"/>
    <nd ref="195309233"/>
    <nd ref="195309235"/>
    <nd ref="195309236"/>
    <nd ref="195309237"/>
    <nd ref="195309239"/>
    <nd ref="195309240"/>
    <nd ref="195309224"/>
    <tag k="landuse" v="forest"/>
  </way>
  <way id="18881969" version="10" timestamp="2011-05-08T14:42:25Z" uid="42393" user="mawi42" changeset="8083358">
    <nd ref="195309224"/>
    <nd ref="195309225"/>
    <nd ref="195309227"/>
    <nd ref="195309229"/>
    <nd ref="195309230"/>
    <nd ref="195309231"/>
    <nd ref="195309233"/>
    <nd ref="195309235"/>
    <nd ref="195309236"/>
    <nd ref="195309237"/>
    <nd ref="195309239"/>
    <nd ref="195309240"/>
    <nd ref="195309224"/>
    <tag k="landuse" v="forest"/>
  </way>
</osm>
