<?xml version='1.0' encoding='UTF-8'?>
<osm version="0.6" generator="libosmium/2.20.0">
  <way id="18920010" version="6" timestamp="2009-01-09T07:40:46Z" uid="27600" user="Islanit" changeset="760327">
    <nd ref="195787708"/>
    <nd ref="330395745"/>
    <tag k="created_by" v="Potlatch 0.10f"/>
    <tag k="highway" v="residential"/>
    <tag k="name" v="Marktstraße"/>
    <tag k="oneway" v="yes"/>
  </way>
  <way id="18920010" version="7" timestamp="2009-03-01T17:29:01Z" uid="9781" user="RoToRa" changeset="714850">
    <nd ref="195787708"/>
    <nd ref="273408788"/>
    <nd ref="330395745"/>
    <tag k="created_by" v="Potlatch 0.10f"/>
    <tag k="highway" v="residential"/>
    <tag k="name" v="Marktstraße"/>
    <tag k="oneway" v="yes"/>
  </way>
  <way id="18920010" version="8" timestamp="2009-06-12T16:33:23Z" uid="61875" user="The-Kenny" changeset="1497992">
    <nd ref="195787708"/>
    <nd ref="273408788"/>
    <nd ref="419267100"/>
    <nd ref="330395745"/>
    <tag k="created_by" v="Potlatch 0.10f"/>
    <tag k="highway" v="residential"/>
    <tag k="name" v="Marktstraße"/>
    <tag k="oneway" v="yes"/>
  </way>
  <way id="18920010" version="9" timestamp="2009-07-01T15:27:32Z" uid="61875" user="The-Kenny" changeset="1701784">
    <nd ref="195787708"/>
    <nd ref="273408788"/>
    <nd ref="419267100"/>
    <nd ref="330395745"/>
    <tag k="created_by" v="Potlatch 0.10f"/>
    <tag k="highway" v="residential"/>
    <tag k="name" v="Marktstraße"/>
    <tag k="oneway" v="yes"/>
  </way>
  <way id="18920010" version="10" timestamp="2009-07-13T11:51:12Z" uid="61875" user="The-Kenny" changeset="1816158">
    <nd ref="195787708"/>
    <nd ref="273408788"/>
    <nd ref="419267100"/>
    <nd ref="441154512"/>
    <nd ref="330395745"/>
    <tag k="highway" v="residential"/>
    <tag k="name" v="Marktstraße"/>
    <tag k="oneway" v="yes"/>
  </way>
  <way id="18920010" version="11" timestamp="2012-02-13T17:37:57Z" uid="116044" user="berndw" changeset="10675369"/>
</osm>
