<?xml version='1.0' encoding='UTF-8'?>
<osm version="0.6" generator="libosmium/2.20.0">
  <way id="18981158" version="4" timestamp="2010-02-14T15:50:39Z" uid="74617" user="JohnSmith" changeset="3874884">
    <nd ref="94576557"/>
    <nd ref="336219655"/>
    <nd ref="196566027"/>
    <nd ref="196566028"/>
    <nd ref="196566029"/>
    <nd ref="196566030"/>
    <nd ref="80547885"/>
    <tag k="highway" v="residential"/>
    <tag k="maxspeed" v="50"/>
    <tag k="name" v="Fourteenth Avenue"/>
  </way>
  <way id="18981158" version="5" timestamp="2012-01-15T19:36:33Z" uid="147510" user="woodpeck_fixbot" changeset="10400850">
    <nd ref="94576557"/>
    <nd ref="336219655"/>
    <nd ref="196566027"/>
    <nd ref="196566028"/>
    <nd ref="196566029"/>
    <nd ref="196566030"/>
    <nd ref="80547885"/>
    <tag k="highway" v="residential"/>
    <tag k="name" v="Fourteenth Avenue"/>
  </way>
  <way id="18981334" version="4" timestamp="2010-02-14T15:49:32Z" uid="74617" user="JohnSmith" changeset="3874884">
    <nd ref="80547884"/>
    <nd ref="196567979"/>
    <nd ref="196567980"/>
    <tag k="highway" v="residential"/>
    <tag k="maxspeed" v="50"/>
    <tag k="name" v="Chesterfield Street"/>
  </way>
  <way id="18981334" version="5" timestamp="2011-01-06T14:45:16Z" uid="4467" user="Rosscoe" changeset="6883149">
    <nd ref="80547884"/>
    <nd ref="196567979"/>
    <nd ref="1085829019"/>
    <tag k="highway" v="residential"/>
    <tag k="maxspeed" v="50"/>
    <tag k="name" v="Chesterfield Street"/>
  </way>
  <way id="18981334" version="6" timestamp="2012-01-15T19:36:34Z" uid="147510" user="woodpeck_fixbot" changeset="10400850">
    <nd ref="80547884"/>
    <nd ref="196567979"/>
    <nd ref="1085829019"/>
    <tag k="highway" v="residential"/>
    <tag k="name" v="Chesterfield Street"/>
  </way>
  <way id="18981377" version="4" timestamp="2010-02-14T15:50:39Z" uid="74617" user="JohnSmith" changeset="3874884">
    <nd ref="80929423"/>
    <nd ref="196568380"/>
    <tag k="highway" v="residential"/>
    <tag k="maxspeed" v="50"/>
    <tag k="name" v="Childers Street"/>
  </way>
  <way id="18981377" version="5" timestamp="2011-01-06T14:45:17Z" uid="4467" user="Rosscoe" changeset="6883149">
    <nd ref="80929423"/>
    <nd ref="1085829022"/>
    <tag k="highway" v="residential"/>
    <tag k="maxspeed" v="50"/>
    <tag k="name" v="Childers Street"/>
  </way>
  <way id="18981377" version="6" timestamp="2012-01-15T19:36:35Z" uid="147510" user="woodpeck_fixbot" changeset="10400850">
    <nd ref="80929423"/>
    <nd ref="1085829022"/>
    <tag k="highway" v="residential"/>
    <tag k="name" v="Childers Street"/>
  </way>
  <way id="18981377" version="7" timestamp="2012-03-02T22:41:55Z" uid="71283" user="James Livingston" changeset="10853203"/>
  <way id="18981587" version="4" timestamp="2010-02-14T15:49:22Z" uid="74617" user="JohnSmith" changeset="3874884">
    <nd ref="80547886"/>
    <nd ref="196569224"/>
    <nd ref="196569225"/>
    <nd ref="196569226"/>
    <nd ref="196569227"/>
    <nd ref="196569229"/>
    <nd ref="80929425"/>
    <nd ref="196570184"/>
    <tag k="highway" v="residential"/>
    <tag k="maxspeed" v="50"/>
    <tag k="name" v="Brae Street"/>
  </way>
  <way id="18981587" version="5" timestamp="2011-01-06T14:45:16Z" uid="4467" user="Rosscoe" changeset="6883149">
    <nd ref="80547886"/>
    <nd ref="196569224"/>
    <nd ref="196569225"/>
    <nd ref="196569226"/>
    <nd ref="196569227"/>
    <nd ref="196569229"/>
    <nd ref="80929425"/>
    <nd ref="1085829025"/>
    <tag k="highway" v="residential"/>
    <tag k="maxspeed" v="50"/>
    <tag k="name" v="Brae Street"/>
  </way>
  <way id="18981587" version="6" timestamp="2012-01-15T19:36:36Z" uid="147510" user="woodpeck_fixbot" changeset="10400850">
    <nd ref="80547886"/>
    <nd ref="196569224"/>
    <nd ref="196569225"/>
    <nd ref="196569226"/>
    <nd ref="196569227"/>
    <nd ref="196569229"/>
    <nd ref="80929425"/>
    <nd ref="1085829025"/>
    <tag k="highway" v="residential"/>
    <tag k="name" v="Brae Street"/>
  </way>
</osm>
