<?xml version='1.0' encoding='UTF-8'?>
<osm version="0.6" generator="libosmium/2.20.0">
  <way id="18989045" version="4" timestamp="2010-02-14T15:50:11Z" uid="74617" user="JohnSmith" changeset="3874884">
    <nd ref="196596140"/>
    <nd ref="196628315"/>
    <nd ref="196628316"/>
    <nd ref="196601643"/>
    <tag k="highway" v="residential"/>
    <tag k="maxspeed" v="50"/>
    <tag k="name" v="Erskine Avenue"/>
  </way>
  <way id="18989045" version="5" timestamp="2012-01-15T19:37:11Z" uid="147510" user="woodpeck_fixbot" changeset="10400850">
    <nd ref="196596140"/>
    <nd ref="196628315"/>
    <nd ref="196628316"/>
    <nd ref="196601643"/>
    <tag k="highway" v="residential"/>
    <tag k="name" v="Erskine Avenue"/>
  </way>
  <way id="18989386" version="4" timestamp="2010-02-14T15:50:10Z" uid="74617" user="JohnSmith" changeset="3874884">
    <nd ref="196596141"/>
    <nd ref="196600425"/>
    <nd ref="196628995"/>
    <nd ref="196628996"/>
    <nd ref="196628997"/>
    <nd ref="196596143"/>
    <tag k="highway" v="residential"/>
    <tag k="maxspeed" v="50"/>
    <tag k="name" v="Haines Street"/>
  </way>
  <way id="18989386" version="5" timestamp="2012-01-15T19:37:13Z" uid="147510" user="woodpeck_fixbot" changeset="10400850">
    <nd ref="196596141"/>
    <nd ref="196600425"/>
    <nd ref="196628995"/>
    <nd ref="196628996"/>
    <nd ref="196628997"/>
    <nd ref="196596143"/>
    <tag k="highway" v="residential"/>
    <tag k="name" v="Haines Street"/>
  </way>
  <way id="18989675" version="6" timestamp="2010-04-03T06:31:59Z" uid="74617" user="JohnSmith" changeset="4309757">
    <nd ref="196629884"/>
    <nd ref="70764259"/>
    <nd ref="70764240"/>
    <nd ref="33719935"/>
    <nd ref="33719932"/>
    <nd ref="70764206"/>
    <nd ref="70764180"/>
    <nd ref="196676016"/>
    <nd ref="70764166"/>
    <nd ref="70764147"/>
    <nd ref="70764127"/>
    <nd ref="70764095"/>
    <nd ref="70764057"/>
    <nd ref="362128602"/>
    <tag k="admin_level" v="10"/>
    <tag k="attribution" v="Based on Australian Bureau of Statistics data"/>
    <tag k="boundary" v="administrative"/>
    <tag k="highway" v="trunk"/>
    <tag k="maxspeed" v="60"/>
    <tag k="name" v="Stafford Road"/>
    <tag k="source" v="ABS_2006"/>
  </way>
  <way id="18989675" version="7" timestamp="2010-04-21T14:00:05Z" uid="4467" user="Rosscoe" changeset="4486583">
    <nd ref="196629884"/>
    <nd ref="703233131"/>
    <nd ref="703233128"/>
    <tag k="admin_level" v="10"/>
    <tag k="attribution" v="Based on Australian Bureau of Statistics data"/>
    <tag k="boundary" v="administrative"/>
    <tag k="highway" v="trunk"/>
    <tag k="maxspeed" v="60"/>
    <tag k="name" v="Stafford Road"/>
    <tag k="source" v="ABS_2006"/>
  </way>
  <way id="18989675" version="8" timestamp="2011-11-18T07:23:22Z" uid="76950" user="paulg" changeset="9861152">
    <nd ref="196629884"/>
    <nd ref="1507070527"/>
    <nd ref="1507070516"/>
    <nd ref="703233131"/>
    <nd ref="703233128"/>
    <tag k="admin_level" v="10"/>
    <tag k="attribution" v="Based on Australian Bureau of Statistics data"/>
    <tag k="boundary" v="administrative"/>
    <tag k="highway" v="trunk"/>
    <tag k="maxspeed" v="60"/>
    <tag k="name" v="Stafford Road"/>
    <tag k="source" v="ABS_2006"/>
  </way>
</osm>
