<?xml version='1.0' encoding='UTF-8'?>
<osm version="0.6" generator="libosmium/2.20.0">
  <way id="18982078" version="8" timestamp="2010-07-06T09:14:32Z" uid="74617" user="JohnSmith" changeset="5147679">
    <nd ref="336219635"/>
    <nd ref="464998237"/>
    <nd ref="336219637"/>
    <nd ref="336219640"/>
    <nd ref="336219638"/>
    <nd ref="336219642"/>
    <nd ref="336219639"/>
    <nd ref="336219641"/>
    <nd ref="336219635"/>
    <tag k="highway" v="residential"/>
    <tag k="junction" v="roundabout"/>
    <tag k="maxspeed" v="50"/>
    <tag k="maxspeed:source" v="default residential speed limit in Australia"/>
    <tag k="name" v="Castor Road"/>
  </way>
  <way id="18982078" version="9" timestamp="2012-01-15T19:36:38Z" uid="147510" user="woodpeck_fixbot" changeset="10400850">
    <nd ref="336219635"/>
    <nd ref="464998237"/>
    <nd ref="336219637"/>
    <nd ref="336219640"/>
    <nd ref="336219638"/>
    <nd ref="336219642"/>
    <nd ref="336219639"/>
    <nd ref="336219641"/>
    <nd ref="336219635"/>
    <tag k="highway" v="residential"/>
    <tag k="junction" v="roundabout"/>
    <tag k="name" v="Castor Road"/>
  </way>
  <way id="18982089" version="4" timestamp="2010-02-14T15:50:46Z" uid="74617" user="JohnSmith" changeset="3874884">
    <nd ref="80548737"/>
    <nd ref="196574558"/>
    <nd ref="196574559"/>
    <nd ref="196574561"/>
    <nd ref="196574562"/>
    <nd ref="196574563"/>
    <nd ref="196574565"/>
    <nd ref="196574566"/>
    <nd ref="196574568"/>
    <nd ref="196574569"/>
    <nd ref="196574570"/>
    <tag k="highway" v="residential"/>
    <tag k="maxspeed" v="50"/>
    <tag k="name" v="White Street"/>
  </way>
  <way id="18982089" version="5" timestamp="2012-01-15T19:36:39Z" uid="147510" user="woodpeck_fixbot" changeset="10400850">
    <nd ref="80548737"/>
    <nd ref="196574558"/>
    <nd ref="196574559"/>
    <nd ref="196574561"/>
    <nd ref="196574562"/>
    <nd ref="196574563"/>
    <nd ref="196574565"/>
    <nd ref="196574566"/>
    <nd ref="196574568"/>
    <nd ref="196574569"/>
    <nd ref="196574570"/>
    <tag k="highway" v="residential"/>
    <tag k="name" v="White Street"/>
  </way>
  <way id="18982254" version="5" timestamp="2010-02-14T15:49:33Z" uid="74617" user="JohnSmith" changeset="3874884">
    <nd ref="196593726"/>
    <nd ref="196591114"/>
    <nd ref="196593729"/>
    <nd ref="196593730"/>
    <nd ref="196590192"/>
    <tag k="highway" v="residential"/>
    <tag k="maxspeed" v="50"/>
    <tag k="name" v="Sturt Street"/>
  </way>
  <way id="18982254" version="6" timestamp="2012-01-15T19:36:41Z" uid="147510" user="woodpeck_fixbot" changeset="10400850">
    <nd ref="196593726"/>
    <nd ref="196591114"/>
    <nd ref="196593729"/>
    <nd ref="196593730"/>
    <nd ref="196590192"/>
    <tag k="highway" v="residential"/>
    <tag k="name" v="Sturt Street"/>
  </way>
  <way id="18982622" version="4" timestamp="2010-02-14T15:49:33Z" uid="74617" user="JohnSmith" changeset="3874884">
    <nd ref="94575078"/>
    <nd ref="196579122"/>
    <nd ref="80539493"/>
    <tag k="highway" v="residential"/>
    <tag k="maxspeed" v="50"/>
    <tag k="name" v="Twelfth Avenue"/>
  </way>
  <way id="18982622" version="5" timestamp="2012-01-15T19:36:42Z" uid="147510" user="woodpeck_fixbot" changeset="10400850">
    <nd ref="94575078"/>
    <nd ref="196579122"/>
    <nd ref="80539493"/>
    <tag k="highway" v="residential"/>
    <tag k="name" v="Twelfth Avenue"/>
  </way>
  <way id="18982727" version="7" timestamp="2011-01-06T14:45:15Z" uid="4467" user="Rosscoe" changeset="6883149">
    <nd ref="196580906"/>
    <nd ref="196580112"/>
    <nd ref="80888347"/>
    <nd ref="80901758"/>
    <nd ref="480537712"/>
    <nd ref="363410494"/>
    <nd ref="196580115"/>
    <nd ref="196580116"/>
    <nd ref="196580120"/>
    <nd ref="196580122"/>
    <nd ref="196580906"/>
    <tag k="amenity" v="school"/>
    <tag k="name" v="Wavell State High School"/>
  </way>
  <way id="18982727" version="8" timestamp="2012-03-04T01:09:12Z" uid="71283" user="James Livingston" changeset="10863732">
    <nd ref="196580906"/>
    <nd ref="196580112"/>
    <nd ref="80888347"/>
    <nd ref="80901758"/>
    <nd ref="480537712"/>
    <nd ref="363410494"/>
    <nd ref="196580115"/>
    <nd ref="196580116"/>
    <nd ref="196580120"/>
    <nd ref="196580122"/>
    <nd ref="196580906"/>
    <tag k="amenity" v="school"/>
    <tag k="name" v="Wavell State High School"/>
    <tag k="odbl" v="clean"/>
  </way>
  <way id="18982828" version="2" timestamp="2010-02-14T15:50:45Z" uid="74617" user="JohnSmith" changeset="3874884">
    <nd ref="80914509"/>
    <nd ref="196580906"/>
    <tag k="foot" v="yes"/>
    <tag k="highway" v="footway"/>
  </way>
  <way id="18982951" version="4" timestamp="2008-07-06T20:57:22Z" uid="6975" user="ulfl" changeset="415781">
    <nd ref="196580995"/>
    <nd ref="32836553"/>
    <nd ref="32836555"/>
    <nd ref="32836558"/>
    <tag k="bridge" v="yes"/>
    <tag k="highway" v="motorway"/>
    <tag k="name" v="Interstate Highway 80 West"/>
    <tag k="oneway" v="yes"/>
    <tag k="ref" v="I-80 W"/>
  </way>
  <way id="18982951" version="5" timestamp="2010-01-28T05:50:26Z" uid="207745" user="NE2" changeset="3732779">
    <nd ref="196580995"/>
    <nd ref="32836553"/>
    <nd ref="32836555"/>
    <nd ref="32836558"/>
    <tag k="bridge" v="yes"/>
    <tag k="highway" v="motorway"/>
    <tag k="name" v="Interstate Highway 80 West"/>
    <tag k="oneway" v="yes"/>
    <tag k="ref" v="I 80"/>
  </way>
  <way id="18982951" version="6" timestamp="2011-07-12T21:23:33Z" uid="473471" user="NE3" changeset="8707420">
    <nd ref="196580995"/>
    <nd ref="32836553"/>
    <nd ref="32836555"/>
    <nd ref="32836558"/>
    <tag k="bridge" v="yes"/>
    <tag k="highway" v="motorway"/>
    <tag k="lanes" v="2"/>
    <tag k="oneway" v="yes"/>
    <tag k="ref" v="I 80"/>
  </way>
  <way id="18982951" version="7" timestamp="2011-11-23T22:48:08Z" uid="207745" user="NE2" changeset="9927059">
    <nd ref="196580995"/>
    <nd ref="32836553"/>
    <nd ref="32836555"/>
    <nd ref="32836558"/>
    <tag k="bicycle" v="no"/>
    <tag k="bridge" v="yes"/>
    <tag k="foot" v="no"/>
    <tag k="hgv" v="designated"/>
    <tag k="highway" v="motorway"/>
    <tag k="horse" v="no"/>
    <tag k="lanes" v="2"/>
    <tag k="oneway" v="yes"/>
    <tag k="ref" v="I 80"/>
    <tag k="sidewalk" v="none"/>
  </way>
</osm>
