<?xml version='1.0' encoding='UTF-8'?>
<osm version="0.6" generator="libosmium/2.20.0">
  <way id="19001008" version="2" timestamp="2008-11-22T07:34:19Z" uid="7617" user="Franc" changeset="779843">
    <nd ref="12224291"/>
    <nd ref="196718289"/>
    <nd ref="313661892"/>
    <nd ref="196718291"/>
    <nd ref="313661893"/>
    <nd ref="313661894"/>
    <nd ref="313661895"/>
    <nd ref="313661899"/>
    <nd ref="196718292"/>
    <tag k="created_by" v="Potlatch 0.6"/>
    <tag k="highway" v="service"/>
  </way>
  <way id="19001008" version="3" timestamp="2010-11-28T10:28:16Z" uid="7523" user="inas" changeset="6476657">
    <nd ref="12224291"/>
    <nd ref="196718289"/>
    <nd ref="313661892"/>
    <nd ref="196718291"/>
    <nd ref="1010538209"/>
    <nd ref="313661893"/>
    <nd ref="313661894"/>
    <nd ref="313661895"/>
    <nd ref="313661899"/>
    <nd ref="196718292"/>
    <tag k="highway" v="service"/>
  </way>
  <way id="19001045" version="6" timestamp="2008-06-27T06:42:46Z" uid="30201" user="rrankin" changeset="316172">
    <nd ref="31323670"/>
    <nd ref="196718713"/>
    <nd ref="196719418"/>
    <nd ref="196722711"/>
    <nd ref="196718715"/>
    <nd ref="196718716"/>
    <nd ref="196723625"/>
    <nd ref="196714131"/>
    <nd ref="196720355"/>
    <nd ref="99657890"/>
    <nd ref="26400622"/>
    <tag k="created_by" v="Potlatch 0.6"/>
    <tag k="highway" v="secondary"/>
    <tag k="name" v="Tennyson Road"/>
  </way>
  <way id="19001045" version="7" timestamp="2010-01-14T11:39:19Z" uid="30201" user="rrankin" changeset="3616319">
    <nd ref="31323670"/>
    <nd ref="196718713"/>
    <nd ref="196719418"/>
    <nd ref="196722711"/>
    <nd ref="196718715"/>
    <nd ref="196718716"/>
    <nd ref="196723625"/>
    <nd ref="196714131"/>
    <nd ref="613403163"/>
    <tag k="highway" v="secondary"/>
    <tag k="name" v="Tennyson Road"/>
  </way>
  <way id="19001045" version="8" timestamp="2010-02-26T23:21:27Z" uid="7617" user="Franc" changeset="3984655">
    <nd ref="31323670"/>
    <nd ref="196718713"/>
    <nd ref="654534039"/>
    <nd ref="654534038"/>
    <nd ref="196719418"/>
    <nd ref="196722711"/>
    <nd ref="196718715"/>
    <nd ref="654534090"/>
    <nd ref="196718716"/>
    <nd ref="196723625"/>
    <nd ref="196714131"/>
    <nd ref="613403163"/>
    <tag k="highway" v="secondary"/>
    <tag k="name" v="Tennyson Road"/>
  </way>
  <way id="19001045" version="9" timestamp="2012-01-31T08:33:26Z" uid="7523" user="inas" changeset="10547067">
    <nd ref="1612771524"/>
    <nd ref="196718713"/>
    <nd ref="654534039"/>
    <nd ref="654534038"/>
    <nd ref="196719418"/>
    <nd ref="196722711"/>
    <nd ref="196718715"/>
    <nd ref="654534090"/>
    <nd ref="196718716"/>
    <nd ref="196723625"/>
    <nd ref="196714131"/>
    <nd ref="613403163"/>
    <tag k="highway" v="secondary"/>
    <tag k="name" v="Tennyson Road"/>
  </way>
  <way id="19001045" version="10" timestamp="2012-02-05T11:11:48Z" uid="7523" user="inas" changeset="10592373">
    <nd ref="31323670"/>
    <nd ref="196718713"/>
    <nd ref="196719418"/>
    <nd ref="196722711"/>
    <nd ref="196718715"/>
    <nd ref="1618764841"/>
    <nd ref="196718716"/>
    <nd ref="196723625"/>
    <nd ref="196714131"/>
    <tag k="highway" v="secondary"/>
    <tag k="name" v="Tennyson Road"/>
    <tag k="note:odbl" v="reverted rrankin changeset to CT compliant version"/>
    <tag k="odbl" v="clean"/>
  </way>
  <way id="19001078" version="2" timestamp="2008-11-22T06:44:13Z" uid="7617" user="Franc" changeset="779843">
    <nd ref="196718931"/>
    <nd ref="313660580"/>
    <nd ref="196719098"/>
    <tag k="created_by" v="Potlatch 0.6"/>
    <tag k="highway" v="residential"/>
    <tag k="name" v="Chapman Road"/>
    <tag k="source" v="survey"/>
  </way>
  <way id="19001078" version="3" timestamp="2010-07-08T01:00:37Z" uid="74617" user="JohnSmith" changeset="5162525">
    <nd ref="196718931"/>
    <nd ref="313660580"/>
    <nd ref="196719098"/>
    <tag k="highway" v="residential"/>
    <tag k="maxspeed" v="50"/>
    <tag k="maxspeed:source" v="default residential speed limit in Australia"/>
    <tag k="name" v="Chapman Road"/>
    <tag k="source" v="survey"/>
  </way>
  <way id="19001078" version="4" timestamp="2012-01-15T19:41:05Z" uid="147510" user="woodpeck_fixbot" changeset="10400850">
    <nd ref="196718931"/>
    <nd ref="313660580"/>
    <nd ref="196719098"/>
    <tag k="highway" v="residential"/>
    <tag k="name" v="Chapman Road"/>
    <tag k="source" v="survey"/>
  </way>
  <way id="19001092" version="2" timestamp="2008-11-22T06:44:21Z" uid="7617" user="Franc" changeset="779843">
    <nd ref="196719395"/>
    <nd ref="196719098"/>
    <nd ref="313660581"/>
    <nd ref="196719396"/>
    <tag k="created_by" v="Potlatch 0.6"/>
    <tag k="highway" v="residential"/>
    <tag k="name" v="Chapman Road"/>
    <tag k="source" v="survey"/>
  </way>
  <way id="19001092" version="3" timestamp="2010-07-08T00:58:04Z" uid="74617" user="JohnSmith" changeset="5162525">
    <nd ref="196719395"/>
    <nd ref="196719098"/>
    <nd ref="313660581"/>
    <nd ref="196719396"/>
    <tag k="highway" v="residential"/>
    <tag k="maxspeed" v="50"/>
    <tag k="maxspeed:source" v="default residential speed limit in Australia"/>
    <tag k="name" v="Chapman Road"/>
    <tag k="source" v="survey"/>
  </way>
  <way id="19001092" version="4" timestamp="2012-01-15T19:41:06Z" uid="147510" user="woodpeck_fixbot" changeset="10400850">
    <nd ref="196719395"/>
    <nd ref="196719098"/>
    <nd ref="313660581"/>
    <nd ref="196719396"/>
    <tag k="highway" v="residential"/>
    <tag k="name" v="Chapman Road"/>
    <tag k="source" v="survey"/>
  </way>
  <way id="19001111" version="2" timestamp="2008-11-22T06:44:22Z" uid="7617" user="Franc" changeset="779843">
    <nd ref="196719418"/>
    <nd ref="313660590"/>
    <nd ref="196719658"/>
    <tag k="created_by" v="Potlatch 0.6"/>
    <tag k="highway" v="residential"/>
    <tag k="name" v="Spencer Street"/>
    <tag k="source" v="survey"/>
  </way>
  <way id="19001111" version="3" timestamp="2010-07-08T00:59:50Z" uid="74617" user="JohnSmith" changeset="5162525">
    <nd ref="196719418"/>
    <nd ref="313660590"/>
    <nd ref="196719658"/>
    <tag k="highway" v="residential"/>
    <tag k="maxspeed" v="50"/>
    <tag k="maxspeed:source" v="default residential speed limit in Australia"/>
    <tag k="name" v="Spencer Street"/>
    <tag k="source" v="survey"/>
  </way>
  <way id="19001111" version="4" timestamp="2012-01-15T19:41:07Z" uid="147510" user="woodpeck_fixbot" changeset="10400850">
    <nd ref="196719418"/>
    <nd ref="313660590"/>
    <nd ref="196719658"/>
    <tag k="highway" v="residential"/>
    <tag k="name" v="Spencer Street"/>
    <tag k="source" v="survey"/>
  </way>
  <way id="19001118" version="2" timestamp="2008-11-22T06:44:23Z" uid="7617" user="Franc" changeset="779843">
    <nd ref="196718715"/>
    <nd ref="196720009"/>
    <tag k="created_by" v="Potlatch 0.6"/>
    <tag k="highway" v="residential"/>
    <tag k="name" v="Warner Street"/>
    <tag k="source" v="survey"/>
  </way>
  <way id="19001118" version="3" timestamp="2009-07-04T13:25:14Z" uid="7617" user="Franc" changeset="1729755">
    <nd ref="196718715"/>
    <nd ref="433818651"/>
    <nd ref="196720009"/>
    <tag k="created_by" v="Potlatch 0.6"/>
    <tag k="highway" v="residential"/>
    <tag k="name" v="Warner Street"/>
    <tag k="source" v="survey"/>
  </way>
  <way id="19001118" version="4" timestamp="2010-07-08T00:57:31Z" uid="74617" user="JohnSmith" changeset="5162525">
    <nd ref="196718715"/>
    <nd ref="433818651"/>
    <nd ref="196720009"/>
    <tag k="highway" v="residential"/>
    <tag k="maxspeed" v="50"/>
    <tag k="maxspeed:source" v="default residential speed limit in Australia"/>
    <tag k="name" v="Warner Street"/>
    <tag k="source" v="survey"/>
  </way>
  <way id="19001118" version="5" timestamp="2010-11-28T10:28:13Z" uid="7523" user="inas" changeset="6476657">
    <nd ref="196718715"/>
    <nd ref="433818651"/>
    <nd ref="196720009"/>
    <nd ref="1010538080"/>
    <tag k="highway" v="residential"/>
    <tag k="maxspeed" v="50"/>
    <tag k="maxspeed:source" v="default residential speed limit in Australia"/>
    <tag k="name" v="Warner Street"/>
    <tag k="source" v="survey"/>
  </way>
  <way id="19001118" version="6" timestamp="2012-01-15T19:41:07Z" uid="147510" user="woodpeck_fixbot" changeset="10400850">
    <nd ref="196718715"/>
    <nd ref="433818651"/>
    <nd ref="196720009"/>
    <nd ref="1010538080"/>
    <tag k="highway" v="residential"/>
    <tag k="name" v="Warner Street"/>
    <tag k="source" v="survey"/>
  </way>
  <way id="19001142" version="2" timestamp="2008-06-28T01:33:47Z" uid="30201" user="rrankin" changeset="318974">
    <nd ref="196720355"/>
    <nd ref="196720577"/>
    <tag k="created_by" v="Potlatch 0.6"/>
    <tag k="highway" v="residential"/>
    <tag k="name" v="Searle Street"/>
  </way>
  <way id="19001142" version="3" timestamp="2010-01-14T11:39:19Z" uid="30201" user="rrankin" changeset="3616319">
    <nd ref="613403161"/>
    <nd ref="196720577"/>
    <tag k="highway" v="residential"/>
    <tag k="name" v="Searle Street"/>
  </way>
  <way id="19001142" version="4" timestamp="2010-07-08T00:59:53Z" uid="74617" user="JohnSmith" changeset="5162525">
    <nd ref="613403161"/>
    <nd ref="196720577"/>
    <tag k="highway" v="residential"/>
    <tag k="maxspeed" v="50"/>
    <tag k="maxspeed:source" v="default residential speed limit in Australia"/>
    <tag k="name" v="Searle Street"/>
  </way>
  <way id="19001142" version="5" timestamp="2012-01-15T19:41:08Z" uid="147510" user="woodpeck_fixbot" changeset="10400850">
    <nd ref="613403161"/>
    <nd ref="196720577"/>
    <tag k="highway" v="residential"/>
    <tag k="name" v="Searle Street"/>
  </way>
  <way id="19001142" version="6" timestamp="2012-02-05T11:11:48Z" uid="7523" user="inas" changeset="10592373">
    <nd ref="1618764802"/>
    <nd ref="196720577"/>
    <tag k="highway" v="residential"/>
    <tag k="name" v="Searle Street"/>
  </way>
  <way id="19001172" version="2" timestamp="2008-06-28T01:33:50Z" uid="30201" user="rrankin" changeset="318974">
    <nd ref="196720843"/>
    <nd ref="196720992"/>
    <tag k="created_by" v="Potlatch 0.6"/>
    <tag k="highway" v="service"/>
  </way>
  <way id="19001268" version="2" timestamp="2008-10-19T06:31:28Z" uid="7617" user="Franc" changeset="444494">
    <nd ref="26524999"/>
    <nd ref="196722478"/>
    <nd ref="196722479"/>
    <tag k="created_by" v="Potlatch 0.6"/>
    <tag k="highway" v="residential"/>
    <tag k="name" v="Nioka Street"/>
    <tag k="source" v="survey"/>
  </way>
  <way id="19001268" version="3" timestamp="2008-11-22T23:36:55Z" uid="7617" user="Franc" changeset="782587">
    <nd ref="26524999"/>
    <nd ref="196722478"/>
    <nd ref="313825036"/>
    <nd ref="196722479"/>
    <tag k="created_by" v="Potlatch 0.6"/>
    <tag k="highway" v="residential"/>
    <tag k="name" v="Nioka Street"/>
    <tag k="source" v="survey"/>
  </way>
  <way id="19001268" version="4" timestamp="2010-02-26T23:21:30Z" uid="7617" user="Franc" changeset="3984655">
    <nd ref="26524999"/>
    <nd ref="196722478"/>
    <nd ref="654534047"/>
    <nd ref="313825036"/>
    <nd ref="196722479"/>
    <tag k="highway" v="residential"/>
    <tag k="name" v="Nioka Street"/>
    <tag k="source" v="survey"/>
  </way>
  <way id="19001268" version="5" timestamp="2010-07-08T01:01:26Z" uid="74617" user="JohnSmith" changeset="5162525">
    <nd ref="26524999"/>
    <nd ref="196722478"/>
    <nd ref="654534047"/>
    <nd ref="313825036"/>
    <nd ref="196722479"/>
    <tag k="highway" v="residential"/>
    <tag k="maxspeed" v="50"/>
    <tag k="maxspeed:source" v="default residential speed limit in Australia"/>
    <tag k="name" v="Nioka Street"/>
    <tag k="source" v="survey"/>
  </way>
  <way id="19001268" version="6" timestamp="2012-01-15T19:41:09Z" uid="147510" user="woodpeck_fixbot" changeset="10400850">
    <nd ref="26524999"/>
    <nd ref="196722478"/>
    <nd ref="654534047"/>
    <nd ref="313825036"/>
    <nd ref="196722479"/>
    <tag k="highway" v="residential"/>
    <tag k="name" v="Nioka Street"/>
    <tag k="source" v="survey"/>
  </way>
  <way id="19001277" version="5" timestamp="2010-02-14T15:45:48Z" uid="74617" user="JohnSmith" changeset="3874884">
    <nd ref="84485812"/>
    <nd ref="196702072"/>
    <nd ref="80781194"/>
    <tag k="highway" v="residential"/>
    <tag k="maxspeed" v="50"/>
    <tag k="name" v="Leiper Street"/>
  </way>
  <way id="19001277" version="6" timestamp="2012-01-15T19:41:10Z" uid="147510" user="woodpeck_fixbot" changeset="10400850">
    <nd ref="84485812"/>
    <nd ref="196702072"/>
    <nd ref="80781194"/>
    <tag k="highway" v="residential"/>
    <tag k="name" v="Leiper Street"/>
  </way>
  <way id="19001310" version="5" timestamp="2010-02-14T15:45:48Z" uid="74617" user="JohnSmith" changeset="3874884">
    <nd ref="196702069"/>
    <nd ref="196723068"/>
    <nd ref="80781198"/>
    <tag k="highway" v="residential"/>
    <tag k="maxspeed" v="50"/>
    <tag k="name" v="School Road"/>
  </way>
  <way id="19001310" version="6" timestamp="2012-01-15T19:41:11Z" uid="147510" user="woodpeck_fixbot" changeset="10400850">
    <nd ref="196702069"/>
    <nd ref="196723068"/>
    <nd ref="80781198"/>
    <tag k="highway" v="residential"/>
    <tag k="name" v="School Road"/>
  </way>
  <way id="19001341" version="3" timestamp="2008-06-27T06:42:49Z" uid="30201" user="rrankin" changeset="316172">
    <nd ref="196722711"/>
    <nd ref="196723549"/>
    <nd ref="196724731"/>
    <nd ref="196723550"/>
    <nd ref="196723551"/>
    <nd ref="196723553"/>
    <nd ref="196723554"/>
    <nd ref="196723555"/>
    <nd ref="196723556"/>
    <nd ref="196723558"/>
    <nd ref="196723559"/>
    <nd ref="196723561"/>
    <nd ref="273685927"/>
    <tag k="created_by" v="Potlatch 0.6"/>
    <tag k="highway" v="tertiary"/>
    <tag k="name" v="Osgathorpe Road"/>
  </way>
  <way id="19001341" version="4" timestamp="2008-11-22T06:44:40Z" uid="7617" user="Franc" changeset="779843">
    <nd ref="196722711"/>
    <nd ref="196723549"/>
    <nd ref="196724731"/>
    <nd ref="196723551"/>
    <nd ref="196723553"/>
    <nd ref="196723554"/>
    <nd ref="196723555"/>
    <nd ref="313660593"/>
    <nd ref="313660594"/>
    <nd ref="196723556"/>
    <nd ref="196723558"/>
    <nd ref="196723559"/>
    <nd ref="196723561"/>
    <nd ref="273685927"/>
    <tag k="created_by" v="Potlatch 0.6"/>
    <tag k="highway" v="tertiary"/>
    <tag k="name" v="Osgathorpe Road"/>
  </way>
  <way id="19001378" version="2" timestamp="2008-11-22T06:44:38Z" uid="7617" user="Franc" changeset="779843">
    <nd ref="196723625"/>
    <nd ref="196724158"/>
    <nd ref="196724160"/>
    <nd ref="196724161"/>
    <nd ref="196724162"/>
    <nd ref="196724163"/>
    <nd ref="313660591"/>
    <nd ref="196724165"/>
    <nd ref="196723555"/>
    <tag k="created_by" v="Potlatch 0.6"/>
    <tag k="highway" v="residential"/>
    <tag k="name" v="Brereton Street"/>
    <tag k="source" v="survey"/>
  </way>
  <way id="19001378" version="3" timestamp="2008-11-22T23:37:13Z" uid="7617" user="Franc" changeset="782587">
    <nd ref="196723625"/>
    <nd ref="196724158"/>
    <nd ref="196724160"/>
    <nd ref="196724161"/>
    <nd ref="313825032"/>
    <nd ref="196724162"/>
    <nd ref="313824777"/>
    <tag k="created_by" v="Potlatch 0.6"/>
    <tag k="highway" v="residential"/>
    <tag k="name" v="Brereton Street"/>
    <tag k="source" v="survey"/>
  </way>
  <way id="19001378" version="4" timestamp="2010-07-08T00:59:26Z" uid="74617" user="JohnSmith" changeset="5162525">
    <nd ref="196723625"/>
    <nd ref="196724158"/>
    <nd ref="196724160"/>
    <nd ref="196724161"/>
    <nd ref="313825032"/>
    <nd ref="196724162"/>
    <nd ref="313824777"/>
    <tag k="highway" v="residential"/>
    <tag k="maxspeed" v="50"/>
    <tag k="maxspeed:source" v="default residential speed limit in Australia"/>
    <tag k="name" v="Brereton Street"/>
    <tag k="source" v="survey"/>
  </way>
  <way id="19001378" version="5" timestamp="2012-01-15T19:41:12Z" uid="147510" user="woodpeck_fixbot" changeset="10400850">
    <nd ref="196723625"/>
    <nd ref="196724158"/>
    <nd ref="196724160"/>
    <nd ref="196724161"/>
    <nd ref="313825032"/>
    <nd ref="196724162"/>
    <nd ref="313824777"/>
    <tag k="highway" v="residential"/>
    <tag k="name" v="Brereton Street"/>
    <tag k="source" v="survey"/>
  </way>
  <way id="19001381" version="12" timestamp="2011-02-24T22:10:28Z" uid="17602" user="B10xyz" changeset="7385975">
    <nd ref="21487224"/>
    <nd ref="295705020"/>
    <nd ref="341313044"/>
    <nd ref="1171062073"/>
    <nd ref="866264912"/>
    <nd ref="196724641"/>
    <tag k="cycleway" v="lane"/>
    <tag k="highway" v="secondary"/>
    <tag k="lanes" v="2"/>
    <tag k="lit" v="yes"/>
    <tag k="name" v="Alexanderstraße"/>
    <tag k="oneway" v="yes"/>
    <tag k="postal_code" v="10179"/>
    <tag k="surface" v="paved"/>
  </way>
  <way id="19001423" version="2" timestamp="2008-11-22T06:44:32Z" uid="7617" user="Franc" changeset="779843">
    <nd ref="196724165"/>
    <nd ref="196724731"/>
    <nd ref="313660592"/>
    <nd ref="26525002"/>
    <tag k="created_by" v="Potlatch 0.6"/>
    <tag k="highway" v="residential"/>
  </way>
  <way id="19001423" version="3" timestamp="2008-11-22T07:34:29Z" uid="7617" user="Franc" changeset="779843">
    <nd ref="196724165"/>
    <nd ref="196724731"/>
    <nd ref="313660592"/>
    <nd ref="26525002"/>
    <tag k="created_by" v="Potlatch 0.6"/>
    <tag k="highway" v="residential"/>
    <tag k="name" v="Towns Street"/>
    <tag k="source" v="survey"/>
  </way>
  <way id="19001423" version="4" timestamp="2010-02-26T23:21:27Z" uid="7617" user="Franc" changeset="3984655">
    <nd ref="196724165"/>
    <nd ref="196724731"/>
    <nd ref="26525002"/>
    <tag k="highway" v="residential"/>
    <tag k="name" v="Towns Street"/>
    <tag k="source" v="survey"/>
  </way>
  <way id="19001423" version="5" timestamp="2010-07-08T00:59:20Z" uid="74617" user="JohnSmith" changeset="5162525">
    <nd ref="196724165"/>
    <nd ref="196724731"/>
    <nd ref="26525002"/>
    <tag k="highway" v="residential"/>
    <tag k="maxspeed" v="50"/>
    <tag k="maxspeed:source" v="default residential speed limit in Australia"/>
    <tag k="name" v="Towns Street"/>
    <tag k="source" v="survey"/>
  </way>
  <way id="19001423" version="6" timestamp="2012-01-15T19:41:12Z" uid="147510" user="woodpeck_fixbot" changeset="10400850">
    <nd ref="196724165"/>
    <nd ref="196724731"/>
    <nd ref="26525002"/>
    <tag k="highway" v="residential"/>
    <tag k="name" v="Towns Street"/>
    <tag k="source" v="survey"/>
  </way>
  <way id="19001425" version="2" timestamp="2008-11-22T06:44:37Z" uid="7617" user="Franc" changeset="779843">
    <nd ref="196723558"/>
    <nd ref="196724762"/>
    <nd ref="196724763"/>
    <nd ref="196724764"/>
    <nd ref="196724765"/>
    <tag k="created_by" v="Potlatch 0.6"/>
    <tag k="highway" v="residential"/>
    <tag k="name" v="Farm Street"/>
    <tag k="source" v="survey"/>
  </way>
  <way id="19001425" version="3" timestamp="2008-11-22T23:37:10Z" uid="7617" user="Franc" changeset="782587">
    <nd ref="196723558"/>
    <nd ref="196724762"/>
    <nd ref="313825028"/>
    <nd ref="196724763"/>
    <nd ref="196724764"/>
    <nd ref="196724765"/>
    <tag k="created_by" v="Potlatch 0.6"/>
    <tag k="highway" v="residential"/>
    <tag k="name" v="Farm Street"/>
    <tag k="source" v="survey"/>
  </way>
  <way id="19001425" version="4" timestamp="2010-07-08T01:01:34Z" uid="74617" user="JohnSmith" changeset="5162525">
    <nd ref="196723558"/>
    <nd ref="196724762"/>
    <nd ref="313825028"/>
    <nd ref="196724763"/>
    <nd ref="196724764"/>
    <nd ref="196724765"/>
    <tag k="highway" v="residential"/>
    <tag k="maxspeed" v="50"/>
    <tag k="maxspeed:source" v="default residential speed limit in Australia"/>
    <tag k="name" v="Farm Street"/>
    <tag k="source" v="survey"/>
  </way>
  <way id="19001425" version="5" timestamp="2012-01-15T19:41:13Z" uid="147510" user="woodpeck_fixbot" changeset="10400850">
    <nd ref="196723558"/>
    <nd ref="196724762"/>
    <nd ref="313825028"/>
    <nd ref="196724763"/>
    <nd ref="196724764"/>
    <nd ref="196724765"/>
    <tag k="highway" v="residential"/>
    <tag k="name" v="Farm Street"/>
    <tag k="source" v="survey"/>
  </way>
  <way id="19001436" version="2" timestamp="2008-06-27T06:42:50Z" uid="30201" user="rrankin" changeset="316172">
    <nd ref="196724764"/>
    <nd ref="273685934"/>
    <tag k="created_by" v="Potlatch 0.6"/>
    <tag k="highway" v="residential"/>
  </way>
  <way id="19001436" version="3" timestamp="2008-11-22T06:44:35Z" uid="7617" user="Franc" changeset="779843">
    <nd ref="196724764"/>
    <nd ref="273685934"/>
    <tag k="created_by" v="Potlatch 0.6"/>
    <tag k="highway" v="residential"/>
    <tag k="name" v="The Avenue"/>
    <tag k="source" v="survey"/>
  </way>
  <way id="19001436" version="4" timestamp="2010-07-08T00:58:34Z" uid="74617" user="JohnSmith" changeset="5162525">
    <nd ref="196724764"/>
    <nd ref="273685934"/>
    <tag k="highway" v="residential"/>
    <tag k="maxspeed" v="50"/>
    <tag k="maxspeed:source" v="default residential speed limit in Australia"/>
    <tag k="name" v="The Avenue"/>
    <tag k="source" v="survey"/>
  </way>
  <way id="19001436" version="5" timestamp="2012-01-15T19:41:14Z" uid="147510" user="woodpeck_fixbot" changeset="10400850">
    <nd ref="196724764"/>
    <nd ref="273685934"/>
    <tag k="highway" v="residential"/>
    <tag k="name" v="The Avenue"/>
    <tag k="source" v="survey"/>
  </way>
  <way id="19001477" version="2" timestamp="2008-11-22T06:44:25Z" uid="7617" user="Franc" changeset="779843">
    <nd ref="26524976"/>
    <nd ref="196725572"/>
    <nd ref="196723559"/>
    <tag k="created_by" v="Potlatch 0.6"/>
    <tag k="highway" v="residential"/>
    <tag k="name" v="Evans Street"/>
    <tag k="source" v="survey"/>
  </way>
  <way id="19001477" version="3" timestamp="2008-11-22T23:37:30Z" uid="7617" user="Franc" changeset="782587">
    <nd ref="26524976"/>
    <nd ref="313825020"/>
    <nd ref="196725572"/>
    <nd ref="196723559"/>
    <tag k="created_by" v="Potlatch 0.6"/>
    <tag k="highway" v="residential"/>
    <tag k="name" v="Evans Street"/>
    <tag k="source" v="survey"/>
  </way>
  <way id="19001477" version="4" timestamp="2010-07-08T01:00:05Z" uid="74617" user="JohnSmith" changeset="5162525">
    <nd ref="26524976"/>
    <nd ref="313825020"/>
    <nd ref="196725572"/>
    <nd ref="196723559"/>
    <tag k="highway" v="residential"/>
    <tag k="maxspeed" v="50"/>
    <tag k="maxspeed:source" v="default residential speed limit in Australia"/>
    <tag k="name" v="Evans Street"/>
    <tag k="source" v="survey"/>
  </way>
  <way id="19001477" version="5" timestamp="2012-01-15T19:41:15Z" uid="147510" user="woodpeck_fixbot" changeset="10400850">
    <nd ref="26524976"/>
    <nd ref="313825020"/>
    <nd ref="196725572"/>
    <nd ref="196723559"/>
    <tag k="highway" v="residential"/>
    <tag k="name" v="Evans Street"/>
    <tag k="source" v="survey"/>
  </way>
  <way id="19001483" version="18" timestamp="2010-01-19T00:26:18Z" uid="216873" user="Goonie" changeset="3655307">
    <nd ref="196725581"/>
    <nd ref="29219438"/>
    <tag k="highway" v="primary"/>
    <tag k="name" v="Alexanderstraße"/>
    <tag k="note" v="Übergeordnete Straße, Stufe I"/>
    <tag k="oneway" v="yes"/>
    <tag k="postal_code" v="10179"/>
  </way>
  <way id="19001483" version="19" timestamp="2010-08-18T07:55:14Z" uid="43566" user="anbr" changeset="5524113">
    <nd ref="196725581"/>
    <nd ref="29219438"/>
    <tag k="highway" v="secondary"/>
    <tag k="name" v="Alexanderstraße"/>
    <tag k="note" v="Übergeordnete Straße, Stufe I"/>
    <tag k="oneway" v="yes"/>
    <tag k="postal_code" v="10179"/>
  </way>
  <way id="19001483" version="20" timestamp="2010-10-23T18:30:09Z" uid="4660" user="alv" changeset="6148727">
    <nd ref="196725581"/>
    <nd ref="29219438"/>
    <tag k="cycleway" v="lane"/>
    <tag k="highway" v="secondary"/>
    <tag k="lit" v="yes"/>
    <tag k="name" v="Alexanderstraße"/>
    <tag k="note" v="Übergeordnete Straße, Stufe I"/>
    <tag k="oneway" v="yes"/>
    <tag k="postal_code" v="10179"/>
    <tag k="surface" v="paved"/>
  </way>
  <way id="19001711" version="6" timestamp="2010-02-14T15:49:01Z" uid="74617" user="JohnSmith" changeset="3874884">
    <nd ref="80832461"/>
    <nd ref="196730129"/>
    <nd ref="196730131"/>
    <nd ref="196730135"/>
    <tag k="highway" v="residential"/>
    <tag k="maxspeed" v="50"/>
    <tag k="name" v="Turrana Street"/>
  </way>
  <way id="19001711" version="7" timestamp="2012-01-15T19:41:16Z" uid="147510" user="woodpeck_fixbot" changeset="10400850">
    <nd ref="80832461"/>
    <nd ref="196730129"/>
    <nd ref="196730131"/>
    <nd ref="196730135"/>
    <tag k="highway" v="residential"/>
    <tag k="name" v="Turrana Street"/>
  </way>
  <way id="19001931" version="4" timestamp="2010-07-06T08:52:23Z" uid="74617" user="JohnSmith" changeset="5147679">
    <nd ref="193393571"/>
    <nd ref="196733761"/>
    <nd ref="196733762"/>
    <nd ref="196733763"/>
    <nd ref="196733764"/>
    <tag k="highway" v="residential"/>
    <tag k="maxspeed" v="50"/>
    <tag k="maxspeed:source" v="default residential speed limit in Australia"/>
    <tag k="name" v="Elsie Place"/>
  </way>
  <way id="19001931" version="5" timestamp="2012-01-15T19:41:17Z" uid="147510" user="woodpeck_fixbot" changeset="10400850">
    <nd ref="193393571"/>
    <nd ref="196733761"/>
    <nd ref="196733762"/>
    <nd ref="196733763"/>
    <nd ref="196733764"/>
    <tag k="highway" v="residential"/>
    <tag k="name" v="Elsie Place"/>
  </way>
  <way id="19001964" version="4" timestamp="2010-07-06T08:54:37Z" uid="74617" user="JohnSmith" changeset="5147679">
    <nd ref="193393568"/>
    <nd ref="196734364"/>
    <nd ref="196734366"/>
    <nd ref="196734367"/>
    <nd ref="196734368"/>
    <nd ref="196734369"/>
    <nd ref="196734370"/>
    <nd ref="196734371"/>
    <tag k="highway" v="residential"/>
    <tag k="maxspeed" v="50"/>
    <tag k="maxspeed:source" v="default residential speed limit in Australia"/>
    <tag k="name" v="Wesley Place"/>
  </way>
  <way id="19001964" version="5" timestamp="2012-01-15T19:41:18Z" uid="147510" user="woodpeck_fixbot" changeset="10400850">
    <nd ref="193393568"/>
    <nd ref="196734364"/>
    <nd ref="196734366"/>
    <nd ref="196734367"/>
    <nd ref="196734368"/>
    <nd ref="196734369"/>
    <nd ref="196734370"/>
    <nd ref="196734371"/>
    <tag k="highway" v="residential"/>
    <tag k="name" v="Wesley Place"/>
  </way>
</osm>
