<?xml version='1.0' encoding='UTF-8'?>
<osm version="0.6" generator="libosmium/2.20.0">
  <way id="19013200" version="1" timestamp="2007-12-30T06:50:20Z" uid="18775" user="drlizau" changeset="482858">
    <nd ref="196911328"/>
    <nd ref="196911349"/>
    <nd ref="196911370"/>
    <tag k="created_by" v="JOSM"/>
    <tag k="highway" v="residential"/>
    <tag k="name" v="Gallipoli Street"/>
  </way>
  <way id="19013200" version="2" timestamp="2008-11-16T11:07:14Z" uid="18775" user="drlizau" changeset="756879">
    <nd ref="196911328"/>
    <nd ref="196911349"/>
    <nd ref="196911370"/>
    <tag k="created_by" v="JOSM"/>
    <tag k="highway" v="residential"/>
    <tag k="name" v="Gallipoli Street"/>
  </way>
  <way id="19013200" version="3" timestamp="2008-11-16T11:35:16Z" uid="18775" user="drlizau" changeset="756879">
    <nd ref="196911328"/>
    <nd ref="196911349"/>
    <nd ref="196911370"/>
    <tag k="created_by" v="JOSM"/>
    <tag k="highway" v="residential"/>
    <tag k="name" v="Gallipoli Street"/>
    <tag k="source" v="survey"/>
  </way>
  <way id="19013200" version="4" timestamp="2010-07-07T08:12:01Z" uid="74617" user="JohnSmith" changeset="5156250">
    <nd ref="196911328"/>
    <nd ref="196911349"/>
    <nd ref="196911370"/>
    <tag k="highway" v="residential"/>
    <tag k="maxspeed" v="50"/>
    <tag k="maxspeed:source" v="default residential speed limit in Australia"/>
    <tag k="name" v="Gallipoli Street"/>
    <tag k="source" v="survey"/>
  </way>
  <way id="19013200" version="5" timestamp="2010-12-20T12:29:46Z" uid="19626" user="Swamp" changeset="6715499">
    <nd ref="196911328"/>
    <nd ref="196911349"/>
    <nd ref="196911370"/>
    <tag k="highway" v="residential"/>
    <tag k="maxspeed" v="50"/>
    <tag k="name" v="Gallipoli Street"/>
    <tag k="source" v="survey"/>
  </way>
  <way id="19013200" version="6" timestamp="2012-01-15T19:41:53Z" uid="147510" user="woodpeck_fixbot" changeset="10400850">
    <nd ref="196911328"/>
    <nd ref="196911349"/>
    <nd ref="196911370"/>
    <tag k="highway" v="residential"/>
    <tag k="name" v="Gallipoli Street"/>
    <tag k="source" v="survey"/>
  </way>
  <way id="19013358" version="20" timestamp="2011-03-15T09:07:16Z" uid="4467" user="Rosscoe" changeset="7564285">
    <nd ref="196913063"/>
    <nd ref="636901591"/>
    <nd ref="553840532"/>
    <nd ref="361405047"/>
    <nd ref="714741626"/>
    <nd ref="196913363"/>
    <nd ref="591317276"/>
    <nd ref="591321042"/>
    <nd ref="277124192"/>
    <nd ref="591320182"/>
    <nd ref="277124110"/>
    <tag k="highway" v="primary"/>
    <tag k="name" v="Clarendon Street"/>
    <tag k="oneway" v="yes"/>
  </way>
  <way id="19013362" version="3" timestamp="2010-07-04T14:21:47Z" uid="4467" user="Rosscoe" changeset="5133336">
    <nd ref="196914902"/>
    <nd ref="196914904"/>
    <nd ref="196914906"/>
    <nd ref="196914908"/>
    <nd ref="196914910"/>
    <nd ref="196914912"/>
    <nd ref="196914914"/>
    <nd ref="196914916"/>
    <nd ref="196914918"/>
    <nd ref="196914920"/>
    <nd ref="196914922"/>
    <nd ref="196914924"/>
    <nd ref="196914926"/>
    <nd ref="196914928"/>
    <nd ref="196914930"/>
    <nd ref="196914932"/>
    <nd ref="196914934"/>
    <nd ref="196914936"/>
    <nd ref="196914938"/>
    <nd ref="196914940"/>
    <nd ref="196914942"/>
    <nd ref="196914944"/>
    <nd ref="196914946"/>
    <nd ref="196914948"/>
    <nd ref="196914950"/>
    <nd ref="196914952"/>
    <nd ref="196914954"/>
    <nd ref="196914956"/>
    <tag k="highway" v="residential"/>
    <tag k="name" v="Hunters Court"/>
    <tag k="tiger:cfcc" v="A41"/>
    <tag k="tiger:county" v="Clermont, OH"/>
    <tag k="tiger:name_base" v="Hunters"/>
    <tag k="tiger:name_type" v="Ct"/>
    <tag k="tiger:reviewed" v="no"/>
    <tag k="tiger:separated" v="no"/>
    <tag k="tiger:source" v="tiger_import_dch_v0.6_20070829"/>
    <tag k="tiger:tlid" v="118455603:118455604"/>
    <tag k="tiger:upload_uuid" v="bulk_upload.pl-45e48dc5-1286-4022-b7e8-a3e9e1f16a35"/>
    <tag k="tiger:zip_left" v="45102"/>
    <tag k="tiger:zip_right" v="45102"/>
  </way>
  <way id="19013391" version="15" timestamp="2011-03-15T09:07:12Z" uid="4467" user="Rosscoe" changeset="7564285">
    <nd ref="49507343"/>
    <nd ref="267317732"/>
    <nd ref="591276363"/>
    <nd ref="591275382"/>
    <nd ref="591317304"/>
    <nd ref="111302447"/>
    <tag k="highway" v="primary"/>
    <tag k="name" v="Clarendon Street"/>
    <tag k="oneway" v="yes"/>
  </way>
  <way id="19013473" version="1" timestamp="2007-12-30T06:53:48Z" uid="18775" user="drlizau" changeset="482858">
    <nd ref="196916128"/>
    <nd ref="196916150"/>
    <nd ref="196916168"/>
    <tag k="created_by" v="JOSM"/>
    <tag k="highway" v="residential"/>
    <tag k="name" v="Collarene Street"/>
  </way>
  <way id="19013473" version="2" timestamp="2008-11-16T04:55:40Z" uid="18775" user="drlizau" changeset="754437">
    <nd ref="196916128"/>
    <nd ref="196916150"/>
    <nd ref="196916168"/>
    <tag k="created_by" v="JOSM"/>
    <tag k="highway" v="residential"/>
    <tag k="name" v="Collarene Street"/>
    <tag k="source" v="survey"/>
  </way>
  <way id="19013473" version="3" timestamp="2008-11-16T11:05:56Z" uid="18775" user="drlizau" changeset="756879">
    <nd ref="196916128"/>
    <nd ref="196916150"/>
    <nd ref="196916168"/>
    <tag k="created_by" v="JOSM"/>
    <tag k="highway" v="residential"/>
    <tag k="name" v="Collarene Street"/>
  </way>
  <way id="19013473" version="4" timestamp="2008-11-16T11:34:14Z" uid="18775" user="drlizau" changeset="756879">
    <nd ref="196916128"/>
    <nd ref="196916150"/>
    <nd ref="196916168"/>
    <tag k="created_by" v="JOSM"/>
    <tag k="highway" v="residential"/>
    <tag k="name" v="Collarene Street"/>
    <tag k="source" v="survey"/>
  </way>
  <way id="19013473" version="5" timestamp="2009-07-25T04:16:24Z" uid="74617" user="JohnSmith" changeset="1930637">
    <nd ref="196916128"/>
    <nd ref="196916150"/>
    <nd ref="196916168"/>
    <tag k="highway" v="residential"/>
    <tag k="name" v="Collarene Street"/>
    <tag k="source" v="survey"/>
  </way>
  <way id="19013473" version="6" timestamp="2010-07-07T08:12:03Z" uid="74617" user="JohnSmith" changeset="5156250">
    <nd ref="196916128"/>
    <nd ref="196916150"/>
    <nd ref="196916168"/>
    <tag k="highway" v="residential"/>
    <tag k="maxspeed" v="50"/>
    <tag k="maxspeed:source" v="default residential speed limit in Australia"/>
    <tag k="name" v="Collarene Street"/>
    <tag k="source" v="survey"/>
  </way>
  <way id="19013473" version="7" timestamp="2012-01-15T19:41:54Z" uid="147510" user="woodpeck_fixbot" changeset="10400850">
    <nd ref="196916128"/>
    <nd ref="196916150"/>
    <nd ref="196916168"/>
    <tag k="highway" v="residential"/>
    <tag k="name" v="Collarene Street"/>
    <tag k="source" v="survey"/>
  </way>
  <way id="19013477" version="1" timestamp="2007-12-30T06:53:48Z" uid="18775" user="drlizau" changeset="482858">
    <nd ref="196916192"/>
    <nd ref="196916208"/>
    <nd ref="117045761"/>
    <tag k="created_by" v="JOSM"/>
    <tag k="highway" v="Kuttamulla Street"/>
  </way>
  <way id="19013477" version="2" timestamp="2008-01-29T10:22:25Z" uid="18775" user="drlizau" changeset="708790">
    <nd ref="196916192"/>
    <nd ref="196916208"/>
    <nd ref="117045761"/>
    <tag k="created_by" v="JOSM"/>
    <tag k="highway" v="residential"/>
  </way>
  <way id="19013477" version="3" timestamp="2008-05-27T10:38:26Z" uid="18775" user="drlizau" changeset="534467">
    <nd ref="196916192"/>
    <nd ref="196916208"/>
    <nd ref="117045761"/>
    <tag k="created_by" v="JOSM"/>
    <tag k="highway" v="residential"/>
    <tag k="name" v="Kuttamulla Avenue"/>
  </way>
  <way id="19013477" version="4" timestamp="2008-11-16T11:05:49Z" uid="18775" user="drlizau" changeset="756879">
    <nd ref="196916192"/>
    <nd ref="196916208"/>
    <nd ref="117045761"/>
    <tag k="created_by" v="JOSM"/>
    <tag k="highway" v="residential"/>
    <tag k="name" v="Kuttamulla Avenue"/>
  </way>
  <way id="19013477" version="5" timestamp="2008-11-16T11:34:08Z" uid="18775" user="drlizau" changeset="756879">
    <nd ref="196916192"/>
    <nd ref="196916208"/>
    <nd ref="117045761"/>
    <tag k="created_by" v="JOSM"/>
    <tag k="highway" v="residential"/>
    <tag k="name" v="Kuttamulla Avenue"/>
    <tag k="source" v="survey"/>
  </way>
  <way id="19013477" version="6" timestamp="2009-07-25T04:16:19Z" uid="74617" user="JohnSmith" changeset="1930637">
    <nd ref="196916192"/>
    <nd ref="196916208"/>
    <nd ref="117045761"/>
    <tag k="highway" v="residential"/>
    <tag k="name" v="Kuttamulla Avenue"/>
    <tag k="source" v="survey"/>
  </way>
  <way id="19013477" version="7" timestamp="2010-07-07T08:11:51Z" uid="74617" user="JohnSmith" changeset="5156250">
    <nd ref="196916192"/>
    <nd ref="196916208"/>
    <nd ref="117045761"/>
    <tag k="highway" v="residential"/>
    <tag k="maxspeed" v="50"/>
    <tag k="maxspeed:source" v="default residential speed limit in Australia"/>
    <tag k="name" v="Kuttamulla Avenue"/>
    <tag k="source" v="survey"/>
  </way>
  <way id="19013477" version="8" timestamp="2012-01-15T19:41:54Z" uid="147510" user="woodpeck_fixbot" changeset="10400850">
    <nd ref="196916192"/>
    <nd ref="196916208"/>
    <nd ref="117045761"/>
    <tag k="highway" v="residential"/>
    <tag k="name" v="Kuttamulla Avenue"/>
    <tag k="source" v="survey"/>
  </way>
  <way id="19013480" version="1" timestamp="2007-12-30T06:53:49Z" uid="18775" user="drlizau" changeset="482858">
    <nd ref="196916233"/>
    <nd ref="196916253"/>
    <nd ref="118556080"/>
    <tag k="created_by" v="JOSM"/>
    <tag k="highway" v="service"/>
    <tag k="name" v="Walla Lane"/>
  </way>
  <way id="19013480" version="2" timestamp="2008-11-16T11:05:31Z" uid="18775" user="drlizau" changeset="756879">
    <nd ref="196916233"/>
    <nd ref="196916253"/>
    <nd ref="118556080"/>
    <tag k="created_by" v="JOSM"/>
    <tag k="highway" v="service"/>
    <tag k="name" v="Walla Lane"/>
  </way>
  <way id="19013480" version="3" timestamp="2008-11-16T11:33:49Z" uid="18775" user="drlizau" changeset="756879">
    <nd ref="196916233"/>
    <nd ref="196916253"/>
    <nd ref="118556080"/>
    <tag k="created_by" v="JOSM"/>
    <tag k="highway" v="service"/>
    <tag k="name" v="Walla Lane"/>
    <tag k="source" v="survey"/>
  </way>
  <way id="19013480" version="4" timestamp="2009-07-25T04:16:21Z" uid="74617" user="JohnSmith" changeset="1930637">
    <nd ref="196916233"/>
    <nd ref="196916253"/>
    <nd ref="118556080"/>
    <tag k="highway" v="service"/>
    <tag k="name" v="Walla Lane"/>
    <tag k="source" v="survey"/>
  </way>
  <way id="19013483" version="1" timestamp="2007-12-30T06:53:50Z" uid="18775" user="drlizau" changeset="482858">
    <nd ref="195047410"/>
    <nd ref="196916265"/>
    <nd ref="196916282"/>
    <nd ref="118555910"/>
    <tag k="created_by" v="JOSM"/>
    <tag k="highway" v="residential"/>
    <tag k="name" v="Neville Place"/>
    <tag k="oneway" v="true"/>
  </way>
  <way id="19013483" version="2" timestamp="2008-11-16T11:05:42Z" uid="18775" user="drlizau" changeset="756879">
    <nd ref="195047410"/>
    <nd ref="196916265"/>
    <nd ref="196916282"/>
    <nd ref="118555910"/>
    <tag k="created_by" v="JOSM"/>
    <tag k="highway" v="residential"/>
    <tag k="name" v="Neville Place"/>
    <tag k="oneway" v="true"/>
  </way>
  <way id="19013483" version="3" timestamp="2008-11-16T11:34:02Z" uid="18775" user="drlizau" changeset="756879">
    <nd ref="195047410"/>
    <nd ref="196916265"/>
    <nd ref="196916282"/>
    <nd ref="118555910"/>
    <tag k="created_by" v="JOSM"/>
    <tag k="highway" v="residential"/>
    <tag k="name" v="Neville Place"/>
    <tag k="oneway" v="true"/>
    <tag k="source" v="survey"/>
  </way>
  <way id="19013483" version="4" timestamp="2009-04-13T07:48:37Z" uid="18775" user="drlizau" changeset="467664">
    <nd ref="195047410"/>
    <nd ref="196916265"/>
    <nd ref="196916282"/>
    <nd ref="118555910"/>
    <tag k="created_by" v="JOSM"/>
    <tag k="highway" v="residential"/>
    <tag k="name" v="Neville Place"/>
    <tag k="oneway" v="yes"/>
    <tag k="source" v="survey"/>
  </way>
  <way id="19013483" version="5" timestamp="2009-07-25T04:16:17Z" uid="74617" user="JohnSmith" changeset="1930637">
    <nd ref="195047410"/>
    <nd ref="196916265"/>
    <nd ref="196916282"/>
    <nd ref="118555910"/>
    <tag k="highway" v="residential"/>
    <tag k="name" v="Neville Place"/>
    <tag k="oneway" v="yes"/>
    <tag k="source" v="survey"/>
  </way>
  <way id="19013483" version="6" timestamp="2010-07-07T08:12:14Z" uid="74617" user="JohnSmith" changeset="5156250">
    <nd ref="195047410"/>
    <nd ref="196916265"/>
    <nd ref="196916282"/>
    <nd ref="118555910"/>
    <tag k="highway" v="residential"/>
    <tag k="maxspeed" v="50"/>
    <tag k="maxspeed:source" v="default residential speed limit in Australia"/>
    <tag k="name" v="Neville Place"/>
    <tag k="oneway" v="yes"/>
    <tag k="source" v="survey"/>
  </way>
  <way id="19013483" version="7" timestamp="2012-01-15T19:41:56Z" uid="147510" user="woodpeck_fixbot" changeset="10400850">
    <nd ref="195047410"/>
    <nd ref="196916265"/>
    <nd ref="196916282"/>
    <nd ref="118555910"/>
    <tag k="highway" v="residential"/>
    <tag k="name" v="Neville Place"/>
    <tag k="oneway" v="yes"/>
    <tag k="source" v="survey"/>
  </way>
</osm>
