<?xml version='1.0' encoding='UTF-8'?>
<osm version="0.6" generator="libosmium/2.20.0">
  <way id="19032341" version="1" timestamp="2007-12-30T10:12:56Z" uid="7617" user="Franc" changeset="472727">
    <nd ref="197185330"/>
    <nd ref="28881379"/>
    <tag k="complete" v="no"/>
    <tag k="created_by" v="JOSM"/>
    <tag k="highway" v="footway"/>
    <tag k="name" v="Lane Cove Bush Walk 6B"/>
    <tag k="note" v="Sign: Blackman Park 0.9km, The Boorean 0.4km"/>
  </way>
  <way id="19032341" version="2" timestamp="2007-12-30T10:17:41Z" uid="7617" user="Franc" changeset="472727">
    <nd ref="197185330"/>
    <nd ref="28881379"/>
    <tag k="complete" v="no"/>
    <tag k="created_by" v="JOSM"/>
    <tag k="highway" v="footway"/>
    <tag k="name" v="Lane Cove Bush Walk 6B"/>
    <tag k="note" v="Sign: Blackman Park 0.9km, The Booreen 0.4km"/>
  </way>
  <way id="19032341" version="3" timestamp="2008-08-11T10:34:37Z" uid="36694" user="neufeind" changeset="181492">
    <nd ref="197185330"/>
    <nd ref="28881379"/>
    <tag k="FIXME" v="incomplete"/>
    <tag k="highway" v="footway"/>
    <tag k="name" v="Lane Cove Bush Walk 6B"/>
    <tag k="note" v="Sign: Blackman Park 0.9km, The Booreen 0.4km"/>
  </way>
  <way id="19032644" version="5" timestamp="2010-07-06T09:51:50Z" uid="74617" user="JohnSmith" changeset="5147679">
    <nd ref="26337988"/>
    <nd ref="26337989"/>
    <tag k="highway" v="residential"/>
    <tag k="maxspeed" v="50"/>
    <tag k="maxspeed:source" v="default residential speed limit in Australia"/>
    <tag k="name" v="Petrie Street"/>
  </way>
  <way id="19032644" version="6" timestamp="2012-01-15T19:42:56Z" uid="147510" user="woodpeck_fixbot" changeset="10400850">
    <nd ref="26337988"/>
    <nd ref="26337989"/>
    <tag k="highway" v="residential"/>
    <tag k="name" v="Petrie Street"/>
  </way>
  <way id="19032913" version="4" timestamp="2010-07-06T09:50:19Z" uid="74617" user="JohnSmith" changeset="5147679">
    <nd ref="26338352"/>
    <nd ref="197240674"/>
    <nd ref="193585261"/>
    <nd ref="26337963"/>
    <tag k="highway" v="residential"/>
    <tag k="maxspeed" v="50"/>
    <tag k="maxspeed:source" v="default residential speed limit in Australia"/>
    <tag k="name" v="Kidston Street"/>
  </way>
  <way id="19032913" version="5" timestamp="2012-01-15T19:42:57Z" uid="147510" user="woodpeck_fixbot" changeset="10400850">
    <nd ref="26338352"/>
    <nd ref="197240674"/>
    <nd ref="193585261"/>
    <nd ref="26337963"/>
    <tag k="highway" v="residential"/>
    <tag k="name" v="Kidston Street"/>
  </way>
</osm>
