<?xml version='1.0' encoding='UTF-8'?>
<osm version="0.6" generator="libosmium/2.20.0">
  <way id="19080058" version="9" timestamp="2008-12-13T16:43:06Z" uid="4667" user="MapZ" changeset="352560">
    <nd ref="60027316"/>
    <nd ref="197778708"/>
    <nd ref="197778713"/>
    <nd ref="197778716"/>
    <nd ref="197778717"/>
    <nd ref="197778723"/>
    <nd ref="197778727"/>
    <nd ref="197778732"/>
    <nd ref="197778738"/>
    <nd ref="197778744"/>
    <nd ref="197778749"/>
    <nd ref="197778756"/>
    <nd ref="197778761"/>
    <nd ref="83584009"/>
    <tag k="created_by" v="Potlatch 0.10d"/>
    <tag k="highway" v="trunk"/>
    <tag k="ref" v="B 9"/>
  </way>
  <way id="19080058" version="10" timestamp="2008-12-22T16:40:44Z" uid="13712" user="TimG" changeset="550702">
    <nd ref="60027316"/>
    <nd ref="197778708"/>
    <tag k="created_by" v="Potlatch 0.10d"/>
    <tag k="highway" v="trunk"/>
    <tag k="ref" v="B 9"/>
  </way>
  <way id="19080058" version="11" timestamp="2009-08-18T04:17:09Z" uid="154917" user="forstwald" changeset="2185116">
    <nd ref="60027316"/>
    <nd ref="470180862"/>
    <nd ref="197778708"/>
    <tag k="highway" v="trunk"/>
    <tag k="motorroad" v="yes"/>
    <tag k="ref" v="B 9"/>
  </way>
  <way id="19080058" version="12" timestamp="2009-09-09T15:16:57Z" uid="154917" user="forstwald" changeset="2426491">
    <nd ref="60027316"/>
    <nd ref="470180862"/>
    <nd ref="197778708"/>
    <tag k="highway" v="primary"/>
    <tag k="motorroad" v="yes"/>
    <tag k="ref" v="B 9"/>
  </way>
  <way id="19080058" version="13" timestamp="2010-03-17T00:21:21Z" uid="27716" user="glmosm" changeset="4148324">
    <nd ref="60027316"/>
    <nd ref="667554863"/>
    <nd ref="470180862"/>
    <nd ref="197778708"/>
    <tag k="highway" v="primary"/>
    <tag k="motorroad" v="yes"/>
    <tag k="ref" v="B 9"/>
  </way>
  <way id="19080058" version="14" timestamp="2010-07-30T04:53:43Z" uid="263596" user="Oberförster" changeset="5351678">
    <nd ref="60027316"/>
    <nd ref="667554863"/>
    <nd ref="470180862"/>
    <nd ref="197778708"/>
    <tag k="highway" v="trunk"/>
    <tag k="lanes" v="2"/>
    <tag k="motorroad" v="yes"/>
    <tag k="ref" v="B 9"/>
  </way>
  <way id="19080058" version="15" timestamp="2010-11-21T15:52:40Z" uid="263596" user="Oberförster" changeset="6423738">
    <nd ref="60027316"/>
    <nd ref="667554863"/>
    <nd ref="470180862"/>
    <nd ref="197778708"/>
    <tag k="highway" v="trunk"/>
    <tag k="lanes" v="2"/>
    <tag k="motorroad" v="yes"/>
    <tag k="ref" v="Skurile Kraftfahrstraße  B 9"/>
  </way>
  <way id="19080058" version="16" timestamp="2010-11-21T15:58:04Z" uid="263596" user="Oberförster" changeset="6423779">
    <nd ref="60027316"/>
    <nd ref="667554863"/>
    <nd ref="470180862"/>
    <nd ref="197778708"/>
    <tag k="highway" v="trunk"/>
    <tag k="lanes" v="2"/>
    <tag k="motorroad" v="yes"/>
    <tag k="ref" v="Fahrradverbot"/>
  </way>
  <way id="19080058" version="17" timestamp="2010-11-23T03:42:53Z" uid="263596" user="Oberförster" changeset="6436677">
    <nd ref="60027316"/>
    <nd ref="667554863"/>
    <nd ref="470180862"/>
    <nd ref="197778708"/>
    <tag k="highway" v="trunk"/>
    <tag k="lanes" v="2"/>
    <tag k="motorroad" v="yes"/>
    <tag k="name" v="Kraftfahrstraße  B 9"/>
    <tag k="ref" v="Skurrile Kraftfahrstraße"/>
  </way>
  <way id="19080058" version="18" timestamp="2010-11-25T11:05:20Z" uid="70696" user="xybot" changeset="6453593">
    <nd ref="60027316"/>
    <nd ref="667554863"/>
    <nd ref="470180862"/>
    <nd ref="197778708"/>
    <tag k="highway" v="trunk"/>
    <tag k="lanes" v="2"/>
    <tag k="motorroad" v="yes"/>
    <tag k="name" v="Kraftfahrstraße B 9"/>
    <tag k="ref" v="Skurrile Kraftfahrstraße"/>
  </way>
  <way id="19080058" version="19" timestamp="2010-12-13T20:03:51Z" uid="49317" user="Gary68" changeset="6651841">
    <nd ref="60027316"/>
    <nd ref="667554863"/>
    <nd ref="470180862"/>
    <nd ref="197778708"/>
    <tag k="highway" v="trunk"/>
    <tag k="lanes" v="2"/>
    <tag k="motorroad" v="yes"/>
    <tag k="ref" v="B 9"/>
  </way>
  <way id="19080058" version="20" timestamp="2011-09-11T08:56:55Z" uid="242551" user="hmpfgnrrr" changeset="9268783">
    <nd ref="60027316"/>
    <nd ref="667554863"/>
    <nd ref="470180862"/>
    <nd ref="197778708"/>
    <tag k="highway" v="primary"/>
    <tag k="lanes" v="2"/>
    <tag k="motorroad" v="yes"/>
    <tag k="ref" v="B 9"/>
  </way>
  <way id="19080058" version="21" timestamp="2012-03-04T13:46:54Z" uid="242551" user="hmpfgnrrr" changeset="10868575">
    <nd ref="60027316"/>
    <nd ref="667554863"/>
    <nd ref="1659005509"/>
    <nd ref="197778708"/>
    <tag k="highway" v="primary"/>
    <tag k="lanes" v="2"/>
    <tag k="motorroad" v="yes"/>
    <tag k="ref" v="B 9"/>
  </way>
</osm>
