<?xml version='1.0' encoding='UTF-8'?>
<osm version="0.6" generator="libosmium/2.20.0">
  <way id="19172010" version="4" timestamp="2009-09-04T21:16:22Z" uid="36809" user="pfoten_weg_!_" changeset="2374562">
    <nd ref="183524213"/>
    <nd ref="183524215"/>
    <tag k="highway" v="residential"/>
    <tag k="name" v="Christrosenweg"/>
  </way>
  <way id="19172559" version="4" timestamp="2009-08-04T14:44:51Z" uid="74617" user="JohnSmith" changeset="2036444">
    <nd ref="198731639"/>
    <nd ref="198731719"/>
    <tag k="bridge" v="yes"/>
    <tag k="highway" v="trunk"/>
    <tag k="layer" v="1"/>
    <tag k="name" v="New England Highway"/>
    <tag k="ref" v="NH15"/>
    <tag k="source" v="survey"/>
  </way>
  <way id="19172559" version="5" timestamp="2009-08-18T14:17:46Z" uid="74617" user="JohnSmith" changeset="2190517">
    <nd ref="198731639"/>
    <nd ref="198731719"/>
    <tag k="bridge" v="yes"/>
    <tag k="highway" v="trunk"/>
    <tag k="layer" v="1"/>
    <tag k="source" v="survey"/>
  </way>
  <way id="19172559" version="6" timestamp="2010-01-19T12:48:13Z" uid="67896" user="mrpulley" changeset="3657940">
    <nd ref="198731639"/>
    <nd ref="198731719"/>
    <tag k="bridge" v="yes"/>
    <tag k="highway" v="trunk"/>
    <tag k="layer" v="1"/>
    <tag k="name" v="Anaiwan Bridge"/>
    <tag k="source" v="survey"/>
  </way>
  <way id="19172559" version="7" timestamp="2010-07-10T01:12:13Z" uid="299678" user="peteramjet" changeset="5178454">
    <nd ref="198731639"/>
    <nd ref="198731719"/>
    <tag k="alt_name" v="Anaiwan Bridge"/>
    <tag k="bridge" v="yes"/>
    <tag k="highway" v="trunk"/>
    <tag k="layer" v="1"/>
    <tag k="name" v="New England Highway"/>
    <tag k="source" v="survey"/>
  </way>
  <way id="19172559" version="8" timestamp="2010-11-03T11:13:32Z" uid="67896" user="mrpulley" changeset="6275090">
    <nd ref="198731639"/>
    <nd ref="198731719"/>
    <tag k="alt_name" v="Anaiwan Bridge"/>
    <tag k="bridge" v="yes"/>
    <tag k="highway" v="trunk"/>
    <tag k="layer" v="1"/>
    <tag k="maxspeed" v="100"/>
    <tag k="name" v="New England Highway"/>
    <tag k="source" v="survey"/>
    <tag k="surface" v="paved"/>
  </way>
  <way id="19172559" version="9" timestamp="2012-01-08T05:09:27Z" uid="67896" user="mrpulley" changeset="10328121">
    <nd ref="198731639"/>
    <nd ref="198731719"/>
    <tag k="alt_name" v="Anaiwan Bridge"/>
    <tag k="bridge" v="yes"/>
    <tag k="highway" v="trunk"/>
    <tag k="layer" v="1"/>
    <tag k="maxspeed" v="100"/>
    <tag k="name" v="New England Highway"/>
    <tag k="ref" v="NH15"/>
    <tag k="source" v="survey"/>
    <tag k="surface" v="paved"/>
  </way>
  <way id="19172568" version="4" timestamp="2009-08-04T14:44:52Z" uid="74617" user="JohnSmith" changeset="2036444">
    <nd ref="198731719"/>
    <nd ref="198731795"/>
    <nd ref="198731857"/>
    <nd ref="198731935"/>
    <nd ref="198732031"/>
    <nd ref="198732095"/>
    <nd ref="198732163"/>
    <nd ref="198732230"/>
    <nd ref="198732312"/>
    <nd ref="198732406"/>
    <nd ref="198732473"/>
    <nd ref="198732577"/>
    <tag k="highway" v="trunk"/>
    <tag k="name" v="New England Highway"/>
    <tag k="ref" v="NH15"/>
    <tag k="source" v="survey"/>
    <tag k="surface" v="paved"/>
  </way>
  <way id="19172568" version="5" timestamp="2009-08-18T14:17:46Z" uid="74617" user="JohnSmith" changeset="2190517">
    <nd ref="198731719"/>
    <nd ref="198731795"/>
    <nd ref="198731857"/>
    <nd ref="198731935"/>
    <nd ref="198732031"/>
    <nd ref="198732095"/>
    <nd ref="198732163"/>
    <nd ref="198732230"/>
    <nd ref="198732312"/>
    <nd ref="198732406"/>
    <nd ref="198732473"/>
    <nd ref="198732577"/>
    <tag k="highway" v="trunk"/>
    <tag k="source" v="survey"/>
  </way>
  <way id="19172568" version="6" timestamp="2010-07-10T01:12:13Z" uid="299678" user="peteramjet" changeset="5178454">
    <nd ref="198731719"/>
    <nd ref="198731795"/>
    <nd ref="198731857"/>
    <nd ref="198731935"/>
    <nd ref="198732031"/>
    <nd ref="198732095"/>
    <nd ref="198732163"/>
    <nd ref="198732230"/>
    <nd ref="198732312"/>
    <nd ref="198732406"/>
    <nd ref="198732473"/>
    <nd ref="198732577"/>
    <tag k="highway" v="trunk"/>
    <tag k="name" v="New England Highway"/>
    <tag k="source" v="survey"/>
  </way>
  <way id="19172568" version="7" timestamp="2010-11-03T11:13:33Z" uid="67896" user="mrpulley" changeset="6275090">
    <nd ref="198731719"/>
    <nd ref="198731795"/>
    <nd ref="198731857"/>
    <nd ref="198731935"/>
    <nd ref="198732031"/>
    <nd ref="198732095"/>
    <nd ref="198732163"/>
    <nd ref="198732230"/>
    <nd ref="198732312"/>
    <nd ref="198732406"/>
    <nd ref="198732473"/>
    <nd ref="198732577"/>
    <tag k="highway" v="trunk"/>
    <tag k="maxspeed" v="100"/>
    <tag k="name" v="New England Highway"/>
    <tag k="source" v="survey"/>
    <tag k="surface" v="asphalt"/>
  </way>
  <way id="19172568" version="8" timestamp="2012-01-08T05:08:53Z" uid="67896" user="mrpulley" changeset="10328121">
    <nd ref="198731719"/>
    <nd ref="198731795"/>
    <nd ref="198731857"/>
    <nd ref="198731935"/>
    <nd ref="198732031"/>
    <nd ref="198732095"/>
    <nd ref="198732163"/>
    <nd ref="198732230"/>
    <nd ref="198732312"/>
    <nd ref="198732406"/>
    <nd ref="198732473"/>
    <nd ref="198732577"/>
    <tag k="highway" v="trunk"/>
    <tag k="maxspeed" v="100"/>
    <tag k="name" v="New England Highway"/>
    <tag k="ref" v="NH15"/>
    <tag k="source" v="survey"/>
    <tag k="surface" v="asphalt"/>
  </way>
  <way id="19172650" version="1" timestamp="2007-12-31T09:28:08Z" uid="4467" user="Rosscoe" changeset="487060">
    <nd ref="198808756"/>
    <nd ref="198808776"/>
    <nd ref="198808802"/>
    <tag k="created_by" v="JOSM"/>
    <tag k="man_made" v="jetty"/>
    <tag k="name" v="Abbot Point"/>
  </way>
  <way id="19172650" version="2" timestamp="2011-01-02T01:37:42Z" uid="4467" user="Rosscoe" changeset="6834539">
    <nd ref="1077856775"/>
    <nd ref="198808776"/>
    <nd ref="198808802"/>
    <tag k="man_made" v="jetty"/>
    <tag k="name" v="Abbot Point"/>
  </way>
</osm>
