<?xml version='1.0' encoding='UTF-8'?>
<osm version="0.6" generator="libosmium/2.20.0">
  <way id="19186976" version="10" timestamp="2009-06-25T16:09:16Z" uid="9581" user="Lobelt" changeset="1624300">
    <nd ref="199014260"/>
    <nd ref="385070961"/>
    <nd ref="36719060"/>
    <nd ref="385070960"/>
    <tag k="bicycle" v="no"/>
    <tag k="created_by" v="Merkaartor 0.12"/>
    <tag k="highway" v="primary_link"/>
    <tag k="ref" v="B 47"/>
  </way>
  <way id="19186976" version="11" timestamp="2010-04-01T11:26:14Z" uid="224490" user="Geo-Tobi" changeset="4293150">
    <nd ref="199014260"/>
    <nd ref="385070961"/>
    <nd ref="36719060"/>
    <nd ref="385070960"/>
    <tag k="bicycle" v="no"/>
    <tag k="highway" v="primary_link"/>
    <tag k="maxspeed" v="70"/>
    <tag k="ref" v="B 47"/>
  </way>
  <way id="19186976" version="12" timestamp="2011-11-12T12:11:30Z" uid="475266" user="Lobelt_2" changeset="9803831">
    <nd ref="199014260"/>
    <nd ref="385070961"/>
    <nd ref="1499853074"/>
    <tag k="bicycle" v="no"/>
    <tag k="highway" v="primary_link"/>
    <tag k="maxspeed" v="50"/>
    <tag k="ref" v="B 47"/>
  </way>
  <way id="19186976" version="13" timestamp="2012-02-02T18:24:06Z" uid="224490" user="Geo-Tobi" changeset="10569990">
    <nd ref="199014260"/>
    <nd ref="385070961"/>
    <nd ref="1499853074"/>
    <tag k="bicycle" v="no"/>
    <tag k="highway" v="primary_link"/>
    <tag k="lanes" v="2"/>
    <tag k="maxspeed" v="50"/>
    <tag k="ref" v="B 47"/>
  </way>
</osm>
