<?xml version='1.0' encoding='UTF-8'?>
<osm version="0.6" generator="libosmium/2.20.0">
  <way id="19263204" version="4" timestamp="2009-09-30T12:59:11Z" uid="36809" user="pfoten_weg_!_" changeset="2687909">
    <nd ref="200047011"/>
    <nd ref="200047012"/>
    <nd ref="200047013"/>
    <nd ref="200047015"/>
    <tag k="highway" v="residential"/>
    <tag k="name" v="Feldhüterstraße"/>
  </way>
  <way id="19263280" version="10" timestamp="2009-09-30T12:59:23Z" uid="36809" user="pfoten_weg_!_" changeset="2687909">
    <nd ref="200047338"/>
    <nd ref="200053582"/>
    <nd ref="200047015"/>
    <nd ref="200047473"/>
    <tag k="highway" v="residential"/>
    <tag k="name" v="Kreuzstraße"/>
  </way>
  <way id="19263561" version="3" timestamp="2009-09-30T13:06:54Z" uid="36809" user="pfoten_weg_!_" changeset="2687909">
    <nd ref="34686538"/>
    <nd ref="200049764"/>
    <nd ref="200049765"/>
    <tag k="highway" v="residential"/>
    <tag k="name" v="Pschorrgasse"/>
  </way>
  <way id="19263831" version="3" timestamp="2009-06-25T03:50:20Z" uid="74617" user="JohnSmith" changeset="1618018">
    <nd ref="186366070"/>
    <nd ref="200047768"/>
    <nd ref="200047837"/>
    <nd ref="200047864"/>
    <nd ref="200047915"/>
    <nd ref="200047949"/>
    <nd ref="200048027"/>
    <tag k="highway" v="residential"/>
    <tag k="name" v="Stanley Street"/>
  </way>
  <way id="19263831" version="4" timestamp="2009-08-12T04:01:29Z" uid="74617" user="JohnSmith" changeset="2114476">
    <nd ref="186366070"/>
    <nd ref="200047768"/>
    <nd ref="200047837"/>
    <nd ref="200047864"/>
    <nd ref="200047915"/>
    <nd ref="200047949"/>
    <nd ref="200048027"/>
    <tag k="highway" v="residential"/>
    <tag k="maxspeed" v="50"/>
    <tag k="name" v="Stanley Street"/>
  </way>
  <way id="19263831" version="5" timestamp="2012-01-15T19:59:03Z" uid="147510" user="woodpeck_fixbot" changeset="10400850">
    <nd ref="186366070"/>
    <nd ref="200047768"/>
    <nd ref="200047837"/>
    <nd ref="200047864"/>
    <nd ref="200047915"/>
    <nd ref="200047949"/>
    <nd ref="200048027"/>
    <tag k="highway" v="residential"/>
    <tag k="name" v="Stanley Street"/>
  </way>
  <way id="19263833" version="3" timestamp="2009-06-25T03:50:19Z" uid="74617" user="JohnSmith" changeset="1618018">
    <nd ref="196698224"/>
    <nd ref="200048038"/>
    <nd ref="200048077"/>
    <nd ref="200048156"/>
    <nd ref="200048203"/>
    <nd ref="200048212"/>
    <nd ref="200048235"/>
    <nd ref="200048262"/>
    <nd ref="200048027"/>
    <nd ref="200048276"/>
    <tag k="highway" v="residential"/>
    <tag k="name" v="Hall Lane"/>
  </way>
  <way id="19263833" version="4" timestamp="2009-07-23T03:38:09Z" uid="74617" user="JohnSmith" changeset="1910971">
    <nd ref="196698224"/>
    <nd ref="200048038"/>
    <nd ref="445988253"/>
    <tag k="highway" v="residential"/>
    <tag k="maxspeed" v="50"/>
    <tag k="name" v="Hall Lane"/>
    <tag k="restriction" v="school_zone"/>
    <tag k="school_zone_maxspeed" v="40"/>
    <tag k="school_zone_on" v="8:00-9:00;14:30-15:30"/>
    <tag k="source" v="survey"/>
    <tag k="surface" v="paved"/>
  </way>
  <way id="19263833" version="5" timestamp="2009-09-06T03:49:42Z" uid="74617" user="JohnSmith" changeset="2386718">
    <nd ref="196698224"/>
    <nd ref="200048038"/>
    <nd ref="445988253"/>
    <tag k="highway" v="residential"/>
    <tag k="maxspeed" v="50"/>
    <tag k="name" v="Hall Lane"/>
    <tag k="restriction" v="school_zone"/>
    <tag k="school_zone_maxspeed" v="40"/>
    <tag k="school_zone_on" v="8:00-9:00;14:30-15:30"/>
    <tag k="source" v="survey"/>
  </way>
  <way id="19263833" version="6" timestamp="2012-01-15T19:59:04Z" uid="147510" user="woodpeck_fixbot" changeset="10400850">
    <nd ref="196698224"/>
    <nd ref="200048038"/>
    <nd ref="445988253"/>
    <tag k="highway" v="residential"/>
    <tag k="name" v="Hall Lane"/>
    <tag k="source" v="survey"/>
  </way>
  <way id="19263837" version="4" timestamp="2009-06-25T03:50:19Z" uid="74617" user="JohnSmith" changeset="1618018">
    <nd ref="200048291"/>
    <nd ref="200048324"/>
    <nd ref="200048398"/>
    <nd ref="200048414"/>
    <nd ref="200048432"/>
    <nd ref="204557487"/>
    <nd ref="204558171"/>
    <nd ref="200048458"/>
    <nd ref="204558083"/>
    <nd ref="200048507"/>
    <nd ref="200048534"/>
    <tag k="highway" v="residential"/>
    <tag k="name" v="Beaconsfield Street"/>
  </way>
  <way id="19263837" version="5" timestamp="2009-08-12T04:02:00Z" uid="74617" user="JohnSmith" changeset="2114476">
    <nd ref="200048291"/>
    <nd ref="200048324"/>
    <nd ref="200048398"/>
    <nd ref="200048414"/>
    <nd ref="200048432"/>
    <nd ref="204557487"/>
    <nd ref="204558171"/>
    <nd ref="200048458"/>
    <nd ref="204558083"/>
    <nd ref="200048507"/>
    <nd ref="200048534"/>
    <tag k="highway" v="residential"/>
    <tag k="maxspeed" v="50"/>
    <tag k="name" v="Beaconsfield Street"/>
  </way>
  <way id="19263837" version="6" timestamp="2012-01-15T19:59:05Z" uid="147510" user="woodpeck_fixbot" changeset="10400850">
    <nd ref="200048291"/>
    <nd ref="200048324"/>
    <nd ref="200048398"/>
    <nd ref="200048414"/>
    <nd ref="200048432"/>
    <nd ref="204557487"/>
    <nd ref="204558171"/>
    <nd ref="200048458"/>
    <nd ref="204558083"/>
    <nd ref="200048507"/>
    <nd ref="200048534"/>
    <tag k="highway" v="residential"/>
    <tag k="name" v="Beaconsfield Street"/>
  </way>
  <way id="19263838" version="4" timestamp="2009-06-25T03:50:19Z" uid="74617" user="JohnSmith" changeset="1618018">
    <nd ref="186319085"/>
    <nd ref="200048567"/>
    <nd ref="200048598"/>
    <nd ref="200048690"/>
    <nd ref="200048534"/>
    <nd ref="204557288"/>
    <nd ref="204557341"/>
    <nd ref="204557412"/>
    <nd ref="204557435"/>
    <nd ref="204557459"/>
    <tag k="highway" v="residential"/>
    <tag k="name" v="River Road"/>
  </way>
  <way id="19263838" version="5" timestamp="2009-08-12T04:01:18Z" uid="74617" user="JohnSmith" changeset="2114476">
    <nd ref="186319085"/>
    <nd ref="200048567"/>
    <nd ref="200048598"/>
    <nd ref="200048690"/>
    <nd ref="200048534"/>
    <nd ref="204557288"/>
    <nd ref="204557341"/>
    <nd ref="204557412"/>
    <nd ref="204557435"/>
    <nd ref="204557459"/>
    <tag k="highway" v="residential"/>
    <tag k="maxspeed" v="50"/>
    <tag k="name" v="River Road"/>
  </way>
  <way id="19263838" version="6" timestamp="2012-01-15T19:59:06Z" uid="147510" user="woodpeck_fixbot" changeset="10400850">
    <nd ref="186319085"/>
    <nd ref="200048567"/>
    <nd ref="200048598"/>
    <nd ref="200048690"/>
    <nd ref="200048534"/>
    <nd ref="204557288"/>
    <nd ref="204557341"/>
    <nd ref="204557412"/>
    <nd ref="204557435"/>
    <nd ref="204557459"/>
    <tag k="highway" v="residential"/>
    <tag k="name" v="River Road"/>
  </way>
  <way id="19263864" version="3" timestamp="2009-06-25T03:50:13Z" uid="74617" user="JohnSmith" changeset="1618018">
    <nd ref="186198816"/>
    <nd ref="200048810"/>
    <tag k="highway" v="service"/>
    <tag k="name" v="Glandore Lane"/>
    <tag k="oneway" v="true"/>
  </way>
  <way id="19263864" version="4" timestamp="2009-07-04T04:11:24Z" uid="74617" user="JohnSmith" changeset="1726415">
    <nd ref="186198816"/>
    <nd ref="200048810"/>
    <tag k="highway" v="service"/>
    <tag k="name" v="Glandore Lane"/>
    <tag k="oneway" v="yes"/>
  </way>
  <way id="19263864" version="5" timestamp="2009-07-22T08:57:47Z" uid="74617" user="JohnSmith" changeset="1902725">
    <nd ref="186198816"/>
    <nd ref="200048810"/>
    <tag k="highway" v="service"/>
    <tag k="maxspeed" v="20"/>
    <tag k="name" v="Glandore Lane"/>
    <tag k="oneway" v="yes"/>
  </way>
  <way id="19263864" version="6" timestamp="2009-09-06T03:49:31Z" uid="74617" user="JohnSmith" changeset="2386718">
    <nd ref="186198816"/>
    <nd ref="200048810"/>
    <tag k="highway" v="service"/>
    <tag k="maxspeed" v="20"/>
    <tag k="name" v="Glandore Lane"/>
    <tag k="oneway" v="yes"/>
    <tag k="source" v="survey"/>
  </way>
  <way id="19263864" version="7" timestamp="2012-01-15T19:59:08Z" uid="147510" user="woodpeck_fixbot" changeset="10400850">
    <nd ref="186198816"/>
    <nd ref="200048810"/>
    <tag k="highway" v="service"/>
    <tag k="name" v="Glandore Lane"/>
    <tag k="oneway" v="yes"/>
    <tag k="source" v="survey"/>
  </way>
  <way id="19263866" version="2" timestamp="2009-06-25T03:50:13Z" uid="74617" user="JohnSmith" changeset="1618018">
    <nd ref="200048825"/>
    <nd ref="200048836"/>
    <nd ref="200048845"/>
    <nd ref="200048892"/>
    <tag k="highway" v="residential"/>
    <tag k="name" v="Palantine Street"/>
  </way>
  <way id="19263866" version="3" timestamp="2009-08-12T04:01:23Z" uid="74617" user="JohnSmith" changeset="2114476">
    <nd ref="200048825"/>
    <nd ref="200048836"/>
    <nd ref="200048845"/>
    <nd ref="200048892"/>
    <tag k="highway" v="residential"/>
    <tag k="maxspeed" v="50"/>
    <tag k="name" v="Palantine Street"/>
  </way>
  <way id="19263866" version="4" timestamp="2009-10-06T12:47:24Z" uid="74617" user="JohnSmith" changeset="2760349">
    <nd ref="200048825"/>
    <nd ref="200048892"/>
    <tag k="highway" v="residential"/>
    <tag k="maxspeed" v="50"/>
    <tag k="name" v="Palantine Street"/>
  </way>
  <way id="19263866" version="5" timestamp="2012-01-15T19:59:09Z" uid="147510" user="woodpeck_fixbot" changeset="10400850">
    <nd ref="200048825"/>
    <nd ref="200048892"/>
    <tag k="highway" v="residential"/>
    <tag k="name" v="Palantine Street"/>
  </way>
  <way id="19263867" version="2" timestamp="2009-06-25T03:50:14Z" uid="74617" user="JohnSmith" changeset="1618018">
    <nd ref="186257416"/>
    <nd ref="200048908"/>
    <nd ref="200048917"/>
    <nd ref="200048970"/>
    <nd ref="200048892"/>
    <tag k="highway" v="residential"/>
    <tag k="name" v="School Street"/>
  </way>
  <way id="19263867" version="3" timestamp="2009-06-30T10:28:46Z" uid="78837" user="modellerau" changeset="1690459">
    <nd ref="186257416"/>
    <nd ref="200048917"/>
    <nd ref="200048970"/>
    <nd ref="200048892"/>
    <tag k="highway" v="residential"/>
    <tag k="name" v="School Street"/>
  </way>
  <way id="19263867" version="4" timestamp="2009-08-12T04:01:36Z" uid="74617" user="JohnSmith" changeset="2114476">
    <nd ref="186257416"/>
    <nd ref="200048917"/>
    <nd ref="200048970"/>
    <nd ref="200048892"/>
    <tag k="highway" v="residential"/>
    <tag k="maxspeed" v="50"/>
    <tag k="name" v="School Street"/>
  </way>
  <way id="19263867" version="5" timestamp="2009-10-06T12:47:24Z" uid="74617" user="JohnSmith" changeset="2760349">
    <nd ref="186257416"/>
    <nd ref="200048917"/>
    <nd ref="522817353"/>
    <nd ref="200048970"/>
    <tag k="highway" v="residential"/>
    <tag k="maxspeed" v="50"/>
    <tag k="name" v="School Street"/>
  </way>
  <way id="19263867" version="6" timestamp="2010-01-01T03:58:15Z" uid="74617" user="JohnSmith" changeset="3505207">
    <nd ref="186257416"/>
    <nd ref="200048917"/>
    <nd ref="602410426"/>
    <nd ref="522817353"/>
    <nd ref="200048970"/>
    <tag k="highway" v="residential"/>
    <tag k="maxspeed" v="50"/>
    <tag k="name" v="School Street"/>
  </way>
  <way id="19263867" version="7" timestamp="2012-01-15T19:59:11Z" uid="147510" user="woodpeck_fixbot" changeset="10400850">
    <nd ref="186257416"/>
    <nd ref="200048917"/>
    <nd ref="602410426"/>
    <nd ref="522817353"/>
    <nd ref="200048970"/>
    <tag k="highway" v="residential"/>
    <tag k="name" v="School Street"/>
  </way>
  <way id="19263869" version="4" timestamp="2009-06-25T03:50:14Z" uid="74617" user="JohnSmith" changeset="1618018">
    <nd ref="200048978"/>
    <nd ref="200048987"/>
    <nd ref="245097569"/>
    <nd ref="200049006"/>
    <nd ref="206180608"/>
    <nd ref="200049020"/>
    <nd ref="200049033"/>
    <nd ref="186412780"/>
    <tag k="highway" v="residential"/>
    <tag k="name" v="Fern Street"/>
  </way>
  <way id="19263869" version="5" timestamp="2009-07-22T09:00:27Z" uid="74617" user="JohnSmith" changeset="1902741">
    <nd ref="200048978"/>
    <nd ref="200048987"/>
    <nd ref="245097569"/>
    <nd ref="200049006"/>
    <nd ref="206180608"/>
    <nd ref="186412780"/>
    <tag k="highway" v="residential"/>
    <tag k="name" v="Fern Street"/>
  </way>
  <way id="19263869" version="6" timestamp="2009-08-12T04:02:22Z" uid="74617" user="JohnSmith" changeset="2114476">
    <nd ref="200048978"/>
    <nd ref="200048987"/>
    <nd ref="245097569"/>
    <nd ref="200049006"/>
    <nd ref="206180608"/>
    <nd ref="186412780"/>
    <tag k="highway" v="residential"/>
    <tag k="maxspeed" v="50"/>
    <tag k="name" v="Fern Street"/>
  </way>
  <way id="19263869" version="7" timestamp="2009-10-06T12:47:24Z" uid="74617" user="JohnSmith" changeset="2760349">
    <nd ref="200048978"/>
    <nd ref="522817359"/>
    <nd ref="200048987"/>
    <nd ref="245097569"/>
    <nd ref="206180608"/>
    <nd ref="186412780"/>
    <tag k="highway" v="residential"/>
    <tag k="maxspeed" v="50"/>
    <tag k="name" v="Fern Street"/>
  </way>
  <way id="19263869" version="8" timestamp="2012-01-15T19:59:12Z" uid="147510" user="woodpeck_fixbot" changeset="10400850">
    <nd ref="200048978"/>
    <nd ref="522817359"/>
    <nd ref="200048987"/>
    <nd ref="245097569"/>
    <nd ref="206180608"/>
    <nd ref="186412780"/>
    <tag k="highway" v="residential"/>
    <tag k="name" v="Fern Street"/>
  </way>
  <way id="19263870" version="3" timestamp="2009-09-30T13:06:22Z" uid="36809" user="pfoten_weg_!_" changeset="2687909">
    <nd ref="200052794"/>
    <nd ref="200052796"/>
    <tag k="highway" v="residential"/>
    <tag k="name" v="Krautgartenweg"/>
  </way>
  <way id="19263872" version="3" timestamp="2009-06-25T03:49:45Z" uid="74617" user="JohnSmith" changeset="1618018">
    <nd ref="186197620"/>
    <nd ref="200049055"/>
    <nd ref="200049117"/>
    <nd ref="200049155"/>
    <nd ref="200049180"/>
    <nd ref="200049216"/>
    <nd ref="200049271"/>
    <nd ref="200049296"/>
    <tag k="highway" v="residential"/>
    <tag k="name" v="Columbia Street"/>
  </way>
  <way id="19263872" version="4" timestamp="2009-08-12T04:02:46Z" uid="74617" user="JohnSmith" changeset="2114476">
    <nd ref="186197620"/>
    <nd ref="200049055"/>
    <nd ref="200049117"/>
    <nd ref="200049155"/>
    <nd ref="200049180"/>
    <nd ref="200049216"/>
    <nd ref="200049271"/>
    <nd ref="200049296"/>
    <tag k="highway" v="residential"/>
    <tag k="maxspeed" v="50"/>
    <tag k="name" v="Columbia Street"/>
  </way>
  <way id="19263872" version="5" timestamp="2012-01-15T19:59:13Z" uid="147510" user="woodpeck_fixbot" changeset="10400850">
    <nd ref="186197620"/>
    <nd ref="200049055"/>
    <nd ref="200049117"/>
    <nd ref="200049155"/>
    <nd ref="200049180"/>
    <nd ref="200049216"/>
    <nd ref="200049271"/>
    <nd ref="200049296"/>
    <tag k="highway" v="residential"/>
    <tag k="name" v="Columbia Street"/>
  </way>
  <way id="19263874" version="3" timestamp="2009-06-25T03:49:44Z" uid="74617" user="JohnSmith" changeset="1618018">
    <nd ref="200049299"/>
    <nd ref="200049331"/>
    <nd ref="200049296"/>
    <nd ref="200049356"/>
    <nd ref="200049393"/>
    <nd ref="200049473"/>
    <nd ref="200049522"/>
    <nd ref="200049534"/>
    <nd ref="200049557"/>
    <nd ref="200049580"/>
    <nd ref="200049613"/>
    <nd ref="200049473"/>
    <tag k="highway" v="residential"/>
    <tag k="name" v="Glanmire Street"/>
  </way>
  <way id="19263874" version="4" timestamp="2009-08-12T04:01:41Z" uid="74617" user="JohnSmith" changeset="2114476">
    <nd ref="200049299"/>
    <nd ref="200049331"/>
    <nd ref="200049296"/>
    <nd ref="200049356"/>
    <nd ref="200049393"/>
    <nd ref="200049473"/>
    <nd ref="200049522"/>
    <nd ref="200049534"/>
    <nd ref="200049557"/>
    <nd ref="200049580"/>
    <nd ref="200049613"/>
    <nd ref="200049473"/>
    <tag k="highway" v="residential"/>
    <tag k="maxspeed" v="50"/>
    <tag k="name" v="Glanmire Street"/>
  </way>
  <way id="19263874" version="5" timestamp="2009-10-06T13:52:43Z" uid="74617" user="JohnSmith" changeset="2760933">
    <nd ref="200049299"/>
    <nd ref="200049331"/>
    <nd ref="200049296"/>
    <nd ref="200049356"/>
    <nd ref="200049393"/>
    <nd ref="200049473"/>
    <nd ref="522858579"/>
    <tag k="highway" v="residential"/>
    <tag k="maxspeed" v="50"/>
    <tag k="name" v="Glanmire Street"/>
  </way>
  <way id="19263874" version="6" timestamp="2012-01-15T19:59:14Z" uid="147510" user="woodpeck_fixbot" changeset="10400850">
    <nd ref="200049299"/>
    <nd ref="200049331"/>
    <nd ref="200049296"/>
    <nd ref="200049356"/>
    <nd ref="200049393"/>
    <nd ref="200049473"/>
    <nd ref="522858579"/>
    <tag k="highway" v="residential"/>
    <tag k="name" v="Glanmire Street"/>
  </way>
  <way id="19263877" version="3" timestamp="2009-06-25T03:49:44Z" uid="74617" user="JohnSmith" changeset="1618018">
    <nd ref="200049698"/>
    <nd ref="200049717"/>
    <nd ref="200049748"/>
    <nd ref="200049759"/>
    <nd ref="200049767"/>
    <nd ref="200049844"/>
    <nd ref="200049976"/>
    <nd ref="200049994"/>
    <nd ref="200050042"/>
    <nd ref="200050061"/>
    <nd ref="200050112"/>
    <nd ref="200050156"/>
    <nd ref="200050171"/>
    <nd ref="200049689"/>
    <tag k="highway" v="residential"/>
    <tag k="name" v="Everson Road"/>
  </way>
  <way id="19263877" version="4" timestamp="2009-06-27T08:33:29Z" uid="74617" user="JohnSmith" changeset="1647728">
    <nd ref="200049698"/>
    <nd ref="200049717"/>
    <nd ref="200049748"/>
    <nd ref="200049759"/>
    <nd ref="200049767"/>
    <nd ref="429720264"/>
    <nd ref="200049844"/>
    <nd ref="429720262"/>
    <nd ref="200049976"/>
    <nd ref="200049994"/>
    <nd ref="200050042"/>
    <nd ref="200050061"/>
    <nd ref="200050112"/>
    <nd ref="200050156"/>
    <nd ref="200050171"/>
    <nd ref="200049689"/>
    <tag k="highway" v="residential"/>
    <tag k="name" v="Everson Road"/>
  </way>
  <way id="19263877" version="5" timestamp="2009-07-10T05:54:02Z" uid="74617" user="JohnSmith" changeset="1785933">
    <nd ref="200049698"/>
    <nd ref="200049717"/>
    <nd ref="200049748"/>
    <nd ref="200049759"/>
    <nd ref="200049767"/>
    <nd ref="429720264"/>
    <nd ref="200049844"/>
    <nd ref="429720262"/>
    <nd ref="200049976"/>
    <nd ref="200049994"/>
    <nd ref="200050042"/>
    <nd ref="200050061"/>
    <nd ref="200050112"/>
    <nd ref="200050156"/>
    <nd ref="200050171"/>
    <nd ref="200049689"/>
    <tag k="highway" v="residential"/>
    <tag k="maxspeed" v="50"/>
    <tag k="name" v="Everson Road"/>
    <tag k="source" v="survey"/>
    <tag k="surface" v="paved"/>
  </way>
  <way id="19263877" version="6" timestamp="2009-07-22T06:15:49Z" uid="74617" user="JohnSmith" changeset="1901533">
    <nd ref="200049698"/>
    <nd ref="200049717"/>
    <nd ref="200049748"/>
    <nd ref="200049759"/>
    <nd ref="200049767"/>
    <nd ref="429720264"/>
    <nd ref="445317320"/>
    <tag k="highway" v="residential"/>
    <tag k="maxspeed" v="60"/>
    <tag k="name" v="Everson Road"/>
    <tag k="source" v="survey"/>
    <tag k="surface" v="paved"/>
  </way>
  <way id="19263877" version="7" timestamp="2009-09-06T03:50:02Z" uid="74617" user="JohnSmith" changeset="2386718">
    <nd ref="200049698"/>
    <nd ref="200049717"/>
    <nd ref="200049748"/>
    <nd ref="200049759"/>
    <nd ref="200049767"/>
    <nd ref="429720264"/>
    <nd ref="445317320"/>
    <tag k="highway" v="residential"/>
    <tag k="maxspeed" v="60"/>
    <tag k="name" v="Everson Road"/>
    <tag k="source" v="survey"/>
  </way>
  <way id="19263877" version="8" timestamp="2012-01-15T19:59:15Z" uid="147510" user="woodpeck_fixbot" changeset="10400850">
    <nd ref="200049698"/>
    <nd ref="200049717"/>
    <nd ref="200049748"/>
    <nd ref="200049759"/>
    <nd ref="200049767"/>
    <nd ref="429720264"/>
    <nd ref="445317320"/>
    <tag k="highway" v="residential"/>
    <tag k="name" v="Everson Road"/>
    <tag k="source" v="survey"/>
  </way>
  <way id="19263879" version="5" timestamp="2009-06-25T03:49:43Z" uid="74617" user="JohnSmith" changeset="1618018">
    <nd ref="196770549"/>
    <nd ref="200050259"/>
    <nd ref="254521591"/>
    <nd ref="263092583"/>
    <nd ref="200050297"/>
    <nd ref="200050318"/>
    <nd ref="200050331"/>
    <nd ref="200050359"/>
    <nd ref="200050391"/>
    <nd ref="200050430"/>
    <tag k="highway" v="residential"/>
    <tag k="name" v="Ashford Road"/>
  </way>
  <way id="19263879" version="6" timestamp="2009-06-27T03:25:32Z" uid="74617" user="JohnSmith" changeset="1645821">
    <nd ref="196770549"/>
    <nd ref="200050259"/>
    <nd ref="254521591"/>
    <nd ref="263092583"/>
    <nd ref="200050297"/>
    <nd ref="200050318"/>
    <nd ref="200050331"/>
    <nd ref="200050359"/>
    <nd ref="200050391"/>
    <nd ref="429674969"/>
    <tag k="highway" v="residential"/>
    <tag k="name" v="Ashford Road"/>
  </way>
  <way id="19263879" version="7" timestamp="2009-08-12T04:01:40Z" uid="74617" user="JohnSmith" changeset="2114476">
    <nd ref="196770549"/>
    <nd ref="200050259"/>
    <nd ref="254521591"/>
    <nd ref="263092583"/>
    <nd ref="200050297"/>
    <nd ref="200050318"/>
    <nd ref="200050331"/>
    <nd ref="200050359"/>
    <nd ref="200050391"/>
    <nd ref="429674969"/>
    <tag k="highway" v="residential"/>
    <tag k="maxspeed" v="50"/>
    <tag k="name" v="Ashford Road"/>
  </way>
  <way id="19263879" version="8" timestamp="2012-01-15T19:59:16Z" uid="147510" user="woodpeck_fixbot" changeset="10400850">
    <nd ref="196770549"/>
    <nd ref="200050259"/>
    <nd ref="254521591"/>
    <nd ref="263092583"/>
    <nd ref="200050297"/>
    <nd ref="200050318"/>
    <nd ref="200050331"/>
    <nd ref="200050359"/>
    <nd ref="200050391"/>
    <nd ref="429674969"/>
    <tag k="highway" v="residential"/>
    <tag k="name" v="Ashford Road"/>
  </way>
  <way id="19263881" version="6" timestamp="2009-06-25T03:49:45Z" uid="74617" user="JohnSmith" changeset="1618018">
    <nd ref="198530875"/>
    <nd ref="200050750"/>
    <nd ref="200050766"/>
    <nd ref="200050872"/>
    <nd ref="200051164"/>
    <nd ref="203843295"/>
    <nd ref="200051371"/>
    <nd ref="200051393"/>
    <nd ref="222014809"/>
    <nd ref="200051473"/>
    <nd ref="200051726"/>
    <tag k="highway" v="residential"/>
    <tag k="name" v="Church Street"/>
  </way>
  <way id="19263881" version="7" timestamp="2009-07-23T03:34:33Z" uid="74617" user="JohnSmith" changeset="1910958">
    <nd ref="198530745"/>
    <nd ref="198530875"/>
    <nd ref="200050750"/>
    <nd ref="200050766"/>
    <nd ref="200050872"/>
    <nd ref="200051164"/>
    <nd ref="203843295"/>
    <nd ref="200051371"/>
    <nd ref="200051393"/>
    <nd ref="222014809"/>
    <nd ref="200051473"/>
    <nd ref="200051726"/>
    <tag k="highway" v="residential"/>
    <tag k="maxspeed" v="50"/>
    <tag k="name" v="Church Street"/>
    <tag k="restriction" v="school_zone"/>
    <tag k="school_zone_maxspeed" v="40"/>
    <tag k="school_zone_on" v="8:00-9:00;14:30-15:30"/>
    <tag k="source" v="survey"/>
    <tag k="surface" v="paved"/>
  </way>
  <way id="19263881" version="8" timestamp="2009-07-23T03:40:32Z" uid="74617" user="JohnSmith" changeset="1910981">
    <nd ref="198530745"/>
    <nd ref="198530875"/>
    <nd ref="200050750"/>
    <nd ref="200050766"/>
    <nd ref="200050872"/>
    <nd ref="200051164"/>
    <nd ref="203843295"/>
    <nd ref="445988430"/>
    <tag k="highway" v="residential"/>
    <tag k="maxspeed" v="50"/>
    <tag k="name" v="Church Street"/>
    <tag k="restriction" v="school_zone"/>
    <tag k="school_zone_maxspeed" v="40"/>
    <tag k="school_zone_on" v="8:00-9:00;14:30-15:30"/>
    <tag k="source" v="survey"/>
    <tag k="surface" v="paved"/>
  </way>
  <way id="19263881" version="9" timestamp="2009-09-06T03:49:56Z" uid="74617" user="JohnSmith" changeset="2386718">
    <nd ref="198530745"/>
    <nd ref="198530875"/>
    <nd ref="200050750"/>
    <nd ref="200050766"/>
    <nd ref="200050872"/>
    <nd ref="200051164"/>
    <nd ref="203843295"/>
    <nd ref="445988430"/>
    <tag k="highway" v="residential"/>
    <tag k="maxspeed" v="50"/>
    <tag k="name" v="Church Street"/>
    <tag k="restriction" v="school_zone"/>
    <tag k="school_zone_maxspeed" v="40"/>
    <tag k="school_zone_on" v="8:00-9:00;14:30-15:30"/>
    <tag k="source" v="survey"/>
  </way>
  <way id="19263881" version="10" timestamp="2009-10-06T13:52:43Z" uid="74617" user="JohnSmith" changeset="2760933">
    <nd ref="198530745"/>
    <nd ref="198530875"/>
    <nd ref="200050750"/>
    <nd ref="200050766"/>
    <nd ref="522858488"/>
    <nd ref="200050872"/>
    <nd ref="522858370"/>
    <nd ref="200051164"/>
    <nd ref="203843295"/>
    <nd ref="445988430"/>
    <tag k="highway" v="residential"/>
    <tag k="maxspeed" v="50"/>
    <tag k="name" v="Church Street"/>
    <tag k="restriction" v="school_zone"/>
    <tag k="school_zone_maxspeed" v="40"/>
    <tag k="school_zone_on" v="8:00-9:00;14:30-15:30"/>
    <tag k="source" v="survey"/>
  </way>
  <way id="19263881" version="11" timestamp="2012-01-15T19:59:17Z" uid="147510" user="woodpeck_fixbot" changeset="10400850">
    <nd ref="198530745"/>
    <nd ref="198530875"/>
    <nd ref="200050750"/>
    <nd ref="200050766"/>
    <nd ref="522858488"/>
    <nd ref="200050872"/>
    <nd ref="522858370"/>
    <nd ref="200051164"/>
    <nd ref="203843295"/>
    <nd ref="445988430"/>
    <tag k="highway" v="residential"/>
    <tag k="name" v="Church Street"/>
    <tag k="source" v="survey"/>
  </way>
  <way id="19263890" version="3" timestamp="2009-06-25T03:49:38Z" uid="74617" user="JohnSmith" changeset="1618018">
    <nd ref="186412978"/>
    <nd ref="200051812"/>
    <nd ref="200051826"/>
    <nd ref="200051842"/>
    <nd ref="200051895"/>
    <nd ref="196698436"/>
    <nd ref="200051909"/>
    <nd ref="200051924"/>
    <nd ref="200052015"/>
    <nd ref="200052033"/>
    <nd ref="200048291"/>
    <nd ref="200052054"/>
    <nd ref="200052066"/>
    <nd ref="200052096"/>
    <nd ref="200051726"/>
    <tag k="highway" v="residential"/>
    <tag k="name" v="Bligh Street"/>
  </way>
  <way id="19263890" version="4" timestamp="2009-07-08T11:20:52Z" uid="74617" user="JohnSmith" changeset="1771503">
    <nd ref="186412978"/>
    <nd ref="200051812"/>
    <nd ref="200051842"/>
    <nd ref="196698436"/>
    <nd ref="200051909"/>
    <nd ref="200051924"/>
    <nd ref="200052015"/>
    <nd ref="200052033"/>
    <nd ref="200048291"/>
    <nd ref="200052054"/>
    <nd ref="200052066"/>
    <nd ref="200052096"/>
    <nd ref="200051726"/>
    <tag k="highway" v="residential"/>
    <tag k="name" v="Bligh Street"/>
  </way>
  <way id="19263890" version="5" timestamp="2009-07-23T03:30:58Z" uid="74617" user="JohnSmith" changeset="1910942">
    <nd ref="186412978"/>
    <nd ref="200051812"/>
    <nd ref="200051842"/>
    <nd ref="196698436"/>
    <nd ref="200051909"/>
    <nd ref="200051924"/>
    <nd ref="200052015"/>
    <nd ref="200052033"/>
    <nd ref="445987118"/>
    <tag k="highway" v="residential"/>
    <tag k="maxspeed" v="50"/>
    <tag k="name" v="Bligh Street"/>
    <tag k="restriction" v="school_zone"/>
    <tag k="school_zone_maxspeed" v="40"/>
    <tag k="school_zone_on" v="8:00-9:00;14:30-15:30"/>
    <tag k="source" v="survey"/>
    <tag k="surface" v="paved"/>
  </way>
  <way id="19263890" version="6" timestamp="2009-09-06T03:49:26Z" uid="74617" user="JohnSmith" changeset="2386718">
    <nd ref="186412978"/>
    <nd ref="200051812"/>
    <nd ref="200051842"/>
    <nd ref="196698436"/>
    <nd ref="200051909"/>
    <nd ref="200051924"/>
    <nd ref="200052015"/>
    <nd ref="200052033"/>
    <nd ref="445987118"/>
    <tag k="highway" v="residential"/>
    <tag k="maxspeed" v="50"/>
    <tag k="name" v="Bligh Street"/>
    <tag k="restriction" v="school_zone"/>
    <tag k="school_zone_maxspeed" v="40"/>
    <tag k="school_zone_on" v="8:00-9:00;14:30-15:30"/>
    <tag k="source" v="survey"/>
  </way>
  <way id="19263890" version="7" timestamp="2012-01-15T19:59:19Z" uid="147510" user="woodpeck_fixbot" changeset="10400850">
    <nd ref="186412978"/>
    <nd ref="200051812"/>
    <nd ref="200051842"/>
    <nd ref="196698436"/>
    <nd ref="200051909"/>
    <nd ref="200051924"/>
    <nd ref="200052015"/>
    <nd ref="200052033"/>
    <nd ref="445987118"/>
    <tag k="highway" v="residential"/>
    <tag k="name" v="Bligh Street"/>
    <tag k="source" v="survey"/>
  </way>
  <way id="19263894" version="5" timestamp="2009-06-25T03:49:37Z" uid="74617" user="JohnSmith" changeset="1618018">
    <nd ref="200052111"/>
    <nd ref="200052238"/>
    <nd ref="200052272"/>
    <nd ref="186366084"/>
    <tag k="highway" v="residential"/>
    <tag k="name" v="Davies Lane"/>
  </way>
  <way id="19263894" version="6" timestamp="2009-08-12T04:02:36Z" uid="74617" user="JohnSmith" changeset="2114476">
    <nd ref="200052111"/>
    <nd ref="200052238"/>
    <nd ref="200052272"/>
    <nd ref="186366084"/>
    <tag k="highway" v="residential"/>
    <tag k="maxspeed" v="50"/>
    <tag k="name" v="Davies Lane"/>
  </way>
  <way id="19263894" version="7" timestamp="2012-01-15T19:59:20Z" uid="147510" user="woodpeck_fixbot" changeset="10400850">
    <nd ref="200052111"/>
    <nd ref="200052238"/>
    <nd ref="200052272"/>
    <nd ref="186366084"/>
    <tag k="highway" v="residential"/>
    <tag k="name" v="Davies Lane"/>
  </way>
</osm>
