<?xml version='1.0' encoding='UTF-8'?>
<osm version="0.6" generator="libosmium/2.20.0">
  <way id="19274485" version="2" timestamp="2009-06-25T03:49:36Z" uid="74617" user="JohnSmith" changeset="1618018">
    <nd ref="200164425"/>
    <nd ref="198528158"/>
    <tag k="bridge" v="true"/>
    <tag k="highway" v="secondary"/>
    <tag k="layer" v="1"/>
    <tag k="name" v="Exhibition Road"/>
  </way>
  <way id="19274485" version="3" timestamp="2009-06-29T03:29:21Z" uid="74617" user="JohnSmith" changeset="1672638">
    <nd ref="200164425"/>
    <nd ref="198528158"/>
    <tag k="bridge" v="true"/>
    <tag k="highway" v="secondary"/>
    <tag k="layer" v="1"/>
    <tag k="name" v="Exhibition Road"/>
    <tag k="source" v="survey"/>
  </way>
  <way id="19274485" version="4" timestamp="2009-07-04T04:03:28Z" uid="74617" user="JohnSmith" changeset="1726396">
    <nd ref="200164425"/>
    <nd ref="198528158"/>
    <tag k="bridge" v="yes"/>
    <tag k="highway" v="secondary"/>
    <tag k="layer" v="1"/>
    <tag k="name" v="Exhibition Road"/>
    <tag k="source" v="survey"/>
  </way>
  <way id="19274488" version="4" timestamp="2009-06-25T03:38:52Z" uid="74617" user="JohnSmith" changeset="1617999">
    <nd ref="199814998"/>
    <nd ref="428996521"/>
    <nd ref="186345080"/>
    <tag k="bridge" v="yes"/>
    <tag k="highway" v="secondary"/>
    <tag k="layer" v="1"/>
    <tag k="name" v="Hughes Terace"/>
  </way>
  <way id="19274488" version="5" timestamp="2009-08-12T04:33:50Z" uid="74617" user="JohnSmith" changeset="2114560">
    <nd ref="199814998"/>
    <nd ref="428996521"/>
    <nd ref="186345080"/>
    <tag k="bridge" v="yes"/>
    <tag k="highway" v="secondary"/>
    <tag k="layer" v="1"/>
    <tag k="maxspeed" v="60"/>
    <tag k="name" v="Hughes Terace"/>
    <tag k="source" v="survey"/>
    <tag k="surface" v="paved"/>
  </way>
  <way id="19274488" version="6" timestamp="2009-09-06T03:49:25Z" uid="74617" user="JohnSmith" changeset="2386718">
    <nd ref="199814998"/>
    <nd ref="428996521"/>
    <nd ref="186345080"/>
    <tag k="bridge" v="yes"/>
    <tag k="highway" v="secondary"/>
    <tag k="layer" v="1"/>
    <tag k="maxspeed" v="60"/>
    <tag k="name" v="Hughes Terace"/>
    <tag k="source" v="survey"/>
  </way>
  <way id="19274488" version="7" timestamp="2009-10-21T08:24:16Z" uid="74617" user="JohnSmith" changeset="2910010">
    <nd ref="199814998"/>
    <nd ref="428996521"/>
    <nd ref="186345080"/>
    <tag k="bridge" v="yes"/>
    <tag k="construction" v="secondary"/>
    <tag k="highway" v="construction"/>
    <tag k="layer" v="1"/>
    <tag k="maxspeed" v="60"/>
    <tag k="name" v="Hughes Terace"/>
    <tag k="source" v="survey"/>
  </way>
  <way id="19274488" version="8" timestamp="2009-10-21T09:03:35Z" uid="74617" user="JohnSmith" changeset="2910239">
    <nd ref="199814998"/>
    <nd ref="428996521"/>
    <nd ref="186345080"/>
    <tag k="bridge" v="yes"/>
    <tag k="construction" v="secondary"/>
    <tag k="highway" v="construction"/>
    <tag k="layer" v="1"/>
    <tag k="maxspeed" v="60"/>
    <tag k="source" v="survey"/>
  </way>
  <way id="19274488" version="9" timestamp="2010-01-01T03:55:39Z" uid="74617" user="JohnSmith" changeset="3505200">
    <nd ref="199814998"/>
    <nd ref="428996521"/>
    <nd ref="186345080"/>
    <tag k="bridge" v="yes"/>
    <tag k="highway" v="secondary"/>
    <tag k="layer" v="1"/>
    <tag k="maxspeed" v="60"/>
    <tag k="source" v="survey"/>
  </way>
  <way id="19274488" version="10" timestamp="2012-01-15T19:59:33Z" uid="147510" user="woodpeck_fixbot" changeset="10400850">
    <nd ref="199814998"/>
    <nd ref="428996521"/>
    <nd ref="186345080"/>
    <tag k="bridge" v="yes"/>
    <tag k="highway" v="secondary"/>
    <tag k="layer" v="1"/>
    <tag k="source" v="survey"/>
  </way>
  <way id="19274491" version="3" timestamp="2009-06-25T03:49:35Z" uid="74617" user="JohnSmith" changeset="1618018">
    <nd ref="200164463"/>
    <nd ref="200164477"/>
    <nd ref="200164497"/>
    <nd ref="200164463"/>
    <tag k="amenity" v="school"/>
    <tag k="name" v="StPatricks College"/>
  </way>
  <way id="19274491" version="4" timestamp="2009-07-08T12:03:24Z" uid="74617" user="JohnSmith" changeset="1771850">
    <nd ref="200164463"/>
    <nd ref="437220747"/>
    <nd ref="200164477"/>
    <nd ref="437220746"/>
    <nd ref="437220745"/>
    <nd ref="200164497"/>
    <nd ref="437220744"/>
    <nd ref="437220743"/>
    <nd ref="200164463"/>
    <tag k="amenity" v="school"/>
    <tag k="name" v="StPatricks College"/>
  </way>
  <way id="19274491" version="5" timestamp="2009-10-06T13:52:41Z" uid="74617" user="JohnSmith" changeset="2760933">
    <nd ref="200164463"/>
    <nd ref="437220746"/>
    <nd ref="437220744"/>
    <nd ref="200164463"/>
    <tag k="amenity" v="school"/>
    <tag k="name" v="StPatricks College"/>
  </way>
  <way id="19274491" version="6" timestamp="2011-04-10T06:43:14Z" uid="4467" user="Rosscoe" changeset="7819615">
    <nd ref="200164463"/>
    <nd ref="437220746"/>
    <nd ref="437220744"/>
    <nd ref="1239481190"/>
    <nd ref="200164463"/>
    <tag k="amenity" v="school"/>
    <tag k="name" v="StPatricks College"/>
  </way>
</osm>
