<?xml version='1.0' encoding='UTF-8'?>
<osm version="0.6" generator="libosmium/2.20.0">
  <way id="19309442" version="4" timestamp="2010-07-09T17:25:04Z" uid="74617" user="JohnSmith" changeset="5175333">
    <nd ref="200597083"/>
    <nd ref="200597187"/>
    <nd ref="200597216"/>
    <tag k="highway" v="residential"/>
    <tag k="maxspeed" v="50"/>
    <tag k="maxspeed:source" v="default residential speed limit in Australia"/>
    <tag k="name" v="Edward Street"/>
  </way>
  <way id="19309442" version="5" timestamp="2012-01-15T20:00:43Z" uid="147510" user="woodpeck_fixbot" changeset="10400850">
    <nd ref="200597083"/>
    <nd ref="200597187"/>
    <nd ref="200597216"/>
    <tag k="highway" v="residential"/>
    <tag k="name" v="Edward Street"/>
  </way>
  <way id="19309447" version="7" timestamp="2011-01-27T14:02:28Z" uid="4467" user="Rosscoe" changeset="7103902">
    <nd ref="200597051"/>
    <nd ref="1123403407"/>
    <nd ref="200597245"/>
    <nd ref="1123403405"/>
    <nd ref="200597262"/>
    <nd ref="558536325"/>
    <nd ref="561275151"/>
    <nd ref="200597283"/>
    <nd ref="200597307"/>
    <tag k="highway" v="secondary"/>
    <tag k="name" v="Coldwell Road"/>
  </way>
  <way id="19309453" version="4" timestamp="2010-07-09T17:24:35Z" uid="74617" user="JohnSmith" changeset="5175333">
    <nd ref="200597333"/>
    <nd ref="200597361"/>
    <tag k="highway" v="residential"/>
    <tag k="maxspeed" v="50"/>
    <tag k="maxspeed:source" v="default residential speed limit in Australia"/>
    <tag k="name" v="Boundary Road"/>
  </way>
  <way id="19309453" version="5" timestamp="2012-01-15T20:00:44Z" uid="147510" user="woodpeck_fixbot" changeset="10400850">
    <nd ref="200597333"/>
    <nd ref="200597361"/>
    <tag k="highway" v="residential"/>
    <tag k="name" v="Boundary Road"/>
  </way>
  <way id="19309454" version="4" timestamp="2010-07-09T17:26:14Z" uid="74617" user="JohnSmith" changeset="5175333">
    <nd ref="193806758"/>
    <nd ref="200597381"/>
    <tag k="highway" v="residential"/>
    <tag k="maxspeed" v="50"/>
    <tag k="maxspeed:source" v="default residential speed limit in Australia"/>
    <tag k="name" v="Brentwood Road"/>
  </way>
  <way id="19309454" version="5" timestamp="2012-01-15T20:00:45Z" uid="147510" user="woodpeck_fixbot" changeset="10400850">
    <nd ref="193806758"/>
    <nd ref="200597381"/>
    <tag k="highway" v="residential"/>
    <tag k="name" v="Brentwood Road"/>
  </way>
  <way id="19309456" version="2" timestamp="2010-07-09T17:24:47Z" uid="74617" user="JohnSmith" changeset="5175333">
    <nd ref="200597402"/>
    <nd ref="200597428"/>
    <tag k="highway" v="residential"/>
    <tag k="maxspeed" v="50"/>
    <tag k="maxspeed:source" v="default residential speed limit in Australia"/>
    <tag k="name" v="Victoria Road"/>
  </way>
  <way id="19309456" version="3" timestamp="2012-01-15T20:00:46Z" uid="147510" user="woodpeck_fixbot" changeset="10400850">
    <nd ref="200597402"/>
    <nd ref="200597428"/>
    <tag k="highway" v="residential"/>
    <tag k="name" v="Victoria Road"/>
  </way>
  <way id="19309458" version="4" timestamp="2010-07-09T17:27:55Z" uid="74617" user="JohnSmith" changeset="5175333">
    <nd ref="200597499"/>
    <nd ref="638900391"/>
    <nd ref="200597506"/>
    <tag k="highway" v="residential"/>
    <tag k="maxspeed" v="50"/>
    <tag k="maxspeed:source" v="default residential speed limit in Australia"/>
    <tag k="name" v="Kenwick Road"/>
  </way>
  <way id="19309458" version="5" timestamp="2012-01-15T20:00:47Z" uid="147510" user="woodpeck_fixbot" changeset="10400850">
    <nd ref="200597499"/>
    <nd ref="638900391"/>
    <nd ref="200597506"/>
    <tag k="highway" v="residential"/>
    <tag k="name" v="Kenwick Road"/>
  </way>
  <way id="19309462" version="13" timestamp="2010-07-09T17:26:49Z" uid="74617" user="JohnSmith" changeset="5175333">
    <nd ref="206997964"/>
    <nd ref="207003346"/>
    <nd ref="207003889"/>
    <nd ref="207004525"/>
    <nd ref="207004913"/>
    <nd ref="206997965"/>
    <nd ref="355401717"/>
    <tag k="highway" v="residential"/>
    <tag k="maxspeed" v="50"/>
    <tag k="maxspeed:source" v="default residential speed limit in Australia"/>
    <tag k="name" v="Crawford Street"/>
  </way>
  <way id="19309462" version="14" timestamp="2012-01-15T20:00:49Z" uid="147510" user="woodpeck_fixbot" changeset="10400850">
    <nd ref="206997964"/>
    <nd ref="207003346"/>
    <nd ref="207003889"/>
    <nd ref="207004525"/>
    <nd ref="207004913"/>
    <nd ref="206997965"/>
    <nd ref="355401717"/>
    <tag k="highway" v="residential"/>
    <tag k="name" v="Crawford Street"/>
  </way>
  <way id="19309470" version="2" timestamp="2010-04-23T02:29:09Z" uid="4467" user="Rosscoe" changeset="4500268">
    <nd ref="200597829"/>
    <nd ref="200599040"/>
    <nd ref="200597962"/>
    <nd ref="200599135"/>
    <nd ref="200598013"/>
    <nd ref="200599203"/>
    <nd ref="704211495"/>
    <tag k="highway" v="residential"/>
    <tag k="name" v="Lacey Street"/>
  </way>
  <way id="19309470" version="3" timestamp="2010-07-09T17:20:31Z" uid="74617" user="JohnSmith" changeset="5175333">
    <nd ref="200597829"/>
    <nd ref="200599040"/>
    <nd ref="200597962"/>
    <nd ref="200599135"/>
    <nd ref="200598013"/>
    <nd ref="200599203"/>
    <nd ref="704211495"/>
    <tag k="highway" v="residential"/>
    <tag k="maxspeed" v="50"/>
    <tag k="maxspeed:source" v="default residential speed limit in Australia"/>
    <tag k="name" v="Lacey Street"/>
  </way>
  <way id="19309470" version="4" timestamp="2012-01-15T20:00:50Z" uid="147510" user="woodpeck_fixbot" changeset="10400850">
    <nd ref="200597829"/>
    <nd ref="200599040"/>
    <nd ref="200597962"/>
    <nd ref="200599135"/>
    <nd ref="200598013"/>
    <nd ref="200599203"/>
    <nd ref="704211495"/>
    <tag k="highway" v="residential"/>
    <tag k="name" v="Lacey Street"/>
  </way>
  <way id="19309474" version="3" timestamp="2010-04-23T02:29:09Z" uid="4467" user="Rosscoe" changeset="4500268">
    <nd ref="704211458"/>
    <nd ref="200597962"/>
    <tag k="highway" v="residential"/>
    <tag k="name" v="Central Terrace"/>
  </way>
  <way id="19309474" version="4" timestamp="2010-07-09T17:26:46Z" uid="74617" user="JohnSmith" changeset="5175333">
    <nd ref="704211458"/>
    <nd ref="200597962"/>
    <tag k="highway" v="residential"/>
    <tag k="maxspeed" v="50"/>
    <tag k="maxspeed:source" v="default residential speed limit in Australia"/>
    <tag k="name" v="Central Terrace"/>
  </way>
  <way id="19309474" version="5" timestamp="2012-01-15T20:00:51Z" uid="147510" user="woodpeck_fixbot" changeset="10400850">
    <nd ref="704211458"/>
    <nd ref="200597962"/>
    <tag k="highway" v="residential"/>
    <tag k="name" v="Central Terrace"/>
  </way>
  <way id="19309477" version="2" timestamp="2010-07-09T17:23:55Z" uid="74617" user="JohnSmith" changeset="5175333">
    <nd ref="200597985"/>
    <nd ref="200598061"/>
    <nd ref="200598013"/>
    <tag k="highway" v="residential"/>
    <tag k="maxspeed" v="50"/>
    <tag k="maxspeed:source" v="default residential speed limit in Australia"/>
    <tag k="name" v="Lena Street"/>
  </way>
  <way id="19309477" version="3" timestamp="2012-01-15T20:00:53Z" uid="147510" user="woodpeck_fixbot" changeset="10400850">
    <nd ref="200597985"/>
    <nd ref="200598061"/>
    <nd ref="200598013"/>
    <tag k="highway" v="residential"/>
    <tag k="name" v="Lena Street"/>
  </way>
  <way id="19309480" version="2" timestamp="2010-04-23T02:29:09Z" uid="4467" user="Rosscoe" changeset="4500268">
    <nd ref="200598043"/>
    <nd ref="200598198"/>
    <nd ref="200598086"/>
    <nd ref="200598142"/>
    <nd ref="704211492"/>
    <tag k="highway" v="residential"/>
    <tag k="name" v="North Street"/>
  </way>
  <way id="19309480" version="3" timestamp="2010-07-09T17:25:52Z" uid="74617" user="JohnSmith" changeset="5175333">
    <nd ref="200598043"/>
    <nd ref="200598198"/>
    <nd ref="200598086"/>
    <nd ref="200598142"/>
    <nd ref="704211492"/>
    <tag k="highway" v="residential"/>
    <tag k="maxspeed" v="50"/>
    <tag k="maxspeed:source" v="default residential speed limit in Australia"/>
    <tag k="name" v="North Street"/>
  </way>
  <way id="19309480" version="4" timestamp="2012-01-15T20:00:53Z" uid="147510" user="woodpeck_fixbot" changeset="10400850">
    <nd ref="200598043"/>
    <nd ref="200598198"/>
    <nd ref="200598086"/>
    <nd ref="200598142"/>
    <nd ref="704211492"/>
    <tag k="highway" v="residential"/>
    <tag k="name" v="North Street"/>
  </way>
  <way id="19309481" version="2" timestamp="2010-07-09T17:27:24Z" uid="74617" user="JohnSmith" changeset="5175333">
    <nd ref="200598061"/>
    <nd ref="200598086"/>
    <tag k="highway" v="residential"/>
    <tag k="maxspeed" v="50"/>
    <tag k="maxspeed:source" v="default residential speed limit in Australia"/>
    <tag k="name" v="Temby Street"/>
  </way>
  <way id="19309481" version="3" timestamp="2012-01-15T20:00:55Z" uid="147510" user="woodpeck_fixbot" changeset="10400850">
    <nd ref="200598061"/>
    <nd ref="200598086"/>
    <tag k="highway" v="residential"/>
    <tag k="name" v="Temby Street"/>
  </way>
  <way id="19309484" version="2" timestamp="2010-07-09T17:24:42Z" uid="74617" user="JohnSmith" changeset="5175333">
    <nd ref="200598113"/>
    <nd ref="200598225"/>
    <nd ref="200598169"/>
    <nd ref="200597881"/>
    <tag k="highway" v="residential"/>
    <tag k="maxspeed" v="50"/>
    <tag k="maxspeed:source" v="default residential speed limit in Australia"/>
    <tag k="name" v="Diamond Street"/>
  </way>
  <way id="19309484" version="3" timestamp="2012-01-15T20:00:56Z" uid="147510" user="woodpeck_fixbot" changeset="10400850">
    <nd ref="200598113"/>
    <nd ref="200598225"/>
    <nd ref="200598169"/>
    <nd ref="200597881"/>
    <tag k="highway" v="residential"/>
    <tag k="name" v="Diamond Street"/>
  </way>
  <way id="19309488" version="2" timestamp="2010-07-09T17:26:29Z" uid="74617" user="JohnSmith" changeset="5175333">
    <nd ref="200598142"/>
    <nd ref="200598169"/>
    <nd ref="200598276"/>
    <tag k="highway" v="residential"/>
    <tag k="maxspeed" v="50"/>
    <tag k="maxspeed:source" v="default residential speed limit in Australia"/>
    <tag k="name" v="Celebration Street"/>
  </way>
  <way id="19309488" version="3" timestamp="2012-01-15T20:00:57Z" uid="147510" user="woodpeck_fixbot" changeset="10400850">
    <nd ref="200598142"/>
    <nd ref="200598169"/>
    <nd ref="200598276"/>
    <tag k="highway" v="residential"/>
    <tag k="name" v="Celebration Street"/>
  </way>
  <way id="19309489" version="2" timestamp="2010-07-09T17:28:02Z" uid="74617" user="JohnSmith" changeset="5175333">
    <nd ref="200598198"/>
    <nd ref="200598225"/>
    <nd ref="200598250"/>
    <tag k="highway" v="residential"/>
    <tag k="maxspeed" v="50"/>
    <tag k="maxspeed:source" v="default residential speed limit in Australia"/>
    <tag k="name" v="Jubilee Street"/>
  </way>
  <way id="19309489" version="3" timestamp="2012-01-15T20:00:57Z" uid="147510" user="woodpeck_fixbot" changeset="10400850">
    <nd ref="200598198"/>
    <nd ref="200598225"/>
    <nd ref="200598250"/>
    <tag k="highway" v="residential"/>
    <tag k="name" v="Jubilee Street"/>
  </way>
  <way id="19309496" version="12" timestamp="2010-04-23T02:29:07Z" uid="4467" user="Rosscoe" changeset="4500268">
    <nd ref="200597739"/>
    <nd ref="355402538"/>
    <nd ref="355402539"/>
    <nd ref="200598687"/>
    <nd ref="200598356"/>
    <nd ref="704211444"/>
    <tag k="highway" v="secondary"/>
    <tag k="layer" v="0"/>
    <tag k="name" v="Railway Parade"/>
  </way>
  <way id="19309498" version="4" timestamp="2010-07-09T17:24:22Z" uid="74617" user="JohnSmith" changeset="5175333">
    <nd ref="200598687"/>
    <nd ref="200599091"/>
    <nd ref="200598712"/>
    <nd ref="200599261"/>
    <nd ref="200598743"/>
    <nd ref="206977568"/>
    <nd ref="200598770"/>
    <tag k="highway" v="residential"/>
    <tag k="maxspeed" v="50"/>
    <tag k="maxspeed:source" v="default residential speed limit in Australia"/>
    <tag k="name" v="Station Street"/>
  </way>
  <way id="19309498" version="5" timestamp="2011-07-09T11:19:29Z" uid="485152" user="samps" changeset="8673632">
    <nd ref="200598687"/>
    <nd ref="200599091"/>
    <nd ref="200598712"/>
    <nd ref="200599261"/>
    <nd ref="200598743"/>
    <nd ref="206977568"/>
    <nd ref="1354689350"/>
    <nd ref="200598770"/>
    <tag k="highway" v="residential"/>
    <tag k="maxspeed" v="50"/>
    <tag k="maxspeed:source" v="default residential speed limit in Australia"/>
    <tag k="name" v="Station Street"/>
  </way>
  <way id="19309498" version="6" timestamp="2012-01-15T20:00:58Z" uid="147510" user="woodpeck_fixbot" changeset="10400850">
    <nd ref="200598687"/>
    <nd ref="200599091"/>
    <nd ref="200598712"/>
    <nd ref="200599261"/>
    <nd ref="200598743"/>
    <nd ref="206977568"/>
    <nd ref="1354689350"/>
    <nd ref="200598770"/>
    <tag k="highway" v="residential"/>
    <tag k="name" v="Station Street"/>
  </way>
  <way id="19309500" version="3" timestamp="2010-04-23T02:29:09Z" uid="4467" user="Rosscoe" changeset="4500268">
    <nd ref="704211583"/>
    <nd ref="200598817"/>
    <nd ref="200598836"/>
    <nd ref="200598853"/>
    <nd ref="200598873"/>
    <nd ref="200598890"/>
    <nd ref="200598921"/>
    <nd ref="200598949"/>
    <nd ref="200598975"/>
    <nd ref="200598996"/>
    <nd ref="200599021"/>
    <tag k="highway" v="secondary"/>
    <tag k="name" v="Gerard Street"/>
  </way>
  <way id="19309502" version="4" timestamp="2010-07-09T17:23:02Z" uid="74617" user="JohnSmith" changeset="5175333">
    <nd ref="200599040"/>
    <nd ref="603578036"/>
    <nd ref="200599063"/>
    <nd ref="200599091"/>
    <nd ref="570016834"/>
    <tag k="highway" v="residential"/>
    <tag k="maxspeed" v="50"/>
    <tag k="maxspeed:source" v="default residential speed limit in Australia"/>
    <tag k="name" v="Henry Street"/>
  </way>
  <way id="19309502" version="5" timestamp="2012-01-15T20:00:59Z" uid="147510" user="woodpeck_fixbot" changeset="10400850">
    <nd ref="200599040"/>
    <nd ref="603578036"/>
    <nd ref="200599063"/>
    <nd ref="200599091"/>
    <nd ref="570016834"/>
    <tag k="highway" v="residential"/>
    <tag k="name" v="Henry Street"/>
  </way>
  <way id="19309506" version="3" timestamp="2010-04-23T02:29:09Z" uid="4467" user="Rosscoe" changeset="4500268">
    <nd ref="200599135"/>
    <nd ref="704211478"/>
    <tag k="highway" v="residential"/>
    <tag k="name" v="Renou Street"/>
  </way>
  <way id="19309506" version="4" timestamp="2010-07-09T17:20:36Z" uid="74617" user="JohnSmith" changeset="5175333">
    <nd ref="200599135"/>
    <nd ref="704211478"/>
    <tag k="highway" v="residential"/>
    <tag k="maxspeed" v="50"/>
    <tag k="maxspeed:source" v="default residential speed limit in Australia"/>
    <tag k="name" v="Renou Street"/>
  </way>
  <way id="19309506" version="5" timestamp="2012-01-15T20:01:00Z" uid="147510" user="woodpeck_fixbot" changeset="10400850">
    <nd ref="200599135"/>
    <nd ref="704211478"/>
    <tag k="highway" v="residential"/>
    <tag k="name" v="Renou Street"/>
  </way>
  <way id="19309507" version="3" timestamp="2010-04-23T02:29:09Z" uid="4467" user="Rosscoe" changeset="4500268">
    <nd ref="200599203"/>
    <nd ref="704211484"/>
    <tag k="highway" v="residential"/>
    <tag k="name" v="Redcliffe Street"/>
  </way>
  <way id="19309507" version="4" timestamp="2010-05-15T13:24:07Z" uid="192584" user="ORYX" changeset="4705963">
    <nd ref="200599203"/>
    <nd ref="704211480"/>
    <tag k="highway" v="residential"/>
    <tag k="name" v="Redcliffe Street"/>
  </way>
  <way id="19309507" version="5" timestamp="2010-07-09T17:23:00Z" uid="74617" user="JohnSmith" changeset="5175333">
    <nd ref="200599203"/>
    <nd ref="704211480"/>
    <tag k="highway" v="residential"/>
    <tag k="maxspeed" v="50"/>
    <tag k="maxspeed:source" v="default residential speed limit in Australia"/>
    <tag k="name" v="Redcliffe Street"/>
  </way>
  <way id="19309507" version="6" timestamp="2012-01-15T20:01:01Z" uid="147510" user="woodpeck_fixbot" changeset="10400850">
    <nd ref="200599203"/>
    <nd ref="704211480"/>
    <tag k="highway" v="residential"/>
    <tag k="name" v="Redcliffe Street"/>
  </way>
  <way id="19309508" version="2" timestamp="2010-07-09T17:24:50Z" uid="74617" user="JohnSmith" changeset="5175333">
    <nd ref="200599280"/>
    <nd ref="200599289"/>
    <nd ref="200598743"/>
    <nd ref="200598873"/>
    <tag k="highway" v="residential"/>
    <tag k="maxspeed" v="50"/>
    <tag k="maxspeed:source" v="default residential speed limit in Australia"/>
    <tag k="name" v="Campbell Street"/>
  </way>
  <way id="19309508" version="3" timestamp="2011-07-09T11:19:29Z" uid="485152" user="samps" changeset="8673632">
    <nd ref="200599280"/>
    <nd ref="1354689348"/>
    <nd ref="200599289"/>
    <nd ref="200598743"/>
    <nd ref="200598873"/>
    <tag k="highway" v="residential"/>
    <tag k="maxspeed" v="50"/>
    <tag k="maxspeed:source" v="default residential speed limit in Australia"/>
    <tag k="name" v="Campbell Street"/>
  </way>
  <way id="19309508" version="4" timestamp="2011-12-12T10:52:46Z" uid="349913" user="Peter W34" changeset="10097785">
    <nd ref="200599280"/>
    <nd ref="1542144738"/>
    <nd ref="1354689348"/>
    <nd ref="200599289"/>
    <nd ref="200598743"/>
    <nd ref="200598873"/>
    <tag k="highway" v="residential"/>
    <tag k="maxspeed" v="50"/>
    <tag k="maxspeed:source" v="default residential speed limit in Australia"/>
    <tag k="name" v="Campbell Street"/>
  </way>
  <way id="19309508" version="5" timestamp="2012-01-15T20:01:02Z" uid="147510" user="woodpeck_fixbot" changeset="10400850">
    <nd ref="200599280"/>
    <nd ref="1542144738"/>
    <nd ref="1354689348"/>
    <nd ref="200599289"/>
    <nd ref="200598743"/>
    <nd ref="200598873"/>
    <tag k="highway" v="residential"/>
    <tag k="name" v="Campbell Street"/>
  </way>
  <way id="19309510" version="2" timestamp="2010-07-09T17:28:00Z" uid="74617" user="JohnSmith" changeset="5175333">
    <nd ref="200599295"/>
    <nd ref="200599312"/>
    <nd ref="200600087"/>
    <nd ref="200599339"/>
    <nd ref="200599368"/>
    <tag k="highway" v="residential"/>
    <tag k="maxspeed" v="50"/>
    <tag k="maxspeed:source" v="default residential speed limit in Australia"/>
    <tag k="name" v="Station Street"/>
  </way>
  <way id="19309510" version="3" timestamp="2012-01-15T20:01:03Z" uid="147510" user="woodpeck_fixbot" changeset="10400850">
    <nd ref="200599295"/>
    <nd ref="200599312"/>
    <nd ref="200600087"/>
    <nd ref="200599339"/>
    <nd ref="200599368"/>
    <tag k="highway" v="residential"/>
    <tag k="name" v="Station Street"/>
  </way>
  <way id="19309516" version="2" timestamp="2010-07-09T17:27:08Z" uid="74617" user="JohnSmith" changeset="5175333">
    <nd ref="200600739"/>
    <nd ref="200600011"/>
    <nd ref="200599445"/>
    <nd ref="200599581"/>
    <nd ref="200599468"/>
    <nd ref="200599494"/>
    <nd ref="200599525"/>
    <nd ref="200601276"/>
    <nd ref="200599553"/>
    <tag k="highway" v="residential"/>
    <tag k="maxspeed" v="50"/>
    <tag k="maxspeed:source" v="default residential speed limit in Australia"/>
    <tag k="name" v="Glamorgan Street"/>
  </way>
  <way id="19309516" version="3" timestamp="2012-01-15T20:01:05Z" uid="147510" user="woodpeck_fixbot" changeset="10400850">
    <nd ref="200600739"/>
    <nd ref="200600011"/>
    <nd ref="200599445"/>
    <nd ref="200599581"/>
    <nd ref="200599468"/>
    <nd ref="200599494"/>
    <nd ref="200599525"/>
    <nd ref="200601276"/>
    <nd ref="200599553"/>
    <tag k="highway" v="residential"/>
    <tag k="name" v="Glamorgan Street"/>
  </way>
  <way id="19309517" version="2" timestamp="2010-07-09T17:19:57Z" uid="74617" user="JohnSmith" changeset="5175333">
    <nd ref="200599581"/>
    <nd ref="200599642"/>
    <nd ref="200599610"/>
    <tag k="highway" v="residential"/>
    <tag k="maxspeed" v="50"/>
    <tag k="maxspeed:source" v="default residential speed limit in Australia"/>
    <tag k="name" v="Dahlia Street"/>
  </way>
  <way id="19309517" version="3" timestamp="2012-01-15T20:01:06Z" uid="147510" user="woodpeck_fixbot" changeset="10400850">
    <nd ref="200599581"/>
    <nd ref="200599642"/>
    <nd ref="200599610"/>
    <tag k="highway" v="residential"/>
    <tag k="name" v="Dahlia Street"/>
  </way>
  <way id="19309518" version="2" timestamp="2010-07-09T17:22:24Z" uid="74617" user="JohnSmith" changeset="5175333">
    <nd ref="200599642"/>
    <nd ref="200599663"/>
    <nd ref="200599693"/>
    <nd ref="200599726"/>
    <nd ref="200599749"/>
    <tag k="highway" v="residential"/>
    <tag k="maxspeed" v="50"/>
    <tag k="maxspeed:source" v="default residential speed limit in Australia"/>
    <tag k="name" v="Corry Street"/>
  </way>
  <way id="19309518" version="3" timestamp="2012-01-15T20:01:08Z" uid="147510" user="woodpeck_fixbot" changeset="10400850">
    <nd ref="200599642"/>
    <nd ref="200599663"/>
    <nd ref="200599693"/>
    <nd ref="200599726"/>
    <nd ref="200599749"/>
    <tag k="highway" v="residential"/>
    <tag k="name" v="Corry Street"/>
  </way>
  <way id="19309520" version="4" timestamp="2010-07-09T17:20:09Z" uid="74617" user="JohnSmith" changeset="5175333">
    <nd ref="589225681"/>
    <nd ref="200599761"/>
    <nd ref="200599610"/>
    <nd ref="200599788"/>
    <nd ref="200599816"/>
    <nd ref="200599837"/>
    <nd ref="200599870"/>
    <nd ref="200599897"/>
    <tag k="highway" v="residential"/>
    <tag k="maxspeed" v="50"/>
    <tag k="maxspeed:source" v="default residential speed limit in Australia"/>
    <tag k="name" v="Elkhorn Street"/>
  </way>
  <way id="19309520" version="5" timestamp="2012-01-15T20:01:09Z" uid="147510" user="woodpeck_fixbot" changeset="10400850">
    <nd ref="589225681"/>
    <nd ref="200599761"/>
    <nd ref="200599610"/>
    <nd ref="200599788"/>
    <nd ref="200599816"/>
    <nd ref="200599837"/>
    <nd ref="200599870"/>
    <nd ref="200599897"/>
    <tag k="highway" v="residential"/>
    <tag k="name" v="Elkhorn Street"/>
  </way>
  <way id="19309523" version="2" timestamp="2010-07-09T17:26:12Z" uid="74617" user="JohnSmith" changeset="5175333">
    <nd ref="200599928"/>
    <nd ref="200599959"/>
    <nd ref="200599987"/>
    <nd ref="200600039"/>
    <nd ref="200600011"/>
    <tag k="highway" v="residential"/>
    <tag k="maxspeed" v="50"/>
    <tag k="maxspeed:source" v="default residential speed limit in Australia"/>
    <tag k="name" v="Cosmos Street"/>
  </way>
  <way id="19309523" version="3" timestamp="2012-01-15T20:01:10Z" uid="147510" user="woodpeck_fixbot" changeset="10400850">
    <nd ref="200599928"/>
    <nd ref="200599959"/>
    <nd ref="200599987"/>
    <nd ref="200600039"/>
    <nd ref="200600011"/>
    <tag k="highway" v="residential"/>
    <tag k="name" v="Cosmos Street"/>
  </way>
  <way id="19309525" version="2" timestamp="2010-07-09T17:20:49Z" uid="74617" user="JohnSmith" changeset="5175333">
    <nd ref="200600039"/>
    <nd ref="200600054"/>
    <nd ref="200600069"/>
    <tag k="highway" v="residential"/>
    <tag k="maxspeed" v="50"/>
    <tag k="maxspeed:source" v="default residential speed limit in Australia"/>
    <tag k="name" v="Brinton Close"/>
  </way>
  <way id="19309525" version="3" timestamp="2012-01-15T20:01:11Z" uid="147510" user="woodpeck_fixbot" changeset="10400850">
    <nd ref="200600039"/>
    <nd ref="200600054"/>
    <nd ref="200600069"/>
    <tag k="highway" v="residential"/>
    <tag k="name" v="Brinton Close"/>
  </way>
  <way id="19309528" version="2" timestamp="2010-07-09T17:23:35Z" uid="74617" user="JohnSmith" changeset="5175333">
    <nd ref="200600087"/>
    <nd ref="200600116"/>
    <nd ref="200600138"/>
    <nd ref="200600164"/>
    <nd ref="200600193"/>
    <nd ref="200600222"/>
    <nd ref="200600252"/>
    <nd ref="200600278"/>
    <nd ref="200600303"/>
    <nd ref="200600325"/>
    <nd ref="200600354"/>
    <tag k="highway" v="residential"/>
    <tag k="maxspeed" v="50"/>
    <tag k="maxspeed:source" v="default residential speed limit in Australia"/>
    <tag k="name" v="Silvereye Close"/>
  </way>
  <way id="19309528" version="3" timestamp="2012-01-15T20:01:13Z" uid="147510" user="woodpeck_fixbot" changeset="10400850">
    <nd ref="200600087"/>
    <nd ref="200600116"/>
    <nd ref="200600138"/>
    <nd ref="200600164"/>
    <nd ref="200600193"/>
    <nd ref="200600222"/>
    <nd ref="200600252"/>
    <nd ref="200600278"/>
    <nd ref="200600303"/>
    <nd ref="200600325"/>
    <nd ref="200600354"/>
    <tag k="highway" v="residential"/>
    <tag k="name" v="Silvereye Close"/>
  </way>
  <way id="19309531" version="2" timestamp="2010-07-09T17:28:27Z" uid="74617" user="JohnSmith" changeset="5175333">
    <nd ref="200600138"/>
    <nd ref="200600378"/>
    <nd ref="200600398"/>
    <nd ref="200600416"/>
    <nd ref="200600495"/>
    <nd ref="200600438"/>
    <nd ref="200600471"/>
    <tag k="highway" v="residential"/>
    <tag k="maxspeed" v="50"/>
    <tag k="maxspeed:source" v="default residential speed limit in Australia"/>
    <tag k="name" v="Turnstone Gardens"/>
  </way>
  <way id="19309531" version="3" timestamp="2012-01-15T20:01:14Z" uid="147510" user="woodpeck_fixbot" changeset="10400850">
    <nd ref="200600138"/>
    <nd ref="200600378"/>
    <nd ref="200600398"/>
    <nd ref="200600416"/>
    <nd ref="200600495"/>
    <nd ref="200600438"/>
    <nd ref="200600471"/>
    <tag k="highway" v="residential"/>
    <tag k="name" v="Turnstone Gardens"/>
  </way>
  <way id="19309532" version="2" timestamp="2010-07-09T17:22:02Z" uid="74617" user="JohnSmith" changeset="5175333">
    <nd ref="200600495"/>
    <nd ref="200600523"/>
    <nd ref="200600545"/>
    <tag k="highway" v="residential"/>
    <tag k="maxspeed" v="50"/>
    <tag k="maxspeed:source" v="default residential speed limit in Australia"/>
    <tag k="name" v="Turtledove Grove"/>
  </way>
  <way id="19309532" version="3" timestamp="2012-01-15T20:01:15Z" uid="147510" user="woodpeck_fixbot" changeset="10400850">
    <nd ref="200600495"/>
    <nd ref="200600523"/>
    <nd ref="200600545"/>
    <tag k="highway" v="residential"/>
    <tag k="name" v="Turtledove Grove"/>
  </way>
  <way id="19309536" version="2" timestamp="2010-07-09T17:27:41Z" uid="74617" user="JohnSmith" changeset="5175333">
    <nd ref="200600574"/>
    <nd ref="200600600"/>
    <nd ref="200600630"/>
    <nd ref="200600657"/>
    <tag k="highway" v="residential"/>
    <tag k="maxspeed" v="50"/>
    <tag k="maxspeed:source" v="default residential speed limit in Australia"/>
    <tag k="name" v="Huntley Close"/>
  </way>
  <way id="19309536" version="3" timestamp="2012-01-15T20:01:28Z" uid="147510" user="woodpeck_fixbot" changeset="10400850">
    <nd ref="200600574"/>
    <nd ref="200600600"/>
    <nd ref="200600630"/>
    <nd ref="200600657"/>
    <tag k="highway" v="residential"/>
    <tag k="name" v="Huntley Close"/>
  </way>
  <way id="19309538" version="3" timestamp="2010-07-09T17:23:08Z" uid="74617" user="JohnSmith" changeset="5175333">
    <nd ref="200599394"/>
    <nd ref="200600684"/>
    <tag k="highway" v="residential"/>
    <tag k="maxspeed" v="50"/>
    <tag k="maxspeed:source" v="default residential speed limit in Australia"/>
    <tag k="name" v="Perren Place"/>
  </way>
  <way id="19309538" version="4" timestamp="2012-01-15T20:01:29Z" uid="147510" user="woodpeck_fixbot" changeset="10400850">
    <nd ref="200599394"/>
    <nd ref="200600684"/>
    <tag k="highway" v="residential"/>
    <tag k="name" v="Perren Place"/>
  </way>
  <way id="19309539" version="2" timestamp="2010-07-09T17:24:57Z" uid="74617" user="JohnSmith" changeset="5175333">
    <nd ref="200600708"/>
    <nd ref="200600728"/>
    <tag k="highway" v="residential"/>
    <tag k="maxspeed" v="50"/>
    <tag k="maxspeed:source" v="default residential speed limit in Australia"/>
    <tag k="name" v="Beacon Close"/>
  </way>
  <way id="19309539" version="3" timestamp="2012-01-15T20:01:30Z" uid="147510" user="woodpeck_fixbot" changeset="10400850">
    <nd ref="200600708"/>
    <nd ref="200600728"/>
    <tag k="highway" v="residential"/>
    <tag k="name" v="Beacon Close"/>
  </way>
  <way id="19309541" version="2" timestamp="2010-07-09T17:28:05Z" uid="74617" user="JohnSmith" changeset="5175333">
    <nd ref="200600762"/>
    <nd ref="200600785"/>
    <tag k="highway" v="residential"/>
    <tag k="maxspeed" v="50"/>
    <tag k="maxspeed:source" v="default residential speed limit in Australia"/>
    <tag k="name" v="Bass Close"/>
  </way>
  <way id="19309541" version="3" timestamp="2012-01-15T20:01:32Z" uid="147510" user="woodpeck_fixbot" changeset="10400850">
    <nd ref="200600762"/>
    <nd ref="200600785"/>
    <tag k="highway" v="residential"/>
    <tag k="name" v="Bass Close"/>
  </way>
  <way id="19309544" version="2" timestamp="2010-07-09T17:21:54Z" uid="74617" user="JohnSmith" changeset="5175333">
    <nd ref="200600812"/>
    <nd ref="200600833"/>
    <nd ref="200600860"/>
    <nd ref="200600889"/>
    <tag k="highway" v="residential"/>
    <tag k="maxspeed" v="50"/>
    <tag k="maxspeed:source" v="default residential speed limit in Australia"/>
    <tag k="name" v="Beckford Close"/>
  </way>
  <way id="19309544" version="3" timestamp="2012-01-15T20:01:33Z" uid="147510" user="woodpeck_fixbot" changeset="10400850">
    <nd ref="200600812"/>
    <nd ref="200600833"/>
    <nd ref="200600860"/>
    <nd ref="200600889"/>
    <tag k="highway" v="residential"/>
    <tag k="name" v="Beckford Close"/>
  </way>
  <way id="19309547" version="2" timestamp="2010-07-09T17:27:12Z" uid="74617" user="JohnSmith" changeset="5175333">
    <nd ref="200600917"/>
    <nd ref="200600951"/>
    <nd ref="200600981"/>
    <nd ref="200601011"/>
    <tag k="highway" v="residential"/>
    <tag k="maxspeed" v="50"/>
    <tag k="maxspeed:source" v="default residential speed limit in Australia"/>
    <tag k="name" v="Farnby Lane"/>
  </way>
  <way id="19309547" version="3" timestamp="2012-01-15T20:01:34Z" uid="147510" user="woodpeck_fixbot" changeset="10400850">
    <nd ref="200600917"/>
    <nd ref="200600951"/>
    <nd ref="200600981"/>
    <nd ref="200601011"/>
    <tag k="highway" v="residential"/>
    <tag k="name" v="Farnby Lane"/>
  </way>
  <way id="19309554" version="2" timestamp="2010-07-09T17:26:18Z" uid="74617" user="JohnSmith" changeset="5175333">
    <nd ref="200601276"/>
    <nd ref="200601277"/>
    <nd ref="200601289"/>
    <nd ref="200601300"/>
    <nd ref="200601311"/>
    <nd ref="200601333"/>
    <tag k="highway" v="residential"/>
    <tag k="maxspeed" v="50"/>
    <tag k="maxspeed:source" v="default residential speed limit in Australia"/>
    <tag k="name" v="Barbell Close"/>
  </way>
  <way id="19309554" version="3" timestamp="2012-01-15T20:01:35Z" uid="147510" user="woodpeck_fixbot" changeset="10400850">
    <nd ref="200601276"/>
    <nd ref="200601277"/>
    <nd ref="200601289"/>
    <nd ref="200601300"/>
    <nd ref="200601311"/>
    <nd ref="200601333"/>
    <tag k="highway" v="residential"/>
    <tag k="name" v="Barbell Close"/>
  </way>
  <way id="19309558" version="4" timestamp="2010-04-23T02:29:06Z" uid="4467" user="Rosscoe" changeset="4500268">
    <nd ref="704211585"/>
    <nd ref="206944253"/>
    <nd ref="200599176"/>
    <nd ref="200602444"/>
    <nd ref="200599108"/>
    <tag k="highway" v="secondary"/>
    <tag k="name" v="Gerard Street"/>
  </way>
  <way id="19309561" version="4" timestamp="2010-04-23T02:29:11Z" uid="4467" user="Rosscoe" changeset="4500268"/>
  <way id="19309576" version="6" timestamp="2010-04-23T02:29:10Z" uid="4467" user="Rosscoe" changeset="4500268">
    <nd ref="200598443"/>
    <nd ref="200602502"/>
    <nd ref="704211504"/>
    <tag k="highway" v="residential"/>
    <tag k="name" v="Gibbs Road"/>
  </way>
  <way id="19309576" version="7" timestamp="2010-07-09T17:26:25Z" uid="74617" user="JohnSmith" changeset="5175333">
    <nd ref="200598443"/>
    <nd ref="200602502"/>
    <nd ref="704211504"/>
    <tag k="highway" v="residential"/>
    <tag k="maxspeed" v="50"/>
    <tag k="maxspeed:source" v="default residential speed limit in Australia"/>
    <tag k="name" v="Gibbs Road"/>
  </way>
  <way id="19309576" version="8" timestamp="2012-01-15T20:01:36Z" uid="147510" user="woodpeck_fixbot" changeset="10400850">
    <nd ref="200598443"/>
    <nd ref="200602502"/>
    <nd ref="704211504"/>
    <tag k="highway" v="residential"/>
    <tag k="name" v="Gibbs Road"/>
  </way>
  <way id="19309580" version="4" timestamp="2010-04-23T02:29:11Z" uid="4467" user="Rosscoe" changeset="4500268">
    <nd ref="200602444"/>
    <nd ref="704211501"/>
    <tag k="highway" v="residential"/>
    <tag k="name" v="Renou Street"/>
  </way>
  <way id="19309580" version="5" timestamp="2010-07-09T17:25:17Z" uid="74617" user="JohnSmith" changeset="5175333">
    <nd ref="200602444"/>
    <nd ref="704211501"/>
    <tag k="highway" v="residential"/>
    <tag k="maxspeed" v="50"/>
    <tag k="maxspeed:source" v="default residential speed limit in Australia"/>
    <tag k="name" v="Renou Street"/>
  </way>
  <way id="19309580" version="6" timestamp="2012-01-15T20:01:37Z" uid="147510" user="woodpeck_fixbot" changeset="10400850">
    <nd ref="200602444"/>
    <nd ref="704211501"/>
    <tag k="highway" v="residential"/>
    <tag k="name" v="Renou Street"/>
  </way>
  <way id="19309583" version="4" timestamp="2010-07-09T17:21:57Z" uid="74617" user="JohnSmith" changeset="5175333">
    <nd ref="200602515"/>
    <nd ref="593721823"/>
    <nd ref="593721825"/>
    <nd ref="200602536"/>
    <nd ref="206964540"/>
    <tag k="highway" v="residential"/>
    <tag k="maxspeed" v="50"/>
    <tag k="maxspeed:source" v="default residential speed limit in Australia"/>
    <tag k="name" v="Thomas Street"/>
  </way>
  <way id="19309583" version="5" timestamp="2011-08-21T08:50:40Z" uid="485152" user="samps" changeset="9081750">
    <nd ref="200602515"/>
    <nd ref="593721823"/>
    <nd ref="593721825"/>
    <nd ref="200602536"/>
    <nd ref="206964540"/>
    <tag k="highway" v="residential"/>
    <tag k="maxspeed" v="50"/>
    <tag k="maxspeed:source" v="default residential speed limit in Australia"/>
    <tag k="name" v="Thomas Street"/>
    <tag k="oneway" v="no"/>
  </way>
  <way id="19309583" version="6" timestamp="2011-10-08T10:21:15Z" uid="485152" user="samps" changeset="9501025">
    <nd ref="200602515"/>
    <nd ref="593721823"/>
    <nd ref="593721825"/>
    <nd ref="200602536"/>
    <nd ref="1458557407"/>
    <nd ref="206964540"/>
    <tag k="highway" v="residential"/>
    <tag k="maxspeed" v="50"/>
    <tag k="maxspeed:source" v="default residential speed limit in Australia"/>
    <tag k="name" v="Thomas Street"/>
    <tag k="oneway" v="no"/>
  </way>
  <way id="19309583" version="7" timestamp="2011-10-08T10:28:55Z" uid="485152" user="samps" changeset="9501025">
    <nd ref="200602515"/>
    <nd ref="593721823"/>
    <nd ref="593721825"/>
    <nd ref="200602536"/>
    <nd ref="1458560750"/>
    <nd ref="206964540"/>
    <tag k="highway" v="residential"/>
    <tag k="maxspeed" v="50"/>
    <tag k="maxspeed:source" v="default residential speed limit in Australia"/>
    <tag k="name" v="Thomas Street"/>
    <tag k="oneway" v="no"/>
  </way>
  <way id="19309583" version="8" timestamp="2012-01-15T20:01:38Z" uid="147510" user="woodpeck_fixbot" changeset="10400850">
    <nd ref="200602515"/>
    <nd ref="593721823"/>
    <nd ref="593721825"/>
    <nd ref="200602536"/>
    <nd ref="1458560750"/>
    <nd ref="206964540"/>
    <tag k="highway" v="residential"/>
    <tag k="name" v="Thomas Street"/>
    <tag k="oneway" v="no"/>
  </way>
  <way id="19309585" version="17" timestamp="2010-05-23T08:30:14Z" uid="4467" user="Rosscoe" changeset="4780872">
    <nd ref="746252161"/>
    <nd ref="746252117"/>
    <nd ref="746252142"/>
    <nd ref="746252155"/>
    <nd ref="746252140"/>
    <nd ref="746252149"/>
    <nd ref="746252138"/>
    <nd ref="746252145"/>
    <nd ref="746252153"/>
    <nd ref="746252118"/>
    <nd ref="746252147"/>
    <tag k="highway" v="secondary"/>
    <tag k="name" v="Fleming Avenue"/>
    <tag k="oneway" v="yes"/>
    <tag k="source" v="nearmap"/>
  </way>
</osm>
