<?xml version='1.0' encoding='UTF-8'?>
<osm version="0.6" generator="libosmium/2.20.0">
  <way id="19327030" version="2" timestamp="2010-02-14T17:17:26Z" uid="74617" user="JohnSmith" changeset="3875836">
    <nd ref="200816781"/>
    <nd ref="200815154"/>
    <tag k="foot" v="yes"/>
    <tag k="highway" v="footway"/>
  </way>
  <way id="19327177" version="2" timestamp="2010-07-09T18:02:53Z" uid="74617" user="JohnSmith" changeset="5175636">
    <nd ref="200818479"/>
    <nd ref="200819434"/>
    <nd ref="200819435"/>
    <tag k="highway" v="residential"/>
    <tag k="maxspeed" v="50"/>
    <tag k="maxspeed:source" v="default residential speed limit in Australia"/>
    <tag k="name" v="Alder Way"/>
  </way>
  <way id="19327177" version="3" timestamp="2012-01-15T20:02:45Z" uid="147510" user="woodpeck_fixbot" changeset="10400850">
    <nd ref="200818479"/>
    <nd ref="200819434"/>
    <nd ref="200819435"/>
    <tag k="highway" v="residential"/>
    <tag k="name" v="Alder Way"/>
  </way>
  <way id="19327190" version="2" timestamp="2010-07-09T17:57:20Z" uid="74617" user="JohnSmith" changeset="5175636">
    <nd ref="25611140"/>
    <nd ref="200819704"/>
    <tag k="highway" v="residential"/>
    <tag k="maxspeed" v="50"/>
    <tag k="maxspeed:source" v="default residential speed limit in Australia"/>
    <tag k="name" v="Sedge Place"/>
  </way>
  <way id="19327190" version="3" timestamp="2012-01-15T20:02:46Z" uid="147510" user="woodpeck_fixbot" changeset="10400850">
    <nd ref="25611140"/>
    <nd ref="200819704"/>
    <tag k="highway" v="residential"/>
    <tag k="name" v="Sedge Place"/>
  </way>
  <way id="19327241" version="2" timestamp="2010-07-09T17:58:07Z" uid="74617" user="JohnSmith" changeset="5175636">
    <nd ref="25611138"/>
    <nd ref="200820150"/>
    <tag k="highway" v="residential"/>
    <tag k="maxspeed" v="50"/>
    <tag k="maxspeed:source" v="default residential speed limit in Australia"/>
    <tag k="name" v="Alyxia Place"/>
  </way>
  <way id="19327241" version="3" timestamp="2012-01-15T20:02:47Z" uid="147510" user="woodpeck_fixbot" changeset="10400850">
    <nd ref="25611138"/>
    <nd ref="200820150"/>
    <tag k="highway" v="residential"/>
    <tag k="name" v="Alyxia Place"/>
  </way>
  <way id="19327343" version="2" timestamp="2010-07-09T17:59:10Z" uid="74617" user="JohnSmith" changeset="5175636">
    <nd ref="200820300"/>
    <nd ref="25611142"/>
    <tag k="highway" v="residential"/>
    <tag k="maxspeed" v="50"/>
    <tag k="maxspeed:source" v="default residential speed limit in Australia"/>
    <tag k="name" v="Dinroy Street"/>
  </way>
  <way id="19327343" version="3" timestamp="2012-01-15T20:02:49Z" uid="147510" user="woodpeck_fixbot" changeset="10400850">
    <nd ref="200820300"/>
    <nd ref="25611142"/>
    <tag k="highway" v="residential"/>
    <tag k="name" v="Dinroy Street"/>
  </way>
  <way id="19327999" version="7" timestamp="2010-02-14T17:13:35Z" uid="74617" user="JohnSmith" changeset="3875836">
    <nd ref="200854371"/>
    <nd ref="75116811"/>
    <nd ref="200826967"/>
    <nd ref="26336573"/>
    <nd ref="201132600"/>
    <nd ref="26336572"/>
    <tag k="highway" v="unclassified"/>
    <tag k="maxspeed" v="50"/>
    <tag k="name" v="Knapp Street"/>
  </way>
  <way id="19327999" version="8" timestamp="2012-01-15T20:02:51Z" uid="147510" user="woodpeck_fixbot" changeset="10400850">
    <nd ref="200854371"/>
    <nd ref="75116811"/>
    <nd ref="200826967"/>
    <nd ref="26336573"/>
    <nd ref="201132600"/>
    <nd ref="26336572"/>
    <tag k="highway" v="unclassified"/>
    <tag k="name" v="Knapp Street"/>
  </way>
</osm>
