<?xml version='1.0' encoding='UTF-8'?>
<osm version="0.6" generator="libosmium/2.20.0">
  <way id="19333002" version="3" timestamp="2010-02-15T05:08:47Z" uid="74617" user="JohnSmith" changeset="3880242">
    <nd ref="200881693"/>
    <nd ref="200885860"/>
    <nd ref="200885861"/>
    <nd ref="200885862"/>
    <nd ref="200885863"/>
    <nd ref="200885864"/>
    <tag k="highway" v="residential"/>
    <tag k="maxspeed" v="50"/>
    <tag k="name" v="Rosewood Street"/>
  </way>
  <way id="19333002" version="4" timestamp="2011-10-11T04:57:25Z" uid="535696" user="Greg Wallace" changeset="9527692">
    <nd ref="200881693"/>
    <nd ref="200885860"/>
    <nd ref="200885861"/>
    <nd ref="200885862"/>
    <nd ref="200885863"/>
    <nd ref="200885864"/>
    <tag k="highway" v="residential"/>
    <tag k="maxspeed" v="40"/>
    <tag k="name" v="Rosewood Street"/>
  </way>
  <way id="19333002" version="5" timestamp="2012-01-15T20:03:12Z" uid="147510" user="woodpeck_fixbot" changeset="10400850">
    <nd ref="200881693"/>
    <nd ref="200885860"/>
    <nd ref="200885861"/>
    <nd ref="200885862"/>
    <nd ref="200885863"/>
    <nd ref="200885864"/>
    <tag k="highway" v="residential"/>
    <tag k="name" v="Rosewood Street"/>
  </way>
  <way id="19333032" version="3" timestamp="2010-02-15T05:08:49Z" uid="74617" user="JohnSmith" changeset="3880242">
    <nd ref="200885862"/>
    <nd ref="200886247"/>
    <tag k="highway" v="residential"/>
    <tag k="maxspeed" v="50"/>
    <tag k="name" v="Clermont Street"/>
  </way>
  <way id="19333032" version="4" timestamp="2011-10-11T04:31:13Z" uid="535696" user="Greg Wallace" changeset="9527642">
    <nd ref="200885862"/>
    <nd ref="200886247"/>
    <tag k="highway" v="residential"/>
    <tag k="maxspeed" v="40"/>
    <tag k="name" v="Clermont Street"/>
  </way>
  <way id="19333032" version="5" timestamp="2012-01-15T20:03:13Z" uid="147510" user="woodpeck_fixbot" changeset="10400850">
    <nd ref="200885862"/>
    <nd ref="200886247"/>
    <tag k="highway" v="residential"/>
    <tag k="name" v="Clermont Street"/>
  </way>
  <way id="19333087" version="3" timestamp="2010-02-15T05:08:49Z" uid="74617" user="JohnSmith" changeset="3880242">
    <nd ref="200881687"/>
    <nd ref="200887189"/>
    <nd ref="200887191"/>
    <nd ref="124696562"/>
    <tag k="highway" v="residential"/>
    <tag k="maxspeed" v="50"/>
    <tag k="name" v="The Drive"/>
  </way>
  <way id="19333087" version="4" timestamp="2011-10-11T04:57:10Z" uid="535696" user="Greg Wallace" changeset="9527692">
    <nd ref="200881687"/>
    <nd ref="200887189"/>
    <nd ref="200887191"/>
    <nd ref="124696562"/>
    <tag k="highway" v="residential"/>
    <tag k="maxspeed" v="40"/>
    <tag k="name" v="The Drive"/>
  </way>
  <way id="19333087" version="5" timestamp="2011-10-11T04:57:40Z" uid="535696" user="Greg Wallace" changeset="9527692">
    <nd ref="200881687"/>
    <nd ref="200887189"/>
    <nd ref="200887191"/>
    <nd ref="124696562"/>
    <tag k="highway" v="residential"/>
    <tag k="maxspeed" v="40"/>
    <tag k="name" v="The Drive"/>
    <tag k="oneway" v="no"/>
  </way>
  <way id="19333087" version="6" timestamp="2012-01-15T20:03:15Z" uid="147510" user="woodpeck_fixbot" changeset="10400850">
    <nd ref="200881687"/>
    <nd ref="200887189"/>
    <nd ref="200887191"/>
    <nd ref="124696562"/>
    <tag k="highway" v="residential"/>
    <tag k="name" v="The Drive"/>
    <tag k="oneway" v="no"/>
  </way>
  <way id="19333211" version="3" timestamp="2010-02-15T05:08:46Z" uid="74617" user="JohnSmith" changeset="3880242">
    <nd ref="200881684"/>
    <nd ref="200888813"/>
    <nd ref="200888815"/>
    <nd ref="200888816"/>
    <nd ref="200888817"/>
    <nd ref="200888818"/>
    <nd ref="200888820"/>
    <nd ref="200888821"/>
    <nd ref="200888822"/>
    <nd ref="200888825"/>
    <nd ref="200891186"/>
    <nd ref="200891188"/>
    <tag k="highway" v="residential"/>
    <tag k="maxspeed" v="50"/>
    <tag k="name" v="Bowman Road"/>
  </way>
  <way id="19333211" version="4" timestamp="2010-07-05T09:59:40Z" uid="211951" user="Dr Paul Martin" changeset="5140532">
    <nd ref="200881684"/>
    <nd ref="801909782"/>
    <nd ref="801909784"/>
    <nd ref="801909786"/>
    <nd ref="200888813"/>
    <nd ref="801909788"/>
    <nd ref="801909789"/>
    <nd ref="200888815"/>
    <nd ref="801909791"/>
    <nd ref="801909793"/>
    <nd ref="801909795"/>
    <nd ref="200888816"/>
    <nd ref="200888817"/>
    <nd ref="200888818"/>
    <nd ref="200888820"/>
    <nd ref="200888821"/>
    <nd ref="200888822"/>
    <nd ref="200888825"/>
    <nd ref="200891186"/>
    <nd ref="200891188"/>
    <tag k="highway" v="residential"/>
    <tag k="maxspeed" v="50"/>
    <tag k="name" v="Bowman Road"/>
  </way>
  <way id="19333211" version="5" timestamp="2010-07-05T10:01:05Z" uid="211951" user="Dr Paul Martin" changeset="5140532">
    <nd ref="200881684"/>
    <nd ref="801909782"/>
    <nd ref="801909784"/>
    <nd ref="801909786"/>
    <nd ref="200888813"/>
    <nd ref="801909788"/>
    <nd ref="801909789"/>
    <nd ref="200888815"/>
    <nd ref="801909791"/>
    <nd ref="801909793"/>
    <nd ref="801909795"/>
    <nd ref="200888816"/>
    <nd ref="801910591"/>
    <nd ref="801910595"/>
    <nd ref="801910598"/>
    <nd ref="801910601"/>
    <nd ref="200888817"/>
    <nd ref="200888818"/>
    <nd ref="200888820"/>
    <nd ref="200888821"/>
    <nd ref="200888822"/>
    <nd ref="200888825"/>
    <nd ref="200891186"/>
    <nd ref="200891188"/>
    <tag k="highway" v="residential"/>
    <tag k="lcn" v="yes"/>
    <tag k="maxspeed" v="50"/>
    <tag k="name" v="Bowman Road"/>
  </way>
  <way id="19333211" version="6" timestamp="2010-07-05T10:23:40Z" uid="211951" user="Dr Paul Martin" changeset="5140532">
    <nd ref="200881684"/>
    <nd ref="801909782"/>
    <nd ref="801909784"/>
    <nd ref="801909786"/>
    <nd ref="200888813"/>
    <nd ref="801909788"/>
    <nd ref="801909789"/>
    <nd ref="200888815"/>
    <nd ref="801909791"/>
    <nd ref="801909793"/>
    <nd ref="801909795"/>
    <nd ref="200888816"/>
    <nd ref="801910591"/>
    <nd ref="801910595"/>
    <nd ref="801910598"/>
    <nd ref="801910601"/>
    <nd ref="200888817"/>
    <nd ref="801929731"/>
    <nd ref="801929733"/>
    <nd ref="801929737"/>
    <nd ref="200888818"/>
    <nd ref="801929743"/>
    <nd ref="200888820"/>
    <nd ref="200888821"/>
    <nd ref="200888822"/>
    <nd ref="200888825"/>
    <nd ref="200891186"/>
    <nd ref="200891188"/>
    <tag k="highway" v="residential"/>
    <tag k="lcn" v="yes"/>
    <tag k="maxspeed" v="50"/>
    <tag k="name" v="Bowman Road"/>
  </way>
  <way id="19333211" version="7" timestamp="2010-07-05T10:34:31Z" uid="211951" user="Dr Paul Martin" changeset="5140532">
    <nd ref="200881684"/>
    <nd ref="801909782"/>
    <nd ref="801909784"/>
    <nd ref="801909786"/>
    <nd ref="200888813"/>
    <nd ref="801909788"/>
    <nd ref="801909789"/>
    <nd ref="200888815"/>
    <nd ref="801909791"/>
    <nd ref="801909793"/>
    <nd ref="801909795"/>
    <nd ref="200888816"/>
    <nd ref="801910591"/>
    <nd ref="801910595"/>
    <nd ref="801910598"/>
    <nd ref="801910601"/>
    <nd ref="200888817"/>
    <nd ref="801929731"/>
    <nd ref="801929733"/>
    <nd ref="801929737"/>
    <nd ref="200888818"/>
    <nd ref="801929743"/>
    <nd ref="200888820"/>
    <nd ref="200888821"/>
    <nd ref="801942344"/>
    <nd ref="200888822"/>
    <nd ref="801942349"/>
    <nd ref="200888825"/>
    <nd ref="200891186"/>
    <nd ref="200891188"/>
    <tag k="highway" v="residential"/>
    <tag k="lcn" v="yes"/>
    <tag k="maxspeed" v="50"/>
    <tag k="name" v="Bowman Road"/>
  </way>
  <way id="19333211" version="8" timestamp="2010-07-05T10:34:38Z" uid="211951" user="Dr Paul Martin" changeset="5140532">
    <nd ref="200881684"/>
    <nd ref="801909782"/>
    <nd ref="801909784"/>
    <nd ref="801909786"/>
    <nd ref="200888813"/>
    <nd ref="801909788"/>
    <nd ref="801909789"/>
    <nd ref="200888815"/>
    <nd ref="801909791"/>
    <nd ref="801909793"/>
    <nd ref="801909795"/>
    <nd ref="200888816"/>
    <nd ref="801910591"/>
    <nd ref="801910595"/>
    <nd ref="801910598"/>
    <nd ref="801910601"/>
    <nd ref="200888817"/>
    <nd ref="801929731"/>
    <nd ref="801929733"/>
    <nd ref="801929737"/>
    <nd ref="200888818"/>
    <nd ref="801929743"/>
    <nd ref="200888820"/>
    <nd ref="200888821"/>
    <nd ref="801942344"/>
    <nd ref="200888822"/>
    <tag k="highway" v="residential"/>
    <tag k="lcn" v="yes"/>
    <tag k="maxspeed" v="50"/>
    <tag k="name" v="Bowman Road"/>
  </way>
  <way id="19333211" version="9" timestamp="2010-07-05T10:34:43Z" uid="211951" user="Dr Paul Martin" changeset="5140532"/>
  <way id="19333224" version="2" timestamp="2010-07-01T12:40:08Z" uid="207745" user="NE2" changeset="5120031">
    <nd ref="200888960"/>
    <nd ref="200847780"/>
    <nd ref="200888961"/>
    <nd ref="200888963"/>
    <nd ref="200888965"/>
    <nd ref="200888968"/>
    <nd ref="200728843"/>
    <nd ref="200728825"/>
    <nd ref="200846349"/>
    <tag k="highway" v="secondary"/>
    <tag k="name" v="Main St"/>
    <tag k="name_1" v="State Route 268"/>
    <tag k="ref" v="268"/>
    <tag k="tiger:cfcc" v="A31"/>
    <tag k="tiger:county" v="Butler, PA"/>
    <tag k="tiger:name_base" v="Main"/>
    <tag k="tiger:name_base_1" v="State Route 268"/>
    <tag k="tiger:name_type" v="St"/>
    <tag k="tiger:reviewed" v="no"/>
    <tag k="tiger:separated" v="no"/>
    <tag k="tiger:source" v="tiger_import_dch_v0.6_20070829"/>
    <tag k="tiger:tlid" v="52691050:52691051:52691046"/>
    <tag k="tiger:upload_uuid" v="bulk_upload.pl-866b7548-d1f8-41ce-a146-1fbc5545abb6"/>
    <tag k="tiger:zip_left" v="16041"/>
    <tag k="tiger:zip_right" v="16041"/>
  </way>
  <way id="19333224" version="4" timestamp="2010-07-03T22:20:48Z" uid="4467" user="Rosscoe" changeset="5128573">
    <nd ref="200888960"/>
    <nd ref="200847780"/>
    <nd ref="200888961"/>
    <nd ref="200888963"/>
    <nd ref="200888965"/>
    <nd ref="200888968"/>
    <nd ref="200728843"/>
    <nd ref="200728825"/>
    <nd ref="200846349"/>
    <tag k="highway" v="secondary"/>
    <tag k="name" v="Main Street"/>
    <tag k="name_1" v="State Route 268"/>
    <tag k="old_ref_legislative" v="251"/>
    <tag k="ref" v="268"/>
    <tag k="tiger:cfcc" v="A31"/>
    <tag k="tiger:county" v="Butler, PA"/>
    <tag k="tiger:name_base" v="Main"/>
    <tag k="tiger:name_base_1" v="State Route 268"/>
    <tag k="tiger:name_type" v="St"/>
    <tag k="tiger:reviewed" v="no"/>
    <tag k="tiger:separated" v="no"/>
    <tag k="tiger:source" v="tiger_import_dch_v0.6_20070829"/>
    <tag k="tiger:tlid" v="52691050:52691051:52691046"/>
    <tag k="tiger:upload_uuid" v="bulk_upload.pl-866b7548-d1f8-41ce-a146-1fbc5545abb6"/>
    <tag k="tiger:zip_left" v="16041"/>
    <tag k="tiger:zip_right" v="16041"/>
  </way>
  <way id="19333224" version="5" timestamp="2011-06-03T21:52:51Z" uid="207745" user="NE2" changeset="8334380">
    <nd ref="200888960"/>
    <nd ref="200847780"/>
    <nd ref="200888961"/>
    <nd ref="200888963"/>
    <nd ref="200888965"/>
    <nd ref="200888968"/>
    <nd ref="200728843"/>
    <nd ref="200728825"/>
    <nd ref="200846349"/>
    <tag k="highway" v="secondary"/>
    <tag k="name" v="Main Street"/>
    <tag k="old_ref_legislative" v="251"/>
    <tag k="ref" v="268"/>
    <tag k="tiger:cfcc" v="A31"/>
    <tag k="tiger:county" v="Butler, PA"/>
    <tag k="tiger:name_base" v="Main"/>
    <tag k="tiger:name_base_1" v="State Route 268"/>
    <tag k="tiger:name_type" v="St"/>
    <tag k="tiger:reviewed" v="no"/>
    <tag k="tiger:separated" v="no"/>
    <tag k="tiger:source" v="tiger_import_dch_v0.6_20070829"/>
    <tag k="tiger:tlid" v="52691050:52691051:52691046"/>
    <tag k="tiger:upload_uuid" v="bulk_upload.pl-866b7548-d1f8-41ce-a146-1fbc5545abb6"/>
    <tag k="tiger:zip_left" v="16041"/>
    <tag k="tiger:zip_right" v="16041"/>
  </way>
  <way id="19333224" version="6" timestamp="2011-06-06T01:13:52Z" uid="207745" user="NE2" changeset="8355588">
    <nd ref="200888960"/>
    <nd ref="200847780"/>
    <nd ref="200888961"/>
    <nd ref="200888963"/>
    <nd ref="200888965"/>
    <nd ref="200888968"/>
    <nd ref="200728843"/>
    <nd ref="200728825"/>
    <nd ref="200846349"/>
    <tag k="highway" v="secondary"/>
    <tag k="name" v="Main Street"/>
    <tag k="old_ref_legislative" v="251"/>
    <tag k="ref" v="PA 268"/>
    <tag k="tiger:cfcc" v="A31"/>
    <tag k="tiger:county" v="Butler, PA"/>
    <tag k="tiger:name_base" v="Main"/>
    <tag k="tiger:name_base_1" v="State Route 268"/>
    <tag k="tiger:name_type" v="St"/>
    <tag k="tiger:reviewed" v="no"/>
    <tag k="tiger:separated" v="no"/>
    <tag k="tiger:source" v="tiger_import_dch_v0.6_20070829"/>
    <tag k="tiger:tlid" v="52691050:52691051:52691046"/>
    <tag k="tiger:upload_uuid" v="bulk_upload.pl-866b7548-d1f8-41ce-a146-1fbc5545abb6"/>
    <tag k="tiger:zip_left" v="16041"/>
    <tag k="tiger:zip_right" v="16041"/>
  </way>
  <way id="19333224" version="7" timestamp="2012-02-28T11:42:52Z" uid="252811" user="rickmastfan67" changeset="10817896">
    <nd ref="200888960"/>
    <nd ref="200847780"/>
    <nd ref="200888961"/>
    <nd ref="200888963"/>
    <nd ref="200888965"/>
    <nd ref="200888968"/>
    <nd ref="200728843"/>
    <nd ref="200728825"/>
    <nd ref="200846349"/>
    <tag k="highway" v="secondary"/>
    <tag k="lanes" v="2"/>
    <tag k="name" v="Main Street"/>
    <tag k="odbl" v="clean"/>
    <tag k="odbl:note" v="The &quot;Declining&quot; user only expanded the road name (St &gt; Street). It can be considered as a trivial edit, thus the way is clean."/>
    <tag k="old_ref_legislative" v="251"/>
    <tag k="ref" v="PA 268"/>
    <tag k="tiger:cfcc" v="A31"/>
    <tag k="tiger:county" v="Butler, PA"/>
    <tag k="tiger:name_base" v="Main"/>
    <tag k="tiger:name_base_1" v="State Route 268"/>
    <tag k="tiger:name_type" v="St"/>
    <tag k="tiger:reviewed" v="no"/>
    <tag k="tiger:separated" v="no"/>
    <tag k="tiger:source" v="tiger_import_dch_v0.6_20070829"/>
    <tag k="tiger:tlid" v="52691050:52691051:52691046"/>
    <tag k="tiger:upload_uuid" v="bulk_upload.pl-866b7548-d1f8-41ce-a146-1fbc5545abb6"/>
    <tag k="tiger:zip_left" v="16041"/>
    <tag k="tiger:zip_right" v="16041"/>
  </way>
  <way id="19333232" version="2" timestamp="2010-07-01T12:40:30Z" uid="207745" user="NE2" changeset="5120031">
    <nd ref="200753550"/>
    <nd ref="200741702"/>
    <nd ref="200755381"/>
    <nd ref="200789347"/>
    <nd ref="200820759"/>
    <nd ref="200750360"/>
    <nd ref="200731605"/>
    <nd ref="200889086"/>
    <nd ref="200889089"/>
    <nd ref="200889093"/>
    <nd ref="200889098"/>
    <nd ref="200884896"/>
    <tag k="highway" v="secondary"/>
    <tag k="name" v="Main St"/>
    <tag k="name_1" v="Bruin Main St"/>
    <tag k="name_2" v="State Route 268"/>
    <tag k="ref" v="268"/>
    <tag k="tiger:cfcc" v="A31"/>
    <tag k="tiger:county" v="Butler, PA"/>
    <tag k="tiger:name_base" v="Main"/>
    <tag k="tiger:name_base_1" v="Bruin Main"/>
    <tag k="tiger:name_base_2" v="State Route 268"/>
    <tag k="tiger:name_type" v="St"/>
    <tag k="tiger:name_type_1" v="St"/>
    <tag k="tiger:reviewed" v="no"/>
    <tag k="tiger:separated" v="no"/>
    <tag k="tiger:source" v="tiger_import_dch_v0.6_20070829"/>
    <tag k="tiger:tlid" v="52663836"/>
    <tag k="tiger:upload_uuid" v="bulk_upload.pl-866b7548-d1f8-41ce-a146-1fbc5545abb6"/>
  </way>
  <way id="19333232" version="4" timestamp="2010-07-03T22:20:34Z" uid="4467" user="Rosscoe" changeset="5128573">
    <nd ref="200753550"/>
    <nd ref="200741702"/>
    <nd ref="200755381"/>
    <nd ref="200789347"/>
    <nd ref="200820759"/>
    <nd ref="200750360"/>
    <nd ref="200731605"/>
    <nd ref="200889086"/>
    <nd ref="200889089"/>
    <nd ref="200889093"/>
    <nd ref="200889098"/>
    <nd ref="200884896"/>
    <tag k="highway" v="secondary"/>
    <tag k="name" v="Main Street"/>
    <tag k="name_1" v="Bruin Main St"/>
    <tag k="name_2" v="State Route 268"/>
    <tag k="old_ref_legislative" v="251"/>
    <tag k="ref" v="268"/>
    <tag k="tiger:cfcc" v="A31"/>
    <tag k="tiger:county" v="Butler, PA"/>
    <tag k="tiger:name_base" v="Main"/>
    <tag k="tiger:name_base_1" v="Bruin Main"/>
    <tag k="tiger:name_base_2" v="State Route 268"/>
    <tag k="tiger:name_type" v="St"/>
    <tag k="tiger:name_type_1" v="St"/>
    <tag k="tiger:reviewed" v="no"/>
    <tag k="tiger:separated" v="no"/>
    <tag k="tiger:source" v="tiger_import_dch_v0.6_20070829"/>
    <tag k="tiger:tlid" v="52663836"/>
    <tag k="tiger:upload_uuid" v="bulk_upload.pl-866b7548-d1f8-41ce-a146-1fbc5545abb6"/>
  </way>
  <way id="19333232" version="5" timestamp="2011-06-03T22:30:08Z" uid="207745" user="NE2" changeset="8334380">
    <nd ref="200753550"/>
    <nd ref="200741702"/>
    <nd ref="200755381"/>
    <nd ref="200789347"/>
    <nd ref="200820759"/>
    <nd ref="200750360"/>
    <nd ref="200731605"/>
    <nd ref="200889086"/>
    <nd ref="200889089"/>
    <nd ref="200889093"/>
    <nd ref="200889098"/>
    <nd ref="200884896"/>
    <tag k="highway" v="secondary"/>
    <tag k="name" v="Main Street"/>
    <tag k="name_1" v="Bruin Main St"/>
    <tag k="old_ref_legislative" v="251"/>
    <tag k="ref" v="268"/>
    <tag k="tiger:cfcc" v="A31"/>
    <tag k="tiger:county" v="Butler, PA"/>
    <tag k="tiger:name_base" v="Main"/>
    <tag k="tiger:name_base_1" v="Bruin Main"/>
    <tag k="tiger:name_base_2" v="State Route 268"/>
    <tag k="tiger:name_type" v="St"/>
    <tag k="tiger:name_type_1" v="St"/>
    <tag k="tiger:reviewed" v="no"/>
    <tag k="tiger:separated" v="no"/>
    <tag k="tiger:source" v="tiger_import_dch_v0.6_20070829"/>
    <tag k="tiger:tlid" v="52663836"/>
    <tag k="tiger:upload_uuid" v="bulk_upload.pl-866b7548-d1f8-41ce-a146-1fbc5545abb6"/>
  </way>
  <way id="19333232" version="6" timestamp="2011-06-06T00:36:40Z" uid="207745" user="NE2" changeset="8355588">
    <nd ref="200753550"/>
    <nd ref="200741702"/>
    <nd ref="200755381"/>
    <nd ref="200789347"/>
    <nd ref="200820759"/>
    <nd ref="200750360"/>
    <nd ref="200731605"/>
    <nd ref="200889086"/>
    <nd ref="200889089"/>
    <nd ref="200889093"/>
    <nd ref="200889098"/>
    <nd ref="200884896"/>
    <tag k="highway" v="secondary"/>
    <tag k="name" v="Main Street"/>
    <tag k="name_1" v="Bruin Main St"/>
    <tag k="old_ref_legislative" v="251"/>
    <tag k="ref" v="PA 268"/>
    <tag k="tiger:cfcc" v="A31"/>
    <tag k="tiger:county" v="Butler, PA"/>
    <tag k="tiger:name_base" v="Main"/>
    <tag k="tiger:name_base_1" v="Bruin Main"/>
    <tag k="tiger:name_base_2" v="State Route 268"/>
    <tag k="tiger:name_type" v="St"/>
    <tag k="tiger:name_type_1" v="St"/>
    <tag k="tiger:reviewed" v="no"/>
    <tag k="tiger:separated" v="no"/>
    <tag k="tiger:source" v="tiger_import_dch_v0.6_20070829"/>
    <tag k="tiger:tlid" v="52663836"/>
    <tag k="tiger:upload_uuid" v="bulk_upload.pl-866b7548-d1f8-41ce-a146-1fbc5545abb6"/>
  </way>
  <way id="19333232" version="7" timestamp="2012-02-28T11:42:49Z" uid="252811" user="rickmastfan67" changeset="10817896">
    <nd ref="200753550"/>
    <nd ref="200741702"/>
    <nd ref="200755381"/>
    <nd ref="200789347"/>
    <nd ref="200820759"/>
    <nd ref="200750360"/>
    <nd ref="200731605"/>
    <nd ref="200889086"/>
    <nd ref="200889089"/>
    <nd ref="200889093"/>
    <nd ref="200889098"/>
    <nd ref="200884896"/>
    <tag k="highway" v="secondary"/>
    <tag k="lanes" v="2"/>
    <tag k="name" v="Main Street"/>
    <tag k="name_1" v="Bruin Main Street"/>
    <tag k="odbl" v="clean"/>
    <tag k="odbl:note" v="The &quot;Declining&quot; user only expanded the road name (St &gt; Street). It can be considered as a trivial edit, thus the way is clean."/>
    <tag k="old_ref_legislative" v="251"/>
    <tag k="ref" v="PA 268"/>
    <tag k="tiger:cfcc" v="A31"/>
    <tag k="tiger:county" v="Butler, PA"/>
    <tag k="tiger:name_base" v="Main"/>
    <tag k="tiger:name_base_1" v="Bruin Main"/>
    <tag k="tiger:name_base_2" v="State Route 268"/>
    <tag k="tiger:name_type" v="St"/>
    <tag k="tiger:name_type_1" v="St"/>
    <tag k="tiger:reviewed" v="no"/>
    <tag k="tiger:separated" v="no"/>
    <tag k="tiger:source" v="tiger_import_dch_v0.6_20070829"/>
    <tag k="tiger:tlid" v="52663836"/>
    <tag k="tiger:upload_uuid" v="bulk_upload.pl-866b7548-d1f8-41ce-a146-1fbc5545abb6"/>
  </way>
  <way id="19333253" version="4" timestamp="2010-02-15T05:08:34Z" uid="74617" user="JohnSmith" changeset="3880242">
    <nd ref="200888820"/>
    <nd ref="200889318"/>
    <nd ref="200889319"/>
    <nd ref="200889320"/>
    <tag k="highway" v="residential"/>
    <tag k="maxspeed" v="50"/>
    <tag k="name" v="Stephenson Street"/>
  </way>
  <way id="19333253" version="5" timestamp="2012-01-15T20:03:16Z" uid="147510" user="woodpeck_fixbot" changeset="10400850">
    <nd ref="200888820"/>
    <nd ref="200889318"/>
    <nd ref="200889319"/>
    <nd ref="200889320"/>
    <tag k="highway" v="residential"/>
    <tag k="name" v="Stephenson Street"/>
  </way>
  <way id="19333280" version="4" timestamp="2009-08-04T06:55:19Z" uid="4467" user="Rosscoe" changeset="2032515">
    <nd ref="200889320"/>
    <nd ref="200889788"/>
    <nd ref="200889789"/>
    <nd ref="200889790"/>
    <nd ref="200888828"/>
    <tag k="highway" v="residential"/>
    <tag k="name" v="Coolibah Street"/>
    <tag k="oneway" v="yes"/>
  </way>
  <way id="19333280" version="5" timestamp="2010-02-15T05:08:33Z" uid="74617" user="JohnSmith" changeset="3880242">
    <nd ref="200889320"/>
    <nd ref="200889788"/>
    <nd ref="200889789"/>
    <nd ref="200889790"/>
    <nd ref="200888828"/>
    <tag k="highway" v="residential"/>
    <tag k="maxspeed" v="50"/>
    <tag k="name" v="Coolibah Street"/>
    <tag k="oneway" v="yes"/>
  </way>
  <way id="19333280" version="6" timestamp="2012-01-15T20:03:17Z" uid="147510" user="woodpeck_fixbot" changeset="10400850">
    <nd ref="200889320"/>
    <nd ref="200889788"/>
    <nd ref="200889789"/>
    <nd ref="200889790"/>
    <nd ref="200888828"/>
    <tag k="highway" v="residential"/>
    <tag k="name" v="Coolibah Street"/>
    <tag k="oneway" v="yes"/>
  </way>
  <way id="19333303" version="5" timestamp="2009-08-04T06:55:18Z" uid="4467" user="Rosscoe" changeset="2032515">
    <nd ref="200888828"/>
    <nd ref="200890187"/>
    <nd ref="200890189"/>
    <nd ref="200890190"/>
    <nd ref="200889320"/>
    <tag k="highway" v="residential"/>
    <tag k="name" v="Coolibah Street"/>
    <tag k="oneway" v="yes"/>
  </way>
  <way id="19333303" version="6" timestamp="2010-02-15T05:08:34Z" uid="74617" user="JohnSmith" changeset="3880242">
    <nd ref="200888828"/>
    <nd ref="200890187"/>
    <nd ref="200890189"/>
    <nd ref="200890190"/>
    <nd ref="200889320"/>
    <tag k="highway" v="residential"/>
    <tag k="maxspeed" v="50"/>
    <tag k="name" v="Coolibah Street"/>
    <tag k="oneway" v="yes"/>
  </way>
  <way id="19333303" version="7" timestamp="2012-01-15T20:03:18Z" uid="147510" user="woodpeck_fixbot" changeset="10400850">
    <nd ref="200888828"/>
    <nd ref="200890187"/>
    <nd ref="200890189"/>
    <nd ref="200890190"/>
    <nd ref="200889320"/>
    <tag k="highway" v="residential"/>
    <tag k="name" v="Coolibah Street"/>
    <tag k="oneway" v="yes"/>
  </way>
  <way id="19333505" version="9" timestamp="2010-02-14T17:16:36Z" uid="74617" user="JohnSmith" changeset="3875836">
    <nd ref="26336561"/>
    <nd ref="200893481"/>
    <nd ref="200893482"/>
    <nd ref="175511943"/>
    <nd ref="369945819"/>
    <nd ref="369940568"/>
    <nd ref="198375003"/>
    <nd ref="175512004"/>
    <tag k="highway" v="unclassified"/>
    <tag k="maxspeed" v="50"/>
    <tag k="name" v="Campbell Street"/>
  </way>
  <way id="19333505" version="10" timestamp="2010-03-10T12:33:08Z" uid="76950" user="paulg" changeset="4088705">
    <nd ref="26336561"/>
    <nd ref="200893481"/>
    <nd ref="663621710"/>
    <nd ref="200893482"/>
    <nd ref="175511943"/>
    <nd ref="369945819"/>
    <nd ref="369940568"/>
    <nd ref="198375003"/>
    <nd ref="175512004"/>
    <tag k="highway" v="unclassified"/>
    <tag k="maxspeed" v="50"/>
    <tag k="name" v="Campbell Street"/>
  </way>
  <way id="19333505" version="11" timestamp="2010-04-22T00:14:21Z" uid="16385" user="morb_au" changeset="4491888">
    <nd ref="26336561"/>
    <nd ref="200893481"/>
    <nd ref="663621710"/>
    <nd ref="200893482"/>
    <nd ref="703527129"/>
    <tag k="highway" v="unclassified"/>
    <tag k="maxspeed" v="50"/>
    <tag k="name" v="Campbell Street"/>
  </way>
  <way id="19333505" version="12" timestamp="2010-11-16T06:42:08Z" uid="219809" user="iTool" changeset="6382784">
    <nd ref="26336561"/>
    <nd ref="200893481"/>
    <nd ref="663621710"/>
    <nd ref="200893482"/>
    <nd ref="703527129"/>
    <tag k="highway" v="unclassified"/>
    <tag k="maxspeed" v="50"/>
    <tag k="name" v="Campbell Street"/>
    <tag k="oneway" v="yes"/>
  </way>
  <way id="19333505" version="13" timestamp="2012-01-15T20:03:19Z" uid="147510" user="woodpeck_fixbot" changeset="10400850">
    <nd ref="26336561"/>
    <nd ref="200893481"/>
    <nd ref="663621710"/>
    <nd ref="200893482"/>
    <nd ref="703527129"/>
    <tag k="highway" v="unclassified"/>
    <tag k="name" v="Campbell Street"/>
    <tag k="oneway" v="yes"/>
  </way>
  <way id="19333679" version="8" timestamp="2010-02-15T05:09:16Z" uid="74617" user="JohnSmith" changeset="3880242">
    <nd ref="200889320"/>
    <nd ref="200895353"/>
    <nd ref="200895355"/>
    <nd ref="200895356"/>
    <nd ref="200895358"/>
    <nd ref="200897275"/>
    <nd ref="200895361"/>
    <nd ref="200905029"/>
    <nd ref="200903673"/>
    <nd ref="200895362"/>
    <tag k="highway" v="residential"/>
    <tag k="maxspeed" v="50"/>
    <tag k="name" v="Dawn Street"/>
  </way>
  <way id="19333679" version="9" timestamp="2010-07-05T20:48:20Z" uid="211951" user="Dr Paul Martin" changeset="5145589">
    <nd ref="200889320"/>
    <nd ref="200895353"/>
    <tag k="highway" v="residential"/>
    <tag k="maxspeed" v="50"/>
    <tag k="name" v="Dawn Street"/>
  </way>
  <way id="19333679" version="10" timestamp="2012-01-15T20:03:20Z" uid="147510" user="woodpeck_fixbot" changeset="10400850">
    <nd ref="200889320"/>
    <nd ref="200895353"/>
    <tag k="highway" v="residential"/>
    <tag k="name" v="Dawn Street"/>
  </way>
  <way id="19333768" version="3" timestamp="2010-02-15T05:08:34Z" uid="74617" user="JohnSmith" changeset="3880242">
    <nd ref="200895353"/>
    <nd ref="200896350"/>
    <nd ref="200896352"/>
    <nd ref="200896353"/>
    <tag k="highway" v="residential"/>
    <tag k="maxspeed" v="50"/>
    <tag k="name" v="Coolibah Street"/>
  </way>
  <way id="19333768" version="4" timestamp="2010-07-05T20:48:16Z" uid="211951" user="Dr Paul Martin" changeset="5145589">
    <nd ref="200895353"/>
    <nd ref="200896350"/>
    <nd ref="200896352"/>
    <nd ref="200896353"/>
    <tag k="highway" v="residential"/>
    <tag k="lcn" v="yes"/>
    <tag k="maxspeed" v="50"/>
    <tag k="name" v="Coolibah Street"/>
  </way>
  <way id="19333768" version="5" timestamp="2012-01-15T20:03:21Z" uid="147510" user="woodpeck_fixbot" changeset="10400850">
    <nd ref="200895353"/>
    <nd ref="200896350"/>
    <nd ref="200896352"/>
    <nd ref="200896353"/>
    <tag k="highway" v="residential"/>
    <tag k="lcn" v="yes"/>
    <tag k="name" v="Coolibah Street"/>
  </way>
  <way id="19333819" version="4" timestamp="2010-02-15T05:09:17Z" uid="74617" user="JohnSmith" changeset="3880242">
    <nd ref="200895355"/>
    <nd ref="200896977"/>
    <tag k="highway" v="residential"/>
    <tag k="maxspeed" v="50"/>
    <tag k="name" v="Moonya Street"/>
  </way>
  <way id="19333819" version="5" timestamp="2012-01-15T20:03:22Z" uid="147510" user="woodpeck_fixbot" changeset="10400850">
    <nd ref="200895355"/>
    <nd ref="200896977"/>
    <tag k="highway" v="residential"/>
    <tag k="name" v="Moonya Street"/>
  </way>
  <way id="19333840" version="5" timestamp="2010-02-15T05:09:19Z" uid="74617" user="JohnSmith" changeset="3880242">
    <nd ref="200897275"/>
    <nd ref="200897273"/>
    <nd ref="200896981"/>
    <tag k="highway" v="residential"/>
    <tag k="maxspeed" v="50"/>
    <tag k="name" v="Kamber Street"/>
    <tag k="oneway" v="yes"/>
  </way>
  <way id="19333840" version="6" timestamp="2012-01-15T20:03:23Z" uid="147510" user="woodpeck_fixbot" changeset="10400850">
    <nd ref="200897275"/>
    <nd ref="200897273"/>
    <nd ref="200896981"/>
    <tag k="highway" v="residential"/>
    <tag k="name" v="Kamber Street"/>
    <tag k="oneway" v="yes"/>
  </way>
  <way id="19333862" version="8" timestamp="2010-02-14T17:16:27Z" uid="74617" user="JohnSmith" changeset="3875836">
    <nd ref="200868805"/>
    <nd ref="247121574"/>
    <tag k="admin_level" v="10"/>
    <tag k="attribution" v="Based on Australian Bureau of Statistics data"/>
    <tag k="boundary" v="administrative"/>
    <tag k="highway" v="unclassified"/>
    <tag k="maxspeed" v="50"/>
    <tag k="name" v="Exhibition Street"/>
    <tag k="source" v="ABS_2006"/>
  </way>
  <way id="19333862" version="9" timestamp="2012-01-15T20:03:24Z" uid="147510" user="woodpeck_fixbot" changeset="10400850">
    <nd ref="200868805"/>
    <nd ref="247121574"/>
    <tag k="admin_level" v="10"/>
    <tag k="attribution" v="Based on Australian Bureau of Statistics data"/>
    <tag k="boundary" v="administrative"/>
    <tag k="highway" v="unclassified"/>
    <tag k="name" v="Exhibition Street"/>
    <tag k="source" v="ABS_2006"/>
  </way>
</osm>
