<?xml version='1.0' encoding='UTF-8'?>
<osm version="0.6" generator="libosmium/2.20.0">
  <way id="19357252" version="4" timestamp="2010-02-14T17:17:13Z" uid="74617" user="JohnSmith" changeset="3875836">
    <nd ref="26336345"/>
    <nd ref="26336344"/>
    <tag k="highway" v="residential"/>
    <tag k="maxspeed" v="50"/>
    <tag k="name" v="Abercrombie Street"/>
  </way>
  <way id="19357252" version="5" timestamp="2012-01-15T20:04:20Z" uid="147510" user="woodpeck_fixbot" changeset="10400850">
    <nd ref="26336345"/>
    <nd ref="26336344"/>
    <tag k="highway" v="residential"/>
    <tag k="name" v="Abercrombie Street"/>
  </way>
  <way id="19357617" version="5" timestamp="2010-02-14T17:17:13Z" uid="74617" user="JohnSmith" changeset="3875836">
    <nd ref="201194567"/>
    <nd ref="318625418"/>
    <nd ref="318625419"/>
    <nd ref="201211814"/>
    <tag k="highway" v="steps"/>
  </way>
  <way id="19357659" version="3" timestamp="2010-02-14T17:17:13Z" uid="74617" user="JohnSmith" changeset="3875836">
    <nd ref="201209981"/>
    <nd ref="201211814"/>
    <tag k="highway" v="residential"/>
    <tag k="maxspeed" v="50"/>
    <tag k="name" v="Patterson Street"/>
  </way>
  <way id="19357659" version="4" timestamp="2012-01-15T20:04:21Z" uid="147510" user="woodpeck_fixbot" changeset="10400850">
    <nd ref="201209981"/>
    <nd ref="201211814"/>
    <tag k="highway" v="residential"/>
    <tag k="name" v="Patterson Street"/>
  </way>
  <way id="19357786" version="3" timestamp="2010-02-14T17:17:11Z" uid="74617" user="JohnSmith" changeset="3875836">
    <nd ref="201209977"/>
    <nd ref="201213522"/>
    <nd ref="201213523"/>
    <tag k="highway" v="residential"/>
    <tag k="maxspeed" v="50"/>
    <tag k="name" v="Davidson Terrace"/>
  </way>
  <way id="19357786" version="4" timestamp="2012-01-15T20:04:23Z" uid="147510" user="woodpeck_fixbot" changeset="10400850">
    <nd ref="201209977"/>
    <nd ref="201213522"/>
    <nd ref="201213523"/>
    <tag k="highway" v="residential"/>
    <tag k="name" v="Davidson Terrace"/>
  </way>
  <way id="19357817" version="4" timestamp="2010-02-14T17:17:09Z" uid="74617" user="JohnSmith" changeset="3875836">
    <nd ref="200762420"/>
    <nd ref="201214373"/>
    <tag k="highway" v="residential"/>
    <tag k="maxspeed" v="50"/>
    <tag k="name" v="Ellis Street"/>
  </way>
  <way id="19357817" version="5" timestamp="2012-01-15T20:04:24Z" uid="147510" user="woodpeck_fixbot" changeset="10400850">
    <nd ref="200762420"/>
    <nd ref="201214373"/>
    <tag k="highway" v="residential"/>
    <tag k="name" v="Ellis Street"/>
  </way>
</osm>
