<?xml version='1.0' encoding='UTF-8'?>
<osm version="0.6" generator="libosmium/2.20.0">
  <way id="19390004" version="7" timestamp="2009-10-21T22:59:34Z" uid="36809" user="pfoten_weg_!_" changeset="2917503">
    <nd ref="271415315"/>
    <nd ref="201637825"/>
    <tag k="bicycle" v="yes"/>
    <tag k="highway" v="footway"/>
  </way>
  <way id="19390051" version="7" timestamp="2009-10-21T22:58:50Z" uid="36809" user="pfoten_weg_!_" changeset="2917503">
    <nd ref="177246377"/>
    <nd ref="201638969"/>
    <tag k="highway" v="residential"/>
    <tag k="maxspeed" v="30"/>
    <tag k="maxweight" v="3"/>
    <tag k="name" v="Anwanderstraße"/>
    <tag k="oneway" v="yes"/>
  </way>
  <way id="19390051" version="8" timestamp="2010-03-30T18:29:23Z" uid="8748" user="ToniE" changeset="4279327">
    <nd ref="177246377"/>
    <nd ref="201638969"/>
    <tag k="highway" v="residential"/>
    <tag k="maxspeed" v="30"/>
    <tag k="maxweight" v="3"/>
    <tag k="name" v="Anwanderstraße"/>
    <tag k="oneway" v="yes"/>
    <tag k="smoothness" v="good"/>
    <tag k="surface" v="asphalt"/>
  </way>
  <way id="19390100" version="7" timestamp="2009-10-21T22:58:28Z" uid="36809" user="pfoten_weg_!_" changeset="2917503">
    <nd ref="177246370"/>
    <nd ref="201639619"/>
    <nd ref="201639599"/>
    <nd ref="201639375"/>
    <nd ref="257596873"/>
    <tag k="highway" v="residential"/>
    <tag k="maxspeed" v="30"/>
    <tag k="name" v="Wallberstraße"/>
  </way>
  <way id="19390134" version="6" timestamp="2009-10-21T22:58:24Z" uid="36809" user="pfoten_weg_!_" changeset="2917503">
    <nd ref="201639598"/>
    <nd ref="201639599"/>
    <nd ref="201638970"/>
    <nd ref="201639601"/>
    <tag k="highway" v="residential"/>
    <tag k="maxspeed" v="30"/>
    <tag k="name" v="Mesnerstraße"/>
  </way>
  <way id="19390145" version="4" timestamp="2009-10-21T22:58:31Z" uid="36809" user="pfoten_weg_!_" changeset="2917503">
    <nd ref="201639619"/>
    <nd ref="201638969"/>
    <tag k="highway" v="residential"/>
    <tag k="maxspeed" v="30"/>
    <tag k="name" v="Kienzlstraße"/>
  </way>
  <way id="19390290" version="7" timestamp="2009-10-21T22:58:19Z" uid="36809" user="pfoten_weg_!_" changeset="2917503">
    <nd ref="88411138"/>
    <nd ref="322009970"/>
    <nd ref="201641709"/>
    <nd ref="201666311"/>
    <nd ref="88409115"/>
    <nd ref="88409116"/>
    <nd ref="88409117"/>
    <nd ref="270853172"/>
    <nd ref="201641390"/>
    <nd ref="88409120"/>
    <tag k="highway" v="residential"/>
    <tag k="name" v="Am Stiergarten"/>
  </way>
  <way id="19390290" version="8" timestamp="2010-04-18T15:25:37Z" uid="8748" user="ToniE" changeset="4459024">
    <nd ref="88411138"/>
    <nd ref="322009970"/>
    <nd ref="201641709"/>
    <nd ref="201666311"/>
    <nd ref="701083555"/>
    <nd ref="88409115"/>
    <nd ref="88409116"/>
    <nd ref="701083940"/>
    <nd ref="88409117"/>
    <nd ref="270853172"/>
    <nd ref="201641390"/>
    <nd ref="88409120"/>
    <tag k="highway" v="residential"/>
    <tag k="name" v="Am Stiergarten"/>
  </way>
  <way id="19390290" version="9" timestamp="2010-09-15T09:18:39Z" uid="85609" user="AndiFr" changeset="5785148">
    <nd ref="88411138"/>
    <nd ref="322009970"/>
    <nd ref="201641709"/>
    <nd ref="201666311"/>
    <nd ref="701083555"/>
    <nd ref="88409115"/>
    <nd ref="88409116"/>
    <nd ref="701083940"/>
    <nd ref="88409117"/>
    <nd ref="270853172"/>
    <nd ref="201641390"/>
    <nd ref="88409120"/>
    <tag k="highway" v="residential"/>
    <tag k="maxspeed" v="30"/>
    <tag k="name" v="Am Stiergarten"/>
  </way>
  <way id="19390290" version="10" timestamp="2012-03-09T16:14:01Z" uid="11374" user="q_un_go" changeset="10921787"/>
  <way id="19390302" version="4" timestamp="2009-10-21T23:00:42Z" uid="36809" user="pfoten_weg_!_" changeset="2917503">
    <nd ref="201641974"/>
    <nd ref="322009984"/>
    <nd ref="201641977"/>
    <tag k="highway" v="residential"/>
    <tag k="name" v="Lilienstraße"/>
  </way>
  <way id="19390302" version="5" timestamp="2010-09-15T09:18:45Z" uid="85609" user="AndiFr" changeset="5785148">
    <nd ref="201641974"/>
    <nd ref="322009984"/>
    <nd ref="201641977"/>
    <tag k="highway" v="living_street"/>
    <tag k="name" v="Lilienstraße"/>
  </way>
  <way id="19390302" version="6" timestamp="2010-09-17T09:12:11Z" uid="85609" user="AndiFr" changeset="5801953">
    <nd ref="201641974"/>
    <nd ref="915323291"/>
    <nd ref="322009984"/>
    <nd ref="201641977"/>
    <tag k="highway" v="living_street"/>
    <tag k="name" v="Lilienstraße"/>
  </way>
  <way id="19390302" version="7" timestamp="2012-03-09T17:07:39Z" uid="11374" user="q_un_go" changeset="10922548"/>
  <way id="19390385" version="6" timestamp="2009-10-21T23:00:42Z" uid="36809" user="pfoten_weg_!_" changeset="2917503">
    <nd ref="201642767"/>
    <nd ref="201642910"/>
    <nd ref="201642911"/>
    <nd ref="201642912"/>
    <nd ref="201642914"/>
    <nd ref="201642910"/>
    <tag k="highway" v="living_street"/>
    <tag k="name" v="Putzbrunner Straße"/>
  </way>
  <way id="19390457" version="9" timestamp="2009-10-21T23:01:25Z" uid="36809" user="pfoten_weg_!_" changeset="2917503">
    <nd ref="400701523"/>
    <nd ref="401534224"/>
    <nd ref="401534220"/>
    <nd ref="240139550"/>
    <nd ref="400701510"/>
    <nd ref="240139013"/>
    <tag k="bicycle" v="yes"/>
    <tag k="foot" v="yes"/>
    <tag k="highway" v="track"/>
    <tag k="motorcar" v="no"/>
    <tag k="motorcycle" v="no"/>
    <tag k="tracktype" v="grade3"/>
  </way>
  <way id="19390471" version="5" timestamp="2009-10-21T23:00:51Z" uid="36809" user="pfoten_weg_!_" changeset="2917503">
    <nd ref="201642448"/>
    <nd ref="88415953"/>
    <nd ref="201644013"/>
    <nd ref="201644014"/>
    <nd ref="201644015"/>
    <tag k="highway" v="residential"/>
    <tag k="name" v="Buchenstraße"/>
  </way>
  <way id="19390471" version="6" timestamp="2010-09-17T09:12:18Z" uid="85609" user="AndiFr" changeset="5801953">
    <nd ref="201642448"/>
    <nd ref="88415953"/>
    <nd ref="201644013"/>
    <nd ref="201644014"/>
    <nd ref="201644015"/>
    <tag k="highway" v="residential"/>
    <tag k="maxspeed" v="30"/>
    <tag k="name" v="Buchenstraße"/>
  </way>
  <way id="19390471" version="7" timestamp="2011-10-15T16:16:29Z" uid="538218" user="qwertzu" changeset="9564569">
    <nd ref="201642448"/>
    <nd ref="88415953"/>
    <nd ref="1468351946"/>
    <nd ref="201644013"/>
    <nd ref="201644014"/>
    <nd ref="201644015"/>
    <tag k="highway" v="residential"/>
    <tag k="maxspeed" v="30"/>
    <tag k="name" v="Buchenstraße"/>
  </way>
  <way id="19390737" version="3" timestamp="2010-06-20T08:12:28Z" uid="7617" user="Franc" changeset="5030477">
    <nd ref="201647611"/>
    <nd ref="201647612"/>
    <nd ref="201647614"/>
    <nd ref="778070457"/>
    <nd ref="201647615"/>
    <nd ref="201647611"/>
    <tag k="amenity" v="school"/>
    <tag k="name" v="Henson Street Pre-School"/>
  </way>
  <way id="19390843" version="8" timestamp="2009-10-20T19:58:21Z" uid="8748" user="ToniE" changeset="2907078">
    <nd ref="88411840"/>
    <nd ref="537060498"/>
    <nd ref="201644758"/>
    <nd ref="88411838"/>
    <nd ref="201649006"/>
    <tag k="highway" v="residential"/>
    <tag k="name" v="Zaunstraße"/>
    <tag k="source" v="survey"/>
  </way>
  <way id="19390843" version="9" timestamp="2009-10-21T23:00:51Z" uid="36809" user="pfoten_weg_!_" changeset="2917503">
    <nd ref="88411840"/>
    <nd ref="537060498"/>
    <nd ref="201644758"/>
    <nd ref="88411838"/>
    <nd ref="201649006"/>
    <tag k="highway" v="residential"/>
    <tag k="name" v="Zaunstraße"/>
  </way>
  <way id="19390843" version="10" timestamp="2010-09-17T09:12:14Z" uid="85609" user="AndiFr" changeset="5801953">
    <nd ref="88411840"/>
    <nd ref="537060498"/>
    <nd ref="201644758"/>
    <nd ref="88411838"/>
    <nd ref="201649006"/>
    <tag k="highway" v="residential"/>
    <tag k="maxspeed" v="30"/>
    <tag k="name" v="Zaunstraße"/>
  </way>
  <way id="19390856" version="9" timestamp="2009-10-21T23:00:15Z" uid="36809" user="pfoten_weg_!_" changeset="2917503">
    <nd ref="201649106"/>
    <nd ref="201649122"/>
    <nd ref="280296199"/>
    <nd ref="371736408"/>
    <nd ref="201649124"/>
    <nd ref="371736400"/>
    <nd ref="280296194"/>
    <nd ref="280296195"/>
    <nd ref="280296199"/>
    <tag k="highway" v="residential"/>
    <tag k="maxspeed" v="30"/>
    <tag k="name" v="Am Baumgarten"/>
  </way>
  <way id="19390861" version="6" timestamp="2009-10-21T22:58:11Z" uid="36809" user="pfoten_weg_!_" changeset="2917503">
    <nd ref="201641390"/>
    <nd ref="201641393"/>
    <nd ref="88405537"/>
    <nd ref="322010018"/>
    <nd ref="201649195"/>
    <nd ref="322010009"/>
    <nd ref="322010006"/>
    <nd ref="88405536"/>
    <tag k="highway" v="residential"/>
    <tag k="name" v="Flurstraße"/>
  </way>
  <way id="19390861" version="7" timestamp="2012-03-09T16:26:34Z" uid="11374" user="q_un_go" changeset="10921982">
    <nd ref="201641390"/>
    <nd ref="201641393"/>
    <nd ref="88405537"/>
    <nd ref="1667481248"/>
    <nd ref="201649195"/>
    <nd ref="1667481312"/>
    <nd ref="1667481397"/>
    <nd ref="88405536"/>
    <tag k="highway" v="residential"/>
    <tag k="name" v="Flurstraße"/>
  </way>
  <way id="19390861" version="8" timestamp="2012-03-09T17:07:39Z" uid="11374" user="q_un_go" changeset="10922548"/>
</osm>
