<?xml version='1.0' encoding='UTF-8'?>
<osm version="0.6" generator="libosmium/2.20.0">
  <way id="19391007" version="4" timestamp="2009-10-21T23:00:26Z" uid="36809" user="pfoten_weg_!_" changeset="2917503">
    <nd ref="201650821"/>
    <nd ref="201650982"/>
    <nd ref="201650823"/>
    <nd ref="11596686"/>
    <tag k="highway" v="residential"/>
    <tag k="name" v="Lilienstraße"/>
  </way>
  <way id="19391007" version="5" timestamp="2010-09-17T09:12:12Z" uid="85609" user="AndiFr" changeset="5801953">
    <nd ref="201650821"/>
    <nd ref="201650982"/>
    <nd ref="201650823"/>
    <nd ref="11596686"/>
    <tag k="highway" v="residential"/>
    <tag k="maxspeed" v="30"/>
    <tag k="name" v="Lilienstraße"/>
  </way>
  <way id="19391021" version="2" timestamp="2009-10-21T23:00:47Z" uid="36809" user="pfoten_weg_!_" changeset="2917503">
    <nd ref="201650979"/>
    <nd ref="201650981"/>
    <nd ref="201650982"/>
    <tag k="highway" v="residential"/>
  </way>
  <way id="19391021" version="3" timestamp="2010-09-17T09:12:13Z" uid="85609" user="AndiFr" changeset="5801953">
    <nd ref="201650979"/>
    <nd ref="201650981"/>
    <nd ref="201650982"/>
    <tag k="highway" v="residential"/>
    <tag k="maxspeed" v="30"/>
    <tag k="name" v="Lilienstraße"/>
  </way>
  <way id="19391035" version="2" timestamp="2009-10-21T23:00:44Z" uid="36809" user="pfoten_weg_!_" changeset="2917503">
    <nd ref="201651107"/>
    <nd ref="201651109"/>
    <nd ref="201651111"/>
    <tag k="highway" v="residential"/>
  </way>
  <way id="19391035" version="3" timestamp="2010-09-15T09:18:46Z" uid="85609" user="AndiFr" changeset="5785148">
    <nd ref="201651107"/>
    <nd ref="201651109"/>
    <nd ref="201651111"/>
    <tag k="highway" v="living_street"/>
  </way>
  <way id="19391035" version="4" timestamp="2010-09-17T09:12:14Z" uid="85609" user="AndiFr" changeset="5801953">
    <nd ref="201651107"/>
    <nd ref="201651109"/>
    <nd ref="201651111"/>
    <tag k="highway" v="living_street"/>
    <tag k="name" v="Brotmannstraße"/>
  </way>
  <way id="19391044" version="4" timestamp="2009-10-21T23:00:38Z" uid="36809" user="pfoten_weg_!_" changeset="2917503">
    <nd ref="201651295"/>
    <nd ref="371729196"/>
    <nd ref="201651296"/>
    <nd ref="201651297"/>
    <nd ref="201651298"/>
    <nd ref="201651299"/>
    <tag k="highway" v="residential"/>
    <tag k="name" v="Nelkenweg"/>
  </way>
  <way id="19391044" version="5" timestamp="2010-09-15T09:18:44Z" uid="85609" user="AndiFr" changeset="5785148">
    <nd ref="201651295"/>
    <nd ref="371729196"/>
    <nd ref="201651296"/>
    <nd ref="201651297"/>
    <nd ref="201651298"/>
    <nd ref="201651299"/>
    <tag k="highway" v="living_street"/>
    <tag k="name" v="Nelkenweg"/>
  </way>
  <way id="19391044" version="6" timestamp="2012-03-09T16:13:10Z" uid="11374" user="q_un_go" changeset="10921787">
    <nd ref="201651295"/>
    <nd ref="371729196"/>
    <nd ref="201651296"/>
    <nd ref="201651297"/>
    <nd ref="201651298"/>
    <nd ref="1667453947"/>
    <nd ref="201651299"/>
    <tag k="highway" v="living_street"/>
    <tag k="name" v="Nelkenweg"/>
  </way>
  <way id="19391066" version="2" timestamp="2009-10-21T23:00:28Z" uid="36809" user="pfoten_weg_!_" changeset="2917503">
    <nd ref="201651680"/>
    <nd ref="201651684"/>
    <nd ref="201651685"/>
    <tag k="highway" v="residential"/>
  </way>
  <way id="19391066" version="3" timestamp="2010-09-17T09:12:13Z" uid="85609" user="AndiFr" changeset="5801953">
    <nd ref="201651680"/>
    <nd ref="201651684"/>
    <nd ref="201651685"/>
    <tag k="highway" v="residential"/>
    <tag k="maxspeed" v="30"/>
    <tag k="name" v="Angerstraße"/>
  </way>
  <way id="19391072" version="2" timestamp="2009-10-21T23:00:44Z" uid="36809" user="pfoten_weg_!_" changeset="2917503">
    <nd ref="201651832"/>
    <nd ref="201651834"/>
    <nd ref="201651835"/>
    <tag k="highway" v="residential"/>
  </way>
  <way id="19391072" version="3" timestamp="2010-09-15T09:18:44Z" uid="85609" user="AndiFr" changeset="5785148">
    <nd ref="201651832"/>
    <nd ref="201651834"/>
    <nd ref="201651835"/>
    <tag k="highway" v="living_street"/>
  </way>
  <way id="19391072" version="4" timestamp="2010-09-17T09:12:12Z" uid="85609" user="AndiFr" changeset="5801953">
    <nd ref="201651832"/>
    <nd ref="201651834"/>
    <nd ref="201651835"/>
    <tag k="highway" v="living_street"/>
    <tag k="name" v="Brotmannstraße"/>
  </way>
  <way id="19391101" version="5" timestamp="2009-10-21T23:00:45Z" uid="36809" user="pfoten_weg_!_" changeset="2917503">
    <nd ref="201651969"/>
    <nd ref="201652184"/>
    <nd ref="201652186"/>
    <tag k="highway" v="living_street"/>
    <tag k="name" v="Tulpenweg"/>
  </way>
  <way id="19391231" version="4" timestamp="2009-10-21T22:59:47Z" uid="36809" user="pfoten_weg_!_" changeset="2917503">
    <nd ref="309355829"/>
    <nd ref="309355834"/>
    <nd ref="201653709"/>
    <nd ref="309355836"/>
    <nd ref="309355833"/>
    <nd ref="201633435"/>
    <tag k="highway" v="service"/>
    <tag k="service" v="parking_aisle"/>
  </way>
  <way id="19391305" version="13" timestamp="2009-10-21T22:58:33Z" uid="36809" user="pfoten_weg_!_" changeset="2917503">
    <nd ref="271407308"/>
    <nd ref="271406986"/>
    <tag k="access" v="agricultural"/>
    <tag k="agricultural" v="yes"/>
    <tag k="bicycle" v="yes"/>
    <tag k="foot" v="yes"/>
    <tag k="highway" v="track"/>
    <tag k="surface" v="paved"/>
    <tag k="tracktype" v="grade1"/>
  </way>
  <way id="19391320" version="5" timestamp="2009-10-21T22:58:41Z" uid="36809" user="pfoten_weg_!_" changeset="2917503">
    <nd ref="201654997"/>
    <nd ref="201654994"/>
    <tag k="highway" v="residential"/>
    <tag k="maxspeed" v="30"/>
    <tag k="name" v="Eichenstraße"/>
    <tag k="noexit" v="yes"/>
  </way>
  <way id="19391334" version="4" timestamp="2009-10-21T22:58:42Z" uid="36809" user="pfoten_weg_!_" changeset="2917503">
    <nd ref="201654398"/>
    <nd ref="201655259"/>
    <nd ref="201655260"/>
    <nd ref="201655261"/>
    <nd ref="201655262"/>
    <nd ref="201655263"/>
    <nd ref="201654860"/>
    <tag k="highway" v="residential"/>
    <tag k="maxspeed" v="30"/>
    <tag k="name" v="Wagerstraße"/>
  </way>
  <way id="19391334" version="5" timestamp="2012-02-16T13:11:11Z" uid="42393" user="mawi42" changeset="10701514">
    <nd ref="201654398"/>
    <nd ref="201655259"/>
    <nd ref="1635185334"/>
    <nd ref="201655260"/>
    <nd ref="201655261"/>
    <nd ref="201655262"/>
    <nd ref="201655263"/>
    <nd ref="201654860"/>
    <tag k="highway" v="residential"/>
    <tag k="maxspeed" v="30"/>
    <tag k="name" v="Wagerstraße"/>
  </way>
  <way id="19391379" version="4" timestamp="2009-10-21T22:58:02Z" uid="36809" user="pfoten_weg_!_" changeset="2917503">
    <nd ref="201654385"/>
    <nd ref="201655836"/>
    <nd ref="201655837"/>
    <nd ref="201655838"/>
    <nd ref="201655840"/>
    <nd ref="201655843"/>
    <nd ref="201655846"/>
    <nd ref="201654853"/>
    <tag k="highway" v="residential"/>
    <tag k="maxspeed" v="30"/>
    <tag k="name" v="Waldstraße"/>
  </way>
  <way id="19391421" version="16" timestamp="2009-10-20T19:09:36Z" uid="8748" user="ToniE" changeset="2906512">
    <nd ref="201656317"/>
    <nd ref="257597773"/>
    <nd ref="309352289"/>
    <nd ref="536946320"/>
    <nd ref="534259693"/>
    <nd ref="534259070"/>
    <nd ref="534259379"/>
    <nd ref="201656319"/>
    <nd ref="201656321"/>
    <tag k="highway" v="unclassified"/>
    <tag k="maxspeed" v="30"/>
    <tag k="name" v="Ottobrunner Straße"/>
    <tag k="source" v="survey"/>
  </way>
  <way id="19391421" version="17" timestamp="2009-10-21T22:59:14Z" uid="36809" user="pfoten_weg_!_" changeset="2917503">
    <nd ref="201656317"/>
    <nd ref="257597773"/>
    <nd ref="309352289"/>
    <nd ref="536946320"/>
    <nd ref="534259693"/>
    <nd ref="534259070"/>
    <nd ref="534259379"/>
    <nd ref="201656319"/>
    <nd ref="201656321"/>
    <tag k="highway" v="unclassified"/>
    <tag k="maxspeed" v="30"/>
    <tag k="name" v="Ottobrunner Straße"/>
  </way>
  <way id="19391508" version="4" timestamp="2009-10-21T22:58:23Z" uid="36809" user="pfoten_weg_!_" changeset="2917503">
    <nd ref="201657359"/>
    <nd ref="201657704"/>
    <nd ref="201657705"/>
    <nd ref="201657706"/>
    <nd ref="201657707"/>
    <nd ref="201657708"/>
    <nd ref="201657709"/>
    <tag k="highway" v="residential"/>
    <tag k="maxspeed" v="30"/>
    <tag k="name" v="Kistlerstraße"/>
  </way>
  <way id="19391581" version="4" timestamp="2009-10-20T19:10:12Z" uid="8748" user="ToniE" changeset="2906512">
    <nd ref="309352287"/>
    <nd ref="201656328"/>
    <nd ref="201656330"/>
    <nd ref="201658940"/>
    <nd ref="201656332"/>
    <nd ref="201656333"/>
    <nd ref="201656336"/>
    <nd ref="201656338"/>
    <nd ref="201656340"/>
    <nd ref="201657359"/>
    <tag k="highway" v="residential"/>
    <tag k="maxspeed" v="30"/>
    <tag k="name" v="Ringstraße"/>
    <tag k="source" v="survey"/>
  </way>
  <way id="19391581" version="5" timestamp="2009-10-21T22:59:13Z" uid="36809" user="pfoten_weg_!_" changeset="2917503">
    <nd ref="309352287"/>
    <nd ref="201656328"/>
    <nd ref="201656330"/>
    <nd ref="201658940"/>
    <nd ref="201656332"/>
    <nd ref="201656333"/>
    <nd ref="201656336"/>
    <nd ref="201656338"/>
    <nd ref="201656340"/>
    <nd ref="201657359"/>
    <tag k="highway" v="residential"/>
    <tag k="maxspeed" v="30"/>
    <tag k="name" v="Ringstraße"/>
  </way>
  <way id="19391581" version="6" timestamp="2010-10-10T08:04:47Z" uid="85609" user="AndiFr" changeset="5999418">
    <nd ref="309352287"/>
    <nd ref="201656328"/>
    <nd ref="201656330"/>
    <nd ref="201658940"/>
    <nd ref="201656332"/>
    <nd ref="201656333"/>
    <nd ref="943263601"/>
    <nd ref="943263600"/>
    <nd ref="201656336"/>
    <nd ref="201656338"/>
    <nd ref="201656340"/>
    <nd ref="201657359"/>
    <tag k="highway" v="residential"/>
    <tag k="maxspeed" v="30"/>
    <tag k="name" v="Ringstraße"/>
  </way>
  <way id="19391616" version="7" timestamp="2009-10-20T19:10:09Z" uid="8748" user="ToniE" changeset="2906512">
    <nd ref="201658940"/>
    <nd ref="201659099"/>
    <nd ref="257598291"/>
    <nd ref="201659101"/>
    <nd ref="536946312"/>
    <nd ref="201659102"/>
    <nd ref="257598280"/>
    <nd ref="201659103"/>
    <tag k="highway" v="living_street"/>
    <tag k="name" v="Am Jägereck"/>
    <tag k="source" v="survey"/>
  </way>
  <way id="19391616" version="8" timestamp="2009-10-21T22:59:12Z" uid="36809" user="pfoten_weg_!_" changeset="2917503">
    <nd ref="201658940"/>
    <nd ref="201659099"/>
    <nd ref="257598291"/>
    <nd ref="201659101"/>
    <nd ref="536946312"/>
    <nd ref="201659102"/>
    <nd ref="257598280"/>
    <nd ref="201659103"/>
    <tag k="highway" v="living_street"/>
    <tag k="name" v="Am Jägereck"/>
  </way>
  <way id="19391616" version="9" timestamp="2010-10-10T08:04:47Z" uid="85609" user="AndiFr" changeset="5999418">
    <nd ref="201658940"/>
    <nd ref="201659099"/>
    <nd ref="257598291"/>
    <nd ref="201659101"/>
    <nd ref="536946312"/>
    <nd ref="943263602"/>
    <nd ref="201659102"/>
    <nd ref="257598280"/>
    <nd ref="201659103"/>
    <tag k="highway" v="living_street"/>
    <tag k="name" v="Am Jägereck"/>
  </way>
  <way id="19391656" version="7" timestamp="2009-10-21T23:00:04Z" uid="36809" user="pfoten_weg_!_" changeset="2917503">
    <nd ref="201659745"/>
    <nd ref="11596673"/>
    <nd ref="270861629"/>
    <tag k="highway" v="residential"/>
    <tag k="name" v="Kainzweg"/>
  </way>
  <way id="19391656" version="8" timestamp="2010-08-14T16:57:45Z" uid="85609" user="AndiFr" changeset="5492508">
    <nd ref="201659745"/>
    <nd ref="11596673"/>
    <tag k="highway" v="residential"/>
    <tag k="name" v="Kainzweg"/>
  </way>
  <way id="19391656" version="9" timestamp="2012-03-21T07:09:35Z" uid="415075" user="thill" changeset="11048908">
    <nd ref="201659745"/>
    <nd ref="11596673"/>
    <tag k="highway" v="residential"/>
    <tag k="maxspeed" v="30"/>
    <tag k="name" v="Kainzweg"/>
    <tag k="source:maxspeed" v="DE:zone30"/>
  </way>
  <way id="19391831" version="5" timestamp="2009-10-21T22:59:35Z" uid="36809" user="pfoten_weg_!_" changeset="2917503">
    <nd ref="201637384"/>
    <nd ref="201662283"/>
    <nd ref="201662281"/>
    <nd ref="201662280"/>
    <nd ref="201662279"/>
    <nd ref="201662278"/>
    <nd ref="201662277"/>
    <nd ref="201660951"/>
    <tag k="highway" v="residential"/>
    <tag k="name" v="Zimmerhansenstraße"/>
    <tag k="oneway" v="yes"/>
  </way>
  <way id="19391831" version="6" timestamp="2010-09-20T17:55:17Z" uid="85609" user="AndiFr" changeset="5831080">
    <nd ref="201637384"/>
    <nd ref="201662283"/>
    <nd ref="201662281"/>
    <nd ref="201662280"/>
    <nd ref="201662279"/>
    <nd ref="201662278"/>
    <nd ref="201662277"/>
    <nd ref="201660951"/>
    <tag k="highway" v="residential"/>
    <tag k="maxspeed" v="30"/>
    <tag k="name" v="Zimmerhansenstraße"/>
    <tag k="oneway" v="yes"/>
  </way>
  <way id="19391952" version="4" timestamp="2009-10-21T23:00:36Z" uid="36809" user="pfoten_weg_!_" changeset="2917503">
    <nd ref="322010005"/>
    <nd ref="201664320"/>
    <tag k="highway" v="path"/>
    <tag k="name" v="Haringstraße"/>
  </way>
  <way id="19391952" version="5" timestamp="2012-03-09T16:34:34Z" uid="11374" user="q_un_go" changeset="10922058"/>
</osm>
