<?xml version='1.0' encoding='UTF-8'?>
<osm version="0.6" generator="libosmium/2.20.0">
  <way id="19408000" version="5" timestamp="2008-10-05T21:10:52Z" uid="30632" user="antblant" changeset="84131">
    <nd ref="31156743"/>
    <nd ref="31156741"/>
    <nd ref="27167173"/>
    <nd ref="253169053"/>
    <nd ref="252416945"/>
    <nd ref="27167122"/>
    <tag k="created_by" v="Potlatch 0.10c"/>
    <tag k="highway" v="trunk"/>
    <tag k="int_ref" v=""/>
    <tag k="name" v="Aleje Jerozolimskie"/>
    <tag k="oneway" v="yes"/>
    <tag k="ref" v="2"/>
  </way>
  <way id="19408000" version="6" timestamp="2008-10-05T21:11:04Z" uid="30632" user="antblant" changeset="84131">
    <nd ref="31156743"/>
    <nd ref="31156741"/>
    <nd ref="27167173"/>
    <nd ref="253169053"/>
    <nd ref="252416945"/>
    <nd ref="27167122"/>
    <tag k="created_by" v="Potlatch 0.10c"/>
    <tag k="highway" v="trunk"/>
    <tag k="name" v="Aleje Jerozolimskie"/>
    <tag k="oneway" v="yes"/>
    <tag k="ref" v="2"/>
  </way>
  <way id="19408000" version="7" timestamp="2008-10-08T02:50:09Z" uid="20587" user="balrog-kun" changeset="168522">
    <nd ref="31156743"/>
    <nd ref="31156741"/>
    <nd ref="27167173"/>
    <nd ref="302981005"/>
    <nd ref="253169053"/>
    <nd ref="252416945"/>
    <nd ref="27167122"/>
    <tag k="created_by" v="Potlatch 0.10c"/>
    <tag k="highway" v="trunk"/>
    <tag k="name" v="Aleje Jerozolimskie"/>
    <tag k="oneway" v="yes"/>
    <tag k="ref" v="2"/>
  </way>
  <way id="19408000" version="8" timestamp="2009-02-14T12:45:54Z" uid="9176" user="Maarten Deen" changeset="428540">
    <nd ref="31156743"/>
    <nd ref="31156741"/>
    <nd ref="27167173"/>
    <nd ref="302981005"/>
    <nd ref="253169053"/>
    <nd ref="252416945"/>
    <nd ref="27167122"/>
    <tag k="created_by" v="Potlatch 0.10c"/>
    <tag k="highway" v="trunk"/>
    <tag k="int_ref" v="E 30"/>
    <tag k="name" v="Aleje Jerozolimskie"/>
    <tag k="oneway" v="yes"/>
    <tag k="ref" v="2"/>
  </way>
  <way id="19408000" version="9" timestamp="2009-02-22T15:21:08Z" uid="91921" user="kwiecinski" changeset="621682">
    <nd ref="31156743"/>
    <nd ref="31156741"/>
    <nd ref="27167173"/>
    <nd ref="302981005"/>
    <nd ref="253169053"/>
    <nd ref="252416945"/>
    <nd ref="27167122"/>
    <tag k="created_by" v="Merkaartor 0.12"/>
    <tag k="highway" v="primary"/>
    <tag k="int_ref" v="E 30"/>
    <tag k="name" v="Aleje Jerozolimskie"/>
    <tag k="oneway" v="yes"/>
    <tag k="ref" v="2"/>
  </way>
  <way id="19408000" version="10" timestamp="2009-03-07T06:26:22Z" uid="59223" user="Briquollo" changeset="748268">
    <nd ref="31156743"/>
    <nd ref="302981005"/>
    <nd ref="252416945"/>
    <nd ref="27167122"/>
    <tag k="created_by" v="Merkaartor 0.12"/>
    <tag k="highway" v="primary"/>
    <tag k="int_ref" v="E 30"/>
    <tag k="name" v="Aleje Jerozolimskie"/>
    <tag k="oneway" v="yes"/>
    <tag k="ref" v="2"/>
  </way>
  <way id="19408000" version="11" timestamp="2010-02-22T17:31:55Z" uid="20587" user="balrog-kun" changeset="3945448">
    <nd ref="31156743"/>
    <nd ref="302981005"/>
    <nd ref="252416945"/>
    <nd ref="27167122"/>
    <tag k="highway" v="primary"/>
    <tag k="int_ref" v="E 30"/>
    <tag k="maxweight" v="10"/>
    <tag k="name" v="Aleje Jerozolimskie"/>
    <tag k="oneway" v="yes"/>
    <tag k="ref" v="2"/>
  </way>
  <way id="19408000" version="12" timestamp="2010-05-20T09:29:59Z" uid="277387" user="rogal" changeset="4755379">
    <nd ref="31156743"/>
    <nd ref="450854601"/>
    <nd ref="302981005"/>
    <nd ref="252416945"/>
    <nd ref="27167122"/>
    <tag k="highway" v="primary"/>
    <tag k="int_ref" v="E 30"/>
    <tag k="maxweight" v="10"/>
    <tag k="name" v="Aleje Jerozolimskie"/>
    <tag k="oneway" v="yes"/>
    <tag k="ref" v="2"/>
  </way>
  <way id="19408000" version="13" timestamp="2012-03-11T12:34:17Z" uid="98542" user="wajak" changeset="10942248">
    <nd ref="31156743"/>
    <nd ref="450854601"/>
    <nd ref="302981005"/>
    <tag k="highway" v="primary"/>
    <tag k="int_ref" v="E 30"/>
    <tag k="maxweight" v="10"/>
    <tag k="name" v="Aleje Jerozolimskie"/>
    <tag k="oneway" v="yes"/>
    <tag k="ref" v="2"/>
  </way>
  <way id="19408003" version="2" timestamp="2008-10-05T21:14:25Z" uid="30632" user="antblant" changeset="84131">
    <nd ref="31156748"/>
    <nd ref="31156746"/>
    <nd ref="32600369"/>
    <tag k="created_by" v="Potlatch 0.10c"/>
    <tag k="highway" v="trunk"/>
    <tag k="name" v="Sokołowskiego &quot;Grzymały&quot;"/>
    <tag k="ref" v="2"/>
  </way>
  <way id="19408003" version="3" timestamp="2008-10-10T18:49:34Z" uid="53100" user="Jakub Klawiter" changeset="220933">
    <nd ref="31156748"/>
    <nd ref="31156746"/>
    <nd ref="32600369"/>
    <tag k="created_by" v="Potlatch 0.10d"/>
    <tag k="highway" v="trunk"/>
    <tag k="name" v="Mieczysława &amp;quot;Grzymały&amp;quot; Sokołowskiego"/>
    <tag k="ref" v="2"/>
  </way>
  <way id="19408003" version="4" timestamp="2008-10-19T08:40:06Z" uid="53100" user="Jakub Klawiter" changeset="439712">
    <nd ref="31156748"/>
    <nd ref="31156746"/>
    <nd ref="32600369"/>
    <tag k="created_by" v="Potlatch 0.10e"/>
    <tag k="highway" v="trunk"/>
    <tag k="name" v="Mieczysława &quot;Grzymały&quot; Sokołowskiego"/>
    <tag k="ref" v="2"/>
  </way>
  <way id="19408003" version="5" timestamp="2009-02-02T10:08:58Z" uid="20587" user="balrog-kun" changeset="65616">
    <nd ref="31156748"/>
    <nd ref="339975572"/>
    <nd ref="31156746"/>
    <nd ref="32600369"/>
    <tag k="created_by" v="Potlatch 0.10e"/>
    <tag k="highway" v="trunk"/>
    <tag k="name" v="Mieczysława &quot;Grzymały&quot; Sokołowskiego"/>
    <tag k="ref" v="2"/>
  </way>
  <way id="19408003" version="6" timestamp="2009-02-14T12:45:55Z" uid="9176" user="Maarten Deen" changeset="428540">
    <nd ref="31156748"/>
    <nd ref="339975572"/>
    <nd ref="31156746"/>
    <nd ref="32600369"/>
    <tag k="created_by" v="Potlatch 0.10e"/>
    <tag k="highway" v="trunk"/>
    <tag k="int_ref" v="E 30"/>
    <tag k="name" v="Mieczysława &quot;Grzymały&quot; Sokołowskiego"/>
    <tag k="ref" v="2"/>
  </way>
  <way id="19408003" version="7" timestamp="2009-02-22T15:21:42Z" uid="91921" user="kwiecinski" changeset="621682">
    <nd ref="31156748"/>
    <nd ref="339975572"/>
    <nd ref="31156746"/>
    <nd ref="32600369"/>
    <tag k="created_by" v="Merkaartor 0.12"/>
    <tag k="highway" v="primary"/>
    <tag k="int_ref" v="E 30"/>
    <tag k="name" v="Mieczysława &quot;Grzymały&quot; Sokołowskiego"/>
    <tag k="ref" v="2"/>
  </way>
  <way id="19408003" version="8" timestamp="2009-03-07T06:25:49Z" uid="59223" user="Briquollo" changeset="748268">
    <nd ref="31156748"/>
    <nd ref="339975572"/>
    <nd ref="32600369"/>
    <tag k="created_by" v="Merkaartor 0.12"/>
    <tag k="highway" v="primary"/>
    <tag k="int_ref" v="E 30"/>
    <tag k="name" v="Mieczysława &quot;Grzymały&quot; Sokołowskiego"/>
    <tag k="ref" v="2"/>
  </way>
  <way id="19408003" version="9" timestamp="2009-12-06T23:55:57Z" uid="20587" user="balrog-kun" changeset="3311730">
    <nd ref="31156748"/>
    <nd ref="339975572"/>
    <nd ref="582762478"/>
    <nd ref="32600369"/>
    <tag k="highway" v="primary"/>
    <tag k="int_ref" v="E 30"/>
    <tag k="name" v="Mieczysława &quot;Grzymały&quot; Sokołowskiego"/>
    <tag k="ref" v="2"/>
  </way>
  <way id="19408003" version="10" timestamp="2011-07-04T13:01:01Z" uid="471796" user="Alberto Rubio Muñoz" changeset="8628994">
    <nd ref="31156748"/>
    <nd ref="339975572"/>
    <nd ref="582762478"/>
    <nd ref="32600369"/>
    <tag k="highway" v="primary"/>
    <tag k="int_ref" v="E 30"/>
    <tag k="name" v="Mieczysława &quot;Grzymały&quot; Sokołowskiego"/>
    <tag k="oneway" v="yes"/>
    <tag k="ref" v="2"/>
  </way>
  <way id="19408003" version="11" timestamp="2011-11-23T18:41:20Z" uid="477744" user="hormel" changeset="9924583">
    <nd ref="31156748"/>
    <nd ref="339975572"/>
    <nd ref="1514443751"/>
    <nd ref="32600369"/>
    <tag k="highway" v="primary"/>
    <tag k="int_ref" v="E 30"/>
    <tag k="name" v="Mieczysława &quot;Grzymały&quot; Sokołowskiego"/>
    <tag k="oneway" v="yes"/>
    <tag k="ref" v="2"/>
  </way>
  <way id="19408006" version="2" timestamp="2008-02-21T15:53:23Z" uid="20587" user="balrog-kun" changeset="174814"/>
  <way id="19408007" version="2" timestamp="2009-09-09T16:19:32Z" uid="103576" user="DiverCTH" changeset="2427081">
    <nd ref="201797777"/>
    <nd ref="201830909"/>
    <nd ref="491359959"/>
    <nd ref="491267571"/>
    <tag k="highway" v="motorway_link"/>
    <tag k="oneway" v="yes"/>
    <tag k="tiger:cfcc" v="A63"/>
    <tag k="tiger:county" v="Campbell, TN"/>
    <tag k="tiger:reviewed" v="aerial"/>
    <tag k="tiger:source" v="tiger_import_dch_v0.6_20070829"/>
    <tag k="tiger:tlid" v="125743247"/>
    <tag k="tiger:upload_uuid" v="bulk_upload.pl-6be59a7d-6390-4ec3-8002-fce7ae6c05e1"/>
  </way>
  <way id="19408008" version="3" timestamp="2009-04-15T11:06:26Z" uid="20587" user="balrog-kun" changeset="551593">
    <nd ref="27167053"/>
    <nd ref="31156751"/>
    <tag k="created_by" v="Merkaartor 0.12"/>
    <tag k="highway" v="primary_link"/>
    <tag k="name" v="Białobrzeska"/>
    <tag k="wikipedia" v="pl:Ulica Białobrzeska w Warszawie"/>
  </way>
  <way id="19408009" version="6" timestamp="2008-03-29T00:07:52Z" uid="20587" user="balrog-kun" changeset="415330">
    <nd ref="31156751"/>
    <nd ref="54094147"/>
    <nd ref="54094142"/>
    <nd ref="201830822"/>
    <nd ref="201830826"/>
    <nd ref="201830830"/>
    <nd ref="251281889"/>
    <nd ref="251281873"/>
    <nd ref="251281859"/>
    <tag k="highway" v="tertiary"/>
    <tag k="name" v="Białobrzeska"/>
    <tag k="source" v="survey"/>
  </way>
  <way id="19408009" version="7" timestamp="2008-12-09T19:22:43Z" uid="20587" user="balrog-kun" changeset="277723">
    <nd ref="31156751"/>
    <nd ref="54094147"/>
    <nd ref="54094142"/>
    <nd ref="201830822"/>
    <nd ref="201830826"/>
    <nd ref="201830830"/>
    <nd ref="251281889"/>
    <nd ref="251281873"/>
    <nd ref="317629550"/>
    <nd ref="251281859"/>
    <tag k="highway" v="tertiary"/>
    <tag k="name" v="Białobrzeska"/>
    <tag k="source" v="survey"/>
  </way>
  <way id="19408009" version="8" timestamp="2008-12-09T20:24:30Z" uid="20587" user="balrog-kun" changeset="281476">
    <nd ref="31156751"/>
    <nd ref="54094147"/>
    <nd ref="54094142"/>
    <nd ref="201830822"/>
    <nd ref="201830826"/>
    <nd ref="317641465"/>
    <nd ref="201830830"/>
    <nd ref="251281889"/>
    <nd ref="251281873"/>
    <nd ref="317629550"/>
    <nd ref="251281859"/>
    <tag k="highway" v="tertiary"/>
    <tag k="name" v="Białobrzeska"/>
    <tag k="source" v="survey"/>
  </way>
  <way id="19408009" version="9" timestamp="2009-01-20T10:06:40Z" uid="20587" user="balrog-kun" changeset="815696">
    <nd ref="31156751"/>
    <nd ref="334007826"/>
    <nd ref="54094147"/>
    <nd ref="54094142"/>
    <nd ref="201830822"/>
    <nd ref="201830826"/>
    <nd ref="317641465"/>
    <nd ref="201830830"/>
    <nd ref="251281889"/>
    <nd ref="251281873"/>
    <nd ref="317629550"/>
    <nd ref="251281859"/>
    <tag k="highway" v="tertiary"/>
    <tag k="name" v="Białobrzeska"/>
    <tag k="source" v="survey"/>
  </way>
  <way id="19408009" version="10" timestamp="2009-01-20T11:55:17Z" uid="20587" user="balrog-kun" changeset="815696">
    <nd ref="31156751"/>
    <nd ref="334007826"/>
    <nd ref="54094147"/>
    <nd ref="334077651"/>
    <nd ref="54094142"/>
    <nd ref="334077627"/>
    <nd ref="201830822"/>
    <nd ref="201830826"/>
    <nd ref="317641465"/>
    <nd ref="201830830"/>
    <nd ref="251281889"/>
    <nd ref="251281873"/>
    <nd ref="317629550"/>
    <nd ref="251281859"/>
    <tag k="highway" v="tertiary"/>
    <tag k="name" v="Białobrzeska"/>
    <tag k="source" v="survey"/>
  </way>
  <way id="19408009" version="11" timestamp="2009-04-15T11:05:26Z" uid="20587" user="balrog-kun" changeset="551593">
    <nd ref="31156751"/>
    <nd ref="334007826"/>
    <nd ref="54094147"/>
    <nd ref="334077651"/>
    <nd ref="54094142"/>
    <nd ref="334077627"/>
    <nd ref="201830822"/>
    <nd ref="201830826"/>
    <nd ref="317641465"/>
    <nd ref="201830830"/>
    <nd ref="251281889"/>
    <nd ref="251281873"/>
    <nd ref="317629550"/>
    <nd ref="251281859"/>
    <tag k="highway" v="tertiary"/>
    <tag k="name" v="Białobrzeska"/>
    <tag k="source" v="survey"/>
    <tag k="wikipedia" v="pl:Ulica Białobrzeska w Warszawie"/>
  </way>
  <way id="19408009" version="12" timestamp="2010-02-22T17:31:56Z" uid="20587" user="balrog-kun" changeset="3945448">
    <nd ref="31156751"/>
    <nd ref="334007826"/>
    <nd ref="54094147"/>
    <nd ref="334077651"/>
    <nd ref="54094142"/>
    <nd ref="334077627"/>
    <nd ref="201830822"/>
    <nd ref="201830826"/>
    <nd ref="317641465"/>
    <nd ref="201830830"/>
    <nd ref="251281889"/>
    <nd ref="251281873"/>
    <nd ref="317629550"/>
    <nd ref="251281859"/>
    <tag k="highway" v="tertiary"/>
    <tag k="maxweight" v="5"/>
    <tag k="name" v="Białobrzeska"/>
    <tag k="source" v="survey"/>
    <tag k="wikipedia" v="pl:Ulica Białobrzeska w Warszawie"/>
  </way>
  <way id="19408874" version="2" timestamp="2009-09-09T17:29:51Z" uid="103576" user="DiverCTH" changeset="2427695">
    <nd ref="201838251"/>
    <nd ref="491452302"/>
    <tag k="highway" v="motorway_link"/>
    <tag k="oneway" v="yes"/>
    <tag k="tiger:cfcc" v="A63"/>
    <tag k="tiger:county" v="Campbell, TN"/>
    <tag k="tiger:reviewed" v="aerial"/>
    <tag k="tiger:source" v="tiger_import_dch_v0.6_20070829"/>
    <tag k="tiger:tlid" v="125744012:125744026:125744182"/>
    <tag k="tiger:upload_uuid" v="bulk_upload.pl-6be59a7d-6390-4ec3-8002-fce7ae6c05e1"/>
  </way>
  <way id="19408874" version="3" timestamp="2011-04-30T22:54:56Z" uid="207745" user="NE2" changeset="8016671">
    <nd ref="201838251"/>
    <nd ref="491452302"/>
    <tag k="highway" v="motorway_link"/>
    <tag k="oneway" v="yes"/>
    <tag k="ref" v="SR 63"/>
    <tag k="tiger:cfcc" v="A63"/>
    <tag k="tiger:county" v="Campbell, TN"/>
    <tag k="tiger:reviewed" v="aerial"/>
    <tag k="tiger:source" v="tiger_import_dch_v0.6_20070829"/>
    <tag k="tiger:tlid" v="125744012:125744026:125744182"/>
    <tag k="tiger:upload_uuid" v="bulk_upload.pl-6be59a7d-6390-4ec3-8002-fce7ae6c05e1"/>
  </way>
  <way id="19408891" version="2" timestamp="2009-10-03T03:14:12Z" uid="103576" user="DiverCTH" changeset="2719081">
    <nd ref="201838310"/>
    <nd ref="518278224"/>
    <nd ref="518278225"/>
    <nd ref="201838314"/>
    <nd ref="518278227"/>
    <nd ref="201838318"/>
    <nd ref="201838324"/>
    <nd ref="201838326"/>
    <nd ref="201838329"/>
    <nd ref="201838334"/>
    <nd ref="201838337"/>
    <nd ref="201838339"/>
    <nd ref="201838340"/>
    <nd ref="201838341"/>
    <nd ref="201838345"/>
    <nd ref="201838349"/>
    <nd ref="201838352"/>
    <nd ref="201838355"/>
    <nd ref="201838359"/>
    <nd ref="201838364"/>
    <nd ref="201838368"/>
    <nd ref="201838372"/>
    <nd ref="201781815"/>
    <nd ref="201838377"/>
    <nd ref="201838380"/>
    <nd ref="201838385"/>
    <nd ref="201810935"/>
    <tag k="highway" v="residential"/>
    <tag k="name" v="Red Clay Park Rd SW"/>
    <tag k="tiger:cfcc" v="A41"/>
    <tag k="tiger:county" v="Bradley, TN"/>
    <tag k="tiger:name_base" v="Red Clay Park"/>
    <tag k="tiger:name_direction_suffix" v="SW"/>
    <tag k="tiger:name_type" v="Rd"/>
    <tag k="tiger:reviewed" v="no"/>
    <tag k="tiger:separated" v="no"/>
    <tag k="tiger:source" v="tiger_import_dch_v0.6_20070829"/>
    <tag k="tiger:tlid" v="57585665:57585666:57577877:57578167"/>
    <tag k="tiger:upload_uuid" v="bulk_upload.pl-dc225cf9-af66-4da0-983a-e1c545b1b8bb"/>
    <tag k="tiger:zip_left" v="37311"/>
    <tag k="tiger:zip_right" v="37311"/>
  </way>
  <way id="19408891" version="3" timestamp="2009-10-03T04:39:53Z" uid="103576" user="DiverCTH" changeset="2719292">
    <nd ref="201838310"/>
    <nd ref="518278224"/>
    <nd ref="518278225"/>
    <nd ref="201838314"/>
    <nd ref="518278227"/>
    <nd ref="201838318"/>
    <nd ref="201838324"/>
    <nd ref="201838326"/>
    <nd ref="201838329"/>
    <nd ref="201838334"/>
    <nd ref="518295143"/>
    <nd ref="518295142"/>
    <nd ref="201838337"/>
    <nd ref="201838339"/>
    <nd ref="201838340"/>
    <nd ref="201838341"/>
    <nd ref="201838345"/>
    <nd ref="201838349"/>
    <nd ref="201838352"/>
    <nd ref="518295141"/>
    <nd ref="518295140"/>
    <nd ref="201838355"/>
    <nd ref="201838359"/>
    <nd ref="201838364"/>
    <nd ref="201838368"/>
    <nd ref="201838372"/>
    <nd ref="201781815"/>
    <nd ref="201838377"/>
    <nd ref="201838380"/>
    <nd ref="201838385"/>
    <nd ref="201810935"/>
    <tag k="highway" v="residential"/>
    <tag k="name" v="Red Clay Park Rd SW"/>
    <tag k="tiger:cfcc" v="A41"/>
    <tag k="tiger:county" v="Bradley, TN"/>
    <tag k="tiger:name_base" v="Red Clay Park"/>
    <tag k="tiger:name_direction_suffix" v="SW"/>
    <tag k="tiger:name_type" v="Rd"/>
    <tag k="tiger:reviewed" v="no"/>
    <tag k="tiger:separated" v="no"/>
    <tag k="tiger:source" v="tiger_import_dch_v0.6_20070829"/>
    <tag k="tiger:tlid" v="57585665:57585666:57577877:57578167"/>
    <tag k="tiger:upload_uuid" v="bulk_upload.pl-dc225cf9-af66-4da0-983a-e1c545b1b8bb"/>
    <tag k="tiger:zip_left" v="37311"/>
    <tag k="tiger:zip_right" v="37311"/>
  </way>
  <way id="19408891" version="4" timestamp="2009-10-05T01:11:12Z" uid="103576" user="DiverCTH" changeset="2744770">
    <nd ref="201838310"/>
    <nd ref="518278224"/>
    <nd ref="518278225"/>
    <nd ref="201838314"/>
    <nd ref="518278227"/>
    <nd ref="201838318"/>
    <nd ref="201838324"/>
    <nd ref="201838326"/>
    <nd ref="201838329"/>
    <nd ref="201838334"/>
    <nd ref="518295143"/>
    <nd ref="518295142"/>
    <nd ref="201838337"/>
    <nd ref="201838339"/>
    <nd ref="201838340"/>
    <nd ref="201838341"/>
    <nd ref="201838345"/>
    <nd ref="201838349"/>
    <nd ref="201838352"/>
    <nd ref="518295141"/>
    <nd ref="518295140"/>
    <nd ref="201838355"/>
    <nd ref="201838359"/>
    <nd ref="201838364"/>
    <nd ref="201838368"/>
    <nd ref="201838372"/>
    <nd ref="201781815"/>
    <nd ref="201838377"/>
    <nd ref="201838380"/>
    <nd ref="201838385"/>
    <nd ref="201810935"/>
    <tag k="highway" v="residential"/>
    <tag k="name" v="Red Clay Park Rd SW"/>
    <tag k="tiger:cfcc" v="A41"/>
    <tag k="tiger:county" v="Bradley, TN"/>
    <tag k="tiger:name_base" v="Red Clay Park"/>
    <tag k="tiger:name_direction_suffix" v="SW"/>
    <tag k="tiger:name_type" v="Rd"/>
    <tag k="tiger:separated" v="no"/>
    <tag k="tiger:source" v="tiger_import_dch_v0.6_20070829"/>
    <tag k="tiger:tlid" v="57585665:57585666:57577877:57578167"/>
    <tag k="tiger:upload_uuid" v="bulk_upload.pl-dc225cf9-af66-4da0-983a-e1c545b1b8bb"/>
    <tag k="tiger:zip_left" v="37311"/>
    <tag k="tiger:zip_right" v="37311"/>
  </way>
  <way id="19408898" version="2" timestamp="2009-10-03T04:39:53Z" uid="103576" user="DiverCTH" changeset="2719292">
    <nd ref="73739062"/>
    <nd ref="201838400"/>
    <nd ref="201838405"/>
    <nd ref="201838407"/>
    <nd ref="201838410"/>
    <nd ref="201838415"/>
    <nd ref="201838310"/>
    <tag k="highway" v="residential"/>
    <tag k="name" v="Red Clay Park Rd SW"/>
    <tag k="tiger:cfcc" v="A41"/>
    <tag k="tiger:county" v="Bradley, TN"/>
    <tag k="tiger:name_base" v="Red Clay Park"/>
    <tag k="tiger:name_direction_suffix" v="SW"/>
    <tag k="tiger:name_type" v="Rd"/>
    <tag k="tiger:reviewed" v="no"/>
    <tag k="tiger:separated" v="no"/>
    <tag k="tiger:source" v="tiger_import_dch_v0.6_20070829"/>
    <tag k="tiger:tlid" v="57585118"/>
    <tag k="tiger:upload_uuid" v="bulk_upload.pl-dc225cf9-af66-4da0-983a-e1c545b1b8bb"/>
  </way>
  <way id="19408898" version="3" timestamp="2009-10-05T01:11:09Z" uid="103576" user="DiverCTH" changeset="2744770">
    <nd ref="73739062"/>
    <nd ref="201838400"/>
    <nd ref="201838405"/>
    <nd ref="201838407"/>
    <nd ref="201838410"/>
    <nd ref="201838415"/>
    <nd ref="201838310"/>
    <tag k="highway" v="residential"/>
    <tag k="name" v="Red Clay Park Rd SW"/>
    <tag k="tiger:cfcc" v="A41"/>
    <tag k="tiger:county" v="Bradley, TN"/>
    <tag k="tiger:name_base" v="Red Clay Park"/>
    <tag k="tiger:name_direction_suffix" v="SW"/>
    <tag k="tiger:name_type" v="Rd"/>
    <tag k="tiger:separated" v="no"/>
    <tag k="tiger:source" v="tiger_import_dch_v0.6_20070829"/>
    <tag k="tiger:tlid" v="57585118"/>
    <tag k="tiger:upload_uuid" v="bulk_upload.pl-dc225cf9-af66-4da0-983a-e1c545b1b8bb"/>
  </way>
</osm>
