<?xml version='1.0' encoding='UTF-8'?>
<osm version="0.6" generator="libosmium/2.20.0">
  <way id="19540289" version="5" timestamp="2008-11-16T04:35:27Z" uid="8807" user="brendanpuck" changeset="756646">
    <nd ref="36711413"/>
    <nd ref="243950519"/>
    <nd ref="202986939"/>
    <nd ref="202986942"/>
    <nd ref="202986943"/>
    <nd ref="243950516"/>
    <nd ref="202986945"/>
    <nd ref="202986948"/>
    <nd ref="202986950"/>
    <nd ref="243950536"/>
    <nd ref="202986951"/>
    <nd ref="202986952"/>
    <nd ref="202986956"/>
    <nd ref="202986957"/>
    <tag k="abutters" v="residential"/>
    <tag k="highway" v="residential"/>
    <tag k="name" v="Clissold Road"/>
    <tag k="source" v="survey"/>
  </way>
  <way id="19540289" version="6" timestamp="2009-09-01T06:12:17Z" uid="61114" user="Trav" changeset="2333653">
    <nd ref="36711413"/>
    <nd ref="243950519"/>
    <nd ref="202986939"/>
    <nd ref="202986942"/>
    <nd ref="202986943"/>
    <nd ref="243950516"/>
    <nd ref="202986945"/>
    <nd ref="202986948"/>
    <nd ref="202986950"/>
    <nd ref="243950536"/>
    <nd ref="202986951"/>
    <nd ref="202986952"/>
    <nd ref="202986956"/>
    <nd ref="410395122"/>
    <nd ref="392512488"/>
    <tag k="abutters" v="residential"/>
    <tag k="highway" v="residential"/>
    <tag k="name" v="Clissold Road"/>
    <tag k="source" v="survey"/>
  </way>
  <way id="19540289" version="7" timestamp="2010-01-19T04:43:36Z" uid="30201" user="rrankin" changeset="3656070">
    <nd ref="36711413"/>
    <nd ref="243950519"/>
    <nd ref="202986939"/>
    <nd ref="202986942"/>
    <nd ref="202986943"/>
    <nd ref="243950516"/>
    <nd ref="202986945"/>
    <nd ref="202986948"/>
    <nd ref="202986950"/>
    <nd ref="243950536"/>
    <nd ref="202986951"/>
    <nd ref="202986952"/>
    <nd ref="202986956"/>
    <nd ref="410395122"/>
    <nd ref="392512488"/>
    <tag k="highway" v="residential"/>
    <tag k="name" v="Clissold Road"/>
    <tag k="source" v="survey"/>
  </way>
  <way id="19540289" version="8" timestamp="2010-02-18T10:58:24Z" uid="7617" user="Franc" changeset="3907973">
    <nd ref="36711413"/>
    <nd ref="243950519"/>
    <nd ref="202986939"/>
    <nd ref="202986942"/>
    <nd ref="202986943"/>
    <nd ref="243950516"/>
    <nd ref="202986945"/>
    <nd ref="202986948"/>
    <nd ref="243950536"/>
    <nd ref="202986951"/>
    <nd ref="202986952"/>
    <nd ref="644629366"/>
    <nd ref="202986956"/>
    <nd ref="644629367"/>
    <nd ref="410395122"/>
    <nd ref="392512488"/>
    <tag k="highway" v="residential"/>
    <tag k="name" v="Clissold Road"/>
    <tag k="source" v="survey"/>
  </way>
  <way id="19540289" version="9" timestamp="2010-07-08T00:01:06Z" uid="74617" user="JohnSmith" changeset="5162525">
    <nd ref="36711413"/>
    <nd ref="243950519"/>
    <nd ref="202986939"/>
    <nd ref="202986942"/>
    <nd ref="202986943"/>
    <nd ref="243950516"/>
    <nd ref="202986945"/>
    <nd ref="202986948"/>
    <nd ref="243950536"/>
    <nd ref="202986951"/>
    <nd ref="202986952"/>
    <nd ref="644629366"/>
    <nd ref="202986956"/>
    <nd ref="644629367"/>
    <nd ref="410395122"/>
    <nd ref="392512488"/>
    <tag k="highway" v="residential"/>
    <tag k="maxspeed" v="50"/>
    <tag k="maxspeed:source" v="default residential speed limit in Australia"/>
    <tag k="name" v="Clissold Road"/>
    <tag k="source" v="survey"/>
  </way>
  <way id="19540289" version="10" timestamp="2010-07-08T00:11:10Z" uid="74617" user="JohnSmith" changeset="5162525">
    <nd ref="36711413"/>
    <nd ref="243950519"/>
    <nd ref="202986939"/>
    <nd ref="202986942"/>
    <nd ref="202986943"/>
    <nd ref="243950516"/>
    <nd ref="202986945"/>
    <nd ref="202986948"/>
    <nd ref="243950536"/>
    <nd ref="202986951"/>
    <nd ref="202986952"/>
    <nd ref="644629366"/>
    <nd ref="202986956"/>
    <nd ref="644629367"/>
    <nd ref="410395122"/>
    <nd ref="392512488"/>
    <tag k="highway" v="residential"/>
    <tag k="maxspeed" v="50"/>
    <tag k="maxspeed:source" v="default residential speed limit in Australia"/>
    <tag k="name" v="Clissold Road"/>
    <tag k="source" v="survey"/>
  </way>
  <way id="19540289" version="11" timestamp="2011-09-24T22:16:14Z" uid="20949" user="Ebenezer" changeset="9388535">
    <nd ref="36711413"/>
    <nd ref="1445044397"/>
    <nd ref="243950519"/>
    <nd ref="202986939"/>
    <nd ref="202986942"/>
    <nd ref="202986943"/>
    <nd ref="243950516"/>
    <nd ref="202986945"/>
    <nd ref="202986948"/>
    <nd ref="243950536"/>
    <nd ref="202986951"/>
    <nd ref="202986952"/>
    <nd ref="644629366"/>
    <nd ref="202986956"/>
    <nd ref="644629367"/>
    <nd ref="410395122"/>
    <nd ref="392512488"/>
    <tag k="highway" v="residential"/>
    <tag k="maxspeed" v="50"/>
    <tag k="maxspeed:source" v="default residential speed limit in Australia"/>
    <tag k="name" v="Clissold Road"/>
    <tag k="source" v="survey"/>
  </way>
  <way id="19540289" version="12" timestamp="2012-01-15T20:09:16Z" uid="147510" user="woodpeck_fixbot" changeset="10400850">
    <nd ref="36711413"/>
    <nd ref="1445044397"/>
    <nd ref="243950519"/>
    <nd ref="202986939"/>
    <nd ref="202986942"/>
    <nd ref="202986943"/>
    <nd ref="243950516"/>
    <nd ref="202986945"/>
    <nd ref="202986948"/>
    <nd ref="243950536"/>
    <nd ref="202986951"/>
    <nd ref="202986952"/>
    <nd ref="644629366"/>
    <nd ref="202986956"/>
    <nd ref="644629367"/>
    <nd ref="410395122"/>
    <nd ref="392512488"/>
    <tag k="highway" v="residential"/>
    <tag k="name" v="Clissold Road"/>
    <tag k="source" v="survey"/>
  </way>
  <way id="19540359" version="7" timestamp="2008-11-16T04:56:07Z" uid="8807" user="brendanpuck" changeset="756646">
    <nd ref="202987858"/>
    <nd ref="312424783"/>
    <nd ref="202989254"/>
    <nd ref="312424779"/>
    <nd ref="243950543"/>
    <nd ref="243950503"/>
    <nd ref="202992791"/>
    <nd ref="243950507"/>
    <nd ref="202987860"/>
    <tag k="created_by" v="Potlatch 0.6c"/>
    <tag k="highway" v="residential"/>
    <tag k="name" v="Hampton Avenue"/>
    <tag k="source" v="survey"/>
  </way>
  <way id="19540359" version="8" timestamp="2010-07-08T00:00:19Z" uid="74617" user="JohnSmith" changeset="5162525">
    <nd ref="202987858"/>
    <nd ref="312424783"/>
    <nd ref="202989254"/>
    <nd ref="312424779"/>
    <nd ref="243950543"/>
    <nd ref="243950503"/>
    <nd ref="202992791"/>
    <nd ref="243950507"/>
    <nd ref="202987860"/>
    <tag k="highway" v="residential"/>
    <tag k="maxspeed" v="50"/>
    <tag k="maxspeed:source" v="default residential speed limit in Australia"/>
    <tag k="name" v="Hampton Avenue"/>
    <tag k="source" v="survey"/>
  </way>
  <way id="19540359" version="9" timestamp="2010-07-08T00:10:17Z" uid="74617" user="JohnSmith" changeset="5162525">
    <nd ref="202987858"/>
    <nd ref="312424783"/>
    <nd ref="202989254"/>
    <nd ref="312424779"/>
    <nd ref="243950543"/>
    <nd ref="243950503"/>
    <nd ref="202992791"/>
    <nd ref="243950507"/>
    <nd ref="202987860"/>
    <tag k="highway" v="residential"/>
    <tag k="maxspeed" v="50"/>
    <tag k="maxspeed:source" v="default residential speed limit in Australia"/>
    <tag k="name" v="Hampton Avenue"/>
    <tag k="source" v="survey"/>
  </way>
  <way id="19540359" version="10" timestamp="2012-01-15T20:09:17Z" uid="147510" user="woodpeck_fixbot" changeset="10400850">
    <nd ref="202987858"/>
    <nd ref="312424783"/>
    <nd ref="202989254"/>
    <nd ref="312424779"/>
    <nd ref="243950543"/>
    <nd ref="243950503"/>
    <nd ref="202992791"/>
    <nd ref="243950507"/>
    <nd ref="202987860"/>
    <tag k="highway" v="residential"/>
    <tag k="name" v="Hampton Avenue"/>
    <tag k="source" v="survey"/>
  </way>
  <way id="19540499" version="4" timestamp="2008-11-16T04:56:02Z" uid="8807" user="brendanpuck" changeset="756646">
    <nd ref="202989254"/>
    <nd ref="202993709"/>
    <nd ref="202993958"/>
    <nd ref="202986951"/>
    <tag k="abutters" v="residential"/>
    <tag k="highway" v="residential"/>
    <tag k="name" v="Cherrywood Avenue"/>
    <tag k="source" v="survey"/>
  </way>
  <way id="19540499" version="5" timestamp="2010-01-19T04:43:37Z" uid="30201" user="rrankin" changeset="3656070">
    <nd ref="202989254"/>
    <nd ref="202993709"/>
    <nd ref="202993958"/>
    <nd ref="202986951"/>
    <tag k="highway" v="residential"/>
    <tag k="name" v="Cherrywood Avenue"/>
    <tag k="source" v="survey"/>
  </way>
  <way id="19540499" version="6" timestamp="2010-07-08T00:00:42Z" uid="74617" user="JohnSmith" changeset="5162525">
    <nd ref="202989254"/>
    <nd ref="202993709"/>
    <nd ref="202993958"/>
    <nd ref="202986951"/>
    <tag k="highway" v="residential"/>
    <tag k="maxspeed" v="50"/>
    <tag k="maxspeed:source" v="default residential speed limit in Australia"/>
    <tag k="name" v="Cherrywood Avenue"/>
    <tag k="source" v="survey"/>
  </way>
  <way id="19540499" version="7" timestamp="2010-07-08T00:10:43Z" uid="74617" user="JohnSmith" changeset="5162525">
    <nd ref="202989254"/>
    <nd ref="202993709"/>
    <nd ref="202993958"/>
    <nd ref="202986951"/>
    <tag k="highway" v="residential"/>
    <tag k="maxspeed" v="50"/>
    <tag k="maxspeed:source" v="default residential speed limit in Australia"/>
    <tag k="name" v="Cherrywood Avenue"/>
    <tag k="source" v="survey"/>
  </way>
  <way id="19540499" version="8" timestamp="2012-01-15T20:09:18Z" uid="147510" user="woodpeck_fixbot" changeset="10400850">
    <nd ref="202989254"/>
    <nd ref="202993709"/>
    <nd ref="202993958"/>
    <nd ref="202986951"/>
    <tag k="highway" v="residential"/>
    <tag k="name" v="Cherrywood Avenue"/>
    <tag k="source" v="survey"/>
  </way>
  <way id="19540588" version="2" timestamp="2008-11-16T04:35:16Z" uid="8807" user="brendanpuck" changeset="756646">
    <nd ref="312423006"/>
    <nd ref="202951820"/>
    <nd ref="202987858"/>
    <nd ref="202991234"/>
    <tag k="abutters" v="residential"/>
    <tag k="highway" v="residential"/>
    <tag k="name" v="Boundary Road"/>
    <tag k="source" v="survey"/>
  </way>
  <way id="19540588" version="3" timestamp="2010-01-19T04:43:37Z" uid="30201" user="rrankin" changeset="3656070">
    <nd ref="312423006"/>
    <nd ref="202951820"/>
    <nd ref="202987858"/>
    <nd ref="202991234"/>
    <tag k="highway" v="residential"/>
    <tag k="name" v="Boundary Road"/>
    <tag k="source" v="survey"/>
  </way>
  <way id="19540588" version="4" timestamp="2010-02-18T10:58:24Z" uid="7617" user="Franc" changeset="3907973">
    <nd ref="312423006"/>
    <nd ref="202951820"/>
    <nd ref="202987858"/>
    <nd ref="644629375"/>
    <nd ref="202991234"/>
    <tag k="highway" v="residential"/>
    <tag k="name" v="Boundary Road"/>
    <tag k="source" v="survey"/>
  </way>
  <way id="19540588" version="5" timestamp="2010-07-07T23:59:38Z" uid="74617" user="JohnSmith" changeset="5162525">
    <nd ref="312423006"/>
    <nd ref="202951820"/>
    <nd ref="202987858"/>
    <nd ref="644629375"/>
    <nd ref="202991234"/>
    <tag k="highway" v="residential"/>
    <tag k="maxspeed" v="50"/>
    <tag k="maxspeed:source" v="default residential speed limit in Australia"/>
    <tag k="name" v="Boundary Road"/>
    <tag k="source" v="survey"/>
  </way>
  <way id="19540588" version="6" timestamp="2010-07-08T00:09:31Z" uid="74617" user="JohnSmith" changeset="5162525">
    <nd ref="312423006"/>
    <nd ref="202951820"/>
    <nd ref="202987858"/>
    <nd ref="644629375"/>
    <nd ref="202991234"/>
    <tag k="highway" v="residential"/>
    <tag k="maxspeed" v="50"/>
    <tag k="maxspeed:source" v="default residential speed limit in Australia"/>
    <tag k="name" v="Boundary Road"/>
    <tag k="source" v="survey"/>
  </way>
  <way id="19540588" version="7" timestamp="2012-01-15T20:09:21Z" uid="147510" user="woodpeck_fixbot" changeset="10400850">
    <nd ref="312423006"/>
    <nd ref="202951820"/>
    <nd ref="202987858"/>
    <nd ref="644629375"/>
    <nd ref="202991234"/>
    <tag k="highway" v="residential"/>
    <tag k="name" v="Boundary Road"/>
    <tag k="source" v="survey"/>
  </way>
  <way id="19540679" version="2" timestamp="2008-11-16T04:35:11Z" uid="8807" user="brendanpuck" changeset="756646">
    <nd ref="38889131"/>
    <nd ref="202992703"/>
    <nd ref="202992704"/>
    <nd ref="202992705"/>
    <nd ref="202992706"/>
    <nd ref="202992708"/>
    <tag k="abutters" v="residential"/>
    <tag k="highway" v="residential"/>
    <tag k="name" v="Daly Avenue"/>
    <tag k="source" v="survey"/>
  </way>
  <way id="19540679" version="3" timestamp="2010-01-19T04:43:28Z" uid="30201" user="rrankin" changeset="3656070">
    <nd ref="38889131"/>
    <nd ref="202992703"/>
    <nd ref="202992704"/>
    <nd ref="202992705"/>
    <nd ref="202992706"/>
    <nd ref="202992708"/>
    <tag k="highway" v="residential"/>
    <tag k="name" v="Daly Avenue"/>
    <tag k="source" v="survey"/>
  </way>
  <way id="19540679" version="4" timestamp="2010-07-08T00:03:48Z" uid="74617" user="JohnSmith" changeset="5162525">
    <nd ref="38889131"/>
    <nd ref="202992703"/>
    <nd ref="202992704"/>
    <nd ref="202992705"/>
    <nd ref="202992706"/>
    <nd ref="202992708"/>
    <tag k="highway" v="residential"/>
    <tag k="maxspeed" v="50"/>
    <tag k="maxspeed:source" v="default residential speed limit in Australia"/>
    <tag k="name" v="Daly Avenue"/>
    <tag k="source" v="survey"/>
  </way>
  <way id="19540679" version="5" timestamp="2010-07-08T00:14:09Z" uid="74617" user="JohnSmith" changeset="5162525">
    <nd ref="38889131"/>
    <nd ref="202992703"/>
    <nd ref="202992704"/>
    <nd ref="202992705"/>
    <nd ref="202992706"/>
    <nd ref="202992708"/>
    <tag k="highway" v="residential"/>
    <tag k="maxspeed" v="50"/>
    <tag k="maxspeed:source" v="default residential speed limit in Australia"/>
    <tag k="name" v="Daly Avenue"/>
    <tag k="source" v="survey"/>
  </way>
  <way id="19540679" version="6" timestamp="2012-01-15T20:09:22Z" uid="147510" user="woodpeck_fixbot" changeset="10400850">
    <nd ref="38889131"/>
    <nd ref="202992703"/>
    <nd ref="202992704"/>
    <nd ref="202992705"/>
    <nd ref="202992706"/>
    <nd ref="202992708"/>
    <tag k="highway" v="residential"/>
    <tag k="name" v="Daly Avenue"/>
    <tag k="source" v="survey"/>
  </way>
  <way id="19540743" version="2" timestamp="2008-11-16T04:56:03Z" uid="8807" user="brendanpuck" changeset="756646">
    <nd ref="202992791"/>
    <nd ref="202993322"/>
    <nd ref="202993323"/>
    <nd ref="202993324"/>
    <nd ref="202993326"/>
    <tag k="abutters" v="residential"/>
    <tag k="highway" v="residential"/>
    <tag k="name" v="Anne Place"/>
    <tag k="source" v="survey"/>
  </way>
  <way id="19540743" version="3" timestamp="2010-01-19T04:43:38Z" uid="30201" user="rrankin" changeset="3656070">
    <nd ref="202992791"/>
    <nd ref="202993322"/>
    <nd ref="202993323"/>
    <nd ref="202993324"/>
    <nd ref="202993326"/>
    <tag k="highway" v="residential"/>
    <tag k="name" v="Anne Place"/>
    <tag k="source" v="survey"/>
  </way>
  <way id="19540743" version="4" timestamp="2010-02-18T10:58:25Z" uid="7617" user="Franc" changeset="3907973">
    <nd ref="202992791"/>
    <nd ref="202993322"/>
    <nd ref="202993323"/>
    <nd ref="644629326"/>
    <nd ref="202993324"/>
    <nd ref="644629328"/>
    <nd ref="202993326"/>
    <tag k="highway" v="residential"/>
    <tag k="name" v="Anne Place"/>
    <tag k="source" v="survey"/>
  </way>
  <way id="19540743" version="5" timestamp="2010-07-08T00:03:05Z" uid="74617" user="JohnSmith" changeset="5162525">
    <nd ref="202992791"/>
    <nd ref="202993322"/>
    <nd ref="202993323"/>
    <nd ref="644629326"/>
    <nd ref="202993324"/>
    <nd ref="644629328"/>
    <nd ref="202993326"/>
    <tag k="highway" v="residential"/>
    <tag k="maxspeed" v="50"/>
    <tag k="maxspeed:source" v="default residential speed limit in Australia"/>
    <tag k="name" v="Anne Place"/>
    <tag k="source" v="survey"/>
  </way>
  <way id="19540743" version="6" timestamp="2010-07-08T00:13:19Z" uid="74617" user="JohnSmith" changeset="5162525">
    <nd ref="202992791"/>
    <nd ref="202993322"/>
    <nd ref="202993323"/>
    <nd ref="644629326"/>
    <nd ref="202993324"/>
    <nd ref="644629328"/>
    <nd ref="202993326"/>
    <tag k="highway" v="residential"/>
    <tag k="maxspeed" v="50"/>
    <tag k="maxspeed:source" v="default residential speed limit in Australia"/>
    <tag k="name" v="Anne Place"/>
    <tag k="source" v="survey"/>
  </way>
  <way id="19540743" version="7" timestamp="2012-01-15T20:09:24Z" uid="147510" user="woodpeck_fixbot" changeset="10400850">
    <nd ref="202992791"/>
    <nd ref="202993322"/>
    <nd ref="202993323"/>
    <nd ref="644629326"/>
    <nd ref="202993324"/>
    <nd ref="644629328"/>
    <nd ref="202993326"/>
    <tag k="highway" v="residential"/>
    <tag k="name" v="Anne Place"/>
    <tag k="source" v="survey"/>
  </way>
  <way id="19540773" version="2" timestamp="2009-11-11T20:01:50Z" uid="103576" user="DiverCTH" changeset="3093176">
    <nd ref="202993739"/>
    <nd ref="202993743"/>
    <tag k="highway" v="residential"/>
    <tag k="name" v="Luz Ln"/>
    <tag k="tiger:cfcc" v="A41"/>
    <tag k="tiger:county" v="Knox, TN"/>
    <tag k="tiger:name_base" v="Luz"/>
    <tag k="tiger:name_type" v="Ln"/>
    <tag k="tiger:reviewed" v="no"/>
    <tag k="tiger:separated" v="no"/>
    <tag k="tiger:source" v="tiger_import_dch_v0.6_20070829"/>
    <tag k="tiger:tlid" v="42610122"/>
    <tag k="tiger:upload_uuid" v="bulk_upload.pl-f459fb5c-e923-4061-be5e-82c37c53f049"/>
    <tag k="tiger:zip_left" v="37923"/>
    <tag k="tiger:zip_right" v="37923"/>
  </way>
  <way id="19540786" version="2" timestamp="2008-11-16T04:56:06Z" uid="8807" user="brendanpuck" changeset="756646">
    <nd ref="202993709"/>
    <nd ref="202993913"/>
    <tag k="abutters" v="residential"/>
    <tag k="highway" v="residential"/>
    <tag k="name" v="Delray Avenue"/>
    <tag k="source" v="survey"/>
  </way>
  <way id="19540786" version="3" timestamp="2010-01-19T04:43:37Z" uid="30201" user="rrankin" changeset="3656070">
    <nd ref="202993709"/>
    <nd ref="202993913"/>
    <tag k="highway" v="residential"/>
    <tag k="name" v="Delray Avenue"/>
    <tag k="source" v="survey"/>
  </way>
  <way id="19540786" version="4" timestamp="2010-07-08T00:01:52Z" uid="74617" user="JohnSmith" changeset="5162525">
    <nd ref="202993709"/>
    <nd ref="202993913"/>
    <tag k="highway" v="residential"/>
    <tag k="maxspeed" v="50"/>
    <tag k="maxspeed:source" v="default residential speed limit in Australia"/>
    <tag k="name" v="Delray Avenue"/>
    <tag k="source" v="survey"/>
  </way>
  <way id="19540786" version="5" timestamp="2010-07-08T00:12:04Z" uid="74617" user="JohnSmith" changeset="5162525">
    <nd ref="202993709"/>
    <nd ref="202993913"/>
    <tag k="highway" v="residential"/>
    <tag k="maxspeed" v="50"/>
    <tag k="maxspeed:source" v="default residential speed limit in Australia"/>
    <tag k="name" v="Delray Avenue"/>
    <tag k="source" v="survey"/>
  </way>
  <way id="19540786" version="6" timestamp="2012-01-15T20:09:25Z" uid="147510" user="woodpeck_fixbot" changeset="10400850">
    <nd ref="202993709"/>
    <nd ref="202993913"/>
    <tag k="highway" v="residential"/>
    <tag k="name" v="Delray Avenue"/>
    <tag k="source" v="survey"/>
  </way>
  <way id="19540848" version="2" timestamp="2008-11-16T04:35:22Z" uid="8807" user="brendanpuck" changeset="756646">
    <nd ref="202994714"/>
    <nd ref="312423012"/>
    <nd ref="202993958"/>
    <tag k="abutters" v="residential"/>
    <tag k="highway" v="residential"/>
    <tag k="name" v="Fiona Avenue"/>
    <tag k="source" v="survey"/>
  </way>
  <way id="19540848" version="3" timestamp="2010-01-19T04:43:41Z" uid="30201" user="rrankin" changeset="3656070">
    <nd ref="202994714"/>
    <nd ref="312423012"/>
    <nd ref="202993958"/>
    <tag k="highway" v="residential"/>
    <tag k="name" v="Fiona Avenue"/>
    <tag k="source" v="survey"/>
  </way>
  <way id="19540848" version="4" timestamp="2010-07-08T00:01:11Z" uid="74617" user="JohnSmith" changeset="5162525">
    <nd ref="202994714"/>
    <nd ref="312423012"/>
    <nd ref="202993958"/>
    <tag k="highway" v="residential"/>
    <tag k="maxspeed" v="50"/>
    <tag k="maxspeed:source" v="default residential speed limit in Australia"/>
    <tag k="name" v="Fiona Avenue"/>
    <tag k="source" v="survey"/>
  </way>
  <way id="19540848" version="5" timestamp="2010-07-08T00:11:17Z" uid="74617" user="JohnSmith" changeset="5162525">
    <nd ref="202994714"/>
    <nd ref="312423012"/>
    <nd ref="202993958"/>
    <tag k="highway" v="residential"/>
    <tag k="maxspeed" v="50"/>
    <tag k="maxspeed:source" v="default residential speed limit in Australia"/>
    <tag k="name" v="Fiona Avenue"/>
    <tag k="source" v="survey"/>
  </way>
  <way id="19540848" version="6" timestamp="2012-01-15T20:09:26Z" uid="147510" user="woodpeck_fixbot" changeset="10400850">
    <nd ref="202994714"/>
    <nd ref="312423012"/>
    <nd ref="202993958"/>
    <tag k="highway" v="residential"/>
    <tag k="name" v="Fiona Avenue"/>
    <tag k="source" v="survey"/>
  </way>
  <way id="19540900" version="2" timestamp="2008-11-16T04:35:25Z" uid="8807" user="brendanpuck" changeset="756646">
    <nd ref="202986952"/>
    <nd ref="312423024"/>
    <nd ref="312423016"/>
    <nd ref="202995183"/>
    <nd ref="202995187"/>
    <tag k="abutters" v="residential"/>
    <tag k="highway" v="residential"/>
    <tag k="name" v="Macleay Avenue"/>
    <tag k="source" v="survey"/>
  </way>
  <way id="19540900" version="3" timestamp="2010-01-19T04:43:41Z" uid="30201" user="rrankin" changeset="3656070">
    <nd ref="202986952"/>
    <nd ref="312423024"/>
    <nd ref="312423016"/>
    <nd ref="202995183"/>
    <nd ref="202995187"/>
    <tag k="highway" v="residential"/>
    <tag k="name" v="Macleay Avenue"/>
    <tag k="source" v="survey"/>
  </way>
  <way id="19540900" version="4" timestamp="2010-02-18T10:58:26Z" uid="7617" user="Franc" changeset="3907973">
    <nd ref="202986952"/>
    <nd ref="312423016"/>
    <nd ref="644629368"/>
    <nd ref="644629370"/>
    <nd ref="644629369"/>
    <nd ref="644629371"/>
    <nd ref="202995183"/>
    <nd ref="644629372"/>
    <nd ref="644629373"/>
    <nd ref="202995187"/>
    <tag k="highway" v="residential"/>
    <tag k="name" v="Macleay Avenue"/>
    <tag k="source" v="survey"/>
  </way>
  <way id="19540900" version="5" timestamp="2010-07-08T00:04:51Z" uid="74617" user="JohnSmith" changeset="5162525">
    <nd ref="202986952"/>
    <nd ref="312423016"/>
    <nd ref="644629368"/>
    <nd ref="644629370"/>
    <nd ref="644629369"/>
    <nd ref="644629371"/>
    <nd ref="202995183"/>
    <nd ref="644629372"/>
    <nd ref="644629373"/>
    <nd ref="202995187"/>
    <tag k="highway" v="residential"/>
    <tag k="maxspeed" v="50"/>
    <tag k="maxspeed:source" v="default residential speed limit in Australia"/>
    <tag k="name" v="Macleay Avenue"/>
    <tag k="source" v="survey"/>
  </way>
  <way id="19540900" version="6" timestamp="2010-07-08T00:15:40Z" uid="74617" user="JohnSmith" changeset="5162525">
    <nd ref="202986952"/>
    <nd ref="312423016"/>
    <nd ref="644629368"/>
    <nd ref="644629370"/>
    <nd ref="644629369"/>
    <nd ref="644629371"/>
    <nd ref="202995183"/>
    <nd ref="644629372"/>
    <nd ref="644629373"/>
    <nd ref="202995187"/>
    <tag k="highway" v="residential"/>
    <tag k="maxspeed" v="50"/>
    <tag k="maxspeed:source" v="default residential speed limit in Australia"/>
    <tag k="name" v="Macleay Avenue"/>
    <tag k="source" v="survey"/>
  </way>
  <way id="19540900" version="7" timestamp="2012-01-15T20:09:29Z" uid="147510" user="woodpeck_fixbot" changeset="10400850">
    <nd ref="202986952"/>
    <nd ref="312423016"/>
    <nd ref="644629368"/>
    <nd ref="644629370"/>
    <nd ref="644629369"/>
    <nd ref="644629371"/>
    <nd ref="202995183"/>
    <nd ref="644629372"/>
    <nd ref="644629373"/>
    <nd ref="202995187"/>
    <tag k="highway" v="residential"/>
    <tag k="name" v="Macleay Avenue"/>
    <tag k="source" v="survey"/>
  </way>
  <way id="19540929" version="3" timestamp="2008-11-16T04:35:14Z" uid="8807" user="brendanpuck" changeset="756646">
    <nd ref="202992703"/>
    <nd ref="279693400"/>
    <tag k="abutters" v="residential"/>
    <tag k="highway" v="residential"/>
    <tag k="name" v="Derwant Avenue"/>
    <tag k="source" v="survey"/>
  </way>
  <way id="19540929" version="4" timestamp="2010-01-19T04:43:27Z" uid="30201" user="rrankin" changeset="3656070">
    <nd ref="202992703"/>
    <nd ref="279693400"/>
    <tag k="highway" v="residential"/>
    <tag k="name" v="Derwant Avenue"/>
    <tag k="source" v="survey"/>
  </way>
  <way id="19540929" version="5" timestamp="2010-07-08T00:02:45Z" uid="74617" user="JohnSmith" changeset="5162525">
    <nd ref="202992703"/>
    <nd ref="279693400"/>
    <tag k="highway" v="residential"/>
    <tag k="maxspeed" v="50"/>
    <tag k="maxspeed:source" v="default residential speed limit in Australia"/>
    <tag k="name" v="Derwant Avenue"/>
    <tag k="source" v="survey"/>
  </way>
  <way id="19540929" version="6" timestamp="2010-07-08T00:12:58Z" uid="74617" user="JohnSmith" changeset="5162525">
    <nd ref="202992703"/>
    <nd ref="279693400"/>
    <tag k="highway" v="residential"/>
    <tag k="maxspeed" v="50"/>
    <tag k="maxspeed:source" v="default residential speed limit in Australia"/>
    <tag k="name" v="Derwant Avenue"/>
    <tag k="source" v="survey"/>
  </way>
  <way id="19540929" version="7" timestamp="2012-01-15T20:09:31Z" uid="147510" user="woodpeck_fixbot" changeset="10400850">
    <nd ref="202992703"/>
    <nd ref="279693400"/>
    <tag k="highway" v="residential"/>
    <tag k="name" v="Derwant Avenue"/>
    <tag k="source" v="survey"/>
  </way>
  <way id="19540971" version="3" timestamp="2008-11-16T04:35:28Z" uid="8807" user="brendanpuck" changeset="756646">
    <nd ref="312423003"/>
    <nd ref="279693400"/>
    <nd ref="202996010"/>
    <tag k="abutters" v="residential"/>
    <tag k="highway" v="residential"/>
    <tag k="name" v="Tama Close"/>
    <tag k="source" v="survey"/>
  </way>
  <way id="19540971" version="4" timestamp="2010-01-19T04:43:27Z" uid="30201" user="rrankin" changeset="3656070">
    <nd ref="312423003"/>
    <nd ref="279693400"/>
    <nd ref="202996010"/>
    <tag k="highway" v="residential"/>
    <tag k="name" v="Tama Close"/>
    <tag k="source" v="survey"/>
  </way>
  <way id="19540971" version="5" timestamp="2010-07-07T23:59:49Z" uid="74617" user="JohnSmith" changeset="5162525">
    <nd ref="312423003"/>
    <nd ref="279693400"/>
    <nd ref="202996010"/>
    <tag k="highway" v="residential"/>
    <tag k="maxspeed" v="50"/>
    <tag k="maxspeed:source" v="default residential speed limit in Australia"/>
    <tag k="name" v="Tama Close"/>
    <tag k="source" v="survey"/>
  </way>
  <way id="19540971" version="6" timestamp="2010-07-08T00:09:45Z" uid="74617" user="JohnSmith" changeset="5162525">
    <nd ref="312423003"/>
    <nd ref="279693400"/>
    <nd ref="202996010"/>
    <tag k="highway" v="residential"/>
    <tag k="maxspeed" v="50"/>
    <tag k="maxspeed:source" v="default residential speed limit in Australia"/>
    <tag k="name" v="Tama Close"/>
    <tag k="source" v="survey"/>
  </way>
  <way id="19540971" version="7" timestamp="2012-01-15T20:09:33Z" uid="147510" user="woodpeck_fixbot" changeset="10400850">
    <nd ref="312423003"/>
    <nd ref="279693400"/>
    <nd ref="202996010"/>
    <tag k="highway" v="residential"/>
    <tag k="name" v="Tama Close"/>
    <tag k="source" v="survey"/>
  </way>
</osm>
