<?xml version='1.0' encoding='UTF-8'?>
<osm version="0.6" generator="libosmium/2.20.0">
  <way id="19687080" version="3" timestamp="2009-06-07T02:41:49Z" uid="61114" user="Trav" changeset="1443935">
    <nd ref="204379777"/>
    <nd ref="204379778"/>
    <nd ref="204379780"/>
    <nd ref="204379781"/>
    <nd ref="204379782"/>
    <nd ref="204379783"/>
    <nd ref="204379784"/>
    <nd ref="204379785"/>
    <tag k="highway" v="residential"/>
    <tag k="name" v="Birinta Street"/>
    <tag k="source:name" v="survey"/>
  </way>
  <way id="19687080" version="4" timestamp="2010-07-07T23:32:27Z" uid="74617" user="JohnSmith" changeset="5162525">
    <nd ref="204379777"/>
    <nd ref="204379778"/>
    <nd ref="204379780"/>
    <nd ref="204379781"/>
    <nd ref="204379782"/>
    <nd ref="204379783"/>
    <nd ref="204379784"/>
    <nd ref="204379785"/>
    <tag k="highway" v="residential"/>
    <tag k="maxspeed" v="50"/>
    <tag k="maxspeed:source" v="default residential speed limit in Australia"/>
    <tag k="name" v="Birinta Street"/>
    <tag k="source:name" v="survey"/>
  </way>
  <way id="19687080" version="5" timestamp="2012-01-15T20:12:19Z" uid="147510" user="woodpeck_fixbot" changeset="10400850">
    <nd ref="204379777"/>
    <nd ref="204379778"/>
    <nd ref="204379780"/>
    <nd ref="204379781"/>
    <nd ref="204379782"/>
    <nd ref="204379783"/>
    <nd ref="204379784"/>
    <nd ref="204379785"/>
    <tag k="highway" v="residential"/>
    <tag k="name" v="Birinta Street"/>
    <tag k="source:name" v="survey"/>
  </way>
  <way id="19687108" version="2" timestamp="2009-06-07T02:41:49Z" uid="61114" user="Trav" changeset="1443935">
    <nd ref="204379784"/>
    <nd ref="204380230"/>
    <nd ref="204380231"/>
    <nd ref="204380232"/>
    <nd ref="204380233"/>
    <nd ref="204380234"/>
    <nd ref="204380235"/>
    <nd ref="204380237"/>
    <tag k="highway" v="residential"/>
    <tag k="name" v="Bullara Crescent"/>
    <tag k="source:name" v="survey"/>
  </way>
  <way id="19687108" version="3" timestamp="2010-07-07T23:31:08Z" uid="74617" user="JohnSmith" changeset="5162525">
    <nd ref="204379784"/>
    <nd ref="204380230"/>
    <nd ref="204380231"/>
    <nd ref="204380232"/>
    <nd ref="204380233"/>
    <nd ref="204380234"/>
    <nd ref="204380235"/>
    <nd ref="204380237"/>
    <tag k="highway" v="residential"/>
    <tag k="maxspeed" v="50"/>
    <tag k="maxspeed:source" v="default residential speed limit in Australia"/>
    <tag k="name" v="Bullara Crescent"/>
    <tag k="source:name" v="survey"/>
  </way>
  <way id="19687108" version="4" timestamp="2012-01-15T20:12:20Z" uid="147510" user="woodpeck_fixbot" changeset="10400850">
    <nd ref="204379784"/>
    <nd ref="204380230"/>
    <nd ref="204380231"/>
    <nd ref="204380232"/>
    <nd ref="204380233"/>
    <nd ref="204380234"/>
    <nd ref="204380235"/>
    <nd ref="204380237"/>
    <tag k="highway" v="residential"/>
    <tag k="name" v="Bullara Crescent"/>
    <tag k="source:name" v="survey"/>
  </way>
  <way id="19687282" version="4" timestamp="2009-06-06T03:23:13Z" uid="61114" user="Trav" changeset="1434233">
    <nd ref="204381246"/>
    <nd ref="204383038"/>
    <nd ref="204383039"/>
    <nd ref="204383040"/>
    <nd ref="204383042"/>
    <nd ref="204383044"/>
    <nd ref="204383045"/>
    <nd ref="204383047"/>
    <nd ref="204383048"/>
    <nd ref="204383049"/>
    <nd ref="204383052"/>
    <nd ref="204383054"/>
    <nd ref="204383055"/>
    <nd ref="204383056"/>
    <nd ref="204383057"/>
    <nd ref="204383058"/>
    <nd ref="204383060"/>
    <nd ref="204383061"/>
    <nd ref="204383062"/>
    <nd ref="204383063"/>
    <nd ref="204383064"/>
    <nd ref="204383066"/>
    <nd ref="204383067"/>
    <nd ref="204383068"/>
    <tag k="highway" v="residential"/>
    <tag k="name" v="Towradgi Street"/>
    <tag k="source:name" v="survey"/>
  </way>
  <way id="19687282" version="5" timestamp="2010-07-07T23:34:51Z" uid="74617" user="JohnSmith" changeset="5162525">
    <nd ref="204381246"/>
    <nd ref="204383038"/>
    <nd ref="204383039"/>
    <nd ref="204383040"/>
    <nd ref="204383042"/>
    <nd ref="204383044"/>
    <nd ref="204383045"/>
    <nd ref="204383047"/>
    <nd ref="204383048"/>
    <nd ref="204383049"/>
    <nd ref="204383052"/>
    <nd ref="204383054"/>
    <nd ref="204383055"/>
    <nd ref="204383056"/>
    <nd ref="204383057"/>
    <nd ref="204383058"/>
    <nd ref="204383060"/>
    <nd ref="204383061"/>
    <nd ref="204383062"/>
    <nd ref="204383063"/>
    <nd ref="204383064"/>
    <nd ref="204383066"/>
    <nd ref="204383067"/>
    <nd ref="204383068"/>
    <tag k="highway" v="residential"/>
    <tag k="maxspeed" v="50"/>
    <tag k="maxspeed:source" v="default residential speed limit in Australia"/>
    <tag k="name" v="Towradgi Street"/>
    <tag k="source:name" v="survey"/>
  </way>
  <way id="19687282" version="6" timestamp="2012-01-15T20:12:23Z" uid="147510" user="woodpeck_fixbot" changeset="10400850">
    <nd ref="204381246"/>
    <nd ref="204383038"/>
    <nd ref="204383039"/>
    <nd ref="204383040"/>
    <nd ref="204383042"/>
    <nd ref="204383044"/>
    <nd ref="204383045"/>
    <nd ref="204383047"/>
    <nd ref="204383048"/>
    <nd ref="204383049"/>
    <nd ref="204383052"/>
    <nd ref="204383054"/>
    <nd ref="204383055"/>
    <nd ref="204383056"/>
    <nd ref="204383057"/>
    <nd ref="204383058"/>
    <nd ref="204383060"/>
    <nd ref="204383061"/>
    <nd ref="204383062"/>
    <nd ref="204383063"/>
    <nd ref="204383064"/>
    <nd ref="204383066"/>
    <nd ref="204383067"/>
    <nd ref="204383068"/>
    <tag k="highway" v="residential"/>
    <tag k="name" v="Towradgi Street"/>
    <tag k="source:name" v="survey"/>
  </way>
  <way id="19687345" version="2" timestamp="2009-06-06T03:23:14Z" uid="61114" user="Trav" changeset="1434233">
    <nd ref="204383663"/>
    <nd ref="204384058"/>
    <nd ref="204384059"/>
    <nd ref="204384060"/>
    <nd ref="204384061"/>
    <nd ref="204384062"/>
    <nd ref="204384063"/>
    <nd ref="204384064"/>
    <nd ref="204383038"/>
    <tag k="highway" v="residential"/>
    <tag k="name" v="Alkira Circuit"/>
    <tag k="note" v="FIXME: Sign says &quot;Cr&quot; at one end and &quot;Cct&quot; at the other?"/>
    <tag k="source:name" v="survey"/>
  </way>
  <way id="19687345" version="3" timestamp="2010-07-07T23:35:41Z" uid="74617" user="JohnSmith" changeset="5162525">
    <nd ref="204383663"/>
    <nd ref="204384058"/>
    <nd ref="204384059"/>
    <nd ref="204384060"/>
    <nd ref="204384061"/>
    <nd ref="204384062"/>
    <nd ref="204384063"/>
    <nd ref="204384064"/>
    <nd ref="204383038"/>
    <tag k="highway" v="residential"/>
    <tag k="maxspeed" v="50"/>
    <tag k="maxspeed:source" v="default residential speed limit in Australia"/>
    <tag k="name" v="Alkira Circuit"/>
    <tag k="note" v="FIXME: Sign says &quot;Cr&quot; at one end and &quot;Cct&quot; at the other?"/>
    <tag k="source:name" v="survey"/>
  </way>
  <way id="19687345" version="4" timestamp="2012-01-15T20:12:25Z" uid="147510" user="woodpeck_fixbot" changeset="10400850">
    <nd ref="204383663"/>
    <nd ref="204384058"/>
    <nd ref="204384059"/>
    <nd ref="204384060"/>
    <nd ref="204384061"/>
    <nd ref="204384062"/>
    <nd ref="204384063"/>
    <nd ref="204384064"/>
    <nd ref="204383038"/>
    <tag k="highway" v="residential"/>
    <tag k="name" v="Alkira Circuit"/>
    <tag k="note" v="FIXME: Sign says &quot;Cr&quot; at one end and &quot;Cct&quot; at the other?"/>
    <tag k="source:name" v="survey"/>
  </way>
  <way id="19687468" version="2" timestamp="2009-06-07T02:41:40Z" uid="61114" user="Trav" changeset="1443935">
    <nd ref="122939455"/>
    <nd ref="204385978"/>
    <nd ref="204385979"/>
    <nd ref="204385980"/>
    <nd ref="204385981"/>
    <nd ref="204385982"/>
    <nd ref="204385983"/>
    <nd ref="204385984"/>
    <nd ref="204385985"/>
    <nd ref="204385986"/>
    <tag k="highway" v="residential"/>
    <tag k="name" v="Ara Crescent"/>
    <tag k="source:name" v="survey"/>
  </way>
  <way id="19687468" version="3" timestamp="2010-07-07T23:34:19Z" uid="74617" user="JohnSmith" changeset="5162525">
    <nd ref="122939455"/>
    <nd ref="204385978"/>
    <nd ref="204385979"/>
    <nd ref="204385980"/>
    <nd ref="204385981"/>
    <nd ref="204385982"/>
    <nd ref="204385983"/>
    <nd ref="204385984"/>
    <nd ref="204385985"/>
    <nd ref="204385986"/>
    <tag k="highway" v="residential"/>
    <tag k="maxspeed" v="50"/>
    <tag k="maxspeed:source" v="default residential speed limit in Australia"/>
    <tag k="name" v="Ara Crescent"/>
    <tag k="source:name" v="survey"/>
  </way>
  <way id="19687468" version="4" timestamp="2012-01-15T20:12:28Z" uid="147510" user="woodpeck_fixbot" changeset="10400850">
    <nd ref="122939455"/>
    <nd ref="204385978"/>
    <nd ref="204385979"/>
    <nd ref="204385980"/>
    <nd ref="204385981"/>
    <nd ref="204385982"/>
    <nd ref="204385983"/>
    <nd ref="204385984"/>
    <nd ref="204385985"/>
    <nd ref="204385986"/>
    <tag k="highway" v="residential"/>
    <tag k="name" v="Ara Crescent"/>
    <tag k="source:name" v="survey"/>
  </way>
  <way id="19687495" version="2" timestamp="2009-06-07T02:42:32Z" uid="61114" user="Trav" changeset="1443935">
    <nd ref="204386257"/>
    <nd ref="204386259"/>
    <tag k="complete" v="no"/>
    <tag k="highway" v="residential"/>
    <tag k="name" v="Pertaka Place"/>
    <tag k="source:name" v="survey"/>
  </way>
  <way id="19687495" version="3" timestamp="2009-06-07T22:51:50Z" uid="61114" user="Trav" changeset="1454364">
    <nd ref="417235611"/>
    <nd ref="204386257"/>
    <nd ref="204386259"/>
    <tag k="highway" v="residential"/>
    <tag k="name" v="Pertaka Place"/>
    <tag k="source" v="survey"/>
    <tag k="source:name" v="survey"/>
  </way>
  <way id="19687495" version="4" timestamp="2010-07-07T23:32:33Z" uid="74617" user="JohnSmith" changeset="5162525">
    <nd ref="417235611"/>
    <nd ref="204386257"/>
    <nd ref="204386259"/>
    <tag k="highway" v="residential"/>
    <tag k="maxspeed" v="50"/>
    <tag k="maxspeed:source" v="default residential speed limit in Australia"/>
    <tag k="name" v="Pertaka Place"/>
    <tag k="source" v="survey"/>
    <tag k="source:name" v="survey"/>
  </way>
  <way id="19687495" version="5" timestamp="2012-01-15T20:12:28Z" uid="147510" user="woodpeck_fixbot" changeset="10400850">
    <nd ref="417235611"/>
    <nd ref="204386257"/>
    <nd ref="204386259"/>
    <tag k="highway" v="residential"/>
    <tag k="name" v="Pertaka Place"/>
    <tag k="source" v="survey"/>
    <tag k="source:name" v="survey"/>
  </way>
  <way id="19687561" version="2" timestamp="2009-05-31T05:57:55Z" uid="61114" user="Trav" changeset="1365262">
    <nd ref="204387278"/>
    <nd ref="204387279"/>
    <nd ref="204387281"/>
    <nd ref="204387282"/>
    <nd ref="204387283"/>
    <nd ref="204387285"/>
    <tag k="highway" v="residential"/>
    <tag k="name" v="Bolta Place"/>
    <tag k="source:name" v="survey"/>
  </way>
  <way id="19687561" version="3" timestamp="2010-03-10T08:54:04Z" uid="7617" user="Franc" changeset="4087205">
    <nd ref="204387278"/>
    <nd ref="204387279"/>
    <nd ref="204387281"/>
    <nd ref="204387282"/>
    <nd ref="663559864"/>
    <nd ref="204387283"/>
    <nd ref="204387285"/>
    <tag k="highway" v="residential"/>
    <tag k="name" v="Bolta Place"/>
    <tag k="source:name" v="survey"/>
  </way>
  <way id="19687561" version="4" timestamp="2010-07-07T23:34:44Z" uid="74617" user="JohnSmith" changeset="5162525">
    <nd ref="204387278"/>
    <nd ref="204387279"/>
    <nd ref="204387281"/>
    <nd ref="204387282"/>
    <nd ref="663559864"/>
    <nd ref="204387283"/>
    <nd ref="204387285"/>
    <tag k="highway" v="residential"/>
    <tag k="maxspeed" v="50"/>
    <tag k="maxspeed:source" v="default residential speed limit in Australia"/>
    <tag k="name" v="Bolta Place"/>
    <tag k="source:name" v="survey"/>
  </way>
  <way id="19687561" version="5" timestamp="2012-01-15T20:12:29Z" uid="147510" user="woodpeck_fixbot" changeset="10400850">
    <nd ref="204387278"/>
    <nd ref="204387279"/>
    <nd ref="204387281"/>
    <nd ref="204387282"/>
    <nd ref="663559864"/>
    <nd ref="204387283"/>
    <nd ref="204387285"/>
    <tag k="highway" v="residential"/>
    <tag k="name" v="Bolta Place"/>
    <tag k="source:name" v="survey"/>
  </way>
  <way id="19687616" version="2" timestamp="2009-05-31T05:57:57Z" uid="61114" user="Trav" changeset="1365262">
    <nd ref="204387902"/>
    <nd ref="204387904"/>
    <tag k="highway" v="residential"/>
    <tag k="name" v="Douglass Place"/>
    <tag k="source:name" v="survey"/>
  </way>
  <way id="19687616" version="3" timestamp="2010-07-07T23:35:15Z" uid="74617" user="JohnSmith" changeset="5162525">
    <nd ref="204387902"/>
    <nd ref="204387904"/>
    <tag k="highway" v="residential"/>
    <tag k="maxspeed" v="50"/>
    <tag k="maxspeed:source" v="default residential speed limit in Australia"/>
    <tag k="name" v="Douglass Place"/>
    <tag k="source:name" v="survey"/>
  </way>
  <way id="19687616" version="4" timestamp="2012-01-15T20:12:30Z" uid="147510" user="woodpeck_fixbot" changeset="10400850">
    <nd ref="204387902"/>
    <nd ref="204387904"/>
    <tag k="highway" v="residential"/>
    <tag k="name" v="Douglass Place"/>
    <tag k="source:name" v="survey"/>
  </way>
  <way id="19687636" version="2" timestamp="2009-05-31T05:57:56Z" uid="61114" user="Trav" changeset="1365262">
    <nd ref="204388145"/>
    <nd ref="204388147"/>
    <nd ref="204388148"/>
    <tag k="highway" v="residential"/>
    <tag k="name" v="Lidwina Place"/>
    <tag k="source:name" v="survey"/>
  </way>
  <way id="19687636" version="3" timestamp="2010-07-07T23:34:48Z" uid="74617" user="JohnSmith" changeset="5162525">
    <nd ref="204388145"/>
    <nd ref="204388147"/>
    <nd ref="204388148"/>
    <tag k="highway" v="residential"/>
    <tag k="maxspeed" v="50"/>
    <tag k="maxspeed:source" v="default residential speed limit in Australia"/>
    <tag k="name" v="Lidwina Place"/>
    <tag k="source:name" v="survey"/>
  </way>
  <way id="19687636" version="4" timestamp="2012-01-15T20:12:32Z" uid="147510" user="woodpeck_fixbot" changeset="10400850">
    <nd ref="204388145"/>
    <nd ref="204388147"/>
    <nd ref="204388148"/>
    <tag k="highway" v="residential"/>
    <tag k="name" v="Lidwina Place"/>
    <tag k="source:name" v="survey"/>
  </way>
</osm>
