<?xml version='1.0' encoding='UTF-8'?>
<osm version="0.6" generator="libosmium/2.20.0">
  <way id="19686109" version="4" timestamp="2009-06-07T02:42:23Z" uid="61114" user="Trav" changeset="1443935">
    <nd ref="204361991"/>
    <nd ref="194666763"/>
    <tag k="highway" v="residential"/>
    <tag k="name" v="Cormack Road"/>
    <tag k="source:name" v="extrapolation"/>
  </way>
  <way id="19686109" version="5" timestamp="2010-07-07T23:33:35Z" uid="74617" user="JohnSmith" changeset="5162525">
    <nd ref="204361991"/>
    <nd ref="194666763"/>
    <tag k="highway" v="residential"/>
    <tag k="maxspeed" v="50"/>
    <tag k="maxspeed:source" v="default residential speed limit in Australia"/>
    <tag k="name" v="Cormack Road"/>
    <tag k="source:name" v="extrapolation"/>
  </way>
  <way id="19686109" version="6" timestamp="2012-01-15T20:10:49Z" uid="147510" user="woodpeck_fixbot" changeset="10400850">
    <nd ref="204361991"/>
    <nd ref="194666763"/>
    <tag k="highway" v="residential"/>
    <tag k="name" v="Cormack Road"/>
    <tag k="source:name" v="extrapolation"/>
  </way>
  <way id="19686226" version="5" timestamp="2009-06-07T02:41:47Z" uid="61114" user="Trav" changeset="1443935">
    <nd ref="204364480"/>
    <nd ref="204364482"/>
    <nd ref="204364485"/>
    <nd ref="204364486"/>
    <nd ref="204364488"/>
    <nd ref="204364491"/>
    <nd ref="204364493"/>
    <tag k="highway" v="residential"/>
    <tag k="name" v="Yallaroi Road"/>
    <tag k="source:name" v="survey"/>
  </way>
  <way id="19686226" version="6" timestamp="2009-06-07T22:51:52Z" uid="61114" user="Trav" changeset="1454364">
    <nd ref="204364480"/>
    <nd ref="204364482"/>
    <nd ref="204364485"/>
    <nd ref="204364486"/>
    <nd ref="204364488"/>
    <nd ref="417235615"/>
    <nd ref="204364491"/>
    <nd ref="204364493"/>
    <tag k="highway" v="residential"/>
    <tag k="name" v="Yallaroi Road"/>
    <tag k="source:name" v="survey"/>
  </way>
  <way id="19686226" version="7" timestamp="2010-07-07T23:34:43Z" uid="74617" user="JohnSmith" changeset="5162525">
    <nd ref="204364480"/>
    <nd ref="204364482"/>
    <nd ref="204364485"/>
    <nd ref="204364486"/>
    <nd ref="204364488"/>
    <nd ref="417235615"/>
    <nd ref="204364491"/>
    <nd ref="204364493"/>
    <tag k="highway" v="residential"/>
    <tag k="maxspeed" v="50"/>
    <tag k="maxspeed:source" v="default residential speed limit in Australia"/>
    <tag k="name" v="Yallaroi Road"/>
    <tag k="source:name" v="survey"/>
  </way>
  <way id="19686226" version="8" timestamp="2012-01-15T20:10:53Z" uid="147510" user="woodpeck_fixbot" changeset="10400850">
    <nd ref="204364480"/>
    <nd ref="204364482"/>
    <nd ref="204364485"/>
    <nd ref="204364486"/>
    <nd ref="204364488"/>
    <nd ref="417235615"/>
    <nd ref="204364491"/>
    <nd ref="204364493"/>
    <tag k="highway" v="residential"/>
    <tag k="name" v="Yallaroi Road"/>
    <tag k="source:name" v="survey"/>
  </way>
  <way id="19686250" version="3" timestamp="2009-06-06T03:23:15Z" uid="61114" user="Trav" changeset="1434233">
    <nd ref="194676224"/>
    <nd ref="277894545"/>
    <nd ref="194676589"/>
    <nd ref="194676590"/>
    <nd ref="194678284"/>
    <nd ref="194676591"/>
    <nd ref="204365069"/>
    <tag k="highway" v="residential"/>
    <tag k="name" v="Waratah Parade"/>
    <tag k="source:name" v="survey"/>
  </way>
  <way id="19686250" version="4" timestamp="2010-01-23T06:01:45Z" uid="30201" user="rrankin" changeset="3689199">
    <nd ref="194676224"/>
    <nd ref="277894545"/>
    <nd ref="194676589"/>
    <nd ref="618542738"/>
    <tag k="highway" v="residential"/>
    <tag k="name" v="Waratah Parade"/>
    <tag k="source:name" v="survey"/>
  </way>
  <way id="19686250" version="5" timestamp="2010-07-07T23:32:49Z" uid="74617" user="JohnSmith" changeset="5162525">
    <nd ref="194676224"/>
    <nd ref="277894545"/>
    <nd ref="194676589"/>
    <nd ref="618542738"/>
    <tag k="highway" v="residential"/>
    <tag k="maxspeed" v="50"/>
    <tag k="maxspeed:source" v="default residential speed limit in Australia"/>
    <tag k="name" v="Waratah Parade"/>
    <tag k="source:name" v="survey"/>
  </way>
  <way id="19686250" version="6" timestamp="2012-01-15T20:10:59Z" uid="147510" user="woodpeck_fixbot" changeset="10400850">
    <nd ref="194676224"/>
    <nd ref="277894545"/>
    <nd ref="194676589"/>
    <nd ref="618542738"/>
    <tag k="highway" v="residential"/>
    <tag k="name" v="Waratah Parade"/>
    <tag k="source:name" v="survey"/>
  </way>
  <way id="19686273" version="2" timestamp="2009-06-07T02:41:48Z" uid="61114" user="Trav" changeset="1443935">
    <nd ref="204365736"/>
    <nd ref="204365738"/>
    <nd ref="204365739"/>
    <tag k="highway" v="residential"/>
    <tag k="name" v="Janice Place"/>
    <tag k="source:name" v="survey"/>
  </way>
  <way id="19686273" version="3" timestamp="2010-07-07T23:34:26Z" uid="74617" user="JohnSmith" changeset="5162525">
    <nd ref="204365736"/>
    <nd ref="204365738"/>
    <nd ref="204365739"/>
    <tag k="highway" v="residential"/>
    <tag k="maxspeed" v="50"/>
    <tag k="maxspeed:source" v="default residential speed limit in Australia"/>
    <tag k="name" v="Janice Place"/>
    <tag k="source:name" v="survey"/>
  </way>
  <way id="19686273" version="4" timestamp="2012-01-15T20:11:06Z" uid="147510" user="woodpeck_fixbot" changeset="10400850">
    <nd ref="204365736"/>
    <nd ref="204365738"/>
    <nd ref="204365739"/>
    <tag k="highway" v="residential"/>
    <tag k="name" v="Janice Place"/>
    <tag k="source:name" v="survey"/>
  </way>
  <way id="19686290" version="2" timestamp="2009-06-07T02:41:47Z" uid="61114" user="Trav" changeset="1443935">
    <nd ref="204366054"/>
    <nd ref="204366055"/>
    <tag k="highway" v="residential"/>
    <tag k="name" v="Kwani Place"/>
    <tag k="source:name" v="survey"/>
  </way>
  <way id="19686290" version="3" timestamp="2010-07-07T23:34:14Z" uid="74617" user="JohnSmith" changeset="5162525">
    <nd ref="204366054"/>
    <nd ref="204366055"/>
    <tag k="highway" v="residential"/>
    <tag k="maxspeed" v="50"/>
    <tag k="maxspeed:source" v="default residential speed limit in Australia"/>
    <tag k="name" v="Kwani Place"/>
    <tag k="source:name" v="survey"/>
  </way>
  <way id="19686290" version="4" timestamp="2012-01-15T20:11:44Z" uid="147510" user="woodpeck_fixbot" changeset="10400850">
    <nd ref="204366054"/>
    <nd ref="204366055"/>
    <tag k="highway" v="residential"/>
    <tag k="name" v="Kwani Place"/>
    <tag k="source:name" v="survey"/>
  </way>
  <way id="19686365" version="3" timestamp="2009-06-06T03:23:06Z" uid="61114" user="Trav" changeset="1434233">
    <nd ref="204367802"/>
    <nd ref="204368133"/>
    <nd ref="204367804"/>
    <tag k="highway" v="residential"/>
    <tag k="name" v="Karoola Street"/>
    <tag k="source:name" v="survey"/>
  </way>
  <way id="19686365" version="4" timestamp="2009-06-07T22:51:56Z" uid="61114" user="Trav" changeset="1454364">
    <nd ref="204367802"/>
    <nd ref="417235618"/>
    <nd ref="204368133"/>
    <nd ref="204367804"/>
    <tag k="highway" v="residential"/>
    <tag k="name" v="Karoola Street"/>
    <tag k="source:name" v="survey"/>
  </way>
  <way id="19686365" version="5" timestamp="2010-07-07T23:35:29Z" uid="74617" user="JohnSmith" changeset="5162525">
    <nd ref="204367802"/>
    <nd ref="417235618"/>
    <nd ref="204368133"/>
    <nd ref="204367804"/>
    <tag k="highway" v="residential"/>
    <tag k="maxspeed" v="50"/>
    <tag k="maxspeed:source" v="default residential speed limit in Australia"/>
    <tag k="name" v="Karoola Street"/>
    <tag k="source:name" v="survey"/>
  </way>
  <way id="19686365" version="6" timestamp="2012-01-15T20:12:02Z" uid="147510" user="woodpeck_fixbot" changeset="10400850">
    <nd ref="204367802"/>
    <nd ref="417235618"/>
    <nd ref="204368133"/>
    <nd ref="204367804"/>
    <tag k="highway" v="residential"/>
    <tag k="name" v="Karoola Street"/>
    <tag k="source:name" v="survey"/>
  </way>
  <way id="19686380" version="3" timestamp="2009-06-06T03:23:06Z" uid="61114" user="Trav" changeset="1434233">
    <nd ref="204368131"/>
    <nd ref="204368311"/>
    <nd ref="204368133"/>
    <tag k="highway" v="residential"/>
    <tag k="name" v="Chester Place"/>
    <tag k="source:name" v="survey"/>
  </way>
  <way id="19686380" version="4" timestamp="2010-07-07T23:34:29Z" uid="74617" user="JohnSmith" changeset="5162525">
    <nd ref="204368131"/>
    <nd ref="204368311"/>
    <nd ref="204368133"/>
    <tag k="highway" v="residential"/>
    <tag k="maxspeed" v="50"/>
    <tag k="maxspeed:source" v="default residential speed limit in Australia"/>
    <tag k="name" v="Chester Place"/>
    <tag k="source:name" v="survey"/>
  </way>
  <way id="19686380" version="5" timestamp="2012-01-15T20:12:05Z" uid="147510" user="woodpeck_fixbot" changeset="10400850">
    <nd ref="204368131"/>
    <nd ref="204368311"/>
    <nd ref="204368133"/>
    <tag k="highway" v="residential"/>
    <tag k="name" v="Chester Place"/>
    <tag k="source:name" v="survey"/>
  </way>
  <way id="19686417" version="3" timestamp="2009-06-06T03:23:05Z" uid="61114" user="Trav" changeset="1434233">
    <nd ref="204368311"/>
    <nd ref="204369063"/>
    <nd ref="204369064"/>
    <nd ref="204369065"/>
    <nd ref="204369066"/>
    <nd ref="204369069"/>
    <nd ref="204369072"/>
    <nd ref="204369519"/>
    <tag k="highway" v="residential"/>
    <tag k="name" v="Sherwood Crescent"/>
    <tag k="source:name" v="survey"/>
  </way>
  <way id="19686417" version="4" timestamp="2010-07-07T23:33:35Z" uid="74617" user="JohnSmith" changeset="5162525">
    <nd ref="204368311"/>
    <nd ref="204369063"/>
    <nd ref="204369064"/>
    <nd ref="204369065"/>
    <nd ref="204369066"/>
    <nd ref="204369069"/>
    <nd ref="204369072"/>
    <nd ref="204369519"/>
    <tag k="highway" v="residential"/>
    <tag k="maxspeed" v="50"/>
    <tag k="maxspeed:source" v="default residential speed limit in Australia"/>
    <tag k="name" v="Sherwood Crescent"/>
    <tag k="source:name" v="survey"/>
  </way>
  <way id="19686417" version="5" timestamp="2012-01-15T20:12:07Z" uid="147510" user="woodpeck_fixbot" changeset="10400850">
    <nd ref="204368311"/>
    <nd ref="204369063"/>
    <nd ref="204369064"/>
    <nd ref="204369065"/>
    <nd ref="204369066"/>
    <nd ref="204369069"/>
    <nd ref="204369072"/>
    <nd ref="204369519"/>
    <tag k="highway" v="residential"/>
    <tag k="name" v="Sherwood Crescent"/>
    <tag k="source:name" v="survey"/>
  </way>
  <way id="19686445" version="5" timestamp="2009-06-06T03:23:04Z" uid="61114" user="Trav" changeset="1434233">
    <nd ref="204369518"/>
    <nd ref="204369519"/>
    <nd ref="88619076"/>
    <tag k="highway" v="residential"/>
    <tag k="name" v="Gould Avenue"/>
    <tag k="source:name" v="survey"/>
  </way>
  <way id="19686445" version="6" timestamp="2010-07-07T23:35:05Z" uid="74617" user="JohnSmith" changeset="5162525">
    <nd ref="204369518"/>
    <nd ref="204369519"/>
    <nd ref="88619076"/>
    <tag k="highway" v="residential"/>
    <tag k="maxspeed" v="50"/>
    <tag k="maxspeed:source" v="default residential speed limit in Australia"/>
    <tag k="name" v="Gould Avenue"/>
    <tag k="source:name" v="survey"/>
  </way>
  <way id="19686445" version="7" timestamp="2012-01-15T20:12:12Z" uid="147510" user="woodpeck_fixbot" changeset="10400850">
    <nd ref="204369518"/>
    <nd ref="204369519"/>
    <nd ref="88619076"/>
    <tag k="highway" v="residential"/>
    <tag k="name" v="Gould Avenue"/>
    <tag k="source:name" v="survey"/>
  </way>
  <way id="19686536" version="6" timestamp="2009-06-06T03:23:14Z" uid="61114" user="Trav" changeset="1434233">
    <nd ref="204370383"/>
    <nd ref="204371408"/>
    <nd ref="204371409"/>
    <nd ref="204386259"/>
    <nd ref="204371410"/>
    <nd ref="204385986"/>
    <nd ref="204371412"/>
    <nd ref="204371413"/>
    <nd ref="204371415"/>
    <nd ref="204364480"/>
    <nd ref="204371416"/>
    <nd ref="204371418"/>
    <nd ref="204371419"/>
    <nd ref="204371421"/>
    <nd ref="204371422"/>
    <nd ref="204371424"/>
    <nd ref="204380237"/>
    <nd ref="204371877"/>
    <nd ref="204371425"/>
    <tag k="highway" v="residential"/>
    <tag k="name" v="Nalya Road"/>
    <tag k="source:name" v="survey"/>
  </way>
  <way id="19686536" version="7" timestamp="2009-06-07T22:51:54Z" uid="61114" user="Trav" changeset="1454364">
    <nd ref="204370383"/>
    <nd ref="204371408"/>
    <nd ref="204371409"/>
    <nd ref="204386259"/>
    <nd ref="204371410"/>
    <nd ref="204385986"/>
    <nd ref="204371412"/>
    <nd ref="204371413"/>
    <nd ref="204371415"/>
    <nd ref="204364480"/>
    <nd ref="417235617"/>
    <nd ref="204371416"/>
    <nd ref="204371418"/>
    <nd ref="204371419"/>
    <nd ref="204371421"/>
    <nd ref="204371422"/>
    <nd ref="204371424"/>
    <nd ref="204380237"/>
    <nd ref="204371877"/>
    <nd ref="204371425"/>
    <tag k="highway" v="residential"/>
    <tag k="name" v="Nalya Road"/>
    <tag k="source:name" v="survey"/>
  </way>
  <way id="19686536" version="8" timestamp="2010-07-07T23:31:10Z" uid="74617" user="JohnSmith" changeset="5162525">
    <nd ref="204370383"/>
    <nd ref="204371408"/>
    <nd ref="204371409"/>
    <nd ref="204386259"/>
    <nd ref="204371410"/>
    <nd ref="204385986"/>
    <nd ref="204371412"/>
    <nd ref="204371413"/>
    <nd ref="204371415"/>
    <nd ref="204364480"/>
    <nd ref="417235617"/>
    <nd ref="204371416"/>
    <nd ref="204371418"/>
    <nd ref="204371419"/>
    <nd ref="204371421"/>
    <nd ref="204371422"/>
    <nd ref="204371424"/>
    <nd ref="204380237"/>
    <nd ref="204371877"/>
    <nd ref="204371425"/>
    <tag k="highway" v="residential"/>
    <tag k="maxspeed" v="50"/>
    <tag k="maxspeed:source" v="default residential speed limit in Australia"/>
    <tag k="name" v="Nalya Road"/>
    <tag k="source:name" v="survey"/>
  </way>
  <way id="19686536" version="9" timestamp="2012-01-15T20:12:16Z" uid="147510" user="woodpeck_fixbot" changeset="10400850">
    <nd ref="204370383"/>
    <nd ref="204371408"/>
    <nd ref="204371409"/>
    <nd ref="204386259"/>
    <nd ref="204371410"/>
    <nd ref="204385986"/>
    <nd ref="204371412"/>
    <nd ref="204371413"/>
    <nd ref="204371415"/>
    <nd ref="204364480"/>
    <nd ref="417235617"/>
    <nd ref="204371416"/>
    <nd ref="204371418"/>
    <nd ref="204371419"/>
    <nd ref="204371421"/>
    <nd ref="204371422"/>
    <nd ref="204371424"/>
    <nd ref="204380237"/>
    <nd ref="204371877"/>
    <nd ref="204371425"/>
    <tag k="highway" v="residential"/>
    <tag k="name" v="Nalya Road"/>
    <tag k="source:name" v="survey"/>
  </way>
  <way id="19686559" version="2" timestamp="2009-06-07T02:41:46Z" uid="61114" user="Trav" changeset="1443935">
    <nd ref="204371874"/>
    <nd ref="204371875"/>
    <nd ref="204371877"/>
    <tag k="highway" v="residential"/>
    <tag k="name" v="Nyari Way"/>
    <tag k="source:name" v="survey"/>
  </way>
  <way id="19686559" version="3" timestamp="2010-07-07T23:33:45Z" uid="74617" user="JohnSmith" changeset="5162525">
    <nd ref="204371874"/>
    <nd ref="204371875"/>
    <nd ref="204371877"/>
    <tag k="highway" v="residential"/>
    <tag k="maxspeed" v="50"/>
    <tag k="maxspeed:source" v="default residential speed limit in Australia"/>
    <tag k="name" v="Nyari Way"/>
    <tag k="source:name" v="survey"/>
  </way>
  <way id="19686559" version="4" timestamp="2012-01-15T20:12:17Z" uid="147510" user="woodpeck_fixbot" changeset="10400850">
    <nd ref="204371874"/>
    <nd ref="204371875"/>
    <nd ref="204371877"/>
    <tag k="highway" v="residential"/>
    <tag k="name" v="Nyari Way"/>
    <tag k="source:name" v="survey"/>
  </way>
</osm>
