<?xml version='1.0' encoding='UTF-8'?>
<osm version="0.6" generator="libosmium/2.20.0">
  <way id="19690013" version="2" timestamp="2009-02-21T08:18:33Z" uid="61114" user="Trav" changeset="599326">
    <nd ref="204430145"/>
    <nd ref="204430147"/>
    <nd ref="204430148"/>
    <nd ref="204430149"/>
    <tag k="created_by" v="Merkaartor 0.13"/>
    <tag k="highway" v="residential"/>
    <tag k="name" v="Landy Place"/>
    <tag k="source:name" v="survey"/>
  </way>
  <way id="19690013" version="3" timestamp="2010-07-07T23:31:27Z" uid="74617" user="JohnSmith" changeset="5162525">
    <nd ref="204430145"/>
    <nd ref="204430147"/>
    <nd ref="204430148"/>
    <nd ref="204430149"/>
    <tag k="highway" v="residential"/>
    <tag k="maxspeed" v="50"/>
    <tag k="maxspeed:source" v="default residential speed limit in Australia"/>
    <tag k="name" v="Landy Place"/>
    <tag k="source:name" v="survey"/>
  </way>
  <way id="19690013" version="4" timestamp="2012-01-15T20:13:04Z" uid="147510" user="woodpeck_fixbot" changeset="10400850">
    <nd ref="204430145"/>
    <nd ref="204430147"/>
    <nd ref="204430148"/>
    <nd ref="204430149"/>
    <tag k="highway" v="residential"/>
    <tag k="name" v="Landy Place"/>
    <tag k="source:name" v="survey"/>
  </way>
  <way id="19690039" version="2" timestamp="2009-02-21T08:18:30Z" uid="61114" user="Trav" changeset="599326">
    <nd ref="204430508"/>
    <nd ref="32412663"/>
    <tag k="created_by" v="Merkaartor 0.13"/>
    <tag k="highway" v="residential"/>
    <tag k="name" v="Talgara Place"/>
    <tag k="source:name" v="survey"/>
  </way>
  <way id="19690039" version="3" timestamp="2010-07-07T23:32:34Z" uid="74617" user="JohnSmith" changeset="5162525">
    <nd ref="204430508"/>
    <nd ref="32412663"/>
    <tag k="highway" v="residential"/>
    <tag k="maxspeed" v="50"/>
    <tag k="maxspeed:source" v="default residential speed limit in Australia"/>
    <tag k="name" v="Talgara Place"/>
    <tag k="source:name" v="survey"/>
  </way>
  <way id="19690039" version="4" timestamp="2012-01-15T20:13:12Z" uid="147510" user="woodpeck_fixbot" changeset="10400850">
    <nd ref="204430508"/>
    <nd ref="32412663"/>
    <tag k="highway" v="residential"/>
    <tag k="name" v="Talgara Place"/>
    <tag k="source:name" v="survey"/>
  </way>
  <way id="19690234" version="2" timestamp="2009-02-21T08:24:05Z" uid="61114" user="Trav" changeset="599326"/>
  <way id="19690244" version="3" timestamp="2009-02-07T06:24:03Z" uid="61114" user="Trav" changeset="221159">
    <nd ref="204432817"/>
    <nd ref="32412553"/>
    <nd ref="32412554"/>
    <nd ref="29551982"/>
    <tag k="created_by" v="Merkaartor 0.13"/>
    <tag k="highway" v="residential"/>
    <tag k="name" v="Wilandra Road"/>
    <tag k="source:name" v="survey"/>
  </way>
  <way id="19690244" version="4" timestamp="2010-07-07T23:33:19Z" uid="74617" user="JohnSmith" changeset="5162525">
    <nd ref="204432817"/>
    <nd ref="32412553"/>
    <nd ref="32412554"/>
    <nd ref="29551982"/>
    <tag k="highway" v="residential"/>
    <tag k="maxspeed" v="50"/>
    <tag k="maxspeed:source" v="default residential speed limit in Australia"/>
    <tag k="name" v="Wilandra Road"/>
    <tag k="source:name" v="survey"/>
  </way>
  <way id="19690244" version="5" timestamp="2011-11-07T03:31:12Z" uid="77586" user="wolftracker" changeset="9761697">
    <nd ref="204432817"/>
    <nd ref="32412553"/>
    <nd ref="32412554"/>
    <nd ref="29551982"/>
    <tag k="highway" v="residential"/>
    <tag k="maxspeed" v="50"/>
    <tag k="maxspeed:source" v="default residential speed limit in Australia"/>
    <tag k="name" v="Willandra Road"/>
    <tag k="source:name" v="survey"/>
  </way>
  <way id="19690244" version="6" timestamp="2012-01-15T20:13:13Z" uid="147510" user="woodpeck_fixbot" changeset="10400850">
    <nd ref="204432817"/>
    <nd ref="32412553"/>
    <nd ref="32412554"/>
    <nd ref="29551982"/>
    <tag k="highway" v="residential"/>
    <tag k="name" v="Willandra Road"/>
    <tag k="source:name" v="survey"/>
  </way>
  <way id="19690300" version="2" timestamp="2009-02-21T08:18:33Z" uid="61114" user="Trav" changeset="599326">
    <nd ref="204436938"/>
    <nd ref="204436939"/>
    <tag k="created_by" v="Merkaartor 0.13"/>
    <tag k="highway" v="residential"/>
    <tag k="name" v="Henricks Place"/>
    <tag k="source:name" v="survey"/>
  </way>
  <way id="19690300" version="3" timestamp="2010-07-07T23:33:38Z" uid="74617" user="JohnSmith" changeset="5162525">
    <nd ref="204436938"/>
    <nd ref="204436939"/>
    <tag k="highway" v="residential"/>
    <tag k="maxspeed" v="50"/>
    <tag k="maxspeed:source" v="default residential speed limit in Australia"/>
    <tag k="name" v="Henricks Place"/>
    <tag k="source:name" v="survey"/>
  </way>
  <way id="19690300" version="4" timestamp="2012-01-15T20:13:14Z" uid="147510" user="woodpeck_fixbot" changeset="10400850">
    <nd ref="204436938"/>
    <nd ref="204436939"/>
    <tag k="highway" v="residential"/>
    <tag k="name" v="Henricks Place"/>
    <tag k="source:name" v="survey"/>
  </way>
  <way id="19690325" version="2" timestamp="2009-02-08T11:39:22Z" uid="61114" user="Trav" changeset="280751">
    <nd ref="204437795"/>
    <nd ref="204437796"/>
    <tag k="created_by" v="Merkaartor 0.13"/>
    <tag k="highway" v="residential"/>
    <tag k="name" v="Stephen Street"/>
    <tag k="source:name" v="survey"/>
  </way>
  <way id="19690325" version="3" timestamp="2010-07-07T23:36:07Z" uid="74617" user="JohnSmith" changeset="5162525">
    <nd ref="204437795"/>
    <nd ref="204437796"/>
    <tag k="highway" v="residential"/>
    <tag k="maxspeed" v="50"/>
    <tag k="maxspeed:source" v="default residential speed limit in Australia"/>
    <tag k="name" v="Stephen Street"/>
    <tag k="source:name" v="survey"/>
  </way>
  <way id="19690325" version="4" timestamp="2012-01-15T20:13:15Z" uid="147510" user="woodpeck_fixbot" changeset="10400850">
    <nd ref="204437795"/>
    <nd ref="204437796"/>
    <tag k="highway" v="residential"/>
    <tag k="name" v="Stephen Street"/>
    <tag k="source:name" v="survey"/>
  </way>
  <way id="19690385" version="6" timestamp="2009-02-08T11:39:33Z" uid="61114" user="Trav" changeset="280751">
    <nd ref="32406517"/>
    <nd ref="32401373"/>
    <nd ref="204439720"/>
    <nd ref="204441147"/>
    <nd ref="32355486"/>
    <nd ref="32355485"/>
    <nd ref="32355484"/>
    <nd ref="32355483"/>
    <nd ref="32355482"/>
    <nd ref="32355481"/>
    <nd ref="204442125"/>
    <nd ref="32355480"/>
    <nd ref="32355479"/>
    <tag k="created_by" v="Merkaartor 0.13"/>
    <tag k="highway" v="residential"/>
    <tag k="name" v="Alan Stanley Avenue"/>
    <tag k="source:name" v="survey"/>
  </way>
  <way id="19690385" version="7" timestamp="2009-02-08T12:07:51Z" uid="61114" user="Trav" changeset="280751">
    <nd ref="32406517"/>
    <nd ref="32401373"/>
    <nd ref="204439720"/>
    <nd ref="204441147"/>
    <nd ref="32355486"/>
    <nd ref="32355485"/>
    <nd ref="32355484"/>
    <nd ref="32355483"/>
    <nd ref="32355482"/>
    <nd ref="32355481"/>
    <nd ref="204442125"/>
    <nd ref="32355480"/>
    <nd ref="32355479"/>
    <tag k="created_by" v="Merkaartor 0.13"/>
    <tag k="highway" v="residential"/>
    <tag k="name" v="Owen Stanley Avenue"/>
    <tag k="source:name" v="survey"/>
  </way>
  <way id="19690385" version="8" timestamp="2010-07-07T23:32:01Z" uid="74617" user="JohnSmith" changeset="5162525">
    <nd ref="32406517"/>
    <nd ref="32401373"/>
    <nd ref="204439720"/>
    <nd ref="204441147"/>
    <nd ref="32355486"/>
    <nd ref="32355485"/>
    <nd ref="32355484"/>
    <nd ref="32355483"/>
    <nd ref="32355482"/>
    <nd ref="32355481"/>
    <nd ref="204442125"/>
    <nd ref="32355480"/>
    <nd ref="32355479"/>
    <tag k="highway" v="residential"/>
    <tag k="maxspeed" v="50"/>
    <tag k="maxspeed:source" v="default residential speed limit in Australia"/>
    <tag k="name" v="Owen Stanley Avenue"/>
    <tag k="source:name" v="survey"/>
  </way>
  <way id="19690385" version="9" timestamp="2010-10-23T06:13:40Z" uid="7617" user="Franc" changeset="6142273">
    <nd ref="32406517"/>
    <nd ref="961215606"/>
    <nd ref="32401373"/>
    <nd ref="961215580"/>
    <nd ref="961215589"/>
    <nd ref="961215519"/>
    <nd ref="961215596"/>
    <tag k="highway" v="residential"/>
    <tag k="maxspeed" v="50"/>
    <tag k="maxspeed:source" v="default residential speed limit in Australia"/>
    <tag k="name" v="Owen Stanley Avenue"/>
    <tag k="source:name" v="survey"/>
  </way>
  <way id="19690385" version="10" timestamp="2012-01-15T20:13:17Z" uid="147510" user="woodpeck_fixbot" changeset="10400850">
    <nd ref="32406517"/>
    <nd ref="961215606"/>
    <nd ref="32401373"/>
    <nd ref="961215580"/>
    <nd ref="961215589"/>
    <nd ref="961215519"/>
    <nd ref="961215596"/>
    <tag k="highway" v="residential"/>
    <tag k="name" v="Owen Stanley Avenue"/>
    <tag k="source:name" v="survey"/>
  </way>
  <way id="19690426" version="2" timestamp="2009-02-08T11:39:28Z" uid="61114" user="Trav" changeset="280751">
    <nd ref="30385324"/>
    <nd ref="32355533"/>
    <nd ref="32355487"/>
    <nd ref="204439720"/>
    <tag k="created_by" v="Merkaartor 0.13"/>
    <tag k="highway" v="residential"/>
    <tag k="name" v="Ethie Road"/>
    <tag k="source:name" v="survey"/>
  </way>
  <way id="19690426" version="3" timestamp="2010-07-07T23:34:55Z" uid="74617" user="JohnSmith" changeset="5162525">
    <nd ref="30385324"/>
    <nd ref="32355533"/>
    <nd ref="32355487"/>
    <nd ref="204439720"/>
    <tag k="highway" v="residential"/>
    <tag k="maxspeed" v="50"/>
    <tag k="maxspeed:source" v="default residential speed limit in Australia"/>
    <tag k="name" v="Ethie Road"/>
    <tag k="source:name" v="survey"/>
  </way>
  <way id="19690426" version="4" timestamp="2010-10-23T06:13:51Z" uid="7617" user="Franc" changeset="6142273">
    <nd ref="30385324"/>
    <nd ref="32355533"/>
    <nd ref="961215577"/>
    <tag k="highway" v="residential"/>
    <tag k="maxspeed" v="50"/>
    <tag k="maxspeed:source" v="default residential speed limit in Australia"/>
    <tag k="name" v="Ethie Road"/>
    <tag k="source:name" v="survey"/>
  </way>
  <way id="19690426" version="5" timestamp="2012-01-15T20:13:19Z" uid="147510" user="woodpeck_fixbot" changeset="10400850">
    <nd ref="30385324"/>
    <nd ref="32355533"/>
    <nd ref="961215577"/>
    <tag k="highway" v="residential"/>
    <tag k="name" v="Ethie Road"/>
    <tag k="source:name" v="survey"/>
  </way>
  <way id="19690471" version="3" timestamp="2009-02-08T11:39:32Z" uid="61114" user="Trav" changeset="280751">
    <nd ref="204441147"/>
    <nd ref="204442109"/>
    <nd ref="204442111"/>
    <nd ref="204442113"/>
    <nd ref="204442114"/>
    <nd ref="204442115"/>
    <nd ref="204442116"/>
    <nd ref="204442117"/>
    <nd ref="204442118"/>
    <nd ref="204442119"/>
    <nd ref="204442120"/>
    <nd ref="204442121"/>
    <nd ref="204442122"/>
    <nd ref="204442123"/>
    <nd ref="204442125"/>
    <tag k="created_by" v="Merkaartor 0.13"/>
    <tag k="highway" v="residential"/>
    <tag k="name" v="Kokoda Crescent"/>
    <tag k="source:name" v="survey"/>
  </way>
  <way id="19690471" version="4" timestamp="2010-07-07T23:31:54Z" uid="74617" user="JohnSmith" changeset="5162525">
    <nd ref="204441147"/>
    <nd ref="204442109"/>
    <nd ref="204442111"/>
    <nd ref="204442113"/>
    <nd ref="204442114"/>
    <nd ref="204442115"/>
    <nd ref="204442116"/>
    <nd ref="204442117"/>
    <nd ref="204442118"/>
    <nd ref="204442119"/>
    <nd ref="204442120"/>
    <nd ref="204442121"/>
    <nd ref="204442122"/>
    <nd ref="204442123"/>
    <nd ref="204442125"/>
    <tag k="highway" v="residential"/>
    <tag k="maxspeed" v="50"/>
    <tag k="maxspeed:source" v="default residential speed limit in Australia"/>
    <tag k="name" v="Kokoda Crescent"/>
    <tag k="source:name" v="survey"/>
  </way>
  <way id="19690471" version="5" timestamp="2010-10-23T06:13:50Z" uid="7617" user="Franc" changeset="6142273">
    <nd ref="204441147"/>
    <nd ref="204442109"/>
    <nd ref="204442111"/>
    <nd ref="204442113"/>
    <nd ref="204442114"/>
    <nd ref="204442115"/>
    <nd ref="204442116"/>
    <nd ref="204442117"/>
    <nd ref="961215607"/>
    <nd ref="204442118"/>
    <nd ref="204442119"/>
    <nd ref="204442121"/>
    <nd ref="961215645"/>
    <nd ref="204442122"/>
    <nd ref="204442125"/>
    <tag k="highway" v="residential"/>
    <tag k="maxspeed" v="50"/>
    <tag k="maxspeed:source" v="default residential speed limit in Australia"/>
    <tag k="name" v="Kokoda Crescent"/>
    <tag k="source:name" v="survey"/>
  </way>
  <way id="19690471" version="6" timestamp="2012-01-15T20:13:21Z" uid="147510" user="woodpeck_fixbot" changeset="10400850">
    <nd ref="204441147"/>
    <nd ref="204442109"/>
    <nd ref="204442111"/>
    <nd ref="204442113"/>
    <nd ref="204442114"/>
    <nd ref="204442115"/>
    <nd ref="204442116"/>
    <nd ref="204442117"/>
    <nd ref="961215607"/>
    <nd ref="204442118"/>
    <nd ref="204442119"/>
    <nd ref="204442121"/>
    <nd ref="961215645"/>
    <nd ref="204442122"/>
    <nd ref="204442125"/>
    <tag k="highway" v="residential"/>
    <tag k="name" v="Kokoda Crescent"/>
    <tag k="source:name" v="survey"/>
  </way>
  <way id="19690510" version="3" timestamp="2009-02-08T11:39:31Z" uid="61114" user="Trav" changeset="280751">
    <nd ref="32356324"/>
    <nd ref="32356323"/>
    <nd ref="32356322"/>
    <nd ref="204443968"/>
    <nd ref="204443704"/>
    <tag k="created_by" v="Merkaartor 0.13"/>
    <tag k="highway" v="residential"/>
    <tag k="name" v="Wyarama Street"/>
    <tag k="source:name" v="survey"/>
  </way>
  <way id="19690510" version="4" timestamp="2010-07-07T23:32:58Z" uid="74617" user="JohnSmith" changeset="5162525">
    <nd ref="32356324"/>
    <nd ref="32356323"/>
    <nd ref="32356322"/>
    <nd ref="204443968"/>
    <nd ref="204443704"/>
    <tag k="highway" v="residential"/>
    <tag k="maxspeed" v="50"/>
    <tag k="maxspeed:source" v="default residential speed limit in Australia"/>
    <tag k="name" v="Wyarama Street"/>
    <tag k="source:name" v="survey"/>
  </way>
  <way id="19690510" version="5" timestamp="2012-01-15T20:13:23Z" uid="147510" user="woodpeck_fixbot" changeset="10400850">
    <nd ref="32356324"/>
    <nd ref="32356323"/>
    <nd ref="32356322"/>
    <nd ref="204443968"/>
    <nd ref="204443704"/>
    <tag k="highway" v="residential"/>
    <tag k="name" v="Wyarama Street"/>
    <tag k="source:name" v="survey"/>
  </way>
  <way id="19690590" version="3" timestamp="2009-02-08T11:39:35Z" uid="61114" user="Trav" changeset="280751">
    <nd ref="204443968"/>
    <nd ref="204444574"/>
    <tag k="created_by" v="Merkaartor 0.13"/>
    <tag k="highway" v="residential"/>
    <tag k="name" v="Kurrabi Road"/>
    <tag k="source:name" v="survey"/>
  </way>
  <way id="19690590" version="4" timestamp="2010-07-07T23:33:38Z" uid="74617" user="JohnSmith" changeset="5162525">
    <nd ref="204443968"/>
    <nd ref="204444574"/>
    <tag k="highway" v="residential"/>
    <tag k="maxspeed" v="50"/>
    <tag k="maxspeed:source" v="default residential speed limit in Australia"/>
    <tag k="name" v="Kurrabi Road"/>
    <tag k="source:name" v="survey"/>
  </way>
  <way id="19690590" version="5" timestamp="2012-01-15T20:13:25Z" uid="147510" user="woodpeck_fixbot" changeset="10400850">
    <nd ref="204443968"/>
    <nd ref="204444574"/>
    <tag k="highway" v="residential"/>
    <tag k="name" v="Kurrabi Road"/>
    <tag k="source:name" v="survey"/>
  </way>
  <way id="19690608" version="2" timestamp="2009-02-08T12:07:49Z" uid="61114" user="Trav" changeset="280751">
    <nd ref="32401041"/>
    <nd ref="204446394"/>
    <nd ref="204446395"/>
    <tag k="created_by" v="Merkaartor 0.13"/>
    <tag k="highway" v="residential"/>
    <tag k="name" v="Lae Place"/>
  </way>
  <way id="19690608" version="3" timestamp="2010-07-07T23:34:38Z" uid="74617" user="JohnSmith" changeset="5162525">
    <nd ref="32401041"/>
    <nd ref="204446394"/>
    <nd ref="204446395"/>
    <tag k="highway" v="residential"/>
    <tag k="maxspeed" v="50"/>
    <tag k="maxspeed:source" v="default residential speed limit in Australia"/>
    <tag k="name" v="Lae Place"/>
  </way>
  <way id="19690608" version="4" timestamp="2012-01-15T20:13:26Z" uid="147510" user="woodpeck_fixbot" changeset="10400850">
    <nd ref="32401041"/>
    <nd ref="204446394"/>
    <nd ref="204446395"/>
    <tag k="highway" v="residential"/>
    <tag k="name" v="Lae Place"/>
  </way>
  <way id="19690624" version="2" timestamp="2009-02-08T12:07:48Z" uid="61114" user="Trav" changeset="280751">
    <nd ref="204446755"/>
    <nd ref="204446756"/>
    <tag k="created_by" v="Merkaartor 0.13"/>
    <tag k="highway" v="residential"/>
    <tag k="name" v="Lena Avenue"/>
    <tag k="source:name" v="survey"/>
  </way>
  <way id="19690624" version="3" timestamp="2010-07-07T23:35:49Z" uid="74617" user="JohnSmith" changeset="5162525">
    <nd ref="204446755"/>
    <nd ref="204446756"/>
    <tag k="highway" v="residential"/>
    <tag k="maxspeed" v="50"/>
    <tag k="maxspeed:source" v="default residential speed limit in Australia"/>
    <tag k="name" v="Lena Avenue"/>
    <tag k="source:name" v="survey"/>
  </way>
  <way id="19690624" version="4" timestamp="2012-01-15T20:13:28Z" uid="147510" user="woodpeck_fixbot" changeset="10400850">
    <nd ref="204446755"/>
    <nd ref="204446756"/>
    <tag k="highway" v="residential"/>
    <tag k="name" v="Lena Avenue"/>
    <tag k="source:name" v="survey"/>
  </way>
  <way id="19690670" version="2" timestamp="2009-02-08T12:07:55Z" uid="61114" user="Trav" changeset="280751">
    <nd ref="204447757"/>
    <nd ref="204448060"/>
    <nd ref="204448061"/>
    <tag k="created_by" v="Merkaartor 0.13"/>
    <tag k="highway" v="residential"/>
    <tag k="name" v="Palermo Place"/>
    <tag k="source:name" v="survey"/>
  </way>
  <way id="19690670" version="3" timestamp="2010-07-07T23:34:13Z" uid="74617" user="JohnSmith" changeset="5162525">
    <nd ref="204447757"/>
    <nd ref="204448060"/>
    <nd ref="204448061"/>
    <tag k="highway" v="residential"/>
    <tag k="maxspeed" v="50"/>
    <tag k="maxspeed:source" v="default residential speed limit in Australia"/>
    <tag k="name" v="Palermo Place"/>
    <tag k="source:name" v="survey"/>
  </way>
  <way id="19690670" version="4" timestamp="2012-01-15T20:13:29Z" uid="147510" user="woodpeck_fixbot" changeset="10400850">
    <nd ref="204447757"/>
    <nd ref="204448060"/>
    <nd ref="204448061"/>
    <tag k="highway" v="residential"/>
    <tag k="name" v="Palermo Place"/>
    <tag k="source:name" v="survey"/>
  </way>
  <way id="19690692" version="2" timestamp="2009-02-08T12:07:58Z" uid="61114" user="Trav" changeset="280751">
    <nd ref="204448606"/>
    <nd ref="32406973"/>
    <tag k="created_by" v="Merkaartor 0.13"/>
    <tag k="highway" v="residential"/>
    <tag k="name" v="Cassino Close"/>
    <tag k="source:name" v="survey"/>
  </way>
  <way id="19690692" version="3" timestamp="2010-07-07T23:33:48Z" uid="74617" user="JohnSmith" changeset="5162525">
    <nd ref="204448606"/>
    <nd ref="32406973"/>
    <tag k="highway" v="residential"/>
    <tag k="maxspeed" v="50"/>
    <tag k="maxspeed:source" v="default residential speed limit in Australia"/>
    <tag k="name" v="Cassino Close"/>
    <tag k="source:name" v="survey"/>
  </way>
  <way id="19690692" version="4" timestamp="2012-01-15T20:13:30Z" uid="147510" user="woodpeck_fixbot" changeset="10400850">
    <nd ref="204448606"/>
    <nd ref="32406973"/>
    <tag k="highway" v="residential"/>
    <tag k="name" v="Cassino Close"/>
    <tag k="source:name" v="survey"/>
  </way>
  <way id="19690799" version="2" timestamp="2009-02-08T12:08:04Z" uid="61114" user="Trav" changeset="280751">
    <nd ref="204451645"/>
    <nd ref="204451646"/>
    <nd ref="204451647"/>
    <nd ref="204451648"/>
    <tag k="created_by" v="Merkaartor 0.13"/>
    <tag k="highway" v="residential"/>
    <tag k="name" v="Owen Stanley Avenue"/>
    <tag k="source:name" v="survey"/>
  </way>
  <way id="19690799" version="3" timestamp="2010-07-07T23:34:16Z" uid="74617" user="JohnSmith" changeset="5162525">
    <nd ref="204451645"/>
    <nd ref="204451646"/>
    <nd ref="204451647"/>
    <nd ref="204451648"/>
    <tag k="highway" v="residential"/>
    <tag k="maxspeed" v="50"/>
    <tag k="maxspeed:source" v="default residential speed limit in Australia"/>
    <tag k="name" v="Owen Stanley Avenue"/>
    <tag k="source:name" v="survey"/>
  </way>
  <way id="19690799" version="4" timestamp="2012-01-15T20:13:33Z" uid="147510" user="woodpeck_fixbot" changeset="10400850">
    <nd ref="204451645"/>
    <nd ref="204451646"/>
    <nd ref="204451647"/>
    <nd ref="204451648"/>
    <tag k="highway" v="residential"/>
    <tag k="name" v="Owen Stanley Avenue"/>
    <tag k="source:name" v="survey"/>
  </way>
  <way id="19690847" version="3" timestamp="2009-02-08T12:08:02Z" uid="61114" user="Trav" changeset="280751">
    <nd ref="32407029"/>
    <nd ref="32407028"/>
    <nd ref="32407027"/>
    <nd ref="32407026"/>
    <nd ref="204453414"/>
    <tag k="created_by" v="Merkaartor 0.13"/>
    <tag k="highway" v="residential"/>
    <tag k="name" v="Moresby Place"/>
    <tag k="source:name" v="survey"/>
  </way>
  <way id="19690847" version="4" timestamp="2010-07-07T23:32:44Z" uid="74617" user="JohnSmith" changeset="5162525">
    <nd ref="32407029"/>
    <nd ref="32407028"/>
    <nd ref="32407027"/>
    <nd ref="32407026"/>
    <nd ref="204453414"/>
    <tag k="highway" v="residential"/>
    <tag k="maxspeed" v="50"/>
    <tag k="maxspeed:source" v="default residential speed limit in Australia"/>
    <tag k="name" v="Moresby Place"/>
    <tag k="source:name" v="survey"/>
  </way>
  <way id="19690847" version="5" timestamp="2012-01-15T20:13:34Z" uid="147510" user="woodpeck_fixbot" changeset="10400850">
    <nd ref="32407029"/>
    <nd ref="32407028"/>
    <nd ref="32407027"/>
    <nd ref="32407026"/>
    <nd ref="204453414"/>
    <tag k="highway" v="residential"/>
    <tag k="name" v="Moresby Place"/>
    <tag k="source:name" v="survey"/>
  </way>
  <way id="19690897" version="8" timestamp="2010-04-04T23:23:57Z" uid="74617" user="JohnSmith" changeset="4327637">
    <nd ref="204454537"/>
    <nd ref="204454023"/>
    <tag k="bicycle" v="yes"/>
    <tag k="bridge" v="yes"/>
    <tag k="highway" v="motorway"/>
    <tag k="lanes" v="3"/>
    <tag k="layer" v="1"/>
    <tag k="loc_name" v="Maltby Bypass"/>
    <tag k="maxspeed" v="100"/>
    <tag k="name" v="Princes Freeway"/>
    <tag k="oneway" v="yes"/>
    <tag k="ref" v="M1"/>
    <tag k="source" v="survey;Yahoo"/>
  </way>
  <way id="19690897" version="9" timestamp="2010-04-05T08:31:02Z" uid="74617" user="JohnSmith" changeset="4330247">
    <nd ref="204454537"/>
    <nd ref="204454023"/>
    <tag k="bicycle" v="yes"/>
    <tag k="bridge" v="yes"/>
    <tag k="highway" v="motorway"/>
    <tag k="lanes" v="3"/>
    <tag k="layer" v="1"/>
    <tag k="maxspeed" v="100"/>
    <tag k="oneway" v="yes"/>
    <tag k="source" v="survey;Yahoo"/>
  </way>
  <way id="19690897" version="10" timestamp="2011-12-18T03:56:55Z" uid="569841" user="geeoutlier" changeset="10143567">
    <nd ref="204454537"/>
    <nd ref="204454023"/>
    <tag k="bicycle" v="yes"/>
    <tag k="bridge" v="yes"/>
    <tag k="highway" v="motorway"/>
    <tag k="lanes" v="3"/>
    <tag k="layer" v="1"/>
    <tag k="maxspeed" v="100"/>
    <tag k="oneway" v="yes"/>
    <tag k="ref" v="M1"/>
    <tag k="source" v="survey;Yahoo"/>
  </way>
  <way id="19690902" version="6" timestamp="2010-04-04T23:23:56Z" uid="74617" user="JohnSmith" changeset="4327637">
    <nd ref="204454011"/>
    <nd ref="204454012"/>
    <tag k="bicycle" v="yes"/>
    <tag k="bridge" v="yes"/>
    <tag k="highway" v="motorway"/>
    <tag k="lanes" v="3"/>
    <tag k="layer" v="1"/>
    <tag k="loc_name" v="Maltby Bypass"/>
    <tag k="maxspeed" v="100"/>
    <tag k="name" v="Princes Freeway"/>
    <tag k="oneway" v="yes"/>
    <tag k="ref" v="M1"/>
    <tag k="source" v="survey;Yahoo"/>
  </way>
  <way id="19690902" version="7" timestamp="2010-04-05T08:31:02Z" uid="74617" user="JohnSmith" changeset="4330247">
    <nd ref="204454011"/>
    <nd ref="204454012"/>
    <tag k="bicycle" v="yes"/>
    <tag k="bridge" v="yes"/>
    <tag k="highway" v="motorway"/>
    <tag k="lanes" v="3"/>
    <tag k="layer" v="1"/>
    <tag k="maxspeed" v="100"/>
    <tag k="oneway" v="yes"/>
    <tag k="source" v="survey;Yahoo"/>
  </way>
  <way id="19690902" version="8" timestamp="2011-12-18T03:56:55Z" uid="569841" user="geeoutlier" changeset="10143567">
    <nd ref="204454011"/>
    <nd ref="204454012"/>
    <tag k="bicycle" v="yes"/>
    <tag k="bridge" v="yes"/>
    <tag k="highway" v="motorway"/>
    <tag k="lanes" v="3"/>
    <tag k="layer" v="1"/>
    <tag k="maxspeed" v="100"/>
    <tag k="oneway" v="yes"/>
    <tag k="ref" v="M1"/>
    <tag k="source" v="survey;Yahoo"/>
  </way>
  <way id="19690905" version="11" timestamp="2010-04-04T23:23:56Z" uid="74617" user="JohnSmith" changeset="4327637">
    <nd ref="204454012"/>
    <nd ref="282810986"/>
    <tag k="bicycle" v="yes"/>
    <tag k="highway" v="motorway"/>
    <tag k="lanes" v="3"/>
    <tag k="loc_name" v="Maltby Bypass"/>
    <tag k="maxspeed" v="100"/>
    <tag k="name" v="Princes Freeway"/>
    <tag k="oneway" v="yes"/>
    <tag k="ref" v="M1"/>
    <tag k="source" v="survey;Yahoo"/>
  </way>
  <way id="19690905" version="12" timestamp="2010-04-05T08:31:01Z" uid="74617" user="JohnSmith" changeset="4330247">
    <nd ref="204454012"/>
    <nd ref="282810986"/>
    <tag k="bicycle" v="yes"/>
    <tag k="highway" v="motorway"/>
    <tag k="lanes" v="3"/>
    <tag k="maxspeed" v="100"/>
    <tag k="name" v="Maltby Bypass"/>
    <tag k="oneway" v="yes"/>
    <tag k="source" v="survey;Yahoo"/>
  </way>
  <way id="19690918" version="3" timestamp="2009-02-08T12:08:06Z" uid="61114" user="Trav" changeset="280751">
    <nd ref="204454324"/>
    <nd ref="204455427"/>
    <nd ref="204455428"/>
    <nd ref="204455429"/>
    <nd ref="204455430"/>
    <nd ref="204455432"/>
    <nd ref="204455434"/>
    <nd ref="204455435"/>
    <nd ref="204455437"/>
    <nd ref="204455438"/>
    <nd ref="204458119"/>
    <nd ref="204455439"/>
    <nd ref="204455441"/>
    <tag k="created_by" v="Merkaartor 0.13"/>
    <tag k="highway" v="residential"/>
    <tag k="name" v="Kirra Road"/>
    <tag k="source:name" v="survey"/>
  </way>
  <way id="19690918" version="4" timestamp="2010-07-07T23:34:14Z" uid="74617" user="JohnSmith" changeset="5162525">
    <nd ref="204454324"/>
    <nd ref="204455427"/>
    <nd ref="204455428"/>
    <nd ref="204455429"/>
    <nd ref="204455430"/>
    <nd ref="204455432"/>
    <nd ref="204455434"/>
    <nd ref="204455435"/>
    <nd ref="204455437"/>
    <nd ref="204455438"/>
    <nd ref="204458119"/>
    <nd ref="204455439"/>
    <nd ref="204455441"/>
    <tag k="highway" v="residential"/>
    <tag k="maxspeed" v="50"/>
    <tag k="maxspeed:source" v="default residential speed limit in Australia"/>
    <tag k="name" v="Kirra Road"/>
    <tag k="source:name" v="survey"/>
  </way>
  <way id="19690918" version="5" timestamp="2010-10-23T00:06:39Z" uid="7617" user="Franc" changeset="6141289">
    <nd ref="204454324"/>
    <nd ref="204455427"/>
    <nd ref="204455428"/>
    <nd ref="204455429"/>
    <nd ref="204455430"/>
    <nd ref="204455432"/>
    <nd ref="204455434"/>
    <nd ref="204455437"/>
    <nd ref="204455438"/>
    <nd ref="204458119"/>
    <nd ref="960941879"/>
    <nd ref="204455439"/>
    <nd ref="960941970"/>
    <nd ref="204455441"/>
    <tag k="highway" v="residential"/>
    <tag k="maxspeed" v="50"/>
    <tag k="maxspeed:source" v="default residential speed limit in Australia"/>
    <tag k="name" v="Kirra Road"/>
    <tag k="source:name" v="survey"/>
  </way>
  <way id="19690918" version="6" timestamp="2012-01-15T20:13:37Z" uid="147510" user="woodpeck_fixbot" changeset="10400850">
    <nd ref="204454324"/>
    <nd ref="204455427"/>
    <nd ref="204455428"/>
    <nd ref="204455429"/>
    <nd ref="204455430"/>
    <nd ref="204455432"/>
    <nd ref="204455434"/>
    <nd ref="204455437"/>
    <nd ref="204455438"/>
    <nd ref="204458119"/>
    <nd ref="960941879"/>
    <nd ref="204455439"/>
    <nd ref="960941970"/>
    <nd ref="204455441"/>
    <tag k="highway" v="residential"/>
    <tag k="name" v="Kirra Road"/>
    <tag k="source:name" v="survey"/>
  </way>
</osm>
