<?xml version='1.0' encoding='UTF-8'?>
<osm version="0.6" generator="libosmium/2.20.0">
  <way id="19710021" version="3" timestamp="2009-08-03T22:29:12Z" uid="4467" user="Rosscoe" changeset="2030878"/>
  <way id="19710060" version="4" timestamp="2008-04-01T21:53:09Z" uid="17602" user="B10xyz" changeset="11942">
    <nd ref="204776576"/>
    <nd ref="204775887"/>
    <nd ref="204775888"/>
    <nd ref="204775889"/>
    <nd ref="204776363"/>
    <nd ref="204775891"/>
    <nd ref="204775892"/>
    <nd ref="204775893"/>
    <nd ref="204775894"/>
    <nd ref="204775895"/>
    <nd ref="204775897"/>
    <nd ref="69587580"/>
    <tag k="created_by" v="Potlatch 0.6"/>
    <tag k="highway" v="residential"/>
  </way>
  <way id="19710060" version="5" timestamp="2008-09-12T11:49:34Z" uid="40801" user="friedemann2811" changeset="611864">
    <nd ref="204776576"/>
    <nd ref="204775887"/>
    <nd ref="204775888"/>
    <nd ref="204775889"/>
    <nd ref="204776363"/>
    <nd ref="204775891"/>
    <nd ref="204775892"/>
    <nd ref="204775893"/>
    <tag k="created_by" v="Potlatch 0.10b"/>
    <tag k="highway" v="residential"/>
  </way>
  <way id="19710060" version="6" timestamp="2008-09-12T11:49:53Z" uid="40801" user="friedemann2811" changeset="611864">
    <nd ref="204776576"/>
    <nd ref="204775887"/>
    <nd ref="204775888"/>
    <nd ref="204775889"/>
    <nd ref="204776363"/>
    <nd ref="204775891"/>
    <nd ref="204775892"/>
    <nd ref="204775893"/>
    <tag k="created_by" v="Potlatch 0.10b"/>
    <tag k="highway" v="residential"/>
    <tag k="name" v="Dolomitenstraße"/>
  </way>
  <way id="19710060" version="7" timestamp="2008-12-14T12:26:33Z" uid="85114" user="netbui" changeset="387021">
    <nd ref="204776576"/>
    <nd ref="318597398"/>
    <nd ref="204775887"/>
    <nd ref="204775888"/>
    <nd ref="204775889"/>
    <nd ref="204776363"/>
    <nd ref="204775891"/>
    <nd ref="204775892"/>
    <nd ref="204775893"/>
    <tag k="created_by" v="Potlatch 0.10f"/>
    <tag k="highway" v="residential"/>
    <tag k="name" v="Dolomitenstraße"/>
  </way>
  <way id="19710060" version="8" timestamp="2008-12-22T11:38:44Z" uid="85114" user="netbui" changeset="540038">
    <nd ref="204776576"/>
    <nd ref="318597398"/>
    <nd ref="204775887"/>
    <nd ref="204775888"/>
    <nd ref="204775889"/>
    <nd ref="320873328"/>
    <nd ref="204776363"/>
    <nd ref="204775891"/>
    <nd ref="204775892"/>
    <nd ref="204775893"/>
    <tag k="created_by" v="Potlatch 0.10f"/>
    <tag k="highway" v="residential"/>
    <tag k="name" v="Dolomitenstraße"/>
  </way>
  <way id="19710446" version="3" timestamp="2010-07-06T09:51:40Z" uid="74617" user="JohnSmith" changeset="5147679">
    <nd ref="204780467"/>
    <nd ref="204779741"/>
    <tag k="highway" v="residential"/>
    <tag k="maxspeed" v="50"/>
    <tag k="maxspeed:source" v="default residential speed limit in Australia"/>
    <tag k="name" v="Carfin Street"/>
  </way>
  <way id="19710446" version="4" timestamp="2012-01-15T20:17:14Z" uid="147510" user="woodpeck_fixbot" changeset="10400850">
    <nd ref="204780467"/>
    <nd ref="204779741"/>
    <tag k="highway" v="residential"/>
    <tag k="name" v="Carfin Street"/>
  </way>
  <way id="19710535" version="2" timestamp="2010-07-06T09:51:11Z" uid="74617" user="JohnSmith" changeset="5147679">
    <nd ref="26343645"/>
    <nd ref="26343644"/>
    <nd ref="26343643"/>
    <nd ref="197221945"/>
    <tag k="highway" v="residential"/>
    <tag k="maxspeed" v="50"/>
    <tag k="maxspeed:source" v="default residential speed limit in Australia"/>
    <tag k="name" v="Ascot Street"/>
  </way>
  <way id="19710535" version="3" timestamp="2012-01-15T20:17:15Z" uid="147510" user="woodpeck_fixbot" changeset="10400850">
    <nd ref="26343645"/>
    <nd ref="26343644"/>
    <nd ref="26343643"/>
    <nd ref="197221945"/>
    <tag k="highway" v="residential"/>
    <tag k="name" v="Ascot Street"/>
  </way>
  <way id="19710566" version="2" timestamp="2010-07-06T09:50:25Z" uid="74617" user="JohnSmith" changeset="5147679">
    <nd ref="197221944"/>
    <nd ref="204783273"/>
    <tag k="highway" v="residential"/>
    <tag k="maxspeed" v="50"/>
    <tag k="maxspeed:source" v="default residential speed limit in Australia"/>
    <tag k="name" v="Ormond Street"/>
  </way>
  <way id="19710566" version="3" timestamp="2011-10-13T14:48:53Z" uid="537163" user="tombarber" changeset="9547792">
    <nd ref="197221944"/>
    <nd ref="204783273"/>
    <tag k="access" v="yes"/>
    <tag k="bicycle" v="yes"/>
    <tag k="cycleway" v="no"/>
    <tag k="foot" v="designated"/>
    <tag k="highway" v="residential"/>
    <tag k="lanes" v="2"/>
    <tag k="maxspeed" v="50"/>
    <tag k="maxspeed:source" v="default residential speed limit in Australia"/>
    <tag k="motor_vehicle" v="yes"/>
    <tag k="name" v="Ormond Street"/>
    <tag k="oneway" v="no"/>
    <tag k="surface" v="asphalt"/>
  </way>
  <way id="19710566" version="4" timestamp="2012-01-15T20:17:16Z" uid="147510" user="woodpeck_fixbot" changeset="10400850">
    <nd ref="197221944"/>
    <nd ref="204783273"/>
    <tag k="access" v="yes"/>
    <tag k="bicycle" v="yes"/>
    <tag k="cycleway" v="no"/>
    <tag k="foot" v="designated"/>
    <tag k="highway" v="residential"/>
    <tag k="lanes" v="2"/>
    <tag k="motor_vehicle" v="yes"/>
    <tag k="name" v="Ormond Street"/>
    <tag k="oneway" v="no"/>
    <tag k="surface" v="asphalt"/>
  </way>
  <way id="19710619" version="3" timestamp="2010-07-06T09:50:18Z" uid="74617" user="JohnSmith" changeset="5147679">
    <nd ref="197206944"/>
    <nd ref="204785677"/>
    <nd ref="204785678"/>
    <nd ref="204785680"/>
    <nd ref="204785681"/>
    <nd ref="204785683"/>
    <tag k="highway" v="residential"/>
    <tag k="maxspeed" v="50"/>
    <tag k="maxspeed:source" v="default residential speed limit in Australia"/>
    <tag k="name" v="Stafford Street"/>
  </way>
  <way id="19710619" version="4" timestamp="2012-01-15T20:17:18Z" uid="147510" user="woodpeck_fixbot" changeset="10400850">
    <nd ref="197206944"/>
    <nd ref="204785677"/>
    <nd ref="204785678"/>
    <nd ref="204785680"/>
    <nd ref="204785681"/>
    <nd ref="204785683"/>
    <tag k="highway" v="residential"/>
    <tag k="name" v="Stafford Street"/>
  </way>
  <way id="19710632" version="2" timestamp="2010-07-06T09:52:47Z" uid="74617" user="JohnSmith" changeset="5147679">
    <nd ref="26343636"/>
    <nd ref="204786304"/>
    <tag k="highway" v="residential"/>
    <tag k="maxspeed" v="50"/>
    <tag k="maxspeed:source" v="default residential speed limit in Australia"/>
    <tag k="name" v="Hunter Lane"/>
  </way>
  <way id="19710632" version="3" timestamp="2012-01-15T20:17:19Z" uid="147510" user="woodpeck_fixbot" changeset="10400850">
    <nd ref="26343636"/>
    <nd ref="204786304"/>
    <tag k="highway" v="residential"/>
    <tag k="name" v="Hunter Lane"/>
  </way>
  <way id="19710753" version="2" timestamp="2010-07-06T09:51:42Z" uid="74617" user="JohnSmith" changeset="5147679">
    <nd ref="26342962"/>
    <nd ref="204790425"/>
    <tag k="highway" v="residential"/>
    <tag k="maxspeed" v="50"/>
    <tag k="maxspeed:source" v="default residential speed limit in Australia"/>
    <tag k="name" v="Beaufort Lane"/>
  </way>
  <way id="19710753" version="3" timestamp="2012-01-15T20:17:21Z" uid="147510" user="woodpeck_fixbot" changeset="10400850">
    <nd ref="26342962"/>
    <nd ref="204790425"/>
    <tag k="highway" v="residential"/>
    <tag k="name" v="Beaufort Lane"/>
  </way>
  <way id="19710768" version="3" timestamp="2010-07-06T09:49:32Z" uid="74617" user="JohnSmith" changeset="5147679">
    <nd ref="26342965"/>
    <nd ref="26342994"/>
    <nd ref="204790970"/>
    <tag k="highway" v="residential"/>
    <tag k="maxspeed" v="50"/>
    <tag k="maxspeed:source" v="default residential speed limit in Australia"/>
    <tag k="name" v="Enderley Avenue"/>
  </way>
  <way id="19710768" version="4" timestamp="2012-01-15T20:17:22Z" uid="147510" user="woodpeck_fixbot" changeset="10400850">
    <nd ref="26342965"/>
    <nd ref="26342994"/>
    <nd ref="204790970"/>
    <tag k="highway" v="residential"/>
    <tag k="name" v="Enderley Avenue"/>
  </way>
  <way id="19710791" version="2" timestamp="2010-07-06T09:48:23Z" uid="74617" user="JohnSmith" changeset="5147679">
    <nd ref="26342965"/>
    <nd ref="204791819"/>
    <tag k="highway" v="residential"/>
    <tag k="maxspeed" v="50"/>
    <tag k="maxspeed:source" v="default residential speed limit in Australia"/>
    <tag k="name" v="Apex Street"/>
  </way>
  <way id="19710791" version="3" timestamp="2012-01-15T20:17:23Z" uid="147510" user="woodpeck_fixbot" changeset="10400850">
    <nd ref="26342965"/>
    <nd ref="204791819"/>
    <tag k="highway" v="residential"/>
    <tag k="name" v="Apex Street"/>
  </way>
  <way id="19710811" version="4" timestamp="2010-07-06T09:49:25Z" uid="74617" user="JohnSmith" changeset="5147679">
    <nd ref="204792342"/>
    <nd ref="26342993"/>
    <nd ref="204185795"/>
    <nd ref="193593708"/>
    <tag k="highway" v="residential"/>
    <tag k="maxspeed" v="50"/>
    <tag k="maxspeed:source" v="default residential speed limit in Australia"/>
    <tag k="name" v="Crombie Street"/>
  </way>
  <way id="19710811" version="5" timestamp="2012-01-15T20:17:24Z" uid="147510" user="woodpeck_fixbot" changeset="10400850">
    <nd ref="204792342"/>
    <nd ref="26342993"/>
    <nd ref="204185795"/>
    <nd ref="193593708"/>
    <tag k="highway" v="residential"/>
    <tag k="name" v="Crombie Street"/>
  </way>
  <way id="19710812" version="2" timestamp="2010-07-06T09:49:09Z" uid="74617" user="JohnSmith" changeset="5147679">
    <nd ref="26342959"/>
    <nd ref="26342980"/>
    <nd ref="26342967"/>
    <nd ref="26342966"/>
    <nd ref="26342965"/>
    <nd ref="197308805"/>
    <nd ref="204792342"/>
    <tag k="highway" v="residential"/>
    <tag k="maxspeed" v="50"/>
    <tag k="maxspeed:source" v="default residential speed limit in Australia"/>
    <tag k="name" v="Enderley Road"/>
  </way>
  <way id="19710812" version="3" timestamp="2012-01-15T20:17:25Z" uid="147510" user="woodpeck_fixbot" changeset="10400850">
    <nd ref="26342959"/>
    <nd ref="26342980"/>
    <nd ref="26342967"/>
    <nd ref="26342966"/>
    <nd ref="26342965"/>
    <nd ref="197308805"/>
    <nd ref="204792342"/>
    <tag k="highway" v="residential"/>
    <tag k="name" v="Enderley Road"/>
  </way>
</osm>
