<?xml version='1.0' encoding='UTF-8'?>
<osm version="0.6" generator="libosmium/2.20.0">
  <way id="19735001" version="3" timestamp="2008-10-16T18:09:46Z" uid="49111" user="Markus B" changeset="380014">
    <nd ref="205172405"/>
    <nd ref="205172408"/>
    <nd ref="205172411"/>
    <nd ref="205172415"/>
    <nd ref="205172418"/>
    <nd ref="205172424"/>
    <nd ref="205172426"/>
    <nd ref="205172402"/>
    <nd ref="205172428"/>
    <nd ref="205172405"/>
    <tag k="created_by" v="Potlatch 0.10e"/>
    <tag k="landuse" v="forest"/>
  </way>
  <way id="19735001" version="4" timestamp="2010-09-06T05:16:56Z" uid="238266" user="bangla" changeset="5694552">
    <nd ref="205172405"/>
    <nd ref="205172408"/>
    <nd ref="205172411"/>
    <nd ref="205172415"/>
    <nd ref="205172418"/>
    <nd ref="205172424"/>
    <nd ref="205172426"/>
    <nd ref="205172402"/>
    <nd ref="205172428"/>
    <nd ref="205172405"/>
    <tag k="landuse" v="forest"/>
  </way>
  <way id="19735055" version="3" timestamp="2008-07-04T07:04:23Z" uid="6975" user="ulfl" changeset="389415">
    <nd ref="205173418"/>
    <nd ref="205173319"/>
    <tag k="amenity" v="parking"/>
  </way>
  <way id="19735055" version="4" timestamp="2009-02-14T09:22:56Z" uid="18407" user="thomas1904" changeset="417893">
    <nd ref="205173418"/>
    <nd ref="205173319"/>
    <tag k="highway" v="service"/>
    <tag k="service" v="parking_aisle"/>
  </way>
  <way id="19735055" version="5" timestamp="2010-09-26T13:12:45Z" uid="161893" user="DreiElfen" changeset="5880621">
    <nd ref="205173418"/>
    <nd ref="926616511"/>
    <nd ref="926616510"/>
    <nd ref="205173319"/>
    <tag k="highway" v="service"/>
    <tag k="service" v="parking_aisle"/>
  </way>
  <way id="19735055" version="6" timestamp="2012-01-20T13:05:43Z" uid="408202" user="BFX" changeset="10445151"/>
  <way id="19735797" version="4" timestamp="2011-03-14T15:22:10Z" uid="30632" user="antblant" changeset="7557419">
    <nd ref="26457420"/>
    <nd ref="30981310"/>
    <nd ref="30981961"/>
    <nd ref="30982358"/>
    <nd ref="30982392"/>
    <nd ref="30982159"/>
    <nd ref="30981811"/>
    <nd ref="30980210"/>
    <nd ref="30981128"/>
    <nd ref="1201684231"/>
    <nd ref="30981235"/>
    <nd ref="30981013"/>
    <nd ref="30981439"/>
    <nd ref="30981822"/>
    <nd ref="30980467"/>
    <nd ref="30982383"/>
    <nd ref="1201684258"/>
    <nd ref="30982470"/>
    <nd ref="30981119"/>
    <nd ref="30982468"/>
    <nd ref="30980834"/>
    <nd ref="30981321"/>
    <nd ref="30980141"/>
    <tag k="highway" v="tertiary"/>
    <tag k="maxheight" v="3.5"/>
  </way>
  <way id="19735800" version="6" timestamp="2009-04-13T20:21:26Z" uid="30632" user="antblant" changeset="487279">
    <nd ref="33753063"/>
    <nd ref="33753064"/>
    <nd ref="207025564"/>
    <nd ref="33753066"/>
    <nd ref="33753067"/>
    <nd ref="207026097"/>
    <nd ref="33753068"/>
    <nd ref="33753069"/>
    <nd ref="205186583"/>
    <tag k="abutters" v="residential"/>
    <tag k="created_by" v="Potlatch 0.10f"/>
    <tag k="highway" v="primary"/>
    <tag k="maxspeed" v="50"/>
    <tag k="name" v="Wojska Polskiego"/>
    <tag k="ref" v="20"/>
  </way>
  <way id="19735800" version="7" timestamp="2009-05-15T08:02:38Z" uid="107566" user="Yabba" changeset="1196121">
    <nd ref="33753063"/>
    <nd ref="33753064"/>
    <nd ref="207025564"/>
    <nd ref="33753066"/>
    <nd ref="33753067"/>
    <nd ref="207026097"/>
    <nd ref="33753068"/>
    <nd ref="33753069"/>
    <nd ref="205186583"/>
    <tag k="abutters" v="residential"/>
    <tag k="created_by" v="Potlatch 0.10f"/>
    <tag k="highway" v="primary"/>
    <tag k="maxspeed" v="50"/>
    <tag k="name" v="Wojska Polskiego"/>
    <tag k="ref" v="20,214"/>
  </way>
  <way id="19735800" version="8" timestamp="2011-03-14T15:22:19Z" uid="30632" user="antblant" changeset="7557419">
    <nd ref="33753063"/>
    <nd ref="33753064"/>
    <nd ref="207025564"/>
    <nd ref="33753066"/>
    <nd ref="33753067"/>
    <nd ref="207026097"/>
    <nd ref="33753068"/>
    <nd ref="1201684318"/>
    <nd ref="33753069"/>
    <nd ref="205186583"/>
    <tag k="abutters" v="residential"/>
    <tag k="highway" v="primary"/>
    <tag k="maxspeed" v="50"/>
    <tag k="name" v="Wojska Polskiego"/>
    <tag k="ref" v="20,214"/>
  </way>
  <way id="19735801" version="2" timestamp="2009-04-13T20:21:04Z" uid="30632" user="antblant" changeset="487279">
    <nd ref="33753063"/>
    <nd ref="205186575"/>
    <nd ref="205186578"/>
    <nd ref="26458211"/>
    <tag k="created_by" v="Potlatch 0.10f"/>
    <tag k="highway" v="primary"/>
    <tag k="oneway" v="yes"/>
    <tag k="ref" v="20"/>
  </way>
  <way id="19735801" version="3" timestamp="2009-05-15T08:02:50Z" uid="107566" user="Yabba" changeset="1196121">
    <nd ref="33753063"/>
    <nd ref="205186575"/>
    <nd ref="205186578"/>
    <nd ref="26458211"/>
    <tag k="created_by" v="Potlatch 0.10f"/>
    <tag k="highway" v="primary"/>
    <tag k="oneway" v="yes"/>
    <tag k="ref" v="20,214"/>
  </way>
  <way id="19735802" version="3" timestamp="2009-04-13T20:21:32Z" uid="30632" user="antblant" changeset="487279">
    <nd ref="205186583"/>
    <nd ref="205186586"/>
    <nd ref="33753070"/>
    <nd ref="205200351"/>
    <nd ref="33753071"/>
    <tag k="abutters" v="residential"/>
    <tag k="created_by" v="Potlatch 0.10f"/>
    <tag k="highway" v="primary"/>
    <tag k="name" v="Wojska Polskiego"/>
    <tag k="ref" v="20"/>
  </way>
  <way id="19735802" version="4" timestamp="2009-05-15T08:02:10Z" uid="107566" user="Yabba" changeset="1196121">
    <nd ref="205186583"/>
    <nd ref="205186586"/>
    <nd ref="33753070"/>
    <nd ref="205200351"/>
    <nd ref="33753071"/>
    <tag k="abutters" v="residential"/>
    <tag k="created_by" v="Potlatch 0.10f"/>
    <tag k="highway" v="primary"/>
    <tag k="name" v="Wojska Polskiego"/>
    <tag k="ref" v="20,214"/>
  </way>
</osm>
