<?xml version='1.0' encoding='UTF-8'?>
<osm version="0.6" generator="libosmium/2.20.0">
  <way id="19814044" version="5" timestamp="2010-07-06T08:34:01Z" uid="74617" user="JohnSmith" changeset="5147679">
    <nd ref="156803134"/>
    <nd ref="206679268"/>
    <nd ref="206679270"/>
    <nd ref="206679274"/>
    <tag k="highway" v="residential"/>
    <tag k="maxspeed" v="50"/>
    <tag k="maxspeed:source" v="default residential speed limit in Australia"/>
    <tag k="name" v="Regatta Street"/>
  </way>
  <way id="19814044" version="6" timestamp="2012-01-15T20:34:11Z" uid="147510" user="woodpeck_fixbot" changeset="10402983">
    <nd ref="156803134"/>
    <nd ref="206679268"/>
    <nd ref="206679270"/>
    <nd ref="206679274"/>
    <tag k="highway" v="residential"/>
    <tag k="name" v="Regatta Street"/>
  </way>
  <way id="19814283" version="10" timestamp="2010-07-06T08:30:10Z" uid="74617" user="JohnSmith" changeset="5147679">
    <nd ref="262263242"/>
    <nd ref="605280766"/>
    <nd ref="206679274"/>
    <nd ref="206686132"/>
    <nd ref="206686133"/>
    <nd ref="206231157"/>
    <nd ref="206686136"/>
    <nd ref="206686137"/>
    <nd ref="206686138"/>
    <nd ref="206686139"/>
    <nd ref="206690268"/>
    <nd ref="206690267"/>
    <nd ref="206690266"/>
    <nd ref="206244503"/>
    <tag k="highway" v="residential"/>
    <tag k="maxspeed" v="50"/>
    <tag k="maxspeed:source" v="default residential speed limit in Australia"/>
    <tag k="name" v="Longman Terrace"/>
  </way>
  <way id="19814283" version="11" timestamp="2012-01-15T20:34:15Z" uid="147510" user="woodpeck_fixbot" changeset="10402983">
    <nd ref="262263242"/>
    <nd ref="605280766"/>
    <nd ref="206679274"/>
    <nd ref="206686132"/>
    <nd ref="206686133"/>
    <nd ref="206231157"/>
    <nd ref="206686136"/>
    <nd ref="206686137"/>
    <nd ref="206686138"/>
    <nd ref="206686139"/>
    <nd ref="206690268"/>
    <nd ref="206690267"/>
    <nd ref="206690266"/>
    <nd ref="206244503"/>
    <tag k="highway" v="residential"/>
    <tag k="name" v="Longman Terrace"/>
  </way>
  <way id="19814415" version="5" timestamp="2010-07-06T08:31:54Z" uid="74617" user="JohnSmith" changeset="5147679">
    <nd ref="206686132"/>
    <nd ref="206689154"/>
    <tag k="highway" v="residential"/>
    <tag k="maxspeed" v="50"/>
    <tag k="maxspeed:source" v="default residential speed limit in Australia"/>
    <tag k="name" v="Regatta Street"/>
  </way>
  <way id="19814415" version="6" timestamp="2012-01-15T20:34:16Z" uid="147510" user="woodpeck_fixbot" changeset="10402983">
    <nd ref="206686132"/>
    <nd ref="206689154"/>
    <tag k="highway" v="residential"/>
    <tag k="name" v="Regatta Street"/>
  </way>
  <way id="19814420" version="44" timestamp="2010-03-27T23:27:46Z" uid="20587" user="balrog-kun" changeset="4250871">
    <nd ref="246295694"/>
    <nd ref="353134066"/>
    <tag k="bridge" v="yes"/>
    <tag k="created_by" v="Potlatch 0.10f"/>
    <tag k="highway" v="motorway"/>
    <tag k="layer" v="1"/>
    <tag k="name" v="Junipero Serra Freeway"/>
    <tag k="oneway" v="yes"/>
    <tag k="ref" v="I 280"/>
    <tag k="tiger:cfcc" v="A11"/>
    <tag k="tiger:county" v="Santa Clara, CA"/>
    <tag k="tiger:name_base" v="I-280"/>
    <tag k="tiger:name_base_1" v="Sinclair"/>
    <tag k="tiger:name_type_1" v="Fwy"/>
    <tag k="tiger:separated" v="no"/>
    <tag k="tiger:source" v="tiger_import_dch_v0.6_20070809"/>
    <tag k="tiger:tlid" v="122909183:122987613:122998261:122987588:122968748:122909128:122909135:122985934:122908893:122908860:122908869:122985935:122908774:122908782:122908012:122908770:122967278:122908873:122909172:122909173:122909542:122909553:122909562:122909580:122909588:12290"/>
  </way>
  <way id="19814420" version="45" timestamp="2010-05-20T08:29:19Z" uid="14293" user="dahveed76" changeset="4754914">
    <nd ref="246295694"/>
    <nd ref="353134066"/>
    <tag k="bridge" v="yes"/>
    <tag k="highway" v="motorway"/>
    <tag k="layer" v="1"/>
    <tag k="name" v="Junipero Serra Freeway"/>
    <tag k="oneway" v="yes"/>
    <tag k="ref" v="I 280"/>
    <tag k="tiger:cfcc" v="A11"/>
    <tag k="tiger:county" v="Santa Clara, CA"/>
    <tag k="tiger:name_base" v="I-280"/>
    <tag k="tiger:name_base_1" v="Sinclair"/>
    <tag k="tiger:name_type_1" v="Fwy"/>
    <tag k="tiger:separated" v="no"/>
    <tag k="tiger:source" v="tiger_import_dch_v0.6_20070809"/>
    <tag k="tiger:tlid" v="122909183:122987613:122998261:122987588:122968748:122909128:122909135:122985934:122908893:122908860:122908869:122985935:122908774:122908782:122908012:122908770:122967278:122908873:122909172:122909173:122909542:122909553:122909562:122909580:122909588:12290"/>
  </way>
  <way id="19814420" version="46" timestamp="2011-07-31T11:46:17Z" uid="207745" user="NE2" changeset="8880034">
    <nd ref="246295694"/>
    <nd ref="353134066"/>
    <tag k="bridge" v="yes"/>
    <tag k="highway" v="motorway"/>
    <tag k="lanes" v="4"/>
    <tag k="layer" v="1"/>
    <tag k="name" v="Sinclair Freeway"/>
    <tag k="oneway" v="yes"/>
    <tag k="ref" v="I 280"/>
    <tag k="tiger:cfcc" v="A11"/>
    <tag k="tiger:county" v="Santa Clara, CA"/>
    <tag k="tiger:name_base" v="I-280"/>
    <tag k="tiger:name_base_1" v="Sinclair"/>
    <tag k="tiger:name_type_1" v="Fwy"/>
    <tag k="tiger:separated" v="no"/>
    <tag k="tiger:source" v="tiger_import_dch_v0.6_20070809"/>
    <tag k="tiger:tlid" v="122909183:122987613:122998261:122987588:122968748:122909128:122909135:122985934:122908893:122908860:122908869:122985935:122908774:122908782:122908012:122908770:122967278:122908873:122909172:122909173:122909542:122909553:122909562:122909580:122909588:12290"/>
  </way>
  <way id="19814420" version="47" timestamp="2011-11-25T15:20:25Z" uid="207745" user="NE2" changeset="9943893">
    <nd ref="246295694"/>
    <nd ref="353134066"/>
    <tag k="bridge" v="yes"/>
    <tag k="hgv" v="designated"/>
    <tag k="highway" v="motorway"/>
    <tag k="lanes" v="4"/>
    <tag k="layer" v="1"/>
    <tag k="name" v="Sinclair Freeway"/>
    <tag k="oneway" v="yes"/>
    <tag k="ref" v="I 280"/>
    <tag k="tiger:cfcc" v="A11"/>
    <tag k="tiger:county" v="Santa Clara, CA"/>
    <tag k="tiger:name_base" v="I-280"/>
    <tag k="tiger:name_base_1" v="Sinclair"/>
    <tag k="tiger:name_type_1" v="Fwy"/>
    <tag k="tiger:separated" v="no"/>
    <tag k="tiger:source" v="tiger_import_dch_v0.6_20070809"/>
    <tag k="tiger:tlid" v="122909183:122987613:122998261:122987588:122968748:122909128:122909135:122985934:122908893:122908860:122908869:122985935:122908774:122908782:122908012:122908770:122967278:122908873:122909172:122909173:122909542:122909553:122909562:122909580:122909588:12290"/>
  </way>
  <way id="19814599" version="3" timestamp="2010-07-06T08:33:32Z" uid="74617" user="JohnSmith" changeset="5147679">
    <nd ref="206686137"/>
    <nd ref="206693918"/>
    <nd ref="206693919"/>
    <nd ref="206693920"/>
    <nd ref="206693921"/>
    <nd ref="206693922"/>
    <tag k="highway" v="residential"/>
    <tag k="maxspeed" v="50"/>
    <tag k="maxspeed:source" v="default residential speed limit in Australia"/>
    <tag k="name" v="Sutton Street"/>
  </way>
  <way id="19814599" version="4" timestamp="2012-01-15T20:34:18Z" uid="147510" user="woodpeck_fixbot" changeset="10402983">
    <nd ref="206686137"/>
    <nd ref="206693918"/>
    <nd ref="206693919"/>
    <nd ref="206693920"/>
    <nd ref="206693921"/>
    <nd ref="206693922"/>
    <tag k="highway" v="residential"/>
    <tag k="name" v="Sutton Street"/>
  </way>
</osm>
