<?xml version='1.0' encoding='UTF-8'?>
<osm version="0.6" generator="libosmium/2.20.0">
  <way id="19826010" version="6" timestamp="2010-07-09T17:25:19Z" uid="74617" user="JohnSmith" changeset="5175333">
    <nd ref="206944270"/>
    <nd ref="206968292"/>
    <nd ref="206966600"/>
    <nd ref="206968343"/>
    <nd ref="206955982"/>
    <tag k="highway" v="residential"/>
    <tag k="maxspeed" v="50"/>
    <tag k="maxspeed:source" v="default residential speed limit in Australia"/>
    <tag k="name" v="Reginald  Street"/>
  </way>
  <way id="19826010" version="7" timestamp="2011-10-08T10:01:13Z" uid="485152" user="samps" changeset="9500845">
    <nd ref="206944270"/>
    <nd ref="206968292"/>
    <nd ref="206966600"/>
    <nd ref="1458535256"/>
    <nd ref="206968343"/>
    <nd ref="206955982"/>
    <tag k="highway" v="residential"/>
    <tag k="maxspeed" v="50"/>
    <tag k="maxspeed:source" v="default residential speed limit in Australia"/>
    <tag k="name" v="Reginald  Street"/>
  </way>
  <way id="19826010" version="8" timestamp="2012-01-15T20:36:19Z" uid="147510" user="woodpeck_fixbot" changeset="10402983">
    <nd ref="206944270"/>
    <nd ref="206968292"/>
    <nd ref="206966600"/>
    <nd ref="1458535256"/>
    <nd ref="206968343"/>
    <nd ref="206955982"/>
    <tag k="highway" v="residential"/>
    <tag k="name" v="Reginald  Street"/>
  </way>
  <way id="19826022" version="6" timestamp="2010-07-09T17:28:06Z" uid="74617" user="JohnSmith" changeset="5175333">
    <nd ref="206966129"/>
    <nd ref="206967081"/>
    <nd ref="206967706"/>
    <nd ref="206969479"/>
    <nd ref="593721862"/>
    <nd ref="593721861"/>
    <nd ref="206966597"/>
    <nd ref="593721858"/>
    <tag k="highway" v="residential"/>
    <tag k="maxspeed" v="50"/>
    <tag k="maxspeed:source" v="default residential speed limit in Australia"/>
    <tag k="name" v="Ayer Road"/>
    <tag k="note" v="FIXME check names"/>
  </way>
  <way id="19826022" version="7" timestamp="2011-08-28T10:14:28Z" uid="485152" user="samps" changeset="9145521">
    <nd ref="206966129"/>
    <nd ref="206967706"/>
    <nd ref="206969479"/>
    <nd ref="593721862"/>
    <nd ref="593721861"/>
    <nd ref="206966597"/>
    <nd ref="593721858"/>
    <tag k="highway" v="residential"/>
    <tag k="maxspeed" v="50"/>
    <tag k="maxspeed:source" v="default residential speed limit in Australia"/>
    <tag k="name" v="Ayer Road"/>
    <tag k="note" v="FIXME check names"/>
  </way>
  <way id="19826022" version="8" timestamp="2012-01-15T20:36:21Z" uid="147510" user="woodpeck_fixbot" changeset="10402983">
    <nd ref="206966129"/>
    <nd ref="206967706"/>
    <nd ref="206969479"/>
    <nd ref="593721862"/>
    <nd ref="593721861"/>
    <nd ref="206966597"/>
    <nd ref="593721858"/>
    <tag k="highway" v="residential"/>
    <tag k="name" v="Ayer Road"/>
    <tag k="note" v="FIXME check names"/>
  </way>
  <way id="19826037" version="3" timestamp="2010-07-09T17:20:59Z" uid="74617" user="JohnSmith" changeset="5175333">
    <nd ref="206967081"/>
    <nd ref="206967310"/>
    <nd ref="593721900"/>
    <tag k="highway" v="residential"/>
    <tag k="maxspeed" v="50"/>
    <tag k="maxspeed:source" v="default residential speed limit in Australia"/>
    <tag k="name" v="Marrawar Way"/>
    <tag k="note" v="FIXME check names"/>
  </way>
  <way id="19826037" version="4" timestamp="2011-08-28T10:12:40Z" uid="485152" user="samps" changeset="9145521">
    <nd ref="206956493"/>
    <nd ref="206967081"/>
    <nd ref="206967310"/>
    <nd ref="593721900"/>
    <tag k="highway" v="residential"/>
    <tag k="maxspeed" v="50"/>
    <tag k="maxspeed:source" v="default residential speed limit in Australia"/>
    <tag k="name" v="Wannell Street"/>
    <tag k="note" v="FIXME check names"/>
    <tag k="oneway" v="no"/>
  </way>
  <way id="19826037" version="5" timestamp="2011-08-28T10:14:29Z" uid="485152" user="samps" changeset="9145521"/>
  <way id="19826055" version="3" timestamp="2010-07-09T17:22:54Z" uid="74617" user="JohnSmith" changeset="5175333">
    <nd ref="206967706"/>
    <nd ref="206968291"/>
    <nd ref="593721856"/>
    <nd ref="206968292"/>
    <tag k="highway" v="residential"/>
    <tag k="maxspeed" v="50"/>
    <tag k="maxspeed:source" v="default residential speed limit in Australia"/>
    <tag k="name" v="Munja Way"/>
  </way>
  <way id="19826055" version="4" timestamp="2011-08-21T08:48:20Z" uid="485152" user="samps" changeset="9081750">
    <nd ref="206967706"/>
    <nd ref="206968291"/>
    <nd ref="593721856"/>
    <nd ref="206968292"/>
    <tag k="highway" v="residential"/>
    <tag k="maxspeed" v="50"/>
    <tag k="maxspeed:source" v="default residential speed limit in Australia"/>
    <tag k="name" v="Retchford Wy"/>
    <tag k="oneway" v="no"/>
  </way>
  <way id="19826055" version="5" timestamp="2012-01-15T20:36:23Z" uid="147510" user="woodpeck_fixbot" changeset="10402983">
    <nd ref="206967706"/>
    <nd ref="206968291"/>
    <nd ref="593721856"/>
    <nd ref="206968292"/>
    <tag k="highway" v="residential"/>
    <tag k="name" v="Retchford Wy"/>
    <tag k="oneway" v="no"/>
  </way>
  <way id="19826063" version="2" timestamp="2010-07-09T17:25:30Z" uid="74617" user="JohnSmith" changeset="5175333">
    <nd ref="206968343"/>
    <nd ref="206968582"/>
    <tag k="highway" v="residential"/>
    <tag k="maxspeed" v="50"/>
    <tag k="maxspeed:source" v="default residential speed limit in Australia"/>
    <tag k="name" v="Cooloon Court"/>
  </way>
  <way id="19826063" version="3" timestamp="2011-10-08T10:21:15Z" uid="485152" user="samps" changeset="9501025"/>
  <way id="19826085" version="3" timestamp="2010-07-09T17:20:38Z" uid="74617" user="JohnSmith" changeset="5175333">
    <nd ref="206969479"/>
    <nd ref="593721868"/>
    <nd ref="206969818"/>
    <nd ref="593721873"/>
    <nd ref="593721897"/>
    <nd ref="593721899"/>
    <nd ref="593721900"/>
    <tag k="highway" v="residential"/>
    <tag k="maxspeed" v="50"/>
    <tag k="maxspeed:source" v="default residential speed limit in Australia"/>
    <tag k="name" v="Hoy Place"/>
    <tag k="note" v="FIXME check names"/>
    <tag k="oneway" v="yes"/>
  </way>
  <way id="19826085" version="4" timestamp="2012-01-15T20:36:25Z" uid="147510" user="woodpeck_fixbot" changeset="10402983">
    <nd ref="206969479"/>
    <nd ref="593721868"/>
    <nd ref="206969818"/>
    <nd ref="593721873"/>
    <nd ref="593721897"/>
    <nd ref="593721899"/>
    <nd ref="593721900"/>
    <tag k="highway" v="residential"/>
    <tag k="name" v="Hoy Place"/>
    <tag k="note" v="FIXME check names"/>
    <tag k="oneway" v="yes"/>
  </way>
  <way id="19826150" version="2" timestamp="2010-07-09T17:27:21Z" uid="74617" user="JohnSmith" changeset="5175333">
    <nd ref="206970504"/>
    <nd ref="206971406"/>
    <tag k="highway" v="residential"/>
    <tag k="maxspeed" v="50"/>
    <tag k="maxspeed:source" v="default residential speed limit in Australia"/>
    <tag k="name" v="Lovett Place"/>
  </way>
  <way id="19826150" version="3" timestamp="2012-01-15T20:36:28Z" uid="147510" user="woodpeck_fixbot" changeset="10402983">
    <nd ref="206970504"/>
    <nd ref="206971406"/>
    <tag k="highway" v="residential"/>
    <tag k="name" v="Lovett Place"/>
  </way>
  <way id="19826160" version="3" timestamp="2010-07-09T17:28:16Z" uid="74617" user="JohnSmith" changeset="5175333">
    <nd ref="206971453"/>
    <nd ref="206972140"/>
    <nd ref="206972141"/>
    <nd ref="206972143"/>
    <tag k="highway" v="residential"/>
    <tag k="maxspeed" v="50"/>
    <tag k="maxspeed:source" v="default residential speed limit in Australia"/>
    <tag k="name" v="Norbertine"/>
  </way>
  <way id="19826160" version="4" timestamp="2012-01-15T20:36:29Z" uid="147510" user="woodpeck_fixbot" changeset="10402983">
    <nd ref="206971453"/>
    <nd ref="206972140"/>
    <nd ref="206972141"/>
    <nd ref="206972143"/>
    <tag k="highway" v="residential"/>
    <tag k="name" v="Norbertine"/>
  </way>
  <way id="19826171" version="2" timestamp="2010-07-09T17:27:48Z" uid="74617" user="JohnSmith" changeset="5175333">
    <nd ref="206972140"/>
    <nd ref="206972506"/>
    <tag k="highway" v="residential"/>
    <tag k="maxspeed" v="50"/>
    <tag k="maxspeed:source" v="default residential speed limit in Australia"/>
    <tag k="name" v="Mercy Mews"/>
  </way>
  <way id="19826171" version="3" timestamp="2012-01-15T20:36:30Z" uid="147510" user="woodpeck_fixbot" changeset="10402983">
    <nd ref="206972140"/>
    <nd ref="206972506"/>
    <tag k="highway" v="residential"/>
    <tag k="name" v="Mercy Mews"/>
  </way>
  <way id="19826242" version="4" timestamp="2010-04-23T02:29:11Z" uid="4467" user="Rosscoe" changeset="4500268">
    <nd ref="206972900"/>
    <nd ref="704211541"/>
    <tag k="highway" v="residential"/>
    <tag k="name" v="Mary Mckillop Glen"/>
  </way>
  <way id="19826242" version="5" timestamp="2010-07-09T17:20:27Z" uid="74617" user="JohnSmith" changeset="5175333">
    <nd ref="206972900"/>
    <nd ref="704211541"/>
    <tag k="highway" v="residential"/>
    <tag k="maxspeed" v="50"/>
    <tag k="maxspeed:source" v="default residential speed limit in Australia"/>
    <tag k="name" v="Mary Mckillop Glen"/>
  </way>
  <way id="19826242" version="6" timestamp="2012-01-15T20:36:31Z" uid="147510" user="woodpeck_fixbot" changeset="10402983">
    <nd ref="206972900"/>
    <nd ref="704211541"/>
    <tag k="highway" v="residential"/>
    <tag k="name" v="Mary Mckillop Glen"/>
  </way>
  <way id="19826260" version="2" timestamp="2010-04-23T02:29:11Z" uid="4467" user="Rosscoe" changeset="4500268">
    <nd ref="206974306"/>
    <nd ref="704211536"/>
    <tag k="highway" v="residential"/>
    <tag k="name" v="Salesian Close"/>
  </way>
  <way id="19826260" version="3" timestamp="2010-07-09T17:27:37Z" uid="74617" user="JohnSmith" changeset="5175333">
    <nd ref="206974306"/>
    <nd ref="704211536"/>
    <tag k="highway" v="residential"/>
    <tag k="maxspeed" v="50"/>
    <tag k="maxspeed:source" v="default residential speed limit in Australia"/>
    <tag k="name" v="Salesian Close"/>
  </way>
  <way id="19826260" version="4" timestamp="2012-01-15T20:36:35Z" uid="147510" user="woodpeck_fixbot" changeset="10402983">
    <nd ref="206974306"/>
    <nd ref="704211536"/>
    <tag k="highway" v="residential"/>
    <tag k="name" v="Salesian Close"/>
  </way>
  <way id="19826277" version="2" timestamp="2010-04-23T02:29:11Z" uid="4467" user="Rosscoe" changeset="4500268">
    <nd ref="704211540"/>
    <nd ref="206974631"/>
    <tag k="highway" v="residential"/>
    <tag k="name" v="Oblate Retreat"/>
  </way>
  <way id="19826277" version="3" timestamp="2010-07-09T17:27:59Z" uid="74617" user="JohnSmith" changeset="5175333">
    <nd ref="704211540"/>
    <nd ref="206974631"/>
    <tag k="highway" v="residential"/>
    <tag k="maxspeed" v="50"/>
    <tag k="maxspeed:source" v="default residential speed limit in Australia"/>
    <tag k="name" v="Oblate Retreat"/>
  </way>
  <way id="19826277" version="4" timestamp="2012-01-15T20:36:36Z" uid="147510" user="woodpeck_fixbot" changeset="10402983">
    <nd ref="704211540"/>
    <nd ref="206974631"/>
    <tag k="highway" v="residential"/>
    <tag k="name" v="Oblate Retreat"/>
  </way>
  <way id="19826290" version="3" timestamp="2010-07-09T17:26:11Z" uid="74617" user="JohnSmith" changeset="5175333">
    <nd ref="206975413"/>
    <nd ref="588456460"/>
    <nd ref="206974631"/>
    <nd ref="206975414"/>
    <nd ref="206975415"/>
    <tag k="highway" v="residential"/>
    <tag k="maxspeed" v="50"/>
    <tag k="maxspeed:source" v="default residential speed limit in Australia"/>
    <tag k="name" v="Ursuline Vista"/>
  </way>
  <way id="19826290" version="4" timestamp="2012-01-15T20:36:38Z" uid="147510" user="woodpeck_fixbot" changeset="10402983">
    <nd ref="206975413"/>
    <nd ref="588456460"/>
    <nd ref="206974631"/>
    <nd ref="206975414"/>
    <nd ref="206975415"/>
    <tag k="highway" v="residential"/>
    <tag k="name" v="Ursuline Vista"/>
  </way>
  <way id="19826330" version="2" timestamp="2010-07-09T17:20:55Z" uid="74617" user="JohnSmith" changeset="5175333">
    <nd ref="206976607"/>
    <nd ref="206976862"/>
    <tag k="highway" v="residential"/>
    <tag k="maxspeed" v="50"/>
    <tag k="maxspeed:source" v="default residential speed limit in Australia"/>
    <tag k="name" v="Ruseell Street"/>
  </way>
  <way id="19826330" version="3" timestamp="2012-01-15T20:36:40Z" uid="147510" user="woodpeck_fixbot" changeset="10402983">
    <nd ref="206976607"/>
    <nd ref="206976862"/>
    <tag k="highway" v="residential"/>
    <tag k="name" v="Ruseell Street"/>
  </way>
  <way id="19826355" version="2" timestamp="2010-07-09T17:22:32Z" uid="74617" user="JohnSmith" changeset="5175333">
    <nd ref="200598921"/>
    <nd ref="206977515"/>
    <nd ref="206977516"/>
    <tag k="highway" v="residential"/>
    <tag k="maxspeed" v="50"/>
    <tag k="maxspeed:source" v="default residential speed limit in Australia"/>
    <tag k="name" v="Redshank Close"/>
  </way>
  <way id="19826355" version="3" timestamp="2012-01-15T20:36:42Z" uid="147510" user="woodpeck_fixbot" changeset="10402983">
    <nd ref="200598921"/>
    <nd ref="206977515"/>
    <nd ref="206977516"/>
    <tag k="highway" v="residential"/>
    <tag k="name" v="Redshank Close"/>
  </way>
  <way id="19826370" version="5" timestamp="2009-05-01T20:41:05Z" uid="6269" user="Mueck" changeset="1042081">
    <nd ref="30247017"/>
    <nd ref="30247019"/>
    <nd ref="30247020"/>
    <nd ref="30247021"/>
    <nd ref="30247022"/>
    <nd ref="31502271"/>
    <nd ref="31502272"/>
    <nd ref="31502273"/>
    <nd ref="31502274"/>
    <tag k="created_by" v="Potlatch 0.9a"/>
    <tag k="highway" v="trunk"/>
    <tag k="maxspeed" v="100"/>
    <tag k="motorroad" v="yes"/>
    <tag k="oneway" v="yes"/>
    <tag k="ref" v="B 10"/>
  </way>
  <way id="19826370" version="6" timestamp="2009-05-23T10:14:51Z" uid="7010" user="GarryX3D" changeset="1293586">
    <nd ref="30247017"/>
    <nd ref="30247019"/>
    <nd ref="30247020"/>
    <nd ref="30247021"/>
    <nd ref="30247022"/>
    <tag k="construction" v="yes"/>
    <tag k="created_by" v="Potlatch 0.9a"/>
    <tag k="highway" v="trunk"/>
    <tag k="maxspeed" v="100"/>
    <tag k="motorroad" v="yes"/>
    <tag k="oneway" v="yes"/>
    <tag k="ref" v="B 10"/>
  </way>
  <way id="19826370" version="7" timestamp="2009-06-16T23:50:19Z" uid="6269" user="Mueck" changeset="1540579">
    <nd ref="30247017"/>
    <nd ref="30247019"/>
    <nd ref="30247020"/>
    <nd ref="30247021"/>
    <nd ref="30247022"/>
    <tag k="construction" v="trunk"/>
    <tag k="created_by" v="Potlatch 0.9a"/>
    <tag k="highway" v="construction"/>
    <tag k="maxspeed" v="100"/>
    <tag k="motorroad" v="yes"/>
    <tag k="oneway" v="yes"/>
    <tag k="ref" v="B 10"/>
  </way>
  <way id="19826370" version="8" timestamp="2009-06-16T23:53:43Z" uid="6269" user="Mueck" changeset="1540587">
    <nd ref="30247017"/>
    <nd ref="30247019"/>
    <nd ref="30247020"/>
    <nd ref="30247021"/>
    <nd ref="30247022"/>
    <tag k="created_by" v="Potlatch 0.9a"/>
  </way>
  <way id="19826370" version="9" timestamp="2009-06-16T23:54:17Z" uid="6269" user="Mueck" changeset="1540587">
    <nd ref="30247017"/>
    <nd ref="30247019"/>
    <nd ref="30247020"/>
    <nd ref="30247021"/>
    <tag k="created_by" v="Potlatch 0.9a"/>
  </way>
  <way id="19826370" version="10" timestamp="2009-06-18T13:19:08Z" uid="6269" user="Mueck" changeset="1554529">
    <nd ref="30247017"/>
    <nd ref="30247019"/>
    <nd ref="30247020"/>
    <nd ref="30247021"/>
    <tag k="created_by" v="Potlatch 0.9a"/>
    <tag k="highway" v="abandoned"/>
  </way>
  <way id="19826370" version="11" timestamp="2009-06-19T11:52:30Z" uid="85761" user="klausis" changeset="1563936">
    <nd ref="30247017"/>
    <nd ref="30247019"/>
    <nd ref="30247020"/>
    <nd ref="30247021"/>
    <tag k="highway" v="abandoned"/>
  </way>
  <way id="19826370" version="12" timestamp="2009-06-20T22:15:10Z" uid="6269" user="Mueck" changeset="1579077">
    <nd ref="30247017"/>
    <nd ref="30247019"/>
    <nd ref="30247020"/>
    <nd ref="30247021"/>
    <tag k="abandoned" v="trunk"/>
    <tag k="highway" v="abandoned"/>
  </way>
  <way id="19826370" version="13" timestamp="2009-08-23T15:52:09Z" uid="6269" user="Mueck" changeset="2231501">
    <nd ref="472302289"/>
    <nd ref="30247019"/>
    <nd ref="30247020"/>
    <nd ref="30247021"/>
    <tag k="abandoned" v="trunk"/>
    <tag k="highway" v="abandoned"/>
  </way>
  <way id="19826370" version="14" timestamp="2009-08-23T16:02:52Z" uid="6269" user="Mueck" changeset="2231658">
    <nd ref="472302289"/>
    <nd ref="30247019"/>
    <nd ref="30247020"/>
    <tag k="abandoned" v="trunk"/>
    <tag k="highway" v="abandoned"/>
  </way>
  <way id="19826370" version="15" timestamp="2010-06-11T21:49:08Z" uid="6269" user="Mueck" changeset="4966387">
    <nd ref="472302289"/>
    <nd ref="30247019"/>
    <nd ref="30247020"/>
    <tag k="abandoned" v="trunk"/>
    <tag k="highway" v="abandonedx"/>
  </way>
  <way id="19826370" version="16" timestamp="2010-09-26T16:19:11Z" uid="102899" user="stw1701" changeset="5882708">
    <nd ref="472302289"/>
    <nd ref="30247019"/>
    <nd ref="30247020"/>
    <tag k="abandoned" v="trunk"/>
    <tag k="highway" v="abandoned"/>
  </way>
  <way id="19826370" version="17" timestamp="2010-10-27T20:35:18Z" uid="263596" user="OberfÃ¶rster" changeset="6201547">
    <nd ref="472302289"/>
    <nd ref="30247019"/>
    <nd ref="30247020"/>
    <tag k="abandoned" v="trunk"/>
    <tag k="highway" v="abandoned"/>
    <tag k="motorroad" v="yes"/>
  </way>
  <way id="19826370" version="18" timestamp="2012-02-01T10:58:25Z" uid="7009" user="giggls" changeset="10557533"/>
  <way id="19826371" version="2" timestamp="2010-07-09T17:21:50Z" uid="74617" user="JohnSmith" changeset="5175333">
    <nd ref="206977568"/>
    <nd ref="206977923"/>
    <nd ref="206977924"/>
    <tag k="highway" v="residential"/>
    <tag k="maxspeed" v="50"/>
    <tag k="maxspeed:source" v="default residential speed limit in Australia"/>
    <tag k="name" v="Groundlark Close"/>
  </way>
  <way id="19826371" version="3" timestamp="2012-01-15T20:36:44Z" uid="147510" user="woodpeck_fixbot" changeset="10402983">
    <nd ref="206977568"/>
    <nd ref="206977923"/>
    <nd ref="206977924"/>
    <tag k="highway" v="residential"/>
    <tag k="name" v="Groundlark Close"/>
  </way>
  <way id="19826437" version="4" timestamp="2009-06-13T08:06:40Z" uid="74617" user="JohnSmith" changeset="1502398"/>
  <way id="19826483" version="10" timestamp="2010-04-23T02:29:10Z" uid="4467" user="Rosscoe" changeset="4500268">
    <nd ref="206981645"/>
    <nd ref="206981646"/>
    <nd ref="206981647"/>
    <nd ref="200598605"/>
    <nd ref="579996660"/>
    <nd ref="579997192"/>
    <nd ref="579997272"/>
    <nd ref="579997340"/>
    <nd ref="206987308"/>
    <nd ref="566316266"/>
    <nd ref="704211558"/>
    <tag k="highway" v="residential"/>
    <tag k="name" v="Hamilton Street"/>
  </way>
  <way id="19826483" version="11" timestamp="2010-07-09T17:25:10Z" uid="74617" user="JohnSmith" changeset="5175333">
    <nd ref="206981645"/>
    <nd ref="206981646"/>
    <nd ref="206981647"/>
    <nd ref="200598605"/>
    <nd ref="579996660"/>
    <nd ref="579997192"/>
    <nd ref="579997272"/>
    <nd ref="579997340"/>
    <nd ref="206987308"/>
    <nd ref="566316266"/>
    <nd ref="704211558"/>
    <tag k="highway" v="residential"/>
    <tag k="maxspeed" v="50"/>
    <tag k="maxspeed:source" v="default residential speed limit in Australia"/>
    <tag k="name" v="Hamilton Street"/>
  </way>
  <way id="19826483" version="12" timestamp="2011-01-13T00:22:38Z" uid="95751" user="Juffy" changeset="6953282">
    <nd ref="206981645"/>
    <nd ref="206981646"/>
    <nd ref="206981647"/>
    <nd ref="1100932674"/>
    <nd ref="200598605"/>
    <nd ref="579996660"/>
    <nd ref="579997192"/>
    <nd ref="579997272"/>
    <nd ref="579997340"/>
    <nd ref="206987308"/>
    <nd ref="566316266"/>
    <nd ref="704211558"/>
    <tag k="highway" v="residential"/>
    <tag k="maxspeed" v="50"/>
    <tag k="maxspeed:source" v="default residential speed limit in Australia"/>
    <tag k="name" v="Hamilton Street"/>
  </way>
  <way id="19826483" version="13" timestamp="2012-01-15T20:36:45Z" uid="147510" user="woodpeck_fixbot" changeset="10402983">
    <nd ref="206981645"/>
    <nd ref="206981646"/>
    <nd ref="206981647"/>
    <nd ref="1100932674"/>
    <nd ref="200598605"/>
    <nd ref="579996660"/>
    <nd ref="579997192"/>
    <nd ref="579997272"/>
    <nd ref="579997340"/>
    <nd ref="206987308"/>
    <nd ref="566316266"/>
    <nd ref="704211558"/>
    <tag k="highway" v="residential"/>
    <tag k="name" v="Hamilton Street"/>
  </way>
  <way id="19826507" version="2" timestamp="2010-07-09T18:19:46Z" uid="74617" user="JohnSmith" changeset="5175333">
    <nd ref="206981648"/>
    <nd ref="206982792"/>
    <nd ref="206982793"/>
    <nd ref="206982794"/>
    <tag k="highway" v="residential"/>
    <tag k="maxspeed" v="50"/>
    <tag k="maxspeed:source" v="default residential speed limit in Australia"/>
    <tag k="oneway" v="yes"/>
  </way>
  <way id="19826507" version="3" timestamp="2012-01-15T20:36:47Z" uid="147510" user="woodpeck_fixbot" changeset="10402983">
    <nd ref="206981648"/>
    <nd ref="206982792"/>
    <nd ref="206982793"/>
    <nd ref="206982794"/>
    <tag k="highway" v="residential"/>
    <tag k="oneway" v="yes"/>
  </way>
  <way id="19826535" version="2" timestamp="2010-07-09T18:18:11Z" uid="74617" user="JohnSmith" changeset="5175333">
    <nd ref="206982896"/>
    <nd ref="206984149"/>
    <nd ref="206981648"/>
    <tag k="highway" v="residential"/>
    <tag k="maxspeed" v="50"/>
    <tag k="maxspeed:source" v="default residential speed limit in Australia"/>
    <tag k="oneway" v="yes"/>
  </way>
  <way id="19826535" version="3" timestamp="2012-01-15T20:36:49Z" uid="147510" user="woodpeck_fixbot" changeset="10402983">
    <nd ref="206982896"/>
    <nd ref="206984149"/>
    <nd ref="206981648"/>
    <tag k="highway" v="residential"/>
    <tag k="oneway" v="yes"/>
  </way>
  <way id="19826592" version="4" timestamp="2010-07-09T18:17:23Z" uid="74617" user="JohnSmith" changeset="5175333">
    <nd ref="206984180"/>
    <nd ref="206984643"/>
    <nd ref="206984644"/>
    <nd ref="206984645"/>
    <nd ref="206984701"/>
    <nd ref="206984646"/>
    <nd ref="588455720"/>
    <nd ref="588455721"/>
    <nd ref="588455722"/>
    <nd ref="588455723"/>
    <nd ref="588455724"/>
    <nd ref="588455714"/>
    <nd ref="588455715"/>
    <nd ref="588455716"/>
    <nd ref="588455717"/>
    <nd ref="588455718"/>
    <nd ref="588455719"/>
    <tag k="highway" v="residential"/>
    <tag k="maxspeed" v="50"/>
    <tag k="maxspeed:source" v="default residential speed limit in Australia"/>
    <tag k="name" v="Longhurst Way"/>
  </way>
  <way id="19826592" version="5" timestamp="2012-01-15T20:36:51Z" uid="147510" user="woodpeck_fixbot" changeset="10402983">
    <nd ref="206984180"/>
    <nd ref="206984643"/>
    <nd ref="206984644"/>
    <nd ref="206984645"/>
    <nd ref="206984701"/>
    <nd ref="206984646"/>
    <nd ref="588455720"/>
    <nd ref="588455721"/>
    <nd ref="588455722"/>
    <nd ref="588455723"/>
    <nd ref="588455724"/>
    <nd ref="588455714"/>
    <nd ref="588455715"/>
    <nd ref="588455716"/>
    <nd ref="588455717"/>
    <nd ref="588455718"/>
    <nd ref="588455719"/>
    <tag k="highway" v="residential"/>
    <tag k="name" v="Longhurst Way"/>
  </way>
  <way id="19826604" version="3" timestamp="2010-07-09T18:18:21Z" uid="74617" user="JohnSmith" changeset="5175333">
    <nd ref="206984701"/>
    <nd ref="206985169"/>
    <nd ref="588455727"/>
    <nd ref="588455728"/>
    <nd ref="588455730"/>
    <nd ref="588455729"/>
    <nd ref="206985170"/>
    <nd ref="206985171"/>
    <tag k="highway" v="residential"/>
    <tag k="maxspeed" v="50"/>
    <tag k="maxspeed:source" v="default residential speed limit in Australia"/>
    <tag k="name" v="Woodrow Place"/>
  </way>
  <way id="19826604" version="4" timestamp="2012-01-15T20:36:52Z" uid="147510" user="woodpeck_fixbot" changeset="10402983">
    <nd ref="206984701"/>
    <nd ref="206985169"/>
    <nd ref="588455727"/>
    <nd ref="588455728"/>
    <nd ref="588455730"/>
    <nd ref="588455729"/>
    <nd ref="206985170"/>
    <nd ref="206985171"/>
    <tag k="highway" v="residential"/>
    <tag k="name" v="Woodrow Place"/>
  </way>
  <way id="19826613" version="4" timestamp="2010-07-09T18:20:14Z" uid="74617" user="JohnSmith" changeset="5175333">
    <nd ref="206985543"/>
    <nd ref="582485557"/>
    <nd ref="206986627"/>
    <nd ref="206985892"/>
    <tag k="highway" v="residential"/>
    <tag k="maxspeed" v="50"/>
    <tag k="maxspeed:source" v="default residential speed limit in Australia"/>
    <tag k="name" v="Mill Street"/>
  </way>
  <way id="19826613" version="5" timestamp="2012-01-15T20:36:53Z" uid="147510" user="woodpeck_fixbot" changeset="10402983">
    <nd ref="206985543"/>
    <nd ref="582485557"/>
    <nd ref="206986627"/>
    <nd ref="206985892"/>
    <tag k="highway" v="residential"/>
    <tag k="name" v="Mill Street"/>
  </way>
  <way id="19826618" version="3" timestamp="2010-05-31T05:00:59Z" uid="4467" user="Rosscoe" changeset="4859735">
    <nd ref="206986222"/>
    <nd ref="206986223"/>
    <nd ref="701839758"/>
    <tag k="highway" v="residential"/>
    <tag k="name" v="Mill Street"/>
  </way>
  <way id="19826618" version="4" timestamp="2010-07-09T18:18:05Z" uid="74617" user="JohnSmith" changeset="5175333">
    <nd ref="206986222"/>
    <nd ref="206986223"/>
    <nd ref="701839758"/>
    <tag k="highway" v="residential"/>
    <tag k="maxspeed" v="50"/>
    <tag k="maxspeed:source" v="default residential speed limit in Australia"/>
    <tag k="name" v="Mill Street"/>
  </way>
  <way id="19826618" version="5" timestamp="2012-01-15T20:36:55Z" uid="147510" user="woodpeck_fixbot" changeset="10402983">
    <nd ref="206986222"/>
    <nd ref="206986223"/>
    <nd ref="701839758"/>
    <tag k="highway" v="residential"/>
    <tag k="name" v="Mill Street"/>
  </way>
  <way id="19826636" version="3" timestamp="2010-07-09T18:20:25Z" uid="74617" user="JohnSmith" changeset="5175333">
    <nd ref="206986643"/>
    <nd ref="588455713"/>
    <nd ref="588455712"/>
    <nd ref="206986943"/>
    <nd ref="588455711"/>
    <nd ref="588455710"/>
    <nd ref="588455706"/>
    <nd ref="588455709"/>
    <nd ref="588455704"/>
    <nd ref="588455708"/>
    <nd ref="588455702"/>
    <nd ref="588455707"/>
    <nd ref="206986944"/>
    <nd ref="588455725"/>
    <nd ref="588455726"/>
    <nd ref="206986945"/>
    <tag k="highway" v="residential"/>
    <tag k="maxspeed" v="50"/>
    <tag k="maxspeed:source" v="default residential speed limit in Australia"/>
    <tag k="name" v="Lansing Street"/>
  </way>
  <way id="19826636" version="4" timestamp="2012-01-15T20:36:58Z" uid="147510" user="woodpeck_fixbot" changeset="10402983">
    <nd ref="206986643"/>
    <nd ref="588455713"/>
    <nd ref="588455712"/>
    <nd ref="206986943"/>
    <nd ref="588455711"/>
    <nd ref="588455710"/>
    <nd ref="588455706"/>
    <nd ref="588455709"/>
    <nd ref="588455704"/>
    <nd ref="588455708"/>
    <nd ref="588455702"/>
    <nd ref="588455707"/>
    <nd ref="206986944"/>
    <nd ref="588455725"/>
    <nd ref="588455726"/>
    <nd ref="206986945"/>
    <tag k="highway" v="residential"/>
    <tag k="name" v="Lansing Street"/>
  </way>
  <way id="19826675" version="3" timestamp="2010-07-09T18:20:56Z" uid="74617" user="JohnSmith" changeset="5175333">
    <nd ref="206987308"/>
    <nd ref="582485658"/>
    <nd ref="206987995"/>
    <nd ref="206987996"/>
    <tag k="highway" v="residential"/>
    <tag k="maxspeed" v="50"/>
    <tag k="maxspeed:source" v="default residential speed limit in Australia"/>
    <tag k="name" v="Balaka Way"/>
  </way>
  <way id="19826675" version="4" timestamp="2012-01-15T20:36:59Z" uid="147510" user="woodpeck_fixbot" changeset="10402983">
    <nd ref="206987308"/>
    <nd ref="582485658"/>
    <nd ref="206987995"/>
    <nd ref="206987996"/>
    <tag k="highway" v="residential"/>
    <tag k="name" v="Balaka Way"/>
  </way>
  <way id="19826881" version="4" timestamp="2009-06-13T06:56:12Z" uid="74617" user="JohnSmith" changeset="1501922"/>
  <way id="19826941" version="7" timestamp="2010-07-09T17:27:55Z" uid="74617" user="JohnSmith" changeset="5175333">
    <nd ref="410430036"/>
    <nd ref="410430035"/>
    <nd ref="60033247"/>
    <tag k="highway" v="residential"/>
    <tag k="maxspeed" v="50"/>
    <tag k="maxspeed:source" v="default residential speed limit in Australia"/>
    <tag k="name" v="Sevenoaks Street"/>
    <tag k="oneway" v="yes"/>
  </way>
  <way id="19826941" version="8" timestamp="2012-01-15T20:37:02Z" uid="147510" user="woodpeck_fixbot" changeset="10402983">
    <nd ref="410430036"/>
    <nd ref="410430035"/>
    <nd ref="60033247"/>
    <tag k="highway" v="residential"/>
    <tag k="name" v="Sevenoaks Street"/>
    <tag k="oneway" v="yes"/>
  </way>
</osm>
