<?xml version='1.0' encoding='UTF-8'?>
<osm version="0.6" generator="libosmium/2.20.0">
  <way id="19835795" version="3" timestamp="2008-02-23T09:18:22Z" uid="6975" user="ulfl" changeset="184302">
    <nd ref="36673309"/>
    <nd ref="207236417"/>
    <nd ref="207236413"/>
    <nd ref="207236430"/>
    <nd ref="207236424"/>
    <nd ref="207236447"/>
    <nd ref="207236440"/>
    <nd ref="207236458"/>
    <nd ref="207236454"/>
    <nd ref="207236473"/>
    <tag k="created_by" v="Potlatch 0.7b"/>
    <tag k="highway" v="residential"/>
    <tag k="name" v="Blumenstraße"/>
  </way>
  <way id="19835795" version="4" timestamp="2008-02-23T09:20:09Z" uid="6975" user="ulfl" changeset="184302">
    <nd ref="36673309"/>
    <nd ref="207236417"/>
    <nd ref="207236413"/>
    <nd ref="207236430"/>
    <nd ref="207236424"/>
    <nd ref="207236447"/>
    <nd ref="207236440"/>
    <nd ref="207236458"/>
    <nd ref="207236454"/>
    <nd ref="207236473"/>
    <tag k="created_by" v="Potlatch 0.7b"/>
    <tag k="highway" v="residential"/>
    <tag k="name" v="Blumenstraße"/>
  </way>
  <way id="19835795" version="5" timestamp="2008-03-08T20:56:06Z" uid="30053" user="Red Rooster" changeset="289627">
    <nd ref="36673309"/>
    <nd ref="207236417"/>
    <nd ref="207236430"/>
    <nd ref="207236424"/>
    <nd ref="207236447"/>
    <nd ref="207236440"/>
    <nd ref="207236458"/>
    <nd ref="207236454"/>
    <nd ref="207236473"/>
    <tag k="created_by" v="Potlatch 0.7b"/>
    <tag k="highway" v="residential"/>
    <tag k="name" v="Blumenstraße"/>
  </way>
  <way id="19835795" version="6" timestamp="2008-03-10T21:35:18Z" uid="30053" user="Red Rooster" changeset="299613">
    <nd ref="36673309"/>
    <nd ref="207236417"/>
    <nd ref="207236430"/>
    <tag k="created_by" v="Potlatch 0.7b"/>
    <tag k="highway" v="residential"/>
    <tag k="name" v="Blumenstraße"/>
  </way>
  <way id="19835795" version="7" timestamp="2008-03-10T21:35:25Z" uid="30053" user="Red Rooster" changeset="299613">
    <nd ref="36673309"/>
    <nd ref="207236417"/>
    <nd ref="207236430"/>
    <tag k="created_by" v="Potlatch 0.7b"/>
    <tag k="highway" v="residential"/>
    <tag k="name" v="Blumenstraße"/>
    <tag k="oneway" v="yes"/>
  </way>
  <way id="19835795" version="8" timestamp="2008-06-25T11:35:22Z" uid="47619" user="Philipp Schwab" changeset="291008">
    <nd ref="207236430"/>
    <nd ref="207236417"/>
    <nd ref="36673309"/>
    <tag k="created_by" v="Potlatch 0.9c"/>
    <tag k="highway" v="residential"/>
    <tag k="name" v="Blumenstraße"/>
    <tag k="oneway" v="yes"/>
  </way>
  <way id="19835795" version="9" timestamp="2008-06-25T11:35:43Z" uid="47619" user="Philipp Schwab" changeset="291008">
    <nd ref="36673309"/>
    <nd ref="207236417"/>
    <nd ref="207236430"/>
    <tag k="created_by" v="Potlatch 0.9c"/>
    <tag k="highway" v="residential"/>
    <tag k="name" v="Blumenstraße"/>
    <tag k="oneway" v="yes"/>
  </way>
  <way id="19835795" version="10" timestamp="2008-06-25T11:44:51Z" uid="47619" user="Philipp Schwab" changeset="291008">
    <nd ref="207236430"/>
    <nd ref="207236417"/>
    <nd ref="36673309"/>
    <tag k="created_by" v="Potlatch 0.9c"/>
    <tag k="highway" v="residential"/>
    <tag k="name" v="Blumenstraße"/>
    <tag k="oneway" v="yes"/>
  </way>
  <way id="19835795" version="11" timestamp="2008-06-25T11:44:58Z" uid="47619" user="Philipp Schwab" changeset="291008">
    <nd ref="207236430"/>
    <nd ref="207236417"/>
    <nd ref="36673309"/>
    <tag k="created_by" v="Potlatch 0.9c"/>
    <tag k="highway" v="residential"/>
    <tag k="name" v="Blumenstraße"/>
    <tag k="oneway" v="yes"/>
  </way>
  <way id="19835795" version="12" timestamp="2008-06-25T11:49:48Z" uid="47619" user="Philipp Schwab" changeset="291008">
    <nd ref="36673309"/>
    <nd ref="207236417"/>
    <nd ref="207236430"/>
    <tag k="created_by" v="Potlatch 0.9c"/>
    <tag k="highway" v="residential"/>
    <tag k="name" v="Blumenstraße"/>
    <tag k="oneway" v="yes"/>
  </way>
  <way id="19835795" version="13" timestamp="2008-06-25T11:50:19Z" uid="47619" user="Philipp Schwab" changeset="291008">
    <nd ref="36673309"/>
    <nd ref="207236417"/>
    <nd ref="207236430"/>
    <tag k="created_by" v="Potlatch 0.9c"/>
    <tag k="highway" v="residential"/>
    <tag k="name" v="Blumenstraße"/>
    <tag k="oneway" v="yes"/>
  </way>
  <way id="19835795" version="14" timestamp="2008-06-25T14:45:20Z" uid="47619" user="Philipp Schwab" changeset="291373">
    <nd ref="207236430"/>
    <nd ref="207236417"/>
    <nd ref="36673309"/>
    <tag k="created_by" v="Potlatch 0.9c"/>
    <tag k="highway" v="residential"/>
    <tag k="name" v="Blumenstraße"/>
    <tag k="oneway" v="yes"/>
  </way>
  <way id="19835795" version="15" timestamp="2011-12-07T10:07:39Z" uid="31118" user="Lulu-Ann" changeset="10056365">
    <nd ref="207236430"/>
    <nd ref="207236417"/>
    <nd ref="36673309"/>
    <tag k="highway" v="residential"/>
    <tag k="maxspeed" v="30"/>
    <tag k="name" v="Blumenstraße"/>
    <tag k="oneway" v="yes"/>
  </way>
  <way id="19835796" version="3" timestamp="2008-02-23T09:17:54Z" uid="6975" user="ulfl" changeset="184302">
    <nd ref="207236401"/>
    <nd ref="207236417"/>
    <tag k="created_by" v="Potlatch 0.7b"/>
    <tag k="highway" v="residential"/>
  </way>
  <way id="19835796" version="4" timestamp="2008-03-08T14:15:13Z" uid="30053" user="Red Rooster" changeset="284958">
    <nd ref="207236401"/>
    <nd ref="207236417"/>
    <tag k="created_by" v="Potlatch 0.7b"/>
    <tag k="highway" v="residential"/>
    <tag k="name" v="Hallemannstraße"/>
  </way>
  <way id="19835796" version="5" timestamp="2008-06-25T11:50:14Z" uid="47619" user="Philipp Schwab" changeset="291008">
    <nd ref="207236401"/>
    <nd ref="273103366"/>
    <nd ref="207236417"/>
    <tag k="created_by" v="Potlatch 0.9c"/>
    <tag k="highway" v="residential"/>
    <tag k="name" v="Hallemannstraße"/>
  </way>
  <way id="19835796" version="6" timestamp="2009-05-17T22:44:51Z" uid="13192" user="delphiN" changeset="1230102">
    <nd ref="207236401"/>
    <nd ref="207236417"/>
    <tag k="created_by" v="Potlatch 0.9c"/>
    <tag k="highway" v="residential"/>
    <tag k="name" v="Hallemannstraße"/>
  </way>
  <way id="19835796" version="7" timestamp="2010-08-05T07:57:13Z" uid="8464" user="MichaH" changeset="5405501">
    <nd ref="207236401"/>
    <nd ref="207236417"/>
    <tag k="highway" v="residential"/>
    <tag k="name" v="Hallemannstraße"/>
  </way>
  <way id="19835796" version="8" timestamp="2010-11-17T16:00:07Z" uid="202858" user="kellerma" changeset="6393795">
    <nd ref="207236401"/>
    <nd ref="207236417"/>
    <tag k="fixme" v="maxspeed 30 or 50?"/>
    <tag k="highway" v="residential"/>
    <tag k="name" v="Hallemannstraße"/>
  </way>
  <way id="19835805" version="3" timestamp="2008-02-25T19:33:44Z" uid="6975" user="ulfl" changeset="208586"/>
  <way id="19835810" version="3" timestamp="2008-02-23T11:33:52Z" uid="6975" user="ulfl" changeset="184302">
    <nd ref="122398990"/>
    <nd ref="207236345"/>
    <nd ref="207236356"/>
    <nd ref="207236372"/>
    <nd ref="227265601"/>
    <nd ref="207236368"/>
    <nd ref="227265558"/>
    <nd ref="207236386"/>
    <nd ref="207236378"/>
    <tag k="created_by" v="Potlatch 0.7b"/>
    <tag k="highway" v="residential"/>
    <tag k="name" v="Rosenstraße"/>
  </way>
  <way id="19835810" version="4" timestamp="2008-02-23T11:34:09Z" uid="6975" user="ulfl" changeset="184302">
    <nd ref="122398990"/>
    <nd ref="207236356"/>
    <nd ref="207236372"/>
    <nd ref="227265601"/>
    <nd ref="207236368"/>
    <nd ref="227265558"/>
    <nd ref="207236386"/>
    <nd ref="207236378"/>
    <tag k="created_by" v="Potlatch 0.7b"/>
    <tag k="highway" v="residential"/>
    <tag k="name" v="Rosenstraße"/>
  </way>
  <way id="19835810" version="5" timestamp="2008-02-23T11:35:42Z" uid="6975" user="ulfl" changeset="184302">
    <nd ref="122398999"/>
    <nd ref="207236356"/>
    <nd ref="207236372"/>
    <nd ref="227265601"/>
    <nd ref="207236368"/>
    <nd ref="227265558"/>
    <nd ref="207236386"/>
    <nd ref="207236378"/>
    <tag k="created_by" v="Potlatch 0.7b"/>
    <tag k="highway" v="residential"/>
    <tag k="name" v="Rosenstraße"/>
  </way>
  <way id="19835810" version="6" timestamp="2008-03-10T21:37:47Z" uid="30053" user="Red Rooster" changeset="299613">
    <nd ref="122398999"/>
    <nd ref="207236356"/>
    <nd ref="207236372"/>
    <nd ref="227265601"/>
    <nd ref="207236368"/>
    <nd ref="227265558"/>
    <nd ref="207236386"/>
    <tag k="created_by" v="Potlatch 0.7b"/>
    <tag k="highway" v="residential"/>
    <tag k="name" v="Rosenstraße"/>
  </way>
  <way id="19835810" version="7" timestamp="2008-03-10T21:38:01Z" uid="30053" user="Red Rooster" changeset="299613">
    <nd ref="122398999"/>
    <nd ref="207236356"/>
    <nd ref="207236372"/>
    <nd ref="227265601"/>
    <nd ref="207236368"/>
    <nd ref="227265558"/>
    <nd ref="207236386"/>
    <nd ref="207236393"/>
    <tag k="created_by" v="Potlatch 0.7b"/>
    <tag k="highway" v="residential"/>
    <tag k="name" v="Rosenstraße"/>
  </way>
  <way id="19835810" version="8" timestamp="2008-03-10T21:38:12Z" uid="30053" user="Red Rooster" changeset="299613">
    <nd ref="122398999"/>
    <nd ref="207236356"/>
    <nd ref="207236372"/>
    <nd ref="227265601"/>
    <nd ref="207236368"/>
    <nd ref="227265558"/>
    <nd ref="207236393"/>
    <tag k="created_by" v="Potlatch 0.7b"/>
    <tag k="highway" v="residential"/>
    <tag k="name" v="Rosenstraße"/>
  </way>
  <way id="19835810" version="9" timestamp="2008-03-16T17:28:39Z" uid="30053" user="Red Rooster" changeset="336663">
    <nd ref="122398999"/>
    <nd ref="207236356"/>
    <nd ref="207236372"/>
    <nd ref="252450683"/>
    <nd ref="227265601"/>
    <nd ref="207236368"/>
    <nd ref="227265558"/>
    <nd ref="207236393"/>
    <tag k="created_by" v="Potlatch 0.7b"/>
    <tag k="highway" v="residential"/>
    <tag k="name" v="Rosenstraße"/>
  </way>
  <way id="19835810" version="10" timestamp="2008-04-14T22:16:39Z" uid="13192" user="delphiN" changeset="154534">
    <nd ref="122398999"/>
    <nd ref="257640970"/>
    <nd ref="207236356"/>
    <nd ref="207236372"/>
    <nd ref="252450683"/>
    <nd ref="227265601"/>
    <nd ref="207236368"/>
    <nd ref="227265558"/>
    <nd ref="207236393"/>
    <tag k="created_by" v="Potlatch 0.7b"/>
    <tag k="highway" v="residential"/>
    <tag k="name" v="Rosenstraße"/>
  </way>
  <way id="19835810" version="11" timestamp="2008-04-19T14:52:03Z" uid="13192" user="delphiN" changeset="191790">
    <nd ref="122398999"/>
    <nd ref="257640970"/>
    <tag k="created_by" v="Potlatch 0.7b"/>
    <tag k="highway" v="residential"/>
    <tag k="name" v="Rosenstraße"/>
  </way>
  <way id="19835810" version="12" timestamp="2010-05-22T16:18:16Z" uid="81175" user="robome" changeset="4775612"/>
</osm>
