<?xml version='1.0' encoding='UTF-8'?>
<osm version="0.6" generator="libosmium/2.20.0">
  <way id="19888389" version="2" timestamp="2008-09-22T15:52:23Z" uid="30632" user="antblant" changeset="680284">
    <nd ref="208638401"/>
    <nd ref="208639175"/>
    <nd ref="208638499"/>
    <nd ref="208638472"/>
    <nd ref="208639119"/>
    <nd ref="208639219"/>
    <nd ref="208638635"/>
    <nd ref="208638598"/>
    <nd ref="208639029"/>
    <nd ref="208638611"/>
    <nd ref="208639127"/>
    <nd ref="208638788"/>
    <nd ref="208638724"/>
    <nd ref="208638944"/>
    <nd ref="208638982"/>
    <nd ref="208638447"/>
    <nd ref="208638349"/>
    <nd ref="208638369"/>
    <nd ref="208638413"/>
    <tag k="created_by" v="Potlatch 0.10b"/>
    <tag k="highway" v="primary"/>
    <tag k="name" v="Gdanska"/>
    <tag k="oneway" v="true"/>
    <tag k="ref" v="6"/>
    <tag k="source" v="UMP-PL, ./UMP-Gdansk/src/WEJHEROWO.ulice.txt"/>
  </way>
  <way id="19888389" version="3" timestamp="2008-10-19T14:47:54Z" uid="53100" user="Jakub Klawiter" changeset="439712">
    <nd ref="208638401"/>
    <nd ref="208639175"/>
    <nd ref="208638499"/>
    <nd ref="208638472"/>
    <nd ref="208639119"/>
    <nd ref="208639219"/>
    <nd ref="208638635"/>
    <nd ref="208638598"/>
    <nd ref="208639029"/>
    <nd ref="208638611"/>
    <nd ref="208639127"/>
    <nd ref="208638788"/>
    <nd ref="208638724"/>
    <nd ref="208638944"/>
    <nd ref="208638982"/>
    <nd ref="208638447"/>
    <nd ref="208638349"/>
    <nd ref="208638369"/>
    <nd ref="208638413"/>
    <tag k="created_by" v="Potlatch 0.10b"/>
    <tag k="highway" v="primary"/>
    <tag k="name" v="Gdańska"/>
    <tag k="oneway" v="true"/>
    <tag k="ref" v="6"/>
    <tag k="source" v="UMP-PL, ./UMP-Gdansk/src/WEJHEROWO.ulice.txt"/>
  </way>
  <way id="19888389" version="4" timestamp="2009-02-16T21:56:14Z" uid="9176" user="Maarten Deen" changeset="486420">
    <nd ref="208638401"/>
    <nd ref="208639175"/>
    <nd ref="208638499"/>
    <nd ref="208638472"/>
    <nd ref="208639119"/>
    <nd ref="208639219"/>
    <nd ref="208638635"/>
    <nd ref="208638598"/>
    <nd ref="208639029"/>
    <nd ref="208638611"/>
    <nd ref="208639127"/>
    <nd ref="208638788"/>
    <nd ref="208638724"/>
    <nd ref="208638944"/>
    <nd ref="208638982"/>
    <nd ref="208638447"/>
    <nd ref="208638349"/>
    <nd ref="208638369"/>
    <nd ref="208638413"/>
    <tag k="created_by" v="Potlatch 0.10b"/>
    <tag k="highway" v="primary"/>
    <tag k="int_ref" v="E 28"/>
    <tag k="name" v="Gdańska"/>
    <tag k="oneway" v="true"/>
    <tag k="ref" v="6"/>
    <tag k="source" v="UMP-PL, ./UMP-Gdansk/src/WEJHEROWO.ulice.txt"/>
  </way>
  <way id="19888389" version="5" timestamp="2009-04-11T22:22:11Z" uid="30632" user="antblant" changeset="437925">
    <nd ref="208638401"/>
    <nd ref="208639175"/>
    <nd ref="208638499"/>
    <nd ref="208638472"/>
    <nd ref="208639119"/>
    <nd ref="208639219"/>
    <nd ref="208638635"/>
    <nd ref="208638598"/>
    <nd ref="208639029"/>
    <nd ref="208638611"/>
    <nd ref="208639127"/>
    <nd ref="208638788"/>
    <nd ref="208638724"/>
    <nd ref="208638944"/>
    <nd ref="208638982"/>
    <nd ref="208638447"/>
    <nd ref="208638349"/>
    <nd ref="208638369"/>
    <nd ref="208638413"/>
    <tag k="created_by" v="Potlatch 0.10f"/>
    <tag k="highway" v="primary"/>
    <tag k="int_ref" v="E 28"/>
    <tag k="name" v="Gdańska"/>
    <tag k="oneway" v="yes"/>
    <tag k="ref" v="6"/>
    <tag k="source" v="UMP-PL, ./UMP-Gdansk/src/WEJHEROWO.ulice.txt"/>
  </way>
  <way id="19888389" version="6" timestamp="2009-07-29T18:44:44Z" uid="59808" user="ortylp" changeset="1978489">
    <nd ref="208638401"/>
    <nd ref="208639175"/>
    <nd ref="208638472"/>
    <nd ref="208639119"/>
    <nd ref="208639219"/>
    <nd ref="208638635"/>
    <nd ref="208638598"/>
    <nd ref="208639029"/>
    <nd ref="208638611"/>
    <nd ref="208639127"/>
    <nd ref="208638788"/>
    <nd ref="208638724"/>
    <nd ref="208638944"/>
    <nd ref="208638982"/>
    <nd ref="450943040"/>
    <nd ref="208638369"/>
    <nd ref="208638413"/>
    <tag k="created_by" v="Potlatch 0.10f"/>
    <tag k="highway" v="primary"/>
    <tag k="int_ref" v="E 28"/>
    <tag k="name" v="Gdańska"/>
    <tag k="oneway" v="yes"/>
    <tag k="ref" v="6"/>
    <tag k="source" v="UMP-PL, ./UMP-Gdansk/src/WEJHEROWO.ulice.txt"/>
  </way>
  <way id="19888389" version="7" timestamp="2011-07-18T21:50:22Z" uid="460511" user="arturb" changeset="8763480">
    <nd ref="208638401"/>
    <nd ref="208639175"/>
    <nd ref="208638472"/>
    <nd ref="208639119"/>
    <nd ref="208639219"/>
    <nd ref="208638635"/>
    <nd ref="208638598"/>
    <nd ref="1366144638"/>
    <tag k="highway" v="primary"/>
    <tag k="int_ref" v="E 28"/>
    <tag k="name" v="Gdańska"/>
    <tag k="oneway" v="yes"/>
    <tag k="ref" v="6"/>
    <tag k="source" v="UMP-PL, ./UMP-Gdansk/src/WEJHEROWO.ulice.txt"/>
  </way>
  <way id="19888389" version="8" timestamp="2011-07-20T13:03:39Z" uid="460511" user="arturb" changeset="8778452">
    <nd ref="208638401"/>
    <nd ref="208639175"/>
    <nd ref="208638472"/>
    <nd ref="208639119"/>
    <nd ref="208639219"/>
    <nd ref="208638635"/>
    <nd ref="208638598"/>
    <nd ref="1366144638"/>
    <tag k="highway" v="primary"/>
    <tag k="int_ref" v="E 28"/>
    <tag k="maxspeed" v="70"/>
    <tag k="name" v="Gdańska"/>
    <tag k="oneway" v="yes"/>
    <tag k="ref" v="6"/>
    <tag k="source" v="UMP-PL, ./UMP-Gdansk/src/WEJHEROWO.ulice.txt"/>
  </way>
  <way id="19888389" version="9" timestamp="2012-01-09T15:25:02Z" uid="378154" user="rosomak" changeset="10342736">
    <nd ref="208638401"/>
    <nd ref="208639175"/>
    <nd ref="208638472"/>
    <nd ref="208639119"/>
    <nd ref="208639219"/>
    <nd ref="208638635"/>
    <nd ref="208638598"/>
    <nd ref="1366144638"/>
    <tag k="highway" v="primary"/>
    <tag k="int_ref" v="E 28"/>
    <tag k="maxspeed" v="70"/>
    <tag k="name" v="Gdańska"/>
    <tag k="oneway" v="yes"/>
    <tag k="ref" v="6"/>
  </way>
  <way id="19888389" version="10" timestamp="2012-01-30T21:51:34Z" uid="378154" user="rosomak" changeset="10544308">
    <nd ref="208638401"/>
    <nd ref="208639175"/>
    <nd ref="208638472"/>
    <nd ref="208639119"/>
    <nd ref="208639219"/>
    <nd ref="1612288414"/>
    <nd ref="208638635"/>
    <nd ref="208638598"/>
    <nd ref="1366144638"/>
    <tag k="highway" v="primary"/>
    <tag k="int_ref" v="E 28"/>
    <tag k="maxspeed" v="70"/>
    <tag k="name" v="Gdańska"/>
    <tag k="oneway" v="yes"/>
    <tag k="ref" v="6"/>
  </way>
  <way id="19888389" version="11" timestamp="2012-02-01T13:21:49Z" uid="378154" user="rosomak" changeset="10558606">
    <nd ref="208638401"/>
    <nd ref="208639175"/>
    <nd ref="208638472"/>
    <nd ref="208639119"/>
    <nd ref="208639219"/>
    <nd ref="1612288414"/>
    <nd ref="208638635"/>
    <nd ref="1614255075"/>
    <nd ref="208638598"/>
    <nd ref="1366144638"/>
    <tag k="highway" v="primary"/>
    <tag k="int_ref" v="E 28"/>
    <tag k="maxspeed" v="70"/>
    <tag k="name" v="Gdańska"/>
    <tag k="oneway" v="yes"/>
    <tag k="ref" v="6"/>
  </way>
  <way id="19888389" version="12" timestamp="2012-02-01T16:23:47Z" uid="378154" user="rosomak" changeset="10560098">
    <nd ref="208638401"/>
    <nd ref="208639175"/>
    <nd ref="208638472"/>
    <nd ref="1614373905"/>
    <nd ref="1614374119"/>
    <nd ref="208639119"/>
    <nd ref="208639219"/>
    <nd ref="1612288414"/>
    <nd ref="208638635"/>
    <nd ref="1614255075"/>
    <nd ref="208638598"/>
    <nd ref="1366144638"/>
    <tag k="highway" v="primary"/>
    <tag k="int_ref" v="E 28"/>
    <tag k="maxspeed" v="70"/>
    <tag k="name" v="Gdańska"/>
    <tag k="oneway" v="yes"/>
    <tag k="ref" v="6"/>
  </way>
  <way id="19888389" version="13" timestamp="2012-02-02T12:35:01Z" uid="378154" user="rosomak" changeset="10567036">
    <nd ref="208639175"/>
    <nd ref="208638472"/>
    <nd ref="1614373905"/>
    <nd ref="1614374119"/>
    <nd ref="208639119"/>
    <nd ref="208639219"/>
    <nd ref="1612288414"/>
    <nd ref="208638635"/>
    <nd ref="1614255075"/>
    <nd ref="208638598"/>
    <nd ref="1366144638"/>
    <tag k="highway" v="primary"/>
    <tag k="int_ref" v="E 28"/>
    <tag k="maxspeed" v="70"/>
    <tag k="name" v="Gdańska"/>
    <tag k="oneway" v="yes"/>
    <tag k="ref" v="6"/>
  </way>
  <way id="19888389" version="14" timestamp="2012-02-04T03:40:41Z" uid="378154" user="rosomak" changeset="10581106">
    <nd ref="208639175"/>
    <nd ref="208638472"/>
    <nd ref="1614373905"/>
    <nd ref="1614374119"/>
    <nd ref="208639119"/>
    <nd ref="208639219"/>
    <nd ref="1612288414"/>
    <nd ref="208638635"/>
    <nd ref="1614255075"/>
    <nd ref="208638598"/>
    <nd ref="1366144638"/>
    <nd ref="208639029"/>
    <nd ref="208638611"/>
    <nd ref="208639127"/>
    <nd ref="208638724"/>
    <nd ref="1374951253"/>
    <nd ref="208638944"/>
    <nd ref="208638982"/>
    <nd ref="1374820212"/>
    <nd ref="1374820220"/>
    <nd ref="450943040"/>
    <nd ref="208638369"/>
    <nd ref="208638413"/>
    <tag k="cycleway" v="lane"/>
    <tag k="highway" v="primary"/>
    <tag k="int_ref" v="E 28"/>
    <tag k="maxspeed" v="70"/>
    <tag k="name" v="Gdańska"/>
    <tag k="oneway" v="yes"/>
    <tag k="ref" v="6"/>
  </way>
  <way id="19888389" version="15" timestamp="2012-02-21T23:49:01Z" uid="378154" user="rosomak" changeset="10755153">
    <nd ref="208639175"/>
    <nd ref="208638472"/>
    <nd ref="1614373905"/>
    <nd ref="1614374119"/>
    <nd ref="208639119"/>
    <nd ref="208639219"/>
    <nd ref="1612288414"/>
    <nd ref="208638635"/>
    <nd ref="1614255075"/>
    <nd ref="208638598"/>
    <nd ref="1366144638"/>
    <nd ref="208639029"/>
    <nd ref="208638611"/>
    <nd ref="208639127"/>
    <nd ref="208638724"/>
    <nd ref="1374951253"/>
    <nd ref="208638944"/>
    <nd ref="208638982"/>
    <nd ref="1374820212"/>
    <nd ref="1374820220"/>
    <nd ref="1642528511"/>
    <nd ref="208638369"/>
    <nd ref="208638413"/>
    <tag k="cycleway" v="lane"/>
    <tag k="highway" v="primary"/>
    <tag k="int_ref" v="E 28"/>
    <tag k="maxspeed" v="70"/>
    <tag k="name" v="Gdańska"/>
    <tag k="oneway" v="yes"/>
    <tag k="ref" v="6"/>
  </way>
  <way id="19888402" version="2" timestamp="2008-10-14T16:38:24Z" uid="30632" user="antblant" changeset="333208">
    <nd ref="208638797"/>
    <nd ref="208638626"/>
    <nd ref="208638935"/>
    <nd ref="208638566"/>
    <tag k="created_by" v="Potlatch 0.10e"/>
    <tag k="highway" v="secondary"/>
    <tag k="name" v="3 Maja"/>
    <tag k="ref" v="224"/>
    <tag k="source" v="UMP-PL, ./UMP-Gdansk/src/WEJHEROWO.ulice.txt"/>
  </way>
  <way id="19888402" version="3" timestamp="2009-10-08T17:16:41Z" uid="86504" user="Thomas8122" changeset="2785410">
    <nd ref="208638797"/>
    <nd ref="208638626"/>
    <nd ref="208638935"/>
    <nd ref="258293624"/>
    <tag k="highway" v="secondary"/>
    <tag k="name" v="3 Maja"/>
    <tag k="ref" v="224"/>
    <tag k="source" v="UMP-PL, ./UMP-Gdansk/src/WEJHEROWO.ulice.txt"/>
  </way>
  <way id="19888402" version="4" timestamp="2009-10-08T17:16:50Z" uid="86504" user="Thomas8122" changeset="2785410">
    <nd ref="208638797"/>
    <nd ref="208638626"/>
    <nd ref="208638935"/>
    <nd ref="526016392"/>
    <nd ref="258293624"/>
    <tag k="highway" v="secondary"/>
    <tag k="name" v="3 Maja"/>
    <tag k="ref" v="224"/>
    <tag k="source" v="UMP-PL, ./UMP-Gdansk/src/WEJHEROWO.ulice.txt"/>
  </way>
  <way id="19888402" version="5" timestamp="2009-10-08T17:17:36Z" uid="86504" user="Thomas8122" changeset="2785410">
    <nd ref="208638797"/>
    <nd ref="208638626"/>
    <nd ref="208638935"/>
    <nd ref="526017369"/>
    <nd ref="526016392"/>
    <nd ref="258293624"/>
    <tag k="highway" v="secondary"/>
    <tag k="name" v="3 Maja"/>
    <tag k="ref" v="224"/>
    <tag k="source" v="UMP-PL, ./UMP-Gdansk/src/WEJHEROWO.ulice.txt"/>
  </way>
  <way id="19888402" version="6" timestamp="2009-10-08T17:21:16Z" uid="86504" user="Thomas8122" changeset="2785410">
    <nd ref="208638797"/>
    <nd ref="208638626"/>
    <nd ref="208638935"/>
    <nd ref="526022220"/>
    <nd ref="526017369"/>
    <nd ref="526016392"/>
    <nd ref="258293624"/>
    <tag k="highway" v="secondary"/>
    <tag k="name" v="3 Maja"/>
    <tag k="ref" v="224"/>
    <tag k="source" v="UMP-PL, ./UMP-Gdansk/src/WEJHEROWO.ulice.txt"/>
  </way>
  <way id="19888402" version="7" timestamp="2010-05-26T12:42:43Z" uid="91056" user="Yarl" changeset="4812750">
    <nd ref="208638797"/>
    <nd ref="208638626"/>
    <nd ref="208638935"/>
    <nd ref="526022220"/>
    <nd ref="526017369"/>
    <nd ref="526016392"/>
    <nd ref="258293624"/>
    <tag k="highway" v="secondary"/>
    <tag k="name" v="3 Maja"/>
    <tag k="ref" v="218"/>
    <tag k="source" v="UMP-PL, ./UMP-Gdansk/src/WEJHEROWO.ulice.txt"/>
  </way>
  <way id="19888402" version="8" timestamp="2010-12-30T00:13:50Z" uid="378154" user="rosomak" changeset="6804973">
    <nd ref="208638797"/>
    <nd ref="1071743032"/>
    <nd ref="208638626"/>
    <nd ref="208638935"/>
    <nd ref="526022220"/>
    <nd ref="526017369"/>
    <nd ref="526016392"/>
    <nd ref="258293624"/>
    <tag k="highway" v="secondary"/>
    <tag k="name" v="3 Maja"/>
    <tag k="ref" v="218"/>
    <tag k="source" v="UMP-PL, ./UMP-Gdansk/src/WEJHEROWO.ulice.txt"/>
  </way>
  <way id="19888402" version="9" timestamp="2010-12-30T03:32:28Z" uid="378154" user="rosomak" changeset="6805588">
    <nd ref="208638797"/>
    <nd ref="1071743032"/>
    <nd ref="208638626"/>
    <nd ref="208638935"/>
    <nd ref="526022220"/>
    <nd ref="526017369"/>
    <nd ref="1072038104"/>
    <nd ref="526016392"/>
    <nd ref="258293624"/>
    <tag k="highway" v="secondary"/>
    <tag k="name" v="3 Maja"/>
    <tag k="ref" v="218"/>
    <tag k="source" v="UMP-PL, ./UMP-Gdansk/src/WEJHEROWO.ulice.txt"/>
  </way>
  <way id="19888402" version="10" timestamp="2011-07-19T11:15:46Z" uid="378154" user="rosomak" changeset="8767278">
    <nd ref="1071743032"/>
    <nd ref="208638935"/>
    <nd ref="526022220"/>
    <nd ref="526017369"/>
    <nd ref="1072038104"/>
    <nd ref="526016392"/>
    <nd ref="258293624"/>
    <tag k="highway" v="secondary"/>
    <tag k="name" v="3 Maja"/>
    <tag k="ref" v="218"/>
    <tag k="source" v="UMP-PL, ./UMP-Gdansk/src/WEJHEROWO.ulice.txt"/>
  </way>
  <way id="19888402" version="11" timestamp="2011-07-19T11:37:07Z" uid="378154" user="rosomak" changeset="8767433">
    <nd ref="1071743032"/>
    <nd ref="208638935"/>
    <nd ref="526022220"/>
    <nd ref="526017369"/>
    <nd ref="1366539196"/>
    <nd ref="1366539199"/>
    <nd ref="1072038104"/>
    <nd ref="526016392"/>
    <nd ref="258293624"/>
    <tag k="highway" v="secondary"/>
    <tag k="name" v="3 Maja"/>
    <tag k="ref" v="218"/>
    <tag k="source" v="UMP-PL, ./UMP-Gdansk/src/WEJHEROWO.ulice.txt"/>
  </way>
  <way id="19888402" version="12" timestamp="2012-01-21T19:39:58Z" uid="449743" user="RadekZ" changeset="10459000">
    <nd ref="1600411335"/>
    <nd ref="208638935"/>
    <nd ref="526022220"/>
    <nd ref="526017369"/>
    <nd ref="1366539196"/>
    <nd ref="1366539199"/>
    <nd ref="1072038104"/>
    <nd ref="526016392"/>
    <nd ref="258293624"/>
    <tag k="highway" v="secondary"/>
    <tag k="name" v="3 Maja"/>
    <tag k="ref" v="218"/>
    <tag k="source" v="UMP-PL, ./UMP-Gdansk/src/WEJHEROWO.ulice.txt"/>
  </way>
  <way id="19888402" version="13" timestamp="2012-01-30T15:46:08Z" uid="378154" user="rosomak" changeset="10540881">
    <nd ref="1600411335"/>
    <nd ref="208638935"/>
    <nd ref="526022220"/>
    <nd ref="526017369"/>
    <nd ref="1366539196"/>
    <nd ref="1366539199"/>
    <nd ref="1072038104"/>
    <nd ref="258293624"/>
    <tag k="highway" v="secondary"/>
    <tag k="name" v="3 Maja"/>
    <tag k="ref" v="218"/>
    <tag k="source" v="UMP-PL, ./UMP-Gdansk/src/WEJHEROWO.ulice.txt"/>
  </way>
  <way id="19888402" version="14" timestamp="2012-02-02T16:01:09Z" uid="378154" user="rosomak" changeset="10568848">
    <nd ref="1600411335"/>
    <nd ref="208638935"/>
    <nd ref="526022220"/>
    <nd ref="526017369"/>
    <nd ref="1366539196"/>
    <nd ref="1366539199"/>
    <nd ref="1072038104"/>
    <nd ref="258293624"/>
    <tag k="highway" v="secondary"/>
    <tag k="name" v="3 Maja"/>
    <tag k="ref" v="218"/>
  </way>
  <way id="19888403" version="2" timestamp="2008-10-09T15:28:19Z" uid="30632" user="antblant" changeset="188678">
    <nd ref="208638877"/>
    <nd ref="208638957"/>
    <nd ref="208639049"/>
    <tag k="created_by" v="JOSM"/>
    <tag k="highway" v="unclassified"/>
    <tag k="name" v="Pruszkowskiego"/>
    <tag k="source" v="UMP-PL, ./UMP-Gdansk/src/WEJHEROWO.ulice.txt"/>
  </way>
  <way id="19888403" version="3" timestamp="2010-11-26T18:56:30Z" uid="91056" user="Yarl" changeset="6464262">
    <nd ref="208638877"/>
    <nd ref="208638957"/>
    <nd ref="1005775623"/>
    <tag k="highway" v="residential"/>
    <tag k="name" v="Tadeusza Pruszkowskiego"/>
  </way>
  <way id="19888403" version="4" timestamp="2012-02-02T16:49:05Z" uid="378154" user="rosomak" changeset="10569270">
    <nd ref="208638877"/>
    <nd ref="208638957"/>
    <nd ref="1005775623"/>
    <tag k="highway" v="residential"/>
    <tag k="name" v="Rejtana"/>
  </way>
  <way id="19888403" version="5" timestamp="2012-02-02T17:06:09Z" uid="378154" user="rosomak" changeset="10569390">
    <nd ref="208638877"/>
    <nd ref="208638957"/>
    <nd ref="1005775623"/>
    <tag k="highway" v="residential"/>
    <tag k="name" v="Rejtana"/>
  </way>
  <way id="19888422" version="2" timestamp="2008-09-22T15:52:25Z" uid="30632" user="antblant" changeset="680284">
    <nd ref="208638967"/>
    <nd ref="208638761"/>
    <nd ref="208638778"/>
    <nd ref="208638912"/>
    <nd ref="208638831"/>
    <nd ref="208639070"/>
    <nd ref="208639189"/>
    <nd ref="208639033"/>
    <nd ref="208639137"/>
    <nd ref="208638663"/>
    <nd ref="208638649"/>
    <nd ref="208638619"/>
    <nd ref="208638720"/>
    <nd ref="208638792"/>
    <nd ref="208638552"/>
    <nd ref="208638488"/>
    <nd ref="208638386"/>
    <nd ref="208639251"/>
    <nd ref="208638426"/>
    <tag k="created_by" v="Potlatch 0.10b"/>
    <tag k="highway" v="primary"/>
    <tag k="name" v="Gdanska"/>
    <tag k="oneway" v="true"/>
    <tag k="ref" v="6"/>
    <tag k="source" v="UMP-PL, ./UMP-Gdansk/src/WEJHEROWO.ulice.txt"/>
  </way>
  <way id="19888422" version="3" timestamp="2008-10-19T14:48:13Z" uid="53100" user="Jakub Klawiter" changeset="439712">
    <nd ref="208638967"/>
    <nd ref="208638761"/>
    <nd ref="208638778"/>
    <nd ref="208638912"/>
    <nd ref="208638831"/>
    <nd ref="208639070"/>
    <nd ref="208639189"/>
    <nd ref="208639033"/>
    <nd ref="208639137"/>
    <nd ref="208638663"/>
    <nd ref="208638649"/>
    <nd ref="208638619"/>
    <nd ref="208638720"/>
    <nd ref="208638792"/>
    <nd ref="208638552"/>
    <nd ref="208638488"/>
    <nd ref="208638386"/>
    <nd ref="208639251"/>
    <nd ref="208638426"/>
    <tag k="created_by" v="Potlatch 0.10b"/>
    <tag k="highway" v="primary"/>
    <tag k="name" v="Gdańska"/>
    <tag k="oneway" v="true"/>
    <tag k="ref" v="6"/>
    <tag k="source" v="UMP-PL, ./UMP-Gdansk/src/WEJHEROWO.ulice.txt"/>
  </way>
  <way id="19888422" version="4" timestamp="2009-02-16T21:40:47Z" uid="9176" user="Maarten Deen" changeset="486420">
    <nd ref="258290835"/>
    <nd ref="208638761"/>
    <nd ref="208638778"/>
    <nd ref="208638912"/>
    <nd ref="208638831"/>
    <nd ref="208639070"/>
    <nd ref="208639189"/>
    <nd ref="208639033"/>
    <nd ref="208639137"/>
    <nd ref="208638663"/>
    <nd ref="208638649"/>
    <nd ref="208638619"/>
    <nd ref="208638720"/>
    <nd ref="208638792"/>
    <nd ref="208638552"/>
    <nd ref="208638488"/>
    <nd ref="208638386"/>
    <nd ref="208639251"/>
    <nd ref="208638426"/>
    <tag k="created_by" v="Potlatch 0.10b"/>
    <tag k="highway" v="primary"/>
    <tag k="name" v="Gdańska"/>
    <tag k="oneway" v="true"/>
    <tag k="ref" v="6"/>
    <tag k="source" v="UMP-PL, ./UMP-Gdansk/src/WEJHEROWO.ulice.txt"/>
  </way>
  <way id="19888422" version="5" timestamp="2009-02-16T21:56:15Z" uid="9176" user="Maarten Deen" changeset="486420">
    <nd ref="258290835"/>
    <nd ref="208638761"/>
    <nd ref="208638778"/>
    <nd ref="208638912"/>
    <nd ref="208638831"/>
    <nd ref="208639070"/>
    <nd ref="208639189"/>
    <nd ref="208639033"/>
    <nd ref="208639137"/>
    <nd ref="208638663"/>
    <nd ref="208638649"/>
    <nd ref="208638619"/>
    <nd ref="208638720"/>
    <nd ref="208638792"/>
    <nd ref="208638552"/>
    <nd ref="208638488"/>
    <nd ref="208638386"/>
    <nd ref="208639251"/>
    <nd ref="208638426"/>
    <tag k="created_by" v="Potlatch 0.10b"/>
    <tag k="highway" v="primary"/>
    <tag k="int_ref" v="E 28"/>
    <tag k="name" v="Gdańska"/>
    <tag k="oneway" v="true"/>
    <tag k="ref" v="6"/>
    <tag k="source" v="UMP-PL, ./UMP-Gdansk/src/WEJHEROWO.ulice.txt"/>
  </way>
  <way id="19888422" version="6" timestamp="2009-04-11T22:22:09Z" uid="30632" user="antblant" changeset="437925">
    <nd ref="258290835"/>
    <nd ref="208638761"/>
    <nd ref="208638778"/>
    <nd ref="208638912"/>
    <nd ref="208638831"/>
    <nd ref="208639070"/>
    <nd ref="208639189"/>
    <nd ref="208639033"/>
    <nd ref="208639137"/>
    <nd ref="208638663"/>
    <nd ref="208638649"/>
    <nd ref="208638619"/>
    <nd ref="208638720"/>
    <nd ref="208638792"/>
    <nd ref="208638552"/>
    <nd ref="208638488"/>
    <nd ref="208638386"/>
    <nd ref="208639251"/>
    <nd ref="208638426"/>
    <tag k="created_by" v="Potlatch 0.10f"/>
    <tag k="highway" v="primary"/>
    <tag k="int_ref" v="E 28"/>
    <tag k="name" v="Gdańska"/>
    <tag k="oneway" v="yes"/>
    <tag k="ref" v="6"/>
    <tag k="source" v="UMP-PL, ./UMP-Gdansk/src/WEJHEROWO.ulice.txt"/>
  </way>
  <way id="19888422" version="7" timestamp="2009-07-29T18:44:46Z" uid="59808" user="ortylp" changeset="1978489">
    <nd ref="258290835"/>
    <nd ref="208638761"/>
    <nd ref="208638778"/>
    <nd ref="208638831"/>
    <nd ref="450943041"/>
    <nd ref="208639070"/>
    <nd ref="208639189"/>
    <nd ref="208639033"/>
    <nd ref="208639137"/>
    <nd ref="208638663"/>
    <nd ref="208638649"/>
    <nd ref="208638619"/>
    <nd ref="208638720"/>
    <nd ref="208638792"/>
    <nd ref="208638488"/>
    <nd ref="208639251"/>
    <nd ref="208638426"/>
    <tag k="created_by" v="Potlatch 0.10f"/>
    <tag k="highway" v="primary"/>
    <tag k="int_ref" v="E 28"/>
    <tag k="name" v="Gdańska"/>
    <tag k="oneway" v="yes"/>
    <tag k="ref" v="6"/>
    <tag k="source" v="UMP-PL, ./UMP-Gdansk/src/WEJHEROWO.ulice.txt"/>
  </way>
  <way id="19888422" version="8" timestamp="2009-09-15T16:34:30Z" uid="86504" user="Thomas8122" changeset="2494190">
    <nd ref="258290835"/>
    <nd ref="208638761"/>
    <nd ref="208638778"/>
    <nd ref="497183008"/>
    <nd ref="208638831"/>
    <nd ref="450943041"/>
    <nd ref="208639070"/>
    <nd ref="208639189"/>
    <nd ref="208639033"/>
    <nd ref="208639137"/>
    <nd ref="208638663"/>
    <nd ref="208638649"/>
    <nd ref="208638619"/>
    <nd ref="208638720"/>
    <nd ref="208638792"/>
    <nd ref="208638488"/>
    <nd ref="208639251"/>
    <nd ref="208638426"/>
    <tag k="highway" v="primary"/>
    <tag k="int_ref" v="E 28"/>
    <tag k="name" v="Gdańska"/>
    <tag k="oneway" v="yes"/>
    <tag k="ref" v="6"/>
    <tag k="source" v="UMP-PL, ./UMP-Gdansk/src/WEJHEROWO.ulice.txt"/>
  </way>
  <way id="19888422" version="9" timestamp="2010-11-26T18:56:11Z" uid="91056" user="Yarl" changeset="6464262">
    <nd ref="258290835"/>
    <nd ref="208638761"/>
    <nd ref="208638778"/>
    <nd ref="497183008"/>
    <nd ref="208638831"/>
    <nd ref="450943041"/>
    <nd ref="208639070"/>
    <nd ref="208639189"/>
    <nd ref="208639033"/>
    <nd ref="208639137"/>
    <nd ref="208638663"/>
    <nd ref="1005775806"/>
    <nd ref="208638649"/>
    <nd ref="208638619"/>
    <nd ref="1005774966"/>
    <nd ref="208638720"/>
    <nd ref="1005775647"/>
    <nd ref="208638792"/>
    <nd ref="208638488"/>
    <nd ref="208639251"/>
    <nd ref="208638426"/>
    <tag k="highway" v="primary"/>
    <tag k="int_ref" v="E 28"/>
    <tag k="name" v="Gdańska"/>
    <tag k="oneway" v="yes"/>
    <tag k="ref" v="6"/>
    <tag k="source" v="UMP-PL, ./UMP-Gdansk/src/WEJHEROWO.ulice.txt"/>
  </way>
  <way id="19888422" version="10" timestamp="2011-06-20T13:30:33Z" uid="378154" user="rosomak" changeset="8494492">
    <nd ref="258290835"/>
    <nd ref="208638761"/>
    <nd ref="208638778"/>
    <nd ref="497183008"/>
    <nd ref="208638831"/>
    <nd ref="450943041"/>
    <nd ref="208639070"/>
    <nd ref="208639189"/>
    <nd ref="208639033"/>
    <nd ref="208639137"/>
    <nd ref="208638663"/>
    <nd ref="1005775806"/>
    <nd ref="208638649"/>
    <nd ref="208638619"/>
    <nd ref="1005774966"/>
    <nd ref="208638720"/>
    <nd ref="1005775647"/>
    <nd ref="1005775235"/>
    <nd ref="208638488"/>
    <nd ref="208639251"/>
    <nd ref="208638426"/>
    <tag k="highway" v="primary"/>
    <tag k="int_ref" v="E 28"/>
    <tag k="name" v="Gdańska"/>
    <tag k="oneway" v="yes"/>
    <tag k="ref" v="6"/>
    <tag k="source" v="UMP-PL, ./UMP-Gdansk/src/WEJHEROWO.ulice.txt"/>
  </way>
  <way id="19888422" version="11" timestamp="2011-07-18T21:50:44Z" uid="460511" user="arturb" changeset="8763480">
    <nd ref="258290835"/>
    <nd ref="208638761"/>
    <nd ref="208638778"/>
    <tag k="highway" v="primary"/>
    <tag k="int_ref" v="E 28"/>
    <tag k="name" v="Gdańska"/>
    <tag k="oneway" v="yes"/>
    <tag k="ref" v="6"/>
    <tag k="source" v="UMP-PL, ./UMP-Gdansk/src/WEJHEROWO.ulice.txt"/>
  </way>
  <way id="19888422" version="12" timestamp="2011-07-20T13:03:38Z" uid="460511" user="arturb" changeset="8778452">
    <nd ref="258290835"/>
    <nd ref="208638761"/>
    <nd ref="208638778"/>
    <tag k="highway" v="primary"/>
    <tag k="int_ref" v="E 28"/>
    <tag k="maxspeed" v="70"/>
    <tag k="name" v="Gdańska"/>
    <tag k="oneway" v="yes"/>
    <tag k="ref" v="6"/>
    <tag k="source" v="UMP-PL, ./UMP-Gdansk/src/WEJHEROWO.ulice.txt"/>
  </way>
  <way id="19888422" version="13" timestamp="2011-07-26T14:37:47Z" uid="378154" user="rosomak" changeset="8836491">
    <nd ref="258290835"/>
    <nd ref="208638761"/>
    <nd ref="497183974"/>
    <nd ref="208638778"/>
    <tag k="highway" v="primary"/>
    <tag k="int_ref" v="E 28"/>
    <tag k="maxspeed" v="70"/>
    <tag k="name" v="Gdańska"/>
    <tag k="oneway" v="yes"/>
    <tag k="ref" v="6"/>
    <tag k="source" v="UMP-PL, ./UMP-Gdansk/src/WEJHEROWO.ulice.txt"/>
  </way>
  <way id="19888422" version="14" timestamp="2011-07-26T16:44:02Z" uid="378154" user="rosomak" changeset="8837543">
    <nd ref="258290835"/>
    <nd ref="1374951308"/>
    <nd ref="208638761"/>
    <nd ref="497183974"/>
    <nd ref="208638778"/>
    <tag k="highway" v="primary"/>
    <tag k="int_ref" v="E 28"/>
    <tag k="maxspeed" v="70"/>
    <tag k="name" v="Gdańska"/>
    <tag k="oneway" v="yes"/>
    <tag k="ref" v="6"/>
    <tag k="source" v="UMP-PL, ./UMP-Gdansk/src/WEJHEROWO.ulice.txt"/>
  </way>
  <way id="19888422" version="15" timestamp="2012-02-20T01:12:10Z" uid="467703" user="Zbigniew Czernik" changeset="10736568">
    <nd ref="258290835"/>
    <nd ref="1374951308"/>
    <nd ref="208638761"/>
    <nd ref="497183974"/>
    <nd ref="208638778"/>
    <tag k="highway" v="primary"/>
    <tag k="int_ref" v="E 28"/>
    <tag k="maxspeed" v="70"/>
    <tag k="name" v="Gdańska"/>
    <tag k="oneway" v="yes"/>
    <tag k="ref" v="6"/>
  </way>
  <way id="19888422" version="16" timestamp="2012-02-21T23:49:03Z" uid="378154" user="rosomak" changeset="10755153">
    <nd ref="258290835"/>
    <nd ref="1374951308"/>
    <nd ref="208638761"/>
    <nd ref="497183974"/>
    <tag k="highway" v="primary"/>
    <tag k="int_ref" v="E 28"/>
    <tag k="maxspeed" v="70"/>
    <tag k="name" v="Gdańska"/>
    <tag k="oneway" v="yes"/>
    <tag k="ref" v="6"/>
  </way>
  <way id="19888429" version="2" timestamp="2008-09-22T15:43:59Z" uid="30632" user="antblant" changeset="680284">
    <nd ref="258185113"/>
    <nd ref="208639053"/>
    <nd ref="208638858"/>
    <nd ref="208638770"/>
    <nd ref="208638917"/>
    <nd ref="208638756"/>
    <nd ref="208638978"/>
    <nd ref="208639132"/>
    <nd ref="208638813"/>
    <nd ref="208638841"/>
    <nd ref="208638517"/>
    <nd ref="208638492"/>
    <nd ref="208638903"/>
    <nd ref="208639012"/>
    <nd ref="208638432"/>
    <nd ref="208638375"/>
    <nd ref="208638592"/>
    <nd ref="208638699"/>
    <nd ref="208639247"/>
    <nd ref="208639163"/>
    <nd ref="208639194"/>
    <nd ref="208639233"/>
    <nd ref="208638677"/>
    <nd ref="208638580"/>
    <nd ref="208638606"/>
    <nd ref="208638356"/>
    <nd ref="208638401"/>
    <tag k="created_by" v="Potlatch 0.10b"/>
    <tag k="highway" v="primary"/>
    <tag k="name" v="I Brygady Pancernej WP"/>
    <tag k="oneway" v="true"/>
    <tag k="ref" v="6"/>
    <tag k="source" v="UMP-PL, ./UMP-Gdansk/src/WEJHEROWO.ulice.txt"/>
  </way>
  <way id="19888429" version="3" timestamp="2008-10-16T19:10:24Z" uid="53100" user="Jakub Klawiter" changeset="388840">
    <nd ref="258185113"/>
    <nd ref="208639053"/>
    <nd ref="208638858"/>
    <nd ref="208638770"/>
    <nd ref="208638917"/>
    <nd ref="208638756"/>
    <nd ref="208638978"/>
    <nd ref="208639132"/>
    <nd ref="208638813"/>
    <nd ref="208638841"/>
    <nd ref="208638517"/>
    <nd ref="208638492"/>
    <nd ref="208638903"/>
    <nd ref="208639012"/>
    <nd ref="208638432"/>
    <nd ref="208638375"/>
    <nd ref="208638592"/>
    <nd ref="208638699"/>
    <nd ref="208639247"/>
    <nd ref="208639163"/>
    <nd ref="208639194"/>
    <nd ref="208639233"/>
    <nd ref="208638677"/>
    <nd ref="208638580"/>
    <nd ref="208638606"/>
    <nd ref="208638356"/>
    <nd ref="208638401"/>
    <tag k="created_by" v="Potlatch 0.10b"/>
    <tag k="highway" v="primary"/>
    <tag k="name" v="I Brygady Pancernej Wojska Polskiego"/>
    <tag k="oneway" v="true"/>
    <tag k="ref" v="6"/>
    <tag k="source" v="UMP-PL, ./UMP-Gdansk/src/WEJHEROWO.ulice.txt"/>
  </way>
  <way id="19888429" version="4" timestamp="2009-02-16T21:56:15Z" uid="9176" user="Maarten Deen" changeset="486420">
    <nd ref="258185113"/>
    <nd ref="208639053"/>
    <nd ref="208638858"/>
    <nd ref="208638770"/>
    <nd ref="208638917"/>
    <nd ref="208638756"/>
    <nd ref="208638978"/>
    <nd ref="208639132"/>
    <nd ref="208638813"/>
    <nd ref="208638841"/>
    <nd ref="208638517"/>
    <nd ref="208638492"/>
    <nd ref="208638903"/>
    <nd ref="208639012"/>
    <nd ref="208638432"/>
    <nd ref="208638375"/>
    <nd ref="208638592"/>
    <nd ref="208638699"/>
    <nd ref="208639247"/>
    <nd ref="208639163"/>
    <nd ref="208639194"/>
    <nd ref="208639233"/>
    <nd ref="208638677"/>
    <nd ref="208638580"/>
    <nd ref="208638606"/>
    <nd ref="208638356"/>
    <nd ref="208638401"/>
    <tag k="created_by" v="Potlatch 0.10b"/>
    <tag k="highway" v="primary"/>
    <tag k="int_ref" v="E 28"/>
    <tag k="name" v="I Brygady Pancernej Wojska Polskiego"/>
    <tag k="oneway" v="true"/>
    <tag k="ref" v="6"/>
    <tag k="source" v="UMP-PL, ./UMP-Gdansk/src/WEJHEROWO.ulice.txt"/>
  </way>
  <way id="19888429" version="5" timestamp="2009-04-11T22:21:30Z" uid="30632" user="antblant" changeset="437925">
    <nd ref="258185113"/>
    <nd ref="208639053"/>
    <nd ref="208638858"/>
    <nd ref="208638770"/>
    <nd ref="208638917"/>
    <nd ref="208638756"/>
    <nd ref="208638978"/>
    <nd ref="208639132"/>
    <nd ref="208638813"/>
    <nd ref="208638841"/>
    <nd ref="208638517"/>
    <nd ref="208638492"/>
    <nd ref="208638903"/>
    <nd ref="208639012"/>
    <nd ref="208638432"/>
    <nd ref="208638375"/>
    <nd ref="208638592"/>
    <nd ref="208638699"/>
    <nd ref="208639247"/>
    <nd ref="208639163"/>
    <nd ref="208639194"/>
    <nd ref="208639233"/>
    <nd ref="208638677"/>
    <nd ref="208638580"/>
    <nd ref="208638606"/>
    <nd ref="208638356"/>
    <nd ref="208638401"/>
    <tag k="created_by" v="Potlatch 0.10f"/>
    <tag k="highway" v="primary"/>
    <tag k="int_ref" v="E 28"/>
    <tag k="name" v="I Brygady Pancernej Wojska Polskiego"/>
    <tag k="oneway" v="yes"/>
    <tag k="ref" v="6"/>
    <tag k="source" v="UMP-PL, ./UMP-Gdansk/src/WEJHEROWO.ulice.txt"/>
  </way>
  <way id="19888429" version="6" timestamp="2009-07-29T18:44:44Z" uid="59808" user="ortylp" changeset="1978489">
    <nd ref="258185113"/>
    <nd ref="208639053"/>
    <nd ref="208638770"/>
    <nd ref="208638917"/>
    <nd ref="208638756"/>
    <nd ref="208638978"/>
    <nd ref="208638813"/>
    <nd ref="208638841"/>
    <nd ref="208638517"/>
    <nd ref="208638492"/>
    <nd ref="208638903"/>
    <nd ref="450943051"/>
    <nd ref="208639012"/>
    <nd ref="208638432"/>
    <nd ref="208638375"/>
    <nd ref="450943043"/>
    <nd ref="208638592"/>
    <nd ref="208638699"/>
    <nd ref="208639247"/>
    <nd ref="208639163"/>
    <nd ref="208639194"/>
    <nd ref="208638677"/>
    <nd ref="208638606"/>
    <nd ref="208638356"/>
    <nd ref="208638401"/>
    <tag k="highway" v="primary"/>
    <tag k="int_ref" v="E 28"/>
    <tag k="name" v="I Brygady Pancernej Wojska Polskiego"/>
    <tag k="oneway" v="yes"/>
    <tag k="ref" v="6"/>
    <tag k="source" v="UMP-PL, ./UMP-Gdansk/src/WEJHEROWO.ulice.txt"/>
  </way>
  <way id="19888429" version="7" timestamp="2009-09-21T14:54:05Z" uid="86504" user="Thomas8122" changeset="2558499">
    <nd ref="258185113"/>
    <nd ref="208639053"/>
    <nd ref="208638770"/>
    <nd ref="208638917"/>
    <nd ref="208638756"/>
    <nd ref="208638978"/>
    <nd ref="208638813"/>
    <nd ref="208638841"/>
    <nd ref="208638517"/>
    <nd ref="208638492"/>
    <nd ref="208638903"/>
    <nd ref="450943051"/>
    <nd ref="208639012"/>
    <nd ref="208638432"/>
    <nd ref="208638375"/>
    <nd ref="450943043"/>
    <nd ref="208638592"/>
    <nd ref="208638699"/>
    <nd ref="504317798"/>
    <nd ref="208639247"/>
    <nd ref="208639163"/>
    <nd ref="208639194"/>
    <nd ref="208638677"/>
    <nd ref="208638606"/>
    <nd ref="208638356"/>
    <nd ref="208638401"/>
    <tag k="highway" v="primary"/>
    <tag k="int_ref" v="E 28"/>
    <tag k="name" v="I Brygady Pancernej Wojska Polskiego"/>
    <tag k="oneway" v="yes"/>
    <tag k="ref" v="6"/>
    <tag k="source" v="UMP-PL, ./UMP-Gdansk/src/WEJHEROWO.ulice.txt"/>
  </way>
  <way id="19888429" version="8" timestamp="2010-05-26T12:42:43Z" uid="91056" user="Yarl" changeset="4812750">
    <nd ref="258185113"/>
    <nd ref="208639053"/>
    <nd ref="208638770"/>
    <nd ref="208638917"/>
    <nd ref="208638756"/>
    <nd ref="208638978"/>
    <nd ref="208638813"/>
    <nd ref="208638841"/>
    <nd ref="208638517"/>
    <nd ref="208638492"/>
    <nd ref="208638903"/>
    <nd ref="450943051"/>
    <nd ref="208639012"/>
    <nd ref="208638432"/>
    <nd ref="208638375"/>
    <nd ref="450943043"/>
    <nd ref="208638592"/>
    <nd ref="208638699"/>
    <nd ref="748866001"/>
    <nd ref="208639247"/>
    <nd ref="208639163"/>
    <nd ref="208639194"/>
    <nd ref="208638677"/>
    <nd ref="208638606"/>
    <nd ref="208638356"/>
    <nd ref="208638401"/>
    <tag k="highway" v="primary"/>
    <tag k="int_ref" v="E 28"/>
    <tag k="name" v="I Brygady Pancernej Wojska Polskiego"/>
    <tag k="oneway" v="yes"/>
    <tag k="ref" v="6"/>
    <tag k="source" v="UMP-PL, ./UMP-Gdansk/src/WEJHEROWO.ulice.txt"/>
  </way>
  <way id="19888429" version="9" timestamp="2010-11-26T18:56:10Z" uid="91056" user="Yarl" changeset="6464262">
    <nd ref="258185113"/>
    <nd ref="208639053"/>
    <nd ref="208638770"/>
    <nd ref="208638917"/>
    <nd ref="208638756"/>
    <nd ref="208638978"/>
    <nd ref="208638813"/>
    <nd ref="208638841"/>
    <nd ref="208638517"/>
    <nd ref="208638492"/>
    <nd ref="208638903"/>
    <nd ref="450943051"/>
    <nd ref="208639012"/>
    <tag k="highway" v="primary"/>
    <tag k="int_ref" v="E 28"/>
    <tag k="name" v="I Brygady Pancernej Wojska Polskiego"/>
    <tag k="oneway" v="yes"/>
    <tag k="ref" v="6"/>
    <tag k="source" v="UMP-PL, ./UMP-Gdansk/src/WEJHEROWO.ulice.txt"/>
  </way>
  <way id="19888429" version="10" timestamp="2011-07-20T13:03:41Z" uid="460511" user="arturb" changeset="8778452">
    <nd ref="258185113"/>
    <nd ref="208639053"/>
    <nd ref="208638770"/>
    <nd ref="208638917"/>
    <nd ref="208638756"/>
    <nd ref="208638978"/>
    <nd ref="208638813"/>
    <nd ref="208638841"/>
    <nd ref="208638517"/>
    <nd ref="208638492"/>
    <nd ref="208638903"/>
    <nd ref="450943051"/>
    <nd ref="208639012"/>
    <tag k="highway" v="primary"/>
    <tag k="int_ref" v="E 28"/>
    <tag k="maxspeed" v="70"/>
    <tag k="name" v="I Brygady Pancernej Wojska Polskiego"/>
    <tag k="oneway" v="yes"/>
    <tag k="ref" v="6"/>
    <tag k="source" v="UMP-PL, ./UMP-Gdansk/src/WEJHEROWO.ulice.txt"/>
  </way>
  <way id="19888429" version="11" timestamp="2012-02-03T20:34:23Z" uid="378154" user="rosomak" changeset="10578910">
    <nd ref="258185113"/>
    <nd ref="208639053"/>
    <nd ref="208638770"/>
    <nd ref="208638917"/>
    <nd ref="208638756"/>
    <nd ref="208638978"/>
    <nd ref="208638813"/>
    <nd ref="208638841"/>
    <nd ref="208638517"/>
    <nd ref="208638492"/>
    <nd ref="208638903"/>
    <nd ref="450943051"/>
    <nd ref="208639012"/>
    <tag k="highway" v="primary"/>
    <tag k="int_ref" v="E 28"/>
    <tag k="maxspeed" v="70"/>
    <tag k="name" v="I Brygady Pancernej Wojska Polskiego"/>
    <tag k="oneway" v="yes"/>
    <tag k="ref" v="6"/>
  </way>
  <way id="19888429" version="12" timestamp="2012-02-21T23:19:10Z" uid="378154" user="rosomak" changeset="10755003">
    <nd ref="258185113"/>
    <nd ref="208639053"/>
    <nd ref="208638770"/>
    <nd ref="208638917"/>
    <nd ref="208638756"/>
    <nd ref="208638978"/>
    <nd ref="208638813"/>
    <nd ref="208638841"/>
    <nd ref="208638517"/>
    <nd ref="208638492"/>
    <nd ref="1642496346"/>
    <nd ref="208638903"/>
    <nd ref="450943051"/>
    <nd ref="208639012"/>
    <tag k="highway" v="primary"/>
    <tag k="int_ref" v="E 28"/>
    <tag k="maxspeed" v="70"/>
    <tag k="name" v="I Brygady Pancernej Wojska Polskiego"/>
    <tag k="oneway" v="yes"/>
    <tag k="ref" v="6"/>
  </way>
  <way id="19888429" version="13" timestamp="2012-02-21T23:48:56Z" uid="378154" user="rosomak" changeset="10755153">
    <nd ref="258185113"/>
    <nd ref="208639053"/>
    <nd ref="208638770"/>
    <nd ref="208638917"/>
    <nd ref="208638756"/>
    <nd ref="208638978"/>
    <nd ref="1642528494"/>
    <nd ref="208638813"/>
    <nd ref="208638841"/>
    <nd ref="208638517"/>
    <nd ref="208638492"/>
    <nd ref="1642496346"/>
    <nd ref="208638903"/>
    <nd ref="450943051"/>
    <nd ref="208639012"/>
    <tag k="highway" v="primary"/>
    <tag k="int_ref" v="E 28"/>
    <tag k="maxspeed" v="70"/>
    <tag k="name" v="I Brygady Pancernej Wojska Polskiego"/>
    <tag k="oneway" v="yes"/>
    <tag k="ref" v="6"/>
  </way>
  <way id="19888431" version="2" timestamp="2008-09-22T15:43:56Z" uid="30632" user="antblant" changeset="680284">
    <nd ref="208638426"/>
    <nd ref="208638453"/>
    <nd ref="208638706"/>
    <nd ref="208638359"/>
    <nd ref="208638398"/>
    <nd ref="208638683"/>
    <nd ref="208638576"/>
    <nd ref="208638733"/>
    <nd ref="208638767"/>
    <nd ref="208638882"/>
    <nd ref="208638864"/>
    <nd ref="208639228"/>
    <nd ref="208638939"/>
    <nd ref="208638907"/>
    <nd ref="208638668"/>
    <nd ref="208639240"/>
    <nd ref="208639094"/>
    <nd ref="208639065"/>
    <nd ref="208638569"/>
    <nd ref="208639107"/>
    <nd ref="208639272"/>
    <nd ref="208639180"/>
    <nd ref="208638509"/>
    <nd ref="208638986"/>
    <nd ref="208638900"/>
    <nd ref="208638819"/>
    <nd ref="299058884"/>
    <tag k="created_by" v="Potlatch 0.10b"/>
    <tag k="highway" v="primary"/>
    <tag k="name" v="I Brygady Pancernej WP"/>
    <tag k="oneway" v="true"/>
    <tag k="ref" v="6"/>
    <tag k="source" v="UMP-PL, ./UMP-Gdansk/src/WEJHEROWO.ulice.txt"/>
  </way>
  <way id="19888431" version="3" timestamp="2008-09-22T15:44:02Z" uid="30632" user="antblant" changeset="680284">
    <nd ref="208638426"/>
    <nd ref="208638453"/>
    <nd ref="208638706"/>
    <nd ref="208638359"/>
    <nd ref="208638398"/>
    <nd ref="208638683"/>
    <nd ref="208638576"/>
    <nd ref="208638733"/>
    <nd ref="208638767"/>
    <nd ref="208638882"/>
    <nd ref="208638864"/>
    <nd ref="208639228"/>
    <nd ref="208638939"/>
    <nd ref="208638907"/>
    <nd ref="208638668"/>
    <nd ref="208639240"/>
    <nd ref="208639094"/>
    <nd ref="208639065"/>
    <nd ref="208638569"/>
    <nd ref="208639107"/>
    <nd ref="208639272"/>
    <nd ref="208639180"/>
    <nd ref="208638509"/>
    <nd ref="208638986"/>
    <nd ref="208638900"/>
    <nd ref="208638819"/>
    <nd ref="258288698"/>
    <tag k="created_by" v="Potlatch 0.10b"/>
    <tag k="highway" v="primary"/>
    <tag k="name" v="I Brygady Pancernej WP"/>
    <tag k="oneway" v="true"/>
    <tag k="ref" v="6"/>
    <tag k="source" v="UMP-PL, ./UMP-Gdansk/src/WEJHEROWO.ulice.txt"/>
  </way>
  <way id="19888431" version="4" timestamp="2008-10-16T19:10:40Z" uid="53100" user="Jakub Klawiter" changeset="388840">
    <nd ref="208638426"/>
    <nd ref="208638453"/>
    <nd ref="208638706"/>
    <nd ref="208638359"/>
    <nd ref="208638398"/>
    <nd ref="208638683"/>
    <nd ref="208638576"/>
    <nd ref="208638733"/>
    <nd ref="208638767"/>
    <nd ref="208638882"/>
    <nd ref="208638864"/>
    <nd ref="208639228"/>
    <nd ref="208638939"/>
    <nd ref="208638907"/>
    <nd ref="208638668"/>
    <nd ref="208639240"/>
    <nd ref="208639094"/>
    <nd ref="208639065"/>
    <nd ref="208638569"/>
    <nd ref="208639107"/>
    <nd ref="208639272"/>
    <nd ref="208639180"/>
    <nd ref="208638509"/>
    <nd ref="208638986"/>
    <nd ref="208638900"/>
    <nd ref="208638819"/>
    <nd ref="258288698"/>
    <tag k="created_by" v="Potlatch 0.10b"/>
    <tag k="highway" v="primary"/>
    <tag k="name" v="I Brygady Pancernej Wojska Polskiego"/>
    <tag k="oneway" v="true"/>
    <tag k="ref" v="6"/>
    <tag k="source" v="UMP-PL, ./UMP-Gdansk/src/WEJHEROWO.ulice.txt"/>
  </way>
  <way id="19888431" version="5" timestamp="2009-02-16T21:56:16Z" uid="9176" user="Maarten Deen" changeset="486420">
    <nd ref="208638426"/>
    <nd ref="208638453"/>
    <nd ref="208638706"/>
    <nd ref="208638359"/>
    <nd ref="208638398"/>
    <nd ref="208638683"/>
    <nd ref="208638576"/>
    <nd ref="208638733"/>
    <nd ref="208638767"/>
    <nd ref="208638882"/>
    <nd ref="208638864"/>
    <nd ref="208639228"/>
    <nd ref="208638939"/>
    <nd ref="208638907"/>
    <nd ref="208638668"/>
    <nd ref="208639240"/>
    <nd ref="208639094"/>
    <nd ref="208639065"/>
    <nd ref="208638569"/>
    <nd ref="208639107"/>
    <nd ref="208639272"/>
    <nd ref="208639180"/>
    <nd ref="208638509"/>
    <nd ref="208638986"/>
    <nd ref="208638900"/>
    <nd ref="208638819"/>
    <nd ref="258288698"/>
    <tag k="created_by" v="Potlatch 0.10b"/>
    <tag k="highway" v="primary"/>
    <tag k="int_ref" v="E 28"/>
    <tag k="name" v="I Brygady Pancernej Wojska Polskiego"/>
    <tag k="oneway" v="true"/>
    <tag k="ref" v="6"/>
    <tag k="source" v="UMP-PL, ./UMP-Gdansk/src/WEJHEROWO.ulice.txt"/>
  </way>
  <way id="19888431" version="6" timestamp="2009-04-11T22:21:07Z" uid="30632" user="antblant" changeset="437925">
    <nd ref="208638426"/>
    <nd ref="208638453"/>
    <nd ref="208638706"/>
    <nd ref="208638359"/>
    <nd ref="208638398"/>
    <nd ref="208638683"/>
    <nd ref="208638576"/>
    <nd ref="208638733"/>
    <nd ref="208638767"/>
    <nd ref="208638882"/>
    <nd ref="208638864"/>
    <nd ref="208639228"/>
    <nd ref="208638939"/>
    <nd ref="208638907"/>
    <nd ref="208638668"/>
    <nd ref="208639240"/>
    <nd ref="208639094"/>
    <nd ref="208639065"/>
    <nd ref="208638569"/>
    <nd ref="208639107"/>
    <nd ref="208639272"/>
    <nd ref="208639180"/>
    <nd ref="208638509"/>
    <nd ref="208638986"/>
    <nd ref="208638900"/>
    <nd ref="208638819"/>
    <nd ref="258288698"/>
    <tag k="created_by" v="Potlatch 0.10f"/>
    <tag k="highway" v="primary"/>
    <tag k="int_ref" v="E 28"/>
    <tag k="name" v="I Brygady Pancernej Wojska Polskiego"/>
    <tag k="oneway" v="true"/>
    <tag k="ref" v="6"/>
    <tag k="source" v="UMP-PL, ./UMP-Gdansk/src/WEJHEROWO.ulice.txt"/>
  </way>
  <way id="19888431" version="7" timestamp="2009-04-11T22:21:20Z" uid="30632" user="antblant" changeset="437925">
    <nd ref="208638426"/>
    <nd ref="208638453"/>
    <nd ref="208638706"/>
    <nd ref="208638359"/>
    <nd ref="208638398"/>
    <nd ref="208638683"/>
    <nd ref="208638576"/>
    <nd ref="208638733"/>
    <nd ref="208638767"/>
    <nd ref="208638882"/>
    <nd ref="208638864"/>
    <nd ref="208639228"/>
    <nd ref="208638939"/>
    <nd ref="208638907"/>
    <nd ref="208638668"/>
    <nd ref="208639240"/>
    <nd ref="208639094"/>
    <nd ref="208639065"/>
    <nd ref="208638569"/>
    <nd ref="208639107"/>
    <nd ref="208639272"/>
    <nd ref="208639180"/>
    <nd ref="208638509"/>
    <nd ref="208638986"/>
    <nd ref="208638900"/>
    <nd ref="208638819"/>
    <nd ref="258288698"/>
    <tag k="created_by" v="Potlatch 0.10f"/>
    <tag k="highway" v="primary"/>
    <tag k="int_ref" v="E 28"/>
    <tag k="name" v="I Brygady Pancernej Wojska Polskiego"/>
    <tag k="oneway" v="yes"/>
    <tag k="ref" v="6"/>
    <tag k="source" v="UMP-PL, ./UMP-Gdansk/src/WEJHEROWO.ulice.txt"/>
  </way>
  <way id="19888431" version="8" timestamp="2009-07-29T18:44:44Z" uid="59808" user="ortylp" changeset="1978489">
    <nd ref="208638426"/>
    <nd ref="208638453"/>
    <nd ref="208638706"/>
    <nd ref="208638398"/>
    <nd ref="208638576"/>
    <nd ref="208638733"/>
    <nd ref="208638767"/>
    <nd ref="208638882"/>
    <nd ref="208638864"/>
    <nd ref="208639228"/>
    <nd ref="450943047"/>
    <nd ref="450943045"/>
    <nd ref="208638939"/>
    <nd ref="208638907"/>
    <nd ref="450943050"/>
    <nd ref="208638668"/>
    <nd ref="208639240"/>
    <nd ref="208639094"/>
    <nd ref="208639065"/>
    <nd ref="208638569"/>
    <nd ref="208639272"/>
    <nd ref="208639180"/>
    <nd ref="208638509"/>
    <nd ref="450943052"/>
    <nd ref="208638819"/>
    <nd ref="258288698"/>
    <tag k="highway" v="primary"/>
    <tag k="int_ref" v="E 28"/>
    <tag k="name" v="I Brygady Pancernej Wojska Polskiego"/>
    <tag k="oneway" v="yes"/>
    <tag k="ref" v="6"/>
    <tag k="source" v="UMP-PL, ./UMP-Gdansk/src/WEJHEROWO.ulice.txt"/>
  </way>
  <way id="19888431" version="9" timestamp="2009-08-17T20:38:42Z" uid="54910" user="Marcin Floryan" changeset="2183153">
    <nd ref="208638426"/>
    <nd ref="208638453"/>
    <nd ref="208638706"/>
    <nd ref="208638398"/>
    <nd ref="208638576"/>
    <nd ref="208638733"/>
    <nd ref="208638767"/>
    <nd ref="208638882"/>
    <nd ref="208638864"/>
    <nd ref="208639228"/>
    <nd ref="450943047"/>
    <nd ref="450943045"/>
    <nd ref="208638939"/>
    <nd ref="470018055"/>
    <nd ref="208638907"/>
    <nd ref="450943050"/>
    <nd ref="208638668"/>
    <nd ref="208639240"/>
    <nd ref="208639094"/>
    <nd ref="208639065"/>
    <nd ref="208638569"/>
    <nd ref="208639272"/>
    <nd ref="208639180"/>
    <nd ref="208638509"/>
    <nd ref="450943052"/>
    <nd ref="208638819"/>
    <nd ref="258288698"/>
    <tag k="highway" v="primary"/>
    <tag k="int_ref" v="E 28"/>
    <tag k="name" v="I Brygady Pancernej Wojska Polskiego"/>
    <tag k="oneway" v="yes"/>
    <tag k="ref" v="6"/>
    <tag k="source" v="UMP-PL, ./UMP-Gdansk/src/WEJHEROWO.ulice.txt"/>
  </way>
  <way id="19888431" version="10" timestamp="2009-09-21T14:54:17Z" uid="86504" user="Thomas8122" changeset="2558499">
    <nd ref="208638426"/>
    <nd ref="208638453"/>
    <nd ref="208638706"/>
    <nd ref="208638398"/>
    <nd ref="208638576"/>
    <nd ref="208638733"/>
    <nd ref="208638767"/>
    <nd ref="504317971"/>
    <nd ref="208638882"/>
    <nd ref="208638864"/>
    <nd ref="208639228"/>
    <nd ref="450943047"/>
    <nd ref="450943045"/>
    <nd ref="208638939"/>
    <nd ref="470018055"/>
    <nd ref="208638907"/>
    <nd ref="450943050"/>
    <nd ref="208638668"/>
    <nd ref="208639240"/>
    <nd ref="208639094"/>
    <nd ref="208639065"/>
    <nd ref="208638569"/>
    <nd ref="208639272"/>
    <nd ref="208639180"/>
    <nd ref="208638509"/>
    <nd ref="450943052"/>
    <nd ref="208638819"/>
    <nd ref="258288698"/>
    <tag k="highway" v="primary"/>
    <tag k="int_ref" v="E 28"/>
    <tag k="name" v="I Brygady Pancernej Wojska Polskiego"/>
    <tag k="oneway" v="yes"/>
    <tag k="ref" v="6"/>
    <tag k="source" v="UMP-PL, ./UMP-Gdansk/src/WEJHEROWO.ulice.txt"/>
  </way>
  <way id="19888431" version="11" timestamp="2010-11-26T18:56:05Z" uid="91056" user="Yarl" changeset="6464262">
    <nd ref="208638426"/>
    <nd ref="208638453"/>
    <nd ref="208638706"/>
    <nd ref="208638398"/>
    <nd ref="208638576"/>
    <nd ref="208638733"/>
    <nd ref="208638767"/>
    <nd ref="504317971"/>
    <nd ref="1005775592"/>
    <nd ref="208638882"/>
    <nd ref="1005775777"/>
    <nd ref="1005775183"/>
    <nd ref="208638864"/>
    <nd ref="450943047"/>
    <nd ref="450943045"/>
    <nd ref="208638939"/>
    <tag k="highway" v="primary"/>
    <tag k="int_ref" v="E 28"/>
    <tag k="name" v="I Brygady Pancernej Wojska Polskiego"/>
    <tag k="oneway" v="yes"/>
    <tag k="ref" v="6"/>
    <tag k="source" v="UMP-PL, ./UMP-Gdansk/src/WEJHEROWO.ulice.txt"/>
  </way>
  <way id="19888431" version="12" timestamp="2011-07-19T11:51:35Z" uid="378154" user="rosomak" changeset="8767554">
    <nd ref="208638426"/>
    <nd ref="208638453"/>
    <nd ref="208638706"/>
    <nd ref="1366553913"/>
    <nd ref="208638398"/>
    <nd ref="208638576"/>
    <nd ref="208638733"/>
    <nd ref="208638767"/>
    <nd ref="504317971"/>
    <nd ref="1005775592"/>
    <nd ref="208638882"/>
    <nd ref="1005775777"/>
    <nd ref="1005775183"/>
    <nd ref="208638864"/>
    <nd ref="450943047"/>
    <nd ref="450943045"/>
    <nd ref="208638939"/>
    <tag k="highway" v="primary"/>
    <tag k="int_ref" v="E 28"/>
    <tag k="name" v="I Brygady Pancernej Wojska Polskiego"/>
    <tag k="oneway" v="yes"/>
    <tag k="ref" v="6"/>
    <tag k="source" v="UMP-PL, ./UMP-Gdansk/src/WEJHEROWO.ulice.txt"/>
  </way>
  <way id="19888431" version="13" timestamp="2011-07-20T13:03:39Z" uid="460511" user="arturb" changeset="8778452">
    <nd ref="208638426"/>
    <nd ref="208638453"/>
    <nd ref="208638706"/>
    <nd ref="1366553913"/>
    <nd ref="208638398"/>
    <nd ref="208638576"/>
    <nd ref="208638733"/>
    <nd ref="208638767"/>
    <nd ref="504317971"/>
    <nd ref="1005775592"/>
    <nd ref="208638882"/>
    <nd ref="1005775777"/>
    <nd ref="1005775183"/>
    <nd ref="208638864"/>
    <nd ref="450943047"/>
    <nd ref="450943045"/>
    <nd ref="208638939"/>
    <tag k="highway" v="primary"/>
    <tag k="int_ref" v="E 28"/>
    <tag k="maxspeed" v="70"/>
    <tag k="name" v="I Brygady Pancernej Wojska Polskiego"/>
    <tag k="oneway" v="yes"/>
    <tag k="ref" v="6"/>
    <tag k="source" v="UMP-PL, ./UMP-Gdansk/src/WEJHEROWO.ulice.txt"/>
  </way>
  <way id="19888431" version="14" timestamp="2012-02-02T12:35:04Z" uid="378154" user="rosomak" changeset="10567036">
    <nd ref="208639251"/>
    <nd ref="208638453"/>
    <nd ref="208638706"/>
    <nd ref="1366553913"/>
    <nd ref="208638398"/>
    <nd ref="208638576"/>
    <nd ref="208638733"/>
    <nd ref="208638767"/>
    <nd ref="504317971"/>
    <nd ref="1005775592"/>
    <nd ref="208638882"/>
    <nd ref="1005775777"/>
    <nd ref="1005775183"/>
    <nd ref="208638864"/>
    <nd ref="450943047"/>
    <nd ref="450943045"/>
    <nd ref="208638939"/>
    <tag k="highway" v="primary"/>
    <tag k="int_ref" v="E 28"/>
    <tag k="maxspeed" v="70"/>
    <tag k="name" v="I Brygady Pancernej Wojska Polskiego"/>
    <tag k="oneway" v="yes"/>
    <tag k="ref" v="6"/>
  </way>
  <way id="19888431" version="15" timestamp="2012-02-02T12:42:39Z" uid="378154" user="rosomak" changeset="10567096">
    <nd ref="208639251"/>
    <nd ref="208638706"/>
    <nd ref="1366553913"/>
    <nd ref="208638398"/>
    <nd ref="208638576"/>
    <nd ref="208638733"/>
    <nd ref="208638767"/>
    <nd ref="504317971"/>
    <nd ref="1005775592"/>
    <nd ref="208638882"/>
    <nd ref="1005775777"/>
    <nd ref="1005775183"/>
    <nd ref="208638864"/>
    <nd ref="450943047"/>
    <nd ref="450943045"/>
    <nd ref="208638939"/>
    <tag k="highway" v="primary"/>
    <tag k="int_ref" v="E 28"/>
    <tag k="maxspeed" v="70"/>
    <tag k="name" v="I Brygady Pancernej Wojska Polskiego"/>
    <tag k="oneway" v="yes"/>
    <tag k="ref" v="6"/>
  </way>
  <way id="19888433" version="2" timestamp="2008-09-22T15:43:46Z" uid="30632" user="antblant" changeset="680284"/>
  <way id="19888968" version="6" timestamp="2009-10-01T08:32:40Z" uid="43967" user="railsnail" changeset="2697560">
    <nd ref="74976909"/>
    <nd ref="208647917"/>
    <nd ref="208647923"/>
    <nd ref="208647929"/>
    <nd ref="515726490"/>
    <nd ref="208647934"/>
    <nd ref="208647938"/>
    <nd ref="208647941"/>
    <nd ref="274946135"/>
    <nd ref="291334356"/>
    <tag k="highway" v="track"/>
    <tag k="tracktype" v="grade2"/>
  </way>
  <way id="19888968" version="7" timestamp="2009-11-01T16:56:52Z" uid="60744" user="motlib" changeset="3008418">
    <nd ref="74976909"/>
    <nd ref="208647917"/>
    <nd ref="208647923"/>
    <nd ref="550159900"/>
    <nd ref="208647929"/>
    <nd ref="515726490"/>
    <nd ref="208647934"/>
    <nd ref="208647938"/>
    <nd ref="208647941"/>
    <nd ref="274946135"/>
    <nd ref="291334356"/>
    <tag k="highway" v="track"/>
    <tag k="tracktype" v="grade2"/>
  </way>
  <way id="19888968" version="8" timestamp="2011-05-15T23:04:00Z" uid="451721" user="rclasen" changeset="8158030"/>
</osm>
