<?xml version='1.0' encoding='UTF-8'?>
<osm version="0.6" generator="libosmium/2.20.0">
  <way id="19896185" version="6" timestamp="2009-12-20T21:20:58Z" uid="30201" user="rrankin" changeset="3417105">
    <nd ref="208746468"/>
    <nd ref="211121357"/>
    <nd ref="211119293"/>
    <nd ref="208749563"/>
    <nd ref="597441799"/>
    <tag k="highway" v="residential"/>
    <tag k="name" v="Lily Street"/>
  </way>
  <way id="19896185" version="7" timestamp="2010-07-08T02:38:13Z" uid="74617" user="JohnSmith" changeset="5163091">
    <nd ref="208746468"/>
    <nd ref="211121357"/>
    <nd ref="211119293"/>
    <nd ref="208749563"/>
    <nd ref="597441799"/>
    <tag k="highway" v="residential"/>
    <tag k="maxspeed" v="50"/>
    <tag k="maxspeed:source" v="default residential speed limit in Australia"/>
    <tag k="name" v="Lily Street"/>
  </way>
  <way id="19896185" version="8" timestamp="2012-01-15T20:42:05Z" uid="147510" user="woodpeck_fixbot" changeset="10402983">
    <nd ref="208746468"/>
    <nd ref="211121357"/>
    <nd ref="211119293"/>
    <nd ref="208749563"/>
    <nd ref="597441799"/>
    <tag k="highway" v="residential"/>
    <tag k="name" v="Lily Street"/>
  </way>
  <way id="19896204" version="5" timestamp="2009-12-20T21:21:02Z" uid="30201" user="rrankin" changeset="3417105"/>
  <way id="19896252" version="2" timestamp="2010-07-08T02:39:38Z" uid="74617" user="JohnSmith" changeset="5163091">
    <nd ref="208748492"/>
    <nd ref="208749036"/>
    <nd ref="208749038"/>
    <tag k="highway" v="residential"/>
    <tag k="maxspeed" v="50"/>
    <tag k="maxspeed:source" v="default residential speed limit in Australia"/>
    <tag k="name" v="Bligh Street"/>
  </way>
  <way id="19896252" version="3" timestamp="2010-11-27T20:46:25Z" uid="7617" user="Franc" changeset="6473168">
    <nd ref="208748492"/>
    <nd ref="208749036"/>
    <tag k="highway" v="residential"/>
    <tag k="maxspeed" v="50"/>
    <tag k="maxspeed:source" v="default residential speed limit in Australia"/>
    <tag k="name" v="Bligh Street"/>
  </way>
  <way id="19896252" version="4" timestamp="2012-01-15T20:42:07Z" uid="147510" user="woodpeck_fixbot" changeset="10402983">
    <nd ref="208748492"/>
    <nd ref="208749036"/>
    <tag k="highway" v="residential"/>
    <tag k="name" v="Bligh Street"/>
  </way>
  <way id="19896302" version="2" timestamp="2010-07-08T02:35:31Z" uid="74617" user="JohnSmith" changeset="5163091">
    <nd ref="208749036"/>
    <nd ref="208749561"/>
    <nd ref="208749563"/>
    <tag k="highway" v="residential"/>
    <tag k="maxspeed" v="50"/>
    <tag k="maxspeed:source" v="default residential speed limit in Australia"/>
    <tag k="name" v="George Street"/>
  </way>
  <way id="19896302" version="3" timestamp="2012-01-15T20:42:09Z" uid="147510" user="woodpeck_fixbot" changeset="10402983">
    <nd ref="208749036"/>
    <nd ref="208749561"/>
    <nd ref="208749563"/>
    <tag k="highway" v="residential"/>
    <tag k="name" v="George Street"/>
  </way>
  <way id="19896323" version="2" timestamp="2010-07-08T02:40:44Z" uid="74617" user="JohnSmith" changeset="5163091">
    <nd ref="208749561"/>
    <nd ref="208749850"/>
    <tag k="highway" v="residential"/>
    <tag k="maxspeed" v="50"/>
    <tag k="maxspeed:source" v="default residential speed limit in Australia"/>
    <tag k="name" v="Faunce Street"/>
  </way>
  <way id="19896323" version="3" timestamp="2012-01-15T20:42:11Z" uid="147510" user="woodpeck_fixbot" changeset="10402983">
    <nd ref="208749561"/>
    <nd ref="208749850"/>
    <tag k="highway" v="residential"/>
    <tag k="name" v="Faunce Street"/>
  </way>
  <way id="19896371" version="2" timestamp="2010-07-08T02:39:32Z" uid="74617" user="JohnSmith" changeset="5163091">
    <nd ref="208749850"/>
    <nd ref="208749038"/>
    <tag k="highway" v="residential"/>
    <tag k="maxspeed" v="50"/>
    <tag k="maxspeed:source" v="default residential speed limit in Australia"/>
    <tag k="name" v="Elm Street"/>
    <tag k="oneway" v="yes"/>
  </way>
  <way id="19896371" version="3" timestamp="2010-11-27T20:46:24Z" uid="7617" user="Franc" changeset="6473168">
    <nd ref="208749850"/>
    <nd ref="1008826503"/>
    <nd ref="208749038"/>
    <tag k="highway" v="residential"/>
    <tag k="maxspeed" v="50"/>
    <tag k="maxspeed:source" v="default residential speed limit in Australia"/>
    <tag k="name" v="Elm Street"/>
    <tag k="oneway" v="yes"/>
  </way>
  <way id="19896371" version="4" timestamp="2012-01-15T20:42:13Z" uid="147510" user="woodpeck_fixbot" changeset="10402983">
    <nd ref="208749850"/>
    <nd ref="1008826503"/>
    <nd ref="208749038"/>
    <tag k="highway" v="residential"/>
    <tag k="name" v="Elm Street"/>
    <tag k="oneway" v="yes"/>
  </way>
  <way id="19896452" version="3" timestamp="2010-07-08T02:33:05Z" uid="74617" user="JohnSmith" changeset="5163091">
    <nd ref="208750818"/>
    <nd ref="211124444"/>
    <nd ref="208751669"/>
    <tag k="highway" v="residential"/>
    <tag k="maxspeed" v="50"/>
    <tag k="maxspeed:source" v="default residential speed limit in Australia"/>
    <tag k="name" v="Culdees Road"/>
  </way>
  <way id="19896452" version="4" timestamp="2012-01-15T20:42:14Z" uid="147510" user="woodpeck_fixbot" changeset="10402983">
    <nd ref="208750818"/>
    <nd ref="211124444"/>
    <nd ref="208751669"/>
    <tag k="highway" v="residential"/>
    <tag k="name" v="Culdees Road"/>
  </way>
  <way id="19896452" version="5" timestamp="2012-03-25T20:23:54Z" uid="20949" user="Ebenezer" changeset="11099566">
    <nd ref="1690981622"/>
    <nd ref="211124444"/>
    <nd ref="208751669"/>
    <tag k="highway" v="residential"/>
    <tag k="maxspeed" v="50"/>
    <tag k="name" v="Culdees Road"/>
  </way>
  <way id="19896488" version="3" timestamp="2008-09-24T21:09:20Z" uid="30201" user="rrankin" changeset="691374">
    <nd ref="19126640"/>
    <nd ref="211125152"/>
    <nd ref="208752447"/>
    <tag k="created_by" v="Potlatch 0.6a"/>
    <tag k="highway" v="residential"/>
    <tag k="name" v="Claremont Road"/>
  </way>
  <way id="19896488" version="4" timestamp="2010-07-08T02:33:57Z" uid="74617" user="JohnSmith" changeset="5163091">
    <nd ref="19126640"/>
    <nd ref="211125152"/>
    <nd ref="208752447"/>
    <tag k="highway" v="residential"/>
    <tag k="maxspeed" v="50"/>
    <tag k="maxspeed:source" v="default residential speed limit in Australia"/>
    <tag k="name" v="Claremont Road"/>
  </way>
  <way id="19896488" version="5" timestamp="2011-09-19T22:30:09Z" uid="20949" user="Ebenezer" changeset="9347386">
    <nd ref="19126640"/>
    <nd ref="211125152"/>
    <nd ref="208752447"/>
    <tag k="highway" v="residential"/>
    <tag k="lcn" v="yes"/>
    <tag k="maxspeed" v="50"/>
    <tag k="maxspeed:source" v="default residential speed limit in Australia"/>
    <tag k="name" v="Claremont Road"/>
  </way>
  <way id="19896488" version="6" timestamp="2012-01-15T20:42:16Z" uid="147510" user="woodpeck_fixbot" changeset="10402983">
    <nd ref="19126640"/>
    <nd ref="211125152"/>
    <nd ref="208752447"/>
    <tag k="highway" v="residential"/>
    <tag k="lcn" v="yes"/>
    <tag k="name" v="Claremont Road"/>
  </way>
  <way id="19896488" version="7" timestamp="2012-03-25T20:23:54Z" uid="20949" user="Ebenezer" changeset="11099566">
    <nd ref="1690981627"/>
    <nd ref="211125152"/>
    <nd ref="208752447"/>
    <tag k="highway" v="residential"/>
    <tag k="lcn" v="yes"/>
    <tag k="name" v="Claremont Road"/>
  </way>
</osm>
