<?xml version='1.0' encoding='UTF-8'?>
<osm version="0.6" generator="libosmium/2.20.0">
  <way id="19918029" version="6" timestamp="2010-07-09T03:49:05Z" uid="74617" user="JohnSmith" changeset="5170838">
    <nd ref="27289332"/>
    <nd ref="27289333"/>
    <tag k="highway" v="residential"/>
    <tag k="maxspeed" v="50"/>
    <tag k="maxspeed:source" v="default residential speed limit in Australia"/>
    <tag k="name" v="Hustler Court"/>
  </way>
  <way id="19918029" version="7" timestamp="2012-01-15T20:42:42Z" uid="147510" user="woodpeck_fixbot" changeset="10402983">
    <nd ref="27289332"/>
    <nd ref="27289333"/>
    <tag k="highway" v="residential"/>
    <tag k="name" v="Hustler Court"/>
  </way>
  <way id="19918211" version="4" timestamp="2010-09-04T05:42:46Z" uid="33382" user="de_muur" changeset="5675792">
    <nd ref="209078964"/>
    <nd ref="209078971"/>
    <nd ref="209078977"/>
    <nd ref="209078986"/>
    <nd ref="209078992"/>
    <nd ref="209079001"/>
    <nd ref="209079010"/>
    <nd ref="209079016"/>
    <nd ref="209079025"/>
    <nd ref="209079124"/>
    <nd ref="209079042"/>
    <nd ref="209079050"/>
    <nd ref="209079059"/>
    <nd ref="209079102"/>
    <nd ref="209079066"/>
    <nd ref="209079074"/>
    <nd ref="209079086"/>
    <nd ref="209079094"/>
    <nd ref="209078977"/>
    <tag k="highway" v="living_street"/>
    <tag k="name" v="Auering"/>
  </way>
  <way id="19918213" version="4" timestamp="2010-09-04T05:42:46Z" uid="33382" user="de_muur" changeset="5675792">
    <nd ref="209079102"/>
    <nd ref="209079108"/>
    <nd ref="209079114"/>
    <nd ref="209079050"/>
    <tag k="highway" v="living_street"/>
    <tag k="name" v="Auering"/>
  </way>
  <way id="19918215" version="5" timestamp="2010-09-04T05:42:45Z" uid="33382" user="de_muur" changeset="5675792">
    <nd ref="209079124"/>
    <nd ref="209078898"/>
    <tag k="highway" v="living_street"/>
    <tag k="name" v="Auering"/>
    <tag k="oneway" v="yes"/>
  </way>
  <way id="19918594" version="4" timestamp="2010-07-09T03:49:30Z" uid="74617" user="JohnSmith" changeset="5170838">
    <nd ref="209084906"/>
    <nd ref="209084908"/>
    <tag k="highway" v="residential"/>
    <tag k="maxspeed" v="50"/>
    <tag k="maxspeed:source" v="default residential speed limit in Australia"/>
    <tag k="name" v="Riversdale Court"/>
  </way>
  <way id="19918594" version="5" timestamp="2012-01-15T20:42:46Z" uid="147510" user="woodpeck_fixbot" changeset="10402983">
    <nd ref="209084906"/>
    <nd ref="209084908"/>
    <tag k="highway" v="residential"/>
    <tag k="name" v="Riversdale Court"/>
  </way>
  <way id="19918612" version="5" timestamp="2010-07-09T02:42:21Z" uid="74617" user="JohnSmith" changeset="5170713">
    <nd ref="209085090"/>
    <nd ref="209085436"/>
    <nd ref="209085437"/>
    <nd ref="209085438"/>
    <nd ref="96903987"/>
    <nd ref="209085440"/>
    <nd ref="209085441"/>
    <tag k="highway" v="residential"/>
    <tag k="maxspeed" v="50"/>
    <tag k="maxspeed:source" v="default residential speed limit in Australia"/>
    <tag k="name" v="Yarrabee Court"/>
  </way>
  <way id="19918612" version="6" timestamp="2012-01-15T20:42:50Z" uid="147510" user="woodpeck_fixbot" changeset="10402983">
    <nd ref="209085090"/>
    <nd ref="209085436"/>
    <nd ref="209085437"/>
    <nd ref="209085438"/>
    <nd ref="96903987"/>
    <nd ref="209085440"/>
    <nd ref="209085441"/>
    <tag k="highway" v="residential"/>
    <tag k="name" v="Yarrabee Court"/>
  </way>
  <way id="19918656" version="5" timestamp="2011-04-26T00:56:53Z" uid="23543" user="jkjk" changeset="7970248">
    <nd ref="30619433"/>
    <nd ref="1260355763"/>
    <nd ref="209086313"/>
    <nd ref="1260355824"/>
    <nd ref="1260355729"/>
    <nd ref="1260355759"/>
    <nd ref="479087455"/>
    <tag k="highway" v="primary"/>
    <tag k="name" v="Užhorodská"/>
    <tag k="ref" v="50"/>
    <tag k="source:name" v="landsat"/>
  </way>
  <way id="19918665" version="5" timestamp="2010-07-09T02:51:08Z" uid="74617" user="JohnSmith" changeset="5170713">
    <nd ref="29524173"/>
    <nd ref="662779021"/>
    <nd ref="29524172"/>
    <nd ref="29524171"/>
    <nd ref="29524170"/>
    <nd ref="29524178"/>
    <nd ref="29524168"/>
    <nd ref="662778946"/>
    <nd ref="30151340"/>
    <tag k="highway" v="residential"/>
    <tag k="maxspeed" v="50"/>
    <tag k="maxspeed:source" v="default residential speed limit in Australia"/>
    <tag k="name" v="Holskamp Street"/>
  </way>
  <way id="19918665" version="6" timestamp="2012-01-15T20:42:54Z" uid="147510" user="woodpeck_fixbot" changeset="10402983">
    <nd ref="29524173"/>
    <nd ref="662779021"/>
    <nd ref="29524172"/>
    <nd ref="29524171"/>
    <nd ref="29524170"/>
    <nd ref="29524178"/>
    <nd ref="29524168"/>
    <nd ref="662778946"/>
    <nd ref="30151340"/>
    <tag k="highway" v="residential"/>
    <tag k="name" v="Holskamp Street"/>
  </way>
</osm>
