<?xml version='1.0' encoding='UTF-8'?>
<osm version="0.6" generator="libosmium/2.20.0">
  <way id="19973092" version="8" timestamp="2010-07-09T22:20:22Z" uid="74617" user="JohnSmith" changeset="5176956">
    <nd ref="223621444"/>
    <nd ref="210201402"/>
    <nd ref="248520260"/>
    <nd ref="210201469"/>
    <nd ref="210201482"/>
    <nd ref="210201503"/>
    <nd ref="210201532"/>
    <nd ref="457500995"/>
    <nd ref="210201587"/>
    <nd ref="633168846"/>
    <nd ref="210201614"/>
    <nd ref="210201673"/>
    <nd ref="223622895"/>
    <nd ref="243836182"/>
    <nd ref="210201822"/>
    <tag k="highway" v="residential"/>
    <tag k="maxspeed" v="50"/>
    <tag k="maxspeed:source" v="default residential speed limit in Australia"/>
    <tag k="name" v="Forestview Boulevard"/>
  </way>
  <way id="19973092" version="9" timestamp="2012-01-15T20:47:17Z" uid="147510" user="woodpeck_fixbot" changeset="10402983">
    <nd ref="223621444"/>
    <nd ref="210201402"/>
    <nd ref="248520260"/>
    <nd ref="210201469"/>
    <nd ref="210201482"/>
    <nd ref="210201503"/>
    <nd ref="210201532"/>
    <nd ref="457500995"/>
    <nd ref="210201587"/>
    <nd ref="633168846"/>
    <nd ref="210201614"/>
    <nd ref="210201673"/>
    <nd ref="223622895"/>
    <nd ref="243836182"/>
    <nd ref="210201822"/>
    <tag k="highway" v="residential"/>
    <tag k="name" v="Forestview Boulevard"/>
  </way>
  <way id="19973327" version="8" timestamp="2010-03-22T10:03:39Z" uid="74617" user="JohnSmith" changeset="4200661">
    <nd ref="55190735"/>
    <nd ref="264043586"/>
    <nd ref="477786111"/>
    <nd ref="55190736"/>
    <tag k="highway" v="motorway"/>
    <tag k="lanes" v="2"/>
    <tag k="loc_name" v="South-Eastern Freeway"/>
    <tag k="maxspeed" v="110"/>
    <tag k="name" v="Princes Highway"/>
    <tag k="note" v="SEE http://wiki.openstreetmap.org/index.php/Australian_Roads_Tagging ALL NATIONAL ROUTES AT NH-CODE !!!"/>
    <tag k="oneway" v="yes"/>
    <tag k="ref" v="NHM1"/>
    <tag k="source" v="survey"/>
  </way>
  <way id="19973327" version="9" timestamp="2011-04-18T12:23:35Z" uid="22094" user="Chadzopkyo" changeset="7896493">
    <nd ref="55190735"/>
    <nd ref="264043586"/>
    <nd ref="1249832060"/>
    <nd ref="477786111"/>
    <nd ref="55190736"/>
    <tag k="highway" v="motorway"/>
    <tag k="lanes" v="2"/>
    <tag k="loc_name" v="South-Eastern Freeway"/>
    <tag k="maxspeed" v="110"/>
    <tag k="name" v="Princes Highway"/>
    <tag k="note" v="SEE http://wiki.openstreetmap.org/index.php/Australian_Roads_Tagging ALL NATIONAL ROUTES AT NH-CODE !!!"/>
    <tag k="oneway" v="yes"/>
    <tag k="ref" v="NHM1"/>
    <tag k="source" v="survey"/>
  </way>
  <way id="19973329" version="9" timestamp="2010-03-22T10:03:39Z" uid="74617" user="JohnSmith" changeset="4200661">
    <nd ref="55190736"/>
    <nd ref="477788228"/>
    <nd ref="305555276"/>
    <nd ref="477810637"/>
    <nd ref="264043585"/>
    <nd ref="206196269"/>
    <tag k="highway" v="motorway"/>
    <tag k="lanes" v="2"/>
    <tag k="loc_name" v="South-Eastern Freeway"/>
    <tag k="maxspeed" v="110"/>
    <tag k="name" v="Princes Highway"/>
    <tag k="note" v="SEE http://wiki.openstreetmap.org/index.php/Australian_Roads_Tagging ALL NATIONAL ROUTES AT NH-CODE !!!"/>
    <tag k="oneway" v="yes"/>
    <tag k="ref" v="NHM1"/>
    <tag k="source" v="survey"/>
  </way>
  <way id="19973394" version="5" timestamp="2010-03-22T10:03:39Z" uid="74617" user="JohnSmith" changeset="4200661">
    <nd ref="55190736"/>
    <nd ref="206196245"/>
    <tag k="highway" v="trunk"/>
    <tag k="maxspeed" v="110"/>
    <tag k="name" v="Princes Highway"/>
    <tag k="note" v="SEE http://wiki.openstreetmap.org/index.php/Australian_Roads_Tagging ALL NATIONAL ROUTES AT NH-CODE !!!"/>
    <tag k="ref" v="NHA1"/>
  </way>
  <way id="19973394" version="6" timestamp="2010-04-04T21:49:55Z" uid="74617" user="JohnSmith" changeset="4327637">
    <nd ref="55190736"/>
    <nd ref="206196245"/>
    <tag k="highway" v="trunk"/>
    <tag k="maxspeed" v="110"/>
    <tag k="name" v="Princes Highway"/>
    <tag k="note" v="SEE http://wiki.openstreetmap.org/index.php/Australian_Roads_Tagging ALL NATIONAL ROUTES AT NH-CODE !!!"/>
  </way>
  <way id="19973394" version="7" timestamp="2011-06-18T08:16:00Z" uid="428465" user="markinspace" changeset="8470881">
    <nd ref="55190736"/>
    <nd ref="206196245"/>
    <tag k="highway" v="trunk"/>
    <tag k="maxspeed" v="110"/>
    <tag k="name" v="Princes Highway"/>
    <tag k="note" v="SEE http://wiki.openstreetmap.org/index.php/Australian_Roads_Tagging ALL NATIONAL ROUTES AT NH-CODE !!!"/>
    <tag k="ref" v="A1"/>
  </way>
  <way id="19973395" version="6" timestamp="2010-03-22T10:03:32Z" uid="74617" user="JohnSmith" changeset="4200661">
    <nd ref="206196245"/>
    <nd ref="55190737"/>
    <tag k="bridge" v="yes"/>
    <tag k="highway" v="trunk"/>
    <tag k="layer" v="1"/>
    <tag k="maxspeed" v="110"/>
    <tag k="name" v="Princes Highway"/>
    <tag k="note" v="SEE http://wiki.openstreetmap.org/index.php/Australian_Roads_Tagging ALL NATIONAL ROUTES AT NH-CODE !!!"/>
    <tag k="ref" v="NHA1"/>
  </way>
  <way id="19973395" version="7" timestamp="2010-04-04T21:49:55Z" uid="74617" user="JohnSmith" changeset="4327637">
    <nd ref="206196245"/>
    <nd ref="55190737"/>
    <tag k="bridge" v="yes"/>
    <tag k="highway" v="trunk"/>
    <tag k="layer" v="1"/>
    <tag k="maxspeed" v="110"/>
    <tag k="name" v="Princes Highway"/>
    <tag k="note" v="SEE http://wiki.openstreetmap.org/index.php/Australian_Roads_Tagging ALL NATIONAL ROUTES AT NH-CODE !!!"/>
  </way>
  <way id="19973395" version="8" timestamp="2011-06-18T08:16:00Z" uid="428465" user="markinspace" changeset="8470881">
    <nd ref="206196245"/>
    <nd ref="55190737"/>
    <tag k="bridge" v="yes"/>
    <tag k="highway" v="trunk"/>
    <tag k="layer" v="1"/>
    <tag k="maxspeed" v="110"/>
    <tag k="name" v="Princes Highway"/>
    <tag k="note" v="SEE http://wiki.openstreetmap.org/index.php/Australian_Roads_Tagging ALL NATIONAL ROUTES AT NH-CODE !!!"/>
    <tag k="ref" v="A1"/>
  </way>
  <way id="19973424" version="6" timestamp="2010-03-22T10:03:46Z" uid="74617" user="JohnSmith" changeset="4200661">
    <nd ref="55190737"/>
    <nd ref="206195293"/>
    <nd ref="206195295"/>
    <nd ref="305555275"/>
    <nd ref="206195292"/>
    <tag k="highway" v="trunk"/>
    <tag k="maxspeed" v="110"/>
    <tag k="name" v="Princes Highway"/>
    <tag k="note" v="SEE http://wiki.openstreetmap.org/index.php/Australian_Roads_Tagging ALL NATIONAL ROUTES AT NH-CODE !!!"/>
    <tag k="ref" v="NHA1"/>
  </way>
  <way id="19973424" version="7" timestamp="2010-04-04T21:49:55Z" uid="74617" user="JohnSmith" changeset="4327637">
    <nd ref="55190737"/>
    <nd ref="206195293"/>
    <nd ref="206195295"/>
    <nd ref="305555275"/>
    <nd ref="206195292"/>
    <tag k="highway" v="trunk"/>
    <tag k="maxspeed" v="110"/>
    <tag k="name" v="Princes Highway"/>
    <tag k="note" v="SEE http://wiki.openstreetmap.org/index.php/Australian_Roads_Tagging ALL NATIONAL ROUTES AT NH-CODE !!!"/>
  </way>
  <way id="19973424" version="8" timestamp="2010-04-18T00:23:39Z" uid="79475" user="AlexOnTheBus" changeset="4453591">
    <nd ref="55190737"/>
    <nd ref="206195293"/>
    <nd ref="700468781"/>
    <nd ref="206195295"/>
    <nd ref="305555275"/>
    <nd ref="206195292"/>
    <tag k="highway" v="trunk"/>
    <tag k="maxspeed" v="110"/>
    <tag k="name" v="Princes Highway"/>
    <tag k="note" v="SEE http://wiki.openstreetmap.org/index.php/Australian_Roads_Tagging ALL NATIONAL ROUTES AT NH-CODE !!!"/>
  </way>
  <way id="19973424" version="9" timestamp="2011-06-18T08:16:00Z" uid="428465" user="markinspace" changeset="8470881">
    <nd ref="55190737"/>
    <nd ref="206195293"/>
    <nd ref="700468781"/>
    <nd ref="206195295"/>
    <nd ref="305555275"/>
    <nd ref="206195292"/>
    <tag k="highway" v="trunk"/>
    <tag k="maxspeed" v="110"/>
    <tag k="name" v="Princes Highway"/>
    <tag k="note" v="SEE http://wiki.openstreetmap.org/index.php/Australian_Roads_Tagging ALL NATIONAL ROUTES AT NH-CODE !!!"/>
    <tag k="ref" v="A1"/>
  </way>
  <way id="19973522" version="6" timestamp="2010-07-09T03:38:15Z" uid="74617" user="JohnSmith" changeset="5170825">
    <nd ref="210215309"/>
    <nd ref="210215310"/>
    <nd ref="210215311"/>
    <tag k="highway" v="residential"/>
    <tag k="maxspeed" v="50"/>
    <tag k="maxspeed:source" v="default residential speed limit in Australia"/>
    <tag k="name" v="Sovereign Way"/>
    <tag k="source" v="yahoo"/>
    <tag k="source:name" v="survey"/>
  </way>
  <way id="19973522" version="7" timestamp="2012-01-15T20:47:23Z" uid="147510" user="woodpeck_fixbot" changeset="10402983">
    <nd ref="210215309"/>
    <nd ref="210215310"/>
    <nd ref="210215311"/>
    <tag k="highway" v="residential"/>
    <tag k="name" v="Sovereign Way"/>
    <tag k="source" v="yahoo"/>
    <tag k="source:name" v="survey"/>
  </way>
  <way id="19973546" version="5" timestamp="2010-07-09T03:39:04Z" uid="74617" user="JohnSmith" changeset="5170825">
    <nd ref="210220238"/>
    <nd ref="210220240"/>
    <nd ref="210220242"/>
    <nd ref="210219181"/>
    <nd ref="210215929"/>
    <tag k="highway" v="residential"/>
    <tag k="maxspeed" v="50"/>
    <tag k="maxspeed:source" v="default residential speed limit in Australia"/>
    <tag k="name" v="Lake Street"/>
    <tag k="source" v="yahoo"/>
    <tag k="source:name" v="survey"/>
  </way>
  <way id="19973546" version="6" timestamp="2012-01-15T20:47:24Z" uid="147510" user="woodpeck_fixbot" changeset="10402983">
    <nd ref="210220238"/>
    <nd ref="210220240"/>
    <nd ref="210220242"/>
    <nd ref="210219181"/>
    <nd ref="210215929"/>
    <tag k="highway" v="residential"/>
    <tag k="name" v="Lake Street"/>
    <tag k="source" v="yahoo"/>
    <tag k="source:name" v="survey"/>
  </way>
  <way id="19973570" version="7" timestamp="2010-07-09T03:37:44Z" uid="74617" user="JohnSmith" changeset="5170825">
    <nd ref="210216851"/>
    <nd ref="210216853"/>
    <nd ref="210217718"/>
    <nd ref="210217515"/>
    <nd ref="210217516"/>
    <nd ref="210216854"/>
    <nd ref="210220287"/>
    <nd ref="210220238"/>
    <tag k="highway" v="residential"/>
    <tag k="maxspeed" v="50"/>
    <tag k="maxspeed:source" v="default residential speed limit in Australia"/>
    <tag k="name" v="Mountainview Avenue"/>
    <tag k="source" v="yahoo"/>
    <tag k="source:name" v="survey"/>
  </way>
  <way id="19973570" version="8" timestamp="2012-01-15T20:47:26Z" uid="147510" user="woodpeck_fixbot" changeset="10402983">
    <nd ref="210216851"/>
    <nd ref="210216853"/>
    <nd ref="210217718"/>
    <nd ref="210217515"/>
    <nd ref="210217516"/>
    <nd ref="210216854"/>
    <nd ref="210220287"/>
    <nd ref="210220238"/>
    <tag k="highway" v="residential"/>
    <tag k="name" v="Mountainview Avenue"/>
    <tag k="source" v="yahoo"/>
    <tag k="source:name" v="survey"/>
  </way>
  <way id="19973595" version="6" timestamp="2010-07-09T03:38:03Z" uid="74617" user="JohnSmith" changeset="5170825">
    <nd ref="210217511"/>
    <nd ref="210217512"/>
    <nd ref="210238237"/>
    <nd ref="210239795"/>
    <nd ref="210217524"/>
    <tag k="highway" v="residential"/>
    <tag k="maxspeed" v="50"/>
    <tag k="maxspeed:source" v="default residential speed limit in Australia"/>
    <tag k="name" v="North Road"/>
    <tag k="source" v="yahoo"/>
    <tag k="source:name" v="survey"/>
  </way>
  <way id="19973595" version="7" timestamp="2012-01-15T20:47:27Z" uid="147510" user="woodpeck_fixbot" changeset="10402983">
    <nd ref="210217511"/>
    <nd ref="210217512"/>
    <nd ref="210238237"/>
    <nd ref="210239795"/>
    <nd ref="210217524"/>
    <tag k="highway" v="residential"/>
    <tag k="name" v="North Road"/>
    <tag k="source" v="yahoo"/>
    <tag k="source:name" v="survey"/>
  </way>
  <way id="19973596" version="4" timestamp="2010-07-09T03:37:25Z" uid="74617" user="JohnSmith" changeset="5170825">
    <nd ref="210217523"/>
    <nd ref="210217524"/>
    <nd ref="210217525"/>
    <nd ref="210217526"/>
    <nd ref="210217527"/>
    <nd ref="210217528"/>
    <nd ref="210217529"/>
    <nd ref="210217530"/>
    <nd ref="210217523"/>
    <tag k="highway" v="residential"/>
    <tag k="junction" v="roundabout"/>
    <tag k="maxspeed" v="50"/>
    <tag k="maxspeed:source" v="default residential speed limit in Australia"/>
  </way>
  <way id="19973596" version="5" timestamp="2012-01-15T20:47:29Z" uid="147510" user="woodpeck_fixbot" changeset="10402983">
    <nd ref="210217523"/>
    <nd ref="210217524"/>
    <nd ref="210217525"/>
    <nd ref="210217526"/>
    <nd ref="210217527"/>
    <nd ref="210217528"/>
    <nd ref="210217529"/>
    <nd ref="210217530"/>
    <nd ref="210217523"/>
    <tag k="highway" v="residential"/>
    <tag k="junction" v="roundabout"/>
  </way>
  <way id="19973597" version="6" timestamp="2010-07-09T03:39:40Z" uid="74617" user="JohnSmith" changeset="5170825">
    <nd ref="210217526"/>
    <nd ref="210217535"/>
    <nd ref="210217536"/>
    <nd ref="210217537"/>
    <nd ref="210217538"/>
    <nd ref="210261703"/>
    <nd ref="210217539"/>
    <nd ref="210217540"/>
    <nd ref="210217541"/>
    <nd ref="210217542"/>
    <nd ref="210239401"/>
    <nd ref="210217544"/>
    <nd ref="210217545"/>
    <nd ref="210217546"/>
    <nd ref="210217547"/>
    <nd ref="210217548"/>
    <nd ref="210217549"/>
    <nd ref="210217550"/>
    <nd ref="210217551"/>
    <nd ref="210255386"/>
    <nd ref="210255388"/>
    <nd ref="210255389"/>
    <nd ref="210255391"/>
    <nd ref="210255393"/>
    <nd ref="210255395"/>
    <nd ref="210255398"/>
    <nd ref="210255401"/>
    <nd ref="210255404"/>
    <nd ref="210255406"/>
    <nd ref="210255409"/>
    <nd ref="210255411"/>
    <tag k="highway" v="residential"/>
    <tag k="maxspeed" v="50"/>
    <tag k="maxspeed:source" v="default residential speed limit in Australia"/>
    <tag k="name" v="Ridge Drive"/>
    <tag k="source" v="yahoo"/>
    <tag k="source:name" v="survey"/>
  </way>
  <way id="19973597" version="7" timestamp="2012-01-15T20:47:31Z" uid="147510" user="woodpeck_fixbot" changeset="10402983">
    <nd ref="210217526"/>
    <nd ref="210217535"/>
    <nd ref="210217536"/>
    <nd ref="210217537"/>
    <nd ref="210217538"/>
    <nd ref="210261703"/>
    <nd ref="210217539"/>
    <nd ref="210217540"/>
    <nd ref="210217541"/>
    <nd ref="210217542"/>
    <nd ref="210239401"/>
    <nd ref="210217544"/>
    <nd ref="210217545"/>
    <nd ref="210217546"/>
    <nd ref="210217547"/>
    <nd ref="210217548"/>
    <nd ref="210217549"/>
    <nd ref="210217550"/>
    <nd ref="210217551"/>
    <nd ref="210255386"/>
    <nd ref="210255388"/>
    <nd ref="210255389"/>
    <nd ref="210255391"/>
    <nd ref="210255393"/>
    <nd ref="210255395"/>
    <nd ref="210255398"/>
    <nd ref="210255401"/>
    <nd ref="210255404"/>
    <nd ref="210255406"/>
    <nd ref="210255409"/>
    <nd ref="210255411"/>
    <tag k="highway" v="residential"/>
    <tag k="name" v="Ridge Drive"/>
    <tag k="source" v="yahoo"/>
    <tag k="source:name" v="survey"/>
  </way>
  <way id="19973617" version="8" timestamp="2010-07-09T03:37:53Z" uid="74617" user="JohnSmith" changeset="5170825">
    <nd ref="210219173"/>
    <nd ref="210219174"/>
    <nd ref="210219893"/>
    <nd ref="210219176"/>
    <nd ref="210219177"/>
    <nd ref="210219178"/>
    <tag k="highway" v="residential"/>
    <tag k="maxspeed" v="50"/>
    <tag k="maxspeed:source" v="default residential speed limit in Australia"/>
    <tag k="name" v="Military Road"/>
    <tag k="source" v="yahoo"/>
    <tag k="source:name" v="survey"/>
  </way>
  <way id="19973617" version="9" timestamp="2012-01-15T20:47:34Z" uid="147510" user="woodpeck_fixbot" changeset="10402983">
    <nd ref="210219173"/>
    <nd ref="210219174"/>
    <nd ref="210219893"/>
    <nd ref="210219176"/>
    <nd ref="210219177"/>
    <nd ref="210219178"/>
    <tag k="highway" v="residential"/>
    <tag k="name" v="Military Road"/>
    <tag k="source" v="yahoo"/>
    <tag k="source:name" v="survey"/>
  </way>
  <way id="19973684" version="5" timestamp="2010-07-09T03:39:05Z" uid="74617" user="JohnSmith" changeset="5170825">
    <nd ref="210219410"/>
    <nd ref="210219893"/>
    <tag k="highway" v="residential"/>
    <tag k="maxspeed" v="50"/>
    <tag k="maxspeed:source" v="default residential speed limit in Australia"/>
    <tag k="name" v="Military Road"/>
    <tag k="source" v="yahoo"/>
    <tag k="source:name" v="survey"/>
  </way>
  <way id="19973684" version="6" timestamp="2012-01-15T20:47:37Z" uid="147510" user="woodpeck_fixbot" changeset="10402983">
    <nd ref="210219410"/>
    <nd ref="210219893"/>
    <tag k="highway" v="residential"/>
    <tag k="name" v="Military Road"/>
    <tag k="source" v="yahoo"/>
    <tag k="source:name" v="survey"/>
  </way>
  <way id="19973734" version="9" timestamp="2010-07-09T03:37:26Z" uid="74617" user="JohnSmith" changeset="5170825">
    <nd ref="60660652"/>
    <nd ref="210262483"/>
    <nd ref="210262484"/>
    <nd ref="210262485"/>
    <nd ref="210264969"/>
    <nd ref="210256981"/>
    <nd ref="210255411"/>
    <nd ref="210256983"/>
    <nd ref="210256984"/>
    <nd ref="210256985"/>
    <nd ref="210256986"/>
    <nd ref="210221789"/>
    <nd ref="210253894"/>
    <tag k="highway" v="residential"/>
    <tag k="maxspeed" v="50"/>
    <tag k="maxspeed:source" v="default residential speed limit in Australia"/>
    <tag k="name" v="North Road"/>
    <tag k="source" v="yahoo"/>
    <tag k="source:name" v="survey"/>
  </way>
  <way id="19973734" version="10" timestamp="2012-01-15T20:47:40Z" uid="147510" user="woodpeck_fixbot" changeset="10402983">
    <nd ref="60660652"/>
    <nd ref="210262483"/>
    <nd ref="210262484"/>
    <nd ref="210262485"/>
    <nd ref="210264969"/>
    <nd ref="210256981"/>
    <nd ref="210255411"/>
    <nd ref="210256983"/>
    <nd ref="210256984"/>
    <nd ref="210256985"/>
    <nd ref="210256986"/>
    <nd ref="210221789"/>
    <nd ref="210253894"/>
    <tag k="highway" v="residential"/>
    <tag k="name" v="North Road"/>
    <tag k="source" v="yahoo"/>
    <tag k="source:name" v="survey"/>
  </way>
  <way id="19973744" version="5" timestamp="2010-07-09T03:37:04Z" uid="74617" user="JohnSmith" changeset="5170825">
    <nd ref="210221786"/>
    <nd ref="210221787"/>
    <nd ref="210221788"/>
    <nd ref="210221789"/>
    <tag k="highway" v="residential"/>
    <tag k="maxspeed" v="50"/>
    <tag k="maxspeed:source" v="default residential speed limit in Australia"/>
    <tag k="name" v="Military Road"/>
    <tag k="source" v="yahoo"/>
    <tag k="source:name" v="survey"/>
  </way>
  <way id="19973744" version="6" timestamp="2012-01-15T20:47:42Z" uid="147510" user="woodpeck_fixbot" changeset="10402983">
    <nd ref="210221786"/>
    <nd ref="210221787"/>
    <nd ref="210221788"/>
    <nd ref="210221789"/>
    <tag k="highway" v="residential"/>
    <tag k="name" v="Military Road"/>
    <tag k="source" v="yahoo"/>
    <tag k="source:name" v="survey"/>
  </way>
  <way id="19973785" version="3" timestamp="2010-07-09T03:39:06Z" uid="74617" user="JohnSmith" changeset="5170825">
    <nd ref="210223136"/>
    <nd ref="210223138"/>
    <nd ref="210218086"/>
    <nd ref="210217516"/>
    <tag k="highway" v="residential"/>
    <tag k="maxspeed" v="50"/>
    <tag k="maxspeed:source" v="default residential speed limit in Australia"/>
    <tag k="name" v="Skewes Street"/>
    <tag k="source" v="yahoo"/>
    <tag k="source:name" v="survey"/>
  </way>
  <way id="19973785" version="4" timestamp="2012-01-15T20:47:44Z" uid="147510" user="woodpeck_fixbot" changeset="10402983">
    <nd ref="210223136"/>
    <nd ref="210223138"/>
    <nd ref="210218086"/>
    <nd ref="210217516"/>
    <tag k="highway" v="residential"/>
    <tag k="name" v="Skewes Street"/>
    <tag k="source" v="yahoo"/>
    <tag k="source:name" v="survey"/>
  </way>
  <way id="19973786" version="3" timestamp="2010-07-09T03:38:33Z" uid="74617" user="JohnSmith" changeset="5170825">
    <nd ref="210223140"/>
    <nd ref="210215929"/>
    <nd ref="60660660"/>
    <tag k="highway" v="residential"/>
    <tag k="maxspeed" v="50"/>
    <tag k="maxspeed:source" v="default residential speed limit in Australia"/>
    <tag k="name" v="Davis Avenue"/>
    <tag k="source" v="yahoo"/>
    <tag k="source:name" v="survey"/>
  </way>
  <way id="19973786" version="4" timestamp="2012-01-15T20:47:46Z" uid="147510" user="woodpeck_fixbot" changeset="10402983">
    <nd ref="210223140"/>
    <nd ref="210215929"/>
    <nd ref="60660660"/>
    <tag k="highway" v="residential"/>
    <tag k="name" v="Davis Avenue"/>
    <tag k="source" v="yahoo"/>
    <tag k="source:name" v="survey"/>
  </way>
  <way id="19973787" version="3" timestamp="2010-07-09T03:37:53Z" uid="74617" user="JohnSmith" changeset="5170825">
    <nd ref="210223141"/>
    <nd ref="210191744"/>
    <nd ref="210192348"/>
    <nd ref="210188432"/>
    <nd ref="210188434"/>
    <tag k="highway" v="residential"/>
    <tag k="maxspeed" v="50"/>
    <tag k="maxspeed:source" v="default residential speed limit in Australia"/>
    <tag k="name" v="Doyle Street"/>
    <tag k="source" v="yahoo"/>
    <tag k="source:name" v="survey"/>
  </way>
  <way id="19973787" version="4" timestamp="2012-01-15T20:47:48Z" uid="147510" user="woodpeck_fixbot" changeset="10402983">
    <nd ref="210223141"/>
    <nd ref="210191744"/>
    <nd ref="210192348"/>
    <nd ref="210188432"/>
    <nd ref="210188434"/>
    <tag k="highway" v="residential"/>
    <tag k="name" v="Doyle Street"/>
    <tag k="source" v="yahoo"/>
    <tag k="source:name" v="survey"/>
  </way>
  <way id="19973788" version="5" timestamp="2010-07-09T03:37:16Z" uid="74617" user="JohnSmith" changeset="5170825">
    <nd ref="210223143"/>
    <nd ref="210223144"/>
    <nd ref="210223140"/>
    <nd ref="210223145"/>
    <nd ref="210223141"/>
    <nd ref="210223146"/>
    <nd ref="210223147"/>
    <nd ref="233612915"/>
    <nd ref="210223143"/>
    <tag k="highway" v="residential"/>
    <tag k="junction" v="roundabout"/>
    <tag k="maxspeed" v="50"/>
    <tag k="maxspeed:source" v="default residential speed limit in Australia"/>
  </way>
  <way id="19973788" version="6" timestamp="2012-01-15T20:47:49Z" uid="147510" user="woodpeck_fixbot" changeset="10402983">
    <nd ref="210223143"/>
    <nd ref="210223144"/>
    <nd ref="210223140"/>
    <nd ref="210223145"/>
    <nd ref="210223141"/>
    <nd ref="210223146"/>
    <nd ref="210223147"/>
    <nd ref="233612915"/>
    <nd ref="210223143"/>
    <tag k="highway" v="residential"/>
    <tag k="junction" v="roundabout"/>
  </way>
  <way id="19973789" version="3" timestamp="2010-07-09T03:39:35Z" uid="74617" user="JohnSmith" changeset="5170825">
    <nd ref="210223148"/>
    <nd ref="210218087"/>
    <nd ref="210223149"/>
    <nd ref="210217515"/>
    <nd ref="210223150"/>
    <nd ref="210217530"/>
    <tag k="highway" v="residential"/>
    <tag k="maxspeed" v="50"/>
    <tag k="maxspeed:source" v="default residential speed limit in Australia"/>
    <tag k="name" v="Deutscher Street"/>
    <tag k="source" v="yahoo"/>
    <tag k="source:name" v="survey"/>
  </way>
  <way id="19973789" version="4" timestamp="2012-01-15T20:47:51Z" uid="147510" user="woodpeck_fixbot" changeset="10402983">
    <nd ref="210223148"/>
    <nd ref="210218087"/>
    <nd ref="210223149"/>
    <nd ref="210217515"/>
    <nd ref="210223150"/>
    <nd ref="210217530"/>
    <tag k="highway" v="residential"/>
    <tag k="name" v="Deutscher Street"/>
    <tag k="source" v="yahoo"/>
    <tag k="source:name" v="survey"/>
  </way>
  <way id="19973790" version="3" timestamp="2010-07-09T03:38:56Z" uid="74617" user="JohnSmith" changeset="5170825">
    <nd ref="210223151"/>
    <nd ref="210223138"/>
    <nd ref="210223147"/>
    <tag k="highway" v="residential"/>
    <tag k="maxspeed" v="50"/>
    <tag k="maxspeed:source" v="default residential speed limit in Australia"/>
    <tag k="name" v="Davis Avenue"/>
    <tag k="source" v="yahoo"/>
    <tag k="source:name" v="survey"/>
  </way>
  <way id="19973790" version="4" timestamp="2012-01-15T20:47:52Z" uid="147510" user="woodpeck_fixbot" changeset="10402983">
    <nd ref="210223151"/>
    <nd ref="210223138"/>
    <nd ref="210223147"/>
    <tag k="highway" v="residential"/>
    <tag k="name" v="Davis Avenue"/>
    <tag k="source" v="yahoo"/>
    <tag k="source:name" v="survey"/>
  </way>
  <way id="19973791" version="3" timestamp="2010-07-09T03:38:21Z" uid="74617" user="JohnSmith" changeset="5170825">
    <nd ref="210223153"/>
    <nd ref="210223148"/>
    <nd ref="210223154"/>
    <nd ref="210223151"/>
    <nd ref="210223155"/>
    <nd ref="210223156"/>
    <nd ref="210223157"/>
    <nd ref="210223158"/>
    <nd ref="210223153"/>
    <tag k="highway" v="residential"/>
    <tag k="junction" v="roundabout"/>
    <tag k="maxspeed" v="50"/>
    <tag k="maxspeed:source" v="default residential speed limit in Australia"/>
  </way>
  <way id="19973791" version="4" timestamp="2012-01-15T20:47:53Z" uid="147510" user="woodpeck_fixbot" changeset="10402983">
    <nd ref="210223153"/>
    <nd ref="210223148"/>
    <nd ref="210223154"/>
    <nd ref="210223151"/>
    <nd ref="210223155"/>
    <nd ref="210223156"/>
    <nd ref="210223157"/>
    <nd ref="210223158"/>
    <nd ref="210223153"/>
    <tag k="highway" v="residential"/>
    <tag k="junction" v="roundabout"/>
  </way>
  <way id="19973792" version="3" timestamp="2010-07-09T03:39:31Z" uid="74617" user="JohnSmith" changeset="5170825">
    <nd ref="210223159"/>
    <nd ref="210223160"/>
    <nd ref="210223158"/>
    <tag k="highway" v="residential"/>
    <tag k="maxspeed" v="50"/>
    <tag k="maxspeed:source" v="default residential speed limit in Australia"/>
    <tag k="name" v="Davis Avenue"/>
    <tag k="source" v="yahoo"/>
    <tag k="source:name" v="survey"/>
  </way>
  <way id="19973792" version="4" timestamp="2012-01-15T20:47:55Z" uid="147510" user="woodpeck_fixbot" changeset="10402983">
    <nd ref="210223159"/>
    <nd ref="210223160"/>
    <nd ref="210223158"/>
    <tag k="highway" v="residential"/>
    <tag k="name" v="Davis Avenue"/>
    <tag k="source" v="yahoo"/>
    <tag k="source:name" v="survey"/>
  </way>
  <way id="19973793" version="3" timestamp="2010-07-09T03:38:52Z" uid="74617" user="JohnSmith" changeset="5170825">
    <nd ref="210217718"/>
    <nd ref="210223160"/>
    <nd ref="210223161"/>
    <tag k="highway" v="residential"/>
    <tag k="maxspeed" v="50"/>
    <tag k="maxspeed:source" v="default residential speed limit in Australia"/>
    <tag k="name" v="Hanley Street"/>
    <tag k="source" v="yahoo"/>
    <tag k="source:name" v="survey"/>
  </way>
  <way id="19973793" version="4" timestamp="2012-01-15T20:47:57Z" uid="147510" user="woodpeck_fixbot" changeset="10402983">
    <nd ref="210217718"/>
    <nd ref="210223160"/>
    <nd ref="210223161"/>
    <tag k="highway" v="residential"/>
    <tag k="name" v="Hanley Street"/>
    <tag k="source" v="yahoo"/>
    <tag k="source:name" v="survey"/>
  </way>
</osm>
