<?xml version='1.0' encoding='UTF-8'?>
<osm version="0.6" generator="libosmium/2.20.0">
  <way id="19993101" version="3" timestamp="2010-07-09T06:24:27Z" uid="74617" user="JohnSmith" changeset="5171128">
    <nd ref="210619768"/>
    <nd ref="210620086"/>
    <tag k="highway" v="residential"/>
    <tag k="maxspeed" v="50"/>
    <tag k="maxspeed:source" v="default residential speed limit in Australia"/>
    <tag k="name" v="Dawson Place"/>
  </way>
  <way id="19993101" version="4" timestamp="2012-01-15T20:48:30Z" uid="147510" user="woodpeck_fixbot" changeset="10402983">
    <nd ref="210619768"/>
    <nd ref="210620086"/>
    <tag k="highway" v="residential"/>
    <tag k="name" v="Dawson Place"/>
  </way>
  <way id="19993131" version="4" timestamp="2010-07-09T06:19:42Z" uid="74617" user="JohnSmith" changeset="5171128">
    <nd ref="210620121"/>
    <nd ref="725884703"/>
    <nd ref="210620695"/>
    <nd ref="210620624"/>
    <tag k="highway" v="residential"/>
    <tag k="maxspeed" v="50"/>
    <tag k="maxspeed:source" v="default residential speed limit in Australia"/>
    <tag k="name" v="Carob Street"/>
  </way>
  <way id="19993131" version="5" timestamp="2011-04-17T01:36:50Z" uid="4467" user="Rosscoe" changeset="7883426">
    <nd ref="210620121"/>
    <nd ref="725884703"/>
    <nd ref="210620695"/>
    <nd ref="210620624"/>
    <tag k="highway" v="residential"/>
    <tag k="maxspeed" v="50"/>
    <tag k="name" v="Carob Street"/>
    <tag k="source:maxspeed" v="default residential speed limit in Australia"/>
  </way>
  <way id="19993131" version="6" timestamp="2011-04-28T07:21:27Z" uid="261730" user="Davoz" changeset="7991405">
    <nd ref="210620121"/>
    <nd ref="725884703"/>
    <nd ref="210620695"/>
    <nd ref="210620624"/>
    <tag k="highway" v="residential"/>
    <tag k="maxspeed" v="50"/>
    <tag k="name" v="Carob Street"/>
    <tag k="source:maxspeed" v="default residential speed limit in Australia"/>
  </way>
  <way id="19993131" version="7" timestamp="2012-01-15T20:48:31Z" uid="147510" user="woodpeck_fixbot" changeset="10402983">
    <nd ref="210620121"/>
    <nd ref="725884703"/>
    <nd ref="210620695"/>
    <nd ref="210620624"/>
    <tag k="highway" v="residential"/>
    <tag k="name" v="Carob Street"/>
    <tag k="source:maxspeed" v="default residential speed limit in Australia"/>
  </way>
  <way id="19993157" version="3" timestamp="2010-07-09T06:22:09Z" uid="74617" user="JohnSmith" changeset="5171128">
    <nd ref="210620695"/>
    <nd ref="210621043"/>
    <nd ref="210621045"/>
    <tag k="highway" v="residential"/>
    <tag k="maxspeed" v="50"/>
    <tag k="maxspeed:source" v="default residential speed limit in Australia"/>
    <tag k="name" v="Constitution Street"/>
  </way>
  <way id="19993157" version="4" timestamp="2011-04-17T01:36:54Z" uid="4467" user="Rosscoe" changeset="7883426">
    <nd ref="210620695"/>
    <nd ref="210621043"/>
    <nd ref="210621045"/>
    <tag k="highway" v="residential"/>
    <tag k="maxspeed" v="50"/>
    <tag k="name" v="Constitution Street"/>
    <tag k="source:maxspeed" v="default residential speed limit in Australia"/>
  </way>
  <way id="19993157" version="5" timestamp="2012-01-15T20:48:33Z" uid="147510" user="woodpeck_fixbot" changeset="10402983">
    <nd ref="210620695"/>
    <nd ref="210621043"/>
    <nd ref="210621045"/>
    <tag k="highway" v="residential"/>
    <tag k="name" v="Constitution Street"/>
    <tag k="source:maxspeed" v="default residential speed limit in Australia"/>
  </way>
  <way id="19993195" version="2" timestamp="2010-07-09T06:24:04Z" uid="74617" user="JohnSmith" changeset="5171128">
    <nd ref="210621873"/>
    <nd ref="210622126"/>
    <tag k="highway" v="residential"/>
    <tag k="maxspeed" v="50"/>
    <tag k="maxspeed:source" v="default residential speed limit in Australia"/>
    <tag k="name" v="Premier Street"/>
  </way>
  <way id="19993195" version="3" timestamp="2011-04-17T01:01:10Z" uid="4467" user="Rosscoe" changeset="7883328">
    <nd ref="210621873"/>
    <nd ref="1247832489"/>
    <nd ref="1247832474"/>
    <nd ref="210622126"/>
    <tag k="highway" v="residential"/>
    <tag k="maxspeed" v="50"/>
    <tag k="maxspeed:source" v="default residential speed limit in Australia"/>
    <tag k="name" v="Premier Street"/>
  </way>
  <way id="19993195" version="4" timestamp="2011-04-17T01:36:48Z" uid="4467" user="Rosscoe" changeset="7883426">
    <nd ref="210621873"/>
    <nd ref="1247832489"/>
    <nd ref="1247832474"/>
    <nd ref="210622126"/>
    <tag k="highway" v="residential"/>
    <tag k="maxspeed" v="50"/>
    <tag k="name" v="Premier Street"/>
    <tag k="source:maxspeed" v="default residential speed limit in Australia"/>
  </way>
  <way id="19993195" version="5" timestamp="2012-01-15T20:48:34Z" uid="147510" user="woodpeck_fixbot" changeset="10402983">
    <nd ref="210621873"/>
    <nd ref="1247832489"/>
    <nd ref="1247832474"/>
    <nd ref="210622126"/>
    <tag k="highway" v="residential"/>
    <tag k="name" v="Premier Street"/>
    <tag k="source:maxspeed" v="default residential speed limit in Australia"/>
  </way>
  <way id="19993229" version="4" timestamp="2010-05-09T04:26:00Z" uid="4467" user="Rosscoe" changeset="4644713">
    <nd ref="210622727"/>
    <nd ref="252713353"/>
    <nd ref="725884755"/>
    <nd ref="210623412"/>
    <nd ref="210623414"/>
    <tag k="highway" v="residential"/>
    <tag k="name" v="Halsey Street"/>
  </way>
  <way id="19993229" version="5" timestamp="2010-07-09T06:16:01Z" uid="74617" user="JohnSmith" changeset="5171128">
    <nd ref="210622727"/>
    <nd ref="252713353"/>
    <nd ref="725884755"/>
    <nd ref="210623412"/>
    <nd ref="210623414"/>
    <tag k="highway" v="residential"/>
    <tag k="maxspeed" v="50"/>
    <tag k="maxspeed:source" v="default residential speed limit in Australia"/>
    <tag k="name" v="Halsey Street"/>
  </way>
  <way id="19993229" version="6" timestamp="2011-04-17T01:36:56Z" uid="4467" user="Rosscoe" changeset="7883426">
    <nd ref="210622727"/>
    <nd ref="252713353"/>
    <nd ref="725884755"/>
    <nd ref="210623412"/>
    <nd ref="210623414"/>
    <tag k="highway" v="residential"/>
    <tag k="maxspeed" v="50"/>
    <tag k="name" v="Halsey Street"/>
    <tag k="source:maxspeed" v="default residential speed limit in Australia"/>
  </way>
  <way id="19993229" version="7" timestamp="2012-01-15T20:48:35Z" uid="147510" user="woodpeck_fixbot" changeset="10402983">
    <nd ref="210622727"/>
    <nd ref="252713353"/>
    <nd ref="725884755"/>
    <nd ref="210623412"/>
    <nd ref="210623414"/>
    <tag k="highway" v="residential"/>
    <tag k="name" v="Halsey Street"/>
    <tag k="source:maxspeed" v="default residential speed limit in Australia"/>
  </way>
  <way id="19993260" version="8" timestamp="2010-05-20T14:43:23Z" uid="4467" user="Rosscoe" changeset="4758259">
    <nd ref="210623992"/>
    <nd ref="210629392"/>
    <nd ref="212722454"/>
    <nd ref="210629784"/>
    <nd ref="210629008"/>
    <nd ref="210632320"/>
    <nd ref="741063834"/>
    <nd ref="210624375"/>
    <tag k="highway" v="tertiary"/>
    <tag k="name" v="Knight Street"/>
  </way>
  <way id="19993290" version="8" timestamp="2010-07-09T06:19:35Z" uid="74617" user="JohnSmith" changeset="5171128">
    <nd ref="210624884"/>
    <nd ref="210625426"/>
    <nd ref="210629034"/>
    <nd ref="210626832"/>
    <nd ref="210629426"/>
    <nd ref="210627388"/>
    <nd ref="210628026"/>
    <nd ref="210625428"/>
    <tag k="highway" v="residential"/>
    <tag k="maxspeed" v="50"/>
    <tag k="maxspeed:source" v="default residential speed limit in Australia"/>
    <tag k="name" v="Island Queen Street"/>
  </way>
  <way id="19993290" version="9" timestamp="2012-01-15T20:48:36Z" uid="147510" user="woodpeck_fixbot" changeset="10402983">
    <nd ref="210624884"/>
    <nd ref="210625426"/>
    <nd ref="210629034"/>
    <nd ref="210626832"/>
    <nd ref="210629426"/>
    <nd ref="210627388"/>
    <nd ref="210628026"/>
    <nd ref="210625428"/>
    <tag k="highway" v="residential"/>
    <tag k="name" v="Island Queen Street"/>
  </way>
  <way id="19993330" version="7" timestamp="2010-05-20T14:43:23Z" uid="4467" user="Rosscoe" changeset="4758259">
    <nd ref="210625426"/>
    <nd ref="210626419"/>
    <nd ref="726349948"/>
    <nd ref="210626420"/>
    <nd ref="210627020"/>
    <nd ref="210632992"/>
    <nd ref="210627628"/>
    <nd ref="210628236"/>
    <nd ref="741063852"/>
    <nd ref="210626422"/>
    <tag k="highway" v="residential"/>
    <tag k="name" v="Devonshire Street"/>
  </way>
  <way id="19993330" version="8" timestamp="2010-07-09T06:16:40Z" uid="74617" user="JohnSmith" changeset="5171128">
    <nd ref="210625426"/>
    <nd ref="210626419"/>
    <nd ref="726349948"/>
    <nd ref="210626420"/>
    <nd ref="210627020"/>
    <nd ref="210632992"/>
    <nd ref="210627628"/>
    <nd ref="210628236"/>
    <nd ref="741063852"/>
    <nd ref="210626422"/>
    <tag k="highway" v="residential"/>
    <tag k="maxspeed" v="50"/>
    <tag k="maxspeed:source" v="default residential speed limit in Australia"/>
    <tag k="name" v="Devonshire Street"/>
  </way>
  <way id="19993330" version="9" timestamp="2010-08-29T23:15:41Z" uid="3516" user="BiIbo" changeset="5631294">
    <nd ref="210625426"/>
    <nd ref="210626419"/>
    <nd ref="726349948"/>
    <nd ref="210626420"/>
    <nd ref="765762866"/>
    <nd ref="210632992"/>
    <nd ref="210627628"/>
    <nd ref="210628236"/>
    <nd ref="741063852"/>
    <nd ref="210626422"/>
    <tag k="highway" v="residential"/>
    <tag k="maxspeed" v="50"/>
    <tag k="maxspeed:source" v="default residential speed limit in Australia"/>
    <tag k="name" v="Devonshire Street"/>
  </way>
  <way id="19993330" version="10" timestamp="2011-07-21T14:05:50Z" uid="481865" user="ShayneM" changeset="8788669">
    <nd ref="210625426"/>
    <nd ref="210626419"/>
    <nd ref="1369078400"/>
    <nd ref="726349948"/>
    <nd ref="210626420"/>
    <nd ref="765762866"/>
    <nd ref="210632992"/>
    <nd ref="210627628"/>
    <nd ref="210628236"/>
    <nd ref="741063852"/>
    <nd ref="210626422"/>
    <tag k="highway" v="residential"/>
    <tag k="maxspeed" v="50"/>
    <tag k="maxspeed:source" v="default residential speed limit in Australia"/>
    <tag k="name" v="Devonshire Street"/>
  </way>
  <way id="19993330" version="11" timestamp="2012-01-15T20:48:37Z" uid="147510" user="woodpeck_fixbot" changeset="10402983">
    <nd ref="210625426"/>
    <nd ref="210626419"/>
    <nd ref="1369078400"/>
    <nd ref="726349948"/>
    <nd ref="210626420"/>
    <nd ref="765762866"/>
    <nd ref="210632992"/>
    <nd ref="210627628"/>
    <nd ref="210628236"/>
    <nd ref="741063852"/>
    <nd ref="210626422"/>
    <tag k="highway" v="residential"/>
    <tag k="name" v="Devonshire Street"/>
  </way>
  <way id="19993359" version="3" timestamp="2010-07-09T06:22:18Z" uid="74617" user="JohnSmith" changeset="5171128">
    <nd ref="210626420"/>
    <nd ref="210626832"/>
    <tag k="highway" v="residential"/>
    <tag k="maxspeed" v="50"/>
    <tag k="maxspeed:source" v="default residential speed limit in Australia"/>
    <tag k="name" v="Vixen Street"/>
  </way>
  <way id="19993359" version="4" timestamp="2012-01-15T20:48:39Z" uid="147510" user="woodpeck_fixbot" changeset="10402983">
    <nd ref="210626420"/>
    <nd ref="210626832"/>
    <tag k="highway" v="residential"/>
    <tag k="name" v="Vixen Street"/>
  </way>
  <way id="19993427" version="2" timestamp="2010-07-09T06:17:47Z" uid="74617" user="JohnSmith" changeset="5171128">
    <nd ref="210627628"/>
    <nd ref="210628026"/>
    <tag k="highway" v="residential"/>
    <tag k="maxspeed" v="50"/>
    <tag k="maxspeed:source" v="default residential speed limit in Australia"/>
    <tag k="name" v="Wright Street"/>
  </way>
  <way id="19993427" version="3" timestamp="2012-01-15T20:48:40Z" uid="147510" user="woodpeck_fixbot" changeset="10402983">
    <nd ref="210627628"/>
    <nd ref="210628026"/>
    <tag k="highway" v="residential"/>
    <tag k="name" v="Wright Street"/>
  </way>
  <way id="19993482" version="4" timestamp="2010-07-09T06:17:14Z" uid="74617" user="JohnSmith" changeset="5171128">
    <nd ref="210628236"/>
    <nd ref="210630060"/>
    <nd ref="726351269"/>
    <nd ref="210625428"/>
    <nd ref="210629008"/>
    <tag k="highway" v="residential"/>
    <tag k="maxspeed" v="50"/>
    <tag k="maxspeed:source" v="default residential speed limit in Australia"/>
    <tag k="name" v="Sulphur Street"/>
  </way>
  <way id="19993482" version="5" timestamp="2012-01-15T20:48:42Z" uid="147510" user="woodpeck_fixbot" changeset="10402983">
    <nd ref="210628236"/>
    <nd ref="210630060"/>
    <nd ref="726351269"/>
    <nd ref="210625428"/>
    <nd ref="210629008"/>
    <tag k="highway" v="residential"/>
    <tag k="name" v="Sulphur Street"/>
  </way>
  <way id="19993496" version="2" timestamp="2010-07-09T06:17:35Z" uid="74617" user="JohnSmith" changeset="5171128">
    <nd ref="210629034"/>
    <nd ref="210629392"/>
    <tag k="highway" v="residential"/>
    <tag k="maxspeed" v="50"/>
    <tag k="maxspeed:source" v="default residential speed limit in Australia"/>
    <tag k="name" v="Champion Street"/>
  </way>
  <way id="19993496" version="3" timestamp="2012-01-15T20:48:43Z" uid="147510" user="woodpeck_fixbot" changeset="10402983">
    <nd ref="210629034"/>
    <nd ref="210629392"/>
    <tag k="highway" v="residential"/>
    <tag k="name" v="Champion Street"/>
  </way>
  <way id="19993516" version="2" timestamp="2010-07-09T06:17:40Z" uid="74617" user="JohnSmith" changeset="5171128">
    <nd ref="210629426"/>
    <nd ref="210629784"/>
    <tag k="highway" v="residential"/>
    <tag k="maxspeed" v="50"/>
    <tag k="maxspeed:source" v="default residential speed limit in Australia"/>
    <tag k="name" v="Trusty Street"/>
  </way>
  <way id="19993516" version="3" timestamp="2011-04-30T13:11:50Z" uid="261730" user="Davoz" changeset="8011320">
    <nd ref="210629426"/>
    <nd ref="210629784"/>
    <tag k="highway" v="residential"/>
    <tag k="maxspeed" v="50"/>
    <tag k="maxspeed:source" v="default residential speed limit in Australia"/>
    <tag k="name" v="Trusty Street"/>
  </way>
  <way id="19993516" version="4" timestamp="2012-01-15T20:48:45Z" uid="147510" user="woodpeck_fixbot" changeset="10402983">
    <nd ref="210629426"/>
    <nd ref="210629784"/>
    <tag k="highway" v="residential"/>
    <tag k="name" v="Trusty Street"/>
  </way>
  <way id="19993590" version="3" timestamp="2010-05-20T14:43:26Z" uid="4467" user="Rosscoe" changeset="4758259">
    <nd ref="210630060"/>
    <nd ref="210631797"/>
    <nd ref="741063826"/>
    <nd ref="210631800"/>
    <tag k="highway" v="residential"/>
    <tag k="name" v="Otway Street"/>
  </way>
  <way id="19993590" version="4" timestamp="2010-07-09T06:17:11Z" uid="74617" user="JohnSmith" changeset="5171128">
    <nd ref="210630060"/>
    <nd ref="210631797"/>
    <nd ref="741063826"/>
    <nd ref="210631800"/>
    <tag k="highway" v="residential"/>
    <tag k="maxspeed" v="50"/>
    <tag k="maxspeed:source" v="default residential speed limit in Australia"/>
    <tag k="name" v="Otway Street"/>
  </way>
  <way id="19993590" version="5" timestamp="2012-01-15T20:48:45Z" uid="147510" user="woodpeck_fixbot" changeset="10402983">
    <nd ref="210630060"/>
    <nd ref="210631797"/>
    <nd ref="741063826"/>
    <nd ref="210631800"/>
    <tag k="highway" v="residential"/>
    <tag k="name" v="Otway Street"/>
  </way>
  <way id="19993618" version="2" timestamp="2010-07-09T06:19:21Z" uid="74617" user="JohnSmith" changeset="5171128">
    <nd ref="210631797"/>
    <nd ref="210632320"/>
    <tag k="highway" v="residential"/>
    <tag k="maxspeed" v="50"/>
    <tag k="maxspeed:source" v="default residential speed limit in Australia"/>
    <tag k="name" v="Kestrel Street"/>
  </way>
  <way id="19993618" version="3" timestamp="2012-01-15T20:48:46Z" uid="147510" user="woodpeck_fixbot" changeset="10402983">
    <nd ref="210631797"/>
    <nd ref="210632320"/>
    <tag k="highway" v="residential"/>
    <tag k="name" v="Kestrel Street"/>
  </way>
  <way id="19993672" version="2" timestamp="2010-07-09T06:18:57Z" uid="74617" user="JohnSmith" changeset="5171128">
    <nd ref="33022057"/>
    <nd ref="210632992"/>
    <tag k="highway" v="residential"/>
    <tag k="maxspeed" v="50"/>
    <tag k="maxspeed:source" v="default residential speed limit in Australia"/>
    <tag k="name" v="Belle Street"/>
  </way>
  <way id="19993672" version="3" timestamp="2012-01-15T20:48:48Z" uid="147510" user="woodpeck_fixbot" changeset="10402983">
    <nd ref="33022057"/>
    <nd ref="210632992"/>
    <tag k="highway" v="residential"/>
    <tag k="name" v="Belle Street"/>
  </way>
  <way id="19993814" version="7" timestamp="2010-04-05T21:08:20Z" uid="74617" user="JohnSmith" changeset="4338595">
    <nd ref="21643780"/>
    <nd ref="210636358"/>
    <nd ref="210636332"/>
    <tag k="highway" v="primary"/>
    <tag k="name" v="Wallen Road"/>
    <tag k="oneway" v="yes"/>
  </way>
  <way id="19993814" version="8" timestamp="2011-10-07T07:52:16Z" uid="206929" user="Supt_of_Printing" changeset="9491579">
    <nd ref="21643780"/>
    <nd ref="1457531643"/>
    <nd ref="210636358"/>
    <nd ref="210636332"/>
    <tag k="highway" v="primary"/>
    <tag k="name" v="Wallen Road"/>
    <tag k="oneway" v="yes"/>
  </way>
  <way id="19993814" version="9" timestamp="2011-10-07T10:31:43Z" uid="206929" user="Supt_of_Printing" changeset="9492593">
    <nd ref="21643780"/>
    <nd ref="1457531643"/>
    <nd ref="210636358"/>
    <nd ref="210636332"/>
    <tag k="highway" v="primary"/>
    <tag k="oneway" v="yes"/>
  </way>
  <way id="19993814" version="10" timestamp="2011-11-19T07:25:25Z" uid="46482" user="Leon K" changeset="9870691">
    <nd ref="21643780"/>
    <nd ref="1457531643"/>
    <nd ref="210636358"/>
    <nd ref="210636332"/>
    <tag k="highway" v="primary"/>
    <tag k="name" v="Wallan Road"/>
    <tag k="oneway" v="yes"/>
  </way>
  <way id="19993819" version="11" timestamp="2010-04-05T21:08:17Z" uid="74617" user="JohnSmith" changeset="4338595">
    <nd ref="210636237"/>
    <nd ref="571467071"/>
    <nd ref="210636217"/>
    <nd ref="210636192"/>
    <nd ref="255026243"/>
    <nd ref="255026244"/>
    <nd ref="210636174"/>
    <nd ref="210636145"/>
    <nd ref="210636126"/>
    <nd ref="210636105"/>
    <nd ref="210636079"/>
    <nd ref="210636010"/>
    <nd ref="210574777"/>
    <tag k="highway" v="primary"/>
    <tag k="name" v="Swan Street"/>
    <tag k="railway" v="tram"/>
  </way>
  <way id="19993819" version="12" timestamp="2011-09-12T01:08:50Z" uid="201443" user="stevage" changeset="9276497">
    <nd ref="210636237"/>
    <nd ref="1430626758"/>
    <nd ref="571467071"/>
    <nd ref="210636217"/>
    <nd ref="210636192"/>
    <nd ref="255026243"/>
    <nd ref="255026244"/>
    <nd ref="210636174"/>
    <nd ref="210636145"/>
    <nd ref="210636126"/>
    <nd ref="210636105"/>
    <nd ref="210636079"/>
    <nd ref="210636010"/>
    <nd ref="210574777"/>
    <tag k="highway" v="primary"/>
    <tag k="name" v="Swan Street"/>
    <tag k="railway" v="tram"/>
  </way>
  <way id="19993819" version="13" timestamp="2011-10-07T10:31:43Z" uid="206929" user="Supt_of_Printing" changeset="9492593">
    <nd ref="210636237"/>
    <nd ref="1430626758"/>
    <nd ref="571467071"/>
    <nd ref="210636217"/>
    <nd ref="1457603147"/>
    <nd ref="210636192"/>
    <nd ref="255026243"/>
    <nd ref="255026244"/>
    <nd ref="210636174"/>
    <nd ref="1457603143"/>
    <nd ref="210636145"/>
    <nd ref="1457603158"/>
    <nd ref="210636126"/>
    <nd ref="1457603128"/>
    <nd ref="1457603129"/>
    <nd ref="210636105"/>
    <nd ref="210636079"/>
    <nd ref="210636010"/>
    <nd ref="210574777"/>
    <tag k="highway" v="primary"/>
    <tag k="name" v="Swan Street"/>
    <tag k="railway" v="tram"/>
  </way>
  <way id="19993819" version="14" timestamp="2011-11-11T08:28:04Z" uid="42429" user="FK270673" changeset="9794468">
    <nd ref="210636237"/>
    <nd ref="1430626758"/>
    <nd ref="571467071"/>
    <nd ref="210636217"/>
    <nd ref="1457603147"/>
    <nd ref="210636192"/>
    <nd ref="255026243"/>
    <nd ref="255026244"/>
    <nd ref="210636174"/>
    <nd ref="1457603143"/>
    <nd ref="210636145"/>
    <nd ref="1457603158"/>
    <nd ref="210636126"/>
    <nd ref="1457603128"/>
    <nd ref="1457603129"/>
    <nd ref="210636105"/>
    <nd ref="210636079"/>
    <nd ref="210636010"/>
    <nd ref="210574777"/>
    <tag k="electrified" v="contact_line"/>
    <tag k="frequency" v="0"/>
    <tag k="gauge" v="1435"/>
    <tag k="highway" v="primary"/>
    <tag k="name" v="Swan Street"/>
    <tag k="railway" v="tram"/>
    <tag k="voltage" v="600"/>
  </way>
  <way id="19993821" version="2" timestamp="2010-04-05T21:08:19Z" uid="74617" user="JohnSmith" changeset="4338595">
    <nd ref="210636105"/>
    <nd ref="210636258"/>
    <nd ref="210636279"/>
    <nd ref="210636294"/>
    <nd ref="210574813"/>
    <tag k="highway" v="primary_link"/>
    <tag k="oneway" v="yes"/>
  </way>
  <way id="19993821" version="3" timestamp="2011-10-07T10:31:44Z" uid="206929" user="Supt_of_Printing" changeset="9492593">
    <nd ref="210636105"/>
    <nd ref="210636258"/>
    <nd ref="210636279"/>
    <nd ref="210636294"/>
    <nd ref="1457603140"/>
    <nd ref="210574813"/>
    <tag k="highway" v="primary_link"/>
    <tag k="oneway" v="yes"/>
  </way>
  <way id="19993834" version="16" timestamp="2010-04-05T21:08:19Z" uid="74617" user="JohnSmith" changeset="4338595">
    <nd ref="210651224"/>
    <nd ref="21643780"/>
    <tag k="highway" v="primary"/>
    <tag k="oneway" v="yes"/>
    <tag k="ref" v="S20"/>
  </way>
  <way id="19993834" version="17" timestamp="2010-07-09T23:16:46Z" uid="79475" user="AlexOnTheBus" changeset="5177968">
    <nd ref="210651224"/>
    <nd ref="21643780"/>
    <tag k="highway" v="primary"/>
    <tag k="oneway" v="yes"/>
    <tag k="ref" v="S 20"/>
  </way>
  <way id="19993834" version="18" timestamp="2011-10-07T07:52:17Z" uid="206929" user="Supt_of_Printing" changeset="9491579">
    <nd ref="210651224"/>
    <nd ref="1457531595"/>
    <nd ref="1457531618"/>
    <nd ref="1457531594"/>
    <nd ref="21643780"/>
    <tag k="highway" v="primary"/>
    <tag k="oneway" v="yes"/>
    <tag k="ref" v="S 20"/>
  </way>
  <way id="19993834" version="19" timestamp="2011-10-07T10:31:44Z" uid="206929" user="Supt_of_Printing" changeset="9492593">
    <nd ref="210651224"/>
    <nd ref="1457531595"/>
    <nd ref="1457531618"/>
    <nd ref="1457531594"/>
    <nd ref="21643780"/>
    <tag k="highway" v="secondary"/>
    <tag k="oneway" v="yes"/>
    <tag k="ref" v="S 20"/>
  </way>
  <way id="19993834" version="20" timestamp="2011-11-19T07:25:26Z" uid="46482" user="Leon K" changeset="9870691">
    <nd ref="210651224"/>
    <nd ref="1457531595"/>
    <nd ref="1457531618"/>
    <nd ref="1457531594"/>
    <nd ref="21643780"/>
    <tag k="highway" v="secondary"/>
    <tag k="name" v="Riversdale Road"/>
    <tag k="oneway" v="yes"/>
    <tag k="ref" v="S 20"/>
  </way>
  <way id="19993839" version="5" timestamp="2010-07-09T06:19:44Z" uid="74617" user="JohnSmith" changeset="5171128">
    <nd ref="210635867"/>
    <nd ref="292449231"/>
    <nd ref="292449234"/>
    <nd ref="210636730"/>
    <tag k="highway" v="residential"/>
    <tag k="maxspeed" v="50"/>
    <tag k="maxspeed:source" v="default residential speed limit in Australia"/>
    <tag k="name" v="Erica Entrance"/>
  </way>
  <way id="19993839" version="6" timestamp="2012-01-15T20:48:49Z" uid="147510" user="woodpeck_fixbot" changeset="10402983">
    <nd ref="210635867"/>
    <nd ref="292449231"/>
    <nd ref="292449234"/>
    <nd ref="210636730"/>
    <tag k="highway" v="residential"/>
    <tag k="name" v="Erica Entrance"/>
  </way>
  <way id="19993893" version="7" timestamp="2010-07-09T06:23:33Z" uid="74617" user="JohnSmith" changeset="5171128">
    <nd ref="210636730"/>
    <nd ref="292449225"/>
    <nd ref="292449285"/>
    <nd ref="210637564"/>
    <nd ref="292447636"/>
    <tag k="highway" v="residential"/>
    <tag k="maxspeed" v="50"/>
    <tag k="maxspeed:source" v="default residential speed limit in Australia"/>
    <tag k="name" v="Orchis Drive"/>
  </way>
  <way id="19993893" version="8" timestamp="2012-01-15T20:48:51Z" uid="147510" user="woodpeck_fixbot" changeset="10402983">
    <nd ref="210636730"/>
    <nd ref="292449225"/>
    <nd ref="292449285"/>
    <nd ref="210637564"/>
    <nd ref="292447636"/>
    <tag k="highway" v="residential"/>
    <tag k="name" v="Orchis Drive"/>
  </way>
  <way id="19993927" version="6" timestamp="2010-07-09T06:16:20Z" uid="74617" user="JohnSmith" changeset="5171128">
    <nd ref="210637566"/>
    <nd ref="292448710"/>
    <nd ref="292447819"/>
    <nd ref="210638182"/>
    <nd ref="292448427"/>
    <nd ref="210638183"/>
    <tag k="highway" v="residential"/>
    <tag k="maxspeed" v="50"/>
    <tag k="maxspeed:source" v="default residential speed limit in Australia"/>
    <tag k="name" v="Scarlet Drive"/>
  </way>
  <way id="19993927" version="7" timestamp="2012-01-15T20:48:52Z" uid="147510" user="woodpeck_fixbot" changeset="10402983">
    <nd ref="210637566"/>
    <nd ref="292448710"/>
    <nd ref="292447819"/>
    <nd ref="210638182"/>
    <nd ref="292448427"/>
    <nd ref="210638183"/>
    <tag k="highway" v="residential"/>
    <tag k="name" v="Scarlet Drive"/>
  </way>
</osm>
