<?xml version='1.0' encoding='UTF-8'?>
<osm version="0.6" generator="libosmium/2.20.0">
  <way id="20015052" version="5" timestamp="2009-12-20T21:20:58Z" uid="30201" user="rrankin" changeset="3417105">
    <nd ref="211094113"/>
    <nd ref="211095204"/>
    <nd ref="211095900"/>
    <nd ref="211097290"/>
    <nd ref="211095208"/>
    <nd ref="211095210"/>
    <nd ref="597441790"/>
    <tag k="highway" v="residential"/>
    <tag k="name" v="Shelley Street"/>
  </way>
  <way id="20015052" version="6" timestamp="2010-07-08T02:33:20Z" uid="74617" user="JohnSmith" changeset="5163091">
    <nd ref="211094113"/>
    <nd ref="211095204"/>
    <nd ref="211095900"/>
    <nd ref="211097290"/>
    <nd ref="211095208"/>
    <nd ref="211095210"/>
    <nd ref="597441790"/>
    <tag k="highway" v="residential"/>
    <tag k="maxspeed" v="50"/>
    <tag k="maxspeed:source" v="default residential speed limit in Australia"/>
    <tag k="name" v="Shelley Street"/>
  </way>
  <way id="20015052" version="7" timestamp="2010-11-27T20:57:52Z" uid="7617" user="Franc" changeset="6473275">
    <nd ref="211094113"/>
    <nd ref="1008868130"/>
    <nd ref="211095204"/>
    <nd ref="211095900"/>
    <nd ref="211097290"/>
    <nd ref="211095208"/>
    <nd ref="211095210"/>
    <nd ref="597441790"/>
    <tag k="highway" v="residential"/>
    <tag k="maxspeed" v="50"/>
    <tag k="maxspeed:source" v="default residential speed limit in Australia"/>
    <tag k="name" v="Shelley Street"/>
  </way>
  <way id="20015052" version="8" timestamp="2012-01-15T20:49:10Z" uid="147510" user="woodpeck_fixbot" changeset="10402983">
    <nd ref="211094113"/>
    <nd ref="1008868130"/>
    <nd ref="211095204"/>
    <nd ref="211095900"/>
    <nd ref="211097290"/>
    <nd ref="211095208"/>
    <nd ref="211095210"/>
    <nd ref="597441790"/>
    <tag k="highway" v="residential"/>
    <tag k="name" v="Shelley Street"/>
  </way>
  <way id="20015083" version="2" timestamp="2010-07-08T02:35:18Z" uid="74617" user="JohnSmith" changeset="5163091">
    <nd ref="211095204"/>
    <nd ref="211095815"/>
    <nd ref="211095816"/>
    <tag k="highway" v="residential"/>
    <tag k="maxspeed" v="50"/>
    <tag k="maxspeed:source" v="default residential speed limit in Australia"/>
    <tag k="name" v="Heydon Street"/>
  </way>
  <way id="20015083" version="3" timestamp="2012-01-15T20:49:11Z" uid="147510" user="woodpeck_fixbot" changeset="10402983">
    <nd ref="211095204"/>
    <nd ref="211095815"/>
    <nd ref="211095816"/>
    <tag k="highway" v="residential"/>
    <tag k="name" v="Heydon Street"/>
  </way>
  <way id="20015083" version="4" timestamp="2012-03-25T20:45:53Z" uid="20949" user="Ebenezer" changeset="11099566">
    <nd ref="211095204"/>
    <nd ref="211095815"/>
    <nd ref="1691043769"/>
    <tag k="highway" v="residential"/>
    <tag k="name" v="Heydon Street"/>
  </way>
  <way id="20015182" version="4" timestamp="2010-07-08T02:36:49Z" uid="74617" user="JohnSmith" changeset="5163091">
    <nd ref="211097290"/>
    <nd ref="211102360"/>
    <nd ref="211098134"/>
    <nd ref="211097657"/>
    <tag k="highway" v="residential"/>
    <tag k="maxspeed" v="50"/>
    <tag k="maxspeed:source" v="default residential speed limit in Australia"/>
    <tag k="name" v="Carlyle Street"/>
  </way>
  <way id="20015182" version="5" timestamp="2010-11-27T20:46:11Z" uid="7617" user="Franc" changeset="6473168">
    <nd ref="211097290"/>
    <nd ref="211102360"/>
    <nd ref="1008826968"/>
    <nd ref="211098134"/>
    <nd ref="211097657"/>
    <tag k="highway" v="residential"/>
    <tag k="maxspeed" v="50"/>
    <tag k="maxspeed:source" v="default residential speed limit in Australia"/>
    <tag k="name" v="Carlyle Street"/>
  </way>
  <way id="20015182" version="6" timestamp="2012-01-15T20:49:12Z" uid="147510" user="woodpeck_fixbot" changeset="10402983">
    <nd ref="211097290"/>
    <nd ref="211102360"/>
    <nd ref="1008826968"/>
    <nd ref="211098134"/>
    <nd ref="211097657"/>
    <tag k="highway" v="residential"/>
    <tag k="name" v="Carlyle Street"/>
  </way>
  <way id="20015182" version="7" timestamp="2012-03-25T20:45:40Z" uid="20949" user="Ebenezer" changeset="11099566">
    <nd ref="211097290"/>
    <nd ref="211102360"/>
    <nd ref="1008826968"/>
    <nd ref="211098134"/>
    <nd ref="1691043667"/>
    <tag k="highway" v="residential"/>
    <tag k="name" v="Carlyle Street"/>
  </way>
  <way id="20015265" version="3" timestamp="2008-05-12T20:53:06Z" uid="30201" user="rrankin" changeset="434145">
    <nd ref="211095208"/>
    <nd ref="211099075"/>
    <nd ref="211099076"/>
    <nd ref="211099079"/>
    <nd ref="211099081"/>
    <nd ref="211099082"/>
    <tag k="created_by" v="Potlatch 0.6a"/>
    <tag k="highway" v="residential"/>
    <tag k="name" v="The Parade"/>
  </way>
  <way id="20015265" version="4" timestamp="2010-07-08T02:35:30Z" uid="74617" user="JohnSmith" changeset="5163091">
    <nd ref="211095208"/>
    <nd ref="211099075"/>
    <nd ref="211099076"/>
    <nd ref="211099079"/>
    <nd ref="211099081"/>
    <nd ref="211099082"/>
    <tag k="highway" v="residential"/>
    <tag k="maxspeed" v="50"/>
    <tag k="maxspeed:source" v="default residential speed limit in Australia"/>
    <tag k="name" v="The Parade"/>
  </way>
  <way id="20015265" version="5" timestamp="2010-11-27T20:46:26Z" uid="7617" user="Franc" changeset="6473168"/>
  <way id="20015317" version="2" timestamp="2008-05-12T20:53:05Z" uid="30201" user="rrankin" changeset="434145">
    <nd ref="211099081"/>
    <nd ref="211100142"/>
    <nd ref="211100143"/>
    <nd ref="211100144"/>
    <nd ref="211095208"/>
    <tag k="created_by" v="Potlatch 0.6a"/>
    <tag k="highway" v="residential"/>
    <tag k="name" v="The Parade"/>
  </way>
  <way id="20015317" version="3" timestamp="2010-07-08T02:32:56Z" uid="74617" user="JohnSmith" changeset="5163091">
    <nd ref="211099081"/>
    <nd ref="211100142"/>
    <nd ref="211100143"/>
    <nd ref="211100144"/>
    <nd ref="211095208"/>
    <tag k="highway" v="residential"/>
    <tag k="maxspeed" v="50"/>
    <tag k="maxspeed:source" v="default residential speed limit in Australia"/>
    <tag k="name" v="The Parade"/>
  </way>
  <way id="20015317" version="4" timestamp="2010-11-27T20:46:18Z" uid="7617" user="Franc" changeset="6473168">
    <nd ref="211099081"/>
    <nd ref="211100142"/>
    <nd ref="211100143"/>
    <nd ref="211100144"/>
    <nd ref="1008826839"/>
    <nd ref="1008826737"/>
    <tag k="highway" v="residential"/>
    <tag k="maxspeed" v="50"/>
    <tag k="maxspeed:source" v="default residential speed limit in Australia"/>
    <tag k="name" v="The Parade"/>
  </way>
  <way id="20015317" version="5" timestamp="2012-01-15T20:49:13Z" uid="147510" user="woodpeck_fixbot" changeset="10402983">
    <nd ref="211099081"/>
    <nd ref="211100142"/>
    <nd ref="211100143"/>
    <nd ref="211100144"/>
    <nd ref="1008826839"/>
    <nd ref="1008826737"/>
    <tag k="highway" v="residential"/>
    <tag k="name" v="The Parade"/>
  </way>
  <way id="20015419" version="2" timestamp="2008-05-12T20:53:07Z" uid="30201" user="rrankin" changeset="434145">
    <nd ref="211100214"/>
    <nd ref="211099081"/>
    <nd ref="211102360"/>
    <tag k="created_by" v="Potlatch 0.6a"/>
    <tag k="highway" v="residential"/>
    <tag k="name" v="Tennyson Street"/>
  </way>
  <way id="20015419" version="3" timestamp="2010-07-08T02:35:15Z" uid="74617" user="JohnSmith" changeset="5163091">
    <nd ref="211100214"/>
    <nd ref="211099081"/>
    <nd ref="211102360"/>
    <tag k="highway" v="residential"/>
    <tag k="maxspeed" v="50"/>
    <tag k="maxspeed:source" v="default residential speed limit in Australia"/>
    <tag k="name" v="Tennyson Street"/>
  </way>
  <way id="20015419" version="4" timestamp="2012-01-15T20:49:14Z" uid="147510" user="woodpeck_fixbot" changeset="10402983">
    <nd ref="211100214"/>
    <nd ref="211099081"/>
    <nd ref="211102360"/>
    <tag k="highway" v="residential"/>
    <tag k="name" v="Tennyson Street"/>
  </way>
  <way id="20015567" version="5" timestamp="2010-07-08T02:40:45Z" uid="74617" user="JohnSmith" changeset="5163091">
    <nd ref="211105112"/>
    <nd ref="211108266"/>
    <nd ref="211109211"/>
    <nd ref="211110668"/>
    <nd ref="211105855"/>
    <tag k="highway" v="residential"/>
    <tag k="maxspeed" v="50"/>
    <tag k="maxspeed:source" v="default residential speed limit in Australia"/>
    <tag k="name" v="Kembla Street"/>
  </way>
  <way id="20015567" version="6" timestamp="2011-05-01T11:08:18Z" uid="7617" user="Franc" changeset="8019962">
    <nd ref="211105112"/>
    <nd ref="211108266"/>
    <nd ref="211109211"/>
    <nd ref="211110668"/>
    <nd ref="1268688846"/>
    <nd ref="211105855"/>
    <tag k="highway" v="residential"/>
    <tag k="maxspeed" v="50"/>
    <tag k="maxspeed:source" v="default residential speed limit in Australia"/>
    <tag k="name" v="Kembla Street"/>
  </way>
  <way id="20015567" version="7" timestamp="2012-01-15T20:49:15Z" uid="147510" user="woodpeck_fixbot" changeset="10402983">
    <nd ref="211105112"/>
    <nd ref="211108266"/>
    <nd ref="211109211"/>
    <nd ref="211110668"/>
    <nd ref="1268688846"/>
    <nd ref="211105855"/>
    <tag k="highway" v="residential"/>
    <tag k="name" v="Kembla Street"/>
  </way>
  <way id="20015606" version="6" timestamp="2010-07-08T02:40:15Z" uid="74617" user="JohnSmith" changeset="5163091">
    <nd ref="211106061"/>
    <nd ref="211110669"/>
    <tag k="highway" v="residential"/>
    <tag k="maxspeed" v="50"/>
    <tag k="maxspeed:source" v="default residential speed limit in Australia"/>
    <tag k="name" v="Tavistock Street"/>
    <tag k="source" v="nearmap"/>
  </way>
  <way id="20015606" version="7" timestamp="2012-01-15T20:49:16Z" uid="147510" user="woodpeck_fixbot" changeset="10402983">
    <nd ref="211106061"/>
    <nd ref="211110669"/>
    <tag k="highway" v="residential"/>
    <tag k="name" v="Tavistock Street"/>
    <tag k="source" v="nearmap"/>
  </way>
  <way id="20015681" version="3" timestamp="2010-07-08T02:33:33Z" uid="74617" user="JohnSmith" changeset="5163091">
    <nd ref="211107443"/>
    <nd ref="211113007"/>
    <nd ref="211108266"/>
    <tag k="highway" v="residential"/>
    <tag k="maxspeed" v="50"/>
    <tag k="maxspeed:source" v="default residential speed limit in Australia"/>
    <tag k="name" v="Queen Street"/>
  </way>
  <way id="20015681" version="4" timestamp="2012-01-15T20:49:18Z" uid="147510" user="woodpeck_fixbot" changeset="10402983">
    <nd ref="211107443"/>
    <nd ref="211113007"/>
    <nd ref="211108266"/>
    <tag k="highway" v="residential"/>
    <tag k="name" v="Queen Street"/>
  </way>
  <way id="20015723" version="4" timestamp="2010-01-31T00:21:10Z" uid="30201" user="rrankin" changeset="3755774">
    <nd ref="60847064"/>
    <nd ref="211109211"/>
    <nd ref="211113006"/>
    <nd ref="211109212"/>
    <nd ref="623747089"/>
    <tag k="highway" v="residential"/>
    <tag k="name" v="Tangarra Street"/>
  </way>
  <way id="20015723" version="5" timestamp="2010-07-08T02:38:24Z" uid="74617" user="JohnSmith" changeset="5163091">
    <nd ref="60847064"/>
    <nd ref="211109211"/>
    <nd ref="211113006"/>
    <nd ref="211109212"/>
    <nd ref="623747089"/>
    <tag k="highway" v="residential"/>
    <tag k="maxspeed" v="50"/>
    <tag k="maxspeed:source" v="default residential speed limit in Australia"/>
    <tag k="name" v="Tangarra Street"/>
  </way>
  <way id="20015723" version="6" timestamp="2012-01-15T20:49:19Z" uid="147510" user="woodpeck_fixbot" changeset="10402983">
    <nd ref="60847064"/>
    <nd ref="211109211"/>
    <nd ref="211113006"/>
    <nd ref="211109212"/>
    <nd ref="623747089"/>
    <tag k="highway" v="residential"/>
    <tag k="name" v="Tangarra Street"/>
  </way>
  <way id="20015733" version="5" timestamp="2010-01-31T00:21:10Z" uid="30201" user="rrankin" changeset="3755774">
    <nd ref="623747091"/>
    <nd ref="211114636"/>
    <nd ref="211116631"/>
    <nd ref="211109215"/>
    <tag k="highway" v="residential"/>
    <tag k="name" v="Tangarra Street East"/>
  </way>
  <way id="20015733" version="6" timestamp="2010-07-08T02:39:52Z" uid="74617" user="JohnSmith" changeset="5163091">
    <nd ref="623747091"/>
    <nd ref="211114636"/>
    <nd ref="211116631"/>
    <nd ref="211109215"/>
    <tag k="highway" v="residential"/>
    <tag k="maxspeed" v="50"/>
    <tag k="maxspeed:source" v="default residential speed limit in Australia"/>
    <tag k="name" v="Tangarra Street East"/>
  </way>
  <way id="20015733" version="7" timestamp="2012-01-15T20:49:20Z" uid="147510" user="woodpeck_fixbot" changeset="10402983">
    <nd ref="623747091"/>
    <nd ref="211114636"/>
    <nd ref="211116631"/>
    <nd ref="211109215"/>
    <tag k="highway" v="residential"/>
    <tag k="name" v="Tangarra Street East"/>
  </way>
  <way id="20015790" version="4" timestamp="2010-07-08T02:39:49Z" uid="74617" user="JohnSmith" changeset="5163091">
    <nd ref="60847062"/>
    <nd ref="211110668"/>
    <nd ref="211113004"/>
    <nd ref="211110669"/>
    <tag k="highway" v="residential"/>
    <tag k="maxspeed" v="50"/>
    <tag k="maxspeed:source" v="default residential speed limit in Australia"/>
    <tag k="name" v="Tullimbar Street"/>
  </way>
  <way id="20015790" version="5" timestamp="2012-01-15T20:49:21Z" uid="147510" user="woodpeck_fixbot" changeset="10402983">
    <nd ref="60847062"/>
    <nd ref="211110668"/>
    <nd ref="211113004"/>
    <nd ref="211110669"/>
    <tag k="highway" v="residential"/>
    <tag k="name" v="Tullimbar Street"/>
  </way>
  <way id="20015940" version="2" timestamp="2010-07-08T02:41:00Z" uid="74617" user="JohnSmith" changeset="5163091">
    <nd ref="211111665"/>
    <nd ref="211113004"/>
    <nd ref="211113006"/>
    <nd ref="211113007"/>
    <tag k="highway" v="residential"/>
    <tag k="maxspeed" v="50"/>
    <tag k="maxspeed:source" v="default residential speed limit in Australia"/>
    <tag k="name" v="Blenheim Street"/>
  </way>
  <way id="20015940" version="3" timestamp="2011-05-01T11:08:16Z" uid="7617" user="Franc" changeset="8019962">
    <nd ref="211111665"/>
    <nd ref="1268688843"/>
    <nd ref="211113004"/>
    <nd ref="211113006"/>
    <nd ref="211113007"/>
    <tag k="highway" v="residential"/>
    <tag k="maxspeed" v="50"/>
    <tag k="maxspeed:source" v="default residential speed limit in Australia"/>
    <tag k="name" v="Blenheim Street"/>
  </way>
  <way id="20015940" version="4" timestamp="2012-01-15T20:49:22Z" uid="147510" user="woodpeck_fixbot" changeset="10402983">
    <nd ref="211111665"/>
    <nd ref="1268688843"/>
    <nd ref="211113004"/>
    <nd ref="211113006"/>
    <nd ref="211113007"/>
    <tag k="highway" v="residential"/>
    <tag k="name" v="Blenheim Street"/>
  </way>
  <way id="20015999" version="3" timestamp="2010-01-26T04:27:42Z" uid="30201" user="rrankin" changeset="3716614">
    <nd ref="211114469"/>
    <nd ref="620368891"/>
    <tag k="highway" v="residential"/>
    <tag k="name" v="Stiles Street"/>
  </way>
  <way id="20015999" version="4" timestamp="2010-07-08T02:35:18Z" uid="74617" user="JohnSmith" changeset="5163091">
    <nd ref="211114469"/>
    <nd ref="620368891"/>
    <tag k="highway" v="residential"/>
    <tag k="maxspeed" v="50"/>
    <tag k="maxspeed:source" v="default residential speed limit in Australia"/>
    <tag k="name" v="Stiles Street"/>
  </way>
  <way id="20015999" version="5" timestamp="2012-01-15T20:49:24Z" uid="147510" user="woodpeck_fixbot" changeset="10402983">
    <nd ref="211114469"/>
    <nd ref="620368891"/>
    <tag k="highway" v="residential"/>
    <tag k="name" v="Stiles Street"/>
  </way>
</osm>
