<?xml version='1.0' encoding='UTF-8'?>
<osm version="0.6" generator="libosmium/2.20.0">
  <way id="20094018" version="5" timestamp="2010-04-28T16:05:46Z" uid="4467" user="Rosscoe" changeset="4550699">
    <nd ref="212358961"/>
    <nd ref="212359228"/>
    <tag k="highway" v="residential"/>
    <tag k="name" v="Boblynne Street"/>
  </way>
  <way id="20094018" version="6" timestamp="2010-07-06T03:00:50Z" uid="211951" user="Dr Paul Martin" changeset="5147023">
    <nd ref="212358961"/>
    <nd ref="212359228"/>
    <tag k="highway" v="residential"/>
    <tag k="name" v="Boblynne Street"/>
    <tag k="oneway" v="yes"/>
  </way>
  <way id="20094018" version="7" timestamp="2010-07-06T03:17:02Z" uid="211951" user="Dr Paul Martin" changeset="5147023">
    <nd ref="212358961"/>
    <nd ref="803080582"/>
    <nd ref="212359228"/>
    <tag k="highway" v="residential"/>
    <tag k="name" v="Boblynne Street"/>
    <tag k="oneway" v="yes"/>
  </way>
  <way id="20094018" version="8" timestamp="2010-07-06T08:33:00Z" uid="74617" user="JohnSmith" changeset="5147679">
    <nd ref="212358961"/>
    <nd ref="803080582"/>
    <nd ref="212359228"/>
    <tag k="highway" v="residential"/>
    <tag k="maxspeed" v="50"/>
    <tag k="maxspeed:source" v="default residential speed limit in Australia"/>
    <tag k="name" v="Boblynne Street"/>
    <tag k="oneway" v="yes"/>
  </way>
  <way id="20094018" version="9" timestamp="2012-01-15T20:54:15Z" uid="147510" user="woodpeck_fixbot" changeset="10402983">
    <nd ref="212358961"/>
    <nd ref="803080582"/>
    <nd ref="212359228"/>
    <tag k="highway" v="residential"/>
    <tag k="name" v="Boblynne Street"/>
    <tag k="oneway" v="yes"/>
  </way>
  <way id="20094119" version="6" timestamp="2009-12-12T08:05:47Z" uid="4467" user="Rosscoe" changeset="3354065">
    <nd ref="212374182"/>
    <nd ref="212373219"/>
    <tag k="bridge" v="yes"/>
    <tag k="highway" v="primary"/>
    <tag k="layer" v="1"/>
    <tag k="name" v="Keilor Park Drive"/>
    <tag k="oneway" v="yes"/>
    <tag k="ref" v="S39"/>
    <tag k="source" v="nearmap"/>
    <tag k="source:name" v="survey"/>
  </way>
  <way id="20094119" version="7" timestamp="2010-04-06T06:56:54Z" uid="74617" user="JohnSmith" changeset="4340624">
    <nd ref="212374182"/>
    <nd ref="212373219"/>
    <tag k="bridge" v="yes"/>
    <tag k="highway" v="primary"/>
    <tag k="layer" v="1"/>
    <tag k="name" v="Keilor Park Drive"/>
    <tag k="oneway" v="yes"/>
    <tag k="source" v="nearmap"/>
    <tag k="source:name" v="survey"/>
  </way>
  <way id="20094119" version="8" timestamp="2011-11-22T09:18:37Z" uid="11111" user="melb_guy" changeset="9906252">
    <nd ref="212374182"/>
    <nd ref="212373219"/>
    <tag k="bridge" v="yes"/>
    <tag k="highway" v="primary"/>
    <tag k="lanes" v="2"/>
    <tag k="layer" v="1"/>
    <tag k="maxspeed" v="80"/>
    <tag k="name" v="Keilor Park Drive"/>
    <tag k="oneway" v="yes"/>
    <tag k="surface" v="asphalt"/>
  </way>
  <way id="20094123" version="12" timestamp="2010-04-06T06:56:54Z" uid="74617" user="JohnSmith" changeset="4340624">
    <nd ref="212373219"/>
    <nd ref="212373222"/>
    <nd ref="212373224"/>
    <nd ref="212373228"/>
    <nd ref="212326174"/>
    <nd ref="212326175"/>
    <nd ref="308169889"/>
    <nd ref="308169801"/>
    <nd ref="212326178"/>
    <nd ref="212326181"/>
    <nd ref="212326182"/>
    <nd ref="212326183"/>
    <nd ref="212326185"/>
    <nd ref="212326186"/>
    <nd ref="212326187"/>
    <nd ref="212326188"/>
    <nd ref="212326189"/>
    <nd ref="212334654"/>
    <nd ref="212326190"/>
    <nd ref="212326191"/>
    <nd ref="212326192"/>
    <nd ref="212326193"/>
    <nd ref="212326194"/>
    <nd ref="212326197"/>
    <tag k="highway" v="primary"/>
    <tag k="name" v="Keilor Park Drive"/>
    <tag k="oneway" v="yes"/>
    <tag k="source" v="yahoo"/>
    <tag k="source:name" v="survey"/>
  </way>
  <way id="20094123" version="13" timestamp="2011-11-22T09:18:38Z" uid="11111" user="melb_guy" changeset="9906252">
    <nd ref="212373219"/>
    <nd ref="212373222"/>
    <nd ref="212373224"/>
    <nd ref="212373228"/>
    <nd ref="212326174"/>
    <nd ref="212326175"/>
    <nd ref="308169889"/>
    <nd ref="308169801"/>
    <nd ref="212326178"/>
    <nd ref="212326181"/>
    <nd ref="212326182"/>
    <nd ref="212326183"/>
    <nd ref="212326185"/>
    <nd ref="212326186"/>
    <nd ref="212326187"/>
    <tag k="highway" v="primary"/>
    <tag k="lanes" v="2"/>
    <tag k="maxspeed" v="80"/>
    <tag k="name" v="Keilor Park Drive"/>
    <tag k="oneway" v="yes"/>
    <tag k="surface" v="asphalt"/>
  </way>
  <way id="20094130" version="6" timestamp="2009-12-12T08:05:47Z" uid="4467" user="Rosscoe" changeset="3354065">
    <nd ref="212372432"/>
    <nd ref="212372430"/>
    <tag k="bridge" v="yes"/>
    <tag k="highway" v="primary"/>
    <tag k="layer" v="1"/>
    <tag k="name" v="Keilor Park Drive"/>
    <tag k="oneway" v="yes"/>
    <tag k="ref" v="S39"/>
    <tag k="source" v="nearmap"/>
    <tag k="source:name" v="survey"/>
  </way>
  <way id="20094130" version="7" timestamp="2010-04-06T06:56:54Z" uid="74617" user="JohnSmith" changeset="4340624">
    <nd ref="212372432"/>
    <nd ref="212372430"/>
    <tag k="bridge" v="yes"/>
    <tag k="highway" v="primary"/>
    <tag k="layer" v="1"/>
    <tag k="name" v="Keilor Park Drive"/>
    <tag k="oneway" v="yes"/>
    <tag k="source" v="nearmap"/>
    <tag k="source:name" v="survey"/>
  </way>
  <way id="20094130" version="8" timestamp="2011-11-22T09:18:39Z" uid="11111" user="melb_guy" changeset="9906252">
    <nd ref="212372432"/>
    <nd ref="212372430"/>
    <tag k="bridge" v="yes"/>
    <tag k="highway" v="primary"/>
    <tag k="lanes" v="2"/>
    <tag k="layer" v="1"/>
    <tag k="maxspeed" v="80"/>
    <tag k="name" v="Keilor Park Drive"/>
    <tag k="oneway" v="yes"/>
    <tag k="surface" v="asphalt"/>
  </way>
  <way id="20094195" version="7" timestamp="2009-02-23T12:16:14Z" uid="34428" user="usm78-gis" changeset="634299"/>
  <way id="20094250" version="4" timestamp="2010-07-06T08:30:03Z" uid="74617" user="JohnSmith" changeset="5147679">
    <nd ref="212374260"/>
    <nd ref="212378678"/>
    <nd ref="212378680"/>
    <nd ref="212378682"/>
    <nd ref="212378683"/>
    <tag k="highway" v="residential"/>
    <tag k="maxspeed" v="50"/>
    <tag k="maxspeed:source" v="default residential speed limit in Australia"/>
    <tag k="name" v="Rebecca Street"/>
  </way>
  <way id="20094250" version="5" timestamp="2012-01-15T20:54:17Z" uid="147510" user="woodpeck_fixbot" changeset="10402983">
    <nd ref="212374260"/>
    <nd ref="212378678"/>
    <nd ref="212378680"/>
    <nd ref="212378682"/>
    <nd ref="212378683"/>
    <tag k="highway" v="residential"/>
    <tag k="name" v="Rebecca Street"/>
  </way>
  <way id="20094338" version="5" timestamp="2010-07-06T08:34:58Z" uid="74617" user="JohnSmith" changeset="5147679">
    <nd ref="212378682"/>
    <nd ref="212381149"/>
    <nd ref="212381150"/>
    <nd ref="212381151"/>
    <tag k="highway" v="residential"/>
    <tag k="maxspeed" v="50"/>
    <tag k="maxspeed:source" v="default residential speed limit in Australia"/>
    <tag k="name" v="Lucyanne Court"/>
  </way>
  <way id="20094338" version="6" timestamp="2012-01-15T20:54:17Z" uid="147510" user="woodpeck_fixbot" changeset="10402983">
    <nd ref="212378682"/>
    <nd ref="212381149"/>
    <nd ref="212381150"/>
    <nd ref="212381151"/>
    <tag k="highway" v="residential"/>
    <tag k="name" v="Lucyanne Court"/>
  </way>
  <way id="20094791" version="3" timestamp="2010-03-27T23:28:22Z" uid="20587" user="balrog-kun" changeset="4250871">
    <nd ref="212386839"/>
    <nd ref="660937768"/>
    <nd ref="122770969"/>
    <tag k="highway" v="residential"/>
    <tag k="name" v="Arapahoe Street"/>
    <tag k="tiger:cfcc" v="A41"/>
    <tag k="tiger:county" v="Los Angeles, CA"/>
    <tag k="tiger:name_base" v="Arapahoe"/>
    <tag k="tiger:name_type" v="St"/>
    <tag k="tiger:separated" v="no"/>
    <tag k="tiger:source" v="tiger_import_dch_v0.6_20070809"/>
    <tag k="tiger:tlid" v="141607206:141607198"/>
    <tag k="tiger:zip_left" v="90007"/>
    <tag k="tiger:zip_right" v="90007"/>
  </way>
  <way id="20094795" version="2" timestamp="2010-03-27T23:28:23Z" uid="20587" user="balrog-kun" changeset="4250871">
    <nd ref="212386892"/>
    <nd ref="123178878"/>
    <tag k="created_by" v="JOSM"/>
    <tag k="highway" v="residential"/>
    <tag k="name" v="Ellendale Place"/>
    <tag k="tiger:cfcc" v="A41"/>
    <tag k="tiger:county" v="Los Angeles, CA"/>
    <tag k="tiger:name_base" v="Ellendale"/>
    <tag k="tiger:name_type" v="Pl"/>
    <tag k="tiger:separated" v="no"/>
    <tag k="tiger:source" v="tiger_import_dch_v0.6_20070809"/>
    <tag k="tiger:tlid" v="141607077:141607080:141607084:142453928:141606942:141606945"/>
    <tag k="tiger:zip_left" v="90007"/>
    <tag k="tiger:zip_right" v="90007"/>
  </way>
</osm>
