<?xml version='1.0' encoding='UTF-8'?>
<osm version="0.6" generator="libosmium/2.20.0">
  <way id="20108025" version="2" timestamp="2010-07-07T21:36:14Z" uid="74617" user="JohnSmith" changeset="5161069">
    <nd ref="28377494"/>
    <nd ref="59841407"/>
    <nd ref="30471820"/>
    <nd ref="30471821"/>
    <nd ref="30471822"/>
    <nd ref="30471823"/>
    <nd ref="30471824"/>
    <nd ref="30471825"/>
    <tag k="highway" v="residential"/>
    <tag k="maxspeed" v="50"/>
    <tag k="maxspeed:source" v="default residential speed limit in Australia"/>
    <tag k="name" v="Gannon Avenue"/>
  </way>
  <way id="20108025" version="3" timestamp="2012-01-15T20:55:30Z" uid="147510" user="woodpeck_fixbot" changeset="10402983">
    <nd ref="28377494"/>
    <nd ref="59841407"/>
    <nd ref="30471820"/>
    <nd ref="30471821"/>
    <nd ref="30471822"/>
    <nd ref="30471823"/>
    <nd ref="30471824"/>
    <nd ref="30471825"/>
    <tag k="highway" v="residential"/>
    <tag k="name" v="Gannon Avenue"/>
  </way>
  <way id="20108090" version="2" timestamp="2010-02-23T12:33:32Z" uid="7617" user="Franc" changeset="3952930">
    <nd ref="60992600"/>
    <nd ref="651508721"/>
    <nd ref="212567122"/>
    <nd ref="212567123"/>
    <nd ref="212567124"/>
    <tag k="highway" v="service"/>
  </way>
  <way id="20108090" version="3" timestamp="2012-03-07T05:23:44Z" uid="7523" user="inas" changeset="10896683">
    <nd ref="60992600"/>
    <nd ref="212567122"/>
    <nd ref="212567123"/>
    <nd ref="212567124"/>
    <tag k="highway" v="service"/>
  </way>
  <way id="20108124" version="2" timestamp="2009-12-27T12:44:53Z" uid="30201" user="rrankin" changeset="3462292">
    <nd ref="212567696"/>
    <nd ref="212567697"/>
    <nd ref="212567699"/>
    <nd ref="212567700"/>
    <nd ref="212567701"/>
    <nd ref="212567702"/>
    <nd ref="212567703"/>
    <tag k="boat" v="no"/>
    <tag k="layer" v="-1"/>
    <tag k="waterway" v="drain"/>
  </way>
  <way id="20108124" version="3" timestamp="2011-03-25T08:39:50Z" uid="237525" user="aharvey" changeset="7663395">
    <nd ref="212567696"/>
    <nd ref="212567697"/>
    <nd ref="212567699"/>
    <nd ref="212567700"/>
    <nd ref="212567701"/>
    <nd ref="212567702"/>
    <tag k="boat" v="no"/>
    <tag k="layer" v="-1"/>
    <tag k="waterway" v="drain"/>
  </way>
  <way id="20108135" version="5" timestamp="2010-07-06T08:35:18Z" uid="74617" user="JohnSmith" changeset="5147679">
    <nd ref="212569989"/>
    <nd ref="212569990"/>
    <nd ref="212569991"/>
    <nd ref="212569293"/>
    <nd ref="212569992"/>
    <nd ref="212569993"/>
    <nd ref="212569994"/>
    <nd ref="212569995"/>
    <nd ref="212569996"/>
    <nd ref="212569997"/>
    <nd ref="212569998"/>
    <nd ref="212567893"/>
    <nd ref="212564623"/>
    <tag k="highway" v="residential"/>
    <tag k="maxspeed" v="50"/>
    <tag k="maxspeed:source" v="default residential speed limit in Australia"/>
    <tag k="name" v="Carissa Place"/>
  </way>
  <way id="20108135" version="6" timestamp="2012-01-15T20:55:32Z" uid="147510" user="woodpeck_fixbot" changeset="10402983">
    <nd ref="212569989"/>
    <nd ref="212569990"/>
    <nd ref="212569991"/>
    <nd ref="212569293"/>
    <nd ref="212569992"/>
    <nd ref="212569993"/>
    <nd ref="212569994"/>
    <nd ref="212569995"/>
    <nd ref="212569996"/>
    <nd ref="212569997"/>
    <nd ref="212569998"/>
    <nd ref="212567893"/>
    <nd ref="212564623"/>
    <tag k="highway" v="residential"/>
    <tag k="name" v="Carissa Place"/>
  </way>
  <way id="20108145" version="4" timestamp="2010-07-06T08:31:33Z" uid="74617" user="JohnSmith" changeset="5147679">
    <nd ref="212568355"/>
    <nd ref="212568356"/>
    <nd ref="212568357"/>
    <tag k="highway" v="residential"/>
    <tag k="maxspeed" v="50"/>
    <tag k="maxspeed:source" v="default residential speed limit in Australia"/>
    <tag k="name" v="Grevillea Close"/>
  </way>
  <way id="20108145" version="5" timestamp="2012-01-15T20:55:34Z" uid="147510" user="woodpeck_fixbot" changeset="10402983">
    <nd ref="212568355"/>
    <nd ref="212568356"/>
    <nd ref="212568357"/>
    <tag k="highway" v="residential"/>
    <tag k="name" v="Grevillea Close"/>
  </way>
  <way id="20108148" version="2" timestamp="2009-12-27T12:44:54Z" uid="30201" user="rrankin" changeset="3462292">
    <nd ref="212567124"/>
    <nd ref="599967770"/>
    <nd ref="212568403"/>
    <tag k="bridge" v="yes"/>
    <tag k="highway" v="service"/>
    <tag k="layer" v="1"/>
  </way>
  <way id="20108198" version="2" timestamp="2010-04-15T12:55:24Z" uid="7617" user="Franc" changeset="4430672">
    <nd ref="212569095"/>
    <nd ref="697326670"/>
    <nd ref="697326671"/>
    <nd ref="697326672"/>
    <nd ref="212569256"/>
    <tag k="highway" v="service"/>
    <tag k="name" v="Waldorn Lane"/>
    <tag k="source" v="nearmap"/>
    <tag k="source:name" v="survey"/>
  </way>
  <way id="20108198" version="3" timestamp="2012-03-07T05:23:41Z" uid="7523" user="inas" changeset="10896683">
    <nd ref="212569095"/>
    <nd ref="212569256"/>
    <tag k="highway" v="service"/>
    <tag k="name" v="Waldorn Lane"/>
    <tag k="source" v="nearmap"/>
    <tag k="source:name" v="survey"/>
  </way>
  <way id="20108201" version="4" timestamp="2010-07-06T08:32:07Z" uid="74617" user="JohnSmith" changeset="5147679">
    <nd ref="212568356"/>
    <nd ref="212569291"/>
    <nd ref="212569293"/>
    <tag k="highway" v="residential"/>
    <tag k="maxspeed" v="50"/>
    <tag k="maxspeed:source" v="default residential speed limit in Australia"/>
    <tag k="name" v="Grevillea Close"/>
  </way>
  <way id="20108201" version="5" timestamp="2012-01-15T20:55:35Z" uid="147510" user="woodpeck_fixbot" changeset="10402983">
    <nd ref="212568356"/>
    <nd ref="212569291"/>
    <nd ref="212569293"/>
    <tag k="highway" v="residential"/>
    <tag k="name" v="Grevillea Close"/>
  </way>
  <way id="20108214" version="2" timestamp="2010-07-07T21:28:26Z" uid="74617" user="JohnSmith" changeset="5161069">
    <nd ref="212569243"/>
    <nd ref="212569256"/>
    <nd ref="28376211"/>
    <tag k="highway" v="residential"/>
    <tag k="maxspeed" v="50"/>
    <tag k="maxspeed:source" v="default residential speed limit in Australia"/>
    <tag k="name" v="Norwood Street"/>
  </way>
  <way id="20108214" version="3" timestamp="2012-01-15T20:55:36Z" uid="147510" user="woodpeck_fixbot" changeset="10402983">
    <nd ref="212569243"/>
    <nd ref="212569256"/>
    <nd ref="28376211"/>
    <tag k="highway" v="residential"/>
    <tag k="name" v="Norwood Street"/>
  </way>
  <way id="20108236" version="2" timestamp="2010-07-07T21:34:09Z" uid="74617" user="JohnSmith" changeset="5161069">
    <nd ref="212569654"/>
    <nd ref="212569804"/>
    <nd ref="212569805"/>
    <nd ref="212569806"/>
    <tag k="highway" v="residential"/>
    <tag k="maxspeed" v="50"/>
    <tag k="maxspeed:source" v="default residential speed limit in Australia"/>
    <tag k="name" v="Blucher Street"/>
  </way>
  <way id="20108236" version="3" timestamp="2012-01-15T20:55:37Z" uid="147510" user="woodpeck_fixbot" changeset="10402983">
    <nd ref="212569654"/>
    <nd ref="212569804"/>
    <nd ref="212569805"/>
    <nd ref="212569806"/>
    <tag k="highway" v="residential"/>
    <tag k="name" v="Blucher Street"/>
  </way>
  <way id="20108310" version="3" timestamp="2010-02-23T12:33:29Z" uid="7617" user="Franc" changeset="3952930">
    <nd ref="585602063"/>
    <nd ref="212570886"/>
    <nd ref="651508616"/>
    <nd ref="63765044"/>
    <nd ref="212570888"/>
    <nd ref="212570889"/>
    <nd ref="212570891"/>
    <tag k="highway" v="residential"/>
    <tag k="name" v="Brantwood Street"/>
  </way>
  <way id="20108310" version="4" timestamp="2010-07-07T21:33:03Z" uid="74617" user="JohnSmith" changeset="5161069">
    <nd ref="585602063"/>
    <nd ref="212570886"/>
    <nd ref="651508616"/>
    <nd ref="63765044"/>
    <nd ref="212570888"/>
    <nd ref="212570889"/>
    <nd ref="212570891"/>
    <tag k="highway" v="residential"/>
    <tag k="maxspeed" v="50"/>
    <tag k="maxspeed:source" v="default residential speed limit in Australia"/>
    <tag k="name" v="Brantwood Street"/>
  </way>
  <way id="20108310" version="5" timestamp="2012-01-15T20:55:41Z" uid="147510" user="woodpeck_fixbot" changeset="10402983">
    <nd ref="585602063"/>
    <nd ref="212570886"/>
    <nd ref="651508616"/>
    <nd ref="63765044"/>
    <nd ref="212570888"/>
    <nd ref="212570889"/>
    <nd ref="212570891"/>
    <tag k="highway" v="residential"/>
    <tag k="name" v="Brantwood Street"/>
  </way>
  <way id="20108557" version="3" timestamp="2010-02-23T12:33:27Z" uid="7617" user="Franc" changeset="3952930">
    <nd ref="59830615"/>
    <nd ref="59830612"/>
    <nd ref="59830613"/>
    <nd ref="651508608"/>
    <nd ref="59743367"/>
    <nd ref="212575633"/>
    <nd ref="59743366"/>
    <nd ref="212574622"/>
    <nd ref="651508597"/>
    <nd ref="212574623"/>
    <nd ref="651508596"/>
    <nd ref="212574624"/>
    <tag k="highway" v="residential"/>
    <tag k="name" v="Plimsoll Street"/>
  </way>
  <way id="20108557" version="4" timestamp="2010-07-07T21:35:32Z" uid="74617" user="JohnSmith" changeset="5161069">
    <nd ref="59830615"/>
    <nd ref="59830612"/>
    <nd ref="59830613"/>
    <nd ref="651508608"/>
    <nd ref="59743367"/>
    <nd ref="212575633"/>
    <nd ref="59743366"/>
    <nd ref="212574622"/>
    <nd ref="651508597"/>
    <nd ref="212574623"/>
    <nd ref="651508596"/>
    <nd ref="212574624"/>
    <tag k="highway" v="residential"/>
    <tag k="maxspeed" v="50"/>
    <tag k="maxspeed:source" v="default residential speed limit in Australia"/>
    <tag k="name" v="Plimsoll Street"/>
  </way>
  <way id="20108557" version="5" timestamp="2012-01-15T20:55:42Z" uid="147510" user="woodpeck_fixbot" changeset="10402983">
    <nd ref="59830615"/>
    <nd ref="59830612"/>
    <nd ref="59830613"/>
    <nd ref="651508608"/>
    <nd ref="59743367"/>
    <nd ref="212575633"/>
    <nd ref="59743366"/>
    <nd ref="212574622"/>
    <nd ref="651508597"/>
    <nd ref="212574623"/>
    <nd ref="651508596"/>
    <nd ref="212574624"/>
    <tag k="highway" v="residential"/>
    <tag k="name" v="Plimsoll Street"/>
  </way>
  <way id="20108596" version="6" timestamp="2011-01-04T22:36:36Z" uid="65847" user="LKK" changeset="6866846">
    <nd ref="212575183"/>
    <nd ref="1082912245"/>
    <nd ref="212575185"/>
    <tag k="highway" v="residential"/>
    <tag k="maxspeed" v="40"/>
    <tag k="name" v="116"/>
  </way>
  <way id="20108620" version="6" timestamp="2010-07-06T08:35:49Z" uid="74617" user="JohnSmith" changeset="5147679">
    <nd ref="212575499"/>
    <nd ref="212575500"/>
    <nd ref="212575502"/>
    <nd ref="212575503"/>
    <tag k="highway" v="residential"/>
    <tag k="maxspeed" v="50"/>
    <tag k="maxspeed:source" v="default residential speed limit in Australia"/>
    <tag k="name" v="Karabil Street"/>
  </way>
  <way id="20108620" version="7" timestamp="2012-01-15T20:55:44Z" uid="147510" user="woodpeck_fixbot" changeset="10402983">
    <nd ref="212575499"/>
    <nd ref="212575500"/>
    <nd ref="212575502"/>
    <nd ref="212575503"/>
    <tag k="highway" v="residential"/>
    <tag k="name" v="Karabil Street"/>
  </way>
  <way id="20108632" version="2" timestamp="2010-07-07T21:37:54Z" uid="74617" user="JohnSmith" changeset="5161069">
    <nd ref="212574935"/>
    <nd ref="212575633"/>
    <nd ref="212575634"/>
    <nd ref="212575635"/>
    <nd ref="212575636"/>
    <tag k="highway" v="residential"/>
    <tag k="maxspeed" v="50"/>
    <tag k="maxspeed:source" v="default residential speed limit in Australia"/>
    <tag k="name" v="Nelson Street"/>
  </way>
  <way id="20108632" version="3" timestamp="2012-01-15T20:55:45Z" uid="147510" user="woodpeck_fixbot" changeset="10402983">
    <nd ref="212574935"/>
    <nd ref="212575633"/>
    <nd ref="212575634"/>
    <nd ref="212575635"/>
    <nd ref="212575636"/>
    <tag k="highway" v="residential"/>
    <tag k="name" v="Nelson Street"/>
  </way>
  <way id="20108911" version="5" timestamp="2011-01-04T22:36:51Z" uid="65847" user="LKK" changeset="6866846">
    <nd ref="212580536"/>
    <nd ref="1082912245"/>
    <tag k="highway" v="residential"/>
    <tag k="maxspeed" v="40"/>
    <tag k="name" v="Тома Георгиев"/>
  </way>
</osm>
