<?xml version='1.0' encoding='UTF-8'?>
<osm version="0.6" generator="libosmium/2.20.0">
  <way id="20142004" version="2" timestamp="2008-05-17T23:23:00Z" uid="30201" user="rrankin" changeset="469479">
    <nd ref="212990752"/>
    <nd ref="212990908"/>
    <nd ref="212990911"/>
    <tag k="created_by" v="Potlatch 0.6a"/>
    <tag k="highway" v="residential"/>
    <tag k="name" v="Cartela Crescent"/>
  </way>
  <way id="20142004" version="3" timestamp="2010-07-08T02:00:50Z" uid="74617" user="JohnSmith" changeset="5162525">
    <nd ref="212990752"/>
    <nd ref="212990908"/>
    <nd ref="212990911"/>
    <tag k="highway" v="residential"/>
    <tag k="maxspeed" v="50"/>
    <tag k="maxspeed:source" v="default residential speed limit in Australia"/>
    <tag k="name" v="Cartela Crescent"/>
  </way>
  <way id="20142004" version="4" timestamp="2012-01-15T21:02:21Z" uid="147510" user="woodpeck_fixbot" changeset="10402983">
    <nd ref="212990752"/>
    <nd ref="212990908"/>
    <nd ref="212990911"/>
    <tag k="highway" v="residential"/>
    <tag k="name" v="Cartela Crescent"/>
  </way>
  <way id="20142025" version="3" timestamp="2008-05-17T23:22:58Z" uid="30201" user="rrankin" changeset="469479">
    <nd ref="212991197"/>
    <nd ref="212990911"/>
    <nd ref="212991199"/>
    <tag k="created_by" v="Potlatch 0.6a"/>
    <tag k="highway" v="residential"/>
    <tag k="name" v="Canara Place"/>
  </way>
  <way id="20142025" version="4" timestamp="2008-10-22T20:44:43Z" uid="30201" user="rrankin" changeset="511736">
    <nd ref="212991197"/>
    <nd ref="212990911"/>
    <nd ref="212991199"/>
    <tag k="created_by" v="Potlatch 0.6a"/>
    <tag k="highway" v="residential"/>
    <tag k="name" v="Canara Place"/>
  </way>
  <way id="20142025" version="5" timestamp="2010-07-08T01:57:13Z" uid="74617" user="JohnSmith" changeset="5162525">
    <nd ref="212991197"/>
    <nd ref="212990911"/>
    <nd ref="212991199"/>
    <tag k="highway" v="residential"/>
    <tag k="maxspeed" v="50"/>
    <tag k="maxspeed:source" v="default residential speed limit in Australia"/>
    <tag k="name" v="Canara Place"/>
  </way>
  <way id="20142025" version="6" timestamp="2012-01-15T21:02:23Z" uid="147510" user="woodpeck_fixbot" changeset="10402983">
    <nd ref="212991197"/>
    <nd ref="212990911"/>
    <nd ref="212991199"/>
    <tag k="highway" v="residential"/>
    <tag k="name" v="Canara Place"/>
  </way>
  <way id="20142894" version="6" timestamp="2010-06-29T19:05:46Z" uid="74617" user="JohnSmith" changeset="5108182">
    <nd ref="213002809"/>
    <nd ref="213002811"/>
    <nd ref="213002812"/>
    <nd ref="213002814"/>
    <nd ref="213002816"/>
    <nd ref="213002818"/>
    <nd ref="213002819"/>
    <nd ref="213002821"/>
    <nd ref="213002823"/>
    <nd ref="213002825"/>
    <nd ref="213002826"/>
    <nd ref="213002809"/>
    <tag k="fixme" v="sport=football is ambiguous, see http://wiki.osm.org/wiki/Football for more details"/>
    <tag k="name" v="Oakwood Playing Fields"/>
    <tag k="sport" v="football"/>
  </way>
  <way id="20142894" version="7" timestamp="2011-01-17T12:27:01Z" uid="143002" user="osmgspot" changeset="6998858">
    <nd ref="213002809"/>
    <nd ref="213002811"/>
    <nd ref="213002812"/>
    <nd ref="213002814"/>
    <nd ref="213002816"/>
    <nd ref="213002818"/>
    <nd ref="213002819"/>
    <nd ref="213002821"/>
    <nd ref="213002823"/>
    <nd ref="213002825"/>
    <nd ref="213002826"/>
    <nd ref="213002809"/>
    <tag k="landuse" v="grass"/>
    <tag k="name" v="Oakwood Playing Fields"/>
  </way>
</osm>
