<?xml version='1.0' encoding='UTF-8'?>
<osm version="0.6" generator="libosmium/2.20.0">
  <way id="20141022" version="2" timestamp="2008-05-19T02:31:34Z" uid="30201" user="rrankin" changeset="476977">
    <nd ref="212975413"/>
    <nd ref="212977489"/>
    <nd ref="212977491"/>
    <nd ref="212977493"/>
    <nd ref="212977495"/>
    <nd ref="212977496"/>
    <nd ref="212977497"/>
    <nd ref="212977499"/>
    <nd ref="212977500"/>
    <tag k="created_by" v="Potlatch 0.6a"/>
    <tag k="highway" v="residential"/>
    <tag k="name" v="Maugham Crescent"/>
  </way>
  <way id="20141022" version="3" timestamp="2009-12-25T13:25:24Z" uid="7617" user="Franc" changeset="3448112">
    <nd ref="212975413"/>
    <nd ref="212977489"/>
    <nd ref="599228728"/>
    <nd ref="212977491"/>
    <nd ref="212977493"/>
    <nd ref="212977495"/>
    <nd ref="599228666"/>
    <nd ref="212977496"/>
    <nd ref="599228665"/>
    <nd ref="212977497"/>
    <nd ref="212977499"/>
    <nd ref="212977500"/>
    <tag k="highway" v="residential"/>
    <tag k="name" v="Maugham Crescent"/>
  </way>
  <way id="20141022" version="4" timestamp="2010-07-07T22:32:13Z" uid="74617" user="JohnSmith" changeset="5162525">
    <nd ref="212975413"/>
    <nd ref="212977489"/>
    <nd ref="599228728"/>
    <nd ref="212977491"/>
    <nd ref="212977493"/>
    <nd ref="212977495"/>
    <nd ref="599228666"/>
    <nd ref="212977496"/>
    <nd ref="599228665"/>
    <nd ref="212977497"/>
    <nd ref="212977499"/>
    <nd ref="212977500"/>
    <tag k="highway" v="residential"/>
    <tag k="maxspeed" v="50"/>
    <tag k="maxspeed:source" v="default residential speed limit in Australia"/>
    <tag k="name" v="Maugham Crescent"/>
  </way>
  <way id="20141022" version="5" timestamp="2012-01-15T21:02:02Z" uid="147510" user="woodpeck_fixbot" changeset="10402983">
    <nd ref="212975413"/>
    <nd ref="212977489"/>
    <nd ref="599228728"/>
    <nd ref="212977491"/>
    <nd ref="212977493"/>
    <nd ref="212977495"/>
    <nd ref="599228666"/>
    <nd ref="212977496"/>
    <nd ref="599228665"/>
    <nd ref="212977497"/>
    <nd ref="212977499"/>
    <nd ref="212977500"/>
    <tag k="highway" v="residential"/>
    <tag k="name" v="Maugham Crescent"/>
  </way>
  <way id="20141131" version="2" timestamp="2008-05-19T02:15:50Z" uid="30201" user="rrankin" changeset="476977">
    <nd ref="77816545"/>
    <nd ref="212978760"/>
    <nd ref="212978763"/>
    <nd ref="212978764"/>
    <nd ref="212978765"/>
    <nd ref="212978766"/>
    <tag k="created_by" v="Potlatch 0.6a"/>
    <tag k="highway" v="residential"/>
    <tag k="name" v="Haywood Close"/>
  </way>
  <way id="20141131" version="3" timestamp="2010-07-07T22:32:42Z" uid="74617" user="JohnSmith" changeset="5162525">
    <nd ref="77816545"/>
    <nd ref="212978760"/>
    <nd ref="212978763"/>
    <nd ref="212978764"/>
    <nd ref="212978765"/>
    <nd ref="212978766"/>
    <tag k="highway" v="residential"/>
    <tag k="maxspeed" v="50"/>
    <tag k="maxspeed:source" v="default residential speed limit in Australia"/>
    <tag k="name" v="Haywood Close"/>
  </way>
  <way id="20141131" version="4" timestamp="2010-11-29T09:14:51Z" uid="7617" user="Franc" changeset="6484750">
    <nd ref="77816545"/>
    <nd ref="212978760"/>
    <nd ref="212978763"/>
    <nd ref="212978764"/>
    <nd ref="1012110817"/>
    <nd ref="212978765"/>
    <nd ref="212978766"/>
    <tag k="highway" v="residential"/>
    <tag k="maxspeed" v="50"/>
    <tag k="maxspeed:source" v="default residential speed limit in Australia"/>
    <tag k="name" v="Haywood Close"/>
  </way>
  <way id="20141131" version="5" timestamp="2012-01-15T21:02:05Z" uid="147510" user="woodpeck_fixbot" changeset="10402983">
    <nd ref="77816545"/>
    <nd ref="212978760"/>
    <nd ref="212978763"/>
    <nd ref="212978764"/>
    <nd ref="1012110817"/>
    <nd ref="212978765"/>
    <nd ref="212978766"/>
    <tag k="highway" v="residential"/>
    <tag k="name" v="Haywood Close"/>
  </way>
  <way id="20141153" version="2" timestamp="2008-05-19T02:31:35Z" uid="30201" user="rrankin" changeset="476977"/>
  <way id="20141166" version="2" timestamp="2008-05-19T02:15:50Z" uid="30201" user="rrankin" changeset="476977">
    <nd ref="212978760"/>
    <nd ref="212979179"/>
    <tag k="created_by" v="Potlatch 0.6a"/>
    <tag k="highway" v="residential"/>
    <tag k="name" v="Gray Place"/>
  </way>
  <way id="20141166" version="3" timestamp="2010-07-07T22:31:11Z" uid="74617" user="JohnSmith" changeset="5162525">
    <nd ref="212978760"/>
    <nd ref="212979179"/>
    <tag k="highway" v="residential"/>
    <tag k="maxspeed" v="50"/>
    <tag k="maxspeed:source" v="default residential speed limit in Australia"/>
    <tag k="name" v="Gray Place"/>
  </way>
  <way id="20141166" version="4" timestamp="2011-11-22T11:45:44Z" uid="349913" user="Peter W34" changeset="9908011">
    <nd ref="212978760"/>
    <nd ref="1512626872"/>
    <nd ref="212979179"/>
    <tag k="highway" v="residential"/>
    <tag k="maxspeed" v="50"/>
    <tag k="maxspeed:source" v="default residential speed limit in Australia"/>
    <tag k="name" v="Gray Place"/>
  </way>
  <way id="20141166" version="5" timestamp="2012-01-15T21:02:05Z" uid="147510" user="woodpeck_fixbot" changeset="10402983">
    <nd ref="212978760"/>
    <nd ref="1512626872"/>
    <nd ref="212979179"/>
    <tag k="highway" v="residential"/>
    <tag k="name" v="Gray Place"/>
  </way>
  <way id="20141214" version="5" timestamp="2008-05-17T23:22:59Z" uid="30201" user="rrankin" changeset="469479">
    <nd ref="77816539"/>
    <nd ref="212979829"/>
    <nd ref="212979830"/>
    <nd ref="212979831"/>
    <nd ref="212979833"/>
    <nd ref="212979835"/>
    <tag k="created_by" v="Potlatch 0.6a"/>
    <tag k="highway" v="residential"/>
    <tag k="name" v="Wetherill Street"/>
  </way>
  <way id="20141214" version="6" timestamp="2010-07-07T22:29:45Z" uid="74617" user="JohnSmith" changeset="5162525">
    <nd ref="77816539"/>
    <nd ref="212979829"/>
    <nd ref="212979830"/>
    <nd ref="212979831"/>
    <nd ref="212979833"/>
    <nd ref="212979835"/>
    <tag k="highway" v="residential"/>
    <tag k="maxspeed" v="50"/>
    <tag k="maxspeed:source" v="default residential speed limit in Australia"/>
    <tag k="name" v="Wetherill Street"/>
  </way>
  <way id="20141214" version="7" timestamp="2012-01-15T21:02:07Z" uid="147510" user="woodpeck_fixbot" changeset="10402983">
    <nd ref="77816539"/>
    <nd ref="212979829"/>
    <nd ref="212979830"/>
    <nd ref="212979831"/>
    <nd ref="212979833"/>
    <nd ref="212979835"/>
    <tag k="highway" v="residential"/>
    <tag k="name" v="Wetherill Street"/>
  </way>
  <way id="20141256" version="3" timestamp="2008-05-17T23:22:56Z" uid="30201" user="rrankin" changeset="469479">
    <nd ref="212979835"/>
    <nd ref="212980207"/>
    <nd ref="208201121"/>
    <tag k="created_by" v="Potlatch 0.6a"/>
    <tag k="highway" v="residential"/>
    <tag k="name" v="Wetherill Street"/>
    <tag k="oneway" v="yes"/>
  </way>
  <way id="20141256" version="4" timestamp="2009-12-24T22:17:54Z" uid="7617" user="Franc" changeset="3445321">
    <nd ref="212979835"/>
    <nd ref="212980207"/>
    <nd ref="599069258"/>
    <nd ref="208201121"/>
    <tag k="highway" v="residential"/>
    <tag k="name" v="Wetherill Street"/>
    <tag k="oneway" v="yes"/>
  </way>
  <way id="20141256" version="5" timestamp="2010-07-07T22:33:38Z" uid="74617" user="JohnSmith" changeset="5162525">
    <nd ref="212979835"/>
    <nd ref="212980207"/>
    <nd ref="599069258"/>
    <nd ref="208201121"/>
    <tag k="highway" v="residential"/>
    <tag k="maxspeed" v="50"/>
    <tag k="maxspeed:source" v="default residential speed limit in Australia"/>
    <tag k="name" v="Wetherill Street"/>
    <tag k="oneway" v="yes"/>
  </way>
  <way id="20141256" version="6" timestamp="2012-01-15T21:02:08Z" uid="147510" user="woodpeck_fixbot" changeset="10402983">
    <nd ref="212979835"/>
    <nd ref="212980207"/>
    <nd ref="599069258"/>
    <nd ref="208201121"/>
    <tag k="highway" v="residential"/>
    <tag k="name" v="Wetherill Street"/>
    <tag k="oneway" v="yes"/>
  </way>
  <way id="20141301" version="3" timestamp="2008-05-17T23:22:57Z" uid="30201" user="rrankin" changeset="469479">
    <nd ref="208201116"/>
    <nd ref="212980799"/>
    <nd ref="212980800"/>
    <nd ref="212979835"/>
    <tag k="created_by" v="Potlatch 0.6a"/>
    <tag k="highway" v="residential"/>
    <tag k="name" v="Wetherill Street"/>
    <tag k="oneway" v="yes"/>
  </way>
  <way id="20141301" version="4" timestamp="2009-12-24T22:17:54Z" uid="7617" user="Franc" changeset="3445321">
    <nd ref="208201116"/>
    <nd ref="599069259"/>
    <nd ref="599069257"/>
    <nd ref="212980799"/>
    <nd ref="212980800"/>
    <nd ref="212979835"/>
    <tag k="highway" v="residential"/>
    <tag k="name" v="Wetherill Street"/>
    <tag k="oneway" v="yes"/>
  </way>
  <way id="20141301" version="5" timestamp="2010-07-07T22:35:27Z" uid="74617" user="JohnSmith" changeset="5162525">
    <nd ref="208201116"/>
    <nd ref="599069259"/>
    <nd ref="599069257"/>
    <nd ref="212980799"/>
    <nd ref="212980800"/>
    <nd ref="212979835"/>
    <tag k="highway" v="residential"/>
    <tag k="maxspeed" v="50"/>
    <tag k="maxspeed:source" v="default residential speed limit in Australia"/>
    <tag k="name" v="Wetherill Street"/>
    <tag k="oneway" v="yes"/>
  </way>
  <way id="20141301" version="6" timestamp="2012-01-15T21:02:10Z" uid="147510" user="woodpeck_fixbot" changeset="10402983">
    <nd ref="208201116"/>
    <nd ref="599069259"/>
    <nd ref="599069257"/>
    <nd ref="212980799"/>
    <nd ref="212980800"/>
    <nd ref="212979835"/>
    <tag k="highway" v="residential"/>
    <tag k="name" v="Wetherill Street"/>
    <tag k="oneway" v="yes"/>
  </way>
  <way id="20141348" version="3" timestamp="2008-05-17T23:23:05Z" uid="30201" user="rrankin" changeset="469479">
    <nd ref="208198506"/>
    <nd ref="208197049"/>
    <nd ref="212981240"/>
    <tag k="created_by" v="Potlatch 0.6a"/>
    <tag k="highway" v="residential"/>
    <tag k="name" v="Vonn Avenue"/>
  </way>
  <way id="20141348" version="4" timestamp="2010-07-07T22:35:39Z" uid="74617" user="JohnSmith" changeset="5162525">
    <nd ref="208198506"/>
    <nd ref="208197049"/>
    <nd ref="212981240"/>
    <tag k="highway" v="residential"/>
    <tag k="maxspeed" v="50"/>
    <tag k="maxspeed:source" v="default residential speed limit in Australia"/>
    <tag k="name" v="Vonn Avenue"/>
  </way>
  <way id="20141348" version="5" timestamp="2012-01-15T21:02:11Z" uid="147510" user="woodpeck_fixbot" changeset="10402983">
    <nd ref="208198506"/>
    <nd ref="208197049"/>
    <nd ref="212981240"/>
    <tag k="highway" v="residential"/>
    <tag k="name" v="Vonn Avenue"/>
  </way>
  <way id="20141376" version="2" timestamp="2009-12-24T22:17:54Z" uid="7617" user="Franc" changeset="3445321">
    <nd ref="212979829"/>
    <nd ref="599069251"/>
    <nd ref="212981548"/>
    <nd ref="212981551"/>
    <tag k="highway" v="unclassified"/>
  </way>
  <way id="20141377" version="3" timestamp="2008-05-17T23:23:02Z" uid="30201" user="rrankin" changeset="469479">
    <nd ref="212981548"/>
    <nd ref="212981623"/>
    <tag k="created_by" v="Potlatch 0.6a"/>
    <tag k="highway" v="residential"/>
    <tag k="name" v="Helen Street"/>
  </way>
  <way id="20141377" version="4" timestamp="2010-07-07T22:31:51Z" uid="74617" user="JohnSmith" changeset="5162525">
    <nd ref="212981548"/>
    <nd ref="212981623"/>
    <tag k="highway" v="residential"/>
    <tag k="maxspeed" v="50"/>
    <tag k="maxspeed:source" v="default residential speed limit in Australia"/>
    <tag k="name" v="Helen Street"/>
  </way>
  <way id="20141377" version="5" timestamp="2012-01-15T21:02:12Z" uid="147510" user="woodpeck_fixbot" changeset="10402983">
    <nd ref="212981548"/>
    <nd ref="212981623"/>
    <tag k="highway" v="residential"/>
    <tag k="name" v="Helen Street"/>
  </way>
  <way id="20141388" version="2" timestamp="2008-05-17T23:23:01Z" uid="30201" user="rrankin" changeset="469479">
    <nd ref="212981870"/>
    <nd ref="212981873"/>
    <tag k="created_by" v="Potlatch 0.6a"/>
    <tag k="highway" v="residential"/>
    <tag k="name" v="Mala Street"/>
  </way>
  <way id="20141388" version="3" timestamp="2010-07-07T22:34:53Z" uid="74617" user="JohnSmith" changeset="5162525">
    <nd ref="212981870"/>
    <nd ref="212981873"/>
    <tag k="highway" v="residential"/>
    <tag k="maxspeed" v="50"/>
    <tag k="maxspeed:source" v="default residential speed limit in Australia"/>
    <tag k="name" v="Mala Street"/>
  </way>
  <way id="20141388" version="4" timestamp="2012-01-15T21:02:13Z" uid="147510" user="woodpeck_fixbot" changeset="10402983">
    <nd ref="212981870"/>
    <nd ref="212981873"/>
    <tag k="highway" v="residential"/>
    <tag k="name" v="Mala Street"/>
  </way>
  <way id="20141404" version="3" timestamp="2008-05-17T23:23:03Z" uid="30201" user="rrankin" changeset="469479">
    <nd ref="212982047"/>
    <nd ref="212982048"/>
    <tag k="created_by" v="Potlatch 0.6a"/>
    <tag k="highway" v="residential"/>
    <tag k="name" v="Sharland Place"/>
  </way>
  <way id="20141404" version="4" timestamp="2009-12-25T13:25:29Z" uid="7617" user="Franc" changeset="3448112">
    <nd ref="212982047"/>
    <nd ref="599228723"/>
    <nd ref="212982048"/>
    <tag k="highway" v="residential"/>
    <tag k="name" v="Sharland Place"/>
  </way>
  <way id="20141574" version="10" timestamp="2008-05-17T22:50:40Z" uid="30201" user="rrankin" changeset="469479">
    <nd ref="77816535"/>
    <nd ref="227595128"/>
    <nd ref="212984601"/>
    <nd ref="227594789"/>
    <nd ref="212909309"/>
    <nd ref="227585939"/>
    <nd ref="227587057"/>
    <nd ref="227587920"/>
    <nd ref="227588920"/>
    <nd ref="212913895"/>
    <tag k="created_by" v="Potlatch 0.6a"/>
    <tag k="highway" v="residential"/>
    <tag k="name" v="Gipps Street"/>
  </way>
  <way id="20141574" version="11" timestamp="2010-01-06T03:38:32Z" uid="30201" user="rrankin" changeset="3550772">
    <nd ref="77816535"/>
    <nd ref="227595128"/>
    <nd ref="212984601"/>
    <nd ref="227594789"/>
    <nd ref="606293218"/>
    <tag k="highway" v="residential"/>
    <tag k="name" v="Gipps Street"/>
  </way>
  <way id="20141574" version="12" timestamp="2010-01-06T04:10:26Z" uid="30201" user="rrankin" changeset="3550805">
    <nd ref="77816535"/>
    <nd ref="227595128"/>
    <nd ref="606295581"/>
    <tag k="highway" v="residential"/>
    <tag k="name" v="Gipps Street"/>
  </way>
  <way id="20141788" version="4" timestamp="2008-05-17T23:22:55Z" uid="30201" user="rrankin" changeset="469479">
    <nd ref="212988017"/>
    <nd ref="212989466"/>
    <nd ref="212988019"/>
    <nd ref="212908623"/>
    <nd ref="212988021"/>
    <nd ref="212988023"/>
    <nd ref="212984601"/>
    <nd ref="212988024"/>
    <tag k="created_by" v="Potlatch 0.6a"/>
    <tag k="highway" v="residential"/>
    <tag k="name" v="Neville Street"/>
  </way>
  <way id="20141788" version="5" timestamp="2009-12-24T08:14:07Z" uid="7617" user="Franc" changeset="3440346">
    <nd ref="212988017"/>
    <nd ref="212989466"/>
    <nd ref="212988019"/>
    <nd ref="212908623"/>
    <nd ref="598803093"/>
    <tag k="highway" v="residential"/>
    <tag k="name" v="Neville Street"/>
  </way>
  <way id="20141788" version="6" timestamp="2010-01-06T04:10:26Z" uid="30201" user="rrankin" changeset="3550805">
    <nd ref="212988017"/>
    <nd ref="212989466"/>
    <nd ref="606295676"/>
    <tag k="highway" v="residential"/>
    <tag k="name" v="Neville Street"/>
  </way>
  <way id="20141788" version="7" timestamp="2010-05-29T07:48:01Z" uid="7617" user="Franc" changeset="4840158">
    <nd ref="212988017"/>
    <nd ref="212989466"/>
    <nd ref="755762743"/>
    <tag k="highway" v="residential"/>
    <tag k="name" v="Neville Street"/>
    <tag k="restriction" v="school_zone"/>
  </way>
  <way id="20141788" version="8" timestamp="2010-07-08T01:57:37Z" uid="74617" user="JohnSmith" changeset="5162525">
    <nd ref="212988017"/>
    <nd ref="212989466"/>
    <nd ref="755762743"/>
    <tag k="highway" v="residential"/>
    <tag k="maxspeed" v="50"/>
    <tag k="maxspeed:source" v="default residential speed limit in Australia"/>
    <tag k="name" v="Neville Street"/>
    <tag k="restriction" v="school_zone"/>
  </way>
  <way id="20141788" version="9" timestamp="2010-12-04T02:15:53Z" uid="7617" user="Franc" changeset="6533977">
    <nd ref="212988017"/>
    <nd ref="1019424518"/>
    <nd ref="212989466"/>
    <nd ref="1019424494"/>
    <nd ref="755762743"/>
    <tag k="highway" v="residential"/>
    <tag k="maxspeed" v="50"/>
    <tag k="maxspeed:source" v="default residential speed limit in Australia"/>
    <tag k="name" v="Neville Street"/>
    <tag k="restriction" v="school_zone"/>
  </way>
  <way id="20141788" version="10" timestamp="2012-01-15T21:02:15Z" uid="147510" user="woodpeck_fixbot" changeset="10402983">
    <nd ref="212988017"/>
    <nd ref="1019424518"/>
    <nd ref="212989466"/>
    <nd ref="1019424494"/>
    <nd ref="755762743"/>
    <tag k="highway" v="residential"/>
    <tag k="name" v="Neville Street"/>
    <tag k="restriction" v="school_zone"/>
  </way>
  <way id="20141859" version="2" timestamp="2009-12-24T08:14:08Z" uid="7617" user="Franc" changeset="3440346">
    <nd ref="212988017"/>
    <nd ref="598803126"/>
    <nd ref="212904540"/>
    <nd ref="208197036"/>
    <nd ref="208198524"/>
    <nd ref="212904772"/>
    <tag k="highway" v="unclassified"/>
  </way>
  <way id="20141859" version="3" timestamp="2010-05-29T07:47:59Z" uid="7617" user="Franc" changeset="4840158">
    <nd ref="212988017"/>
    <nd ref="598803126"/>
    <nd ref="755762748"/>
    <nd ref="212904540"/>
    <nd ref="755762830"/>
    <tag k="highway" v="unclassified"/>
    <tag k="restriction" v="school_zone"/>
  </way>
  <way id="20141859" version="4" timestamp="2010-11-29T11:14:01Z" uid="7617" user="Franc" changeset="6485523">
    <nd ref="212988017"/>
    <nd ref="598803126"/>
    <nd ref="755762748"/>
    <nd ref="212904540"/>
    <nd ref="755762830"/>
    <tag k="highway" v="unclassified"/>
    <tag k="name" v="Justin Street"/>
    <tag k="restriction" v="school_zone"/>
    <tag k="source" v="survey"/>
  </way>
  <way id="20141877" version="2" timestamp="2009-12-24T08:14:09Z" uid="7617" user="Franc" changeset="3440346">
    <nd ref="212988970"/>
    <nd ref="212989241"/>
    <nd ref="212989242"/>
    <nd ref="212988017"/>
    <tag k="highway" v="service"/>
    <tag k="oneway" v="yes"/>
  </way>
  <way id="20141911" version="2" timestamp="2008-05-18T00:12:38Z" uid="30201" user="rrankin" changeset="469479">
    <nd ref="212989466"/>
    <nd ref="212989711"/>
    <nd ref="212989712"/>
    <nd ref="212989713"/>
    <nd ref="212989715"/>
    <tag k="created_by" v="Potlatch 0.6a"/>
    <tag k="highway" v="residential"/>
    <tag k="name" v="Janice Avenue"/>
  </way>
  <way id="20141911" version="3" timestamp="2010-05-29T07:48:01Z" uid="7617" user="Franc" changeset="4840158">
    <nd ref="212989466"/>
    <nd ref="755762741"/>
    <tag k="highway" v="residential"/>
    <tag k="name" v="Janice Avenue"/>
    <tag k="restriction" v="school_zone"/>
  </way>
  <way id="20141911" version="4" timestamp="2010-07-08T02:02:00Z" uid="74617" user="JohnSmith" changeset="5162525">
    <nd ref="212989466"/>
    <nd ref="755762741"/>
    <tag k="highway" v="residential"/>
    <tag k="maxspeed" v="50"/>
    <tag k="maxspeed:source" v="default residential speed limit in Australia"/>
    <tag k="name" v="Janice Avenue"/>
    <tag k="restriction" v="school_zone"/>
  </way>
  <way id="20141911" version="5" timestamp="2012-01-15T21:02:16Z" uid="147510" user="woodpeck_fixbot" changeset="10402983">
    <nd ref="212989466"/>
    <nd ref="755762741"/>
    <tag k="highway" v="residential"/>
    <tag k="name" v="Janice Avenue"/>
    <tag k="restriction" v="school_zone"/>
  </way>
  <way id="20141947" version="2" timestamp="2008-05-17T23:55:17Z" uid="30201" user="rrankin" changeset="469479">
    <nd ref="212989840"/>
    <nd ref="212990070"/>
    <tag k="created_by" v="Potlatch 0.6a"/>
    <tag k="highway" v="residential"/>
    <tag k="name" v="Rowley Street"/>
  </way>
  <way id="20141947" version="3" timestamp="2010-07-08T01:51:50Z" uid="74617" user="JohnSmith" changeset="5162525">
    <nd ref="212989840"/>
    <nd ref="212990070"/>
    <tag k="highway" v="residential"/>
    <tag k="maxspeed" v="50"/>
    <tag k="maxspeed:source" v="default residential speed limit in Australia"/>
    <tag k="name" v="Rowley Street"/>
  </way>
  <way id="20141947" version="4" timestamp="2012-01-15T21:02:18Z" uid="147510" user="woodpeck_fixbot" changeset="10402983">
    <nd ref="212989840"/>
    <nd ref="212990070"/>
    <tag k="highway" v="residential"/>
    <tag k="name" v="Rowley Street"/>
  </way>
  <way id="20141980" version="11" timestamp="2008-05-17T22:24:30Z" uid="30201" user="rrankin" changeset="469479">
    <nd ref="212990125"/>
    <nd ref="227589439"/>
    <nd ref="227586584"/>
    <nd ref="227585653"/>
    <nd ref="212909306"/>
    <nd ref="227594175"/>
    <nd ref="212988021"/>
    <nd ref="212990752"/>
    <nd ref="212990070"/>
    <nd ref="212990581"/>
    <nd ref="212990582"/>
    <tag k="created_by" v="Potlatch 0.6a"/>
    <tag k="highway" v="residential"/>
    <tag k="name" v="Bourke Street"/>
  </way>
  <way id="20141980" version="12" timestamp="2009-12-24T08:14:02Z" uid="7617" user="Franc" changeset="3440346">
    <nd ref="212990125"/>
    <nd ref="227589439"/>
    <nd ref="227586584"/>
    <nd ref="227585653"/>
    <nd ref="212909306"/>
    <nd ref="227594175"/>
    <nd ref="598803099"/>
    <tag k="highway" v="residential"/>
    <tag k="name" v="Bourke Street"/>
  </way>
  <way id="20141980" version="13" timestamp="2010-07-08T01:55:00Z" uid="74617" user="JohnSmith" changeset="5162525">
    <nd ref="212990125"/>
    <nd ref="227589439"/>
    <nd ref="227586584"/>
    <nd ref="227585653"/>
    <nd ref="212909306"/>
    <nd ref="227594175"/>
    <nd ref="598803099"/>
    <tag k="highway" v="residential"/>
    <tag k="maxspeed" v="50"/>
    <tag k="maxspeed:source" v="default residential speed limit in Australia"/>
    <tag k="name" v="Bourke Street"/>
  </way>
  <way id="20141980" version="14" timestamp="2012-01-15T21:02:19Z" uid="147510" user="woodpeck_fixbot" changeset="10402983">
    <nd ref="212990125"/>
    <nd ref="227589439"/>
    <nd ref="227586584"/>
    <nd ref="227585653"/>
    <nd ref="212909306"/>
    <nd ref="227594175"/>
    <nd ref="598803099"/>
    <tag k="highway" v="residential"/>
    <tag k="name" v="Bourke Street"/>
  </way>
</osm>
