<?xml version='1.0' encoding='UTF-8'?>
<osm version="0.6" generator="libosmium/2.20.0">
  <way id="20185002" version="2" timestamp="2010-07-07T21:36:07Z" uid="74617" user="JohnSmith" changeset="5161069">
    <nd ref="213435368"/>
    <nd ref="213433144"/>
    <nd ref="213435906"/>
    <tag k="highway" v="residential"/>
    <tag k="maxspeed" v="50"/>
    <tag k="maxspeed:source" v="default residential speed limit in Australia"/>
    <tag k="name" v="Mayor Street"/>
  </way>
  <way id="20185002" version="3" timestamp="2012-01-15T21:02:40Z" uid="147510" user="woodpeck_fixbot" changeset="10402983">
    <nd ref="213435368"/>
    <nd ref="213433144"/>
    <nd ref="213435906"/>
    <tag k="highway" v="residential"/>
    <tag k="name" v="Mayor Street"/>
  </way>
  <way id="20185088" version="2" timestamp="2009-12-13T02:47:53Z" uid="7617" user="Franc" changeset="3360208">
    <nd ref="213433144"/>
    <nd ref="588189395"/>
    <nd ref="213436645"/>
    <nd ref="213436646"/>
    <tag k="highway" v="residential"/>
    <tag k="name" v="Wharf Road"/>
  </way>
  <way id="20185088" version="3" timestamp="2010-07-07T21:30:12Z" uid="74617" user="JohnSmith" changeset="5161069">
    <nd ref="213433144"/>
    <nd ref="588189395"/>
    <nd ref="213436645"/>
    <nd ref="213436646"/>
    <tag k="highway" v="residential"/>
    <tag k="maxspeed" v="50"/>
    <tag k="maxspeed:source" v="default residential speed limit in Australia"/>
    <tag k="name" v="Wharf Road"/>
  </way>
  <way id="20185088" version="4" timestamp="2012-01-15T21:02:41Z" uid="147510" user="woodpeck_fixbot" changeset="10402983">
    <nd ref="213433144"/>
    <nd ref="588189395"/>
    <nd ref="213436645"/>
    <nd ref="213436646"/>
    <tag k="highway" v="residential"/>
    <tag k="name" v="Wharf Road"/>
  </way>
  <way id="20185301" version="2" timestamp="2010-07-07T21:30:18Z" uid="74617" user="JohnSmith" changeset="5161069">
    <nd ref="213436825"/>
    <nd ref="213438546"/>
    <tag k="highway" v="residential"/>
    <tag k="maxspeed" v="50"/>
    <tag k="maxspeed:source" v="default residential speed limit in Australia"/>
    <tag k="name" v="Johnston Avenue"/>
  </way>
  <way id="20185301" version="3" timestamp="2012-01-15T21:02:42Z" uid="147510" user="woodpeck_fixbot" changeset="10402983">
    <nd ref="213436825"/>
    <nd ref="213438546"/>
    <tag k="highway" v="residential"/>
    <tag k="name" v="Johnston Avenue"/>
  </way>
  <way id="20185622" version="2" timestamp="2010-07-08T02:11:44Z" uid="74617" user="JohnSmith" changeset="5162525">
    <nd ref="213440470"/>
    <nd ref="213441874"/>
    <nd ref="213441875"/>
    <nd ref="213441877"/>
    <nd ref="213441878"/>
    <tag k="highway" v="residential"/>
    <tag k="maxspeed" v="50"/>
    <tag k="maxspeed:source" v="default residential speed limit in Australia"/>
    <tag k="name" v="Prince Edward Street"/>
  </way>
  <way id="20185622" version="3" timestamp="2012-01-15T21:02:43Z" uid="147510" user="woodpeck_fixbot" changeset="10402983">
    <nd ref="213440470"/>
    <nd ref="213441874"/>
    <nd ref="213441875"/>
    <nd ref="213441877"/>
    <nd ref="213441878"/>
    <tag k="highway" v="residential"/>
    <tag k="name" v="Prince Edward Street"/>
  </way>
  <way id="20185689" version="8" timestamp="2010-07-08T02:10:53Z" uid="74617" user="JohnSmith" changeset="5162525">
    <nd ref="213416861"/>
    <nd ref="213442683"/>
    <nd ref="213444540"/>
    <nd ref="213442684"/>
    <nd ref="213442686"/>
    <nd ref="213443312"/>
    <nd ref="213444043"/>
    <nd ref="213451196"/>
    <nd ref="215858313"/>
    <nd ref="215859061"/>
    <nd ref="213442687"/>
    <tag k="highway" v="residential"/>
    <tag k="maxspeed" v="50"/>
    <tag k="maxspeed:source" v="default residential speed limit in Australia"/>
    <tag k="name" v="Colvin Avenue"/>
  </way>
  <way id="20185689" version="9" timestamp="2012-01-15T21:02:44Z" uid="147510" user="woodpeck_fixbot" changeset="10402983">
    <nd ref="213416861"/>
    <nd ref="213442683"/>
    <nd ref="213444540"/>
    <nd ref="213442684"/>
    <nd ref="213442686"/>
    <nd ref="213443312"/>
    <nd ref="213444043"/>
    <nd ref="213451196"/>
    <nd ref="215858313"/>
    <nd ref="215859061"/>
    <nd ref="213442687"/>
    <tag k="highway" v="residential"/>
    <tag k="name" v="Colvin Avenue"/>
  </way>
  <way id="20185784" version="2" timestamp="2009-03-28T13:02:30Z" uid="7617" user="Franc" changeset="865362">
    <nd ref="213443312"/>
    <nd ref="213441878"/>
    <nd ref="213415387"/>
    <nd ref="213444038"/>
    <nd ref="366545992"/>
    <nd ref="213444039"/>
    <nd ref="366545979"/>
    <nd ref="213444041"/>
    <nd ref="213444043"/>
    <tag k="created_by" v="Potlatch 0.6a"/>
    <tag k="highway" v="residential"/>
    <tag k="name" v="Anglo Square"/>
  </way>
  <way id="20185784" version="3" timestamp="2010-07-08T02:10:28Z" uid="74617" user="JohnSmith" changeset="5162525">
    <nd ref="213443312"/>
    <nd ref="213441878"/>
    <nd ref="213415387"/>
    <nd ref="213444038"/>
    <nd ref="366545992"/>
    <nd ref="213444039"/>
    <nd ref="366545979"/>
    <nd ref="213444041"/>
    <nd ref="213444043"/>
    <tag k="highway" v="residential"/>
    <tag k="maxspeed" v="50"/>
    <tag k="maxspeed:source" v="default residential speed limit in Australia"/>
    <tag k="name" v="Anglo Square"/>
  </way>
  <way id="20185784" version="4" timestamp="2010-09-12T08:06:42Z" uid="237525" user="aharvey" changeset="5756654">
    <nd ref="213443312"/>
    <nd ref="213441878"/>
    <nd ref="213415387"/>
    <nd ref="213444038"/>
    <nd ref="366545992"/>
    <nd ref="213444039"/>
    <nd ref="366545979"/>
    <nd ref="213444041"/>
    <nd ref="213444043"/>
    <tag k="highway" v="residential"/>
    <tag k="maxspeed" v="50"/>
    <tag k="maxspeed:source" v="default residential speed limit in Australia"/>
    <tag k="name" v="Anglo Square"/>
    <tag k="old_name" v="Westbourne Street"/>
    <tag k="source:old_name" v="historic"/>
  </way>
  <way id="20185784" version="5" timestamp="2012-01-15T21:02:46Z" uid="147510" user="woodpeck_fixbot" changeset="10402983">
    <nd ref="213443312"/>
    <nd ref="213441878"/>
    <nd ref="213415387"/>
    <nd ref="213444038"/>
    <nd ref="366545992"/>
    <nd ref="213444039"/>
    <nd ref="366545979"/>
    <nd ref="213444041"/>
    <nd ref="213444043"/>
    <tag k="highway" v="residential"/>
    <tag k="name" v="Anglo Square"/>
    <tag k="old_name" v="Westbourne Street"/>
    <tag k="source:old_name" v="historic"/>
  </way>
  <way id="20185879" version="2" timestamp="2010-07-08T02:10:37Z" uid="74617" user="JohnSmith" changeset="5162525">
    <nd ref="213444540"/>
    <nd ref="213445190"/>
    <nd ref="213445192"/>
    <tag k="highway" v="residential"/>
    <tag k="maxspeed" v="50"/>
    <tag k="maxspeed:source" v="default residential speed limit in Australia"/>
    <tag k="name" v="Wheeler Street"/>
  </way>
  <way id="20185879" version="3" timestamp="2012-01-15T21:02:47Z" uid="147510" user="woodpeck_fixbot" changeset="10402983">
    <nd ref="213444540"/>
    <nd ref="213445190"/>
    <nd ref="213445192"/>
    <tag k="highway" v="residential"/>
    <tag k="name" v="Wheeler Street"/>
  </way>
  <way id="20185879" version="4" timestamp="2012-03-21T02:44:05Z" uid="7523" user="inas" changeset="11047827">
    <nd ref="213444540"/>
    <nd ref="213445190"/>
    <nd ref="1684145970"/>
    <tag k="highway" v="residential"/>
    <tag k="name" v="Wheeler Street"/>
  </way>
  <way id="20185902" version="2" timestamp="2009-11-30T09:37:24Z" uid="7617" user="Franc" changeset="3254049">
    <nd ref="213445190"/>
    <nd ref="575727176"/>
    <nd ref="213445478"/>
    <tag k="highway" v="service"/>
    <tag k="name" v="Ecole Lane"/>
  </way>
  <way id="20185954" version="2" timestamp="2009-11-30T09:37:20Z" uid="7617" user="Franc" changeset="3254049">
    <nd ref="213445478"/>
    <nd ref="575727174"/>
    <nd ref="575727178"/>
    <nd ref="213446011"/>
    <tag k="highway" v="residential"/>
    <tag k="name" v="Ecole Street"/>
  </way>
  <way id="20185954" version="3" timestamp="2010-07-08T02:10:40Z" uid="74617" user="JohnSmith" changeset="5162525">
    <nd ref="213445478"/>
    <nd ref="575727174"/>
    <nd ref="575727178"/>
    <nd ref="213446011"/>
    <tag k="highway" v="residential"/>
    <tag k="maxspeed" v="50"/>
    <tag k="maxspeed:source" v="default residential speed limit in Australia"/>
    <tag k="name" v="Ecole Street"/>
  </way>
  <way id="20185954" version="4" timestamp="2012-01-15T21:02:48Z" uid="147510" user="woodpeck_fixbot" changeset="10402983">
    <nd ref="213445478"/>
    <nd ref="575727174"/>
    <nd ref="575727178"/>
    <nd ref="213446011"/>
    <tag k="highway" v="residential"/>
    <tag k="name" v="Ecole Street"/>
  </way>
  <way id="20185954" version="5" timestamp="2012-03-20T04:23:44Z" uid="7523" user="inas" changeset="11037300">
    <nd ref="213445478"/>
    <nd ref="575727174"/>
    <nd ref="213446011"/>
    <tag k="highway" v="residential"/>
    <tag k="name" v="Ecole Street"/>
  </way>
  <way id="20185954" version="6" timestamp="2012-03-21T02:43:59Z" uid="7523" user="inas" changeset="11047827">
    <nd ref="213445478"/>
    <nd ref="575727174"/>
    <nd ref="1684145968"/>
    <tag k="highway" v="residential"/>
    <tag k="name" v="Ecole Street"/>
  </way>
</osm>
