<?xml version='1.0' encoding='UTF-8'?>
<osm version="0.6" generator="libosmium/2.20.0">
  <way id="20181486" version="5" timestamp="2008-12-14T15:18:45Z" uid="6975" user="ulfl" changeset="375714">
    <nd ref="161346"/>
    <nd ref="161345"/>
    <nd ref="161344"/>
    <tag k="bicycle" v="no"/>
    <tag k="bridge" v="yes"/>
    <tag k="car" v="no"/>
    <tag k="foot" v="no"/>
    <tag k="name" v="GrÃ¶na linjen"/>
    <tag k="railway" v="subway"/>
    <tag k="type" v="train"/>
  </way>
  <way id="20181486" version="6" timestamp="2009-05-28T16:19:45Z" uid="23069" user="bengtb" changeset="1344143"/>
  <way id="20181574" version="2" timestamp="2009-08-02T03:30:34Z" uid="7617" user="Franc" changeset="2009429">
    <nd ref="32658296"/>
    <nd ref="213413429"/>
    <nd ref="60173940"/>
    <nd ref="60173941"/>
    <nd ref="60173942"/>
    <nd ref="60173944"/>
    <tag k="created_by" v="Potlatch 0.6a"/>
    <tag k="highway" v="service"/>
    <tag k="name" v="Railway Parade"/>
    <tag k="oneway" v="yes"/>
    <tag k="source" v="survey"/>
  </way>
  <way id="20181574" version="3" timestamp="2010-06-16T01:46:33Z" uid="85802" user="Matthew Geier" changeset="4997032">
    <nd ref="32658296"/>
    <nd ref="213413429"/>
    <nd ref="60173940"/>
    <nd ref="60173941"/>
    <nd ref="60173942"/>
    <nd ref="60173944"/>
    <tag k="highway" v="service"/>
    <tag k="name" v="Railway Parade"/>
    <tag k="oneway" v="yes"/>
    <tag k="source" v="survey"/>
  </way>
</osm>
