<?xml version='1.0' encoding='UTF-8'?>
<osm version="0.6" generator="libosmium/2.20.0">
  <way id="20186107" version="2" timestamp="2010-07-08T02:09:35Z" uid="74617" user="JohnSmith" changeset="5162525">
    <nd ref="213442686"/>
    <nd ref="213448860"/>
    <tag k="highway" v="residential"/>
    <tag k="maxspeed" v="50"/>
    <tag k="maxspeed:source" v="default residential speed limit in Australia"/>
    <tag k="name" v="O&apos;Meara Street"/>
  </way>
  <way id="20186107" version="3" timestamp="2012-01-15T21:02:49Z" uid="147510" user="woodpeck_fixbot" changeset="10402983">
    <nd ref="213442686"/>
    <nd ref="213448860"/>
    <tag k="highway" v="residential"/>
    <tag k="name" v="O&apos;Meara Street"/>
  </way>
  <way id="20186107" version="4" timestamp="2012-03-21T02:44:02Z" uid="7523" user="inas" changeset="11047827">
    <nd ref="213442686"/>
    <nd ref="1684145972"/>
    <tag k="highway" v="residential"/>
    <tag k="name" v="O&apos;Meara Street"/>
  </way>
  <way id="20186130" version="2" timestamp="2010-07-08T02:12:24Z" uid="74617" user="JohnSmith" changeset="5162525">
    <nd ref="213444043"/>
    <nd ref="10282304"/>
    <tag k="highway" v="residential"/>
    <tag k="maxspeed" v="50"/>
    <tag k="maxspeed:source" v="default residential speed limit in Australia"/>
    <tag k="name" v="Westbourne Street"/>
  </way>
  <way id="20186130" version="3" timestamp="2012-01-15T21:02:49Z" uid="147510" user="woodpeck_fixbot" changeset="10402983">
    <nd ref="213444043"/>
    <nd ref="10282304"/>
    <tag k="highway" v="residential"/>
    <tag k="name" v="Westbourne Street"/>
  </way>
  <way id="20186130" version="4" timestamp="2012-03-21T02:44:04Z" uid="7523" user="inas" changeset="11047827">
    <nd ref="213444043"/>
    <nd ref="1684145974"/>
    <tag k="highway" v="residential"/>
    <tag k="name" v="Westbourne Street"/>
  </way>
  <way id="20186307" version="5" timestamp="2008-11-12T21:36:48Z" uid="7617" user="Franc" changeset="738861">
    <nd ref="181203277"/>
    <nd ref="311635700"/>
    <nd ref="215858388"/>
    <nd ref="215858314"/>
    <nd ref="215860999"/>
    <nd ref="213451151"/>
    <nd ref="213451150"/>
    <nd ref="213452361"/>
    <nd ref="213444041"/>
    <tag k="created_by" v="Potlatch 0.6a"/>
    <tag k="highway" v="residential"/>
    <tag k="name" v="Tanner Avenue"/>
  </way>
  <way id="20186307" version="6" timestamp="2010-02-23T10:59:16Z" uid="7617" user="Franc" changeset="3952179">
    <nd ref="181203277"/>
    <nd ref="651376653"/>
    <nd ref="311635700"/>
    <nd ref="651376657"/>
    <nd ref="215858388"/>
    <nd ref="215858314"/>
    <nd ref="215860999"/>
    <nd ref="213451151"/>
    <nd ref="651376719"/>
    <tag k="highway" v="residential"/>
    <tag k="name" v="Tanner Avenue"/>
  </way>
  <way id="20186307" version="7" timestamp="2010-07-08T02:11:42Z" uid="74617" user="JohnSmith" changeset="5162525">
    <nd ref="181203277"/>
    <nd ref="651376653"/>
    <nd ref="311635700"/>
    <nd ref="651376657"/>
    <nd ref="215858388"/>
    <nd ref="215858314"/>
    <nd ref="215860999"/>
    <nd ref="213451151"/>
    <nd ref="651376719"/>
    <tag k="highway" v="residential"/>
    <tag k="maxspeed" v="50"/>
    <tag k="maxspeed:source" v="default residential speed limit in Australia"/>
    <tag k="name" v="Tanner Avenue"/>
  </way>
  <way id="20186307" version="8" timestamp="2012-01-15T21:02:50Z" uid="147510" user="woodpeck_fixbot" changeset="10402983">
    <nd ref="181203277"/>
    <nd ref="651376653"/>
    <nd ref="311635700"/>
    <nd ref="651376657"/>
    <nd ref="215858388"/>
    <nd ref="215858314"/>
    <nd ref="215860999"/>
    <nd ref="213451151"/>
    <nd ref="651376719"/>
    <tag k="highway" v="residential"/>
    <tag k="name" v="Tanner Avenue"/>
  </way>
  <way id="20186325" version="3" timestamp="2009-03-28T13:02:29Z" uid="7617" user="Franc" changeset="865362">
    <nd ref="213452696"/>
    <nd ref="213444039"/>
    <tag k="created_by" v="Potlatch 0.6a"/>
    <tag k="highway" v="residential"/>
    <tag k="name" v="Anglo Square"/>
    <tag k="oneway" v="yes"/>
  </way>
  <way id="20186325" version="4" timestamp="2010-07-08T02:10:13Z" uid="74617" user="JohnSmith" changeset="5162525">
    <nd ref="213452696"/>
    <nd ref="213444039"/>
    <tag k="highway" v="residential"/>
    <tag k="maxspeed" v="50"/>
    <tag k="maxspeed:source" v="default residential speed limit in Australia"/>
    <tag k="name" v="Anglo Square"/>
    <tag k="oneway" v="yes"/>
  </way>
  <way id="20186325" version="5" timestamp="2012-01-15T21:02:52Z" uid="147510" user="woodpeck_fixbot" changeset="10402983">
    <nd ref="213452696"/>
    <nd ref="213444039"/>
    <tag k="highway" v="residential"/>
    <tag k="name" v="Anglo Square"/>
    <tag k="oneway" v="yes"/>
  </way>
  <way id="20186482" version="2" timestamp="2010-07-08T02:10:44Z" uid="74617" user="JohnSmith" changeset="5162525">
    <nd ref="213454518"/>
    <nd ref="213454857"/>
    <tag k="highway" v="residential"/>
    <tag k="maxspeed" v="50"/>
    <tag k="maxspeed:source" v="default residential speed limit in Australia"/>
    <tag k="name" v="Winchester Street"/>
  </way>
  <way id="20186482" version="3" timestamp="2011-06-04T10:02:31Z" uid="7617" user="Franc" changeset="8337628">
    <nd ref="213454518"/>
    <nd ref="1311675329"/>
    <tag k="highway" v="residential"/>
    <tag k="maxspeed" v="50"/>
    <tag k="maxspeed:source" v="default residential speed limit in Australia"/>
    <tag k="name" v="Winchester Street"/>
  </way>
  <way id="20186482" version="4" timestamp="2012-01-15T21:02:53Z" uid="147510" user="woodpeck_fixbot" changeset="10402983">
    <nd ref="213454518"/>
    <nd ref="1311675329"/>
    <tag k="highway" v="residential"/>
    <tag k="name" v="Winchester Street"/>
  </way>
  <way id="20186530" version="3" timestamp="2010-07-08T02:08:30Z" uid="74617" user="JohnSmith" changeset="5162525">
    <nd ref="213455071"/>
    <nd ref="213455775"/>
    <nd ref="69795232"/>
    <nd ref="213455457"/>
    <tag k="highway" v="residential"/>
    <tag k="maxspeed" v="50"/>
    <tag k="maxspeed:source" v="default residential speed limit in Australia"/>
    <tag k="name" v="Garfield Street"/>
  </way>
  <way id="20186530" version="4" timestamp="2012-01-15T21:02:54Z" uid="147510" user="woodpeck_fixbot" changeset="10402983">
    <nd ref="213455071"/>
    <nd ref="213455775"/>
    <nd ref="69795232"/>
    <nd ref="213455457"/>
    <tag k="highway" v="residential"/>
    <tag k="name" v="Garfield Street"/>
  </way>
  <way id="20186586" version="2" timestamp="2009-03-28T13:02:25Z" uid="7617" user="Franc" changeset="865362">
    <nd ref="213455775"/>
    <nd ref="366545975"/>
    <nd ref="213456337"/>
    <tag k="created_by" v="Potlatch 0.6a"/>
    <tag k="highway" v="residential"/>
    <tag k="name" v="Bembridge Street"/>
  </way>
  <way id="20186586" version="3" timestamp="2010-07-08T02:08:54Z" uid="74617" user="JohnSmith" changeset="5162525">
    <nd ref="213455775"/>
    <nd ref="366545975"/>
    <nd ref="213456337"/>
    <tag k="highway" v="residential"/>
    <tag k="maxspeed" v="50"/>
    <tag k="maxspeed:source" v="default residential speed limit in Australia"/>
    <tag k="name" v="Bembridge Street"/>
  </way>
  <way id="20186586" version="4" timestamp="2012-01-15T21:02:56Z" uid="147510" user="woodpeck_fixbot" changeset="10402983">
    <nd ref="213455775"/>
    <nd ref="366545975"/>
    <nd ref="213456337"/>
    <tag k="highway" v="residential"/>
    <tag k="name" v="Bembridge Street"/>
  </way>
  <way id="20186659" version="2" timestamp="2008-11-12T21:36:57Z" uid="7617" user="Franc" changeset="738861">
    <nd ref="213456970"/>
    <nd ref="311635752"/>
    <nd ref="213457270"/>
    <tag k="created_by" v="Potlatch 0.6a"/>
    <tag k="highway" v="residential"/>
    <tag k="name" v="Rutland Street"/>
  </way>
  <way id="20186659" version="3" timestamp="2010-07-08T02:08:36Z" uid="74617" user="JohnSmith" changeset="5162525">
    <nd ref="213456970"/>
    <nd ref="311635752"/>
    <nd ref="213457270"/>
    <tag k="highway" v="residential"/>
    <tag k="maxspeed" v="50"/>
    <tag k="maxspeed:source" v="default residential speed limit in Australia"/>
    <tag k="name" v="Rutland Street"/>
  </way>
  <way id="20186659" version="4" timestamp="2012-01-15T21:02:58Z" uid="147510" user="woodpeck_fixbot" changeset="10402983">
    <nd ref="213456970"/>
    <nd ref="311635752"/>
    <nd ref="213457270"/>
    <tag k="highway" v="residential"/>
    <tag k="name" v="Rutland Street"/>
  </way>
  <way id="20186700" version="2" timestamp="2008-11-12T21:37:01Z" uid="7617" user="Franc" changeset="738861">
    <nd ref="213457356"/>
    <nd ref="311635681"/>
    <nd ref="213457849"/>
    <nd ref="311635684"/>
    <nd ref="213457851"/>
    <tag k="created_by" v="Potlatch 0.6a"/>
    <tag k="highway" v="residential"/>
    <tag k="name" v="Lancelot Street"/>
  </way>
  <way id="20186700" version="3" timestamp="2008-11-13T00:54:13Z" uid="7617" user="Franc" changeset="741681">
    <nd ref="213457356"/>
    <nd ref="311635681"/>
    <nd ref="213457849"/>
    <nd ref="311635684"/>
    <nd ref="213457851"/>
    <tag k="created_by" v="Potlatch 0.6a"/>
    <tag k="highway" v="residential"/>
    <tag k="name" v="Lancelot Street"/>
    <tag k="source" v="survey"/>
  </way>
  <way id="20186700" version="4" timestamp="2010-02-23T07:39:27Z" uid="7617" user="Franc" changeset="3949884">
    <nd ref="213457356"/>
    <nd ref="311635681"/>
    <nd ref="213457849"/>
    <nd ref="311635684"/>
    <nd ref="651272530"/>
    <nd ref="213457851"/>
    <tag k="highway" v="residential"/>
    <tag k="name" v="Lancelot Street"/>
    <tag k="source" v="survey"/>
  </way>
  <way id="20186700" version="5" timestamp="2010-02-23T10:59:15Z" uid="7617" user="Franc" changeset="3952179">
    <nd ref="213457356"/>
    <nd ref="651376743"/>
    <nd ref="311635681"/>
    <nd ref="213457849"/>
    <nd ref="311635684"/>
    <nd ref="651272530"/>
    <nd ref="213457851"/>
    <tag k="highway" v="residential"/>
    <tag k="name" v="Lancelot Street"/>
    <tag k="source" v="survey"/>
  </way>
  <way id="20186700" version="6" timestamp="2010-07-08T02:08:16Z" uid="74617" user="JohnSmith" changeset="5162525">
    <nd ref="213457356"/>
    <nd ref="651376743"/>
    <nd ref="311635681"/>
    <nd ref="213457849"/>
    <nd ref="311635684"/>
    <nd ref="651272530"/>
    <nd ref="213457851"/>
    <tag k="highway" v="residential"/>
    <tag k="maxspeed" v="50"/>
    <tag k="maxspeed:source" v="default residential speed limit in Australia"/>
    <tag k="name" v="Lancelot Street"/>
    <tag k="source" v="survey"/>
  </way>
  <way id="20186700" version="7" timestamp="2010-08-17T13:01:14Z" uid="4467" user="Rosscoe" changeset="5517580">
    <nd ref="213457356"/>
    <nd ref="651376743"/>
    <nd ref="311635681"/>
    <nd ref="213457849"/>
    <nd ref="311635684"/>
    <nd ref="864687245"/>
    <tag k="highway" v="residential"/>
    <tag k="maxspeed" v="50"/>
    <tag k="maxspeed:source" v="default residential speed limit in Australia"/>
    <tag k="name" v="Lancelot Street"/>
    <tag k="source" v="survey"/>
  </way>
  <way id="20186700" version="8" timestamp="2012-01-15T21:02:59Z" uid="147510" user="woodpeck_fixbot" changeset="10402983">
    <nd ref="213457356"/>
    <nd ref="651376743"/>
    <nd ref="311635681"/>
    <nd ref="213457849"/>
    <nd ref="311635684"/>
    <nd ref="864687245"/>
    <tag k="highway" v="residential"/>
    <tag k="name" v="Lancelot Street"/>
    <tag k="source" v="survey"/>
  </way>
  <way id="20186969" version="5" timestamp="2010-08-18T09:23:04Z" uid="4467" user="Rosscoe" changeset="5524805">
    <nd ref="213442108"/>
    <nd ref="213462736"/>
    <tag k="highway" v="pedestrian"/>
    <tag k="name" v="N Tioga Street"/>
    <tag k="railway" v="abandoned"/>
    <tag k="tiger:cfcc" v="A41"/>
    <tag k="tiger:county" v="Tompkins, NY"/>
    <tag k="tiger:name_base" v="Tioga"/>
    <tag k="tiger:name_direction_prefix" v="N"/>
    <tag k="tiger:name_type" v="St"/>
    <tag k="tiger:separated" v="no"/>
    <tag k="tiger:source" v="tiger_import_dch_v0.6_20070829"/>
    <tag k="tiger:tlid" v="18857377:18857416:18857404:18857450:18857425:18857515:18869358:18862804:18857550:18857597:18857486:18857394:18857659:18857691:18872618:18872619"/>
    <tag k="tiger:upload_uuid" v="bulk_upload.pl-1ec2e582-b3f9-47a0-b7ec-81b1d2d47beb"/>
    <tag k="tiger:zip_left" v="14850"/>
    <tag k="tiger:zip_right" v="14850"/>
  </way>
</osm>
