<?xml version='1.0' encoding='UTF-8'?>
<osm version="0.6" generator="libosmium/2.20.0">
  <way id="20230752" version="1" timestamp="2008-01-10T00:56:41Z" uid="4467" user="Rosscoe" changeset="589280">
    <nd ref="204078494"/>
    <nd ref="214015341"/>
    <tag k="created_by" v="JOSM"/>
    <tag k="highway" v="secondary"/>
    <tag k="layer" v="1"/>
    <tag k="name" v="Mackay Bucasia Rd"/>
    <tag k="oneway" v="true"/>
    <tag k="source" v="gpsdrivetrack"/>
    <tag k="surface" v="paved"/>
  </way>
  <way id="20230752" version="2" timestamp="2008-01-10T02:42:12Z" uid="4467" user="Rosscoe" changeset="589280">
    <nd ref="204078494"/>
    <nd ref="214015341"/>
    <tag k="created_by" v="JOSM"/>
    <tag k="highway" v="secondary"/>
    <tag k="layer" v="1"/>
    <tag k="name" v="Mackay Bucasia Rd"/>
    <tag k="oneway" v="true"/>
    <tag k="source" v="gpsdrivetrack"/>
    <tag k="surface" v="paved"/>
  </way>
  <way id="20230752" version="3" timestamp="2008-01-24T23:33:59Z" uid="4467" user="Rosscoe" changeset="690603">
    <nd ref="204078494"/>
    <nd ref="243086735"/>
    <nd ref="214015341"/>
    <tag k="created_by" v="JOSM"/>
    <tag k="highway" v="secondary"/>
    <tag k="layer" v="1"/>
    <tag k="name" v="Mackay Bucasia Rd"/>
    <tag k="oneway" v="true"/>
    <tag k="source" v="gpsdrivetrack"/>
    <tag k="surface" v="paved"/>
  </way>
  <way id="20230752" version="4" timestamp="2008-09-17T23:21:36Z" uid="4467" user="Rosscoe" changeset="657563">
    <nd ref="204078494"/>
    <nd ref="243086735"/>
    <nd ref="214015341"/>
    <tag k="created_by" v="Potlatch 0.10b"/>
    <tag k="highway" v="secondary"/>
    <tag k="layer" v="1"/>
    <tag k="name" v="Mackay Bucasia Rd"/>
    <tag k="oneway" v="true"/>
    <tag k="source" v="survey"/>
    <tag k="surface" v="paved"/>
  </way>
  <way id="20230752" version="5" timestamp="2009-01-25T02:45:53Z" uid="4467" user="Rosscoe" changeset="835181">
    <nd ref="204078494"/>
    <nd ref="243086735"/>
    <nd ref="214015341"/>
    <tag k="created_by" v="Potlatch 0.10b"/>
    <tag k="highway" v="secondary"/>
    <tag k="layer" v="1"/>
    <tag k="name" v="Mackay Bucasia Rd"/>
    <tag k="oneway" v="yes"/>
    <tag k="source" v="survey"/>
    <tag k="surface" v="paved"/>
  </way>
  <way id="20230752" version="6" timestamp="2009-07-11T13:57:22Z" uid="4467" user="Rosscoe" changeset="1797591">
    <nd ref="204078494"/>
    <nd ref="243086735"/>
    <nd ref="214015341"/>
    <tag k="created_by" v="Potlatch 0.10b"/>
    <tag k="highway" v="secondary"/>
    <tag k="layer" v="1"/>
    <tag k="name" v="Mackay Bucasia Road"/>
    <tag k="oneway" v="yes"/>
    <tag k="source" v="survey"/>
    <tag k="surface" v="paved"/>
  </way>
  <way id="20230752" version="7" timestamp="2009-07-21T05:46:50Z" uid="4467" user="Rosscoe" changeset="1891308">
    <nd ref="204078494"/>
    <nd ref="444678906"/>
    <nd ref="214015341"/>
    <tag k="highway" v="secondary"/>
    <tag k="layer" v="1"/>
    <tag k="name" v="Mackay Bucasia Road"/>
    <tag k="oneway" v="yes"/>
    <tag k="source" v="survey"/>
    <tag k="surface" v="paved"/>
  </way>
  <way id="20230752" version="8" timestamp="2009-07-21T05:53:12Z" uid="4467" user="Rosscoe" changeset="1891334">
    <nd ref="204078494"/>
    <nd ref="444678906"/>
    <nd ref="214015341"/>
    <nd ref="444680020"/>
    <tag k="highway" v="secondary"/>
    <tag k="layer" v="1"/>
    <tag k="name" v="Mackay Bucasia Road"/>
    <tag k="oneway" v="yes"/>
    <tag k="source" v="survey"/>
    <tag k="surface" v="paved"/>
  </way>
  <way id="20230752" version="9" timestamp="2009-08-16T16:33:28Z" uid="74617" user="JohnSmith" changeset="2167665">
    <nd ref="204078494"/>
    <nd ref="444678906"/>
    <nd ref="214015341"/>
    <nd ref="444680020"/>
    <tag k="highway" v="secondary"/>
    <tag k="name" v="Mackay Bucasia Road"/>
    <tag k="oneway" v="yes"/>
    <tag k="source" v="survey"/>
    <tag k="surface" v="paved"/>
  </way>
  <way id="20230752" version="10" timestamp="2010-08-01T00:31:32Z" uid="4467" user="Rosscoe" changeset="5366982">
    <nd ref="204078494"/>
    <nd ref="841160561"/>
    <nd ref="444678906"/>
    <nd ref="214015341"/>
    <nd ref="841159971"/>
    <nd ref="841160531"/>
    <nd ref="444680020"/>
    <tag k="highway" v="secondary"/>
    <tag k="name" v="Mackay Bucasia Road"/>
    <tag k="oneway" v="yes"/>
    <tag k="source" v="survey"/>
    <tag k="surface" v="paved"/>
  </way>
  <way id="20230752" version="11" timestamp="2012-03-18T08:27:20Z" uid="603720" user="Andergrove1" changeset="11015802">
    <nd ref="204078494"/>
    <nd ref="841160561"/>
    <nd ref="444678906"/>
    <nd ref="214015341"/>
    <nd ref="841159971"/>
    <nd ref="841160531"/>
    <nd ref="444680020"/>
    <tag k="highway" v="primary"/>
    <tag k="name" v="Mackay Bucasia Road"/>
    <tag k="oneway" v="yes"/>
    <tag k="source" v="survey"/>
    <tag k="surface" v="paved"/>
  </way>
  <way id="20230755" version="1" timestamp="2008-01-10T00:56:43Z" uid="4467" user="Rosscoe" changeset="589280">
    <nd ref="214015341"/>
    <nd ref="204060231"/>
    <tag k="bridge" v="true"/>
    <tag k="created_by" v="JOSM"/>
    <tag k="highway" v="secondary"/>
    <tag k="layer" v="1"/>
    <tag k="name" v="Mackay Bucasia Rd"/>
    <tag k="oneway" v="true"/>
    <tag k="source" v="gpsdrivetrack"/>
    <tag k="surface" v="paved"/>
  </way>
  <way id="20230755" version="2" timestamp="2008-01-10T02:42:13Z" uid="4467" user="Rosscoe" changeset="589280">
    <nd ref="214015341"/>
    <nd ref="204060231"/>
    <tag k="bridge" v="true"/>
    <tag k="created_by" v="JOSM"/>
    <tag k="highway" v="secondary"/>
    <tag k="layer" v="1"/>
    <tag k="name" v="Mackay Bucasia Rd"/>
    <tag k="oneway" v="true"/>
    <tag k="source" v="gpsdrivetrack"/>
    <tag k="surface" v="paved"/>
  </way>
  <way id="20230755" version="3" timestamp="2008-01-24T23:34:03Z" uid="4467" user="Rosscoe" changeset="690603">
    <nd ref="214015341"/>
    <nd ref="243085165"/>
    <nd ref="204060231"/>
    <tag k="bridge" v="true"/>
    <tag k="created_by" v="JOSM"/>
    <tag k="highway" v="secondary"/>
    <tag k="layer" v="1"/>
    <tag k="name" v="Mackay Bucasia Rd"/>
    <tag k="oneway" v="true"/>
    <tag k="source" v="gpsdrivetrack"/>
    <tag k="surface" v="paved"/>
  </way>
  <way id="20230755" version="4" timestamp="2008-09-17T23:21:30Z" uid="4467" user="Rosscoe" changeset="657563">
    <nd ref="214015341"/>
    <nd ref="243085165"/>
    <nd ref="204060231"/>
    <tag k="bridge" v="true"/>
    <tag k="created_by" v="Potlatch 0.10b"/>
    <tag k="highway" v="secondary"/>
    <tag k="layer" v="1"/>
    <tag k="name" v="Mackay Bucasia Rd"/>
    <tag k="oneway" v="true"/>
    <tag k="source" v="survey"/>
    <tag k="surface" v="paved"/>
  </way>
  <way id="20230755" version="5" timestamp="2008-09-17T23:23:40Z" uid="4467" user="Rosscoe" changeset="657563">
    <nd ref="214015341"/>
    <nd ref="243085165"/>
    <nd ref="204060231"/>
    <tag k="created_by" v="Potlatch 0.10b"/>
    <tag k="highway" v="secondary"/>
    <tag k="layer" v="1"/>
    <tag k="name" v="Mackay Bucasia Rd"/>
    <tag k="oneway" v="true"/>
    <tag k="source" v="survey"/>
    <tag k="surface" v="paved"/>
  </way>
  <way id="20230755" version="6" timestamp="2009-01-25T02:45:54Z" uid="4467" user="Rosscoe" changeset="835181">
    <nd ref="214015341"/>
    <nd ref="243085165"/>
    <nd ref="204060231"/>
    <tag k="created_by" v="Potlatch 0.10b"/>
    <tag k="highway" v="secondary"/>
    <tag k="layer" v="1"/>
    <tag k="name" v="Mackay Bucasia Rd"/>
    <tag k="oneway" v="yes"/>
    <tag k="source" v="survey"/>
    <tag k="surface" v="paved"/>
  </way>
  <way id="20230755" version="7" timestamp="2009-07-11T13:57:22Z" uid="4467" user="Rosscoe" changeset="1797591">
    <nd ref="214015341"/>
    <nd ref="243085165"/>
    <nd ref="204060231"/>
    <tag k="created_by" v="Potlatch 0.10b"/>
    <tag k="highway" v="secondary"/>
    <tag k="layer" v="1"/>
    <tag k="name" v="Mackay Bucasia Road"/>
    <tag k="oneway" v="yes"/>
    <tag k="source" v="survey"/>
    <tag k="surface" v="paved"/>
  </way>
  <way id="20230755" version="8" timestamp="2009-07-21T05:53:12Z" uid="4467" user="Rosscoe" changeset="1891334">
    <nd ref="444680019"/>
    <nd ref="243085165"/>
    <nd ref="204060231"/>
    <tag k="highway" v="secondary"/>
    <tag k="layer" v="1"/>
    <tag k="name" v="Mackay Bucasia Road"/>
    <tag k="oneway" v="yes"/>
    <tag k="source" v="survey"/>
    <tag k="surface" v="paved"/>
  </way>
  <way id="20230755" version="9" timestamp="2009-08-16T16:33:26Z" uid="74617" user="JohnSmith" changeset="2167665">
    <nd ref="444680019"/>
    <nd ref="243085165"/>
    <nd ref="204060231"/>
    <tag k="highway" v="secondary"/>
    <tag k="name" v="Mackay Bucasia Road"/>
    <tag k="oneway" v="yes"/>
    <tag k="source" v="survey"/>
  </way>
  <way id="20230755" version="10" timestamp="2010-05-21T01:39:27Z" uid="4467" user="Rosscoe" changeset="4762572"/>
  <way id="20230758" version="1" timestamp="2008-01-10T00:56:44Z" uid="4467" user="Rosscoe" changeset="589280">
    <nd ref="213966440"/>
    <nd ref="214015341"/>
    <tag k="created_by" v="JOSM"/>
    <tag k="highway" v="secondary"/>
    <tag k="name" v="Mackay Bucasia Rd"/>
    <tag k="source" v="gpsdrivetrack"/>
    <tag k="surface" v="paved"/>
  </way>
  <way id="20230758" version="2" timestamp="2008-01-10T02:42:14Z" uid="4467" user="Rosscoe" changeset="589280">
    <nd ref="213966440"/>
    <nd ref="214015341"/>
    <tag k="created_by" v="JOSM"/>
    <tag k="highway" v="secondary"/>
    <tag k="name" v="Mackay Bucasia Rd"/>
    <tag k="source" v="gpsdrivetrack"/>
    <tag k="surface" v="paved"/>
  </way>
  <way id="20230758" version="3" timestamp="2008-09-17T23:21:20Z" uid="4467" user="Rosscoe" changeset="657563">
    <nd ref="213966440"/>
    <nd ref="214015341"/>
    <tag k="created_by" v="Potlatch 0.10b"/>
    <tag k="highway" v="secondary"/>
    <tag k="name" v="Mackay Bucasia Rd"/>
    <tag k="source" v="survey"/>
    <tag k="surface" v="paved"/>
  </way>
  <way id="20230758" version="4" timestamp="2009-06-04T02:17:53Z" uid="4467" user="Rosscoe" changeset="1418041">
    <nd ref="213966440"/>
    <nd ref="415524756"/>
    <tag k="created_by" v="Potlatch 0.10b"/>
    <tag k="highway" v="secondary"/>
    <tag k="name" v="Mackay Bucasia Rd"/>
    <tag k="source" v="survey"/>
    <tag k="surface" v="paved"/>
  </way>
  <way id="20230758" version="5" timestamp="2009-07-11T13:49:27Z" uid="4467" user="Rosscoe" changeset="1797502">
    <nd ref="213966440"/>
    <nd ref="415524756"/>
    <tag k="created_by" v="Potlatch 0.10b"/>
    <tag k="highway" v="secondary"/>
    <tag k="name" v="Mackay Bucasia Road"/>
    <tag k="source" v="survey"/>
    <tag k="surface" v="paved"/>
  </way>
  <way id="20230758" version="6" timestamp="2010-07-31T15:25:42Z" uid="4467" user="Rosscoe" changeset="5363424">
    <nd ref="213966440"/>
    <nd ref="415524756"/>
    <tag k="highway" v="secondary"/>
    <tag k="name" v="Mackay Bucasia Road"/>
    <tag k="oneway" v="yes"/>
    <tag k="source" v="survey"/>
    <tag k="surface" v="paved"/>
  </way>
  <way id="20230758" version="7" timestamp="2012-03-18T08:27:20Z" uid="603720" user="Andergrove1" changeset="11015802">
    <nd ref="213966440"/>
    <nd ref="415524756"/>
    <tag k="highway" v="primary"/>
    <tag k="name" v="Mackay Bucasia Road"/>
    <tag k="oneway" v="yes"/>
    <tag k="source" v="survey"/>
    <tag k="surface" v="paved"/>
  </way>
  <way id="20230764" version="1" timestamp="2008-01-10T00:56:45Z" uid="4467" user="Rosscoe" changeset="589280">
    <nd ref="213966425"/>
    <nd ref="213966440"/>
    <tag k="bridge" v="true"/>
    <tag k="created_by" v="JOSM"/>
    <tag k="highway" v="secondary"/>
    <tag k="layer" v="1"/>
    <tag k="name" v="Mackay Bucasia Rd"/>
    <tag k="source" v="gpsdrivetrack"/>
    <tag k="surface" v="paved"/>
  </way>
  <way id="20230764" version="2" timestamp="2008-01-10T02:42:16Z" uid="4467" user="Rosscoe" changeset="589280">
    <nd ref="213966425"/>
    <nd ref="213966440"/>
    <tag k="bridge" v="true"/>
    <tag k="created_by" v="JOSM"/>
    <tag k="highway" v="secondary"/>
    <tag k="layer" v="1"/>
    <tag k="name" v="Mackay Bucasia Rd"/>
    <tag k="source" v="gpsdrivetrack"/>
    <tag k="surface" v="paved"/>
  </way>
  <way id="20230764" version="3" timestamp="2008-09-17T23:21:05Z" uid="4467" user="Rosscoe" changeset="657563">
    <nd ref="213966425"/>
    <nd ref="213966440"/>
    <tag k="bridge" v="true"/>
    <tag k="created_by" v="Potlatch 0.10b"/>
    <tag k="highway" v="secondary"/>
    <tag k="layer" v="1"/>
    <tag k="name" v="Mackay Bucasia Rd"/>
    <tag k="source" v="survey"/>
    <tag k="surface" v="paved"/>
  </way>
  <way id="20230764" version="4" timestamp="2009-01-25T02:50:21Z" uid="4467" user="Rosscoe" changeset="835181">
    <nd ref="213966425"/>
    <nd ref="213966440"/>
    <tag k="bridge" v="yes"/>
    <tag k="created_by" v="Potlatch 0.10b"/>
    <tag k="highway" v="secondary"/>
    <tag k="layer" v="1"/>
    <tag k="name" v="Mackay Bucasia Rd"/>
    <tag k="source" v="survey"/>
    <tag k="surface" v="paved"/>
  </way>
  <way id="20230764" version="5" timestamp="2009-01-25T02:50:54Z" uid="4467" user="Rosscoe" changeset="835181">
    <nd ref="213966425"/>
    <nd ref="213966440"/>
    <tag k="bridge" v="yes"/>
    <tag k="created_by" v="Potlatch 0.10b"/>
    <tag k="highway" v="secondary"/>
    <tag k="layer" v="1"/>
    <tag k="name" v="Mackay Bucasia Rd"/>
    <tag k="osmarender:renderName" v="no"/>
    <tag k="osmarender:renderRef" v="no"/>
    <tag k="source" v="survey"/>
    <tag k="surface" v="paved"/>
  </way>
  <way id="20230764" version="6" timestamp="2009-07-11T13:41:55Z" uid="4467" user="Rosscoe" changeset="1797432">
    <nd ref="213966425"/>
    <nd ref="213966440"/>
    <tag k="bridge" v="yes"/>
    <tag k="created_by" v="Potlatch 0.10b"/>
    <tag k="highway" v="secondary"/>
    <tag k="layer" v="1"/>
    <tag k="name" v="Mackay Bucasia Road"/>
    <tag k="osmarender:renderName" v="no"/>
    <tag k="osmarender:renderRef" v="no"/>
    <tag k="source" v="survey"/>
    <tag k="surface" v="paved"/>
  </way>
  <way id="20230764" version="7" timestamp="2010-07-31T15:26:12Z" uid="4467" user="Rosscoe" changeset="5363424">
    <nd ref="213966425"/>
    <nd ref="213966440"/>
    <tag k="bridge" v="yes"/>
    <tag k="highway" v="secondary"/>
    <tag k="layer" v="1"/>
    <tag k="name" v="Mackay Bucasia Road"/>
    <tag k="oneway" v="yes"/>
    <tag k="osmarender:renderName" v="no"/>
    <tag k="osmarender:renderRef" v="no"/>
    <tag k="source" v="survey"/>
    <tag k="surface" v="paved"/>
  </way>
  <way id="20230764" version="8" timestamp="2011-09-01T02:27:54Z" uid="207745" user="NE2" changeset="9181205">
    <nd ref="213966425"/>
    <nd ref="213966440"/>
    <tag k="bridge" v="yes"/>
    <tag k="highway" v="secondary"/>
    <tag k="layer" v="1"/>
    <tag k="name" v="Mackay Bucasia Road"/>
    <tag k="oneway" v="yes"/>
    <tag k="source" v="survey"/>
    <tag k="surface" v="paved"/>
  </way>
  <way id="20230764" version="9" timestamp="2012-03-18T08:27:21Z" uid="603720" user="Andergrove1" changeset="11015802">
    <nd ref="213966425"/>
    <nd ref="213966440"/>
    <tag k="bridge" v="yes"/>
    <tag k="highway" v="primary"/>
    <tag k="layer" v="1"/>
    <tag k="name" v="Mackay Bucasia Road"/>
    <tag k="oneway" v="yes"/>
    <tag k="source" v="survey"/>
    <tag k="surface" v="paved"/>
  </way>
</osm>
