<?xml version='1.0' encoding='UTF-8'?>
<osm version="0.6" generator="libosmium/2.20.0">
  <way id="20253722" version="5" timestamp="2010-07-09T03:39:03Z" uid="74617" user="JohnSmith" changeset="5170825">
    <nd ref="214352646"/>
    <nd ref="214352647"/>
    <tag k="highway" v="residential"/>
    <tag k="maxspeed" v="50"/>
    <tag k="maxspeed:source" v="default residential speed limit in Australia"/>
    <tag k="name" v="Cain Court"/>
    <tag k="source" v="yahoo"/>
    <tag k="source:name" v="survey"/>
  </way>
  <way id="20253722" version="6" timestamp="2012-01-15T21:05:12Z" uid="147510" user="woodpeck_fixbot" changeset="10402983">
    <nd ref="214352646"/>
    <nd ref="214352647"/>
    <tag k="highway" v="residential"/>
    <tag k="name" v="Cain Court"/>
    <tag k="source" v="yahoo"/>
    <tag k="source:name" v="survey"/>
  </way>
  <way id="20253801" version="1" timestamp="2008-01-10T04:11:56Z" uid="4467" user="Rosscoe" changeset="595859">
    <nd ref="214353916"/>
    <nd ref="214353952"/>
    <nd ref="214353985"/>
    <nd ref="214353878"/>
    <nd ref="214353916"/>
    <tag k="amenity" v="school"/>
    <tag k="created_by" v="JOSM"/>
    <tag k="name" v="Whitsunday Christian College"/>
  </way>
  <way id="20253801" version="2" timestamp="2008-02-28T23:58:20Z" uid="4467" user="Rosscoe" changeset="228547">
    <nd ref="214353916"/>
    <nd ref="214353952"/>
    <nd ref="214353985"/>
    <nd ref="214353878"/>
    <nd ref="214353916"/>
    <tag k="amenity" v="school"/>
    <tag k="area" v="yes"/>
    <tag k="created_by" v="Potlatch 0.7b"/>
    <tag k="name" v="Whitsunday Christian College"/>
  </way>
  <way id="20253801" version="3" timestamp="2010-12-02T02:43:46Z" uid="4467" user="Rosscoe" changeset="6510823">
    <nd ref="214353916"/>
    <nd ref="214353952"/>
    <nd ref="214353985"/>
    <nd ref="214353878"/>
    <nd ref="1015346714"/>
    <nd ref="1015346720"/>
    <nd ref="214353916"/>
    <tag k="amenity" v="school"/>
    <tag k="area" v="yes"/>
    <tag k="name" v="Whitsunday Christian College"/>
  </way>
  <way id="20253936" version="4" timestamp="2010-07-07T09:14:59Z" uid="74617" user="JohnSmith" changeset="5156250">
    <nd ref="214356520"/>
    <nd ref="663927148"/>
    <nd ref="214356521"/>
    <tag k="highway" v="residential"/>
    <tag k="maxspeed" v="50"/>
    <tag k="maxspeed:source" v="default residential speed limit in Australia"/>
    <tag k="name" v="Moloney Close"/>
  </way>
  <way id="20253936" version="5" timestamp="2012-01-15T21:05:15Z" uid="147510" user="woodpeck_fixbot" changeset="10402983">
    <nd ref="214356520"/>
    <nd ref="663927148"/>
    <nd ref="214356521"/>
    <tag k="highway" v="residential"/>
    <tag k="name" v="Moloney Close"/>
  </way>
  <way id="20253951" version="4" timestamp="2010-07-07T09:12:23Z" uid="74617" user="JohnSmith" changeset="5156250">
    <nd ref="214356677"/>
    <nd ref="214356678"/>
    <tag k="highway" v="residential"/>
    <tag k="maxspeed" v="50"/>
    <tag k="maxspeed:source" v="default residential speed limit in Australia"/>
    <tag k="name" v="Crooke Close"/>
  </way>
  <way id="20253951" version="5" timestamp="2012-01-15T21:05:24Z" uid="147510" user="woodpeck_fixbot" changeset="10402983">
    <nd ref="214356677"/>
    <nd ref="214356678"/>
    <tag k="highway" v="residential"/>
    <tag k="name" v="Crooke Close"/>
  </way>
  <way id="20253968" version="3" timestamp="2010-07-07T09:19:14Z" uid="74617" user="JohnSmith" changeset="5156250">
    <nd ref="214356880"/>
    <nd ref="214356882"/>
    <tag k="highway" v="residential"/>
    <tag k="maxspeed" v="50"/>
    <tag k="maxspeed:source" v="default residential speed limit in Australia"/>
    <tag k="name" v="Zincke Close"/>
  </way>
  <way id="20253968" version="4" timestamp="2012-01-15T21:05:33Z" uid="147510" user="woodpeck_fixbot" changeset="10402983">
    <nd ref="214356880"/>
    <nd ref="214356882"/>
    <tag k="highway" v="residential"/>
    <tag k="name" v="Zincke Close"/>
  </way>
  <way id="20253986" version="4" timestamp="2010-07-07T09:12:36Z" uid="74617" user="JohnSmith" changeset="5156250">
    <nd ref="214357116"/>
    <nd ref="214357120"/>
    <tag k="highway" v="residential"/>
    <tag k="maxspeed" v="50"/>
    <tag k="maxspeed:source" v="default residential speed limit in Australia"/>
    <tag k="name" v="Samuel Close"/>
  </way>
  <way id="20253986" version="5" timestamp="2012-01-15T21:05:44Z" uid="147510" user="woodpeck_fixbot" changeset="10402983">
    <nd ref="214357116"/>
    <nd ref="214357120"/>
    <tag k="highway" v="residential"/>
    <tag k="name" v="Samuel Close"/>
  </way>
  <way id="20253999" version="4" timestamp="2010-07-07T09:20:31Z" uid="74617" user="JohnSmith" changeset="5156250">
    <nd ref="214357400"/>
    <nd ref="214357401"/>
    <nd ref="214357402"/>
    <nd ref="214357406"/>
    <nd ref="663927140"/>
    <nd ref="214357407"/>
    <tag k="highway" v="residential"/>
    <tag k="maxspeed" v="50"/>
    <tag k="maxspeed:source" v="default residential speed limit in Australia"/>
    <tag k="name" v="Langlands Close"/>
  </way>
  <way id="20253999" version="5" timestamp="2012-01-15T21:05:55Z" uid="147510" user="woodpeck_fixbot" changeset="10402983">
    <nd ref="214357400"/>
    <nd ref="214357401"/>
    <nd ref="214357402"/>
    <nd ref="214357406"/>
    <nd ref="663927140"/>
    <nd ref="214357407"/>
    <tag k="highway" v="residential"/>
    <tag k="name" v="Langlands Close"/>
  </way>
</osm>
