<?xml version='1.0' encoding='UTF-8'?>
<osm version="0.6" generator="libosmium/2.20.0">
  <way id="20329033" version="2" timestamp="2010-07-08T02:11:59Z" uid="74617" user="JohnSmith" changeset="5162525">
    <nd ref="215883425"/>
    <nd ref="215884622"/>
    <nd ref="215884624"/>
    <tag k="highway" v="residential"/>
    <tag k="maxspeed" v="50"/>
    <tag k="maxspeed:source" v="default residential speed limit in Australia"/>
    <tag k="name" v="Burraneer Close"/>
  </way>
  <way id="20329033" version="3" timestamp="2012-01-15T21:10:39Z" uid="147510" user="woodpeck_fixbot" changeset="10402983">
    <nd ref="215883425"/>
    <nd ref="215884622"/>
    <nd ref="215884624"/>
    <tag k="highway" v="residential"/>
    <tag k="name" v="Burraneer Close"/>
  </way>
  <way id="20329056" version="4" timestamp="2010-02-23T08:00:22Z" uid="7617" user="Franc" changeset="3950111">
    <nd ref="32658342"/>
    <nd ref="651276674"/>
    <nd ref="215889466"/>
    <nd ref="215891472"/>
    <nd ref="215885069"/>
    <tag k="highway" v="residential"/>
    <tag k="name" v="Empress Street"/>
  </way>
  <way id="20329056" version="5" timestamp="2010-07-08T02:09:37Z" uid="74617" user="JohnSmith" changeset="5162525">
    <nd ref="32658342"/>
    <nd ref="651276674"/>
    <nd ref="215889466"/>
    <nd ref="215891472"/>
    <nd ref="215885069"/>
    <tag k="highway" v="residential"/>
    <tag k="maxspeed" v="50"/>
    <tag k="maxspeed:source" v="default residential speed limit in Australia"/>
    <tag k="name" v="Empress Street"/>
  </way>
  <way id="20329056" version="6" timestamp="2012-01-15T21:10:40Z" uid="147510" user="woodpeck_fixbot" changeset="10402983">
    <nd ref="32658342"/>
    <nd ref="651276674"/>
    <nd ref="215889466"/>
    <nd ref="215891472"/>
    <nd ref="215885069"/>
    <tag k="highway" v="residential"/>
    <tag k="name" v="Empress Street"/>
  </way>
  <way id="20329227" version="3" timestamp="2010-02-23T08:00:24Z" uid="7617" user="Franc" changeset="3950111">
    <nd ref="215888543"/>
    <nd ref="651276663"/>
    <nd ref="215892734"/>
    <nd ref="215889463"/>
    <nd ref="215889465"/>
    <nd ref="651276675"/>
    <nd ref="651276674"/>
    <tag k="highway" v="service"/>
    <tag k="name" v="Empress Lane"/>
  </way>
  <way id="20329343" version="3" timestamp="2010-02-23T08:00:23Z" uid="7617" user="Franc" changeset="3950111">
    <nd ref="215891472"/>
    <nd ref="215892662"/>
    <nd ref="651276630"/>
    <tag k="highway" v="residential"/>
    <tag k="name" v="Finney Street"/>
  </way>
  <way id="20329343" version="4" timestamp="2010-07-08T02:11:24Z" uid="74617" user="JohnSmith" changeset="5162525">
    <nd ref="215891472"/>
    <nd ref="215892662"/>
    <nd ref="651276630"/>
    <tag k="highway" v="residential"/>
    <tag k="maxspeed" v="50"/>
    <tag k="maxspeed:source" v="default residential speed limit in Australia"/>
    <tag k="name" v="Finney Street"/>
  </way>
  <way id="20329343" version="5" timestamp="2012-01-15T21:10:41Z" uid="147510" user="woodpeck_fixbot" changeset="10402983">
    <nd ref="215891472"/>
    <nd ref="215892662"/>
    <nd ref="651276630"/>
    <tag k="highway" v="residential"/>
    <tag k="name" v="Finney Street"/>
  </way>
  <way id="20329503" version="2" timestamp="2008-12-05T22:01:35Z" uid="7617" user="Franc" changeset="131274">
    <nd ref="181242125"/>
    <nd ref="215888247"/>
    <nd ref="215891206"/>
    <nd ref="316861824"/>
    <nd ref="316861835"/>
    <nd ref="215897828"/>
    <tag k="created_by" v="Potlatch 0.6a"/>
    <tag k="highway" v="residential"/>
    <tag k="name" v="Cole Street"/>
  </way>
  <way id="20329503" version="3" timestamp="2010-02-23T08:00:23Z" uid="7617" user="Franc" changeset="3950111">
    <nd ref="181242125"/>
    <nd ref="651276643"/>
    <tag k="highway" v="residential"/>
    <tag k="name" v="Cole Street"/>
  </way>
  <way id="20329503" version="4" timestamp="2010-07-08T02:11:40Z" uid="74617" user="JohnSmith" changeset="5162525">
    <nd ref="181242125"/>
    <nd ref="651276643"/>
    <tag k="highway" v="residential"/>
    <tag k="maxspeed" v="50"/>
    <tag k="maxspeed:source" v="default residential speed limit in Australia"/>
    <tag k="name" v="Cole Street"/>
  </way>
  <way id="20329503" version="5" timestamp="2010-07-18T08:22:56Z" uid="30201" user="rrankin" changeset="5248739">
    <nd ref="181242125"/>
    <nd ref="215895157"/>
    <nd ref="651276643"/>
    <tag k="highway" v="residential"/>
    <tag k="maxspeed" v="50"/>
    <tag k="maxspeed:source" v="default residential speed limit in Australia"/>
    <tag k="name" v="Cole Street"/>
  </way>
  <way id="20329503" version="6" timestamp="2012-01-15T21:10:42Z" uid="147510" user="woodpeck_fixbot" changeset="10402983">
    <nd ref="181242125"/>
    <nd ref="215895157"/>
    <nd ref="651276643"/>
    <tag k="highway" v="residential"/>
    <tag k="name" v="Cole Street"/>
  </way>
  <way id="20329504" version="6" timestamp="2008-01-13T03:13:25Z" uid="7617" user="Franc" changeset="625122">
    <nd ref="215897828"/>
    <nd ref="215872213"/>
    <nd ref="215913024"/>
    <nd ref="215899500"/>
    <nd ref="215897846"/>
    <tag k="created_by" v="Potlatch 0.6a"/>
    <tag k="highway" v="residential"/>
    <tag k="name" v="George Street"/>
  </way>
  <way id="20329504" version="7" timestamp="2010-02-23T07:39:27Z" uid="7617" user="Franc" changeset="3949884">
    <nd ref="215897828"/>
    <nd ref="215872213"/>
    <nd ref="651272504"/>
    <tag k="highway" v="residential"/>
    <tag k="name" v="George Street"/>
  </way>
  <way id="20329504" version="8" timestamp="2010-02-23T08:00:24Z" uid="7617" user="Franc" changeset="3950111">
    <nd ref="215897828"/>
    <nd ref="651276646"/>
    <nd ref="215872213"/>
    <nd ref="651272504"/>
    <tag k="highway" v="residential"/>
    <tag k="name" v="George Street"/>
  </way>
  <way id="20329504" version="9" timestamp="2010-07-08T02:08:47Z" uid="74617" user="JohnSmith" changeset="5162525">
    <nd ref="215897828"/>
    <nd ref="651276646"/>
    <nd ref="215872213"/>
    <nd ref="651272504"/>
    <tag k="highway" v="residential"/>
    <tag k="maxspeed" v="50"/>
    <tag k="maxspeed:source" v="default residential speed limit in Australia"/>
    <tag k="name" v="George Street"/>
  </way>
  <way id="20329504" version="10" timestamp="2012-01-15T21:10:43Z" uid="147510" user="woodpeck_fixbot" changeset="10402983">
    <nd ref="215897828"/>
    <nd ref="651276646"/>
    <nd ref="215872213"/>
    <nd ref="651272504"/>
    <tag k="highway" v="residential"/>
    <tag k="name" v="George Street"/>
  </way>
  <way id="20329599" version="2" timestamp="2010-07-08T02:07:13Z" uid="74617" user="JohnSmith" changeset="5162525">
    <nd ref="215898158"/>
    <nd ref="215899455"/>
    <tag k="highway" v="residential"/>
    <tag k="maxspeed" v="50"/>
    <tag k="maxspeed:source" v="default residential speed limit in Australia"/>
    <tag k="name" v="George Street"/>
  </way>
  <way id="20329599" version="3" timestamp="2012-01-15T21:10:44Z" uid="147510" user="woodpeck_fixbot" changeset="10402983">
    <nd ref="215898158"/>
    <nd ref="215899455"/>
    <tag k="highway" v="residential"/>
    <tag k="name" v="George Street"/>
  </way>
  <way id="20329699" version="2" timestamp="2010-02-23T07:39:27Z" uid="7617" user="Franc" changeset="3949884">
    <nd ref="215899500"/>
    <nd ref="215901152"/>
    <nd ref="215901153"/>
    <tag k="highway" v="service"/>
    <tag k="name" v="Russel Lane"/>
    <tag k="restriction" v="school_zone"/>
  </way>
  <way id="20329732" version="2" timestamp="2010-12-25T21:39:22Z" uid="7617" user="Franc" changeset="6763901">
    <nd ref="215901152"/>
    <nd ref="1064601583"/>
    <nd ref="215901659"/>
    <tag k="highway" v="service"/>
    <tag k="name" v="Hardiman Place"/>
    <tag k="source" v="nearmap"/>
    <tag k="source:name" v="survey"/>
  </way>
  <way id="20329834" version="3" timestamp="2010-07-08T02:07:34Z" uid="74617" user="JohnSmith" changeset="5162525">
    <nd ref="215902703"/>
    <nd ref="215873546"/>
    <nd ref="215909156"/>
    <nd ref="215870969"/>
    <tag k="highway" v="residential"/>
    <tag k="maxspeed" v="50"/>
    <tag k="maxspeed:source" v="default residential speed limit in Australia"/>
    <tag k="name" v="Blakesley Street"/>
  </way>
  <way id="20329834" version="4" timestamp="2012-01-15T21:10:45Z" uid="147510" user="woodpeck_fixbot" changeset="10402983">
    <nd ref="215902703"/>
    <nd ref="215873546"/>
    <nd ref="215909156"/>
    <nd ref="215870969"/>
    <tag k="highway" v="residential"/>
    <tag k="name" v="Blakesley Street"/>
  </way>
  <way id="20329924" version="3" timestamp="2010-02-23T10:59:14Z" uid="7617" user="Franc" changeset="3952179">
    <nd ref="651376648"/>
    <nd ref="215909758"/>
    <nd ref="651376596"/>
    <nd ref="215909761"/>
    <nd ref="651376564"/>
    <tag k="highway" v="residential"/>
    <tag k="name" v="Planthurst Road"/>
  </way>
  <way id="20329924" version="4" timestamp="2010-07-08T02:11:05Z" uid="74617" user="JohnSmith" changeset="5162525">
    <nd ref="651376648"/>
    <nd ref="215909758"/>
    <nd ref="651376596"/>
    <nd ref="215909761"/>
    <nd ref="651376564"/>
    <tag k="highway" v="residential"/>
    <tag k="maxspeed" v="50"/>
    <tag k="maxspeed:source" v="default residential speed limit in Australia"/>
    <tag k="name" v="Planthurst Road"/>
  </way>
  <way id="20329924" version="5" timestamp="2012-01-15T21:10:46Z" uid="147510" user="woodpeck_fixbot" changeset="10402983">
    <nd ref="651376648"/>
    <nd ref="215909758"/>
    <nd ref="651376596"/>
    <nd ref="215909761"/>
    <nd ref="651376564"/>
    <tag k="highway" v="residential"/>
    <tag k="name" v="Planthurst Road"/>
  </way>
  <way id="20329924" version="6" timestamp="2012-03-21T02:39:03Z" uid="7523" user="inas" changeset="11047814">
    <nd ref="1684144882"/>
    <nd ref="651376648"/>
    <nd ref="215909758"/>
    <nd ref="651376596"/>
    <nd ref="215909761"/>
    <nd ref="651376564"/>
    <tag k="highway" v="residential"/>
    <tag k="name" v="Planthurst Road"/>
  </way>
  <way id="20329975" version="2" timestamp="2010-07-07T21:35:07Z" uid="74617" user="JohnSmith" changeset="5161069">
    <nd ref="215905625"/>
    <nd ref="215905992"/>
    <tag k="highway" v="residential"/>
    <tag k="maxspeed" v="50"/>
    <tag k="maxspeed:source" v="default residential speed limit in Australia"/>
    <tag k="name" v="Massey Street"/>
  </way>
  <way id="20329975" version="3" timestamp="2012-01-15T21:10:47Z" uid="147510" user="woodpeck_fixbot" changeset="10402983">
    <nd ref="215905625"/>
    <nd ref="215905992"/>
    <tag k="highway" v="residential"/>
    <tag k="name" v="Massey Street"/>
  </way>
  <way id="20329975" version="4" timestamp="2012-03-21T02:44:02Z" uid="7523" user="inas" changeset="11047827">
    <nd ref="1684145992"/>
    <nd ref="215905992"/>
    <tag k="highway" v="residential"/>
    <tag k="name" v="Massey Street"/>
  </way>
</osm>
