<?xml version='1.0' encoding='UTF-8'?>
<osm version="0.6" generator="libosmium/2.20.0">
  <way id="20396065" version="4" timestamp="2008-08-14T20:09:33Z" uid="6975" user="ulfl" changeset="264731">
    <nd ref="146230020"/>
    <nd ref="130204247"/>
    <nd ref="187340254"/>
    <nd ref="130204248"/>
    <nd ref="194335591"/>
    <nd ref="158745428"/>
    <nd ref="217611973"/>
    <nd ref="158745049"/>
    <nd ref="160047655"/>
    <nd ref="158750051"/>
    <nd ref="194336649"/>
    <tag k="highway" v="primary"/>
    <tag k="int_name" v="Megas Alexandros Avenue"/>
    <tag k="name" v="Leoforos Kathigiti Rossidou"/>
    <tag k="oneway" v="yes"/>
  </way>
  <way id="20396065" version="5" timestamp="2008-08-31T15:15:00Z" uid="49322" user="alichani" changeset="478288">
    <nd ref="146230020"/>
    <nd ref="130204247"/>
    <nd ref="187340254"/>
    <nd ref="130204248"/>
    <nd ref="194335591"/>
    <nd ref="158745428"/>
    <nd ref="217611973"/>
    <nd ref="158745049"/>
    <nd ref="160047655"/>
    <nd ref="158750051"/>
    <nd ref="194336649"/>
    <tag k="highway" v="primary"/>
    <tag k="name" v="Leoforos Kathigiti Rossidou"/>
    <tag k="oneway" v="yes"/>
  </way>
  <way id="20396065" version="6" timestamp="2008-09-01T09:00:06Z" uid="49322" user="alichani" changeset="481701">
    <nd ref="146230020"/>
    <nd ref="130204247"/>
    <nd ref="187340254"/>
    <nd ref="130204248"/>
    <nd ref="194335591"/>
    <nd ref="158745428"/>
    <nd ref="217611973"/>
    <nd ref="292822718"/>
    <nd ref="158745049"/>
    <nd ref="160047655"/>
    <nd ref="158750051"/>
    <nd ref="194336649"/>
    <tag k="highway" v="primary"/>
    <tag k="name" v="Λεοφώρος Καθηγητή Ρουσσίδου"/>
    <tag k="name:en" v="Kathigiti Roussidou Avenue"/>
    <tag k="oneway" v="yes"/>
  </way>
  <way id="20396065" version="7" timestamp="2009-12-19T00:43:45Z" uid="194504" user="fidusa" changeset="3404402">
    <nd ref="146230020"/>
    <nd ref="130204247"/>
    <nd ref="187340254"/>
    <nd ref="130204248"/>
    <nd ref="194335591"/>
    <nd ref="158745428"/>
    <nd ref="217611973"/>
    <nd ref="292822718"/>
    <nd ref="158745049"/>
    <nd ref="160047655"/>
    <nd ref="158750051"/>
    <nd ref="194336649"/>
    <tag k="highway" v="secondary"/>
    <tag k="name" v="Λεοφώρος Καθηγητή Ρουσσίδου"/>
    <tag k="name:en" v="Kathigiti Roussidou Avenue"/>
    <tag k="oneway" v="yes"/>
  </way>
  <way id="20396065" version="8" timestamp="2011-09-30T21:39:16Z" uid="23785" user="greecemapper" changeset="9439106">
    <nd ref="146230020"/>
    <nd ref="130204247"/>
    <nd ref="187340254"/>
    <nd ref="130204248"/>
    <tag k="highway" v="secondary"/>
    <tag k="name" v="Λεοφώρος Καθηγητή Ρουσσίδου"/>
    <tag k="name:en" v="Kathigiti Roussidou Avenue"/>
    <tag k="oneway" v="yes"/>
  </way>
  <way id="20396065" version="9" timestamp="2011-10-03T19:15:06Z" uid="23785" user="greecemapper" changeset="9463540">
    <nd ref="146230020"/>
    <nd ref="187340254"/>
    <nd ref="130204248"/>
    <tag k="highway" v="secondary"/>
    <tag k="name" v="Λεοφώρος Καθηγητή Ρουσσίδου"/>
    <tag k="name:en" v="Kathigiti Roussidou Avenue"/>
    <tag k="oneway" v="yes"/>
  </way>
  <way id="20396190" version="5" timestamp="2010-07-06T10:09:23Z" uid="74617" user="JohnSmith" changeset="5147679">
    <nd ref="119207606"/>
    <nd ref="119238732"/>
    <nd ref="217228914"/>
    <tag k="highway" v="residential"/>
    <tag k="maxspeed" v="50"/>
    <tag k="maxspeed:source" v="default residential speed limit in Australia"/>
    <tag k="name" v="Fifth Avenue"/>
    <tag k="name:source" v="Appears in out of copyright estate map. http://onesearch.slq.qld.gov.au/primo_library/libweb/action/getItAction.do?indx=387&amp;ct=getit&amp;doc=slq_voyager758624&amp;frbg=&amp;dum=true&amp;vl(1UI0)=contains&amp;vid=SLQ&amp;vl(58818275UI1)=all_items&amp;srt=rank&amp;indx=381&amp;tab=default_tab"/>
  </way>
  <way id="20396190" version="6" timestamp="2010-08-16T01:57:10Z" uid="4467" user="Rosscoe" changeset="5505701">
    <nd ref="119207606"/>
    <nd ref="119238732"/>
    <nd ref="217228914"/>
    <tag k="highway" v="residential"/>
    <tag k="maxspeed" v="50"/>
    <tag k="name" v="Fifth Avenue"/>
    <tag k="source:maxspeed" v="default residential speed limit in Australia"/>
    <tag k="source:name" v="Appears in out of copyright estate map. http://onesearch.slq.qld.gov.au/primo_library/libweb/action/getItAction.do?indx=387&amp;ct=getit&amp;doc=slq_voyager758624&amp;frbg=&amp;dum=true&amp;vl(1UI0)=contains&amp;vid=SLQ&amp;vl(58818275UI1)=all_items&amp;srt=rank&amp;indx=381&amp;tab=default_tab"/>
  </way>
  <way id="20396190" version="7" timestamp="2012-01-15T21:11:45Z" uid="147510" user="woodpeck_fixbot" changeset="10402983">
    <nd ref="119207606"/>
    <nd ref="119238732"/>
    <nd ref="217228914"/>
    <tag k="highway" v="residential"/>
    <tag k="name" v="Fifth Avenue"/>
    <tag k="source:maxspeed" v="default residential speed limit in Australia"/>
    <tag k="source:name" v="Appears in out of copyright estate map. http://onesearch.slq.qld.gov.au/primo_library/libweb/action/getItAction.do?indx=387&amp;ct=getit&amp;doc=slq_voyager758624&amp;frbg=&amp;dum=true&amp;vl(1UI0)=contains&amp;vid=SLQ&amp;vl(58818275UI1)=all_items&amp;srt=rank&amp;indx=381&amp;tab=default_tab"/>
  </way>
  <way id="20396303" version="6" timestamp="2010-07-06T10:10:44Z" uid="74617" user="JohnSmith" changeset="5147679">
    <nd ref="81333252"/>
    <nd ref="106509939"/>
    <nd ref="106509938"/>
    <tag k="highway" v="residential"/>
    <tag k="maxspeed" v="50"/>
    <tag k="maxspeed:source" v="default residential speed limit in Australia"/>
    <tag k="name" v="Saint Leonards Street"/>
  </way>
  <way id="20396303" version="7" timestamp="2010-08-16T01:57:37Z" uid="4467" user="Rosscoe" changeset="5505701">
    <nd ref="862412986"/>
    <nd ref="81333252"/>
    <nd ref="106509939"/>
    <nd ref="106509938"/>
    <tag k="highway" v="residential"/>
    <tag k="maxspeed" v="50"/>
    <tag k="name" v="Saint Leonards Street"/>
    <tag k="source:maxspeed" v="default residential speed limit in Australia"/>
  </way>
  <way id="20396303" version="8" timestamp="2012-01-15T21:11:48Z" uid="147510" user="woodpeck_fixbot" changeset="10402983">
    <nd ref="862412986"/>
    <nd ref="81333252"/>
    <nd ref="106509939"/>
    <nd ref="106509938"/>
    <tag k="highway" v="residential"/>
    <tag k="name" v="Saint Leonards Street"/>
    <tag k="source:maxspeed" v="default residential speed limit in Australia"/>
  </way>
  <way id="20396646" version="5" timestamp="2010-07-06T10:13:02Z" uid="74617" user="JohnSmith" changeset="5147679">
    <nd ref="106509935"/>
    <nd ref="217282855"/>
    <tag k="highway" v="residential"/>
    <tag k="maxspeed" v="50"/>
    <tag k="maxspeed:source" v="default residential speed limit in Australia"/>
    <tag k="name" v="Primmer Street"/>
  </way>
  <way id="20396646" version="6" timestamp="2010-08-16T01:55:40Z" uid="4467" user="Rosscoe" changeset="5505701">
    <nd ref="106509935"/>
    <nd ref="217282855"/>
    <tag k="highway" v="residential"/>
    <tag k="maxspeed" v="50"/>
    <tag k="name" v="Primmer Street"/>
    <tag k="source:maxspeed" v="default residential speed limit in Australia"/>
  </way>
  <way id="20396646" version="7" timestamp="2012-01-15T21:11:49Z" uid="147510" user="woodpeck_fixbot" changeset="10402983">
    <nd ref="106509935"/>
    <nd ref="217282855"/>
    <tag k="highway" v="residential"/>
    <tag k="name" v="Primmer Street"/>
    <tag k="source:maxspeed" v="default residential speed limit in Australia"/>
  </way>
  <way id="20396685" version="4" timestamp="2010-07-06T10:09:17Z" uid="74617" user="JohnSmith" changeset="5147679">
    <nd ref="81941760"/>
    <nd ref="217283549"/>
    <nd ref="217283550"/>
    <nd ref="217283552"/>
    <nd ref="217283553"/>
    <tag k="highway" v="residential"/>
    <tag k="maxspeed" v="50"/>
    <tag k="maxspeed:source" v="default residential speed limit in Australia"/>
    <tag k="name" v="Ripon Street"/>
  </way>
  <way id="20396685" version="5" timestamp="2010-08-16T01:55:31Z" uid="4467" user="Rosscoe" changeset="5505701">
    <nd ref="81941760"/>
    <nd ref="217283549"/>
    <nd ref="217283550"/>
    <nd ref="217283552"/>
    <nd ref="217283553"/>
    <tag k="highway" v="residential"/>
    <tag k="maxspeed" v="50"/>
    <tag k="name" v="Ripon Street"/>
    <tag k="source:maxspeed" v="default residential speed limit in Australia"/>
  </way>
  <way id="20396685" version="6" timestamp="2012-01-15T21:11:50Z" uid="147510" user="woodpeck_fixbot" changeset="10402983">
    <nd ref="81941760"/>
    <nd ref="217283549"/>
    <nd ref="217283550"/>
    <nd ref="217283552"/>
    <nd ref="217283553"/>
    <tag k="highway" v="residential"/>
    <tag k="name" v="Ripon Street"/>
    <tag k="source:maxspeed" v="default residential speed limit in Australia"/>
  </way>
  <way id="20396822" version="5" timestamp="2010-07-06T10:09:11Z" uid="74617" user="JohnSmith" changeset="5147679">
    <nd ref="217287922"/>
    <nd ref="217282855"/>
    <nd ref="217287923"/>
    <nd ref="217287926"/>
    <tag k="highway" v="residential"/>
    <tag k="maxspeed" v="50"/>
    <tag k="maxspeed:source" v="default residential speed limit in Australia"/>
    <tag k="name" v="Lackey Avenue"/>
  </way>
  <way id="20396822" version="6" timestamp="2010-08-16T01:55:56Z" uid="4467" user="Rosscoe" changeset="5505701">
    <nd ref="217287922"/>
    <nd ref="217282855"/>
    <nd ref="217287923"/>
    <nd ref="217287926"/>
    <tag k="highway" v="residential"/>
    <tag k="maxspeed" v="50"/>
    <tag k="name" v="Lackey Avenue"/>
    <tag k="source:maxspeed" v="default residential speed limit in Australia"/>
  </way>
  <way id="20396822" version="7" timestamp="2012-01-15T21:11:52Z" uid="147510" user="woodpeck_fixbot" changeset="10402983">
    <nd ref="217287922"/>
    <nd ref="217282855"/>
    <nd ref="217287923"/>
    <nd ref="217287926"/>
    <tag k="highway" v="residential"/>
    <tag k="name" v="Lackey Avenue"/>
    <tag k="source:maxspeed" v="default residential speed limit in Australia"/>
  </way>
  <way id="20396853" version="5" timestamp="2010-07-06T09:58:53Z" uid="74617" user="JohnSmith" changeset="5147679">
    <nd ref="217289018"/>
    <nd ref="217228917"/>
    <nd ref="385281778"/>
    <tag k="highway" v="residential"/>
    <tag k="maxspeed" v="50"/>
    <tag k="maxspeed:source" v="default residential speed limit in Australia"/>
    <tag k="name" v="Saint Leonards Street"/>
  </way>
  <way id="20396853" version="6" timestamp="2010-08-16T01:55:42Z" uid="4467" user="Rosscoe" changeset="5505701">
    <nd ref="217289018"/>
    <nd ref="862412993"/>
    <nd ref="862413042"/>
    <nd ref="217228917"/>
    <nd ref="385281778"/>
    <tag k="highway" v="residential"/>
    <tag k="maxspeed" v="50"/>
    <tag k="name" v="Saint Leonards Street"/>
    <tag k="source:maxspeed" v="default residential speed limit in Australia"/>
  </way>
  <way id="20396853" version="7" timestamp="2012-01-15T21:11:53Z" uid="147510" user="woodpeck_fixbot" changeset="10402983">
    <nd ref="217289018"/>
    <nd ref="862412993"/>
    <nd ref="862413042"/>
    <nd ref="217228917"/>
    <nd ref="385281778"/>
    <tag k="highway" v="residential"/>
    <tag k="name" v="Saint Leonards Street"/>
    <tag k="source:maxspeed" v="default residential speed limit in Australia"/>
  </way>
  <way id="20396897" version="5" timestamp="2010-07-06T10:00:41Z" uid="74617" user="JohnSmith" changeset="5147679">
    <nd ref="385281776"/>
    <nd ref="217283553"/>
    <nd ref="217290975"/>
    <tag k="highway" v="residential"/>
    <tag k="maxspeed" v="50"/>
    <tag k="maxspeed:source" v="default residential speed limit in Australia"/>
    <tag k="name" v="Barnes Avenue"/>
  </way>
  <way id="20396897" version="6" timestamp="2010-08-16T01:56:10Z" uid="4467" user="Rosscoe" changeset="5505701">
    <nd ref="385281776"/>
    <nd ref="217283553"/>
    <nd ref="862412955"/>
    <nd ref="217290975"/>
    <tag k="highway" v="residential"/>
    <tag k="maxspeed" v="50"/>
    <tag k="name" v="Barnes Avenue"/>
    <tag k="source:maxspeed" v="default residential speed limit in Australia"/>
  </way>
  <way id="20396897" version="7" timestamp="2012-01-15T21:11:54Z" uid="147510" user="woodpeck_fixbot" changeset="10402983">
    <nd ref="385281776"/>
    <nd ref="217283553"/>
    <nd ref="862412955"/>
    <nd ref="217290975"/>
    <tag k="highway" v="residential"/>
    <tag k="name" v="Barnes Avenue"/>
    <tag k="source:maxspeed" v="default residential speed limit in Australia"/>
  </way>
</osm>
