<?xml version='1.0' encoding='UTF-8'?>
<osm version="0.6" generator="libosmium/2.20.0">
  <way id="20465268" version="3" timestamp="2008-07-05T18:39:40Z" uid="6975" user="ulfl" changeset="398437">
    <nd ref="218744445"/>
    <nd ref="218744451"/>
    <nd ref="218744434"/>
    <nd ref="218744459"/>
    <nd ref="218744466"/>
    <nd ref="218744477"/>
    <nd ref="218744445"/>
    <tag k="leisure" v="sports_centre"/>
    <tag k="name" v="Schützenhaus"/>
  </way>
  <way id="20465268" version="4" timestamp="2011-03-26T23:36:40Z" uid="24646" user="Alexander Eickhoff" changeset="7681221">
    <nd ref="218744445"/>
    <nd ref="218744451"/>
    <nd ref="218744434"/>
    <nd ref="218744459"/>
    <nd ref="218744466"/>
    <nd ref="218744477"/>
    <nd ref="218744445"/>
    <tag k="leisure" v="sports_centre"/>
    <tag k="name" v="Schützenhaus"/>
    <tag k="sport" v="shooting"/>
  </way>
  <way id="20465268" version="5" timestamp="2011-03-27T00:01:17Z" uid="24646" user="Alexander Eickhoff" changeset="7681322">
    <nd ref="218744445"/>
    <nd ref="218744451"/>
    <nd ref="218744434"/>
    <nd ref="218744459"/>
    <nd ref="218744466"/>
    <nd ref="218744477"/>
    <nd ref="218744445"/>
    <tag k="addr:housenumber" v="8"/>
    <tag k="addr:street" v="Reintalstraße"/>
    <tag k="leisure" v="sports_centre"/>
    <tag k="name" v="Schützenhaus"/>
    <tag k="sport" v="shooting"/>
  </way>
</osm>
