<?xml version='1.0' encoding='UTF-8'?>
<osm version="0.6" generator="libosmium/2.20.0">
  <way id="20463361" version="1" timestamp="2008-01-11T18:35:45Z" uid="9581" user="Lobelt" changeset="606174">
    <nd ref="31126552"/>
    <nd ref="218704983"/>
    <nd ref="31072012"/>
    <tag k="created_by" v="JOSM"/>
    <tag k="highway" v="unclassified"/>
    <tag k="name" v="Lipezker Straße"/>
    <tag k="oneway" v="true"/>
  </way>
  <way id="20463361" version="2" timestamp="2008-02-19T13:54:46Z" uid="14029" user="MartinDornfelder" changeset="159486">
    <nd ref="31126552"/>
    <nd ref="218704983"/>
    <nd ref="31072012"/>
    <tag k="created_by" v="Potlatch 0.7b"/>
    <tag k="cycleway" v="track"/>
    <tag k="highway" v="unclassified"/>
    <tag k="name" v="Lipezker Straße"/>
    <tag k="oneway" v="true"/>
  </way>
  <way id="20463361" version="3" timestamp="2008-03-05T13:20:40Z" uid="9581" user="Lobelt" changeset="271215">
    <nd ref="31126552"/>
    <nd ref="218704983"/>
    <nd ref="31072012"/>
    <tag k="created_by" v="Potlatch 0.7b"/>
    <tag k="cycleway" v="track"/>
    <tag k="highway" v="tertiary"/>
    <tag k="name" v="Lipezker Straße"/>
    <tag k="oneway" v="true"/>
  </way>
  <way id="20463361" version="4" timestamp="2009-01-12T13:29:44Z" uid="42123" user="Ropino" changeset="779663">
    <nd ref="31126552"/>
    <nd ref="218704983"/>
    <nd ref="31072012"/>
    <tag k="created_by" v="Potlatch 0.7b"/>
    <tag k="cycleway" v="track"/>
    <tag k="highway" v="tertiary"/>
    <tag k="name" v="Lipezker Straße"/>
    <tag k="oneway" v="yes"/>
  </way>
  <way id="20463361" version="5" timestamp="2009-07-24T10:00:21Z" uid="137626" user="Dr Jan Itor" changeset="1923564">
    <nd ref="31126552"/>
    <nd ref="218704983"/>
    <nd ref="31072012"/>
    <tag k="highway" v="tertiary"/>
    <tag k="name" v="Lipezker Straße"/>
    <tag k="oneway" v="yes"/>
  </way>
  <way id="20463361" version="6" timestamp="2010-08-26T22:10:25Z" uid="235372" user="miraculixOSM" changeset="5603249">
    <nd ref="31126552"/>
    <nd ref="218704983"/>
    <nd ref="31072012"/>
    <tag k="highway" v="tertiary"/>
    <tag k="name" v="Lipezker Straße"/>
    <tag k="oneway" v="yes"/>
    <tag k="surface" v="asphalt"/>
  </way>
  <way id="20463361" version="7" timestamp="2011-06-16T21:31:48Z" uid="28234" user="derandi" changeset="8460433">
    <nd ref="31126552"/>
    <nd ref="218704983"/>
    <nd ref="1327950879"/>
    <nd ref="31072012"/>
    <tag k="highway" v="tertiary"/>
    <tag k="name" v="Lipezker Straße"/>
    <tag k="oneway" v="yes"/>
    <tag k="surface" v="asphalt"/>
  </way>
  <way id="20463361" version="8" timestamp="2011-10-02T15:04:27Z" uid="28234" user="derandi" changeset="9451668">
    <nd ref="31126552"/>
    <nd ref="218704983"/>
    <nd ref="1327950879"/>
    <nd ref="1452289083"/>
    <tag k="highway" v="tertiary"/>
    <tag k="name" v="Lipezker Straße"/>
    <tag k="oneway" v="yes"/>
    <tag k="surface" v="asphalt"/>
  </way>
  <way id="20463361" version="9" timestamp="2011-12-16T20:41:47Z" uid="28234" user="derandi" changeset="10134034"/>
  <way id="20463363" version="1" timestamp="2008-01-11T18:35:45Z" uid="9581" user="Lobelt" changeset="606174">
    <nd ref="30236043"/>
    <nd ref="32016312"/>
    <nd ref="31071771"/>
    <nd ref="31203078"/>
    <nd ref="31203079"/>
    <nd ref="31071780"/>
    <nd ref="31203080"/>
    <nd ref="31071781"/>
    <nd ref="31203077"/>
    <nd ref="31203076"/>
    <nd ref="31071782"/>
    <nd ref="31126548"/>
    <tag k="created_by" v="Potlatch 0.5d"/>
    <tag k="highway" v="secondary"/>
    <tag k="name" v="Lipezker Straße"/>
    <tag k="oneway" v="yes"/>
  </way>
  <way id="20463363" version="2" timestamp="2008-01-21T17:22:04Z" uid="9581" user="Lobelt" changeset="678108">
    <nd ref="30236043"/>
    <nd ref="32016312"/>
    <nd ref="31072052"/>
    <nd ref="31203078"/>
    <nd ref="31203079"/>
    <nd ref="31071780"/>
    <nd ref="31203080"/>
    <nd ref="31071781"/>
    <nd ref="31203077"/>
    <nd ref="31203076"/>
    <nd ref="31071782"/>
    <nd ref="31126548"/>
    <tag k="created_by" v="Potlatch 0.5d"/>
    <tag k="highway" v="secondary"/>
    <tag k="name" v="Lipezker Straße"/>
    <tag k="oneway" v="yes"/>
  </way>
  <way id="20463363" version="3" timestamp="2008-02-19T13:48:35Z" uid="14029" user="MartinDornfelder" changeset="159486">
    <nd ref="30236043"/>
    <nd ref="32016312"/>
    <nd ref="31072052"/>
    <nd ref="31203078"/>
    <nd ref="31203079"/>
    <nd ref="31071780"/>
    <nd ref="31203080"/>
    <nd ref="31071781"/>
    <nd ref="31203077"/>
    <nd ref="31203076"/>
    <nd ref="31071782"/>
    <nd ref="31126548"/>
    <tag k="created_by" v="Potlatch 0.7b"/>
    <tag k="cycleway" v="track"/>
    <tag k="highway" v="secondary"/>
    <tag k="name" v="Lipezker Straße"/>
    <tag k="oneway" v="yes"/>
  </way>
  <way id="20463363" version="4" timestamp="2008-07-07T10:07:01Z" uid="14029" user="MartinDornfelder" changeset="421513">
    <nd ref="30236043"/>
    <nd ref="32016312"/>
    <nd ref="31072052"/>
    <nd ref="31203078"/>
    <nd ref="276887881"/>
    <nd ref="31203079"/>
    <nd ref="31071780"/>
    <nd ref="31203080"/>
    <nd ref="31071781"/>
    <nd ref="31203077"/>
    <nd ref="31203076"/>
    <nd ref="31071782"/>
    <nd ref="31126548"/>
    <tag k="created_by" v="Potlatch 0.9c"/>
    <tag k="cycleway" v="track"/>
    <tag k="highway" v="secondary"/>
    <tag k="name" v="Lipezker Straße"/>
    <tag k="oneway" v="yes"/>
  </way>
  <way id="20463363" version="5" timestamp="2008-11-20T15:47:15Z" uid="77025" user="tecs" changeset="771676">
    <nd ref="30236043"/>
    <nd ref="32016312"/>
    <nd ref="31072052"/>
    <nd ref="31203078"/>
    <nd ref="276887881"/>
    <nd ref="31203079"/>
    <nd ref="31071780"/>
    <nd ref="31203080"/>
    <nd ref="31071781"/>
    <nd ref="31203077"/>
    <nd ref="313330091"/>
    <nd ref="31203076"/>
    <nd ref="313330174"/>
    <nd ref="31071782"/>
    <nd ref="31126548"/>
    <tag k="created_by" v="Merkaartor 0.12"/>
    <tag k="cycleway" v="track"/>
    <tag k="highway" v="secondary"/>
    <tag k="name" v="Lipezker Straße"/>
    <tag k="oneway" v="yes"/>
  </way>
  <way id="20463363" version="6" timestamp="2009-07-24T10:00:22Z" uid="137626" user="Dr Jan Itor" changeset="1923564">
    <nd ref="30236043"/>
    <nd ref="32016312"/>
    <nd ref="31072052"/>
    <nd ref="31203078"/>
    <nd ref="276887881"/>
    <nd ref="31203079"/>
    <nd ref="31071780"/>
    <nd ref="31203080"/>
    <nd ref="31071781"/>
    <nd ref="31203077"/>
    <nd ref="313330091"/>
    <nd ref="31203076"/>
    <nd ref="313330174"/>
    <nd ref="31071782"/>
    <nd ref="31126548"/>
    <tag k="highway" v="secondary"/>
    <tag k="name" v="Lipezker Straße"/>
    <tag k="oneway" v="yes"/>
  </way>
  <way id="20463363" version="7" timestamp="2010-07-03T22:09:44Z" uid="235372" user="miraculixOSM" changeset="5128517">
    <nd ref="30236043"/>
    <nd ref="32016312"/>
    <nd ref="799706293"/>
    <tag k="highway" v="secondary"/>
    <tag k="name" v="Lipezker Straße"/>
    <tag k="oneway" v="yes"/>
  </way>
  <way id="20463363" version="8" timestamp="2010-08-26T22:14:13Z" uid="235372" user="miraculixOSM" changeset="5603249">
    <nd ref="30236043"/>
    <nd ref="32016312"/>
    <nd ref="799706293"/>
    <tag k="highway" v="secondary"/>
    <tag k="name" v="Lipezker Straße"/>
    <tag k="oneway" v="yes"/>
    <tag k="surface" v="asphalt"/>
  </way>
  <way id="20463363" version="9" timestamp="2011-06-14T23:04:03Z" uid="28234" user="derandi" changeset="8442989">
    <nd ref="30236043"/>
    <nd ref="1325828952"/>
    <nd ref="1325828946"/>
    <nd ref="32016312"/>
    <nd ref="1325828939"/>
    <nd ref="799706293"/>
    <tag k="highway" v="secondary"/>
    <tag k="name" v="Lipezker Straße"/>
    <tag k="oneway" v="yes"/>
    <tag k="surface" v="asphalt"/>
  </way>
  <way id="20463363" version="10" timestamp="2011-06-18T22:38:34Z" uid="235372" user="miraculixOSM" changeset="8478828"/>
  <way id="20463364" version="1" timestamp="2008-01-11T18:35:45Z" uid="9581" user="Lobelt" changeset="606174">
    <nd ref="31126548"/>
    <nd ref="31126552"/>
    <tag k="created_by" v="Potlatch 0.5d"/>
    <tag k="highway" v="unclassified"/>
    <tag k="name" v="Lipezker Straße"/>
    <tag k="oneway" v="true"/>
  </way>
  <way id="20463364" version="2" timestamp="2008-02-19T13:54:35Z" uid="14029" user="MartinDornfelder" changeset="159486">
    <nd ref="31126548"/>
    <nd ref="31126552"/>
    <tag k="created_by" v="Potlatch 0.7b"/>
    <tag k="cycleway" v="track"/>
    <tag k="highway" v="unclassified"/>
    <tag k="name" v="Lipezker Straße"/>
    <tag k="oneway" v="true"/>
  </way>
  <way id="20463364" version="3" timestamp="2008-03-05T13:20:40Z" uid="9581" user="Lobelt" changeset="271215">
    <nd ref="31126548"/>
    <nd ref="31126552"/>
    <tag k="created_by" v="Potlatch 0.7b"/>
    <tag k="cycleway" v="track"/>
    <tag k="highway" v="tertiary"/>
    <tag k="name" v="Lipezker Straße"/>
    <tag k="oneway" v="true"/>
  </way>
  <way id="20463364" version="4" timestamp="2009-01-12T13:29:45Z" uid="42123" user="Ropino" changeset="779663">
    <nd ref="31126548"/>
    <nd ref="31126552"/>
    <tag k="created_by" v="Potlatch 0.7b"/>
    <tag k="cycleway" v="track"/>
    <tag k="highway" v="tertiary"/>
    <tag k="name" v="Lipezker Straße"/>
    <tag k="oneway" v="yes"/>
  </way>
  <way id="20463364" version="5" timestamp="2009-07-24T10:00:21Z" uid="137626" user="Dr Jan Itor" changeset="1923564">
    <nd ref="31126548"/>
    <nd ref="31126552"/>
    <tag k="highway" v="tertiary"/>
    <tag k="name" v="Lipezker Straße"/>
    <tag k="oneway" v="yes"/>
  </way>
  <way id="20463364" version="6" timestamp="2010-08-26T22:10:26Z" uid="235372" user="miraculixOSM" changeset="5603249">
    <nd ref="31126548"/>
    <nd ref="31126552"/>
    <tag k="highway" v="tertiary"/>
    <tag k="name" v="Lipezker Straße"/>
    <tag k="oneway" v="yes"/>
    <tag k="surface" v="asphalt"/>
  </way>
  <way id="20463364" version="7" timestamp="2011-10-02T15:04:27Z" uid="28234" user="derandi" changeset="9451668">
    <nd ref="1452289089"/>
    <nd ref="31126552"/>
    <tag k="highway" v="tertiary"/>
    <tag k="name" v="Lipezker Straße"/>
    <tag k="oneway" v="yes"/>
    <tag k="surface" v="asphalt"/>
  </way>
  <way id="20463364" version="8" timestamp="2011-12-16T20:41:47Z" uid="28234" user="derandi" changeset="10134034"/>
</osm>
