<?xml version='1.0' encoding='UTF-8'?>
<osm version="0.6" generator="libosmium/2.20.0">
  <way id="20490128" version="2" timestamp="2011-05-18T04:40:42Z" uid="27600" user="Islanit" changeset="8177700">
    <nd ref="219237170"/>
    <nd ref="219237173"/>
    <nd ref="219237177"/>
    <nd ref="219237181"/>
    <nd ref="219237185"/>
    <nd ref="219237170"/>
    <tag k="landuse" v="forest"/>
  </way>
  <way id="20490529" version="6" timestamp="2009-02-01T18:38:11Z" uid="34428" user="usm78-gis" changeset="31975">
    <nd ref="15757200"/>
    <nd ref="15757207"/>
    <nd ref="219244137"/>
    <nd ref="271098974"/>
    <nd ref="307875"/>
    <tag k="created_by" v="Potlatch 0.10e"/>
    <tag k="highway" v="secondary"/>
    <tag k="oneway" v="yes"/>
  </way>
  <way id="20490529" version="7" timestamp="2009-03-10T17:34:29Z" uid="24305" user="ZCC" changeset="778007">
    <nd ref="15757200"/>
    <nd ref="15757207"/>
    <nd ref="219244137"/>
    <nd ref="271098974"/>
    <nd ref="307875"/>
    <tag k="created_by" v="Potlatch 0.10e"/>
    <tag k="highway" v="secondary"/>
    <tag k="name" v="Светлановская пл."/>
    <tag k="oneway" v="yes"/>
  </way>
  <way id="20490529" version="8" timestamp="2009-03-17T06:02:41Z" uid="30590" user="KekcuHa" changeset="823875">
    <nd ref="15757200"/>
    <nd ref="15757207"/>
    <nd ref="219244137"/>
    <nd ref="271098974"/>
    <nd ref="307875"/>
    <tag k="addr:postcode" v="194156"/>
    <tag k="cladr:code" v="78000000000125200"/>
    <tag k="cladr:name" v="Светлановская"/>
    <tag k="cladr:suffix" v="Площадь"/>
    <tag k="highway" v="secondary"/>
    <tag k="name" v="Светлановская пл."/>
    <tag k="oneway" v="yes"/>
  </way>
  <way id="20490529" version="9" timestamp="2010-08-05T09:24:50Z" uid="136198" user="tmprec" changeset="5406126">
    <nd ref="15757200"/>
    <nd ref="15757207"/>
    <nd ref="219244137"/>
    <nd ref="307875"/>
    <tag k="addr:postcode" v="194156"/>
    <tag k="cladr:code" v="78000000000125200"/>
    <tag k="cladr:name" v="Светлановская"/>
    <tag k="cladr:suffix" v="Площадь"/>
    <tag k="highway" v="secondary"/>
    <tag k="name" v="Светлановская пл."/>
    <tag k="oneway" v="yes"/>
  </way>
  <way id="20490529" version="10" timestamp="2010-12-10T08:06:16Z" uid="380289" user="Fedor Snegov" changeset="6602738"/>
  <way id="20490551" version="13" timestamp="2009-02-01T18:47:02Z" uid="34428" user="usm78-gis" changeset="31975">
    <nd ref="307870"/>
    <nd ref="309149087"/>
    <nd ref="307855"/>
    <nd ref="273101768"/>
    <nd ref="307851"/>
    <tag k="created_by" v="Potlatch 0.10f"/>
    <tag k="highway" v="secondary"/>
    <tag k="lanes" v="3"/>
    <tag k="name" v="Богатырский пр."/>
    <tag k="oneway" v="yes"/>
  </way>
  <way id="20490551" version="14" timestamp="2009-02-23T12:41:56Z" uid="34428" user="usm78-gis" changeset="634299"/>
</osm>
