<?xml version='1.0' encoding='UTF-8'?>
<osm version="0.6" generator="libosmium/2.20.0">
  <way id="20548339" version="9" timestamp="2008-03-13T06:43:44Z" uid="7617" user="Franc" changeset="313247"/>
  <way id="20548720" version="4" timestamp="2010-07-08T02:11:53Z" uid="74617" user="JohnSmith" changeset="5162525">
    <nd ref="220410868"/>
    <nd ref="220413756"/>
    <nd ref="220413056"/>
    <nd ref="220411653"/>
    <nd ref="220411657"/>
    <tag k="highway" v="residential"/>
    <tag k="maxspeed" v="50"/>
    <tag k="maxspeed:source" v="default residential speed limit in Australia"/>
    <tag k="name" v="Maher Street"/>
  </way>
  <way id="20548720" version="5" timestamp="2010-12-25T21:39:12Z" uid="7617" user="Franc" changeset="6763901">
    <nd ref="220410868"/>
    <nd ref="220413756"/>
    <nd ref="220413056"/>
    <nd ref="1064601775"/>
    <tag k="highway" v="residential"/>
    <tag k="maxspeed" v="50"/>
    <tag k="maxspeed:source" v="default residential speed limit in Australia"/>
    <tag k="name" v="Maher Street"/>
  </way>
  <way id="20548720" version="6" timestamp="2012-01-15T21:14:42Z" uid="147510" user="woodpeck_fixbot" changeset="10402983">
    <nd ref="220410868"/>
    <nd ref="220413756"/>
    <nd ref="220413056"/>
    <nd ref="1064601775"/>
    <tag k="highway" v="residential"/>
    <tag k="name" v="Maher Street"/>
  </way>
  <way id="20548720" version="7" timestamp="2012-03-08T22:54:25Z" uid="7523" user="inas" changeset="10914785">
    <nd ref="220410868"/>
    <nd ref="220413756"/>
    <nd ref="220413056"/>
    <nd ref="220411653"/>
    <tag k="highway" v="residential"/>
    <tag k="name" v="Maher Street"/>
  </way>
  <way id="20548720" version="8" timestamp="2012-03-08T23:34:57Z" uid="7523" user="inas" changeset="10915020">
    <nd ref="220410868"/>
    <nd ref="220413756"/>
    <nd ref="220413056"/>
    <nd ref="1666659498"/>
    <tag k="highway" v="residential"/>
    <tag k="name" v="Maher Street"/>
  </way>
  <way id="20548747" version="3" timestamp="2010-02-23T08:00:23Z" uid="7617" user="Franc" changeset="3950111">
    <nd ref="220411765"/>
    <nd ref="651276625"/>
    <tag k="highway" v="residential"/>
    <tag k="name" v="Gallipoli Street"/>
    <tag k="restriction" v="school_zone"/>
  </way>
  <way id="20548747" version="4" timestamp="2010-07-08T02:13:11Z" uid="74617" user="JohnSmith" changeset="5162525">
    <nd ref="220411765"/>
    <nd ref="651276625"/>
    <tag k="highway" v="residential"/>
    <tag k="maxspeed" v="50"/>
    <tag k="maxspeed:source" v="default residential speed limit in Australia"/>
    <tag k="name" v="Gallipoli Street"/>
    <tag k="restriction" v="school_zone"/>
  </way>
  <way id="20548747" version="5" timestamp="2012-01-15T21:14:43Z" uid="147510" user="woodpeck_fixbot" changeset="10402983">
    <nd ref="220411765"/>
    <nd ref="651276625"/>
    <tag k="highway" v="residential"/>
    <tag k="name" v="Gallipoli Street"/>
    <tag k="restriction" v="school_zone"/>
  </way>
  <way id="20548776" version="2" timestamp="2010-07-08T02:12:19Z" uid="74617" user="JohnSmith" changeset="5162525">
    <nd ref="220412434"/>
    <nd ref="220413056"/>
    <nd ref="181256153"/>
    <tag k="highway" v="residential"/>
    <tag k="maxspeed" v="50"/>
    <tag k="maxspeed:source" v="default residential speed limit in Australia"/>
    <tag k="name" v="Mabel Street"/>
  </way>
  <way id="20548776" version="3" timestamp="2012-01-15T21:14:44Z" uid="147510" user="woodpeck_fixbot" changeset="10402983">
    <nd ref="220412434"/>
    <nd ref="220413056"/>
    <nd ref="181256153"/>
    <tag k="highway" v="residential"/>
    <tag k="name" v="Mabel Street"/>
  </way>
  <way id="20548816" version="2" timestamp="2010-07-08T02:07:25Z" uid="74617" user="JohnSmith" changeset="5162525">
    <nd ref="220413030"/>
    <nd ref="220413756"/>
    <nd ref="220413761"/>
    <tag k="highway" v="residential"/>
    <tag k="maxspeed" v="50"/>
    <tag k="maxspeed:source" v="default residential speed limit in Australia"/>
    <tag k="name" v="Alma Street"/>
  </way>
  <way id="20548816" version="3" timestamp="2012-01-15T21:14:45Z" uid="147510" user="woodpeck_fixbot" changeset="10402983">
    <nd ref="220413030"/>
    <nd ref="220413756"/>
    <nd ref="220413761"/>
    <tag k="highway" v="residential"/>
    <tag k="name" v="Alma Street"/>
  </way>
  <way id="20548860" version="3" timestamp="2008-02-12T05:18:10Z" uid="7617" user="Franc" changeset="107934">
    <nd ref="220413816"/>
    <nd ref="220415115"/>
    <nd ref="220414720"/>
    <tag k="created_by" v="Potlatch 0.6a"/>
    <tag k="highway" v="residential"/>
    <tag k="name" v="Salisbury Street"/>
  </way>
  <way id="20548860" version="4" timestamp="2010-07-08T02:11:09Z" uid="74617" user="JohnSmith" changeset="5162525">
    <nd ref="220413816"/>
    <nd ref="220415115"/>
    <nd ref="220414720"/>
    <tag k="highway" v="residential"/>
    <tag k="maxspeed" v="50"/>
    <tag k="maxspeed:source" v="default residential speed limit in Australia"/>
    <tag k="name" v="Salisbury Street"/>
  </way>
  <way id="20548860" version="5" timestamp="2012-01-15T21:14:46Z" uid="147510" user="woodpeck_fixbot" changeset="10402983">
    <nd ref="220413816"/>
    <nd ref="220415115"/>
    <nd ref="220414720"/>
    <tag k="highway" v="residential"/>
    <tag k="name" v="Salisbury Street"/>
  </way>
  <way id="20548895" version="3" timestamp="2010-07-08T02:09:55Z" uid="74617" user="JohnSmith" changeset="5162525">
    <nd ref="220414760"/>
    <nd ref="220416719"/>
    <nd ref="220415115"/>
    <tag k="highway" v="residential"/>
    <tag k="maxspeed" v="50"/>
    <tag k="maxspeed:source" v="default residential speed limit in Australia"/>
    <tag k="name" v="Carysfort Street"/>
  </way>
  <way id="20548895" version="4" timestamp="2012-01-15T21:14:47Z" uid="147510" user="woodpeck_fixbot" changeset="10402983">
    <nd ref="220414760"/>
    <nd ref="220416719"/>
    <nd ref="220415115"/>
    <tag k="highway" v="residential"/>
    <tag k="name" v="Carysfort Street"/>
  </way>
  <way id="20548963" version="2" timestamp="2010-07-08T02:10:14Z" uid="74617" user="JohnSmith" changeset="5162525">
    <nd ref="181239168"/>
    <nd ref="220416719"/>
    <tag k="highway" v="residential"/>
    <tag k="maxspeed" v="50"/>
    <tag k="maxspeed:source" v="default residential speed limit in Australia"/>
    <tag k="name" v="Australia Street"/>
  </way>
  <way id="20548963" version="3" timestamp="2012-01-15T21:14:48Z" uid="147510" user="woodpeck_fixbot" changeset="10402983">
    <nd ref="181239168"/>
    <nd ref="220416719"/>
    <tag k="highway" v="residential"/>
    <tag k="name" v="Australia Street"/>
  </way>
  <way id="20548973" version="3" timestamp="2010-07-08T02:09:45Z" uid="74617" user="JohnSmith" changeset="5162525">
    <nd ref="220416773"/>
    <nd ref="220417029"/>
    <tag k="highway" v="residential"/>
    <tag k="maxspeed" v="50"/>
    <tag k="maxspeed:source" v="default residential speed limit in Australia"/>
    <tag k="name" v="Culwurra Street"/>
  </way>
  <way id="20548973" version="4" timestamp="2012-01-15T21:14:49Z" uid="147510" user="woodpeck_fixbot" changeset="10402983">
    <nd ref="220416773"/>
    <nd ref="220417029"/>
    <tag k="highway" v="residential"/>
    <tag k="name" v="Culwurra Street"/>
  </way>
</osm>
