<?xml version='1.0' encoding='UTF-8'?>
<osm version="0.6" generator="libosmium/2.20.0">
  <way id="20632371" version="4" timestamp="2009-07-11T08:34:57Z" uid="43863" user="Rundling" changeset="1795128">
    <nd ref="221484329"/>
    <nd ref="221484344"/>
    <tag k="highway" v="tertiary"/>
    <tag k="name" v="zum Luisenhof"/>
    <tag k="postal_code" v="38518"/>
    <tag k="ref" v="K 33"/>
  </way>
  <way id="20632371" version="5" timestamp="2009-08-01T15:04:31Z" uid="16995" user="zut" changeset="2004820">
    <nd ref="221484329"/>
    <nd ref="453229439"/>
    <nd ref="453229458"/>
    <nd ref="453229411"/>
    <nd ref="221484344"/>
    <tag k="highway" v="tertiary"/>
    <tag k="name" v="zum Luisenhof"/>
    <tag k="postal_code" v="38518"/>
    <tag k="ref" v="K 33"/>
  </way>
  <way id="20632371" version="6" timestamp="2010-10-06T11:33:34Z" uid="333167" user="biker@gf" changeset="5968089">
    <nd ref="221484329"/>
    <nd ref="453229439"/>
    <nd ref="939126374"/>
    <nd ref="939126375"/>
    <nd ref="939126376"/>
    <nd ref="453229411"/>
    <nd ref="221484344"/>
    <tag k="highway" v="tertiary"/>
    <tag k="name" v="zum Luisenhof"/>
    <tag k="postal_code" v="38518"/>
    <tag k="ref" v="K 33"/>
  </way>
  <way id="20632371" version="7" timestamp="2011-05-22T05:10:10Z" uid="333167" user="biker@gf" changeset="8212318">
    <nd ref="221484329"/>
    <nd ref="453229439"/>
    <nd ref="939126374"/>
    <nd ref="939126375"/>
    <nd ref="939126376"/>
    <nd ref="1295676654"/>
    <nd ref="453229411"/>
    <nd ref="221484344"/>
    <tag k="highway" v="tertiary"/>
    <tag k="name" v="zum Luisenhof"/>
    <tag k="postal_code" v="38518"/>
    <tag k="ref" v="K 33"/>
  </way>
  <way id="20632371" version="8" timestamp="2011-12-17T14:31:59Z" uid="429794" user="SennaHB" changeset="10138705">
    <nd ref="221484329"/>
    <nd ref="453229439"/>
    <nd ref="939126374"/>
    <nd ref="939126375"/>
    <nd ref="939126376"/>
    <nd ref="1295676654"/>
    <nd ref="453229411"/>
    <nd ref="221484344"/>
    <tag k="highway" v="tertiary"/>
    <tag k="name" v="Zum Luisenhof"/>
    <tag k="postal_code" v="38518"/>
    <tag k="ref" v="K 33"/>
  </way>
  <way id="20632371" version="9" timestamp="2011-12-18T07:49:05Z" uid="81853" user="OpenHendrik" changeset="10144180">
    <nd ref="221484329"/>
    <nd ref="453229439"/>
    <nd ref="939126374"/>
    <nd ref="939126375"/>
    <nd ref="939126376"/>
    <nd ref="1551502959"/>
    <tag k="highway" v="tertiary"/>
    <tag k="name" v="Zum Luisenhof"/>
    <tag k="postal_code" v="38518"/>
    <tag k="ref" v="K 33"/>
  </way>
  <way id="20632566" version="1" timestamp="2008-01-12T19:19:18Z" uid="6454" user="B10xxx" changeset="613401">
    <nd ref="221486727"/>
    <nd ref="221486719"/>
    <nd ref="221486669"/>
    <nd ref="221486677"/>
    <nd ref="221486685"/>
    <nd ref="221486693"/>
    <nd ref="221486700"/>
    <nd ref="221486705"/>
    <nd ref="221486712"/>
    <tag k="created_by" v="JOSM"/>
    <tag k="name" v="Wellritzbach"/>
    <tag k="waterway" v="stream"/>
  </way>
  <way id="20632566" version="2" timestamp="2008-06-02T19:23:21Z" uid="43015" user="Norb" changeset="27461">
    <nd ref="221486727"/>
    <nd ref="221486719"/>
    <nd ref="221486669"/>
    <nd ref="221486677"/>
    <nd ref="221486685"/>
    <nd ref="221486693"/>
    <nd ref="221486700"/>
    <nd ref="221486705"/>
    <nd ref="221486712"/>
    <tag k="created_by" v="Potlatch 0.9c"/>
    <tag k="name" v="Wellritzbach"/>
    <tag k="waterway" v="stream"/>
  </way>
  <way id="20632566" version="3" timestamp="2008-11-14T22:10:46Z" uid="70621" user="BikeMap" changeset="749894">
    <nd ref="221486727"/>
    <nd ref="221486719"/>
    <nd ref="221486669"/>
    <nd ref="221486677"/>
    <nd ref="221486685"/>
    <nd ref="221486693"/>
    <nd ref="221486700"/>
    <nd ref="221486705"/>
    <nd ref="221486712"/>
    <tag k="created_by" v="Potlatch 0.9c"/>
    <tag k="layer" v="-1"/>
    <tag k="name" v="Wellritzbach"/>
    <tag k="waterway" v="stream"/>
  </way>
  <way id="20632566" version="4" timestamp="2008-12-30T22:06:52Z" uid="28378" user="PHerison" changeset="674887">
    <nd ref="221486727"/>
    <nd ref="221486719"/>
    <nd ref="221486669"/>
    <nd ref="221486677"/>
    <nd ref="221486685"/>
    <nd ref="221486693"/>
    <nd ref="221486700"/>
    <nd ref="323245069"/>
    <tag k="created_by" v="Potlatch 0.10f"/>
    <tag k="name" v="Wellritzbach"/>
    <tag k="waterway" v="stream"/>
  </way>
  <way id="20632566" version="5" timestamp="2008-12-30T22:20:08Z" uid="28378" user="PHerison" changeset="674887">
    <nd ref="221486727"/>
    <nd ref="221486719"/>
    <nd ref="221486669"/>
    <nd ref="323248138"/>
    <nd ref="323248139"/>
    <nd ref="323248141"/>
    <nd ref="323248142"/>
    <nd ref="221486677"/>
    <nd ref="221486685"/>
    <nd ref="323248144"/>
    <nd ref="323248145"/>
    <nd ref="323248146"/>
    <nd ref="323248147"/>
    <nd ref="221486693"/>
    <nd ref="221486700"/>
    <nd ref="323245069"/>
    <tag k="created_by" v="Potlatch 0.10f"/>
    <tag k="name" v="Wellritzbach"/>
    <tag k="waterway" v="stream"/>
  </way>
  <way id="20632566" version="6" timestamp="2008-12-30T22:21:53Z" uid="28378" user="PHerison" changeset="674887">
    <nd ref="221486727"/>
    <nd ref="323248520"/>
    <nd ref="323248521"/>
    <nd ref="221486719"/>
    <nd ref="323248522"/>
    <nd ref="323248523"/>
    <nd ref="323248524"/>
    <nd ref="323248525"/>
    <nd ref="221486669"/>
    <nd ref="323248526"/>
    <nd ref="323248527"/>
    <nd ref="323248528"/>
    <nd ref="323248529"/>
    <nd ref="323248138"/>
    <nd ref="323248139"/>
    <nd ref="323248141"/>
    <nd ref="323248142"/>
    <nd ref="221486677"/>
    <nd ref="221486685"/>
    <nd ref="323248144"/>
    <nd ref="323248145"/>
    <nd ref="323248146"/>
    <nd ref="323248147"/>
    <nd ref="221486693"/>
    <nd ref="221486700"/>
    <nd ref="323245069"/>
    <tag k="created_by" v="Potlatch 0.10f"/>
    <tag k="name" v="Wellritzbach"/>
    <tag k="waterway" v="stream"/>
  </way>
  <way id="20632566" version="7" timestamp="2008-12-30T22:22:17Z" uid="28378" user="PHerison" changeset="674887">
    <nd ref="221486727"/>
    <nd ref="323248520"/>
    <nd ref="323248521"/>
    <nd ref="221486719"/>
    <nd ref="323248522"/>
    <tag k="created_by" v="Potlatch 0.10f"/>
    <tag k="name" v="Wellritzbach"/>
    <tag k="source" v="Yahoo"/>
    <tag k="waterway" v="stream"/>
  </way>
  <way id="20632566" version="8" timestamp="2008-12-30T22:25:07Z" uid="28378" user="PHerison" changeset="674887">
    <nd ref="221486727"/>
    <nd ref="323248520"/>
    <nd ref="323248521"/>
    <nd ref="221486719"/>
    <nd ref="323248522"/>
    <tag k="created_by" v="Potlatch 0.10f"/>
    <tag k="name" v="Wellritzbach"/>
    <tag k="note" v="FIXME Assumed course"/>
    <tag k="source" v="Yahoo"/>
    <tag k="waterway" v="stream"/>
  </way>
  <way id="20632566" version="9" timestamp="2009-10-17T19:57:30Z" uid="43824" user="JND" changeset="2877796">
    <nd ref="221486727"/>
    <nd ref="323248520"/>
    <nd ref="323248521"/>
    <nd ref="221486719"/>
    <nd ref="534433333"/>
    <nd ref="323248522"/>
    <tag k="name" v="Wellritzbach"/>
    <tag k="note" v="FIXME Assumed course"/>
    <tag k="source" v="Yahoo"/>
    <tag k="waterway" v="stream"/>
  </way>
  <way id="20632566" version="10" timestamp="2012-02-27T20:19:19Z" uid="328555" user="peb12345" changeset="10812880">
    <nd ref="221486727"/>
    <nd ref="1650780875"/>
    <nd ref="323248520"/>
    <nd ref="323248521"/>
    <nd ref="1650780874"/>
    <nd ref="1650780870"/>
    <nd ref="1650780868"/>
    <nd ref="221486719"/>
    <nd ref="534433333"/>
    <nd ref="1650780865"/>
    <nd ref="323248522"/>
    <tag k="FIXME" v="Lage geschÃ¤tzt"/>
    <tag k="name" v="Wellritzbach"/>
    <tag k="source" v="Bing"/>
    <tag k="waterway" v="stream"/>
  </way>
  <way id="20632566" version="11" timestamp="2012-03-22T02:16:45Z" uid="328555" user="peb12345" changeset="11058913"/>
</osm>
