<?xml version='1.0' encoding='UTF-8'?>
<osm version="0.6" generator="libosmium/2.20.0">
  <way id="20649014" version="7" timestamp="2009-09-30T13:42:43Z" uid="36809" user="pfoten_weg_!_" changeset="2688655">
    <nd ref="221685500"/>
    <nd ref="221685521"/>
    <tag k="highway" v="residential"/>
    <tag k="name" v="Frauenberger Straße"/>
  </way>
  <way id="20649014" version="8" timestamp="2009-10-31T17:17:04Z" uid="94149" user="markusri" changeset="2999001"/>
  <way id="20649240" version="2" timestamp="2010-12-25T21:39:39Z" uid="7617" user="Franc" changeset="6763901">
    <nd ref="221686556"/>
    <nd ref="221686558"/>
    <nd ref="221686559"/>
    <nd ref="1064601559"/>
    <nd ref="1064601619"/>
    <nd ref="1064601424"/>
    <nd ref="221686561"/>
    <nd ref="1064601822"/>
    <nd ref="221686556"/>
    <tag k="leisure" v="park"/>
    <tag k="name" v="Bell Park"/>
  </way>
  <way id="20649342" version="2" timestamp="2010-07-08T02:11:31Z" uid="74617" user="JohnSmith" changeset="5162525">
    <nd ref="221687229"/>
    <nd ref="221687615"/>
    <tag k="highway" v="residential"/>
    <tag k="maxspeed" v="50"/>
    <tag k="maxspeed:source" v="default residential speed limit in Australia"/>
    <tag k="name" v="Derwent Street"/>
  </way>
  <way id="20649342" version="3" timestamp="2012-01-15T21:17:02Z" uid="147510" user="woodpeck_fixbot" changeset="10402983">
    <nd ref="221687229"/>
    <nd ref="221687615"/>
    <tag k="highway" v="residential"/>
    <tag k="name" v="Derwent Street"/>
  </way>
  <way id="20649382" version="2" timestamp="2010-07-18T08:23:03Z" uid="30201" user="rrankin" changeset="5248739">
    <nd ref="221687646"/>
    <nd ref="221688005"/>
    <nd ref="822544111"/>
    <tag k="highway" v="service"/>
    <tag k="oneway" v="yes"/>
  </way>
  <way id="20649382" version="3" timestamp="2010-12-25T21:41:04Z" uid="7617" user="Franc" changeset="6763901">
    <nd ref="221687646"/>
    <nd ref="221688005"/>
    <nd ref="822544111"/>
    <tag k="fixme:sign:no" v="2010-12-22"/>
    <tag k="highway" v="service"/>
    <tag k="oneway" v="yes"/>
  </way>
  <way id="20649382" version="4" timestamp="2012-03-08T23:35:01Z" uid="7523" user="inas" changeset="10915020">
    <nd ref="221687646"/>
    <nd ref="221688005"/>
    <nd ref="1666659529"/>
    <tag k="fixme:sign:no" v="2010-12-22"/>
    <tag k="highway" v="service"/>
    <tag k="oneway" v="yes"/>
  </way>
  <way id="20649480" version="2" timestamp="2010-07-08T02:11:21Z" uid="74617" user="JohnSmith" changeset="5162525">
    <nd ref="221688313"/>
    <nd ref="221688822"/>
    <tag k="highway" v="residential"/>
    <tag k="maxspeed" v="50"/>
    <tag k="maxspeed:source" v="default residential speed limit in Australia"/>
    <tag k="name" v="Rossi Street"/>
  </way>
  <way id="20649480" version="3" timestamp="2012-01-15T21:17:05Z" uid="147510" user="woodpeck_fixbot" changeset="10402983">
    <nd ref="221688313"/>
    <nd ref="221688822"/>
    <tag k="highway" v="residential"/>
    <tag k="name" v="Rossi Street"/>
  </way>
  <way id="20649521" version="2" timestamp="2010-07-08T02:09:26Z" uid="74617" user="JohnSmith" changeset="5162525">
    <nd ref="221688857"/>
    <nd ref="221688822"/>
    <nd ref="221689406"/>
    <tag k="highway" v="residential"/>
    <tag k="maxspeed" v="50"/>
    <tag k="maxspeed:source" v="default residential speed limit in Australia"/>
    <tag k="name" v="Kairawa Street"/>
  </way>
  <way id="20649521" version="3" timestamp="2012-01-15T21:17:06Z" uid="147510" user="woodpeck_fixbot" changeset="10402983">
    <nd ref="221688857"/>
    <nd ref="221688822"/>
    <nd ref="221689406"/>
    <tag k="highway" v="residential"/>
    <tag k="name" v="Kairawa Street"/>
  </way>
  <way id="20649566" version="2" timestamp="2010-07-08T02:11:11Z" uid="74617" user="JohnSmith" changeset="5162525">
    <nd ref="221689448"/>
    <nd ref="221689844"/>
    <tag k="highway" v="residential"/>
    <tag k="maxspeed" v="50"/>
    <tag k="maxspeed:source" v="default residential speed limit in Australia"/>
    <tag k="name" v="Allen Street"/>
  </way>
  <way id="20649566" version="3" timestamp="2012-01-15T21:17:08Z" uid="147510" user="woodpeck_fixbot" changeset="10402983">
    <nd ref="221689448"/>
    <nd ref="221689844"/>
    <tag k="highway" v="residential"/>
    <tag k="name" v="Allen Street"/>
  </way>
  <way id="20649566" version="4" timestamp="2012-03-08T23:34:49Z" uid="7523" user="inas" changeset="10915020">
    <nd ref="1666659534"/>
    <nd ref="221689844"/>
    <tag k="highway" v="residential"/>
    <tag k="name" v="Allen Street"/>
  </way>
  <way id="20649673" version="2" timestamp="2010-07-08T02:12:13Z" uid="74617" user="JohnSmith" changeset="5162525">
    <nd ref="221689889"/>
    <nd ref="221690664"/>
    <nd ref="221690667"/>
    <tag k="highway" v="residential"/>
    <tag k="maxspeed" v="50"/>
    <tag k="maxspeed:source" v="default residential speed limit in Australia"/>
    <tag k="name" v="Grosvenor Road"/>
  </way>
  <way id="20649673" version="3" timestamp="2012-01-15T21:17:10Z" uid="147510" user="woodpeck_fixbot" changeset="10402983">
    <nd ref="221689889"/>
    <nd ref="221690664"/>
    <nd ref="221690667"/>
    <tag k="highway" v="residential"/>
    <tag k="name" v="Grosvenor Road"/>
  </way>
  <way id="20649740" version="2" timestamp="2010-07-08T02:11:55Z" uid="74617" user="JohnSmith" changeset="5162525">
    <nd ref="221690664"/>
    <nd ref="221691150"/>
    <nd ref="221689406"/>
    <nd ref="221689844"/>
    <tag k="highway" v="residential"/>
    <tag k="maxspeed" v="50"/>
    <tag k="maxspeed:source" v="default residential speed limit in Australia"/>
    <tag k="name" v="Short Street"/>
  </way>
  <way id="20649740" version="3" timestamp="2012-01-15T21:17:11Z" uid="147510" user="woodpeck_fixbot" changeset="10402983">
    <nd ref="221690664"/>
    <nd ref="221691150"/>
    <nd ref="221689406"/>
    <nd ref="221689844"/>
    <tag k="highway" v="residential"/>
    <tag k="name" v="Short Street"/>
  </way>
  <way id="20649793" version="2" timestamp="2010-12-25T21:40:29Z" uid="7617" user="Franc" changeset="6763901">
    <nd ref="221691150"/>
    <nd ref="221691631"/>
    <tag k="highway" v="service"/>
    <tag k="name" v="Short Lane"/>
    <tag k="source:name" v="survey"/>
  </way>
  <way id="20649793" version="3" timestamp="2012-03-08T23:34:58Z" uid="7523" user="inas" changeset="10915020">
    <nd ref="221691150"/>
    <nd ref="1666659537"/>
    <tag k="highway" v="service"/>
    <tag k="name" v="Short Lane"/>
    <tag k="source:name" v="survey"/>
  </way>
  <way id="20649958" version="4" timestamp="2009-02-01T18:45:56Z" uid="34428" user="usm78-gis" changeset="31975">
    <nd ref="470208"/>
    <nd ref="221693131"/>
    <nd ref="221693133"/>
    <tag k="created_by" v="Potlatch 0.6a"/>
    <tag k="highway" v="secondary"/>
    <tag k="oneway" v="yes"/>
  </way>
  <way id="20649958" version="5" timestamp="2009-07-13T19:11:05Z" uid="136937" user="Kodimir" changeset="1820612">
    <nd ref="470208"/>
    <nd ref="221693131"/>
    <nd ref="221693133"/>
    <tag k="created_by" v="Potlatch 0.6a"/>
    <tag k="highway" v="secondary"/>
    <tag k="name" v="Культуры пр."/>
    <tag k="oneway" v="yes"/>
  </way>
  <way id="20649958" version="6" timestamp="2009-07-14T03:15:41Z" uid="30590" user="KekcuHa" changeset="1823139">
    <nd ref="470208"/>
    <nd ref="221693131"/>
    <nd ref="221693133"/>
    <tag k="cladr:code" v="78000000000065700"/>
    <tag k="cladr:name" v="Культуры"/>
    <tag k="cladr:suffix" v="Проспект"/>
    <tag k="highway" v="secondary"/>
    <tag k="name" v="Культуры пр."/>
    <tag k="oneway" v="yes"/>
  </way>
  <way id="20649958" version="7" timestamp="2010-09-04T07:39:18Z" uid="127299" user="Batareikin" changeset="5676232">
    <nd ref="470208"/>
    <nd ref="221693131"/>
    <nd ref="221693133"/>
    <tag k="cladr:code" v="78000000000065700"/>
    <tag k="cladr:name" v="Культуры"/>
    <tag k="cladr:suffix" v="Проспект"/>
    <tag k="highway" v="secondary"/>
    <tag k="name" v="проспект Культуры"/>
    <tag k="oneway" v="yes"/>
  </way>
  <way id="20649958" version="8" timestamp="2010-09-24T14:40:24Z" uid="290271" user="Zverik" changeset="5863350">
    <nd ref="470208"/>
    <nd ref="221693131"/>
    <nd ref="221693133"/>
    <tag k="cladr:code" v="78000000000065700"/>
    <tag k="cladr:name" v="Культуры"/>
    <tag k="cladr:suffix" v="Проспект"/>
    <tag k="highway" v="secondary"/>
    <tag k="name" v="проспект Культуры"/>
    <tag k="oneway" v="yes"/>
    <tag k="surface" v="asphalt"/>
  </way>
  <way id="20649958" version="9" timestamp="2010-11-22T21:10:35Z" uid="136198" user="tmprec" changeset="6435218">
    <nd ref="470208"/>
    <nd ref="1000049984"/>
    <nd ref="221693131"/>
    <nd ref="221693133"/>
    <tag k="cladr:code" v="78000000000065700"/>
    <tag k="cladr:name" v="Культуры"/>
    <tag k="cladr:suffix" v="Проспект"/>
    <tag k="highway" v="secondary"/>
    <tag k="name" v="проспект Культуры"/>
    <tag k="oneway" v="yes"/>
    <tag k="surface" v="asphalt"/>
  </way>
  <way id="20649958" version="10" timestamp="2011-09-27T19:41:39Z" uid="143266" user="Sergey Astakhov" changeset="9413878">
    <nd ref="470208"/>
    <nd ref="1000049984"/>
    <nd ref="221693131"/>
    <nd ref="221693133"/>
    <tag k="highway" v="secondary"/>
    <tag k="name" v="проспект Культуры"/>
    <tag k="oneway" v="yes"/>
    <tag k="surface" v="asphalt"/>
  </way>
  <way id="20649958" version="11" timestamp="2012-01-09T22:58:36Z" uid="392109" user="GaM" changeset="10347199">
    <nd ref="470208"/>
    <nd ref="1000049984"/>
    <nd ref="221693131"/>
    <nd ref="221693133"/>
    <tag k="highway" v="secondary_link"/>
    <tag k="oneway" v="yes"/>
    <tag k="surface" v="asphalt"/>
  </way>
  <way id="20649974" version="5" timestamp="2010-04-01T12:12:38Z" uid="74617" user="JohnSmith" changeset="4293399">
    <nd ref="221692692"/>
    <nd ref="221693313"/>
    <tag k="highway" v="residential"/>
    <tag k="name" v="Tavistock Road"/>
  </way>
  <way id="20649974" version="6" timestamp="2010-07-07T21:28:16Z" uid="74617" user="JohnSmith" changeset="5161069">
    <nd ref="221692692"/>
    <nd ref="221693313"/>
    <tag k="highway" v="residential"/>
    <tag k="maxspeed" v="50"/>
    <tag k="maxspeed:source" v="default residential speed limit in Australia"/>
    <tag k="name" v="Tavistock Road"/>
  </way>
  <way id="20649974" version="7" timestamp="2012-01-15T21:17:12Z" uid="147510" user="woodpeck_fixbot" changeset="10402983">
    <nd ref="221692692"/>
    <nd ref="221693313"/>
    <tag k="highway" v="residential"/>
    <tag k="name" v="Tavistock Road"/>
  </way>
  <way id="20649974" version="8" timestamp="2012-03-08T23:34:58Z" uid="7523" user="inas" changeset="10915020">
    <nd ref="221692692"/>
    <nd ref="1666659573"/>
    <tag k="highway" v="residential"/>
    <tag k="name" v="Tavistock Road"/>
  </way>
</osm>
