<?xml version='1.0' encoding='UTF-8'?>
<osm version="0.6" generator="libosmium/2.20.0">
  <way id="20651024" version="2" timestamp="2010-07-07T21:35:11Z" uid="74617" user="JohnSmith" changeset="5161069">
    <nd ref="221703178"/>
    <nd ref="221703935"/>
    <tag k="highway" v="residential"/>
    <tag k="maxspeed" v="50"/>
    <tag k="maxspeed:source" v="default residential speed limit in Australia"/>
    <tag k="name" v="Lance Avenue"/>
  </way>
  <way id="20651024" version="3" timestamp="2012-01-15T21:17:21Z" uid="147510" user="woodpeck_fixbot" changeset="10402983">
    <nd ref="221703178"/>
    <nd ref="221703935"/>
    <tag k="highway" v="residential"/>
    <tag k="name" v="Lance Avenue"/>
  </way>
  <way id="20651826" version="2" timestamp="2008-02-12T06:23:02Z" uid="7617" user="Franc" changeset="107934"/>
  <way id="20651875" version="2" timestamp="2009-11-30T09:37:22Z" uid="7617" user="Franc" changeset="3254049">
    <nd ref="221713335"/>
    <nd ref="221712535"/>
    <nd ref="575727054"/>
    <nd ref="575727058"/>
    <nd ref="221713336"/>
    <tag k="highway" v="residential"/>
    <tag k="name" v="Bunyala Street"/>
  </way>
  <way id="20651875" version="3" timestamp="2010-07-07T21:36:29Z" uid="74617" user="JohnSmith" changeset="5161069">
    <nd ref="221713335"/>
    <nd ref="221712535"/>
    <nd ref="575727054"/>
    <nd ref="575727058"/>
    <nd ref="221713336"/>
    <tag k="highway" v="residential"/>
    <tag k="maxspeed" v="50"/>
    <tag k="maxspeed:source" v="default residential speed limit in Australia"/>
    <tag k="name" v="Bunyala Street"/>
  </way>
  <way id="20651875" version="4" timestamp="2011-04-26T08:02:41Z" uid="20949" user="Ebenezer" changeset="7971869">
    <nd ref="221713335"/>
    <nd ref="221712535"/>
    <nd ref="575727054"/>
    <nd ref="575727058"/>
    <nd ref="221713336"/>
    <tag k="highway" v="residential"/>
    <tag k="lcn" v="yes"/>
    <tag k="maxspeed" v="50"/>
    <tag k="maxspeed:source" v="default residential speed limit in Australia"/>
    <tag k="name" v="Bunyala Street"/>
  </way>
  <way id="20651875" version="5" timestamp="2012-01-15T21:17:21Z" uid="147510" user="woodpeck_fixbot" changeset="10402983">
    <nd ref="221713335"/>
    <nd ref="221712535"/>
    <nd ref="575727054"/>
    <nd ref="575727058"/>
    <nd ref="221713336"/>
    <tag k="highway" v="residential"/>
    <tag k="lcn" v="yes"/>
    <tag k="name" v="Bunyala Street"/>
  </way>
  <way id="20651901" version="3" timestamp="2009-10-25T08:19:16Z" uid="7617" user="Franc" changeset="2943674">
    <nd ref="221713702"/>
    <nd ref="540025504"/>
    <nd ref="540025505"/>
    <nd ref="221713704"/>
    <tag k="highway" v="residential"/>
    <tag k="name" v="Currawang Street"/>
  </way>
  <way id="20651901" version="4" timestamp="2009-12-12T05:41:09Z" uid="7617" user="Franc" changeset="3353764">
    <nd ref="221713702"/>
    <nd ref="540025505"/>
    <nd ref="221713704"/>
    <tag k="highway" v="residential"/>
    <tag k="name" v="Currawang Street"/>
  </way>
  <way id="20651901" version="5" timestamp="2010-07-07T21:36:53Z" uid="74617" user="JohnSmith" changeset="5161069">
    <nd ref="221713702"/>
    <nd ref="540025505"/>
    <nd ref="221713704"/>
    <tag k="highway" v="residential"/>
    <tag k="maxspeed" v="50"/>
    <tag k="maxspeed:source" v="default residential speed limit in Australia"/>
    <tag k="name" v="Currawang Street"/>
  </way>
  <way id="20651901" version="6" timestamp="2012-01-15T21:17:23Z" uid="147510" user="woodpeck_fixbot" changeset="10402983">
    <nd ref="221713702"/>
    <nd ref="540025505"/>
    <nd ref="221713704"/>
    <tag k="highway" v="residential"/>
    <tag k="name" v="Currawang Street"/>
  </way>
  <way id="20651909" version="3" timestamp="2009-11-30T09:37:23Z" uid="7617" user="Franc" changeset="3254049">
    <nd ref="221697962"/>
    <nd ref="221713702"/>
    <nd ref="221713336"/>
    <nd ref="575727056"/>
    <nd ref="221714904"/>
    <nd ref="221714909"/>
    <tag k="highway" v="residential"/>
    <tag k="name" v="Bograh Street"/>
  </way>
  <way id="20651909" version="4" timestamp="2009-12-12T05:41:09Z" uid="7617" user="Franc" changeset="3353764">
    <nd ref="221697962"/>
    <nd ref="587611967"/>
    <nd ref="221713702"/>
    <nd ref="221713336"/>
    <nd ref="575727056"/>
    <nd ref="221714904"/>
    <nd ref="221714909"/>
    <tag k="highway" v="residential"/>
    <tag k="name" v="Bograh Street"/>
  </way>
  <way id="20651909" version="5" timestamp="2010-07-07T21:28:18Z" uid="74617" user="JohnSmith" changeset="5161069">
    <nd ref="221697962"/>
    <nd ref="587611967"/>
    <nd ref="221713702"/>
    <nd ref="221713336"/>
    <nd ref="575727056"/>
    <nd ref="221714904"/>
    <nd ref="221714909"/>
    <tag k="highway" v="residential"/>
    <tag k="maxspeed" v="50"/>
    <tag k="maxspeed:source" v="default residential speed limit in Australia"/>
    <tag k="name" v="Bograh Street"/>
  </way>
  <way id="20651909" version="6" timestamp="2011-04-22T23:16:28Z" uid="7617" user="Franc" changeset="7939553">
    <nd ref="221697962"/>
    <nd ref="587611967"/>
    <nd ref="221713702"/>
    <nd ref="1256125957"/>
    <nd ref="221713336"/>
    <nd ref="575727056"/>
    <nd ref="221714904"/>
    <nd ref="221714909"/>
    <tag k="highway" v="residential"/>
    <tag k="maxspeed" v="50"/>
    <tag k="maxspeed:source" v="default residential speed limit in Australia"/>
    <tag k="name" v="Bograh Street"/>
  </way>
  <way id="20651909" version="7" timestamp="2011-04-23T12:54:53Z" uid="7617" user="Franc" changeset="7943317">
    <nd ref="221697962"/>
    <nd ref="587611967"/>
    <tag k="highway" v="residential"/>
    <tag k="maxspeed" v="50"/>
    <tag k="maxspeed:source" v="default residential speed limit in Australia"/>
    <tag k="name" v="Bograh Street"/>
  </way>
  <way id="20651909" version="8" timestamp="2012-01-15T21:17:24Z" uid="147510" user="woodpeck_fixbot" changeset="10402983">
    <nd ref="221697962"/>
    <nd ref="587611967"/>
    <tag k="highway" v="residential"/>
    <tag k="name" v="Bograh Street"/>
  </way>
  <way id="20651909" version="9" timestamp="2012-03-21T02:29:13Z" uid="7523" user="inas" changeset="11047788"/>
</osm>
