<?xml version='1.0' encoding='UTF-8'?>
<osm version="0.6" generator="libosmium/2.20.0">
  <way id="21356059" version="3" timestamp="2010-12-25T21:41:30Z" uid="7617" user="Franc" changeset="6763901"/>
  <way id="21356213" version="3" timestamp="2010-02-09T12:50:17Z" uid="74617" user="JohnSmith" changeset="3831866">
    <nd ref="229699449"/>
    <nd ref="634203670"/>
    <nd ref="634203674"/>
    <nd ref="634203687"/>
    <nd ref="634203690"/>
    <nd ref="229699452"/>
    <tag k="bridge" v="yes"/>
    <tag k="highway" v="residential"/>
    <tag k="layer" v="1"/>
    <tag k="name" v="The Strand"/>
  </way>
  <way id="21356213" version="4" timestamp="2010-07-08T02:11:20Z" uid="74617" user="JohnSmith" changeset="5162525">
    <nd ref="229699449"/>
    <nd ref="634203670"/>
    <nd ref="634203674"/>
    <nd ref="634203687"/>
    <nd ref="634203690"/>
    <nd ref="229699452"/>
    <tag k="bridge" v="yes"/>
    <tag k="highway" v="residential"/>
    <tag k="layer" v="1"/>
    <tag k="maxspeed" v="50"/>
    <tag k="maxspeed:source" v="default residential speed limit in Australia"/>
    <tag k="name" v="The Strand"/>
  </way>
  <way id="21356213" version="5" timestamp="2011-04-26T08:17:06Z" uid="20949" user="Ebenezer" changeset="7971869">
    <nd ref="229699449"/>
    <nd ref="634203670"/>
    <nd ref="634203674"/>
    <nd ref="634203687"/>
    <nd ref="634203690"/>
    <nd ref="229699452"/>
    <tag k="bridge" v="yes"/>
    <tag k="highway" v="residential"/>
    <tag k="layer" v="1"/>
    <tag k="lcn" v="yes"/>
    <tag k="maxspeed" v="50"/>
    <tag k="maxspeed:source" v="default residential speed limit in Australia"/>
    <tag k="name" v="The Strand"/>
  </way>
  <way id="21356213" version="6" timestamp="2012-01-15T21:34:23Z" uid="147510" user="woodpeck_fixbot" changeset="10402983">
    <nd ref="229699449"/>
    <nd ref="634203670"/>
    <nd ref="634203674"/>
    <nd ref="634203687"/>
    <nd ref="634203690"/>
    <nd ref="229699452"/>
    <tag k="bridge" v="yes"/>
    <tag k="highway" v="residential"/>
    <tag k="layer" v="1"/>
    <tag k="lcn" v="yes"/>
    <tag k="name" v="The Strand"/>
  </way>
  <way id="21356213" version="7" timestamp="2012-03-06T23:25:06Z" uid="7523" user="inas" changeset="10895623">
    <nd ref="229699449"/>
    <nd ref="634203670"/>
    <nd ref="634203674"/>
    <nd ref="634203687"/>
    <nd ref="634203690"/>
    <nd ref="229699452"/>
    <tag k="bridge" v="yes"/>
    <tag k="highway" v="tertiary"/>
    <tag k="layer" v="1"/>
    <tag k="lcn" v="yes"/>
    <tag k="name" v="The Strand"/>
  </way>
  <way id="21356219" version="3" timestamp="2010-07-08T02:10:22Z" uid="74617" user="JohnSmith" changeset="5162525">
    <nd ref="229698914"/>
    <nd ref="229700138"/>
    <nd ref="229699449"/>
    <tag k="highway" v="residential"/>
    <tag k="maxspeed" v="50"/>
    <tag k="maxspeed:source" v="default residential speed limit in Australia"/>
    <tag k="name" v="The Strand"/>
  </way>
  <way id="21356219" version="4" timestamp="2011-04-26T08:17:06Z" uid="20949" user="Ebenezer" changeset="7971869">
    <nd ref="229698914"/>
    <nd ref="229700138"/>
    <nd ref="229699449"/>
    <tag k="highway" v="residential"/>
    <tag k="lcn" v="yes"/>
    <tag k="maxspeed" v="50"/>
    <tag k="maxspeed:source" v="default residential speed limit in Australia"/>
    <tag k="name" v="The Strand"/>
  </way>
  <way id="21356219" version="5" timestamp="2012-01-15T21:34:24Z" uid="147510" user="woodpeck_fixbot" changeset="10402983">
    <nd ref="229698914"/>
    <nd ref="229700138"/>
    <nd ref="229699449"/>
    <tag k="highway" v="residential"/>
    <tag k="lcn" v="yes"/>
    <tag k="name" v="The Strand"/>
  </way>
  <way id="21356219" version="6" timestamp="2012-03-06T23:25:06Z" uid="7523" user="inas" changeset="10895623">
    <nd ref="229698914"/>
    <nd ref="229700138"/>
    <nd ref="229699449"/>
    <tag k="highway" v="tertiary"/>
    <tag k="lcn" v="yes"/>
    <tag k="name" v="The Strand"/>
  </way>
  <way id="21356348" version="4" timestamp="2011-03-19T03:58:07Z" uid="7617" user="Franc" changeset="7601286">
    <nd ref="229700138"/>
    <nd ref="229701702"/>
    <nd ref="229700902"/>
    <nd ref="1208257422"/>
    <nd ref="1208257455"/>
    <nd ref="1208257572"/>
    <nd ref="1064601740"/>
    <tag k="highway" v="service"/>
    <tag k="name" v="The Strand"/>
    <tag k="oneway" v="yes"/>
    <tag k="source" v="historical"/>
  </way>
  <way id="21356348" version="5" timestamp="2011-05-09T09:21:14Z" uid="237525" user="aharvey" changeset="8090951">
    <nd ref="229700138"/>
    <nd ref="1278032027"/>
    <nd ref="229701702"/>
    <nd ref="229700902"/>
    <nd ref="1208257422"/>
    <nd ref="1208257455"/>
    <nd ref="1208257572"/>
    <nd ref="1064601740"/>
    <tag k="highway" v="service"/>
    <tag k="name" v="The Strand"/>
    <tag k="oneway" v="yes"/>
    <tag k="source" v="historical"/>
  </way>
  <way id="21356348" version="6" timestamp="2011-06-04T10:02:32Z" uid="7617" user="Franc" changeset="8337628">
    <nd ref="229700138"/>
    <nd ref="1278032027"/>
    <nd ref="229701702"/>
    <nd ref="229700902"/>
    <nd ref="1208257422"/>
    <nd ref="1208257455"/>
    <nd ref="1208257572"/>
    <nd ref="1064601740"/>
    <tag k="highway" v="unclassified"/>
    <tag k="name" v="The Strand"/>
    <tag k="oneway" v="yes"/>
    <tag k="source" v="historical"/>
  </way>
  <way id="21356444" version="2" timestamp="2011-06-04T10:02:34Z" uid="7617" user="Franc" changeset="8337628">
    <nd ref="229700953"/>
    <nd ref="229701702"/>
    <tag k="highway" v="service"/>
    <tag k="name" v="Station Lane"/>
    <tag k="oneway" v="yes"/>
    <tag k="source:name" v="survey"/>
  </way>
  <way id="21356568" version="5" timestamp="2010-02-09T12:50:17Z" uid="74617" user="JohnSmith" changeset="3831866">
    <nd ref="229699452"/>
    <nd ref="634203676"/>
    <nd ref="634203685"/>
    <nd ref="229702726"/>
    <nd ref="229702727"/>
    <nd ref="229702729"/>
    <nd ref="229702730"/>
    <tag k="highway" v="residential"/>
    <tag k="name" v="Bridge Street"/>
  </way>
  <way id="21356568" version="6" timestamp="2010-07-08T02:12:01Z" uid="74617" user="JohnSmith" changeset="5162525">
    <nd ref="229699452"/>
    <nd ref="634203676"/>
    <nd ref="634203685"/>
    <nd ref="229702726"/>
    <nd ref="229702727"/>
    <nd ref="229702729"/>
    <nd ref="229702730"/>
    <tag k="highway" v="residential"/>
    <tag k="maxspeed" v="50"/>
    <tag k="maxspeed:source" v="default residential speed limit in Australia"/>
    <tag k="name" v="Bridge Street"/>
  </way>
  <way id="21356568" version="7" timestamp="2011-03-18T23:12:23Z" uid="237525" user="aharvey" changeset="7600412">
    <nd ref="229699452"/>
    <nd ref="634203676"/>
    <nd ref="634203685"/>
    <nd ref="1207989009"/>
    <nd ref="229702726"/>
    <nd ref="229702727"/>
    <nd ref="229702729"/>
    <nd ref="229702730"/>
    <tag k="highway" v="residential"/>
    <tag k="maxspeed" v="50"/>
    <tag k="maxspeed:source" v="default residential speed limit in Australia"/>
    <tag k="name" v="Bridge Street"/>
  </way>
  <way id="21356568" version="8" timestamp="2011-04-26T08:16:57Z" uid="20949" user="Ebenezer" changeset="7971869">
    <nd ref="229699452"/>
    <nd ref="634203676"/>
    <nd ref="634203685"/>
    <nd ref="1207989009"/>
    <nd ref="229702726"/>
    <nd ref="229702727"/>
    <nd ref="229702729"/>
    <nd ref="229702730"/>
    <tag k="highway" v="residential"/>
    <tag k="lcn" v="yes"/>
    <tag k="maxspeed" v="50"/>
    <tag k="maxspeed:source" v="default residential speed limit in Australia"/>
    <tag k="name" v="Bridge Street"/>
  </way>
  <way id="21356568" version="9" timestamp="2012-01-15T21:34:25Z" uid="147510" user="woodpeck_fixbot" changeset="10402983">
    <nd ref="229699452"/>
    <nd ref="634203676"/>
    <nd ref="634203685"/>
    <nd ref="1207989009"/>
    <nd ref="229702726"/>
    <nd ref="229702727"/>
    <nd ref="229702729"/>
    <nd ref="229702730"/>
    <tag k="highway" v="residential"/>
    <tag k="lcn" v="yes"/>
    <tag k="name" v="Bridge Street"/>
  </way>
  <way id="21356568" version="10" timestamp="2012-03-06T23:24:58Z" uid="7523" user="inas" changeset="10895623">
    <nd ref="229699452"/>
    <nd ref="634203676"/>
    <nd ref="634203685"/>
    <nd ref="1207989009"/>
    <nd ref="229702726"/>
    <nd ref="229702727"/>
    <nd ref="229702729"/>
    <nd ref="229702730"/>
    <tag k="highway" v="unclassified"/>
    <tag k="lcn" v="yes"/>
    <tag k="name" v="Bridge Street"/>
  </way>
  <way id="21356607" version="2" timestamp="2011-06-04T10:02:35Z" uid="7617" user="Franc" changeset="8337628"/>
  <way id="21356915" version="2" timestamp="2010-07-08T02:11:33Z" uid="74617" user="JohnSmith" changeset="5162525">
    <nd ref="175656099"/>
    <nd ref="229705683"/>
    <nd ref="229704007"/>
    <tag k="highway" v="residential"/>
    <tag k="maxspeed" v="50"/>
    <tag k="maxspeed:source" v="default residential speed limit in Australia"/>
    <tag k="name" v="Apsley Street"/>
  </way>
  <way id="21356915" version="3" timestamp="2012-01-15T21:34:27Z" uid="147510" user="woodpeck_fixbot" changeset="10402983">
    <nd ref="175656099"/>
    <nd ref="229705683"/>
    <nd ref="229704007"/>
    <tag k="highway" v="residential"/>
    <tag k="name" v="Apsley Street"/>
  </way>
  <way id="21356981" version="2" timestamp="2010-07-08T02:07:41Z" uid="74617" user="JohnSmith" changeset="5162525">
    <nd ref="229705683"/>
    <nd ref="229706258"/>
    <tag k="highway" v="residential"/>
    <tag k="maxspeed" v="50"/>
    <tag k="maxspeed:source" v="default residential speed limit in Australia"/>
    <tag k="name" v="Carrington Street"/>
  </way>
  <way id="21356981" version="3" timestamp="2012-01-15T21:34:27Z" uid="147510" user="woodpeck_fixbot" changeset="10402983">
    <nd ref="229705683"/>
    <nd ref="229706258"/>
    <tag k="highway" v="residential"/>
    <tag k="name" v="Carrington Street"/>
  </way>
  <way id="21356982" version="2" timestamp="2009-07-05T06:38:46Z" uid="74617" user="JohnSmith" changeset="1736009">
    <nd ref="229706160"/>
    <nd ref="229706163"/>
    <nd ref="229706167"/>
    <nd ref="229706171"/>
    <nd ref="229706174"/>
    <nd ref="229706177"/>
    <nd ref="229706181"/>
    <nd ref="229706184"/>
    <nd ref="229706188"/>
    <nd ref="229706190"/>
    <nd ref="229706193"/>
    <nd ref="229706197"/>
    <nd ref="229706200"/>
    <nd ref="229706203"/>
    <nd ref="229706206"/>
    <nd ref="229706209"/>
    <nd ref="229706213"/>
    <nd ref="229706216"/>
    <nd ref="229706219"/>
    <nd ref="229706225"/>
    <nd ref="229706229"/>
    <nd ref="229706233"/>
    <nd ref="229706237"/>
    <nd ref="230263817"/>
    <nd ref="229706240"/>
    <nd ref="229706244"/>
    <nd ref="229706247"/>
    <nd ref="229706250"/>
    <nd ref="229706253"/>
    <nd ref="229706256"/>
    <tag k="highway" v="residential"/>
    <tag k="name" v="Postlewaite Rd"/>
    <tag k="tiger:cfcc" v="A41"/>
    <tag k="tiger:county" v="Franklin, OH"/>
    <tag k="tiger:name_base" v="Postlewaite"/>
    <tag k="tiger:name_type" v="Rd"/>
    <tag k="tiger:reviewed" v="no"/>
    <tag k="tiger:separated" v="no"/>
    <tag k="tiger:source" v="tiger_import_dch_v0.6_20070829"/>
    <tag k="tiger:tlid" v="218685261:135775995:135676508:218685194:218658687:135678997:135678998:218685262:135602856:218685263:135778351:135778352:218538359:218538360:135771517"/>
    <tag k="tiger:upload_uuid" v="bulk_upload.pl-63d753e0-2788-4f03-843e-cac54639c014"/>
    <tag k="tiger:zip_left" v="43235"/>
    <tag k="tiger:zip_right" v="43235"/>
  </way>
</osm>
