<?xml version='1.0' encoding='UTF-8'?>
<osm version="0.6" generator="libosmium/2.20.0">
  <way id="21729239" version="4" timestamp="2010-07-09T03:39:34Z" uid="74617" user="JohnSmith" changeset="5170838">
    <nd ref="234207185"/>
    <nd ref="234205140"/>
    <tag k="highway" v="residential"/>
    <tag k="maxspeed" v="50"/>
    <tag k="maxspeed:source" v="default residential speed limit in Australia"/>
    <tag k="name" v="Caine Court"/>
  </way>
  <way id="21729239" version="5" timestamp="2012-01-15T21:46:39Z" uid="147510" user="woodpeck_fixbot" changeset="10402983">
    <nd ref="234207185"/>
    <nd ref="234205140"/>
    <tag k="highway" v="residential"/>
    <tag k="name" v="Caine Court"/>
  </way>
  <way id="21729350" version="4" timestamp="2010-07-09T03:39:08Z" uid="74617" user="JohnSmith" changeset="5170838">
    <nd ref="234205143"/>
    <nd ref="234208940"/>
    <nd ref="234208942"/>
    <tag k="highway" v="residential"/>
    <tag k="maxspeed" v="50"/>
    <tag k="maxspeed:source" v="default residential speed limit in Australia"/>
    <tag k="name" v="Griffith Street"/>
  </way>
  <way id="21729350" version="5" timestamp="2012-01-15T21:46:40Z" uid="147510" user="woodpeck_fixbot" changeset="10402983">
    <nd ref="234205143"/>
    <nd ref="234208940"/>
    <nd ref="234208942"/>
    <tag k="highway" v="residential"/>
    <tag k="name" v="Griffith Street"/>
  </way>
  <way id="21729374" version="6" timestamp="2010-07-09T03:37:57Z" uid="74617" user="JohnSmith" changeset="5170838">
    <nd ref="234208940"/>
    <nd ref="671065827"/>
    <nd ref="234209361"/>
    <nd ref="234198492"/>
    <tag k="highway" v="residential"/>
    <tag k="maxspeed" v="50"/>
    <tag k="maxspeed:source" v="default residential speed limit in Australia"/>
    <tag k="name" v="Cardigan Street"/>
  </way>
  <way id="21729374" version="7" timestamp="2012-01-15T21:46:43Z" uid="147510" user="woodpeck_fixbot" changeset="10402983">
    <nd ref="234208940"/>
    <nd ref="671065827"/>
    <nd ref="234209361"/>
    <nd ref="234198492"/>
    <tag k="highway" v="residential"/>
    <tag k="name" v="Cardigan Street"/>
  </way>
  <way id="21729758" version="6" timestamp="2010-07-09T06:23:22Z" uid="74617" user="JohnSmith" changeset="5171134">
    <nd ref="234197470"/>
    <nd ref="234214149"/>
    <nd ref="703615320"/>
    <nd ref="703614929"/>
    <nd ref="234214151"/>
    <tag k="highway" v="residential"/>
    <tag k="maxspeed" v="50"/>
    <tag k="maxspeed:source" v="default residential speed limit in Australia"/>
    <tag k="name" v="Laught Avenue"/>
  </way>
  <way id="21729758" version="7" timestamp="2011-08-02T04:02:07Z" uid="428465" user="markinspace" changeset="8897178">
    <nd ref="234197470"/>
    <nd ref="234214149"/>
    <nd ref="703615320"/>
    <nd ref="703614929"/>
    <nd ref="234214151"/>
    <tag k="highway" v="residential"/>
    <tag k="maxspeed" v="40"/>
    <tag k="maxspeed:source" v="default residential speed limit in Australia"/>
    <tag k="name" v="Laught Avenue"/>
  </way>
  <way id="21729758" version="8" timestamp="2012-01-15T21:46:45Z" uid="147510" user="woodpeck_fixbot" changeset="10402983">
    <nd ref="234197470"/>
    <nd ref="234214149"/>
    <nd ref="703615320"/>
    <nd ref="703614929"/>
    <nd ref="234214151"/>
    <tag k="highway" v="residential"/>
    <tag k="name" v="Laught Avenue"/>
  </way>
</osm>
