<?xml version='1.0' encoding='UTF-8'?>
<osm version="0.6" generator="libosmium/2.20.0">
  <way id="21764048" version="4" timestamp="2008-09-21T22:43:58Z" uid="65847" user="LKK" changeset="678349">
    <nd ref="27422440"/>
    <nd ref="298914793"/>
    <nd ref="27422439"/>
    <nd ref="27422438"/>
    <nd ref="27422437"/>
    <nd ref="27422436"/>
    <nd ref="27422435"/>
    <nd ref="27422434"/>
    <nd ref="27422433"/>
    <nd ref="27422432"/>
    <nd ref="27422431"/>
    <tag k="created_by" v="JOSM"/>
    <tag k="highway" v="secondary"/>
    <tag k="maxspeed" v="60"/>
    <tag k="name" v="Lorsbacher Straße"/>
    <tag k="ref" v="L 3011"/>
    <tag k="source" v="yahoo sat"/>
  </way>
  <way id="21764048" version="5" timestamp="2010-01-13T19:55:40Z" uid="8464" user="MichaH" changeset="3612460">
    <nd ref="27422440"/>
    <nd ref="298914793"/>
    <nd ref="27422439"/>
    <nd ref="27422438"/>
    <nd ref="27422437"/>
    <nd ref="27422436"/>
    <nd ref="27422435"/>
    <nd ref="27422434"/>
    <nd ref="27422433"/>
    <nd ref="27422432"/>
    <nd ref="27422431"/>
    <tag k="highway" v="secondary"/>
    <tag k="maxspeed" v="60"/>
    <tag k="name" v="Lorsbacher Straße"/>
    <tag k="ref" v="L 3011"/>
    <tag k="source" v="yahoo sat"/>
  </way>
  <way id="21764048" version="6" timestamp="2010-07-09T12:26:32Z" uid="46169" user="wolter" changeset="5173219">
    <nd ref="27422440"/>
    <nd ref="27422439"/>
    <nd ref="27422438"/>
    <nd ref="27422437"/>
    <nd ref="27422436"/>
    <nd ref="27422435"/>
    <nd ref="27422434"/>
    <nd ref="27422433"/>
    <nd ref="807828642"/>
    <nd ref="27422432"/>
    <nd ref="27422431"/>
    <tag k="highway" v="secondary"/>
    <tag k="maxspeed" v="60"/>
    <tag k="name" v="Lorsbacher Straße"/>
    <tag k="ref" v="L 3011"/>
    <tag k="source" v="yahoo sat"/>
  </way>
  <way id="21764048" version="7" timestamp="2011-04-19T15:03:48Z" uid="52759" user="b166er" changeset="7907364">
    <nd ref="27422440"/>
    <nd ref="27422439"/>
    <nd ref="27422438"/>
    <nd ref="27422437"/>
    <nd ref="27422436"/>
    <nd ref="27422435"/>
    <nd ref="27422434"/>
    <nd ref="27422433"/>
    <nd ref="807828642"/>
    <nd ref="27422432"/>
    <nd ref="27422431"/>
    <tag k="highway" v="secondary"/>
    <tag k="maxspeed" v="60"/>
    <tag k="name" v="Lorsbacher Straße"/>
    <tag k="oneway" v="no"/>
    <tag k="ref" v="L 3011"/>
    <tag k="source" v="yahoo sat"/>
  </way>
</osm>
