<?xml version='1.0' encoding='UTF-8'?>
<osm version="0.6" generator="libosmium/2.20.0">
  <way id="21781123" version="6" timestamp="2010-02-15T05:05:39Z" uid="74617" user="JohnSmith" changeset="3880242">
    <nd ref="53861084"/>
    <nd ref="234809369"/>
    <nd ref="234809372"/>
    <nd ref="234809373"/>
    <nd ref="234809377"/>
    <tag k="highway" v="residential"/>
    <tag k="maxspeed" v="50"/>
    <tag k="name" v="Sherbourne Place"/>
  </way>
  <way id="21781123" version="7" timestamp="2012-01-15T21:49:23Z" uid="147510" user="woodpeck_fixbot" changeset="10402983">
    <nd ref="53861084"/>
    <nd ref="234809369"/>
    <nd ref="234809372"/>
    <nd ref="234809373"/>
    <nd ref="234809377"/>
    <tag k="highway" v="residential"/>
    <tag k="name" v="Sherbourne Place"/>
  </way>
  <way id="21781903" version="5" timestamp="2009-08-13T12:35:00Z" uid="4467" user="Rosscoe" changeset="2130930">
    <nd ref="28156486"/>
    <nd ref="234814954"/>
    <nd ref="27291291"/>
    <nd ref="27315187"/>
    <nd ref="359872220"/>
    <nd ref="27289739"/>
    <nd ref="27289732"/>
    <nd ref="234815134"/>
    <nd ref="234815160"/>
    <nd ref="27289028"/>
    <tag k="highway" v="primary"/>
    <tag k="is_in" v="Mount Waverley,Victoria,Australia"/>
    <tag k="maxspeed" v="60"/>
    <tag k="name" v="Stephensons Road"/>
    <tag k="oneway" v="yes"/>
    <tag k="postal_code" v="3149"/>
    <tag k="ref" v="S23"/>
    <tag k="source" v="survey"/>
  </way>
  <way id="21781903" version="6" timestamp="2010-03-21T09:56:18Z" uid="6513" user="Glen" changeset="4188724">
    <nd ref="28156486"/>
    <nd ref="234814954"/>
    <nd ref="27291291"/>
    <nd ref="671205420"/>
    <nd ref="27315187"/>
    <nd ref="359872220"/>
    <nd ref="27289739"/>
    <nd ref="27289732"/>
    <nd ref="234815134"/>
    <nd ref="234815160"/>
    <nd ref="27289028"/>
    <tag k="highway" v="primary"/>
    <tag k="is_in" v="Mount Waverley,Victoria,Australia"/>
    <tag k="maxspeed" v="60"/>
    <tag k="name" v="Stephensons Road"/>
    <tag k="oneway" v="yes"/>
    <tag k="postal_code" v="3149"/>
    <tag k="ref" v="S23"/>
    <tag k="source" v="survey"/>
  </way>
  <way id="21781903" version="7" timestamp="2010-04-06T06:18:09Z" uid="74617" user="JohnSmith" changeset="4340624">
    <nd ref="28156486"/>
    <nd ref="234814954"/>
    <nd ref="27291291"/>
    <nd ref="671205420"/>
    <nd ref="27315187"/>
    <nd ref="359872220"/>
    <nd ref="27289739"/>
    <nd ref="27289732"/>
    <nd ref="234815134"/>
    <nd ref="234815160"/>
    <nd ref="27289028"/>
    <tag k="highway" v="primary"/>
    <tag k="maxspeed" v="60"/>
    <tag k="name" v="Stephensons Road"/>
    <tag k="oneway" v="yes"/>
    <tag k="source" v="survey"/>
  </way>
  <way id="21781903" version="8" timestamp="2010-06-23T02:32:33Z" uid="4467" user="Rosscoe" changeset="5056020">
    <nd ref="28156486"/>
    <nd ref="234814954"/>
    <nd ref="27291291"/>
    <nd ref="671205420"/>
    <nd ref="27315187"/>
    <nd ref="359872220"/>
    <nd ref="27289739"/>
    <nd ref="27289732"/>
    <nd ref="234815160"/>
    <nd ref="27289028"/>
    <tag k="highway" v="primary"/>
    <tag k="maxspeed" v="60"/>
    <tag k="name" v="Stephensons Road"/>
    <tag k="oneway" v="yes"/>
    <tag k="source" v="survey"/>
  </way>
  <way id="21781903" version="9" timestamp="2012-03-05T00:42:12Z" uid="201443" user="stevage" changeset="10875514">
    <nd ref="28156486"/>
    <nd ref="234814954"/>
    <nd ref="27291291"/>
    <nd ref="671205420"/>
    <nd ref="27315187"/>
    <nd ref="359872220"/>
    <nd ref="27289739"/>
    <nd ref="27289732"/>
    <nd ref="234815160"/>
    <nd ref="1659885752"/>
    <tag k="highway" v="primary"/>
    <tag k="maxspeed" v="60"/>
    <tag k="name" v="Stephensons Road"/>
    <tag k="oneway" v="yes"/>
    <tag k="source" v="survey"/>
  </way>
  <way id="21781912" version="5" timestamp="2009-08-13T12:34:59Z" uid="4467" user="Rosscoe" changeset="2130930">
    <nd ref="27289028"/>
    <nd ref="234815187"/>
    <nd ref="359873863"/>
    <nd ref="234815210"/>
    <nd ref="234815241"/>
    <nd ref="234815324"/>
    <nd ref="353679220"/>
    <nd ref="234815421"/>
    <nd ref="234815485"/>
    <nd ref="234815510"/>
    <nd ref="234815535"/>
    <nd ref="28156486"/>
    <tag k="highway" v="primary"/>
    <tag k="is_in" v="Mount Waverley,Victoria,Australia"/>
    <tag k="maxspeed" v="60"/>
    <tag k="name" v="Stephensons Road"/>
    <tag k="oneway" v="yes"/>
    <tag k="postal_code" v="3149"/>
    <tag k="ref" v="S23"/>
    <tag k="source" v="survey"/>
  </way>
  <way id="21781912" version="6" timestamp="2010-04-06T06:18:08Z" uid="74617" user="JohnSmith" changeset="4340624">
    <nd ref="27289028"/>
    <nd ref="234815187"/>
    <nd ref="359873863"/>
    <nd ref="234815210"/>
    <nd ref="234815241"/>
    <nd ref="234815324"/>
    <nd ref="353679220"/>
    <nd ref="234815421"/>
    <nd ref="234815485"/>
    <nd ref="234815510"/>
    <nd ref="234815535"/>
    <nd ref="28156486"/>
    <tag k="highway" v="primary"/>
    <tag k="maxspeed" v="60"/>
    <tag k="name" v="Stephensons Road"/>
    <tag k="oneway" v="yes"/>
    <tag k="source" v="survey"/>
  </way>
  <way id="21781912" version="7" timestamp="2010-06-23T02:31:42Z" uid="4467" user="Rosscoe" changeset="5056020">
    <nd ref="27289028"/>
    <nd ref="234815187"/>
    <nd ref="234815241"/>
    <nd ref="234815324"/>
    <nd ref="353679220"/>
    <nd ref="234815421"/>
    <nd ref="234815485"/>
    <nd ref="234815510"/>
    <nd ref="234815535"/>
    <nd ref="28156486"/>
    <tag k="highway" v="primary"/>
    <tag k="maxspeed" v="60"/>
    <tag k="name" v="Stephensons Road"/>
    <tag k="oneway" v="yes"/>
    <tag k="source" v="survey"/>
  </way>
  <way id="21781912" version="8" timestamp="2012-03-05T00:42:13Z" uid="201443" user="stevage" changeset="10875514">
    <nd ref="1659885752"/>
    <nd ref="234815187"/>
    <nd ref="234815241"/>
    <nd ref="234815324"/>
    <nd ref="353679220"/>
    <nd ref="234815421"/>
    <nd ref="234815485"/>
    <nd ref="234815510"/>
    <nd ref="234815535"/>
    <nd ref="28156486"/>
    <tag k="highway" v="primary"/>
    <tag k="maxspeed" v="60"/>
    <tag k="name" v="Stephensons Road"/>
    <tag k="oneway" v="yes"/>
    <tag k="source" v="survey"/>
  </way>
  <way id="21781926" version="8" timestamp="2009-08-13T13:16:23Z" uid="4467" user="Rosscoe" changeset="2131403">
    <nd ref="234815421"/>
    <nd ref="359869409"/>
    <tag k="highway" v="residential"/>
    <tag k="name" v="Hamilton Place"/>
  </way>
  <way id="21781926" version="9" timestamp="2010-06-23T02:31:33Z" uid="4467" user="Rosscoe" changeset="5056020">
    <nd ref="27315187"/>
    <nd ref="234815421"/>
    <nd ref="359869409"/>
    <tag k="highway" v="residential"/>
    <tag k="name" v="Hamilton Place"/>
  </way>
  <way id="21781926" version="10" timestamp="2010-07-09T02:49:46Z" uid="74617" user="JohnSmith" changeset="5170713">
    <nd ref="27315187"/>
    <nd ref="234815421"/>
    <nd ref="359869409"/>
    <tag k="highway" v="residential"/>
    <tag k="maxspeed" v="50"/>
    <tag k="maxspeed:source" v="default residential speed limit in Australia"/>
    <tag k="name" v="Hamilton Place"/>
  </way>
  <way id="21781926" version="11" timestamp="2010-08-19T07:09:34Z" uid="4467" user="Rosscoe" changeset="5532934">
    <nd ref="27315187"/>
    <nd ref="234815421"/>
    <nd ref="359869409"/>
    <tag k="highway" v="residential"/>
    <tag k="maxspeed" v="50"/>
    <tag k="name" v="Hamilton Place"/>
    <tag k="source:maxspeed" v="default residential speed limit in Australia"/>
  </way>
  <way id="21781926" version="12" timestamp="2012-01-15T21:49:24Z" uid="147510" user="woodpeck_fixbot" changeset="10402983">
    <nd ref="27315187"/>
    <nd ref="234815421"/>
    <nd ref="359869409"/>
    <tag k="highway" v="residential"/>
    <tag k="name" v="Hamilton Place"/>
    <tag k="source:maxspeed" v="default residential speed limit in Australia"/>
  </way>
  <way id="21781944" version="3" timestamp="2010-06-23T02:32:56Z" uid="4467" user="Rosscoe" changeset="5056020"/>
  <way id="21781954" version="3" timestamp="2010-06-23T02:32:20Z" uid="4467" user="Rosscoe" changeset="5056020">
    <nd ref="662769154"/>
    <nd ref="662769157"/>
    <nd ref="662769158"/>
    <nd ref="234815160"/>
    <nd ref="234815187"/>
    <tag k="highway" v="service"/>
    <tag k="service" v="parking_aisle"/>
  </way>
</osm>
