<?xml version='1.0' encoding='UTF-8'?>
<osm version="0.6" generator="libosmium/2.20.0">
  <way id="21795001" version="2" timestamp="2009-01-06T01:23:04Z" uid="30201" user="rrankin" changeset="743034">
    <nd ref="234924447"/>
    <nd ref="234924696"/>
    <nd ref="234924697"/>
    <tag k="created_by" v="Potlatch 0.6b"/>
    <tag k="highway" v="residential"/>
    <tag k="name" v="Parkinson Grove"/>
  </way>
  <way id="21795001" version="3" timestamp="2010-07-07T22:58:40Z" uid="74617" user="JohnSmith" changeset="5162525">
    <nd ref="234924447"/>
    <nd ref="234924696"/>
    <nd ref="234924697"/>
    <tag k="highway" v="residential"/>
    <tag k="maxspeed" v="50"/>
    <tag k="maxspeed:source" v="default residential speed limit in Australia"/>
    <tag k="name" v="Parkinson Grove"/>
  </way>
  <way id="21795001" version="4" timestamp="2012-01-15T21:51:00Z" uid="147510" user="woodpeck_fixbot" changeset="10402983">
    <nd ref="234924447"/>
    <nd ref="234924696"/>
    <nd ref="234924697"/>
    <tag k="highway" v="residential"/>
    <tag k="name" v="Parkinson Grove"/>
  </way>
  <way id="21795030" version="2" timestamp="2009-01-06T01:23:05Z" uid="30201" user="rrankin" changeset="743034">
    <nd ref="234924764"/>
    <nd ref="234924914"/>
    <tag k="created_by" v="Potlatch 0.6b"/>
    <tag k="highway" v="residential"/>
    <tag k="name" v="Molloy Place"/>
  </way>
  <way id="21795030" version="3" timestamp="2010-02-03T05:57:56Z" uid="47167" user="MCH" changeset="3780759">
    <nd ref="234924764"/>
    <nd ref="234924914"/>
    <tag k="highway" v="residential"/>
    <tag k="name" v="Molloy Place"/>
  </way>
  <way id="21795030" version="4" timestamp="2010-07-07T23:02:06Z" uid="74617" user="JohnSmith" changeset="5162525">
    <nd ref="234924764"/>
    <nd ref="234924914"/>
    <tag k="highway" v="residential"/>
    <tag k="maxspeed" v="50"/>
    <tag k="maxspeed:source" v="default residential speed limit in Australia"/>
    <tag k="name" v="Molloy Place"/>
  </way>
  <way id="21795030" version="5" timestamp="2012-01-15T21:51:05Z" uid="147510" user="woodpeck_fixbot" changeset="10402983">
    <nd ref="234924764"/>
    <nd ref="234924914"/>
    <tag k="highway" v="residential"/>
    <tag k="name" v="Molloy Place"/>
  </way>
  <way id="21795074" version="4" timestamp="2010-02-15T05:05:09Z" uid="74617" user="JohnSmith" changeset="3880242">
    <nd ref="234698914"/>
    <nd ref="234925323"/>
    <nd ref="234925325"/>
    <nd ref="234925326"/>
    <nd ref="234925328"/>
    <tag k="highway" v="residential"/>
    <tag k="maxspeed" v="50"/>
    <tag k="name" v="Treetop Close"/>
  </way>
  <way id="21795074" version="5" timestamp="2012-01-15T21:51:07Z" uid="147510" user="woodpeck_fixbot" changeset="10402983">
    <nd ref="234698914"/>
    <nd ref="234925323"/>
    <nd ref="234925325"/>
    <nd ref="234925326"/>
    <nd ref="234925328"/>
    <tag k="highway" v="residential"/>
    <tag k="name" v="Treetop Close"/>
  </way>
  <way id="21795086" version="2" timestamp="2009-01-06T01:23:00Z" uid="30201" user="rrankin" changeset="743034">
    <nd ref="234924972"/>
    <nd ref="234925495"/>
    <nd ref="234925498"/>
    <nd ref="234925500"/>
    <nd ref="234925502"/>
    <nd ref="234925504"/>
    <nd ref="234925506"/>
    <nd ref="234925508"/>
    <nd ref="234925509"/>
    <nd ref="234925511"/>
    <tag k="created_by" v="Potlatch 0.6b"/>
    <tag k="highway" v="residential"/>
    <tag k="name" v="Fairburn Crescent"/>
  </way>
  <way id="21795086" version="3" timestamp="2010-07-07T23:01:04Z" uid="74617" user="JohnSmith" changeset="5162525">
    <nd ref="234924972"/>
    <nd ref="234925495"/>
    <nd ref="234925498"/>
    <nd ref="234925500"/>
    <nd ref="234925502"/>
    <nd ref="234925504"/>
    <nd ref="234925506"/>
    <nd ref="234925508"/>
    <nd ref="234925509"/>
    <nd ref="234925511"/>
    <tag k="highway" v="residential"/>
    <tag k="maxspeed" v="50"/>
    <tag k="maxspeed:source" v="default residential speed limit in Australia"/>
    <tag k="name" v="Fairburn Crescent"/>
  </way>
  <way id="21795086" version="4" timestamp="2012-01-15T21:51:12Z" uid="147510" user="woodpeck_fixbot" changeset="10402983">
    <nd ref="234924972"/>
    <nd ref="234925495"/>
    <nd ref="234925498"/>
    <nd ref="234925500"/>
    <nd ref="234925502"/>
    <nd ref="234925504"/>
    <nd ref="234925506"/>
    <nd ref="234925508"/>
    <nd ref="234925509"/>
    <nd ref="234925511"/>
    <tag k="highway" v="residential"/>
    <tag k="name" v="Fairburn Crescent"/>
  </way>
  <way id="21795594" version="4" timestamp="2010-02-15T05:05:10Z" uid="74617" user="JohnSmith" changeset="3880242">
    <nd ref="54624314"/>
    <nd ref="234931681"/>
    <nd ref="234931682"/>
    <tag k="highway" v="residential"/>
    <tag k="maxspeed" v="50"/>
    <tag k="name" v="Elwood Street"/>
  </way>
  <way id="21795594" version="5" timestamp="2012-01-15T21:51:14Z" uid="147510" user="woodpeck_fixbot" changeset="10402983">
    <nd ref="54624314"/>
    <nd ref="234931681"/>
    <nd ref="234931682"/>
    <tag k="highway" v="residential"/>
    <tag k="name" v="Elwood Street"/>
  </way>
</osm>
