<?xml version='1.0' encoding='UTF-8'?>
<osm version="0.6" generator="libosmium/2.20.0">
  <way id="21792025" version="4" timestamp="2010-09-11T05:46:44Z" uid="61114" user="Trav" changeset="5746762">
    <nd ref="234888250"/>
    <nd ref="234887194"/>
    <nd ref="234888251"/>
    <nd ref="234888254"/>
    <nd ref="234888255"/>
    <nd ref="234888257"/>
    <nd ref="234888259"/>
    <nd ref="234888261"/>
    <tag k="created_by" v="Potlatch 0.6b"/>
    <tag k="highway" v="unclassified"/>
    <tag k="name" v="Sterling Road"/>
    <tag k="source" v="survey"/>
    <tag k="source:name" v="survey"/>
  </way>
  <way id="21792087" version="2" timestamp="2010-02-15T05:05:41Z" uid="74617" user="JohnSmith" changeset="3880242">
    <nd ref="234888953"/>
    <nd ref="234888958"/>
    <nd ref="234888962"/>
    <nd ref="234888963"/>
    <nd ref="234888964"/>
    <nd ref="234888967"/>
    <nd ref="234888969"/>
    <nd ref="234888970"/>
    <nd ref="234888972"/>
    <nd ref="234888973"/>
    <nd ref="234888975"/>
    <nd ref="234888977"/>
    <nd ref="234888978"/>
    <nd ref="234888953"/>
    <tag k="man_made" v="reservoir_covered"/>
  </way>
  <way id="21792087" version="3" timestamp="2010-07-10T05:31:42Z" uid="211951" user="Dr Paul Martin" changeset="5179208">
    <nd ref="234888953"/>
    <nd ref="234888958"/>
    <nd ref="234888962"/>
    <nd ref="234888963"/>
    <nd ref="809438451"/>
    <nd ref="234888964"/>
    <nd ref="234888967"/>
    <nd ref="234888969"/>
    <nd ref="234888970"/>
    <nd ref="809438456"/>
    <nd ref="234888972"/>
    <nd ref="234888973"/>
    <nd ref="234888975"/>
    <nd ref="234888977"/>
    <nd ref="234888978"/>
    <nd ref="809438466"/>
    <nd ref="234888953"/>
    <tag k="building" v="yes"/>
    <tag k="man_made" v="reservoir_covered"/>
  </way>
  <way id="21792241" version="3" timestamp="2009-09-20T07:57:00Z" uid="7617" user="Franc" changeset="2542001">
    <nd ref="234881320"/>
    <nd ref="234890499"/>
    <tag k="created_by" v="Potlatch 0.6b"/>
    <tag k="highway" v="unclassified"/>
    <tag k="name" v="Sargents Road"/>
    <tag k="oneway" v="yes"/>
    <tag k="source" v="survey"/>
  </way>
  <way id="21792260" version="3" timestamp="2009-09-20T07:56:59Z" uid="7617" user="Franc" changeset="2542001">
    <nd ref="234890497"/>
    <nd ref="234881320"/>
    <tag k="created_by" v="Potlatch 0.6b"/>
    <tag k="highway" v="unclassified"/>
    <tag k="name" v="Sargents Road"/>
    <tag k="oneway" v="yes"/>
    <tag k="source" v="survey"/>
  </way>
  <way id="21792273" version="3" timestamp="2010-10-04T07:35:21Z" uid="61114" user="Trav" changeset="5950908">
    <nd ref="234890506"/>
    <nd ref="234888261"/>
    <tag k="created_by" v="Potlatch 0.6b"/>
    <tag k="highway" v="unclassified"/>
    <tag k="name" v="Sterling Road"/>
    <tag k="oneway" v="yes"/>
    <tag k="source:name" v="extrapolation"/>
  </way>
  <way id="21792282" version="3" timestamp="2010-10-04T07:35:21Z" uid="61114" user="Trav" changeset="5950908">
    <nd ref="234888261"/>
    <nd ref="234890507"/>
    <tag k="created_by" v="Potlatch 0.6b"/>
    <tag k="highway" v="unclassified"/>
    <tag k="name" v="Sterling Road"/>
    <tag k="oneway" v="yes"/>
    <tag k="source:name" v="extrapolation"/>
  </way>
  <way id="21792314" version="2" timestamp="2010-09-11T05:46:45Z" uid="61114" user="Trav" changeset="5746762">
    <nd ref="234888257"/>
    <nd ref="234891917"/>
    <nd ref="234891919"/>
    <tag k="created_by" v="Potlatch 0.6b"/>
    <tag k="highway" v="unclassified"/>
    <tag k="name" v="Purdy Street"/>
    <tag k="source:name" v="survey"/>
  </way>
  <way id="21792406" version="2" timestamp="2010-09-11T05:46:44Z" uid="61114" user="Trav" changeset="5746762">
    <nd ref="234888251"/>
    <nd ref="234892854"/>
    <nd ref="234892857"/>
    <nd ref="234892859"/>
    <tag k="created_by" v="Potlatch 0.6b"/>
    <tag k="highway" v="unclassified"/>
    <tag k="name" v="Grex Avenue"/>
    <tag k="source:name" v="survey"/>
  </way>
  <way id="21792418" version="2" timestamp="2010-09-11T05:46:45Z" uid="61114" user="Trav" changeset="5746762">
    <nd ref="234892857"/>
    <nd ref="234893030"/>
    <nd ref="234893033"/>
    <nd ref="234893035"/>
    <tag k="created_by" v="Potlatch 0.6b"/>
    <tag k="highway" v="unclassified"/>
    <tag k="name" v="Marieanne Place"/>
    <tag k="source:name" v="survey"/>
  </way>
  <way id="21792462" version="2" timestamp="2010-02-15T05:05:18Z" uid="74617" user="JohnSmith" changeset="3880242">
    <nd ref="234891540"/>
    <nd ref="234893514"/>
    <nd ref="234893516"/>
    <tag k="access" v="private"/>
    <tag k="highway" v="service"/>
    <tag k="maxspeed" v="50"/>
  </way>
  <way id="21792462" version="3" timestamp="2012-01-15T21:50:04Z" uid="147510" user="woodpeck_fixbot" changeset="10402983">
    <nd ref="234891540"/>
    <nd ref="234893514"/>
    <nd ref="234893516"/>
    <tag k="access" v="private"/>
    <tag k="highway" v="service"/>
  </way>
  <way id="21792479" version="2" timestamp="2010-09-11T05:46:45Z" uid="61114" user="Trav" changeset="5746762">
    <nd ref="234893627"/>
    <nd ref="234893628"/>
    <nd ref="234893629"/>
    <nd ref="234892859"/>
    <nd ref="234893632"/>
    <tag k="created_by" v="Potlatch 0.6b"/>
    <tag k="highway" v="unclassified"/>
    <tag k="name" v="Eddie Road"/>
    <tag k="source:name" v="survey"/>
  </way>
  <way id="21792490" version="3" timestamp="2010-10-04T07:35:20Z" uid="61114" user="Trav" changeset="5950908">
    <nd ref="234893632"/>
    <nd ref="234890493"/>
    <tag k="created_by" v="Potlatch 0.6b"/>
    <tag k="highway" v="unclassified"/>
    <tag k="name" v="Eddie Road"/>
    <tag k="oneway" v="yes"/>
    <tag k="source:name" v="extrapolation"/>
  </way>
  <way id="21792504" version="3" timestamp="2010-10-04T07:35:20Z" uid="61114" user="Trav" changeset="5950908">
    <nd ref="234890508"/>
    <nd ref="234893632"/>
    <tag k="created_by" v="Potlatch 0.6b"/>
    <tag k="highway" v="unclassified"/>
    <tag k="name" v="Eddie Road"/>
    <tag k="oneway" v="yes"/>
    <tag k="source:name" v="extrapolation"/>
  </way>
  <way id="21792539" version="4" timestamp="2010-10-04T07:35:20Z" uid="61114" user="Trav" changeset="5950908">
    <nd ref="234890502"/>
    <nd ref="234894351"/>
    <tag k="created_by" v="Potlatch 0.6b"/>
    <tag k="highway" v="unclassified"/>
    <tag k="name" v="Eddie Road"/>
    <tag k="source:name" v="extrapolation"/>
  </way>
  <way id="21792539" version="5" timestamp="2011-03-10T11:33:49Z" uid="203324" user="firefly2560" changeset="7513100">
    <nd ref="234890502"/>
    <nd ref="234894351"/>
    <tag k="highway" v="unclassified"/>
    <tag k="name" v="Eddie Road"/>
    <tag k="oneway" v="yes"/>
    <tag k="source:name" v="extrapolation"/>
  </way>
  <way id="21792559" version="3" timestamp="2010-10-04T07:35:20Z" uid="61114" user="Trav" changeset="5950908">
    <nd ref="234894351"/>
    <nd ref="234890505"/>
    <tag k="created_by" v="Potlatch 0.6b"/>
    <tag k="highway" v="unclassified"/>
    <tag k="name" v="Eddie Road"/>
    <tag k="source:name" v="extrapolation"/>
  </way>
  <way id="21792559" version="4" timestamp="2011-03-10T11:33:50Z" uid="203324" user="firefly2560" changeset="7513100">
    <nd ref="234894351"/>
    <nd ref="234890505"/>
    <tag k="highway" v="unclassified"/>
    <tag k="name" v="Eddie Road"/>
    <tag k="oneway" v="yes"/>
    <tag k="source:name" v="extrapolation"/>
  </way>
  <way id="21792585" version="4" timestamp="2010-09-11T05:46:45Z" uid="61114" user="Trav" changeset="5746762">
    <nd ref="234894351"/>
    <nd ref="234894693"/>
    <tag k="created_by" v="Potlatch 0.6b"/>
    <tag k="highway" v="unclassified"/>
    <tag k="name" v="Eddie Road"/>
    <tag k="source" v="survey"/>
    <tag k="source:name" v="survey"/>
  </way>
  <way id="21792608" version="4" timestamp="2010-10-04T07:35:20Z" uid="61114" user="Trav" changeset="5950908">
    <nd ref="234894693"/>
    <nd ref="34913623"/>
    <tag k="created_by" v="Potlatch 0.6b"/>
    <tag k="highway" v="unclassified"/>
    <tag k="name" v="Eddie Road"/>
    <tag k="source:name" v="extrapolation"/>
  </way>
  <way id="21792608" version="5" timestamp="2011-03-10T11:33:50Z" uid="203324" user="firefly2560" changeset="7513100">
    <nd ref="234894693"/>
    <nd ref="34913623"/>
    <tag k="highway" v="unclassified"/>
    <tag k="name" v="Eddie Road"/>
    <tag k="oneway" v="yes"/>
    <tag k="source:name" v="extrapolation"/>
  </way>
  <way id="21792625" version="4" timestamp="2010-10-04T07:35:19Z" uid="61114" user="Trav" changeset="5950908">
    <nd ref="34913622"/>
    <nd ref="234894693"/>
    <tag k="created_by" v="Potlatch 0.6b"/>
    <tag k="highway" v="unclassified"/>
    <tag k="name" v="Eddie Road"/>
    <tag k="source:name" v="extrapolation"/>
  </way>
  <way id="21792625" version="5" timestamp="2011-03-10T11:33:50Z" uid="203324" user="firefly2560" changeset="7513100">
    <nd ref="34913622"/>
    <nd ref="234894693"/>
    <tag k="highway" v="unclassified"/>
    <tag k="name" v="Eddie Road"/>
    <tag k="oneway" v="yes"/>
    <tag k="source:name" v="extrapolation"/>
  </way>
  <way id="21792760" version="3" timestamp="2010-02-15T05:04:54Z" uid="74617" user="JohnSmith" changeset="3880242">
    <nd ref="234894764"/>
    <nd ref="234897713"/>
    <nd ref="234897714"/>
    <tag k="access" v="private"/>
    <tag k="highway" v="service"/>
    <tag k="maxspeed" v="50"/>
  </way>
  <way id="21792760" version="4" timestamp="2012-01-15T21:50:04Z" uid="147510" user="woodpeck_fixbot" changeset="10402983">
    <nd ref="234894764"/>
    <nd ref="234897713"/>
    <nd ref="234897714"/>
    <tag k="access" v="private"/>
    <tag k="highway" v="service"/>
  </way>
  <way id="21792979" version="2" timestamp="2009-01-05T23:00:47Z" uid="30201" user="rrankin" changeset="743034">
    <nd ref="234901773"/>
    <nd ref="234902001"/>
    <nd ref="234902002"/>
    <nd ref="234902003"/>
    <nd ref="234902005"/>
    <tag k="created_by" v="Potlatch 0.6b"/>
    <tag k="highway" v="residential"/>
    <tag k="name" v="Jacques Place"/>
  </way>
  <way id="21792979" version="3" timestamp="2010-07-07T23:04:13Z" uid="74617" user="JohnSmith" changeset="5162525">
    <nd ref="234901773"/>
    <nd ref="234902001"/>
    <nd ref="234902002"/>
    <nd ref="234902003"/>
    <nd ref="234902005"/>
    <tag k="highway" v="residential"/>
    <tag k="maxspeed" v="50"/>
    <tag k="maxspeed:source" v="default residential speed limit in Australia"/>
    <tag k="name" v="Jacques Place"/>
  </way>
  <way id="21792979" version="4" timestamp="2012-01-15T21:50:05Z" uid="147510" user="woodpeck_fixbot" changeset="10402983">
    <nd ref="234901773"/>
    <nd ref="234902001"/>
    <nd ref="234902002"/>
    <nd ref="234902003"/>
    <nd ref="234902005"/>
    <tag k="highway" v="residential"/>
    <tag k="name" v="Jacques Place"/>
  </way>
</osm>
