<?xml version='1.0' encoding='UTF-8'?>
<osm version="0.6" generator="libosmium/2.20.0">
  <way id="21800755" version="11" timestamp="2008-10-14T11:52:52Z" uid="27600" user="Islanit" changeset="332518">
    <nd ref="234549939"/>
    <nd ref="234547564"/>
    <tag k="created_by" v="Potlatch 0.10e"/>
    <tag k="cycleway" v="lane"/>
    <tag k="highway" v="primary"/>
    <tag k="lanes" v="4"/>
    <tag k="loc_ref" v="Ring 2"/>
    <tag k="name" v="Horner Rampe"/>
  </way>
  <way id="21800755" version="12" timestamp="2008-10-14T11:53:02Z" uid="27600" user="Islanit" changeset="332518">
    <nd ref="234549939"/>
    <nd ref="234547564"/>
    <tag k="bridge" v="yes"/>
    <tag k="created_by" v="Potlatch 0.10e"/>
    <tag k="cycleway" v="lane"/>
    <tag k="highway" v="primary"/>
    <tag k="lanes" v="4"/>
    <tag k="loc_ref" v="Ring 2"/>
    <tag k="name" v="Horner Rampe"/>
  </way>
  <way id="21800755" version="13" timestamp="2009-01-28T07:50:31Z" uid="4902" user="mbuege" changeset="848161">
    <nd ref="234549939"/>
    <nd ref="234547564"/>
    <tag k="bridge" v="yes"/>
    <tag k="created_by" v="Potlatch 0.10e"/>
    <tag k="cycleway" v="lane"/>
    <tag k="highway" v="primary"/>
    <tag k="lanes" v="4"/>
    <tag k="layer" v="1"/>
    <tag k="loc_ref" v="Ring 2"/>
    <tag k="name" v="Horner Rampe"/>
  </way>
  <way id="21800755" version="14" timestamp="2009-05-28T09:00:57Z" uid="7041" user="UncleOwen" changeset="1340785">
    <nd ref="234547564"/>
    <nd ref="234549939"/>
    <tag k="bridge" v="yes"/>
    <tag k="created_by" v="Potlatch 0.10e"/>
    <tag k="cycleway" v="lane"/>
    <tag k="highway" v="primary"/>
    <tag k="lanes" v="4"/>
    <tag k="layer" v="1"/>
    <tag k="loc_ref" v="Ring 2"/>
    <tag k="name" v="Horner Rampe"/>
  </way>
  <way id="21800755" version="15" timestamp="2009-05-28T10:55:28Z" uid="7041" user="UncleOwen" changeset="1341627">
    <nd ref="234547564"/>
    <nd ref="234549939"/>
    <tag k="bridge" v="yes"/>
    <tag k="created_by" v="Potlatch 0.10e"/>
    <tag k="cycleway" v="lane"/>
    <tag k="highway" v="primary"/>
    <tag k="lanes" v="4"/>
    <tag k="layer" v="1"/>
    <tag k="loc_ref" v="Ring 2"/>
    <tag k="name" v="Horner Rampe"/>
    <tag k="ref" v="Ring 2"/>
  </way>
  <way id="21800755" version="16" timestamp="2009-05-28T11:04:39Z" uid="7041" user="UncleOwen" changeset="1341699">
    <nd ref="234547564"/>
    <nd ref="234549939"/>
    <tag k="bridge" v="yes"/>
    <tag k="created_by" v="Potlatch 0.10e"/>
    <tag k="cycleway" v="lane"/>
    <tag k="highway" v="primary"/>
    <tag k="lanes" v="4"/>
    <tag k="layer" v="1"/>
    <tag k="name" v="Horner Rampe"/>
    <tag k="ref" v="Ring 2"/>
  </way>
  <way id="21800755" version="17" timestamp="2009-11-15T01:14:24Z" uid="51991" user="Wolfgang H" changeset="3118571">
    <nd ref="234547564"/>
    <nd ref="234549939"/>
    <tag k="bridge" v="yes"/>
    <tag k="cycleway" v="lane"/>
    <tag k="highway" v="primary"/>
    <tag k="lanes" v="4"/>
    <tag k="layer" v="1"/>
    <tag k="lit" v="yes"/>
    <tag k="maxspeed" v="50"/>
    <tag k="name" v="Horner Rampe"/>
    <tag k="ref" v="Ring 2"/>
  </way>
</osm>
