<?xml version='1.0' encoding='UTF-8'?>
<osm version="0.6" generator="libosmium/2.20.0">
  <way id="21805106" version="37" timestamp="2010-03-07T10:55:04Z" uid="58091" user="Andreas M" changeset="4059542">
    <nd ref="622311427"/>
    <nd ref="237789633"/>
    <nd ref="237789635"/>
    <nd ref="237789636"/>
    <nd ref="237789637"/>
    <nd ref="237789638"/>
    <tag k="highway" v="primary"/>
    <tag k="is_in" v="...,Bezirk Mistelbach,Niederösterreich,Österreich,Europa"/>
    <tag k="maxspeed" v="50"/>
    <tag k="name" v="Liechtensteinstraße"/>
    <tag k="ref" v="B40"/>
  </way>
  <way id="21805106" version="38" timestamp="2010-11-18T10:04:28Z" uid="53306" user="Wolfgang B" changeset="6398727">
    <nd ref="622311427"/>
    <nd ref="237789633"/>
    <nd ref="237789635"/>
    <nd ref="237789636"/>
    <nd ref="993536842"/>
    <nd ref="237789637"/>
    <nd ref="237789638"/>
    <tag k="highway" v="primary"/>
    <tag k="is_in" v="...,Bezirk Mistelbach,Niederösterreich,Österreich,Europa"/>
    <tag k="maxspeed" v="50"/>
    <tag k="name" v="Liechtensteinstraße"/>
    <tag k="ref" v="B40"/>
  </way>
  <way id="21805106" version="39" timestamp="2010-12-01T10:04:03Z" uid="53306" user="Wolfgang B" changeset="6501897">
    <nd ref="622311427"/>
    <nd ref="237789633"/>
    <nd ref="237789635"/>
    <nd ref="237789636"/>
    <nd ref="993536842"/>
    <nd ref="237789637"/>
    <nd ref="237789638"/>
    <tag k="highway" v="primary"/>
    <tag k="is_in" v="...,Bezirk Mistelbach,Niederösterreich,Österreich,Europa"/>
    <tag k="maxspeed" v="50"/>
    <tag k="ref" v="B40"/>
  </way>
  <way id="21805106" version="40" timestamp="2011-01-07T15:14:08Z" uid="45347" user="eriosw" changeset="6893686">
    <nd ref="622311427"/>
    <nd ref="237789633"/>
    <nd ref="237789635"/>
    <nd ref="237789636"/>
    <nd ref="993536842"/>
    <nd ref="237789637"/>
    <nd ref="237789638"/>
    <tag k="highway" v="primary"/>
    <tag k="is_in" v="Mistelbach,Mistelbach,Niederösterreich,Österreich,Europe"/>
    <tag k="maxspeed" v="50"/>
    <tag k="ref" v="B40"/>
  </way>
  <way id="21805106" version="41" timestamp="2011-02-02T10:41:34Z" uid="53306" user="Wolfgang B" changeset="7163308">
    <nd ref="622311427"/>
    <nd ref="237789633"/>
    <nd ref="237789635"/>
    <nd ref="1132227376"/>
    <nd ref="237789636"/>
    <tag k="highway" v="primary"/>
    <tag k="is_in" v="Mistelbach,Mistelbach,Niederösterreich,Österreich,Europe"/>
    <tag k="maxspeed" v="70"/>
    <tag k="ref" v="B40"/>
  </way>
</osm>
