<?xml version='1.0' encoding='UTF-8'?>
<osm version="0.6" generator="libosmium/2.20.0">
  <way id="21801478" version="9" timestamp="2008-07-12T06:57:10Z" uid="27600" user="Islanit" changeset="469615">
    <nd ref="162448"/>
    <nd ref="260125231"/>
    <nd ref="93117141"/>
    <tag k="created_by" v="Potlatch 0.9c"/>
    <tag k="highway" v="trunk"/>
    <tag k="name" v="Bergedorfer Straße"/>
    <tag k="oneway" v="true"/>
    <tag k="ref" v="B 5"/>
  </way>
  <way id="21801478" version="10" timestamp="2008-07-16T18:48:17Z" uid="27600" user="Islanit" changeset="507826">
    <nd ref="162448"/>
    <nd ref="260125231"/>
    <nd ref="93117141"/>
    <tag k="bicycle" v="no"/>
    <tag k="created_by" v="Potlatch 0.9c"/>
    <tag k="highway" v="trunk"/>
    <tag k="name" v="Bergedorfer Straße"/>
    <tag k="oneway" v="true"/>
    <tag k="ref" v="B 5"/>
  </way>
  <way id="21801478" version="11" timestamp="2008-08-06T10:33:25Z" uid="1852" user="Sven Anders" changeset="103133">
    <nd ref="162448"/>
    <nd ref="260125231"/>
    <nd ref="93117141"/>
    <tag k="bicycle" v="no"/>
    <tag k="created_by" v="Potlatch 0.9c"/>
    <tag k="highway" v="trunk"/>
    <tag k="name" v="Bergedorfer Straße"/>
    <tag k="oneway" v="true"/>
    <tag k="ref" v="B 5"/>
  </way>
  <way id="21801478" version="12" timestamp="2009-04-17T01:14:45Z" uid="103885" user="logicbot" changeset="603450">
    <nd ref="162448"/>
    <nd ref="260125231"/>
    <nd ref="93117141"/>
    <tag k="bicycle" v="no"/>
    <tag k="created_by" v="Potlatch 0.9c"/>
    <tag k="highway" v="trunk"/>
    <tag k="name" v="Bergedorfer Straße"/>
    <tag k="oneway" v="yes"/>
    <tag k="ref" v="B 5"/>
  </way>
  <way id="21801478" version="13" timestamp="2009-11-15T01:11:37Z" uid="51991" user="Wolfgang H" changeset="3118571">
    <nd ref="162448"/>
    <nd ref="260125231"/>
    <nd ref="93117141"/>
    <tag k="bicycle" v="no"/>
    <tag k="highway" v="trunk"/>
    <tag k="lanes" v="2"/>
    <tag k="name" v="Bergedorfer Straße"/>
    <tag k="oneway" v="yes"/>
    <tag k="ref" v="B 5"/>
  </way>
  <way id="21801478" version="14" timestamp="2009-12-29T16:45:35Z" uid="35560" user="HeikoE" changeset="3482890">
    <nd ref="162448"/>
    <nd ref="260125231"/>
    <nd ref="93117141"/>
    <tag k="bicycle" v="no"/>
    <tag k="highway" v="primary"/>
    <tag k="lanes" v="2"/>
    <tag k="name" v="Bergedorfer Straße"/>
    <tag k="oneway" v="yes"/>
    <tag k="ref" v="B 5"/>
  </way>
  <way id="21801478" version="15" timestamp="2010-01-27T11:38:32Z" uid="27600" user="Islanit" changeset="3727094">
    <nd ref="162448"/>
    <nd ref="260125231"/>
    <nd ref="93117141"/>
    <tag k="bicycle" v="no"/>
    <tag k="highway" v="trunk"/>
    <tag k="lanes" v="2"/>
    <tag k="name" v="Bergedorfer Straße"/>
    <tag k="oneway" v="yes"/>
    <tag k="ref" v="B 5"/>
  </way>
  <way id="21801478" version="16" timestamp="2012-01-26T20:31:36Z" uid="263596" user="Oberförster" changeset="10506915">
    <nd ref="162448"/>
    <nd ref="260125231"/>
    <nd ref="93117141"/>
    <tag k="bicycle" v="no"/>
    <tag k="highway" v="trunk"/>
    <tag k="lanes" v="2"/>
    <tag k="motorroad" v="yes"/>
    <tag k="name" v="Bergedorfer Straße"/>
    <tag k="oneway" v="yes"/>
    <tag k="ref" v="B 5"/>
  </way>
  <way id="21801478" version="17" timestamp="2012-01-29T02:09:47Z" uid="147510" user="woodpeck_fixbot" changeset="10526539">
    <nd ref="162448"/>
    <nd ref="260125231"/>
    <nd ref="93117141"/>
    <tag k="bicycle" v="no"/>
    <tag k="highway" v="trunk"/>
    <tag k="lanes" v="2"/>
    <tag k="name" v="Bergedorfer Straße"/>
    <tag k="oneway" v="yes"/>
    <tag k="ref" v="B 5"/>
  </way>
  <way id="21801478" version="18" timestamp="2012-01-29T12:26:57Z" uid="58434" user="tomek11" changeset="10529314">
    <nd ref="162448"/>
    <nd ref="260125231"/>
    <nd ref="93117141"/>
    <tag k="bicycle" v="no"/>
    <tag k="highway" v="trunk"/>
    <tag k="lanes" v="2"/>
    <tag k="maxspeed" v="70"/>
    <tag k="name" v="Bergedorfer Straße"/>
    <tag k="oneway" v="yes"/>
    <tag k="ref" v="B 5"/>
  </way>
  <way id="21801478" version="19" timestamp="2012-03-02T06:40:37Z" uid="63375" user="Divjo" changeset="10844902"/>
</osm>
