<?xml version='1.0' encoding='UTF-8'?>
<osm version="0.6" generator="libosmium/2.20.0">
  <way id="21898191" version="7" timestamp="2009-02-01T18:33:38Z" uid="34428" user="usm78-gis" changeset="31975">
    <nd ref="94124298"/>
    <nd ref="15850834"/>
    <nd ref="15850813"/>
    <nd ref="235980501"/>
    <nd ref="15850807"/>
    <nd ref="15850805"/>
    <nd ref="223756"/>
    <nd ref="238175141"/>
    <tag k="created_by" v="Potlatch 0.6c"/>
    <tag k="highway" v="trunk"/>
    <tag k="name" v="M-10"/>
    <tag k="oneway" v="yes"/>
    <tag k="ref" v="E-18"/>
  </way>
  <way id="21898191" version="8" timestamp="2009-05-11T19:46:14Z" uid="15056" user="red_rebel" changeset="1157612">
    <nd ref="94124298"/>
    <nd ref="15850834"/>
    <nd ref="15850813"/>
    <nd ref="235980501"/>
    <nd ref="15850807"/>
    <nd ref="15850805"/>
    <nd ref="223756"/>
    <nd ref="238175141"/>
    <tag k="created_by" v="Potlatch 0.6c"/>
    <tag k="highway" v="trunk"/>
    <tag k="int_ref" v="E-18"/>
    <tag k="name" v="M-10"/>
    <tag k="oneway" v="yes"/>
    <tag k="ref" v="E-18"/>
  </way>
  <way id="21898191" version="9" timestamp="2009-05-12T23:10:57Z" uid="34428" user="usm78-gis" changeset="1170449">
    <nd ref="94124298"/>
    <nd ref="15850834"/>
    <nd ref="15850813"/>
    <nd ref="235980501"/>
    <nd ref="15850807"/>
    <nd ref="15850805"/>
    <nd ref="223756"/>
    <nd ref="238175141"/>
    <tag k="bridge" v="yes"/>
    <tag k="created_by" v="Potlatch 0.6c"/>
    <tag k="highway" v="trunk"/>
    <tag k="int_ref" v="E-18"/>
    <tag k="name" v="M-10"/>
    <tag k="oneway" v="yes"/>
    <tag k="ref" v="E-18"/>
  </way>
  <way id="21898191" version="10" timestamp="2009-07-20T20:39:32Z" uid="15056" user="red_rebel" changeset="1889398">
    <nd ref="94124298"/>
    <nd ref="15850834"/>
    <nd ref="15850813"/>
    <nd ref="235980501"/>
    <nd ref="15850807"/>
    <nd ref="15850805"/>
    <nd ref="223756"/>
    <nd ref="238175141"/>
    <tag k="bridge" v="yes"/>
    <tag k="highway" v="trunk"/>
    <tag k="int_ref" v="E-18"/>
    <tag k="name" v="M-10"/>
    <tag k="oneway" v="yes"/>
    <tag k="ref" v="M-10"/>
  </way>
  <way id="21898191" version="11" timestamp="2009-09-05T06:41:28Z" uid="17752" user="Yuri Nazarov" changeset="2377026">
    <nd ref="94124298"/>
    <nd ref="15850834"/>
    <nd ref="15850813"/>
    <nd ref="235980501"/>
    <nd ref="15850807"/>
    <nd ref="15850805"/>
    <nd ref="223756"/>
    <nd ref="238175141"/>
    <tag k="bridge" v="yes"/>
    <tag k="highway" v="trunk"/>
    <tag k="int_ref" v="E 18"/>
    <tag k="oneway" v="yes"/>
    <tag k="ref" v="М10"/>
  </way>
  <way id="21898191" version="12" timestamp="2010-03-18T22:07:26Z" uid="241933" user="Wvuka" changeset="4165947">
    <nd ref="94124298"/>
    <nd ref="15850834"/>
    <nd ref="15850813"/>
    <nd ref="235980501"/>
    <nd ref="15850807"/>
    <nd ref="15850805"/>
    <nd ref="223756"/>
    <tag k="bridge" v="yes"/>
    <tag k="highway" v="trunk"/>
    <tag k="int_ref" v="E 18"/>
    <tag k="oneway" v="yes"/>
    <tag k="ref" v="М10"/>
  </way>
  <way id="21898191" version="13" timestamp="2010-03-18T22:10:41Z" uid="241933" user="Wvuka" changeset="4165973">
    <nd ref="669146775"/>
    <nd ref="15850813"/>
    <nd ref="235980501"/>
    <nd ref="15850807"/>
    <nd ref="15850805"/>
    <tag k="bridge" v="yes"/>
    <tag k="highway" v="trunk"/>
    <tag k="int_ref" v="E 18"/>
    <tag k="oneway" v="yes"/>
    <tag k="ref" v="М10"/>
  </way>
  <way id="21898191" version="14" timestamp="2010-03-18T22:42:42Z" uid="241933" user="Wvuka" changeset="4166230">
    <nd ref="669146775"/>
    <nd ref="15850813"/>
    <nd ref="235980501"/>
    <nd ref="15850807"/>
    <nd ref="15850805"/>
    <tag k="bridge" v="yes"/>
    <tag k="highway" v="trunk"/>
    <tag k="int_ref" v="E 18"/>
    <tag k="name" v="Приморское ш."/>
    <tag k="oneway" v="yes"/>
    <tag k="ref" v="М10"/>
  </way>
  <way id="21898191" version="15" timestamp="2010-03-25T05:55:25Z" uid="30590" user="KekcuHa" changeset="4226782">
    <nd ref="669146775"/>
    <nd ref="15850813"/>
    <nd ref="235980501"/>
    <nd ref="15850807"/>
    <nd ref="15850805"/>
    <tag k="addr:postcode" v="197706"/>
    <tag k="bridge" v="yes"/>
    <tag k="cladr:code" v="78000010000005600"/>
    <tag k="cladr:name" v="Приморское"/>
    <tag k="cladr:suffix" v="Шоссе"/>
    <tag k="highway" v="trunk"/>
    <tag k="int_ref" v="E 18"/>
    <tag k="name" v="Приморское ш."/>
    <tag k="oneway" v="yes"/>
    <tag k="ref" v="М10"/>
  </way>
  <way id="21898191" version="16" timestamp="2010-09-24T15:16:31Z" uid="290271" user="Zverik" changeset="5863701">
    <nd ref="669146775"/>
    <nd ref="15850813"/>
    <nd ref="235980501"/>
    <nd ref="15850807"/>
    <nd ref="15850805"/>
    <tag k="addr:postcode" v="197706"/>
    <tag k="bridge" v="yes"/>
    <tag k="cladr:code" v="78000010000005600"/>
    <tag k="cladr:name" v="Приморское"/>
    <tag k="cladr:suffix" v="Шоссе"/>
    <tag k="highway" v="trunk"/>
    <tag k="int_ref" v="E 18"/>
    <tag k="name" v="Приморское шоссе"/>
    <tag k="oneway" v="yes"/>
    <tag k="ref" v="М10"/>
    <tag k="surface" v="asphalt"/>
  </way>
  <way id="21898191" version="17" timestamp="2010-12-18T19:42:37Z" uid="290271" user="Zversky" changeset="6699712">
    <nd ref="669146775"/>
    <nd ref="15850813"/>
    <nd ref="235980501"/>
    <nd ref="15850807"/>
    <nd ref="15850805"/>
    <tag k="addr:postcode" v="197706"/>
    <tag k="bridge" v="yes"/>
    <tag k="cladr:code" v="78000010000005600"/>
    <tag k="cladr:name" v="Приморское"/>
    <tag k="cladr:suffix" v="Шоссе"/>
    <tag k="highway" v="trunk"/>
    <tag k="int_ref" v="E 18"/>
    <tag k="lanes" v="2"/>
    <tag k="lit" v="yes"/>
    <tag k="name" v="Приморское шоссе"/>
    <tag k="oneway" v="yes"/>
    <tag k="ref" v="М10"/>
    <tag k="surface" v="asphalt"/>
  </way>
  <way id="21898191" version="18" timestamp="2011-01-10T17:57:27Z" uid="136198" user="tmprec" changeset="6928864">
    <nd ref="669146775"/>
    <nd ref="235980501"/>
    <nd ref="15850807"/>
    <nd ref="15850805"/>
    <tag k="addr:postcode" v="197706"/>
    <tag k="bridge" v="yes"/>
    <tag k="cladr:code" v="78000010000005600"/>
    <tag k="cladr:name" v="Приморское"/>
    <tag k="cladr:suffix" v="Шоссе"/>
    <tag k="highway" v="trunk"/>
    <tag k="int_ref" v="E 18"/>
    <tag k="lanes" v="2"/>
    <tag k="layer" v="1"/>
    <tag k="lit" v="yes"/>
    <tag k="name" v="Приморское шоссе"/>
    <tag k="oneway" v="yes"/>
    <tag k="ref" v="М10"/>
    <tag k="surface" v="asphalt"/>
  </way>
  <way id="21898191" version="19" timestamp="2011-05-31T13:20:18Z" uid="446670" user="pixell" changeset="8301524">
    <nd ref="669146775"/>
    <nd ref="235980501"/>
    <nd ref="15850807"/>
    <nd ref="15850805"/>
    <tag k="addr:postcode" v="197706"/>
    <tag k="bridge" v="yes"/>
    <tag k="cladr:code" v="78000010000005600"/>
    <tag k="cladr:name" v="Приморское"/>
    <tag k="cladr:suffix" v="Шоссе"/>
    <tag k="highway" v="trunk"/>
    <tag k="int_ref" v="E 18"/>
    <tag k="lanes" v="2"/>
    <tag k="layer" v="1"/>
    <tag k="lit" v="yes"/>
    <tag k="maxspeed" v="70"/>
    <tag k="name" v="Приморское шоссе"/>
    <tag k="oneway" v="yes"/>
    <tag k="ref" v="М10"/>
    <tag k="surface" v="asphalt"/>
  </way>
  <way id="21898191" version="20" timestamp="2011-08-23T17:13:36Z" uid="39040" user="Dinamik" changeset="9105475">
    <nd ref="669146775"/>
    <nd ref="235980501"/>
    <nd ref="15850807"/>
    <nd ref="15850805"/>
    <tag k="addr:postcode" v="197706"/>
    <tag k="bridge" v="yes"/>
    <tag k="cladr:code" v="78000010000005600"/>
    <tag k="cladr:name" v="Приморское"/>
    <tag k="cladr:suffix" v="Шоссе"/>
    <tag k="highway" v="trunk"/>
    <tag k="int_ref" v="E 18"/>
    <tag k="lanes" v="2"/>
    <tag k="layer" v="1"/>
    <tag k="lit" v="yes"/>
    <tag k="name" v="Приморское шоссе"/>
    <tag k="oneway" v="yes"/>
    <tag k="ref" v="М10"/>
    <tag k="surface" v="asphalt"/>
  </way>
  <way id="21898191" version="21" timestamp="2011-09-27T19:21:59Z" uid="143266" user="Sergey Astakhov" changeset="9413750">
    <nd ref="669146775"/>
    <nd ref="235980501"/>
    <nd ref="15850807"/>
    <nd ref="15850805"/>
    <tag k="addr:postcode" v="197706"/>
    <tag k="bridge" v="yes"/>
    <tag k="highway" v="trunk"/>
    <tag k="int_ref" v="E 18"/>
    <tag k="lanes" v="2"/>
    <tag k="layer" v="1"/>
    <tag k="lit" v="yes"/>
    <tag k="name" v="Приморское шоссе"/>
    <tag k="oneway" v="yes"/>
    <tag k="ref" v="М10"/>
    <tag k="surface" v="asphalt"/>
  </way>
  <way id="21898411" version="7" timestamp="2009-02-01T18:35:39Z" uid="34428" user="usm78-gis" changeset="31975">
    <nd ref="233231"/>
    <nd ref="233230"/>
    <nd ref="235991408"/>
    <nd ref="233225"/>
    <nd ref="233221"/>
    <nd ref="145784526"/>
    <nd ref="235990534"/>
    <nd ref="15666118"/>
    <nd ref="15666111"/>
    <nd ref="235988105"/>
    <nd ref="235987493"/>
    <nd ref="249284054"/>
    <nd ref="15666106"/>
    <nd ref="249284055"/>
    <nd ref="235986908"/>
    <nd ref="15666100"/>
    <nd ref="249284056"/>
    <nd ref="15666096"/>
    <nd ref="235986914"/>
    <nd ref="15666089"/>
    <nd ref="249284181"/>
    <nd ref="235985967"/>
    <nd ref="15666083"/>
    <nd ref="249284057"/>
    <nd ref="15666143"/>
    <nd ref="15666144"/>
    <nd ref="233708"/>
    <nd ref="261651519"/>
    <nd ref="233707"/>
    <nd ref="233706"/>
    <nd ref="233710"/>
    <nd ref="235982332"/>
    <nd ref="233711"/>
    <nd ref="21673161"/>
    <nd ref="261651525"/>
    <nd ref="21673168"/>
    <nd ref="250419168"/>
    <nd ref="21673173"/>
    <nd ref="21673184"/>
    <nd ref="261651526"/>
    <nd ref="21673094"/>
    <nd ref="21673078"/>
    <nd ref="21673066"/>
    <nd ref="235972188"/>
    <nd ref="21673056"/>
    <nd ref="235970556"/>
    <nd ref="235973121"/>
    <nd ref="21673040"/>
    <nd ref="15850865"/>
    <nd ref="235975804"/>
    <nd ref="15850864"/>
    <nd ref="235977095"/>
    <nd ref="15850853"/>
    <nd ref="15850843"/>
    <nd ref="94124298"/>
    <tag k="created_by" v="Potlatch 0.10f"/>
    <tag k="highway" v="trunk"/>
    <tag k="oneway" v="yes"/>
  </way>
  <way id="21898411" version="8" timestamp="2009-02-23T12:27:11Z" uid="34428" user="usm78-gis" changeset="634299"/>
</osm>
