<?xml version='1.0' encoding='UTF-8'?>
<osm version="0.6" generator="libosmium/2.20.0">
  <way id="21944536" version="4" timestamp="2008-09-16T10:35:13Z" uid="1066" user="pavel" changeset="646258">
    <nd ref="236472374"/>
    <nd ref="236472378"/>
    <nd ref="236472380"/>
    <nd ref="236472368"/>
    <tag k="highway" v="residential"/>
    <tag k="name" v="Fráni Šrámka"/>
    <tag k="name:source" v="nameit/uir-adr"/>
  </way>
  <way id="21944536" version="5" timestamp="2009-03-13T23:36:06Z" uid="3516" user="BiIbo" changeset="803821">
    <nd ref="236472374"/>
    <nd ref="236472378"/>
    <nd ref="236472380"/>
    <nd ref="236472368"/>
    <tag k="highway" v="residential"/>
    <tag k="name" v="Fráni Šrámka"/>
    <tag k="source:name" v="nameit/uir-adr"/>
  </way>
  <way id="21944539" version="2" timestamp="2008-09-16T10:37:58Z" uid="1066" user="pavel" changeset="646258">
    <nd ref="236472382"/>
    <nd ref="236472387"/>
    <nd ref="236472374"/>
    <tag k="created_by" v="Potlatch 0.5d"/>
    <tag k="highway" v="residential"/>
    <tag k="name" v="Fráni Šrámka"/>
    <tag k="name:source" v="nameit/uir-adr"/>
  </way>
  <way id="21944539" version="3" timestamp="2008-09-16T12:32:15Z" uid="3516" user="BiIbo" changeset="646590">
    <nd ref="236472368"/>
    <nd ref="236472382"/>
    <nd ref="236472387"/>
    <nd ref="236472374"/>
    <tag k="created_by" v="Potlatch 0.5d"/>
    <tag k="highway" v="residential"/>
    <tag k="name" v="Fráni Šrámka"/>
    <tag k="name:source" v="nameit/uir-adr"/>
  </way>
  <way id="21944539" version="4" timestamp="2009-03-13T23:36:06Z" uid="3516" user="BiIbo" changeset="803821">
    <nd ref="236472368"/>
    <nd ref="236472382"/>
    <nd ref="236472387"/>
    <nd ref="236472374"/>
    <tag k="highway" v="residential"/>
    <tag k="name" v="Fráni Šrámka"/>
    <tag k="source:name" v="nameit/uir-adr"/>
  </way>
  <way id="21944540" version="2" timestamp="2008-09-16T10:33:50Z" uid="1066" user="pavel" changeset="646258">
    <nd ref="236472374"/>
    <nd ref="170375311"/>
    <nd ref="170375312"/>
    <nd ref="170375314"/>
    <nd ref="170375316"/>
    <nd ref="95943105"/>
    <tag k="created_by" v="Potlatch 0.5d"/>
    <tag k="highway" v="residential"/>
    <tag k="name" v="Fráni Šrámka"/>
    <tag k="name:source" v="nameit/uir-adr"/>
  </way>
  <way id="21944540" version="3" timestamp="2009-01-25T22:38:16Z" uid="17615" user="Petr Dlouhý" changeset="838296">
    <nd ref="236472374"/>
    <nd ref="170375311"/>
    <nd ref="170375312"/>
    <nd ref="170375316"/>
    <tag k="created_by" v="Potlatch 0.5d"/>
    <tag k="highway" v="residential"/>
    <tag k="name" v="Fráni Šrámka"/>
    <tag k="name:source" v="nameit/uir-adr"/>
  </way>
  <way id="21944540" version="4" timestamp="2009-03-13T23:36:07Z" uid="3516" user="BiIbo" changeset="803821">
    <nd ref="236472374"/>
    <nd ref="170375311"/>
    <nd ref="170375312"/>
    <nd ref="170375316"/>
    <tag k="highway" v="residential"/>
    <tag k="name" v="Fráni Šrámka"/>
    <tag k="source:name" v="nameit/uir-adr"/>
  </way>
</osm>
