<?xml version='1.0' encoding='UTF-8'?>
<osm version="0.6" generator="libosmium/2.20.0">
  <way id="22023491" version="4" timestamp="2010-07-08T04:55:59Z" uid="74617" user="JohnSmith" changeset="5163091">
    <nd ref="237080948"/>
    <nd ref="237081223"/>
    <nd ref="237081346"/>
    <nd ref="237081599"/>
    <nd ref="237081732"/>
    <nd ref="237081902"/>
    <nd ref="237082016"/>
    <nd ref="237082200"/>
    <tag k="highway" v="residential"/>
    <tag k="lanes" v="1"/>
    <tag k="maxspeed" v="50"/>
    <tag k="maxspeed:source" v="default residential speed limit in Australia"/>
    <tag k="name" v="Arundel Drive"/>
    <tag k="source" v="survey"/>
    <tag k="surface" v="paved"/>
  </way>
  <way id="22023491" version="5" timestamp="2012-01-15T21:53:36Z" uid="147510" user="woodpeck_fixbot" changeset="10402983">
    <nd ref="237080948"/>
    <nd ref="237081223"/>
    <nd ref="237081346"/>
    <nd ref="237081599"/>
    <nd ref="237081732"/>
    <nd ref="237081902"/>
    <nd ref="237082016"/>
    <nd ref="237082200"/>
    <tag k="highway" v="residential"/>
    <tag k="lanes" v="1"/>
    <tag k="name" v="Arundel Drive"/>
    <tag k="source" v="survey"/>
    <tag k="surface" v="paved"/>
  </way>
  <way id="22023502" version="2" timestamp="2008-09-16T10:12:05Z" uid="1066" user="pavel" changeset="646258">
    <nd ref="237178084"/>
    <nd ref="237178343"/>
    <nd ref="237178344"/>
    <nd ref="237178346"/>
    <tag k="created_by" v="Potlatch 0.6c"/>
    <tag k="highway" v="residential"/>
    <tag k="name" v="Nad malým mýtem"/>
    <tag k="name:source" v="nameit/uir-adr"/>
  </way>
  <way id="22023502" version="3" timestamp="2008-09-16T15:46:21Z" uid="3516" user="BiIbo" changeset="647015">
    <nd ref="237178084"/>
    <nd ref="237178343"/>
    <nd ref="237178344"/>
    <nd ref="237178346"/>
    <tag k="created_by" v="Potlatch 0.6c"/>
    <tag k="highway" v="residential"/>
    <tag k="name" v="Nad Malým mýtem"/>
    <tag k="name:source" v="nameit/uir-adr"/>
  </way>
  <way id="22023502" version="4" timestamp="2009-03-14T17:04:52Z" uid="3516" user="BiIbo" changeset="807112">
    <nd ref="237178084"/>
    <nd ref="237178343"/>
    <nd ref="237178344"/>
    <nd ref="237178346"/>
    <tag k="highway" v="residential"/>
    <tag k="name" v="Nad Malým mýtem"/>
    <tag k="source:name" v="nameit/uir-adr"/>
  </way>
  <way id="22023502" version="5" timestamp="2009-08-31T16:55:42Z" uid="164411" user="JK1612" changeset="2328414">
    <nd ref="237178084"/>
    <nd ref="237178343"/>
    <nd ref="237178344"/>
    <nd ref="237178346"/>
    <nd ref="479160026"/>
    <nd ref="479160029"/>
    <nd ref="237178857"/>
    <tag k="highway" v="residential"/>
    <tag k="name" v="Nad Malým mýtem"/>
    <tag k="source:name" v="nameit/uir-adr"/>
  </way>
  <way id="22023502" version="6" timestamp="2009-09-05T12:52:41Z" uid="164411" user="JK1612" changeset="2380402">
    <nd ref="237178084"/>
    <nd ref="237178343"/>
    <nd ref="237178344"/>
    <nd ref="237178346"/>
    <nd ref="479160026"/>
    <nd ref="484619139"/>
    <nd ref="479160029"/>
    <nd ref="484619141"/>
    <nd ref="237178857"/>
    <tag k="highway" v="residential"/>
    <tag k="name" v="Nad Malým mýtem"/>
    <tag k="source:name" v="nameit/uir-adr"/>
  </way>
  <way id="22023502" version="7" timestamp="2010-06-05T18:54:59Z" uid="17615" user="Petr Dlouhý" changeset="4911250">
    <nd ref="237178084"/>
    <nd ref="237178343"/>
    <nd ref="237178344"/>
    <nd ref="237178346"/>
    <nd ref="765278946"/>
    <nd ref="479160026"/>
    <nd ref="484619139"/>
    <nd ref="479160029"/>
    <nd ref="484619141"/>
    <nd ref="237178857"/>
    <tag k="highway" v="residential"/>
    <tag k="name" v="Nad Malým mýtem"/>
    <tag k="source:name" v="nameit/uir-adr"/>
  </way>
  <way id="22023502" version="8" timestamp="2010-12-03T09:16:13Z" uid="17615" user="Petr Dlouhý" changeset="6523796">
    <nd ref="237178084"/>
    <nd ref="237178343"/>
    <nd ref="1017832494"/>
    <nd ref="237178344"/>
    <nd ref="237178346"/>
    <nd ref="765278946"/>
    <nd ref="479160026"/>
    <nd ref="484619139"/>
    <nd ref="479160029"/>
    <nd ref="484619141"/>
    <nd ref="237178857"/>
    <tag k="highway" v="residential"/>
    <tag k="name" v="Nad Malým mýtem"/>
    <tag k="source:name" v="nameit/uir-adr"/>
  </way>
  <way id="22023502" version="9" timestamp="2011-09-28T21:12:33Z" uid="527259" user="Vratislav Filler" changeset="9423240">
    <nd ref="237178084"/>
    <nd ref="237178343"/>
    <nd ref="1017832494"/>
    <nd ref="237178344"/>
    <nd ref="237178346"/>
    <nd ref="765278946"/>
    <tag k="highway" v="residential"/>
    <tag k="name" v="Nad Malým mýtem"/>
    <tag k="source:name" v="nameit/uir-adr"/>
  </way>
</osm>
