<?xml version='1.0' encoding='UTF-8'?>
<osm version="0.6" generator="libosmium/2.20.0">
  <way id="22102586" version="4" timestamp="2008-08-18T12:08:37Z" uid="36809" user="pfoten_weg_!_" changeset="306127">
    <nd ref="237841011"/>
    <nd ref="237841212"/>
    <tag k="created_by" v="RambaZamba"/>
    <tag k="highway" v="residential"/>
    <tag k="name" v="Adolf-Wenz-Straße"/>
  </way>
  <way id="22102586" version="5" timestamp="2008-09-21T21:22:47Z" uid="36809" user="pfoten_weg_!_" changeset="676192">
    <nd ref="237841011"/>
    <nd ref="237841212"/>
    <tag k="created_by" v="RambaZamba"/>
    <tag k="highway" v="residential"/>
    <tag k="name" v="Adolf-Wenz-Straße"/>
    <tag k="source" v="survey"/>
  </way>
  <way id="22102586" version="6" timestamp="2008-10-01T02:06:00Z" uid="36809" user="pfoten_weg_!_" changeset="5644">
    <nd ref="237841011"/>
    <nd ref="237841212"/>
    <tag k="created_by" v="RambaZamba"/>
    <tag k="highway" v="residential"/>
    <tag k="name" v="Adolf-Wenz-Straße"/>
    <tag k="source" v="survey"/>
  </way>
  <way id="22102586" version="7" timestamp="2008-10-28T00:31:18Z" uid="36809" user="pfoten_weg_!_" changeset="606679">
    <nd ref="237841011"/>
    <nd ref="237841212"/>
    <nd ref="308135625"/>
    <tag k="access" v="destination"/>
    <tag k="bicycle" v="yes"/>
    <tag k="created_by" v="RambaZamba"/>
    <tag k="foot" v="yes"/>
    <tag k="highway" v="residential"/>
    <tag k="layer" v="0"/>
    <tag k="name" v="Adolf-Wenz-Straße"/>
    <tag k="source" v="survey"/>
    <tag k="surface" v="paved"/>
    <tag k="width" v="5"/>
  </way>
  <way id="22102586" version="8" timestamp="2009-06-08T12:03:12Z" uid="132988" user="ich-liebe-euch" changeset="1457959">
    <nd ref="237841011"/>
    <nd ref="237841212"/>
    <nd ref="308135625"/>
    <tag k="access" v="destination"/>
    <tag k="bicycle" v="yes"/>
    <tag k="foot" v="yes"/>
    <tag k="highway" v="residential"/>
    <tag k="layer" v="0"/>
    <tag k="name" v="Adolf-Wenz-Straße"/>
    <tag k="source" v="survey"/>
    <tag k="surface" v="paved"/>
    <tag k="width" v="5"/>
  </way>
  <way id="22102586" version="9" timestamp="2009-06-08T13:20:49Z" uid="36809" user="pfoten_weg_!_" changeset="1458721">
    <nd ref="237841011"/>
    <nd ref="237841212"/>
    <nd ref="308135625"/>
    <tag k="access" v="destination"/>
    <tag k="bicycle" v="yes"/>
    <tag k="created_by" v="RambaZamba"/>
    <tag k="foot" v="yes"/>
    <tag k="highway" v="residential"/>
    <tag k="layer" v="0"/>
    <tag k="name" v="Adolf-Wenz-Straße"/>
    <tag k="source" v="survey"/>
    <tag k="surface" v="paved"/>
    <tag k="width" v="5"/>
  </way>
  <way id="22102586" version="10" timestamp="2009-08-28T19:54:11Z" uid="156995" user="HampelZamba" changeset="2294580">
    <nd ref="237841011"/>
    <nd ref="237841212"/>
    <nd ref="308135625"/>
    <tag k="access" v="destination"/>
    <tag k="bicycle" v="yes"/>
    <tag k="foot" v="yes"/>
    <tag k="highway" v="residential"/>
    <tag k="layer" v="0"/>
    <tag k="name" v="Adolf-Wenz-Straße"/>
    <tag k="source" v="survey"/>
    <tag k="surface" v="paved"/>
    <tag k="width" v="5"/>
  </way>
  <way id="22102586" version="11" timestamp="2009-08-28T21:08:24Z" uid="36809" user="pfoten_weg_!_" changeset="2295155">
    <nd ref="237841011"/>
    <nd ref="237841212"/>
    <nd ref="308135625"/>
    <tag k="access" v="destination"/>
    <tag k="bicycle" v="yes"/>
    <tag k="discovered_by" v="RambaZamba"/>
    <tag k="foot" v="yes"/>
    <tag k="highway" v="residential"/>
    <tag k="layer" v="0"/>
    <tag k="name" v="Adolf-Wenz-Straße"/>
    <tag k="source" v="survey"/>
    <tag k="surface" v="paved"/>
    <tag k="width" v="5"/>
  </way>
  <way id="22102586" version="12" timestamp="2009-08-30T09:21:18Z" uid="156995" user="HampelZamba" changeset="2310659">
    <nd ref="237841011"/>
    <nd ref="237841212"/>
    <nd ref="308135625"/>
    <tag k="access" v="destination"/>
    <tag k="bicycle" v="yes"/>
    <tag k="foot" v="yes"/>
    <tag k="highway" v="residential"/>
    <tag k="layer" v="0"/>
    <tag k="name" v="Adolf-Wenz-Straße"/>
    <tag k="source" v="survey"/>
    <tag k="surface" v="paved"/>
    <tag k="width" v="5"/>
  </way>
  <way id="22102586" version="13" timestamp="2009-09-01T11:02:15Z" uid="36809" user="pfoten_weg_!_" changeset="2335754">
    <nd ref="237841011"/>
    <nd ref="237841212"/>
    <nd ref="308135625"/>
    <tag k="access" v="destination"/>
    <tag k="bicycle" v="yes"/>
    <tag k="foot" v="yes"/>
    <tag k="highway" v="residential"/>
    <tag k="layer" v="0"/>
    <tag k="name" v="Adolf-Wenz-Straße"/>
    <tag k="source" v="survey"/>
    <tag k="surface" v="paved"/>
    <tag k="width" v="5"/>
  </way>
  <way id="22102586" version="14" timestamp="2009-10-13T23:46:07Z" uid="36809" user="pfoten_weg_!_" changeset="2841273">
    <nd ref="237841011"/>
    <nd ref="237841212"/>
    <nd ref="308135625"/>
    <tag k="access" v="destination"/>
    <tag k="bicycle" v="yes"/>
    <tag k="foot" v="yes"/>
    <tag k="highway" v="residential"/>
    <tag k="layer" v="0"/>
    <tag k="name" v="Adolf-Wenz-Straße"/>
    <tag k="surface" v="paved"/>
    <tag k="width" v="5"/>
  </way>
  <way id="22102586" version="15" timestamp="2012-01-31T15:05:49Z" uid="224490" user="Geo-Tobi" changeset="10550093">
    <nd ref="237841011"/>
    <nd ref="237841212"/>
    <nd ref="308135625"/>
    <tag k="bicycle" v="yes"/>
    <tag k="foot" v="yes"/>
    <tag k="highway" v="residential"/>
    <tag k="layer" v="0"/>
    <tag k="motor_vehicle" v="destination"/>
    <tag k="name" v="Adolf-Wenz-Straße"/>
    <tag k="surface" v="paved"/>
    <tag k="width" v="5"/>
  </way>
  <way id="22102586" version="16" timestamp="2012-01-31T21:18:03Z" uid="224490" user="Geo-Tobi" changeset="10553647">
    <nd ref="237841011"/>
    <nd ref="237841212"/>
    <tag k="bicycle" v="yes"/>
    <tag k="foot" v="yes"/>
    <tag k="highway" v="residential"/>
    <tag k="layer" v="0"/>
    <tag k="motor_vehicle" v="destination"/>
    <tag k="name" v="Adolf-Wenz-Straße"/>
    <tag k="surface" v="paved"/>
    <tag k="width" v="5"/>
  </way>
  <way id="22102668" version="5" timestamp="2008-08-18T12:07:11Z" uid="36809" user="pfoten_weg_!_" changeset="306127">
    <nd ref="237843150"/>
    <nd ref="237841688"/>
    <nd ref="237841212"/>
    <nd ref="237841215"/>
    <tag k="created_by" v="RambaZamba"/>
    <tag k="highway" v="residential"/>
    <tag k="name" v="Adolf-Wenz-Straße"/>
  </way>
  <way id="22102668" version="6" timestamp="2008-10-01T02:04:28Z" uid="36809" user="pfoten_weg_!_" changeset="5644">
    <nd ref="237843150"/>
    <nd ref="237841688"/>
    <nd ref="237841212"/>
    <nd ref="237841215"/>
    <tag k="created_by" v="RambaZamba"/>
    <tag k="highway" v="residential"/>
    <tag k="name" v="Adolf-Wenz-Straße"/>
  </way>
  <way id="22102668" version="7" timestamp="2008-10-14T17:34:35Z" uid="36809" user="pfoten_weg_!_" changeset="327971">
    <nd ref="237843150"/>
    <nd ref="237841688"/>
    <nd ref="237841212"/>
    <nd ref="237841215"/>
    <tag k="created_by" v="RambaZamba"/>
    <tag k="highway" v="residential"/>
    <tag k="name" v="Adolf-Wenz-Straße"/>
    <tag k="source" v="survey"/>
  </way>
  <way id="22102668" version="8" timestamp="2008-10-28T00:31:06Z" uid="36809" user="pfoten_weg_!_" changeset="606679">
    <nd ref="237843150"/>
    <nd ref="237841688"/>
    <nd ref="308135627"/>
    <nd ref="237841212"/>
    <nd ref="237841215"/>
    <tag k="access" v="destination"/>
    <tag k="bicycle" v="yes"/>
    <tag k="created_by" v="RambaZamba"/>
    <tag k="foot" v="yes"/>
    <tag k="highway" v="residential"/>
    <tag k="layer" v="0"/>
    <tag k="name" v="Adolf-Wenz-Straße"/>
    <tag k="source" v="survey"/>
    <tag k="surface" v="paved"/>
    <tag k="width" v="5"/>
  </way>
  <way id="22102668" version="9" timestamp="2009-06-08T12:02:11Z" uid="132988" user="ich-liebe-euch" changeset="1457959">
    <nd ref="237843150"/>
    <nd ref="237841688"/>
    <nd ref="308135627"/>
    <nd ref="237841212"/>
    <nd ref="237841215"/>
    <tag k="access" v="destination"/>
    <tag k="bicycle" v="yes"/>
    <tag k="foot" v="yes"/>
    <tag k="highway" v="residential"/>
    <tag k="layer" v="0"/>
    <tag k="name" v="Adolf-Wenz-Straße"/>
    <tag k="source" v="survey"/>
    <tag k="surface" v="paved"/>
    <tag k="width" v="5"/>
  </way>
  <way id="22102668" version="10" timestamp="2009-06-08T13:20:30Z" uid="36809" user="pfoten_weg_!_" changeset="1458721">
    <nd ref="237843150"/>
    <nd ref="237841688"/>
    <nd ref="308135627"/>
    <nd ref="237841212"/>
    <nd ref="237841215"/>
    <tag k="access" v="destination"/>
    <tag k="bicycle" v="yes"/>
    <tag k="created_by" v="RambaZamba"/>
    <tag k="foot" v="yes"/>
    <tag k="highway" v="residential"/>
    <tag k="layer" v="0"/>
    <tag k="name" v="Adolf-Wenz-Straße"/>
    <tag k="source" v="survey"/>
    <tag k="surface" v="paved"/>
    <tag k="width" v="5"/>
  </way>
  <way id="22102668" version="11" timestamp="2009-08-28T19:54:11Z" uid="156995" user="HampelZamba" changeset="2294580">
    <nd ref="237843150"/>
    <nd ref="237841688"/>
    <nd ref="308135627"/>
    <nd ref="237841212"/>
    <nd ref="237841215"/>
    <tag k="access" v="destination"/>
    <tag k="bicycle" v="yes"/>
    <tag k="foot" v="yes"/>
    <tag k="highway" v="residential"/>
    <tag k="layer" v="0"/>
    <tag k="name" v="Adolf-Wenz-Straße"/>
    <tag k="source" v="survey"/>
    <tag k="surface" v="paved"/>
    <tag k="width" v="5"/>
  </way>
  <way id="22102668" version="12" timestamp="2009-08-28T21:18:27Z" uid="36809" user="pfoten_weg_!_" changeset="2295155">
    <nd ref="237843150"/>
    <nd ref="237841688"/>
    <nd ref="308135627"/>
    <nd ref="237841212"/>
    <nd ref="237841215"/>
    <tag k="access" v="destination"/>
    <tag k="bicycle" v="yes"/>
    <tag k="discovered_by" v="RambaZamba"/>
    <tag k="foot" v="yes"/>
    <tag k="highway" v="residential"/>
    <tag k="layer" v="0"/>
    <tag k="name" v="Adolf-Wenz-Straße"/>
    <tag k="source" v="survey"/>
    <tag k="surface" v="paved"/>
    <tag k="width" v="5"/>
  </way>
  <way id="22102668" version="13" timestamp="2009-08-30T09:21:19Z" uid="156995" user="HampelZamba" changeset="2310659">
    <nd ref="237843150"/>
    <nd ref="237841688"/>
    <nd ref="308135627"/>
    <nd ref="237841212"/>
    <nd ref="237841215"/>
    <tag k="access" v="destination"/>
    <tag k="bicycle" v="yes"/>
    <tag k="foot" v="yes"/>
    <tag k="highway" v="residential"/>
    <tag k="layer" v="0"/>
    <tag k="name" v="Adolf-Wenz-Straße"/>
    <tag k="source" v="survey"/>
    <tag k="surface" v="paved"/>
    <tag k="width" v="5"/>
  </way>
  <way id="22102668" version="14" timestamp="2009-09-01T10:36:46Z" uid="36809" user="pfoten_weg_!_" changeset="2335754">
    <nd ref="237843150"/>
    <nd ref="237841688"/>
    <nd ref="308135627"/>
    <nd ref="237841212"/>
    <nd ref="237841215"/>
    <tag k="access" v="destination"/>
    <tag k="bicycle" v="yes"/>
    <tag k="foot" v="yes"/>
    <tag k="highway" v="residential"/>
    <tag k="layer" v="0"/>
    <tag k="name" v="Adolf-Wenz-Straße"/>
    <tag k="source" v="survey"/>
    <tag k="surface" v="paved"/>
    <tag k="width" v="5"/>
  </way>
  <way id="22102668" version="15" timestamp="2009-10-13T23:41:02Z" uid="36809" user="pfoten_weg_!_" changeset="2841273">
    <nd ref="237843150"/>
    <nd ref="237841688"/>
    <nd ref="308135627"/>
    <nd ref="237841212"/>
    <nd ref="237841215"/>
    <tag k="access" v="destination"/>
    <tag k="bicycle" v="yes"/>
    <tag k="foot" v="yes"/>
    <tag k="highway" v="residential"/>
    <tag k="layer" v="0"/>
    <tag k="name" v="Adolf-Wenz-Straße"/>
    <tag k="surface" v="paved"/>
    <tag k="width" v="5"/>
  </way>
  <way id="22102668" version="16" timestamp="2012-01-31T15:05:50Z" uid="224490" user="Geo-Tobi" changeset="10550093">
    <nd ref="237843150"/>
    <nd ref="237841688"/>
    <nd ref="308135627"/>
    <nd ref="237841212"/>
    <nd ref="237841215"/>
    <tag k="bicycle" v="yes"/>
    <tag k="foot" v="yes"/>
    <tag k="highway" v="residential"/>
    <tag k="layer" v="0"/>
    <tag k="motor_vehicle" v="destination"/>
    <tag k="name" v="Adolf-Wenz-Straße"/>
    <tag k="surface" v="paved"/>
    <tag k="width" v="5"/>
  </way>
</osm>
