<?xml version='1.0' encoding='UTF-8'?>
<osm version="0.6" generator="libosmium/2.20.0">
  <way id="22112412" version="3" timestamp="2010-08-22T17:01:21Z" uid="4467" user="Rosscoe" changeset="5563118">
    <nd ref="237716724"/>
    <nd ref="237663452"/>
    <nd ref="237920884"/>
    <nd ref="237920888"/>
    <nd ref="237920890"/>
    <nd ref="237920892"/>
    <nd ref="237853520"/>
    <tag k="highway" v="residential"/>
    <tag k="name" v="S Riverside Drive"/>
    <tag k="tiger:cfcc" v="A41"/>
    <tag k="tiger:county" v="DuPage, IL"/>
    <tag k="tiger:name_base" v="Riverside"/>
    <tag k="tiger:name_direction_prefix" v="S"/>
    <tag k="tiger:name_type" v="Dr"/>
    <tag k="tiger:reviewed" v="no"/>
    <tag k="tiger:separated" v="no"/>
    <tag k="tiger:source" v="tiger_import_dch_v0.6_20070809"/>
    <tag k="tiger:tlid" v="112543487:112706624:112706625"/>
    <tag k="tiger:upload_uuid" v="bulk_upload.pl-3f69f4e1-b66c-4277-9b2a-1347f8f5e03c"/>
    <tag k="tiger:zip_left" v="60181"/>
    <tag k="tiger:zip_right" v="60181"/>
  </way>
  <way id="22112993" version="3" timestamp="2008-09-16T10:33:14Z" uid="1066" user="pavel" changeset="646258">
    <nd ref="237926772"/>
    <nd ref="246697931"/>
    <nd ref="237926966"/>
    <nd ref="237926968"/>
    <tag k="created_by" v="Potlatch 0.6c"/>
    <tag k="highway" v="residential"/>
    <tag k="name" v="Tyrkysová"/>
    <tag k="name:source" v="nameit/uir-adr"/>
  </way>
  <way id="22112993" version="4" timestamp="2009-03-12T00:43:20Z" uid="3516" user="BiIbo" changeset="792152">
    <nd ref="237926772"/>
    <nd ref="246697931"/>
    <nd ref="237926966"/>
    <nd ref="237926968"/>
    <tag k="highway" v="residential"/>
    <tag k="name" v="Tyrkysová"/>
    <tag k="source:name" v="nameit/uir-adr"/>
  </way>
</osm>
