<?xml version='1.0' encoding='UTF-8'?>
<osm version="0.6" generator="libosmium/2.20.0">
  <way id="22147147" version="9" timestamp="2009-02-01T18:40:27Z" uid="34428" user="usm78-gis" changeset="31975">
    <nd ref="233272"/>
    <nd ref="233271"/>
    <nd ref="238188271"/>
    <nd ref="233273"/>
    <nd ref="233274"/>
    <nd ref="60256239"/>
    <nd ref="60256241"/>
    <nd ref="233275"/>
    <nd ref="233276"/>
    <nd ref="233277"/>
    <nd ref="233278"/>
    <nd ref="238193225"/>
    <nd ref="233279"/>
    <nd ref="233280"/>
    <nd ref="238193883"/>
    <nd ref="16380924"/>
    <nd ref="278342374"/>
    <nd ref="233281"/>
    <nd ref="233282"/>
    <nd ref="233283"/>
    <nd ref="233284"/>
    <nd ref="233297"/>
    <nd ref="60507560"/>
    <nd ref="233299"/>
    <nd ref="262236455"/>
    <nd ref="233300"/>
    <tag k="created_by" v="Potlatch 0.6c"/>
    <tag k="highway" v="trunk"/>
    <tag k="oneway" v="yes"/>
  </way>
  <way id="22147147" version="10" timestamp="2009-02-23T12:13:26Z" uid="34428" user="usm78-gis" changeset="634299"/>
  <way id="22147247" version="3" timestamp="2009-02-01T18:34:36Z" uid="34428" user="usm78-gis" changeset="31975">
    <nd ref="15850868"/>
    <nd ref="235979900"/>
    <nd ref="15850869"/>
    <nd ref="15850870"/>
    <nd ref="235979903"/>
    <nd ref="15850875"/>
    <nd ref="223757"/>
    <tag k="created_by" v="Potlatch 0.6c"/>
    <tag k="highway" v="trunk"/>
    <tag k="name" v="M-10"/>
    <tag k="oneway" v="yes"/>
    <tag k="ref" v="E-18"/>
  </way>
  <way id="22147247" version="4" timestamp="2009-05-11T19:46:16Z" uid="15056" user="red_rebel" changeset="1157612">
    <nd ref="15850868"/>
    <nd ref="235979900"/>
    <nd ref="15850869"/>
    <nd ref="15850870"/>
    <nd ref="235979903"/>
    <nd ref="15850875"/>
    <nd ref="223757"/>
    <tag k="created_by" v="Potlatch 0.6c"/>
    <tag k="highway" v="trunk"/>
    <tag k="int_ref" v="E-18"/>
    <tag k="name" v="M-10"/>
    <tag k="oneway" v="yes"/>
    <tag k="ref" v="E-18"/>
  </way>
  <way id="22147247" version="5" timestamp="2009-05-12T23:11:05Z" uid="34428" user="usm78-gis" changeset="1170449">
    <nd ref="15850868"/>
    <nd ref="235979900"/>
    <nd ref="15850869"/>
    <nd ref="15850870"/>
    <nd ref="235979903"/>
    <nd ref="15850875"/>
    <nd ref="223757"/>
    <tag k="bridge" v="yes"/>
    <tag k="created_by" v="Potlatch 0.6c"/>
    <tag k="highway" v="trunk"/>
    <tag k="int_ref" v="E-18"/>
    <tag k="name" v="M-10"/>
    <tag k="oneway" v="yes"/>
    <tag k="ref" v="E-18"/>
  </way>
  <way id="22147247" version="6" timestamp="2009-07-20T20:39:32Z" uid="15056" user="red_rebel" changeset="1889398">
    <nd ref="15850868"/>
    <nd ref="235979900"/>
    <nd ref="15850869"/>
    <nd ref="15850870"/>
    <nd ref="235979903"/>
    <nd ref="15850875"/>
    <nd ref="223757"/>
    <tag k="bridge" v="yes"/>
    <tag k="highway" v="trunk"/>
    <tag k="int_ref" v="E-18"/>
    <tag k="name" v="M-10"/>
    <tag k="oneway" v="yes"/>
    <tag k="ref" v="M-10"/>
  </way>
  <way id="22147247" version="7" timestamp="2009-09-05T06:41:28Z" uid="17752" user="Yuri Nazarov" changeset="2377026">
    <nd ref="15850868"/>
    <nd ref="235979900"/>
    <nd ref="15850869"/>
    <nd ref="15850870"/>
    <nd ref="235979903"/>
    <nd ref="15850875"/>
    <nd ref="223757"/>
    <tag k="bridge" v="yes"/>
    <tag k="highway" v="trunk"/>
    <tag k="int_ref" v="E 18"/>
    <tag k="oneway" v="yes"/>
    <tag k="ref" v="лю10"/>
  </way>
  <way id="22147247" version="8" timestamp="2010-03-18T22:08:18Z" uid="241933" user="Wvuka" changeset="4165947"/>
  <way id="22147341" version="3" timestamp="2009-02-01T18:39:59Z" uid="34428" user="usm78-gis" changeset="31975">
    <nd ref="238174104"/>
    <nd ref="15850868"/>
    <nd ref="238175138"/>
    <nd ref="238175139"/>
    <nd ref="238175141"/>
    <nd ref="60256229"/>
    <nd ref="60256231"/>
    <nd ref="233272"/>
    <nd ref="238174102"/>
    <nd ref="238174103"/>
    <nd ref="238174104"/>
    <tag k="created_by" v="Potlatch 0.6c"/>
    <tag k="highway" v="trunk"/>
    <tag k="oneway" v="yes"/>
  </way>
  <way id="22147341" version="4" timestamp="2009-02-23T12:30:52Z" uid="34428" user="usm78-gis" changeset="634299"/>
  <way id="22147835" version="4" timestamp="2009-02-23T12:30:56Z" uid="34428" user="usm78-gis" changeset="634299"/>
</osm>
