<?xml version='1.0' encoding='UTF-8'?>
<osm version="0.6" generator="libosmium/2.20.0">
  <way id="22273026" version="3" timestamp="2010-07-07T08:39:07Z" uid="74617" user="JohnSmith" changeset="5156250">
    <nd ref="239470241"/>
    <nd ref="239477632"/>
    <nd ref="239477647"/>
    <nd ref="239477662"/>
    <nd ref="239477678"/>
    <tag k="highway" v="residential"/>
    <tag k="maxspeed" v="50"/>
    <tag k="maxspeed:source" v="default residential speed limit in Australia"/>
    <tag k="name" v="Short Place"/>
  </way>
  <way id="22273026" version="4" timestamp="2012-01-15T21:57:38Z" uid="147510" user="woodpeck_fixbot" changeset="10402983">
    <nd ref="239470241"/>
    <nd ref="239477632"/>
    <nd ref="239477647"/>
    <nd ref="239477662"/>
    <nd ref="239477678"/>
    <tag k="highway" v="residential"/>
    <tag k="name" v="Short Place"/>
  </way>
  <way id="22273027" version="4" timestamp="2010-07-07T08:35:25Z" uid="74617" user="JohnSmith" changeset="5156250">
    <nd ref="239470286"/>
    <nd ref="239477757"/>
    <nd ref="239477789"/>
    <tag k="highway" v="residential"/>
    <tag k="maxspeed" v="50"/>
    <tag k="maxspeed:source" v="default residential speed limit in Australia"/>
    <tag k="name" v="Ware Place"/>
  </way>
  <way id="22273027" version="5" timestamp="2012-01-15T21:57:39Z" uid="147510" user="woodpeck_fixbot" changeset="10402983">
    <nd ref="239470286"/>
    <nd ref="239477757"/>
    <nd ref="239477789"/>
    <tag k="highway" v="residential"/>
    <tag k="name" v="Ware Place"/>
  </way>
  <way id="22273028" version="3" timestamp="2010-07-07T08:35:09Z" uid="74617" user="JohnSmith" changeset="5156250">
    <nd ref="239470312"/>
    <nd ref="239477851"/>
    <tag k="highway" v="residential"/>
    <tag k="maxspeed" v="50"/>
    <tag k="maxspeed:source" v="default residential speed limit in Australia"/>
    <tag k="name" v="Flood Place"/>
  </way>
  <way id="22273028" version="4" timestamp="2012-01-15T21:57:40Z" uid="147510" user="woodpeck_fixbot" changeset="10402983">
    <nd ref="239470312"/>
    <nd ref="239477851"/>
    <tag k="highway" v="residential"/>
    <tag k="name" v="Flood Place"/>
  </way>
  <way id="22273029" version="4" timestamp="2010-07-07T08:39:49Z" uid="74617" user="JohnSmith" changeset="5156250">
    <nd ref="239470344"/>
    <nd ref="239477937"/>
    <nd ref="239477984"/>
    <nd ref="239478000"/>
    <nd ref="239478014"/>
    <tag k="highway" v="residential"/>
    <tag k="maxspeed" v="50"/>
    <tag k="maxspeed:source" v="default residential speed limit in Australia"/>
    <tag k="name" v="Amess Place"/>
  </way>
  <way id="22273029" version="5" timestamp="2012-01-15T21:57:41Z" uid="147510" user="woodpeck_fixbot" changeset="10402983">
    <nd ref="239470344"/>
    <nd ref="239477937"/>
    <nd ref="239477984"/>
    <nd ref="239478000"/>
    <nd ref="239478014"/>
    <tag k="highway" v="residential"/>
    <tag k="name" v="Amess Place"/>
  </way>
  <way id="22273070" version="4" timestamp="2010-07-07T08:35:56Z" uid="74617" user="JohnSmith" changeset="5156250">
    <nd ref="239470408"/>
    <nd ref="239485081"/>
    <nd ref="239485129"/>
    <nd ref="239485155"/>
    <tag k="highway" v="residential"/>
    <tag k="maxspeed" v="50"/>
    <tag k="maxspeed:source" v="default residential speed limit in Australia"/>
    <tag k="name" v="Thurlow Place"/>
  </way>
  <way id="22273070" version="5" timestamp="2012-01-15T21:57:42Z" uid="147510" user="woodpeck_fixbot" changeset="10402983">
    <nd ref="239470408"/>
    <nd ref="239485081"/>
    <nd ref="239485129"/>
    <nd ref="239485155"/>
    <tag k="highway" v="residential"/>
    <tag k="name" v="Thurlow Place"/>
  </way>
  <way id="22273071" version="4" timestamp="2010-07-07T08:40:16Z" uid="74617" user="JohnSmith" changeset="5156250">
    <nd ref="239470453"/>
    <nd ref="239485232"/>
    <nd ref="239485254"/>
    <nd ref="239485282"/>
    <nd ref="239485298"/>
    <tag k="highway" v="residential"/>
    <tag k="maxspeed" v="50"/>
    <tag k="maxspeed:source" v="default residential speed limit in Australia"/>
    <tag k="name" v="Dodgshun Court"/>
  </way>
  <way id="22273071" version="5" timestamp="2012-01-15T21:57:44Z" uid="147510" user="woodpeck_fixbot" changeset="10402983">
    <nd ref="239470453"/>
    <nd ref="239485232"/>
    <nd ref="239485254"/>
    <nd ref="239485282"/>
    <nd ref="239485298"/>
    <tag k="highway" v="residential"/>
    <tag k="name" v="Dodgshun Court"/>
  </way>
  <way id="22273072" version="4" timestamp="2010-07-07T08:35:50Z" uid="74617" user="JohnSmith" changeset="5156250">
    <nd ref="239470466"/>
    <nd ref="239485404"/>
    <nd ref="239485466"/>
    <nd ref="239485482"/>
    <tag k="highway" v="residential"/>
    <tag k="maxspeed" v="50"/>
    <tag k="maxspeed:source" v="default residential speed limit in Australia"/>
    <tag k="name" v="Moulden Court"/>
  </way>
  <way id="22273072" version="5" timestamp="2012-01-15T21:57:45Z" uid="147510" user="woodpeck_fixbot" changeset="10402983">
    <nd ref="239470466"/>
    <nd ref="239485404"/>
    <nd ref="239485466"/>
    <nd ref="239485482"/>
    <tag k="highway" v="residential"/>
    <tag k="name" v="Moulden Court"/>
  </way>
  <way id="22273073" version="4" timestamp="2010-07-07T08:40:12Z" uid="74617" user="JohnSmith" changeset="5156250">
    <nd ref="239470496"/>
    <nd ref="239485542"/>
    <nd ref="239485574"/>
    <nd ref="239485587"/>
    <nd ref="239485601"/>
    <nd ref="239485632"/>
    <nd ref="239485649"/>
    <tag k="highway" v="residential"/>
    <tag k="maxspeed" v="50"/>
    <tag k="maxspeed:source" v="default residential speed limit in Australia"/>
    <tag k="name" v="Stapley Court"/>
  </way>
  <way id="22273073" version="5" timestamp="2012-01-15T21:57:46Z" uid="147510" user="woodpeck_fixbot" changeset="10402983">
    <nd ref="239470496"/>
    <nd ref="239485542"/>
    <nd ref="239485574"/>
    <nd ref="239485587"/>
    <nd ref="239485601"/>
    <nd ref="239485632"/>
    <nd ref="239485649"/>
    <tag k="highway" v="residential"/>
    <tag k="name" v="Stapley Court"/>
  </way>
  <way id="22273117" version="8" timestamp="2010-03-27T23:29:25Z" uid="20587" user="balrog-kun" changeset="4250871">
    <nd ref="239492619"/>
    <nd ref="239494375"/>
    <nd ref="239494377"/>
    <tag k="created_by" v="Potlatch 0.10f"/>
    <tag k="highway" v="secondary"/>
    <tag k="name" v="8th Street"/>
    <tag k="oneway" v="yes"/>
  </way>
  <way id="22273144" version="2" timestamp="2010-03-27T23:29:25Z" uid="20587" user="balrog-kun" changeset="4250871">
    <nd ref="239464356"/>
    <nd ref="239498814"/>
    <nd ref="239498816"/>
    <nd ref="239498817"/>
    <tag k="created_by" v="Potlatch 0.6c"/>
    <tag k="highway" v="unclassified"/>
    <tag k="name" v="East Campus Drive"/>
  </way>
  <way id="22273144" version="3" timestamp="2011-06-06T10:38:31Z" uid="14293" user="JuxTPosition" changeset="8358739">
    <nd ref="239464356"/>
    <nd ref="1313977378"/>
    <nd ref="239498814"/>
    <nd ref="1313977337"/>
    <nd ref="1313977122"/>
    <nd ref="239498816"/>
    <nd ref="1313977332"/>
    <nd ref="239498817"/>
    <tag k="highway" v="unclassified"/>
    <tag k="name" v="East Campus Drive"/>
  </way>
  <way id="22273144" version="4" timestamp="2011-06-08T00:31:34Z" uid="14293" user="JuxTPosition" changeset="8375404">
    <nd ref="1315702576"/>
    <nd ref="1315702585"/>
    <nd ref="1315702618"/>
    <nd ref="1315702591"/>
    <nd ref="1315702597"/>
    <nd ref="1315702601"/>
    <nd ref="1315702595"/>
    <nd ref="1315702572"/>
    <nd ref="1315702606"/>
    <nd ref="1315702580"/>
    <nd ref="239498817"/>
    <tag k="highway" v="unclassified"/>
    <tag k="name" v="East Campus Drive"/>
  </way>
  <way id="22273168" version="4" timestamp="2010-07-07T08:38:17Z" uid="74617" user="JohnSmith" changeset="5156250">
    <nd ref="239470524"/>
    <nd ref="239498310"/>
    <nd ref="239498373"/>
    <nd ref="239498387"/>
    <nd ref="239498404"/>
    <tag k="highway" v="residential"/>
    <tag k="maxspeed" v="50"/>
    <tag k="maxspeed:source" v="default residential speed limit in Australia"/>
    <tag k="name" v="Disney Court"/>
  </way>
  <way id="22273168" version="5" timestamp="2012-01-15T21:57:47Z" uid="147510" user="woodpeck_fixbot" changeset="10402983">
    <nd ref="239470524"/>
    <nd ref="239498310"/>
    <nd ref="239498373"/>
    <nd ref="239498387"/>
    <nd ref="239498404"/>
    <tag k="highway" v="residential"/>
    <tag k="name" v="Disney Court"/>
  </way>
  <way id="22273171" version="4" timestamp="2010-07-07T08:35:43Z" uid="74617" user="JohnSmith" changeset="5156250">
    <nd ref="239470556"/>
    <nd ref="239498465"/>
    <nd ref="239498526"/>
    <nd ref="239498542"/>
    <nd ref="239498587"/>
    <nd ref="239498619"/>
    <tag k="highway" v="residential"/>
    <tag k="maxspeed" v="50"/>
    <tag k="maxspeed:source" v="default residential speed limit in Australia"/>
    <tag k="name" v="Cabena Court"/>
  </way>
  <way id="22273171" version="5" timestamp="2012-01-15T21:57:48Z" uid="147510" user="woodpeck_fixbot" changeset="10402983">
    <nd ref="239470556"/>
    <nd ref="239498465"/>
    <nd ref="239498526"/>
    <nd ref="239498542"/>
    <nd ref="239498587"/>
    <nd ref="239498619"/>
    <tag k="highway" v="residential"/>
    <tag k="name" v="Cabena Court"/>
  </way>
  <way id="22273174" version="4" timestamp="2010-07-07T08:36:47Z" uid="74617" user="JohnSmith" changeset="5156250">
    <nd ref="239470587"/>
    <nd ref="239498696"/>
    <nd ref="239498755"/>
    <nd ref="239498767"/>
    <nd ref="239498781"/>
    <tag k="highway" v="residential"/>
    <tag k="maxspeed" v="50"/>
    <tag k="maxspeed:source" v="default residential speed limit in Australia"/>
    <tag k="name" v="Howie Court"/>
  </way>
  <way id="22273174" version="5" timestamp="2012-01-15T21:57:49Z" uid="147510" user="woodpeck_fixbot" changeset="10402983">
    <nd ref="239470587"/>
    <nd ref="239498696"/>
    <nd ref="239498755"/>
    <nd ref="239498767"/>
    <nd ref="239498781"/>
    <tag k="highway" v="residential"/>
    <tag k="name" v="Howie Court"/>
  </way>
  <way id="22273177" version="4" timestamp="2010-07-07T08:37:54Z" uid="74617" user="JohnSmith" changeset="5156250">
    <nd ref="239470617"/>
    <nd ref="239498836"/>
    <nd ref="239498901"/>
    <nd ref="239498913"/>
    <tag k="highway" v="residential"/>
    <tag k="maxspeed" v="50"/>
    <tag k="maxspeed:source" v="default residential speed limit in Australia"/>
    <tag k="name" v="Mcelhone Court"/>
  </way>
  <way id="22273177" version="5" timestamp="2012-01-15T21:57:50Z" uid="147510" user="woodpeck_fixbot" changeset="10402983">
    <nd ref="239470617"/>
    <nd ref="239498836"/>
    <nd ref="239498901"/>
    <nd ref="239498913"/>
    <tag k="highway" v="residential"/>
    <tag k="name" v="Mcelhone Court"/>
  </way>
</osm>
