<?xml version='1.0' encoding='UTF-8'?>
<osm version="0.6" generator="libosmium/2.20.0">
  <way id="22412124" version="6" timestamp="2010-07-07T21:33:40Z" uid="74617" user="JohnSmith" changeset="5161069">
    <nd ref="240475393"/>
    <nd ref="240873948"/>
    <nd ref="240873949"/>
    <nd ref="240873950"/>
    <nd ref="240873951"/>
    <nd ref="240873953"/>
    <nd ref="240875574"/>
    <nd ref="240876461"/>
    <nd ref="240878304"/>
    <nd ref="240877847"/>
    <nd ref="240873954"/>
    <tag k="highway" v="residential"/>
    <tag k="maxspeed" v="50"/>
    <tag k="maxspeed:source" v="default residential speed limit in Australia"/>
    <tag k="name" v="Mulga Street"/>
  </way>
  <way id="22412124" version="7" timestamp="2010-09-23T11:18:46Z" uid="349196" user="David Keeys" changeset="5853166">
    <nd ref="240475393"/>
    <nd ref="240873948"/>
    <nd ref="240873949"/>
    <nd ref="240873950"/>
    <nd ref="240873951"/>
    <nd ref="240873953"/>
    <nd ref="240875574"/>
    <nd ref="240876461"/>
    <nd ref="240878304"/>
    <nd ref="240877847"/>
    <nd ref="240873954"/>
    <tag k="highway" v="residential"/>
    <tag k="maxspeed" v="50"/>
    <tag k="maxspeed:source" v="default residential speed limit in Australia"/>
    <tag k="name" v="Mulga Road"/>
  </way>
  <way id="22412124" version="8" timestamp="2011-03-19T03:58:09Z" uid="7617" user="Franc" changeset="7601286">
    <nd ref="240475393"/>
    <nd ref="240873948"/>
    <nd ref="240873949"/>
    <nd ref="1208257503"/>
    <nd ref="240873950"/>
    <nd ref="240873951"/>
    <nd ref="240875574"/>
    <nd ref="240876461"/>
    <nd ref="240878304"/>
    <nd ref="1208257671"/>
    <nd ref="1208257689"/>
    <nd ref="240877847"/>
    <nd ref="240873954"/>
    <tag k="highway" v="residential"/>
    <tag k="maxspeed" v="50"/>
    <tag k="maxspeed:source" v="default residential speed limit in Australia"/>
    <tag k="name" v="Mulga Road"/>
  </way>
  <way id="22412124" version="9" timestamp="2012-01-15T22:05:33Z" uid="147510" user="woodpeck_fixbot" changeset="10402983">
    <nd ref="240475393"/>
    <nd ref="240873948"/>
    <nd ref="240873949"/>
    <nd ref="1208257503"/>
    <nd ref="240873950"/>
    <nd ref="240873951"/>
    <nd ref="240875574"/>
    <nd ref="240876461"/>
    <nd ref="240878304"/>
    <nd ref="1208257671"/>
    <nd ref="1208257689"/>
    <nd ref="240877847"/>
    <nd ref="240873954"/>
    <tag k="highway" v="residential"/>
    <tag k="name" v="Mulga Road"/>
  </way>
  <way id="22412124" version="10" timestamp="2012-03-07T05:23:29Z" uid="7523" user="inas" changeset="10896683">
    <nd ref="240475393"/>
    <nd ref="240873948"/>
    <nd ref="240873949"/>
    <nd ref="1208257503"/>
    <nd ref="240873950"/>
    <nd ref="240873951"/>
    <nd ref="240875574"/>
    <nd ref="240876461"/>
    <nd ref="240878304"/>
    <nd ref="240877847"/>
    <nd ref="240873954"/>
    <tag k="highway" v="residential"/>
    <tag k="name" v="Mulga Road"/>
  </way>
  <way id="22412249" version="5" timestamp="2009-01-13T12:15:05Z" uid="7617" user="Franc" changeset="782175">
    <nd ref="240475397"/>
    <nd ref="240874951"/>
    <nd ref="240875576"/>
    <nd ref="240874953"/>
    <nd ref="240878306"/>
    <nd ref="240877845"/>
    <nd ref="240874955"/>
    <nd ref="240874957"/>
    <tag k="created_by" v="Potlatch 0.6c"/>
    <tag k="highway" v="residential"/>
    <tag k="name" v="Wonona Parade West"/>
  </way>
  <way id="22412249" version="6" timestamp="2009-06-17T02:25:00Z" uid="20949" user="Ebenezer" changeset="1541135">
    <nd ref="240475397"/>
    <nd ref="240874951"/>
    <nd ref="240875576"/>
    <nd ref="240874953"/>
    <nd ref="240878306"/>
    <nd ref="240877845"/>
    <nd ref="240874955"/>
    <tag k="created_by" v="Potlatch 0.6c"/>
    <tag k="highway" v="residential"/>
    <tag k="lcn" v="yes"/>
    <tag k="name" v="Wonona Parade West"/>
    <tag k="source" v="survey"/>
  </way>
  <way id="22412249" version="7" timestamp="2010-07-08T02:08:21Z" uid="74617" user="JohnSmith" changeset="5162525">
    <nd ref="240475397"/>
    <nd ref="240874951"/>
    <nd ref="240875576"/>
    <nd ref="240874953"/>
    <nd ref="240878306"/>
    <nd ref="240877845"/>
    <nd ref="240874955"/>
    <tag k="highway" v="residential"/>
    <tag k="lcn" v="yes"/>
    <tag k="maxspeed" v="50"/>
    <tag k="maxspeed:source" v="default residential speed limit in Australia"/>
    <tag k="name" v="Wonona Parade West"/>
    <tag k="source" v="survey"/>
  </way>
  <way id="22412249" version="8" timestamp="2011-04-25T09:55:45Z" uid="7617" user="Franc" changeset="7961332">
    <nd ref="240475397"/>
    <nd ref="240874951"/>
    <nd ref="240875576"/>
    <nd ref="1259291121"/>
    <tag k="highway" v="residential"/>
    <tag k="lcn" v="yes"/>
    <tag k="maxspeed" v="50"/>
    <tag k="maxspeed:source" v="default residential speed limit in Australia"/>
    <tag k="name" v="Wonona Parade West"/>
    <tag k="source" v="survey"/>
  </way>
  <way id="22412249" version="9" timestamp="2012-01-10T00:24:38Z" uid="583182" user="GregWallstreet" changeset="10347666">
    <nd ref="240475397"/>
    <nd ref="240874951"/>
    <nd ref="240875576"/>
    <nd ref="1259291121"/>
    <tag k="highway" v="residential"/>
    <tag k="lcn" v="yes"/>
    <tag k="maxspeed" v="50"/>
    <tag k="maxspeed:source" v="default residential speed limit in Australia"/>
    <tag k="name" v="Wonoona Parade West"/>
    <tag k="source" v="survey"/>
  </way>
  <way id="22412249" version="10" timestamp="2012-01-15T22:05:35Z" uid="147510" user="woodpeck_fixbot" changeset="10402983">
    <nd ref="240475397"/>
    <nd ref="240874951"/>
    <nd ref="240875576"/>
    <nd ref="1259291121"/>
    <tag k="highway" v="residential"/>
    <tag k="lcn" v="yes"/>
    <tag k="name" v="Wonoona Parade West"/>
    <tag k="source" v="survey"/>
  </way>
  <way id="22412347" version="4" timestamp="2010-07-07T21:36:34Z" uid="74617" user="JohnSmith" changeset="5161069">
    <nd ref="240875573"/>
    <nd ref="240875574"/>
    <nd ref="240875576"/>
    <tag k="highway" v="residential"/>
    <tag k="maxspeed" v="50"/>
    <tag k="maxspeed:source" v="default residential speed limit in Australia"/>
    <tag k="name" v="Waratah Street"/>
  </way>
  <way id="22412347" version="5" timestamp="2012-01-15T22:05:37Z" uid="147510" user="woodpeck_fixbot" changeset="10402983">
    <nd ref="240875573"/>
    <nd ref="240875574"/>
    <nd ref="240875576"/>
    <tag k="highway" v="residential"/>
    <tag k="name" v="Waratah Street"/>
  </way>
  <way id="22412483" version="4" timestamp="2010-07-07T21:29:08Z" uid="74617" user="JohnSmith" changeset="5161069">
    <nd ref="240876459"/>
    <nd ref="240876461"/>
    <nd ref="240874953"/>
    <nd ref="240882081"/>
    <tag k="highway" v="residential"/>
    <tag k="maxspeed" v="50"/>
    <tag k="maxspeed:source" v="default residential speed limit in Australia"/>
    <tag k="name" v="Woronora Parade"/>
  </way>
  <way id="22412483" version="5" timestamp="2011-03-19T03:58:20Z" uid="7617" user="Franc" changeset="7601286">
    <nd ref="240876459"/>
    <nd ref="1208257735"/>
    <nd ref="240876461"/>
    <nd ref="240874953"/>
    <nd ref="240882081"/>
    <tag k="highway" v="residential"/>
    <tag k="maxspeed" v="50"/>
    <tag k="maxspeed:source" v="default residential speed limit in Australia"/>
    <tag k="name" v="Woronora Parade"/>
  </way>
  <way id="22412483" version="6" timestamp="2011-04-25T09:55:43Z" uid="7617" user="Franc" changeset="7961332">
    <nd ref="240876459"/>
    <nd ref="1208257735"/>
    <nd ref="240876461"/>
    <nd ref="1259291147"/>
    <tag k="highway" v="residential"/>
    <tag k="maxspeed" v="50"/>
    <tag k="maxspeed:source" v="default residential speed limit in Australia"/>
    <tag k="name" v="Woronora Parade"/>
  </way>
  <way id="22412483" version="7" timestamp="2012-01-15T22:05:43Z" uid="147510" user="woodpeck_fixbot" changeset="10402983">
    <nd ref="240876459"/>
    <nd ref="1208257735"/>
    <nd ref="240876461"/>
    <nd ref="1259291147"/>
    <tag k="highway" v="residential"/>
    <tag k="name" v="Woronora Parade"/>
  </way>
  <way id="22412601" version="8" timestamp="2010-07-07T21:29:13Z" uid="74617" user="JohnSmith" changeset="5161069">
    <nd ref="240877240"/>
    <nd ref="240889130"/>
    <nd ref="31248509"/>
    <nd ref="240887093"/>
    <nd ref="240873954"/>
    <tag k="highway" v="residential"/>
    <tag k="maxspeed" v="50"/>
    <tag k="maxspeed:source" v="default residential speed limit in Australia"/>
    <tag k="name" v="Gungah Bay Road"/>
    <tag k="source" v="survey"/>
  </way>
  <way id="22412601" version="9" timestamp="2011-03-19T03:58:11Z" uid="7617" user="Franc" changeset="7601286">
    <nd ref="240877240"/>
    <nd ref="240889130"/>
    <nd ref="1208257623"/>
    <nd ref="31248509"/>
    <nd ref="1208257495"/>
    <nd ref="240887093"/>
    <nd ref="240873954"/>
    <tag k="highway" v="residential"/>
    <tag k="maxspeed" v="50"/>
    <tag k="maxspeed:source" v="default residential speed limit in Australia"/>
    <tag k="name" v="Gungah Bay Road"/>
    <tag k="source" v="survey"/>
  </way>
  <way id="22412601" version="10" timestamp="2012-01-15T22:05:44Z" uid="147510" user="woodpeck_fixbot" changeset="10402983">
    <nd ref="240877240"/>
    <nd ref="240889130"/>
    <nd ref="1208257623"/>
    <nd ref="31248509"/>
    <nd ref="1208257495"/>
    <nd ref="240887093"/>
    <nd ref="240873954"/>
    <tag k="highway" v="residential"/>
    <tag k="name" v="Gungah Bay Road"/>
    <tag k="source" v="survey"/>
  </way>
  <way id="22412758" version="3" timestamp="2010-07-07T21:27:09Z" uid="74617" user="JohnSmith" changeset="5161069">
    <nd ref="240877287"/>
    <nd ref="240877844"/>
    <nd ref="240882084"/>
    <nd ref="240877845"/>
    <nd ref="240877847"/>
    <nd ref="240877848"/>
    <tag k="highway" v="residential"/>
    <tag k="maxspeed" v="50"/>
    <tag k="maxspeed:source" v="default residential speed limit in Australia"/>
    <tag k="name" v="Myall Street"/>
  </way>
  <way id="22412758" version="4" timestamp="2011-03-19T03:58:21Z" uid="7617" user="Franc" changeset="7601286">
    <nd ref="240877287"/>
    <nd ref="240877844"/>
    <nd ref="240882084"/>
    <nd ref="240877845"/>
    <nd ref="1208257692"/>
    <nd ref="240877847"/>
    <nd ref="240877848"/>
    <tag k="highway" v="residential"/>
    <tag k="maxspeed" v="50"/>
    <tag k="maxspeed:source" v="default residential speed limit in Australia"/>
    <tag k="name" v="Myall Street"/>
  </way>
  <way id="22412758" version="5" timestamp="2011-04-02T06:22:51Z" uid="237525" user="aharvey" changeset="7741252">
    <nd ref="240877287"/>
    <nd ref="240877844"/>
    <nd ref="1228875713"/>
    <nd ref="240882084"/>
    <nd ref="240877845"/>
    <nd ref="1208257692"/>
    <nd ref="240877847"/>
    <nd ref="240877848"/>
    <tag k="highway" v="residential"/>
    <tag k="maxspeed" v="50"/>
    <tag k="maxspeed:source" v="default residential speed limit in Australia"/>
    <tag k="name" v="Myall Street"/>
  </way>
  <way id="22412758" version="6" timestamp="2011-04-06T09:29:17Z" uid="7617" user="Franc" changeset="7782926">
    <nd ref="240877287"/>
    <nd ref="240877844"/>
    <nd ref="1228875713"/>
    <nd ref="1234570390"/>
    <nd ref="1234570526"/>
    <nd ref="240882084"/>
    <nd ref="240877845"/>
    <nd ref="1208257692"/>
    <nd ref="240877847"/>
    <nd ref="240877848"/>
    <tag k="highway" v="residential"/>
    <tag k="maxspeed" v="50"/>
    <tag k="maxspeed:source" v="default residential speed limit in Australia"/>
    <tag k="name" v="Myall Street"/>
  </way>
  <way id="22412758" version="7" timestamp="2012-01-15T22:05:45Z" uid="147510" user="woodpeck_fixbot" changeset="10402983">
    <nd ref="240877287"/>
    <nd ref="240877844"/>
    <nd ref="1228875713"/>
    <nd ref="1234570390"/>
    <nd ref="1234570526"/>
    <nd ref="240882084"/>
    <nd ref="240877845"/>
    <nd ref="1208257692"/>
    <nd ref="240877847"/>
    <nd ref="240877848"/>
    <tag k="highway" v="residential"/>
    <tag k="name" v="Myall Street"/>
  </way>
  <way id="22412758" version="8" timestamp="2012-03-07T05:23:30Z" uid="7523" user="inas" changeset="10896683">
    <nd ref="240877287"/>
    <nd ref="240877844"/>
    <nd ref="1228875713"/>
    <nd ref="1234570390"/>
    <nd ref="240882084"/>
    <nd ref="240877845"/>
    <nd ref="240877847"/>
    <nd ref="240877848"/>
    <tag k="highway" v="residential"/>
    <tag k="name" v="Myall Street"/>
  </way>
  <way id="22412907" version="3" timestamp="2010-07-07T21:28:38Z" uid="74617" user="JohnSmith" changeset="5161069">
    <nd ref="240878302"/>
    <nd ref="240878304"/>
    <nd ref="240878306"/>
    <nd ref="240882082"/>
    <nd ref="240878307"/>
    <tag k="highway" v="residential"/>
    <tag k="maxspeed" v="50"/>
    <tag k="maxspeed:source" v="default residential speed limit in Australia"/>
    <tag k="name" v="Mimi Street"/>
  </way>
  <way id="22412907" version="4" timestamp="2011-03-19T03:58:16Z" uid="7617" user="Franc" changeset="7601286">
    <nd ref="240878302"/>
    <nd ref="1208257525"/>
    <nd ref="1208257474"/>
    <nd ref="240878304"/>
    <nd ref="1208257570"/>
    <nd ref="240878306"/>
    <nd ref="240882082"/>
    <nd ref="240878307"/>
    <tag k="highway" v="residential"/>
    <tag k="maxspeed" v="50"/>
    <tag k="maxspeed:source" v="default residential speed limit in Australia"/>
    <tag k="name" v="Mimi Street"/>
  </way>
  <way id="22412907" version="5" timestamp="2011-04-06T09:29:23Z" uid="7617" user="Franc" changeset="7782926">
    <nd ref="240878302"/>
    <nd ref="1208257525"/>
    <nd ref="1208257474"/>
    <nd ref="240878304"/>
    <nd ref="1208257570"/>
    <nd ref="240878306"/>
    <nd ref="240882082"/>
    <nd ref="1234570512"/>
    <nd ref="1234570499"/>
    <nd ref="1234570515"/>
    <nd ref="1234570381"/>
    <nd ref="240878307"/>
    <tag k="highway" v="residential"/>
    <tag k="maxspeed" v="50"/>
    <tag k="maxspeed:source" v="default residential speed limit in Australia"/>
    <tag k="name" v="Mimi Street"/>
  </way>
  <way id="22412907" version="6" timestamp="2012-01-15T22:05:47Z" uid="147510" user="woodpeck_fixbot" changeset="10402983">
    <nd ref="240878302"/>
    <nd ref="1208257525"/>
    <nd ref="1208257474"/>
    <nd ref="240878304"/>
    <nd ref="1208257570"/>
    <nd ref="240878306"/>
    <nd ref="240882082"/>
    <nd ref="1234570512"/>
    <nd ref="1234570499"/>
    <nd ref="1234570515"/>
    <nd ref="1234570381"/>
    <nd ref="240878307"/>
    <tag k="highway" v="residential"/>
    <tag k="name" v="Mimi Street"/>
  </way>
  <way id="22412907" version="7" timestamp="2012-03-07T05:23:28Z" uid="7523" user="inas" changeset="10896683">
    <nd ref="240878302"/>
    <nd ref="1208257525"/>
    <nd ref="240878304"/>
    <nd ref="240878306"/>
    <nd ref="240882082"/>
    <nd ref="1234570512"/>
    <nd ref="1234570499"/>
    <nd ref="1234570381"/>
    <nd ref="240878307"/>
    <tag k="highway" v="residential"/>
    <tag k="name" v="Mimi Street"/>
  </way>
</osm>
