<?xml version='1.0' encoding='UTF-8'?>
<osm version="0.6" generator="libosmium/2.20.0">
  <way id="22557495" version="2" timestamp="2008-09-05T10:54:10Z" uid="1066" user="pavel" changeset="539695">
    <nd ref="240804320"/>
    <nd ref="241779985"/>
    <nd ref="241779986"/>
    <tag k="created_by" v="Potlatch 0.6c"/>
    <tag k="highway" v="residential"/>
    <tag k="name" v="Kladinovská"/>
    <tag k="name:source" v="nameit/uir-adr"/>
  </way>
  <way id="22557495" version="3" timestamp="2009-03-14T13:17:02Z" uid="3516" user="BiIbo" changeset="804731">
    <nd ref="240804320"/>
    <nd ref="241779985"/>
    <nd ref="241779986"/>
    <tag k="highway" v="residential"/>
    <tag k="name" v="Kladinovská"/>
    <tag k="source:name" v="nameit/uir-adr"/>
  </way>
  <way id="22557495" version="4" timestamp="2011-05-09T14:44:17Z" uid="3516" user="BiIbo" changeset="8093286">
    <nd ref="240804320"/>
    <nd ref="1278209326"/>
    <nd ref="241779985"/>
    <nd ref="241779986"/>
    <tag k="highway" v="residential"/>
    <tag k="name" v="Kladinovská"/>
    <tag k="source:name" v="nameit/uir-adr"/>
  </way>
</osm>
