<?xml version='1.0' encoding='UTF-8'?>
<osm version="0.6" generator="libosmium/2.20.0">
  <way id="22630038" version="2" timestamp="2009-11-28T04:51:54Z" uid="30201" user="rrankin" changeset="3233524">
    <nd ref="242697201"/>
    <nd ref="60282197"/>
    <nd ref="60282115"/>
    <tag k="highway" v="residential"/>
    <tag k="name" v="Mary Street"/>
  </way>
  <way id="22630038" version="3" timestamp="2010-07-08T02:06:46Z" uid="74617" user="JohnSmith" changeset="5162525">
    <nd ref="242697201"/>
    <nd ref="60282197"/>
    <nd ref="60282115"/>
    <tag k="highway" v="residential"/>
    <tag k="maxspeed" v="50"/>
    <tag k="maxspeed:source" v="default residential speed limit in Australia"/>
    <tag k="name" v="Mary Street"/>
  </way>
  <way id="22630038" version="4" timestamp="2011-06-19T12:54:45Z" uid="7617" user="Franc" changeset="8483675">
    <nd ref="242697201"/>
    <nd ref="60282197"/>
    <tag k="highway" v="residential"/>
    <tag k="maxspeed" v="50"/>
    <tag k="maxspeed:source" v="default residential speed limit in Australia"/>
    <tag k="name" v="Mary Street"/>
  </way>
  <way id="22630038" version="5" timestamp="2012-01-15T22:33:10Z" uid="147510" user="woodpeck_fixbot" changeset="10402983">
    <nd ref="242697201"/>
    <nd ref="60282197"/>
    <tag k="highway" v="residential"/>
    <tag k="name" v="Mary Street"/>
  </way>
  <way id="22630038" version="6" timestamp="2012-03-08T23:54:05Z" uid="7523" user="inas" changeset="10915097">
    <nd ref="242697201"/>
    <nd ref="1666675253"/>
    <tag k="highway" v="residential"/>
    <tag k="name" v="Mary Street"/>
  </way>
  <way id="22630180" version="2" timestamp="2010-02-01T13:48:03Z" uid="7617" user="Franc" changeset="3767712">
    <nd ref="242697466"/>
    <nd ref="625581224"/>
    <nd ref="242697467"/>
    <nd ref="625581227"/>
    <nd ref="242697468"/>
    <nd ref="625581230"/>
    <nd ref="242697469"/>
    <nd ref="242697472"/>
    <nd ref="242697473"/>
    <tag k="highway" v="residential"/>
    <tag k="name" v="Melrose Avenue"/>
  </way>
  <way id="22630180" version="3" timestamp="2010-07-08T02:11:27Z" uid="74617" user="JohnSmith" changeset="5162525">
    <nd ref="242697466"/>
    <nd ref="625581224"/>
    <nd ref="242697467"/>
    <nd ref="625581227"/>
    <nd ref="242697468"/>
    <nd ref="625581230"/>
    <nd ref="242697469"/>
    <nd ref="242697472"/>
    <nd ref="242697473"/>
    <tag k="highway" v="residential"/>
    <tag k="maxspeed" v="50"/>
    <tag k="maxspeed:source" v="default residential speed limit in Australia"/>
    <tag k="name" v="Melrose Avenue"/>
  </way>
  <way id="22630180" version="4" timestamp="2012-01-15T22:33:11Z" uid="147510" user="woodpeck_fixbot" changeset="10402983">
    <nd ref="242697466"/>
    <nd ref="625581224"/>
    <nd ref="242697467"/>
    <nd ref="625581227"/>
    <nd ref="242697468"/>
    <nd ref="625581230"/>
    <nd ref="242697469"/>
    <nd ref="242697472"/>
    <nd ref="242697473"/>
    <tag k="highway" v="residential"/>
    <tag k="name" v="Melrose Avenue"/>
  </way>
  <way id="22630354" version="2" timestamp="2010-07-08T02:11:03Z" uid="74617" user="JohnSmith" changeset="5162525">
    <nd ref="242697472"/>
    <nd ref="242697741"/>
    <tag k="highway" v="residential"/>
    <tag k="maxspeed" v="50"/>
    <tag k="maxspeed:source" v="default residential speed limit in Australia"/>
    <tag k="name" v="Kathleen Street"/>
  </way>
  <way id="22630354" version="3" timestamp="2012-01-15T22:33:12Z" uid="147510" user="woodpeck_fixbot" changeset="10402983">
    <nd ref="242697472"/>
    <nd ref="242697741"/>
    <tag k="highway" v="residential"/>
    <tag k="name" v="Kathleen Street"/>
  </way>
  <way id="22630452" version="2" timestamp="2010-07-08T02:10:55Z" uid="74617" user="JohnSmith" changeset="5162525">
    <nd ref="242697761"/>
    <nd ref="242697889"/>
    <tag k="highway" v="residential"/>
    <tag k="maxspeed" v="50"/>
    <tag k="maxspeed:source" v="default residential speed limit in Australia"/>
    <tag k="name" v="Lonard Avenue"/>
  </way>
  <way id="22630452" version="3" timestamp="2012-01-15T22:33:13Z" uid="147510" user="woodpeck_fixbot" changeset="10402983">
    <nd ref="242697761"/>
    <nd ref="242697889"/>
    <tag k="highway" v="residential"/>
    <tag k="name" v="Lonard Avenue"/>
  </way>
  <way id="22630868" version="2" timestamp="2010-02-01T12:09:57Z" uid="7617" user="Franc" changeset="3766993">
    <nd ref="242698045"/>
    <nd ref="242698447"/>
    <nd ref="625393783"/>
    <nd ref="242695353"/>
    <nd ref="625393780"/>
    <nd ref="625393778"/>
    <nd ref="625393789"/>
    <nd ref="242698448"/>
    <tag k="highway" v="residential"/>
    <tag k="name" v="Sproule Street"/>
  </way>
  <way id="22630868" version="3" timestamp="2010-07-08T02:08:31Z" uid="74617" user="JohnSmith" changeset="5162525">
    <nd ref="242698045"/>
    <nd ref="242698447"/>
    <nd ref="625393783"/>
    <nd ref="242695353"/>
    <nd ref="625393780"/>
    <nd ref="625393778"/>
    <nd ref="625393789"/>
    <nd ref="242698448"/>
    <tag k="highway" v="residential"/>
    <tag k="maxspeed" v="50"/>
    <tag k="maxspeed:source" v="default residential speed limit in Australia"/>
    <tag k="name" v="Sproule Street"/>
  </way>
  <way id="22630868" version="4" timestamp="2011-03-25T15:05:38Z" uid="4467" user="Rosscoe" changeset="7666311">
    <nd ref="242698045"/>
    <nd ref="1217601993"/>
    <nd ref="1217601995"/>
    <nd ref="1217601992"/>
    <nd ref="242698447"/>
    <nd ref="625393783"/>
    <nd ref="242695353"/>
    <nd ref="625393780"/>
    <nd ref="625393778"/>
    <nd ref="625393789"/>
    <nd ref="242698448"/>
    <tag k="highway" v="residential"/>
    <tag k="maxspeed" v="50"/>
    <tag k="maxspeed:source" v="default residential speed limit in Australia"/>
    <tag k="name" v="Sproule Street"/>
  </way>
  <way id="22630868" version="5" timestamp="2012-01-15T22:33:13Z" uid="147510" user="woodpeck_fixbot" changeset="10402983">
    <nd ref="242698045"/>
    <nd ref="1217601993"/>
    <nd ref="1217601995"/>
    <nd ref="1217601992"/>
    <nd ref="242698447"/>
    <nd ref="625393783"/>
    <nd ref="242695353"/>
    <nd ref="625393780"/>
    <nd ref="625393778"/>
    <nd ref="625393789"/>
    <nd ref="242698448"/>
    <tag k="highway" v="residential"/>
    <tag k="name" v="Sproule Street"/>
  </way>
  <way id="22630868" version="6" timestamp="2012-03-07T05:23:39Z" uid="7523" user="inas" changeset="10896683">
    <nd ref="242698045"/>
    <nd ref="1217601993"/>
    <nd ref="1217601995"/>
    <nd ref="1217601992"/>
    <nd ref="242698447"/>
    <nd ref="242695353"/>
    <nd ref="242698448"/>
    <tag k="highway" v="residential"/>
    <tag k="name" v="Sproule Street"/>
  </way>
</osm>
