<?xml version='1.0' encoding='UTF-8'?>
<osm version="0.6" generator="libosmium/2.20.0">
  <way id="22670107" version="7" timestamp="2010-01-31T12:37:30Z" uid="74617" user="JohnSmith" changeset="3758604">
    <nd ref="243170447"/>
    <nd ref="623955534"/>
    <nd ref="26339465"/>
    <nd ref="623955536"/>
    <nd ref="243170448"/>
    <nd ref="26339459"/>
    <nd ref="616140378"/>
    <nd ref="623955542"/>
    <nd ref="616140379"/>
    <nd ref="616140381"/>
    <nd ref="616143293"/>
    <nd ref="26339455"/>
    <tag k="bridge" v="yes"/>
    <tag k="layer" v="1"/>
    <tag k="railway" v="rail"/>
  </way>
  <way id="22670135" version="11" timestamp="2010-01-31T12:37:31Z" uid="74617" user="JohnSmith" changeset="3758604"/>
  <way id="22670672" version="6" timestamp="2010-03-27T23:29:56Z" uid="20587" user="balrog-kun" changeset="4250871">
    <nd ref="243172596"/>
    <nd ref="243172621"/>
    <nd ref="243172622"/>
    <nd ref="243172579"/>
    <nd ref="241319461"/>
    <nd ref="312059406"/>
    <tag k="created_by" v="Potlatch 0.10f; Potlatch 0.9a"/>
    <tag k="highway" v="tertiary"/>
    <tag k="name" v="19th Avenue"/>
    <tag k="oneway" v="yes"/>
    <tag k="tiger:cfcc" v="A41"/>
    <tag k="tiger:county" v="Alameda, CA"/>
    <tag k="tiger:name_base" v="19th"/>
    <tag k="tiger:name_type" v="Ave"/>
    <tag k="tiger:reviewed" v="no"/>
    <tag k="tiger:separated" v="no"/>
    <tag k="tiger:source" v="tiger_import_dch_v0.6_20070809"/>
    <tag k="tiger:tlid" v="125005290"/>
  </way>
  <way id="22670850" version="2" timestamp="2008-07-14T19:21:15Z" uid="16579" user="bjk" changeset="487573">
    <nd ref="243172767"/>
    <nd ref="278545805"/>
    <nd ref="243172766"/>
    <tag k="bridge" v="yes"/>
    <tag k="created_by" v="Potlatch alpha"/>
    <tag k="highway" v="primary"/>
    <tag k="layer" v="1"/>
    <tag k="name" v="Frankfurter Straße"/>
    <tag k="ref" v="B8"/>
  </way>
  <way id="22670850" version="3" timestamp="2008-08-12T18:44:21Z" uid="24748" user="mabapla" changeset="204822">
    <nd ref="243172767"/>
    <nd ref="278545805"/>
    <nd ref="243172766"/>
    <tag k="bridge" v="yes"/>
    <tag k="created_by" v="Potlatch alpha"/>
    <tag k="highway" v="primary"/>
    <tag k="layer" v="1"/>
    <tag k="name" v="Frankfurter Straße"/>
    <tag k="ref" v="B 8"/>
  </way>
  <way id="22670850" version="4" timestamp="2009-01-18T14:05:25Z" uid="31605" user="hatzfeld" changeset="805779">
    <nd ref="243172767"/>
    <nd ref="278545805"/>
    <nd ref="243172766"/>
    <tag k="bridge" v="yes"/>
    <tag k="created_by" v="Potlatch alpha"/>
    <tag k="cycleway" v="track"/>
    <tag k="highway" v="primary"/>
    <tag k="layer" v="1"/>
    <tag k="name" v="Frankfurter Straße"/>
    <tag k="ref" v="B 8"/>
  </way>
  <way id="22670850" version="5" timestamp="2009-06-06T06:02:12Z" uid="71040" user="nehler" changeset="1434797">
    <nd ref="243172767"/>
    <nd ref="278545805"/>
    <nd ref="243172766"/>
    <tag k="bridge" v="yes"/>
    <tag k="created_by" v="Potlatch alpha"/>
    <tag k="cycleway" v="track"/>
    <tag k="highway" v="primary"/>
    <tag k="layer" v="1"/>
    <tag k="name" v="Frankfurter Straße"/>
    <tag k="oneway" v="yes"/>
    <tag k="ref" v="B 8"/>
  </way>
  <way id="22670850" version="6" timestamp="2009-08-25T22:35:34Z" uid="61341" user="Bürste" changeset="2262384">
    <nd ref="243172767"/>
    <nd ref="278545805"/>
    <nd ref="243172766"/>
    <tag k="bridge" v="yes"/>
    <tag k="cycleway" v="track"/>
    <tag k="highway" v="primary"/>
    <tag k="layer" v="1"/>
    <tag k="name" v="Frankfurter Straße"/>
    <tag k="oneway" v="yes"/>
    <tag k="ref" v="B 8"/>
  </way>
  <way id="22670850" version="7" timestamp="2010-05-31T18:55:56Z" uid="116044" user="berndw" changeset="4867090">
    <nd ref="243172767"/>
    <nd ref="278545805"/>
    <tag k="cycleway" v="track"/>
    <tag k="highway" v="primary"/>
    <tag k="name" v="Frankfurter Straße"/>
    <tag k="oneway" v="yes"/>
    <tag k="ref" v="B 8"/>
  </way>
  <way id="22670850" version="8" timestamp="2010-11-15T17:46:52Z" uid="116044" user="berndw" changeset="6379095">
    <nd ref="243172767"/>
    <nd ref="278545805"/>
    <tag k="highway" v="primary"/>
    <tag k="name" v="Frankfurter Straße"/>
    <tag k="oneway" v="yes"/>
    <tag k="ref" v="B 8"/>
  </way>
  <way id="22670850" version="9" timestamp="2011-10-07T13:59:50Z" uid="116044" user="berndw" changeset="9494207"/>
  <way id="22670852" version="9" timestamp="2010-07-06T09:20:04Z" uid="74617" user="JohnSmith" changeset="5147679">
    <nd ref="243172277"/>
    <nd ref="615822162"/>
    <nd ref="615821537"/>
    <nd ref="243172720"/>
    <nd ref="243172721"/>
    <nd ref="243172722"/>
    <nd ref="615821571"/>
    <nd ref="243172723"/>
    <nd ref="243172724"/>
    <nd ref="615821589"/>
    <nd ref="243172725"/>
    <nd ref="615821596"/>
    <nd ref="243172726"/>
    <nd ref="243172727"/>
    <nd ref="615816229"/>
    <nd ref="557586900"/>
    <nd ref="615816255"/>
    <nd ref="557586913"/>
    <nd ref="615816302"/>
    <nd ref="557586923"/>
    <nd ref="557586934"/>
    <nd ref="557586967"/>
    <nd ref="557586977"/>
    <nd ref="557587215"/>
    <nd ref="557587228"/>
    <nd ref="557587240"/>
    <nd ref="557587251"/>
    <nd ref="557587259"/>
    <tag k="highway" v="unclassified"/>
    <tag k="maxspeed" v="50"/>
    <tag k="maxspeed:source" v="default residential speed limit in Australia"/>
    <tag k="name" v="International Terminal"/>
    <tag k="oneway" v="yes"/>
  </way>
  <way id="22670852" version="10" timestamp="2011-01-13T01:47:04Z" uid="69076" user="axk" changeset="6953562">
    <nd ref="243172277"/>
    <nd ref="615822162"/>
    <nd ref="615821537"/>
    <nd ref="243172720"/>
    <nd ref="243172721"/>
    <nd ref="615821571"/>
    <nd ref="243172723"/>
    <nd ref="243172724"/>
    <nd ref="615821589"/>
    <nd ref="243172725"/>
    <nd ref="615821596"/>
    <nd ref="243172726"/>
    <nd ref="243172727"/>
    <nd ref="615816229"/>
    <nd ref="557586900"/>
    <nd ref="615816255"/>
    <nd ref="557586913"/>
    <nd ref="615816302"/>
    <nd ref="557586923"/>
    <nd ref="557586934"/>
    <nd ref="557586967"/>
    <nd ref="557586977"/>
    <nd ref="557587215"/>
    <nd ref="557587228"/>
    <nd ref="557587240"/>
    <nd ref="557587251"/>
    <nd ref="557587259"/>
    <tag k="highway" v="unclassified"/>
    <tag k="maxspeed" v="50"/>
    <tag k="maxspeed:source" v="default residential speed limit in Australia"/>
    <tag k="name" v="International Terminal"/>
    <tag k="oneway" v="yes"/>
  </way>
  <way id="22670852" version="11" timestamp="2012-01-15T22:36:39Z" uid="147510" user="woodpeck_fixbot" changeset="10402983">
    <nd ref="243172277"/>
    <nd ref="615822162"/>
    <nd ref="615821537"/>
    <nd ref="243172720"/>
    <nd ref="243172721"/>
    <nd ref="615821571"/>
    <nd ref="243172723"/>
    <nd ref="243172724"/>
    <nd ref="615821589"/>
    <nd ref="243172725"/>
    <nd ref="615821596"/>
    <nd ref="243172726"/>
    <nd ref="243172727"/>
    <nd ref="615816229"/>
    <nd ref="557586900"/>
    <nd ref="615816255"/>
    <nd ref="557586913"/>
    <nd ref="615816302"/>
    <nd ref="557586923"/>
    <nd ref="557586934"/>
    <nd ref="557586967"/>
    <nd ref="557586977"/>
    <nd ref="557587215"/>
    <nd ref="557587228"/>
    <nd ref="557587240"/>
    <nd ref="557587251"/>
    <nd ref="557587259"/>
    <tag k="highway" v="unclassified"/>
    <tag k="name" v="International Terminal"/>
    <tag k="oneway" v="yes"/>
  </way>
  <way id="22670855" version="2" timestamp="2008-04-18T19:32:18Z" uid="16579" user="bjk" changeset="181794">
    <nd ref="243172766"/>
    <nd ref="243172771"/>
    <nd ref="60324649"/>
    <nd ref="60323784"/>
    <nd ref="60324935"/>
    <nd ref="60324936"/>
    <nd ref="61164422"/>
    <nd ref="60326963"/>
    <nd ref="258387764"/>
    <nd ref="60368932"/>
    <nd ref="60335808"/>
    <nd ref="61164527"/>
    <nd ref="60271326"/>
    <tag k="created_by" v="Potlatch alpha"/>
    <tag k="highway" v="primary"/>
    <tag k="name" v="Frankfurter Straße"/>
    <tag k="ref" v="B8"/>
  </way>
  <way id="22670855" version="3" timestamp="2008-04-18T19:40:03Z" uid="16579" user="bjk" changeset="181794">
    <nd ref="243172766"/>
    <nd ref="243172771"/>
    <nd ref="60324649"/>
    <nd ref="60323784"/>
    <nd ref="60324935"/>
    <nd ref="60324936"/>
    <nd ref="61164422"/>
    <nd ref="60326963"/>
    <nd ref="258387764"/>
    <nd ref="60368932"/>
    <nd ref="258388722"/>
    <nd ref="60335808"/>
    <nd ref="61164527"/>
    <nd ref="60271326"/>
    <tag k="created_by" v="Potlatch alpha"/>
    <tag k="highway" v="primary"/>
    <tag k="name" v="Frankfurter Straße"/>
    <tag k="ref" v="B8"/>
  </way>
  <way id="22670855" version="4" timestamp="2008-05-07T14:13:58Z" uid="16579" user="bjk" changeset="358727">
    <nd ref="243172766"/>
    <nd ref="243172771"/>
    <nd ref="60324649"/>
    <nd ref="60323784"/>
    <nd ref="60324935"/>
    <nd ref="262645890"/>
    <nd ref="60324936"/>
    <nd ref="262645888"/>
    <nd ref="262645854"/>
    <nd ref="262645855"/>
    <nd ref="61164422"/>
    <nd ref="60326963"/>
    <nd ref="258387764"/>
    <nd ref="60368932"/>
    <nd ref="258388722"/>
    <nd ref="60335808"/>
    <nd ref="61164527"/>
    <nd ref="60271326"/>
    <tag k="created_by" v="Potlatch alpha"/>
    <tag k="highway" v="primary"/>
    <tag k="name" v="Frankfurter Straße"/>
    <tag k="ref" v="B8"/>
  </way>
  <way id="22670855" version="5" timestamp="2008-05-07T14:19:52Z" uid="16579" user="bjk" changeset="358727">
    <nd ref="243172766"/>
    <nd ref="243172771"/>
    <nd ref="60324649"/>
    <nd ref="60323784"/>
    <nd ref="60324935"/>
    <nd ref="262645890"/>
    <nd ref="60324936"/>
    <nd ref="262645888"/>
    <nd ref="262645854"/>
    <nd ref="262645855"/>
    <nd ref="262646487"/>
    <nd ref="262646490"/>
    <nd ref="61164422"/>
    <nd ref="60326963"/>
    <nd ref="258387764"/>
    <nd ref="60368932"/>
    <nd ref="258388722"/>
    <nd ref="60335808"/>
    <nd ref="61164527"/>
    <nd ref="60271326"/>
    <tag k="created_by" v="Potlatch alpha"/>
    <tag k="highway" v="primary"/>
    <tag k="name" v="Frankfurter Straße"/>
    <tag k="ref" v="B8"/>
  </way>
  <way id="22670855" version="6" timestamp="2008-05-07T15:23:30Z" uid="16579" user="bjk" changeset="358727">
    <nd ref="243172766"/>
    <nd ref="243172771"/>
    <nd ref="60324649"/>
    <nd ref="262655142"/>
    <nd ref="60323784"/>
    <nd ref="60324935"/>
    <nd ref="262645890"/>
    <nd ref="60324936"/>
    <nd ref="262645888"/>
    <nd ref="262645854"/>
    <nd ref="262645855"/>
    <nd ref="262646487"/>
    <nd ref="262646490"/>
    <nd ref="61164422"/>
    <nd ref="60326963"/>
    <nd ref="258387764"/>
    <nd ref="60368932"/>
    <nd ref="258388722"/>
    <nd ref="60335808"/>
    <nd ref="61164527"/>
    <nd ref="60271326"/>
    <tag k="created_by" v="Potlatch alpha"/>
    <tag k="highway" v="primary"/>
    <tag k="name" v="Frankfurter Straße"/>
    <tag k="ref" v="B8"/>
  </way>
  <way id="22670855" version="7" timestamp="2008-08-03T19:16:55Z" uid="16579" user="bjk" changeset="40084">
    <nd ref="243172766"/>
    <nd ref="243172771"/>
    <nd ref="60324649"/>
    <nd ref="262655142"/>
    <nd ref="60323784"/>
    <nd ref="60324935"/>
    <nd ref="262645890"/>
    <nd ref="60324936"/>
    <nd ref="262645888"/>
    <nd ref="262645854"/>
    <nd ref="262645855"/>
    <nd ref="262646487"/>
    <nd ref="262646490"/>
    <nd ref="61164422"/>
    <nd ref="60326963"/>
    <nd ref="258387764"/>
    <nd ref="60368932"/>
    <nd ref="258388722"/>
    <nd ref="283187650"/>
    <nd ref="60335808"/>
    <nd ref="61164527"/>
    <nd ref="60271326"/>
    <tag k="created_by" v="Potlatch alpha"/>
    <tag k="highway" v="primary"/>
    <tag k="name" v="Frankfurter Straße"/>
    <tag k="ref" v="B8"/>
  </way>
  <way id="22670855" version="8" timestamp="2008-08-12T18:44:21Z" uid="24748" user="mabapla" changeset="204822">
    <nd ref="243172766"/>
    <nd ref="243172771"/>
    <nd ref="60324649"/>
    <nd ref="262655142"/>
    <nd ref="60323784"/>
    <nd ref="60324935"/>
    <nd ref="262645890"/>
    <nd ref="60324936"/>
    <nd ref="262645888"/>
    <nd ref="262645854"/>
    <nd ref="262645855"/>
    <nd ref="262646487"/>
    <nd ref="262646490"/>
    <nd ref="61164422"/>
    <nd ref="60326963"/>
    <nd ref="258387764"/>
    <nd ref="60368932"/>
    <nd ref="258388722"/>
    <nd ref="283187650"/>
    <nd ref="60335808"/>
    <nd ref="61164527"/>
    <nd ref="60271326"/>
    <tag k="created_by" v="Potlatch alpha"/>
    <tag k="highway" v="primary"/>
    <tag k="name" v="Frankfurter Straße"/>
    <tag k="ref" v="B 8"/>
  </way>
  <way id="22670855" version="9" timestamp="2008-08-23T12:00:09Z" uid="36745" user="Gluko" changeset="380882">
    <nd ref="243172766"/>
    <nd ref="243172771"/>
    <nd ref="60324649"/>
    <nd ref="262655142"/>
    <nd ref="60323784"/>
    <nd ref="60324935"/>
    <nd ref="262645890"/>
    <nd ref="60324936"/>
    <nd ref="262645888"/>
    <nd ref="262645854"/>
    <nd ref="262645855"/>
    <nd ref="262646487"/>
    <nd ref="262646490"/>
    <nd ref="61164422"/>
    <nd ref="60326963"/>
    <nd ref="258387764"/>
    <nd ref="60368932"/>
    <nd ref="258388722"/>
    <nd ref="283187650"/>
    <nd ref="60335808"/>
    <nd ref="61164527"/>
    <nd ref="60271326"/>
    <tag k="created_by" v="Potlatch 0.10b"/>
    <tag k="highway" v="primary"/>
    <tag k="name" v="Frankfurter Straße"/>
    <tag k="oneway" v="yes"/>
    <tag k="ref" v="B 8"/>
  </way>
  <way id="22670855" version="10" timestamp="2009-01-18T14:05:26Z" uid="31605" user="hatzfeld" changeset="805779">
    <nd ref="243172766"/>
    <nd ref="243172771"/>
    <nd ref="60324649"/>
    <nd ref="262655142"/>
    <nd ref="60323784"/>
    <nd ref="60324935"/>
    <nd ref="262645890"/>
    <nd ref="60324936"/>
    <nd ref="262645888"/>
    <nd ref="262645854"/>
    <nd ref="262645855"/>
    <nd ref="262646487"/>
    <nd ref="262646490"/>
    <nd ref="61164422"/>
    <nd ref="60326963"/>
    <nd ref="258387764"/>
    <nd ref="60368932"/>
    <nd ref="258388722"/>
    <nd ref="283187650"/>
    <nd ref="60335808"/>
    <nd ref="61164527"/>
    <nd ref="60271326"/>
    <tag k="created_by" v="Potlatch 0.10b"/>
    <tag k="cycleway" v="track"/>
    <tag k="highway" v="primary"/>
    <tag k="name" v="Frankfurter Straße"/>
    <tag k="oneway" v="yes"/>
    <tag k="ref" v="B 8"/>
  </way>
  <way id="22670855" version="11" timestamp="2009-08-25T22:33:11Z" uid="61341" user="Bürste" changeset="2262384">
    <nd ref="243172766"/>
    <nd ref="243172771"/>
    <nd ref="60324649"/>
    <nd ref="262655142"/>
    <nd ref="60323784"/>
    <nd ref="60324935"/>
    <nd ref="262645890"/>
    <nd ref="60324936"/>
    <nd ref="262645888"/>
    <nd ref="262645854"/>
    <nd ref="262645855"/>
    <nd ref="262646487"/>
    <nd ref="262646490"/>
    <nd ref="61164422"/>
    <nd ref="60326963"/>
    <nd ref="258387764"/>
    <nd ref="60368932"/>
    <nd ref="258388722"/>
    <nd ref="283187650"/>
    <nd ref="60335808"/>
    <nd ref="61164527"/>
    <nd ref="60271326"/>
    <tag k="cycleway" v="track"/>
    <tag k="highway" v="primary"/>
    <tag k="name" v="Frankfurter Straße"/>
    <tag k="oneway" v="yes"/>
    <tag k="ref" v="B 8"/>
  </way>
  <way id="22670855" version="12" timestamp="2009-12-01T09:51:29Z" uid="16478" user="Raymond" changeset="3262794">
    <nd ref="243172766"/>
    <nd ref="243172771"/>
    <nd ref="60324649"/>
    <nd ref="262655142"/>
    <nd ref="60323784"/>
    <nd ref="60324935"/>
    <nd ref="262645890"/>
    <nd ref="60324936"/>
    <nd ref="262645888"/>
    <nd ref="262645854"/>
    <tag k="cycleway" v="track"/>
    <tag k="highway" v="primary"/>
    <tag k="name" v="Frankfurter Straße"/>
    <tag k="oneway" v="yes"/>
    <tag k="ref" v="B 8"/>
  </way>
  <way id="22670855" version="13" timestamp="2010-05-17T16:21:49Z" uid="116044" user="berndw" changeset="4730118">
    <nd ref="243172766"/>
    <nd ref="243172771"/>
    <nd ref="60324649"/>
    <nd ref="262655142"/>
    <nd ref="60323784"/>
    <nd ref="60324935"/>
    <nd ref="262645890"/>
    <nd ref="60324936"/>
    <nd ref="262645888"/>
    <nd ref="262645854"/>
    <tag k="cycleway" v="track"/>
    <tag k="highway" v="primary"/>
    <tag k="lanes" v="2"/>
    <tag k="name" v="Frankfurter Straße"/>
    <tag k="oneway" v="yes"/>
    <tag k="ref" v="B 8"/>
  </way>
  <way id="22670855" version="14" timestamp="2010-05-25T16:50:25Z" uid="116044" user="berndw" changeset="4805434">
    <nd ref="243172766"/>
    <nd ref="243172771"/>
    <nd ref="60324649"/>
    <nd ref="262655142"/>
    <nd ref="60323784"/>
    <nd ref="60324935"/>
    <nd ref="262645890"/>
    <nd ref="747993203"/>
    <nd ref="60324936"/>
    <nd ref="262645888"/>
    <nd ref="262645854"/>
    <tag k="cycleway" v="track"/>
    <tag k="highway" v="primary"/>
    <tag k="lanes" v="2"/>
    <tag k="name" v="Frankfurter Straße"/>
    <tag k="oneway" v="yes"/>
    <tag k="ref" v="B 8"/>
  </way>
  <way id="22670855" version="15" timestamp="2010-10-13T19:45:09Z" uid="296172" user="Colonia" changeset="6032866">
    <nd ref="243172766"/>
    <nd ref="947026846"/>
    <nd ref="243172771"/>
    <nd ref="60324649"/>
    <nd ref="262655142"/>
    <nd ref="60323784"/>
    <nd ref="60324935"/>
    <nd ref="262645890"/>
    <nd ref="747993203"/>
    <nd ref="60324936"/>
    <nd ref="262645888"/>
    <nd ref="262645854"/>
    <tag k="cycleway" v="track"/>
    <tag k="highway" v="primary"/>
    <tag k="lanes" v="2"/>
    <tag k="name" v="Frankfurter Straße"/>
    <tag k="oneway" v="yes"/>
    <tag k="ref" v="B 8"/>
  </way>
  <way id="22670855" version="16" timestamp="2010-10-17T19:41:55Z" uid="16478" user="Raymond" changeset="6070927">
    <nd ref="243172766"/>
    <nd ref="947026846"/>
    <nd ref="243172771"/>
    <nd ref="262655142"/>
    <nd ref="955053752"/>
    <nd ref="60323784"/>
    <nd ref="60324935"/>
    <nd ref="262645890"/>
    <nd ref="747993203"/>
    <nd ref="60324936"/>
    <nd ref="262645888"/>
    <nd ref="262645854"/>
    <tag k="cycleway" v="track"/>
    <tag k="highway" v="primary"/>
    <tag k="lanes" v="2"/>
    <tag k="name" v="Frankfurter Straße"/>
    <tag k="oneway" v="yes"/>
    <tag k="ref" v="B 8"/>
  </way>
  <way id="22670855" version="17" timestamp="2010-11-15T17:48:33Z" uid="116044" user="berndw" changeset="6379095">
    <nd ref="243172766"/>
    <nd ref="947026846"/>
    <nd ref="243172771"/>
    <nd ref="262655142"/>
    <nd ref="955053752"/>
    <nd ref="60323784"/>
    <nd ref="60324935"/>
    <nd ref="262645890"/>
    <nd ref="747993203"/>
    <nd ref="60324936"/>
    <nd ref="262645888"/>
    <nd ref="262645854"/>
    <tag k="highway" v="primary"/>
    <tag k="lanes" v="2"/>
    <tag k="maxspeed" v="50"/>
    <tag k="name" v="Frankfurter Straße"/>
    <tag k="oneway" v="yes"/>
    <tag k="ref" v="B 8"/>
  </way>
  <way id="22670855" version="18" timestamp="2011-10-07T16:35:20Z" uid="116044" user="berndw" changeset="9495599"/>
</osm>
