<?xml version='1.0' encoding='UTF-8'?>
<osm version="0.6" generator="libosmium/2.20.0">
  <way id="22675002" version="12" timestamp="2010-10-15T17:20:17Z" uid="9581" user="Lobelt" changeset="6050841">
    <nd ref="35309710"/>
    <nd ref="318981414"/>
    <nd ref="243212438"/>
    <nd ref="243212439"/>
    <nd ref="700423394"/>
    <nd ref="243212440"/>
    <nd ref="243212441"/>
    <nd ref="243212442"/>
    <nd ref="318987248"/>
    <nd ref="243212443"/>
    <nd ref="243212444"/>
    <nd ref="243212445"/>
    <nd ref="243212446"/>
    <nd ref="950501850"/>
    <nd ref="320216922"/>
    <nd ref="691742903"/>
    <nd ref="243212447"/>
    <nd ref="243212448"/>
    <nd ref="243212449"/>
    <nd ref="243212450"/>
    <nd ref="35306116"/>
    <tag k="highway" v="residential"/>
    <tag k="maxspeed" v="50"/>
    <tag k="name" v="Kreuzstraße"/>
    <tag k="ref" v="K 16"/>
    <tag k="source:maxspeed" v="DE:urban"/>
    <tag k="zone:traffic" v="DE:urban"/>
  </way>
  <way id="22675002" version="13" timestamp="2011-02-02T14:29:59Z" uid="226994" user="Wegabschneider" changeset="7165262">
    <nd ref="35309710"/>
    <nd ref="318981414"/>
    <nd ref="243212438"/>
    <nd ref="243212439"/>
    <nd ref="700423394"/>
    <nd ref="243212440"/>
    <nd ref="243212441"/>
    <nd ref="243212442"/>
    <nd ref="318987248"/>
    <nd ref="243212443"/>
    <nd ref="1132370261"/>
    <nd ref="243212444"/>
    <nd ref="243212445"/>
    <nd ref="243212446"/>
    <nd ref="1132370271"/>
    <nd ref="950501850"/>
    <nd ref="320216922"/>
    <nd ref="691742903"/>
    <nd ref="243212447"/>
    <nd ref="243212448"/>
    <nd ref="243212449"/>
    <nd ref="243212450"/>
    <nd ref="35306116"/>
    <tag k="highway" v="residential"/>
    <tag k="maxspeed" v="50"/>
    <tag k="name" v="Kreuzstraße"/>
    <tag k="ref" v="K 16"/>
    <tag k="source:maxspeed" v="DE:urban"/>
    <tag k="zone:traffic" v="DE:urban"/>
  </way>
  <way id="22675002" version="14" timestamp="2011-02-19T19:07:28Z" uid="231732" user="Schanne" changeset="7335226">
    <nd ref="35309710"/>
    <nd ref="318981414"/>
    <nd ref="243212438"/>
    <nd ref="243212439"/>
    <nd ref="700423394"/>
    <nd ref="243212440"/>
    <nd ref="243212441"/>
    <nd ref="243212442"/>
    <nd ref="318987248"/>
    <nd ref="243212443"/>
    <nd ref="1132370261"/>
    <nd ref="243212444"/>
    <nd ref="243212445"/>
    <nd ref="243212446"/>
    <nd ref="1132370271"/>
    <nd ref="950501850"/>
    <nd ref="320216922"/>
    <nd ref="691742903"/>
    <nd ref="243212447"/>
    <nd ref="243212448"/>
    <nd ref="243212449"/>
    <nd ref="243212450"/>
    <nd ref="35306116"/>
    <tag k="highway" v="tertiary"/>
    <tag k="maxspeed" v="50"/>
    <tag k="name" v="Kreuzstraße"/>
    <tag k="ref" v="K 16"/>
    <tag k="source:maxspeed" v="DE:urban"/>
    <tag k="zone:traffic" v="DE:urban"/>
  </way>
  <way id="22675002" version="15" timestamp="2012-03-05T19:04:49Z" uid="328555" user="peb12345" changeset="10882972">
    <nd ref="35309710"/>
    <nd ref="1661053369"/>
    <nd ref="318981414"/>
    <nd ref="243212438"/>
    <nd ref="243212439"/>
    <nd ref="700423394"/>
    <nd ref="243212440"/>
    <nd ref="243212441"/>
    <nd ref="243212442"/>
    <nd ref="318987248"/>
    <nd ref="1661053377"/>
    <nd ref="1132370261"/>
    <nd ref="1661053382"/>
    <nd ref="1661053383"/>
    <nd ref="1661053378"/>
    <nd ref="1132370271"/>
    <nd ref="1661053375"/>
    <nd ref="1661053374"/>
    <nd ref="243212447"/>
    <nd ref="1661053381"/>
    <nd ref="1661053380"/>
    <nd ref="1661053379"/>
    <nd ref="35306116"/>
    <tag k="highway" v="tertiary"/>
    <tag k="maxspeed" v="50"/>
    <tag k="name" v="Kreuzstraße"/>
    <tag k="ref" v="K 16"/>
    <tag k="source:maxspeed" v="DE:urban"/>
    <tag k="zone:traffic" v="DE:urban"/>
  </way>
  <way id="22675055" version="5" timestamp="2010-02-15T06:01:37Z" uid="74617" user="JohnSmith" changeset="3880328">
    <nd ref="243213505"/>
    <nd ref="330764004"/>
    <nd ref="243213518"/>
    <nd ref="243213520"/>
    <nd ref="243213531"/>
    <nd ref="268738917"/>
    <nd ref="243212924"/>
    <tag k="highway" v="residential"/>
    <tag k="maxspeed" v="50"/>
    <tag k="name" v="Wilson Street"/>
  </way>
  <way id="22675055" version="6" timestamp="2011-05-20T06:47:52Z" uid="22094" user="Chadzopkyo" changeset="8195696">
    <nd ref="243213505"/>
    <nd ref="243213518"/>
    <nd ref="243213520"/>
    <nd ref="243213531"/>
    <nd ref="268738917"/>
    <nd ref="243212924"/>
    <tag k="highway" v="residential"/>
    <tag k="maxspeed" v="50"/>
    <tag k="name" v="Wilson Street"/>
  </way>
  <way id="22675055" version="7" timestamp="2011-05-20T09:10:18Z" uid="22094" user="Chadzopkyo" changeset="8196739">
    <nd ref="243213505"/>
    <nd ref="243213518"/>
    <nd ref="243213520"/>
    <nd ref="243213531"/>
    <nd ref="243212924"/>
    <tag k="highway" v="residential"/>
    <tag k="maxspeed" v="50"/>
    <tag k="name" v="Wilson Street"/>
  </way>
  <way id="22675055" version="8" timestamp="2011-05-20T09:34:09Z" uid="22094" user="Chadzopkyo" changeset="8196941">
    <nd ref="243213505"/>
    <nd ref="243213518"/>
    <nd ref="243213520"/>
    <nd ref="243213531"/>
    <nd ref="243212924"/>
    <tag k="highway" v="residential"/>
    <tag k="maxspeed" v="50"/>
    <tag k="name" v="Wilson Street"/>
    <tag k="source" v="GPS"/>
    <tag k="surface" v="asphalt"/>
  </way>
  <way id="22675055" version="9" timestamp="2012-01-15T22:37:47Z" uid="147510" user="woodpeck_fixbot" changeset="10402983">
    <nd ref="243213505"/>
    <nd ref="243213518"/>
    <nd ref="243213520"/>
    <nd ref="243213531"/>
    <nd ref="243212924"/>
    <tag k="highway" v="residential"/>
    <tag k="name" v="Wilson Street"/>
    <tag k="source" v="GPS"/>
    <tag k="surface" v="asphalt"/>
  </way>
  <way id="22675056" version="5" timestamp="2010-02-15T06:00:00Z" uid="74617" user="JohnSmith" changeset="3880328">
    <nd ref="243212926"/>
    <nd ref="268738806"/>
    <nd ref="268738807"/>
    <nd ref="243212927"/>
    <tag k="highway" v="residential"/>
    <tag k="maxspeed" v="50"/>
    <tag k="name" v="Crown Street"/>
  </way>
  <way id="22675056" version="6" timestamp="2011-05-20T09:10:30Z" uid="22094" user="Chadzopkyo" changeset="8196739">
    <nd ref="243212926"/>
    <nd ref="268738807"/>
    <nd ref="243212927"/>
    <tag k="highway" v="residential"/>
    <tag k="maxspeed" v="50"/>
    <tag k="name" v="Crown Street"/>
  </way>
  <way id="22675056" version="7" timestamp="2011-05-20T10:15:03Z" uid="22094" user="Chadzopkyo" changeset="8197266">
    <nd ref="243212926"/>
    <nd ref="268738807"/>
    <nd ref="243212927"/>
    <tag k="highway" v="residential"/>
    <tag k="maxspeed" v="50"/>
    <tag k="name" v="Crown Street"/>
    <tag k="source" v="GPS"/>
    <tag k="surface" v="asphalt"/>
  </way>
  <way id="22675056" version="8" timestamp="2012-01-15T22:37:48Z" uid="147510" user="woodpeck_fixbot" changeset="10402983">
    <nd ref="243212926"/>
    <nd ref="268738807"/>
    <nd ref="243212927"/>
    <tag k="highway" v="residential"/>
    <tag k="name" v="Crown Street"/>
    <tag k="source" v="GPS"/>
    <tag k="surface" v="asphalt"/>
  </way>
  <way id="22675057" version="2" timestamp="2010-02-15T06:00:00Z" uid="74617" user="JohnSmith" changeset="3880328">
    <nd ref="243212928"/>
    <nd ref="104100376"/>
    <tag k="highway" v="residential"/>
    <tag k="maxspeed" v="50"/>
    <tag k="name" v="Easton Street"/>
  </way>
  <way id="22675057" version="3" timestamp="2011-05-20T09:34:07Z" uid="22094" user="Chadzopkyo" changeset="8196941">
    <nd ref="243212928"/>
    <nd ref="1293027521"/>
    <nd ref="104100376"/>
    <tag k="highway" v="residential"/>
    <tag k="maxspeed" v="50"/>
    <tag k="name" v="Easton Street"/>
  </way>
  <way id="22675057" version="4" timestamp="2011-05-20T10:14:58Z" uid="22094" user="Chadzopkyo" changeset="8197266">
    <nd ref="243212928"/>
    <nd ref="1293027521"/>
    <nd ref="104100376"/>
    <tag k="highway" v="residential"/>
    <tag k="maxspeed" v="50"/>
    <tag k="name" v="Easton Street"/>
    <tag k="source" v="GPS"/>
    <tag k="surface" v="asphalt"/>
  </way>
  <way id="22675057" version="5" timestamp="2012-01-15T22:37:49Z" uid="147510" user="woodpeck_fixbot" changeset="10402983">
    <nd ref="243212928"/>
    <nd ref="1293027521"/>
    <nd ref="104100376"/>
    <tag k="highway" v="residential"/>
    <tag k="name" v="Easton Street"/>
    <tag k="source" v="GPS"/>
    <tag k="surface" v="asphalt"/>
  </way>
  <way id="22675058" version="3" timestamp="2010-02-15T06:00:00Z" uid="74617" user="JohnSmith" changeset="3880328">
    <nd ref="243212929"/>
    <nd ref="330762663"/>
    <nd ref="243212930"/>
    <tag k="highway" v="residential"/>
    <tag k="maxspeed" v="50"/>
    <tag k="name" v="Queen Street"/>
  </way>
  <way id="22675058" version="4" timestamp="2011-05-20T09:34:05Z" uid="22094" user="Chadzopkyo" changeset="8196941">
    <nd ref="243212929"/>
    <nd ref="330762663"/>
    <nd ref="243212930"/>
    <tag k="highway" v="residential"/>
    <tag k="maxspeed" v="50"/>
    <tag k="name" v="Queen Street"/>
    <tag k="source" v="GPS"/>
    <tag k="surface" v="asphalt"/>
  </way>
  <way id="22675058" version="5" timestamp="2011-05-20T12:07:47Z" uid="22094" user="Chadzopkyo" changeset="8198068">
    <nd ref="243212929"/>
    <nd ref="1293170087"/>
    <nd ref="330762663"/>
    <nd ref="243212930"/>
    <tag k="highway" v="residential"/>
    <tag k="maxspeed" v="50"/>
    <tag k="name" v="Queen Street"/>
    <tag k="source" v="GPS"/>
    <tag k="surface" v="asphalt"/>
  </way>
  <way id="22675058" version="6" timestamp="2012-01-15T22:37:50Z" uid="147510" user="woodpeck_fixbot" changeset="10402983">
    <nd ref="243212929"/>
    <nd ref="1293170087"/>
    <nd ref="330762663"/>
    <nd ref="243212930"/>
    <tag k="highway" v="residential"/>
    <tag k="name" v="Queen Street"/>
    <tag k="source" v="GPS"/>
    <tag k="surface" v="asphalt"/>
  </way>
  <way id="22675059" version="6" timestamp="2010-02-15T06:01:37Z" uid="74617" user="JohnSmith" changeset="3880328">
    <nd ref="243212942"/>
    <nd ref="330762062"/>
    <nd ref="330761900"/>
    <nd ref="243212931"/>
    <tag k="highway" v="residential"/>
    <tag k="maxspeed" v="50"/>
    <tag k="name" v="Lucitania Street"/>
  </way>
  <way id="22675059" version="7" timestamp="2011-05-20T06:47:56Z" uid="22094" user="Chadzopkyo" changeset="8195696">
    <nd ref="330762117"/>
    <nd ref="243212942"/>
    <tag k="highway" v="primary_link"/>
    <tag k="maxspeed" v="50"/>
    <tag k="name" v="Lucitania Street"/>
  </way>
  <way id="22675059" version="8" timestamp="2011-05-20T09:10:22Z" uid="22094" user="Chadzopkyo" changeset="8196739">
    <nd ref="330762117"/>
    <nd ref="243212942"/>
    <nd ref="243212931"/>
    <nd ref="330762633"/>
    <nd ref="243212932"/>
    <tag k="highway" v="residential"/>
    <tag k="maxspeed" v="50"/>
    <tag k="name" v="Lusitania Street"/>
  </way>
  <way id="22675059" version="9" timestamp="2011-05-20T09:34:10Z" uid="22094" user="Chadzopkyo" changeset="8196941">
    <nd ref="330762117"/>
    <nd ref="243212942"/>
    <nd ref="243212931"/>
    <nd ref="330762633"/>
    <nd ref="243212932"/>
    <tag k="highway" v="residential"/>
    <tag k="maxspeed" v="50"/>
    <tag k="name" v="Lusitania Street"/>
    <tag k="source" v="GPS"/>
    <tag k="surface" v="asphalt"/>
  </way>
  <way id="22675059" version="10" timestamp="2012-01-15T22:37:51Z" uid="147510" user="woodpeck_fixbot" changeset="10402983">
    <nd ref="330762117"/>
    <nd ref="243212942"/>
    <nd ref="243212931"/>
    <nd ref="330762633"/>
    <nd ref="243212932"/>
    <tag k="highway" v="residential"/>
    <tag k="name" v="Lusitania Street"/>
    <tag k="source" v="GPS"/>
    <tag k="surface" v="asphalt"/>
  </way>
  <way id="22675060" version="5" timestamp="2010-02-15T06:01:08Z" uid="74617" user="JohnSmith" changeset="3880328">
    <nd ref="243212933"/>
    <nd ref="330761841"/>
    <nd ref="330762601"/>
    <nd ref="330762642"/>
    <nd ref="243212934"/>
    <tag k="highway" v="residential"/>
    <tag k="maxspeed" v="50"/>
    <tag k="name" v="Walsh Street"/>
  </way>
  <way id="22675060" version="6" timestamp="2011-05-20T06:47:54Z" uid="22094" user="Chadzopkyo" changeset="8195696">
    <nd ref="243212933"/>
    <nd ref="330762601"/>
    <nd ref="330762642"/>
    <nd ref="243212934"/>
    <tag k="highway" v="residential"/>
    <tag k="maxspeed" v="50"/>
    <tag k="name" v="Walsh Street"/>
  </way>
  <way id="22675060" version="7" timestamp="2011-05-20T09:34:09Z" uid="22094" user="Chadzopkyo" changeset="8196941">
    <nd ref="243212933"/>
    <nd ref="330762601"/>
    <nd ref="330762642"/>
    <nd ref="243212934"/>
    <tag k="highway" v="residential"/>
    <tag k="maxspeed" v="50"/>
    <tag k="name" v="Walsh Street"/>
    <tag k="source" v="GPS"/>
    <tag k="surface" v="asphalt"/>
  </way>
  <way id="22675060" version="8" timestamp="2012-01-15T22:37:52Z" uid="147510" user="woodpeck_fixbot" changeset="10402983">
    <nd ref="243212933"/>
    <nd ref="330762601"/>
    <nd ref="330762642"/>
    <nd ref="243212934"/>
    <tag k="highway" v="residential"/>
    <tag k="name" v="Walsh Street"/>
    <tag k="source" v="GPS"/>
    <tag k="surface" v="asphalt"/>
  </way>
  <way id="22675061" version="3" timestamp="2010-02-15T06:00:10Z" uid="74617" user="JohnSmith" changeset="3880328">
    <nd ref="269301538"/>
    <nd ref="114768476"/>
    <nd ref="243212935"/>
    <tag k="highway" v="residential"/>
    <tag k="maxspeed" v="50"/>
    <tag k="name" v="Marvin Street"/>
  </way>
  <way id="22675061" version="4" timestamp="2011-05-20T10:15:02Z" uid="22094" user="Chadzopkyo" changeset="8197266">
    <nd ref="269301538"/>
    <nd ref="114768476"/>
    <nd ref="243212935"/>
    <nd ref="269301562"/>
    <tag k="highway" v="residential"/>
    <tag k="maxspeed" v="50"/>
    <tag k="name" v="Marvin Street"/>
  </way>
  <way id="22675061" version="5" timestamp="2011-05-20T11:18:14Z" uid="22094" user="Chadzopkyo" changeset="8197730">
    <nd ref="269301538"/>
    <nd ref="114768476"/>
    <nd ref="243212935"/>
    <nd ref="269301562"/>
    <tag k="highway" v="residential"/>
    <tag k="maxspeed" v="50"/>
    <tag k="name" v="Marvin Street"/>
    <tag k="source" v="GPS"/>
    <tag k="surface" v="asphalt"/>
  </way>
  <way id="22675061" version="6" timestamp="2012-01-15T22:37:53Z" uid="147510" user="woodpeck_fixbot" changeset="10402983">
    <nd ref="269301538"/>
    <nd ref="114768476"/>
    <nd ref="243212935"/>
    <nd ref="269301562"/>
    <tag k="highway" v="residential"/>
    <tag k="name" v="Marvin Street"/>
    <tag k="source" v="GPS"/>
    <tag k="surface" v="asphalt"/>
  </way>
  <way id="22675063" version="2" timestamp="2010-02-15T06:00:10Z" uid="74617" user="JohnSmith" changeset="3880328">
    <nd ref="243212937"/>
    <nd ref="243212938"/>
    <nd ref="243212939"/>
    <tag k="highway" v="residential"/>
    <tag k="maxspeed" v="50"/>
    <tag k="name" v="Rex Street"/>
  </way>
  <way id="22675063" version="3" timestamp="2011-05-20T11:17:52Z" uid="22094" user="Chadzopkyo" changeset="8197730">
    <nd ref="243212937"/>
    <nd ref="243212938"/>
    <nd ref="243212939"/>
    <tag k="highway" v="residential"/>
    <tag k="maxspeed" v="50"/>
    <tag k="name" v="Rex Street"/>
    <tag k="source" v="GPS"/>
    <tag k="surface" v="asphalt"/>
  </way>
  <way id="22675063" version="4" timestamp="2012-01-15T22:37:55Z" uid="147510" user="woodpeck_fixbot" changeset="10402983">
    <nd ref="243212937"/>
    <nd ref="243212938"/>
    <nd ref="243212939"/>
    <tag k="highway" v="residential"/>
    <tag k="name" v="Rex Street"/>
    <tag k="source" v="GPS"/>
    <tag k="surface" v="asphalt"/>
  </way>
  <way id="22675064" version="2" timestamp="2010-02-15T06:00:10Z" uid="74617" user="JohnSmith" changeset="3880328">
    <nd ref="243212940"/>
    <nd ref="243212941"/>
    <nd ref="114772179"/>
    <tag k="highway" v="residential"/>
    <tag k="maxspeed" v="50"/>
    <tag k="name" v="Stuart Street"/>
  </way>
  <way id="22675064" version="3" timestamp="2011-05-20T11:17:51Z" uid="22094" user="Chadzopkyo" changeset="8197730">
    <nd ref="243212940"/>
    <nd ref="243212941"/>
    <nd ref="114772179"/>
    <tag k="highway" v="residential"/>
    <tag k="maxspeed" v="50"/>
    <tag k="name" v="Stuart Street"/>
    <tag k="source" v="GPS"/>
    <tag k="surface" v="asphalt"/>
  </way>
  <way id="22675064" version="4" timestamp="2012-01-15T22:37:56Z" uid="147510" user="woodpeck_fixbot" changeset="10402983">
    <nd ref="243212940"/>
    <nd ref="243212941"/>
    <nd ref="114772179"/>
    <tag k="highway" v="residential"/>
    <tag k="name" v="Stuart Street"/>
    <tag k="source" v="GPS"/>
    <tag k="surface" v="asphalt"/>
  </way>
  <way id="22675065" version="3" timestamp="2010-02-15T06:00:44Z" uid="74617" user="JohnSmith" changeset="3880328">
    <nd ref="243212943"/>
    <nd ref="330761787"/>
    <nd ref="243212944"/>
    <tag k="highway" v="residential"/>
    <tag k="maxspeed" v="50"/>
    <tag k="name" v="Montauban Street"/>
  </way>
  <way id="22675065" version="4" timestamp="2011-05-20T06:47:53Z" uid="22094" user="Chadzopkyo" changeset="8195696">
    <nd ref="243212943"/>
    <nd ref="243212944"/>
    <nd ref="330761789"/>
    <tag k="highway" v="residential"/>
    <tag k="maxspeed" v="50"/>
    <tag k="name" v="Montauban Street"/>
  </way>
  <way id="22675065" version="5" timestamp="2011-05-20T09:10:19Z" uid="22094" user="Chadzopkyo" changeset="8196739">
    <nd ref="243212943"/>
    <nd ref="243212944"/>
    <tag k="highway" v="residential"/>
    <tag k="maxspeed" v="50"/>
    <tag k="name" v="Montauban Street"/>
    <tag k="source" v="GPS"/>
    <tag k="surface" v="asphalt"/>
  </way>
  <way id="22675065" version="6" timestamp="2012-01-15T22:37:56Z" uid="147510" user="woodpeck_fixbot" changeset="10402983">
    <nd ref="243212943"/>
    <nd ref="243212944"/>
    <tag k="highway" v="residential"/>
    <tag k="name" v="Montauban Street"/>
    <tag k="source" v="GPS"/>
    <tag k="surface" v="asphalt"/>
  </way>
  <way id="22675147" version="3" timestamp="2010-02-15T06:01:36Z" uid="74617" user="JohnSmith" changeset="3880328">
    <nd ref="243213487"/>
    <nd ref="243213489"/>
    <nd ref="330763904"/>
    <nd ref="243213488"/>
    <tag k="highway" v="residential"/>
    <tag k="maxspeed" v="50"/>
    <tag k="name" v="Brilliant Street"/>
  </way>
  <way id="22675147" version="4" timestamp="2011-05-20T06:48:01Z" uid="22094" user="Chadzopkyo" changeset="8195696">
    <nd ref="243213487"/>
    <nd ref="243213489"/>
    <nd ref="243213488"/>
    <tag k="highway" v="residential"/>
    <tag k="maxspeed" v="50"/>
    <tag k="name" v="Brilliant Street"/>
  </way>
  <way id="22675147" version="5" timestamp="2011-05-20T09:10:32Z" uid="22094" user="Chadzopkyo" changeset="8196739"/>
  <way id="22675148" version="2" timestamp="2010-02-15T06:01:39Z" uid="74617" user="JohnSmith" changeset="3880328">
    <nd ref="243213489"/>
    <nd ref="243213491"/>
    <nd ref="243213490"/>
    <tag k="highway" v="residential"/>
    <tag k="maxspeed" v="50"/>
    <tag k="name" v="Advance Street"/>
  </way>
  <way id="22675148" version="3" timestamp="2011-05-20T09:34:13Z" uid="22094" user="Chadzopkyo" changeset="8196941">
    <nd ref="243213489"/>
    <nd ref="243213491"/>
    <nd ref="243213490"/>
    <tag k="highway" v="residential"/>
    <tag k="maxspeed" v="50"/>
    <tag k="name" v="Advance Street"/>
    <tag k="source" v="GPS"/>
    <tag k="surface" v="asphalt"/>
  </way>
  <way id="22675148" version="4" timestamp="2012-01-15T22:37:57Z" uid="147510" user="woodpeck_fixbot" changeset="10402983">
    <nd ref="243213489"/>
    <nd ref="243213491"/>
    <nd ref="243213490"/>
    <tag k="highway" v="residential"/>
    <tag k="name" v="Advance Street"/>
    <tag k="source" v="GPS"/>
    <tag k="surface" v="asphalt"/>
  </way>
  <way id="22675149" version="2" timestamp="2010-02-15T06:01:39Z" uid="74617" user="JohnSmith" changeset="3880328">
    <nd ref="243213491"/>
    <nd ref="243213493"/>
    <nd ref="243213492"/>
    <tag k="highway" v="residential"/>
    <tag k="maxspeed" v="50"/>
    <tag k="name" v="King Street"/>
  </way>
  <way id="22675149" version="3" timestamp="2011-05-20T09:34:06Z" uid="22094" user="Chadzopkyo" changeset="8196941">
    <nd ref="243213491"/>
    <nd ref="243213493"/>
    <nd ref="243213492"/>
    <tag k="highway" v="residential"/>
    <tag k="maxspeed" v="50"/>
    <tag k="name" v="King Street"/>
    <tag k="source" v="GPS"/>
    <tag k="surface" v="asphalt"/>
  </way>
  <way id="22675149" version="4" timestamp="2012-01-15T22:37:58Z" uid="147510" user="woodpeck_fixbot" changeset="10402983">
    <nd ref="243213491"/>
    <nd ref="243213493"/>
    <nd ref="243213492"/>
    <tag k="highway" v="residential"/>
    <tag k="name" v="King Street"/>
    <tag k="source" v="GPS"/>
    <tag k="surface" v="asphalt"/>
  </way>
  <way id="22675150" version="3" timestamp="2010-02-15T06:01:36Z" uid="74617" user="JohnSmith" changeset="3880328">
    <nd ref="243213493"/>
    <nd ref="243213499"/>
    <nd ref="243213500"/>
    <nd ref="243213501"/>
    <nd ref="243213502"/>
    <nd ref="243213490"/>
    <nd ref="330764005"/>
    <nd ref="243213504"/>
    <tag k="highway" v="residential"/>
    <tag k="maxspeed" v="50"/>
    <tag k="name" v="Bright Street"/>
  </way>
  <way id="22675150" version="4" timestamp="2011-05-20T06:47:44Z" uid="22094" user="Chadzopkyo" changeset="8195696">
    <nd ref="243213493"/>
    <nd ref="243213499"/>
    <nd ref="243213500"/>
    <nd ref="243213501"/>
    <nd ref="243213502"/>
    <nd ref="243213490"/>
    <nd ref="243213504"/>
    <tag k="highway" v="residential"/>
    <tag k="maxspeed" v="50"/>
    <tag k="name" v="Bright Street"/>
  </way>
  <way id="22675150" version="5" timestamp="2011-05-20T09:10:31Z" uid="22094" user="Chadzopkyo" changeset="8196739"/>
  <way id="22675151" version="8" timestamp="2010-02-15T05:59:59Z" uid="74617" user="JohnSmith" changeset="3880328">
    <nd ref="268739014"/>
    <nd ref="268738848"/>
    <nd ref="268738666"/>
    <nd ref="268738668"/>
    <nd ref="243212925"/>
    <tag k="highway" v="residential"/>
    <tag k="maxspeed" v="50"/>
    <tag k="name" v="Coolibah Street"/>
  </way>
  <way id="22675151" version="9" timestamp="2011-05-20T09:10:19Z" uid="22094" user="Chadzopkyo" changeset="8196739">
    <nd ref="268739014"/>
    <nd ref="268738666"/>
    <nd ref="243212925"/>
    <tag k="highway" v="residential"/>
    <tag k="maxspeed" v="50"/>
    <tag k="name" v="Coolibah Street"/>
  </way>
  <way id="22675151" version="10" timestamp="2011-05-20T10:14:58Z" uid="22094" user="Chadzopkyo" changeset="8197266">
    <nd ref="268739014"/>
    <nd ref="268738666"/>
    <nd ref="243212925"/>
    <tag k="highway" v="residential"/>
    <tag k="maxspeed" v="50"/>
    <tag k="name" v="Coolibah Street"/>
    <tag k="source" v="GPS"/>
    <tag k="surface" v="asphalt"/>
  </way>
  <way id="22675151" version="11" timestamp="2012-01-15T22:38:00Z" uid="147510" user="woodpeck_fixbot" changeset="10402983">
    <nd ref="268739014"/>
    <nd ref="268738666"/>
    <nd ref="243212925"/>
    <tag k="highway" v="residential"/>
    <tag k="name" v="Coolibah Street"/>
    <tag k="source" v="GPS"/>
    <tag k="surface" v="asphalt"/>
  </way>
  <way id="22675152" version="4" timestamp="2010-02-15T06:01:36Z" uid="74617" user="JohnSmith" changeset="3880328">
    <nd ref="243213506"/>
    <nd ref="243213532"/>
    <nd ref="243213530"/>
    <nd ref="243213519"/>
    <nd ref="330764001"/>
    <nd ref="243213507"/>
    <tag k="highway" v="residential"/>
    <tag k="maxspeed" v="50"/>
    <tag k="name" v="Easton Street"/>
  </way>
  <way id="22675152" version="5" timestamp="2011-05-20T09:34:14Z" uid="22094" user="Chadzopkyo" changeset="8196941">
    <nd ref="243213506"/>
    <nd ref="243213532"/>
    <nd ref="243213530"/>
    <nd ref="243213519"/>
    <nd ref="243213507"/>
    <tag k="highway" v="residential"/>
    <tag k="maxspeed" v="50"/>
    <tag k="name" v="Easton Street"/>
    <tag k="source" v="GPS"/>
    <tag k="surface" v="asphalt"/>
  </way>
  <way id="22675152" version="6" timestamp="2011-05-20T12:07:49Z" uid="22094" user="Chadzopkyo" changeset="8198068">
    <nd ref="243213506"/>
    <nd ref="243213532"/>
    <nd ref="1293169990"/>
    <nd ref="243213530"/>
    <nd ref="243213519"/>
    <nd ref="243213507"/>
    <tag k="highway" v="residential"/>
    <tag k="maxspeed" v="50"/>
    <tag k="name" v="Easton Street"/>
    <tag k="source" v="GPS"/>
    <tag k="surface" v="asphalt"/>
  </way>
  <way id="22675152" version="7" timestamp="2012-01-15T22:38:01Z" uid="147510" user="woodpeck_fixbot" changeset="10402983">
    <nd ref="243213506"/>
    <nd ref="243213532"/>
    <nd ref="1293169990"/>
    <nd ref="243213530"/>
    <nd ref="243213519"/>
    <nd ref="243213507"/>
    <tag k="highway" v="residential"/>
    <tag k="name" v="Easton Street"/>
    <tag k="source" v="GPS"/>
    <tag k="surface" v="asphalt"/>
  </way>
  <way id="22675153" version="3" timestamp="2010-02-15T06:01:39Z" uid="74617" user="JohnSmith" changeset="3880328">
    <nd ref="243213518"/>
    <nd ref="330764002"/>
    <nd ref="330764003"/>
    <nd ref="243213519"/>
    <tag k="highway" v="residential"/>
    <tag k="maxspeed" v="50"/>
    <tag k="name" v="Sinclair Street"/>
  </way>
  <way id="22675153" version="4" timestamp="2011-05-20T09:34:08Z" uid="22094" user="Chadzopkyo" changeset="8196941">
    <nd ref="243213518"/>
    <nd ref="243213519"/>
    <tag k="highway" v="residential"/>
    <tag k="maxspeed" v="50"/>
    <tag k="name" v="Sinclair Street"/>
    <tag k="source" v="GPS"/>
    <tag k="surface" v="asphalt"/>
  </way>
  <way id="22675153" version="5" timestamp="2012-01-15T22:38:02Z" uid="147510" user="woodpeck_fixbot" changeset="10402983">
    <nd ref="243213518"/>
    <nd ref="243213519"/>
    <tag k="highway" v="residential"/>
    <tag k="name" v="Sinclair Street"/>
    <tag k="source" v="GPS"/>
    <tag k="surface" v="asphalt"/>
  </way>
  <way id="22675155" version="2" timestamp="2010-02-15T06:01:39Z" uid="74617" user="JohnSmith" changeset="3880328">
    <nd ref="243213520"/>
    <nd ref="243213530"/>
    <tag k="highway" v="residential"/>
    <tag k="maxspeed" v="50"/>
    <tag k="name" v="Foote Street"/>
  </way>
  <way id="22675155" version="3" timestamp="2011-05-20T09:34:11Z" uid="22094" user="Chadzopkyo" changeset="8196941">
    <nd ref="243213520"/>
    <nd ref="243213530"/>
    <tag k="highway" v="residential"/>
    <tag k="maxspeed" v="50"/>
    <tag k="name" v="Foote Street"/>
    <tag k="source" v="GPS"/>
    <tag k="surface" v="asphalt"/>
  </way>
  <way id="22675155" version="4" timestamp="2012-01-15T22:38:03Z" uid="147510" user="woodpeck_fixbot" changeset="10402983">
    <nd ref="243213520"/>
    <nd ref="243213530"/>
    <tag k="highway" v="residential"/>
    <tag k="name" v="Foote Street"/>
    <tag k="source" v="GPS"/>
    <tag k="surface" v="asphalt"/>
  </way>
  <way id="22675156" version="2" timestamp="2010-02-15T06:01:39Z" uid="74617" user="JohnSmith" changeset="3880328">
    <nd ref="243213531"/>
    <nd ref="243213532"/>
    <tag k="highway" v="residential"/>
    <tag k="maxspeed" v="50"/>
    <tag k="name" v="Bostock Street"/>
  </way>
  <way id="22675156" version="3" timestamp="2011-05-20T09:34:10Z" uid="22094" user="Chadzopkyo" changeset="8196941">
    <nd ref="243213531"/>
    <nd ref="243213532"/>
    <tag k="highway" v="residential"/>
    <tag k="maxspeed" v="50"/>
    <tag k="name" v="Bostock Street"/>
    <tag k="source" v="GPS"/>
    <tag k="surface" v="asphalt"/>
  </way>
  <way id="22675156" version="4" timestamp="2012-01-15T22:38:05Z" uid="147510" user="woodpeck_fixbot" changeset="10402983">
    <nd ref="243213531"/>
    <nd ref="243213532"/>
    <tag k="highway" v="residential"/>
    <tag k="name" v="Bostock Street"/>
    <tag k="source" v="GPS"/>
    <tag k="surface" v="asphalt"/>
  </way>
  <way id="22675157" version="4" timestamp="2010-02-15T06:01:36Z" uid="74617" user="JohnSmith" changeset="3880328">
    <nd ref="243213547"/>
    <nd ref="330764077"/>
    <nd ref="243213548"/>
    <tag k="highway" v="residential"/>
    <tag k="maxspeed" v="50"/>
    <tag k="name" v="Green Street"/>
  </way>
  <way id="22675157" version="5" timestamp="2011-05-20T06:48:02Z" uid="22094" user="Chadzopkyo" changeset="8195696">
    <nd ref="243213547"/>
    <nd ref="243213548"/>
    <nd ref="268740339"/>
    <tag k="highway" v="residential"/>
    <tag k="maxspeed" v="50"/>
    <tag k="name" v="Green Street"/>
  </way>
  <way id="22675157" version="6" timestamp="2011-05-20T09:38:35Z" uid="22094" user="Chadzopkyo" changeset="8196970">
    <nd ref="243213547"/>
    <nd ref="243213548"/>
    <nd ref="268740339"/>
    <tag k="highway" v="residential"/>
    <tag k="maxspeed" v="50"/>
    <tag k="name" v="Green Street"/>
    <tag k="source" v="GPS"/>
    <tag k="surface" v="asphalt"/>
  </way>
  <way id="22675157" version="7" timestamp="2011-05-20T12:07:49Z" uid="22094" user="Chadzopkyo" changeset="8198068">
    <nd ref="243213547"/>
    <nd ref="1293169836"/>
    <nd ref="1293170075"/>
    <nd ref="1293169813"/>
    <nd ref="243213548"/>
    <tag k="highway" v="residential"/>
    <tag k="maxspeed" v="50"/>
    <tag k="name" v="Green Street"/>
    <tag k="source" v="GPS"/>
    <tag k="surface" v="asphalt"/>
  </way>
  <way id="22675157" version="8" timestamp="2012-01-15T22:38:06Z" uid="147510" user="woodpeck_fixbot" changeset="10402983">
    <nd ref="243213547"/>
    <nd ref="1293169836"/>
    <nd ref="1293170075"/>
    <nd ref="1293169813"/>
    <nd ref="243213548"/>
    <tag k="highway" v="residential"/>
    <tag k="name" v="Green Street"/>
    <tag k="source" v="GPS"/>
    <tag k="surface" v="asphalt"/>
  </way>
  <way id="22675158" version="3" timestamp="2010-02-15T06:01:37Z" uid="74617" user="JohnSmith" changeset="3880328">
    <nd ref="243213549"/>
    <nd ref="243213550"/>
    <nd ref="243213551"/>
    <nd ref="243213552"/>
    <nd ref="243213549"/>
    <tag k="leisure" v="park"/>
    <tag k="name" v="Cameron Park"/>
  </way>
  <way id="22675158" version="4" timestamp="2011-05-20T12:07:50Z" uid="22094" user="Chadzopkyo" changeset="8198068"/>
  <way id="22675159" version="3" timestamp="2010-02-15T06:01:36Z" uid="74617" user="JohnSmith" changeset="3880328">
    <nd ref="243213553"/>
    <nd ref="330764069"/>
    <nd ref="243213554"/>
    <tag k="highway" v="residential"/>
    <tag k="maxspeed" v="50"/>
    <tag k="name" v="Eileen Street"/>
  </way>
  <way id="22675159" version="4" timestamp="2011-05-20T06:47:48Z" uid="22094" user="Chadzopkyo" changeset="8195696">
    <nd ref="243213553"/>
    <nd ref="243213554"/>
    <tag k="highway" v="residential"/>
    <tag k="maxspeed" v="50"/>
    <tag k="name" v="Eileen Street"/>
  </way>
  <way id="22675159" version="5" timestamp="2011-05-20T09:38:33Z" uid="22094" user="Chadzopkyo" changeset="8196970">
    <nd ref="243213553"/>
    <nd ref="243213554"/>
    <tag k="highway" v="residential"/>
    <tag k="maxspeed" v="50"/>
    <tag k="name" v="Eileen Street"/>
    <tag k="source" v="GPS"/>
    <tag k="surface" v="asphalt"/>
  </way>
  <way id="22675159" version="6" timestamp="2012-01-15T22:38:07Z" uid="147510" user="woodpeck_fixbot" changeset="10402983">
    <nd ref="243213553"/>
    <nd ref="243213554"/>
    <tag k="highway" v="residential"/>
    <tag k="name" v="Eileen Street"/>
    <tag k="source" v="GPS"/>
    <tag k="surface" v="asphalt"/>
  </way>
  <way id="22675310" version="4" timestamp="2009-07-28T07:38:09Z" uid="115477" user="wowik" changeset="1962245">
    <nd ref="60452061"/>
    <nd ref="60452063"/>
    <nd ref="60452064"/>
    <nd ref="60452066"/>
    <nd ref="60452068"/>
    <nd ref="60452069"/>
    <nd ref="60452070"/>
    <nd ref="60452072"/>
    <nd ref="60452073"/>
    <nd ref="256594130"/>
    <nd ref="60452074"/>
    <nd ref="60452076"/>
    <nd ref="60452077"/>
    <nd ref="60452078"/>
    <nd ref="60452080"/>
    <nd ref="449571554"/>
    <nd ref="60452081"/>
    <nd ref="256595177"/>
    <nd ref="60452082"/>
    <nd ref="60452084"/>
    <nd ref="60452085"/>
    <nd ref="60452086"/>
    <nd ref="66387088"/>
    <tag k="created_by" v="JOSM"/>
    <tag k="highway" v="secondary"/>
  </way>
  <way id="22675310" version="5" timestamp="2009-08-13T14:06:17Z" uid="12494" user="Aleksandr Dezhin" changeset="2131984">
    <nd ref="60452061"/>
    <nd ref="60452063"/>
    <nd ref="60452064"/>
    <nd ref="60452066"/>
    <nd ref="60452068"/>
    <nd ref="60452069"/>
    <nd ref="60452070"/>
    <nd ref="60452072"/>
    <nd ref="60452073"/>
    <nd ref="256594130"/>
    <nd ref="60452074"/>
    <nd ref="60452076"/>
    <nd ref="60452077"/>
    <nd ref="60452078"/>
    <nd ref="60452080"/>
    <nd ref="449571554"/>
    <nd ref="60452081"/>
    <nd ref="256595177"/>
    <nd ref="60452082"/>
    <nd ref="60452084"/>
    <nd ref="60452085"/>
    <nd ref="60452086"/>
    <nd ref="463567370"/>
    <nd ref="463567498"/>
    <nd ref="66387088"/>
    <tag k="highway" v="secondary"/>
  </way>
  <way id="22675310" version="6" timestamp="2009-08-29T17:44:31Z" uid="24702" user="Dmitry &apos;MAD&apos; Artamonow" changeset="2304392">
    <nd ref="60452061"/>
    <nd ref="60452063"/>
    <nd ref="60452064"/>
    <nd ref="60452066"/>
    <nd ref="60452068"/>
    <nd ref="60452069"/>
    <nd ref="60452070"/>
    <nd ref="60452072"/>
    <nd ref="60452073"/>
    <tag k="highway" v="secondary"/>
  </way>
  <way id="22675310" version="7" timestamp="2010-03-10T13:25:15Z" uid="24702" user="Dmitry &apos;MAD&apos; Artamonow" changeset="4089452">
    <nd ref="60452061"/>
    <nd ref="60452063"/>
    <nd ref="60452064"/>
    <nd ref="60452066"/>
    <nd ref="60452068"/>
    <nd ref="60452069"/>
    <nd ref="60452070"/>
    <nd ref="60452072"/>
    <nd ref="663649032"/>
    <nd ref="60452073"/>
    <tag k="highway" v="secondary"/>
  </way>
  <way id="22675310" version="8" timestamp="2010-05-07T14:06:49Z" uid="200618" user="gps-Max" changeset="4630357">
    <nd ref="60452061"/>
    <nd ref="60452063"/>
    <nd ref="60452064"/>
    <nd ref="60452066"/>
    <nd ref="60452068"/>
    <nd ref="60452069"/>
    <nd ref="60452070"/>
    <nd ref="60452072"/>
    <nd ref="725228919"/>
    <nd ref="663649032"/>
    <nd ref="60452073"/>
    <tag k="highway" v="secondary"/>
  </way>
  <way id="22675310" version="9" timestamp="2010-06-20T17:11:22Z" uid="102437" user="open650" changeset="5034935">
    <nd ref="60452061"/>
    <nd ref="60452063"/>
    <nd ref="60452064"/>
    <nd ref="60452066"/>
    <nd ref="60452068"/>
    <nd ref="60452069"/>
    <nd ref="60452070"/>
    <nd ref="60452072"/>
    <nd ref="725228919"/>
    <nd ref="663649032"/>
    <nd ref="778357295"/>
    <nd ref="60452073"/>
    <tag k="highway" v="secondary"/>
  </way>
  <way id="22675310" version="10" timestamp="2011-03-30T14:27:36Z" uid="266092" user="luch86" changeset="7716643">
    <nd ref="60452061"/>
    <nd ref="60452063"/>
    <nd ref="60452064"/>
    <nd ref="60452066"/>
    <nd ref="60452068"/>
    <nd ref="60452069"/>
    <nd ref="60452070"/>
    <nd ref="60452072"/>
    <nd ref="725228919"/>
    <nd ref="663649032"/>
    <nd ref="778357295"/>
    <nd ref="1225408308"/>
    <nd ref="60452073"/>
    <tag k="highway" v="secondary"/>
  </way>
  <way id="22675310" version="11" timestamp="2011-04-05T17:57:20Z" uid="260756" user="Felis Pimeja" changeset="7777209">
    <nd ref="60452073"/>
    <nd ref="1225408308"/>
    <nd ref="778357295"/>
    <nd ref="663649032"/>
    <nd ref="1233859311"/>
    <nd ref="1233858615"/>
    <nd ref="1233856818"/>
    <nd ref="1233854017"/>
    <nd ref="1233852480"/>
    <nd ref="1233858433"/>
    <nd ref="1233855580"/>
    <nd ref="1233853194"/>
    <nd ref="1233856164"/>
    <nd ref="1233854798"/>
    <nd ref="60452069"/>
    <nd ref="60452068"/>
    <nd ref="60452066"/>
    <nd ref="60452064"/>
    <nd ref="60452063"/>
    <nd ref="60452061"/>
    <tag k="highway" v="secondary"/>
  </way>
  <way id="22675310" version="12" timestamp="2011-04-30T12:43:34Z" uid="298815" user="miha12" changeset="8011277">
    <nd ref="60452073"/>
    <nd ref="1225408308"/>
    <nd ref="778357295"/>
    <nd ref="663649032"/>
    <nd ref="1233859311"/>
    <nd ref="1233858615"/>
    <nd ref="1233856818"/>
    <nd ref="1233854017"/>
    <nd ref="1233852480"/>
    <nd ref="1233858433"/>
    <nd ref="1233855580"/>
    <nd ref="1233853194"/>
    <nd ref="1233856164"/>
    <nd ref="1233854798"/>
    <nd ref="60452069"/>
    <nd ref="1267082072"/>
    <nd ref="1267082196"/>
    <nd ref="60452068"/>
    <nd ref="60452066"/>
    <nd ref="1267082149"/>
    <nd ref="60452064"/>
    <nd ref="1267082241"/>
    <nd ref="60452063"/>
    <nd ref="60452061"/>
    <tag k="highway" v="secondary"/>
  </way>
  <way id="22675310" version="13" timestamp="2011-05-31T15:59:34Z" uid="298815" user="miha12" changeset="8302818">
    <nd ref="60452073"/>
    <nd ref="1225408308"/>
    <nd ref="778357295"/>
    <nd ref="663649032"/>
    <nd ref="1233859311"/>
    <nd ref="1233858615"/>
    <nd ref="1233856818"/>
    <nd ref="1233854017"/>
    <nd ref="1233852480"/>
    <nd ref="1233858433"/>
    <nd ref="1233855580"/>
    <tag k="highway" v="secondary"/>
  </way>
  <way id="22675310" version="14" timestamp="2011-06-13T19:44:24Z" uid="440644" user="markhor" changeset="8430754">
    <nd ref="60452073"/>
    <nd ref="1225408308"/>
    <nd ref="778357295"/>
    <nd ref="663649032"/>
    <nd ref="1233859311"/>
    <nd ref="1233858615"/>
    <nd ref="1233856818"/>
    <nd ref="1233854017"/>
    <nd ref="1233852480"/>
    <nd ref="1233858433"/>
    <nd ref="1233855580"/>
    <tag k="highway" v="secondary"/>
    <tag k="name" v="Парковая улица"/>
  </way>
  <way id="22675326" version="3" timestamp="2009-07-08T23:45:58Z" uid="23543" user="jkjk" changeset="1777219">
    <nd ref="31031101"/>
    <nd ref="243215282"/>
    <nd ref="243215283"/>
    <nd ref="243215284"/>
    <nd ref="243215285"/>
    <nd ref="243215286"/>
    <tag k="highway" v="residential"/>
    <tag k="kct_yellow" v="yes"/>
    <tag k="name" v="Na Stráňkách"/>
  </way>
  <way id="22675326" version="4" timestamp="2009-09-17T20:31:16Z" uid="17615" user="Petr Dlouhý" changeset="2516900">
    <nd ref="31031101"/>
    <nd ref="243215282"/>
    <nd ref="243215283"/>
    <nd ref="243215284"/>
    <nd ref="243215285"/>
    <nd ref="243215286"/>
    <tag k="highway" v="residential"/>
    <tag k="name" v="Na Stráňkách"/>
  </way>
  <way id="22675327" version="4" timestamp="2009-07-08T23:45:58Z" uid="23543" user="jkjk" changeset="1777219">
    <nd ref="243215286"/>
    <nd ref="243215287"/>
    <nd ref="243215288"/>
    <nd ref="243215726"/>
    <tag k="highway" v="residential"/>
    <tag k="kct_yellow" v="yes"/>
    <tag k="name" v="Na Stráňkách"/>
  </way>
  <way id="22675327" version="5" timestamp="2009-09-17T20:31:16Z" uid="17615" user="Petr Dlouhý" changeset="2516900">
    <nd ref="243215286"/>
    <nd ref="243215287"/>
    <nd ref="243215288"/>
    <nd ref="243215726"/>
    <tag k="highway" v="residential"/>
    <tag k="name" v="Na Stráňkách"/>
  </way>
  <way id="22675329" version="3" timestamp="2009-07-08T23:46:03Z" uid="23543" user="jkjk" changeset="1777219">
    <nd ref="243215284"/>
    <nd ref="243215290"/>
    <tag k="highway" v="residential"/>
    <tag k="name" v="Nickerleho"/>
  </way>
  <way id="22675330" version="3" timestamp="2009-07-08T23:46:03Z" uid="23543" user="jkjk" changeset="1777219">
    <nd ref="243215291"/>
    <nd ref="243215285"/>
    <nd ref="243215292"/>
    <tag k="highway" v="residential"/>
    <tag k="name" v="K Hradišti"/>
  </way>
  <way id="22675331" version="3" timestamp="2009-07-08T23:46:03Z" uid="23543" user="jkjk" changeset="1777219">
    <nd ref="243215282"/>
    <nd ref="243215293"/>
    <nd ref="243215292"/>
    <nd ref="243215294"/>
    <tag k="highway" v="residential"/>
    <tag k="name" v="Hospodářská"/>
  </way>
  <way id="22675332" version="4" timestamp="2009-07-08T23:46:02Z" uid="23543" user="jkjk" changeset="1777219">
    <nd ref="243215727"/>
    <nd ref="243215295"/>
    <nd ref="243215294"/>
    <nd ref="243215286"/>
    <nd ref="243215296"/>
    <nd ref="243215297"/>
    <tag k="highway" v="residential"/>
    <tag k="name" v="K Závorám"/>
  </way>
  <way id="22675333" version="3" timestamp="2009-07-08T23:46:02Z" uid="23543" user="jkjk" changeset="1777219">
    <nd ref="243215287"/>
    <nd ref="243215298"/>
    <nd ref="243215299"/>
    <tag k="highway" v="residential"/>
    <tag k="name" v="Brtecká"/>
  </way>
  <way id="22675334" version="3" timestamp="2009-07-08T23:46:02Z" uid="23543" user="jkjk" changeset="1777219">
    <nd ref="243215298"/>
    <nd ref="243215296"/>
    <tag k="highway" v="residential"/>
    <tag k="name" v="Mezi chatami"/>
  </way>
  <way id="22675358" version="3" timestamp="2009-07-08T23:45:59Z" uid="23543" user="jkjk" changeset="1777219">
    <nd ref="243215719"/>
    <nd ref="243215720"/>
    <tag k="highway" v="residential"/>
    <tag k="name" v="Polovnická"/>
  </way>
  <way id="22675359" version="3" timestamp="2009-07-08T23:45:59Z" uid="23543" user="jkjk" changeset="1777219">
    <nd ref="243215718"/>
    <nd ref="243215289"/>
    <nd ref="243215290"/>
    <nd ref="243215291"/>
    <nd ref="243215297"/>
    <tag k="highway" v="residential"/>
    <tag k="name" v="Na Šancích"/>
  </way>
  <way id="22675360" version="3" timestamp="2009-07-08T23:45:59Z" uid="23543" user="jkjk" changeset="1777219">
    <nd ref="243215297"/>
    <nd ref="243215722"/>
    <nd ref="243215723"/>
    <nd ref="243215299"/>
    <tag k="highway" v="residential"/>
    <tag k="name" v="Na Šancích"/>
  </way>
  <way id="22675361" version="3" timestamp="2009-07-08T23:45:59Z" uid="23543" user="jkjk" changeset="1777219">
    <nd ref="243215299"/>
    <nd ref="243215725"/>
    <tag k="highway" v="residential"/>
    <tag k="name" v="Na Šancích"/>
  </way>
  <way id="22675362" version="4" timestamp="2009-07-08T23:45:59Z" uid="23543" user="jkjk" changeset="1777219">
    <nd ref="31031104"/>
    <nd ref="243215295"/>
    <nd ref="243216099"/>
    <tag k="highway" v="residential"/>
    <tag k="name" v="Pod Čihadlem"/>
  </way>
  <way id="22675558" version="4" timestamp="2009-07-08T23:45:59Z" uid="23543" user="jkjk" changeset="1777219">
    <nd ref="30306527"/>
    <nd ref="243220849"/>
    <nd ref="30307022"/>
    <nd ref="30307023"/>
    <nd ref="30307024"/>
    <nd ref="30307025"/>
    <tag k="created_by" v="Potlatch 0.7"/>
    <tag k="highway" v="tertiary"/>
    <tag k="kct_green" v="major"/>
    <tag k="name" v="Hrazanská"/>
  </way>
  <way id="22675558" version="5" timestamp="2009-09-17T20:31:04Z" uid="17615" user="Petr Dlouhý" changeset="2516900">
    <nd ref="30306527"/>
    <nd ref="243220849"/>
    <nd ref="30307022"/>
    <nd ref="30307023"/>
    <nd ref="30307024"/>
    <nd ref="30307025"/>
    <tag k="highway" v="tertiary"/>
    <tag k="name" v="Hrazanská"/>
  </way>
  <way id="22675558" version="6" timestamp="2011-09-05T21:00:46Z" uid="17615" user="Petr Dlouhý" changeset="9222263">
    <nd ref="30306527"/>
    <nd ref="243220849"/>
    <nd ref="30307022"/>
    <nd ref="1424522507"/>
    <nd ref="30307023"/>
    <nd ref="30307024"/>
    <nd ref="30307025"/>
    <tag k="highway" v="tertiary"/>
    <tag k="name" v="Hrazanská"/>
  </way>
  <way id="22675559" version="4" timestamp="2009-07-08T23:45:59Z" uid="23543" user="jkjk" changeset="1777219">
    <nd ref="30306532"/>
    <nd ref="243220851"/>
    <nd ref="243220852"/>
    <nd ref="243220854"/>
    <nd ref="243220855"/>
    <tag k="highway" v="residential"/>
    <tag k="kct_green" v="major"/>
    <tag k="name" v="Keltská"/>
  </way>
  <way id="22675559" version="5" timestamp="2009-09-17T20:31:04Z" uid="17615" user="Petr Dlouhý" changeset="2516900">
    <nd ref="30306532"/>
    <nd ref="243220851"/>
    <nd ref="243220852"/>
    <nd ref="243220854"/>
    <nd ref="243220855"/>
    <tag k="highway" v="residential"/>
    <tag k="name" v="Keltská"/>
  </way>
  <way id="22675560" version="3" timestamp="2009-07-08T23:46:00Z" uid="23543" user="jkjk" changeset="1777219">
    <nd ref="30306523"/>
    <nd ref="243220858"/>
    <nd ref="243220861"/>
    <nd ref="243220863"/>
    <nd ref="243220864"/>
    <nd ref="243220866"/>
    <nd ref="243220868"/>
    <nd ref="243220856"/>
    <tag k="highway" v="residential"/>
    <tag k="name" v="K výboru"/>
  </way>
  <way id="22675561" version="3" timestamp="2009-07-08T23:46:00Z" uid="23543" user="jkjk" changeset="1777219">
    <nd ref="243220855"/>
    <nd ref="243220866"/>
    <nd ref="243220871"/>
    <tag k="highway" v="residential"/>
    <tag k="name" v="Keltská"/>
  </way>
  <way id="22675572" version="3" timestamp="2008-07-06T10:19:30Z" uid="6975" user="ulfl" changeset="407266">
    <nd ref="243221261"/>
    <nd ref="243221264"/>
    <nd ref="243221265"/>
    <nd ref="243221267"/>
    <nd ref="243221269"/>
    <nd ref="243221270"/>
    <nd ref="243221272"/>
    <nd ref="243221275"/>
    <nd ref="243221277"/>
    <nd ref="243221279"/>
    <nd ref="243221281"/>
    <nd ref="243221282"/>
    <nd ref="243221261"/>
    <tag k="building" v="yes"/>
    <tag k="leisure" v="sports_centre"/>
    <tag k="name" v="Erka-Sporthalle"/>
  </way>
  <way id="22675598" version="3" timestamp="2009-07-08T23:45:58Z" uid="23543" user="jkjk" changeset="1777219">
    <nd ref="243220864"/>
    <nd ref="243220873"/>
    <nd ref="243220874"/>
    <nd ref="243220876"/>
    <nd ref="243220871"/>
    <tag k="highway" v="residential"/>
  </way>
  <way id="22675602" version="3" timestamp="2009-07-08T23:45:59Z" uid="23543" user="jkjk" changeset="1777219">
    <nd ref="243222486"/>
    <nd ref="243222736"/>
    <tag k="highway" v="residential"/>
    <tag k="kct_green" v="major"/>
  </way>
  <way id="22675602" version="4" timestamp="2009-09-17T20:31:04Z" uid="17615" user="Petr Dlouhý" changeset="2516900">
    <nd ref="243222486"/>
    <nd ref="243222736"/>
    <tag k="highway" v="residential"/>
  </way>
  <way id="22675900" version="5" timestamp="2008-07-04T07:16:55Z" uid="6975" user="ulfl" changeset="389415">
    <nd ref="243224559"/>
    <nd ref="243224556"/>
    <nd ref="243224553"/>
    <nd ref="243224596"/>
    <tag k="highway" v="pedestrian"/>
    <tag k="name" v="Hangbaumstraße"/>
  </way>
  <way id="22675900" version="6" timestamp="2010-07-22T11:39:39Z" uid="39072" user="Rene Westerholt" changeset="5286565">
    <nd ref="243224559"/>
    <nd ref="828666909"/>
    <nd ref="243224556"/>
    <nd ref="243224553"/>
    <nd ref="243224596"/>
    <tag k="highway" v="pedestrian"/>
    <tag k="name" v="Hangbaumstraße"/>
  </way>
  <way id="22675900" version="7" timestamp="2011-01-07T01:23:26Z" uid="104779" user="ABRob" changeset="6888753">
    <nd ref="243224559"/>
    <nd ref="828666909"/>
    <nd ref="243224556"/>
    <nd ref="243224553"/>
    <nd ref="243224596"/>
    <tag k="highway" v="pedestrian"/>
    <tag k="name" v="Hangbaumstraße"/>
    <tag k="postal_code" v="32257"/>
  </way>
  <way id="22675900" version="8" timestamp="2011-06-19T19:42:35Z" uid="39072" user="Rene Westerholt" changeset="8488296">
    <nd ref="243224559"/>
    <nd ref="1331278207"/>
    <nd ref="828666909"/>
    <nd ref="243224556"/>
    <nd ref="243224553"/>
    <nd ref="243224596"/>
    <tag k="highway" v="pedestrian"/>
    <tag k="name" v="Hangbaumstraße"/>
    <tag k="postal_code" v="32257"/>
  </way>
  <way id="22675900" version="9" timestamp="2012-02-08T04:16:52Z" uid="104779" user="ABRob" changeset="10619971"/>
  <way id="22675959" version="6" timestamp="2008-07-06T20:16:12Z" uid="6975" user="ulfl" changeset="415781">
    <nd ref="35659676"/>
    <nd ref="35659679"/>
    <nd ref="37987279"/>
    <nd ref="37987285"/>
    <nd ref="37987292"/>
    <nd ref="263688281"/>
    <tag k="agricultural" v="yes"/>
    <tag k="bicycle" v="yes"/>
    <tag k="foot" v="yes"/>
    <tag k="highway" v="track"/>
    <tag k="motorcar" v="no"/>
    <tag k="tracktype" v="grade4"/>
  </way>
  <way id="22675959" version="7" timestamp="2011-11-06T07:15:14Z" uid="46480" user="GCo" changeset="9752703">
    <nd ref="35659676"/>
    <nd ref="35659679"/>
    <nd ref="37987285"/>
    <nd ref="263688281"/>
    <tag k="agricultural" v="yes"/>
    <tag k="bicycle" v="yes"/>
    <tag k="foot" v="yes"/>
    <tag k="highway" v="track"/>
    <tag k="motorcar" v="no"/>
    <tag k="tracktype" v="grade4"/>
  </way>
  <way id="22675959" version="8" timestamp="2012-01-02T20:24:16Z" uid="578206" user="Ethera" changeset="10275549">
    <nd ref="35659676"/>
    <nd ref="35659679"/>
    <nd ref="37987285"/>
    <nd ref="263688281"/>
    <tag k="agricultural" v="yes"/>
    <tag k="bicycle" v="yes"/>
    <tag k="foot" v="yes"/>
    <tag k="highway" v="track"/>
    <tag k="motorcar" v="no"/>
    <tag k="mtb:scale" v="0"/>
    <tag k="tracktype" v="grade4"/>
  </way>
  <way id="22675959" version="9" timestamp="2012-02-07T08:27:12Z" uid="131968" user="changchun_1" changeset="10609917"/>
  <way id="22675961" version="4" timestamp="2008-07-06T20:16:07Z" uid="6975" user="ulfl" changeset="415781">
    <nd ref="35659681"/>
    <nd ref="35659671"/>
    <tag k="agricultural" v="yes"/>
    <tag k="bicycle" v="yes"/>
    <tag k="foot" v="yes"/>
    <tag k="highway" v="track"/>
    <tag k="motorcar" v="no"/>
    <tag k="tracktype" v="grade3"/>
  </way>
  <way id="22675961" version="5" timestamp="2011-11-06T07:15:06Z" uid="46480" user="GCo" changeset="9752703">
    <nd ref="35659681"/>
    <nd ref="35659671"/>
    <tag k="highway" v="track"/>
    <tag k="tracktype" v="grade3"/>
  </way>
</osm>
