<?xml version='1.0' encoding='UTF-8'?>
<osm version="0.6" generator="libosmium/2.20.0">
  <way id="22701054" version="9" timestamp="2010-06-22T02:06:54Z" uid="20587" user="balrog-kun" changeset="5047946">
    <nd ref="318834573"/>
    <nd ref="243508499"/>
    <tag k="bridge" v="yes"/>
    <tag k="highway" v="trunk"/>
    <tag k="layer" v="1"/>
    <tag k="name" v="Guadalupe Bridge"/>
    <tag k="oneway" v="yes"/>
    <tag k="ref" v="C-4"/>
  </way>
  <way id="22701054" version="10" timestamp="2010-07-05T05:38:04Z" uid="44938" user="ianlopez1115" changeset="5138820">
    <nd ref="318834573"/>
    <nd ref="243508499"/>
    <tag k="bridge" v="yes"/>
    <tag k="highway" v="trunk"/>
    <tag k="layer" v="1"/>
    <tag k="lit" v="yes"/>
    <tag k="maxspeed" v="120"/>
    <tag k="name" v="Guadalupe Bridge"/>
    <tag k="oneway" v="yes"/>
    <tag k="ref" v="C-4"/>
  </way>
  <way id="22701054" version="11" timestamp="2011-08-24T11:18:44Z" uid="44938" user="ianlopez1115" changeset="9111460">
    <nd ref="318834573"/>
    <nd ref="243508499"/>
    <tag k="bridge" v="yes"/>
    <tag k="capacity" v="20t"/>
    <tag k="highway" v="trunk"/>
    <tag k="layer" v="1"/>
    <tag k="lit" v="yes"/>
    <tag k="maxspeed" v="120"/>
    <tag k="name" v="Guadalupe Bridge"/>
    <tag k="oneway" v="yes"/>
    <tag k="ref" v="C-4"/>
  </way>
  <way id="22701054" version="12" timestamp="2011-12-29T03:05:43Z" uid="44938" user="ianlopez1115" changeset="10231982"/>
  <way id="22701056" version="7" timestamp="2010-06-22T02:06:53Z" uid="20587" user="balrog-kun" changeset="5047946">
    <nd ref="243508493"/>
    <nd ref="243508481"/>
    <tag k="bridge" v="yes"/>
    <tag k="highway" v="trunk"/>
    <tag k="layer" v="1"/>
    <tag k="name" v="Guadalupe Bridge"/>
    <tag k="oneway" v="yes"/>
    <tag k="ref" v="C-4"/>
  </way>
  <way id="22701056" version="8" timestamp="2010-07-05T05:39:36Z" uid="44938" user="ianlopez1115" changeset="5138820">
    <nd ref="243508493"/>
    <nd ref="243508481"/>
    <tag k="bridge" v="yes"/>
    <tag k="highway" v="trunk"/>
    <tag k="layer" v="1"/>
    <tag k="lit" v="yes"/>
    <tag k="maxspeed" v="120"/>
    <tag k="name" v="Guadalupe Bridge"/>
    <tag k="oneway" v="yes"/>
    <tag k="ref" v="C-4"/>
  </way>
  <way id="22701056" version="9" timestamp="2010-12-30T13:30:57Z" uid="44938" user="ianlopez1115" changeset="6809369">
    <nd ref="243508493"/>
    <nd ref="964753388"/>
    <nd ref="243508481"/>
    <tag k="bridge" v="yes"/>
    <tag k="highway" v="trunk"/>
    <tag k="layer" v="1"/>
    <tag k="lit" v="yes"/>
    <tag k="maxspeed" v="120"/>
    <tag k="name" v="Guadalupe Bridge"/>
    <tag k="oneway" v="yes"/>
    <tag k="ref" v="C-4"/>
  </way>
  <way id="22701056" version="10" timestamp="2011-08-24T11:18:47Z" uid="44938" user="ianlopez1115" changeset="9111460">
    <nd ref="243508493"/>
    <nd ref="964753388"/>
    <nd ref="243508481"/>
    <tag k="bridge" v="yes"/>
    <tag k="capacity" v="20t"/>
    <tag k="highway" v="trunk"/>
    <tag k="layer" v="1"/>
    <tag k="lit" v="yes"/>
    <tag k="maxspeed" v="120"/>
    <tag k="name" v="Guadalupe Bridge"/>
    <tag k="oneway" v="yes"/>
    <tag k="ref" v="C-4"/>
  </way>
  <way id="22701108" version="2" timestamp="2008-07-04T07:04:59Z" uid="6975" user="ulfl" changeset="389415">
    <nd ref="243508719"/>
    <nd ref="36716763"/>
    <tag k="amenity" v="parking"/>
  </way>
  <way id="22701108" version="3" timestamp="2009-02-14T10:28:22Z" uid="18407" user="thomas1904" changeset="417893">
    <nd ref="345130958"/>
    <nd ref="345130960"/>
    <nd ref="36716763"/>
    <nd ref="243508719"/>
    <nd ref="345130958"/>
    <tag k="amenity" v="parking"/>
  </way>
  <way id="22701110" version="2" timestamp="2008-07-04T07:05:00Z" uid="6975" user="ulfl" changeset="389415">
    <nd ref="243508721"/>
    <nd ref="243508720"/>
    <tag k="amenity" v="parking"/>
  </way>
  <way id="22701110" version="3" timestamp="2009-02-14T10:30:06Z" uid="18407" user="thomas1904" changeset="417893">
    <nd ref="243508721"/>
    <nd ref="243508720"/>
    <nd ref="345131294"/>
    <nd ref="345131295"/>
    <nd ref="243508721"/>
    <tag k="amenity" v="parking"/>
  </way>
  <way id="22701188" version="5" timestamp="2011-01-04T23:16:19Z" uid="6269" user="Mueck" changeset="6866319">
    <nd ref="243509300"/>
    <nd ref="1082942011"/>
    <nd ref="1082941993"/>
    <nd ref="243509302"/>
    <nd ref="1082941994"/>
    <nd ref="243509305"/>
    <nd ref="243509307"/>
    <nd ref="252242217"/>
    <nd ref="243509309"/>
    <nd ref="1082941950"/>
    <nd ref="252242223"/>
    <nd ref="243509297"/>
    <tag k="highway" v="residential"/>
    <tag k="name" v="Wilhelm-Leuschner-Straße"/>
  </way>
  <way id="22701193" version="4" timestamp="2008-03-03T19:28:44Z" uid="8328" user="benpre" changeset="260633"/>
  <way id="22701305" version="5" timestamp="2009-04-11T14:47:16Z" uid="58091" user="Andreas M" changeset="421444">
    <nd ref="80077243"/>
    <nd ref="112352712"/>
    <nd ref="112352713"/>
    <nd ref="112352714"/>
    <nd ref="112352716"/>
    <nd ref="246378732"/>
    <nd ref="112352717"/>
    <nd ref="246378768"/>
    <nd ref="80073639"/>
    <tag k="created_by" v="Potlatch 0.10f"/>
    <tag k="highway" v="residential"/>
    <tag k="name" v="Naufahrtweg"/>
  </way>
  <way id="22701305" version="6" timestamp="2010-04-11T10:42:32Z" uid="86147" user="wolfi1220" changeset="4391580">
    <nd ref="80077243"/>
    <nd ref="112352712"/>
    <nd ref="112352713"/>
    <nd ref="112352714"/>
    <nd ref="112352716"/>
    <nd ref="692904075"/>
    <nd ref="246378732"/>
    <nd ref="246378768"/>
    <nd ref="80073639"/>
    <tag k="access" v="destination"/>
    <tag k="bicycle" v="yes"/>
    <tag k="foot" v="yes"/>
    <tag k="highway" v="residential"/>
    <tag k="maxspeed" v="30"/>
    <tag k="name" v="Naufahrtweg"/>
  </way>
  <way id="22701305" version="7" timestamp="2011-07-27T19:22:22Z" uid="437544" user="krisuu" changeset="8848050">
    <nd ref="80077243"/>
    <nd ref="1376137343"/>
    <nd ref="112352712"/>
    <nd ref="112352713"/>
    <nd ref="112352714"/>
    <nd ref="112352716"/>
    <nd ref="692904075"/>
    <nd ref="246378732"/>
    <nd ref="246378768"/>
    <nd ref="80073639"/>
    <tag k="access" v="destination"/>
    <tag k="bicycle" v="yes"/>
    <tag k="foot" v="yes"/>
    <tag k="highway" v="residential"/>
    <tag k="maxspeed" v="30"/>
    <tag k="name" v="Naufahrtweg"/>
  </way>
  <way id="22701305" version="8" timestamp="2011-12-16T20:45:58Z" uid="78656" user="Walter Schlögl" changeset="10133946">
    <nd ref="80077243"/>
    <nd ref="1376137343"/>
    <nd ref="112352712"/>
    <nd ref="112352713"/>
    <nd ref="112352714"/>
    <nd ref="112352716"/>
    <nd ref="692904075"/>
    <nd ref="246378732"/>
    <nd ref="246378768"/>
    <nd ref="80073639"/>
    <tag k="bicycle" v="yes"/>
    <tag k="foot" v="yes"/>
    <tag k="highway" v="residential"/>
    <tag k="maxspeed" v="30"/>
    <tag k="motor_vehicle" v="destination"/>
    <tag k="name" v="Naufahrtweg"/>
  </way>
  <way id="22701579" version="4" timestamp="2010-07-09T02:47:01Z" uid="74617" user="JohnSmith" changeset="5170713">
    <nd ref="27380365"/>
    <nd ref="27380366"/>
    <tag k="highway" v="residential"/>
    <tag k="maxspeed" v="50"/>
    <tag k="maxspeed:source" v="default residential speed limit in Australia"/>
    <tag k="name" v="Tweed Court"/>
  </way>
  <way id="22701579" version="5" timestamp="2012-01-15T22:42:49Z" uid="147510" user="woodpeck_fixbot" changeset="10402983">
    <nd ref="27380365"/>
    <nd ref="27380366"/>
    <tag k="highway" v="residential"/>
    <tag k="name" v="Tweed Court"/>
  </way>
  <way id="22701840" version="2" timestamp="2010-01-02T14:31:38Z" uid="58091" user="Andreas M" changeset="3518801">
    <nd ref="243515009"/>
    <nd ref="111312483"/>
    <tag k="highway" v="residential"/>
  </way>
  <way id="22701840" version="3" timestamp="2010-01-15T12:17:32Z" uid="218291" user="gpsberti" changeset="3623754">
    <nd ref="243515009"/>
    <nd ref="111312483"/>
    <tag k="highway" v="residential"/>
    <tag k="name" v="Rudolf-Österle-Gasse"/>
  </way>
  <way id="22701934" version="9" timestamp="2009-03-11T21:06:35Z" uid="6975" user="ulfl" changeset="787961">
    <nd ref="28384369"/>
    <nd ref="271803076"/>
    <tag k="bicycle" v="yes"/>
    <tag k="created_by" v="Potlatch 0.9c"/>
    <tag k="foot" v="yes"/>
    <tag k="highway" v="road"/>
    <tag k="name" v="Dr.-Günther-Weg"/>
  </way>
  <way id="22701934" version="10" timestamp="2009-11-03T10:03:27Z" uid="118856" user="staehler" changeset="3023239">
    <nd ref="28384369"/>
    <nd ref="271803076"/>
    <tag k="bicycle" v="yes"/>
    <tag k="highway" v="footway"/>
    <tag k="name" v="Dr.-Günther-Weg"/>
  </way>
  <way id="22701934" version="11" timestamp="2011-10-10T22:08:50Z" uid="497849" user="pyram" changeset="9526696">
    <nd ref="28384369"/>
    <nd ref="271803076"/>
    <tag k="bicycle" v="yes"/>
    <tag k="highway" v="footway"/>
    <tag k="name" v="Fuggerstraße"/>
  </way>
  <way id="22701934" version="12" timestamp="2011-12-05T00:46:26Z" uid="71557" user="Taroc" changeset="10038901"/>
</osm>
