<?xml version='1.0' encoding='UTF-8'?>
<osm version="0.6" generator="libosmium/2.20.0">
  <way id="22735081" version="2" timestamp="2009-06-25T03:43:03Z" uid="74617" user="JohnSmith" changeset="1618009">
    <nd ref="219917288"/>
    <nd ref="243881915"/>
    <nd ref="243881916"/>
    <nd ref="243881914"/>
    <tag k="highway" v="tertiary"/>
    <tag k="name" v="Myall Street"/>
    <tag k="source" v="survey"/>
  </way>
  <way id="22735081" version="3" timestamp="2009-07-22T05:33:58Z" uid="74617" user="JohnSmith" changeset="1901270">
    <nd ref="219917288"/>
    <nd ref="243881915"/>
    <nd ref="243881916"/>
    <nd ref="243881914"/>
    <tag k="highway" v="tertiary"/>
    <tag k="maxspeed" v="60"/>
    <tag k="name" v="Myall Street"/>
    <tag k="restriction" v="school_zone"/>
    <tag k="school_zone_maxspeed" v="40"/>
    <tag k="school_zone_on" v="8:00-9:00;14:45-15:45"/>
    <tag k="source" v="survey"/>
    <tag k="surface" v="paved"/>
  </way>
  <way id="22735081" version="4" timestamp="2009-10-06T12:23:41Z" uid="74617" user="JohnSmith" changeset="2760178">
    <nd ref="219917288"/>
    <nd ref="243881915"/>
    <nd ref="243881916"/>
    <nd ref="522810303"/>
    <nd ref="243881914"/>
    <tag k="highway" v="tertiary"/>
    <tag k="maxspeed" v="60"/>
    <tag k="name" v="Myall Street"/>
    <tag k="restriction" v="school_zone"/>
    <tag k="school_zone_maxspeed" v="40"/>
    <tag k="school_zone_on" v="8:00-9:00;14:45-15:45"/>
    <tag k="source" v="survey"/>
    <tag k="surface" v="paved"/>
  </way>
  <way id="22735081" version="5" timestamp="2012-01-15T22:54:33Z" uid="147510" user="woodpeck_fixbot" changeset="10402983">
    <nd ref="219917288"/>
    <nd ref="243881915"/>
    <nd ref="243881916"/>
    <nd ref="522810303"/>
    <nd ref="243881914"/>
    <tag k="highway" v="tertiary"/>
    <tag k="name" v="Myall Street"/>
    <tag k="source" v="survey"/>
  </way>
  <way id="22735210" version="2" timestamp="2009-06-25T03:58:51Z" uid="74617" user="JohnSmith" changeset="1618025">
    <nd ref="216619013"/>
    <nd ref="243882992"/>
    <nd ref="243882994"/>
    <nd ref="243883011"/>
    <nd ref="243883014"/>
    <nd ref="243883017"/>
    <nd ref="243883018"/>
    <nd ref="243883021"/>
    <nd ref="243883024"/>
    <nd ref="243883027"/>
    <tag k="highway" v="trunk_link"/>
    <tag k="oneway" v="true"/>
  </way>
  <way id="22735210" version="3" timestamp="2009-06-27T08:31:27Z" uid="74617" user="JohnSmith" changeset="1647708">
    <nd ref="216619013"/>
    <nd ref="243882992"/>
    <nd ref="243882994"/>
    <nd ref="243883011"/>
    <nd ref="243883014"/>
    <nd ref="243883017"/>
    <nd ref="243883018"/>
    <nd ref="243883021"/>
    <nd ref="243883027"/>
    <tag k="highway" v="trunk_link"/>
    <tag k="oneway" v="true"/>
  </way>
  <way id="22735210" version="4" timestamp="2009-07-04T04:11:22Z" uid="74617" user="JohnSmith" changeset="1726415">
    <nd ref="216619013"/>
    <nd ref="243882992"/>
    <nd ref="243882994"/>
    <nd ref="243883011"/>
    <nd ref="243883014"/>
    <nd ref="243883017"/>
    <nd ref="243883018"/>
    <nd ref="243883021"/>
    <nd ref="243883027"/>
    <tag k="highway" v="trunk_link"/>
    <tag k="oneway" v="yes"/>
  </way>
  <way id="22735310" version="1" timestamp="2008-01-28T20:40:33Z" uid="13367" user="nubok" changeset="705219">
    <nd ref="74934798"/>
    <nd ref="74934801"/>
    <nd ref="74934804"/>
    <nd ref="74934808"/>
    <nd ref="74934813"/>
    <nd ref="74934816"/>
    <tag k="created_by" v="Potlatch 0.6c"/>
    <tag k="highway" v="residential"/>
  </way>
  <way id="22735310" version="2" timestamp="2008-01-28T20:41:10Z" uid="13367" user="nubok" changeset="705219">
    <nd ref="33554026"/>
    <nd ref="33554025"/>
    <nd ref="82706269"/>
    <nd ref="33554024"/>
    <nd ref="74934798"/>
    <nd ref="243884126"/>
    <nd ref="74934801"/>
    <nd ref="74934804"/>
    <nd ref="74934808"/>
    <nd ref="74934813"/>
    <nd ref="74934816"/>
    <tag k="created_by" v="Potlatch 0.6c"/>
    <tag k="highway" v="residential"/>
  </way>
  <way id="22735310" version="3" timestamp="2008-01-28T20:41:37Z" uid="13367" user="nubok" changeset="705219">
    <nd ref="33554026"/>
    <nd ref="33554025"/>
    <nd ref="82706269"/>
    <nd ref="33554024"/>
    <nd ref="74934798"/>
    <nd ref="243884126"/>
    <nd ref="74934801"/>
    <nd ref="74934804"/>
    <nd ref="74934808"/>
    <nd ref="74934813"/>
    <nd ref="74934816"/>
    <tag k="created_by" v="Potlatch 0.6c"/>
    <tag k="highway" v="residential"/>
  </way>
  <way id="22735310" version="4" timestamp="2008-02-07T14:59:15Z" uid="13565" user="hadhuey" changeset="64366">
    <nd ref="33554026"/>
    <nd ref="246503326"/>
    <nd ref="33554025"/>
    <nd ref="82706269"/>
    <nd ref="33554024"/>
    <nd ref="74934798"/>
    <nd ref="243884126"/>
    <nd ref="74934801"/>
    <nd ref="74934804"/>
    <nd ref="74934808"/>
    <nd ref="74934813"/>
    <nd ref="74934816"/>
    <tag k="created_by" v="Potlatch 0.7"/>
    <tag k="highway" v="residential"/>
  </way>
  <way id="22735310" version="5" timestamp="2008-02-07T15:00:33Z" uid="13565" user="hadhuey" changeset="64366">
    <nd ref="33554026"/>
    <nd ref="246503326"/>
    <nd ref="33554025"/>
    <nd ref="82706269"/>
    <nd ref="33554024"/>
    <nd ref="74934798"/>
    <nd ref="243884126"/>
    <nd ref="74934801"/>
    <nd ref="74934804"/>
    <nd ref="74934808"/>
    <nd ref="74934813"/>
    <nd ref="74934816"/>
    <tag k="created_by" v="Potlatch 0.7"/>
    <tag k="highway" v="residential"/>
  </way>
  <way id="22735310" version="6" timestamp="2008-02-07T15:00:48Z" uid="13565" user="hadhuey" changeset="64366">
    <nd ref="33554026"/>
    <nd ref="246503326"/>
    <nd ref="33554025"/>
    <nd ref="82706269"/>
    <nd ref="33554024"/>
    <nd ref="74934798"/>
    <tag k="created_by" v="Potlatch 0.7"/>
    <tag k="highway" v="residential"/>
  </way>
  <way id="22735310" version="7" timestamp="2008-02-07T15:00:51Z" uid="13565" user="hadhuey" changeset="64366">
    <nd ref="33554026"/>
    <nd ref="246503326"/>
    <nd ref="33554025"/>
    <nd ref="82706269"/>
    <nd ref="33554024"/>
    <nd ref="74934798"/>
    <nd ref="246503625"/>
    <tag k="created_by" v="Potlatch 0.7"/>
    <tag k="highway" v="residential"/>
  </way>
  <way id="22735310" version="8" timestamp="2008-06-14T14:15:28Z" uid="13565" user="hadhuey" changeset="156758">
    <nd ref="33554026"/>
    <nd ref="246503326"/>
    <nd ref="33554025"/>
    <nd ref="82706269"/>
    <nd ref="33554024"/>
    <tag k="created_by" v="Potlatch 0.9c"/>
    <tag k="highway" v="residential"/>
  </way>
  <way id="22735310" version="9" timestamp="2008-06-14T14:15:39Z" uid="13565" user="hadhuey" changeset="156758">
    <nd ref="33554026"/>
    <nd ref="246503326"/>
    <nd ref="33554025"/>
    <nd ref="82706269"/>
    <nd ref="33554024"/>
    <tag k="created_by" v="Potlatch 0.9c"/>
    <tag k="highway" v="residential"/>
    <tag k="rcn" v="yes"/>
  </way>
  <way id="22735310" version="10" timestamp="2008-06-14T14:17:52Z" uid="13565" user="hadhuey" changeset="156758">
    <nd ref="33554026"/>
    <nd ref="246503326"/>
    <nd ref="33554025"/>
    <nd ref="82706269"/>
    <nd ref="33554024"/>
    <tag k="created_by" v="Potlatch 0.9c"/>
    <tag k="name" v="Nonnenwerder"/>
    <tag k="rcn" v="yes"/>
  </way>
  <way id="22735310" version="11" timestamp="2008-06-14T14:18:02Z" uid="13565" user="hadhuey" changeset="156758">
    <nd ref="33554026"/>
    <nd ref="246503326"/>
    <nd ref="33554025"/>
    <nd ref="82706269"/>
    <nd ref="33554024"/>
    <tag k="created_by" v="Potlatch 0.9c"/>
    <tag k="highway" v="unclassified"/>
    <tag k="name" v="Nonnenwerder"/>
    <tag k="rcn" v="yes"/>
  </way>
  <way id="22735310" version="12" timestamp="2008-11-05T14:03:22Z" uid="13367" user="nubok" changeset="687047">
    <nd ref="33554026"/>
    <nd ref="246503326"/>
    <nd ref="310061665"/>
    <nd ref="33554025"/>
    <nd ref="310061668"/>
    <nd ref="82706269"/>
    <nd ref="33554024"/>
    <tag k="created_by" v="Potlatch 0.9c"/>
    <tag k="highway" v="unclassified"/>
    <tag k="name" v="Nonnenwerder"/>
    <tag k="rcn" v="yes"/>
  </way>
  <way id="22735310" version="13" timestamp="2009-06-01T19:11:29Z" uid="105910" user="chk49" changeset="1396721">
    <nd ref="33554026"/>
    <nd ref="246503326"/>
    <nd ref="310061665"/>
    <nd ref="33554025"/>
    <nd ref="310061668"/>
    <nd ref="82706269"/>
    <nd ref="33554024"/>
    <tag k="created_by" v="Potlatch 0.9c"/>
    <tag k="highway" v="unclassified"/>
    <tag k="name" v="Nonnenwerder"/>
    <tag k="rcn" v="yes"/>
    <tag k="smoothness" v="good"/>
    <tag k="surface" v="paved"/>
  </way>
  <way id="22735310" version="14" timestamp="2010-02-18T18:45:13Z" uid="13565" user="hadhuey" changeset="3911230">
    <nd ref="33554026"/>
    <nd ref="246503326"/>
    <nd ref="310061665"/>
    <nd ref="33554025"/>
    <nd ref="310061668"/>
    <nd ref="82706269"/>
    <nd ref="33554024"/>
    <tag k="highway" v="unclassified"/>
    <tag k="name" v="Nonnenwerder"/>
    <tag k="rcn" v="yes"/>
    <tag k="smoothness" v="good"/>
    <tag k="surface" v="paved"/>
  </way>
  <way id="22735310" version="15" timestamp="2010-02-27T22:17:29Z" uid="13565" user="hadhuey" changeset="3993227">
    <nd ref="33554026"/>
    <nd ref="246503326"/>
    <nd ref="310061665"/>
    <nd ref="33554025"/>
    <nd ref="310061668"/>
    <nd ref="82706269"/>
    <nd ref="33554024"/>
    <tag k="highway" v="unclassified"/>
    <tag k="lcn" v="yes"/>
    <tag k="name" v="Nonnenwerder"/>
    <tag k="smoothness" v="good"/>
    <tag k="surface" v="paved"/>
  </way>
  <way id="22735310" version="16" timestamp="2010-12-13T00:00:08Z" uid="101337" user="bonzulu" changeset="6643546">
    <nd ref="33554026"/>
    <nd ref="310061665"/>
    <nd ref="33554025"/>
    <nd ref="310061668"/>
    <nd ref="82706269"/>
    <nd ref="33554024"/>
    <tag k="highway" v="unclassified"/>
    <tag k="lcn" v="yes"/>
    <tag k="name" v="Nonnenwerder"/>
    <tag k="smoothness" v="good"/>
    <tag k="surface" v="paved"/>
  </way>
  <way id="22735310" version="17" timestamp="2012-01-13T18:23:36Z" uid="13565" user="hadhuey" changeset="10380867"/>
  <way id="22735876" version="2" timestamp="2008-02-03T21:37:44Z" uid="13367" user="nubok" changeset="27582">
    <nd ref="243888927"/>
    <nd ref="36796782"/>
    <tag k="bridge" v="yes"/>
    <tag k="created_by" v="Potlatch 0.7"/>
    <tag k="highway" v="trunk"/>
    <tag k="lanes" v="2"/>
    <tag k="layer" v="1"/>
    <tag k="name" v="Magdeburger Ring"/>
    <tag k="oneway" v="yes"/>
    <tag k="ref" v="B71"/>
  </way>
  <way id="22735876" version="3" timestamp="2008-09-16T22:49:17Z" uid="31059" user="DaBear" changeset="653506">
    <nd ref="243888927"/>
    <nd ref="36796782"/>
    <tag k="bridge" v="yes"/>
    <tag k="created_by" v="Potlatch 0.7"/>
    <tag k="highway" v="trunk"/>
    <tag k="lanes" v="2"/>
    <tag k="layer" v="1"/>
    <tag k="name" v="Magdeburger Ring"/>
    <tag k="oneway" v="yes"/>
    <tag k="ref" v="B 71"/>
  </way>
  <way id="22735876" version="4" timestamp="2008-09-29T21:22:20Z" uid="13565" user="hadhuey" changeset="717652">
    <nd ref="243888927"/>
    <nd ref="36796782"/>
    <tag k="bridge" v="yes"/>
    <tag k="created_by" v="Potlatch 0.10c"/>
    <tag k="highway" v="trunk"/>
    <tag k="lanes" v="2"/>
    <tag k="layer" v="1"/>
    <tag k="name" v="Magdeburger Ring"/>
    <tag k="oneway" v="yes"/>
    <tag k="ref" v="B 71"/>
  </way>
  <way id="22735876" version="5" timestamp="2008-10-23T20:52:03Z" uid="13565" user="hadhuey" changeset="532540">
    <nd ref="243888927"/>
    <nd ref="36796782"/>
    <tag k="bridge" v="yes"/>
    <tag k="created_by" v="Potlatch 0.10e"/>
    <tag k="highway" v="trunk"/>
    <tag k="lanes" v="2"/>
    <tag k="layer" v="1"/>
    <tag k="name" v="Magdeburger Ring"/>
    <tag k="oneway" v="yes"/>
  </way>
  <way id="22735876" version="6" timestamp="2008-10-23T20:52:32Z" uid="13565" user="hadhuey" changeset="532540">
    <nd ref="243888927"/>
    <nd ref="36796782"/>
    <tag k="bridge" v="yes"/>
    <tag k="created_by" v="Potlatch 0.10e"/>
    <tag k="highway" v="trunk"/>
    <tag k="lanes" v="2"/>
    <tag k="layer" v="1"/>
    <tag k="name" v="Magdeburger Ring"/>
    <tag k="oneway" v="yes"/>
  </way>
  <way id="22735876" version="7" timestamp="2009-01-16T20:15:18Z" uid="13565" user="hadhuey" changeset="795883">
    <nd ref="243888927"/>
    <nd ref="36796782"/>
    <tag k="bridge" v="yes"/>
    <tag k="created_by" v="Potlatch 0.10f"/>
    <tag k="highway" v="trunk"/>
    <tag k="lanes" v="2"/>
    <tag k="layer" v="1"/>
    <tag k="maxspeed" v="80"/>
    <tag k="name" v="Magdeburger Ring"/>
    <tag k="oneway" v="yes"/>
  </way>
  <way id="22735876" version="8" timestamp="2009-05-13T18:30:17Z" uid="42683" user="riechfield" changeset="1178255">
    <nd ref="243888927"/>
    <nd ref="36796782"/>
    <tag k="bridge" v="yes"/>
    <tag k="highway" v="trunk"/>
    <tag k="lanes" v="2"/>
    <tag k="layer" v="1"/>
    <tag k="maxspeed" v="80"/>
    <tag k="motorroad" v="yes"/>
    <tag k="name" v="Magdeburger Ring"/>
    <tag k="oneway" v="yes"/>
  </way>
  <way id="22735876" version="9" timestamp="2009-07-06T16:25:22Z" uid="123946" user="Luther__" changeset="1754510">
    <nd ref="243888927"/>
    <nd ref="36796782"/>
    <tag k="bridge" v="yes"/>
    <tag k="highway" v="trunk"/>
    <tag k="lanes" v="2"/>
    <tag k="layer" v="1"/>
    <tag k="maxspeed" v="80"/>
    <tag k="motorroad" v="yes"/>
    <tag k="name" v="Magdeburger Ring"/>
    <tag k="oneway" v="yes"/>
    <tag k="ref" v="B 71"/>
  </way>
  <way id="22735876" version="10" timestamp="2009-07-23T19:56:54Z" uid="123946" user="Luther__" changeset="1919439">
    <nd ref="243888927"/>
    <nd ref="36796782"/>
    <tag k="bridge" v="yes"/>
    <tag k="highway" v="trunk"/>
    <tag k="lanes" v="2"/>
    <tag k="layer" v="1"/>
    <tag k="lit" v="yes"/>
    <tag k="maxspeed" v="80"/>
    <tag k="motorroad" v="yes"/>
    <tag k="name" v="Magdeburger Ring"/>
    <tag k="oneway" v="yes"/>
    <tag k="ref" v="B 71"/>
  </way>
  <way id="22735876" version="11" timestamp="2010-06-05T22:57:40Z" uid="123946" user="Martin_D" changeset="4913134">
    <nd ref="243888927"/>
    <nd ref="36796782"/>
    <tag k="bridge" v="yes"/>
    <tag k="highway" v="trunk"/>
    <tag k="lanes" v="2"/>
    <tag k="layer" v="1"/>
    <tag k="lit" v="yes"/>
    <tag k="maxspeed" v="80"/>
    <tag k="motorroad" v="yes"/>
    <tag k="name" v="Magdeburger Ring"/>
    <tag k="oneway" v="yes"/>
    <tag k="ref" v="B 71"/>
    <tag k="source:maxspeed" v="sign"/>
  </way>
  <way id="22735876" version="12" timestamp="2012-01-12T18:12:36Z" uid="13565" user="hadhuey" changeset="10371658"/>
  <way id="22735882" version="4" timestamp="2008-02-03T21:37:33Z" uid="13367" user="nubok" changeset="27582">
    <nd ref="243888977"/>
    <nd ref="243889673"/>
    <nd ref="33483364"/>
    <nd ref="33483366"/>
    <tag k="bridge" v="yes"/>
    <tag k="created_by" v="Potlatch 0.7"/>
    <tag k="highway" v="trunk"/>
    <tag k="lanes" v="2"/>
    <tag k="layer" v="1"/>
    <tag k="name" v="Magdeburger Ring"/>
    <tag k="oneway" v="yes"/>
    <tag k="ref" v="B71"/>
  </way>
  <way id="22735882" version="5" timestamp="2008-09-16T22:49:17Z" uid="31059" user="DaBear" changeset="653506">
    <nd ref="243888977"/>
    <nd ref="243889673"/>
    <nd ref="33483364"/>
    <nd ref="33483366"/>
    <tag k="bridge" v="yes"/>
    <tag k="created_by" v="Potlatch 0.7"/>
    <tag k="highway" v="trunk"/>
    <tag k="lanes" v="2"/>
    <tag k="layer" v="1"/>
    <tag k="name" v="Magdeburger Ring"/>
    <tag k="oneway" v="yes"/>
    <tag k="ref" v="B 71"/>
  </way>
  <way id="22735882" version="6" timestamp="2008-12-01T17:31:45Z" uid="42683" user="riechfield" changeset="23312">
    <nd ref="243888977"/>
    <nd ref="243889673"/>
    <nd ref="33483364"/>
    <tag k="bridge" v="yes"/>
    <tag k="created_by" v="Potlatch 0.7"/>
    <tag k="highway" v="trunk"/>
    <tag k="lanes" v="2"/>
    <tag k="layer" v="1"/>
    <tag k="name" v="Magdeburger Ring"/>
    <tag k="oneway" v="yes"/>
    <tag k="ref" v="B 71"/>
  </way>
  <way id="22735882" version="7" timestamp="2009-01-16T20:13:46Z" uid="13565" user="hadhuey" changeset="795883">
    <nd ref="243888977"/>
    <nd ref="243889673"/>
    <nd ref="33483364"/>
    <tag k="bridge" v="yes"/>
    <tag k="created_by" v="Potlatch 0.10f"/>
    <tag k="highway" v="trunk"/>
    <tag k="lanes" v="2"/>
    <tag k="layer" v="1"/>
    <tag k="maxspeed" v="80"/>
    <tag k="name" v="Magdeburger Ring"/>
    <tag k="oneway" v="yes"/>
    <tag k="ref" v="B 71"/>
  </way>
  <way id="22735882" version="8" timestamp="2009-05-13T18:30:18Z" uid="42683" user="riechfield" changeset="1178255">
    <nd ref="243888977"/>
    <nd ref="243889673"/>
    <nd ref="33483364"/>
    <tag k="bridge" v="yes"/>
    <tag k="highway" v="trunk"/>
    <tag k="lanes" v="2"/>
    <tag k="layer" v="1"/>
    <tag k="maxspeed" v="80"/>
    <tag k="motorroad" v="yes"/>
    <tag k="name" v="Magdeburger Ring"/>
    <tag k="oneway" v="yes"/>
    <tag k="ref" v="B 71"/>
  </way>
  <way id="22735882" version="9" timestamp="2009-07-23T19:56:57Z" uid="123946" user="Luther__" changeset="1919439">
    <nd ref="243888977"/>
    <nd ref="243889673"/>
    <nd ref="33483364"/>
    <tag k="bridge" v="yes"/>
    <tag k="highway" v="trunk"/>
    <tag k="lanes" v="2"/>
    <tag k="layer" v="1"/>
    <tag k="lit" v="yes"/>
    <tag k="maxspeed" v="80"/>
    <tag k="motorroad" v="yes"/>
    <tag k="name" v="Magdeburger Ring"/>
    <tag k="oneway" v="yes"/>
    <tag k="ref" v="B 71"/>
  </way>
  <way id="22735882" version="10" timestamp="2010-06-05T22:58:42Z" uid="123946" user="Martin_D" changeset="4913134">
    <nd ref="243888977"/>
    <nd ref="243889673"/>
    <nd ref="33483364"/>
    <tag k="bridge" v="yes"/>
    <tag k="highway" v="trunk"/>
    <tag k="lanes" v="2"/>
    <tag k="layer" v="1"/>
    <tag k="lit" v="yes"/>
    <tag k="maxspeed" v="80"/>
    <tag k="motorroad" v="yes"/>
    <tag k="name" v="Magdeburger Ring"/>
    <tag k="oneway" v="yes"/>
    <tag k="ref" v="B 71"/>
    <tag k="source:maxspeed" v="sign"/>
  </way>
  <way id="22735882" version="11" timestamp="2012-01-19T20:54:53Z" uid="13565" user="hadhuey" changeset="10441075"/>
  <way id="22735895" version="2" timestamp="2008-07-05T18:29:17Z" uid="6975" user="ulfl" changeset="398437">
    <nd ref="243889191"/>
    <nd ref="243889204"/>
    <nd ref="243889207"/>
    <nd ref="243889209"/>
    <nd ref="243889211"/>
    <nd ref="243889188"/>
    <nd ref="243889191"/>
    <tag k="leisure" v="pitch"/>
    <tag k="source" v="landsat"/>
  </way>
  <way id="22735895" version="3" timestamp="2012-01-22T01:28:29Z" uid="591684" user="jazzy_b" changeset="10461373"/>
  <way id="22735929" version="7" timestamp="2008-02-03T21:37:39Z" uid="13367" user="nubok" changeset="27582">
    <nd ref="43081125"/>
    <nd ref="43081129"/>
    <nd ref="33483364"/>
    <tag k="bridge" v="yes"/>
    <tag k="created_by" v="Potlatch 0.7"/>
    <tag k="highway" v="trunk_link"/>
    <tag k="layer" v="1"/>
    <tag k="oneway" v="yes"/>
  </way>
  <way id="22735929" version="8" timestamp="2011-03-28T22:04:56Z" uid="101337" user="bonzulu" changeset="7702127">
    <nd ref="43081125"/>
    <nd ref="1223760362"/>
    <nd ref="43081129"/>
    <nd ref="33483364"/>
    <tag k="bridge" v="yes"/>
    <tag k="highway" v="trunk_link"/>
    <tag k="layer" v="1"/>
    <tag k="oneway" v="yes"/>
  </way>
  <way id="22735929" version="9" timestamp="2012-01-19T20:54:53Z" uid="13565" user="hadhuey" changeset="10441075"/>
  <way id="22735942" version="2" timestamp="2008-12-28T08:06:37Z" uid="61114" user="Trav" changeset="651820">
    <nd ref="243889551"/>
    <nd ref="243889573"/>
    <nd ref="243889574"/>
    <nd ref="322457707"/>
    <nd ref="243889674"/>
    <nd ref="243889675"/>
    <nd ref="322457696"/>
    <nd ref="322457699"/>
    <nd ref="243889676"/>
    <nd ref="322457701"/>
    <nd ref="322457703"/>
    <tag k="created_by" v="Merkaartor 0.13"/>
    <tag k="highway" v="residential"/>
    <tag k="name" v="Gould Avenue"/>
    <tag k="source" v="survey;yahoo_imagery"/>
  </way>
  <way id="22735942" version="3" timestamp="2010-02-18T08:13:10Z" uid="7617" user="Franc" changeset="3906977">
    <nd ref="243889551"/>
    <nd ref="644590205"/>
    <nd ref="644590206"/>
    <nd ref="243889573"/>
    <nd ref="243889574"/>
    <nd ref="322457707"/>
    <nd ref="243889674"/>
    <nd ref="243889675"/>
    <nd ref="322457696"/>
    <nd ref="322457699"/>
    <nd ref="243889676"/>
    <nd ref="322457701"/>
    <nd ref="322457703"/>
    <tag k="highway" v="residential"/>
    <tag k="name" v="Gould Avenue"/>
    <tag k="source" v="survey;yahoo_imagery"/>
  </way>
  <way id="22735942" version="4" timestamp="2010-07-08T00:01:12Z" uid="74617" user="JohnSmith" changeset="5162525">
    <nd ref="243889551"/>
    <nd ref="644590205"/>
    <nd ref="644590206"/>
    <nd ref="243889573"/>
    <nd ref="243889574"/>
    <nd ref="322457707"/>
    <nd ref="243889674"/>
    <nd ref="243889675"/>
    <nd ref="322457696"/>
    <nd ref="322457699"/>
    <nd ref="243889676"/>
    <nd ref="322457701"/>
    <nd ref="322457703"/>
    <tag k="highway" v="residential"/>
    <tag k="maxspeed" v="50"/>
    <tag k="maxspeed:source" v="default residential speed limit in Australia"/>
    <tag k="name" v="Gould Avenue"/>
    <tag k="source" v="survey;yahoo_imagery"/>
  </way>
  <way id="22735942" version="5" timestamp="2010-07-08T00:11:17Z" uid="74617" user="JohnSmith" changeset="5162525">
    <nd ref="243889551"/>
    <nd ref="644590205"/>
    <nd ref="644590206"/>
    <nd ref="243889573"/>
    <nd ref="243889574"/>
    <nd ref="322457707"/>
    <nd ref="243889674"/>
    <nd ref="243889675"/>
    <nd ref="322457696"/>
    <nd ref="322457699"/>
    <nd ref="243889676"/>
    <nd ref="322457701"/>
    <nd ref="322457703"/>
    <tag k="highway" v="residential"/>
    <tag k="maxspeed" v="50"/>
    <tag k="maxspeed:source" v="default residential speed limit in Australia"/>
    <tag k="name" v="Gould Avenue"/>
    <tag k="source" v="survey;yahoo_imagery"/>
  </way>
  <way id="22735942" version="6" timestamp="2011-04-24T04:55:53Z" uid="61114" user="Trav" changeset="7949237">
    <nd ref="243889551"/>
    <nd ref="644590205"/>
    <nd ref="644590206"/>
    <nd ref="243889573"/>
    <nd ref="243889574"/>
    <nd ref="322457707"/>
    <nd ref="243889674"/>
    <nd ref="243889675"/>
    <nd ref="322457696"/>
    <nd ref="322457699"/>
    <nd ref="243889676"/>
    <nd ref="322457701"/>
    <nd ref="1257578721"/>
    <nd ref="322457703"/>
    <tag k="highway" v="residential"/>
    <tag k="maxspeed" v="50"/>
    <tag k="maxspeed:source" v="default residential speed limit in Australia"/>
    <tag k="name" v="Gould Avenue"/>
    <tag k="source" v="survey;yahoo_imagery"/>
  </way>
  <way id="22735942" version="7" timestamp="2012-01-15T22:54:34Z" uid="147510" user="woodpeck_fixbot" changeset="10402983">
    <nd ref="243889551"/>
    <nd ref="644590205"/>
    <nd ref="644590206"/>
    <nd ref="243889573"/>
    <nd ref="243889574"/>
    <nd ref="322457707"/>
    <nd ref="243889674"/>
    <nd ref="243889675"/>
    <nd ref="322457696"/>
    <nd ref="322457699"/>
    <nd ref="243889676"/>
    <nd ref="322457701"/>
    <nd ref="1257578721"/>
    <nd ref="322457703"/>
    <tag k="highway" v="residential"/>
    <tag k="name" v="Gould Avenue"/>
    <tag k="source" v="survey;yahoo_imagery"/>
  </way>
  <way id="22735947" version="3" timestamp="2008-12-26T07:25:11Z" uid="61114" user="Trav" changeset="612998">
    <nd ref="243889672"/>
    <nd ref="243889704"/>
    <nd ref="243889705"/>
    <nd ref="243889706"/>
    <nd ref="243889707"/>
    <tag k="created_by" v="Merkaartor 0.13"/>
    <tag k="highway" v="residential"/>
    <tag k="name" v="Awatea Road"/>
    <tag k="source:name" v="survey"/>
  </way>
  <way id="22735947" version="4" timestamp="2010-02-18T08:13:10Z" uid="7617" user="Franc" changeset="3906977">
    <nd ref="243889672"/>
    <nd ref="644590197"/>
    <nd ref="243889704"/>
    <nd ref="644590204"/>
    <nd ref="243889705"/>
    <nd ref="243889706"/>
    <nd ref="644590244"/>
    <nd ref="243889707"/>
    <tag k="highway" v="residential"/>
    <tag k="name" v="Awatea Road"/>
    <tag k="source:name" v="survey"/>
  </way>
  <way id="22735947" version="5" timestamp="2010-07-08T00:01:29Z" uid="74617" user="JohnSmith" changeset="5162525">
    <nd ref="243889672"/>
    <nd ref="644590197"/>
    <nd ref="243889704"/>
    <nd ref="644590204"/>
    <nd ref="243889705"/>
    <nd ref="243889706"/>
    <nd ref="644590244"/>
    <nd ref="243889707"/>
    <tag k="highway" v="residential"/>
    <tag k="maxspeed" v="50"/>
    <tag k="maxspeed:source" v="default residential speed limit in Australia"/>
    <tag k="name" v="Awatea Road"/>
    <tag k="source:name" v="survey"/>
  </way>
  <way id="22735947" version="6" timestamp="2010-07-08T00:11:37Z" uid="74617" user="JohnSmith" changeset="5162525">
    <nd ref="243889672"/>
    <nd ref="644590197"/>
    <nd ref="243889704"/>
    <nd ref="644590204"/>
    <nd ref="243889705"/>
    <nd ref="243889706"/>
    <nd ref="644590244"/>
    <nd ref="243889707"/>
    <tag k="highway" v="residential"/>
    <tag k="maxspeed" v="50"/>
    <tag k="maxspeed:source" v="default residential speed limit in Australia"/>
    <tag k="name" v="Awatea Road"/>
    <tag k="source:name" v="survey"/>
  </way>
  <way id="22735947" version="7" timestamp="2011-04-24T04:55:53Z" uid="61114" user="Trav" changeset="7949237">
    <nd ref="243889672"/>
    <nd ref="644590197"/>
    <nd ref="243889704"/>
    <nd ref="644590204"/>
    <nd ref="243889705"/>
    <nd ref="243889706"/>
    <nd ref="644590244"/>
    <nd ref="1257578722"/>
    <nd ref="243889707"/>
    <tag k="highway" v="residential"/>
    <tag k="maxspeed" v="50"/>
    <tag k="maxspeed:source" v="default residential speed limit in Australia"/>
    <tag k="name" v="Awatea Road"/>
    <tag k="source:name" v="survey"/>
  </way>
  <way id="22735947" version="8" timestamp="2012-01-15T22:54:36Z" uid="147510" user="woodpeck_fixbot" changeset="10402983">
    <nd ref="243889672"/>
    <nd ref="644590197"/>
    <nd ref="243889704"/>
    <nd ref="644590204"/>
    <nd ref="243889705"/>
    <nd ref="243889706"/>
    <nd ref="644590244"/>
    <nd ref="1257578722"/>
    <nd ref="243889707"/>
    <tag k="highway" v="residential"/>
    <tag k="name" v="Awatea Road"/>
    <tag k="source:name" v="survey"/>
  </way>
  <way id="22735957" version="2" timestamp="2008-12-26T07:25:10Z" uid="61114" user="Trav" changeset="612998">
    <nd ref="243889705"/>
    <nd ref="243889714"/>
    <nd ref="243889715"/>
    <tag k="created_by" v="Merkaartor 0.13"/>
    <tag k="highway" v="residential"/>
    <tag k="name" v="Robina Street"/>
    <tag k="source:name" v="survey"/>
  </way>
  <way id="22735957" version="3" timestamp="2010-02-18T08:13:20Z" uid="7617" user="Franc" changeset="3906977">
    <nd ref="243889705"/>
    <nd ref="644590189"/>
    <nd ref="243889714"/>
    <nd ref="644590194"/>
    <nd ref="644590190"/>
    <nd ref="243889715"/>
    <tag k="highway" v="residential"/>
    <tag k="name" v="Robina Street"/>
    <tag k="source:name" v="survey"/>
  </way>
  <way id="22735957" version="4" timestamp="2010-07-08T00:02:34Z" uid="74617" user="JohnSmith" changeset="5162525">
    <nd ref="243889705"/>
    <nd ref="644590189"/>
    <nd ref="243889714"/>
    <nd ref="644590194"/>
    <nd ref="644590190"/>
    <nd ref="243889715"/>
    <tag k="highway" v="residential"/>
    <tag k="maxspeed" v="50"/>
    <tag k="maxspeed:source" v="default residential speed limit in Australia"/>
    <tag k="name" v="Robina Street"/>
    <tag k="source:name" v="survey"/>
  </way>
  <way id="22735957" version="5" timestamp="2010-07-08T00:12:48Z" uid="74617" user="JohnSmith" changeset="5162525">
    <nd ref="243889705"/>
    <nd ref="644590189"/>
    <nd ref="243889714"/>
    <nd ref="644590194"/>
    <nd ref="644590190"/>
    <nd ref="243889715"/>
    <tag k="highway" v="residential"/>
    <tag k="maxspeed" v="50"/>
    <tag k="maxspeed:source" v="default residential speed limit in Australia"/>
    <tag k="name" v="Robina Street"/>
    <tag k="source:name" v="survey"/>
  </way>
  <way id="22735957" version="6" timestamp="2012-01-15T22:54:37Z" uid="147510" user="woodpeck_fixbot" changeset="10402983">
    <nd ref="243889705"/>
    <nd ref="644590189"/>
    <nd ref="243889714"/>
    <nd ref="644590194"/>
    <nd ref="644590190"/>
    <nd ref="243889715"/>
    <tag k="highway" v="residential"/>
    <tag k="name" v="Robina Street"/>
    <tag k="source:name" v="survey"/>
  </way>
  <way id="22735970" version="2" timestamp="2008-12-26T07:25:00Z" uid="61114" user="Trav" changeset="612998">
    <nd ref="242537742"/>
    <nd ref="243889865"/>
    <nd ref="243889866"/>
    <nd ref="243889867"/>
    <nd ref="243889868"/>
    <nd ref="243889869"/>
    <nd ref="243889870"/>
    <nd ref="243889871"/>
    <nd ref="243889872"/>
    <nd ref="243889873"/>
    <tag k="created_by" v="Merkaartor 0.13"/>
    <tag k="highway" v="residential"/>
    <tag k="name" v="Dalton Road"/>
    <tag k="source:name" v="survey"/>
  </way>
  <way id="22735970" version="3" timestamp="2008-12-26T23:49:43Z" uid="61114" user="Trav" changeset="635586">
    <nd ref="242537742"/>
    <nd ref="243889865"/>
    <nd ref="243889866"/>
    <nd ref="321896039"/>
    <nd ref="243889867"/>
    <nd ref="243889868"/>
    <nd ref="243889869"/>
    <nd ref="243889870"/>
    <nd ref="243889871"/>
    <nd ref="243889872"/>
    <nd ref="243889873"/>
    <tag k="created_by" v="Merkaartor 0.13"/>
    <tag k="highway" v="residential"/>
    <tag k="name" v="Dalton Road"/>
    <tag k="source:name" v="survey"/>
  </way>
  <way id="22735970" version="4" timestamp="2009-09-01T06:12:14Z" uid="61114" user="Trav" changeset="2333653">
    <nd ref="242537742"/>
    <nd ref="26391304"/>
    <nd ref="243889866"/>
    <nd ref="321896039"/>
    <nd ref="243889867"/>
    <nd ref="243889868"/>
    <nd ref="243889869"/>
    <nd ref="243889870"/>
    <nd ref="243889871"/>
    <nd ref="243889872"/>
    <nd ref="243889873"/>
    <tag k="highway" v="residential"/>
    <tag k="name" v="Dalton Road"/>
    <tag k="source:name" v="survey"/>
  </way>
  <way id="22735970" version="5" timestamp="2010-07-08T00:03:15Z" uid="74617" user="JohnSmith" changeset="5162525">
    <nd ref="242537742"/>
    <nd ref="26391304"/>
    <nd ref="243889866"/>
    <nd ref="321896039"/>
    <nd ref="243889867"/>
    <nd ref="243889868"/>
    <nd ref="243889869"/>
    <nd ref="243889870"/>
    <nd ref="243889871"/>
    <nd ref="243889872"/>
    <nd ref="243889873"/>
    <tag k="highway" v="residential"/>
    <tag k="maxspeed" v="50"/>
    <tag k="maxspeed:source" v="default residential speed limit in Australia"/>
    <tag k="name" v="Dalton Road"/>
    <tag k="source:name" v="survey"/>
  </way>
  <way id="22735970" version="6" timestamp="2010-07-08T00:13:31Z" uid="74617" user="JohnSmith" changeset="5162525">
    <nd ref="242537742"/>
    <nd ref="26391304"/>
    <nd ref="243889866"/>
    <nd ref="321896039"/>
    <nd ref="243889867"/>
    <nd ref="243889868"/>
    <nd ref="243889869"/>
    <nd ref="243889870"/>
    <nd ref="243889871"/>
    <nd ref="243889872"/>
    <nd ref="243889873"/>
    <tag k="highway" v="residential"/>
    <tag k="maxspeed" v="50"/>
    <tag k="maxspeed:source" v="default residential speed limit in Australia"/>
    <tag k="name" v="Dalton Road"/>
    <tag k="source:name" v="survey"/>
  </way>
  <way id="22735970" version="7" timestamp="2012-01-15T22:54:38Z" uid="147510" user="woodpeck_fixbot" changeset="10402983">
    <nd ref="242537742"/>
    <nd ref="26391304"/>
    <nd ref="243889866"/>
    <nd ref="321896039"/>
    <nd ref="243889867"/>
    <nd ref="243889868"/>
    <nd ref="243889869"/>
    <nd ref="243889870"/>
    <nd ref="243889871"/>
    <nd ref="243889872"/>
    <nd ref="243889873"/>
    <tag k="highway" v="residential"/>
    <tag k="name" v="Dalton Road"/>
    <tag k="source:name" v="survey"/>
  </way>
  <way id="22735973" version="2" timestamp="2008-12-26T07:25:03Z" uid="61114" user="Trav" changeset="612998">
    <nd ref="243889876"/>
    <nd ref="243889878"/>
    <tag k="created_by" v="Merkaartor 0.13"/>
    <tag k="highway" v="residential"/>
    <tag k="name" v="Hillside Avenue"/>
    <tag k="source:name" v="survey"/>
  </way>
  <way id="22735973" version="3" timestamp="2010-07-08T00:00:21Z" uid="74617" user="JohnSmith" changeset="5162525">
    <nd ref="243889876"/>
    <nd ref="243889878"/>
    <tag k="highway" v="residential"/>
    <tag k="maxspeed" v="50"/>
    <tag k="maxspeed:source" v="default residential speed limit in Australia"/>
    <tag k="name" v="Hillside Avenue"/>
    <tag k="source:name" v="survey"/>
  </way>
  <way id="22735973" version="4" timestamp="2010-07-08T00:10:19Z" uid="74617" user="JohnSmith" changeset="5162525">
    <nd ref="243889876"/>
    <nd ref="243889878"/>
    <tag k="highway" v="residential"/>
    <tag k="maxspeed" v="50"/>
    <tag k="maxspeed:source" v="default residential speed limit in Australia"/>
    <tag k="name" v="Hillside Avenue"/>
    <tag k="source:name" v="survey"/>
  </way>
  <way id="22735973" version="5" timestamp="2012-01-15T22:54:39Z" uid="147510" user="woodpeck_fixbot" changeset="10402983">
    <nd ref="243889876"/>
    <nd ref="243889878"/>
    <tag k="highway" v="residential"/>
    <tag k="name" v="Hillside Avenue"/>
    <tag k="source:name" v="survey"/>
  </way>
  <way id="22735985" version="2" timestamp="2008-12-26T07:25:03Z" uid="61114" user="Trav" changeset="612998">
    <nd ref="243889949"/>
    <nd ref="243889950"/>
    <nd ref="243889878"/>
    <tag k="created_by" v="Merkaartor 0.13"/>
    <tag k="highway" v="residential"/>
    <tag k="name" v="Hillside Avenue"/>
    <tag k="source:name" v="survey"/>
  </way>
  <way id="22735985" version="3" timestamp="2010-07-08T00:04:34Z" uid="74617" user="JohnSmith" changeset="5162525">
    <nd ref="243889949"/>
    <nd ref="243889950"/>
    <nd ref="243889878"/>
    <tag k="highway" v="residential"/>
    <tag k="maxspeed" v="50"/>
    <tag k="maxspeed:source" v="default residential speed limit in Australia"/>
    <tag k="name" v="Hillside Avenue"/>
    <tag k="source:name" v="survey"/>
  </way>
  <way id="22735985" version="4" timestamp="2010-07-08T00:15:11Z" uid="74617" user="JohnSmith" changeset="5162525">
    <nd ref="243889949"/>
    <nd ref="243889950"/>
    <nd ref="243889878"/>
    <tag k="highway" v="residential"/>
    <tag k="maxspeed" v="50"/>
    <tag k="maxspeed:source" v="default residential speed limit in Australia"/>
    <tag k="name" v="Hillside Avenue"/>
    <tag k="source:name" v="survey"/>
  </way>
  <way id="22735985" version="5" timestamp="2012-01-15T22:54:40Z" uid="147510" user="woodpeck_fixbot" changeset="10402983">
    <nd ref="243889949"/>
    <nd ref="243889950"/>
    <nd ref="243889878"/>
    <tag k="highway" v="residential"/>
    <tag k="name" v="Hillside Avenue"/>
    <tag k="source:name" v="survey"/>
  </way>
  <way id="22735989" version="2" timestamp="2008-12-26T23:59:23Z" uid="61114" user="Trav" changeset="635586">
    <nd ref="243889958"/>
    <nd ref="243889963"/>
    <tag k="created_by" v="Merkaartor 0.13"/>
    <tag k="highway" v="residential"/>
    <tag k="name" v="Elizabethan Place"/>
    <tag k="note" v="FIXME: incomplete - Tudor place is at the end, but I lost the GPS trace and can&apos;t make out the yahoo imagery clearly"/>
    <tag k="source:name" v="survey"/>
  </way>
  <way id="22735989" version="3" timestamp="2008-12-28T08:06:57Z" uid="61114" user="Trav" changeset="651820"/>
  <way id="22735993" version="5" timestamp="2008-12-11T10:01:14Z" uid="18775" user="drlizau" changeset="319607">
    <nd ref="243889969"/>
    <nd ref="243889971"/>
    <tag k="created_by" v="Potlatch 0.6c"/>
    <tag k="highway" v="unclassified"/>
    <tag k="name" v="Lovely Banks Road"/>
  </way>
  <way id="22735993" version="6" timestamp="2008-12-12T02:13:54Z" uid="11111" user="lakeyboy" changeset="333217">
    <nd ref="243889969"/>
    <nd ref="318037499"/>
    <nd ref="243889971"/>
    <tag k="created_by" v="Potlatch 0.10f"/>
    <tag k="highway" v="unclassified"/>
    <tag k="name" v="Lovely Banks Road"/>
  </way>
  <way id="22735993" version="7" timestamp="2009-07-08T07:06:16Z" uid="11111" user="lakeyboy" changeset="1769403">
    <nd ref="243889969"/>
    <nd ref="318037499"/>
    <nd ref="436955014"/>
    <nd ref="243889971"/>
    <tag k="created_by" v="Potlatch 0.10f"/>
    <tag k="highway" v="unclassified"/>
    <tag k="name" v="Lovely Banks Road"/>
  </way>
  <way id="22735993" version="8" timestamp="2009-07-08T07:06:30Z" uid="11111" user="lakeyboy" changeset="1769403">
    <nd ref="243889969"/>
    <nd ref="318037499"/>
    <nd ref="436955014"/>
    <tag k="created_by" v="Potlatch 0.10f"/>
    <tag k="highway" v="unclassified"/>
    <tag k="name" v="Lovely Banks Road"/>
  </way>
  <way id="22735993" version="9" timestamp="2009-07-08T07:11:28Z" uid="11111" user="lakeyboy" changeset="1769403"/>
  <way id="22735997" version="2" timestamp="2010-07-08T00:02:06Z" uid="74617" user="JohnSmith" changeset="5162525">
    <nd ref="26391366"/>
    <nd ref="26391364"/>
    <nd ref="26391365"/>
    <nd ref="243890201"/>
    <tag k="highway" v="residential"/>
    <tag k="maxspeed" v="50"/>
    <tag k="maxspeed:source" v="default residential speed limit in Australia"/>
    <tag k="name" v="Mungarra Avenue"/>
    <tag k="source" v="Yahoo Imagery"/>
  </way>
  <way id="22735997" version="3" timestamp="2010-07-08T00:12:20Z" uid="74617" user="JohnSmith" changeset="5162525">
    <nd ref="26391366"/>
    <nd ref="26391364"/>
    <nd ref="26391365"/>
    <nd ref="243890201"/>
    <tag k="highway" v="residential"/>
    <tag k="maxspeed" v="50"/>
    <tag k="maxspeed:source" v="default residential speed limit in Australia"/>
    <tag k="name" v="Mungarra Avenue"/>
    <tag k="source" v="Yahoo Imagery"/>
  </way>
  <way id="22735997" version="4" timestamp="2012-01-15T22:54:41Z" uid="147510" user="woodpeck_fixbot" changeset="10402983">
    <nd ref="26391366"/>
    <nd ref="26391364"/>
    <nd ref="26391365"/>
    <nd ref="243890201"/>
    <tag k="highway" v="residential"/>
    <tag k="name" v="Mungarra Avenue"/>
    <tag k="source" v="Yahoo Imagery"/>
  </way>
</osm>
