<?xml version='1.0' encoding='UTF-8'?>
<osm version="0.6" generator="libosmium/2.20.0">
  <way id="22758289" version="5" timestamp="2010-07-09T05:00:09Z" uid="74617" user="JohnSmith" changeset="5170972">
    <nd ref="244241417"/>
    <nd ref="443671062"/>
    <nd ref="443671063"/>
    <nd ref="244241419"/>
    <nd ref="443671064"/>
    <nd ref="244241421"/>
    <nd ref="443671065"/>
    <nd ref="443671066"/>
    <nd ref="244241458"/>
    <nd ref="443671067"/>
    <nd ref="443671068"/>
    <nd ref="244241472"/>
    <nd ref="443671069"/>
    <nd ref="244241431"/>
    <nd ref="443671071"/>
    <nd ref="443671072"/>
    <nd ref="244241437"/>
    <nd ref="443671073"/>
    <nd ref="244241417"/>
    <tag k="highway" v="residential"/>
    <tag k="junction" v="roundabout"/>
    <tag k="maxspeed" v="50"/>
    <tag k="maxspeed:source" v="default residential speed limit in Australia"/>
    <tag k="source" v="image"/>
  </way>
  <way id="22758289" version="6" timestamp="2011-04-10T20:37:46Z" uid="4467" user="Rosscoe" changeset="7827395">
    <nd ref="1240315500"/>
    <nd ref="244241417"/>
    <nd ref="443671062"/>
    <nd ref="443671063"/>
    <nd ref="244241419"/>
    <nd ref="443671064"/>
    <nd ref="244241421"/>
    <nd ref="443671065"/>
    <nd ref="443671066"/>
    <nd ref="244241458"/>
    <nd ref="443671067"/>
    <nd ref="443671068"/>
    <nd ref="244241472"/>
    <nd ref="1240315516"/>
    <nd ref="443671069"/>
    <nd ref="244241431"/>
    <nd ref="443671071"/>
    <nd ref="443671072"/>
    <nd ref="244241437"/>
    <nd ref="443671073"/>
    <nd ref="1240315500"/>
    <tag k="highway" v="residential"/>
    <tag k="junction" v="roundabout"/>
    <tag k="maxspeed" v="50"/>
    <tag k="source" v="image"/>
    <tag k="source:maxspeed" v="default residential speed limit in Australia"/>
  </way>
  <way id="22758289" version="7" timestamp="2012-01-15T23:04:41Z" uid="147510" user="woodpeck_fixbot" changeset="10404406">
    <nd ref="1240315500"/>
    <nd ref="244241417"/>
    <nd ref="443671062"/>
    <nd ref="443671063"/>
    <nd ref="244241419"/>
    <nd ref="443671064"/>
    <nd ref="244241421"/>
    <nd ref="443671065"/>
    <nd ref="443671066"/>
    <nd ref="244241458"/>
    <nd ref="443671067"/>
    <nd ref="443671068"/>
    <nd ref="244241472"/>
    <nd ref="1240315516"/>
    <nd ref="443671069"/>
    <nd ref="244241431"/>
    <nd ref="443671071"/>
    <nd ref="443671072"/>
    <nd ref="244241437"/>
    <nd ref="443671073"/>
    <nd ref="1240315500"/>
    <tag k="highway" v="residential"/>
    <tag k="junction" v="roundabout"/>
    <tag k="source" v="image"/>
    <tag k="source:maxspeed" v="default residential speed limit in Australia"/>
  </way>
  <way id="22758290" version="10" timestamp="2010-07-09T05:02:25Z" uid="74617" user="JohnSmith" changeset="5170972">
    <nd ref="244241458"/>
    <nd ref="444195837"/>
    <nd ref="244222131"/>
    <nd ref="587669042"/>
    <nd ref="244222132"/>
    <nd ref="600326378"/>
    <nd ref="244222136"/>
    <nd ref="244222137"/>
    <nd ref="600326376"/>
    <nd ref="448077082"/>
    <nd ref="448077083"/>
    <nd ref="600326381"/>
    <nd ref="244222138"/>
    <tag k="cycleway" v="lane"/>
    <tag k="highway" v="residential"/>
    <tag k="maxspeed" v="50"/>
    <tag k="maxspeed:source" v="default residential speed limit in Australia"/>
    <tag k="name" v="Canning Street"/>
    <tag k="oneway" v="yes"/>
  </way>
  <way id="22758290" version="11" timestamp="2011-04-10T20:38:36Z" uid="4467" user="Rosscoe" changeset="7827395">
    <nd ref="244241458"/>
    <nd ref="444195837"/>
    <nd ref="244222131"/>
    <nd ref="587669042"/>
    <nd ref="244222132"/>
    <nd ref="600326378"/>
    <nd ref="244222136"/>
    <nd ref="244222137"/>
    <nd ref="600326376"/>
    <nd ref="448077082"/>
    <nd ref="448077083"/>
    <nd ref="600326381"/>
    <nd ref="244222138"/>
    <tag k="cycleway" v="lane"/>
    <tag k="highway" v="residential"/>
    <tag k="maxspeed" v="50"/>
    <tag k="name" v="Canning Street"/>
    <tag k="oneway" v="yes"/>
    <tag k="source:maxspeed" v="default residential speed limit in Australia"/>
  </way>
  <way id="22758290" version="12" timestamp="2012-01-15T23:04:42Z" uid="147510" user="woodpeck_fixbot" changeset="10404406">
    <nd ref="244241458"/>
    <nd ref="444195837"/>
    <nd ref="244222131"/>
    <nd ref="587669042"/>
    <nd ref="244222132"/>
    <nd ref="600326378"/>
    <nd ref="244222136"/>
    <nd ref="244222137"/>
    <nd ref="600326376"/>
    <nd ref="448077082"/>
    <nd ref="448077083"/>
    <nd ref="600326381"/>
    <nd ref="244222138"/>
    <tag k="cycleway" v="lane"/>
    <tag k="highway" v="residential"/>
    <tag k="name" v="Canning Street"/>
    <tag k="oneway" v="yes"/>
    <tag k="source:maxspeed" v="default residential speed limit in Australia"/>
  </way>
  <way id="22758291" version="2" timestamp="2010-07-09T04:53:52Z" uid="74617" user="JohnSmith" changeset="5170972">
    <nd ref="244241417"/>
    <nd ref="243451213"/>
    <tag k="highway" v="residential"/>
    <tag k="maxspeed" v="50"/>
    <tag k="maxspeed:source" v="default residential speed limit in Australia"/>
    <tag k="name" v="Canning Street"/>
  </way>
  <way id="22758291" version="3" timestamp="2011-04-10T20:39:19Z" uid="4467" user="Rosscoe" changeset="7827395">
    <nd ref="244241417"/>
    <nd ref="243451213"/>
    <tag k="highway" v="residential"/>
    <tag k="maxspeed" v="50"/>
    <tag k="name" v="Canning Street"/>
    <tag k="source:maxspeed" v="default residential speed limit in Australia"/>
  </way>
  <way id="22758291" version="4" timestamp="2012-01-15T23:04:44Z" uid="147510" user="woodpeck_fixbot" changeset="10404406">
    <nd ref="244241417"/>
    <nd ref="243451213"/>
    <tag k="highway" v="residential"/>
    <tag k="name" v="Canning Street"/>
    <tag k="source:maxspeed" v="default residential speed limit in Australia"/>
  </way>
  <way id="22758292" version="5" timestamp="2010-07-09T04:59:18Z" uid="74617" user="JohnSmith" changeset="5170972">
    <nd ref="244241421"/>
    <nd ref="447593668"/>
    <nd ref="230775948"/>
    <nd ref="230775974"/>
    <tag k="highway" v="residential"/>
    <tag k="maxspeed" v="50"/>
    <tag k="maxspeed:source" v="default residential speed limit in Australia"/>
    <tag k="name" v="Neill Street"/>
  </way>
  <way id="22758292" version="6" timestamp="2011-04-10T20:37:56Z" uid="4467" user="Rosscoe" changeset="7827395">
    <nd ref="244241421"/>
    <nd ref="447593668"/>
    <nd ref="230775948"/>
    <nd ref="230775974"/>
    <tag k="highway" v="residential"/>
    <tag k="maxspeed" v="50"/>
    <tag k="name" v="Neill Street"/>
    <tag k="source:maxspeed" v="default residential speed limit in Australia"/>
  </way>
  <way id="22758292" version="7" timestamp="2012-01-15T23:04:45Z" uid="147510" user="woodpeck_fixbot" changeset="10404406">
    <nd ref="244241421"/>
    <nd ref="447593668"/>
    <nd ref="230775948"/>
    <nd ref="230775974"/>
    <tag k="highway" v="residential"/>
    <tag k="name" v="Neill Street"/>
    <tag k="source:maxspeed" v="default residential speed limit in Australia"/>
  </way>
  <way id="22758367" version="2" timestamp="2008-02-10T19:45:10Z" uid="1066" user="pavel" changeset="93371">
    <nd ref="30745910"/>
    <nd ref="244244611"/>
    <nd ref="244244610"/>
    <nd ref="247091946"/>
    <nd ref="247091947"/>
    <nd ref="247091948"/>
    <nd ref="247091949"/>
    <nd ref="247091950"/>
    <nd ref="247091951"/>
    <nd ref="247091955"/>
    <tag k="created_by" v="JOSM"/>
    <tag k="highway" v="residential"/>
  </way>
  <way id="22758367" version="3" timestamp="2009-03-03T22:23:22Z" uid="17615" user="Petr Dlouhý" changeset="730354">
    <nd ref="30745910"/>
    <nd ref="244244611"/>
    <nd ref="244244610"/>
    <nd ref="247091946"/>
    <nd ref="247091947"/>
    <nd ref="355339528"/>
    <nd ref="247091948"/>
    <nd ref="247091949"/>
    <nd ref="247091950"/>
    <nd ref="247091951"/>
    <nd ref="247091955"/>
    <tag k="created_by" v="JOSM"/>
    <tag k="highway" v="residential"/>
  </way>
  <way id="22758367" version="4" timestamp="2009-03-03T22:43:18Z" uid="17615" user="Petr Dlouhý" changeset="730354">
    <nd ref="30745910"/>
    <nd ref="244244611"/>
    <nd ref="244244610"/>
    <nd ref="247091946"/>
    <nd ref="247091947"/>
    <nd ref="355339528"/>
    <nd ref="247091948"/>
    <nd ref="247091949"/>
    <nd ref="355347193"/>
    <nd ref="247091950"/>
    <nd ref="247091951"/>
    <nd ref="247091955"/>
    <tag k="created_by" v="JOSM"/>
    <tag k="highway" v="residential"/>
  </way>
  <way id="22758367" version="5" timestamp="2009-03-04T12:47:52Z" uid="17615" user="Petr Dlouhý" changeset="734020">
    <nd ref="30745910"/>
    <nd ref="244244611"/>
    <nd ref="244244610"/>
    <nd ref="247091946"/>
    <nd ref="355576722"/>
    <nd ref="355339528"/>
    <nd ref="247091948"/>
    <tag k="created_by" v="JOSM"/>
    <tag k="highway" v="residential"/>
    <tag k="name" v="17. listopadu"/>
    <tag k="source" v="cuzk:km;uhul:ortofoto"/>
  </way>
  <way id="22758368" version="2" timestamp="2008-02-10T19:45:12Z" uid="1066" user="pavel" changeset="93371">
    <nd ref="30127316"/>
    <nd ref="244244614"/>
    <nd ref="244244608"/>
    <nd ref="244244617"/>
    <nd ref="244244619"/>
    <nd ref="247091943"/>
    <nd ref="247091944"/>
    <nd ref="247091945"/>
    <tag k="created_by" v="JOSM"/>
    <tag k="highway" v="residential"/>
  </way>
  <way id="22758368" version="3" timestamp="2009-03-03T22:23:19Z" uid="17615" user="Petr Dlouhý" changeset="730354">
    <nd ref="30127316"/>
    <nd ref="244244614"/>
    <nd ref="244244608"/>
    <nd ref="244244617"/>
    <nd ref="244244619"/>
    <nd ref="355339459"/>
    <nd ref="247091943"/>
    <nd ref="247091944"/>
    <nd ref="247091945"/>
    <tag k="created_by" v="JOSM"/>
    <tag k="highway" v="residential"/>
  </way>
  <way id="22758368" version="4" timestamp="2009-03-04T12:47:51Z" uid="17615" user="Petr Dlouhý" changeset="734020">
    <nd ref="30127316"/>
    <nd ref="244244614"/>
    <nd ref="244244608"/>
    <nd ref="244244617"/>
    <nd ref="244244619"/>
    <nd ref="355339459"/>
    <nd ref="247091943"/>
    <nd ref="247091944"/>
    <nd ref="247091945"/>
    <tag k="created_by" v="JOSM"/>
    <tag k="highway" v="residential"/>
    <tag k="name" v="Palackého"/>
    <tag k="source" v="cuzk:km;uhul:ortofoto"/>
  </way>
  <way id="22758374" version="9" timestamp="2010-08-25T13:27:13Z" uid="4467" user="Rosscoe" changeset="5589809">
    <nd ref="26034640"/>
    <nd ref="589326695"/>
    <nd ref="244244659"/>
    <nd ref="34157905"/>
    <tag k="cycleway" v="lane"/>
    <tag k="highway" v="tertiary"/>
    <tag k="is_in" v="Melbourne,Victoria,Australia"/>
    <tag k="name" v="Exhibition Street"/>
    <tag k="oneway" v="yes"/>
    <tag k="postal_code" v="3000"/>
    <tag k="source" v="survey;Yahoo"/>
  </way>
  <way id="22758374" version="10" timestamp="2011-04-23T02:54:25Z" uid="4467" user="Rosscoe" changeset="7940135">
    <nd ref="26034640"/>
    <nd ref="589326695"/>
    <nd ref="244244659"/>
    <nd ref="1256289212"/>
    <tag k="cycleway" v="lane"/>
    <tag k="highway" v="tertiary"/>
    <tag k="is_in" v="Melbourne,Victoria,Australia"/>
    <tag k="name" v="Exhibition Street"/>
    <tag k="oneway" v="yes"/>
    <tag k="postal_code" v="3000"/>
    <tag k="source" v="survey;Yahoo"/>
  </way>
  <way id="22758374" version="11" timestamp="2012-03-26T08:48:25Z" uid="201443" user="stevage" changeset="11103312">
    <nd ref="26034640"/>
    <nd ref="589326695"/>
    <nd ref="244244659"/>
    <nd ref="1691676459"/>
    <tag k="cycleway" v="lane"/>
    <tag k="highway" v="tertiary"/>
    <tag k="is_in" v="Melbourne,Victoria,Australia"/>
    <tag k="name" v="Exhibition Street"/>
    <tag k="oneway" v="yes"/>
    <tag k="postal_code" v="3000"/>
    <tag k="source" v="survey;Yahoo"/>
  </way>
  <way id="22758375" version="9" timestamp="2009-12-15T14:46:07Z" uid="4467" user="Rosscoe" changeset="3379934">
    <nd ref="60650441"/>
    <nd ref="274620113"/>
    <nd ref="274856740"/>
    <nd ref="274857153"/>
    <nd ref="274617547"/>
    <nd ref="592115742"/>
    <nd ref="592115744"/>
    <nd ref="592115747"/>
    <tag k="highway" v="primary"/>
    <tag k="name" v="Gorge Road"/>
    <tag k="ref" v="58"/>
  </way>
  <way id="22758375" version="10" timestamp="2009-12-15T14:47:17Z" uid="4467" user="Rosscoe" changeset="3379942">
    <nd ref="60650441"/>
    <nd ref="274620113"/>
    <nd ref="274856740"/>
    <nd ref="274857153"/>
    <nd ref="274617547"/>
    <nd ref="592115742"/>
    <nd ref="592115744"/>
    <nd ref="592115747"/>
    <tag k="highway" v="primary"/>
    <tag k="name" v="Gorge Road"/>
    <tag k="ref" v="58"/>
    <tag k="source" v="nearmap"/>
  </way>
  <way id="22758375" version="11" timestamp="2010-04-06T09:34:03Z" uid="74617" user="JohnSmith" changeset="4341925">
    <nd ref="60650441"/>
    <nd ref="274620113"/>
    <nd ref="274856740"/>
    <nd ref="274857153"/>
    <nd ref="274617547"/>
    <nd ref="592115742"/>
    <nd ref="592115744"/>
    <nd ref="592115747"/>
    <tag k="highway" v="primary"/>
    <tag k="name" v="Gorge Road"/>
    <tag k="source" v="nearmap"/>
  </way>
  <way id="22758375" version="12" timestamp="2010-06-12T05:20:31Z" uid="11111" user="lakeyboy" changeset="4967410">
    <nd ref="769489139"/>
    <nd ref="274620113"/>
    <nd ref="274856740"/>
    <nd ref="274857153"/>
    <nd ref="274617547"/>
    <nd ref="592115742"/>
    <nd ref="592115744"/>
    <nd ref="592115747"/>
    <tag k="highway" v="primary"/>
    <tag k="name" v="Gorge Road"/>
    <tag k="source" v="nearmap"/>
  </way>
  <way id="22758375" version="13" timestamp="2011-01-14T02:07:14Z" uid="79475" user="AlexOnTheBus" changeset="6963698">
    <nd ref="769489139"/>
    <nd ref="274620113"/>
    <nd ref="274856740"/>
    <nd ref="274857153"/>
    <nd ref="274617547"/>
    <nd ref="592115742"/>
    <nd ref="592115744"/>
    <nd ref="1102843702"/>
    <tag k="highway" v="primary"/>
    <tag k="name" v="Gorge Road"/>
    <tag k="source" v="nearmap"/>
  </way>
  <way id="22758379" version="8" timestamp="2011-03-06T08:52:45Z" uid="4467" user="Rosscoe" changeset="7470703">
    <nd ref="253121047"/>
    <nd ref="253121382"/>
    <nd ref="253121383"/>
    <nd ref="253121384"/>
    <nd ref="253121385"/>
    <nd ref="253121652"/>
    <nd ref="60651006"/>
    <tag k="highway" v="motorway_link"/>
    <tag k="name" v="Plenty Road Offramp"/>
    <tag k="oneway" v="yes"/>
  </way>
  <way id="22758380" version="45" timestamp="2011-03-06T08:12:12Z" uid="4467" user="Rosscoe" changeset="7470443">
    <nd ref="60651006"/>
    <nd ref="253121673"/>
    <nd ref="460410346"/>
    <nd ref="244245033"/>
    <nd ref="244245034"/>
    <nd ref="566517226"/>
    <nd ref="244245201"/>
    <nd ref="277099166"/>
    <nd ref="244245202"/>
    <nd ref="566512197"/>
    <nd ref="303940125"/>
    <nd ref="566512198"/>
    <nd ref="244245203"/>
    <nd ref="566512200"/>
    <nd ref="566512202"/>
    <nd ref="244245204"/>
    <nd ref="566509669"/>
    <nd ref="566509651"/>
    <nd ref="566509649"/>
    <nd ref="566509590"/>
    <nd ref="566509653"/>
    <nd ref="566509668"/>
    <nd ref="566512241"/>
    <tag k="highway" v="primary"/>
    <tag k="lanes" v="3"/>
    <tag k="maxspeed" v="80"/>
    <tag k="name" v="Plenty Road"/>
    <tag k="oneway" v="yes"/>
  </way>
  <way id="22758380" version="46" timestamp="2011-03-06T08:53:22Z" uid="4467" user="Rosscoe" changeset="7470703">
    <nd ref="60651006"/>
    <nd ref="253121673"/>
    <nd ref="460410346"/>
    <nd ref="244245033"/>
    <nd ref="244245034"/>
    <nd ref="566517226"/>
    <nd ref="1188840869"/>
    <nd ref="1188840829"/>
    <nd ref="244245201"/>
    <nd ref="1188840878"/>
    <nd ref="277099166"/>
    <nd ref="566512197"/>
    <nd ref="303940125"/>
    <nd ref="566512198"/>
    <nd ref="244245203"/>
    <nd ref="566512200"/>
    <nd ref="566512202"/>
    <nd ref="244245204"/>
    <nd ref="566509669"/>
    <nd ref="566509651"/>
    <nd ref="566509649"/>
    <nd ref="566509590"/>
    <nd ref="566509653"/>
    <nd ref="566509668"/>
    <nd ref="566512241"/>
    <tag k="highway" v="primary"/>
    <tag k="lanes" v="3"/>
    <tag k="maxspeed" v="80"/>
    <tag k="name" v="Plenty Road"/>
    <tag k="oneway" v="yes"/>
  </way>
  <way id="22758505" version="1" timestamp="2008-01-31T02:28:02Z" uid="7617" user="Franc" changeset="712886">
    <nd ref="244248896"/>
    <nd ref="244248897"/>
    <nd ref="244248898"/>
    <nd ref="244248899"/>
    <nd ref="244248900"/>
    <nd ref="244248901"/>
    <nd ref="244248902"/>
    <nd ref="244248903"/>
    <nd ref="244248896"/>
    <tag k="building" v="yes"/>
    <tag k="created_by" v="JOSM"/>
    <tag k="name" v="Water Storage"/>
  </way>
  <way id="22758505" version="2" timestamp="2012-03-08T05:58:43Z" uid="7523" user="inas" changeset="10906275">
    <nd ref="244248896"/>
    <nd ref="244248897"/>
    <nd ref="244248898"/>
    <nd ref="244248899"/>
    <nd ref="244248900"/>
    <nd ref="244248901"/>
    <nd ref="244248902"/>
    <nd ref="244248903"/>
    <nd ref="244248896"/>
    <tag k="building" v="yes"/>
    <tag k="name" v="Water Storage"/>
  </way>
  <way id="22758575" version="1" timestamp="2008-01-31T02:50:34Z" uid="7617" user="Franc" changeset="712886">
    <nd ref="244250303"/>
    <nd ref="244250304"/>
    <tag k="created_by" v="JOSM"/>
    <tag k="highway" v="service"/>
    <tag k="source" v="survey"/>
  </way>
  <way id="22758575" version="2" timestamp="2010-04-24T13:01:42Z" uid="7617" user="Franc" changeset="4511708">
    <nd ref="244250303"/>
    <nd ref="244250304"/>
    <tag k="highway" v="service"/>
    <tag k="nostreetsign" v="20100424"/>
    <tag k="source" v="survey"/>
  </way>
  <way id="22758575" version="3" timestamp="2010-04-25T09:53:26Z" uid="7617" user="Franc" changeset="4519201">
    <nd ref="244250303"/>
    <nd ref="244250304"/>
    <tag k="fixme:sign:no" v="2010-04-24"/>
    <tag k="highway" v="service"/>
    <tag k="source" v="survey"/>
  </way>
  <way id="22758575" version="4" timestamp="2010-10-23T04:17:18Z" uid="7617" user="Franc" changeset="6141998">
    <nd ref="961118127"/>
    <nd ref="244250304"/>
    <tag k="fixme:sign:no" v="2010-04-24"/>
    <tag k="highway" v="service"/>
    <tag k="source" v="survey"/>
  </way>
  <way id="22758575" version="5" timestamp="2012-03-22T23:27:58Z" uid="7523" user="inas" changeset="11069049">
    <nd ref="961118127"/>
    <nd ref="244250304"/>
    <nd ref="1686467371"/>
    <tag k="fixme:sign:no" v="2010-04-24"/>
    <tag k="highway" v="service"/>
    <tag k="source" v="survey"/>
  </way>
  <way id="22758740" version="3" timestamp="2008-09-16T10:45:56Z" uid="1066" user="pavel" changeset="646258">
    <nd ref="244252452"/>
    <nd ref="244252453"/>
    <nd ref="244252454"/>
    <nd ref="244252455"/>
    <nd ref="244252456"/>
    <nd ref="244252457"/>
    <tag k="created_by" v="Potlatch 0.8c"/>
    <tag k="highway" v="residential"/>
    <tag k="name" v="Žákovská"/>
    <tag k="name:source" v="nameit/uir-adr"/>
  </way>
  <way id="22758740" version="4" timestamp="2009-03-14T15:20:06Z" uid="3516" user="BiIbo" changeset="807112">
    <nd ref="244252452"/>
    <nd ref="244252453"/>
    <nd ref="244252454"/>
    <nd ref="244252455"/>
    <nd ref="244252456"/>
    <nd ref="244252457"/>
    <tag k="highway" v="residential"/>
    <tag k="name" v="Žákovská"/>
    <tag k="source:name" v="nameit/uir-adr"/>
  </way>
  <way id="22758740" version="5" timestamp="2009-03-21T20:05:36Z" uid="17615" user="Petr Dlouhý" changeset="840131">
    <nd ref="244252452"/>
    <nd ref="244252453"/>
    <nd ref="244252454"/>
    <tag k="highway" v="residential"/>
    <tag k="name" v="Žákovská"/>
    <tag k="source:name" v="nameit/uir-adr"/>
  </way>
  <way id="22758740" version="6" timestamp="2011-02-23T12:36:50Z" uid="248441" user="Jandrs" changeset="7372010">
    <nd ref="244252452"/>
    <nd ref="244252453"/>
    <nd ref="1168073743"/>
    <nd ref="244252454"/>
    <tag k="highway" v="residential"/>
    <tag k="name" v="Žákovská"/>
    <tag k="source:name" v="nameit/uir-adr"/>
  </way>
  <way id="22758740" version="7" timestamp="2011-09-04T18:22:57Z" uid="17615" user="Petr Dlouhý" changeset="9211268">
    <nd ref="244252452"/>
    <nd ref="1423289610"/>
    <nd ref="1423289606"/>
    <nd ref="244252453"/>
    <nd ref="1168073743"/>
    <nd ref="1423289604"/>
    <nd ref="244252454"/>
    <tag k="highway" v="residential"/>
    <tag k="name" v="Žákovská"/>
    <tag k="source:name" v="nameit/uir-adr"/>
  </way>
  <way id="22758741" version="2" timestamp="2008-09-16T10:42:27Z" uid="1066" user="pavel" changeset="646258">
    <nd ref="244252457"/>
    <nd ref="244252459"/>
    <nd ref="244252460"/>
    <nd ref="244252461"/>
    <nd ref="244252462"/>
    <nd ref="244252463"/>
    <nd ref="244252464"/>
    <tag k="created_by" v="JOSM"/>
    <tag k="highway" v="residential"/>
    <tag k="name" v="Květová"/>
    <tag k="name:source" v="nameit/uir-adr"/>
  </way>
  <way id="22758741" version="3" timestamp="2009-03-14T15:20:05Z" uid="3516" user="BiIbo" changeset="807112">
    <nd ref="244252457"/>
    <nd ref="244252459"/>
    <nd ref="244252460"/>
    <nd ref="244252461"/>
    <nd ref="244252462"/>
    <nd ref="244252463"/>
    <nd ref="244252464"/>
    <tag k="highway" v="residential"/>
    <tag k="name" v="Květová"/>
    <tag k="source:name" v="nameit/uir-adr"/>
  </way>
  <way id="22758741" version="4" timestamp="2009-05-10T18:15:42Z" uid="17615" user="Petr Dlouhý" changeset="1143045">
    <nd ref="244252457"/>
    <nd ref="244252459"/>
    <nd ref="244252460"/>
    <nd ref="244252461"/>
    <nd ref="244252462"/>
    <nd ref="244252463"/>
    <nd ref="393394612"/>
    <nd ref="244252464"/>
    <tag k="highway" v="residential"/>
    <tag k="name" v="Květová"/>
    <tag k="source:name" v="nameit/uir-adr"/>
  </way>
  <way id="22758741" version="5" timestamp="2011-03-06T17:44:32Z" uid="17615" user="Petr Dlouhý" changeset="7476214">
    <nd ref="244252457"/>
    <nd ref="1189580600"/>
    <nd ref="244252459"/>
    <nd ref="244252460"/>
    <nd ref="244252461"/>
    <nd ref="244252462"/>
    <nd ref="244252463"/>
    <nd ref="393394612"/>
    <nd ref="244252464"/>
    <tag k="highway" v="residential"/>
    <tag k="name" v="Květová"/>
    <tag k="source:name" v="nameit/uir-adr"/>
  </way>
  <way id="22758742" version="2" timestamp="2008-09-16T10:44:32Z" uid="1066" user="pavel" changeset="646258">
    <nd ref="244252456"/>
    <nd ref="244252465"/>
    <nd ref="244252466"/>
    <nd ref="244252467"/>
    <nd ref="244252468"/>
    <tag k="created_by" v="JOSM"/>
    <tag k="highway" v="residential"/>
    <tag k="name" v="Mateřská"/>
    <tag k="name:source" v="nameit/uir-adr"/>
  </way>
  <way id="22758742" version="3" timestamp="2009-03-14T15:20:05Z" uid="3516" user="BiIbo" changeset="807112">
    <nd ref="244252456"/>
    <nd ref="244252465"/>
    <nd ref="244252466"/>
    <nd ref="244252467"/>
    <nd ref="244252468"/>
    <tag k="highway" v="residential"/>
    <tag k="name" v="Mateřská"/>
    <tag k="source:name" v="nameit/uir-adr"/>
  </way>
  <way id="22758745" version="3" timestamp="2008-09-16T10:43:19Z" uid="1066" user="pavel" changeset="646258">
    <nd ref="244252319"/>
    <nd ref="244252481"/>
    <nd ref="288964390"/>
    <nd ref="244252482"/>
    <nd ref="244252483"/>
    <nd ref="244252484"/>
    <nd ref="244252485"/>
    <nd ref="244252486"/>
    <nd ref="244252487"/>
    <nd ref="244252488"/>
    <nd ref="288964395"/>
    <nd ref="244252489"/>
    <nd ref="288964394"/>
    <nd ref="244252491"/>
    <nd ref="244252329"/>
    <tag k="created_by" v="JOSM"/>
    <tag k="highway" v="residential"/>
    <tag k="name" v="Čábelecká"/>
    <tag k="name:source" v="nameit/uir-adr"/>
    <tag k="source" v="cuzk:km"/>
  </way>
  <way id="22758745" version="4" timestamp="2009-03-14T15:20:04Z" uid="3516" user="BiIbo" changeset="807112">
    <nd ref="244252319"/>
    <nd ref="244252481"/>
    <nd ref="288964390"/>
    <nd ref="244252482"/>
    <nd ref="244252483"/>
    <nd ref="244252484"/>
    <nd ref="244252485"/>
    <nd ref="244252486"/>
    <nd ref="244252487"/>
    <nd ref="244252488"/>
    <nd ref="288964395"/>
    <nd ref="244252489"/>
    <nd ref="288964394"/>
    <nd ref="244252491"/>
    <nd ref="244252329"/>
    <tag k="highway" v="residential"/>
    <tag k="name" v="Čábelecká"/>
    <tag k="source" v="cuzk:km"/>
    <tag k="source:name" v="nameit/uir-adr"/>
  </way>
  <way id="22758745" version="5" timestamp="2011-02-23T12:36:45Z" uid="248441" user="Jandrs" changeset="7372010">
    <nd ref="244252319"/>
    <nd ref="244252481"/>
    <nd ref="288964390"/>
    <nd ref="244252482"/>
    <nd ref="244252483"/>
    <nd ref="244252484"/>
    <nd ref="244252485"/>
    <nd ref="244252486"/>
    <nd ref="244252487"/>
    <nd ref="244252488"/>
    <nd ref="288964395"/>
    <nd ref="244252489"/>
    <nd ref="1168073748"/>
    <nd ref="288964394"/>
    <nd ref="244252491"/>
    <nd ref="244252329"/>
    <tag k="highway" v="residential"/>
    <tag k="name" v="Čábelecká"/>
    <tag k="source" v="cuzk:km"/>
    <tag k="source:name" v="nameit/uir-adr"/>
  </way>
  <way id="22758745" version="6" timestamp="2011-02-23T15:03:57Z" uid="248441" user="Jandrs" changeset="7373135">
    <nd ref="244252319"/>
    <nd ref="244252481"/>
    <nd ref="288964390"/>
    <nd ref="1168326898"/>
    <nd ref="244252482"/>
    <nd ref="244252483"/>
    <nd ref="244252484"/>
    <nd ref="244252485"/>
    <nd ref="244252486"/>
    <nd ref="244252487"/>
    <nd ref="244252488"/>
    <nd ref="288964395"/>
    <nd ref="244252489"/>
    <nd ref="1168073748"/>
    <nd ref="288964394"/>
    <nd ref="244252491"/>
    <nd ref="244252329"/>
    <tag k="highway" v="residential"/>
    <tag k="name" v="Čábelecká"/>
    <tag k="source" v="cuzk:km"/>
    <tag k="source:name" v="nameit/uir-adr"/>
  </way>
  <way id="22758745" version="7" timestamp="2011-03-06T17:43:56Z" uid="17615" user="Petr Dlouhý" changeset="7476214">
    <nd ref="244252319"/>
    <nd ref="244252481"/>
    <nd ref="288964390"/>
    <nd ref="1168326898"/>
    <nd ref="244252482"/>
    <nd ref="244252483"/>
    <nd ref="244252484"/>
    <nd ref="1189580115"/>
    <nd ref="244252485"/>
    <nd ref="1189580326"/>
    <nd ref="1189579954"/>
    <nd ref="244252486"/>
    <nd ref="244252487"/>
    <nd ref="244252488"/>
    <nd ref="288964395"/>
    <nd ref="244252489"/>
    <nd ref="1168073748"/>
    <nd ref="288964394"/>
    <nd ref="244252491"/>
    <nd ref="244252329"/>
    <tag k="highway" v="residential"/>
    <tag k="name" v="Čábelecká"/>
    <tag k="source" v="cuzk:km"/>
    <tag k="source:name" v="nameit/uir-adr"/>
  </way>
  <way id="22758746" version="2" timestamp="2008-09-16T10:45:25Z" uid="1066" user="pavel" changeset="646258">
    <nd ref="244252492"/>
    <nd ref="244252493"/>
    <tag k="created_by" v="JOSM"/>
    <tag k="highway" v="residential"/>
    <tag k="name" v="Kamýcká"/>
    <tag k="name:source" v="nameit/uir-adr"/>
  </way>
  <way id="22758746" version="3" timestamp="2009-03-14T15:20:03Z" uid="3516" user="BiIbo" changeset="807112">
    <nd ref="244252492"/>
    <nd ref="244252493"/>
    <tag k="highway" v="residential"/>
    <tag k="name" v="Kamýcká"/>
    <tag k="source:name" v="nameit/uir-adr"/>
  </way>
  <way id="22758746" version="4" timestamp="2010-05-20T04:06:29Z" uid="3516" user="BiIbo" changeset="4753228">
    <nd ref="244252492"/>
    <nd ref="740355162"/>
    <nd ref="244252493"/>
    <tag k="highway" v="residential"/>
    <tag k="name" v="Kamýcká"/>
    <tag k="source:name" v="nameit/uir-adr"/>
  </way>
  <way id="22758747" version="2" timestamp="2008-09-16T10:42:52Z" uid="1066" user="pavel" changeset="646258">
    <nd ref="244252493"/>
    <nd ref="244252494"/>
    <nd ref="244252496"/>
    <nd ref="244252495"/>
    <tag k="created_by" v="JOSM"/>
    <tag k="highway" v="residential"/>
    <tag k="name" v="Ke kladivům"/>
    <tag k="name:source" v="nameit/uir-adr"/>
  </way>
  <way id="22758747" version="3" timestamp="2009-02-23T17:14:53Z" uid="3516" user="BiIbo" changeset="633633">
    <nd ref="244252493"/>
    <nd ref="244252494"/>
    <nd ref="244252496"/>
    <nd ref="244252495"/>
    <tag k="created_by" v="JOSM"/>
    <tag k="highway" v="residential"/>
    <tag k="name" v="Ke Kladivům"/>
    <tag k="name:source" v="nameit/uir-adr"/>
  </way>
  <way id="22758747" version="4" timestamp="2009-03-06T18:57:42Z" uid="3516" user="BiIbo" changeset="744675">
    <nd ref="244252493"/>
    <nd ref="244252494"/>
    <nd ref="244252496"/>
    <nd ref="244252495"/>
    <tag k="highway" v="residential"/>
    <tag k="name" v="Ke Kladivům"/>
    <tag k="source:name" v="nameit/uir-adr"/>
  </way>
  <way id="22758747" version="5" timestamp="2010-05-20T04:06:28Z" uid="3516" user="BiIbo" changeset="4753228">
    <nd ref="244252493"/>
    <nd ref="244252494"/>
    <nd ref="244252496"/>
    <nd ref="740355194"/>
    <nd ref="244252495"/>
    <tag k="highway" v="residential"/>
    <tag k="name" v="Ke Kladivům"/>
    <tag k="source:name" v="nameit/uir-adr"/>
  </way>
  <way id="22758747" version="6" timestamp="2011-02-23T12:36:50Z" uid="248441" user="Jandrs" changeset="7372010">
    <nd ref="244252493"/>
    <nd ref="244252494"/>
    <nd ref="244252496"/>
    <nd ref="1168073746"/>
    <nd ref="740355194"/>
    <nd ref="244252495"/>
    <tag k="highway" v="residential"/>
    <tag k="name" v="Ke Kladivům"/>
    <tag k="source:name" v="nameit/uir-adr"/>
  </way>
  <way id="22758750" version="2" timestamp="2008-09-16T10:43:28Z" uid="1066" user="pavel" changeset="646258">
    <nd ref="244252343"/>
    <nd ref="244252537"/>
    <nd ref="244252538"/>
    <tag k="created_by" v="JOSM"/>
    <tag k="highway" v="residential"/>
    <tag k="name" v="Nad pramenem"/>
    <tag k="name:source" v="nameit/uir-adr"/>
  </way>
  <way id="22758750" version="3" timestamp="2009-02-23T17:14:52Z" uid="3516" user="BiIbo" changeset="633633">
    <nd ref="244252343"/>
    <nd ref="244252537"/>
    <nd ref="244252538"/>
    <tag k="created_by" v="JOSM"/>
    <tag k="highway" v="residential"/>
    <tag k="name" v="Nad Pramenem"/>
    <tag k="name:source" v="nameit/uir-adr"/>
  </way>
  <way id="22758750" version="4" timestamp="2009-03-14T15:20:02Z" uid="3516" user="BiIbo" changeset="807112">
    <nd ref="244252343"/>
    <nd ref="244252537"/>
    <nd ref="244252538"/>
    <tag k="highway" v="residential"/>
    <tag k="name" v="Nad Pramenem"/>
    <tag k="source:name" v="nameit/uir-adr"/>
  </way>
  <way id="22758750" version="5" timestamp="2009-05-10T18:15:42Z" uid="17615" user="Petr Dlouhý" changeset="1143045">
    <nd ref="244252343"/>
    <nd ref="393394571"/>
    <nd ref="244252537"/>
    <nd ref="244252538"/>
    <tag k="highway" v="residential"/>
    <tag k="name" v="Nad Pramenem"/>
    <tag k="source:name" v="nameit/uir-adr"/>
  </way>
  <way id="22758750" version="6" timestamp="2011-04-26T11:32:32Z" uid="248441" user="Jandrs" changeset="7973727">
    <nd ref="244252343"/>
    <nd ref="393394571"/>
    <tag k="highway" v="residential"/>
    <tag k="name" v="Nad Pramenem"/>
    <tag k="source:name" v="nameit/uir-adr"/>
  </way>
  <way id="22758750" version="7" timestamp="2011-09-04T18:22:44Z" uid="17615" user="Petr Dlouhý" changeset="9211268">
    <nd ref="244252343"/>
    <nd ref="1423289623"/>
    <nd ref="393394571"/>
    <tag k="highway" v="residential"/>
    <tag k="name" v="Nad Pramenem"/>
    <tag k="source:name" v="nameit/uir-adr"/>
  </way>
  <way id="22758751" version="2" timestamp="2008-09-16T10:42:46Z" uid="1066" user="pavel" changeset="646258">
    <nd ref="244252546"/>
    <nd ref="244252547"/>
    <nd ref="244252548"/>
    <nd ref="244252538"/>
    <tag k="created_by" v="JOSM"/>
    <tag k="highway" v="residential"/>
    <tag k="name" v="Nad pramenem"/>
    <tag k="name:source" v="nameit/uir-adr"/>
  </way>
  <way id="22758751" version="3" timestamp="2009-01-09T09:01:17Z" uid="17615" user="Petr Dlouhý" changeset="760998">
    <nd ref="244252543"/>
    <nd ref="244252544"/>
    <nd ref="244252545"/>
    <nd ref="244252546"/>
    <nd ref="244252547"/>
    <nd ref="244252548"/>
    <nd ref="244252538"/>
    <tag k="created_by" v="JOSM"/>
    <tag k="highway" v="residential"/>
    <tag k="name" v="Nad pramenem"/>
  </way>
  <way id="22758751" version="4" timestamp="2009-02-23T17:14:51Z" uid="3516" user="BiIbo" changeset="633633">
    <nd ref="244252543"/>
    <nd ref="244252544"/>
    <nd ref="244252545"/>
    <nd ref="244252546"/>
    <nd ref="244252547"/>
    <nd ref="244252548"/>
    <nd ref="244252538"/>
    <tag k="created_by" v="JOSM"/>
    <tag k="highway" v="residential"/>
    <tag k="name" v="Nad Pramenem"/>
  </way>
  <way id="22758751" version="5" timestamp="2011-02-23T14:44:50Z" uid="248441" user="Jandrs" changeset="7372953">
    <nd ref="244252543"/>
    <nd ref="1168301452"/>
    <nd ref="244252544"/>
    <nd ref="1168301336"/>
    <nd ref="244252545"/>
    <nd ref="1168301483"/>
    <nd ref="244252546"/>
    <nd ref="1168301610"/>
    <nd ref="244252547"/>
    <nd ref="1168301738"/>
    <nd ref="1168301380"/>
    <nd ref="244252548"/>
    <nd ref="1168301670"/>
    <nd ref="244252538"/>
    <tag k="highway" v="residential"/>
    <tag k="name" v="Nad Pramenem"/>
  </way>
  <way id="22758752" version="2" timestamp="2008-09-16T10:45:03Z" uid="1066" user="pavel" changeset="646258">
    <nd ref="244252538"/>
    <nd ref="244252549"/>
    <nd ref="244252539"/>
    <tag k="created_by" v="JOSM"/>
    <tag k="highway" v="residential"/>
    <tag k="name" v="Dolina"/>
    <tag k="name:source" v="nameit/uir-adr"/>
  </way>
  <way id="22758752" version="3" timestamp="2009-03-14T15:20:08Z" uid="3516" user="BiIbo" changeset="807112">
    <nd ref="244252538"/>
    <nd ref="244252549"/>
    <nd ref="244252539"/>
    <tag k="highway" v="residential"/>
    <tag k="name" v="Dolina"/>
    <tag k="source:name" v="nameit/uir-adr"/>
  </way>
  <way id="22758752" version="4" timestamp="2011-02-23T14:45:00Z" uid="248441" user="Jandrs" changeset="7372953">
    <nd ref="244252538"/>
    <nd ref="1168301639"/>
    <nd ref="244252549"/>
    <nd ref="1168301521"/>
    <nd ref="244252539"/>
    <tag k="highway" v="residential"/>
    <tag k="name" v="Dolina"/>
    <tag k="source:name" v="nameit/uir-adr"/>
  </way>
  <way id="22758752" version="5" timestamp="2011-04-26T11:32:33Z" uid="248441" user="Jandrs" changeset="7973727">
    <nd ref="244252538"/>
    <nd ref="1260643925"/>
    <tag k="highway" v="residential"/>
    <tag k="name" v="Dolina"/>
    <tag k="source:name" v="nameit/uir-adr"/>
  </way>
  <way id="22758754" version="2" timestamp="2008-09-16T10:43:40Z" uid="1066" user="pavel" changeset="646258">
    <nd ref="244252543"/>
    <nd ref="244252544"/>
    <nd ref="244252545"/>
    <nd ref="244252546"/>
    <nd ref="244252539"/>
    <tag k="created_by" v="JOSM"/>
    <tag k="highway" v="residential"/>
    <tag k="name" v="Dolina"/>
    <tag k="name:source" v="nameit/uir-adr"/>
  </way>
  <way id="22758754" version="3" timestamp="2009-01-09T09:01:17Z" uid="17615" user="Petr Dlouhý" changeset="760998"/>
  <way id="22758755" version="2" timestamp="2008-09-16T10:42:44Z" uid="1066" user="pavel" changeset="646258">
    <nd ref="32346437"/>
    <nd ref="244252550"/>
    <nd ref="244252551"/>
    <nd ref="244252552"/>
    <nd ref="244252553"/>
    <nd ref="244252554"/>
    <nd ref="244252555"/>
    <nd ref="244252556"/>
    <nd ref="244252557"/>
    <nd ref="244252558"/>
    <nd ref="244252559"/>
    <nd ref="244252560"/>
    <nd ref="244252561"/>
    <nd ref="244252562"/>
    <nd ref="244252563"/>
    <tag k="created_by" v="JOSM"/>
    <tag k="highway" v="residential"/>
    <tag k="name" v="V údolí"/>
    <tag k="name:source" v="nameit/uir-adr"/>
  </way>
  <way id="22758755" version="3" timestamp="2009-02-23T16:25:51Z" uid="3516" user="BiIbo" changeset="633633">
    <nd ref="32346437"/>
    <nd ref="244252550"/>
    <nd ref="244252551"/>
    <nd ref="244252552"/>
    <nd ref="244252553"/>
    <nd ref="244252554"/>
    <nd ref="244252555"/>
    <nd ref="244252556"/>
    <nd ref="244252557"/>
    <nd ref="244252558"/>
    <nd ref="244252559"/>
    <nd ref="244252560"/>
    <nd ref="244252561"/>
    <nd ref="244252562"/>
    <nd ref="244252563"/>
    <tag k="created_by" v="JOSM"/>
    <tag k="highway" v="residential"/>
    <tag k="name" v="V Údolí"/>
    <tag k="name:source" v="nameit/uir-adr"/>
  </way>
  <way id="22758755" version="4" timestamp="2009-02-23T17:03:38Z" uid="3516" user="BiIbo" changeset="633633">
    <nd ref="32346437"/>
    <nd ref="244252550"/>
    <nd ref="244252551"/>
    <nd ref="244252552"/>
    <nd ref="244252553"/>
    <nd ref="340158383"/>
    <nd ref="340158382"/>
    <nd ref="340158381"/>
    <nd ref="340158380"/>
    <nd ref="340158379"/>
    <nd ref="125813530"/>
    <tag k="created_by" v="JOSM"/>
    <tag k="highway" v="residential"/>
    <tag k="name" v="Pod Rybníčkem"/>
    <tag k="name:source" v="nameit/uir-adr"/>
  </way>
  <way id="22758755" version="5" timestamp="2009-03-06T18:57:46Z" uid="3516" user="BiIbo" changeset="744675">
    <nd ref="32346437"/>
    <nd ref="244252550"/>
    <nd ref="244252551"/>
    <nd ref="244252552"/>
    <nd ref="244252553"/>
    <nd ref="340158383"/>
    <nd ref="340158382"/>
    <nd ref="340158381"/>
    <nd ref="340158380"/>
    <nd ref="340158379"/>
    <nd ref="125813530"/>
    <tag k="highway" v="residential"/>
    <tag k="name" v="Pod Rybníčkem"/>
    <tag k="source:name" v="nameit/uir-adr"/>
  </way>
  <way id="22758755" version="6" timestamp="2011-03-30T11:02:26Z" uid="248441" user="Jandrs" changeset="7714994">
    <nd ref="32346437"/>
    <nd ref="244252550"/>
    <nd ref="244252551"/>
    <nd ref="244252552"/>
    <nd ref="244252553"/>
    <nd ref="340158383"/>
    <nd ref="340158382"/>
    <nd ref="340158381"/>
    <nd ref="340158380"/>
    <nd ref="340158379"/>
    <nd ref="125813530"/>
    <tag k="highway" v="tertiary"/>
    <tag k="name" v="Pod Rybníčkem"/>
    <tag k="source:name" v="nameit/uir-adr"/>
  </way>
  <way id="22758755" version="7" timestamp="2011-05-26T13:15:24Z" uid="17615" user="Petr Dlouhý" changeset="8253488">
    <nd ref="32346437"/>
    <nd ref="244252550"/>
    <nd ref="244252551"/>
    <nd ref="244252552"/>
    <nd ref="244252553"/>
    <nd ref="1300683476"/>
    <nd ref="1300683025"/>
    <nd ref="340158383"/>
    <nd ref="340158382"/>
    <nd ref="340158381"/>
    <nd ref="340158380"/>
    <nd ref="340158379"/>
    <nd ref="125813530"/>
    <tag k="highway" v="tertiary"/>
    <tag k="name" v="Pod Rybníčkem"/>
    <tag k="source:name" v="nameit/uir-adr"/>
  </way>
  <way id="22758784" version="4" timestamp="2008-09-16T10:42:09Z" uid="1066" user="pavel" changeset="646258">
    <nd ref="244253172"/>
    <nd ref="244253173"/>
    <nd ref="285371020"/>
    <nd ref="244253174"/>
    <tag k="created_by" v="Potlatch 0.10b"/>
    <tag k="highway" v="residential"/>
    <tag k="name" v="Dopraváků"/>
    <tag k="name:source" v="nameit/uir-adr"/>
  </way>
  <way id="22758784" version="5" timestamp="2008-12-23T13:10:48Z" uid="8007" user="vrabcak" changeset="564854">
    <nd ref="244253172"/>
    <nd ref="321236099"/>
    <nd ref="244253173"/>
    <nd ref="285371020"/>
    <nd ref="244253174"/>
    <tag k="created_by" v="Potlatch 0.10b"/>
    <tag k="highway" v="residential"/>
    <tag k="name" v="Dopraváků"/>
    <tag k="name:source" v="nameit/uir-adr"/>
  </way>
  <way id="22758784" version="6" timestamp="2009-03-13T23:52:05Z" uid="3516" user="BiIbo" changeset="803821">
    <nd ref="244253172"/>
    <nd ref="321236099"/>
    <nd ref="244253173"/>
    <nd ref="285371020"/>
    <nd ref="244253174"/>
    <tag k="highway" v="residential"/>
    <tag k="name" v="Dopraváků"/>
    <tag k="source:name" v="nameit/uir-adr"/>
  </way>
  <way id="22758784" version="7" timestamp="2011-05-23T16:55:53Z" uid="3516" user="BiIbo" changeset="8225819">
    <nd ref="244253172"/>
    <nd ref="321236099"/>
    <nd ref="1297451965"/>
    <nd ref="244253173"/>
    <nd ref="285371020"/>
    <nd ref="244253174"/>
    <tag k="highway" v="residential"/>
    <tag k="name" v="Dopraváků"/>
    <tag k="source:name" v="nameit/uir-adr"/>
  </way>
  <way id="22758784" version="8" timestamp="2011-05-23T17:06:43Z" uid="3516" user="BiIbo" changeset="8225819">
    <nd ref="244253172"/>
    <nd ref="321236099"/>
    <nd ref="895757078"/>
    <nd ref="1297458030"/>
    <nd ref="1297451965"/>
    <nd ref="244253173"/>
    <nd ref="1297458031"/>
    <nd ref="285371020"/>
    <nd ref="244253174"/>
    <tag k="highway" v="residential"/>
    <tag k="name" v="Dopraváků"/>
    <tag k="source:name" v="nameit/uir-adr"/>
  </way>
  <way id="22758784" version="9" timestamp="2011-05-23T17:12:26Z" uid="3516" user="BiIbo" changeset="8225819">
    <nd ref="244253172"/>
    <nd ref="321236099"/>
    <nd ref="895757078"/>
    <nd ref="1297458030"/>
    <nd ref="1297460310"/>
    <nd ref="1297451965"/>
    <nd ref="244253173"/>
    <nd ref="1297458031"/>
    <nd ref="285371020"/>
    <nd ref="1297460306"/>
    <nd ref="244253174"/>
    <tag k="highway" v="residential"/>
    <tag k="name" v="Dopraváků"/>
    <tag k="source:name" v="nameit/uir-adr"/>
  </way>
  <way id="22758784" version="10" timestamp="2011-12-29T19:30:17Z" uid="527259" user="Vratislav Filler" changeset="10238850">
    <nd ref="244253172"/>
    <nd ref="321236099"/>
    <nd ref="1568019539"/>
    <nd ref="895757078"/>
    <nd ref="1297458030"/>
    <nd ref="1297460310"/>
    <nd ref="1297451965"/>
    <nd ref="244253173"/>
    <nd ref="1297458031"/>
    <nd ref="285371020"/>
    <nd ref="1297460306"/>
    <nd ref="244253174"/>
    <tag k="highway" v="residential"/>
    <tag k="name" v="Dopraváků"/>
    <tag k="source:name" v="nameit/uir-adr"/>
  </way>
  <way id="22758786" version="2" timestamp="2008-09-16T10:43:01Z" uid="1066" user="pavel" changeset="646258">
    <nd ref="244253168"/>
    <nd ref="244253188"/>
    <nd ref="244253190"/>
    <nd ref="244253175"/>
    <tag k="created_by" v="JOSM"/>
    <tag k="highway" v="residential"/>
    <tag k="name" v="Pešinova"/>
    <tag k="name:source" v="nameit/uir-adr"/>
  </way>
  <way id="22758786" version="3" timestamp="2009-03-13T23:52:03Z" uid="3516" user="BiIbo" changeset="803821">
    <nd ref="244253168"/>
    <nd ref="244253188"/>
    <nd ref="244253190"/>
    <nd ref="244253175"/>
    <tag k="highway" v="residential"/>
    <tag k="name" v="Pešinova"/>
    <tag k="source:name" v="nameit/uir-adr"/>
  </way>
  <way id="22758786" version="4" timestamp="2011-05-15T19:29:42Z" uid="3516" user="BiIbo" changeset="8151921">
    <nd ref="244253168"/>
    <nd ref="1286815212"/>
    <nd ref="244253188"/>
    <nd ref="244253190"/>
    <nd ref="1286814957"/>
    <nd ref="244253175"/>
    <tag k="highway" v="residential"/>
    <tag k="name" v="Pešinova"/>
    <tag k="source:name" v="nameit/uir-adr"/>
  </way>
  <way id="22758787" version="2" timestamp="2008-09-16T10:45:28Z" uid="1066" user="pavel" changeset="646258">
    <nd ref="25986203"/>
    <nd ref="244253179"/>
    <tag k="created_by" v="JOSM"/>
    <tag k="highway" v="residential"/>
    <tag k="name" v="Na hranicích"/>
    <tag k="name:source" v="nameit/uir-adr"/>
  </way>
  <way id="22758787" version="3" timestamp="2008-10-06T14:43:50Z" uid="3516" user="BiIbo" changeset="99816">
    <nd ref="25986203"/>
    <nd ref="296962703"/>
    <nd ref="244253179"/>
    <tag k="created_by" v="JOSM"/>
    <tag k="highway" v="residential"/>
    <tag k="name" v="Na hranicích"/>
    <tag k="name:source" v="nameit/uir-adr"/>
  </way>
  <way id="22758787" version="4" timestamp="2009-03-13T23:52:03Z" uid="3516" user="BiIbo" changeset="803821">
    <nd ref="25986203"/>
    <nd ref="296962703"/>
    <nd ref="244253179"/>
    <tag k="highway" v="residential"/>
    <tag k="name" v="Na Hranicích"/>
    <tag k="source:name" v="nameit/uir-adr"/>
  </way>
  <way id="22758787" version="5" timestamp="2011-05-15T18:13:36Z" uid="3516" user="BiIbo" changeset="8151921">
    <nd ref="25986203"/>
    <nd ref="1286726641"/>
    <nd ref="1286726660"/>
    <nd ref="1286726679"/>
    <nd ref="1286726827"/>
    <nd ref="1286726694"/>
    <nd ref="296962703"/>
    <nd ref="244253179"/>
    <tag k="highway" v="residential"/>
    <tag k="name" v="Na Hranicích"/>
    <tag k="source:name" v="nameit/uir-adr"/>
  </way>
  <way id="22758787" version="6" timestamp="2011-05-15T19:59:56Z" uid="3516" user="BiIbo" changeset="8151921">
    <nd ref="25986203"/>
    <nd ref="1286726641"/>
    <nd ref="1286726660"/>
    <nd ref="1286726679"/>
    <nd ref="1286726827"/>
    <nd ref="1286726694"/>
    <nd ref="1286847411"/>
    <nd ref="296962703"/>
    <nd ref="244253179"/>
    <tag k="highway" v="residential"/>
    <tag k="name" v="Na Hranicích"/>
    <tag k="source:name" v="nameit/uir-adr"/>
  </way>
  <way id="22758788" version="3" timestamp="2008-09-16T10:43:37Z" uid="1066" user="pavel" changeset="646258">
    <nd ref="244253175"/>
    <nd ref="287821678"/>
    <nd ref="244253181"/>
    <nd ref="244253183"/>
    <nd ref="244253176"/>
    <tag k="created_by" v="Potlatch 0.10b"/>
    <tag k="highway" v="residential"/>
    <tag k="name" v="Rousovická"/>
    <tag k="name:source" v="nameit/uir-adr"/>
  </way>
  <way id="22758788" version="4" timestamp="2008-10-06T14:43:50Z" uid="3516" user="BiIbo" changeset="99816">
    <nd ref="244253175"/>
    <nd ref="287821678"/>
    <nd ref="244253181"/>
    <nd ref="244253183"/>
    <nd ref="296962704"/>
    <nd ref="244253176"/>
    <tag k="created_by" v="Potlatch 0.10b"/>
    <tag k="highway" v="residential"/>
    <tag k="name" v="Rousovická"/>
    <tag k="name:source" v="nameit/uir-adr"/>
  </way>
  <way id="22758788" version="5" timestamp="2009-03-13T23:52:07Z" uid="3516" user="BiIbo" changeset="803821">
    <nd ref="244253175"/>
    <nd ref="287821678"/>
    <nd ref="244253181"/>
    <nd ref="244253183"/>
    <nd ref="296962704"/>
    <nd ref="244253176"/>
    <tag k="highway" v="residential"/>
    <tag k="name" v="Rousovická"/>
    <tag k="source:name" v="nameit/uir-adr"/>
  </way>
  <way id="22758788" version="6" timestamp="2011-05-15T17:49:49Z" uid="3516" user="BiIbo" changeset="8151921">
    <nd ref="244253175"/>
    <nd ref="287821678"/>
    <nd ref="1286696842"/>
    <nd ref="244253181"/>
    <nd ref="244253183"/>
    <nd ref="296962704"/>
    <nd ref="244253176"/>
    <tag k="highway" v="residential"/>
    <tag k="name" v="Rousovická"/>
    <tag k="source:name" v="nameit/uir-adr"/>
  </way>
  <way id="22758788" version="7" timestamp="2011-05-15T18:13:47Z" uid="3516" user="BiIbo" changeset="8151921">
    <nd ref="244253175"/>
    <nd ref="287821678"/>
    <nd ref="1286696842"/>
    <nd ref="1286726665"/>
    <nd ref="244253181"/>
    <nd ref="244253183"/>
    <nd ref="296962704"/>
    <nd ref="244253176"/>
    <tag k="highway" v="residential"/>
    <tag k="name" v="Rousovická"/>
    <tag k="source:name" v="nameit/uir-adr"/>
  </way>
  <way id="22758788" version="8" timestamp="2011-05-15T19:29:57Z" uid="3516" user="BiIbo" changeset="8151921">
    <nd ref="244253175"/>
    <nd ref="1286815419"/>
    <nd ref="287821678"/>
    <nd ref="1286696842"/>
    <nd ref="1286726665"/>
    <nd ref="244253181"/>
    <nd ref="244253183"/>
    <nd ref="296962704"/>
    <nd ref="244253176"/>
    <tag k="highway" v="residential"/>
    <tag k="name" v="Rousovická"/>
    <tag k="source:name" v="nameit/uir-adr"/>
  </way>
  <way id="22758789" version="3" timestamp="2008-09-16T10:44:48Z" uid="1066" user="pavel" changeset="646258">
    <nd ref="244253176"/>
    <nd ref="285399370"/>
    <nd ref="244253177"/>
    <tag k="created_by" v="Potlatch 0.10b"/>
    <tag k="highway" v="residential"/>
    <tag k="name" v="Řepínská"/>
    <tag k="name:source" v="nameit/uir-adr"/>
  </way>
  <way id="22758789" version="4" timestamp="2009-03-13T23:52:06Z" uid="3516" user="BiIbo" changeset="803821">
    <nd ref="244253176"/>
    <nd ref="285399370"/>
    <nd ref="244253177"/>
    <tag k="highway" v="residential"/>
    <tag k="name" v="Řepínská"/>
    <tag k="source:name" v="nameit/uir-adr"/>
  </way>
  <way id="22758790" version="2" timestamp="2008-09-16T10:42:37Z" uid="1066" user="pavel" changeset="646258">
    <nd ref="244253177"/>
    <nd ref="244253178"/>
    <tag k="created_by" v="JOSM"/>
    <tag k="highway" v="residential"/>
    <tag k="name" v="Pod Čimickým hájem"/>
    <tag k="name:source" v="nameit/uir-adr"/>
  </way>
  <way id="22758790" version="3" timestamp="2009-03-13T23:52:06Z" uid="3516" user="BiIbo" changeset="803821">
    <nd ref="244253177"/>
    <nd ref="244253178"/>
    <tag k="highway" v="residential"/>
    <tag k="name" v="Pod Čimickým hájem"/>
    <tag k="source:name" v="nameit/uir-adr"/>
  </way>
  <way id="22758790" version="4" timestamp="2010-11-14T22:26:13Z" uid="23543" user="jkjk" changeset="6371899">
    <nd ref="244253177"/>
    <nd ref="989381288"/>
    <nd ref="244253178"/>
    <tag k="highway" v="residential"/>
    <tag k="name" v="Pod Čimickým hájem"/>
    <tag k="source:name" v="nameit/uir-adr"/>
  </way>
  <way id="22758790" version="5" timestamp="2011-05-23T03:24:24Z" uid="3516" user="BiIbo" changeset="8222560">
    <nd ref="244253177"/>
    <nd ref="1296933235"/>
    <nd ref="1296933225"/>
    <nd ref="1296933133"/>
    <nd ref="989381288"/>
    <nd ref="244253178"/>
    <tag k="highway" v="residential"/>
    <tag k="name" v="Pod Čimickým hájem"/>
    <tag k="source:name" v="nameit/uir-adr"/>
  </way>
  <way id="22758791" version="2" timestamp="2008-09-16T10:44:43Z" uid="1066" user="pavel" changeset="646258">
    <nd ref="244253179"/>
    <nd ref="244253194"/>
    <nd ref="244253184"/>
    <nd ref="244253164"/>
    <tag k="created_by" v="JOSM"/>
    <tag k="highway" v="residential"/>
    <tag k="name" v="Přívorská"/>
    <tag k="name:source" v="nameit/uir-adr"/>
  </way>
  <way id="22758791" version="3" timestamp="2009-03-13T23:52:05Z" uid="3516" user="BiIbo" changeset="803821">
    <nd ref="244253179"/>
    <nd ref="244253194"/>
    <nd ref="244253184"/>
    <nd ref="244253164"/>
    <tag k="highway" v="residential"/>
    <tag k="name" v="Přívorská"/>
    <tag k="source:name" v="nameit/uir-adr"/>
  </way>
  <way id="22758791" version="4" timestamp="2011-05-15T18:13:40Z" uid="3516" user="BiIbo" changeset="8151921">
    <nd ref="244253179"/>
    <nd ref="1286726834"/>
    <nd ref="244253194"/>
    <nd ref="244253184"/>
    <nd ref="244253164"/>
    <tag k="highway" v="residential"/>
    <tag k="name" v="Přívorská"/>
    <tag k="source:name" v="nameit/uir-adr"/>
  </way>
  <way id="22758791" version="5" timestamp="2011-05-15T19:29:46Z" uid="3516" user="BiIbo" changeset="8151921">
    <nd ref="244253179"/>
    <nd ref="1286726834"/>
    <nd ref="244253194"/>
    <nd ref="244253184"/>
    <nd ref="1286815161"/>
    <nd ref="244253164"/>
    <tag k="highway" v="residential"/>
    <tag k="name" v="Přívorská"/>
    <tag k="source:name" v="nameit/uir-adr"/>
  </way>
  <way id="22758792" version="2" timestamp="2008-09-16T10:42:19Z" uid="1066" user="pavel" changeset="646258">
    <nd ref="244253179"/>
    <nd ref="244253193"/>
    <nd ref="244253182"/>
    <nd ref="244253180"/>
    <tag k="created_by" v="JOSM"/>
    <tag k="highway" v="residential"/>
    <tag k="name" v="Na hranicích"/>
    <tag k="name:source" v="nameit/uir-adr"/>
  </way>
  <way id="22758792" version="3" timestamp="2009-03-13T23:52:14Z" uid="3516" user="BiIbo" changeset="803821">
    <nd ref="244253179"/>
    <nd ref="244253193"/>
    <nd ref="244253182"/>
    <nd ref="244253180"/>
    <tag k="highway" v="residential"/>
    <tag k="name" v="Na Hranicích"/>
    <tag k="source:name" v="nameit/uir-adr"/>
  </way>
  <way id="22758792" version="4" timestamp="2011-05-15T22:00:37Z" uid="3516" user="BiIbo" changeset="8151921">
    <nd ref="244253179"/>
    <nd ref="1286955144"/>
    <nd ref="244253193"/>
    <nd ref="1286955146"/>
    <nd ref="244253182"/>
    <nd ref="244253180"/>
    <tag k="highway" v="residential"/>
    <tag k="name" v="Na Hranicích"/>
    <tag k="source:name" v="nameit/uir-adr"/>
  </way>
  <way id="22758793" version="2" timestamp="2008-09-16T10:44:59Z" uid="1066" user="pavel" changeset="646258">
    <nd ref="244253165"/>
    <nd ref="244253185"/>
    <nd ref="244253180"/>
    <nd ref="244253191"/>
    <nd ref="244253181"/>
    <tag k="created_by" v="JOSM"/>
    <tag k="highway" v="residential"/>
    <tag k="name" v="Kočova"/>
    <tag k="name:source" v="nameit/uir-adr"/>
  </way>
  <way id="22758793" version="3" timestamp="2009-03-13T23:52:13Z" uid="3516" user="BiIbo" changeset="803821">
    <nd ref="244253165"/>
    <nd ref="244253185"/>
    <nd ref="244253180"/>
    <nd ref="244253191"/>
    <nd ref="244253181"/>
    <tag k="highway" v="residential"/>
    <tag k="name" v="Kočova"/>
    <tag k="source:name" v="nameit/uir-adr"/>
  </way>
  <way id="22758793" version="4" timestamp="2011-05-15T19:29:53Z" uid="3516" user="BiIbo" changeset="8151921">
    <nd ref="244253165"/>
    <nd ref="1286815057"/>
    <nd ref="244253185"/>
    <nd ref="244253180"/>
    <nd ref="244253191"/>
    <nd ref="244253181"/>
    <tag k="highway" v="residential"/>
    <tag k="name" v="Kočova"/>
    <tag k="source:name" v="nameit/uir-adr"/>
  </way>
  <way id="22758794" version="2" timestamp="2008-09-16T10:42:50Z" uid="1066" user="pavel" changeset="646258">
    <nd ref="244253182"/>
    <nd ref="244253183"/>
    <tag k="created_by" v="JOSM"/>
    <tag k="highway" v="residential"/>
    <tag k="name" v="Jestřebická"/>
    <tag k="name:source" v="nameit/uir-adr"/>
  </way>
  <way id="22758794" version="3" timestamp="2009-03-13T23:52:13Z" uid="3516" user="BiIbo" changeset="803821">
    <nd ref="244253182"/>
    <nd ref="244253183"/>
    <tag k="highway" v="residential"/>
    <tag k="name" v="Jestřebická"/>
    <tag k="source:name" v="nameit/uir-adr"/>
  </way>
  <way id="22758795" version="2" timestamp="2008-09-16T10:44:33Z" uid="1066" user="pavel" changeset="646258">
    <nd ref="244253184"/>
    <nd ref="244253192"/>
    <nd ref="244253185"/>
    <nd ref="244253186"/>
    <nd ref="244253187"/>
    <nd ref="244253188"/>
    <tag k="created_by" v="JOSM"/>
    <tag k="highway" v="residential"/>
    <tag k="name" v="Přívorská"/>
    <tag k="name:source" v="nameit/uir-adr"/>
  </way>
  <way id="22758795" version="3" timestamp="2009-03-13T23:52:11Z" uid="3516" user="BiIbo" changeset="803821">
    <nd ref="244253184"/>
    <nd ref="244253192"/>
    <nd ref="244253185"/>
    <nd ref="244253186"/>
    <nd ref="244253187"/>
    <nd ref="244253188"/>
    <tag k="highway" v="residential"/>
    <tag k="name" v="Přívorská"/>
    <tag k="source:name" v="nameit/uir-adr"/>
  </way>
  <way id="22758795" version="4" timestamp="2011-05-15T18:13:51Z" uid="3516" user="BiIbo" changeset="8151921">
    <nd ref="244253184"/>
    <nd ref="1286726784"/>
    <nd ref="244253192"/>
    <nd ref="244253185"/>
    <nd ref="244253186"/>
    <nd ref="244253187"/>
    <nd ref="244253188"/>
    <tag k="highway" v="residential"/>
    <tag k="name" v="Přívorská"/>
    <tag k="source:name" v="nameit/uir-adr"/>
  </way>
  <way id="22758796" version="2" timestamp="2008-09-16T10:42:36Z" uid="1066" user="pavel" changeset="646258">
    <nd ref="244253187"/>
    <nd ref="244253189"/>
    <tag k="created_by" v="JOSM"/>
    <tag k="highway" v="residential"/>
    <tag k="name" v="Hanzlíkova"/>
    <tag k="name:source" v="nameit/uir-adr"/>
  </way>
  <way id="22758796" version="3" timestamp="2009-03-13T23:52:15Z" uid="3516" user="BiIbo" changeset="803821">
    <nd ref="244253187"/>
    <nd ref="244253189"/>
    <tag k="highway" v="residential"/>
    <tag k="name" v="Hanzlíkova"/>
    <tag k="source:name" v="nameit/uir-adr"/>
  </way>
  <way id="22758797" version="2" timestamp="2008-09-16T10:44:24Z" uid="1066" user="pavel" changeset="646258">
    <nd ref="244253190"/>
    <nd ref="244253189"/>
    <nd ref="244253191"/>
    <tag k="created_by" v="JOSM"/>
    <tag k="highway" v="residential"/>
    <tag k="name" v="Skálova"/>
    <tag k="name:source" v="nameit/uir-adr"/>
  </way>
  <way id="22758797" version="3" timestamp="2009-03-13T23:52:14Z" uid="3516" user="BiIbo" changeset="803821">
    <nd ref="244253190"/>
    <nd ref="244253189"/>
    <nd ref="244253191"/>
    <tag k="highway" v="residential"/>
    <tag k="name" v="Skálova"/>
    <tag k="source:name" v="nameit/uir-adr"/>
  </way>
  <way id="22758797" version="4" timestamp="2011-05-15T18:13:44Z" uid="3516" user="BiIbo" changeset="8151921">
    <nd ref="244253190"/>
    <nd ref="1286726792"/>
    <nd ref="244253189"/>
    <nd ref="1286726802"/>
    <nd ref="244253191"/>
    <tag k="highway" v="residential"/>
    <tag k="name" v="Skálova"/>
    <tag k="source:name" v="nameit/uir-adr"/>
  </way>
  <way id="22758798" version="2" timestamp="2008-09-16T10:42:22Z" uid="1066" user="pavel" changeset="646258">
    <nd ref="244253192"/>
    <nd ref="244253193"/>
    <tag k="created_by" v="JOSM"/>
    <tag k="highway" v="residential"/>
    <tag k="name" v="Minická"/>
    <tag k="name:source" v="nameit/uir-adr"/>
  </way>
  <way id="22758798" version="3" timestamp="2009-03-13T23:52:14Z" uid="3516" user="BiIbo" changeset="803821">
    <nd ref="244253192"/>
    <nd ref="244253193"/>
    <tag k="highway" v="residential"/>
    <tag k="name" v="Minická"/>
    <tag k="source:name" v="nameit/uir-adr"/>
  </way>
  <way id="22758798" version="4" timestamp="2011-05-15T22:00:38Z" uid="3516" user="BiIbo" changeset="8151921">
    <nd ref="244253192"/>
    <nd ref="1286955145"/>
    <tag k="highway" v="residential"/>
    <tag k="name" v="Minická"/>
    <tag k="source:name" v="nameit/uir-adr"/>
  </way>
  <way id="22758799" version="2" timestamp="2008-09-16T10:44:28Z" uid="1066" user="pavel" changeset="646258">
    <nd ref="244253194"/>
    <nd ref="244253195"/>
    <nd ref="244253196"/>
    <nd ref="244253197"/>
    <nd ref="244253198"/>
    <tag k="created_by" v="JOSM"/>
    <tag k="highway" v="residential"/>
    <tag k="name" v="Chvatěrubská"/>
    <tag k="name:source" v="nameit/uir-adr"/>
  </way>
  <way id="22758799" version="3" timestamp="2009-03-13T23:52:14Z" uid="3516" user="BiIbo" changeset="803821">
    <nd ref="244253194"/>
    <nd ref="244253195"/>
    <nd ref="244253196"/>
    <nd ref="244253197"/>
    <nd ref="244253198"/>
    <tag k="highway" v="residential"/>
    <tag k="name" v="Chvatěrubská"/>
    <tag k="source:name" v="nameit/uir-adr"/>
  </way>
  <way id="22758799" version="4" timestamp="2011-05-15T17:49:45Z" uid="3516" user="BiIbo" changeset="8151921">
    <nd ref="244253194"/>
    <nd ref="1286696830"/>
    <nd ref="244253195"/>
    <nd ref="1286696853"/>
    <nd ref="244253196"/>
    <nd ref="1286696866"/>
    <nd ref="244253197"/>
    <nd ref="1286696888"/>
    <nd ref="244253198"/>
    <tag k="highway" v="residential"/>
    <tag k="name" v="Chvatěrubská"/>
    <tag k="source:name" v="nameit/uir-adr"/>
  </way>
  <way id="22758799" version="5" timestamp="2011-05-15T18:13:33Z" uid="3516" user="BiIbo" changeset="8151921">
    <nd ref="244253194"/>
    <nd ref="1286696830"/>
    <nd ref="244253195"/>
    <nd ref="1286696853"/>
    <nd ref="1286726643"/>
    <nd ref="244253196"/>
    <nd ref="1286696866"/>
    <nd ref="1286726846"/>
    <nd ref="244253197"/>
    <nd ref="1286696888"/>
    <nd ref="1286726770"/>
    <nd ref="244253198"/>
    <tag k="highway" v="residential"/>
    <tag k="name" v="Chvatěrubská"/>
    <tag k="source:name" v="nameit/uir-adr"/>
  </way>
  <way id="22758801" version="2" timestamp="2008-09-16T10:44:09Z" uid="1066" user="pavel" changeset="646258">
    <nd ref="244253199"/>
    <nd ref="244253200"/>
    <nd ref="244253201"/>
    <tag k="created_by" v="JOSM"/>
    <tag k="highway" v="residential"/>
    <tag k="name" v="Glowackého"/>
    <tag k="name:source" v="nameit/uir-adr"/>
  </way>
  <way id="22758801" version="3" timestamp="2009-03-13T23:52:17Z" uid="3516" user="BiIbo" changeset="803821">
    <nd ref="244253199"/>
    <nd ref="244253200"/>
    <nd ref="244253201"/>
    <tag k="highway" v="residential"/>
    <tag k="name" v="Glowackého"/>
    <tag k="source:name" v="nameit/uir-adr"/>
  </way>
  <way id="22758801" version="4" timestamp="2010-05-05T22:26:35Z" uid="3516" user="BiIbo" changeset="4617497">
    <nd ref="244253199"/>
    <nd ref="244253200"/>
    <nd ref="723197412"/>
    <nd ref="723197402"/>
    <nd ref="244253201"/>
    <tag k="highway" v="residential"/>
    <tag k="name" v="Glowackého"/>
    <tag k="source:name" v="nameit/uir-adr"/>
  </way>
  <way id="22758801" version="5" timestamp="2011-05-15T15:26:49Z" uid="3516" user="BiIbo" changeset="8151921">
    <nd ref="244253199"/>
    <nd ref="1286541615"/>
    <nd ref="244253200"/>
    <nd ref="723197412"/>
    <nd ref="723197402"/>
    <nd ref="244253201"/>
    <tag k="highway" v="residential"/>
    <tag k="name" v="Glowackého"/>
    <tag k="source:name" v="nameit/uir-adr"/>
  </way>
  <way id="22758802" version="2" timestamp="2008-09-16T10:42:15Z" uid="1066" user="pavel" changeset="646258">
    <nd ref="244253201"/>
    <nd ref="244253202"/>
    <nd ref="244253203"/>
    <nd ref="244253204"/>
    <nd ref="28006392"/>
    <tag k="created_by" v="JOSM"/>
    <tag k="highway" v="residential"/>
    <tag k="name" v="Krosenská"/>
    <tag k="name:source" v="nameit/uir-adr"/>
  </way>
  <way id="22758802" version="3" timestamp="2009-03-13T23:52:15Z" uid="3516" user="BiIbo" changeset="803821">
    <nd ref="244253201"/>
    <nd ref="244253202"/>
    <nd ref="244253203"/>
    <nd ref="244253204"/>
    <nd ref="28006392"/>
    <tag k="highway" v="residential"/>
    <tag k="name" v="Krosenská"/>
    <tag k="source:name" v="nameit/uir-adr"/>
  </way>
  <way id="22758802" version="4" timestamp="2011-05-15T19:29:54Z" uid="3516" user="BiIbo" changeset="8151921">
    <nd ref="244253201"/>
    <nd ref="1286815221"/>
    <nd ref="244253202"/>
    <nd ref="1286815317"/>
    <nd ref="244253203"/>
    <nd ref="244253204"/>
    <nd ref="28006392"/>
    <tag k="highway" v="residential"/>
    <tag k="name" v="Krosenská"/>
    <tag k="source:name" v="nameit/uir-adr"/>
  </way>
  <way id="22758802" version="5" timestamp="2011-05-15T20:10:17Z" uid="3516" user="BiIbo" changeset="8151921">
    <nd ref="244253201"/>
    <nd ref="1286815221"/>
    <nd ref="244253202"/>
    <nd ref="1286815317"/>
    <nd ref="244253203"/>
    <nd ref="244253204"/>
    <nd ref="1286857830"/>
    <nd ref="1286857717"/>
    <nd ref="28006392"/>
    <tag k="highway" v="residential"/>
    <tag k="name" v="Krosenská"/>
    <tag k="source:name" v="nameit/uir-adr"/>
  </way>
  <way id="22758803" version="2" timestamp="2008-09-16T10:45:02Z" uid="1066" user="pavel" changeset="646258">
    <nd ref="28006368"/>
    <nd ref="28006375"/>
    <nd ref="28006381"/>
    <nd ref="28006387"/>
    <nd ref="28006392"/>
    <tag k="created_by" v="Potlatch alpha"/>
    <tag k="highway" v="residential"/>
    <tag k="name" v="Krosenská"/>
    <tag k="name:source" v="nameit/uir-adr"/>
  </way>
  <way id="22758803" version="3" timestamp="2009-03-13T23:52:16Z" uid="3516" user="BiIbo" changeset="803821">
    <nd ref="28006368"/>
    <nd ref="28006375"/>
    <nd ref="28006381"/>
    <nd ref="28006387"/>
    <nd ref="28006392"/>
    <tag k="highway" v="residential"/>
    <tag k="name" v="Krosenská"/>
    <tag k="source:name" v="nameit/uir-adr"/>
  </way>
  <way id="22758803" version="4" timestamp="2011-05-15T18:31:43Z" uid="3516" user="BiIbo" changeset="8151921">
    <nd ref="28006368"/>
    <nd ref="1286745283"/>
    <nd ref="28006375"/>
    <nd ref="28006381"/>
    <nd ref="1286745311"/>
    <nd ref="28006387"/>
    <nd ref="28006392"/>
    <tag k="highway" v="residential"/>
    <tag k="name" v="Krosenská"/>
    <tag k="source:name" v="nameit/uir-adr"/>
  </way>
  <way id="22758803" version="5" timestamp="2011-05-15T20:10:13Z" uid="3516" user="BiIbo" changeset="8151921">
    <nd ref="28006368"/>
    <nd ref="1286745283"/>
    <nd ref="28006375"/>
    <nd ref="28006381"/>
    <nd ref="1286745311"/>
    <nd ref="28006387"/>
    <nd ref="1286857782"/>
    <nd ref="28006392"/>
    <tag k="highway" v="residential"/>
    <tag k="name" v="Krosenská"/>
    <tag k="source:name" v="nameit/uir-adr"/>
  </way>
  <way id="22758805" version="2" timestamp="2008-09-16T10:43:17Z" uid="1066" user="pavel" changeset="646258">
    <nd ref="244253206"/>
    <nd ref="244253207"/>
    <nd ref="244253208"/>
    <tag k="created_by" v="JOSM"/>
    <tag k="highway" v="residential"/>
    <tag k="name" v="Notečská"/>
    <tag k="name:source" v="nameit/uir-adr"/>
  </way>
  <way id="22758805" version="3" timestamp="2009-03-13T23:52:18Z" uid="3516" user="BiIbo" changeset="803821">
    <nd ref="244253206"/>
    <nd ref="244253207"/>
    <nd ref="244253208"/>
    <tag k="highway" v="residential"/>
    <tag k="name" v="Notečská"/>
    <tag k="source:name" v="nameit/uir-adr"/>
  </way>
  <way id="22758805" version="4" timestamp="2010-05-05T22:26:34Z" uid="3516" user="BiIbo" changeset="4617497">
    <nd ref="244253206"/>
    <nd ref="723197288"/>
    <nd ref="723197401"/>
    <nd ref="244253207"/>
    <nd ref="723197342"/>
    <nd ref="244253208"/>
    <tag k="highway" v="residential"/>
    <tag k="name" v="Notečská"/>
    <tag k="source:name" v="nameit/uir-adr"/>
  </way>
  <way id="22758805" version="5" timestamp="2011-05-15T15:23:51Z" uid="3516" user="BiIbo" changeset="8151921">
    <nd ref="244253206"/>
    <nd ref="1286538711"/>
    <nd ref="723197288"/>
    <nd ref="723197401"/>
    <nd ref="244253207"/>
    <nd ref="723197342"/>
    <nd ref="244253208"/>
    <tag k="highway" v="residential"/>
    <tag k="name" v="Notečská"/>
    <tag k="source:name" v="nameit/uir-adr"/>
  </way>
  <way id="22758805" version="6" timestamp="2011-05-15T18:31:37Z" uid="3516" user="BiIbo" changeset="8151921">
    <nd ref="244253206"/>
    <nd ref="1286538711"/>
    <nd ref="723197288"/>
    <nd ref="1286745500"/>
    <nd ref="723197401"/>
    <nd ref="244253207"/>
    <nd ref="1286745280"/>
    <nd ref="723197342"/>
    <nd ref="244253208"/>
    <tag k="highway" v="residential"/>
    <tag k="name" v="Notečská"/>
    <tag k="source:name" v="nameit/uir-adr"/>
  </way>
  <way id="22758806" version="2" timestamp="2008-09-16T10:45:10Z" uid="1066" user="pavel" changeset="646258">
    <nd ref="28006437"/>
    <nd ref="244253209"/>
    <nd ref="244253208"/>
    <nd ref="244253210"/>
    <tag k="created_by" v="JOSM"/>
    <tag k="highway" v="residential"/>
    <tag k="name" v="Lublinská"/>
    <tag k="name:source" v="nameit/uir-adr"/>
  </way>
  <way id="22758806" version="3" timestamp="2009-03-13T23:52:18Z" uid="3516" user="BiIbo" changeset="803821">
    <nd ref="28006437"/>
    <nd ref="244253209"/>
    <nd ref="244253208"/>
    <nd ref="244253210"/>
    <tag k="highway" v="residential"/>
    <tag k="name" v="Lublinská"/>
    <tag k="source:name" v="nameit/uir-adr"/>
  </way>
  <way id="22758806" version="4" timestamp="2010-05-05T22:26:35Z" uid="3516" user="BiIbo" changeset="4617497">
    <nd ref="28006437"/>
    <nd ref="723197263"/>
    <nd ref="244253209"/>
    <nd ref="244253208"/>
    <nd ref="244253210"/>
    <tag k="highway" v="residential"/>
    <tag k="name" v="Lublinská"/>
    <tag k="source:name" v="nameit/uir-adr"/>
  </way>
  <way id="22758806" version="5" timestamp="2011-05-15T15:26:52Z" uid="3516" user="BiIbo" changeset="8151921">
    <nd ref="28006437"/>
    <nd ref="723197263"/>
    <nd ref="1286541622"/>
    <nd ref="1286541646"/>
    <nd ref="244253208"/>
    <nd ref="244253210"/>
    <tag k="highway" v="residential"/>
    <tag k="name" v="Lublinská"/>
    <tag k="source:name" v="nameit/uir-adr"/>
  </way>
  <way id="22758806" version="6" timestamp="2011-05-26T10:14:03Z" uid="17615" user="Petr Dlouhý" changeset="8252093">
    <nd ref="28006437"/>
    <nd ref="723197263"/>
    <nd ref="1286541622"/>
    <nd ref="1286541646"/>
    <nd ref="244253208"/>
    <nd ref="1300523348"/>
    <nd ref="244253210"/>
    <tag k="highway" v="residential"/>
    <tag k="name" v="Lublinská"/>
    <tag k="source:name" v="nameit/uir-adr"/>
  </way>
  <way id="22758808" version="2" timestamp="2008-09-16T10:44:47Z" uid="1066" user="pavel" changeset="646258">
    <nd ref="25986171"/>
    <nd ref="244253220"/>
    <nd ref="244253229"/>
    <nd ref="244253216"/>
    <tag k="created_by" v="JOSM"/>
    <tag k="highway" v="residential"/>
    <tag k="name" v="Velká skála"/>
    <tag k="name:source" v="nameit/uir-adr"/>
  </way>
  <way id="22758808" version="3" timestamp="2009-03-13T23:52:22Z" uid="3516" user="BiIbo" changeset="803821">
    <nd ref="25986171"/>
    <nd ref="244253220"/>
    <nd ref="244253229"/>
    <nd ref="244253216"/>
    <tag k="highway" v="residential"/>
    <tag k="name" v="Velká skála"/>
    <tag k="source:name" v="nameit/uir-adr"/>
  </way>
  <way id="22758808" version="4" timestamp="2009-03-21T19:41:17Z" uid="1066" user="pavel" changeset="839451">
    <nd ref="25986171"/>
    <nd ref="364475869"/>
    <nd ref="244253220"/>
    <nd ref="244253229"/>
    <nd ref="244253216"/>
    <tag k="highway" v="residential"/>
    <tag k="name" v="Velká skála"/>
    <tag k="source:name" v="nameit/uir-adr"/>
  </way>
  <way id="22758808" version="5" timestamp="2011-05-15T15:43:33Z" uid="3516" user="BiIbo" changeset="8151921">
    <nd ref="244253216"/>
    <nd ref="244253229"/>
    <nd ref="244253220"/>
    <nd ref="1286566519"/>
    <nd ref="364475869"/>
    <nd ref="1286566592"/>
    <tag k="highway" v="residential"/>
    <tag k="name" v="Velká skála"/>
    <tag k="oneway" v="yes"/>
    <tag k="source:name" v="nameit/uir-adr"/>
  </way>
  <way id="22758808" version="6" timestamp="2011-10-13T12:34:02Z" uid="527259" user="Vratislav Filler" changeset="9546856">
    <nd ref="244253216"/>
    <nd ref="244253229"/>
    <nd ref="244253220"/>
    <nd ref="1286566519"/>
    <nd ref="364475869"/>
    <tag k="highway" v="residential"/>
    <tag k="name" v="Velká skála"/>
    <tag k="oneway" v="yes"/>
    <tag k="source:name" v="nameit/uir-adr"/>
  </way>
  <way id="22758808" version="7" timestamp="2011-12-28T17:54:17Z" uid="527259" user="Vratislav Filler" changeset="10228514">
    <nd ref="244253216"/>
    <nd ref="244253229"/>
    <nd ref="244253220"/>
    <nd ref="364475869"/>
    <tag k="highway" v="residential"/>
    <tag k="name" v="Velká skála"/>
    <tag k="oneway" v="yes"/>
    <tag k="source:name" v="nameit/uir-adr"/>
  </way>
  <way id="22758809" version="2" timestamp="2008-09-16T10:43:39Z" uid="1066" user="pavel" changeset="646258">
    <nd ref="244253217"/>
    <nd ref="244253218"/>
    <nd ref="244253219"/>
    <nd ref="244253220"/>
    <nd ref="244253221"/>
    <nd ref="244253222"/>
    <nd ref="244253223"/>
    <nd ref="244253224"/>
    <tag k="created_by" v="JOSM"/>
    <tag k="highway" v="residential"/>
    <tag k="name" v="Vřesová"/>
    <tag k="name:source" v="nameit/uir-adr"/>
  </way>
  <way id="22758809" version="3" timestamp="2009-03-13T23:52:22Z" uid="3516" user="BiIbo" changeset="803821">
    <nd ref="244253217"/>
    <nd ref="244253218"/>
    <nd ref="244253219"/>
    <nd ref="244253220"/>
    <nd ref="244253221"/>
    <nd ref="244253222"/>
    <nd ref="244253223"/>
    <nd ref="244253224"/>
    <tag k="highway" v="residential"/>
    <tag k="name" v="Vřesová"/>
    <tag k="source:name" v="nameit/uir-adr"/>
  </way>
  <way id="22758809" version="4" timestamp="2011-01-02T19:40:17Z" uid="17615" user="Petr Dlouhý" changeset="6842579">
    <nd ref="244253217"/>
    <nd ref="1079350956"/>
    <nd ref="244253218"/>
    <nd ref="244253219"/>
    <nd ref="244253220"/>
    <nd ref="244253221"/>
    <nd ref="244253222"/>
    <nd ref="244253223"/>
    <nd ref="244253224"/>
    <tag k="highway" v="residential"/>
    <tag k="name" v="Vřesová"/>
    <tag k="source:name" v="nameit/uir-adr"/>
  </way>
  <way id="22758809" version="5" timestamp="2011-05-15T15:43:35Z" uid="3516" user="BiIbo" changeset="8151921">
    <nd ref="244253217"/>
    <nd ref="1286566560"/>
    <nd ref="1286566507"/>
    <nd ref="1079350956"/>
    <nd ref="244253218"/>
    <nd ref="244253219"/>
    <nd ref="1286566588"/>
    <nd ref="244253220"/>
    <nd ref="1286566619"/>
    <nd ref="1286566610"/>
    <nd ref="244253221"/>
    <nd ref="244253222"/>
    <nd ref="1286566621"/>
    <nd ref="244253223"/>
    <nd ref="1286566580"/>
    <nd ref="244253224"/>
    <tag k="highway" v="residential"/>
    <tag k="name" v="Vřesová"/>
    <tag k="source:name" v="nameit/uir-adr"/>
  </way>
  <way id="22758810" version="2" timestamp="2008-09-16T10:45:39Z" uid="1066" user="pavel" changeset="646258">
    <nd ref="244253225"/>
    <nd ref="244253226"/>
    <nd ref="244253227"/>
    <nd ref="244253228"/>
    <nd ref="244253229"/>
    <nd ref="244253230"/>
    <tag k="created_by" v="JOSM"/>
    <tag k="highway" v="residential"/>
    <tag k="name" v="K Haltýři"/>
    <tag k="name:source" v="nameit/uir-adr"/>
  </way>
  <way id="22758810" version="3" timestamp="2009-03-13T23:52:19Z" uid="3516" user="BiIbo" changeset="803821">
    <nd ref="244253225"/>
    <nd ref="244253226"/>
    <nd ref="244253227"/>
    <nd ref="244253228"/>
    <nd ref="244253229"/>
    <nd ref="244253230"/>
    <tag k="highway" v="residential"/>
    <tag k="name" v="K Haltýři"/>
    <tag k="source:name" v="nameit/uir-adr"/>
  </way>
  <way id="22758810" version="4" timestamp="2011-05-15T15:43:26Z" uid="3516" user="BiIbo" changeset="8151921">
    <nd ref="244253225"/>
    <nd ref="1286566493"/>
    <nd ref="244253226"/>
    <nd ref="244253227"/>
    <nd ref="244253228"/>
    <nd ref="244253229"/>
    <nd ref="1286566618"/>
    <nd ref="1286566564"/>
    <nd ref="244253230"/>
    <tag k="highway" v="residential"/>
    <tag k="name" v="K Haltýři"/>
    <tag k="source:name" v="nameit/uir-adr"/>
  </way>
  <way id="22758811" version="3" timestamp="2008-09-16T10:44:02Z" uid="1066" user="pavel" changeset="646258">
    <nd ref="244253237"/>
    <nd ref="244253238"/>
    <nd ref="244253239"/>
    <nd ref="244253216"/>
    <nd ref="246279203"/>
    <nd ref="244253240"/>
    <tag k="created_by" v="Potlatch 0.7"/>
    <tag k="highway" v="residential"/>
    <tag k="name" v="Nad Vavrouškou"/>
    <tag k="name:source" v="nameit/uir-adr"/>
  </way>
  <way id="22758811" version="4" timestamp="2009-03-13T23:52:20Z" uid="3516" user="BiIbo" changeset="803821">
    <nd ref="244253237"/>
    <nd ref="244253238"/>
    <nd ref="244253239"/>
    <nd ref="244253216"/>
    <nd ref="246279203"/>
    <nd ref="244253240"/>
    <tag k="highway" v="residential"/>
    <tag k="name" v="Nad Vavrouškou"/>
    <tag k="source:name" v="nameit/uir-adr"/>
  </way>
  <way id="22758811" version="5" timestamp="2011-05-15T15:43:30Z" uid="3516" user="BiIbo" changeset="8151921">
    <nd ref="244253237"/>
    <nd ref="244253238"/>
    <nd ref="244253239"/>
    <nd ref="1286566533"/>
    <nd ref="244253216"/>
    <nd ref="1286566585"/>
    <nd ref="246279203"/>
    <nd ref="1286566530"/>
    <nd ref="244253240"/>
    <nd ref="1286566611"/>
    <nd ref="244253241"/>
    <nd ref="244253242"/>
    <nd ref="1286566567"/>
    <nd ref="244253243"/>
    <nd ref="244253244"/>
    <nd ref="1286566635"/>
    <nd ref="244253245"/>
    <tag k="highway" v="residential"/>
    <tag k="name" v="Nad Vavrouškou"/>
    <tag k="source:name" v="nameit/uir-adr"/>
  </way>
  <way id="22758811" version="6" timestamp="2011-08-28T14:18:50Z" uid="17615" user="Petr Dlouhý" changeset="9147699">
    <nd ref="244253237"/>
    <nd ref="244253238"/>
    <nd ref="244253239"/>
    <nd ref="1286566533"/>
    <nd ref="244253216"/>
    <tag k="highway" v="residential"/>
    <tag k="name" v="Nad Vavrouškou"/>
    <tag k="source:name" v="nameit/uir-adr"/>
  </way>
  <way id="22758813" version="2" timestamp="2008-09-16T10:43:57Z" uid="1066" user="pavel" changeset="646258">
    <nd ref="244253240"/>
    <nd ref="244253230"/>
    <nd ref="244253217"/>
    <tag k="created_by" v="JOSM"/>
    <tag k="highway" v="residential"/>
    <tag k="name" v="Vřesová"/>
    <tag k="name:source" v="nameit/uir-adr"/>
  </way>
  <way id="22758813" version="3" timestamp="2009-03-13T23:52:27Z" uid="3516" user="BiIbo" changeset="803821">
    <nd ref="244253240"/>
    <nd ref="244253230"/>
    <nd ref="244253217"/>
    <tag k="highway" v="residential"/>
    <tag k="name" v="Vřesová"/>
    <tag k="source:name" v="nameit/uir-adr"/>
  </way>
  <way id="22758813" version="4" timestamp="2009-03-21T19:41:28Z" uid="1066" user="pavel" changeset="839451">
    <nd ref="244253240"/>
    <nd ref="244253230"/>
    <nd ref="364475888"/>
    <nd ref="244253217"/>
    <tag k="highway" v="residential"/>
    <tag k="name" v="Vřesová"/>
    <tag k="source:name" v="nameit/uir-adr"/>
  </way>
  <way id="22758813" version="5" timestamp="2011-01-02T19:40:18Z" uid="17615" user="Petr Dlouhý" changeset="6842579">
    <nd ref="244253240"/>
    <nd ref="244253230"/>
    <nd ref="364475888"/>
    <nd ref="1079350888"/>
    <nd ref="244253217"/>
    <tag k="highway" v="residential"/>
    <tag k="name" v="Vřesová"/>
    <tag k="source:name" v="nameit/uir-adr"/>
  </way>
  <way id="22758813" version="6" timestamp="2011-05-15T15:43:37Z" uid="3516" user="BiIbo" changeset="8151921"/>
  <way id="22758814" version="2" timestamp="2008-09-16T10:45:56Z" uid="1066" user="pavel" changeset="646258">
    <nd ref="244253230"/>
    <nd ref="244253231"/>
    <nd ref="244253232"/>
    <nd ref="244253233"/>
    <nd ref="244253234"/>
    <nd ref="244253235"/>
    <nd ref="244253236"/>
    <tag k="created_by" v="JOSM"/>
    <tag k="highway" v="residential"/>
    <tag k="name" v="K Haltýři"/>
    <tag k="name:source" v="nameit/uir-adr"/>
  </way>
  <way id="22758814" version="3" timestamp="2009-03-13T23:52:25Z" uid="3516" user="BiIbo" changeset="803821">
    <nd ref="244253230"/>
    <nd ref="244253231"/>
    <nd ref="244253232"/>
    <nd ref="244253233"/>
    <nd ref="244253234"/>
    <nd ref="244253235"/>
    <nd ref="244253236"/>
    <tag k="highway" v="residential"/>
    <tag k="name" v="K Haltýři"/>
    <tag k="source:name" v="nameit/uir-adr"/>
  </way>
  <way id="22758815" version="2" timestamp="2008-09-16T10:43:45Z" uid="1066" user="pavel" changeset="646258">
    <nd ref="244253240"/>
    <nd ref="244253241"/>
    <nd ref="244253242"/>
    <nd ref="244253243"/>
    <nd ref="244253244"/>
    <nd ref="244253245"/>
    <tag k="created_by" v="JOSM"/>
    <tag k="highway" v="residential"/>
    <tag k="name" v="Nad Vavrouškou"/>
    <tag k="name:source" v="nameit/uir-adr"/>
  </way>
  <way id="22758815" version="3" timestamp="2009-03-13T23:52:26Z" uid="3516" user="BiIbo" changeset="803821">
    <nd ref="244253240"/>
    <nd ref="244253241"/>
    <nd ref="244253242"/>
    <nd ref="244253243"/>
    <nd ref="244253244"/>
    <nd ref="244253245"/>
    <tag k="highway" v="residential"/>
    <tag k="name" v="Nad Vavrouškou"/>
    <tag k="source:name" v="nameit/uir-adr"/>
  </way>
  <way id="22758815" version="4" timestamp="2011-05-15T15:43:37Z" uid="3516" user="BiIbo" changeset="8151921"/>
  <way id="22758819" version="2" timestamp="2008-09-16T10:44:57Z" uid="1066" user="pavel" changeset="646258">
    <nd ref="25986311"/>
    <nd ref="244253255"/>
    <nd ref="244253256"/>
    <nd ref="244253257"/>
    <nd ref="244253258"/>
    <tag k="created_by" v="JOSM"/>
    <tag k="highway" v="residential"/>
    <tag k="name" v="Gdaňská"/>
    <tag k="name:source" v="nameit/uir-adr"/>
  </way>
  <way id="22758819" version="3" timestamp="2009-03-13T23:52:31Z" uid="3516" user="BiIbo" changeset="803821">
    <nd ref="25986311"/>
    <nd ref="244253255"/>
    <nd ref="244253256"/>
    <nd ref="244253257"/>
    <nd ref="244253258"/>
    <tag k="highway" v="residential"/>
    <tag k="name" v="Gdaňská"/>
    <tag k="source:name" v="nameit/uir-adr"/>
  </way>
  <way id="22758819" version="4" timestamp="2010-12-12T01:42:07Z" uid="17615" user="Petr Dlouhý" changeset="6631779">
    <nd ref="25986311"/>
    <nd ref="244253255"/>
    <nd ref="244253256"/>
    <nd ref="1034514452"/>
    <nd ref="244253257"/>
    <nd ref="244253258"/>
    <tag k="highway" v="residential"/>
    <tag k="name" v="Gdaňská"/>
    <tag k="source:name" v="nameit/uir-adr"/>
  </way>
  <way id="22758819" version="5" timestamp="2011-05-15T18:55:34Z" uid="3516" user="BiIbo" changeset="8151921">
    <nd ref="25986311"/>
    <nd ref="244253255"/>
    <nd ref="1286773169"/>
    <nd ref="244253256"/>
    <nd ref="1286773278"/>
    <nd ref="1034514452"/>
    <nd ref="244253257"/>
    <nd ref="244253258"/>
    <tag k="highway" v="residential"/>
    <tag k="name" v="Gdaňská"/>
    <tag k="source:name" v="nameit/uir-adr"/>
  </way>
  <way id="22758819" version="6" timestamp="2011-05-15T19:29:46Z" uid="3516" user="BiIbo" changeset="8151921">
    <nd ref="25986311"/>
    <nd ref="1286815205"/>
    <nd ref="244253255"/>
    <nd ref="1286773169"/>
    <nd ref="244253256"/>
    <nd ref="1286773278"/>
    <nd ref="1034514452"/>
    <nd ref="244253257"/>
    <nd ref="244253258"/>
    <tag k="highway" v="residential"/>
    <tag k="name" v="Gdaňská"/>
    <tag k="source:name" v="nameit/uir-adr"/>
  </way>
  <way id="22758819" version="7" timestamp="2011-05-15T20:10:12Z" uid="3516" user="BiIbo" changeset="8151921">
    <nd ref="25986311"/>
    <nd ref="1286815205"/>
    <nd ref="244253255"/>
    <nd ref="1286773169"/>
    <nd ref="244253256"/>
    <nd ref="1286773278"/>
    <nd ref="1034514452"/>
    <nd ref="244253257"/>
    <nd ref="1286857763"/>
    <nd ref="1286857761"/>
    <nd ref="244253258"/>
    <tag k="highway" v="residential"/>
    <tag k="name" v="Gdaňská"/>
    <tag k="source:name" v="nameit/uir-adr"/>
  </way>
  <way id="22758820" version="2" timestamp="2008-09-16T10:43:00Z" uid="1066" user="pavel" changeset="646258">
    <nd ref="244253257"/>
    <nd ref="244253259"/>
    <nd ref="25986163"/>
    <tag k="created_by" v="JOSM"/>
    <tag k="highway" v="residential"/>
    <tag k="name" v="Štětínská"/>
    <tag k="name:source" v="nameit/uir-adr"/>
  </way>
  <way id="22758820" version="3" timestamp="2009-03-13T23:52:34Z" uid="3516" user="BiIbo" changeset="803821">
    <nd ref="244253257"/>
    <nd ref="244253259"/>
    <nd ref="25986163"/>
    <tag k="highway" v="residential"/>
    <tag k="name" v="Štětínská"/>
    <tag k="source:name" v="nameit/uir-adr"/>
  </way>
  <way id="22758820" version="4" timestamp="2011-05-15T18:31:46Z" uid="3516" user="BiIbo" changeset="8151921">
    <nd ref="244253257"/>
    <nd ref="244253259"/>
    <nd ref="1286745407"/>
    <nd ref="25986163"/>
    <tag k="highway" v="residential"/>
    <tag k="name" v="Štětínská"/>
    <tag k="source:name" v="nameit/uir-adr"/>
  </way>
  <way id="22758820" version="5" timestamp="2011-05-15T20:10:14Z" uid="3516" user="BiIbo" changeset="8151921">
    <nd ref="244253257"/>
    <nd ref="1286857817"/>
    <nd ref="244253259"/>
    <nd ref="1286745407"/>
    <nd ref="25986163"/>
    <tag k="highway" v="residential"/>
    <tag k="name" v="Štětínská"/>
    <tag k="source:name" v="nameit/uir-adr"/>
  </way>
  <way id="22758821" version="2" timestamp="2008-09-16T10:44:31Z" uid="1066" user="pavel" changeset="646258">
    <nd ref="244253259"/>
    <nd ref="244253260"/>
    <tag k="created_by" v="JOSM"/>
    <tag k="highway" v="residential"/>
    <tag k="name" v="Bydhošťská"/>
    <tag k="name:source" v="nameit/uir-adr"/>
  </way>
  <way id="22758821" version="3" timestamp="2009-03-13T23:52:33Z" uid="3516" user="BiIbo" changeset="803821">
    <nd ref="244253259"/>
    <nd ref="244253260"/>
    <tag k="highway" v="residential"/>
    <tag k="name" v="Bydhošťská"/>
    <tag k="source:name" v="nameit/uir-adr"/>
  </way>
  <way id="22758821" version="4" timestamp="2011-05-15T20:10:10Z" uid="3516" user="BiIbo" changeset="8151921">
    <nd ref="244253259"/>
    <nd ref="1286857733"/>
    <nd ref="1286745569"/>
    <nd ref="244253260"/>
    <tag k="highway" v="residential"/>
    <tag k="name" v="Bydhošťská"/>
    <tag k="source:name" v="nameit/uir-adr"/>
  </way>
  <way id="22758822" version="2" timestamp="2008-09-16T10:43:03Z" uid="1066" user="pavel" changeset="646258">
    <nd ref="244253261"/>
    <nd ref="244253260"/>
    <nd ref="244253262"/>
    <nd ref="244253258"/>
    <tag k="created_by" v="JOSM"/>
    <tag k="highway" v="residential"/>
    <tag k="name" v="Sopotská"/>
    <tag k="name:source" v="nameit/uir-adr"/>
  </way>
  <way id="22758822" version="3" timestamp="2009-03-13T23:52:36Z" uid="3516" user="BiIbo" changeset="803821">
    <nd ref="244253261"/>
    <nd ref="244253260"/>
    <nd ref="244253262"/>
    <nd ref="244253258"/>
    <tag k="highway" v="residential"/>
    <tag k="name" v="Sopotská"/>
    <tag k="source:name" v="nameit/uir-adr"/>
  </way>
  <way id="22758822" version="4" timestamp="2011-05-15T19:29:46Z" uid="3516" user="BiIbo" changeset="8151921">
    <nd ref="244253261"/>
    <nd ref="244253260"/>
    <nd ref="1286815501"/>
    <nd ref="244253262"/>
    <nd ref="244253258"/>
    <tag k="highway" v="residential"/>
    <tag k="name" v="Sopotská"/>
    <tag k="source:name" v="nameit/uir-adr"/>
  </way>
  <way id="22758823" version="2" timestamp="2008-09-16T10:44:48Z" uid="1066" user="pavel" changeset="646258">
    <nd ref="244253263"/>
    <nd ref="244253262"/>
    <tag k="created_by" v="JOSM"/>
    <tag k="highway" v="residential"/>
    <tag k="name" v="Opolská"/>
    <tag k="name:source" v="nameit/uir-adr"/>
  </way>
  <way id="22758823" version="3" timestamp="2009-03-13T23:52:34Z" uid="3516" user="BiIbo" changeset="803821">
    <nd ref="244253263"/>
    <nd ref="244253262"/>
    <tag k="highway" v="residential"/>
    <tag k="name" v="Opolská"/>
    <tag k="source:name" v="nameit/uir-adr"/>
  </way>
  <way id="22758824" version="2" timestamp="2008-09-16T10:42:33Z" uid="1066" user="pavel" changeset="646258">
    <nd ref="244253264"/>
    <nd ref="244253261"/>
    <nd ref="244253265"/>
    <tag k="created_by" v="JOSM"/>
    <tag k="highway" v="residential"/>
    <tag k="name" v="Sopotská"/>
    <tag k="name:source" v="nameit/uir-adr"/>
  </way>
  <way id="22758824" version="3" timestamp="2009-03-13T23:52:38Z" uid="3516" user="BiIbo" changeset="803821">
    <nd ref="244253264"/>
    <nd ref="244253261"/>
    <nd ref="244253265"/>
    <tag k="highway" v="residential"/>
    <tag k="name" v="Sopotská"/>
    <tag k="source:name" v="nameit/uir-adr"/>
  </way>
  <way id="22758827" version="2" timestamp="2008-09-16T10:43:11Z" uid="1066" user="pavel" changeset="646258">
    <nd ref="30961943"/>
    <nd ref="244253287"/>
    <nd ref="244253286"/>
    <nd ref="244253284"/>
    <nd ref="244253283"/>
    <nd ref="244253288"/>
    <nd ref="244253282"/>
    <tag k="created_by" v="JOSM"/>
    <tag k="highway" v="residential"/>
    <tag k="name" v="Na průhonu"/>
    <tag k="name:source" v="nameit/uir-adr"/>
  </way>
  <way id="22758827" version="3" timestamp="2009-03-13T23:52:41Z" uid="3516" user="BiIbo" changeset="803821">
    <nd ref="30961943"/>
    <nd ref="244253287"/>
    <nd ref="244253286"/>
    <nd ref="244253284"/>
    <nd ref="244253283"/>
    <nd ref="244253288"/>
    <nd ref="244253282"/>
    <tag k="highway" v="residential"/>
    <tag k="name" v="Na Průhonu"/>
    <tag k="source:name" v="nameit/uir-adr"/>
  </way>
  <way id="22758827" version="4" timestamp="2009-05-05T17:24:41Z" uid="8007" user="vrabcak" changeset="1089259">
    <nd ref="391019286"/>
    <nd ref="391019284"/>
    <nd ref="30961943"/>
    <tag k="highway" v="residential"/>
  </way>
  <way id="22758827" version="5" timestamp="2009-06-17T18:45:55Z" uid="17615" user="Petr Dlouhý" changeset="1548214">
    <nd ref="391019286"/>
    <nd ref="423213483"/>
    <tag k="highway" v="residential"/>
  </way>
  <way id="22758828" version="3" timestamp="2008-09-16T10:45:20Z" uid="1066" user="pavel" changeset="646258">
    <nd ref="30961443"/>
    <nd ref="30961444"/>
    <nd ref="30961445"/>
    <nd ref="30961446"/>
    <nd ref="30961447"/>
    <tag k="created_by" v="Potlatch 0.10b"/>
    <tag k="highway" v="residential"/>
    <tag k="name" v="Fořtova"/>
    <tag k="name:source" v="nameit/uir-adr"/>
  </way>
  <way id="22758828" version="4" timestamp="2009-03-13T23:52:45Z" uid="3516" user="BiIbo" changeset="803821">
    <nd ref="30961443"/>
    <nd ref="30961444"/>
    <nd ref="30961445"/>
    <nd ref="30961446"/>
    <nd ref="30961447"/>
    <tag k="highway" v="residential"/>
    <tag k="name" v="Fořtova"/>
    <tag k="source:name" v="nameit/uir-adr"/>
  </way>
  <way id="22758829" version="2" timestamp="2008-09-16T10:42:46Z" uid="1066" user="pavel" changeset="646258">
    <nd ref="30961944"/>
    <nd ref="244253289"/>
    <nd ref="244253290"/>
    <nd ref="244253291"/>
    <tag k="created_by" v="JOSM"/>
    <tag k="highway" v="residential"/>
    <tag k="name" v="Tišická"/>
    <tag k="name:source" v="nameit/uir-adr"/>
  </way>
  <way id="22758829" version="3" timestamp="2009-03-13T23:52:44Z" uid="3516" user="BiIbo" changeset="803821">
    <nd ref="30961944"/>
    <nd ref="244253289"/>
    <nd ref="244253290"/>
    <nd ref="244253291"/>
    <tag k="highway" v="residential"/>
    <tag k="name" v="Tišická"/>
    <tag k="source:name" v="nameit/uir-adr"/>
  </way>
  <way id="22758829" version="4" timestamp="2011-04-27T08:44:57Z" uid="17615" user="Petr Dlouhý" changeset="7982790">
    <nd ref="30961944"/>
    <nd ref="1261894605"/>
    <nd ref="244253289"/>
    <nd ref="1261894629"/>
    <nd ref="244253290"/>
    <nd ref="1261894722"/>
    <nd ref="244253291"/>
    <tag k="highway" v="residential"/>
    <tag k="name" v="Tišická"/>
    <tag k="source:name" v="nameit/uir-adr"/>
  </way>
  <way id="22758832" version="2" timestamp="2008-09-16T10:45:28Z" uid="1066" user="pavel" changeset="646258">
    <nd ref="27799955"/>
    <nd ref="27799963"/>
    <nd ref="244253300"/>
    <nd ref="244253301"/>
    <nd ref="244253302"/>
    <nd ref="244253303"/>
    <nd ref="244253308"/>
    <nd ref="244253304"/>
    <tag k="created_by" v="JOSM"/>
    <tag k="highway" v="residential"/>
    <tag k="name" v="Libišská"/>
    <tag k="name:source" v="nameit/uir-adr"/>
  </way>
  <way id="22758832" version="3" timestamp="2009-03-13T23:52:50Z" uid="3516" user="BiIbo" changeset="803821">
    <nd ref="27799955"/>
    <nd ref="27799963"/>
    <nd ref="244253300"/>
    <nd ref="244253301"/>
    <nd ref="244253302"/>
    <nd ref="244253303"/>
    <nd ref="244253308"/>
    <nd ref="244253304"/>
    <tag k="highway" v="residential"/>
    <tag k="name" v="Libišská"/>
    <tag k="source:name" v="nameit/uir-adr"/>
  </way>
  <way id="22758832" version="4" timestamp="2009-09-05T02:12:30Z" uid="3516" user="BiIbo" changeset="2375558">
    <nd ref="27799955"/>
    <nd ref="27799963"/>
    <nd ref="244253300"/>
    <nd ref="244253301"/>
    <nd ref="244253302"/>
    <nd ref="244253303"/>
    <nd ref="244253308"/>
    <nd ref="244253304"/>
    <tag k="highway" v="residential"/>
    <tag k="name" v="Libišská"/>
    <tag k="source:name" v="nameit/uir-adr"/>
  </way>
  <way id="22758832" version="5" timestamp="2011-05-15T15:43:26Z" uid="3516" user="BiIbo" changeset="8151921">
    <nd ref="27799955"/>
    <nd ref="27799963"/>
    <nd ref="1286566547"/>
    <nd ref="244253300"/>
    <nd ref="244253301"/>
    <nd ref="1286566565"/>
    <nd ref="244253302"/>
    <nd ref="244253303"/>
    <nd ref="244253308"/>
    <nd ref="244253304"/>
    <tag k="highway" v="residential"/>
    <tag k="name" v="Libišská"/>
    <tag k="source:name" v="nameit/uir-adr"/>
  </way>
  <way id="22758832" version="6" timestamp="2011-05-15T16:05:05Z" uid="3516" user="BiIbo" changeset="8151921">
    <nd ref="27799955"/>
    <nd ref="27799963"/>
    <nd ref="1286566547"/>
    <nd ref="244253300"/>
    <nd ref="244253301"/>
    <nd ref="1286566565"/>
    <nd ref="244253302"/>
    <nd ref="244253303"/>
    <nd ref="1286583030"/>
    <nd ref="244253308"/>
    <nd ref="1286583083"/>
    <tag k="highway" v="residential"/>
    <tag k="name" v="Libišská"/>
    <tag k="source:name" v="nameit/uir-adr"/>
  </way>
  <way id="22758833" version="2" timestamp="2008-09-16T10:43:36Z" uid="1066" user="pavel" changeset="646258">
    <nd ref="244253303"/>
    <nd ref="244253306"/>
    <nd ref="244253307"/>
    <tag k="created_by" v="JOSM"/>
    <tag k="highway" v="residential"/>
    <tag k="name" v="Luhovská"/>
    <tag k="name:source" v="nameit/uir-adr"/>
  </way>
  <way id="22758833" version="3" timestamp="2009-03-13T23:52:50Z" uid="3516" user="BiIbo" changeset="803821">
    <nd ref="244253303"/>
    <nd ref="244253306"/>
    <nd ref="244253307"/>
    <tag k="highway" v="residential"/>
    <tag k="name" v="Luhovská"/>
    <tag k="source:name" v="nameit/uir-adr"/>
  </way>
  <way id="22758833" version="4" timestamp="2009-07-17T14:50:10Z" uid="144496" user="MartinV" changeset="1855140">
    <nd ref="244253303"/>
    <nd ref="244253306"/>
    <nd ref="244253307"/>
    <nd ref="443005213"/>
    <nd ref="244253309"/>
    <tag k="highway" v="residential"/>
    <tag k="name" v="Luhovská"/>
    <tag k="source:name" v="nameit/uir-adr"/>
  </way>
  <way id="22758833" version="5" timestamp="2011-05-15T15:43:29Z" uid="3516" user="BiIbo" changeset="8151921">
    <nd ref="244253303"/>
    <nd ref="1286566634"/>
    <nd ref="244253306"/>
    <nd ref="244253307"/>
    <nd ref="443005213"/>
    <nd ref="244253309"/>
    <tag k="highway" v="residential"/>
    <tag k="name" v="Luhovská"/>
    <tag k="source:name" v="nameit/uir-adr"/>
  </way>
  <way id="22758833" version="6" timestamp="2011-05-15T16:05:13Z" uid="3516" user="BiIbo" changeset="8151921">
    <nd ref="244253303"/>
    <nd ref="1286566634"/>
    <nd ref="1286582698"/>
    <nd ref="244253306"/>
    <nd ref="244253307"/>
    <nd ref="443005213"/>
    <nd ref="1286582945"/>
    <nd ref="1286583054"/>
    <nd ref="244253309"/>
    <tag k="highway" v="residential"/>
    <tag k="name" v="Luhovská"/>
    <tag k="source:name" v="nameit/uir-adr"/>
  </way>
  <way id="22758834" version="2" timestamp="2008-09-16T10:45:43Z" uid="1066" user="pavel" changeset="646258">
    <nd ref="244253308"/>
    <nd ref="244253309"/>
    <tag k="created_by" v="JOSM"/>
    <tag k="highway" v="residential"/>
    <tag k="name" v="Chotovická"/>
    <tag k="name:source" v="nameit/uir-adr"/>
  </way>
  <way id="22758834" version="3" timestamp="2009-03-13T23:52:51Z" uid="3516" user="BiIbo" changeset="803821">
    <nd ref="244253308"/>
    <nd ref="244253309"/>
    <tag k="highway" v="residential"/>
    <tag k="name" v="Chotovická"/>
    <tag k="source:name" v="nameit/uir-adr"/>
  </way>
  <way id="22758835" version="2" timestamp="2008-09-16T10:43:29Z" uid="1066" user="pavel" changeset="646258">
    <nd ref="25985841"/>
    <nd ref="244253310"/>
    <nd ref="244253311"/>
    <nd ref="244253312"/>
    <nd ref="25985828"/>
    <nd ref="25985827"/>
    <tag k="created_by" v="JOSM"/>
    <tag k="highway" v="residential"/>
    <tag k="name" v="Mirovická"/>
    <tag k="name:source" v="nameit/uir-adr"/>
  </way>
  <way id="22758835" version="3" timestamp="2009-03-13T23:52:52Z" uid="3516" user="BiIbo" changeset="803821">
    <nd ref="25985841"/>
    <nd ref="244253310"/>
    <nd ref="244253311"/>
    <nd ref="244253312"/>
    <nd ref="25985828"/>
    <nd ref="25985827"/>
    <tag k="highway" v="residential"/>
    <tag k="name" v="Mirovická"/>
    <tag k="source:name" v="nameit/uir-adr"/>
  </way>
  <way id="22758835" version="4" timestamp="2009-05-06T20:11:11Z" uid="8007" user="vrabcak" changeset="1101341">
    <nd ref="25985841"/>
    <nd ref="244253310"/>
    <nd ref="244253311"/>
    <tag k="highway" v="residential"/>
    <tag k="name" v="Mirovická"/>
    <tag k="source:name" v="nameit/uir-adr"/>
  </way>
  <way id="22758835" version="5" timestamp="2009-07-17T14:52:07Z" uid="144496" user="MartinV" changeset="1855152">
    <nd ref="25985841"/>
    <nd ref="244253310"/>
    <nd ref="443005616"/>
    <nd ref="244253311"/>
    <tag k="highway" v="residential"/>
    <tag k="name" v="Mirovická"/>
    <tag k="source:name" v="nameit/uir-adr"/>
  </way>
  <way id="22758836" version="3" timestamp="2008-09-16T10:45:39Z" uid="1066" user="pavel" changeset="646258">
    <nd ref="25985827"/>
    <nd ref="244253313"/>
    <nd ref="244253314"/>
    <nd ref="244253315"/>
    <nd ref="244253317"/>
    <nd ref="244253318"/>
    <nd ref="244254534"/>
    <nd ref="244253319"/>
    <nd ref="244253320"/>
    <nd ref="244253321"/>
    <nd ref="244253322"/>
    <nd ref="244253323"/>
    <nd ref="25985790"/>
    <nd ref="25985791"/>
    <tag k="created_by" v="JOSM"/>
    <tag k="highway" v="residential"/>
    <tag k="name" v="Písečná"/>
    <tag k="name:source" v="nameit/uir-adr"/>
  </way>
  <way id="22758836" version="4" timestamp="2009-03-13T23:52:53Z" uid="3516" user="BiIbo" changeset="803821">
    <nd ref="25985827"/>
    <nd ref="244253313"/>
    <nd ref="244253314"/>
    <nd ref="244253315"/>
    <nd ref="244253317"/>
    <nd ref="244253318"/>
    <nd ref="244254534"/>
    <nd ref="244253319"/>
    <nd ref="244253320"/>
    <nd ref="244253321"/>
    <nd ref="244253322"/>
    <nd ref="244253323"/>
    <nd ref="25985790"/>
    <nd ref="25985791"/>
    <tag k="highway" v="residential"/>
    <tag k="name" v="Písečná"/>
    <tag k="source:name" v="nameit/uir-adr"/>
  </way>
  <way id="22758836" version="5" timestamp="2009-03-21T19:41:25Z" uid="1066" user="pavel" changeset="839451">
    <nd ref="25985827"/>
    <nd ref="244253313"/>
    <nd ref="364475817"/>
    <nd ref="244253314"/>
    <nd ref="244253315"/>
    <nd ref="244253317"/>
    <nd ref="244253318"/>
    <nd ref="244254534"/>
    <nd ref="244253319"/>
    <nd ref="244253320"/>
    <nd ref="244253321"/>
    <nd ref="244253322"/>
    <nd ref="244253323"/>
    <nd ref="25985790"/>
    <nd ref="25985791"/>
    <tag k="highway" v="residential"/>
    <tag k="name" v="Písečná"/>
    <tag k="source:name" v="nameit/uir-adr"/>
  </way>
  <way id="22758836" version="6" timestamp="2011-03-15T20:58:31Z" uid="141986" user="smidliboy" changeset="7570305">
    <nd ref="25985827"/>
    <nd ref="244253313"/>
    <nd ref="1203628450"/>
    <nd ref="364475817"/>
    <nd ref="1203628366"/>
    <nd ref="1203628345"/>
    <nd ref="1203627936"/>
    <nd ref="244253314"/>
    <nd ref="244253315"/>
    <nd ref="244253317"/>
    <nd ref="244253318"/>
    <nd ref="1203628453"/>
    <nd ref="244254534"/>
    <nd ref="244253319"/>
    <nd ref="1203628192"/>
    <nd ref="244253320"/>
    <nd ref="244253321"/>
    <nd ref="244253322"/>
    <nd ref="244253323"/>
    <nd ref="1203628115"/>
    <nd ref="25985790"/>
    <nd ref="25985791"/>
    <tag k="highway" v="residential"/>
    <tag k="name" v="Písečná"/>
    <tag k="source:name" v="nameit/uir-adr"/>
  </way>
  <way id="22758836" version="7" timestamp="2011-05-15T16:05:10Z" uid="3516" user="BiIbo" changeset="8151921">
    <nd ref="25985827"/>
    <nd ref="1286583039"/>
    <nd ref="244253313"/>
    <nd ref="1203628450"/>
    <nd ref="364475817"/>
    <nd ref="1203628366"/>
    <nd ref="1286582594"/>
    <nd ref="1286582628"/>
    <nd ref="1203628345"/>
    <nd ref="1203627936"/>
    <nd ref="1286582840"/>
    <nd ref="244253314"/>
    <nd ref="1286582900"/>
    <nd ref="244253315"/>
    <nd ref="1286583077"/>
    <nd ref="244253317"/>
    <nd ref="244253318"/>
    <nd ref="1286582740"/>
    <nd ref="1203628453"/>
    <nd ref="244254534"/>
    <nd ref="244253319"/>
    <nd ref="1203628192"/>
    <nd ref="1286582635"/>
    <nd ref="244253320"/>
    <nd ref="244253321"/>
    <nd ref="1286582922"/>
    <nd ref="1286582905"/>
    <nd ref="1286582615"/>
    <nd ref="244253322"/>
    <nd ref="244253323"/>
    <nd ref="1203628115"/>
    <nd ref="1286583061"/>
    <nd ref="25985790"/>
    <nd ref="25985791"/>
    <tag k="highway" v="residential"/>
    <tag k="name" v="Písečná"/>
    <tag k="source:name" v="nameit/uir-adr"/>
  </way>
  <way id="22758836" version="8" timestamp="2011-06-29T14:18:11Z" uid="479006" user="jaba_cz" changeset="8581423">
    <nd ref="25985827"/>
    <nd ref="1286583039"/>
    <nd ref="244253313"/>
    <nd ref="1203628450"/>
    <nd ref="364475817"/>
    <nd ref="1203628366"/>
    <nd ref="1286582594"/>
    <nd ref="1286582628"/>
    <nd ref="1203628345"/>
    <nd ref="1203627936"/>
    <nd ref="1286582840"/>
    <nd ref="244253314"/>
    <nd ref="1286582900"/>
    <nd ref="244253315"/>
    <nd ref="1286583077"/>
    <nd ref="244253317"/>
    <nd ref="244253318"/>
    <nd ref="1286582740"/>
    <nd ref="1203628453"/>
    <nd ref="244254534"/>
    <nd ref="1343306869"/>
    <nd ref="244253319"/>
    <nd ref="1203628192"/>
    <nd ref="1286582635"/>
    <nd ref="244253320"/>
    <nd ref="244253321"/>
    <nd ref="1286582922"/>
    <nd ref="1286582905"/>
    <nd ref="1286582615"/>
    <nd ref="244253322"/>
    <nd ref="244253323"/>
    <nd ref="1203628115"/>
    <nd ref="1286583061"/>
    <nd ref="25985790"/>
    <nd ref="25985791"/>
    <tag k="highway" v="residential"/>
    <tag k="name" v="Písečná"/>
    <tag k="source:name" v="nameit/uir-adr"/>
  </way>
  <way id="22758836" version="9" timestamp="2011-06-29T14:19:45Z" uid="479006" user="jaba_cz" changeset="8581423">
    <nd ref="25985827"/>
    <nd ref="1286583039"/>
    <nd ref="244253313"/>
    <nd ref="1203628450"/>
    <nd ref="364475817"/>
    <nd ref="1203628366"/>
    <nd ref="1286582594"/>
    <nd ref="1286582628"/>
    <nd ref="1203628345"/>
    <nd ref="1203627936"/>
    <nd ref="1286582840"/>
    <nd ref="244253314"/>
    <nd ref="1286582900"/>
    <nd ref="244253315"/>
    <nd ref="1286583077"/>
    <nd ref="244253317"/>
    <nd ref="244253318"/>
    <nd ref="1286582740"/>
    <nd ref="1203628453"/>
    <nd ref="244254534"/>
    <nd ref="244253319"/>
    <nd ref="1203628192"/>
    <nd ref="1286582635"/>
    <nd ref="244253320"/>
    <nd ref="244253321"/>
    <nd ref="1286582922"/>
    <nd ref="1286582905"/>
    <nd ref="1286582615"/>
    <nd ref="244253322"/>
    <nd ref="244253323"/>
    <nd ref="1203628115"/>
    <nd ref="1286583061"/>
    <nd ref="25985790"/>
    <nd ref="25985791"/>
    <tag k="highway" v="residential"/>
    <tag k="name" v="Písečná"/>
    <tag k="source:name" v="nameit/uir-adr"/>
  </way>
  <way id="22758836" version="10" timestamp="2011-10-13T12:33:59Z" uid="527259" user="Vratislav Filler" changeset="9546856">
    <nd ref="25985827"/>
    <nd ref="1286583039"/>
    <nd ref="244253313"/>
    <nd ref="1203628450"/>
    <nd ref="364475817"/>
    <nd ref="1203628366"/>
    <nd ref="1286582594"/>
    <nd ref="1286582628"/>
    <nd ref="1203628345"/>
    <nd ref="1203627936"/>
    <nd ref="1286582840"/>
    <nd ref="244253314"/>
    <nd ref="1286582900"/>
    <nd ref="244253315"/>
    <nd ref="1286583077"/>
    <nd ref="244253317"/>
    <nd ref="244253318"/>
    <tag k="highway" v="residential"/>
    <tag k="name" v="Písečná"/>
    <tag k="source:name" v="nameit/uir-adr"/>
  </way>
  <way id="22758840" version="2" timestamp="2008-09-16T10:45:13Z" uid="1066" user="pavel" changeset="646258">
    <nd ref="244253493"/>
    <nd ref="173680220"/>
    <nd ref="244253495"/>
    <nd ref="244253494"/>
    <tag k="created_by" v="JOSM"/>
    <tag k="highway" v="residential"/>
    <tag k="name" v="Na hlinách"/>
    <tag k="name:source" v="nameit/uir-adr"/>
  </way>
  <way id="22758840" version="3" timestamp="2009-03-12T01:56:36Z" uid="3516" user="BiIbo" changeset="792152">
    <nd ref="244253493"/>
    <nd ref="173680220"/>
    <nd ref="244253495"/>
    <nd ref="244253494"/>
    <tag k="highway" v="residential"/>
    <tag k="name" v="Na Hlinách"/>
    <tag k="source:name" v="nameit/uir-adr"/>
  </way>
  <way id="22758841" version="2" timestamp="2008-09-16T10:42:52Z" uid="1066" user="pavel" changeset="646258">
    <nd ref="244253495"/>
    <nd ref="244253496"/>
    <tag k="created_by" v="JOSM"/>
    <tag k="highway" v="residential"/>
    <tag k="name" v="U nádrže"/>
    <tag k="name:source" v="nameit/uir-adr"/>
  </way>
  <way id="22758841" version="3" timestamp="2009-03-12T01:56:36Z" uid="3516" user="BiIbo" changeset="792152">
    <nd ref="244253495"/>
    <nd ref="244253496"/>
    <tag k="highway" v="residential"/>
    <tag k="name" v="U Nádrže"/>
    <tag k="source:name" v="nameit/uir-adr"/>
  </way>
  <way id="22758843" version="2" timestamp="2008-09-16T10:42:33Z" uid="1066" user="pavel" changeset="646258">
    <nd ref="244253500"/>
    <nd ref="153071741"/>
    <tag k="created_by" v="JOSM"/>
    <tag k="highway" v="residential"/>
    <tag k="name" v="Veltěžská"/>
    <tag k="name:source" v="nameit/uir-adr"/>
  </way>
  <way id="22758843" version="3" timestamp="2009-03-05T19:15:22Z" uid="3516" user="BiIbo" changeset="739570">
    <nd ref="244253500"/>
    <nd ref="153071741"/>
    <tag k="highway" v="residential"/>
    <tag k="name" v="Veltěžská"/>
    <tag k="source:name" v="nameit/uir-adr"/>
  </way>
  <way id="22758846" version="2" timestamp="2008-09-16T10:44:56Z" uid="1066" user="pavel" changeset="646258">
    <nd ref="244253862"/>
    <nd ref="244253863"/>
    <nd ref="153071533"/>
    <nd ref="244253865"/>
    <nd ref="244253866"/>
    <tag k="created_by" v="JOSM"/>
    <tag k="highway" v="residential"/>
    <tag k="name" v="Petra Bezruče"/>
    <tag k="name:source" v="nameit/uir-adr"/>
  </way>
  <way id="22758846" version="3" timestamp="2009-03-05T19:15:27Z" uid="3516" user="BiIbo" changeset="739570">
    <nd ref="244253862"/>
    <nd ref="244253863"/>
    <nd ref="153071533"/>
    <nd ref="244253865"/>
    <nd ref="244253866"/>
    <tag k="highway" v="residential"/>
    <tag k="name" v="Petra Bezruče"/>
    <tag k="source:name" v="nameit/uir-adr"/>
  </way>
  <way id="22758848" version="2" timestamp="2008-09-16T10:44:50Z" uid="1066" user="pavel" changeset="646258">
    <nd ref="25985576"/>
    <nd ref="244253871"/>
    <nd ref="244253873"/>
    <nd ref="244253875"/>
    <tag k="created_by" v="JOSM"/>
    <tag k="highway" v="residential"/>
    <tag k="name" v="Bášťská"/>
    <tag k="name:source" v="nameit/uir-adr"/>
  </way>
  <way id="22758848" version="3" timestamp="2009-03-13T23:52:58Z" uid="3516" user="BiIbo" changeset="803821">
    <nd ref="25985576"/>
    <nd ref="244253871"/>
    <nd ref="244253873"/>
    <nd ref="244253875"/>
    <tag k="highway" v="residential"/>
    <tag k="name" v="Bášťská"/>
    <tag k="source:name" v="nameit/uir-adr"/>
  </way>
  <way id="22758848" version="4" timestamp="2011-05-15T16:05:41Z" uid="3516" user="BiIbo" changeset="8151921">
    <nd ref="25985576"/>
    <nd ref="1286582899"/>
    <nd ref="244253871"/>
    <nd ref="244253873"/>
    <nd ref="244253875"/>
    <tag k="highway" v="residential"/>
    <tag k="name" v="Bášťská"/>
    <tag k="source:name" v="nameit/uir-adr"/>
  </way>
  <way id="22758849" version="2" timestamp="2008-09-16T10:42:35Z" uid="1066" user="pavel" changeset="646258">
    <nd ref="244253871"/>
    <nd ref="25985789"/>
    <nd ref="25985788"/>
    <nd ref="244253876"/>
    <nd ref="244253877"/>
    <tag k="created_by" v="JOSM"/>
    <tag k="highway" v="residential"/>
    <tag k="name" v="Na přesypu"/>
    <tag k="name:source" v="nameit/uir-adr"/>
  </way>
  <way id="22758849" version="3" timestamp="2009-03-12T01:56:37Z" uid="3516" user="BiIbo" changeset="792152">
    <nd ref="244253871"/>
    <nd ref="25985789"/>
    <nd ref="25985788"/>
    <nd ref="244253876"/>
    <nd ref="244253877"/>
    <tag k="highway" v="residential"/>
    <tag k="name" v="Na Přesypu"/>
    <tag k="source:name" v="nameit/uir-adr"/>
  </way>
  <way id="22758849" version="4" timestamp="2011-06-29T14:09:02Z" uid="479006" user="jaba_cz" changeset="8581286">
    <nd ref="244253871"/>
    <nd ref="25985789"/>
    <nd ref="25985788"/>
    <nd ref="244253876"/>
    <nd ref="244253877"/>
    <tag k="highway" v="residential"/>
    <tag k="name" v="Na Přesypu"/>
    <tag k="oneway" v="-1"/>
    <tag k="source:name" v="nameit/uir-adr"/>
  </way>
  <way id="22758849" version="5" timestamp="2011-10-13T12:33:57Z" uid="527259" user="Vratislav Filler" changeset="9546856">
    <nd ref="244253871"/>
    <nd ref="25985789"/>
    <nd ref="25985788"/>
    <nd ref="1465073065"/>
    <nd ref="244253876"/>
    <nd ref="244253877"/>
    <tag k="highway" v="residential"/>
    <tag k="name" v="Na Přesypu"/>
    <tag k="oneway" v="-1"/>
    <tag k="source:name" v="nameit/uir-adr"/>
  </way>
  <way id="22758849" version="6" timestamp="2011-12-11T13:24:42Z" uid="17615" user="Petr Dlouhý" changeset="10089589">
    <nd ref="244253871"/>
    <nd ref="25985789"/>
    <tag k="highway" v="residential"/>
    <tag k="name" v="Na Přesypu"/>
    <tag k="oneway" v="-1"/>
    <tag k="source:name" v="nameit/uir-adr"/>
  </way>
  <way id="22758849" version="7" timestamp="2011-12-28T17:54:13Z" uid="527259" user="Vratislav Filler" changeset="10228514">
    <nd ref="244253871"/>
    <nd ref="1565668844"/>
    <nd ref="25985789"/>
    <tag k="highway" v="residential"/>
    <tag k="name" v="Na Přesypu"/>
    <tag k="oneway" v="-1"/>
    <tag k="source:name" v="nameit/uir-adr"/>
  </way>
  <way id="22758850" version="2" timestamp="2008-09-16T10:44:45Z" uid="1066" user="pavel" changeset="646258">
    <nd ref="244253876"/>
    <nd ref="244253878"/>
    <tag k="created_by" v="JOSM"/>
    <tag k="highway" v="residential"/>
    <tag k="name" v="Pod přesypem"/>
    <tag k="name:source" v="nameit/uir-adr"/>
  </way>
  <way id="22758850" version="3" timestamp="2009-03-12T01:56:37Z" uid="3516" user="BiIbo" changeset="792152">
    <nd ref="244253876"/>
    <nd ref="244253878"/>
    <tag k="highway" v="residential"/>
    <tag k="name" v="Pod Přesypem"/>
    <tag k="source:name" v="nameit/uir-adr"/>
  </way>
  <way id="22758850" version="4" timestamp="2011-05-15T16:05:24Z" uid="3516" user="BiIbo" changeset="8151921">
    <nd ref="244253876"/>
    <nd ref="1286582975"/>
    <nd ref="244253878"/>
    <tag k="highway" v="residential"/>
    <tag k="name" v="Pod Přesypem"/>
    <tag k="source:name" v="nameit/uir-adr"/>
  </way>
  <way id="22758850" version="5" timestamp="2011-06-29T14:04:26Z" uid="479006" user="jaba_cz" changeset="8581286">
    <nd ref="244253876"/>
    <nd ref="1286582975"/>
    <nd ref="244253878"/>
    <tag k="highway" v="residential"/>
    <tag k="name" v="Pod Přesypem"/>
    <tag k="oneway" v="yes"/>
    <tag k="source:name" v="nameit/uir-adr"/>
  </way>
  <way id="22758851" version="2" timestamp="2008-09-16T10:43:41Z" uid="1066" user="pavel" changeset="646258">
    <nd ref="244253321"/>
    <nd ref="244253880"/>
    <nd ref="244253877"/>
    <nd ref="244253881"/>
    <tag k="created_by" v="JOSM"/>
    <tag k="highway" v="residential"/>
    <tag k="name" v="Na přesypu"/>
    <tag k="name:source" v="nameit/uir-adr"/>
  </way>
  <way id="22758851" version="3" timestamp="2009-03-12T01:56:36Z" uid="3516" user="BiIbo" changeset="792152">
    <nd ref="244253321"/>
    <nd ref="244253880"/>
    <nd ref="244253877"/>
    <nd ref="244253881"/>
    <tag k="highway" v="residential"/>
    <tag k="name" v="Na Přesypu"/>
    <tag k="source:name" v="nameit/uir-adr"/>
  </way>
  <way id="22758851" version="4" timestamp="2011-06-29T14:07:34Z" uid="479006" user="jaba_cz" changeset="8581286">
    <nd ref="244253321"/>
    <nd ref="244253880"/>
    <nd ref="244253877"/>
    <tag k="highway" v="residential"/>
    <tag k="name" v="Na Přesypu"/>
    <tag k="oneway" v="yes"/>
    <tag k="source:name" v="nameit/uir-adr"/>
  </way>
  <way id="22758852" version="2" timestamp="2008-09-16T10:45:38Z" uid="1066" user="pavel" changeset="646258">
    <nd ref="244253894"/>
    <nd ref="244253895"/>
    <tag k="created_by" v="JOSM"/>
    <tag k="highway" v="residential"/>
    <tag k="name" v="Košťálkova"/>
    <tag k="name:source" v="nameit/uir-adr"/>
  </way>
  <way id="22758852" version="3" timestamp="2009-03-13T23:52:58Z" uid="3516" user="BiIbo" changeset="803821">
    <nd ref="244253894"/>
    <nd ref="244253895"/>
    <tag k="highway" v="residential"/>
    <tag k="name" v="Košťálkova"/>
    <tag k="source:name" v="nameit/uir-adr"/>
  </way>
  <way id="22758852" version="4" timestamp="2011-05-15T16:34:24Z" uid="3516" user="BiIbo" changeset="8151921">
    <nd ref="1286616432"/>
    <nd ref="1286616438"/>
    <nd ref="244253894"/>
    <nd ref="1286616441"/>
    <nd ref="244253895"/>
    <tag k="highway" v="residential"/>
    <tag k="name" v="Košťálkova"/>
    <tag k="source:name" v="nameit/uir-adr"/>
  </way>
  <way id="22758853" version="2" timestamp="2008-09-16T10:43:27Z" uid="1066" user="pavel" changeset="646258">
    <nd ref="25237298"/>
    <nd ref="25985582"/>
    <nd ref="25985563"/>
    <nd ref="25985564"/>
    <nd ref="21303760"/>
    <nd ref="25985572"/>
    <nd ref="25985592"/>
    <tag k="created_by" v="JOSM"/>
    <tag k="highway" v="residential"/>
    <tag k="name" v="Vršní"/>
    <tag k="name:source" v="nameit/uir-adr"/>
  </way>
  <way id="22758853" version="3" timestamp="2009-03-05T19:15:08Z" uid="3516" user="BiIbo" changeset="739570">
    <nd ref="25237298"/>
    <nd ref="25985582"/>
    <nd ref="25985563"/>
    <nd ref="25985564"/>
    <nd ref="21303760"/>
    <nd ref="25985572"/>
    <nd ref="25985592"/>
    <tag k="highway" v="residential"/>
    <tag k="name" v="Vršní"/>
    <tag k="source:name" v="nameit/uir-adr"/>
  </way>
  <way id="22758853" version="4" timestamp="2010-04-22T19:50:50Z" uid="162287" user="zby-cz" changeset="4498169">
    <nd ref="25237298"/>
    <nd ref="25985582"/>
    <nd ref="25985563"/>
    <nd ref="25985564"/>
    <nd ref="21303760"/>
    <nd ref="25985572"/>
    <nd ref="703876883"/>
    <nd ref="25985592"/>
    <tag k="highway" v="residential"/>
    <tag k="name" v="Vršní"/>
    <tag k="source:name" v="nameit/uir-adr"/>
  </way>
  <way id="22758853" version="5" timestamp="2011-01-31T19:57:31Z" uid="72235" user="Basstoelpel" changeset="7148430">
    <nd ref="25985564"/>
    <nd ref="25985563"/>
    <nd ref="25985582"/>
    <nd ref="25237298"/>
    <tag k="highway" v="residential"/>
    <tag k="name" v="Vršní"/>
    <tag k="oneway" v="yes"/>
    <tag k="source:name" v="nameit/uir-adr"/>
  </way>
  <way id="22758853" version="6" timestamp="2011-05-15T16:05:16Z" uid="3516" user="BiIbo" changeset="8151921">
    <nd ref="25985564"/>
    <nd ref="25985563"/>
    <nd ref="25985582"/>
    <nd ref="1286582959"/>
    <nd ref="1286582902"/>
    <nd ref="1286582613"/>
    <nd ref="321228987"/>
    <tag k="highway" v="residential"/>
    <tag k="name" v="Vršní"/>
    <tag k="oneway" v="yes"/>
    <tag k="source:name" v="nameit/uir-adr"/>
  </way>
  <way id="22758854" version="2" timestamp="2008-09-16T10:45:34Z" uid="1066" user="pavel" changeset="646258">
    <nd ref="25985584"/>
    <nd ref="25985583"/>
    <nd ref="25985562"/>
    <nd ref="21303780"/>
    <nd ref="21303763"/>
    <nd ref="21303767"/>
    <tag k="created_by" v="JOSM"/>
    <tag k="highway" v="residential"/>
    <tag k="name" v="Chaberská"/>
    <tag k="name:source" v="nameit/uir-adr"/>
  </way>
  <way id="22758854" version="3" timestamp="2009-02-16T20:03:21Z" uid="17615" user="Petr Dlouhý" changeset="488030">
    <nd ref="25985584"/>
    <nd ref="25985583"/>
    <nd ref="25985562"/>
    <nd ref="21303780"/>
    <nd ref="21303763"/>
    <nd ref="21303767"/>
    <nd ref="346315803"/>
    <nd ref="346315805"/>
    <nd ref="346315808"/>
    <tag k="created_by" v="JOSM"/>
    <tag k="highway" v="residential"/>
    <tag k="name" v="Chaberská"/>
    <tag k="name:source" v="nameit/uir-adr"/>
  </way>
  <way id="22758854" version="4" timestamp="2009-03-05T19:15:07Z" uid="3516" user="BiIbo" changeset="739570">
    <nd ref="25985584"/>
    <nd ref="25985583"/>
    <nd ref="25985562"/>
    <nd ref="21303780"/>
    <nd ref="21303763"/>
    <nd ref="21303767"/>
    <nd ref="346315803"/>
    <nd ref="346315805"/>
    <nd ref="346315808"/>
    <tag k="highway" v="residential"/>
    <tag k="name" v="Chaberská"/>
    <tag k="source:name" v="nameit/uir-adr"/>
  </way>
  <way id="22758854" version="5" timestamp="2010-12-03T13:45:49Z" uid="17615" user="Petr Dlouhý" changeset="6526464">
    <nd ref="25985584"/>
    <nd ref="25985583"/>
    <nd ref="25985562"/>
    <nd ref="21303780"/>
    <nd ref="21303763"/>
    <nd ref="21303767"/>
    <nd ref="346315803"/>
    <nd ref="1018233300"/>
    <nd ref="346315805"/>
    <nd ref="1018233629"/>
    <nd ref="346315808"/>
    <tag k="highway" v="residential"/>
    <tag k="name" v="Chaberská"/>
    <tag k="source:name" v="nameit/uir-adr"/>
  </way>
  <way id="22758854" version="6" timestamp="2011-01-27T21:23:41Z" uid="72235" user="Basstoelpel" changeset="7107920">
    <nd ref="25985584"/>
    <nd ref="25985583"/>
    <nd ref="25985562"/>
    <nd ref="21303780"/>
    <nd ref="21303763"/>
    <nd ref="21303767"/>
    <nd ref="346315803"/>
    <nd ref="1018233300"/>
    <nd ref="346315805"/>
    <tag k="FIXME" v="north part might not be oneway"/>
    <tag k="hgv" v="delivery"/>
    <tag k="highway" v="residential"/>
    <tag k="name" v="Chaberská"/>
    <tag k="oneway" v="yes"/>
    <tag k="source:name" v="nameit/uir-adr"/>
  </way>
  <way id="22758854" version="7" timestamp="2011-01-31T19:57:31Z" uid="72235" user="Basstoelpel" changeset="7148430">
    <nd ref="25985584"/>
    <nd ref="25985583"/>
    <nd ref="25985562"/>
    <nd ref="21303780"/>
    <nd ref="21303763"/>
    <tag k="hgv" v="delivery"/>
    <tag k="highway" v="residential"/>
    <tag k="name" v="Chaberská"/>
    <tag k="oneway" v="yes"/>
    <tag k="source:name" v="nameit/uir-adr"/>
  </way>
  <way id="22758855" version="2" timestamp="2008-09-16T10:43:58Z" uid="1066" user="pavel" changeset="646258">
    <nd ref="25985582"/>
    <nd ref="25985583"/>
    <tag k="created_by" v="JOSM"/>
    <tag k="highway" v="residential"/>
    <tag k="name" v="Sedlecká"/>
    <tag k="name:source" v="nameit/uir-adr"/>
  </way>
  <way id="22758855" version="3" timestamp="2009-03-05T19:15:06Z" uid="3516" user="BiIbo" changeset="739570">
    <nd ref="25985582"/>
    <nd ref="25985583"/>
    <tag k="highway" v="residential"/>
    <tag k="name" v="Sedlecká"/>
    <tag k="source:name" v="nameit/uir-adr"/>
  </way>
  <way id="22758855" version="4" timestamp="2011-02-03T19:04:09Z" uid="72235" user="Basstoelpel" changeset="7176704">
    <nd ref="25985583"/>
    <nd ref="25985582"/>
    <tag k="highway" v="residential"/>
    <tag k="name" v="Sedlecká"/>
    <tag k="oneway" v="yes"/>
    <tag k="source:name" v="nameit/uir-adr"/>
  </way>
  <way id="22758857" version="3" timestamp="2008-09-16T10:44:00Z" uid="1066" user="pavel" changeset="646258">
    <nd ref="248180913"/>
    <nd ref="244254523"/>
    <tag k="created_by" v="JOSM"/>
    <tag k="highway" v="residential"/>
    <tag k="name" v="Přádova"/>
    <tag k="name:source" v="nameit/uir-adr"/>
  </way>
  <way id="22758857" version="4" timestamp="2008-09-26T21:31:40Z" uid="17615" user="Petr Dlouhý" changeset="703695">
    <nd ref="300138003"/>
    <nd ref="300138005"/>
    <nd ref="300138006"/>
    <nd ref="248180913"/>
    <nd ref="244254523"/>
    <tag k="created_by" v="JOSM"/>
    <tag k="highway" v="residential"/>
    <tag k="name" v="Přádova"/>
    <tag k="name:source" v="nameit/uir-adr"/>
  </way>
  <way id="22758857" version="5" timestamp="2009-03-12T01:56:39Z" uid="3516" user="BiIbo" changeset="792152">
    <nd ref="300138003"/>
    <nd ref="300138005"/>
    <nd ref="300138006"/>
    <nd ref="248180913"/>
    <nd ref="244254523"/>
    <tag k="highway" v="residential"/>
    <tag k="name" v="Přádova"/>
    <tag k="source:name" v="nameit/uir-adr"/>
  </way>
  <way id="22758857" version="6" timestamp="2010-12-03T13:44:12Z" uid="17615" user="Petr Dlouhý" changeset="6526464">
    <nd ref="300138003"/>
    <nd ref="300138005"/>
    <nd ref="300138006"/>
    <nd ref="248180913"/>
    <nd ref="1018232910"/>
    <nd ref="244254523"/>
    <tag k="highway" v="residential"/>
    <tag k="name" v="Přádova"/>
    <tag k="source:name" v="nameit/uir-adr"/>
  </way>
  <way id="22758857" version="7" timestamp="2011-05-15T19:07:15Z" uid="3516" user="BiIbo" changeset="8151921">
    <nd ref="300138003"/>
    <nd ref="1286786272"/>
    <nd ref="1286786237"/>
    <nd ref="300138005"/>
    <nd ref="300138006"/>
    <nd ref="248180913"/>
    <nd ref="1018232910"/>
    <nd ref="244254523"/>
    <tag k="highway" v="residential"/>
    <tag k="name" v="Přádova"/>
    <tag k="source:name" v="nameit/uir-adr"/>
  </way>
  <way id="22758858" version="2" timestamp="2008-09-16T10:45:51Z" uid="1066" user="pavel" changeset="646258">
    <nd ref="244254531"/>
    <nd ref="244254524"/>
    <nd ref="244254533"/>
    <tag k="created_by" v="JOSM"/>
    <tag k="highway" v="residential"/>
    <tag k="name" v="Na dlážděnce"/>
    <tag k="name:source" v="nameit/uir-adr"/>
  </way>
  <way id="22758858" version="3" timestamp="2008-09-26T21:31:40Z" uid="17615" user="Petr Dlouhý" changeset="703695">
    <nd ref="300137905"/>
    <nd ref="300137904"/>
    <nd ref="300137902"/>
    <nd ref="300137901"/>
    <nd ref="300137899"/>
    <nd ref="300137897"/>
    <nd ref="300137896"/>
    <nd ref="300137895"/>
    <nd ref="300137893"/>
    <nd ref="300137939"/>
    <nd ref="300137891"/>
    <nd ref="300137889"/>
    <nd ref="300137887"/>
    <nd ref="300137888"/>
    <nd ref="300137885"/>
    <nd ref="300137945"/>
    <nd ref="300137884"/>
    <nd ref="300137882"/>
    <nd ref="244254531"/>
    <nd ref="300138009"/>
    <nd ref="244254524"/>
    <nd ref="244254533"/>
    <tag k="created_by" v="JOSM"/>
    <tag k="highway" v="residential"/>
    <tag k="name" v="Na dlážděnce"/>
    <tag k="name:source" v="nameit/uir-adr"/>
  </way>
  <way id="22758858" version="4" timestamp="2008-11-21T16:36:28Z" uid="17615" user="Petr Dlouhý" changeset="776095">
    <nd ref="24958975"/>
    <nd ref="313526274"/>
    <nd ref="313526273"/>
    <nd ref="313526272"/>
    <nd ref="313526271"/>
    <nd ref="313526270"/>
    <nd ref="313526268"/>
    <nd ref="313526267"/>
    <nd ref="313526266"/>
    <nd ref="313526260"/>
    <nd ref="313526259"/>
    <nd ref="313526256"/>
    <tag k="created_by" v="JOSM"/>
    <tag k="highway" v="tertiary"/>
    <tag k="name" v="Trojská"/>
    <tag k="name:source" v="nameit/uir-adr"/>
  </way>
  <way id="22758858" version="5" timestamp="2009-02-16T20:28:53Z" uid="17615" user="Petr Dlouhý" changeset="488030">
    <nd ref="24958975"/>
    <nd ref="313526274"/>
    <nd ref="313526273"/>
    <nd ref="313526272"/>
    <nd ref="313526271"/>
    <nd ref="313526270"/>
    <nd ref="313526268"/>
    <nd ref="313526267"/>
    <nd ref="346328720"/>
    <nd ref="313526266"/>
    <nd ref="313526260"/>
    <nd ref="313526259"/>
    <nd ref="313526256"/>
    <tag k="created_by" v="JOSM"/>
    <tag k="highway" v="tertiary"/>
    <tag k="name" v="Trojská"/>
    <tag k="name:source" v="nameit/uir-adr"/>
  </way>
  <way id="22758858" version="6" timestamp="2009-03-12T01:56:39Z" uid="3516" user="BiIbo" changeset="792152">
    <nd ref="24958975"/>
    <nd ref="313526274"/>
    <nd ref="313526273"/>
    <nd ref="313526272"/>
    <nd ref="313526271"/>
    <nd ref="313526270"/>
    <nd ref="313526268"/>
    <nd ref="313526267"/>
    <nd ref="346328720"/>
    <nd ref="313526266"/>
    <nd ref="313526260"/>
    <nd ref="313526259"/>
    <nd ref="313526256"/>
    <tag k="highway" v="tertiary"/>
    <tag k="name" v="Trojská"/>
    <tag k="source:name" v="nameit/uir-adr"/>
  </way>
  <way id="22758858" version="7" timestamp="2011-02-23T00:00:37Z" uid="413068" user="spanel" changeset="7368864">
    <nd ref="24958975"/>
    <nd ref="313526274"/>
    <nd ref="313526273"/>
    <nd ref="313526272"/>
    <nd ref="313526271"/>
    <nd ref="313526270"/>
    <nd ref="313526268"/>
    <nd ref="313526267"/>
    <nd ref="346328720"/>
    <nd ref="313526266"/>
    <nd ref="313526260"/>
    <nd ref="313526259"/>
    <nd ref="313526256"/>
    <tag k="highway" v="residential"/>
    <tag k="name" v="Trojská"/>
    <tag k="source:name" v="nameit/uir-adr"/>
  </way>
  <way id="22758858" version="8" timestamp="2011-02-23T10:35:01Z" uid="413068" user="spanel" changeset="7371148">
    <nd ref="24958975"/>
    <nd ref="1167897878"/>
    <nd ref="313526274"/>
    <nd ref="313526273"/>
    <nd ref="313526272"/>
    <nd ref="313526271"/>
    <nd ref="313526270"/>
    <nd ref="313526268"/>
    <nd ref="313526267"/>
    <nd ref="346328720"/>
    <nd ref="313526266"/>
    <nd ref="313526260"/>
    <nd ref="313526259"/>
    <nd ref="313526256"/>
    <tag k="highway" v="residential"/>
    <tag k="name" v="Trojská"/>
    <tag k="source:name" v="nameit/uir-adr"/>
  </way>
  <way id="22758858" version="9" timestamp="2011-02-26T12:22:31Z" uid="413068" user="spanel" changeset="7399240">
    <nd ref="24958975"/>
    <nd ref="1167897878"/>
    <nd ref="313526274"/>
    <nd ref="1174536752"/>
    <nd ref="313526273"/>
    <nd ref="313526272"/>
    <nd ref="313526271"/>
    <nd ref="313526270"/>
    <nd ref="313526268"/>
    <nd ref="313526267"/>
    <nd ref="346328720"/>
    <nd ref="313526266"/>
    <nd ref="313526260"/>
    <nd ref="313526259"/>
    <nd ref="313526256"/>
    <tag k="highway" v="residential"/>
    <tag k="name" v="Trojská"/>
    <tag k="source:name" v="nameit/uir-adr"/>
  </way>
  <way id="22758858" version="10" timestamp="2011-04-05T18:42:04Z" uid="136802" user="vorner" changeset="7777842">
    <nd ref="24958975"/>
    <nd ref="1167897878"/>
    <nd ref="313526274"/>
    <nd ref="1233950637"/>
    <nd ref="1174536752"/>
    <nd ref="313526273"/>
    <nd ref="313526272"/>
    <nd ref="313526271"/>
    <nd ref="313526270"/>
    <nd ref="313526268"/>
    <nd ref="313526267"/>
    <nd ref="346328720"/>
    <nd ref="313526266"/>
    <nd ref="313526260"/>
    <nd ref="313526259"/>
    <nd ref="313526256"/>
    <tag k="highway" v="residential"/>
    <tag k="name" v="Trojská"/>
    <tag k="source:name" v="nameit/uir-adr"/>
  </way>
  <way id="22758858" version="11" timestamp="2011-04-12T19:32:01Z" uid="429133" user="pipula" changeset="7845933">
    <nd ref="24958975"/>
    <nd ref="1167897878"/>
    <nd ref="313526274"/>
    <nd ref="1233950637"/>
    <nd ref="1174536752"/>
    <nd ref="313526273"/>
    <nd ref="313526272"/>
    <nd ref="1242358920"/>
    <nd ref="313526271"/>
    <nd ref="313526270"/>
    <nd ref="1242358900"/>
    <nd ref="313526268"/>
    <nd ref="313526267"/>
    <nd ref="346328720"/>
    <nd ref="313526266"/>
    <nd ref="313526260"/>
    <nd ref="313526259"/>
    <nd ref="313526256"/>
    <tag k="highway" v="residential"/>
    <tag k="name" v="Trojská"/>
    <tag k="source:name" v="nameit/uir-adr"/>
  </way>
  <way id="22758858" version="12" timestamp="2011-05-15T19:07:16Z" uid="3516" user="BiIbo" changeset="8151921">
    <nd ref="24958975"/>
    <nd ref="1286786293"/>
    <nd ref="1167897878"/>
    <nd ref="313526274"/>
    <nd ref="1233950637"/>
    <nd ref="1174536752"/>
    <nd ref="313526273"/>
    <nd ref="313526272"/>
    <nd ref="1242358920"/>
    <nd ref="313526271"/>
    <nd ref="313526270"/>
    <nd ref="1242358900"/>
    <nd ref="313526268"/>
    <nd ref="313526267"/>
    <nd ref="346328720"/>
    <nd ref="313526266"/>
    <nd ref="313526260"/>
    <nd ref="313526259"/>
    <nd ref="313526256"/>
    <tag k="highway" v="residential"/>
    <tag k="name" v="Trojská"/>
    <tag k="source:name" v="nameit/uir-adr"/>
  </way>
  <way id="22758858" version="13" timestamp="2011-05-15T22:37:26Z" uid="3516" user="BiIbo" changeset="8151921">
    <nd ref="24958975"/>
    <nd ref="1286786293"/>
    <nd ref="1167897878"/>
    <nd ref="313526274"/>
    <nd ref="1233950637"/>
    <nd ref="1174536752"/>
    <nd ref="313526273"/>
    <nd ref="1286978852"/>
    <nd ref="313526272"/>
    <nd ref="1286978851"/>
    <nd ref="1242358920"/>
    <nd ref="313526271"/>
    <nd ref="313526270"/>
    <nd ref="1242358900"/>
    <nd ref="313526268"/>
    <nd ref="313526267"/>
    <nd ref="346328720"/>
    <nd ref="313526266"/>
    <nd ref="313526260"/>
    <nd ref="313526259"/>
    <nd ref="313526256"/>
    <tag k="highway" v="residential"/>
    <tag k="name" v="Trojská"/>
    <tag k="source:name" v="nameit/uir-adr"/>
  </way>
  <way id="22758858" version="14" timestamp="2011-10-13T12:34:00Z" uid="527259" user="Vratislav Filler" changeset="9546856">
    <nd ref="24958975"/>
    <nd ref="1286786293"/>
    <nd ref="1167897878"/>
    <nd ref="313526274"/>
    <nd ref="1233950637"/>
    <nd ref="1174536752"/>
    <nd ref="313526273"/>
    <nd ref="1286978852"/>
    <nd ref="313526272"/>
    <nd ref="1286978851"/>
    <nd ref="1242358920"/>
    <nd ref="313526271"/>
    <nd ref="313526270"/>
    <nd ref="1242358900"/>
    <nd ref="313526268"/>
    <nd ref="313526267"/>
    <nd ref="346328720"/>
    <nd ref="313526266"/>
    <nd ref="313526260"/>
    <tag k="highway" v="residential"/>
    <tag k="name" v="Trojská"/>
    <tag k="source:name" v="nameit/uir-adr"/>
  </way>
  <way id="22758859" version="2" timestamp="2008-09-16T10:44:15Z" uid="1066" user="pavel" changeset="646258">
    <nd ref="244254534"/>
    <nd ref="244254535"/>
    <nd ref="244254536"/>
    <nd ref="244254537"/>
    <nd ref="244253881"/>
    <nd ref="244254538"/>
    <nd ref="244253878"/>
    <nd ref="244254539"/>
    <nd ref="244254541"/>
    <nd ref="244254542"/>
    <nd ref="173673367"/>
    <nd ref="244254543"/>
    <nd ref="24958976"/>
    <tag k="created_by" v="JOSM"/>
    <tag k="highway" v="residential"/>
    <tag k="name" v="Na Šutce"/>
    <tag k="name:source" v="nameit/uir-adr"/>
  </way>
  <way id="22758859" version="3" timestamp="2009-02-23T22:28:25Z" uid="17615" user="Petr Dlouhý" changeset="639481">
    <nd ref="244254534"/>
    <nd ref="244254535"/>
    <nd ref="350566381"/>
    <nd ref="244254536"/>
    <nd ref="244254537"/>
    <nd ref="244253881"/>
    <nd ref="244254538"/>
    <nd ref="244253878"/>
    <nd ref="244254539"/>
    <nd ref="244254541"/>
    <nd ref="244254542"/>
    <nd ref="173673367"/>
    <nd ref="244254543"/>
    <nd ref="24958976"/>
    <tag k="created_by" v="JOSM"/>
    <tag k="highway" v="residential"/>
    <tag k="name" v="Na Šutce"/>
    <tag k="name:source" v="nameit/uir-adr"/>
  </way>
  <way id="22758859" version="4" timestamp="2009-03-12T01:56:38Z" uid="3516" user="BiIbo" changeset="792152">
    <nd ref="244254534"/>
    <nd ref="244254535"/>
    <nd ref="350566381"/>
    <nd ref="244254536"/>
    <nd ref="244254537"/>
    <nd ref="244253881"/>
    <nd ref="244254538"/>
    <nd ref="244253878"/>
    <nd ref="244254539"/>
    <nd ref="244254541"/>
    <nd ref="244254542"/>
    <nd ref="173673367"/>
    <nd ref="244254543"/>
    <nd ref="24958976"/>
    <tag k="highway" v="residential"/>
    <tag k="name" v="Na Šutce"/>
    <tag k="source:name" v="nameit/uir-adr"/>
  </way>
  <way id="22758859" version="5" timestamp="2011-02-22T23:57:50Z" uid="413068" user="spanel" changeset="7368798">
    <nd ref="244254534"/>
    <nd ref="244254535"/>
    <nd ref="350566381"/>
    <nd ref="244254536"/>
    <nd ref="244254537"/>
    <nd ref="244253881"/>
    <nd ref="244254538"/>
    <nd ref="244253878"/>
    <nd ref="1167282079"/>
    <nd ref="244254539"/>
    <nd ref="244254541"/>
    <nd ref="244254542"/>
    <nd ref="173673367"/>
    <nd ref="244254543"/>
    <nd ref="24958976"/>
    <tag k="highway" v="residential"/>
    <tag k="name" v="Na Šutce"/>
    <tag k="source:name" v="nameit/uir-adr"/>
  </way>
  <way id="22758859" version="6" timestamp="2011-02-23T10:22:29Z" uid="413068" user="spanel" changeset="7371044"/>
  <way id="22758860" version="2" timestamp="2008-09-16T10:42:20Z" uid="1066" user="pavel" changeset="646258">
    <nd ref="165923755"/>
    <nd ref="244253870"/>
    <tag k="created_by" v="JOSM"/>
    <tag k="highway" v="residential"/>
    <tag k="name" v="U Vlachovky"/>
    <tag k="name:source" v="nameit/uir-adr"/>
  </way>
  <way id="22758860" version="3" timestamp="2009-03-12T01:56:38Z" uid="3516" user="BiIbo" changeset="792152">
    <nd ref="165923755"/>
    <nd ref="244253870"/>
    <tag k="highway" v="residential"/>
    <tag k="name" v="U Vlachovky"/>
    <tag k="source:name" v="nameit/uir-adr"/>
  </way>
  <way id="22758860" version="4" timestamp="2010-12-03T13:46:21Z" uid="17615" user="Petr Dlouhý" changeset="6526464">
    <nd ref="165923755"/>
    <nd ref="1018232275"/>
    <nd ref="244253870"/>
    <tag k="highway" v="residential"/>
    <tag k="name" v="U Vlachovky"/>
    <tag k="source:name" v="nameit/uir-adr"/>
  </way>
  <way id="22758860" version="5" timestamp="2011-05-15T16:25:19Z" uid="3516" user="BiIbo" changeset="8151921">
    <nd ref="165923755"/>
    <nd ref="1018232275"/>
    <nd ref="1286607553"/>
    <nd ref="244253870"/>
    <tag k="highway" v="residential"/>
    <tag k="name" v="U Vlachovky"/>
    <tag k="source:name" v="nameit/uir-adr"/>
  </way>
  <way id="22758882" version="2" timestamp="2008-09-16T10:43:52Z" uid="1066" user="pavel" changeset="646258">
    <nd ref="173607189"/>
    <nd ref="244254925"/>
    <tag k="created_by" v="JOSM"/>
    <tag k="highway" v="residential"/>
    <tag k="name" v="Hořínecká"/>
    <tag k="name:source" v="nameit/uir-adr"/>
  </way>
  <way id="22758882" version="3" timestamp="2009-03-11T23:20:26Z" uid="3516" user="BiIbo" changeset="792152">
    <nd ref="173607189"/>
    <nd ref="244254925"/>
    <tag k="created_by" v="JOSM"/>
    <tag k="highway" v="residential"/>
    <tag k="name" v="Hořínecká"/>
    <tag k="source:name" v="nameit/uir-adr"/>
  </way>
  <way id="22758913" version="2" timestamp="2008-09-05T10:54:44Z" uid="1066" user="pavel" changeset="539695">
    <nd ref="61311944"/>
    <nd ref="244255652"/>
    <nd ref="171600602"/>
    <tag k="created_by" v="JOSM"/>
    <tag k="highway" v="residential"/>
    <tag k="name" v="Sychrovská"/>
    <tag k="name:source" v="nameit/uir-adr"/>
  </way>
  <way id="22758913" version="3" timestamp="2009-03-14T13:16:44Z" uid="3516" user="BiIbo" changeset="804731">
    <nd ref="61311944"/>
    <nd ref="244255652"/>
    <nd ref="171600602"/>
    <tag k="highway" v="residential"/>
    <tag k="name" v="Sychrovská"/>
    <tag k="source:name" v="nameit/uir-adr"/>
  </way>
  <way id="22758913" version="4" timestamp="2010-10-25T12:44:29Z" uid="243570" user="MoZek" changeset="6171954">
    <nd ref="61311944"/>
    <nd ref="244255652"/>
    <nd ref="964823169"/>
    <nd ref="171600602"/>
    <tag k="highway" v="residential"/>
    <tag k="name" v="Sychrovská"/>
    <tag k="source:name" v="nameit/uir-adr"/>
  </way>
  <way id="22758913" version="5" timestamp="2010-10-25T12:50:07Z" uid="243570" user="MoZek" changeset="6171954">
    <nd ref="171600602"/>
    <nd ref="964823169"/>
    <nd ref="244255652"/>
    <nd ref="61311944"/>
    <tag k="highway" v="residential"/>
    <tag k="name" v="Sychrovská"/>
    <tag k="oneway" v="yes"/>
    <tag k="source:name" v="nameit/uir-adr"/>
  </way>
  <way id="22758913" version="6" timestamp="2011-02-26T22:04:57Z" uid="412792" user="Buft" changeset="7405031">
    <nd ref="171600602"/>
    <nd ref="964823169"/>
    <nd ref="244255652"/>
    <nd ref="1175743355"/>
    <nd ref="61311944"/>
    <tag k="highway" v="residential"/>
    <tag k="name" v="Sychrovská"/>
    <tag k="oneway" v="yes"/>
    <tag k="source:name" v="nameit/uir-adr"/>
  </way>
  <way id="22758913" version="7" timestamp="2011-03-19T21:34:03Z" uid="412792" user="Buft" changeset="7610522">
    <nd ref="171600602"/>
    <nd ref="964823169"/>
    <nd ref="244255652"/>
    <nd ref="1175743355"/>
    <nd ref="61311944"/>
    <tag k="highway" v="living_street"/>
    <tag k="name" v="Sychrovská"/>
    <tag k="oneway" v="yes"/>
    <tag k="source:name" v="nameit/uir-adr"/>
  </way>
  <way id="22758946" version="4" timestamp="2010-07-08T20:18:32Z" uid="74617" user="JohnSmith" changeset="5168730">
    <nd ref="244255898"/>
    <nd ref="244255899"/>
    <tag k="highway" v="residential"/>
    <tag k="maxspeed" v="50"/>
    <tag k="maxspeed:source" v="default residential speed limit in Australia"/>
    <tag k="name" v="Wellington Crescent"/>
  </way>
  <way id="22758946" version="5" timestamp="2012-01-15T23:04:47Z" uid="147510" user="woodpeck_fixbot" changeset="10404406">
    <nd ref="244255898"/>
    <nd ref="244255899"/>
    <tag k="highway" v="residential"/>
    <tag k="name" v="Wellington Crescent"/>
  </way>
  <way id="22758952" version="4" timestamp="2010-02-24T09:05:57Z" uid="23543" user="jkjk" changeset="3961102">
    <nd ref="244255932"/>
    <nd ref="244255933"/>
    <nd ref="244255934"/>
    <nd ref="652409063"/>
    <nd ref="244255935"/>
    <tag k="highway" v="motorway_link"/>
    <tag k="oneway" v="yes"/>
  </way>
  <way id="22758952" version="5" timestamp="2012-02-15T18:01:06Z" uid="527259" user="Vratislav Filler" changeset="10694680">
    <nd ref="244255932"/>
    <nd ref="244255933"/>
    <nd ref="244255934"/>
    <nd ref="1634323649"/>
    <nd ref="1634323647"/>
    <nd ref="244255935"/>
    <tag k="highway" v="motorway_link"/>
    <tag k="oneway" v="yes"/>
  </way>
  <way id="22758952" version="6" timestamp="2012-02-15T19:13:57Z" uid="527259" user="Vratislav Filler" changeset="10695392"/>
  <way id="22758953" version="2" timestamp="2008-02-10T17:28:22Z" uid="1066" user="pavel" changeset="93371">
    <nd ref="29094895"/>
    <nd ref="244010556"/>
    <nd ref="30584237"/>
    <nd ref="21383531"/>
    <nd ref="150609808"/>
    <nd ref="150609802"/>
    <nd ref="150609811"/>
    <nd ref="150609897"/>
    <nd ref="150610014"/>
    <nd ref="30572823"/>
    <nd ref="30572946"/>
    <nd ref="21383532"/>
    <nd ref="150610138"/>
    <nd ref="150610132"/>
    <nd ref="150610128"/>
    <nd ref="30574240"/>
    <nd ref="21383533"/>
    <nd ref="21383534"/>
    <nd ref="30575768"/>
    <nd ref="30693045"/>
    <nd ref="21383535"/>
    <nd ref="30576181"/>
    <tag k="created_by" v="Potlatch alpha"/>
    <tag k="highway" v="trunk"/>
    <tag k="name" v="Průmyslová"/>
    <tag k="oneway" v="true"/>
    <tag k="ref" v="601"/>
  </way>
  <way id="22758953" version="3" timestamp="2008-03-28T20:27:30Z" uid="8007" user="vrabcak" changeset="411842">
    <nd ref="29094895"/>
    <nd ref="244010556"/>
    <nd ref="30584237"/>
    <nd ref="21383531"/>
    <nd ref="150609808"/>
    <nd ref="150609802"/>
    <nd ref="150609811"/>
    <nd ref="150609897"/>
    <nd ref="150610014"/>
    <nd ref="30572823"/>
    <nd ref="30572946"/>
    <nd ref="254492122"/>
    <nd ref="21383532"/>
    <nd ref="150610138"/>
    <nd ref="150610132"/>
    <nd ref="150610128"/>
    <nd ref="30574240"/>
    <nd ref="21383533"/>
    <nd ref="21383534"/>
    <nd ref="30575768"/>
    <nd ref="30693045"/>
    <nd ref="21383535"/>
    <nd ref="30576181"/>
    <tag k="created_by" v="Potlatch alpha"/>
    <tag k="highway" v="trunk"/>
    <tag k="name" v="Průmyslová"/>
    <tag k="oneway" v="true"/>
    <tag k="ref" v="601"/>
  </way>
  <way id="22758953" version="4" timestamp="2008-04-15T21:17:08Z" uid="8007" user="vrabcak" changeset="153987">
    <nd ref="29094895"/>
    <nd ref="244010556"/>
    <nd ref="30584237"/>
    <nd ref="21383531"/>
    <nd ref="150609808"/>
    <nd ref="150609802"/>
    <nd ref="150609811"/>
    <nd ref="257817435"/>
    <nd ref="150609897"/>
    <nd ref="150610014"/>
    <nd ref="30572823"/>
    <nd ref="30572946"/>
    <nd ref="254492122"/>
    <nd ref="21383532"/>
    <nd ref="150610138"/>
    <nd ref="150610132"/>
    <nd ref="150610128"/>
    <nd ref="30574240"/>
    <nd ref="21383533"/>
    <nd ref="21383534"/>
    <nd ref="30575768"/>
    <nd ref="30693045"/>
    <nd ref="21383535"/>
    <nd ref="30576181"/>
    <tag k="created_by" v="Potlatch alpha"/>
    <tag k="highway" v="trunk"/>
    <tag k="name" v="Průmyslová"/>
    <tag k="oneway" v="true"/>
    <tag k="ref" v="601"/>
  </way>
  <way id="22758953" version="5" timestamp="2008-06-16T18:27:41Z" uid="3516" user="BiIbo" changeset="183766">
    <nd ref="29094895"/>
    <nd ref="244010556"/>
    <nd ref="270766854"/>
    <tag k="created_by" v="Potlatch alpha"/>
    <tag k="highway" v="trunk"/>
    <tag k="name" v="Průmyslová"/>
    <tag k="oneway" v="true"/>
    <tag k="ref" v="601"/>
  </way>
  <way id="22758953" version="6" timestamp="2009-03-14T15:29:59Z" uid="3516" user="BiIbo" changeset="807112">
    <nd ref="29094895"/>
    <nd ref="244010556"/>
    <nd ref="270766854"/>
    <tag k="highway" v="trunk"/>
    <tag k="name" v="Průmyslová"/>
    <tag k="oneway" v="yes"/>
    <tag k="ref" v="601"/>
  </way>
  <way id="22758953" version="7" timestamp="2010-05-01T15:11:20Z" uid="23543" user="jkjk" changeset="4575934">
    <nd ref="29094895"/>
    <nd ref="244010556"/>
    <tag k="highway" v="trunk"/>
    <tag k="name" v="Průmyslová"/>
    <tag k="oneway" v="yes"/>
    <tag k="ref" v="601"/>
  </way>
  <way id="22758953" version="8" timestamp="2010-10-06T18:14:45Z" uid="84326" user="Mike Crash" changeset="5971845">
    <nd ref="29094895"/>
    <nd ref="244010556"/>
    <tag k="highway" v="primary"/>
    <tag k="name" v="Průmyslová"/>
    <tag k="oneway" v="yes"/>
    <tag k="ref" v="601"/>
  </way>
  <way id="22758953" version="9" timestamp="2012-02-11T16:21:16Z" uid="8007" user="vrabcak" changeset="10654429"/>
  <way id="22758970" version="3" timestamp="2008-09-30T21:05:05Z" uid="1066" user="pavel" changeset="721761">
    <nd ref="25919005"/>
    <nd ref="25968720"/>
    <nd ref="25968721"/>
    <nd ref="25968722"/>
    <nd ref="25968723"/>
    <nd ref="25968724"/>
    <tag k="highway" v="residential"/>
    <tag k="name" v="Kaplanova"/>
    <tag k="name:source" v="nameit/uir-adr"/>
  </way>
  <way id="22758970" version="4" timestamp="2009-03-14T12:03:07Z" uid="3516" user="BiIbo" changeset="804731">
    <nd ref="25919005"/>
    <nd ref="25968720"/>
    <nd ref="25968721"/>
    <nd ref="25968722"/>
    <nd ref="25968723"/>
    <nd ref="25968724"/>
    <tag k="highway" v="residential"/>
    <tag k="name" v="Kaplanova"/>
    <tag k="source:name" v="nameit/uir-adr"/>
  </way>
  <way id="22758970" version="5" timestamp="2009-08-19T04:20:33Z" uid="13114" user="nijel" changeset="2196794">
    <nd ref="25919005"/>
    <nd ref="25968720"/>
    <nd ref="25968721"/>
    <nd ref="25968722"/>
    <tag k="highway" v="residential"/>
    <tag k="name" v="Kaplanova"/>
    <tag k="source:name" v="nameit/uir-adr"/>
  </way>
  <way id="22758970" version="6" timestamp="2010-04-11T16:57:49Z" uid="3516" user="BiIbo" changeset="4396005">
    <nd ref="25919005"/>
    <nd ref="25968720"/>
    <nd ref="693291621"/>
    <nd ref="25968721"/>
    <nd ref="25968722"/>
    <tag k="highway" v="residential"/>
    <tag k="name" v="Kaplanova"/>
    <tag k="source:name" v="nameit/uir-adr"/>
  </way>
  <way id="22758970" version="7" timestamp="2010-04-11T17:16:29Z" uid="3516" user="BiIbo" changeset="4396005">
    <nd ref="25919005"/>
    <nd ref="693315975"/>
    <nd ref="25968720"/>
    <nd ref="693291621"/>
    <nd ref="25968721"/>
    <nd ref="25968722"/>
    <tag k="highway" v="residential"/>
    <tag k="name" v="Kaplanova"/>
    <tag k="source:name" v="nameit/uir-adr"/>
  </way>
  <way id="22758970" version="8" timestamp="2011-10-25T21:26:01Z" uid="516480" user="janstepanek" changeset="9656211">
    <nd ref="25919005"/>
    <nd ref="1480553966"/>
    <nd ref="693315975"/>
    <nd ref="25968720"/>
    <nd ref="693291621"/>
    <nd ref="25968721"/>
    <nd ref="25968722"/>
    <tag k="highway" v="residential"/>
    <tag k="name" v="Kaplanova"/>
    <tag k="source:name" v="nameit/uir-adr"/>
  </way>
  <way id="22758979" version="3" timestamp="2008-03-24T18:06:39Z" uid="1066" user="pavel" changeset="385773">
    <nd ref="29942538"/>
    <nd ref="29942539"/>
    <nd ref="29942540"/>
    <nd ref="31997119"/>
    <nd ref="31997158"/>
    <nd ref="29942542"/>
    <nd ref="29942543"/>
    <nd ref="59647660"/>
    <nd ref="144520223"/>
    <nd ref="29942544"/>
    <nd ref="29942545"/>
    <tag k="created_by" v="Potlatch alpha"/>
    <tag k="highway" v="tertiary"/>
    <tag k="name" v="Meteorologická"/>
  </way>
  <way id="22758979" version="4" timestamp="2008-08-07T09:17:14Z" uid="8612" user="Kubajz" changeset="123552">
    <nd ref="29942538"/>
    <nd ref="29942539"/>
    <nd ref="29942540"/>
    <nd ref="285886339"/>
    <nd ref="31997119"/>
    <nd ref="31997158"/>
    <nd ref="29942542"/>
    <nd ref="29942543"/>
    <nd ref="59647660"/>
    <nd ref="144520223"/>
    <nd ref="29942544"/>
    <nd ref="29942545"/>
    <tag k="created_by" v="Potlatch alpha"/>
    <tag k="highway" v="tertiary"/>
    <tag k="name" v="Meteorologická"/>
  </way>
  <way id="22758979" version="5" timestamp="2008-12-30T12:29:33Z" uid="3516" user="BiIbo" changeset="673447">
    <nd ref="29942538"/>
    <nd ref="29942539"/>
    <nd ref="29942540"/>
    <nd ref="285886339"/>
    <nd ref="31997119"/>
    <nd ref="31997158"/>
    <nd ref="29942542"/>
    <nd ref="29942543"/>
    <nd ref="59647660"/>
    <nd ref="144520223"/>
    <nd ref="29942528"/>
    <tag k="created_by" v="Potlatch alpha"/>
    <tag k="highway" v="tertiary"/>
    <tag k="name" v="Meteorologická"/>
  </way>
  <way id="22758979" version="6" timestamp="2009-03-22T03:18:09Z" uid="3516" user="BiIbo" changeset="842521">
    <nd ref="29942538"/>
    <nd ref="29942539"/>
    <nd ref="29942540"/>
    <tag k="highway" v="tertiary"/>
    <tag k="name" v="Meteorologická"/>
    <tag k="oneway" v="yes"/>
  </way>
  <way id="22758979" version="7" timestamp="2009-11-05T12:47:45Z" uid="8612" user="Kubajz" changeset="3040157"/>
  <way id="22758984" version="3" timestamp="2010-10-24T23:09:51Z" uid="30632" user="antblant" changeset="6164768">
    <nd ref="244256149"/>
    <nd ref="243679700"/>
    <nd ref="130685151"/>
    <tag k="highway" v="primary"/>
    <tag k="name" v="Aleje Tysiąclecia"/>
    <tag k="ref" v="49,969"/>
  </way>
  <way id="22758984" version="4" timestamp="2011-02-23T00:24:40Z" uid="163896" user="Zbigniew Czernik" changeset="7368942"/>
  <way id="22758989" version="5" timestamp="2010-04-02T17:10:34Z" uid="20587" user="balrog-kun" changeset="4304500">
    <nd ref="244256152"/>
    <nd ref="504744157"/>
    <nd ref="60413956"/>
    <nd ref="60413748"/>
    <nd ref="60413747"/>
    <nd ref="60413746"/>
    <nd ref="60413739"/>
    <tag k="bridge" v="yes"/>
    <tag k="foot" v="no"/>
    <tag k="highway" v="primary"/>
    <tag k="layer" v="1"/>
    <tag k="name" v="15th Avenue Northwest"/>
    <tag k="oneway" v="yes"/>
  </way>
  <way id="22758989" version="6" timestamp="2010-06-17T21:39:33Z" uid="121241" user="zephyr" changeset="5012635">
    <nd ref="244256152"/>
    <nd ref="504744157"/>
    <nd ref="60413956"/>
    <nd ref="60413748"/>
    <nd ref="60413747"/>
    <nd ref="775359864"/>
    <tag k="bridge" v="yes"/>
    <tag k="foot" v="no"/>
    <tag k="highway" v="primary"/>
    <tag k="lanes" v="2"/>
    <tag k="layer" v="1"/>
    <tag k="maxspeed" v="30 mph"/>
    <tag k="name" v="15th Avenue Northwest"/>
    <tag k="oneway" v="yes"/>
  </way>
  <way id="22758990" version="3" timestamp="2010-04-02T17:10:34Z" uid="20587" user="balrog-kun" changeset="4304500">
    <nd ref="53196479"/>
    <nd ref="60413752"/>
    <nd ref="53248412"/>
    <tag k="highway" v="primary"/>
    <tag k="layer" v="0"/>
    <tag k="name" v="15th Avenue Northwest"/>
    <tag k="oneway" v="yes"/>
    <tag k="tiger:cfcc" v="A41"/>
    <tag k="tiger:county" v="King, WA"/>
    <tag k="tiger:name_base" v="15th"/>
    <tag k="tiger:name_direction_suffix" v="W"/>
    <tag k="tiger:name_type" v="Pl"/>
    <tag k="tiger:separated" v="no"/>
    <tag k="tiger:source" v="tiger_import_dch_v0.6_20070830"/>
    <tag k="tiger:tlid" v="186716765:186716767:186716768"/>
    <tag k="tiger:zip_left" v="98119"/>
    <tag k="tiger:zip_right" v="98119"/>
  </way>
  <way id="22758990" version="4" timestamp="2010-06-17T21:39:42Z" uid="121241" user="zephyr" changeset="5012635">
    <nd ref="53196479"/>
    <nd ref="60413752"/>
    <nd ref="53248412"/>
    <tag k="highway" v="primary"/>
    <tag k="lanes" v="2"/>
    <tag k="layer" v="0"/>
    <tag k="maxspeed" v="30 mph"/>
    <tag k="name" v="15th Avenue Northwest"/>
    <tag k="oneway" v="yes"/>
    <tag k="tiger:cfcc" v="A41"/>
    <tag k="tiger:county" v="King, WA"/>
    <tag k="tiger:name_base" v="15th"/>
    <tag k="tiger:name_direction_suffix" v="W"/>
    <tag k="tiger:name_type" v="Pl"/>
    <tag k="tiger:separated" v="no"/>
    <tag k="tiger:source" v="tiger_import_dch_v0.6_20070830"/>
    <tag k="tiger:tlid" v="186716765:186716767:186716768"/>
    <tag k="tiger:zip_left" v="98119"/>
    <tag k="tiger:zip_right" v="98119"/>
  </way>
  <way id="22758991" version="6" timestamp="2010-04-02T17:10:35Z" uid="20587" user="balrog-kun" changeset="4304500">
    <nd ref="244256153"/>
    <nd ref="53210270"/>
    <nd ref="53157280"/>
    <nd ref="544353910"/>
    <nd ref="544353909"/>
    <nd ref="544353894"/>
    <nd ref="53163456"/>
    <nd ref="53169042"/>
    <nd ref="53210269"/>
    <nd ref="53139845"/>
    <nd ref="53210268"/>
    <nd ref="53171350"/>
    <nd ref="544349736"/>
    <nd ref="60069244"/>
    <nd ref="53052315"/>
    <nd ref="544349733"/>
    <nd ref="53194998"/>
    <tag k="highway" v="primary"/>
    <tag k="name" v="15th Avenue West"/>
    <tag k="tiger:cfcc" v="A41"/>
    <tag k="tiger:county" v="King, WA"/>
    <tag k="tiger:name_base" v="15th"/>
    <tag k="tiger:name_direction_suffix" v="W"/>
    <tag k="tiger:name_type" v="Ave"/>
    <tag k="tiger:reviewed" v="no"/>
    <tag k="tiger:separated" v="no"/>
    <tag k="tiger:source" v="tiger_import_dch_v0.6_20070830"/>
    <tag k="tiger:tlid" v="186577632:186577634:186577635:186577637:186577639:186577642:186716750:186716751:186696199:186696204:186577752:186577755:186577756:186951077:186720159:186720160"/>
    <tag k="tiger:zip_left" v="98119"/>
    <tag k="tiger:zip_right" v="98119"/>
  </way>
  <way id="22758991" version="7" timestamp="2010-05-05T03:15:28Z" uid="46220" user="Ethan O&apos;Connor" changeset="4609635">
    <nd ref="244256153"/>
    <nd ref="53210270"/>
    <nd ref="53157280"/>
    <nd ref="544353910"/>
    <nd ref="544353909"/>
    <nd ref="544353894"/>
    <nd ref="53163456"/>
    <nd ref="53169042"/>
    <nd ref="53210269"/>
    <nd ref="721770386"/>
    <nd ref="53139845"/>
    <nd ref="53210268"/>
    <nd ref="721770416"/>
    <nd ref="53171350"/>
    <nd ref="544349736"/>
    <nd ref="60069244"/>
    <nd ref="53052315"/>
    <nd ref="544349733"/>
    <nd ref="53194998"/>
    <tag k="highway" v="primary"/>
    <tag k="name" v="15th Avenue West"/>
    <tag k="tiger:cfcc" v="A41"/>
    <tag k="tiger:county" v="King, WA"/>
    <tag k="tiger:name_base" v="15th"/>
    <tag k="tiger:name_direction_suffix" v="W"/>
    <tag k="tiger:name_type" v="Ave"/>
    <tag k="tiger:reviewed" v="no"/>
    <tag k="tiger:separated" v="no"/>
    <tag k="tiger:source" v="tiger_import_dch_v0.6_20070830"/>
    <tag k="tiger:tlid" v="186577632:186577634:186577635:186577637:186577639:186577642:186716750:186716751:186696199:186696204:186577752:186577755:186577756:186951077:186720159:186720160"/>
    <tag k="tiger:zip_left" v="98119"/>
    <tag k="tiger:zip_right" v="98119"/>
  </way>
  <way id="22758991" version="8" timestamp="2010-06-18T23:54:47Z" uid="121241" user="zephyr" changeset="5020365">
    <nd ref="244256153"/>
    <nd ref="53210270"/>
    <nd ref="53157280"/>
    <nd ref="544353910"/>
    <nd ref="544353909"/>
    <nd ref="544353894"/>
    <nd ref="775892833"/>
    <nd ref="53163456"/>
    <nd ref="53169042"/>
    <nd ref="53210269"/>
    <nd ref="721770386"/>
    <nd ref="53139845"/>
    <nd ref="53210268"/>
    <nd ref="721770416"/>
    <nd ref="53171350"/>
    <nd ref="544349736"/>
    <nd ref="60069244"/>
    <nd ref="53052315"/>
    <nd ref="544349733"/>
    <nd ref="53194998"/>
    <tag k="highway" v="primary"/>
    <tag k="maxspeed" v="40 mph"/>
    <tag k="name" v="15th Avenue West"/>
    <tag k="tiger:cfcc" v="A41"/>
    <tag k="tiger:county" v="King, WA"/>
    <tag k="tiger:name_base" v="15th"/>
    <tag k="tiger:name_direction_suffix" v="W"/>
    <tag k="tiger:name_type" v="Ave"/>
    <tag k="tiger:reviewed" v="no"/>
    <tag k="tiger:separated" v="no"/>
    <tag k="tiger:source" v="tiger_import_dch_v0.6_20070830"/>
    <tag k="tiger:tlid" v="186577632:186577634:186577635:186577637:186577639:186577642:186716750:186716751:186696199:186696204:186577752:186577755:186577756:186951077:186720159:186720160"/>
    <tag k="tiger:zip_left" v="98119"/>
    <tag k="tiger:zip_right" v="98119"/>
  </way>
  <way id="22758991" version="9" timestamp="2010-10-18T00:23:11Z" uid="121241" user="zephyr" changeset="6073476">
    <nd ref="244256153"/>
    <nd ref="53210270"/>
    <nd ref="53157280"/>
    <nd ref="544353910"/>
    <nd ref="544353909"/>
    <nd ref="544353894"/>
    <nd ref="775892833"/>
    <nd ref="53163456"/>
    <nd ref="53169042"/>
    <nd ref="53210269"/>
    <nd ref="721770386"/>
    <nd ref="53139845"/>
    <nd ref="53210268"/>
    <nd ref="721770416"/>
    <nd ref="53171350"/>
    <nd ref="544349736"/>
    <nd ref="60069244"/>
    <nd ref="53052315"/>
    <nd ref="544349733"/>
    <nd ref="53194998"/>
    <tag k="highway" v="primary"/>
    <tag k="maxspeed" v="40 mph"/>
    <tag k="name" v="15th Avenue West"/>
    <tag k="tiger:cfcc" v="A41"/>
    <tag k="tiger:county" v="King, WA"/>
    <tag k="tiger:name_base" v="15th"/>
    <tag k="tiger:name_direction_suffix" v="W"/>
    <tag k="tiger:name_type" v="Ave"/>
    <tag k="tiger:separated" v="no"/>
    <tag k="tiger:source" v="tiger_import_dch_v0.6_20070830"/>
    <tag k="tiger:tlid" v="186577632:186577634:186577635:186577637:186577639:186577642:186716750:186716751:186696199:186696204:186577752:186577755:186577756:186951077:186720159:186720160"/>
    <tag k="tiger:zip_left" v="98119"/>
    <tag k="tiger:zip_right" v="98119"/>
  </way>
  <way id="22758992" version="6" timestamp="2010-04-02T17:10:35Z" uid="20587" user="balrog-kun" changeset="4304500">
    <nd ref="244256153"/>
    <nd ref="244256180"/>
    <nd ref="244256179"/>
    <nd ref="244256178"/>
    <nd ref="244256177"/>
    <nd ref="244256176"/>
    <nd ref="244256175"/>
    <nd ref="244256174"/>
    <nd ref="244256173"/>
    <nd ref="244256172"/>
    <nd ref="244256171"/>
    <nd ref="244256170"/>
    <nd ref="614031011"/>
    <nd ref="244256203"/>
    <nd ref="244256168"/>
    <nd ref="53085850"/>
    <nd ref="244256154"/>
    <nd ref="53042898"/>
    <tag k="highway" v="primary"/>
    <tag k="name" v="15th Avenue Northwest"/>
    <tag k="oneway" v="yes"/>
    <tag k="tiger:cfcc" v="A41"/>
    <tag k="tiger:county" v="King, WA"/>
    <tag k="tiger:name_base" v="15th"/>
    <tag k="tiger:name_direction_suffix" v="NW"/>
    <tag k="tiger:name_type" v="Ave"/>
    <tag k="tiger:separated" v="no"/>
    <tag k="tiger:source" v="tiger_import_dch_v0.6_20070830"/>
    <tag k="tiger:tlid" v="186577631"/>
  </way>
  <way id="22758992" version="7" timestamp="2010-06-18T23:54:45Z" uid="121241" user="zephyr" changeset="5020365">
    <nd ref="244256153"/>
    <nd ref="244256180"/>
    <nd ref="244256179"/>
    <nd ref="244256178"/>
    <nd ref="244256177"/>
    <nd ref="244256176"/>
    <nd ref="244256175"/>
    <nd ref="244256174"/>
    <nd ref="244256173"/>
    <nd ref="244256172"/>
    <nd ref="244256171"/>
    <nd ref="244256170"/>
    <nd ref="614031011"/>
    <nd ref="244256203"/>
    <nd ref="244256168"/>
    <nd ref="53085850"/>
    <nd ref="244256154"/>
    <nd ref="53042898"/>
    <tag k="highway" v="primary"/>
    <tag k="maxspeed" v="40 mph"/>
    <tag k="name" v="15th Avenue Northwest"/>
    <tag k="oneway" v="yes"/>
    <tag k="tiger:cfcc" v="A41"/>
    <tag k="tiger:county" v="King, WA"/>
    <tag k="tiger:name_base" v="15th"/>
    <tag k="tiger:name_direction_suffix" v="NW"/>
    <tag k="tiger:name_type" v="Ave"/>
    <tag k="tiger:separated" v="no"/>
    <tag k="tiger:source" v="tiger_import_dch_v0.6_20070830"/>
    <tag k="tiger:tlid" v="186577631"/>
  </way>
  <way id="22758995" version="4" timestamp="2010-04-02T17:10:36Z" uid="20587" user="balrog-kun" changeset="4304500">
    <nd ref="53151160"/>
    <nd ref="244256192"/>
    <tag k="bridge" v="yes"/>
    <tag k="highway" v="secondary"/>
    <tag k="layer" v="1"/>
    <tag k="name" v="West Dravus Street"/>
    <tag k="tiger:cfcc" v="A41"/>
    <tag k="tiger:county" v="King, WA"/>
    <tag k="tiger:name_base" v="Dravus"/>
    <tag k="tiger:name_direction_prefix" v="W"/>
    <tag k="tiger:name_type" v="St"/>
    <tag k="tiger:reviewed" v="no"/>
    <tag k="tiger:separated" v="no"/>
    <tag k="tiger:source" v="tiger_import_dch_v0.6_20070830"/>
    <tag k="tiger:tlid" v="186659774:186659778:186659806:186659808:186659809:186659814:186659816:186659411:186659872:186659890:186659895:186659876"/>
    <tag k="tiger:zip_left" v="98199"/>
    <tag k="tiger:zip_right" v="98199"/>
  </way>
  <way id="22758995" version="5" timestamp="2010-04-11T20:44:06Z" uid="223681" user="Wim L" changeset="4398855">
    <nd ref="53151160"/>
    <nd ref="244256192"/>
    <tag k="bridge" v="yes"/>
    <tag k="highway" v="secondary"/>
    <tag k="layer" v="1"/>
    <tag k="name" v="West Dravus Street"/>
    <tag k="tiger:cfcc" v="A41"/>
    <tag k="tiger:county" v="King, WA"/>
    <tag k="tiger:name_base" v="Dravus"/>
    <tag k="tiger:name_direction_prefix" v="W"/>
    <tag k="tiger:name_type" v="St"/>
    <tag k="tiger:separated" v="no"/>
    <tag k="tiger:source" v="tiger_import_dch_v0.6_20070830"/>
    <tag k="tiger:tlid" v="186659774:186659778:186659806:186659808:186659809:186659814:186659816:186659411:186659872:186659890:186659895:186659876"/>
    <tag k="tiger:zip_left" v="98199"/>
    <tag k="tiger:zip_right" v="98199"/>
  </way>
  <way id="22758998" version="2" timestamp="2010-04-02T17:10:36Z" uid="20587" user="balrog-kun" changeset="4304500">
    <nd ref="52988013"/>
    <nd ref="53210270"/>
    <tag k="created_by" v="JOSM"/>
    <tag k="highway" v="residential"/>
    <tag k="name" v="West Armour Street"/>
    <tag k="tiger:cfcc" v="A41"/>
    <tag k="tiger:county" v="King, WA"/>
    <tag k="tiger:name_base" v="Armour"/>
    <tag k="tiger:name_direction_prefix" v="W"/>
    <tag k="tiger:name_type" v="St"/>
    <tag k="tiger:reviewed" v="no"/>
    <tag k="tiger:separated" v="no"/>
    <tag k="tiger:source" v="tiger_import_dch_v0.6_20070830"/>
    <tag k="tiger:tlid" v="186960582:186960583"/>
    <tag k="tiger:zip_left" v="98119"/>
    <tag k="tiger:zip_right" v="98119"/>
  </way>
</osm>
