<?xml version='1.0' encoding='UTF-8'?>
<osm version="0.6" generator="libosmium/2.20.0">
  <way id="22763413" version="2" timestamp="2009-10-20T14:24:46Z" uid="36809" user="pfoten_weg_!_" changeset="2903434">
    <nd ref="244371735"/>
    <nd ref="244371736"/>
    <nd ref="244371737"/>
    <nd ref="244371738"/>
    <nd ref="244371739"/>
    <nd ref="244371741"/>
    <nd ref="244371742"/>
    <nd ref="244371743"/>
    <nd ref="244371744"/>
    <nd ref="244371745"/>
    <nd ref="244371746"/>
    <nd ref="244371747"/>
    <nd ref="244371748"/>
    <nd ref="244371749"/>
    <nd ref="244371750"/>
    <tag k="highway" v="unclassified"/>
  </way>
  <way id="22763413" version="3" timestamp="2010-06-23T09:59:02Z" uid="42393" user="mawi42" changeset="5057668">
    <nd ref="244371735"/>
    <nd ref="244371736"/>
    <nd ref="244371737"/>
    <nd ref="244371738"/>
    <nd ref="244371739"/>
    <nd ref="244371741"/>
    <nd ref="783924296"/>
    <nd ref="783924299"/>
    <nd ref="244371742"/>
    <nd ref="783924304"/>
    <nd ref="783924306"/>
    <nd ref="244371743"/>
    <nd ref="783924308"/>
    <nd ref="783924311"/>
    <nd ref="244371744"/>
    <nd ref="244371745"/>
    <nd ref="783924313"/>
    <nd ref="244371746"/>
    <nd ref="783924317"/>
    <nd ref="783924320"/>
    <nd ref="244371747"/>
    <nd ref="783924325"/>
    <nd ref="244371748"/>
    <nd ref="783924334"/>
    <nd ref="783924339"/>
    <nd ref="783924349"/>
    <nd ref="244371749"/>
    <nd ref="244371750"/>
    <tag k="highway" v="unclassified"/>
  </way>
  <way id="22763413" version="4" timestamp="2011-01-13T22:54:00Z" uid="8748" user="ToniE" changeset="6962726">
    <nd ref="244371735"/>
    <nd ref="244371736"/>
    <nd ref="244371737"/>
    <nd ref="244371738"/>
    <nd ref="244371739"/>
    <tag k="highway" v="unclassified"/>
  </way>
  <way id="22763446" version="3" timestamp="2010-01-11T21:30:32Z" uid="23543" user="jkjk" changeset="3599343">
    <nd ref="244371918"/>
    <nd ref="244371919"/>
    <nd ref="244371916"/>
    <nd ref="611860102"/>
    <tag k="highway" v="residential"/>
    <tag k="source:highway" v="uhul:ortofoto"/>
  </way>
  <way id="22763447" version="3" timestamp="2010-01-11T21:30:32Z" uid="23543" user="jkjk" changeset="3599343">
    <nd ref="244371917"/>
    <nd ref="244371919"/>
    <nd ref="611860101"/>
    <nd ref="261218481"/>
    <nd ref="611860103"/>
    <nd ref="611860104"/>
    <nd ref="611860105"/>
    <nd ref="611860079"/>
    <nd ref="611860080"/>
    <nd ref="611860081"/>
    <nd ref="611860082"/>
    <tag k="highway" v="residential"/>
    <tag k="source:highway" v="uhul:ortofoto"/>
  </way>
  <way id="22763449" version="3" timestamp="2010-07-08T17:48:47Z" uid="74617" user="JohnSmith" changeset="5167338">
    <nd ref="244371923"/>
    <nd ref="244131027"/>
    <nd ref="244131028"/>
    <nd ref="244131020"/>
    <nd ref="244131023"/>
    <nd ref="244131022"/>
    <tag k="highway" v="residential"/>
    <tag k="maxspeed" v="50"/>
    <tag k="maxspeed:source" v="default residential speed limit in Australia"/>
    <tag k="name" v="Donegal Avenue"/>
  </way>
  <way id="22763449" version="4" timestamp="2012-01-15T23:08:14Z" uid="147510" user="woodpeck_fixbot" changeset="10404406">
    <nd ref="244371923"/>
    <nd ref="244131027"/>
    <nd ref="244131028"/>
    <nd ref="244131020"/>
    <nd ref="244131023"/>
    <nd ref="244131022"/>
    <tag k="highway" v="residential"/>
    <tag k="name" v="Donegal Avenue"/>
  </way>
  <way id="22763450" version="3" timestamp="2010-07-08T17:47:40Z" uid="74617" user="JohnSmith" changeset="5167338">
    <nd ref="244371933"/>
    <nd ref="60668442"/>
    <nd ref="60668443"/>
    <nd ref="60668445"/>
    <nd ref="60668440"/>
    <nd ref="81311395"/>
    <nd ref="81311466"/>
    <nd ref="60668447"/>
    <nd ref="81311479"/>
    <nd ref="81311481"/>
    <tag k="highway" v="residential"/>
    <tag k="maxspeed" v="50"/>
    <tag k="maxspeed:source" v="default residential speed limit in Australia"/>
    <tag k="name" v="Connaught Way"/>
  </way>
  <way id="22763450" version="4" timestamp="2012-01-15T23:08:15Z" uid="147510" user="woodpeck_fixbot" changeset="10404406">
    <nd ref="244371933"/>
    <nd ref="60668442"/>
    <nd ref="60668443"/>
    <nd ref="60668445"/>
    <nd ref="60668440"/>
    <nd ref="81311395"/>
    <nd ref="81311466"/>
    <nd ref="60668447"/>
    <nd ref="81311479"/>
    <nd ref="81311481"/>
    <tag k="highway" v="residential"/>
    <tag k="name" v="Connaught Way"/>
  </way>
  <way id="22763451" version="2" timestamp="2010-07-08T17:46:40Z" uid="74617" user="JohnSmith" changeset="5167338">
    <nd ref="244371922"/>
    <nd ref="244371924"/>
    <nd ref="244371925"/>
    <nd ref="244371933"/>
    <nd ref="244371927"/>
    <nd ref="244371928"/>
    <nd ref="244371923"/>
    <nd ref="244371929"/>
    <nd ref="244371930"/>
    <nd ref="244371931"/>
    <nd ref="244371932"/>
    <nd ref="244371922"/>
    <tag k="highway" v="residential"/>
    <tag k="junction" v="roundabout"/>
    <tag k="maxspeed" v="50"/>
    <tag k="maxspeed:source" v="default residential speed limit in Australia"/>
  </way>
  <way id="22763451" version="3" timestamp="2012-01-15T23:08:16Z" uid="147510" user="woodpeck_fixbot" changeset="10404406">
    <nd ref="244371922"/>
    <nd ref="244371924"/>
    <nd ref="244371925"/>
    <nd ref="244371933"/>
    <nd ref="244371927"/>
    <nd ref="244371928"/>
    <nd ref="244371923"/>
    <nd ref="244371929"/>
    <nd ref="244371930"/>
    <nd ref="244371931"/>
    <nd ref="244371932"/>
    <nd ref="244371922"/>
    <tag k="highway" v="residential"/>
    <tag k="junction" v="roundabout"/>
  </way>
  <way id="22763452" version="3" timestamp="2009-09-25T08:00:47Z" uid="4467" user="Rosscoe" changeset="2614232">
    <nd ref="244131027"/>
    <nd ref="244371934"/>
    <tag k="highway" v="residential"/>
    <tag k="name" v="Roscommon Drive"/>
    <tag k="source" v="survey"/>
    <tag k="surface" v="paved"/>
  </way>
  <way id="22763452" version="4" timestamp="2010-07-08T17:49:01Z" uid="74617" user="JohnSmith" changeset="5167338">
    <nd ref="244131027"/>
    <nd ref="244371934"/>
    <tag k="highway" v="residential"/>
    <tag k="maxspeed" v="50"/>
    <tag k="maxspeed:source" v="default residential speed limit in Australia"/>
    <tag k="name" v="Roscommon Drive"/>
    <tag k="source" v="survey"/>
    <tag k="surface" v="paved"/>
  </way>
  <way id="22763452" version="5" timestamp="2012-01-15T23:08:17Z" uid="147510" user="woodpeck_fixbot" changeset="10404406">
    <nd ref="244131027"/>
    <nd ref="244371934"/>
    <tag k="highway" v="residential"/>
    <tag k="name" v="Roscommon Drive"/>
    <tag k="source" v="survey"/>
    <tag k="surface" v="paved"/>
  </way>
  <way id="22763453" version="3" timestamp="2009-09-25T08:00:48Z" uid="4467" user="Rosscoe" changeset="2614232">
    <nd ref="244131020"/>
    <nd ref="244371935"/>
    <tag k="highway" v="residential"/>
    <tag k="name" v="Wicklow Court"/>
    <tag k="source" v="survey"/>
    <tag k="surface" v="paved"/>
  </way>
  <way id="22763453" version="4" timestamp="2010-07-08T17:48:03Z" uid="74617" user="JohnSmith" changeset="5167338">
    <nd ref="244131020"/>
    <nd ref="244371935"/>
    <tag k="highway" v="residential"/>
    <tag k="maxspeed" v="50"/>
    <tag k="maxspeed:source" v="default residential speed limit in Australia"/>
    <tag k="name" v="Wicklow Court"/>
    <tag k="source" v="survey"/>
    <tag k="surface" v="paved"/>
  </way>
  <way id="22763453" version="5" timestamp="2012-01-15T23:08:18Z" uid="147510" user="woodpeck_fixbot" changeset="10404406">
    <nd ref="244131020"/>
    <nd ref="244371935"/>
    <tag k="highway" v="residential"/>
    <tag k="name" v="Wicklow Court"/>
    <tag k="source" v="survey"/>
    <tag k="surface" v="paved"/>
  </way>
  <way id="22763454" version="3" timestamp="2009-09-25T08:00:48Z" uid="4467" user="Rosscoe" changeset="2614232">
    <nd ref="244131028"/>
    <nd ref="244371936"/>
    <nd ref="244371937"/>
    <tag k="highway" v="residential"/>
    <tag k="name" v="Carlow Court"/>
    <tag k="source" v="survey"/>
    <tag k="surface" v="paved"/>
  </way>
  <way id="22763454" version="4" timestamp="2010-07-08T17:46:56Z" uid="74617" user="JohnSmith" changeset="5167338">
    <nd ref="244131028"/>
    <nd ref="244371936"/>
    <nd ref="244371937"/>
    <tag k="highway" v="residential"/>
    <tag k="maxspeed" v="50"/>
    <tag k="maxspeed:source" v="default residential speed limit in Australia"/>
    <tag k="name" v="Carlow Court"/>
    <tag k="source" v="survey"/>
    <tag k="surface" v="paved"/>
  </way>
  <way id="22763454" version="5" timestamp="2012-01-15T23:08:19Z" uid="147510" user="woodpeck_fixbot" changeset="10404406">
    <nd ref="244131028"/>
    <nd ref="244371936"/>
    <nd ref="244371937"/>
    <tag k="highway" v="residential"/>
    <tag k="name" v="Carlow Court"/>
    <tag k="source" v="survey"/>
    <tag k="surface" v="paved"/>
  </way>
  <way id="22763857" version="14" timestamp="2010-08-04T17:47:07Z" uid="9581" user="Lobelt" changeset="5401263">
    <nd ref="244375918"/>
    <nd ref="420476982"/>
    <nd ref="244375919"/>
    <nd ref="244375920"/>
    <nd ref="244375921"/>
    <nd ref="244375922"/>
    <nd ref="244393976"/>
    <nd ref="427790174"/>
    <tag k="cables" v="6"/>
    <tag k="frequency" v="50"/>
    <tag k="name" v="110 kV Leverkusen Ost|West"/>
    <tag k="operator" v="RWE"/>
    <tag k="power" v="line"/>
    <tag k="ref" v="0178"/>
    <tag k="source" v="yahoo; survey"/>
    <tag k="voltage" v="110000"/>
    <tag k="wires" v="single"/>
  </way>
  <way id="22763911" version="10" timestamp="2010-08-04T17:42:37Z" uid="9581" user="Lobelt" changeset="5401263">
    <nd ref="681596806"/>
    <nd ref="244378478"/>
    <tag k="cables" v="3"/>
    <tag k="frequency" v="50"/>
    <tag k="name" v="220 kV Stommeln Nord"/>
    <tag k="operator" v="RWE"/>
    <tag k="power" v="line"/>
    <tag k="ref" v="2429"/>
    <tag k="source" v="yahoo"/>
    <tag k="voltage" v="220000"/>
    <tag k="wires" v="double"/>
  </way>
  <way id="22763935" version="6" timestamp="2010-08-04T17:47:03Z" uid="9581" user="Lobelt" changeset="5401263">
    <nd ref="427663575"/>
    <nd ref="244379053"/>
    <tag k="cables" v="6"/>
    <tag k="frequency" v="50"/>
    <tag k="name" v="220 kV Bigge Ost|West"/>
    <tag k="operator" v="RWE"/>
    <tag k="power" v="line"/>
    <tag k="voltage" v="220000"/>
    <tag k="wires" v="double"/>
  </way>
</osm>
