<?xml version='1.0' encoding='UTF-8'?>
<osm version="0.6" generator="libosmium/2.20.0">
  <way id="22820106" version="1" timestamp="2008-02-04T08:45:33Z" uid="7617" user="Franc" changeset="30732">
    <nd ref="37760088"/>
    <nd ref="37761798"/>
    <nd ref="37760662"/>
    <nd ref="37760550"/>
    <nd ref="37760551"/>
    <tag k="created_by" v="Potlatch alpha"/>
    <tag k="highway" v="residential"/>
    <tag k="name" v="O&apos;Connor Street"/>
  </way>
  <way id="22820106" version="2" timestamp="2010-07-08T02:34:34Z" uid="74617" user="JohnSmith" changeset="5163091">
    <nd ref="37760088"/>
    <nd ref="37761798"/>
    <nd ref="37760662"/>
    <nd ref="37760550"/>
    <nd ref="37760551"/>
    <tag k="highway" v="residential"/>
    <tag k="maxspeed" v="50"/>
    <tag k="maxspeed:source" v="default residential speed limit in Australia"/>
    <tag k="name" v="O&apos;Connor Street"/>
  </way>
  <way id="22820106" version="3" timestamp="2011-09-29T10:55:18Z" uid="20949" user="Ebenezer" changeset="9426329">
    <nd ref="37760088"/>
    <nd ref="37761798"/>
    <nd ref="1448725748"/>
    <nd ref="37760662"/>
    <nd ref="37760550"/>
    <nd ref="37760551"/>
    <tag k="highway" v="residential"/>
    <tag k="maxspeed" v="50"/>
    <tag k="maxspeed:source" v="default residential speed limit in Australia"/>
    <tag k="name" v="O&apos;Connor Street"/>
  </way>
  <way id="22820106" version="4" timestamp="2012-01-15T23:29:02Z" uid="147510" user="woodpeck_fixbot" changeset="10404406">
    <nd ref="37760088"/>
    <nd ref="37761798"/>
    <nd ref="1448725748"/>
    <nd ref="37760662"/>
    <nd ref="37760550"/>
    <nd ref="37760551"/>
    <tag k="highway" v="residential"/>
    <tag k="name" v="O&apos;Connor Street"/>
  </way>
  <way id="22820107" version="1" timestamp="2008-02-04T08:45:34Z" uid="7617" user="Franc" changeset="30732">
    <nd ref="172737332"/>
    <nd ref="172737300"/>
    <nd ref="172737308"/>
    <nd ref="37751670"/>
    <tag k="created_by" v="Potlatch alpha"/>
    <tag k="highway" v="residential"/>
    <tag k="name" v="Martin Street"/>
    <tag k="source" v="yahoo_imagery"/>
    <tag k="source:name" v="survey"/>
  </way>
  <way id="22820107" version="2" timestamp="2008-02-05T08:00:51Z" uid="7617" user="Franc" changeset="42222">
    <nd ref="26364873"/>
    <nd ref="37751669"/>
    <nd ref="172737332"/>
    <nd ref="172737300"/>
    <nd ref="172737308"/>
    <nd ref="37751670"/>
    <tag k="created_by" v="Potlatch alpha"/>
    <tag k="highway" v="residential"/>
    <tag k="name" v="Martin Street"/>
    <tag k="source" v="survey"/>
  </way>
  <way id="22820107" version="3" timestamp="2010-04-01T12:37:31Z" uid="74617" user="JohnSmith" changeset="4293399">
    <nd ref="26364873"/>
    <nd ref="679770873"/>
    <nd ref="37751669"/>
    <nd ref="172737332"/>
    <nd ref="172737300"/>
    <nd ref="172737308"/>
    <nd ref="37751670"/>
    <tag k="highway" v="residential"/>
    <tag k="name" v="Martin Street"/>
    <tag k="source" v="survey"/>
  </way>
  <way id="22820107" version="4" timestamp="2010-07-08T02:36:45Z" uid="74617" user="JohnSmith" changeset="5163091">
    <nd ref="26364873"/>
    <nd ref="679770873"/>
    <nd ref="37751669"/>
    <nd ref="172737332"/>
    <nd ref="172737300"/>
    <nd ref="172737308"/>
    <nd ref="37751670"/>
    <tag k="highway" v="residential"/>
    <tag k="maxspeed" v="50"/>
    <tag k="maxspeed:source" v="default residential speed limit in Australia"/>
    <tag k="name" v="Martin Street"/>
    <tag k="source" v="survey"/>
  </way>
  <way id="22820107" version="5" timestamp="2012-01-15T23:29:04Z" uid="147510" user="woodpeck_fixbot" changeset="10404406">
    <nd ref="26364873"/>
    <nd ref="679770873"/>
    <nd ref="37751669"/>
    <nd ref="172737332"/>
    <nd ref="172737300"/>
    <nd ref="172737308"/>
    <nd ref="37751670"/>
    <tag k="highway" v="residential"/>
    <tag k="name" v="Martin Street"/>
    <tag k="source" v="survey"/>
  </way>
  <way id="22820108" version="1" timestamp="2008-02-04T08:45:35Z" uid="7617" user="Franc" changeset="30732">
    <nd ref="172737332"/>
    <nd ref="37754171"/>
    <nd ref="37753252"/>
    <tag k="created_by" v="Potlatch alpha"/>
    <tag k="highway" v="residential"/>
    <tag k="name" v="Alt Street"/>
    <tag k="source" v="survey"/>
  </way>
  <way id="22820108" version="2" timestamp="2008-02-05T08:00:53Z" uid="7617" user="Franc" changeset="42222">
    <nd ref="37752804"/>
    <nd ref="172737332"/>
    <nd ref="37754171"/>
    <nd ref="37753252"/>
    <tag k="created_by" v="Potlatch alpha"/>
    <tag k="highway" v="residential"/>
    <tag k="name" v="Alt Street"/>
    <tag k="source" v="survey"/>
  </way>
  <way id="22820108" version="3" timestamp="2010-02-16T10:59:25Z" uid="7617" user="Franc" changeset="3891079">
    <nd ref="37752804"/>
    <nd ref="641297324"/>
    <nd ref="172737332"/>
    <nd ref="37754171"/>
    <nd ref="37753252"/>
    <tag k="highway" v="residential"/>
    <tag k="name" v="Alt Street"/>
    <tag k="source" v="survey"/>
  </way>
  <way id="22820108" version="4" timestamp="2010-05-22T22:51:36Z" uid="20949" user="Ebenezer" changeset="4779098">
    <nd ref="37752804"/>
    <nd ref="641297324"/>
    <nd ref="172737332"/>
    <nd ref="37754171"/>
    <nd ref="37753252"/>
    <tag k="highway" v="residential"/>
    <tag k="lcn" v="yes"/>
    <tag k="name" v="Alt Street"/>
    <tag k="source" v="survey"/>
  </way>
  <way id="22820108" version="5" timestamp="2010-07-08T02:37:11Z" uid="74617" user="JohnSmith" changeset="5163091">
    <nd ref="37752804"/>
    <nd ref="641297324"/>
    <nd ref="172737332"/>
    <nd ref="37754171"/>
    <nd ref="37753252"/>
    <tag k="highway" v="residential"/>
    <tag k="lcn" v="yes"/>
    <tag k="maxspeed" v="50"/>
    <tag k="maxspeed:source" v="default residential speed limit in Australia"/>
    <tag k="name" v="Alt Street"/>
    <tag k="source" v="survey"/>
  </way>
  <way id="22820108" version="6" timestamp="2012-01-15T23:29:05Z" uid="147510" user="woodpeck_fixbot" changeset="10404406">
    <nd ref="37752804"/>
    <nd ref="641297324"/>
    <nd ref="172737332"/>
    <nd ref="37754171"/>
    <nd ref="37753252"/>
    <tag k="highway" v="residential"/>
    <tag k="lcn" v="yes"/>
    <tag k="name" v="Alt Street"/>
    <tag k="source" v="survey"/>
  </way>
  <way id="22820109" version="1" timestamp="2008-02-04T08:45:35Z" uid="7617" user="Franc" changeset="30732">
    <nd ref="172737088"/>
    <nd ref="172737059"/>
    <nd ref="26681174"/>
    <tag k="created_by" v="Potlatch alpha"/>
    <tag k="highway" v="residential"/>
  </way>
  <way id="22820109" version="2" timestamp="2008-02-05T08:00:53Z" uid="7617" user="Franc" changeset="42222">
    <nd ref="37755029"/>
    <nd ref="37758144"/>
    <nd ref="172737088"/>
    <nd ref="172737059"/>
    <nd ref="26681174"/>
    <tag k="created_by" v="Potlatch alpha"/>
    <tag k="highway" v="residential"/>
    <tag k="name" v="Crescent Street"/>
    <tag k="source" v="survey"/>
  </way>
  <way id="22820109" version="3" timestamp="2010-07-08T03:15:07Z" uid="74617" user="JohnSmith" changeset="5163091">
    <nd ref="37755029"/>
    <nd ref="37758144"/>
    <nd ref="172737088"/>
    <nd ref="172737059"/>
    <nd ref="26681174"/>
    <tag k="highway" v="residential"/>
    <tag k="maxspeed" v="50"/>
    <tag k="maxspeed:source" v="default residential speed limit in Australia"/>
    <tag k="name" v="Crescent Street"/>
    <tag k="source" v="survey"/>
  </way>
  <way id="22820109" version="4" timestamp="2012-01-15T23:29:06Z" uid="147510" user="woodpeck_fixbot" changeset="10404406">
    <nd ref="37755029"/>
    <nd ref="37758144"/>
    <nd ref="172737088"/>
    <nd ref="172737059"/>
    <nd ref="26681174"/>
    <tag k="highway" v="residential"/>
    <tag k="name" v="Crescent Street"/>
    <tag k="source" v="survey"/>
  </way>
  <way id="22820111" version="1" timestamp="2008-02-04T08:45:36Z" uid="7617" user="Franc" changeset="30732">
    <nd ref="26681175"/>
    <nd ref="26681174"/>
    <nd ref="26681182"/>
    <nd ref="37758442"/>
    <nd ref="26681181"/>
    <tag k="abutters" v="residential"/>
    <tag k="created_by" v="Potlatch alpha"/>
    <tag k="highway" v="residential"/>
    <tag k="name" v="Tillock Street"/>
    <tag k="source" v="survey"/>
  </way>
  <way id="22820111" version="2" timestamp="2008-02-05T08:00:52Z" uid="7617" user="Franc" changeset="42222">
    <nd ref="26681176"/>
    <nd ref="26681175"/>
    <nd ref="26681174"/>
    <nd ref="26681182"/>
    <nd ref="37758442"/>
    <nd ref="26681181"/>
    <tag k="abutters" v="residential"/>
    <tag k="created_by" v="Potlatch alpha"/>
    <tag k="highway" v="residential"/>
    <tag k="name" v="Tillock Street"/>
    <tag k="source" v="survey"/>
  </way>
  <way id="22820111" version="3" timestamp="2009-06-19T23:36:32Z" uid="4467" user="Rosscoe" changeset="1570107">
    <nd ref="26681176"/>
    <nd ref="26681175"/>
    <nd ref="26681174"/>
    <nd ref="26681182"/>
    <nd ref="37758442"/>
    <nd ref="26681181"/>
    <tag k="created_by" v="Potlatch alpha"/>
    <tag k="highway" v="residential"/>
    <tag k="name" v="Tillock Street"/>
    <tag k="source" v="survey"/>
  </way>
  <way id="22820111" version="4" timestamp="2010-07-08T03:15:58Z" uid="74617" user="JohnSmith" changeset="5163091">
    <nd ref="26681176"/>
    <nd ref="26681175"/>
    <nd ref="26681174"/>
    <nd ref="26681182"/>
    <nd ref="37758442"/>
    <nd ref="26681181"/>
    <tag k="highway" v="residential"/>
    <tag k="maxspeed" v="50"/>
    <tag k="maxspeed:source" v="default residential speed limit in Australia"/>
    <tag k="name" v="Tillock Street"/>
    <tag k="source" v="survey"/>
  </way>
  <way id="22820111" version="5" timestamp="2012-01-15T23:29:07Z" uid="147510" user="woodpeck_fixbot" changeset="10404406">
    <nd ref="26681176"/>
    <nd ref="26681175"/>
    <nd ref="26681174"/>
    <nd ref="26681182"/>
    <nd ref="37758442"/>
    <nd ref="26681181"/>
    <tag k="highway" v="residential"/>
    <tag k="name" v="Tillock Street"/>
    <tag k="source" v="survey"/>
  </way>
  <way id="22820112" version="1" timestamp="2008-02-04T08:45:37Z" uid="7617" user="Franc" changeset="30732">
    <nd ref="172737237"/>
    <nd ref="245524543"/>
    <nd ref="37757301"/>
    <tag k="created_by" v="Potlatch alpha"/>
    <tag k="highway" v="residential"/>
  </way>
  <way id="22820112" version="2" timestamp="2008-02-05T08:00:49Z" uid="7617" user="Franc" changeset="42222">
    <nd ref="172737237"/>
    <nd ref="245524543"/>
    <nd ref="37757301"/>
    <tag k="created_by" v="Potlatch alpha"/>
    <tag k="highway" v="residential"/>
    <tag k="name" v="Minto Avenue"/>
    <tag k="source" v="survey"/>
  </way>
  <way id="22820112" version="3" timestamp="2010-01-24T05:49:45Z" uid="20949" user="Ebenezer" changeset="3697986">
    <nd ref="172737237"/>
    <nd ref="245524543"/>
    <nd ref="37757301"/>
    <tag k="highway" v="residential"/>
    <tag k="name" v="Minto Avenue"/>
    <tag k="source" v="survey"/>
  </way>
  <way id="22820112" version="4" timestamp="2010-07-08T02:37:47Z" uid="74617" user="JohnSmith" changeset="5163091">
    <nd ref="172737237"/>
    <nd ref="245524543"/>
    <nd ref="37757301"/>
    <tag k="highway" v="residential"/>
    <tag k="maxspeed" v="50"/>
    <tag k="maxspeed:source" v="default residential speed limit in Australia"/>
    <tag k="name" v="Minto Avenue"/>
    <tag k="source" v="survey"/>
  </way>
  <way id="22820112" version="5" timestamp="2012-01-15T23:29:08Z" uid="147510" user="woodpeck_fixbot" changeset="10404406">
    <nd ref="172737237"/>
    <nd ref="245524543"/>
    <nd ref="37757301"/>
    <tag k="highway" v="residential"/>
    <tag k="name" v="Minto Avenue"/>
    <tag k="source" v="survey"/>
  </way>
  <way id="22820113" version="1" timestamp="2008-02-04T08:45:38Z" uid="7617" user="Franc" changeset="30732">
    <nd ref="26680840"/>
    <nd ref="20179688"/>
    <nd ref="26680810"/>
    <nd ref="20179682"/>
    <nd ref="26680798"/>
    <nd ref="26524593"/>
    <nd ref="20179675"/>
    <nd ref="20179670"/>
    <nd ref="20179664"/>
    <nd ref="20179655"/>
    <nd ref="26524659"/>
    <nd ref="37755521"/>
    <nd ref="172753385"/>
    <nd ref="26524666"/>
    <nd ref="60283384"/>
    <tag k="created_by" v="Potlatch alpha"/>
    <tag k="highway" v="trunk"/>
    <tag k="name" v="Dobroyd Parade"/>
    <tag k="oneway" v="yes"/>
    <tag k="ref" v="MR4"/>
  </way>
  <way id="22820113" version="2" timestamp="2009-12-25T11:21:04Z" uid="30201" user="rrankin" changeset="3447390">
    <nd ref="26680840"/>
    <nd ref="20179688"/>
    <nd ref="26680810"/>
    <nd ref="599205501"/>
    <nd ref="20179682"/>
    <nd ref="599205499"/>
    <nd ref="599205498"/>
    <nd ref="26680798"/>
    <nd ref="26524593"/>
    <nd ref="20179675"/>
    <nd ref="599205494"/>
    <nd ref="20179670"/>
    <nd ref="599205492"/>
    <tag k="highway" v="trunk"/>
    <tag k="maxspeed" v="70"/>
    <tag k="name" v="Dobroyd Parade"/>
    <tag k="oneway" v="yes"/>
    <tag k="ref" v="MR4"/>
  </way>
  <way id="22820113" version="3" timestamp="2009-12-26T17:14:48Z" uid="12203" user="brainwad" changeset="3455356">
    <nd ref="26680840"/>
    <nd ref="20179688"/>
    <nd ref="26680810"/>
    <nd ref="599205501"/>
    <nd ref="20179682"/>
    <nd ref="599205499"/>
    <nd ref="599205498"/>
    <nd ref="26680798"/>
    <nd ref="26524593"/>
    <nd ref="20179675"/>
    <nd ref="599205494"/>
    <nd ref="20179670"/>
    <nd ref="599205492"/>
    <tag k="highway" v="trunk"/>
    <tag k="lanes" v="2"/>
    <tag k="maxspeed" v="70"/>
    <tag k="name" v="Dobroyd Parade"/>
    <tag k="oneway" v="yes"/>
    <tag k="ref" v="MR4"/>
  </way>
  <way id="22820113" version="4" timestamp="2010-04-01T12:37:29Z" uid="74617" user="JohnSmith" changeset="4293399">
    <nd ref="26680840"/>
    <nd ref="20179688"/>
    <nd ref="26680810"/>
    <nd ref="599205501"/>
    <nd ref="20179682"/>
    <nd ref="599205499"/>
    <nd ref="599205498"/>
    <nd ref="26680798"/>
    <nd ref="26524593"/>
    <nd ref="20179675"/>
    <nd ref="599205494"/>
    <nd ref="20179670"/>
    <nd ref="599205492"/>
    <tag k="highway" v="trunk"/>
    <tag k="lanes" v="2"/>
    <tag k="maxspeed" v="70"/>
    <tag k="name" v="Dobroyd Parade"/>
    <tag k="oneway" v="yes"/>
  </way>
  <way id="22820113" version="5" timestamp="2010-06-30T08:00:01Z" uid="299678" user="peteramjet" changeset="5111489">
    <nd ref="26680840"/>
    <nd ref="20179688"/>
    <nd ref="26680810"/>
    <nd ref="599205501"/>
    <nd ref="20179682"/>
    <nd ref="599205499"/>
    <nd ref="599205498"/>
    <nd ref="26680798"/>
    <nd ref="26524593"/>
    <nd ref="20179675"/>
    <nd ref="599205494"/>
    <nd ref="20179670"/>
    <nd ref="599205492"/>
    <tag k="highway" v="trunk"/>
    <tag k="lanes" v="2"/>
    <tag k="maxspeed" v="70"/>
    <tag k="name" v="Dobroyd Parade"/>
    <tag k="oneway" v="yes"/>
    <tag k="ref" v="MR4"/>
  </way>
  <way id="22820113" version="6" timestamp="2010-07-09T22:56:45Z" uid="299678" user="peteramjet" changeset="5177814">
    <nd ref="26680840"/>
    <nd ref="20179688"/>
    <nd ref="26680810"/>
    <nd ref="599205501"/>
    <nd ref="20179682"/>
    <nd ref="599205499"/>
    <nd ref="599205498"/>
    <nd ref="26680798"/>
    <nd ref="26524593"/>
    <nd ref="20179675"/>
    <nd ref="599205494"/>
    <nd ref="20179670"/>
    <nd ref="599205492"/>
    <tag k="highway" v="trunk"/>
    <tag k="lanes" v="2"/>
    <tag k="maxspeed" v="70"/>
    <tag k="name" v="Dobroyd Parade"/>
    <tag k="oneway" v="yes"/>
  </way>
  <way id="22820113" version="7" timestamp="2012-01-31T05:53:08Z" uid="54784" user="Tom Hollander" changeset="10546288">
    <nd ref="26680840"/>
    <nd ref="20179688"/>
    <nd ref="26680810"/>
    <nd ref="599205501"/>
    <nd ref="20179682"/>
    <nd ref="599205499"/>
    <nd ref="599205498"/>
    <nd ref="26680798"/>
    <nd ref="26524593"/>
    <nd ref="20179675"/>
    <nd ref="599205494"/>
    <nd ref="20179670"/>
    <nd ref="599205492"/>
    <tag k="highway" v="trunk"/>
    <tag k="lanes" v="2"/>
    <tag k="maxspeed" v="70"/>
    <tag k="name" v="Dobroyd Parade"/>
    <tag k="oneway" v="yes"/>
    <tag k="ref" v="MR4"/>
  </way>
  <way id="22820114" version="1" timestamp="2008-02-04T08:45:39Z" uid="7617" user="Franc" changeset="30732">
    <nd ref="26524659"/>
    <nd ref="20168957"/>
    <tag k="created_by" v="JOSM"/>
    <tag k="highway" v="unclassified"/>
  </way>
  <way id="22820114" version="2" timestamp="2010-05-14T13:51:59Z" uid="12203" user="brainwad" changeset="4696327"/>
  <way id="22820115" version="1" timestamp="2008-02-04T08:45:39Z" uid="7617" user="Franc" changeset="30732">
    <nd ref="20168957"/>
    <nd ref="172737489"/>
    <tag k="created_by" v="JOSM"/>
    <tag k="highway" v="unclassified"/>
    <tag k="name" v="Timbrell Drive"/>
  </way>
  <way id="22820115" version="2" timestamp="2010-05-14T13:51:59Z" uid="12203" user="brainwad" changeset="4696327"/>
  <way id="22820116" version="1" timestamp="2008-02-04T08:45:40Z" uid="7617" user="Franc" changeset="30732">
    <nd ref="37757136"/>
    <nd ref="245524547"/>
    <nd ref="245524546"/>
    <nd ref="245524545"/>
    <tag k="created_by" v="JOSM"/>
    <tag k="highway" v="service"/>
    <tag k="oneway" v="yes"/>
    <tag k="source" v="survey"/>
  </way>
  <way id="22820116" version="2" timestamp="2008-02-09T02:05:06Z" uid="20949" user="Ebenezer" changeset="82240">
    <nd ref="37757136"/>
    <nd ref="245524547"/>
    <nd ref="245524546"/>
    <nd ref="245524545"/>
    <nd ref="245524544"/>
    <nd ref="245524548"/>
    <nd ref="245524549"/>
    <nd ref="172753404"/>
    <tag k="created_by" v="Potlatch 0.7"/>
    <tag k="highway" v="service"/>
    <tag k="oneway" v="yes"/>
    <tag k="source" v="survey"/>
  </way>
  <way id="22820117" version="1" timestamp="2008-02-04T08:45:41Z" uid="7617" user="Franc" changeset="30732">
    <nd ref="245524545"/>
    <nd ref="245524544"/>
    <nd ref="245524548"/>
    <nd ref="245524549"/>
    <nd ref="172753404"/>
    <tag k="created_by" v="JOSM"/>
    <tag k="highway" v="residential"/>
    <tag k="oneway" v="yes"/>
    <tag k="source" v="survey"/>
  </way>
  <way id="22820117" version="2" timestamp="2008-02-09T02:04:57Z" uid="20949" user="Ebenezer" changeset="82240">
    <nd ref="245524545"/>
    <nd ref="245524544"/>
    <nd ref="245524548"/>
    <nd ref="245524549"/>
    <nd ref="172753404"/>
    <tag k="created_by" v="Potlatch 0.7"/>
    <tag k="highway" v="service"/>
    <tag k="oneway" v="yes"/>
    <tag k="source" v="survey"/>
  </way>
  <way id="22820117" version="3" timestamp="2008-02-09T02:05:07Z" uid="20949" user="Ebenezer" changeset="82240"/>
  <way id="22820118" version="1" timestamp="2008-02-04T08:45:42Z" uid="7617" user="Franc" changeset="30732">
    <nd ref="245524559"/>
    <nd ref="245524560"/>
    <nd ref="245524561"/>
    <nd ref="245524562"/>
    <nd ref="245524559"/>
    <tag k="amenity" v="school"/>
    <tag k="created_by" v="JOSM"/>
    <tag k="name" v="Dobroyd Point Public School"/>
    <tag k="source" v="survey &amp; yahoo_imagery"/>
  </way>
  <way id="22820118" version="2" timestamp="2012-02-26T22:29:04Z" uid="7523" user="inas" changeset="10804104"/>
  <way id="22820119" version="1" timestamp="2008-02-04T08:45:43Z" uid="7617" user="Franc" changeset="30732">
    <nd ref="37754573"/>
    <nd ref="245524563"/>
    <nd ref="37759751"/>
    <nd ref="37760071"/>
    <nd ref="37751670"/>
    <nd ref="37760953"/>
    <nd ref="37761235"/>
    <nd ref="42948082"/>
    <tag k="created_by" v="Potlatch alpha"/>
    <tag k="highway" v="secondary"/>
  </way>
  <way id="22820119" version="2" timestamp="2008-02-05T08:00:50Z" uid="7617" user="Franc" changeset="42222">
    <nd ref="37754573"/>
    <nd ref="245524563"/>
    <nd ref="37759751"/>
    <nd ref="37760071"/>
    <nd ref="37751670"/>
    <nd ref="37760953"/>
    <nd ref="37761235"/>
    <nd ref="42948082"/>
    <tag k="created_by" v="Potlatch alpha"/>
    <tag k="highway" v="tertiary"/>
    <tag k="name" v="Dalhousie Street"/>
    <tag k="source" v="survey"/>
  </way>
  <way id="22820119" version="3" timestamp="2008-10-27T11:43:05Z" uid="20949" user="Ebenezer" changeset="600053">
    <nd ref="37754573"/>
    <nd ref="245524563"/>
    <nd ref="37759751"/>
    <nd ref="37760071"/>
    <nd ref="37751670"/>
    <nd ref="37760953"/>
    <nd ref="37761235"/>
    <nd ref="307969170"/>
    <nd ref="42948082"/>
    <tag k="created_by" v="Potlatch 0.10e"/>
    <tag k="highway" v="tertiary"/>
    <tag k="name" v="Dalhousie Street"/>
    <tag k="source" v="survey"/>
  </way>
  <way id="22820119" version="4" timestamp="2009-10-10T19:57:55Z" uid="20949" user="Ebenezer" changeset="2807951">
    <nd ref="37754573"/>
    <nd ref="245524563"/>
    <nd ref="37759751"/>
    <nd ref="37760071"/>
    <nd ref="37751670"/>
    <nd ref="37760953"/>
    <nd ref="37761235"/>
    <nd ref="307969170"/>
    <nd ref="42948082"/>
    <tag k="highway" v="tertiary"/>
    <tag k="lcn" v="yes"/>
    <tag k="name" v="Dalhousie Street"/>
    <tag k="source" v="survey"/>
  </way>
  <way id="22820119" version="5" timestamp="2009-12-08T14:04:34Z" uid="7617" user="Franc" changeset="3325028">
    <nd ref="37754573"/>
    <nd ref="245524563"/>
    <nd ref="37759751"/>
    <nd ref="37760071"/>
    <nd ref="37751670"/>
    <nd ref="583271513"/>
    <nd ref="37760953"/>
    <nd ref="583271514"/>
    <nd ref="37761235"/>
    <nd ref="307969170"/>
    <nd ref="42948082"/>
    <tag k="highway" v="tertiary"/>
    <tag k="lcn" v="yes"/>
    <tag k="name" v="Dalhousie Street"/>
    <tag k="source" v="survey"/>
  </way>
  <way id="22820119" version="6" timestamp="2010-01-08T03:14:34Z" uid="30201" user="rrankin" changeset="3567476">
    <nd ref="608861406"/>
    <nd ref="245524563"/>
    <nd ref="37759751"/>
    <nd ref="37760071"/>
    <nd ref="37751670"/>
    <nd ref="583271513"/>
    <nd ref="37760953"/>
    <nd ref="583271514"/>
    <nd ref="37761235"/>
    <nd ref="307969170"/>
    <nd ref="42948082"/>
    <tag k="highway" v="tertiary"/>
    <tag k="lcn" v="yes"/>
    <tag k="name" v="Dalhousie Street"/>
    <tag k="source" v="survey"/>
  </way>
  <way id="22820119" version="7" timestamp="2010-01-24T05:49:52Z" uid="20949" user="Ebenezer" changeset="3697986">
    <nd ref="608861406"/>
    <nd ref="245524563"/>
    <nd ref="37759751"/>
    <nd ref="37760071"/>
    <nd ref="37751670"/>
    <nd ref="583271513"/>
    <nd ref="37760953"/>
    <nd ref="583271514"/>
    <nd ref="37761235"/>
    <nd ref="307969170"/>
    <nd ref="42948082"/>
    <tag k="cycleway" v="lane"/>
    <tag k="highway" v="tertiary"/>
    <tag k="lcn" v="yes"/>
    <tag k="name" v="Dalhousie Street"/>
    <tag k="source" v="survey"/>
  </way>
  <way id="22820119" version="8" timestamp="2010-02-21T22:10:56Z" uid="7617" user="Franc" changeset="3939449">
    <nd ref="608861406"/>
    <nd ref="245524563"/>
    <nd ref="37759751"/>
    <nd ref="649719954"/>
    <nd ref="37760071"/>
    <nd ref="37751670"/>
    <tag k="cycleway" v="lane"/>
    <tag k="highway" v="tertiary"/>
    <tag k="lcn" v="yes"/>
    <tag k="name" v="Dalhousie Street"/>
    <tag k="source" v="survey"/>
  </way>
  <way id="22820119" version="9" timestamp="2012-02-24T10:01:23Z" uid="7523" user="inas" changeset="10776383">
    <nd ref="608861406"/>
    <nd ref="245524563"/>
    <nd ref="37759751"/>
    <nd ref="37760071"/>
    <nd ref="37751670"/>
    <tag k="cycleway" v="lane"/>
    <tag k="highway" v="tertiary"/>
    <tag k="lcn" v="yes"/>
    <tag k="name" v="Dalhousie Street"/>
    <tag k="source" v="survey"/>
  </way>
  <way id="22820120" version="1" timestamp="2008-02-04T08:45:43Z" uid="7617" user="Franc" changeset="30732">
    <nd ref="60283383"/>
    <nd ref="26364814"/>
    <nd ref="37753252"/>
    <nd ref="37757028"/>
    <nd ref="37753747"/>
    <nd ref="37754108"/>
    <nd ref="37754573"/>
    <nd ref="37757825"/>
    <nd ref="172736968"/>
    <nd ref="26681181"/>
    <nd ref="26363158"/>
    <tag k="created_by" v="Potlatch alpha"/>
    <tag k="highway" v="residential"/>
    <tag k="name" v="Waratah Street"/>
    <tag k="source" v="survey"/>
  </way>
  <way id="22820120" version="2" timestamp="2010-01-08T03:14:35Z" uid="30201" user="rrankin" changeset="3567476">
    <nd ref="60283383"/>
    <nd ref="26364814"/>
    <nd ref="37753252"/>
    <nd ref="37757028"/>
    <nd ref="37753747"/>
    <nd ref="37754108"/>
    <nd ref="608861435"/>
    <tag k="highway" v="residential"/>
    <tag k="name" v="Waratah Street"/>
    <tag k="source" v="survey"/>
  </way>
  <way id="22820120" version="3" timestamp="2010-02-21T22:17:36Z" uid="7617" user="Franc" changeset="3939531">
    <nd ref="60283383"/>
    <nd ref="26364814"/>
    <nd ref="649735464"/>
    <nd ref="37753252"/>
    <nd ref="649735471"/>
    <nd ref="649735473"/>
    <tag k="highway" v="residential"/>
    <tag k="name" v="Waratah Street"/>
    <tag k="source" v="survey"/>
  </way>
  <way id="22820120" version="4" timestamp="2010-05-22T22:51:37Z" uid="20949" user="Ebenezer" changeset="4779098">
    <nd ref="60283383"/>
    <nd ref="26364814"/>
    <nd ref="649735464"/>
    <nd ref="37753252"/>
    <nd ref="649735471"/>
    <nd ref="649735473"/>
    <tag k="highway" v="residential"/>
    <tag k="lcn" v="yes"/>
    <tag k="name" v="Waratah Street"/>
    <tag k="source" v="survey"/>
  </way>
  <way id="22820120" version="5" timestamp="2010-07-08T02:34:55Z" uid="74617" user="JohnSmith" changeset="5163091">
    <nd ref="60283383"/>
    <nd ref="26364814"/>
    <nd ref="649735464"/>
    <nd ref="37753252"/>
    <nd ref="649735471"/>
    <nd ref="649735473"/>
    <tag k="highway" v="residential"/>
    <tag k="lcn" v="yes"/>
    <tag k="maxspeed" v="50"/>
    <tag k="maxspeed:source" v="default residential speed limit in Australia"/>
    <tag k="name" v="Waratah Street"/>
    <tag k="source" v="survey"/>
  </way>
  <way id="22820120" version="6" timestamp="2012-01-15T23:29:09Z" uid="147510" user="woodpeck_fixbot" changeset="10404406">
    <nd ref="60283383"/>
    <nd ref="26364814"/>
    <nd ref="649735464"/>
    <nd ref="37753252"/>
    <nd ref="649735471"/>
    <nd ref="649735473"/>
    <tag k="highway" v="residential"/>
    <tag k="lcn" v="yes"/>
    <tag k="name" v="Waratah Street"/>
    <tag k="source" v="survey"/>
  </way>
  <way id="22820120" version="7" timestamp="2012-02-24T10:01:39Z" uid="7523" user="inas" changeset="10776383">
    <nd ref="60283383"/>
    <nd ref="26364814"/>
    <nd ref="649735464"/>
    <nd ref="37753252"/>
    <nd ref="649735473"/>
    <tag k="highway" v="residential"/>
    <tag k="lcn" v="yes"/>
    <tag k="name" v="Waratah Street"/>
    <tag k="source" v="survey"/>
  </way>
  <way id="22820234" version="3" timestamp="2009-07-05T13:44:09Z" uid="74617" user="JohnSmith" changeset="1739473">
    <nd ref="245532554"/>
    <nd ref="251864971"/>
    <nd ref="245532558"/>
    <tag k="created_by" v="JOSM"/>
    <tag k="highway" v="service"/>
    <tag k="name" v="Waratah Place"/>
    <tag k="oneway" v="yes"/>
  </way>
  <way id="22820234" version="4" timestamp="2009-12-18T11:34:16Z" uid="57437" user="Canley" changeset="3399832">
    <nd ref="595594353"/>
    <nd ref="251864971"/>
    <nd ref="245532558"/>
    <tag k="highway" v="service"/>
    <tag k="name" v="Waratah Place"/>
    <tag k="oneway" v="yes"/>
  </way>
  <way id="22820234" version="5" timestamp="2009-12-20T02:48:15Z" uid="57437" user="Canley" changeset="3411194">
    <nd ref="595594353"/>
    <nd ref="245532558"/>
    <tag k="highway" v="service"/>
    <tag k="name" v="Waratah Place"/>
    <tag k="oneway" v="yes"/>
  </way>
  <way id="22820315" version="6" timestamp="2010-07-09T04:12:10Z" uid="74617" user="JohnSmith" changeset="5170825">
    <nd ref="60652051"/>
    <nd ref="249437661"/>
    <tag k="highway" v="residential"/>
    <tag k="maxspeed" v="50"/>
    <tag k="maxspeed:source" v="default residential speed limit in Australia"/>
    <tag k="name" v="Luck Street"/>
    <tag k="source" v="image"/>
  </way>
  <way id="22820315" version="7" timestamp="2010-08-10T02:39:33Z" uid="69319" user="Rhubarb" changeset="5450219">
    <nd ref="60652051"/>
    <nd ref="852255694"/>
    <nd ref="249437661"/>
    <tag k="highway" v="residential"/>
    <tag k="maxspeed" v="50"/>
    <tag k="maxspeed:source" v="default residential speed limit in Australia"/>
    <tag k="name" v="Luck Street"/>
    <tag k="source" v="image"/>
  </way>
  <way id="22820315" version="8" timestamp="2011-02-06T11:53:17Z" uid="206929" user="Supt_of_Printing" changeset="7202565"/>
  <way id="22820324" version="4" timestamp="2010-07-09T05:21:58Z" uid="74617" user="JohnSmith" changeset="5170972">
    <nd ref="245535947"/>
    <nd ref="419373900"/>
    <nd ref="419373945"/>
    <nd ref="245535944"/>
    <tag k="highway" v="residential"/>
    <tag k="lanes" v="1"/>
    <tag k="maxspeed" v="50"/>
    <tag k="maxspeed:source" v="default residential speed limit in Australia"/>
    <tag k="name" v="Phipps Crescent"/>
  </way>
  <way id="22820324" version="5" timestamp="2012-01-15T23:29:11Z" uid="147510" user="woodpeck_fixbot" changeset="10404406">
    <nd ref="245535947"/>
    <nd ref="419373900"/>
    <nd ref="419373945"/>
    <nd ref="245535944"/>
    <tag k="highway" v="residential"/>
    <tag k="lanes" v="1"/>
    <tag k="name" v="Phipps Crescent"/>
  </way>
  <way id="22820325" version="3" timestamp="2010-07-09T05:22:24Z" uid="74617" user="JohnSmith" changeset="5170972">
    <nd ref="245535944"/>
    <nd ref="245535952"/>
    <nd ref="245535957"/>
    <nd ref="245535962"/>
    <nd ref="245535966"/>
    <nd ref="246034938"/>
    <nd ref="245535969"/>
    <nd ref="245535973"/>
    <nd ref="245535976"/>
    <nd ref="245535979"/>
    <nd ref="245535989"/>
    <nd ref="245535993"/>
    <nd ref="245535998"/>
    <nd ref="245536002"/>
    <nd ref="245536010"/>
    <nd ref="245536021"/>
    <nd ref="245536014"/>
    <tag k="highway" v="residential"/>
    <tag k="maxspeed" v="50"/>
    <tag k="maxspeed:source" v="default residential speed limit in Australia"/>
    <tag k="name" v="Phipps Crescent"/>
    <tag k="surface" v="unpaved"/>
  </way>
  <way id="22820325" version="4" timestamp="2012-01-15T23:29:11Z" uid="147510" user="woodpeck_fixbot" changeset="10404406">
    <nd ref="245535944"/>
    <nd ref="245535952"/>
    <nd ref="245535957"/>
    <nd ref="245535962"/>
    <nd ref="245535966"/>
    <nd ref="246034938"/>
    <nd ref="245535969"/>
    <nd ref="245535973"/>
    <nd ref="245535976"/>
    <nd ref="245535979"/>
    <nd ref="245535989"/>
    <nd ref="245535993"/>
    <nd ref="245535998"/>
    <nd ref="245536002"/>
    <nd ref="245536010"/>
    <nd ref="245536021"/>
    <nd ref="245536014"/>
    <tag k="highway" v="residential"/>
    <tag k="name" v="Phipps Crescent"/>
    <tag k="surface" v="unpaved"/>
  </way>
  <way id="22820335" version="4" timestamp="2008-06-09T06:55:54Z" uid="9581" user="Lobelt" changeset="105018"/>
  <way id="22820503" version="5" timestamp="2010-03-27T23:30:08Z" uid="20587" user="balrog-kun" changeset="4250871">
    <nd ref="65627177"/>
    <nd ref="65459895"/>
    <nd ref="431792310"/>
    <nd ref="431792311"/>
    <nd ref="614067096"/>
    <nd ref="614067150"/>
    <nd ref="614067189"/>
    <tag k="highway" v="unclassified"/>
    <tag k="name" v="Metro Drive"/>
    <tag k="oneway" v="yes"/>
    <tag k="tiger:cfcc" v="A41"/>
    <tag k="tiger:county" v="Santa Clara, CA"/>
    <tag k="tiger:name_base" v="Metro"/>
    <tag k="tiger:name_type" v="Dr"/>
    <tag k="tiger:separated" v="no"/>
    <tag k="tiger:source" v="tiger_import_dch_v0.6_20070809"/>
    <tag k="tiger:tlid" v="122997466"/>
  </way>
  <way id="22820503" version="6" timestamp="2012-03-30T21:31:29Z" uid="123633" user="stevea" changeset="11160369"/>
  <way id="22820707" version="5" timestamp="2010-12-31T03:41:33Z" uid="4467" user="Rosscoe" changeset="6816290">
    <nd ref="1074572339"/>
    <nd ref="245549451"/>
    <nd ref="245549452"/>
    <nd ref="245549453"/>
    <nd ref="245549454"/>
    <nd ref="245549455"/>
    <nd ref="245549456"/>
    <tag k="highway" v="secondary_link"/>
    <tag k="oneway" v="yes"/>
  </way>
  <way id="22820707" version="6" timestamp="2011-03-19T07:20:56Z" uid="46482" user="Leon K" changeset="7601886">
    <nd ref="1074572339"/>
    <nd ref="245549451"/>
    <nd ref="245549452"/>
    <nd ref="245549453"/>
    <nd ref="245549454"/>
    <nd ref="245549455"/>
    <nd ref="245549456"/>
    <tag k="highway" v="secondary_link"/>
    <tag k="maxspeed" v="60"/>
    <tag k="oneway" v="yes"/>
  </way>
  <way id="22820707" version="7" timestamp="2011-11-17T10:55:05Z" uid="46482" user="Leon K" changeset="9852952">
    <nd ref="1074572339"/>
    <nd ref="245549451"/>
    <nd ref="245549452"/>
    <nd ref="245549453"/>
    <nd ref="245549454"/>
    <nd ref="245549455"/>
    <nd ref="245549456"/>
    <tag k="highway" v="secondary_link"/>
    <tag k="maxspeed" v="60"/>
    <tag k="name" v="Bourke Road"/>
    <tag k="oneway" v="yes"/>
  </way>
  <way id="22820734" version="7" timestamp="2010-07-09T03:10:52Z" uid="74617" user="JohnSmith" changeset="5170713">
    <nd ref="245549619"/>
    <nd ref="618999361"/>
    <nd ref="258975435"/>
    <nd ref="617653275"/>
    <nd ref="617653307"/>
    <nd ref="245549627"/>
    <tag k="highway" v="residential"/>
    <tag k="maxspeed" v="50"/>
    <tag k="maxspeed:source" v="default residential speed limit in Australia"/>
    <tag k="name" v="Barkers Street"/>
  </way>
  <way id="22820734" version="8" timestamp="2010-08-23T08:37:29Z" uid="11111" user="lakeyboy" changeset="5568272">
    <nd ref="245549619"/>
    <nd ref="618999361"/>
    <nd ref="258975435"/>
    <nd ref="875482679"/>
    <nd ref="875482680"/>
    <tag k="highway" v="residential"/>
    <tag k="maxspeed" v="50"/>
    <tag k="maxspeed:source" v="default residential speed limit in Australia"/>
    <tag k="name" v="Barkers Street"/>
  </way>
  <way id="22820734" version="9" timestamp="2010-08-23T08:37:35Z" uid="11111" user="lakeyboy" changeset="5568272">
    <nd ref="245549619"/>
    <nd ref="618999361"/>
    <nd ref="258975435"/>
    <nd ref="875482820"/>
    <nd ref="875482679"/>
    <nd ref="875482680"/>
    <tag k="highway" v="residential"/>
    <tag k="maxspeed" v="50"/>
    <tag k="maxspeed:source" v="default residential speed limit in Australia"/>
    <tag k="name" v="Barkers Street"/>
  </way>
  <way id="22820734" version="10" timestamp="2010-08-23T08:37:46Z" uid="11111" user="lakeyboy" changeset="5568272">
    <nd ref="245549619"/>
    <nd ref="618999361"/>
    <nd ref="875483176"/>
    <nd ref="258975435"/>
    <nd ref="875482820"/>
    <nd ref="875482679"/>
    <nd ref="875482680"/>
    <tag k="highway" v="residential"/>
    <tag k="maxspeed" v="50"/>
    <tag k="maxspeed:source" v="default residential speed limit in Australia"/>
    <tag k="name" v="Barkers Street"/>
  </way>
  <way id="22820734" version="11" timestamp="2012-01-15T23:29:13Z" uid="147510" user="woodpeck_fixbot" changeset="10404406">
    <nd ref="245549619"/>
    <nd ref="618999361"/>
    <nd ref="875483176"/>
    <nd ref="258975435"/>
    <nd ref="875482820"/>
    <nd ref="875482679"/>
    <nd ref="875482680"/>
    <tag k="highway" v="residential"/>
    <tag k="name" v="Barkers Street"/>
  </way>
  <way id="22820746" version="6" timestamp="2011-04-21T05:43:18Z" uid="4467" user="Rosscoe" changeset="7922157">
    <nd ref="245549725"/>
    <nd ref="245549732"/>
    <nd ref="245549733"/>
    <nd ref="245549734"/>
    <nd ref="1253601647"/>
    <nd ref="245549735"/>
    <tag k="highway" v="primary"/>
    <tag k="maxspeed" v="70"/>
    <tag k="name" v="South Road"/>
    <tag k="oneway" v="yes"/>
  </way>
  <way id="22820754" version="3" timestamp="2010-06-29T19:13:14Z" uid="74617" user="JohnSmith" changeset="5108182">
    <nd ref="245549777"/>
    <nd ref="245549778"/>
    <nd ref="245549779"/>
    <nd ref="245549781"/>
    <nd ref="245549777"/>
    <tag k="fixme" v="sport=football is ambiguous, see http://wiki.osm.org/wiki/Football for more details"/>
    <tag k="sport" v="football"/>
  </way>
  <way id="22820754" version="4" timestamp="2012-01-18T09:42:30Z" uid="11117" user="apires" changeset="10425690">
    <nd ref="245549777"/>
    <nd ref="245549778"/>
    <nd ref="245549779"/>
    <nd ref="245549781"/>
    <nd ref="245549777"/>
    <tag k="fixme" v="sport=football is ambiguous, see http://wiki.osm.org/wiki/Football for more details"/>
    <tag k="leisure" v="pitch"/>
    <tag k="sport" v="football"/>
  </way>
  <way id="22820755" version="6" timestamp="2011-04-21T05:43:15Z" uid="4467" user="Rosscoe" changeset="7922157">
    <nd ref="245549775"/>
    <nd ref="245549848"/>
    <nd ref="245549780"/>
    <nd ref="245549782"/>
    <nd ref="1253601626"/>
    <nd ref="245549725"/>
    <tag k="highway" v="primary"/>
    <tag k="maxspeed" v="70"/>
    <tag k="name" v="South Road"/>
    <tag k="oneway" v="yes"/>
  </way>
  <way id="22820760" version="8" timestamp="2011-04-21T05:43:15Z" uid="4467" user="Rosscoe" changeset="7922157">
    <nd ref="245549844"/>
    <nd ref="855923623"/>
    <nd ref="855923625"/>
    <nd ref="855923627"/>
    <nd ref="245549845"/>
    <nd ref="245549846"/>
    <nd ref="617653274"/>
    <nd ref="245549848"/>
    <tag k="highway" v="trunk_link"/>
    <tag k="maxspeed" v="70"/>
    <tag k="name" v="South Road slip lane"/>
    <tag k="oneway" v="yes"/>
    <tag k="source" v="nearmap"/>
  </way>
  <way id="22820761" version="7" timestamp="2008-07-05T11:26:05Z" uid="6975" user="ulfl" changeset="398437">
    <nd ref="245549849"/>
    <nd ref="245549850"/>
    <nd ref="245549851"/>
    <nd ref="245549852"/>
    <nd ref="245549853"/>
    <nd ref="245549854"/>
    <nd ref="245549855"/>
    <nd ref="245549856"/>
    <nd ref="245549857"/>
    <nd ref="245549858"/>
    <nd ref="245549859"/>
    <nd ref="245549860"/>
    <nd ref="245549861"/>
    <nd ref="245549862"/>
    <nd ref="245549863"/>
    <nd ref="245549849"/>
    <tag k="leisure" v="park"/>
    <tag k="name" v="Dawley Conservancy Park"/>
  </way>
  <way id="22820761" version="8" timestamp="2011-02-16T00:34:19Z" uid="21289" user="hogrod" changeset="7300446">
    <nd ref="245549849"/>
    <nd ref="245549850"/>
    <nd ref="245549851"/>
    <nd ref="245549852"/>
    <nd ref="245549853"/>
    <nd ref="245549854"/>
    <nd ref="245549855"/>
    <nd ref="245549856"/>
    <nd ref="245549857"/>
    <nd ref="245549858"/>
    <nd ref="245549859"/>
    <nd ref="245549860"/>
    <nd ref="245549861"/>
    <nd ref="245549862"/>
    <nd ref="245549863"/>
    <nd ref="245549849"/>
    <tag k="leisure" v="park"/>
  </way>
  <way id="22820761" version="9" timestamp="2011-08-03T04:21:31Z" uid="187610" user="Emilien" changeset="8906692">
    <nd ref="245549849"/>
    <nd ref="245549850"/>
    <nd ref="245549851"/>
    <nd ref="245549852"/>
    <nd ref="245549853"/>
    <nd ref="245549854"/>
    <nd ref="245549855"/>
    <nd ref="245549856"/>
    <nd ref="245549857"/>
    <nd ref="245549858"/>
    <nd ref="245549859"/>
    <nd ref="245549860"/>
    <nd ref="245549861"/>
    <nd ref="245549862"/>
    <nd ref="245549863"/>
    <nd ref="245549849"/>
    <tag k="leisure" v="park"/>
    <tag k="name" v="Dawley Conservancy Park"/>
  </way>
  <way id="22820795" version="3" timestamp="2010-04-06T04:40:00Z" uid="74617" user="JohnSmith" changeset="4340174">
    <nd ref="245550230"/>
    <nd ref="245549775"/>
    <tag k="highway" v="trunk"/>
    <tag k="name" v="South Road"/>
    <tag k="oneway" v="yes"/>
  </way>
  <way id="22820795" version="4" timestamp="2011-03-19T07:25:03Z" uid="46482" user="Leon K" changeset="7601904">
    <nd ref="245550230"/>
    <nd ref="245549775"/>
    <tag k="highway" v="trunk"/>
    <tag k="maxspeed" v="70"/>
    <tag k="name" v="South Road"/>
    <tag k="oneway" v="yes"/>
  </way>
  <way id="22820796" version="10" timestamp="2011-04-21T05:43:12Z" uid="4467" user="Rosscoe" changeset="7922157">
    <nd ref="245550177"/>
    <nd ref="245550230"/>
    <nd ref="1253601554"/>
    <nd ref="458393344"/>
    <nd ref="245550349"/>
    <nd ref="245550350"/>
    <nd ref="1208377015"/>
    <nd ref="1208377021"/>
    <tag k="highway" v="trunk"/>
    <tag k="maxspeed" v="70"/>
    <tag k="name" v="Warrigal Road"/>
    <tag k="oneway" v="yes"/>
    <tag k="ref" v="15"/>
  </way>
  <way id="22820796" version="11" timestamp="2012-02-06T20:49:21Z" uid="46482" user="Leon K" changeset="10606879">
    <nd ref="245550177"/>
    <nd ref="245550230"/>
    <nd ref="1253601554"/>
    <nd ref="458393344"/>
    <nd ref="245550349"/>
    <nd ref="245550350"/>
    <nd ref="1208377021"/>
    <tag k="highway" v="trunk"/>
    <tag k="maxspeed" v="70"/>
    <tag k="name" v="Warrigal Road"/>
    <tag k="oneway" v="yes"/>
    <tag k="ref" v="15"/>
  </way>
  <way id="22820799" version="18" timestamp="2010-04-06T04:43:00Z" uid="74617" user="JohnSmith" changeset="4340174">
    <nd ref="245550352"/>
    <nd ref="245550371"/>
    <nd ref="245550372"/>
    <nd ref="29881689"/>
    <nd ref="245549206"/>
    <nd ref="245549207"/>
    <nd ref="245549844"/>
    <nd ref="245549775"/>
    <tag k="highway" v="trunk"/>
    <tag k="name" v="Warrigal Road"/>
    <tag k="oneway" v="yes"/>
    <tag k="ref" v="15"/>
  </way>
  <way id="22820799" version="19" timestamp="2011-03-19T07:25:06Z" uid="46482" user="Leon K" changeset="7601904">
    <nd ref="245550352"/>
    <nd ref="245550371"/>
    <nd ref="245550372"/>
    <nd ref="29881689"/>
    <nd ref="245549206"/>
    <nd ref="1208377017"/>
    <tag k="highway" v="trunk"/>
    <tag k="maxspeed" v="60"/>
    <tag k="name" v="Warrigal Road"/>
    <tag k="oneway" v="yes"/>
    <tag k="ref" v="15"/>
  </way>
  <way id="22820826" version="5" timestamp="2011-04-21T05:43:15Z" uid="4467" user="Rosscoe" changeset="7922157">
    <nd ref="245550611"/>
    <nd ref="245550613"/>
    <nd ref="245550615"/>
    <tag k="highway" v="primary_link"/>
    <tag k="maxspeed" v="60"/>
    <tag k="oneway" v="yes"/>
    <tag k="source" v="nearmap"/>
  </way>
  <way id="22820826" version="6" timestamp="2011-09-10T13:57:37Z" uid="46482" user="Leon K" changeset="9262247">
    <nd ref="245550611"/>
    <nd ref="245550613"/>
    <nd ref="245550615"/>
    <tag k="highway" v="secondary_link"/>
    <tag k="maxspeed" v="60"/>
    <tag k="oneway" v="yes"/>
    <tag k="source" v="nearmap"/>
  </way>
  <way id="22820843" version="3" timestamp="2011-04-21T05:43:05Z" uid="4467" user="Rosscoe" changeset="7922157">
    <nd ref="245550507"/>
    <nd ref="31244222"/>
    <nd ref="245550611"/>
    <nd ref="308441148"/>
    <nd ref="308441749"/>
    <nd ref="317863591"/>
    <nd ref="31244223"/>
    <nd ref="308440414"/>
    <nd ref="326238919"/>
    <nd ref="308440357"/>
    <nd ref="308440326"/>
    <nd ref="31244224"/>
    <nd ref="309980472"/>
    <nd ref="308445030"/>
    <nd ref="31244225"/>
    <nd ref="305878823"/>
    <nd ref="31244226"/>
    <nd ref="305878846"/>
    <nd ref="305878848"/>
    <nd ref="309976377"/>
    <nd ref="309985148"/>
    <nd ref="31657063"/>
    <nd ref="364874637"/>
    <nd ref="309978945"/>
    <nd ref="364874639"/>
    <nd ref="308445072"/>
    <nd ref="309979642"/>
    <nd ref="309985150"/>
    <nd ref="364874668"/>
    <nd ref="31244215"/>
    <nd ref="31657058"/>
    <tag k="highway" v="secondary"/>
    <tag k="maxspeed" v="60"/>
    <tag k="name" v="Chesterville Road"/>
  </way>
  <way id="22820844" version="4" timestamp="2011-04-21T05:43:13Z" uid="4467" user="Rosscoe" changeset="7922157">
    <nd ref="245550677"/>
    <nd ref="245550689"/>
    <tag k="highway" v="primary_link"/>
    <tag k="oneway" v="yes"/>
  </way>
  <way id="22820848" version="4" timestamp="2011-04-21T05:43:01Z" uid="4467" user="Rosscoe" changeset="7922157">
    <nd ref="245550746"/>
    <nd ref="245550822"/>
    <tag k="highway" v="primary_link"/>
    <tag k="oneway" v="yes"/>
  </way>
  <way id="22820854" version="4" timestamp="2010-07-09T03:08:43Z" uid="74617" user="JohnSmith" changeset="5170713">
    <nd ref="307905853"/>
    <nd ref="31560096"/>
    <nd ref="31560124"/>
    <tag k="highway" v="residential"/>
    <tag k="maxspeed" v="50"/>
    <tag k="maxspeed:source" v="default residential speed limit in Australia"/>
    <tag k="name" v="Bruthen Street"/>
  </way>
  <way id="22820854" version="5" timestamp="2012-01-15T23:29:13Z" uid="147510" user="woodpeck_fixbot" changeset="10404406">
    <nd ref="307905853"/>
    <nd ref="31560096"/>
    <nd ref="31560124"/>
    <tag k="highway" v="residential"/>
    <tag k="name" v="Bruthen Street"/>
  </way>
  <way id="22820905" version="3" timestamp="2008-07-05T11:38:32Z" uid="6975" user="ulfl" changeset="398437">
    <nd ref="245551375"/>
    <nd ref="245551376"/>
    <nd ref="245551377"/>
    <nd ref="245551378"/>
    <nd ref="245551375"/>
    <tag k="amenity" v="theatre"/>
    <tag k="building" v="theatre"/>
    <tag k="name" v="Birmingham Repertory Theatre"/>
  </way>
  <way id="22820905" version="4" timestamp="2009-02-10T17:00:05Z" uid="9065" user="brianboru" changeset="322824">
    <nd ref="245551375"/>
    <nd ref="245551376"/>
    <nd ref="245551377"/>
    <nd ref="344209089"/>
    <nd ref="245551378"/>
    <nd ref="245551375"/>
    <tag k="amenity" v="theatre"/>
    <tag k="building" v="theatre"/>
    <tag k="name" v="Birmingham Repertory Theatre"/>
  </way>
  <way id="22820905" version="5" timestamp="2010-03-22T11:28:38Z" uid="735" user="blackadder" changeset="4201192">
    <nd ref="245551375"/>
    <nd ref="245550606"/>
    <nd ref="580629458"/>
    <nd ref="344209089"/>
    <nd ref="245551378"/>
    <nd ref="245551375"/>
    <tag k="amenity" v="theatre"/>
    <tag k="building" v="theatre"/>
    <tag k="name" v="Birmingham Repertory Theatre"/>
  </way>
  <way id="22820905" version="6" timestamp="2010-11-01T11:59:47Z" uid="139424" user="pigsonthewing" changeset="6254061">
    <nd ref="245551375"/>
    <nd ref="245550606"/>
    <nd ref="580629458"/>
    <nd ref="344209089"/>
    <nd ref="245551378"/>
    <nd ref="245551375"/>
    <tag k="addr:city" v="Birmingham"/>
    <tag k="addr:postcode" v="B1 2EP"/>
    <tag k="addr:street" v="Broad Street"/>
    <tag k="amenity" v="theatre"/>
    <tag k="building" v="theatre"/>
    <tag k="name" v="Birmingham REP"/>
    <tag k="url" v="http://birmingham-rep.co.uk/"/>
  </way>
  <way id="22820905" version="7" timestamp="2010-12-02T07:54:06Z" uid="9065" user="brianboru" changeset="6511870">
    <nd ref="245551375"/>
    <nd ref="1015553083"/>
    <nd ref="1015553080"/>
    <nd ref="245550606"/>
    <nd ref="580629458"/>
    <nd ref="1015553077"/>
    <nd ref="1015553086"/>
    <nd ref="344209089"/>
    <nd ref="1015553079"/>
    <nd ref="245551378"/>
    <nd ref="1015553076"/>
    <nd ref="1015553085"/>
    <nd ref="1015553081"/>
    <nd ref="1015553075"/>
    <nd ref="1015553078"/>
    <nd ref="1015553082"/>
    <nd ref="245551375"/>
    <tag k="addr:city" v="Birmingham"/>
    <tag k="addr:postcode" v="B1 2EP"/>
    <tag k="addr:street" v="Broad Street"/>
    <tag k="amenity" v="theatre"/>
    <tag k="architect" v="Graham Winteringham"/>
    <tag k="building" v="heritage"/>
    <tag k="heritage" v="Birmingham_Civic_Society"/>
    <tag k="name" v="Birmingham REP"/>
    <tag k="source" v="visual survey;cities_revealed_aerial_imagery;Birmingham_Civic_Society"/>
    <tag k="start_date" v="1971"/>
    <tag k="url" v="http://birmingham-rep.co.uk/"/>
  </way>
  <way id="22820905" version="8" timestamp="2010-12-10T18:02:58Z" uid="139424" user="pigsonthewing" changeset="6607913">
    <nd ref="245551375"/>
    <nd ref="1015553083"/>
    <nd ref="1015553080"/>
    <nd ref="245550606"/>
    <nd ref="580629458"/>
    <nd ref="1015553077"/>
    <nd ref="1015553086"/>
    <nd ref="344209089"/>
    <nd ref="1015553079"/>
    <nd ref="245551378"/>
    <nd ref="1015553076"/>
    <nd ref="1015553085"/>
    <nd ref="1015553081"/>
    <nd ref="1015553075"/>
    <nd ref="1015553078"/>
    <nd ref="1015553082"/>
    <nd ref="245551375"/>
    <tag k="addr:city" v="Birmingham"/>
    <tag k="addr:postcode" v="B1 2EP"/>
    <tag k="addr:street" v="Broad Street"/>
    <tag k="amenity" v="theatre"/>
    <tag k="architect" v="Graham Winteringham"/>
    <tag k="building" v="heritage"/>
    <tag k="heritage" v="Birmingham_Civic_Society"/>
    <tag k="name" v="Birmingham REP"/>
    <tag k="source" v="visual survey;cities_revealed_aerial_imagery;Birmingham_Civic_Society"/>
    <tag k="start_date" v="1971"/>
    <tag k="theatricalia" v="http://theatricalia.com/place/7c/birmingham-repertory-theatre-birmingham"/>
    <tag k="url" v="http://birmingham-rep.co.uk/"/>
    <tag k="wikipedia" v="http://en.wikipedia.org/wiki/Birmingham_Repertory_Theatre"/>
  </way>
  <way id="22820905" version="9" timestamp="2011-02-24T08:26:24Z" uid="107257" user="FrViPofm" changeset="7379416">
    <nd ref="245551375"/>
    <nd ref="1015553083"/>
    <nd ref="1015553080"/>
    <nd ref="245550606"/>
    <nd ref="580629458"/>
    <nd ref="1015553077"/>
    <nd ref="1015553086"/>
    <nd ref="344209089"/>
    <nd ref="1015553079"/>
    <nd ref="245551378"/>
    <nd ref="1015553076"/>
    <nd ref="1015553085"/>
    <nd ref="1015553081"/>
    <nd ref="1015553075"/>
    <nd ref="1015553078"/>
    <nd ref="1015553082"/>
    <nd ref="245551375"/>
    <tag k="addr:city" v="Birmingham"/>
    <tag k="addr:postcode" v="B1 2EP"/>
    <tag k="addr:street" v="Broad Street"/>
    <tag k="amenity" v="theatre"/>
    <tag k="architect" v="Graham Winteringham"/>
    <tag k="building" v="heritage"/>
    <tag k="heritage" v="8"/>
    <tag k="heritage:operator" v="Birmingham_Civic_Society"/>
    <tag k="name" v="Birmingham REP"/>
    <tag k="source" v="visual survey;cities_revealed_aerial_imagery;Birmingham_Civic_Society"/>
    <tag k="start_date" v="1971"/>
    <tag k="theatricalia" v="http://theatricalia.com/place/7c/birmingham-repertory-theatre-birmingham"/>
    <tag k="url" v="http://birmingham-rep.co.uk/"/>
    <tag k="wikipedia" v="http://en.wikipedia.org/wiki/Birmingham_Repertory_Theatre"/>
  </way>
  <way id="22820905" version="10" timestamp="2011-08-18T07:43:02Z" uid="735" user="blackadder" changeset="9054425">
    <nd ref="245551375"/>
    <nd ref="1015553083"/>
    <nd ref="1015553080"/>
    <nd ref="245550606"/>
    <nd ref="580629458"/>
    <nd ref="1015553077"/>
    <nd ref="1015553086"/>
    <nd ref="344209089"/>
    <nd ref="1015553079"/>
    <nd ref="245551378"/>
    <nd ref="1015553076"/>
    <nd ref="1015553085"/>
    <nd ref="1015553081"/>
    <nd ref="1015553075"/>
    <nd ref="1015553078"/>
    <nd ref="1015553082"/>
    <nd ref="245551375"/>
    <tag k="addr:city" v="Birmingham"/>
    <tag k="addr:postcode" v="B1 2EP"/>
    <tag k="addr:street" v="Broad Street"/>
    <tag k="amenity" v="theatre"/>
    <tag k="architect" v="Graham Winteringham"/>
    <tag k="building" v="heritage"/>
    <tag k="heritage" v="8"/>
    <tag k="heritage:operator" v="Birmingham_Civic_Society"/>
    <tag k="name" v="Birmingham REP"/>
    <tag k="note" v="Currenly closed (2011) for redevelopment"/>
    <tag k="source" v="visual survey;cities_revealed_aerial_imagery;Birmingham_Civic_Society"/>
    <tag k="start_date" v="1971"/>
    <tag k="theatricalia" v="http://theatricalia.com/place/7c/birmingham-repertory-theatre-birmingham"/>
    <tag k="url" v="http://birmingham-rep.co.uk/"/>
    <tag k="wikipedia" v="http://en.wikipedia.org/wiki/Birmingham_Repertory_Theatre"/>
  </way>
  <way id="22820905" version="11" timestamp="2011-08-18T07:51:16Z" uid="735" user="blackadder" changeset="9054472">
    <nd ref="245551375"/>
    <nd ref="1015553083"/>
    <nd ref="1015553080"/>
    <nd ref="245550606"/>
    <nd ref="1403092055"/>
    <nd ref="580629458"/>
    <nd ref="1403092054"/>
    <nd ref="1403092052"/>
    <nd ref="1403092049"/>
    <nd ref="1015553077"/>
    <nd ref="1403092051"/>
    <nd ref="1403092048"/>
    <nd ref="1015553086"/>
    <nd ref="344209089"/>
    <nd ref="1403092041"/>
    <nd ref="1015553079"/>
    <nd ref="245551378"/>
    <nd ref="1403092042"/>
    <nd ref="1403092043"/>
    <nd ref="1403092045"/>
    <nd ref="1015553076"/>
    <nd ref="1403092047"/>
    <nd ref="1403092050"/>
    <nd ref="1403092053"/>
    <nd ref="1015553085"/>
    <nd ref="1403092056"/>
    <nd ref="1015553075"/>
    <nd ref="1015553078"/>
    <nd ref="1015553082"/>
    <nd ref="245551375"/>
    <tag k="addr:city" v="Birmingham"/>
    <tag k="addr:postcode" v="B1 2EP"/>
    <tag k="addr:street" v="Broad Street"/>
    <tag k="amenity" v="theatre"/>
    <tag k="architect" v="Graham Winteringham"/>
    <tag k="building" v="heritage"/>
    <tag k="heritage" v="8"/>
    <tag k="heritage:operator" v="Birmingham_Civic_Society"/>
    <tag k="name" v="Birmingham REP"/>
    <tag k="note" v="Currenly closed (2011) for redevelopment"/>
    <tag k="source" v="visual survey;cities_revealed_aerial_imagery;Birmingham_Civic_Society"/>
    <tag k="start_date" v="1971"/>
    <tag k="theatricalia" v="http://theatricalia.com/place/7c/birmingham-repertory-theatre-birmingham"/>
    <tag k="url" v="http://birmingham-rep.co.uk/"/>
    <tag k="wikipedia" v="http://en.wikipedia.org/wiki/Birmingham_Repertory_Theatre"/>
  </way>
  <way id="22820905" version="12" timestamp="2012-01-12T08:42:25Z" uid="9065" user="brianboru" changeset="10367521"/>
  <way id="22820949" version="3" timestamp="2010-05-16T13:54:53Z" uid="4467" user="Rosscoe" changeset="4717339">
    <nd ref="245551909"/>
    <nd ref="245551910"/>
    <nd ref="582414694"/>
    <nd ref="245551911"/>
    <nd ref="245551912"/>
    <nd ref="245551913"/>
    <nd ref="241806651"/>
    <nd ref="245551914"/>
    <nd ref="241806043"/>
    <nd ref="245551909"/>
    <tag k="highway" v="primary_link"/>
    <tag k="junction" v="roundabout"/>
    <tag k="source" v="nearmap"/>
  </way>
  <way id="22820949" version="4" timestamp="2010-06-01T21:44:33Z" uid="296819" user="Tom Howard" changeset="4879102">
    <nd ref="245551909"/>
    <nd ref="245551910"/>
    <nd ref="582414694"/>
    <nd ref="245551911"/>
    <nd ref="245551912"/>
    <nd ref="245551913"/>
    <nd ref="241806651"/>
    <nd ref="245551914"/>
    <nd ref="241806043"/>
    <nd ref="245551909"/>
    <tag k="highway" v="primary_link"/>
    <tag k="junction" v="roundabout"/>
    <tag k="name" v="Central Coast Highway"/>
    <tag k="source" v="nearmap"/>
  </way>
  <way id="22820949" version="5" timestamp="2010-10-07T11:33:45Z" uid="79475" user="AlexOnTheBus" changeset="5977328">
    <nd ref="245551909"/>
    <nd ref="940105919"/>
    <nd ref="245551910"/>
    <nd ref="582414694"/>
    <nd ref="940105925"/>
    <nd ref="940105929"/>
    <nd ref="245551911"/>
    <nd ref="940105938"/>
    <nd ref="245551912"/>
    <nd ref="245551913"/>
    <nd ref="241806651"/>
    <nd ref="940105955"/>
    <nd ref="245551914"/>
    <nd ref="940105965"/>
    <nd ref="940105967"/>
    <nd ref="241806043"/>
    <nd ref="940105971"/>
    <nd ref="245551909"/>
    <tag k="highway" v="trunk"/>
    <tag k="junction" v="roundabout"/>
    <tag k="source" v="nearmap"/>
  </way>
</osm>
