<?xml version='1.0' encoding='UTF-8'?>
<osm version="0.6" generator="libosmium/2.20.0">
  <way id="22898091" version="2" timestamp="2008-09-16T10:39:16Z" uid="1066" user="pavel" changeset="646258">
    <nd ref="60793961"/>
    <nd ref="246517970"/>
    <nd ref="246517971"/>
    <nd ref="246517972"/>
    <nd ref="246517973"/>
    <nd ref="246517974"/>
    <nd ref="246517975"/>
    <nd ref="246517976"/>
    <tag k="created_by" v="JOSM"/>
    <tag k="highway" v="residential"/>
    <tag k="name" v="Od Vysoké"/>
    <tag k="name:source" v="nameit/uir-adr"/>
  </way>
  <way id="22898091" version="3" timestamp="2009-03-13T23:35:52Z" uid="3516" user="BiIbo" changeset="803821">
    <nd ref="60793961"/>
    <nd ref="246517970"/>
    <nd ref="246517971"/>
    <nd ref="246517972"/>
    <nd ref="246517973"/>
    <nd ref="246517974"/>
    <nd ref="246517975"/>
    <nd ref="246517976"/>
    <tag k="highway" v="residential"/>
    <tag k="name" v="Od Vysoké"/>
    <tag k="source:name" v="nameit/uir-adr"/>
  </way>
  <way id="22898091" version="4" timestamp="2009-05-01T09:36:25Z" uid="29818" user="zub" changeset="1034646">
    <nd ref="60793961"/>
    <nd ref="246517970"/>
    <nd ref="246517971"/>
    <nd ref="246517972"/>
    <nd ref="388126751"/>
    <nd ref="246517973"/>
    <nd ref="246517974"/>
    <nd ref="246517975"/>
    <nd ref="246517976"/>
    <tag k="highway" v="residential"/>
    <tag k="name" v="Od Vysoké"/>
    <tag k="source:name" v="nameit/uir-adr"/>
  </way>
  <way id="22898091" version="5" timestamp="2011-02-06T20:59:58Z" uid="3516" user="BiIbo" changeset="7204886">
    <nd ref="60793961"/>
    <nd ref="1139761076"/>
    <nd ref="246517970"/>
    <nd ref="246517971"/>
    <nd ref="246517972"/>
    <nd ref="388126751"/>
    <nd ref="246517973"/>
    <nd ref="246517974"/>
    <nd ref="246517975"/>
    <nd ref="246517976"/>
    <tag k="highway" v="residential"/>
    <tag k="name" v="Od Vysoké"/>
    <tag k="source:name" v="nameit/uir-adr"/>
  </way>
  <way id="22898092" version="2" timestamp="2008-09-16T10:34:57Z" uid="1066" user="pavel" changeset="646258">
    <nd ref="246517973"/>
    <nd ref="246517977"/>
    <nd ref="246517978"/>
    <nd ref="246517979"/>
    <nd ref="246517980"/>
    <nd ref="246517981"/>
    <nd ref="246517982"/>
    <nd ref="246517989"/>
    <nd ref="246517983"/>
    <nd ref="246517984"/>
    <nd ref="246517972"/>
    <nd ref="246517985"/>
    <nd ref="246517986"/>
    <nd ref="246517987"/>
    <nd ref="246517988"/>
    <nd ref="60793968"/>
    <tag k="created_by" v="JOSM"/>
    <tag k="highway" v="residential"/>
    <tag k="name" v="Na Farkáně I"/>
    <tag k="name:source" v="nameit/uir-adr"/>
  </way>
  <way id="22898092" version="3" timestamp="2009-01-25T22:42:06Z" uid="17615" user="Petr Dlouhý" changeset="838296">
    <nd ref="246517973"/>
    <nd ref="246517977"/>
    <tag k="created_by" v="JOSM"/>
    <tag k="highway" v="residential"/>
    <tag k="name" v="Na Farkáně II"/>
    <tag k="name:source" v="nameit/uir-adr"/>
  </way>
  <way id="22898092" version="4" timestamp="2009-03-13T23:35:51Z" uid="3516" user="BiIbo" changeset="803821">
    <nd ref="246517973"/>
    <nd ref="246517977"/>
    <tag k="highway" v="residential"/>
    <tag k="name" v="Na Farkáně II"/>
    <tag k="source:name" v="nameit/uir-adr"/>
  </way>
  <way id="22898093" version="2" timestamp="2008-09-16T10:38:51Z" uid="1066" user="pavel" changeset="646258">
    <nd ref="246517989"/>
    <nd ref="246517991"/>
    <tag k="created_by" v="JOSM"/>
    <tag k="highway" v="residential"/>
    <tag k="name" v="nám. Na Farkáně"/>
    <tag k="name:source" v="nameit/uir-adr"/>
  </way>
  <way id="22898093" version="3" timestamp="2009-01-25T22:42:05Z" uid="17615" user="Petr Dlouhý" changeset="838296">
    <nd ref="246517989"/>
    <nd ref="246517991"/>
    <tag k="created_by" v="JOSM"/>
    <tag k="highway" v="residential"/>
    <tag k="name" v="náměstí Na Farkáně"/>
    <tag k="name:source" v="nameit/uir-adr"/>
  </way>
  <way id="22898093" version="4" timestamp="2009-03-13T23:35:50Z" uid="3516" user="BiIbo" changeset="803821">
    <nd ref="246517989"/>
    <nd ref="246517991"/>
    <tag k="highway" v="residential"/>
    <tag k="name" v="náměstí Na Farkáně"/>
    <tag k="source:name" v="nameit/uir-adr"/>
  </way>
  <way id="22898093" version="5" timestamp="2011-01-13T00:27:45Z" uid="23543" user="jkjk" changeset="6953302">
    <nd ref="246517989"/>
    <nd ref="1100937827"/>
    <nd ref="246517991"/>
    <tag k="highway" v="residential"/>
    <tag k="name" v="náměstí Na Farkáně"/>
    <tag k="source:name" v="nameit/uir-adr"/>
  </way>
  <way id="22898094" version="2" timestamp="2008-09-16T10:35:46Z" uid="1066" user="pavel" changeset="646258">
    <nd ref="246517990"/>
    <nd ref="246517982"/>
    <tag k="created_by" v="JOSM"/>
    <tag k="highway" v="residential"/>
    <tag k="name" v="nám. Na Farkáně"/>
    <tag k="name:source" v="nameit/uir-adr"/>
  </way>
  <way id="22898094" version="3" timestamp="2009-01-25T22:42:07Z" uid="17615" user="Petr Dlouhý" changeset="838296">
    <nd ref="246517990"/>
    <nd ref="246517982"/>
    <tag k="created_by" v="JOSM"/>
    <tag k="highway" v="residential"/>
    <tag k="name" v="náměstí Na Farkáně"/>
    <tag k="name:source" v="nameit/uir-adr"/>
  </way>
  <way id="22898094" version="4" timestamp="2009-03-13T23:35:52Z" uid="3516" user="BiIbo" changeset="803821">
    <nd ref="246517990"/>
    <nd ref="246517982"/>
    <tag k="highway" v="residential"/>
    <tag k="name" v="náměstí Na Farkáně"/>
    <tag k="source:name" v="nameit/uir-adr"/>
  </way>
  <way id="22898096" version="2" timestamp="2008-09-16T10:34:05Z" uid="1066" user="pavel" changeset="646258">
    <nd ref="246517977"/>
    <nd ref="246518000"/>
    <tag k="created_by" v="JOSM"/>
    <tag k="highway" v="residential"/>
    <tag k="name" v="nám. Na Farkáně"/>
    <tag k="name:source" v="nameit/uir-adr"/>
  </way>
  <way id="22898096" version="3" timestamp="2009-01-25T22:42:08Z" uid="17615" user="Petr Dlouhý" changeset="838296">
    <nd ref="246517977"/>
    <nd ref="246518000"/>
    <tag k="created_by" v="JOSM"/>
    <tag k="highway" v="residential"/>
    <tag k="name" v="náměstí Na Farkáně"/>
    <tag k="name:source" v="nameit/uir-adr"/>
  </way>
  <way id="22898096" version="4" timestamp="2009-03-13T23:35:53Z" uid="3516" user="BiIbo" changeset="803821">
    <nd ref="246517977"/>
    <nd ref="246518000"/>
    <tag k="highway" v="residential"/>
    <tag k="name" v="náměstí Na Farkáně"/>
    <tag k="source:name" v="nameit/uir-adr"/>
  </way>
  <way id="22898098" version="2" timestamp="2008-09-16T10:34:06Z" uid="1066" user="pavel" changeset="646258">
    <nd ref="25926022"/>
    <nd ref="246517991"/>
    <nd ref="246517990"/>
    <nd ref="246517992"/>
    <nd ref="246517993"/>
    <nd ref="246517994"/>
    <nd ref="246517995"/>
    <nd ref="246517996"/>
    <nd ref="246517997"/>
    <nd ref="246517998"/>
    <nd ref="246517999"/>
    <nd ref="246518000"/>
    <nd ref="246517976"/>
    <nd ref="246518022"/>
    <nd ref="246518023"/>
    <tag k="created_by" v="JOSM"/>
    <tag k="highway" v="residential"/>
    <tag k="name" v="Na Farkáně III"/>
    <tag k="name:source" v="nameit/uir-adr"/>
  </way>
  <way id="22898098" version="3" timestamp="2009-03-13T23:35:54Z" uid="3516" user="BiIbo" changeset="803821">
    <nd ref="25926022"/>
    <nd ref="246517991"/>
    <nd ref="246517990"/>
    <nd ref="246517992"/>
    <nd ref="246517993"/>
    <nd ref="246517994"/>
    <nd ref="246517995"/>
    <nd ref="246517996"/>
    <nd ref="246517997"/>
    <nd ref="246517998"/>
    <nd ref="246517999"/>
    <nd ref="246518000"/>
    <nd ref="246517976"/>
    <nd ref="246518022"/>
    <nd ref="246518023"/>
    <tag k="highway" v="residential"/>
    <tag k="name" v="Na Farkáně III"/>
    <tag k="source:name" v="nameit/uir-adr"/>
  </way>
  <way id="22898098" version="4" timestamp="2010-02-13T03:53:08Z" uid="17615" user="Petr Dlouhý" changeset="3861917">
    <nd ref="25926022"/>
    <nd ref="246517991"/>
    <nd ref="246517990"/>
    <nd ref="246517992"/>
    <nd ref="246517993"/>
    <nd ref="246517994"/>
    <nd ref="246517995"/>
    <nd ref="638061241"/>
    <nd ref="246517996"/>
    <nd ref="246517997"/>
    <nd ref="246517998"/>
    <nd ref="246517999"/>
    <nd ref="638062024"/>
    <nd ref="246518000"/>
    <nd ref="246517976"/>
    <nd ref="246518022"/>
    <nd ref="246518023"/>
    <tag k="highway" v="residential"/>
    <tag k="name" v="Na Farkáně III"/>
    <tag k="source:name" v="nameit/uir-adr"/>
  </way>
  <way id="22898098" version="5" timestamp="2011-02-06T20:53:44Z" uid="3516" user="BiIbo" changeset="7204886">
    <nd ref="25926022"/>
    <nd ref="1139745830"/>
    <nd ref="246517991"/>
    <nd ref="246517990"/>
    <nd ref="246517992"/>
    <nd ref="246517993"/>
    <nd ref="246517994"/>
    <nd ref="246517995"/>
    <nd ref="638061241"/>
    <nd ref="246517996"/>
    <nd ref="246517997"/>
    <nd ref="246517998"/>
    <nd ref="246517999"/>
    <nd ref="638062024"/>
    <nd ref="246518000"/>
    <nd ref="246517976"/>
    <nd ref="246518022"/>
    <nd ref="246518023"/>
    <tag k="highway" v="residential"/>
    <tag k="name" v="Na Farkáně III"/>
    <tag k="source:name" v="nameit/uir-adr"/>
  </way>
  <way id="22898312" version="2" timestamp="2008-07-08T23:32:52Z" uid="6975" user="ulfl" changeset="443284">
    <nd ref="246519599"/>
    <nd ref="246519600"/>
    <nd ref="246519601"/>
    <nd ref="246519602"/>
    <nd ref="246519603"/>
    <nd ref="246519604"/>
    <nd ref="246519605"/>
    <nd ref="246519606"/>
    <nd ref="246519607"/>
    <nd ref="246519608"/>
    <nd ref="246519609"/>
    <nd ref="246519610"/>
    <nd ref="246519611"/>
    <nd ref="246519612"/>
    <nd ref="246519595"/>
    <tag k="access" v="private"/>
    <tag k="highway" v="service"/>
  </way>
  <way id="22898312" version="3" timestamp="2011-11-30T20:54:23Z" uid="63375" user="Divjo" changeset="10003108"/>
  <way id="22898368" version="4" timestamp="2009-08-13T01:04:27Z" uid="4467" user="Rosscoe" changeset="2125668">
    <nd ref="246519808"/>
    <nd ref="246519807"/>
    <tag k="highway" v="trunk"/>
    <tag k="name" v="Wellington Road"/>
    <tag k="osmarender:renderName" v="no"/>
  </way>
  <way id="22898368" version="5" timestamp="2010-07-18T04:24:51Z" uid="4467" user="Rosscoe" changeset="5247790"/>
  <way id="22898371" version="3" timestamp="2009-08-13T01:04:24Z" uid="4467" user="Rosscoe" changeset="2125668">
    <nd ref="246519819"/>
    <nd ref="246519815"/>
    <tag k="highway" v="trunk"/>
    <tag k="name" v="Wellington Road"/>
    <tag k="osmarender:renderName" v="no"/>
  </way>
  <way id="22898371" version="4" timestamp="2010-07-18T04:24:51Z" uid="4467" user="Rosscoe" changeset="5247790"/>
  <way id="22898436" version="3" timestamp="2008-10-01T02:53:06Z" uid="36809" user="pfoten_weg_!_" changeset="5644">
    <nd ref="201410253"/>
    <nd ref="201440671"/>
    <nd ref="201440677"/>
    <nd ref="201440684"/>
    <nd ref="201440688"/>
    <nd ref="201440691"/>
    <nd ref="36264247"/>
    <tag k="bicycle" v="no"/>
    <tag k="created_by" v="RambaZamba"/>
    <tag k="foot" v="yes"/>
    <tag k="highway" v="cycleway"/>
    <tag k="source" v="survey"/>
  </way>
  <way id="22898436" version="4" timestamp="2008-11-06T20:38:52Z" uid="8748" user="ToniE" changeset="695783">
    <nd ref="201410253"/>
    <nd ref="310268857"/>
    <nd ref="201440671"/>
    <tag k="bicycle" v="no"/>
    <tag k="created_by" v="RambaZamba"/>
    <tag k="foot" v="yes"/>
    <tag k="highway" v="footway"/>
    <tag k="source" v="survey"/>
  </way>
  <way id="22898436" version="5" timestamp="2008-11-06T20:41:03Z" uid="8748" user="ToniE" changeset="695783">
    <nd ref="201410253"/>
    <nd ref="310268857"/>
    <nd ref="310269320"/>
    <nd ref="201440671"/>
    <tag k="bicycle" v="no"/>
    <tag k="created_by" v="RambaZamba"/>
    <tag k="foot" v="yes"/>
    <tag k="highway" v="footway"/>
    <tag k="source" v="survey"/>
  </way>
  <way id="22898436" version="6" timestamp="2009-06-08T12:03:23Z" uid="132988" user="ich-liebe-euch" changeset="1457959">
    <nd ref="201410253"/>
    <nd ref="310268857"/>
    <nd ref="310269320"/>
    <nd ref="201440671"/>
    <tag k="bicycle" v="no"/>
    <tag k="foot" v="yes"/>
    <tag k="highway" v="footway"/>
    <tag k="source" v="survey"/>
  </way>
  <way id="22898436" version="7" timestamp="2009-06-08T13:41:24Z" uid="36809" user="pfoten_weg_!_" changeset="1458869">
    <nd ref="201410253"/>
    <nd ref="310268857"/>
    <nd ref="310269320"/>
    <nd ref="201440671"/>
    <tag k="bicycle" v="no"/>
    <tag k="created_by" v="RambaZamba"/>
    <tag k="foot" v="yes"/>
    <tag k="highway" v="footway"/>
    <tag k="source" v="survey"/>
  </way>
  <way id="22898436" version="8" timestamp="2009-08-28T19:54:21Z" uid="156995" user="HampelZamba" changeset="2294580">
    <nd ref="201410253"/>
    <nd ref="310268857"/>
    <nd ref="310269320"/>
    <nd ref="201440671"/>
    <tag k="bicycle" v="no"/>
    <tag k="foot" v="yes"/>
    <tag k="highway" v="footway"/>
    <tag k="source" v="survey"/>
  </way>
  <way id="22898436" version="9" timestamp="2009-09-04T21:14:19Z" uid="36809" user="pfoten_weg_!_" changeset="2374562">
    <nd ref="201410253"/>
    <nd ref="310268857"/>
    <nd ref="310269320"/>
    <nd ref="201440671"/>
    <tag k="bicycle" v="no"/>
    <tag k="foot" v="yes"/>
    <tag k="highway" v="footway"/>
    <tag k="source" v="survey"/>
  </way>
  <way id="22898436" version="10" timestamp="2009-10-13T23:48:08Z" uid="36809" user="pfoten_weg_!_" changeset="2841273">
    <nd ref="201410253"/>
    <nd ref="310268857"/>
    <nd ref="310269320"/>
    <nd ref="201440671"/>
    <tag k="bicycle" v="no"/>
    <tag k="foot" v="yes"/>
    <tag k="highway" v="footway"/>
  </way>
  <way id="22898436" version="11" timestamp="2010-03-22T19:20:56Z" uid="224490" user="Geo-Tobi" changeset="4205833">
    <nd ref="201410253"/>
    <nd ref="310268857"/>
    <nd ref="310269320"/>
    <nd ref="201440671"/>
    <tag k="access" v="no"/>
    <tag k="bicycle" v="no"/>
    <tag k="highway" v="footway"/>
    <tag k="note" v="Weg aktuell wegen Baustelle gesperrt (21.März2010).Bitte access=no entfernen wenn&apos;s soweit ist"/>
  </way>
  <way id="22898436" version="12" timestamp="2010-04-25T15:07:58Z" uid="16026" user="flip666" changeset="4522466">
    <nd ref="201410253"/>
    <nd ref="310268857"/>
    <nd ref="310269320"/>
    <nd ref="201440671"/>
    <tag k="bicycle" v="no"/>
    <tag k="highway" v="footway"/>
  </way>
  <way id="22898436" version="13" timestamp="2011-04-25T20:47:57Z" uid="172008" user="Blanes Lluis" changeset="7968757">
    <nd ref="201410253"/>
    <nd ref="310268857"/>
    <nd ref="310269320"/>
    <nd ref="201440671"/>
    <nd ref="310268858"/>
    <nd ref="201440677"/>
    <nd ref="201440684"/>
    <nd ref="310269497"/>
    <nd ref="201440688"/>
    <nd ref="201440691"/>
    <nd ref="677225835"/>
    <nd ref="36264247"/>
    <tag k="bicycle" v="no"/>
    <tag k="foot" v="yes"/>
    <tag k="highway" v="footway"/>
  </way>
  <way id="22898447" version="3" timestamp="2009-08-13T01:04:25Z" uid="4467" user="Rosscoe" changeset="2125668">
    <nd ref="27415733"/>
    <nd ref="246520720"/>
    <tag k="highway" v="trunk"/>
    <tag k="name" v="Wellington Road"/>
    <tag k="osmarender:renderName" v="no"/>
  </way>
  <way id="22898447" version="4" timestamp="2010-07-18T04:23:24Z" uid="4467" user="Rosscoe" changeset="5247790">
    <nd ref="246520720"/>
    <nd ref="27415733"/>
    <nd ref="611525397"/>
    <nd ref="599899425"/>
    <nd ref="599899467"/>
    <nd ref="599899460"/>
    <nd ref="599899287"/>
    <nd ref="599899282"/>
    <nd ref="27415661"/>
    <nd ref="27415664"/>
    <nd ref="243078092"/>
    <tag k="highway" v="residential"/>
    <tag k="maxspeed" v="50"/>
    <tag k="maxspeed:source" v="default residential speed limit in Australia"/>
    <tag k="name" v="Nantilla Road"/>
  </way>
  <way id="22898447" version="5" timestamp="2011-06-15T10:40:13Z" uid="6513" user="Glen" changeset="8445753">
    <nd ref="246520720"/>
    <nd ref="27415733"/>
    <nd ref="611525397"/>
    <nd ref="599899425"/>
    <nd ref="599899467"/>
    <nd ref="599899460"/>
    <nd ref="599899287"/>
    <nd ref="599899282"/>
    <nd ref="1326256319"/>
    <nd ref="1326256253"/>
    <nd ref="27415661"/>
    <nd ref="27415664"/>
    <nd ref="243078092"/>
    <tag k="highway" v="residential"/>
    <tag k="maxspeed" v="50"/>
    <tag k="maxspeed:source" v="default residential speed limit in Australia"/>
    <tag k="name" v="Nantilla Road"/>
  </way>
  <way id="22898447" version="6" timestamp="2011-07-02T11:45:28Z" uid="472067" user="pringle" changeset="8607124">
    <nd ref="246520720"/>
    <nd ref="27415733"/>
    <tag k="highway" v="trunk_link"/>
  </way>
  <way id="22898453" version="3" timestamp="2009-08-13T01:04:25Z" uid="4467" user="Rosscoe" changeset="2125668">
    <nd ref="246520747"/>
    <nd ref="246520748"/>
    <tag k="highway" v="trunk"/>
    <tag k="name" v="Wellington Road"/>
    <tag k="osmarender:renderName" v="no"/>
  </way>
  <way id="22898453" version="4" timestamp="2011-02-15T12:18:26Z" uid="46482" user="Leon K" changeset="7294356">
    <nd ref="246520747"/>
    <nd ref="246520748"/>
    <tag k="highway" v="trunk_link"/>
    <tag k="name" v="Wellington Road"/>
    <tag k="osmarender:renderName" v="no"/>
  </way>
  <way id="22898453" version="5" timestamp="2011-03-05T12:00:53Z" uid="4467" user="Rosscoe" changeset="7462408">
    <nd ref="1187119739"/>
    <nd ref="246520747"/>
    <nd ref="246520748"/>
    <tag k="highway" v="service"/>
    <tag k="service" v="driveway"/>
    <tag k="source" v="nearmap"/>
  </way>
  <way id="22898453" version="6" timestamp="2011-07-02T11:45:28Z" uid="472067" user="pringle" changeset="8607124">
    <nd ref="1187119739"/>
    <nd ref="246520747"/>
    <tag k="highway" v="service"/>
    <tag k="service" v="driveway"/>
    <tag k="source" v="nearmap"/>
  </way>
  <way id="22898455" version="3" timestamp="2009-08-13T01:04:24Z" uid="4467" user="Rosscoe" changeset="2125668">
    <nd ref="246520751"/>
    <nd ref="246520752"/>
    <tag k="highway" v="trunk"/>
    <tag k="name" v="Wellington Road"/>
    <tag k="osmarender:renderName" v="no"/>
  </way>
  <way id="22898455" version="4" timestamp="2011-02-15T12:18:26Z" uid="46482" user="Leon K" changeset="7294356">
    <nd ref="246520751"/>
    <nd ref="246520752"/>
    <tag k="highway" v="trunk_link"/>
    <tag k="name" v="Wellington Road"/>
    <tag k="osmarender:renderName" v="no"/>
  </way>
  <way id="22898455" version="5" timestamp="2011-03-05T12:01:00Z" uid="4467" user="Rosscoe" changeset="7462408">
    <nd ref="246520751"/>
    <nd ref="246520752"/>
    <nd ref="1187119736"/>
    <tag k="highway" v="service"/>
    <tag k="service" v="driveway"/>
    <tag k="source" v="nearmap"/>
  </way>
  <way id="22898455" version="6" timestamp="2011-07-02T11:45:28Z" uid="472067" user="pringle" changeset="8607124">
    <nd ref="246520751"/>
    <nd ref="246520752"/>
    <tag k="highway" v="trunk_link"/>
  </way>
  <way id="22898461" version="6" timestamp="2009-08-13T01:10:26Z" uid="4467" user="Rosscoe" changeset="2125705">
    <nd ref="246520794"/>
    <nd ref="32886892"/>
    <tag k="bridge" v="yes"/>
    <tag k="highway" v="trunk"/>
    <tag k="layer" v="1"/>
    <tag k="name" v="Wellington Road"/>
    <tag k="oneway" v="yes"/>
    <tag k="osmarender:renderName" v="no"/>
    <tag k="ref" v="18"/>
  </way>
  <way id="22898461" version="7" timestamp="2010-04-06T03:54:24Z" uid="74617" user="JohnSmith" changeset="4340174">
    <nd ref="246520794"/>
    <nd ref="32886892"/>
    <tag k="bridge" v="yes"/>
    <tag k="highway" v="trunk"/>
    <tag k="layer" v="1"/>
    <tag k="oneway" v="yes"/>
  </way>
  <way id="22898463" version="29" timestamp="2010-04-06T03:49:11Z" uid="74617" user="JohnSmith" changeset="4340174">
    <nd ref="32886892"/>
    <nd ref="271289838"/>
    <nd ref="27606056"/>
    <nd ref="569899286"/>
    <nd ref="27379262"/>
    <nd ref="448211069"/>
    <nd ref="616025688"/>
    <nd ref="273306662"/>
    <nd ref="569894817"/>
    <nd ref="26582220"/>
    <nd ref="569894902"/>
    <nd ref="273306727"/>
    <nd ref="569894818"/>
    <nd ref="273306870"/>
    <nd ref="273306871"/>
    <nd ref="569894819"/>
    <nd ref="273306872"/>
    <nd ref="569894845"/>
    <nd ref="607905306"/>
    <nd ref="607904967"/>
    <nd ref="318879148"/>
    <nd ref="318879149"/>
    <nd ref="607905727"/>
    <nd ref="27167852"/>
    <nd ref="597984514"/>
    <nd ref="597984532"/>
    <nd ref="318879118"/>
    <nd ref="32166546"/>
    <nd ref="326257934"/>
    <tag k="highway" v="trunk"/>
    <tag k="name" v="Wellington Road"/>
    <tag k="oneway" v="yes"/>
  </way>
  <way id="22898463" version="30" timestamp="2011-03-05T11:43:03Z" uid="4467" user="Rosscoe" changeset="7462200">
    <nd ref="32886892"/>
    <nd ref="271289838"/>
    <nd ref="27606056"/>
    <nd ref="569899286"/>
    <nd ref="1187101877"/>
    <nd ref="27379262"/>
    <nd ref="1187101911"/>
    <nd ref="448211069"/>
    <nd ref="32122823"/>
    <nd ref="616025688"/>
    <nd ref="273306662"/>
    <nd ref="569894817"/>
    <nd ref="26582220"/>
    <nd ref="569894902"/>
    <nd ref="273306727"/>
    <nd ref="569894818"/>
    <nd ref="273306870"/>
    <nd ref="273306871"/>
    <nd ref="569894819"/>
    <nd ref="273306872"/>
    <nd ref="569894845"/>
    <nd ref="607905306"/>
    <nd ref="607904967"/>
    <nd ref="318879148"/>
    <nd ref="318879149"/>
    <nd ref="607905727"/>
    <nd ref="27167852"/>
    <nd ref="597984514"/>
    <nd ref="597984532"/>
    <nd ref="1187101818"/>
    <nd ref="318879118"/>
    <nd ref="32166546"/>
    <nd ref="326257934"/>
    <tag k="highway" v="trunk"/>
    <tag k="name" v="Wellington Road"/>
    <tag k="oneway" v="yes"/>
  </way>
  <way id="22898463" version="31" timestamp="2011-08-11T08:33:35Z" uid="11111" user="melb_guy" changeset="8983115">
    <nd ref="32886892"/>
    <nd ref="271289838"/>
    <nd ref="27606056"/>
    <nd ref="569899286"/>
    <nd ref="1187101877"/>
    <nd ref="27379262"/>
    <nd ref="1187101911"/>
    <nd ref="448211069"/>
    <nd ref="32122823"/>
    <nd ref="616025688"/>
    <nd ref="273306662"/>
    <nd ref="569894817"/>
    <nd ref="26582220"/>
    <nd ref="569894902"/>
    <nd ref="273306727"/>
    <nd ref="569894818"/>
    <nd ref="273306870"/>
    <nd ref="273306871"/>
    <nd ref="569894819"/>
    <nd ref="273306872"/>
    <nd ref="569894845"/>
    <nd ref="607905306"/>
    <nd ref="607904967"/>
    <nd ref="318879148"/>
    <nd ref="318879149"/>
    <nd ref="607905727"/>
    <nd ref="27167852"/>
    <nd ref="597984514"/>
    <nd ref="597984532"/>
    <nd ref="1187101818"/>
    <nd ref="318879118"/>
    <nd ref="32166546"/>
    <nd ref="326257934"/>
    <tag k="highway" v="trunk"/>
    <tag k="lanes" v="3"/>
    <tag k="maxspeed" v="80"/>
    <tag k="name" v="Wellington Road"/>
    <tag k="oneway" v="yes"/>
    <tag k="surface" v="asphalt"/>
  </way>
  <way id="22898464" version="5" timestamp="2008-10-01T02:53:28Z" uid="36809" user="pfoten_weg_!_" changeset="5644">
    <nd ref="36264246"/>
    <nd ref="246520834"/>
    <nd ref="246520835"/>
    <nd ref="246520836"/>
    <nd ref="246520837"/>
    <nd ref="246520838"/>
    <nd ref="246520911"/>
    <nd ref="246520912"/>
    <nd ref="246520913"/>
    <nd ref="246525434"/>
    <nd ref="246520914"/>
    <nd ref="246525435"/>
    <nd ref="246525436"/>
    <nd ref="36264225"/>
    <nd ref="2041481"/>
    <tag k="bicycle" v="no"/>
    <tag k="created_by" v="RambaZamba"/>
    <tag k="highway" v="footway"/>
    <tag k="source" v="survey"/>
  </way>
  <way id="22898464" version="6" timestamp="2009-04-25T19:10:48Z" uid="17933" user="abunai" changeset="956762">
    <nd ref="36264246"/>
    <nd ref="246520834"/>
    <nd ref="246520835"/>
    <nd ref="246520836"/>
    <nd ref="384918195"/>
    <nd ref="246520837"/>
    <nd ref="246520838"/>
    <nd ref="246520911"/>
    <nd ref="246520912"/>
    <nd ref="246520913"/>
    <nd ref="246525434"/>
    <nd ref="246520914"/>
    <nd ref="246525435"/>
    <nd ref="246525436"/>
    <nd ref="36264225"/>
    <nd ref="2041481"/>
    <tag k="bicycle" v="no"/>
    <tag k="created_by" v="RambaZamba"/>
    <tag k="highway" v="footway"/>
    <tag k="source" v="survey"/>
  </way>
  <way id="22898464" version="7" timestamp="2009-05-02T11:46:07Z" uid="71041" user="TomRadfahrer" changeset="1047497">
    <nd ref="36264246"/>
    <nd ref="246520834"/>
    <nd ref="246520835"/>
    <nd ref="246520836"/>
    <nd ref="384918195"/>
    <nd ref="246520837"/>
    <nd ref="246520838"/>
    <nd ref="246520911"/>
    <nd ref="246520912"/>
    <nd ref="246520913"/>
    <nd ref="246525434"/>
    <nd ref="246520914"/>
    <nd ref="246525435"/>
    <nd ref="246525436"/>
    <tag k="bicycle" v="no"/>
    <tag k="created_by" v="RambaZamba"/>
    <tag k="highway" v="footway"/>
    <tag k="source" v="survey"/>
  </way>
  <way id="22898464" version="8" timestamp="2009-06-06T13:43:18Z" uid="8748" user="ToniE" changeset="1438405">
    <nd ref="36264246"/>
    <nd ref="416470061"/>
    <tag k="bicycle" v="no"/>
    <tag k="created_by" v="RambaZamba"/>
    <tag k="highway" v="footway"/>
    <tag k="source" v="survey"/>
  </way>
  <way id="22898464" version="9" timestamp="2009-06-08T12:03:34Z" uid="132988" user="ich-liebe-euch" changeset="1457959">
    <nd ref="36264246"/>
    <nd ref="416470061"/>
    <tag k="bicycle" v="no"/>
    <tag k="highway" v="footway"/>
    <tag k="source" v="survey"/>
  </way>
  <way id="22898464" version="10" timestamp="2009-06-08T13:41:24Z" uid="36809" user="pfoten_weg_!_" changeset="1458869">
    <nd ref="36264246"/>
    <nd ref="416470061"/>
    <tag k="bicycle" v="no"/>
    <tag k="created_by" v="RambaZamba"/>
    <tag k="highway" v="footway"/>
    <tag k="source" v="survey"/>
  </way>
  <way id="22898464" version="11" timestamp="2009-08-28T19:54:21Z" uid="156995" user="HampelZamba" changeset="2294580">
    <nd ref="36264246"/>
    <nd ref="416470061"/>
    <tag k="bicycle" v="no"/>
    <tag k="highway" v="footway"/>
    <tag k="source" v="survey"/>
  </way>
  <way id="22898464" version="12" timestamp="2009-09-01T10:47:55Z" uid="36809" user="pfoten_weg_!_" changeset="2335754">
    <nd ref="36264246"/>
    <nd ref="416470061"/>
    <tag k="bicycle" v="no"/>
    <tag k="highway" v="footway"/>
    <tag k="source" v="survey"/>
  </way>
  <way id="22898464" version="13" timestamp="2009-10-13T23:48:19Z" uid="36809" user="pfoten_weg_!_" changeset="2841273">
    <nd ref="36264246"/>
    <nd ref="416470061"/>
    <tag k="bicycle" v="no"/>
    <tag k="highway" v="footway"/>
  </way>
  <way id="22898468" version="6" timestamp="2009-08-13T01:10:26Z" uid="4467" user="Rosscoe" changeset="2125705">
    <nd ref="246520849"/>
    <nd ref="246520850"/>
    <tag k="bridge" v="yes"/>
    <tag k="highway" v="trunk"/>
    <tag k="layer" v="1"/>
    <tag k="name" v="Wellington Road"/>
    <tag k="oneway" v="yes"/>
    <tag k="osmarender:renderName" v="no"/>
    <tag k="ref" v="18"/>
  </way>
  <way id="22898468" version="7" timestamp="2010-04-06T03:54:24Z" uid="74617" user="JohnSmith" changeset="4340174">
    <nd ref="246520849"/>
    <nd ref="246520850"/>
    <tag k="bridge" v="yes"/>
    <tag k="highway" v="trunk"/>
    <tag k="layer" v="1"/>
    <tag k="oneway" v="yes"/>
  </way>
  <way id="22898470" version="10" timestamp="2010-04-06T03:49:17Z" uid="74617" user="JohnSmith" changeset="4340174">
    <nd ref="246520850"/>
    <nd ref="569898706"/>
    <nd ref="569898522"/>
    <tag k="highway" v="trunk"/>
    <tag k="lanes" v="2"/>
    <tag k="maxspeed" v="80"/>
    <tag k="name" v="Wellington Road"/>
    <tag k="oneway" v="yes"/>
  </way>
  <way id="22898470" version="11" timestamp="2011-03-05T12:00:53Z" uid="4467" user="Rosscoe" changeset="7462408">
    <nd ref="246520850"/>
    <nd ref="569898522"/>
    <tag k="highway" v="trunk"/>
    <tag k="lanes" v="2"/>
    <tag k="maxspeed" v="80"/>
    <tag k="name" v="Wellington Road"/>
    <tag k="oneway" v="yes"/>
  </way>
  <way id="22898509" version="12" timestamp="2010-04-04T23:24:03Z" uid="74617" user="JohnSmith" changeset="4327637">
    <nd ref="27166782"/>
    <nd ref="266912704"/>
    <nd ref="27166771"/>
    <nd ref="271290199"/>
    <nd ref="271290225"/>
    <nd ref="271290304"/>
    <nd ref="27165036"/>
    <nd ref="27165014"/>
    <nd ref="27164997"/>
    <nd ref="27164996"/>
    <nd ref="27164992"/>
    <nd ref="27164981"/>
    <tag k="highway" v="motorway"/>
    <tag k="maxspeed" v="100"/>
    <tag k="name" v="Monash Freeway"/>
    <tag k="oneway" v="yes"/>
    <tag k="ref" v="M1"/>
  </way>
  <way id="22898509" version="13" timestamp="2010-04-05T08:31:31Z" uid="74617" user="JohnSmith" changeset="4330247">
    <nd ref="27166782"/>
    <nd ref="266912704"/>
    <nd ref="27166771"/>
    <nd ref="271290199"/>
    <nd ref="271290225"/>
    <nd ref="271290304"/>
    <nd ref="27165036"/>
    <nd ref="27165014"/>
    <nd ref="27164997"/>
    <nd ref="27164996"/>
    <nd ref="27164992"/>
    <nd ref="27164981"/>
    <tag k="highway" v="motorway"/>
    <tag k="maxspeed" v="100"/>
    <tag k="name" v="Monash Freeway"/>
    <tag k="oneway" v="yes"/>
  </way>
  <way id="22898509" version="14" timestamp="2010-04-22T23:00:36Z" uid="46482" user="Leon K" changeset="4499793">
    <nd ref="27166782"/>
    <nd ref="266912704"/>
    <nd ref="27166771"/>
    <nd ref="704111470"/>
    <nd ref="271290199"/>
    <nd ref="271290225"/>
    <nd ref="271290304"/>
    <nd ref="27165036"/>
    <nd ref="27165014"/>
    <nd ref="27164997"/>
    <nd ref="27164996"/>
    <nd ref="27164992"/>
    <nd ref="27164981"/>
    <tag k="highway" v="motorway"/>
    <tag k="maxspeed" v="100"/>
    <tag k="name" v="Monash Freeway"/>
    <tag k="oneway" v="yes"/>
  </way>
  <way id="22898509" version="15" timestamp="2010-04-22T23:00:40Z" uid="46482" user="Leon K" changeset="4499793">
    <nd ref="27166782"/>
    <nd ref="266912704"/>
    <nd ref="27166771"/>
    <nd ref="704111470"/>
    <nd ref="704111603"/>
    <nd ref="271290199"/>
    <nd ref="271290225"/>
    <nd ref="271290304"/>
    <nd ref="27165036"/>
    <nd ref="27165014"/>
    <nd ref="27164997"/>
    <nd ref="27164996"/>
    <nd ref="27164992"/>
    <nd ref="27164981"/>
    <tag k="highway" v="motorway"/>
    <tag k="maxspeed" v="100"/>
    <tag k="name" v="Monash Freeway"/>
    <tag k="oneway" v="yes"/>
  </way>
  <way id="22898509" version="16" timestamp="2010-04-22T23:01:53Z" uid="46482" user="Leon K" changeset="4499793">
    <nd ref="27166782"/>
    <nd ref="266912704"/>
    <nd ref="27166771"/>
    <nd ref="704111470"/>
    <nd ref="704111603"/>
    <nd ref="271290199"/>
    <nd ref="271290225"/>
    <nd ref="704113950"/>
    <nd ref="271290304"/>
    <nd ref="27165036"/>
    <nd ref="27165014"/>
    <nd ref="27164997"/>
    <nd ref="27164996"/>
    <nd ref="27164992"/>
    <nd ref="27164981"/>
    <tag k="highway" v="motorway"/>
    <tag k="maxspeed" v="100"/>
    <tag k="name" v="Monash Freeway"/>
    <tag k="oneway" v="yes"/>
  </way>
  <way id="22898509" version="17" timestamp="2010-07-18T06:04:40Z" uid="4467" user="Rosscoe" changeset="5248095">
    <nd ref="27166782"/>
    <nd ref="266912704"/>
    <nd ref="27166771"/>
    <nd ref="704111470"/>
    <nd ref="704111603"/>
    <nd ref="271290199"/>
    <nd ref="271290225"/>
    <nd ref="704113950"/>
    <nd ref="271290304"/>
    <nd ref="27165036"/>
    <nd ref="27165014"/>
    <nd ref="27164997"/>
    <nd ref="822484380"/>
    <nd ref="27164996"/>
    <nd ref="27164992"/>
    <nd ref="27164981"/>
    <tag k="highway" v="motorway"/>
    <tag k="maxspeed" v="100"/>
    <tag k="name" v="Monash Freeway"/>
    <tag k="oneway" v="yes"/>
  </way>
  <way id="22898509" version="18" timestamp="2011-12-30T21:49:47Z" uid="46482" user="Leon K" changeset="10250005">
    <nd ref="27166782"/>
    <nd ref="266912704"/>
    <nd ref="27166771"/>
    <nd ref="704111470"/>
    <nd ref="704111603"/>
    <nd ref="271290199"/>
    <nd ref="271290225"/>
    <nd ref="704113950"/>
    <nd ref="271290304"/>
    <nd ref="27165036"/>
    <nd ref="27165014"/>
    <nd ref="27164997"/>
    <nd ref="822484380"/>
    <nd ref="27164996"/>
    <nd ref="27164992"/>
    <nd ref="27164981"/>
    <tag k="highway" v="motorway"/>
    <tag k="maxspeed" v="100"/>
    <tag k="name" v="Monash Freeway"/>
    <tag k="oneway" v="yes"/>
    <tag k="ref" v="M1"/>
  </way>
  <way id="22898510" version="5" timestamp="2010-04-04T23:24:01Z" uid="74617" user="JohnSmith" changeset="4327637">
    <nd ref="27166791"/>
    <nd ref="27166782"/>
    <tag k="bridge" v="yes"/>
    <tag k="highway" v="motorway"/>
    <tag k="layer" v="1"/>
    <tag k="maxspeed" v="100"/>
    <tag k="name" v="Monash Freeway"/>
    <tag k="oneway" v="yes"/>
    <tag k="ref" v="M1"/>
  </way>
  <way id="22898510" version="6" timestamp="2010-04-05T08:31:31Z" uid="74617" user="JohnSmith" changeset="4330247">
    <nd ref="27166791"/>
    <nd ref="27166782"/>
    <tag k="bridge" v="yes"/>
    <tag k="highway" v="motorway"/>
    <tag k="layer" v="1"/>
    <tag k="maxspeed" v="100"/>
    <tag k="name" v="Monash Freeway"/>
    <tag k="oneway" v="yes"/>
  </way>
  <way id="22898510" version="7" timestamp="2011-12-30T21:49:48Z" uid="46482" user="Leon K" changeset="10250005">
    <nd ref="27166791"/>
    <nd ref="27166782"/>
    <tag k="bridge" v="yes"/>
    <tag k="highway" v="motorway"/>
    <tag k="layer" v="1"/>
    <tag k="maxspeed" v="100"/>
    <tag k="name" v="Monash Freeway"/>
    <tag k="oneway" v="yes"/>
    <tag k="ref" v="M1"/>
  </way>
  <way id="22898532" version="6" timestamp="2010-04-04T23:24:01Z" uid="74617" user="JohnSmith" changeset="4327637">
    <nd ref="27166779"/>
    <nd ref="27166783"/>
    <tag k="bridge" v="yes"/>
    <tag k="highway" v="motorway"/>
    <tag k="layer" v="1"/>
    <tag k="maxspeed" v="100"/>
    <tag k="name" v="Monash Freeway"/>
    <tag k="oneway" v="yes"/>
    <tag k="ref" v="M1"/>
  </way>
  <way id="22898532" version="7" timestamp="2010-04-05T08:31:31Z" uid="74617" user="JohnSmith" changeset="4330247">
    <nd ref="27166779"/>
    <nd ref="27166783"/>
    <tag k="bridge" v="yes"/>
    <tag k="highway" v="motorway"/>
    <tag k="layer" v="1"/>
    <tag k="maxspeed" v="100"/>
    <tag k="name" v="Monash Freeway"/>
    <tag k="oneway" v="yes"/>
  </way>
  <way id="22898532" version="8" timestamp="2011-12-30T21:49:49Z" uid="46482" user="Leon K" changeset="10250005">
    <nd ref="27166779"/>
    <nd ref="27166783"/>
    <tag k="bridge" v="yes"/>
    <tag k="highway" v="motorway"/>
    <tag k="layer" v="1"/>
    <tag k="maxspeed" v="100"/>
    <tag k="name" v="Monash Freeway"/>
    <tag k="oneway" v="yes"/>
    <tag k="ref" v="M1"/>
  </way>
  <way id="22898534" version="10" timestamp="2010-04-04T23:23:59Z" uid="74617" user="JohnSmith" changeset="4327637">
    <nd ref="27166783"/>
    <nd ref="249449606"/>
    <nd ref="27166795"/>
    <tag k="highway" v="motorway"/>
    <tag k="maxspeed" v="100"/>
    <tag k="name" v="Monash Freeway"/>
    <tag k="oneway" v="yes"/>
    <tag k="ref" v="M1"/>
  </way>
  <way id="22898534" version="11" timestamp="2010-04-05T08:31:15Z" uid="74617" user="JohnSmith" changeset="4330247">
    <nd ref="27166783"/>
    <nd ref="249449606"/>
    <nd ref="27166795"/>
    <tag k="highway" v="motorway"/>
    <tag k="maxspeed" v="100"/>
    <tag k="name" v="Monash Freeway"/>
    <tag k="oneway" v="yes"/>
  </way>
  <way id="22898534" version="12" timestamp="2011-12-30T21:49:49Z" uid="46482" user="Leon K" changeset="10250005">
    <nd ref="27166783"/>
    <nd ref="249449606"/>
    <nd ref="27166795"/>
    <tag k="highway" v="motorway"/>
    <tag k="maxspeed" v="100"/>
    <tag k="name" v="Monash Freeway"/>
    <tag k="oneway" v="yes"/>
    <tag k="ref" v="M1"/>
  </way>
  <way id="22898558" version="8" timestamp="2010-07-08T20:18:22Z" uid="74617" user="JohnSmith" changeset="5168688">
    <nd ref="282876965"/>
    <nd ref="266912956"/>
    <nd ref="246522201"/>
    <nd ref="246522221"/>
    <nd ref="246522206"/>
    <nd ref="246522227"/>
    <nd ref="246522202"/>
    <tag k="highway" v="residential"/>
    <tag k="maxspeed" v="50"/>
    <tag k="maxspeed:source" v="default residential speed limit in Australia"/>
    <tag k="name" v="Bundamba Drive"/>
  </way>
  <way id="22898558" version="9" timestamp="2012-01-15T23:43:26Z" uid="147510" user="woodpeck_fixbot" changeset="10404406">
    <nd ref="282876965"/>
    <nd ref="266912956"/>
    <nd ref="246522201"/>
    <nd ref="246522221"/>
    <nd ref="246522206"/>
    <nd ref="246522227"/>
    <nd ref="246522202"/>
    <tag k="highway" v="residential"/>
    <tag k="name" v="Bundamba Drive"/>
  </way>
  <way id="22898562" version="3" timestamp="2010-07-09T02:47:07Z" uid="74617" user="JohnSmith" changeset="5170713">
    <nd ref="246522206"/>
    <nd ref="246522209"/>
    <nd ref="246522210"/>
    <nd ref="246522211"/>
    <tag k="highway" v="residential"/>
    <tag k="maxspeed" v="50"/>
    <tag k="maxspeed:source" v="default residential speed limit in Australia"/>
    <tag k="name" v="Chester Court"/>
  </way>
  <way id="22898562" version="4" timestamp="2012-01-15T23:43:27Z" uid="147510" user="woodpeck_fixbot" changeset="10404406">
    <nd ref="246522206"/>
    <nd ref="246522209"/>
    <nd ref="246522210"/>
    <nd ref="246522211"/>
    <tag k="highway" v="residential"/>
    <tag k="name" v="Chester Court"/>
  </way>
  <way id="22898566" version="5" timestamp="2010-07-08T20:16:42Z" uid="74617" user="JohnSmith" changeset="5168688">
    <nd ref="246522221"/>
    <nd ref="246522226"/>
    <tag k="highway" v="residential"/>
    <tag k="maxspeed" v="50"/>
    <tag k="maxspeed:source" v="default residential speed limit in Australia"/>
    <tag k="name" v="Ripon Court"/>
  </way>
  <way id="22898566" version="6" timestamp="2012-01-15T23:43:29Z" uid="147510" user="woodpeck_fixbot" changeset="10404406">
    <nd ref="246522221"/>
    <nd ref="246522226"/>
    <tag k="highway" v="residential"/>
    <tag k="name" v="Ripon Court"/>
  </way>
  <way id="22898569" version="3" timestamp="2010-07-08T20:17:15Z" uid="74617" user="JohnSmith" changeset="5168688">
    <nd ref="246522227"/>
    <nd ref="246522228"/>
    <tag k="highway" v="residential"/>
    <tag k="maxspeed" v="50"/>
    <tag k="maxspeed:source" v="default residential speed limit in Australia"/>
    <tag k="name" v="Chepstowe Court"/>
  </way>
  <way id="22898569" version="4" timestamp="2012-01-15T23:43:29Z" uid="147510" user="woodpeck_fixbot" changeset="10404406">
    <nd ref="246522227"/>
    <nd ref="246522228"/>
    <tag k="highway" v="residential"/>
    <tag k="name" v="Chepstowe Court"/>
  </way>
  <way id="22898571" version="4" timestamp="2010-04-26T05:43:49Z" uid="4467" user="Rosscoe" changeset="4528463">
    <nd ref="246522251"/>
    <nd ref="246522202"/>
    <nd ref="706931023"/>
    <tag k="highway" v="residential"/>
    <tag k="name" v="Wincanton Court"/>
  </way>
  <way id="22898571" version="5" timestamp="2010-07-08T20:14:36Z" uid="74617" user="JohnSmith" changeset="5168688">
    <nd ref="246522251"/>
    <nd ref="246522202"/>
    <nd ref="706931023"/>
    <tag k="highway" v="residential"/>
    <tag k="maxspeed" v="50"/>
    <tag k="maxspeed:source" v="default residential speed limit in Australia"/>
    <tag k="name" v="Wincanton Court"/>
  </way>
  <way id="22898571" version="6" timestamp="2012-01-15T23:43:30Z" uid="147510" user="woodpeck_fixbot" changeset="10404406">
    <nd ref="246522251"/>
    <nd ref="246522202"/>
    <nd ref="706931023"/>
    <tag k="highway" v="residential"/>
    <tag k="name" v="Wincanton Court"/>
  </way>
  <way id="22898573" version="7" timestamp="2010-07-08T20:16:17Z" uid="74617" user="JohnSmith" changeset="5168688">
    <nd ref="27167878"/>
    <nd ref="246522303"/>
    <nd ref="263991208"/>
    <nd ref="246522324"/>
    <nd ref="263990912"/>
    <tag k="highway" v="residential"/>
    <tag k="maxspeed" v="50"/>
    <tag k="maxspeed:source" v="default residential speed limit in Australia"/>
    <tag k="name" v="Manning Drive"/>
  </way>
  <way id="22898573" version="8" timestamp="2011-07-17T12:31:41Z" uid="472067" user="pringle" changeset="8747468">
    <nd ref="27167878"/>
    <nd ref="246522303"/>
    <nd ref="263991208"/>
    <nd ref="246522324"/>
    <nd ref="1364336790"/>
    <nd ref="263990912"/>
    <tag k="highway" v="residential"/>
    <tag k="maxspeed" v="50"/>
    <tag k="maxspeed:source" v="default residential speed limit in Australia"/>
    <tag k="name" v="Manning Drive"/>
  </way>
  <way id="22898573" version="9" timestamp="2012-01-15T23:43:31Z" uid="147510" user="woodpeck_fixbot" changeset="10404406">
    <nd ref="27167878"/>
    <nd ref="246522303"/>
    <nd ref="263991208"/>
    <nd ref="246522324"/>
    <nd ref="1364336790"/>
    <nd ref="263990912"/>
    <tag k="highway" v="residential"/>
    <tag k="name" v="Manning Drive"/>
  </way>
  <way id="22898588" version="5" timestamp="2010-07-08T20:17:26Z" uid="74617" user="JohnSmith" changeset="5168688">
    <nd ref="246522303"/>
    <nd ref="246522320"/>
    <nd ref="755130041"/>
    <nd ref="755130043"/>
    <nd ref="246522321"/>
    <nd ref="263991291"/>
    <nd ref="246522322"/>
    <nd ref="246522323"/>
    <tag k="highway" v="residential"/>
    <tag k="maxspeed" v="50"/>
    <tag k="maxspeed:source" v="default residential speed limit in Australia"/>
    <tag k="name" v="Shelton Crescent"/>
  </way>
  <way id="22898588" version="6" timestamp="2012-01-15T23:43:33Z" uid="147510" user="woodpeck_fixbot" changeset="10404406">
    <nd ref="246522303"/>
    <nd ref="246522320"/>
    <nd ref="755130041"/>
    <nd ref="755130043"/>
    <nd ref="246522321"/>
    <nd ref="263991291"/>
    <nd ref="246522322"/>
    <nd ref="246522323"/>
    <tag k="highway" v="residential"/>
    <tag k="name" v="Shelton Crescent"/>
  </way>
  <way id="22898591" version="3" timestamp="2010-07-08T20:16:01Z" uid="74617" user="JohnSmith" changeset="5168688">
    <nd ref="246522324"/>
    <nd ref="246522333"/>
    <nd ref="246522334"/>
    <tag k="highway" v="residential"/>
    <tag k="maxspeed" v="50"/>
    <tag k="maxspeed:source" v="default residential speed limit in Australia"/>
    <tag k="name" v="Keech Court"/>
  </way>
  <way id="22898591" version="4" timestamp="2012-01-15T23:43:33Z" uid="147510" user="woodpeck_fixbot" changeset="10404406">
    <nd ref="246522324"/>
    <nd ref="246522333"/>
    <nd ref="246522334"/>
    <tag k="highway" v="residential"/>
    <tag k="name" v="Keech Court"/>
  </way>
  <way id="22898593" version="3" timestamp="2008-10-19T15:57:35Z" uid="65847" user="LKK" changeset="442612">
    <nd ref="266611383"/>
    <nd ref="305679382"/>
    <nd ref="305679386"/>
    <nd ref="305679390"/>
    <nd ref="305679397"/>
    <nd ref="246522398"/>
    <nd ref="246522397"/>
    <nd ref="246522393"/>
    <nd ref="246522396"/>
    <nd ref="246522395"/>
    <nd ref="246522394"/>
    <tag k="created_by" v="JOSM"/>
    <tag k="highway" v="track"/>
    <tag k="source" v="GPS"/>
    <tag k="tracktype" v="grade1"/>
  </way>
  <way id="22898593" version="4" timestamp="2009-02-08T18:07:01Z" uid="47681" user="jot" changeset="279357">
    <nd ref="266611383"/>
    <nd ref="305679382"/>
    <nd ref="305679386"/>
    <nd ref="305679390"/>
    <nd ref="305679397"/>
    <nd ref="246522398"/>
    <nd ref="246522397"/>
    <nd ref="246522393"/>
    <tag k="created_by" v="Potlatch 0.10f"/>
    <tag k="highway" v="track"/>
    <tag k="source" v="GPS"/>
    <tag k="tracktype" v="grade1"/>
  </way>
  <way id="22898593" version="5" timestamp="2009-03-13T13:56:00Z" uid="76614" user="Winid" changeset="800186">
    <nd ref="266611383"/>
    <nd ref="359933553"/>
    <nd ref="305679382"/>
    <nd ref="305679386"/>
    <nd ref="305679390"/>
    <nd ref="305679397"/>
    <nd ref="246522398"/>
    <nd ref="246522397"/>
    <nd ref="246522393"/>
    <tag k="created_by" v="Potlatch 0.10f"/>
    <tag k="highway" v="track"/>
    <tag k="source" v="GPS"/>
    <tag k="tracktype" v="grade1"/>
  </way>
  <way id="22898593" version="6" timestamp="2009-08-27T13:51:04Z" uid="46169" user="wolter" changeset="2278354">
    <nd ref="266611383"/>
    <nd ref="359933553"/>
    <tag k="highway" v="track"/>
    <tag k="source" v="GPS"/>
    <tag k="tracktype" v="grade1"/>
  </way>
  <way id="22898597" version="3" timestamp="2009-08-13T12:13:53Z" uid="4467" user="Rosscoe" changeset="2130661">
    <nd ref="246522432"/>
    <nd ref="246522433"/>
    <tag k="highway" v="trunk"/>
    <tag k="name" v="Princes Highway"/>
    <tag k="osmarender:renderName" v="no"/>
  </way>
  <way id="22898597" version="4" timestamp="2011-01-06T20:26:24Z" uid="207745" user="NE2" changeset="6886621">
    <nd ref="246522432"/>
    <nd ref="246522433"/>
    <tag k="highway" v="trunk"/>
    <tag k="name" v="Princes Highway"/>
  </way>
  <way id="22898661" version="5" timestamp="2010-07-08T20:18:32Z" uid="74617" user="JohnSmith" changeset="5168688">
    <nd ref="246522959"/>
    <nd ref="246522961"/>
    <nd ref="597973688"/>
    <nd ref="246522962"/>
    <nd ref="246522963"/>
    <tag k="highway" v="residential"/>
    <tag k="maxspeed" v="50"/>
    <tag k="maxspeed:source" v="default residential speed limit in Australia"/>
    <tag k="name" v="Adela Court"/>
  </way>
  <way id="22898661" version="6" timestamp="2012-01-15T23:43:34Z" uid="147510" user="woodpeck_fixbot" changeset="10404406">
    <nd ref="246522959"/>
    <nd ref="246522961"/>
    <nd ref="597973688"/>
    <nd ref="246522962"/>
    <nd ref="246522963"/>
    <tag k="highway" v="residential"/>
    <tag k="name" v="Adela Court"/>
  </way>
  <way id="22898703" version="3" timestamp="2009-07-25T04:15:59Z" uid="74617" user="JohnSmith" changeset="1930637">
    <nd ref="246523476"/>
    <nd ref="246523479"/>
    <nd ref="246523480"/>
    <tag k="cycleway" v="track"/>
    <tag k="foot" v="yes"/>
    <tag k="highway" v="cycleway"/>
  </way>
  <way id="22898703" version="4" timestamp="2010-08-23T08:20:23Z" uid="320632" user="Zulu99" changeset="5568784">
    <nd ref="246523476"/>
    <nd ref="246523479"/>
    <nd ref="246523480"/>
    <tag k="bicycle" v="yes"/>
    <tag k="cycleway" v="track"/>
    <tag k="foot" v="yes"/>
    <tag k="highway" v="cycleway"/>
  </way>
  <way id="22898704" version="3" timestamp="2009-07-25T04:16:02Z" uid="74617" user="JohnSmith" changeset="1930637">
    <nd ref="246523479"/>
    <nd ref="246523477"/>
    <tag k="cycleway" v="track"/>
    <tag k="foot" v="yes"/>
    <tag k="highway" v="cycleway"/>
  </way>
  <way id="22898746" version="6" timestamp="2010-07-08T20:16:09Z" uid="74617" user="JohnSmith" changeset="5168688">
    <nd ref="246523650"/>
    <nd ref="246524316"/>
    <nd ref="246523752"/>
    <nd ref="448194622"/>
    <nd ref="246523753"/>
    <nd ref="246523647"/>
    <nd ref="246523754"/>
    <tag k="highway" v="residential"/>
    <tag k="maxspeed" v="50"/>
    <tag k="maxspeed:source" v="default residential speed limit in Australia"/>
    <tag k="name" v="Stud Road Service Road"/>
  </way>
  <way id="22898746" version="7" timestamp="2012-01-15T23:43:35Z" uid="147510" user="woodpeck_fixbot" changeset="10404406">
    <nd ref="246523650"/>
    <nd ref="246524316"/>
    <nd ref="246523752"/>
    <nd ref="448194622"/>
    <nd ref="246523753"/>
    <nd ref="246523647"/>
    <nd ref="246523754"/>
    <tag k="highway" v="residential"/>
    <tag k="name" v="Stud Road Service Road"/>
  </way>
  <way id="22898760" version="5" timestamp="2010-07-08T20:17:51Z" uid="74617" user="JohnSmith" changeset="5168688">
    <nd ref="246523840"/>
    <nd ref="246523841"/>
    <nd ref="246523842"/>
    <nd ref="246523843"/>
    <nd ref="246523844"/>
    <nd ref="246523845"/>
    <nd ref="246523846"/>
    <nd ref="246523847"/>
    <nd ref="246523848"/>
    <nd ref="246523849"/>
    <nd ref="598966188"/>
    <nd ref="246523850"/>
    <nd ref="246523851"/>
    <tag k="highway" v="residential"/>
    <tag k="maxspeed" v="50"/>
    <tag k="maxspeed:source" v="default residential speed limit in Australia"/>
    <tag k="name" v="Cardinia Close"/>
  </way>
  <way id="22898760" version="6" timestamp="2012-01-15T23:43:36Z" uid="147510" user="woodpeck_fixbot" changeset="10404406">
    <nd ref="246523840"/>
    <nd ref="246523841"/>
    <nd ref="246523842"/>
    <nd ref="246523843"/>
    <nd ref="246523844"/>
    <nd ref="246523845"/>
    <nd ref="246523846"/>
    <nd ref="246523847"/>
    <nd ref="246523848"/>
    <nd ref="246523849"/>
    <nd ref="598966188"/>
    <nd ref="246523850"/>
    <nd ref="246523851"/>
    <tag k="highway" v="residential"/>
    <tag k="name" v="Cardinia Close"/>
  </way>
  <way id="22898764" version="4" timestamp="2010-07-08T20:16:54Z" uid="74617" user="JohnSmith" changeset="5168688">
    <nd ref="246523842"/>
    <nd ref="246524063"/>
    <nd ref="246524064"/>
    <nd ref="246524065"/>
    <tag k="highway" v="residential"/>
    <tag k="maxspeed" v="50"/>
    <tag k="maxspeed:source" v="default residential speed limit in Australia"/>
    <tag k="name" v="Sylvan Court"/>
  </way>
  <way id="22898764" version="5" timestamp="2012-01-15T23:43:37Z" uid="147510" user="woodpeck_fixbot" changeset="10404406">
    <nd ref="246523842"/>
    <nd ref="246524063"/>
    <nd ref="246524064"/>
    <nd ref="246524065"/>
    <tag k="highway" v="residential"/>
    <tag k="name" v="Sylvan Court"/>
  </way>
  <way id="22898780" version="2" timestamp="2009-07-25T04:15:52Z" uid="74617" user="JohnSmith" changeset="1930637">
    <nd ref="246524082"/>
    <nd ref="246524147"/>
    <nd ref="246523595"/>
    <nd ref="246524148"/>
    <nd ref="246524149"/>
    <nd ref="246524150"/>
    <nd ref="246524151"/>
    <nd ref="246524152"/>
    <tag k="highway" v="unclassified"/>
  </way>
  <way id="22898806" version="9" timestamp="2010-07-08T20:16:06Z" uid="74617" user="JohnSmith" changeset="5168688">
    <nd ref="132163653"/>
    <nd ref="293567210"/>
    <nd ref="246523840"/>
    <nd ref="132153166"/>
    <nd ref="444734913"/>
    <nd ref="132153167"/>
    <nd ref="132153169"/>
    <tag k="highway" v="residential"/>
    <tag k="maxspeed" v="50"/>
    <tag k="maxspeed:source" v="default residential speed limit in Australia"/>
    <tag k="name" v="Brady Road"/>
  </way>
  <way id="22898806" version="10" timestamp="2011-08-15T15:29:37Z" uid="11111" user="melb_guy" changeset="9027540">
    <nd ref="132163653"/>
    <nd ref="1399981125"/>
    <nd ref="293567210"/>
    <nd ref="246523840"/>
    <nd ref="132153166"/>
    <nd ref="444734913"/>
    <nd ref="132153167"/>
    <nd ref="132153169"/>
    <tag k="highway" v="residential"/>
    <tag k="maxspeed" v="50"/>
    <tag k="maxspeed:source" v="default residential speed limit in Australia"/>
    <tag k="name" v="Brady Road"/>
  </way>
  <way id="22898806" version="11" timestamp="2012-01-15T23:43:38Z" uid="147510" user="woodpeck_fixbot" changeset="10404406">
    <nd ref="132163653"/>
    <nd ref="1399981125"/>
    <nd ref="293567210"/>
    <nd ref="246523840"/>
    <nd ref="132153166"/>
    <nd ref="444734913"/>
    <nd ref="132153167"/>
    <nd ref="132153169"/>
    <tag k="highway" v="residential"/>
    <tag k="name" v="Brady Road"/>
  </way>
  <way id="22898829" version="5" timestamp="2010-07-09T03:37:38Z" uid="74617" user="JohnSmith" changeset="5170838">
    <nd ref="263704033"/>
    <nd ref="263704034"/>
    <tag k="highway" v="residential"/>
    <tag k="maxspeed" v="50"/>
    <tag k="maxspeed:source" v="default residential speed limit in Australia"/>
  </way>
  <way id="22898829" version="6" timestamp="2012-01-15T23:43:39Z" uid="147510" user="woodpeck_fixbot" changeset="10404406">
    <nd ref="263704033"/>
    <nd ref="263704034"/>
    <tag k="highway" v="residential"/>
  </way>
</osm>
