<?xml version='1.0' encoding='UTF-8'?>
<osm version="0.6" generator="libosmium/2.20.0">
  <way id="23315042" version="5" timestamp="2008-07-07T01:51:00Z" uid="6975" user="ulfl" changeset="415781">
    <nd ref="32708328"/>
    <nd ref="249466962"/>
    <nd ref="33762491"/>
    <nd ref="33762500"/>
    <nd ref="33762515"/>
    <nd ref="33762570"/>
    <nd ref="33762349"/>
    <tag k="highway" v="secondary"/>
    <tag k="maxheight" v="3.9"/>
    <tag k="maxweight" v="9"/>
    <tag k="oneway" v="yes"/>
    <tag k="ref" v="L 3019"/>
  </way>
  <way id="23315042" version="6" timestamp="2008-08-28T16:38:58Z" uid="28378" user="PHerison" changeset="438192">
    <nd ref="32708328"/>
    <nd ref="249466962"/>
    <nd ref="33762491"/>
    <nd ref="33762500"/>
    <nd ref="274954482"/>
    <nd ref="33762515"/>
    <nd ref="33762570"/>
    <nd ref="33762349"/>
    <tag k="highway" v="secondary"/>
    <tag k="maxheight" v="3.9"/>
    <tag k="maxweight" v="9"/>
    <tag k="oneway" v="yes"/>
    <tag k="ref" v="L 3019"/>
  </way>
  <way id="23315042" version="7" timestamp="2009-02-25T21:04:29Z" uid="28378" user="PHerison" changeset="666474">
    <nd ref="32708328"/>
    <nd ref="249466962"/>
    <nd ref="33762491"/>
    <tag k="created_by" v="Potlatch 0.10f"/>
    <tag k="highway" v="secondary"/>
    <tag k="maxheight" v="3.9"/>
    <tag k="maxweight" v="9"/>
    <tag k="oneway" v="yes"/>
    <tag k="ref" v="L 3019"/>
  </way>
  <way id="23315042" version="8" timestamp="2009-05-21T16:08:10Z" uid="28378" user="PHerison" changeset="1277937">
    <nd ref="32708328"/>
    <nd ref="249466962"/>
    <nd ref="409094006"/>
    <nd ref="33762491"/>
    <tag k="created_by" v="Potlatch 0.10f"/>
    <tag k="highway" v="secondary"/>
    <tag k="maxheight" v="3.9"/>
    <tag k="maxweight" v="9"/>
    <tag k="oneway" v="yes"/>
    <tag k="ref" v="L 3019"/>
  </way>
  <way id="23315042" version="9" timestamp="2009-07-30T18:30:06Z" uid="8464" user="MichaH" changeset="1987567">
    <nd ref="32708328"/>
    <nd ref="249466962"/>
    <nd ref="409094006"/>
    <nd ref="33762491"/>
    <tag k="highway" v="secondary"/>
    <tag k="maxheight" v="3.9"/>
    <tag k="maxweight" v="9"/>
    <tag k="oneway" v="yes"/>
    <tag k="ref" v="L 3019"/>
  </way>
  <way id="23315042" version="10" timestamp="2010-12-26T15:46:33Z" uid="28378" user="PHerison" changeset="6769216">
    <nd ref="32708328"/>
    <nd ref="1065987102"/>
    <nd ref="249466962"/>
    <nd ref="1065985939"/>
    <nd ref="409094006"/>
    <nd ref="33762491"/>
    <tag k="highway" v="secondary"/>
    <tag k="maxheight" v="3.9"/>
    <tag k="maxweight" v="9"/>
    <tag k="oneway" v="yes"/>
    <tag k="ref" v="L 3019"/>
  </way>
  <way id="23315042" version="11" timestamp="2011-06-03T20:23:12Z" uid="464615" user="Roflix" changeset="8333415">
    <nd ref="32708328"/>
    <nd ref="1065987102"/>
    <nd ref="249466962"/>
    <nd ref="1065985939"/>
    <nd ref="409094006"/>
    <nd ref="33762491"/>
    <tag k="highway" v="tertiary"/>
    <tag k="maxheight" v="3.9"/>
    <tag k="maxweight" v="9"/>
    <tag k="old_ref" v="L 3019"/>
    <tag k="oneway" v="yes"/>
  </way>
  <way id="23315642" version="7" timestamp="2010-05-29T00:17:49Z" uid="163746" user="anti_bot-nonsense" changeset="4838663">
    <nd ref="252429049"/>
    <nd ref="252429050"/>
    <nd ref="252429051"/>
    <nd ref="252429052"/>
    <nd ref="252429053"/>
    <nd ref="252429054"/>
    <nd ref="252429055"/>
    <tag k="highway" v="unclassified"/>
    <tag k="name" v="Blumenweg"/>
  </way>
  <way id="23315642" version="8" timestamp="2011-07-12T09:15:42Z" uid="42393" user="mawi42" changeset="8701204">
    <nd ref="252429049"/>
    <nd ref="1359129140"/>
    <nd ref="252429050"/>
    <nd ref="252429051"/>
    <nd ref="252429052"/>
    <nd ref="252429053"/>
    <nd ref="252429054"/>
    <nd ref="252429055"/>
    <tag k="highway" v="unclassified"/>
    <tag k="name" v="Blumenweg"/>
  </way>
  <way id="23315723" version="5" timestamp="2008-12-14T15:18:40Z" uid="6975" user="ulfl" changeset="375714">
    <nd ref="161302"/>
    <nd ref="252430858"/>
    <tag k="bicycle" v="no"/>
    <tag k="bridge" v="yes"/>
    <tag k="car" v="no"/>
    <tag k="foot" v="no"/>
    <tag k="name" v="Gröna linjen"/>
    <tag k="railway" v="subway"/>
    <tag k="type" v="train"/>
  </way>
  <way id="23315723" version="6" timestamp="2009-08-02T11:34:41Z" uid="56287" user="RalpH_himself" changeset="2013083">
    <nd ref="161302"/>
    <nd ref="252430858"/>
    <tag k="bridge" v="yes"/>
    <tag k="name" v="Gröna linjen"/>
    <tag k="railway" v="subway"/>
  </way>
  <way id="23315723" version="7" timestamp="2010-02-16T19:50:37Z" uid="76269" user="Snusmumriken" changeset="3895514">
    <nd ref="161302"/>
    <nd ref="252430858"/>
    <tag k="bridge" v="yes"/>
    <tag k="layer" v="1"/>
    <tag k="name" v="Gröna linjen"/>
    <tag k="railway" v="subway"/>
  </way>
  <way id="23315723" version="8" timestamp="2011-12-18T13:53:20Z" uid="103253" user="gormur" changeset="10146689">
    <nd ref="161302"/>
    <nd ref="252430858"/>
    <tag k="bridge" v="yes"/>
    <tag k="layer" v="1"/>
    <tag k="name" v="Gröna linjen"/>
    <tag k="oneway" v="yes"/>
    <tag k="railway" v="subway"/>
  </way>
</osm>
