<?xml version='1.0' encoding='UTF-8'?>
<osm version="0.6" generator="libosmium/2.20.0">
  <way id="23468106" version="2" timestamp="2008-09-25T15:37:57Z" uid="49111" user="Markus B" changeset="695225">
    <nd ref="254146057"/>
    <nd ref="254146058"/>
    <nd ref="254146059"/>
    <nd ref="254146060"/>
    <nd ref="254146061"/>
    <nd ref="254146062"/>
    <nd ref="254146063"/>
    <nd ref="254146064"/>
    <nd ref="254146065"/>
    <nd ref="254146066"/>
    <nd ref="254146067"/>
    <nd ref="254146068"/>
    <nd ref="254146069"/>
    <nd ref="254146070"/>
    <nd ref="254146071"/>
    <nd ref="254146072"/>
    <nd ref="254146073"/>
    <nd ref="254146057"/>
    <tag k="created_by" v="Potlatch 0.10b"/>
    <tag k="landuse" v="forest"/>
  </way>
  <way id="23468106" version="3" timestamp="2009-11-15T10:00:25Z" uid="62236" user="Paulchen Panther" changeset="3120168">
    <nd ref="254146057"/>
    <nd ref="254146058"/>
    <nd ref="254146059"/>
    <nd ref="254146060"/>
    <nd ref="254146061"/>
    <nd ref="254146062"/>
    <nd ref="254146063"/>
    <nd ref="254146064"/>
    <nd ref="254146065"/>
    <nd ref="564633583"/>
    <nd ref="254146066"/>
    <nd ref="254146067"/>
    <nd ref="254146068"/>
    <nd ref="254146069"/>
    <nd ref="254146070"/>
    <nd ref="254146071"/>
    <nd ref="254146072"/>
    <nd ref="254146073"/>
    <nd ref="254146057"/>
    <tag k="landuse" v="forest"/>
  </way>
  <way id="23468106" version="4" timestamp="2011-04-16T09:42:59Z" uid="346758" user="kukuk" changeset="7876676">
    <nd ref="254146057"/>
    <nd ref="254146058"/>
    <nd ref="254146059"/>
    <nd ref="254146060"/>
    <nd ref="254146061"/>
    <nd ref="254146062"/>
    <nd ref="254146063"/>
    <nd ref="254146064"/>
    <nd ref="254146065"/>
    <nd ref="564633583"/>
    <nd ref="254146066"/>
    <nd ref="254146067"/>
    <nd ref="254146068"/>
    <nd ref="254146069"/>
    <nd ref="254146070"/>
    <nd ref="254146071"/>
    <nd ref="254146072"/>
    <nd ref="254146073"/>
    <nd ref="254146057"/>
    <tag k="landuse" v="farmland"/>
  </way>
  <way id="23468205" version="1" timestamp="2008-03-26T20:12:45Z" uid="18775" user="drlizau" changeset="399550">
    <nd ref="254047040"/>
    <nd ref="254146658"/>
    <tag k="created_by" v="JOSM"/>
    <tag k="highway" v="residential"/>
    <tag k="name" v="Rosewood Place"/>
  </way>
  <way id="23468205" version="2" timestamp="2011-11-22T22:47:25Z" uid="554236" user="cc_cleaner" changeset="9914838"/>
  <way id="23468206" version="1" timestamp="2008-03-26T20:12:46Z" uid="18775" user="drlizau" changeset="399550">
    <nd ref="254146664"/>
    <nd ref="254146668"/>
    <tag k="created_by" v="JOSM"/>
    <tag k="highway" v="residential"/>
    <tag k="name" v="Mahpong Place"/>
  </way>
  <way id="23468206" version="2" timestamp="2011-11-22T22:47:25Z" uid="554236" user="cc_cleaner" changeset="9914838"/>
  <way id="23468207" version="1" timestamp="2008-03-26T20:12:47Z" uid="18775" user="drlizau" changeset="399550">
    <nd ref="253898995"/>
    <nd ref="254146672"/>
    <nd ref="254146715"/>
    <nd ref="254146730"/>
    <tag k="created_by" v="JOSM"/>
    <tag k="highway" v="residential"/>
    <tag k="name" v="Second Street"/>
  </way>
  <way id="23468207" version="2" timestamp="2011-11-22T22:47:25Z" uid="554236" user="cc_cleaner" changeset="9914838"/>
  <way id="23468209" version="1" timestamp="2008-03-26T20:12:48Z" uid="18775" user="drlizau" changeset="399550">
    <nd ref="254146715"/>
    <nd ref="254146731"/>
    <tag k="created_by" v="JOSM"/>
    <tag k="highway" v="residential"/>
    <tag k="name" v="Carr Street"/>
  </way>
  <way id="23468209" version="2" timestamp="2011-11-22T22:47:25Z" uid="554236" user="cc_cleaner" changeset="9914838"/>
  <way id="23468212" version="1" timestamp="2008-03-26T20:12:49Z" uid="18775" user="drlizau" changeset="399550">
    <nd ref="254146672"/>
    <nd ref="254146732"/>
    <tag k="created_by" v="JOSM"/>
    <tag k="highway" v="residential"/>
    <tag k="name" v="Cowper Street"/>
  </way>
  <way id="23468212" version="2" timestamp="2011-11-22T22:47:26Z" uid="554236" user="cc_cleaner" changeset="9914838"/>
  <way id="23468213" version="1" timestamp="2008-03-26T20:12:50Z" uid="18775" user="drlizau" changeset="399550">
    <nd ref="253899125"/>
    <nd ref="254146733"/>
    <nd ref="254146735"/>
    <nd ref="254146737"/>
    <nd ref="254146738"/>
    <nd ref="254146756"/>
    <nd ref="254146757"/>
    <nd ref="254146758"/>
    <nd ref="254146762"/>
    <tag k="created_by" v="JOSM"/>
    <tag k="highway" v="residential"/>
    <tag k="name" v="Tindera Street"/>
  </way>
  <way id="23468213" version="2" timestamp="2011-11-22T23:11:35Z" uid="554236" user="cc_cleaner" changeset="9915028"/>
  <way id="23468215" version="1" timestamp="2008-03-26T20:12:51Z" uid="18775" user="drlizau" changeset="399550">
    <nd ref="254146758"/>
    <nd ref="254146763"/>
    <tag k="created_by" v="JOSM"/>
    <tag k="highway" v="residential"/>
    <tag k="name" v="Brigalow Place"/>
  </way>
  <way id="23468215" version="2" timestamp="2011-11-22T23:15:42Z" uid="554236" user="cc_cleaner" changeset="9915028"/>
  <way id="23468216" version="1" timestamp="2008-03-26T20:12:52Z" uid="18775" user="drlizau" changeset="399550">
    <nd ref="254146738"/>
    <nd ref="254146766"/>
    <nd ref="254146770"/>
    <tag k="created_by" v="JOSM"/>
    <tag k="highway" v="residential"/>
  </way>
  <way id="23468216" version="2" timestamp="2008-03-29T07:46:15Z" uid="18775" user="drlizau" changeset="419028">
    <nd ref="254146738"/>
    <nd ref="254146766"/>
    <nd ref="254146770"/>
    <tag k="created_by" v="JOSM"/>
    <tag k="highway" v="residential"/>
    <tag k="name" v="Cypress Place"/>
  </way>
  <way id="23468216" version="3" timestamp="2011-11-22T23:11:35Z" uid="554236" user="cc_cleaner" changeset="9915028"/>
  <way id="23468217" version="1" timestamp="2008-03-26T20:12:53Z" uid="18775" user="drlizau" changeset="399550">
    <nd ref="254146771"/>
    <nd ref="254146773"/>
    <nd ref="254146776"/>
    <nd ref="254146777"/>
    <nd ref="254146762"/>
    <tag k="created_by" v="JOSM"/>
    <tag k="highway" v="residential"/>
    <tag k="name" v="Belagoy Street"/>
  </way>
  <way id="23468217" version="2" timestamp="2011-11-22T23:15:41Z" uid="554236" user="cc_cleaner" changeset="9915028"/>
  <way id="23468218" version="1" timestamp="2008-03-26T20:12:54Z" uid="18775" user="drlizau" changeset="399550">
    <nd ref="254146786"/>
    <nd ref="254146788"/>
    <nd ref="254146789"/>
    <nd ref="254146793"/>
    <nd ref="254146794"/>
    <nd ref="254146806"/>
    <nd ref="254146814"/>
    <nd ref="254146815"/>
    <nd ref="254146817"/>
    <nd ref="254146762"/>
    <tag k="created_by" v="JOSM"/>
    <tag k="highway" v="unclassified"/>
    <tag k="name" v="Knight Drive"/>
  </way>
  <way id="23468218" version="2" timestamp="2011-11-22T23:15:42Z" uid="554236" user="cc_cleaner" changeset="9915028"/>
  <way id="23468219" version="1" timestamp="2008-03-26T20:12:55Z" uid="18775" user="drlizau" changeset="399550">
    <nd ref="254146777"/>
    <nd ref="254146820"/>
    <nd ref="254146826"/>
    <nd ref="254146827"/>
    <nd ref="254146831"/>
    <nd ref="254146833"/>
    <nd ref="254146832"/>
    <tag k="created_by" v="JOSM"/>
    <tag k="highway" v="residential"/>
    <tag k="name" v="Jones Drive"/>
  </way>
  <way id="23468219" version="2" timestamp="2011-11-22T23:15:42Z" uid="554236" user="cc_cleaner" changeset="9915028"/>
  <way id="23468220" version="1" timestamp="2008-03-26T20:12:55Z" uid="18775" user="drlizau" changeset="399550">
    <nd ref="254146833"/>
    <nd ref="254146839"/>
    <nd ref="254146840"/>
    <nd ref="254146841"/>
    <nd ref="254146843"/>
    <nd ref="254146847"/>
    <nd ref="254146860"/>
    <nd ref="254146863"/>
    <nd ref="254146826"/>
    <tag k="created_by" v="JOSM"/>
    <tag k="highway" v="residential"/>
    <tag k="name" v="Jandra Place"/>
  </way>
  <way id="23468220" version="2" timestamp="2011-11-22T23:15:42Z" uid="554236" user="cc_cleaner" changeset="9915028"/>
  <way id="23468267" version="5" timestamp="2009-02-13T13:36:56Z" uid="9581" user="Lobelt" changeset="399324">
    <nd ref="266008561"/>
    <nd ref="254147136"/>
    <nd ref="254147137"/>
    <nd ref="254147141"/>
    <nd ref="254147146"/>
    <nd ref="344895757"/>
    <tag k="created_by" v="Potlatch 0.8"/>
    <tag k="highway" v="residential"/>
    <tag k="name" v="Pappelweg"/>
  </way>
  <way id="23468267" version="6" timestamp="2009-04-15T11:42:52Z" uid="16019" user="Thommse" changeset="550090">
    <nd ref="266008561"/>
    <nd ref="254147141"/>
    <nd ref="254147146"/>
    <nd ref="344895757"/>
    <tag k="created_by" v="Potlatch 0.8"/>
    <tag k="highway" v="residential"/>
    <tag k="name" v="Pappelweg"/>
  </way>
  <way id="23468267" version="7" timestamp="2010-11-23T10:44:48Z" uid="15720" user="J budissin" changeset="6438450">
    <nd ref="266008561"/>
    <nd ref="254147141"/>
    <nd ref="254147146"/>
    <nd ref="344895757"/>
    <tag k="highway" v="residential"/>
    <tag k="name" v="Pappelweg"/>
    <tag k="name:hsb" v="Topołowy puć"/>
  </way>
  <way id="23468451" version="5" timestamp="2008-06-09T06:55:53Z" uid="9581" user="Lobelt" changeset="105018">
    <nd ref="98697523"/>
    <nd ref="266008561"/>
    <nd ref="98697524"/>
    <nd ref="98697525"/>
    <nd ref="269301032"/>
    <nd ref="98697526"/>
    <tag k="created_by" v="Potlatch 0.8"/>
    <tag k="highway" v="secondary"/>
    <tag k="name" v="Hoyerswerdaer Straße"/>
    <tag k="ref" v="S121"/>
  </way>
  <way id="23468451" version="6" timestamp="2009-02-13T13:36:56Z" uid="9581" user="Lobelt" changeset="399324">
    <nd ref="98697523"/>
    <nd ref="344895776"/>
    <nd ref="266008561"/>
    <nd ref="98697524"/>
    <nd ref="344895758"/>
    <nd ref="98697525"/>
    <nd ref="269301032"/>
    <nd ref="98697526"/>
    <tag k="created_by" v="Potlatch 0.8"/>
    <tag k="highway" v="secondary"/>
    <tag k="name" v="Hoyerswerdaer Straße"/>
    <tag k="ref" v="S121"/>
  </way>
  <way id="23468451" version="7" timestamp="2009-03-02T13:25:31Z" uid="16019" user="Thommse" changeset="725129">
    <nd ref="98697523"/>
    <nd ref="344895776"/>
    <nd ref="266008561"/>
    <nd ref="98697524"/>
    <nd ref="344895758"/>
    <nd ref="98697525"/>
    <nd ref="269301032"/>
    <nd ref="98697526"/>
    <tag k="created_by" v="Potlatch 0.10f"/>
    <tag k="highway" v="secondary"/>
    <tag k="name" v="Hoyerswerdaer Straße"/>
    <tag k="ref" v="S 121"/>
  </way>
  <way id="23468451" version="8" timestamp="2009-04-15T11:42:45Z" uid="16019" user="Thommse" changeset="550090">
    <nd ref="98697523"/>
    <nd ref="344895776"/>
    <nd ref="266008561"/>
    <nd ref="376380091"/>
    <nd ref="98697524"/>
    <nd ref="376380088"/>
    <nd ref="344895758"/>
    <nd ref="98697525"/>
    <nd ref="269301032"/>
    <nd ref="98697526"/>
    <tag k="created_by" v="Potlatch 0.10f"/>
    <tag k="highway" v="secondary"/>
    <tag k="name" v="Hoyerswerdaer Straße"/>
    <tag k="ref" v="S 121"/>
  </way>
  <way id="23468451" version="9" timestamp="2009-04-15T11:43:42Z" uid="16019" user="Thommse" changeset="550090">
    <nd ref="98697523"/>
    <nd ref="344895776"/>
    <nd ref="266008561"/>
    <nd ref="376380091"/>
    <nd ref="98697524"/>
    <nd ref="376380088"/>
    <nd ref="376380418"/>
    <nd ref="344895758"/>
    <nd ref="98697525"/>
    <nd ref="269301032"/>
    <nd ref="98697526"/>
    <tag k="created_by" v="Potlatch 0.10f"/>
    <tag k="highway" v="secondary"/>
    <tag k="name" v="Hoyerswerdaer Straße"/>
    <tag k="ref" v="S 121"/>
  </way>
  <way id="23468451" version="10" timestamp="2010-11-23T10:45:00Z" uid="15720" user="J budissin" changeset="6438450">
    <nd ref="98697523"/>
    <nd ref="344895776"/>
    <nd ref="266008561"/>
    <nd ref="376380091"/>
    <nd ref="98697524"/>
    <nd ref="376380088"/>
    <nd ref="376380418"/>
    <nd ref="344895758"/>
    <nd ref="98697525"/>
    <nd ref="269301032"/>
    <nd ref="98697526"/>
    <tag k="highway" v="secondary"/>
    <tag k="name" v="Hoyerswerdaer Straße"/>
    <tag k="name:hsb" v="Wojerowska"/>
    <tag k="ref" v="S 121"/>
  </way>
  <way id="23468451" version="11" timestamp="2011-04-29T20:19:37Z" uid="157347" user="Pirolina" changeset="8006560">
    <nd ref="98697523"/>
    <nd ref="344895776"/>
    <nd ref="266008561"/>
    <nd ref="376380091"/>
    <nd ref="98697524"/>
    <nd ref="376380088"/>
    <nd ref="376380418"/>
    <nd ref="344895758"/>
    <nd ref="98697525"/>
    <nd ref="1265625485"/>
    <nd ref="269301032"/>
    <nd ref="98697526"/>
    <tag k="highway" v="secondary"/>
    <tag k="name" v="Hoyerswerdaer Straße"/>
    <tag k="name:hsb" v="Wojerowska"/>
    <tag k="ref" v="S 121"/>
  </way>
  <way id="23468451" version="12" timestamp="2011-04-29T20:21:10Z" uid="157347" user="Pirolina" changeset="8006575">
    <nd ref="98697523"/>
    <nd ref="344895776"/>
    <nd ref="266008561"/>
    <nd ref="376380091"/>
    <nd ref="98697524"/>
    <nd ref="376380088"/>
    <nd ref="376380418"/>
    <nd ref="344895758"/>
    <nd ref="98697525"/>
    <nd ref="1265625485"/>
    <tag k="highway" v="secondary"/>
    <tag k="name" v="Hoyerswerdaer Straße"/>
    <tag k="name:hsb" v="Wojerowska"/>
    <tag k="ref" v="S 121"/>
  </way>
  <way id="23468451" version="13" timestamp="2011-08-31T19:14:55Z" uid="109035" user="Teddy80" changeset="9179011">
    <nd ref="98697523"/>
    <nd ref="344895776"/>
    <nd ref="266008561"/>
    <nd ref="376380091"/>
    <nd ref="98697524"/>
    <nd ref="376380088"/>
    <nd ref="376380418"/>
    <nd ref="344895758"/>
    <nd ref="98697525"/>
    <nd ref="1265625485"/>
    <tag k="highway" v="secondary"/>
    <tag k="maxspeed" v="50"/>
    <tag k="name" v="Hoyerswerdaer Straße"/>
    <tag k="name:hsb" v="Wojerowska"/>
    <tag k="ref" v="S 121"/>
  </way>
  <way id="23468451" version="14" timestamp="2012-03-08T15:43:37Z" uid="40116" user="FilO" changeset="10910250">
    <nd ref="98697523"/>
    <nd ref="1666000376"/>
    <nd ref="266008561"/>
    <nd ref="376380091"/>
    <nd ref="98697524"/>
    <nd ref="376380088"/>
    <nd ref="376380418"/>
    <nd ref="344895758"/>
    <nd ref="98697525"/>
    <nd ref="1265625485"/>
    <tag k="highway" v="secondary"/>
    <tag k="maxspeed" v="50"/>
    <tag k="name" v="Hoyerswerdaer Straße"/>
    <tag k="name:hsb" v="Wojerowska"/>
    <tag k="ref" v="S 121"/>
  </way>
  <way id="23468552" version="7" timestamp="2010-09-22T21:07:51Z" uid="6269" user="Mueck" changeset="5849335">
    <nd ref="278136465"/>
    <nd ref="254149808"/>
    <nd ref="254149809"/>
    <nd ref="254149810"/>
    <nd ref="254149812"/>
    <nd ref="254149813"/>
    <nd ref="254149815"/>
    <nd ref="254149816"/>
    <nd ref="254149817"/>
    <nd ref="311146137"/>
    <nd ref="254149819"/>
    <nd ref="254149820"/>
    <nd ref="311146140"/>
    <nd ref="324024472"/>
    <nd ref="254149824"/>
    <nd ref="254149825"/>
    <nd ref="254149843"/>
    <nd ref="254149844"/>
    <nd ref="254149826"/>
    <tag k="highway" v="cycleway"/>
    <tag k="name" v="Kappelwiesenweg"/>
  </way>
  <way id="23468552" version="8" timestamp="2010-09-23T00:13:15Z" uid="6269" user="Mueck" changeset="5850370">
    <nd ref="278136465"/>
    <nd ref="254149808"/>
    <nd ref="254149809"/>
    <nd ref="254149810"/>
    <nd ref="254149812"/>
    <nd ref="254149813"/>
    <nd ref="254149815"/>
    <nd ref="254149816"/>
    <nd ref="254149817"/>
    <nd ref="311146137"/>
    <nd ref="254149819"/>
    <nd ref="254149820"/>
    <nd ref="311146140"/>
    <nd ref="324024472"/>
    <nd ref="254149824"/>
    <nd ref="254149825"/>
    <nd ref="254149843"/>
    <nd ref="254149844"/>
    <nd ref="254149826"/>
    <tag k="highway" v="track"/>
    <tag k="name" v="Kappelwiesenweg"/>
    <tag k="surface" v="compacted"/>
    <tag k="tracktype" v="grade2"/>
  </way>
  <way id="23468552" version="9" timestamp="2010-10-12T11:55:13Z" uid="6269" user="Mueck" changeset="6020120">
    <nd ref="278136465"/>
    <nd ref="254149808"/>
    <nd ref="254149809"/>
    <nd ref="254149810"/>
    <nd ref="254149812"/>
    <nd ref="254149813"/>
    <nd ref="254149815"/>
    <tag k="highway" v="track"/>
    <tag k="name" v="Kappelwiesenweg"/>
    <tag k="surface" v="compacted"/>
    <tag k="tracktype" v="grade2"/>
  </way>
  <way id="23468552" version="10" timestamp="2010-10-12T11:55:34Z" uid="6269" user="Mueck" changeset="6020120">
    <nd ref="278136465"/>
    <nd ref="254149808"/>
    <nd ref="254149809"/>
    <nd ref="254149810"/>
    <nd ref="254149812"/>
    <nd ref="254149813"/>
    <nd ref="254149815"/>
    <tag k="highway" v="track"/>
    <tag k="name" v="Kappelwiesenweg"/>
    <tag k="smoothness" v="good"/>
    <tag k="surface" v="asphalt"/>
    <tag k="tracktype" v="grade1"/>
  </way>
  <way id="23468552" version="11" timestamp="2011-08-11T06:06:36Z" uid="77204" user="aps" changeset="8982486">
    <nd ref="278136465"/>
    <nd ref="254149808"/>
    <nd ref="254149809"/>
    <nd ref="1394476579"/>
    <nd ref="254149810"/>
    <nd ref="254149812"/>
    <nd ref="254149813"/>
    <nd ref="254149815"/>
    <tag k="highway" v="track"/>
    <tag k="name" v="Kappelwiesenweg"/>
    <tag k="smoothness" v="good"/>
    <tag k="surface" v="asphalt"/>
    <tag k="tracktype" v="grade1"/>
  </way>
  <way id="23468552" version="12" timestamp="2011-09-20T08:03:36Z" uid="442210" user="dwausr" changeset="9348979"/>
  <way id="23468558" version="5" timestamp="2010-04-25T14:15:48Z" uid="6269" user="Mueck" changeset="4521899">
    <nd ref="254149833"/>
    <nd ref="254149834"/>
    <tag k="bridge" v="yes"/>
    <tag k="highway" v="cycleway"/>
    <tag k="layer" v="1"/>
    <tag k="tracktype" v="grade1"/>
  </way>
  <way id="23468558" version="6" timestamp="2011-10-14T07:49:54Z" uid="442210" user="dwausr" changeset="9553301"/>
  <way id="23468564" version="4" timestamp="2008-08-11T12:27:25Z" uid="6269" user="Mueck" changeset="188275">
    <nd ref="252406595"/>
    <nd ref="252406592"/>
    <tag k="bridge" v="true"/>
    <tag k="created_by" v="Potlatch 0.10b"/>
    <tag k="highway" v="tertiary"/>
    <tag k="layer" v="1"/>
  </way>
  <way id="23468564" version="5" timestamp="2008-09-19T18:47:02Z" uid="5188" user="Sebastian" changeset="664268">
    <nd ref="252406595"/>
    <nd ref="252406592"/>
    <tag k="bridge" v="yes"/>
    <tag k="created_by" v="Potlatch 0.10b"/>
    <tag k="highway" v="tertiary"/>
    <tag k="layer" v="1"/>
  </way>
  <way id="23468564" version="6" timestamp="2009-11-05T17:15:52Z" uid="63969" user="olvagor" changeset="3042105">
    <nd ref="252406595"/>
    <nd ref="556787804"/>
    <nd ref="556787805"/>
    <nd ref="556787803"/>
    <nd ref="556787808"/>
    <nd ref="556787807"/>
    <nd ref="556787809"/>
    <tag k="bridge" v="yes"/>
    <tag k="highway" v="tertiary"/>
    <tag k="lanes" v="2"/>
    <tag k="layer" v="1"/>
    <tag k="lit" v="no"/>
    <tag k="surface" v="asphalt"/>
  </way>
  <way id="23468564" version="7" timestamp="2010-07-22T18:56:03Z" uid="77204" user="aps" changeset="5290049">
    <nd ref="252406595"/>
    <nd ref="556787804"/>
    <nd ref="556787805"/>
    <nd ref="556787803"/>
    <nd ref="556787808"/>
    <nd ref="556787807"/>
    <nd ref="556787809"/>
    <tag k="bridge" v="yes"/>
    <tag k="highway" v="tertiary"/>
    <tag k="lanes" v="2"/>
    <tag k="layer" v="1"/>
    <tag k="lit" v="no"/>
    <tag k="ref" v="K 3541"/>
    <tag k="surface" v="asphalt"/>
  </way>
  <way id="23468564" version="8" timestamp="2011-03-14T18:55:06Z" uid="77204" user="aps" changeset="7559624">
    <nd ref="252406595"/>
    <nd ref="556787804"/>
    <nd ref="556787805"/>
    <nd ref="556787803"/>
    <nd ref="556787808"/>
    <nd ref="556787807"/>
    <tag k="bridge" v="yes"/>
    <tag k="highway" v="tertiary"/>
    <tag k="lanes" v="2"/>
    <tag k="layer" v="1"/>
    <tag k="lit" v="no"/>
    <tag k="ref" v="K 3541"/>
    <tag k="surface" v="asphalt"/>
  </way>
  <way id="23468564" version="9" timestamp="2011-09-20T08:03:34Z" uid="442210" user="dwausr" changeset="9348979"/>
  <way id="23468566" version="3" timestamp="2008-08-11T12:27:50Z" uid="6269" user="Mueck" changeset="188275">
    <nd ref="252406592"/>
    <nd ref="252406590"/>
    <nd ref="252406588"/>
    <nd ref="252406586"/>
    <tag k="created_by" v="Potlatch 0.10b"/>
    <tag k="highway" v="tertiary"/>
    <tag k="note" v="im SHP des NVK: III"/>
  </way>
  <way id="23468566" version="4" timestamp="2008-11-09T18:27:33Z" uid="77204" user="aps" changeset="722435">
    <nd ref="252406592"/>
    <nd ref="252406590"/>
    <nd ref="252406588"/>
    <nd ref="252406586"/>
    <tag k="created_by" v="Merkaartor 0.12"/>
    <tag k="highway" v="tertiary"/>
    <tag k="name" v="Kappelwiesenweg"/>
    <tag k="note" v="im SHP des NVK: III"/>
  </way>
  <way id="23468566" version="5" timestamp="2008-11-11T14:57:59Z" uid="77204" user="aps" changeset="733614">
    <nd ref="252406592"/>
    <nd ref="311311878"/>
    <nd ref="252406590"/>
    <nd ref="252406588"/>
    <nd ref="252406586"/>
    <tag k="created_by" v="Merkaartor 0.12"/>
    <tag k="highway" v="tertiary"/>
    <tag k="name" v="Kappelwiesenweg"/>
    <tag k="note" v="im SHP des NVK: III"/>
  </way>
  <way id="23468566" version="6" timestamp="2009-11-05T17:15:52Z" uid="63969" user="olvagor" changeset="3042105">
    <nd ref="556787809"/>
    <nd ref="556787825"/>
    <nd ref="556787828"/>
    <nd ref="556787827"/>
    <nd ref="556787837"/>
    <nd ref="556787836"/>
    <nd ref="556787835"/>
    <nd ref="556787824"/>
    <nd ref="556787843"/>
    <nd ref="556787842"/>
    <nd ref="278136465"/>
    <tag k="highway" v="tertiary"/>
    <tag k="lanes" v="2"/>
    <tag k="lit" v="no"/>
    <tag k="name" v="Kappelwiesenweg"/>
    <tag k="note" v="im SHP des NVK: III"/>
    <tag k="surface" v="asphalt"/>
  </way>
  <way id="23468566" version="7" timestamp="2010-07-22T18:56:03Z" uid="77204" user="aps" changeset="5290049">
    <nd ref="556787809"/>
    <nd ref="556787825"/>
    <nd ref="556787828"/>
    <nd ref="556787827"/>
    <nd ref="556787837"/>
    <nd ref="556787836"/>
    <nd ref="556787835"/>
    <nd ref="556787824"/>
    <nd ref="556787843"/>
    <nd ref="556787842"/>
    <nd ref="278136465"/>
    <tag k="highway" v="tertiary"/>
    <tag k="lanes" v="2"/>
    <tag k="lit" v="no"/>
    <tag k="name" v="Kappelwiesenweg"/>
    <tag k="note" v="im SHP des NVK: III"/>
    <tag k="ref" v="K 3541"/>
    <tag k="surface" v="asphalt"/>
  </way>
  <way id="23468566" version="8" timestamp="2011-03-14T18:55:06Z" uid="77204" user="aps" changeset="7559624">
    <nd ref="556787807"/>
    <nd ref="556787825"/>
    <nd ref="556787828"/>
    <nd ref="556787827"/>
    <nd ref="556787837"/>
    <nd ref="556787836"/>
    <nd ref="556787835"/>
    <nd ref="556787824"/>
    <nd ref="556787843"/>
    <nd ref="556787842"/>
    <nd ref="278136465"/>
    <tag k="highway" v="tertiary"/>
    <tag k="lanes" v="2"/>
    <tag k="lit" v="no"/>
    <tag k="name" v="Kappelwiesenweg"/>
    <tag k="note" v="im SHP des NVK: III"/>
    <tag k="ref" v="K 3541"/>
    <tag k="surface" v="asphalt"/>
  </way>
  <way id="23468566" version="9" timestamp="2011-09-20T08:03:35Z" uid="442210" user="dwausr" changeset="9348979"/>
  <way id="23468623" version="3" timestamp="2009-02-13T13:36:57Z" uid="9581" user="Lobelt" changeset="399324">
    <nd ref="98697514"/>
    <nd ref="98697515"/>
    <nd ref="98697517"/>
    <nd ref="344895840"/>
    <nd ref="98697518"/>
    <nd ref="98697519"/>
    <nd ref="98697520"/>
    <nd ref="98697522"/>
    <nd ref="98697523"/>
    <tag k="created_by" v="Potlatch 0.8"/>
    <tag k="highway" v="secondary"/>
    <tag k="name" v="Nieskyer Straße"/>
    <tag k="ref" v="S121"/>
  </way>
  <way id="23468623" version="4" timestamp="2009-03-02T13:25:47Z" uid="16019" user="Thommse" changeset="725129">
    <nd ref="98697514"/>
    <nd ref="98697515"/>
    <nd ref="98697517"/>
    <nd ref="344895840"/>
    <nd ref="98697518"/>
    <nd ref="98697519"/>
    <nd ref="98697520"/>
    <nd ref="98697522"/>
    <nd ref="98697523"/>
    <tag k="created_by" v="Potlatch 0.10f"/>
    <tag k="highway" v="secondary"/>
    <tag k="name" v="Nieskyer Straße"/>
    <tag k="ref" v="S 121"/>
  </way>
  <way id="23468623" version="5" timestamp="2010-11-23T10:43:35Z" uid="15720" user="J budissin" changeset="6438450">
    <nd ref="98697514"/>
    <nd ref="98697515"/>
    <nd ref="98697517"/>
    <nd ref="344895840"/>
    <nd ref="98697518"/>
    <nd ref="98697519"/>
    <nd ref="98697520"/>
    <nd ref="98697522"/>
    <nd ref="98697523"/>
    <tag k="highway" v="secondary"/>
    <tag k="name" v="Nieskyer Straße"/>
    <tag k="name:hsb" v="Nišćanska"/>
    <tag k="ref" v="S 121"/>
  </way>
  <way id="23468623" version="6" timestamp="2011-04-16T19:02:50Z" uid="157347" user="Pirolina" changeset="7881129">
    <nd ref="98697514"/>
    <nd ref="98697515"/>
    <nd ref="1247422710"/>
    <nd ref="98697517"/>
    <nd ref="344895840"/>
    <nd ref="98697518"/>
    <nd ref="98697519"/>
    <nd ref="98697520"/>
    <nd ref="98697522"/>
    <nd ref="98697523"/>
    <tag k="highway" v="secondary"/>
    <tag k="name" v="Nieskyer Straße"/>
    <tag k="name:hsb" v="Nišćanska"/>
    <tag k="ref" v="S 121"/>
  </way>
  <way id="23468623" version="7" timestamp="2011-08-31T19:14:59Z" uid="109035" user="Teddy80" changeset="9179011">
    <nd ref="98697514"/>
    <nd ref="98697515"/>
    <nd ref="1247422710"/>
    <nd ref="98697517"/>
    <nd ref="344895840"/>
    <nd ref="98697518"/>
    <nd ref="98697519"/>
    <nd ref="98697520"/>
    <nd ref="98697522"/>
    <nd ref="98697523"/>
    <tag k="highway" v="secondary"/>
    <tag k="maxspeed" v="50"/>
    <tag k="name" v="Nieskyer Straße"/>
    <tag k="name:hsb" v="Nišćanska"/>
    <tag k="ref" v="S 121"/>
  </way>
  <way id="23468623" version="8" timestamp="2012-03-08T15:43:38Z" uid="40116" user="FilO" changeset="10910250">
    <nd ref="98697514"/>
    <nd ref="98697515"/>
    <nd ref="1247422710"/>
    <nd ref="98697517"/>
    <nd ref="344895840"/>
    <nd ref="98697518"/>
    <nd ref="98697519"/>
    <nd ref="98697520"/>
    <nd ref="1666000345"/>
    <nd ref="98697523"/>
    <tag k="highway" v="secondary"/>
    <tag k="maxspeed" v="50"/>
    <tag k="name" v="Nieskyer Straße"/>
    <tag k="name:hsb" v="Nišćanska"/>
    <tag k="ref" v="S 121"/>
  </way>
  <way id="23468988" version="1" timestamp="2008-03-26T20:30:14Z" uid="30632" user="antblant" changeset="403965">
    <nd ref="254069253"/>
    <nd ref="254069251"/>
    <nd ref="254069248"/>
    <nd ref="254069246"/>
    <nd ref="254069300"/>
    <nd ref="254069540"/>
    <tag k="UMP_Level" v="2"/>
    <tag k="created_by" v="Potlatch 0.8"/>
    <tag k="highway" v="secondary"/>
    <tag k="name" v="Pomorska"/>
    <tag k="source" v="UMP-PL, ./UMP-Szczecin/src/SZCZECIN.ulice.txt"/>
  </way>
  <way id="23468988" version="2" timestamp="2008-03-26T20:30:40Z" uid="30632" user="antblant" changeset="403965">
    <nd ref="254069253"/>
    <nd ref="254069251"/>
    <nd ref="254069248"/>
    <nd ref="254069246"/>
    <nd ref="254069300"/>
    <nd ref="254069540"/>
    <tag k="created_by" v="Potlatch 0.8"/>
    <tag k="highway" v="secondary"/>
    <tag k="name" v="Pomorska"/>
    <tag k="oneway" v="yes"/>
    <tag k="source" v="UMP-PL, ./UMP-Szczecin/src/SZCZECIN.ulice.txt"/>
  </way>
  <way id="23468988" version="3" timestamp="2008-03-29T16:41:49Z" uid="30632" user="antblant" changeset="418032">
    <nd ref="254069253"/>
    <nd ref="254069251"/>
    <nd ref="254069248"/>
    <nd ref="254069246"/>
    <nd ref="254069300"/>
    <nd ref="254069540"/>
    <tag k="created_by" v="Potlatch 0.8"/>
    <tag k="highway" v="secondary"/>
    <tag k="name" v="Pomorska"/>
    <tag k="oneway" v="yes"/>
    <tag k="source" v="UMP-PL, ./UMP-Szczecin/src/SZCZECIN.ulice.txt"/>
  </way>
  <way id="23468988" version="4" timestamp="2008-12-25T13:13:53Z" uid="86921" user="kenai" changeset="596651">
    <nd ref="254069253"/>
    <nd ref="254069251"/>
    <nd ref="254069248"/>
    <nd ref="254069246"/>
    <nd ref="254069300"/>
    <nd ref="254069540"/>
    <tag k="created_by" v="Potlatch 0.10f"/>
    <tag k="highway" v="tertiary"/>
    <tag k="name" v="Pomorska"/>
    <tag k="oneway" v="yes"/>
    <tag k="source" v="UMP-PL, ./UMP-Szczecin/src/SZCZECIN.ulice.txt"/>
  </way>
  <way id="23468988" version="5" timestamp="2009-11-03T01:50:15Z" uid="36809" user="pfoten_weg_!_" changeset="3021530">
    <nd ref="254069253"/>
    <nd ref="254069251"/>
    <nd ref="254069248"/>
    <nd ref="254069246"/>
    <nd ref="254069300"/>
    <nd ref="254069540"/>
    <tag k="highway" v="tertiary"/>
    <tag k="name" v="Pomorska"/>
    <tag k="oneway" v="yes"/>
    <tag k="source" v="UMP-PL, ./UMP-Szczecin/src/SZCZECIN.ulice.txt"/>
  </way>
  <way id="23468988" version="6" timestamp="2012-03-17T17:03:22Z" uid="603523" user="diverpl" changeset="11010072"/>
</osm>
