<?xml version='1.0' encoding='UTF-8'?>
<osm version="0.6" generator="libosmium/2.20.0">
  <way id="23529191" version="4" timestamp="2010-03-27T23:34:20Z" uid="20587" user="balrog-kun" changeset="4250871">
    <nd ref="54614311"/>
    <nd ref="254795991"/>
    <tag k="created_by" v="Potlatch 0.8a"/>
    <tag k="highway" v="track"/>
    <tag k="name" v="Geology Tour Road"/>
    <tag k="tiger:cfcc" v="A41"/>
    <tag k="tiger:county" v="Riverside, CA"/>
    <tag k="tiger:name_base" v="Geology Tour"/>
    <tag k="tiger:name_type" v="Rd"/>
    <tag k="tiger:reviewed" v="no"/>
    <tag k="tiger:separated" v="no"/>
    <tag k="tiger:source" v="tiger_import_dch_v0.6_20070809"/>
    <tag k="tiger:tlid" v="194719228:194719133:194719145"/>
  </way>
  <way id="23529191" version="5" timestamp="2010-06-04T06:49:43Z" uid="194231" user="Chris Bell in California" changeset="4898367"/>
  <way id="23529194" version="3" timestamp="2010-03-27T23:34:20Z" uid="20587" user="balrog-kun" changeset="4250871">
    <nd ref="254796003"/>
    <nd ref="54697291"/>
    <nd ref="54697297"/>
    <nd ref="54697309"/>
    <nd ref="54697315"/>
    <nd ref="54697325"/>
    <nd ref="54697333"/>
    <nd ref="54697341"/>
    <nd ref="54697350"/>
    <nd ref="54697359"/>
    <nd ref="54697361"/>
    <nd ref="54697366"/>
    <nd ref="54697373"/>
    <nd ref="54697374"/>
    <nd ref="54697377"/>
    <nd ref="54697382"/>
    <nd ref="54274649"/>
    <tag k="created_by" v="Potlatch 0.8a"/>
    <tag k="highway" v="track"/>
    <tag k="name" v="Geology Tour Road"/>
    <tag k="tiger:cfcc" v="A41"/>
    <tag k="tiger:county" v="Riverside, CA"/>
    <tag k="tiger:name_base" v="Geology Tour"/>
    <tag k="tiger:name_type" v="Rd"/>
    <tag k="tiger:reviewed" v="no"/>
    <tag k="tiger:separated" v="no"/>
    <tag k="tiger:source" v="tiger_import_dch_v0.6_20070809"/>
    <tag k="tiger:tlid" v="194719228:194719133:194719145"/>
  </way>
  <way id="23529194" version="4" timestamp="2010-06-04T06:49:43Z" uid="194231" user="Chris Bell in California" changeset="4898367"/>
  <way id="23529556" version="13" timestamp="2009-01-07T05:42:28Z" uid="30201" user="rrankin" changeset="751417">
    <nd ref="254801202"/>
    <nd ref="59601501"/>
    <nd ref="254823628"/>
    <tag k="created_by" v="Potlatch 0.8a"/>
    <tag k="highway" v="unclassified"/>
    <tag k="layer" v="0"/>
    <tag k="name" v="Woodstock Avenue"/>
    <tag k="source" v="Yahoo Imagery"/>
  </way>
  <way id="23529556" version="14" timestamp="2009-01-07T05:51:14Z" uid="30201" user="rrankin" changeset="751417">
    <nd ref="256690629"/>
    <nd ref="329943005"/>
    <nd ref="329942993"/>
    <nd ref="254801202"/>
    <nd ref="59601501"/>
    <nd ref="254823628"/>
    <tag k="created_by" v="Potlatch 0.8a"/>
    <tag k="highway" v="unclassified"/>
    <tag k="name" v="Woodstock Avenue"/>
    <tag k="source" v="Yahoo Imagery"/>
  </way>
  <way id="23529556" version="15" timestamp="2010-12-13T10:24:34Z" uid="139659" user="LiteEarthTreader" changeset="6645987">
    <nd ref="256690629"/>
    <nd ref="329943005"/>
    <nd ref="329942993"/>
    <nd ref="1037033812"/>
    <nd ref="254801202"/>
    <nd ref="59601501"/>
    <nd ref="254823628"/>
    <tag k="highway" v="unclassified"/>
    <tag k="name" v="Woodstock Avenue"/>
    <tag k="source" v="Yahoo Imagery"/>
  </way>
  <way id="23529587" version="10" timestamp="2010-03-27T23:34:21Z" uid="20587" user="balrog-kun" changeset="4250871">
    <nd ref="254801273"/>
    <nd ref="123196306"/>
    <nd ref="123138835"/>
    <nd ref="254805626"/>
    <tag k="highway" v="primary"/>
    <tag k="name" v="Santa Monica Boulevard"/>
    <tag k="oneway" v="yes"/>
    <tag k="ref" v="CA 2"/>
  </way>
  <way id="23529587" version="11" timestamp="2011-03-16T08:25:17Z" uid="207745" user="NE2" changeset="7573254">
    <nd ref="254801273"/>
    <nd ref="123196306"/>
    <nd ref="123138835"/>
    <nd ref="254805626"/>
    <tag k="highway" v="primary"/>
    <tag k="name" v="Santa Monica Boulevard"/>
    <tag k="old_ref" v="US 66"/>
    <tag k="oneway" v="yes"/>
    <tag k="ref" v="CA 2"/>
  </way>
  <way id="23529587" version="12" timestamp="2011-09-10T18:54:47Z" uid="128470" user="vkungys" changeset="9264730"/>
</osm>
