<?xml version='1.0' encoding='UTF-8'?>
<osm version="0.6" generator="libosmium/2.20.0">
  <way id="23599376" version="4" timestamp="2008-09-03T12:29:49Z" uid="4667" user="MapZ" changeset="510148">
    <nd ref="255522034"/>
    <nd ref="255574351"/>
    <tag k="created_by" v="Potlatch 0.8a"/>
    <tag k="highway" v="trunk"/>
    <tag k="lanes" v="2"/>
    <tag k="layer" v="-1"/>
    <tag k="oneway" v="yes"/>
    <tag k="ref" v="VR 1"/>
    <tag k="tunnel" v="yes"/>
  </way>
  <way id="23599376" version="5" timestamp="2010-03-29T17:52:33Z" uid="13363" user="CaptainCrunch" changeset="4269305">
    <nd ref="255522034"/>
    <nd ref="255574351"/>
    <tag k="highway" v="trunk"/>
    <tag k="lanes" v="2"/>
    <tag k="layer" v="-1"/>
    <tag k="oneway" v="yes"/>
    <tag k="ref" v="VR 1"/>
    <tag k="tunnel" v="yes"/>
  </way>
  <way id="23599376" version="6" timestamp="2010-10-28T21:41:32Z" uid="114230" user="danerikk" changeset="6212617">
    <nd ref="255522034"/>
    <nd ref="968227364"/>
    <nd ref="968227491"/>
    <nd ref="968227546"/>
    <nd ref="968227604"/>
    <nd ref="968227573"/>
    <nd ref="255574351"/>
    <tag k="highway" v="trunk"/>
    <tag k="lanes" v="2"/>
    <tag k="layer" v="-1"/>
    <tag k="oneway" v="yes"/>
    <tag k="ref" v="VR 1"/>
    <tag k="tunnel" v="yes"/>
  </way>
  <way id="23599376" version="7" timestamp="2011-10-31T18:46:30Z" uid="66497" user="seichter" changeset="9706426">
    <nd ref="255522034"/>
    <nd ref="968227491"/>
    <nd ref="968227604"/>
    <nd ref="255574351"/>
    <tag k="highway" v="trunk"/>
    <tag k="lanes" v="2"/>
    <tag k="layer" v="-1"/>
    <tag k="oneway" v="yes"/>
    <tag k="ref" v="VR 1"/>
    <tag k="tunnel" v="yes"/>
  </way>
  <way id="23599380" version="3" timestamp="2008-09-03T12:29:50Z" uid="4667" user="MapZ" changeset="510148">
    <nd ref="255574351"/>
    <nd ref="255574354"/>
    <tag k="created_by" v="Potlatch 0.8a"/>
    <tag k="highway" v="trunk"/>
    <tag k="lanes" v="2"/>
    <tag k="oneway" v="yes"/>
    <tag k="ref" v="VR 1"/>
  </way>
  <way id="23599380" version="4" timestamp="2010-03-29T17:52:39Z" uid="13363" user="CaptainCrunch" changeset="4269305">
    <nd ref="255574351"/>
    <nd ref="255574354"/>
    <tag k="highway" v="trunk"/>
    <tag k="lanes" v="2"/>
    <tag k="oneway" v="yes"/>
    <tag k="ref" v="VR 1"/>
  </way>
  <way id="23599380" version="5" timestamp="2010-10-28T21:40:47Z" uid="114230" user="danerikk" changeset="6212617">
    <nd ref="255574351"/>
    <nd ref="968227356"/>
    <nd ref="968227564"/>
    <nd ref="255574354"/>
    <tag k="highway" v="trunk"/>
    <tag k="lanes" v="2"/>
    <tag k="oneway" v="yes"/>
    <tag k="ref" v="VR 1"/>
  </way>
  <way id="23599380" version="6" timestamp="2011-10-31T18:46:29Z" uid="66497" user="seichter" changeset="9706426">
    <nd ref="255574351"/>
    <nd ref="968227356"/>
    <nd ref="255574354"/>
    <tag k="highway" v="trunk"/>
    <tag k="lanes" v="2"/>
    <tag k="oneway" v="yes"/>
    <tag k="ref" v="VR 1"/>
  </way>
  <way id="23599478" version="3" timestamp="2008-09-03T12:29:46Z" uid="4667" user="MapZ" changeset="510148">
    <nd ref="255574360"/>
    <nd ref="255575854"/>
    <nd ref="255574588"/>
    <nd ref="255574363"/>
    <nd ref="286296528"/>
    <nd ref="286296529"/>
    <nd ref="286296530"/>
    <nd ref="286296531"/>
    <nd ref="286296532"/>
    <nd ref="286296533"/>
    <nd ref="286296534"/>
    <nd ref="286296535"/>
    <nd ref="286296536"/>
    <nd ref="286296537"/>
    <nd ref="286296538"/>
    <nd ref="286296539"/>
    <nd ref="286296540"/>
    <nd ref="286296546"/>
    <nd ref="286296548"/>
    <nd ref="286296549"/>
    <nd ref="286296550"/>
    <nd ref="286296551"/>
    <nd ref="286296552"/>
    <nd ref="286296553"/>
    <nd ref="286296554"/>
    <nd ref="286296555"/>
    <nd ref="286296556"/>
    <nd ref="286296557"/>
    <nd ref="286296558"/>
    <nd ref="286296559"/>
    <nd ref="286262137"/>
    <tag k="created_by" v="Potlatch 0.8a"/>
    <tag k="highway" v="trunk"/>
    <tag k="lanes" v="2"/>
    <tag k="layer" v="-1"/>
    <tag k="oneway" v="yes"/>
    <tag k="ref" v="VR 1"/>
  </way>
  <way id="23599478" version="4" timestamp="2008-09-11T18:20:20Z" uid="19799" user="daveemtb" changeset="606125">
    <nd ref="255574360"/>
    <nd ref="255575854"/>
    <nd ref="255574588"/>
    <nd ref="255574363"/>
    <nd ref="286296528"/>
    <nd ref="286296529"/>
    <nd ref="286296530"/>
    <nd ref="286296531"/>
    <nd ref="286296532"/>
    <nd ref="286296533"/>
    <nd ref="286296534"/>
    <nd ref="286296535"/>
    <nd ref="286296536"/>
    <nd ref="286296537"/>
    <nd ref="286296538"/>
    <nd ref="286296539"/>
    <nd ref="286296540"/>
    <nd ref="286296546"/>
    <nd ref="286296548"/>
    <nd ref="286296549"/>
    <nd ref="286296550"/>
    <nd ref="286296551"/>
    <nd ref="286296552"/>
    <nd ref="286296553"/>
    <nd ref="286296554"/>
    <nd ref="286296555"/>
    <nd ref="286296556"/>
    <nd ref="286296557"/>
    <nd ref="286296558"/>
    <nd ref="286296559"/>
    <nd ref="286262137"/>
    <tag k="created_by" v="Potlatch 0.10b"/>
    <tag k="highway" v="trunk"/>
    <tag k="lanes" v="2"/>
    <tag k="layer" v="-1"/>
    <tag k="oneway" v="yes"/>
    <tag k="ref" v="VR 1"/>
  </way>
  <way id="23599478" version="5" timestamp="2008-09-11T18:20:44Z" uid="19799" user="daveemtb" changeset="606125">
    <nd ref="255574360"/>
    <nd ref="255575854"/>
    <nd ref="255574588"/>
    <nd ref="255574363"/>
    <nd ref="286296528"/>
    <nd ref="286296529"/>
    <nd ref="286296530"/>
    <nd ref="286296531"/>
    <nd ref="286296532"/>
    <nd ref="286296533"/>
    <nd ref="286296534"/>
    <nd ref="286296535"/>
    <nd ref="286296536"/>
    <nd ref="286296537"/>
    <nd ref="286296538"/>
    <nd ref="286296539"/>
    <nd ref="286296540"/>
    <nd ref="286296546"/>
    <nd ref="286296548"/>
    <nd ref="286296549"/>
    <nd ref="286296550"/>
    <nd ref="286296551"/>
    <nd ref="286296552"/>
    <nd ref="286296553"/>
    <nd ref="286296554"/>
    <nd ref="286296555"/>
    <nd ref="286296556"/>
    <nd ref="286296557"/>
    <nd ref="286296558"/>
    <nd ref="286296559"/>
    <nd ref="286262137"/>
    <tag k="created_by" v="Potlatch 0.10b"/>
    <tag k="highway" v="trunk"/>
    <tag k="lanes" v="2"/>
    <tag k="layer" v="-1"/>
    <tag k="oneway" v="yes"/>
    <tag k="ref" v="VR 1"/>
  </way>
  <way id="23599478" version="6" timestamp="2008-09-27T11:31:40Z" uid="21931" user="amm" changeset="703900">
    <nd ref="255574360"/>
    <nd ref="255575854"/>
    <nd ref="255574588"/>
    <nd ref="255574363"/>
    <nd ref="286296528"/>
    <nd ref="286296529"/>
    <nd ref="286296530"/>
    <nd ref="286296531"/>
    <nd ref="286296532"/>
    <nd ref="286296533"/>
    <nd ref="286296534"/>
    <nd ref="286296535"/>
    <nd ref="286296536"/>
    <nd ref="286296537"/>
    <nd ref="286296538"/>
    <tag k="created_by" v="Potlatch 0.10b"/>
    <tag k="highway" v="trunk"/>
    <tag k="lanes" v="2"/>
    <tag k="layer" v="-1"/>
    <tag k="oneway" v="yes"/>
    <tag k="ref" v="VR 1"/>
  </way>
  <way id="23599478" version="7" timestamp="2010-03-29T17:51:57Z" uid="13363" user="CaptainCrunch" changeset="4269305">
    <nd ref="255574360"/>
    <nd ref="255575854"/>
    <nd ref="255574588"/>
    <nd ref="255574363"/>
    <nd ref="286296528"/>
    <nd ref="286296529"/>
    <nd ref="286296530"/>
    <nd ref="286296531"/>
    <nd ref="286296532"/>
    <nd ref="286296533"/>
    <nd ref="286296534"/>
    <nd ref="286296535"/>
    <nd ref="286296536"/>
    <nd ref="286296537"/>
    <nd ref="286296538"/>
    <tag k="highway" v="trunk"/>
    <tag k="lanes" v="2"/>
    <tag k="layer" v="-1"/>
    <tag k="oneway" v="yes"/>
    <tag k="ref" v="VR 1"/>
  </way>
  <way id="23599478" version="8" timestamp="2010-10-28T16:08:32Z" uid="114230" user="danerikk" changeset="6209936">
    <nd ref="255574360"/>
    <nd ref="255575854"/>
    <nd ref="255574588"/>
    <nd ref="968026208"/>
    <nd ref="255574363"/>
    <nd ref="286296528"/>
    <nd ref="286296529"/>
    <nd ref="286296530"/>
    <nd ref="286296531"/>
    <nd ref="286296532"/>
    <nd ref="286296533"/>
    <nd ref="286296534"/>
    <nd ref="286296535"/>
    <nd ref="286296536"/>
    <nd ref="286296537"/>
    <nd ref="286296538"/>
    <tag k="highway" v="trunk"/>
    <tag k="lanes" v="2"/>
    <tag k="layer" v="-1"/>
    <tag k="oneway" v="yes"/>
    <tag k="ref" v="VR 1"/>
  </way>
  <way id="23599478" version="9" timestamp="2010-10-28T16:10:38Z" uid="114230" user="danerikk" changeset="6209936">
    <nd ref="255574360"/>
    <nd ref="255575854"/>
    <nd ref="255574588"/>
    <nd ref="968026208"/>
    <nd ref="255574363"/>
    <nd ref="286296528"/>
    <nd ref="286296529"/>
    <nd ref="968028233"/>
    <nd ref="286296530"/>
    <nd ref="286296531"/>
    <nd ref="286296532"/>
    <nd ref="286296533"/>
    <nd ref="286296534"/>
    <nd ref="286296535"/>
    <nd ref="286296536"/>
    <nd ref="286296537"/>
    <nd ref="286296538"/>
    <tag k="highway" v="trunk"/>
    <tag k="lanes" v="2"/>
    <tag k="layer" v="-1"/>
    <tag k="oneway" v="yes"/>
    <tag k="ref" v="VR 1"/>
  </way>
  <way id="23599478" version="10" timestamp="2010-10-28T16:12:55Z" uid="114230" user="danerikk" changeset="6209936">
    <nd ref="255574360"/>
    <nd ref="255575854"/>
    <nd ref="255574588"/>
    <nd ref="968026208"/>
    <nd ref="255574363"/>
    <nd ref="286296528"/>
    <nd ref="286296529"/>
    <nd ref="968028233"/>
    <nd ref="286296530"/>
    <nd ref="286296531"/>
    <nd ref="968031943"/>
    <nd ref="286296532"/>
    <nd ref="286296533"/>
    <nd ref="968031960"/>
    <nd ref="968031964"/>
    <nd ref="286296534"/>
    <nd ref="286296535"/>
    <nd ref="286296536"/>
    <nd ref="286296537"/>
    <nd ref="286296538"/>
    <tag k="highway" v="trunk"/>
    <tag k="lanes" v="2"/>
    <tag k="layer" v="-1"/>
    <tag k="oneway" v="yes"/>
    <tag k="ref" v="VR 1"/>
  </way>
  <way id="23599478" version="11" timestamp="2010-10-28T16:13:14Z" uid="114230" user="danerikk" changeset="6209936">
    <nd ref="255574360"/>
    <nd ref="255575854"/>
    <nd ref="255574588"/>
    <nd ref="968026208"/>
    <nd ref="255574363"/>
    <nd ref="286296528"/>
    <tag k="highway" v="trunk"/>
    <tag k="lanes" v="2"/>
    <tag k="layer" v="-1"/>
    <tag k="oneway" v="yes"/>
    <tag k="ref" v="VR 1"/>
  </way>
  <way id="23599478" version="12" timestamp="2010-10-28T16:13:15Z" uid="114230" user="danerikk" changeset="6209936">
    <nd ref="255574360"/>
    <nd ref="255575854"/>
    <nd ref="255574588"/>
    <nd ref="968026208"/>
    <nd ref="255574363"/>
    <tag k="highway" v="trunk"/>
    <tag k="lanes" v="2"/>
    <tag k="layer" v="-1"/>
    <tag k="oneway" v="yes"/>
    <tag k="ref" v="VR 1"/>
  </way>
  <way id="23599478" version="13" timestamp="2010-10-28T16:14:27Z" uid="114230" user="danerikk" changeset="6209936">
    <nd ref="255574360"/>
    <nd ref="255575854"/>
    <nd ref="255574588"/>
    <nd ref="968034026"/>
    <nd ref="968026208"/>
    <nd ref="255574363"/>
    <tag k="highway" v="trunk"/>
    <tag k="lanes" v="2"/>
    <tag k="layer" v="-1"/>
    <tag k="oneway" v="yes"/>
    <tag k="ref" v="VR 1"/>
  </way>
  <way id="23599478" version="14" timestamp="2010-10-28T21:40:41Z" uid="114230" user="danerikk" changeset="6212617">
    <nd ref="255574360"/>
    <nd ref="255575854"/>
    <nd ref="255574588"/>
    <nd ref="968026208"/>
    <nd ref="255574363"/>
    <tag k="highway" v="trunk"/>
    <tag k="lanes" v="2"/>
    <tag k="layer" v="-1"/>
    <tag k="oneway" v="yes"/>
    <tag k="ref" v="VR 1"/>
  </way>
  <way id="23599478" version="15" timestamp="2010-10-29T08:34:02Z" uid="114230" user="danerikk" changeset="6215467">
    <nd ref="255574360"/>
    <nd ref="255575854"/>
    <nd ref="255574588"/>
    <nd ref="968026208"/>
    <nd ref="255574363"/>
    <tag k="highway" v="trunk"/>
    <tag k="lanes" v="2"/>
    <tag k="oneway" v="yes"/>
    <tag k="ref" v="VR 1"/>
  </way>
  <way id="23599479" version="2" timestamp="2008-09-03T12:29:47Z" uid="4667" user="MapZ" changeset="510148">
    <nd ref="255574354"/>
    <nd ref="255574488"/>
    <nd ref="255574357"/>
    <nd ref="255574360"/>
    <tag k="created_by" v="Potlatch 0.8a"/>
    <tag k="highway" v="trunk"/>
    <tag k="lanes" v="2"/>
    <tag k="layer" v="-1"/>
    <tag k="oneway" v="yes"/>
    <tag k="ref" v="VR 1"/>
    <tag k="tunnel" v="yes"/>
  </way>
  <way id="23599479" version="3" timestamp="2010-03-29T17:52:36Z" uid="13363" user="CaptainCrunch" changeset="4269305">
    <nd ref="255574354"/>
    <nd ref="255574488"/>
    <nd ref="255574357"/>
    <nd ref="255574360"/>
    <tag k="highway" v="trunk"/>
    <tag k="lanes" v="2"/>
    <tag k="layer" v="-1"/>
    <tag k="oneway" v="yes"/>
    <tag k="ref" v="VR 1"/>
    <tag k="tunnel" v="yes"/>
  </way>
  <way id="23599479" version="4" timestamp="2010-10-28T21:41:10Z" uid="114230" user="danerikk" changeset="6212617">
    <nd ref="255574354"/>
    <nd ref="255574488"/>
    <nd ref="968227537"/>
    <nd ref="255574357"/>
    <nd ref="968227469"/>
    <nd ref="255574360"/>
    <tag k="highway" v="trunk"/>
    <tag k="lanes" v="2"/>
    <tag k="layer" v="-1"/>
    <tag k="oneway" v="yes"/>
    <tag k="ref" v="VR 1"/>
    <tag k="tunnel" v="yes"/>
  </way>
  <way id="23599479" version="5" timestamp="2010-10-29T08:34:06Z" uid="114230" user="danerikk" changeset="6215467">
    <nd ref="255574354"/>
    <nd ref="255574488"/>
    <nd ref="968227537"/>
    <nd ref="255574357"/>
    <nd ref="968227469"/>
    <nd ref="255574360"/>
    <tag k="highway" v="trunk"/>
    <tag k="lanes" v="2"/>
    <tag k="oneway" v="yes"/>
    <tag k="ref" v="VR 1"/>
    <tag k="tunnel" v="yes"/>
  </way>
  <way id="23599479" version="6" timestamp="2011-10-20T17:33:47Z" uid="179581" user="Geofreund1" changeset="9610469">
    <nd ref="255574354"/>
    <nd ref="255574488"/>
    <nd ref="968227537"/>
    <nd ref="255574357"/>
    <nd ref="968227469"/>
    <nd ref="255574360"/>
    <tag k="highway" v="trunk"/>
    <tag k="lanes" v="2"/>
    <tag k="layer" v="-1"/>
    <tag k="oneway" v="yes"/>
    <tag k="ref" v="VR 1"/>
    <tag k="tunnel" v="yes"/>
  </way>
  <way id="23599540" version="2" timestamp="2008-07-08T23:32:44Z" uid="6975" user="ulfl" changeset="443284">
    <nd ref="255577202"/>
    <nd ref="255577203"/>
    <nd ref="255577204"/>
    <nd ref="255577200"/>
    <nd ref="255577206"/>
    <nd ref="255577202"/>
    <tag k="access" v="private"/>
    <tag k="area" v="parking"/>
    <tag k="highway" v="track"/>
  </way>
  <way id="23599540" version="3" timestamp="2011-04-27T09:45:11Z" uid="49351" user="Dieter Schmeer" changeset="7983279">
    <nd ref="255577202"/>
    <nd ref="255577203"/>
    <nd ref="255577204"/>
    <nd ref="255577200"/>
    <nd ref="255577206"/>
    <nd ref="255577202"/>
    <tag k="access" v="private"/>
    <tag k="amenity" v="parking"/>
  </way>
  <way id="23599540" version="4" timestamp="2012-02-15T13:20:46Z" uid="63375" user="Divjo" changeset="10692053"/>
  <way id="23599564" version="1" timestamp="2008-04-03T18:02:01Z" uid="16922" user="amai" changeset="34654">
    <nd ref="254120665"/>
    <nd ref="254490055"/>
    <tag k="created_by" v="Potlatch 0.8a"/>
  </way>
  <way id="23599564" version="2" timestamp="2008-04-03T18:02:13Z" uid="16922" user="amai" changeset="34654">
    <nd ref="254120665"/>
    <nd ref="254490055"/>
    <tag k="created_by" v="Potlatch 0.8a"/>
    <tag k="highway" v="footway"/>
  </way>
  <way id="23599564" version="3" timestamp="2008-09-05T19:59:27Z" uid="51062" user="el-micha" changeset="544594">
    <nd ref="254120665"/>
    <nd ref="254490055"/>
    <tag k="created_by" v="Potlatch 0.10b"/>
    <tag k="highway" v="footway"/>
  </way>
  <way id="23599564" version="4" timestamp="2011-11-16T09:11:27Z" uid="442210" user="dwausr" changeset="9842331">
    <nd ref="254120665"/>
    <nd ref="254490055"/>
    <tag k="highway" v="footway"/>
  </way>
  <way id="23599629" version="2" timestamp="2009-02-23T13:15:16Z" uid="34428" user="usm78-gis" changeset="634299"/>
  <way id="23599838" version="9" timestamp="2008-12-15T23:38:29Z" uid="6975" user="ulfl" changeset="418776">
    <nd ref="255581151"/>
    <nd ref="255581152"/>
    <nd ref="255581153"/>
    <nd ref="255581154"/>
    <nd ref="255581151"/>
    <tag k="amenity" v="parking"/>
    <tag k="area" v="yes"/>
    <tag k="disabled_spaces" v="no"/>
    <tag k="fee" v="no"/>
    <tag k="parking" v="surface"/>
    <tag k="surface" v="unpaved"/>
  </way>
  <way id="23599838" version="10" timestamp="2009-03-02T15:09:33Z" uid="61927" user="AlexPleiner" changeset="726384">
    <nd ref="255581151"/>
    <nd ref="255581152"/>
    <nd ref="255581153"/>
    <nd ref="255581154"/>
    <nd ref="255581151"/>
    <tag k="amenity" v="parking"/>
    <tag k="area" v="yes"/>
    <tag k="disabled_spaces" v="no"/>
    <tag k="fee" v="no"/>
    <tag k="name" v="Mercksplatz"/>
    <tag k="parking" v="surface"/>
    <tag k="surface" v="unpaved"/>
  </way>
  <way id="23599838" version="11" timestamp="2009-04-24T00:35:44Z" uid="118047" user="Kraftfahrstraßen" changeset="921998">
    <nd ref="255581151"/>
    <nd ref="255581152"/>
    <nd ref="382764768"/>
    <nd ref="255581153"/>
    <nd ref="255581154"/>
    <nd ref="255581151"/>
    <tag k="amenity" v="parking"/>
    <tag k="area" v="yes"/>
    <tag k="disabled_spaces" v="no"/>
    <tag k="fee" v="no"/>
    <tag k="name" v="Mercksplatz"/>
    <tag k="parking" v="surface"/>
    <tag k="surface" v="unpaved"/>
  </way>
  <way id="23599838" version="12" timestamp="2009-06-10T16:38:34Z" uid="23785" user="Simon Kokolakis" changeset="1479459">
    <nd ref="255581151"/>
    <nd ref="418340307"/>
    <tag k="amenity" v="parking"/>
    <tag k="area" v="yes"/>
    <tag k="disabled_spaces" v="no"/>
    <tag k="fee" v="no"/>
    <tag k="name" v="Mercksplatz"/>
    <tag k="parking" v="surface"/>
    <tag k="surface" v="unpaved"/>
  </way>
  <way id="23599838" version="13" timestamp="2009-06-10T16:38:53Z" uid="23785" user="Simon Kokolakis" changeset="1479459"/>
  <way id="23599973" version="5" timestamp="2008-06-25T11:26:45Z" uid="39740" user="livestream" changeset="291149">
    <nd ref="255582363"/>
    <nd ref="255582364"/>
    <nd ref="255582365"/>
    <nd ref="255582366"/>
    <nd ref="255582368"/>
    <nd ref="255582369"/>
    <nd ref="255582370"/>
    <nd ref="255582371"/>
    <nd ref="273101614"/>
    <nd ref="273101600"/>
    <tag k="created_by" v="Potlatch 0.9c"/>
    <tag k="highway" v="secondary"/>
    <tag k="name" v="Obere Hauptstraße"/>
    <tag k="ref" v="L 395"/>
  </way>
  <way id="23599973" version="6" timestamp="2008-09-09T21:33:41Z" uid="24920" user="Schusch" changeset="591800">
    <nd ref="255582361"/>
    <nd ref="255583150"/>
    <nd ref="258559116"/>
    <nd ref="255582363"/>
    <nd ref="255582364"/>
    <nd ref="255582365"/>
    <nd ref="295480557"/>
    <tag k="created_by" v="Potlatch 0.9c"/>
    <tag k="highway" v="secondary"/>
    <tag k="name" v="Untere Hauptstraße"/>
    <tag k="ref" v="L 395"/>
  </way>
  <way id="23599973" version="7" timestamp="2009-01-31T14:13:25Z" uid="32331" user="Vulpy" changeset="857907">
    <nd ref="255582361"/>
    <nd ref="255583150"/>
    <nd ref="258559116"/>
    <nd ref="255582363"/>
    <nd ref="255582364"/>
    <nd ref="255582365"/>
    <nd ref="339334561"/>
    <nd ref="295480557"/>
    <tag k="created_by" v="Potlatch 0.9c"/>
    <tag k="highway" v="secondary"/>
    <tag k="name" v="Untere Hauptstraße"/>
    <tag k="ref" v="L 395"/>
  </way>
  <way id="23599973" version="8" timestamp="2009-01-31T14:15:39Z" uid="32331" user="Vulpy" changeset="857907">
    <nd ref="255582361"/>
    <nd ref="255583150"/>
    <nd ref="258559116"/>
    <nd ref="255582363"/>
    <nd ref="255582364"/>
    <nd ref="255582365"/>
    <nd ref="339334928"/>
    <nd ref="339334561"/>
    <nd ref="295480557"/>
    <tag k="created_by" v="Potlatch 0.9c"/>
    <tag k="highway" v="secondary"/>
    <tag k="name" v="Untere Hauptstraße"/>
    <tag k="ref" v="L 395"/>
  </way>
  <way id="23599973" version="9" timestamp="2009-01-31T14:16:58Z" uid="32331" user="Vulpy" changeset="857907">
    <nd ref="255582361"/>
    <nd ref="255583150"/>
    <nd ref="258559116"/>
    <nd ref="255582363"/>
    <nd ref="339335275"/>
    <nd ref="255582364"/>
    <nd ref="255582365"/>
    <nd ref="339334928"/>
    <nd ref="339334561"/>
    <nd ref="295480557"/>
    <tag k="created_by" v="Potlatch 0.9c"/>
    <tag k="highway" v="secondary"/>
    <tag k="name" v="Untere Hauptstraße"/>
    <tag k="ref" v="L 395"/>
  </way>
  <way id="23599973" version="10" timestamp="2010-06-20T18:42:48Z" uid="3062" user="wollschaf" changeset="5035962">
    <nd ref="255582361"/>
    <nd ref="255583150"/>
    <nd ref="258559116"/>
    <nd ref="255582363"/>
    <nd ref="339335275"/>
    <nd ref="255582364"/>
    <nd ref="255582365"/>
    <nd ref="339334928"/>
    <nd ref="339334561"/>
    <nd ref="778505562"/>
    <nd ref="295480557"/>
    <tag k="highway" v="secondary"/>
    <tag k="name" v="Untere Hauptstraße"/>
    <tag k="ref" v="L 395"/>
  </way>
  <way id="23599973" version="11" timestamp="2011-11-26T13:36:25Z" uid="554636" user="bittling" changeset="9955564">
    <nd ref="255582361"/>
    <nd ref="255583150"/>
    <nd ref="258559116"/>
    <nd ref="255582363"/>
    <nd ref="339335275"/>
    <nd ref="255582364"/>
    <nd ref="255582365"/>
    <nd ref="339334928"/>
    <nd ref="339334561"/>
    <nd ref="778505562"/>
    <nd ref="295480557"/>
    <tag k="highway" v="secondary"/>
    <tag k="maxspeed" v="50"/>
    <tag k="name" v="Untere Hauptstraße"/>
    <tag k="ref" v="L 395"/>
  </way>
  <way id="23599973" version="12" timestamp="2011-12-21T20:35:45Z" uid="554636" user="bittling" changeset="10175058">
    <nd ref="255582361"/>
    <nd ref="255583150"/>
    <nd ref="258559116"/>
    <nd ref="255582363"/>
    <nd ref="339335275"/>
    <nd ref="255582364"/>
    <nd ref="1557513953"/>
    <nd ref="255582365"/>
    <nd ref="339334928"/>
    <nd ref="339334561"/>
    <nd ref="778505562"/>
    <nd ref="295480557"/>
    <tag k="highway" v="secondary"/>
    <tag k="maxspeed" v="50"/>
    <tag k="name" v="Untere Hauptstraße"/>
    <tag k="ref" v="L 395"/>
  </way>
  <way id="23599988" version="1" timestamp="2008-04-03T18:43:02Z" uid="20587" user="balrog-kun" changeset="31907">
    <nd ref="255582354"/>
    <nd ref="255582329"/>
    <nd ref="255582355"/>
    <nd ref="255582356"/>
    <nd ref="255582367"/>
    <nd ref="255582354"/>
    <tag k="created_by" v="JOSM"/>
    <tag k="highway" v="service"/>
  </way>
  <way id="23599988" version="2" timestamp="2008-04-09T16:08:56Z" uid="20587" user="balrog-kun" changeset="96971">
    <nd ref="255582355"/>
    <nd ref="255582329"/>
    <nd ref="255582354"/>
    <nd ref="255582367"/>
    <tag k="created_by" v="JOSM"/>
    <tag k="highway" v="service"/>
    <tag k="oneway" v="yes"/>
  </way>
  <way id="23599988" version="3" timestamp="2008-04-09T16:32:29Z" uid="20587" user="balrog-kun" changeset="96971">
    <nd ref="255582355"/>
    <nd ref="255582329"/>
    <nd ref="256586548"/>
    <nd ref="255582354"/>
    <nd ref="255582367"/>
    <tag k="created_by" v="JOSM"/>
    <tag k="highway" v="service"/>
    <tag k="oneway" v="yes"/>
  </way>
  <way id="23599988" version="4" timestamp="2008-10-28T09:16:09Z" uid="20587" user="balrog-kun" changeset="609926">
    <nd ref="255582355"/>
    <nd ref="308197358"/>
    <tag k="created_by" v="JOSM"/>
    <tag k="highway" v="construction"/>
    <tag k="oneway" v="yes"/>
  </way>
  <way id="23599989" version="1" timestamp="2008-04-03T18:43:03Z" uid="20587" user="balrog-kun" changeset="31907">
    <nd ref="255582422"/>
    <nd ref="255582355"/>
    <nd ref="255582357"/>
    <nd ref="255582362"/>
    <nd ref="255582358"/>
    <tag k="created_by" v="JOSM"/>
    <tag k="highway" v="service"/>
  </way>
  <way id="23599989" version="2" timestamp="2008-04-24T14:49:22Z" uid="20587" user="balrog-kun" changeset="247359">
    <nd ref="255582422"/>
    <nd ref="255582355"/>
    <nd ref="255582357"/>
    <nd ref="255582362"/>
    <nd ref="255582358"/>
    <tag k="created_by" v="JOSM"/>
    <tag k="highway" v="service"/>
    <tag k="name" v="Włodzimierza Kołosa"/>
  </way>
  <way id="23599989" version="3" timestamp="2009-12-11T11:10:02Z" uid="20587" user="balrog-kun" changeset="3348099">
    <nd ref="255582422"/>
    <nd ref="255582355"/>
    <nd ref="255582357"/>
    <nd ref="255582362"/>
    <nd ref="255582358"/>
    <tag k="highway" v="service"/>
    <tag k="maxspeed" v="10"/>
    <tag k="maxweight" v="8"/>
    <tag k="name" v="Włodzimierza Kołosa"/>
  </way>
  <way id="23599989" version="4" timestamp="2011-05-19T23:17:04Z" uid="20587" user="balrog-kun" changeset="8194302">
    <nd ref="255582422"/>
    <nd ref="255582355"/>
    <tag k="highway" v="service"/>
    <tag k="maxspeed" v="10"/>
    <tag k="maxweight" v="8"/>
    <tag k="name" v="Włodzimierza Kołosa"/>
  </way>
  <way id="23599990" version="1" timestamp="2008-04-03T18:43:03Z" uid="20587" user="balrog-kun" changeset="31907">
    <nd ref="255582357"/>
    <nd ref="255582359"/>
    <tag k="created_by" v="JOSM"/>
    <tag k="highway" v="service"/>
  </way>
  <way id="23599991" version="1" timestamp="2008-04-03T18:43:03Z" uid="20587" user="balrog-kun" changeset="31907">
    <nd ref="255582367"/>
    <nd ref="255582525"/>
    <nd ref="255582522"/>
    <nd ref="255582372"/>
    <nd ref="255582374"/>
    <nd ref="255582375"/>
    <tag k="created_by" v="JOSM"/>
    <tag k="highway" v="service"/>
  </way>
  <way id="23599992" version="1" timestamp="2008-04-03T18:43:05Z" uid="20587" user="balrog-kun" changeset="31907">
    <nd ref="255582356"/>
    <nd ref="255582398"/>
    <nd ref="255582513"/>
    <nd ref="255582376"/>
    <tag k="created_by" v="JOSM"/>
    <tag k="highway" v="service"/>
  </way>
  <way id="23599992" version="2" timestamp="2010-05-01T17:19:22Z" uid="20587" user="balrog-kun" changeset="4577369">
    <nd ref="255582356"/>
    <nd ref="255582398"/>
    <nd ref="255582513"/>
    <nd ref="255582376"/>
    <tag k="highway" v="service"/>
    <tag k="lanes" v="1"/>
  </way>
  <way id="23599992" version="3" timestamp="2011-05-20T19:24:31Z" uid="98542" user="wajak" changeset="8201474">
    <nd ref="255582356"/>
    <nd ref="255582398"/>
    <nd ref="255582513"/>
    <nd ref="1293741206"/>
    <nd ref="255582376"/>
    <tag k="highway" v="service"/>
    <tag k="lanes" v="1"/>
  </way>
  <way id="23599993" version="1" timestamp="2008-04-03T18:43:08Z" uid="20587" user="balrog-kun" changeset="31907">
    <nd ref="255582398"/>
    <nd ref="255582391"/>
    <nd ref="255582388"/>
    <nd ref="255582386"/>
    <nd ref="255582532"/>
    <nd ref="255582526"/>
    <nd ref="255582383"/>
    <nd ref="255582381"/>
    <nd ref="255582379"/>
    <nd ref="255582378"/>
    <nd ref="255582377"/>
    <nd ref="255582372"/>
    <tag k="created_by" v="JOSM"/>
    <tag k="highway" v="service"/>
  </way>
  <way id="23599994" version="1" timestamp="2008-04-03T18:43:09Z" uid="20587" user="balrog-kun" changeset="31907">
    <nd ref="255582386"/>
    <nd ref="255582418"/>
    <nd ref="255582391"/>
    <tag k="created_by" v="JOSM"/>
    <tag k="highway" v="service"/>
  </way>
  <way id="23599995" version="1" timestamp="2008-04-03T18:43:09Z" uid="20587" user="balrog-kun" changeset="31907">
    <nd ref="255582425"/>
    <nd ref="255582428"/>
    <nd ref="255582430"/>
    <nd ref="255582434"/>
    <nd ref="255582437"/>
    <nd ref="255582425"/>
    <tag k="amenity" v="parking"/>
    <tag k="created_by" v="JOSM"/>
  </way>
  <way id="23599995" version="2" timestamp="2009-01-05T22:04:41Z" uid="20587" user="balrog-kun" changeset="739335">
    <nd ref="255582425"/>
    <nd ref="255582428"/>
    <nd ref="255582430"/>
    <nd ref="327626134"/>
    <nd ref="255582434"/>
    <nd ref="255582437"/>
    <nd ref="255582425"/>
    <tag k="amenity" v="parking"/>
    <tag k="created_by" v="JOSM"/>
  </way>
  <way id="23599996" version="1" timestamp="2008-04-03T18:43:10Z" uid="20587" user="balrog-kun" changeset="31907">
    <nd ref="255582438"/>
    <nd ref="255582439"/>
    <nd ref="255582440"/>
    <nd ref="255582441"/>
    <nd ref="255582438"/>
    <tag k="created_by" v="JOSM"/>
    <tag k="leisure" v="park"/>
  </way>
  <way id="23599997" version="1" timestamp="2008-04-03T18:43:12Z" uid="20587" user="balrog-kun" changeset="31907">
    <nd ref="255582442"/>
    <nd ref="255582494"/>
    <nd ref="255582443"/>
    <nd ref="255582455"/>
    <nd ref="255582462"/>
    <nd ref="255582463"/>
    <nd ref="255582464"/>
    <nd ref="255582465"/>
    <nd ref="255582466"/>
    <nd ref="255582467"/>
    <nd ref="255582468"/>
    <nd ref="255582469"/>
    <nd ref="255582470"/>
    <nd ref="255582471"/>
    <nd ref="255582472"/>
    <nd ref="255582473"/>
    <nd ref="255582481"/>
    <nd ref="255582482"/>
    <nd ref="255582483"/>
    <nd ref="255582442"/>
    <tag k="building" v="hall"/>
    <tag k="created_by" v="JOSM"/>
    <tag k="name" v="Wydział Matematyki, Informatyki i Mechaniki UW"/>
  </way>
  <way id="23599997" version="2" timestamp="2008-04-09T16:08:57Z" uid="20587" user="balrog-kun" changeset="96971">
    <nd ref="255582442"/>
    <nd ref="255582494"/>
    <nd ref="255582443"/>
    <nd ref="255582455"/>
    <nd ref="255582462"/>
    <nd ref="255582463"/>
    <nd ref="255582464"/>
    <nd ref="255582465"/>
    <nd ref="255582466"/>
    <nd ref="255582467"/>
    <nd ref="255582468"/>
    <nd ref="255582469"/>
    <nd ref="255582470"/>
    <nd ref="255582471"/>
    <nd ref="255582472"/>
    <nd ref="255582473"/>
    <nd ref="255582481"/>
    <nd ref="255582482"/>
    <nd ref="255582483"/>
    <nd ref="255582442"/>
    <tag k="building" v="hall"/>
    <tag k="created_by" v="JOSM"/>
    <tag k="name" v="Wydział Matematyki, Informatyki i Mechaniki UW"/>
    <tag k="ref" v="3320"/>
  </way>
  <way id="23599997" version="3" timestamp="2008-06-14T21:19:59Z" uid="20587" user="balrog-kun" changeset="161269">
    <nd ref="255582442"/>
    <nd ref="255582494"/>
    <nd ref="255582443"/>
    <nd ref="255582455"/>
    <nd ref="255582462"/>
    <nd ref="255582463"/>
    <nd ref="255582464"/>
    <nd ref="255582465"/>
    <nd ref="255582466"/>
    <nd ref="255582467"/>
    <nd ref="255582468"/>
    <nd ref="255582469"/>
    <nd ref="255582470"/>
    <nd ref="255582471"/>
    <nd ref="255582472"/>
    <nd ref="255582473"/>
    <nd ref="255582481"/>
    <nd ref="255582482"/>
    <nd ref="255582483"/>
    <nd ref="255582442"/>
    <tag k="building" v="hall"/>
    <tag k="created_by" v="JOSM"/>
    <tag k="name" v="Wydział Matematyki, Informatyki i Mechaniki UW"/>
    <tag k="ref" v="3320;Banacha 2"/>
  </way>
  <way id="23599997" version="4" timestamp="2008-07-31T14:21:50Z" uid="20587" user="balrog-kun" changeset="633394">
    <nd ref="255582442"/>
    <nd ref="255582494"/>
    <nd ref="255582443"/>
    <nd ref="255582455"/>
    <nd ref="255582462"/>
    <nd ref="255582463"/>
    <nd ref="255582464"/>
    <nd ref="255582465"/>
    <nd ref="255582466"/>
    <nd ref="255582467"/>
    <nd ref="255582468"/>
    <nd ref="255582469"/>
    <nd ref="255582470"/>
    <nd ref="255582471"/>
    <nd ref="255582472"/>
    <nd ref="255582473"/>
    <nd ref="255582481"/>
    <nd ref="255582482"/>
    <nd ref="255582483"/>
    <nd ref="255582442"/>
    <tag k="addr:housenumber" v="2"/>
    <tag k="addr:street" v="Banacha"/>
    <tag k="building" v="hall"/>
    <tag k="created_by" v="JOSM"/>
    <tag k="name" v="Wydział Matematyki, Informatyki i Mechaniki UW"/>
    <tag k="ref" v="3320"/>
  </way>
  <way id="23599997" version="5" timestamp="2008-10-07T17:08:29Z" uid="20587" user="balrog-kun" changeset="135180">
    <nd ref="255582442"/>
    <nd ref="255582494"/>
    <nd ref="255582443"/>
    <nd ref="255582455"/>
    <nd ref="255582462"/>
    <nd ref="255582463"/>
    <nd ref="255582464"/>
    <nd ref="255582465"/>
    <nd ref="255582466"/>
    <nd ref="255582467"/>
    <nd ref="255582468"/>
    <nd ref="255582469"/>
    <nd ref="255582470"/>
    <nd ref="255582471"/>
    <nd ref="255582472"/>
    <nd ref="255582473"/>
    <nd ref="255582481"/>
    <nd ref="255582482"/>
    <nd ref="255582483"/>
    <nd ref="255582442"/>
    <tag k="addr:street" v="Banacha"/>
    <tag k="building" v="hall"/>
    <tag k="created_by" v="JOSM"/>
    <tag k="name" v="Wydział Matematyki, Informatyki i Mechaniki UW"/>
    <tag k="ref" v="3320"/>
  </way>
  <way id="23599997" version="6" timestamp="2008-10-07T18:08:17Z" uid="20587" user="balrog-kun" changeset="135180">
    <nd ref="255582442"/>
    <nd ref="255582494"/>
    <nd ref="255582443"/>
    <nd ref="255582455"/>
    <nd ref="255582462"/>
    <nd ref="255582463"/>
    <nd ref="255582464"/>
    <nd ref="255582465"/>
    <nd ref="255582466"/>
    <nd ref="255582467"/>
    <nd ref="255582468"/>
    <nd ref="255582469"/>
    <nd ref="255582470"/>
    <nd ref="255582471"/>
    <nd ref="255582472"/>
    <nd ref="255582473"/>
    <nd ref="255582481"/>
    <nd ref="255582482"/>
    <nd ref="255582483"/>
    <nd ref="255582442"/>
    <tag k="addr:housenumber" v="2"/>
    <tag k="addr:street" v="Banacha"/>
    <tag k="building" v="hall"/>
    <tag k="created_by" v="JOSM"/>
    <tag k="name" v="Wydział Matematyki, Informatyki i Mechaniki UW"/>
    <tag k="ref" v="3320"/>
  </way>
  <way id="23599997" version="7" timestamp="2009-01-05T14:15:27Z" uid="20587" user="balrog-kun" changeset="737820">
    <nd ref="255582442"/>
    <nd ref="255582494"/>
    <nd ref="255582443"/>
    <nd ref="255582455"/>
    <nd ref="255582462"/>
    <nd ref="255582463"/>
    <nd ref="255582464"/>
    <nd ref="255582465"/>
    <nd ref="255582466"/>
    <nd ref="255582467"/>
    <nd ref="255582468"/>
    <nd ref="255582469"/>
    <nd ref="255582470"/>
    <nd ref="255582471"/>
    <nd ref="255582472"/>
    <nd ref="255582473"/>
    <nd ref="255582481"/>
    <nd ref="255582482"/>
    <nd ref="255582483"/>
    <nd ref="255582442"/>
    <tag k="addr:housenumber" v="2"/>
    <tag k="addr:street" v="Banacha"/>
    <tag k="building" v="hall"/>
    <tag k="building:levels" v="6"/>
    <tag k="created_by" v="JOSM"/>
    <tag k="name" v="Wydział Matematyki, Informatyki i Mechaniki UW"/>
    <tag k="ref" v="3320"/>
  </way>
  <way id="23599997" version="8" timestamp="2009-01-06T11:08:23Z" uid="20587" user="balrog-kun" changeset="743955">
    <nd ref="255582442"/>
    <nd ref="255582494"/>
    <nd ref="255582443"/>
    <nd ref="255582455"/>
    <nd ref="255582462"/>
    <nd ref="255582463"/>
    <nd ref="255582464"/>
    <nd ref="255582465"/>
    <nd ref="255582466"/>
    <nd ref="255582467"/>
    <nd ref="255582468"/>
    <nd ref="255582469"/>
    <nd ref="255582470"/>
    <nd ref="255582471"/>
    <nd ref="255582472"/>
    <nd ref="255582473"/>
    <nd ref="255582481"/>
    <nd ref="255582482"/>
    <nd ref="255582483"/>
    <nd ref="255582442"/>
    <tag k="addr:housenumber" v="2"/>
    <tag k="addr:street" v="Banacha"/>
    <tag k="building" v="hall"/>
    <tag k="building:levels" v="6"/>
    <tag k="created_by" v="JOSM"/>
    <tag k="name" v="Wydział Matematyki, Informatyki i Mechaniki UW"/>
    <tag k="ref" v="3320"/>
    <tag k="wikipedia:pl" v="Wydział Matematyki, Informatyki i Mechaniki Uniwersytetu Warszawskiego"/>
  </way>
  <way id="23599997" version="9" timestamp="2009-01-06T12:59:51Z" uid="20587" user="balrog-kun" changeset="745301">
    <nd ref="255582442"/>
    <nd ref="255582494"/>
    <nd ref="255582443"/>
    <nd ref="255582455"/>
    <nd ref="255582462"/>
    <nd ref="255582463"/>
    <nd ref="255582464"/>
    <nd ref="255582465"/>
    <nd ref="255582466"/>
    <nd ref="255582467"/>
    <nd ref="255582468"/>
    <nd ref="255582469"/>
    <nd ref="255582470"/>
    <nd ref="255582471"/>
    <nd ref="255582472"/>
    <nd ref="255582473"/>
    <nd ref="255582481"/>
    <nd ref="255582482"/>
    <nd ref="255582483"/>
    <nd ref="255582442"/>
    <tag k="addr:housenumber" v="2"/>
    <tag k="addr:street" v="Banacha"/>
    <tag k="building" v="hall"/>
    <tag k="building:levels" v="5"/>
    <tag k="created_by" v="JOSM"/>
    <tag k="name" v="Wydział Matematyki, Informatyki i Mechaniki UW"/>
    <tag k="ref" v="3320"/>
    <tag k="wikipedia:pl" v="Wydział Matematyki, Informatyki i Mechaniki Uniwersytetu Warszawskiego"/>
  </way>
  <way id="23599997" version="10" timestamp="2010-03-31T14:21:20Z" uid="175746" user="RafalR" changeset="4285724">
    <nd ref="255582442"/>
    <nd ref="255582494"/>
    <nd ref="255582443"/>
    <nd ref="255582455"/>
    <nd ref="255582462"/>
    <nd ref="255582463"/>
    <nd ref="255582464"/>
    <nd ref="255582465"/>
    <nd ref="255582466"/>
    <nd ref="255582467"/>
    <nd ref="255582468"/>
    <nd ref="255582469"/>
    <nd ref="255582470"/>
    <nd ref="255582471"/>
    <nd ref="255582472"/>
    <nd ref="255582473"/>
    <nd ref="255582481"/>
    <nd ref="255582482"/>
    <nd ref="255582483"/>
    <nd ref="255582442"/>
    <tag k="addr:housenumber" v="2"/>
    <tag k="addr:street" v="Stefana Banacha"/>
    <tag k="building" v="hall"/>
    <tag k="building:levels" v="5"/>
    <tag k="name" v="Wydział Matematyki, Informatyki i Mechaniki UW"/>
    <tag k="ref" v="3320"/>
    <tag k="wikipedia:pl" v="Wydział Matematyki, Informatyki i Mechaniki Uniwersytetu Warszawskiego"/>
  </way>
</osm>
