<?xml version='1.0' encoding='UTF-8'?>
<osm version="0.6" generator="libosmium/2.20.0">
  <way id="23608005" version="2" timestamp="2008-12-24T11:52:33Z" uid="11308" user="samc" changeset="587365">
    <nd ref="255685552"/>
    <nd ref="255685581"/>
    <nd ref="255685582"/>
    <nd ref="255685583"/>
    <nd ref="255685584"/>
    <tag k="created_by" v="Potlatch 0.8a"/>
    <tag k="highway" v="residential"/>
    <tag k="name" v="Vale Avenue"/>
  </way>
  <way id="23608005" version="3" timestamp="2010-07-08T03:24:19Z" uid="74617" user="JohnSmith" changeset="5163091">
    <nd ref="255685552"/>
    <nd ref="255685581"/>
    <nd ref="255685582"/>
    <nd ref="255685583"/>
    <nd ref="255685584"/>
    <tag k="highway" v="residential"/>
    <tag k="maxspeed" v="50"/>
    <tag k="maxspeed:source" v="default residential speed limit in Australia"/>
    <tag k="name" v="Vale Avenue"/>
  </way>
  <way id="23608005" version="4" timestamp="2012-01-16T04:21:47Z" uid="147510" user="woodpeck_fixbot" changeset="10405303">
    <nd ref="255685552"/>
    <nd ref="255685581"/>
    <nd ref="255685582"/>
    <nd ref="255685583"/>
    <nd ref="255685584"/>
    <tag k="highway" v="residential"/>
    <tag k="name" v="Vale Avenue"/>
  </way>
  <way id="23608022" version="2" timestamp="2008-12-24T11:52:33Z" uid="11308" user="samc" changeset="587365">
    <nd ref="255685603"/>
    <nd ref="255685607"/>
    <nd ref="255685608"/>
    <nd ref="255685609"/>
    <nd ref="255685610"/>
    <nd ref="255685611"/>
    <tag k="created_by" v="Potlatch 0.8a"/>
    <tag k="highway" v="residential"/>
    <tag k="name" v="Austral Avenue"/>
  </way>
  <way id="23608022" version="3" timestamp="2010-07-08T03:24:08Z" uid="74617" user="JohnSmith" changeset="5163091">
    <nd ref="255685603"/>
    <nd ref="255685607"/>
    <nd ref="255685608"/>
    <nd ref="255685609"/>
    <nd ref="255685610"/>
    <nd ref="255685611"/>
    <tag k="highway" v="residential"/>
    <tag k="maxspeed" v="50"/>
    <tag k="maxspeed:source" v="default residential speed limit in Australia"/>
    <tag k="name" v="Austral Avenue"/>
  </way>
  <way id="23608022" version="4" timestamp="2011-04-02T21:39:03Z" uid="7617" user="Franc" changeset="7748711">
    <nd ref="255685603"/>
    <nd ref="255685607"/>
    <nd ref="1229878403"/>
    <nd ref="1229878898"/>
    <nd ref="255685608"/>
    <nd ref="255685609"/>
    <nd ref="1229878684"/>
    <nd ref="255685610"/>
    <nd ref="255685611"/>
    <tag k="highway" v="residential"/>
    <tag k="maxspeed" v="50"/>
    <tag k="maxspeed:source" v="default residential speed limit in Australia"/>
    <tag k="name" v="Austral Avenue"/>
  </way>
  <way id="23608022" version="5" timestamp="2012-01-16T04:21:48Z" uid="147510" user="woodpeck_fixbot" changeset="10405303">
    <nd ref="255685603"/>
    <nd ref="255685607"/>
    <nd ref="1229878403"/>
    <nd ref="1229878898"/>
    <nd ref="255685608"/>
    <nd ref="255685609"/>
    <nd ref="1229878684"/>
    <nd ref="255685610"/>
    <nd ref="255685611"/>
    <tag k="highway" v="residential"/>
    <tag k="name" v="Austral Avenue"/>
  </way>
  <way id="23608025" version="3" timestamp="2010-05-16T08:20:55Z" uid="4467" user="Rosscoe" changeset="4714199">
    <nd ref="34916566"/>
    <nd ref="688290068"/>
    <nd ref="736074299"/>
    <nd ref="736074112"/>
    <nd ref="736074287"/>
    <tag k="highway" v="residential"/>
    <tag k="name" v="Ficus Avenue"/>
    <tag k="source" v="nearmap"/>
  </way>
  <way id="23608025" version="4" timestamp="2010-07-08T03:24:01Z" uid="74617" user="JohnSmith" changeset="5163091">
    <nd ref="34916566"/>
    <nd ref="688290068"/>
    <nd ref="736074299"/>
    <nd ref="736074112"/>
    <nd ref="736074287"/>
    <tag k="highway" v="residential"/>
    <tag k="maxspeed" v="50"/>
    <tag k="maxspeed:source" v="default residential speed limit in Australia"/>
    <tag k="name" v="Ficus Avenue"/>
    <tag k="source" v="nearmap"/>
  </way>
  <way id="23608025" version="5" timestamp="2012-01-16T04:21:50Z" uid="147510" user="woodpeck_fixbot" changeset="10405303">
    <nd ref="34916566"/>
    <nd ref="688290068"/>
    <nd ref="736074299"/>
    <nd ref="736074112"/>
    <nd ref="736074287"/>
    <tag k="highway" v="residential"/>
    <tag k="name" v="Ficus Avenue"/>
    <tag k="source" v="nearmap"/>
  </way>
  <way id="23608034" version="4" timestamp="2010-07-08T03:26:15Z" uid="74617" user="JohnSmith" changeset="5163091">
    <nd ref="255685657"/>
    <nd ref="268960982"/>
    <nd ref="255685658"/>
    <tag k="highway" v="residential"/>
    <tag k="maxspeed" v="50"/>
    <tag k="maxspeed:source" v="default residential speed limit in Australia"/>
    <tag k="name" v="Ocean Street"/>
  </way>
  <way id="23608034" version="5" timestamp="2012-01-16T04:21:52Z" uid="147510" user="woodpeck_fixbot" changeset="10405303">
    <nd ref="255685657"/>
    <nd ref="268960982"/>
    <nd ref="255685658"/>
    <tag k="highway" v="residential"/>
    <tag k="name" v="Ocean Street"/>
  </way>
  <way id="23608035" version="4" timestamp="2010-07-08T03:23:58Z" uid="74617" user="JohnSmith" changeset="5163091">
    <nd ref="255685663"/>
    <nd ref="268960914"/>
    <nd ref="255685664"/>
    <nd ref="255685665"/>
    <nd ref="255685666"/>
    <nd ref="255685667"/>
    <nd ref="255685668"/>
    <nd ref="255685669"/>
    <nd ref="255685670"/>
    <tag k="highway" v="residential"/>
    <tag k="maxspeed" v="50"/>
    <tag k="maxspeed:source" v="default residential speed limit in Australia"/>
    <tag k="name" v="Bareena Avenue"/>
  </way>
  <way id="23608035" version="5" timestamp="2012-01-16T04:21:53Z" uid="147510" user="woodpeck_fixbot" changeset="10405303">
    <nd ref="255685663"/>
    <nd ref="268960914"/>
    <nd ref="255685664"/>
    <nd ref="255685665"/>
    <nd ref="255685666"/>
    <nd ref="255685667"/>
    <nd ref="255685668"/>
    <nd ref="255685669"/>
    <nd ref="255685670"/>
    <tag k="highway" v="residential"/>
    <tag k="name" v="Bareena Avenue"/>
  </way>
  <way id="23608038" version="5" timestamp="2010-07-08T03:25:04Z" uid="74617" user="JohnSmith" changeset="5163091">
    <nd ref="255685698"/>
    <nd ref="255685663"/>
    <nd ref="255685658"/>
    <nd ref="268960910"/>
    <nd ref="255685699"/>
    <nd ref="255685700"/>
    <nd ref="255685701"/>
    <nd ref="255685702"/>
    <nd ref="268960999"/>
    <nd ref="255685703"/>
    <nd ref="255685704"/>
    <nd ref="255685705"/>
    <nd ref="255685706"/>
    <nd ref="255685707"/>
    <nd ref="34916384"/>
    <tag k="highway" v="residential"/>
    <tag k="maxspeed" v="50"/>
    <tag k="maxspeed:source" v="default residential speed limit in Australia"/>
    <tag k="name" v="Tramway Road"/>
  </way>
  <way id="23608038" version="6" timestamp="2012-01-16T04:21:55Z" uid="147510" user="woodpeck_fixbot" changeset="10405303">
    <nd ref="255685698"/>
    <nd ref="255685663"/>
    <nd ref="255685658"/>
    <nd ref="268960910"/>
    <nd ref="255685699"/>
    <nd ref="255685700"/>
    <nd ref="255685701"/>
    <nd ref="255685702"/>
    <nd ref="268960999"/>
    <nd ref="255685703"/>
    <nd ref="255685704"/>
    <nd ref="255685705"/>
    <nd ref="255685706"/>
    <nd ref="255685707"/>
    <nd ref="34916384"/>
    <tag k="highway" v="residential"/>
    <tag k="name" v="Tramway Road"/>
  </way>
  <way id="23608042" version="2" timestamp="2010-01-25T08:13:55Z" uid="30201" user="rrankin" changeset="3708756">
    <nd ref="255685734"/>
    <nd ref="255685735"/>
    <nd ref="255685737"/>
    <nd ref="255685738"/>
    <nd ref="255685739"/>
    <nd ref="255685740"/>
    <nd ref="255685743"/>
    <nd ref="255685744"/>
    <nd ref="255685745"/>
    <tag k="access" v="private"/>
    <tag k="highway" v="service"/>
    <tag k="source" v="survey"/>
  </way>
  <way id="23608045" version="4" timestamp="2008-05-11T15:10:46Z" uid="8328" user="benpre" changeset="418237">
    <nd ref="244040532"/>
    <nd ref="244043825"/>
    <nd ref="244043814"/>
    <nd ref="244043607"/>
    <nd ref="244043790"/>
    <nd ref="244043789"/>
    <nd ref="244039250"/>
    <nd ref="244043788"/>
    <nd ref="244043787"/>
    <nd ref="244043786"/>
    <nd ref="244043785"/>
    <nd ref="244043800"/>
    <nd ref="244043797"/>
    <nd ref="244043794"/>
    <nd ref="244043793"/>
    <nd ref="244043773"/>
    <nd ref="244043776"/>
    <nd ref="244043769"/>
    <nd ref="244043771"/>
    <nd ref="244043781"/>
    <tag k="created_by" v="JOSM"/>
    <tag k="highway" v="unclassified"/>
    <tag k="merano:way_id" v="332"/>
    <tag k="name" v="Meinhardstrasse / Via Mainardo"/>
    <tag k="name:de" v="Meinhardstrasse"/>
    <tag k="name:it" v="Via Mainardo"/>
  </way>
  <way id="23608045" version="5" timestamp="2008-08-01T08:40:19Z" uid="46925" user="mrgrass" changeset="14697">
    <nd ref="244040532"/>
    <nd ref="244043825"/>
    <nd ref="244043607"/>
    <nd ref="244043790"/>
    <nd ref="244039250"/>
    <nd ref="244043787"/>
    <nd ref="244043785"/>
    <nd ref="244043800"/>
    <nd ref="244043797"/>
    <nd ref="244043794"/>
    <nd ref="244043793"/>
    <nd ref="244043773"/>
    <nd ref="244043776"/>
    <nd ref="244043769"/>
    <nd ref="244043781"/>
    <tag k="created_by" v="JOSM"/>
    <tag k="highway" v="unclassified"/>
    <tag k="merano:way_id" v="332"/>
    <tag k="name" v="Meinhardstrasse / Via Mainardo"/>
    <tag k="name:de" v="Meinhardstrasse"/>
    <tag k="name:it" v="Via Mainardo"/>
  </way>
  <way id="23608045" version="6" timestamp="2009-02-17T21:43:12Z" uid="92334" user="airwolf" changeset="522319">
    <nd ref="244040532"/>
    <nd ref="244043825"/>
    <nd ref="244043607"/>
    <nd ref="244043790"/>
    <nd ref="244039250"/>
    <nd ref="244043787"/>
    <nd ref="244043785"/>
    <nd ref="244043800"/>
    <nd ref="244043797"/>
    <nd ref="244043794"/>
    <nd ref="244043793"/>
    <nd ref="244043773"/>
    <nd ref="244043776"/>
    <nd ref="244043769"/>
    <tag k="created_by" v="Potlatch 0.10f"/>
    <tag k="highway" v="unclassified"/>
    <tag k="merano:way_id" v="332"/>
    <tag k="name" v="Meinhardstrasse / Via Mainardo"/>
    <tag k="name:de" v="Meinhardstrasse"/>
    <tag k="name:it" v="Via Mainardo"/>
  </way>
  <way id="23608045" version="7" timestamp="2009-02-17T21:43:14Z" uid="92334" user="airwolf" changeset="522319">
    <nd ref="244040532"/>
    <nd ref="244043825"/>
    <nd ref="244043607"/>
    <nd ref="244043790"/>
    <nd ref="244039250"/>
    <nd ref="244043787"/>
    <nd ref="244043785"/>
    <nd ref="244043800"/>
    <nd ref="244043797"/>
    <nd ref="244043794"/>
    <nd ref="244043793"/>
    <nd ref="244043773"/>
    <tag k="created_by" v="Potlatch 0.10f"/>
    <tag k="highway" v="unclassified"/>
    <tag k="merano:way_id" v="332"/>
    <tag k="name" v="Meinhardstrasse / Via Mainardo"/>
    <tag k="name:de" v="Meinhardstrasse"/>
    <tag k="name:it" v="Via Mainardo"/>
  </way>
  <way id="23608045" version="8" timestamp="2009-03-01T00:33:22Z" uid="42429" user="FK270673" changeset="706515">
    <nd ref="244040532"/>
    <nd ref="244043825"/>
    <nd ref="244043607"/>
    <nd ref="244043790"/>
    <nd ref="244039250"/>
    <nd ref="244043787"/>
    <nd ref="244043785"/>
    <nd ref="244043800"/>
    <nd ref="244043797"/>
    <nd ref="244043794"/>
    <nd ref="244043793"/>
    <nd ref="244043773"/>
    <tag k="created_by" v="Potlatch 0.10f"/>
    <tag k="highway" v="unclassified"/>
    <tag k="merano:way_id" v="332"/>
    <tag k="name" v="Meinhardstraße / Via Mainardo"/>
    <tag k="name:de" v="Meinhardstraße"/>
    <tag k="name:it" v="Via Mainardo"/>
  </way>
  <way id="23608045" version="9" timestamp="2009-10-14T00:02:40Z" uid="36809" user="pfoten_weg_!_" changeset="2841284">
    <nd ref="244040532"/>
    <nd ref="244043825"/>
    <nd ref="244043607"/>
    <nd ref="244043790"/>
    <nd ref="244039250"/>
    <nd ref="244043787"/>
    <nd ref="244043785"/>
    <nd ref="244043800"/>
    <nd ref="244043797"/>
    <nd ref="244043794"/>
    <nd ref="244043793"/>
    <nd ref="244043773"/>
    <tag k="highway" v="unclassified"/>
    <tag k="merano:way_id" v="332"/>
    <tag k="name" v="Meinhardstraße / Via Mainardo"/>
    <tag k="name:de" v="Meinhardstraße"/>
    <tag k="name:it" v="Via Mainardo"/>
  </way>
  <way id="23608045" version="10" timestamp="2011-03-26T08:46:06Z" uid="42429" user="FK270673" changeset="7673031">
    <nd ref="244043773"/>
    <nd ref="244043793"/>
    <nd ref="244043794"/>
    <nd ref="244043797"/>
    <nd ref="244043800"/>
    <nd ref="244043785"/>
    <nd ref="244043787"/>
    <nd ref="244039250"/>
    <tag k="highway" v="unclassified"/>
    <tag k="lit" v="yes"/>
    <tag k="maxspeed" v="30"/>
    <tag k="merano:way_id" v="332"/>
    <tag k="name" v="Meinhardstraße / Via Mainardo"/>
    <tag k="name:de" v="Meinhardstraße"/>
    <tag k="name:it" v="Via Mainardo"/>
  </way>
  <way id="23608045" version="11" timestamp="2011-09-07T13:41:12Z" uid="66497" user="seichter" changeset="9237071">
    <nd ref="244043773"/>
    <nd ref="244043793"/>
    <nd ref="244043794"/>
    <nd ref="244043797"/>
    <nd ref="244043800"/>
    <nd ref="244043785"/>
    <nd ref="244043787"/>
    <nd ref="244039250"/>
    <tag k="highway" v="residential"/>
    <tag k="lit" v="yes"/>
    <tag k="maxspeed" v="30"/>
    <tag k="merano:way_id" v="332"/>
    <tag k="name" v="Meinhardstraße / Via Mainardo"/>
    <tag k="name:de" v="Meinhardstraße"/>
    <tag k="name:it" v="Via Mainardo"/>
  </way>
  <way id="23608045" version="12" timestamp="2012-03-03T15:59:41Z" uid="606933" user="immaterial" changeset="10859155">
    <nd ref="244043773"/>
    <nd ref="244043793"/>
    <nd ref="244043794"/>
    <nd ref="244043797"/>
    <nd ref="244043800"/>
    <nd ref="244043785"/>
    <nd ref="244043787"/>
    <nd ref="244039250"/>
    <tag k="highway" v="residential"/>
    <tag k="lit" v="yes"/>
    <tag k="maxspeed" v="30"/>
    <tag k="merano:way_id" v="332"/>
    <tag k="name" v="Meinhardstraße - Via Mainardo"/>
    <tag k="name:de" v="Meinhardstraße"/>
    <tag k="name:it" v="Via Mainardo"/>
  </way>
  <way id="23608046" version="9" timestamp="2009-10-14T00:02:40Z" uid="36809" user="pfoten_weg_!_" changeset="2841284">
    <nd ref="244048671"/>
    <nd ref="442345783"/>
    <nd ref="244053046"/>
    <nd ref="244053051"/>
    <nd ref="244053052"/>
    <nd ref="244053050"/>
    <nd ref="244043617"/>
    <nd ref="244039415"/>
    <nd ref="244052994"/>
    <nd ref="244052973"/>
    <nd ref="244052979"/>
    <nd ref="421929342"/>
    <nd ref="244052899"/>
    <nd ref="244046826"/>
    <nd ref="244052872"/>
    <nd ref="244052839"/>
    <tag k="highway" v="secondary"/>
    <tag k="merano:way_id" v="208"/>
    <tag k="name" v="J. W. Goethe-Straße / Via J. W. Goethe"/>
    <tag k="name:de" v="J. W. Goethe-Straße"/>
    <tag k="name:it" v="Via J. W. Goethe"/>
  </way>
  <way id="23608046" version="10" timestamp="2010-02-01T13:41:36Z" uid="104458" user="Pixt" changeset="3767672">
    <nd ref="244048671"/>
    <nd ref="442345783"/>
    <nd ref="244053046"/>
    <nd ref="244053051"/>
    <nd ref="244053052"/>
    <nd ref="244053050"/>
    <nd ref="244043617"/>
    <nd ref="244039415"/>
    <nd ref="244052994"/>
    <nd ref="244052973"/>
    <nd ref="244052979"/>
    <nd ref="421929342"/>
    <nd ref="244052899"/>
    <nd ref="244046826"/>
    <nd ref="244052872"/>
    <nd ref="244052892"/>
    <nd ref="244052839"/>
    <tag k="highway" v="secondary"/>
    <tag k="merano:way_id" v="208"/>
    <tag k="name" v="J. W. Goethe-Straße / Via J. W. Goethe"/>
    <tag k="name:de" v="J. W. Goethe-Straße"/>
    <tag k="name:it" v="Via J. W. Goethe"/>
  </way>
  <way id="23608046" version="11" timestamp="2010-04-13T17:36:30Z" uid="152676" user="pfranz" changeset="4415942">
    <nd ref="244048671"/>
    <nd ref="442345783"/>
    <nd ref="244053046"/>
    <nd ref="244053051"/>
    <nd ref="244053052"/>
    <nd ref="244053050"/>
    <nd ref="244043617"/>
    <nd ref="244039415"/>
    <nd ref="244052994"/>
    <nd ref="664587163"/>
    <nd ref="244052973"/>
    <nd ref="244052979"/>
    <nd ref="421929342"/>
    <nd ref="244052899"/>
    <nd ref="244046826"/>
    <nd ref="244052872"/>
    <nd ref="244052892"/>
    <nd ref="244052839"/>
    <tag k="highway" v="secondary"/>
    <tag k="merano:way_id" v="208"/>
    <tag k="name" v="J. W. Goethe-Straße / Via J. W. Goethe"/>
    <tag k="name:de" v="J. W. Goethe-Straße"/>
    <tag k="name:it" v="Via J. W. Goethe"/>
  </way>
  <way id="23608046" version="12" timestamp="2011-03-26T08:46:19Z" uid="42429" user="FK270673" changeset="7673031">
    <nd ref="244052839"/>
    <nd ref="244052892"/>
    <nd ref="244052872"/>
    <nd ref="244046826"/>
    <nd ref="244052899"/>
    <nd ref="421929342"/>
    <nd ref="244052979"/>
    <nd ref="244052973"/>
    <nd ref="664587163"/>
    <nd ref="244052994"/>
    <nd ref="244039415"/>
    <tag k="highway" v="secondary"/>
    <tag k="lit" v="yes"/>
    <tag k="maxspeed" v="50"/>
    <tag k="merano:way_id" v="208"/>
    <tag k="name" v="J. W. Goethe-Straße / Via J. W. Goethe"/>
    <tag k="name:de" v="J. W. Goethe-Straße"/>
    <tag k="name:it" v="Via J. W. Goethe"/>
  </way>
  <way id="23608046" version="13" timestamp="2011-11-26T11:05:43Z" uid="169411" user="Ubacher" changeset="9954090">
    <nd ref="244052839"/>
    <nd ref="244052892"/>
    <nd ref="244052872"/>
    <nd ref="244046826"/>
    <nd ref="244052899"/>
    <nd ref="421929342"/>
    <nd ref="244052979"/>
    <nd ref="244052973"/>
    <nd ref="664587163"/>
    <nd ref="1517578551"/>
    <nd ref="244052994"/>
    <nd ref="244039415"/>
    <tag k="highway" v="secondary"/>
    <tag k="lit" v="yes"/>
    <tag k="maxspeed" v="50"/>
    <tag k="merano:way_id" v="208"/>
    <tag k="name" v="J. W. Goethe-Straße / Via J. W. Goethe"/>
    <tag k="name:de" v="J. W. Goethe-Straße"/>
    <tag k="name:it" v="Via J. W. Goethe"/>
  </way>
  <way id="23608046" version="14" timestamp="2012-03-03T15:24:16Z" uid="606933" user="immaterial" changeset="10858837">
    <nd ref="244052839"/>
    <nd ref="244052892"/>
    <nd ref="244052872"/>
    <nd ref="244046826"/>
    <nd ref="244052899"/>
    <nd ref="421929342"/>
    <nd ref="244052979"/>
    <nd ref="244052973"/>
    <nd ref="664587163"/>
    <nd ref="1517578551"/>
    <nd ref="244052994"/>
    <nd ref="244039415"/>
    <tag k="highway" v="secondary"/>
    <tag k="lit" v="yes"/>
    <tag k="maxspeed" v="50"/>
    <tag k="merano:way_id" v="208"/>
    <tag k="name" v="J.-W.-Goethe-Straße - Via J. W. Goethe"/>
    <tag k="name:de" v="J. W. Goethe-Straße"/>
    <tag k="name:it" v="Via J. W. Goethe"/>
  </way>
  <way id="23608047" version="5" timestamp="2009-10-14T00:03:00Z" uid="36809" user="pfoten_weg_!_" changeset="2841284">
    <nd ref="244039166"/>
    <nd ref="244039199"/>
    <nd ref="244039207"/>
    <nd ref="442345956"/>
    <nd ref="244039221"/>
    <nd ref="244039224"/>
    <nd ref="244039226"/>
    <nd ref="244048671"/>
    <tag k="highway" v="tertiary"/>
    <tag k="merano:way_id" v="112"/>
    <tag k="name" v="Rennweg / Via Delle Corse"/>
    <tag k="name:de" v="Rennweg"/>
    <tag k="name:it" v="Via Delle Corse"/>
  </way>
  <way id="23608047" version="6" timestamp="2010-07-23T20:45:10Z" uid="236878" user="pietro" changeset="5298788">
    <nd ref="244039166"/>
    <nd ref="830590184"/>
    <nd ref="244039199"/>
    <nd ref="244039207"/>
    <nd ref="442345956"/>
    <nd ref="244039221"/>
    <nd ref="244039224"/>
    <nd ref="244039226"/>
    <nd ref="244048671"/>
    <tag k="highway" v="tertiary"/>
    <tag k="merano:way_id" v="112"/>
    <tag k="name" v="Rennweg / Via Delle Corse"/>
    <tag k="name:de" v="Rennweg"/>
    <tag k="name:it" v="Via Delle Corse"/>
  </way>
  <way id="23608047" version="7" timestamp="2011-03-26T08:46:07Z" uid="42429" user="FK270673" changeset="7673031">
    <nd ref="244039166"/>
    <nd ref="830590184"/>
    <nd ref="244039199"/>
    <nd ref="244039207"/>
    <nd ref="442345956"/>
    <nd ref="244039221"/>
    <nd ref="244039224"/>
    <nd ref="244039226"/>
    <nd ref="244048671"/>
    <tag k="highway" v="tertiary"/>
    <tag k="lit" v="yes"/>
    <tag k="maxspeed" v="30"/>
    <tag k="merano:way_id" v="112"/>
    <tag k="name" v="Rennweg / Via Delle Corse"/>
    <tag k="name:de" v="Rennweg"/>
    <tag k="name:it" v="Via Delle Corse"/>
  </way>
  <way id="23608047" version="8" timestamp="2011-09-22T21:33:38Z" uid="412390" user="MrWebber" changeset="9372777">
    <nd ref="244039166"/>
    <nd ref="830590184"/>
    <nd ref="244039199"/>
    <nd ref="244039207"/>
    <nd ref="442345956"/>
    <nd ref="244039221"/>
    <nd ref="244039224"/>
    <nd ref="244039226"/>
    <nd ref="244048671"/>
    <tag k="highway" v="secondary"/>
    <tag k="lit" v="yes"/>
    <tag k="maxspeed" v="30"/>
    <tag k="merano:way_id" v="112"/>
    <tag k="name" v="Rennweg / Via Delle Corse"/>
    <tag k="name:de" v="Rennweg"/>
    <tag k="name:it" v="Via Delle Corse"/>
  </way>
  <way id="23608047" version="9" timestamp="2012-03-03T15:59:42Z" uid="606933" user="immaterial" changeset="10859155">
    <nd ref="244039166"/>
    <nd ref="830590184"/>
    <nd ref="244039199"/>
    <nd ref="244039207"/>
    <nd ref="442345956"/>
    <nd ref="244039221"/>
    <nd ref="244039224"/>
    <nd ref="244039226"/>
    <nd ref="244048671"/>
    <tag k="highway" v="secondary"/>
    <tag k="lit" v="yes"/>
    <tag k="maxspeed" v="30"/>
    <tag k="merano:way_id" v="112"/>
    <tag k="name" v="Rennweg - Via delle Corse"/>
    <tag k="name:de" v="Rennweg"/>
    <tag k="name:it" v="Via Delle Corse"/>
  </way>
  <way id="23608048" version="2" timestamp="2008-05-11T15:11:12Z" uid="8328" user="benpre" changeset="418237">
    <nd ref="244039450"/>
    <nd ref="244039451"/>
    <nd ref="244039481"/>
    <nd ref="244039457"/>
    <nd ref="244039467"/>
    <nd ref="255685797"/>
    <nd ref="244039847"/>
    <tag k="created_by" v="JOSM"/>
    <tag k="highway" v="unclassified"/>
    <tag k="merano:way_id" v="128"/>
    <tag k="name" v="G. Donizetti Strasse / Via G. Donizetti"/>
    <tag k="name:de" v="G. Donizetti Strasse"/>
    <tag k="name:it" v="Via G. Donizetti"/>
  </way>
  <way id="23608048" version="3" timestamp="2008-08-01T08:40:35Z" uid="46925" user="mrgrass" changeset="14697">
    <nd ref="244039450"/>
    <nd ref="244039451"/>
    <nd ref="244039481"/>
    <nd ref="244039457"/>
    <nd ref="244039467"/>
    <nd ref="244039847"/>
    <tag k="created_by" v="JOSM"/>
    <tag k="highway" v="unclassified"/>
    <tag k="merano:way_id" v="128"/>
    <tag k="name" v="G. Donizetti Strasse / Via G. Donizetti"/>
    <tag k="name:de" v="G. Donizetti Strasse"/>
    <tag k="name:it" v="Via G. Donizetti"/>
  </way>
  <way id="23608048" version="4" timestamp="2009-03-01T00:34:53Z" uid="42429" user="FK270673" changeset="706515">
    <nd ref="244039450"/>
    <nd ref="244039451"/>
    <nd ref="244039481"/>
    <nd ref="244039457"/>
    <nd ref="244039467"/>
    <nd ref="244039847"/>
    <tag k="created_by" v="Potlatch 0.10f"/>
    <tag k="highway" v="unclassified"/>
    <tag k="merano:way_id" v="128"/>
    <tag k="name" v="G. Donizetti Straße / Via G. Donizetti"/>
    <tag k="name:de" v="G. Donizetti Straße"/>
    <tag k="name:it" v="Via G. Donizetti"/>
  </way>
  <way id="23608048" version="5" timestamp="2009-10-14T00:03:15Z" uid="36809" user="pfoten_weg_!_" changeset="2841284">
    <nd ref="244039450"/>
    <nd ref="244039451"/>
    <nd ref="244039481"/>
    <nd ref="244039457"/>
    <nd ref="244039467"/>
    <nd ref="244039847"/>
    <tag k="highway" v="unclassified"/>
    <tag k="merano:way_id" v="128"/>
    <tag k="name" v="G. Donizetti Straße / Via G. Donizetti"/>
    <tag k="name:de" v="G. Donizetti Straße"/>
    <tag k="name:it" v="Via G. Donizetti"/>
  </way>
  <way id="23608048" version="6" timestamp="2011-09-07T13:40:58Z" uid="66497" user="seichter" changeset="9237071">
    <nd ref="244039450"/>
    <nd ref="244039451"/>
    <nd ref="244039481"/>
    <nd ref="244039457"/>
    <nd ref="244039467"/>
    <nd ref="244039847"/>
    <tag k="highway" v="residential"/>
    <tag k="merano:way_id" v="128"/>
    <tag k="name" v="G. Donizetti Straße / Via G. Donizetti"/>
    <tag k="name:de" v="G. Donizetti Straße"/>
    <tag k="name:it" v="Via G. Donizetti"/>
  </way>
  <way id="23608050" version="4" timestamp="2009-10-13T23:56:01Z" uid="36809" user="pfoten_weg_!_" changeset="2841284">
    <nd ref="244095257"/>
    <nd ref="244095252"/>
    <nd ref="244095247"/>
    <tag k="bridge" v="yes"/>
    <tag k="highway" v="trunk"/>
    <tag k="layer" v="1"/>
    <tag k="merano:way_id" v="996"/>
    <tag k="name" v="Mebo Schnellstrasse / Superstrada Mebo"/>
    <tag k="name:de" v="Mebo Schnellstrasse"/>
    <tag k="name:it" v="Superstrada Mebo"/>
    <tag k="oneway" v="yes"/>
    <tag k="ref" v="SS38"/>
  </way>
  <way id="23608078" version="8" timestamp="2010-07-08T03:25:12Z" uid="74617" user="JohnSmith" changeset="5163091">
    <nd ref="255685923"/>
    <nd ref="357515181"/>
    <nd ref="255685934"/>
    <nd ref="299444258"/>
    <nd ref="321933958"/>
    <nd ref="255685932"/>
    <nd ref="321933794"/>
    <nd ref="255685933"/>
    <tag k="highway" v="residential"/>
    <tag k="maxspeed" v="50"/>
    <tag k="maxspeed:source" v="default residential speed limit in Australia"/>
    <tag k="name" v="Bellbird Avenue"/>
  </way>
  <way id="23608078" version="9" timestamp="2011-04-02T23:47:32Z" uid="7617" user="Franc" changeset="7749406">
    <nd ref="255685923"/>
    <nd ref="357515181"/>
    <nd ref="255685934"/>
    <nd ref="299444258"/>
    <nd ref="321933958"/>
    <nd ref="255685932"/>
    <nd ref="1229996885"/>
    <nd ref="321933794"/>
    <nd ref="255685933"/>
    <tag k="highway" v="residential"/>
    <tag k="maxspeed" v="50"/>
    <tag k="maxspeed:source" v="default residential speed limit in Australia"/>
    <tag k="name" v="Bellbird Avenue"/>
  </way>
  <way id="23608078" version="10" timestamp="2012-01-02T12:30:17Z" uid="18713" user="Diego" changeset="10270142"/>
  <way id="23608080" version="5" timestamp="2010-07-08T03:25:09Z" uid="74617" user="JohnSmith" changeset="5163091">
    <nd ref="255685934"/>
    <nd ref="255685953"/>
    <nd ref="255685954"/>
    <nd ref="299444253"/>
    <nd ref="255685955"/>
    <nd ref="255685956"/>
    <nd ref="357514517"/>
    <nd ref="255685957"/>
    <nd ref="255685958"/>
    <tag k="highway" v="residential"/>
    <tag k="maxspeed" v="50"/>
    <tag k="maxspeed:source" v="default residential speed limit in Australia"/>
    <tag k="name" v="Havenview Road"/>
  </way>
  <way id="23608080" version="6" timestamp="2012-01-16T04:21:57Z" uid="147510" user="woodpeck_fixbot" changeset="10405303">
    <nd ref="255685934"/>
    <nd ref="255685953"/>
    <nd ref="255685954"/>
    <nd ref="299444253"/>
    <nd ref="255685955"/>
    <nd ref="255685956"/>
    <nd ref="357514517"/>
    <nd ref="255685957"/>
    <nd ref="255685958"/>
    <tag k="highway" v="residential"/>
    <tag k="name" v="Havenview Road"/>
  </way>
  <way id="23608081" version="3" timestamp="2010-07-08T03:26:51Z" uid="74617" user="JohnSmith" changeset="5163091">
    <nd ref="255685956"/>
    <nd ref="34916236"/>
    <tag k="highway" v="residential"/>
    <tag k="maxspeed" v="50"/>
    <tag k="maxspeed:source" v="default residential speed limit in Australia"/>
    <tag k="name" v="Junction Road"/>
  </way>
  <way id="23608081" version="4" timestamp="2012-01-16T04:21:58Z" uid="147510" user="woodpeck_fixbot" changeset="10405303">
    <nd ref="255685956"/>
    <nd ref="34916236"/>
    <tag k="highway" v="residential"/>
    <tag k="name" v="Junction Road"/>
  </way>
  <way id="23608085" version="3" timestamp="2010-07-08T03:25:38Z" uid="74617" user="JohnSmith" changeset="5163091">
    <nd ref="241806021"/>
    <nd ref="255685967"/>
    <nd ref="255685968"/>
    <tag k="highway" v="residential"/>
    <tag k="maxspeed" v="50"/>
    <tag k="maxspeed:source" v="default residential speed limit in Australia"/>
    <tag k="name" v="Pacific Street"/>
  </way>
  <way id="23608085" version="4" timestamp="2012-01-16T04:21:59Z" uid="147510" user="woodpeck_fixbot" changeset="10405303">
    <nd ref="241806021"/>
    <nd ref="255685967"/>
    <nd ref="255685968"/>
    <tag k="highway" v="residential"/>
    <tag k="name" v="Pacific Street"/>
  </way>
  <way id="23608090" version="11" timestamp="2010-02-11T03:42:37Z" uid="30201" user="rrankin" changeset="3845462">
    <nd ref="255685970"/>
    <nd ref="255685976"/>
    <nd ref="357516635"/>
    <nd ref="255686177"/>
    <nd ref="255685977"/>
    <nd ref="339575663"/>
    <nd ref="357516141"/>
    <nd ref="255685989"/>
    <nd ref="357516057"/>
    <nd ref="357515767"/>
    <nd ref="357515392"/>
    <nd ref="255685978"/>
    <nd ref="339574762"/>
    <nd ref="357515535"/>
    <nd ref="339574763"/>
    <nd ref="339574764"/>
    <tag k="highway" v="residential"/>
    <tag k="name" v="Hastings Road"/>
  </way>
  <way id="23608090" version="12" timestamp="2010-07-08T03:23:15Z" uid="74617" user="JohnSmith" changeset="5163091">
    <nd ref="255685970"/>
    <nd ref="255685976"/>
    <nd ref="357516635"/>
    <nd ref="255686177"/>
    <nd ref="255685977"/>
    <nd ref="339575663"/>
    <nd ref="357516141"/>
    <nd ref="255685989"/>
    <nd ref="357516057"/>
    <nd ref="357515767"/>
    <nd ref="357515392"/>
    <nd ref="255685978"/>
    <nd ref="339574762"/>
    <nd ref="357515535"/>
    <nd ref="339574763"/>
    <nd ref="339574764"/>
    <tag k="highway" v="residential"/>
    <tag k="maxspeed" v="50"/>
    <tag k="maxspeed:source" v="default residential speed limit in Australia"/>
    <tag k="name" v="Hastings Road"/>
  </way>
  <way id="23608090" version="13" timestamp="2011-04-03T00:32:12Z" uid="7617" user="Franc" changeset="7749551">
    <nd ref="255685970"/>
    <nd ref="1230007366"/>
    <nd ref="1230007356"/>
    <nd ref="255685976"/>
    <nd ref="357516635"/>
    <nd ref="255686177"/>
    <nd ref="339575663"/>
    <nd ref="357516141"/>
    <nd ref="255685989"/>
    <nd ref="357516057"/>
    <nd ref="357515767"/>
    <nd ref="1230007352"/>
    <nd ref="357515392"/>
    <nd ref="339574762"/>
    <nd ref="357515535"/>
    <nd ref="339574763"/>
    <nd ref="339574764"/>
    <tag k="highway" v="residential"/>
    <tag k="maxspeed" v="50"/>
    <tag k="maxspeed:source" v="default residential speed limit in Australia"/>
    <tag k="name" v="Hastings Road"/>
  </way>
  <way id="23608090" version="14" timestamp="2011-04-03T01:31:34Z" uid="7617" user="Franc" changeset="7749690">
    <nd ref="255685970"/>
    <nd ref="1230007366"/>
    <nd ref="1230007356"/>
    <nd ref="255685976"/>
    <nd ref="357516635"/>
    <nd ref="255686177"/>
    <nd ref="339575663"/>
    <nd ref="357516141"/>
    <nd ref="255685989"/>
    <nd ref="357516057"/>
    <nd ref="357515767"/>
    <nd ref="1230007352"/>
    <nd ref="357515392"/>
    <nd ref="339574762"/>
    <nd ref="357515535"/>
    <tag k="highway" v="residential"/>
    <tag k="maxspeed" v="50"/>
    <tag k="maxspeed:source" v="default residential speed limit in Australia"/>
    <tag k="name" v="Hastings Road"/>
  </way>
  <way id="23608090" version="15" timestamp="2012-01-16T04:22:01Z" uid="147510" user="woodpeck_fixbot" changeset="10405303">
    <nd ref="255685970"/>
    <nd ref="1230007366"/>
    <nd ref="1230007356"/>
    <nd ref="255685976"/>
    <nd ref="357516635"/>
    <nd ref="255686177"/>
    <nd ref="339575663"/>
    <nd ref="357516141"/>
    <nd ref="255685989"/>
    <nd ref="357516057"/>
    <nd ref="357515767"/>
    <nd ref="1230007352"/>
    <nd ref="357515392"/>
    <nd ref="339574762"/>
    <nd ref="357515535"/>
    <tag k="highway" v="residential"/>
    <tag k="name" v="Hastings Road"/>
  </way>
  <way id="23608092" version="4" timestamp="2010-07-08T03:25:30Z" uid="74617" user="JohnSmith" changeset="5163091">
    <nd ref="255685988"/>
    <nd ref="357515601"/>
    <nd ref="357515879"/>
    <nd ref="255685989"/>
    <tag k="highway" v="residential"/>
    <tag k="maxspeed" v="50"/>
    <tag k="maxspeed:source" v="default residential speed limit in Australia"/>
  </way>
  <way id="23608092" version="5" timestamp="2012-01-16T04:22:03Z" uid="147510" user="woodpeck_fixbot" changeset="10405303">
    <nd ref="255685988"/>
    <nd ref="357515601"/>
    <nd ref="357515879"/>
    <nd ref="255685989"/>
    <tag k="highway" v="residential"/>
  </way>
  <way id="23608094" version="7" timestamp="2010-07-08T03:26:06Z" uid="74617" user="JohnSmith" changeset="5163091">
    <nd ref="255686177"/>
    <nd ref="255686324"/>
    <nd ref="339575334"/>
    <nd ref="339575670"/>
    <nd ref="255686325"/>
    <nd ref="339575797"/>
    <nd ref="255686326"/>
    <nd ref="339575500"/>
    <nd ref="255686327"/>
    <tag k="highway" v="residential"/>
    <tag k="maxspeed" v="50"/>
    <tag k="maxspeed:source" v="default residential speed limit in Australia"/>
    <tag k="name" v="Aspen Avenue"/>
  </way>
  <way id="23608094" version="8" timestamp="2011-04-03T00:32:05Z" uid="7617" user="Franc" changeset="7749551">
    <nd ref="255686177"/>
    <nd ref="255686324"/>
    <nd ref="339575334"/>
    <nd ref="339575670"/>
    <nd ref="255686325"/>
    <nd ref="339575797"/>
    <nd ref="1230007368"/>
    <nd ref="255686326"/>
    <nd ref="339575500"/>
    <nd ref="255686327"/>
    <tag k="highway" v="residential"/>
    <tag k="maxspeed" v="50"/>
    <tag k="maxspeed:source" v="default residential speed limit in Australia"/>
    <tag k="name" v="Aspen Avenue"/>
  </way>
  <way id="23608094" version="9" timestamp="2012-01-16T04:22:04Z" uid="147510" user="woodpeck_fixbot" changeset="10405303">
    <nd ref="255686177"/>
    <nd ref="255686324"/>
    <nd ref="339575334"/>
    <nd ref="339575670"/>
    <nd ref="255686325"/>
    <nd ref="339575797"/>
    <nd ref="1230007368"/>
    <nd ref="255686326"/>
    <nd ref="339575500"/>
    <nd ref="255686327"/>
    <tag k="highway" v="residential"/>
    <tag k="name" v="Aspen Avenue"/>
  </way>
  <way id="23608099" version="5" timestamp="2010-02-11T03:42:40Z" uid="30201" user="rrankin" changeset="3845462">
    <nd ref="255686514"/>
    <nd ref="255686586"/>
    <nd ref="357513581"/>
    <nd ref="357513644"/>
    <nd ref="357513699"/>
    <nd ref="357513713"/>
    <nd ref="357513797"/>
    <nd ref="255686587"/>
    <tag k="highway" v="residential"/>
  </way>
  <way id="23608099" version="6" timestamp="2010-07-08T03:24:21Z" uid="74617" user="JohnSmith" changeset="5163091">
    <nd ref="255686514"/>
    <nd ref="255686586"/>
    <nd ref="357513581"/>
    <nd ref="357513644"/>
    <nd ref="357513699"/>
    <nd ref="357513713"/>
    <nd ref="357513797"/>
    <nd ref="255686587"/>
    <tag k="highway" v="residential"/>
    <tag k="maxspeed" v="50"/>
    <tag k="maxspeed:source" v="default residential speed limit in Australia"/>
  </way>
  <way id="23608099" version="7" timestamp="2012-01-16T04:22:05Z" uid="147510" user="woodpeck_fixbot" changeset="10405303">
    <nd ref="255686514"/>
    <nd ref="255686586"/>
    <nd ref="357513581"/>
    <nd ref="357513644"/>
    <nd ref="357513699"/>
    <nd ref="357513713"/>
    <nd ref="357513797"/>
    <nd ref="255686587"/>
    <tag k="highway" v="residential"/>
  </way>
  <way id="23608109" version="10" timestamp="2010-07-08T03:24:05Z" uid="74617" user="JohnSmith" changeset="5163091">
    <nd ref="255686591"/>
    <nd ref="255686595"/>
    <nd ref="357513764"/>
    <nd ref="357513910"/>
    <nd ref="255686604"/>
    <nd ref="357513848"/>
    <nd ref="255686671"/>
    <nd ref="268961171"/>
    <nd ref="255686596"/>
    <nd ref="268961387"/>
    <nd ref="255686597"/>
    <nd ref="241806035"/>
    <tag k="highway" v="residential"/>
    <tag k="maxspeed" v="50"/>
    <tag k="maxspeed:source" v="default residential speed limit in Australia"/>
    <tag k="name" v="Old Gosford Road"/>
  </way>
  <way id="23608109" version="11" timestamp="2012-01-16T04:22:06Z" uid="147510" user="woodpeck_fixbot" changeset="10405303">
    <nd ref="255686591"/>
    <nd ref="255686595"/>
    <nd ref="357513764"/>
    <nd ref="357513910"/>
    <nd ref="255686604"/>
    <nd ref="357513848"/>
    <nd ref="255686671"/>
    <nd ref="268961171"/>
    <nd ref="255686596"/>
    <nd ref="268961387"/>
    <nd ref="255686597"/>
    <nd ref="241806035"/>
    <tag k="highway" v="residential"/>
    <tag k="name" v="Old Gosford Road"/>
  </way>
  <way id="23608110" version="3" timestamp="2010-07-08T03:22:53Z" uid="74617" user="JohnSmith" changeset="5163091">
    <nd ref="255686602"/>
    <nd ref="268961199"/>
    <nd ref="255686603"/>
    <tag k="highway" v="residential"/>
    <tag k="maxspeed" v="50"/>
    <tag k="maxspeed:source" v="default residential speed limit in Australia"/>
  </way>
  <way id="23608110" version="4" timestamp="2011-09-05T04:00:16Z" uid="517172" user="Woodwa" changeset="9214172">
    <nd ref="255686602"/>
    <nd ref="268961199"/>
    <nd ref="255686603"/>
    <tag k="highway" v="residential"/>
    <tag k="maxspeed" v="50"/>
    <tag k="maxspeed:source" v="default residential speed limit in Australia"/>
    <tag k="name" v="Grove Rd"/>
  </way>
  <way id="23608110" version="5" timestamp="2012-01-16T04:22:08Z" uid="147510" user="woodpeck_fixbot" changeset="10405303">
    <nd ref="255686602"/>
    <nd ref="268961199"/>
    <nd ref="255686603"/>
    <tag k="highway" v="residential"/>
    <tag k="name" v="Grove Rd"/>
  </way>
  <way id="23608112" version="8" timestamp="2010-07-08T03:26:59Z" uid="74617" user="JohnSmith" changeset="5163091">
    <nd ref="255686604"/>
    <nd ref="255686602"/>
    <nd ref="255686587"/>
    <nd ref="255686621"/>
    <nd ref="268961200"/>
    <nd ref="255686622"/>
    <nd ref="268961226"/>
    <nd ref="268961224"/>
    <nd ref="357513952"/>
    <nd ref="255686663"/>
    <nd ref="255686623"/>
    <nd ref="357514412"/>
    <nd ref="255686624"/>
    <tag k="highway" v="residential"/>
    <tag k="maxspeed" v="50"/>
    <tag k="maxspeed:source" v="default residential speed limit in Australia"/>
  </way>
  <way id="23608112" version="9" timestamp="2011-04-03T00:56:09Z" uid="7617" user="Franc" changeset="7749608">
    <nd ref="255686604"/>
    <nd ref="255686602"/>
    <nd ref="255686587"/>
    <nd ref="255686621"/>
    <nd ref="268961200"/>
    <nd ref="255686622"/>
    <nd ref="1230018249"/>
    <nd ref="1230018236"/>
    <nd ref="268961226"/>
    <nd ref="268961224"/>
    <nd ref="357513952"/>
    <nd ref="255686663"/>
    <nd ref="255686623"/>
    <nd ref="357514412"/>
    <nd ref="255686624"/>
    <tag k="highway" v="residential"/>
    <tag k="maxspeed" v="50"/>
    <tag k="maxspeed:source" v="default residential speed limit in Australia"/>
  </way>
  <way id="23608112" version="10" timestamp="2012-01-16T04:22:14Z" uid="147510" user="woodpeck_fixbot" changeset="10405303">
    <nd ref="255686604"/>
    <nd ref="255686602"/>
    <nd ref="255686587"/>
    <nd ref="255686621"/>
    <nd ref="268961200"/>
    <nd ref="255686622"/>
    <nd ref="1230018249"/>
    <nd ref="1230018236"/>
    <nd ref="268961226"/>
    <nd ref="268961224"/>
    <nd ref="357513952"/>
    <nd ref="255686663"/>
    <nd ref="255686623"/>
    <nd ref="357514412"/>
    <nd ref="255686624"/>
    <tag k="highway" v="residential"/>
  </way>
  <way id="23608113" version="3" timestamp="2010-07-08T03:24:40Z" uid="74617" user="JohnSmith" changeset="5163091">
    <nd ref="241806032"/>
    <nd ref="255686625"/>
    <nd ref="255686626"/>
    <tag k="highway" v="residential"/>
    <tag k="maxspeed" v="50"/>
    <tag k="maxspeed:source" v="default residential speed limit in Australia"/>
  </way>
  <way id="23608113" version="4" timestamp="2012-01-16T04:22:15Z" uid="147510" user="woodpeck_fixbot" changeset="10405303">
    <nd ref="241806032"/>
    <nd ref="255686625"/>
    <nd ref="255686626"/>
    <tag k="highway" v="residential"/>
  </way>
  <way id="23608117" version="2" timestamp="2008-05-20T03:47:39Z" uid="30201" user="rrankin" changeset="483597">
    <nd ref="255686653"/>
    <nd ref="255686626"/>
    <nd ref="255686654"/>
    <nd ref="255686655"/>
    <nd ref="255686653"/>
    <tag k="amenity" v="parking"/>
    <tag k="created_by" v="Potlatch 0.8a"/>
  </way>
  <way id="23608119" version="2" timestamp="2010-07-08T03:24:03Z" uid="74617" user="JohnSmith" changeset="5163091">
    <nd ref="255686663"/>
    <nd ref="255686666"/>
    <nd ref="255686667"/>
    <nd ref="255686668"/>
    <tag k="highway" v="residential"/>
    <tag k="maxspeed" v="50"/>
    <tag k="maxspeed:source" v="default residential speed limit in Australia"/>
  </way>
  <way id="23608119" version="3" timestamp="2012-01-16T04:22:16Z" uid="147510" user="woodpeck_fixbot" changeset="10405303">
    <nd ref="255686663"/>
    <nd ref="255686666"/>
    <nd ref="255686667"/>
    <nd ref="255686668"/>
    <tag k="highway" v="residential"/>
  </way>
  <way id="23608121" version="3" timestamp="2010-07-08T03:26:13Z" uid="74617" user="JohnSmith" changeset="5163091">
    <nd ref="255686671"/>
    <nd ref="255686673"/>
    <nd ref="357513897"/>
    <nd ref="255686674"/>
    <tag k="highway" v="residential"/>
    <tag k="maxspeed" v="50"/>
    <tag k="maxspeed:source" v="default residential speed limit in Australia"/>
  </way>
  <way id="23608121" version="4" timestamp="2011-09-05T04:00:17Z" uid="517172" user="Woodwa" changeset="9214172">
    <nd ref="255686671"/>
    <nd ref="255686673"/>
    <nd ref="357513897"/>
    <nd ref="255686674"/>
    <tag k="highway" v="residential"/>
    <tag k="maxspeed" v="50"/>
    <tag k="maxspeed:source" v="default residential speed limit in Australia"/>
    <tag k="name" v="Ghersi Ave"/>
  </way>
  <way id="23608121" version="5" timestamp="2012-01-16T04:22:17Z" uid="147510" user="woodpeck_fixbot" changeset="10405303">
    <nd ref="255686671"/>
    <nd ref="255686673"/>
    <nd ref="357513897"/>
    <nd ref="255686674"/>
    <tag k="highway" v="residential"/>
    <tag k="name" v="Ghersi Ave"/>
  </way>
  <way id="23608128" version="6" timestamp="2010-04-27T00:33:21Z" uid="4467" user="Rosscoe" changeset="4537449">
    <nd ref="708285417"/>
    <nd ref="357509733"/>
    <nd ref="357509726"/>
    <nd ref="255686692"/>
    <nd ref="357509194"/>
    <nd ref="357510130"/>
    <nd ref="357510116"/>
    <nd ref="255686693"/>
    <tag k="highway" v="residential"/>
    <tag k="name" v="Crystal Street"/>
  </way>
  <way id="23608128" version="7" timestamp="2010-07-08T03:32:07Z" uid="74617" user="JohnSmith" changeset="5163091">
    <nd ref="708285417"/>
    <nd ref="357509733"/>
    <nd ref="357509726"/>
    <nd ref="255686692"/>
    <nd ref="357509194"/>
    <nd ref="357510130"/>
    <nd ref="357510116"/>
    <nd ref="255686693"/>
    <tag k="highway" v="residential"/>
    <tag k="maxspeed" v="50"/>
    <tag k="maxspeed:source" v="default residential speed limit in Australia"/>
    <tag k="name" v="Crystal Street"/>
  </way>
  <way id="23608128" version="8" timestamp="2011-12-05T14:21:55Z" uid="338866" user="tiger" changeset="10042265">
    <nd ref="708285417"/>
    <nd ref="357509733"/>
    <nd ref="357509726"/>
    <nd ref="255686692"/>
    <nd ref="357509194"/>
    <nd ref="357510130"/>
    <nd ref="255686693"/>
    <tag k="highway" v="residential"/>
    <tag k="maxspeed" v="50"/>
    <tag k="maxspeed:source" v="default residential speed limit in Australia"/>
    <tag k="name" v="Crystal Street"/>
  </way>
  <way id="23608128" version="9" timestamp="2012-01-16T04:22:18Z" uid="147510" user="woodpeck_fixbot" changeset="10405303">
    <nd ref="708285417"/>
    <nd ref="357509733"/>
    <nd ref="357509726"/>
    <nd ref="255686692"/>
    <nd ref="357509194"/>
    <nd ref="357510130"/>
    <nd ref="255686693"/>
    <tag k="highway" v="residential"/>
    <tag k="name" v="Crystal Street"/>
  </way>
  <way id="23608132" version="10" timestamp="2010-07-08T03:31:13Z" uid="74617" user="JohnSmith" changeset="5163091">
    <nd ref="255686818"/>
    <nd ref="255686819"/>
    <nd ref="255686820"/>
    <nd ref="255686821"/>
    <nd ref="255686822"/>
    <nd ref="255686823"/>
    <nd ref="255686693"/>
    <tag k="highway" v="residential"/>
    <tag k="maxspeed" v="50"/>
    <tag k="maxspeed:source" v="default residential speed limit in Australia"/>
    <tag k="name" v="Kalakau Avenue"/>
  </way>
  <way id="23608132" version="11" timestamp="2011-04-03T02:55:19Z" uid="7617" user="Franc" changeset="7749945">
    <nd ref="255686818"/>
    <nd ref="1230078269"/>
    <nd ref="255686819"/>
    <nd ref="255686820"/>
    <nd ref="255686821"/>
    <nd ref="255686822"/>
    <nd ref="255686823"/>
    <nd ref="255686693"/>
    <tag k="highway" v="residential"/>
    <tag k="maxspeed" v="50"/>
    <tag k="maxspeed:source" v="default residential speed limit in Australia"/>
    <tag k="name" v="Kalakau Avenue"/>
  </way>
  <way id="23608132" version="12" timestamp="2012-01-16T04:22:20Z" uid="147510" user="woodpeck_fixbot" changeset="10405303">
    <nd ref="255686818"/>
    <nd ref="1230078269"/>
    <nd ref="255686819"/>
    <nd ref="255686820"/>
    <nd ref="255686821"/>
    <nd ref="255686822"/>
    <nd ref="255686823"/>
    <nd ref="255686693"/>
    <tag k="highway" v="residential"/>
    <tag k="name" v="Kalakau Avenue"/>
  </way>
  <way id="23608135" version="6" timestamp="2010-07-08T03:32:51Z" uid="74617" user="JohnSmith" changeset="5163091">
    <nd ref="460356400"/>
    <nd ref="460357459"/>
    <nd ref="357508875"/>
    <nd ref="255686838"/>
    <tag k="highway" v="residential"/>
    <tag k="maxspeed" v="50"/>
    <tag k="maxspeed:source" v="default residential speed limit in Australia"/>
    <tag k="name" v="Maas Parade"/>
  </way>
  <way id="23608135" version="7" timestamp="2012-01-16T04:22:22Z" uid="147510" user="woodpeck_fixbot" changeset="10405303">
    <nd ref="460356400"/>
    <nd ref="460357459"/>
    <nd ref="357508875"/>
    <nd ref="255686838"/>
    <tag k="highway" v="residential"/>
    <tag k="name" v="Maas Parade"/>
  </way>
  <way id="23608141" version="5" timestamp="2010-07-08T03:33:31Z" uid="74617" user="JohnSmith" changeset="5163091">
    <nd ref="477128825"/>
    <nd ref="241806685"/>
    <nd ref="255686875"/>
    <nd ref="255686876"/>
    <nd ref="255686877"/>
    <nd ref="255686878"/>
    <nd ref="255686879"/>
    <nd ref="357497779"/>
    <nd ref="255686880"/>
    <nd ref="255686881"/>
    <nd ref="255686882"/>
    <tag k="highway" v="residential"/>
    <tag k="maxspeed" v="50"/>
    <tag k="maxspeed:source" v="default residential speed limit in Australia"/>
    <tag k="name" v="Coleridge Road"/>
  </way>
  <way id="23608141" version="6" timestamp="2012-01-16T04:22:23Z" uid="147510" user="woodpeck_fixbot" changeset="10405303">
    <nd ref="477128825"/>
    <nd ref="241806685"/>
    <nd ref="255686875"/>
    <nd ref="255686876"/>
    <nd ref="255686877"/>
    <nd ref="255686878"/>
    <nd ref="255686879"/>
    <nd ref="357497779"/>
    <nd ref="255686880"/>
    <nd ref="255686881"/>
    <nd ref="255686882"/>
    <tag k="highway" v="residential"/>
    <tag k="name" v="Coleridge Road"/>
  </way>
  <way id="23608153" version="3" timestamp="2010-05-16T13:54:56Z" uid="4467" user="Rosscoe" changeset="4717339">
    <nd ref="255686967"/>
    <nd ref="255686981"/>
    <nd ref="736495080"/>
    <nd ref="255686982"/>
    <tag k="highway" v="residential"/>
    <tag k="name" v="Yakkalla Road"/>
  </way>
  <way id="23608153" version="4" timestamp="2010-05-17T03:35:49Z" uid="4467" user="Rosscoe" changeset="4725185">
    <nd ref="737093120"/>
    <nd ref="255686981"/>
    <nd ref="736495080"/>
    <nd ref="255686982"/>
    <tag k="highway" v="residential"/>
    <tag k="name" v="Yakkalla Road"/>
  </way>
  <way id="23608153" version="5" timestamp="2010-07-08T03:32:13Z" uid="74617" user="JohnSmith" changeset="5163091">
    <nd ref="737093120"/>
    <nd ref="255686981"/>
    <nd ref="736495080"/>
    <nd ref="255686982"/>
    <tag k="highway" v="residential"/>
    <tag k="maxspeed" v="50"/>
    <tag k="maxspeed:source" v="default residential speed limit in Australia"/>
    <tag k="name" v="Yakkalla Road"/>
  </way>
  <way id="23608153" version="6" timestamp="2012-01-16T04:22:24Z" uid="147510" user="woodpeck_fixbot" changeset="10405303">
    <nd ref="737093120"/>
    <nd ref="255686981"/>
    <nd ref="736495080"/>
    <nd ref="255686982"/>
    <tag k="highway" v="residential"/>
    <tag k="name" v="Yakkalla Road"/>
  </way>
  <way id="23608153" version="7" timestamp="2012-02-27T07:29:32Z" uid="119007" user="imroy" changeset="10806073">
    <nd ref="737093120"/>
    <nd ref="255686981"/>
    <nd ref="736495080"/>
    <nd ref="1650078554"/>
    <nd ref="255686982"/>
    <tag k="highway" v="residential"/>
    <tag k="name" v="Yakkalla Road"/>
  </way>
  <way id="23608158" version="5" timestamp="2010-05-16T14:14:12Z" uid="4467" user="Rosscoe" changeset="4717562">
    <nd ref="255687011"/>
    <nd ref="255687012"/>
    <nd ref="255687013"/>
    <nd ref="255687014"/>
    <nd ref="255687015"/>
    <nd ref="255687011"/>
    <tag k="amenity" v="parking"/>
  </way>
  <way id="23608158" version="6" timestamp="2012-02-27T05:55:22Z" uid="119007" user="imroy" changeset="10805696">
    <nd ref="255687011"/>
    <nd ref="255687012"/>
    <nd ref="1650012599"/>
    <nd ref="255687013"/>
    <nd ref="255687014"/>
    <nd ref="1650012603"/>
    <nd ref="1650012596"/>
    <nd ref="1650012590"/>
    <nd ref="1650012587"/>
    <nd ref="1650012585"/>
    <nd ref="1650012583"/>
    <nd ref="1650012574"/>
    <nd ref="1650012572"/>
    <nd ref="1650012570"/>
    <nd ref="1650012568"/>
    <nd ref="1650012566"/>
    <nd ref="1650012564"/>
    <nd ref="1650012562"/>
    <nd ref="255687015"/>
    <nd ref="255687094"/>
    <nd ref="1650012558"/>
    <nd ref="1650012561"/>
    <nd ref="255687011"/>
    <tag k="amenity" v="parking"/>
  </way>
  <way id="23608172" version="9" timestamp="2010-02-14T08:12:32Z" uid="30201" user="rrankin" changeset="3870991">
    <nd ref="638910835"/>
    <nd ref="357862458"/>
    <nd ref="455002518"/>
    <nd ref="357861498"/>
    <nd ref="455002519"/>
    <nd ref="357861525"/>
    <nd ref="357861422"/>
    <nd ref="255687906"/>
    <nd ref="255687104"/>
    <nd ref="255687105"/>
    <nd ref="255687106"/>
    <nd ref="255687107"/>
    <nd ref="255687108"/>
    <nd ref="255687109"/>
    <nd ref="255687110"/>
    <tag k="highway" v="residential"/>
    <tag k="name" v="Shelly Beach Drive"/>
  </way>
  <way id="23608172" version="10" timestamp="2010-05-17T03:35:51Z" uid="4467" user="Rosscoe" changeset="4725185">
    <nd ref="638910835"/>
    <nd ref="357862458"/>
    <tag k="highway" v="residential"/>
    <tag k="name" v="Shelly Beach Drive"/>
    <tag k="oneway" v="yes"/>
    <tag k="source" v="nearmap"/>
  </way>
  <way id="23608172" version="11" timestamp="2010-07-08T03:33:35Z" uid="74617" user="JohnSmith" changeset="5163091">
    <nd ref="638910835"/>
    <nd ref="357862458"/>
    <tag k="highway" v="residential"/>
    <tag k="maxspeed" v="50"/>
    <tag k="maxspeed:source" v="default residential speed limit in Australia"/>
    <tag k="name" v="Shelly Beach Drive"/>
    <tag k="oneway" v="yes"/>
    <tag k="source" v="nearmap"/>
  </way>
  <way id="23608172" version="12" timestamp="2012-01-16T04:22:26Z" uid="147510" user="woodpeck_fixbot" changeset="10405303">
    <nd ref="638910835"/>
    <nd ref="357862458"/>
    <tag k="highway" v="residential"/>
    <tag k="name" v="Shelly Beach Drive"/>
    <tag k="oneway" v="yes"/>
    <tag k="source" v="nearmap"/>
  </way>
  <way id="23608176" version="3" timestamp="2010-05-17T03:35:50Z" uid="4467" user="Rosscoe" changeset="4725185">
    <nd ref="737093161"/>
    <nd ref="737093085"/>
    <nd ref="255687116"/>
    <nd ref="255687117"/>
    <nd ref="737093128"/>
    <nd ref="737093088"/>
    <nd ref="737093124"/>
    <nd ref="737093161"/>
    <tag k="amenity" v="parking"/>
  </way>
  <way id="23608184" version="2" timestamp="2010-07-08T03:32:17Z" uid="74617" user="JohnSmith" changeset="5163091">
    <nd ref="255687105"/>
    <nd ref="255687163"/>
    <nd ref="255687164"/>
    <nd ref="255687165"/>
    <tag k="highway" v="residential"/>
    <tag k="maxspeed" v="50"/>
    <tag k="maxspeed:source" v="default residential speed limit in Australia"/>
  </way>
  <way id="23608184" version="3" timestamp="2012-01-16T04:22:27Z" uid="147510" user="woodpeck_fixbot" changeset="10405303">
    <nd ref="255687105"/>
    <nd ref="255687163"/>
    <nd ref="255687164"/>
    <nd ref="255687165"/>
    <tag k="highway" v="residential"/>
  </way>
  <way id="23608188" version="2" timestamp="2010-05-17T03:35:47Z" uid="4467" user="Rosscoe" changeset="4725185">
    <nd ref="255687176"/>
    <nd ref="255687177"/>
    <nd ref="255687178"/>
    <nd ref="255687179"/>
    <nd ref="255687180"/>
    <nd ref="255687181"/>
    <nd ref="737093144"/>
    <nd ref="255687176"/>
    <tag k="amenity" v="parking"/>
    <tag k="source" v="nearmap"/>
  </way>
  <way id="23608198" version="3" timestamp="2008-05-23T01:55:20Z" uid="30201" user="rrankin" changeset="502045">
    <nd ref="59733946"/>
    <nd ref="255687236"/>
    <nd ref="255687237"/>
    <nd ref="255687270"/>
    <nd ref="255687238"/>
    <tag k="created_by" v="Potlatch 0.8a"/>
    <tag k="highway" v="residential"/>
    <tag k="name" v="McLachlan Avenue"/>
  </way>
  <way id="23608198" version="4" timestamp="2009-08-03T10:05:35Z" uid="8774" user="cheater512" changeset="2023635">
    <nd ref="59733946"/>
    <nd ref="255687236"/>
    <nd ref="255687237"/>
    <nd ref="255687270"/>
    <nd ref="455002520"/>
    <tag k="highway" v="residential"/>
    <tag k="name" v="McLachlan Avenue"/>
  </way>
  <way id="23608198" version="5" timestamp="2010-07-08T03:31:56Z" uid="74617" user="JohnSmith" changeset="5163091">
    <nd ref="59733946"/>
    <nd ref="255687236"/>
    <nd ref="255687237"/>
    <nd ref="255687270"/>
    <nd ref="455002520"/>
    <tag k="highway" v="residential"/>
    <tag k="maxspeed" v="50"/>
    <tag k="maxspeed:source" v="default residential speed limit in Australia"/>
    <tag k="name" v="McLachlan Avenue"/>
  </way>
  <way id="23608198" version="6" timestamp="2012-01-16T04:22:28Z" uid="147510" user="woodpeck_fixbot" changeset="10405303">
    <nd ref="59733946"/>
    <nd ref="255687236"/>
    <nd ref="255687237"/>
    <nd ref="255687270"/>
    <nd ref="455002520"/>
    <tag k="highway" v="residential"/>
    <tag k="name" v="McLachlan Avenue"/>
  </way>
  <way id="23608202" version="10" timestamp="2010-05-17T03:35:48Z" uid="4467" user="Rosscoe" changeset="4725185">
    <nd ref="455002519"/>
    <nd ref="737093151"/>
    <nd ref="357862775"/>
    <nd ref="255687282"/>
    <nd ref="357862361"/>
    <nd ref="255687250"/>
    <nd ref="357861661"/>
    <nd ref="357861779"/>
    <nd ref="255687237"/>
    <nd ref="255687303"/>
    <nd ref="255687251"/>
    <tag k="highway" v="residential"/>
    <tag k="name" v="Lindsay Street"/>
  </way>
  <way id="23608202" version="11" timestamp="2010-07-08T03:31:01Z" uid="74617" user="JohnSmith" changeset="5163091">
    <nd ref="455002519"/>
    <nd ref="737093151"/>
    <nd ref="357862775"/>
    <nd ref="255687282"/>
    <nd ref="357862361"/>
    <nd ref="255687250"/>
    <nd ref="357861661"/>
    <nd ref="357861779"/>
    <nd ref="255687237"/>
    <nd ref="255687303"/>
    <nd ref="255687251"/>
    <tag k="highway" v="residential"/>
    <tag k="maxspeed" v="50"/>
    <tag k="maxspeed:source" v="default residential speed limit in Australia"/>
    <tag k="name" v="Lindsay Street"/>
  </way>
  <way id="23608202" version="12" timestamp="2012-01-16T04:22:30Z" uid="147510" user="woodpeck_fixbot" changeset="10405303">
    <nd ref="455002519"/>
    <nd ref="737093151"/>
    <nd ref="357862775"/>
    <nd ref="255687282"/>
    <nd ref="357862361"/>
    <nd ref="255687250"/>
    <nd ref="357861661"/>
    <nd ref="357861779"/>
    <nd ref="255687237"/>
    <nd ref="255687303"/>
    <nd ref="255687251"/>
    <tag k="highway" v="residential"/>
    <tag k="name" v="Lindsay Street"/>
  </way>
  <way id="23608208" version="3" timestamp="2008-05-20T03:47:45Z" uid="30201" user="rrankin" changeset="483597">
    <nd ref="255687279"/>
    <nd ref="255687908"/>
    <nd ref="255687281"/>
    <nd ref="255687282"/>
    <nd ref="255687289"/>
    <nd ref="255687283"/>
    <nd ref="255687284"/>
    <nd ref="255687285"/>
    <nd ref="255687286"/>
    <tag k="created_by" v="Potlatch 0.8a"/>
    <tag k="highway" v="residential"/>
  </way>
  <way id="23608208" version="4" timestamp="2009-03-09T08:52:17Z" uid="51469" user="mapryan" changeset="766869">
    <nd ref="255687279"/>
    <nd ref="255687908"/>
    <nd ref="255687281"/>
    <nd ref="357861568"/>
    <nd ref="255687282"/>
    <nd ref="255687289"/>
    <nd ref="255687283"/>
    <nd ref="255687284"/>
    <nd ref="255687285"/>
    <nd ref="255687286"/>
    <tag k="created_by" v="Potlatch 0.10f"/>
    <tag k="highway" v="residential"/>
  </way>
  <way id="23608208" version="5" timestamp="2009-03-09T08:52:35Z" uid="51469" user="mapryan" changeset="766869">
    <nd ref="255687279"/>
    <nd ref="255687908"/>
    <nd ref="255687281"/>
    <nd ref="357861568"/>
    <nd ref="255687282"/>
    <nd ref="357861669"/>
    <nd ref="255687289"/>
    <nd ref="255687283"/>
    <nd ref="255687284"/>
    <nd ref="255687285"/>
    <nd ref="255687286"/>
    <tag k="created_by" v="Potlatch 0.10f"/>
    <tag k="highway" v="residential"/>
  </way>
  <way id="23608208" version="6" timestamp="2009-03-09T08:54:08Z" uid="51469" user="mapryan" changeset="766869">
    <nd ref="255687279"/>
    <nd ref="255687908"/>
    <nd ref="255687281"/>
    <nd ref="357861568"/>
    <nd ref="255687282"/>
    <nd ref="357861669"/>
    <nd ref="255687289"/>
    <nd ref="255687283"/>
    <nd ref="255687284"/>
    <nd ref="255687285"/>
    <nd ref="357862005"/>
    <nd ref="255687286"/>
    <tag k="created_by" v="Potlatch 0.10f"/>
    <tag k="highway" v="residential"/>
  </way>
  <way id="23608208" version="7" timestamp="2009-03-09T08:54:29Z" uid="51469" user="mapryan" changeset="766869">
    <nd ref="255687279"/>
    <nd ref="255687908"/>
    <nd ref="255687281"/>
    <nd ref="357861568"/>
    <nd ref="255687282"/>
    <nd ref="357861669"/>
    <nd ref="255687289"/>
    <nd ref="255687283"/>
    <nd ref="357862131"/>
    <nd ref="255687284"/>
    <nd ref="255687285"/>
    <nd ref="357862005"/>
    <nd ref="255687286"/>
    <tag k="created_by" v="Potlatch 0.10f"/>
    <tag k="highway" v="residential"/>
  </way>
  <way id="23608208" version="8" timestamp="2009-08-03T11:41:42Z" uid="8774" user="cheater512" changeset="2024547">
    <nd ref="255687279"/>
    <nd ref="255687908"/>
    <nd ref="255687281"/>
    <nd ref="357861568"/>
    <nd ref="255687282"/>
    <nd ref="357861669"/>
    <nd ref="255687289"/>
    <nd ref="255687283"/>
    <nd ref="357862131"/>
    <nd ref="255687284"/>
    <nd ref="255687285"/>
    <nd ref="357862005"/>
    <nd ref="255687286"/>
    <tag k="highway" v="residential"/>
    <tag k="name" v="Bonnieview Street"/>
  </way>
  <way id="23608208" version="9" timestamp="2010-07-08T03:33:00Z" uid="74617" user="JohnSmith" changeset="5163091">
    <nd ref="255687279"/>
    <nd ref="255687908"/>
    <nd ref="255687281"/>
    <nd ref="357861568"/>
    <nd ref="255687282"/>
    <nd ref="357861669"/>
    <nd ref="255687289"/>
    <nd ref="255687283"/>
    <nd ref="357862131"/>
    <nd ref="255687284"/>
    <nd ref="255687285"/>
    <nd ref="357862005"/>
    <nd ref="255687286"/>
    <tag k="highway" v="residential"/>
    <tag k="maxspeed" v="50"/>
    <tag k="maxspeed:source" v="default residential speed limit in Australia"/>
    <tag k="name" v="Bonnieview Street"/>
  </way>
  <way id="23608208" version="10" timestamp="2012-01-16T04:22:31Z" uid="147510" user="woodpeck_fixbot" changeset="10405303">
    <nd ref="255687279"/>
    <nd ref="255687908"/>
    <nd ref="255687281"/>
    <nd ref="357861568"/>
    <nd ref="255687282"/>
    <nd ref="357861669"/>
    <nd ref="255687289"/>
    <nd ref="255687283"/>
    <nd ref="357862131"/>
    <nd ref="255687284"/>
    <nd ref="255687285"/>
    <nd ref="357862005"/>
    <nd ref="255687286"/>
    <tag k="highway" v="residential"/>
    <tag k="name" v="Bonnieview Street"/>
  </way>
  <way id="23608209" version="5" timestamp="2010-07-08T03:31:21Z" uid="74617" user="JohnSmith" changeset="5163091">
    <nd ref="455002518"/>
    <nd ref="357862773"/>
    <nd ref="255687289"/>
    <tag k="highway" v="residential"/>
    <tag k="maxspeed" v="50"/>
    <tag k="maxspeed:source" v="default residential speed limit in Australia"/>
    <tag k="name" v="Mayfair Street"/>
  </way>
  <way id="23608209" version="6" timestamp="2012-01-16T04:22:33Z" uid="147510" user="woodpeck_fixbot" changeset="10405303">
    <nd ref="455002518"/>
    <nd ref="357862773"/>
    <nd ref="255687289"/>
    <tag k="highway" v="residential"/>
    <tag k="name" v="Mayfair Street"/>
  </way>
  <way id="23608213" version="3" timestamp="2008-05-21T02:25:28Z" uid="30201" user="rrankin" changeset="495327">
    <nd ref="255687297"/>
    <nd ref="255687302"/>
    <nd ref="255687303"/>
    <nd ref="255687304"/>
    <nd ref="255687305"/>
    <nd ref="255687306"/>
    <nd ref="255687307"/>
    <nd ref="255687311"/>
    <nd ref="255687308"/>
    <nd ref="255687309"/>
    <tag k="created_by" v="Potlatch 0.9a"/>
    <tag k="highway" v="residential"/>
    <tag k="name" v="Oaks Avenue"/>
  </way>
  <way id="23608213" version="4" timestamp="2010-05-17T03:35:53Z" uid="4467" user="Rosscoe" changeset="4725185">
    <nd ref="255687297"/>
    <nd ref="255687302"/>
    <nd ref="255687303"/>
    <nd ref="255687304"/>
    <nd ref="737093147"/>
    <tag k="highway" v="residential"/>
    <tag k="name" v="Oaks Avenue"/>
  </way>
  <way id="23608213" version="5" timestamp="2010-07-08T03:33:20Z" uid="74617" user="JohnSmith" changeset="5163091">
    <nd ref="255687297"/>
    <nd ref="255687302"/>
    <nd ref="255687303"/>
    <nd ref="255687304"/>
    <nd ref="737093147"/>
    <tag k="highway" v="residential"/>
    <tag k="maxspeed" v="50"/>
    <tag k="maxspeed:source" v="default residential speed limit in Australia"/>
    <tag k="name" v="Oaks Avenue"/>
  </way>
  <way id="23608213" version="6" timestamp="2012-01-16T04:22:34Z" uid="147510" user="woodpeck_fixbot" changeset="10405303">
    <nd ref="255687297"/>
    <nd ref="255687302"/>
    <nd ref="255687303"/>
    <nd ref="255687304"/>
    <nd ref="737093147"/>
    <tag k="highway" v="residential"/>
    <tag k="name" v="Oaks Avenue"/>
  </way>
  <way id="23608216" version="2" timestamp="2010-07-08T03:31:16Z" uid="74617" user="JohnSmith" changeset="5163091">
    <nd ref="255687311"/>
    <nd ref="255687312"/>
    <nd ref="255687313"/>
    <tag k="highway" v="residential"/>
    <tag k="maxspeed" v="50"/>
    <tag k="maxspeed:source" v="default residential speed limit in Australia"/>
  </way>
  <way id="23608216" version="3" timestamp="2012-01-16T04:22:35Z" uid="147510" user="woodpeck_fixbot" changeset="10405303">
    <nd ref="255687311"/>
    <nd ref="255687312"/>
    <nd ref="255687313"/>
    <tag k="highway" v="residential"/>
  </way>
  <way id="23608218" version="2" timestamp="2008-05-20T03:47:44Z" uid="30201" user="rrankin" changeset="483597">
    <nd ref="255687317"/>
    <nd ref="255687318"/>
    <nd ref="255687319"/>
    <nd ref="255687320"/>
    <nd ref="255687317"/>
    <tag k="amenity" v="parking"/>
    <tag k="created_by" v="Potlatch 0.8a"/>
  </way>
  <way id="23608226" version="2" timestamp="2010-07-08T03:31:14Z" uid="74617" user="JohnSmith" changeset="5163091">
    <nd ref="255687368"/>
    <nd ref="255687373"/>
    <nd ref="255687374"/>
    <nd ref="255687375"/>
    <nd ref="255687376"/>
    <nd ref="255687377"/>
    <nd ref="255687378"/>
    <tag k="highway" v="residential"/>
    <tag k="maxspeed" v="50"/>
    <tag k="maxspeed:source" v="default residential speed limit in Australia"/>
  </way>
  <way id="23608226" version="3" timestamp="2012-01-16T04:22:36Z" uid="147510" user="woodpeck_fixbot" changeset="10405303">
    <nd ref="255687368"/>
    <nd ref="255687373"/>
    <nd ref="255687374"/>
    <nd ref="255687375"/>
    <nd ref="255687376"/>
    <nd ref="255687377"/>
    <nd ref="255687378"/>
    <tag k="highway" v="residential"/>
  </way>
  <way id="23608232" version="2" timestamp="2008-05-23T00:40:51Z" uid="30201" user="rrankin" changeset="502045">
    <nd ref="255687430"/>
    <nd ref="255687431"/>
    <nd ref="255687432"/>
    <nd ref="255687433"/>
    <nd ref="255687430"/>
    <tag k="amenity" v="parking"/>
    <tag k="created_by" v="Potlatch 0.8a"/>
  </way>
  <way id="23608259" version="2" timestamp="2008-05-20T03:47:51Z" uid="30201" user="rrankin" changeset="483597">
    <nd ref="255686967"/>
    <nd ref="255687905"/>
    <nd ref="255687906"/>
    <nd ref="255687908"/>
    <nd ref="255687305"/>
    <tag k="created_by" v="Potlatch 0.8a"/>
    <tag k="highway" v="residential"/>
  </way>
  <way id="23608259" version="3" timestamp="2008-05-21T02:26:04Z" uid="30201" user="rrankin" changeset="495327">
    <nd ref="255686967"/>
    <nd ref="255687905"/>
    <nd ref="255687906"/>
    <nd ref="255687908"/>
    <nd ref="255687305"/>
    <tag k="created_by" v="Potlatch 0.9a"/>
    <tag k="highway" v="residential"/>
    <tag k="name" v="Grandview Street"/>
  </way>
  <way id="23608259" version="4" timestamp="2009-03-09T08:51:24Z" uid="51469" user="mapryan" changeset="766869">
    <nd ref="255686967"/>
    <nd ref="255687905"/>
    <nd ref="357861201"/>
    <nd ref="255687906"/>
    <nd ref="255687908"/>
    <nd ref="255687305"/>
    <tag k="created_by" v="Potlatch 0.10f"/>
    <tag k="highway" v="residential"/>
    <tag k="name" v="Grandview Street"/>
  </way>
  <way id="23608259" version="5" timestamp="2009-03-09T08:52:36Z" uid="51469" user="mapryan" changeset="766869">
    <nd ref="255686967"/>
    <nd ref="255687905"/>
    <nd ref="357861201"/>
    <nd ref="255687906"/>
    <nd ref="255687908"/>
    <nd ref="357861659"/>
    <nd ref="255687305"/>
    <tag k="created_by" v="Potlatch 0.10f"/>
    <tag k="highway" v="residential"/>
    <tag k="name" v="Grandview Street"/>
  </way>
  <way id="23608259" version="6" timestamp="2009-03-09T08:53:01Z" uid="51469" user="mapryan" changeset="766869">
    <nd ref="255686967"/>
    <nd ref="255687905"/>
    <nd ref="357861201"/>
    <nd ref="255687906"/>
    <nd ref="255687908"/>
    <nd ref="357861659"/>
    <nd ref="357861781"/>
    <nd ref="255687305"/>
    <tag k="created_by" v="Potlatch 0.10f"/>
    <tag k="highway" v="residential"/>
    <tag k="name" v="Grandview Street"/>
  </way>
  <way id="23608259" version="7" timestamp="2009-08-03T10:05:35Z" uid="8774" user="cheater512" changeset="2023635">
    <nd ref="255686967"/>
    <nd ref="255687905"/>
    <nd ref="357861201"/>
    <nd ref="255687906"/>
    <nd ref="255687908"/>
    <nd ref="357861659"/>
    <nd ref="357861781"/>
    <nd ref="455002520"/>
    <nd ref="255687305"/>
    <tag k="highway" v="residential"/>
    <tag k="name" v="Grandview Street"/>
  </way>
  <way id="23608259" version="8" timestamp="2010-05-17T03:35:48Z" uid="4467" user="Rosscoe" changeset="4725185">
    <nd ref="737093165"/>
    <nd ref="737093084"/>
    <nd ref="255687905"/>
    <nd ref="357861201"/>
    <nd ref="737093133"/>
    <tag k="highway" v="residential"/>
    <tag k="name" v="Grandview Street"/>
    <tag k="source" v="nearmap"/>
  </way>
  <way id="23608259" version="9" timestamp="2010-07-08T03:31:25Z" uid="74617" user="JohnSmith" changeset="5163091">
    <nd ref="737093165"/>
    <nd ref="737093084"/>
    <nd ref="255687905"/>
    <nd ref="357861201"/>
    <nd ref="737093133"/>
    <tag k="highway" v="residential"/>
    <tag k="maxspeed" v="50"/>
    <tag k="maxspeed:source" v="default residential speed limit in Australia"/>
    <tag k="name" v="Grandview Street"/>
    <tag k="source" v="nearmap"/>
  </way>
  <way id="23608259" version="10" timestamp="2012-01-16T04:22:37Z" uid="147510" user="woodpeck_fixbot" changeset="10405303">
    <nd ref="737093165"/>
    <nd ref="737093084"/>
    <nd ref="255687905"/>
    <nd ref="357861201"/>
    <nd ref="737093133"/>
    <tag k="highway" v="residential"/>
    <tag k="name" v="Grandview Street"/>
    <tag k="source" v="nearmap"/>
  </way>
  <way id="23608311" version="3" timestamp="2008-07-10T01:21:57Z" uid="6975" user="ulfl" changeset="448234">
    <nd ref="255688621"/>
    <nd ref="255688622"/>
    <nd ref="255688623"/>
    <nd ref="255688624"/>
    <nd ref="255688625"/>
    <nd ref="255688626"/>
    <nd ref="255688627"/>
    <nd ref="255688628"/>
    <nd ref="255688621"/>
    <tag k="created_by" v="Potlatch 0.8a"/>
    <tag k="leisure" v="pitch"/>
    <tag k="name" v="George Watson&apos;s Myreside Pitches"/>
    <tag k="sport" v="rugby;cricket"/>
  </way>
  <way id="23608311" version="4" timestamp="2011-01-31T12:08:45Z" uid="27824" user="phut" changeset="7144381">
    <nd ref="255688621"/>
    <nd ref="255688622"/>
    <nd ref="255688623"/>
    <nd ref="255688624"/>
    <nd ref="255688625"/>
    <nd ref="255688626"/>
    <nd ref="255688627"/>
    <nd ref="255688628"/>
    <nd ref="255688621"/>
    <tag k="landuse" v="recreation_ground"/>
    <tag k="name" v="George Watson&apos;s Myreside Pitches"/>
    <tag k="sport" v="rugby;cricket"/>
  </way>
  <way id="23608311" version="5" timestamp="2011-04-01T13:06:55Z" uid="27824" user="phut" changeset="7735393">
    <nd ref="255688621"/>
    <nd ref="255688622"/>
    <nd ref="255688623"/>
    <nd ref="255688624"/>
    <nd ref="1227908744"/>
    <nd ref="1227908751"/>
    <nd ref="255688625"/>
    <nd ref="255688626"/>
    <nd ref="255688627"/>
    <nd ref="255688628"/>
    <nd ref="255688621"/>
    <tag k="landuse" v="recreation_ground"/>
    <tag k="name" v="George Watson&apos;s Myreside Pitches"/>
    <tag k="sport" v="rugby;cricket"/>
  </way>
  <way id="23608351" version="2" timestamp="2011-01-03T18:55:40Z" uid="9581" user="Lobelt" changeset="6853111">
    <nd ref="253779392"/>
    <nd ref="253779393"/>
    <nd ref="253779155"/>
    <tag k="railway" v="rail"/>
  </way>
  <way id="23608522" version="2" timestamp="2009-08-03T21:15:50Z" uid="4467" user="Rosscoe" changeset="2030493">
    <nd ref="255690544"/>
    <nd ref="255690545"/>
    <nd ref="255690546"/>
    <nd ref="255690547"/>
    <tag k="highway" v="service"/>
    <tag k="oneway" v="yes"/>
  </way>
  <way id="23608522" version="3" timestamp="2012-01-27T02:55:59Z" uid="7523" user="inas" changeset="10509068"/>
  <way id="23608524" version="2" timestamp="2011-02-12T02:18:33Z" uid="7617" user="Franc" changeset="7261052"/>
  <way id="23608525" version="3" timestamp="2010-05-02T10:49:47Z" uid="7617" user="Franc" changeset="4583441">
    <nd ref="255690562"/>
    <nd ref="255690567"/>
    <nd ref="255690568"/>
    <nd ref="255690569"/>
    <nd ref="255690570"/>
    <nd ref="273974271"/>
    <nd ref="255690571"/>
    <nd ref="255690572"/>
    <nd ref="255690573"/>
    <nd ref="255690574"/>
    <nd ref="255690575"/>
    <nd ref="255690576"/>
    <nd ref="255690577"/>
    <nd ref="255690578"/>
    <nd ref="255690579"/>
    <nd ref="255690580"/>
    <nd ref="255690581"/>
    <nd ref="255690582"/>
    <nd ref="255690583"/>
    <nd ref="255690584"/>
    <nd ref="255690585"/>
    <nd ref="255690586"/>
    <nd ref="255690587"/>
    <nd ref="255690588"/>
    <nd ref="255690589"/>
    <nd ref="255690590"/>
    <nd ref="255690591"/>
    <nd ref="255690592"/>
    <nd ref="255690593"/>
    <nd ref="255690594"/>
    <nd ref="255690562"/>
    <tag k="leisure" v="park"/>
    <tag k="name" v="Buffalo Creek Reserve"/>
    <tag k="source:name" v="survey"/>
  </way>
  <way id="23608525" version="4" timestamp="2011-02-12T02:18:30Z" uid="7617" user="Franc" changeset="7261052">
    <nd ref="255690562"/>
    <nd ref="255690567"/>
    <nd ref="255690568"/>
    <nd ref="255690569"/>
    <nd ref="255690570"/>
    <nd ref="273974271"/>
    <nd ref="255690571"/>
    <nd ref="255690572"/>
    <nd ref="255690573"/>
    <nd ref="255690574"/>
    <nd ref="255690575"/>
    <nd ref="255690576"/>
    <nd ref="255690577"/>
    <nd ref="255690578"/>
    <nd ref="255690579"/>
    <nd ref="255690580"/>
    <nd ref="255690581"/>
    <nd ref="255690582"/>
    <nd ref="255690583"/>
    <nd ref="255690584"/>
    <nd ref="255690585"/>
    <nd ref="255690586"/>
    <nd ref="255690587"/>
    <nd ref="255690588"/>
    <nd ref="255690589"/>
    <nd ref="255690590"/>
    <nd ref="255690591"/>
    <nd ref="255690592"/>
    <nd ref="255690593"/>
    <nd ref="255690594"/>
    <nd ref="1148355505"/>
    <nd ref="255690562"/>
    <tag k="leisure" v="park"/>
    <tag k="name" v="Buffalo Creek Reserve"/>
    <tag k="source:name" v="survey"/>
  </way>
  <way id="23608793" version="10" timestamp="2009-01-08T20:22:56Z" uid="26515" user="Simon Ward" changeset="756880">
    <nd ref="330294414"/>
    <nd ref="256206544"/>
    <nd ref="256206538"/>
    <nd ref="256206535"/>
    <nd ref="296243912"/>
    <nd ref="255693312"/>
    <nd ref="255693313"/>
    <nd ref="255693324"/>
    <nd ref="256023446"/>
    <nd ref="255693314"/>
    <nd ref="256023408"/>
    <nd ref="280966242"/>
    <nd ref="255693315"/>
    <nd ref="255693316"/>
    <nd ref="264066236"/>
    <nd ref="255693317"/>
    <nd ref="255693323"/>
    <tag k="created_by" v="Potlatch 0.9a"/>
    <tag k="highway" v="secondary"/>
    <tag k="name" v="Broom Lane"/>
    <tag k="ref" v="B6178"/>
  </way>
  <way id="23608793" version="11" timestamp="2009-01-08T20:25:05Z" uid="26515" user="Simon Ward" changeset="756880">
    <nd ref="330294414"/>
    <nd ref="330295410"/>
    <nd ref="256206544"/>
    <nd ref="256206538"/>
    <nd ref="256206535"/>
    <nd ref="296243912"/>
    <nd ref="255693312"/>
    <nd ref="255693313"/>
    <nd ref="255693324"/>
    <nd ref="256023446"/>
    <nd ref="255693314"/>
    <nd ref="256023408"/>
    <nd ref="280966242"/>
    <nd ref="255693315"/>
    <nd ref="255693316"/>
    <nd ref="264066236"/>
    <nd ref="255693317"/>
    <nd ref="255693323"/>
    <tag k="created_by" v="Potlatch 0.9a"/>
    <tag k="highway" v="secondary"/>
    <tag k="name" v="Broom Lane"/>
    <tag k="ref" v="B6178"/>
  </way>
  <way id="23608793" version="12" timestamp="2009-01-08T20:28:23Z" uid="26515" user="Simon Ward" changeset="756880">
    <nd ref="330294414"/>
    <nd ref="330295410"/>
    <nd ref="256206544"/>
    <nd ref="256206538"/>
    <nd ref="256206535"/>
    <nd ref="296243912"/>
    <nd ref="255693312"/>
    <nd ref="255693313"/>
    <nd ref="255693324"/>
    <nd ref="256023446"/>
    <nd ref="255693314"/>
    <nd ref="256023408"/>
    <nd ref="280966242"/>
    <nd ref="255693315"/>
    <nd ref="255693316"/>
    <nd ref="264066236"/>
    <nd ref="255693317"/>
    <nd ref="255693323"/>
    <tag k="created_by" v="Potlatch 0.9a"/>
    <tag k="highway" v="secondary"/>
    <tag k="lit" v="yes"/>
    <tag k="name" v="Broom Lane"/>
    <tag k="ref" v="B6178"/>
  </way>
  <way id="23608793" version="13" timestamp="2009-01-08T20:32:56Z" uid="26515" user="Simon Ward" changeset="756880">
    <nd ref="330294414"/>
    <nd ref="330295410"/>
    <nd ref="256206544"/>
    <nd ref="256206538"/>
    <nd ref="256206535"/>
    <nd ref="330299931"/>
    <nd ref="296243912"/>
    <nd ref="255693312"/>
    <nd ref="255693313"/>
    <nd ref="255693324"/>
    <nd ref="256023446"/>
    <nd ref="255693314"/>
    <nd ref="256023408"/>
    <nd ref="280966242"/>
    <nd ref="255693315"/>
    <nd ref="255693316"/>
    <nd ref="264066236"/>
    <nd ref="255693317"/>
    <nd ref="255693323"/>
    <tag k="created_by" v="Potlatch 0.9a"/>
    <tag k="highway" v="secondary"/>
    <tag k="lit" v="yes"/>
    <tag k="name" v="Broom Lane"/>
    <tag k="ref" v="B6178"/>
  </way>
  <way id="23608793" version="14" timestamp="2009-01-08T21:02:05Z" uid="26515" user="Simon Ward" changeset="756880">
    <nd ref="330294414"/>
    <nd ref="330295410"/>
    <nd ref="256206544"/>
    <nd ref="256206538"/>
    <nd ref="256206535"/>
    <nd ref="330299931"/>
    <nd ref="296243912"/>
    <nd ref="255693312"/>
    <nd ref="255693313"/>
    <nd ref="255693324"/>
    <nd ref="256023446"/>
    <nd ref="255693314"/>
    <nd ref="256023408"/>
    <nd ref="255693315"/>
    <nd ref="280966244"/>
    <nd ref="255693316"/>
    <nd ref="264066236"/>
    <nd ref="255693317"/>
    <nd ref="255693323"/>
    <tag k="created_by" v="Potlatch 0.9a"/>
    <tag k="highway" v="secondary"/>
    <tag k="lit" v="yes"/>
    <tag k="name" v="Broom Lane"/>
    <tag k="ref" v="B6178"/>
  </way>
  <way id="23608793" version="15" timestamp="2011-01-13T17:39:10Z" uid="29755" user="Enrico Zini" changeset="6959431">
    <nd ref="330294414"/>
    <nd ref="330295410"/>
    <nd ref="256206544"/>
    <nd ref="256206538"/>
    <nd ref="256206535"/>
    <nd ref="330299931"/>
    <nd ref="296243912"/>
    <nd ref="255693312"/>
    <nd ref="255693313"/>
    <nd ref="1102291783"/>
    <nd ref="255693324"/>
    <nd ref="256023446"/>
    <nd ref="255693314"/>
    <nd ref="1102291573"/>
    <nd ref="256023408"/>
    <nd ref="255693315"/>
    <nd ref="280966244"/>
    <nd ref="255693316"/>
    <nd ref="264066236"/>
    <nd ref="255693323"/>
    <tag k="highway" v="secondary"/>
    <tag k="lit" v="yes"/>
    <tag k="name" v="Broom Lane"/>
    <tag k="ref" v="B6178"/>
  </way>
  <way id="23608793" version="16" timestamp="2011-07-27T10:56:25Z" uid="441589" user="NotEvilJoe" changeset="8843933">
    <nd ref="330294414"/>
    <nd ref="330295410"/>
    <nd ref="256206544"/>
    <nd ref="256206538"/>
    <nd ref="256206535"/>
    <nd ref="330299931"/>
    <nd ref="296243912"/>
    <nd ref="255693312"/>
    <nd ref="255693313"/>
    <nd ref="1102291783"/>
    <nd ref="255693324"/>
    <nd ref="256023446"/>
    <nd ref="255693314"/>
    <nd ref="1375665300"/>
    <nd ref="1102291573"/>
    <nd ref="256023408"/>
    <nd ref="255693315"/>
    <nd ref="280966244"/>
    <nd ref="255693316"/>
    <nd ref="264066236"/>
    <nd ref="255693323"/>
    <tag k="highway" v="secondary"/>
    <tag k="lit" v="yes"/>
    <tag k="name" v="Broom Lane"/>
    <tag k="ref" v="B6178"/>
  </way>
  <way id="23608793" version="17" timestamp="2012-03-17T13:29:26Z" uid="165" user="Richard" changeset="11007890"/>
</osm>
