<?xml version='1.0' encoding='UTF-8'?>
<osm version="0.6" generator="libosmium/2.20.0">
  <way id="23628036" version="7" timestamp="2009-10-13T23:56:52Z" uid="36809" user="pfoten_weg_!_" changeset="2841284">
    <nd ref="244060866"/>
    <nd ref="244060871"/>
    <nd ref="244060873"/>
    <nd ref="244060840"/>
    <tag k="highway" v="unclassified"/>
    <tag k="merano:way_id" v="556"/>
    <tag k="name" v="Romstraße / Via Roma"/>
    <tag k="name:de" v="Romstraße"/>
    <tag k="name:it" v="Via Roma"/>
  </way>
  <way id="23628042" version="4" timestamp="2009-07-31T14:28:09Z" uid="4467" user="Rosscoe" changeset="1995211">
    <nd ref="25769836"/>
    <nd ref="25769804"/>
    <nd ref="25769801"/>
    <tag k="highway" v="unclassified"/>
    <tag k="name" v="Lorne Street"/>
    <tag k="oneway" v="yes"/>
  </way>
  <way id="23628057" version="1" timestamp="2008-04-05T22:09:38Z" uid="16922" user="amai" changeset="59122">
    <nd ref="255951312"/>
    <nd ref="255651787"/>
    <nd ref="255951452"/>
    <nd ref="255951453"/>
    <tag k="created_by" v="Potlatch 0.8a"/>
    <tag k="highway" v="track"/>
    <tag k="source" v="yahoo sat"/>
  </way>
  <way id="23628057" version="2" timestamp="2008-08-29T10:16:19Z" uid="61905" user="c_schwamborn" changeset="455704">
    <nd ref="255951312"/>
    <nd ref="255651787"/>
    <nd ref="292000441"/>
    <nd ref="255951452"/>
    <nd ref="255951453"/>
    <tag k="created_by" v="Potlatch 0.8a"/>
    <tag k="highway" v="track"/>
    <tag k="source" v="yahoo sat"/>
  </way>
  <way id="23628057" version="3" timestamp="2008-10-12T15:31:20Z" uid="13782" user="AndreasKr" changeset="282243">
    <nd ref="255951312"/>
    <nd ref="255651787"/>
    <nd ref="292000441"/>
    <nd ref="255951452"/>
    <nd ref="303998777"/>
    <nd ref="255951453"/>
    <tag k="created_by" v="Potlatch 0.8a"/>
    <tag k="highway" v="track"/>
    <tag k="source" v="yahoo sat"/>
  </way>
  <way id="23628057" version="4" timestamp="2008-10-28T16:42:18Z" uid="60553" user="meli" changeset="615582"/>
  <way id="23628063" version="1" timestamp="2008-04-05T22:10:21Z" uid="16922" user="amai" changeset="59122">
    <nd ref="255951312"/>
    <nd ref="255951532"/>
    <nd ref="255951533"/>
    <nd ref="255951534"/>
    <nd ref="254600725"/>
    <tag k="created_by" v="Potlatch 0.8a"/>
    <tag k="highway" v="track"/>
  </way>
  <way id="23628063" version="2" timestamp="2008-05-02T14:13:55Z" uid="30867" user="mrewald" changeset="313759">
    <nd ref="255951312"/>
    <nd ref="255951532"/>
    <nd ref="261601228"/>
    <nd ref="255951533"/>
    <nd ref="255951534"/>
    <nd ref="254600725"/>
    <tag k="created_by" v="Potlatch 0.8c"/>
    <tag k="highway" v="track"/>
  </way>
  <way id="23628063" version="3" timestamp="2008-06-02T22:24:27Z" uid="11008" user="spacer1971" changeset="33672">
    <nd ref="255951312"/>
    <nd ref="268143766"/>
    <nd ref="255951532"/>
    <nd ref="261601228"/>
    <nd ref="255951533"/>
    <nd ref="255951534"/>
    <nd ref="254600725"/>
    <tag k="created_by" v="Potlatch 0.8c"/>
    <tag k="highway" v="track"/>
  </way>
  <way id="23628063" version="4" timestamp="2008-08-24T20:20:42Z" uid="61905" user="c_schwamborn" changeset="396230">
    <nd ref="255951312"/>
    <nd ref="268143766"/>
    <nd ref="290802494"/>
    <nd ref="255951532"/>
    <nd ref="261601228"/>
    <nd ref="255951533"/>
    <nd ref="255951534"/>
    <nd ref="254600725"/>
    <tag k="created_by" v="Potlatch 0.8c"/>
    <tag k="highway" v="track"/>
  </way>
  <way id="23628063" version="5" timestamp="2009-03-04T08:30:19Z" uid="61905" user="c_schwamborn" changeset="736557">
    <nd ref="255951312"/>
    <nd ref="268143766"/>
    <nd ref="290802494"/>
    <nd ref="355509926"/>
    <nd ref="261601228"/>
    <nd ref="255951533"/>
    <nd ref="255951534"/>
    <nd ref="254600725"/>
    <tag k="created_by" v="Potlatch 0.8c"/>
    <tag k="highway" v="track"/>
  </way>
  <way id="23628063" version="6" timestamp="2009-03-21T13:23:42Z" uid="11008" user="spacer1971" changeset="838956">
    <nd ref="255951312"/>
    <nd ref="268143766"/>
    <nd ref="290802494"/>
    <nd ref="355509926"/>
    <nd ref="261601228"/>
    <nd ref="255951533"/>
    <nd ref="364355148"/>
    <nd ref="254600725"/>
    <tag k="created_by" v="Potlatch 0.8c"/>
    <tag k="highway" v="track"/>
  </way>
  <way id="23628063" version="7" timestamp="2011-03-06T21:50:25Z" uid="114166" user="Neurus" changeset="7479057">
    <nd ref="255951312"/>
    <nd ref="268143766"/>
    <nd ref="290802494"/>
    <nd ref="355509926"/>
    <nd ref="261601228"/>
    <nd ref="255951533"/>
    <nd ref="364355148"/>
    <nd ref="254600725"/>
    <tag k="highway" v="track"/>
    <tag k="tracktype" v="grade3"/>
  </way>
  <way id="23628063" version="8" timestamp="2012-02-12T16:21:55Z" uid="55687" user="dschuwa" changeset="10664616"/>
  <way id="23628079" version="3" timestamp="2010-04-02T17:12:46Z" uid="20587" user="balrog-kun" changeset="4304500">
    <nd ref="51505552"/>
    <nd ref="51505549"/>
    <nd ref="51505548"/>
    <nd ref="51505545"/>
    <nd ref="51505544"/>
    <nd ref="51505542"/>
    <nd ref="51505540"/>
    <nd ref="51505537"/>
    <nd ref="51505536"/>
    <nd ref="51505535"/>
    <nd ref="51505533"/>
    <nd ref="51505531"/>
    <nd ref="51505530"/>
    <nd ref="51505527"/>
    <nd ref="51505525"/>
    <nd ref="51505523"/>
    <nd ref="51505521"/>
    <nd ref="51505519"/>
    <nd ref="51505517"/>
    <nd ref="51505515"/>
    <nd ref="51505513"/>
    <nd ref="51505511"/>
    <nd ref="51505506"/>
    <nd ref="51505502"/>
    <nd ref="51505499"/>
    <nd ref="51505497"/>
    <nd ref="51505495"/>
    <nd ref="51505494"/>
    <nd ref="51505491"/>
    <nd ref="51505490"/>
    <nd ref="51505488"/>
    <nd ref="51505486"/>
    <nd ref="51505485"/>
    <nd ref="255951152"/>
    <tag k="created_by" v="JOSM"/>
    <tag k="highway" v="residential"/>
    <tag k="name" v="Britton Lane Northeast"/>
    <tag k="tiger:cfcc" v="A41"/>
    <tag k="tiger:county" v="Thurston, WA"/>
    <tag k="tiger:name_base" v="Britton"/>
    <tag k="tiger:name_direction_suffix" v="NE"/>
    <tag k="tiger:reviewed" v="no"/>
    <tag k="tiger:separated" v="no"/>
    <tag k="tiger:source" v="tiger_import_dch_v0.6_20070830"/>
    <tag k="tiger:tlid" v="180980275:180980276"/>
  </way>
  <way id="23628079" version="4" timestamp="2011-05-19T19:12:37Z" uid="22178" user="imoo" changeset="8192423">
    <nd ref="51505552"/>
    <nd ref="51505549"/>
    <nd ref="51505548"/>
    <nd ref="51505545"/>
    <nd ref="51505544"/>
    <nd ref="51505542"/>
    <nd ref="51505540"/>
    <nd ref="51505537"/>
    <nd ref="51505536"/>
    <nd ref="51505535"/>
    <nd ref="51505533"/>
    <nd ref="51505531"/>
    <nd ref="51505530"/>
    <nd ref="51505527"/>
    <nd ref="51505525"/>
    <nd ref="51505523"/>
    <nd ref="51505521"/>
    <nd ref="51505519"/>
    <nd ref="51505517"/>
    <nd ref="51505515"/>
    <nd ref="51505513"/>
    <nd ref="51505511"/>
    <nd ref="51505506"/>
    <nd ref="51505502"/>
    <nd ref="51505499"/>
    <nd ref="51505497"/>
    <nd ref="51505495"/>
    <nd ref="51505494"/>
    <nd ref="51505491"/>
    <nd ref="51505490"/>
    <nd ref="51505488"/>
    <nd ref="51505486"/>
    <nd ref="51505485"/>
    <nd ref="255951152"/>
    <tag k="highway" v="unclassified"/>
    <tag k="name" v="Britton Lane Northeast"/>
    <tag k="tiger:cfcc" v="A41"/>
    <tag k="tiger:county" v="Thurston, WA"/>
    <tag k="tiger:name_base" v="Britton"/>
    <tag k="tiger:name_direction_suffix" v="NE"/>
    <tag k="tiger:reviewed" v="no"/>
    <tag k="tiger:separated" v="no"/>
    <tag k="tiger:source" v="tiger_import_dch_v0.6_20070830"/>
    <tag k="tiger:tlid" v="180980275:180980276"/>
  </way>
  <way id="23628210" version="1" timestamp="2008-04-05T22:21:48Z" uid="16922" user="amai" changeset="59122">
    <nd ref="507268"/>
    <nd ref="507269"/>
    <tag k="created_by" v="Potlatch 0.8a"/>
    <tag k="direction" v="W"/>
    <tag k="highway" v="motorway"/>
    <tag k="oneway" v="true"/>
    <tag k="osmarender:nameDirection" v="-1"/>
    <tag k="osmarender:renderName" v="no"/>
    <tag k="ref" v="A66"/>
  </way>
  <way id="23628210" version="2" timestamp="2008-04-05T22:22:10Z" uid="16922" user="amai" changeset="59122">
    <nd ref="507268"/>
    <nd ref="507269"/>
    <tag k="bridge" v="yes"/>
    <tag k="created_by" v="Potlatch 0.8a"/>
    <tag k="direction" v="W"/>
    <tag k="highway" v="motorway"/>
    <tag k="layer" v="1"/>
    <tag k="oneway" v="true"/>
    <tag k="osmarender:nameDirection" v="-1"/>
    <tag k="osmarender:renderName" v="no"/>
    <tag k="ref" v="A66"/>
  </way>
  <way id="23628210" version="3" timestamp="2008-05-23T11:55:59Z" uid="28378" user="PHerison" changeset="502743">
    <nd ref="507268"/>
    <nd ref="507269"/>
    <tag k="bridge" v="yes"/>
    <tag k="created_by" v="Potlatch 0.9a"/>
    <tag k="direction" v="W"/>
    <tag k="highway" v="motorway"/>
    <tag k="layer" v="1"/>
    <tag k="oneway" v="yes"/>
    <tag k="osmarender:nameDirection" v="-1"/>
    <tag k="osmarender:renderName" v="no"/>
    <tag k="ref" v="A 66"/>
  </way>
  <way id="23628210" version="4" timestamp="2009-08-02T18:52:27Z" uid="42123" user="Ropino" changeset="2018246">
    <nd ref="507268"/>
    <nd ref="507269"/>
    <tag k="bridge" v="yes"/>
    <tag k="direction" v="W"/>
    <tag k="highway" v="motorway"/>
    <tag k="layer" v="1"/>
    <tag k="oneway" v="yes"/>
    <tag k="osmarender:nameDirection" v="-1"/>
    <tag k="osmarender:renderName" v="no"/>
    <tag k="ref" v="A 66"/>
  </way>
  <way id="23628210" version="5" timestamp="2011-02-20T18:57:20Z" uid="52759" user="b166er" changeset="7346303">
    <nd ref="507268"/>
    <nd ref="507269"/>
    <tag k="bridge" v="yes"/>
    <tag k="direction" v="W"/>
    <tag k="highway" v="motorway"/>
    <tag k="layer" v="1"/>
    <tag k="lit" v="no"/>
    <tag k="oneway" v="yes"/>
    <tag k="osmarender:nameDirection" v="-1"/>
    <tag k="osmarender:renderName" v="no"/>
    <tag k="ref" v="A 66"/>
  </way>
  <way id="23628210" version="6" timestamp="2011-03-03T19:08:16Z" uid="234337" user="kryskow" changeset="7448593">
    <nd ref="507268"/>
    <nd ref="507269"/>
    <tag k="bridge" v="yes"/>
    <tag k="direction" v="W"/>
    <tag k="highway" v="motorway"/>
    <tag k="layer" v="1"/>
    <tag k="lit" v="no"/>
    <tag k="maxspeed" v="none"/>
    <tag k="oneway" v="yes"/>
    <tag k="osmarender:nameDirection" v="-1"/>
    <tag k="osmarender:renderName" v="no"/>
    <tag k="ref" v="A 66"/>
    <tag k="source:maxspeed" v="DE:motorway"/>
  </way>
  <way id="23628210" version="7" timestamp="2011-09-01T01:48:08Z" uid="207745" user="NE2" changeset="9181205">
    <nd ref="507268"/>
    <nd ref="507269"/>
    <tag k="bridge" v="yes"/>
    <tag k="direction" v="W"/>
    <tag k="highway" v="motorway"/>
    <tag k="layer" v="1"/>
    <tag k="lit" v="no"/>
    <tag k="maxspeed" v="none"/>
    <tag k="oneway" v="yes"/>
    <tag k="osmarender:nameDirection" v="-1"/>
    <tag k="ref" v="A 66"/>
    <tag k="source:maxspeed" v="DE:motorway"/>
  </way>
  <way id="23628210" version="8" timestamp="2012-02-23T21:06:42Z" uid="418724" user="wintersportler" changeset="10772673"/>
  <way id="23628221" version="1" timestamp="2008-04-05T22:22:28Z" uid="16922" user="amai" changeset="59122">
    <nd ref="255953808"/>
    <nd ref="507067"/>
    <nd ref="507068"/>
    <nd ref="507069"/>
    <nd ref="507070"/>
    <tag k="created_by" v="Potlatch 0.8a"/>
    <tag k="direction" v="O"/>
    <tag k="highway" v="motorway"/>
    <tag k="oneway" v="true"/>
    <tag k="ref" v="A66"/>
  </way>
  <way id="23628221" version="2" timestamp="2008-05-23T11:56:30Z" uid="28378" user="PHerison" changeset="502743">
    <nd ref="255953808"/>
    <nd ref="507067"/>
    <nd ref="507068"/>
    <nd ref="507069"/>
    <nd ref="507070"/>
    <tag k="created_by" v="Potlatch 0.9a"/>
    <tag k="direction" v="O"/>
    <tag k="highway" v="motorway"/>
    <tag k="oneway" v="yes"/>
    <tag k="ref" v="A 66"/>
  </way>
  <way id="23628221" version="3" timestamp="2008-05-23T11:57:24Z" uid="28378" user="PHerison" changeset="502743">
    <nd ref="255953808"/>
    <nd ref="507067"/>
    <nd ref="507068"/>
    <nd ref="507069"/>
    <nd ref="507070"/>
    <nd ref="162720"/>
    <nd ref="18040176"/>
    <nd ref="507009"/>
    <tag k="created_by" v="Potlatch 0.9a"/>
    <tag k="direction" v="O"/>
    <tag k="highway" v="motorway"/>
    <tag k="oneway" v="yes"/>
    <tag k="ref" v="A 66"/>
  </way>
  <way id="23628221" version="4" timestamp="2008-05-23T11:57:53Z" uid="28378" user="PHerison" changeset="502743">
    <nd ref="255953808"/>
    <nd ref="507067"/>
    <nd ref="507068"/>
    <nd ref="507069"/>
    <nd ref="507070"/>
    <nd ref="162720"/>
    <nd ref="18040176"/>
    <nd ref="507009"/>
    <tag k="created_by" v="Potlatch 0.9a"/>
    <tag k="direction" v="O"/>
    <tag k="highway" v="motorway"/>
    <tag k="oneway" v="yes"/>
    <tag k="ref" v="A 66"/>
  </way>
  <way id="23628221" version="5" timestamp="2008-05-23T11:59:28Z" uid="28378" user="PHerison" changeset="502743"/>
  <way id="23628229" version="1" timestamp="2008-04-05T22:22:47Z" uid="16922" user="amai" changeset="59122">
    <nd ref="36522678"/>
    <nd ref="36522679"/>
    <nd ref="36522680"/>
    <nd ref="36522681"/>
    <nd ref="36522682"/>
    <nd ref="36522683"/>
    <tag k="created_by" v="Potlatch 0.8a"/>
    <tag k="highway" v="motorway_link"/>
  </way>
  <way id="23628229" version="2" timestamp="2008-04-07T20:30:55Z" uid="28378" user="PHerison" changeset="79592">
    <nd ref="36522678"/>
    <nd ref="36522679"/>
    <nd ref="36522680"/>
    <nd ref="36522681"/>
    <nd ref="36522682"/>
    <nd ref="36522683"/>
    <tag k="created_by" v="Potlatch 0.8a"/>
    <tag k="highway" v="motorway_link"/>
    <tag k="oneway" v="yes"/>
  </way>
  <way id="23628229" version="3" timestamp="2009-09-06T13:42:14Z" uid="109925" user="WanMil" changeset="2391198">
    <nd ref="36522678"/>
    <nd ref="36522679"/>
    <nd ref="36522680"/>
    <nd ref="36522681"/>
    <nd ref="36522682"/>
    <nd ref="36522683"/>
    <tag k="highway" v="motorway_link"/>
    <tag k="oneway" v="yes"/>
  </way>
  <way id="23628229" version="4" timestamp="2011-02-20T18:57:20Z" uid="52759" user="b166er" changeset="7346303">
    <nd ref="36522678"/>
    <nd ref="36522679"/>
    <nd ref="36522680"/>
    <nd ref="36522681"/>
    <nd ref="36522682"/>
    <nd ref="36522683"/>
    <tag k="highway" v="motorway_link"/>
    <tag k="lit" v="no"/>
    <tag k="oneway" v="yes"/>
  </way>
  <way id="23628229" version="5" timestamp="2011-12-10T21:47:43Z" uid="11008" user="spacer1971" changeset="10085232">
    <nd ref="36522678"/>
    <nd ref="1540120282"/>
    <nd ref="36522679"/>
    <nd ref="1540120281"/>
    <nd ref="36522680"/>
    <nd ref="36522681"/>
    <nd ref="36522682"/>
    <nd ref="36522683"/>
    <tag k="highway" v="motorway_link"/>
    <tag k="lit" v="no"/>
    <tag k="oneway" v="yes"/>
  </way>
  <way id="23628229" version="6" timestamp="2012-03-16T23:54:18Z" uid="418724" user="wintersportler" changeset="11003747"/>
  <way id="23628324" version="1" timestamp="2008-04-05T22:29:27Z" uid="16922" user="amai" changeset="59122">
    <nd ref="255909020"/>
    <nd ref="255909021"/>
    <nd ref="255909022"/>
    <nd ref="255909023"/>
    <tag k="bicycle" v="yes"/>
    <tag k="created_by" v="Potlatch 0.8a"/>
    <tag k="highway" v="footway"/>
  </way>
  <way id="23628324" version="2" timestamp="2009-05-24T13:42:36Z" uid="6269" user="Mueck" changeset="1305649">
    <nd ref="255909022"/>
    <nd ref="255909023"/>
    <tag k="bicycle" v="yes"/>
    <tag k="created_by" v="Potlatch 0.8a"/>
    <tag k="highway" v="footway"/>
  </way>
  <way id="23628324" version="3" timestamp="2009-05-24T13:43:41Z" uid="6269" user="Mueck" changeset="1305649"/>
  <way id="23628325" version="1" timestamp="2008-04-05T22:29:30Z" uid="16922" user="amai" changeset="59122">
    <nd ref="255909019"/>
    <nd ref="255909020"/>
    <tag k="bicycle" v="yes"/>
    <tag k="created_by" v="Potlatch 0.8a"/>
    <tag k="highway" v="footway"/>
  </way>
  <way id="23628325" version="2" timestamp="2008-04-05T22:29:45Z" uid="16922" user="amai" changeset="59122">
    <nd ref="255909019"/>
    <nd ref="255909020"/>
    <tag k="bicycle" v="yes"/>
    <tag k="bridge" v="yes"/>
    <tag k="created_by" v="Potlatch 0.8a"/>
    <tag k="highway" v="footway"/>
  </way>
  <way id="23628325" version="3" timestamp="2009-01-10T18:56:40Z" uid="7009" user="giggls" changeset="767239">
    <nd ref="255909020"/>
    <nd ref="255909019"/>
    <tag k="bicycle" v="yes"/>
    <tag k="bridge" v="yes"/>
    <tag k="created_by" v="Potlatch 0.8a"/>
    <tag k="foot" v="yes"/>
    <tag k="highway" v="cycleway"/>
    <tag k="oneway" v="yes"/>
  </way>
  <way id="23628325" version="4" timestamp="2009-05-24T13:42:03Z" uid="6269" user="Mueck" changeset="1305649"/>
  <way id="23628333" version="1" timestamp="2008-04-05T22:30:16Z" uid="16922" user="amai" changeset="59122">
    <nd ref="255909018"/>
    <nd ref="255955237"/>
    <tag k="created_by" v="Potlatch 0.8a"/>
  </way>
  <way id="23628333" version="2" timestamp="2008-04-05T22:30:21Z" uid="16922" user="amai" changeset="59122"/>
  <way id="23628507" version="5" timestamp="2010-07-08T02:06:49Z" uid="74617" user="JohnSmith" changeset="5162525">
    <nd ref="255958559"/>
    <nd ref="255958561"/>
    <nd ref="255958805"/>
    <nd ref="255958595"/>
    <nd ref="255959081"/>
    <nd ref="255958563"/>
    <tag k="highway" v="residential"/>
    <tag k="maxspeed" v="50"/>
    <tag k="maxspeed:source" v="default residential speed limit in Australia"/>
    <tag k="name" v="Exceller Avenue"/>
  </way>
  <way id="23628507" version="6" timestamp="2010-11-03T01:33:33Z" uid="365425" user="Bicylce NSW" changeset="6273001">
    <nd ref="255958559"/>
    <nd ref="255958561"/>
    <tag k="highway" v="residential"/>
    <tag k="maxspeed" v="50"/>
    <tag k="maxspeed:source" v="default residential speed limit in Australia"/>
    <tag k="name" v="Exceller Avenue"/>
  </way>
  <way id="23628507" version="7" timestamp="2012-01-16T04:23:06Z" uid="147510" user="woodpeck_fixbot" changeset="10405303">
    <nd ref="255958559"/>
    <nd ref="255958561"/>
    <tag k="highway" v="residential"/>
    <tag k="name" v="Exceller Avenue"/>
  </way>
  <way id="23628508" version="7" timestamp="2010-07-08T02:07:44Z" uid="74617" user="JohnSmith" changeset="5162525">
    <nd ref="26429342"/>
    <nd ref="255959389"/>
    <nd ref="255959254"/>
    <nd ref="619745103"/>
    <nd ref="255959208"/>
    <nd ref="255958559"/>
    <tag k="highway" v="residential"/>
    <tag k="maxspeed" v="50"/>
    <tag k="maxspeed:source" v="default residential speed limit in Australia"/>
    <tag k="name" v="Hoskins Avenue"/>
  </way>
  <way id="23628508" version="8" timestamp="2010-12-18T01:23:02Z" uid="7617" user="Franc" changeset="6692439">
    <nd ref="26429342"/>
    <nd ref="1044160433"/>
    <nd ref="255959389"/>
    <nd ref="255959254"/>
    <nd ref="619745103"/>
    <nd ref="255959208"/>
    <nd ref="255958559"/>
    <tag k="highway" v="residential"/>
    <tag k="maxspeed" v="50"/>
    <tag k="maxspeed:source" v="default residential speed limit in Australia"/>
    <tag k="name" v="Hoskins Avenue"/>
  </way>
  <way id="23628508" version="9" timestamp="2012-01-16T04:23:07Z" uid="147510" user="woodpeck_fixbot" changeset="10405303">
    <nd ref="26429342"/>
    <nd ref="1044160433"/>
    <nd ref="255959389"/>
    <nd ref="255959254"/>
    <nd ref="619745103"/>
    <nd ref="255959208"/>
    <nd ref="255958559"/>
    <tag k="highway" v="residential"/>
    <tag k="name" v="Hoskins Avenue"/>
  </way>
  <way id="23628510" version="2" timestamp="2010-07-08T02:08:51Z" uid="74617" user="JohnSmith" changeset="5162525">
    <nd ref="255958595"/>
    <nd ref="255958786"/>
    <tag k="highway" v="residential"/>
    <tag k="maxspeed" v="50"/>
    <tag k="maxspeed:source" v="default residential speed limit in Australia"/>
    <tag k="name" v="Fortril Avenue"/>
  </way>
  <way id="23628510" version="3" timestamp="2012-01-16T04:23:09Z" uid="147510" user="woodpeck_fixbot" changeset="10405303">
    <nd ref="255958595"/>
    <nd ref="255958786"/>
    <tag k="highway" v="residential"/>
    <tag k="name" v="Fortril Avenue"/>
  </way>
  <way id="23628514" version="2" timestamp="2010-07-08T02:09:53Z" uid="74617" user="JohnSmith" changeset="5162525">
    <nd ref="255958805"/>
    <nd ref="255958897"/>
    <nd ref="255958898"/>
    <tag k="highway" v="residential"/>
    <tag k="maxspeed" v="50"/>
    <tag k="maxspeed:source" v="default residential speed limit in Australia"/>
    <tag k="name" v="Warren Avenue"/>
  </way>
  <way id="23628514" version="3" timestamp="2010-11-03T01:31:19Z" uid="365425" user="Bicylce NSW" changeset="6273001">
    <nd ref="255958805"/>
    <nd ref="255958897"/>
    <nd ref="255958898"/>
    <tag k="highway" v="residential"/>
    <tag k="lcn" v="yes"/>
    <tag k="maxspeed" v="50"/>
    <tag k="maxspeed:source" v="default residential speed limit in Australia"/>
    <tag k="name" v="Warren Avenue"/>
  </way>
  <way id="23628514" version="4" timestamp="2010-12-19T06:35:33Z" uid="7617" user="Franc" changeset="6702769">
    <nd ref="255958805"/>
    <nd ref="255958897"/>
    <nd ref="1047252819"/>
    <nd ref="255958898"/>
    <tag k="highway" v="residential"/>
    <tag k="lcn" v="yes"/>
    <tag k="maxspeed" v="50"/>
    <tag k="maxspeed:source" v="default residential speed limit in Australia"/>
    <tag k="name" v="Warren Avenue"/>
  </way>
  <way id="23628514" version="5" timestamp="2012-01-16T04:23:10Z" uid="147510" user="woodpeck_fixbot" changeset="10405303">
    <nd ref="255958805"/>
    <nd ref="255958897"/>
    <nd ref="1047252819"/>
    <nd ref="255958898"/>
    <tag k="highway" v="residential"/>
    <tag k="lcn" v="yes"/>
    <tag k="name" v="Warren Avenue"/>
  </way>
  <way id="23628515" version="3" timestamp="2010-12-19T06:35:49Z" uid="7617" user="Franc" changeset="6702769"/>
  <way id="23628562" version="2" timestamp="2010-07-08T02:12:58Z" uid="74617" user="JohnSmith" changeset="5162525">
    <nd ref="26429220"/>
    <nd ref="255959208"/>
    <tag k="highway" v="residential"/>
    <tag k="maxspeed" v="50"/>
    <tag k="maxspeed:source" v="default residential speed limit in Australia"/>
    <tag k="name" v="Cottam Avenue"/>
  </way>
  <way id="23628562" version="3" timestamp="2012-01-16T04:23:14Z" uid="147510" user="woodpeck_fixbot" changeset="10405303">
    <nd ref="26429220"/>
    <nd ref="255959208"/>
    <tag k="highway" v="residential"/>
    <tag k="name" v="Cottam Avenue"/>
  </way>
  <way id="23628566" version="2" timestamp="2010-07-08T02:10:55Z" uid="74617" user="JohnSmith" changeset="5162525">
    <nd ref="26429219"/>
    <nd ref="255959254"/>
    <tag k="highway" v="residential"/>
    <tag k="maxspeed" v="50"/>
    <tag k="maxspeed:source" v="default residential speed limit in Australia"/>
    <tag k="name" v="Clements Avenue"/>
  </way>
  <way id="23628566" version="3" timestamp="2012-01-16T04:23:15Z" uid="147510" user="woodpeck_fixbot" changeset="10405303">
    <nd ref="26429219"/>
    <nd ref="255959254"/>
    <tag k="highway" v="residential"/>
    <tag k="name" v="Clements Avenue"/>
  </way>
  <way id="23628574" version="4" timestamp="2010-12-19T06:35:45Z" uid="7617" user="Franc" changeset="6702769">
    <nd ref="255959306"/>
    <nd ref="255959307"/>
    <nd ref="255959386"/>
    <nd ref="255959387"/>
    <nd ref="619745160"/>
    <nd ref="255959308"/>
    <nd ref="255959388"/>
    <nd ref="1047252780"/>
    <nd ref="1047252567"/>
    <nd ref="255959309"/>
    <nd ref="255959310"/>
    <nd ref="255959311"/>
    <nd ref="255959312"/>
    <nd ref="255959313"/>
    <nd ref="255959314"/>
    <nd ref="255959315"/>
    <nd ref="255959316"/>
    <nd ref="255959317"/>
    <nd ref="255959318"/>
    <nd ref="255959319"/>
    <nd ref="255959320"/>
    <nd ref="255959321"/>
    <nd ref="255959322"/>
    <nd ref="255959323"/>
    <nd ref="255959324"/>
    <nd ref="255959325"/>
    <nd ref="255959326"/>
    <nd ref="255959327"/>
    <nd ref="255959328"/>
    <nd ref="255959329"/>
    <nd ref="255959330"/>
    <nd ref="255959331"/>
    <nd ref="255959332"/>
    <nd ref="255959333"/>
    <nd ref="255959334"/>
    <nd ref="255959335"/>
    <nd ref="255959336"/>
    <nd ref="255959306"/>
    <tag k="landuse" v="industrial"/>
    <tag k="layer" v="-1"/>
  </way>
  <way id="23628591" version="3" timestamp="2010-07-08T02:11:10Z" uid="74617" user="JohnSmith" changeset="5162525">
    <nd ref="255959389"/>
    <nd ref="255960131"/>
    <nd ref="255959429"/>
    <tag k="highway" v="residential"/>
    <tag k="maxspeed" v="50"/>
    <tag k="maxspeed:source" v="default residential speed limit in Australia"/>
    <tag k="name" v="Marshall Street"/>
  </way>
  <way id="23628591" version="4" timestamp="2012-01-16T04:23:17Z" uid="147510" user="woodpeck_fixbot" changeset="10405303">
    <nd ref="255959389"/>
    <nd ref="255960131"/>
    <nd ref="255959429"/>
    <tag k="highway" v="residential"/>
    <tag k="name" v="Marshall Street"/>
  </way>
  <way id="23628594" version="2" timestamp="2010-12-19T06:35:43Z" uid="7617" user="Franc" changeset="6702769">
    <nd ref="255959550"/>
    <nd ref="1047252797"/>
    <nd ref="1047252644"/>
    <nd ref="1047252746"/>
    <nd ref="255959551"/>
    <nd ref="1047252530"/>
    <nd ref="1047252666"/>
    <nd ref="255959552"/>
    <nd ref="1047252758"/>
    <nd ref="1047252623"/>
    <nd ref="255959554"/>
    <nd ref="255959550"/>
    <tag k="leisure" v="park"/>
  </way>
  <way id="23628611" version="3" timestamp="2009-10-01T18:51:12Z" uid="86259" user="hasse_osm_korinthenkacker" changeset="2703918">
    <nd ref="255959867"/>
    <nd ref="255959868"/>
    <nd ref="255959869"/>
    <nd ref="255959870"/>
    <nd ref="255959871"/>
    <nd ref="255959872"/>
    <nd ref="255963529"/>
    <nd ref="255963530"/>
    <tag k="highway" v="service"/>
  </way>
  <way id="23628611" version="4" timestamp="2009-10-01T18:54:45Z" uid="86259" user="hasse_osm_korinthenkacker" changeset="2703918">
    <nd ref="255959867"/>
    <nd ref="255959868"/>
    <nd ref="255959869"/>
    <nd ref="255959870"/>
    <nd ref="255959871"/>
    <nd ref="255959872"/>
    <nd ref="255963529"/>
    <nd ref="255963530"/>
    <tag k="highway" v="service"/>
  </way>
  <way id="23628611" version="5" timestamp="2009-10-16T08:35:53Z" uid="120740" user="90Pferde" changeset="2862255">
    <nd ref="255959867"/>
    <nd ref="533603719"/>
    <nd ref="533603722"/>
    <nd ref="255959868"/>
    <nd ref="255959869"/>
    <nd ref="255959870"/>
    <nd ref="255959871"/>
    <nd ref="255959872"/>
    <nd ref="533603788"/>
    <nd ref="255963529"/>
    <nd ref="255963530"/>
    <tag k=" " v=" "/>
    <tag k="highway" v="service"/>
    <tag k="surface" v="paved"/>
  </way>
  <way id="23628611" version="6" timestamp="2009-10-20T13:13:12Z" uid="70696" user="xybot" changeset="2902330">
    <nd ref="255959867"/>
    <nd ref="533603719"/>
    <nd ref="533603722"/>
    <nd ref="255959868"/>
    <nd ref="255959869"/>
    <nd ref="255959870"/>
    <nd ref="255959871"/>
    <nd ref="255959872"/>
    <nd ref="533603788"/>
    <nd ref="255963529"/>
    <nd ref="255963530"/>
    <tag k="highway" v="service"/>
    <tag k="surface" v="paved"/>
  </way>
  <way id="23628628" version="2" timestamp="2010-06-29T20:48:25Z" uid="74617" user="JohnSmith" changeset="5109183">
    <nd ref="255960125"/>
    <nd ref="255960126"/>
    <nd ref="255960127"/>
    <nd ref="255960128"/>
    <nd ref="255960125"/>
    <tag k="fixme" v="sport=rugby is ambiguous, see http://wiki.osm.org/wiki/Tag:sport%3Drugby for more details"/>
    <tag k="leisure" v="pitch"/>
    <tag k="name" v="Bankstown Football Centre"/>
    <tag k="sport" v="rugby"/>
  </way>
  <way id="23628629" version="3" timestamp="2010-07-08T02:12:04Z" uid="74617" user="JohnSmith" changeset="5162525">
    <nd ref="255960129"/>
    <nd ref="255960136"/>
    <nd ref="255960145"/>
    <nd ref="255960131"/>
    <tag k="highway" v="residential"/>
    <tag k="maxspeed" v="50"/>
    <tag k="maxspeed:source" v="default residential speed limit in Australia"/>
    <tag k="name" v="Hixson Street"/>
  </way>
  <way id="23628629" version="4" timestamp="2012-01-16T04:23:18Z" uid="147510" user="woodpeck_fixbot" changeset="10405303">
    <nd ref="255960129"/>
    <nd ref="255960136"/>
    <nd ref="255960145"/>
    <nd ref="255960131"/>
    <tag k="highway" v="residential"/>
    <tag k="name" v="Hixson Street"/>
  </way>
  <way id="23628630" version="2" timestamp="2010-07-08T02:10:17Z" uid="74617" user="JohnSmith" changeset="5162525">
    <nd ref="255960132"/>
    <nd ref="255960133"/>
    <nd ref="255960134"/>
    <nd ref="255960135"/>
    <nd ref="255960136"/>
    <tag k="highway" v="residential"/>
    <tag k="maxspeed" v="50"/>
    <tag k="maxspeed:source" v="default residential speed limit in Australia"/>
    <tag k="name" v="Archer Crescent"/>
  </way>
  <way id="23628630" version="3" timestamp="2012-01-16T04:23:19Z" uid="147510" user="woodpeck_fixbot" changeset="10405303">
    <nd ref="255960132"/>
    <nd ref="255960133"/>
    <nd ref="255960134"/>
    <nd ref="255960135"/>
    <nd ref="255960136"/>
    <tag k="highway" v="residential"/>
    <tag k="name" v="Archer Crescent"/>
  </way>
  <way id="23628633" version="2" timestamp="2010-07-08T02:10:01Z" uid="74617" user="JohnSmith" changeset="5162525">
    <nd ref="255960145"/>
    <nd ref="255960146"/>
    <nd ref="255960147"/>
    <nd ref="255960148"/>
    <nd ref="255960149"/>
    <tag k="highway" v="residential"/>
    <tag k="maxspeed" v="50"/>
    <tag k="maxspeed:source" v="default residential speed limit in Australia"/>
    <tag k="name" v="Noumea Avenue"/>
  </way>
  <way id="23628633" version="3" timestamp="2012-01-16T04:23:20Z" uid="147510" user="woodpeck_fixbot" changeset="10405303">
    <nd ref="255960145"/>
    <nd ref="255960146"/>
    <nd ref="255960147"/>
    <nd ref="255960148"/>
    <nd ref="255960149"/>
    <tag k="highway" v="residential"/>
    <tag k="name" v="Noumea Avenue"/>
  </way>
  <way id="23628634" version="3" timestamp="2010-07-08T02:08:03Z" uid="74617" user="JohnSmith" changeset="5162525">
    <nd ref="255960150"/>
    <nd ref="255962605"/>
    <nd ref="255959429"/>
    <nd ref="255960151"/>
    <tag k="highway" v="residential"/>
    <tag k="maxspeed" v="50"/>
    <tag k="maxspeed:source" v="default residential speed limit in Australia"/>
    <tag k="name" v="De Witt Street"/>
  </way>
  <way id="23628634" version="4" timestamp="2012-01-16T04:23:22Z" uid="147510" user="woodpeck_fixbot" changeset="10405303">
    <nd ref="255960150"/>
    <nd ref="255962605"/>
    <nd ref="255959429"/>
    <nd ref="255960151"/>
    <tag k="highway" v="residential"/>
    <tag k="name" v="De Witt Street"/>
  </way>
  <way id="23628650" version="3" timestamp="2010-04-01T06:39:19Z" uid="74617" user="JohnSmith" changeset="4291360">
    <nd ref="255960154"/>
    <nd ref="255960433"/>
    <nd ref="255961060"/>
    <tag k="highway" v="tertiary"/>
    <tag k="name" v="Macauley Avenue"/>
  </way>
  <way id="23628662" version="2" timestamp="2010-04-01T06:28:42Z" uid="74617" user="JohnSmith" changeset="4291360"/>
  <way id="23628669" version="9" timestamp="2010-04-01T06:28:42Z" uid="74617" user="JohnSmith" changeset="4291360"/>
  <way id="23628677" version="6" timestamp="2010-04-01T06:33:44Z" uid="74617" user="JohnSmith" changeset="4291360">
    <nd ref="255960707"/>
    <nd ref="255960703"/>
    <tag k="bridge" v="yes"/>
    <tag k="highway" v="trunk"/>
    <tag k="lanes" v="3"/>
    <tag k="layer" v="1"/>
    <tag k="oneway" v="yes"/>
  </way>
  <way id="23628677" version="7" timestamp="2010-04-01T06:39:19Z" uid="74617" user="JohnSmith" changeset="4291360">
    <nd ref="255960707"/>
    <nd ref="255960703"/>
    <tag k="bridge" v="yes"/>
    <tag k="highway" v="trunk"/>
    <tag k="lanes" v="3"/>
    <tag k="layer" v="1"/>
    <tag k="maxspeed" v="60"/>
    <tag k="oneway" v="yes"/>
  </way>
  <way id="23628677" version="8" timestamp="2010-06-30T09:03:22Z" uid="299678" user="peteramjet" changeset="5111867">
    <nd ref="255960707"/>
    <nd ref="255960703"/>
    <tag k="bridge" v="yes"/>
    <tag k="highway" v="trunk"/>
    <tag k="lanes" v="3"/>
    <tag k="layer" v="1"/>
    <tag k="maxspeed" v="60"/>
    <tag k="name" v="Stacey Street"/>
    <tag k="oneway" v="yes"/>
    <tag k="ref" v="MR6"/>
  </way>
  <way id="23628677" version="9" timestamp="2010-07-08T12:29:47Z" uid="299678" user="peteramjet" changeset="5165746">
    <nd ref="255960707"/>
    <nd ref="255960703"/>
    <tag k="bridge" v="yes"/>
    <tag k="highway" v="trunk"/>
    <tag k="lanes" v="3"/>
    <tag k="layer" v="1"/>
    <tag k="maxspeed" v="60"/>
    <tag k="name" v="Stacey Street"/>
    <tag k="oneway" v="yes"/>
  </way>
  <way id="23628677" version="10" timestamp="2012-01-16T04:23:23Z" uid="147510" user="woodpeck_fixbot" changeset="10405303">
    <nd ref="255960707"/>
    <nd ref="255960703"/>
    <tag k="bridge" v="yes"/>
    <tag k="highway" v="trunk"/>
    <tag k="lanes" v="3"/>
    <tag k="layer" v="1"/>
    <tag k="name" v="Stacey Street"/>
    <tag k="oneway" v="yes"/>
  </way>
  <way id="23628677" version="11" timestamp="2012-01-27T05:31:00Z" uid="7523" user="inas" changeset="10509361">
    <nd ref="255960707"/>
    <nd ref="255960703"/>
    <tag k="bridge" v="yes"/>
    <tag k="highway" v="trunk"/>
    <tag k="lanes" v="3"/>
    <tag k="layer" v="1"/>
    <tag k="maxspeed" v="60"/>
    <tag k="name" v="Stacey Street"/>
    <tag k="oneway" v="yes"/>
  </way>
  <way id="23628677" version="12" timestamp="2012-02-02T01:25:48Z" uid="54784" user="Tom Hollander" changeset="10564041">
    <nd ref="255960707"/>
    <nd ref="255960703"/>
    <tag k="bridge" v="yes"/>
    <tag k="highway" v="trunk"/>
    <tag k="lanes" v="3"/>
    <tag k="layer" v="1"/>
    <tag k="maxspeed" v="60"/>
    <tag k="name" v="Stacey Street"/>
    <tag k="oneway" v="yes"/>
    <tag k="ref" v="MR6"/>
  </way>
  <way id="23628677" version="13" timestamp="2012-03-13T02:00:20Z" uid="7523" user="inas" changeset="10962513">
    <nd ref="255960707"/>
    <nd ref="255960703"/>
    <tag k="bridge" v="yes"/>
    <tag k="highway" v="trunk"/>
    <tag k="lanes" v="3"/>
    <tag k="layer" v="1"/>
    <tag k="maxspeed" v="60"/>
    <tag k="name" v="Stacey Street"/>
    <tag k="network" v="MR"/>
    <tag k="oneway" v="yes"/>
    <tag k="ref" v="6"/>
  </way>
  <way id="23628678" version="4" timestamp="2010-04-01T06:33:46Z" uid="74617" user="JohnSmith" changeset="4291360"/>
  <way id="23628684" version="5" timestamp="2010-04-01T06:33:46Z" uid="74617" user="JohnSmith" changeset="4291360"/>
  <way id="23628685" version="9" timestamp="2010-04-01T06:33:44Z" uid="74617" user="JohnSmith" changeset="4291360">
    <nd ref="255960703"/>
    <nd ref="581796715"/>
    <tag k="highway" v="trunk"/>
    <tag k="lanes" v="3"/>
    <tag k="name" v="Stacey Street"/>
    <tag k="oneway" v="yes"/>
  </way>
  <way id="23628685" version="10" timestamp="2010-04-01T06:39:19Z" uid="74617" user="JohnSmith" changeset="4291360">
    <nd ref="255960703"/>
    <nd ref="581796715"/>
    <tag k="highway" v="trunk"/>
    <tag k="lanes" v="3"/>
    <tag k="maxspeed" v="60"/>
    <tag k="name" v="Stacey Street"/>
    <tag k="oneway" v="yes"/>
  </way>
  <way id="23628685" version="11" timestamp="2010-06-30T09:03:23Z" uid="299678" user="peteramjet" changeset="5111867">
    <nd ref="255960703"/>
    <nd ref="581796715"/>
    <tag k="highway" v="trunk"/>
    <tag k="lanes" v="3"/>
    <tag k="maxspeed" v="60"/>
    <tag k="name" v="Stacey Street"/>
    <tag k="oneway" v="yes"/>
    <tag k="ref" v="MR6"/>
  </way>
  <way id="23628685" version="12" timestamp="2010-07-08T12:29:49Z" uid="299678" user="peteramjet" changeset="5165746">
    <nd ref="255960703"/>
    <nd ref="581796715"/>
    <tag k="highway" v="trunk"/>
    <tag k="lanes" v="3"/>
    <tag k="maxspeed" v="60"/>
    <tag k="name" v="Stacey Street"/>
    <tag k="oneway" v="yes"/>
  </way>
  <way id="23628685" version="13" timestamp="2012-01-16T04:23:24Z" uid="147510" user="woodpeck_fixbot" changeset="10405303">
    <nd ref="255960703"/>
    <nd ref="581796715"/>
    <tag k="highway" v="trunk"/>
    <tag k="lanes" v="3"/>
    <tag k="name" v="Stacey Street"/>
    <tag k="oneway" v="yes"/>
  </way>
  <way id="23628685" version="14" timestamp="2012-02-02T01:25:49Z" uid="54784" user="Tom Hollander" changeset="10564041">
    <nd ref="255960703"/>
    <nd ref="581796715"/>
    <tag k="highway" v="trunk"/>
    <tag k="lanes" v="3"/>
    <tag k="name" v="Stacey Street"/>
    <tag k="oneway" v="yes"/>
    <tag k="ref" v="MR6"/>
  </way>
  <way id="23628685" version="15" timestamp="2012-03-13T02:00:21Z" uid="7523" user="inas" changeset="10962513">
    <nd ref="255960703"/>
    <nd ref="581796715"/>
    <tag k="highway" v="trunk"/>
    <tag k="lanes" v="3"/>
    <tag k="name" v="Stacey Street"/>
    <tag k="network" v="MR"/>
    <tag k="oneway" v="yes"/>
    <tag k="ref" v="6"/>
  </way>
  <way id="23628758" version="3" timestamp="2010-04-01T06:39:20Z" uid="74617" user="JohnSmith" changeset="4291360"/>
  <way id="23628761" version="2" timestamp="2010-04-01T06:39:20Z" uid="74617" user="JohnSmith" changeset="4291360"/>
  <way id="23628762" version="3" timestamp="2010-04-01T06:39:18Z" uid="74617" user="JohnSmith" changeset="4291360">
    <nd ref="255961060"/>
    <nd ref="255961769"/>
    <nd ref="255961266"/>
    <nd ref="679647344"/>
    <nd ref="255961267"/>
    <nd ref="255961268"/>
    <nd ref="255961269"/>
    <nd ref="679647350"/>
    <nd ref="255961270"/>
    <nd ref="255961271"/>
    <nd ref="255961301"/>
    <nd ref="255961302"/>
    <nd ref="60106929"/>
    <tag k="highway" v="trunk"/>
    <tag k="name" v="Fairford Road"/>
    <tag k="oneway" v="yes"/>
  </way>
  <way id="23628762" version="4" timestamp="2010-04-01T06:44:24Z" uid="74617" user="JohnSmith" changeset="4291360"/>
  <way id="23628783" version="2" timestamp="2010-04-01T06:33:44Z" uid="74617" user="JohnSmith" changeset="4291360">
    <nd ref="255962102"/>
    <nd ref="255962243"/>
    <nd ref="255962244"/>
    <nd ref="255962245"/>
    <nd ref="255962246"/>
    <nd ref="255962247"/>
    <nd ref="679645628"/>
    <nd ref="679645627"/>
    <tag k="highway" v="trunk_link"/>
    <tag k="oneway" v="yes"/>
  </way>
  <way id="23628783" version="3" timestamp="2010-04-27T08:41:11Z" uid="4467" user="Rosscoe" changeset="4539108">
    <nd ref="255962102"/>
    <nd ref="255962243"/>
    <nd ref="255962244"/>
    <nd ref="255962245"/>
    <nd ref="708445964"/>
    <tag k="highway" v="tertiary"/>
    <tag k="oneway" v="yes"/>
  </way>
  <way id="23628790" version="2" timestamp="2010-04-27T08:41:10Z" uid="4467" user="Rosscoe" changeset="4539108">
    <nd ref="255962277"/>
    <nd ref="708445937"/>
    <nd ref="255962286"/>
    <nd ref="252700914"/>
    <tag k="highway" v="tertiary"/>
  </way>
  <way id="23628807" version="2" timestamp="2010-07-08T02:08:02Z" uid="74617" user="JohnSmith" changeset="5162525">
    <nd ref="255962518"/>
    <nd ref="255962560"/>
    <tag k="highway" v="residential"/>
    <tag k="maxspeed" v="50"/>
    <tag k="maxspeed:source" v="default residential speed limit in Australia"/>
    <tag k="name" v="Megan Avenue"/>
  </way>
  <way id="23628807" version="3" timestamp="2012-01-16T04:23:25Z" uid="147510" user="woodpeck_fixbot" changeset="10405303">
    <nd ref="255962518"/>
    <nd ref="255962560"/>
    <tag k="highway" v="residential"/>
    <tag k="name" v="Megan Avenue"/>
  </way>
  <way id="23628815" version="2" timestamp="2010-07-08T02:10:47Z" uid="74617" user="JohnSmith" changeset="5162525">
    <nd ref="255962594"/>
    <nd ref="255962560"/>
    <nd ref="255962595"/>
    <tag k="highway" v="residential"/>
    <tag k="maxspeed" v="50"/>
    <tag k="maxspeed:source" v="default residential speed limit in Australia"/>
    <tag k="name" v="Megan Avenue"/>
  </way>
  <way id="23628815" version="3" timestamp="2012-01-16T04:23:27Z" uid="147510" user="woodpeck_fixbot" changeset="10405303">
    <nd ref="255962594"/>
    <nd ref="255962560"/>
    <nd ref="255962595"/>
    <tag k="highway" v="residential"/>
    <tag k="name" v="Megan Avenue"/>
  </way>
  <way id="23628824" version="2" timestamp="2010-07-08T02:10:32Z" uid="74617" user="JohnSmith" changeset="5162525">
    <nd ref="255962605"/>
    <nd ref="255962618"/>
    <nd ref="255962619"/>
    <nd ref="255962620"/>
    <nd ref="255962621"/>
    <nd ref="255962622"/>
    <nd ref="255962623"/>
    <tag k="highway" v="residential"/>
    <tag k="maxspeed" v="50"/>
    <tag k="maxspeed:source" v="default residential speed limit in Australia"/>
    <tag k="name" v="Marshall Street"/>
  </way>
  <way id="23628824" version="3" timestamp="2012-01-16T04:23:28Z" uid="147510" user="woodpeck_fixbot" changeset="10405303">
    <nd ref="255962605"/>
    <nd ref="255962618"/>
    <nd ref="255962619"/>
    <nd ref="255962620"/>
    <nd ref="255962621"/>
    <nd ref="255962622"/>
    <nd ref="255962623"/>
    <tag k="highway" v="residential"/>
    <tag k="name" v="Marshall Street"/>
  </way>
  <way id="23628829" version="3" timestamp="2010-07-08T02:11:16Z" uid="74617" user="JohnSmith" changeset="5162525">
    <nd ref="255962639"/>
    <nd ref="255962640"/>
    <tag k="highway" v="residential"/>
    <tag k="maxspeed" v="50"/>
    <tag k="maxspeed:source" v="default residential speed limit in Australia"/>
    <tag k="name" v="Dudley Avenue"/>
  </way>
  <way id="23628829" version="4" timestamp="2010-12-18T03:02:38Z" uid="7617" user="Franc" changeset="6692710"/>
  <way id="23628830" version="2" timestamp="2010-07-08T02:09:28Z" uid="74617" user="JohnSmith" changeset="5162525">
    <nd ref="255962620"/>
    <nd ref="255962639"/>
    <tag k="highway" v="residential"/>
    <tag k="maxspeed" v="50"/>
    <tag k="maxspeed:source" v="default residential speed limit in Australia"/>
    <tag k="name" v="Delwood Street"/>
  </way>
  <way id="23628830" version="3" timestamp="2012-01-16T04:23:29Z" uid="147510" user="woodpeck_fixbot" changeset="10405303">
    <nd ref="255962620"/>
    <nd ref="255962639"/>
    <tag k="highway" v="residential"/>
    <tag k="name" v="Delwood Street"/>
  </way>
  <way id="23628832" version="2" timestamp="2010-07-08T02:09:24Z" uid="74617" user="JohnSmith" changeset="5162525">
    <nd ref="255962644"/>
    <nd ref="255962653"/>
    <nd ref="255962654"/>
    <tag k="highway" v="residential"/>
    <tag k="maxspeed" v="50"/>
    <tag k="maxspeed:source" v="default residential speed limit in Australia"/>
    <tag k="name" v="White Avenue"/>
  </way>
  <way id="23628832" version="3" timestamp="2010-12-18T01:54:27Z" uid="7617" user="Franc" changeset="6692530">
    <nd ref="255962644"/>
    <nd ref="255962653"/>
    <nd ref="1044186785"/>
    <nd ref="255962654"/>
    <tag k="highway" v="residential"/>
    <tag k="maxspeed" v="50"/>
    <tag k="maxspeed:source" v="default residential speed limit in Australia"/>
    <tag k="name" v="White Avenue"/>
  </way>
  <way id="23628832" version="4" timestamp="2012-01-16T04:23:29Z" uid="147510" user="woodpeck_fixbot" changeset="10405303">
    <nd ref="255962644"/>
    <nd ref="255962653"/>
    <nd ref="1044186785"/>
    <nd ref="255962654"/>
    <tag k="highway" v="residential"/>
    <tag k="name" v="White Avenue"/>
  </way>
  <way id="23628834" version="2" timestamp="2010-07-08T02:10:28Z" uid="74617" user="JohnSmith" changeset="5162525">
    <nd ref="255962653"/>
    <nd ref="255962655"/>
    <nd ref="255962657"/>
    <tag k="highway" v="residential"/>
    <tag k="maxspeed" v="50"/>
    <tag k="maxspeed:source" v="default residential speed limit in Australia"/>
    <tag k="name" v="June Street"/>
  </way>
  <way id="23628834" version="3" timestamp="2010-12-18T01:54:31Z" uid="7617" user="Franc" changeset="6692530">
    <nd ref="255962653"/>
    <nd ref="255962655"/>
    <nd ref="1044186770"/>
    <nd ref="1044186792"/>
    <nd ref="255962657"/>
    <tag k="highway" v="residential"/>
    <tag k="maxspeed" v="50"/>
    <tag k="maxspeed:source" v="default residential speed limit in Australia"/>
    <tag k="name" v="June Street"/>
  </way>
  <way id="23628834" version="4" timestamp="2012-01-16T04:23:31Z" uid="147510" user="woodpeck_fixbot" changeset="10405303">
    <nd ref="255962653"/>
    <nd ref="255962655"/>
    <nd ref="1044186770"/>
    <nd ref="1044186792"/>
    <nd ref="255962657"/>
    <tag k="highway" v="residential"/>
    <tag k="name" v="June Street"/>
  </way>
  <way id="23628848" version="3" timestamp="2010-12-18T01:22:53Z" uid="7617" user="Franc" changeset="6692439">
    <nd ref="26429226"/>
    <nd ref="255962796"/>
    <nd ref="255962798"/>
    <nd ref="255962799"/>
    <nd ref="255962800"/>
    <nd ref="255962801"/>
    <nd ref="255962803"/>
    <nd ref="1044160456"/>
    <nd ref="255962804"/>
    <nd ref="255962805"/>
    <nd ref="255962806"/>
    <nd ref="255962807"/>
    <nd ref="1044160382"/>
    <tag k="waterway" v="stream"/>
  </way>
  <way id="23628854" version="6" timestamp="2009-07-14T04:57:42Z" uid="30201" user="rrankin" changeset="1823454">
    <nd ref="255962871"/>
    <nd ref="441520703"/>
    <nd ref="256008417"/>
    <nd ref="256007470"/>
    <nd ref="256008837"/>
    <nd ref="255962518"/>
    <nd ref="256008845"/>
    <nd ref="255960154"/>
    <nd ref="255960158"/>
    <nd ref="255960159"/>
    <nd ref="255960160"/>
    <nd ref="255960161"/>
    <tag k="created_by" v="Potlatch 0.8a"/>
    <tag k="highway" v="tertiary"/>
    <tag k="name" v="Macauley Avenue"/>
  </way>
  <way id="23628870" version="8" timestamp="2009-10-01T18:51:29Z" uid="86259" user="hasse_osm_korinthenkacker" changeset="2703918">
    <nd ref="30657123"/>
    <nd ref="255962991"/>
    <nd ref="255962992"/>
    <nd ref="255962993"/>
    <nd ref="255962994"/>
    <nd ref="255962995"/>
    <nd ref="279798630"/>
    <nd ref="279798680"/>
    <nd ref="279798704"/>
    <nd ref="279798723"/>
    <nd ref="279798762"/>
    <nd ref="279798770"/>
    <nd ref="279798792"/>
    <tag k="highway" v="residential"/>
    <tag k="name" v="Raupenbergstraße"/>
    <tag k="note" v="ref ist wirklich S159, allerdings keine secondary."/>
    <tag k="ref" v="S159"/>
  </way>
  <way id="23628870" version="9" timestamp="2009-10-01T18:54:58Z" uid="86259" user="hasse_osm_korinthenkacker" changeset="2703918">
    <nd ref="30657123"/>
    <nd ref="255962991"/>
    <nd ref="255962992"/>
    <nd ref="255962993"/>
    <nd ref="255962994"/>
    <nd ref="255962995"/>
    <nd ref="279798630"/>
    <nd ref="279798680"/>
    <nd ref="279798704"/>
    <nd ref="279798723"/>
    <nd ref="279798762"/>
    <nd ref="279798770"/>
    <nd ref="279798792"/>
    <tag k="highway" v="residential"/>
    <tag k="name" v="Raupenbergstraße"/>
    <tag k="note" v="ref ist wirklich S159, allerdings keine secondary."/>
    <tag k="ref" v="S159"/>
  </way>
  <way id="23628870" version="10" timestamp="2009-12-21T23:36:47Z" uid="71555" user="JochenB" changeset="3423987">
    <nd ref="30657123"/>
    <nd ref="255962991"/>
    <nd ref="255962992"/>
    <nd ref="255962993"/>
    <nd ref="255962994"/>
    <nd ref="255962995"/>
    <nd ref="597920586"/>
    <nd ref="279798630"/>
    <nd ref="279798680"/>
    <nd ref="279798704"/>
    <nd ref="279798723"/>
    <nd ref="279798762"/>
    <nd ref="279798770"/>
    <nd ref="279798792"/>
    <tag k="highway" v="residential"/>
    <tag k="name" v="Raupenbergstraße"/>
    <tag k="note" v="ref ist wirklich S159, allerdings keine secondary."/>
    <tag k="ref" v="S159"/>
  </way>
  <way id="23628870" version="11" timestamp="2010-05-03T19:08:27Z" uid="267619" user="Zafari" changeset="4597984">
    <nd ref="30657123"/>
    <nd ref="255962991"/>
    <nd ref="255962992"/>
    <nd ref="255962993"/>
    <nd ref="255962994"/>
    <nd ref="255962995"/>
    <nd ref="597920586"/>
    <nd ref="279798630"/>
    <nd ref="279798680"/>
    <nd ref="279798704"/>
    <nd ref="279798723"/>
    <nd ref="279798762"/>
    <nd ref="279798770"/>
    <nd ref="279798792"/>
    <tag k="highway" v="residential"/>
    <tag k="name" v="Raupenbergstraße"/>
    <tag k="note" v="ref ist wirklich S159, allerdings keine secondary."/>
    <tag k="ref" v="S 159"/>
  </way>
  <way id="23628870" version="12" timestamp="2010-08-08T21:59:02Z" uid="30398" user="vaust" changeset="5438479">
    <nd ref="30657123"/>
    <nd ref="255962991"/>
    <nd ref="255962992"/>
    <nd ref="255962993"/>
    <nd ref="255962994"/>
    <nd ref="255962995"/>
    <nd ref="597920586"/>
    <nd ref="279798630"/>
    <nd ref="279798680"/>
    <nd ref="279798704"/>
    <nd ref="279798723"/>
    <nd ref="850095762"/>
    <nd ref="850095980"/>
    <nd ref="850095756"/>
    <nd ref="279798762"/>
    <nd ref="850095902"/>
    <nd ref="279798770"/>
    <nd ref="279798792"/>
    <tag k="highway" v="residential"/>
    <tag k="name" v="Raupenbergstraße"/>
    <tag k="note" v="ref ist wirklich S159, allerdings keine secondary."/>
    <tag k="ref" v="S 159"/>
  </way>
  <way id="23628870" version="13" timestamp="2010-08-08T22:59:49Z" uid="30398" user="vaust" changeset="5438912">
    <nd ref="30657123"/>
    <nd ref="255962991"/>
    <nd ref="255962992"/>
    <nd ref="255962993"/>
    <nd ref="255962994"/>
    <nd ref="255962995"/>
    <nd ref="597920586"/>
    <nd ref="279798630"/>
    <nd ref="279798680"/>
    <nd ref="279798704"/>
    <nd ref="279798723"/>
    <nd ref="850095762"/>
    <nd ref="850095980"/>
    <nd ref="850095756"/>
    <nd ref="850095959"/>
    <nd ref="279798762"/>
    <nd ref="850095902"/>
    <nd ref="279798770"/>
    <nd ref="279798792"/>
    <tag k="highway" v="residential"/>
    <tag k="name" v="Raupenbergstraße"/>
    <tag k="note" v="ref ist wirklich S159, allerdings keine secondary."/>
    <tag k="ref" v="S 159"/>
  </way>
  <way id="23628870" version="14" timestamp="2010-08-08T23:02:51Z" uid="30398" user="vaust" changeset="5438931">
    <nd ref="30657123"/>
    <nd ref="255962991"/>
    <nd ref="255962992"/>
    <nd ref="255962993"/>
    <nd ref="255962994"/>
    <nd ref="255962995"/>
    <nd ref="597920586"/>
    <nd ref="279798630"/>
    <nd ref="279798680"/>
    <nd ref="850186673"/>
    <tag k="highway" v="residential"/>
    <tag k="name" v="Raupenbergstraße"/>
    <tag k="note" v="ref ist wirklich S159, allerdings keine secondary."/>
    <tag k="ref" v="S 159"/>
  </way>
  <way id="23628870" version="15" timestamp="2010-10-29T18:06:09Z" uid="135012" user="Gruenberg" changeset="6220658">
    <nd ref="30657123"/>
    <nd ref="255962991"/>
    <nd ref="255962992"/>
    <nd ref="255962993"/>
    <nd ref="255962994"/>
    <nd ref="255962995"/>
    <nd ref="597920586"/>
    <tag k="highway" v="residential"/>
    <tag k="name" v="Raupenbergstraße"/>
    <tag k="note" v="ref ist wirklich S159, allerdings keine secondary."/>
    <tag k="ref" v="S 159"/>
  </way>
  <way id="23628870" version="16" timestamp="2011-02-27T17:10:17Z" uid="351106" user="Dundee77" changeset="7412893">
    <nd ref="30657123"/>
    <nd ref="255962991"/>
    <nd ref="255962992"/>
    <nd ref="255962993"/>
    <nd ref="255962994"/>
    <nd ref="255962995"/>
    <nd ref="597920586"/>
    <tag k="highway" v="secondary"/>
    <tag k="name" v="Raupenbergstraße"/>
    <tag k="note" v="ref ist wirklich S159, allerdings keine secondary."/>
    <tag k="ref" v="S 159"/>
  </way>
  <way id="23628870" version="17" timestamp="2011-06-30T19:07:58Z" uid="476078" user="carsten harnisch" changeset="8592709">
    <nd ref="30657123"/>
    <nd ref="255962991"/>
    <nd ref="255962992"/>
    <nd ref="255962993"/>
    <nd ref="255962994"/>
    <nd ref="1345121984"/>
    <nd ref="255962995"/>
    <nd ref="597920586"/>
    <tag k="highway" v="secondary"/>
    <tag k="name" v="Raupenbergstraße"/>
    <tag k="note" v="ref ist wirklich S159, allerdings keine secondary."/>
    <tag k="ref" v="S 159"/>
  </way>
  <way id="23628870" version="18" timestamp="2011-07-03T17:28:16Z" uid="476078" user="carsten harnisch" changeset="8620488">
    <nd ref="30657123"/>
    <nd ref="255962991"/>
    <nd ref="255962992"/>
    <nd ref="255962993"/>
    <nd ref="255962994"/>
    <nd ref="1345121984"/>
    <nd ref="255962995"/>
    <nd ref="1348213669"/>
    <nd ref="597920586"/>
    <tag k="highway" v="secondary"/>
    <tag k="name" v="Raupenbergstraße"/>
    <tag k="note" v="ref ist wirklich S159, allerdings keine secondary."/>
    <tag k="ref" v="S 159"/>
  </way>
  <way id="23628870" version="19" timestamp="2011-07-25T10:40:08Z" uid="30398" user="vaust" changeset="8824849">
    <nd ref="30657123"/>
    <nd ref="255962991"/>
    <nd ref="255962992"/>
    <nd ref="255962993"/>
    <nd ref="1373661136"/>
    <nd ref="255962994"/>
    <nd ref="1345121984"/>
    <nd ref="255962995"/>
    <nd ref="1348213669"/>
    <nd ref="597920586"/>
    <tag k="highway" v="secondary"/>
    <tag k="name" v="Raupenbergstraße"/>
    <tag k="note" v="ref ist wirklich S159, allerdings keine secondary."/>
    <tag k="ref" v="S 159"/>
  </way>
  <way id="23628870" version="20" timestamp="2012-01-15T08:51:01Z" uid="476078" user="carsten harnisch" changeset="10395488">
    <nd ref="30657123"/>
    <nd ref="255962991"/>
    <nd ref="1590348381"/>
    <nd ref="255962992"/>
    <nd ref="255962993"/>
    <nd ref="1373661136"/>
    <nd ref="255962994"/>
    <nd ref="1345121984"/>
    <nd ref="255962995"/>
    <nd ref="1348213669"/>
    <nd ref="597920586"/>
    <tag k="highway" v="secondary"/>
    <tag k="name" v="Raupenbergstraße"/>
    <tag k="note" v="ref ist wirklich S159, allerdings keine secondary."/>
    <tag k="ref" v="S 159"/>
  </way>
  <way id="23628870" version="21" timestamp="2012-02-02T18:37:00Z" uid="476078" user="carsten harnisch" changeset="10570099">
    <nd ref="30657123"/>
    <nd ref="1615853523"/>
    <nd ref="255962991"/>
    <nd ref="1590348381"/>
    <nd ref="255962992"/>
    <nd ref="255962993"/>
    <nd ref="1373661136"/>
    <nd ref="255962994"/>
    <nd ref="1345121984"/>
    <nd ref="255962995"/>
    <nd ref="1348213669"/>
    <nd ref="597920586"/>
    <tag k="highway" v="secondary"/>
    <tag k="name" v="Raupenbergstraße"/>
    <tag k="note" v="ref ist wirklich S159, allerdings keine secondary."/>
    <tag k="ref" v="S 159"/>
  </way>
  <way id="23628875" version="2" timestamp="2010-07-08T02:12:09Z" uid="74617" user="JohnSmith" changeset="5162525">
    <nd ref="255963060"/>
    <nd ref="255963105"/>
    <nd ref="255963107"/>
    <nd ref="255963108"/>
    <nd ref="255963109"/>
    <tag k="highway" v="residential"/>
    <tag k="maxspeed" v="50"/>
    <tag k="maxspeed:source" v="default residential speed limit in Australia"/>
    <tag k="name" v="Ogmore Court"/>
  </way>
  <way id="23628875" version="3" timestamp="2012-01-16T04:23:32Z" uid="147510" user="woodpeck_fixbot" changeset="10405303">
    <nd ref="255963060"/>
    <nd ref="255963105"/>
    <nd ref="255963107"/>
    <nd ref="255963108"/>
    <nd ref="255963109"/>
    <tag k="highway" v="residential"/>
    <tag k="name" v="Ogmore Court"/>
  </way>
  <way id="23628926" version="2" timestamp="2010-07-08T02:11:47Z" uid="74617" user="JohnSmith" changeset="5162525">
    <nd ref="255963115"/>
    <nd ref="255963571"/>
    <nd ref="255963572"/>
    <tag k="highway" v="residential"/>
    <tag k="maxspeed" v="50"/>
    <tag k="maxspeed:source" v="default residential speed limit in Australia"/>
    <tag k="name" v="Koonya Avenue"/>
  </way>
  <way id="23628926" version="3" timestamp="2012-01-16T04:23:33Z" uid="147510" user="woodpeck_fixbot" changeset="10405303">
    <nd ref="255963115"/>
    <nd ref="255963571"/>
    <nd ref="255963572"/>
    <tag k="highway" v="residential"/>
    <tag k="name" v="Koonya Avenue"/>
  </way>
  <way id="23628929" version="8" timestamp="2009-12-09T21:19:19Z" uid="200463" user="harmagedon" changeset="3336909">
    <nd ref="255963056"/>
    <nd ref="255963581"/>
    <nd ref="255963582"/>
    <nd ref="255963584"/>
    <nd ref="279799148"/>
    <tag k="highway" v="residential"/>
    <tag k="name" v="Raupenbergstraße"/>
    <tag k="surface" v="unpaved"/>
  </way>
  <way id="23628929" version="9" timestamp="2009-12-21T23:27:22Z" uid="71555" user="JochenB" changeset="3423924">
    <nd ref="255963056"/>
    <nd ref="255963581"/>
    <nd ref="255963582"/>
    <nd ref="255963584"/>
    <nd ref="279799148"/>
    <tag k="highway" v="track"/>
    <tag k="name" v="Raupenbergstraße"/>
    <tag k="smoothness" v="intermediate"/>
    <tag k="surface" v="unpaved"/>
    <tag k="tracktype" v="grade2"/>
  </way>
  <way id="23628930" version="2" timestamp="2008-04-06T06:14:47Z" uid="30201" user="rrankin" changeset="64490">
    <nd ref="255963576"/>
    <nd ref="255963589"/>
    <nd ref="255963590"/>
    <tag k="created_by" v="Potlatch 0.8a"/>
    <tag k="highway" v="residential"/>
    <tag k="name" v="Chelmsford Avenue"/>
  </way>
  <way id="23628930" version="3" timestamp="2010-07-08T02:12:45Z" uid="74617" user="JohnSmith" changeset="5162525">
    <nd ref="255963576"/>
    <nd ref="255963589"/>
    <nd ref="255963590"/>
    <tag k="highway" v="residential"/>
    <tag k="maxspeed" v="50"/>
    <tag k="maxspeed:source" v="default residential speed limit in Australia"/>
    <tag k="name" v="Chelmsford Avenue"/>
  </way>
  <way id="23628930" version="4" timestamp="2010-12-18T01:54:31Z" uid="7617" user="Franc" changeset="6692530">
    <nd ref="255963576"/>
    <nd ref="255963589"/>
    <tag k="highway" v="residential"/>
    <tag k="maxspeed" v="50"/>
    <tag k="maxspeed:source" v="default residential speed limit in Australia"/>
    <tag k="name" v="Chelmsford Avenue"/>
  </way>
  <way id="23628930" version="5" timestamp="2012-01-16T04:23:34Z" uid="147510" user="woodpeck_fixbot" changeset="10405303">
    <nd ref="255963576"/>
    <nd ref="255963589"/>
    <tag k="highway" v="residential"/>
    <tag k="name" v="Chelmsford Avenue"/>
  </way>
  <way id="23628931" version="4" timestamp="2010-01-18T12:12:25Z" uid="30201" user="rrankin" changeset="3649712">
    <nd ref="255963591"/>
    <nd ref="256009909"/>
    <nd ref="253088114"/>
    <nd ref="616194797"/>
    <tag k="highway" v="tertiary"/>
    <tag k="name" v="Brandon Avenue"/>
  </way>
  <way id="23628931" version="5" timestamp="2010-12-18T01:23:00Z" uid="7617" user="Franc" changeset="6692439">
    <nd ref="255963591"/>
    <nd ref="1044160372"/>
    <tag k="highway" v="tertiary"/>
    <tag k="name" v="Brandon Avenue"/>
    <tag k="restriction" v="school_zone"/>
  </way>
  <way id="23628935" version="14" timestamp="2010-03-22T05:41:25Z" uid="20587" user="balrog-kun" changeset="4199043">
    <nd ref="40389157"/>
    <nd ref="255992330"/>
    <nd ref="333852041"/>
    <nd ref="40389154"/>
    <tag k="highway" v="residential"/>
    <tag k="layer" v="1"/>
    <tag k="name" v="North Multnomah Street"/>
    <tag k="oneway" v="yes"/>
    <tag k="tiger:cfcc" v="A63"/>
    <tag k="tiger:county" v="Multnomah, OR"/>
    <tag k="tiger:source" v="tiger_import_dch_v0.6_20070808"/>
    <tag k="tiger:tlid" v="157504746:157574122:157574123:157574132:157574134:157574135:157603279:157574104"/>
  </way>
  <way id="23628935" version="15" timestamp="2010-07-24T00:27:49Z" uid="92286" user="Paul Johnson" changeset="5300079">
    <nd ref="40389157"/>
    <nd ref="255992330"/>
    <nd ref="333852041"/>
    <nd ref="40389154"/>
    <tag k="cycleway" v="lane"/>
    <tag k="highway" v="residential"/>
    <tag k="layer" v="1"/>
    <tag k="name" v="North Multnomah Street"/>
    <tag k="oneway" v="yes"/>
    <tag k="tiger:cfcc" v="A63"/>
    <tag k="tiger:county" v="Multnomah, OR"/>
    <tag k="tiger:source" v="tiger_import_dch_v0.6_20070808"/>
    <tag k="tiger:tlid" v="157504746:157574122:157574123:157574132:157574134:157574135:157603279:157574104"/>
  </way>
  <way id="23628935" version="16" timestamp="2010-09-01T04:28:22Z" uid="97431" user="Dion Dock" changeset="5651142">
    <nd ref="40389157"/>
    <nd ref="255992330"/>
    <nd ref="333852041"/>
    <nd ref="40389154"/>
    <tag k="cycleway" v="lane"/>
    <tag k="highway" v="residential"/>
    <tag k="name" v="North Multnomah Street"/>
    <tag k="oneway" v="yes"/>
    <tag k="tiger:cfcc" v="A63"/>
    <tag k="tiger:county" v="Multnomah, OR"/>
    <tag k="tiger:source" v="tiger_import_dch_v0.6_20070808"/>
    <tag k="tiger:tlid" v="157504746:157574122:157574123:157574132:157574134:157574135:157603279:157574104"/>
  </way>
  <way id="23628935" version="17" timestamp="2011-06-10T07:28:42Z" uid="92286" user="Paul Johnson" changeset="8394723">
    <nd ref="40389157"/>
    <nd ref="255992330"/>
    <nd ref="333852041"/>
    <nd ref="40389154"/>
    <tag k="cycleway" v="lane"/>
    <tag k="highway" v="tertiary"/>
    <tag k="name" v="North Multnomah Street"/>
    <tag k="oneway" v="yes"/>
    <tag k="tiger:cfcc" v="A63"/>
    <tag k="tiger:county" v="Multnomah, OR"/>
    <tag k="tiger:source" v="tiger_import_dch_v0.6_20070808"/>
    <tag k="tiger:tlid" v="157504746:157574122:157574123:157574132:157574134:157574135:157603279:157574104"/>
  </way>
  <way id="23628935" version="18" timestamp="2011-08-13T02:01:46Z" uid="372357" user="PJ Houser" changeset="9001567">
    <nd ref="40389157"/>
    <nd ref="255992330"/>
    <nd ref="333852041"/>
    <nd ref="40389154"/>
    <tag k="RLIS:bicycle" v="designated"/>
    <tag k="RLIS:localid" v="137074"/>
    <tag k="RLIS:reviewed" v="no"/>
    <tag k="cycleway" v="lane"/>
    <tag k="highway" v="tertiary"/>
    <tag k="name" v="North Multnomah Street"/>
    <tag k="oneway" v="yes"/>
    <tag k="zip_left" v="97227"/>
    <tag k="zip_right" v="97227"/>
  </way>
  <way id="23628935" version="19" timestamp="2011-09-07T23:12:11Z" uid="362111" user="Mele Sax-Barnett" changeset="9241685">
    <nd ref="40389157"/>
    <nd ref="255992330"/>
    <nd ref="333852041"/>
    <nd ref="40389154"/>
    <tag k="RLIS:bicycle" v="designated"/>
    <tag k="RLIS:localid" v="137074"/>
    <tag k="RLIS:reviewed" v="no"/>
    <tag k="cycleway" v="lane"/>
    <tag k="foot" v="no"/>
    <tag k="highway" v="tertiary"/>
    <tag k="name" v="North Multnomah Street"/>
    <tag k="oneway" v="yes"/>
    <tag k="zip_left" v="97227"/>
    <tag k="zip_right" v="97227"/>
  </way>
  <way id="23628935" version="20" timestamp="2011-12-14T00:18:37Z" uid="372357" user="PJ Houser" changeset="10112406">
    <nd ref="40389157"/>
    <nd ref="255992330"/>
    <nd ref="333852041"/>
    <nd ref="40389154"/>
    <tag k="RLIS:bicycle" v="designated"/>
    <tag k="RLIS:localid" v="137074"/>
    <tag k="RLIS:reviewed" v="no"/>
    <tag k="bicycle" v="designated"/>
    <tag k="cycleway" v="lane"/>
    <tag k="foot" v="no"/>
    <tag k="highway" v="tertiary"/>
    <tag k="name" v="North Multnomah Street"/>
    <tag k="oneway" v="yes"/>
    <tag k="zip_left" v="97227"/>
    <tag k="zip_right" v="97227"/>
  </way>
</osm>
