<?xml version='1.0' encoding='UTF-8'?>
<osm version="0.6" generator="libosmium/2.20.0">
  <way id="23651003" version="2" timestamp="2010-07-07T10:15:29Z" uid="74617" user="JohnSmith" changeset="5156250">
    <nd ref="256229470"/>
    <nd ref="256231121"/>
    <nd ref="256231122"/>
    <nd ref="256231123"/>
    <nd ref="256231124"/>
    <nd ref="256231125"/>
    <nd ref="256231126"/>
    <nd ref="256231128"/>
    <nd ref="256231129"/>
    <nd ref="256231130"/>
    <tag k="highway" v="residential"/>
    <tag k="maxspeed" v="50"/>
    <tag k="maxspeed:source" v="default residential speed limit in Australia"/>
    <tag k="name" v="Attunga Place"/>
  </way>
  <way id="23651003" version="3" timestamp="2012-01-16T04:37:54Z" uid="147510" user="woodpeck_fixbot" changeset="10405303">
    <nd ref="256229470"/>
    <nd ref="256231121"/>
    <nd ref="256231122"/>
    <nd ref="256231123"/>
    <nd ref="256231124"/>
    <nd ref="256231125"/>
    <nd ref="256231126"/>
    <nd ref="256231128"/>
    <nd ref="256231129"/>
    <nd ref="256231130"/>
    <tag k="highway" v="residential"/>
    <tag k="name" v="Attunga Place"/>
  </way>
  <way id="23651005" version="2" timestamp="2010-07-07T10:15:35Z" uid="74617" user="JohnSmith" changeset="5156250">
    <nd ref="256231125"/>
    <nd ref="256231131"/>
    <tag k="highway" v="residential"/>
    <tag k="maxspeed" v="50"/>
    <tag k="maxspeed:source" v="default residential speed limit in Australia"/>
    <tag k="name" v="Awa Place"/>
  </way>
  <way id="23651005" version="3" timestamp="2012-01-16T04:37:56Z" uid="147510" user="woodpeck_fixbot" changeset="10405303">
    <nd ref="256231125"/>
    <nd ref="256231131"/>
    <tag k="highway" v="residential"/>
    <tag k="name" v="Awa Place"/>
  </way>
  <way id="23651006" version="2" timestamp="2010-07-07T10:15:50Z" uid="74617" user="JohnSmith" changeset="5156250">
    <nd ref="256231128"/>
    <nd ref="256231132"/>
    <nd ref="256231133"/>
    <nd ref="256231134"/>
    <nd ref="256231135"/>
    <nd ref="256231136"/>
    <nd ref="256231137"/>
    <nd ref="256231139"/>
    <nd ref="256231140"/>
    <nd ref="256231152"/>
    <nd ref="256231155"/>
    <nd ref="256231156"/>
    <nd ref="256229463"/>
    <tag k="highway" v="residential"/>
    <tag k="maxspeed" v="50"/>
    <tag k="maxspeed:source" v="default residential speed limit in Australia"/>
    <tag k="name" v="Allara Street"/>
  </way>
  <way id="23651006" version="3" timestamp="2012-01-16T04:37:58Z" uid="147510" user="woodpeck_fixbot" changeset="10405303">
    <nd ref="256231128"/>
    <nd ref="256231132"/>
    <nd ref="256231133"/>
    <nd ref="256231134"/>
    <nd ref="256231135"/>
    <nd ref="256231136"/>
    <nd ref="256231137"/>
    <nd ref="256231139"/>
    <nd ref="256231140"/>
    <nd ref="256231152"/>
    <nd ref="256231155"/>
    <nd ref="256231156"/>
    <nd ref="256229463"/>
    <tag k="highway" v="residential"/>
    <tag k="name" v="Allara Street"/>
  </way>
  <way id="23651007" version="3" timestamp="2010-07-07T10:16:03Z" uid="74617" user="JohnSmith" changeset="5156250">
    <nd ref="256231126"/>
    <nd ref="256231152"/>
    <tag k="highway" v="residential"/>
    <tag k="maxspeed" v="50"/>
    <tag k="maxspeed:source" v="default residential speed limit in Australia"/>
    <tag k="name" v="Amaroo Street"/>
  </way>
  <way id="23651007" version="4" timestamp="2012-01-16T04:37:59Z" uid="147510" user="woodpeck_fixbot" changeset="10405303">
    <nd ref="256231126"/>
    <nd ref="256231152"/>
    <tag k="highway" v="residential"/>
    <tag k="name" v="Amaroo Street"/>
  </way>
  <way id="23651028" version="4" timestamp="2009-12-10T00:05:34Z" uid="200463" user="harmagedon" changeset="3338481">
    <nd ref="262531544"/>
    <nd ref="256231725"/>
    <nd ref="126121167"/>
    <tag k="highway" v="secondary"/>
    <tag k="name" v="Friedensstraße"/>
  </way>
  <way id="23651028" version="5" timestamp="2010-02-06T18:08:00Z" uid="31185" user="es_ka" changeset="3807463">
    <nd ref="262531544"/>
    <nd ref="126121167"/>
    <tag k="highway" v="secondary"/>
    <tag k="name" v="Friedensstraße"/>
    <tag k="ref" v="S 132a"/>
  </way>
  <way id="23651028" version="6" timestamp="2011-02-25T11:36:38Z" uid="351106" user="Dundee77" changeset="7389614">
    <nd ref="262531544"/>
    <nd ref="126121167"/>
    <nd ref="126121167"/>
    <tag k="highway" v="secondary"/>
    <tag k="name" v="Friedensstraße"/>
    <tag k="ref" v="S 132a"/>
  </way>
  <way id="23651028" version="7" timestamp="2011-02-25T20:45:54Z" uid="70696" user="xybot" changeset="7393549">
    <nd ref="262531544"/>
    <nd ref="126121167"/>
    <tag k="highway" v="secondary"/>
    <tag k="name" v="Friedensstraße"/>
    <tag k="ref" v="S 132a"/>
  </way>
  <way id="23651031" version="5" timestamp="2009-12-10T00:06:33Z" uid="200463" user="harmagedon" changeset="3338481">
    <nd ref="30452424"/>
    <nd ref="258477162"/>
    <nd ref="157059096"/>
    <nd ref="157059102"/>
    <nd ref="30452425"/>
    <tag k="highway" v="primary"/>
    <tag k="name" v="Rosa-Luxemburg-Straße"/>
    <tag k="ref" v="B 99"/>
  </way>
  <way id="23651031" version="6" timestamp="2010-06-10T17:34:26Z" uid="31185" user="es_ka" changeset="4955984">
    <nd ref="30452424"/>
    <nd ref="258477162"/>
    <nd ref="157059096"/>
    <tag k="highway" v="primary"/>
    <tag k="name" v="Rosa-Luxemburg-Straße"/>
    <tag k="ref" v="B 99"/>
  </way>
  <way id="23651031" version="7" timestamp="2010-06-21T17:53:20Z" uid="31185" user="es_ka" changeset="5044701">
    <nd ref="30452424"/>
    <nd ref="258477162"/>
    <tag k="highway" v="primary"/>
    <tag k="name" v="Rosa-Luxemburg-Straße"/>
    <tag k="parking:lane:left" v="no_stopping"/>
    <tag k="ref" v="B 99"/>
  </way>
  <way id="23651032" version="7" timestamp="2010-03-13T23:04:48Z" uid="114881" user="ratsonroP" changeset="4120038">
    <nd ref="190622964"/>
    <nd ref="256231868"/>
    <nd ref="665557686"/>
    <nd ref="256231869"/>
    <nd ref="256231870"/>
    <tag k="highway" v="secondary"/>
    <tag k="name" v="Chopinstraße"/>
  </way>
  <way id="23651032" version="8" timestamp="2010-03-14T23:11:10Z" uid="114881" user="ratsonroP" changeset="4130863">
    <nd ref="190622964"/>
    <nd ref="256231868"/>
    <nd ref="666464618"/>
    <nd ref="256231869"/>
    <nd ref="256231870"/>
    <tag k="highway" v="secondary"/>
    <tag k="name" v="Chopinstraße"/>
  </way>
  <way id="23651032" version="9" timestamp="2010-05-10T17:32:00Z" uid="31185" user="es_ka" changeset="4661444">
    <nd ref="190622964"/>
    <nd ref="256231868"/>
    <nd ref="666464618"/>
    <nd ref="256231869"/>
    <nd ref="256231870"/>
    <tag k="highway" v="secondary"/>
    <tag k="maxspeed:hgv" v="30"/>
    <tag k="name" v="Chopinstraße"/>
  </way>
  <way id="23651032" version="10" timestamp="2011-04-11T06:55:26Z" uid="351106" user="Dundee77" changeset="7829858">
    <nd ref="190622964"/>
    <nd ref="256231868"/>
    <nd ref="666464618"/>
    <nd ref="256231869"/>
    <nd ref="256231870"/>
    <tag k="highway" v="tertiary"/>
    <tag k="maxspeed:hgv" v="30"/>
    <tag k="name" v="Chopinstraße"/>
  </way>
  <way id="23651032" version="11" timestamp="2011-12-20T20:49:01Z" uid="524053" user="k11" changeset="10166892">
    <nd ref="190622964"/>
    <nd ref="256231868"/>
    <nd ref="666464618"/>
    <nd ref="256231869"/>
    <nd ref="256231870"/>
    <tag k="highway" v="tertiary"/>
    <tag k="maxspeed:hgv" v="30"/>
    <tag k="name" v="Friedrich Chopin Straße"/>
  </way>
  <way id="23651033" version="10" timestamp="2009-12-10T00:07:09Z" uid="200463" user="harmagedon" changeset="3338481">
    <nd ref="190622961"/>
    <nd ref="402618896"/>
    <tag k="bicycle" v="yes"/>
    <tag k="foot" v="yes"/>
    <tag k="highway" v="service"/>
    <tag k="oneway" v="yes"/>
  </way>
  <way id="23651033" version="11" timestamp="2012-02-20T16:52:45Z" uid="139937" user="AlterSachse" changeset="10742355">
    <nd ref="190622961"/>
    <nd ref="402618896"/>
    <tag k="bicycle" v="yes"/>
    <tag k="foot" v="yes"/>
    <tag k="highway" v="service"/>
  </way>
  <way id="23651034" version="7" timestamp="2009-12-10T00:07:09Z" uid="200463" user="harmagedon" changeset="3338481">
    <nd ref="190622961"/>
    <nd ref="402618903"/>
    <nd ref="264762489"/>
    <tag k="highway" v="secondary"/>
    <tag k="name" v="Chopinstraße"/>
    <tag k="ref" v="S 146"/>
  </way>
  <way id="23651034" version="8" timestamp="2010-05-18T21:03:00Z" uid="31185" user="es_ka" changeset="4742994">
    <nd ref="190622961"/>
    <nd ref="402618903"/>
    <tag k="highway" v="secondary"/>
    <tag k="name" v="Chopinstraße"/>
    <tag k="ref" v="S 146"/>
  </way>
  <way id="23651078" version="2" timestamp="2010-07-07T10:15:30Z" uid="74617" user="JohnSmith" changeset="5156250">
    <nd ref="256229471"/>
    <nd ref="256232423"/>
    <nd ref="256232424"/>
    <nd ref="256232426"/>
    <nd ref="256232428"/>
    <nd ref="256232429"/>
    <nd ref="256232431"/>
    <nd ref="256232433"/>
    <tag k="highway" v="residential"/>
    <tag k="maxspeed" v="50"/>
    <tag k="maxspeed:source" v="default residential speed limit in Australia"/>
    <tag k="name" v="Babin Place"/>
  </way>
  <way id="23651078" version="3" timestamp="2012-01-16T04:38:00Z" uid="147510" user="woodpeck_fixbot" changeset="10405303">
    <nd ref="256229471"/>
    <nd ref="256232423"/>
    <nd ref="256232424"/>
    <nd ref="256232426"/>
    <nd ref="256232428"/>
    <nd ref="256232429"/>
    <nd ref="256232431"/>
    <nd ref="256232433"/>
    <tag k="highway" v="residential"/>
    <tag k="name" v="Babin Place"/>
  </way>
  <way id="23651079" version="2" timestamp="2010-07-07T10:15:45Z" uid="74617" user="JohnSmith" changeset="5156250">
    <nd ref="256229472"/>
    <nd ref="256232435"/>
    <tag k="highway" v="residential"/>
    <tag k="maxspeed" v="50"/>
    <tag k="maxspeed:source" v="default residential speed limit in Australia"/>
    <tag k="name" v="Ballang Place"/>
  </way>
  <way id="23651079" version="3" timestamp="2012-01-16T04:38:02Z" uid="147510" user="woodpeck_fixbot" changeset="10405303">
    <nd ref="256229472"/>
    <nd ref="256232435"/>
    <tag k="highway" v="residential"/>
    <tag k="name" v="Ballang Place"/>
  </way>
  <way id="23651081" version="2" timestamp="2010-07-07T10:15:52Z" uid="74617" user="JohnSmith" changeset="5156250">
    <nd ref="256229491"/>
    <nd ref="256232437"/>
    <nd ref="256232439"/>
    <nd ref="256232441"/>
    <nd ref="256232443"/>
    <nd ref="256232444"/>
    <tag k="highway" v="residential"/>
    <tag k="maxspeed" v="50"/>
    <tag k="maxspeed:source" v="default residential speed limit in Australia"/>
    <tag k="name" v="Balli Place"/>
  </way>
  <way id="23651081" version="3" timestamp="2012-01-16T04:38:03Z" uid="147510" user="woodpeck_fixbot" changeset="10405303">
    <nd ref="256229491"/>
    <nd ref="256232437"/>
    <nd ref="256232439"/>
    <nd ref="256232441"/>
    <nd ref="256232443"/>
    <nd ref="256232444"/>
    <tag k="highway" v="residential"/>
    <tag k="name" v="Balli Place"/>
  </way>
  <way id="23651083" version="2" timestamp="2010-07-07T10:15:33Z" uid="74617" user="JohnSmith" changeset="5156250">
    <nd ref="256229493"/>
    <nd ref="256232448"/>
    <tag k="highway" v="residential"/>
    <tag k="maxspeed" v="50"/>
    <tag k="maxspeed:source" v="default residential speed limit in Australia"/>
    <tag k="name" v="Doondoo Street"/>
  </way>
  <way id="23651083" version="3" timestamp="2012-01-16T04:38:04Z" uid="147510" user="woodpeck_fixbot" changeset="10405303">
    <nd ref="256229493"/>
    <nd ref="256232448"/>
    <tag k="highway" v="residential"/>
    <tag k="name" v="Doondoo Street"/>
  </way>
  <way id="23651084" version="2" timestamp="2010-07-07T10:15:27Z" uid="74617" user="JohnSmith" changeset="5156250">
    <nd ref="256229495"/>
    <nd ref="256232453"/>
    <nd ref="256232459"/>
    <nd ref="256232465"/>
    <tag k="highway" v="residential"/>
    <tag k="maxspeed" v="50"/>
    <tag k="maxspeed:source" v="default residential speed limit in Australia"/>
    <tag k="name" v="Gerelong Place"/>
  </way>
  <way id="23651084" version="3" timestamp="2012-01-16T04:38:05Z" uid="147510" user="woodpeck_fixbot" changeset="10405303">
    <nd ref="256229495"/>
    <nd ref="256232453"/>
    <nd ref="256232459"/>
    <nd ref="256232465"/>
    <tag k="highway" v="residential"/>
    <tag k="name" v="Gerelong Place"/>
  </way>
  <way id="23651133" version="6" timestamp="2010-03-22T10:03:04Z" uid="74617" user="JohnSmith" changeset="4200661">
    <nd ref="365728764"/>
    <nd ref="365728746"/>
    <nd ref="365728726"/>
    <nd ref="365728710"/>
    <nd ref="365728695"/>
    <nd ref="365728680"/>
    <nd ref="365728662"/>
    <nd ref="256232748"/>
    <tag k="man_made" v="pipeline"/>
    <tag k="name" v="Mannum - Adelaide Pipeline"/>
    <tag k="source" v="extrapolation"/>
    <tag k="source:name" v="local knowledge"/>
    <tag k="type" v="water"/>
  </way>
  <way id="23651133" version="7" timestamp="2011-04-10T23:08:16Z" uid="328538" user="o&apos;cholio" changeset="7828568">
    <nd ref="1240413325"/>
    <nd ref="1240413772"/>
    <nd ref="1240413477"/>
    <nd ref="1240413376"/>
    <nd ref="1240413290"/>
    <tag k="man_made" v="pipeline"/>
    <tag k="name" v="Mannum - Adelaide Pipeline"/>
    <tag k="source" v="nearmap"/>
    <tag k="source:name" v="local knowledge"/>
    <tag k="type" v="water"/>
  </way>
  <way id="23651136" version="7" timestamp="2010-03-22T10:03:30Z" uid="74617" user="JohnSmith" changeset="4200661">
    <nd ref="270221982"/>
    <nd ref="365728612"/>
    <nd ref="270222098"/>
    <nd ref="270222099"/>
    <nd ref="270222100"/>
    <nd ref="270222101"/>
    <nd ref="365728556"/>
    <nd ref="365728541"/>
    <tag k="highway" v="secondary"/>
    <tag k="maxspeed" v="110"/>
    <tag k="name" v="Adelaide Mannum Road"/>
    <tag k="source" v="survey"/>
    <tag k="source_ref:speed" v="http://osm.beldin.org/2009/03/_SCF8407.JPG"/>
  </way>
  <way id="23651368" version="4" timestamp="2010-04-19T07:56:48Z" uid="4467" user="Rosscoe" changeset="4465588">
    <nd ref="256234406"/>
    <nd ref="256234374"/>
    <nd ref="256234528"/>
    <nd ref="256234408"/>
    <nd ref="257056498"/>
    <nd ref="701732152"/>
    <tag k="highway" v="residential"/>
    <tag k="maxspeed" v="50"/>
    <tag k="name" v="Mandala Crescent"/>
  </way>
  <way id="23651371" version="2" timestamp="2010-07-09T08:08:37Z" uid="74617" user="JohnSmith" changeset="5171412">
    <nd ref="256234459"/>
    <nd ref="256234463"/>
    <tag k="highway" v="residential"/>
    <tag k="maxspeed" v="50"/>
    <tag k="maxspeed:source" v="default residential speed limit in Australia"/>
    <tag k="name" v="Arcadia Crescent"/>
  </way>
  <way id="23651371" version="3" timestamp="2012-01-16T04:38:06Z" uid="147510" user="woodpeck_fixbot" changeset="10405303">
    <nd ref="256234459"/>
    <nd ref="256234463"/>
    <tag k="highway" v="residential"/>
    <tag k="name" v="Arcadia Crescent"/>
  </way>
  <way id="23651374" version="3" timestamp="2010-04-19T07:56:48Z" uid="4467" user="Rosscoe" changeset="4465588">
    <nd ref="701732159"/>
    <nd ref="256234417"/>
    <nd ref="256234446"/>
    <nd ref="256234475"/>
    <nd ref="256234499"/>
    <nd ref="256234511"/>
    <nd ref="256234514"/>
    <nd ref="256234521"/>
    <tag k="highway" v="residential"/>
    <tag k="maxspeed" v="50"/>
    <tag k="name" v="Noalimba Crescent"/>
  </way>
  <way id="23651376" version="5" timestamp="2010-06-11T06:03:31Z" uid="4467" user="Rosscoe" changeset="4959872">
    <nd ref="256234531"/>
    <nd ref="260586264"/>
    <nd ref="256234532"/>
    <nd ref="31003915"/>
    <tag k="highway" v="residential"/>
    <tag k="maxspeed" v="50"/>
    <tag k="name" v="Amur Place"/>
  </way>
  <way id="23651379" version="6" timestamp="2010-04-19T07:56:46Z" uid="4467" user="Rosscoe" changeset="4465588">
    <nd ref="256234537"/>
    <nd ref="256234551"/>
    <nd ref="256234553"/>
    <nd ref="256234555"/>
    <nd ref="256234560"/>
    <nd ref="257056493"/>
    <nd ref="257056492"/>
    <nd ref="256234521"/>
    <nd ref="701732153"/>
    <tag k="highway" v="residential"/>
    <tag k="maxspeed" v="50"/>
    <tag k="name" v="Stuart Court"/>
  </way>
  <way id="23651500" version="5" timestamp="2009-12-10T00:08:47Z" uid="200463" user="harmagedon" changeset="3338481">
    <nd ref="245059209"/>
    <nd ref="245059211"/>
    <nd ref="245059212"/>
    <nd ref="245059213"/>
    <nd ref="245059215"/>
    <nd ref="245059217"/>
    <nd ref="245059218"/>
    <nd ref="245059220"/>
    <nd ref="245059222"/>
    <nd ref="245059223"/>
    <nd ref="245059225"/>
    <nd ref="245059226"/>
    <nd ref="245059228"/>
    <nd ref="245059230"/>
    <nd ref="245059232"/>
    <nd ref="245059233"/>
    <tag k="highway" v="residential"/>
    <tag k="name" v="Klosterstraße"/>
    <tag k="surface" v="paved"/>
  </way>
  <way id="23651500" version="6" timestamp="2012-02-05T19:49:26Z" uid="35618" user="schorsch" changeset="10597505">
    <nd ref="245059209"/>
    <nd ref="245059211"/>
    <nd ref="1619335695"/>
    <nd ref="245059212"/>
    <nd ref="245059213"/>
    <nd ref="245059215"/>
    <nd ref="245059217"/>
    <nd ref="245059218"/>
    <nd ref="245059220"/>
    <nd ref="245059222"/>
    <nd ref="245059223"/>
    <nd ref="245059225"/>
    <nd ref="245059226"/>
    <nd ref="245059228"/>
    <nd ref="245059230"/>
    <nd ref="245059232"/>
    <nd ref="245059233"/>
    <tag k="highway" v="residential"/>
    <tag k="name" v="Klosterstraße"/>
    <tag k="surface" v="paved"/>
  </way>
  <way id="23651648" version="2" timestamp="2010-07-07T10:15:48Z" uid="74617" user="JohnSmith" changeset="5156250">
    <nd ref="256229496"/>
    <nd ref="256236673"/>
    <nd ref="256236674"/>
    <nd ref="256236675"/>
    <nd ref="256236672"/>
    <tag k="highway" v="residential"/>
    <tag k="maxspeed" v="50"/>
    <tag k="maxspeed:source" v="default residential speed limit in Australia"/>
    <tag k="name" v="Goonda Street"/>
  </way>
  <way id="23651648" version="3" timestamp="2012-01-16T04:38:07Z" uid="147510" user="woodpeck_fixbot" changeset="10405303">
    <nd ref="256229496"/>
    <nd ref="256236673"/>
    <nd ref="256236674"/>
    <nd ref="256236675"/>
    <nd ref="256236672"/>
    <tag k="highway" v="residential"/>
    <tag k="name" v="Goonda Street"/>
  </way>
  <way id="23651649" version="2" timestamp="2010-07-07T10:15:59Z" uid="74617" user="JohnSmith" changeset="5156250">
    <nd ref="256229469"/>
    <nd ref="256236634"/>
    <nd ref="256236635"/>
    <nd ref="256236643"/>
    <nd ref="256236651"/>
    <nd ref="256236655"/>
    <nd ref="256236658"/>
    <nd ref="256236659"/>
    <nd ref="256236660"/>
    <nd ref="256236669"/>
    <nd ref="256236670"/>
    <nd ref="256236671"/>
    <nd ref="256236672"/>
    <nd ref="256236676"/>
    <nd ref="256236677"/>
    <nd ref="256236683"/>
    <nd ref="256236684"/>
    <nd ref="256236685"/>
    <nd ref="256236694"/>
    <nd ref="256236695"/>
    <tag k="highway" v="residential"/>
    <tag k="maxspeed" v="50"/>
    <tag k="maxspeed:source" v="default residential speed limit in Australia"/>
    <tag k="name" v="Baroona Avenue"/>
  </way>
  <way id="23651649" version="3" timestamp="2012-01-16T04:38:09Z" uid="147510" user="woodpeck_fixbot" changeset="10405303">
    <nd ref="256229469"/>
    <nd ref="256236634"/>
    <nd ref="256236635"/>
    <nd ref="256236643"/>
    <nd ref="256236651"/>
    <nd ref="256236655"/>
    <nd ref="256236658"/>
    <nd ref="256236659"/>
    <nd ref="256236660"/>
    <nd ref="256236669"/>
    <nd ref="256236670"/>
    <nd ref="256236671"/>
    <nd ref="256236672"/>
    <nd ref="256236676"/>
    <nd ref="256236677"/>
    <nd ref="256236683"/>
    <nd ref="256236684"/>
    <nd ref="256236685"/>
    <nd ref="256236694"/>
    <nd ref="256236695"/>
    <tag k="highway" v="residential"/>
    <tag k="name" v="Baroona Avenue"/>
  </way>
  <way id="23651650" version="2" timestamp="2010-07-07T10:15:29Z" uid="74617" user="JohnSmith" changeset="5156250">
    <nd ref="256229494"/>
    <nd ref="256236697"/>
    <nd ref="256236698"/>
    <nd ref="256236699"/>
    <nd ref="256236671"/>
    <tag k="highway" v="residential"/>
    <tag k="maxspeed" v="50"/>
    <tag k="maxspeed:source" v="default residential speed limit in Australia"/>
    <tag k="name" v="Geewa Street"/>
  </way>
  <way id="23651650" version="3" timestamp="2012-01-16T04:38:11Z" uid="147510" user="woodpeck_fixbot" changeset="10405303">
    <nd ref="256229494"/>
    <nd ref="256236697"/>
    <nd ref="256236698"/>
    <nd ref="256236699"/>
    <nd ref="256236671"/>
    <tag k="highway" v="residential"/>
    <tag k="name" v="Geewa Street"/>
  </way>
  <way id="23651651" version="2" timestamp="2010-07-07T10:15:44Z" uid="74617" user="JohnSmith" changeset="5156250">
    <nd ref="256229492"/>
    <nd ref="256236700"/>
    <nd ref="256236701"/>
    <nd ref="256236702"/>
    <nd ref="256236703"/>
    <nd ref="256236704"/>
    <nd ref="256236669"/>
    <tag k="highway" v="residential"/>
    <tag k="maxspeed" v="50"/>
    <tag k="maxspeed:source" v="default residential speed limit in Australia"/>
    <tag k="name" v="Bundella Street"/>
  </way>
  <way id="23651651" version="3" timestamp="2012-01-16T04:38:13Z" uid="147510" user="woodpeck_fixbot" changeset="10405303">
    <nd ref="256229492"/>
    <nd ref="256236700"/>
    <nd ref="256236701"/>
    <nd ref="256236702"/>
    <nd ref="256236703"/>
    <nd ref="256236704"/>
    <nd ref="256236669"/>
    <tag k="highway" v="residential"/>
    <tag k="name" v="Bundella Street"/>
  </way>
  <way id="23651653" version="2" timestamp="2010-07-07T10:15:51Z" uid="74617" user="JohnSmith" changeset="5156250">
    <nd ref="256229490"/>
    <nd ref="256236660"/>
    <tag k="highway" v="residential"/>
    <tag k="maxspeed" v="50"/>
    <tag k="maxspeed:source" v="default residential speed limit in Australia"/>
    <tag k="name" v="Buddang Street"/>
  </way>
  <way id="23651653" version="3" timestamp="2012-01-16T04:38:15Z" uid="147510" user="woodpeck_fixbot" changeset="10405303">
    <nd ref="256229490"/>
    <nd ref="256236660"/>
    <tag k="highway" v="residential"/>
    <tag k="name" v="Buddang Street"/>
  </way>
  <way id="23651654" version="2" timestamp="2010-07-07T10:16:04Z" uid="74617" user="JohnSmith" changeset="5156250">
    <nd ref="256236659"/>
    <nd ref="147351861"/>
    <tag k="highway" v="residential"/>
    <tag k="maxspeed" v="50"/>
    <tag k="maxspeed:source" v="default residential speed limit in Australia"/>
    <tag k="name" v="Boona Street"/>
  </way>
  <way id="23651654" version="3" timestamp="2012-01-16T04:38:16Z" uid="147510" user="woodpeck_fixbot" changeset="10405303">
    <nd ref="256236659"/>
    <nd ref="147351861"/>
    <tag k="highway" v="residential"/>
    <tag k="name" v="Boona Street"/>
  </way>
  <way id="23651656" version="2" timestamp="2010-07-07T10:15:26Z" uid="74617" user="JohnSmith" changeset="5156250">
    <nd ref="256236655"/>
    <nd ref="256236705"/>
    <nd ref="256236706"/>
    <nd ref="147351846"/>
    <tag k="highway" v="residential"/>
    <tag k="maxspeed" v="50"/>
    <tag k="maxspeed:source" v="default residential speed limit in Australia"/>
    <tag k="name" v="Bowi Street"/>
  </way>
  <way id="23651656" version="3" timestamp="2012-01-16T04:38:17Z" uid="147510" user="woodpeck_fixbot" changeset="10405303">
    <nd ref="256236655"/>
    <nd ref="256236705"/>
    <nd ref="256236706"/>
    <nd ref="147351846"/>
    <tag k="highway" v="residential"/>
    <tag k="name" v="Bowi Street"/>
  </way>
  <way id="23651657" version="2" timestamp="2010-07-07T10:15:41Z" uid="74617" user="JohnSmith" changeset="5156250">
    <nd ref="256236705"/>
    <nd ref="256236708"/>
    <tag k="highway" v="residential"/>
    <tag k="maxspeed" v="50"/>
    <tag k="maxspeed:source" v="default residential speed limit in Australia"/>
    <tag k="name" v="Boogen Place"/>
  </way>
  <way id="23651657" version="3" timestamp="2012-01-16T04:38:18Z" uid="147510" user="woodpeck_fixbot" changeset="10405303">
    <nd ref="256236705"/>
    <nd ref="256236708"/>
    <tag k="highway" v="residential"/>
    <tag k="name" v="Boogen Place"/>
  </way>
  <way id="23651775" version="2" timestamp="2010-07-07T10:15:45Z" uid="74617" user="JohnSmith" changeset="5156250">
    <nd ref="256229501"/>
    <nd ref="256237505"/>
    <nd ref="256237506"/>
    <nd ref="256237507"/>
    <nd ref="256237508"/>
    <nd ref="256237509"/>
    <nd ref="256237510"/>
    <nd ref="256237511"/>
    <nd ref="256237513"/>
    <nd ref="256237517"/>
    <nd ref="256237522"/>
    <nd ref="256237526"/>
    <tag k="highway" v="residential"/>
    <tag k="maxspeed" v="50"/>
    <tag k="maxspeed:source" v="default residential speed limit in Australia"/>
    <tag k="name" v="Geringa Avenue"/>
  </way>
  <way id="23651775" version="3" timestamp="2012-01-16T04:38:19Z" uid="147510" user="woodpeck_fixbot" changeset="10405303">
    <nd ref="256229501"/>
    <nd ref="256237505"/>
    <nd ref="256237506"/>
    <nd ref="256237507"/>
    <nd ref="256237508"/>
    <nd ref="256237509"/>
    <nd ref="256237510"/>
    <nd ref="256237511"/>
    <nd ref="256237513"/>
    <nd ref="256237517"/>
    <nd ref="256237522"/>
    <nd ref="256237526"/>
    <tag k="highway" v="residential"/>
    <tag k="name" v="Geringa Avenue"/>
  </way>
  <way id="23651776" version="2" timestamp="2010-07-07T10:15:56Z" uid="74617" user="JohnSmith" changeset="5156250">
    <nd ref="256229497"/>
    <nd ref="256237530"/>
    <nd ref="256237532"/>
    <nd ref="256237526"/>
    <tag k="highway" v="residential"/>
    <tag k="maxspeed" v="50"/>
    <tag k="maxspeed:source" v="default residential speed limit in Australia"/>
    <tag k="name" v="Giwang Street"/>
  </way>
  <way id="23651776" version="3" timestamp="2012-01-16T04:38:20Z" uid="147510" user="woodpeck_fixbot" changeset="10405303">
    <nd ref="256229497"/>
    <nd ref="256237530"/>
    <nd ref="256237532"/>
    <nd ref="256237526"/>
    <tag k="highway" v="residential"/>
    <tag k="name" v="Giwang Street"/>
  </way>
  <way id="23651777" version="2" timestamp="2010-07-07T10:15:24Z" uid="74617" user="JohnSmith" changeset="5156250">
    <nd ref="256229502"/>
    <nd ref="256237533"/>
    <nd ref="256237536"/>
    <nd ref="256237550"/>
    <nd ref="256237555"/>
    <nd ref="256237556"/>
    <nd ref="256236676"/>
    <tag k="highway" v="residential"/>
    <tag k="maxspeed" v="50"/>
    <tag k="maxspeed:source" v="default residential speed limit in Australia"/>
    <tag k="name" v="Koonee Avenue"/>
  </way>
  <way id="23651777" version="3" timestamp="2012-01-16T04:38:21Z" uid="147510" user="woodpeck_fixbot" changeset="10405303">
    <nd ref="256229502"/>
    <nd ref="256237533"/>
    <nd ref="256237536"/>
    <nd ref="256237550"/>
    <nd ref="256237555"/>
    <nd ref="256237556"/>
    <nd ref="256236676"/>
    <tag k="highway" v="residential"/>
    <tag k="name" v="Koonee Avenue"/>
  </way>
  <way id="23651778" version="2" timestamp="2010-07-07T10:15:39Z" uid="74617" user="JohnSmith" changeset="5156250">
    <nd ref="256229498"/>
    <nd ref="256237556"/>
    <tag k="highway" v="residential"/>
    <tag k="maxspeed" v="50"/>
    <tag k="maxspeed:source" v="default residential speed limit in Australia"/>
    <tag k="name" v="Goonaroo Street"/>
  </way>
  <way id="23651778" version="3" timestamp="2012-01-16T04:38:23Z" uid="147510" user="woodpeck_fixbot" changeset="10405303">
    <nd ref="256229498"/>
    <nd ref="256237556"/>
    <tag k="highway" v="residential"/>
    <tag k="name" v="Goonaroo Street"/>
  </way>
  <way id="23651779" version="3" timestamp="2010-07-07T10:15:53Z" uid="74617" user="JohnSmith" changeset="5156250">
    <nd ref="256236684"/>
    <nd ref="256237557"/>
    <nd ref="256237558"/>
    <nd ref="256237559"/>
    <nd ref="256237560"/>
    <nd ref="256237561"/>
    <nd ref="256237562"/>
    <nd ref="260359796"/>
    <nd ref="256229553"/>
    <tag k="highway" v="residential"/>
    <tag k="maxspeed" v="50"/>
    <tag k="maxspeed:source" v="default residential speed limit in Australia"/>
    <tag k="name" v="Jerrang Avenue"/>
  </way>
  <way id="23651779" version="4" timestamp="2012-01-16T04:38:25Z" uid="147510" user="woodpeck_fixbot" changeset="10405303">
    <nd ref="256236684"/>
    <nd ref="256237557"/>
    <nd ref="256237558"/>
    <nd ref="256237559"/>
    <nd ref="256237560"/>
    <nd ref="256237561"/>
    <nd ref="256237562"/>
    <nd ref="260359796"/>
    <nd ref="256229553"/>
    <tag k="highway" v="residential"/>
    <tag k="name" v="Jerrang Avenue"/>
  </way>
  <way id="23651838" version="8" timestamp="2009-12-10T00:36:51Z" uid="200463" user="harmagedon" changeset="3338639">
    <nd ref="256238314"/>
    <nd ref="30452221"/>
    <nd ref="30452223"/>
    <nd ref="30452225"/>
    <nd ref="30452228"/>
    <nd ref="30452230"/>
    <nd ref="30452232"/>
    <nd ref="30452234"/>
    <nd ref="30452236"/>
    <nd ref="379781916"/>
    <nd ref="415004530"/>
    <nd ref="415004533"/>
    <nd ref="30452241"/>
    <nd ref="474524962"/>
    <nd ref="269696906"/>
    <tag k="highway" v="primary"/>
    <tag k="ref" v="B 99"/>
  </way>
  <way id="23651840" version="6" timestamp="2009-10-07T17:02:02Z" uid="86259" user="hasse_osm_korinthenkacker" changeset="2773624">
    <nd ref="25641367"/>
    <nd ref="278993067"/>
    <tag k="highway" v="primary"/>
    <tag k="name" v="Zittauer Straße"/>
    <tag k="ref" v="B 99"/>
  </way>
</osm>
