<?xml version='1.0' encoding='UTF-8'?>
<osm version="0.6" generator="libosmium/2.20.0">
  <way id="23756181" version="3" timestamp="2009-04-28T14:34:44Z" uid="119528" user="TollpoZ" changeset="1004708">
    <nd ref="257391196"/>
    <nd ref="282725281"/>
    <nd ref="386796285"/>
    <nd ref="257391188"/>
    <tag k="created_by" v="Potlatch 0.10b"/>
    <tag k="highway" v="service"/>
  </way>
  <way id="23756181" version="4" timestamp="2009-04-28T14:42:00Z" uid="119528" user="TollpoZ" changeset="1004708">
    <nd ref="257391196"/>
    <nd ref="282725281"/>
    <nd ref="386796285"/>
    <nd ref="386801671"/>
    <nd ref="257391188"/>
    <tag k="created_by" v="Potlatch 0.10b"/>
    <tag k="highway" v="service"/>
  </way>
  <way id="23756181" version="5" timestamp="2009-06-11T15:02:22Z" uid="85761" user="klausis" changeset="1488127">
    <nd ref="257391196"/>
    <nd ref="282725281"/>
    <nd ref="386796285"/>
    <nd ref="386801671"/>
    <nd ref="257391188"/>
    <tag k="highway" v="service"/>
  </way>
  <way id="23756181" version="6" timestamp="2010-03-27T22:09:08Z" uid="212111" user="okilimu" changeset="4251446">
    <nd ref="676305908"/>
    <nd ref="282725281"/>
    <nd ref="386796285"/>
    <nd ref="386801671"/>
    <nd ref="257391188"/>
    <tag k="highway" v="service"/>
  </way>
  <way id="23756181" version="7" timestamp="2010-08-01T08:04:58Z" uid="212111" user="okilimu" changeset="5368336">
    <nd ref="676305908"/>
    <nd ref="282725281"/>
    <nd ref="841522008"/>
    <nd ref="386796285"/>
    <nd ref="386801671"/>
    <nd ref="257391188"/>
    <tag k="highway" v="service"/>
  </way>
  <way id="23756312" version="2" timestamp="2010-08-01T07:02:58Z" uid="33382" user="de_muur" changeset="5368045">
    <nd ref="36801025"/>
    <nd ref="36801026"/>
    <tag k="highway" v="residential"/>
    <tag k="name" v="Am Jugendhof"/>
  </way>
  <way id="23756423" version="7" timestamp="2008-07-07T02:25:45Z" uid="6975" user="ulfl" changeset="415781">
    <nd ref="257393432"/>
    <nd ref="269158178"/>
    <tag k="highway" v="primary"/>
    <tag k="int_ref" v="E577"/>
    <tag k="name" v="DN21;E577"/>
    <tag k="nat_ref" v="DN21"/>
    <tag k="ref" v="DN21;E577"/>
  </way>
  <way id="23756423" version="8" timestamp="2008-10-20T18:50:18Z" uid="30383" user="alex-map" changeset="466440">
    <nd ref="257393432"/>
    <nd ref="269158178"/>
    <tag k="created_by" v="Potlatch 0.10e"/>
    <tag k="highway" v="primary"/>
    <tag k="int_ref" v="E577"/>
    <tag k="name" v="DN21, E577"/>
    <tag k="nat_ref" v="DN21"/>
    <tag k="ref" v="DN21, E577"/>
  </way>
  <way id="23756423" version="9" timestamp="2008-11-19T11:43:49Z" uid="66944" user="eddyp" changeset="767262">
    <nd ref="257393432"/>
    <nd ref="269158178"/>
    <tag k="created_by" v="Potlatch 0.10f"/>
    <tag k="highway" v="primary"/>
    <tag k="int_ref" v="E577"/>
    <tag k="nat_ref" v="DN21"/>
    <tag k="ref" v="DN21;E577"/>
  </way>
  <way id="23756423" version="10" timestamp="2008-12-04T20:07:29Z" uid="59628" user="Fabyen" changeset="114071">
    <nd ref="257393432"/>
    <nd ref="316682464"/>
    <tag k="created_by" v="Potlatch 0.10f"/>
    <tag k="highway" v="primary"/>
    <tag k="int_ref" v="E577"/>
    <tag k="nat_ref" v="DN21"/>
    <tag k="ref" v="DN21;E577"/>
  </way>
  <way id="23756423" version="11" timestamp="2009-10-21T10:34:50Z" uid="59628" user="Fabyen" changeset="2910812">
    <nd ref="257393432"/>
    <nd ref="316682464"/>
    <tag k="highway" v="primary"/>
    <tag k="int_ref" v="E577"/>
    <tag k="is_in" v="Călărași; România; EU"/>
    <tag k="is_in:country" v="România"/>
    <tag k="is_in:country_code" v="RO"/>
    <tag k="is_in:state" v="Călărași"/>
    <tag k="nat_ref" v="DN21"/>
    <tag k="ref" v="DN21;E577"/>
  </way>
  <way id="23756423" version="12" timestamp="2009-10-21T13:34:25Z" uid="59628" user="Fabyen" changeset="2912276">
    <nd ref="257393432"/>
    <nd ref="316682464"/>
    <tag k="highway" v="primary"/>
    <tag k="int_ref" v="E577"/>
    <tag k="is_in" v="Călărași; România; EU"/>
    <tag k="is_in:country" v="România"/>
    <tag k="is_in:country_code" v="RO"/>
    <tag k="nat_ref" v="DN21"/>
    <tag k="ref" v="DN21;E577"/>
  </way>
  <way id="23756423" version="13" timestamp="2010-04-05T20:22:19Z" uid="18072" user="Ciprian" changeset="4338351">
    <nd ref="257393432"/>
    <nd ref="316682464"/>
    <tag k="highway" v="primary"/>
    <tag k="is_in" v="Călărași; România; EU"/>
    <tag k="is_in:country" v="România"/>
    <tag k="is_in:country_code" v="RO"/>
    <tag k="nat_ref" v="DN21"/>
    <tag k="ref" v="DN21;E577"/>
  </way>
  <way id="23756423" version="14" timestamp="2010-04-25T22:09:46Z" uid="59628" user="Fabyen" changeset="4527217">
    <nd ref="257393432"/>
    <nd ref="706763598"/>
    <nd ref="316682464"/>
    <tag k="highway" v="primary"/>
    <tag k="is_in" v="Călărași; România; EU"/>
    <tag k="is_in:country" v="România"/>
    <tag k="is_in:country_code" v="RO"/>
    <tag k="nat_ref" v="DN21"/>
    <tag k="ref" v="DN21;E577"/>
  </way>
  <way id="23756423" version="15" timestamp="2010-10-17T13:41:39Z" uid="59628" user="Fabyen" changeset="6067176">
    <nd ref="257393432"/>
    <nd ref="954628577"/>
    <nd ref="706763598"/>
    <nd ref="316682464"/>
    <tag k="highway" v="primary"/>
    <tag k="is_in" v="Călărași; România; EU"/>
    <tag k="is_in:country" v="România"/>
    <tag k="is_in:country_code" v="RO"/>
    <tag k="nat_ref" v="DN21"/>
    <tag k="ref" v="DN21;E577"/>
  </way>
  <way id="23756423" version="16" timestamp="2010-12-28T18:14:46Z" uid="204685" user="Flaviu" changeset="6790804">
    <nd ref="257393432"/>
    <nd ref="954628577"/>
    <nd ref="706763598"/>
    <nd ref="316682464"/>
    <tag k="highway" v="primary"/>
    <tag k="is_in" v="Călărași; România; EU"/>
    <tag k="is_in:country" v="România"/>
    <tag k="is_in:country_code" v="RO"/>
    <tag k="maxspeed" v="RO:urban"/>
    <tag k="nat_ref" v="DN21"/>
    <tag k="ref" v="DN21;E577"/>
  </way>
  <way id="23756423" version="17" timestamp="2011-01-19T18:38:42Z" uid="204685" user="Flaviu" changeset="7023273">
    <nd ref="257393432"/>
    <nd ref="954628577"/>
    <nd ref="706763598"/>
    <nd ref="316682464"/>
    <tag k="highway" v="primary"/>
    <tag k="is_in" v="Călărași; România; EU"/>
    <tag k="is_in:city" v="Călărași"/>
    <tag k="is_in:country" v="România"/>
    <tag k="is_in:country_code" v="RO"/>
    <tag k="maxspeed" v="RO:urban"/>
    <tag k="nat_ref" v="DN21"/>
    <tag k="ref" v="DN21;E577"/>
  </way>
  <way id="23756458" version="1" timestamp="2008-04-13T16:31:43Z" uid="30632" user="antblant" changeset="131991">
    <nd ref="257393619"/>
    <nd ref="257393693"/>
    <nd ref="257393692"/>
    <nd ref="257393648"/>
    <tag k="created_by" v="JOSM"/>
    <tag k="highway" v="residential"/>
    <tag k="source" v="UMP-PL, ./UMP-Szczecin/src/GRYFICE.ulice.txt"/>
  </way>
  <way id="23756459" version="1" timestamp="2008-04-13T16:31:44Z" uid="30632" user="antblant" changeset="131991">
    <nd ref="257393724"/>
    <nd ref="257393932"/>
    <nd ref="257393918"/>
    <nd ref="257393923"/>
    <tag k="created_by" v="JOSM"/>
    <tag k="highway" v="residential"/>
    <tag k="name" v="Polna"/>
    <tag k="source" v="UMP-PL, ./UMP-Szczecin/src/GRYFICE.ulice.txt"/>
  </way>
  <way id="23756459" version="2" timestamp="2009-11-03T13:44:21Z" uid="36809" user="pfoten_weg_!_" changeset="3023908">
    <nd ref="257393724"/>
    <nd ref="257393932"/>
    <nd ref="257393918"/>
    <nd ref="257393923"/>
    <tag k="highway" v="residential"/>
    <tag k="name" v="Polna"/>
    <tag k="source" v="UMP-PL, ./UMP-Szczecin/src/GRYFICE.ulice.txt"/>
  </way>
  <way id="23756460" version="1" timestamp="2008-04-13T16:31:44Z" uid="30632" user="antblant" changeset="131991">
    <nd ref="257393614"/>
    <nd ref="257393647"/>
    <tag k="created_by" v="JOSM"/>
    <tag k="highway" v="residential"/>
    <tag k="name" v="Plac Zwycięstwa"/>
    <tag k="source" v="UMP-PL, ./UMP-Szczecin/src/GRYFICE.ulice.txt"/>
  </way>
  <way id="23756461" version="1" timestamp="2008-04-13T16:31:45Z" uid="30632" user="antblant" changeset="131991">
    <nd ref="257394090"/>
    <nd ref="257394091"/>
    <nd ref="257394088"/>
    <nd ref="257394089"/>
    <nd ref="257393671"/>
    <tag k="created_by" v="JOSM"/>
    <tag k="highway" v="residential"/>
    <tag k="name" v="Wybudowanie"/>
    <tag k="source" v="UMP-PL, ./UMP-Szczecin/src/GRYFICE.ulice.txt"/>
  </way>
  <way id="23756461" version="2" timestamp="2009-11-03T13:43:28Z" uid="36809" user="pfoten_weg_!_" changeset="3023908">
    <nd ref="257394090"/>
    <nd ref="257394091"/>
    <nd ref="257394088"/>
    <nd ref="257394089"/>
    <nd ref="257393671"/>
    <tag k="highway" v="residential"/>
    <tag k="name" v="Wybudowanie"/>
    <tag k="source" v="UMP-PL, ./UMP-Szczecin/src/GRYFICE.ulice.txt"/>
  </way>
  <way id="23756462" version="1" timestamp="2008-04-13T16:31:45Z" uid="30632" user="antblant" changeset="131991">
    <nd ref="257393691"/>
    <nd ref="257393690"/>
    <tag k="created_by" v="JOSM"/>
    <tag k="highway" v="residential"/>
    <tag k="name" v="Wesoła"/>
    <tag k="source" v="UMP-PL, ./UMP-Szczecin/src/GRYFICE.ulice.txt"/>
  </way>
  <way id="23756462" version="2" timestamp="2009-11-03T13:44:27Z" uid="36809" user="pfoten_weg_!_" changeset="3023908">
    <nd ref="257393691"/>
    <nd ref="257393690"/>
    <tag k="highway" v="residential"/>
    <tag k="name" v="Wesoła"/>
    <tag k="source" v="UMP-PL, ./UMP-Szczecin/src/GRYFICE.ulice.txt"/>
  </way>
  <way id="23756463" version="1" timestamp="2008-04-13T16:31:45Z" uid="30632" user="antblant" changeset="131991">
    <nd ref="257393932"/>
    <nd ref="257393946"/>
    <nd ref="257393950"/>
    <tag k="created_by" v="JOSM"/>
    <tag k="highway" v="residential"/>
    <tag k="name" v="Grudziądzka"/>
    <tag k="source" v="UMP-PL, ./UMP-Szczecin/src/GRYFICE.ulice.txt"/>
  </way>
  <way id="23756463" version="2" timestamp="2009-11-03T13:44:22Z" uid="36809" user="pfoten_weg_!_" changeset="3023908">
    <nd ref="257393932"/>
    <nd ref="257393946"/>
    <nd ref="257393950"/>
    <tag k="highway" v="residential"/>
    <tag k="name" v="Grudziądzka"/>
    <tag k="source" v="UMP-PL, ./UMP-Szczecin/src/GRYFICE.ulice.txt"/>
  </way>
  <way id="23756464" version="1" timestamp="2008-04-13T16:31:46Z" uid="30632" user="antblant" changeset="131991">
    <nd ref="257393851"/>
    <nd ref="257394036"/>
    <nd ref="257394037"/>
    <nd ref="257393747"/>
    <tag k="created_by" v="JOSM"/>
    <tag k="highway" v="residential"/>
    <tag k="source" v="UMP-PL, ./UMP-Szczecin/src/GRYFICE.ulice.txt"/>
  </way>
  <way id="23756464" version="2" timestamp="2009-11-03T13:44:13Z" uid="36809" user="pfoten_weg_!_" changeset="3023908">
    <nd ref="257393851"/>
    <nd ref="257394036"/>
    <nd ref="257394037"/>
    <nd ref="257393747"/>
    <tag k="highway" v="residential"/>
    <tag k="source" v="UMP-PL, ./UMP-Szczecin/src/GRYFICE.ulice.txt"/>
  </way>
  <way id="23756465" version="1" timestamp="2008-04-13T16:31:46Z" uid="30632" user="antblant" changeset="131991">
    <nd ref="257394039"/>
    <nd ref="257393661"/>
    <nd ref="257394071"/>
    <nd ref="257394069"/>
    <nd ref="257394094"/>
    <nd ref="257394095"/>
    <nd ref="257394041"/>
    <nd ref="257394092"/>
    <nd ref="257394093"/>
    <nd ref="257394090"/>
    <tag k="created_by" v="JOSM"/>
    <tag k="highway" v="residential"/>
    <tag k="name" v="Stefana Żeromskiego"/>
    <tag k="source" v="UMP-PL, ./UMP-Szczecin/src/GRYFICE.ulice.txt"/>
  </way>
  <way id="23756465" version="2" timestamp="2009-11-03T13:42:36Z" uid="36809" user="pfoten_weg_!_" changeset="3023908">
    <nd ref="257394039"/>
    <nd ref="257393661"/>
    <nd ref="257394071"/>
    <nd ref="257394069"/>
    <nd ref="257394094"/>
    <nd ref="257394095"/>
    <nd ref="257394041"/>
    <nd ref="257394092"/>
    <nd ref="257394093"/>
    <nd ref="257394090"/>
    <tag k="highway" v="residential"/>
    <tag k="name" v="Stefana Żeromskiego"/>
    <tag k="source" v="UMP-PL, ./UMP-Szczecin/src/GRYFICE.ulice.txt"/>
  </way>
  <way id="23756466" version="1" timestamp="2008-04-13T16:31:47Z" uid="30632" user="antblant" changeset="131991">
    <nd ref="257393946"/>
    <nd ref="257393935"/>
    <nd ref="257393939"/>
    <tag k="created_by" v="JOSM"/>
    <tag k="highway" v="residential"/>
    <tag k="name" v="Bydgoska"/>
    <tag k="source" v="UMP-PL, ./UMP-Szczecin/src/GRYFICE.ulice.txt"/>
  </way>
  <way id="23756466" version="2" timestamp="2009-11-03T13:44:23Z" uid="36809" user="pfoten_weg_!_" changeset="3023908">
    <nd ref="257393946"/>
    <nd ref="257393935"/>
    <nd ref="257393939"/>
    <tag k="highway" v="residential"/>
    <tag k="name" v="Bydgoska"/>
    <tag k="source" v="UMP-PL, ./UMP-Szczecin/src/GRYFICE.ulice.txt"/>
  </way>
  <way id="23756469" version="1" timestamp="2008-04-13T16:31:47Z" uid="30632" user="antblant" changeset="131991">
    <nd ref="257393689"/>
    <nd ref="257393688"/>
    <nd ref="257393705"/>
    <nd ref="257393704"/>
    <nd ref="257393707"/>
    <nd ref="257393706"/>
    <nd ref="257393709"/>
    <nd ref="257393708"/>
    <nd ref="257393711"/>
    <nd ref="257393710"/>
    <nd ref="257393697"/>
    <nd ref="257393600"/>
    <tag k="created_by" v="JOSM"/>
    <tag k="highway" v="residential"/>
    <tag k="name" v="3 Maja"/>
    <tag k="source" v="UMP-PL, ./UMP-Szczecin/src/GRYFICE.ulice.txt"/>
  </way>
  <way id="23756470" version="1" timestamp="2008-04-13T16:31:47Z" uid="30632" user="antblant" changeset="131991">
    <nd ref="257393978"/>
    <nd ref="257394025"/>
    <nd ref="257394022"/>
    <nd ref="257394023"/>
    <nd ref="257394014"/>
    <nd ref="257394016"/>
    <nd ref="257393508"/>
    <tag k="created_by" v="JOSM"/>
    <tag k="highway" v="residential"/>
    <tag k="name" v="Murarska"/>
    <tag k="source" v="UMP-PL, ./UMP-Szczecin/src/GRYFICE.ulice.txt"/>
  </way>
  <way id="23756471" version="1" timestamp="2008-04-13T16:31:48Z" uid="30632" user="antblant" changeset="131991">
    <nd ref="257393844"/>
    <nd ref="257394143"/>
    <nd ref="257393704"/>
    <tag k="created_by" v="JOSM"/>
    <tag k="highway" v="residential"/>
    <tag k="name" v="Zaułek"/>
    <tag k="source" v="UMP-PL, ./UMP-Szczecin/src/GRYFICE.ulice.txt"/>
  </way>
  <way id="23756472" version="1" timestamp="2008-04-13T16:31:48Z" uid="30632" user="antblant" changeset="131991">
    <nd ref="257393935"/>
    <nd ref="257393918"/>
    <tag k="created_by" v="JOSM"/>
    <tag k="highway" v="residential"/>
    <tag k="name" v="Kwiatowa"/>
    <tag k="source" v="UMP-PL, ./UMP-Szczecin/src/GRYFICE.ulice.txt"/>
  </way>
  <way id="23756472" version="2" timestamp="2009-11-03T13:44:24Z" uid="36809" user="pfoten_weg_!_" changeset="3023908">
    <nd ref="257393935"/>
    <nd ref="257393918"/>
    <tag k="highway" v="residential"/>
    <tag k="name" v="Kwiatowa"/>
    <tag k="source" v="UMP-PL, ./UMP-Szczecin/src/GRYFICE.ulice.txt"/>
  </way>
  <way id="23756473" version="1" timestamp="2008-04-13T16:31:48Z" uid="30632" user="antblant" changeset="131991">
    <nd ref="257393690"/>
    <nd ref="257393696"/>
    <tag k="created_by" v="JOSM"/>
    <tag k="highway" v="residential"/>
    <tag k="source" v="UMP-PL, ./UMP-Szczecin/src/GRYFICE.ulice.txt"/>
  </way>
  <way id="23756473" version="2" timestamp="2009-11-03T13:44:28Z" uid="36809" user="pfoten_weg_!_" changeset="3023908">
    <nd ref="257393690"/>
    <nd ref="257393696"/>
    <tag k="highway" v="residential"/>
    <tag k="source" v="UMP-PL, ./UMP-Szczecin/src/GRYFICE.ulice.txt"/>
  </way>
  <way id="23756474" version="1" timestamp="2008-04-13T16:31:49Z" uid="30632" user="antblant" changeset="131991">
    <nd ref="257394012"/>
    <nd ref="257394013"/>
    <nd ref="257393614"/>
    <tag k="created_by" v="JOSM"/>
    <tag k="highway" v="residential"/>
    <tag k="name" v="Młyńska"/>
    <tag k="source" v="UMP-PL, ./UMP-Szczecin/src/GRYFICE.ulice.txt"/>
  </way>
  <way id="23756475" version="1" timestamp="2008-04-13T16:31:49Z" uid="30632" user="antblant" changeset="131991">
    <nd ref="257393663"/>
    <nd ref="257394142"/>
    <tag k="created_by" v="JOSM"/>
    <tag k="highway" v="residential"/>
    <tag k="name" v="Adama Asnyka"/>
    <tag k="source" v="UMP-PL, ./UMP-Szczecin/src/GRYFICE.ulice.txt"/>
  </way>
  <way id="23756475" version="2" timestamp="2009-11-03T13:42:47Z" uid="36809" user="pfoten_weg_!_" changeset="3023908">
    <nd ref="257393663"/>
    <nd ref="257394142"/>
    <tag k="highway" v="residential"/>
    <tag k="name" v="Adama Asnyka"/>
    <tag k="source" v="UMP-PL, ./UMP-Szczecin/src/GRYFICE.ulice.txt"/>
  </way>
  <way id="23756476" version="1" timestamp="2008-04-13T16:31:49Z" uid="30632" user="antblant" changeset="131991">
    <nd ref="257393991"/>
    <nd ref="257394027"/>
    <tag k="created_by" v="JOSM"/>
    <tag k="highway" v="residential"/>
    <tag k="name" v="Zielona"/>
    <tag k="source" v="UMP-PL, ./UMP-Szczecin/src/GRYFICE.ulice.txt"/>
  </way>
  <way id="23756477" version="1" timestamp="2008-04-13T16:31:50Z" uid="30632" user="antblant" changeset="131991">
    <nd ref="257393670"/>
    <nd ref="257393687"/>
    <nd ref="257393686"/>
    <nd ref="257393685"/>
    <nd ref="257393673"/>
    <nd ref="257393621"/>
    <tag k="created_by" v="JOSM"/>
    <tag k="highway" v="residential"/>
    <tag k="name" v="Błonie"/>
    <tag k="source" v="UMP-PL, ./UMP-Szczecin/src/GRYFICE.ulice.txt"/>
  </way>
  <way id="23756477" version="2" timestamp="2009-11-03T13:42:49Z" uid="36809" user="pfoten_weg_!_" changeset="3023908">
    <nd ref="257393670"/>
    <nd ref="257393687"/>
    <nd ref="257393686"/>
    <nd ref="257393685"/>
    <nd ref="257393673"/>
    <nd ref="257393621"/>
    <tag k="highway" v="residential"/>
    <tag k="name" v="Błonie"/>
    <tag k="source" v="UMP-PL, ./UMP-Szczecin/src/GRYFICE.ulice.txt"/>
  </way>
  <way id="23756478" version="1" timestamp="2008-04-13T16:31:50Z" uid="30632" user="antblant" changeset="131991">
    <nd ref="257393725"/>
    <nd ref="257393958"/>
    <tag k="created_by" v="JOSM"/>
    <tag k="highway" v="residential"/>
    <tag k="name" v="Warszawska"/>
    <tag k="source" v="UMP-PL, ./UMP-Szczecin/src/GRYFICE.ulice.txt"/>
  </way>
  <way id="23756478" version="2" timestamp="2009-11-03T13:44:26Z" uid="36809" user="pfoten_weg_!_" changeset="3023908">
    <nd ref="257393725"/>
    <nd ref="257393958"/>
    <tag k="highway" v="residential"/>
    <tag k="name" v="Warszawska"/>
    <tag k="source" v="UMP-PL, ./UMP-Szczecin/src/GRYFICE.ulice.txt"/>
  </way>
  <way id="23756479" version="1" timestamp="2008-04-13T16:31:51Z" uid="30632" user="antblant" changeset="131991">
    <nd ref="257394110"/>
    <nd ref="257394127"/>
    <tag k="created_by" v="JOSM"/>
    <tag k="highway" v="residential"/>
    <tag k="name" v="Turkusowa"/>
    <tag k="source" v="UMP-PL, ./UMP-Szczecin/src/GRYFICE.ulice.txt"/>
  </way>
  <way id="23756479" version="2" timestamp="2009-11-03T13:43:50Z" uid="36809" user="pfoten_weg_!_" changeset="3023908">
    <nd ref="257394110"/>
    <nd ref="257394127"/>
    <tag k="highway" v="residential"/>
    <tag k="name" v="Turkusowa"/>
    <tag k="source" v="UMP-PL, ./UMP-Szczecin/src/GRYFICE.ulice.txt"/>
  </way>
  <way id="23756480" version="1" timestamp="2008-04-13T16:31:51Z" uid="30632" user="antblant" changeset="131991">
    <nd ref="257393664"/>
    <nd ref="257394003"/>
    <nd ref="257394002"/>
    <nd ref="257394001"/>
    <nd ref="257394000"/>
    <nd ref="257393999"/>
    <tag k="created_by" v="JOSM"/>
    <tag k="highway" v="residential"/>
    <tag k="name" v="Barakowa"/>
    <tag k="source" v="UMP-PL, ./UMP-Szczecin/src/GRYFICE.ulice.txt"/>
  </way>
  <way id="23756481" version="1" timestamp="2008-04-13T16:31:51Z" uid="30632" user="antblant" changeset="131991">
    <nd ref="257393684"/>
    <nd ref="257393683"/>
    <nd ref="257393682"/>
    <nd ref="257393615"/>
    <tag k="created_by" v="JOSM"/>
    <tag k="highway" v="residential"/>
    <tag k="name" v="Szewska"/>
    <tag k="source" v="UMP-PL, ./UMP-Szczecin/src/GRYFICE.ulice.txt"/>
  </way>
  <way id="23756482" version="1" timestamp="2008-04-13T16:31:52Z" uid="30632" user="antblant" changeset="131991">
    <nd ref="257393727"/>
    <nd ref="257393959"/>
    <tag k="created_by" v="JOSM"/>
    <tag k="highway" v="residential"/>
    <tag k="name" v="Słowiańska"/>
    <tag k="source" v="UMP-PL, ./UMP-Szczecin/src/GRYFICE.ulice.txt"/>
  </way>
  <way id="23756482" version="2" timestamp="2009-11-03T13:42:15Z" uid="36809" user="pfoten_weg_!_" changeset="3023908">
    <nd ref="257393727"/>
    <nd ref="257393959"/>
    <tag k="highway" v="residential"/>
    <tag k="name" v="Słowiańska"/>
    <tag k="source" v="UMP-PL, ./UMP-Szczecin/src/GRYFICE.ulice.txt"/>
  </way>
  <way id="23756483" version="1" timestamp="2008-04-13T16:31:52Z" uid="30632" user="antblant" changeset="131991">
    <nd ref="257394109"/>
    <nd ref="257394124"/>
    <tag k="created_by" v="JOSM"/>
    <tag k="highway" v="residential"/>
    <tag k="name" v="Brylantowa"/>
    <tag k="source" v="UMP-PL, ./UMP-Szczecin/src/GRYFICE.ulice.txt"/>
  </way>
  <way id="23756483" version="2" timestamp="2009-11-03T13:43:46Z" uid="36809" user="pfoten_weg_!_" changeset="3023908">
    <nd ref="257394109"/>
    <nd ref="257394124"/>
    <tag k="highway" v="residential"/>
    <tag k="name" v="Brylantowa"/>
    <tag k="source" v="UMP-PL, ./UMP-Szczecin/src/GRYFICE.ulice.txt"/>
  </way>
  <way id="23756484" version="1" timestamp="2008-04-13T16:31:52Z" uid="30632" user="antblant" changeset="131991">
    <nd ref="257393962"/>
    <nd ref="257394030"/>
    <nd ref="257394035"/>
    <tag k="created_by" v="JOSM"/>
    <tag k="highway" v="residential"/>
    <tag k="name" v="Marii Skłodowskiej-Curie"/>
    <tag k="source" v="UMP-PL, ./UMP-Szczecin/src/GRYFICE.ulice.txt"/>
  </way>
  <way id="23756484" version="2" timestamp="2009-11-03T13:44:19Z" uid="36809" user="pfoten_weg_!_" changeset="3023908">
    <nd ref="257393962"/>
    <nd ref="257394030"/>
    <nd ref="257394035"/>
    <tag k="highway" v="residential"/>
    <tag k="name" v="Marii Skłodowskiej-Curie"/>
    <tag k="source" v="UMP-PL, ./UMP-Szczecin/src/GRYFICE.ulice.txt"/>
  </way>
  <way id="23756485" version="1" timestamp="2008-04-13T16:31:53Z" uid="30632" user="antblant" changeset="131991">
    <nd ref="257393721"/>
    <nd ref="257393954"/>
    <nd ref="257393957"/>
    <nd ref="257393962"/>
    <tag k="created_by" v="JOSM"/>
    <tag k="highway" v="residential"/>
    <tag k="name" v="Pionierska"/>
    <tag k="source" v="UMP-PL, ./UMP-Szczecin/src/GRYFICE.ulice.txt"/>
  </way>
  <way id="23756485" version="2" timestamp="2009-11-03T13:44:20Z" uid="36809" user="pfoten_weg_!_" changeset="3023908">
    <nd ref="257393721"/>
    <nd ref="257393954"/>
    <nd ref="257393957"/>
    <nd ref="257393962"/>
    <tag k="highway" v="residential"/>
    <tag k="name" v="Pionierska"/>
    <tag k="source" v="UMP-PL, ./UMP-Szczecin/src/GRYFICE.ulice.txt"/>
  </way>
  <way id="23756486" version="1" timestamp="2008-04-13T16:31:53Z" uid="30632" user="antblant" changeset="131991">
    <nd ref="257393681"/>
    <nd ref="257393680"/>
    <nd ref="257393695"/>
    <nd ref="257393694"/>
    <nd ref="257393684"/>
    <tag k="created_by" v="JOSM"/>
    <tag k="highway" v="residential"/>
    <tag k="name" v="Klasztorna"/>
    <tag k="source" v="UMP-PL, ./UMP-Szczecin/src/GRYFICE.ulice.txt"/>
  </way>
  <way id="23756487" version="1" timestamp="2008-04-13T16:31:54Z" uid="30632" user="antblant" changeset="131991">
    <nd ref="257394097"/>
    <nd ref="257394102"/>
    <nd ref="257394103"/>
    <tag k="created_by" v="JOSM"/>
    <tag k="highway" v="residential"/>
    <tag k="name" v="Perłowa"/>
    <tag k="source" v="UMP-PL, ./UMP-Szczecin/src/GRYFICE.ulice.txt"/>
  </way>
  <way id="23756487" version="2" timestamp="2009-11-03T13:43:44Z" uid="36809" user="pfoten_weg_!_" changeset="3023908">
    <nd ref="257394097"/>
    <nd ref="257394102"/>
    <nd ref="257394103"/>
    <tag k="highway" v="residential"/>
    <tag k="name" v="Perłowa"/>
    <tag k="source" v="UMP-PL, ./UMP-Szczecin/src/GRYFICE.ulice.txt"/>
  </way>
  <way id="23756488" version="1" timestamp="2008-04-13T16:31:54Z" uid="30632" user="antblant" changeset="131991">
    <nd ref="257393616"/>
    <nd ref="257394028"/>
    <nd ref="257394029"/>
    <nd ref="257394026"/>
    <nd ref="257393655"/>
    <tag k="created_by" v="JOSM"/>
    <tag k="highway" v="residential"/>
    <tag k="source" v="UMP-PL, ./UMP-Szczecin/src/GRYFICE.ulice.txt"/>
  </way>
  <way id="23756489" version="1" timestamp="2008-04-13T16:31:55Z" uid="30632" user="antblant" changeset="131991">
    <nd ref="257393524"/>
    <nd ref="257393963"/>
    <nd ref="257393960"/>
    <nd ref="257393961"/>
    <nd ref="257393872"/>
    <nd ref="257393871"/>
    <nd ref="257393870"/>
    <tag k="created_by" v="JOSM"/>
    <tag k="highway" v="residential"/>
    <tag k="name" v="Zdrojowa"/>
    <tag k="source" v="UMP-PL, ./UMP-Szczecin/src/GRYFICE.ulice.txt"/>
  </way>
  <way id="23756489" version="2" timestamp="2009-11-03T13:42:20Z" uid="36809" user="pfoten_weg_!_" changeset="3023908">
    <nd ref="257393524"/>
    <nd ref="257393963"/>
    <nd ref="257393960"/>
    <nd ref="257393961"/>
    <nd ref="257393872"/>
    <nd ref="257393871"/>
    <nd ref="257393870"/>
    <tag k="highway" v="residential"/>
    <tag k="name" v="Zdrojowa"/>
    <tag k="source" v="UMP-PL, ./UMP-Szczecin/src/GRYFICE.ulice.txt"/>
  </way>
  <way id="23756490" version="1" timestamp="2008-04-13T16:31:55Z" uid="30632" user="antblant" changeset="131991">
    <nd ref="257393694"/>
    <nd ref="257393612"/>
    <nd ref="257393645"/>
    <tag k="created_by" v="JOSM"/>
    <tag k="highway" v="residential"/>
    <tag k="name" v="Bracka"/>
    <tag k="source" v="UMP-PL, ./UMP-Szczecin/src/GRYFICE.ulice.txt"/>
  </way>
  <way id="23756492" version="1" timestamp="2008-04-13T16:31:55Z" uid="30632" user="antblant" changeset="131991">
    <nd ref="257394098"/>
    <nd ref="257394100"/>
    <nd ref="257394101"/>
    <nd ref="257394102"/>
    <tag k="created_by" v="JOSM"/>
    <tag k="highway" v="residential"/>
    <tag k="source" v="UMP-PL, ./UMP-Szczecin/src/GRYFICE.ulice.txt"/>
  </way>
  <way id="23756492" version="2" timestamp="2009-11-03T13:43:49Z" uid="36809" user="pfoten_weg_!_" changeset="3023908">
    <nd ref="257394098"/>
    <nd ref="257394100"/>
    <nd ref="257394101"/>
    <nd ref="257394102"/>
    <tag k="highway" v="residential"/>
    <tag k="source" v="UMP-PL, ./UMP-Szczecin/src/GRYFICE.ulice.txt"/>
  </way>
  <way id="23756494" version="1" timestamp="2008-04-13T16:31:56Z" uid="30632" user="antblant" changeset="131991">
    <nd ref="257394136"/>
    <nd ref="257394135"/>
    <nd ref="257394138"/>
    <nd ref="257394137"/>
    <nd ref="257393728"/>
    <nd ref="257394140"/>
    <nd ref="257393855"/>
    <nd ref="257394139"/>
    <nd ref="257394141"/>
    <nd ref="257393634"/>
    <tag k="created_by" v="JOSM"/>
    <tag k="highway" v="secondary"/>
    <tag k="name" v="Józefa Piłsudskiego"/>
    <tag k="ref" v="109"/>
    <tag k="source" v="UMP-PL, ./UMP-Szczecin/src/GRYFICE.ulice.txt"/>
  </way>
  <way id="23756494" version="2" timestamp="2008-04-13T16:34:35Z" uid="30632" user="antblant" changeset="131991">
    <nd ref="254708542"/>
    <nd ref="257394135"/>
    <nd ref="257394138"/>
    <nd ref="257394137"/>
    <nd ref="257393728"/>
    <nd ref="257394140"/>
    <nd ref="257393855"/>
    <nd ref="257394139"/>
    <nd ref="257394141"/>
    <nd ref="257393634"/>
    <tag k="created_by" v="Potlatch 0.8a"/>
    <tag k="highway" v="secondary"/>
    <tag k="name" v="Józefa Piłsudskiego"/>
    <tag k="ref" v="109"/>
    <tag k="source" v="UMP-PL, ./UMP-Szczecin/src/GRYFICE.ulice.txt"/>
  </way>
  <way id="23756494" version="3" timestamp="2008-10-17T13:12:53Z" uid="53100" user="Jakub Klawiter" changeset="394744">
    <nd ref="254708542"/>
    <nd ref="257394135"/>
    <nd ref="257394138"/>
    <nd ref="257394137"/>
    <nd ref="257393728"/>
    <nd ref="257394140"/>
    <nd ref="257393855"/>
    <nd ref="257394139"/>
    <nd ref="257394141"/>
    <nd ref="257393634"/>
    <tag k="created_by" v="Potlatch 0.8a"/>
    <tag k="highway" v="secondary"/>
    <tag k="name" v="Marszałka Józefa Piłsudskiego"/>
    <tag k="ref" v="109"/>
    <tag k="source" v="UMP-PL, ./UMP-Szczecin/src/GRYFICE.ulice.txt"/>
  </way>
  <way id="23756494" version="4" timestamp="2009-11-03T13:42:17Z" uid="36809" user="pfoten_weg_!_" changeset="3023908">
    <nd ref="254708542"/>
    <nd ref="257394135"/>
    <nd ref="257394138"/>
    <nd ref="257394137"/>
    <nd ref="257393728"/>
    <nd ref="257394140"/>
    <nd ref="257393855"/>
    <nd ref="257394139"/>
    <nd ref="257394141"/>
    <nd ref="257393634"/>
    <tag k="highway" v="secondary"/>
    <tag k="name" v="Marszałka Józefa Piłsudskiego"/>
    <tag k="ref" v="109"/>
    <tag k="source" v="UMP-PL, ./UMP-Szczecin/src/GRYFICE.ulice.txt"/>
  </way>
  <way id="23756497" version="1" timestamp="2008-04-13T16:31:56Z" uid="30632" user="antblant" changeset="131991">
    <nd ref="257393650"/>
    <nd ref="257393661"/>
    <nd ref="257393660"/>
    <nd ref="257393663"/>
    <nd ref="257393662"/>
    <nd ref="257393657"/>
    <nd ref="257393656"/>
    <nd ref="257393659"/>
    <nd ref="257393658"/>
    <nd ref="257393670"/>
    <tag k="created_by" v="JOSM"/>
    <tag k="highway" v="residential"/>
    <tag k="name" v="Pomorska"/>
    <tag k="source" v="UMP-PL, ./UMP-Szczecin/src/GRYFICE.ulice.txt"/>
  </way>
  <way id="23756497" version="2" timestamp="2009-11-03T13:42:34Z" uid="36809" user="pfoten_weg_!_" changeset="3023908">
    <nd ref="257393650"/>
    <nd ref="257393661"/>
    <nd ref="257393660"/>
    <nd ref="257393663"/>
    <nd ref="257393662"/>
    <nd ref="257393657"/>
    <nd ref="257393656"/>
    <nd ref="257393659"/>
    <nd ref="257393658"/>
    <nd ref="257393670"/>
    <tag k="highway" v="residential"/>
    <tag k="name" v="Pomorska"/>
    <tag k="source" v="UMP-PL, ./UMP-Szczecin/src/GRYFICE.ulice.txt"/>
  </way>
  <way id="23756501" version="1" timestamp="2008-04-13T16:31:56Z" uid="30632" user="antblant" changeset="131991">
    <nd ref="257393870"/>
    <nd ref="257393869"/>
    <tag k="created_by" v="JOSM"/>
    <tag k="highway" v="residential"/>
    <tag k="source" v="UMP-PL, ./UMP-Szczecin/src/GRYFICE.ulice.txt"/>
  </way>
  <way id="23756501" version="2" timestamp="2009-11-03T13:44:01Z" uid="36809" user="pfoten_weg_!_" changeset="3023908">
    <nd ref="257393870"/>
    <nd ref="257393869"/>
    <tag k="highway" v="residential"/>
    <tag k="source" v="UMP-PL, ./UMP-Szczecin/src/GRYFICE.ulice.txt"/>
  </way>
  <way id="23756505" version="1" timestamp="2008-04-13T16:31:57Z" uid="30632" user="antblant" changeset="131991">
    <nd ref="257393985"/>
    <nd ref="257394007"/>
    <nd ref="257393839"/>
    <tag k="created_by" v="JOSM"/>
    <tag k="highway" v="residential"/>
    <tag k="name" v="Orkana"/>
    <tag k="source" v="UMP-PL, ./UMP-Szczecin/src/GRYFICE.ulice.txt"/>
  </way>
  <way id="23756505" version="2" timestamp="2008-10-16T22:07:47Z" uid="53100" user="Jakub Klawiter" changeset="388840">
    <nd ref="257393985"/>
    <nd ref="257394007"/>
    <nd ref="257393839"/>
    <tag k="created_by" v="JOSM"/>
    <tag k="highway" v="residential"/>
    <tag k="name" v="Władysława Orkana"/>
    <tag k="source" v="UMP-PL, ./UMP-Szczecin/src/GRYFICE.ulice.txt"/>
  </way>
  <way id="23756505" version="3" timestamp="2009-11-03T13:43:08Z" uid="36809" user="pfoten_weg_!_" changeset="3023908">
    <nd ref="257393985"/>
    <nd ref="257394007"/>
    <nd ref="257393839"/>
    <tag k="highway" v="residential"/>
    <tag k="name" v="Władysława Orkana"/>
    <tag k="source" v="UMP-PL, ./UMP-Szczecin/src/GRYFICE.ulice.txt"/>
  </way>
  <way id="23756507" version="1" timestamp="2008-04-13T16:31:57Z" uid="30632" user="antblant" changeset="131991">
    <nd ref="257393671"/>
    <nd ref="257393668"/>
    <nd ref="257393669"/>
    <nd ref="257393666"/>
    <tag k="created_by" v="JOSM"/>
    <tag k="highway" v="residential"/>
    <tag k="name" v="Podwiejska"/>
    <tag k="source" v="UMP-PL, ./UMP-Szczecin/src/GRYFICE.ulice.txt"/>
  </way>
  <way id="23756507" version="2" timestamp="2009-11-03T13:43:27Z" uid="36809" user="pfoten_weg_!_" changeset="3023908">
    <nd ref="257393671"/>
    <nd ref="257393668"/>
    <nd ref="257393669"/>
    <nd ref="257393666"/>
    <tag k="highway" v="residential"/>
    <tag k="name" v="Podwiejska"/>
    <tag k="source" v="UMP-PL, ./UMP-Szczecin/src/GRYFICE.ulice.txt"/>
  </way>
  <way id="23756508" version="1" timestamp="2008-04-13T16:31:57Z" uid="30632" user="antblant" changeset="131991">
    <nd ref="257393888"/>
    <nd ref="257393869"/>
    <tag k="created_by" v="JOSM"/>
    <tag k="highway" v="residential"/>
    <tag k="source" v="UMP-PL, ./UMP-Szczecin/src/GRYFICE.ulice.txt"/>
  </way>
  <way id="23756508" version="2" timestamp="2009-11-03T13:44:07Z" uid="36809" user="pfoten_weg_!_" changeset="3023908">
    <nd ref="257393888"/>
    <nd ref="257393869"/>
    <tag k="highway" v="residential"/>
    <tag k="source" v="UMP-PL, ./UMP-Szczecin/src/GRYFICE.ulice.txt"/>
  </way>
  <way id="23756509" version="1" timestamp="2008-04-13T16:31:58Z" uid="30632" user="antblant" changeset="131991">
    <nd ref="257394008"/>
    <nd ref="257394007"/>
    <nd ref="257393659"/>
    <tag k="created_by" v="JOSM"/>
    <tag k="highway" v="residential"/>
    <tag k="name" v="Gdyńska"/>
    <tag k="source" v="UMP-PL, ./UMP-Szczecin/src/GRYFICE.ulice.txt"/>
  </way>
  <way id="23756509" version="2" timestamp="2009-11-03T13:42:46Z" uid="36809" user="pfoten_weg_!_" changeset="3023908">
    <nd ref="257394008"/>
    <nd ref="257394007"/>
    <nd ref="257393659"/>
    <tag k="highway" v="residential"/>
    <tag k="name" v="Gdyńska"/>
    <tag k="source" v="UMP-PL, ./UMP-Szczecin/src/GRYFICE.ulice.txt"/>
  </way>
  <way id="23756510" version="1" timestamp="2008-04-13T16:32:00Z" uid="30632" user="antblant" changeset="131991">
    <nd ref="257393870"/>
    <nd ref="257393875"/>
    <nd ref="257393874"/>
    <nd ref="257393873"/>
    <nd ref="257393896"/>
    <nd ref="257393892"/>
    <nd ref="257393890"/>
    <nd ref="257393889"/>
    <nd ref="257393914"/>
    <tag k="created_by" v="JOSM"/>
    <tag k="highway" v="residential"/>
    <tag k="source" v="UMP-PL, ./UMP-Szczecin/src/GRYFICE.ulice.txt"/>
  </way>
  <way id="23756510" version="2" timestamp="2009-11-03T13:44:04Z" uid="36809" user="pfoten_weg_!_" changeset="3023908">
    <nd ref="257393870"/>
    <nd ref="257393875"/>
    <nd ref="257393874"/>
    <nd ref="257393873"/>
    <nd ref="257393896"/>
    <nd ref="257393892"/>
    <nd ref="257393890"/>
    <nd ref="257393889"/>
    <nd ref="257393914"/>
    <tag k="highway" v="residential"/>
    <tag k="source" v="UMP-PL, ./UMP-Szczecin/src/GRYFICE.ulice.txt"/>
  </way>
  <way id="23756511" version="1" timestamp="2008-04-13T16:32:01Z" uid="30632" user="antblant" changeset="131991">
    <nd ref="257393667"/>
    <nd ref="257393664"/>
    <nd ref="257393665"/>
    <nd ref="257393678"/>
    <nd ref="257393679"/>
    <nd ref="257393676"/>
    <tag k="created_by" v="JOSM"/>
    <tag k="highway" v="residential"/>
    <tag k="name" v="Adama Rapackiego"/>
    <tag k="source" v="UMP-PL, ./UMP-Szczecin/src/GRYFICE.ulice.txt"/>
  </way>
  <way id="23756512" version="1" timestamp="2008-04-13T16:32:01Z" uid="30632" user="antblant" changeset="131991">
    <nd ref="257394002"/>
    <nd ref="257393998"/>
    <nd ref="257393997"/>
    <nd ref="257393996"/>
    <nd ref="257394011"/>
    <nd ref="257394010"/>
    <nd ref="257393742"/>
    <tag k="created_by" v="JOSM"/>
    <tag k="highway" v="residential"/>
    <tag k="name" v="6 Marca"/>
    <tag k="source" v="UMP-PL, ./UMP-Szczecin/src/GRYFICE.ulice.txt"/>
  </way>
  <way id="23756513" version="1" timestamp="2008-04-13T16:32:02Z" uid="30632" user="antblant" changeset="131991">
    <nd ref="257393869"/>
    <nd ref="257393909"/>
    <nd ref="257393905"/>
    <nd ref="257393539"/>
    <tag k="created_by" v="JOSM"/>
    <tag k="highway" v="residential"/>
    <tag k="name" v="Ogrodowa"/>
    <tag k="source" v="UMP-PL, ./UMP-Szczecin/src/GRYFICE.ulice.txt"/>
  </way>
  <way id="23756513" version="2" timestamp="2009-11-03T13:42:06Z" uid="36809" user="pfoten_weg_!_" changeset="3023908">
    <nd ref="257393869"/>
    <nd ref="257393909"/>
    <nd ref="257393905"/>
    <nd ref="257393539"/>
    <tag k="highway" v="residential"/>
    <tag k="name" v="Ogrodowa"/>
    <tag k="source" v="UMP-PL, ./UMP-Szczecin/src/GRYFICE.ulice.txt"/>
  </way>
  <way id="23756514" version="1" timestamp="2008-04-13T16:32:02Z" uid="30632" user="antblant" changeset="131991">
    <nd ref="257393677"/>
    <nd ref="257393674"/>
    <nd ref="257393675"/>
    <nd ref="257393672"/>
    <nd ref="257393673"/>
    <tag k="created_by" v="JOSM"/>
    <tag k="highway" v="residential"/>
    <tag k="name" v="Dworcowa"/>
    <tag k="source" v="UMP-PL, ./UMP-Szczecin/src/GRYFICE.ulice.txt"/>
  </way>
  <way id="23756515" version="1" timestamp="2008-04-13T16:32:02Z" uid="30632" user="antblant" changeset="131991">
    <nd ref="257393983"/>
    <nd ref="257394009"/>
    <nd ref="257394008"/>
    <nd ref="257393837"/>
    <tag k="created_by" v="JOSM"/>
    <tag k="highway" v="residential"/>
    <tag k="name" v="Piaskowa"/>
    <tag k="source" v="UMP-PL, ./UMP-Szczecin/src/GRYFICE.ulice.txt"/>
  </way>
  <way id="23756515" version="2" timestamp="2009-11-03T13:43:17Z" uid="36809" user="pfoten_weg_!_" changeset="3023908">
    <nd ref="257393983"/>
    <nd ref="257394009"/>
    <nd ref="257394008"/>
    <nd ref="257393837"/>
    <tag k="highway" v="residential"/>
    <tag k="name" v="Piaskowa"/>
    <tag k="source" v="UMP-PL, ./UMP-Szczecin/src/GRYFICE.ulice.txt"/>
  </way>
  <way id="23756517" version="1" timestamp="2008-04-13T16:32:03Z" uid="30632" user="antblant" changeset="131991">
    <nd ref="257393669"/>
    <nd ref="257394145"/>
    <nd ref="257394144"/>
    <tag k="created_by" v="JOSM"/>
    <tag k="highway" v="residential"/>
    <tag k="name" v="Synów Pułku"/>
    <tag k="source" v="UMP-PL, ./UMP-Szczecin/src/GRYFICE.ulice.txt"/>
  </way>
  <way id="23756517" version="2" timestamp="2009-11-03T13:43:25Z" uid="36809" user="pfoten_weg_!_" changeset="3023908">
    <nd ref="257393669"/>
    <nd ref="257394145"/>
    <nd ref="257394144"/>
    <tag k="highway" v="residential"/>
    <tag k="name" v="Synów Pułku"/>
    <tag k="source" v="UMP-PL, ./UMP-Szczecin/src/GRYFICE.ulice.txt"/>
  </way>
  <way id="23756520" version="1" timestamp="2008-04-13T16:32:03Z" uid="30632" user="antblant" changeset="131991">
    <nd ref="257393989"/>
    <nd ref="257394074"/>
    <nd ref="257394075"/>
    <nd ref="257394084"/>
    <nd ref="257394085"/>
    <tag k="created_by" v="JOSM"/>
    <tag k="highway" v="residential"/>
    <tag k="name" v="Gdańska"/>
    <tag k="source" v="UMP-PL, ./UMP-Szczecin/src/GRYFICE.ulice.txt"/>
  </way>
  <way id="23756520" version="2" timestamp="2009-11-03T13:42:32Z" uid="36809" user="pfoten_weg_!_" changeset="3023908">
    <nd ref="257393989"/>
    <nd ref="257394074"/>
    <nd ref="257394075"/>
    <nd ref="257394084"/>
    <nd ref="257394085"/>
    <tag k="highway" v="residential"/>
    <tag k="name" v="Gdańska"/>
    <tag k="source" v="UMP-PL, ./UMP-Szczecin/src/GRYFICE.ulice.txt"/>
  </way>
  <way id="23756522" version="1" timestamp="2008-04-13T16:32:04Z" uid="30632" user="antblant" changeset="131991">
    <nd ref="257393638"/>
    <nd ref="257393635"/>
    <tag k="created_by" v="JOSM"/>
    <tag k="highway" v="tertiary"/>
    <tag k="name" v="Elizy Orzeszkowej"/>
    <tag k="source" v="UMP-PL, ./UMP-Szczecin/src/GRYFICE.ulice.txt"/>
  </way>
  <way id="23756524" version="1" timestamp="2008-04-13T16:32:04Z" uid="30632" user="antblant" changeset="131991">
    <nd ref="257393752"/>
    <nd ref="257393815"/>
    <tag k="created_by" v="JOSM"/>
    <tag k="highway" v="residential"/>
    <tag k="name" v="Juliusza Słowackiego"/>
    <tag k="source" v="UMP-PL, ./UMP-Szczecin/src/GRYFICE.ulice.txt"/>
  </way>
  <way id="23756524" version="2" timestamp="2009-11-03T13:44:11Z" uid="36809" user="pfoten_weg_!_" changeset="3023908">
    <nd ref="257393752"/>
    <nd ref="257393815"/>
    <tag k="highway" v="residential"/>
    <tag k="name" v="Juliusza Słowackiego"/>
    <tag k="source" v="UMP-PL, ./UMP-Szczecin/src/GRYFICE.ulice.txt"/>
  </way>
  <way id="23756525" version="1" timestamp="2008-04-13T16:32:04Z" uid="30632" user="antblant" changeset="131991">
    <nd ref="257393628"/>
    <nd ref="257394150"/>
    <tag k="created_by" v="JOSM"/>
    <tag k="highway" v="residential"/>
    <tag k="name" v="Wiejska"/>
    <tag k="source" v="UMP-PL, ./UMP-Szczecin/src/GRYFICE.ulice.txt"/>
  </way>
  <way id="23756526" version="1" timestamp="2008-04-13T16:32:05Z" uid="30632" user="antblant" changeset="131991">
    <nd ref="257394084"/>
    <nd ref="257394086"/>
    <nd ref="257394087"/>
    <nd ref="257394080"/>
    <nd ref="257394081"/>
    <nd ref="257393662"/>
    <tag k="created_by" v="JOSM"/>
    <tag k="highway" v="residential"/>
    <tag k="name" v="Sopocka"/>
    <tag k="source" v="UMP-PL, ./UMP-Szczecin/src/GRYFICE.ulice.txt"/>
  </way>
  <way id="23756526" version="2" timestamp="2009-11-03T13:42:58Z" uid="36809" user="pfoten_weg_!_" changeset="3023908">
    <nd ref="257394084"/>
    <nd ref="257394086"/>
    <nd ref="257394087"/>
    <nd ref="257394080"/>
    <nd ref="257394081"/>
    <nd ref="257393662"/>
    <tag k="highway" v="residential"/>
    <tag k="name" v="Sopocka"/>
    <tag k="source" v="UMP-PL, ./UMP-Szczecin/src/GRYFICE.ulice.txt"/>
  </way>
  <way id="23756528" version="1" timestamp="2008-04-13T16:32:05Z" uid="30632" user="antblant" changeset="131991">
    <nd ref="257393633"/>
    <nd ref="257393635"/>
    <tag k="created_by" v="JOSM"/>
    <tag k="highway" v="residential"/>
    <tag k="name" v="Górska"/>
    <tag k="source" v="UMP-PL, ./UMP-Szczecin/src/GRYFICE.ulice.txt"/>
  </way>
  <way id="23756530" version="1" timestamp="2008-04-13T16:32:06Z" uid="30632" user="antblant" changeset="131991">
    <nd ref="257393755"/>
    <nd ref="257393852"/>
    <tag k="created_by" v="JOSM"/>
    <tag k="highway" v="residential"/>
    <tag k="name" v="Bankowa"/>
    <tag k="source" v="UMP-PL, ./UMP-Szczecin/src/GRYFICE.ulice.txt"/>
  </way>
  <way id="23756530" version="2" timestamp="2009-11-03T13:44:08Z" uid="36809" user="pfoten_weg_!_" changeset="3023908">
    <nd ref="257393755"/>
    <nd ref="257393852"/>
    <tag k="highway" v="residential"/>
    <tag k="name" v="Bankowa"/>
    <tag k="source" v="UMP-PL, ./UMP-Szczecin/src/GRYFICE.ulice.txt"/>
  </way>
  <way id="23756532" version="1" timestamp="2008-04-13T16:32:06Z" uid="30632" user="antblant" changeset="131991">
    <nd ref="257393638"/>
    <nd ref="257394147"/>
    <tag k="created_by" v="JOSM"/>
    <tag k="highway" v="residential"/>
    <tag k="name" v="Elizy Orzeszkowej"/>
    <tag k="source" v="UMP-PL, ./UMP-Szczecin/src/GRYFICE.ulice.txt"/>
  </way>
  <way id="23756534" version="1" timestamp="2008-04-13T16:32:06Z" uid="30632" user="antblant" changeset="131991">
    <nd ref="257393984"/>
    <nd ref="257394006"/>
    <nd ref="257394005"/>
    <nd ref="257394004"/>
    <nd ref="257394009"/>
    <tag k="created_by" v="JOSM"/>
    <tag k="highway" v="residential"/>
    <tag k="name" v="Władysława Reymonta"/>
    <tag k="source" v="UMP-PL, ./UMP-Szczecin/src/GRYFICE.ulice.txt"/>
  </way>
  <way id="23756534" version="2" timestamp="2009-11-03T13:42:45Z" uid="36809" user="pfoten_weg_!_" changeset="3023908">
    <nd ref="257393984"/>
    <nd ref="257394006"/>
    <nd ref="257394005"/>
    <nd ref="257394004"/>
    <nd ref="257394009"/>
    <tag k="highway" v="residential"/>
    <tag k="name" v="Władysława Reymonta"/>
    <tag k="source" v="UMP-PL, ./UMP-Szczecin/src/GRYFICE.ulice.txt"/>
  </way>
  <way id="23756535" version="1" timestamp="2008-04-13T16:32:07Z" uid="30632" user="antblant" changeset="131991">
    <nd ref="257393814"/>
    <nd ref="257393901"/>
    <nd ref="257393980"/>
    <nd ref="257393748"/>
    <tag k="created_by" v="JOSM"/>
    <tag k="highway" v="residential"/>
    <tag k="name" v="Brzozowa"/>
    <tag k="source" v="UMP-PL, ./UMP-Szczecin/src/GRYFICE.ulice.txt"/>
  </way>
  <way id="23756535" version="2" timestamp="2009-11-03T13:44:12Z" uid="36809" user="pfoten_weg_!_" changeset="3023908">
    <nd ref="257393814"/>
    <nd ref="257393901"/>
    <nd ref="257393980"/>
    <nd ref="257393748"/>
    <tag k="highway" v="residential"/>
    <tag k="name" v="Brzozowa"/>
    <tag k="source" v="UMP-PL, ./UMP-Szczecin/src/GRYFICE.ulice.txt"/>
  </way>
  <way id="23756536" version="1" timestamp="2008-04-13T16:32:07Z" uid="30632" user="antblant" changeset="131991">
    <nd ref="257393644"/>
    <nd ref="257393645"/>
    <nd ref="257393646"/>
    <nd ref="257393647"/>
    <nd ref="257393640"/>
    <nd ref="257393641"/>
    <nd ref="257393642"/>
    <nd ref="257393643"/>
    <nd ref="257393509"/>
    <tag k="created_by" v="JOSM"/>
    <tag k="highway" v="secondary"/>
    <tag k="name" v="Niepodległości"/>
    <tag k="ref" v="105"/>
    <tag k="source" v="UMP-PL, ./UMP-Szczecin/src/GRYFICE.ulice.txt"/>
  </way>
  <way id="23756537" version="1" timestamp="2008-04-13T16:32:07Z" uid="30632" user="antblant" changeset="131991">
    <nd ref="257393715"/>
    <nd ref="257394155"/>
    <nd ref="257394153"/>
    <tag k="created_by" v="JOSM"/>
    <tag k="highway" v="residential"/>
    <tag k="name" v="Niechorska"/>
    <tag k="source" v="UMP-PL, ./UMP-Szczecin/src/GRYFICE.ulice.txt"/>
  </way>
  <way id="23756537" version="2" timestamp="2009-11-03T13:43:43Z" uid="36809" user="pfoten_weg_!_" changeset="3023908">
    <nd ref="257393715"/>
    <nd ref="257394155"/>
    <nd ref="257394153"/>
    <tag k="highway" v="residential"/>
    <tag k="name" v="Niechorska"/>
    <tag k="source" v="UMP-PL, ./UMP-Szczecin/src/GRYFICE.ulice.txt"/>
  </way>
  <way id="23756538" version="1" timestamp="2008-04-13T16:32:08Z" uid="30632" user="antblant" changeset="131991">
    <nd ref="257394076"/>
    <nd ref="257393657"/>
    <nd ref="257394077"/>
    <nd ref="257394078"/>
    <nd ref="257394079"/>
    <nd ref="257394072"/>
    <nd ref="257394073"/>
    <nd ref="257394074"/>
    <tag k="created_by" v="JOSM"/>
    <tag k="highway" v="residential"/>
    <tag k="source" v="UMP-PL, ./UMP-Szczecin/src/GRYFICE.ulice.txt"/>
  </way>
  <way id="23756538" version="2" timestamp="2009-11-03T13:43:03Z" uid="36809" user="pfoten_weg_!_" changeset="3023908">
    <nd ref="257394076"/>
    <nd ref="257393657"/>
    <nd ref="257394077"/>
    <nd ref="257394078"/>
    <nd ref="257394079"/>
    <nd ref="257394072"/>
    <nd ref="257394073"/>
    <nd ref="257394074"/>
    <tag k="highway" v="residential"/>
    <tag k="source" v="UMP-PL, ./UMP-Szczecin/src/GRYFICE.ulice.txt"/>
  </way>
  <way id="23756539" version="1" timestamp="2008-04-13T16:32:08Z" uid="30632" user="antblant" changeset="131991">
    <nd ref="257393595"/>
    <nd ref="257393962"/>
    <nd ref="257393939"/>
    <nd ref="257393923"/>
    <nd ref="257393958"/>
    <nd ref="257393959"/>
    <nd ref="257393981"/>
    <tag k="created_by" v="JOSM"/>
    <tag k="highway" v="residential"/>
    <tag k="name" v="Śniadeckich"/>
    <tag k="source" v="UMP-PL, ./UMP-Szczecin/src/GRYFICE.ulice.txt"/>
  </way>
  <way id="23756539" version="2" timestamp="2008-10-16T10:24:47Z" uid="53100" user="Jakub Klawiter" changeset="367483">
    <nd ref="257393595"/>
    <nd ref="257393962"/>
    <nd ref="257393939"/>
    <nd ref="257393923"/>
    <nd ref="257393958"/>
    <nd ref="257393959"/>
    <nd ref="257393981"/>
    <tag k="created_by" v="JOSM"/>
    <tag k="highway" v="residential"/>
    <tag k="name" v="Jana i Jędrzeja Śniadeckich"/>
    <tag k="source" v="UMP-PL, ./UMP-Szczecin/src/GRYFICE.ulice.txt"/>
  </way>
  <way id="23756539" version="3" timestamp="2009-11-03T13:44:09Z" uid="36809" user="pfoten_weg_!_" changeset="3023908">
    <nd ref="257393595"/>
    <nd ref="257393962"/>
    <nd ref="257393939"/>
    <nd ref="257393923"/>
    <nd ref="257393958"/>
    <nd ref="257393959"/>
    <nd ref="257393981"/>
    <tag k="highway" v="residential"/>
    <tag k="name" v="Jana i Jędrzeja Śniadeckich"/>
    <tag k="source" v="UMP-PL, ./UMP-Szczecin/src/GRYFICE.ulice.txt"/>
  </way>
  <way id="23756540" version="1" timestamp="2008-04-13T16:32:09Z" uid="30632" user="antblant" changeset="131991">
    <nd ref="257393635"/>
    <nd ref="257393653"/>
    <nd ref="257393652"/>
    <nd ref="257393655"/>
    <nd ref="257393654"/>
    <nd ref="257393649"/>
    <nd ref="257393648"/>
    <nd ref="257393651"/>
    <nd ref="257393644"/>
    <tag k="created_by" v="JOSM"/>
    <tag k="highway" v="tertiary"/>
    <tag k="name" v="Niepodległości"/>
    <tag k="source" v="UMP-PL, ./UMP-Szczecin/src/GRYFICE.ulice.txt"/>
  </way>
  <way id="23756541" version="1" timestamp="2008-04-13T16:32:09Z" uid="30632" user="antblant" changeset="131991">
    <nd ref="257393813"/>
    <nd ref="257393851"/>
    <nd ref="257393850"/>
    <nd ref="257393849"/>
    <nd ref="257393753"/>
    <tag k="created_by" v="JOSM"/>
    <tag k="highway" v="residential"/>
    <tag k="name" v="Różana"/>
    <tag k="source" v="UMP-PL, ./UMP-Szczecin/src/GRYFICE.ulice.txt"/>
  </way>
  <way id="23756541" version="2" timestamp="2009-11-03T13:42:10Z" uid="36809" user="pfoten_weg_!_" changeset="3023908">
    <nd ref="257393813"/>
    <nd ref="257393851"/>
    <nd ref="257393850"/>
    <nd ref="257393849"/>
    <nd ref="257393753"/>
    <tag k="highway" v="residential"/>
    <tag k="name" v="Różana"/>
    <tag k="source" v="UMP-PL, ./UMP-Szczecin/src/GRYFICE.ulice.txt"/>
  </way>
  <way id="23756542" version="1" timestamp="2008-04-13T16:32:09Z" uid="30632" user="antblant" changeset="131991">
    <nd ref="257393789"/>
    <nd ref="257393784"/>
    <nd ref="257393783"/>
    <nd ref="257393786"/>
    <nd ref="257393744"/>
    <tag k="created_by" v="JOSM"/>
    <tag k="highway" v="residential"/>
    <tag k="name" v="Marii Rodziewiczówny"/>
    <tag k="source" v="UMP-PL, ./UMP-Szczecin/src/GRYFICE.ulice.txt"/>
  </way>
  <way id="23756542" version="2" timestamp="2009-11-03T13:42:13Z" uid="36809" user="pfoten_weg_!_" changeset="3023908">
    <nd ref="257393789"/>
    <nd ref="257393784"/>
    <nd ref="257393783"/>
    <nd ref="257393786"/>
    <nd ref="257393744"/>
    <tag k="highway" v="residential"/>
    <tag k="name" v="Marii Rodziewiczówny"/>
    <tag k="source" v="UMP-PL, ./UMP-Szczecin/src/GRYFICE.ulice.txt"/>
  </way>
  <way id="23756543" version="1" timestamp="2008-04-13T16:32:10Z" uid="30632" user="antblant" changeset="131991">
    <nd ref="257393622"/>
    <nd ref="257393621"/>
    <nd ref="257393620"/>
    <nd ref="257393627"/>
    <nd ref="257393626"/>
    <nd ref="257393625"/>
    <nd ref="257393624"/>
    <nd ref="257393631"/>
    <nd ref="257393630"/>
    <nd ref="257393629"/>
    <nd ref="257393628"/>
    <nd ref="257393636"/>
    <nd ref="257393637"/>
    <nd ref="257393638"/>
    <nd ref="257393639"/>
    <nd ref="257393632"/>
    <nd ref="257393633"/>
    <nd ref="257393634"/>
    <tag k="created_by" v="JOSM"/>
    <tag k="highway" v="secondary"/>
    <tag k="name" v="Tadeusza Kościuszki"/>
    <tag k="ref" v="109"/>
    <tag k="source" v="UMP-PL, ./UMP-Szczecin/src/GRYFICE.ulice.txt"/>
  </way>
  <way id="23756544" version="1" timestamp="2008-04-13T16:32:10Z" uid="30632" user="antblant" changeset="131991">
    <nd ref="257393646"/>
    <nd ref="257393615"/>
    <tag k="created_by" v="JOSM"/>
    <tag k="highway" v="residential"/>
    <tag k="name" v="Plac Zwycięstwa"/>
    <tag k="source" v="UMP-PL, ./UMP-Szczecin/src/GRYFICE.ulice.txt"/>
  </way>
  <way id="23756545" version="1" timestamp="2008-04-13T16:32:10Z" uid="30632" user="antblant" changeset="131991">
    <nd ref="257394038"/>
    <nd ref="257394041"/>
    <tag k="created_by" v="JOSM"/>
    <tag k="highway" v="residential"/>
    <tag k="name" v="Juliana Tuwima"/>
    <tag k="source" v="UMP-PL, ./UMP-Szczecin/src/GRYFICE.ulice.txt"/>
  </way>
  <way id="23756545" version="2" timestamp="2009-11-03T13:43:33Z" uid="36809" user="pfoten_weg_!_" changeset="3023908">
    <nd ref="257394038"/>
    <nd ref="257394041"/>
    <tag k="highway" v="residential"/>
    <tag k="name" v="Juliana Tuwima"/>
    <tag k="source" v="UMP-PL, ./UMP-Szczecin/src/GRYFICE.ulice.txt"/>
  </way>
  <way id="23756546" version="1" timestamp="2008-04-13T16:32:11Z" uid="30632" user="antblant" changeset="131991">
    <nd ref="257393599"/>
    <nd ref="257393831"/>
    <nd ref="257393823"/>
    <nd ref="257393825"/>
    <nd ref="257393826"/>
    <nd ref="257393827"/>
    <nd ref="257393812"/>
    <nd ref="257393811"/>
    <nd ref="257393750"/>
    <nd ref="257393813"/>
    <nd ref="257393814"/>
    <nd ref="257393815"/>
    <nd ref="257393852"/>
    <nd ref="257393594"/>
    <tag k="created_by" v="JOSM"/>
    <tag k="highway" v="residential"/>
    <tag k="name" v="Sportowa"/>
    <tag k="source" v="UMP-PL, ./UMP-Szczecin/src/GRYFICE.ulice.txt"/>
  </way>
  <way id="23756546" version="2" timestamp="2009-11-03T13:44:10Z" uid="36809" user="pfoten_weg_!_" changeset="3023908">
    <nd ref="257393599"/>
    <nd ref="257393831"/>
    <nd ref="257393823"/>
    <nd ref="257393825"/>
    <nd ref="257393826"/>
    <nd ref="257393827"/>
    <nd ref="257393812"/>
    <nd ref="257393811"/>
    <nd ref="257393750"/>
    <nd ref="257393813"/>
    <nd ref="257393814"/>
    <nd ref="257393815"/>
    <nd ref="257393852"/>
    <nd ref="257393594"/>
    <tag k="highway" v="residential"/>
    <tag k="name" v="Sportowa"/>
    <tag k="source" v="UMP-PL, ./UMP-Szczecin/src/GRYFICE.ulice.txt"/>
  </way>
  <way id="23756547" version="1" timestamp="2008-04-13T16:32:11Z" uid="30632" user="antblant" changeset="131991">
    <nd ref="257393809"/>
    <nd ref="257393792"/>
    <nd ref="257393791"/>
    <nd ref="257393800"/>
    <nd ref="257393794"/>
    <nd ref="257393788"/>
    <nd ref="257393787"/>
    <nd ref="257393790"/>
    <tag k="created_by" v="JOSM"/>
    <tag k="highway" v="footway"/>
    <tag k="name" v="Spacerowa"/>
    <tag k="source" v="UMP-PL, ./UMP-Szczecin/src/GRYFICE.ulice.txt"/>
  </way>
  <way id="23756547" version="2" timestamp="2009-11-03T13:42:31Z" uid="36809" user="pfoten_weg_!_" changeset="3023908">
    <nd ref="257393809"/>
    <nd ref="257393792"/>
    <nd ref="257393791"/>
    <nd ref="257393800"/>
    <nd ref="257393794"/>
    <nd ref="257393788"/>
    <nd ref="257393787"/>
    <nd ref="257393790"/>
    <tag k="highway" v="footway"/>
    <tag k="name" v="Spacerowa"/>
    <tag k="source" v="UMP-PL, ./UMP-Szczecin/src/GRYFICE.ulice.txt"/>
  </way>
  <way id="23756548" version="1" timestamp="2008-04-13T16:32:11Z" uid="30632" user="antblant" changeset="131991">
    <nd ref="257393613"/>
    <nd ref="257393619"/>
    <nd ref="257393618"/>
    <nd ref="257393617"/>
    <nd ref="257393616"/>
    <nd ref="257393623"/>
    <tag k="created_by" v="JOSM"/>
    <tag k="highway" v="tertiary"/>
    <tag k="name" v="Kamienna Brama"/>
    <tag k="source" v="UMP-PL, ./UMP-Szczecin/src/GRYFICE.ulice.txt"/>
  </way>
  <way id="23756549" version="1" timestamp="2008-04-13T16:32:12Z" uid="30632" user="antblant" changeset="131991">
    <nd ref="257393675"/>
    <nd ref="257393624"/>
    <nd ref="257393706"/>
    <nd ref="257393843"/>
    <nd ref="257393640"/>
    <tag k="created_by" v="JOSM"/>
    <tag k="highway" v="residential"/>
    <tag k="name" v="Adama Mickiewicza"/>
    <tag k="source" v="UMP-PL, ./UMP-Szczecin/src/GRYFICE.ulice.txt"/>
  </way>
  <way id="23756550" version="1" timestamp="2008-04-13T16:32:12Z" uid="30632" user="antblant" changeset="131991">
    <nd ref="257394046"/>
    <nd ref="257394039"/>
    <tag k="created_by" v="JOSM"/>
    <tag k="highway" v="residential"/>
    <tag k="name" v="Przestrzenna"/>
    <tag k="source" v="UMP-PL, ./UMP-Szczecin/src/GRYFICE.ulice.txt"/>
  </way>
  <way id="23756550" version="2" timestamp="2009-11-03T13:43:58Z" uid="36809" user="pfoten_weg_!_" changeset="3023908">
    <nd ref="257394046"/>
    <nd ref="257394039"/>
    <tag k="highway" v="residential"/>
    <tag k="name" v="Przestrzenna"/>
    <tag k="source" v="UMP-PL, ./UMP-Szczecin/src/GRYFICE.ulice.txt"/>
  </way>
  <way id="23756551" version="1" timestamp="2008-04-13T16:32:13Z" uid="30632" user="antblant" changeset="131991">
    <nd ref="257393596"/>
    <nd ref="257393834"/>
    <nd ref="257393835"/>
    <nd ref="257393828"/>
    <nd ref="257393829"/>
    <nd ref="257393830"/>
    <nd ref="257393751"/>
    <tag k="created_by" v="JOSM"/>
    <tag k="highway" v="residential"/>
    <tag k="name" v="Akacjowa"/>
    <tag k="source" v="UMP-PL, ./UMP-Szczecin/src/GRYFICE.ulice.txt"/>
  </way>
  <way id="23756551" version="2" timestamp="2009-11-03T13:44:17Z" uid="36809" user="pfoten_weg_!_" changeset="3023908">
    <nd ref="257393596"/>
    <nd ref="257393834"/>
    <nd ref="257393835"/>
    <nd ref="257393828"/>
    <nd ref="257393829"/>
    <nd ref="257393830"/>
    <nd ref="257393751"/>
    <tag k="highway" v="residential"/>
    <tag k="name" v="Akacjowa"/>
    <tag k="source" v="UMP-PL, ./UMP-Szczecin/src/GRYFICE.ulice.txt"/>
  </way>
  <way id="23756552" version="1" timestamp="2008-04-13T16:32:13Z" uid="30632" user="antblant" changeset="131991">
    <nd ref="257393781"/>
    <nd ref="257393789"/>
    <tag k="created_by" v="JOSM"/>
    <tag k="highway" v="residential"/>
    <tag k="name" v="1 Maja"/>
    <tag k="source" v="UMP-PL, ./UMP-Szczecin/src/GRYFICE.ulice.txt"/>
  </way>
  <way id="23756552" version="2" timestamp="2009-11-03T13:43:35Z" uid="36809" user="pfoten_weg_!_" changeset="3023908">
    <nd ref="257393781"/>
    <nd ref="257393789"/>
    <tag k="highway" v="residential"/>
    <tag k="name" v="1 Maja"/>
    <tag k="source" v="UMP-PL, ./UMP-Szczecin/src/GRYFICE.ulice.txt"/>
  </way>
  <way id="23756553" version="1" timestamp="2008-04-13T16:32:13Z" uid="30632" user="antblant" changeset="131991">
    <nd ref="257393640"/>
    <nd ref="257393609"/>
    <tag k="created_by" v="JOSM"/>
    <tag k="highway" v="residential"/>
    <tag k="name" v="Kościelna"/>
    <tag k="source" v="UMP-PL, ./UMP-Szczecin/src/GRYFICE.ulice.txt"/>
  </way>
  <way id="23756554" version="1" timestamp="2008-04-13T16:32:13Z" uid="30632" user="antblant" changeset="131991">
    <nd ref="257393509"/>
    <nd ref="257393610"/>
    <nd ref="257393611"/>
    <nd ref="257393608"/>
    <nd ref="257393609"/>
    <nd ref="257393614"/>
    <nd ref="257393615"/>
    <nd ref="257393612"/>
    <nd ref="257393613"/>
    <tag k="created_by" v="JOSM"/>
    <tag k="highway" v="secondary"/>
    <tag k="name" v="Wojska Polskiego"/>
    <tag k="ref" v="105"/>
    <tag k="source" v="UMP-PL, ./UMP-Szczecin/src/GRYFICE.ulice.txt"/>
  </way>
  <way id="23756555" version="1" timestamp="2008-04-13T16:32:14Z" uid="30632" user="antblant" changeset="131991">
    <nd ref="257394068"/>
    <nd ref="257394071"/>
    <tag k="created_by" v="JOSM"/>
    <tag k="highway" v="residential"/>
    <tag k="name" v="Marii Konopnickiej"/>
    <tag k="source" v="UMP-PL, ./UMP-Szczecin/src/GRYFICE.ulice.txt"/>
  </way>
  <way id="23756555" version="2" timestamp="2009-11-03T13:43:31Z" uid="36809" user="pfoten_weg_!_" changeset="3023908">
    <nd ref="257394068"/>
    <nd ref="257394071"/>
    <tag k="highway" v="residential"/>
    <tag k="name" v="Marii Konopnickiej"/>
    <tag k="source" v="UMP-PL, ./UMP-Szczecin/src/GRYFICE.ulice.txt"/>
  </way>
  <way id="23756556" version="1" timestamp="2008-04-13T16:32:14Z" uid="30632" user="antblant" changeset="131991">
    <nd ref="257393785"/>
    <nd ref="257393832"/>
    <nd ref="257393745"/>
    <nd ref="257393833"/>
    <tag k="created_by" v="JOSM"/>
    <tag k="highway" v="residential"/>
    <tag k="name" v="Parkowa"/>
    <tag k="source" v="UMP-PL, ./UMP-Szczecin/src/GRYFICE.ulice.txt"/>
  </way>
  <way id="23756556" version="2" timestamp="2009-11-03T13:43:16Z" uid="36809" user="pfoten_weg_!_" changeset="3023908">
    <nd ref="257393785"/>
    <nd ref="257393832"/>
    <nd ref="257393745"/>
    <nd ref="257393833"/>
    <tag k="highway" v="residential"/>
    <tag k="name" v="Parkowa"/>
    <tag k="source" v="UMP-PL, ./UMP-Szczecin/src/GRYFICE.ulice.txt"/>
  </way>
  <way id="23756557" version="1" timestamp="2008-04-13T16:32:15Z" uid="30632" user="antblant" changeset="131991">
    <nd ref="257393597"/>
    <nd ref="257393748"/>
    <tag k="created_by" v="JOSM"/>
    <tag k="highway" v="residential"/>
    <tag k="name" v="Klonowa"/>
    <tag k="source" v="UMP-PL, ./UMP-Szczecin/src/GRYFICE.ulice.txt"/>
  </way>
  <way id="23756557" version="2" timestamp="2009-11-03T13:44:16Z" uid="36809" user="pfoten_weg_!_" changeset="3023908">
    <nd ref="257393597"/>
    <nd ref="257393748"/>
    <tag k="highway" v="residential"/>
    <tag k="name" v="Klonowa"/>
    <tag k="source" v="UMP-PL, ./UMP-Szczecin/src/GRYFICE.ulice.txt"/>
  </way>
  <way id="23756558" version="1" timestamp="2008-04-13T16:32:15Z" uid="30632" user="antblant" changeset="131991">
    <nd ref="257393622"/>
    <nd ref="257393573"/>
    <nd ref="257393982"/>
    <nd ref="257393601"/>
    <tag k="created_by" v="JOSM"/>
    <tag k="highway" v="secondary"/>
    <tag k="name" v="Wysoka Brama"/>
    <tag k="ref" v="105"/>
    <tag k="source" v="UMP-PL, ./UMP-Szczecin/src/GRYFICE.ulice.txt"/>
  </way>
  <way id="23756559" version="1" timestamp="2008-04-13T16:32:15Z" uid="30632" user="antblant" changeset="131991">
    <nd ref="257393511"/>
    <nd ref="257393605"/>
    <nd ref="257393507"/>
    <tag k="created_by" v="JOSM"/>
    <tag k="highway" v="0xc"/>
    <tag k="junction" v="roundabout"/>
    <tag k="source" v="UMP-PL, ./UMP-Szczecin/src/GRYFICE.ulice.txt"/>
  </way>
  <way id="23756559" version="2" timestamp="2009-12-19T03:01:45Z" uid="95293" user="Nightdive" changeset="3404701"/>
  <way id="23756560" version="1" timestamp="2008-04-13T16:32:16Z" uid="30632" user="antblant" changeset="131991">
    <nd ref="257394040"/>
    <nd ref="257394069"/>
    <tag k="created_by" v="JOSM"/>
    <tag k="highway" v="residential"/>
    <tag k="name" v="Bolesława Prusa"/>
    <tag k="source" v="UMP-PL, ./UMP-Szczecin/src/GRYFICE.ulice.txt"/>
  </way>
  <way id="23756560" version="2" timestamp="2009-11-03T13:43:30Z" uid="36809" user="pfoten_weg_!_" changeset="3023908">
    <nd ref="257394040"/>
    <nd ref="257394069"/>
    <tag k="highway" v="residential"/>
    <tag k="name" v="Bolesława Prusa"/>
    <tag k="source" v="UMP-PL, ./UMP-Szczecin/src/GRYFICE.ulice.txt"/>
  </way>
  <way id="23756561" version="1" timestamp="2008-04-13T16:32:16Z" uid="30632" user="antblant" changeset="131991">
    <nd ref="257393507"/>
    <nd ref="257393603"/>
    <nd ref="257393600"/>
    <nd ref="257393601"/>
    <nd ref="257393606"/>
    <nd ref="257393607"/>
    <nd ref="257393604"/>
    <nd ref="257393511"/>
    <tag k="created_by" v="JOSM"/>
    <tag k="highway" v="0xc"/>
    <tag k="junction" v="roundabout"/>
    <tag k="source" v="UMP-PL, ./UMP-Szczecin/src/GRYFICE.ulice.txt"/>
  </way>
  <way id="23756561" version="2" timestamp="2008-04-13T16:35:27Z" uid="30632" user="antblant" changeset="131991">
    <nd ref="257393511"/>
    <nd ref="257393605"/>
    <nd ref="257393507"/>
    <nd ref="257393603"/>
    <nd ref="257393600"/>
    <nd ref="257393601"/>
    <nd ref="257393606"/>
    <nd ref="257393607"/>
    <nd ref="257393604"/>
    <nd ref="257393511"/>
    <tag k="created_by" v="Potlatch 0.8a"/>
    <tag k="highway" v="secondary"/>
    <tag k="junction" v="roundabout"/>
    <tag k="oneway" v="yes"/>
    <tag k="source" v="UMP-PL, ./UMP-Szczecin/src/GRYFICE.ulice.txt"/>
  </way>
  <way id="23756561" version="3" timestamp="2011-02-20T14:20:24Z" uid="234337" user="kryskow" changeset="7343006">
    <nd ref="257393511"/>
    <nd ref="257393605"/>
    <nd ref="257393507"/>
    <nd ref="257393603"/>
    <nd ref="257393600"/>
    <nd ref="257393601"/>
    <nd ref="257393606"/>
    <nd ref="257393607"/>
    <nd ref="257393604"/>
    <nd ref="257393511"/>
    <tag k="highway" v="secondary"/>
    <tag k="junction" v="roundabout"/>
    <tag k="oneway" v="yes"/>
    <tag k="ref" v="105"/>
    <tag k="source" v="UMP-PL, ./UMP-Szczecin/src/GRYFICE.ulice.txt"/>
  </way>
  <way id="23756562" version="1" timestamp="2008-04-13T16:32:16Z" uid="30632" user="antblant" changeset="131991">
    <nd ref="257393705"/>
    <nd ref="257393630"/>
    <nd ref="257393677"/>
    <nd ref="257393676"/>
    <nd ref="257393991"/>
    <nd ref="257393864"/>
    <nd ref="257393865"/>
    <nd ref="257393666"/>
    <tag k="created_by" v="JOSM"/>
    <tag k="highway" v="residential"/>
    <tag k="name" v="Ruta"/>
    <tag k="source" v="UMP-PL, ./UMP-Szczecin/src/GRYFICE.ulice.txt"/>
  </way>
  <way id="23756562" version="2" timestamp="2009-11-03T13:43:21Z" uid="36809" user="pfoten_weg_!_" changeset="3023908">
    <nd ref="257393705"/>
    <nd ref="257393630"/>
    <nd ref="257393677"/>
    <nd ref="257393676"/>
    <nd ref="257393991"/>
    <nd ref="257393864"/>
    <nd ref="257393865"/>
    <nd ref="257393666"/>
    <tag k="highway" v="residential"/>
    <tag k="name" v="Ruta"/>
    <tag k="source" v="UMP-PL, ./UMP-Szczecin/src/GRYFICE.ulice.txt"/>
  </way>
  <way id="23756563" version="1" timestamp="2008-04-13T16:32:17Z" uid="30632" user="antblant" changeset="131991">
    <nd ref="257393651"/>
    <nd ref="257393848"/>
    <nd ref="257393847"/>
    <nd ref="257393846"/>
    <nd ref="257393845"/>
    <nd ref="257393844"/>
    <nd ref="257393843"/>
    <nd ref="257393842"/>
    <nd ref="257393841"/>
    <nd ref="257393840"/>
    <nd ref="257393508"/>
    <tag k="created_by" v="JOSM"/>
    <tag k="highway" v="residential"/>
    <tag k="name" v="Wałowa"/>
    <tag k="source" v="UMP-PL, ./UMP-Szczecin/src/GRYFICE.ulice.txt"/>
  </way>
  <way id="23756564" version="1" timestamp="2008-04-13T16:32:17Z" uid="30632" user="antblant" changeset="131991">
    <nd ref="257393782"/>
    <nd ref="257393756"/>
    <nd ref="257393772"/>
    <nd ref="257393746"/>
    <nd ref="257393747"/>
    <nd ref="257393744"/>
    <nd ref="257393781"/>
    <nd ref="257393745"/>
    <tag k="created_by" v="JOSM"/>
    <tag k="highway" v="residential"/>
    <tag k="name" v="Tenisowa"/>
    <tag k="source" v="UMP-PL, ./UMP-Szczecin/src/GRYFICE.ulice.txt"/>
  </way>
  <way id="23756564" version="2" timestamp="2009-11-03T13:42:26Z" uid="36809" user="pfoten_weg_!_" changeset="3023908">
    <nd ref="257393782"/>
    <nd ref="257393756"/>
    <nd ref="257393772"/>
    <nd ref="257393746"/>
    <nd ref="257393747"/>
    <nd ref="257393744"/>
    <nd ref="257393781"/>
    <nd ref="257393745"/>
    <tag k="highway" v="residential"/>
    <tag k="name" v="Tenisowa"/>
    <tag k="source" v="UMP-PL, ./UMP-Szczecin/src/GRYFICE.ulice.txt"/>
  </way>
  <way id="23756565" version="1" timestamp="2008-04-13T16:32:17Z" uid="30632" user="antblant" changeset="131991">
    <nd ref="257394083"/>
    <nd ref="257394075"/>
    <tag k="created_by" v="JOSM"/>
    <tag k="highway" v="residential"/>
    <tag k="name" v="Mikołaja Reja"/>
    <tag k="source" v="UMP-PL, ./UMP-Szczecin/src/GRYFICE.ulice.txt"/>
  </way>
  <way id="23756565" version="2" timestamp="2009-11-03T13:43:14Z" uid="36809" user="pfoten_weg_!_" changeset="3023908">
    <nd ref="257394083"/>
    <nd ref="257394075"/>
    <tag k="highway" v="residential"/>
    <tag k="name" v="Mikołaja Reja"/>
    <tag k="source" v="UMP-PL, ./UMP-Szczecin/src/GRYFICE.ulice.txt"/>
  </way>
  <way id="23756566" version="1" timestamp="2008-04-13T16:32:18Z" uid="30632" user="antblant" changeset="131991">
    <nd ref="257393590"/>
    <nd ref="257393593"/>
    <nd ref="257393592"/>
    <nd ref="257393595"/>
    <nd ref="257393594"/>
    <nd ref="257393597"/>
    <nd ref="257393596"/>
    <nd ref="257393599"/>
    <nd ref="257393598"/>
    <nd ref="257393602"/>
    <tag k="created_by" v="JOSM"/>
    <tag k="highway" v="residential"/>
    <tag k="name" v="Jana Dąbskiego"/>
    <tag k="source" v="UMP-PL, ./UMP-Szczecin/src/GRYFICE.ulice.txt"/>
  </way>
  <way id="23756566" version="2" timestamp="2008-04-13T16:34:20Z" uid="30632" user="antblant" changeset="131991">
    <nd ref="257393590"/>
    <nd ref="257393593"/>
    <nd ref="257393592"/>
    <nd ref="257393595"/>
    <nd ref="257393594"/>
    <nd ref="257393597"/>
    <nd ref="257393596"/>
    <nd ref="257393599"/>
    <nd ref="257393598"/>
    <nd ref="254708135"/>
    <tag k="created_by" v="Potlatch 0.8a"/>
    <tag k="highway" v="residential"/>
    <tag k="name" v="Jana Dąbskiego"/>
    <tag k="source" v="UMP-PL, ./UMP-Szczecin/src/GRYFICE.ulice.txt"/>
  </way>
  <way id="23756566" version="3" timestamp="2009-11-03T13:42:27Z" uid="36809" user="pfoten_weg_!_" changeset="3023908">
    <nd ref="257393590"/>
    <nd ref="257393593"/>
    <nd ref="257393592"/>
    <nd ref="257393595"/>
    <nd ref="257393594"/>
    <nd ref="257393597"/>
    <nd ref="257393596"/>
    <nd ref="257393599"/>
    <nd ref="257393598"/>
    <nd ref="254708135"/>
    <tag k="highway" v="residential"/>
    <tag k="name" v="Jana Dąbskiego"/>
    <tag k="source" v="UMP-PL, ./UMP-Szczecin/src/GRYFICE.ulice.txt"/>
  </way>
  <way id="23756567" version="1" timestamp="2008-04-13T16:32:18Z" uid="30632" user="antblant" changeset="131991">
    <nd ref="257393666"/>
    <nd ref="257393866"/>
    <nd ref="257393983"/>
    <nd ref="257393984"/>
    <nd ref="257393985"/>
    <nd ref="257393986"/>
    <nd ref="257393656"/>
    <nd ref="257393987"/>
    <nd ref="257393988"/>
    <nd ref="257393989"/>
    <nd ref="257393990"/>
    <tag k="created_by" v="JOSM"/>
    <tag k="highway" v="residential"/>
    <tag k="name" v="Henryka Sienkiewicza"/>
    <tag k="source" v="UMP-PL, ./UMP-Szczecin/src/GRYFICE.ulice.txt"/>
  </way>
  <way id="23756567" version="2" timestamp="2009-11-03T13:42:57Z" uid="36809" user="pfoten_weg_!_" changeset="3023908">
    <nd ref="257393666"/>
    <nd ref="257393866"/>
    <nd ref="257393983"/>
    <nd ref="257393984"/>
    <nd ref="257393985"/>
    <nd ref="257393986"/>
    <nd ref="257393656"/>
    <nd ref="257393987"/>
    <nd ref="257393988"/>
    <nd ref="257393989"/>
    <nd ref="257393990"/>
    <tag k="highway" v="residential"/>
    <tag k="name" v="Henryka Sienkiewicza"/>
    <tag k="source" v="UMP-PL, ./UMP-Szczecin/src/GRYFICE.ulice.txt"/>
  </way>
  <way id="23756568" version="1" timestamp="2008-04-13T16:32:18Z" uid="30632" user="antblant" changeset="131991">
    <nd ref="257393789"/>
    <nd ref="257393792"/>
    <tag k="created_by" v="JOSM"/>
    <tag k="highway" v="residential"/>
    <tag k="name" v="1 Maja"/>
    <tag k="source" v="UMP-PL, ./UMP-Szczecin/src/GRYFICE.ulice.txt"/>
  </way>
  <way id="23756568" version="2" timestamp="2009-11-03T13:43:34Z" uid="36809" user="pfoten_weg_!_" changeset="3023908">
    <nd ref="257393789"/>
    <nd ref="257393792"/>
    <tag k="highway" v="residential"/>
    <tag k="name" v="1 Maja"/>
    <tag k="source" v="UMP-PL, ./UMP-Szczecin/src/GRYFICE.ulice.txt"/>
  </way>
  <way id="23756569" version="1" timestamp="2008-04-13T16:32:19Z" uid="30632" user="antblant" changeset="131991">
    <nd ref="257393592"/>
    <nd ref="257393755"/>
    <nd ref="257393752"/>
    <nd ref="257393753"/>
    <nd ref="257393781"/>
    <tag k="created_by" v="JOSM"/>
    <tag k="highway" v="residential"/>
    <tag k="name" v="1 Maja"/>
    <tag k="source" v="UMP-PL, ./UMP-Szczecin/src/GRYFICE.ulice.txt"/>
  </way>
  <way id="23756569" version="2" timestamp="2009-11-03T13:42:24Z" uid="36809" user="pfoten_weg_!_" changeset="3023908">
    <nd ref="257393592"/>
    <nd ref="257393755"/>
    <nd ref="257393752"/>
    <nd ref="257393753"/>
    <nd ref="257393781"/>
    <tag k="highway" v="residential"/>
    <tag k="name" v="1 Maja"/>
    <tag k="source" v="UMP-PL, ./UMP-Szczecin/src/GRYFICE.ulice.txt"/>
  </way>
  <way id="23756570" version="1" timestamp="2008-04-13T16:32:19Z" uid="30632" user="antblant" changeset="131991">
    <nd ref="257394082"/>
    <nd ref="257394078"/>
    <tag k="created_by" v="JOSM"/>
    <tag k="highway" v="residential"/>
    <tag k="name" v="Cicha"/>
    <tag k="source" v="UMP-PL, ./UMP-Szczecin/src/GRYFICE.ulice.txt"/>
  </way>
  <way id="23756570" version="2" timestamp="2009-11-03T13:43:12Z" uid="36809" user="pfoten_weg_!_" changeset="3023908">
    <nd ref="257394082"/>
    <nd ref="257394078"/>
    <tag k="highway" v="residential"/>
    <tag k="name" v="Cicha"/>
    <tag k="source" v="UMP-PL, ./UMP-Szczecin/src/GRYFICE.ulice.txt"/>
  </way>
  <way id="23756571" version="1" timestamp="2008-04-13T16:32:20Z" uid="30632" user="antblant" changeset="131991">
    <nd ref="257393646"/>
    <nd ref="257393845"/>
    <tag k="created_by" v="JOSM"/>
    <tag k="highway" v="residential"/>
    <tag k="name" v="Ruta"/>
    <tag k="source" v="UMP-PL, ./UMP-Szczecin/src/GRYFICE.ulice.txt"/>
  </way>
  <way id="23756572" version="1" timestamp="2008-04-13T16:32:20Z" uid="30632" user="antblant" changeset="131991">
    <nd ref="257393573"/>
    <nd ref="257393569"/>
    <nd ref="257393582"/>
    <nd ref="257393578"/>
    <nd ref="257393589"/>
    <nd ref="257393587"/>
    <nd ref="257393591"/>
    <tag k="created_by" v="JOSM"/>
    <tag k="highway" v="tertiary"/>
    <tag k="name" v="Trzygłowska"/>
    <tag k="source" v="UMP-PL, ./UMP-Szczecin/src/GRYFICE.ulice.txt"/>
  </way>
  <way id="23756572" version="2" timestamp="2008-04-13T16:34:01Z" uid="30632" user="antblant" changeset="131991">
    <nd ref="257393573"/>
    <nd ref="257393569"/>
    <nd ref="257393582"/>
    <nd ref="257393578"/>
    <nd ref="257393589"/>
    <nd ref="257393587"/>
    <nd ref="254708201"/>
    <tag k="created_by" v="Potlatch 0.8a"/>
    <tag k="highway" v="tertiary"/>
    <tag k="name" v="Trzygłowska"/>
    <tag k="source" v="UMP-PL, ./UMP-Szczecin/src/GRYFICE.ulice.txt"/>
  </way>
  <way id="23756572" version="3" timestamp="2009-11-03T13:42:53Z" uid="36809" user="pfoten_weg_!_" changeset="3023908">
    <nd ref="257393573"/>
    <nd ref="257393569"/>
    <nd ref="257393582"/>
    <nd ref="257393578"/>
    <nd ref="257393589"/>
    <nd ref="257393587"/>
    <nd ref="254708201"/>
    <tag k="highway" v="tertiary"/>
    <tag k="name" v="Trzygłowska"/>
    <tag k="source" v="UMP-PL, ./UMP-Szczecin/src/GRYFICE.ulice.txt"/>
  </way>
  <way id="23756573" version="1" timestamp="2008-04-13T16:32:20Z" uid="30632" user="antblant" changeset="131991">
    <nd ref="257393749"/>
    <nd ref="257393806"/>
    <nd ref="257393803"/>
    <nd ref="257393811"/>
    <tag k="created_by" v="JOSM"/>
    <tag k="highway" v="residential"/>
    <tag k="name" v="Sosnowa"/>
    <tag k="source" v="UMP-PL, ./UMP-Szczecin/src/GRYFICE.ulice.txt"/>
  </way>
  <way id="23756573" version="2" timestamp="2009-11-03T13:44:15Z" uid="36809" user="pfoten_weg_!_" changeset="3023908">
    <nd ref="257393749"/>
    <nd ref="257393806"/>
    <nd ref="257393803"/>
    <nd ref="257393811"/>
    <tag k="highway" v="residential"/>
    <tag k="name" v="Sosnowa"/>
    <tag k="source" v="UMP-PL, ./UMP-Szczecin/src/GRYFICE.ulice.txt"/>
  </way>
  <way id="23756574" version="1" timestamp="2008-04-13T16:32:21Z" uid="30632" user="antblant" changeset="131991">
    <nd ref="257393658"/>
    <nd ref="257393839"/>
    <nd ref="257393837"/>
    <nd ref="257393836"/>
    <nd ref="257393867"/>
    <nd ref="257393868"/>
    <tag k="created_by" v="JOSM"/>
    <tag k="highway" v="residential"/>
    <tag k="name" v="Łąkowa"/>
    <tag k="source" v="UMP-PL, ./UMP-Szczecin/src/GRYFICE.ulice.txt"/>
  </way>
  <way id="23756574" version="2" timestamp="2009-11-03T13:42:55Z" uid="36809" user="pfoten_weg_!_" changeset="3023908">
    <nd ref="257393658"/>
    <nd ref="257393839"/>
    <nd ref="257393837"/>
    <nd ref="257393836"/>
    <nd ref="257393867"/>
    <nd ref="257393868"/>
    <tag k="highway" v="residential"/>
    <tag k="name" v="Łąkowa"/>
    <tag k="source" v="UMP-PL, ./UMP-Szczecin/src/GRYFICE.ulice.txt"/>
  </way>
  <way id="23756575" version="1" timestamp="2008-04-13T16:32:21Z" uid="30632" user="antblant" changeset="131991">
    <nd ref="257394054"/>
    <nd ref="257393660"/>
    <tag k="created_by" v="JOSM"/>
    <tag k="highway" v="residential"/>
    <tag k="name" v="Kaliska"/>
    <tag k="source" v="UMP-PL, ./UMP-Szczecin/src/GRYFICE.ulice.txt"/>
  </way>
  <way id="23756575" version="2" timestamp="2009-11-03T13:43:13Z" uid="36809" user="pfoten_weg_!_" changeset="3023908">
    <nd ref="257394054"/>
    <nd ref="257393660"/>
    <tag k="highway" v="residential"/>
    <tag k="name" v="Kaliska"/>
    <tag k="source" v="UMP-PL, ./UMP-Szczecin/src/GRYFICE.ulice.txt"/>
  </way>
  <way id="23756576" version="1" timestamp="2008-04-13T16:32:22Z" uid="30632" user="antblant" changeset="131991">
    <nd ref="257393623"/>
    <nd ref="257393634"/>
    <tag k="created_by" v="JOSM"/>
    <tag k="highway" v="tertiary"/>
    <tag k="name" v="Józefa Piłsudskiego"/>
    <tag k="source" v="UMP-PL, ./UMP-Szczecin/src/GRYFICE.ulice.txt"/>
  </way>
  <way id="23756576" version="2" timestamp="2008-10-17T13:13:00Z" uid="53100" user="Jakub Klawiter" changeset="394744">
    <nd ref="257393623"/>
    <nd ref="257393634"/>
    <tag k="created_by" v="JOSM"/>
    <tag k="highway" v="tertiary"/>
    <tag k="name" v="Marszałka Józefa Piłsudskiego"/>
    <tag k="source" v="UMP-PL, ./UMP-Szczecin/src/GRYFICE.ulice.txt"/>
  </way>
  <way id="23756577" version="1" timestamp="2008-04-13T16:32:22Z" uid="30632" user="antblant" changeset="131991">
    <nd ref="257393511"/>
    <nd ref="257393515"/>
    <nd ref="257393519"/>
    <nd ref="257393524"/>
    <nd ref="257393531"/>
    <nd ref="257393535"/>
    <nd ref="257393539"/>
    <nd ref="257393543"/>
    <nd ref="257393547"/>
    <nd ref="257393551"/>
    <nd ref="257393555"/>
    <nd ref="257393559"/>
    <nd ref="257393564"/>
    <tag k="created_by" v="JOSM"/>
    <tag k="highway" v="secondary"/>
    <tag k="name" v="Starogrodzka"/>
    <tag k="ref" v="109"/>
    <tag k="source" v="UMP-PL, ./UMP-Szczecin/src/GRYFICE.ulice.txt"/>
  </way>
  <way id="23756577" version="2" timestamp="2008-04-13T16:34:05Z" uid="30632" user="antblant" changeset="131991">
    <nd ref="257393511"/>
    <nd ref="257393515"/>
    <nd ref="257393519"/>
    <nd ref="257393524"/>
    <nd ref="257393531"/>
    <nd ref="257393535"/>
    <nd ref="257393539"/>
    <nd ref="257393543"/>
    <nd ref="257393547"/>
    <nd ref="257393551"/>
    <nd ref="257393555"/>
    <nd ref="257393559"/>
    <nd ref="254708451"/>
    <tag k="created_by" v="Potlatch 0.8a"/>
    <tag k="highway" v="secondary"/>
    <tag k="name" v="Starogrodzka"/>
    <tag k="ref" v="109"/>
    <tag k="source" v="UMP-PL, ./UMP-Szczecin/src/GRYFICE.ulice.txt"/>
  </way>
  <way id="23756577" version="3" timestamp="2009-11-03T13:42:42Z" uid="36809" user="pfoten_weg_!_" changeset="3023908">
    <nd ref="257393511"/>
    <nd ref="257393515"/>
    <nd ref="257393519"/>
    <nd ref="257393524"/>
    <nd ref="257393531"/>
    <nd ref="257393535"/>
    <nd ref="257393539"/>
    <nd ref="257393543"/>
    <nd ref="257393547"/>
    <nd ref="257393551"/>
    <nd ref="257393555"/>
    <nd ref="257393559"/>
    <nd ref="254708451"/>
    <tag k="highway" v="secondary"/>
    <tag k="name" v="Starogrodzka"/>
    <tag k="ref" v="109"/>
    <tag k="source" v="UMP-PL, ./UMP-Szczecin/src/GRYFICE.ulice.txt"/>
  </way>
  <way id="23756578" version="1" timestamp="2008-04-13T16:32:22Z" uid="30632" user="antblant" changeset="131991">
    <nd ref="257393750"/>
    <nd ref="257393751"/>
    <nd ref="257393748"/>
    <tag k="created_by" v="JOSM"/>
    <tag k="highway" v="residential"/>
    <tag k="name" v="Klonowa"/>
    <tag k="source" v="UMP-PL, ./UMP-Szczecin/src/GRYFICE.ulice.txt"/>
  </way>
  <way id="23756578" version="2" timestamp="2009-11-03T13:44:14Z" uid="36809" user="pfoten_weg_!_" changeset="3023908">
    <nd ref="257393750"/>
    <nd ref="257393751"/>
    <nd ref="257393748"/>
    <tag k="highway" v="residential"/>
    <tag k="name" v="Klonowa"/>
    <tag k="source" v="UMP-PL, ./UMP-Szczecin/src/GRYFICE.ulice.txt"/>
  </way>
  <way id="23756579" version="1" timestamp="2008-04-13T16:32:23Z" uid="30632" user="antblant" changeset="131991">
    <nd ref="257393707"/>
    <nd ref="257393631"/>
    <nd ref="257393674"/>
    <tag k="created_by" v="JOSM"/>
    <tag k="highway" v="residential"/>
    <tag k="name" v="Pocztowa"/>
    <tag k="source" v="UMP-PL, ./UMP-Szczecin/src/GRYFICE.ulice.txt"/>
  </way>
  <way id="23756580" version="1" timestamp="2008-04-13T16:32:23Z" uid="30632" user="antblant" changeset="131991">
    <nd ref="257394043"/>
    <nd ref="257394083"/>
    <nd ref="257394042"/>
    <tag k="created_by" v="JOSM"/>
    <tag k="highway" v="residential"/>
    <tag k="name" v="Józefa Ignacego Kraszewskiego"/>
    <tag k="source" v="UMP-PL, ./UMP-Szczecin/src/GRYFICE.ulice.txt"/>
  </way>
  <way id="23756580" version="2" timestamp="2009-11-03T13:43:11Z" uid="36809" user="pfoten_weg_!_" changeset="3023908">
    <nd ref="257394043"/>
    <nd ref="257394083"/>
    <nd ref="257394042"/>
    <tag k="highway" v="residential"/>
    <tag k="name" v="Józefa Ignacego Kraszewskiego"/>
    <tag k="source" v="UMP-PL, ./UMP-Szczecin/src/GRYFICE.ulice.txt"/>
  </way>
  <way id="23756581" version="1" timestamp="2008-04-13T16:32:23Z" uid="30632" user="antblant" changeset="131991">
    <nd ref="257394127"/>
    <nd ref="257394124"/>
    <nd ref="257394107"/>
    <nd ref="257394106"/>
    <nd ref="257394105"/>
    <nd ref="257394104"/>
    <nd ref="257394111"/>
    <nd ref="257394131"/>
    <tag k="created_by" v="JOSM"/>
    <tag k="highway" v="residential"/>
    <tag k="name" v="Szafirowa"/>
    <tag k="source" v="UMP-PL, ./UMP-Szczecin/src/GRYFICE.ulice.txt"/>
  </way>
  <way id="23756581" version="2" timestamp="2009-11-03T13:43:56Z" uid="36809" user="pfoten_weg_!_" changeset="3023908">
    <nd ref="257394127"/>
    <nd ref="257394124"/>
    <nd ref="257394107"/>
    <nd ref="257394106"/>
    <nd ref="257394105"/>
    <nd ref="257394104"/>
    <nd ref="257394111"/>
    <nd ref="257394131"/>
    <tag k="highway" v="residential"/>
    <tag k="name" v="Szafirowa"/>
    <tag k="source" v="UMP-PL, ./UMP-Szczecin/src/GRYFICE.ulice.txt"/>
  </way>
  <way id="23756582" version="1" timestamp="2008-04-13T16:32:24Z" uid="30632" user="antblant" changeset="131991">
    <nd ref="257393866"/>
    <nd ref="257393836"/>
    <tag k="created_by" v="JOSM"/>
    <tag k="highway" v="residential"/>
    <tag k="name" v="Obroncow Westerplatte"/>
    <tag k="source" v="UMP-PL, ./UMP-Szczecin/src/GRYFICE.ulice.txt"/>
  </way>
  <way id="23756582" version="2" timestamp="2008-10-18T10:19:51Z" uid="53100" user="Jakub Klawiter" changeset="410947">
    <nd ref="257393866"/>
    <nd ref="257393836"/>
    <tag k="created_by" v="JOSM"/>
    <tag k="highway" v="residential"/>
    <tag k="name" v="Obrońców Westerplatte"/>
    <tag k="source" v="UMP-PL, ./UMP-Szczecin/src/GRYFICE.ulice.txt"/>
  </way>
  <way id="23756582" version="3" timestamp="2009-11-03T13:43:20Z" uid="36809" user="pfoten_weg_!_" changeset="3023908">
    <nd ref="257393866"/>
    <nd ref="257393836"/>
    <tag k="highway" v="residential"/>
    <tag k="name" v="Obrońców Westerplatte"/>
    <tag k="source" v="UMP-PL, ./UMP-Szczecin/src/GRYFICE.ulice.txt"/>
  </way>
  <way id="23756583" version="1" timestamp="2008-04-13T16:32:24Z" uid="30632" user="antblant" changeset="131991">
    <nd ref="257393714"/>
    <nd ref="257393715"/>
    <nd ref="257393716"/>
    <nd ref="257393717"/>
    <nd ref="257393718"/>
    <nd ref="257393719"/>
    <nd ref="257393739"/>
    <nd ref="257393650"/>
    <nd ref="257393738"/>
    <nd ref="257393737"/>
    <nd ref="257393671"/>
    <nd ref="257393736"/>
    <nd ref="257393743"/>
    <nd ref="257393742"/>
    <nd ref="257393667"/>
    <nd ref="257393632"/>
    <tag k="created_by" v="JOSM"/>
    <tag k="highway" v="secondary"/>
    <tag k="name" v="Niechorska"/>
    <tag k="ref" v="110"/>
    <tag k="source" v="UMP-PL, ./UMP-Szczecin/src/GRYFICE.ulice.txt"/>
  </way>
  <way id="23756583" version="2" timestamp="2008-04-13T16:34:54Z" uid="30632" user="antblant" changeset="131991">
    <nd ref="254697222"/>
    <nd ref="257393715"/>
    <nd ref="257393716"/>
    <nd ref="257393717"/>
    <nd ref="257393718"/>
    <nd ref="257393719"/>
    <nd ref="257393739"/>
    <nd ref="257393650"/>
    <nd ref="257393738"/>
    <nd ref="257393737"/>
    <nd ref="257393671"/>
    <nd ref="257393736"/>
    <nd ref="257393743"/>
    <nd ref="257393742"/>
    <nd ref="257393667"/>
    <nd ref="257393632"/>
    <tag k="created_by" v="Potlatch 0.8a"/>
    <tag k="highway" v="secondary"/>
    <tag k="name" v="Niechorska"/>
    <tag k="ref" v="110"/>
    <tag k="source" v="UMP-PL, ./UMP-Szczecin/src/GRYFICE.ulice.txt"/>
  </way>
  <way id="23756583" version="3" timestamp="2009-11-03T13:42:40Z" uid="36809" user="pfoten_weg_!_" changeset="3023908">
    <nd ref="254697222"/>
    <nd ref="257393715"/>
    <nd ref="257393716"/>
    <nd ref="257393717"/>
    <nd ref="257393718"/>
    <nd ref="257393719"/>
    <nd ref="257393739"/>
    <nd ref="257393650"/>
    <nd ref="257393738"/>
    <nd ref="257393737"/>
    <nd ref="257393671"/>
    <nd ref="257393736"/>
    <nd ref="257393743"/>
    <nd ref="257393742"/>
    <nd ref="257393667"/>
    <nd ref="257393632"/>
    <tag k="highway" v="secondary"/>
    <tag k="name" v="Niechorska"/>
    <tag k="ref" v="110"/>
    <tag k="source" v="UMP-PL, ./UMP-Szczecin/src/GRYFICE.ulice.txt"/>
  </way>
  <way id="23756584" version="1" timestamp="2008-04-13T16:32:25Z" uid="30632" user="antblant" changeset="131991">
    <nd ref="257393507"/>
    <nd ref="257393508"/>
    <nd ref="257393509"/>
    <tag k="created_by" v="JOSM"/>
    <tag k="highway" v="secondary"/>
    <tag k="name" v="Wysoka Brama"/>
    <tag k="ref" v="105"/>
    <tag k="source" v="UMP-PL, ./UMP-Szczecin/src/GRYFICE.ulice.txt"/>
  </way>
  <way id="23756585" version="1" timestamp="2008-04-13T16:32:25Z" uid="30632" user="antblant" changeset="131991">
    <nd ref="257393654"/>
    <nd ref="257393967"/>
    <tag k="created_by" v="JOSM"/>
    <tag k="highway" v="residential"/>
    <tag k="name" v="Jasna"/>
    <tag k="source" v="UMP-PL, ./UMP-Szczecin/src/GRYFICE.ulice.txt"/>
  </way>
  <way id="23756586" version="1" timestamp="2008-04-13T16:32:26Z" uid="30632" user="antblant" changeset="131991">
    <nd ref="257394066"/>
    <nd ref="257394121"/>
    <nd ref="257394118"/>
    <nd ref="257394114"/>
    <nd ref="257394112"/>
    <nd ref="257394134"/>
    <nd ref="257394131"/>
    <nd ref="257393739"/>
    <tag k="created_by" v="JOSM"/>
    <tag k="highway" v="residential"/>
    <tag k="name" v="Bursztynowa"/>
    <tag k="source" v="UMP-PL, ./UMP-Szczecin/src/GRYFICE.ulice.txt"/>
  </way>
  <way id="23756586" version="2" timestamp="2009-11-03T13:43:52Z" uid="36809" user="pfoten_weg_!_" changeset="3023908">
    <nd ref="257394066"/>
    <nd ref="257394121"/>
    <nd ref="257394118"/>
    <nd ref="257394114"/>
    <nd ref="257394112"/>
    <nd ref="257394134"/>
    <nd ref="257394131"/>
    <nd ref="257393739"/>
    <tag k="highway" v="residential"/>
    <tag k="name" v="Bursztynowa"/>
    <tag k="source" v="UMP-PL, ./UMP-Szczecin/src/GRYFICE.ulice.txt"/>
  </way>
  <way id="23756587" version="1" timestamp="2008-04-13T16:32:26Z" uid="30632" user="antblant" changeset="131991">
    <nd ref="257393865"/>
    <nd ref="257393867"/>
    <tag k="created_by" v="JOSM"/>
    <tag k="highway" v="residential"/>
    <tag k="name" v="Grunwaldzka"/>
    <tag k="source" v="UMP-PL, ./UMP-Szczecin/src/GRYFICE.ulice.txt"/>
  </way>
  <way id="23756587" version="2" timestamp="2009-11-03T13:43:19Z" uid="36809" user="pfoten_weg_!_" changeset="3023908">
    <nd ref="257393865"/>
    <nd ref="257393867"/>
    <tag k="highway" v="residential"/>
    <tag k="name" v="Grunwaldzka"/>
    <tag k="source" v="UMP-PL, ./UMP-Szczecin/src/GRYFICE.ulice.txt"/>
  </way>
  <way id="23756588" version="1" timestamp="2008-04-13T16:32:26Z" uid="30632" user="antblant" changeset="131991">
    <nd ref="257393613"/>
    <nd ref="257393712"/>
    <nd ref="257393681"/>
    <nd ref="257393713"/>
    <nd ref="257393590"/>
    <tag k="created_by" v="JOSM"/>
    <tag k="highway" v="secondary"/>
    <tag k="name" v="Nadrzeczna"/>
    <tag k="ref" v="105"/>
    <tag k="source" v="UMP-PL, ./UMP-Szczecin/src/GRYFICE.ulice.txt"/>
  </way>
  <way id="23756588" version="2" timestamp="2009-11-03T13:43:40Z" uid="36809" user="pfoten_weg_!_" changeset="3023908">
    <nd ref="257393613"/>
    <nd ref="257393712"/>
    <nd ref="257393681"/>
    <nd ref="257393713"/>
    <nd ref="257393590"/>
    <tag k="highway" v="secondary"/>
    <tag k="name" v="Nadrzeczna"/>
    <tag k="ref" v="105"/>
    <tag k="source" v="UMP-PL, ./UMP-Szczecin/src/GRYFICE.ulice.txt"/>
  </way>
  <way id="23756589" version="1" timestamp="2008-04-13T16:32:27Z" uid="30632" user="antblant" changeset="131991">
    <nd ref="257393601"/>
    <nd ref="257393992"/>
    <nd ref="257393993"/>
    <nd ref="257393994"/>
    <nd ref="257393995"/>
    <nd ref="257393965"/>
    <nd ref="257393964"/>
    <nd ref="257393626"/>
    <nd ref="257393672"/>
    <tag k="created_by" v="JOSM"/>
    <tag k="highway" v="residential"/>
    <tag k="name" v="11 Listopada"/>
    <tag k="source" v="UMP-PL, ./UMP-Szczecin/src/GRYFICE.ulice.txt"/>
  </way>
  <way id="23756590" version="1" timestamp="2008-04-13T16:32:27Z" uid="30632" user="antblant" changeset="131991">
    <nd ref="257394108"/>
    <nd ref="257394097"/>
    <nd ref="257394107"/>
    <tag k="created_by" v="JOSM"/>
    <tag k="highway" v="residential"/>
    <tag k="name" v="Rubinowa"/>
    <tag k="source" v="UMP-PL, ./UMP-Szczecin/src/GRYFICE.ulice.txt"/>
  </way>
  <way id="23756590" version="2" timestamp="2009-11-03T13:43:55Z" uid="36809" user="pfoten_weg_!_" changeset="3023908">
    <nd ref="257394108"/>
    <nd ref="257394097"/>
    <nd ref="257394107"/>
    <tag k="highway" v="residential"/>
    <tag k="name" v="Rubinowa"/>
    <tag k="source" v="UMP-PL, ./UMP-Szczecin/src/GRYFICE.ulice.txt"/>
  </way>
  <way id="23756591" version="1" timestamp="2008-04-13T16:32:27Z" uid="30632" user="antblant" changeset="131991">
    <nd ref="257393735"/>
    <nd ref="257393734"/>
    <nd ref="257393733"/>
    <nd ref="257393732"/>
    <nd ref="257393754"/>
    <nd ref="257393622"/>
    <tag k="created_by" v="JOSM"/>
    <tag k="highway" v="secondary"/>
    <tag k="name" v="Kamieńska"/>
    <tag k="ref" v="105"/>
    <tag k="source" v="UMP-PL, ./UMP-Szczecin/src/GRYFICE.ulice.txt"/>
  </way>
  <way id="23756591" version="2" timestamp="2008-04-13T16:33:53Z" uid="30632" user="antblant" changeset="131991">
    <nd ref="254697147"/>
    <nd ref="257393734"/>
    <nd ref="257393733"/>
    <nd ref="257393732"/>
    <nd ref="257393754"/>
    <nd ref="257393622"/>
    <tag k="created_by" v="Potlatch 0.8a"/>
    <tag k="highway" v="secondary"/>
    <tag k="name" v="Kamieńska"/>
    <tag k="ref" v="105"/>
    <tag k="source" v="UMP-PL, ./UMP-Szczecin/src/GRYFICE.ulice.txt"/>
  </way>
  <way id="23756591" version="3" timestamp="2009-11-03T13:42:51Z" uid="36809" user="pfoten_weg_!_" changeset="3023908">
    <nd ref="254697147"/>
    <nd ref="257393734"/>
    <nd ref="257393733"/>
    <nd ref="257393732"/>
    <nd ref="257393754"/>
    <nd ref="257393622"/>
    <tag k="highway" v="secondary"/>
    <tag k="name" v="Kamieńska"/>
    <tag k="ref" v="105"/>
    <tag k="source" v="UMP-PL, ./UMP-Szczecin/src/GRYFICE.ulice.txt"/>
  </way>
  <way id="23756592" version="1" timestamp="2008-04-13T16:32:28Z" uid="30632" user="antblant" changeset="131991">
    <nd ref="257393867"/>
    <nd ref="257393861"/>
    <nd ref="257393686"/>
    <tag k="created_by" v="JOSM"/>
    <tag k="highway" v="unclassified"/>
    <tag k="name" v="Łąkowa"/>
    <tag k="source" v="UMP-PL, ./UMP-Szczecin/src/GRYFICE.ulice.txt"/>
    <tag k="surface" v="unpaved"/>
  </way>
  <way id="23756592" version="2" timestamp="2009-11-03T13:43:23Z" uid="36809" user="pfoten_weg_!_" changeset="3023908">
    <nd ref="257393867"/>
    <nd ref="257393861"/>
    <nd ref="257393686"/>
    <tag k="highway" v="unclassified"/>
    <tag k="name" v="Łąkowa"/>
    <tag k="source" v="UMP-PL, ./UMP-Szczecin/src/GRYFICE.ulice.txt"/>
    <tag k="surface" v="unpaved"/>
  </way>
  <way id="23756593" version="1" timestamp="2008-04-13T16:32:28Z" uid="30632" user="antblant" changeset="131991">
    <nd ref="257393608"/>
    <nd ref="257393641"/>
    <tag k="created_by" v="JOSM"/>
    <tag k="highway" v="residential"/>
    <tag k="name" v="Podgórna"/>
    <tag k="source" v="UMP-PL, ./UMP-Szczecin/src/GRYFICE.ulice.txt"/>
  </way>
  <way id="23756594" version="1" timestamp="2008-04-13T16:32:28Z" uid="30632" user="antblant" changeset="131991">
    <nd ref="257394110"/>
    <nd ref="257394109"/>
    <nd ref="257394108"/>
    <nd ref="257394098"/>
    <nd ref="257394099"/>
    <nd ref="257394096"/>
    <nd ref="257394114"/>
    <tag k="created_by" v="JOSM"/>
    <tag k="highway" v="residential"/>
    <tag k="name" v="Szmaragdowa"/>
    <tag k="source" v="UMP-PL, ./UMP-Szczecin/src/GRYFICE.ulice.txt"/>
  </way>
  <way id="23756594" version="2" timestamp="2009-11-03T13:43:51Z" uid="36809" user="pfoten_weg_!_" changeset="3023908">
    <nd ref="257394110"/>
    <nd ref="257394109"/>
    <nd ref="257394108"/>
    <nd ref="257394098"/>
    <nd ref="257394099"/>
    <nd ref="257394096"/>
    <nd ref="257394114"/>
    <tag k="highway" v="residential"/>
    <tag k="name" v="Szmaragdowa"/>
    <tag k="source" v="UMP-PL, ./UMP-Szczecin/src/GRYFICE.ulice.txt"/>
  </way>
  <way id="23756595" version="1" timestamp="2008-04-13T16:32:29Z" uid="30632" user="antblant" changeset="131991">
    <nd ref="257393741"/>
    <nd ref="257393740"/>
    <nd ref="257393731"/>
    <nd ref="257393730"/>
    <nd ref="257393729"/>
    <nd ref="257393728"/>
    <tag k="created_by" v="JOSM"/>
    <tag k="highway" v="tertiary"/>
    <tag k="name" v="Niekładzka"/>
    <tag k="source" v="UMP-PL, ./UMP-Szczecin/src/GRYFICE.ulice.txt"/>
  </way>
  <way id="23756596" version="1" timestamp="2008-04-13T16:32:29Z" uid="30632" user="antblant" changeset="131991">
    <nd ref="257393868"/>
    <nd ref="257393863"/>
    <nd ref="257393864"/>
    <tag k="created_by" v="JOSM"/>
    <tag k="highway" v="residential"/>
    <tag k="name" v="Słoneczna"/>
    <tag k="source" v="UMP-PL, ./UMP-Szczecin/src/GRYFICE.ulice.txt"/>
  </way>
  <way id="23756596" version="2" timestamp="2009-11-03T13:43:18Z" uid="36809" user="pfoten_weg_!_" changeset="3023908">
    <nd ref="257393868"/>
    <nd ref="257393863"/>
    <nd ref="257393864"/>
    <tag k="highway" v="residential"/>
    <tag k="name" v="Słoneczna"/>
    <tag k="source" v="UMP-PL, ./UMP-Szczecin/src/GRYFICE.ulice.txt"/>
  </way>
  <way id="23756597" version="1" timestamp="2008-04-13T16:32:29Z" uid="30632" user="antblant" changeset="131991">
    <nd ref="257393845"/>
    <nd ref="257393705"/>
    <tag k="created_by" v="JOSM"/>
    <tag k="highway" v="residential"/>
    <tag k="name" v="Ruta"/>
    <tag k="source" v="UMP-PL, ./UMP-Szczecin/src/GRYFICE.ulice.txt"/>
  </way>
  <way id="23756598" version="1" timestamp="2008-04-13T16:32:30Z" uid="30632" user="antblant" changeset="131991">
    <nd ref="257393836"/>
    <nd ref="257394064"/>
    <tag k="created_by" v="JOSM"/>
    <tag k="highway" v="residential"/>
    <tag k="name" v="Wincentego Witosa"/>
    <tag k="source" v="UMP-PL, ./UMP-Szczecin/src/GRYFICE.ulice.txt"/>
  </way>
  <way id="23756598" version="2" timestamp="2009-11-03T13:43:24Z" uid="36809" user="pfoten_weg_!_" changeset="3023908">
    <nd ref="257393836"/>
    <nd ref="257394064"/>
    <tag k="highway" v="residential"/>
    <tag k="name" v="Wincentego Witosa"/>
    <tag k="source" v="UMP-PL, ./UMP-Szczecin/src/GRYFICE.ulice.txt"/>
  </way>
  <way id="23756599" version="1" timestamp="2008-04-13T16:32:30Z" uid="30632" user="antblant" changeset="131991">
    <nd ref="257393609"/>
    <nd ref="257393978"/>
    <nd ref="257394024"/>
    <tag k="created_by" v="JOSM"/>
    <tag k="highway" v="residential"/>
    <tag k="name" v="Strzelecka"/>
    <tag k="source" v="UMP-PL, ./UMP-Szczecin/src/GRYFICE.ulice.txt"/>
  </way>
  <way id="23756600" version="1" timestamp="2008-04-13T16:32:31Z" uid="30632" user="antblant" changeset="131991">
    <nd ref="257393623"/>
    <nd ref="257393857"/>
    <nd ref="257393858"/>
    <tag k="created_by" v="JOSM"/>
    <tag k="highway" v="residential"/>
    <tag k="name" v="Armii Krajowej"/>
    <tag k="source" v="UMP-PL, ./UMP-Szczecin/src/GRYFICE.ulice.txt"/>
  </way>
  <way id="23756600" version="2" timestamp="2009-11-03T13:42:23Z" uid="36809" user="pfoten_weg_!_" changeset="3023908">
    <nd ref="257393623"/>
    <nd ref="257393857"/>
    <nd ref="257393858"/>
    <tag k="highway" v="residential"/>
    <tag k="name" v="Armii Krajowej"/>
    <tag k="source" v="UMP-PL, ./UMP-Szczecin/src/GRYFICE.ulice.txt"/>
  </way>
  <way id="23756601" version="1" timestamp="2008-04-13T16:32:32Z" uid="30632" user="antblant" changeset="131991">
    <nd ref="257393699"/>
    <nd ref="257393691"/>
    <nd ref="257393698"/>
    <nd ref="257393701"/>
    <nd ref="257393700"/>
    <nd ref="257393703"/>
    <nd ref="257393702"/>
    <tag k="created_by" v="JOSM"/>
    <tag k="highway" v="secondary"/>
    <tag k="name" v="Piastów"/>
    <tag k="ref" v="105"/>
    <tag k="source" v="UMP-PL, ./UMP-Szczecin/src/GRYFICE.ulice.txt"/>
  </way>
  <way id="23756601" version="2" timestamp="2008-04-13T16:34:28Z" uid="30632" user="antblant" changeset="131991">
    <nd ref="257393699"/>
    <nd ref="257393691"/>
    <nd ref="257393698"/>
    <nd ref="257393701"/>
    <nd ref="257393700"/>
    <nd ref="257393703"/>
    <nd ref="254707868"/>
    <tag k="created_by" v="Potlatch 0.8a"/>
    <tag k="highway" v="secondary"/>
    <tag k="name" v="Piastów"/>
    <tag k="ref" v="105"/>
    <tag k="source" v="UMP-PL, ./UMP-Szczecin/src/GRYFICE.ulice.txt"/>
  </way>
  <way id="23756601" version="3" timestamp="2009-11-03T13:44:29Z" uid="36809" user="pfoten_weg_!_" changeset="3023908">
    <nd ref="257393699"/>
    <nd ref="257393691"/>
    <nd ref="257393698"/>
    <nd ref="257393701"/>
    <nd ref="257393700"/>
    <nd ref="257393703"/>
    <nd ref="254707868"/>
    <tag k="highway" v="secondary"/>
    <tag k="name" v="Piastów"/>
    <tag k="ref" v="105"/>
    <tag k="source" v="UMP-PL, ./UMP-Szczecin/src/GRYFICE.ulice.txt"/>
  </way>
  <way id="23756602" version="1" timestamp="2008-04-13T16:32:33Z" uid="30632" user="antblant" changeset="131991">
    <nd ref="257393837"/>
    <nd ref="257394070"/>
    <tag k="created_by" v="JOSM"/>
    <tag k="highway" v="residential"/>
    <tag k="name" v="Palińskiego"/>
    <tag k="source" v="UMP-PL, ./UMP-Szczecin/src/GRYFICE.ulice.txt"/>
  </way>
  <way id="23756602" version="2" timestamp="2009-11-03T13:43:22Z" uid="36809" user="pfoten_weg_!_" changeset="3023908">
    <nd ref="257393837"/>
    <nd ref="257394070"/>
    <tag k="highway" v="residential"/>
    <tag k="name" v="Palińskiego"/>
    <tag k="source" v="UMP-PL, ./UMP-Szczecin/src/GRYFICE.ulice.txt"/>
  </way>
  <way id="23756603" version="1" timestamp="2008-04-13T16:32:33Z" uid="30632" user="antblant" changeset="131991">
    <nd ref="257393977"/>
    <nd ref="257393976"/>
    <nd ref="257393979"/>
    <nd ref="257393619"/>
    <tag k="created_by" v="JOSM"/>
    <tag k="highway" v="residential"/>
    <tag k="name" v="Leśna"/>
    <tag k="source" v="UMP-PL, ./UMP-Szczecin/src/GRYFICE.ulice.txt"/>
  </way>
  <way id="23756604" version="1" timestamp="2008-04-13T16:32:33Z" uid="30632" user="antblant" changeset="131991">
    <nd ref="257393587"/>
    <nd ref="257393862"/>
    <nd ref="257393859"/>
    <nd ref="257393860"/>
    <tag k="created_by" v="JOSM"/>
    <tag k="highway" v="residential"/>
    <tag k="source" v="UMP-PL, ./UMP-Szczecin/src/GRYFICE.ulice.txt"/>
  </way>
  <way id="23756604" version="2" timestamp="2009-11-03T13:43:15Z" uid="36809" user="pfoten_weg_!_" changeset="3023908">
    <nd ref="257393587"/>
    <nd ref="257393862"/>
    <nd ref="257393859"/>
    <nd ref="257393860"/>
    <tag k="highway" v="residential"/>
    <tag k="source" v="UMP-PL, ./UMP-Szczecin/src/GRYFICE.ulice.txt"/>
  </way>
  <way id="23756605" version="1" timestamp="2008-04-13T16:32:34Z" uid="30632" user="antblant" changeset="131991">
    <nd ref="257393696"/>
    <nd ref="257393699"/>
    <tag k="created_by" v="JOSM"/>
    <tag k="highway" v="residential"/>
    <tag k="name" v="Osadnicza"/>
    <tag k="source" v="UMP-PL, ./UMP-Szczecin/src/GRYFICE.ulice.txt"/>
  </way>
  <way id="23756605" version="2" timestamp="2009-11-03T13:44:30Z" uid="36809" user="pfoten_weg_!_" changeset="3023908">
    <nd ref="257393696"/>
    <nd ref="257393699"/>
    <tag k="highway" v="residential"/>
    <tag k="name" v="Osadnicza"/>
    <tag k="source" v="UMP-PL, ./UMP-Szczecin/src/GRYFICE.ulice.txt"/>
  </way>
  <way id="23756606" version="1" timestamp="2008-04-13T16:32:34Z" uid="30632" user="antblant" changeset="131991">
    <nd ref="257393756"/>
    <nd ref="257394063"/>
    <nd ref="257394067"/>
    <nd ref="257393749"/>
    <tag k="created_by" v="JOSM"/>
    <tag k="highway" v="residential"/>
    <tag k="name" v="Działkowa"/>
    <tag k="source" v="UMP-PL, ./UMP-Szczecin/src/GRYFICE.ulice.txt"/>
  </way>
  <way id="23756606" version="2" timestamp="2009-11-03T13:44:14Z" uid="36809" user="pfoten_weg_!_" changeset="3023908">
    <nd ref="257393756"/>
    <nd ref="257394063"/>
    <nd ref="257394067"/>
    <nd ref="257393749"/>
    <tag k="highway" v="residential"/>
    <tag k="name" v="Działkowa"/>
    <tag k="source" v="UMP-PL, ./UMP-Szczecin/src/GRYFICE.ulice.txt"/>
  </way>
  <way id="23756607" version="1" timestamp="2008-04-13T16:32:34Z" uid="30632" user="antblant" changeset="131991">
    <nd ref="257393617"/>
    <nd ref="257393973"/>
    <nd ref="257393970"/>
    <nd ref="257393972"/>
    <nd ref="257393975"/>
    <nd ref="257393974"/>
    <nd ref="257393977"/>
    <nd ref="257393681"/>
    <tag k="created_by" v="JOSM"/>
    <tag k="highway" v="residential"/>
    <tag k="name" v="Nadbrzezna"/>
    <tag k="source" v="UMP-PL, ./UMP-Szczecin/src/GRYFICE.ulice.txt"/>
  </way>
  <way id="23756607" version="2" timestamp="2008-10-27T19:33:43Z" uid="53100" user="Jakub Klawiter" changeset="602834">
    <nd ref="257393617"/>
    <nd ref="257393973"/>
    <nd ref="257393970"/>
    <nd ref="257393972"/>
    <nd ref="257393975"/>
    <nd ref="257393974"/>
    <nd ref="257393977"/>
    <nd ref="257393681"/>
    <tag k="created_by" v="JOSM"/>
    <tag k="highway" v="residential"/>
    <tag k="name" v="Nadbrzeżna"/>
    <tag k="source" v="UMP-PL, ./UMP-Szczecin/src/GRYFICE.ulice.txt"/>
  </way>
  <way id="23756608" version="1" timestamp="2008-04-13T16:32:35Z" uid="30632" user="antblant" changeset="131991">
    <nd ref="257393613"/>
    <nd ref="257393644"/>
    <tag k="created_by" v="JOSM"/>
    <tag k="highway" v="secondary"/>
    <tag k="name" v="Nadrzeczna"/>
    <tag k="ref" v="105"/>
    <tag k="source" v="UMP-PL, ./UMP-Szczecin/src/GRYFICE.ulice.txt"/>
  </way>
  <way id="23756609" version="1" timestamp="2008-04-13T16:32:38Z" uid="30632" user="antblant" changeset="131991">
    <nd ref="257393856"/>
    <nd ref="257393854"/>
    <nd ref="257393927"/>
    <nd ref="257393857"/>
    <tag k="created_by" v="JOSM"/>
    <tag k="highway" v="residential"/>
    <tag k="name" v="Cukrownicza"/>
    <tag k="source" v="UMP-PL, ./UMP-Szczecin/src/GRYFICE.ulice.txt"/>
  </way>
  <way id="23756610" version="1" timestamp="2008-04-13T16:32:39Z" uid="30632" user="antblant" changeset="131991">
    <nd ref="257394078"/>
    <nd ref="257393987"/>
    <tag k="created_by" v="JOSM"/>
    <tag k="highway" v="residential"/>
    <tag k="name" v="Wańkowicza"/>
    <tag k="source" v="UMP-PL, ./UMP-Szczecin/src/GRYFICE.ulice.txt"/>
  </way>
  <way id="23756610" version="2" timestamp="2009-11-03T13:43:09Z" uid="36809" user="pfoten_weg_!_" changeset="3023908">
    <nd ref="257394078"/>
    <nd ref="257393987"/>
    <tag k="highway" v="residential"/>
    <tag k="name" v="Wańkowicza"/>
    <tag k="source" v="UMP-PL, ./UMP-Szczecin/src/GRYFICE.ulice.txt"/>
  </way>
  <way id="23756611" version="1" timestamp="2008-04-13T16:32:39Z" uid="30632" user="antblant" changeset="131991">
    <nd ref="257393966"/>
    <nd ref="257393969"/>
    <nd ref="257393968"/>
    <nd ref="257393971"/>
    <nd ref="257393970"/>
    <tag k="created_by" v="JOSM"/>
    <tag k="highway" v="residential"/>
    <tag k="name" v="Litewska"/>
    <tag k="source" v="UMP-PL, ./UMP-Szczecin/src/GRYFICE.ulice.txt"/>
  </way>
  <way id="23756611" version="2" timestamp="2009-11-03T13:43:38Z" uid="36809" user="pfoten_weg_!_" changeset="3023908">
    <nd ref="257393966"/>
    <nd ref="257393969"/>
    <nd ref="257393968"/>
    <nd ref="257393971"/>
    <nd ref="257393970"/>
    <tag k="highway" v="residential"/>
    <tag k="name" v="Litewska"/>
    <tag k="source" v="UMP-PL, ./UMP-Szczecin/src/GRYFICE.ulice.txt"/>
  </way>
  <way id="23756612" version="1" timestamp="2008-04-13T16:32:39Z" uid="30632" user="antblant" changeset="131991">
    <nd ref="257393590"/>
    <nd ref="257393720"/>
    <nd ref="257393721"/>
    <nd ref="257393722"/>
    <nd ref="257393723"/>
    <nd ref="257393724"/>
    <nd ref="257393725"/>
    <nd ref="257393726"/>
    <nd ref="257393727"/>
    <nd ref="257393699"/>
    <tag k="created_by" v="JOSM"/>
    <tag k="highway" v="secondary"/>
    <tag k="name" v="Broniszewska"/>
    <tag k="ref" v="105"/>
    <tag k="source" v="UMP-PL, ./UMP-Szczecin/src/GRYFICE.ulice.txt"/>
  </way>
  <way id="23756612" version="2" timestamp="2009-11-03T13:42:22Z" uid="36809" user="pfoten_weg_!_" changeset="3023908">
    <nd ref="257393590"/>
    <nd ref="257393720"/>
    <nd ref="257393721"/>
    <nd ref="257393722"/>
    <nd ref="257393723"/>
    <nd ref="257393724"/>
    <nd ref="257393725"/>
    <nd ref="257393726"/>
    <nd ref="257393727"/>
    <nd ref="257393699"/>
    <tag k="highway" v="secondary"/>
    <tag k="name" v="Broniszewska"/>
    <tag k="ref" v="105"/>
    <tag k="source" v="UMP-PL, ./UMP-Szczecin/src/GRYFICE.ulice.txt"/>
  </way>
  <way id="23756613" version="1" timestamp="2008-04-13T16:32:40Z" uid="30632" user="antblant" changeset="131991">
    <nd ref="257393855"/>
    <nd ref="257393856"/>
    <nd ref="257393853"/>
    <tag k="created_by" v="JOSM"/>
    <tag k="highway" v="residential"/>
    <tag k="name" v="Fabryczna"/>
    <tag k="source" v="UMP-PL, ./UMP-Szczecin/src/GRYFICE.ulice.txt"/>
  </way>
  <way id="23756613" version="2" timestamp="2009-11-03T13:43:41Z" uid="36809" user="pfoten_weg_!_" changeset="3023908">
    <nd ref="257393855"/>
    <nd ref="257393856"/>
    <nd ref="257393853"/>
    <tag k="highway" v="residential"/>
    <tag k="name" v="Fabryczna"/>
    <tag k="source" v="UMP-PL, ./UMP-Szczecin/src/GRYFICE.ulice.txt"/>
  </way>
  <way id="23756683" version="2" timestamp="2009-02-24T13:38:12Z" uid="102004" user="iago" changeset="659268">
    <nd ref="27489972"/>
    <nd ref="257395140"/>
    <tag k="created_by" v="Potlatch 0.10f"/>
    <tag k="highway" v="unclassified"/>
    <tag k="name" v="Square Edmond de Debeaumarché"/>
    <tag k="oneway" v="yes"/>
  </way>
  <way id="23756683" version="3" timestamp="2009-02-24T13:39:02Z" uid="102004" user="iago" changeset="659268">
    <nd ref="27489972"/>
    <nd ref="257395140"/>
    <tag k="created_by" v="Potlatch 0.10f"/>
    <tag k="highway" v="primary"/>
  </way>
  <way id="23756683" version="4" timestamp="2012-02-04T20:58:08Z" uid="420883" user="joedalton85" changeset="10588527">
    <nd ref="27489972"/>
    <nd ref="257395140"/>
    <tag k="highway" v="residential"/>
  </way>
  <way id="23756790" version="2" timestamp="2010-06-29T19:05:36Z" uid="74617" user="JohnSmith" changeset="5108182">
    <nd ref="257395612"/>
    <nd ref="257395613"/>
    <nd ref="257395614"/>
    <nd ref="257395615"/>
    <nd ref="257395616"/>
    <nd ref="257395612"/>
    <tag k="fixme" v="sport=football is ambiguous, see http://wiki.osm.org/wiki/Football for more details"/>
    <tag k="leisure" v="pitch"/>
    <tag k="name" v="Åttans Idrottsplats"/>
    <tag k="sport" v="football"/>
  </way>
  <way id="23756832" version="1" timestamp="2008-04-13T16:44:28Z" uid="30632" user="antblant" changeset="131991">
    <nd ref="257395980"/>
    <nd ref="257395982"/>
    <tag k="created_by" v="JOSM"/>
    <tag k="highway" v="residential"/>
    <tag k="name" v="Podgórna"/>
    <tag k="source" v="UMP-PL, ./UMP-Szczecin/src/KALISZ_POMORSKI.ulice.txt"/>
  </way>
  <way id="23756833" version="1" timestamp="2008-04-13T16:44:28Z" uid="30632" user="antblant" changeset="131991">
    <nd ref="257395840"/>
    <nd ref="257395884"/>
    <nd ref="257395887"/>
    <nd ref="257395886"/>
    <nd ref="257395898"/>
    <nd ref="257395896"/>
    <nd ref="257395900"/>
    <nd ref="257395839"/>
    <tag k="created_by" v="JOSM"/>
    <tag k="highway" v="residential"/>
    <tag k="name" v="Kwiatowa"/>
    <tag k="source" v="UMP-PL, ./UMP-Szczecin/src/KALISZ_POMORSKI.ulice.txt"/>
  </way>
  <way id="23756834" version="1" timestamp="2008-04-13T16:44:29Z" uid="30632" user="antblant" changeset="131991">
    <nd ref="257395759"/>
    <nd ref="257396018"/>
    <tag k="created_by" v="JOSM"/>
    <tag k="highway" v="residential"/>
    <tag k="name" v="Kołobrzeska"/>
    <tag k="source" v="UMP-PL, ./UMP-Szczecin/src/KALISZ_POMORSKI.ulice.txt"/>
  </way>
  <way id="23756835" version="1" timestamp="2008-04-13T16:44:29Z" uid="30632" user="antblant" changeset="131991">
    <nd ref="257396122"/>
    <nd ref="257396121"/>
    <nd ref="257396120"/>
    <nd ref="257396119"/>
    <nd ref="257396118"/>
    <nd ref="257395961"/>
    <tag k="created_by" v="JOSM"/>
    <tag k="highway" v="residential"/>
    <tag k="name" v="Bolesława Chrobrego"/>
    <tag k="source" v="UMP-PL, ./UMP-Szczecin/src/KALISZ_POMORSKI.ulice.txt"/>
  </way>
  <way id="23756835" version="2" timestamp="2011-02-06T14:06:33Z" uid="30632" user="antblant" changeset="7204008">
    <nd ref="257395916"/>
    <nd ref="257396121"/>
    <nd ref="257396120"/>
    <nd ref="257396119"/>
    <nd ref="257396118"/>
    <nd ref="257395961"/>
    <tag k="highway" v="residential"/>
    <tag k="name" v="Bolesława Chrobrego"/>
    <tag k="source" v="UMP-PL, ./UMP-Szczecin/src/KALISZ_POMORSKI.ulice.txt"/>
  </way>
  <way id="23756836" version="1" timestamp="2008-04-13T16:44:30Z" uid="30632" user="antblant" changeset="131991">
    <nd ref="257395978"/>
    <nd ref="257395902"/>
    <nd ref="257395984"/>
    <nd ref="257395979"/>
    <nd ref="257395986"/>
    <tag k="created_by" v="JOSM"/>
    <tag k="highway" v="residential"/>
    <tag k="name" v="Św. Wojciecha"/>
    <tag k="source" v="UMP-PL, ./UMP-Szczecin/src/KALISZ_POMORSKI.ulice.txt"/>
  </way>
  <way id="23756837" version="1" timestamp="2008-04-13T16:44:30Z" uid="30632" user="antblant" changeset="131991">
    <nd ref="257395900"/>
    <nd ref="257395887"/>
    <tag k="created_by" v="JOSM"/>
    <tag k="highway" v="residential"/>
    <tag k="name" v="Kwiatowa"/>
    <tag k="source" v="UMP-PL, ./UMP-Szczecin/src/KALISZ_POMORSKI.ulice.txt"/>
  </way>
  <way id="23756838" version="1" timestamp="2008-04-13T16:44:30Z" uid="30632" user="antblant" changeset="131991">
    <nd ref="257396025"/>
    <nd ref="257396019"/>
    <nd ref="257396087"/>
    <nd ref="257396083"/>
    <nd ref="257396095"/>
    <nd ref="257396091"/>
    <tag k="created_by" v="JOSM"/>
    <tag k="highway" v="unclassified"/>
    <tag k="name" v="Adama Mickiewicza"/>
    <tag k="source" v="UMP-PL, ./UMP-Szczecin/src/KALISZ_POMORSKI.ulice.txt"/>
    <tag k="surface" v="unpaved"/>
  </way>
  <way id="23756838" version="2" timestamp="2011-12-25T22:40:44Z" uid="467703" user="Zbigniew Czernik" changeset="10203345">
    <nd ref="257396025"/>
    <nd ref="257396019"/>
    <nd ref="257396087"/>
    <nd ref="257396083"/>
    <nd ref="257396095"/>
    <nd ref="257396091"/>
    <tag k="highway" v="track"/>
    <tag k="name" v="Adama Mickiewicza"/>
    <tag k="source" v="UMP-PL, ./UMP-Szczecin/src/KALISZ_POMORSKI.ulice.txt"/>
    <tag k="surface" v="unpaved"/>
    <tag k="tracktype" v="grade1"/>
  </way>
  <way id="23756839" version="1" timestamp="2008-04-13T16:44:31Z" uid="30632" user="antblant" changeset="131991">
    <nd ref="257396105"/>
    <nd ref="257396123"/>
    <tag k="created_by" v="JOSM"/>
    <tag k="highway" v="unclassified"/>
    <tag k="source" v="UMP-PL, ./UMP-Szczecin/src/KALISZ_POMORSKI.ulice.txt"/>
    <tag k="surface" v="unpaved"/>
  </way>
  <way id="23756839" version="2" timestamp="2011-12-25T23:05:25Z" uid="467703" user="Zbigniew Czernik" changeset="10203345">
    <nd ref="257396105"/>
    <nd ref="257396123"/>
    <tag k="highway" v="track"/>
    <tag k="source" v="UMP-PL, ./UMP-Szczecin/src/KALISZ_POMORSKI.ulice.txt"/>
    <tag k="surface" v="unpaved"/>
    <tag k="tracktype" v="grade1"/>
  </way>
  <way id="23756840" version="1" timestamp="2008-04-13T16:44:31Z" uid="30632" user="antblant" changeset="131991">
    <nd ref="257395868"/>
    <nd ref="257395855"/>
    <nd ref="257395856"/>
    <nd ref="257395857"/>
    <nd ref="257395860"/>
    <nd ref="257395880"/>
    <nd ref="257395881"/>
    <nd ref="257395882"/>
    <nd ref="257395883"/>
    <nd ref="257395869"/>
    <nd ref="257395870"/>
    <nd ref="257395871"/>
    <nd ref="257395879"/>
    <nd ref="257395889"/>
    <nd ref="257395850"/>
    <tag k="created_by" v="JOSM"/>
    <tag k="highway" v="primary"/>
    <tag k="name" v="Szczecińska"/>
    <tag k="ref" v="10"/>
    <tag k="source" v="UMP-PL, ./UMP-Szczecin/src/KALISZ_POMORSKI.ulice.txt"/>
  </way>
  <way id="23756840" version="2" timestamp="2008-04-13T16:45:14Z" uid="30632" user="antblant" changeset="131991">
    <nd ref="254718723"/>
    <nd ref="257395855"/>
    <nd ref="257395856"/>
    <nd ref="257395857"/>
    <nd ref="257395860"/>
    <nd ref="257395880"/>
    <nd ref="257395881"/>
    <nd ref="257395882"/>
    <nd ref="257395883"/>
    <nd ref="257395869"/>
    <nd ref="257395870"/>
    <nd ref="257395871"/>
    <nd ref="257395879"/>
    <nd ref="257395889"/>
    <nd ref="257395850"/>
    <tag k="created_by" v="Potlatch 0.8a"/>
    <tag k="highway" v="primary"/>
    <tag k="name" v="Szczecińska"/>
    <tag k="ref" v="10"/>
    <tag k="source" v="UMP-PL, ./UMP-Szczecin/src/KALISZ_POMORSKI.ulice.txt"/>
  </way>
  <way id="23756841" version="1" timestamp="2008-04-13T16:44:31Z" uid="30632" user="antblant" changeset="131991">
    <nd ref="257395850"/>
    <nd ref="257395971"/>
    <nd ref="257395976"/>
    <nd ref="257395963"/>
    <nd ref="257395977"/>
    <nd ref="257395985"/>
    <nd ref="257395960"/>
    <nd ref="257395983"/>
    <nd ref="257395915"/>
    <nd ref="257395766"/>
    <tag k="created_by" v="JOSM"/>
    <tag k="highway" v="primary"/>
    <tag k="name" v="Wolności"/>
    <tag k="ref" v="10"/>
    <tag k="source" v="UMP-PL, ./UMP-Szczecin/src/KALISZ_POMORSKI.ulice.txt"/>
  </way>
  <way id="23756842" version="1" timestamp="2008-04-13T16:44:32Z" uid="30632" user="antblant" changeset="131991">
    <nd ref="257395892"/>
    <nd ref="257396136"/>
    <nd ref="257396132"/>
    <nd ref="257396134"/>
    <tag k="created_by" v="JOSM"/>
    <tag k="highway" v="unclassified"/>
    <tag k="name" v="Aleja Sprzymierzonych"/>
    <tag k="source" v="UMP-PL, ./UMP-Szczecin/src/KALISZ_POMORSKI.ulice.txt"/>
    <tag k="surface" v="unpaved"/>
  </way>
  <way id="23756842" version="2" timestamp="2011-12-25T22:40:58Z" uid="467703" user="Zbigniew Czernik" changeset="10203345">
    <nd ref="257395892"/>
    <nd ref="257396136"/>
    <nd ref="257396132"/>
    <nd ref="257396134"/>
    <tag k="highway" v="track"/>
    <tag k="name" v="Aleja Sprzymierzonych"/>
    <tag k="source" v="UMP-PL, ./UMP-Szczecin/src/KALISZ_POMORSKI.ulice.txt"/>
    <tag k="surface" v="unpaved"/>
    <tag k="tracktype" v="grade1"/>
  </way>
  <way id="23756843" version="1" timestamp="2008-04-13T16:44:32Z" uid="30632" user="antblant" changeset="131991">
    <nd ref="257395766"/>
    <nd ref="257396071"/>
    <nd ref="257396068"/>
    <nd ref="257395978"/>
    <nd ref="257395992"/>
    <nd ref="257396080"/>
    <nd ref="257395753"/>
    <tag k="created_by" v="JOSM"/>
    <tag k="highway" v="primary"/>
    <tag k="name" v="Karola Świerczewskiego"/>
    <tag k="ref" v="10"/>
    <tag k="source" v="UMP-PL, ./UMP-Szczecin/src/KALISZ_POMORSKI.ulice.txt"/>
  </way>
  <way id="23756844" version="1" timestamp="2008-04-13T16:44:33Z" uid="30632" user="antblant" changeset="131991">
    <nd ref="257395842"/>
    <nd ref="257395888"/>
    <nd ref="257395891"/>
    <nd ref="257395890"/>
    <nd ref="257395885"/>
    <tag k="created_by" v="JOSM"/>
    <tag k="highway" v="residential"/>
    <tag k="name" v="Poprzeczna"/>
    <tag k="source" v="UMP-PL, ./UMP-Szczecin/src/KALISZ_POMORSKI.ulice.txt"/>
  </way>
  <way id="23756845" version="1" timestamp="2008-04-13T16:44:33Z" uid="30632" user="antblant" changeset="131991">
    <nd ref="257395913"/>
    <nd ref="257395988"/>
    <nd ref="257395989"/>
    <nd ref="257395990"/>
    <nd ref="257395974"/>
    <nd ref="257395975"/>
    <tag k="created_by" v="JOSM"/>
    <tag k="highway" v="residential"/>
    <tag k="name" v="Aleja Piastów"/>
    <tag k="source" v="UMP-PL, ./UMP-Szczecin/src/KALISZ_POMORSKI.ulice.txt"/>
  </way>
  <way id="23756846" version="1" timestamp="2008-04-13T16:44:34Z" uid="30632" user="antblant" changeset="131991">
    <nd ref="257395968"/>
    <nd ref="257396117"/>
    <nd ref="257396116"/>
    <nd ref="257396139"/>
    <nd ref="257396140"/>
    <nd ref="257396137"/>
    <nd ref="257396138"/>
    <nd ref="257396135"/>
    <nd ref="257395977"/>
    <tag k="created_by" v="JOSM"/>
    <tag k="highway" v="residential"/>
    <tag k="name" v="Tylna"/>
    <tag k="source" v="UMP-PL, ./UMP-Szczecin/src/KALISZ_POMORSKI.ulice.txt"/>
  </way>
  <way id="23756847" version="1" timestamp="2008-04-13T16:44:34Z" uid="30632" user="antblant" changeset="131991">
    <nd ref="257395753"/>
    <nd ref="257396076"/>
    <nd ref="257396033"/>
    <nd ref="257396056"/>
    <nd ref="257396051"/>
    <nd ref="257396064"/>
    <nd ref="257396060"/>
    <nd ref="257396036"/>
    <tag k="created_by" v="JOSM"/>
    <tag k="highway" v="primary"/>
    <tag k="name" v="Toruńska"/>
    <tag k="ref" v="10"/>
    <tag k="source" v="UMP-PL, ./UMP-Szczecin/src/KALISZ_POMORSKI.ulice.txt"/>
  </way>
  <way id="23756847" version="2" timestamp="2008-04-13T16:45:36Z" uid="30632" user="antblant" changeset="131991">
    <nd ref="257395753"/>
    <nd ref="257396076"/>
    <nd ref="257396033"/>
    <nd ref="257396056"/>
    <nd ref="257396051"/>
    <nd ref="257396064"/>
    <nd ref="257396060"/>
    <nd ref="254678638"/>
    <tag k="created_by" v="Potlatch 0.8a"/>
    <tag k="highway" v="primary"/>
    <tag k="name" v="Toruńska"/>
    <tag k="ref" v="10"/>
    <tag k="source" v="UMP-PL, ./UMP-Szczecin/src/KALISZ_POMORSKI.ulice.txt"/>
  </way>
  <way id="23756848" version="1" timestamp="2008-04-13T16:44:35Z" uid="30632" user="antblant" changeset="131991">
    <nd ref="257396035"/>
    <nd ref="257396056"/>
    <tag k="created_by" v="JOSM"/>
    <tag k="highway" v="residential"/>
    <tag k="name" v="Gdańska"/>
    <tag k="source" v="UMP-PL, ./UMP-Szczecin/src/KALISZ_POMORSKI.ulice.txt"/>
  </way>
  <way id="23756849" version="1" timestamp="2008-04-13T16:44:35Z" uid="30632" user="antblant" changeset="131991">
    <nd ref="257395960"/>
    <nd ref="257395979"/>
    <tag k="created_by" v="JOSM"/>
    <tag k="highway" v="residential"/>
    <tag k="name" v="Władysława Sikorskiego"/>
    <tag k="source" v="UMP-PL, ./UMP-Szczecin/src/KALISZ_POMORSKI.ulice.txt"/>
  </way>
  <way id="23756849" version="2" timestamp="2008-10-15T19:53:29Z" uid="53100" user="Jakub Klawiter" changeset="365918">
    <nd ref="257395960"/>
    <nd ref="257395979"/>
    <tag k="created_by" v="JOSM"/>
    <tag k="highway" v="residential"/>
    <tag k="name" v="Generała Władysława Sikorskiego"/>
    <tag k="source" v="UMP-PL, ./UMP-Szczecin/src/KALISZ_POMORSKI.ulice.txt"/>
  </way>
  <way id="23756850" version="1" timestamp="2008-04-13T16:44:36Z" uid="30632" user="antblant" changeset="131991">
    <nd ref="257395901"/>
    <nd ref="257395902"/>
    <nd ref="257395915"/>
    <nd ref="257395916"/>
    <nd ref="257395913"/>
    <nd ref="257395914"/>
    <nd ref="257395911"/>
    <nd ref="257395912"/>
    <nd ref="257395909"/>
    <nd ref="257395910"/>
    <tag k="created_by" v="JOSM"/>
    <tag k="highway" v="residential"/>
    <tag k="name" v="Bolesława Krzywoustego"/>
    <tag k="source" v="UMP-PL, ./UMP-Szczecin/src/KALISZ_POMORSKI.ulice.txt"/>
  </way>
  <way id="23756851" version="1" timestamp="2008-04-13T16:44:36Z" uid="30632" user="antblant" changeset="131991">
    <nd ref="257396038"/>
    <nd ref="257396037"/>
    <nd ref="257396076"/>
    <tag k="created_by" v="JOSM"/>
    <tag k="highway" v="residential"/>
    <tag k="name" v="Grunwaldzka"/>
    <tag k="source" v="UMP-PL, ./UMP-Szczecin/src/KALISZ_POMORSKI.ulice.txt"/>
  </way>
  <way id="23756852" version="1" timestamp="2008-04-13T16:44:36Z" uid="30632" user="antblant" changeset="131991">
    <nd ref="257395982"/>
    <nd ref="257396006"/>
    <tag k="created_by" v="JOSM"/>
    <tag k="highway" v="residential"/>
    <tag k="name" v="Wczasowa"/>
    <tag k="source" v="UMP-PL, ./UMP-Szczecin/src/KALISZ_POMORSKI.ulice.txt"/>
  </way>
  <way id="23756853" version="1" timestamp="2008-04-13T16:44:37Z" uid="30632" user="antblant" changeset="131991">
    <nd ref="257395909"/>
    <nd ref="257395924"/>
    <nd ref="257395923"/>
    <nd ref="257395922"/>
    <nd ref="257395921"/>
    <nd ref="257395920"/>
    <nd ref="257395919"/>
    <nd ref="257395918"/>
    <nd ref="257395917"/>
    <nd ref="257395932"/>
    <nd ref="257395931"/>
    <nd ref="257395930"/>
    <nd ref="257395929"/>
    <nd ref="257395928"/>
    <nd ref="257395927"/>
    <nd ref="257395926"/>
    <nd ref="257395925"/>
    <nd ref="257395966"/>
    <nd ref="257395964"/>
    <tag k="created_by" v="JOSM"/>
    <tag k="highway" v="residential"/>
    <tag k="name" v="Strzelecka"/>
    <tag k="source" v="UMP-PL, ./UMP-Szczecin/src/KALISZ_POMORSKI.ulice.txt"/>
  </way>
  <way id="23756856" version="1" timestamp="2008-04-13T16:44:37Z" uid="30632" user="antblant" changeset="131991">
    <nd ref="257396112"/>
    <nd ref="257396113"/>
    <nd ref="257396037"/>
    <tag k="created_by" v="JOSM"/>
    <tag k="highway" v="residential"/>
    <tag k="name" v="Akacjowa"/>
    <tag k="source" v="UMP-PL, ./UMP-Szczecin/src/KALISZ_POMORSKI.ulice.txt"/>
  </way>
  <way id="23756857" version="1" timestamp="2008-04-13T16:44:38Z" uid="30632" user="antblant" changeset="131991">
    <nd ref="257395844"/>
    <nd ref="257395899"/>
    <nd ref="257395893"/>
    <nd ref="257395892"/>
    <nd ref="257395895"/>
    <nd ref="257395894"/>
    <nd ref="257395907"/>
    <tag k="created_by" v="JOSM"/>
    <tag k="highway" v="residential"/>
    <tag k="name" v="Janowicka"/>
    <tag k="source" v="UMP-PL, ./UMP-Szczecin/src/KALISZ_POMORSKI.ulice.txt"/>
  </way>
  <way id="23756858" version="1" timestamp="2008-04-13T16:44:38Z" uid="30632" user="antblant" changeset="131991">
    <nd ref="257396006"/>
    <nd ref="257396005"/>
    <tag k="created_by" v="JOSM"/>
    <tag k="highway" v="residential"/>
    <tag k="name" v="Piaskowa"/>
    <tag k="source" v="UMP-PL, ./UMP-Szczecin/src/KALISZ_POMORSKI.ulice.txt"/>
  </way>
  <way id="23756859" version="1" timestamp="2008-04-13T16:44:38Z" uid="30632" user="antblant" changeset="131991">
    <nd ref="257396064"/>
    <nd ref="257396114"/>
    <nd ref="257396115"/>
    <nd ref="257396108"/>
    <nd ref="257396109"/>
    <tag k="created_by" v="JOSM"/>
    <tag k="highway" v="residential"/>
    <tag k="name" v="Bydgoska"/>
    <tag k="source" v="UMP-PL, ./UMP-Szczecin/src/KALISZ_POMORSKI.ulice.txt"/>
  </way>
  <way id="23756860" version="1" timestamp="2008-04-13T16:44:39Z" uid="30632" user="antblant" changeset="131991">
    <nd ref="257395895"/>
    <nd ref="257395908"/>
    <nd ref="257395905"/>
    <nd ref="257395906"/>
    <nd ref="257395903"/>
    <nd ref="257395904"/>
    <tag k="created_by" v="JOSM"/>
    <tag k="highway" v="residential"/>
    <tag k="name" v="Lipinki"/>
    <tag k="source" v="UMP-PL, ./UMP-Szczecin/src/KALISZ_POMORSKI.ulice.txt"/>
  </way>
  <way id="23756861" version="1" timestamp="2008-04-13T16:44:39Z" uid="30632" user="antblant" changeset="131991">
    <nd ref="257396008"/>
    <nd ref="257396007"/>
    <tag k="created_by" v="JOSM"/>
    <tag k="highway" v="residential"/>
    <tag k="name" v="Jeziorna"/>
    <tag k="source" v="UMP-PL, ./UMP-Szczecin/src/KALISZ_POMORSKI.ulice.txt"/>
  </way>
  <way id="23756862" version="1" timestamp="2008-04-13T16:44:40Z" uid="30632" user="antblant" changeset="131991">
    <nd ref="257395933"/>
    <nd ref="257395970"/>
    <tag k="created_by" v="JOSM"/>
    <tag k="highway" v="residential"/>
    <tag k="source" v="UMP-PL, ./UMP-Szczecin/src/KALISZ_POMORSKI.ulice.txt"/>
  </way>
  <way id="23756863" version="1" timestamp="2008-04-13T16:44:40Z" uid="30632" user="antblant" changeset="131991">
    <nd ref="257395753"/>
    <nd ref="257395754"/>
    <nd ref="257395756"/>
    <nd ref="257395757"/>
    <nd ref="257395758"/>
    <nd ref="257395759"/>
    <nd ref="257395760"/>
    <nd ref="257395761"/>
    <nd ref="257395762"/>
    <nd ref="257395764"/>
    <tag k="created_by" v="JOSM"/>
    <tag k="highway" v="secondary"/>
    <tag k="name" v="Drawska"/>
    <tag k="ref" v="175"/>
    <tag k="source" v="UMP-PL, ./UMP-Szczecin/src/KALISZ_POMORSKI.ulice.txt"/>
  </way>
  <way id="23756863" version="2" timestamp="2008-04-13T16:45:41Z" uid="30632" user="antblant" changeset="131991">
    <nd ref="257395753"/>
    <nd ref="257395754"/>
    <nd ref="257395756"/>
    <nd ref="257395757"/>
    <nd ref="257395758"/>
    <nd ref="257395759"/>
    <nd ref="257395760"/>
    <nd ref="257395761"/>
    <nd ref="257395762"/>
    <nd ref="254718096"/>
    <tag k="created_by" v="Potlatch 0.8a"/>
    <tag k="highway" v="secondary"/>
    <tag k="name" v="Drawska"/>
    <tag k="ref" v="175"/>
    <tag k="source" v="UMP-PL, ./UMP-Szczecin/src/KALISZ_POMORSKI.ulice.txt"/>
  </way>
  <way id="23756864" version="1" timestamp="2008-04-13T16:44:40Z" uid="30632" user="antblant" changeset="131991">
    <nd ref="257395834"/>
    <nd ref="257395831"/>
    <nd ref="257395832"/>
    <tag k="created_by" v="JOSM"/>
    <tag k="highway" v="residential"/>
    <tag k="name" v="Tartaczna"/>
    <tag k="source" v="UMP-PL, ./UMP-Szczecin/src/KALISZ_POMORSKI.ulice.txt"/>
  </way>
  <way id="23756865" version="1" timestamp="2008-04-13T16:44:41Z" uid="30632" user="antblant" changeset="131991">
    <nd ref="257395979"/>
    <nd ref="257396012"/>
    <nd ref="257396008"/>
    <nd ref="257396005"/>
    <nd ref="257395980"/>
    <nd ref="257396011"/>
    <nd ref="257396010"/>
    <nd ref="257396009"/>
    <nd ref="257395994"/>
    <nd ref="257395993"/>
    <tag k="created_by" v="JOSM"/>
    <tag k="highway" v="residential"/>
    <tag k="name" v="Władysława Sikorskiego"/>
    <tag k="source" v="UMP-PL, ./UMP-Szczecin/src/KALISZ_POMORSKI.ulice.txt"/>
  </way>
  <way id="23756865" version="2" timestamp="2008-10-15T19:53:42Z" uid="53100" user="Jakub Klawiter" changeset="365918">
    <nd ref="257395979"/>
    <nd ref="257396012"/>
    <nd ref="257396008"/>
    <nd ref="257396005"/>
    <nd ref="257395980"/>
    <nd ref="257396011"/>
    <nd ref="257396010"/>
    <nd ref="257396009"/>
    <nd ref="257395994"/>
    <nd ref="257395993"/>
    <tag k="created_by" v="JOSM"/>
    <tag k="highway" v="residential"/>
    <tag k="name" v="Generała Władysława Sikorskiego"/>
    <tag k="source" v="UMP-PL, ./UMP-Szczecin/src/KALISZ_POMORSKI.ulice.txt"/>
  </way>
  <way id="23756866" version="1" timestamp="2008-04-13T16:44:41Z" uid="30632" user="antblant" changeset="131991">
    <nd ref="257396105"/>
    <nd ref="257396106"/>
    <nd ref="257396014"/>
    <tag k="created_by" v="JOSM"/>
    <tag k="highway" v="residential"/>
    <tag k="name" v="Wschodnia"/>
    <tag k="source" v="UMP-PL, ./UMP-Szczecin/src/KALISZ_POMORSKI.ulice.txt"/>
  </way>
  <way id="23756867" version="1" timestamp="2008-04-13T16:44:41Z" uid="30632" user="antblant" changeset="131991">
    <nd ref="257395912"/>
    <nd ref="257395972"/>
    <nd ref="257395940"/>
    <nd ref="257395933"/>
    <nd ref="257395959"/>
    <tag k="created_by" v="JOSM"/>
    <tag k="highway" v="residential"/>
    <tag k="name" v="Suchowska"/>
    <tag k="source" v="UMP-PL, ./UMP-Szczecin/src/KALISZ_POMORSKI.ulice.txt"/>
  </way>
  <way id="23756868" version="1" timestamp="2008-04-13T16:44:42Z" uid="30632" user="antblant" changeset="131991">
    <nd ref="257395766"/>
    <nd ref="257395769"/>
    <nd ref="257395772"/>
    <nd ref="257395774"/>
    <nd ref="257395777"/>
    <nd ref="257395757"/>
    <nd ref="257395780"/>
    <nd ref="257395794"/>
    <nd ref="257395793"/>
    <nd ref="257395796"/>
    <nd ref="257395795"/>
    <nd ref="257395798"/>
    <nd ref="257395797"/>
    <nd ref="257395801"/>
    <tag k="created_by" v="JOSM"/>
    <tag k="highway" v="tertiary"/>
    <tag k="name" v="Koszalińska"/>
    <tag k="source" v="UMP-PL, ./UMP-Szczecin/src/KALISZ_POMORSKI.ulice.txt"/>
  </way>
  <way id="23756868" version="2" timestamp="2009-05-05T16:58:13Z" uid="7000" user="ericandor" changeset="1088953">
    <nd ref="257395766"/>
    <nd ref="257395769"/>
    <nd ref="257395772"/>
    <nd ref="257395774"/>
    <nd ref="257395777"/>
    <nd ref="257395757"/>
    <nd ref="257395780"/>
    <nd ref="257395794"/>
    <nd ref="257395793"/>
    <nd ref="257395796"/>
    <nd ref="257395795"/>
    <nd ref="257395798"/>
    <nd ref="257395797"/>
    <nd ref="254718487"/>
    <tag k="created_by" v="JOSM"/>
    <tag k="highway" v="tertiary"/>
    <tag k="name" v="Koszalińska"/>
    <tag k="source" v="UMP-PL, ./UMP-Szczecin/src/KALISZ_POMORSKI.ulice.txt"/>
  </way>
  <way id="23756869" version="1" timestamp="2008-04-13T16:44:43Z" uid="30632" user="antblant" changeset="131991">
    <nd ref="257395832"/>
    <nd ref="257395826"/>
    <tag k="created_by" v="JOSM"/>
    <tag k="highway" v="secondary"/>
    <tag k="name" v="Wrocławska"/>
    <tag k="ref" v="175"/>
    <tag k="source" v="UMP-PL, ./UMP-Szczecin/src/KALISZ_POMORSKI.ulice.txt"/>
  </way>
  <way id="23756869" version="2" timestamp="2008-04-13T16:45:25Z" uid="30632" user="antblant" changeset="131991">
    <nd ref="257395832"/>
    <nd ref="257395826"/>
    <tag k="created_by" v="Potlatch 0.8a"/>
    <tag k="highway" v="secondary"/>
    <tag k="name" v="Wrocławska"/>
    <tag k="ref" v="175"/>
    <tag k="source" v="UMP-PL, ./UMP-Szczecin/src/KALISZ_POMORSKI.ulice.txt"/>
  </way>
  <way id="23756870" version="1" timestamp="2008-04-13T16:44:43Z" uid="30632" user="antblant" changeset="131991">
    <nd ref="257395992"/>
    <nd ref="257395991"/>
    <nd ref="257396004"/>
    <nd ref="257395901"/>
    <tag k="created_by" v="JOSM"/>
    <tag k="highway" v="residential"/>
    <tag k="name" v="Rybaków"/>
    <tag k="source" v="UMP-PL, ./UMP-Szczecin/src/KALISZ_POMORSKI.ulice.txt"/>
  </way>
  <way id="23756871" version="1" timestamp="2008-04-13T16:44:44Z" uid="30632" user="antblant" changeset="131991">
    <nd ref="257396115"/>
    <nd ref="257396110"/>
    <nd ref="257396111"/>
    <nd ref="257396104"/>
    <tag k="created_by" v="JOSM"/>
    <tag k="highway" v="residential"/>
    <tag k="name" v="Wiśniowa"/>
    <tag k="source" v="UMP-PL, ./UMP-Szczecin/src/KALISZ_POMORSKI.ulice.txt"/>
  </way>
  <way id="23756872" version="1" timestamp="2008-04-13T16:44:44Z" uid="30632" user="antblant" changeset="131991">
    <nd ref="257395799"/>
    <nd ref="257395806"/>
    <tag k="created_by" v="JOSM"/>
    <tag k="highway" v="residential"/>
    <tag k="name" v="Powiatowa"/>
    <tag k="source" v="UMP-PL, ./UMP-Szczecin/src/KALISZ_POMORSKI.ulice.txt"/>
  </way>
  <way id="23756873" version="1" timestamp="2008-04-13T16:44:44Z" uid="30632" user="antblant" changeset="131991">
    <nd ref="257395826"/>
    <nd ref="257395823"/>
    <nd ref="257395824"/>
    <nd ref="257395829"/>
    <nd ref="257395830"/>
    <nd ref="257395827"/>
    <nd ref="257395828"/>
    <tag k="created_by" v="JOSM"/>
    <tag k="highway" v="residential"/>
    <tag k="source" v="UMP-PL, ./UMP-Szczecin/src/KALISZ_POMORSKI.ulice.txt"/>
  </way>
  <way id="23756874" version="1" timestamp="2008-04-13T16:44:45Z" uid="30632" user="antblant" changeset="131991">
    <nd ref="257395914"/>
    <nd ref="257395970"/>
    <nd ref="257395973"/>
    <tag k="created_by" v="JOSM"/>
    <tag k="highway" v="residential"/>
    <tag k="name" v="Jana Kilińskiego"/>
    <tag k="source" v="UMP-PL, ./UMP-Szczecin/src/KALISZ_POMORSKI.ulice.txt"/>
  </way>
  <way id="23756875" version="1" timestamp="2008-04-13T16:44:45Z" uid="30632" user="antblant" changeset="131991">
    <nd ref="257396101"/>
    <nd ref="257396102"/>
    <nd ref="257396104"/>
    <nd ref="257396105"/>
    <nd ref="257396103"/>
    <nd ref="257396131"/>
    <tag k="created_by" v="JOSM"/>
    <tag k="highway" v="residential"/>
    <tag k="name" v="Półwiejska"/>
    <tag k="source" v="UMP-PL, ./UMP-Szczecin/src/KALISZ_POMORSKI.ulice.txt"/>
  </way>
  <way id="23756876" version="1" timestamp="2008-04-13T16:44:46Z" uid="30632" user="antblant" changeset="131991">
    <nd ref="257396012"/>
    <nd ref="257396002"/>
    <nd ref="257396001"/>
    <nd ref="257396000"/>
    <nd ref="257395987"/>
    <nd ref="257395962"/>
    <nd ref="257396029"/>
    <nd ref="257396030"/>
    <tag k="created_by" v="JOSM"/>
    <tag k="highway" v="residential"/>
    <tag k="name" v="Ogrodowa"/>
    <tag k="source" v="UMP-PL, ./UMP-Szczecin/src/KALISZ_POMORSKI.ulice.txt"/>
  </way>
  <way id="23756877" version="1" timestamp="2008-04-13T16:44:46Z" uid="30632" user="antblant" changeset="131991">
    <nd ref="257395803"/>
    <nd ref="257395811"/>
    <nd ref="257395808"/>
    <nd ref="257395817"/>
    <nd ref="257395812"/>
    <nd ref="257395822"/>
    <nd ref="257395821"/>
    <nd ref="257395825"/>
    <tag k="created_by" v="JOSM"/>
    <tag k="highway" v="residential"/>
    <tag k="name" v="Leśna"/>
    <tag k="source" v="UMP-PL, ./UMP-Szczecin/src/KALISZ_POMORSKI.ulice.txt"/>
  </way>
  <way id="23756878" version="1" timestamp="2008-04-13T16:44:46Z" uid="30632" user="antblant" changeset="131991">
    <nd ref="257395833"/>
    <nd ref="257395812"/>
    <tag k="created_by" v="JOSM"/>
    <tag k="highway" v="residential"/>
    <tag k="source" v="UMP-PL, ./UMP-Szczecin/src/KALISZ_POMORSKI.ulice.txt"/>
  </way>
  <way id="23756879" version="1" timestamp="2008-04-13T16:44:47Z" uid="30632" user="antblant" changeset="131991">
    <nd ref="257395869"/>
    <nd ref="257395964"/>
    <nd ref="257395968"/>
    <nd ref="257395967"/>
    <nd ref="257395971"/>
    <tag k="created_by" v="JOSM"/>
    <tag k="highway" v="residential"/>
    <tag k="name" v="Jasna"/>
    <tag k="source" v="UMP-PL, ./UMP-Szczecin/src/KALISZ_POMORSKI.ulice.txt"/>
  </way>
  <way id="23756880" version="1" timestamp="2008-04-13T16:44:47Z" uid="30632" user="antblant" changeset="131991">
    <nd ref="257396108"/>
    <nd ref="257396107"/>
    <nd ref="257396100"/>
    <tag k="created_by" v="JOSM"/>
    <tag k="highway" v="unclassified"/>
    <tag k="name" v="Jaśminowa"/>
    <tag k="source" v="UMP-PL, ./UMP-Szczecin/src/KALISZ_POMORSKI.ulice.txt"/>
    <tag k="surface" v="unpaved"/>
  </way>
  <way id="23756880" version="2" timestamp="2011-12-25T22:46:28Z" uid="467703" user="Zbigniew Czernik" changeset="10203345">
    <nd ref="257396108"/>
    <nd ref="257396107"/>
    <nd ref="257396100"/>
    <tag k="highway" v="track"/>
    <tag k="name" v="Jaśminowa"/>
    <tag k="source" v="UMP-PL, ./UMP-Szczecin/src/KALISZ_POMORSKI.ulice.txt"/>
    <tag k="surface" v="unpaved"/>
    <tag k="tracktype" v="grade1"/>
  </way>
  <way id="23756881" version="1" timestamp="2008-04-13T16:44:47Z" uid="30632" user="antblant" changeset="131991">
    <nd ref="257395984"/>
    <nd ref="257396027"/>
    <tag k="created_by" v="JOSM"/>
    <tag k="highway" v="residential"/>
    <tag k="name" v="Tadeusza Kościuszki"/>
    <tag k="source" v="UMP-PL, ./UMP-Szczecin/src/KALISZ_POMORSKI.ulice.txt"/>
  </way>
  <way id="23756882" version="1" timestamp="2008-04-13T16:44:48Z" uid="30632" user="antblant" changeset="131991">
    <nd ref="257395901"/>
    <nd ref="257396028"/>
    <nd ref="257396027"/>
    <nd ref="257396012"/>
    <tag k="created_by" v="JOSM"/>
    <tag k="highway" v="residential"/>
    <tag k="name" v="Rybaków"/>
    <tag k="source" v="UMP-PL, ./UMP-Szczecin/src/KALISZ_POMORSKI.ulice.txt"/>
  </way>
  <way id="23756883" version="1" timestamp="2008-04-13T16:44:48Z" uid="30632" user="antblant" changeset="131991">
    <nd ref="257396015"/>
    <nd ref="257396127"/>
    <nd ref="257396131"/>
    <nd ref="257396126"/>
    <tag k="created_by" v="JOSM"/>
    <tag k="highway" v="residential"/>
    <tag k="name" v="Bukowa"/>
    <tag k="source" v="UMP-PL, ./UMP-Szczecin/src/KALISZ_POMORSKI.ulice.txt"/>
  </way>
  <way id="23756884" version="1" timestamp="2008-04-13T16:44:48Z" uid="30632" user="antblant" changeset="131991">
    <nd ref="257395985"/>
    <nd ref="257395986"/>
    <nd ref="257395987"/>
    <tag k="created_by" v="JOSM"/>
    <tag k="highway" v="residential"/>
    <tag k="name" v="Pocztowa"/>
    <tag k="source" v="UMP-PL, ./UMP-Szczecin/src/KALISZ_POMORSKI.ulice.txt"/>
  </way>
  <way id="23756885" version="1" timestamp="2008-04-13T16:44:49Z" uid="30632" user="antblant" changeset="131991">
    <nd ref="257395803"/>
    <nd ref="257395848"/>
    <nd ref="257395847"/>
    <tag k="created_by" v="JOSM"/>
    <tag k="highway" v="residential"/>
    <tag k="name" v="Brzozowa"/>
    <tag k="source" v="UMP-PL, ./UMP-Szczecin/src/KALISZ_POMORSKI.ulice.txt"/>
  </way>
  <way id="23756886" version="1" timestamp="2008-04-13T16:44:50Z" uid="30632" user="antblant" changeset="131991">
    <nd ref="257396033"/>
    <nd ref="257396034"/>
    <nd ref="257396031"/>
    <nd ref="257396032"/>
    <nd ref="257396016"/>
    <nd ref="257396017"/>
    <nd ref="257396014"/>
    <nd ref="257395993"/>
    <nd ref="257396015"/>
    <nd ref="257396025"/>
    <tag k="created_by" v="JOSM"/>
    <tag k="highway" v="residential"/>
    <tag k="name" v="Adama Mickiewicza"/>
    <tag k="source" v="UMP-PL, ./UMP-Szczecin/src/KALISZ_POMORSKI.ulice.txt"/>
  </way>
  <way id="23756887" version="1" timestamp="2008-04-13T16:44:52Z" uid="30632" user="antblant" changeset="131991">
    <nd ref="257396131"/>
    <nd ref="257396130"/>
    <nd ref="257396129"/>
    <nd ref="257396128"/>
    <nd ref="257396025"/>
    <tag k="created_by" v="JOSM"/>
    <tag k="highway" v="unclassified"/>
    <tag k="name" v="Półwiejska"/>
    <tag k="source" v="UMP-PL, ./UMP-Szczecin/src/KALISZ_POMORSKI.ulice.txt"/>
    <tag k="surface" v="unpaved"/>
  </way>
  <way id="23756887" version="2" timestamp="2011-12-25T22:55:37Z" uid="467703" user="Zbigniew Czernik" changeset="10203345">
    <nd ref="257396131"/>
    <nd ref="257396130"/>
    <nd ref="257396129"/>
    <nd ref="257396128"/>
    <nd ref="257396025"/>
    <tag k="highway" v="track"/>
    <tag k="name" v="Półwiejska"/>
    <tag k="source" v="UMP-PL, ./UMP-Szczecin/src/KALISZ_POMORSKI.ulice.txt"/>
    <tag k="surface" v="unpaved"/>
    <tag k="tracktype" v="grade1"/>
  </way>
  <way id="23756888" version="1" timestamp="2008-04-13T16:44:53Z" uid="30632" user="antblant" changeset="131991">
    <nd ref="257395983"/>
    <nd ref="257395984"/>
    <tag k="created_by" v="JOSM"/>
    <tag k="highway" v="residential"/>
    <tag k="name" v="Tadeusza Kościuszki"/>
    <tag k="source" v="UMP-PL, ./UMP-Szczecin/src/KALISZ_POMORSKI.ulice.txt"/>
  </way>
  <way id="23756889" version="1" timestamp="2008-04-13T16:44:53Z" uid="30632" user="antblant" changeset="131991">
    <nd ref="257395841"/>
    <nd ref="257395854"/>
    <nd ref="257395853"/>
    <nd ref="257395852"/>
    <nd ref="257395851"/>
    <nd ref="257395864"/>
    <nd ref="257395866"/>
    <nd ref="257395867"/>
    <nd ref="257395828"/>
    <tag k="created_by" v="JOSM"/>
    <tag k="highway" v="residential"/>
    <tag k="name" v="Przemysłowa"/>
    <tag k="source" v="UMP-PL, ./UMP-Szczecin/src/KALISZ_POMORSKI.ulice.txt"/>
  </way>
  <way id="23756890" version="1" timestamp="2008-04-13T16:44:54Z" uid="30632" user="antblant" changeset="131991">
    <nd ref="257396111"/>
    <nd ref="257396124"/>
    <tag k="created_by" v="JOSM"/>
    <tag k="highway" v="unclassified"/>
    <tag k="name" v="Akacjowa"/>
    <tag k="source" v="UMP-PL, ./UMP-Szczecin/src/KALISZ_POMORSKI.ulice.txt"/>
    <tag k="surface" v="unpaved"/>
  </way>
  <way id="23756890" version="2" timestamp="2011-12-25T22:40:51Z" uid="467703" user="Zbigniew Czernik" changeset="10203345">
    <nd ref="257396111"/>
    <nd ref="257396124"/>
    <tag k="highway" v="track"/>
    <tag k="name" v="Akacjowa"/>
    <tag k="source" v="UMP-PL, ./UMP-Szczecin/src/KALISZ_POMORSKI.ulice.txt"/>
    <tag k="surface" v="unpaved"/>
    <tag k="tracktype" v="grade1"/>
  </way>
  <way id="23756891" version="1" timestamp="2008-04-13T16:44:54Z" uid="30632" user="antblant" changeset="131991">
    <nd ref="257395774"/>
    <nd ref="257395992"/>
    <tag k="created_by" v="JOSM"/>
    <tag k="highway" v="residential"/>
    <tag k="name" v="Kręta"/>
    <tag k="source" v="UMP-PL, ./UMP-Szczecin/src/KALISZ_POMORSKI.ulice.txt"/>
  </way>
  <way id="23756892" version="1" timestamp="2008-04-13T16:44:54Z" uid="30632" user="antblant" changeset="131991">
    <nd ref="257395826"/>
    <nd ref="257395806"/>
    <nd ref="257395833"/>
    <nd ref="257395803"/>
    <nd ref="257395837"/>
    <nd ref="257395838"/>
    <nd ref="257395835"/>
    <nd ref="257395836"/>
    <nd ref="257395842"/>
    <nd ref="257395841"/>
    <nd ref="257395840"/>
    <nd ref="257395839"/>
    <nd ref="257395846"/>
    <nd ref="257395845"/>
    <nd ref="257395844"/>
    <nd ref="257395843"/>
    <nd ref="257395850"/>
    <tag k="created_by" v="JOSM"/>
    <tag k="highway" v="secondary"/>
    <tag k="name" v="Dworcowa"/>
    <tag k="ref" v="175"/>
    <tag k="source" v="UMP-PL, ./UMP-Szczecin/src/KALISZ_POMORSKI.ulice.txt"/>
  </way>
  <way id="23756892" version="2" timestamp="2008-04-13T16:45:21Z" uid="30632" user="antblant" changeset="131991">
    <nd ref="257395826"/>
    <nd ref="257395806"/>
    <nd ref="257395833"/>
    <nd ref="257395803"/>
    <nd ref="257395837"/>
    <nd ref="257395838"/>
    <nd ref="257395835"/>
    <nd ref="257395836"/>
    <nd ref="257395842"/>
    <nd ref="257395841"/>
    <nd ref="257395840"/>
    <nd ref="257395839"/>
    <nd ref="257395846"/>
    <nd ref="257395845"/>
    <nd ref="257395844"/>
    <nd ref="257395843"/>
    <nd ref="257395850"/>
    <tag k="created_by" v="Potlatch 0.8a"/>
    <tag k="highway" v="secondary"/>
    <tag k="name" v="Dworcowa"/>
    <tag k="ref" v="175"/>
    <tag k="source" v="UMP-PL, ./UMP-Szczecin/src/KALISZ_POMORSKI.ulice.txt"/>
  </way>
  <way id="23756893" version="1" timestamp="2008-04-13T16:44:55Z" uid="30632" user="antblant" changeset="131991">
    <nd ref="257395963"/>
    <nd ref="257395962"/>
    <tag k="created_by" v="JOSM"/>
    <tag k="highway" v="residential"/>
    <tag k="source" v="UMP-PL, ./UMP-Szczecin/src/KALISZ_POMORSKI.ulice.txt"/>
  </way>
  <way id="23756894" version="1" timestamp="2008-04-13T16:44:55Z" uid="30632" user="antblant" changeset="131991">
    <nd ref="257396106"/>
    <nd ref="257396125"/>
    <tag k="created_by" v="JOSM"/>
    <tag k="highway" v="residential"/>
    <tag k="name" v="Polna"/>
    <tag k="source" v="UMP-PL, ./UMP-Szczecin/src/KALISZ_POMORSKI.ulice.txt"/>
  </way>
  <way id="23756896" version="1" timestamp="2008-04-13T16:44:56Z" uid="30632" user="antblant" changeset="131991">
    <nd ref="257395801"/>
    <nd ref="257396026"/>
    <tag k="created_by" v="JOSM"/>
    <tag k="highway" v="residential"/>
    <tag k="name" v="Koszalińska"/>
    <tag k="source" v="UMP-PL, ./UMP-Szczecin/src/KALISZ_POMORSKI.ulice.txt"/>
  </way>
  <way id="23756896" version="2" timestamp="2009-05-05T16:58:13Z" uid="7000" user="ericandor" changeset="1088953">
    <nd ref="254718487"/>
    <nd ref="257396026"/>
    <tag k="created_by" v="JOSM"/>
    <tag k="highway" v="residential"/>
    <tag k="name" v="Koszalińska"/>
    <tag k="source" v="UMP-PL, ./UMP-Szczecin/src/KALISZ_POMORSKI.ulice.txt"/>
  </way>
  <way id="23756897" version="1" timestamp="2008-04-13T16:44:56Z" uid="30632" user="antblant" changeset="131991">
    <nd ref="257395838"/>
    <nd ref="257395849"/>
    <tag k="created_by" v="JOSM"/>
    <tag k="highway" v="residential"/>
    <tag k="name" v="Wojska Polskiego"/>
    <tag k="source" v="UMP-PL, ./UMP-Szczecin/src/KALISZ_POMORSKI.ulice.txt"/>
  </way>
  <way id="23756898" version="1" timestamp="2008-04-13T16:44:57Z" uid="30632" user="antblant" changeset="131991">
    <nd ref="257395973"/>
    <nd ref="257395947"/>
    <nd ref="257395961"/>
    <nd ref="257395960"/>
    <tag k="created_by" v="JOSM"/>
    <tag k="highway" v="residential"/>
    <tag k="name" v="Władysława Sikorskiego"/>
    <tag k="source" v="UMP-PL, ./UMP-Szczecin/src/KALISZ_POMORSKI.ulice.txt"/>
  </way>
  <way id="23756898" version="2" timestamp="2008-10-15T19:53:55Z" uid="53100" user="Jakub Klawiter" changeset="365918">
    <nd ref="257395973"/>
    <nd ref="257395947"/>
    <nd ref="257395961"/>
    <nd ref="257395960"/>
    <tag k="created_by" v="JOSM"/>
    <tag k="highway" v="residential"/>
    <tag k="name" v="Generała Władysława Sikorskiego"/>
    <tag k="source" v="UMP-PL, ./UMP-Szczecin/src/KALISZ_POMORSKI.ulice.txt"/>
  </way>
  <way id="23756991" version="3" timestamp="2009-04-24T09:58:44Z" uid="114881" user="ratsonroP" changeset="925360">
    <nd ref="257396809"/>
    <nd ref="257396819"/>
    <tag k="created_by" v="Potlatch 0.8a"/>
    <tag k="highway" v="residential"/>
  </way>
  <way id="23756991" version="4" timestamp="2009-08-09T15:26:36Z" uid="35618" user="schorsch" changeset="2087031">
    <nd ref="257396809"/>
    <nd ref="459791154"/>
    <nd ref="257396819"/>
    <tag k="highway" v="residential"/>
    <tag k="name" v="Großschönauer Straße"/>
    <tag k="surface" v="cobblestone"/>
  </way>
  <way id="23756991" version="5" timestamp="2011-03-10T21:21:44Z" uid="30398" user="vaust" changeset="7518473">
    <nd ref="117119395"/>
    <nd ref="257396822"/>
    <nd ref="257396819"/>
    <tag k="highway" v="residential"/>
    <tag k="name" v="Großschönauer Straße"/>
    <tag k="surface" v="cobblestone"/>
  </way>
  <way id="23756992" version="3" timestamp="2009-04-21T12:13:18Z" uid="114881" user="ratsonroP" changeset="879485">
    <nd ref="257396820"/>
    <nd ref="257396821"/>
    <tag k="created_by" v="Potlatch 0.8a"/>
    <tag k="highway" v="residential"/>
  </way>
  <way id="23756992" version="4" timestamp="2009-04-24T09:58:44Z" uid="114881" user="ratsonroP" changeset="925360"/>
  <way id="23756997" version="4" timestamp="2009-09-22T06:00:52Z" uid="114881" user="ratsonroP" changeset="2565370">
    <nd ref="257396850"/>
    <nd ref="257396854"/>
    <nd ref="255096588"/>
    <nd ref="386247478"/>
    <nd ref="410255381"/>
    <nd ref="386247479"/>
    <nd ref="504910328"/>
    <nd ref="386247480"/>
    <nd ref="386247481"/>
    <nd ref="386247482"/>
    <nd ref="386247483"/>
    <nd ref="386247484"/>
    <nd ref="386247485"/>
    <nd ref="386247486"/>
    <nd ref="257396874"/>
    <tag k="highway" v="track"/>
    <tag k="tracktype" v="grade3"/>
  </way>
  <way id="23756997" version="5" timestamp="2011-03-10T21:21:43Z" uid="30398" user="vaust" changeset="7518473">
    <nd ref="257396850"/>
    <nd ref="257396854"/>
    <nd ref="255096588"/>
    <nd ref="386247478"/>
    <nd ref="410255381"/>
    <nd ref="386247479"/>
    <nd ref="117119394"/>
    <nd ref="386247480"/>
    <nd ref="386247481"/>
    <nd ref="386247482"/>
    <nd ref="386247483"/>
    <nd ref="386247484"/>
    <nd ref="386247485"/>
    <nd ref="386247486"/>
    <nd ref="257396874"/>
    <tag k="highway" v="track"/>
    <tag k="tracktype" v="grade3"/>
  </way>
  <way id="23756997" version="6" timestamp="2011-04-25T21:09:32Z" uid="31185" user="es_ka" changeset="7968986">
    <nd ref="257396850"/>
    <nd ref="257396854"/>
    <nd ref="255096588"/>
    <tag k="highway" v="path"/>
    <tag k="sac_scale" v="hiking"/>
  </way>
</osm>
