<?xml version='1.0' encoding='UTF-8'?>
<osm version="0.6" generator="libosmium/2.20.0">
  <way id="23865876" version="2" timestamp="2009-06-25T03:58:34Z" uid="74617" user="JohnSmith" changeset="1618025">
    <nd ref="258661039"/>
    <nd ref="258661047"/>
    <nd ref="258661049"/>
    <nd ref="258661050"/>
    <nd ref="258661053"/>
    <nd ref="258661056"/>
    <nd ref="258661057"/>
    <nd ref="258661063"/>
    <nd ref="258661067"/>
    <nd ref="258661065"/>
    <tag k="highway" v="tertiary"/>
    <tag k="name" v="Waldock Road"/>
    <tag k="source" v="survey"/>
  </way>
  <way id="23865876" version="3" timestamp="2009-06-28T08:33:50Z" uid="74617" user="JohnSmith" changeset="1659877">
    <nd ref="258661039"/>
    <nd ref="258661047"/>
    <nd ref="258661049"/>
    <nd ref="258661050"/>
    <nd ref="258661053"/>
    <nd ref="258661056"/>
    <nd ref="258661057"/>
    <nd ref="258661063"/>
    <nd ref="258661067"/>
    <nd ref="258661065"/>
    <nd ref="362014963"/>
    <tag k="highway" v="tertiary"/>
    <tag k="name" v="Waldock Road"/>
    <tag k="source" v="survey"/>
  </way>
  <way id="23865876" version="4" timestamp="2009-07-11T05:54:23Z" uid="74617" user="JohnSmith" changeset="1794218">
    <nd ref="258661039"/>
    <nd ref="258661047"/>
    <nd ref="258661049"/>
    <nd ref="258661050"/>
    <nd ref="258661053"/>
    <nd ref="439989934"/>
    <nd ref="258661056"/>
    <nd ref="258661057"/>
    <nd ref="258661063"/>
    <nd ref="258661067"/>
    <nd ref="258661065"/>
    <nd ref="362014963"/>
    <tag k="highway" v="tertiary"/>
    <tag k="name" v="Waldock Road"/>
    <tag k="source" v="survey"/>
  </way>
  <way id="23865877" version="2" timestamp="2009-06-25T03:58:33Z" uid="74617" user="JohnSmith" changeset="1618025">
    <nd ref="258661067"/>
    <nd ref="258661068"/>
    <nd ref="258661070"/>
    <nd ref="258661072"/>
    <nd ref="258661074"/>
    <nd ref="258661075"/>
    <nd ref="258661077"/>
    <nd ref="258661078"/>
    <nd ref="258661080"/>
    <tag k="highway" v="residential"/>
    <tag k="name" v="Heilbronn Road"/>
    <tag k="source" v="survey"/>
  </way>
  <way id="23865877" version="3" timestamp="2009-06-28T08:10:53Z" uid="74617" user="JohnSmith" changeset="1659707">
    <nd ref="258661067"/>
    <nd ref="258661068"/>
    <nd ref="258661070"/>
    <nd ref="258661072"/>
    <nd ref="430084056"/>
    <nd ref="258661074"/>
    <nd ref="258661075"/>
    <nd ref="258661077"/>
    <nd ref="258661078"/>
    <nd ref="258661080"/>
    <tag k="highway" v="residential"/>
    <tag k="name" v="Heilbronn Road"/>
    <tag k="source" v="survey"/>
  </way>
  <way id="23865877" version="4" timestamp="2009-07-23T04:25:00Z" uid="74617" user="JohnSmith" changeset="1911127">
    <nd ref="258661067"/>
    <nd ref="258661068"/>
    <nd ref="258661070"/>
    <nd ref="258661072"/>
    <nd ref="430084056"/>
    <nd ref="445991923"/>
    <tag k="highway" v="residential"/>
    <tag k="maxspeed" v="50"/>
    <tag k="name" v="Heilbronn Road"/>
    <tag k="source" v="survey"/>
    <tag k="surface" v="paved"/>
  </way>
  <way id="23865877" version="5" timestamp="2012-01-16T05:51:01Z" uid="147510" user="woodpeck_fixbot" changeset="10405560">
    <nd ref="258661067"/>
    <nd ref="258661068"/>
    <nd ref="258661070"/>
    <nd ref="258661072"/>
    <nd ref="430084056"/>
    <nd ref="445991923"/>
    <tag k="highway" v="residential"/>
    <tag k="name" v="Heilbronn Road"/>
    <tag k="source" v="survey"/>
  </way>
  <way id="23865878" version="2" timestamp="2009-06-25T03:38:52Z" uid="74617" user="JohnSmith" changeset="1617999">
    <nd ref="184426321"/>
    <nd ref="258661082"/>
    <nd ref="258661087"/>
    <nd ref="258661088"/>
    <nd ref="258661090"/>
    <nd ref="258661091"/>
    <nd ref="258661094"/>
    <nd ref="258661080"/>
    <nd ref="258661096"/>
    <tag k="highway" v="tertiary"/>
    <tag k="name" v="Mcintosh Creek Road"/>
    <tag k="source" v="survey"/>
  </way>
  <way id="23865878" version="3" timestamp="2009-06-28T08:10:53Z" uid="74617" user="JohnSmith" changeset="1659707">
    <nd ref="184426321"/>
    <nd ref="258661082"/>
    <nd ref="258661087"/>
    <nd ref="258661088"/>
    <nd ref="258661090"/>
    <nd ref="258661091"/>
    <nd ref="258661094"/>
    <nd ref="258661080"/>
    <nd ref="430084202"/>
    <nd ref="430084203"/>
    <nd ref="430084204"/>
    <nd ref="258661096"/>
    <nd ref="430084201"/>
    <nd ref="430084195"/>
    <nd ref="362014791"/>
    <tag k="highway" v="tertiary"/>
    <tag k="name" v="Mcintosh Creek Road"/>
    <tag k="source" v="survey"/>
  </way>
  <way id="23865878" version="4" timestamp="2009-07-10T08:12:39Z" uid="74617" user="JohnSmith" changeset="1786860">
    <nd ref="184426321"/>
    <nd ref="258661082"/>
    <nd ref="258661087"/>
    <nd ref="258661088"/>
    <nd ref="258661090"/>
    <nd ref="258661091"/>
    <nd ref="258661094"/>
    <nd ref="258661080"/>
    <nd ref="430084202"/>
    <nd ref="430084203"/>
    <nd ref="430084204"/>
    <nd ref="258661096"/>
    <nd ref="430084201"/>
    <nd ref="430084195"/>
    <nd ref="362014791"/>
    <tag k="highway" v="tertiary"/>
    <tag k="name" v="McIntosh Creek Road"/>
    <tag k="source" v="survey"/>
  </way>
  <way id="23865878" version="5" timestamp="2009-07-23T04:23:04Z" uid="74617" user="JohnSmith" changeset="1911118">
    <nd ref="184426321"/>
    <nd ref="258661082"/>
    <nd ref="445991875"/>
    <tag k="highway" v="tertiary"/>
    <tag k="maxspeed" v="60"/>
    <tag k="name" v="McIntosh Creek Road"/>
    <tag k="source" v="survey"/>
    <tag k="surface" v="paved"/>
  </way>
  <way id="23865878" version="6" timestamp="2012-01-16T05:51:02Z" uid="147510" user="woodpeck_fixbot" changeset="10405560">
    <nd ref="184426321"/>
    <nd ref="258661082"/>
    <nd ref="445991875"/>
    <tag k="highway" v="tertiary"/>
    <tag k="name" v="McIntosh Creek Road"/>
    <tag k="source" v="survey"/>
  </way>
  <way id="23865997" version="4" timestamp="2009-10-03T13:35:22Z" uid="179968" user="Ich_hasse_doitsche_OSM-Korinthenkacker" changeset="2723894">
    <nd ref="258662168"/>
    <nd ref="258663984"/>
    <nd ref="258663986"/>
    <nd ref="278244896"/>
    <tag k="highway" v="living_street"/>
    <tag k="maxspeed" v="6"/>
    <tag k="name" v="Lehnsmorgen"/>
  </way>
  <way id="23865997" version="5" timestamp="2009-10-08T07:00:15Z" uid="31231" user="Andre68" changeset="2779032">
    <nd ref="258662168"/>
    <nd ref="258663984"/>
    <nd ref="258663986"/>
    <nd ref="278244896"/>
    <tag k="highway" v="living_street"/>
    <tag k="maxspeed" v="DE:living_street"/>
    <tag k="name" v="Lehnsmorgen"/>
  </way>
  <way id="23865997" version="6" timestamp="2009-10-08T07:05:57Z" uid="31231" user="Andre68" changeset="2779032">
    <nd ref="258662168"/>
    <nd ref="525288359"/>
    <nd ref="258663984"/>
    <nd ref="258663986"/>
    <nd ref="278244896"/>
    <tag k="highway" v="living_street"/>
    <tag k="maxspeed" v="DE:living_street"/>
    <tag k="name" v="Lehnsmorgen"/>
  </way>
  <way id="23865997" version="7" timestamp="2009-10-09T05:34:49Z" uid="31231" user="Andre68" changeset="2789896">
    <nd ref="258662168"/>
    <nd ref="525288359"/>
    <nd ref="258663984"/>
    <nd ref="258663986"/>
    <nd ref="278244896"/>
    <tag k="highway" v="living_street"/>
    <tag k="maxspeed" v="DE:living_street"/>
    <tag k="name" v="Lehnsmorgen"/>
    <tag k="postal_code" v="38173"/>
  </way>
  <way id="23865997" version="8" timestamp="2010-09-13T03:14:27Z" uid="104779" user="ABRob" changeset="5765845">
    <nd ref="258662168"/>
    <nd ref="525288359"/>
    <nd ref="258663984"/>
    <nd ref="258663986"/>
    <nd ref="278244896"/>
    <tag k="highway" v="living_street"/>
    <tag k="name" v="Lehnsmorgen"/>
    <tag k="postal_code" v="38173"/>
  </way>
  <way id="23865997" version="9" timestamp="2010-12-19T07:41:31Z" uid="31231" user="Andre68" changeset="6702744">
    <nd ref="258662168"/>
    <nd ref="525288359"/>
    <nd ref="258663984"/>
    <nd ref="258663986"/>
    <nd ref="1047378608"/>
    <nd ref="278244896"/>
    <tag k="highway" v="living_street"/>
    <tag k="name" v="Lehnsmorgen"/>
    <tag k="postal_code" v="38173"/>
  </way>
</osm>
