<?xml version='1.0' encoding='UTF-8'?>
<osm version="0.6" generator="libosmium/2.20.0">
  <way id="23941199" version="4" timestamp="2010-04-02T17:15:09Z" uid="20587" user="balrog-kun" changeset="4304500">
    <nd ref="259503023"/>
    <nd ref="259503033"/>
    <nd ref="259503021"/>
    <nd ref="259503036"/>
    <nd ref="259503019"/>
    <nd ref="259503395"/>
    <nd ref="110446366"/>
    <nd ref="259503398"/>
    <nd ref="110446368"/>
    <nd ref="259503400"/>
    <nd ref="259503402"/>
    <nd ref="110446369"/>
    <nd ref="259503404"/>
    <nd ref="110446370"/>
    <nd ref="259503414"/>
    <nd ref="110446372"/>
    <nd ref="259503412"/>
    <nd ref="110446374"/>
    <nd ref="110446376"/>
    <nd ref="110433134"/>
    <tag k="created_by" v="JOSM"/>
    <tag k="highway" v="residential"/>
    <tag k="name" v="Washington Boulevard Southwest"/>
    <tag k="tiger:cfcc" v="A41"/>
    <tag k="tiger:county" v="Pierce, WA"/>
    <tag k="tiger:name_base" v="Washington"/>
    <tag k="tiger:name_direction_suffix" v="SW"/>
    <tag k="tiger:separated" v="no"/>
    <tag k="tiger:source" v="tiger_import_dch_v0.6_20070830"/>
    <tag k="tiger:tlid" v="184695696:184695697:184687773"/>
    <tag k="tiger:zip_left" v="98439"/>
    <tag k="tiger:zip_left_1" v="98439"/>
    <tag k="tiger:zip_right" v="98439"/>
    <tag k="tiger:zip_right_1" v="98439"/>
  </way>
  <way id="23941200" version="5" timestamp="2010-04-02T17:15:10Z" uid="20587" user="balrog-kun" changeset="4304500">
    <nd ref="110486887"/>
    <nd ref="110486883"/>
    <nd ref="259516778"/>
    <nd ref="259516772"/>
    <nd ref="259516783"/>
    <nd ref="110486881"/>
    <nd ref="259516787"/>
    <nd ref="259516767"/>
    <nd ref="110486876"/>
    <nd ref="259516793"/>
    <nd ref="259516797"/>
    <nd ref="259516762"/>
    <nd ref="259516800"/>
    <nd ref="259516804"/>
    <nd ref="110486874"/>
    <nd ref="110486872"/>
    <nd ref="259516757"/>
    <nd ref="110486869"/>
    <nd ref="110486866"/>
    <nd ref="110486857"/>
    <nd ref="110486853"/>
    <nd ref="110486852"/>
    <nd ref="110486849"/>
    <nd ref="110486848"/>
    <nd ref="110486845"/>
    <nd ref="110486842"/>
    <nd ref="110486841"/>
    <nd ref="110486839"/>
    <nd ref="110486836"/>
    <nd ref="110486833"/>
    <nd ref="110486830"/>
    <nd ref="110471260"/>
    <nd ref="110486828"/>
    <nd ref="110433110"/>
    <nd ref="110486827"/>
    <nd ref="110486824"/>
    <nd ref="259503039"/>
    <nd ref="110486821"/>
    <nd ref="259503025"/>
    <nd ref="259503027"/>
    <nd ref="259503029"/>
    <nd ref="259503031"/>
    <nd ref="259503023"/>
    <tag k="created_by" v="JOSM"/>
    <tag k="highway" v="residential"/>
    <tag k="name" v="6th Street Southwest"/>
    <tag k="tiger:cfcc" v="A41"/>
    <tag k="tiger:county" v="Pierce, WA"/>
    <tag k="tiger:name_base" v="6th"/>
    <tag k="tiger:name_direction_suffix" v="SW"/>
    <tag k="tiger:separated" v="no"/>
    <tag k="tiger:source" v="tiger_import_dch_v0.6_20070830"/>
    <tag k="tiger:tlid" v="184708226:184708188:184715773:184708232:184708233:184695693:184695694:184687763:184687838:184712067"/>
  </way>
  <way id="23941283" version="6" timestamp="2010-10-30T00:18:39Z" uid="34428" user="usm78-gis" changeset="6223524">
    <nd ref="259504263"/>
    <nd ref="259504264"/>
    <nd ref="259504265"/>
    <nd ref="259504266"/>
    <nd ref="259504646"/>
    <nd ref="259504267"/>
    <nd ref="259504647"/>
    <nd ref="259504268"/>
    <nd ref="259504269"/>
    <nd ref="259504270"/>
    <nd ref="259504271"/>
    <nd ref="259504648"/>
    <nd ref="259504272"/>
    <nd ref="903440000"/>
    <nd ref="259504273"/>
    <nd ref="259504274"/>
    <nd ref="903440072"/>
    <nd ref="259504275"/>
    <nd ref="259504276"/>
    <nd ref="259504263"/>
    <tag k="name" v="озеро Комонь"/>
    <tag k="name:fi" v="Lautjärvi"/>
    <tag k="natural" v="water"/>
    <tag k="source" v="irs"/>
  </way>
  <way id="23941283" version="7" timestamp="2011-09-19T19:36:15Z" uid="219757" user="Алексей Александрович" changeset="9346066">
    <nd ref="259504263"/>
    <nd ref="259504264"/>
    <nd ref="259504265"/>
    <nd ref="259504266"/>
    <nd ref="259504646"/>
    <nd ref="259504267"/>
    <nd ref="259504647"/>
    <nd ref="259504268"/>
    <nd ref="259504269"/>
    <nd ref="259504270"/>
    <nd ref="259504271"/>
    <nd ref="259504648"/>
    <nd ref="259504272"/>
    <nd ref="903440000"/>
    <nd ref="259504273"/>
    <nd ref="259504274"/>
    <nd ref="903440072"/>
    <nd ref="259504275"/>
    <nd ref="259504276"/>
    <nd ref="259504263"/>
    <tag k="alt_name" v="Пистолет"/>
    <tag k="name" v="озеро Комонь"/>
    <tag k="name:fi" v="Lautjärvi"/>
    <tag k="natural" v="water"/>
    <tag k="source" v="irs"/>
  </way>
  <way id="23941302" version="16" timestamp="2011-01-26T23:22:54Z" uid="49111" user="Markus B" changeset="7099221">
    <nd ref="28961405"/>
    <nd ref="289887841"/>
    <nd ref="34647894"/>
    <nd ref="1069513741"/>
    <nd ref="170424924"/>
    <nd ref="986997727"/>
    <nd ref="329026204"/>
    <nd ref="28961408"/>
    <nd ref="658618475"/>
    <nd ref="28961409"/>
    <tag k="highway" v="primary"/>
    <tag k="maxspeed" v="50"/>
    <tag k="name" v="Alfred-Escher-Strasse"/>
    <tag k="ref" v="3"/>
  </way>
  <way id="23941302" version="17" timestamp="2011-06-11T19:42:20Z" uid="103273" user="HB9DTX" changeset="8409027">
    <nd ref="28961405"/>
    <nd ref="289887841"/>
    <nd ref="34647894"/>
    <nd ref="1069513741"/>
    <nd ref="170424924"/>
    <nd ref="986997727"/>
    <nd ref="329026204"/>
    <nd ref="28961408"/>
    <nd ref="658618475"/>
    <nd ref="28961409"/>
    <tag k="highway" v="primary"/>
    <tag k="lit" v="yes"/>
    <tag k="maxspeed" v="50"/>
    <tag k="name" v="Alfred-Escher-Strasse"/>
    <tag k="ref" v="3"/>
  </way>
  <way id="23941302" version="18" timestamp="2011-07-09T21:02:33Z" uid="3516" user="BiIbo" changeset="8677862">
    <nd ref="28961405"/>
    <nd ref="1355566173"/>
    <nd ref="289887841"/>
    <nd ref="34647894"/>
    <nd ref="1069513741"/>
    <nd ref="170424924"/>
    <nd ref="986997727"/>
    <nd ref="329026204"/>
    <nd ref="28961408"/>
    <nd ref="658618475"/>
    <nd ref="28961409"/>
    <tag k="highway" v="primary"/>
    <tag k="lit" v="yes"/>
    <tag k="maxspeed" v="50"/>
    <tag k="name" v="Alfred-Escher-Strasse"/>
    <tag k="ref" v="3"/>
  </way>
  <way id="23941352" version="21" timestamp="2009-03-03T22:01:26Z" uid="68769" user="david lynch" changeset="731543">
    <nd ref="282698462"/>
    <nd ref="263049183"/>
    <nd ref="259506168"/>
    <nd ref="261058891"/>
    <nd ref="259506169"/>
    <nd ref="259506170"/>
    <nd ref="259506172"/>
    <nd ref="259506173"/>
    <nd ref="259506174"/>
    <nd ref="259506175"/>
    <nd ref="259506176"/>
    <nd ref="259506177"/>
    <nd ref="259506179"/>
    <nd ref="259506180"/>
    <nd ref="259506181"/>
    <nd ref="259506182"/>
    <nd ref="259506183"/>
    <nd ref="259506184"/>
    <nd ref="259506185"/>
    <nd ref="259506186"/>
    <nd ref="259506187"/>
    <nd ref="259505454"/>
    <nd ref="259505455"/>
    <nd ref="259505456"/>
    <nd ref="259505457"/>
    <nd ref="259505458"/>
    <nd ref="259505459"/>
    <nd ref="259505460"/>
    <nd ref="259505461"/>
    <nd ref="259505462"/>
    <nd ref="259505463"/>
    <nd ref="259505464"/>
    <nd ref="262619081"/>
    <nd ref="258381605"/>
    <nd ref="262619029"/>
    <nd ref="262619030"/>
    <nd ref="262619031"/>
    <tag k="construction" v="motorway"/>
    <tag k="created_by" v="Potlatch 0.10f"/>
    <tag k="highway" v="construction"/>
    <tag k="history" v="Retrieved from v22"/>
    <tag k="name" v="M74 to Kingston bridge Due open 2011"/>
    <tag k="oneway" v="yes"/>
    <tag k="ref" v="M74"/>
  </way>
  <way id="23941352" version="22" timestamp="2009-03-06T11:40:24Z" uid="104395" user="byronie" changeset="747012">
    <nd ref="282698462"/>
    <nd ref="263049183"/>
    <nd ref="259506168"/>
    <nd ref="261058891"/>
    <nd ref="259506169"/>
    <nd ref="259506170"/>
    <nd ref="259506172"/>
    <nd ref="259506173"/>
    <nd ref="259506174"/>
    <nd ref="259506175"/>
    <nd ref="259506176"/>
    <nd ref="259506177"/>
    <nd ref="259506179"/>
    <nd ref="259506180"/>
    <nd ref="259506181"/>
    <nd ref="259506182"/>
    <nd ref="259506183"/>
    <nd ref="259506184"/>
    <nd ref="259506185"/>
    <nd ref="259506186"/>
    <nd ref="259506187"/>
    <nd ref="259505454"/>
    <nd ref="259505455"/>
    <nd ref="259505456"/>
    <nd ref="259505457"/>
    <nd ref="259505458"/>
    <nd ref="259505459"/>
    <nd ref="259505460"/>
    <nd ref="259505461"/>
    <nd ref="259505462"/>
    <nd ref="259505463"/>
    <nd ref="259505464"/>
    <nd ref="262619081"/>
    <nd ref="258381605"/>
    <nd ref="262619029"/>
    <nd ref="262619030"/>
    <nd ref="262619031"/>
    <tag k="construction" v="motorway"/>
    <tag k="created_by" v="Potlatch 0.10f"/>
    <tag k="highway" v="construction"/>
    <tag k="history" v="Retrieved from v22"/>
    <tag k="name" v="M74 to Kingston bridge Due open 2011"/>
    <tag k="oneway" v="yes"/>
    <tag k="ref" v="M74"/>
  </way>
  <way id="23941352" version="23" timestamp="2009-03-06T11:41:19Z" uid="104395" user="byronie" changeset="747012">
    <nd ref="282698462"/>
    <nd ref="263049183"/>
    <nd ref="259506168"/>
    <nd ref="261058891"/>
    <nd ref="259506169"/>
    <nd ref="259506170"/>
    <nd ref="259506172"/>
    <nd ref="259506173"/>
    <nd ref="259506174"/>
    <nd ref="259506175"/>
    <nd ref="259506176"/>
    <nd ref="259506177"/>
    <nd ref="259506179"/>
    <nd ref="259506180"/>
    <nd ref="259506181"/>
    <nd ref="259506182"/>
    <nd ref="259506183"/>
    <nd ref="259506184"/>
    <nd ref="259506185"/>
    <nd ref="259506186"/>
    <nd ref="259506187"/>
    <nd ref="259505454"/>
    <nd ref="259505455"/>
    <nd ref="259505456"/>
    <nd ref="259505457"/>
    <nd ref="259505458"/>
    <nd ref="259505459"/>
    <nd ref="259505460"/>
    <nd ref="259505461"/>
    <nd ref="259505462"/>
    <nd ref="259505463"/>
    <nd ref="259505464"/>
    <nd ref="262619081"/>
    <nd ref="258381605"/>
    <nd ref="262619029"/>
    <nd ref="262619030"/>
    <nd ref="262619031"/>
    <tag k="construction" v="motorway"/>
    <tag k="created_by" v="Potlatch 0.10f"/>
    <tag k="highway" v="construction"/>
    <tag k="history" v="Retrieved from v22"/>
    <tag k="name" v="M74 to Kingston bridge Due open 2011"/>
    <tag k="oneway" v="yes"/>
    <tag k="ref" v="M74"/>
  </way>
  <way id="23941352" version="24" timestamp="2009-10-19T13:17:41Z" uid="162138" user="jcpren" changeset="2894315">
    <nd ref="282698462"/>
    <nd ref="263049183"/>
    <nd ref="259506168"/>
    <nd ref="261058891"/>
    <nd ref="259506169"/>
    <nd ref="259506170"/>
    <nd ref="259506172"/>
    <nd ref="259506173"/>
    <nd ref="259506174"/>
    <nd ref="259506175"/>
    <nd ref="259506176"/>
    <nd ref="259506177"/>
    <nd ref="259506179"/>
    <nd ref="259506180"/>
    <nd ref="259506181"/>
    <nd ref="259506182"/>
    <nd ref="259506183"/>
    <nd ref="259506184"/>
    <nd ref="259506185"/>
    <nd ref="259506186"/>
    <nd ref="535286161"/>
    <tag k="construction" v="motorway"/>
    <tag k="highway" v="construction"/>
    <tag k="history" v="Retrieved from v22"/>
    <tag k="name" v="M74 to Kingston bridge Due open 2011"/>
    <tag k="oneway" v="yes"/>
    <tag k="ref" v="M74"/>
  </way>
  <way id="23941352" version="25" timestamp="2009-11-13T16:48:54Z" uid="91225" user="tms13" changeset="3107412">
    <nd ref="282698462"/>
    <nd ref="263049183"/>
    <nd ref="259506168"/>
    <nd ref="261058891"/>
    <nd ref="259506169"/>
    <nd ref="259506170"/>
    <nd ref="259506172"/>
    <nd ref="259506173"/>
    <nd ref="259506174"/>
    <nd ref="259506175"/>
    <nd ref="259506176"/>
    <nd ref="259506177"/>
    <nd ref="259506179"/>
    <nd ref="259506180"/>
    <nd ref="259506181"/>
    <nd ref="259506182"/>
    <nd ref="259506183"/>
    <nd ref="259506184"/>
    <nd ref="259506185"/>
    <nd ref="259506186"/>
    <nd ref="535286161"/>
    <tag k="construction" v="motorway"/>
    <tag k="highway" v="construction"/>
    <tag k="history" v="Retrieved from v22"/>
    <tag k="layer" v="1"/>
    <tag k="name" v="M74 to Kingston bridge Due open 2011"/>
    <tag k="oneway" v="yes"/>
    <tag k="ref" v="M74"/>
  </way>
  <way id="23941352" version="26" timestamp="2010-04-19T08:29:24Z" uid="17857" user="marscot" changeset="4465732">
    <nd ref="282698462"/>
    <nd ref="263049183"/>
    <nd ref="259506168"/>
    <nd ref="261058891"/>
    <nd ref="259506169"/>
    <nd ref="259506170"/>
    <nd ref="259506172"/>
    <nd ref="259506173"/>
    <nd ref="259506174"/>
    <nd ref="259506175"/>
    <nd ref="259506176"/>
    <nd ref="259506177"/>
    <tag k="construction" v="motorway"/>
    <tag k="highway" v="construction"/>
    <tag k="history" v="Retrieved from v22"/>
    <tag k="layer" v="1"/>
    <tag k="name" v="M74 to Kingston bridge Due open 2011"/>
    <tag k="oneway" v="yes"/>
    <tag k="ref" v="M74"/>
  </way>
  <way id="23941352" version="27" timestamp="2010-04-19T08:29:41Z" uid="17857" user="marscot" changeset="4465732">
    <nd ref="282698462"/>
    <nd ref="263049183"/>
    <nd ref="259506168"/>
    <nd ref="261058891"/>
    <nd ref="259506169"/>
    <nd ref="259506170"/>
    <nd ref="259506172"/>
    <nd ref="259506173"/>
    <nd ref="259506174"/>
    <nd ref="259506175"/>
    <nd ref="259506176"/>
    <nd ref="701738408"/>
    <nd ref="701738409"/>
    <nd ref="701738410"/>
    <nd ref="259506177"/>
    <tag k="construction" v="motorway"/>
    <tag k="highway" v="construction"/>
    <tag k="history" v="Retrieved from v22"/>
    <tag k="layer" v="1"/>
    <tag k="name" v="M74 to Kingston bridge Due open 2011"/>
    <tag k="oneway" v="yes"/>
    <tag k="ref" v="M74"/>
  </way>
  <way id="23941352" version="28" timestamp="2010-04-19T08:30:25Z" uid="17857" user="marscot" changeset="4465732">
    <nd ref="282698462"/>
    <nd ref="263049183"/>
    <nd ref="259506168"/>
    <nd ref="261058891"/>
    <nd ref="259506169"/>
    <nd ref="259506170"/>
    <nd ref="259506172"/>
    <nd ref="259506173"/>
    <nd ref="259506174"/>
    <nd ref="259506175"/>
    <nd ref="259506176"/>
    <nd ref="701738408"/>
    <nd ref="701738409"/>
    <nd ref="701738410"/>
    <tag k="construction" v="motorway"/>
    <tag k="highway" v="construction"/>
    <tag k="history" v="Retrieved from v22"/>
    <tag k="layer" v="1"/>
    <tag k="name" v="M74 to Kingston bridge Due open 2011"/>
    <tag k="oneway" v="yes"/>
    <tag k="ref" v="M74"/>
  </way>
  <way id="23941352" version="29" timestamp="2010-10-25T20:42:31Z" uid="17857" user="marscot" changeset="6177364">
    <nd ref="282698462"/>
    <nd ref="263049183"/>
    <nd ref="259506168"/>
    <nd ref="261058891"/>
    <nd ref="259506169"/>
    <nd ref="259506170"/>
    <nd ref="259506172"/>
    <nd ref="259506173"/>
    <nd ref="259506174"/>
    <nd ref="259506175"/>
    <nd ref="259506176"/>
    <nd ref="701738408"/>
    <nd ref="701738409"/>
    <nd ref="701738410"/>
    <tag k="construction" v="motorway"/>
    <tag k="highway" v="construction"/>
    <tag k="history" v="Retrieved from v22"/>
    <tag k="layer" v="1"/>
    <tag k="name" v="M74 to Kingston bridge opens June 2011"/>
    <tag k="oneway" v="yes"/>
    <tag k="ref" v="M74"/>
  </way>
  <way id="23941352" version="30" timestamp="2011-04-29T19:28:47Z" uid="17857" user="marscot" changeset="8006044">
    <nd ref="282698462"/>
    <nd ref="263049183"/>
    <nd ref="259506168"/>
    <tag k="construction" v="motorway"/>
    <tag k="highway" v="construction"/>
    <tag k="history" v="Retrieved from v22"/>
    <tag k="layer" v="1"/>
    <tag k="name" v="M74 to Kingston bridge opens June 2011"/>
    <tag k="oneway" v="yes"/>
    <tag k="ref" v="M74"/>
  </way>
  <way id="23941352" version="31" timestamp="2011-04-29T19:30:51Z" uid="17857" user="marscot" changeset="8006044"/>
  <way id="23941373" version="4" timestamp="2010-04-02T17:15:11Z" uid="20587" user="balrog-kun" changeset="4304500">
    <nd ref="110711083"/>
    <nd ref="259506401"/>
    <nd ref="259506396"/>
    <nd ref="259506391"/>
    <nd ref="259506400"/>
    <nd ref="259506390"/>
    <nd ref="110706513"/>
    <tag k="created_by" v="JOSM"/>
    <tag k="highway" v="residential"/>
    <tag k="name" v="8th Street Southwest"/>
    <tag k="tiger:cfcc" v="A41"/>
    <tag k="tiger:county" v="Pierce, WA"/>
    <tag k="tiger:name_base" v="8th"/>
    <tag k="tiger:name_direction_suffix" v="SW"/>
    <tag k="tiger:separated" v="no"/>
    <tag k="tiger:source" v="tiger_import_dch_v0.6_20070830"/>
    <tag k="tiger:tlid" v="184687841:184687847:184687848"/>
    <tag k="tiger:zip_left" v="98439"/>
    <tag k="tiger:zip_right" v="98439"/>
  </way>
  <way id="23941389" version="5" timestamp="2010-04-29T21:01:36Z" uid="9581" user="Lobelt" changeset="4561598">
    <nd ref="259505756"/>
    <nd ref="259505759"/>
    <nd ref="259505760"/>
    <nd ref="259505761"/>
    <tag k="foot" v="yes"/>
    <tag k="highway" v="cycleway"/>
  </way>
  <way id="23941435" version="5" timestamp="2008-07-03T23:34:50Z" uid="6975" user="ulfl" changeset="386611">
    <nd ref="259506095"/>
    <nd ref="259506195"/>
    <nd ref="259503482"/>
    <nd ref="259506196"/>
    <nd ref="259506405"/>
    <tag k="FIXME" v="?trace?"/>
    <tag k="highway" v="bridleway"/>
    <tag k="source" v="gps"/>
  </way>
  <way id="23941435" version="6" timestamp="2011-06-11T18:33:57Z" uid="222740" user="ndp55" changeset="8408485">
    <nd ref="259506095"/>
    <nd ref="259506195"/>
    <nd ref="1320542975"/>
    <nd ref="1320542993"/>
    <nd ref="259506196"/>
    <nd ref="259506405"/>
    <tag k="FIXME" v="?trace?"/>
    <tag k="highway" v="bridleway"/>
    <tag k="source" v="gps"/>
  </way>
  <way id="23941454" version="3" timestamp="2008-07-19T21:33:14Z" uid="33382" user="de_muur" changeset="542699">
    <nd ref="257745378"/>
    <nd ref="259506256"/>
    <nd ref="259506261"/>
    <nd ref="259506262"/>
    <nd ref="259506260"/>
    <nd ref="259506229"/>
    <nd ref="259506283"/>
    <nd ref="259506284"/>
    <nd ref="259506285"/>
    <nd ref="259506286"/>
    <tag k="created_by" v="mumpot"/>
    <tag k="highway" v="tertiary"/>
    <tag k="name" v="Am Freibad"/>
  </way>
  <way id="23941454" version="4" timestamp="2008-12-26T12:28:15Z" uid="31231" user="Andre68" changeset="610597">
    <nd ref="257745378"/>
    <nd ref="259506256"/>
    <nd ref="259506261"/>
    <nd ref="259506260"/>
    <nd ref="259506229"/>
    <nd ref="259506283"/>
    <nd ref="259506286"/>
    <tag k="created_by" v="mumpot"/>
    <tag k="highway" v="tertiary"/>
    <tag k="name" v="Am Freibad"/>
  </way>
  <way id="23941454" version="5" timestamp="2009-09-13T15:09:53Z" uid="33382" user="de_muur" changeset="2470949">
    <nd ref="257745378"/>
    <nd ref="259506256"/>
    <nd ref="259506261"/>
    <nd ref="259506260"/>
    <nd ref="259506229"/>
    <nd ref="495307469"/>
    <nd ref="259506283"/>
    <nd ref="259506286"/>
    <tag k="highway" v="tertiary"/>
    <tag k="name" v="Am Freibad"/>
    <tag k="surface" v="paved"/>
  </way>
  <way id="23941454" version="6" timestamp="2010-01-17T13:40:12Z" uid="33382" user="de_muur" changeset="3640992">
    <nd ref="257745378"/>
    <nd ref="259506256"/>
    <nd ref="259506261"/>
    <nd ref="259506260"/>
    <nd ref="259506229"/>
    <nd ref="495307469"/>
    <nd ref="259506283"/>
    <nd ref="259506286"/>
    <tag k="highway" v="tertiary"/>
    <tag k="maxspeed" v="50"/>
    <tag k="name" v="Am Freibad"/>
    <tag k="surface" v="paved"/>
  </way>
  <way id="23941454" version="7" timestamp="2011-02-08T17:45:01Z" uid="33382" user="de_muur" changeset="7228795">
    <nd ref="257745378"/>
    <nd ref="259506256"/>
    <nd ref="259506261"/>
    <nd ref="259506260"/>
    <nd ref="259506229"/>
    <nd ref="495307469"/>
    <nd ref="259506283"/>
    <nd ref="1142425337"/>
    <nd ref="259506286"/>
    <tag k="highway" v="tertiary"/>
    <tag k="maxspeed" v="50"/>
    <tag k="name" v="Am Freibad"/>
    <tag k="surface" v="paved"/>
  </way>
  <way id="23941454" version="8" timestamp="2011-03-26T20:24:37Z" uid="33382" user="de_muur" changeset="7679742">
    <nd ref="257745378"/>
    <nd ref="1219602772"/>
    <nd ref="259506256"/>
    <nd ref="259506261"/>
    <nd ref="259506260"/>
    <nd ref="1219602761"/>
    <nd ref="259506229"/>
    <nd ref="495307469"/>
    <nd ref="259506283"/>
    <nd ref="1142425337"/>
    <nd ref="259506286"/>
    <tag k="highway" v="tertiary"/>
    <tag k="maxspeed" v="50"/>
    <tag k="name" v="Am Freibad"/>
    <tag k="surface" v="paved"/>
  </way>
  <way id="23941454" version="9" timestamp="2011-10-24T07:51:28Z" uid="42429" user="FK270673" changeset="9640774">
    <nd ref="259506286"/>
    <nd ref="1142425337"/>
    <nd ref="259506283"/>
    <nd ref="495307469"/>
    <nd ref="259506229"/>
    <nd ref="1219602761"/>
    <nd ref="259506260"/>
    <nd ref="259506261"/>
    <nd ref="1478849525"/>
    <nd ref="1478849480"/>
    <tag k="highway" v="tertiary"/>
    <tag k="lcn" v="yes"/>
    <tag k="maxspeed" v="50"/>
    <tag k="name" v="Am Freibad"/>
    <tag k="surface" v="paved"/>
  </way>
  <way id="23941461" version="4" timestamp="2010-12-12T08:14:58Z" uid="33382" user="de_muur" changeset="6632992">
    <nd ref="1035064731"/>
    <nd ref="259506267"/>
    <nd ref="259506270"/>
    <nd ref="259506271"/>
    <tag k="highway" v="residential"/>
    <tag k="name" v="Cordstraße"/>
  </way>
  <way id="23941461" version="5" timestamp="2011-10-21T10:33:33Z" uid="42429" user="FK270673" changeset="9615143"/>
  <way id="23941570" version="2" timestamp="2008-07-08T19:54:00Z" uid="6975" user="ulfl" changeset="431192">
    <nd ref="259507145"/>
    <nd ref="259507146"/>
    <nd ref="259507147"/>
    <nd ref="259507148"/>
    <nd ref="259507149"/>
    <nd ref="259507150"/>
    <nd ref="259507151"/>
    <nd ref="259507152"/>
    <nd ref="259507154"/>
    <nd ref="259507155"/>
    <nd ref="259507156"/>
    <nd ref="259507145"/>
    <tag k="shop" v="shopping_centre"/>
  </way>
  <way id="23941570" version="3" timestamp="2008-08-26T13:22:08Z" uid="8235" user="chriscf" changeset="415780">
    <nd ref="259507145"/>
    <nd ref="259507146"/>
    <nd ref="259507147"/>
    <nd ref="259507148"/>
    <nd ref="259507149"/>
    <nd ref="259507150"/>
    <nd ref="259507151"/>
    <nd ref="291251734"/>
    <tag k="created_by" v="Potlatch 0.10b"/>
    <tag k="shop" v="shopping_centre"/>
  </way>
  <way id="23941570" version="4" timestamp="2008-08-26T13:23:20Z" uid="8235" user="chriscf" changeset="415780"/>
  <way id="23941599" version="2" timestamp="2010-03-27T23:37:27Z" uid="20587" user="balrog-kun" changeset="4250871">
    <nd ref="110413257"/>
    <nd ref="110413260"/>
    <nd ref="110413262"/>
    <tag k="created_by" v="Potlatch 0.8b"/>
    <tag k="highway" v="residential"/>
    <tag k="name" v="Bodsworth Road"/>
    <tag k="tiger:cfcc" v="A41"/>
    <tag k="tiger:county" v="Marin, CA"/>
    <tag k="tiger:name_base" v="Bodsworth"/>
    <tag k="tiger:name_type" v="Rd"/>
    <tag k="tiger:reviewed" v="no"/>
    <tag k="tiger:separated" v="no"/>
    <tag k="tiger:source" v="tiger_import_dch_v0.6_20070809"/>
    <tag k="tiger:tlid" v="192769703:192769694:192780668"/>
  </way>
  <way id="23941599" version="3" timestamp="2010-05-21T04:25:48Z" uid="239998" user="Sundance" changeset="4762774"/>
  <way id="23941605" version="3" timestamp="2010-04-02T17:15:11Z" uid="20587" user="balrog-kun" changeset="4304500">
    <nd ref="110887704"/>
    <nd ref="110887703"/>
    <nd ref="110731486"/>
    <tag k="created_by" v="JOSM"/>
    <tag k="highway" v="residential"/>
    <tag k="name" v="East Street"/>
    <tag k="tiger:cfcc" v="A41"/>
    <tag k="tiger:county" v="Pierce, WA"/>
    <tag k="tiger:name_base" v="E"/>
    <tag k="tiger:separated" v="no"/>
    <tag k="tiger:source" v="tiger_import_dch_v0.6_20070830"/>
    <tag k="tiger:tlid" v="184712114"/>
  </way>
  <way id="23941605" version="4" timestamp="2010-05-16T23:35:12Z" uid="20587" user="balrog-kun" changeset="4723755">
    <nd ref="110887704"/>
    <nd ref="110887703"/>
    <nd ref="110731486"/>
    <tag k="created_by" v="JOSM"/>
    <tag k="highway" v="residential"/>
    <tag k="name" v="E Street"/>
    <tag k="tiger:cfcc" v="A41"/>
    <tag k="tiger:county" v="Pierce, WA"/>
    <tag k="tiger:name_base" v="E"/>
    <tag k="tiger:separated" v="no"/>
    <tag k="tiger:source" v="tiger_import_dch_v0.6_20070830"/>
    <tag k="tiger:tlid" v="184712114"/>
  </way>
  <way id="23941715" version="1" timestamp="2008-04-23T19:51:10Z" uid="16922" user="amai" changeset="234784">
    <nd ref="256306324"/>
    <nd ref="259509029"/>
    <tag k="created_by" v="Potlatch 0.8b"/>
    <tag k="highway" v="track"/>
    <tag k="source" v="yahoo sat"/>
  </way>
  <way id="23941715" version="2" timestamp="2009-03-21T13:14:27Z" uid="11008" user="spacer1971" changeset="838956">
    <nd ref="267783510"/>
    <nd ref="259509029"/>
    <tag k="created_by" v="Potlatch 0.8b"/>
    <tag k="highway" v="track"/>
    <tag k="source" v="yahoo sat"/>
  </way>
  <way id="23941715" version="3" timestamp="2012-01-25T07:25:05Z" uid="157286" user="SGiersch" changeset="10490956"/>
  <way id="23941800" version="6" timestamp="2009-03-29T14:56:28Z" uid="33382" user="de_muur" changeset="867996">
    <nd ref="259510172"/>
    <nd ref="259510174"/>
    <nd ref="259510176"/>
    <nd ref="259510177"/>
    <nd ref="260035097"/>
    <nd ref="260035112"/>
    <nd ref="259510179"/>
    <nd ref="260035125"/>
    <nd ref="260035101"/>
    <nd ref="260035127"/>
    <nd ref="260035117"/>
    <nd ref="260035120"/>
    <nd ref="366931246"/>
    <nd ref="260035118"/>
    <nd ref="316963418"/>
    <nd ref="260035116"/>
    <tag k="created_by" v="Potlatch 0.10f"/>
    <tag k="highway" v="tertiary"/>
    <tag k="name" v="Bahnhofstraße"/>
    <tag k="ref" v="K 6"/>
  </way>
  <way id="23941800" version="7" timestamp="2010-03-21T18:34:39Z" uid="161619" user="FvGordon" changeset="4194862">
    <nd ref="259510172"/>
    <nd ref="259510174"/>
    <nd ref="259510176"/>
    <nd ref="259510177"/>
    <nd ref="260035097"/>
    <nd ref="260035112"/>
    <nd ref="259510179"/>
    <nd ref="260035125"/>
    <nd ref="260035101"/>
    <nd ref="260035127"/>
    <nd ref="260035117"/>
    <nd ref="260035120"/>
    <nd ref="366931246"/>
    <nd ref="260035118"/>
    <nd ref="260035116"/>
    <tag k="highway" v="tertiary"/>
    <tag k="name" v="Bahnhofstraße"/>
    <tag k="ref" v="K 6"/>
  </way>
  <way id="23941800" version="8" timestamp="2010-04-01T10:32:51Z" uid="33382" user="de_muur" changeset="4292848">
    <nd ref="259510172"/>
    <nd ref="259510174"/>
    <nd ref="259510176"/>
    <nd ref="259510177"/>
    <nd ref="260035097"/>
    <nd ref="260035112"/>
    <nd ref="259510179"/>
    <nd ref="260035125"/>
    <nd ref="260035101"/>
    <nd ref="260035127"/>
    <nd ref="260035117"/>
    <nd ref="260035120"/>
    <nd ref="366931246"/>
    <nd ref="260035118"/>
    <nd ref="679718863"/>
    <nd ref="679718860"/>
    <nd ref="260035116"/>
    <tag k="highway" v="tertiary"/>
    <tag k="name" v="Bahnhofstraße"/>
    <tag k="ref" v="K 6"/>
  </way>
  <way id="23941800" version="9" timestamp="2010-04-20T17:55:55Z" uid="241770" user="heiko2" changeset="4479690">
    <nd ref="259510172"/>
    <nd ref="259510174"/>
    <nd ref="259510176"/>
    <nd ref="259510177"/>
    <nd ref="260035097"/>
    <nd ref="260035112"/>
    <nd ref="259510179"/>
    <nd ref="260035125"/>
    <nd ref="260035101"/>
    <nd ref="260035127"/>
    <nd ref="260035117"/>
    <nd ref="260035120"/>
    <nd ref="366931246"/>
    <nd ref="702722562"/>
    <nd ref="260035118"/>
    <nd ref="679718863"/>
    <nd ref="679718860"/>
    <nd ref="260035116"/>
    <tag k="highway" v="tertiary"/>
    <tag k="name" v="Bahnhofstraße"/>
    <tag k="ref" v="K 6"/>
  </way>
  <way id="23941800" version="10" timestamp="2010-06-04T20:33:28Z" uid="33382" user="de_muur" changeset="4904270">
    <nd ref="259510172"/>
    <nd ref="259510174"/>
    <nd ref="259510176"/>
    <nd ref="259510177"/>
    <nd ref="260035097"/>
    <nd ref="260035112"/>
    <nd ref="764620191"/>
    <nd ref="259510179"/>
    <tag k="highway" v="tertiary"/>
    <tag k="maxspeed" v="50"/>
    <tag k="name" v="Bahnhofstraße"/>
    <tag k="ref" v="K 6"/>
    <tag k="surface" v="paved"/>
  </way>
  <way id="23941800" version="11" timestamp="2010-06-04T20:37:44Z" uid="33382" user="de_muur" changeset="4904310">
    <nd ref="259510172"/>
    <nd ref="764622134"/>
    <nd ref="259510174"/>
    <tag k="highway" v="tertiary"/>
    <tag k="maxspeed" v="50"/>
    <tag k="name" v="Bahnhofstraße"/>
    <tag k="ref" v="K 6"/>
    <tag k="surface" v="paved"/>
  </way>
  <way id="23941800" version="12" timestamp="2010-06-04T20:41:04Z" uid="33382" user="de_muur" changeset="4904344">
    <nd ref="259510172"/>
    <nd ref="764622134"/>
    <nd ref="259510174"/>
    <tag k="cycleway" v="track"/>
    <tag k="highway" v="tertiary"/>
    <tag k="maxspeed" v="50"/>
    <tag k="name" v="Bahnhofstraße"/>
    <tag k="ref" v="K 6"/>
    <tag k="surface" v="paved"/>
  </way>
  <way id="23941800" version="13" timestamp="2011-04-25T19:10:20Z" uid="57645" user="KartoGrapHiti" changeset="7967552">
    <nd ref="259510172"/>
    <nd ref="764622134"/>
    <tag k="cycleway" v="track"/>
    <tag k="highway" v="tertiary"/>
    <tag k="maxspeed" v="50"/>
    <tag k="name" v="Bahnhofstraße"/>
    <tag k="ref" v="K 6"/>
    <tag k="surface" v="paved"/>
  </way>
  <way id="23941800" version="14" timestamp="2012-03-18T09:58:36Z" uid="57645" user="KartoGrapHiti" changeset="11016637">
    <nd ref="259510172"/>
    <nd ref="764622134"/>
    <tag k="highway" v="tertiary"/>
    <tag k="maxspeed" v="50"/>
    <tag k="name" v="Bahnhofstraße"/>
    <tag k="ref" v="K 6"/>
    <tag k="surface" v="asphalt"/>
  </way>
</osm>
