<?xml version='1.0' encoding='UTF-8'?>
<osm version="0.6" generator="libosmium/2.20.0">
  <way id="23974014" version="2" timestamp="2010-07-09T02:50:02Z" uid="74617" user="JohnSmith" changeset="5170713">
    <nd ref="259963377"/>
    <nd ref="259963378"/>
    <tag k="highway" v="residential"/>
    <tag k="maxspeed" v="50"/>
    <tag k="maxspeed:source" v="default residential speed limit in Australia"/>
    <tag k="name" v="Clapham Avenue"/>
  </way>
  <way id="23974014" version="3" timestamp="2010-07-18T06:05:44Z" uid="4467" user="Rosscoe" changeset="5248095">
    <nd ref="822484379"/>
    <nd ref="259963377"/>
    <nd ref="259963378"/>
    <tag k="highway" v="residential"/>
    <tag k="maxspeed" v="50"/>
    <tag k="maxspeed:source" v="default residential speed limit in Australia"/>
    <tag k="name" v="Clapham Avenue"/>
  </way>
  <way id="23974014" version="4" timestamp="2012-01-16T06:52:43Z" uid="147510" user="woodpeck_fixbot" changeset="10405560">
    <nd ref="822484379"/>
    <nd ref="259963377"/>
    <nd ref="259963378"/>
    <tag k="highway" v="residential"/>
    <tag k="name" v="Clapham Avenue"/>
  </way>
  <way id="23974019" version="2" timestamp="2010-07-09T02:51:29Z" uid="74617" user="JohnSmith" changeset="5170713">
    <nd ref="259963379"/>
    <nd ref="259963380"/>
    <tag k="highway" v="residential"/>
    <tag k="maxspeed" v="50"/>
    <tag k="maxspeed:source" v="default residential speed limit in Australia"/>
    <tag k="name" v="Andrew Street"/>
  </way>
  <way id="23974019" version="3" timestamp="2010-07-18T06:04:31Z" uid="4467" user="Rosscoe" changeset="5248095">
    <nd ref="259963379"/>
    <nd ref="259963380"/>
    <nd ref="822484364"/>
    <tag k="highway" v="residential"/>
    <tag k="maxspeed" v="50"/>
    <tag k="maxspeed:source" v="default residential speed limit in Australia"/>
    <tag k="name" v="Andrew Street"/>
  </way>
  <way id="23974019" version="4" timestamp="2012-01-16T06:52:45Z" uid="147510" user="woodpeck_fixbot" changeset="10405560">
    <nd ref="259963379"/>
    <nd ref="259963380"/>
    <nd ref="822484364"/>
    <tag k="highway" v="residential"/>
    <tag k="name" v="Andrew Street"/>
  </way>
  <way id="23974038" version="2" timestamp="2010-07-09T02:51:48Z" uid="74617" user="JohnSmith" changeset="5170713">
    <nd ref="259963382"/>
    <nd ref="259963383"/>
    <nd ref="259963384"/>
    <tag k="highway" v="residential"/>
    <tag k="maxspeed" v="50"/>
    <tag k="maxspeed:source" v="default residential speed limit in Australia"/>
    <tag k="name" v="Armstrong Street"/>
  </way>
  <way id="23974038" version="3" timestamp="2012-01-16T06:52:46Z" uid="147510" user="woodpeck_fixbot" changeset="10405560">
    <nd ref="259963382"/>
    <nd ref="259963383"/>
    <nd ref="259963384"/>
    <tag k="highway" v="residential"/>
    <tag k="name" v="Armstrong Street"/>
  </way>
  <way id="23974094" version="3" timestamp="2010-07-09T02:43:56Z" uid="74617" user="JohnSmith" changeset="5170713">
    <nd ref="259963383"/>
    <nd ref="259963410"/>
    <tag k="highway" v="residential"/>
    <tag k="maxspeed" v="50"/>
    <tag k="maxspeed:source" v="default residential speed limit in Australia"/>
    <tag k="name" v="Stevens Street"/>
  </way>
  <way id="23974094" version="4" timestamp="2012-01-16T06:52:47Z" uid="147510" user="woodpeck_fixbot" changeset="10405560">
    <nd ref="259963383"/>
    <nd ref="259963410"/>
    <tag k="highway" v="residential"/>
    <tag k="name" v="Stevens Street"/>
  </way>
  <way id="23974118" version="2" timestamp="2010-07-09T02:43:01Z" uid="74617" user="JohnSmith" changeset="5170713">
    <nd ref="259963411"/>
    <nd ref="259962779"/>
    <nd ref="259963416"/>
    <tag k="highway" v="residential"/>
    <tag k="maxspeed" v="50"/>
    <tag k="maxspeed:source" v="default residential speed limit in Australia"/>
    <tag k="name" v="Guildford Avenue"/>
  </way>
  <way id="23974118" version="3" timestamp="2012-01-16T06:52:48Z" uid="147510" user="woodpeck_fixbot" changeset="10405560">
    <nd ref="259963411"/>
    <nd ref="259962779"/>
    <nd ref="259963416"/>
    <tag k="highway" v="residential"/>
    <tag k="name" v="Guildford Avenue"/>
  </way>
  <way id="23974144" version="5" timestamp="2010-07-09T02:50:14Z" uid="74617" user="JohnSmith" changeset="5170713">
    <nd ref="259963416"/>
    <nd ref="259963446"/>
    <nd ref="259963462"/>
    <nd ref="259963473"/>
    <nd ref="259963419"/>
    <tag k="highway" v="residential"/>
    <tag k="maxspeed" v="50"/>
    <tag k="maxspeed:source" v="default residential speed limit in Australia"/>
    <tag k="name" v="Hilton Avenue"/>
  </way>
  <way id="23974144" version="6" timestamp="2012-01-16T06:52:49Z" uid="147510" user="woodpeck_fixbot" changeset="10405560">
    <nd ref="259963416"/>
    <nd ref="259963446"/>
    <nd ref="259963462"/>
    <nd ref="259963473"/>
    <nd ref="259963419"/>
    <tag k="highway" v="residential"/>
    <tag k="name" v="Hilton Avenue"/>
  </way>
  <way id="23974167" version="5" timestamp="2010-07-09T02:50:36Z" uid="74617" user="JohnSmith" changeset="5170713">
    <nd ref="259963440"/>
    <nd ref="259963582"/>
    <nd ref="259963441"/>
    <nd ref="259963442"/>
    <nd ref="259963451"/>
    <nd ref="259963443"/>
    <nd ref="259963444"/>
    <nd ref="259963488"/>
    <nd ref="259963445"/>
    <tag k="highway" v="residential"/>
    <tag k="maxspeed" v="50"/>
    <tag k="maxspeed:source" v="default residential speed limit in Australia"/>
    <tag k="name" v="Emerald Drive"/>
  </way>
  <way id="23974167" version="6" timestamp="2012-01-16T06:52:50Z" uid="147510" user="woodpeck_fixbot" changeset="10405560">
    <nd ref="259963440"/>
    <nd ref="259963582"/>
    <nd ref="259963441"/>
    <nd ref="259963442"/>
    <nd ref="259963451"/>
    <nd ref="259963443"/>
    <nd ref="259963444"/>
    <nd ref="259963488"/>
    <nd ref="259963445"/>
    <tag k="highway" v="residential"/>
    <tag k="name" v="Emerald Drive"/>
  </way>
  <way id="23974181" version="3" timestamp="2010-07-09T02:41:52Z" uid="74617" user="JohnSmith" changeset="5170713">
    <nd ref="259963446"/>
    <nd ref="259963461"/>
    <nd ref="259963451"/>
    <tag k="highway" v="residential"/>
    <tag k="maxspeed" v="50"/>
    <tag k="maxspeed:source" v="default residential speed limit in Australia"/>
    <tag k="name" v="Upwey Avenue"/>
  </way>
  <way id="23974181" version="4" timestamp="2012-01-16T06:52:51Z" uid="147510" user="woodpeck_fixbot" changeset="10405560">
    <nd ref="259963446"/>
    <nd ref="259963461"/>
    <nd ref="259963451"/>
    <tag k="highway" v="residential"/>
    <tag k="name" v="Upwey Avenue"/>
  </way>
  <way id="23974215" version="2" timestamp="2010-07-09T02:51:30Z" uid="74617" user="JohnSmith" changeset="5170713">
    <nd ref="259963460"/>
    <nd ref="259963461"/>
    <tag k="highway" v="residential"/>
    <tag k="maxspeed" v="50"/>
    <tag k="maxspeed:source" v="default residential speed limit in Australia"/>
    <tag k="name" v="Como Court"/>
  </way>
  <way id="23974215" version="3" timestamp="2012-01-16T06:52:53Z" uid="147510" user="woodpeck_fixbot" changeset="10405560">
    <nd ref="259963460"/>
    <nd ref="259963461"/>
    <tag k="highway" v="residential"/>
    <tag k="name" v="Como Court"/>
  </way>
  <way id="23974232" version="2" timestamp="2010-07-09T02:52:28Z" uid="74617" user="JohnSmith" changeset="5170713">
    <nd ref="259963462"/>
    <nd ref="259963470"/>
    <nd ref="259963471"/>
    <nd ref="259963443"/>
    <tag k="highway" v="residential"/>
    <tag k="maxspeed" v="50"/>
    <tag k="maxspeed:source" v="default residential speed limit in Australia"/>
    <tag k="name" v="Silvan Avenue"/>
  </way>
  <way id="23974232" version="3" timestamp="2012-01-16T06:52:54Z" uid="147510" user="woodpeck_fixbot" changeset="10405560">
    <nd ref="259963462"/>
    <nd ref="259963470"/>
    <nd ref="259963471"/>
    <nd ref="259963443"/>
    <tag k="highway" v="residential"/>
    <tag k="name" v="Silvan Avenue"/>
  </way>
  <way id="23974257" version="2" timestamp="2010-07-09T02:41:46Z" uid="74617" user="JohnSmith" changeset="5170713">
    <nd ref="259963473"/>
    <nd ref="259963486"/>
    <nd ref="259963487"/>
    <nd ref="259963488"/>
    <tag k="highway" v="residential"/>
    <tag k="maxspeed" v="50"/>
    <tag k="maxspeed:source" v="default residential speed limit in Australia"/>
    <tag k="name" v="Olinda Avenue"/>
  </way>
  <way id="23974257" version="3" timestamp="2012-01-16T06:52:55Z" uid="147510" user="woodpeck_fixbot" changeset="10405560">
    <nd ref="259963473"/>
    <nd ref="259963486"/>
    <nd ref="259963487"/>
    <nd ref="259963488"/>
    <tag k="highway" v="residential"/>
    <tag k="name" v="Olinda Avenue"/>
  </way>
  <way id="23974258" version="4" timestamp="2010-02-23T09:25:26Z" uid="171838" user="argrath" changeset="3951543">
    <nd ref="57304941"/>
    <nd ref="57304945"/>
    <nd ref="57305034"/>
    <nd ref="57305031"/>
    <nd ref="57304933"/>
    <nd ref="57304938"/>
    <nd ref="259963506"/>
    <nd ref="259963505"/>
    <nd ref="259963381"/>
    <tag k="note" v="old_coastline"/>
    <tag k="source" v="PGS"/>
  </way>
  <way id="23974258" version="5" timestamp="2011-09-18T03:54:46Z" uid="146930" user="Tom_G3X" changeset="9329033"/>
  <way id="23974281" version="2" timestamp="2010-07-09T02:45:25Z" uid="74617" user="JohnSmith" changeset="5170713">
    <nd ref="259963501"/>
    <nd ref="259963502"/>
    <nd ref="259963503"/>
    <nd ref="259963504"/>
    <tag k="highway" v="residential"/>
    <tag k="maxspeed" v="50"/>
    <tag k="maxspeed:source" v="default residential speed limit in Australia"/>
    <tag k="name" v="Ethel Court"/>
  </way>
  <way id="23974281" version="3" timestamp="2012-01-16T06:52:57Z" uid="147510" user="woodpeck_fixbot" changeset="10405560">
    <nd ref="259963501"/>
    <nd ref="259963502"/>
    <nd ref="259963503"/>
    <nd ref="259963504"/>
    <tag k="highway" v="residential"/>
    <tag k="name" v="Ethel Court"/>
  </way>
  <way id="23974307" version="2" timestamp="2010-04-26T08:39:15Z" uid="4467" user="Rosscoe" changeset="4529525">
    <nd ref="259963444"/>
    <nd ref="707026195"/>
    <nd ref="259963507"/>
    <nd ref="259963508"/>
    <tag k="highway" v="residential"/>
    <tag k="name" v="Tricia Avenue"/>
  </way>
  <way id="23974307" version="3" timestamp="2010-07-09T02:51:56Z" uid="74617" user="JohnSmith" changeset="5170713">
    <nd ref="259963444"/>
    <nd ref="707026195"/>
    <nd ref="259963507"/>
    <nd ref="259963508"/>
    <tag k="highway" v="residential"/>
    <tag k="maxspeed" v="50"/>
    <tag k="maxspeed:source" v="default residential speed limit in Australia"/>
    <tag k="name" v="Tricia Avenue"/>
  </way>
  <way id="23974307" version="4" timestamp="2012-01-16T06:52:58Z" uid="147510" user="woodpeck_fixbot" changeset="10405560">
    <nd ref="259963444"/>
    <nd ref="707026195"/>
    <nd ref="259963507"/>
    <nd ref="259963508"/>
    <tag k="highway" v="residential"/>
    <tag k="name" v="Tricia Avenue"/>
  </way>
  <way id="23974359" version="2" timestamp="2010-04-26T08:39:38Z" uid="4467" user="Rosscoe" changeset="4529525">
    <nd ref="259963582"/>
    <nd ref="707026195"/>
    <tag k="highway" v="residential"/>
    <tag k="name" v="Kallista Road"/>
  </way>
  <way id="23974359" version="3" timestamp="2010-07-09T02:45:00Z" uid="74617" user="JohnSmith" changeset="5170713">
    <nd ref="259963582"/>
    <nd ref="707026195"/>
    <tag k="highway" v="residential"/>
    <tag k="maxspeed" v="50"/>
    <tag k="maxspeed:source" v="default residential speed limit in Australia"/>
    <tag k="name" v="Kallista Road"/>
  </way>
  <way id="23974359" version="4" timestamp="2012-01-16T06:52:59Z" uid="147510" user="woodpeck_fixbot" changeset="10405560">
    <nd ref="259963582"/>
    <nd ref="707026195"/>
    <tag k="highway" v="residential"/>
    <tag k="name" v="Kallista Road"/>
  </way>
  <way id="23974418" version="4" timestamp="2010-04-26T08:39:41Z" uid="4467" user="Rosscoe" changeset="4529525">
    <nd ref="259963589"/>
    <nd ref="707026297"/>
    <tag k="highway" v="residential"/>
    <tag k="name" v="Regent Avenue"/>
  </way>
  <way id="23974418" version="5" timestamp="2010-07-09T02:47:17Z" uid="74617" user="JohnSmith" changeset="5170713">
    <nd ref="259963589"/>
    <nd ref="707026297"/>
    <tag k="highway" v="residential"/>
    <tag k="maxspeed" v="50"/>
    <tag k="maxspeed:source" v="default residential speed limit in Australia"/>
    <tag k="name" v="Regent Avenue"/>
  </way>
  <way id="23974418" version="6" timestamp="2012-01-16T06:53:01Z" uid="147510" user="woodpeck_fixbot" changeset="10405560">
    <nd ref="259963589"/>
    <nd ref="707026297"/>
    <tag k="highway" v="residential"/>
    <tag k="name" v="Regent Avenue"/>
  </way>
  <way id="23974457" version="4" timestamp="2010-04-26T08:39:14Z" uid="4467" user="Rosscoe" changeset="4529525">
    <nd ref="259963600"/>
    <nd ref="259963915"/>
    <nd ref="707026465"/>
    <tag k="highway" v="residential"/>
    <tag k="name" v="Princess Avenue"/>
  </way>
  <way id="23974457" version="5" timestamp="2010-07-09T02:49:16Z" uid="74617" user="JohnSmith" changeset="5170713">
    <nd ref="259963600"/>
    <nd ref="259963915"/>
    <nd ref="707026465"/>
    <tag k="highway" v="residential"/>
    <tag k="maxspeed" v="50"/>
    <tag k="maxspeed:source" v="default residential speed limit in Australia"/>
    <tag k="name" v="Princess Avenue"/>
  </way>
  <way id="23974457" version="6" timestamp="2012-01-16T06:53:02Z" uid="147510" user="woodpeck_fixbot" changeset="10405560">
    <nd ref="259963600"/>
    <nd ref="259963915"/>
    <nd ref="707026465"/>
    <tag k="highway" v="residential"/>
    <tag k="name" v="Princess Avenue"/>
  </way>
  <way id="23974479" version="3" timestamp="2010-04-26T08:39:25Z" uid="4467" user="Rosscoe" changeset="4529525">
    <nd ref="259963607"/>
    <nd ref="259963618"/>
    <nd ref="259963619"/>
    <nd ref="707026337"/>
    <tag k="highway" v="residential"/>
    <tag k="name" v="Albert Avenue"/>
  </way>
  <way id="23974479" version="4" timestamp="2010-07-09T02:53:12Z" uid="74617" user="JohnSmith" changeset="5170713">
    <nd ref="259963607"/>
    <nd ref="259963618"/>
    <nd ref="259963619"/>
    <nd ref="707026337"/>
    <tag k="highway" v="residential"/>
    <tag k="maxspeed" v="50"/>
    <tag k="maxspeed:source" v="default residential speed limit in Australia"/>
    <tag k="name" v="Albert Avenue"/>
  </way>
  <way id="23974479" version="5" timestamp="2012-01-16T06:53:03Z" uid="147510" user="woodpeck_fixbot" changeset="10405560">
    <nd ref="259963607"/>
    <nd ref="259963618"/>
    <nd ref="259963619"/>
    <nd ref="707026337"/>
    <tag k="highway" v="residential"/>
    <tag k="name" v="Albert Avenue"/>
  </way>
  <way id="23974481" version="2" timestamp="2010-02-15T05:57:50Z" uid="74617" user="JohnSmith" changeset="3880328">
    <nd ref="259963625"/>
    <nd ref="259963626"/>
    <nd ref="259963405"/>
    <tag k="highway" v="residential"/>
    <tag k="maxspeed" v="50"/>
    <tag k="name" v="Pettigrew St"/>
  </way>
  <way id="23974481" version="3" timestamp="2010-06-02T04:50:39Z" uid="4467" user="Rosscoe" changeset="4880669">
    <nd ref="259963625"/>
    <nd ref="259963626"/>
    <nd ref="259963405"/>
    <tag k="highway" v="residential"/>
    <tag k="maxspeed" v="50"/>
    <tag k="name" v="Pettigrew Street"/>
  </way>
  <way id="23974481" version="4" timestamp="2012-01-16T06:53:04Z" uid="147510" user="woodpeck_fixbot" changeset="10405560">
    <nd ref="259963625"/>
    <nd ref="259963626"/>
    <nd ref="259963405"/>
    <tag k="highway" v="residential"/>
    <tag k="name" v="Pettigrew Street"/>
  </way>
  <way id="23974488" version="2" timestamp="2010-07-09T02:49:28Z" uid="74617" user="JohnSmith" changeset="5170713">
    <nd ref="259963627"/>
    <nd ref="259963628"/>
    <nd ref="259963629"/>
    <nd ref="259963630"/>
    <tag k="highway" v="residential"/>
    <tag k="maxspeed" v="50"/>
    <tag k="maxspeed:source" v="default residential speed limit in Australia"/>
    <tag k="name" v="Victoria Court"/>
  </way>
  <way id="23974488" version="3" timestamp="2012-01-16T06:53:05Z" uid="147510" user="woodpeck_fixbot" changeset="10405560">
    <nd ref="259963627"/>
    <nd ref="259963628"/>
    <nd ref="259963629"/>
    <nd ref="259963630"/>
    <tag k="highway" v="residential"/>
    <tag k="name" v="Victoria Court"/>
  </way>
  <way id="23974508" version="3" timestamp="2010-04-26T08:39:07Z" uid="4467" user="Rosscoe" changeset="4529525">
    <nd ref="259963627"/>
    <nd ref="707026219"/>
    <tag k="highway" v="residential"/>
    <tag k="name" v="Victoria Avenue"/>
  </way>
  <way id="23974508" version="4" timestamp="2010-07-09T02:45:36Z" uid="74617" user="JohnSmith" changeset="5170713">
    <nd ref="259963627"/>
    <nd ref="707026219"/>
    <tag k="highway" v="residential"/>
    <tag k="maxspeed" v="50"/>
    <tag k="maxspeed:source" v="default residential speed limit in Australia"/>
    <tag k="name" v="Victoria Avenue"/>
  </way>
  <way id="23974508" version="5" timestamp="2012-01-16T06:53:06Z" uid="147510" user="woodpeck_fixbot" changeset="10405560">
    <nd ref="259963627"/>
    <nd ref="707026219"/>
    <tag k="highway" v="residential"/>
    <tag k="name" v="Victoria Avenue"/>
  </way>
  <way id="23974523" version="2" timestamp="2010-07-09T02:49:39Z" uid="74617" user="JohnSmith" changeset="5170713">
    <nd ref="259963701"/>
    <nd ref="259963702"/>
    <tag k="highway" v="residential"/>
    <tag k="maxspeed" v="50"/>
    <tag k="maxspeed:source" v="default residential speed limit in Australia"/>
    <tag k="name" v="Alma Court"/>
  </way>
  <way id="23974523" version="3" timestamp="2012-01-16T06:53:07Z" uid="147510" user="woodpeck_fixbot" changeset="10405560">
    <nd ref="259963701"/>
    <nd ref="259963702"/>
    <tag k="highway" v="residential"/>
    <tag k="name" v="Alma Court"/>
  </way>
  <way id="23974566" version="4" timestamp="2010-07-09T02:44:50Z" uid="74617" user="JohnSmith" changeset="5170713">
    <nd ref="259963703"/>
    <nd ref="259963702"/>
    <nd ref="259963744"/>
    <nd ref="259963745"/>
    <nd ref="259963746"/>
    <nd ref="259963747"/>
    <nd ref="259963914"/>
    <nd ref="259963748"/>
    <nd ref="259963970"/>
    <nd ref="259963749"/>
    <nd ref="259960259"/>
    <tag k="highway" v="residential"/>
    <tag k="maxspeed" v="50"/>
    <tag k="maxspeed:source" v="default residential speed limit in Australia"/>
    <tag k="name" v="Royal Avenue"/>
  </way>
  <way id="23974566" version="5" timestamp="2012-01-16T06:53:08Z" uid="147510" user="woodpeck_fixbot" changeset="10405560">
    <nd ref="259963703"/>
    <nd ref="259963702"/>
    <nd ref="259963744"/>
    <nd ref="259963745"/>
    <nd ref="259963746"/>
    <nd ref="259963747"/>
    <nd ref="259963914"/>
    <nd ref="259963748"/>
    <nd ref="259963970"/>
    <nd ref="259963749"/>
    <nd ref="259960259"/>
    <tag k="highway" v="residential"/>
    <tag k="name" v="Royal Avenue"/>
  </way>
  <way id="23974586" version="6" timestamp="2010-04-26T08:39:31Z" uid="4467" user="Rosscoe" changeset="4529525">
    <nd ref="259963752"/>
    <nd ref="259963810"/>
    <nd ref="259963757"/>
    <nd ref="259963758"/>
    <nd ref="259963851"/>
    <tag k="highway" v="residential"/>
    <tag k="name" v="St John&apos;s Avenue"/>
  </way>
  <way id="23974586" version="7" timestamp="2010-07-09T02:43:03Z" uid="74617" user="JohnSmith" changeset="5170713">
    <nd ref="259963752"/>
    <nd ref="259963810"/>
    <nd ref="259963757"/>
    <nd ref="259963758"/>
    <nd ref="259963851"/>
    <tag k="highway" v="residential"/>
    <tag k="maxspeed" v="50"/>
    <tag k="maxspeed:source" v="default residential speed limit in Australia"/>
    <tag k="name" v="St John&apos;s Avenue"/>
  </way>
  <way id="23974586" version="8" timestamp="2012-01-16T06:53:10Z" uid="147510" user="woodpeck_fixbot" changeset="10405560">
    <nd ref="259963752"/>
    <nd ref="259963810"/>
    <nd ref="259963757"/>
    <nd ref="259963758"/>
    <nd ref="259963851"/>
    <tag k="highway" v="residential"/>
    <tag k="name" v="St John&apos;s Avenue"/>
  </way>
  <way id="23974622" version="4" timestamp="2010-07-09T02:43:51Z" uid="74617" user="JohnSmith" changeset="5170713">
    <nd ref="259963810"/>
    <nd ref="259963849"/>
    <nd ref="259963827"/>
    <nd ref="259963815"/>
    <tag k="highway" v="residential"/>
    <tag k="maxspeed" v="50"/>
    <tag k="maxspeed:source" v="default residential speed limit in Australia"/>
    <tag k="name" v="Boonah Street"/>
  </way>
  <way id="23974622" version="5" timestamp="2012-01-16T06:53:11Z" uid="147510" user="woodpeck_fixbot" changeset="10405560">
    <nd ref="259963810"/>
    <nd ref="259963849"/>
    <nd ref="259963827"/>
    <nd ref="259963815"/>
    <tag k="highway" v="residential"/>
    <tag k="name" v="Boonah Street"/>
  </way>
  <way id="23974634" version="2" timestamp="2010-07-09T02:43:44Z" uid="74617" user="JohnSmith" changeset="5170713">
    <nd ref="259963826"/>
    <nd ref="259963827"/>
    <tag k="highway" v="residential"/>
    <tag k="maxspeed" v="50"/>
    <tag k="maxspeed:source" v="default residential speed limit in Australia"/>
    <tag k="name" v="Luxford Court"/>
  </way>
  <way id="23974634" version="3" timestamp="2012-01-16T06:53:12Z" uid="147510" user="woodpeck_fixbot" changeset="10405560">
    <nd ref="259963826"/>
    <nd ref="259963827"/>
    <tag k="highway" v="residential"/>
    <tag k="name" v="Luxford Court"/>
  </way>
  <way id="23974646" version="2" timestamp="2010-04-26T08:39:34Z" uid="4467" user="Rosscoe" changeset="4529525">
    <nd ref="259963849"/>
    <nd ref="259963850"/>
    <nd ref="707026397"/>
    <nd ref="259963851"/>
    <tag k="highway" v="residential"/>
    <tag k="name" v="The Crescent"/>
  </way>
  <way id="23974646" version="3" timestamp="2010-07-09T02:42:58Z" uid="74617" user="JohnSmith" changeset="5170713">
    <nd ref="259963849"/>
    <nd ref="259963850"/>
    <nd ref="707026397"/>
    <nd ref="259963851"/>
    <tag k="highway" v="residential"/>
    <tag k="maxspeed" v="50"/>
    <tag k="maxspeed:source" v="default residential speed limit in Australia"/>
    <tag k="name" v="The Crescent"/>
  </way>
  <way id="23974646" version="4" timestamp="2010-08-28T01:46:56Z" uid="201443" user="stevage" changeset="5612652">
    <nd ref="259963849"/>
    <nd ref="883691266"/>
    <nd ref="259963850"/>
    <nd ref="707026397"/>
    <nd ref="259963851"/>
    <tag k="highway" v="residential"/>
    <tag k="maxspeed" v="50"/>
    <tag k="maxspeed:source" v="default residential speed limit in Australia"/>
    <tag k="name" v="The Crescent"/>
  </way>
  <way id="23974646" version="5" timestamp="2012-01-16T06:53:14Z" uid="147510" user="woodpeck_fixbot" changeset="10405560">
    <nd ref="259963849"/>
    <nd ref="883691266"/>
    <nd ref="259963850"/>
    <nd ref="707026397"/>
    <nd ref="259963851"/>
    <tag k="highway" v="residential"/>
    <tag k="name" v="The Crescent"/>
  </way>
  <way id="23974698" version="3" timestamp="2010-04-26T08:39:40Z" uid="4467" user="Rosscoe" changeset="4529525">
    <nd ref="259963878"/>
    <nd ref="259963879"/>
    <tag k="highway" v="residential"/>
    <tag k="name" v="Buckingham Avenue"/>
  </way>
  <way id="23974698" version="4" timestamp="2010-07-09T02:46:36Z" uid="74617" user="JohnSmith" changeset="5170713">
    <nd ref="259963878"/>
    <nd ref="259963879"/>
    <tag k="highway" v="residential"/>
    <tag k="maxspeed" v="50"/>
    <tag k="maxspeed:source" v="default residential speed limit in Australia"/>
    <tag k="name" v="Buckingham Avenue"/>
  </way>
  <way id="23974698" version="5" timestamp="2012-01-16T06:53:15Z" uid="147510" user="woodpeck_fixbot" changeset="10405560">
    <nd ref="259963878"/>
    <nd ref="259963879"/>
    <tag k="highway" v="residential"/>
    <tag k="name" v="Buckingham Avenue"/>
  </way>
  <way id="23974749" version="2" timestamp="2010-04-26T08:39:14Z" uid="4467" user="Rosscoe" changeset="4529525">
    <nd ref="707026291"/>
    <nd ref="259963903"/>
    <nd ref="259963879"/>
    <nd ref="707026420"/>
    <tag k="highway" v="residential"/>
    <tag k="name" v="St James Avenue"/>
  </way>
  <way id="23974749" version="3" timestamp="2010-07-09T02:47:47Z" uid="74617" user="JohnSmith" changeset="5170713">
    <nd ref="707026291"/>
    <nd ref="259963903"/>
    <nd ref="259963879"/>
    <nd ref="707026420"/>
    <tag k="highway" v="residential"/>
    <tag k="maxspeed" v="50"/>
    <tag k="maxspeed:source" v="default residential speed limit in Australia"/>
    <tag k="name" v="St James Avenue"/>
  </way>
  <way id="23974749" version="4" timestamp="2012-01-16T06:53:15Z" uid="147510" user="woodpeck_fixbot" changeset="10405560">
    <nd ref="707026291"/>
    <nd ref="259963903"/>
    <nd ref="259963879"/>
    <nd ref="707026420"/>
    <tag k="highway" v="residential"/>
    <tag k="name" v="St James Avenue"/>
  </way>
  <way id="23974794" version="2" timestamp="2010-02-15T06:01:26Z" uid="74617" user="JohnSmith" changeset="3880328">
    <nd ref="259963941"/>
    <nd ref="259963942"/>
    <nd ref="259963625"/>
    <tag k="highway" v="residential"/>
    <tag k="maxspeed" v="50"/>
    <tag k="name" v="O&apos;Hanlon St"/>
  </way>
  <way id="23974794" version="3" timestamp="2011-11-30T17:09:05Z" uid="338866" user="tiger" changeset="9998922">
    <nd ref="259963941"/>
    <nd ref="259963942"/>
    <nd ref="259963625"/>
    <tag k="highway" v="residential"/>
    <tag k="maxspeed" v="50"/>
    <tag k="name" v="O&apos;Hanlon Street"/>
  </way>
  <way id="23974794" version="4" timestamp="2012-01-16T06:53:17Z" uid="147510" user="woodpeck_fixbot" changeset="10405560">
    <nd ref="259963941"/>
    <nd ref="259963942"/>
    <nd ref="259963625"/>
    <tag k="highway" v="residential"/>
    <tag k="name" v="O&apos;Hanlon Street"/>
  </way>
  <way id="23974829" version="2" timestamp="2010-02-15T05:57:49Z" uid="74617" user="JohnSmith" changeset="3880328">
    <nd ref="259963958"/>
    <nd ref="259963959"/>
    <tag k="highway" v="residential"/>
    <tag k="maxspeed" v="50"/>
    <tag k="name" v="Pryde St"/>
  </way>
  <way id="23974829" version="3" timestamp="2010-06-02T04:51:38Z" uid="4467" user="Rosscoe" changeset="4880669">
    <nd ref="259963958"/>
    <nd ref="259963959"/>
    <tag k="highway" v="residential"/>
    <tag k="maxspeed" v="50"/>
    <tag k="name" v="Pryde Street"/>
  </way>
  <way id="23974829" version="4" timestamp="2012-01-16T06:53:18Z" uid="147510" user="woodpeck_fixbot" changeset="10405560">
    <nd ref="259963958"/>
    <nd ref="259963959"/>
    <tag k="highway" v="residential"/>
    <tag k="name" v="Pryde Street"/>
  </way>
  <way id="23974833" version="2" timestamp="2010-04-26T08:39:39Z" uid="4467" user="Rosscoe" changeset="4529525">
    <nd ref="259963595"/>
    <nd ref="259963968"/>
    <nd ref="707026335"/>
    <tag k="highway" v="residential"/>
    <tag k="name" v="Balmoral Avenue"/>
  </way>
  <way id="23974833" version="3" timestamp="2010-07-09T02:44:33Z" uid="74617" user="JohnSmith" changeset="5170713">
    <nd ref="259963595"/>
    <nd ref="259963968"/>
    <nd ref="707026335"/>
    <tag k="highway" v="residential"/>
    <tag k="maxspeed" v="50"/>
    <tag k="maxspeed:source" v="default residential speed limit in Australia"/>
    <tag k="name" v="Balmoral Avenue"/>
  </way>
  <way id="23974833" version="4" timestamp="2012-01-16T06:53:19Z" uid="147510" user="woodpeck_fixbot" changeset="10405560">
    <nd ref="259963595"/>
    <nd ref="259963968"/>
    <nd ref="707026335"/>
    <tag k="highway" v="residential"/>
    <tag k="name" v="Balmoral Avenue"/>
  </way>
  <way id="23974949" version="4" timestamp="2010-02-15T05:58:56Z" uid="74617" user="JohnSmith" changeset="3880328">
    <nd ref="259964087"/>
    <nd ref="259964088"/>
    <nd ref="506410954"/>
    <nd ref="259964090"/>
    <nd ref="259963959"/>
    <nd ref="259963626"/>
    <tag k="highway" v="residential"/>
    <tag k="maxspeed" v="50"/>
    <tag k="name" v="O&apos;Sullivan St"/>
  </way>
  <way id="23974949" version="5" timestamp="2010-05-26T14:09:33Z" uid="4467" user="Rosscoe" changeset="4813467">
    <nd ref="259964087"/>
    <nd ref="259964088"/>
    <nd ref="506410954"/>
    <nd ref="259964090"/>
    <nd ref="259963959"/>
    <nd ref="259963626"/>
    <tag k="highway" v="residential"/>
    <tag k="maxspeed" v="50"/>
    <tag k="name" v="O&apos;Sullivan Street"/>
  </way>
  <way id="23974949" version="6" timestamp="2012-01-16T06:53:20Z" uid="147510" user="woodpeck_fixbot" changeset="10405560">
    <nd ref="259964087"/>
    <nd ref="259964088"/>
    <nd ref="506410954"/>
    <nd ref="259964090"/>
    <nd ref="259963959"/>
    <nd ref="259963626"/>
    <tag k="highway" v="residential"/>
    <tag k="name" v="O&apos;Sullivan Street"/>
  </way>
  <way id="23974995" version="2" timestamp="2010-07-18T05:20:49Z" uid="4467" user="Rosscoe" changeset="5247951">
    <nd ref="259964136"/>
    <nd ref="259964137"/>
    <nd ref="259964138"/>
    <nd ref="822481006"/>
    <nd ref="259964136"/>
    <tag k="leisure" v="park"/>
    <tag k="name" v="Erickson Gardens"/>
  </way>
  <way id="23974995" version="3" timestamp="2010-07-18T06:07:04Z" uid="4467" user="Rosscoe" changeset="5248095">
    <nd ref="259964136"/>
    <nd ref="259964137"/>
    <nd ref="259964138"/>
    <nd ref="822484383"/>
    <nd ref="822484370"/>
    <nd ref="822481006"/>
    <nd ref="259964136"/>
    <tag k="leisure" v="park"/>
    <tag k="name" v="Erickson Gardens"/>
  </way>
</osm>
