<?xml version='1.0' encoding='UTF-8'?>
<osm version="0.6" generator="libosmium/2.20.0">
  <way id="23991038" version="5" timestamp="2010-07-06T08:50:46Z" uid="74617" user="JohnSmith" changeset="5147679">
    <nd ref="168620764"/>
    <nd ref="168623898"/>
    <nd ref="168623899"/>
    <nd ref="168623900"/>
    <tag k="highway" v="residential"/>
    <tag k="maxspeed" v="50"/>
    <tag k="maxspeed:source" v="default residential speed limit in Australia"/>
    <tag k="name" v="Lanstead Street"/>
  </way>
  <way id="23991038" version="6" timestamp="2012-01-16T06:58:58Z" uid="147510" user="woodpeck_fixbot" changeset="10405560">
    <nd ref="168620764"/>
    <nd ref="168623898"/>
    <nd ref="168623899"/>
    <nd ref="168623900"/>
    <tag k="highway" v="residential"/>
    <tag k="name" v="Lanstead Street"/>
  </way>
  <way id="23991084" version="3" timestamp="2010-02-15T06:57:34Z" uid="74617" user="JohnSmith" changeset="3880463">
    <nd ref="21479059"/>
    <nd ref="260115818"/>
    <nd ref="260115819"/>
    <nd ref="260115820"/>
    <nd ref="260115821"/>
    <nd ref="260115822"/>
    <nd ref="260115823"/>
    <nd ref="260115824"/>
    <nd ref="260115825"/>
    <nd ref="260115826"/>
    <nd ref="260115827"/>
    <nd ref="87845940"/>
    <tag k="highway" v="motorway"/>
    <tag k="oneway" v="yes"/>
  </way>
  <way id="23991084" version="4" timestamp="2010-03-21T14:55:36Z" uid="74617" user="JohnSmith" changeset="4191915">
    <nd ref="21479059"/>
    <nd ref="671449267"/>
    <nd ref="671449254"/>
    <nd ref="260115818"/>
    <nd ref="260115819"/>
    <nd ref="260115820"/>
    <nd ref="260115821"/>
    <nd ref="260115822"/>
    <nd ref="260115823"/>
    <nd ref="260115824"/>
    <nd ref="260115825"/>
    <nd ref="260115826"/>
    <nd ref="260115827"/>
    <nd ref="87845940"/>
    <tag k="highway" v="motorway"/>
    <tag k="oneway" v="yes"/>
  </way>
  <way id="23991084" version="5" timestamp="2012-02-04T01:08:46Z" uid="103574" user="Here is the repulsant snozzcumber!" changeset="10580684">
    <nd ref="1617220008"/>
    <nd ref="671449267"/>
    <nd ref="671449254"/>
    <nd ref="260115818"/>
    <nd ref="260115819"/>
    <nd ref="260115820"/>
    <nd ref="260115821"/>
    <nd ref="260115822"/>
    <nd ref="260115823"/>
    <nd ref="260115824"/>
    <nd ref="260115825"/>
    <nd ref="260115826"/>
    <nd ref="260115827"/>
    <nd ref="87845940"/>
    <tag k="highway" v="motorway"/>
    <tag k="oneway" v="yes"/>
  </way>
  <way id="23991084" version="6" timestamp="2012-02-04T01:12:52Z" uid="103574" user="Here is the repulsant snozzcumber!" changeset="10580684"/>
  <way id="23991096" version="2" timestamp="2010-07-06T08:36:04Z" uid="74617" user="JohnSmith" changeset="5147679">
    <nd ref="260116060"/>
    <nd ref="260116050"/>
    <tag k="highway" v="residential"/>
    <tag k="maxspeed" v="50"/>
    <tag k="maxspeed:source" v="default residential speed limit in Australia"/>
    <tag k="name" v="Lilly Street"/>
  </way>
  <way id="23991096" version="3" timestamp="2012-01-16T06:58:59Z" uid="147510" user="woodpeck_fixbot" changeset="10405560">
    <nd ref="260116060"/>
    <nd ref="260116050"/>
    <tag k="highway" v="residential"/>
    <tag k="name" v="Lilly Street"/>
  </way>
  <way id="23991098" version="8" timestamp="2010-07-06T08:30:43Z" uid="74617" user="JohnSmith" changeset="5147679">
    <nd ref="259755892"/>
    <nd ref="296859422"/>
    <nd ref="296859198"/>
    <nd ref="263263066"/>
    <nd ref="169714685"/>
    <nd ref="260116060"/>
    <nd ref="260116415"/>
    <tag k="highway" v="residential"/>
    <tag k="maxspeed" v="50"/>
    <tag k="maxspeed:source" v="default residential speed limit in Australia"/>
    <tag k="name" v="Jolimont Street"/>
  </way>
  <way id="23991098" version="9" timestamp="2012-01-16T06:59:01Z" uid="147510" user="woodpeck_fixbot" changeset="10405560">
    <nd ref="259755892"/>
    <nd ref="296859422"/>
    <nd ref="296859198"/>
    <nd ref="263263066"/>
    <nd ref="169714685"/>
    <nd ref="260116060"/>
    <nd ref="260116415"/>
    <tag k="highway" v="residential"/>
    <tag k="name" v="Jolimont Street"/>
  </way>
  <way id="23991114" version="38" timestamp="2010-03-27T23:37:51Z" uid="20587" user="balrog-kun" changeset="4250871">
    <nd ref="65352339"/>
    <nd ref="65351239"/>
    <nd ref="258758554"/>
    <nd ref="65374496"/>
    <nd ref="258758555"/>
    <nd ref="258758552"/>
    <nd ref="65342652"/>
    <nd ref="258758553"/>
    <nd ref="65323356"/>
    <nd ref="258758550"/>
    <nd ref="65369287"/>
    <nd ref="258758551"/>
    <nd ref="65353169"/>
    <nd ref="258758549"/>
    <nd ref="65361652"/>
    <nd ref="258758548"/>
    <nd ref="65335812"/>
    <nd ref="258758547"/>
    <nd ref="65369704"/>
    <nd ref="258758546"/>
    <nd ref="258758545"/>
    <nd ref="258758544"/>
    <nd ref="258758543"/>
    <nd ref="258758542"/>
    <nd ref="258758541"/>
    <nd ref="258758540"/>
    <nd ref="258758539"/>
    <nd ref="258758538"/>
    <nd ref="258758537"/>
    <nd ref="258758536"/>
    <nd ref="258758535"/>
    <nd ref="258758534"/>
    <nd ref="65374615"/>
    <nd ref="65343044"/>
    <tag k="highway" v="trunk"/>
    <tag k="name" v="Van Ness Avenue"/>
    <tag k="name_1" v="United States Highway 101"/>
    <tag k="oneway" v="yes"/>
    <tag k="ref" v="US 101"/>
    <tag k="tiger:cfcc" v="A25"/>
    <tag k="tiger:county" v="San Francisco, CA"/>
    <tag k="tiger:name_base" v="United States Highway 101"/>
    <tag k="tiger:name_base_1" v="Van Ness"/>
    <tag k="tiger:name_type_1" v="Ave"/>
    <tag k="tiger:separated" v="yes"/>
    <tag k="tiger:source" v="tiger_import_dch_v0.6_20070809"/>
    <tag k="tiger:tlid" v="192279891:192279896:192302012:192302014:192302009:192302007:192302005"/>
    <tag k="tiger:zip_left" v="94109"/>
  </way>
  <way id="23991114" version="39" timestamp="2010-10-24T17:37:24Z" uid="167948" user="LMB" changeset="6159633">
    <nd ref="65352339"/>
    <nd ref="65351239"/>
    <nd ref="258758554"/>
    <nd ref="65374496"/>
    <nd ref="258758555"/>
    <nd ref="258758552"/>
    <nd ref="65342652"/>
    <nd ref="258758553"/>
    <nd ref="65323356"/>
    <nd ref="258758550"/>
    <nd ref="65369287"/>
    <nd ref="258758551"/>
    <nd ref="65353169"/>
    <nd ref="258758549"/>
    <nd ref="65361652"/>
    <nd ref="258758548"/>
    <nd ref="65335812"/>
    <nd ref="258758547"/>
    <nd ref="65369704"/>
    <nd ref="258758546"/>
    <nd ref="258758545"/>
    <nd ref="258758544"/>
    <nd ref="258758543"/>
    <nd ref="258758542"/>
    <nd ref="258758541"/>
    <nd ref="258758540"/>
    <nd ref="258758539"/>
    <nd ref="258758538"/>
    <nd ref="258758537"/>
    <nd ref="258758536"/>
    <nd ref="258758535"/>
    <nd ref="258758534"/>
    <nd ref="65374615"/>
    <nd ref="65343044"/>
    <tag k="highway" v="primary"/>
    <tag k="name" v="Van Ness Avenue"/>
    <tag k="name_1" v="United States Highway 101"/>
    <tag k="oneway" v="yes"/>
    <tag k="ref" v="US 101"/>
    <tag k="tiger:cfcc" v="A25"/>
    <tag k="tiger:county" v="San Francisco, CA"/>
    <tag k="tiger:name_base" v="United States Highway 101"/>
    <tag k="tiger:name_base_1" v="Van Ness"/>
    <tag k="tiger:name_type_1" v="Ave"/>
    <tag k="tiger:separated" v="yes"/>
    <tag k="tiger:source" v="tiger_import_dch_v0.6_20070809"/>
    <tag k="tiger:tlid" v="192279891:192279896:192302012:192302014:192302009:192302007:192302005"/>
    <tag k="tiger:zip_left" v="94109"/>
  </way>
  <way id="23991114" version="40" timestamp="2010-11-18T12:34:39Z" uid="116029" user="Gregory Arenius" changeset="6399647">
    <nd ref="65352339"/>
    <nd ref="65351239"/>
    <nd ref="258758554"/>
    <nd ref="65374496"/>
    <nd ref="258758555"/>
    <nd ref="258758552"/>
    <nd ref="65342652"/>
    <nd ref="258758553"/>
    <nd ref="65323356"/>
    <nd ref="258758550"/>
    <nd ref="65369287"/>
    <nd ref="258758551"/>
    <nd ref="65353169"/>
    <nd ref="258758549"/>
    <nd ref="65361652"/>
    <nd ref="258758548"/>
    <nd ref="65335812"/>
    <nd ref="258758547"/>
    <nd ref="65369704"/>
    <nd ref="258758546"/>
    <nd ref="258758545"/>
    <nd ref="258758544"/>
    <nd ref="258758543"/>
    <nd ref="258758542"/>
    <nd ref="258758541"/>
    <nd ref="258758540"/>
    <nd ref="258758539"/>
    <tag k="highway" v="primary"/>
    <tag k="name" v="Van Ness Avenue"/>
    <tag k="name_1" v="United States Highway 101"/>
    <tag k="oneway" v="yes"/>
    <tag k="ref" v="US 101"/>
    <tag k="tiger:cfcc" v="A25"/>
    <tag k="tiger:county" v="San Francisco, CA"/>
    <tag k="tiger:name_base" v="United States Highway 101"/>
    <tag k="tiger:name_base_1" v="Van Ness"/>
    <tag k="tiger:name_type_1" v="Ave"/>
    <tag k="tiger:separated" v="yes"/>
    <tag k="tiger:source" v="tiger_import_dch_v0.6_20070809"/>
    <tag k="tiger:tlid" v="192279891:192279896:192302012:192302014:192302009:192302007:192302005"/>
    <tag k="tiger:zip_left" v="94109"/>
  </way>
  <way id="23991114" version="41" timestamp="2010-11-24T10:32:01Z" uid="116029" user="Gregory Arenius" changeset="6445727">
    <nd ref="65352339"/>
    <nd ref="65351239"/>
    <nd ref="258758554"/>
    <nd ref="65374496"/>
    <nd ref="258758555"/>
    <nd ref="258758552"/>
    <tag k="highway" v="primary"/>
    <tag k="name" v="Van Ness Avenue"/>
    <tag k="name_1" v="United States Highway 101"/>
    <tag k="oneway" v="yes"/>
    <tag k="ref" v="US 101"/>
    <tag k="tiger:cfcc" v="A25"/>
    <tag k="tiger:county" v="San Francisco, CA"/>
    <tag k="tiger:name_base" v="United States Highway 101"/>
    <tag k="tiger:name_base_1" v="Van Ness"/>
    <tag k="tiger:name_type_1" v="Ave"/>
    <tag k="tiger:separated" v="yes"/>
    <tag k="tiger:source" v="tiger_import_dch_v0.6_20070809"/>
    <tag k="tiger:tlid" v="192279891:192279896:192302012:192302014:192302009:192302007:192302005"/>
    <tag k="tiger:zip_left" v="94109"/>
  </way>
  <way id="23991114" version="42" timestamp="2011-04-13T22:05:03Z" uid="20587" user="balrog-kun" changeset="7856491">
    <nd ref="65352339"/>
    <nd ref="1243846505"/>
    <nd ref="65351239"/>
    <nd ref="1243846577"/>
    <nd ref="258758554"/>
    <nd ref="1243846482"/>
    <nd ref="65374496"/>
    <nd ref="1243846488"/>
    <nd ref="258758555"/>
    <nd ref="1243846541"/>
    <nd ref="258758552"/>
    <tag k="highway" v="primary"/>
    <tag k="name" v="Van Ness Avenue"/>
    <tag k="name_1" v="United States Highway 101"/>
    <tag k="oneway" v="yes"/>
    <tag k="ref" v="US 101"/>
    <tag k="tiger:cfcc" v="A25"/>
    <tag k="tiger:county" v="San Francisco, CA"/>
    <tag k="tiger:name_base" v="United States Highway 101"/>
    <tag k="tiger:name_base_1" v="Van Ness"/>
    <tag k="tiger:name_type_1" v="Ave"/>
    <tag k="tiger:separated" v="yes"/>
    <tag k="tiger:source" v="tiger_import_dch_v0.6_20070809"/>
    <tag k="tiger:tlid" v="192279891:192279896:192302012:192302014:192302009:192302007:192302005"/>
    <tag k="tiger:zip_left" v="94109"/>
  </way>
  <way id="23991114" version="43" timestamp="2011-06-15T12:37:49Z" uid="207745" user="NE2" changeset="8446347">
    <nd ref="65352339"/>
    <nd ref="1243846505"/>
    <nd ref="65351239"/>
    <nd ref="1243846577"/>
    <nd ref="258758554"/>
    <nd ref="1243846482"/>
    <nd ref="65374496"/>
    <nd ref="1243846488"/>
    <nd ref="258758555"/>
    <nd ref="1243846541"/>
    <nd ref="258758552"/>
    <tag k="highway" v="primary"/>
    <tag k="name" v="Van Ness Avenue"/>
    <tag k="oneway" v="yes"/>
    <tag k="ref" v="US 101"/>
    <tag k="tiger:cfcc" v="A25"/>
    <tag k="tiger:county" v="San Francisco, CA"/>
    <tag k="tiger:name_base" v="United States Highway 101"/>
    <tag k="tiger:name_base_1" v="Van Ness"/>
    <tag k="tiger:name_type_1" v="Ave"/>
    <tag k="tiger:separated" v="yes"/>
    <tag k="tiger:source" v="tiger_import_dch_v0.6_20070809"/>
    <tag k="tiger:tlid" v="192279891:192279896:192302012:192302014:192302009:192302007:192302005"/>
    <tag k="tiger:zip_left" v="94109"/>
  </way>
  <way id="23991114" version="44" timestamp="2011-06-26T20:52:55Z" uid="473471" user="NE3" changeset="8556352">
    <nd ref="65352339"/>
    <nd ref="1243846505"/>
    <nd ref="65351239"/>
    <nd ref="1243846577"/>
    <nd ref="258758554"/>
    <nd ref="1243846482"/>
    <nd ref="65374496"/>
    <nd ref="1243846488"/>
    <nd ref="258758555"/>
    <nd ref="1243846541"/>
    <nd ref="258758552"/>
    <tag k="highway" v="primary"/>
    <tag k="lanes" v="3"/>
    <tag k="name" v="Van Ness Avenue"/>
    <tag k="oneway" v="yes"/>
    <tag k="ref" v="US 101"/>
    <tag k="tiger:cfcc" v="A25"/>
    <tag k="tiger:county" v="San Francisco, CA"/>
    <tag k="tiger:name_base" v="United States Highway 101"/>
    <tag k="tiger:name_base_1" v="Van Ness"/>
    <tag k="tiger:name_type_1" v="Ave"/>
    <tag k="tiger:separated" v="yes"/>
    <tag k="tiger:source" v="tiger_import_dch_v0.6_20070809"/>
    <tag k="tiger:tlid" v="192279891:192279896:192302012:192302014:192302009:192302007:192302005"/>
    <tag k="tiger:zip_left" v="94109"/>
  </way>
  <way id="23991114" version="45" timestamp="2011-07-07T00:00:12Z" uid="473471" user="NE3" changeset="8653193">
    <nd ref="65352339"/>
    <nd ref="1243846505"/>
    <nd ref="65351239"/>
    <nd ref="1243846577"/>
    <nd ref="258758554"/>
    <nd ref="1243846482"/>
    <nd ref="65374496"/>
    <nd ref="1243846488"/>
    <nd ref="258758555"/>
    <nd ref="1243846541"/>
    <nd ref="258758552"/>
    <tag k="NHS" v="STRAHNET"/>
    <tag k="highway" v="primary"/>
    <tag k="lanes" v="3"/>
    <tag k="name" v="Van Ness Avenue"/>
    <tag k="oneway" v="yes"/>
    <tag k="ref" v="US 101"/>
    <tag k="tiger:cfcc" v="A25"/>
    <tag k="tiger:county" v="San Francisco, CA"/>
    <tag k="tiger:name_base" v="United States Highway 101"/>
    <tag k="tiger:name_base_1" v="Van Ness"/>
    <tag k="tiger:name_type_1" v="Ave"/>
    <tag k="tiger:separated" v="yes"/>
    <tag k="tiger:source" v="tiger_import_dch_v0.6_20070809"/>
    <tag k="tiger:tlid" v="192279891:192279896:192302012:192302014:192302009:192302007:192302005"/>
    <tag k="tiger:zip_left" v="94109"/>
  </way>
  <way id="23991192" version="1" timestamp="2008-04-27T08:32:10Z" uid="30201" user="rrankin" changeset="264419">
    <nd ref="256823561"/>
    <nd ref="256823562"/>
    <nd ref="256823563"/>
    <tag k="created_by" v="JOSM"/>
    <tag k="highway" v="residential"/>
    <tag k="name" v="Collingwood Street"/>
  </way>
  <way id="23991192" version="2" timestamp="2010-07-07T10:31:28Z" uid="74617" user="JohnSmith" changeset="5157498">
    <nd ref="256823561"/>
    <nd ref="256823562"/>
    <nd ref="256823563"/>
    <tag k="highway" v="residential"/>
    <tag k="maxspeed" v="50"/>
    <tag k="maxspeed:source" v="default residential speed limit in Australia"/>
    <tag k="name" v="Collingwood Street"/>
  </way>
  <way id="23991192" version="3" timestamp="2012-01-16T06:59:02Z" uid="147510" user="woodpeck_fixbot" changeset="10405560">
    <nd ref="256823561"/>
    <nd ref="256823562"/>
    <nd ref="256823563"/>
    <tag k="highway" v="residential"/>
    <tag k="name" v="Collingwood Street"/>
  </way>
  <way id="23991193" version="1" timestamp="2008-04-27T08:32:10Z" uid="30201" user="rrankin" changeset="264419">
    <nd ref="260117722"/>
    <nd ref="260117729"/>
    <tag k="created_by" v="JOSM"/>
    <tag k="highway" v="service"/>
  </way>
  <way id="23991210" version="6" timestamp="2008-08-14T19:49:26Z" uid="6975" user="ulfl" changeset="264731">
    <nd ref="258967868"/>
    <nd ref="260118112"/>
    <nd ref="261668305"/>
    <tag k="goods" v="no"/>
    <tag k="hgv" v="no"/>
    <tag k="highway" v="track"/>
    <tag k="motorcar" v="no"/>
    <tag k="motorcycle" v="no"/>
    <tag k="tracktype" v="grade4"/>
  </way>
  <way id="23991210" version="7" timestamp="2008-08-29T21:32:51Z" uid="34953" user="Langlaeufer" changeset="456936">
    <nd ref="258967868"/>
    <nd ref="260118112"/>
    <nd ref="261668305"/>
    <nd ref="260118114"/>
    <tag k="created_by" v="Potlatch 0.10b"/>
    <tag k="goods" v="no"/>
    <tag k="hgv" v="no"/>
    <tag k="highway" v="track"/>
    <tag k="motorcar" v="no"/>
    <tag k="motorcycle" v="no"/>
    <tag k="tracktype" v="grade4"/>
  </way>
  <way id="23991210" version="8" timestamp="2009-11-21T17:07:38Z" uid="34953" user="Langlaeufer" changeset="3177841">
    <nd ref="258967868"/>
    <nd ref="260118112"/>
    <nd ref="261668305"/>
    <nd ref="260118114"/>
    <tag k="highway" v="track"/>
    <tag k="motorcar" v="no"/>
    <tag k="motorcycle" v="no"/>
    <tag k="tracktype" v="grade4"/>
  </way>
  <way id="23991286" version="1" timestamp="2008-04-27T08:42:09Z" uid="8619" user="cetest" changeset="265509">
    <nd ref="260118915"/>
    <nd ref="260118972"/>
    <nd ref="260118916"/>
    <nd ref="260118917"/>
    <nd ref="260118923"/>
    <tag k="created_by" v="JOSM"/>
    <tag k="highway" v="residential"/>
    <tag k="name" v="Oliemolen"/>
  </way>
  <way id="23991286" version="2" timestamp="2009-09-27T11:08:36Z" uid="93547" user="Reboli_NL" changeset="2651240">
    <nd ref="260118915"/>
    <nd ref="260118972"/>
    <nd ref="260118916"/>
    <nd ref="260118917"/>
    <nd ref="260118923"/>
    <tag k="highway" v="residential"/>
    <tag k="maxspeed" v="30"/>
    <tag k="name" v="Oliemolen"/>
  </way>
  <way id="23991286" version="3" timestamp="2009-11-15T21:29:59Z" uid="36080" user="polderrunner" changeset="3127283">
    <nd ref="260118972"/>
    <nd ref="260118916"/>
    <nd ref="260118917"/>
    <tag k="highway" v="residential"/>
    <tag k="maxspeed" v="30"/>
    <tag k="name" v="Oliemolen"/>
  </way>
  <way id="23991286" version="4" timestamp="2011-12-18T19:39:32Z" uid="36080" user="polderrunner" changeset="10149982"/>
  <way id="23991287" version="1" timestamp="2008-04-27T08:42:09Z" uid="8619" user="cetest" changeset="265509">
    <nd ref="260118923"/>
    <nd ref="260118930"/>
    <nd ref="260118924"/>
    <nd ref="260118925"/>
    <nd ref="260118926"/>
    <nd ref="260118927"/>
    <nd ref="260118928"/>
    <nd ref="260118929"/>
    <tag k="created_by" v="JOSM"/>
  </way>
  <way id="23991287" version="2" timestamp="2008-04-27T08:58:00Z" uid="8619" user="cetest" changeset="265509">
    <nd ref="260118923"/>
    <nd ref="260118930"/>
    <nd ref="260118924"/>
    <nd ref="260118925"/>
    <nd ref="260118926"/>
    <nd ref="260118927"/>
    <nd ref="260118928"/>
    <nd ref="260118929"/>
    <tag k="created_by" v="JOSM"/>
    <tag k="highway" v="residential"/>
    <tag k="name" v="Molensingel"/>
  </way>
  <way id="23991287" version="3" timestamp="2009-09-27T11:08:35Z" uid="93547" user="Reboli_NL" changeset="2651240">
    <nd ref="260118923"/>
    <nd ref="260118930"/>
    <nd ref="260118924"/>
    <nd ref="260118925"/>
    <nd ref="260118926"/>
    <nd ref="260118927"/>
    <nd ref="260118928"/>
    <nd ref="260118929"/>
    <tag k="highway" v="residential"/>
    <tag k="maxspeed" v="30"/>
    <tag k="name" v="Molensingel"/>
  </way>
  <way id="23991287" version="4" timestamp="2011-12-18T19:39:30Z" uid="36080" user="polderrunner" changeset="10149982"/>
  <way id="23991289" version="1" timestamp="2008-04-27T08:42:10Z" uid="8619" user="cetest" changeset="265509">
    <nd ref="260118930"/>
    <nd ref="260118990"/>
    <nd ref="260118997"/>
    <nd ref="260118931"/>
    <nd ref="260118989"/>
    <nd ref="260118950"/>
    <nd ref="260118921"/>
    <tag k="created_by" v="JOSM"/>
    <tag k="highway" v="residential"/>
    <tag k="name" v="Oliemolen"/>
  </way>
  <way id="23991289" version="2" timestamp="2008-04-27T09:06:03Z" uid="8619" user="cetest" changeset="265509">
    <nd ref="260118930"/>
    <nd ref="260118990"/>
    <nd ref="260118997"/>
    <nd ref="260122327"/>
    <nd ref="260118931"/>
    <nd ref="260118989"/>
    <nd ref="260118950"/>
    <nd ref="260118921"/>
    <tag k="created_by" v="JOSM"/>
    <tag k="highway" v="residential"/>
    <tag k="name" v="Oliemolen"/>
  </way>
  <way id="23991289" version="3" timestamp="2009-09-27T11:08:32Z" uid="93547" user="Reboli_NL" changeset="2651240">
    <nd ref="260118930"/>
    <nd ref="260118990"/>
    <nd ref="260118997"/>
    <nd ref="260122327"/>
    <nd ref="260118931"/>
    <nd ref="260118989"/>
    <nd ref="260118950"/>
    <nd ref="260118921"/>
    <tag k="highway" v="residential"/>
    <tag k="maxspeed" v="30"/>
    <tag k="name" v="Oliemolen"/>
  </way>
  <way id="23991289" version="4" timestamp="2011-05-06T23:03:36Z" uid="352940" user="pieleric" changeset="8069766">
    <nd ref="260118930"/>
    <nd ref="260118990"/>
    <nd ref="260118997"/>
    <nd ref="260122327"/>
    <nd ref="260118931"/>
    <nd ref="260118989"/>
    <nd ref="260118921"/>
    <tag k="highway" v="residential"/>
    <tag k="maxspeed" v="30"/>
    <tag k="name" v="Oliemolen"/>
  </way>
  <way id="23991289" version="5" timestamp="2011-12-18T19:39:32Z" uid="36080" user="polderrunner" changeset="10149982"/>
  <way id="23991290" version="1" timestamp="2008-04-27T08:42:11Z" uid="8619" user="cetest" changeset="265509">
    <nd ref="260118974"/>
    <nd ref="260118925"/>
    <tag k="created_by" v="JOSM"/>
    <tag k="highway" v="residential"/>
    <tag k="name" v="Pelmolen"/>
    <tag k="oneway" v="true"/>
  </way>
  <way id="23991290" version="2" timestamp="2009-09-27T11:08:34Z" uid="93547" user="Reboli_NL" changeset="2651240">
    <nd ref="260118974"/>
    <nd ref="260118925"/>
    <tag k="highway" v="residential"/>
    <tag k="maxspeed" v="30"/>
    <tag k="name" v="Pelmolen"/>
    <tag k="oneway" v="true"/>
  </way>
  <way id="23991290" version="3" timestamp="2009-11-15T16:15:26Z" uid="105512" user="datalogg" changeset="3123463">
    <nd ref="260118974"/>
    <nd ref="260118925"/>
    <tag k="highway" v="living_street"/>
    <tag k="maxspeed" v="30"/>
    <tag k="name" v="Pelmolen"/>
    <tag k="oneway" v="true"/>
  </way>
  <way id="23991290" version="4" timestamp="2009-11-30T20:35:04Z" uid="36582" user="JanV" changeset="3259410">
    <nd ref="260118974"/>
    <nd ref="260118925"/>
    <tag k="highway" v="living_street"/>
    <tag k="name" v="Pelmolen"/>
    <tag k="oneway" v="true"/>
  </way>
  <way id="23991290" version="5" timestamp="2010-02-03T23:41:09Z" uid="204153" user="mfvl" changeset="3787305">
    <nd ref="260118974"/>
    <nd ref="260118925"/>
    <tag k="highway" v="living_street"/>
    <tag k="name" v="Pelmolen"/>
    <tag k="oneway" v="yes"/>
  </way>
  <way id="23991290" version="6" timestamp="2010-11-14T21:06:51Z" uid="36582" user="JanV" changeset="6371101">
    <nd ref="260118974"/>
    <nd ref="260118925"/>
    <tag k="bicycle:backward" v="yes"/>
    <tag k="highway" v="living_street"/>
    <tag k="name" v="Pelmolen"/>
    <tag k="oneway" v="yes"/>
  </way>
  <way id="23991290" version="7" timestamp="2011-12-18T19:39:33Z" uid="36080" user="polderrunner" changeset="10149982"/>
  <way id="23991291" version="1" timestamp="2008-04-27T08:42:11Z" uid="8619" user="cetest" changeset="265509">
    <nd ref="260118926"/>
    <nd ref="260118979"/>
    <tag k="created_by" v="JOSM"/>
    <tag k="highway" v="residential"/>
    <tag k="name" v="Runmolen"/>
    <tag k="oneway" v="true"/>
  </way>
  <way id="23991291" version="2" timestamp="2009-09-27T11:08:33Z" uid="93547" user="Reboli_NL" changeset="2651240">
    <nd ref="260118926"/>
    <nd ref="260118979"/>
    <tag k="highway" v="residential"/>
    <tag k="maxspeed" v="30"/>
    <tag k="name" v="Runmolen"/>
    <tag k="oneway" v="true"/>
  </way>
  <way id="23991291" version="3" timestamp="2009-11-15T16:15:25Z" uid="105512" user="datalogg" changeset="3123463">
    <nd ref="260118926"/>
    <nd ref="260118979"/>
    <tag k="highway" v="living_street"/>
    <tag k="maxspeed" v="30"/>
    <tag k="name" v="Runmolen"/>
    <tag k="oneway" v="true"/>
  </way>
  <way id="23991291" version="4" timestamp="2009-11-30T20:35:04Z" uid="36582" user="JanV" changeset="3259410">
    <nd ref="260118926"/>
    <nd ref="260118979"/>
    <tag k="highway" v="living_street"/>
    <tag k="name" v="Runmolen"/>
    <tag k="oneway" v="true"/>
  </way>
  <way id="23991291" version="5" timestamp="2010-02-03T23:41:08Z" uid="204153" user="mfvl" changeset="3787305">
    <nd ref="260118926"/>
    <nd ref="260118979"/>
    <tag k="highway" v="living_street"/>
    <tag k="name" v="Runmolen"/>
    <tag k="oneway" v="yes"/>
  </way>
  <way id="23991291" version="6" timestamp="2010-11-14T21:06:53Z" uid="36582" user="JanV" changeset="6371101">
    <nd ref="260118926"/>
    <nd ref="260118979"/>
    <tag k="bicycle:backward" v="yes"/>
    <tag k="highway" v="living_street"/>
    <tag k="name" v="Runmolen"/>
    <tag k="oneway" v="yes"/>
  </way>
  <way id="23991291" version="7" timestamp="2011-12-18T19:39:34Z" uid="36080" user="polderrunner" changeset="10149982"/>
  <way id="23991292" version="1" timestamp="2008-04-27T08:42:12Z" uid="8619" user="cetest" changeset="265509">
    <nd ref="260118986"/>
    <nd ref="260118927"/>
    <tag k="created_by" v="JOSM"/>
    <tag k="highway" v="residential"/>
    <tag k="name" v="Trasmolen"/>
    <tag k="oneway" v="true"/>
  </way>
  <way id="23991292" version="2" timestamp="2009-09-27T11:08:30Z" uid="93547" user="Reboli_NL" changeset="2651240">
    <nd ref="260118986"/>
    <nd ref="260118927"/>
    <tag k="highway" v="residential"/>
    <tag k="maxspeed" v="30"/>
    <tag k="name" v="Trasmolen"/>
    <tag k="oneway" v="true"/>
  </way>
  <way id="23991292" version="3" timestamp="2009-11-15T16:15:25Z" uid="105512" user="datalogg" changeset="3123463">
    <nd ref="260118986"/>
    <nd ref="260118927"/>
    <tag k="highway" v="living_street"/>
    <tag k="maxspeed" v="30"/>
    <tag k="name" v="Trasmolen"/>
    <tag k="oneway" v="true"/>
  </way>
  <way id="23991292" version="4" timestamp="2009-11-30T20:35:04Z" uid="36582" user="JanV" changeset="3259410">
    <nd ref="260118986"/>
    <nd ref="260118927"/>
    <tag k="highway" v="living_street"/>
    <tag k="name" v="Trasmolen"/>
    <tag k="oneway" v="true"/>
  </way>
  <way id="23991292" version="5" timestamp="2010-02-03T23:41:08Z" uid="204153" user="mfvl" changeset="3787305">
    <nd ref="260118986"/>
    <nd ref="260118927"/>
    <tag k="highway" v="living_street"/>
    <tag k="name" v="Trasmolen"/>
    <tag k="oneway" v="yes"/>
  </way>
  <way id="23991292" version="6" timestamp="2010-11-14T21:06:56Z" uid="36582" user="JanV" changeset="6371101">
    <nd ref="260118986"/>
    <nd ref="260118927"/>
    <tag k="bicycle:backward" v="yes"/>
    <tag k="highway" v="living_street"/>
    <tag k="name" v="Trasmolen"/>
    <tag k="oneway" v="yes"/>
  </way>
  <way id="23991292" version="7" timestamp="2011-12-18T19:39:34Z" uid="36080" user="polderrunner" changeset="10149982"/>
  <way id="23991293" version="1" timestamp="2008-04-27T08:42:13Z" uid="8619" user="cetest" changeset="265509">
    <nd ref="260118971"/>
    <nd ref="260118970"/>
    <nd ref="260118928"/>
    <tag k="created_by" v="JOSM"/>
    <tag k="highway" v="cycleway"/>
    <tag k="name" v="Verfmolen"/>
    <tag k="oneway" v="true"/>
  </way>
  <way id="23991293" version="2" timestamp="2010-02-03T23:41:11Z" uid="204153" user="mfvl" changeset="3787305">
    <nd ref="260118971"/>
    <nd ref="260118970"/>
    <nd ref="260118928"/>
    <tag k="highway" v="cycleway"/>
    <tag k="name" v="Verfmolen"/>
    <tag k="oneway" v="yes"/>
  </way>
  <way id="23991293" version="3" timestamp="2010-07-21T23:32:38Z" uid="36582" user="JanV" changeset="5283314">
    <nd ref="260118971"/>
    <nd ref="260118970"/>
    <nd ref="260118928"/>
    <tag k="highway" v="cycleway"/>
    <tag k="name" v="Verfmolen"/>
  </way>
  <way id="23991293" version="4" timestamp="2011-12-18T19:39:34Z" uid="36080" user="polderrunner" changeset="10149982"/>
  <way id="23991295" version="1" timestamp="2008-04-27T08:42:13Z" uid="8619" user="cetest" changeset="265509">
    <nd ref="260118918"/>
    <nd ref="260118945"/>
    <tag k="created_by" v="JOSM"/>
    <tag k="highway" v="residential"/>
    <tag k="name" v="Oliemolen"/>
  </way>
  <way id="23991295" version="2" timestamp="2009-09-27T11:08:31Z" uid="93547" user="Reboli_NL" changeset="2651240">
    <nd ref="260118918"/>
    <nd ref="260118945"/>
    <tag k="highway" v="residential"/>
    <tag k="maxspeed" v="30"/>
    <tag k="name" v="Oliemolen"/>
  </way>
  <way id="23991295" version="3" timestamp="2009-11-15T16:15:25Z" uid="105512" user="datalogg" changeset="3123463">
    <nd ref="260118918"/>
    <nd ref="260118945"/>
    <tag k="highway" v="living_street"/>
    <tag k="maxspeed" v="30"/>
    <tag k="name" v="Oliemolen"/>
  </way>
  <way id="23991295" version="4" timestamp="2011-12-18T19:39:32Z" uid="36080" user="polderrunner" changeset="10149982"/>
  <way id="23991296" version="1" timestamp="2008-04-27T08:42:14Z" uid="8619" user="cetest" changeset="265509">
    <nd ref="260118919"/>
    <nd ref="260118946"/>
    <tag k="created_by" v="JOSM"/>
    <tag k="highway" v="residential"/>
    <tag k="name" v="Oliemolen"/>
  </way>
  <way id="23991296" version="2" timestamp="2008-04-27T09:06:05Z" uid="8619" user="cetest" changeset="265509">
    <nd ref="260122327"/>
    <nd ref="260122321"/>
    <nd ref="260122320"/>
    <nd ref="260118919"/>
    <tag k="bridge" v="true"/>
    <tag k="created_by" v="JOSM"/>
    <tag k="highway" v="footway"/>
    <tag k="name" v="Oliemolen"/>
  </way>
  <way id="23991296" version="3" timestamp="2010-02-03T23:41:09Z" uid="204153" user="mfvl" changeset="3787305">
    <nd ref="260122327"/>
    <nd ref="260122321"/>
    <nd ref="260122320"/>
    <nd ref="260118919"/>
    <tag k="bridge" v="yes"/>
    <tag k="highway" v="footway"/>
    <tag k="name" v="Oliemolen"/>
  </way>
  <way id="23991296" version="4" timestamp="2011-12-18T19:39:32Z" uid="36080" user="polderrunner" changeset="10149982"/>
  <way id="23991297" version="1" timestamp="2008-04-27T08:42:15Z" uid="8619" user="cetest" changeset="265509">
    <nd ref="260118920"/>
    <nd ref="260118947"/>
    <tag k="created_by" v="JOSM"/>
    <tag k="highway" v="residential"/>
    <tag k="name" v="Oliemolen"/>
  </way>
  <way id="23991297" version="2" timestamp="2009-09-27T11:10:54Z" uid="93547" user="Reboli_NL" changeset="2651240">
    <nd ref="260118920"/>
    <nd ref="260118947"/>
    <tag k="highway" v="residential"/>
    <tag k="maxspeed" v="30"/>
    <tag k="name" v="Oliemolen"/>
  </way>
  <way id="23991297" version="3" timestamp="2009-11-15T16:15:30Z" uid="105512" user="datalogg" changeset="3123463">
    <nd ref="260118920"/>
    <nd ref="260118947"/>
    <tag k="highway" v="living_street"/>
    <tag k="maxspeed" v="30"/>
    <tag k="name" v="Oliemolen"/>
  </way>
  <way id="23991297" version="4" timestamp="2011-12-18T19:39:32Z" uid="36080" user="polderrunner" changeset="10149982"/>
  <way id="23991298" version="1" timestamp="2008-04-27T08:42:16Z" uid="8619" user="cetest" changeset="265509">
    <nd ref="260118931"/>
    <nd ref="260118991"/>
    <nd ref="260118992"/>
    <nd ref="260118932"/>
    <nd ref="260118935"/>
    <nd ref="260118938"/>
    <nd ref="260118941"/>
    <tag k="created_by" v="JOSM"/>
    <tag k="highway" v="pedestrian"/>
  </way>
  <way id="23991298" version="2" timestamp="2008-04-27T09:06:04Z" uid="8619" user="cetest" changeset="265509">
    <nd ref="260118931"/>
    <nd ref="260118991"/>
    <nd ref="260118992"/>
    <nd ref="260118932"/>
    <nd ref="260118935"/>
    <nd ref="260118938"/>
    <nd ref="260118941"/>
    <tag k="created_by" v="JOSM"/>
    <tag k="highway" v="pedestrian"/>
    <tag k="name" v="Molenweide"/>
  </way>
  <way id="23991298" version="3" timestamp="2009-12-01T22:10:13Z" uid="36582" user="JanV" changeset="3268055">
    <nd ref="260118941"/>
    <nd ref="260118938"/>
    <nd ref="260118935"/>
    <nd ref="260118932"/>
    <nd ref="260118992"/>
    <nd ref="260118991"/>
    <nd ref="260118931"/>
    <tag k="highway" v="pedestrian"/>
    <tag k="name" v="Molenweide"/>
  </way>
  <way id="23991298" version="4" timestamp="2009-12-01T22:39:33Z" uid="36582" user="JanV" changeset="3268267"/>
  <way id="23991299" version="1" timestamp="2008-04-27T08:42:17Z" uid="8619" user="cetest" changeset="265509">
    <nd ref="260118921"/>
    <nd ref="260118933"/>
    <nd ref="260118936"/>
    <nd ref="260118939"/>
    <nd ref="260118942"/>
    <nd ref="260118948"/>
    <nd ref="260118949"/>
    <tag k="created_by" v="JOSM"/>
    <tag k="highway" v="residential"/>
    <tag k="name" v="Molensingel"/>
  </way>
  <way id="23991299" version="2" timestamp="2008-04-27T09:06:01Z" uid="8619" user="cetest" changeset="265509">
    <nd ref="260118921"/>
    <nd ref="260118933"/>
    <nd ref="260118936"/>
    <nd ref="260118939"/>
    <nd ref="260118942"/>
    <nd ref="260118948"/>
    <nd ref="260118949"/>
    <tag k="created_by" v="JOSM"/>
    <tag k="highway" v="residential"/>
    <tag k="name" v="Molensingel"/>
  </way>
  <way id="23991299" version="3" timestamp="2008-11-20T21:36:17Z" uid="8619" user="cetest" changeset="772510">
    <nd ref="260118921"/>
    <nd ref="260118933"/>
    <nd ref="260118936"/>
    <nd ref="260118939"/>
    <nd ref="260118942"/>
    <nd ref="260118948"/>
    <nd ref="260118949"/>
    <nd ref="260122337"/>
    <nd ref="260122338"/>
    <nd ref="260122339"/>
    <nd ref="260122340"/>
    <nd ref="260122341"/>
    <nd ref="260118929"/>
    <tag k="created_by" v="JOSM"/>
    <tag k="highway" v="residential"/>
    <tag k="name" v="Molensingel"/>
  </way>
  <way id="23991299" version="4" timestamp="2009-09-27T11:10:55Z" uid="93547" user="Reboli_NL" changeset="2651240">
    <nd ref="260118921"/>
    <nd ref="260118933"/>
    <nd ref="260118936"/>
    <nd ref="260118939"/>
    <nd ref="260118942"/>
    <nd ref="260118948"/>
    <nd ref="260118949"/>
    <nd ref="260122337"/>
    <nd ref="260122338"/>
    <nd ref="260122339"/>
    <nd ref="260122340"/>
    <nd ref="260122341"/>
    <nd ref="260118929"/>
    <tag k="highway" v="residential"/>
    <tag k="maxspeed" v="30"/>
    <tag k="name" v="Molensingel"/>
  </way>
  <way id="23991299" version="5" timestamp="2009-11-08T17:42:37Z" uid="36582" user="JanV" changeset="3066291">
    <nd ref="260118921"/>
    <nd ref="260118933"/>
    <nd ref="260118936"/>
    <nd ref="260118939"/>
    <nd ref="260118942"/>
    <nd ref="260118948"/>
    <nd ref="260118949"/>
    <nd ref="260122337"/>
    <nd ref="260122338"/>
    <nd ref="260122339"/>
    <nd ref="559622023"/>
    <nd ref="260122340"/>
    <nd ref="260122341"/>
    <nd ref="260118929"/>
    <tag k="highway" v="residential"/>
    <tag k="maxspeed" v="30"/>
    <tag k="name" v="Molensingel"/>
  </way>
  <way id="23991299" version="6" timestamp="2009-12-01T22:00:04Z" uid="36582" user="JanV" changeset="3267987">
    <nd ref="260118921"/>
    <nd ref="260118933"/>
    <nd ref="260118936"/>
    <nd ref="260118939"/>
    <nd ref="260118942"/>
    <nd ref="260118948"/>
    <nd ref="260118949"/>
    <nd ref="260122337"/>
    <nd ref="260122338"/>
    <nd ref="577380570"/>
    <nd ref="260122339"/>
    <nd ref="559622023"/>
    <nd ref="260122340"/>
    <nd ref="577380569"/>
    <nd ref="260122341"/>
    <nd ref="260118929"/>
    <tag k="highway" v="residential"/>
    <tag k="maxspeed" v="30"/>
    <tag k="name" v="Molensingel"/>
  </way>
  <way id="23991299" version="7" timestamp="2011-05-31T15:56:25Z" uid="352940" user="pieleric" changeset="8302795">
    <nd ref="260118921"/>
    <nd ref="260118933"/>
    <nd ref="260118936"/>
    <nd ref="260118939"/>
    <nd ref="260118942"/>
    <nd ref="260118948"/>
    <nd ref="260118949"/>
    <nd ref="260122337"/>
    <nd ref="577380570"/>
    <nd ref="260122339"/>
    <nd ref="559622023"/>
    <nd ref="577380569"/>
    <nd ref="1306891769"/>
    <nd ref="260122341"/>
    <nd ref="260118929"/>
    <tag k="highway" v="residential"/>
    <tag k="maxspeed" v="30"/>
    <tag k="name" v="Molensingel"/>
  </way>
  <way id="23991299" version="8" timestamp="2011-12-18T19:39:30Z" uid="36080" user="polderrunner" changeset="10149982"/>
  <way id="23991300" version="1" timestamp="2008-04-27T08:42:17Z" uid="8619" user="cetest" changeset="265509">
    <nd ref="260118923"/>
    <nd ref="260118918"/>
    <nd ref="260118919"/>
    <nd ref="260118920"/>
    <nd ref="260118921"/>
    <nd ref="260118922"/>
    <tag k="created_by" v="JOSM"/>
    <tag k="highway" v="residential"/>
    <tag k="name" v="Oliemolen"/>
  </way>
  <way id="23991300" version="2" timestamp="2009-09-27T11:10:54Z" uid="93547" user="Reboli_NL" changeset="2651240">
    <nd ref="260118923"/>
    <nd ref="260118918"/>
    <nd ref="260118919"/>
    <nd ref="260118920"/>
    <nd ref="260118921"/>
    <nd ref="260118922"/>
    <tag k="highway" v="residential"/>
    <tag k="maxspeed" v="30"/>
    <tag k="name" v="Oliemolen"/>
  </way>
  <way id="23991300" version="3" timestamp="2009-11-15T21:30:03Z" uid="36080" user="polderrunner" changeset="3127283">
    <nd ref="565034413"/>
    <nd ref="565034411"/>
    <nd ref="260118917"/>
    <nd ref="260118923"/>
    <nd ref="260118918"/>
    <nd ref="260118919"/>
    <nd ref="260118920"/>
    <nd ref="260118921"/>
    <nd ref="260118922"/>
    <tag k="highway" v="residential"/>
    <tag k="maxspeed" v="30"/>
    <tag k="name" v="Oliemolen"/>
  </way>
  <way id="23991300" version="4" timestamp="2011-05-27T09:30:36Z" uid="352940" user="pieleric" changeset="8260529">
    <nd ref="565034413"/>
    <nd ref="565034411"/>
    <nd ref="260118917"/>
    <nd ref="260118923"/>
    <nd ref="260118918"/>
    <nd ref="260118919"/>
    <nd ref="260118920"/>
    <nd ref="260118921"/>
    <nd ref="1301755236"/>
    <nd ref="260118922"/>
    <tag k="highway" v="residential"/>
    <tag k="maxspeed" v="30"/>
    <tag k="name" v="Oliemolen"/>
  </way>
  <way id="23991300" version="5" timestamp="2011-12-18T19:39:33Z" uid="36080" user="polderrunner" changeset="10149982"/>
  <way id="23991301" version="1" timestamp="2008-04-27T08:42:18Z" uid="8619" user="cetest" changeset="265509">
    <nd ref="260118942"/>
    <nd ref="260118943"/>
    <nd ref="260118944"/>
    <nd ref="44796530"/>
    <tag k="created_by" v="JOSM"/>
  </way>
  <way id="23991301" version="2" timestamp="2008-04-27T09:06:02Z" uid="8619" user="cetest" changeset="265509">
    <nd ref="260118942"/>
    <nd ref="260118943"/>
    <nd ref="260118944"/>
    <nd ref="44796530"/>
    <tag k="created_by" v="JOSM"/>
    <tag k="highway" v="residential"/>
    <tag k="name" v="Verfmolen"/>
  </way>
  <way id="23991301" version="3" timestamp="2008-04-27T09:21:13Z" uid="8619" user="cetest" changeset="265509">
    <nd ref="260118942"/>
    <nd ref="260118943"/>
    <nd ref="260118944"/>
    <nd ref="260123511"/>
    <nd ref="44796530"/>
    <tag k="created_by" v="JOSM"/>
    <tag k="highway" v="residential"/>
    <tag k="name" v="Verfmolen"/>
  </way>
  <way id="23991301" version="4" timestamp="2009-09-27T11:10:53Z" uid="93547" user="Reboli_NL" changeset="2651240">
    <nd ref="260118942"/>
    <nd ref="260118943"/>
    <nd ref="260118944"/>
    <nd ref="260123511"/>
    <nd ref="44796530"/>
    <tag k="highway" v="residential"/>
    <tag k="maxspeed" v="30"/>
    <tag k="name" v="Verfmolen"/>
  </way>
  <way id="23991301" version="5" timestamp="2009-11-29T13:01:09Z" uid="36582" user="JanV" changeset="3245106">
    <nd ref="260118942"/>
    <nd ref="260118943"/>
    <nd ref="574390529"/>
    <tag k="highway" v="residential"/>
    <tag k="maxspeed" v="30"/>
    <tag k="name" v="Verfmolen"/>
  </way>
  <way id="23991301" version="6" timestamp="2009-12-01T22:26:01Z" uid="36582" user="JanV" changeset="3268168">
    <nd ref="260118942"/>
    <nd ref="260118943"/>
    <nd ref="574390529"/>
    <tag k="highway" v="living_street"/>
    <tag k="name" v="Verfmolen"/>
  </way>
  <way id="23991301" version="7" timestamp="2010-03-27T09:27:23Z" uid="161542" user="textlijn" changeset="4244735">
    <nd ref="260118942"/>
    <nd ref="260118943"/>
    <nd ref="574390529"/>
    <tag k="highway" v="living_street"/>
    <tag k="name" v="Witmolen"/>
  </way>
  <way id="23991301" version="8" timestamp="2011-12-18T19:39:34Z" uid="36080" user="polderrunner" changeset="10149982"/>
  <way id="23991302" version="1" timestamp="2008-04-27T08:42:19Z" uid="8619" user="cetest" changeset="265509">
    <nd ref="260118972"/>
    <nd ref="260118971"/>
    <nd ref="260118973"/>
    <tag k="created_by" v="JOSM"/>
  </way>
  <way id="23991302" version="2" timestamp="2008-04-27T09:21:14Z" uid="8619" user="cetest" changeset="265509">
    <nd ref="260118972"/>
    <nd ref="260118971"/>
    <nd ref="260118973"/>
    <tag k="created_by" v="JOSM"/>
    <tag k="highway" v="residential"/>
  </way>
  <way id="23991302" version="3" timestamp="2009-09-27T11:10:54Z" uid="93547" user="Reboli_NL" changeset="2651240">
    <nd ref="260118972"/>
    <nd ref="260118971"/>
    <nd ref="260118973"/>
    <tag k="highway" v="residential"/>
    <tag k="maxspeed" v="30"/>
  </way>
  <way id="23991302" version="4" timestamp="2009-11-15T16:07:48Z" uid="105512" user="datalogg" changeset="3123386">
    <nd ref="260118972"/>
    <nd ref="260118971"/>
    <nd ref="260118973"/>
    <tag k="highway" v="residential"/>
    <tag k="maxspeed" v="30"/>
    <tag k="oneway" v="yes"/>
  </way>
  <way id="23991302" version="5" timestamp="2009-11-15T21:30:06Z" uid="36080" user="polderrunner" changeset="3127283">
    <nd ref="565034408"/>
    <nd ref="565034411"/>
    <nd ref="260118971"/>
    <nd ref="260118973"/>
    <tag k="highway" v="residential"/>
    <tag k="maxspeed" v="30"/>
    <tag k="oneway" v="yes"/>
  </way>
  <way id="23991302" version="6" timestamp="2009-11-15T21:44:27Z" uid="36080" user="polderrunner" changeset="3127421">
    <nd ref="565034408"/>
    <nd ref="565034411"/>
    <nd ref="565046998"/>
    <nd ref="260118971"/>
    <nd ref="565046992"/>
    <nd ref="260118973"/>
    <tag k="highway" v="residential"/>
    <tag k="maxspeed" v="30"/>
    <tag k="oneway" v="yes"/>
  </way>
  <way id="23991302" version="7" timestamp="2010-02-01T23:33:48Z" uid="161542" user="textlijn" changeset="3772662">
    <nd ref="565034408"/>
    <nd ref="565034411"/>
    <tag k="highway" v="residential"/>
    <tag k="maxspeed" v="30"/>
  </way>
  <way id="23991302" version="8" timestamp="2010-03-18T00:19:35Z" uid="161542" user="textlijn" changeset="4158157">
    <nd ref="565034408"/>
    <nd ref="565034411"/>
    <tag k="highway" v="residential"/>
    <tag k="maxspeed" v="30"/>
    <tag k="name" v="Buitenwatersloot"/>
  </way>
  <way id="23991302" version="9" timestamp="2011-12-18T19:39:29Z" uid="36080" user="polderrunner" changeset="10149982"/>
  <way id="23991303" version="1" timestamp="2008-04-27T08:42:20Z" uid="8619" user="cetest" changeset="265509">
    <nd ref="260118974"/>
    <nd ref="260118996"/>
    <nd ref="260118932"/>
    <tag k="created_by" v="JOSM"/>
    <tag k="highway" v="pedestrian"/>
    <tag k="name" v="Pelmolen"/>
  </way>
  <way id="23991303" version="2" timestamp="2008-04-27T09:06:00Z" uid="8619" user="cetest" changeset="265509">
    <nd ref="260118974"/>
    <nd ref="260118996"/>
    <tag k="created_by" v="JOSM"/>
    <tag k="highway" v="pedestrian"/>
    <tag k="name" v="Pelmolen"/>
  </way>
  <way id="23991303" version="3" timestamp="2011-12-18T19:39:33Z" uid="36080" user="polderrunner" changeset="10149982"/>
  <way id="23991304" version="1" timestamp="2008-04-27T08:42:20Z" uid="8619" user="cetest" changeset="265509">
    <nd ref="260118979"/>
    <nd ref="260118995"/>
    <nd ref="260118935"/>
    <nd ref="260118988"/>
    <tag k="created_by" v="JOSM"/>
    <tag k="highway" v="pedestrian"/>
  </way>
  <way id="23991304" version="2" timestamp="2008-04-27T09:06:02Z" uid="8619" user="cetest" changeset="265509">
    <nd ref="260118979"/>
    <nd ref="260118995"/>
    <tag k="created_by" v="JOSM"/>
    <tag k="highway" v="pedestrian"/>
  </way>
  <way id="23991304" version="3" timestamp="2011-12-18T19:39:35Z" uid="36080" user="polderrunner" changeset="10149982"/>
  <way id="23991305" version="1" timestamp="2008-04-27T08:42:21Z" uid="8619" user="cetest" changeset="265509">
    <nd ref="260118986"/>
    <nd ref="260118994"/>
    <nd ref="260118938"/>
    <nd ref="260118987"/>
    <tag k="created_by" v="JOSM"/>
    <tag k="highway" v="pedestrian"/>
  </way>
  <way id="23991305" version="2" timestamp="2008-04-27T09:06:00Z" uid="8619" user="cetest" changeset="265509">
    <nd ref="260118986"/>
    <nd ref="260118994"/>
    <tag k="created_by" v="JOSM"/>
    <tag k="highway" v="pedestrian"/>
  </way>
  <way id="23991305" version="3" timestamp="2011-12-18T19:39:36Z" uid="36080" user="polderrunner" changeset="10149982"/>
  <way id="23991306" version="1" timestamp="2008-04-27T08:42:22Z" uid="8619" user="cetest" changeset="265509">
    <nd ref="260118987"/>
    <nd ref="260118939"/>
    <tag k="created_by" v="JOSM"/>
    <tag k="highway" v="residential"/>
    <tag k="name" v="Volmolen"/>
    <tag k="oneway" v="true"/>
  </way>
  <way id="23991306" version="2" timestamp="2009-09-27T11:10:52Z" uid="93547" user="Reboli_NL" changeset="2651240">
    <nd ref="260118987"/>
    <nd ref="260118939"/>
    <tag k="highway" v="residential"/>
    <tag k="maxspeed" v="30"/>
    <tag k="name" v="Volmolen"/>
    <tag k="oneway" v="true"/>
  </way>
  <way id="23991306" version="3" timestamp="2009-11-15T16:15:30Z" uid="105512" user="datalogg" changeset="3123463">
    <nd ref="260118987"/>
    <nd ref="260118939"/>
    <tag k="highway" v="living_street"/>
    <tag k="maxspeed" v="30"/>
    <tag k="name" v="Volmolen"/>
    <tag k="oneway" v="true"/>
  </way>
  <way id="23991306" version="4" timestamp="2009-12-01T22:26:01Z" uid="36582" user="JanV" changeset="3268168">
    <nd ref="260118987"/>
    <nd ref="260118939"/>
    <tag k="highway" v="living_street"/>
    <tag k="name" v="Volmolen"/>
    <tag k="oneway" v="true"/>
  </way>
  <way id="23991306" version="5" timestamp="2010-02-03T23:41:10Z" uid="204153" user="mfvl" changeset="3787305">
    <nd ref="260118987"/>
    <nd ref="260118939"/>
    <tag k="highway" v="living_street"/>
    <tag k="name" v="Volmolen"/>
    <tag k="oneway" v="yes"/>
  </way>
  <way id="23991306" version="6" timestamp="2010-11-14T21:06:57Z" uid="36582" user="JanV" changeset="6371101">
    <nd ref="260118987"/>
    <nd ref="260118939"/>
    <tag k="bicycle:backward" v="yes"/>
    <tag k="highway" v="living_street"/>
    <tag k="name" v="Volmolen"/>
    <tag k="oneway" v="yes"/>
  </way>
  <way id="23991306" version="7" timestamp="2011-12-18T19:39:34Z" uid="36080" user="polderrunner" changeset="10149982"/>
  <way id="23991308" version="1" timestamp="2008-04-27T08:42:23Z" uid="8619" user="cetest" changeset="265509">
    <nd ref="260118988"/>
    <nd ref="260118936"/>
    <tag k="created_by" v="JOSM"/>
    <tag k="highway" v="residential"/>
    <tag k="name" v="Moutmolen"/>
    <tag k="oneway" v="true"/>
  </way>
  <way id="23991308" version="2" timestamp="2009-09-27T11:10:49Z" uid="93547" user="Reboli_NL" changeset="2651240">
    <nd ref="260118988"/>
    <nd ref="260118936"/>
    <tag k="highway" v="residential"/>
    <tag k="maxspeed" v="30"/>
    <tag k="name" v="Moutmolen"/>
    <tag k="oneway" v="true"/>
  </way>
  <way id="23991308" version="3" timestamp="2009-11-15T16:15:29Z" uid="105512" user="datalogg" changeset="3123463">
    <nd ref="260118988"/>
    <nd ref="260118936"/>
    <tag k="highway" v="living_street"/>
    <tag k="maxspeed" v="30"/>
    <tag k="name" v="Moutmolen"/>
    <tag k="oneway" v="true"/>
  </way>
  <way id="23991308" version="4" timestamp="2009-11-29T12:38:12Z" uid="36582" user="JanV" changeset="3244911">
    <nd ref="260118936"/>
    <nd ref="260118988"/>
    <tag k="highway" v="living_street"/>
    <tag k="maxspeed" v="30"/>
    <tag k="name" v="Moutmolen"/>
    <tag k="oneway" v="true"/>
  </way>
  <way id="23991308" version="5" timestamp="2009-12-01T22:26:01Z" uid="36582" user="JanV" changeset="3268168">
    <nd ref="260118936"/>
    <nd ref="260118988"/>
    <tag k="highway" v="living_street"/>
    <tag k="name" v="Moutmolen"/>
    <tag k="oneway" v="true"/>
  </way>
  <way id="23991308" version="6" timestamp="2010-02-03T23:41:08Z" uid="204153" user="mfvl" changeset="3787305">
    <nd ref="260118936"/>
    <nd ref="260118988"/>
    <tag k="highway" v="living_street"/>
    <tag k="name" v="Moutmolen"/>
    <tag k="oneway" v="yes"/>
  </way>
  <way id="23991308" version="7" timestamp="2010-11-14T21:06:54Z" uid="36582" user="JanV" changeset="6371101">
    <nd ref="260118936"/>
    <nd ref="260118988"/>
    <tag k="bicycle:backward" v="yes"/>
    <tag k="highway" v="living_street"/>
    <tag k="name" v="Moutmolen"/>
    <tag k="oneway" v="yes"/>
  </way>
  <way id="23991308" version="8" timestamp="2011-12-18T19:39:32Z" uid="36080" user="polderrunner" changeset="10149982"/>
  <way id="23991309" version="1" timestamp="2008-04-27T08:42:23Z" uid="8619" user="cetest" changeset="265509">
    <nd ref="260118978"/>
    <nd ref="260118933"/>
    <tag k="created_by" v="JOSM"/>
    <tag k="highway" v="residential"/>
    <tag k="name" v="Korenmolen"/>
    <tag k="oneway" v="true"/>
  </way>
  <way id="23991309" version="2" timestamp="2009-09-27T11:10:49Z" uid="93547" user="Reboli_NL" changeset="2651240">
    <nd ref="260118978"/>
    <nd ref="260118933"/>
    <tag k="highway" v="residential"/>
    <tag k="maxspeed" v="30"/>
    <tag k="name" v="Korenmolen"/>
    <tag k="oneway" v="true"/>
  </way>
  <way id="23991309" version="3" timestamp="2009-11-15T16:15:29Z" uid="105512" user="datalogg" changeset="3123463">
    <nd ref="260118978"/>
    <nd ref="260118933"/>
    <tag k="highway" v="living_street"/>
    <tag k="maxspeed" v="30"/>
    <tag k="name" v="Korenmolen"/>
    <tag k="oneway" v="true"/>
  </way>
  <way id="23991309" version="4" timestamp="2009-12-01T22:26:01Z" uid="36582" user="JanV" changeset="3268168">
    <nd ref="260118978"/>
    <nd ref="260118933"/>
    <tag k="highway" v="living_street"/>
    <tag k="name" v="Korenmolen"/>
    <tag k="oneway" v="true"/>
  </way>
  <way id="23991309" version="5" timestamp="2010-02-03T23:41:08Z" uid="204153" user="mfvl" changeset="3787305">
    <nd ref="260118978"/>
    <nd ref="260118933"/>
    <tag k="highway" v="living_street"/>
    <tag k="name" v="Korenmolen"/>
    <tag k="oneway" v="yes"/>
  </way>
  <way id="23991309" version="6" timestamp="2010-11-14T21:06:50Z" uid="36582" user="JanV" changeset="6371101">
    <nd ref="260118978"/>
    <nd ref="260118933"/>
    <tag k="bicycle:backward" v="yes"/>
    <tag k="highway" v="living_street"/>
    <tag k="name" v="Korenmolen"/>
    <tag k="oneway" v="yes"/>
  </way>
  <way id="23991309" version="7" timestamp="2011-12-18T19:39:29Z" uid="36080" user="polderrunner" changeset="10149982"/>
  <way id="23991310" version="1" timestamp="2008-04-27T08:42:24Z" uid="8619" user="cetest" changeset="265509">
    <nd ref="260118932"/>
    <nd ref="260118978"/>
    <tag k="created_by" v="JOSM"/>
    <tag k="highway" v="pedestrian"/>
    <tag k="name" v="Korenmolen"/>
    <tag k="oneway" v="true"/>
  </way>
  <way id="23991310" version="2" timestamp="2009-11-08T18:17:33Z" uid="36582" user="JanV" changeset="3066755">
    <nd ref="260118932"/>
    <nd ref="260118978"/>
    <tag k="highway" v="pedestrian"/>
    <tag k="name" v="Korenmolen"/>
  </way>
  <way id="23991310" version="3" timestamp="2011-12-18T19:39:30Z" uid="36080" user="polderrunner" changeset="10149982"/>
  <way id="23991311" version="1" timestamp="2008-04-27T08:42:25Z" uid="8619" user="cetest" changeset="265509">
    <nd ref="260118933"/>
    <nd ref="260118934"/>
    <tag k="created_by" v="JOSM"/>
    <tag k="highway" v="residential"/>
    <tag k="name" v="Korenmolen"/>
    <tag k="oneway" v="true"/>
  </way>
  <way id="23991311" version="2" timestamp="2009-09-27T11:10:50Z" uid="93547" user="Reboli_NL" changeset="2651240">
    <nd ref="260118933"/>
    <nd ref="260118934"/>
    <tag k="highway" v="residential"/>
    <tag k="maxspeed" v="30"/>
    <tag k="name" v="Korenmolen"/>
    <tag k="oneway" v="true"/>
  </way>
  <way id="23991311" version="3" timestamp="2009-11-15T16:15:30Z" uid="105512" user="datalogg" changeset="3123463">
    <nd ref="260118933"/>
    <nd ref="260118934"/>
    <tag k="highway" v="living_street"/>
    <tag k="maxspeed" v="30"/>
    <tag k="name" v="Korenmolen"/>
    <tag k="oneway" v="true"/>
  </way>
  <way id="23991311" version="4" timestamp="2009-11-29T12:38:12Z" uid="36582" user="JanV" changeset="3244911">
    <nd ref="260118933"/>
    <nd ref="260118934"/>
    <tag k="highway" v="living_street"/>
    <tag k="maxspeed" v="30"/>
    <tag k="name" v="Korenmolen"/>
  </way>
  <way id="23991311" version="5" timestamp="2011-12-18T19:39:30Z" uid="36080" user="polderrunner" changeset="10149982"/>
  <way id="23991312" version="1" timestamp="2008-04-27T08:42:25Z" uid="8619" user="cetest" changeset="265509">
    <nd ref="260118936"/>
    <nd ref="260118937"/>
    <tag k="created_by" v="JOSM"/>
    <tag k="highway" v="residential"/>
    <tag k="name" v="Moutmolen"/>
    <tag k="oneway" v="false"/>
  </way>
  <way id="23991312" version="2" timestamp="2009-09-27T11:10:48Z" uid="93547" user="Reboli_NL" changeset="2651240">
    <nd ref="260118936"/>
    <nd ref="260118937"/>
    <tag k="highway" v="residential"/>
    <tag k="maxspeed" v="30"/>
    <tag k="name" v="Moutmolen"/>
    <tag k="oneway" v="false"/>
  </way>
  <way id="23991312" version="3" timestamp="2009-11-15T16:15:30Z" uid="105512" user="datalogg" changeset="3123463">
    <nd ref="260118936"/>
    <nd ref="260118937"/>
    <tag k="highway" v="living_street"/>
    <tag k="maxspeed" v="30"/>
    <tag k="name" v="Moutmolen"/>
    <tag k="oneway" v="false"/>
  </way>
  <way id="23991312" version="4" timestamp="2009-12-17T12:59:17Z" uid="98682" user="Stphane Pchard" changeset="3393659">
    <nd ref="260118936"/>
    <nd ref="260118937"/>
    <tag k="highway" v="living_street"/>
    <tag k="maxspeed" v="30"/>
    <tag k="name" v="Moutmolen"/>
    <tag k="oneway" v="no"/>
  </way>
  <way id="23991312" version="5" timestamp="2011-12-18T19:39:32Z" uid="36080" user="polderrunner" changeset="10149982"/>
  <way id="23991313" version="1" timestamp="2008-04-27T08:42:26Z" uid="8619" user="cetest" changeset="265509">
    <nd ref="260118993"/>
    <nd ref="260118994"/>
    <nd ref="260118995"/>
    <nd ref="260118996"/>
    <nd ref="260118997"/>
    <tag k="created_by" v="JOSM"/>
    <tag k="highway" v="pedestrian"/>
  </way>
  <way id="23991313" version="2" timestamp="2008-04-27T09:06:04Z" uid="8619" user="cetest" changeset="265509">
    <nd ref="260118993"/>
    <nd ref="260118994"/>
    <nd ref="260118995"/>
    <nd ref="260118996"/>
    <nd ref="260118997"/>
    <tag k="created_by" v="JOSM"/>
    <tag k="highway" v="pedestrian"/>
    <tag k="name" v="Molenweide"/>
  </way>
  <way id="23991313" version="3" timestamp="2009-12-01T22:17:27Z" uid="36582" user="JanV" changeset="3268106">
    <nd ref="577380569"/>
    <nd ref="577380567"/>
    <nd ref="577380560"/>
    <nd ref="260118993"/>
    <nd ref="260118994"/>
    <nd ref="260118995"/>
    <nd ref="260118996"/>
    <nd ref="260118997"/>
    <tag k="highway" v="pedestrian"/>
    <tag k="name" v="Molenweide"/>
  </way>
  <way id="23991313" version="4" timestamp="2011-12-18T19:39:30Z" uid="36080" user="polderrunner" changeset="10149982"/>
  <way id="23991314" version="1" timestamp="2008-04-27T08:42:27Z" uid="8619" user="cetest" changeset="265509">
    <nd ref="260118998"/>
    <nd ref="260118993"/>
    <nd ref="260118941"/>
    <tag k="created_by" v="JOSM"/>
  </way>
  <way id="23991314" version="2" timestamp="2008-04-27T09:06:03Z" uid="8619" user="cetest" changeset="265509">
    <nd ref="260118998"/>
    <nd ref="260118993"/>
    <tag k="created_by" v="JOSM"/>
    <tag k="highway" v="residential"/>
    <tag k="name" v="Verfmolen"/>
  </way>
  <way id="23991314" version="3" timestamp="2008-04-27T09:07:13Z" uid="8619" user="cetest" changeset="265509">
    <nd ref="260118998"/>
    <nd ref="260118993"/>
    <tag k="created_by" v="JOSM"/>
    <tag k="highway" v="pedestrian"/>
    <tag k="name" v="Verfmolen"/>
  </way>
  <way id="23991314" version="4" timestamp="2011-12-18T19:39:34Z" uid="36080" user="polderrunner" changeset="10149982"/>
  <way id="23991315" version="1" timestamp="2008-04-27T08:42:28Z" uid="8619" user="cetest" changeset="265509">
    <nd ref="260118928"/>
    <nd ref="260118998"/>
    <tag k="created_by" v="JOSM"/>
    <tag k="highway" v="residential"/>
    <tag k="name" v="Verfmolen"/>
    <tag k="oneway" v="true"/>
  </way>
  <way id="23991315" version="2" timestamp="2009-09-27T11:10:49Z" uid="93547" user="Reboli_NL" changeset="2651240">
    <nd ref="260118928"/>
    <nd ref="260118998"/>
    <tag k="highway" v="residential"/>
    <tag k="maxspeed" v="30"/>
    <tag k="name" v="Verfmolen"/>
    <tag k="oneway" v="true"/>
  </way>
  <way id="23991315" version="3" timestamp="2009-11-29T12:38:12Z" uid="36582" user="JanV" changeset="3244911">
    <nd ref="260118928"/>
    <nd ref="260118998"/>
    <tag k="highway" v="living_street"/>
    <tag k="maxspeed" v="30"/>
    <tag k="name" v="Verfmolen"/>
    <tag k="oneway" v="true"/>
  </way>
  <way id="23991315" version="4" timestamp="2009-11-30T20:35:04Z" uid="36582" user="JanV" changeset="3259410">
    <nd ref="260118928"/>
    <nd ref="260118998"/>
    <tag k="highway" v="living_street"/>
    <tag k="name" v="Verfmolen"/>
    <tag k="oneway" v="true"/>
  </way>
  <way id="23991315" version="5" timestamp="2010-02-03T23:41:11Z" uid="204153" user="mfvl" changeset="3787305">
    <nd ref="260118928"/>
    <nd ref="260118998"/>
    <tag k="highway" v="living_street"/>
    <tag k="name" v="Verfmolen"/>
    <tag k="oneway" v="yes"/>
  </way>
  <way id="23991315" version="6" timestamp="2010-11-14T21:06:47Z" uid="36582" user="JanV" changeset="6371101">
    <nd ref="260118928"/>
    <nd ref="260118998"/>
    <tag k="bicycle:backward" v="yes"/>
    <tag k="highway" v="living_street"/>
    <tag k="name" v="Verfmolen"/>
    <tag k="oneway" v="yes"/>
  </way>
  <way id="23991315" version="7" timestamp="2011-12-18T19:39:34Z" uid="36080" user="polderrunner" changeset="10149982"/>
  <way id="23991316" version="1" timestamp="2008-04-27T08:42:28Z" uid="8619" user="cetest" changeset="265509">
    <nd ref="260118922"/>
    <nd ref="260118999"/>
    <tag k="bridge" v="true"/>
    <tag k="created_by" v="JOSM"/>
    <tag k="highway" v="cycleway"/>
    <tag k="name" v="Oliemolen"/>
  </way>
  <way id="23991316" version="2" timestamp="2010-02-03T23:41:08Z" uid="204153" user="mfvl" changeset="3787305">
    <nd ref="260118922"/>
    <nd ref="260118999"/>
    <tag k="bridge" v="yes"/>
    <tag k="highway" v="cycleway"/>
    <tag k="name" v="Oliemolen"/>
  </way>
  <way id="23991316" version="3" timestamp="2011-12-18T19:39:33Z" uid="36080" user="polderrunner" changeset="10149982"/>
  <way id="23991317" version="1" timestamp="2008-04-27T08:42:29Z" uid="8619" user="cetest" changeset="265509">
    <nd ref="260118942"/>
    <nd ref="260119000"/>
    <tag k="created_by" v="JOSM"/>
    <tag k="highway" v="residential"/>
    <tag k="name" v="Windmolen"/>
  </way>
  <way id="23991317" version="2" timestamp="2009-09-27T11:10:46Z" uid="93547" user="Reboli_NL" changeset="2651240">
    <nd ref="260118942"/>
    <nd ref="260119000"/>
    <tag k="highway" v="residential"/>
    <tag k="maxspeed" v="30"/>
    <tag k="name" v="Windmolen"/>
  </way>
  <way id="23991317" version="3" timestamp="2009-11-29T12:38:12Z" uid="36582" user="JanV" changeset="3244911">
    <nd ref="260118942"/>
    <nd ref="260119000"/>
    <tag k="highway" v="living_street"/>
    <tag k="maxspeed" v="30"/>
    <tag k="name" v="Windmolen"/>
    <tag k="oneway" v="true"/>
  </way>
  <way id="23991317" version="4" timestamp="2009-12-01T22:26:01Z" uid="36582" user="JanV" changeset="3268168">
    <nd ref="260118942"/>
    <nd ref="260119000"/>
    <tag k="highway" v="living_street"/>
    <tag k="name" v="Windmolen"/>
    <tag k="oneway" v="true"/>
  </way>
  <way id="23991317" version="5" timestamp="2010-02-03T23:41:10Z" uid="204153" user="mfvl" changeset="3787305">
    <nd ref="260118942"/>
    <nd ref="260119000"/>
    <tag k="highway" v="living_street"/>
    <tag k="name" v="Windmolen"/>
    <tag k="oneway" v="yes"/>
  </way>
  <way id="23991317" version="6" timestamp="2010-03-27T09:27:23Z" uid="161542" user="textlijn" changeset="4244735">
    <nd ref="260118942"/>
    <nd ref="260119000"/>
    <tag k="highway" v="living_street"/>
    <tag k="name" v="Witmolen"/>
    <tag k="oneway" v="yes"/>
  </way>
  <way id="23991317" version="7" timestamp="2010-11-14T21:06:55Z" uid="36582" user="JanV" changeset="6371101">
    <nd ref="260118942"/>
    <nd ref="260119000"/>
    <tag k="bicycle:backward" v="yes"/>
    <tag k="highway" v="living_street"/>
    <tag k="name" v="Witmolen"/>
    <tag k="oneway" v="yes"/>
  </way>
  <way id="23991317" version="8" timestamp="2011-12-18T19:39:34Z" uid="36080" user="polderrunner" changeset="10149982"/>
  <way id="23991318" version="1" timestamp="2008-04-27T08:42:30Z" uid="8619" user="cetest" changeset="265509">
    <nd ref="260118941"/>
    <nd ref="260119000"/>
    <tag k="created_by" v="JOSM"/>
    <tag k="highway" v="pedestrian"/>
    <tag k="name" v="Windmolen"/>
  </way>
  <way id="23991318" version="2" timestamp="2010-03-27T09:27:23Z" uid="161542" user="textlijn" changeset="4244735">
    <nd ref="260118941"/>
    <nd ref="260119000"/>
    <tag k="highway" v="pedestrian"/>
    <tag k="name" v="Witmolen"/>
  </way>
  <way id="23991318" version="3" timestamp="2011-12-18T19:39:35Z" uid="36080" user="polderrunner" changeset="10149982"/>
  <way id="23991319" version="1" timestamp="2008-04-27T08:42:30Z" uid="8619" user="cetest" changeset="265509">
    <nd ref="260118939"/>
    <nd ref="260118940"/>
    <tag k="created_by" v="JOSM"/>
    <tag k="highway" v="residential"/>
    <tag k="name" v="Volmolen"/>
  </way>
  <way id="23991319" version="2" timestamp="2009-09-27T11:10:47Z" uid="93547" user="Reboli_NL" changeset="2651240">
    <nd ref="260118939"/>
    <nd ref="260118940"/>
    <tag k="highway" v="residential"/>
    <tag k="maxspeed" v="30"/>
    <tag k="name" v="Volmolen"/>
  </way>
  <way id="23991319" version="3" timestamp="2009-11-15T16:15:29Z" uid="105512" user="datalogg" changeset="3123463">
    <nd ref="260118939"/>
    <nd ref="260118940"/>
    <tag k="highway" v="living_street"/>
    <tag k="maxspeed" v="30"/>
    <tag k="name" v="Volmolen"/>
  </way>
  <way id="23991319" version="4" timestamp="2011-12-18T19:39:34Z" uid="36080" user="polderrunner" changeset="10149982"/>
  <way id="23991325" version="20" timestamp="2010-05-01T11:46:16Z" uid="151899" user="Bikeman2000" changeset="4573966">
    <nd ref="250286990"/>
    <nd ref="715215631"/>
    <nd ref="715215632"/>
    <nd ref="285466189"/>
    <nd ref="285466945"/>
    <nd ref="301169922"/>
    <nd ref="652671526"/>
    <nd ref="285465421"/>
    <tag k="name" v="715, U75"/>
    <tag k="railway" v="tram"/>
  </way>
  <way id="23991325" version="21" timestamp="2011-11-11T13:25:14Z" uid="42429" user="FK270673" changeset="9796305">
    <nd ref="250286990"/>
    <nd ref="715215631"/>
    <nd ref="715215632"/>
    <nd ref="285466189"/>
    <nd ref="285466945"/>
    <nd ref="301169922"/>
    <nd ref="652671526"/>
    <nd ref="285465421"/>
    <tag k="electrified" v="contact_line"/>
    <tag k="frequency" v="0"/>
    <tag k="gauge" v="1435"/>
    <tag k="name" v="715, U75"/>
    <tag k="railway" v="tram"/>
    <tag k="voltage" v="750"/>
  </way>
  <way id="23991325" version="22" timestamp="2011-12-18T18:03:33Z" uid="12614" user="rabenkind" changeset="10149120">
    <nd ref="250286990"/>
    <nd ref="1552413015"/>
    <nd ref="1552413018"/>
    <nd ref="285466189"/>
    <nd ref="285466945"/>
    <nd ref="301169922"/>
    <nd ref="652671526"/>
    <nd ref="285465421"/>
    <tag k="electrified" v="contact_line"/>
    <tag k="frequency" v="0"/>
    <tag k="gauge" v="1435"/>
    <tag k="name" v="715, U75"/>
    <tag k="railway" v="tram"/>
    <tag k="voltage" v="750"/>
  </way>
  <way id="23991325" version="23" timestamp="2011-12-20T11:22:17Z" uid="12614" user="rabenkind" changeset="10162652"/>
  <way id="23991545" version="1" timestamp="2008-04-27T08:57:57Z" uid="8619" user="cetest" changeset="265509">
    <nd ref="260121544"/>
    <nd ref="260121559"/>
    <nd ref="260121548"/>
    <nd ref="260121546"/>
    <nd ref="260121545"/>
    <nd ref="260121544"/>
    <tag k="created_by" v="JOSM"/>
    <tag k="natural" v="water"/>
  </way>
  <way id="23991545" version="2" timestamp="2011-11-22T22:07:46Z" uid="48796" user="Ldp" changeset="9914400"/>
  <way id="23991546" version="1" timestamp="2008-04-27T08:57:58Z" uid="8619" user="cetest" changeset="265509">
    <nd ref="260121562"/>
    <nd ref="260121563"/>
    <nd ref="260121564"/>
    <nd ref="260121565"/>
    <nd ref="260121566"/>
    <nd ref="260121569"/>
    <nd ref="260121562"/>
    <tag k="created_by" v="JOSM"/>
    <tag k="natural" v="water"/>
  </way>
  <way id="23991546" version="2" timestamp="2011-12-18T19:39:38Z" uid="36080" user="polderrunner" changeset="10149982"/>
  <way id="23991669" version="1" timestamp="2008-04-27T09:05:49Z" uid="8619" user="cetest" changeset="265509">
    <nd ref="260118938"/>
    <nd ref="260118987"/>
    <tag k="created_by" v="JOSM"/>
    <tag k="highway" v="pedestrian"/>
  </way>
  <way id="23991669" version="2" timestamp="2011-12-18T19:39:36Z" uid="36080" user="polderrunner" changeset="10149982"/>
  <way id="23991670" version="1" timestamp="2008-04-27T09:05:50Z" uid="8619" user="cetest" changeset="265509">
    <nd ref="260118935"/>
    <nd ref="260118988"/>
    <tag k="created_by" v="JOSM"/>
    <tag k="highway" v="pedestrian"/>
  </way>
  <way id="23991670" version="2" timestamp="2011-12-18T19:39:36Z" uid="36080" user="polderrunner" changeset="10149982"/>
  <way id="23991671" version="1" timestamp="2008-04-27T09:05:51Z" uid="8619" user="cetest" changeset="265509">
    <nd ref="260118995"/>
    <nd ref="260118935"/>
    <tag k="created_by" v="JOSM"/>
    <tag k="highway" v="pedestrian"/>
    <tag k="name" v="Molenweide"/>
  </way>
  <way id="23991671" version="2" timestamp="2011-12-18T19:39:31Z" uid="36080" user="polderrunner" changeset="10149982"/>
  <way id="23991672" version="1" timestamp="2008-04-27T09:05:51Z" uid="8619" user="cetest" changeset="265509">
    <nd ref="260118996"/>
    <nd ref="260118932"/>
    <tag k="created_by" v="JOSM"/>
    <tag k="highway" v="pedestrian"/>
    <tag k="name" v="Molenweide"/>
  </way>
  <way id="23991672" version="2" timestamp="2009-12-01T22:10:13Z" uid="36582" user="JanV" changeset="3268055">
    <nd ref="260118932"/>
    <nd ref="260118996"/>
    <tag k="highway" v="pedestrian"/>
    <tag k="name" v="Molenweide"/>
  </way>
  <way id="23991672" version="3" timestamp="2011-12-18T19:39:31Z" uid="36080" user="polderrunner" changeset="10149982"/>
  <way id="23991674" version="1" timestamp="2008-04-27T09:05:52Z" uid="8619" user="cetest" changeset="265509">
    <nd ref="260118994"/>
    <nd ref="260118938"/>
    <tag k="created_by" v="JOSM"/>
    <tag k="highway" v="pedestrian"/>
    <tag k="name" v="Molenweide"/>
  </way>
  <way id="23991674" version="2" timestamp="2011-12-18T19:39:31Z" uid="36080" user="polderrunner" changeset="10149982"/>
  <way id="23991675" version="1" timestamp="2008-04-27T09:05:52Z" uid="8619" user="cetest" changeset="265509">
    <nd ref="260118919"/>
    <nd ref="260118946"/>
    <tag k="bridge" v="true"/>
    <tag k="created_by" v="JOSM"/>
    <tag k="highway" v="residential"/>
    <tag k="name" v="Oliemolen"/>
  </way>
  <way id="23991675" version="2" timestamp="2008-11-28T17:04:58Z" uid="67958" user="West Erop" changeset="805918">
    <nd ref="260118919"/>
    <nd ref="260118946"/>
    <tag k="created_by" v="Potlatch 0.10f"/>
    <tag k="highway" v="residential"/>
    <tag k="name" v="Oliemolen"/>
  </way>
  <way id="23991675" version="3" timestamp="2009-11-15T16:15:30Z" uid="105512" user="datalogg" changeset="3123463">
    <nd ref="260118919"/>
    <nd ref="260118946"/>
    <tag k="highway" v="living_street"/>
    <tag k="name" v="Oliemolen"/>
  </way>
  <way id="23991675" version="4" timestamp="2011-12-18T19:39:33Z" uid="36080" user="polderrunner" changeset="10149982"/>
  <way id="23991676" version="1" timestamp="2008-04-27T09:05:53Z" uid="8619" user="cetest" changeset="265509">
    <nd ref="260118993"/>
    <nd ref="260118941"/>
    <tag k="created_by" v="JOSM"/>
  </way>
  <way id="23991676" version="2" timestamp="2009-11-29T13:06:10Z" uid="36582" user="JanV" changeset="3245145">
    <nd ref="260118993"/>
    <nd ref="260118941"/>
    <tag k="highway" v="pedestrian"/>
    <tag k="name" v="molenweide"/>
  </way>
  <way id="23991676" version="3" timestamp="2009-11-29T13:11:29Z" uid="36582" user="JanV" changeset="3245192">
    <nd ref="260118993"/>
    <nd ref="260118941"/>
    <tag k="highway" v="pedestrian"/>
    <tag k="name" v="Molenweide"/>
  </way>
  <way id="23991676" version="4" timestamp="2009-12-01T22:10:13Z" uid="36582" user="JanV" changeset="3268055">
    <nd ref="577380558"/>
    <nd ref="577380560"/>
    <nd ref="260118993"/>
    <nd ref="260118941"/>
    <nd ref="577380558"/>
    <nd ref="577380556"/>
    <nd ref="577380567"/>
    <nd ref="577380560"/>
    <tag k="highway" v="pedestrian"/>
    <tag k="name" v="Molenweide"/>
  </way>
  <way id="23991676" version="5" timestamp="2009-12-01T22:17:27Z" uid="36582" user="JanV" changeset="3268106">
    <nd ref="577380558"/>
    <nd ref="577380560"/>
    <tag k="highway" v="pedestrian"/>
    <tag k="name" v="Molenweide"/>
  </way>
  <way id="23991676" version="6" timestamp="2011-12-18T19:39:31Z" uid="36080" user="polderrunner" changeset="10149982"/>
  <way id="23991677" version="1" timestamp="2008-04-27T09:05:53Z" uid="8619" user="cetest" changeset="265509">
    <nd ref="260118949"/>
    <nd ref="260122337"/>
    <nd ref="260122338"/>
    <nd ref="260122339"/>
    <nd ref="260122340"/>
    <nd ref="260122341"/>
    <nd ref="260118929"/>
    <tag k="created_by" v="JOSM"/>
    <tag k="highway" v="track"/>
    <tag k="name" v="Molensingel"/>
  </way>
  <way id="23991677" version="2" timestamp="2008-11-20T21:36:18Z" uid="8619" user="cetest" changeset="772510"/>
  <way id="23991678" version="1" timestamp="2008-04-27T09:05:54Z" uid="8619" user="cetest" changeset="265509">
    <nd ref="260118916"/>
    <nd ref="260118945"/>
    <nd ref="260118946"/>
    <nd ref="260118947"/>
    <nd ref="260122342"/>
    <tag k="created_by" v="JOSM"/>
    <tag k="highway" v="footway"/>
  </way>
  <way id="23991678" version="2" timestamp="2012-01-10T11:46:25Z" uid="476789" user="CeesW" changeset="10350571"/>
  <way id="23991679" version="1" timestamp="2008-04-27T09:05:55Z" uid="8619" user="cetest" changeset="265509">
    <nd ref="260122342"/>
    <nd ref="260118921"/>
    <tag k="created_by" v="JOSM"/>
    <tag k="highway" v="pedestrian"/>
    <tag k="name" v="Oliemolen"/>
  </way>
  <way id="23991679" version="2" timestamp="2010-02-01T23:35:18Z" uid="161542" user="textlijn" changeset="3772662">
    <nd ref="260122342"/>
    <nd ref="260118921"/>
    <tag k="highway" v="living_street"/>
    <tag k="maxspeed" v="30"/>
    <tag k="name" v="Oliemolen"/>
  </way>
  <way id="23991679" version="3" timestamp="2011-05-27T09:30:36Z" uid="352940" user="pieleric" changeset="8260529">
    <nd ref="260122342"/>
    <nd ref="1301755236"/>
    <tag k="highway" v="living_street"/>
    <tag k="maxspeed" v="30"/>
    <tag k="name" v="Oliemolen"/>
  </way>
  <way id="23991679" version="4" timestamp="2011-12-18T19:39:33Z" uid="36080" user="polderrunner" changeset="10149982"/>
  <way id="23991925" version="1" timestamp="2008-04-27T09:20:52Z" uid="8619" user="cetest" changeset="265509">
    <nd ref="44796941"/>
    <nd ref="260123501"/>
    <nd ref="44797349"/>
    <nd ref="260123502"/>
    <nd ref="260123507"/>
    <nd ref="44799134"/>
    <nd ref="107974616"/>
    <nd ref="260123508"/>
    <nd ref="260123509"/>
    <nd ref="260123510"/>
    <nd ref="260123511"/>
    <nd ref="260123512"/>
    <tag k="created_by" v="JOSM"/>
    <tag k="highway" v="cycleway"/>
  </way>
  <way id="23991925" version="2" timestamp="2008-11-20T21:31:30Z" uid="8619" user="cetest" changeset="772510">
    <nd ref="44796941"/>
    <nd ref="313396768"/>
    <nd ref="260123501"/>
    <nd ref="44797349"/>
    <nd ref="260123502"/>
    <nd ref="260123507"/>
    <nd ref="44799134"/>
    <nd ref="107974616"/>
    <nd ref="260123508"/>
    <nd ref="260123509"/>
    <nd ref="260123510"/>
    <nd ref="260123511"/>
    <nd ref="313396771"/>
    <nd ref="313396769"/>
    <nd ref="313396777"/>
    <nd ref="260123512"/>
    <tag k="created_by" v="JOSM"/>
    <tag k="highway" v="cycleway"/>
  </way>
  <way id="23991925" version="3" timestamp="2009-11-12T23:41:39Z" uid="161542" user="textlijn" changeset="3102838">
    <nd ref="44796941"/>
    <nd ref="313396768"/>
    <nd ref="260123501"/>
    <nd ref="44797349"/>
    <nd ref="44799134"/>
    <nd ref="107974616"/>
    <nd ref="260123508"/>
    <nd ref="260123509"/>
    <nd ref="260123510"/>
    <nd ref="260123511"/>
    <nd ref="313396771"/>
    <nd ref="313396769"/>
    <nd ref="313396777"/>
    <nd ref="260123512"/>
    <tag k="highway" v="cycleway"/>
  </way>
  <way id="23991925" version="4" timestamp="2010-02-17T18:41:08Z" uid="161542" user="textlijn" changeset="3903137">
    <nd ref="44796941"/>
    <nd ref="313396768"/>
    <nd ref="260123501"/>
    <nd ref="44797349"/>
    <nd ref="44799134"/>
    <nd ref="107974616"/>
    <nd ref="260123508"/>
    <nd ref="260123509"/>
    <nd ref="260123510"/>
    <nd ref="260123511"/>
    <nd ref="643586568"/>
    <nd ref="313396771"/>
    <nd ref="313396769"/>
    <nd ref="313396777"/>
    <nd ref="260123512"/>
    <tag k="highway" v="cycleway"/>
  </way>
  <way id="23991925" version="5" timestamp="2011-07-18T10:28:43Z" uid="476789" user="CeesW" changeset="8756723">
    <nd ref="44796941"/>
    <nd ref="313396768"/>
    <nd ref="1365280056"/>
    <nd ref="260123501"/>
    <nd ref="1365280062"/>
    <nd ref="1365280063"/>
    <nd ref="44797349"/>
    <nd ref="1365280066"/>
    <nd ref="1365280067"/>
    <nd ref="1365280069"/>
    <nd ref="44799134"/>
    <nd ref="1365280075"/>
    <nd ref="1365280072"/>
    <nd ref="107974616"/>
    <nd ref="260123508"/>
    <nd ref="260123509"/>
    <nd ref="260123510"/>
    <nd ref="260123511"/>
    <nd ref="643586568"/>
    <nd ref="313396771"/>
    <nd ref="313396769"/>
    <nd ref="313396777"/>
    <nd ref="260123512"/>
    <tag k="highway" v="cycleway"/>
  </way>
  <way id="23991925" version="6" timestamp="2011-08-26T22:32:48Z" uid="385787" user="Tourepel" changeset="9133801"/>
  <way id="23991926" version="1" timestamp="2008-04-27T09:20:53Z" uid="8619" user="cetest" changeset="265509">
    <nd ref="260123513"/>
    <nd ref="30578411"/>
    <nd ref="30578413"/>
    <nd ref="44799138"/>
    <nd ref="30578295"/>
    <tag k="created_by" v="JOSM"/>
    <tag k="highway" v="cycleway"/>
    <tag k="name" v="Mathilde Wibautpad"/>
  </way>
  <way id="23991926" version="2" timestamp="2009-12-24T21:08:53Z" uid="161542" user="textlijn" changeset="3445069">
    <nd ref="260123513"/>
    <nd ref="30578411"/>
    <nd ref="30578413"/>
    <nd ref="44799138"/>
    <nd ref="599058036"/>
    <nd ref="599058037"/>
    <nd ref="30578295"/>
    <tag k="highway" v="cycleway"/>
    <tag k="name" v="Mathilde Wibautpad"/>
  </way>
  <way id="23991926" version="3" timestamp="2011-02-17T12:19:16Z" uid="352940" user="pieleric" changeset="7312594">
    <nd ref="260123513"/>
    <nd ref="30578411"/>
    <nd ref="44799138"/>
    <nd ref="599058036"/>
    <nd ref="599058037"/>
    <nd ref="30578295"/>
    <tag k="highway" v="cycleway"/>
    <tag k="name" v="Mathilde Wibautpad"/>
  </way>
  <way id="23991926" version="4" timestamp="2011-08-19T21:40:27Z" uid="36080" user="polderrunner" changeset="9069705">
    <nd ref="1404929852"/>
    <nd ref="30578411"/>
    <nd ref="44799138"/>
    <nd ref="599058036"/>
    <nd ref="599058037"/>
    <nd ref="30578295"/>
    <tag k="highway" v="cycleway"/>
    <tag k="name" v="Mathilde Wibautpad"/>
  </way>
  <way id="23991926" version="5" timestamp="2011-12-31T13:38:55Z" uid="476789" user="CeesW" changeset="10254454"/>
  <way id="23991927" version="1" timestamp="2008-04-27T09:20:53Z" uid="8619" user="cetest" changeset="265509">
    <nd ref="44801580"/>
    <nd ref="260123515"/>
    <nd ref="260123516"/>
    <nd ref="260123517"/>
    <nd ref="260123518"/>
    <nd ref="260123520"/>
    <nd ref="260123521"/>
    <nd ref="260123522"/>
    <nd ref="260123523"/>
    <nd ref="260123524"/>
    <tag k="created_by" v="JOSM"/>
    <tag k="highway" v="footway"/>
  </way>
  <way id="23991927" version="2" timestamp="2011-12-30T20:35:03Z" uid="476789" user="CeesW" changeset="10249403"/>
  <way id="23991928" version="1" timestamp="2008-04-27T09:20:54Z" uid="8619" user="cetest" changeset="265509">
    <nd ref="260123524"/>
    <nd ref="260123525"/>
    <tag k="created_by" v="JOSM"/>
    <tag k="highway" v="unclassified"/>
    <tag k="name" v="Vorrinkplein"/>
  </way>
  <way id="23991928" version="2" timestamp="2011-12-30T20:35:02Z" uid="476789" user="CeesW" changeset="10249403"/>
  <way id="23991929" version="1" timestamp="2008-04-27T09:20:54Z" uid="8619" user="cetest" changeset="265509">
    <nd ref="107349790"/>
    <nd ref="44801580"/>
    <tag k="created_by" v="JOSM"/>
    <tag k="highway" v="footway"/>
  </way>
  <way id="23991929" version="2" timestamp="2011-12-30T20:35:04Z" uid="476789" user="CeesW" changeset="10249403"/>
  <way id="23991930" version="1" timestamp="2008-04-27T09:20:55Z" uid="8619" user="cetest" changeset="265509">
    <nd ref="260123526"/>
    <nd ref="260123527"/>
    <nd ref="260123528"/>
    <nd ref="260123529"/>
    <nd ref="260123530"/>
    <nd ref="260123531"/>
    <nd ref="260123532"/>
    <nd ref="260123537"/>
    <nd ref="260123538"/>
    <nd ref="260123541"/>
    <nd ref="260123526"/>
    <tag k="created_by" v="JOSM"/>
    <tag k="natural" v="water"/>
  </way>
  <way id="23991930" version="2" timestamp="2011-11-23T00:16:45Z" uid="48796" user="Ldp" changeset="9914400"/>
  <way id="23991996" version="8" timestamp="2008-07-03T09:57:00Z" uid="36099" user="olli_g" changeset="383841">
    <nd ref="260124222"/>
    <nd ref="260124223"/>
    <nd ref="260124224"/>
    <nd ref="260124225"/>
    <nd ref="260124226"/>
    <nd ref="260124227"/>
    <nd ref="260124228"/>
    <nd ref="260124229"/>
    <nd ref="260124230"/>
    <nd ref="260124575"/>
    <nd ref="260124231"/>
    <nd ref="260124232"/>
    <nd ref="260124233"/>
    <nd ref="260124360"/>
    <nd ref="260124234"/>
    <nd ref="260124235"/>
    <nd ref="260124236"/>
    <nd ref="260124237"/>
    <nd ref="260124222"/>
    <nd ref="260124238"/>
    <nd ref="260124239"/>
    <nd ref="260124240"/>
    <nd ref="260124241"/>
    <nd ref="260124242"/>
    <nd ref="260124243"/>
    <nd ref="127924354"/>
    <nd ref="127924364"/>
    <nd ref="127924370"/>
    <nd ref="127924378"/>
    <nd ref="127924386"/>
    <nd ref="127924394"/>
    <nd ref="127924401"/>
    <nd ref="127924408"/>
    <nd ref="127924414"/>
    <nd ref="127924420"/>
    <nd ref="127924426"/>
    <nd ref="124442638"/>
    <tag k="abutters" v="industrial"/>
    <tag k="created_by" v="Potlatch 0.9c"/>
    <tag k="highway" v="unclassified"/>
    <tag k="name" v="Zum Windkanal"/>
  </way>
  <way id="23991996" version="9" timestamp="2008-09-05T18:39:17Z" changeset="543340">
    <nd ref="260124236"/>
    <nd ref="260124237"/>
    <nd ref="260124222"/>
    <nd ref="260124223"/>
    <nd ref="260124224"/>
    <tag k="abutters" v="industrial"/>
    <tag k="created_by" v="Potlatch 0.9c"/>
    <tag k="highway" v="unclassified"/>
    <tag k="name" v="Zum Windkanal"/>
  </way>
  <way id="23991996" version="10" timestamp="2011-05-24T12:58:15Z" uid="69628" user="vsandre" changeset="8235241">
    <nd ref="260124236"/>
    <nd ref="260124237"/>
    <nd ref="260124222"/>
    <nd ref="260124223"/>
    <nd ref="260124224"/>
    <tag k="highway" v="unclassified"/>
    <tag k="name" v="Zum Windkanal"/>
  </way>
  <way id="23991996" version="11" timestamp="2012-02-29T20:58:42Z" uid="120153" user="ulmtuelp" changeset="10832210">
    <nd ref="260124236"/>
    <nd ref="260124222"/>
    <nd ref="260124224"/>
    <tag k="highway" v="unclassified"/>
    <tag k="name" v="Zum Windkanal"/>
  </way>
</osm>
