<?xml version='1.0' encoding='UTF-8'?>
<osm version="0.6" generator="libosmium/2.20.0">
  <way id="24071602" version="3" timestamp="2008-07-07T00:28:23Z" uid="6975" user="ulfl" changeset="415781">
    <nd ref="261120322"/>
    <nd ref="261120305"/>
    <tag k="bridge" v="yes"/>
    <tag k="highway" v="trunk"/>
    <tag k="lanes" v="2"/>
    <tag k="layer" v="1"/>
    <tag k="name" v="Highway 17"/>
    <tag k="oneway" v="yes"/>
    <tag k="ref" v="17"/>
  </way>
  <way id="24071602" version="4" timestamp="2008-11-29T08:10:08Z" uid="82631" user="Emarsee" changeset="811118">
    <nd ref="261120322"/>
    <nd ref="261120305"/>
    <tag k="bridge" v="yes"/>
    <tag k="created_by" v="Potlatch 0.10f"/>
    <tag k="highway" v="primary"/>
    <tag k="lanes" v="2"/>
    <tag k="layer" v="1"/>
    <tag k="name" v="Highway 17"/>
    <tag k="oneway" v="yes"/>
    <tag k="ref" v="17"/>
  </way>
  <way id="24071602" version="5" timestamp="2008-11-30T19:08:20Z" uid="82631" user="Emarsee" changeset="817005">
    <nd ref="261120322"/>
    <nd ref="261120305"/>
    <tag k="bridge" v="yes"/>
    <tag k="created_by" v="Potlatch 0.10f"/>
    <tag k="highway" v="trunk"/>
    <tag k="lanes" v="2"/>
    <tag k="layer" v="1"/>
    <tag k="name" v="Highway 17"/>
    <tag k="oneway" v="yes"/>
    <tag k="ref" v="17"/>
  </way>
  <way id="24071602" version="6" timestamp="2011-08-23T21:14:34Z" uid="207745" user="NE2" changeset="9107736">
    <nd ref="261120322"/>
    <nd ref="261120305"/>
    <tag k="NHS" v="yes"/>
    <tag k="bridge" v="yes"/>
    <tag k="highway" v="trunk"/>
    <tag k="lanes" v="2"/>
    <tag k="layer" v="1"/>
    <tag k="name" v="Highway 17"/>
    <tag k="oneway" v="yes"/>
    <tag k="ref" v="17"/>
  </way>
  <way id="24071602" version="7" timestamp="2011-09-19T22:05:49Z" uid="355617" user="pnorman" changeset="9347216">
    <nd ref="261120322"/>
    <nd ref="261120305"/>
    <tag k="bridge" v="yes"/>
    <tag k="highway" v="trunk"/>
    <tag k="lanes" v="2"/>
    <tag k="layer" v="1"/>
    <tag k="name" v="Highway 17"/>
    <tag k="oneway" v="yes"/>
    <tag k="ref" v="17"/>
  </way>
  <way id="24071604" version="7" timestamp="2008-07-07T00:28:21Z" uid="6975" user="ulfl" changeset="415781">
    <nd ref="261120312"/>
    <nd ref="258018123"/>
    <nd ref="33365087"/>
    <nd ref="33365088"/>
    <nd ref="33365090"/>
    <nd ref="33365092"/>
    <nd ref="33365094"/>
    <nd ref="33365096"/>
    <nd ref="33365098"/>
    <nd ref="33365100"/>
    <nd ref="33365102"/>
    <nd ref="259646949"/>
    <nd ref="269460144"/>
    <nd ref="266231390"/>
    <nd ref="33365122"/>
    <nd ref="33365124"/>
    <nd ref="33365126"/>
    <nd ref="33365128"/>
    <nd ref="33365134"/>
    <nd ref="265875060"/>
    <nd ref="265875061"/>
    <nd ref="265875062"/>
    <nd ref="265875063"/>
    <nd ref="265875064"/>
    <nd ref="265875065"/>
    <nd ref="265875066"/>
    <nd ref="265875067"/>
    <nd ref="265875068"/>
    <nd ref="265875069"/>
    <nd ref="265875070"/>
    <nd ref="265875071"/>
    <nd ref="265875072"/>
    <nd ref="265875073"/>
    <nd ref="265875074"/>
    <nd ref="265875075"/>
    <nd ref="265875076"/>
    <nd ref="265875077"/>
    <nd ref="265875078"/>
    <nd ref="265875079"/>
    <nd ref="265875080"/>
    <nd ref="265875081"/>
    <nd ref="265875082"/>
    <nd ref="265875083"/>
    <nd ref="265875084"/>
    <nd ref="265875085"/>
    <nd ref="258490808"/>
    <tag k="highway" v="trunk"/>
    <tag k="lanes" v="2"/>
    <tag k="name" v="Highway 17"/>
    <tag k="oneway" v="yes"/>
    <tag k="ref" v="17"/>
  </way>
  <way id="24071604" version="8" timestamp="2008-11-29T08:09:57Z" uid="82631" user="Emarsee" changeset="811118">
    <nd ref="261120312"/>
    <nd ref="258018123"/>
    <nd ref="33365087"/>
    <nd ref="33365088"/>
    <nd ref="33365090"/>
    <nd ref="33365092"/>
    <nd ref="33365094"/>
    <nd ref="33365096"/>
    <nd ref="33365098"/>
    <nd ref="33365100"/>
    <nd ref="33365102"/>
    <nd ref="259646949"/>
    <nd ref="269460144"/>
    <nd ref="266231390"/>
    <nd ref="33365122"/>
    <nd ref="33365124"/>
    <nd ref="33365126"/>
    <nd ref="33365128"/>
    <nd ref="33365134"/>
    <nd ref="265875060"/>
    <nd ref="265875061"/>
    <nd ref="265875062"/>
    <nd ref="265875063"/>
    <nd ref="265875064"/>
    <nd ref="265875065"/>
    <nd ref="265875066"/>
    <nd ref="265875067"/>
    <nd ref="265875068"/>
    <nd ref="265875069"/>
    <nd ref="265875070"/>
    <nd ref="265875071"/>
    <nd ref="265875072"/>
    <nd ref="265875073"/>
    <nd ref="265875074"/>
    <nd ref="265875075"/>
    <nd ref="265875076"/>
    <nd ref="265875077"/>
    <nd ref="265875078"/>
    <nd ref="265875079"/>
    <nd ref="265875080"/>
    <nd ref="265875081"/>
    <nd ref="265875082"/>
    <nd ref="265875083"/>
    <nd ref="265875084"/>
    <nd ref="265875085"/>
    <nd ref="258490808"/>
    <tag k="created_by" v="Potlatch 0.10f"/>
    <tag k="highway" v="secondary"/>
    <tag k="lanes" v="2"/>
    <tag k="name" v="Highway 17"/>
    <tag k="oneway" v="yes"/>
    <tag k="ref" v="17"/>
  </way>
  <way id="24071604" version="9" timestamp="2008-11-29T08:10:04Z" uid="82631" user="Emarsee" changeset="811118">
    <nd ref="261120312"/>
    <nd ref="258018123"/>
    <nd ref="33365087"/>
    <nd ref="33365088"/>
    <nd ref="33365090"/>
    <nd ref="33365092"/>
    <nd ref="33365094"/>
    <nd ref="33365096"/>
    <nd ref="33365098"/>
    <nd ref="33365100"/>
    <nd ref="33365102"/>
    <nd ref="259646949"/>
    <nd ref="269460144"/>
    <nd ref="266231390"/>
    <nd ref="33365122"/>
    <nd ref="33365124"/>
    <nd ref="33365126"/>
    <nd ref="33365128"/>
    <nd ref="33365134"/>
    <nd ref="265875060"/>
    <nd ref="265875061"/>
    <nd ref="265875062"/>
    <nd ref="265875063"/>
    <nd ref="265875064"/>
    <nd ref="265875065"/>
    <nd ref="265875066"/>
    <nd ref="265875067"/>
    <nd ref="265875068"/>
    <nd ref="265875069"/>
    <nd ref="265875070"/>
    <nd ref="265875071"/>
    <nd ref="265875072"/>
    <nd ref="265875073"/>
    <nd ref="265875074"/>
    <nd ref="265875075"/>
    <nd ref="265875076"/>
    <nd ref="265875077"/>
    <nd ref="265875078"/>
    <nd ref="265875079"/>
    <nd ref="265875080"/>
    <nd ref="265875081"/>
    <nd ref="265875082"/>
    <nd ref="265875083"/>
    <nd ref="265875084"/>
    <nd ref="265875085"/>
    <nd ref="258490808"/>
    <tag k="created_by" v="Potlatch 0.10f"/>
    <tag k="highway" v="primary"/>
    <tag k="lanes" v="2"/>
    <tag k="name" v="Highway 17"/>
    <tag k="oneway" v="yes"/>
    <tag k="ref" v="17"/>
  </way>
  <way id="24071604" version="10" timestamp="2008-11-30T19:08:25Z" uid="82631" user="Emarsee" changeset="817005">
    <nd ref="261120312"/>
    <nd ref="258018123"/>
    <nd ref="33365087"/>
    <nd ref="33365088"/>
    <nd ref="33365090"/>
    <nd ref="33365092"/>
    <nd ref="33365094"/>
    <nd ref="33365096"/>
    <nd ref="33365098"/>
    <nd ref="33365100"/>
    <nd ref="33365102"/>
    <nd ref="259646949"/>
    <nd ref="269460144"/>
    <nd ref="266231390"/>
    <nd ref="33365122"/>
    <nd ref="33365124"/>
    <nd ref="33365126"/>
    <nd ref="33365128"/>
    <nd ref="33365134"/>
    <nd ref="265875060"/>
    <nd ref="265875061"/>
    <nd ref="265875062"/>
    <nd ref="265875063"/>
    <nd ref="265875064"/>
    <nd ref="265875065"/>
    <nd ref="265875066"/>
    <nd ref="265875067"/>
    <nd ref="265875068"/>
    <nd ref="265875069"/>
    <nd ref="265875070"/>
    <nd ref="265875071"/>
    <nd ref="265875072"/>
    <nd ref="265875073"/>
    <nd ref="265875074"/>
    <nd ref="265875075"/>
    <nd ref="265875076"/>
    <nd ref="265875077"/>
    <nd ref="265875078"/>
    <nd ref="265875079"/>
    <nd ref="265875080"/>
    <nd ref="265875081"/>
    <nd ref="265875082"/>
    <nd ref="265875083"/>
    <nd ref="265875084"/>
    <nd ref="265875085"/>
    <nd ref="258490808"/>
    <tag k="created_by" v="Potlatch 0.10f"/>
    <tag k="highway" v="trunk"/>
    <tag k="lanes" v="2"/>
    <tag k="name" v="Highway 17"/>
    <tag k="oneway" v="yes"/>
    <tag k="ref" v="17"/>
  </way>
  <way id="24071604" version="11" timestamp="2010-01-18T19:32:53Z" uid="5306" user="Adam Dunn" changeset="3652944">
    <nd ref="261120312"/>
    <nd ref="258018123"/>
    <nd ref="33365087"/>
    <nd ref="33365088"/>
    <nd ref="33365090"/>
    <nd ref="33365092"/>
    <nd ref="33365094"/>
    <nd ref="33365096"/>
    <nd ref="33365098"/>
    <nd ref="33365100"/>
    <nd ref="33365102"/>
    <nd ref="259646949"/>
    <nd ref="269460144"/>
    <nd ref="616381579"/>
    <nd ref="266231390"/>
    <nd ref="33365122"/>
    <nd ref="33365124"/>
    <nd ref="33365126"/>
    <nd ref="33365128"/>
    <nd ref="33365134"/>
    <nd ref="265875060"/>
    <nd ref="265875061"/>
    <nd ref="265875062"/>
    <nd ref="265875063"/>
    <nd ref="265875064"/>
    <nd ref="265875065"/>
    <nd ref="265875066"/>
    <nd ref="265875067"/>
    <nd ref="265875068"/>
    <nd ref="265875069"/>
    <nd ref="265875070"/>
    <nd ref="265875071"/>
    <nd ref="265875072"/>
    <nd ref="265875073"/>
    <nd ref="265875074"/>
    <nd ref="265875075"/>
    <nd ref="265875076"/>
    <nd ref="265875077"/>
    <nd ref="265875078"/>
    <nd ref="265875079"/>
    <nd ref="265875080"/>
    <nd ref="265875081"/>
    <nd ref="265875082"/>
    <nd ref="265875083"/>
    <nd ref="265875084"/>
    <nd ref="265875085"/>
    <nd ref="258490808"/>
    <tag k="highway" v="trunk"/>
    <tag k="lanes" v="2"/>
    <tag k="name" v="Highway 17"/>
    <tag k="oneway" v="yes"/>
    <tag k="ref" v="17"/>
  </way>
  <way id="24071604" version="12" timestamp="2010-03-05T19:50:24Z" uid="143129" user="petersfreeman" changeset="4043886">
    <nd ref="261120312"/>
    <nd ref="258018123"/>
    <nd ref="33365087"/>
    <nd ref="33365088"/>
    <nd ref="33365090"/>
    <nd ref="33365092"/>
    <nd ref="33365094"/>
    <nd ref="33365096"/>
    <nd ref="33365098"/>
    <nd ref="33365100"/>
    <nd ref="33365102"/>
    <nd ref="259646949"/>
    <nd ref="269460144"/>
    <nd ref="616381579"/>
    <nd ref="266231390"/>
    <nd ref="33365122"/>
    <nd ref="33365124"/>
    <nd ref="33365126"/>
    <nd ref="33365128"/>
    <nd ref="660787283"/>
    <nd ref="265875060"/>
    <nd ref="265875061"/>
    <nd ref="265875062"/>
    <nd ref="265875063"/>
    <nd ref="265875064"/>
    <nd ref="265875065"/>
    <nd ref="265875066"/>
    <nd ref="265875067"/>
    <nd ref="265875068"/>
    <nd ref="265875069"/>
    <nd ref="265875070"/>
    <nd ref="265875071"/>
    <nd ref="265875072"/>
    <nd ref="265875073"/>
    <nd ref="265875074"/>
    <nd ref="265875075"/>
    <nd ref="265875076"/>
    <nd ref="265875077"/>
    <nd ref="265875078"/>
    <nd ref="265875079"/>
    <nd ref="265875080"/>
    <nd ref="265875081"/>
    <nd ref="265875082"/>
    <nd ref="265875083"/>
    <nd ref="265875084"/>
    <nd ref="265875085"/>
    <nd ref="258490808"/>
    <tag k="highway" v="trunk"/>
    <tag k="lanes" v="2"/>
    <tag k="name" v="Highway 17"/>
    <tag k="oneway" v="yes"/>
    <tag k="ref" v="17"/>
  </way>
  <way id="24071604" version="13" timestamp="2010-03-05T21:12:48Z" uid="143129" user="petersfreeman" changeset="4044662">
    <nd ref="261120312"/>
    <nd ref="258018123"/>
    <nd ref="33365087"/>
    <nd ref="33365088"/>
    <nd ref="33365090"/>
    <nd ref="33365092"/>
    <nd ref="33365094"/>
    <nd ref="33365096"/>
    <nd ref="33365098"/>
    <nd ref="33365100"/>
    <nd ref="33365102"/>
    <nd ref="259646949"/>
    <nd ref="269460144"/>
    <nd ref="616381579"/>
    <nd ref="266231390"/>
    <nd ref="33365122"/>
    <nd ref="33365124"/>
    <nd ref="33365126"/>
    <nd ref="33365128"/>
    <nd ref="660826500"/>
    <nd ref="660826491"/>
    <tag k="highway" v="trunk"/>
    <tag k="lanes" v="2"/>
    <tag k="name" v="Highway 17"/>
    <tag k="oneway" v="yes"/>
    <tag k="ref" v="17"/>
  </way>
  <way id="24071604" version="14" timestamp="2010-06-24T00:32:07Z" uid="134600" user="klusark" changeset="5062988">
    <nd ref="261120312"/>
    <nd ref="258018123"/>
    <nd ref="33365087"/>
    <nd ref="33365088"/>
    <nd ref="33365090"/>
    <nd ref="33365092"/>
    <nd ref="33365094"/>
    <nd ref="33365096"/>
    <nd ref="33365098"/>
    <nd ref="33365100"/>
    <nd ref="33365102"/>
    <nd ref="786405043"/>
    <nd ref="786405034"/>
    <nd ref="259646949"/>
    <nd ref="786405044"/>
    <nd ref="269460144"/>
    <nd ref="616381579"/>
    <nd ref="266231390"/>
    <nd ref="33365122"/>
    <nd ref="33365124"/>
    <nd ref="33365126"/>
    <nd ref="33365128"/>
    <nd ref="660826500"/>
    <nd ref="660826491"/>
    <tag k="highway" v="trunk"/>
    <tag k="lanes" v="2"/>
    <tag k="name" v="Highway 17"/>
    <tag k="oneway" v="yes"/>
    <tag k="ref" v="17"/>
  </way>
  <way id="24071604" version="15" timestamp="2010-09-11T05:06:48Z" uid="135851" user="alexz" changeset="5746650">
    <nd ref="261120312"/>
    <nd ref="258018123"/>
    <nd ref="33365087"/>
    <nd ref="33365088"/>
    <nd ref="33365090"/>
    <nd ref="33365092"/>
    <nd ref="33365094"/>
    <nd ref="33365096"/>
    <nd ref="33365098"/>
    <nd ref="33365100"/>
    <nd ref="33365102"/>
    <nd ref="786405043"/>
    <nd ref="786405034"/>
    <nd ref="259646949"/>
    <nd ref="786405044"/>
    <nd ref="269460144"/>
    <tag k="highway" v="trunk"/>
    <tag k="lanes" v="2"/>
    <tag k="name" v="Highway 17"/>
    <tag k="oneway" v="yes"/>
    <tag k="ref" v="17"/>
  </way>
  <way id="24071604" version="16" timestamp="2010-09-11T05:11:27Z" uid="135851" user="alexz" changeset="5746650">
    <nd ref="261120312"/>
    <nd ref="258018123"/>
    <nd ref="33365087"/>
    <nd ref="33365088"/>
    <nd ref="33365090"/>
    <nd ref="33365092"/>
    <nd ref="33365094"/>
    <nd ref="33365096"/>
    <nd ref="33365098"/>
    <nd ref="33365100"/>
    <nd ref="33365102"/>
    <nd ref="786405043"/>
    <nd ref="786405034"/>
    <nd ref="259646949"/>
    <nd ref="786405044"/>
    <nd ref="269460144"/>
    <tag k="cycleway" v="lane"/>
    <tag k="highway" v="trunk"/>
    <tag k="lanes" v="2"/>
    <tag k="name" v="Highway 17"/>
    <tag k="oneway" v="yes"/>
    <tag k="ref" v="17"/>
  </way>
  <way id="24071604" version="17" timestamp="2011-08-23T21:14:33Z" uid="207745" user="NE2" changeset="9107736">
    <nd ref="261120312"/>
    <nd ref="258018123"/>
    <nd ref="33365087"/>
    <nd ref="33365088"/>
    <nd ref="33365090"/>
    <nd ref="33365092"/>
    <nd ref="33365094"/>
    <nd ref="33365096"/>
    <nd ref="33365098"/>
    <nd ref="33365100"/>
    <nd ref="33365102"/>
    <nd ref="786405043"/>
    <nd ref="786405034"/>
    <nd ref="259646949"/>
    <nd ref="786405044"/>
    <nd ref="269460144"/>
    <tag k="NHS" v="yes"/>
    <tag k="cycleway" v="lane"/>
    <tag k="highway" v="trunk"/>
    <tag k="lanes" v="2"/>
    <tag k="name" v="Highway 17"/>
    <tag k="oneway" v="yes"/>
    <tag k="ref" v="17"/>
  </way>
  <way id="24071604" version="18" timestamp="2011-09-19T22:05:48Z" uid="355617" user="pnorman" changeset="9347216">
    <nd ref="261120312"/>
    <nd ref="258018123"/>
    <nd ref="33365087"/>
    <nd ref="33365088"/>
    <nd ref="33365090"/>
    <nd ref="33365092"/>
    <nd ref="33365094"/>
    <nd ref="33365096"/>
    <nd ref="33365098"/>
    <nd ref="33365100"/>
    <nd ref="33365102"/>
    <nd ref="786405043"/>
    <nd ref="786405034"/>
    <nd ref="259646949"/>
    <nd ref="786405044"/>
    <nd ref="269460144"/>
    <tag k="cycleway" v="lane"/>
    <tag k="highway" v="trunk"/>
    <tag k="lanes" v="2"/>
    <tag k="name" v="Highway 17"/>
    <tag k="oneway" v="yes"/>
    <tag k="ref" v="17"/>
  </way>
  <way id="24071604" version="19" timestamp="2012-03-26T07:48:26Z" uid="355617" user="pnorman" changeset="11102625">
    <nd ref="261120312"/>
    <nd ref="258018123"/>
    <nd ref="33365087"/>
    <nd ref="33365088"/>
    <nd ref="33365090"/>
    <nd ref="33365092"/>
    <nd ref="33365094"/>
    <nd ref="33365096"/>
    <nd ref="33365098"/>
    <nd ref="33365100"/>
    <nd ref="33365102"/>
    <nd ref="786405043"/>
    <nd ref="786405034"/>
    <nd ref="259646949"/>
    <nd ref="786405044"/>
    <nd ref="269460144"/>
    <tag k="cycleway" v="lane"/>
    <tag k="highway" v="trunk"/>
    <tag k="lanes" v="2"/>
    <tag k="name" v="Highway 17"/>
    <tag k="odbl" v="clean"/>
    <tag k="oneway" v="yes"/>
    <tag k="ref" v="17"/>
  </way>
  <way id="24071606" version="3" timestamp="2008-07-07T00:28:23Z" uid="6975" user="ulfl" changeset="415781">
    <nd ref="261120297"/>
    <nd ref="261120312"/>
    <tag k="bridge" v="yes"/>
    <tag k="highway" v="trunk"/>
    <tag k="lanes" v="2"/>
    <tag k="layer" v="1"/>
    <tag k="name" v="Highway 17"/>
    <tag k="oneway" v="yes"/>
    <tag k="ref" v="17"/>
  </way>
  <way id="24071606" version="4" timestamp="2008-11-29T08:10:12Z" uid="82631" user="Emarsee" changeset="811118">
    <nd ref="261120297"/>
    <nd ref="261120312"/>
    <tag k="bridge" v="yes"/>
    <tag k="created_by" v="Potlatch 0.10f"/>
    <tag k="highway" v="primary"/>
    <tag k="lanes" v="2"/>
    <tag k="layer" v="1"/>
    <tag k="name" v="Highway 17"/>
    <tag k="oneway" v="yes"/>
    <tag k="ref" v="17"/>
  </way>
  <way id="24071606" version="5" timestamp="2008-11-30T19:08:17Z" uid="82631" user="Emarsee" changeset="817005">
    <nd ref="261120297"/>
    <nd ref="261120312"/>
    <tag k="bridge" v="yes"/>
    <tag k="created_by" v="Potlatch 0.10f"/>
    <tag k="highway" v="trunk"/>
    <tag k="lanes" v="2"/>
    <tag k="layer" v="1"/>
    <tag k="name" v="Highway 17"/>
    <tag k="oneway" v="yes"/>
    <tag k="ref" v="17"/>
  </way>
  <way id="24071606" version="6" timestamp="2011-08-23T21:14:33Z" uid="207745" user="NE2" changeset="9107736">
    <nd ref="261120297"/>
    <nd ref="261120312"/>
    <tag k="NHS" v="yes"/>
    <tag k="bridge" v="yes"/>
    <tag k="highway" v="trunk"/>
    <tag k="lanes" v="2"/>
    <tag k="layer" v="1"/>
    <tag k="name" v="Highway 17"/>
    <tag k="oneway" v="yes"/>
    <tag k="ref" v="17"/>
  </way>
  <way id="24071606" version="7" timestamp="2011-09-19T22:05:49Z" uid="355617" user="pnorman" changeset="9347216">
    <nd ref="261120297"/>
    <nd ref="261120312"/>
    <tag k="bridge" v="yes"/>
    <tag k="highway" v="trunk"/>
    <tag k="lanes" v="2"/>
    <tag k="layer" v="1"/>
    <tag k="name" v="Highway 17"/>
    <tag k="oneway" v="yes"/>
    <tag k="ref" v="17"/>
  </way>
  <way id="24071608" version="2" timestamp="2008-07-07T00:28:21Z" uid="6975" user="ulfl" changeset="415781">
    <nd ref="261120305"/>
    <nd ref="258490813"/>
    <nd ref="258490812"/>
    <nd ref="258490805"/>
    <nd ref="258490804"/>
    <nd ref="258490799"/>
    <nd ref="258490802"/>
    <nd ref="258360376"/>
    <nd ref="258360374"/>
    <nd ref="258490783"/>
    <nd ref="258360393"/>
    <nd ref="258360396"/>
    <nd ref="258360395"/>
    <nd ref="258360391"/>
    <nd ref="258360397"/>
    <nd ref="258360400"/>
    <nd ref="258360399"/>
    <nd ref="258360394"/>
    <nd ref="258360387"/>
    <nd ref="258360390"/>
    <nd ref="258360388"/>
    <tag k="highway" v="trunk"/>
    <tag k="lanes" v="2"/>
    <tag k="name" v="Highway 17"/>
    <tag k="oneway" v="yes"/>
    <tag k="ref" v="17"/>
  </way>
  <way id="24071608" version="3" timestamp="2008-08-24T16:49:52Z" uid="6009" user="CoreyBurger" changeset="388713">
    <nd ref="261120305"/>
    <nd ref="258490813"/>
    <nd ref="258490812"/>
    <nd ref="258490805"/>
    <nd ref="258490804"/>
    <nd ref="258490799"/>
    <nd ref="258490802"/>
    <nd ref="258360376"/>
    <nd ref="258360374"/>
    <nd ref="258490783"/>
    <nd ref="258360393"/>
    <nd ref="258360396"/>
    <nd ref="258360395"/>
    <nd ref="258360391"/>
    <nd ref="258360397"/>
    <nd ref="258360400"/>
    <nd ref="258360399"/>
    <nd ref="258360394"/>
    <nd ref="258360387"/>
    <nd ref="258360390"/>
    <nd ref="258360388"/>
    <tag k="created_by" v="Potlatch 0.10b"/>
    <tag k="highway" v="trunk"/>
    <tag k="lanes" v="2"/>
    <tag k="name" v="Highway 17"/>
    <tag k="oneway" v="yes"/>
    <tag k="ref" v="17"/>
  </way>
  <way id="24071608" version="4" timestamp="2008-08-24T16:50:19Z" uid="6009" user="CoreyBurger" changeset="388713">
    <nd ref="261120305"/>
    <nd ref="258490813"/>
    <nd ref="258490812"/>
    <nd ref="258490805"/>
    <nd ref="258490804"/>
    <nd ref="258490799"/>
    <nd ref="258490802"/>
    <nd ref="258360376"/>
    <nd ref="258360374"/>
    <nd ref="258490783"/>
    <nd ref="258360393"/>
    <nd ref="258360396"/>
    <nd ref="258360395"/>
    <nd ref="258360391"/>
    <nd ref="258360397"/>
    <nd ref="258360400"/>
    <nd ref="258360399"/>
    <nd ref="258360394"/>
    <nd ref="258360387"/>
    <nd ref="258360390"/>
    <nd ref="258360388"/>
    <tag k="created_by" v="Potlatch 0.10b"/>
    <tag k="highway" v="trunk"/>
    <tag k="lanes" v="2"/>
    <tag k="name" v="Highway 17"/>
    <tag k="oneway" v="yes"/>
    <tag k="ref" v="17"/>
  </way>
  <way id="24071608" version="5" timestamp="2008-11-29T08:08:50Z" uid="82631" user="Emarsee" changeset="811118">
    <nd ref="261120305"/>
    <nd ref="258490813"/>
    <nd ref="258490812"/>
    <nd ref="258490805"/>
    <nd ref="258490804"/>
    <nd ref="258490799"/>
    <nd ref="258490802"/>
    <nd ref="258360376"/>
    <nd ref="258360374"/>
    <nd ref="258490783"/>
    <nd ref="258360393"/>
    <nd ref="258360396"/>
    <nd ref="258360395"/>
    <nd ref="258360391"/>
    <nd ref="258360397"/>
    <nd ref="258360400"/>
    <nd ref="258360399"/>
    <nd ref="258360394"/>
    <nd ref="258360387"/>
    <nd ref="258360390"/>
    <nd ref="258360388"/>
    <tag k="created_by" v="Potlatch 0.10f"/>
    <tag k="highway" v="primary"/>
    <tag k="lanes" v="2"/>
    <tag k="name" v="Highway 17"/>
    <tag k="oneway" v="yes"/>
    <tag k="ref" v="17"/>
  </way>
  <way id="24071608" version="6" timestamp="2008-11-30T19:06:17Z" uid="82631" user="Emarsee" changeset="817005">
    <nd ref="261120305"/>
    <nd ref="258490813"/>
    <nd ref="258490812"/>
    <nd ref="258490805"/>
    <nd ref="258490804"/>
    <nd ref="258490799"/>
    <nd ref="258490802"/>
    <nd ref="258360376"/>
    <nd ref="258360374"/>
    <nd ref="258490783"/>
    <nd ref="258360393"/>
    <nd ref="258360396"/>
    <nd ref="258360395"/>
    <nd ref="258360391"/>
    <nd ref="258360397"/>
    <nd ref="258360400"/>
    <nd ref="258360399"/>
    <nd ref="258360394"/>
    <nd ref="258360387"/>
    <nd ref="258360390"/>
    <nd ref="258360388"/>
    <tag k="created_by" v="Potlatch 0.10f"/>
    <tag k="highway" v="trunk"/>
    <tag k="lanes" v="2"/>
    <tag k="name" v="Highway 17"/>
    <tag k="oneway" v="yes"/>
    <tag k="ref" v="17"/>
  </way>
  <way id="24071608" version="7" timestamp="2009-03-29T02:31:15Z" uid="92286" user="Paul Johnson" changeset="866611">
    <nd ref="261120305"/>
    <nd ref="264124759"/>
    <nd ref="258490813"/>
    <nd ref="258490812"/>
    <nd ref="258490805"/>
    <nd ref="258490804"/>
    <nd ref="258490799"/>
    <nd ref="258490802"/>
    <nd ref="258360376"/>
    <nd ref="258360374"/>
    <nd ref="258490783"/>
    <nd ref="258360393"/>
    <nd ref="258360396"/>
    <nd ref="258360395"/>
    <nd ref="258360391"/>
    <nd ref="258360397"/>
    <nd ref="258360400"/>
    <nd ref="258360399"/>
    <nd ref="258360394"/>
    <nd ref="258360387"/>
    <nd ref="258360390"/>
    <nd ref="258360388"/>
    <tag k="created_by" v="Potlatch 0.10f"/>
    <tag k="highway" v="trunk"/>
    <tag k="lanes" v="2"/>
    <tag k="name" v="Highway 17"/>
    <tag k="oneway" v="yes"/>
    <tag k="ref" v="17"/>
  </way>
  <way id="24071608" version="8" timestamp="2009-05-07T06:38:05Z" uid="92286" user="Paul Johnson" changeset="1103970">
    <nd ref="261120305"/>
    <nd ref="264124759"/>
    <nd ref="258490813"/>
    <nd ref="258490812"/>
    <nd ref="258490805"/>
    <nd ref="258490804"/>
    <nd ref="258490799"/>
    <nd ref="258490802"/>
    <nd ref="258360376"/>
    <nd ref="258360374"/>
    <nd ref="258490783"/>
    <nd ref="258360393"/>
    <nd ref="258360396"/>
    <nd ref="258360395"/>
    <nd ref="258360391"/>
    <nd ref="258360397"/>
    <nd ref="258360400"/>
    <nd ref="258360399"/>
    <nd ref="258360394"/>
    <nd ref="258360387"/>
    <nd ref="258360390"/>
    <nd ref="258360388"/>
    <tag k="created_by" v="Potlatch 0.10f"/>
    <tag k="highway" v="trunk"/>
    <tag k="lanes" v="2"/>
    <tag k="name" v="British Columbia Highway 17"/>
    <tag k="oneway" v="yes"/>
    <tag k="ref" v="17"/>
  </way>
  <way id="24071608" version="9" timestamp="2010-01-29T19:34:23Z" uid="5306" user="Adam Dunn" changeset="3745794">
    <nd ref="261120305"/>
    <nd ref="264124759"/>
    <nd ref="258490813"/>
    <nd ref="258490812"/>
    <nd ref="258490805"/>
    <nd ref="258490804"/>
    <nd ref="258490799"/>
    <nd ref="258490802"/>
    <nd ref="622565945"/>
    <nd ref="258360376"/>
    <nd ref="258360374"/>
    <nd ref="258490783"/>
    <nd ref="258360393"/>
    <nd ref="258360396"/>
    <nd ref="258360395"/>
    <nd ref="258360391"/>
    <nd ref="258360397"/>
    <nd ref="258360400"/>
    <nd ref="258360399"/>
    <nd ref="258360394"/>
    <nd ref="258360387"/>
    <nd ref="258360390"/>
    <nd ref="258360388"/>
    <tag k="highway" v="trunk"/>
    <tag k="lanes" v="2"/>
    <tag k="name" v="British Columbia Highway 17"/>
    <tag k="oneway" v="yes"/>
    <tag k="ref" v="17"/>
  </way>
  <way id="24071608" version="10" timestamp="2010-06-11T05:47:59Z" uid="293149" user="Homsar123" changeset="4959818">
    <nd ref="261120305"/>
    <nd ref="264124759"/>
    <nd ref="258490813"/>
    <nd ref="258490812"/>
    <nd ref="258490805"/>
    <nd ref="258490804"/>
    <nd ref="258490799"/>
    <nd ref="769000664"/>
    <nd ref="258490802"/>
    <nd ref="622565945"/>
    <nd ref="258360376"/>
    <nd ref="258360374"/>
    <nd ref="258490783"/>
    <nd ref="258360393"/>
    <nd ref="258360396"/>
    <nd ref="258360395"/>
    <nd ref="258360391"/>
    <nd ref="258360397"/>
    <nd ref="258360400"/>
    <nd ref="258360399"/>
    <nd ref="258360394"/>
    <nd ref="258360387"/>
    <nd ref="258360390"/>
    <nd ref="258360388"/>
    <tag k="highway" v="trunk"/>
    <tag k="lanes" v="2"/>
    <tag k="name" v="British Columbia Highway 17"/>
    <tag k="oneway" v="yes"/>
    <tag k="ref" v="17"/>
  </way>
  <way id="24071608" version="11" timestamp="2010-06-16T05:30:46Z" uid="134600" user="klusark" changeset="4997574">
    <nd ref="261120305"/>
    <nd ref="264124759"/>
    <nd ref="258490813"/>
    <nd ref="258490812"/>
    <nd ref="258490805"/>
    <nd ref="258490804"/>
    <nd ref="258490799"/>
    <nd ref="769000664"/>
    <nd ref="258490802"/>
    <nd ref="622565945"/>
    <nd ref="258360376"/>
    <nd ref="258360374"/>
    <nd ref="773453175"/>
    <tag k="highway" v="trunk"/>
    <tag k="lanes" v="2"/>
    <tag k="name" v="British Columbia Highway 17"/>
    <tag k="oneway" v="yes"/>
    <tag k="ref" v="17"/>
  </way>
  <way id="24071608" version="12" timestamp="2010-09-11T05:11:29Z" uid="135851" user="alexz" changeset="5746650">
    <nd ref="261120305"/>
    <nd ref="264124759"/>
    <nd ref="258490813"/>
    <nd ref="258490812"/>
    <nd ref="258490805"/>
    <nd ref="258490804"/>
    <nd ref="258490799"/>
    <nd ref="769000664"/>
    <nd ref="258490802"/>
    <nd ref="622565945"/>
    <tag k="cycleway" v="lane"/>
    <tag k="highway" v="trunk"/>
    <tag k="lanes" v="2"/>
    <tag k="name" v="British Columbia Highway 17"/>
    <tag k="oneway" v="yes"/>
    <tag k="ref" v="17"/>
  </way>
  <way id="24071608" version="13" timestamp="2010-11-26T07:36:23Z" uid="135851" user="alexz" changeset="6459763">
    <nd ref="261120305"/>
    <nd ref="264124759"/>
    <nd ref="258490813"/>
    <nd ref="1005046596"/>
    <nd ref="258490812"/>
    <nd ref="258490805"/>
    <nd ref="258490804"/>
    <nd ref="258490799"/>
    <nd ref="769000664"/>
    <nd ref="258490802"/>
    <nd ref="622565945"/>
    <tag k="cycleway" v="lane"/>
    <tag k="highway" v="trunk"/>
    <tag k="lanes" v="2"/>
    <tag k="name" v="British Columbia Highway 17"/>
    <tag k="oneway" v="yes"/>
    <tag k="ref" v="17"/>
  </way>
  <way id="24071608" version="14" timestamp="2011-08-23T21:08:34Z" uid="207745" user="NE2" changeset="9107736">
    <nd ref="261120305"/>
    <nd ref="264124759"/>
    <nd ref="258490813"/>
    <nd ref="1005046596"/>
    <nd ref="258490812"/>
    <nd ref="258490805"/>
    <nd ref="258490804"/>
    <nd ref="258490799"/>
    <nd ref="769000664"/>
    <nd ref="258490802"/>
    <nd ref="622565945"/>
    <tag k="NHS" v="yes"/>
    <tag k="cycleway" v="lane"/>
    <tag k="highway" v="trunk"/>
    <tag k="lanes" v="2"/>
    <tag k="name" v="British Columbia Highway 17"/>
    <tag k="oneway" v="yes"/>
    <tag k="ref" v="17"/>
  </way>
  <way id="24071608" version="15" timestamp="2011-09-19T21:58:24Z" uid="355617" user="pnorman" changeset="9347216">
    <nd ref="261120305"/>
    <nd ref="264124759"/>
    <nd ref="258490813"/>
    <nd ref="1005046596"/>
    <nd ref="258490812"/>
    <nd ref="258490805"/>
    <nd ref="258490804"/>
    <nd ref="258490799"/>
    <nd ref="769000664"/>
    <nd ref="258490802"/>
    <nd ref="622565945"/>
    <tag k="cycleway" v="lane"/>
    <tag k="highway" v="trunk"/>
    <tag k="lanes" v="2"/>
    <tag k="name" v="British Columbia Highway 17"/>
    <tag k="oneway" v="yes"/>
    <tag k="ref" v="17"/>
  </way>
</osm>
