<?xml version='1.0' encoding='UTF-8'?>
<osm version="0.6" generator="libosmium/2.20.0">
  <way id="24088676" version="1" timestamp="2008-05-01T22:23:37Z" uid="34891" user="dirkolus" changeset="308707">
    <nd ref="261210035"/>
    <nd ref="261210036"/>
    <tag k="created_by" v="Potlatch 0.8c"/>
    <tag k="highway" v="residential"/>
    <tag k="name" v="Tessiner Straße"/>
  </way>
  <way id="24088676" version="2" timestamp="2008-05-01T22:25:26Z" uid="34891" user="dirkolus" changeset="308707">
    <nd ref="261210035"/>
    <nd ref="261210913"/>
    <nd ref="261210036"/>
    <tag k="created_by" v="Potlatch 0.8c"/>
    <tag k="highway" v="residential"/>
    <tag k="name" v="Tessiner Straße"/>
  </way>
  <way id="24088676" version="3" timestamp="2008-05-01T22:25:51Z" uid="34891" user="dirkolus" changeset="308707">
    <nd ref="261210035"/>
    <nd ref="261211212"/>
    <nd ref="261210913"/>
    <nd ref="261210036"/>
    <tag k="created_by" v="Potlatch 0.8c"/>
    <tag k="highway" v="residential"/>
    <tag k="name" v="Tessiner Straße"/>
  </way>
  <way id="24088676" version="4" timestamp="2008-05-08T17:47:05Z" uid="36809" user="pfoten_weg_!_" changeset="366018">
    <nd ref="262845258"/>
    <nd ref="261211212"/>
    <nd ref="261210913"/>
    <nd ref="261210036"/>
    <tag k="created_by" v="Potlatch 0.9"/>
    <tag k="highway" v="residential"/>
    <tag k="name" v="Tessiner Straße"/>
  </way>
  <way id="24088676" version="5" timestamp="2008-05-08T17:49:20Z" uid="36809" user="pfoten_weg_!_" changeset="366018">
    <nd ref="262845258"/>
    <nd ref="261211212"/>
    <nd ref="262845662"/>
    <nd ref="261210913"/>
    <nd ref="261210036"/>
    <tag k="created_by" v="Potlatch 0.9"/>
    <tag k="highway" v="residential"/>
    <tag k="name" v="Tessiner Straße"/>
  </way>
  <way id="24088676" version="6" timestamp="2008-10-01T02:09:25Z" uid="36809" user="pfoten_weg_!_" changeset="5644">
    <nd ref="262845258"/>
    <nd ref="261211212"/>
    <nd ref="262845662"/>
    <nd ref="261210913"/>
    <nd ref="261210036"/>
    <tag k="created_by" v="RambaZamba"/>
    <tag k="highway" v="residential"/>
    <tag k="name" v="Tessiner Straße"/>
  </way>
  <way id="24088676" version="7" timestamp="2009-09-12T21:10:30Z" uid="156995" user="HampelZamba" changeset="2462871">
    <nd ref="262845258"/>
    <nd ref="261211212"/>
    <nd ref="262845662"/>
    <nd ref="261210913"/>
    <nd ref="261210036"/>
    <tag k="highway" v="residential"/>
    <tag k="name" v="Tessiner Straße"/>
  </way>
  <way id="24088676" version="8" timestamp="2009-09-29T01:16:14Z" uid="36809" user="pfoten_weg_!_" changeset="2671973">
    <nd ref="262845258"/>
    <nd ref="261211212"/>
    <nd ref="262845662"/>
    <nd ref="261210913"/>
    <nd ref="261210036"/>
    <tag k="highway" v="residential"/>
    <tag k="name" v="Tessiner Straße"/>
  </way>
  <way id="24088794" version="1" timestamp="2008-05-01T22:25:01Z" uid="34891" user="dirkolus" changeset="308707">
    <nd ref="261210591"/>
    <nd ref="261210036"/>
    <nd ref="261210593"/>
    <tag k="created_by" v="Potlatch 0.8c"/>
    <tag k="highway" v="residential"/>
    <tag k="name" v="Bellinzonastraße"/>
  </way>
  <way id="24088794" version="2" timestamp="2008-05-08T17:51:12Z" uid="36809" user="pfoten_weg_!_" changeset="366018">
    <nd ref="261210591"/>
    <nd ref="261210036"/>
    <nd ref="261210593"/>
    <tag k="created_by" v="Potlatch 0.9"/>
    <tag k="highway" v="residential"/>
    <tag k="name" v="Bellinzonastraße"/>
  </way>
  <way id="24088794" version="3" timestamp="2008-05-08T17:51:55Z" uid="36809" user="pfoten_weg_!_" changeset="366018">
    <nd ref="261210591"/>
    <nd ref="261210036"/>
    <nd ref="261210593"/>
    <tag k="created_by" v="Potlatch 0.9"/>
    <tag k="highway" v="residential"/>
    <tag k="name" v="Bellinzonastraße"/>
  </way>
  <way id="24088794" version="4" timestamp="2008-06-27T11:34:41Z" uid="37850" user="mawis" changeset="310325">
    <nd ref="273888139"/>
    <nd ref="261210036"/>
    <nd ref="261210593"/>
    <tag k="created_by" v="Potlatch 0.9"/>
    <tag k="highway" v="residential"/>
    <tag k="name" v="Bellinzonastraße"/>
  </way>
  <way id="24088794" version="5" timestamp="2008-09-20T03:59:44Z" uid="36809" user="pfoten_weg_!_" changeset="670006">
    <nd ref="273888139"/>
    <nd ref="261210036"/>
    <nd ref="261210593"/>
    <tag k="created_by" v="RambaZamba"/>
    <tag k="highway" v="residential"/>
    <tag k="name" v="Bellinzonastraße"/>
  </way>
  <way id="24088794" version="6" timestamp="2008-10-01T02:07:30Z" uid="36809" user="pfoten_weg_!_" changeset="5644">
    <nd ref="273888139"/>
    <nd ref="261210036"/>
    <nd ref="261210593"/>
    <tag k="created_by" v="RambaZamba"/>
    <tag k="highway" v="residential"/>
    <tag k="name" v="Bellinzonastraße"/>
  </way>
  <way id="24088794" version="7" timestamp="2009-09-12T21:10:30Z" uid="156995" user="HampelZamba" changeset="2462871">
    <nd ref="273888139"/>
    <nd ref="261210036"/>
    <nd ref="261210593"/>
    <tag k="highway" v="residential"/>
    <tag k="name" v="Bellinzonastraße"/>
  </way>
  <way id="24088794" version="8" timestamp="2009-09-29T01:16:12Z" uid="36809" user="pfoten_weg_!_" changeset="2671973">
    <nd ref="273888139"/>
    <nd ref="261210036"/>
    <nd ref="261210593"/>
    <tag k="highway" v="residential"/>
    <tag k="name" v="Bellinzonastraße"/>
  </way>
  <way id="24088794" version="9" timestamp="2011-11-17T08:27:55Z" uid="554744" user="Catweazle2011" changeset="9851984">
    <nd ref="273888139"/>
    <nd ref="261210036"/>
    <nd ref="1506040976"/>
    <nd ref="261210593"/>
    <tag k="highway" v="residential"/>
    <tag k="name" v="Bellinzonastraße"/>
  </way>
  <way id="24088857" version="1" timestamp="2008-05-01T22:25:26Z" uid="34891" user="dirkolus" changeset="308707">
    <nd ref="261210912"/>
    <nd ref="261210913"/>
    <tag k="created_by" v="Potlatch 0.8c"/>
    <tag k="highway" v="residential"/>
    <tag k="name" v="Zuger Straße"/>
  </way>
  <way id="24088857" version="2" timestamp="2008-05-08T17:48:38Z" uid="36809" user="pfoten_weg_!_" changeset="366018">
    <nd ref="261210912"/>
    <nd ref="262845479"/>
    <nd ref="261210913"/>
    <tag k="created_by" v="Potlatch 0.9"/>
    <tag k="highway" v="residential"/>
    <tag k="name" v="Zuger Straße"/>
  </way>
  <way id="24088857" version="3" timestamp="2008-05-08T17:49:05Z" uid="36809" user="pfoten_weg_!_" changeset="366018">
    <nd ref="261210912"/>
    <nd ref="262845563"/>
    <nd ref="262845479"/>
    <nd ref="261210913"/>
    <tag k="created_by" v="Potlatch 0.9"/>
    <tag k="highway" v="residential"/>
    <tag k="name" v="Zuger Straße"/>
  </way>
  <way id="24088857" version="4" timestamp="2008-10-01T02:04:57Z" uid="36809" user="pfoten_weg_!_" changeset="5644">
    <nd ref="261210912"/>
    <nd ref="262845563"/>
    <nd ref="262845479"/>
    <nd ref="261210913"/>
    <tag k="created_by" v="RambaZamba"/>
    <tag k="highway" v="residential"/>
    <tag k="name" v="Zuger Straße"/>
  </way>
  <way id="24088857" version="5" timestamp="2009-04-23T21:03:33Z" uid="118197" user="JosmJo" changeset="919551">
    <nd ref="261210912"/>
    <nd ref="262845563"/>
    <nd ref="262845479"/>
    <nd ref="261210913"/>
    <tag k="created_by" v="RambaZamba"/>
    <tag k="highway" v="residential"/>
    <tag k="name" v="Zuger Straße"/>
  </way>
  <way id="24088857" version="6" timestamp="2009-09-12T21:10:30Z" uid="156995" user="HampelZamba" changeset="2462871">
    <nd ref="261210912"/>
    <nd ref="262845563"/>
    <nd ref="262845479"/>
    <nd ref="261210913"/>
    <tag k="highway" v="residential"/>
    <tag k="name" v="Zuger Straße"/>
  </way>
  <way id="24088857" version="7" timestamp="2009-09-29T01:16:08Z" uid="36809" user="pfoten_weg_!_" changeset="2671973">
    <nd ref="261210912"/>
    <nd ref="262845563"/>
    <nd ref="262845479"/>
    <nd ref="261210913"/>
    <tag k="highway" v="residential"/>
    <tag k="name" v="Zuger Straße"/>
  </way>
  <way id="24088871" version="8" timestamp="2010-08-18T06:54:51Z" uid="4467" user="Rosscoe" changeset="5523778">
    <nd ref="345513528"/>
    <nd ref="261211004"/>
    <nd ref="261211005"/>
    <nd ref="276588951"/>
    <nd ref="261211006"/>
    <nd ref="862988850"/>
    <nd ref="261136246"/>
    <nd ref="261194649"/>
    <tag k="highway" v="tertiary"/>
    <tag k="name" v="S Blue Island Avenue"/>
    <tag k="tiger:cfcc" v="A41"/>
    <tag k="tiger:county" v="Cook, IL"/>
    <tag k="tiger:name_base" v="Blue Island"/>
    <tag k="tiger:name_direction_prefix" v="S"/>
    <tag k="tiger:name_type" v="Ave"/>
    <tag k="tiger:reviewed" v="no"/>
    <tag k="tiger:separated" v="no"/>
    <tag k="tiger:source" v="tiger_import_dch_v0.6_20070809"/>
    <tag k="tiger:tlid" v="111803392:111803393:111803408; 112383575:111802941:111802943:111803411:111803002:111803003:111802998:112383570:111802978:111890174:111890175:111802981:111802989:111802999"/>
    <tag k="tiger:upload_uuid" v="bulk_upload.pl-ee310570-36cc-43bc-bc7b-aff94618acaf"/>
    <tag k="tiger:zip_left" v="60608"/>
    <tag k="tiger:zip_right" v="60608"/>
  </way>
  <way id="24088871" version="9" timestamp="2012-01-03T00:42:15Z" uid="128470" user="vkungys" changeset="10277612">
    <nd ref="345513528"/>
    <nd ref="261211004"/>
    <nd ref="261211005"/>
    <tag k="cycleway" v="lane"/>
    <tag k="highway" v="tertiary"/>
    <tag k="name" v="S Blue Island Avenue"/>
    <tag k="tiger:cfcc" v="A41"/>
    <tag k="tiger:county" v="Cook, IL"/>
    <tag k="tiger:name_base" v="Blue Island"/>
    <tag k="tiger:name_direction_prefix" v="S"/>
    <tag k="tiger:name_type" v="Ave"/>
    <tag k="tiger:reviewed" v="no"/>
    <tag k="tiger:separated" v="no"/>
    <tag k="tiger:source" v="tiger_import_dch_v0.6_20070809"/>
    <tag k="tiger:tlid" v="111803392:111803393:111803408; 112383575:111802941:111802943:111803411:111803002:111803003:111802998:112383570:111802978:111890174:111890175:111802981:111802989:111802999"/>
    <tag k="tiger:upload_uuid" v="bulk_upload.pl-ee310570-36cc-43bc-bc7b-aff94618acaf"/>
    <tag k="tiger:zip_left" v="60608"/>
    <tag k="tiger:zip_right" v="60608"/>
  </way>
  <way id="24088907" version="1" timestamp="2008-05-01T22:25:51Z" uid="34891" user="dirkolus" changeset="308707">
    <nd ref="261211210"/>
    <nd ref="261211211"/>
    <nd ref="261211212"/>
    <tag k="created_by" v="Potlatch 0.8c"/>
    <tag k="highway" v="residential"/>
    <tag k="name" v="Unterwaldenstraße"/>
  </way>
  <way id="24088907" version="2" timestamp="2008-05-01T22:26:13Z" uid="34891" user="dirkolus" changeset="308707">
    <nd ref="261211210"/>
    <nd ref="261211211"/>
    <nd ref="261211442"/>
    <nd ref="261211212"/>
    <tag k="created_by" v="Potlatch 0.8c"/>
    <tag k="highway" v="residential"/>
    <tag k="name" v="Unterwaldenstraße"/>
  </way>
  <way id="24088907" version="3" timestamp="2008-05-08T17:49:05Z" uid="36809" user="pfoten_weg_!_" changeset="366018">
    <nd ref="262845563"/>
    <nd ref="261211211"/>
    <nd ref="261211442"/>
    <nd ref="261211212"/>
    <tag k="created_by" v="Potlatch 0.9"/>
    <tag k="highway" v="residential"/>
    <tag k="name" v="Unterwaldenstraße"/>
  </way>
  <way id="24088907" version="4" timestamp="2008-10-01T02:05:50Z" uid="36809" user="pfoten_weg_!_" changeset="5644">
    <nd ref="262845563"/>
    <nd ref="261211211"/>
    <nd ref="261211442"/>
    <nd ref="261211212"/>
    <tag k="created_by" v="RambaZamba"/>
    <tag k="highway" v="residential"/>
    <tag k="name" v="Unterwaldenstraße"/>
  </way>
  <way id="24088907" version="5" timestamp="2009-09-12T21:10:30Z" uid="156995" user="HampelZamba" changeset="2462871">
    <nd ref="262845563"/>
    <nd ref="261211211"/>
    <nd ref="261211442"/>
    <nd ref="261211212"/>
    <tag k="highway" v="residential"/>
    <tag k="name" v="Unterwaldenstraße"/>
  </way>
  <way id="24088907" version="6" timestamp="2009-09-29T01:16:09Z" uid="36809" user="pfoten_weg_!_" changeset="2671973">
    <nd ref="262845563"/>
    <nd ref="261211211"/>
    <nd ref="261211442"/>
    <nd ref="261211212"/>
    <tag k="highway" v="residential"/>
    <tag k="name" v="Unterwaldenstraße"/>
  </way>
  <way id="24088972" version="1" timestamp="2008-05-01T22:26:13Z" uid="34891" user="dirkolus" changeset="308707">
    <nd ref="261211441"/>
    <nd ref="261211442"/>
    <tag k="created_by" v="Potlatch 0.8c"/>
    <tag k="highway" v="residential"/>
    <tag k="name" v="Glarusstraße"/>
  </way>
  <way id="24088972" version="2" timestamp="2008-05-08T17:48:38Z" uid="36809" user="pfoten_weg_!_" changeset="366018">
    <nd ref="261211442"/>
    <nd ref="262845479"/>
    <tag k="created_by" v="Potlatch 0.9"/>
    <tag k="highway" v="residential"/>
    <tag k="name" v="Glarusstraße"/>
  </way>
  <way id="24088972" version="3" timestamp="2008-10-01T02:03:37Z" uid="36809" user="pfoten_weg_!_" changeset="5644">
    <nd ref="261211442"/>
    <nd ref="262845479"/>
    <tag k="created_by" v="RambaZamba"/>
    <tag k="highway" v="residential"/>
    <tag k="name" v="Glarusstraße"/>
  </way>
  <way id="24088972" version="4" timestamp="2009-09-12T21:10:31Z" uid="156995" user="HampelZamba" changeset="2462871">
    <nd ref="261211442"/>
    <nd ref="262845479"/>
    <tag k="highway" v="residential"/>
    <tag k="name" v="Glarusstraße"/>
  </way>
  <way id="24088972" version="5" timestamp="2009-09-29T01:16:05Z" uid="36809" user="pfoten_weg_!_" changeset="2671973">
    <nd ref="261211442"/>
    <nd ref="262845479"/>
    <tag k="highway" v="residential"/>
    <tag k="name" v="Glarusstraße"/>
  </way>
</osm>
