<?xml version='1.0' encoding='UTF-8'?>
<osm version="0.6" generator="libosmium/2.20.0">
  <way id="24199544" version="2" timestamp="2008-07-05T20:08:54Z" uid="6975" user="ulfl" changeset="398437">
    <nd ref="262045424"/>
    <nd ref="262045429"/>
    <tag k="highway" v="residential"/>
    <tag k="name" v="Kornbergstraße"/>
    <tag k="surface" v="cobblestone"/>
  </way>
  <way id="24199544" version="3" timestamp="2008-08-10T06:40:55Z" uid="1852" user="Sven Anders" changeset="165519">
    <nd ref="262045424"/>
    <nd ref="262045429"/>
    <tag k="highway" v="residential"/>
    <tag k="name" v="Kornbergstraße"/>
    <tag k="postal_code" v="22041"/>
    <tag k="surface" v="cobblestone"/>
  </way>
  <way id="24199544" version="4" timestamp="2010-08-16T19:55:32Z" uid="167616" user="ajeba" changeset="5512375">
    <nd ref="262045424"/>
    <nd ref="863832129"/>
    <nd ref="262045429"/>
    <tag k="highway" v="residential"/>
    <tag k="name" v="Kornbergstraße"/>
    <tag k="postal_code" v="22041"/>
    <tag k="surface" v="cobblestone"/>
  </way>
</osm>
