<?xml version='1.0' encoding='UTF-8'?>
<osm version="0.6" generator="libosmium/2.20.0">
  <way id="24486041" version="4" timestamp="2008-12-10T10:39:58Z" uid="18775" user="drlizau" changeset="301005">
    <nd ref="266222207"/>
    <nd ref="317728406"/>
    <nd ref="317728407"/>
    <nd ref="266222257"/>
    <nd ref="266222209"/>
    <nd ref="266222208"/>
    <nd ref="317728399"/>
    <nd ref="286978327"/>
    <nd ref="286978074"/>
    <tag k="created_by" v="Potlatch 0.10b"/>
    <tag k="highway" v="residential"/>
    <tag k="name" v="George Street"/>
  </way>
  <way id="24486041" version="5" timestamp="2008-12-10T10:42:20Z" uid="18775" user="drlizau" changeset="301005">
    <nd ref="266222207"/>
    <nd ref="317728406"/>
    <nd ref="317728407"/>
    <nd ref="266222257"/>
    <nd ref="266222209"/>
    <nd ref="266222208"/>
    <nd ref="317728399"/>
    <nd ref="286978327"/>
    <nd ref="286978074"/>
    <tag k="created_by" v="Potlatch 0.10b"/>
    <tag k="highway" v="residential"/>
    <tag k="name" v="George Street"/>
  </way>
  <way id="24486041" version="6" timestamp="2009-02-12T09:37:01Z" uid="78837" user="modellerau" changeset="382943">
    <nd ref="266222207"/>
    <nd ref="317728406"/>
    <nd ref="317728407"/>
    <nd ref="266222257"/>
    <nd ref="266222209"/>
    <nd ref="317728399"/>
    <nd ref="286978327"/>
    <nd ref="286978074"/>
    <tag k="created_by" v="Potlatch 0.10b"/>
    <tag k="highway" v="residential"/>
    <tag k="name" v="George Street"/>
  </way>
  <way id="24486041" version="7" timestamp="2010-01-29T12:26:00Z" uid="87493" user="AndyBZ" changeset="3742760">
    <nd ref="266222207"/>
    <nd ref="622351636"/>
    <nd ref="622351632"/>
    <nd ref="317728406"/>
    <nd ref="317728407"/>
    <nd ref="266222257"/>
    <nd ref="266222209"/>
    <nd ref="317728399"/>
    <nd ref="286978327"/>
    <nd ref="286978074"/>
    <tag k="highway" v="residential"/>
    <tag k="name" v="George Street"/>
  </way>
  <way id="24486041" version="8" timestamp="2010-04-26T01:23:10Z" uid="4467" user="Rosscoe" changeset="4527918">
    <nd ref="266222207"/>
    <nd ref="622351636"/>
    <nd ref="622351632"/>
    <nd ref="317728406"/>
    <nd ref="317728407"/>
    <nd ref="266222257"/>
    <nd ref="706903289"/>
    <tag k="highway" v="residential"/>
    <tag k="name" v="George Street"/>
  </way>
  <way id="24486041" version="9" timestamp="2010-07-08T17:18:50Z" uid="74617" user="JohnSmith" changeset="5167338">
    <nd ref="266222207"/>
    <nd ref="622351636"/>
    <nd ref="622351632"/>
    <nd ref="317728406"/>
    <nd ref="317728407"/>
    <nd ref="266222257"/>
    <nd ref="706903289"/>
    <tag k="highway" v="residential"/>
    <tag k="maxspeed" v="50"/>
    <tag k="maxspeed:source" v="default residential speed limit in Australia"/>
    <tag k="name" v="George Street"/>
  </way>
  <way id="24486041" version="10" timestamp="2010-10-19T21:25:11Z" uid="78837" user="modellerau" changeset="6103478">
    <nd ref="266222207"/>
    <nd ref="622351636"/>
    <nd ref="622351632"/>
    <nd ref="317728406"/>
    <nd ref="317728407"/>
    <nd ref="266222257"/>
    <nd ref="706903289"/>
    <tag k="highway" v="residential"/>
    <tag k="maxspeed" v="50"/>
    <tag k="name" v="George Street"/>
  </way>
  <way id="24486041" version="11" timestamp="2012-01-16T09:56:35Z" uid="147510" user="woodpeck_fixbot" changeset="10406018">
    <nd ref="266222207"/>
    <nd ref="622351636"/>
    <nd ref="622351632"/>
    <nd ref="317728406"/>
    <nd ref="317728407"/>
    <nd ref="266222257"/>
    <nd ref="706903289"/>
    <tag k="highway" v="residential"/>
    <tag k="name" v="George Street"/>
  </way>
  <way id="24486043" version="5" timestamp="2008-12-10T10:35:46Z" uid="18775" user="drlizau" changeset="301005">
    <nd ref="266222257"/>
    <nd ref="266222266"/>
    <tag k="created_by" v="Potlatch 0.10b"/>
    <tag k="highway" v="residential"/>
    <tag k="name" v="Addis Street"/>
  </way>
  <way id="24486043" version="6" timestamp="2008-12-10T10:39:56Z" uid="18775" user="drlizau" changeset="301005">
    <nd ref="266222257"/>
    <nd ref="266222266"/>
    <tag k="created_by" v="Potlatch 0.10b"/>
    <tag k="highway" v="residential"/>
    <tag k="name" v="Addis Street"/>
  </way>
  <way id="24486043" version="7" timestamp="2010-02-23T05:32:09Z" uid="78837" user="modellerau" changeset="3949567">
    <nd ref="266222257"/>
    <nd ref="651259344"/>
    <nd ref="266222266"/>
    <tag k="highway" v="residential"/>
    <tag k="name" v="Addis Street"/>
  </way>
  <way id="24486043" version="8" timestamp="2010-07-08T17:25:18Z" uid="74617" user="JohnSmith" changeset="5167338">
    <nd ref="266222257"/>
    <nd ref="651259344"/>
    <nd ref="266222266"/>
    <tag k="highway" v="residential"/>
    <tag k="maxspeed" v="50"/>
    <tag k="maxspeed:source" v="default residential speed limit in Australia"/>
    <tag k="name" v="Addis Street"/>
  </way>
  <way id="24486043" version="9" timestamp="2010-10-19T21:25:06Z" uid="78837" user="modellerau" changeset="6103478">
    <nd ref="266222257"/>
    <nd ref="651259344"/>
    <nd ref="266222266"/>
    <tag k="highway" v="residential"/>
    <tag k="maxspeed" v="50"/>
    <tag k="name" v="Addis Street"/>
  </way>
  <way id="24486043" version="10" timestamp="2011-12-15T10:07:10Z" uid="569841" user="geeoutlier" changeset="10122355">
    <nd ref="266222257"/>
    <nd ref="651259344"/>
    <nd ref="266222266"/>
    <tag k="highway" v="residential"/>
    <tag k="maxspeed" v="50"/>
    <tag k="name" v="Addis Street"/>
  </way>
  <way id="24486043" version="11" timestamp="2012-01-16T09:56:37Z" uid="147510" user="woodpeck_fixbot" changeset="10406018">
    <nd ref="266222257"/>
    <nd ref="651259344"/>
    <nd ref="266222266"/>
    <tag k="highway" v="residential"/>
    <tag k="name" v="Addis Street"/>
  </way>
  <way id="24486044" version="6" timestamp="2008-12-10T10:35:45Z" uid="18775" user="drlizau" changeset="301005">
    <nd ref="266222266"/>
    <nd ref="266222267"/>
    <tag k="created_by" v="Potlatch 0.10b"/>
    <tag k="highway" v="residential"/>
    <tag k="name" v="Calder Street"/>
  </way>
  <way id="24486044" version="7" timestamp="2008-12-10T10:44:26Z" uid="18775" user="drlizau" changeset="301005">
    <nd ref="266222266"/>
    <nd ref="266222267"/>
    <tag k="created_by" v="Potlatch 0.10b"/>
    <tag k="highway" v="residential"/>
    <tag k="name" v="Calder Street"/>
  </way>
  <way id="24486044" version="8" timestamp="2008-12-10T10:56:59Z" uid="18775" user="drlizau" changeset="301005">
    <nd ref="266222266"/>
    <nd ref="269791944"/>
    <nd ref="266222267"/>
    <tag k="created_by" v="Potlatch 0.10b"/>
    <tag k="highway" v="residential"/>
    <tag k="name" v="Calder Street"/>
  </way>
  <way id="24486044" version="9" timestamp="2010-07-08T17:19:22Z" uid="74617" user="JohnSmith" changeset="5167338">
    <nd ref="266222266"/>
    <nd ref="269791944"/>
    <nd ref="266222267"/>
    <tag k="highway" v="residential"/>
    <tag k="maxspeed" v="50"/>
    <tag k="maxspeed:source" v="default residential speed limit in Australia"/>
    <tag k="name" v="Calder Street"/>
  </way>
  <way id="24486044" version="10" timestamp="2010-08-26T06:13:37Z" uid="78837" user="modellerau" changeset="5595947"/>
  <way id="24486045" version="3" timestamp="2008-12-10T10:44:25Z" uid="18775" user="drlizau" changeset="301005">
    <nd ref="266222273"/>
    <nd ref="266222274"/>
    <tag k="created_by" v="Potlatch 0.10b"/>
    <tag k="highway" v="residential"/>
    <tag k="name" v="Claremont Avenue"/>
  </way>
  <way id="24486045" version="4" timestamp="2010-07-08T17:17:22Z" uid="74617" user="JohnSmith" changeset="5167338">
    <nd ref="266222273"/>
    <nd ref="266222274"/>
    <tag k="highway" v="residential"/>
    <tag k="maxspeed" v="50"/>
    <tag k="maxspeed:source" v="default residential speed limit in Australia"/>
    <tag k="name" v="Claremont Avenue"/>
  </way>
  <way id="24486045" version="5" timestamp="2010-10-19T21:24:59Z" uid="78837" user="modellerau" changeset="6103478">
    <nd ref="266222273"/>
    <nd ref="266222274"/>
    <tag k="highway" v="residential"/>
    <tag k="maxspeed" v="50"/>
    <tag k="name" v="Claremont Avenue"/>
  </way>
  <way id="24486045" version="6" timestamp="2011-02-11T09:29:21Z" uid="78837" user="modellerau" changeset="7253298">
    <nd ref="266222273"/>
    <nd ref="1146953425"/>
    <nd ref="1146953423"/>
    <nd ref="266222274"/>
    <tag k="highway" v="residential"/>
    <tag k="maxspeed" v="50"/>
    <tag k="name" v="Claremont Avenue"/>
  </way>
  <way id="24486045" version="7" timestamp="2012-01-16T09:56:39Z" uid="147510" user="woodpeck_fixbot" changeset="10406018">
    <nd ref="266222273"/>
    <nd ref="1146953425"/>
    <nd ref="1146953423"/>
    <nd ref="266222274"/>
    <tag k="highway" v="residential"/>
    <tag k="name" v="Claremont Avenue"/>
  </way>
  <way id="24486046" version="9" timestamp="2010-03-27T23:40:12Z" uid="20587" user="balrog-kun" changeset="4250871">
    <nd ref="237525348"/>
    <nd ref="266224541"/>
    <nd ref="266224542"/>
    <nd ref="237525349"/>
    <nd ref="266224543"/>
    <nd ref="237525351"/>
    <nd ref="266224577"/>
    <nd ref="266224544"/>
    <nd ref="53119217"/>
    <tag k="created_by" v="Potlatch 0.10f"/>
    <tag k="highway" v="primary"/>
    <tag k="name" v="11th Street"/>
    <tag k="oneway" v="yes"/>
    <tag k="tiger:cfcc" v="A41"/>
    <tag k="tiger:county" v="Alameda, CA"/>
    <tag k="tiger:name_base" v="11th"/>
    <tag k="tiger:name_type" v="St"/>
    <tag k="tiger:separated" v="no"/>
    <tag k="tiger:source" v="tiger_import_dch_v0.6_20070809"/>
    <tag k="tiger:tlid" v="124996802:124996811:124996815:124996966:124996968:124997040:124997086:124997182:124997094:125000971:125065737:125065738"/>
    <tag k="tiger:zip_left" v="94607"/>
    <tag k="tiger:zip_right" v="94607"/>
  </way>
  <way id="24486046" version="10" timestamp="2010-08-23T06:57:22Z" uid="8287" user="migurski" changeset="5568290"/>
  <way id="24486047" version="6" timestamp="2010-03-27T23:40:12Z" uid="20587" user="balrog-kun" changeset="4250871">
    <nd ref="266222284"/>
    <nd ref="53087245"/>
    <nd ref="266222285"/>
    <nd ref="237525346"/>
    <nd ref="266222287"/>
    <nd ref="237525347"/>
    <nd ref="266222288"/>
    <nd ref="237525348"/>
    <tag k="created_by" v="Potlatch 0.10f"/>
    <tag k="highway" v="primary"/>
    <tag k="layer" v="-1"/>
    <tag k="name" v="11th Street"/>
    <tag k="oneway" v="yes"/>
    <tag k="tiger:cfcc" v="A41"/>
    <tag k="tiger:county" v="Alameda, CA"/>
    <tag k="tiger:name_base" v="11th"/>
    <tag k="tiger:name_type" v="St"/>
    <tag k="tiger:separated" v="no"/>
    <tag k="tiger:source" v="tiger_import_dch_v0.6_20070809"/>
    <tag k="tiger:tlid" v="124996802:124996811:124996815:124996966:124996968:124997040:124997086:124997182:124997094:125000971:125065737:125065738"/>
    <tag k="tiger:zip_left" v="94607"/>
    <tag k="tiger:zip_right" v="94607"/>
    <tag k="tunnel" v="yes"/>
  </way>
  <way id="24486047" version="7" timestamp="2010-08-23T06:57:24Z" uid="8287" user="migurski" changeset="5568290"/>
  <way id="24486059" version="5" timestamp="2008-12-10T11:09:44Z" uid="18775" user="drlizau" changeset="301005">
    <nd ref="262980878"/>
    <nd ref="266222391"/>
    <tag k="created_by" v="Potlatch 0.9c"/>
    <tag k="highway" v="residential"/>
    <tag k="name" v="Foster Street"/>
  </way>
  <way id="24486059" version="6" timestamp="2008-12-10T13:17:14Z" changeset="299712">
    <nd ref="262980878"/>
    <nd ref="317729888"/>
    <nd ref="266222389"/>
    <tag k="created_by" v="Potlatch 0.9c"/>
    <tag k="highway" v="residential"/>
    <tag k="name" v="Foster Street"/>
  </way>
  <way id="24486059" version="7" timestamp="2008-12-12T09:18:39Z" uid="78837" user="modellerau" changeset="339903">
    <nd ref="262980878"/>
    <nd ref="317729888"/>
    <nd ref="266222389"/>
    <nd ref="318085224"/>
    <tag k="created_by" v="Potlatch 0.9c"/>
    <tag k="highway" v="residential"/>
    <tag k="name" v="Foster Street"/>
  </way>
  <way id="24486059" version="8" timestamp="2009-04-22T06:32:47Z" uid="78837" user="modellerau" changeset="893253">
    <nd ref="262980878"/>
    <nd ref="317729888"/>
    <nd ref="380260147"/>
    <nd ref="266222389"/>
    <nd ref="318085224"/>
    <tag k="created_by" v="Potlatch 0.9c"/>
    <tag k="highway" v="residential"/>
    <tag k="name" v="Foster Street"/>
  </way>
  <way id="24486059" version="9" timestamp="2009-07-23T04:53:57Z" uid="78837" user="modellerau" changeset="1911244">
    <nd ref="262980878"/>
    <nd ref="317729888"/>
    <nd ref="380260147"/>
    <nd ref="445995017"/>
    <nd ref="266222389"/>
    <nd ref="318085224"/>
    <tag k="highway" v="residential"/>
    <tag k="name" v="Foster Street"/>
  </way>
  <way id="24486059" version="10" timestamp="2010-02-01T03:49:40Z" uid="1679" user="andrewpmk" changeset="3764911">
    <nd ref="262980878"/>
    <nd ref="317729888"/>
    <nd ref="380260147"/>
    <nd ref="445995017"/>
    <nd ref="266222389"/>
    <nd ref="624991971"/>
    <nd ref="624991967"/>
    <nd ref="318085224"/>
    <tag k="highway" v="residential"/>
    <tag k="name" v="Foster Street"/>
  </way>
  <way id="24486059" version="11" timestamp="2010-07-08T17:23:26Z" uid="74617" user="JohnSmith" changeset="5167338">
    <nd ref="262980878"/>
    <nd ref="317729888"/>
    <nd ref="380260147"/>
    <nd ref="445995017"/>
    <nd ref="266222389"/>
    <nd ref="624991971"/>
    <nd ref="624991967"/>
    <nd ref="318085224"/>
    <tag k="highway" v="residential"/>
    <tag k="maxspeed" v="50"/>
    <tag k="maxspeed:source" v="default residential speed limit in Australia"/>
    <tag k="name" v="Foster Street"/>
  </way>
  <way id="24486059" version="12" timestamp="2012-01-16T09:56:41Z" uid="147510" user="woodpeck_fixbot" changeset="10406018">
    <nd ref="262980878"/>
    <nd ref="317729888"/>
    <nd ref="380260147"/>
    <nd ref="445995017"/>
    <nd ref="266222389"/>
    <nd ref="624991971"/>
    <nd ref="624991967"/>
    <nd ref="318085224"/>
    <tag k="highway" v="residential"/>
    <tag k="name" v="Foster Street"/>
  </way>
  <way id="24486059" version="13" timestamp="2012-03-06T21:31:11Z" uid="78837" user="modellerau" changeset="10894831">
    <nd ref="262980878"/>
    <nd ref="317729888"/>
    <nd ref="380260147"/>
    <nd ref="1663165248"/>
    <nd ref="445995017"/>
    <nd ref="1663165238"/>
    <nd ref="266222389"/>
    <nd ref="624991971"/>
    <nd ref="624991967"/>
    <nd ref="318085224"/>
    <tag k="highway" v="residential"/>
    <tag k="name" v="Foster Street"/>
  </way>
  <way id="24486062" version="2" timestamp="2008-12-10T11:09:31Z" uid="18775" user="drlizau" changeset="301005">
    <nd ref="266222404"/>
    <nd ref="266222405"/>
    <nd ref="266222406"/>
    <nd ref="266222407"/>
    <nd ref="266222408"/>
    <tag k="created_by" v="Potlatch 0.9a"/>
    <tag k="highway" v="residential"/>
    <tag k="name" v="Cambell Street"/>
  </way>
  <way id="24486062" version="3" timestamp="2008-12-10T11:25:25Z" uid="16374" user="gaffa" changeset="300812">
    <nd ref="317731670"/>
    <nd ref="266222405"/>
    <nd ref="266222406"/>
    <nd ref="266222407"/>
    <nd ref="317731672"/>
    <tag k="created_by" v="Potlatch 0.10f"/>
    <tag k="highway" v="residential"/>
    <tag k="name" v="Cambell Street"/>
  </way>
  <way id="24486062" version="4" timestamp="2008-12-10T13:19:00Z" changeset="299712">
    <nd ref="317731670"/>
    <nd ref="266222405"/>
    <nd ref="266222406"/>
    <nd ref="266222407"/>
    <nd ref="317731672"/>
    <tag k="created_by" v="Potlatch 0.10f"/>
    <tag k="highway" v="residential"/>
    <tag k="name" v="Cambell Street"/>
  </way>
  <way id="24486062" version="5" timestamp="2010-07-08T17:23:58Z" uid="74617" user="JohnSmith" changeset="5167338">
    <nd ref="317731670"/>
    <nd ref="266222405"/>
    <nd ref="266222406"/>
    <nd ref="266222407"/>
    <nd ref="317731672"/>
    <tag k="highway" v="residential"/>
    <tag k="maxspeed" v="50"/>
    <tag k="maxspeed:source" v="default residential speed limit in Australia"/>
    <tag k="name" v="Cambell Street"/>
  </way>
  <way id="24486062" version="6" timestamp="2010-08-27T11:11:04Z" uid="78837" user="modellerau" changeset="5606582">
    <nd ref="317731670"/>
    <nd ref="266222405"/>
    <nd ref="266222406"/>
    <nd ref="317731672"/>
    <tag k="highway" v="residential"/>
    <tag k="maxspeed" v="50"/>
    <tag k="maxspeed:source" v="default residential speed limit in Australia"/>
    <tag k="name" v="Cambell Street"/>
  </way>
  <way id="24486062" version="7" timestamp="2012-01-16T09:56:43Z" uid="147510" user="woodpeck_fixbot" changeset="10406018">
    <nd ref="317731670"/>
    <nd ref="266222405"/>
    <nd ref="266222406"/>
    <nd ref="317731672"/>
    <tag k="highway" v="residential"/>
    <tag k="name" v="Cambell Street"/>
  </way>
  <way id="24486065" version="2" timestamp="2008-12-10T10:31:34Z" uid="18775" user="drlizau" changeset="301005">
    <nd ref="266222488"/>
    <nd ref="266222489"/>
    <tag k="created_by" v="Potlatch 0.9a"/>
    <tag k="highway" v="residential"/>
    <tag k="name" v="James Street"/>
  </way>
  <way id="24486065" version="4" timestamp="2010-07-08T17:18:03Z" uid="74617" user="JohnSmith" changeset="5167338">
    <nd ref="266222488"/>
    <nd ref="266222489"/>
    <tag k="highway" v="residential"/>
    <tag k="maxspeed" v="50"/>
    <tag k="maxspeed:source" v="default residential speed limit in Australia"/>
    <tag k="name" v="James Street"/>
  </way>
  <way id="24486065" version="5" timestamp="2010-08-19T08:29:30Z" uid="4467" user="Rosscoe" changeset="5533450">
    <nd ref="868179483"/>
    <nd ref="266222489"/>
    <tag k="highway" v="residential"/>
    <tag k="maxspeed" v="50"/>
    <tag k="maxspeed:source" v="default residential speed limit in Australia"/>
    <tag k="name" v="James Street"/>
  </way>
  <way id="24486065" version="6" timestamp="2010-08-28T01:45:48Z" uid="211505" user="Pierce" changeset="5612614">
    <nd ref="266222489"/>
    <nd ref="883691206"/>
    <nd ref="883691209"/>
    <nd ref="883691212"/>
    <nd ref="868179483"/>
    <tag k="highway" v="residential"/>
    <tag k="maxspeed" v="50"/>
    <tag k="maxspeed:source" v="default residential speed limit in Australia"/>
    <tag k="name" v="James Street"/>
    <tag k="oneway" v="yes"/>
  </way>
  <way id="24486065" version="7" timestamp="2012-01-16T09:56:46Z" uid="147510" user="woodpeck_fixbot" changeset="10406018">
    <nd ref="266222489"/>
    <nd ref="883691206"/>
    <nd ref="883691209"/>
    <nd ref="883691212"/>
    <nd ref="868179483"/>
    <tag k="highway" v="residential"/>
    <tag k="name" v="James Street"/>
    <tag k="oneway" v="yes"/>
  </way>
  <way id="24486067" version="2" timestamp="2008-12-10T10:31:35Z" uid="18775" user="drlizau" changeset="301005">
    <nd ref="266222516"/>
    <nd ref="266222517"/>
    <tag k="created_by" v="Potlatch 0.9a"/>
    <tag k="highway" v="residential"/>
    <tag k="name" v="Dennys Place"/>
  </way>
  <way id="24486067" version="3" timestamp="2010-07-08T17:24:14Z" uid="74617" user="JohnSmith" changeset="5167338">
    <nd ref="266222516"/>
    <nd ref="266222517"/>
    <tag k="highway" v="residential"/>
    <tag k="maxspeed" v="50"/>
    <tag k="maxspeed:source" v="default residential speed limit in Australia"/>
    <tag k="name" v="Dennys Place"/>
  </way>
  <way id="24486067" version="4" timestamp="2010-08-28T01:45:50Z" uid="211505" user="Pierce" changeset="5612614">
    <nd ref="266222516"/>
    <nd ref="266222517"/>
    <tag k="highway" v="service"/>
    <tag k="name" v="Dennys Place"/>
    <tag k="service" v="alley"/>
    <tag k="source" v="nearmap"/>
  </way>
  <way id="24486108" version="3" timestamp="2008-12-10T11:05:00Z" uid="16374" user="gaffa" changeset="300812">
    <nd ref="264258069"/>
    <nd ref="266223058"/>
    <nd ref="266223059"/>
    <nd ref="266223060"/>
    <nd ref="266223061"/>
    <nd ref="266223062"/>
    <nd ref="266223063"/>
    <nd ref="266223064"/>
    <nd ref="266223065"/>
    <nd ref="266223066"/>
    <nd ref="266223067"/>
    <nd ref="266223068"/>
    <nd ref="266223069"/>
    <nd ref="266223070"/>
    <nd ref="266223071"/>
    <nd ref="264258079"/>
    <nd ref="266223072"/>
    <nd ref="266223073"/>
    <nd ref="266223074"/>
    <nd ref="266223075"/>
    <nd ref="266223076"/>
    <nd ref="266223077"/>
    <nd ref="266223078"/>
    <nd ref="266223079"/>
    <nd ref="266223080"/>
    <nd ref="266223081"/>
    <nd ref="266223082"/>
    <nd ref="266223083"/>
    <nd ref="266223084"/>
    <nd ref="264258069"/>
    <tag k="created_by" v="Potlatch 0.10f"/>
    <tag k="highway" v="residential"/>
    <tag k="name" v="Richmond Cresent"/>
  </way>
  <way id="24486108" version="4" timestamp="2008-12-10T11:05:20Z" uid="16374" user="gaffa" changeset="300812">
    <nd ref="264258069"/>
    <nd ref="266223058"/>
    <nd ref="266223059"/>
    <nd ref="266223060"/>
    <nd ref="266223061"/>
    <nd ref="266223062"/>
    <nd ref="266223063"/>
    <nd ref="317730441"/>
    <nd ref="266223064"/>
    <nd ref="266223065"/>
    <nd ref="266223066"/>
    <nd ref="266223067"/>
    <nd ref="266223068"/>
    <nd ref="266223069"/>
    <nd ref="266223070"/>
    <nd ref="266223071"/>
    <nd ref="264258079"/>
    <nd ref="266223072"/>
    <nd ref="266223073"/>
    <nd ref="266223074"/>
    <nd ref="266223075"/>
    <nd ref="266223076"/>
    <nd ref="266223077"/>
    <nd ref="266223078"/>
    <nd ref="266223079"/>
    <nd ref="266223080"/>
    <nd ref="266223081"/>
    <nd ref="266223082"/>
    <nd ref="266223083"/>
    <nd ref="266223084"/>
    <nd ref="264258069"/>
    <tag k="created_by" v="Potlatch 0.10f"/>
    <tag k="highway" v="residential"/>
    <tag k="name" v="Richmond Cresent"/>
  </way>
  <way id="24486108" version="5" timestamp="2008-12-10T11:05:23Z" uid="16374" user="gaffa" changeset="300812">
    <nd ref="264258069"/>
    <nd ref="266223058"/>
    <nd ref="266223059"/>
    <nd ref="266223060"/>
    <nd ref="266223061"/>
    <nd ref="266223062"/>
    <nd ref="266223063"/>
    <nd ref="317730441"/>
    <nd ref="266223064"/>
    <nd ref="266223065"/>
    <nd ref="266223066"/>
    <nd ref="266223067"/>
    <nd ref="266223068"/>
    <nd ref="266223069"/>
    <nd ref="266223070"/>
    <nd ref="266223071"/>
    <nd ref="264258079"/>
    <nd ref="266223072"/>
    <nd ref="266223073"/>
    <nd ref="266223074"/>
    <nd ref="266223075"/>
    <nd ref="266223076"/>
    <nd ref="266223077"/>
    <nd ref="317730442"/>
    <nd ref="266223078"/>
    <nd ref="266223079"/>
    <nd ref="266223080"/>
    <nd ref="266223081"/>
    <nd ref="266223082"/>
    <nd ref="266223083"/>
    <nd ref="266223084"/>
    <nd ref="264258069"/>
    <tag k="created_by" v="Potlatch 0.10f"/>
    <tag k="highway" v="residential"/>
    <tag k="name" v="Richmond Cresent"/>
  </way>
  <way id="24486108" version="6" timestamp="2008-12-10T11:08:52Z" uid="18775" user="drlizau" changeset="301005">
    <nd ref="266223058"/>
    <nd ref="266223059"/>
    <nd ref="266223060"/>
    <nd ref="266223061"/>
    <nd ref="266223062"/>
    <nd ref="266223063"/>
    <nd ref="268237030"/>
    <nd ref="266223064"/>
    <nd ref="266223065"/>
    <nd ref="266223066"/>
    <nd ref="266223067"/>
    <nd ref="266223068"/>
    <nd ref="266223069"/>
    <nd ref="266223070"/>
    <nd ref="266223071"/>
    <nd ref="264258079"/>
    <nd ref="266223072"/>
    <nd ref="266223073"/>
    <nd ref="266223074"/>
    <nd ref="266223075"/>
    <nd ref="266223076"/>
    <nd ref="266223077"/>
    <nd ref="268236986"/>
    <nd ref="266223078"/>
    <nd ref="266223079"/>
    <nd ref="266223080"/>
    <nd ref="266223081"/>
    <nd ref="266223082"/>
    <nd ref="266223083"/>
    <nd ref="266223084"/>
    <nd ref="266223058"/>
    <tag k="created_by" v="Potlatch 0.10b"/>
    <tag k="highway" v="residential"/>
    <tag k="name" v="Richmond Cresent"/>
  </way>
  <way id="24486108" version="7" timestamp="2008-12-10T13:05:26Z" changeset="299712">
    <nd ref="266223058"/>
    <nd ref="266223059"/>
    <nd ref="266223060"/>
    <nd ref="266223061"/>
    <nd ref="266223062"/>
    <nd ref="266223063"/>
    <nd ref="268237030"/>
    <nd ref="266223064"/>
    <nd ref="266223065"/>
    <nd ref="266223066"/>
    <nd ref="266223067"/>
    <nd ref="266223068"/>
    <nd ref="266223069"/>
    <nd ref="266223070"/>
    <nd ref="266223071"/>
    <nd ref="264258079"/>
    <nd ref="266223072"/>
    <nd ref="266223073"/>
    <nd ref="266223074"/>
    <nd ref="266223075"/>
    <nd ref="266223076"/>
    <nd ref="266223077"/>
    <nd ref="268236986"/>
    <nd ref="317730442"/>
    <nd ref="266223078"/>
    <nd ref="266223079"/>
    <nd ref="266223080"/>
    <nd ref="266223081"/>
    <nd ref="266223082"/>
    <nd ref="266223083"/>
    <nd ref="266223084"/>
    <nd ref="266223058"/>
    <tag k="created_by" v="Potlatch 0.10b"/>
    <tag k="highway" v="residential"/>
    <tag k="name" v="Richmond Cresent"/>
  </way>
  <way id="24486108" version="8" timestamp="2008-12-11T09:52:45Z" uid="18775" user="drlizau" changeset="319607">
    <nd ref="266223058"/>
    <nd ref="266223059"/>
    <nd ref="266223060"/>
    <nd ref="266223061"/>
    <nd ref="266223062"/>
    <nd ref="268237030"/>
    <nd ref="266223065"/>
    <nd ref="266223066"/>
    <nd ref="266223067"/>
    <nd ref="266223068"/>
    <nd ref="266223070"/>
    <nd ref="264258079"/>
    <nd ref="266223072"/>
    <nd ref="266223073"/>
    <nd ref="266223074"/>
    <nd ref="266223076"/>
    <nd ref="317730442"/>
    <nd ref="266223080"/>
    <nd ref="266223081"/>
    <nd ref="266223083"/>
    <nd ref="266223084"/>
    <nd ref="266223058"/>
    <tag k="created_by" v="Potlatch 0.10b"/>
    <tag k="highway" v="residential"/>
    <tag k="name" v="Richmond Cresent"/>
  </way>
  <way id="24486108" version="9" timestamp="2009-01-02T12:39:31Z" uid="17425" user="jackb" changeset="712397">
    <nd ref="266223058"/>
    <nd ref="266223059"/>
    <nd ref="266223060"/>
    <nd ref="266223061"/>
    <nd ref="266223062"/>
    <nd ref="268237030"/>
    <nd ref="266223065"/>
    <nd ref="266223066"/>
    <nd ref="266223067"/>
    <nd ref="266223068"/>
    <nd ref="266223070"/>
    <nd ref="264258079"/>
    <tag k="created_by" v="Potlatch 0.10b"/>
    <tag k="highway" v="residential"/>
    <tag k="name" v="Richmond Cresent"/>
  </way>
  <way id="24486108" version="10" timestamp="2009-07-28T06:19:58Z" uid="78837" user="modellerau" changeset="1961776">
    <nd ref="266223058"/>
    <nd ref="449545846"/>
    <nd ref="266223059"/>
    <nd ref="266223060"/>
    <nd ref="266223061"/>
    <nd ref="266223062"/>
    <nd ref="268237030"/>
    <nd ref="266223065"/>
    <nd ref="266223066"/>
    <nd ref="266223067"/>
    <nd ref="266223068"/>
    <nd ref="266223070"/>
    <nd ref="264258079"/>
    <tag k="created_by" v="Potlatch 0.10b"/>
    <tag k="highway" v="residential"/>
    <tag k="name" v="Richmond Cresent"/>
  </way>
  <way id="24486108" version="11" timestamp="2009-08-26T04:37:37Z" uid="78837" user="modellerau" changeset="2263464">
    <nd ref="266223058"/>
    <nd ref="449545846"/>
    <nd ref="266223059"/>
    <nd ref="266223060"/>
    <nd ref="266223061"/>
    <nd ref="266223062"/>
    <nd ref="268237030"/>
    <nd ref="266223065"/>
    <nd ref="474339101"/>
    <nd ref="266223066"/>
    <nd ref="266223067"/>
    <nd ref="266223068"/>
    <nd ref="474339087"/>
    <nd ref="266223070"/>
    <nd ref="474339083"/>
    <nd ref="264258079"/>
    <tag k="highway" v="residential"/>
    <tag k="name" v="Richmond Cresent"/>
  </way>
  <way id="24486108" version="12" timestamp="2010-04-08T11:50:27Z" uid="78837" user="modellerau" changeset="4363454">
    <nd ref="266223058"/>
    <nd ref="449545846"/>
    <nd ref="266223059"/>
    <nd ref="266223060"/>
    <nd ref="266223061"/>
    <nd ref="266223062"/>
    <nd ref="688636289"/>
    <nd ref="268237030"/>
    <nd ref="266223065"/>
    <nd ref="474339101"/>
    <nd ref="266223066"/>
    <nd ref="266223067"/>
    <nd ref="266223068"/>
    <nd ref="474339087"/>
    <nd ref="266223070"/>
    <nd ref="474339083"/>
    <nd ref="264258079"/>
    <tag k="highway" v="residential"/>
    <tag k="name" v="Richmond Cresent"/>
  </way>
  <way id="24486108" version="13" timestamp="2010-07-08T17:24:25Z" uid="74617" user="JohnSmith" changeset="5167338">
    <nd ref="266223058"/>
    <nd ref="449545846"/>
    <nd ref="266223059"/>
    <nd ref="266223060"/>
    <nd ref="266223061"/>
    <nd ref="266223062"/>
    <nd ref="688636289"/>
    <nd ref="268237030"/>
    <nd ref="266223065"/>
    <nd ref="474339101"/>
    <nd ref="266223066"/>
    <nd ref="266223067"/>
    <nd ref="266223068"/>
    <nd ref="474339087"/>
    <nd ref="266223070"/>
    <nd ref="474339083"/>
    <nd ref="264258079"/>
    <tag k="highway" v="residential"/>
    <tag k="maxspeed" v="50"/>
    <tag k="maxspeed:source" v="default residential speed limit in Australia"/>
    <tag k="name" v="Richmond Cresent"/>
  </way>
  <way id="24486108" version="14" timestamp="2010-08-27T11:11:06Z" uid="78837" user="modellerau" changeset="5606582">
    <nd ref="266223058"/>
    <nd ref="449545846"/>
    <nd ref="266223059"/>
    <nd ref="266223060"/>
    <nd ref="266223061"/>
    <nd ref="266223062"/>
    <nd ref="688636289"/>
    <nd ref="268237030"/>
    <nd ref="266223065"/>
    <nd ref="474339101"/>
    <nd ref="266223066"/>
    <nd ref="266223067"/>
    <nd ref="266223068"/>
    <nd ref="474339087"/>
    <nd ref="266223070"/>
    <nd ref="474339083"/>
    <nd ref="882292204"/>
    <nd ref="264258079"/>
    <tag k="highway" v="residential"/>
    <tag k="maxspeed" v="50"/>
    <tag k="maxspeed:source" v="default residential speed limit in Australia"/>
    <tag k="name" v="Richmond Cresent"/>
  </way>
  <way id="24486108" version="15" timestamp="2012-01-16T09:56:50Z" uid="147510" user="woodpeck_fixbot" changeset="10406018">
    <nd ref="266223058"/>
    <nd ref="449545846"/>
    <nd ref="266223059"/>
    <nd ref="266223060"/>
    <nd ref="266223061"/>
    <nd ref="266223062"/>
    <nd ref="688636289"/>
    <nd ref="268237030"/>
    <nd ref="266223065"/>
    <nd ref="474339101"/>
    <nd ref="266223066"/>
    <nd ref="266223067"/>
    <nd ref="266223068"/>
    <nd ref="474339087"/>
    <nd ref="266223070"/>
    <nd ref="474339083"/>
    <nd ref="882292204"/>
    <nd ref="264258079"/>
    <tag k="highway" v="residential"/>
    <tag k="name" v="Richmond Cresent"/>
  </way>
  <way id="24486136" version="9" timestamp="2008-12-10T10:52:24Z" uid="18775" user="drlizau" changeset="301005">
    <nd ref="266223390"/>
    <nd ref="280445882"/>
    <nd ref="266223391"/>
    <nd ref="266223392"/>
    <nd ref="266223393"/>
    <nd ref="266223394"/>
    <nd ref="263716093"/>
    <nd ref="266223395"/>
    <nd ref="288066262"/>
    <nd ref="288066263"/>
    <tag k="created_by" v="Potlatch 0.10b"/>
    <tag k="highway" v="residential"/>
    <tag k="name" v="Lilly Street"/>
  </way>
  <way id="24486136" version="10" timestamp="2008-12-10T10:57:16Z" uid="18775" user="drlizau" changeset="301005">
    <nd ref="266223390"/>
    <nd ref="280445882"/>
    <nd ref="266223391"/>
    <nd ref="266223392"/>
    <nd ref="266223393"/>
    <nd ref="266223394"/>
    <nd ref="263716093"/>
    <nd ref="266223550"/>
    <nd ref="286372309"/>
    <nd ref="287172217"/>
    <nd ref="288066262"/>
    <nd ref="288066263"/>
    <tag k="created_by" v="Potlatch 0.10b"/>
    <tag k="highway" v="residential"/>
    <tag k="name" v="Lilly Street"/>
  </way>
  <way id="24486136" version="11" timestamp="2010-01-06T10:37:58Z" uid="78837" user="modellerau" changeset="3552236">
    <nd ref="266223390"/>
    <nd ref="280445882"/>
    <nd ref="266223391"/>
    <nd ref="266223392"/>
    <nd ref="266223393"/>
    <nd ref="266223394"/>
    <nd ref="263716093"/>
    <nd ref="266223550"/>
    <nd ref="286372309"/>
    <nd ref="287172217"/>
    <nd ref="411671529"/>
    <nd ref="288066263"/>
    <tag k="highway" v="residential"/>
    <tag k="name" v="Lilly Street"/>
  </way>
  <way id="24486136" version="12" timestamp="2010-02-01T04:01:01Z" uid="1679" user="andrewpmk" changeset="3764911">
    <nd ref="266223390"/>
    <nd ref="280445882"/>
    <nd ref="266223391"/>
    <nd ref="266223392"/>
    <nd ref="266223393"/>
    <nd ref="266223394"/>
    <nd ref="263716093"/>
    <nd ref="266223550"/>
    <nd ref="625000459"/>
    <nd ref="286372309"/>
    <nd ref="625000460"/>
    <nd ref="287172217"/>
    <nd ref="411671529"/>
    <nd ref="288066263"/>
    <tag k="highway" v="residential"/>
    <tag k="name" v="Lilly Street"/>
  </way>
  <way id="24486136" version="13" timestamp="2010-07-08T17:17:45Z" uid="74617" user="JohnSmith" changeset="5167338">
    <nd ref="266223390"/>
    <nd ref="280445882"/>
    <nd ref="266223391"/>
    <nd ref="266223392"/>
    <nd ref="266223393"/>
    <nd ref="266223394"/>
    <nd ref="263716093"/>
    <nd ref="266223550"/>
    <nd ref="625000459"/>
    <nd ref="286372309"/>
    <nd ref="625000460"/>
    <nd ref="287172217"/>
    <nd ref="411671529"/>
    <nd ref="288066263"/>
    <tag k="highway" v="residential"/>
    <tag k="maxspeed" v="50"/>
    <tag k="maxspeed:source" v="default residential speed limit in Australia"/>
    <tag k="name" v="Lilly Street"/>
  </way>
  <way id="24486136" version="14" timestamp="2011-01-08T22:44:06Z" uid="78837" user="modellerau" changeset="6910044">
    <nd ref="266223390"/>
    <nd ref="280445882"/>
    <nd ref="266223391"/>
    <nd ref="266223392"/>
    <nd ref="266223393"/>
    <nd ref="266223394"/>
    <nd ref="263716093"/>
    <nd ref="266223550"/>
    <nd ref="625000459"/>
    <nd ref="286372309"/>
    <nd ref="625000460"/>
    <nd ref="287172217"/>
    <nd ref="411671529"/>
    <nd ref="288066263"/>
    <nd ref="622350724"/>
    <tag k="highway" v="residential"/>
    <tag k="maxspeed" v="50"/>
    <tag k="maxspeed:source" v="default residential speed limit in Australia"/>
    <tag k="name" v="Lilly Street"/>
  </way>
  <way id="24486136" version="15" timestamp="2011-03-23T12:07:21Z" uid="4467" user="Rosscoe" changeset="7645827">
    <nd ref="266223390"/>
    <nd ref="280445882"/>
    <nd ref="266223391"/>
    <nd ref="266223392"/>
    <nd ref="266223393"/>
    <nd ref="266223394"/>
    <nd ref="263716093"/>
    <nd ref="266223550"/>
    <nd ref="625000459"/>
    <nd ref="286372309"/>
    <nd ref="625000460"/>
    <nd ref="287172217"/>
    <nd ref="411671529"/>
    <nd ref="288066263"/>
    <tag k="highway" v="residential"/>
    <tag k="maxspeed" v="50"/>
    <tag k="name" v="Lilly Street"/>
    <tag k="source:maxspeed" v="default residential speed limit in Australia"/>
  </way>
  <way id="24486136" version="16" timestamp="2012-01-16T09:56:52Z" uid="147510" user="woodpeck_fixbot" changeset="10406018">
    <nd ref="266223390"/>
    <nd ref="280445882"/>
    <nd ref="266223391"/>
    <nd ref="266223392"/>
    <nd ref="266223393"/>
    <nd ref="266223394"/>
    <nd ref="263716093"/>
    <nd ref="266223550"/>
    <nd ref="625000459"/>
    <nd ref="286372309"/>
    <nd ref="625000460"/>
    <nd ref="287172217"/>
    <nd ref="411671529"/>
    <nd ref="288066263"/>
    <tag k="highway" v="residential"/>
    <tag k="name" v="Lilly Street"/>
    <tag k="source:maxspeed" v="default residential speed limit in Australia"/>
  </way>
  <way id="24486151" version="6" timestamp="2008-12-10T10:57:18Z" uid="18775" user="drlizau" changeset="301005">
    <nd ref="266223550"/>
    <nd ref="264833381"/>
    <nd ref="266223551"/>
    <nd ref="280444834"/>
    <tag k="created_by" v="Potlatch 0.10"/>
    <tag k="highway" v="residential"/>
    <tag k="name" v="Stoddart Street"/>
  </way>
  <way id="24486151" version="7" timestamp="2010-07-08T17:19:02Z" uid="74617" user="JohnSmith" changeset="5167338">
    <nd ref="266223550"/>
    <nd ref="264833381"/>
    <nd ref="266223551"/>
    <nd ref="280444834"/>
    <tag k="highway" v="residential"/>
    <tag k="maxspeed" v="50"/>
    <tag k="maxspeed:source" v="default residential speed limit in Australia"/>
    <tag k="name" v="Stoddart Street"/>
  </way>
  <way id="24486151" version="8" timestamp="2012-01-16T09:56:54Z" uid="147510" user="woodpeck_fixbot" changeset="10406018">
    <nd ref="266223550"/>
    <nd ref="264833381"/>
    <nd ref="266223551"/>
    <nd ref="280444834"/>
    <tag k="highway" v="residential"/>
    <tag k="name" v="Stoddart Street"/>
  </way>
  <way id="24486986" version="8" timestamp="2010-07-08T19:53:16Z" uid="74617" user="JohnSmith" changeset="5168688">
    <nd ref="266231419"/>
    <nd ref="266231785"/>
    <nd ref="266231421"/>
    <nd ref="266426623"/>
    <nd ref="266231704"/>
    <nd ref="266231422"/>
    <nd ref="266231423"/>
    <tag k="highway" v="residential"/>
    <tag k="maxspeed" v="50"/>
    <tag k="maxspeed:source" v="default residential speed limit in Australia"/>
    <tag k="name" v="Austin Street"/>
  </way>
  <way id="24486986" version="9" timestamp="2010-07-19T01:32:14Z" uid="11111" user="lakeyboy" changeset="5256961">
    <nd ref="266231419"/>
    <nd ref="266231785"/>
    <nd ref="266231421"/>
    <nd ref="266426623"/>
    <nd ref="266231704"/>
    <nd ref="266231422"/>
    <nd ref="823949166"/>
    <nd ref="266231423"/>
    <tag k="highway" v="residential"/>
    <tag k="maxspeed" v="50"/>
    <tag k="maxspeed:source" v="default residential speed limit in Australia"/>
    <tag k="name" v="Austin Street"/>
  </way>
  <way id="24486986" version="10" timestamp="2011-05-15T08:12:18Z" uid="206929" user="Supt_of_Printing" changeset="8148681">
    <nd ref="266231419"/>
    <nd ref="266231785"/>
    <nd ref="266231421"/>
    <nd ref="266426623"/>
    <nd ref="266231704"/>
    <nd ref="266231422"/>
    <nd ref="1285858871"/>
    <nd ref="1285858864"/>
    <nd ref="823949166"/>
    <nd ref="266231423"/>
    <tag k="highway" v="residential"/>
    <tag k="maxspeed" v="50"/>
    <tag k="maxspeed:source" v="default residential speed limit in Australia"/>
    <tag k="name" v="Austin Street"/>
  </way>
  <way id="24486986" version="11" timestamp="2012-01-16T09:56:58Z" uid="147510" user="woodpeck_fixbot" changeset="10406018">
    <nd ref="266231419"/>
    <nd ref="266231785"/>
    <nd ref="266231421"/>
    <nd ref="266426623"/>
    <nd ref="266231704"/>
    <nd ref="266231422"/>
    <nd ref="1285858871"/>
    <nd ref="1285858864"/>
    <nd ref="823949166"/>
    <nd ref="266231423"/>
    <tag k="highway" v="residential"/>
    <tag k="name" v="Austin Street"/>
  </way>
  <way id="24486989" version="9" timestamp="2010-07-08T19:59:27Z" uid="74617" user="JohnSmith" changeset="5168688">
    <nd ref="34001768"/>
    <nd ref="266426230"/>
    <nd ref="266231919"/>
    <nd ref="266231920"/>
    <nd ref="266231921"/>
    <nd ref="266231922"/>
    <nd ref="266231923"/>
    <nd ref="266231924"/>
    <nd ref="266231925"/>
    <nd ref="266231926"/>
    <nd ref="266231927"/>
    <nd ref="266231863"/>
    <nd ref="266231928"/>
    <nd ref="266231433"/>
    <nd ref="266231419"/>
    <nd ref="266231434"/>
    <tag k="highway" v="residential"/>
    <tag k="maxspeed" v="50"/>
    <tag k="maxspeed:source" v="default residential speed limit in Australia"/>
    <tag k="name" v="Alma Avenue"/>
    <tag k="old_name" v="View Street; Mary Avenue"/>
  </way>
  <way id="24486989" version="10" timestamp="2012-01-16T09:57:03Z" uid="147510" user="woodpeck_fixbot" changeset="10406018">
    <nd ref="34001768"/>
    <nd ref="266426230"/>
    <nd ref="266231919"/>
    <nd ref="266231920"/>
    <nd ref="266231921"/>
    <nd ref="266231922"/>
    <nd ref="266231923"/>
    <nd ref="266231924"/>
    <nd ref="266231925"/>
    <nd ref="266231926"/>
    <nd ref="266231927"/>
    <nd ref="266231863"/>
    <nd ref="266231928"/>
    <nd ref="266231433"/>
    <nd ref="266231419"/>
    <nd ref="266231434"/>
    <tag k="highway" v="residential"/>
    <tag k="name" v="Alma Avenue"/>
    <tag k="old_name" v="View Street; Mary Avenue"/>
  </way>
  <way id="24486994" version="5" timestamp="2010-07-08T19:53:55Z" uid="74617" user="JohnSmith" changeset="5168688">
    <nd ref="266231448"/>
    <nd ref="452968507"/>
    <nd ref="34001294"/>
    <tag k="highway" v="residential"/>
    <tag k="maxspeed" v="50"/>
    <tag k="maxspeed:source" v="default residential speed limit in Australia"/>
    <tag k="name" v="Victoria Street"/>
  </way>
  <way id="24486994" version="6" timestamp="2010-07-19T02:16:50Z" uid="11111" user="lakeyboy" changeset="5256961">
    <nd ref="266231448"/>
    <nd ref="452968507"/>
    <nd ref="823959002"/>
    <nd ref="823959003"/>
    <nd ref="823959004"/>
    <nd ref="34001294"/>
    <tag k="highway" v="residential"/>
    <tag k="maxspeed" v="50"/>
    <tag k="maxspeed:source" v="default residential speed limit in Australia"/>
    <tag k="name" v="Victoria Street"/>
  </way>
  <way id="24486994" version="7" timestamp="2011-09-09T11:30:03Z" uid="38690" user="emexes" changeset="9253200">
    <nd ref="266231448"/>
    <nd ref="452968507"/>
    <nd ref="823959004"/>
    <nd ref="34001294"/>
    <tag k="highway" v="residential"/>
    <tag k="maxspeed" v="50"/>
    <tag k="maxspeed:source" v="default residential speed limit in Australia"/>
    <tag k="name" v="Victoria Street"/>
  </way>
  <way id="24486994" version="8" timestamp="2012-01-16T09:57:07Z" uid="147510" user="woodpeck_fixbot" changeset="10406018">
    <nd ref="266231448"/>
    <nd ref="452968507"/>
    <nd ref="823959004"/>
    <nd ref="34001294"/>
    <tag k="highway" v="residential"/>
    <tag k="name" v="Victoria Street"/>
  </way>
</osm>
