<?xml version='1.0' encoding='UTF-8'?>
<osm version="0.6" generator="libosmium/2.20.0">
  <way id="24568000" version="2" timestamp="2009-10-18T03:29:39Z" uid="74617" user="JohnSmith" changeset="2879512">
    <nd ref="267116273"/>
    <nd ref="534514162"/>
    <nd ref="267116180"/>
    <tag k="highway" v="residential"/>
  </way>
  <way id="24568000" version="3" timestamp="2010-02-08T07:26:45Z" uid="74617" user="JohnSmith" changeset="3821117">
    <nd ref="267116273"/>
    <nd ref="534514162"/>
    <nd ref="267116180"/>
    <tag k="highway" v="residential"/>
    <tag k="maxspeed" v="50"/>
  </way>
  <way id="24568000" version="4" timestamp="2010-04-04T06:50:52Z" uid="162720" user="Doogie" changeset="4319505">
    <nd ref="267116273"/>
    <nd ref="534514162"/>
    <nd ref="267116180"/>
    <tag k="highway" v="residential"/>
    <tag k="maxspeed" v="50"/>
    <tag k="name" v="Grice St"/>
  </way>
  <way id="24568000" version="5" timestamp="2010-06-02T01:54:18Z" uid="4467" user="Rosscoe" changeset="4880068">
    <nd ref="267116273"/>
    <nd ref="534514162"/>
    <nd ref="267116180"/>
    <tag k="highway" v="residential"/>
    <tag k="maxspeed" v="50"/>
    <tag k="name" v="Grice Street"/>
  </way>
  <way id="24568000" version="6" timestamp="2012-01-16T11:32:07Z" uid="147510" user="woodpeck_fixbot" changeset="10407211">
    <nd ref="267116273"/>
    <nd ref="534514162"/>
    <nd ref="267116180"/>
    <tag k="highway" v="residential"/>
    <tag k="name" v="Grice Street"/>
  </way>
  <way id="24568002" version="4" timestamp="2010-02-08T07:26:44Z" uid="74617" user="JohnSmith" changeset="3821117">
    <nd ref="267116290"/>
    <nd ref="267116291"/>
    <nd ref="267116292"/>
    <nd ref="267116293"/>
    <nd ref="267116294"/>
    <tag k="highway" v="residential"/>
    <tag k="maxspeed" v="50"/>
  </way>
  <way id="24568002" version="5" timestamp="2010-04-04T06:59:14Z" uid="162720" user="Doogie" changeset="4319574">
    <nd ref="267116290"/>
    <nd ref="267116291"/>
    <nd ref="267116292"/>
    <nd ref="267116293"/>
    <nd ref="267116294"/>
    <tag k="highway" v="unclassified"/>
    <tag k="maxspeed" v="50"/>
    <tag k="name" v="Filmer St"/>
  </way>
  <way id="24568002" version="6" timestamp="2010-06-02T00:54:06Z" uid="4467" user="Rosscoe" changeset="4879901">
    <nd ref="267116290"/>
    <nd ref="267116291"/>
    <nd ref="267116292"/>
    <nd ref="267116293"/>
    <nd ref="267116294"/>
    <tag k="highway" v="unclassified"/>
    <tag k="maxspeed" v="50"/>
    <tag k="name" v="Filmer Street"/>
  </way>
  <way id="24568002" version="7" timestamp="2012-01-16T11:32:09Z" uid="147510" user="woodpeck_fixbot" changeset="10407211">
    <nd ref="267116290"/>
    <nd ref="267116291"/>
    <nd ref="267116292"/>
    <nd ref="267116293"/>
    <nd ref="267116294"/>
    <tag k="highway" v="unclassified"/>
    <tag k="name" v="Filmer Street"/>
  </way>
  <way id="24568008" version="4" timestamp="2010-02-08T07:26:44Z" uid="74617" user="JohnSmith" changeset="3821117">
    <nd ref="267116338"/>
    <nd ref="267116293"/>
    <nd ref="267116402"/>
    <tag k="highway" v="residential"/>
    <tag k="maxspeed" v="50"/>
  </way>
  <way id="24568008" version="5" timestamp="2010-04-04T06:59:14Z" uid="162720" user="Doogie" changeset="4319574">
    <nd ref="267116338"/>
    <nd ref="267116293"/>
    <nd ref="267116402"/>
    <tag k="highway" v="unclassified"/>
    <tag k="maxspeed" v="50"/>
    <tag k="name" v="Storie St"/>
  </way>
  <way id="24568008" version="6" timestamp="2010-06-02T06:52:25Z" uid="4467" user="Rosscoe" changeset="4881307">
    <nd ref="267116338"/>
    <nd ref="267116293"/>
    <nd ref="267116402"/>
    <tag k="highway" v="unclassified"/>
    <tag k="maxspeed" v="50"/>
    <tag k="name" v="Storie Street"/>
  </way>
  <way id="24568008" version="7" timestamp="2012-01-16T11:32:10Z" uid="147510" user="woodpeck_fixbot" changeset="10407211">
    <nd ref="267116338"/>
    <nd ref="267116293"/>
    <nd ref="267116402"/>
    <tag k="highway" v="unclassified"/>
    <tag k="name" v="Storie Street"/>
  </way>
  <way id="24568009" version="4" timestamp="2010-02-08T07:26:44Z" uid="74617" user="JohnSmith" changeset="3821117">
    <nd ref="267116374"/>
    <nd ref="267116292"/>
    <nd ref="267116183"/>
    <tag k="highway" v="residential"/>
    <tag k="maxspeed" v="50"/>
  </way>
  <way id="24568009" version="5" timestamp="2010-04-04T06:59:13Z" uid="162720" user="Doogie" changeset="4319574">
    <nd ref="267116374"/>
    <nd ref="267116292"/>
    <nd ref="267116183"/>
    <tag k="highway" v="unclassified"/>
    <tag k="maxspeed" v="50"/>
    <tag k="name" v="Tubbs St"/>
  </way>
  <way id="24568009" version="6" timestamp="2010-06-02T07:59:18Z" uid="4467" user="Rosscoe" changeset="4881676">
    <nd ref="267116374"/>
    <nd ref="267116292"/>
    <nd ref="267116183"/>
    <tag k="highway" v="unclassified"/>
    <tag k="maxspeed" v="50"/>
    <tag k="name" v="Tubbs Street"/>
  </way>
  <way id="24568009" version="7" timestamp="2012-01-16T11:32:13Z" uid="147510" user="woodpeck_fixbot" changeset="10407211">
    <nd ref="267116374"/>
    <nd ref="267116292"/>
    <nd ref="267116183"/>
    <tag k="highway" v="unclassified"/>
    <tag k="name" v="Tubbs Street"/>
  </way>
  <way id="24568029" version="4" timestamp="2010-02-08T07:26:44Z" uid="74617" user="JohnSmith" changeset="3821117">
    <nd ref="267116398"/>
    <nd ref="267116291"/>
    <nd ref="267116181"/>
    <tag k="highway" v="residential"/>
    <tag k="maxspeed" v="50"/>
  </way>
  <way id="24568029" version="5" timestamp="2010-04-04T06:59:13Z" uid="162720" user="Doogie" changeset="4319574">
    <nd ref="267116398"/>
    <nd ref="267116291"/>
    <nd ref="267116181"/>
    <tag k="highway" v="unclassified"/>
    <tag k="maxspeed" v="50"/>
    <tag k="name" v="Cameron St"/>
  </way>
  <way id="24568029" version="6" timestamp="2010-06-01T08:21:52Z" uid="4467" user="Rosscoe" changeset="4872615">
    <nd ref="267116398"/>
    <nd ref="267116291"/>
    <nd ref="267116181"/>
    <tag k="highway" v="unclassified"/>
    <tag k="maxspeed" v="50"/>
    <tag k="name" v="Cameron Street"/>
  </way>
  <way id="24568029" version="7" timestamp="2012-01-16T11:32:15Z" uid="147510" user="woodpeck_fixbot" changeset="10407211">
    <nd ref="267116398"/>
    <nd ref="267116291"/>
    <nd ref="267116181"/>
    <tag k="highway" v="unclassified"/>
    <tag k="name" v="Cameron Street"/>
  </way>
  <way id="24568031" version="3" timestamp="2010-01-13T06:43:35Z" uid="74617" user="JohnSmith" changeset="3607991">
    <nd ref="267116180"/>
    <nd ref="267116405"/>
    <nd ref="267116290"/>
    <nd ref="267116406"/>
    <tag k="highway" v="residential"/>
    <tag k="source" v="nearmap"/>
  </way>
  <way id="24568031" version="4" timestamp="2010-02-08T07:26:44Z" uid="74617" user="JohnSmith" changeset="3821117">
    <nd ref="267116180"/>
    <nd ref="267116405"/>
    <nd ref="267116290"/>
    <nd ref="267116406"/>
    <tag k="highway" v="residential"/>
    <tag k="maxspeed" v="50"/>
    <tag k="source" v="nearmap"/>
  </way>
  <way id="24568031" version="5" timestamp="2010-04-04T06:50:54Z" uid="162720" user="Doogie" changeset="4319505">
    <nd ref="267116180"/>
    <nd ref="267116405"/>
    <nd ref="267116290"/>
    <nd ref="267116406"/>
    <tag k="highway" v="residential"/>
    <tag k="maxspeed" v="50"/>
    <tag k="name" v="Grice St"/>
    <tag k="source" v="nearmap"/>
  </way>
  <way id="24568031" version="6" timestamp="2010-06-02T01:54:16Z" uid="4467" user="Rosscoe" changeset="4880068">
    <nd ref="267116180"/>
    <nd ref="267116405"/>
    <nd ref="267116290"/>
    <nd ref="267116406"/>
    <tag k="highway" v="residential"/>
    <tag k="maxspeed" v="50"/>
    <tag k="name" v="Grice Street"/>
    <tag k="source" v="nearmap"/>
  </way>
  <way id="24568031" version="7" timestamp="2012-01-16T11:32:16Z" uid="147510" user="woodpeck_fixbot" changeset="10407211">
    <nd ref="267116180"/>
    <nd ref="267116405"/>
    <nd ref="267116290"/>
    <nd ref="267116406"/>
    <tag k="highway" v="residential"/>
    <tag k="name" v="Grice Street"/>
    <tag k="source" v="nearmap"/>
  </way>
  <way id="24568032" version="3" timestamp="2010-01-13T06:43:36Z" uid="74617" user="JohnSmith" changeset="3607991">
    <nd ref="534514164"/>
    <nd ref="612769210"/>
    <nd ref="267116407"/>
    <nd ref="267116405"/>
    <tag k="highway" v="residential"/>
    <tag k="source" v="nearmap"/>
  </way>
  <way id="24568032" version="4" timestamp="2010-02-08T07:26:45Z" uid="74617" user="JohnSmith" changeset="3821117">
    <nd ref="534514164"/>
    <nd ref="612769210"/>
    <nd ref="267116407"/>
    <nd ref="267116405"/>
    <tag k="highway" v="residential"/>
    <tag k="maxspeed" v="50"/>
    <tag k="source" v="nearmap"/>
  </way>
  <way id="24568032" version="5" timestamp="2010-04-04T06:50:52Z" uid="162720" user="Doogie" changeset="4319505">
    <nd ref="534514164"/>
    <nd ref="612769210"/>
    <nd ref="267116407"/>
    <nd ref="267116405"/>
    <tag k="highway" v="unclassified"/>
    <tag k="maxspeed" v="50"/>
    <tag k="name" v="Pine St"/>
    <tag k="source" v="nearmap"/>
  </way>
  <way id="24568032" version="6" timestamp="2010-06-02T04:50:56Z" uid="4467" user="Rosscoe" changeset="4880669">
    <nd ref="534514164"/>
    <nd ref="612769210"/>
    <nd ref="267116407"/>
    <nd ref="267116405"/>
    <tag k="highway" v="unclassified"/>
    <tag k="maxspeed" v="50"/>
    <tag k="name" v="Pine Street"/>
    <tag k="source" v="nearmap"/>
  </way>
  <way id="24568032" version="7" timestamp="2012-01-16T11:32:18Z" uid="147510" user="woodpeck_fixbot" changeset="10407211">
    <nd ref="534514164"/>
    <nd ref="612769210"/>
    <nd ref="267116407"/>
    <nd ref="267116405"/>
    <tag k="highway" v="unclassified"/>
    <tag k="name" v="Pine Street"/>
    <tag k="source" v="nearmap"/>
  </way>
  <way id="24568073" version="2" timestamp="2011-03-24T06:30:01Z" uid="4467" user="Rosscoe" changeset="7653056">
    <nd ref="267115807"/>
    <nd ref="267115809"/>
    <nd ref="619754846"/>
    <nd ref="619754847"/>
    <nd ref="619754856"/>
    <nd ref="619754855"/>
    <nd ref="619754816"/>
    <nd ref="619754821"/>
    <tag k="highway" v="secondary"/>
    <tag k="name" v="Station Street"/>
    <tag k="oneway" v="yes"/>
  </way>
  <way id="24568091" version="4" timestamp="2009-09-19T02:30:12Z" uid="74617" user="JohnSmith" changeset="2529852">
    <nd ref="267117029"/>
    <nd ref="267116989"/>
    <nd ref="267116990"/>
    <nd ref="267116991"/>
    <nd ref="267116994"/>
    <nd ref="33685575"/>
    <tag k="highway" v="residential"/>
    <tag k="name" v="Dover Road"/>
  </way>
  <way id="24568091" version="5" timestamp="2010-02-08T07:27:19Z" uid="74617" user="JohnSmith" changeset="3821117">
    <nd ref="267117029"/>
    <nd ref="267116989"/>
    <nd ref="267116990"/>
    <nd ref="267116991"/>
    <nd ref="267116994"/>
    <nd ref="33685575"/>
    <tag k="highway" v="residential"/>
    <tag k="maxspeed" v="50"/>
    <tag k="name" v="Dover Road"/>
  </way>
  <way id="24568091" version="6" timestamp="2012-01-16T11:32:20Z" uid="147510" user="woodpeck_fixbot" changeset="10407211">
    <nd ref="267117029"/>
    <nd ref="267116989"/>
    <nd ref="267116990"/>
    <nd ref="267116991"/>
    <nd ref="267116994"/>
    <nd ref="33685575"/>
    <tag k="highway" v="residential"/>
    <tag k="name" v="Dover Road"/>
  </way>
  <way id="24568093" version="2" timestamp="2009-09-19T02:30:12Z" uid="74617" user="JohnSmith" changeset="2529852">
    <nd ref="267116993"/>
    <nd ref="267116994"/>
    <tag k="highway" v="residential"/>
    <tag k="name" v="Hinton Street"/>
  </way>
  <way id="24568093" version="3" timestamp="2010-02-08T07:26:39Z" uid="74617" user="JohnSmith" changeset="3821117">
    <nd ref="267116993"/>
    <nd ref="267116994"/>
    <tag k="highway" v="residential"/>
    <tag k="maxspeed" v="50"/>
    <tag k="name" v="Hinton Street"/>
  </way>
  <way id="24568093" version="4" timestamp="2012-01-16T11:32:22Z" uid="147510" user="woodpeck_fixbot" changeset="10407211">
    <nd ref="267116993"/>
    <nd ref="267116994"/>
    <tag k="highway" v="residential"/>
    <tag k="name" v="Hinton Street"/>
  </way>
  <way id="24568094" version="4" timestamp="2009-09-19T02:30:11Z" uid="74617" user="JohnSmith" changeset="2529852">
    <nd ref="267116995"/>
    <nd ref="267116991"/>
    <nd ref="267116997"/>
    <tag k="highway" v="residential"/>
    <tag k="name" v="Mary Street"/>
  </way>
  <way id="24568094" version="5" timestamp="2010-02-08T07:26:39Z" uid="74617" user="JohnSmith" changeset="3821117">
    <nd ref="267116995"/>
    <nd ref="267116991"/>
    <nd ref="267116997"/>
    <tag k="highway" v="residential"/>
    <tag k="maxspeed" v="50"/>
    <tag k="name" v="Mary Street"/>
  </way>
  <way id="24568094" version="6" timestamp="2010-06-10T10:37:02Z" uid="74617" user="JohnSmith" changeset="4952117">
    <nd ref="267116995"/>
    <nd ref="768511380"/>
    <nd ref="267116991"/>
    <nd ref="267116997"/>
    <tag k="highway" v="residential"/>
    <tag k="maxspeed" v="50"/>
    <tag k="name" v="Mary Street"/>
  </way>
  <way id="24568094" version="7" timestamp="2010-06-11T03:45:49Z" uid="74617" user="JohnSmith" changeset="4959571">
    <nd ref="267116995"/>
    <nd ref="768511380"/>
    <nd ref="267116991"/>
    <nd ref="768969809"/>
    <nd ref="267116997"/>
    <tag k="highway" v="residential"/>
    <tag k="maxspeed" v="50"/>
    <tag k="name" v="Mary Street"/>
  </way>
  <way id="24568094" version="8" timestamp="2012-01-16T11:32:23Z" uid="147510" user="woodpeck_fixbot" changeset="10407211">
    <nd ref="267116995"/>
    <nd ref="768511380"/>
    <nd ref="267116991"/>
    <nd ref="768969809"/>
    <nd ref="267116997"/>
    <tag k="highway" v="residential"/>
    <tag k="name" v="Mary Street"/>
  </way>
  <way id="24568095" version="3" timestamp="2009-09-19T02:30:13Z" uid="74617" user="JohnSmith" changeset="2529852">
    <nd ref="267116998"/>
    <nd ref="267116990"/>
    <tag k="highway" v="residential"/>
    <tag k="name" v="Freeman Street"/>
  </way>
  <way id="24568095" version="4" timestamp="2010-02-08T07:27:22Z" uid="74617" user="JohnSmith" changeset="3821117">
    <nd ref="267116998"/>
    <nd ref="267116990"/>
    <tag k="highway" v="residential"/>
    <tag k="maxspeed" v="50"/>
    <tag k="name" v="Freeman Street"/>
  </way>
  <way id="24568095" version="5" timestamp="2012-01-16T11:32:24Z" uid="147510" user="woodpeck_fixbot" changeset="10407211">
    <nd ref="267116998"/>
    <nd ref="267116990"/>
    <tag k="highway" v="residential"/>
    <tag k="name" v="Freeman Street"/>
  </way>
  <way id="24568096" version="4" timestamp="2009-09-19T02:30:13Z" uid="74617" user="JohnSmith" changeset="2529852">
    <nd ref="267117002"/>
    <nd ref="267116995"/>
    <tag k="highway" v="residential"/>
    <tag k="name" v="Sturgeon Street"/>
  </way>
  <way id="24568096" version="5" timestamp="2010-02-08T07:26:56Z" uid="74617" user="JohnSmith" changeset="3821117">
    <nd ref="267117002"/>
    <nd ref="267116995"/>
    <tag k="highway" v="residential"/>
    <tag k="maxspeed" v="50"/>
    <tag k="name" v="Sturgeon Street"/>
  </way>
  <way id="24568096" version="6" timestamp="2010-06-10T10:37:03Z" uid="74617" user="JohnSmith" changeset="4952117">
    <nd ref="267117002"/>
    <nd ref="768511370"/>
    <nd ref="267116995"/>
    <tag k="highway" v="residential"/>
    <tag k="maxspeed" v="50"/>
    <tag k="name" v="Sturgeon Street"/>
  </way>
  <way id="24568096" version="7" timestamp="2012-01-16T11:32:25Z" uid="147510" user="woodpeck_fixbot" changeset="10407211">
    <nd ref="267117002"/>
    <nd ref="768511370"/>
    <nd ref="267116995"/>
    <tag k="highway" v="residential"/>
    <tag k="name" v="Sturgeon Street"/>
  </way>
  <way id="24568102" version="3" timestamp="2009-09-19T02:30:15Z" uid="74617" user="JohnSmith" changeset="2529852"/>
  <way id="24568115" version="4" timestamp="2010-02-08T07:26:39Z" uid="74617" user="JohnSmith" changeset="3821117">
    <nd ref="267117168"/>
    <nd ref="267117179"/>
    <nd ref="267117181"/>
    <nd ref="267117177"/>
    <nd ref="267117175"/>
    <nd ref="267117173"/>
    <tag k="highway" v="residential"/>
    <tag k="maxspeed" v="50"/>
  </way>
  <way id="24568115" version="5" timestamp="2010-09-19T13:13:29Z" uid="347916" user="datsun" changeset="5819663">
    <nd ref="267117168"/>
    <nd ref="267117179"/>
    <nd ref="267117181"/>
    <nd ref="267117177"/>
    <nd ref="267117175"/>
    <nd ref="267117173"/>
    <tag k="highway" v="residential"/>
    <tag k="maxspeed" v="50"/>
    <tag k="name" v="Knight Street"/>
  </way>
  <way id="24568115" version="6" timestamp="2012-01-16T11:32:27Z" uid="147510" user="woodpeck_fixbot" changeset="10407211">
    <nd ref="267117168"/>
    <nd ref="267117179"/>
    <nd ref="267117181"/>
    <nd ref="267117177"/>
    <nd ref="267117175"/>
    <nd ref="267117173"/>
    <tag k="highway" v="residential"/>
    <tag k="name" v="Knight Street"/>
  </way>
  <way id="24568116" version="3" timestamp="2010-02-08T07:26:57Z" uid="74617" user="JohnSmith" changeset="3821117">
    <nd ref="267117174"/>
    <nd ref="267117175"/>
    <tag k="highway" v="residential"/>
    <tag k="maxspeed" v="50"/>
  </way>
  <way id="24568116" version="4" timestamp="2010-09-19T13:13:29Z" uid="347916" user="datsun" changeset="5819663">
    <nd ref="267117174"/>
    <nd ref="267117175"/>
    <tag k="highway" v="residential"/>
    <tag k="maxspeed" v="50"/>
    <tag k="name" v="Livermore Street"/>
  </way>
  <way id="24568116" version="5" timestamp="2012-01-16T11:32:28Z" uid="147510" user="woodpeck_fixbot" changeset="10407211">
    <nd ref="267117174"/>
    <nd ref="267117175"/>
    <tag k="highway" v="residential"/>
    <tag k="name" v="Livermore Street"/>
  </way>
  <way id="24568117" version="3" timestamp="2010-02-08T07:26:57Z" uid="74617" user="JohnSmith" changeset="3821117">
    <nd ref="267117176"/>
    <nd ref="267117177"/>
    <tag k="highway" v="residential"/>
    <tag k="maxspeed" v="50"/>
  </way>
  <way id="24568117" version="4" timestamp="2010-09-19T13:13:29Z" uid="347916" user="datsun" changeset="5819663">
    <nd ref="267117176"/>
    <nd ref="267117177"/>
    <tag k="highway" v="residential"/>
    <tag k="maxspeed" v="50"/>
    <tag k="name" v="McAnerny Street"/>
  </way>
  <way id="24568117" version="5" timestamp="2012-01-16T11:32:29Z" uid="147510" user="woodpeck_fixbot" changeset="10407211">
    <nd ref="267117176"/>
    <nd ref="267117177"/>
    <tag k="highway" v="residential"/>
    <tag k="name" v="McAnerny Street"/>
  </way>
  <way id="24568118" version="3" timestamp="2010-02-08T07:26:39Z" uid="74617" user="JohnSmith" changeset="3821117">
    <nd ref="267117178"/>
    <nd ref="330096353"/>
    <nd ref="267117179"/>
    <tag k="highway" v="residential"/>
    <tag k="maxspeed" v="50"/>
  </way>
  <way id="24568118" version="4" timestamp="2010-09-19T13:13:30Z" uid="347916" user="datsun" changeset="5819663">
    <nd ref="267117178"/>
    <nd ref="330096353"/>
    <nd ref="267117179"/>
    <tag k="highway" v="residential"/>
    <tag k="maxspeed" v="50"/>
    <tag k="name" v="Percy Street"/>
  </way>
  <way id="24568118" version="5" timestamp="2012-01-16T11:32:31Z" uid="147510" user="woodpeck_fixbot" changeset="10407211">
    <nd ref="267117178"/>
    <nd ref="330096353"/>
    <nd ref="267117179"/>
    <tag k="highway" v="residential"/>
    <tag k="name" v="Percy Street"/>
  </way>
  <way id="24568119" version="3" timestamp="2010-02-08T07:26:57Z" uid="74617" user="JohnSmith" changeset="3821117">
    <nd ref="267117180"/>
    <nd ref="267117181"/>
    <tag k="highway" v="residential"/>
    <tag k="maxspeed" v="50"/>
  </way>
  <way id="24568119" version="4" timestamp="2010-09-19T13:13:30Z" uid="347916" user="datsun" changeset="5819663">
    <nd ref="267117180"/>
    <nd ref="267117181"/>
    <tag k="highway" v="residential"/>
    <tag k="maxspeed" v="50"/>
    <tag k="name" v="Tilley Street"/>
  </way>
  <way id="24568119" version="5" timestamp="2012-01-16T11:32:32Z" uid="147510" user="woodpeck_fixbot" changeset="10407211">
    <nd ref="267117180"/>
    <nd ref="267117181"/>
    <tag k="highway" v="residential"/>
    <tag k="name" v="Tilley Street"/>
  </way>
  <way id="24568120" version="8" timestamp="2010-01-31T17:19:59Z" uid="74617" user="JohnSmith" changeset="3761233">
    <nd ref="267117217"/>
    <nd ref="267117346"/>
    <nd ref="267113402"/>
    <nd ref="267117002"/>
    <nd ref="267113405"/>
    <nd ref="33685575"/>
    <nd ref="330092687"/>
    <nd ref="264184510"/>
    <nd ref="186011495"/>
    <nd ref="186011556"/>
    <nd ref="330087385"/>
    <nd ref="330093161"/>
    <nd ref="624293484"/>
    <nd ref="624293489"/>
    <nd ref="624293497"/>
    <nd ref="624293498"/>
    <nd ref="624293500"/>
    <nd ref="361841562"/>
    <tag k="highway" v="secondary"/>
    <tag k="name" v="MacDonnell Road"/>
  </way>
  <way id="24568120" version="9" timestamp="2010-05-25T06:52:50Z" uid="22094" user="Chadzopkyo" changeset="4800765">
    <nd ref="267117217"/>
    <nd ref="267117346"/>
    <nd ref="267113402"/>
    <nd ref="267117002"/>
    <nd ref="267113405"/>
    <nd ref="33685575"/>
    <nd ref="330092687"/>
    <nd ref="264184510"/>
    <nd ref="186011495"/>
    <nd ref="186011556"/>
    <nd ref="330087385"/>
    <nd ref="330093161"/>
    <nd ref="624293484"/>
    <nd ref="624293489"/>
    <nd ref="624293497"/>
    <nd ref="624293498"/>
    <tag k="highway" v="secondary"/>
    <tag k="name" v="MacDonnell Road"/>
  </way>
  <way id="24568122" version="9" timestamp="2009-09-19T02:49:59Z" uid="74617" user="JohnSmith" changeset="2529890">
    <nd ref="212239194"/>
    <nd ref="330096347"/>
    <nd ref="267117577"/>
    <nd ref="267117578"/>
    <nd ref="267117173"/>
    <nd ref="267117579"/>
    <nd ref="267117182"/>
    <nd ref="267117183"/>
    <nd ref="267117184"/>
    <nd ref="267117185"/>
    <nd ref="267117286"/>
    <tag k="highway" v="residential"/>
    <tag k="name" v="Victoria Avenue"/>
  </way>
  <way id="24568122" version="10" timestamp="2010-02-08T07:26:44Z" uid="74617" user="JohnSmith" changeset="3821117">
    <nd ref="212239194"/>
    <nd ref="330096347"/>
    <nd ref="267117577"/>
    <nd ref="267117578"/>
    <nd ref="267117173"/>
    <nd ref="267117579"/>
    <nd ref="267117182"/>
    <nd ref="267117183"/>
    <nd ref="267117184"/>
    <nd ref="267117185"/>
    <nd ref="267117286"/>
    <tag k="highway" v="residential"/>
    <tag k="maxspeed" v="50"/>
    <tag k="name" v="Victoria Avenue"/>
  </way>
  <way id="24568122" version="11" timestamp="2012-01-16T11:32:35Z" uid="147510" user="woodpeck_fixbot" changeset="10407211">
    <nd ref="212239194"/>
    <nd ref="330096347"/>
    <nd ref="267117577"/>
    <nd ref="267117578"/>
    <nd ref="267117173"/>
    <nd ref="267117579"/>
    <nd ref="267117182"/>
    <nd ref="267117183"/>
    <nd ref="267117184"/>
    <nd ref="267117185"/>
    <nd ref="267117286"/>
    <tag k="highway" v="residential"/>
    <tag k="name" v="Victoria Avenue"/>
  </way>
  <way id="24568126" version="11" timestamp="2011-04-21T04:04:50Z" uid="4467" user="Rosscoe" changeset="7921827">
    <nd ref="252359226"/>
    <nd ref="621549601"/>
    <nd ref="621549608"/>
    <nd ref="502710903"/>
    <nd ref="621549691"/>
    <nd ref="867712932"/>
    <nd ref="621549684"/>
    <nd ref="621549693"/>
    <nd ref="867712937"/>
    <nd ref="621549701"/>
    <nd ref="295335875"/>
    <nd ref="621549704"/>
    <nd ref="621549883"/>
    <nd ref="619753466"/>
    <nd ref="867712948"/>
    <nd ref="867712950"/>
    <nd ref="619753467"/>
    <nd ref="26756106"/>
    <nd ref="867712958"/>
    <nd ref="867712959"/>
    <nd ref="867712960"/>
    <nd ref="26756113"/>
    <nd ref="252366660"/>
    <nd ref="318038046"/>
    <nd ref="26756115"/>
    <tag k="highway" v="trunk"/>
    <tag k="is_in" v="Norlane,Victoria,Australia"/>
    <tag k="name" v="Melbourne Road"/>
    <tag k="oneway" v="yes"/>
    <tag k="postal_code" v="3214"/>
    <tag k="ref" v="A10"/>
    <tag k="source" v="survey"/>
  </way>
  <way id="24568126" version="12" timestamp="2011-09-08T08:50:06Z" uid="211505" user="Pierce" changeset="9243531">
    <nd ref="252359226"/>
    <nd ref="621549601"/>
    <nd ref="621549608"/>
    <nd ref="502710903"/>
    <nd ref="621549691"/>
    <nd ref="867712932"/>
    <nd ref="621549684"/>
    <nd ref="621549693"/>
    <nd ref="867712937"/>
    <nd ref="621549701"/>
    <nd ref="295335875"/>
    <nd ref="621549704"/>
    <nd ref="621549883"/>
    <nd ref="619753466"/>
    <nd ref="867712948"/>
    <nd ref="867712950"/>
    <nd ref="619753467"/>
    <nd ref="26756106"/>
    <nd ref="867712958"/>
    <nd ref="867712959"/>
    <nd ref="867712960"/>
    <nd ref="26756113"/>
    <nd ref="252366660"/>
    <nd ref="318038046"/>
    <nd ref="26756115"/>
    <tag k="highway" v="trunk"/>
    <tag k="is_in" v="Norlane,Victoria,Australia"/>
    <tag k="maxspeed" v="80"/>
    <tag k="name" v="Melbourne Road"/>
    <tag k="oneway" v="yes"/>
    <tag k="postal_code" v="3214"/>
    <tag k="ref" v="A10"/>
    <tag k="source" v="survey"/>
  </way>
  <way id="24568126" version="13" timestamp="2011-12-21T02:17:11Z" uid="569841" user="geeoutlier" changeset="10168367">
    <nd ref="621549601"/>
    <nd ref="621549608"/>
    <nd ref="502710903"/>
    <nd ref="621549691"/>
    <nd ref="867712932"/>
    <nd ref="621549684"/>
    <nd ref="621549693"/>
    <nd ref="867712937"/>
    <nd ref="621549701"/>
    <nd ref="295335875"/>
    <nd ref="621549704"/>
    <nd ref="621549883"/>
    <nd ref="619753466"/>
    <nd ref="867712948"/>
    <nd ref="867712950"/>
    <nd ref="619753467"/>
    <nd ref="26756106"/>
    <nd ref="867712958"/>
    <nd ref="867712959"/>
    <nd ref="867712960"/>
    <nd ref="26756113"/>
    <nd ref="252366660"/>
    <nd ref="318038046"/>
    <nd ref="26756115"/>
    <tag k="highway" v="trunk"/>
    <tag k="is_in" v="Norlane,Victoria,Australia"/>
    <tag k="maxspeed" v="80"/>
    <tag k="name" v="Melbourne Road"/>
    <tag k="oneway" v="yes"/>
    <tag k="postal_code" v="3214"/>
    <tag k="ref" v="A10"/>
    <tag k="source" v="survey"/>
  </way>
  <way id="24568126" version="14" timestamp="2011-12-21T02:44:11Z" uid="569841" user="geeoutlier" changeset="10168541">
    <nd ref="621549704"/>
    <nd ref="621549883"/>
    <nd ref="619753466"/>
    <nd ref="867712948"/>
    <nd ref="867712950"/>
    <nd ref="619753467"/>
    <nd ref="26756106"/>
    <nd ref="867712958"/>
    <nd ref="867712959"/>
    <nd ref="867712960"/>
    <nd ref="26756113"/>
    <nd ref="252366660"/>
    <nd ref="318038046"/>
    <nd ref="26756115"/>
    <tag k="highway" v="trunk"/>
    <tag k="is_in" v="Norlane,Victoria,Australia"/>
    <tag k="maxspeed" v="80"/>
    <tag k="name" v="Melbourne Road"/>
    <tag k="oneway" v="yes"/>
    <tag k="postal_code" v="3214"/>
    <tag k="ref" v="A10"/>
    <tag k="source" v="survey"/>
  </way>
  <way id="24568127" version="1" timestamp="2008-05-27T14:56:29Z" uid="22585" user="soudceTi" changeset="534759">
    <nd ref="74279352"/>
    <nd ref="267116909"/>
    <tag k="created_by" v="JOSM"/>
    <tag k="highway" v="tertiary"/>
    <tag k="name" v="Věry Junkové"/>
  </way>
  <way id="24568127" version="2" timestamp="2008-07-11T16:03:51Z" uid="3516" user="BiIbo" changeset="460639">
    <nd ref="74279352"/>
    <nd ref="267116909"/>
    <tag k="created_by" v="JOSM"/>
    <tag k="highway" v="residential"/>
    <tag k="name" v="Věry Junkové"/>
  </way>
  <way id="24568127" version="3" timestamp="2008-08-15T22:47:27Z" uid="17615" user="Petr Dlouhý" changeset="273430">
    <nd ref="288345938"/>
    <nd ref="288345947"/>
    <nd ref="288345962"/>
    <nd ref="288345967"/>
    <nd ref="288345985"/>
    <nd ref="288345932"/>
    <nd ref="288345920"/>
    <nd ref="288345943"/>
    <nd ref="288345942"/>
    <nd ref="288345939"/>
    <nd ref="288345940"/>
    <nd ref="74279352"/>
    <tag k="highway" v="residential"/>
    <tag k="source" v="UHUL:Ortofoto"/>
  </way>
  <way id="24568127" version="4" timestamp="2008-09-29T14:13:35Z" uid="69823" user="cherubin" changeset="719801">
    <nd ref="288345938"/>
    <nd ref="288345947"/>
    <nd ref="288345962"/>
    <nd ref="288345967"/>
    <nd ref="288345985"/>
    <nd ref="288345932"/>
    <nd ref="288345920"/>
    <nd ref="288345943"/>
    <nd ref="288345942"/>
    <tag k="highway" v="residential"/>
    <tag k="name" v="Sezemická"/>
    <tag k="source" v="UHUL:Ortofoto"/>
  </way>
  <way id="24568127" version="5" timestamp="2008-09-29T17:15:32Z" uid="17615" user="Petr Dlouhý" changeset="720136">
    <nd ref="288345938"/>
    <nd ref="288345947"/>
    <nd ref="288345962"/>
    <nd ref="288345967"/>
    <nd ref="288345985"/>
    <nd ref="288345932"/>
    <nd ref="288345920"/>
    <nd ref="288345943"/>
    <nd ref="288345942"/>
    <tag k="highway" v="residential"/>
    <tag k="name" v="Sezemická"/>
    <tag k="source" v="UHUL:ortofoto"/>
  </way>
  <way id="24568127" version="6" timestamp="2008-09-29T22:06:34Z" uid="17615" user="Petr Dlouhý" changeset="720136">
    <nd ref="288345938"/>
    <nd ref="288345947"/>
    <nd ref="288345962"/>
    <nd ref="288345967"/>
    <nd ref="288345985"/>
    <nd ref="288345932"/>
    <nd ref="288345920"/>
    <nd ref="288345943"/>
    <nd ref="288345942"/>
    <tag k="highway" v="residential"/>
    <tag k="name" v="Sezemická"/>
    <tag k="source" v="uhul:ortofoto"/>
  </way>
  <way id="24568127" version="7" timestamp="2008-10-21T21:37:57Z" uid="69823" user="cherubin" changeset="496568"/>
  <way id="24568128" version="1" timestamp="2008-05-27T14:56:29Z" uid="22585" user="soudceTi" changeset="534759">
    <nd ref="267116910"/>
    <nd ref="267116911"/>
    <nd ref="267116912"/>
    <nd ref="267116913"/>
    <nd ref="267116914"/>
    <nd ref="267116915"/>
    <nd ref="267116916"/>
    <nd ref="267116917"/>
    <nd ref="267116918"/>
    <nd ref="267116919"/>
    <nd ref="267116920"/>
    <tag k="created_by" v="JOSM"/>
    <tag k="highway" v="tertiary"/>
    <tag k="name" v="Pod Lipami"/>
  </way>
  <way id="24568128" version="2" timestamp="2008-07-11T16:03:49Z" uid="3516" user="BiIbo" changeset="460639">
    <nd ref="267116910"/>
    <nd ref="267116911"/>
    <nd ref="267116912"/>
    <nd ref="267116913"/>
    <nd ref="267116914"/>
    <nd ref="267116915"/>
    <nd ref="267116916"/>
    <nd ref="267116917"/>
    <nd ref="267116918"/>
    <nd ref="267116919"/>
    <nd ref="267116920"/>
    <tag k="created_by" v="JOSM"/>
    <tag k="highway" v="residential"/>
    <tag k="name" v="Pod Lipami"/>
  </way>
  <way id="24568128" version="3" timestamp="2008-09-29T13:33:59Z" uid="69823" user="cherubin" changeset="719801">
    <nd ref="267116910"/>
    <nd ref="267116911"/>
    <nd ref="267116912"/>
    <nd ref="267116913"/>
    <nd ref="267116914"/>
    <nd ref="267116915"/>
    <nd ref="267116916"/>
    <nd ref="267116917"/>
    <nd ref="267116918"/>
    <nd ref="267116919"/>
    <nd ref="267116920"/>
    <nd ref="300864264"/>
    <nd ref="300864271"/>
    <nd ref="300864269"/>
    <tag k="created_by" v="JOSM"/>
    <tag k="highway" v="residential"/>
    <tag k="name" v="Pod Lipami"/>
    <tag k="source" v="uhul:ortofoto"/>
  </way>
  <way id="24568128" version="4" timestamp="2009-01-10T20:23:54Z" uid="27052" user="onovy" changeset="767674">
    <nd ref="267116910"/>
    <nd ref="267116911"/>
    <nd ref="267116912"/>
    <nd ref="267116913"/>
    <nd ref="267116914"/>
    <nd ref="267116915"/>
    <nd ref="267116916"/>
    <nd ref="267116917"/>
    <nd ref="267116918"/>
    <nd ref="267116919"/>
    <nd ref="267116920"/>
    <nd ref="300864264"/>
    <nd ref="300864271"/>
    <tag k="created_by" v="JOSM"/>
    <tag k="highway" v="residential"/>
    <tag k="name" v="Pod Lipami"/>
    <tag k="source" v="uhul:ortofoto"/>
  </way>
  <way id="24568128" version="5" timestamp="2010-02-10T20:46:09Z" uid="113084" user="Freshman" changeset="3843482">
    <nd ref="267116910"/>
    <nd ref="267116911"/>
    <nd ref="267116912"/>
    <nd ref="267116913"/>
    <nd ref="267116914"/>
    <nd ref="267116915"/>
    <nd ref="267116916"/>
    <nd ref="267116917"/>
    <nd ref="267116918"/>
    <nd ref="267116919"/>
    <nd ref="267116920"/>
    <nd ref="635239054"/>
    <nd ref="300864264"/>
    <nd ref="300864271"/>
    <tag k="highway" v="residential"/>
    <tag k="name" v="Pod Lipami"/>
    <tag k="source" v="uhul:ortofoto"/>
  </way>
  <way id="24568129" version="1" timestamp="2008-05-27T14:56:30Z" uid="22585" user="soudceTi" changeset="534759">
    <nd ref="267116921"/>
    <nd ref="267116922"/>
    <tag k="created_by" v="JOSM"/>
    <tag k="highway" v="tertiary"/>
    <tag k="name" v="Pod Zahradami"/>
  </way>
  <way id="24568129" version="2" timestamp="2008-07-11T15:59:11Z" uid="3516" user="BiIbo" changeset="460639">
    <nd ref="267116920"/>
    <nd ref="267116922"/>
    <tag k="created_by" v="JOSM"/>
    <tag k="highway" v="tertiary"/>
    <tag k="name" v="Pod Zahradami"/>
  </way>
  <way id="24568129" version="3" timestamp="2008-07-11T16:03:49Z" uid="3516" user="BiIbo" changeset="460639">
    <nd ref="267116920"/>
    <nd ref="267116922"/>
    <tag k="created_by" v="JOSM"/>
    <tag k="highway" v="residential"/>
    <tag k="name" v="Pod Zahradami"/>
  </way>
  <way id="24568129" version="4" timestamp="2008-09-29T13:34:00Z" uid="69823" user="cherubin" changeset="719801">
    <nd ref="267116920"/>
    <nd ref="267116922"/>
    <nd ref="300864255"/>
    <tag k="created_by" v="JOSM"/>
    <tag k="highway" v="residential"/>
    <tag k="name" v="Pod Zahradami"/>
    <tag k="source" v="uhul:ortofoto"/>
  </way>
  <way id="24568129" version="5" timestamp="2012-02-20T10:15:22Z" uid="229590" user="xificurk" changeset="10738869"/>
  <way id="24568130" version="1" timestamp="2008-05-27T14:56:30Z" uid="22585" user="soudceTi" changeset="534759">
    <nd ref="267117253"/>
    <nd ref="267116923"/>
    <nd ref="267116924"/>
    <tag k="created_by" v="JOSM"/>
    <tag k="highway" v="tertiary"/>
    <tag k="name" v="Ve Stezkách"/>
  </way>
  <way id="24568130" version="2" timestamp="2008-07-11T16:03:49Z" uid="3516" user="BiIbo" changeset="460639">
    <nd ref="267117253"/>
    <nd ref="267116923"/>
    <nd ref="267116924"/>
    <tag k="created_by" v="JOSM"/>
    <tag k="highway" v="residential"/>
    <tag k="name" v="Ve Stezkách"/>
  </way>
  <way id="24568130" version="3" timestamp="2012-02-20T10:15:22Z" uid="229590" user="xificurk" changeset="10738869"/>
  <way id="24568131" version="1" timestamp="2008-05-27T14:56:30Z" uid="22585" user="soudceTi" changeset="534759">
    <nd ref="267116925"/>
    <nd ref="267116926"/>
    <nd ref="267116927"/>
    <nd ref="267116928"/>
    <nd ref="267116929"/>
    <nd ref="267116930"/>
    <nd ref="267116931"/>
    <nd ref="267116932"/>
    <nd ref="267116933"/>
    <tag k="created_by" v="JOSM"/>
    <tag k="highway" v="tertiary"/>
  </way>
  <way id="24568131" version="2" timestamp="2008-07-11T15:59:11Z" uid="3516" user="BiIbo" changeset="460639">
    <nd ref="267116909"/>
    <nd ref="267116926"/>
    <nd ref="267116927"/>
    <nd ref="267116928"/>
    <nd ref="267116929"/>
    <nd ref="267116930"/>
    <nd ref="267116931"/>
    <nd ref="267116932"/>
    <nd ref="267116933"/>
    <tag k="created_by" v="JOSM"/>
    <tag k="highway" v="tertiary"/>
  </way>
  <way id="24568131" version="3" timestamp="2008-07-11T16:03:49Z" uid="3516" user="BiIbo" changeset="460639">
    <nd ref="267116909"/>
    <nd ref="267116926"/>
    <nd ref="267116927"/>
    <nd ref="267116928"/>
    <nd ref="267116929"/>
    <nd ref="267116930"/>
    <nd ref="267116931"/>
    <nd ref="267116932"/>
    <nd ref="267116933"/>
    <tag k="created_by" v="JOSM"/>
    <tag k="highway" v="residential"/>
  </way>
  <way id="24568131" version="4" timestamp="2009-09-12T16:17:08Z" uid="3516" user="BiIbo" changeset="2458693">
    <nd ref="267116909"/>
    <nd ref="267116927"/>
    <nd ref="267116929"/>
    <nd ref="267116931"/>
    <nd ref="267116933"/>
    <tag k="highway" v="residential"/>
  </way>
  <way id="24568131" version="5" timestamp="2010-01-26T00:28:44Z" uid="113084" user="Freshman" changeset="3716203">
    <nd ref="267116909"/>
    <nd ref="267116927"/>
    <nd ref="620169183"/>
    <nd ref="267116929"/>
    <nd ref="267116931"/>
    <nd ref="267116933"/>
    <tag k="highway" v="residential"/>
  </way>
  <way id="24568133" version="1" timestamp="2008-05-27T14:56:30Z" uid="22585" user="soudceTi" changeset="534759">
    <nd ref="267116934"/>
    <nd ref="267116935"/>
    <nd ref="267116936"/>
    <nd ref="267116937"/>
    <nd ref="267116938"/>
    <nd ref="267116939"/>
    <nd ref="267116940"/>
    <nd ref="267116941"/>
    <nd ref="267116942"/>
    <nd ref="267116943"/>
    <nd ref="267116944"/>
    <nd ref="267116945"/>
    <nd ref="267116946"/>
    <nd ref="267116947"/>
    <nd ref="267116948"/>
    <nd ref="267116949"/>
    <nd ref="267116950"/>
    <nd ref="267116951"/>
    <tag k="created_by" v="JOSM"/>
    <tag k="highway" v="tertiary"/>
    <tag k="oneway" v="yes"/>
  </way>
  <way id="24568133" version="2" timestamp="2008-07-11T15:59:11Z" uid="3516" user="BiIbo" changeset="460639">
    <nd ref="267116933"/>
    <nd ref="267116935"/>
    <nd ref="267116936"/>
    <nd ref="267116937"/>
    <nd ref="267116938"/>
    <nd ref="267116939"/>
    <nd ref="267116940"/>
    <nd ref="267116941"/>
    <nd ref="267116942"/>
    <nd ref="267116943"/>
    <nd ref="267116944"/>
    <nd ref="267116945"/>
    <nd ref="267116946"/>
    <nd ref="267116947"/>
    <nd ref="267116948"/>
    <nd ref="267116949"/>
    <nd ref="267116950"/>
    <nd ref="267116923"/>
    <tag k="created_by" v="JOSM"/>
    <tag k="highway" v="tertiary"/>
    <tag k="oneway" v="yes"/>
  </way>
  <way id="24568133" version="3" timestamp="2008-07-11T16:03:49Z" uid="3516" user="BiIbo" changeset="460639">
    <nd ref="267116933"/>
    <nd ref="267116935"/>
    <nd ref="267116936"/>
    <nd ref="267116937"/>
    <nd ref="267116938"/>
    <nd ref="267116939"/>
    <nd ref="267116940"/>
    <nd ref="267116941"/>
    <nd ref="267116942"/>
    <nd ref="267116943"/>
    <nd ref="267116944"/>
    <nd ref="267116945"/>
    <nd ref="267116946"/>
    <nd ref="267116947"/>
    <nd ref="267116948"/>
    <nd ref="267116949"/>
    <nd ref="267116950"/>
    <nd ref="267116923"/>
    <tag k="created_by" v="JOSM"/>
    <tag k="highway" v="residential"/>
    <tag k="oneway" v="yes"/>
  </way>
  <way id="24568133" version="4" timestamp="2008-09-29T13:18:29Z" uid="69823" user="cherubin" changeset="719801">
    <nd ref="267116933"/>
    <nd ref="267116935"/>
    <nd ref="267116936"/>
    <nd ref="267116937"/>
    <nd ref="267116938"/>
    <nd ref="267116939"/>
    <nd ref="267116940"/>
    <nd ref="267116941"/>
    <nd ref="267116942"/>
    <nd ref="267116943"/>
    <nd ref="267116944"/>
    <nd ref="267116945"/>
    <nd ref="267116946"/>
    <nd ref="267116947"/>
    <nd ref="267116948"/>
    <nd ref="267116949"/>
    <nd ref="267116950"/>
    <nd ref="267116923"/>
    <tag k="created_by" v="JOSM"/>
    <tag k="highway" v="residential"/>
    <tag k="name" v="Na Drážce"/>
    <tag k="oneway" v="yes"/>
  </way>
  <way id="24568133" version="5" timestamp="2009-09-12T16:17:07Z" uid="3516" user="BiIbo" changeset="2458693">
    <nd ref="267116933"/>
    <nd ref="267116937"/>
    <nd ref="267116940"/>
    <nd ref="267116942"/>
    <nd ref="267116945"/>
    <nd ref="267116947"/>
    <nd ref="267116950"/>
    <nd ref="267116923"/>
    <tag k="highway" v="residential"/>
    <tag k="name" v="Na Drážce"/>
    <tag k="oneway" v="yes"/>
  </way>
  <way id="24568133" version="6" timestamp="2009-11-23T20:46:15Z" uid="113084" user="Freshman" changeset="3199514">
    <nd ref="267116933"/>
    <nd ref="267116937"/>
    <nd ref="267116940"/>
    <nd ref="267116942"/>
    <nd ref="267116945"/>
    <nd ref="267116947"/>
    <nd ref="267116950"/>
    <nd ref="267116923"/>
    <tag k="highway" v="service"/>
    <tag k="name" v="Na Drážce"/>
    <tag k="oneway" v="yes"/>
    <tag k="service" v="driveway"/>
  </way>
  <way id="24568134" version="1" timestamp="2008-05-27T14:56:31Z" uid="22585" user="soudceTi" changeset="534759">
    <nd ref="267116953"/>
    <nd ref="267116954"/>
    <tag k="created_by" v="JOSM"/>
    <tag k="highway" v="tertiary"/>
    <tag k="name" v="Věry Junkové"/>
  </way>
  <way id="24568134" version="2" timestamp="2008-07-11T15:59:11Z" uid="3516" user="BiIbo" changeset="460639">
    <nd ref="267116909"/>
    <nd ref="267116954"/>
    <tag k="created_by" v="JOSM"/>
    <tag k="highway" v="tertiary"/>
    <tag k="name" v="Věry Junkové"/>
  </way>
  <way id="24568134" version="3" timestamp="2008-07-11T16:03:48Z" uid="3516" user="BiIbo" changeset="460639">
    <nd ref="267116909"/>
    <nd ref="267116954"/>
    <tag k="created_by" v="JOSM"/>
    <tag k="highway" v="residential"/>
    <tag k="name" v="Věry Junkové"/>
  </way>
  <way id="24568134" version="4" timestamp="2008-08-15T22:47:26Z" uid="17615" user="Petr Dlouhý" changeset="273430">
    <nd ref="74279352"/>
    <nd ref="267116909"/>
    <nd ref="267116954"/>
    <nd ref="267116955"/>
    <tag k="created_by" v="JOSM"/>
    <tag k="highway" v="residential"/>
    <tag k="name" v="Věry Junkové"/>
  </way>
  <way id="24568134" version="5" timestamp="2010-01-26T00:15:08Z" uid="113084" user="Freshman" changeset="3716161">
    <nd ref="74279352"/>
    <nd ref="267116909"/>
    <nd ref="620167363"/>
    <nd ref="267116954"/>
    <nd ref="267116955"/>
    <tag k="highway" v="residential"/>
    <tag k="name" v="Věry Junkové"/>
  </way>
  <way id="24568135" version="1" timestamp="2008-05-27T14:56:31Z" uid="22585" user="soudceTi" changeset="534759">
    <nd ref="267116955"/>
    <nd ref="267116956"/>
    <tag k="created_by" v="JOSM"/>
    <tag k="highway" v="tertiary"/>
    <tag k="name" v="Věry Junkové"/>
  </way>
  <way id="24568135" version="2" timestamp="2008-07-11T16:03:49Z" uid="3516" user="BiIbo" changeset="460639">
    <nd ref="267116955"/>
    <nd ref="267116956"/>
    <tag k="created_by" v="JOSM"/>
    <tag k="highway" v="residential"/>
    <tag k="name" v="Věry Junkové"/>
  </way>
  <way id="24568136" version="1" timestamp="2008-05-27T14:56:31Z" uid="22585" user="soudceTi" changeset="534759">
    <nd ref="267116957"/>
    <nd ref="267116958"/>
    <tag k="created_by" v="JOSM"/>
    <tag k="highway" v="tertiary"/>
    <tag k="name" v="Brigádníků"/>
  </way>
  <way id="24568136" version="2" timestamp="2008-07-11T15:59:13Z" uid="3516" user="BiIbo" changeset="460639">
    <nd ref="267116933"/>
    <nd ref="267116958"/>
    <tag k="created_by" v="JOSM"/>
    <tag k="highway" v="tertiary"/>
    <tag k="name" v="Brigádníků"/>
  </way>
  <way id="24568136" version="3" timestamp="2008-07-11T16:03:50Z" uid="3516" user="BiIbo" changeset="460639">
    <nd ref="267116933"/>
    <nd ref="267116958"/>
    <tag k="created_by" v="JOSM"/>
    <tag k="highway" v="residential"/>
    <tag k="name" v="Brigádníků"/>
  </way>
  <way id="24568137" version="1" timestamp="2008-05-27T14:56:32Z" uid="22585" user="soudceTi" changeset="534759">
    <nd ref="267116959"/>
    <nd ref="267116960"/>
    <tag k="created_by" v="JOSM"/>
    <tag k="highway" v="tertiary"/>
    <tag k="name" v="Rumunská"/>
  </way>
  <way id="24568137" version="2" timestamp="2008-07-11T15:59:13Z" uid="3516" user="BiIbo" changeset="460639">
    <nd ref="267116955"/>
    <nd ref="267116958"/>
    <tag k="created_by" v="JOSM"/>
    <tag k="highway" v="tertiary"/>
    <tag k="name" v="Rumunská"/>
  </way>
  <way id="24568137" version="3" timestamp="2008-07-11T16:03:51Z" uid="3516" user="BiIbo" changeset="460639">
    <nd ref="267116955"/>
    <nd ref="267116958"/>
    <tag k="created_by" v="JOSM"/>
    <tag k="highway" v="residential"/>
    <tag k="name" v="Rumunská"/>
  </way>
  <way id="24568137" version="4" timestamp="2008-09-29T14:03:27Z" uid="69823" user="cherubin" changeset="719801">
    <nd ref="300869314"/>
    <nd ref="267116955"/>
    <nd ref="267116958"/>
    <tag k="created_by" v="JOSM"/>
    <tag k="highway" v="residential"/>
    <tag k="name" v="Rumunská"/>
  </way>
  <way id="24568138" version="1" timestamp="2008-05-27T14:56:32Z" uid="22585" user="soudceTi" changeset="534759">
    <nd ref="267116961"/>
    <nd ref="267116962"/>
    <tag k="created_by" v="JOSM"/>
    <tag k="highway" v="tertiary"/>
    <tag k="name" v="Věry Junkové"/>
  </way>
  <way id="24568138" version="2" timestamp="2008-07-11T15:59:13Z" uid="3516" user="BiIbo" changeset="460639">
    <nd ref="267116954"/>
    <nd ref="267116955"/>
    <tag k="created_by" v="JOSM"/>
    <tag k="highway" v="tertiary"/>
    <tag k="name" v="Věry Junkové"/>
  </way>
  <way id="24568138" version="3" timestamp="2008-07-11T16:03:50Z" uid="3516" user="BiIbo" changeset="460639">
    <nd ref="267116954"/>
    <nd ref="267116955"/>
    <tag k="created_by" v="JOSM"/>
    <tag k="highway" v="residential"/>
    <tag k="name" v="Věry Junkové"/>
  </way>
  <way id="24568138" version="4" timestamp="2008-08-15T22:47:32Z" uid="17615" user="Petr Dlouhý" changeset="273430"/>
  <way id="24568139" version="1" timestamp="2008-05-27T14:56:32Z" uid="22585" user="soudceTi" changeset="534759">
    <nd ref="267116963"/>
    <nd ref="267116964"/>
    <tag k="created_by" v="JOSM"/>
    <tag k="highway" v="tertiary"/>
    <tag k="name" v="Věry Junkové"/>
  </way>
  <way id="24568139" version="2" timestamp="2008-07-11T15:59:13Z" uid="3516" user="BiIbo" changeset="460639">
    <nd ref="267116956"/>
    <nd ref="267116910"/>
    <tag k="created_by" v="JOSM"/>
    <tag k="highway" v="tertiary"/>
    <tag k="name" v="Věry Junkové"/>
  </way>
  <way id="24568139" version="3" timestamp="2008-07-11T16:03:50Z" uid="3516" user="BiIbo" changeset="460639">
    <nd ref="267116956"/>
    <nd ref="267116910"/>
    <tag k="created_by" v="JOSM"/>
    <tag k="highway" v="residential"/>
    <tag k="name" v="Věry Junkové"/>
  </way>
  <way id="24568140" version="1" timestamp="2008-05-27T14:56:32Z" uid="22585" user="soudceTi" changeset="534759">
    <nd ref="267116965"/>
    <nd ref="267116966"/>
    <nd ref="267116967"/>
    <nd ref="267116968"/>
    <nd ref="267116969"/>
    <nd ref="267116970"/>
    <nd ref="267116971"/>
    <nd ref="267116972"/>
    <nd ref="267116973"/>
    <nd ref="267116974"/>
    <nd ref="267116986"/>
    <nd ref="267116987"/>
    <nd ref="267117000"/>
    <tag k="created_by" v="JOSM"/>
    <tag k="highway" v="tertiary"/>
    <tag k="name" v="Luční"/>
    <tag k="oneway" v="yes"/>
  </way>
  <way id="24568140" version="2" timestamp="2008-07-11T15:59:13Z" uid="3516" user="BiIbo" changeset="460639">
    <nd ref="267116965"/>
    <nd ref="267116966"/>
    <nd ref="267116967"/>
    <nd ref="267116968"/>
    <nd ref="267116969"/>
    <nd ref="267116970"/>
    <nd ref="267116971"/>
    <nd ref="267116972"/>
    <nd ref="267116973"/>
    <nd ref="267116974"/>
    <nd ref="267116986"/>
    <nd ref="267116987"/>
    <nd ref="267116956"/>
    <tag k="created_by" v="JOSM"/>
    <tag k="highway" v="tertiary"/>
    <tag k="name" v="Luční"/>
    <tag k="oneway" v="yes"/>
  </way>
  <way id="24568140" version="3" timestamp="2008-07-11T16:03:50Z" uid="3516" user="BiIbo" changeset="460639">
    <nd ref="267116965"/>
    <nd ref="267116966"/>
    <nd ref="267116967"/>
    <nd ref="267116968"/>
    <nd ref="267116969"/>
    <nd ref="267116970"/>
    <nd ref="267116971"/>
    <nd ref="267116972"/>
    <nd ref="267116973"/>
    <nd ref="267116974"/>
    <nd ref="267116986"/>
    <nd ref="267116987"/>
    <nd ref="267116956"/>
    <tag k="created_by" v="JOSM"/>
    <tag k="highway" v="residential"/>
    <tag k="name" v="Luční"/>
    <tag k="oneway" v="yes"/>
  </way>
  <way id="24568140" version="4" timestamp="2010-01-25T18:07:33Z" uid="113084" user="Freshman" changeset="3712905">
    <nd ref="267116965"/>
    <nd ref="267116966"/>
    <nd ref="267116968"/>
    <nd ref="267116970"/>
    <nd ref="267116972"/>
    <nd ref="267116974"/>
    <nd ref="267116956"/>
    <tag k="highway" v="residential"/>
    <tag k="name" v="Luční"/>
    <tag k="oneway" v="yes"/>
  </way>
  <way id="24568141" version="1" timestamp="2008-05-27T14:56:32Z" uid="22585" user="soudceTi" changeset="534759">
    <nd ref="267117001"/>
    <nd ref="267117004"/>
    <tag k="created_by" v="JOSM"/>
    <tag k="highway" v="tertiary"/>
    <tag k="name" v="U Školy"/>
  </way>
  <way id="24568141" version="2" timestamp="2008-07-11T15:59:13Z" uid="3516" user="BiIbo" changeset="460639">
    <nd ref="267117001"/>
    <nd ref="267116965"/>
    <tag k="created_by" v="JOSM"/>
    <tag k="highway" v="tertiary"/>
    <tag k="name" v="U Školy"/>
  </way>
  <way id="24568141" version="3" timestamp="2008-07-11T16:03:50Z" uid="3516" user="BiIbo" changeset="460639">
    <nd ref="267117001"/>
    <nd ref="267116965"/>
    <tag k="created_by" v="JOSM"/>
    <tag k="highway" v="residential"/>
    <tag k="name" v="U Školy"/>
  </way>
  <way id="24568142" version="1" timestamp="2008-05-27T14:56:33Z" uid="22585" user="soudceTi" changeset="534759">
    <nd ref="267117005"/>
    <nd ref="267117070"/>
    <tag k="created_by" v="JOSM"/>
    <tag k="highway" v="tertiary"/>
    <tag k="name" v="Rumunská"/>
  </way>
  <way id="24568142" version="2" timestamp="2008-07-11T15:59:12Z" uid="3516" user="BiIbo" changeset="460639">
    <nd ref="267116958"/>
    <nd ref="267117001"/>
    <tag k="created_by" v="JOSM"/>
    <tag k="highway" v="tertiary"/>
    <tag k="name" v="Rumunská"/>
  </way>
  <way id="24568142" version="3" timestamp="2008-07-11T16:03:50Z" uid="3516" user="BiIbo" changeset="460639">
    <nd ref="267116958"/>
    <nd ref="267117001"/>
    <tag k="created_by" v="JOSM"/>
    <tag k="highway" v="residential"/>
    <tag k="name" v="Rumunská"/>
  </way>
  <way id="24568143" version="1" timestamp="2008-05-27T14:56:33Z" uid="22585" user="soudceTi" changeset="534759">
    <nd ref="267117071"/>
    <nd ref="267117073"/>
    <nd ref="267117075"/>
    <nd ref="267117077"/>
    <nd ref="267117079"/>
    <nd ref="267117080"/>
    <nd ref="267117082"/>
    <nd ref="267117083"/>
    <nd ref="267117085"/>
    <nd ref="267117087"/>
    <nd ref="267117089"/>
    <nd ref="267117090"/>
    <nd ref="267117092"/>
    <nd ref="267117093"/>
    <nd ref="267117095"/>
    <nd ref="267117096"/>
    <nd ref="267117098"/>
    <tag k="created_by" v="JOSM"/>
    <tag k="highway" v="tertiary"/>
    <tag k="name" v="Luční"/>
    <tag k="oneway" v="yes"/>
  </way>
  <way id="24568143" version="2" timestamp="2008-07-11T15:59:12Z" uid="3516" user="BiIbo" changeset="460639">
    <nd ref="267117071"/>
    <nd ref="267117073"/>
    <nd ref="267117075"/>
    <nd ref="267117077"/>
    <nd ref="267117079"/>
    <nd ref="267117080"/>
    <nd ref="267117082"/>
    <nd ref="267117083"/>
    <nd ref="267117085"/>
    <nd ref="267117087"/>
    <nd ref="267117089"/>
    <nd ref="267117090"/>
    <nd ref="267117092"/>
    <nd ref="267117093"/>
    <nd ref="267117095"/>
    <nd ref="267117096"/>
    <nd ref="267116965"/>
    <tag k="created_by" v="JOSM"/>
    <tag k="highway" v="tertiary"/>
    <tag k="name" v="Luční"/>
    <tag k="oneway" v="yes"/>
  </way>
  <way id="24568143" version="3" timestamp="2008-07-11T16:03:50Z" uid="3516" user="BiIbo" changeset="460639">
    <nd ref="267117071"/>
    <nd ref="267117073"/>
    <nd ref="267117075"/>
    <nd ref="267117077"/>
    <nd ref="267117079"/>
    <nd ref="267117080"/>
    <nd ref="267117082"/>
    <nd ref="267117083"/>
    <nd ref="267117085"/>
    <nd ref="267117087"/>
    <nd ref="267117089"/>
    <nd ref="267117090"/>
    <nd ref="267117092"/>
    <nd ref="267117093"/>
    <nd ref="267117095"/>
    <nd ref="267117096"/>
    <nd ref="267116965"/>
    <tag k="created_by" v="JOSM"/>
    <tag k="highway" v="residential"/>
    <tag k="name" v="Luční"/>
    <tag k="oneway" v="yes"/>
  </way>
  <way id="24568143" version="4" timestamp="2009-01-10T20:23:55Z" uid="27052" user="onovy" changeset="767674">
    <nd ref="267117157"/>
    <nd ref="267117071"/>
    <nd ref="267117073"/>
    <nd ref="267117075"/>
    <nd ref="267117077"/>
    <nd ref="267117079"/>
    <nd ref="267117080"/>
    <nd ref="267117082"/>
    <nd ref="267117083"/>
    <nd ref="267117085"/>
    <nd ref="267117087"/>
    <nd ref="267117089"/>
    <nd ref="267117090"/>
    <nd ref="267117092"/>
    <nd ref="267117093"/>
    <nd ref="267117095"/>
    <nd ref="267117096"/>
    <nd ref="267116965"/>
    <tag k="created_by" v="JOSM"/>
    <tag k="highway" v="residential"/>
    <tag k="name" v="Luční"/>
    <tag k="oneway" v="yes"/>
  </way>
  <way id="24568143" version="5" timestamp="2010-01-25T18:07:33Z" uid="113084" user="Freshman" changeset="3712905">
    <nd ref="267117157"/>
    <nd ref="267117071"/>
    <nd ref="267117075"/>
    <nd ref="267117079"/>
    <nd ref="267117085"/>
    <nd ref="267117089"/>
    <nd ref="267117092"/>
    <nd ref="267117095"/>
    <nd ref="267116965"/>
    <tag k="highway" v="residential"/>
    <tag k="name" v="Luční"/>
    <tag k="oneway" v="yes"/>
  </way>
  <way id="24568144" version="1" timestamp="2008-05-27T14:56:33Z" uid="22585" user="soudceTi" changeset="534759">
    <nd ref="267117099"/>
    <nd ref="267117102"/>
    <tag k="created_by" v="JOSM"/>
    <tag k="highway" v="tertiary"/>
    <tag k="name" v="Zahradní"/>
  </way>
  <way id="24568144" version="2" timestamp="2008-07-11T15:59:10Z" uid="3516" user="BiIbo" changeset="460639">
    <nd ref="267117099"/>
    <nd ref="267117071"/>
    <tag k="created_by" v="JOSM"/>
    <tag k="highway" v="tertiary"/>
    <tag k="name" v="Zahradní"/>
  </way>
  <way id="24568144" version="3" timestamp="2008-07-11T16:03:48Z" uid="3516" user="BiIbo" changeset="460639">
    <nd ref="267117099"/>
    <nd ref="267117071"/>
    <tag k="created_by" v="JOSM"/>
    <tag k="highway" v="residential"/>
    <tag k="name" v="Zahradní"/>
  </way>
  <way id="24568145" version="1" timestamp="2008-05-27T14:56:33Z" uid="22585" user="soudceTi" changeset="534759">
    <nd ref="267117157"/>
    <nd ref="267117158"/>
    <tag k="created_by" v="JOSM"/>
    <tag k="highway" v="tertiary"/>
    <tag k="name" v="Luční"/>
    <tag k="oneway" v="yes"/>
  </way>
  <way id="24568145" version="2" timestamp="2008-07-11T15:59:10Z" uid="3516" user="BiIbo" changeset="460639">
    <nd ref="267117157"/>
    <nd ref="267117071"/>
    <tag k="created_by" v="JOSM"/>
    <tag k="highway" v="tertiary"/>
    <tag k="name" v="Luční"/>
    <tag k="oneway" v="yes"/>
  </way>
  <way id="24568145" version="3" timestamp="2008-07-11T16:03:47Z" uid="3516" user="BiIbo" changeset="460639">
    <nd ref="267117157"/>
    <nd ref="267117071"/>
    <tag k="created_by" v="JOSM"/>
    <tag k="highway" v="residential"/>
    <tag k="name" v="Luční"/>
    <tag k="oneway" v="yes"/>
  </way>
  <way id="24568145" version="4" timestamp="2009-01-10T20:23:57Z" uid="27052" user="onovy" changeset="767674"/>
  <way id="24568146" version="1" timestamp="2008-05-27T14:56:33Z" uid="22585" user="soudceTi" changeset="534759">
    <nd ref="267117159"/>
    <nd ref="267117160"/>
    <nd ref="267117161"/>
    <nd ref="267117162"/>
    <nd ref="267117163"/>
    <nd ref="267117164"/>
    <nd ref="267117165"/>
    <nd ref="267117166"/>
    <nd ref="267117167"/>
    <nd ref="267117189"/>
    <nd ref="267117191"/>
    <nd ref="267117193"/>
    <nd ref="267117194"/>
    <nd ref="267117197"/>
    <nd ref="267117199"/>
    <nd ref="267117201"/>
    <nd ref="267117203"/>
    <tag k="created_by" v="JOSM"/>
    <tag k="highway" v="tertiary"/>
    <tag k="name" v="Rumunská"/>
  </way>
  <way id="24568146" version="2" timestamp="2008-07-11T15:59:10Z" uid="3516" user="BiIbo" changeset="460639">
    <nd ref="267117001"/>
    <nd ref="267117160"/>
    <nd ref="267117161"/>
    <nd ref="267117162"/>
    <nd ref="267117163"/>
    <nd ref="267117164"/>
    <nd ref="267117165"/>
    <nd ref="267117166"/>
    <nd ref="267117167"/>
    <nd ref="267117189"/>
    <nd ref="267117191"/>
    <nd ref="267117193"/>
    <nd ref="267117194"/>
    <nd ref="267117197"/>
    <nd ref="267117199"/>
    <nd ref="267117201"/>
    <nd ref="267117099"/>
    <tag k="created_by" v="JOSM"/>
    <tag k="highway" v="tertiary"/>
    <tag k="name" v="Rumunská"/>
  </way>
  <way id="24568146" version="3" timestamp="2008-07-11T16:03:47Z" uid="3516" user="BiIbo" changeset="460639">
    <nd ref="267117001"/>
    <nd ref="267117160"/>
    <nd ref="267117161"/>
    <nd ref="267117162"/>
    <nd ref="267117163"/>
    <nd ref="267117164"/>
    <nd ref="267117165"/>
    <nd ref="267117166"/>
    <nd ref="267117167"/>
    <nd ref="267117189"/>
    <nd ref="267117191"/>
    <nd ref="267117193"/>
    <nd ref="267117194"/>
    <nd ref="267117197"/>
    <nd ref="267117199"/>
    <nd ref="267117201"/>
    <nd ref="267117099"/>
    <tag k="created_by" v="JOSM"/>
    <tag k="highway" v="residential"/>
    <tag k="name" v="Rumunská"/>
  </way>
  <way id="24568146" version="4" timestamp="2010-01-06T11:28:45Z" uid="113084" user="Freshman" changeset="3552632">
    <nd ref="267117001"/>
    <nd ref="267117163"/>
    <nd ref="267117191"/>
    <nd ref="267117099"/>
    <tag k="highway" v="residential"/>
    <tag k="name" v="Rumunská"/>
  </way>
  <way id="24568147" version="1" timestamp="2008-05-27T14:56:34Z" uid="22585" user="soudceTi" changeset="534759">
    <nd ref="267117204"/>
    <nd ref="267117205"/>
    <tag k="created_by" v="JOSM"/>
    <tag k="highway" v="tertiary"/>
    <tag k="name" v="Rumunská"/>
  </way>
  <way id="24568147" version="2" timestamp="2008-07-11T15:59:10Z" uid="3516" user="BiIbo" changeset="460639">
    <nd ref="267117099"/>
    <nd ref="267116924"/>
    <tag k="created_by" v="JOSM"/>
    <tag k="highway" v="tertiary"/>
    <tag k="name" v="Rumunská"/>
  </way>
  <way id="24568147" version="3" timestamp="2008-07-11T16:03:47Z" uid="3516" user="BiIbo" changeset="460639">
    <nd ref="267117099"/>
    <nd ref="267116924"/>
    <tag k="created_by" v="JOSM"/>
    <tag k="highway" v="residential"/>
    <tag k="name" v="Rumunská"/>
  </way>
  <way id="24568147" version="4" timestamp="2012-02-20T10:15:21Z" uid="229590" user="xificurk" changeset="10738869">
    <nd ref="267117099"/>
    <nd ref="1640296964"/>
    <tag k="highway" v="residential"/>
    <tag k="name" v="Rumunská"/>
  </way>
  <way id="24568148" version="1" timestamp="2008-05-27T14:56:34Z" uid="22585" user="soudceTi" changeset="534759">
    <nd ref="267117208"/>
    <nd ref="267117210"/>
    <tag k="created_by" v="JOSM"/>
    <tag k="highway" v="tertiary"/>
    <tag k="name" v="Ve Stezkách"/>
  </way>
  <way id="24568148" version="2" timestamp="2008-07-11T15:59:09Z" uid="3516" user="BiIbo" changeset="460639">
    <nd ref="267116924"/>
    <nd ref="267117157"/>
    <tag k="created_by" v="JOSM"/>
    <tag k="highway" v="tertiary"/>
    <tag k="name" v="Ve Stezkách"/>
  </way>
  <way id="24568148" version="3" timestamp="2008-07-11T16:03:47Z" uid="3516" user="BiIbo" changeset="460639">
    <nd ref="267116924"/>
    <nd ref="267117157"/>
    <tag k="created_by" v="JOSM"/>
    <tag k="highway" v="residential"/>
    <tag k="name" v="Ve Stezkách"/>
  </way>
  <way id="24568148" version="4" timestamp="2012-02-20T10:15:22Z" uid="229590" user="xificurk" changeset="10738869"/>
  <way id="24568151" version="4" timestamp="2010-02-08T07:26:56Z" uid="74617" user="JohnSmith" changeset="3821117">
    <nd ref="267117282"/>
    <nd ref="267117284"/>
    <nd ref="267117286"/>
    <nd ref="267117288"/>
    <nd ref="267117290"/>
    <nd ref="267117217"/>
    <nd ref="267117292"/>
    <nd ref="267117294"/>
    <nd ref="267117296"/>
    <nd ref="183323994"/>
    <nd ref="267117298"/>
    <nd ref="267117300"/>
    <nd ref="267117302"/>
    <nd ref="267117282"/>
    <tag k="highway" v="secondary"/>
    <tag k="junction" v="roundabout"/>
  </way>
  <way id="24568151" version="5" timestamp="2010-05-25T10:46:31Z" uid="22094" user="Chadzopkyo" changeset="4802414">
    <nd ref="267117282"/>
    <nd ref="267117284"/>
    <nd ref="267117286"/>
    <nd ref="267117288"/>
    <nd ref="267117290"/>
    <nd ref="267117217"/>
    <nd ref="267117292"/>
    <nd ref="267117296"/>
    <nd ref="183323994"/>
    <nd ref="267117298"/>
    <nd ref="267117300"/>
    <nd ref="267117302"/>
    <nd ref="267117282"/>
    <tag k="highway" v="secondary"/>
    <tag k="junction" v="roundabout"/>
  </way>
  <way id="24568152" version="1" timestamp="2008-05-27T14:56:37Z" uid="22585" user="soudceTi" changeset="534759">
    <nd ref="267117212"/>
    <nd ref="267117213"/>
    <tag k="created_by" v="JOSM"/>
    <tag k="highway" v="tertiary"/>
    <tag k="name" v="Ve Stezkách"/>
  </way>
  <way id="24568152" version="2" timestamp="2008-07-11T15:59:11Z" uid="3516" user="BiIbo" changeset="460639">
    <nd ref="267117157"/>
    <nd ref="267116922"/>
    <tag k="created_by" v="JOSM"/>
    <tag k="highway" v="tertiary"/>
    <tag k="name" v="Ve Stezkách"/>
  </way>
  <way id="24568152" version="3" timestamp="2008-07-11T16:03:48Z" uid="3516" user="BiIbo" changeset="460639">
    <nd ref="267117157"/>
    <nd ref="267116922"/>
    <tag k="created_by" v="JOSM"/>
    <tag k="highway" v="residential"/>
    <tag k="name" v="Ve Stezkách"/>
  </way>
  <way id="24568152" version="4" timestamp="2008-09-29T13:33:58Z" uid="69823" user="cherubin" changeset="719801">
    <nd ref="267117157"/>
    <nd ref="267116922"/>
    <tag k="created_by" v="JOSM"/>
    <tag k="highway" v="residential"/>
    <tag k="name" v="Ve Stezkách"/>
  </way>
  <way id="24568152" version="5" timestamp="2012-02-20T10:15:22Z" uid="229590" user="xificurk" changeset="10738869"/>
  <way id="24568153" version="1" timestamp="2008-05-27T14:56:37Z" uid="22585" user="soudceTi" changeset="534759">
    <nd ref="267117216"/>
    <nd ref="267117218"/>
    <tag k="created_by" v="JOSM"/>
    <tag k="highway" v="tertiary"/>
    <tag k="name" v="Luční"/>
  </way>
  <way id="24568153" version="2" timestamp="2008-07-11T15:59:11Z" uid="3516" user="BiIbo" changeset="460639">
    <nd ref="267117157"/>
    <nd ref="267117218"/>
    <tag k="created_by" v="JOSM"/>
    <tag k="highway" v="tertiary"/>
    <tag k="name" v="Luční"/>
  </way>
  <way id="24568153" version="3" timestamp="2008-07-11T16:03:48Z" uid="3516" user="BiIbo" changeset="460639">
    <nd ref="267117157"/>
    <nd ref="267117218"/>
    <tag k="created_by" v="JOSM"/>
    <tag k="highway" v="residential"/>
    <tag k="name" v="Luční"/>
  </way>
  <way id="24568153" version="4" timestamp="2012-02-19T23:46:51Z" uid="229590" user="xificurk" changeset="10736320">
    <nd ref="267117157"/>
    <nd ref="1639965751"/>
    <tag k="highway" v="residential"/>
    <tag k="name" v="Luční"/>
    <tag k="odbl" v="clean"/>
  </way>
  <way id="24568154" version="1" timestamp="2008-05-27T14:56:38Z" uid="22585" user="soudceTi" changeset="534759">
    <nd ref="267117220"/>
    <nd ref="267117222"/>
    <tag k="created_by" v="JOSM"/>
    <tag k="highway" v="tertiary"/>
    <tag k="name" v="Radiomechaniků"/>
  </way>
  <way id="24568154" version="2" timestamp="2008-07-11T15:59:11Z" uid="3516" user="BiIbo" changeset="460639">
    <nd ref="267117220"/>
    <nd ref="267117218"/>
    <tag k="created_by" v="JOSM"/>
    <tag k="highway" v="tertiary"/>
    <tag k="name" v="Radiomechaniků"/>
  </way>
  <way id="24568154" version="3" timestamp="2008-07-11T16:03:48Z" uid="3516" user="BiIbo" changeset="460639">
    <nd ref="267117220"/>
    <nd ref="267117218"/>
    <tag k="created_by" v="JOSM"/>
    <tag k="highway" v="residential"/>
    <tag k="name" v="Radiomechaniků"/>
  </way>
  <way id="24568154" version="4" timestamp="2012-02-19T23:46:51Z" uid="229590" user="xificurk" changeset="10736320"/>
  <way id="24568155" version="1" timestamp="2008-05-27T14:56:38Z" uid="22585" user="soudceTi" changeset="534759">
    <nd ref="267117224"/>
    <nd ref="267117226"/>
    <tag k="created_by" v="JOSM"/>
    <tag k="highway" v="tertiary"/>
    <tag k="name" v="Úzká"/>
  </way>
  <way id="24568155" version="2" timestamp="2008-07-11T16:03:48Z" uid="3516" user="BiIbo" changeset="460639">
    <nd ref="267117224"/>
    <nd ref="267117226"/>
    <tag k="created_by" v="JOSM"/>
    <tag k="highway" v="residential"/>
    <tag k="name" v="Úzká"/>
  </way>
  <way id="24568155" version="3" timestamp="2012-02-19T23:46:51Z" uid="229590" user="xificurk" changeset="10736320"/>
  <way id="24568156" version="1" timestamp="2008-05-27T14:56:38Z" uid="22585" user="soudceTi" changeset="534759">
    <nd ref="267117249"/>
    <nd ref="267117250"/>
    <tag k="created_by" v="JOSM"/>
    <tag k="highway" v="tertiary"/>
    <tag k="name" v="Luční"/>
  </way>
  <way id="24568156" version="2" timestamp="2008-07-11T15:59:10Z" uid="3516" user="BiIbo" changeset="460639">
    <nd ref="267117218"/>
    <nd ref="267117226"/>
    <tag k="created_by" v="JOSM"/>
    <tag k="highway" v="tertiary"/>
    <tag k="name" v="Luční"/>
  </way>
  <way id="24568156" version="3" timestamp="2008-07-11T16:03:48Z" uid="3516" user="BiIbo" changeset="460639">
    <nd ref="267117218"/>
    <nd ref="267117226"/>
    <tag k="created_by" v="JOSM"/>
    <tag k="highway" v="residential"/>
    <tag k="name" v="Luční"/>
  </way>
  <way id="24568156" version="4" timestamp="2012-02-19T23:46:51Z" uid="229590" user="xificurk" changeset="10736320">
    <nd ref="1639965751"/>
    <nd ref="1639965748"/>
    <tag k="highway" v="residential"/>
    <tag k="name" v="Luční"/>
  </way>
  <way id="24568156" version="5" timestamp="2012-02-20T10:15:22Z" uid="229590" user="xificurk" changeset="10738869"/>
  <way id="24568157" version="1" timestamp="2008-05-27T14:56:38Z" uid="22585" user="soudceTi" changeset="534759">
    <nd ref="267117251"/>
    <nd ref="267117252"/>
    <nd ref="267117254"/>
    <tag k="created_by" v="JOSM"/>
    <tag k="highway" v="tertiary"/>
    <tag k="name" v="Luční"/>
  </way>
  <way id="24568157" version="2" timestamp="2008-07-11T15:59:10Z" uid="3516" user="BiIbo" changeset="460639">
    <nd ref="267117226"/>
    <nd ref="267117252"/>
    <nd ref="267117254"/>
    <tag k="created_by" v="JOSM"/>
    <tag k="highway" v="tertiary"/>
    <tag k="name" v="Luční"/>
  </way>
  <way id="24568157" version="3" timestamp="2008-07-11T16:03:48Z" uid="3516" user="BiIbo" changeset="460639">
    <nd ref="267117226"/>
    <nd ref="267117252"/>
    <nd ref="267117254"/>
    <tag k="created_by" v="JOSM"/>
    <tag k="highway" v="residential"/>
    <tag k="name" v="Luční"/>
  </way>
  <way id="24568157" version="4" timestamp="2008-09-29T14:21:16Z" uid="69823" user="cherubin" changeset="719801">
    <nd ref="267117226"/>
    <nd ref="267117252"/>
    <nd ref="267117254"/>
    <nd ref="300876685"/>
    <nd ref="300876686"/>
    <nd ref="300876688"/>
    <nd ref="300876690"/>
    <nd ref="300876691"/>
    <tag k="created_by" v="JOSM"/>
    <tag k="highway" v="residential"/>
    <tag k="name" v="Luční"/>
  </way>
  <way id="24568157" version="5" timestamp="2009-11-23T18:36:43Z" uid="113084" user="Freshman" changeset="3198057">
    <nd ref="267117226"/>
    <nd ref="267117252"/>
    <nd ref="267117254"/>
    <nd ref="300876686"/>
    <nd ref="300876688"/>
    <nd ref="300876690"/>
    <nd ref="300876691"/>
    <tag k="highway" v="residential"/>
    <tag k="name" v="Luční"/>
  </way>
  <way id="24568157" version="6" timestamp="2010-01-27T10:12:39Z" uid="113084" user="Freshman" changeset="3726481">
    <nd ref="267117226"/>
    <nd ref="267117252"/>
    <nd ref="621126241"/>
    <nd ref="267117254"/>
    <nd ref="300876686"/>
    <nd ref="300876688"/>
    <nd ref="300876690"/>
    <nd ref="300876691"/>
    <tag k="highway" v="residential"/>
    <tag k="name" v="Luční"/>
  </way>
  <way id="24568157" version="7" timestamp="2012-02-19T23:46:50Z" uid="229590" user="xificurk" changeset="10736320">
    <nd ref="1639965748"/>
    <nd ref="1639965747"/>
    <nd ref="621126241"/>
    <nd ref="267117254"/>
    <nd ref="300876686"/>
    <nd ref="300876688"/>
    <nd ref="300876690"/>
    <nd ref="300876691"/>
    <tag k="highway" v="residential"/>
    <tag k="name" v="Luční"/>
    <tag k="odbl" v="clean"/>
    <tag k="source" v="cuzk:km"/>
  </way>
  <way id="24568170" version="4" timestamp="2009-09-19T02:30:11Z" uid="74617" user="JohnSmith" changeset="2529852">
    <nd ref="267117346"/>
    <nd ref="267117322"/>
    <tag k="highway" v="residential"/>
    <tag k="name" v="Chudleigh Street"/>
  </way>
  <way id="24568170" version="5" timestamp="2010-02-08T07:26:56Z" uid="74617" user="JohnSmith" changeset="3821117">
    <nd ref="267117346"/>
    <nd ref="267117322"/>
    <tag k="highway" v="residential"/>
    <tag k="maxspeed" v="50"/>
    <tag k="name" v="Chudleigh Street"/>
  </way>
  <way id="24568170" version="6" timestamp="2012-01-16T11:32:36Z" uid="147510" user="woodpeck_fixbot" changeset="10407211">
    <nd ref="267117346"/>
    <nd ref="267117322"/>
    <tag k="highway" v="residential"/>
    <tag k="name" v="Chudleigh Street"/>
  </way>
  <way id="24568171" version="3" timestamp="2009-09-19T02:30:09Z" uid="74617" user="JohnSmith" changeset="2529852">
    <nd ref="267117347"/>
    <nd ref="267117321"/>
    <tag k="highway" v="residential"/>
    <tag k="name" v="Reedy STreet"/>
  </way>
  <way id="24568171" version="4" timestamp="2010-02-08T07:26:43Z" uid="74617" user="JohnSmith" changeset="3821117">
    <nd ref="267117347"/>
    <nd ref="267117321"/>
    <tag k="highway" v="residential"/>
    <tag k="maxspeed" v="50"/>
    <tag k="name" v="Reedy STreet"/>
  </way>
  <way id="24568171" version="5" timestamp="2012-01-16T11:32:39Z" uid="147510" user="woodpeck_fixbot" changeset="10407211">
    <nd ref="267117347"/>
    <nd ref="267117321"/>
    <tag k="highway" v="residential"/>
    <tag k="name" v="Reedy STreet"/>
  </way>
  <way id="24568173" version="3" timestamp="2009-09-19T02:30:10Z" uid="74617" user="JohnSmith" changeset="2529852">
    <nd ref="267117348"/>
    <nd ref="267117323"/>
    <tag k="highway" v="residential"/>
    <tag k="name" v="Savannah Street"/>
  </way>
  <way id="24568173" version="4" timestamp="2010-02-08T07:26:43Z" uid="74617" user="JohnSmith" changeset="3821117">
    <nd ref="267117348"/>
    <nd ref="267117323"/>
    <tag k="highway" v="residential"/>
    <tag k="maxspeed" v="50"/>
    <tag k="name" v="Savannah Street"/>
  </way>
  <way id="24568173" version="5" timestamp="2012-01-16T11:32:40Z" uid="147510" user="woodpeck_fixbot" changeset="10407211">
    <nd ref="267117348"/>
    <nd ref="267117323"/>
    <tag k="highway" v="residential"/>
    <tag k="name" v="Savannah Street"/>
  </way>
  <way id="24568176" version="4" timestamp="2009-09-19T02:50:00Z" uid="74617" user="JohnSmith" changeset="2529890"/>
  <way id="24568180" version="4" timestamp="2009-09-19T02:49:57Z" uid="74617" user="JohnSmith" changeset="2529890">
    <nd ref="267117185"/>
    <nd ref="267193956"/>
    <tag k="highway" v="residential"/>
    <tag k="name" v="Crawford Street"/>
  </way>
  <way id="24568180" version="5" timestamp="2010-02-08T07:26:43Z" uid="74617" user="JohnSmith" changeset="3821117">
    <nd ref="267117185"/>
    <nd ref="267193956"/>
    <tag k="highway" v="residential"/>
    <tag k="maxspeed" v="50"/>
    <tag k="name" v="Crawford Street"/>
  </way>
  <way id="24568180" version="6" timestamp="2012-01-16T11:32:41Z" uid="147510" user="woodpeck_fixbot" changeset="10407211">
    <nd ref="267117185"/>
    <nd ref="267193956"/>
    <tag k="highway" v="residential"/>
    <tag k="name" v="Crawford Street"/>
  </way>
  <way id="24568182" version="3" timestamp="2009-09-19T02:49:58Z" uid="74617" user="JohnSmith" changeset="2529890">
    <nd ref="267117183"/>
    <nd ref="267193946"/>
    <tag k="highway" v="residential"/>
    <tag k="name" v="Highland Street"/>
  </way>
  <way id="24568182" version="4" timestamp="2010-02-08T07:27:01Z" uid="74617" user="JohnSmith" changeset="3821117">
    <nd ref="267117183"/>
    <nd ref="267193946"/>
    <tag k="highway" v="residential"/>
    <tag k="maxspeed" v="50"/>
    <tag k="name" v="Highland Street"/>
  </way>
  <way id="24568182" version="5" timestamp="2012-01-16T11:32:43Z" uid="147510" user="woodpeck_fixbot" changeset="10407211">
    <nd ref="267117183"/>
    <nd ref="267193946"/>
    <tag k="highway" v="residential"/>
    <tag k="name" v="Highland Street"/>
  </way>
  <way id="24568183" version="4" timestamp="2009-09-19T02:30:11Z" uid="74617" user="JohnSmith" changeset="2529852">
    <nd ref="267117399"/>
    <nd ref="267117400"/>
    <nd ref="267117320"/>
    <nd ref="267117321"/>
    <nd ref="267117322"/>
    <nd ref="267117323"/>
    <nd ref="267117185"/>
    <tag k="highway" v="residential"/>
    <tag k="name" v="Redbark Road"/>
  </way>
  <way id="24568183" version="5" timestamp="2010-02-08T07:26:43Z" uid="74617" user="JohnSmith" changeset="3821117">
    <nd ref="267117399"/>
    <nd ref="267117400"/>
    <nd ref="267117320"/>
    <nd ref="267117321"/>
    <nd ref="267117322"/>
    <nd ref="267117323"/>
    <nd ref="267117185"/>
    <tag k="highway" v="residential"/>
    <tag k="maxspeed" v="50"/>
    <tag k="name" v="Redbark Road"/>
  </way>
  <way id="24568183" version="6" timestamp="2012-01-16T11:32:46Z" uid="147510" user="woodpeck_fixbot" changeset="10407211">
    <nd ref="267117399"/>
    <nd ref="267117400"/>
    <nd ref="267117320"/>
    <nd ref="267117321"/>
    <nd ref="267117322"/>
    <nd ref="267117323"/>
    <nd ref="267117185"/>
    <tag k="highway" v="residential"/>
    <tag k="name" v="Redbark Road"/>
  </way>
  <way id="24568185" version="4" timestamp="2009-09-19T02:30:13Z" uid="74617" user="JohnSmith" changeset="2529852">
    <nd ref="267117182"/>
    <nd ref="267117348"/>
    <nd ref="267117347"/>
    <nd ref="267117399"/>
    <nd ref="267117489"/>
    <nd ref="267117518"/>
    <nd ref="267117517"/>
    <nd ref="267117033"/>
    <nd ref="267116989"/>
    <nd ref="267117034"/>
    <tag k="highway" v="residential"/>
    <tag k="name" v="Plume Street"/>
  </way>
  <way id="24568185" version="5" timestamp="2010-02-08T07:26:39Z" uid="74617" user="JohnSmith" changeset="3821117">
    <nd ref="267117182"/>
    <nd ref="267117348"/>
    <nd ref="267117347"/>
    <nd ref="267117399"/>
    <nd ref="267117489"/>
    <nd ref="267117518"/>
    <nd ref="267117517"/>
    <nd ref="267117033"/>
    <nd ref="267116989"/>
    <nd ref="267117034"/>
    <tag k="highway" v="residential"/>
    <tag k="maxspeed" v="50"/>
    <tag k="name" v="Plume Street"/>
  </way>
  <way id="24568185" version="6" timestamp="2010-06-11T03:45:50Z" uid="74617" user="JohnSmith" changeset="4959571">
    <nd ref="267117182"/>
    <nd ref="267117348"/>
    <nd ref="267117347"/>
    <nd ref="267117399"/>
    <nd ref="267117489"/>
    <nd ref="267117518"/>
    <nd ref="267117517"/>
    <nd ref="267117033"/>
    <nd ref="267116989"/>
    <nd ref="768969800"/>
    <nd ref="267117034"/>
    <tag k="highway" v="residential"/>
    <tag k="maxspeed" v="50"/>
    <tag k="name" v="Plume Street"/>
  </way>
  <way id="24568185" version="7" timestamp="2012-01-16T11:32:48Z" uid="147510" user="woodpeck_fixbot" changeset="10407211">
    <nd ref="267117182"/>
    <nd ref="267117348"/>
    <nd ref="267117347"/>
    <nd ref="267117399"/>
    <nd ref="267117489"/>
    <nd ref="267117518"/>
    <nd ref="267117517"/>
    <nd ref="267117033"/>
    <nd ref="267116989"/>
    <nd ref="768969800"/>
    <nd ref="267117034"/>
    <tag k="highway" v="residential"/>
    <tag k="name" v="Plume Street"/>
  </way>
  <way id="24568190" version="2" timestamp="2010-02-08T07:27:24Z" uid="74617" user="JohnSmith" changeset="3821117">
    <nd ref="267117564"/>
    <nd ref="267117168"/>
    <tag k="highway" v="residential"/>
    <tag k="maxspeed" v="50"/>
  </way>
  <way id="24568190" version="3" timestamp="2012-01-16T11:32:51Z" uid="147510" user="woodpeck_fixbot" changeset="10407211">
    <nd ref="267117564"/>
    <nd ref="267117168"/>
    <tag k="highway" v="residential"/>
  </way>
  <way id="24568196" version="3" timestamp="2009-09-19T02:50:00Z" uid="74617" user="JohnSmith" changeset="2529890">
    <nd ref="267117579"/>
    <nd ref="267193945"/>
    <nd ref="267194100"/>
    <nd ref="267194101"/>
    <nd ref="267194102"/>
    <nd ref="267193959"/>
    <nd ref="267194097"/>
    <nd ref="267194086"/>
    <nd ref="267194089"/>
    <nd ref="267194057"/>
    <tag k="highway" v="residential"/>
    <tag k="name" v="Henzell Street"/>
  </way>
  <way id="24568196" version="4" timestamp="2010-02-08T07:26:56Z" uid="74617" user="JohnSmith" changeset="3821117">
    <nd ref="267117579"/>
    <nd ref="267193945"/>
    <nd ref="267194100"/>
    <nd ref="267194101"/>
    <nd ref="267194102"/>
    <nd ref="267193959"/>
    <nd ref="267194097"/>
    <nd ref="267194086"/>
    <nd ref="267194089"/>
    <nd ref="267194057"/>
    <tag k="highway" v="residential"/>
    <tag k="maxspeed" v="50"/>
    <tag k="name" v="Henzell Street"/>
  </way>
  <way id="24568196" version="5" timestamp="2010-07-17T08:13:24Z" uid="22094" user="Chadzopkyo" changeset="5240274">
    <nd ref="267117579"/>
    <nd ref="267193945"/>
    <nd ref="267194100"/>
    <nd ref="267194101"/>
    <nd ref="267194102"/>
    <nd ref="267193959"/>
    <nd ref="267194097"/>
    <nd ref="267194086"/>
    <nd ref="267194089"/>
    <nd ref="267194057"/>
    <tag k="highway" v="residential"/>
    <tag k="maxspeed" v="50"/>
    <tag k="name" v="Henzell Street"/>
    <tag k="source" v="GPS"/>
    <tag k="surface" v="asphalt"/>
  </way>
  <way id="24568196" version="6" timestamp="2012-01-16T11:32:52Z" uid="147510" user="woodpeck_fixbot" changeset="10407211">
    <nd ref="267117579"/>
    <nd ref="267193945"/>
    <nd ref="267194100"/>
    <nd ref="267194101"/>
    <nd ref="267194102"/>
    <nd ref="267193959"/>
    <nd ref="267194097"/>
    <nd ref="267194086"/>
    <nd ref="267194089"/>
    <nd ref="267194057"/>
    <tag k="highway" v="residential"/>
    <tag k="name" v="Henzell Street"/>
    <tag k="source" v="GPS"/>
    <tag k="surface" v="asphalt"/>
  </way>
  <way id="24568272" version="6" timestamp="2010-02-08T07:26:39Z" uid="74617" user="JohnSmith" changeset="3821117">
    <nd ref="267118800"/>
    <nd ref="267118802"/>
    <nd ref="501800167"/>
    <nd ref="267118803"/>
    <nd ref="267118804"/>
    <nd ref="267118805"/>
    <nd ref="267118806"/>
    <nd ref="603594248"/>
    <nd ref="267118807"/>
    <nd ref="603594247"/>
    <nd ref="267118809"/>
    <tag k="highway" v="residential"/>
    <tag k="maxspeed" v="50"/>
  </way>
  <way id="24568272" version="7" timestamp="2010-06-13T15:00:43Z" uid="74617" user="JohnSmith" changeset="4979286">
    <nd ref="267118800"/>
    <nd ref="267118802"/>
    <nd ref="501800167"/>
    <nd ref="267118803"/>
    <tag k="highway" v="residential"/>
    <tag k="maxspeed" v="50"/>
  </way>
  <way id="24568272" version="8" timestamp="2011-09-01T12:35:01Z" uid="206339" user="chas66" changeset="9184211">
    <nd ref="267118800"/>
    <nd ref="267118802"/>
    <nd ref="501800167"/>
    <nd ref="267118803"/>
    <tag k="highway" v="residential"/>
    <tag k="maxspeed" v="50"/>
    <tag k="name" v="Thurecht Parade"/>
  </way>
  <way id="24568272" version="9" timestamp="2012-01-16T11:32:55Z" uid="147510" user="woodpeck_fixbot" changeset="10407211">
    <nd ref="267118800"/>
    <nd ref="267118802"/>
    <nd ref="501800167"/>
    <nd ref="267118803"/>
    <tag k="highway" v="residential"/>
    <tag k="name" v="Thurecht Parade"/>
  </way>
  <way id="24568274" version="7" timestamp="2010-02-08T07:27:38Z" uid="74617" user="JohnSmith" changeset="3821117">
    <nd ref="267118835"/>
    <nd ref="267118836"/>
    <nd ref="501800124"/>
    <nd ref="501800115"/>
    <nd ref="267118837"/>
    <nd ref="267118838"/>
    <nd ref="501800165"/>
    <nd ref="267118804"/>
    <tag k="highway" v="residential"/>
    <tag k="maxspeed" v="50"/>
    <tag k="name" v="Bird O&apos;Passage Parade"/>
    <tag k="source:name" v="local knowledge"/>
  </way>
  <way id="24568274" version="8" timestamp="2010-06-10T09:05:00Z" uid="74617" user="JohnSmith" changeset="4952117">
    <nd ref="267118835"/>
    <nd ref="267118836"/>
    <nd ref="501800124"/>
    <nd ref="501800115"/>
    <nd ref="768435392"/>
    <nd ref="768435393"/>
    <nd ref="267118837"/>
    <nd ref="267118838"/>
    <nd ref="501800165"/>
    <nd ref="267118804"/>
    <tag k="highway" v="residential"/>
    <tag k="maxspeed" v="50"/>
    <tag k="name" v="Bird O&apos;Passage Parade"/>
    <tag k="source:name" v="local knowledge"/>
  </way>
  <way id="24568274" version="9" timestamp="2012-01-16T11:32:57Z" uid="147510" user="woodpeck_fixbot" changeset="10407211">
    <nd ref="267118835"/>
    <nd ref="267118836"/>
    <nd ref="501800124"/>
    <nd ref="501800115"/>
    <nd ref="768435392"/>
    <nd ref="768435393"/>
    <nd ref="267118837"/>
    <nd ref="267118838"/>
    <nd ref="501800165"/>
    <nd ref="267118804"/>
    <tag k="highway" v="residential"/>
    <tag k="name" v="Bird O&apos;Passage Parade"/>
    <tag k="source:name" v="local knowledge"/>
  </way>
  <way id="24568275" version="5" timestamp="2010-02-08T07:27:37Z" uid="74617" user="JohnSmith" changeset="3821117">
    <nd ref="267118876"/>
    <nd ref="267118877"/>
    <nd ref="267118878"/>
    <nd ref="267118879"/>
    <nd ref="267118880"/>
    <tag k="highway" v="residential"/>
    <tag k="maxspeed" v="50"/>
    <tag k="name" v="North Quay"/>
  </way>
  <way id="24568275" version="6" timestamp="2012-01-16T11:32:59Z" uid="147510" user="woodpeck_fixbot" changeset="10407211">
    <nd ref="267118876"/>
    <nd ref="267118877"/>
    <nd ref="267118878"/>
    <nd ref="267118879"/>
    <nd ref="267118880"/>
    <tag k="highway" v="residential"/>
    <tag k="name" v="North Quay"/>
  </way>
  <way id="24568277" version="3" timestamp="2010-02-08T07:27:37Z" uid="74617" user="JohnSmith" changeset="3821117">
    <nd ref="267118953"/>
    <nd ref="267118876"/>
    <nd ref="267118806"/>
    <tag k="highway" v="residential"/>
    <tag k="maxspeed" v="50"/>
  </way>
  <way id="24568277" version="4" timestamp="2011-09-01T12:34:59Z" uid="206339" user="chas66" changeset="9184211">
    <nd ref="267118953"/>
    <nd ref="267118876"/>
    <nd ref="267118806"/>
    <tag k="highway" v="residential"/>
    <tag k="maxspeed" v="50"/>
    <tag k="name" v="Oak Avenue"/>
  </way>
  <way id="24568277" version="5" timestamp="2012-01-16T11:33:00Z" uid="147510" user="woodpeck_fixbot" changeset="10407211">
    <nd ref="267118953"/>
    <nd ref="267118876"/>
    <nd ref="267118806"/>
    <tag k="highway" v="residential"/>
    <tag k="name" v="Oak Avenue"/>
  </way>
  <way id="24568281" version="4" timestamp="2010-02-08T07:27:37Z" uid="74617" user="JohnSmith" changeset="3821117">
    <nd ref="267119023"/>
    <nd ref="267118953"/>
    <nd ref="267119024"/>
    <nd ref="267119025"/>
    <nd ref="267118991"/>
    <nd ref="267119026"/>
    <tag k="highway" v="residential"/>
    <tag k="maxspeed" v="50"/>
    <tag k="name" v="Jeavs Street"/>
  </way>
  <way id="24568281" version="5" timestamp="2011-09-01T12:34:57Z" uid="206339" user="chas66" changeset="9184211">
    <nd ref="267119023"/>
    <nd ref="267118953"/>
    <nd ref="267119024"/>
    <nd ref="267119025"/>
    <nd ref="267118991"/>
    <nd ref="267119026"/>
    <tag k="highway" v="residential"/>
    <tag k="maxspeed" v="50"/>
    <tag k="name" v="Jeays Street"/>
  </way>
  <way id="24568281" version="6" timestamp="2012-01-16T11:33:02Z" uid="147510" user="woodpeck_fixbot" changeset="10407211">
    <nd ref="267119023"/>
    <nd ref="267118953"/>
    <nd ref="267119024"/>
    <nd ref="267119025"/>
    <nd ref="267118991"/>
    <nd ref="267119026"/>
    <tag k="highway" v="residential"/>
    <tag k="name" v="Jeays Street"/>
  </way>
  <way id="24568284" version="3" timestamp="2010-02-08T07:27:18Z" uid="74617" user="JohnSmith" changeset="3821117">
    <nd ref="267119842"/>
    <nd ref="267119294"/>
    <nd ref="267119025"/>
    <tag k="highway" v="residential"/>
    <tag k="maxspeed" v="50"/>
    <tag k="name" v="Central Avenue"/>
  </way>
  <way id="24568284" version="4" timestamp="2012-01-16T11:33:03Z" uid="147510" user="woodpeck_fixbot" changeset="10407211">
    <nd ref="267119842"/>
    <nd ref="267119294"/>
    <nd ref="267119025"/>
    <tag k="highway" v="residential"/>
    <tag k="name" v="Central Avenue"/>
  </way>
  <way id="24568293" version="3" timestamp="2010-02-08T07:26:38Z" uid="74617" user="JohnSmith" changeset="3821117">
    <nd ref="267119427"/>
    <nd ref="267119428"/>
    <nd ref="267119448"/>
    <nd ref="267118953"/>
    <tag k="highway" v="residential"/>
    <tag k="maxspeed" v="50"/>
  </way>
  <way id="24568293" version="4" timestamp="2010-05-31T06:38:29Z" uid="74617" user="JohnSmith" changeset="4860116">
    <nd ref="267119427"/>
    <nd ref="760188417"/>
    <nd ref="267119428"/>
    <nd ref="267119448"/>
    <nd ref="760188433"/>
    <nd ref="267118953"/>
    <tag k="highway" v="residential"/>
    <tag k="maxspeed" v="50"/>
  </way>
  <way id="24568293" version="5" timestamp="2012-01-16T11:33:05Z" uid="147510" user="woodpeck_fixbot" changeset="10407211">
    <nd ref="267119427"/>
    <nd ref="760188417"/>
    <nd ref="267119428"/>
    <nd ref="267119448"/>
    <nd ref="760188433"/>
    <nd ref="267118953"/>
    <tag k="highway" v="residential"/>
  </way>
  <way id="24568294" version="3" timestamp="2010-02-08T07:27:37Z" uid="74617" user="JohnSmith" changeset="3821117">
    <nd ref="267119448"/>
    <nd ref="267119480"/>
    <tag k="highway" v="residential"/>
    <tag k="maxspeed" v="50"/>
  </way>
  <way id="24568294" version="4" timestamp="2010-05-31T06:38:29Z" uid="74617" user="JohnSmith" changeset="4860116">
    <nd ref="267119448"/>
    <nd ref="760188439"/>
    <nd ref="267119480"/>
    <tag k="highway" v="residential"/>
    <tag k="maxspeed" v="50"/>
  </way>
  <way id="24568294" version="5" timestamp="2012-01-16T11:33:07Z" uid="147510" user="woodpeck_fixbot" changeset="10407211">
    <nd ref="267119448"/>
    <nd ref="760188439"/>
    <nd ref="267119480"/>
    <tag k="highway" v="residential"/>
  </way>
  <way id="24568297" version="3" timestamp="2010-02-08T07:27:18Z" uid="74617" user="JohnSmith" changeset="3821117">
    <nd ref="267119780"/>
    <nd ref="267119781"/>
    <nd ref="267119782"/>
    <nd ref="267119515"/>
    <nd ref="267119024"/>
    <tag k="highway" v="residential"/>
    <tag k="maxspeed" v="50"/>
    <tag k="name" v="Palmtree Avenue"/>
  </way>
  <way id="24568297" version="4" timestamp="2012-01-16T11:33:08Z" uid="147510" user="woodpeck_fixbot" changeset="10407211">
    <nd ref="267119780"/>
    <nd ref="267119781"/>
    <nd ref="267119782"/>
    <nd ref="267119515"/>
    <nd ref="267119024"/>
    <tag k="highway" v="residential"/>
    <tag k="name" v="Palmtree Avenue"/>
  </way>
  <way id="24568306" version="4" timestamp="2010-02-08T07:26:38Z" uid="74617" user="JohnSmith" changeset="3821117">
    <nd ref="267119870"/>
    <nd ref="267119871"/>
    <nd ref="267119872"/>
    <nd ref="267119607"/>
    <nd ref="267119608"/>
    <nd ref="267119609"/>
    <nd ref="267119023"/>
    <nd ref="267118803"/>
    <tag k="highway" v="residential"/>
    <tag k="maxspeed" v="50"/>
  </way>
  <way id="24568306" version="5" timestamp="2010-05-31T06:38:28Z" uid="74617" user="JohnSmith" changeset="4860116">
    <nd ref="267119870"/>
    <nd ref="760188434"/>
    <nd ref="760188448"/>
    <nd ref="267119871"/>
    <tag k="highway" v="residential"/>
    <tag k="maxspeed" v="50"/>
  </way>
  <way id="24568306" version="6" timestamp="2011-09-01T12:34:59Z" uid="206339" user="chas66" changeset="9184211">
    <nd ref="267119870"/>
    <nd ref="760188434"/>
    <nd ref="760188448"/>
    <nd ref="267119871"/>
    <tag k="highway" v="residential"/>
    <tag k="maxspeed" v="50"/>
    <tag k="name" v="Oyster Point Esplanade"/>
  </way>
  <way id="24568306" version="7" timestamp="2012-01-16T11:33:10Z" uid="147510" user="woodpeck_fixbot" changeset="10407211">
    <nd ref="267119870"/>
    <nd ref="760188434"/>
    <nd ref="760188448"/>
    <nd ref="267119871"/>
    <tag k="highway" v="residential"/>
    <tag k="name" v="Oyster Point Esplanade"/>
  </way>
  <way id="24568308" version="4" timestamp="2010-02-08T07:26:38Z" uid="74617" user="JohnSmith" changeset="3821117">
    <nd ref="267119607"/>
    <nd ref="267119625"/>
    <nd ref="267119427"/>
    <nd ref="267119515"/>
    <nd ref="267119294"/>
    <nd ref="267119246"/>
    <nd ref="267119626"/>
    <tag k="highway" v="residential"/>
    <tag k="maxspeed" v="50"/>
    <tag k="name" v="Michel Road"/>
  </way>
  <way id="24568308" version="5" timestamp="2010-05-31T06:38:27Z" uid="74617" user="JohnSmith" changeset="4860116">
    <nd ref="267119607"/>
    <nd ref="267119625"/>
    <nd ref="760188429"/>
    <nd ref="267119427"/>
    <nd ref="267119515"/>
    <nd ref="267119294"/>
    <nd ref="267119246"/>
    <nd ref="267119626"/>
    <tag k="highway" v="residential"/>
    <tag k="maxspeed" v="50"/>
    <tag k="name" v="Michel Road"/>
  </way>
  <way id="24568308" version="6" timestamp="2012-01-16T11:33:14Z" uid="147510" user="woodpeck_fixbot" changeset="10407211">
    <nd ref="267119607"/>
    <nd ref="267119625"/>
    <nd ref="760188429"/>
    <nd ref="267119427"/>
    <nd ref="267119515"/>
    <nd ref="267119294"/>
    <nd ref="267119246"/>
    <nd ref="267119626"/>
    <tag k="highway" v="residential"/>
    <tag k="name" v="Michel Road"/>
  </way>
  <way id="24568310" version="4" timestamp="2010-02-08T07:27:18Z" uid="74617" user="JohnSmith" changeset="3821117">
    <nd ref="267118879"/>
    <nd ref="267118991"/>
    <nd ref="267119246"/>
    <nd ref="267119883"/>
    <tag k="highway" v="residential"/>
    <tag k="maxspeed" v="50"/>
    <tag k="name" v="Seaville Avenue"/>
  </way>
  <way id="24568310" version="5" timestamp="2012-01-16T11:33:15Z" uid="147510" user="woodpeck_fixbot" changeset="10407211">
    <nd ref="267118879"/>
    <nd ref="267118991"/>
    <nd ref="267119246"/>
    <nd ref="267119883"/>
    <tag k="highway" v="residential"/>
    <tag k="name" v="Seaville Avenue"/>
  </way>
  <way id="24568313" version="5" timestamp="2010-02-08T07:26:38Z" uid="74617" user="JohnSmith" changeset="3821117">
    <nd ref="267119791"/>
    <nd ref="267119781"/>
    <tag k="highway" v="residential"/>
    <tag k="maxspeed" v="50"/>
    <tag k="name" v="Brennan Road"/>
  </way>
  <way id="24568313" version="6" timestamp="2012-01-16T11:33:16Z" uid="147510" user="woodpeck_fixbot" changeset="10407211">
    <nd ref="267119791"/>
    <nd ref="267119781"/>
    <tag k="highway" v="residential"/>
    <tag k="name" v="Brennan Road"/>
  </way>
  <way id="24568314" version="4" timestamp="2010-02-08T07:26:38Z" uid="74617" user="JohnSmith" changeset="3821117">
    <nd ref="267119834"/>
    <nd ref="267119782"/>
    <tag k="highway" v="residential"/>
    <tag k="maxspeed" v="50"/>
    <tag k="name" v="Herne Road"/>
  </way>
  <way id="24568314" version="5" timestamp="2012-01-16T11:33:17Z" uid="147510" user="woodpeck_fixbot" changeset="10407211">
    <nd ref="267119834"/>
    <nd ref="267119782"/>
    <tag k="highway" v="residential"/>
    <tag k="name" v="Herne Road"/>
  </way>
  <way id="24568316" version="3" timestamp="2010-02-08T07:26:39Z" uid="74617" user="JohnSmith" changeset="3821117">
    <nd ref="267119833"/>
    <nd ref="267119791"/>
    <nd ref="267119834"/>
    <nd ref="267119427"/>
    <tag k="highway" v="residential"/>
    <tag k="maxspeed" v="50"/>
  </way>
  <way id="24568316" version="4" timestamp="2010-02-21T09:14:16Z" uid="74617" user="JohnSmith" changeset="3931005">
    <nd ref="267119833"/>
    <nd ref="648824312"/>
    <nd ref="648824310"/>
    <nd ref="267119791"/>
    <nd ref="267119834"/>
    <nd ref="267119427"/>
    <tag k="highway" v="residential"/>
    <tag k="maxspeed" v="50"/>
  </way>
  <way id="24568316" version="5" timestamp="2010-05-31T06:38:28Z" uid="74617" user="JohnSmith" changeset="4860116">
    <nd ref="267119833"/>
    <nd ref="648824312"/>
    <nd ref="648824310"/>
    <nd ref="267119791"/>
    <nd ref="760188412"/>
    <tag k="highway" v="residential"/>
    <tag k="maxspeed" v="50"/>
  </way>
  <way id="24568316" version="6" timestamp="2012-01-16T11:33:19Z" uid="147510" user="woodpeck_fixbot" changeset="10407211">
    <nd ref="267119833"/>
    <nd ref="648824312"/>
    <nd ref="648824310"/>
    <nd ref="267119791"/>
    <nd ref="760188412"/>
    <tag k="highway" v="residential"/>
  </way>
  <way id="24568321" version="7" timestamp="2010-02-08T07:26:39Z" uid="74617" user="JohnSmith" changeset="3821117">
    <nd ref="267119877"/>
    <nd ref="267119878"/>
    <nd ref="267119879"/>
    <nd ref="267119880"/>
    <nd ref="267120012"/>
    <nd ref="267119870"/>
    <nd ref="528396014"/>
    <nd ref="267119833"/>
    <nd ref="267119780"/>
    <nd ref="267119842"/>
    <nd ref="267119883"/>
    <nd ref="267119882"/>
    <tag k="highway" v="residential"/>
    <tag k="maxspeed" v="50"/>
    <tag k="name" v="Sunnyside Road"/>
  </way>
  <way id="24568321" version="8" timestamp="2010-02-21T09:14:16Z" uid="74617" user="JohnSmith" changeset="3931005">
    <nd ref="267119877"/>
    <nd ref="648824322"/>
    <nd ref="648824323"/>
    <nd ref="648824324"/>
    <nd ref="267119878"/>
    <nd ref="648824321"/>
    <nd ref="267119879"/>
    <nd ref="648824319"/>
    <nd ref="267119880"/>
    <nd ref="267120012"/>
    <nd ref="267119870"/>
    <nd ref="528396014"/>
    <nd ref="267119833"/>
    <nd ref="648824313"/>
    <nd ref="267119780"/>
    <nd ref="267119842"/>
    <nd ref="267119883"/>
    <nd ref="267119882"/>
    <tag k="highway" v="residential"/>
    <tag k="maxspeed" v="50"/>
    <tag k="name" v="Sunnyside Road"/>
  </way>
  <way id="24568321" version="9" timestamp="2012-01-16T11:33:20Z" uid="147510" user="woodpeck_fixbot" changeset="10407211">
    <nd ref="267119877"/>
    <nd ref="648824322"/>
    <nd ref="648824323"/>
    <nd ref="648824324"/>
    <nd ref="267119878"/>
    <nd ref="648824321"/>
    <nd ref="267119879"/>
    <nd ref="648824319"/>
    <nd ref="267119880"/>
    <nd ref="267120012"/>
    <nd ref="267119870"/>
    <nd ref="528396014"/>
    <nd ref="267119833"/>
    <nd ref="648824313"/>
    <nd ref="267119780"/>
    <nd ref="267119842"/>
    <nd ref="267119883"/>
    <nd ref="267119882"/>
    <tag k="highway" v="residential"/>
    <tag k="name" v="Sunnyside Road"/>
  </way>
  <way id="24568323" version="2" timestamp="2010-02-08T07:27:17Z" uid="74617" user="JohnSmith" changeset="3821117">
    <nd ref="267119942"/>
    <nd ref="267119917"/>
    <tag k="highway" v="residential"/>
    <tag k="maxspeed" v="50"/>
  </way>
  <way id="24568323" version="3" timestamp="2011-09-01T12:34:52Z" uid="206339" user="chas66" changeset="9184211">
    <nd ref="267119942"/>
    <nd ref="267119917"/>
    <tag k="highway" v="residential"/>
    <tag k="maxspeed" v="50"/>
    <tag k="name" v="Cruiser Court"/>
  </way>
  <way id="24568323" version="4" timestamp="2012-01-16T11:33:21Z" uid="147510" user="woodpeck_fixbot" changeset="10407211">
    <nd ref="267119942"/>
    <nd ref="267119917"/>
    <tag k="highway" v="residential"/>
    <tag k="name" v="Cruiser Court"/>
  </way>
  <way id="24568324" version="3" timestamp="2010-02-08T07:26:40Z" uid="74617" user="JohnSmith" changeset="3821117">
    <nd ref="267119953"/>
    <nd ref="267119916"/>
    <tag k="highway" v="residential"/>
    <tag k="maxspeed" v="50"/>
  </way>
  <way id="24568324" version="4" timestamp="2011-09-01T12:34:53Z" uid="206339" user="chas66" changeset="9184211">
    <nd ref="267119953"/>
    <nd ref="267119916"/>
    <tag k="highway" v="residential"/>
    <tag k="maxspeed" v="50"/>
    <tag k="name" v="Dolphin Street"/>
  </way>
  <way id="24568324" version="5" timestamp="2012-01-16T11:33:22Z" uid="147510" user="woodpeck_fixbot" changeset="10407211">
    <nd ref="267119953"/>
    <nd ref="267119916"/>
    <tag k="highway" v="residential"/>
    <tag k="name" v="Dolphin Street"/>
  </way>
  <way id="24568325" version="5" timestamp="2010-02-08T07:27:16Z" uid="74617" user="JohnSmith" changeset="3821117">
    <nd ref="267119976"/>
    <nd ref="267119953"/>
    <nd ref="267120050"/>
    <nd ref="267119977"/>
    <nd ref="264189325"/>
    <tag k="highway" v="residential"/>
    <tag k="maxspeed" v="50"/>
    <tag k="name" v="Dolphin Street"/>
  </way>
  <way id="24568325" version="6" timestamp="2012-01-16T11:33:24Z" uid="147510" user="woodpeck_fixbot" changeset="10407211">
    <nd ref="267119976"/>
    <nd ref="267119953"/>
    <nd ref="267120050"/>
    <nd ref="267119977"/>
    <nd ref="264189325"/>
    <tag k="highway" v="residential"/>
    <tag k="name" v="Dolphin Street"/>
  </way>
  <way id="24568327" version="2" timestamp="2010-02-08T07:27:17Z" uid="74617" user="JohnSmith" changeset="3821117">
    <nd ref="267119991"/>
    <nd ref="267119977"/>
    <tag k="highway" v="residential"/>
    <tag k="maxspeed" v="50"/>
  </way>
  <way id="24568327" version="3" timestamp="2010-02-21T09:09:27Z" uid="74617" user="JohnSmith" changeset="3930965">
    <nd ref="267119991"/>
    <nd ref="648822091"/>
    <nd ref="648822089"/>
    <nd ref="267119977"/>
    <tag k="highway" v="residential"/>
    <tag k="maxspeed" v="50"/>
  </way>
  <way id="24568327" version="4" timestamp="2012-01-16T11:33:25Z" uid="147510" user="woodpeck_fixbot" changeset="10407211">
    <nd ref="267119991"/>
    <nd ref="648822091"/>
    <nd ref="648822089"/>
    <nd ref="267119977"/>
    <tag k="highway" v="residential"/>
  </way>
  <way id="24568328" version="2" timestamp="2010-02-08T07:27:16Z" uid="74617" user="JohnSmith" changeset="3821117">
    <nd ref="267120012"/>
    <nd ref="267120013"/>
    <nd ref="267119991"/>
    <tag k="highway" v="residential"/>
    <tag k="maxspeed" v="50"/>
  </way>
  <way id="24568328" version="3" timestamp="2010-02-21T09:06:29Z" uid="74617" user="JohnSmith" changeset="3930936">
    <nd ref="267120012"/>
    <nd ref="648820555"/>
    <nd ref="648820550"/>
    <nd ref="267120013"/>
    <nd ref="267119991"/>
    <tag k="highway" v="residential"/>
    <tag k="maxspeed" v="50"/>
  </way>
  <way id="24568328" version="4" timestamp="2010-02-21T09:09:27Z" uid="74617" user="JohnSmith" changeset="3930965">
    <nd ref="267120012"/>
    <nd ref="648820555"/>
    <nd ref="528396082"/>
    <nd ref="648822098"/>
    <nd ref="267120013"/>
    <nd ref="648822094"/>
    <nd ref="648822093"/>
    <nd ref="267119991"/>
    <tag k="highway" v="residential"/>
    <tag k="maxspeed" v="50"/>
  </way>
  <way id="24568328" version="5" timestamp="2010-02-21T09:14:16Z" uid="74617" user="JohnSmith" changeset="3931005">
    <nd ref="267120012"/>
    <nd ref="648824254"/>
    <nd ref="648824253"/>
    <nd ref="648820555"/>
    <nd ref="528396082"/>
    <nd ref="648822098"/>
    <nd ref="267120013"/>
    <nd ref="648822094"/>
    <nd ref="648822093"/>
    <nd ref="267119991"/>
    <tag k="highway" v="residential"/>
    <tag k="maxspeed" v="50"/>
  </way>
  <way id="24568328" version="6" timestamp="2012-01-16T11:33:26Z" uid="147510" user="woodpeck_fixbot" changeset="10407211">
    <nd ref="267120012"/>
    <nd ref="648824254"/>
    <nd ref="648824253"/>
    <nd ref="648820555"/>
    <nd ref="528396082"/>
    <nd ref="648822098"/>
    <nd ref="267120013"/>
    <nd ref="648822094"/>
    <nd ref="648822093"/>
    <nd ref="267119991"/>
    <tag k="highway" v="residential"/>
  </way>
  <way id="24568330" version="2" timestamp="2010-02-08T07:27:17Z" uid="74617" user="JohnSmith" changeset="3821117">
    <nd ref="267120049"/>
    <nd ref="267120050"/>
    <tag k="highway" v="residential"/>
    <tag k="maxspeed" v="50"/>
  </way>
  <way id="24568330" version="3" timestamp="2012-01-16T11:33:27Z" uid="147510" user="woodpeck_fixbot" changeset="10407211">
    <nd ref="267120049"/>
    <nd ref="267120050"/>
    <tag k="highway" v="residential"/>
  </way>
  <way id="24568333" version="2" timestamp="2010-02-08T07:27:17Z" uid="74617" user="JohnSmith" changeset="3821117">
    <nd ref="267119913"/>
    <nd ref="267120097"/>
    <nd ref="267120098"/>
    <nd ref="267120099"/>
    <nd ref="267120100"/>
    <nd ref="267119914"/>
    <tag k="highway" v="service"/>
  </way>
  <way id="24568338" version="2" timestamp="2010-02-08T07:27:17Z" uid="74617" user="JohnSmith" changeset="3821117">
    <nd ref="267120206"/>
    <nd ref="267120207"/>
    <tag k="highway" v="residential"/>
    <tag k="maxspeed" v="50"/>
  </way>
  <way id="24568338" version="3" timestamp="2010-04-03T11:27:19Z" uid="162720" user="Doogie" changeset="4311881">
    <nd ref="267120206"/>
    <nd ref="267120207"/>
    <tag k="highway" v="residential"/>
    <tag k="maxspeed" v="50"/>
    <tag k="name" v="Vista Ct"/>
  </way>
  <way id="24568338" version="4" timestamp="2010-06-02T00:45:36Z" uid="4467" user="Rosscoe" changeset="4879888">
    <nd ref="267120206"/>
    <nd ref="267120207"/>
    <tag k="highway" v="residential"/>
    <tag k="maxspeed" v="50"/>
    <tag k="name" v="Vista Court"/>
  </way>
  <way id="24568338" version="5" timestamp="2012-01-16T11:33:28Z" uid="147510" user="woodpeck_fixbot" changeset="10407211">
    <nd ref="267120206"/>
    <nd ref="267120207"/>
    <tag k="highway" v="residential"/>
    <tag k="name" v="Vista Court"/>
  </way>
  <way id="24568342" version="2" timestamp="2010-02-08T07:27:17Z" uid="74617" user="JohnSmith" changeset="3821117">
    <nd ref="267120274"/>
    <nd ref="267120275"/>
    <nd ref="267120206"/>
    <nd ref="267120277"/>
    <nd ref="267120278"/>
    <nd ref="267120279"/>
    <nd ref="267120280"/>
    <nd ref="267120281"/>
    <nd ref="267120282"/>
    <nd ref="267120283"/>
    <nd ref="267120284"/>
    <nd ref="267120278"/>
    <tag k="highway" v="residential"/>
    <tag k="maxspeed" v="50"/>
  </way>
  <way id="24568342" version="3" timestamp="2010-04-03T11:27:20Z" uid="162720" user="Doogie" changeset="4311881">
    <nd ref="267120274"/>
    <nd ref="267120275"/>
    <nd ref="267120206"/>
    <nd ref="267120277"/>
    <nd ref="267120278"/>
    <nd ref="267120279"/>
    <nd ref="267120280"/>
    <nd ref="267120281"/>
    <nd ref="267120282"/>
    <nd ref="267120283"/>
    <nd ref="267120284"/>
    <nd ref="267120278"/>
    <tag k="highway" v="residential"/>
    <tag k="maxspeed" v="50"/>
    <tag k="name" v="Vista Ct"/>
  </way>
  <way id="24568342" version="4" timestamp="2010-06-02T00:45:38Z" uid="4467" user="Rosscoe" changeset="4879888">
    <nd ref="267120274"/>
    <nd ref="267120275"/>
    <nd ref="267120206"/>
    <nd ref="267120277"/>
    <nd ref="267120278"/>
    <nd ref="267120279"/>
    <nd ref="267120280"/>
    <nd ref="267120281"/>
    <nd ref="267120282"/>
    <nd ref="267120283"/>
    <nd ref="267120284"/>
    <nd ref="267120278"/>
    <tag k="highway" v="residential"/>
    <tag k="maxspeed" v="50"/>
    <tag k="name" v="Vista Court"/>
  </way>
  <way id="24568342" version="5" timestamp="2012-01-16T11:33:30Z" uid="147510" user="woodpeck_fixbot" changeset="10407211">
    <nd ref="267120274"/>
    <nd ref="267120275"/>
    <nd ref="267120206"/>
    <nd ref="267120277"/>
    <nd ref="267120278"/>
    <nd ref="267120279"/>
    <nd ref="267120280"/>
    <nd ref="267120281"/>
    <nd ref="267120282"/>
    <nd ref="267120283"/>
    <nd ref="267120284"/>
    <nd ref="267120278"/>
    <tag k="highway" v="residential"/>
    <tag k="name" v="Vista Court"/>
  </way>
  <way id="24568370" version="3" timestamp="2010-02-08T07:27:15Z" uid="74617" user="JohnSmith" changeset="3821117">
    <nd ref="267120762"/>
    <nd ref="267120763"/>
    <nd ref="264189398"/>
    <tag k="highway" v="residential"/>
    <tag k="maxspeed" v="50"/>
    <tag k="name" v="La Salle Street"/>
  </way>
  <way id="24568370" version="4" timestamp="2012-01-16T11:33:31Z" uid="147510" user="woodpeck_fixbot" changeset="10407211">
    <nd ref="267120762"/>
    <nd ref="267120763"/>
    <nd ref="264189398"/>
    <tag k="highway" v="residential"/>
    <tag k="name" v="La Salle Street"/>
  </way>
  <way id="24568376" version="4" timestamp="2010-02-08T07:27:17Z" uid="74617" user="JohnSmith" changeset="3821117">
    <nd ref="267120762"/>
    <nd ref="267120782"/>
    <tag k="highway" v="residential"/>
    <tag k="maxspeed" v="50"/>
  </way>
  <way id="24568376" version="5" timestamp="2012-01-16T11:33:32Z" uid="147510" user="woodpeck_fixbot" changeset="10407211">
    <nd ref="267120762"/>
    <nd ref="267120782"/>
    <tag k="highway" v="residential"/>
  </way>
  <way id="24568397" version="3" timestamp="2010-02-08T07:27:17Z" uid="74617" user="JohnSmith" changeset="3821117">
    <nd ref="267120773"/>
    <nd ref="267120782"/>
    <nd ref="267120774"/>
    <nd ref="267120775"/>
    <nd ref="267120763"/>
    <tag k="highway" v="residential"/>
    <tag k="maxspeed" v="50"/>
  </way>
  <way id="24568397" version="4" timestamp="2012-01-16T11:33:34Z" uid="147510" user="woodpeck_fixbot" changeset="10407211">
    <nd ref="267120773"/>
    <nd ref="267120782"/>
    <nd ref="267120774"/>
    <nd ref="267120775"/>
    <nd ref="267120763"/>
    <tag k="highway" v="residential"/>
  </way>
  <way id="24568430" version="3" timestamp="2010-02-08T07:27:36Z" uid="74617" user="JohnSmith" changeset="3821117">
    <nd ref="267120853"/>
    <nd ref="267120854"/>
    <nd ref="267120855"/>
    <nd ref="267120856"/>
    <tag k="highway" v="residential"/>
    <tag k="maxspeed" v="50"/>
  </way>
  <way id="24568430" version="4" timestamp="2012-01-16T11:33:36Z" uid="147510" user="woodpeck_fixbot" changeset="10407211">
    <nd ref="267120853"/>
    <nd ref="267120854"/>
    <nd ref="267120855"/>
    <nd ref="267120856"/>
    <tag k="highway" v="residential"/>
  </way>
  <way id="24568450" version="2" timestamp="2010-02-08T07:27:35Z" uid="74617" user="JohnSmith" changeset="3821117">
    <nd ref="267120958"/>
    <nd ref="267120959"/>
    <nd ref="267120855"/>
    <tag k="highway" v="residential"/>
    <tag k="maxspeed" v="50"/>
  </way>
  <way id="24568450" version="3" timestamp="2012-01-16T11:33:37Z" uid="147510" user="woodpeck_fixbot" changeset="10407211">
    <nd ref="267120958"/>
    <nd ref="267120959"/>
    <nd ref="267120855"/>
    <tag k="highway" v="residential"/>
  </way>
  <way id="24568474" version="4" timestamp="2010-02-08T07:27:36Z" uid="74617" user="JohnSmith" changeset="3821117">
    <nd ref="267121135"/>
    <nd ref="267120959"/>
    <tag k="highway" v="residential"/>
    <tag k="maxspeed" v="50"/>
  </way>
  <way id="24568474" version="5" timestamp="2011-04-07T07:38:06Z" uid="270673" user="torque-2" changeset="7791901">
    <nd ref="267120959"/>
    <nd ref="267121135"/>
    <nd ref="267120959"/>
    <tag k="highway" v="residential"/>
    <tag k="maxspeed" v="50"/>
  </way>
  <way id="24568474" version="6" timestamp="2011-08-25T03:57:46Z" uid="349913" user="Peter W34" changeset="9118044"/>
  <way id="24568503" version="4" timestamp="2010-02-08T07:27:36Z" uid="74617" user="JohnSmith" changeset="3821117">
    <nd ref="267121144"/>
    <nd ref="267120958"/>
    <tag k="highway" v="residential"/>
    <tag k="maxspeed" v="50"/>
  </way>
  <way id="24568503" version="5" timestamp="2011-04-07T07:38:43Z" uid="270673" user="torque-2" changeset="7791901">
    <nd ref="267121144"/>
    <nd ref="267120958"/>
    <tag k="highway" v="residential"/>
  </way>
  <way id="24568546" version="3" timestamp="2010-02-08T07:27:33Z" uid="74617" user="JohnSmith" changeset="3821117">
    <nd ref="267121145"/>
    <nd ref="267121146"/>
    <nd ref="267121147"/>
    <tag k="highway" v="residential"/>
    <tag k="maxspeed" v="50"/>
    <tag k="name" v="Shea Streett"/>
  </way>
  <way id="24568546" version="4" timestamp="2012-01-16T11:33:39Z" uid="147510" user="woodpeck_fixbot" changeset="10407211">
    <nd ref="267121145"/>
    <nd ref="267121146"/>
    <nd ref="267121147"/>
    <tag k="highway" v="residential"/>
    <tag k="name" v="Shea Streett"/>
  </way>
  <way id="24568552" version="4" timestamp="2010-02-08T07:27:33Z" uid="74617" user="JohnSmith" changeset="3821117">
    <nd ref="267121167"/>
    <nd ref="267121152"/>
    <nd ref="267121146"/>
    <tag k="highway" v="residential"/>
    <tag k="maxspeed" v="50"/>
  </way>
  <way id="24568552" version="5" timestamp="2010-06-10T09:34:41Z" uid="74617" user="JohnSmith" changeset="4952117">
    <nd ref="267121167"/>
    <nd ref="768450417"/>
    <nd ref="768450413"/>
    <nd ref="768450415"/>
    <nd ref="267121152"/>
    <nd ref="768450416"/>
    <nd ref="267121146"/>
    <tag k="highway" v="residential"/>
    <tag k="maxspeed" v="50"/>
  </way>
  <way id="24568552" version="6" timestamp="2012-01-16T11:33:40Z" uid="147510" user="woodpeck_fixbot" changeset="10407211">
    <nd ref="267121167"/>
    <nd ref="768450417"/>
    <nd ref="768450413"/>
    <nd ref="768450415"/>
    <nd ref="267121152"/>
    <nd ref="768450416"/>
    <nd ref="267121146"/>
    <tag k="highway" v="residential"/>
  </way>
  <way id="24568568" version="4" timestamp="2010-02-08T07:27:35Z" uid="74617" user="JohnSmith" changeset="3821117">
    <nd ref="267121164"/>
    <nd ref="267121165"/>
    <nd ref="267121166"/>
    <nd ref="267121167"/>
    <nd ref="267121163"/>
    <nd ref="267121144"/>
    <nd ref="267121145"/>
    <tag k="highway" v="residential"/>
    <tag k="maxspeed" v="50"/>
  </way>
  <way id="24568568" version="5" timestamp="2012-01-16T11:33:42Z" uid="147510" user="woodpeck_fixbot" changeset="10407211">
    <nd ref="267121164"/>
    <nd ref="267121165"/>
    <nd ref="267121166"/>
    <nd ref="267121167"/>
    <nd ref="267121163"/>
    <nd ref="267121144"/>
    <nd ref="267121145"/>
    <tag k="highway" v="residential"/>
  </way>
  <way id="24568582" version="4" timestamp="2010-02-08T07:27:33Z" uid="74617" user="JohnSmith" changeset="3821117">
    <nd ref="264189403"/>
    <nd ref="267121165"/>
    <tag k="highway" v="residential"/>
    <tag k="maxspeed" v="50"/>
    <tag k="name" v="Lucas Street"/>
  </way>
  <way id="24568582" version="5" timestamp="2012-01-16T11:33:44Z" uid="147510" user="woodpeck_fixbot" changeset="10407211">
    <nd ref="264189403"/>
    <nd ref="267121165"/>
    <tag k="highway" v="residential"/>
    <tag k="name" v="Lucas Street"/>
  </way>
  <way id="24568621" version="28" timestamp="2010-03-20T10:46:06Z" uid="74617" user="JohnSmith" changeset="4178217">
    <nd ref="212285766"/>
    <nd ref="562616361"/>
    <nd ref="562620918"/>
    <nd ref="330040254"/>
    <nd ref="562616360"/>
    <nd ref="264189404"/>
    <nd ref="562616366"/>
    <nd ref="562620953"/>
    <nd ref="330040255"/>
    <nd ref="562616365"/>
    <nd ref="267121597"/>
    <nd ref="562616364"/>
    <nd ref="562620990"/>
    <nd ref="330040256"/>
    <nd ref="562616367"/>
    <nd ref="267121614"/>
    <nd ref="562616363"/>
    <nd ref="562620937"/>
    <nd ref="330040257"/>
    <nd ref="562620919"/>
    <nd ref="562616362"/>
    <nd ref="212285766"/>
    <tag k="highway" v="tertiary"/>
    <tag k="junction" v="roundabout"/>
  </way>
  <way id="24568666" version="6" timestamp="2009-06-10T04:07:01Z" uid="20587" user="balrog-kun" changeset="1473633"/>
  <way id="24568667" version="6" timestamp="2009-06-10T04:07:01Z" uid="20587" user="balrog-kun" changeset="1473633"/>
  <way id="24568737" version="2" timestamp="2010-04-22T01:52:41Z" uid="4467" user="Rosscoe" changeset="4492124">
    <nd ref="267122416"/>
    <nd ref="267122418"/>
    <nd ref="267122420"/>
    <tag k="highway" v="residential"/>
    <tag k="name" v="Hennessey Street"/>
  </way>
  <way id="24568742" version="3" timestamp="2010-04-22T01:52:41Z" uid="4467" user="Rosscoe" changeset="4492124">
    <nd ref="267122458"/>
    <nd ref="267122459"/>
    <nd ref="267122461"/>
    <nd ref="267122463"/>
    <nd ref="267122997"/>
    <nd ref="267122465"/>
    <tag k="highway" v="residential"/>
    <tag k="name" v="McCue Street"/>
  </way>
  <way id="24568742" version="4" timestamp="2011-09-25T22:50:17Z" uid="288568" user="nickbarker" changeset="9397727">
    <nd ref="267122458"/>
    <nd ref="267122459"/>
    <nd ref="267122461"/>
    <nd ref="1445856272"/>
    <nd ref="267122463"/>
    <nd ref="267122997"/>
    <nd ref="267122465"/>
    <tag k="highway" v="residential"/>
    <tag k="name" v="McCue Street"/>
  </way>
  <way id="24568743" version="3" timestamp="2010-04-22T01:52:41Z" uid="4467" user="Rosscoe" changeset="4492124">
    <nd ref="266952528"/>
    <nd ref="266952529"/>
    <nd ref="266952041"/>
    <tag k="highway" v="residential"/>
    <tag k="name" v="Morris Street"/>
  </way>
  <way id="24568743" version="4" timestamp="2011-06-12T14:21:43Z" uid="328538" user="o&apos;cholio" changeset="8415846">
    <nd ref="266952528"/>
    <nd ref="266952529"/>
    <nd ref="1321930548"/>
    <nd ref="266952041"/>
    <tag k="highway" v="residential"/>
    <tag k="name" v="Morris Street"/>
  </way>
  <way id="24568744" version="3" timestamp="2010-04-22T01:52:41Z" uid="4467" user="Rosscoe" changeset="4492124">
    <nd ref="266952523"/>
    <nd ref="266952524"/>
    <nd ref="266952525"/>
    <nd ref="266952526"/>
    <nd ref="266952527"/>
    <nd ref="266952528"/>
    <tag k="highway" v="residential"/>
    <tag k="name" v="Tregea Street"/>
  </way>
  <way id="24568753" version="3" timestamp="2010-04-22T01:52:41Z" uid="4467" user="Rosscoe" changeset="4492124">
    <nd ref="266952284"/>
    <nd ref="266952285"/>
    <nd ref="266952047"/>
    <tag k="highway" v="tertiary"/>
    <tag k="name" v="Lord Street"/>
  </way>
  <way id="24568754" version="5" timestamp="2010-04-22T01:52:41Z" uid="4467" user="Rosscoe" changeset="4492124">
    <nd ref="266952265"/>
    <nd ref="266952266"/>
    <nd ref="266952267"/>
    <nd ref="266952270"/>
    <nd ref="266952273"/>
    <nd ref="266952274"/>
    <nd ref="266952276"/>
    <tag k="highway" v="tertiary"/>
  </way>
  <way id="24568754" version="6" timestamp="2011-06-12T14:21:54Z" uid="328538" user="o&apos;cholio" changeset="8415846"/>
  <way id="24568761" version="3" timestamp="2010-04-22T01:52:41Z" uid="4467" user="Rosscoe" changeset="4492124">
    <nd ref="266952276"/>
    <nd ref="266952277"/>
    <nd ref="266952279"/>
    <nd ref="266952459"/>
    <nd ref="267122418"/>
    <nd ref="266952282"/>
    <nd ref="266952284"/>
    <tag k="highway" v="tertiary"/>
    <tag k="name" v="Cairns Street"/>
  </way>
  <way id="24568761" version="4" timestamp="2011-06-12T14:21:41Z" uid="328538" user="o&apos;cholio" changeset="8415846">
    <nd ref="266952276"/>
    <nd ref="266952277"/>
    <nd ref="266952279"/>
    <nd ref="266952459"/>
    <nd ref="267122418"/>
    <nd ref="266952282"/>
    <nd ref="1321930392"/>
    <tag k="highway" v="tertiary"/>
    <tag k="name" v="Cairns Street"/>
  </way>
  <way id="24568761" version="5" timestamp="2011-09-25T22:47:31Z" uid="288568" user="nickbarker" changeset="9397727">
    <nd ref="266952276"/>
    <nd ref="266952277"/>
    <nd ref="266952279"/>
    <nd ref="1445855892"/>
    <nd ref="266952459"/>
    <nd ref="267122418"/>
    <nd ref="266952282"/>
    <nd ref="1321930392"/>
    <tag k="highway" v="tertiary"/>
    <tag k="name" v="Cairns Street"/>
  </way>
  <way id="24568817" version="2" timestamp="2010-04-22T01:52:41Z" uid="4467" user="Rosscoe" changeset="4492124">
    <nd ref="267123210"/>
    <nd ref="266952284"/>
    <tag k="highway" v="residential"/>
  </way>
  <way id="24568817" version="3" timestamp="2011-06-12T14:21:52Z" uid="328538" user="o&apos;cholio" changeset="8415846">
    <nd ref="267123210"/>
    <nd ref="1321930593"/>
    <tag k="highway" v="residential"/>
  </way>
  <way id="24568817" version="4" timestamp="2011-09-25T22:47:30Z" uid="288568" user="nickbarker" changeset="9397727">
    <nd ref="267123210"/>
    <nd ref="1445855887"/>
    <nd ref="1321930593"/>
    <tag k="highway" v="residential"/>
  </way>
  <way id="24568832" version="3" timestamp="2010-04-22T01:52:41Z" uid="4467" user="Rosscoe" changeset="4492124">
    <nd ref="267123333"/>
    <nd ref="267123339"/>
    <nd ref="267123342"/>
    <nd ref="267123353"/>
    <nd ref="267123349"/>
    <tag k="highway" v="residential"/>
    <tag k="name" v="Desaily Street"/>
  </way>
  <way id="24568832" version="4" timestamp="2011-06-12T14:21:52Z" uid="328538" user="o&apos;cholio" changeset="8415846">
    <nd ref="267123333"/>
    <nd ref="267123339"/>
    <nd ref="1321930545"/>
    <nd ref="1321930504"/>
    <nd ref="267123342"/>
    <nd ref="267123353"/>
    <nd ref="267123349"/>
    <tag k="highway" v="residential"/>
    <tag k="name" v="Desaily Street"/>
  </way>
  <way id="24568832" version="5" timestamp="2011-09-25T22:45:57Z" uid="288568" user="nickbarker" changeset="9397727">
    <nd ref="267123333"/>
    <nd ref="267123339"/>
    <nd ref="1321930545"/>
    <nd ref="1321930504"/>
    <nd ref="267123342"/>
    <nd ref="1445854916"/>
    <nd ref="267123353"/>
    <nd ref="267123349"/>
    <tag k="highway" v="residential"/>
    <tag k="name" v="Desaily Street"/>
  </way>
  <way id="24568832" version="6" timestamp="2011-09-25T22:50:17Z" uid="288568" user="nickbarker" changeset="9397727">
    <nd ref="267123333"/>
    <nd ref="1445856267"/>
    <nd ref="267123339"/>
    <nd ref="1321930545"/>
    <nd ref="1321930504"/>
    <nd ref="267123342"/>
    <nd ref="1445854916"/>
    <nd ref="267123353"/>
    <nd ref="267123349"/>
    <tag k="highway" v="residential"/>
    <tag k="name" v="Desaily Street"/>
  </way>
  <way id="24568957" version="2" timestamp="2009-06-10T04:06:09Z" uid="20587" user="balrog-kun" changeset="1473633"/>
  <way id="24568958" version="2" timestamp="2009-06-10T04:04:25Z" uid="20587" user="balrog-kun" changeset="1473633">
    <nd ref="267123923"/>
    <nd ref="267123901"/>
    <nd ref="267123902"/>
    <nd ref="417927079"/>
    <nd ref="267123904"/>
    <nd ref="267123905"/>
    <nd ref="267123906"/>
    <nd ref="267124140"/>
    <nd ref="267123907"/>
    <nd ref="267123908"/>
    <nd ref="267123915"/>
    <nd ref="267123916"/>
    <nd ref="267123921"/>
    <nd ref="267123922"/>
    <nd ref="267123923"/>
    <tag k="created_by" v="JOSM"/>
    <tag k="highway" v="tertiary"/>
    <tag k="junction" v="roundabout"/>
  </way>
  <way id="24568959" version="2" timestamp="2009-06-10T04:04:25Z" uid="20587" user="balrog-kun" changeset="1473633">
    <nd ref="267123922"/>
    <nd ref="267124138"/>
    <tag k="created_by" v="JOSM"/>
    <tag k="highway" v="tertiary"/>
    <tag k="oneway" v="true"/>
  </way>
  <way id="24568960" version="3" timestamp="2009-06-10T04:05:56Z" uid="20587" user="balrog-kun" changeset="1473633"/>
  <way id="24568961" version="9" timestamp="2009-06-10T04:05:55Z" uid="20587" user="balrog-kun" changeset="1473633"/>
  <way id="24568962" version="2" timestamp="2009-06-10T04:04:23Z" uid="20587" user="balrog-kun" changeset="1473633">
    <nd ref="267124140"/>
    <nd ref="267123926"/>
    <tag k="created_by" v="JOSM"/>
    <tag k="highway" v="tertiary"/>
    <tag k="oneway" v="true"/>
  </way>
  <way id="24568963" version="2" timestamp="2009-06-10T04:04:23Z" uid="20587" user="balrog-kun" changeset="1473633">
    <nd ref="267123926"/>
    <nd ref="267123908"/>
    <tag k="created_by" v="JOSM"/>
    <tag k="highway" v="tertiary"/>
    <tag k="oneway" v="true"/>
  </way>
  <way id="24568964" version="2" timestamp="2009-06-10T04:04:23Z" uid="20587" user="balrog-kun" changeset="1473633">
    <nd ref="267123975"/>
    <nd ref="267123988"/>
    <nd ref="267123933"/>
    <nd ref="267123934"/>
    <nd ref="267123935"/>
    <nd ref="267123936"/>
    <nd ref="267123937"/>
    <nd ref="267123938"/>
    <nd ref="267123939"/>
    <nd ref="267123940"/>
    <nd ref="267123952"/>
    <nd ref="267123972"/>
    <nd ref="267123973"/>
    <nd ref="267123974"/>
    <nd ref="267123975"/>
    <tag k="created_by" v="JOSM"/>
    <tag k="highway" v="tertiary"/>
    <tag k="junction" v="roundabout"/>
    <tag k="oneway" v="true"/>
  </way>
  <way id="24568969" version="2" timestamp="2009-06-10T04:05:56Z" uid="20587" user="balrog-kun" changeset="1473633"/>
  <way id="24568970" version="4" timestamp="2009-06-10T04:05:56Z" uid="20587" user="balrog-kun" changeset="1473633"/>
  <way id="24568972" version="3" timestamp="2009-06-10T04:05:56Z" uid="20587" user="balrog-kun" changeset="1473633"/>
  <way id="24568980" version="2" timestamp="2008-12-08T21:36:23Z" uid="43863" user="Rundling" changeset="265858"/>
</osm>
