<?xml version='1.0' encoding='UTF-8'?>
<osm version="0.6" generator="libosmium/2.20.0">
  <way id="24741682" version="1" timestamp="2008-06-07T00:10:37Z" uid="34428" user="usm78-gis" changeset="88988">
    <nd ref="268106127"/>
    <nd ref="177599783"/>
    <tag k="created_by" v="Potlatch 0.9c"/>
  </way>
  <way id="24741682" version="2" timestamp="2008-06-07T00:10:54Z" uid="34428" user="usm78-gis" changeset="88988"/>
  <way id="24741683" version="1" timestamp="2008-06-07T00:11:01Z" uid="34428" user="usm78-gis" changeset="88988">
    <nd ref="268106129"/>
    <nd ref="268106131"/>
    <nd ref="268106134"/>
    <nd ref="268106136"/>
    <nd ref="177599787"/>
    <nd ref="268106138"/>
    <nd ref="268106140"/>
    <nd ref="177599784"/>
    <nd ref="268106144"/>
    <tag k="created_by" v="Potlatch 0.9c"/>
    <tag k="highway" v="primary"/>
    <tag k="oneway" v="yes"/>
  </way>
  <way id="24741683" version="2" timestamp="2008-06-07T00:11:06Z" uid="34428" user="usm78-gis" changeset="88988">
    <nd ref="268106129"/>
    <nd ref="268106131"/>
    <nd ref="268106134"/>
    <tag k="created_by" v="Potlatch 0.9c"/>
    <tag k="highway" v="primary"/>
    <tag k="oneway" v="yes"/>
  </way>
  <way id="24741683" version="3" timestamp="2008-06-07T23:17:45Z" uid="34428" user="usm78-gis" changeset="91689"/>
  <way id="24741684" version="1" timestamp="2008-06-07T00:11:06Z" uid="34428" user="usm78-gis" changeset="88988">
    <nd ref="268106134"/>
    <nd ref="268106136"/>
    <nd ref="177599787"/>
    <nd ref="268106138"/>
    <nd ref="268106140"/>
    <nd ref="177599784"/>
    <nd ref="268106144"/>
    <tag k="created_by" v="Potlatch 0.9c"/>
    <tag k="highway" v="primary"/>
    <tag k="oneway" v="yes"/>
  </way>
  <way id="24741684" version="2" timestamp="2008-06-07T00:11:10Z" uid="34428" user="usm78-gis" changeset="88988">
    <nd ref="268106134"/>
    <nd ref="268106136"/>
    <nd ref="177599787"/>
    <nd ref="268106138"/>
    <tag k="created_by" v="Potlatch 0.9c"/>
    <tag k="highway" v="primary"/>
    <tag k="oneway" v="yes"/>
  </way>
  <way id="24741684" version="3" timestamp="2008-06-07T23:18:01Z" uid="34428" user="usm78-gis" changeset="91689"/>
  <way id="24741685" version="1" timestamp="2008-06-07T00:11:10Z" uid="34428" user="usm78-gis" changeset="88988">
    <nd ref="268106138"/>
    <nd ref="268106140"/>
    <nd ref="177599784"/>
    <nd ref="268106144"/>
    <tag k="created_by" v="Potlatch 0.9c"/>
    <tag k="highway" v="primary"/>
    <tag k="oneway" v="yes"/>
  </way>
  <way id="24741685" version="2" timestamp="2008-06-07T23:17:59Z" uid="34428" user="usm78-gis" changeset="91689"/>
  <way id="24741704" version="1" timestamp="2008-06-07T00:16:22Z" uid="34428" user="usm78-gis" changeset="88988">
    <nd ref="60480110"/>
    <nd ref="319910"/>
    <nd ref="21745335"/>
    <tag k="created_by" v="Potlatch 0.9c"/>
    <tag k="highway" v="primary"/>
    <tag k="name" v="Наличная ул."/>
  </way>
  <way id="24741704" version="2" timestamp="2008-11-09T07:24:37Z" uid="75999" user="Sergey Ushakov" changeset="726765">
    <nd ref="60480110"/>
    <nd ref="319910"/>
    <nd ref="21745335"/>
    <nd ref="252652668"/>
    <nd ref="252652670"/>
    <tag k="created_by" v="Potlatch 0.10f"/>
    <tag k="highway" v="primary"/>
    <tag k="name" v="Наличная ул."/>
  </way>
  <way id="24741704" version="3" timestamp="2008-12-20T06:41:01Z" uid="75999" user="Sergey Ushakov" changeset="488381">
    <nd ref="60480110"/>
    <nd ref="21745335"/>
    <nd ref="320110482"/>
    <nd ref="252652668"/>
    <nd ref="252652670"/>
    <tag k="created_by" v="Potlatch 0.10f"/>
    <tag k="highway" v="primary"/>
    <tag k="name" v="Наличная ул."/>
  </way>
  <way id="24741704" version="4" timestamp="2008-12-20T06:46:38Z" uid="75999" user="Sergey Ushakov" changeset="488381">
    <nd ref="60480110"/>
    <nd ref="21745335"/>
    <nd ref="320110482"/>
    <nd ref="252652668"/>
    <nd ref="252652670"/>
    <tag k="created_by" v="Potlatch 0.10f"/>
    <tag k="highway" v="primary"/>
    <tag k="name" v="Наличная ул."/>
  </way>
  <way id="24741704" version="5" timestamp="2008-12-28T10:46:00Z" uid="75999" user="Sergey Ushakov" changeset="653067">
    <nd ref="306792"/>
    <nd ref="252654572"/>
    <nd ref="322488378"/>
    <nd ref="252652668"/>
    <nd ref="252652670"/>
    <tag k="created_by" v="Potlatch 0.10f"/>
    <tag k="highway" v="primary"/>
    <tag k="name" v="Наличная ул."/>
    <tag k="oneway" v="yes"/>
  </way>
  <way id="24741704" version="6" timestamp="2008-12-28T10:46:47Z" uid="75999" user="Sergey Ushakov" changeset="653067">
    <nd ref="306792"/>
    <nd ref="252654572"/>
    <nd ref="322488378"/>
    <tag k="created_by" v="Potlatch 0.10f"/>
    <tag k="highway" v="primary"/>
    <tag k="name" v="Наличная ул."/>
    <tag k="oneway" v="yes"/>
  </way>
  <way id="24741704" version="7" timestamp="2008-12-28T10:47:16Z" uid="75999" user="Sergey Ushakov" changeset="653067">
    <nd ref="306792"/>
    <nd ref="252654572"/>
    <nd ref="322488378"/>
    <tag k="created_by" v="Potlatch 0.10f"/>
    <tag k="highway" v="primary"/>
    <tag k="name" v="Наличная ул."/>
    <tag k="oneway" v="yes"/>
  </way>
  <way id="24741704" version="8" timestamp="2009-02-23T13:22:47Z" uid="34428" user="usm78-gis" changeset="634299"/>
  <way id="24741708" version="1" timestamp="2008-06-07T00:17:48Z" uid="34428" user="usm78-gis" changeset="88988">
    <nd ref="60691698"/>
    <nd ref="247756374"/>
    <nd ref="26512888"/>
    <nd ref="26512891"/>
    <nd ref="26512894"/>
    <tag k="created_by" v="Potlatch 0.9c"/>
    <tag k="highway" v="secondary"/>
    <tag k="name" v="Энгельса пр."/>
  </way>
  <way id="24741708" version="2" timestamp="2008-06-14T12:25:35Z" uid="15056" user="red_rebel" changeset="158566">
    <nd ref="60691698"/>
    <nd ref="270270460"/>
    <nd ref="247756374"/>
    <nd ref="26512888"/>
    <nd ref="26512891"/>
    <nd ref="26512894"/>
    <tag k="created_by" v="Potlatch 0.9c"/>
    <tag k="highway" v="secondary"/>
    <tag k="name" v="Энгельса пр."/>
  </way>
  <way id="24741708" version="3" timestamp="2009-02-23T11:55:24Z" uid="34428" user="usm78-gis" changeset="634299"/>
  <way id="24741718" version="1" timestamp="2008-06-07T00:19:40Z" uid="34428" user="usm78-gis" changeset="88988">
    <nd ref="25719007"/>
    <nd ref="29029282"/>
    <tag k="bridge" v="yes"/>
    <tag k="created_by" v="Potlatch 0.9c"/>
    <tag k="highway" v="primary"/>
    <tag k="layer" v="1"/>
    <tag k="name" v="Литейный мост; Литейный пр."/>
  </way>
  <way id="24741718" version="2" timestamp="2008-06-07T23:02:18Z" uid="34428" user="usm78-gis" changeset="91689">
    <nd ref="25719007"/>
    <nd ref="29029282"/>
    <tag k="bridge" v="yes"/>
    <tag k="created_by" v="Potlatch 0.9c"/>
    <tag k="highway" v="primary"/>
    <tag k="layer" v="1"/>
    <tag k="name" v="Литейный мост"/>
  </way>
  <way id="24741718" version="3" timestamp="2009-03-24T21:11:36Z" uid="29918" user="Mirt" changeset="853843">
    <nd ref="25719007"/>
    <nd ref="29029282"/>
    <tag k="bridge" v="yes"/>
    <tag k="highway" v="primary"/>
    <tag k="layer" v="1"/>
    <tag k="name" v="Литейный мост"/>
    <tag k="oneway" v="yes"/>
  </way>
  <way id="24741718" version="4" timestamp="2010-09-29T20:18:21Z" uid="51045" user="Geogast" changeset="5914586">
    <nd ref="25719007"/>
    <nd ref="29029282"/>
    <tag k="bridge" v="yes"/>
    <tag k="highway" v="primary"/>
    <tag k="layer" v="1"/>
    <tag k="name" v="Литейный мост"/>
    <tag k="oneway" v="yes"/>
    <tag k="trolley_wire" v="yes"/>
  </way>
  <way id="24741718" version="5" timestamp="2011-10-21T21:37:58Z" uid="290271" user="Zverik" changeset="9620125">
    <nd ref="25719007"/>
    <nd ref="29029282"/>
    <tag k="bridge" v="yes"/>
    <tag k="highway" v="primary"/>
    <tag k="lanes" v="3"/>
    <tag k="layer" v="1"/>
    <tag k="name" v="Литейный мост"/>
    <tag k="oneway" v="yes"/>
    <tag k="trolley_wire" v="yes"/>
  </way>
  <way id="24741725" version="1" timestamp="2008-06-07T00:20:40Z" uid="34428" user="usm78-gis" changeset="88988">
    <nd ref="259761685"/>
    <nd ref="169617310"/>
    <tag k="created_by" v="Potlatch 0.9c"/>
    <tag k="highway" v="residential"/>
  </way>
  <way id="24741725" version="2" timestamp="2009-04-14T12:09:25Z" uid="81821" user="alexsaf" changeset="520320"/>
  <way id="24741740" version="1" timestamp="2008-06-07T00:23:19Z" uid="34428" user="usm78-gis" changeset="88988">
    <nd ref="215241048"/>
    <nd ref="215238215"/>
    <tag k="created_by" v="Potlatch 0.9c"/>
    <tag k="highway" v="track"/>
  </way>
  <way id="24741740" version="2" timestamp="2008-06-07T00:23:24Z" uid="34428" user="usm78-gis" changeset="88988"/>
  <way id="24741753" version="1" timestamp="2008-06-07T00:24:41Z" uid="34428" user="usm78-gis" changeset="88988">
    <nd ref="25896553"/>
    <nd ref="249155553"/>
    <tag k="created_by" v="Potlatch 0.9c"/>
    <tag k="highway" v="residential"/>
    <tag k="name" v="Курчатова ул."/>
  </way>
  <way id="24741753" version="2" timestamp="2008-06-07T00:25:02Z" uid="34428" user="usm78-gis" changeset="88988">
    <nd ref="25896553"/>
    <nd ref="249155547"/>
    <tag k="created_by" v="Potlatch 0.9c"/>
    <tag k="highway" v="residential"/>
    <tag k="name" v="Курчатова ул."/>
  </way>
  <way id="24741753" version="3" timestamp="2008-07-31T12:31:54Z" uid="46330" user="Miha Ulanov" changeset="633049">
    <nd ref="25896553"/>
    <nd ref="249155547"/>
    <tag k="created_by" v="Potlatch 0.10a"/>
    <tag k="highway" v="residential"/>
    <tag k="name" v="Курчатова ул."/>
  </way>
  <way id="24741753" version="4" timestamp="2008-08-12T05:04:29Z" uid="24305" user="ZCC" changeset="208894">
    <nd ref="25896553"/>
    <nd ref="249155553"/>
    <tag k="created_by" v="Potlatch 0.10a"/>
    <tag k="highway" v="residential"/>
    <tag k="name" v="Курчатова ул."/>
  </way>
  <way id="24741753" version="5" timestamp="2009-03-09T08:48:11Z" uid="30590" user="KekcuHa" changeset="771541">
    <nd ref="25896553"/>
    <nd ref="249155553"/>
    <tag k="addr:postcode" v="194223"/>
    <tag k="cladr:code" v="78000000000066200"/>
    <tag k="cladr:name" v="Курчатова"/>
    <tag k="cladr:suffix" v="Улица"/>
    <tag k="highway" v="residential"/>
    <tag k="name" v="Курчатова ул."/>
  </way>
  <way id="24741753" version="6" timestamp="2009-03-22T22:56:43Z" uid="30590" user="KekcuHa" changeset="847016">
    <nd ref="25896553"/>
    <nd ref="249155553"/>
    <tag k="addr:postcode" v="141980"/>
    <tag k="cladr:code" v="50000003000003500"/>
    <tag k="cladr:name" v="Курчатова"/>
    <tag k="cladr:suffix" v="Улица"/>
    <tag k="highway" v="residential"/>
    <tag k="name" v="Курчатова ул."/>
  </way>
  <way id="24741753" version="7" timestamp="2009-03-23T06:07:16Z" uid="30590" user="KekcuHa" changeset="848249">
    <nd ref="25896553"/>
    <nd ref="249155553"/>
    <tag k="addr:postcode" v="194223"/>
    <tag k="cladr:code" v="78000000000066200"/>
    <tag k="cladr:name" v="Курчатова"/>
    <tag k="cladr:suffix" v="Улица"/>
    <tag k="highway" v="residential"/>
    <tag k="name" v="Курчатова ул."/>
  </way>
  <way id="24741753" version="8" timestamp="2009-07-06T20:30:39Z" uid="69864" user="Ivan Komarov" changeset="1756960">
    <nd ref="25896553"/>
    <nd ref="249155547"/>
    <tag k="addr:postcode" v="194223"/>
    <tag k="cladr:code" v="78000000000066200"/>
    <tag k="cladr:name" v="Курчатова"/>
    <tag k="cladr:suffix" v="Улица"/>
    <tag k="highway" v="residential"/>
    <tag k="name" v="Курчатова ул."/>
  </way>
  <way id="24741753" version="9" timestamp="2009-07-07T06:59:26Z" uid="69864" user="Ivan Komarov" changeset="1759815">
    <nd ref="25896553"/>
    <nd ref="249155553"/>
    <tag k="addr:postcode" v="194223"/>
    <tag k="cladr:code" v="78000000000066200"/>
    <tag k="cladr:name" v="Курчатова"/>
    <tag k="cladr:suffix" v="Улица"/>
    <tag k="highway" v="residential"/>
    <tag k="name" v="Курчатова ул."/>
  </way>
  <way id="24741753" version="10" timestamp="2009-07-22T15:52:07Z" uid="46330" user="Miha Ulanov" changeset="1906302">
    <nd ref="25896553"/>
    <nd ref="445623653"/>
    <tag k="addr:postcode" v="194223"/>
    <tag k="cladr:code" v="78000000000066200"/>
    <tag k="cladr:name" v="Курчатова"/>
    <tag k="cladr:suffix" v="Улица"/>
    <tag k="highway" v="residential"/>
    <tag k="name" v="Курчатова ул."/>
  </way>
  <way id="24741753" version="11" timestamp="2009-07-22T15:52:36Z" uid="46330" user="Miha Ulanov" changeset="1906302">
    <nd ref="25896553"/>
    <nd ref="445624128"/>
    <tag k="addr:postcode" v="194223"/>
    <tag k="cladr:code" v="78000000000066200"/>
    <tag k="cladr:name" v="Курчатова"/>
    <tag k="cladr:suffix" v="Улица"/>
    <tag k="highway" v="residential"/>
    <tag k="name" v="Курчатова ул."/>
  </way>
  <way id="24741753" version="12" timestamp="2010-08-12T14:58:25Z" uid="127299" user="Batareikin" changeset="5473850">
    <nd ref="21755975"/>
    <nd ref="450893134"/>
    <nd ref="25896553"/>
    <nd ref="445624128"/>
    <tag k="addr:postcode" v="194223"/>
    <tag k="cladr:code" v="78000000000066200"/>
    <tag k="cladr:name" v="Курчатова"/>
    <tag k="cladr:suffix" v="Улица"/>
    <tag k="highway" v="residential"/>
    <tag k="name" v="улица Курчатова"/>
  </way>
  <way id="24741753" version="13" timestamp="2010-12-10T07:56:25Z" uid="380289" user="Fedor Snegov" changeset="6602644">
    <nd ref="21755975"/>
    <nd ref="25896553"/>
    <tag k="addr:postcode" v="194223"/>
    <tag k="cladr:code" v="78000000000066200"/>
    <tag k="cladr:name" v="Курчатова"/>
    <tag k="cladr:suffix" v="Улица"/>
    <tag k="highway" v="residential"/>
    <tag k="name" v="улица Курчатова"/>
  </way>
  <way id="24741753" version="14" timestamp="2010-12-17T09:42:30Z" uid="380289" user="FMS" changeset="6684894">
    <nd ref="21755975"/>
    <nd ref="25896553"/>
    <tag k="addr:postcode" v="194223"/>
    <tag k="cladr:code" v="78000000000066200"/>
    <tag k="cladr:suffix" v="Улица"/>
    <tag k="highway" v="residential"/>
    <tag k="name" v="улица Курчатова"/>
  </way>
  <way id="24741753" version="15" timestamp="2011-08-15T12:03:22Z" uid="395588" user="Danidin9" changeset="9026333">
    <nd ref="21755975"/>
    <nd ref="25896553"/>
    <tag k="addr:postcode" v="194223"/>
    <tag k="cladr:code" v="78000000000066200"/>
    <tag k="cladr:suffix" v="Улица"/>
    <tag k="highway" v="unclassified"/>
    <tag k="name" v="улица Курчатова"/>
    <tag k="surface" v="asphalt"/>
    <tag k="width" v="8"/>
  </way>
  <way id="24741753" version="16" timestamp="2011-09-27T22:14:05Z" uid="143266" user="Sergey Astakhov" changeset="9415328">
    <nd ref="21755975"/>
    <nd ref="25896553"/>
    <tag k="addr:postcode" v="194223"/>
    <tag k="highway" v="unclassified"/>
    <tag k="name" v="улица Курчатова"/>
    <tag k="surface" v="asphalt"/>
    <tag k="width" v="8"/>
  </way>
  <way id="24741753" version="17" timestamp="2011-10-06T09:45:56Z" uid="395588" user="Danidin9" changeset="9484163">
    <nd ref="21755975"/>
    <nd ref="25896553"/>
    <tag k="addr:postcode" v="194223"/>
    <tag k="highway" v="unclassified"/>
    <tag k="name" v="улица Курчатова"/>
    <tag k="surface" v="asphalt"/>
    <tag k="width" v="8"/>
  </way>
  <way id="24741753" version="18" timestamp="2012-01-05T11:33:06Z" uid="336663" user="PavelRus" changeset="10299713">
    <nd ref="21755975"/>
    <nd ref="25896553"/>
    <tag k="addr:postcode" v="194223"/>
    <tag k="highway" v="unclassified"/>
    <tag k="lit" v="yes"/>
    <tag k="name" v="улица Курчатова"/>
    <tag k="surface" v="asphalt"/>
    <tag k="width" v="8"/>
  </way>
  <way id="24741753" version="19" timestamp="2012-01-05T20:31:38Z" uid="380289" user="FMS" changeset="10305156">
    <nd ref="21755975"/>
    <nd ref="25896553"/>
    <tag k="addr:postcode" v="194223"/>
    <tag k="highway" v="unclassified"/>
    <tag k="lit" v="yes"/>
    <tag k="name" v="улица Курчатова"/>
    <tag k="surface" v="asphalt"/>
    <tag k="width" v="8"/>
  </way>
  <way id="24741753" version="20" timestamp="2012-03-06T22:18:27Z" uid="367643" user="AlexTheTux" changeset="10895228">
    <nd ref="21755975"/>
    <nd ref="1663271914"/>
    <nd ref="25896553"/>
    <tag k="addr:postcode" v="194223"/>
    <tag k="highway" v="unclassified"/>
    <tag k="lit" v="yes"/>
    <tag k="name" v="улица Курчатова"/>
    <tag k="surface" v="asphalt"/>
    <tag k="width" v="8"/>
  </way>
  <way id="24741753" version="21" timestamp="2012-03-10T20:35:59Z" uid="367643" user="AlexTheTux" changeset="10936499">
    <nd ref="21755975"/>
    <nd ref="1669208619"/>
    <nd ref="1663271914"/>
    <nd ref="25896553"/>
    <tag k="addr:postcode" v="194223"/>
    <tag k="highway" v="unclassified"/>
    <tag k="lit" v="yes"/>
    <tag k="name" v="улица Курчатова"/>
    <tag k="surface" v="asphalt"/>
    <tag k="width" v="8"/>
  </way>
  <way id="24741757" version="1" timestamp="2008-06-07T00:25:09Z" uid="34428" user="usm78-gis" changeset="88988">
    <nd ref="249155547"/>
    <nd ref="249155560"/>
    <tag k="created_by" v="Potlatch 0.9c"/>
    <tag k="highway" v="service"/>
  </way>
  <way id="24741757" version="2" timestamp="2008-06-07T00:25:31Z" uid="34428" user="usm78-gis" changeset="88988">
    <nd ref="249155547"/>
    <nd ref="249155560"/>
    <tag k="created_by" v="Potlatch 0.9c"/>
    <tag k="highway" v="service"/>
  </way>
  <way id="24741757" version="3" timestamp="2008-08-12T05:04:30Z" uid="24305" user="ZCC" changeset="208894">
    <nd ref="249155553"/>
    <nd ref="249155547"/>
    <nd ref="249155560"/>
    <tag k="access" v="private"/>
    <tag k="created_by" v="Potlatch 0.9c"/>
    <tag k="highway" v="service"/>
  </way>
  <way id="24741757" version="4" timestamp="2009-02-23T12:11:11Z" uid="34428" user="usm78-gis" changeset="634299"/>
  <way id="24741806" version="1" timestamp="2008-06-07T00:29:00Z" uid="34428" user="usm78-gis" changeset="88988">
    <nd ref="253029598"/>
    <nd ref="253029599"/>
    <tag k="created_by" v="Potlatch 0.9c"/>
    <tag k="highway" v="service"/>
  </way>
  <way id="24741806" version="2" timestamp="2008-06-07T00:29:06Z" uid="34428" user="usm78-gis" changeset="88988"/>
  <way id="24741808" version="1" timestamp="2008-06-07T00:29:21Z" uid="34428" user="usm78-gis" changeset="88988">
    <nd ref="253029049"/>
    <nd ref="253029598"/>
    <nd ref="26052874"/>
    <tag k="created_by" v="Potlatch 0.9c"/>
    <tag k="highway" v="service"/>
  </way>
  <way id="24741808" version="2" timestamp="2011-02-28T18:00:58Z" uid="136198" user="tmprec" changeset="7422674">
    <nd ref="253029049"/>
    <nd ref="253029598"/>
    <nd ref="26052874"/>
    <tag k="highway" v="service"/>
  </way>
  <way id="24741808" version="3" timestamp="2011-11-16T01:18:31Z" uid="39040" user="Dinamik" changeset="9840647">
    <nd ref="253029049"/>
    <nd ref="253029598"/>
    <nd ref="26052874"/>
    <tag k="highway" v="residential"/>
  </way>
  <way id="24741808" version="4" timestamp="2011-12-11T15:48:19Z" uid="392109" user="GaM" changeset="10090948">
    <nd ref="253029049"/>
    <nd ref="253029598"/>
    <nd ref="1540952487"/>
    <tag k="highway" v="footway"/>
  </way>
  <way id="24741809" version="1" timestamp="2008-06-07T00:29:21Z" uid="30201" user="rrankin" changeset="79291">
    <nd ref="268890997"/>
    <nd ref="268891095"/>
    <nd ref="268891092"/>
    <nd ref="268891061"/>
    <nd ref="268891037"/>
    <nd ref="268891014"/>
    <nd ref="268891005"/>
    <tag k="highway" v="residential"/>
    <tag k="name" v="Marks Street"/>
    <tag k="source" v="yahoo"/>
  </way>
  <way id="24741809" version="2" timestamp="2009-08-21T02:27:11Z" uid="152608" user="Robbo" changeset="2218330">
    <nd ref="268890997"/>
    <nd ref="268891095"/>
    <tag k="highway" v="residential"/>
    <tag k="name" v="Marks Street"/>
    <tag k="source" v="yahoo"/>
  </way>
  <way id="24741809" version="3" timestamp="2010-07-08T01:54:06Z" uid="74617" user="JohnSmith" changeset="5162525">
    <nd ref="268890997"/>
    <nd ref="268891095"/>
    <tag k="highway" v="residential"/>
    <tag k="maxspeed" v="50"/>
    <tag k="maxspeed:source" v="default residential speed limit in Australia"/>
    <tag k="name" v="Marks Street"/>
    <tag k="source" v="yahoo"/>
  </way>
  <way id="24741809" version="4" timestamp="2012-01-16T14:34:41Z" uid="147510" user="woodpeck_fixbot" changeset="10408721">
    <nd ref="268890997"/>
    <nd ref="268891095"/>
    <tag k="highway" v="residential"/>
    <tag k="name" v="Marks Street"/>
    <tag k="source" v="yahoo"/>
  </way>
  <way id="24741810" version="1" timestamp="2008-06-07T00:29:22Z" uid="30201" user="rrankin" changeset="79291">
    <nd ref="268891014"/>
    <nd ref="268891022"/>
    <nd ref="268891030"/>
    <tag k="highway" v="residential"/>
    <tag k="source" v="yahoo"/>
  </way>
  <way id="24741810" version="2" timestamp="2009-08-21T02:27:11Z" uid="152608" user="Robbo" changeset="2218330">
    <nd ref="268891014"/>
    <nd ref="268891022"/>
    <nd ref="268891030"/>
    <tag k="highway" v="residential"/>
    <tag k="rcn" v="yes"/>
    <tag k="source" v="yahoo"/>
  </way>
  <way id="24741810" version="3" timestamp="2009-12-22T12:07:55Z" uid="7617" user="Franc" changeset="3426619">
    <nd ref="268891014"/>
    <nd ref="268891022"/>
    <nd ref="268891030"/>
    <tag k="highway" v="residential"/>
    <tag k="rcn" v="yes"/>
    <tag k="source" v="nearmap"/>
  </way>
  <way id="24741810" version="4" timestamp="2010-07-08T01:57:49Z" uid="74617" user="JohnSmith" changeset="5162525">
    <nd ref="268891014"/>
    <nd ref="268891022"/>
    <nd ref="268891030"/>
    <tag k="highway" v="residential"/>
    <tag k="maxspeed" v="50"/>
    <tag k="maxspeed:source" v="default residential speed limit in Australia"/>
    <tag k="rcn" v="yes"/>
    <tag k="source" v="nearmap"/>
  </way>
  <way id="24741810" version="5" timestamp="2012-01-16T14:34:42Z" uid="147510" user="woodpeck_fixbot" changeset="10408721">
    <nd ref="268891014"/>
    <nd ref="268891022"/>
    <nd ref="268891030"/>
    <tag k="highway" v="residential"/>
    <tag k="rcn" v="yes"/>
    <tag k="source" v="nearmap"/>
  </way>
  <way id="24741811" version="1" timestamp="2008-06-07T00:29:22Z" uid="30201" user="rrankin" changeset="79291">
    <nd ref="268891037"/>
    <nd ref="268891045"/>
    <nd ref="268891053"/>
    <tag k="highway" v="residential"/>
    <tag k="name" v="Kenthurst Place"/>
    <tag k="source" v="yahoo"/>
  </way>
  <way id="24741811" version="2" timestamp="2009-12-22T12:07:55Z" uid="7617" user="Franc" changeset="3426619">
    <nd ref="268891037"/>
    <nd ref="268891045"/>
    <tag k="highway" v="residential"/>
    <tag k="name" v="Kenthurst Place"/>
    <tag k="source" v="nearmap"/>
  </way>
  <way id="24741811" version="3" timestamp="2010-07-08T02:00:12Z" uid="74617" user="JohnSmith" changeset="5162525">
    <nd ref="268891037"/>
    <nd ref="268891045"/>
    <tag k="highway" v="residential"/>
    <tag k="maxspeed" v="50"/>
    <tag k="maxspeed:source" v="default residential speed limit in Australia"/>
    <tag k="name" v="Kenthurst Place"/>
    <tag k="source" v="nearmap"/>
  </way>
  <way id="24741811" version="4" timestamp="2012-01-16T14:34:44Z" uid="147510" user="woodpeck_fixbot" changeset="10408721">
    <nd ref="268891037"/>
    <nd ref="268891045"/>
    <tag k="highway" v="residential"/>
    <tag k="name" v="Kenthurst Place"/>
    <tag k="source" v="nearmap"/>
  </way>
  <way id="24741812" version="1" timestamp="2008-06-07T00:29:23Z" uid="30201" user="rrankin" changeset="79291">
    <nd ref="268891061"/>
    <nd ref="268891078"/>
    <nd ref="268891090"/>
    <nd ref="268891070"/>
    <tag k="highway" v="residential"/>
    <tag k="name" v="Compton Street"/>
    <tag k="source" v="yahoo"/>
  </way>
  <way id="24741812" version="2" timestamp="2009-12-22T12:07:50Z" uid="7617" user="Franc" changeset="3426619">
    <nd ref="268891061"/>
    <nd ref="268891078"/>
    <nd ref="268891090"/>
    <nd ref="598152045"/>
    <nd ref="268891070"/>
    <tag k="highway" v="residential"/>
    <tag k="name" v="Compton Street"/>
    <tag k="source" v="nearmap"/>
  </way>
  <way id="24741812" version="3" timestamp="2010-07-08T02:00:54Z" uid="74617" user="JohnSmith" changeset="5162525">
    <nd ref="268891061"/>
    <nd ref="268891078"/>
    <nd ref="268891090"/>
    <nd ref="598152045"/>
    <nd ref="268891070"/>
    <tag k="highway" v="residential"/>
    <tag k="maxspeed" v="50"/>
    <tag k="maxspeed:source" v="default residential speed limit in Australia"/>
    <tag k="name" v="Compton Street"/>
    <tag k="source" v="nearmap"/>
  </way>
  <way id="24741812" version="4" timestamp="2012-01-16T14:34:45Z" uid="147510" user="woodpeck_fixbot" changeset="10408721">
    <nd ref="268891061"/>
    <nd ref="268891078"/>
    <nd ref="268891090"/>
    <nd ref="598152045"/>
    <nd ref="268891070"/>
    <tag k="highway" v="residential"/>
    <tag k="name" v="Compton Street"/>
    <tag k="source" v="nearmap"/>
  </way>
  <way id="24741813" version="1" timestamp="2008-06-07T00:29:24Z" uid="30201" user="rrankin" changeset="79291">
    <nd ref="268891078"/>
    <nd ref="268891087"/>
    <tag k="highway" v="residential"/>
    <tag k="name" v="Winston Avenue"/>
    <tag k="source" v="yahoo"/>
  </way>
  <way id="24741813" version="2" timestamp="2009-12-22T12:07:53Z" uid="7617" user="Franc" changeset="3426619">
    <nd ref="268891078"/>
    <nd ref="268891087"/>
    <tag k="highway" v="residential"/>
    <tag k="name" v="Winston Avenue"/>
    <tag k="source" v="nearmap"/>
  </way>
  <way id="24741813" version="3" timestamp="2010-07-08T01:52:20Z" uid="74617" user="JohnSmith" changeset="5162525">
    <nd ref="268891078"/>
    <nd ref="268891087"/>
    <tag k="highway" v="residential"/>
    <tag k="maxspeed" v="50"/>
    <tag k="maxspeed:source" v="default residential speed limit in Australia"/>
    <tag k="name" v="Winston Avenue"/>
    <tag k="source" v="nearmap"/>
  </way>
  <way id="24741813" version="4" timestamp="2012-01-16T14:34:46Z" uid="147510" user="woodpeck_fixbot" changeset="10408721">
    <nd ref="268891078"/>
    <nd ref="268891087"/>
    <tag k="highway" v="residential"/>
    <tag k="name" v="Winston Avenue"/>
    <tag k="source" v="nearmap"/>
  </way>
  <way id="24741814" version="1" timestamp="2008-06-07T00:29:25Z" uid="30201" user="rrankin" changeset="79291">
    <nd ref="268891090"/>
    <nd ref="268891091"/>
    <tag k="highway" v="residential"/>
    <tag k="name" v="Newman Street"/>
    <tag k="source" v="yahoo"/>
  </way>
  <way id="24741814" version="2" timestamp="2009-12-22T12:07:53Z" uid="7617" user="Franc" changeset="3426619">
    <nd ref="268891090"/>
    <nd ref="268891091"/>
    <tag k="highway" v="residential"/>
    <tag k="name" v="Newman Street"/>
    <tag k="source" v="nearmap"/>
  </way>
  <way id="24741814" version="3" timestamp="2010-07-08T01:56:21Z" uid="74617" user="JohnSmith" changeset="5162525">
    <nd ref="268891090"/>
    <nd ref="268891091"/>
    <tag k="highway" v="residential"/>
    <tag k="maxspeed" v="50"/>
    <tag k="maxspeed:source" v="default residential speed limit in Australia"/>
    <tag k="name" v="Newman Street"/>
    <tag k="source" v="nearmap"/>
  </way>
  <way id="24741814" version="4" timestamp="2012-01-16T14:34:48Z" uid="147510" user="woodpeck_fixbot" changeset="10408721">
    <nd ref="268891090"/>
    <nd ref="268891091"/>
    <tag k="highway" v="residential"/>
    <tag k="name" v="Newman Street"/>
    <tag k="source" v="nearmap"/>
  </way>
  <way id="24741815" version="1" timestamp="2008-06-07T00:29:26Z" uid="30201" user="rrankin" changeset="79291">
    <nd ref="268891092"/>
    <nd ref="268891093"/>
    <nd ref="268891094"/>
    <tag k="highway" v="residential"/>
    <tag k="name" v="Elke Crescent"/>
    <tag k="source" v="yahoo"/>
  </way>
  <way id="24741815" version="2" timestamp="2010-07-08T01:58:20Z" uid="74617" user="JohnSmith" changeset="5162525">
    <nd ref="268891092"/>
    <nd ref="268891093"/>
    <nd ref="268891094"/>
    <tag k="highway" v="residential"/>
    <tag k="maxspeed" v="50"/>
    <tag k="maxspeed:source" v="default residential speed limit in Australia"/>
    <tag k="name" v="Elke Crescent"/>
    <tag k="source" v="yahoo"/>
  </way>
  <way id="24741815" version="3" timestamp="2012-01-16T14:34:54Z" uid="147510" user="woodpeck_fixbot" changeset="10408721">
    <nd ref="268891092"/>
    <nd ref="268891093"/>
    <nd ref="268891094"/>
    <tag k="highway" v="residential"/>
    <tag k="name" v="Elke Crescent"/>
    <tag k="source" v="yahoo"/>
  </way>
  <way id="24741816" version="1" timestamp="2008-06-07T00:29:26Z" uid="30201" user="rrankin" changeset="79291">
    <nd ref="268891095"/>
    <nd ref="268891101"/>
    <nd ref="268891109"/>
    <nd ref="268891120"/>
    <tag k="highway" v="residential"/>
    <tag k="name" v="Robertson Road"/>
    <tag k="source" v="yahoo"/>
  </way>
  <way id="24741816" version="2" timestamp="2009-08-21T02:27:11Z" uid="152608" user="Robbo" changeset="2218330">
    <nd ref="268891095"/>
    <nd ref="268891101"/>
    <nd ref="268891109"/>
    <nd ref="268891120"/>
    <nd ref="471743718"/>
    <tag k="highway" v="residential"/>
    <tag k="name" v="Robertson Road"/>
    <tag k="rcn" v="yes"/>
    <tag k="source" v="yahoo"/>
  </way>
  <way id="24741816" version="3" timestamp="2009-12-22T12:07:50Z" uid="7617" user="Franc" changeset="3426619">
    <nd ref="268891095"/>
    <nd ref="268891101"/>
    <nd ref="268891109"/>
    <nd ref="471743718"/>
    <tag k="highway" v="residential"/>
    <tag k="name" v="Robertson Road"/>
    <tag k="rcn" v="yes"/>
    <tag k="source" v="nearmap"/>
  </way>
  <way id="24741816" version="4" timestamp="2010-07-08T01:59:02Z" uid="74617" user="JohnSmith" changeset="5162525">
    <nd ref="268891095"/>
    <nd ref="268891101"/>
    <nd ref="268891109"/>
    <nd ref="471743718"/>
    <tag k="highway" v="residential"/>
    <tag k="maxspeed" v="50"/>
    <tag k="maxspeed:source" v="default residential speed limit in Australia"/>
    <tag k="name" v="Robertson Road"/>
    <tag k="rcn" v="yes"/>
    <tag k="source" v="nearmap"/>
  </way>
  <way id="24741816" version="5" timestamp="2012-01-16T14:34:55Z" uid="147510" user="woodpeck_fixbot" changeset="10408721">
    <nd ref="268891095"/>
    <nd ref="268891101"/>
    <nd ref="268891109"/>
    <nd ref="471743718"/>
    <tag k="highway" v="residential"/>
    <tag k="name" v="Robertson Road"/>
    <tag k="rcn" v="yes"/>
    <tag k="source" v="nearmap"/>
  </way>
  <way id="24741817" version="1" timestamp="2008-06-07T00:29:27Z" uid="30201" user="rrankin" changeset="79291">
    <nd ref="268891137"/>
    <nd ref="268891195"/>
    <nd ref="268891184"/>
    <nd ref="268891146"/>
    <nd ref="268891173"/>
    <nd ref="268891155"/>
    <nd ref="268891163"/>
    <tag k="highway" v="residential"/>
    <tag k="name" v="McClelland Street"/>
    <tag k="source" v="yahoo"/>
  </way>
  <way id="24741817" version="2" timestamp="2009-12-22T12:07:55Z" uid="7617" user="Franc" changeset="3426619">
    <nd ref="268891137"/>
    <nd ref="268891195"/>
    <nd ref="268891184"/>
    <nd ref="268891146"/>
    <nd ref="268891173"/>
    <nd ref="268891155"/>
    <nd ref="268891163"/>
    <tag k="highway" v="residential"/>
    <tag k="name" v="McClelland Street"/>
    <tag k="source" v="nearmap"/>
  </way>
  <way id="24741817" version="3" timestamp="2010-07-08T02:01:33Z" uid="74617" user="JohnSmith" changeset="5162525">
    <nd ref="268891137"/>
    <nd ref="268891195"/>
    <nd ref="268891184"/>
    <nd ref="268891146"/>
    <nd ref="268891173"/>
    <nd ref="268891155"/>
    <nd ref="268891163"/>
    <tag k="highway" v="residential"/>
    <tag k="maxspeed" v="50"/>
    <tag k="maxspeed:source" v="default residential speed limit in Australia"/>
    <tag k="name" v="McClelland Street"/>
    <tag k="source" v="nearmap"/>
  </way>
  <way id="24741817" version="4" timestamp="2012-01-16T14:34:57Z" uid="147510" user="woodpeck_fixbot" changeset="10408721">
    <nd ref="268891137"/>
    <nd ref="268891195"/>
    <nd ref="268891184"/>
    <nd ref="268891146"/>
    <nd ref="268891173"/>
    <nd ref="268891155"/>
    <nd ref="268891163"/>
    <tag k="highway" v="residential"/>
    <tag k="name" v="McClelland Street"/>
    <tag k="source" v="nearmap"/>
  </way>
  <way id="24741818" version="1" timestamp="2008-06-07T00:29:28Z" uid="30201" user="rrankin" changeset="79291">
    <nd ref="268891168"/>
    <nd ref="268891169"/>
    <nd ref="268891170"/>
    <tag k="highway" v="residential"/>
    <tag k="name" v="Marks Street"/>
    <tag k="source" v="yahoo"/>
  </way>
  <way id="24741818" version="2" timestamp="2009-12-22T09:49:30Z" uid="7617" user="Franc" changeset="3425720">
    <nd ref="268891168"/>
    <nd ref="598104754"/>
    <nd ref="268891169"/>
    <nd ref="598104745"/>
    <nd ref="268891170"/>
    <tag k="highway" v="residential"/>
    <tag k="name" v="Marks Street"/>
    <tag k="source" v="yahoo"/>
  </way>
  <way id="24741818" version="3" timestamp="2010-07-08T01:54:38Z" uid="74617" user="JohnSmith" changeset="5162525">
    <nd ref="268891168"/>
    <nd ref="598104754"/>
    <nd ref="268891169"/>
    <nd ref="598104745"/>
    <nd ref="268891170"/>
    <tag k="highway" v="residential"/>
    <tag k="maxspeed" v="50"/>
    <tag k="maxspeed:source" v="default residential speed limit in Australia"/>
    <tag k="name" v="Marks Street"/>
    <tag k="source" v="yahoo"/>
  </way>
  <way id="24741818" version="4" timestamp="2012-01-16T14:34:59Z" uid="147510" user="woodpeck_fixbot" changeset="10408721">
    <nd ref="268891168"/>
    <nd ref="598104754"/>
    <nd ref="268891169"/>
    <nd ref="598104745"/>
    <nd ref="268891170"/>
    <tag k="highway" v="residential"/>
    <tag k="name" v="Marks Street"/>
    <tag k="source" v="yahoo"/>
  </way>
  <way id="24741819" version="1" timestamp="2008-06-07T00:29:29Z" uid="30201" user="rrankin" changeset="79291">
    <nd ref="268891171"/>
    <nd ref="268891172"/>
    <tag k="highway" v="residential"/>
    <tag k="name" v="Marks Street"/>
    <tag k="source" v="yahoo"/>
  </way>
  <way id="24741819" version="2" timestamp="2010-07-08T01:56:58Z" uid="74617" user="JohnSmith" changeset="5162525">
    <nd ref="268891171"/>
    <nd ref="268891172"/>
    <tag k="highway" v="residential"/>
    <tag k="maxspeed" v="50"/>
    <tag k="maxspeed:source" v="default residential speed limit in Australia"/>
    <tag k="name" v="Marks Street"/>
    <tag k="source" v="yahoo"/>
  </way>
  <way id="24741819" version="3" timestamp="2012-01-16T14:35:00Z" uid="147510" user="woodpeck_fixbot" changeset="10408721">
    <nd ref="268891171"/>
    <nd ref="268891172"/>
    <tag k="highway" v="residential"/>
    <tag k="name" v="Marks Street"/>
    <tag k="source" v="yahoo"/>
  </way>
  <way id="24741820" version="1" timestamp="2008-06-07T00:29:29Z" uid="30201" user="rrankin" changeset="79291">
    <nd ref="268891163"/>
    <nd ref="268891165"/>
    <nd ref="268891166"/>
    <nd ref="268891168"/>
    <nd ref="268891167"/>
    <nd ref="36539100"/>
    <tag k="highway" v="residential"/>
    <tag k="name" v="Orchard Road"/>
    <tag k="source" v="yahoo"/>
  </way>
  <way id="24741820" version="2" timestamp="2008-06-26T04:39:37Z" uid="30201" user="rrankin" changeset="301479">
    <nd ref="268891163"/>
    <nd ref="268891165"/>
    <nd ref="268891166"/>
    <nd ref="268891168"/>
    <nd ref="268891167"/>
    <nd ref="273309065"/>
    <nd ref="36539100"/>
    <nd ref="273308952"/>
    <nd ref="256225068"/>
    <tag k="highway" v="residential"/>
    <tag k="name" v="Orchard Road"/>
    <tag k="source" v="yahoo"/>
  </way>
  <way id="24741820" version="3" timestamp="2009-12-22T09:49:30Z" uid="7617" user="Franc" changeset="3425720">
    <nd ref="268891163"/>
    <nd ref="268891165"/>
    <nd ref="268891166"/>
    <nd ref="268891168"/>
    <nd ref="598104744"/>
    <nd ref="268891167"/>
    <nd ref="273309065"/>
    <nd ref="36539100"/>
    <tag k="highway" v="residential"/>
    <tag k="name" v="Orchard Road"/>
    <tag k="source" v="nearmap"/>
  </way>
  <way id="24741820" version="4" timestamp="2010-07-08T01:57:29Z" uid="74617" user="JohnSmith" changeset="5162525">
    <nd ref="268891163"/>
    <nd ref="268891165"/>
    <nd ref="268891166"/>
    <nd ref="268891168"/>
    <nd ref="598104744"/>
    <nd ref="268891167"/>
    <nd ref="273309065"/>
    <nd ref="36539100"/>
    <tag k="highway" v="residential"/>
    <tag k="maxspeed" v="50"/>
    <tag k="maxspeed:source" v="default residential speed limit in Australia"/>
    <tag k="name" v="Orchard Road"/>
    <tag k="source" v="nearmap"/>
  </way>
  <way id="24741820" version="5" timestamp="2012-01-16T14:35:02Z" uid="147510" user="woodpeck_fixbot" changeset="10408721">
    <nd ref="268891163"/>
    <nd ref="268891165"/>
    <nd ref="268891166"/>
    <nd ref="268891168"/>
    <nd ref="598104744"/>
    <nd ref="268891167"/>
    <nd ref="273309065"/>
    <nd ref="36539100"/>
    <tag k="highway" v="residential"/>
    <tag k="name" v="Orchard Road"/>
    <tag k="source" v="nearmap"/>
  </way>
  <way id="24741821" version="1" timestamp="2008-06-07T00:29:30Z" uid="30201" user="rrankin" changeset="79291">
    <nd ref="268891173"/>
    <nd ref="268891174"/>
    <tag k="highway" v="residential"/>
    <tag k="name" v="Ridge Street"/>
    <tag k="source" v="yahoo"/>
  </way>
  <way id="24741821" version="2" timestamp="2009-12-22T09:49:36Z" uid="7617" user="Franc" changeset="3425720">
    <nd ref="268891173"/>
    <nd ref="268891174"/>
    <tag k="highway" v="residential"/>
    <tag k="name" v="Ridge Street"/>
    <tag k="source" v="nearmap"/>
  </way>
  <way id="24741821" version="3" timestamp="2010-07-08T01:59:45Z" uid="74617" user="JohnSmith" changeset="5162525">
    <nd ref="268891173"/>
    <nd ref="268891174"/>
    <tag k="highway" v="residential"/>
    <tag k="maxspeed" v="50"/>
    <tag k="maxspeed:source" v="default residential speed limit in Australia"/>
    <tag k="name" v="Ridge Street"/>
    <tag k="source" v="nearmap"/>
  </way>
  <way id="24741821" version="4" timestamp="2012-01-16T14:35:04Z" uid="147510" user="woodpeck_fixbot" changeset="10408721">
    <nd ref="268891173"/>
    <nd ref="268891174"/>
    <tag k="highway" v="residential"/>
    <tag k="name" v="Ridge Street"/>
    <tag k="source" v="nearmap"/>
  </way>
  <way id="24741822" version="1" timestamp="2008-06-07T00:29:31Z" uid="30201" user="rrankin" changeset="79291">
    <nd ref="268891175"/>
    <nd ref="256174950"/>
    <nd ref="268891179"/>
    <nd ref="268891177"/>
    <nd ref="268891176"/>
    <tag k="highway" v="residential"/>
    <tag k="name" v="Orchard Road"/>
    <tag k="source" v="yahoo"/>
  </way>
  <way id="24741822" version="2" timestamp="2008-06-07T01:03:00Z" uid="30201" user="rrankin" changeset="79291">
    <nd ref="268891175"/>
    <nd ref="268892397"/>
    <nd ref="256174950"/>
    <nd ref="268891179"/>
    <nd ref="268891177"/>
    <nd ref="268891176"/>
    <tag k="highway" v="residential"/>
    <tag k="name" v="Orchard Road"/>
    <tag k="source" v="yahoo"/>
  </way>
  <way id="24741822" version="3" timestamp="2008-06-26T04:39:37Z" uid="30201" user="rrankin" changeset="301479">
    <nd ref="268891175"/>
    <nd ref="268892397"/>
    <nd ref="256174950"/>
    <tag k="highway" v="residential"/>
    <tag k="name" v="Orchard Road"/>
    <tag k="source" v="yahoo"/>
  </way>
  <way id="24741822" version="4" timestamp="2009-12-22T09:49:37Z" uid="7617" user="Franc" changeset="3425720">
    <nd ref="268891175"/>
    <nd ref="268892397"/>
    <nd ref="256174950"/>
    <nd ref="273309077"/>
    <tag k="highway" v="residential;secondary"/>
    <tag k="name" v="Orchard Road"/>
    <tag k="source" v="nearmap"/>
  </way>
  <way id="24741822" version="5" timestamp="2010-04-01T22:20:42Z" uid="7412" user="Matthias Julius" changeset="4297467">
    <nd ref="268891175"/>
    <nd ref="268892397"/>
    <nd ref="256174950"/>
    <tag k="highway" v="residential"/>
    <tag k="name" v="Orchard Road"/>
    <tag k="source" v="nearmap"/>
  </way>
  <way id="24741822" version="6" timestamp="2010-07-08T01:53:03Z" uid="74617" user="JohnSmith" changeset="5162525">
    <nd ref="268891175"/>
    <nd ref="268892397"/>
    <nd ref="256174950"/>
    <tag k="highway" v="residential"/>
    <tag k="maxspeed" v="50"/>
    <tag k="maxspeed:source" v="default residential speed limit in Australia"/>
    <tag k="name" v="Orchard Road"/>
    <tag k="source" v="nearmap"/>
  </way>
  <way id="24741822" version="7" timestamp="2012-01-16T14:35:05Z" uid="147510" user="woodpeck_fixbot" changeset="10408721">
    <nd ref="268891175"/>
    <nd ref="268892397"/>
    <nd ref="256174950"/>
    <tag k="highway" v="residential"/>
    <tag k="name" v="Orchard Road"/>
    <tag k="source" v="nearmap"/>
  </way>
  <way id="24741823" version="1" timestamp="2008-06-07T00:29:32Z" uid="30201" user="rrankin" changeset="79291">
    <nd ref="268891177"/>
    <nd ref="268891178"/>
    <tag k="highway" v="residential"/>
    <tag k="name" v="Lodge Place"/>
    <tag k="source" v="yahoo"/>
  </way>
  <way id="24741823" version="2" timestamp="2009-12-22T09:49:36Z" uid="7617" user="Franc" changeset="3425720">
    <nd ref="268891177"/>
    <nd ref="268891178"/>
    <tag k="highway" v="residential"/>
    <tag k="name" v="Lodge Place"/>
    <tag k="source" v="nearmap"/>
  </way>
  <way id="24741823" version="3" timestamp="2010-07-08T01:55:18Z" uid="74617" user="JohnSmith" changeset="5162525">
    <nd ref="268891177"/>
    <nd ref="268891178"/>
    <tag k="highway" v="residential"/>
    <tag k="maxspeed" v="50"/>
    <tag k="maxspeed:source" v="default residential speed limit in Australia"/>
    <tag k="name" v="Lodge Place"/>
    <tag k="source" v="nearmap"/>
  </way>
  <way id="24741823" version="4" timestamp="2012-01-16T14:35:06Z" uid="147510" user="woodpeck_fixbot" changeset="10408721">
    <nd ref="268891177"/>
    <nd ref="268891178"/>
    <tag k="highway" v="residential"/>
    <tag k="name" v="Lodge Place"/>
    <tag k="source" v="nearmap"/>
  </way>
  <way id="24741824" version="1" timestamp="2008-06-07T00:29:32Z" uid="30201" user="rrankin" changeset="79291">
    <nd ref="268891179"/>
    <nd ref="256174927"/>
    <nd ref="268891181"/>
    <nd ref="268891183"/>
    <nd ref="268891192"/>
    <nd ref="268891194"/>
    <nd ref="268891196"/>
    <nd ref="268891180"/>
    <tag k="highway" v="residential"/>
    <tag k="name" v="Jocelyn Street"/>
    <tag k="source" v="yahoo"/>
  </way>
  <way id="24741824" version="2" timestamp="2008-06-07T01:03:01Z" uid="30201" user="rrankin" changeset="79291">
    <nd ref="268891179"/>
    <nd ref="268892374"/>
    <nd ref="256174927"/>
    <nd ref="268891181"/>
    <nd ref="268891183"/>
    <nd ref="268891192"/>
    <nd ref="268891194"/>
    <nd ref="268891196"/>
    <nd ref="268891180"/>
    <tag k="highway" v="residential"/>
    <tag k="name" v="Jocelyn Street"/>
    <tag k="source" v="yahoo"/>
  </way>
  <way id="24741824" version="3" timestamp="2009-12-21T23:58:25Z" uid="7617" user="Franc" changeset="3424105">
    <nd ref="268891179"/>
    <nd ref="268892374"/>
    <nd ref="256174927"/>
    <tag k="highway" v="residential"/>
    <tag k="name" v="Jocelyn Street"/>
    <tag k="source" v="yahoo"/>
  </way>
  <way id="24741824" version="4" timestamp="2009-12-22T10:18:52Z" uid="7617" user="Franc" changeset="3425898">
    <nd ref="268891179"/>
    <nd ref="268892374"/>
    <nd ref="598111202"/>
    <tag k="highway" v="residential"/>
    <tag k="name" v="Jocelyn Street"/>
    <tag k="source" v="nearmap"/>
  </way>
  <way id="24741824" version="5" timestamp="2010-07-08T01:58:09Z" uid="74617" user="JohnSmith" changeset="5162525">
    <nd ref="268891179"/>
    <nd ref="268892374"/>
    <nd ref="598111202"/>
    <tag k="highway" v="residential"/>
    <tag k="maxspeed" v="50"/>
    <tag k="maxspeed:source" v="default residential speed limit in Australia"/>
    <tag k="name" v="Jocelyn Street"/>
    <tag k="source" v="nearmap"/>
  </way>
  <way id="24741824" version="6" timestamp="2012-01-16T14:35:09Z" uid="147510" user="woodpeck_fixbot" changeset="10408721">
    <nd ref="268891179"/>
    <nd ref="268892374"/>
    <nd ref="598111202"/>
    <tag k="highway" v="residential"/>
    <tag k="name" v="Jocelyn Street"/>
    <tag k="source" v="nearmap"/>
  </way>
  <way id="24741825" version="1" timestamp="2008-06-07T00:29:33Z" uid="30201" user="rrankin" changeset="79291">
    <nd ref="268891181"/>
    <nd ref="268891182"/>
    <nd ref="256174928"/>
    <tag k="highway" v="residential"/>
    <tag k="name" v="Chester Hill Road"/>
    <tag k="source" v="yahoo"/>
  </way>
  <way id="24741825" version="2" timestamp="2010-07-08T02:00:40Z" uid="74617" user="JohnSmith" changeset="5162525">
    <nd ref="268891181"/>
    <nd ref="268891182"/>
    <nd ref="256174928"/>
    <tag k="highway" v="residential"/>
    <tag k="maxspeed" v="50"/>
    <tag k="maxspeed:source" v="default residential speed limit in Australia"/>
    <tag k="name" v="Chester Hill Road"/>
    <tag k="source" v="yahoo"/>
  </way>
  <way id="24741825" version="3" timestamp="2012-01-16T14:35:10Z" uid="147510" user="woodpeck_fixbot" changeset="10408721">
    <nd ref="268891181"/>
    <nd ref="268891182"/>
    <nd ref="256174928"/>
    <tag k="highway" v="residential"/>
    <tag k="name" v="Chester Hill Road"/>
    <tag k="source" v="yahoo"/>
  </way>
  <way id="24741826" version="1" timestamp="2008-06-07T00:29:34Z" uid="30201" user="rrankin" changeset="79291">
    <nd ref="268891183"/>
    <nd ref="268891184"/>
    <nd ref="268891185"/>
    <tag k="highway" v="residential"/>
    <tag k="name" v="Bambridge Street"/>
    <tag k="source" v="yahoo"/>
  </way>
  <way id="24741826" version="2" timestamp="2009-12-21T23:58:25Z" uid="7617" user="Franc" changeset="3424105">
    <nd ref="268891183"/>
    <nd ref="268891184"/>
    <nd ref="268891185"/>
    <tag k="highway" v="residential"/>
    <tag k="name" v="Bambridge Street"/>
    <tag k="source" v="nearmap"/>
  </way>
  <way id="24741826" version="3" timestamp="2010-07-08T01:53:51Z" uid="74617" user="JohnSmith" changeset="5162525">
    <nd ref="268891183"/>
    <nd ref="268891184"/>
    <nd ref="268891185"/>
    <tag k="highway" v="residential"/>
    <tag k="maxspeed" v="50"/>
    <tag k="maxspeed:source" v="default residential speed limit in Australia"/>
    <tag k="name" v="Bambridge Street"/>
    <tag k="source" v="nearmap"/>
  </way>
  <way id="24741826" version="4" timestamp="2012-01-16T14:35:12Z" uid="147510" user="woodpeck_fixbot" changeset="10408721">
    <nd ref="268891183"/>
    <nd ref="268891184"/>
    <nd ref="268891185"/>
    <tag k="highway" v="residential"/>
    <tag k="name" v="Bambridge Street"/>
    <tag k="source" v="nearmap"/>
  </way>
  <way id="24741827" version="1" timestamp="2008-06-07T00:29:35Z" uid="30201" user="rrankin" changeset="79291">
    <nd ref="268891192"/>
    <nd ref="268891193"/>
    <tag k="highway" v="residential"/>
    <tag k="name" v="Downshire Parade"/>
    <tag k="source" v="yahoo"/>
  </way>
  <way id="24741827" version="2" timestamp="2009-12-21T23:58:25Z" uid="7617" user="Franc" changeset="3424105">
    <nd ref="268891192"/>
    <nd ref="268891193"/>
    <tag k="highway" v="residential"/>
    <tag k="name" v="Downshire Parade"/>
    <tag k="source" v="nearmap"/>
  </way>
  <way id="24741827" version="3" timestamp="2010-07-08T01:56:05Z" uid="74617" user="JohnSmith" changeset="5162525">
    <nd ref="268891192"/>
    <nd ref="268891193"/>
    <tag k="highway" v="residential"/>
    <tag k="maxspeed" v="50"/>
    <tag k="maxspeed:source" v="default residential speed limit in Australia"/>
    <tag k="name" v="Downshire Parade"/>
    <tag k="source" v="nearmap"/>
  </way>
  <way id="24741827" version="4" timestamp="2012-01-16T14:35:13Z" uid="147510" user="woodpeck_fixbot" changeset="10408721">
    <nd ref="268891192"/>
    <nd ref="268891193"/>
    <tag k="highway" v="residential"/>
    <tag k="name" v="Downshire Parade"/>
    <tag k="source" v="nearmap"/>
  </way>
  <way id="24741828" version="1" timestamp="2008-06-07T00:29:35Z" uid="30201" user="rrankin" changeset="79291">
    <nd ref="268891194"/>
    <nd ref="268891195"/>
    <tag k="highway" v="residential"/>
    <tag k="name" v="Joan Street"/>
    <tag k="source" v="yahoo"/>
  </way>
  <way id="24741828" version="2" timestamp="2009-12-22T08:15:56Z" uid="7617" user="Franc" changeset="3425286">
    <nd ref="268891194"/>
    <nd ref="268891195"/>
    <tag k="highway" v="residential"/>
    <tag k="name" v="Joan Street"/>
    <tag k="source" v="nearmap"/>
  </way>
  <way id="24741828" version="3" timestamp="2010-07-08T01:56:41Z" uid="74617" user="JohnSmith" changeset="5162525">
    <nd ref="268891194"/>
    <nd ref="268891195"/>
    <tag k="highway" v="residential"/>
    <tag k="maxspeed" v="50"/>
    <tag k="maxspeed:source" v="default residential speed limit in Australia"/>
    <tag k="name" v="Joan Street"/>
    <tag k="source" v="nearmap"/>
  </way>
  <way id="24741828" version="4" timestamp="2012-01-16T14:35:15Z" uid="147510" user="woodpeck_fixbot" changeset="10408721">
    <nd ref="268891194"/>
    <nd ref="268891195"/>
    <tag k="highway" v="residential"/>
    <tag k="name" v="Joan Street"/>
    <tag k="source" v="nearmap"/>
  </way>
  <way id="24741829" version="1" timestamp="2008-06-07T00:29:36Z" uid="30201" user="rrankin" changeset="79291">
    <nd ref="268891196"/>
    <nd ref="268891197"/>
    <nd ref="268891198"/>
    <nd ref="268891201"/>
    <tag k="highway" v="residential"/>
    <tag k="name" v="Morrison Avenue"/>
    <tag k="source" v="yahoo"/>
  </way>
  <way id="24741829" version="2" timestamp="2009-12-21T23:58:25Z" uid="7617" user="Franc" changeset="3424105">
    <nd ref="268891196"/>
    <nd ref="597929020"/>
    <nd ref="268891197"/>
    <nd ref="597929019"/>
    <nd ref="268891198"/>
    <nd ref="268891201"/>
    <tag k="highway" v="residential"/>
    <tag k="name" v="Morrison Avenue"/>
    <tag k="source" v="yahoo"/>
  </way>
  <way id="24741829" version="3" timestamp="2009-12-22T10:18:52Z" uid="7617" user="Franc" changeset="3425898">
    <nd ref="268891196"/>
    <nd ref="597929020"/>
    <nd ref="268891197"/>
    <nd ref="597929019"/>
    <nd ref="268891198"/>
    <nd ref="268891201"/>
    <tag k="highway" v="residential"/>
    <tag k="name" v="Morrison Avenue"/>
    <tag k="source" v="nearmap"/>
  </way>
  <way id="24741829" version="4" timestamp="2010-07-08T01:58:40Z" uid="74617" user="JohnSmith" changeset="5162525">
    <nd ref="268891196"/>
    <nd ref="597929020"/>
    <nd ref="268891197"/>
    <nd ref="597929019"/>
    <nd ref="268891198"/>
    <nd ref="268891201"/>
    <tag k="highway" v="residential"/>
    <tag k="maxspeed" v="50"/>
    <tag k="maxspeed:source" v="default residential speed limit in Australia"/>
    <tag k="name" v="Morrison Avenue"/>
    <tag k="source" v="nearmap"/>
  </way>
  <way id="24741829" version="5" timestamp="2012-01-16T14:35:17Z" uid="147510" user="woodpeck_fixbot" changeset="10408721">
    <nd ref="268891196"/>
    <nd ref="597929020"/>
    <nd ref="268891197"/>
    <nd ref="597929019"/>
    <nd ref="268891198"/>
    <nd ref="268891201"/>
    <tag k="highway" v="residential"/>
    <tag k="name" v="Morrison Avenue"/>
    <tag k="source" v="nearmap"/>
  </way>
  <way id="24741830" version="1" timestamp="2008-06-07T00:29:37Z" uid="30201" user="rrankin" changeset="79291">
    <nd ref="268891199"/>
    <nd ref="268891200"/>
    <nd ref="268891201"/>
    <nd ref="268891202"/>
    <nd ref="268891203"/>
    <nd ref="268891204"/>
    <nd ref="268891205"/>
    <nd ref="268891206"/>
    <nd ref="268891207"/>
    <nd ref="268891208"/>
    <nd ref="268891209"/>
    <nd ref="268891210"/>
    <nd ref="268891211"/>
    <nd ref="268891212"/>
    <nd ref="268891203"/>
    <tag k="highway" v="residential"/>
    <tag k="name" v="Morrison Avenue"/>
    <tag k="source" v="yahoo"/>
  </way>
  <way id="24741830" version="2" timestamp="2009-12-21T23:58:25Z" uid="7617" user="Franc" changeset="3424105">
    <nd ref="268891199"/>
    <nd ref="268891200"/>
    <nd ref="268891201"/>
    <nd ref="268891202"/>
    <nd ref="268891203"/>
    <nd ref="597929011"/>
    <nd ref="268891204"/>
    <nd ref="597929010"/>
    <nd ref="268891205"/>
    <nd ref="597929003"/>
    <nd ref="268891206"/>
    <nd ref="597928998"/>
    <nd ref="268891207"/>
    <nd ref="597928999"/>
    <nd ref="268891208"/>
    <nd ref="597928996"/>
    <nd ref="268891209"/>
    <nd ref="597928995"/>
    <nd ref="268891210"/>
    <nd ref="597929012"/>
    <nd ref="268891211"/>
    <nd ref="268891212"/>
    <nd ref="268891203"/>
    <tag k="highway" v="residential"/>
    <tag k="name" v="Morrison Avenue"/>
    <tag k="source" v="nearmap"/>
  </way>
  <way id="24741830" version="3" timestamp="2010-07-08T01:52:00Z" uid="74617" user="JohnSmith" changeset="5162525">
    <nd ref="268891199"/>
    <nd ref="268891200"/>
    <nd ref="268891201"/>
    <nd ref="268891202"/>
    <nd ref="268891203"/>
    <nd ref="597929011"/>
    <nd ref="268891204"/>
    <nd ref="597929010"/>
    <nd ref="268891205"/>
    <nd ref="597929003"/>
    <nd ref="268891206"/>
    <nd ref="597928998"/>
    <nd ref="268891207"/>
    <nd ref="597928999"/>
    <nd ref="268891208"/>
    <nd ref="597928996"/>
    <nd ref="268891209"/>
    <nd ref="597928995"/>
    <nd ref="268891210"/>
    <nd ref="597929012"/>
    <nd ref="268891211"/>
    <nd ref="268891212"/>
    <nd ref="268891203"/>
    <tag k="highway" v="residential"/>
    <tag k="maxspeed" v="50"/>
    <tag k="maxspeed:source" v="default residential speed limit in Australia"/>
    <tag k="name" v="Morrison Avenue"/>
    <tag k="source" v="nearmap"/>
  </way>
  <way id="24741830" version="4" timestamp="2012-01-16T14:35:19Z" uid="147510" user="woodpeck_fixbot" changeset="10408721">
    <nd ref="268891199"/>
    <nd ref="268891200"/>
    <nd ref="268891201"/>
    <nd ref="268891202"/>
    <nd ref="268891203"/>
    <nd ref="597929011"/>
    <nd ref="268891204"/>
    <nd ref="597929010"/>
    <nd ref="268891205"/>
    <nd ref="597929003"/>
    <nd ref="268891206"/>
    <nd ref="597928998"/>
    <nd ref="268891207"/>
    <nd ref="597928999"/>
    <nd ref="268891208"/>
    <nd ref="597928996"/>
    <nd ref="268891209"/>
    <nd ref="597928995"/>
    <nd ref="268891210"/>
    <nd ref="597929012"/>
    <nd ref="268891211"/>
    <nd ref="268891212"/>
    <nd ref="268891203"/>
    <tag k="highway" v="residential"/>
    <tag k="name" v="Morrison Avenue"/>
    <tag k="source" v="nearmap"/>
  </way>
  <way id="24741901" version="1" timestamp="2008-06-07T00:48:49Z" uid="30201" user="rrankin" changeset="79291">
    <nd ref="256174929"/>
    <nd ref="268891752"/>
    <nd ref="268891742"/>
    <tag k="highway" v="residential"/>
    <tag k="name" v="Nyora Street"/>
    <tag k="source" v="yahoo"/>
  </way>
  <way id="24741901" version="2" timestamp="2009-12-22T08:15:56Z" uid="7617" user="Franc" changeset="3425286">
    <nd ref="256174929"/>
    <nd ref="268891752"/>
    <nd ref="268891742"/>
    <tag k="highway" v="residential"/>
    <tag k="name" v="Nyora Street"/>
    <tag k="source" v="nearmap"/>
  </way>
  <way id="24741901" version="3" timestamp="2010-07-08T01:52:21Z" uid="74617" user="JohnSmith" changeset="5162525">
    <nd ref="256174929"/>
    <nd ref="268891752"/>
    <nd ref="268891742"/>
    <tag k="highway" v="residential"/>
    <tag k="maxspeed" v="50"/>
    <tag k="maxspeed:source" v="default residential speed limit in Australia"/>
    <tag k="name" v="Nyora Street"/>
    <tag k="source" v="nearmap"/>
  </way>
  <way id="24741901" version="4" timestamp="2012-01-16T14:35:21Z" uid="147510" user="woodpeck_fixbot" changeset="10408721">
    <nd ref="256174929"/>
    <nd ref="268891752"/>
    <nd ref="268891742"/>
    <tag k="highway" v="residential"/>
    <tag k="name" v="Nyora Street"/>
    <tag k="source" v="nearmap"/>
  </way>
  <way id="24741902" version="1" timestamp="2008-06-07T00:48:50Z" uid="30201" user="rrankin" changeset="79291">
    <nd ref="268891743"/>
    <nd ref="268891744"/>
    <nd ref="268891749"/>
    <nd ref="268891751"/>
    <nd ref="268891750"/>
    <tag k="highway" v="residential"/>
    <tag k="name" v="Carnegie Road"/>
    <tag k="source" v="yahoo"/>
  </way>
  <way id="24741902" version="2" timestamp="2009-12-22T08:15:57Z" uid="7617" user="Franc" changeset="3425286">
    <nd ref="268891743"/>
    <nd ref="268891744"/>
    <nd ref="268891749"/>
    <nd ref="268891751"/>
    <nd ref="268891750"/>
    <tag k="highway" v="residential"/>
    <tag k="name" v="Carnegie Road"/>
    <tag k="source" v="nearmap"/>
  </way>
  <way id="24741902" version="3" timestamp="2010-07-08T01:56:22Z" uid="74617" user="JohnSmith" changeset="5162525">
    <nd ref="268891743"/>
    <nd ref="268891744"/>
    <nd ref="268891749"/>
    <nd ref="268891751"/>
    <nd ref="268891750"/>
    <tag k="highway" v="residential"/>
    <tag k="maxspeed" v="50"/>
    <tag k="maxspeed:source" v="default residential speed limit in Australia"/>
    <tag k="name" v="Carnegie Road"/>
    <tag k="source" v="nearmap"/>
  </way>
  <way id="24741902" version="4" timestamp="2012-01-16T14:35:22Z" uid="147510" user="woodpeck_fixbot" changeset="10408721">
    <nd ref="268891743"/>
    <nd ref="268891744"/>
    <nd ref="268891749"/>
    <nd ref="268891751"/>
    <nd ref="268891750"/>
    <tag k="highway" v="residential"/>
    <tag k="name" v="Carnegie Road"/>
    <tag k="source" v="nearmap"/>
  </way>
  <way id="24741903" version="1" timestamp="2008-06-07T00:48:50Z" uid="30201" user="rrankin" changeset="79291">
    <nd ref="268891751"/>
    <nd ref="268891752"/>
    <tag k="highway" v="service"/>
    <tag k="source" v="yahoo"/>
  </way>
  <way id="24741903" version="2" timestamp="2009-12-22T08:15:57Z" uid="7617" user="Franc" changeset="3425286">
    <nd ref="268891751"/>
    <nd ref="268891752"/>
    <tag k="highway" v="service"/>
    <tag k="source" v="nearmap"/>
  </way>
  <way id="24741942" version="4" timestamp="2010-07-09T05:06:46Z" uid="74617" user="JohnSmith" changeset="5170986">
    <nd ref="267226735"/>
    <nd ref="298068815"/>
    <nd ref="298069005"/>
    <tag k="highway" v="residential"/>
    <tag k="maxspeed" v="50"/>
    <tag k="maxspeed:source" v="default residential speed limit in Australia"/>
    <tag k="name" v="Ernest Street"/>
  </way>
  <way id="24741942" version="5" timestamp="2012-01-16T14:35:23Z" uid="147510" user="woodpeck_fixbot" changeset="10408721">
    <nd ref="267226735"/>
    <nd ref="298068815"/>
    <nd ref="298069005"/>
    <tag k="highway" v="residential"/>
    <tag k="name" v="Ernest Street"/>
  </way>
  <way id="24741945" version="5" timestamp="2010-07-08T19:43:41Z" uid="74617" user="JohnSmith" changeset="5168688">
    <nd ref="268892076"/>
    <nd ref="298068827"/>
    <nd ref="298068983"/>
    <tag k="highway" v="residential"/>
    <tag k="maxspeed" v="50"/>
    <tag k="maxspeed:source" v="default residential speed limit in Australia"/>
    <tag k="name" v="Peck Street"/>
  </way>
  <way id="24741945" version="6" timestamp="2012-01-16T14:35:26Z" uid="147510" user="woodpeck_fixbot" changeset="10408721">
    <nd ref="268892076"/>
    <nd ref="298068827"/>
    <nd ref="298068983"/>
    <tag k="highway" v="residential"/>
    <tag k="name" v="Peck Street"/>
  </way>
  <way id="24741960" version="2" timestamp="2009-06-25T07:36:53Z" uid="74617" user="JohnSmith" changeset="1619106">
    <nd ref="268892120"/>
    <nd ref="268892121"/>
    <nd ref="268892122"/>
    <nd ref="268892123"/>
    <nd ref="268892124"/>
    <nd ref="268892125"/>
    <nd ref="268892245"/>
    <nd ref="268892126"/>
    <nd ref="268892127"/>
    <nd ref="268892128"/>
    <nd ref="268892225"/>
    <nd ref="268892129"/>
    <nd ref="268892130"/>
    <nd ref="268892131"/>
    <nd ref="268892198"/>
    <nd ref="268892132"/>
    <nd ref="268892161"/>
    <nd ref="268892133"/>
    <nd ref="268892134"/>
    <nd ref="268892135"/>
    <nd ref="268892136"/>
    <nd ref="268892137"/>
    <nd ref="268892138"/>
    <nd ref="268892156"/>
    <nd ref="268892157"/>
    <nd ref="429166179"/>
    <nd ref="268892179"/>
    <nd ref="268892158"/>
    <nd ref="268892159"/>
    <nd ref="429166182"/>
    <nd ref="268892160"/>
    <nd ref="429166164"/>
    <tag k="highway" v="residential"/>
    <tag k="name" v="Fairway Drive"/>
    <tag k="source" v="survey"/>
  </way>
  <way id="24741960" version="3" timestamp="2009-08-12T04:01:39Z" uid="74617" user="JohnSmith" changeset="2114476">
    <nd ref="268892120"/>
    <nd ref="268892121"/>
    <nd ref="268892122"/>
    <nd ref="268892123"/>
    <nd ref="268892124"/>
    <nd ref="268892125"/>
    <nd ref="268892245"/>
    <nd ref="268892126"/>
    <nd ref="268892127"/>
    <nd ref="268892128"/>
    <nd ref="268892225"/>
    <nd ref="268892129"/>
    <nd ref="268892130"/>
    <nd ref="268892131"/>
    <nd ref="268892198"/>
    <nd ref="268892132"/>
    <nd ref="268892161"/>
    <nd ref="268892133"/>
    <nd ref="268892134"/>
    <nd ref="268892135"/>
    <nd ref="268892136"/>
    <nd ref="268892137"/>
    <nd ref="268892138"/>
    <nd ref="268892156"/>
    <nd ref="268892157"/>
    <nd ref="429166179"/>
    <nd ref="268892179"/>
    <nd ref="268892158"/>
    <nd ref="268892159"/>
    <nd ref="429166182"/>
    <nd ref="268892160"/>
    <nd ref="429166164"/>
    <tag k="highway" v="residential"/>
    <tag k="maxspeed" v="50"/>
    <tag k="name" v="Fairway Drive"/>
    <tag k="source" v="survey"/>
  </way>
  <way id="24741960" version="4" timestamp="2009-09-01T02:57:28Z" uid="74617" user="JohnSmith" changeset="2332907">
    <nd ref="268892120"/>
    <nd ref="479699872"/>
    <nd ref="268892121"/>
    <nd ref="268892122"/>
    <nd ref="268892123"/>
    <nd ref="268892124"/>
    <nd ref="268892125"/>
    <nd ref="268892245"/>
    <nd ref="268892126"/>
    <nd ref="268892127"/>
    <nd ref="268892128"/>
    <nd ref="268892225"/>
    <nd ref="268892129"/>
    <nd ref="268892130"/>
    <nd ref="268892131"/>
    <nd ref="268892198"/>
    <nd ref="268892132"/>
    <nd ref="268892161"/>
    <nd ref="268892133"/>
    <nd ref="268892134"/>
    <nd ref="268892135"/>
    <nd ref="268892136"/>
    <nd ref="268892137"/>
    <nd ref="268892138"/>
    <nd ref="268892156"/>
    <nd ref="268892157"/>
    <nd ref="429166179"/>
    <nd ref="268892179"/>
    <nd ref="268892158"/>
    <nd ref="268892159"/>
    <nd ref="429166182"/>
    <nd ref="268892160"/>
    <nd ref="429166164"/>
    <tag k="highway" v="residential"/>
    <tag k="maxspeed" v="50"/>
    <tag k="name" v="Fairway Drive"/>
    <tag k="source" v="survey"/>
  </way>
  <way id="24741960" version="5" timestamp="2012-01-16T14:35:27Z" uid="147510" user="woodpeck_fixbot" changeset="10408721">
    <nd ref="268892120"/>
    <nd ref="479699872"/>
    <nd ref="268892121"/>
    <nd ref="268892122"/>
    <nd ref="268892123"/>
    <nd ref="268892124"/>
    <nd ref="268892125"/>
    <nd ref="268892245"/>
    <nd ref="268892126"/>
    <nd ref="268892127"/>
    <nd ref="268892128"/>
    <nd ref="268892225"/>
    <nd ref="268892129"/>
    <nd ref="268892130"/>
    <nd ref="268892131"/>
    <nd ref="268892198"/>
    <nd ref="268892132"/>
    <nd ref="268892161"/>
    <nd ref="268892133"/>
    <nd ref="268892134"/>
    <nd ref="268892135"/>
    <nd ref="268892136"/>
    <nd ref="268892137"/>
    <nd ref="268892138"/>
    <nd ref="268892156"/>
    <nd ref="268892157"/>
    <nd ref="429166179"/>
    <nd ref="268892179"/>
    <nd ref="268892158"/>
    <nd ref="268892159"/>
    <nd ref="429166182"/>
    <nd ref="268892160"/>
    <nd ref="429166164"/>
    <tag k="highway" v="residential"/>
    <tag k="name" v="Fairway Drive"/>
    <tag k="source" v="survey"/>
  </way>
  <way id="24741961" version="2" timestamp="2009-06-25T07:36:53Z" uid="74617" user="JohnSmith" changeset="1619106">
    <nd ref="268892161"/>
    <nd ref="268892164"/>
    <nd ref="429166175"/>
    <nd ref="429166176"/>
    <nd ref="429166177"/>
    <nd ref="429166178"/>
    <tag k="highway" v="residential"/>
    <tag k="name" v="Eagleview Close"/>
    <tag k="source" v="survey"/>
  </way>
  <way id="24741961" version="3" timestamp="2009-08-12T04:01:25Z" uid="74617" user="JohnSmith" changeset="2114476">
    <nd ref="268892161"/>
    <nd ref="268892164"/>
    <nd ref="429166175"/>
    <nd ref="429166176"/>
    <nd ref="429166177"/>
    <nd ref="429166178"/>
    <tag k="highway" v="residential"/>
    <tag k="maxspeed" v="50"/>
    <tag k="name" v="Eagleview Close"/>
    <tag k="source" v="survey"/>
  </way>
  <way id="24741961" version="4" timestamp="2012-01-16T14:35:30Z" uid="147510" user="woodpeck_fixbot" changeset="10408721">
    <nd ref="268892161"/>
    <nd ref="268892164"/>
    <nd ref="429166175"/>
    <nd ref="429166176"/>
    <nd ref="429166177"/>
    <nd ref="429166178"/>
    <tag k="highway" v="residential"/>
    <tag k="name" v="Eagleview Close"/>
    <tag k="source" v="survey"/>
  </way>
  <way id="24741962" version="2" timestamp="2009-06-25T07:36:54Z" uid="74617" user="JohnSmith" changeset="1619106">
    <nd ref="268892137"/>
    <nd ref="268892173"/>
    <tag k="highway" v="residential"/>
    <tag k="name" v="Outlook Close"/>
    <tag k="source" v="survey"/>
  </way>
  <way id="24741962" version="3" timestamp="2009-08-12T04:02:11Z" uid="74617" user="JohnSmith" changeset="2114476">
    <nd ref="268892137"/>
    <nd ref="268892173"/>
    <tag k="highway" v="residential"/>
    <tag k="maxspeed" v="50"/>
    <tag k="name" v="Outlook Close"/>
    <tag k="source" v="survey"/>
  </way>
  <way id="24741962" version="4" timestamp="2012-01-16T14:35:32Z" uid="147510" user="woodpeck_fixbot" changeset="10408721">
    <nd ref="268892137"/>
    <nd ref="268892173"/>
    <tag k="highway" v="residential"/>
    <tag k="name" v="Outlook Close"/>
    <tag k="source" v="survey"/>
  </way>
  <way id="24741963" version="2" timestamp="2009-06-25T07:36:54Z" uid="74617" user="JohnSmith" changeset="1619106">
    <nd ref="268892179"/>
    <nd ref="268892180"/>
    <nd ref="429166180"/>
    <nd ref="268892181"/>
    <nd ref="429166181"/>
    <nd ref="268892182"/>
    <nd ref="268892184"/>
    <tag k="highway" v="residential"/>
    <tag k="name" v="Maidment Court"/>
    <tag k="source" v="survey"/>
  </way>
  <way id="24741963" version="3" timestamp="2009-08-12T04:01:57Z" uid="74617" user="JohnSmith" changeset="2114476">
    <nd ref="268892179"/>
    <nd ref="268892180"/>
    <nd ref="429166180"/>
    <nd ref="268892181"/>
    <nd ref="429166181"/>
    <nd ref="268892182"/>
    <nd ref="268892184"/>
    <tag k="highway" v="residential"/>
    <tag k="maxspeed" v="50"/>
    <tag k="name" v="Maidment Court"/>
    <tag k="source" v="survey"/>
  </way>
  <way id="24741963" version="4" timestamp="2012-01-16T14:35:34Z" uid="147510" user="woodpeck_fixbot" changeset="10408721">
    <nd ref="268892179"/>
    <nd ref="268892180"/>
    <nd ref="429166180"/>
    <nd ref="268892181"/>
    <nd ref="429166181"/>
    <nd ref="268892182"/>
    <nd ref="268892184"/>
    <tag k="highway" v="residential"/>
    <tag k="name" v="Maidment Court"/>
    <tag k="source" v="survey"/>
  </way>
  <way id="24741964" version="2" timestamp="2009-06-25T07:36:53Z" uid="74617" user="JohnSmith" changeset="1619106">
    <nd ref="268892198"/>
    <nd ref="268892211"/>
    <tag k="highway" v="residential"/>
    <tag k="name" v="Teal Close"/>
    <tag k="source" v="survey"/>
  </way>
  <way id="24741964" version="3" timestamp="2009-08-12T04:02:14Z" uid="74617" user="JohnSmith" changeset="2114476">
    <nd ref="268892198"/>
    <nd ref="268892211"/>
    <tag k="highway" v="residential"/>
    <tag k="maxspeed" v="50"/>
    <tag k="name" v="Teal Close"/>
    <tag k="source" v="survey"/>
  </way>
  <way id="24741964" version="4" timestamp="2012-01-16T14:35:35Z" uid="147510" user="woodpeck_fixbot" changeset="10408721">
    <nd ref="268892198"/>
    <nd ref="268892211"/>
    <tag k="highway" v="residential"/>
    <tag k="name" v="Teal Close"/>
    <tag k="source" v="survey"/>
  </way>
  <way id="24741966" version="2" timestamp="2009-06-25T07:36:53Z" uid="74617" user="JohnSmith" changeset="1619106">
    <nd ref="268892225"/>
    <nd ref="268892238"/>
    <tag k="highway" v="residential"/>
    <tag k="name" v="Settlers Close"/>
    <tag k="source" v="survey"/>
  </way>
  <way id="24741966" version="3" timestamp="2009-08-12T04:02:48Z" uid="74617" user="JohnSmith" changeset="2114476">
    <nd ref="268892225"/>
    <nd ref="268892238"/>
    <tag k="highway" v="residential"/>
    <tag k="maxspeed" v="50"/>
    <tag k="name" v="Settlers Close"/>
    <tag k="source" v="survey"/>
  </way>
  <way id="24741966" version="4" timestamp="2012-01-16T14:35:37Z" uid="147510" user="woodpeck_fixbot" changeset="10408721">
    <nd ref="268892225"/>
    <nd ref="268892238"/>
    <tag k="highway" v="residential"/>
    <tag k="name" v="Settlers Close"/>
    <tag k="source" v="survey"/>
  </way>
  <way id="24741969" version="2" timestamp="2009-06-25T07:36:55Z" uid="74617" user="JohnSmith" changeset="1619106">
    <nd ref="268892245"/>
    <nd ref="268892281"/>
    <nd ref="268892251"/>
    <tag k="highway" v="residential"/>
    <tag k="name" v="Rosella Close"/>
    <tag k="source" v="survey"/>
  </way>
  <way id="24741969" version="3" timestamp="2009-08-12T04:02:54Z" uid="74617" user="JohnSmith" changeset="2114476">
    <nd ref="268892245"/>
    <nd ref="268892281"/>
    <nd ref="268892251"/>
    <tag k="highway" v="residential"/>
    <tag k="maxspeed" v="50"/>
    <tag k="name" v="Rosella Close"/>
    <tag k="source" v="survey"/>
  </way>
  <way id="24741969" version="4" timestamp="2012-01-16T14:35:37Z" uid="147510" user="woodpeck_fixbot" changeset="10408721">
    <nd ref="268892245"/>
    <nd ref="268892281"/>
    <nd ref="268892251"/>
    <tag k="highway" v="residential"/>
    <tag k="name" v="Rosella Close"/>
    <tag k="source" v="survey"/>
  </way>
  <way id="24741998" version="3" timestamp="2008-10-15T09:50:00Z" uid="49111" user="Markus B" changeset="358875">
    <nd ref="268892348"/>
    <nd ref="268892349"/>
    <nd ref="268892351"/>
    <nd ref="268892352"/>
    <nd ref="268892353"/>
    <nd ref="268892354"/>
    <nd ref="268892355"/>
    <nd ref="268892356"/>
    <nd ref="268892357"/>
    <nd ref="268892358"/>
    <nd ref="268892359"/>
    <nd ref="268892360"/>
    <nd ref="268892361"/>
    <nd ref="268892362"/>
    <nd ref="268892348"/>
    <tag k="created_by" v="Potlatch 0.10e"/>
    <tag k="landuse" v="forest"/>
    <tag k="source" v="extrapolation"/>
  </way>
  <way id="24741998" version="4" timestamp="2008-11-02T17:57:52Z" uid="62236" user="Paulchen Panther" changeset="656944">
    <nd ref="268892348"/>
    <nd ref="268892349"/>
    <nd ref="268892351"/>
    <nd ref="309453442"/>
    <nd ref="268892352"/>
    <nd ref="268892353"/>
    <nd ref="268892354"/>
    <nd ref="268892355"/>
    <nd ref="268892356"/>
    <nd ref="268892357"/>
    <nd ref="268892358"/>
    <nd ref="268892359"/>
    <nd ref="268892360"/>
    <nd ref="268892361"/>
    <nd ref="268892362"/>
    <nd ref="268892348"/>
    <tag k="created_by" v="Potlatch 0.10f"/>
    <tag k="landuse" v="forest"/>
    <tag k="source" v="extrapolation"/>
  </way>
  <way id="24741998" version="5" timestamp="2010-06-06T09:35:34Z" uid="118011" user="TheoryBug" changeset="4915815">
    <nd ref="309453438"/>
    <nd ref="309453439"/>
    <nd ref="268892349"/>
    <nd ref="268892351"/>
    <nd ref="309453442"/>
    <nd ref="268892352"/>
    <nd ref="268892353"/>
    <nd ref="268892354"/>
    <nd ref="268892355"/>
    <nd ref="268892356"/>
    <nd ref="268892357"/>
    <nd ref="268892358"/>
    <nd ref="268892359"/>
    <nd ref="268892360"/>
    <nd ref="268892361"/>
    <nd ref="268892362"/>
    <nd ref="309453438"/>
    <tag k="landuse" v="forest"/>
    <tag k="source" v="extrapolation"/>
  </way>
</osm>
