<?xml version='1.0' encoding='UTF-8'?>
<osm version="0.6" generator="libosmium/2.20.0">
  <way id="24882068" version="1" timestamp="2008-06-14T21:15:00Z" uid="34428" user="usm78-gis" changeset="162761">
    <nd ref="269982987"/>
    <nd ref="270373857"/>
    <tag k="created_by" v="Potlatch 0.9c"/>
    <tag k="highway" v="residential"/>
  </way>
  <way id="24882068" version="2" timestamp="2011-08-03T14:41:15Z" uid="100812" user="Zkir" changeset="8910760">
    <nd ref="269982987"/>
    <nd ref="270373857"/>
    <tag k="highway" v="track"/>
  </way>
  <way id="24882151" version="1" timestamp="2008-06-14T21:19:24Z" uid="20587" user="balrog-kun" changeset="161269">
    <nd ref="255080040"/>
    <nd ref="255080046"/>
    <nd ref="255080041"/>
    <tag k="created_by" v="JOSM"/>
    <tag k="foot" v="permissive"/>
    <tag k="highway" v="service"/>
  </way>
  <way id="24882151" version="2" timestamp="2009-01-13T11:03:04Z" uid="20587" user="balrog-kun" changeset="781705">
    <nd ref="255080040"/>
    <nd ref="255080046"/>
    <nd ref="255080041"/>
    <tag k="created_by" v="JOSM"/>
    <tag k="foot" v="permissive"/>
    <tag k="highway" v="service"/>
    <tag k="watch:balrog-kun" v="yes"/>
  </way>
  <way id="24882151" version="3" timestamp="2009-07-29T16:35:32Z" uid="98542" user="wajak" changeset="1977270">
    <nd ref="255080040"/>
    <nd ref="255080046"/>
    <nd ref="255080041"/>
    <tag k="access" v="private"/>
    <tag k="foot" v="permissive"/>
    <tag k="highway" v="service"/>
    <tag k="watch:balrog-kun" v="yes"/>
  </way>
  <way id="24882151" version="4" timestamp="2010-04-26T01:19:57Z" uid="20587" user="balrog-kun" changeset="4527911">
    <nd ref="255080040"/>
    <nd ref="255080046"/>
    <nd ref="255080041"/>
    <tag k="access" v="private"/>
    <tag k="foot" v="permissive"/>
    <tag k="highway" v="service"/>
    <tag k="maxspeed" v="20"/>
    <tag k="watch:balrog-kun" v="yes"/>
  </way>
  <way id="24882151" version="5" timestamp="2011-09-23T21:32:29Z" uid="475943" user="sir-mapalot" changeset="9380273">
    <nd ref="255080040"/>
    <nd ref="255080046"/>
    <nd ref="1443527763"/>
    <nd ref="255080041"/>
    <tag k="access" v="private"/>
    <tag k="foot" v="permissive"/>
    <tag k="highway" v="service"/>
    <tag k="maxspeed" v="20"/>
    <tag k="watch:balrog-kun" v="yes"/>
  </way>
  <way id="24882152" version="1" timestamp="2008-06-14T21:19:24Z" uid="20587" user="balrog-kun" changeset="161269">
    <nd ref="270374276"/>
    <nd ref="270374278"/>
    <tag k="created_by" v="JOSM"/>
    <tag k="highway" v="service"/>
  </way>
  <way id="24882152" version="2" timestamp="2009-01-13T11:03:04Z" uid="20587" user="balrog-kun" changeset="781705">
    <nd ref="270374276"/>
    <nd ref="270374278"/>
    <tag k="created_by" v="JOSM"/>
    <tag k="highway" v="service"/>
    <tag k="watch:balrog-kun" v="yes"/>
  </way>
  <way id="24882153" version="1" timestamp="2008-06-14T21:19:24Z" uid="20587" user="balrog-kun" changeset="161269">
    <nd ref="270374280"/>
    <nd ref="270374283"/>
    <nd ref="270374285"/>
    <nd ref="270374287"/>
    <nd ref="270374290"/>
    <nd ref="270374292"/>
    <nd ref="270374294"/>
    <nd ref="270374295"/>
    <nd ref="270374280"/>
    <tag k="building" v="hall"/>
    <tag k="created_by" v="JOSM"/>
    <tag k="name" v="Wydział Chemii UW"/>
    <tag k="ref" v="Żwirki i Wigury 101"/>
  </way>
  <way id="24882153" version="2" timestamp="2008-07-31T14:21:38Z" uid="20587" user="balrog-kun" changeset="633394">
    <nd ref="270374280"/>
    <nd ref="270374283"/>
    <nd ref="270374285"/>
    <nd ref="270374287"/>
    <nd ref="270374290"/>
    <nd ref="270374292"/>
    <nd ref="270374294"/>
    <nd ref="270374295"/>
    <nd ref="270374280"/>
    <tag k="addr:housenumber" v="101"/>
    <tag k="addr:street" v="Żwirki i Wigury"/>
    <tag k="building" v="hall"/>
    <tag k="created_by" v="JOSM"/>
    <tag k="name" v="Wydział Chemii UW"/>
  </way>
  <way id="24882153" version="3" timestamp="2008-10-07T17:06:14Z" uid="20587" user="balrog-kun" changeset="135180">
    <nd ref="270374280"/>
    <nd ref="270374283"/>
    <nd ref="270374285"/>
    <nd ref="270374287"/>
    <nd ref="270374290"/>
    <nd ref="270374292"/>
    <nd ref="270374294"/>
    <nd ref="270374295"/>
    <nd ref="270374280"/>
    <tag k="addr:street" v="Żwirki i Wigury"/>
    <tag k="building" v="hall"/>
    <tag k="created_by" v="JOSM"/>
    <tag k="name" v="Wydział Chemii UW"/>
  </way>
  <way id="24882153" version="4" timestamp="2008-10-07T18:06:18Z" uid="20587" user="balrog-kun" changeset="135180">
    <nd ref="270374280"/>
    <nd ref="270374283"/>
    <nd ref="270374285"/>
    <nd ref="270374287"/>
    <nd ref="270374290"/>
    <nd ref="270374292"/>
    <nd ref="270374294"/>
    <nd ref="270374295"/>
    <nd ref="270374280"/>
    <tag k="addr:housenumber" v="101"/>
    <tag k="addr:street" v="Żwirki i Wigury"/>
    <tag k="building" v="hall"/>
    <tag k="created_by" v="JOSM"/>
    <tag k="name" v="Wydział Chemii UW"/>
  </way>
  <way id="24882153" version="5" timestamp="2010-03-31T14:21:24Z" uid="175746" user="RafalR" changeset="4285724">
    <nd ref="270374280"/>
    <nd ref="270374283"/>
    <nd ref="270374285"/>
    <nd ref="270374287"/>
    <nd ref="270374290"/>
    <nd ref="270374292"/>
    <nd ref="270374294"/>
    <nd ref="270374295"/>
    <nd ref="270374280"/>
    <tag k="addr:housenumber" v="101"/>
    <tag k="addr:street" v="Franciszka Żwirki i Stanisława Wigury"/>
    <tag k="building" v="hall"/>
    <tag k="name" v="Wydział Chemii UW"/>
  </way>
  <way id="24882154" version="1" timestamp="2008-06-14T21:19:24Z" uid="20587" user="balrog-kun" changeset="161269">
    <nd ref="270374296"/>
    <nd ref="270374297"/>
    <nd ref="270374298"/>
    <nd ref="270374299"/>
    <nd ref="270374296"/>
    <tag k="building" v="hall"/>
    <tag k="created_by" v="JOSM"/>
    <tag k="name" v="Wydział Geologii UW"/>
    <tag k="ref" v="Żwirki i Wigury 93"/>
  </way>
  <way id="24882154" version="2" timestamp="2008-07-31T14:21:38Z" uid="20587" user="balrog-kun" changeset="633394">
    <nd ref="270374296"/>
    <nd ref="270374297"/>
    <nd ref="270374298"/>
    <nd ref="270374299"/>
    <nd ref="270374296"/>
    <tag k="addr:housenumber" v="93"/>
    <tag k="addr:street" v="Żwirki i Wigury"/>
    <tag k="building" v="hall"/>
    <tag k="created_by" v="JOSM"/>
    <tag k="name" v="Wydział Geologii UW"/>
  </way>
  <way id="24882154" version="3" timestamp="2008-10-07T17:06:16Z" uid="20587" user="balrog-kun" changeset="135180">
    <nd ref="270374296"/>
    <nd ref="270374297"/>
    <nd ref="270374298"/>
    <nd ref="270374299"/>
    <nd ref="270374296"/>
    <tag k="addr:street" v="Żwirki i Wigury"/>
    <tag k="building" v="hall"/>
    <tag k="created_by" v="JOSM"/>
    <tag k="name" v="Wydział Geologii UW"/>
  </way>
  <way id="24882154" version="4" timestamp="2008-10-07T18:06:20Z" uid="20587" user="balrog-kun" changeset="135180">
    <nd ref="270374296"/>
    <nd ref="270374297"/>
    <nd ref="270374298"/>
    <nd ref="270374299"/>
    <nd ref="270374296"/>
    <tag k="addr:housenumber" v="93"/>
    <tag k="addr:street" v="Żwirki i Wigury"/>
    <tag k="building" v="hall"/>
    <tag k="created_by" v="JOSM"/>
    <tag k="name" v="Wydział Geologii UW"/>
  </way>
  <way id="24882154" version="5" timestamp="2009-11-11T01:59:11Z" uid="20587" user="balrog-kun" changeset="3087092">
    <nd ref="270374296"/>
    <nd ref="270374297"/>
    <nd ref="270374298"/>
    <nd ref="270374299"/>
    <nd ref="270374296"/>
    <tag k="addr:housenumber" v="93"/>
    <tag k="addr:street" v="Żwirki i Wigury"/>
    <tag k="building" v="hall"/>
    <tag k="building:levels" v="4"/>
    <tag k="name" v="Wydział Geologii UW"/>
  </way>
  <way id="24882154" version="6" timestamp="2010-01-22T14:32:26Z" uid="20587" user="balrog-kun" changeset="3683630">
    <nd ref="270374296"/>
    <nd ref="270374297"/>
    <nd ref="270374298"/>
    <nd ref="618122640"/>
    <nd ref="270374299"/>
    <nd ref="270374296"/>
    <tag k="addr:housenumber" v="93"/>
    <tag k="addr:street" v="Żwirki i Wigury"/>
    <tag k="building" v="hall"/>
    <tag k="building:levels" v="4"/>
    <tag k="name" v="Wydział Geologii UW"/>
  </way>
  <way id="24882154" version="7" timestamp="2010-03-31T14:21:23Z" uid="175746" user="RafalR" changeset="4285724">
    <nd ref="270374296"/>
    <nd ref="270374297"/>
    <nd ref="270374298"/>
    <nd ref="618122640"/>
    <nd ref="270374299"/>
    <nd ref="270374296"/>
    <tag k="addr:housenumber" v="93"/>
    <tag k="addr:street" v="Franciszka Żwirki i Stanisława Wigury"/>
    <tag k="building" v="hall"/>
    <tag k="building:levels" v="4"/>
    <tag k="name" v="Wydział Geologii UW"/>
  </way>
  <way id="24882155" version="1" timestamp="2008-06-14T21:19:25Z" uid="20587" user="balrog-kun" changeset="161269">
    <nd ref="270374300"/>
    <nd ref="270374301"/>
    <nd ref="270374302"/>
    <nd ref="270374303"/>
    <nd ref="270374300"/>
    <tag k="building" v="hall"/>
    <tag k="created_by" v="JOSM"/>
    <tag k="name" v="Studium Wychowania Fizycznego i Sportu UW"/>
    <tag k="ref" v="Żwirki i Wigury 97/99"/>
  </way>
  <way id="24882155" version="2" timestamp="2008-07-31T14:21:38Z" uid="20587" user="balrog-kun" changeset="633394">
    <nd ref="270374300"/>
    <nd ref="270374301"/>
    <nd ref="270374302"/>
    <nd ref="270374303"/>
    <nd ref="270374300"/>
    <tag k="addr:housenumber" v="97/99"/>
    <tag k="addr:street" v="Żwirki i Wigury"/>
    <tag k="building" v="hall"/>
    <tag k="created_by" v="JOSM"/>
    <tag k="name" v="Studium Wychowania Fizycznego i Sportu UW"/>
  </way>
  <way id="24882155" version="3" timestamp="2008-10-07T17:06:15Z" uid="20587" user="balrog-kun" changeset="135180">
    <nd ref="270374300"/>
    <nd ref="270374301"/>
    <nd ref="270374302"/>
    <nd ref="270374303"/>
    <nd ref="270374300"/>
    <tag k="addr:street" v="Żwirki i Wigury"/>
    <tag k="building" v="hall"/>
    <tag k="created_by" v="JOSM"/>
    <tag k="name" v="Studium Wychowania Fizycznego i Sportu UW"/>
  </way>
  <way id="24882155" version="4" timestamp="2008-10-07T18:06:19Z" uid="20587" user="balrog-kun" changeset="135180">
    <nd ref="270374300"/>
    <nd ref="270374301"/>
    <nd ref="270374302"/>
    <nd ref="270374303"/>
    <nd ref="270374300"/>
    <tag k="addr:housenumber" v="97/99"/>
    <tag k="addr:street" v="Żwirki i Wigury"/>
    <tag k="building" v="hall"/>
    <tag k="created_by" v="JOSM"/>
    <tag k="name" v="Studium Wychowania Fizycznego i Sportu UW"/>
  </way>
  <way id="24882155" version="5" timestamp="2009-12-02T19:47:17Z" uid="20587" user="balrog-kun" changeset="3274837">
    <nd ref="270374300"/>
    <nd ref="270374301"/>
    <nd ref="578176459"/>
    <nd ref="578176484"/>
    <nd ref="270374300"/>
    <tag k="addr:housenumber" v="97/99"/>
    <tag k="addr:street" v="Żwirki i Wigury"/>
    <tag k="building" v="hall"/>
    <tag k="building:levels" v="1"/>
    <tag k="name" v="Studium Wychowania Fizycznego i Sportu UW"/>
  </way>
  <way id="24882155" version="6" timestamp="2010-03-31T14:21:22Z" uid="175746" user="RafalR" changeset="4285724">
    <nd ref="270374300"/>
    <nd ref="270374301"/>
    <nd ref="578176459"/>
    <nd ref="578176484"/>
    <nd ref="270374300"/>
    <tag k="addr:housenumber" v="97/99"/>
    <tag k="addr:street" v="Franciszka Żwirki i Stanisława Wigury"/>
    <tag k="building" v="hall"/>
    <tag k="building:levels" v="1"/>
    <tag k="name" v="Studium Wychowania Fizycznego i Sportu UW"/>
  </way>
  <way id="24882156" version="1" timestamp="2008-06-14T21:19:25Z" uid="20587" user="balrog-kun" changeset="161269">
    <nd ref="270374304"/>
    <nd ref="270374305"/>
    <nd ref="270374306"/>
    <nd ref="270374307"/>
    <nd ref="270374304"/>
    <tag k="building" v="hall"/>
    <tag k="created_by" v="JOSM"/>
    <tag k="name" v="Wydział Historyczny UW"/>
  </way>
  <way id="24882352" version="1" timestamp="2008-06-14T21:27:07Z" uid="17602" user="B10xyz" changeset="161039">
    <nd ref="53464119"/>
    <nd ref="53464149"/>
    <nd ref="28470032"/>
    <tag k="created_by" v="JOSM"/>
    <tag k="cycleway" v="opposite"/>
    <tag k="highway" v="residential"/>
    <tag k="oneway" v="yes"/>
  </way>
  <way id="24882352" version="2" timestamp="2008-06-25T14:09:01Z" uid="47718" user="jwehnert" changeset="293013">
    <nd ref="53464119"/>
    <nd ref="53464149"/>
    <nd ref="28470032"/>
    <tag k="created_by" v="Potlatch 0.9c"/>
    <tag k="cycleway" v="opposite"/>
    <tag k="highway" v="tertiary"/>
    <tag k="name" v="Zeilstraße"/>
    <tag k="oneway" v="yes"/>
  </way>
  <way id="24882352" version="3" timestamp="2008-07-20T17:49:24Z" uid="51801" user="Chris1259" changeset="555179">
    <nd ref="53464119"/>
    <nd ref="53464149"/>
    <nd ref="28470032"/>
    <tag k="created_by" v="Potlatch 0.9c"/>
    <tag k="cycleway" v="opposite"/>
    <tag k="highway" v="residential"/>
    <tag k="name" v="Zeilstraße"/>
    <tag k="oneway" v="yes"/>
  </way>
  <way id="24882352" version="4" timestamp="2009-08-08T11:43:25Z" uid="109925" user="WanMil" changeset="2074786">
    <nd ref="53464119"/>
    <nd ref="53464149"/>
    <nd ref="28470032"/>
    <tag k="cycleway" v="opposite"/>
    <tag k="highway" v="residential"/>
    <tag k="name" v="Zeilstraße"/>
    <tag k="oneway" v="yes"/>
  </way>
  <way id="24882352" version="5" timestamp="2011-12-30T14:00:48Z" uid="328555" user="peb12345" changeset="10245492"/>
  <way id="24882353" version="1" timestamp="2008-06-14T21:27:08Z" uid="17602" user="B10xyz" changeset="161039">
    <nd ref="270375457"/>
    <nd ref="270375458"/>
    <nd ref="270375459"/>
    <nd ref="270375460"/>
    <nd ref="270375461"/>
    <nd ref="270375462"/>
    <nd ref="270375457"/>
    <tag k="created_by" v="JOSM"/>
    <tag k="landuse" v="industrial"/>
    <tag k="name" v="Henkell"/>
  </way>
  <way id="24882353" version="2" timestamp="2009-08-08T11:43:07Z" uid="109925" user="WanMil" changeset="2074786">
    <nd ref="270375457"/>
    <nd ref="270375458"/>
    <nd ref="270375459"/>
    <nd ref="270375460"/>
    <nd ref="270375461"/>
    <nd ref="270375462"/>
    <nd ref="270375457"/>
    <tag k="landuse" v="industrial"/>
    <tag k="name" v="Henkell"/>
  </way>
  <way id="24882353" version="3" timestamp="2009-10-26T19:01:27Z" uid="104912" user="Sir Lancelot" changeset="2959016">
    <nd ref="270375457"/>
    <nd ref="270375458"/>
    <nd ref="540929390"/>
    <nd ref="270375459"/>
    <nd ref="540929389"/>
    <nd ref="540929388"/>
    <nd ref="270375460"/>
    <nd ref="270375461"/>
    <nd ref="270375462"/>
    <nd ref="270375457"/>
    <tag k="landuse" v="industrial"/>
    <tag k="name" v="Henkell"/>
  </way>
  <way id="24882353" version="4" timestamp="2011-10-02T21:35:18Z" uid="40023" user="ALE!" changeset="9455486">
    <nd ref="270375457"/>
    <nd ref="270375458"/>
    <nd ref="540929390"/>
    <nd ref="270375459"/>
    <nd ref="540929389"/>
    <nd ref="540929388"/>
    <nd ref="270375460"/>
    <nd ref="270375461"/>
    <nd ref="1452959669"/>
    <nd ref="1452959662"/>
    <nd ref="270375462"/>
    <nd ref="270375457"/>
    <tag k="landuse" v="industrial"/>
    <tag k="name" v="Henkell"/>
  </way>
  <way id="24882353" version="5" timestamp="2012-01-18T23:43:02Z" uid="328555" user="peb12345" changeset="10432950"/>
  <way id="24882354" version="1" timestamp="2008-06-14T21:27:08Z" uid="17602" user="B10xyz" changeset="161039">
    <nd ref="2387687"/>
    <nd ref="270375463"/>
    <nd ref="270375464"/>
    <tag k="access" v="private"/>
    <tag k="created_by" v="JOSM"/>
    <tag k="highway" v="service"/>
  </way>
  <way id="24882354" version="2" timestamp="2009-04-23T14:54:50Z" uid="104912" user="Sir Lancelot" changeset="913542">
    <nd ref="2387687"/>
    <nd ref="382116850"/>
    <nd ref="270375463"/>
    <nd ref="270375464"/>
    <tag k="access" v="private"/>
    <tag k="created_by" v="JOSM"/>
    <tag k="highway" v="service"/>
  </way>
  <way id="24882354" version="3" timestamp="2009-08-08T11:43:20Z" uid="109925" user="WanMil" changeset="2074786">
    <nd ref="2387687"/>
    <nd ref="382116850"/>
    <nd ref="270375463"/>
    <nd ref="270375464"/>
    <tag k="access" v="private"/>
    <tag k="highway" v="service"/>
  </way>
  <way id="24882354" version="4" timestamp="2010-04-22T15:26:34Z" uid="263596" user="Oberförster" changeset="4495987">
    <nd ref="2387687"/>
    <nd ref="703726032"/>
    <nd ref="382116850"/>
    <nd ref="270375463"/>
    <nd ref="270375464"/>
    <tag k="access" v="private"/>
    <tag k="highway" v="service"/>
  </way>
  <way id="24882354" version="5" timestamp="2010-05-11T22:35:48Z" uid="40023" user="ALE!" changeset="4672788">
    <nd ref="2387687"/>
    <nd ref="703726032"/>
    <nd ref="270375463"/>
    <nd ref="270375464"/>
    <tag k="access" v="private"/>
    <tag k="highway" v="service"/>
  </way>
  <way id="24882405" version="2" timestamp="2010-03-27T23:41:53Z" uid="20587" user="balrog-kun" changeset="4250871">
    <nd ref="90401305"/>
    <nd ref="90325042"/>
    <nd ref="90401306"/>
    <nd ref="90401307"/>
    <tag k="created_by" v="Potlatch 0.9c"/>
    <tag k="highway" v="service"/>
    <tag k="name" v="U St V Street Alley"/>
    <tag k="tiger:cfcc" v="A73"/>
    <tag k="tiger:county" v="Sacramento, CA"/>
    <tag k="tiger:name_base" v="U St V St"/>
    <tag k="tiger:name_type" v="Aly"/>
    <tag k="tiger:reviewed" v="no"/>
    <tag k="tiger:source" v="tiger_import_dch_v0.6_20070809"/>
    <tag k="tiger:tlid" v="133432660:133432661:133432634:133432636:133432640:133432651:133432647:133432843:133432648:133432649"/>
  </way>
  <way id="24882411" version="1" timestamp="2008-06-14T21:29:02Z" uid="20587" user="balrog-kun" changeset="161269">
    <nd ref="270375615"/>
    <nd ref="270375616"/>
    <nd ref="270375617"/>
    <tag k="created_by" v="JOSM"/>
    <tag k="highway" v="service"/>
  </way>
  <way id="24882411" version="2" timestamp="2010-06-20T16:58:58Z" uid="20587" user="balrog-kun" changeset="5034788">
    <nd ref="224846235"/>
    <nd ref="778327043"/>
    <nd ref="270375616"/>
    <nd ref="270375617"/>
    <tag k="highway" v="service"/>
  </way>
  <way id="24882412" version="1" timestamp="2008-06-14T21:29:03Z" uid="20587" user="balrog-kun" changeset="161269">
    <nd ref="270375618"/>
    <nd ref="270375619"/>
    <tag k="created_by" v="JOSM"/>
    <tag k="highway" v="steps"/>
  </way>
  <way id="24882412" version="2" timestamp="2010-05-19T20:00:19Z" uid="277387" user="rogal" changeset="4751269">
    <nd ref="270375618"/>
    <nd ref="704961818"/>
    <tag k="highway" v="steps"/>
  </way>
  <way id="24882412" version="3" timestamp="2010-06-20T16:58:49Z" uid="20587" user="balrog-kun" changeset="5034788">
    <nd ref="270375618"/>
    <nd ref="778326091"/>
    <nd ref="778328392"/>
    <nd ref="704961818"/>
    <tag k="highway" v="steps"/>
  </way>
  <way id="24882720" version="2" timestamp="2009-06-19T13:02:25Z" uid="85761" user="klausis" changeset="1564619">
    <nd ref="21498799"/>
    <nd ref="14912566"/>
    <tag k="cycleway" v="opposite_lane"/>
    <tag k="highway" v="residential"/>
    <tag k="maxspeed" v="30"/>
    <tag k="name" v="Bernhardstraße"/>
    <tag k="oneway" v="yes"/>
  </way>
  <way id="24882720" version="3" timestamp="2009-06-22T14:03:52Z" uid="6269" user="Mueck" changeset="1594002">
    <nd ref="21498799"/>
    <nd ref="14912566"/>
    <tag k="cycleway" v="opposite"/>
    <tag k="highway" v="residential"/>
    <tag k="maxspeed" v="30"/>
    <tag k="name" v="Bernhardstraße"/>
    <tag k="oneway" v="yes"/>
  </way>
  <way id="24882720" version="4" timestamp="2010-07-05T14:26:57Z" uid="246804" user="dacson" changeset="5142488">
    <nd ref="21498799"/>
    <nd ref="802168355"/>
    <nd ref="14912566"/>
    <tag k="cycleway" v="opposite"/>
    <tag k="highway" v="residential"/>
    <tag k="maxspeed" v="30"/>
    <tag k="name" v="Bernhardstraße"/>
    <tag k="oneway" v="yes"/>
  </way>
  <way id="24882720" version="5" timestamp="2011-02-10T00:01:35Z" uid="6269" user="Mueck" changeset="7241697">
    <nd ref="21498799"/>
    <nd ref="802168355"/>
    <nd ref="1144841363"/>
    <nd ref="14912566"/>
    <tag k="cycleway" v="opposite"/>
    <tag k="highway" v="residential"/>
    <tag k="maxspeed" v="30"/>
    <tag k="name" v="Bernhardstraße"/>
    <tag k="oneway" v="yes"/>
  </way>
  <way id="24882720" version="6" timestamp="2011-04-04T01:29:33Z" uid="6269" user="Mueck" changeset="7760460">
    <nd ref="21498799"/>
    <nd ref="1231749971"/>
    <nd ref="802168355"/>
    <nd ref="1144841363"/>
    <nd ref="14912566"/>
    <tag k="cycleway" v="opposite"/>
    <tag k="highway" v="residential"/>
    <tag k="maxspeed" v="30"/>
    <tag k="name" v="Bernhardstraße"/>
    <tag k="oneway" v="yes"/>
  </way>
  <way id="24882720" version="7" timestamp="2012-03-27T06:53:57Z" uid="151736" user="Jennifer Neubauer" changeset="11113176">
    <nd ref="21498799"/>
    <nd ref="1231749971"/>
    <nd ref="1692818062"/>
    <nd ref="802168355"/>
    <nd ref="1144841363"/>
    <nd ref="14912566"/>
    <tag k="cycleway" v="opposite"/>
    <tag k="highway" v="residential"/>
    <tag k="maxspeed" v="30"/>
    <tag k="name" v="Bernhardstraße"/>
    <tag k="oneway" v="yes"/>
  </way>
  <way id="24882857" version="4" timestamp="2009-09-19T11:47:47Z" uid="1066" user="pavel" changeset="2533699">
    <nd ref="270379564"/>
    <nd ref="270379565"/>
    <nd ref="270379566"/>
    <nd ref="270379567"/>
    <nd ref="270379568"/>
    <nd ref="270379569"/>
    <nd ref="270379570"/>
    <nd ref="270379571"/>
    <nd ref="270379572"/>
    <nd ref="270379573"/>
    <nd ref="270379574"/>
    <nd ref="270379575"/>
    <nd ref="270379576"/>
    <nd ref="270379577"/>
    <nd ref="270379578"/>
    <nd ref="270379579"/>
    <nd ref="270379580"/>
    <nd ref="270379581"/>
    <nd ref="270379582"/>
    <nd ref="270379583"/>
    <nd ref="270379584"/>
    <nd ref="270379585"/>
    <nd ref="270379586"/>
    <nd ref="270379587"/>
    <nd ref="270379588"/>
    <nd ref="270379589"/>
    <nd ref="270379590"/>
    <nd ref="270379591"/>
    <nd ref="270379592"/>
    <nd ref="270379593"/>
    <nd ref="270379594"/>
    <nd ref="270379595"/>
    <nd ref="270379596"/>
    <nd ref="270379597"/>
    <nd ref="270379598"/>
    <nd ref="270379599"/>
    <nd ref="270379600"/>
    <nd ref="501803427"/>
    <nd ref="270379601"/>
    <nd ref="270379602"/>
    <nd ref="270379603"/>
    <nd ref="306488001"/>
    <nd ref="270379604"/>
    <nd ref="73326494"/>
    <tag k="created_by" v="Potlatch 0.9c"/>
    <tag k="highway" v="tertiary"/>
    <tag k="ref" v="2936"/>
    <tag k="source:ref" v="rsd_cr"/>
  </way>
  <way id="24882857" version="5" timestamp="2009-09-19T14:08:14Z" uid="1066" user="pavel" changeset="2534994">
    <nd ref="270379564"/>
    <nd ref="270379565"/>
    <nd ref="270379566"/>
    <nd ref="270379567"/>
    <nd ref="270379568"/>
    <nd ref="270379569"/>
    <nd ref="270379570"/>
    <nd ref="270379571"/>
    <nd ref="270379572"/>
    <nd ref="270379573"/>
    <nd ref="270379574"/>
    <nd ref="270379575"/>
    <nd ref="270379576"/>
    <nd ref="270379577"/>
    <nd ref="270379578"/>
    <nd ref="270379579"/>
    <nd ref="270379580"/>
    <nd ref="270379581"/>
    <nd ref="270379582"/>
    <nd ref="270379583"/>
    <nd ref="270379584"/>
    <nd ref="270379585"/>
    <nd ref="501862035"/>
    <nd ref="270379586"/>
    <tag k="created_by" v="Potlatch 0.9c"/>
    <tag k="highway" v="tertiary"/>
    <tag k="note" v="zelena cyklo"/>
    <tag k="ref" v="2936"/>
    <tag k="source:ref" v="rsd_cr"/>
  </way>
  <way id="24882857" version="6" timestamp="2009-09-22T15:13:23Z" uid="1066" user="pavel" changeset="2572161">
    <nd ref="270379564"/>
    <nd ref="505361960"/>
    <nd ref="270379565"/>
    <nd ref="505362115"/>
    <nd ref="270379566"/>
    <nd ref="270379567"/>
    <nd ref="270379568"/>
    <nd ref="270379569"/>
    <nd ref="270379570"/>
    <nd ref="270379571"/>
    <nd ref="270379572"/>
    <nd ref="270379573"/>
    <nd ref="270379574"/>
    <nd ref="270379575"/>
    <nd ref="270379576"/>
    <nd ref="270379577"/>
    <nd ref="270379578"/>
    <nd ref="270379579"/>
    <nd ref="270379580"/>
    <nd ref="270379581"/>
    <nd ref="270379582"/>
    <nd ref="270379583"/>
    <nd ref="270379584"/>
    <nd ref="270379585"/>
    <nd ref="501862035"/>
    <nd ref="270379586"/>
    <tag k="created_by" v="Potlatch 0.9c"/>
    <tag k="highway" v="tertiary"/>
    <tag k="note" v="zelena cyklo"/>
    <tag k="ref" v="2936"/>
    <tag k="source:ref" v="rsd_cr"/>
  </way>
  <way id="24882857" version="7" timestamp="2009-09-22T17:22:54Z" uid="1066" user="pavel" changeset="2573989">
    <nd ref="270379564"/>
    <nd ref="505361960"/>
    <nd ref="270379565"/>
    <nd ref="505362115"/>
    <nd ref="270379566"/>
    <nd ref="270379567"/>
    <nd ref="270379568"/>
    <nd ref="270379569"/>
    <nd ref="270379570"/>
    <nd ref="270379571"/>
    <nd ref="270379572"/>
    <nd ref="270379573"/>
    <nd ref="270379574"/>
    <nd ref="270379575"/>
    <nd ref="270379576"/>
    <nd ref="270379577"/>
    <nd ref="270379578"/>
    <nd ref="270379579"/>
    <nd ref="270379580"/>
    <nd ref="270379581"/>
    <nd ref="270379582"/>
    <nd ref="270379583"/>
    <nd ref="505465217"/>
    <nd ref="270379584"/>
    <nd ref="270379585"/>
    <nd ref="501862035"/>
    <nd ref="270379586"/>
    <tag k="created_by" v="Potlatch 0.9c"/>
    <tag k="highway" v="tertiary"/>
    <tag k="note" v="zelena cyklo"/>
    <tag k="ref" v="2936"/>
    <tag k="source:ref" v="rsd_cr"/>
  </way>
  <way id="24882857" version="8" timestamp="2009-11-17T14:53:36Z" uid="105645" user="multi" changeset="3141658">
    <nd ref="270379564"/>
    <nd ref="505361960"/>
    <nd ref="270379565"/>
    <nd ref="566204540"/>
    <nd ref="505362115"/>
    <nd ref="270379566"/>
    <nd ref="270379567"/>
    <nd ref="270379568"/>
    <nd ref="270379569"/>
    <nd ref="270379570"/>
    <nd ref="270379571"/>
    <nd ref="270379572"/>
    <nd ref="270379573"/>
    <nd ref="270379574"/>
    <nd ref="270379575"/>
    <nd ref="270379576"/>
    <nd ref="270379577"/>
    <nd ref="270379578"/>
    <nd ref="270379579"/>
    <nd ref="270379580"/>
    <nd ref="270379581"/>
    <nd ref="270379582"/>
    <nd ref="270379583"/>
    <nd ref="505465217"/>
    <nd ref="270379584"/>
    <nd ref="270379585"/>
    <nd ref="501862035"/>
    <nd ref="270379586"/>
    <tag k="highway" v="tertiary"/>
    <tag k="note" v="zelena cyklo"/>
    <tag k="ref" v="2936"/>
    <tag k="source:ref" v="rsd_cr"/>
  </way>
  <way id="24882857" version="9" timestamp="2010-04-21T09:52:40Z" uid="105645" user="multi" changeset="4484921">
    <nd ref="270379564"/>
    <nd ref="505361960"/>
    <nd ref="270379565"/>
    <nd ref="566204540"/>
    <nd ref="505362115"/>
    <nd ref="270379566"/>
    <nd ref="270379567"/>
    <nd ref="703123770"/>
    <nd ref="270379568"/>
    <nd ref="270379569"/>
    <nd ref="270379570"/>
    <nd ref="270379571"/>
    <nd ref="270379572"/>
    <nd ref="270379573"/>
    <nd ref="270379574"/>
    <nd ref="270379575"/>
    <nd ref="270379576"/>
    <nd ref="270379577"/>
    <nd ref="270379578"/>
    <nd ref="270379579"/>
    <nd ref="270379580"/>
    <nd ref="270379581"/>
    <nd ref="270379582"/>
    <nd ref="270379583"/>
    <nd ref="505465217"/>
    <nd ref="270379584"/>
    <nd ref="270379585"/>
    <nd ref="501862035"/>
    <nd ref="270379586"/>
    <tag k="highway" v="tertiary"/>
    <tag k="note" v="zelena cyklo"/>
    <tag k="ref" v="2936"/>
    <tag k="source:ref" v="rsd_cr"/>
  </way>
  <way id="24882857" version="10" timestamp="2010-05-07T19:53:16Z" uid="105645" user="multi" changeset="4633323">
    <nd ref="270379564"/>
    <nd ref="505361960"/>
    <nd ref="270379565"/>
    <nd ref="566204540"/>
    <nd ref="505362115"/>
    <nd ref="270379566"/>
    <nd ref="270379567"/>
    <nd ref="703123770"/>
    <nd ref="270379568"/>
    <nd ref="270379569"/>
    <nd ref="270379570"/>
    <nd ref="270379571"/>
    <nd ref="270379572"/>
    <nd ref="270379573"/>
    <nd ref="270379574"/>
    <nd ref="270379575"/>
    <nd ref="270379576"/>
    <nd ref="270379577"/>
    <nd ref="725536120"/>
    <nd ref="270379578"/>
    <nd ref="270379579"/>
    <nd ref="270379580"/>
    <nd ref="270379581"/>
    <nd ref="270379582"/>
    <nd ref="270379583"/>
    <nd ref="505465217"/>
    <nd ref="270379584"/>
    <nd ref="270379585"/>
    <nd ref="501862035"/>
    <nd ref="270379586"/>
    <tag k="highway" v="tertiary"/>
    <tag k="note" v="zelena cyklo"/>
    <tag k="ref" v="2936"/>
    <tag k="source:ref" v="rsd_cr"/>
  </way>
  <way id="24882857" version="11" timestamp="2010-06-29T18:22:47Z" uid="105645" user="multi" changeset="5107901">
    <nd ref="270379564"/>
    <nd ref="505361960"/>
    <nd ref="270379565"/>
    <tag k="highway" v="tertiary"/>
    <tag k="note" v="zelena cyklo"/>
    <tag k="ref" v="2936"/>
    <tag k="source:ref" v="rsd_cr"/>
  </way>
  <way id="24882896" version="5" timestamp="2009-09-22T17:22:55Z" uid="1066" user="pavel" changeset="2573989">
    <nd ref="73373581"/>
    <nd ref="73343002"/>
    <nd ref="73355341"/>
    <nd ref="73439112"/>
    <nd ref="73321234"/>
    <nd ref="73412979"/>
    <nd ref="73331112"/>
    <nd ref="73424164"/>
    <nd ref="73332885"/>
    <nd ref="344377520"/>
    <nd ref="73382125"/>
    <nd ref="73305367"/>
    <nd ref="73392929"/>
    <nd ref="344377523"/>
    <nd ref="73314896"/>
    <nd ref="73362191"/>
    <nd ref="73286568"/>
    <nd ref="73372097"/>
    <nd ref="73293462"/>
    <nd ref="305513377"/>
    <nd ref="73338595"/>
    <nd ref="505464530"/>
    <tag k="created_by" v="Potlatch 0.9c"/>
    <tag k="highway" v="secondary"/>
    <tag k="ref" v="286"/>
    <tag k="source" v="HELP SERVICE - REMOTE SENSING spol. s r.o. http://www.bnhelp.cz"/>
  </way>
  <way id="24882896" version="6" timestamp="2009-11-17T20:38:30Z" uid="105645" user="multi" changeset="3145088">
    <nd ref="73373581"/>
    <nd ref="73343002"/>
    <nd ref="73355341"/>
    <nd ref="73439112"/>
    <nd ref="73321234"/>
    <nd ref="73412979"/>
    <nd ref="73331112"/>
    <nd ref="73424164"/>
    <nd ref="73332885"/>
    <nd ref="344377520"/>
    <nd ref="73382125"/>
    <nd ref="73305367"/>
    <nd ref="73392929"/>
    <nd ref="344377523"/>
    <nd ref="566397374"/>
    <nd ref="73314896"/>
    <nd ref="73362191"/>
    <nd ref="73286568"/>
    <nd ref="73372097"/>
    <nd ref="73293462"/>
    <nd ref="305513377"/>
    <nd ref="73338595"/>
    <nd ref="505464530"/>
    <tag k="highway" v="secondary"/>
    <tag k="ref" v="286"/>
    <tag k="source" v="HELP SERVICE - REMOTE SENSING spol. s r.o. http://www.bnhelp.cz"/>
  </way>
  <way id="24882896" version="7" timestamp="2009-11-17T22:09:50Z" uid="105645" user="multi" changeset="3146000">
    <nd ref="73373581"/>
    <nd ref="73343002"/>
    <nd ref="73355341"/>
    <nd ref="566444041"/>
    <nd ref="73439112"/>
    <nd ref="73321234"/>
    <nd ref="566444045"/>
    <nd ref="73412979"/>
    <nd ref="73331112"/>
    <nd ref="73424164"/>
    <nd ref="566444046"/>
    <tag k="highway" v="secondary"/>
    <tag k="ref" v="286"/>
    <tag k="source" v="HELP SERVICE - REMOTE SENSING spol. s r.o. http://www.bnhelp.cz"/>
  </way>
  <way id="24882896" version="8" timestamp="2009-11-19T19:44:34Z" uid="105645" user="multi" changeset="3163230">
    <nd ref="73373581"/>
    <nd ref="73343002"/>
    <nd ref="73355341"/>
    <nd ref="566444041"/>
    <nd ref="73439112"/>
    <nd ref="73321234"/>
    <nd ref="566444045"/>
    <nd ref="73412979"/>
    <nd ref="73331112"/>
    <nd ref="567152360"/>
    <nd ref="73424164"/>
    <nd ref="566444046"/>
    <tag k="highway" v="secondary"/>
    <tag k="ref" v="286"/>
    <tag k="source" v="HELP SERVICE - REMOTE SENSING spol. s r.o. http://www.bnhelp.cz"/>
  </way>
  <way id="24882896" version="9" timestamp="2010-02-16T10:52:36Z" uid="105645" user="multi" changeset="3891038">
    <nd ref="73373581"/>
    <nd ref="73343002"/>
    <nd ref="73355341"/>
    <nd ref="566444041"/>
    <nd ref="73439112"/>
    <nd ref="73321234"/>
    <nd ref="566444045"/>
    <nd ref="73412979"/>
    <nd ref="73331112"/>
    <nd ref="567152360"/>
    <nd ref="73424164"/>
    <nd ref="566444046"/>
    <tag k="highway" v="secondary"/>
    <tag k="name" v="Krkonošská"/>
    <tag k="ref" v="286"/>
    <tag k="source" v="HELP SERVICE - REMOTE SENSING spol. s r.o. http://www.bnhelp.cz"/>
  </way>
  <way id="24882896" version="10" timestamp="2010-06-29T18:22:49Z" uid="105645" user="multi" changeset="5107901">
    <nd ref="73373581"/>
    <nd ref="73343002"/>
    <tag k="highway" v="secondary"/>
    <tag k="name" v="Krkonošská"/>
    <tag k="ref" v="286"/>
    <tag k="source" v="HELP SERVICE - REMOTE SENSING spol. s r.o. http://www.bnhelp.cz"/>
  </way>
  <way id="24882896" version="11" timestamp="2010-06-30T14:57:32Z" uid="17615" user="Petr Dlouhý" changeset="5114069">
    <nd ref="73343002"/>
    <nd ref="73373581"/>
    <tag k="highway" v="secondary"/>
    <tag k="name" v="Krkonošská"/>
    <tag k="ref" v="286"/>
    <tag k="source" v="HELP SERVICE - REMOTE SENSING spol. s r.o. http://www.bnhelp.cz"/>
  </way>
  <way id="24882913" version="2" timestamp="2009-12-09T18:03:57Z" uid="200463" user="harmagedon" changeset="3335395">
    <nd ref="270380078"/>
    <nd ref="270380079"/>
    <tag k="highway" v="service"/>
  </way>
  <way id="24882914" version="4" timestamp="2009-12-09T18:03:54Z" uid="200463" user="harmagedon" changeset="3335395">
    <nd ref="270380080"/>
    <nd ref="270380081"/>
    <nd ref="280369774"/>
    <nd ref="270510902"/>
    <nd ref="270380082"/>
    <nd ref="255540236"/>
    <tag k="highway" v="service"/>
  </way>
  <way id="24882916" version="3" timestamp="2009-12-09T18:04:00Z" uid="200463" user="harmagedon" changeset="3335395">
    <nd ref="255540237"/>
    <nd ref="270510902"/>
    <nd ref="270380126"/>
    <nd ref="270380151"/>
    <tag k="highway" v="living_street"/>
    <tag k="name" v="Zum Grundbachtal"/>
  </way>
  <way id="24882917" version="2" timestamp="2009-12-09T18:04:55Z" uid="200463" user="harmagedon" changeset="3335395">
    <nd ref="255540231"/>
    <nd ref="270380159"/>
    <nd ref="270380160"/>
    <nd ref="270380161"/>
    <nd ref="255540226"/>
    <tag k="highway" v="service"/>
  </way>
  <way id="24882919" version="2" timestamp="2009-12-09T18:03:59Z" uid="200463" user="harmagedon" changeset="3335395">
    <nd ref="270380162"/>
    <nd ref="256632331"/>
    <tag k="highway" v="footway"/>
  </way>
</osm>
