<?xml version='1.0' encoding='UTF-8'?>
<osm version="0.6" generator="libosmium/2.20.0">
  <way id="25070332" version="6" timestamp="2009-08-20T20:50:22Z" uid="123700" user="Mala" changeset="2217150">
    <nd ref="272798857"/>
    <nd ref="272798858"/>
    <nd ref="277478834"/>
    <nd ref="272798860"/>
    <nd ref="272798862"/>
    <nd ref="251689494"/>
    <nd ref="251689485"/>
    <nd ref="251689493"/>
    <nd ref="272798896"/>
    <tag k="highway" v="residential"/>
    <tag k="name" v="św. Krzyża"/>
    <tag k="oneway" v="yes"/>
  </way>
  <way id="25070332" version="7" timestamp="2009-08-21T16:27:58Z" uid="123700" user="Mala" changeset="2225907">
    <nd ref="272798857"/>
    <nd ref="272798858"/>
    <nd ref="277478834"/>
    <nd ref="272798860"/>
    <nd ref="272798862"/>
    <nd ref="251689494"/>
    <nd ref="251689485"/>
    <nd ref="251689493"/>
    <nd ref="272798896"/>
    <tag k="highway" v="residential"/>
    <tag k="name" v="Świętego Krzyża"/>
    <tag k="oneway" v="yes"/>
  </way>
  <way id="25070332" version="8" timestamp="2009-11-26T21:52:09Z" uid="196804" user="hektor" changeset="3224144">
    <nd ref="272798857"/>
    <nd ref="272798858"/>
    <nd ref="277478834"/>
    <nd ref="272798860"/>
    <nd ref="272798862"/>
    <nd ref="251689494"/>
    <nd ref="251689485"/>
    <nd ref="251689493"/>
    <nd ref="272798896"/>
    <tag k="highway" v="living_street"/>
    <tag k="name" v="Świętego Krzyża"/>
    <tag k="oneway" v="yes"/>
  </way>
  <way id="25070332" version="9" timestamp="2010-04-17T11:48:04Z" uid="91056" user="Yarl" changeset="4446654">
    <nd ref="272798857"/>
    <nd ref="272798858"/>
    <nd ref="277478834"/>
    <nd ref="272798860"/>
    <nd ref="272798862"/>
    <nd ref="251689494"/>
    <nd ref="251689485"/>
    <nd ref="251689493"/>
    <nd ref="272798896"/>
    <tag k="highway" v="pedestrian"/>
    <tag k="name" v="Świętego Krzyża"/>
    <tag k="oneway" v="yes"/>
  </way>
  <way id="25070332" version="10" timestamp="2010-09-22T12:12:56Z" uid="256858" user="lukeeu" changeset="5844989">
    <nd ref="272798857"/>
    <nd ref="272798858"/>
    <nd ref="277478834"/>
    <nd ref="272798860"/>
    <nd ref="272798862"/>
    <nd ref="251689494"/>
    <nd ref="251689485"/>
    <nd ref="251689493"/>
    <nd ref="272798896"/>
    <tag k="bicycle" v="yes"/>
    <tag k="foot" v="yes"/>
    <tag k="goods" v="delivery"/>
    <tag k="highway" v="pedestrian"/>
    <tag k="maxspeed" v="20"/>
    <tag k="motor_vehicle" v="private"/>
    <tag k="name" v="Świętego Krzyża"/>
    <tag k="oneway" v="yes"/>
    <tag k="psv" v="yes"/>
  </way>
  <way id="25070332" version="11" timestamp="2011-11-21T22:18:26Z" uid="164910" user="ppece" changeset="9902758">
    <nd ref="251690247"/>
    <nd ref="272798858"/>
    <nd ref="277478834"/>
    <nd ref="272798860"/>
    <nd ref="272798862"/>
    <nd ref="251689494"/>
    <nd ref="251689485"/>
    <nd ref="251689493"/>
    <nd ref="272798896"/>
    <tag k="bicycle" v="yes"/>
    <tag k="foot" v="yes"/>
    <tag k="goods" v="delivery"/>
    <tag k="highway" v="pedestrian"/>
    <tag k="maxspeed" v="20"/>
    <tag k="motor_vehicle" v="private"/>
    <tag k="name" v="Świętego Krzyża"/>
    <tag k="oneway" v="yes"/>
    <tag k="psv" v="yes"/>
  </way>
  <way id="25070333" version="5" timestamp="2009-08-21T16:28:01Z" uid="123700" user="Mala" changeset="2225907">
    <nd ref="272798884"/>
    <nd ref="272798880"/>
    <tag k="highway" v="residential"/>
    <tag k="name" v="Świętego Marka"/>
    <tag k="oneway" v="yes"/>
  </way>
  <way id="25070333" version="6" timestamp="2009-11-27T18:38:04Z" uid="196804" user="hektor" changeset="3230482">
    <nd ref="272798884"/>
    <nd ref="272798880"/>
    <tag k="highway" v="living_street"/>
    <tag k="name" v="Świętego Marka"/>
    <tag k="oneway" v="yes"/>
  </way>
  <way id="25070333" version="7" timestamp="2010-04-17T11:48:01Z" uid="91056" user="Yarl" changeset="4446654">
    <nd ref="272798884"/>
    <nd ref="272798880"/>
    <tag k="highway" v="pedestrian"/>
    <tag k="name" v="Świętego Marka"/>
    <tag k="oneway" v="yes"/>
  </way>
  <way id="25070333" version="8" timestamp="2010-09-22T12:13:01Z" uid="256858" user="lukeeu" changeset="5844989">
    <nd ref="272798884"/>
    <nd ref="272798880"/>
    <tag k="bicycle" v="yes"/>
    <tag k="foot" v="yes"/>
    <tag k="goods" v="delivery"/>
    <tag k="highway" v="pedestrian"/>
    <tag k="maxspeed" v="20"/>
    <tag k="motor_vehicle" v="private"/>
    <tag k="name" v="Świętego Marka"/>
    <tag k="oneway" v="yes"/>
    <tag k="psv" v="yes"/>
  </way>
  <way id="25070336" version="5" timestamp="2009-08-20T16:57:47Z" uid="123700" user="Mala" changeset="2214490">
    <nd ref="272798896"/>
    <nd ref="272798898"/>
    <nd ref="272798899"/>
    <nd ref="30375877"/>
    <tag k="highway" v="service"/>
  </way>
  <way id="25070336" version="6" timestamp="2011-11-10T19:23:40Z" uid="524053" user="k11" changeset="9791442">
    <nd ref="272798896"/>
    <nd ref="272798898"/>
    <nd ref="272798899"/>
    <tag k="highway" v="pedestrian"/>
    <tag k="name" v="Świętego Krzyża"/>
  </way>
  <way id="25070349" version="1" timestamp="2008-06-24T18:05:15Z" uid="43863" user="Rundling" changeset="287757">
    <nd ref="272798986"/>
    <nd ref="272798987"/>
    <nd ref="272798988"/>
    <nd ref="272798989"/>
    <nd ref="272798990"/>
    <nd ref="272798991"/>
    <nd ref="272798993"/>
    <nd ref="272798994"/>
    <nd ref="272798995"/>
    <tag k="created_by" v="Potlatch 0.9c"/>
  </way>
  <way id="25070349" version="2" timestamp="2008-06-24T18:05:38Z" uid="43863" user="Rundling" changeset="287757">
    <nd ref="272798986"/>
    <nd ref="272798987"/>
    <nd ref="272798988"/>
    <nd ref="272798989"/>
    <nd ref="272798990"/>
    <nd ref="272798991"/>
    <nd ref="272798993"/>
    <nd ref="272798994"/>
    <nd ref="272798995"/>
    <tag k="created_by" v="Potlatch 0.9c"/>
    <tag k="highway" v="residential"/>
    <tag k="name" v="Achterstrasse"/>
  </way>
  <way id="25070349" version="3" timestamp="2008-06-24T18:05:52Z" uid="43863" user="Rundling" changeset="287757">
    <nd ref="272798986"/>
    <nd ref="272798987"/>
    <nd ref="272798988"/>
    <nd ref="272798989"/>
    <nd ref="272798990"/>
    <nd ref="272798991"/>
    <tag k="created_by" v="Potlatch 0.9c"/>
    <tag k="highway" v="residential"/>
    <tag k="name" v="Achterstrasse"/>
  </way>
  <way id="25070349" version="4" timestamp="2008-07-08T10:06:17Z" uid="43863" user="Rundling" changeset="428296">
    <nd ref="272798986"/>
    <nd ref="272798987"/>
    <nd ref="272798988"/>
    <nd ref="272798989"/>
    <nd ref="272798990"/>
    <nd ref="277083125"/>
    <nd ref="272798991"/>
    <tag k="created_by" v="Potlatch 0.9c"/>
    <tag k="highway" v="residential"/>
    <tag k="name" v="Achterstrasse"/>
  </way>
  <way id="25070349" version="5" timestamp="2008-07-08T10:06:25Z" uid="43863" user="Rundling" changeset="428296">
    <nd ref="272798986"/>
    <nd ref="272798987"/>
    <nd ref="272798988"/>
    <nd ref="272798989"/>
    <nd ref="272798990"/>
    <nd ref="277083136"/>
    <nd ref="277083125"/>
    <nd ref="272798991"/>
    <tag k="created_by" v="Potlatch 0.9c"/>
    <tag k="highway" v="residential"/>
    <tag k="name" v="Achterstrasse"/>
  </way>
  <way id="25070349" version="6" timestamp="2008-07-09T17:45:01Z" uid="43863" user="Rundling" changeset="446996">
    <nd ref="272798986"/>
    <nd ref="272798987"/>
    <nd ref="272798988"/>
    <nd ref="272798989"/>
    <nd ref="272798990"/>
    <nd ref="277083136"/>
    <nd ref="277083125"/>
    <nd ref="272798991"/>
    <tag k="created_by" v="Potlatch 0.9c"/>
    <tag k="highway" v="residential"/>
    <tag k="name" v="Achterstrasse"/>
  </way>
  <way id="25070349" version="7" timestamp="2008-07-30T11:51:12Z" uid="43863" user="Rundling" changeset="627277">
    <nd ref="272798986"/>
    <nd ref="272798987"/>
    <nd ref="272798988"/>
    <nd ref="272798989"/>
    <nd ref="272798990"/>
    <nd ref="277083136"/>
    <nd ref="277083125"/>
    <nd ref="272798991"/>
    <tag k="created_by" v="Potlatch 0.10a"/>
    <tag k="highway" v="residential"/>
    <tag k="name" v="Achterstraße"/>
  </way>
  <way id="25070349" version="8" timestamp="2008-08-15T09:12:51Z" uid="43863" user="Rundling" changeset="258413">
    <nd ref="288118489"/>
    <nd ref="272798987"/>
    <nd ref="272798988"/>
    <nd ref="272798989"/>
    <nd ref="272798990"/>
    <nd ref="277083136"/>
    <nd ref="277083125"/>
    <nd ref="272798991"/>
    <tag k="created_by" v="Potlatch 0.10b"/>
    <tag k="highway" v="residential"/>
    <tag k="name" v="Achterstraße"/>
  </way>
  <way id="25070385" version="1" timestamp="2008-06-24T18:05:52Z" uid="43863" user="Rundling" changeset="287757">
    <nd ref="272798991"/>
    <nd ref="272798993"/>
    <nd ref="272798994"/>
    <nd ref="272798995"/>
    <tag k="created_by" v="Potlatch 0.9c"/>
    <tag k="highway" v="residential"/>
    <tag k="name" v="Achterstrasse"/>
  </way>
  <way id="25070385" version="2" timestamp="2008-06-24T18:06:29Z" uid="43863" user="Rundling" changeset="287757">
    <nd ref="272799450"/>
    <nd ref="272798991"/>
    <nd ref="272798993"/>
    <nd ref="272798994"/>
    <nd ref="272798995"/>
    <tag k="created_by" v="Potlatch 0.9c"/>
    <tag k="highway" v="tertiary"/>
  </way>
  <way id="25070385" version="3" timestamp="2008-07-02T05:16:40Z" uid="43863" user="Rundling" changeset="365576">
    <nd ref="272799450"/>
    <nd ref="272798991"/>
    <nd ref="272798993"/>
    <nd ref="272798994"/>
    <nd ref="272798995"/>
    <tag k="created_by" v="Potlatch 0.9c"/>
    <tag k="highway" v="tertiary"/>
  </way>
  <way id="25070385" version="4" timestamp="2008-07-02T05:17:52Z" uid="43863" user="Rundling" changeset="365576">
    <nd ref="275322375"/>
    <nd ref="275513827"/>
    <nd ref="272799450"/>
    <nd ref="272798991"/>
    <nd ref="272798993"/>
    <nd ref="272798994"/>
    <nd ref="272798995"/>
    <tag k="created_by" v="Potlatch 0.9c"/>
    <tag k="highway" v="tertiary"/>
    <tag k="name " v="K17"/>
  </way>
  <way id="25070385" version="5" timestamp="2008-07-02T05:18:21Z" uid="43863" user="Rundling" changeset="365576">
    <nd ref="275322375"/>
    <nd ref="275513827"/>
    <nd ref="275513837"/>
    <nd ref="272799450"/>
    <nd ref="272798991"/>
    <nd ref="272798993"/>
    <nd ref="272798994"/>
    <nd ref="272798995"/>
    <tag k="created_by" v="Potlatch 0.9c"/>
    <tag k="highway" v="tertiary"/>
    <tag k="name " v="K17"/>
  </way>
  <way id="25070385" version="6" timestamp="2008-07-09T17:42:28Z" uid="43863" user="Rundling" changeset="446996">
    <nd ref="275322375"/>
    <nd ref="275513827"/>
    <nd ref="275513837"/>
    <nd ref="272799450"/>
    <nd ref="272798991"/>
    <nd ref="272798993"/>
    <nd ref="272798994"/>
    <nd ref="272798995"/>
    <tag k="created_by" v="Potlatch 0.9c"/>
    <tag k="highway" v="tertiary"/>
    <tag k="name " v="K17"/>
  </way>
  <way id="25070385" version="7" timestamp="2008-07-30T11:51:54Z" uid="43863" user="Rundling" changeset="627277">
    <nd ref="275322375"/>
    <nd ref="275513827"/>
    <nd ref="275513837"/>
    <tag k="created_by" v="Potlatch 0.10a"/>
    <tag k="highway" v="tertiary"/>
    <tag k="name " v="K17"/>
  </way>
  <way id="25070385" version="8" timestamp="2008-07-30T11:55:07Z" uid="43863" user="Rundling" changeset="627277">
    <nd ref="275322375"/>
    <nd ref="275513827"/>
    <nd ref="275513837"/>
    <tag k="created_by" v="Potlatch 0.10a"/>
    <tag k="highway" v="tertiary"/>
    <tag k="name" v="Rätzlinger Straße"/>
    <tag k="name_1" v="K17"/>
  </way>
  <way id="25070385" version="9" timestamp="2008-08-04T15:53:29Z" uid="43863" user="Rundling" changeset="52400">
    <nd ref="275322375"/>
    <nd ref="283354393"/>
    <nd ref="275513827"/>
    <nd ref="275513837"/>
    <tag k="created_by" v="Potlatch 0.10a"/>
    <tag k="highway" v="tertiary"/>
    <tag k="name" v="Rätzlinger Straße"/>
    <tag k="name_1" v="K17"/>
  </way>
  <way id="25070385" version="10" timestamp="2008-08-04T16:19:22Z" uid="43863" user="Rundling" changeset="52400">
    <nd ref="275322375"/>
    <nd ref="283354393"/>
    <nd ref="275513827"/>
    <nd ref="275513837"/>
    <tag k="created_by" v="Potlatch 0.10b"/>
    <tag k="highway" v="tertiary"/>
    <tag k="name" v="Rätzlinger Straße"/>
    <tag k="name_1" v="K 17"/>
  </way>
  <way id="25070385" version="11" timestamp="2008-08-07T21:55:42Z" uid="36694" user="neufeind" changeset="131893">
    <nd ref="275322375"/>
    <nd ref="283354393"/>
    <nd ref="275513827"/>
    <nd ref="275513837"/>
    <tag k="highway" v="tertiary"/>
    <tag k="name" v="K 17"/>
  </way>
  <way id="25070385" version="12" timestamp="2008-09-17T07:39:08Z" uid="43863" user="Rundling" changeset="651592">
    <nd ref="275322375"/>
    <nd ref="283354393"/>
    <nd ref="275513827"/>
    <nd ref="275513837"/>
    <tag k="created_by" v="Potlatch 0.10b"/>
    <tag k="highway" v="secondary"/>
    <tag k="name" v="K 17"/>
  </way>
  <way id="25070385" version="13" timestamp="2008-10-19T15:37:12Z" uid="43863" user="Rundling" changeset="441157">
    <nd ref="275322375"/>
    <nd ref="283354393"/>
    <nd ref="275513837"/>
    <tag k="created_by" v="Potlatch 0.10b"/>
    <tag k="highway" v="secondary"/>
    <tag k="name" v="K 17"/>
  </way>
  <way id="25070385" version="14" timestamp="2008-12-21T12:50:58Z" uid="43863" user="Rundling" changeset="514034">
    <nd ref="275322375"/>
    <nd ref="283354393"/>
    <nd ref="275513837"/>
    <tag k="created_by" v="Potlatch 0.10f"/>
    <tag k="highway" v="tertiary"/>
    <tag k="ref" v="K 17"/>
  </way>
  <way id="25070385" version="15" timestamp="2009-03-02T19:41:49Z" uid="43863" user="Rundling" changeset="725996"/>
  <way id="25070391" version="6" timestamp="2008-09-14T14:46:04Z" uid="6975" user="ulfl" changeset="640534">
    <nd ref="272799353"/>
    <nd ref="272799354"/>
    <nd ref="272799355"/>
    <nd ref="272799356"/>
    <nd ref="272799358"/>
    <nd ref="280112598"/>
    <tag k="amenity" v="parking"/>
  </way>
  <way id="25070391" version="7" timestamp="2008-12-23T22:39:09Z" uid="47064" user="7503146" changeset="574950">
    <nd ref="272799353"/>
    <nd ref="272799354"/>
    <nd ref="272799355"/>
    <nd ref="272799356"/>
    <nd ref="272799358"/>
    <nd ref="280112598"/>
    <nd ref="272799353"/>
    <tag k="amenity" v="parking"/>
  </way>
  <way id="25070433" version="1" timestamp="2008-06-24T18:07:12Z" uid="43863" user="Rundling" changeset="287757">
    <nd ref="272799707"/>
    <nd ref="272799708"/>
    <nd ref="272799709"/>
    <tag k="created_by" v="Potlatch 0.9c"/>
  </way>
  <way id="25070433" version="2" timestamp="2008-06-24T18:07:29Z" uid="43863" user="Rundling" changeset="287757">
    <nd ref="272799707"/>
    <nd ref="272799708"/>
    <nd ref="272799709"/>
    <tag k="created_by" v="Potlatch 0.9c"/>
    <tag k="highway" v="tertiary"/>
    <tag k="name" v="Tatern"/>
  </way>
  <way id="25070433" version="3" timestamp="2008-06-25T14:45:35Z" uid="43863" user="Rundling" changeset="297084">
    <nd ref="272799707"/>
    <nd ref="272799708"/>
    <nd ref="272799709"/>
    <nd ref="271918049"/>
    <nd ref="271918049"/>
    <tag k="created_by" v="Potlatch 0.9c"/>
    <tag k="highway" v="tertiary"/>
    <tag k="name" v="Tatern"/>
  </way>
  <way id="25070433" version="4" timestamp="2008-07-10T16:15:13Z" uid="43863" user="Rundling" changeset="455754">
    <nd ref="272799707"/>
    <nd ref="272799708"/>
    <nd ref="272799709"/>
    <nd ref="271918049"/>
    <nd ref="271918049"/>
    <tag k="created_by" v="Potlatch 0.9c"/>
    <tag k="highway" v="tertiary"/>
    <tag k="name" v="Tatern"/>
  </way>
  <way id="25070433" version="5" timestamp="2008-08-24T13:40:31Z" uid="30652" user="andrex" changeset="391693">
    <nd ref="272799707"/>
    <nd ref="272799708"/>
    <nd ref="272799709"/>
    <nd ref="271918049"/>
    <tag k="created_by" v="Potlatch 0.9c"/>
    <tag k="highway" v="tertiary"/>
    <tag k="name" v="Tatern"/>
  </way>
  <way id="25070433" version="6" timestamp="2008-12-18T19:24:42Z" uid="43863" user="Rundling" changeset="458488">
    <nd ref="319797973"/>
    <nd ref="272799708"/>
    <nd ref="272799709"/>
    <nd ref="271918049"/>
    <tag k="created_by" v="Potlatch 0.9c"/>
    <tag k="highway" v="tertiary"/>
    <tag k="name" v="Tatern"/>
  </way>
  <way id="25070433" version="7" timestamp="2008-12-22T08:16:28Z" uid="43863" user="Rundling" changeset="538540">
    <nd ref="319797973"/>
    <nd ref="272799708"/>
    <nd ref="272799709"/>
    <nd ref="271918049"/>
    <tag k="created_by" v="Potlatch 0.9c"/>
    <tag k="highway" v="unclassified"/>
    <tag k="name" v="Tatern"/>
  </way>
  <way id="25070433" version="8" timestamp="2009-01-31T16:12:49Z" uid="43863" user="Rundling" changeset="859955">
    <nd ref="319797973"/>
    <nd ref="339370271"/>
    <nd ref="272799708"/>
    <nd ref="272799709"/>
    <nd ref="271918049"/>
    <tag k="created_by" v="Potlatch 0.9c"/>
    <tag k="highway" v="unclassified"/>
    <tag k="name" v="Tatern"/>
  </way>
  <way id="25070433" version="9" timestamp="2010-05-12T18:37:06Z" uid="16995" user="zut" changeset="4679716">
    <nd ref="319797973"/>
    <nd ref="339370271"/>
    <nd ref="272799708"/>
    <nd ref="272799709"/>
    <nd ref="271918049"/>
    <tag k="highway" v="unclassified"/>
    <tag k="name" v="Tatern"/>
  </way>
  <way id="25070433" version="10" timestamp="2010-05-13T07:02:57Z" uid="43863" user="Rundling" changeset="4682868">
    <nd ref="319797973"/>
    <nd ref="339370271"/>
    <nd ref="731826243"/>
    <nd ref="731826244"/>
    <nd ref="731826245"/>
    <tag k="highway" v="unclassified"/>
    <tag k="history" v="Retrieved from v8"/>
    <tag k="name" v="Tatern"/>
  </way>
  <way id="25070433" version="11" timestamp="2010-05-13T07:16:08Z" uid="43863" user="Rundling" changeset="4682950">
    <nd ref="319797973"/>
    <nd ref="339370271"/>
    <nd ref="731826243"/>
    <nd ref="271918049"/>
    <tag k="highway" v="unclassified"/>
    <tag k="name" v="Tatern"/>
  </way>
  <way id="25070476" version="6" timestamp="2011-06-05T19:52:30Z" uid="33382" user="de_muur" changeset="8353494">
    <nd ref="272800022"/>
    <nd ref="272800026"/>
    <nd ref="1313397079"/>
    <tag k="highway" v="residential"/>
    <tag k="maxspeed" v="30"/>
    <tag k="name" v="Am Langen Berg"/>
    <tag k="surface" v="paved"/>
  </way>
  <way id="25070479" version="1" timestamp="2008-06-24T18:08:07Z" uid="43863" user="Rundling" changeset="287757">
    <nd ref="272800098"/>
    <nd ref="272800099"/>
    <nd ref="272800100"/>
    <tag k="created_by" v="Potlatch 0.9c"/>
    <tag k="highway" v="residential"/>
    <tag k="name" v="Am Barkhagen"/>
  </way>
  <way id="25070479" version="2" timestamp="2008-06-24T18:08:22Z" uid="43863" user="Rundling" changeset="287757">
    <nd ref="272800098"/>
    <nd ref="272800099"/>
    <nd ref="272800100"/>
    <tag k="created_by" v="Potlatch 0.9c"/>
    <tag k="highway" v="residential"/>
    <tag k="name" v="Am Barkhagen"/>
  </way>
  <way id="25070479" version="3" timestamp="2008-07-23T08:49:05Z" uid="43863" user="Rundling" changeset="573585">
    <nd ref="272800098"/>
    <nd ref="272800099"/>
    <nd ref="280409530"/>
    <nd ref="272800100"/>
    <tag k="created_by" v="Potlatch 0.10"/>
    <tag k="highway" v="residential"/>
    <tag k="name" v="Am Barkhagen"/>
  </way>
  <way id="25070479" version="4" timestamp="2008-07-23T08:49:41Z" uid="43863" user="Rundling" changeset="573585">
    <nd ref="272800098"/>
    <nd ref="272800099"/>
    <nd ref="280409646"/>
    <nd ref="280409645"/>
    <nd ref="272800100"/>
    <tag k="created_by" v="Potlatch 0.10"/>
    <tag k="highway" v="residential"/>
    <tag k="name" v="Am Barkhagen"/>
  </way>
  <way id="25070479" version="5" timestamp="2008-07-23T08:51:32Z" uid="43863" user="Rundling" changeset="573585">
    <nd ref="272800098"/>
    <nd ref="280410211"/>
    <nd ref="272800099"/>
    <nd ref="280409646"/>
    <nd ref="280409645"/>
    <nd ref="272800100"/>
    <tag k="created_by" v="Potlatch 0.10"/>
    <tag k="highway" v="residential"/>
    <tag k="name" v="Am Barkhagen"/>
  </way>
  <way id="25070479" version="6" timestamp="2008-07-23T08:52:41Z" uid="43863" user="Rundling" changeset="573585">
    <nd ref="272800098"/>
    <nd ref="280410525"/>
    <tag k="created_by" v="Potlatch 0.10"/>
    <tag k="highway" v="residential"/>
    <tag k="name" v="Am Barkhagen"/>
  </way>
  <way id="25070479" version="7" timestamp="2008-07-23T08:52:53Z" uid="43863" user="Rundling" changeset="573585">
    <nd ref="272800098"/>
    <nd ref="280410525"/>
    <tag k="created_by" v="Potlatch 0.10"/>
    <tag k="highway" v="residential"/>
    <tag k="name" v="Birkenallee"/>
  </way>
  <way id="25070479" version="8" timestamp="2008-08-05T13:28:53Z" uid="43863" user="Rundling" changeset="69264">
    <nd ref="280410525"/>
    <nd ref="253582319"/>
    <tag k="created_by" v="Potlatch 0.10b"/>
    <tag k="highway" v="residential"/>
    <tag k="name" v="Birkenallee"/>
  </way>
  <way id="25070479" version="9" timestamp="2008-08-24T13:40:33Z" uid="30652" user="andrex" changeset="391693">
    <nd ref="280410211"/>
    <nd ref="253582319"/>
    <tag k="created_by" v="Potlatch 0.10b"/>
    <tag k="highway" v="residential"/>
    <tag k="name" v="Birkenallee"/>
  </way>
  <way id="25070479" version="10" timestamp="2009-06-12T14:56:32Z" uid="43863" user="Rundling" changeset="1497277">
    <nd ref="280410211"/>
    <nd ref="253582319"/>
    <tag k="highway" v="residential"/>
    <tag k="name" v="Birkenallee"/>
  </way>
  <way id="25070509" version="1" timestamp="2008-06-24T18:09:10Z" uid="43863" user="Rundling" changeset="287757">
    <nd ref="272800467"/>
    <nd ref="199645266"/>
    <tag k="created_by" v="Potlatch 0.9c"/>
  </way>
  <way id="25070509" version="2" timestamp="2008-06-24T18:09:27Z" uid="43863" user="Rundling" changeset="287757">
    <nd ref="272800467"/>
    <nd ref="199645266"/>
    <tag k="created_by" v="Potlatch 0.9c"/>
    <tag k="highway" v="residential"/>
  </way>
  <way id="25070509" version="3" timestamp="2008-07-25T11:47:48Z" uid="43863" user="Rundling" changeset="588833">
    <nd ref="272800467"/>
    <nd ref="199645266"/>
    <tag k="created_by" v="Potlatch 0.10"/>
    <tag k="highway" v="residential"/>
    <tag k="name" v="Medingstraße"/>
  </way>
  <way id="25070509" version="4" timestamp="2008-07-25T11:48:24Z" uid="43863" user="Rundling" changeset="588833">
    <nd ref="272800467"/>
    <nd ref="280974010"/>
    <nd ref="199645266"/>
    <tag k="created_by" v="Potlatch 0.10"/>
    <tag k="highway" v="residential"/>
    <tag k="name" v="Medingstraße"/>
  </way>
  <way id="25070509" version="5" timestamp="2008-08-05T14:20:36Z" uid="43863" user="Rundling" changeset="69264">
    <nd ref="283642235"/>
    <nd ref="280974010"/>
    <nd ref="199645266"/>
    <tag k="created_by" v="Potlatch 0.10b"/>
    <tag k="highway" v="residential"/>
    <tag k="name" v="Medingstraße"/>
  </way>
  <way id="25070509" version="6" timestamp="2008-08-12T10:30:10Z" uid="43863" user="Rundling" changeset="198414">
    <nd ref="283642235"/>
    <nd ref="280974010"/>
    <nd ref="287241536"/>
    <nd ref="199645266"/>
    <tag k="created_by" v="Potlatch 0.10b"/>
    <tag k="highway" v="residential"/>
    <tag k="name" v="Medingstraße"/>
  </way>
  <way id="25070509" version="7" timestamp="2009-03-08T08:19:24Z" uid="43863" user="Rundling" changeset="754864">
    <nd ref="352931990"/>
    <nd ref="280974010"/>
    <nd ref="287241536"/>
    <nd ref="199645266"/>
    <tag k="created_by" v="Potlatch 0.10b"/>
    <tag k="highway" v="residential"/>
    <tag k="name" v="Medingstraße"/>
  </way>
  <way id="25070509" version="8" timestamp="2009-06-03T07:52:09Z" uid="43863" user="Rundling" changeset="1410846">
    <nd ref="352931990"/>
    <nd ref="280974010"/>
    <nd ref="287241536"/>
    <nd ref="415275814"/>
    <tag k="created_by" v="Potlatch 0.10b"/>
    <tag k="highway" v="residential"/>
    <tag k="name" v="Medingstraße"/>
  </way>
  <way id="25070509" version="9" timestamp="2009-06-13T04:19:32Z" uid="43863" user="Rundling" changeset="1501307">
    <nd ref="352931990"/>
    <nd ref="280974010"/>
    <nd ref="287241536"/>
    <nd ref="415275814"/>
    <tag k="highway" v="residential"/>
    <tag k="name" v="Medingstraße"/>
  </way>
  <way id="25070509" version="10" timestamp="2009-07-12T04:44:21Z" uid="43863" user="Rundling" changeset="1803135">
    <nd ref="352931990"/>
    <nd ref="280974010"/>
    <nd ref="287241536"/>
    <nd ref="415275814"/>
    <nd ref="440322558"/>
    <tag k="highway" v="residential"/>
    <tag k="name" v="Medingstraße"/>
  </way>
  <way id="25070509" version="11" timestamp="2009-07-12T05:10:53Z" uid="43863" user="Rundling" changeset="1803205">
    <nd ref="352931990"/>
    <nd ref="280974010"/>
    <nd ref="287241536"/>
    <nd ref="440322558"/>
    <tag k="highway" v="residential"/>
    <tag k="name" v="Medingstraße"/>
  </way>
  <way id="25070509" version="12" timestamp="2009-07-12T05:38:01Z" uid="43863" user="Rundling" changeset="1803284">
    <nd ref="352931990"/>
    <nd ref="280974010"/>
    <nd ref="440602902"/>
    <nd ref="440602903"/>
    <nd ref="440602904"/>
    <tag k="highway" v="residential"/>
    <tag k="name" v="Medingstraße"/>
  </way>
  <way id="25070509" version="13" timestamp="2009-07-12T11:02:36Z" uid="43863" user="Rundling" changeset="1805769">
    <nd ref="352931990"/>
    <nd ref="440673406"/>
    <nd ref="280974010"/>
    <nd ref="287241536"/>
    <nd ref="440602903"/>
    <nd ref="440602904"/>
    <tag k="highway" v="residential"/>
    <tag k="name" v="Medingstraße"/>
  </way>
  <way id="25070546" version="3" timestamp="2009-02-23T13:09:57Z" uid="34428" user="usm78-gis" changeset="634299"/>
  <way id="25070547" version="3" timestamp="2009-02-23T12:18:25Z" uid="34428" user="usm78-gis" changeset="634299"/>
  <way id="25070549" version="2" timestamp="2009-02-23T11:38:10Z" uid="34428" user="usm78-gis" changeset="634299"/>
  <way id="25070551" version="3" timestamp="2009-02-23T12:53:26Z" uid="34428" user="usm78-gis" changeset="634299"/>
  <way id="25070633" version="2" timestamp="2009-02-14T01:20:35Z" uid="36809" user="pfoten_weg_!_" changeset="423851">
    <nd ref="272801639"/>
    <nd ref="248081877"/>
    <tag k="bridge" v="true"/>
    <tag k="created_by" v="RambaZamba"/>
    <tag k="highway" v="primary"/>
    <tag k="layer" v="1"/>
    <tag k="ref" v="B 11;B 15"/>
    <tag k="source" v="survey"/>
  </way>
  <way id="25070633" version="3" timestamp="2009-04-14T06:59:40Z" uid="18315" user="gernot" changeset="511223">
    <nd ref="272801639"/>
    <nd ref="248081877"/>
    <tag k="bridge" v="true"/>
    <tag k="created_by" v="RambaZamba"/>
    <tag k="highway" v="primary"/>
    <tag k="layer" v="1"/>
    <tag k="maxspeed" v="80"/>
    <tag k="ref" v="B 11;B 15"/>
    <tag k="source" v="survey"/>
  </way>
  <way id="25070633" version="4" timestamp="2009-04-17T03:33:54Z" uid="103885" user="logicbot" changeset="603450">
    <nd ref="272801639"/>
    <nd ref="248081877"/>
    <tag k="bridge" v="yes"/>
    <tag k="created_by" v="RambaZamba"/>
    <tag k="highway" v="primary"/>
    <tag k="layer" v="1"/>
    <tag k="maxspeed" v="80"/>
    <tag k="ref" v="B 11;B 15"/>
    <tag k="source" v="survey"/>
  </way>
  <way id="25070633" version="5" timestamp="2009-09-12T21:11:19Z" uid="156995" user="HampelZamba" changeset="2462871">
    <nd ref="272801639"/>
    <nd ref="248081877"/>
    <tag k="bridge" v="yes"/>
    <tag k="highway" v="primary"/>
    <tag k="layer" v="1"/>
    <tag k="maxspeed" v="80"/>
    <tag k="ref" v="B 11;B 15"/>
    <tag k="source" v="survey"/>
  </way>
  <way id="25070633" version="6" timestamp="2009-10-07T05:10:48Z" uid="18315" user="gernot" changeset="2767524">
    <nd ref="272801639"/>
    <nd ref="248081877"/>
    <tag k="bridge" v="yes"/>
    <tag k="highway" v="primary"/>
    <tag k="layer" v="1"/>
    <tag k="maxspeed" v="80"/>
    <tag k="ref" v="B 15"/>
    <tag k="source" v="survey"/>
  </way>
  <way id="25070700" version="5" timestamp="2011-04-28T17:40:09Z" uid="33382" user="de_muur" changeset="7996765">
    <nd ref="272802125"/>
    <nd ref="272802130"/>
    <nd ref="272802133"/>
    <nd ref="272802135"/>
    <nd ref="272802137"/>
    <nd ref="272802139"/>
    <nd ref="272802142"/>
    <nd ref="272802144"/>
    <nd ref="272802146"/>
    <nd ref="272802148"/>
    <nd ref="738219050"/>
    <tag k="highway" v="unclassified"/>
    <tag k="maxspeed" v="30"/>
    <tag k="name" v="Lanzer Weg"/>
    <tag k="surface" v="paved"/>
  </way>
  <way id="25070705" version="7" timestamp="2011-04-28T17:40:08Z" uid="33382" user="de_muur" changeset="7996765">
    <nd ref="272802166"/>
    <nd ref="674478839"/>
    <tag k="highway" v="unclassified"/>
    <tag k="surface" v="paved"/>
  </way>
  <way id="25070706" version="4" timestamp="2011-04-28T17:40:09Z" uid="33382" user="de_muur" changeset="7996765">
    <nd ref="272802150"/>
    <nd ref="272802166"/>
    <tag k="bridge" v="yes"/>
    <tag k="highway" v="unclassified"/>
    <tag k="layer" v="1"/>
    <tag k="surface" v="paved"/>
  </way>
  <way id="25070722" version="5" timestamp="2009-08-24T23:52:55Z" uid="36809" user="pfoten_weg_!_" changeset="2251146">
    <nd ref="27387299"/>
    <nd ref="272802509"/>
    <tag k="discovered_by" v="RambaZamba"/>
    <tag k="highway" v="residential"/>
    <tag k="oneway" v="yes"/>
  </way>
  <way id="25070722" version="6" timestamp="2009-08-30T09:23:19Z" uid="156995" user="HampelZamba" changeset="2310659">
    <nd ref="27387299"/>
    <nd ref="272802509"/>
    <tag k="highway" v="residential"/>
    <tag k="oneway" v="yes"/>
  </way>
  <way id="25070722" version="7" timestamp="2009-08-31T16:45:20Z" uid="36809" user="pfoten_weg_!_" changeset="2328217">
    <nd ref="27387299"/>
    <nd ref="272802509"/>
    <tag k="highway" v="residential"/>
    <tag k="oneway" v="yes"/>
  </way>
  <way id="25070722" version="8" timestamp="2010-02-18T18:15:37Z" uid="64756" user="alegria6208" changeset="3910483">
    <nd ref="27387299"/>
    <nd ref="272802509"/>
    <tag k="highway" v="primary_link"/>
    <tag k="oneway" v="yes"/>
  </way>
  <way id="25070722" version="9" timestamp="2012-03-26T19:13:55Z" uid="148776" user="meridianeum" changeset="11109481"/>
  <way id="25070795" version="3" timestamp="2011-04-25T20:19:18Z" uid="33382" user="de_muur" changeset="7968417">
    <nd ref="298469447"/>
    <nd ref="298469444"/>
    <tag k="highway" v="residential"/>
    <tag k="name" v="Heideweg"/>
    <tag k="surface" v="paved"/>
  </way>
</osm>
