<?xml version='1.0' encoding='UTF-8'?>
<osm version="0.6" generator="libosmium/2.20.0">
  <way id="25141017" version="7" timestamp="2009-06-05T05:01:45Z" uid="74617" user="JohnSmith" changeset="1426159">
    <nd ref="273974150"/>
    <nd ref="273977539"/>
    <tag k="highway" v="road"/>
  </way>
  <way id="25141017" version="8" timestamp="2011-04-07T12:56:10Z" uid="22094" user="Chadzopkyo" changeset="7794420">
    <nd ref="273977539"/>
    <nd ref="273974150"/>
    <nd ref="1235955321"/>
    <nd ref="1235955511"/>
    <nd ref="273974151"/>
    <tag k="highway" v="unclassified"/>
  </way>
  <way id="25141017" version="9" timestamp="2011-04-08T05:40:40Z" uid="22094" user="Chadzopkyo" changeset="7800884">
    <nd ref="273977539"/>
    <nd ref="273974150"/>
    <nd ref="1235955321"/>
    <tag k="highway" v="unclassified"/>
    <tag k="name" v="Through Street"/>
    <tag k="surface" v="asphalt"/>
  </way>
  <way id="25141031" version="4" timestamp="2009-12-27T13:57:12Z" uid="74617" user="JohnSmith" changeset="3462942">
    <nd ref="245510339"/>
    <nd ref="25982860"/>
    <tag k="highway" v="primary"/>
    <tag k="name" v="Bent Street"/>
  </way>
  <way id="25141031" version="5" timestamp="2011-01-25T03:19:15Z" uid="349913" user="Peter W34" changeset="7080169">
    <nd ref="245510339"/>
    <nd ref="1119592018"/>
    <nd ref="1119591951"/>
    <tag k="highway" v="primary"/>
    <tag k="name" v="Bent Street"/>
  </way>
  <way id="25141085" version="5" timestamp="2009-10-07T16:18:42Z" uid="86259" user="hasse_osm_korinthenkacker" changeset="2773292">
    <nd ref="273975432"/>
    <nd ref="273975433"/>
    <nd ref="273975434"/>
    <nd ref="273975435"/>
    <nd ref="273975436"/>
    <nd ref="273976581"/>
    <nd ref="273975437"/>
    <nd ref="273975420"/>
    <tag k="highway" v="service"/>
    <tag k="name" v="Quakenweg"/>
  </way>
  <way id="25141094" version="2" timestamp="2010-03-28T01:20:25Z" uid="7617" user="Franc" changeset="4252402">
    <nd ref="273974109"/>
    <nd ref="273974119"/>
    <nd ref="676403965"/>
    <nd ref="273974709"/>
    <nd ref="273974140"/>
    <nd ref="676403864"/>
    <tag k="highway" v="residential"/>
    <tag k="name" v="Burns Road"/>
    <tag k="restriction" v="school_zone"/>
    <tag k="surface" v="paved"/>
  </way>
  <way id="25141094" version="3" timestamp="2010-07-07T22:50:32Z" uid="74617" user="JohnSmith" changeset="5162525">
    <nd ref="273974109"/>
    <nd ref="273974119"/>
    <nd ref="676403965"/>
    <nd ref="273974709"/>
    <nd ref="273974140"/>
    <nd ref="676403864"/>
    <tag k="highway" v="residential"/>
    <tag k="maxspeed" v="50"/>
    <tag k="maxspeed:source" v="default residential speed limit in Australia"/>
    <tag k="name" v="Burns Road"/>
    <tag k="restriction" v="school_zone"/>
    <tag k="surface" v="paved"/>
  </way>
  <way id="25141094" version="4" timestamp="2012-01-16T19:57:39Z" uid="147510" user="woodpeck_fixbot" changeset="10410676">
    <nd ref="273974109"/>
    <nd ref="273974119"/>
    <nd ref="676403965"/>
    <nd ref="273974709"/>
    <nd ref="273974140"/>
    <nd ref="676403864"/>
    <tag k="highway" v="residential"/>
    <tag k="name" v="Burns Road"/>
    <tag k="restriction" v="school_zone"/>
    <tag k="surface" v="paved"/>
  </way>
  <way id="25141095" version="2" timestamp="2010-07-07T22:52:59Z" uid="74617" user="JohnSmith" changeset="5162525">
    <nd ref="273974190"/>
    <nd ref="273974202"/>
    <tag k="highway" v="residential"/>
    <tag k="maxspeed" v="50"/>
    <tag k="maxspeed:source" v="default residential speed limit in Australia"/>
    <tag k="name" v="Burns Place"/>
  </way>
  <way id="25141095" version="3" timestamp="2012-01-16T19:57:41Z" uid="147510" user="woodpeck_fixbot" changeset="10410676">
    <nd ref="273974190"/>
    <nd ref="273974202"/>
    <tag k="highway" v="residential"/>
    <tag k="name" v="Burns Place"/>
  </way>
  <way id="25141097" version="2" timestamp="2010-07-07T22:45:16Z" uid="74617" user="JohnSmith" changeset="5162525">
    <nd ref="273974184"/>
    <nd ref="273974216"/>
    <nd ref="273974224"/>
    <tag k="highway" v="residential"/>
    <tag k="maxspeed" v="50"/>
    <tag k="maxspeed:source" v="default residential speed limit in Australia"/>
    <tag k="name" v="Edna Avenue"/>
    <tag k="surface" v="paved"/>
  </way>
  <way id="25141097" version="3" timestamp="2012-01-16T19:57:42Z" uid="147510" user="woodpeck_fixbot" changeset="10410676">
    <nd ref="273974184"/>
    <nd ref="273974216"/>
    <nd ref="273974224"/>
    <tag k="highway" v="residential"/>
    <tag k="name" v="Edna Avenue"/>
    <tag k="surface" v="paved"/>
  </way>
  <way id="25141099" version="2" timestamp="2009-07-26T04:26:37Z" uid="74617" user="JohnSmith" changeset="1940429">
    <nd ref="273974179"/>
    <nd ref="273974230"/>
    <tag k="highway" v="residential"/>
    <tag k="name" v="George Finey Close"/>
    <tag k="surface" v="paved"/>
  </way>
  <way id="25141099" version="3" timestamp="2010-07-07T22:51:05Z" uid="74617" user="JohnSmith" changeset="5162525">
    <nd ref="273974179"/>
    <nd ref="273974230"/>
    <tag k="highway" v="residential"/>
    <tag k="maxspeed" v="50"/>
    <tag k="maxspeed:source" v="default residential speed limit in Australia"/>
    <tag k="name" v="George Finey Close"/>
    <tag k="surface" v="paved"/>
  </way>
  <way id="25141099" version="4" timestamp="2012-01-16T19:57:44Z" uid="147510" user="woodpeck_fixbot" changeset="10410676">
    <nd ref="273974179"/>
    <nd ref="273974230"/>
    <tag k="highway" v="residential"/>
    <tag k="name" v="George Finey Close"/>
    <tag k="surface" v="paved"/>
  </way>
  <way id="25141100" version="2" timestamp="2010-07-07T22:51:41Z" uid="74617" user="JohnSmith" changeset="5162525">
    <nd ref="273974167"/>
    <nd ref="273974237"/>
    <nd ref="273974258"/>
    <nd ref="273974264"/>
    <nd ref="273974690"/>
    <nd ref="273974272"/>
    <nd ref="273974278"/>
    <nd ref="273974285"/>
    <nd ref="273974289"/>
    <nd ref="273974296"/>
    <tag k="highway" v="residential"/>
    <tag k="maxspeed" v="50"/>
    <tag k="maxspeed:source" v="default residential speed limit in Australia"/>
    <tag k="name" v="Farm Road"/>
    <tag k="surface" v="paved"/>
  </way>
  <way id="25141100" version="3" timestamp="2012-01-16T19:57:45Z" uid="147510" user="woodpeck_fixbot" changeset="10410676">
    <nd ref="273974167"/>
    <nd ref="273974237"/>
    <nd ref="273974258"/>
    <nd ref="273974264"/>
    <nd ref="273974690"/>
    <nd ref="273974272"/>
    <nd ref="273974278"/>
    <nd ref="273974285"/>
    <nd ref="273974289"/>
    <nd ref="273974296"/>
    <tag k="highway" v="residential"/>
    <tag k="name" v="Farm Road"/>
    <tag k="surface" v="paved"/>
  </way>
  <way id="25141105" version="2" timestamp="2010-07-07T22:44:26Z" uid="74617" user="JohnSmith" changeset="5162525">
    <nd ref="273974272"/>
    <nd ref="273974443"/>
    <nd ref="273974526"/>
    <nd ref="273974450"/>
    <nd ref="273974455"/>
    <nd ref="273974461"/>
    <nd ref="273974475"/>
    <nd ref="273974481"/>
    <nd ref="273974502"/>
    <tag k="highway" v="residential"/>
    <tag k="maxspeed" v="50"/>
    <tag k="maxspeed:source" v="default residential speed limit in Australia"/>
    <tag k="name" v="Lalor Drive"/>
    <tag k="surface" v="paved"/>
  </way>
  <way id="25141105" version="3" timestamp="2012-01-16T19:57:46Z" uid="147510" user="woodpeck_fixbot" changeset="10410676">
    <nd ref="273974272"/>
    <nd ref="273974443"/>
    <nd ref="273974526"/>
    <nd ref="273974450"/>
    <nd ref="273974455"/>
    <nd ref="273974461"/>
    <nd ref="273974475"/>
    <nd ref="273974481"/>
    <nd ref="273974502"/>
    <tag k="highway" v="residential"/>
    <tag k="name" v="Lalor Drive"/>
    <tag k="surface" v="paved"/>
  </way>
  <way id="25141108" version="2" timestamp="2010-07-07T22:50:54Z" uid="74617" user="JohnSmith" changeset="5162525">
    <nd ref="273974443"/>
    <nd ref="273974522"/>
    <tag k="highway" v="residential"/>
    <tag k="maxspeed" v="50"/>
    <tag k="maxspeed:source" v="default residential speed limit in Australia"/>
    <tag k="name" v="Taylor Court"/>
    <tag k="surface" v="paved"/>
  </way>
  <way id="25141108" version="3" timestamp="2012-01-16T19:57:48Z" uid="147510" user="woodpeck_fixbot" changeset="10410676">
    <nd ref="273974443"/>
    <nd ref="273974522"/>
    <tag k="highway" v="residential"/>
    <tag k="name" v="Taylor Court"/>
    <tag k="surface" v="paved"/>
  </way>
  <way id="25141110" version="2" timestamp="2010-07-07T22:46:48Z" uid="74617" user="JohnSmith" changeset="5162525">
    <nd ref="273974526"/>
    <nd ref="273974533"/>
    <tag k="highway" v="residential"/>
    <tag k="maxspeed" v="50"/>
    <tag k="maxspeed:source" v="default residential speed limit in Australia"/>
    <tag k="name" v="Baker Street"/>
    <tag k="surface" v="paved"/>
  </way>
  <way id="25141110" version="3" timestamp="2012-01-16T19:57:49Z" uid="147510" user="woodpeck_fixbot" changeset="10410676">
    <nd ref="273974526"/>
    <nd ref="273974533"/>
    <tag k="highway" v="residential"/>
    <tag k="name" v="Baker Street"/>
    <tag k="surface" v="paved"/>
  </way>
  <way id="25141111" version="2" timestamp="2010-07-07T22:48:39Z" uid="74617" user="JohnSmith" changeset="5162525">
    <nd ref="273974455"/>
    <nd ref="273974539"/>
    <nd ref="273974546"/>
    <nd ref="273974551"/>
    <nd ref="273974558"/>
    <nd ref="273974564"/>
    <nd ref="273974570"/>
    <nd ref="273974481"/>
    <tag k="highway" v="residential"/>
    <tag k="maxspeed" v="50"/>
    <tag k="maxspeed:source" v="default residential speed limit in Australia"/>
    <tag k="name" v="Florey Cresent"/>
    <tag k="surface" v="paved"/>
  </way>
  <way id="25141111" version="3" timestamp="2012-01-16T19:57:51Z" uid="147510" user="woodpeck_fixbot" changeset="10410676">
    <nd ref="273974455"/>
    <nd ref="273974539"/>
    <nd ref="273974546"/>
    <nd ref="273974551"/>
    <nd ref="273974558"/>
    <nd ref="273974564"/>
    <nd ref="273974570"/>
    <nd ref="273974481"/>
    <tag k="highway" v="residential"/>
    <tag k="name" v="Florey Cresent"/>
    <tag k="surface" v="paved"/>
  </way>
  <way id="25141112" version="2" timestamp="2010-07-07T22:49:23Z" uid="74617" user="JohnSmith" changeset="5162525">
    <nd ref="273974546"/>
    <nd ref="273974578"/>
    <tag k="highway" v="residential"/>
    <tag k="maxspeed" v="50"/>
    <tag k="maxspeed:source" v="default residential speed limit in Australia"/>
    <tag k="name" v="Deakin Close"/>
    <tag k="surface" v="paved"/>
  </way>
  <way id="25141112" version="3" timestamp="2012-01-16T19:57:52Z" uid="147510" user="woodpeck_fixbot" changeset="10410676">
    <nd ref="273974546"/>
    <nd ref="273974578"/>
    <tag k="highway" v="residential"/>
    <tag k="name" v="Deakin Close"/>
    <tag k="surface" v="paved"/>
  </way>
  <way id="25141114" version="2" timestamp="2010-07-07T22:45:02Z" uid="74617" user="JohnSmith" changeset="5162525">
    <nd ref="273974475"/>
    <nd ref="273974584"/>
    <nd ref="273974590"/>
    <nd ref="273974595"/>
    <nd ref="273974604"/>
    <nd ref="273974606"/>
    <nd ref="273974611"/>
    <nd ref="273974617"/>
    <tag k="highway" v="residential"/>
    <tag k="maxspeed" v="50"/>
    <tag k="maxspeed:source" v="default residential speed limit in Australia"/>
    <tag k="name" v="Parer Street"/>
    <tag k="surface" v="paved"/>
  </way>
  <way id="25141114" version="3" timestamp="2012-01-16T19:57:53Z" uid="147510" user="woodpeck_fixbot" changeset="10410676">
    <nd ref="273974475"/>
    <nd ref="273974584"/>
    <nd ref="273974590"/>
    <nd ref="273974595"/>
    <nd ref="273974604"/>
    <nd ref="273974606"/>
    <nd ref="273974611"/>
    <nd ref="273974617"/>
    <tag k="highway" v="residential"/>
    <tag k="name" v="Parer Street"/>
    <tag k="surface" v="paved"/>
  </way>
  <way id="25141115" version="2" timestamp="2010-07-07T22:47:22Z" uid="74617" user="JohnSmith" changeset="5162525">
    <nd ref="273974617"/>
    <nd ref="273974622"/>
    <nd ref="273974630"/>
    <nd ref="273974637"/>
    <nd ref="273974296"/>
    <tag k="highway" v="residential"/>
    <tag k="maxspeed" v="50"/>
    <tag k="maxspeed:source" v="default residential speed limit in Australia"/>
    <tag k="name" v="Fadden Road"/>
    <tag k="surface" v="paved"/>
  </way>
  <way id="25141115" version="3" timestamp="2012-01-16T19:57:54Z" uid="147510" user="woodpeck_fixbot" changeset="10410676">
    <nd ref="273974617"/>
    <nd ref="273974622"/>
    <nd ref="273974630"/>
    <nd ref="273974637"/>
    <nd ref="273974296"/>
    <tag k="highway" v="residential"/>
    <tag k="name" v="Fadden Road"/>
    <tag k="surface" v="paved"/>
  </way>
  <way id="25141116" version="2" timestamp="2010-07-07T22:47:56Z" uid="74617" user="JohnSmith" changeset="5162525">
    <nd ref="273974289"/>
    <nd ref="273974641"/>
    <nd ref="273974648"/>
    <nd ref="273974668"/>
    <nd ref="273974679"/>
    <nd ref="273974684"/>
    <tag k="highway" v="residential"/>
    <tag k="maxspeed" v="50"/>
    <tag k="maxspeed:source" v="default residential speed limit in Australia"/>
    <tag k="name" v="Batman Cresent"/>
    <tag k="surface" v="paved"/>
  </way>
  <way id="25141116" version="3" timestamp="2012-01-16T19:57:55Z" uid="147510" user="woodpeck_fixbot" changeset="10410676">
    <nd ref="273974289"/>
    <nd ref="273974641"/>
    <nd ref="273974648"/>
    <nd ref="273974668"/>
    <nd ref="273974679"/>
    <nd ref="273974684"/>
    <tag k="highway" v="residential"/>
    <tag k="name" v="Batman Cresent"/>
    <tag k="surface" v="paved"/>
  </way>
  <way id="25141117" version="2" timestamp="2010-07-07T22:49:54Z" uid="74617" user="JohnSmith" changeset="5162525">
    <nd ref="273974690"/>
    <nd ref="273974697"/>
    <nd ref="273974684"/>
    <nd ref="273974702"/>
    <tag k="highway" v="residential"/>
    <tag k="maxspeed" v="50"/>
    <tag k="maxspeed:source" v="default residential speed limit in Australia"/>
    <tag k="name" v="Bruce Street"/>
    <tag k="surface" v="paved"/>
  </way>
  <way id="25141117" version="3" timestamp="2012-01-16T19:57:56Z" uid="147510" user="woodpeck_fixbot" changeset="10410676">
    <nd ref="273974690"/>
    <nd ref="273974697"/>
    <nd ref="273974684"/>
    <nd ref="273974702"/>
    <tag k="highway" v="residential"/>
    <tag k="name" v="Bruce Street"/>
    <tag k="surface" v="paved"/>
  </way>
  <way id="25141119" version="2" timestamp="2010-03-28T01:20:29Z" uid="7617" user="Franc" changeset="4252402">
    <nd ref="273974709"/>
    <nd ref="676403962"/>
    <tag k="highway" v="residential"/>
    <tag k="name" v="Hilton Road"/>
    <tag k="restriction" v="school_zone"/>
    <tag k="surface" v="paved"/>
  </way>
  <way id="25141119" version="3" timestamp="2010-07-07T22:45:34Z" uid="74617" user="JohnSmith" changeset="5162525">
    <nd ref="273974709"/>
    <nd ref="676403962"/>
    <tag k="highway" v="residential"/>
    <tag k="maxspeed" v="50"/>
    <tag k="maxspeed:source" v="default residential speed limit in Australia"/>
    <tag k="name" v="Hilton Road"/>
    <tag k="restriction" v="school_zone"/>
    <tag k="surface" v="paved"/>
  </way>
  <way id="25141119" version="4" timestamp="2012-01-16T19:57:58Z" uid="147510" user="woodpeck_fixbot" changeset="10410676">
    <nd ref="273974709"/>
    <nd ref="676403962"/>
    <tag k="highway" v="residential"/>
    <tag k="name" v="Hilton Road"/>
    <tag k="restriction" v="school_zone"/>
    <tag k="surface" v="paved"/>
  </way>
  <way id="25141120" version="2" timestamp="2010-07-07T22:48:27Z" uid="74617" user="JohnSmith" changeset="5162525">
    <nd ref="273974161"/>
    <nd ref="273974746"/>
    <nd ref="273974752"/>
    <tag k="highway" v="residential"/>
    <tag k="maxspeed" v="50"/>
    <tag k="maxspeed:source" v="default residential speed limit in Australia"/>
    <tag k="name" v="Bonton Road"/>
    <tag k="surface" v="paved"/>
  </way>
  <way id="25141120" version="3" timestamp="2012-01-16T19:57:59Z" uid="147510" user="woodpeck_fixbot" changeset="10410676">
    <nd ref="273974161"/>
    <nd ref="273974746"/>
    <nd ref="273974752"/>
    <tag k="highway" v="residential"/>
    <tag k="name" v="Bonton Road"/>
    <tag k="surface" v="paved"/>
  </way>
  <way id="25141121" version="2" timestamp="2010-07-07T22:50:39Z" uid="74617" user="JohnSmith" changeset="5162525">
    <nd ref="273974746"/>
    <nd ref="273974758"/>
    <nd ref="273974764"/>
    <tag k="highway" v="residential"/>
    <tag k="maxspeed" v="50"/>
    <tag k="maxspeed:source" v="default residential speed limit in Australia"/>
    <tag k="name" v="Park Road"/>
    <tag k="surface" v="paved"/>
  </way>
  <way id="25141121" version="3" timestamp="2012-01-16T19:58:06Z" uid="147510" user="woodpeck_fixbot" changeset="10410676">
    <nd ref="273974746"/>
    <nd ref="273974758"/>
    <nd ref="273974764"/>
    <tag k="highway" v="residential"/>
    <tag k="name" v="Park Road"/>
    <tag k="surface" v="paved"/>
  </way>
  <way id="25141122" version="2" timestamp="2010-07-07T22:44:14Z" uid="74617" user="JohnSmith" changeset="5162525">
    <nd ref="273974764"/>
    <nd ref="273974771"/>
    <tag k="highway" v="residential"/>
    <tag k="maxspeed" v="50"/>
    <tag k="maxspeed:source" v="default residential speed limit in Australia"/>
    <tag k="name" v="Wattle Street"/>
    <tag k="surface" v="paved"/>
  </way>
  <way id="25141122" version="3" timestamp="2012-01-16T19:58:07Z" uid="147510" user="woodpeck_fixbot" changeset="10410676">
    <nd ref="273974764"/>
    <nd ref="273974771"/>
    <tag k="highway" v="residential"/>
    <tag k="name" v="Wattle Street"/>
    <tag k="surface" v="paved"/>
  </way>
  <way id="25141123" version="2" timestamp="2010-07-07T22:46:31Z" uid="74617" user="JohnSmith" changeset="5162525">
    <nd ref="273974771"/>
    <nd ref="273974776"/>
    <tag k="highway" v="residential"/>
    <tag k="maxspeed" v="50"/>
    <tag k="maxspeed:source" v="default residential speed limit in Australia"/>
    <tag k="name" v="Bonton Road"/>
    <tag k="surface" v="paved"/>
  </way>
  <way id="25141123" version="3" timestamp="2012-01-16T19:58:09Z" uid="147510" user="woodpeck_fixbot" changeset="10410676">
    <nd ref="273974771"/>
    <nd ref="273974776"/>
    <tag k="highway" v="residential"/>
    <tag k="name" v="Bonton Road"/>
    <tag k="surface" v="paved"/>
  </way>
  <way id="25141125" version="2" timestamp="2010-07-07T22:49:03Z" uid="74617" user="JohnSmith" changeset="5162525">
    <nd ref="273974792"/>
    <nd ref="273974799"/>
    <nd ref="273974842"/>
    <tag k="highway" v="residential"/>
    <tag k="maxspeed" v="50"/>
    <tag k="maxspeed:source" v="default residential speed limit in Australia"/>
    <tag k="name" v="Spring Street"/>
    <tag k="surface" v="paved"/>
  </way>
  <way id="25141125" version="3" timestamp="2012-01-16T19:58:10Z" uid="147510" user="woodpeck_fixbot" changeset="10410676">
    <nd ref="273974792"/>
    <nd ref="273974799"/>
    <nd ref="273974842"/>
    <tag k="highway" v="residential"/>
    <tag k="name" v="Spring Street"/>
    <tag k="surface" v="paved"/>
  </way>
  <way id="25141129" version="2" timestamp="2008-12-31T07:31:01Z" uid="19626" user="Swamp" changeset="687835"/>
  <way id="25141131" version="2" timestamp="2008-12-31T07:30:49Z" uid="19626" user="Swamp" changeset="687835">
    <nd ref="273974870"/>
    <nd ref="323588841"/>
    <nd ref="273974874"/>
    <nd ref="273974880"/>
    <tag k="highway" v="residential"/>
    <tag k="name" v="Fels Avenue"/>
    <tag k="surface" v="paved"/>
  </way>
  <way id="25141131" version="3" timestamp="2010-03-28T01:20:29Z" uid="7617" user="Franc" changeset="4252402">
    <nd ref="273974870"/>
    <nd ref="676403971"/>
    <nd ref="676403970"/>
    <nd ref="323588841"/>
    <nd ref="676403956"/>
    <nd ref="273974874"/>
    <nd ref="273974880"/>
    <tag k="highway" v="residential"/>
    <tag k="name" v="Fels Avenue"/>
    <tag k="restriction" v="school_zone"/>
    <tag k="surface" v="paved"/>
  </way>
  <way id="25141131" version="4" timestamp="2010-07-07T22:53:36Z" uid="74617" user="JohnSmith" changeset="5162525">
    <nd ref="273974870"/>
    <nd ref="676403971"/>
    <nd ref="676403970"/>
    <nd ref="323588841"/>
    <nd ref="676403956"/>
    <nd ref="273974874"/>
    <nd ref="273974880"/>
    <tag k="highway" v="residential"/>
    <tag k="maxspeed" v="50"/>
    <tag k="maxspeed:source" v="default residential speed limit in Australia"/>
    <tag k="name" v="Fels Avenue"/>
    <tag k="restriction" v="school_zone"/>
    <tag k="surface" v="paved"/>
  </way>
  <way id="25141131" version="5" timestamp="2012-01-16T19:58:13Z" uid="147510" user="woodpeck_fixbot" changeset="10410676">
    <nd ref="273974870"/>
    <nd ref="676403971"/>
    <nd ref="676403970"/>
    <nd ref="323588841"/>
    <nd ref="676403956"/>
    <nd ref="273974874"/>
    <nd ref="273974880"/>
    <tag k="highway" v="residential"/>
    <tag k="name" v="Fels Avenue"/>
    <tag k="restriction" v="school_zone"/>
    <tag k="surface" v="paved"/>
  </way>
  <way id="25141132" version="2" timestamp="2008-12-31T07:30:53Z" uid="19626" user="Swamp" changeset="687835">
    <nd ref="273974893"/>
    <nd ref="273974900"/>
    <nd ref="273974905"/>
    <nd ref="273974911"/>
    <nd ref="273974917"/>
    <nd ref="273974927"/>
    <nd ref="273974933"/>
    <nd ref="273974940"/>
    <nd ref="273974944"/>
    <nd ref="273974893"/>
    <tag k="amenity" v="school"/>
    <tag k="name" v="Springwood Public School"/>
  </way>
  <way id="25141132" version="3" timestamp="2010-03-28T01:20:24Z" uid="7617" user="Franc" changeset="4252402">
    <nd ref="273974893"/>
    <nd ref="273974900"/>
    <nd ref="676403966"/>
    <nd ref="676403967"/>
    <nd ref="273974905"/>
    <nd ref="273974917"/>
    <nd ref="676403964"/>
    <nd ref="676403963"/>
    <nd ref="676403863"/>
    <nd ref="273974940"/>
    <nd ref="676403961"/>
    <nd ref="676403955"/>
    <nd ref="273974944"/>
    <nd ref="676403954"/>
    <nd ref="273974893"/>
    <tag k="amenity" v="school"/>
    <tag k="name" v="Springwood Public School"/>
  </way>
  <way id="25141134" version="2" timestamp="2008-12-31T07:30:57Z" uid="19626" user="Swamp" changeset="687835"/>
  <way id="25141135" version="2" timestamp="2010-03-28T01:20:27Z" uid="7617" user="Franc" changeset="4252402">
    <nd ref="676403975"/>
    <nd ref="676403972"/>
    <nd ref="273975097"/>
    <nd ref="676403929"/>
    <tag k="highway" v="residential"/>
    <tag k="name" v="Raymond Road"/>
    <tag k="surface" v="paved"/>
  </way>
  <way id="25141135" version="3" timestamp="2010-07-07T22:51:51Z" uid="74617" user="JohnSmith" changeset="5162525">
    <nd ref="676403975"/>
    <nd ref="676403972"/>
    <nd ref="273975097"/>
    <nd ref="676403929"/>
    <tag k="highway" v="residential"/>
    <tag k="maxspeed" v="50"/>
    <tag k="maxspeed:source" v="default residential speed limit in Australia"/>
    <tag k="name" v="Raymond Road"/>
    <tag k="surface" v="paved"/>
  </way>
  <way id="25141135" version="4" timestamp="2012-01-16T19:58:15Z" uid="147510" user="woodpeck_fixbot" changeset="10410676">
    <nd ref="676403975"/>
    <nd ref="676403972"/>
    <nd ref="273975097"/>
    <nd ref="676403929"/>
    <tag k="highway" v="residential"/>
    <tag k="name" v="Raymond Road"/>
    <tag k="surface" v="paved"/>
  </way>
  <way id="25141138" version="2" timestamp="2010-03-28T01:20:27Z" uid="7617" user="Franc" changeset="4252402">
    <nd ref="273974987"/>
    <nd ref="273975041"/>
    <nd ref="676403978"/>
    <nd ref="273975048"/>
    <nd ref="676403958"/>
    <nd ref="676403959"/>
    <nd ref="273975051"/>
    <tag k="highway" v="residential"/>
    <tag k="name" v="David Road"/>
    <tag k="surface" v="paved"/>
  </way>
  <way id="25141138" version="3" timestamp="2010-07-07T22:50:28Z" uid="74617" user="JohnSmith" changeset="5162525">
    <nd ref="273974987"/>
    <nd ref="273975041"/>
    <nd ref="676403978"/>
    <nd ref="273975048"/>
    <nd ref="676403958"/>
    <nd ref="676403959"/>
    <nd ref="273975051"/>
    <tag k="highway" v="residential"/>
    <tag k="maxspeed" v="50"/>
    <tag k="maxspeed:source" v="default residential speed limit in Australia"/>
    <tag k="name" v="David Road"/>
    <tag k="surface" v="paved"/>
  </way>
  <way id="25141138" version="4" timestamp="2012-01-16T19:58:19Z" uid="147510" user="woodpeck_fixbot" changeset="10410676">
    <nd ref="273974987"/>
    <nd ref="273975041"/>
    <nd ref="676403978"/>
    <nd ref="273975048"/>
    <nd ref="676403958"/>
    <nd ref="676403959"/>
    <nd ref="273975051"/>
    <tag k="highway" v="residential"/>
    <tag k="name" v="David Road"/>
    <tag k="surface" v="paved"/>
  </way>
  <way id="25141142" version="2" timestamp="2010-03-28T01:20:29Z" uid="7617" user="Franc" changeset="4252402">
    <nd ref="273975048"/>
    <nd ref="273975058"/>
    <nd ref="273975065"/>
    <nd ref="273975076"/>
    <nd ref="676403957"/>
    <nd ref="273975085"/>
    <tag k="highway" v="residential"/>
    <tag k="name" v="Scott Street"/>
  </way>
  <way id="25141142" version="3" timestamp="2010-07-07T22:48:47Z" uid="74617" user="JohnSmith" changeset="5162525">
    <nd ref="273975048"/>
    <nd ref="273975058"/>
    <nd ref="273975065"/>
    <nd ref="273975076"/>
    <nd ref="676403957"/>
    <nd ref="273975085"/>
    <tag k="highway" v="residential"/>
    <tag k="maxspeed" v="50"/>
    <tag k="maxspeed:source" v="default residential speed limit in Australia"/>
    <tag k="name" v="Scott Street"/>
  </way>
  <way id="25141142" version="4" timestamp="2012-01-16T19:58:20Z" uid="147510" user="woodpeck_fixbot" changeset="10410676">
    <nd ref="273975048"/>
    <nd ref="273975058"/>
    <nd ref="273975065"/>
    <nd ref="273975076"/>
    <nd ref="676403957"/>
    <nd ref="273975085"/>
    <tag k="highway" v="residential"/>
    <tag k="name" v="Scott Street"/>
  </way>
  <way id="25141146" version="2" timestamp="2010-03-28T01:20:27Z" uid="7617" user="Franc" changeset="4252402">
    <nd ref="273975085"/>
    <nd ref="676403952"/>
    <nd ref="273975005"/>
    <tag k="highway" v="residential"/>
    <tag k="name" v="Kerry Avenue"/>
  </way>
  <way id="25141146" version="3" timestamp="2010-07-07T22:47:31Z" uid="74617" user="JohnSmith" changeset="5162525">
    <nd ref="273975085"/>
    <nd ref="676403952"/>
    <nd ref="273975005"/>
    <tag k="highway" v="residential"/>
    <tag k="maxspeed" v="50"/>
    <tag k="maxspeed:source" v="default residential speed limit in Australia"/>
    <tag k="name" v="Kerry Avenue"/>
  </way>
  <way id="25141146" version="4" timestamp="2012-01-16T19:58:21Z" uid="147510" user="woodpeck_fixbot" changeset="10410676">
    <nd ref="273975085"/>
    <nd ref="676403952"/>
    <nd ref="273975005"/>
    <tag k="highway" v="residential"/>
    <tag k="name" v="Kerry Avenue"/>
  </way>
  <way id="25141151" version="2" timestamp="2010-03-28T01:20:28Z" uid="7617" user="Franc" changeset="4252402">
    <nd ref="273975097"/>
    <nd ref="273975111"/>
    <nd ref="676403941"/>
    <nd ref="273975120"/>
    <tag k="highway" v="residential"/>
    <tag k="name" v="Raymond Lane"/>
    <tag k="surface" v="paved"/>
  </way>
  <way id="25141151" version="3" timestamp="2010-07-07T22:48:00Z" uid="74617" user="JohnSmith" changeset="5162525">
    <nd ref="273975097"/>
    <nd ref="273975111"/>
    <nd ref="676403941"/>
    <nd ref="273975120"/>
    <tag k="highway" v="residential"/>
    <tag k="maxspeed" v="50"/>
    <tag k="maxspeed:source" v="default residential speed limit in Australia"/>
    <tag k="name" v="Raymond Lane"/>
    <tag k="surface" v="paved"/>
  </way>
  <way id="25141151" version="4" timestamp="2012-01-16T19:58:24Z" uid="147510" user="woodpeck_fixbot" changeset="10410676">
    <nd ref="273975097"/>
    <nd ref="273975111"/>
    <nd ref="676403941"/>
    <nd ref="273975120"/>
    <tag k="highway" v="residential"/>
    <tag k="name" v="Raymond Lane"/>
    <tag k="surface" v="paved"/>
  </way>
  <way id="25141152" version="2" timestamp="2010-07-07T22:50:48Z" uid="74617" user="JohnSmith" changeset="5162525">
    <nd ref="273975111"/>
    <nd ref="273975128"/>
    <tag k="highway" v="residential"/>
    <tag k="maxspeed" v="50"/>
    <tag k="maxspeed:source" v="default residential speed limit in Australia"/>
    <tag k="name" v="Petite Lane"/>
    <tag k="surface" v="paved"/>
  </way>
  <way id="25141152" version="3" timestamp="2012-01-16T19:58:25Z" uid="147510" user="woodpeck_fixbot" changeset="10410676">
    <nd ref="273975111"/>
    <nd ref="273975128"/>
    <tag k="highway" v="residential"/>
    <tag k="name" v="Petite Lane"/>
    <tag k="surface" v="paved"/>
  </way>
  <way id="25141155" version="2" timestamp="2010-03-28T01:20:27Z" uid="7617" user="Franc" changeset="4252402">
    <nd ref="676403934"/>
    <nd ref="676403926"/>
    <nd ref="273975135"/>
    <nd ref="273975128"/>
    <nd ref="273975147"/>
    <nd ref="676403925"/>
    <nd ref="273975153"/>
    <nd ref="273975158"/>
    <nd ref="676403909"/>
    <nd ref="273975165"/>
    <nd ref="676403908"/>
    <nd ref="676403907"/>
    <nd ref="273975177"/>
    <nd ref="273975186"/>
    <nd ref="676403877"/>
    <nd ref="273975192"/>
    <nd ref="273975200"/>
    <tag k="highway" v="residential"/>
    <tag k="name" v="Springwood Avenue"/>
    <tag k="surface" v="paved"/>
  </way>
  <way id="25141155" version="3" timestamp="2010-07-07T22:48:33Z" uid="74617" user="JohnSmith" changeset="5162525">
    <nd ref="676403934"/>
    <nd ref="676403926"/>
    <nd ref="273975135"/>
    <nd ref="273975128"/>
    <nd ref="273975147"/>
    <nd ref="676403925"/>
    <nd ref="273975153"/>
    <nd ref="273975158"/>
    <nd ref="676403909"/>
    <nd ref="273975165"/>
    <nd ref="676403908"/>
    <nd ref="676403907"/>
    <nd ref="273975177"/>
    <nd ref="273975186"/>
    <nd ref="676403877"/>
    <nd ref="273975192"/>
    <nd ref="273975200"/>
    <tag k="highway" v="residential"/>
    <tag k="maxspeed" v="50"/>
    <tag k="maxspeed:source" v="default residential speed limit in Australia"/>
    <tag k="name" v="Springwood Avenue"/>
    <tag k="surface" v="paved"/>
  </way>
  <way id="25141155" version="4" timestamp="2012-01-16T19:58:26Z" uid="147510" user="woodpeck_fixbot" changeset="10410676">
    <nd ref="676403934"/>
    <nd ref="676403926"/>
    <nd ref="273975135"/>
    <nd ref="273975128"/>
    <nd ref="273975147"/>
    <nd ref="676403925"/>
    <nd ref="273975153"/>
    <nd ref="273975158"/>
    <nd ref="676403909"/>
    <nd ref="273975165"/>
    <nd ref="676403908"/>
    <nd ref="676403907"/>
    <nd ref="273975177"/>
    <nd ref="273975186"/>
    <nd ref="676403877"/>
    <nd ref="273975192"/>
    <nd ref="273975200"/>
    <tag k="highway" v="residential"/>
    <tag k="name" v="Springwood Avenue"/>
    <tag k="surface" v="paved"/>
  </way>
  <way id="25141156" version="2" timestamp="2010-03-28T01:20:28Z" uid="7617" user="Franc" changeset="4252402">
    <nd ref="267669856"/>
    <nd ref="273975200"/>
    <nd ref="267669843"/>
    <nd ref="267669823"/>
    <nd ref="267669799"/>
    <tag k="highway" v="residential"/>
    <tag k="name" v="Homedale Street"/>
    <tag k="surface" v="paved"/>
  </way>
  <way id="25141156" version="3" timestamp="2010-07-07T22:49:15Z" uid="74617" user="JohnSmith" changeset="5162525">
    <nd ref="267669856"/>
    <nd ref="273975200"/>
    <nd ref="267669843"/>
    <nd ref="267669823"/>
    <nd ref="267669799"/>
    <tag k="highway" v="residential"/>
    <tag k="maxspeed" v="50"/>
    <tag k="maxspeed:source" v="default residential speed limit in Australia"/>
    <tag k="name" v="Homedale Street"/>
    <tag k="surface" v="paved"/>
  </way>
  <way id="25141156" version="4" timestamp="2012-01-16T19:58:29Z" uid="147510" user="woodpeck_fixbot" changeset="10410676">
    <nd ref="267669856"/>
    <nd ref="273975200"/>
    <nd ref="267669843"/>
    <nd ref="267669823"/>
    <nd ref="267669799"/>
    <tag k="highway" v="residential"/>
    <tag k="name" v="Homedale Street"/>
    <tag k="surface" v="paved"/>
  </way>
  <way id="25141158" version="2" timestamp="2010-07-07T22:44:57Z" uid="74617" user="JohnSmith" changeset="5162525">
    <nd ref="273975209"/>
    <nd ref="273975291"/>
    <nd ref="267669799"/>
    <tag k="highway" v="residential"/>
    <tag k="maxspeed" v="50"/>
    <tag k="maxspeed:source" v="default residential speed limit in Australia"/>
    <tag k="name" v="Valley Road"/>
    <tag k="surface" v="paved"/>
  </way>
  <way id="25141158" version="3" timestamp="2012-01-16T19:58:30Z" uid="147510" user="woodpeck_fixbot" changeset="10410676">
    <nd ref="273975209"/>
    <nd ref="273975291"/>
    <nd ref="267669799"/>
    <tag k="highway" v="residential"/>
    <tag k="name" v="Valley Road"/>
    <tag k="surface" v="paved"/>
  </way>
  <way id="25141159" version="2" timestamp="2010-07-07T22:47:15Z" uid="74617" user="JohnSmith" changeset="5162525">
    <nd ref="273975209"/>
    <nd ref="273975221"/>
    <nd ref="273975227"/>
    <nd ref="273975234"/>
    <nd ref="273975241"/>
    <nd ref="273975274"/>
    <nd ref="273975250"/>
    <tag k="highway" v="residential"/>
    <tag k="maxspeed" v="50"/>
    <tag k="maxspeed:source" v="default residential speed limit in Australia"/>
    <tag k="name" v="Picnic Glen"/>
    <tag k="surface" v="paved"/>
  </way>
  <way id="25141159" version="3" timestamp="2012-01-16T19:58:32Z" uid="147510" user="woodpeck_fixbot" changeset="10410676">
    <nd ref="273975209"/>
    <nd ref="273975221"/>
    <nd ref="273975227"/>
    <nd ref="273975234"/>
    <nd ref="273975241"/>
    <nd ref="273975274"/>
    <nd ref="273975250"/>
    <tag k="highway" v="residential"/>
    <tag k="name" v="Picnic Glen"/>
    <tag k="surface" v="paved"/>
  </way>
  <way id="25141161" version="2" timestamp="2009-08-03T21:53:18Z" uid="4467" user="Rosscoe" changeset="2030728">
    <nd ref="273975291"/>
    <nd ref="273975300"/>
    <nd ref="273975308"/>
    <nd ref="273975311"/>
    <nd ref="273975318"/>
    <nd ref="273975322"/>
    <nd ref="273975327"/>
    <nd ref="273975332"/>
    <nd ref="273975337"/>
    <nd ref="273975344"/>
    <nd ref="273975349"/>
    <nd ref="273975354"/>
    <nd ref="273975364"/>
    <nd ref="273975209"/>
    <tag k="access" v="private"/>
    <tag k="highway" v="residential"/>
    <tag k="name" v="The Glen Cresent"/>
    <tag k="oneway" v="yes"/>
    <tag k="surface" v="paved"/>
  </way>
  <way id="25141161" version="3" timestamp="2010-04-08T05:14:59Z" uid="30201" user="rrankin" changeset="4361025">
    <nd ref="273975291"/>
    <nd ref="273975300"/>
    <nd ref="273975308"/>
    <nd ref="273975311"/>
    <nd ref="688334294"/>
    <nd ref="273975318"/>
    <nd ref="273975322"/>
    <nd ref="273975327"/>
    <nd ref="273975332"/>
    <nd ref="273975337"/>
    <nd ref="273975344"/>
    <nd ref="273975349"/>
    <nd ref="273975354"/>
    <nd ref="273975364"/>
    <nd ref="273975209"/>
    <tag k="access" v="private"/>
    <tag k="highway" v="residential"/>
    <tag k="name" v="The Glen Cresent"/>
    <tag k="oneway" v="yes"/>
    <tag k="surface" v="paved"/>
  </way>
  <way id="25141161" version="4" timestamp="2010-07-07T22:49:50Z" uid="74617" user="JohnSmith" changeset="5162525">
    <nd ref="273975291"/>
    <nd ref="273975300"/>
    <nd ref="273975308"/>
    <nd ref="273975311"/>
    <nd ref="688334294"/>
    <nd ref="273975318"/>
    <nd ref="273975322"/>
    <nd ref="273975327"/>
    <nd ref="273975332"/>
    <nd ref="273975337"/>
    <nd ref="273975344"/>
    <nd ref="273975349"/>
    <nd ref="273975354"/>
    <nd ref="273975364"/>
    <nd ref="273975209"/>
    <tag k="access" v="private"/>
    <tag k="highway" v="residential"/>
    <tag k="maxspeed" v="50"/>
    <tag k="maxspeed:source" v="default residential speed limit in Australia"/>
    <tag k="name" v="The Glen Cresent"/>
    <tag k="oneway" v="yes"/>
    <tag k="surface" v="paved"/>
  </way>
  <way id="25141161" version="5" timestamp="2012-01-16T19:58:33Z" uid="147510" user="woodpeck_fixbot" changeset="10410676">
    <nd ref="273975291"/>
    <nd ref="273975300"/>
    <nd ref="273975308"/>
    <nd ref="273975311"/>
    <nd ref="688334294"/>
    <nd ref="273975318"/>
    <nd ref="273975322"/>
    <nd ref="273975327"/>
    <nd ref="273975332"/>
    <nd ref="273975337"/>
    <nd ref="273975344"/>
    <nd ref="273975349"/>
    <nd ref="273975354"/>
    <nd ref="273975364"/>
    <nd ref="273975209"/>
    <tag k="access" v="private"/>
    <tag k="highway" v="residential"/>
    <tag k="name" v="The Glen Cresent"/>
    <tag k="oneway" v="yes"/>
    <tag k="surface" v="paved"/>
  </way>
  <way id="25141162" version="2" timestamp="2010-07-07T22:53:42Z" uid="74617" user="JohnSmith" changeset="5162525">
    <nd ref="267669798"/>
    <nd ref="267669797"/>
    <nd ref="273975370"/>
    <nd ref="267669796"/>
    <nd ref="273975392"/>
    <nd ref="273975398"/>
    <nd ref="267669794"/>
    <nd ref="273975405"/>
    <nd ref="273975411"/>
    <nd ref="273975418"/>
    <nd ref="273975441"/>
    <nd ref="273975447"/>
    <tag k="highway" v="residential"/>
    <tag k="maxspeed" v="50"/>
    <tag k="maxspeed:source" v="default residential speed limit in Australia"/>
    <tag k="name" v="Bee Farm Road"/>
    <tag k="surface" v="paved"/>
  </way>
  <way id="25141162" version="3" timestamp="2012-01-16T19:58:35Z" uid="147510" user="woodpeck_fixbot" changeset="10410676">
    <nd ref="267669798"/>
    <nd ref="267669797"/>
    <nd ref="273975370"/>
    <nd ref="267669796"/>
    <nd ref="273975392"/>
    <nd ref="273975398"/>
    <nd ref="267669794"/>
    <nd ref="273975405"/>
    <nd ref="273975411"/>
    <nd ref="273975418"/>
    <nd ref="273975441"/>
    <nd ref="273975447"/>
    <tag k="highway" v="residential"/>
    <tag k="name" v="Bee Farm Road"/>
    <tag k="surface" v="paved"/>
  </way>
  <way id="25141163" version="2" timestamp="2010-07-07T22:45:30Z" uid="74617" user="JohnSmith" changeset="5162525">
    <nd ref="273975441"/>
    <nd ref="273975459"/>
    <nd ref="273975464"/>
    <nd ref="273975471"/>
    <nd ref="273975476"/>
    <tag k="highway" v="residential"/>
    <tag k="maxspeed" v="50"/>
    <tag k="maxspeed:source" v="default residential speed limit in Australia"/>
    <tag k="name" v="Yondell Avenue"/>
    <tag k="surface" v="paved"/>
  </way>
  <way id="25141163" version="3" timestamp="2012-01-16T19:58:36Z" uid="147510" user="woodpeck_fixbot" changeset="10410676">
    <nd ref="273975441"/>
    <nd ref="273975459"/>
    <nd ref="273975464"/>
    <nd ref="273975471"/>
    <nd ref="273975476"/>
    <tag k="highway" v="residential"/>
    <tag k="name" v="Yondell Avenue"/>
    <tag k="surface" v="paved"/>
  </way>
  <way id="25141166" version="2" timestamp="2010-07-07T22:52:07Z" uid="74617" user="JohnSmith" changeset="5162525">
    <nd ref="267669798"/>
    <nd ref="273975491"/>
    <nd ref="273975498"/>
    <nd ref="273975504"/>
    <nd ref="273975511"/>
    <tag k="highway" v="residential"/>
    <tag k="maxspeed" v="50"/>
    <tag k="maxspeed:source" v="default residential speed limit in Australia"/>
    <tag k="name" v="Valley Road"/>
    <tag k="surface" v="paved"/>
  </way>
  <way id="25141166" version="3" timestamp="2012-01-16T19:58:37Z" uid="147510" user="woodpeck_fixbot" changeset="10410676">
    <nd ref="267669798"/>
    <nd ref="273975491"/>
    <nd ref="273975498"/>
    <nd ref="273975504"/>
    <nd ref="273975511"/>
    <tag k="highway" v="residential"/>
    <tag k="name" v="Valley Road"/>
    <tag k="surface" v="paved"/>
  </way>
  <way id="25141167" version="2" timestamp="2010-07-07T22:44:03Z" uid="74617" user="JohnSmith" changeset="5162525">
    <nd ref="72371721"/>
    <nd ref="273975511"/>
    <tag k="highway" v="residential"/>
    <tag k="maxspeed" v="50"/>
    <tag k="maxspeed:source" v="default residential speed limit in Australia"/>
    <tag k="name" v="Short Street"/>
    <tag k="surface" v="paved"/>
  </way>
  <way id="25141167" version="3" timestamp="2012-01-16T19:58:38Z" uid="147510" user="woodpeck_fixbot" changeset="10410676">
    <nd ref="72371721"/>
    <nd ref="273975511"/>
    <tag k="highway" v="residential"/>
    <tag k="name" v="Short Street"/>
    <tag k="surface" v="paved"/>
  </way>
  <way id="25141168" version="2" timestamp="2010-07-07T22:47:03Z" uid="74617" user="JohnSmith" changeset="5162525">
    <nd ref="273975511"/>
    <nd ref="273975518"/>
    <nd ref="273975523"/>
    <nd ref="273975528"/>
    <tag k="highway" v="residential"/>
    <tag k="maxspeed" v="50"/>
    <tag k="maxspeed:source" v="default residential speed limit in Australia"/>
    <tag k="name" v="Pitt Street"/>
    <tag k="surface" v="paved"/>
  </way>
  <way id="25141168" version="3" timestamp="2012-01-16T19:58:39Z" uid="147510" user="woodpeck_fixbot" changeset="10410676">
    <nd ref="273975511"/>
    <nd ref="273975518"/>
    <nd ref="273975523"/>
    <nd ref="273975528"/>
    <tag k="highway" v="residential"/>
    <tag k="name" v="Pitt Street"/>
    <tag k="surface" v="paved"/>
  </way>
  <way id="25141170" version="4" timestamp="2010-07-07T22:53:00Z" uid="74617" user="JohnSmith" changeset="5162525">
    <nd ref="273975504"/>
    <nd ref="685120995"/>
    <nd ref="339277226"/>
    <tag k="highway" v="residential"/>
    <tag k="maxspeed" v="50"/>
    <tag k="maxspeed:source" v="default residential speed limit in Australia"/>
    <tag k="name" v="Sassafras Gully Road"/>
    <tag k="surface" v="paved"/>
  </way>
  <way id="25141170" version="5" timestamp="2012-01-16T19:58:41Z" uid="147510" user="woodpeck_fixbot" changeset="10410676">
    <nd ref="273975504"/>
    <nd ref="685120995"/>
    <nd ref="339277226"/>
    <tag k="highway" v="residential"/>
    <tag k="name" v="Sassafras Gully Road"/>
    <tag k="surface" v="paved"/>
  </way>
  <way id="25141172" version="2" timestamp="2010-07-07T22:45:19Z" uid="74617" user="JohnSmith" changeset="5162525">
    <nd ref="273975534"/>
    <nd ref="273975542"/>
    <nd ref="273975549"/>
    <nd ref="273975528"/>
    <nd ref="273975556"/>
    <nd ref="273975564"/>
    <nd ref="273975572"/>
    <nd ref="273975581"/>
    <tag k="highway" v="residential"/>
    <tag k="maxspeed" v="50"/>
    <tag k="maxspeed:source" v="default residential speed limit in Australia"/>
    <tag k="name" v="Crane Street"/>
    <tag k="surface" v="paved"/>
  </way>
  <way id="25141172" version="3" timestamp="2012-01-16T19:58:42Z" uid="147510" user="woodpeck_fixbot" changeset="10410676">
    <nd ref="273975534"/>
    <nd ref="273975542"/>
    <nd ref="273975549"/>
    <nd ref="273975528"/>
    <nd ref="273975556"/>
    <nd ref="273975564"/>
    <nd ref="273975572"/>
    <nd ref="273975581"/>
    <tag k="highway" v="residential"/>
    <tag k="name" v="Crane Street"/>
    <tag k="surface" v="paved"/>
  </way>
  <way id="25141173" version="2" timestamp="2010-07-07T22:47:39Z" uid="74617" user="JohnSmith" changeset="5162525">
    <nd ref="72371671"/>
    <nd ref="273975523"/>
    <nd ref="273975581"/>
    <tag k="highway" v="residential"/>
    <tag k="maxspeed" v="50"/>
    <tag k="maxspeed:source" v="default residential speed limit in Australia"/>
    <tag k="name" v="Stanway Avenue"/>
    <tag k="surface" v="paved"/>
  </way>
  <way id="25141173" version="3" timestamp="2012-01-16T19:58:43Z" uid="147510" user="woodpeck_fixbot" changeset="10410676">
    <nd ref="72371671"/>
    <nd ref="273975523"/>
    <nd ref="273975581"/>
    <tag k="highway" v="residential"/>
    <tag k="name" v="Stanway Avenue"/>
    <tag k="surface" v="paved"/>
  </way>
  <way id="25141181" version="5" timestamp="2010-07-07T07:57:36Z" uid="74617" user="JohnSmith" changeset="5156250">
    <nd ref="276898247"/>
    <nd ref="273975749"/>
    <nd ref="273976149"/>
    <nd ref="470094836"/>
    <nd ref="273976020"/>
    <tag k="highway" v="residential"/>
    <tag k="maxspeed" v="50"/>
    <tag k="maxspeed:source" v="default residential speed limit in Australia"/>
    <tag k="name" v="Cambridge Street"/>
  </way>
  <way id="25141181" version="6" timestamp="2011-01-25T03:19:15Z" uid="349913" user="Peter W34" changeset="7080169">
    <nd ref="276898247"/>
    <nd ref="273975749"/>
    <nd ref="273976149"/>
    <nd ref="470094836"/>
    <nd ref="273976020"/>
    <nd ref="1119591890"/>
    <nd ref="1119592035"/>
    <nd ref="1119591914"/>
    <tag k="highway" v="residential"/>
    <tag k="maxspeed" v="50"/>
    <tag k="maxspeed:source" v="default residential speed limit in Australia"/>
    <tag k="name" v="Cambridge Street"/>
    <tag k="source" v="bing"/>
  </way>
  <way id="25141181" version="7" timestamp="2011-01-25T03:40:34Z" uid="349913" user="Peter W34" changeset="7080169">
    <nd ref="276898247"/>
    <nd ref="273975749"/>
    <nd ref="1119593841"/>
    <nd ref="1119593852"/>
    <nd ref="273976149"/>
    <nd ref="470094836"/>
    <nd ref="1119593832"/>
    <nd ref="1119593846"/>
    <nd ref="273976020"/>
    <nd ref="1119591890"/>
    <nd ref="1119592035"/>
    <nd ref="1119591914"/>
    <tag k="highway" v="residential"/>
    <tag k="maxspeed" v="50"/>
    <tag k="maxspeed:source" v="default residential speed limit in Australia"/>
    <tag k="name" v="Cambridge Street"/>
    <tag k="source" v="bing"/>
  </way>
  <way id="25141181" version="8" timestamp="2011-04-07T10:10:35Z" uid="22094" user="Chadzopkyo" changeset="7793028">
    <nd ref="276898247"/>
    <nd ref="273975749"/>
    <nd ref="1119593841"/>
    <nd ref="1119593852"/>
    <nd ref="273976149"/>
    <nd ref="470094836"/>
    <nd ref="1119593832"/>
    <nd ref="1119593846"/>
    <nd ref="273976020"/>
    <nd ref="1119591890"/>
    <nd ref="1119592035"/>
    <nd ref="1235802398"/>
    <nd ref="1119591914"/>
    <tag k="highway" v="residential"/>
    <tag k="maxspeed" v="50"/>
    <tag k="maxspeed:source" v="default residential speed limit in Australia"/>
    <tag k="name" v="Cambridge Street"/>
    <tag k="source" v="GPS"/>
    <tag k="surface" v="asphalt"/>
  </way>
  <way id="25141181" version="9" timestamp="2011-04-07T10:39:43Z" uid="22094" user="Chadzopkyo" changeset="7793255">
    <nd ref="276898247"/>
    <nd ref="273975749"/>
    <nd ref="1119593841"/>
    <nd ref="1119593852"/>
    <nd ref="273976149"/>
    <nd ref="470094836"/>
    <nd ref="1119593832"/>
    <nd ref="1119593846"/>
    <nd ref="273976020"/>
    <nd ref="1235820803"/>
    <nd ref="1119591890"/>
    <nd ref="1119592035"/>
    <nd ref="1235802398"/>
    <nd ref="1119591914"/>
    <tag k="highway" v="residential"/>
    <tag k="maxspeed" v="50"/>
    <tag k="maxspeed:source" v="default residential speed limit in Australia"/>
    <tag k="name" v="Cambridge Street"/>
    <tag k="source" v="GPS"/>
    <tag k="surface" v="asphalt"/>
  </way>
  <way id="25141181" version="10" timestamp="2011-04-08T05:40:29Z" uid="22094" user="Chadzopkyo" changeset="7800884">
    <nd ref="276898247"/>
    <nd ref="273975749"/>
    <nd ref="1119593841"/>
    <nd ref="1119593843"/>
    <nd ref="1119593852"/>
    <nd ref="273976149"/>
    <nd ref="470094836"/>
    <nd ref="1119593832"/>
    <nd ref="1119593846"/>
    <nd ref="273976020"/>
    <nd ref="1235820803"/>
    <nd ref="1119591890"/>
    <nd ref="1119592035"/>
    <nd ref="1235802398"/>
    <nd ref="1119591914"/>
    <tag k="highway" v="residential"/>
    <tag k="maxspeed" v="50"/>
    <tag k="maxspeed:source" v="default residential speed limit in Australia"/>
    <tag k="name" v="Cambridge Street"/>
    <tag k="source" v="GPS"/>
    <tag k="surface" v="asphalt"/>
  </way>
  <way id="25141181" version="11" timestamp="2012-01-16T19:58:45Z" uid="147510" user="woodpeck_fixbot" changeset="10410676">
    <nd ref="276898247"/>
    <nd ref="273975749"/>
    <nd ref="1119593841"/>
    <nd ref="1119593843"/>
    <nd ref="1119593852"/>
    <nd ref="273976149"/>
    <nd ref="470094836"/>
    <nd ref="1119593832"/>
    <nd ref="1119593846"/>
    <nd ref="273976020"/>
    <nd ref="1235820803"/>
    <nd ref="1119591890"/>
    <nd ref="1119592035"/>
    <nd ref="1235802398"/>
    <nd ref="1119591914"/>
    <tag k="highway" v="residential"/>
    <tag k="name" v="Cambridge Street"/>
    <tag k="source" v="GPS"/>
    <tag k="surface" v="asphalt"/>
  </way>
  <way id="25141213" version="2" timestamp="2010-07-07T07:57:21Z" uid="74617" user="JohnSmith" changeset="5156250">
    <nd ref="273976149"/>
    <nd ref="273976352"/>
    <tag k="highway" v="residential"/>
    <tag k="maxspeed" v="50"/>
    <tag k="maxspeed:source" v="default residential speed limit in Australia"/>
    <tag k="name" v="Bligh Street"/>
  </way>
  <way id="25141213" version="3" timestamp="2011-01-25T03:40:35Z" uid="349913" user="Peter W34" changeset="7080169">
    <nd ref="273976149"/>
    <nd ref="1119593820"/>
    <nd ref="1119593844"/>
    <nd ref="273976352"/>
    <tag k="highway" v="residential"/>
    <tag k="maxspeed" v="50"/>
    <tag k="maxspeed:source" v="default residential speed limit in Australia"/>
    <tag k="name" v="Bligh Street"/>
  </way>
  <way id="25141213" version="4" timestamp="2011-03-31T11:30:17Z" uid="349913" user="Peter W34" changeset="7725227">
    <nd ref="273976149"/>
    <nd ref="1119593820"/>
    <nd ref="1119593844"/>
    <nd ref="273976352"/>
    <nd ref="1226600413"/>
    <nd ref="1226600454"/>
    <nd ref="1226600412"/>
    <nd ref="1226600397"/>
    <nd ref="1226600415"/>
    <tag k="highway" v="residential"/>
    <tag k="maxspeed" v="50"/>
    <tag k="maxspeed:source" v="default residential speed limit in Australia"/>
    <tag k="name" v="Bligh Street"/>
    <tag k="source" v="Bing"/>
  </way>
  <way id="25141213" version="5" timestamp="2011-04-07T11:57:07Z" uid="22094" user="Chadzopkyo" changeset="7793920">
    <nd ref="273976149"/>
    <nd ref="1119593820"/>
    <nd ref="1119593844"/>
    <nd ref="273976352"/>
    <nd ref="1235876238"/>
    <nd ref="1226600413"/>
    <nd ref="1226600454"/>
    <nd ref="1226600412"/>
    <nd ref="1226600397"/>
    <nd ref="1226600415"/>
    <tag k="highway" v="residential"/>
    <tag k="maxspeed" v="50"/>
    <tag k="maxspeed:source" v="default residential speed limit in Australia"/>
    <tag k="name" v="Bligh Street"/>
    <tag k="source" v="GPS"/>
    <tag k="surface" v="asphalt"/>
  </way>
  <way id="25141213" version="6" timestamp="2012-01-16T19:58:46Z" uid="147510" user="woodpeck_fixbot" changeset="10410676">
    <nd ref="273976149"/>
    <nd ref="1119593820"/>
    <nd ref="1119593844"/>
    <nd ref="273976352"/>
    <nd ref="1235876238"/>
    <nd ref="1226600413"/>
    <nd ref="1226600454"/>
    <nd ref="1226600412"/>
    <nd ref="1226600397"/>
    <nd ref="1226600415"/>
    <tag k="highway" v="residential"/>
    <tag k="name" v="Bligh Street"/>
    <tag k="source" v="GPS"/>
    <tag k="surface" v="asphalt"/>
  </way>
  <way id="25141215" version="3" timestamp="2009-10-07T16:18:50Z" uid="86259" user="hasse_osm_korinthenkacker" changeset="2773292">
    <nd ref="273975434"/>
    <nd ref="273976373"/>
    <nd ref="273984339"/>
    <nd ref="273976374"/>
    <tag k="foot" v="yes"/>
    <tag k="highway" v="footway"/>
    <tag k="surface" v="unpaved"/>
  </way>
  <way id="25141259" version="5" timestamp="2009-06-05T05:01:45Z" uid="74617" user="JohnSmith" changeset="1426159">
    <nd ref="273976604"/>
    <nd ref="273976900"/>
    <nd ref="276896630"/>
    <nd ref="273973589"/>
    <tag k="created_by" v="Potlatch 0.9c"/>
    <tag k="highway" v="tertiary"/>
    <tag k="name" v="Through Street"/>
  </way>
  <way id="25141259" version="6" timestamp="2011-03-31T11:30:14Z" uid="349913" user="Peter W34" changeset="7725227">
    <nd ref="273976604"/>
    <nd ref="273976900"/>
    <nd ref="276896630"/>
    <nd ref="1226600419"/>
    <nd ref="273973589"/>
    <tag k="highway" v="tertiary"/>
    <tag k="name" v="Through Street"/>
  </way>
  <way id="25141259" version="7" timestamp="2011-04-07T12:56:11Z" uid="22094" user="Chadzopkyo" changeset="7794420">
    <nd ref="273976604"/>
    <nd ref="273976900"/>
    <nd ref="276896630"/>
    <nd ref="1235955427"/>
    <nd ref="1226600419"/>
    <nd ref="273973589"/>
    <tag k="highway" v="tertiary"/>
    <tag k="name" v="Through Street"/>
  </way>
  <way id="25141259" version="8" timestamp="2011-04-08T05:40:46Z" uid="22094" user="Chadzopkyo" changeset="7800884">
    <nd ref="273976604"/>
    <nd ref="1236946102"/>
    <nd ref="276896630"/>
    <nd ref="1235955427"/>
    <nd ref="1226600419"/>
    <nd ref="273973589"/>
    <tag k="highway" v="tertiary"/>
    <tag k="name" v="Through Street"/>
    <tag k="source" v="GPS"/>
    <tag k="surface" v="asphalt"/>
  </way>
  <way id="25141312" version="2" timestamp="2008-07-05T21:35:58Z" uid="6975" user="ulfl" changeset="404092">
    <nd ref="245766274"/>
    <nd ref="273977727"/>
    <tag k="bicycle" v="yes"/>
    <tag k="highway" v="footway"/>
    <tag k="name" v="Carlo-Schmid-Weg"/>
  </way>
  <way id="25141312" version="3" timestamp="2008-07-07T11:52:18Z" uid="35571" user="theblackcat" changeset="417319">
    <nd ref="245766274"/>
    <nd ref="273977727"/>
    <tag k="bicycle" v="yes"/>
    <tag k="highway" v="footway"/>
    <tag k="name" v="Carlo-Schmid-Weg"/>
    <tag k="source" v="GPS"/>
  </way>
  <way id="25141312" version="4" timestamp="2012-02-19T09:15:01Z" uid="75623" user="KTim" changeset="10727601">
    <nd ref="1638793322"/>
    <nd ref="273977727"/>
    <tag k="bicycle" v="yes"/>
    <tag k="highway" v="footway"/>
    <tag k="name" v="Carlo-Schmid-Weg"/>
    <tag k="source" v="GPS"/>
  </way>
  <way id="25141365" version="5" timestamp="2009-10-07T16:17:56Z" uid="86259" user="hasse_osm_korinthenkacker" changeset="2773292">
    <nd ref="273976374"/>
    <nd ref="273978284"/>
    <nd ref="273978285"/>
    <nd ref="273978286"/>
    <nd ref="273978287"/>
    <nd ref="273978289"/>
    <nd ref="445007716"/>
    <tag k="foot" v="yes"/>
    <tag k="highway" v="footway"/>
    <tag k="name" v="Jacob-Hansen-Weg"/>
    <tag k="surface" v="unpaved"/>
  </way>
  <way id="25141495" version="3" timestamp="2010-07-07T07:56:59Z" uid="74617" user="JohnSmith" changeset="5156250">
    <nd ref="269914831"/>
    <nd ref="273981111"/>
    <nd ref="245508077"/>
    <tag k="highway" v="residential"/>
    <tag k="maxspeed" v="50"/>
    <tag k="maxspeed:source" v="default residential speed limit in Australia"/>
    <tag k="name" v="larence Street"/>
  </way>
  <way id="25141495" version="4" timestamp="2011-04-01T07:46:22Z" uid="349913" user="Peter W34" changeset="7732861">
    <nd ref="269914831"/>
    <nd ref="273981111"/>
    <nd ref="1227704753"/>
    <nd ref="1227704784"/>
    <nd ref="1227704782"/>
    <tag k="highway" v="residential"/>
    <tag k="maxspeed" v="50"/>
    <tag k="maxspeed:source" v="default residential speed limit in Australia"/>
    <tag k="name" v="larence Street"/>
  </way>
  <way id="25141495" version="5" timestamp="2011-04-01T09:25:27Z" uid="349913" user="Peter W34" changeset="7733642">
    <nd ref="269914831"/>
    <nd ref="273981111"/>
    <nd ref="1227704753"/>
    <tag k="highway" v="residential"/>
    <tag k="maxspeed" v="50"/>
    <tag k="maxspeed:source" v="default residential speed limit in Australia"/>
    <tag k="name" v="larence Street"/>
  </way>
  <way id="25141495" version="6" timestamp="2011-10-02T09:53:56Z" uid="22094" user="Chadzopkyo" changeset="9449147">
    <nd ref="269914831"/>
    <nd ref="1451809834"/>
    <nd ref="273981111"/>
    <nd ref="1227704753"/>
    <tag k="highway" v="residential"/>
    <tag k="maxspeed" v="50"/>
    <tag k="maxspeed:source" v="default residential speed limit in Australia"/>
    <tag k="name" v="larence Street"/>
  </way>
  <way id="25141495" version="7" timestamp="2012-01-16T19:59:00Z" uid="147510" user="woodpeck_fixbot" changeset="10410676">
    <nd ref="269914831"/>
    <nd ref="1451809834"/>
    <nd ref="273981111"/>
    <nd ref="1227704753"/>
    <tag k="highway" v="residential"/>
    <tag k="name" v="larence Street"/>
  </way>
  <way id="25141512" version="7" timestamp="2010-07-07T07:57:54Z" uid="74617" user="JohnSmith" changeset="5156250">
    <nd ref="273981038"/>
    <nd ref="273981079"/>
    <nd ref="273981080"/>
    <tag k="highway" v="residential"/>
    <tag k="maxspeed" v="50"/>
    <tag k="maxspeed:source" v="default residential speed limit in Australia"/>
    <tag k="name" v="Fitzroy Street"/>
  </way>
  <way id="25141512" version="8" timestamp="2012-01-16T19:59:01Z" uid="147510" user="woodpeck_fixbot" changeset="10410676">
    <nd ref="273981038"/>
    <nd ref="273981079"/>
    <nd ref="273981080"/>
    <tag k="highway" v="residential"/>
    <tag k="name" v="Fitzroy Street"/>
  </way>
  <way id="25141532" version="3" timestamp="2010-07-08T00:01:07Z" uid="74617" user="JohnSmith" changeset="5162525">
    <nd ref="273981060"/>
    <nd ref="273981440"/>
    <tag k="highway" v="residential"/>
    <tag k="maxspeed" v="50"/>
    <tag k="maxspeed:source" v="default residential speed limit in Australia"/>
    <tag k="name" v="Kathy Close"/>
    <tag k="source" v="survey"/>
  </way>
  <way id="25141532" version="4" timestamp="2010-07-08T00:11:12Z" uid="74617" user="JohnSmith" changeset="5162525">
    <nd ref="273981060"/>
    <nd ref="273981440"/>
    <tag k="highway" v="residential"/>
    <tag k="maxspeed" v="50"/>
    <tag k="maxspeed:source" v="default residential speed limit in Australia"/>
    <tag k="name" v="Kathy Close"/>
    <tag k="source" v="survey"/>
  </way>
  <way id="25141532" version="5" timestamp="2012-01-16T19:59:02Z" uid="147510" user="woodpeck_fixbot" changeset="10410676">
    <nd ref="273981060"/>
    <nd ref="273981440"/>
    <tag k="highway" v="residential"/>
    <tag k="name" v="Kathy Close"/>
    <tag k="source" v="survey"/>
  </way>
  <way id="25141533" version="4" timestamp="2009-07-26T23:05:38Z" uid="4467" user="Rosscoe" changeset="1950498">
    <nd ref="273981519"/>
    <nd ref="273981521"/>
    <nd ref="283601502"/>
    <nd ref="283601503"/>
    <nd ref="283601506"/>
    <nd ref="283601493"/>
    <nd ref="448772519"/>
    <nd ref="283601488"/>
    <tag k="highway" v="residential"/>
    <tag k="name" v="Kent Street"/>
  </way>
  <way id="25141533" version="5" timestamp="2009-08-13T03:55:02Z" uid="24459" user="RRover" changeset="2126351">
    <nd ref="273981519"/>
    <nd ref="463153429"/>
    <nd ref="273981521"/>
    <nd ref="283601502"/>
    <nd ref="283601503"/>
    <nd ref="283601506"/>
    <nd ref="283601493"/>
    <nd ref="448772519"/>
    <nd ref="283601488"/>
    <tag k="highway" v="residential"/>
    <tag k="name" v="Kent Street"/>
  </way>
  <way id="25141533" version="6" timestamp="2010-07-07T07:57:51Z" uid="74617" user="JohnSmith" changeset="5156250">
    <nd ref="273981519"/>
    <nd ref="463153429"/>
    <nd ref="273981521"/>
    <nd ref="283601502"/>
    <nd ref="283601503"/>
    <nd ref="283601506"/>
    <nd ref="283601493"/>
    <nd ref="448772519"/>
    <nd ref="283601488"/>
    <tag k="highway" v="residential"/>
    <tag k="maxspeed" v="50"/>
    <tag k="maxspeed:source" v="default residential speed limit in Australia"/>
    <tag k="name" v="Kent Street"/>
  </way>
  <way id="25141533" version="7" timestamp="2011-04-01T07:46:23Z" uid="349913" user="Peter W34" changeset="7732861">
    <nd ref="273981519"/>
    <nd ref="1227704711"/>
    <nd ref="273981521"/>
    <nd ref="1227704709"/>
    <nd ref="283601503"/>
    <nd ref="283601506"/>
    <nd ref="283601493"/>
    <nd ref="448772519"/>
    <nd ref="283601488"/>
    <tag k="highway" v="residential"/>
    <tag k="maxspeed" v="50"/>
    <tag k="maxspeed:source" v="default residential speed limit in Australia"/>
    <tag k="name" v="Kent Street"/>
  </way>
  <way id="25141533" version="8" timestamp="2012-01-16T19:59:03Z" uid="147510" user="woodpeck_fixbot" changeset="10410676">
    <nd ref="273981519"/>
    <nd ref="1227704711"/>
    <nd ref="273981521"/>
    <nd ref="1227704709"/>
    <nd ref="283601503"/>
    <nd ref="283601506"/>
    <nd ref="283601493"/>
    <nd ref="448772519"/>
    <nd ref="283601488"/>
    <tag k="highway" v="residential"/>
    <tag k="name" v="Kent Street"/>
  </way>
  <way id="25141534" version="3" timestamp="2010-07-07T07:57:23Z" uid="74617" user="JohnSmith" changeset="5156250">
    <nd ref="273981111"/>
    <nd ref="273981519"/>
    <tag k="highway" v="residential"/>
    <tag k="maxspeed" v="50"/>
    <tag k="maxspeed:source" v="default residential speed limit in Australia"/>
    <tag k="name" v="Fitzroy Street"/>
  </way>
  <way id="25141534" version="4" timestamp="2011-04-01T07:46:22Z" uid="349913" user="Peter W34" changeset="7732861">
    <nd ref="273981111"/>
    <nd ref="1227704750"/>
    <nd ref="273981519"/>
    <tag k="highway" v="residential"/>
    <tag k="maxspeed" v="50"/>
    <tag k="maxspeed:source" v="default residential speed limit in Australia"/>
    <tag k="name" v="Fitzroy Street"/>
  </way>
  <way id="25141534" version="5" timestamp="2012-01-16T19:59:05Z" uid="147510" user="woodpeck_fixbot" changeset="10410676">
    <nd ref="273981111"/>
    <nd ref="1227704750"/>
    <nd ref="273981519"/>
    <tag k="highway" v="residential"/>
    <tag k="name" v="Fitzroy Street"/>
  </way>
  <way id="25141592" version="6" timestamp="2008-12-21T15:23:26Z" uid="27600" user="Islanit" changeset="518915">
    <nd ref="273982464"/>
    <nd ref="273982466"/>
    <nd ref="320576503"/>
    <nd ref="273982469"/>
    <nd ref="320576501"/>
    <nd ref="310444601"/>
    <nd ref="273982471"/>
    <nd ref="310444719"/>
    <nd ref="273982473"/>
    <tag k="created_by" v="Potlatch 0.10f"/>
    <tag k="highway" v="residential"/>
    <tag k="name" v="Wrangelstrae"/>
  </way>
  <way id="25141592" version="7" timestamp="2009-01-25T15:31:01Z" uid="54195" user="dodi81" changeset="834391">
    <nd ref="273982464"/>
    <nd ref="273982466"/>
    <nd ref="320576503"/>
    <nd ref="273982469"/>
    <nd ref="336359496"/>
    <nd ref="310444601"/>
    <nd ref="273982471"/>
    <nd ref="310444719"/>
    <nd ref="273982473"/>
    <tag k="created_by" v="Potlatch 0.10f"/>
    <tag k="highway" v="residential"/>
    <tag k="name" v="Wrangelstrae"/>
  </way>
  <way id="25141592" version="8" timestamp="2010-04-28T17:43:50Z" uid="162465" user="ckol" changeset="4551487">
    <nd ref="273982464"/>
    <nd ref="273982466"/>
    <nd ref="320576503"/>
    <nd ref="273982469"/>
    <nd ref="336359496"/>
    <nd ref="310444601"/>
    <nd ref="273982471"/>
    <nd ref="310444719"/>
    <nd ref="273982473"/>
    <tag k="highway" v="residential"/>
    <tag k="name" v="Wrangelstrae"/>
  </way>
  <way id="25141592" version="9" timestamp="2012-02-17T22:13:09Z" uid="162465" user="ckol" changeset="10715722">
    <nd ref="273982464"/>
    <nd ref="1637088021"/>
    <nd ref="273982466"/>
    <nd ref="320576503"/>
    <nd ref="273982469"/>
    <nd ref="336359496"/>
    <nd ref="310444601"/>
    <nd ref="273982471"/>
    <nd ref="310444719"/>
    <nd ref="273982473"/>
    <tag k="highway" v="residential"/>
    <tag k="name" v="Wrangelstrae"/>
  </way>
  <way id="25141592" version="10" timestamp="2012-03-05T00:42:11Z" uid="497849" user="pyram" changeset="10875566">
    <nd ref="273982464"/>
    <nd ref="1637088021"/>
    <nd ref="273982466"/>
    <nd ref="1659885575"/>
    <nd ref="273982469"/>
    <nd ref="336359496"/>
    <nd ref="310444601"/>
    <nd ref="273982471"/>
    <nd ref="310444719"/>
    <nd ref="273982473"/>
    <tag k="highway" v="residential"/>
    <tag k="name" v="Wrangelstrae"/>
  </way>
  <way id="25141775" version="2" timestamp="2009-10-07T16:17:34Z" uid="86259" user="hasse_osm_korinthenkacker" changeset="2773292">
    <nd ref="273984949"/>
    <nd ref="273985325"/>
    <nd ref="273981322"/>
    <nd ref="273979918"/>
    <nd ref="273985327"/>
    <nd ref="273985328"/>
    <tag k="highway" v="unclassified"/>
    <tag k="name" v="Friedensweg"/>
  </way>
  <way id="25141775" version="3" timestamp="2010-06-06T21:22:03Z" uid="40397" user="Zartbitter" changeset="4922951">
    <nd ref="273984949"/>
    <nd ref="273985325"/>
    <nd ref="273981322"/>
    <nd ref="273979918"/>
    <nd ref="273985327"/>
    <nd ref="273985328"/>
    <tag k="highway" v="residential"/>
    <tag k="name" v="Friedensweg"/>
  </way>
  <way id="25141775" version="4" timestamp="2012-03-04T09:59:56Z" uid="121531" user="padrone" changeset="10866373">
    <nd ref="273984949"/>
    <nd ref="273985325"/>
    <nd ref="273981322"/>
    <nd ref="1658779666"/>
    <nd ref="273979918"/>
    <nd ref="273985327"/>
    <nd ref="273985328"/>
    <tag k="highway" v="residential"/>
    <tag k="name" v="Friedensweg"/>
  </way>
  <way id="25141823" version="3" timestamp="2009-09-30T13:06:44Z" uid="36809" user="pfoten_weg_!_" changeset="2687886">
    <nd ref="26793782"/>
    <nd ref="26793783"/>
    <nd ref="26793784"/>
    <tag k="piste:difficulty" v="easy"/>
    <tag k="piste:type" v="downhill"/>
  </way>
  <way id="25141823" version="4" timestamp="2010-03-27T17:26:48Z" uid="13832" user="Peter14" changeset="4248793">
    <nd ref="26793782"/>
    <nd ref="26793783"/>
    <nd ref="26793784"/>
    <nd ref="26793777"/>
    <tag k="piste:difficulty" v="easy"/>
    <tag k="piste:type" v="downhill"/>
  </way>
  <way id="25141824" version="3" timestamp="2009-09-30T13:06:07Z" uid="36809" user="pfoten_weg_!_" changeset="2687886">
    <nd ref="26793784"/>
    <nd ref="26793785"/>
    <nd ref="26793786"/>
    <nd ref="26793787"/>
    <nd ref="26793788"/>
    <nd ref="26793789"/>
    <nd ref="26793790"/>
    <nd ref="26793791"/>
    <nd ref="26793792"/>
    <nd ref="26793793"/>
    <nd ref="26793794"/>
    <nd ref="26793795"/>
    <nd ref="26793796"/>
    <nd ref="26793797"/>
    <tag k="name" v="Slalomhang"/>
    <tag k="piste:difficulty" v="intermediate"/>
    <tag k="piste:type" v="downhill"/>
    <tag k="ref" v="8"/>
  </way>
  <way id="25141824" version="4" timestamp="2011-02-02T21:04:14Z" uid="140038" user="Osmose" changeset="7168776">
    <nd ref="26793784"/>
    <nd ref="26793785"/>
    <nd ref="26793786"/>
    <nd ref="26793787"/>
    <nd ref="26793788"/>
    <nd ref="26793789"/>
    <nd ref="26793790"/>
    <nd ref="26793791"/>
    <nd ref="26793792"/>
    <nd ref="26793793"/>
    <nd ref="26793794"/>
    <nd ref="26793795"/>
    <nd ref="313311283"/>
    <tag k="name" v="Gefrorene Wand"/>
    <tag k="piste:difficulty" v="intermediate"/>
    <tag k="piste:type" v="downhill"/>
    <tag k="ref" v="4"/>
  </way>
  <way id="25141943" version="5" timestamp="2010-07-09T08:05:11Z" uid="74617" user="JohnSmith" changeset="5171412">
    <nd ref="273988060"/>
    <nd ref="273988059"/>
    <nd ref="273988688"/>
    <tag k="highway" v="residential"/>
    <tag k="maxspeed" v="50"/>
    <tag k="maxspeed:source" v="default residential speed limit in Australia"/>
  </way>
  <way id="25141943" version="6" timestamp="2012-01-16T19:59:07Z" uid="147510" user="woodpeck_fixbot" changeset="10410676">
    <nd ref="273988060"/>
    <nd ref="273988059"/>
    <nd ref="273988688"/>
    <tag k="highway" v="residential"/>
  </way>
</osm>
