<?xml version='1.0' encoding='UTF-8'?>
<osm version="0.6" generator="libosmium/2.20.0">
  <way id="25145606" version="3" timestamp="2009-06-10T04:03:47Z" uid="20587" user="balrog-kun" changeset="1473633">
    <nd ref="274048226"/>
    <nd ref="417898259"/>
    <nd ref="273212649"/>
    <tag k="created_by" v="Merkaartor 0.11"/>
    <tag k="highway" v="unclassified"/>
    <tag k="name" v="25-lecia PRL"/>
  </way>
  <way id="25145606" version="4" timestamp="2011-05-07T01:19:11Z" uid="163896" user="Zbigniew Czernik" changeset="8070161">
    <nd ref="274048226"/>
    <nd ref="417898259"/>
    <nd ref="1275191941"/>
    <nd ref="273212649"/>
    <tag k="highway" v="unclassified"/>
    <tag k="name" v="25-lecia PRL"/>
  </way>
  <way id="25145760" version="6" timestamp="2009-11-29T22:48:57Z" uid="200463" user="harmagedon" changeset="3251061">
    <nd ref="272637056"/>
    <nd ref="272637060"/>
    <nd ref="272637062"/>
    <nd ref="272637066"/>
    <nd ref="272637069"/>
    <nd ref="272637074"/>
    <nd ref="272637083"/>
    <nd ref="272637087"/>
    <nd ref="272637092"/>
    <nd ref="408354109"/>
    <tag k="highway" v="secondary"/>
    <tag k="name" v="Marktplatz"/>
    <tag k="ref" v="St 2083, St 2325"/>
    <tag k="source" v="survey"/>
  </way>
  <way id="25145760" version="7" timestamp="2009-12-28T06:59:29Z" uid="170813" user="Flose" changeset="3468995">
    <nd ref="272637056"/>
    <nd ref="272637060"/>
    <nd ref="272637062"/>
    <nd ref="272637066"/>
    <nd ref="272637069"/>
    <nd ref="272637074"/>
    <nd ref="272637083"/>
    <nd ref="272637087"/>
    <nd ref="272637092"/>
    <nd ref="408354109"/>
    <tag k="highway" v="secondary"/>
    <tag k="name" v="Marktplatz"/>
    <tag k="ref" v="St 2083, St 2325"/>
    <tag k="source" v="survey"/>
    <tag k="surface" v="cobblestone"/>
  </way>
</osm>
