<?xml version='1.0' encoding='UTF-8'?>
<osm version="0.6" generator="libosmium/2.20.0">
  <way id="25173061" version="2" timestamp="2008-07-03T22:33:33Z" uid="6975" user="ulfl" changeset="386611">
    <nd ref="274411025"/>
    <nd ref="274411026"/>
    <nd ref="274411027"/>
    <nd ref="274411028"/>
    <nd ref="274411025"/>
    <tag k="building" v="yes"/>
    <tag k="name" v="Oakland Museum"/>
    <tag k="tourism" v="museum"/>
  </way>
  <way id="25173061" version="3" timestamp="2009-05-23T16:48:57Z" uid="127650" user="gem s" changeset="1296474">
    <nd ref="274411025"/>
    <nd ref="274411026"/>
    <nd ref="274411027"/>
    <nd ref="274411028"/>
    <nd ref="274411025"/>
    <tag k="building" v="yes"/>
    <tag k="gnis:feature_id" v="1661760"/>
    <tag k="name" v="Oakland Museum"/>
    <tag k="tourism" v="museum"/>
  </way>
  <way id="25173061" version="4" timestamp="2010-12-22T18:18:01Z" uid="381909" user="sblanc" changeset="6738225">
    <nd ref="274411025"/>
    <nd ref="274411026"/>
    <nd ref="274411027"/>
    <nd ref="274411028"/>
    <nd ref="274411025"/>
    <tag k="building" v="yes"/>
    <tag k="gnis:feature_id" v="1661760"/>
    <tag k="name" v="Oakland Museum of California"/>
    <tag k="tourism" v="museum"/>
  </way>
  <way id="25173116" version="1" timestamp="2008-06-29T00:34:16Z" uid="30201" user="rrankin" changeset="328644">
    <nd ref="274411817"/>
    <nd ref="274411819"/>
    <tag k="highway" v="residential"/>
    <tag k="name" v="Kennedy Street"/>
    <tag k="source" v="yahoo"/>
  </way>
  <way id="25173116" version="2" timestamp="2010-07-08T01:58:20Z" uid="74617" user="JohnSmith" changeset="5162525">
    <nd ref="274411817"/>
    <nd ref="274411819"/>
    <tag k="highway" v="residential"/>
    <tag k="maxspeed" v="50"/>
    <tag k="maxspeed:source" v="default residential speed limit in Australia"/>
    <tag k="name" v="Kennedy Street"/>
    <tag k="source" v="yahoo"/>
  </way>
  <way id="25173116" version="3" timestamp="2011-04-10T14:30:07Z" uid="7617" user="Franc" changeset="7823401">
    <nd ref="274411817"/>
    <nd ref="1239898856"/>
    <nd ref="274411819"/>
    <tag k="highway" v="residential"/>
    <tag k="maxspeed" v="50"/>
    <tag k="maxspeed:source" v="default residential speed limit in Australia"/>
    <tag k="name" v="Kennedy Street"/>
    <tag k="source" v="yahoo"/>
  </way>
  <way id="25173116" version="4" timestamp="2012-01-16T20:19:27Z" uid="147510" user="woodpeck_fixbot" changeset="10410676">
    <nd ref="274411817"/>
    <nd ref="1239898856"/>
    <nd ref="274411819"/>
    <tag k="highway" v="residential"/>
    <tag k="name" v="Kennedy Street"/>
    <tag k="source" v="yahoo"/>
  </way>
  <way id="25173117" version="1" timestamp="2008-06-29T00:34:17Z" uid="30201" user="rrankin" changeset="328644">
    <nd ref="274411823"/>
    <nd ref="274411828"/>
    <tag k="highway" v="residential"/>
    <tag k="name" v="Churchill Street"/>
    <tag k="source" v="yahoo"/>
  </way>
  <way id="25173117" version="2" timestamp="2010-07-08T02:00:55Z" uid="74617" user="JohnSmith" changeset="5162525">
    <nd ref="274411823"/>
    <nd ref="274411828"/>
    <tag k="highway" v="residential"/>
    <tag k="maxspeed" v="50"/>
    <tag k="maxspeed:source" v="default residential speed limit in Australia"/>
    <tag k="name" v="Churchill Street"/>
    <tag k="source" v="yahoo"/>
  </way>
  <way id="25173117" version="3" timestamp="2012-01-16T20:19:34Z" uid="147510" user="woodpeck_fixbot" changeset="10410676">
    <nd ref="274411823"/>
    <nd ref="274411828"/>
    <tag k="highway" v="residential"/>
    <tag k="name" v="Churchill Street"/>
    <tag k="source" v="yahoo"/>
  </way>
  <way id="25173118" version="1" timestamp="2008-06-29T00:34:18Z" uid="30201" user="rrankin" changeset="328644">
    <nd ref="274411833"/>
    <nd ref="274411836"/>
    <nd ref="274411840"/>
    <nd ref="274411845"/>
    <nd ref="274393897"/>
    <tag k="highway" v="residential"/>
    <tag k="name" v="Kitrk Avenue"/>
    <tag k="source" v="yahoo"/>
  </way>
  <way id="25173118" version="2" timestamp="2010-07-08T01:54:06Z" uid="74617" user="JohnSmith" changeset="5162525">
    <nd ref="274411833"/>
    <nd ref="274411836"/>
    <nd ref="274411840"/>
    <nd ref="274411845"/>
    <nd ref="274393897"/>
    <tag k="highway" v="residential"/>
    <tag k="maxspeed" v="50"/>
    <tag k="maxspeed:source" v="default residential speed limit in Australia"/>
    <tag k="name" v="Kitrk Avenue"/>
    <tag k="source" v="yahoo"/>
  </way>
  <way id="25173118" version="3" timestamp="2011-04-10T14:30:19Z" uid="7617" user="Franc" changeset="7823401">
    <nd ref="274411833"/>
    <nd ref="274411836"/>
    <nd ref="274411840"/>
    <nd ref="274411845"/>
    <nd ref="1239898756"/>
    <nd ref="274393897"/>
    <tag k="highway" v="residential"/>
    <tag k="maxspeed" v="50"/>
    <tag k="maxspeed:source" v="default residential speed limit in Australia"/>
    <tag k="name" v="Kitrk Avenue"/>
    <tag k="source" v="yahoo"/>
  </way>
  <way id="25173118" version="4" timestamp="2012-01-16T20:19:37Z" uid="147510" user="woodpeck_fixbot" changeset="10410676">
    <nd ref="274411833"/>
    <nd ref="274411836"/>
    <nd ref="274411840"/>
    <nd ref="274411845"/>
    <nd ref="1239898756"/>
    <nd ref="274393897"/>
    <tag k="highway" v="residential"/>
    <tag k="name" v="Kitrk Avenue"/>
    <tag k="source" v="yahoo"/>
  </way>
  <way id="25173119" version="1" timestamp="2008-06-29T00:34:19Z" uid="30201" user="rrankin" changeset="328644">
    <nd ref="274411845"/>
    <nd ref="274411849"/>
    <nd ref="274411853"/>
    <nd ref="274411858"/>
    <tag k="highway" v="residential"/>
    <tag k="name" v="Sheahan Avenue"/>
    <tag k="source" v="yahoo"/>
  </way>
  <way id="25173119" version="2" timestamp="2010-07-08T01:56:22Z" uid="74617" user="JohnSmith" changeset="5162525">
    <nd ref="274411845"/>
    <nd ref="274411849"/>
    <nd ref="274411853"/>
    <nd ref="274411858"/>
    <tag k="highway" v="residential"/>
    <tag k="maxspeed" v="50"/>
    <tag k="maxspeed:source" v="default residential speed limit in Australia"/>
    <tag k="name" v="Sheahan Avenue"/>
    <tag k="source" v="yahoo"/>
  </way>
  <way id="25173119" version="3" timestamp="2011-04-10T14:30:15Z" uid="7617" user="Franc" changeset="7823401">
    <nd ref="274411845"/>
    <nd ref="1239898884"/>
    <nd ref="274411849"/>
    <nd ref="1239898706"/>
    <nd ref="274411853"/>
    <nd ref="1239898840"/>
    <nd ref="274411858"/>
    <tag k="highway" v="residential"/>
    <tag k="maxspeed" v="50"/>
    <tag k="maxspeed:source" v="default residential speed limit in Australia"/>
    <tag k="name" v="Sheahan Avenue"/>
    <tag k="source" v="yahoo"/>
  </way>
  <way id="25173119" version="4" timestamp="2012-01-16T20:19:38Z" uid="147510" user="woodpeck_fixbot" changeset="10410676">
    <nd ref="274411845"/>
    <nd ref="1239898884"/>
    <nd ref="274411849"/>
    <nd ref="1239898706"/>
    <nd ref="274411853"/>
    <nd ref="1239898840"/>
    <nd ref="274411858"/>
    <tag k="highway" v="residential"/>
    <tag k="name" v="Sheahan Avenue"/>
    <tag k="source" v="yahoo"/>
  </way>
  <way id="25173120" version="1" timestamp="2008-06-29T00:34:19Z" uid="30201" user="rrankin" changeset="328644">
    <nd ref="274411862"/>
    <nd ref="274411866"/>
    <nd ref="274411868"/>
    <tag k="highway" v="residential"/>
    <tag k="name" v="Markey Street"/>
    <tag k="source" v="yahoo"/>
  </way>
  <way id="25173120" version="2" timestamp="2009-12-23T11:38:46Z" uid="7617" user="Franc" changeset="3433828">
    <nd ref="274411862"/>
    <nd ref="274411866"/>
    <nd ref="274411868"/>
    <tag k="highway" v="residential"/>
    <tag k="name" v="Markey Street"/>
    <tag k="source" v="nearmap"/>
  </way>
  <way id="25173120" version="3" timestamp="2010-07-08T01:59:13Z" uid="74617" user="JohnSmith" changeset="5162525">
    <nd ref="274411862"/>
    <nd ref="274411866"/>
    <nd ref="274411868"/>
    <tag k="highway" v="residential"/>
    <tag k="maxspeed" v="50"/>
    <tag k="maxspeed:source" v="default residential speed limit in Australia"/>
    <tag k="name" v="Markey Street"/>
    <tag k="source" v="nearmap"/>
  </way>
  <way id="25173120" version="4" timestamp="2012-01-16T20:19:46Z" uid="147510" user="woodpeck_fixbot" changeset="10410676">
    <nd ref="274411862"/>
    <nd ref="274411866"/>
    <nd ref="274411868"/>
    <tag k="highway" v="residential"/>
    <tag k="name" v="Markey Street"/>
    <tag k="source" v="nearmap"/>
  </way>
  <way id="25173121" version="1" timestamp="2008-06-29T00:34:20Z" uid="30201" user="rrankin" changeset="328644">
    <nd ref="274411868"/>
    <nd ref="274411869"/>
    <nd ref="274411870"/>
    <tag k="highway" v="residential"/>
    <tag k="name" v="Robertson Street"/>
    <tag k="source" v="yahoo"/>
  </way>
  <way id="25173121" version="2" timestamp="2009-12-23T11:38:45Z" uid="7617" user="Franc" changeset="3433828">
    <nd ref="274411868"/>
    <nd ref="274411869"/>
    <nd ref="598512826"/>
    <tag k="highway" v="residential"/>
    <tag k="name" v="Robertson Street"/>
    <tag k="source" v="nearmap"/>
  </way>
  <way id="25173121" version="3" timestamp="2010-07-08T02:01:45Z" uid="74617" user="JohnSmith" changeset="5162525">
    <nd ref="274411868"/>
    <nd ref="274411869"/>
    <nd ref="598512826"/>
    <tag k="highway" v="residential"/>
    <tag k="maxspeed" v="50"/>
    <tag k="maxspeed:source" v="default residential speed limit in Australia"/>
    <tag k="name" v="Robertson Street"/>
    <tag k="source" v="nearmap"/>
  </way>
  <way id="25173121" version="4" timestamp="2012-01-16T20:19:55Z" uid="147510" user="woodpeck_fixbot" changeset="10410676">
    <nd ref="274411868"/>
    <nd ref="274411869"/>
    <nd ref="598512826"/>
    <tag k="highway" v="residential"/>
    <tag k="name" v="Robertson Street"/>
    <tag k="source" v="nearmap"/>
  </way>
  <way id="25173122" version="1" timestamp="2008-06-29T00:34:21Z" uid="30201" user="rrankin" changeset="328644">
    <nd ref="267181200"/>
    <nd ref="274411880"/>
    <nd ref="274411872"/>
    <nd ref="274411871"/>
    <tag k="highway" v="residential"/>
    <tag k="name" v="Eve Street"/>
    <tag k="source" v="yahoo"/>
  </way>
  <way id="25173122" version="2" timestamp="2010-07-08T01:54:46Z" uid="74617" user="JohnSmith" changeset="5162525">
    <nd ref="267181200"/>
    <nd ref="274411880"/>
    <nd ref="274411872"/>
    <nd ref="274411871"/>
    <tag k="highway" v="residential"/>
    <tag k="maxspeed" v="50"/>
    <tag k="maxspeed:source" v="default residential speed limit in Australia"/>
    <tag k="name" v="Eve Street"/>
    <tag k="source" v="yahoo"/>
  </way>
  <way id="25173122" version="3" timestamp="2012-01-16T20:19:59Z" uid="147510" user="woodpeck_fixbot" changeset="10410676">
    <nd ref="267181200"/>
    <nd ref="274411880"/>
    <nd ref="274411872"/>
    <nd ref="274411871"/>
    <tag k="highway" v="residential"/>
    <tag k="name" v="Eve Street"/>
    <tag k="source" v="yahoo"/>
  </way>
  <way id="25173123" version="1" timestamp="2008-06-29T00:34:22Z" uid="30201" user="rrankin" changeset="328644">
    <nd ref="274411872"/>
    <nd ref="274411877"/>
    <tag k="highway" v="residential"/>
    <tag k="name" v="Wolseley Street"/>
    <tag k="source" v="yahoo"/>
  </way>
  <way id="25173123" version="2" timestamp="2010-07-08T01:57:06Z" uid="74617" user="JohnSmith" changeset="5162525">
    <nd ref="274411872"/>
    <nd ref="274411877"/>
    <tag k="highway" v="residential"/>
    <tag k="maxspeed" v="50"/>
    <tag k="maxspeed:source" v="default residential speed limit in Australia"/>
    <tag k="name" v="Wolseley Street"/>
    <tag k="source" v="yahoo"/>
  </way>
  <way id="25173123" version="3" timestamp="2012-01-16T20:20:13Z" uid="147510" user="woodpeck_fixbot" changeset="10410676">
    <nd ref="274411872"/>
    <nd ref="274411877"/>
    <tag k="highway" v="residential"/>
    <tag k="name" v="Wolseley Street"/>
    <tag k="source" v="yahoo"/>
  </way>
  <way id="25173124" version="1" timestamp="2008-06-29T00:34:22Z" uid="30201" user="rrankin" changeset="328644">
    <nd ref="274411880"/>
    <nd ref="274411882"/>
    <tag k="highway" v="residential"/>
    <tag k="name" v="Adah Street"/>
    <tag k="source" v="yahoo"/>
  </way>
  <way id="25173124" version="2" timestamp="2010-07-08T01:57:35Z" uid="74617" user="JohnSmith" changeset="5162525">
    <nd ref="274411880"/>
    <nd ref="274411882"/>
    <tag k="highway" v="residential"/>
    <tag k="maxspeed" v="50"/>
    <tag k="maxspeed:source" v="default residential speed limit in Australia"/>
    <tag k="name" v="Adah Street"/>
    <tag k="source" v="yahoo"/>
  </way>
  <way id="25173124" version="3" timestamp="2012-01-16T20:20:20Z" uid="147510" user="woodpeck_fixbot" changeset="10410676">
    <nd ref="274411880"/>
    <nd ref="274411882"/>
    <tag k="highway" v="residential"/>
    <tag k="name" v="Adah Street"/>
    <tag k="source" v="yahoo"/>
  </way>
  <way id="25173649" version="1" timestamp="2008-06-29T01:02:57Z" uid="30201" user="rrankin" changeset="328644">
    <nd ref="274419187"/>
    <nd ref="274419191"/>
    <nd ref="36544629"/>
    <tag k="highway" v="residential"/>
    <tag k="name" v="Bright Street"/>
    <tag k="source" v="yahoo"/>
  </way>
  <way id="25173649" version="2" timestamp="2010-07-08T02:01:47Z" uid="74617" user="JohnSmith" changeset="5162525">
    <nd ref="274419187"/>
    <nd ref="274419191"/>
    <nd ref="36544629"/>
    <tag k="highway" v="residential"/>
    <tag k="maxspeed" v="50"/>
    <tag k="maxspeed:source" v="default residential speed limit in Australia"/>
    <tag k="name" v="Bright Street"/>
    <tag k="source" v="yahoo"/>
  </way>
  <way id="25173649" version="3" timestamp="2012-01-16T20:20:29Z" uid="147510" user="woodpeck_fixbot" changeset="10410676">
    <nd ref="274419187"/>
    <nd ref="274419191"/>
    <nd ref="36544629"/>
    <tag k="highway" v="residential"/>
    <tag k="name" v="Bright Street"/>
    <tag k="source" v="yahoo"/>
  </way>
  <way id="25173650" version="1" timestamp="2008-06-29T01:02:57Z" uid="30201" user="rrankin" changeset="328644">
    <nd ref="274419200"/>
    <nd ref="36544628"/>
    <tag k="highway" v="residential"/>
    <tag k="name" v="Wynyard Street"/>
    <tag k="source" v="yahoo"/>
  </way>
  <way id="25173650" version="2" timestamp="2009-12-23T23:15:15Z" uid="7617" user="Franc" changeset="3438683">
    <nd ref="274419200"/>
    <nd ref="36544628"/>
    <tag k="highway" v="residential"/>
    <tag k="name" v="Wynyard Street"/>
    <tag k="source" v="nearmap"/>
  </way>
  <way id="25173650" version="3" timestamp="2010-07-08T01:54:49Z" uid="74617" user="JohnSmith" changeset="5162525">
    <nd ref="274419200"/>
    <nd ref="36544628"/>
    <tag k="highway" v="residential"/>
    <tag k="maxspeed" v="50"/>
    <tag k="maxspeed:source" v="default residential speed limit in Australia"/>
    <tag k="name" v="Wynyard Street"/>
    <tag k="source" v="nearmap"/>
  </way>
  <way id="25173650" version="4" timestamp="2012-01-16T20:20:34Z" uid="147510" user="woodpeck_fixbot" changeset="10410676">
    <nd ref="274419200"/>
    <nd ref="36544628"/>
    <tag k="highway" v="residential"/>
    <tag k="name" v="Wynyard Street"/>
    <tag k="source" v="nearmap"/>
  </way>
  <way id="25173651" version="1" timestamp="2008-06-29T01:02:58Z" uid="30201" user="rrankin" changeset="328644">
    <nd ref="274419205"/>
    <nd ref="274419209"/>
    <tag k="highway" v="residential"/>
    <tag k="name" v="Cleone Street"/>
    <tag k="source" v="yahoo"/>
  </way>
  <way id="25173651" version="2" timestamp="2009-12-23T23:15:17Z" uid="7617" user="Franc" changeset="3438683">
    <nd ref="274419205"/>
    <nd ref="274419209"/>
    <tag k="highway" v="residential"/>
    <tag k="name" v="Cleone Street"/>
    <tag k="source" v="nearmap"/>
  </way>
  <way id="25173651" version="3" timestamp="2010-07-08T01:57:09Z" uid="74617" user="JohnSmith" changeset="5162525">
    <nd ref="274419205"/>
    <nd ref="274419209"/>
    <tag k="highway" v="residential"/>
    <tag k="maxspeed" v="50"/>
    <tag k="maxspeed:source" v="default residential speed limit in Australia"/>
    <tag k="name" v="Cleone Street"/>
    <tag k="source" v="nearmap"/>
  </way>
  <way id="25173651" version="4" timestamp="2012-01-16T20:20:40Z" uid="147510" user="woodpeck_fixbot" changeset="10410676">
    <nd ref="274419205"/>
    <nd ref="274419209"/>
    <tag k="highway" v="residential"/>
    <tag k="name" v="Cleone Street"/>
    <tag k="source" v="nearmap"/>
  </way>
  <way id="25173786" version="1" timestamp="2008-06-29T01:13:14Z" uid="30201" user="rrankin" changeset="328644">
    <nd ref="274421589"/>
    <nd ref="274421594"/>
    <nd ref="274421592"/>
    <tag k="highway" v="residential"/>
    <tag k="name" v="Rowley Road"/>
    <tag k="source" v="yahoo"/>
  </way>
  <way id="25173786" version="2" timestamp="2009-12-27T09:07:32Z" uid="7617" user="Franc" changeset="3460743">
    <nd ref="274421589"/>
    <nd ref="274421594"/>
    <nd ref="599914725"/>
    <nd ref="274421592"/>
    <tag k="highway" v="residential"/>
    <tag k="name" v="Rowley Road"/>
    <tag k="source" v="nearmap"/>
  </way>
  <way id="25173786" version="3" timestamp="2010-07-08T01:54:44Z" uid="74617" user="JohnSmith" changeset="5162525">
    <nd ref="274421589"/>
    <nd ref="274421594"/>
    <nd ref="599914725"/>
    <nd ref="274421592"/>
    <tag k="highway" v="residential"/>
    <tag k="maxspeed" v="50"/>
    <tag k="maxspeed:source" v="default residential speed limit in Australia"/>
    <tag k="name" v="Rowley Road"/>
    <tag k="source" v="nearmap"/>
  </way>
  <way id="25173786" version="4" timestamp="2011-04-10T14:30:15Z" uid="7617" user="Franc" changeset="7823401">
    <nd ref="274421589"/>
    <nd ref="274421594"/>
    <nd ref="1239898788"/>
    <tag k="highway" v="residential"/>
    <tag k="maxspeed" v="50"/>
    <tag k="maxspeed:source" v="default residential speed limit in Australia"/>
    <tag k="name" v="Rowley Road"/>
    <tag k="source" v="nearmap"/>
  </way>
  <way id="25173786" version="5" timestamp="2012-01-16T20:20:46Z" uid="147510" user="woodpeck_fixbot" changeset="10410676">
    <nd ref="274421589"/>
    <nd ref="274421594"/>
    <nd ref="1239898788"/>
    <tag k="highway" v="residential"/>
    <tag k="name" v="Rowley Road"/>
    <tag k="source" v="nearmap"/>
  </way>
  <way id="25173787" version="1" timestamp="2008-06-29T01:13:14Z" uid="30201" user="rrankin" changeset="328644">
    <nd ref="274421594"/>
    <nd ref="274421606"/>
    <nd ref="274421599"/>
    <tag k="highway" v="residential"/>
    <tag k="name" v="Ashby Street"/>
    <tag k="source" v="yahoo"/>
  </way>
  <way id="25173787" version="2" timestamp="2010-07-08T01:57:03Z" uid="74617" user="JohnSmith" changeset="5162525">
    <nd ref="274421594"/>
    <nd ref="274421606"/>
    <nd ref="274421599"/>
    <tag k="highway" v="residential"/>
    <tag k="maxspeed" v="50"/>
    <tag k="maxspeed:source" v="default residential speed limit in Australia"/>
    <tag k="name" v="Ashby Street"/>
    <tag k="source" v="yahoo"/>
  </way>
  <way id="25173787" version="3" timestamp="2012-01-16T20:20:49Z" uid="147510" user="woodpeck_fixbot" changeset="10410676">
    <nd ref="274421594"/>
    <nd ref="274421606"/>
    <nd ref="274421599"/>
    <tag k="highway" v="residential"/>
    <tag k="name" v="Ashby Street"/>
    <tag k="source" v="yahoo"/>
  </way>
  <way id="25173788" version="1" timestamp="2008-06-29T01:13:15Z" uid="30201" user="rrankin" changeset="328644">
    <nd ref="274421603"/>
    <nd ref="274421606"/>
    <tag k="highway" v="residential"/>
    <tag k="name" v="Hinchen Street"/>
    <tag k="source" v="yahoo"/>
  </way>
  <way id="25173788" version="2" timestamp="2009-12-27T09:06:02Z" uid="7617" user="Franc" changeset="3460729">
    <nd ref="274421603"/>
    <nd ref="274421606"/>
    <tag k="highway" v="residential"/>
    <tag k="name" v="Hinchen Street"/>
    <tag k="source" v="nearmap"/>
  </way>
  <way id="25173788" version="3" timestamp="2010-07-08T01:57:33Z" uid="74617" user="JohnSmith" changeset="5162525">
    <nd ref="274421603"/>
    <nd ref="274421606"/>
    <tag k="highway" v="residential"/>
    <tag k="maxspeed" v="50"/>
    <tag k="maxspeed:source" v="default residential speed limit in Australia"/>
    <tag k="name" v="Hinchen Street"/>
    <tag k="source" v="nearmap"/>
  </way>
  <way id="25173788" version="4" timestamp="2012-01-16T20:20:54Z" uid="147510" user="woodpeck_fixbot" changeset="10410676">
    <nd ref="274421603"/>
    <nd ref="274421606"/>
    <tag k="highway" v="residential"/>
    <tag k="name" v="Hinchen Street"/>
    <tag k="source" v="nearmap"/>
  </way>
  <way id="25173789" version="1" timestamp="2008-06-29T01:13:16Z" uid="30201" user="rrankin" changeset="328644">
    <nd ref="274421609"/>
    <nd ref="274421617"/>
    <nd ref="274421613"/>
    <tag k="highway" v="residential"/>
    <tag k="name" v="Lough avenue"/>
    <tag k="source" v="yahoo"/>
  </way>
  <way id="25173789" version="2" timestamp="2010-07-08T01:59:52Z" uid="74617" user="JohnSmith" changeset="5162525">
    <nd ref="274421609"/>
    <nd ref="274421617"/>
    <nd ref="274421613"/>
    <tag k="highway" v="residential"/>
    <tag k="maxspeed" v="50"/>
    <tag k="maxspeed:source" v="default residential speed limit in Australia"/>
    <tag k="name" v="Lough avenue"/>
    <tag k="source" v="yahoo"/>
  </way>
  <way id="25173789" version="3" timestamp="2011-04-10T14:30:17Z" uid="7617" user="Franc" changeset="7823401">
    <nd ref="274421609"/>
    <nd ref="274421617"/>
    <nd ref="1239898835"/>
    <tag k="highway" v="residential"/>
    <tag k="maxspeed" v="50"/>
    <tag k="maxspeed:source" v="default residential speed limit in Australia"/>
    <tag k="name" v="Lough Avenue"/>
    <tag k="source" v="yahoo"/>
  </way>
  <way id="25173789" version="4" timestamp="2012-01-16T20:20:55Z" uid="147510" user="woodpeck_fixbot" changeset="10410676">
    <nd ref="274421609"/>
    <nd ref="274421617"/>
    <nd ref="1239898835"/>
    <tag k="highway" v="residential"/>
    <tag k="name" v="Lough Avenue"/>
    <tag k="source" v="yahoo"/>
  </way>
  <way id="25173790" version="1" timestamp="2008-06-29T01:13:17Z" uid="30201" user="rrankin" changeset="328644">
    <nd ref="274421617"/>
    <nd ref="274421625"/>
    <tag k="highway" v="residential"/>
    <tag k="source" v="yahoo"/>
  </way>
  <way id="25173790" version="2" timestamp="2010-07-08T01:53:11Z" uid="74617" user="JohnSmith" changeset="5162525">
    <nd ref="274421617"/>
    <nd ref="274421625"/>
    <tag k="highway" v="residential"/>
    <tag k="maxspeed" v="50"/>
    <tag k="maxspeed:source" v="default residential speed limit in Australia"/>
    <tag k="source" v="yahoo"/>
  </way>
  <way id="25173790" version="3" timestamp="2011-04-10T14:30:13Z" uid="7617" user="Franc" changeset="7823401">
    <nd ref="274421617"/>
    <nd ref="274421625"/>
    <tag k="highway" v="service"/>
    <tag k="name" v="Lough Lane"/>
    <tag k="oneway" v="yes"/>
    <tag k="source" v="nearmap"/>
  </way>
  <way id="25173907" version="2" timestamp="2010-07-09T06:21:12Z" uid="74617" user="JohnSmith" changeset="5171134">
    <nd ref="274423106"/>
    <nd ref="274423108"/>
    <nd ref="274423109"/>
    <nd ref="274423110"/>
    <tag k="highway" v="residential"/>
    <tag k="maxspeed" v="50"/>
    <tag k="maxspeed:source" v="default residential speed limit in Australia"/>
    <tag k="name" v="Albert Place"/>
  </way>
  <way id="25173907" version="3" timestamp="2012-01-16T20:21:01Z" uid="147510" user="woodpeck_fixbot" changeset="10410676">
    <nd ref="274423106"/>
    <nd ref="274423108"/>
    <nd ref="274423109"/>
    <nd ref="274423110"/>
    <tag k="highway" v="residential"/>
    <tag k="name" v="Albert Place"/>
  </way>
  <way id="25173917" version="2" timestamp="2010-07-09T06:22:44Z" uid="74617" user="JohnSmith" changeset="5171134">
    <nd ref="251865621"/>
    <nd ref="274423243"/>
    <nd ref="274264534"/>
    <nd ref="274423244"/>
    <nd ref="274423245"/>
    <nd ref="274423246"/>
    <nd ref="251865624"/>
    <tag k="highway" v="residential"/>
    <tag k="maxspeed" v="50"/>
    <tag k="maxspeed:source" v="default residential speed limit in Australia"/>
    <tag k="name" v="Railway Terrace"/>
  </way>
  <way id="25173917" version="3" timestamp="2012-01-16T20:21:02Z" uid="147510" user="woodpeck_fixbot" changeset="10410676">
    <nd ref="251865621"/>
    <nd ref="274423243"/>
    <nd ref="274264534"/>
    <nd ref="274423244"/>
    <nd ref="274423245"/>
    <nd ref="274423246"/>
    <nd ref="251865624"/>
    <tag k="highway" v="residential"/>
    <tag k="name" v="Railway Terrace"/>
  </way>
  <way id="25173946" version="1" timestamp="2008-06-29T01:21:14Z" uid="7617" user="Franc" changeset="336181">
    <nd ref="274423487"/>
    <nd ref="274423551"/>
    <nd ref="274423488"/>
    <nd ref="274423489"/>
    <nd ref="274423491"/>
    <nd ref="274423494"/>
    <nd ref="274423496"/>
    <tag k="created_by" v="JOSM"/>
    <tag k="highway" v="service"/>
    <tag k="name" v="Norfolk Lane"/>
    <tag k="source" v="survey"/>
  </way>
  <way id="25173948" version="3" timestamp="2010-07-09T06:20:09Z" uid="74617" user="JohnSmith" changeset="5171134">
    <nd ref="274423563"/>
    <nd ref="274423564"/>
    <nd ref="274423565"/>
    <nd ref="274423566"/>
    <nd ref="274423568"/>
    <nd ref="274423569"/>
    <nd ref="274423570"/>
    <nd ref="274423571"/>
    <nd ref="274423572"/>
    <nd ref="274423976"/>
    <nd ref="274423573"/>
    <nd ref="274423574"/>
    <nd ref="274423575"/>
    <tag k="highway" v="residential"/>
    <tag k="maxspeed" v="50"/>
    <tag k="maxspeed:source" v="default residential speed limit in Australia"/>
    <tag k="name" v="Pasadena Crescent"/>
  </way>
  <way id="25173948" version="4" timestamp="2010-09-09T07:56:30Z" uid="21143" user="hryciuk" changeset="5730498">
    <nd ref="274423563"/>
    <nd ref="903753908"/>
    <nd ref="274423564"/>
    <nd ref="274423565"/>
    <nd ref="274423566"/>
    <nd ref="274423568"/>
    <nd ref="274423569"/>
    <nd ref="274423570"/>
    <nd ref="274423571"/>
    <nd ref="274423572"/>
    <nd ref="274423976"/>
    <nd ref="274423573"/>
    <nd ref="274423574"/>
    <nd ref="274423575"/>
    <tag k="highway" v="residential"/>
    <tag k="maxspeed" v="50"/>
    <tag k="maxspeed:source" v="default residential speed limit in Australia"/>
    <tag k="name" v="Pasadena Crescent"/>
  </way>
  <way id="25173948" version="5" timestamp="2011-03-18T15:41:02Z" uid="4467" user="Rosscoe" changeset="7596453">
    <nd ref="274423563"/>
    <nd ref="903753908"/>
    <nd ref="274423564"/>
    <nd ref="274423565"/>
    <nd ref="274423566"/>
    <nd ref="274423568"/>
    <nd ref="274423569"/>
    <nd ref="274423570"/>
    <nd ref="274423571"/>
    <nd ref="274423572"/>
    <nd ref="274423976"/>
    <nd ref="274423573"/>
    <nd ref="274423574"/>
    <nd ref="274423575"/>
    <tag k="highway" v="residential"/>
    <tag k="maxspeed" v="50"/>
    <tag k="name" v="Pasadena Crescent"/>
    <tag k="source:maxspeed" v="default residential speed limit in Australia"/>
  </way>
  <way id="25173948" version="6" timestamp="2012-01-16T20:21:04Z" uid="147510" user="woodpeck_fixbot" changeset="10410676">
    <nd ref="274423563"/>
    <nd ref="903753908"/>
    <nd ref="274423564"/>
    <nd ref="274423565"/>
    <nd ref="274423566"/>
    <nd ref="274423568"/>
    <nd ref="274423569"/>
    <nd ref="274423570"/>
    <nd ref="274423571"/>
    <nd ref="274423572"/>
    <nd ref="274423976"/>
    <nd ref="274423573"/>
    <nd ref="274423574"/>
    <nd ref="274423575"/>
    <tag k="highway" v="residential"/>
    <tag k="name" v="Pasadena Crescent"/>
    <tag k="source:maxspeed" v="default residential speed limit in Australia"/>
  </way>
  <way id="25173949" version="1" timestamp="2008-06-29T01:21:15Z" uid="7617" user="Franc" changeset="336181">
    <nd ref="274423498"/>
    <nd ref="274423501"/>
    <nd ref="274423503"/>
    <nd ref="274423505"/>
    <nd ref="274423498"/>
    <tag k="created_by" v="JOSM"/>
    <tag k="leisure" v="pitch"/>
    <tag k="sport" v="bowls"/>
  </way>
  <way id="25173950" version="1" timestamp="2008-06-29T01:21:16Z" uid="7617" user="Franc" changeset="336181">
    <nd ref="274423507"/>
    <nd ref="274423508"/>
    <nd ref="274423511"/>
    <nd ref="274423514"/>
    <nd ref="274423507"/>
    <tag k="created_by" v="JOSM"/>
    <tag k="leisure" v="pitch"/>
    <tag k="sport" v="tennis"/>
  </way>
  <way id="25173952" version="1" timestamp="2008-06-29T01:21:16Z" uid="7617" user="Franc" changeset="336181">
    <nd ref="274423516"/>
    <nd ref="274423524"/>
    <nd ref="274423526"/>
    <nd ref="274423528"/>
    <nd ref="274423531"/>
    <nd ref="274423532"/>
    <nd ref="274423535"/>
    <nd ref="274423536"/>
    <nd ref="274423539"/>
    <nd ref="274423542"/>
    <nd ref="274423547"/>
    <nd ref="274423516"/>
    <tag k="amenity" v="parking"/>
    <tag k="created_by" v="JOSM"/>
  </way>
  <way id="25173953" version="1" timestamp="2008-06-29T01:21:17Z" uid="7617" user="Franc" changeset="336181">
    <nd ref="274423550"/>
    <nd ref="274423551"/>
    <tag k="created_by" v="JOSM"/>
    <tag k="highway" v="service"/>
  </way>
  <way id="25173953" version="2" timestamp="2010-11-20T22:12:43Z" uid="7617" user="Franc" changeset="6418560">
    <nd ref="274423550"/>
    <nd ref="274423551"/>
    <tag k="highway" v="service"/>
    <tag k="service" v="parking_aisle"/>
  </way>
  <way id="25173954" version="1" timestamp="2008-06-29T01:21:18Z" uid="7617" user="Franc" changeset="336181">
    <nd ref="274423554"/>
    <nd ref="274423487"/>
    <tag k="created_by" v="JOSM"/>
    <tag k="highway" v="service"/>
  </way>
  <way id="25173954" version="2" timestamp="2010-11-20T22:12:48Z" uid="7617" user="Franc" changeset="6418560">
    <nd ref="274423554"/>
    <nd ref="274423487"/>
    <tag k="highway" v="service"/>
    <tag k="service" v="parking_aisle"/>
  </way>
  <way id="25173956" version="1" timestamp="2008-06-29T01:21:19Z" uid="7617" user="Franc" changeset="336181">
    <nd ref="274423556"/>
    <nd ref="29708138"/>
    <tag k="created_by" v="JOSM"/>
    <tag k="highway" v="service"/>
  </way>
  <way id="25173956" version="2" timestamp="2010-11-20T22:12:05Z" uid="7617" user="Franc" changeset="6418560">
    <nd ref="274423556"/>
    <nd ref="29708138"/>
    <tag k="highway" v="service"/>
    <tag k="service" v="parking_aisle"/>
  </way>
  <way id="25173972" version="4" timestamp="2010-07-09T06:20:04Z" uid="74617" user="JohnSmith" changeset="5171134">
    <nd ref="274423697"/>
    <nd ref="274423699"/>
    <nd ref="274423700"/>
    <nd ref="274423701"/>
    <nd ref="274423702"/>
    <nd ref="274423755"/>
    <nd ref="274423703"/>
    <nd ref="274423704"/>
    <nd ref="274423705"/>
    <nd ref="274423885"/>
    <nd ref="274423569"/>
    <tag k="highway" v="residential"/>
    <tag k="maxspeed" v="50"/>
    <tag k="maxspeed:source" v="default residential speed limit in Australia"/>
    <tag k="name" v="Redgum Drive"/>
  </way>
  <way id="25173972" version="5" timestamp="2011-03-18T15:41:26Z" uid="4467" user="Rosscoe" changeset="7596453">
    <nd ref="274423697"/>
    <nd ref="274423699"/>
    <nd ref="274423700"/>
    <nd ref="274423701"/>
    <nd ref="274423702"/>
    <nd ref="274423755"/>
    <nd ref="274423703"/>
    <nd ref="274423704"/>
    <nd ref="274423705"/>
    <nd ref="274423885"/>
    <nd ref="274423569"/>
    <tag k="highway" v="residential"/>
    <tag k="maxspeed" v="50"/>
    <tag k="name" v="Redgum Drive"/>
    <tag k="source:maxspeed" v="default residential speed limit in Australia"/>
  </way>
  <way id="25173972" version="6" timestamp="2012-01-16T20:21:07Z" uid="147510" user="woodpeck_fixbot" changeset="10410676">
    <nd ref="274423697"/>
    <nd ref="274423699"/>
    <nd ref="274423700"/>
    <nd ref="274423701"/>
    <nd ref="274423702"/>
    <nd ref="274423755"/>
    <nd ref="274423703"/>
    <nd ref="274423704"/>
    <nd ref="274423705"/>
    <nd ref="274423885"/>
    <nd ref="274423569"/>
    <tag k="highway" v="residential"/>
    <tag k="name" v="Redgum Drive"/>
    <tag k="source:maxspeed" v="default residential speed limit in Australia"/>
  </way>
  <way id="25173980" version="2" timestamp="2010-07-09T06:18:01Z" uid="74617" user="JohnSmith" changeset="5171134">
    <nd ref="274423748"/>
    <nd ref="274423749"/>
    <nd ref="274423750"/>
    <nd ref="274423751"/>
    <nd ref="274423752"/>
    <nd ref="274423753"/>
    <nd ref="274423754"/>
    <nd ref="274423755"/>
    <tag k="highway" v="residential"/>
    <tag k="maxspeed" v="50"/>
    <tag k="maxspeed:source" v="default residential speed limit in Australia"/>
    <tag k="name" v="Tacoma Boulevard"/>
  </way>
  <way id="25173980" version="3" timestamp="2012-01-16T20:21:10Z" uid="147510" user="woodpeck_fixbot" changeset="10410676">
    <nd ref="274423748"/>
    <nd ref="274423749"/>
    <nd ref="274423750"/>
    <nd ref="274423751"/>
    <nd ref="274423752"/>
    <nd ref="274423753"/>
    <nd ref="274423754"/>
    <nd ref="274423755"/>
    <tag k="highway" v="residential"/>
    <tag k="name" v="Tacoma Boulevard"/>
  </way>
  <way id="25173989" version="2" timestamp="2010-07-09T06:22:17Z" uid="74617" user="JohnSmith" changeset="5171134">
    <nd ref="274423832"/>
    <nd ref="274423833"/>
    <nd ref="274423834"/>
    <nd ref="274423835"/>
    <nd ref="274423836"/>
    <nd ref="274423837"/>
    <nd ref="274423753"/>
    <tag k="highway" v="residential"/>
    <tag k="maxspeed" v="50"/>
    <tag k="maxspeed:source" v="default residential speed limit in Australia"/>
    <tag k="name" v="Diannella Court"/>
  </way>
  <way id="25173989" version="3" timestamp="2012-01-16T20:21:12Z" uid="147510" user="woodpeck_fixbot" changeset="10410676">
    <nd ref="274423832"/>
    <nd ref="274423833"/>
    <nd ref="274423834"/>
    <nd ref="274423835"/>
    <nd ref="274423836"/>
    <nd ref="274423837"/>
    <nd ref="274423753"/>
    <tag k="highway" v="residential"/>
    <tag k="name" v="Diannella Court"/>
  </way>
</osm>
