<?xml version='1.0' encoding='UTF-8'?>
<osm version="0.6" generator="libosmium/2.20.0">
  <way id="25176054" version="4" timestamp="2010-07-06T09:22:16Z" uid="74617" user="JohnSmith" changeset="5147679">
    <nd ref="268386518"/>
    <nd ref="274458334"/>
    <nd ref="274458335"/>
    <nd ref="274458336"/>
    <nd ref="274458337"/>
    <nd ref="274458338"/>
    <nd ref="274458339"/>
    <tag k="highway" v="residential"/>
    <tag k="maxspeed" v="50"/>
    <tag k="maxspeed:source" v="default residential speed limit in Australia"/>
    <tag k="name" v="Castlehaven Close"/>
  </way>
  <way id="25176054" version="5" timestamp="2012-01-16T20:23:32Z" uid="147510" user="woodpeck_fixbot" changeset="10410676">
    <nd ref="268386518"/>
    <nd ref="274458334"/>
    <nd ref="274458335"/>
    <nd ref="274458336"/>
    <nd ref="274458337"/>
    <nd ref="274458338"/>
    <nd ref="274458339"/>
    <tag k="highway" v="residential"/>
    <tag k="name" v="Castlehaven Close"/>
  </way>
  <way id="25176105" version="1" timestamp="2008-06-29T03:33:09Z" uid="30201" user="rrankin" changeset="330029">
    <nd ref="274459050"/>
    <nd ref="274459054"/>
    <nd ref="274459057"/>
    <nd ref="274459060"/>
    <nd ref="274441208"/>
    <tag k="highway" v="secondary"/>
    <tag k="name" v="Clyde Street"/>
    <tag k="source" v="yahoo"/>
  </way>
  <way id="25176105" version="2" timestamp="2009-12-27T03:56:03Z" uid="7617" user="Franc" changeset="3460048">
    <nd ref="274459050"/>
    <nd ref="274459054"/>
    <nd ref="274459057"/>
    <nd ref="599892965"/>
    <nd ref="274459060"/>
    <nd ref="599892964"/>
    <nd ref="274441208"/>
    <tag k="highway" v="secondary"/>
    <tag k="name" v="Clyde Street"/>
    <tag k="source" v="nearmap"/>
  </way>
  <way id="25176106" version="1" timestamp="2008-06-29T03:33:09Z" uid="30201" user="rrankin" changeset="330029">
    <nd ref="274441201"/>
    <nd ref="274459063"/>
    <nd ref="274459093"/>
    <nd ref="274459050"/>
    <tag k="highway" v="secondary"/>
    <tag k="name" v="Clyde Street"/>
    <tag k="source" v="yahoo"/>
  </way>
  <way id="25176106" version="2" timestamp="2009-12-27T03:56:03Z" uid="7617" user="Franc" changeset="3460048">
    <nd ref="274441201"/>
    <nd ref="274459063"/>
    <nd ref="274459093"/>
    <nd ref="274459050"/>
    <tag k="highway" v="secondary"/>
    <tag k="name" v="Clyde Street"/>
    <tag k="source" v="nearmap"/>
  </way>
  <way id="25176107" version="1" timestamp="2008-06-29T03:33:10Z" uid="30201" user="rrankin" changeset="330029">
    <nd ref="274459050"/>
    <nd ref="274459101"/>
    <nd ref="274459079"/>
    <nd ref="274459086"/>
    <nd ref="274459110"/>
    <nd ref="267314419"/>
    <nd ref="274441340"/>
    <nd ref="274459144"/>
    <nd ref="274459156"/>
    <nd ref="274459171"/>
    <nd ref="274459175"/>
    <nd ref="274459184"/>
    <nd ref="274459193"/>
    <nd ref="267181129"/>
    <tag k="highway" v="secondary"/>
    <tag k="name" v="Clyde Street"/>
    <tag k="source" v="yahoo"/>
  </way>
  <way id="25176107" version="2" timestamp="2008-06-29T05:32:39Z" uid="30201" user="rrankin" changeset="330029">
    <nd ref="274459050"/>
    <nd ref="274459101"/>
    <nd ref="274459079"/>
    <nd ref="274459086"/>
    <nd ref="274459110"/>
    <nd ref="267314419"/>
    <nd ref="274441340"/>
    <nd ref="274459144"/>
    <nd ref="274459156"/>
    <nd ref="274459171"/>
    <nd ref="274459175"/>
    <nd ref="274459184"/>
    <nd ref="274459193"/>
    <nd ref="274486198"/>
    <nd ref="274486202"/>
    <nd ref="274486337"/>
    <nd ref="274486223"/>
    <nd ref="274486331"/>
    <nd ref="274486241"/>
    <nd ref="274486245"/>
    <nd ref="274486304"/>
    <nd ref="274486254"/>
    <nd ref="274486266"/>
    <nd ref="274486296"/>
    <nd ref="274486269"/>
    <nd ref="274486287"/>
    <nd ref="274486272"/>
    <nd ref="274486279"/>
    <nd ref="267181129"/>
    <tag k="highway" v="secondary"/>
    <tag k="name" v="Clyde Street"/>
    <tag k="source" v="yahoo"/>
  </way>
  <way id="25176107" version="3" timestamp="2009-08-19T04:45:03Z" uid="152608" user="Robbo" changeset="2196697">
    <nd ref="274459050"/>
    <nd ref="274459101"/>
    <nd ref="274459079"/>
    <nd ref="274459086"/>
    <nd ref="274459110"/>
    <nd ref="267314419"/>
    <nd ref="274441340"/>
    <nd ref="274459144"/>
    <nd ref="274459156"/>
    <nd ref="274459171"/>
    <nd ref="274459175"/>
    <nd ref="274459184"/>
    <nd ref="274459193"/>
    <tag k="highway" v="secondary"/>
    <tag k="name" v="Clyde Street"/>
    <tag k="source" v="yahoo"/>
  </way>
  <way id="25176107" version="4" timestamp="2009-12-27T03:56:02Z" uid="7617" user="Franc" changeset="3460048">
    <nd ref="274459050"/>
    <nd ref="274459101"/>
    <nd ref="274459079"/>
    <nd ref="599892972"/>
    <nd ref="274459086"/>
    <nd ref="274459110"/>
    <nd ref="267314419"/>
    <nd ref="274441340"/>
    <nd ref="274459144"/>
    <nd ref="274459156"/>
    <nd ref="274459171"/>
    <nd ref="274459175"/>
    <nd ref="274459184"/>
    <nd ref="274459193"/>
    <tag k="highway" v="secondary"/>
    <tag k="name" v="Clyde Street"/>
    <tag k="source" v="yahoo"/>
  </way>
  <way id="25176107" version="5" timestamp="2009-12-27T04:11:03Z" uid="7617" user="Franc" changeset="3460070">
    <nd ref="274459050"/>
    <nd ref="274459101"/>
    <nd ref="274459079"/>
    <nd ref="599892972"/>
    <nd ref="274459086"/>
    <nd ref="274459110"/>
    <nd ref="267314419"/>
    <nd ref="599894423"/>
    <tag k="highway" v="secondary"/>
    <tag k="name" v="Clyde Street"/>
    <tag k="source" v="yahoo"/>
  </way>
  <way id="25176108" version="1" timestamp="2008-06-29T03:33:11Z" uid="30201" user="rrankin" changeset="330029">
    <nd ref="274459050"/>
    <nd ref="274459071"/>
    <nd ref="274459068"/>
    <tag k="highway" v="residential"/>
    <tag k="name" v="Byrnes Street"/>
    <tag k="source" v="yahoo"/>
  </way>
  <way id="25176108" version="2" timestamp="2009-12-27T03:56:02Z" uid="7617" user="Franc" changeset="3460048">
    <nd ref="274459050"/>
    <nd ref="599892966"/>
    <nd ref="274459071"/>
    <nd ref="274459068"/>
    <tag k="highway" v="residential"/>
    <tag k="name" v="Byrnes Street"/>
    <tag k="source" v="yahoo"/>
  </way>
  <way id="25176108" version="3" timestamp="2010-07-08T02:01:52Z" uid="74617" user="JohnSmith" changeset="5162525">
    <nd ref="274459050"/>
    <nd ref="599892966"/>
    <nd ref="274459071"/>
    <nd ref="274459068"/>
    <tag k="highway" v="residential"/>
    <tag k="maxspeed" v="50"/>
    <tag k="maxspeed:source" v="default residential speed limit in Australia"/>
    <tag k="name" v="Byrnes Street"/>
    <tag k="source" v="yahoo"/>
  </way>
  <way id="25176108" version="4" timestamp="2012-01-16T20:23:38Z" uid="147510" user="woodpeck_fixbot" changeset="10410676">
    <nd ref="274459050"/>
    <nd ref="599892966"/>
    <nd ref="274459071"/>
    <nd ref="274459068"/>
    <tag k="highway" v="residential"/>
    <tag k="name" v="Byrnes Street"/>
    <tag k="source" v="yahoo"/>
  </way>
  <way id="25176109" version="1" timestamp="2008-06-29T03:33:12Z" uid="30201" user="rrankin" changeset="330029">
    <nd ref="274459071"/>
    <nd ref="274459075"/>
    <tag k="highway" v="residential"/>
    <tag k="name" v="Clyde Street"/>
    <tag k="source" v="yahoo"/>
  </way>
  <way id="25176109" version="2" timestamp="2009-12-27T03:56:02Z" uid="7617" user="Franc" changeset="3460048">
    <nd ref="274459071"/>
    <nd ref="274459075"/>
    <tag k="highway" v="residential"/>
    <tag k="name" v="Clyde Street"/>
    <tag k="source" v="nearmap"/>
  </way>
  <way id="25176109" version="3" timestamp="2010-07-08T01:53:24Z" uid="74617" user="JohnSmith" changeset="5162525">
    <nd ref="274459071"/>
    <nd ref="274459075"/>
    <tag k="highway" v="residential"/>
    <tag k="maxspeed" v="50"/>
    <tag k="maxspeed:source" v="default residential speed limit in Australia"/>
    <tag k="name" v="Clyde Street"/>
    <tag k="source" v="nearmap"/>
  </way>
  <way id="25176109" version="4" timestamp="2012-01-16T20:23:39Z" uid="147510" user="woodpeck_fixbot" changeset="10410676">
    <nd ref="274459071"/>
    <nd ref="274459075"/>
    <tag k="highway" v="residential"/>
    <tag k="name" v="Clyde Street"/>
    <tag k="source" v="nearmap"/>
  </way>
  <way id="25176110" version="1" timestamp="2008-06-29T03:33:12Z" uid="30201" user="rrankin" changeset="330029">
    <nd ref="274459079"/>
    <nd ref="274459082"/>
    <tag k="highway" v="residential"/>
    <tag k="name" v="Boronia Street"/>
    <tag k="source" v="yahoo"/>
  </way>
  <way id="25176110" version="2" timestamp="2010-07-08T01:57:14Z" uid="74617" user="JohnSmith" changeset="5162525">
    <nd ref="274459079"/>
    <nd ref="274459082"/>
    <tag k="highway" v="residential"/>
    <tag k="maxspeed" v="50"/>
    <tag k="maxspeed:source" v="default residential speed limit in Australia"/>
    <tag k="name" v="Boronia Street"/>
    <tag k="source" v="yahoo"/>
  </way>
  <way id="25176110" version="3" timestamp="2012-01-16T20:23:40Z" uid="147510" user="woodpeck_fixbot" changeset="10410676">
    <nd ref="274459079"/>
    <nd ref="274459082"/>
    <tag k="highway" v="residential"/>
    <tag k="name" v="Boronia Street"/>
    <tag k="source" v="yahoo"/>
  </way>
  <way id="25176111" version="1" timestamp="2008-06-29T03:33:13Z" uid="30201" user="rrankin" changeset="330029">
    <nd ref="274459086"/>
    <nd ref="274459090"/>
    <tag k="highway" v="residential"/>
    <tag k="name" v="Banksia Street"/>
    <tag k="source" v="yahoo"/>
  </way>
  <way id="25176111" version="2" timestamp="2009-06-22T13:32:51Z" uid="7617" user="Franc" changeset="1593741">
    <nd ref="274459086"/>
    <nd ref="427987566"/>
    <nd ref="274459090"/>
    <tag k="highway" v="residential"/>
    <tag k="name" v="Banksia Street"/>
    <tag k="source" v="yahoo"/>
  </way>
  <way id="25176111" version="3" timestamp="2010-07-08T01:59:24Z" uid="74617" user="JohnSmith" changeset="5162525">
    <nd ref="274459086"/>
    <nd ref="427987566"/>
    <nd ref="274459090"/>
    <tag k="highway" v="residential"/>
    <tag k="maxspeed" v="50"/>
    <tag k="maxspeed:source" v="default residential speed limit in Australia"/>
    <tag k="name" v="Banksia Street"/>
    <tag k="source" v="yahoo"/>
  </way>
  <way id="25176111" version="4" timestamp="2012-01-16T20:23:42Z" uid="147510" user="woodpeck_fixbot" changeset="10410676">
    <nd ref="274459086"/>
    <nd ref="427987566"/>
    <nd ref="274459090"/>
    <tag k="highway" v="residential"/>
    <tag k="name" v="Banksia Street"/>
    <tag k="source" v="yahoo"/>
  </way>
  <way id="25176112" version="1" timestamp="2008-06-29T03:33:14Z" uid="30201" user="rrankin" changeset="330029">
    <nd ref="274459093"/>
    <nd ref="274459126"/>
    <nd ref="274459097"/>
    <tag k="highway" v="residential"/>
    <tag k="name" v="Wells Street"/>
    <tag k="source" v="yahoo"/>
  </way>
  <way id="25176112" version="2" timestamp="2009-12-27T03:56:03Z" uid="7617" user="Franc" changeset="3460048">
    <nd ref="274459093"/>
    <nd ref="274459126"/>
    <nd ref="274459097"/>
    <tag k="highway" v="residential"/>
    <tag k="name" v="Wells Street"/>
    <tag k="source" v="nearmap"/>
  </way>
  <way id="25176112" version="3" timestamp="2010-07-08T02:02:30Z" uid="74617" user="JohnSmith" changeset="5162525">
    <nd ref="274459093"/>
    <nd ref="274459126"/>
    <nd ref="274459097"/>
    <tag k="highway" v="residential"/>
    <tag k="maxspeed" v="50"/>
    <tag k="maxspeed:source" v="default residential speed limit in Australia"/>
    <tag k="name" v="Wells Street"/>
    <tag k="source" v="nearmap"/>
  </way>
  <way id="25176112" version="4" timestamp="2012-01-16T20:23:44Z" uid="147510" user="woodpeck_fixbot" changeset="10410676">
    <nd ref="274459093"/>
    <nd ref="274459126"/>
    <nd ref="274459097"/>
    <tag k="highway" v="residential"/>
    <tag k="name" v="Wells Street"/>
    <tag k="source" v="nearmap"/>
  </way>
  <way id="25176113" version="1" timestamp="2008-06-29T03:33:15Z" uid="30201" user="rrankin" changeset="330029">
    <nd ref="274459101"/>
    <nd ref="274459130"/>
    <nd ref="274459105"/>
    <tag k="highway" v="residential"/>
    <tag k="name" v="Nobbs Street"/>
    <tag k="source" v="yahoo"/>
  </way>
  <way id="25176113" version="2" timestamp="2010-07-08T01:54:11Z" uid="74617" user="JohnSmith" changeset="5162525">
    <nd ref="274459101"/>
    <nd ref="274459130"/>
    <nd ref="274459105"/>
    <tag k="highway" v="residential"/>
    <tag k="maxspeed" v="50"/>
    <tag k="maxspeed:source" v="default residential speed limit in Australia"/>
    <tag k="name" v="Nobbs Street"/>
    <tag k="source" v="yahoo"/>
  </way>
  <way id="25176113" version="3" timestamp="2012-01-16T20:23:46Z" uid="147510" user="woodpeck_fixbot" changeset="10410676">
    <nd ref="274459101"/>
    <nd ref="274459130"/>
    <nd ref="274459105"/>
    <tag k="highway" v="residential"/>
    <tag k="name" v="Nobbs Street"/>
    <tag k="source" v="yahoo"/>
  </way>
  <way id="25176114" version="1" timestamp="2008-06-29T03:33:15Z" uid="30201" user="rrankin" changeset="330029">
    <nd ref="274459110"/>
    <nd ref="274459131"/>
    <nd ref="274459114"/>
    <tag k="highway" v="residential"/>
    <tag k="name" v="Hudson Street"/>
    <tag k="source" v="yahoo"/>
  </way>
  <way id="25176114" version="2" timestamp="2010-07-08T01:57:53Z" uid="74617" user="JohnSmith" changeset="5162525">
    <nd ref="274459110"/>
    <nd ref="274459131"/>
    <nd ref="274459114"/>
    <tag k="highway" v="residential"/>
    <tag k="maxspeed" v="50"/>
    <tag k="maxspeed:source" v="default residential speed limit in Australia"/>
    <tag k="name" v="Hudson Street"/>
    <tag k="source" v="yahoo"/>
  </way>
  <way id="25176114" version="3" timestamp="2012-01-16T20:23:47Z" uid="147510" user="woodpeck_fixbot" changeset="10410676">
    <nd ref="274459110"/>
    <nd ref="274459131"/>
    <nd ref="274459114"/>
    <tag k="highway" v="residential"/>
    <tag k="name" v="Hudson Street"/>
    <tag k="source" v="yahoo"/>
  </way>
  <way id="25176115" version="1" timestamp="2008-06-29T03:33:16Z" uid="30201" user="rrankin" changeset="330029">
    <nd ref="274459122"/>
    <nd ref="274459126"/>
    <nd ref="274459130"/>
    <nd ref="274459131"/>
    <nd ref="274459118"/>
    <nd ref="274459160"/>
    <nd ref="274459167"/>
    <nd ref="274459202"/>
    <nd ref="274459197"/>
    <nd ref="274459210"/>
    <nd ref="274459136"/>
    <tag k="highway" v="residential"/>
    <tag k="name" v="The Trongate"/>
    <tag k="source" v="yahoo"/>
  </way>
  <way id="25176115" version="2" timestamp="2008-06-29T05:32:40Z" uid="30201" user="rrankin" changeset="330029">
    <nd ref="274459122"/>
    <nd ref="274459126"/>
    <nd ref="274459130"/>
    <nd ref="274459131"/>
    <nd ref="274459118"/>
    <nd ref="274459160"/>
    <nd ref="274459167"/>
    <nd ref="274459202"/>
    <nd ref="274459197"/>
    <nd ref="274459210"/>
    <nd ref="274486200"/>
    <nd ref="274486219"/>
    <nd ref="274486237"/>
    <nd ref="274486348"/>
    <nd ref="274486262"/>
    <nd ref="274459136"/>
    <tag k="highway" v="residential"/>
    <tag k="name" v="The Trongate"/>
    <tag k="source" v="yahoo"/>
  </way>
  <way id="25176115" version="3" timestamp="2009-10-21T05:20:58Z" uid="152608" user="Robbo" changeset="2908913">
    <nd ref="274459122"/>
    <nd ref="274459126"/>
    <nd ref="274459130"/>
    <nd ref="274459131"/>
    <nd ref="274459118"/>
    <nd ref="274459160"/>
    <nd ref="274459167"/>
    <nd ref="274459202"/>
    <tag k="highway" v="residential"/>
    <tag k="name" v="The Trongate"/>
    <tag k="source" v="yahoo"/>
  </way>
  <way id="25176115" version="4" timestamp="2009-12-27T03:56:02Z" uid="7617" user="Franc" changeset="3460048">
    <nd ref="274459122"/>
    <nd ref="274459126"/>
    <nd ref="274459130"/>
    <nd ref="599892973"/>
    <nd ref="274459131"/>
    <nd ref="274459118"/>
    <nd ref="274459160"/>
    <nd ref="274459167"/>
    <nd ref="274459202"/>
    <tag k="highway" v="residential"/>
    <tag k="name" v="The Trongate"/>
    <tag k="source" v="yahoo"/>
  </way>
  <way id="25176115" version="5" timestamp="2009-12-27T04:11:03Z" uid="7617" user="Franc" changeset="3460070">
    <nd ref="274459122"/>
    <nd ref="274459126"/>
    <nd ref="274459130"/>
    <nd ref="599892973"/>
    <nd ref="274459131"/>
    <nd ref="599894413"/>
    <tag k="highway" v="residential"/>
    <tag k="name" v="The Trongate"/>
    <tag k="source" v="yahoo"/>
  </way>
  <way id="25176115" version="6" timestamp="2010-07-08T02:00:17Z" uid="74617" user="JohnSmith" changeset="5162525">
    <nd ref="274459122"/>
    <nd ref="274459126"/>
    <nd ref="274459130"/>
    <nd ref="599892973"/>
    <nd ref="274459131"/>
    <nd ref="599894413"/>
    <tag k="highway" v="residential"/>
    <tag k="maxspeed" v="50"/>
    <tag k="maxspeed:source" v="default residential speed limit in Australia"/>
    <tag k="name" v="The Trongate"/>
    <tag k="source" v="yahoo"/>
  </way>
  <way id="25176115" version="7" timestamp="2012-01-16T20:23:50Z" uid="147510" user="woodpeck_fixbot" changeset="10410676">
    <nd ref="274459122"/>
    <nd ref="274459126"/>
    <nd ref="274459130"/>
    <nd ref="599892973"/>
    <nd ref="274459131"/>
    <nd ref="599894413"/>
    <tag k="highway" v="residential"/>
    <tag k="name" v="The Trongate"/>
    <tag k="source" v="yahoo"/>
  </way>
  <way id="25176116" version="1" timestamp="2008-06-29T03:33:17Z" uid="30201" user="rrankin" changeset="330029">
    <nd ref="274441340"/>
    <nd ref="274459118"/>
    <nd ref="274459140"/>
    <tag k="highway" v="residential"/>
    <tag k="name" v="Redfern Street"/>
    <tag k="source" v="yahoo"/>
  </way>
  <way id="25176116" version="2" timestamp="2009-12-27T04:11:04Z" uid="7617" user="Franc" changeset="3460070">
    <nd ref="599894427"/>
    <nd ref="599894411"/>
    <tag k="highway" v="residential"/>
    <tag k="name" v="Redfern Street"/>
    <tag k="source" v="yahoo"/>
  </way>
  <way id="25176116" version="3" timestamp="2010-07-08T02:00:58Z" uid="74617" user="JohnSmith" changeset="5162525">
    <nd ref="599894427"/>
    <nd ref="599894411"/>
    <tag k="highway" v="residential"/>
    <tag k="maxspeed" v="50"/>
    <tag k="maxspeed:source" v="default residential speed limit in Australia"/>
    <tag k="name" v="Redfern Street"/>
    <tag k="source" v="yahoo"/>
  </way>
  <way id="25176116" version="4" timestamp="2012-01-16T20:23:52Z" uid="147510" user="woodpeck_fixbot" changeset="10410676">
    <nd ref="599894427"/>
    <nd ref="599894411"/>
    <tag k="highway" v="residential"/>
    <tag k="name" v="Redfern Street"/>
    <tag k="source" v="yahoo"/>
  </way>
  <way id="25176117" version="1" timestamp="2008-06-29T03:33:18Z" uid="30201" user="rrankin" changeset="330029">
    <nd ref="274459144"/>
    <nd ref="274459149"/>
    <tag k="highway" v="residential"/>
    <tag k="name" v="Heath Street"/>
    <tag k="source" v="yahoo"/>
  </way>
  <way id="25176117" version="2" timestamp="2009-12-27T04:11:04Z" uid="7617" user="Franc" changeset="3460070">
    <nd ref="274459144"/>
    <nd ref="274459149"/>
    <tag k="highway" v="residential"/>
    <tag k="name" v="Heath Street"/>
    <tag k="source" v="nearmap"/>
  </way>
  <way id="25176117" version="3" timestamp="2010-07-08T01:52:24Z" uid="74617" user="JohnSmith" changeset="5162525">
    <nd ref="274459144"/>
    <nd ref="274459149"/>
    <tag k="highway" v="residential"/>
    <tag k="maxspeed" v="50"/>
    <tag k="maxspeed:source" v="default residential speed limit in Australia"/>
    <tag k="name" v="Heath Street"/>
    <tag k="source" v="nearmap"/>
  </way>
  <way id="25176117" version="4" timestamp="2012-01-16T20:23:54Z" uid="147510" user="woodpeck_fixbot" changeset="10410676">
    <nd ref="274459144"/>
    <nd ref="274459149"/>
    <tag k="highway" v="residential"/>
    <tag k="name" v="Heath Street"/>
    <tag k="source" v="nearmap"/>
  </way>
  <way id="25176118" version="1" timestamp="2008-06-29T03:33:18Z" uid="30201" user="rrankin" changeset="330029">
    <nd ref="274459152"/>
    <nd ref="274459156"/>
    <nd ref="274459160"/>
    <tag k="highway" v="residential"/>
    <tag k="name" v="Neilson Street"/>
    <tag k="source" v="yahoo"/>
  </way>
  <way id="25176118" version="2" timestamp="2009-12-27T04:11:04Z" uid="7617" user="Franc" changeset="3460070">
    <nd ref="274459152"/>
    <nd ref="274459156"/>
    <nd ref="274459160"/>
    <tag k="highway" v="residential"/>
    <tag k="name" v="Neilson Street"/>
    <tag k="source" v="nearmap"/>
  </way>
  <way id="25176118" version="3" timestamp="2010-07-08T01:56:25Z" uid="74617" user="JohnSmith" changeset="5162525">
    <nd ref="274459152"/>
    <nd ref="274459156"/>
    <nd ref="274459160"/>
    <tag k="highway" v="residential"/>
    <tag k="maxspeed" v="50"/>
    <tag k="maxspeed:source" v="default residential speed limit in Australia"/>
    <tag k="name" v="Neilson Street"/>
    <tag k="source" v="nearmap"/>
  </way>
  <way id="25176118" version="4" timestamp="2012-01-16T20:23:57Z" uid="147510" user="woodpeck_fixbot" changeset="10410676">
    <nd ref="274459152"/>
    <nd ref="274459156"/>
    <nd ref="274459160"/>
    <tag k="highway" v="residential"/>
    <tag k="name" v="Neilson Street"/>
    <tag k="source" v="nearmap"/>
  </way>
  <way id="25176119" version="1" timestamp="2008-06-29T03:33:19Z" uid="30201" user="rrankin" changeset="330029">
    <nd ref="274459164"/>
    <nd ref="274459167"/>
    <nd ref="274459171"/>
    <tag k="highway" v="residential"/>
    <tag k="name" v="Membrey Street"/>
    <tag k="source" v="yahoo"/>
  </way>
  <way id="25176119" version="2" timestamp="2010-07-08T01:58:24Z" uid="74617" user="JohnSmith" changeset="5162525">
    <nd ref="274459164"/>
    <nd ref="274459167"/>
    <nd ref="274459171"/>
    <tag k="highway" v="residential"/>
    <tag k="maxspeed" v="50"/>
    <tag k="maxspeed:source" v="default residential speed limit in Australia"/>
    <tag k="name" v="Membrey Street"/>
    <tag k="source" v="yahoo"/>
  </way>
  <way id="25176119" version="3" timestamp="2012-01-16T20:23:59Z" uid="147510" user="woodpeck_fixbot" changeset="10410676">
    <nd ref="274459164"/>
    <nd ref="274459167"/>
    <nd ref="274459171"/>
    <tag k="highway" v="residential"/>
    <tag k="name" v="Membrey Street"/>
    <tag k="source" v="yahoo"/>
  </way>
  <way id="25176122" version="1" timestamp="2008-06-29T03:33:20Z" uid="30201" user="rrankin" changeset="330029">
    <nd ref="274459175"/>
    <nd ref="274459180"/>
    <tag k="highway" v="residential"/>
    <tag k="name" v="Mimosa Street"/>
    <tag k="source" v="yahoo"/>
  </way>
  <way id="25176122" version="2" timestamp="2010-07-08T01:54:42Z" uid="74617" user="JohnSmith" changeset="5162525">
    <nd ref="274459175"/>
    <nd ref="274459180"/>
    <tag k="highway" v="residential"/>
    <tag k="maxspeed" v="50"/>
    <tag k="maxspeed:source" v="default residential speed limit in Australia"/>
    <tag k="name" v="Mimosa Street"/>
    <tag k="source" v="yahoo"/>
  </way>
  <way id="25176122" version="3" timestamp="2012-01-16T20:24:01Z" uid="147510" user="woodpeck_fixbot" changeset="10410676">
    <nd ref="274459175"/>
    <nd ref="274459180"/>
    <tag k="highway" v="residential"/>
    <tag k="name" v="Mimosa Street"/>
    <tag k="source" v="yahoo"/>
  </way>
  <way id="25176125" version="1" timestamp="2008-06-29T03:33:20Z" uid="30201" user="rrankin" changeset="330029">
    <nd ref="274459184"/>
    <nd ref="274459189"/>
    <tag k="highway" v="residential"/>
    <tag k="name" v="Mrytle Street"/>
    <tag k="source" v="yahoo"/>
  </way>
  <way id="25176125" version="2" timestamp="2009-07-20T04:32:33Z" uid="1679" user="andrewpmk" changeset="1880605">
    <nd ref="274459184"/>
    <nd ref="274459189"/>
    <tag k="highway" v="residential"/>
    <tag k="name" v="Mrytle Street"/>
    <tag k="source" v="yahoo"/>
  </way>
  <way id="25176125" version="3" timestamp="2010-07-08T01:59:48Z" uid="74617" user="JohnSmith" changeset="5162525">
    <nd ref="274459184"/>
    <nd ref="274459189"/>
    <tag k="highway" v="residential"/>
    <tag k="maxspeed" v="50"/>
    <tag k="maxspeed:source" v="default residential speed limit in Australia"/>
    <tag k="name" v="Mrytle Street"/>
    <tag k="source" v="yahoo"/>
  </way>
  <way id="25176125" version="4" timestamp="2012-01-16T20:24:03Z" uid="147510" user="woodpeck_fixbot" changeset="10410676">
    <nd ref="274459184"/>
    <nd ref="274459189"/>
    <tag k="highway" v="residential"/>
    <tag k="name" v="Mrytle Street"/>
    <tag k="source" v="yahoo"/>
  </way>
  <way id="25176126" version="1" timestamp="2008-06-29T03:33:21Z" uid="30201" user="rrankin" changeset="330029">
    <nd ref="274459193"/>
    <nd ref="274459197"/>
    <tag k="highway" v="residential"/>
    <tag k="name" v="Rossiter Street"/>
    <tag k="source" v="yahoo"/>
  </way>
  <way id="25176126" version="2" timestamp="2009-08-19T04:45:07Z" uid="152608" user="Robbo" changeset="2196697">
    <nd ref="274459193"/>
    <nd ref="274459197"/>
    <tag k="bicycle" v="permissive"/>
    <tag k="highway" v="residential"/>
    <tag k="name" v="Rossiter Street"/>
    <tag k="source" v="yahoo"/>
  </way>
  <way id="25176126" version="3" timestamp="2010-07-08T01:53:07Z" uid="74617" user="JohnSmith" changeset="5162525">
    <nd ref="274459193"/>
    <nd ref="274459197"/>
    <tag k="bicycle" v="permissive"/>
    <tag k="highway" v="residential"/>
    <tag k="maxspeed" v="50"/>
    <tag k="maxspeed:source" v="default residential speed limit in Australia"/>
    <tag k="name" v="Rossiter Street"/>
    <tag k="source" v="yahoo"/>
  </way>
  <way id="25176126" version="4" timestamp="2010-09-12T03:28:41Z" uid="20949" user="Ebenezer" changeset="5755476">
    <nd ref="274459193"/>
    <nd ref="274459197"/>
    <tag k="bicycle" v="permissive"/>
    <tag k="highway" v="residential"/>
    <tag k="lcn" v="yes"/>
    <tag k="maxspeed" v="50"/>
    <tag k="maxspeed:source" v="default residential speed limit in Australia"/>
    <tag k="name" v="Rossiter Street"/>
    <tag k="source" v="yahoo"/>
  </way>
  <way id="25176126" version="5" timestamp="2012-01-16T20:24:06Z" uid="147510" user="woodpeck_fixbot" changeset="10410676">
    <nd ref="274459193"/>
    <nd ref="274459197"/>
    <tag k="bicycle" v="permissive"/>
    <tag k="highway" v="residential"/>
    <tag k="lcn" v="yes"/>
    <tag k="name" v="Rossiter Street"/>
    <tag k="source" v="yahoo"/>
  </way>
  <way id="25176128" version="1" timestamp="2008-06-29T03:33:22Z" uid="30201" user="rrankin" changeset="330029">
    <nd ref="274459202"/>
    <nd ref="274459206"/>
    <tag k="highway" v="residential"/>
    <tag k="name" v="Celia Street"/>
    <tag k="source" v="yahoo"/>
  </way>
  <way id="25176128" version="2" timestamp="2009-08-19T04:45:07Z" uid="152608" user="Robbo" changeset="2196697">
    <nd ref="274459202"/>
    <nd ref="274459206"/>
    <tag k="bicycle" v="permissive"/>
    <tag k="highway" v="residential"/>
    <tag k="name" v="Meadows Street"/>
    <tag k="source" v="yahoo"/>
  </way>
  <way id="25176128" version="3" timestamp="2009-08-19T04:45:37Z" uid="152608" user="Robbo" changeset="2196697">
    <nd ref="274459202"/>
    <nd ref="274459206"/>
    <tag k="bicycle" v="permissive"/>
    <tag k="highway" v="residential"/>
    <tag k="source" v="yahoo"/>
  </way>
  <way id="25176128" version="4" timestamp="2009-10-21T05:21:01Z" uid="152608" user="Robbo" changeset="2908913">
    <nd ref="274459202"/>
    <nd ref="274459206"/>
    <tag k="bicycle" v="permissive"/>
    <tag k="highway" v="residential"/>
    <tag k="lcn" v="yes"/>
    <tag k="source" v="yahoo"/>
  </way>
  <way id="25176128" version="5" timestamp="2010-07-08T01:58:12Z" uid="74617" user="JohnSmith" changeset="5162525">
    <nd ref="274459202"/>
    <nd ref="274459206"/>
    <tag k="bicycle" v="permissive"/>
    <tag k="highway" v="residential"/>
    <tag k="lcn" v="yes"/>
    <tag k="maxspeed" v="50"/>
    <tag k="maxspeed:source" v="default residential speed limit in Australia"/>
    <tag k="source" v="yahoo"/>
  </way>
  <way id="25176128" version="6" timestamp="2010-09-12T03:49:19Z" uid="20949" user="Ebenezer" changeset="5755509">
    <nd ref="274459202"/>
    <nd ref="274459206"/>
    <tag k="bicycle" v="permissive"/>
    <tag k="highway" v="residential"/>
    <tag k="lcn" v="yes"/>
    <tag k="maxspeed" v="50"/>
    <tag k="maxspeed:source" v="default residential speed limit in Australia"/>
    <tag k="name" v="Celia Street"/>
    <tag k="source" v="yahoo"/>
  </way>
  <way id="25176128" version="7" timestamp="2012-01-16T20:24:10Z" uid="147510" user="woodpeck_fixbot" changeset="10410676">
    <nd ref="274459202"/>
    <nd ref="274459206"/>
    <tag k="bicycle" v="permissive"/>
    <tag k="highway" v="residential"/>
    <tag k="lcn" v="yes"/>
    <tag k="name" v="Celia Street"/>
    <tag k="source" v="yahoo"/>
  </way>
  <way id="25176129" version="1" timestamp="2008-06-29T03:33:23Z" uid="30201" user="rrankin" changeset="330029">
    <nd ref="274459210"/>
    <nd ref="274459214"/>
    <tag k="highway" v="residential"/>
    <tag k="name" v="Charles Street"/>
    <tag k="source" v="yahoo"/>
  </way>
  <way id="25176129" version="2" timestamp="2009-12-24T00:31:47Z" uid="7617" user="Franc" changeset="3439240">
    <nd ref="274459210"/>
    <nd ref="274459214"/>
    <tag k="highway" v="residential"/>
    <tag k="name" v="Charles Street"/>
    <tag k="source" v="nearmap"/>
  </way>
  <way id="25176129" version="3" timestamp="2010-07-08T02:00:43Z" uid="74617" user="JohnSmith" changeset="5162525">
    <nd ref="274459210"/>
    <nd ref="274459214"/>
    <tag k="highway" v="residential"/>
    <tag k="maxspeed" v="50"/>
    <tag k="maxspeed:source" v="default residential speed limit in Australia"/>
    <tag k="name" v="Charles Street"/>
    <tag k="source" v="nearmap"/>
  </way>
  <way id="25176129" version="4" timestamp="2010-09-12T03:49:19Z" uid="20949" user="Ebenezer" changeset="5755509">
    <nd ref="274459210"/>
    <nd ref="274459214"/>
    <tag k="highway" v="residential"/>
    <tag k="lcn" v="yes"/>
    <tag k="maxspeed" v="50"/>
    <tag k="maxspeed:source" v="default residential speed limit in Australia"/>
    <tag k="name" v="Charles Street"/>
    <tag k="source" v="nearmap"/>
  </way>
  <way id="25176129" version="5" timestamp="2012-01-16T20:24:13Z" uid="147510" user="woodpeck_fixbot" changeset="10410676">
    <nd ref="274459210"/>
    <nd ref="274459214"/>
    <tag k="highway" v="residential"/>
    <tag k="lcn" v="yes"/>
    <tag k="name" v="Charles Street"/>
    <tag k="source" v="nearmap"/>
  </way>
  <way id="25176131" version="1" timestamp="2008-06-29T03:33:23Z" uid="30201" user="rrankin" changeset="330029">
    <nd ref="267181529"/>
    <nd ref="267181530"/>
    <nd ref="267181545"/>
    <nd ref="267181531"/>
    <tag k="created_by" v="Potlatch 0.9b"/>
    <tag k="highway" v="residential"/>
    <tag k="name" v="Abbott Street"/>
  </way>
  <way id="25176131" version="2" timestamp="2009-10-21T05:20:56Z" uid="152608" user="Robbo" changeset="2908913">
    <nd ref="267181529"/>
    <nd ref="267181530"/>
    <tag k="highway" v="residential"/>
    <tag k="name" v="Abbott Street"/>
  </way>
  <way id="25176131" version="3" timestamp="2010-01-15T10:28:32Z" uid="7617" user="Franc" changeset="3623118">
    <nd ref="267181529"/>
    <nd ref="614107269"/>
    <nd ref="614107238"/>
    <tag k="highway" v="residential"/>
    <tag k="name" v="Abbott Street"/>
  </way>
  <way id="25176131" version="4" timestamp="2010-07-08T01:56:09Z" uid="74617" user="JohnSmith" changeset="5162525">
    <nd ref="267181529"/>
    <nd ref="614107269"/>
    <nd ref="614107238"/>
    <tag k="highway" v="residential"/>
    <tag k="maxspeed" v="50"/>
    <tag k="maxspeed:source" v="default residential speed limit in Australia"/>
    <tag k="name" v="Abbott Street"/>
  </way>
  <way id="25176131" version="5" timestamp="2012-01-16T20:24:15Z" uid="147510" user="woodpeck_fixbot" changeset="10410676">
    <nd ref="267181529"/>
    <nd ref="614107269"/>
    <nd ref="614107238"/>
    <tag k="highway" v="residential"/>
    <tag k="name" v="Abbott Street"/>
  </way>
  <way id="25176132" version="1" timestamp="2008-06-29T03:33:24Z" uid="30201" user="rrankin" changeset="330029">
    <nd ref="267181531"/>
    <nd ref="267181532"/>
    <nd ref="267181533"/>
    <tag k="created_by" v="Potlatch 0.9b"/>
    <tag k="highway" v="residential"/>
    <tag k="name" v="Augustus Street"/>
  </way>
  <way id="25176132" version="2" timestamp="2010-01-15T10:28:32Z" uid="7617" user="Franc" changeset="3623118">
    <nd ref="267181531"/>
    <nd ref="614107236"/>
    <nd ref="267181532"/>
    <nd ref="267181533"/>
    <tag k="highway" v="residential"/>
    <tag k="name" v="Augustus Street"/>
  </way>
  <way id="25176132" version="3" timestamp="2010-07-08T01:56:46Z" uid="74617" user="JohnSmith" changeset="5162525">
    <nd ref="267181531"/>
    <nd ref="614107236"/>
    <nd ref="267181532"/>
    <nd ref="267181533"/>
    <tag k="highway" v="residential"/>
    <tag k="maxspeed" v="50"/>
    <tag k="maxspeed:source" v="default residential speed limit in Australia"/>
    <tag k="name" v="Augustus Street"/>
  </way>
  <way id="25176132" version="4" timestamp="2012-01-16T20:24:17Z" uid="147510" user="woodpeck_fixbot" changeset="10410676">
    <nd ref="267181531"/>
    <nd ref="614107236"/>
    <nd ref="267181532"/>
    <nd ref="267181533"/>
    <tag k="highway" v="residential"/>
    <tag k="name" v="Augustus Street"/>
  </way>
  <way id="25176133" version="1" timestamp="2008-06-29T03:33:25Z" uid="30201" user="rrankin" changeset="330029">
    <nd ref="267181506"/>
    <nd ref="267181613"/>
    <nd ref="267181507"/>
    <tag k="created_by" v="Potlatch 0.9b"/>
    <tag k="highway" v="residential"/>
    <tag k="name" v="May Street"/>
  </way>
  <way id="25176133" version="2" timestamp="2009-08-19T04:40:30Z" uid="152608" user="Robbo" changeset="2196697">
    <nd ref="267181506"/>
    <nd ref="267181613"/>
    <tag k="bicycle" v="permissive"/>
    <tag k="created_by" v="Potlatch 0.9b"/>
    <tag k="highway" v="residential"/>
    <tag k="name" v="Meadows Street"/>
  </way>
  <way id="25176133" version="3" timestamp="2009-08-19T04:45:37Z" uid="152608" user="Robbo" changeset="2196697">
    <nd ref="267181506"/>
    <nd ref="267181613"/>
    <tag k="bicycle" v="permissive"/>
    <tag k="created_by" v="Potlatch 0.9b"/>
    <tag k="highway" v="residential"/>
  </way>
  <way id="25176133" version="4" timestamp="2009-10-21T05:20:57Z" uid="152608" user="Robbo" changeset="2908913">
    <nd ref="267181506"/>
    <nd ref="267181613"/>
    <tag k="bicycle" v="permissive"/>
    <tag k="highway" v="residential"/>
    <tag k="lcn" v="yes"/>
  </way>
  <way id="25176133" version="5" timestamp="2009-12-24T00:31:47Z" uid="7617" user="Franc" changeset="3439240">
    <nd ref="267181506"/>
    <nd ref="598730944"/>
    <nd ref="267181613"/>
    <tag k="bicycle" v="permissive"/>
    <tag k="highway" v="residential"/>
    <tag k="lcn" v="yes"/>
  </way>
  <way id="25176133" version="6" timestamp="2010-07-08T01:58:44Z" uid="74617" user="JohnSmith" changeset="5162525">
    <nd ref="267181506"/>
    <nd ref="598730944"/>
    <nd ref="267181613"/>
    <tag k="bicycle" v="permissive"/>
    <tag k="highway" v="residential"/>
    <tag k="lcn" v="yes"/>
    <tag k="maxspeed" v="50"/>
    <tag k="maxspeed:source" v="default residential speed limit in Australia"/>
  </way>
  <way id="25176133" version="7" timestamp="2010-09-12T03:49:20Z" uid="20949" user="Ebenezer" changeset="5755509"/>
  <way id="25176237" version="2" timestamp="2010-02-15T05:21:58Z" uid="74617" user="JohnSmith" changeset="3880269">
    <nd ref="149484712"/>
    <nd ref="274460931"/>
    <nd ref="274460932"/>
    <nd ref="274460934"/>
    <tag k="highway" v="service"/>
    <tag k="maxspeed" v="50"/>
  </way>
  <way id="25176237" version="3" timestamp="2012-01-16T20:24:18Z" uid="147510" user="woodpeck_fixbot" changeset="10410676">
    <nd ref="149484712"/>
    <nd ref="274460931"/>
    <nd ref="274460932"/>
    <nd ref="274460934"/>
    <tag k="highway" v="service"/>
  </way>
  <way id="25176242" version="3" timestamp="2010-02-15T05:21:58Z" uid="74617" user="JohnSmith" changeset="3880269">
    <nd ref="274461006"/>
    <nd ref="149485264"/>
    <nd ref="274461007"/>
    <tag k="highway" v="residential"/>
    <tag k="maxspeed" v="50"/>
    <tag k="name" v="Killarney Place"/>
  </way>
  <way id="25176242" version="4" timestamp="2012-01-16T20:24:19Z" uid="147510" user="woodpeck_fixbot" changeset="10410676">
    <nd ref="274461006"/>
    <nd ref="149485264"/>
    <nd ref="274461007"/>
    <tag k="highway" v="residential"/>
    <tag k="name" v="Killarney Place"/>
  </way>
  <way id="25176306" version="3" timestamp="2010-02-08T07:58:42Z" uid="74617" user="JohnSmith" changeset="3821217">
    <nd ref="274447675"/>
    <nd ref="274461935"/>
    <tag k="highway" v="residential"/>
    <tag k="maxspeed" v="50"/>
  </way>
  <way id="25176306" version="4" timestamp="2012-01-16T20:24:21Z" uid="147510" user="woodpeck_fixbot" changeset="10410676">
    <nd ref="274447675"/>
    <nd ref="274461935"/>
    <tag k="highway" v="residential"/>
  </way>
  <way id="25176341" version="3" timestamp="2010-02-08T07:58:42Z" uid="74617" user="JohnSmith" changeset="3821217">
    <nd ref="274439142"/>
    <nd ref="274462452"/>
    <tag k="highway" v="residential"/>
    <tag k="maxspeed" v="50"/>
  </way>
  <way id="25176341" version="4" timestamp="2012-01-16T20:24:22Z" uid="147510" user="woodpeck_fixbot" changeset="10410676">
    <nd ref="274439142"/>
    <nd ref="274462452"/>
    <tag k="highway" v="residential"/>
  </way>
  <way id="25176395" version="2" timestamp="2010-02-08T08:00:53Z" uid="74617" user="JohnSmith" changeset="3821217"/>
  <way id="25176407" version="8" timestamp="2010-02-08T07:57:49Z" uid="74617" user="JohnSmith" changeset="3821217">
    <nd ref="274463516"/>
    <nd ref="451729501"/>
    <nd ref="94542892"/>
    <nd ref="371203619"/>
    <nd ref="274463444"/>
    <nd ref="451729467"/>
    <nd ref="274463445"/>
    <nd ref="274463448"/>
    <tag k="highway" v="tertiary"/>
    <tag k="name" v="Rowley Road"/>
  </way>
  <way id="25176407" version="9" timestamp="2010-06-14T08:55:51Z" uid="74617" user="JohnSmith" changeset="4984824">
    <nd ref="274463516"/>
    <nd ref="451729501"/>
    <nd ref="94542892"/>
    <nd ref="371203619"/>
    <nd ref="274463444"/>
    <nd ref="451729467"/>
    <nd ref="274463445"/>
    <nd ref="772443359"/>
    <nd ref="772443360"/>
    <nd ref="772443362"/>
    <nd ref="274463448"/>
    <tag k="highway" v="tertiary"/>
    <tag k="name" v="Rowley Road"/>
  </way>
  <way id="25176418" version="6" timestamp="2010-02-08T07:57:50Z" uid="74617" user="JohnSmith" changeset="3821217">
    <nd ref="274463679"/>
    <nd ref="274463681"/>
    <nd ref="274463684"/>
    <nd ref="274463686"/>
    <tag k="highway" v="tertiary"/>
    <tag k="name" v="Henderson Road"/>
  </way>
  <way id="25176423" version="1" timestamp="2008-06-29T03:54:33Z" uid="30201" user="rrankin" changeset="330029">
    <nd ref="274463740"/>
    <nd ref="274463745"/>
    <tag k="highway" v="residential"/>
    <tag k="name" v="Crossland Street"/>
    <tag k="source" v="yahoo"/>
  </way>
  <way id="25176423" version="2" timestamp="2009-12-24T01:21:18Z" uid="7617" user="Franc" changeset="3439397">
    <nd ref="274463740"/>
    <nd ref="274463745"/>
    <tag k="highway" v="residential"/>
    <tag k="name" v="Crossland Street"/>
    <tag k="source" v="nearmap"/>
  </way>
  <way id="25176423" version="3" timestamp="2010-07-08T01:58:44Z" uid="74617" user="JohnSmith" changeset="5162525">
    <nd ref="274463740"/>
    <nd ref="274463745"/>
    <tag k="highway" v="residential"/>
    <tag k="maxspeed" v="50"/>
    <tag k="maxspeed:source" v="default residential speed limit in Australia"/>
    <tag k="name" v="Crossland Street"/>
    <tag k="source" v="nearmap"/>
  </way>
  <way id="25176423" version="4" timestamp="2012-01-16T20:24:25Z" uid="147510" user="woodpeck_fixbot" changeset="10410676">
    <nd ref="274463740"/>
    <nd ref="274463745"/>
    <tag k="highway" v="residential"/>
    <tag k="name" v="Crossland Street"/>
    <tag k="source" v="nearmap"/>
  </way>
  <way id="25176424" version="1" timestamp="2008-06-29T03:54:33Z" uid="30201" user="rrankin" changeset="330029">
    <nd ref="274463748"/>
    <nd ref="36544621"/>
    <tag k="highway" v="residential"/>
    <tag k="name" v="Kemberley Street"/>
    <tag k="source" v="yahoo"/>
  </way>
  <way id="25176424" version="2" timestamp="2009-12-23T12:21:52Z" uid="7617" user="Franc" changeset="3434109">
    <nd ref="274463748"/>
    <nd ref="36544621"/>
    <tag k="highway" v="residential"/>
    <tag k="name" v="Kemberley Street"/>
    <tag k="source" v="nearmap"/>
  </way>
  <way id="25176424" version="3" timestamp="2010-07-08T01:59:33Z" uid="74617" user="JohnSmith" changeset="5162525">
    <nd ref="274463748"/>
    <nd ref="36544621"/>
    <tag k="highway" v="residential"/>
    <tag k="maxspeed" v="50"/>
    <tag k="maxspeed:source" v="default residential speed limit in Australia"/>
    <tag k="name" v="Kemberley Street"/>
    <tag k="source" v="nearmap"/>
  </way>
  <way id="25176424" version="4" timestamp="2012-01-16T20:24:26Z" uid="147510" user="woodpeck_fixbot" changeset="10410676">
    <nd ref="274463748"/>
    <nd ref="36544621"/>
    <tag k="highway" v="residential"/>
    <tag k="name" v="Kemberley Street"/>
    <tag k="source" v="nearmap"/>
  </way>
  <way id="25176425" version="1" timestamp="2008-06-29T03:54:34Z" uid="30201" user="rrankin" changeset="330029">
    <nd ref="274463752"/>
    <nd ref="36544622"/>
    <tag k="highway" v="residential"/>
    <tag k="name" v="kenelda Avenue"/>
    <tag k="source" v="yahoo"/>
  </way>
  <way id="25176425" version="2" timestamp="2009-12-24T01:21:18Z" uid="7617" user="Franc" changeset="3439397">
    <nd ref="274463752"/>
    <nd ref="36544622"/>
    <tag k="highway" v="residential"/>
    <tag k="name" v="kenelda Avenue"/>
    <tag k="source" v="nearmap"/>
  </way>
  <way id="25176425" version="3" timestamp="2010-07-08T02:01:59Z" uid="74617" user="JohnSmith" changeset="5162525">
    <nd ref="274463752"/>
    <nd ref="36544622"/>
    <tag k="highway" v="residential"/>
    <tag k="maxspeed" v="50"/>
    <tag k="maxspeed:source" v="default residential speed limit in Australia"/>
    <tag k="name" v="kenelda Avenue"/>
    <tag k="source" v="nearmap"/>
  </way>
  <way id="25176425" version="4" timestamp="2012-01-16T20:24:27Z" uid="147510" user="woodpeck_fixbot" changeset="10410676">
    <nd ref="274463752"/>
    <nd ref="36544622"/>
    <tag k="highway" v="residential"/>
    <tag k="name" v="kenelda Avenue"/>
    <tag k="source" v="nearmap"/>
  </way>
  <way id="25176426" version="1" timestamp="2008-06-29T03:54:35Z" uid="30201" user="rrankin" changeset="330029">
    <nd ref="274463754"/>
    <nd ref="36544624"/>
    <tag k="highway" v="residential"/>
    <tag k="name" v="Osgood Street"/>
    <tag k="source" v="yahoo"/>
  </way>
  <way id="25176426" version="2" timestamp="2009-12-23T23:15:17Z" uid="7617" user="Franc" changeset="3438683">
    <nd ref="274463754"/>
    <nd ref="36544624"/>
    <tag k="highway" v="residential"/>
    <tag k="name" v="Osgood Street"/>
    <tag k="source" v="nearmap"/>
  </way>
  <way id="25176426" version="3" timestamp="2010-07-08T01:55:04Z" uid="74617" user="JohnSmith" changeset="5162525">
    <nd ref="274463754"/>
    <nd ref="36544624"/>
    <tag k="highway" v="residential"/>
    <tag k="maxspeed" v="50"/>
    <tag k="maxspeed:source" v="default residential speed limit in Australia"/>
    <tag k="name" v="Osgood Street"/>
    <tag k="source" v="nearmap"/>
  </way>
  <way id="25176426" version="4" timestamp="2012-01-16T20:24:28Z" uid="147510" user="woodpeck_fixbot" changeset="10410676">
    <nd ref="274463754"/>
    <nd ref="36544624"/>
    <tag k="highway" v="residential"/>
    <tag k="name" v="Osgood Street"/>
    <tag k="source" v="nearmap"/>
  </way>
  <way id="25176427" version="1" timestamp="2008-06-29T03:54:35Z" uid="30201" user="rrankin" changeset="330029">
    <nd ref="274463755"/>
    <nd ref="36544625"/>
    <tag k="highway" v="residential"/>
    <tag k="name" v="Linthorne Street"/>
    <tag k="source" v="yahoo"/>
  </way>
  <way id="25176427" version="2" timestamp="2009-12-24T00:33:55Z" uid="7617" user="Franc" changeset="3439250">
    <nd ref="274463755"/>
    <nd ref="36544625"/>
    <tag k="highway" v="residential"/>
    <tag k="name" v="Linthorne Street"/>
    <tag k="source" v="nearmap"/>
  </way>
  <way id="25176427" version="3" timestamp="2010-07-08T01:57:22Z" uid="74617" user="JohnSmith" changeset="5162525">
    <nd ref="274463755"/>
    <nd ref="36544625"/>
    <tag k="highway" v="residential"/>
    <tag k="maxspeed" v="50"/>
    <tag k="maxspeed:source" v="default residential speed limit in Australia"/>
    <tag k="name" v="Linthorne Street"/>
    <tag k="source" v="nearmap"/>
  </way>
  <way id="25176427" version="4" timestamp="2012-01-16T20:24:29Z" uid="147510" user="woodpeck_fixbot" changeset="10410676">
    <nd ref="274463755"/>
    <nd ref="36544625"/>
    <tag k="highway" v="residential"/>
    <tag k="name" v="Linthorne Street"/>
    <tag k="source" v="nearmap"/>
  </way>
  <way id="25176428" version="1" timestamp="2008-06-29T03:54:36Z" uid="30201" user="rrankin" changeset="330029">
    <nd ref="274463756"/>
    <nd ref="274463757"/>
    <nd ref="36544626"/>
    <tag k="highway" v="residential"/>
    <tag k="name" v="Consatance Street"/>
    <tag k="source" v="yahoo"/>
  </way>
  <way id="25176428" version="2" timestamp="2009-12-23T23:15:16Z" uid="7617" user="Franc" changeset="3438683">
    <nd ref="274463756"/>
    <nd ref="274463757"/>
    <nd ref="36544626"/>
    <tag k="highway" v="residential"/>
    <tag k="name" v="Consatance Street"/>
    <tag k="source" v="nearmap"/>
  </way>
  <way id="25176428" version="3" timestamp="2010-07-08T01:57:53Z" uid="74617" user="JohnSmith" changeset="5162525">
    <nd ref="274463756"/>
    <nd ref="274463757"/>
    <nd ref="36544626"/>
    <tag k="highway" v="residential"/>
    <tag k="maxspeed" v="50"/>
    <tag k="maxspeed:source" v="default residential speed limit in Australia"/>
    <tag k="name" v="Consatance Street"/>
    <tag k="source" v="nearmap"/>
  </way>
  <way id="25176428" version="4" timestamp="2012-01-16T20:24:31Z" uid="147510" user="woodpeck_fixbot" changeset="10410676">
    <nd ref="274463756"/>
    <nd ref="274463757"/>
    <nd ref="36544626"/>
    <tag k="highway" v="residential"/>
    <tag k="name" v="Consatance Street"/>
    <tag k="source" v="nearmap"/>
  </way>
  <way id="25176429" version="1" timestamp="2008-06-29T03:54:37Z" uid="30201" user="rrankin" changeset="330029">
    <nd ref="274463757"/>
    <nd ref="274463759"/>
    <nd ref="274463763"/>
    <tag k="highway" v="service"/>
    <tag k="source" v="yahoo"/>
  </way>
  <way id="25176438" version="2" timestamp="2010-02-08T07:57:46Z" uid="74617" user="JohnSmith" changeset="3821217">
    <nd ref="274463997"/>
    <nd ref="274463998"/>
    <nd ref="274463999"/>
    <nd ref="274464000"/>
    <nd ref="274464001"/>
    <nd ref="274464002"/>
    <nd ref="274464003"/>
    <nd ref="274464004"/>
    <nd ref="274464005"/>
    <nd ref="274464006"/>
    <nd ref="274464007"/>
    <nd ref="274464008"/>
    <nd ref="274464010"/>
    <nd ref="274464011"/>
    <nd ref="274464012"/>
    <nd ref="274464013"/>
    <nd ref="274464014"/>
    <tag k="boat" v="no"/>
    <tag k="waterway" v="drain"/>
  </way>
  <way id="25176449" version="4" timestamp="2010-02-08T07:56:45Z" uid="74617" user="JohnSmith" changeset="3821217">
    <nd ref="274464260"/>
    <nd ref="274464261"/>
    <nd ref="274464262"/>
    <nd ref="274464263"/>
    <nd ref="274464264"/>
    <nd ref="274464265"/>
    <nd ref="274464266"/>
    <nd ref="274464267"/>
    <nd ref="274464268"/>
    <nd ref="274464269"/>
    <nd ref="274464270"/>
    <nd ref="274464271"/>
    <nd ref="274464272"/>
    <nd ref="274464273"/>
    <nd ref="274464275"/>
    <nd ref="274464276"/>
    <nd ref="274464277"/>
    <nd ref="274464278"/>
    <nd ref="443362361"/>
    <nd ref="443362359"/>
    <tag k="boat" v="no"/>
    <tag k="waterway" v="drain"/>
  </way>
  <way id="25176449" version="5" timestamp="2010-06-14T12:46:13Z" uid="74617" user="JohnSmith" changeset="4987691">
    <nd ref="274464260"/>
    <nd ref="274464261"/>
    <nd ref="274464262"/>
    <nd ref="274464263"/>
    <nd ref="274464264"/>
    <nd ref="274464265"/>
    <nd ref="274464266"/>
    <nd ref="274464267"/>
    <nd ref="274464268"/>
    <nd ref="274464269"/>
    <nd ref="274464270"/>
    <nd ref="274464271"/>
    <nd ref="274464272"/>
    <nd ref="274464273"/>
    <nd ref="274464275"/>
    <nd ref="274464276"/>
    <nd ref="274464277"/>
    <nd ref="274464278"/>
    <nd ref="443362361"/>
    <nd ref="443362359"/>
    <tag k="layer" v="-1"/>
    <tag k="waterway" v="drain"/>
  </way>
  <way id="25176459" version="3" timestamp="2010-02-08T07:57:52Z" uid="74617" user="JohnSmith" changeset="3821217">
    <nd ref="274464385"/>
    <nd ref="274464386"/>
    <nd ref="274464387"/>
    <nd ref="274464388"/>
    <nd ref="274464389"/>
    <nd ref="443362206"/>
    <tag k="foot" v="yes"/>
    <tag k="highway" v="cycleway"/>
  </way>
  <way id="25176459" version="4" timestamp="2010-06-14T12:46:12Z" uid="74617" user="JohnSmith" changeset="4987691">
    <nd ref="274464385"/>
    <nd ref="274464386"/>
    <nd ref="772602368"/>
    <nd ref="274464387"/>
    <nd ref="274464388"/>
    <nd ref="274464389"/>
    <nd ref="443362206"/>
    <tag k="foot" v="yes"/>
    <tag k="highway" v="cycleway"/>
  </way>
  <way id="25176471" version="3" timestamp="2010-02-08T07:57:50Z" uid="74617" user="JohnSmith" changeset="3821217">
    <nd ref="274463681"/>
    <nd ref="274464664"/>
    <nd ref="274464665"/>
    <nd ref="274464666"/>
    <nd ref="274464667"/>
    <nd ref="274464668"/>
    <nd ref="274464669"/>
    <nd ref="274464670"/>
    <nd ref="274464671"/>
    <nd ref="274464672"/>
    <nd ref="274470720"/>
    <nd ref="274470721"/>
    <nd ref="276307857"/>
    <tag k="highway" v="residential"/>
    <tag k="maxspeed" v="50"/>
    <tag k="name" v="Merewyn Street"/>
  </way>
  <way id="25176471" version="4" timestamp="2012-01-16T20:24:32Z" uid="147510" user="woodpeck_fixbot" changeset="10410676">
    <nd ref="274463681"/>
    <nd ref="274464664"/>
    <nd ref="274464665"/>
    <nd ref="274464666"/>
    <nd ref="274464667"/>
    <nd ref="274464668"/>
    <nd ref="274464669"/>
    <nd ref="274464670"/>
    <nd ref="274464671"/>
    <nd ref="274464672"/>
    <nd ref="274470720"/>
    <nd ref="274470721"/>
    <nd ref="276307857"/>
    <tag k="highway" v="residential"/>
    <tag k="name" v="Merewyn Street"/>
  </way>
  <way id="25176478" version="3" timestamp="2010-02-08T07:57:50Z" uid="74617" user="JohnSmith" changeset="3821217">
    <nd ref="274463448"/>
    <nd ref="274464744"/>
    <tag k="bridge" v="yes"/>
    <tag k="highway" v="tertiary"/>
    <tag k="layer" v="1"/>
  </way>
  <way id="25176478" version="4" timestamp="2010-06-14T08:52:01Z" uid="74617" user="JohnSmith" changeset="4984824">
    <nd ref="274463448"/>
    <nd ref="772440105"/>
    <tag k="bridge" v="yes"/>
    <tag k="highway" v="tertiary"/>
    <tag k="layer" v="1"/>
  </way>
  <way id="25176505" version="4" timestamp="2010-02-08T07:56:45Z" uid="74617" user="JohnSmith" changeset="3821217">
    <nd ref="274463444"/>
    <nd ref="274465134"/>
    <nd ref="274465135"/>
    <nd ref="274465136"/>
    <nd ref="274465137"/>
    <nd ref="274465138"/>
    <nd ref="274465139"/>
    <nd ref="274465140"/>
    <nd ref="274465141"/>
    <nd ref="274465142"/>
    <nd ref="274465143"/>
    <nd ref="274465144"/>
    <nd ref="274465145"/>
    <nd ref="274465146"/>
    <nd ref="274465147"/>
    <nd ref="274465148"/>
    <nd ref="274465149"/>
    <nd ref="274465150"/>
    <nd ref="274465151"/>
    <nd ref="274465153"/>
    <tag k="highway" v="residential"/>
    <tag k="maxspeed" v="50"/>
    <tag k="name" v="Kilkenny Drive"/>
  </way>
  <way id="25176505" version="5" timestamp="2012-01-16T20:24:35Z" uid="147510" user="woodpeck_fixbot" changeset="10410676">
    <nd ref="274463444"/>
    <nd ref="274465134"/>
    <nd ref="274465135"/>
    <nd ref="274465136"/>
    <nd ref="274465137"/>
    <nd ref="274465138"/>
    <nd ref="274465139"/>
    <nd ref="274465140"/>
    <nd ref="274465141"/>
    <nd ref="274465142"/>
    <nd ref="274465143"/>
    <nd ref="274465144"/>
    <nd ref="274465145"/>
    <nd ref="274465146"/>
    <nd ref="274465147"/>
    <nd ref="274465148"/>
    <nd ref="274465149"/>
    <nd ref="274465150"/>
    <nd ref="274465151"/>
    <nd ref="274465153"/>
    <tag k="highway" v="residential"/>
    <tag k="name" v="Kilkenny Drive"/>
  </way>
  <way id="25176530" version="5" timestamp="2010-02-08T07:58:35Z" uid="74617" user="JohnSmith" changeset="3821217">
    <nd ref="274465143"/>
    <nd ref="274465699"/>
    <tag k="highway" v="residential"/>
    <tag k="maxspeed" v="50"/>
    <tag k="name" v="Edenberry Court"/>
  </way>
  <way id="25176530" version="6" timestamp="2012-01-16T20:24:37Z" uid="147510" user="woodpeck_fixbot" changeset="10410676">
    <nd ref="274465143"/>
    <nd ref="274465699"/>
    <tag k="highway" v="residential"/>
    <tag k="name" v="Edenberry Court"/>
  </way>
  <way id="25176540" version="4" timestamp="2010-02-08T07:57:49Z" uid="74617" user="JohnSmith" changeset="3821217">
    <nd ref="274465134"/>
    <nd ref="274465942"/>
    <nd ref="274465943"/>
    <nd ref="274465944"/>
    <nd ref="274465945"/>
    <nd ref="274465947"/>
    <nd ref="274465948"/>
    <nd ref="274465949"/>
    <nd ref="274465951"/>
    <nd ref="274465952"/>
    <nd ref="274465953"/>
    <nd ref="274465954"/>
    <tag k="highway" v="residential"/>
    <tag k="maxspeed" v="50"/>
    <tag k="name" v="Londonderry Court"/>
  </way>
  <way id="25176540" version="5" timestamp="2012-01-16T20:24:39Z" uid="147510" user="woodpeck_fixbot" changeset="10410676">
    <nd ref="274465134"/>
    <nd ref="274465942"/>
    <nd ref="274465943"/>
    <nd ref="274465944"/>
    <nd ref="274465945"/>
    <nd ref="274465947"/>
    <nd ref="274465948"/>
    <nd ref="274465949"/>
    <nd ref="274465951"/>
    <nd ref="274465952"/>
    <nd ref="274465953"/>
    <nd ref="274465954"/>
    <tag k="highway" v="residential"/>
    <tag k="name" v="Londonderry Court"/>
  </way>
  <way id="25176543" version="4" timestamp="2010-02-08T07:58:35Z" uid="74617" user="JohnSmith" changeset="3821217">
    <nd ref="274462749"/>
    <nd ref="274466099"/>
    <nd ref="193389095"/>
    <tag k="highway" v="tertiary"/>
  </way>
  <way id="25176551" version="4" timestamp="2010-02-08T07:58:34Z" uid="74617" user="JohnSmith" changeset="3821217">
    <nd ref="274462744"/>
    <nd ref="274466285"/>
    <tag k="highway" v="residential"/>
    <tag k="maxspeed" v="50"/>
    <tag k="name" v="Small Street"/>
  </way>
  <way id="25176551" version="5" timestamp="2012-01-16T20:24:41Z" uid="147510" user="woodpeck_fixbot" changeset="10410676">
    <nd ref="274462744"/>
    <nd ref="274466285"/>
    <tag k="highway" v="residential"/>
    <tag k="name" v="Small Street"/>
  </way>
  <way id="25176558" version="4" timestamp="2010-02-08T07:58:34Z" uid="74617" user="JohnSmith" changeset="3821217">
    <nd ref="274466607"/>
    <nd ref="274466608"/>
    <nd ref="274466285"/>
    <nd ref="274466528"/>
    <nd ref="274466529"/>
    <nd ref="274466530"/>
    <nd ref="274466531"/>
    <nd ref="274466532"/>
    <tag k="highway" v="residential"/>
    <tag k="maxspeed" v="50"/>
    <tag k="name" v="Teatree Place"/>
  </way>
  <way id="25176558" version="5" timestamp="2012-01-16T20:24:44Z" uid="147510" user="woodpeck_fixbot" changeset="10410676">
    <nd ref="274466607"/>
    <nd ref="274466608"/>
    <nd ref="274466285"/>
    <nd ref="274466528"/>
    <nd ref="274466529"/>
    <nd ref="274466530"/>
    <nd ref="274466531"/>
    <nd ref="274466532"/>
    <tag k="highway" v="residential"/>
    <tag k="name" v="Teatree Place"/>
  </way>
  <way id="25176596" version="5" timestamp="2010-02-08T07:57:27Z" uid="74617" user="JohnSmith" changeset="3821217">
    <nd ref="274463445"/>
    <nd ref="274467473"/>
    <nd ref="274467474"/>
    <nd ref="274467475"/>
    <nd ref="274467477"/>
    <nd ref="274467478"/>
    <nd ref="274467479"/>
    <nd ref="274467480"/>
    <nd ref="274467481"/>
    <nd ref="274467483"/>
    <nd ref="274467484"/>
    <nd ref="274467485"/>
    <nd ref="274467486"/>
    <nd ref="274467487"/>
    <nd ref="274467490"/>
    <nd ref="274467491"/>
    <nd ref="274467492"/>
    <nd ref="274467493"/>
    <nd ref="443348672"/>
    <nd ref="443348673"/>
    <nd ref="443348674"/>
    <nd ref="443348675"/>
    <nd ref="443348676"/>
    <nd ref="443348677"/>
    <tag k="highway" v="residential"/>
    <tag k="maxspeed" v="50"/>
    <tag k="name" v="Bantry Street"/>
  </way>
  <way id="25176596" version="6" timestamp="2012-01-16T20:24:46Z" uid="147510" user="woodpeck_fixbot" changeset="10410676">
    <nd ref="274463445"/>
    <nd ref="274467473"/>
    <nd ref="274467474"/>
    <nd ref="274467475"/>
    <nd ref="274467477"/>
    <nd ref="274467478"/>
    <nd ref="274467479"/>
    <nd ref="274467480"/>
    <nd ref="274467481"/>
    <nd ref="274467483"/>
    <nd ref="274467484"/>
    <nd ref="274467485"/>
    <nd ref="274467486"/>
    <nd ref="274467487"/>
    <nd ref="274467490"/>
    <nd ref="274467491"/>
    <nd ref="274467492"/>
    <nd ref="274467493"/>
    <nd ref="443348672"/>
    <nd ref="443348673"/>
    <nd ref="443348674"/>
    <nd ref="443348675"/>
    <nd ref="443348676"/>
    <nd ref="443348677"/>
    <tag k="highway" v="residential"/>
    <tag k="name" v="Bantry Street"/>
  </way>
  <way id="25176611" version="2" timestamp="2009-07-26T07:52:01Z" uid="74617" user="JohnSmith" changeset="1941632">
    <nd ref="263681593"/>
    <nd ref="274465000"/>
    <nd ref="274465006"/>
    <nd ref="274465013"/>
    <nd ref="274465017"/>
    <nd ref="274465021"/>
    <nd ref="274465026"/>
    <nd ref="274465030"/>
    <nd ref="274465033"/>
    <nd ref="274465039"/>
    <nd ref="274465043"/>
    <nd ref="274465047"/>
    <nd ref="274465049"/>
    <nd ref="274465053"/>
    <nd ref="274465060"/>
    <nd ref="274465068"/>
    <nd ref="274465073"/>
    <tag k="highway" v="residential"/>
    <tag k="name" v="Karu Crescent"/>
  </way>
  <way id="25176612" version="3" timestamp="2009-07-26T07:25:45Z" uid="74617" user="JohnSmith" changeset="1941415">
    <nd ref="274465077"/>
    <nd ref="274465085"/>
    <tag k="highway" v="residential"/>
    <tag k="name" v="Sunny Glen"/>
  </way>
  <way id="25176613" version="2" timestamp="2009-07-26T07:50:36Z" uid="74617" user="JohnSmith" changeset="1941626">
    <nd ref="263681597"/>
    <nd ref="274465089"/>
    <nd ref="274465109"/>
    <nd ref="274465167"/>
    <nd ref="274465112"/>
    <nd ref="274465116"/>
    <tag k="highway" v="residential"/>
    <tag k="name" v="Fleetwood Grove"/>
  </way>
  <way id="25176613" version="3" timestamp="2009-07-26T07:52:00Z" uid="74617" user="JohnSmith" changeset="1941632">
    <nd ref="263681597"/>
    <nd ref="274465089"/>
    <nd ref="274465109"/>
    <nd ref="274465167"/>
    <nd ref="274465112"/>
    <nd ref="274465116"/>
    <tag k="highway" v="residential"/>
    <tag k="name" v="Fleetwood Grove"/>
  </way>
  <way id="25176614" version="2" timestamp="2009-07-26T07:51:56Z" uid="74617" user="JohnSmith" changeset="1941632">
    <nd ref="274465167"/>
    <nd ref="274465173"/>
    <nd ref="274465178"/>
    <nd ref="274465182"/>
    <tag k="highway" v="residential"/>
    <tag k="name" v="Edgewater Street"/>
  </way>
  <way id="25176616" version="2" timestamp="2009-07-26T07:52:00Z" uid="74617" user="JohnSmith" changeset="1941632">
    <nd ref="274465184"/>
    <nd ref="274465186"/>
    <nd ref="274465187"/>
    <nd ref="274465188"/>
    <nd ref="274465191"/>
    <nd ref="274465201"/>
    <nd ref="274465202"/>
    <nd ref="274465203"/>
    <nd ref="274465204"/>
    <tag k="highway" v="residential"/>
    <tag k="name" v="River Glade"/>
  </way>
  <way id="25176618" version="2" timestamp="2009-07-26T07:50:05Z" uid="74617" user="JohnSmith" changeset="1941616">
    <nd ref="274465208"/>
    <nd ref="274465212"/>
    <nd ref="274465216"/>
    <nd ref="274465219"/>
    <nd ref="274465226"/>
    <nd ref="274465230"/>
    <nd ref="274465233"/>
    <nd ref="274465237"/>
    <nd ref="274465240"/>
    <nd ref="274465244"/>
    <nd ref="274465255"/>
    <tag k="highway" v="residential"/>
    <tag k="name" v="Maple Lane"/>
  </way>
  <way id="25176618" version="3" timestamp="2009-07-26T07:51:54Z" uid="74617" user="JohnSmith" changeset="1941632">
    <nd ref="274465208"/>
    <nd ref="274465212"/>
    <nd ref="274465216"/>
    <nd ref="274465219"/>
    <nd ref="274465226"/>
    <nd ref="274465230"/>
    <nd ref="274465233"/>
    <nd ref="274465237"/>
    <nd ref="274465240"/>
    <nd ref="274465244"/>
    <nd ref="274465255"/>
    <tag k="highway" v="residential"/>
    <tag k="name" v="Maple Lane"/>
  </way>
  <way id="25176619" version="2" timestamp="2009-07-26T07:27:15Z" uid="74617" user="JohnSmith" changeset="1941424">
    <nd ref="274465281"/>
    <nd ref="274465284"/>
    <nd ref="274465289"/>
    <nd ref="274465293"/>
    <nd ref="274465297"/>
    <nd ref="274465302"/>
    <nd ref="274465305"/>
    <nd ref="274465307"/>
    <nd ref="274465330"/>
    <tag k="highway" v="residential"/>
    <tag k="name" v="Leybourne Avenue"/>
  </way>
  <way id="25176619" version="3" timestamp="2009-07-26T07:52:01Z" uid="74617" user="JohnSmith" changeset="1941632">
    <nd ref="274465281"/>
    <nd ref="274465284"/>
    <nd ref="274465289"/>
    <nd ref="274465293"/>
    <nd ref="274465297"/>
    <nd ref="274465302"/>
    <nd ref="274465305"/>
    <nd ref="274465307"/>
    <nd ref="274465330"/>
    <tag k="highway" v="residential"/>
    <tag k="name" v="Leybourne Avenue"/>
  </way>
  <way id="25176621" version="2" timestamp="2009-07-26T07:27:15Z" uid="74617" user="JohnSmith" changeset="1941424">
    <nd ref="274465305"/>
    <nd ref="274465350"/>
    <nd ref="274465354"/>
    <nd ref="274465357"/>
    <nd ref="274465359"/>
    <nd ref="274465373"/>
    <nd ref="274465374"/>
    <nd ref="274465375"/>
    <nd ref="274465376"/>
    <nd ref="274465405"/>
    <nd ref="274465379"/>
    <tag k="highway" v="residential"/>
    <tag k="name" v="Walnut Grove"/>
  </way>
  <way id="25176621" version="3" timestamp="2009-07-26T07:51:52Z" uid="74617" user="JohnSmith" changeset="1941632">
    <nd ref="274465305"/>
    <nd ref="274465350"/>
    <nd ref="274465354"/>
    <nd ref="274465357"/>
    <nd ref="274465359"/>
    <nd ref="274465373"/>
    <nd ref="274465374"/>
    <nd ref="274465375"/>
    <nd ref="274465376"/>
    <nd ref="274465405"/>
    <nd ref="274465379"/>
    <tag k="highway" v="residential"/>
    <tag k="name" v="Walnut Grove"/>
  </way>
  <way id="25176638" version="5" timestamp="2010-02-08T07:57:27Z" uid="74617" user="JohnSmith" changeset="3821217">
    <nd ref="274467817"/>
    <nd ref="274467818"/>
    <nd ref="443356643"/>
    <nd ref="274467823"/>
    <nd ref="274467826"/>
    <nd ref="274467827"/>
    <nd ref="274467828"/>
    <nd ref="274467829"/>
    <nd ref="274467830"/>
    <nd ref="274467817"/>
    <tag k="natural" v="wood"/>
  </way>
  <way id="25176642" version="2" timestamp="2009-07-26T07:52:01Z" uid="74617" user="JohnSmith" changeset="1941632">
    <nd ref="274466044"/>
    <nd ref="274466047"/>
    <tag k="highway" v="residential"/>
    <tag k="name" v="Karaka Grove"/>
  </way>
  <way id="25176643" version="2" timestamp="2009-07-26T07:51:58Z" uid="74617" user="JohnSmith" changeset="1941632">
    <nd ref="274466048"/>
    <nd ref="274466049"/>
    <nd ref="274466053"/>
    <nd ref="274466058"/>
    <nd ref="274466063"/>
    <nd ref="274466067"/>
    <nd ref="274466069"/>
    <nd ref="274466070"/>
    <nd ref="274466071"/>
    <nd ref="274466076"/>
    <nd ref="274466080"/>
    <nd ref="274466084"/>
    <nd ref="274466089"/>
    <nd ref="274466090"/>
    <nd ref="274466093"/>
    <nd ref="274466103"/>
    <nd ref="274466113"/>
    <nd ref="274466138"/>
    <nd ref="274466142"/>
    <nd ref="274466147"/>
    <nd ref="274466151"/>
    <nd ref="274466155"/>
    <nd ref="274466159"/>
    <nd ref="274466162"/>
    <nd ref="274466166"/>
    <nd ref="274466167"/>
    <nd ref="274466171"/>
    <nd ref="274466176"/>
    <nd ref="274466180"/>
    <nd ref="274466183"/>
    <nd ref="274466185"/>
    <nd ref="274466189"/>
    <tag k="highway" v="residential"/>
    <tag k="name" v="Kebbell Drive"/>
  </way>
  <way id="25176645" version="2" timestamp="2009-07-26T07:51:58Z" uid="74617" user="JohnSmith" changeset="1941632">
    <nd ref="274466203"/>
    <nd ref="274466206"/>
    <nd ref="274466210"/>
    <nd ref="274466214"/>
    <nd ref="274466218"/>
    <nd ref="274466222"/>
    <nd ref="274466241"/>
    <nd ref="274466245"/>
    <nd ref="274466248"/>
    <nd ref="274466251"/>
    <nd ref="274466257"/>
    <nd ref="274466265"/>
    <nd ref="274466268"/>
    <nd ref="274466273"/>
    <nd ref="274466277"/>
    <nd ref="274466280"/>
    <nd ref="274466288"/>
    <nd ref="274466292"/>
    <nd ref="274466296"/>
    <nd ref="274466189"/>
    <nd ref="274466299"/>
    <nd ref="274466303"/>
    <nd ref="274466308"/>
    <nd ref="274466312"/>
    <nd ref="274466316"/>
    <nd ref="274466320"/>
    <nd ref="274466329"/>
    <nd ref="274466339"/>
    <nd ref="274466349"/>
    <nd ref="274466353"/>
    <nd ref="274466358"/>
    <nd ref="274466362"/>
    <nd ref="274466366"/>
    <nd ref="274466368"/>
    <nd ref="274466372"/>
    <nd ref="274466381"/>
    <nd ref="274466384"/>
    <nd ref="274466388"/>
    <nd ref="274466396"/>
    <nd ref="274466403"/>
    <nd ref="274466407"/>
    <nd ref="274466411"/>
    <nd ref="274466415"/>
    <nd ref="274466421"/>
    <nd ref="274466426"/>
    <nd ref="274466430"/>
    <nd ref="274466434"/>
    <nd ref="274466438"/>
    <nd ref="274466441"/>
    <nd ref="274466426"/>
    <tag k="highway" v="residential"/>
    <tag k="name" v="Aston Road"/>
  </way>
  <way id="25176646" version="3" timestamp="2009-08-03T21:53:18Z" uid="4467" user="Rosscoe" changeset="2030728">
    <nd ref="274466443"/>
    <nd ref="274466447"/>
    <nd ref="274466451"/>
    <nd ref="274466452"/>
    <nd ref="274466476"/>
    <nd ref="274466453"/>
    <nd ref="274466454"/>
    <nd ref="274466455"/>
    <nd ref="274466458"/>
    <nd ref="274466464"/>
    <nd ref="274466469"/>
    <nd ref="274466472"/>
    <tag k="highway" v="trunk_link"/>
    <tag k="oneway" v="yes"/>
  </way>
  <way id="25176683" version="7" timestamp="2010-02-08T07:57:46Z" uid="74617" user="JohnSmith" changeset="3821217">
    <nd ref="193389227"/>
    <nd ref="274468086"/>
    <nd ref="443362391"/>
    <nd ref="274468088"/>
    <nd ref="332515140"/>
    <tag k="highway" v="residential"/>
    <tag k="maxspeed" v="50"/>
    <tag k="name" v="Crendon Street"/>
  </way>
  <way id="25176683" version="8" timestamp="2012-01-16T20:24:48Z" uid="147510" user="woodpeck_fixbot" changeset="10410676">
    <nd ref="193389227"/>
    <nd ref="274468086"/>
    <nd ref="443362391"/>
    <nd ref="274468088"/>
    <nd ref="332515140"/>
    <tag k="highway" v="residential"/>
    <tag k="name" v="Crendon Street"/>
  </way>
  <way id="25176709" version="6" timestamp="2010-02-08T07:57:46Z" uid="74617" user="JohnSmith" changeset="3821217">
    <nd ref="274468088"/>
    <nd ref="274468431"/>
    <nd ref="274468432"/>
    <nd ref="274468433"/>
    <nd ref="274468434"/>
    <nd ref="274468435"/>
    <nd ref="274468437"/>
    <nd ref="274468439"/>
    <nd ref="274468440"/>
    <nd ref="274468441"/>
    <nd ref="274468442"/>
    <nd ref="274468443"/>
    <nd ref="332515100"/>
    <nd ref="332515101"/>
    <nd ref="332515102"/>
    <tag k="highway" v="residential"/>
    <tag k="maxspeed" v="50"/>
    <tag k="name" v="Bacchus Street"/>
  </way>
  <way id="25176709" version="7" timestamp="2012-01-16T20:24:50Z" uid="147510" user="woodpeck_fixbot" changeset="10410676">
    <nd ref="274468088"/>
    <nd ref="274468431"/>
    <nd ref="274468432"/>
    <nd ref="274468433"/>
    <nd ref="274468434"/>
    <nd ref="274468435"/>
    <nd ref="274468437"/>
    <nd ref="274468439"/>
    <nd ref="274468440"/>
    <nd ref="274468441"/>
    <nd ref="274468442"/>
    <nd ref="274468443"/>
    <nd ref="332515100"/>
    <nd ref="332515101"/>
    <nd ref="332515102"/>
    <tag k="highway" v="residential"/>
    <tag k="name" v="Bacchus Street"/>
  </way>
  <way id="25176743" version="13" timestamp="2009-12-21T07:03:38Z" uid="4467" user="Rosscoe" changeset="3418541">
    <nd ref="193389246"/>
    <nd ref="451713062"/>
    <nd ref="597560866"/>
    <nd ref="451713071"/>
    <nd ref="451745734"/>
    <nd ref="332515176"/>
    <nd ref="443362353"/>
    <nd ref="597560882"/>
    <nd ref="332514413"/>
    <nd ref="443547626"/>
    <tag k="highway" v="tertiary"/>
    <tag k="name" v="Pitt Road"/>
    <tag k="source" v="nearmap"/>
  </way>
  <way id="25176749" version="4" timestamp="2010-02-08T07:57:49Z" uid="74617" user="JohnSmith" changeset="3821217">
    <nd ref="274467487"/>
    <nd ref="274469292"/>
    <tag k="highway" v="residential"/>
    <tag k="maxspeed" v="50"/>
    <tag k="name" v="Carlow Court"/>
  </way>
  <way id="25176749" version="5" timestamp="2012-01-16T20:24:53Z" uid="147510" user="woodpeck_fixbot" changeset="10410676">
    <nd ref="274467487"/>
    <nd ref="274469292"/>
    <tag k="highway" v="residential"/>
    <tag k="name" v="Carlow Court"/>
  </way>
  <way id="25176753" version="3" timestamp="2010-02-08T07:57:49Z" uid="74617" user="JohnSmith" changeset="3821217">
    <nd ref="274467483"/>
    <nd ref="274469341"/>
    <nd ref="274469345"/>
    <tag k="highway" v="residential"/>
    <tag k="maxspeed" v="50"/>
    <tag k="name" v="Wexford Court"/>
  </way>
  <way id="25176753" version="4" timestamp="2012-01-16T20:24:56Z" uid="147510" user="woodpeck_fixbot" changeset="10410676">
    <nd ref="274467483"/>
    <nd ref="274469341"/>
    <nd ref="274469345"/>
    <tag k="highway" v="residential"/>
    <tag k="name" v="Wexford Court"/>
  </way>
  <way id="25176756" version="3" timestamp="2010-02-08T07:57:48Z" uid="74617" user="JohnSmith" changeset="3821217">
    <nd ref="274467478"/>
    <nd ref="274469422"/>
    <tag k="highway" v="residential"/>
    <tag k="maxspeed" v="50"/>
  </way>
  <way id="25176756" version="4" timestamp="2012-01-20T19:57:46Z" uid="147510" user="woodpeck_fixbot" changeset="10449958">
    <nd ref="274467478"/>
    <nd ref="274469422"/>
    <tag k="highway" v="residential"/>
  </way>
  <way id="25176760" version="3" timestamp="2010-02-08T07:57:50Z" uid="74617" user="JohnSmith" changeset="3821217">
    <nd ref="274467477"/>
    <nd ref="274469496"/>
    <tag k="highway" v="residential"/>
    <tag k="maxspeed" v="50"/>
    <tag k="name" v="Longford Court"/>
  </way>
  <way id="25176760" version="4" timestamp="2012-01-16T20:24:59Z" uid="147510" user="woodpeck_fixbot" changeset="10410676">
    <nd ref="274467477"/>
    <nd ref="274469496"/>
    <tag k="highway" v="residential"/>
    <tag k="name" v="Longford Court"/>
  </way>
  <way id="25176768" version="5" timestamp="2010-02-08T07:57:48Z" uid="74617" user="JohnSmith" changeset="3821217">
    <nd ref="274467492"/>
    <nd ref="274469637"/>
    <nd ref="274469641"/>
    <nd ref="274469642"/>
    <tag k="highway" v="residential"/>
    <tag k="lcn" v="yes"/>
    <tag k="maxspeed" v="50"/>
    <tag k="name" v="Carin Court"/>
  </way>
  <way id="25176768" version="6" timestamp="2012-01-16T20:25:01Z" uid="147510" user="woodpeck_fixbot" changeset="10410676">
    <nd ref="274467492"/>
    <nd ref="274469637"/>
    <nd ref="274469641"/>
    <nd ref="274469642"/>
    <tag k="highway" v="residential"/>
    <tag k="lcn" v="yes"/>
    <tag k="name" v="Carin Court"/>
  </way>
  <way id="25176786" version="4" timestamp="2010-02-08T07:57:46Z" uid="74617" user="JohnSmith" changeset="3821217">
    <nd ref="443362177"/>
    <nd ref="443362175"/>
    <nd ref="274470049"/>
    <nd ref="451713166"/>
    <nd ref="274470050"/>
    <nd ref="274470051"/>
    <nd ref="274470052"/>
    <nd ref="274470053"/>
    <nd ref="274470054"/>
    <nd ref="451713165"/>
    <nd ref="274470055"/>
    <nd ref="274470056"/>
    <nd ref="274470057"/>
    <nd ref="274470058"/>
    <nd ref="451713164"/>
    <nd ref="274470059"/>
    <nd ref="274470060"/>
    <nd ref="274469642"/>
    <tag k="foot" v="yes"/>
    <tag k="highway" v="cycleway"/>
  </way>
  <way id="25176793" version="3" timestamp="2010-02-08T07:57:48Z" uid="74617" user="JohnSmith" changeset="3821217">
    <nd ref="274469345"/>
    <nd ref="274470223"/>
    <nd ref="274470054"/>
    <tag k="foot" v="yes"/>
    <tag k="highway" v="footway"/>
  </way>
  <way id="25176797" version="3" timestamp="2010-02-08T07:57:50Z" uid="74617" user="JohnSmith" changeset="3821217">
    <nd ref="274469496"/>
    <nd ref="274470300"/>
    <nd ref="274470049"/>
    <tag k="foot" v="yes"/>
    <tag k="highway" v="footway"/>
  </way>
  <way id="25176810" version="3" timestamp="2010-02-08T07:56:44Z" uid="74617" user="JohnSmith" changeset="3821217">
    <nd ref="274462749"/>
    <nd ref="274470613"/>
    <nd ref="274470614"/>
    <nd ref="274470615"/>
    <nd ref="274470616"/>
    <tag k="highway" v="residential"/>
    <tag k="maxspeed" v="50"/>
    <tag k="name" v="Forest Road"/>
  </way>
  <way id="25176810" version="4" timestamp="2012-01-16T20:25:03Z" uid="147510" user="woodpeck_fixbot" changeset="10410676">
    <nd ref="274462749"/>
    <nd ref="274470613"/>
    <nd ref="274470614"/>
    <nd ref="274470615"/>
    <nd ref="274470616"/>
    <tag k="highway" v="residential"/>
    <tag k="name" v="Forest Road"/>
  </way>
  <way id="25176816" version="2" timestamp="2009-01-24T02:49:06Z" uid="7617" user="Franc" changeset="830135">
    <nd ref="14273036"/>
    <nd ref="14273034"/>
    <nd ref="14273033"/>
    <nd ref="14273028"/>
    <nd ref="246962063"/>
    <nd ref="14273019"/>
    <nd ref="14273016"/>
    <nd ref="14273013"/>
    <nd ref="14273012"/>
    <nd ref="14273008"/>
    <nd ref="26525613"/>
    <nd ref="14273007"/>
    <nd ref="14273003"/>
    <nd ref="14272999"/>
    <nd ref="26525615"/>
    <nd ref="26525416"/>
    <nd ref="14272997"/>
    <nd ref="14272995"/>
    <nd ref="246962565"/>
    <nd ref="246963355"/>
    <nd ref="14272988"/>
    <nd ref="14272985"/>
    <nd ref="246962639"/>
    <nd ref="14272979"/>
    <nd ref="14272977"/>
    <nd ref="14272973"/>
    <nd ref="246962555"/>
    <nd ref="14272970"/>
    <nd ref="14272966"/>
    <nd ref="14272962"/>
    <nd ref="14272959"/>
    <nd ref="246962311"/>
    <nd ref="14272955"/>
    <nd ref="14272952"/>
    <nd ref="14272949"/>
    <nd ref="14272946"/>
    <nd ref="14272944"/>
    <nd ref="14272942"/>
    <nd ref="14272939"/>
    <nd ref="14272936"/>
    <nd ref="14272932"/>
    <nd ref="14272930"/>
    <nd ref="14272926"/>
    <nd ref="14272924"/>
    <nd ref="14272913"/>
    <nd ref="14272911"/>
    <nd ref="14272905"/>
    <nd ref="14272901"/>
    <nd ref="14272896"/>
    <nd ref="8407450"/>
    <nd ref="8529756"/>
    <nd ref="8407449"/>
    <nd ref="246975285"/>
    <nd ref="8529757"/>
    <nd ref="8529760"/>
    <nd ref="8407448"/>
    <nd ref="8407447"/>
    <nd ref="26511439"/>
    <nd ref="8529763"/>
    <tag k="created_by" v="Potlatch 0.9c"/>
    <tag k="highway" v="primary"/>
    <tag k="image" v="80n:dsc04099.jpg"/>
    <tag k="name" v="New South Head Road"/>
  </way>
  <way id="25176816" version="3" timestamp="2009-01-24T14:16:23Z" uid="7617" user="Franc" changeset="830819">
    <nd ref="14273036"/>
    <nd ref="14273034"/>
    <nd ref="14273028"/>
    <nd ref="246962063"/>
    <nd ref="14273019"/>
    <nd ref="335913329"/>
    <nd ref="335913331"/>
    <nd ref="14273016"/>
    <nd ref="14273013"/>
    <nd ref="335913328"/>
    <nd ref="14273012"/>
    <nd ref="335913327"/>
    <nd ref="14273008"/>
    <nd ref="26525613"/>
    <nd ref="14273007"/>
    <nd ref="14273003"/>
    <nd ref="14272999"/>
    <nd ref="26525615"/>
    <nd ref="26525416"/>
    <nd ref="14272997"/>
    <nd ref="14272995"/>
    <nd ref="246962565"/>
    <nd ref="246963355"/>
    <nd ref="14272988"/>
    <nd ref="14272985"/>
    <nd ref="246962639"/>
    <nd ref="14272979"/>
    <nd ref="14272977"/>
    <nd ref="14272973"/>
    <nd ref="246962555"/>
    <nd ref="14272970"/>
    <nd ref="14272966"/>
    <nd ref="14272962"/>
    <nd ref="14272959"/>
    <nd ref="246962311"/>
    <nd ref="14272955"/>
    <nd ref="14272952"/>
    <nd ref="14272949"/>
    <nd ref="14272946"/>
    <nd ref="14272944"/>
    <nd ref="14272942"/>
    <nd ref="14272939"/>
    <nd ref="14272936"/>
    <nd ref="14272932"/>
    <nd ref="14272930"/>
    <nd ref="14272926"/>
    <nd ref="14272924"/>
    <nd ref="14272913"/>
    <nd ref="14272911"/>
    <nd ref="14272905"/>
    <nd ref="14272901"/>
    <nd ref="14272896"/>
    <nd ref="8407450"/>
    <nd ref="8529756"/>
    <nd ref="8407449"/>
    <nd ref="246975285"/>
    <nd ref="8529757"/>
    <nd ref="8529760"/>
    <nd ref="8407448"/>
    <nd ref="8407447"/>
    <nd ref="26511439"/>
    <nd ref="8529763"/>
    <tag k="created_by" v="Potlatch 0.9c"/>
    <tag k="highway" v="primary"/>
    <tag k="image" v="80n:dsc04099.jpg"/>
    <tag k="name" v="New South Head Road"/>
  </way>
  <way id="25176816" version="4" timestamp="2009-01-24T22:56:20Z" uid="7617" user="Franc" changeset="831041">
    <nd ref="14273036"/>
    <nd ref="14273034"/>
    <nd ref="14273028"/>
    <nd ref="246962063"/>
    <nd ref="14273019"/>
    <nd ref="335913329"/>
    <nd ref="335913331"/>
    <nd ref="14273016"/>
    <nd ref="14273013"/>
    <nd ref="335913328"/>
    <nd ref="14273012"/>
    <nd ref="335913327"/>
    <nd ref="14273008"/>
    <nd ref="26525613"/>
    <nd ref="14273003"/>
    <nd ref="336124945"/>
    <nd ref="14272999"/>
    <nd ref="26525615"/>
    <nd ref="26525416"/>
    <nd ref="14272997"/>
    <nd ref="14272995"/>
    <nd ref="246962565"/>
    <nd ref="246963355"/>
    <nd ref="14272988"/>
    <nd ref="14272985"/>
    <nd ref="246962639"/>
    <nd ref="14272979"/>
    <nd ref="14272977"/>
    <nd ref="14272973"/>
    <nd ref="246962555"/>
    <nd ref="14272970"/>
    <nd ref="336125020"/>
    <nd ref="336125031"/>
    <nd ref="14272966"/>
    <nd ref="14272962"/>
    <nd ref="14272959"/>
    <nd ref="246962311"/>
    <nd ref="14272955"/>
    <nd ref="14272952"/>
    <nd ref="14272949"/>
    <nd ref="14272946"/>
    <nd ref="14272944"/>
    <nd ref="14272942"/>
    <nd ref="14272939"/>
    <nd ref="14272936"/>
    <nd ref="14272932"/>
    <nd ref="14272930"/>
    <nd ref="14272926"/>
    <nd ref="14272924"/>
    <nd ref="14272913"/>
    <nd ref="14272911"/>
    <nd ref="14272905"/>
    <nd ref="14272901"/>
    <nd ref="14272896"/>
    <nd ref="8407450"/>
    <nd ref="8529756"/>
    <nd ref="8407449"/>
    <nd ref="246975285"/>
    <nd ref="8529757"/>
    <nd ref="8529760"/>
    <nd ref="8407448"/>
    <nd ref="8407447"/>
    <nd ref="26511439"/>
    <nd ref="8529763"/>
    <tag k="created_by" v="Potlatch 0.9c"/>
    <tag k="highway" v="primary"/>
    <tag k="image" v="80n:dsc04099.jpg"/>
    <tag k="name" v="New South Head Road"/>
  </way>
  <way id="25176816" version="5" timestamp="2009-07-21T11:26:13Z" uid="8821" user="norky" changeset="1894129">
    <nd ref="14273036"/>
    <nd ref="14273034"/>
    <nd ref="14273028"/>
    <nd ref="246962063"/>
    <nd ref="14273019"/>
    <nd ref="335913329"/>
    <nd ref="335913331"/>
    <nd ref="14273016"/>
    <nd ref="14273013"/>
    <nd ref="335913328"/>
    <nd ref="14273012"/>
    <nd ref="335913327"/>
    <nd ref="14273008"/>
    <nd ref="26525613"/>
    <nd ref="14273003"/>
    <nd ref="336124945"/>
    <nd ref="14272999"/>
    <nd ref="26525615"/>
    <nd ref="26525416"/>
    <nd ref="14272997"/>
    <nd ref="14272995"/>
    <nd ref="246962565"/>
    <nd ref="246963355"/>
    <nd ref="14272988"/>
    <nd ref="14272985"/>
    <nd ref="246962639"/>
    <nd ref="14272979"/>
    <nd ref="14272977"/>
    <nd ref="14272973"/>
    <nd ref="246962555"/>
    <nd ref="14272970"/>
    <nd ref="336125020"/>
    <nd ref="336125031"/>
    <nd ref="14272966"/>
    <nd ref="14272962"/>
    <nd ref="14272959"/>
    <nd ref="246962311"/>
    <nd ref="14272955"/>
    <nd ref="14272952"/>
    <nd ref="14272949"/>
    <nd ref="14272946"/>
    <nd ref="14272944"/>
    <nd ref="14272942"/>
    <nd ref="14272939"/>
    <nd ref="14272936"/>
    <nd ref="14272932"/>
    <nd ref="14272930"/>
    <nd ref="14272926"/>
    <nd ref="14272924"/>
    <nd ref="14272913"/>
    <nd ref="14272911"/>
    <nd ref="14272905"/>
    <nd ref="14272901"/>
    <nd ref="14272896"/>
    <nd ref="8407450"/>
    <nd ref="8529756"/>
    <nd ref="8407449"/>
    <nd ref="246975285"/>
    <nd ref="8529757"/>
    <nd ref="8529760"/>
    <nd ref="8407448"/>
    <nd ref="444794952"/>
    <nd ref="8407447"/>
    <nd ref="26511439"/>
    <nd ref="8529763"/>
    <tag k="highway" v="primary"/>
    <tag k="image" v="80n:dsc04099.jpg"/>
    <tag k="name" v="New South Head Road"/>
  </way>
  <way id="25176816" version="6" timestamp="2009-07-21T11:43:05Z" uid="8821" user="norky" changeset="1894302">
    <nd ref="14273036"/>
    <nd ref="14273034"/>
    <nd ref="14273028"/>
    <nd ref="246962063"/>
    <nd ref="14273019"/>
    <nd ref="335913329"/>
    <nd ref="335913331"/>
    <nd ref="14273016"/>
    <nd ref="14273013"/>
    <nd ref="335913328"/>
    <nd ref="14273012"/>
    <nd ref="335913327"/>
    <nd ref="14273008"/>
    <nd ref="26525613"/>
    <nd ref="14273003"/>
    <nd ref="336124945"/>
    <nd ref="14272999"/>
    <nd ref="26525615"/>
    <nd ref="26525416"/>
    <nd ref="14272997"/>
    <nd ref="14272995"/>
    <nd ref="246962565"/>
    <nd ref="246963355"/>
    <nd ref="14272988"/>
    <nd ref="14272985"/>
    <nd ref="246962639"/>
    <nd ref="14272979"/>
    <nd ref="14272977"/>
    <nd ref="14272973"/>
    <nd ref="246962555"/>
    <nd ref="14272970"/>
    <nd ref="336125020"/>
    <nd ref="336125031"/>
    <nd ref="14272966"/>
    <nd ref="14272962"/>
    <nd ref="14272959"/>
    <nd ref="246962311"/>
    <nd ref="14272955"/>
    <nd ref="14272952"/>
    <nd ref="14272949"/>
    <nd ref="14272946"/>
    <nd ref="14272944"/>
    <nd ref="14272942"/>
    <nd ref="14272939"/>
    <nd ref="14272936"/>
    <nd ref="14272932"/>
    <nd ref="14272930"/>
    <nd ref="14272926"/>
    <nd ref="14272924"/>
    <nd ref="14272913"/>
    <nd ref="14272911"/>
    <nd ref="14272905"/>
    <nd ref="14272901"/>
    <nd ref="14272896"/>
    <nd ref="8407450"/>
    <nd ref="8529756"/>
    <nd ref="8407449"/>
    <nd ref="246975285"/>
    <nd ref="8529757"/>
    <nd ref="8529760"/>
    <nd ref="8407448"/>
    <nd ref="444794952"/>
    <nd ref="8407447"/>
    <nd ref="26511439"/>
    <nd ref="444803003"/>
    <nd ref="8529763"/>
    <tag k="highway" v="primary"/>
    <tag k="image" v="80n:dsc04099.jpg"/>
    <tag k="name" v="New South Head Road"/>
  </way>
  <way id="25176816" version="7" timestamp="2010-01-23T14:43:19Z" uid="7617" user="Franc" changeset="3692271">
    <nd ref="14273036"/>
    <nd ref="14273034"/>
    <nd ref="14273028"/>
    <nd ref="246962063"/>
    <nd ref="14273019"/>
    <nd ref="335913329"/>
    <nd ref="335913331"/>
    <nd ref="14273016"/>
    <nd ref="14273013"/>
    <nd ref="335913328"/>
    <nd ref="14273012"/>
    <nd ref="335913327"/>
    <nd ref="14273008"/>
    <nd ref="26525613"/>
    <nd ref="14273003"/>
    <nd ref="336124945"/>
    <nd ref="14272999"/>
    <nd ref="26525615"/>
    <nd ref="26525416"/>
    <nd ref="14272997"/>
    <nd ref="14272995"/>
    <nd ref="246962565"/>
    <nd ref="246963355"/>
    <nd ref="14272988"/>
    <nd ref="14272985"/>
    <nd ref="246962639"/>
    <nd ref="14272979"/>
    <nd ref="14272977"/>
    <nd ref="14272973"/>
    <nd ref="246962555"/>
    <nd ref="14272970"/>
    <nd ref="336125020"/>
    <nd ref="336125031"/>
    <nd ref="618698721"/>
    <nd ref="14272966"/>
    <tag k="highway" v="primary"/>
    <tag k="image" v="80n:dsc04099.jpg"/>
    <tag k="name" v="New South Head Road"/>
  </way>
  <way id="25176816" version="8" timestamp="2011-05-22T11:22:41Z" uid="7617" user="Franc" changeset="8215001">
    <nd ref="14273036"/>
    <nd ref="1295935091"/>
    <nd ref="1295935273"/>
    <nd ref="14273034"/>
    <nd ref="14273028"/>
    <nd ref="1295935210"/>
    <nd ref="1295935053"/>
    <nd ref="246962063"/>
    <nd ref="14273019"/>
    <nd ref="335913329"/>
    <nd ref="335913331"/>
    <nd ref="14273016"/>
    <nd ref="14273013"/>
    <nd ref="335913328"/>
    <nd ref="14273012"/>
    <nd ref="335913327"/>
    <nd ref="1295935332"/>
    <nd ref="14273008"/>
    <nd ref="26525613"/>
    <nd ref="1295935251"/>
    <nd ref="14273003"/>
    <nd ref="1295935218"/>
    <nd ref="336124945"/>
    <nd ref="1295935151"/>
    <nd ref="14272999"/>
    <nd ref="1295935048"/>
    <nd ref="26525615"/>
    <nd ref="26525416"/>
    <nd ref="1295935134"/>
    <nd ref="14272997"/>
    <nd ref="14272995"/>
    <nd ref="246962565"/>
    <nd ref="246963355"/>
    <nd ref="14272988"/>
    <nd ref="14272985"/>
    <nd ref="246962639"/>
    <nd ref="14272979"/>
    <nd ref="14272977"/>
    <nd ref="14272973"/>
    <nd ref="246962555"/>
    <nd ref="14272970"/>
    <nd ref="336125020"/>
    <nd ref="336125031"/>
    <nd ref="618698721"/>
    <nd ref="14272966"/>
    <tag k="highway" v="primary"/>
    <tag k="image" v="80n:dsc04099.jpg"/>
    <tag k="name" v="New South Head Road"/>
  </way>
  <way id="25176820" version="3" timestamp="2010-02-08T07:57:52Z" uid="74617" user="JohnSmith" changeset="3821217">
    <nd ref="274464667"/>
    <nd ref="274470830"/>
    <nd ref="274470831"/>
    <nd ref="274470833"/>
    <tag k="highway" v="residential"/>
    <tag k="maxspeed" v="50"/>
    <tag k="name" v="Sophia Street"/>
  </way>
  <way id="25176820" version="4" timestamp="2012-01-16T20:25:06Z" uid="147510" user="woodpeck_fixbot" changeset="10410676">
    <nd ref="274464667"/>
    <nd ref="274470830"/>
    <nd ref="274470831"/>
    <nd ref="274470833"/>
    <tag k="highway" v="residential"/>
    <tag k="name" v="Sophia Street"/>
  </way>
  <way id="25176832" version="3" timestamp="2010-02-08T07:57:51Z" uid="74617" user="JohnSmith" changeset="3821217">
    <nd ref="274470721"/>
    <nd ref="274471001"/>
    <nd ref="274471002"/>
    <nd ref="274471003"/>
    <nd ref="274471004"/>
    <nd ref="274471005"/>
    <nd ref="274471006"/>
    <nd ref="274471007"/>
    <tag k="highway" v="residential"/>
    <tag k="maxspeed" v="50"/>
    <tag k="name" v="Sacha Street"/>
  </way>
  <way id="25176832" version="4" timestamp="2012-01-16T20:25:08Z" uid="147510" user="woodpeck_fixbot" changeset="10410676">
    <nd ref="274470721"/>
    <nd ref="274471001"/>
    <nd ref="274471002"/>
    <nd ref="274471003"/>
    <nd ref="274471004"/>
    <nd ref="274471005"/>
    <nd ref="274471006"/>
    <nd ref="274471007"/>
    <tag k="highway" v="residential"/>
    <tag k="name" v="Sacha Street"/>
  </way>
  <way id="25176859" version="5" timestamp="2010-02-08T07:58:34Z" uid="74617" user="JohnSmith" changeset="3821217">
    <nd ref="276307894"/>
    <nd ref="274471495"/>
    <nd ref="274471496"/>
    <nd ref="274471497"/>
    <nd ref="274471498"/>
    <nd ref="274471499"/>
    <nd ref="274471500"/>
    <nd ref="274471502"/>
    <nd ref="274471503"/>
    <nd ref="274471504"/>
    <nd ref="274471505"/>
    <nd ref="274471506"/>
    <nd ref="274471507"/>
    <nd ref="274471508"/>
    <tag k="highway" v="residential"/>
    <tag k="maxspeed" v="50"/>
    <tag k="name" v="Leah Street"/>
  </way>
  <way id="25176859" version="6" timestamp="2012-01-16T20:25:11Z" uid="147510" user="woodpeck_fixbot" changeset="10410676">
    <nd ref="276307894"/>
    <nd ref="274471495"/>
    <nd ref="274471496"/>
    <nd ref="274471497"/>
    <nd ref="274471498"/>
    <nd ref="274471499"/>
    <nd ref="274471500"/>
    <nd ref="274471502"/>
    <nd ref="274471503"/>
    <nd ref="274471504"/>
    <nd ref="274471505"/>
    <nd ref="274471506"/>
    <nd ref="274471507"/>
    <nd ref="274471508"/>
    <tag k="highway" v="residential"/>
    <tag k="name" v="Leah Street"/>
  </way>
  <way id="25176877" version="4" timestamp="2010-02-08T07:58:34Z" uid="74617" user="JohnSmith" changeset="3821217">
    <nd ref="274471502"/>
    <nd ref="274471801"/>
    <nd ref="274471802"/>
    <nd ref="274471804"/>
    <tag k="highway" v="residential"/>
    <tag k="maxspeed" v="50"/>
    <tag k="name" v="Norma Street"/>
  </way>
  <way id="25176877" version="5" timestamp="2012-01-16T20:25:12Z" uid="147510" user="woodpeck_fixbot" changeset="10410676">
    <nd ref="274471502"/>
    <nd ref="274471801"/>
    <nd ref="274471802"/>
    <nd ref="274471804"/>
    <tag k="highway" v="residential"/>
    <tag k="name" v="Norma Street"/>
  </way>
  <way id="25176888" version="7" timestamp="2010-02-08T07:58:33Z" uid="74617" user="JohnSmith" changeset="3821217">
    <nd ref="274471503"/>
    <nd ref="274471967"/>
    <nd ref="274471968"/>
    <nd ref="274471970"/>
    <nd ref="303734916"/>
    <tag k="highway" v="residential"/>
    <tag k="maxspeed" v="50"/>
    <tag k="name" v="Melinda Street"/>
  </way>
  <way id="25176888" version="8" timestamp="2012-01-16T20:25:15Z" uid="147510" user="woodpeck_fixbot" changeset="10410676">
    <nd ref="274471503"/>
    <nd ref="274471967"/>
    <nd ref="274471968"/>
    <nd ref="274471970"/>
    <nd ref="303734916"/>
    <tag k="highway" v="residential"/>
    <tag k="name" v="Melinda Street"/>
  </way>
  <way id="25176917" version="6" timestamp="2010-02-08T07:58:32Z" uid="74617" user="JohnSmith" changeset="3821217">
    <nd ref="274472522"/>
    <nd ref="274472524"/>
    <nd ref="274472525"/>
    <nd ref="274472526"/>
    <nd ref="274472527"/>
    <nd ref="274472528"/>
    <nd ref="274472529"/>
    <nd ref="274472530"/>
    <nd ref="274472531"/>
    <nd ref="274472532"/>
    <nd ref="274472533"/>
    <nd ref="274471508"/>
    <nd ref="274472536"/>
    <nd ref="303734947"/>
    <nd ref="303734951"/>
    <nd ref="303734953"/>
    <nd ref="303734963"/>
    <tag k="highway" v="residential"/>
    <tag k="maxspeed" v="50"/>
    <tag k="name" v="Rebecca Street"/>
  </way>
  <way id="25176917" version="7" timestamp="2012-01-16T20:25:16Z" uid="147510" user="woodpeck_fixbot" changeset="10410676">
    <nd ref="274472522"/>
    <nd ref="274472524"/>
    <nd ref="274472525"/>
    <nd ref="274472526"/>
    <nd ref="274472527"/>
    <nd ref="274472528"/>
    <nd ref="274472529"/>
    <nd ref="274472530"/>
    <nd ref="274472531"/>
    <nd ref="274472532"/>
    <nd ref="274472533"/>
    <nd ref="274471508"/>
    <nd ref="274472536"/>
    <nd ref="303734947"/>
    <nd ref="303734951"/>
    <nd ref="303734953"/>
    <nd ref="303734963"/>
    <tag k="highway" v="residential"/>
    <tag k="name" v="Rebecca Street"/>
  </way>
  <way id="25176918" version="4" timestamp="2010-02-08T07:58:33Z" uid="74617" user="JohnSmith" changeset="3821217">
    <nd ref="303698017"/>
    <nd ref="303734963"/>
    <nd ref="303735016"/>
    <nd ref="274472541"/>
    <nd ref="274472543"/>
    <nd ref="274472544"/>
    <nd ref="274472545"/>
    <nd ref="274472546"/>
    <nd ref="274472547"/>
    <nd ref="274472549"/>
    <tag k="highway" v="residential"/>
    <tag k="maxspeed" v="50"/>
    <tag k="name" v="Robyn Street"/>
  </way>
  <way id="25176918" version="5" timestamp="2012-01-16T20:25:21Z" uid="147510" user="woodpeck_fixbot" changeset="10410676">
    <nd ref="303698017"/>
    <nd ref="303734963"/>
    <nd ref="303735016"/>
    <nd ref="274472541"/>
    <nd ref="274472543"/>
    <nd ref="274472544"/>
    <nd ref="274472545"/>
    <nd ref="274472546"/>
    <nd ref="274472547"/>
    <nd ref="274472549"/>
    <tag k="highway" v="residential"/>
    <tag k="name" v="Robyn Street"/>
  </way>
  <way id="25176928" version="5" timestamp="2010-02-08T07:58:33Z" uid="74617" user="JohnSmith" changeset="3821217">
    <nd ref="303698021"/>
    <nd ref="303735055"/>
    <nd ref="303735040"/>
    <nd ref="274472706"/>
    <nd ref="274472707"/>
    <nd ref="274472709"/>
    <nd ref="274472710"/>
    <nd ref="274472711"/>
    <tag k="highway" v="residential"/>
    <tag k="maxspeed" v="50"/>
    <tag k="name" v="Dale Street"/>
  </way>
  <way id="25176928" version="6" timestamp="2012-01-16T20:25:22Z" uid="147510" user="woodpeck_fixbot" changeset="10410676">
    <nd ref="303698021"/>
    <nd ref="303735055"/>
    <nd ref="303735040"/>
    <nd ref="274472706"/>
    <nd ref="274472707"/>
    <nd ref="274472709"/>
    <nd ref="274472710"/>
    <nd ref="274472711"/>
    <tag k="highway" v="residential"/>
    <tag k="name" v="Dale Street"/>
  </way>
  <way id="25176957" version="3" timestamp="2010-02-08T07:58:36Z" uid="74617" user="JohnSmith" changeset="3821217">
    <nd ref="274472706"/>
    <nd ref="274473064"/>
    <nd ref="274473065"/>
    <nd ref="274473066"/>
    <tag k="highway" v="residential"/>
    <tag k="maxspeed" v="50"/>
    <tag k="name" v="Susan Street"/>
  </way>
  <way id="25176957" version="4" timestamp="2012-01-16T20:25:24Z" uid="147510" user="woodpeck_fixbot" changeset="10410676">
    <nd ref="274472706"/>
    <nd ref="274473064"/>
    <nd ref="274473065"/>
    <nd ref="274473066"/>
    <tag k="highway" v="residential"/>
    <tag k="name" v="Susan Street"/>
  </way>
  <way id="25176964" version="4" timestamp="2010-02-08T07:58:33Z" uid="74617" user="JohnSmith" changeset="3821217">
    <nd ref="303735040"/>
    <nd ref="303735041"/>
    <nd ref="303735042"/>
    <tag k="highway" v="residential"/>
    <tag k="maxspeed" v="50"/>
    <tag k="name" v="Patricia Street"/>
  </way>
  <way id="25176964" version="5" timestamp="2012-01-16T20:25:25Z" uid="147510" user="woodpeck_fixbot" changeset="10410676">
    <nd ref="303735040"/>
    <nd ref="303735041"/>
    <nd ref="303735042"/>
    <tag k="highway" v="residential"/>
    <tag k="name" v="Patricia Street"/>
  </way>
  <way id="25176974" version="3" timestamp="2010-02-08T07:58:34Z" uid="74617" user="JohnSmith" changeset="3821217">
    <nd ref="274472529"/>
    <nd ref="274473286"/>
    <nd ref="274473288"/>
    <tag k="highway" v="residential"/>
    <tag k="maxspeed" v="50"/>
    <tag k="name" v="Catherine Court"/>
  </way>
  <way id="25176974" version="4" timestamp="2012-01-16T20:25:28Z" uid="147510" user="woodpeck_fixbot" changeset="10410676">
    <nd ref="274472529"/>
    <nd ref="274473286"/>
    <nd ref="274473288"/>
    <tag k="highway" v="residential"/>
    <tag k="name" v="Catherine Court"/>
  </way>
  <way id="25176984" version="5" timestamp="2010-02-08T07:56:43Z" uid="74617" user="JohnSmith" changeset="3821217">
    <nd ref="274471007"/>
    <nd ref="274473489"/>
    <nd ref="443362198"/>
    <nd ref="274473490"/>
    <nd ref="451713038"/>
    <nd ref="274473491"/>
    <nd ref="274473492"/>
    <nd ref="274473493"/>
    <nd ref="274475209"/>
    <nd ref="274475210"/>
    <nd ref="274475211"/>
    <nd ref="274475212"/>
    <nd ref="276307904"/>
    <tag k="highway" v="residential"/>
    <tag k="maxspeed" v="50"/>
    <tag k="name" v="George Street"/>
  </way>
  <way id="25176984" version="6" timestamp="2012-01-16T20:25:30Z" uid="147510" user="woodpeck_fixbot" changeset="10410676">
    <nd ref="274471007"/>
    <nd ref="274473489"/>
    <nd ref="443362198"/>
    <nd ref="274473490"/>
    <nd ref="451713038"/>
    <nd ref="274473491"/>
    <nd ref="274473492"/>
    <nd ref="274473493"/>
    <nd ref="274475209"/>
    <nd ref="274475210"/>
    <nd ref="274475211"/>
    <nd ref="274475212"/>
    <nd ref="276307904"/>
    <tag k="highway" v="residential"/>
    <tag k="name" v="George Street"/>
  </way>
</osm>
