<?xml version='1.0' encoding='UTF-8'?>
<osm version="0.6" generator="libosmium/2.20.0">
  <way id="25288448" version="5" timestamp="2009-02-14T01:20:40Z" uid="36809" user="pfoten_weg_!_" changeset="423851">
    <nd ref="21151027"/>
    <nd ref="275450871"/>
    <nd ref="275450869"/>
    <nd ref="275450870"/>
    <tag k="created_by" v="RambaZamba"/>
    <tag k="highway" v="trunk_link"/>
    <tag k="oneway" v="yes"/>
    <tag k="ref" v="B 2 R;B 11"/>
    <tag k="source" v="survey"/>
  </way>
  <way id="25288448" version="6" timestamp="2009-06-02T22:23:28Z" uid="118197" user="JosmJo" changeset="1409181">
    <nd ref="21151027"/>
    <nd ref="275450871"/>
    <nd ref="275450869"/>
    <nd ref="275450870"/>
    <tag k="created_by" v="RambaZamba"/>
    <tag k="highway" v="trunk_link"/>
    <tag k="oneway" v="yes"/>
    <tag k="ref" v="B 11"/>
    <tag k="source" v="survey"/>
  </way>
  <way id="25288448" version="7" timestamp="2009-06-26T18:01:16Z" uid="129061" user="Singvogel" changeset="1643338">
    <nd ref="21151027"/>
    <nd ref="275450871"/>
    <nd ref="275450869"/>
    <nd ref="275450870"/>
    <tag k="created_by" v="RambaZamba"/>
    <tag k="highway" v="primary_link"/>
    <tag k="oneway" v="yes"/>
    <tag k="ref" v="B 11"/>
    <tag k="source" v="survey"/>
  </way>
  <way id="25288448" version="8" timestamp="2009-08-28T19:55:51Z" uid="156995" user="HampelZamba" changeset="2294580">
    <nd ref="21151027"/>
    <nd ref="275450871"/>
    <nd ref="275450869"/>
    <nd ref="275450870"/>
    <tag k="highway" v="primary_link"/>
    <tag k="oneway" v="yes"/>
    <tag k="ref" v="B 11"/>
    <tag k="source" v="survey"/>
  </way>
  <way id="25288448" version="9" timestamp="2009-09-01T10:36:28Z" uid="36809" user="pfoten_weg_!_" changeset="2335754">
    <nd ref="21151027"/>
    <nd ref="275450871"/>
    <nd ref="275450869"/>
    <nd ref="275450870"/>
    <tag k="highway" v="primary_link"/>
    <tag k="oneway" v="yes"/>
    <tag k="ref" v="B 11"/>
    <tag k="source" v="survey"/>
  </way>
  <way id="25288448" version="10" timestamp="2009-09-05T10:53:51Z" uid="8748" user="ToniE" changeset="2379180">
    <nd ref="21151027"/>
    <nd ref="275450871"/>
    <nd ref="275450869"/>
    <nd ref="275450870"/>
    <tag k="highway" v="primary_link"/>
    <tag k="maxspeed" v="50"/>
    <tag k="oneway" v="yes"/>
    <tag k="ref" v="B 11"/>
    <tag k="source" v="survey"/>
  </way>
  <way id="25288448" version="11" timestamp="2011-02-18T18:24:44Z" uid="81244" user="rurseekatze" changeset="7324919">
    <nd ref="21151027"/>
    <nd ref="275450871"/>
    <nd ref="275450869"/>
    <nd ref="1159454040"/>
    <nd ref="275450870"/>
    <tag k="highway" v="primary_link"/>
    <tag k="maxspeed" v="50"/>
    <tag k="oneway" v="yes"/>
    <tag k="ref" v="B 11"/>
    <tag k="source" v="survey"/>
  </way>
  <way id="25288448" version="12" timestamp="2011-05-30T12:08:57Z" uid="379063" user="MrRoute" changeset="8291468">
    <nd ref="21151027"/>
    <nd ref="275450871"/>
    <nd ref="275450869"/>
    <nd ref="1159454040"/>
    <nd ref="275450870"/>
    <tag k="foot" v="no"/>
    <tag k="highway" v="primary_link"/>
    <tag k="maxspeed" v="50"/>
    <tag k="oneway" v="yes"/>
    <tag k="ref" v="B 11"/>
    <tag k="source" v="survey"/>
  </way>
  <way id="25288448" version="13" timestamp="2012-03-05T21:56:40Z" uid="224490" user="Geo-Tobi" changeset="10885038">
    <nd ref="21151027"/>
    <nd ref="275450871"/>
    <nd ref="275450869"/>
    <nd ref="1159454040"/>
    <nd ref="275450870"/>
    <tag k="foot" v="no"/>
    <tag k="highway" v="primary_link"/>
    <tag k="lanes" v="1"/>
    <tag k="maxspeed" v="50"/>
    <tag k="oneway" v="yes"/>
    <tag k="ref" v="B 11"/>
    <tag k="source" v="survey"/>
  </way>
  <way id="25288451" version="7" timestamp="2009-09-04T21:17:22Z" uid="36809" user="pfoten_weg_!_" changeset="2374562">
    <nd ref="274305789"/>
    <nd ref="274305790"/>
    <nd ref="274305791"/>
    <nd ref="274305792"/>
    <nd ref="274305796"/>
    <nd ref="274305797"/>
    <nd ref="274305798"/>
    <nd ref="274305799"/>
    <nd ref="274305800"/>
    <nd ref="274305801"/>
    <nd ref="274305802"/>
    <nd ref="274305803"/>
    <nd ref="274305804"/>
    <nd ref="274305805"/>
    <nd ref="274305806"/>
    <tag k="cycleway" v="track"/>
    <tag k="foot" v="yes"/>
    <tag k="highway" v="cycleway"/>
    <tag k="layer" v="-1"/>
  </way>
  <way id="25288451" version="8" timestamp="2010-05-16T13:53:03Z" uid="224490" user="Geo-Tobi" changeset="4717318">
    <nd ref="274305789"/>
    <nd ref="274305790"/>
    <nd ref="274305791"/>
    <nd ref="274305792"/>
    <nd ref="274305796"/>
    <nd ref="274305797"/>
    <nd ref="274305798"/>
    <nd ref="274305799"/>
    <nd ref="274305800"/>
    <nd ref="274305801"/>
    <nd ref="274305802"/>
    <nd ref="274305803"/>
    <nd ref="274305804"/>
    <nd ref="274305805"/>
    <nd ref="274305806"/>
    <tag k="foot" v="yes"/>
    <tag k="highway" v="cycleway"/>
    <tag k="layer" v="-1"/>
  </way>
  <way id="25288451" version="9" timestamp="2010-05-16T17:40:28Z" uid="224490" user="Geo-Tobi" changeset="4720101">
    <nd ref="274305789"/>
    <nd ref="274305790"/>
    <nd ref="274305791"/>
    <nd ref="274305792"/>
    <nd ref="274305796"/>
    <nd ref="274305797"/>
    <nd ref="274305798"/>
    <nd ref="274305799"/>
    <nd ref="274305800"/>
    <nd ref="274305801"/>
    <nd ref="274305802"/>
    <nd ref="274305803"/>
    <nd ref="274305804"/>
    <nd ref="274305805"/>
    <nd ref="736718228"/>
    <nd ref="274305806"/>
    <tag k="foot" v="yes"/>
    <tag k="highway" v="cycleway"/>
    <tag k="layer" v="-1"/>
    <tag k="oneway" v="yes"/>
  </way>
  <way id="25288456" version="5" timestamp="2009-02-14T01:20:41Z" uid="36809" user="pfoten_weg_!_" changeset="423851">
    <nd ref="21151027"/>
    <nd ref="277475939"/>
    <nd ref="21151029"/>
    <nd ref="247005107"/>
    <tag k="created_by" v="RambaZamba"/>
    <tag k="highway" v="primary"/>
    <tag k="name" v="Plinganserstraße"/>
    <tag k="oneway" v="yes"/>
    <tag k="ref" v="B 11"/>
    <tag k="source" v="survey"/>
  </way>
  <way id="25288456" version="6" timestamp="2009-06-02T22:23:28Z" uid="118197" user="JosmJo" changeset="1409181">
    <nd ref="21151027"/>
    <nd ref="277475939"/>
    <nd ref="21151029"/>
    <nd ref="247005107"/>
    <tag k="created_by" v="RambaZamba"/>
    <tag k="highway" v="primary"/>
    <tag k="name" v="Plinganserstraße"/>
    <tag k="oneway" v="yes"/>
    <tag k="source" v="survey"/>
  </way>
  <way id="25288456" version="7" timestamp="2009-08-28T19:55:52Z" uid="156995" user="HampelZamba" changeset="2294580">
    <nd ref="21151027"/>
    <nd ref="277475939"/>
    <nd ref="21151029"/>
    <nd ref="247005107"/>
    <tag k="highway" v="primary"/>
    <tag k="name" v="Plinganserstraße"/>
    <tag k="oneway" v="yes"/>
    <tag k="source" v="survey"/>
  </way>
  <way id="25288456" version="8" timestamp="2009-09-01T10:47:45Z" uid="36809" user="pfoten_weg_!_" changeset="2335754">
    <nd ref="21151027"/>
    <nd ref="277475939"/>
    <nd ref="21151029"/>
    <nd ref="247005107"/>
    <tag k="highway" v="primary"/>
    <tag k="name" v="Plinganserstraße"/>
    <tag k="oneway" v="yes"/>
    <tag k="source" v="survey"/>
  </way>
  <way id="25288456" version="9" timestamp="2009-09-05T10:53:55Z" uid="8748" user="ToniE" changeset="2379180">
    <nd ref="21151027"/>
    <nd ref="277475939"/>
    <nd ref="21151029"/>
    <nd ref="247005107"/>
    <tag k="highway" v="primary"/>
    <tag k="maxspeed" v="50"/>
    <tag k="name" v="Plinganserstraße"/>
    <tag k="oneway" v="yes"/>
    <tag k="source" v="survey"/>
  </way>
  <way id="25288456" version="10" timestamp="2011-05-30T12:08:53Z" uid="379063" user="MrRoute" changeset="8291468">
    <nd ref="21151027"/>
    <nd ref="277475939"/>
    <nd ref="21151029"/>
    <nd ref="247005107"/>
    <tag k="foot" v="no"/>
    <tag k="highway" v="primary"/>
    <tag k="maxspeed" v="50"/>
    <tag k="name" v="Plinganserstraße"/>
    <tag k="oneway" v="yes"/>
    <tag k="source" v="survey"/>
  </way>
  <way id="25288456" version="11" timestamp="2011-08-15T08:20:13Z" uid="40397" user="Zartbitter" changeset="9024269">
    <nd ref="21151027"/>
    <nd ref="277475939"/>
    <nd ref="21151029"/>
    <tag k="foot" v="no"/>
    <tag k="highway" v="primary"/>
    <tag k="maxspeed" v="50"/>
    <tag k="name" v="Plinganserstraße"/>
    <tag k="oneway" v="yes"/>
    <tag k="source" v="survey"/>
  </way>
  <way id="25288456" version="12" timestamp="2011-12-25T13:24:33Z" uid="13832" user="Peter14" changeset="10199609">
    <nd ref="21151027"/>
    <nd ref="277475939"/>
    <nd ref="1561488418"/>
    <tag k="foot" v="no"/>
    <tag k="highway" v="primary"/>
    <tag k="maxspeed" v="50"/>
    <tag k="name" v="Plinganserstraße"/>
    <tag k="oneway" v="yes"/>
    <tag k="source" v="survey"/>
  </way>
  <way id="25288456" version="13" timestamp="2012-03-05T21:53:14Z" uid="224490" user="Geo-Tobi" changeset="10884996">
    <nd ref="21151027"/>
    <nd ref="277475939"/>
    <nd ref="1561488418"/>
    <tag k="foot" v="no"/>
    <tag k="highway" v="primary"/>
    <tag k="lanes" v="2"/>
    <tag k="maxspeed" v="50"/>
    <tag k="name" v="Plinganserstraße"/>
    <tag k="oneway" v="yes"/>
    <tag k="source" v="survey"/>
  </way>
  <way id="25288457" version="3" timestamp="2009-02-14T01:20:41Z" uid="36809" user="pfoten_weg_!_" changeset="423851">
    <nd ref="254087928"/>
    <nd ref="26514733"/>
    <nd ref="21151027"/>
    <tag k="created_by" v="RambaZamba"/>
    <tag k="cycleway" v="track"/>
    <tag k="highway" v="primary"/>
    <tag k="name" v="Plinganserstraße"/>
    <tag k="oneway" v="yes"/>
    <tag k="ref" v="B 11"/>
    <tag k="source" v="survey"/>
  </way>
  <way id="25288457" version="4" timestamp="2009-08-28T19:55:52Z" uid="156995" user="HampelZamba" changeset="2294580">
    <nd ref="254087928"/>
    <nd ref="26514733"/>
    <nd ref="21151027"/>
    <tag k="cycleway" v="track"/>
    <tag k="highway" v="primary"/>
    <tag k="name" v="Plinganserstraße"/>
    <tag k="oneway" v="yes"/>
    <tag k="ref" v="B 11"/>
    <tag k="source" v="survey"/>
  </way>
  <way id="25288457" version="5" timestamp="2009-09-01T10:34:45Z" uid="36809" user="pfoten_weg_!_" changeset="2335754">
    <nd ref="254087928"/>
    <nd ref="26514733"/>
    <nd ref="21151027"/>
    <tag k="cycleway" v="track"/>
    <tag k="highway" v="primary"/>
    <tag k="name" v="Plinganserstraße"/>
    <tag k="oneway" v="yes"/>
    <tag k="ref" v="B 11"/>
    <tag k="source" v="survey"/>
  </way>
  <way id="25288457" version="6" timestamp="2009-09-05T10:53:51Z" uid="8748" user="ToniE" changeset="2379180">
    <nd ref="254087928"/>
    <nd ref="26514733"/>
    <nd ref="21151027"/>
    <tag k="cycleway" v="track"/>
    <tag k="highway" v="primary"/>
    <tag k="maxspeed" v="50"/>
    <tag k="name" v="Plinganserstraße"/>
    <tag k="oneway" v="yes"/>
    <tag k="ref" v="B 11"/>
    <tag k="source" v="survey"/>
  </way>
  <way id="25288457" version="7" timestamp="2010-04-05T16:24:36Z" uid="224490" user="Geo-Tobi" changeset="4335322">
    <nd ref="254087928"/>
    <nd ref="26514733"/>
    <nd ref="685474575"/>
    <nd ref="21151027"/>
    <tag k="highway" v="primary"/>
    <tag k="maxspeed" v="50"/>
    <tag k="name" v="Plinganserstraße"/>
    <tag k="oneway" v="yes"/>
    <tag k="ref" v="B 11"/>
    <tag k="source" v="survey"/>
  </way>
  <way id="25288457" version="8" timestamp="2011-05-30T12:08:57Z" uid="379063" user="MrRoute" changeset="8291468">
    <nd ref="254087928"/>
    <nd ref="26514733"/>
    <nd ref="685474575"/>
    <nd ref="21151027"/>
    <tag k="foot" v="no"/>
    <tag k="highway" v="primary"/>
    <tag k="maxspeed" v="50"/>
    <tag k="name" v="Plinganserstraße"/>
    <tag k="oneway" v="yes"/>
    <tag k="ref" v="B 11"/>
    <tag k="source" v="survey"/>
  </way>
  <way id="25288457" version="9" timestamp="2011-09-07T21:13:15Z" uid="168932" user="pappou" changeset="9240944">
    <nd ref="254087928"/>
    <nd ref="1426526381"/>
    <nd ref="26514733"/>
    <nd ref="685474575"/>
    <nd ref="21151027"/>
    <tag k="foot" v="no"/>
    <tag k="highway" v="primary"/>
    <tag k="maxspeed" v="50"/>
    <tag k="name" v="Plinganserstraße"/>
    <tag k="oneway" v="yes"/>
    <tag k="ref" v="B 11"/>
    <tag k="source" v="survey"/>
  </way>
  <way id="25288458" version="9" timestamp="2009-09-04T21:10:00Z" uid="36809" user="pfoten_weg_!_" changeset="2374562">
    <nd ref="274305863"/>
    <nd ref="274305827"/>
    <nd ref="274305828"/>
    <nd ref="275450880"/>
    <nd ref="274305831"/>
    <nd ref="272102591"/>
    <nd ref="295283002"/>
    <nd ref="277436859"/>
    <tag k="foot" v="yes"/>
    <tag k="highway" v="cycleway"/>
    <tag k="layer" v="-1"/>
  </way>
  <way id="25288458" version="10" timestamp="2010-02-06T12:01:55Z" uid="224490" user="Kietob" changeset="3804434">
    <nd ref="274305863"/>
    <nd ref="274305827"/>
    <nd ref="274305828"/>
    <nd ref="275450880"/>
    <nd ref="274305831"/>
    <nd ref="272102591"/>
    <nd ref="631495448"/>
    <nd ref="295283002"/>
    <nd ref="277436859"/>
    <tag k="foot" v="yes"/>
    <tag k="highway" v="cycleway"/>
    <tag k="layer" v="-1"/>
  </way>
  <way id="25288458" version="11" timestamp="2010-03-19T17:08:19Z" uid="224490" user="Geo-Tobi" changeset="4171982">
    <nd ref="274305863"/>
    <nd ref="274305827"/>
    <nd ref="274305828"/>
    <nd ref="275450880"/>
    <nd ref="274305831"/>
    <nd ref="272102591"/>
    <nd ref="669848465"/>
    <nd ref="669848464"/>
    <nd ref="631495448"/>
    <nd ref="295283002"/>
    <nd ref="277436859"/>
    <tag k="foot" v="yes"/>
    <tag k="highway" v="cycleway"/>
    <tag k="layer" v="-1"/>
  </way>
  <way id="25288458" version="12" timestamp="2010-05-16T17:40:32Z" uid="224490" user="Geo-Tobi" changeset="4720101">
    <nd ref="274305863"/>
    <nd ref="274305828"/>
    <nd ref="275450880"/>
    <nd ref="274305831"/>
    <nd ref="272102591"/>
    <nd ref="669848465"/>
    <nd ref="669848464"/>
    <nd ref="631495448"/>
    <nd ref="295283002"/>
    <nd ref="277436859"/>
    <tag k="foot" v="yes"/>
    <tag k="highway" v="cycleway"/>
    <tag k="layer" v="-1"/>
    <tag k="oneway" v="yes"/>
  </way>
  <way id="25288458" version="13" timestamp="2010-05-17T17:00:30Z" uid="224490" user="Geo-Tobi" changeset="4730470">
    <nd ref="274305863"/>
    <nd ref="274305828"/>
    <nd ref="275450880"/>
    <nd ref="274305831"/>
    <nd ref="272102591"/>
    <nd ref="669848465"/>
    <nd ref="669848464"/>
    <nd ref="631495448"/>
    <nd ref="295283002"/>
    <nd ref="277436859"/>
    <tag k="foot" v="yes"/>
    <tag k="highway" v="cycleway"/>
    <tag k="layer" v="-1"/>
    <tag k="oneway" v="yes"/>
    <tag k="surface" v="paved"/>
  </way>
  <way id="25288662" version="2" timestamp="2010-03-27T23:44:02Z" uid="20587" user="balrog-kun" changeset="4250871">
    <nd ref="275452006"/>
    <nd ref="49504300"/>
    <nd ref="49504301"/>
    <nd ref="49504304"/>
    <tag k="created_by" v="Potlatch 0.9c"/>
    <tag k="highway" v="residential"/>
    <tag k="name" v="Thor Street"/>
    <tag k="tiger:cfcc" v="A41"/>
    <tag k="tiger:county" v="San Diego, CA"/>
    <tag k="tiger:name_base" v="Thor"/>
    <tag k="tiger:name_type" v="St"/>
    <tag k="tiger:reviewed" v="no"/>
    <tag k="tiger:separated" v="no"/>
    <tag k="tiger:source" v="tiger_import_dch_v0.6_20070809"/>
    <tag k="tiger:tlid" v="195349157"/>
    <tag k="tiger:zip_left" v="92113"/>
  </way>
</osm>
