<?xml version='1.0' encoding='UTF-8'?>
<osm version="0.6" generator="libosmium/2.20.0">
  <way id="25702014" version="4" timestamp="2010-07-09T18:13:52Z" uid="74617" user="JohnSmith" changeset="5175333">
    <nd ref="280213490"/>
    <nd ref="277519141"/>
    <tag k="highway" v="residential"/>
    <tag k="maxspeed" v="50"/>
    <tag k="maxspeed:source" v="default residential speed limit in Australia"/>
  </way>
  <way id="25702014" version="5" timestamp="2012-01-17T00:40:09Z" uid="147510" user="woodpeck_fixbot" changeset="10412890">
    <nd ref="280213490"/>
    <nd ref="277519141"/>
    <tag k="highway" v="residential"/>
  </way>
  <way id="25702080" version="1" timestamp="2008-07-22T12:44:06Z" uid="36809" user="pfoten_weg_!_" changeset="568333">
    <nd ref="280214893"/>
    <nd ref="280214894"/>
    <nd ref="280214895"/>
    <nd ref="280214896"/>
    <nd ref="280214897"/>
    <nd ref="280214898"/>
    <nd ref="280214899"/>
    <nd ref="280214900"/>
    <tag k="access" v="permissive"/>
    <tag k="created_by" v="Potlatch 0.10"/>
    <tag k="highway" v="service"/>
  </way>
  <way id="25702080" version="2" timestamp="2008-07-22T12:45:13Z" uid="36809" user="pfoten_weg_!_" changeset="568333">
    <nd ref="280214930"/>
    <nd ref="280214931"/>
    <nd ref="280214932"/>
    <nd ref="280214896"/>
    <nd ref="280214933"/>
    <nd ref="280214898"/>
    <nd ref="280214899"/>
    <nd ref="280214900"/>
    <tag k="access" v="permissive"/>
    <tag k="created_by" v="Potlatch 0.10"/>
    <tag k="highway" v="service"/>
  </way>
  <way id="25702080" version="3" timestamp="2008-07-22T12:50:05Z" uid="36809" user="pfoten_weg_!_" changeset="568333">
    <nd ref="280215644"/>
    <nd ref="280214931"/>
    <nd ref="280215645"/>
    <nd ref="280214896"/>
    <nd ref="280215641"/>
    <nd ref="280214933"/>
    <nd ref="280214898"/>
    <nd ref="280214899"/>
    <nd ref="280214900"/>
    <tag k="access" v="permissive"/>
    <tag k="created_by" v="Potlatch 0.10"/>
    <tag k="highway" v="service"/>
  </way>
  <way id="25702080" version="4" timestamp="2008-07-23T01:25:30Z" uid="36809" user="pfoten_weg_!_" changeset="574643">
    <nd ref="280215644"/>
    <nd ref="280214931"/>
    <nd ref="280215645"/>
    <nd ref="280214896"/>
    <nd ref="280215641"/>
    <nd ref="280214933"/>
    <nd ref="280214898"/>
    <nd ref="280214899"/>
    <nd ref="280214900"/>
    <tag k="access" v="permissive"/>
    <tag k="created_by" v="RambaZamba"/>
    <tag k="highway" v="service"/>
  </way>
  <way id="25702080" version="5" timestamp="2008-07-25T19:54:17Z" uid="39150" user="account_deleted_1011" changeset="593315">
    <nd ref="280215220"/>
    <nd ref="280214931"/>
    <nd ref="280215645"/>
    <nd ref="280214896"/>
    <nd ref="280215641"/>
    <nd ref="280214933"/>
    <nd ref="280214898"/>
    <nd ref="280214899"/>
    <nd ref="280214900"/>
    <tag k="access" v="permissive"/>
    <tag k="created_by" v="RambaZamba"/>
    <tag k="highway" v="service"/>
  </way>
  <way id="25702080" version="6" timestamp="2008-07-29T18:17:47Z" uid="39150" user="account_deleted_1011" changeset="623467">
    <nd ref="280215220"/>
    <nd ref="280214894"/>
    <nd ref="280215645"/>
    <nd ref="280214896"/>
    <nd ref="280215641"/>
    <nd ref="280214933"/>
    <nd ref="280214898"/>
    <nd ref="280214899"/>
    <nd ref="280214900"/>
    <tag k="access" v="permissive"/>
    <tag k="created_by" v="RambaZamba"/>
    <tag k="highway" v="service"/>
  </way>
  <way id="25702080" version="7" timestamp="2008-08-06T19:27:41Z" uid="36809" user="pfoten_weg_!_" changeset="108472">
    <nd ref="280215220"/>
    <nd ref="280214894"/>
    <nd ref="280215645"/>
    <nd ref="280214896"/>
    <nd ref="280215641"/>
    <nd ref="280214933"/>
    <nd ref="280214898"/>
    <nd ref="280214899"/>
    <nd ref="285485498"/>
    <tag k="access" v="permissive"/>
    <tag k="created_by" v="RambaZamba"/>
    <tag k="highway" v="service"/>
  </way>
  <way id="25702080" version="8" timestamp="2008-08-08T17:47:11Z" uid="36809" user="pfoten_weg_!_" changeset="142705">
    <nd ref="280215220"/>
    <nd ref="280214894"/>
    <nd ref="280215645"/>
    <nd ref="280214896"/>
    <nd ref="280215641"/>
    <nd ref="280214933"/>
    <nd ref="280214898"/>
    <nd ref="286298520"/>
    <nd ref="285485498"/>
    <tag k="access" v="permissive"/>
    <tag k="created_by" v="RambaZamba"/>
    <tag k="highway" v="service"/>
  </way>
  <way id="25702080" version="9" timestamp="2008-09-15T12:59:47Z" uid="36809" user="pfoten_weg_!_" changeset="638986">
    <nd ref="280215220"/>
    <nd ref="280214894"/>
    <nd ref="280215645"/>
    <nd ref="280214896"/>
    <nd ref="280215641"/>
    <nd ref="280214933"/>
    <nd ref="280214898"/>
    <nd ref="286298520"/>
    <nd ref="285485498"/>
    <tag k="access" v="permissive"/>
    <tag k="created_by" v="RambaZamba"/>
    <tag k="highway" v="service"/>
    <tag k="source" v="survey "/>
  </way>
  <way id="25702080" version="10" timestamp="2008-09-16T06:05:46Z" uid="31231" user="Andre68" changeset="645611">
    <nd ref="280215220"/>
    <nd ref="280214894"/>
    <nd ref="280215645"/>
    <nd ref="280214896"/>
    <nd ref="280215641"/>
    <nd ref="280214933"/>
    <nd ref="280214898"/>
    <nd ref="286298520"/>
    <nd ref="285485498"/>
    <tag k="access" v="permissive"/>
    <tag k="created_by" v="RambaZamba"/>
    <tag k="highway" v="service"/>
    <tag k="source" v="survey"/>
  </way>
  <way id="25702080" version="11" timestamp="2008-09-21T20:05:36Z" uid="36809" user="pfoten_weg_!_" changeset="676192">
    <nd ref="285485498"/>
    <nd ref="286298520"/>
    <nd ref="280214898"/>
    <nd ref="280214933"/>
    <nd ref="280215641"/>
    <nd ref="280214896"/>
    <nd ref="280215645"/>
    <nd ref="280214894"/>
    <nd ref="280215220"/>
    <tag k="access" v="permissive"/>
    <tag k="created_by" v="RambaZamba"/>
    <tag k="highway" v="service"/>
    <tag k="source" v="survey"/>
  </way>
  <way id="25702080" version="12" timestamp="2008-09-21T20:11:28Z" uid="36809" user="pfoten_weg_!_" changeset="676192">
    <nd ref="280215220"/>
    <nd ref="280214894"/>
    <nd ref="280215645"/>
    <nd ref="280214896"/>
    <nd ref="280215641"/>
    <nd ref="280214933"/>
    <nd ref="280214898"/>
    <nd ref="286298520"/>
    <nd ref="285485498"/>
    <tag k="access" v="permissive"/>
    <tag k="created_by" v="RambaZamba"/>
    <tag k="highway" v="service"/>
    <tag k="source" v="survey"/>
  </way>
  <way id="25702080" version="13" timestamp="2008-09-27T20:27:37Z" uid="36809" user="pfoten_weg_!_" changeset="708908"/>
  <way id="25702082" version="1" timestamp="2008-07-22T12:45:13Z" uid="36809" user="pfoten_weg_!_" changeset="568333">
    <nd ref="280214926"/>
    <nd ref="280214927"/>
    <nd ref="280214928"/>
    <nd ref="280214929"/>
    <nd ref="280214926"/>
    <tag k="amenity" v="parking"/>
    <tag k="area" v="yes"/>
    <tag k="created_by" v="Potlatch 0.10"/>
  </way>
  <way id="25702082" version="2" timestamp="2008-07-22T12:50:05Z" uid="36809" user="pfoten_weg_!_" changeset="568333">
    <nd ref="280214926"/>
    <nd ref="280215640"/>
    <nd ref="280214928"/>
    <nd ref="280215641"/>
    <nd ref="280214929"/>
    <nd ref="280214926"/>
    <tag k="access" v="permissive"/>
    <tag k="amenity" v="parking"/>
    <tag k="area" v="yes"/>
    <tag k="created_by" v="Potlatch 0.10"/>
  </way>
  <way id="25702082" version="3" timestamp="2008-07-23T01:25:30Z" uid="36809" user="pfoten_weg_!_" changeset="574643">
    <nd ref="280214926"/>
    <nd ref="280214896"/>
    <nd ref="280215640"/>
    <nd ref="280214928"/>
    <nd ref="280215641"/>
    <nd ref="280214929"/>
    <nd ref="280214926"/>
    <tag k="access" v="permissive"/>
    <tag k="amenity" v="parking"/>
    <tag k="area" v="yes"/>
    <tag k="created_by" v="RambaZamba"/>
  </way>
  <way id="25702082" version="4" timestamp="2008-09-15T12:59:41Z" uid="36809" user="pfoten_weg_!_" changeset="638986">
    <nd ref="280214926"/>
    <nd ref="280214896"/>
    <nd ref="280215640"/>
    <nd ref="280214928"/>
    <nd ref="280215641"/>
    <nd ref="280214929"/>
    <nd ref="280214926"/>
    <tag k="access" v="permissive"/>
    <tag k="amenity" v="parking"/>
    <tag k="area" v="yes"/>
    <tag k="created_by" v="RambaZamba"/>
    <tag k="source" v="survey "/>
  </way>
  <way id="25702082" version="5" timestamp="2008-09-16T06:05:16Z" uid="31231" user="Andre68" changeset="645611">
    <nd ref="280214926"/>
    <nd ref="280214896"/>
    <nd ref="280215640"/>
    <nd ref="280214928"/>
    <nd ref="280215641"/>
    <nd ref="280214929"/>
    <nd ref="280214926"/>
    <tag k="access" v="permissive"/>
    <tag k="amenity" v="parking"/>
    <tag k="area" v="yes"/>
    <tag k="created_by" v="RambaZamba"/>
    <tag k="source" v="survey"/>
  </way>
  <way id="25702082" version="6" timestamp="2008-09-21T20:05:35Z" uid="36809" user="pfoten_weg_!_" changeset="676192">
    <nd ref="280214926"/>
    <nd ref="280214929"/>
    <nd ref="280215641"/>
    <nd ref="280214928"/>
    <nd ref="280215640"/>
    <nd ref="280214896"/>
    <nd ref="280214926"/>
    <tag k="access" v="permissive"/>
    <tag k="amenity" v="parking"/>
    <tag k="area" v="yes"/>
    <tag k="created_by" v="RambaZamba"/>
    <tag k="source" v="survey"/>
  </way>
  <way id="25702082" version="7" timestamp="2008-09-21T20:11:28Z" uid="36809" user="pfoten_weg_!_" changeset="676192">
    <nd ref="280214926"/>
    <nd ref="280214896"/>
    <nd ref="280215640"/>
    <nd ref="280214928"/>
    <nd ref="280215641"/>
    <nd ref="280214929"/>
    <nd ref="280214926"/>
    <tag k="access" v="permissive"/>
    <tag k="amenity" v="parking"/>
    <tag k="area" v="yes"/>
    <tag k="created_by" v="RambaZamba"/>
    <tag k="source" v="survey"/>
  </way>
  <way id="25702082" version="8" timestamp="2008-09-27T20:27:38Z" uid="36809" user="pfoten_weg_!_" changeset="708908"/>
  <way id="25702143" version="1" timestamp="2008-07-22T12:50:05Z" uid="36809" user="pfoten_weg_!_" changeset="568333">
    <nd ref="280212349"/>
    <nd ref="280215639"/>
    <tag k="access" v="private"/>
    <tag k="created_by" v="Potlatch 0.10"/>
    <tag k="foot" v="yes"/>
    <tag k="highway" v="footway"/>
  </way>
  <way id="25702143" version="2" timestamp="2008-08-08T16:27:13Z" uid="36809" user="pfoten_weg_!_" changeset="142705">
    <nd ref="280212349"/>
    <nd ref="280215639"/>
    <tag k="access" v="private"/>
    <tag k="created_by" v="RambaZamba"/>
    <tag k="foot" v="yes"/>
    <tag k="highway" v="footway"/>
  </way>
  <way id="25702143" version="3" timestamp="2008-09-15T13:00:44Z" uid="36809" user="pfoten_weg_!_" changeset="638986">
    <nd ref="280212349"/>
    <nd ref="280215639"/>
    <tag k="access" v="private"/>
    <tag k="created_by" v="RambaZamba"/>
    <tag k="foot" v="yes"/>
    <tag k="highway" v="footway"/>
    <tag k="source" v="survey "/>
  </way>
  <way id="25702143" version="4" timestamp="2008-09-16T06:05:31Z" uid="31231" user="Andre68" changeset="645611">
    <nd ref="280212349"/>
    <nd ref="280215639"/>
    <tag k="access" v="private"/>
    <tag k="created_by" v="RambaZamba"/>
    <tag k="foot" v="yes"/>
    <tag k="highway" v="footway"/>
    <tag k="source" v="survey"/>
  </way>
  <way id="25702143" version="5" timestamp="2008-09-21T20:05:44Z" uid="36809" user="pfoten_weg_!_" changeset="676192">
    <nd ref="280215639"/>
    <nd ref="280212349"/>
    <tag k="access" v="private"/>
    <tag k="created_by" v="RambaZamba"/>
    <tag k="foot" v="yes"/>
    <tag k="highway" v="footway"/>
    <tag k="source" v="survey"/>
  </way>
  <way id="25702143" version="6" timestamp="2008-09-21T20:11:34Z" uid="36809" user="pfoten_weg_!_" changeset="676192">
    <nd ref="280212349"/>
    <nd ref="280215639"/>
    <tag k="access" v="private"/>
    <tag k="created_by" v="RambaZamba"/>
    <tag k="foot" v="yes"/>
    <tag k="highway" v="footway"/>
    <tag k="source" v="survey"/>
  </way>
  <way id="25702143" version="7" timestamp="2008-10-01T02:42:39Z" uid="36809" user="pfoten_weg_!_" changeset="5644">
    <nd ref="280212349"/>
    <nd ref="280215639"/>
    <tag k="access" v="private"/>
    <tag k="created_by" v="RambaZamba"/>
    <tag k="foot" v="yes"/>
    <tag k="highway" v="footway"/>
    <tag k="source" v="survey"/>
  </way>
  <way id="25702143" version="8" timestamp="2009-08-28T19:57:09Z" uid="156995" user="HampelZamba" changeset="2294580">
    <nd ref="280212349"/>
    <nd ref="280215639"/>
    <tag k="access" v="private"/>
    <tag k="foot" v="yes"/>
    <tag k="highway" v="footway"/>
    <tag k="source" v="survey"/>
  </way>
  <way id="25702143" version="9" timestamp="2009-09-01T11:05:15Z" uid="36809" user="pfoten_weg_!_" changeset="2335754">
    <nd ref="280212349"/>
    <nd ref="280215639"/>
    <tag k="access" v="private"/>
    <tag k="foot" v="yes"/>
    <tag k="highway" v="footway"/>
    <tag k="source" v="survey"/>
  </way>
  <way id="25702143" version="10" timestamp="2009-10-13T23:13:37Z" uid="36809" user="pfoten_weg_!_" changeset="2841175">
    <nd ref="280212349"/>
    <nd ref="280215639"/>
    <tag k="access" v="private"/>
    <tag k="foot" v="yes"/>
    <tag k="highway" v="footway"/>
  </way>
  <way id="25702185" version="1" timestamp="2008-07-22T12:53:55Z" uid="36809" user="pfoten_weg_!_" changeset="568333">
    <nd ref="280216227"/>
    <nd ref="280216228"/>
    <tag k="access" v="private"/>
    <tag k="created_by" v="Potlatch 0.10"/>
    <tag k="foot" v="yes"/>
    <tag k="highway" v="footway"/>
  </way>
  <way id="25702185" version="2" timestamp="2008-07-23T01:10:18Z" uid="36809" user="pfoten_weg_!_" changeset="574643">
    <nd ref="280216227"/>
    <nd ref="280216228"/>
    <tag k="access" v="private"/>
    <tag k="created_by" v="RambaZamba"/>
    <tag k="foot" v="yes"/>
    <tag k="highway" v="footway"/>
  </way>
  <way id="25702185" version="3" timestamp="2008-09-15T13:02:23Z" uid="36809" user="pfoten_weg_!_" changeset="638986">
    <nd ref="280216227"/>
    <nd ref="280216228"/>
    <tag k="access" v="private"/>
    <tag k="created_by" v="RambaZamba"/>
    <tag k="foot" v="yes"/>
    <tag k="highway" v="footway"/>
    <tag k="source" v="survey "/>
  </way>
  <way id="25702185" version="4" timestamp="2008-09-16T06:05:46Z" uid="31231" user="Andre68" changeset="645611">
    <nd ref="280216227"/>
    <nd ref="280216228"/>
    <tag k="access" v="private"/>
    <tag k="created_by" v="RambaZamba"/>
    <tag k="foot" v="yes"/>
    <tag k="highway" v="footway"/>
    <tag k="source" v="survey"/>
  </way>
  <way id="25702185" version="5" timestamp="2008-09-21T20:04:32Z" uid="36809" user="pfoten_weg_!_" changeset="676192">
    <nd ref="280216228"/>
    <nd ref="280216227"/>
    <tag k="access" v="private"/>
    <tag k="created_by" v="RambaZamba"/>
    <tag k="foot" v="yes"/>
    <tag k="highway" v="footway"/>
    <tag k="source" v="survey"/>
  </way>
  <way id="25702185" version="6" timestamp="2008-09-21T20:10:46Z" uid="36809" user="pfoten_weg_!_" changeset="676192">
    <nd ref="280216227"/>
    <nd ref="280216228"/>
    <tag k="access" v="private"/>
    <tag k="created_by" v="RambaZamba"/>
    <tag k="foot" v="yes"/>
    <tag k="highway" v="footway"/>
    <tag k="source" v="survey"/>
  </way>
  <way id="25702185" version="7" timestamp="2008-10-01T02:22:21Z" uid="36809" user="pfoten_weg_!_" changeset="5644">
    <nd ref="280216227"/>
    <nd ref="280216228"/>
    <tag k="access" v="private"/>
    <tag k="created_by" v="RambaZamba"/>
    <tag k="foot" v="yes"/>
    <tag k="highway" v="footway"/>
    <tag k="source" v="survey"/>
  </way>
  <way id="25702185" version="8" timestamp="2009-08-28T19:57:09Z" uid="156995" user="HampelZamba" changeset="2294580">
    <nd ref="280216227"/>
    <nd ref="280216228"/>
    <tag k="access" v="private"/>
    <tag k="foot" v="yes"/>
    <tag k="highway" v="footway"/>
    <tag k="source" v="survey"/>
  </way>
  <way id="25702185" version="9" timestamp="2009-09-01T10:48:03Z" uid="36809" user="pfoten_weg_!_" changeset="2335754">
    <nd ref="280216227"/>
    <nd ref="280216228"/>
    <tag k="access" v="private"/>
    <tag k="foot" v="yes"/>
    <tag k="highway" v="footway"/>
    <tag k="source" v="survey"/>
  </way>
  <way id="25702185" version="10" timestamp="2009-10-13T23:13:29Z" uid="36809" user="pfoten_weg_!_" changeset="2841175">
    <nd ref="280216227"/>
    <nd ref="280216228"/>
    <tag k="access" v="private"/>
    <tag k="foot" v="yes"/>
    <tag k="highway" v="footway"/>
  </way>
  <way id="25702192" version="1" timestamp="2008-07-22T12:54:14Z" uid="36809" user="pfoten_weg_!_" changeset="568333">
    <nd ref="280216379"/>
    <nd ref="280216380"/>
    <nd ref="280216381"/>
    <nd ref="280216382"/>
    <nd ref="280216383"/>
    <nd ref="280216384"/>
    <nd ref="280216385"/>
    <nd ref="280216386"/>
    <nd ref="280216387"/>
    <nd ref="280216389"/>
    <nd ref="280216390"/>
    <nd ref="280216391"/>
    <nd ref="280216380"/>
    <tag k="access" v="private"/>
    <tag k="created_by" v="Potlatch 0.10"/>
    <tag k="highway" v="service"/>
  </way>
  <way id="25702192" version="2" timestamp="2008-07-25T19:54:16Z" uid="39150" user="account_deleted_1011" changeset="593315">
    <nd ref="280216300"/>
    <nd ref="280216380"/>
    <nd ref="280216381"/>
    <nd ref="280216382"/>
    <nd ref="280216383"/>
    <nd ref="280216384"/>
    <nd ref="280216385"/>
    <nd ref="280216386"/>
    <nd ref="280216387"/>
    <nd ref="280216389"/>
    <nd ref="280216390"/>
    <nd ref="280216391"/>
    <nd ref="280216380"/>
    <tag k="access" v="private"/>
    <tag k="created_by" v="Potlatch 0.10"/>
    <tag k="highway" v="service"/>
  </way>
  <way id="25702192" version="3" timestamp="2008-07-25T21:00:06Z" uid="39150" user="account_deleted_1011" changeset="593315">
    <nd ref="280216300"/>
    <nd ref="281091568"/>
    <nd ref="280216380"/>
    <nd ref="280216381"/>
    <nd ref="280216382"/>
    <nd ref="280216383"/>
    <nd ref="280216384"/>
    <nd ref="280216385"/>
    <nd ref="280216386"/>
    <nd ref="280216387"/>
    <nd ref="280216389"/>
    <nd ref="280216390"/>
    <nd ref="280216391"/>
    <nd ref="280216380"/>
    <tag k="access" v="private"/>
    <tag k="created_by" v="Potlatch 0.10"/>
    <tag k="highway" v="service"/>
  </way>
  <way id="25702192" version="4" timestamp="2008-08-01T22:09:45Z" uid="36809" user="pfoten_weg_!_" changeset="18027">
    <nd ref="280216300"/>
    <nd ref="281091568"/>
    <nd ref="282775746"/>
    <nd ref="280216380"/>
    <nd ref="280216381"/>
    <nd ref="280216382"/>
    <nd ref="280216383"/>
    <nd ref="280216384"/>
    <nd ref="280216385"/>
    <nd ref="280216386"/>
    <nd ref="280216387"/>
    <nd ref="280216389"/>
    <nd ref="280216390"/>
    <nd ref="280216391"/>
    <nd ref="280216380"/>
    <tag k="access" v="private"/>
    <tag k="created_by" v="Potlatch 0.10b"/>
    <tag k="highway" v="service"/>
  </way>
  <way id="25702192" version="5" timestamp="2008-08-01T22:10:17Z" uid="36809" user="pfoten_weg_!_" changeset="18027">
    <nd ref="280216300"/>
    <nd ref="281091568"/>
    <nd ref="282775746"/>
    <nd ref="280216380"/>
    <nd ref="280216381"/>
    <nd ref="280216382"/>
    <nd ref="280216383"/>
    <nd ref="280216384"/>
    <nd ref="280216385"/>
    <nd ref="280216386"/>
    <nd ref="280216387"/>
    <nd ref="280216389"/>
    <nd ref="280216390"/>
    <nd ref="280216391"/>
    <nd ref="280216380"/>
    <tag k="access" v="private"/>
    <tag k="created_by" v="Potlatch 0.10b"/>
    <tag k="highway" v="service"/>
  </way>
  <way id="25702192" version="6" timestamp="2008-08-08T16:27:12Z" uid="36809" user="pfoten_weg_!_" changeset="142705">
    <nd ref="280216300"/>
    <nd ref="281091568"/>
    <nd ref="282775746"/>
    <nd ref="280216380"/>
    <nd ref="280216381"/>
    <nd ref="280216382"/>
    <nd ref="280216383"/>
    <nd ref="280216384"/>
    <nd ref="280216385"/>
    <nd ref="280216386"/>
    <nd ref="280216387"/>
    <nd ref="280216389"/>
    <nd ref="280216390"/>
    <nd ref="280216391"/>
    <nd ref="280216380"/>
    <tag k="access" v="private"/>
    <tag k="created_by" v="RambaZamba"/>
    <tag k="highway" v="service"/>
  </way>
  <way id="25702192" version="7" timestamp="2008-09-15T13:02:47Z" uid="36809" user="pfoten_weg_!_" changeset="638986">
    <nd ref="280216300"/>
    <nd ref="281091568"/>
    <nd ref="282775746"/>
    <nd ref="280216380"/>
    <nd ref="280216381"/>
    <nd ref="280216382"/>
    <nd ref="280216383"/>
    <nd ref="280216384"/>
    <nd ref="280216385"/>
    <nd ref="280216386"/>
    <nd ref="280216387"/>
    <nd ref="280216389"/>
    <nd ref="280216390"/>
    <nd ref="280216391"/>
    <nd ref="280216380"/>
    <tag k="access" v="private"/>
    <tag k="created_by" v="RambaZamba"/>
    <tag k="highway" v="service"/>
    <tag k="source" v="survey "/>
  </way>
  <way id="25702192" version="8" timestamp="2008-09-16T06:04:48Z" uid="31231" user="Andre68" changeset="645611">
    <nd ref="280216300"/>
    <nd ref="281091568"/>
    <nd ref="282775746"/>
    <nd ref="280216380"/>
    <nd ref="280216381"/>
    <nd ref="280216382"/>
    <nd ref="280216383"/>
    <nd ref="280216384"/>
    <nd ref="280216385"/>
    <nd ref="280216386"/>
    <nd ref="280216387"/>
    <nd ref="280216389"/>
    <nd ref="280216390"/>
    <nd ref="280216391"/>
    <nd ref="280216380"/>
    <tag k="access" v="private"/>
    <tag k="created_by" v="RambaZamba"/>
    <tag k="highway" v="service"/>
    <tag k="source" v="survey"/>
  </way>
  <way id="25702192" version="9" timestamp="2008-09-21T20:04:34Z" uid="36809" user="pfoten_weg_!_" changeset="676192">
    <nd ref="280216380"/>
    <nd ref="280216391"/>
    <nd ref="280216390"/>
    <nd ref="280216389"/>
    <nd ref="280216387"/>
    <nd ref="280216386"/>
    <nd ref="280216385"/>
    <nd ref="280216384"/>
    <nd ref="280216383"/>
    <nd ref="280216382"/>
    <nd ref="280216381"/>
    <nd ref="280216380"/>
    <nd ref="282775746"/>
    <nd ref="281091568"/>
    <nd ref="280216300"/>
    <tag k="access" v="private"/>
    <tag k="created_by" v="RambaZamba"/>
    <tag k="highway" v="service"/>
    <tag k="source" v="survey"/>
  </way>
  <way id="25702192" version="10" timestamp="2008-09-21T20:10:47Z" uid="36809" user="pfoten_weg_!_" changeset="676192">
    <nd ref="280216300"/>
    <nd ref="281091568"/>
    <nd ref="282775746"/>
    <nd ref="280216380"/>
    <nd ref="280216381"/>
    <nd ref="280216382"/>
    <nd ref="280216383"/>
    <nd ref="280216384"/>
    <nd ref="280216385"/>
    <nd ref="280216386"/>
    <nd ref="280216387"/>
    <nd ref="280216389"/>
    <nd ref="280216390"/>
    <nd ref="280216391"/>
    <nd ref="280216380"/>
    <tag k="access" v="private"/>
    <tag k="created_by" v="RambaZamba"/>
    <tag k="highway" v="service"/>
    <tag k="source" v="survey"/>
  </way>
  <way id="25702192" version="11" timestamp="2008-09-24T01:50:40Z" uid="36809" user="pfoten_weg_!_" changeset="688126"/>
  <way id="25702229" version="1" timestamp="2008-07-22T12:55:22Z" uid="36809" user="pfoten_weg_!_" changeset="568333">
    <nd ref="280216774"/>
    <nd ref="280216775"/>
    <tag k="access" v="private"/>
    <tag k="created_by" v="Potlatch 0.10"/>
    <tag k="foot" v="yes"/>
    <tag k="highway" v="footway"/>
  </way>
  <way id="25702229" version="2" timestamp="2008-07-23T01:10:15Z" uid="36809" user="pfoten_weg_!_" changeset="574643">
    <nd ref="280216774"/>
    <nd ref="280216775"/>
    <tag k="access" v="private"/>
    <tag k="created_by" v="RambaZamba"/>
    <tag k="foot" v="yes"/>
    <tag k="highway" v="footway"/>
  </way>
  <way id="25702229" version="3" timestamp="2008-09-15T13:03:17Z" uid="36809" user="pfoten_weg_!_" changeset="638986">
    <nd ref="280216774"/>
    <nd ref="280216775"/>
    <tag k="access" v="private"/>
    <tag k="created_by" v="RambaZamba"/>
    <tag k="foot" v="yes"/>
    <tag k="highway" v="footway"/>
    <tag k="source" v="survey "/>
  </way>
  <way id="25702229" version="4" timestamp="2008-09-16T06:05:19Z" uid="31231" user="Andre68" changeset="645611">
    <nd ref="280216774"/>
    <nd ref="280216775"/>
    <tag k="access" v="private"/>
    <tag k="created_by" v="RambaZamba"/>
    <tag k="foot" v="yes"/>
    <tag k="highway" v="footway"/>
    <tag k="source" v="survey"/>
  </way>
  <way id="25702229" version="5" timestamp="2008-09-21T20:04:51Z" uid="36809" user="pfoten_weg_!_" changeset="676192">
    <nd ref="280216775"/>
    <nd ref="280216774"/>
    <tag k="access" v="private"/>
    <tag k="created_by" v="RambaZamba"/>
    <tag k="foot" v="yes"/>
    <tag k="highway" v="footway"/>
    <tag k="source" v="survey"/>
  </way>
  <way id="25702229" version="6" timestamp="2008-09-21T20:10:55Z" uid="36809" user="pfoten_weg_!_" changeset="676192">
    <nd ref="280216774"/>
    <nd ref="280216775"/>
    <tag k="access" v="private"/>
    <tag k="created_by" v="RambaZamba"/>
    <tag k="foot" v="yes"/>
    <tag k="highway" v="footway"/>
    <tag k="source" v="survey"/>
  </way>
  <way id="25702229" version="7" timestamp="2008-10-01T02:24:58Z" uid="36809" user="pfoten_weg_!_" changeset="5644">
    <nd ref="280216774"/>
    <nd ref="280216775"/>
    <tag k="access" v="private"/>
    <tag k="created_by" v="RambaZamba"/>
    <tag k="foot" v="yes"/>
    <tag k="highway" v="footway"/>
    <tag k="source" v="survey"/>
  </way>
  <way id="25702229" version="8" timestamp="2009-08-28T19:57:09Z" uid="156995" user="HampelZamba" changeset="2294580">
    <nd ref="280216774"/>
    <nd ref="280216775"/>
    <tag k="access" v="private"/>
    <tag k="foot" v="yes"/>
    <tag k="highway" v="footway"/>
    <tag k="source" v="survey"/>
  </way>
  <way id="25702229" version="9" timestamp="2009-09-01T10:32:35Z" uid="36809" user="pfoten_weg_!_" changeset="2335754">
    <nd ref="280216774"/>
    <nd ref="280216775"/>
    <tag k="access" v="private"/>
    <tag k="foot" v="yes"/>
    <tag k="highway" v="footway"/>
    <tag k="source" v="survey"/>
  </way>
  <way id="25702229" version="10" timestamp="2009-10-13T23:13:30Z" uid="36809" user="pfoten_weg_!_" changeset="2841175">
    <nd ref="280216774"/>
    <nd ref="280216775"/>
    <tag k="access" v="private"/>
    <tag k="foot" v="yes"/>
    <tag k="highway" v="footway"/>
  </way>
  <way id="25702238" version="3" timestamp="2009-12-26T12:22:31Z" uid="58091" user="Andreas M" changeset="3454209">
    <nd ref="280216767"/>
    <nd ref="280216766"/>
    <nd ref="280216765"/>
    <nd ref="280216764"/>
    <nd ref="277119064"/>
    <tag k="highway" v="residential"/>
    <tag k="oneway" v="yes"/>
  </way>
  <way id="25702239" version="16" timestamp="2009-12-26T12:14:02Z" uid="58091" user="Andreas M" changeset="3454149">
    <nd ref="280216767"/>
    <nd ref="280216769"/>
    <nd ref="280216770"/>
    <nd ref="560171490"/>
    <nd ref="544241339"/>
    <nd ref="280220106"/>
    <nd ref="59988384"/>
    <nd ref="544241333"/>
    <nd ref="280220108"/>
    <nd ref="280220109"/>
    <nd ref="280220110"/>
    <nd ref="280220111"/>
    <nd ref="280220112"/>
    <nd ref="280220113"/>
    <nd ref="280220115"/>
    <nd ref="280220116"/>
    <nd ref="280220117"/>
    <nd ref="544225153"/>
    <nd ref="280220122"/>
    <nd ref="280220123"/>
    <nd ref="280220124"/>
    <nd ref="280220126"/>
    <nd ref="280220127"/>
    <nd ref="280220128"/>
    <nd ref="280220129"/>
    <nd ref="280220130"/>
    <nd ref="544225141"/>
    <nd ref="280220132"/>
    <nd ref="280220137"/>
    <nd ref="353920783"/>
    <nd ref="353920785"/>
    <nd ref="280220138"/>
    <nd ref="544225110"/>
    <nd ref="280220140"/>
    <nd ref="280220141"/>
    <tag k="highway" v="cycleway"/>
  </way>
  <way id="25702239" version="17" timestamp="2010-01-16T14:05:02Z" uid="58091" user="Andreas M" changeset="3631788">
    <nd ref="280216767"/>
    <nd ref="280216769"/>
    <nd ref="280216770"/>
    <nd ref="560171490"/>
    <nd ref="544241339"/>
    <nd ref="280220106"/>
    <nd ref="59988384"/>
    <nd ref="544241333"/>
    <nd ref="280220108"/>
    <nd ref="280220109"/>
    <nd ref="280220110"/>
    <nd ref="280220111"/>
    <nd ref="280220112"/>
    <nd ref="280220113"/>
    <nd ref="280220115"/>
    <nd ref="280220116"/>
    <nd ref="280220117"/>
    <nd ref="614650417"/>
    <nd ref="544225153"/>
    <nd ref="280220122"/>
    <nd ref="280220123"/>
    <nd ref="280220124"/>
    <nd ref="280220126"/>
    <nd ref="280220127"/>
    <nd ref="280220128"/>
    <nd ref="280220129"/>
    <nd ref="280220130"/>
    <nd ref="544225141"/>
    <nd ref="280220132"/>
    <nd ref="280220137"/>
    <nd ref="353920783"/>
    <nd ref="353920785"/>
    <nd ref="280220138"/>
    <nd ref="544225110"/>
    <nd ref="280220140"/>
    <nd ref="280220141"/>
    <tag k="highway" v="cycleway"/>
  </way>
  <way id="25702239" version="18" timestamp="2010-10-13T21:51:01Z" uid="87164" user="lesewesen" changeset="6034168">
    <nd ref="280216767"/>
    <nd ref="280216769"/>
    <nd ref="280216770"/>
    <nd ref="560171490"/>
    <nd ref="544241339"/>
    <tag k="highway" v="cycleway"/>
  </way>
  <way id="25702253" version="2" timestamp="2010-07-09T07:38:35Z" uid="74617" user="JohnSmith" changeset="5171412">
    <nd ref="280217567"/>
    <nd ref="280217568"/>
    <nd ref="280217569"/>
    <nd ref="280217570"/>
    <nd ref="280217571"/>
    <tag k="highway" v="residential"/>
    <tag k="maxspeed" v="50"/>
    <tag k="maxspeed:source" v="default residential speed limit in Australia"/>
  </way>
  <way id="25702253" version="3" timestamp="2012-01-17T00:40:11Z" uid="147510" user="woodpeck_fixbot" changeset="10412890">
    <nd ref="280217567"/>
    <nd ref="280217568"/>
    <nd ref="280217569"/>
    <nd ref="280217570"/>
    <nd ref="280217571"/>
    <tag k="highway" v="residential"/>
  </way>
  <way id="25702257" version="4" timestamp="2010-07-09T07:29:04Z" uid="74617" user="JohnSmith" changeset="5171412">
    <nd ref="280217641"/>
    <nd ref="280217656"/>
    <nd ref="280217570"/>
    <tag k="highway" v="residential"/>
    <tag k="maxspeed" v="50"/>
    <tag k="maxspeed:source" v="default residential speed limit in Australia"/>
  </way>
  <way id="25702257" version="5" timestamp="2012-01-17T00:40:13Z" uid="147510" user="woodpeck_fixbot" changeset="10412890">
    <nd ref="280217641"/>
    <nd ref="280217656"/>
    <nd ref="280217570"/>
    <tag k="highway" v="residential"/>
  </way>
  <way id="25702258" version="2" timestamp="2010-07-09T07:34:36Z" uid="74617" user="JohnSmith" changeset="5171412">
    <nd ref="280217646"/>
    <nd ref="280217656"/>
    <tag k="highway" v="residential"/>
    <tag k="maxspeed" v="50"/>
    <tag k="maxspeed:source" v="default residential speed limit in Australia"/>
  </way>
  <way id="25702258" version="3" timestamp="2012-01-17T00:40:14Z" uid="147510" user="woodpeck_fixbot" changeset="10412890">
    <nd ref="280217646"/>
    <nd ref="280217656"/>
    <tag k="highway" v="residential"/>
  </way>
  <way id="25702261" version="4" timestamp="2010-07-09T18:19:21Z" uid="74617" user="JohnSmith" changeset="5175333">
    <nd ref="277519678"/>
    <nd ref="277519679"/>
    <nd ref="277519680"/>
    <nd ref="277519681"/>
    <nd ref="583126831"/>
    <nd ref="583126845"/>
    <nd ref="583126848"/>
    <nd ref="277519682"/>
    <nd ref="277519683"/>
    <nd ref="277519677"/>
    <tag k="highway" v="residential"/>
    <tag k="maxspeed" v="50"/>
    <tag k="maxspeed:source" v="default residential speed limit in Australia"/>
    <tag k="name" v="Magnolia Way"/>
  </way>
  <way id="25702261" version="5" timestamp="2012-01-17T00:40:15Z" uid="147510" user="woodpeck_fixbot" changeset="10412890">
    <nd ref="277519678"/>
    <nd ref="277519679"/>
    <nd ref="277519680"/>
    <nd ref="277519681"/>
    <nd ref="583126831"/>
    <nd ref="583126845"/>
    <nd ref="583126848"/>
    <nd ref="277519682"/>
    <nd ref="277519683"/>
    <nd ref="277519677"/>
    <tag k="highway" v="residential"/>
    <tag k="name" v="Magnolia Way"/>
  </way>
  <way id="25702281" version="4" timestamp="2010-07-09T18:20:35Z" uid="74617" user="JohnSmith" changeset="5175333">
    <nd ref="280217876"/>
    <nd ref="280217877"/>
    <nd ref="583127775"/>
    <nd ref="584674046"/>
    <nd ref="280217879"/>
    <tag k="highway" v="residential"/>
    <tag k="maxspeed" v="50"/>
    <tag k="maxspeed:source" v="default residential speed limit in Australia"/>
    <tag k="name" v="Albizia Close"/>
  </way>
  <way id="25702281" version="5" timestamp="2012-01-17T00:40:17Z" uid="147510" user="woodpeck_fixbot" changeset="10412890">
    <nd ref="280217876"/>
    <nd ref="280217877"/>
    <nd ref="583127775"/>
    <nd ref="584674046"/>
    <nd ref="280217879"/>
    <tag k="highway" v="residential"/>
    <tag k="name" v="Albizia Close"/>
  </way>
  <way id="25702283" version="4" timestamp="2010-07-09T07:39:27Z" uid="74617" user="JohnSmith" changeset="5171412">
    <nd ref="280217858"/>
    <nd ref="735098125"/>
    <nd ref="280217887"/>
    <tag k="highway" v="residential"/>
    <tag k="maxspeed" v="50"/>
    <tag k="maxspeed:source" v="default residential speed limit in Australia"/>
  </way>
  <way id="25702283" version="5" timestamp="2011-02-08T07:58:39Z" uid="325087" user="Palitu" changeset="7224093">
    <nd ref="280217858"/>
    <nd ref="735098125"/>
    <nd ref="280217887"/>
    <tag k="highway" v="residential"/>
    <tag k="maxspeed" v="50"/>
    <tag k="maxspeed:source" v="default residential speed limit in Australia"/>
    <tag k="name" v="Muriel Court"/>
  </way>
  <way id="25702283" version="6" timestamp="2012-01-17T00:40:19Z" uid="147510" user="woodpeck_fixbot" changeset="10412890">
    <nd ref="280217858"/>
    <nd ref="735098125"/>
    <nd ref="280217887"/>
    <tag k="highway" v="residential"/>
    <tag k="name" v="Muriel Court"/>
  </way>
  <way id="25702285" version="3" timestamp="2010-07-09T07:27:03Z" uid="74617" user="JohnSmith" changeset="5171412">
    <nd ref="280217894"/>
    <nd ref="735098112"/>
    <nd ref="280217910"/>
    <nd ref="280217911"/>
    <tag k="highway" v="residential"/>
    <tag k="maxspeed" v="50"/>
    <tag k="maxspeed:source" v="default residential speed limit in Australia"/>
  </way>
  <way id="25702285" version="4" timestamp="2010-10-15T05:36:38Z" uid="325087" user="Palitu" changeset="6046295">
    <nd ref="280217894"/>
    <nd ref="735098112"/>
    <nd ref="280217910"/>
    <nd ref="280217911"/>
    <tag k="addr:city" v="South Lake"/>
    <tag k="addr:postcode" v="6164"/>
    <tag k="highway" v="residential"/>
    <tag k="maxspeed" v="50"/>
    <tag k="maxspeed:source" v="default residential speed limit in Australia"/>
  </way>
  <way id="25702285" version="5" timestamp="2010-10-15T06:15:55Z" uid="325087" user="Palitu" changeset="6046414">
    <nd ref="280217894"/>
    <nd ref="735098112"/>
    <nd ref="280217910"/>
    <nd ref="280217911"/>
    <tag k="addr:postcode" v="6164"/>
    <tag k="highway" v="residential"/>
    <tag k="maxspeed" v="50"/>
    <tag k="maxspeed:source" v="default residential speed limit in Australia"/>
  </way>
  <way id="25702285" version="6" timestamp="2011-02-08T07:58:38Z" uid="325087" user="Palitu" changeset="7224093">
    <nd ref="280217894"/>
    <nd ref="735098112"/>
    <nd ref="280217910"/>
    <nd ref="280217911"/>
    <tag k="addr:postcode" v="6164"/>
    <tag k="highway" v="residential"/>
    <tag k="maxspeed" v="50"/>
    <tag k="maxspeed:source" v="default residential speed limit in Australia"/>
    <tag k="name" v="Verna Court"/>
  </way>
  <way id="25702285" version="7" timestamp="2012-01-17T00:40:20Z" uid="147510" user="woodpeck_fixbot" changeset="10412890">
    <nd ref="280217894"/>
    <nd ref="735098112"/>
    <nd ref="280217910"/>
    <nd ref="280217911"/>
    <tag k="addr:postcode" v="6164"/>
    <tag k="highway" v="residential"/>
    <tag k="name" v="Verna Court"/>
  </way>
  <way id="25702301" version="8" timestamp="2010-05-11T04:16:06Z" uid="4467" user="Rosscoe" changeset="4665446">
    <nd ref="280217859"/>
    <nd ref="729448083"/>
    <tag k="highway" v="residential"/>
    <tag k="name" v="Briggs Street"/>
  </way>
  <way id="25702301" version="9" timestamp="2010-05-15T14:18:13Z" uid="192584" user="ORYX" changeset="4705963">
    <nd ref="280217859"/>
    <nd ref="735098180"/>
    <nd ref="735098132"/>
    <nd ref="735098169"/>
    <nd ref="735098198"/>
    <nd ref="729448083"/>
    <tag k="highway" v="residential"/>
    <tag k="name" v="Briggs Street"/>
  </way>
  <way id="25702301" version="10" timestamp="2010-07-09T07:37:02Z" uid="74617" user="JohnSmith" changeset="5171412">
    <nd ref="280217859"/>
    <nd ref="735098180"/>
    <nd ref="735098132"/>
    <nd ref="735098169"/>
    <nd ref="735098198"/>
    <nd ref="729448083"/>
    <tag k="highway" v="residential"/>
    <tag k="maxspeed" v="50"/>
    <tag k="maxspeed:source" v="default residential speed limit in Australia"/>
    <tag k="name" v="Briggs Street"/>
  </way>
  <way id="25702301" version="11" timestamp="2010-10-15T05:37:08Z" uid="325087" user="Palitu" changeset="6046295">
    <nd ref="280217859"/>
    <nd ref="735098180"/>
    <nd ref="735098132"/>
    <nd ref="735098169"/>
    <nd ref="735098198"/>
    <nd ref="729448083"/>
    <tag k="addr:city" v="South Lake"/>
    <tag k="addr:postcode" v="6164"/>
    <tag k="highway" v="residential"/>
    <tag k="maxspeed" v="50"/>
    <tag k="maxspeed:source" v="default residential speed limit in Australia"/>
    <tag k="name" v="Briggs Street"/>
  </way>
  <way id="25702301" version="12" timestamp="2012-01-17T00:40:22Z" uid="147510" user="woodpeck_fixbot" changeset="10412890">
    <nd ref="280217859"/>
    <nd ref="735098180"/>
    <nd ref="735098132"/>
    <nd ref="735098169"/>
    <nd ref="735098198"/>
    <nd ref="729448083"/>
    <tag k="addr:city" v="South Lake"/>
    <tag k="addr:postcode" v="6164"/>
    <tag k="highway" v="residential"/>
    <tag k="name" v="Briggs Street"/>
  </way>
  <way id="25702320" version="10" timestamp="2010-05-02T03:35:29Z" uid="242497" user="cvl" changeset="4580950">
    <nd ref="280218204"/>
    <nd ref="280218109"/>
    <nd ref="280218684"/>
    <nd ref="280218685"/>
    <nd ref="280219969"/>
    <nd ref="280218686"/>
    <nd ref="716308664"/>
    <nd ref="280218855"/>
    <nd ref="716308691"/>
    <nd ref="280218688"/>
    <nd ref="280218689"/>
    <nd ref="280217860"/>
    <nd ref="280220334"/>
    <nd ref="280218690"/>
    <nd ref="280218691"/>
    <nd ref="569920047"/>
    <nd ref="604320358"/>
    <nd ref="280218692"/>
    <tag k="highway" v="secondary"/>
    <tag k="name" v="Berrigan Drive"/>
  </way>
  <way id="25702320" version="11" timestamp="2010-05-15T14:18:10Z" uid="192584" user="ORYX" changeset="4705963">
    <nd ref="280218204"/>
    <nd ref="280218109"/>
    <nd ref="280218684"/>
    <nd ref="280218685"/>
    <nd ref="280219969"/>
    <nd ref="280218686"/>
    <nd ref="716308664"/>
    <nd ref="280218855"/>
    <nd ref="716308691"/>
    <tag k="cycleway" v="lane"/>
    <tag k="highway" v="secondary"/>
    <tag k="name" v="Berrigan Drive"/>
  </way>
  <way id="25702320" version="12" timestamp="2010-12-16T13:04:24Z" uid="294850" user="Q4004" changeset="6676491">
    <nd ref="1041109663"/>
    <nd ref="1041110016"/>
    <nd ref="280218204"/>
    <nd ref="280218109"/>
    <nd ref="280218684"/>
    <nd ref="280218685"/>
    <nd ref="280219969"/>
    <nd ref="280218686"/>
    <nd ref="716308664"/>
    <nd ref="280218855"/>
    <nd ref="716308691"/>
    <tag k="cycleway" v="lane"/>
    <tag k="highway" v="primary"/>
    <tag k="name" v="Berrigan Drive"/>
    <tag k="oneway" v="yes"/>
  </way>
  <way id="25702320" version="13" timestamp="2010-12-21T11:32:19Z" uid="294850" user="Q4004" changeset="6724189">
    <nd ref="1054249979"/>
    <nd ref="280218204"/>
    <nd ref="280218109"/>
    <nd ref="280218684"/>
    <nd ref="280218685"/>
    <nd ref="280219969"/>
    <nd ref="280218686"/>
    <nd ref="716308664"/>
    <nd ref="280218855"/>
    <nd ref="716308691"/>
    <tag k="cycleway" v="lane"/>
    <tag k="highway" v="primary"/>
    <tag k="name" v="Berrigan Drive"/>
    <tag k="oneway" v="yes"/>
  </way>
  <way id="25702320" version="14" timestamp="2011-01-15T06:35:34Z" uid="4467" user="Rosscoe" changeset="6973859">
    <nd ref="1054249979"/>
    <nd ref="280218204"/>
    <nd ref="1104251611"/>
    <nd ref="280218109"/>
    <nd ref="280218684"/>
    <nd ref="280218685"/>
    <nd ref="280219969"/>
    <nd ref="280218686"/>
    <nd ref="716308664"/>
    <nd ref="280218855"/>
    <nd ref="716308691"/>
    <tag k="cycleway" v="lane"/>
    <tag k="highway" v="primary"/>
    <tag k="name" v="Berrigan Drive"/>
    <tag k="oneway" v="yes"/>
  </way>
  <way id="25702327" version="15" timestamp="2010-04-27T04:17:05Z" uid="4467" user="Rosscoe" changeset="4537790">
    <nd ref="708320705"/>
    <nd ref="708321014"/>
    <tag k="bridge" v="yes"/>
    <tag k="highway" v="secondary"/>
    <tag k="layer" v="1"/>
    <tag k="name" v="Berrigan Drive"/>
    <tag k="oneway" v="yes"/>
    <tag k="source" v="nearmap"/>
  </way>
  <way id="25702327" version="16" timestamp="2010-05-15T14:17:59Z" uid="192584" user="ORYX" changeset="4705963">
    <nd ref="708320705"/>
    <nd ref="708321014"/>
    <tag k="bridge" v="yes"/>
    <tag k="cycleway" v="lane"/>
    <tag k="highway" v="secondary"/>
    <tag k="layer" v="1"/>
    <tag k="name" v="Berrigan Drive"/>
    <tag k="oneway" v="yes"/>
    <tag k="source" v="nearmap"/>
  </way>
  <way id="25702328" version="6" timestamp="2010-04-27T04:17:08Z" uid="4467" user="Rosscoe" changeset="4537790"/>
  <way id="25702340" version="2" timestamp="2010-07-09T07:27:24Z" uid="74617" user="JohnSmith" changeset="5171412">
    <nd ref="280219297"/>
    <nd ref="280219315"/>
    <nd ref="280219316"/>
    <tag k="highway" v="residential"/>
    <tag k="maxspeed" v="50"/>
    <tag k="maxspeed:source" v="default residential speed limit in Australia"/>
  </way>
  <way id="25702340" version="3" timestamp="2010-10-15T05:36:43Z" uid="325087" user="Palitu" changeset="6046295">
    <nd ref="280219297"/>
    <nd ref="280219315"/>
    <nd ref="280219316"/>
    <tag k="addr:city" v="South Lake"/>
    <tag k="addr:postcode" v="6164"/>
    <tag k="highway" v="residential"/>
    <tag k="maxspeed" v="50"/>
    <tag k="maxspeed:source" v="default residential speed limit in Australia"/>
  </way>
  <way id="25702340" version="4" timestamp="2011-02-08T08:05:32Z" uid="325087" user="Palitu" changeset="7224132">
    <nd ref="280219297"/>
    <nd ref="280219315"/>
    <nd ref="280219316"/>
    <tag k="addr:city" v="South Lake"/>
    <tag k="addr:postcode" v="6164"/>
    <tag k="highway" v="residential"/>
    <tag k="maxspeed" v="50"/>
    <tag k="maxspeed:source" v="default residential speed limit in Australia"/>
    <tag k="name" v="Waigen Place"/>
  </way>
  <way id="25702340" version="5" timestamp="2012-01-17T00:40:23Z" uid="147510" user="woodpeck_fixbot" changeset="10412890">
    <nd ref="280219297"/>
    <nd ref="280219315"/>
    <nd ref="280219316"/>
    <tag k="addr:city" v="South Lake"/>
    <tag k="addr:postcode" v="6164"/>
    <tag k="highway" v="residential"/>
    <tag k="name" v="Waigen Place"/>
  </way>
  <way id="25702346" version="2" timestamp="2010-07-09T07:27:56Z" uid="74617" user="JohnSmith" changeset="5171412">
    <nd ref="280219327"/>
    <nd ref="280219388"/>
    <tag k="highway" v="residential"/>
    <tag k="maxspeed" v="50"/>
    <tag k="maxspeed:source" v="default residential speed limit in Australia"/>
  </way>
  <way id="25702346" version="3" timestamp="2010-10-15T05:36:49Z" uid="325087" user="Palitu" changeset="6046295">
    <nd ref="280219327"/>
    <nd ref="280219388"/>
    <tag k="addr:city" v="South Lake"/>
    <tag k="addr:postcode" v="6164"/>
    <tag k="highway" v="residential"/>
    <tag k="maxspeed" v="50"/>
    <tag k="maxspeed:source" v="default residential speed limit in Australia"/>
  </way>
  <way id="25702346" version="4" timestamp="2011-02-08T08:05:33Z" uid="325087" user="Palitu" changeset="7224132">
    <nd ref="280219327"/>
    <nd ref="280219388"/>
    <tag k="addr:city" v="South Lake"/>
    <tag k="addr:postcode" v="6164"/>
    <tag k="highway" v="residential"/>
    <tag k="maxspeed" v="50"/>
    <tag k="maxspeed:source" v="default residential speed limit in Australia"/>
    <tag k="name" v="Anec Court"/>
  </way>
  <way id="25702346" version="5" timestamp="2012-01-17T00:40:25Z" uid="147510" user="woodpeck_fixbot" changeset="10412890">
    <nd ref="280219327"/>
    <nd ref="280219388"/>
    <tag k="addr:city" v="South Lake"/>
    <tag k="addr:postcode" v="6164"/>
    <tag k="highway" v="residential"/>
    <tag k="name" v="Anec Court"/>
  </way>
  <way id="25702360" version="2" timestamp="2010-07-09T07:28:33Z" uid="74617" user="JohnSmith" changeset="5171412">
    <nd ref="280218107"/>
    <nd ref="280219448"/>
    <nd ref="280219449"/>
    <nd ref="280219450"/>
    <tag k="highway" v="residential"/>
    <tag k="maxspeed" v="50"/>
    <tag k="maxspeed:source" v="default residential speed limit in Australia"/>
  </way>
  <way id="25702360" version="3" timestamp="2010-10-15T05:36:51Z" uid="325087" user="Palitu" changeset="6046295">
    <nd ref="280218107"/>
    <nd ref="280219448"/>
    <nd ref="280219449"/>
    <nd ref="280219450"/>
    <tag k="addr:city" v="South Lake"/>
    <tag k="addr:postcode" v="6164"/>
    <tag k="highway" v="residential"/>
    <tag k="maxspeed" v="50"/>
    <tag k="maxspeed:source" v="default residential speed limit in Australia"/>
  </way>
  <way id="25702360" version="4" timestamp="2011-02-08T08:05:32Z" uid="325087" user="Palitu" changeset="7224132">
    <nd ref="280218107"/>
    <nd ref="280219448"/>
    <nd ref="280219449"/>
    <nd ref="280219450"/>
    <tag k="addr:city" v="South Lake"/>
    <tag k="addr:postcode" v="6164"/>
    <tag k="highway" v="residential"/>
    <tag k="maxspeed" v="50"/>
    <tag k="maxspeed:source" v="default residential speed limit in Australia"/>
    <tag k="name" v="Coral gum Green"/>
  </way>
  <way id="25702360" version="5" timestamp="2012-01-17T00:40:27Z" uid="147510" user="woodpeck_fixbot" changeset="10412890">
    <nd ref="280218107"/>
    <nd ref="280219448"/>
    <nd ref="280219449"/>
    <nd ref="280219450"/>
    <tag k="addr:city" v="South Lake"/>
    <tag k="addr:postcode" v="6164"/>
    <tag k="highway" v="residential"/>
    <tag k="name" v="Coral gum Green"/>
  </way>
  <way id="25702370" version="2" timestamp="2010-07-09T07:26:53Z" uid="74617" user="JohnSmith" changeset="5171412">
    <nd ref="280219603"/>
    <nd ref="280219604"/>
    <nd ref="280219450"/>
    <nd ref="280219605"/>
    <tag k="highway" v="residential"/>
    <tag k="maxspeed" v="50"/>
    <tag k="maxspeed:source" v="default residential speed limit in Australia"/>
  </way>
  <way id="25702370" version="3" timestamp="2010-10-15T05:36:54Z" uid="325087" user="Palitu" changeset="6046295">
    <nd ref="280219603"/>
    <nd ref="280219604"/>
    <nd ref="280219450"/>
    <nd ref="280219605"/>
    <tag k="addr:city" v="South Lake"/>
    <tag k="addr:postcode" v="6164"/>
    <tag k="highway" v="residential"/>
    <tag k="maxspeed" v="50"/>
    <tag k="maxspeed:source" v="default residential speed limit in Australia"/>
  </way>
  <way id="25702370" version="4" timestamp="2012-01-17T00:40:28Z" uid="147510" user="woodpeck_fixbot" changeset="10412890">
    <nd ref="280219603"/>
    <nd ref="280219604"/>
    <nd ref="280219450"/>
    <nd ref="280219605"/>
    <tag k="addr:city" v="South Lake"/>
    <tag k="addr:postcode" v="6164"/>
    <tag k="highway" v="residential"/>
  </way>
  <way id="25702375" version="2" timestamp="2010-07-09T07:27:36Z" uid="74617" user="JohnSmith" changeset="5171412">
    <nd ref="280219745"/>
    <nd ref="280219605"/>
    <nd ref="280219746"/>
    <tag k="highway" v="residential"/>
    <tag k="maxspeed" v="50"/>
    <tag k="maxspeed:source" v="default residential speed limit in Australia"/>
  </way>
  <way id="25702375" version="3" timestamp="2010-10-15T05:36:50Z" uid="325087" user="Palitu" changeset="6046295">
    <nd ref="280219745"/>
    <nd ref="280219605"/>
    <nd ref="280219746"/>
    <tag k="addr:city" v="South Lake"/>
    <tag k="addr:postcode" v="6164"/>
    <tag k="highway" v="residential"/>
    <tag k="maxspeed" v="50"/>
    <tag k="maxspeed:source" v="default residential speed limit in Australia"/>
  </way>
  <way id="25702375" version="4" timestamp="2011-02-08T08:05:31Z" uid="325087" user="Palitu" changeset="7224132">
    <nd ref="280219745"/>
    <nd ref="280219605"/>
    <nd ref="280219746"/>
    <tag k="addr:city" v="South Lake"/>
    <tag k="addr:postcode" v="6164"/>
    <tag k="highway" v="residential"/>
    <tag k="maxspeed" v="50"/>
    <tag k="maxspeed:source" v="default residential speed limit in Australia"/>
    <tag k="name" v="Pambulla Court"/>
  </way>
  <way id="25702375" version="5" timestamp="2012-01-17T00:40:30Z" uid="147510" user="woodpeck_fixbot" changeset="10412890">
    <nd ref="280219745"/>
    <nd ref="280219605"/>
    <nd ref="280219746"/>
    <tag k="addr:city" v="South Lake"/>
    <tag k="addr:postcode" v="6164"/>
    <tag k="highway" v="residential"/>
    <tag k="name" v="Pambulla Court"/>
  </way>
  <way id="25702376" version="4" timestamp="2009-10-21T22:59:23Z" uid="36809" user="pfoten_weg_!_" changeset="2917503">
    <nd ref="280219755"/>
    <nd ref="280226609"/>
    <nd ref="280219757"/>
    <nd ref="280226577"/>
    <nd ref="280219755"/>
    <tag k="building" v="yes"/>
    <tag k="name" v="Rathaus"/>
  </way>
  <way id="25702385" version="2" timestamp="2010-07-09T07:30:51Z" uid="74617" user="JohnSmith" changeset="5171412">
    <nd ref="280219754"/>
    <nd ref="280219886"/>
    <nd ref="280219887"/>
    <tag k="highway" v="residential"/>
    <tag k="maxspeed" v="50"/>
    <tag k="maxspeed:source" v="default residential speed limit in Australia"/>
  </way>
  <way id="25702385" version="3" timestamp="2011-01-15T06:34:59Z" uid="4467" user="Rosscoe" changeset="6973859">
    <nd ref="1041109758"/>
    <nd ref="280219754"/>
    <nd ref="280219886"/>
    <nd ref="280219887"/>
    <tag k="highway" v="residential"/>
    <tag k="maxspeed" v="50"/>
    <tag k="maxspeed:source" v="default residential speed limit in Australia"/>
  </way>
  <way id="25702385" version="4" timestamp="2011-02-08T08:05:34Z" uid="325087" user="Palitu" changeset="7224132">
    <nd ref="1041109758"/>
    <nd ref="280219754"/>
    <nd ref="280219886"/>
    <nd ref="280219887"/>
    <tag k="highway" v="residential"/>
    <tag k="maxspeed" v="50"/>
    <tag k="maxspeed:source" v="default residential speed limit in Australia"/>
    <tag k="name" v="Rimmington Court"/>
  </way>
  <way id="25702385" version="5" timestamp="2012-01-17T00:40:32Z" uid="147510" user="woodpeck_fixbot" changeset="10412890">
    <nd ref="1041109758"/>
    <nd ref="280219754"/>
    <nd ref="280219886"/>
    <nd ref="280219887"/>
    <tag k="highway" v="residential"/>
    <tag k="name" v="Rimmington Court"/>
  </way>
  <way id="25702393" version="2" timestamp="2010-07-09T07:35:14Z" uid="74617" user="JohnSmith" changeset="5171412">
    <nd ref="280219886"/>
    <nd ref="280219960"/>
    <nd ref="280219961"/>
    <nd ref="280219962"/>
    <tag k="highway" v="residential"/>
    <tag k="maxspeed" v="50"/>
    <tag k="maxspeed:source" v="default residential speed limit in Australia"/>
  </way>
  <way id="25702393" version="3" timestamp="2011-02-08T08:05:32Z" uid="325087" user="Palitu" changeset="7224132">
    <nd ref="280219886"/>
    <nd ref="280219960"/>
    <nd ref="280219961"/>
    <nd ref="280219962"/>
    <tag k="highway" v="residential"/>
    <tag k="maxspeed" v="50"/>
    <tag k="maxspeed:source" v="default residential speed limit in Australia"/>
    <tag k="name" v="Impson Gardens"/>
  </way>
  <way id="25702393" version="4" timestamp="2012-01-17T00:40:33Z" uid="147510" user="woodpeck_fixbot" changeset="10412890">
    <nd ref="280219886"/>
    <nd ref="280219960"/>
    <nd ref="280219961"/>
    <nd ref="280219962"/>
    <tag k="highway" v="residential"/>
    <tag k="name" v="Impson Gardens"/>
  </way>
  <way id="25702412" version="15" timestamp="2010-04-26T11:08:34Z" uid="242497" user="vlchung" changeset="4530656">
    <nd ref="280219969"/>
    <nd ref="280223167"/>
    <nd ref="280223470"/>
    <nd ref="280223471"/>
    <nd ref="280223197"/>
    <nd ref="569919002"/>
    <nd ref="280223198"/>
    <nd ref="569919003"/>
    <nd ref="280225758"/>
    <nd ref="280223199"/>
    <nd ref="280223200"/>
    <nd ref="280220303"/>
    <nd ref="280223201"/>
    <nd ref="280225203"/>
    <nd ref="280223767"/>
    <nd ref="280223473"/>
    <nd ref="280223768"/>
    <nd ref="280225204"/>
    <nd ref="280220309"/>
    <nd ref="569918857"/>
    <nd ref="280220310"/>
    <nd ref="569918878"/>
    <nd ref="280220311"/>
    <nd ref="280220312"/>
    <nd ref="280220313"/>
    <nd ref="280225825"/>
    <nd ref="280226296"/>
    <nd ref="707161847"/>
    <nd ref="280220315"/>
    <nd ref="280220316"/>
    <nd ref="280220317"/>
    <nd ref="280226267"/>
    <nd ref="280225962"/>
    <nd ref="280220318"/>
    <tag k="highway" v="tertiary"/>
  </way>
  <way id="25702412" version="16" timestamp="2010-04-26T14:46:22Z" uid="242497" user="vlchung" changeset="4532563">
    <nd ref="280219969"/>
    <nd ref="280223167"/>
    <nd ref="280223470"/>
    <nd ref="280223471"/>
    <nd ref="280223197"/>
    <nd ref="569919002"/>
    <nd ref="280223198"/>
    <nd ref="569919003"/>
    <nd ref="280225758"/>
    <nd ref="280223199"/>
    <nd ref="280223200"/>
    <nd ref="280220303"/>
    <nd ref="280223201"/>
    <nd ref="280225203"/>
    <nd ref="280223767"/>
    <nd ref="280223473"/>
    <nd ref="280223768"/>
    <nd ref="280225204"/>
    <nd ref="280220309"/>
    <nd ref="569918857"/>
    <nd ref="280220310"/>
    <nd ref="569918878"/>
    <nd ref="280220311"/>
    <nd ref="280220312"/>
    <nd ref="280220313"/>
    <nd ref="280225825"/>
    <nd ref="280226296"/>
    <nd ref="707161847"/>
    <nd ref="280220315"/>
    <nd ref="280220316"/>
    <nd ref="707488558"/>
    <nd ref="707488563"/>
    <nd ref="280220317"/>
    <nd ref="280226267"/>
    <nd ref="280225962"/>
    <nd ref="280220318"/>
    <tag k="highway" v="tertiary"/>
  </way>
  <way id="25702412" version="17" timestamp="2010-04-30T06:00:52Z" uid="192584" user="ORYX" changeset="4563226">
    <nd ref="280219969"/>
    <nd ref="280223167"/>
    <nd ref="280223470"/>
    <nd ref="280223471"/>
    <nd ref="280223197"/>
    <nd ref="569919002"/>
    <nd ref="280223198"/>
    <nd ref="569919003"/>
    <nd ref="280225758"/>
    <nd ref="280223199"/>
    <nd ref="280223200"/>
    <tag k="highway" v="tertiary"/>
  </way>
  <way id="25702412" version="18" timestamp="2010-05-02T03:35:15Z" uid="242497" user="cvl" changeset="4580950">
    <nd ref="280219969"/>
    <nd ref="716308675"/>
    <nd ref="716308671"/>
    <nd ref="280223167"/>
    <nd ref="280223470"/>
    <nd ref="280223471"/>
    <nd ref="280223197"/>
    <nd ref="569919002"/>
    <nd ref="280223198"/>
    <nd ref="569919003"/>
    <nd ref="280225758"/>
    <nd ref="280223199"/>
    <nd ref="280223200"/>
    <tag k="highway" v="tertiary"/>
    <tag k="name" v="South Lake Road"/>
  </way>
  <way id="25702412" version="19" timestamp="2010-10-15T05:36:45Z" uid="325087" user="Palitu" changeset="6046295">
    <nd ref="280219969"/>
    <nd ref="716308675"/>
    <nd ref="716308671"/>
    <nd ref="280223167"/>
    <nd ref="280223470"/>
    <nd ref="280223471"/>
    <nd ref="280223197"/>
    <nd ref="569919002"/>
    <nd ref="280223198"/>
    <nd ref="569919003"/>
    <nd ref="280225758"/>
    <nd ref="280223199"/>
    <nd ref="280223200"/>
    <tag k="addr:city" v="South Lake"/>
    <tag k="addr:postcode" v="6164"/>
    <tag k="highway" v="tertiary"/>
    <tag k="name" v="South Lake Road"/>
  </way>
  <way id="25702412" version="20" timestamp="2011-01-15T06:35:25Z" uid="4467" user="Rosscoe" changeset="6973859">
    <nd ref="1041110124"/>
    <nd ref="280219969"/>
    <nd ref="716308675"/>
    <nd ref="716308671"/>
    <nd ref="280223167"/>
    <nd ref="280223470"/>
    <nd ref="280223471"/>
    <nd ref="280223197"/>
    <nd ref="569919002"/>
    <nd ref="280223198"/>
    <nd ref="569919003"/>
    <nd ref="280225758"/>
    <nd ref="280223199"/>
    <nd ref="280223200"/>
    <tag k="addr:city" v="South Lake"/>
    <tag k="addr:postcode" v="6164"/>
    <tag k="highway" v="tertiary"/>
    <tag k="name" v="South Lake Road"/>
  </way>
  <way id="25702443" version="12" timestamp="2010-04-26T14:46:23Z" uid="242497" user="vlchung" changeset="4532563">
    <nd ref="280218690"/>
    <nd ref="280221068"/>
    <nd ref="280225299"/>
    <nd ref="280221069"/>
    <nd ref="280221070"/>
    <nd ref="280226560"/>
    <nd ref="280220318"/>
    <nd ref="280221712"/>
    <nd ref="280221072"/>
    <nd ref="280226675"/>
    <nd ref="280221075"/>
    <nd ref="280226674"/>
    <nd ref="280221076"/>
    <nd ref="280221077"/>
    <nd ref="280223632"/>
    <nd ref="280227320"/>
    <nd ref="280221079"/>
    <nd ref="707488436"/>
    <nd ref="707488682"/>
    <nd ref="280226562"/>
    <nd ref="280221715"/>
    <nd ref="280221716"/>
    <nd ref="280221717"/>
    <nd ref="280235593"/>
    <nd ref="280221083"/>
    <nd ref="280235605"/>
    <nd ref="280221718"/>
    <nd ref="280226311"/>
    <nd ref="280221085"/>
    <nd ref="280225302"/>
    <nd ref="280223629"/>
    <nd ref="280226312"/>
    <nd ref="279518995"/>
    <tag k="highway" v="tertiary"/>
  </way>
  <way id="25702443" version="13" timestamp="2010-04-30T13:32:28Z" uid="242497" user="cvl" changeset="4566294">
    <nd ref="280218690"/>
    <nd ref="280221068"/>
    <nd ref="280225299"/>
    <nd ref="280221069"/>
    <nd ref="280221070"/>
    <nd ref="280226560"/>
    <nd ref="280220318"/>
    <nd ref="280221712"/>
    <nd ref="280221072"/>
    <nd ref="280226675"/>
    <nd ref="280221075"/>
    <nd ref="280226674"/>
    <nd ref="280221076"/>
    <nd ref="280221077"/>
    <nd ref="280223632"/>
    <nd ref="280227320"/>
    <nd ref="280221079"/>
    <nd ref="707488436"/>
    <nd ref="707488682"/>
    <nd ref="280226562"/>
    <nd ref="280221715"/>
    <nd ref="280221716"/>
    <nd ref="280221717"/>
    <nd ref="280235593"/>
    <nd ref="280221083"/>
    <nd ref="280235605"/>
    <nd ref="280221718"/>
    <nd ref="280226311"/>
    <nd ref="280221085"/>
    <nd ref="280225302"/>
    <nd ref="280223629"/>
    <nd ref="280226312"/>
    <nd ref="279518995"/>
    <tag k="highway" v="tertiary"/>
    <tag k="name" v="Elderberry Drive"/>
  </way>
  <way id="25702443" version="14" timestamp="2010-05-15T14:18:11Z" uid="192584" user="ORYX" changeset="4705963">
    <nd ref="280218690"/>
    <nd ref="735098124"/>
    <nd ref="280221068"/>
    <nd ref="280225299"/>
    <nd ref="280221069"/>
    <nd ref="280221070"/>
    <nd ref="280226560"/>
    <nd ref="280220318"/>
    <nd ref="280221712"/>
    <nd ref="280221072"/>
    <nd ref="280226675"/>
    <nd ref="280221075"/>
    <nd ref="280226674"/>
    <nd ref="280221076"/>
    <nd ref="280221077"/>
    <nd ref="280223632"/>
    <nd ref="280227320"/>
    <nd ref="280221079"/>
    <nd ref="707488436"/>
    <nd ref="707488682"/>
    <nd ref="280226562"/>
    <nd ref="280221715"/>
    <nd ref="280221716"/>
    <nd ref="280221717"/>
    <nd ref="280235593"/>
    <nd ref="280221083"/>
    <nd ref="280235605"/>
    <nd ref="280221718"/>
    <nd ref="280226311"/>
    <nd ref="280221085"/>
    <nd ref="280225302"/>
    <nd ref="280223629"/>
    <nd ref="280226312"/>
    <nd ref="279518995"/>
    <tag k="highway" v="tertiary"/>
    <tag k="name" v="Elderberry Drive"/>
  </way>
  <way id="25702443" version="15" timestamp="2010-10-15T05:36:44Z" uid="325087" user="Palitu" changeset="6046295">
    <nd ref="280218690"/>
    <nd ref="735098124"/>
    <nd ref="280221068"/>
    <nd ref="280225299"/>
    <nd ref="280221069"/>
    <nd ref="280221070"/>
    <nd ref="280226560"/>
    <nd ref="280220318"/>
    <nd ref="280221712"/>
    <nd ref="280221072"/>
    <nd ref="280226675"/>
    <nd ref="280221075"/>
    <nd ref="280226674"/>
    <nd ref="280221076"/>
    <nd ref="280221077"/>
    <nd ref="280223632"/>
    <nd ref="280227320"/>
    <nd ref="280221079"/>
    <nd ref="707488436"/>
    <nd ref="707488682"/>
    <nd ref="280226562"/>
    <nd ref="280221715"/>
    <nd ref="280221716"/>
    <nd ref="280221717"/>
    <nd ref="280235593"/>
    <nd ref="280221083"/>
    <nd ref="280235605"/>
    <nd ref="280221718"/>
    <nd ref="280226311"/>
    <nd ref="280221085"/>
    <nd ref="280225302"/>
    <nd ref="280223629"/>
    <nd ref="280226312"/>
    <nd ref="279518995"/>
    <tag k="addr:city" v="South Lake"/>
    <tag k="addr:postcode" v="6164"/>
    <tag k="highway" v="tertiary"/>
    <tag k="name" v="Elderberry Drive"/>
  </way>
  <way id="25702443" version="16" timestamp="2011-01-15T06:35:00Z" uid="4467" user="Rosscoe" changeset="6973859">
    <nd ref="1104251534"/>
    <nd ref="280218690"/>
    <nd ref="735098124"/>
    <nd ref="280221068"/>
    <nd ref="280225299"/>
    <nd ref="280221069"/>
    <nd ref="280221070"/>
    <nd ref="280226560"/>
    <nd ref="280220318"/>
    <nd ref="280221712"/>
    <nd ref="280221072"/>
    <nd ref="280226675"/>
    <nd ref="280221075"/>
    <nd ref="280226674"/>
    <nd ref="280221076"/>
    <nd ref="280221077"/>
    <nd ref="280223632"/>
    <nd ref="280227320"/>
    <nd ref="280221079"/>
    <nd ref="707488436"/>
    <nd ref="707488682"/>
    <nd ref="280226562"/>
    <nd ref="280221715"/>
    <nd ref="280221716"/>
    <nd ref="280221717"/>
    <nd ref="280235593"/>
    <nd ref="280221083"/>
    <nd ref="280235605"/>
    <nd ref="280221718"/>
    <nd ref="280226311"/>
    <nd ref="280221085"/>
    <nd ref="280225302"/>
    <nd ref="280223629"/>
    <nd ref="280226312"/>
    <nd ref="1104251569"/>
    <tag k="highway" v="tertiary"/>
    <tag k="is_in" v="South Lake"/>
    <tag k="name" v="Elderberry Drive"/>
    <tag k="postal_code" v="6164"/>
  </way>
  <way id="25702443" version="17" timestamp="2011-02-07T07:48:27Z" uid="325087" user="Palitu" changeset="7213187">
    <nd ref="1104251534"/>
    <nd ref="280218690"/>
    <nd ref="735098124"/>
    <nd ref="280221068"/>
    <nd ref="280225299"/>
    <nd ref="280221069"/>
    <nd ref="280221070"/>
    <nd ref="280226560"/>
    <nd ref="280220318"/>
    <nd ref="280221712"/>
    <nd ref="280221072"/>
    <nd ref="280226675"/>
    <nd ref="280221075"/>
    <nd ref="280226674"/>
    <nd ref="280221076"/>
    <nd ref="280221077"/>
    <nd ref="280223632"/>
    <nd ref="280227320"/>
    <nd ref="280221079"/>
    <nd ref="707488436"/>
    <nd ref="707488682"/>
    <nd ref="280226562"/>
    <nd ref="280221715"/>
    <nd ref="280221716"/>
    <nd ref="280221717"/>
    <nd ref="280235593"/>
    <nd ref="280221083"/>
    <nd ref="280235605"/>
    <nd ref="280221718"/>
    <nd ref="280226311"/>
    <nd ref="280221085"/>
    <nd ref="280225302"/>
    <nd ref="280223629"/>
    <nd ref="280226312"/>
    <nd ref="1104251569"/>
    <tag k="highway" v="tertiary"/>
    <tag k="is_in" v="South Lake"/>
    <tag k="name" v="Elderberry Drive"/>
    <tag k="postal_code" v="6164"/>
  </way>
  <way id="25702507" version="2" timestamp="2010-04-26T11:08:35Z" uid="242497" user="vlchung" changeset="4530656">
    <nd ref="280222061"/>
    <nd ref="280222062"/>
    <nd ref="280222063"/>
    <nd ref="280222064"/>
    <nd ref="280222065"/>
    <nd ref="280222066"/>
    <nd ref="280222067"/>
    <nd ref="280222068"/>
    <nd ref="280222069"/>
    <nd ref="280222070"/>
    <nd ref="280222071"/>
    <nd ref="280222072"/>
    <nd ref="280222073"/>
    <nd ref="280222074"/>
    <nd ref="280222075"/>
    <nd ref="280222061"/>
    <tag k="amenity" v="school"/>
  </way>
  <way id="25702507" version="3" timestamp="2011-01-15T06:35:29Z" uid="4467" user="Rosscoe" changeset="6973859">
    <nd ref="280222061"/>
    <nd ref="1104251652"/>
    <nd ref="280222062"/>
    <nd ref="280222063"/>
    <nd ref="280222064"/>
    <nd ref="280222065"/>
    <nd ref="280222066"/>
    <nd ref="280222067"/>
    <nd ref="280222068"/>
    <nd ref="280222069"/>
    <nd ref="280222070"/>
    <nd ref="280222071"/>
    <nd ref="280222072"/>
    <nd ref="280222073"/>
    <nd ref="280222074"/>
    <nd ref="280222075"/>
    <nd ref="280222061"/>
    <tag k="amenity" v="school"/>
  </way>
  <way id="25702592" version="2" timestamp="2010-05-02T03:35:21Z" uid="242497" user="cvl" changeset="4580950">
    <nd ref="280223156"/>
    <nd ref="280223157"/>
    <nd ref="280223158"/>
    <nd ref="280223159"/>
    <nd ref="280223160"/>
    <nd ref="280223161"/>
    <nd ref="280223162"/>
    <nd ref="716308728"/>
    <nd ref="716308727"/>
    <nd ref="280223163"/>
    <nd ref="280223164"/>
    <nd ref="716308642"/>
    <nd ref="280223165"/>
    <nd ref="280223166"/>
    <nd ref="280223156"/>
    <tag k="landuse" v="retail"/>
    <tag k="name" v="Southlake Shopping Centre"/>
  </way>
  <way id="25702604" version="5" timestamp="2010-05-02T03:35:16Z" uid="242497" user="cvl" changeset="4580950">
    <nd ref="280223200"/>
    <nd ref="280223248"/>
    <nd ref="280223457"/>
    <tag k="highway" v="residential"/>
    <tag k="name" v="Broadwater Gardens"/>
  </way>
  <way id="25702604" version="6" timestamp="2010-07-09T07:26:11Z" uid="74617" user="JohnSmith" changeset="5171412">
    <nd ref="280223200"/>
    <nd ref="280223248"/>
    <nd ref="280223457"/>
    <tag k="highway" v="residential"/>
    <tag k="maxspeed" v="50"/>
    <tag k="maxspeed:source" v="default residential speed limit in Australia"/>
    <tag k="name" v="Broadwater Gardens"/>
  </way>
  <way id="25702604" version="7" timestamp="2010-10-15T05:37:14Z" uid="325087" user="Palitu" changeset="6046295">
    <nd ref="280223200"/>
    <nd ref="280223248"/>
    <nd ref="280223457"/>
    <tag k="addr:city" v="South Lake"/>
    <tag k="addr:postcode" v="6164"/>
    <tag k="highway" v="residential"/>
    <tag k="maxspeed" v="50"/>
    <tag k="maxspeed:source" v="default residential speed limit in Australia"/>
    <tag k="name" v="Broadwater Gardens"/>
  </way>
  <way id="25702604" version="8" timestamp="2012-01-17T00:40:34Z" uid="147510" user="woodpeck_fixbot" changeset="10412890">
    <nd ref="280223200"/>
    <nd ref="280223248"/>
    <nd ref="280223457"/>
    <tag k="addr:city" v="South Lake"/>
    <tag k="addr:postcode" v="6164"/>
    <tag k="highway" v="residential"/>
    <tag k="name" v="Broadwater Gardens"/>
  </way>
  <way id="25702610" version="3" timestamp="2010-05-02T03:35:17Z" uid="242497" user="cvl" changeset="4580950">
    <nd ref="280223250"/>
    <nd ref="280223329"/>
    <nd ref="280223330"/>
    <nd ref="280223332"/>
    <nd ref="716308760"/>
    <nd ref="280223333"/>
    <tag k="highway" v="residential"/>
    <tag k="name" v="Waterside Place"/>
  </way>
  <way id="25702610" version="4" timestamp="2010-07-09T07:26:37Z" uid="74617" user="JohnSmith" changeset="5171412">
    <nd ref="280223250"/>
    <nd ref="280223329"/>
    <nd ref="280223330"/>
    <nd ref="280223332"/>
    <nd ref="716308760"/>
    <nd ref="280223333"/>
    <tag k="highway" v="residential"/>
    <tag k="maxspeed" v="50"/>
    <tag k="maxspeed:source" v="default residential speed limit in Australia"/>
    <tag k="name" v="Waterside Place"/>
  </way>
  <way id="25702610" version="5" timestamp="2010-10-15T05:36:45Z" uid="325087" user="Palitu" changeset="6046295">
    <nd ref="280223250"/>
    <nd ref="280223329"/>
    <nd ref="280223330"/>
    <nd ref="280223332"/>
    <nd ref="716308760"/>
    <nd ref="280223333"/>
    <tag k="addr:city" v="South Lake"/>
    <tag k="addr:postcode" v="6164"/>
    <tag k="highway" v="residential"/>
    <tag k="maxspeed" v="50"/>
    <tag k="maxspeed:source" v="default residential speed limit in Australia"/>
    <tag k="name" v="Waterside Place"/>
  </way>
  <way id="25702610" version="6" timestamp="2012-01-17T00:40:35Z" uid="147510" user="woodpeck_fixbot" changeset="10412890">
    <nd ref="280223250"/>
    <nd ref="280223329"/>
    <nd ref="280223330"/>
    <nd ref="280223332"/>
    <nd ref="716308760"/>
    <nd ref="280223333"/>
    <tag k="addr:city" v="South Lake"/>
    <tag k="addr:postcode" v="6164"/>
    <tag k="highway" v="residential"/>
    <tag k="name" v="Waterside Place"/>
  </way>
  <way id="25702613" version="3" timestamp="2010-05-02T03:35:17Z" uid="242497" user="cvl" changeset="4580950">
    <nd ref="280223330"/>
    <nd ref="716308762"/>
    <nd ref="716308763"/>
    <nd ref="280223366"/>
    <tag k="highway" v="residential"/>
    <tag k="name" v="Placid Cresent"/>
  </way>
  <way id="25702613" version="4" timestamp="2010-07-09T07:33:54Z" uid="74617" user="JohnSmith" changeset="5171412">
    <nd ref="280223330"/>
    <nd ref="716308762"/>
    <nd ref="716308763"/>
    <nd ref="280223366"/>
    <tag k="highway" v="residential"/>
    <tag k="maxspeed" v="50"/>
    <tag k="maxspeed:source" v="default residential speed limit in Australia"/>
    <tag k="name" v="Placid Cresent"/>
  </way>
  <way id="25702613" version="5" timestamp="2010-10-15T05:37:03Z" uid="325087" user="Palitu" changeset="6046295">
    <nd ref="280223330"/>
    <nd ref="716308762"/>
    <nd ref="716308763"/>
    <nd ref="280223366"/>
    <tag k="addr:city" v="South Lake"/>
    <tag k="addr:postcode" v="6164"/>
    <tag k="highway" v="residential"/>
    <tag k="maxspeed" v="50"/>
    <tag k="maxspeed:source" v="default residential speed limit in Australia"/>
    <tag k="name" v="Placid Cresent"/>
  </way>
  <way id="25702613" version="6" timestamp="2012-01-17T00:40:40Z" uid="147510" user="woodpeck_fixbot" changeset="10412890">
    <nd ref="280223330"/>
    <nd ref="716308762"/>
    <nd ref="716308763"/>
    <nd ref="280223366"/>
    <tag k="addr:city" v="South Lake"/>
    <tag k="addr:postcode" v="6164"/>
    <tag k="highway" v="residential"/>
    <tag k="name" v="Placid Cresent"/>
  </way>
  <way id="25702619" version="5" timestamp="2010-05-02T03:35:14Z" uid="242497" user="cvl" changeset="4580950">
    <nd ref="280223457"/>
    <nd ref="280223458"/>
    <tag k="highway" v="residential"/>
    <tag k="name" v="Lockside Grove"/>
  </way>
  <way id="25702619" version="6" timestamp="2010-05-29T15:50:52Z" uid="242497" user="cvl" changeset="4844017">
    <nd ref="280223457"/>
    <nd ref="756689361"/>
    <nd ref="756689370"/>
    <nd ref="280223458"/>
    <tag k="highway" v="residential"/>
    <tag k="name" v="Lockside Grove"/>
  </way>
  <way id="25702619" version="7" timestamp="2010-07-09T07:34:19Z" uid="74617" user="JohnSmith" changeset="5171412">
    <nd ref="280223457"/>
    <nd ref="756689361"/>
    <nd ref="756689370"/>
    <nd ref="280223458"/>
    <tag k="highway" v="residential"/>
    <tag k="maxspeed" v="50"/>
    <tag k="maxspeed:source" v="default residential speed limit in Australia"/>
    <tag k="name" v="Lockside Grove"/>
  </way>
  <way id="25702619" version="8" timestamp="2010-10-15T05:37:08Z" uid="325087" user="Palitu" changeset="6046295">
    <nd ref="280223457"/>
    <nd ref="756689361"/>
    <nd ref="756689370"/>
    <nd ref="280223458"/>
    <tag k="addr:city" v="South Lake"/>
    <tag k="addr:postcode" v="6164"/>
    <tag k="highway" v="residential"/>
    <tag k="maxspeed" v="50"/>
    <tag k="maxspeed:source" v="default residential speed limit in Australia"/>
    <tag k="name" v="Lockside Grove"/>
  </way>
  <way id="25702619" version="9" timestamp="2012-01-17T00:40:41Z" uid="147510" user="woodpeck_fixbot" changeset="10412890">
    <nd ref="280223457"/>
    <nd ref="756689361"/>
    <nd ref="756689370"/>
    <nd ref="280223458"/>
    <tag k="addr:city" v="South Lake"/>
    <tag k="addr:postcode" v="6164"/>
    <tag k="highway" v="residential"/>
    <tag k="name" v="Lockside Grove"/>
  </way>
  <way id="25702633" version="9" timestamp="2010-05-02T03:35:14Z" uid="242497" user="cvl" changeset="4580950">
    <nd ref="280223471"/>
    <nd ref="280223605"/>
    <nd ref="280223606"/>
    <nd ref="280223851"/>
    <nd ref="280223607"/>
    <nd ref="280223813"/>
    <nd ref="280223904"/>
    <nd ref="280223814"/>
    <nd ref="280223910"/>
    <nd ref="280223888"/>
    <nd ref="280223816"/>
    <nd ref="280223612"/>
    <nd ref="280223817"/>
    <nd ref="280223614"/>
    <nd ref="280223853"/>
    <nd ref="280223819"/>
    <nd ref="280223617"/>
    <nd ref="280223889"/>
    <nd ref="280223619"/>
    <nd ref="280224751"/>
    <nd ref="280223620"/>
    <nd ref="280223621"/>
    <nd ref="280223622"/>
    <nd ref="280224332"/>
    <nd ref="280223623"/>
    <nd ref="280223624"/>
    <nd ref="280223625"/>
    <nd ref="280223626"/>
    <nd ref="280223812"/>
    <nd ref="280223627"/>
    <nd ref="280223628"/>
    <nd ref="280223629"/>
    <tag k="highway" v="residential"/>
    <tag k="name" v="Glenbawn Drive"/>
  </way>
  <way id="25702633" version="10" timestamp="2010-07-09T07:34:53Z" uid="74617" user="JohnSmith" changeset="5171412">
    <nd ref="280223471"/>
    <nd ref="280223605"/>
    <nd ref="280223606"/>
    <nd ref="280223851"/>
    <nd ref="280223607"/>
    <nd ref="280223813"/>
    <nd ref="280223904"/>
    <nd ref="280223814"/>
    <nd ref="280223910"/>
    <nd ref="280223888"/>
    <nd ref="280223816"/>
    <nd ref="280223612"/>
    <nd ref="280223817"/>
    <nd ref="280223614"/>
    <nd ref="280223853"/>
    <nd ref="280223819"/>
    <nd ref="280223617"/>
    <nd ref="280223889"/>
    <nd ref="280223619"/>
    <nd ref="280224751"/>
    <nd ref="280223620"/>
    <nd ref="280223621"/>
    <nd ref="280223622"/>
    <nd ref="280224332"/>
    <nd ref="280223623"/>
    <nd ref="280223624"/>
    <nd ref="280223625"/>
    <nd ref="280223626"/>
    <nd ref="280223812"/>
    <nd ref="280223627"/>
    <nd ref="280223628"/>
    <nd ref="280223629"/>
    <tag k="highway" v="residential"/>
    <tag k="maxspeed" v="50"/>
    <tag k="maxspeed:source" v="default residential speed limit in Australia"/>
    <tag k="name" v="Glenbawn Drive"/>
  </way>
  <way id="25702633" version="11" timestamp="2010-10-15T05:36:49Z" uid="325087" user="Palitu" changeset="6046295">
    <nd ref="280223471"/>
    <nd ref="280223605"/>
    <nd ref="280223606"/>
    <nd ref="280223851"/>
    <nd ref="280223607"/>
    <nd ref="280223813"/>
    <nd ref="280223904"/>
    <nd ref="280223814"/>
    <nd ref="280223910"/>
    <nd ref="280223888"/>
    <nd ref="280223816"/>
    <nd ref="280223612"/>
    <nd ref="280223817"/>
    <nd ref="280223614"/>
    <nd ref="280223853"/>
    <nd ref="280223819"/>
    <nd ref="280223617"/>
    <nd ref="280223889"/>
    <nd ref="280223619"/>
    <nd ref="280224751"/>
    <nd ref="280223620"/>
    <nd ref="280223621"/>
    <nd ref="280223622"/>
    <nd ref="280224332"/>
    <nd ref="280223623"/>
    <nd ref="280223624"/>
    <nd ref="280223625"/>
    <nd ref="280223626"/>
    <nd ref="280223812"/>
    <nd ref="280223627"/>
    <nd ref="280223628"/>
    <nd ref="280223629"/>
    <tag k="addr:city" v="South Lake"/>
    <tag k="addr:postcode" v="6164"/>
    <tag k="highway" v="residential"/>
    <tag k="maxspeed" v="50"/>
    <tag k="maxspeed:source" v="default residential speed limit in Australia"/>
    <tag k="name" v="Glenbawn Drive"/>
  </way>
  <way id="25702633" version="12" timestamp="2011-02-07T07:48:19Z" uid="325087" user="Palitu" changeset="7213187">
    <nd ref="280223471"/>
    <nd ref="280223605"/>
    <nd ref="280223606"/>
    <nd ref="280223851"/>
    <nd ref="280223607"/>
    <nd ref="280223813"/>
    <nd ref="280223904"/>
    <nd ref="280223814"/>
    <nd ref="280223910"/>
    <nd ref="280223888"/>
    <nd ref="280223816"/>
    <nd ref="280223612"/>
    <nd ref="280223817"/>
    <nd ref="280223614"/>
    <nd ref="280223853"/>
    <nd ref="280223819"/>
    <nd ref="280223617"/>
    <nd ref="280223889"/>
    <nd ref="280223619"/>
    <nd ref="280224751"/>
    <nd ref="280223620"/>
    <nd ref="280223621"/>
    <nd ref="280223622"/>
    <nd ref="280224332"/>
    <nd ref="280223623"/>
    <nd ref="280223624"/>
    <nd ref="280223625"/>
    <nd ref="280223626"/>
    <nd ref="280223812"/>
    <nd ref="280223627"/>
    <nd ref="280223628"/>
    <nd ref="280223629"/>
    <tag k="addr:city" v="South Lake"/>
    <tag k="addr:postcode" v="6164"/>
    <tag k="highway" v="residential"/>
    <tag k="maxspeed" v="50"/>
    <tag k="maxspeed:source" v="default residential speed limit in Australia"/>
    <tag k="name" v="Glenbawn Drive"/>
  </way>
  <way id="25702633" version="13" timestamp="2012-01-17T00:40:43Z" uid="147510" user="woodpeck_fixbot" changeset="10412890">
    <nd ref="280223471"/>
    <nd ref="280223605"/>
    <nd ref="280223606"/>
    <nd ref="280223851"/>
    <nd ref="280223607"/>
    <nd ref="280223813"/>
    <nd ref="280223904"/>
    <nd ref="280223814"/>
    <nd ref="280223910"/>
    <nd ref="280223888"/>
    <nd ref="280223816"/>
    <nd ref="280223612"/>
    <nd ref="280223817"/>
    <nd ref="280223614"/>
    <nd ref="280223853"/>
    <nd ref="280223819"/>
    <nd ref="280223617"/>
    <nd ref="280223889"/>
    <nd ref="280223619"/>
    <nd ref="280224751"/>
    <nd ref="280223620"/>
    <nd ref="280223621"/>
    <nd ref="280223622"/>
    <nd ref="280224332"/>
    <nd ref="280223623"/>
    <nd ref="280223624"/>
    <nd ref="280223625"/>
    <nd ref="280223626"/>
    <nd ref="280223812"/>
    <nd ref="280223627"/>
    <nd ref="280223628"/>
    <nd ref="280223629"/>
    <tag k="addr:city" v="South Lake"/>
    <tag k="addr:postcode" v="6164"/>
    <tag k="highway" v="residential"/>
    <tag k="name" v="Glenbawn Drive"/>
  </way>
  <way id="25702642" version="3" timestamp="2010-05-02T03:35:15Z" uid="242497" user="cvl" changeset="4580950">
    <nd ref="280225758"/>
    <nd ref="280223810"/>
    <nd ref="280223811"/>
    <nd ref="280223812"/>
    <tag k="highway" v="residential"/>
    <tag k="name" v="Plumridge Way"/>
  </way>
  <way id="25702642" version="4" timestamp="2010-07-09T07:29:57Z" uid="74617" user="JohnSmith" changeset="5171412">
    <nd ref="280225758"/>
    <nd ref="280223810"/>
    <nd ref="280223811"/>
    <nd ref="280223812"/>
    <tag k="highway" v="residential"/>
    <tag k="maxspeed" v="50"/>
    <tag k="maxspeed:source" v="default residential speed limit in Australia"/>
    <tag k="name" v="Plumridge Way"/>
  </way>
  <way id="25702642" version="5" timestamp="2010-10-15T05:36:33Z" uid="325087" user="Palitu" changeset="6046295">
    <nd ref="280225758"/>
    <nd ref="280223810"/>
    <nd ref="280223811"/>
    <nd ref="280223812"/>
    <tag k="addr:city" v="South Lake"/>
    <tag k="addr:postcode" v="6164"/>
    <tag k="highway" v="residential"/>
    <tag k="maxspeed" v="50"/>
    <tag k="maxspeed:source" v="default residential speed limit in Australia"/>
    <tag k="name" v="Plumridge Way"/>
  </way>
  <way id="25702642" version="6" timestamp="2012-01-17T00:40:46Z" uid="147510" user="woodpeck_fixbot" changeset="10412890">
    <nd ref="280225758"/>
    <nd ref="280223810"/>
    <nd ref="280223811"/>
    <nd ref="280223812"/>
    <tag k="addr:city" v="South Lake"/>
    <tag k="addr:postcode" v="6164"/>
    <tag k="highway" v="residential"/>
    <tag k="name" v="Plumridge Way"/>
  </way>
  <way id="25702647" version="3" timestamp="2010-05-02T03:35:15Z" uid="242497" user="cvl" changeset="4580950">
    <nd ref="280223810"/>
    <nd ref="280223833"/>
    <nd ref="280223834"/>
    <nd ref="280223835"/>
    <tag k="highway" v="residential"/>
    <tag k="name" v="Rebecca Place"/>
  </way>
  <way id="25702647" version="4" timestamp="2010-07-09T07:31:06Z" uid="74617" user="JohnSmith" changeset="5171412">
    <nd ref="280223810"/>
    <nd ref="280223833"/>
    <nd ref="280223834"/>
    <nd ref="280223835"/>
    <tag k="highway" v="residential"/>
    <tag k="maxspeed" v="50"/>
    <tag k="maxspeed:source" v="default residential speed limit in Australia"/>
    <tag k="name" v="Rebecca Place"/>
  </way>
  <way id="25702647" version="5" timestamp="2010-10-15T05:36:30Z" uid="325087" user="Palitu" changeset="6046295">
    <nd ref="280223810"/>
    <nd ref="280223833"/>
    <nd ref="280223834"/>
    <nd ref="280223835"/>
    <tag k="addr:city" v="South Lake"/>
    <tag k="addr:postcode" v="6164"/>
    <tag k="highway" v="residential"/>
    <tag k="maxspeed" v="50"/>
    <tag k="maxspeed:source" v="default residential speed limit in Australia"/>
    <tag k="name" v="Rebecca Place"/>
  </way>
  <way id="25702647" version="6" timestamp="2012-01-17T00:40:47Z" uid="147510" user="woodpeck_fixbot" changeset="10412890">
    <nd ref="280223810"/>
    <nd ref="280223833"/>
    <nd ref="280223834"/>
    <nd ref="280223835"/>
    <tag k="addr:city" v="South Lake"/>
    <tag k="addr:postcode" v="6164"/>
    <tag k="highway" v="residential"/>
    <tag k="name" v="Rebecca Place"/>
  </way>
  <way id="25702650" version="3" timestamp="2010-05-02T03:35:15Z" uid="242497" user="cvl" changeset="4580950">
    <nd ref="280223833"/>
    <nd ref="280223843"/>
    <nd ref="280223844"/>
    <tag k="highway" v="residential"/>
    <tag k="name" v="Tinaroo Court"/>
  </way>
  <way id="25702650" version="4" timestamp="2010-07-09T07:34:32Z" uid="74617" user="JohnSmith" changeset="5171412">
    <nd ref="280223833"/>
    <nd ref="280223843"/>
    <nd ref="280223844"/>
    <tag k="highway" v="residential"/>
    <tag k="maxspeed" v="50"/>
    <tag k="maxspeed:source" v="default residential speed limit in Australia"/>
    <tag k="name" v="Tinaroo Court"/>
  </way>
  <way id="25702650" version="5" timestamp="2010-10-15T05:37:07Z" uid="325087" user="Palitu" changeset="6046295">
    <nd ref="280223833"/>
    <nd ref="280223843"/>
    <nd ref="280223844"/>
    <tag k="addr:city" v="South Lake"/>
    <tag k="addr:postcode" v="6164"/>
    <tag k="highway" v="residential"/>
    <tag k="maxspeed" v="50"/>
    <tag k="maxspeed:source" v="default residential speed limit in Australia"/>
    <tag k="name" v="Tinaroo Court"/>
  </way>
  <way id="25702650" version="6" timestamp="2012-01-17T00:40:48Z" uid="147510" user="woodpeck_fixbot" changeset="10412890">
    <nd ref="280223833"/>
    <nd ref="280223843"/>
    <nd ref="280223844"/>
    <tag k="addr:city" v="South Lake"/>
    <tag k="addr:postcode" v="6164"/>
    <tag k="highway" v="residential"/>
    <tag k="name" v="Tinaroo Court"/>
  </way>
  <way id="25702652" version="2" timestamp="2010-05-02T03:35:11Z" uid="242497" user="cvl" changeset="4580950">
    <nd ref="280223851"/>
    <nd ref="716308703"/>
    <nd ref="280223864"/>
    <nd ref="280223865"/>
    <nd ref="280223866"/>
    <tag k="highway" v="residential"/>
    <tag k="name" v="Eppalock Grove"/>
  </way>
  <way id="25702652" version="3" timestamp="2010-07-09T07:39:56Z" uid="74617" user="JohnSmith" changeset="5171412">
    <nd ref="280223851"/>
    <nd ref="716308703"/>
    <nd ref="280223864"/>
    <nd ref="280223865"/>
    <nd ref="280223866"/>
    <tag k="highway" v="residential"/>
    <tag k="maxspeed" v="50"/>
    <tag k="maxspeed:source" v="default residential speed limit in Australia"/>
    <tag k="name" v="Eppalock Grove"/>
  </way>
  <way id="25702652" version="4" timestamp="2010-10-15T05:36:47Z" uid="325087" user="Palitu" changeset="6046295">
    <nd ref="280223851"/>
    <nd ref="716308703"/>
    <nd ref="280223864"/>
    <nd ref="280223865"/>
    <nd ref="280223866"/>
    <tag k="addr:city" v="South Lake"/>
    <tag k="addr:postcode" v="6164"/>
    <tag k="highway" v="residential"/>
    <tag k="maxspeed" v="50"/>
    <tag k="maxspeed:source" v="default residential speed limit in Australia"/>
    <tag k="name" v="Eppalock Grove"/>
  </way>
  <way id="25702652" version="5" timestamp="2012-01-17T00:40:50Z" uid="147510" user="woodpeck_fixbot" changeset="10412890">
    <nd ref="280223851"/>
    <nd ref="716308703"/>
    <nd ref="280223864"/>
    <nd ref="280223865"/>
    <nd ref="280223866"/>
    <tag k="addr:city" v="South Lake"/>
    <tag k="addr:postcode" v="6164"/>
    <tag k="highway" v="residential"/>
    <tag k="name" v="Eppalock Grove"/>
  </way>
  <way id="25702655" version="3" timestamp="2010-05-02T03:35:12Z" uid="242497" user="cvl" changeset="4580950">
    <nd ref="280223885"/>
    <nd ref="280223866"/>
    <nd ref="280223886"/>
    <tag k="highway" v="residential"/>
    <tag k="name" v="Eppalock Grove"/>
  </way>
  <way id="25702655" version="4" timestamp="2010-07-09T07:35:36Z" uid="74617" user="JohnSmith" changeset="5171412">
    <nd ref="280223885"/>
    <nd ref="280223866"/>
    <nd ref="280223886"/>
    <tag k="highway" v="residential"/>
    <tag k="maxspeed" v="50"/>
    <tag k="maxspeed:source" v="default residential speed limit in Australia"/>
    <tag k="name" v="Eppalock Grove"/>
  </way>
  <way id="25702655" version="5" timestamp="2010-10-15T05:37:05Z" uid="325087" user="Palitu" changeset="6046295">
    <nd ref="280223885"/>
    <nd ref="280223866"/>
    <nd ref="280223886"/>
    <tag k="addr:city" v="South Lake"/>
    <tag k="addr:postcode" v="6164"/>
    <tag k="highway" v="residential"/>
    <tag k="maxspeed" v="50"/>
    <tag k="maxspeed:source" v="default residential speed limit in Australia"/>
    <tag k="name" v="Eppalock Grove"/>
  </way>
  <way id="25702655" version="6" timestamp="2012-01-17T00:40:52Z" uid="147510" user="woodpeck_fixbot" changeset="10412890">
    <nd ref="280223885"/>
    <nd ref="280223866"/>
    <nd ref="280223886"/>
    <tag k="addr:city" v="South Lake"/>
    <tag k="addr:postcode" v="6164"/>
    <tag k="highway" v="residential"/>
    <tag k="name" v="Eppalock Grove"/>
  </way>
  <way id="25702658" version="2" timestamp="2010-05-02T03:35:11Z" uid="242497" user="cvl" changeset="4580950">
    <nd ref="280223904"/>
    <nd ref="280223905"/>
    <nd ref="280223906"/>
    <nd ref="280223907"/>
    <nd ref="280223908"/>
    <tag k="highway" v="residential"/>
    <tag k="name" v="Prentice Place"/>
  </way>
  <way id="25702658" version="3" timestamp="2010-07-09T07:34:42Z" uid="74617" user="JohnSmith" changeset="5171412">
    <nd ref="280223904"/>
    <nd ref="280223905"/>
    <nd ref="280223906"/>
    <nd ref="280223907"/>
    <nd ref="280223908"/>
    <tag k="highway" v="residential"/>
    <tag k="maxspeed" v="50"/>
    <tag k="maxspeed:source" v="default residential speed limit in Australia"/>
    <tag k="name" v="Prentice Place"/>
  </way>
  <way id="25702658" version="4" timestamp="2010-10-15T05:37:10Z" uid="325087" user="Palitu" changeset="6046295">
    <nd ref="280223904"/>
    <nd ref="280223905"/>
    <nd ref="280223906"/>
    <nd ref="280223907"/>
    <nd ref="280223908"/>
    <tag k="addr:city" v="South Lake"/>
    <tag k="addr:postcode" v="6164"/>
    <tag k="highway" v="residential"/>
    <tag k="maxspeed" v="50"/>
    <tag k="maxspeed:source" v="default residential speed limit in Australia"/>
    <tag k="name" v="Prentice Place"/>
  </way>
  <way id="25702658" version="5" timestamp="2012-01-17T00:40:56Z" uid="147510" user="woodpeck_fixbot" changeset="10412890">
    <nd ref="280223904"/>
    <nd ref="280223905"/>
    <nd ref="280223906"/>
    <nd ref="280223907"/>
    <nd ref="280223908"/>
    <tag k="addr:city" v="South Lake"/>
    <tag k="addr:postcode" v="6164"/>
    <tag k="highway" v="residential"/>
    <tag k="name" v="Prentice Place"/>
  </way>
  <way id="25702660" version="2" timestamp="2010-05-02T03:35:04Z" uid="242497" user="cvl" changeset="4580950">
    <nd ref="280223910"/>
    <nd ref="280224044"/>
    <nd ref="280224045"/>
    <tag k="highway" v="residential"/>
    <tag k="name" v="Eacham Court"/>
  </way>
  <way id="25702660" version="3" timestamp="2010-07-09T07:23:34Z" uid="74617" user="JohnSmith" changeset="5171412">
    <nd ref="280223910"/>
    <nd ref="280224044"/>
    <nd ref="280224045"/>
    <tag k="highway" v="residential"/>
    <tag k="maxspeed" v="50"/>
    <tag k="maxspeed:source" v="default residential speed limit in Australia"/>
    <tag k="name" v="Eacham Court"/>
  </way>
  <way id="25702660" version="4" timestamp="2010-10-15T05:36:52Z" uid="325087" user="Palitu" changeset="6046295">
    <nd ref="280223910"/>
    <nd ref="280224044"/>
    <nd ref="280224045"/>
    <tag k="addr:city" v="South Lake"/>
    <tag k="addr:postcode" v="6164"/>
    <tag k="highway" v="residential"/>
    <tag k="maxspeed" v="50"/>
    <tag k="maxspeed:source" v="default residential speed limit in Australia"/>
    <tag k="name" v="Eacham Court"/>
  </way>
  <way id="25702660" version="5" timestamp="2012-01-17T00:40:58Z" uid="147510" user="woodpeck_fixbot" changeset="10412890">
    <nd ref="280223910"/>
    <nd ref="280224044"/>
    <nd ref="280224045"/>
    <tag k="addr:city" v="South Lake"/>
    <tag k="addr:postcode" v="6164"/>
    <tag k="highway" v="residential"/>
    <tag k="name" v="Eacham Court"/>
  </way>
  <way id="25702662" version="2" timestamp="2010-05-02T03:35:03Z" uid="242497" user="cvl" changeset="4580950">
    <nd ref="280223816"/>
    <nd ref="280224073"/>
    <nd ref="280224074"/>
    <nd ref="280224076"/>
    <tag k="highway" v="residential"/>
    <tag k="name" v="Gwenneth Terrace"/>
  </way>
  <way id="25702662" version="3" timestamp="2010-07-09T07:32:25Z" uid="74617" user="JohnSmith" changeset="5171412">
    <nd ref="280223816"/>
    <nd ref="280224073"/>
    <nd ref="280224074"/>
    <nd ref="280224076"/>
    <tag k="highway" v="residential"/>
    <tag k="maxspeed" v="50"/>
    <tag k="maxspeed:source" v="default residential speed limit in Australia"/>
    <tag k="name" v="Gwenneth Terrace"/>
  </way>
  <way id="25702662" version="4" timestamp="2010-10-15T05:36:29Z" uid="325087" user="Palitu" changeset="6046295">
    <nd ref="280223816"/>
    <nd ref="280224073"/>
    <nd ref="280224074"/>
    <nd ref="280224076"/>
    <tag k="addr:city" v="South Lake"/>
    <tag k="addr:postcode" v="6164"/>
    <tag k="highway" v="residential"/>
    <tag k="maxspeed" v="50"/>
    <tag k="maxspeed:source" v="default residential speed limit in Australia"/>
    <tag k="name" v="Gwenneth Terrace"/>
  </way>
  <way id="25702662" version="5" timestamp="2012-01-17T00:41:00Z" uid="147510" user="woodpeck_fixbot" changeset="10412890">
    <nd ref="280223816"/>
    <nd ref="280224073"/>
    <nd ref="280224074"/>
    <nd ref="280224076"/>
    <tag k="addr:city" v="South Lake"/>
    <tag k="addr:postcode" v="6164"/>
    <tag k="highway" v="residential"/>
    <tag k="name" v="Gwenneth Terrace"/>
  </way>
  <way id="25702665" version="2" timestamp="2010-05-02T03:35:04Z" uid="242497" user="cvl" changeset="4580950">
    <nd ref="280223612"/>
    <nd ref="280224300"/>
    <nd ref="280224301"/>
    <tag k="highway" v="residential"/>
    <tag k="name" v="Binney Rise"/>
  </way>
  <way id="25702665" version="3" timestamp="2010-07-09T07:33:55Z" uid="74617" user="JohnSmith" changeset="5171412">
    <nd ref="280223612"/>
    <nd ref="280224300"/>
    <nd ref="280224301"/>
    <tag k="highway" v="residential"/>
    <tag k="maxspeed" v="50"/>
    <tag k="maxspeed:source" v="default residential speed limit in Australia"/>
    <tag k="name" v="Binney Rise"/>
  </way>
  <way id="25702665" version="4" timestamp="2010-10-15T05:37:06Z" uid="325087" user="Palitu" changeset="6046295">
    <nd ref="280223612"/>
    <nd ref="280224300"/>
    <nd ref="280224301"/>
    <tag k="addr:city" v="South Lake"/>
    <tag k="addr:postcode" v="6164"/>
    <tag k="highway" v="residential"/>
    <tag k="maxspeed" v="50"/>
    <tag k="maxspeed:source" v="default residential speed limit in Australia"/>
    <tag k="name" v="Binney Rise"/>
  </way>
  <way id="25702665" version="5" timestamp="2012-01-17T00:41:01Z" uid="147510" user="woodpeck_fixbot" changeset="10412890">
    <nd ref="280223612"/>
    <nd ref="280224300"/>
    <nd ref="280224301"/>
    <tag k="addr:city" v="South Lake"/>
    <tag k="addr:postcode" v="6164"/>
    <tag k="highway" v="residential"/>
    <tag k="name" v="Binney Rise"/>
  </way>
  <way id="25702669" version="2" timestamp="2010-05-02T03:35:07Z" uid="242497" user="cvl" changeset="4580950">
    <nd ref="280224332"/>
    <nd ref="280224508"/>
    <nd ref="716308739"/>
    <nd ref="716308705"/>
    <nd ref="280224509"/>
    <nd ref="280224510"/>
    <nd ref="280224512"/>
    <tag k="highway" v="residential"/>
    <tag k="name" v="Barrine Gardens"/>
  </way>
  <way id="25702669" version="3" timestamp="2010-07-09T07:31:45Z" uid="74617" user="JohnSmith" changeset="5171412">
    <nd ref="280224332"/>
    <nd ref="280224508"/>
    <nd ref="716308739"/>
    <nd ref="716308705"/>
    <nd ref="280224509"/>
    <nd ref="280224510"/>
    <nd ref="280224512"/>
    <tag k="highway" v="residential"/>
    <tag k="maxspeed" v="50"/>
    <tag k="maxspeed:source" v="default residential speed limit in Australia"/>
    <tag k="name" v="Barrine Gardens"/>
  </way>
  <way id="25702669" version="4" timestamp="2010-10-15T05:37:13Z" uid="325087" user="Palitu" changeset="6046295">
    <nd ref="280224332"/>
    <nd ref="280224508"/>
    <nd ref="716308739"/>
    <nd ref="716308705"/>
    <nd ref="280224509"/>
    <nd ref="280224510"/>
    <nd ref="280224512"/>
    <tag k="addr:city" v="South Lake"/>
    <tag k="addr:postcode" v="6164"/>
    <tag k="highway" v="residential"/>
    <tag k="maxspeed" v="50"/>
    <tag k="maxspeed:source" v="default residential speed limit in Australia"/>
    <tag k="name" v="Barrine Gardens"/>
  </way>
  <way id="25702669" version="5" timestamp="2012-01-17T00:41:02Z" uid="147510" user="woodpeck_fixbot" changeset="10412890">
    <nd ref="280224332"/>
    <nd ref="280224508"/>
    <nd ref="716308739"/>
    <nd ref="716308705"/>
    <nd ref="280224509"/>
    <nd ref="280224510"/>
    <nd ref="280224512"/>
    <tag k="addr:city" v="South Lake"/>
    <tag k="addr:postcode" v="6164"/>
    <tag k="highway" v="residential"/>
    <tag k="name" v="Barrine Gardens"/>
  </way>
  <way id="25702672" version="2" timestamp="2010-05-02T03:35:07Z" uid="242497" user="cvl" changeset="4580950">
    <nd ref="280224510"/>
    <nd ref="280224597"/>
    <nd ref="280224598"/>
    <nd ref="280224599"/>
    <nd ref="280224600"/>
    <tag k="highway" v="residential"/>
    <tag k="name" v="Arcaman Place"/>
  </way>
  <way id="25702672" version="3" timestamp="2010-07-09T07:35:18Z" uid="74617" user="JohnSmith" changeset="5171412">
    <nd ref="280224510"/>
    <nd ref="280224597"/>
    <nd ref="280224598"/>
    <nd ref="280224599"/>
    <nd ref="280224600"/>
    <tag k="highway" v="residential"/>
    <tag k="maxspeed" v="50"/>
    <tag k="maxspeed:source" v="default residential speed limit in Australia"/>
    <tag k="name" v="Arcaman Place"/>
  </way>
  <way id="25702672" version="4" timestamp="2010-10-15T05:37:12Z" uid="325087" user="Palitu" changeset="6046295">
    <nd ref="280224510"/>
    <nd ref="280224597"/>
    <nd ref="280224598"/>
    <nd ref="280224599"/>
    <nd ref="280224600"/>
    <tag k="addr:city" v="South Lake"/>
    <tag k="addr:postcode" v="6164"/>
    <tag k="highway" v="residential"/>
    <tag k="maxspeed" v="50"/>
    <tag k="maxspeed:source" v="default residential speed limit in Australia"/>
    <tag k="name" v="Arcaman Place"/>
  </way>
  <way id="25702672" version="5" timestamp="2012-01-17T00:41:07Z" uid="147510" user="woodpeck_fixbot" changeset="10412890">
    <nd ref="280224510"/>
    <nd ref="280224597"/>
    <nd ref="280224598"/>
    <nd ref="280224599"/>
    <nd ref="280224600"/>
    <tag k="addr:city" v="South Lake"/>
    <tag k="addr:postcode" v="6164"/>
    <tag k="highway" v="residential"/>
    <tag k="name" v="Arcaman Place"/>
  </way>
  <way id="25702675" version="2" timestamp="2010-05-02T03:35:03Z" uid="242497" user="cvl" changeset="4580950">
    <nd ref="280223889"/>
    <nd ref="280224660"/>
    <nd ref="280224661"/>
    <tag k="fixme" v="Sign Missing"/>
    <tag k="highway" v="residential"/>
  </way>
  <way id="25702675" version="3" timestamp="2010-07-09T07:32:09Z" uid="74617" user="JohnSmith" changeset="5171412">
    <nd ref="280223889"/>
    <nd ref="280224660"/>
    <nd ref="280224661"/>
    <tag k="fixme" v="Sign Missing"/>
    <tag k="highway" v="residential"/>
    <tag k="maxspeed" v="50"/>
    <tag k="maxspeed:source" v="default residential speed limit in Australia"/>
  </way>
  <way id="25702675" version="4" timestamp="2010-10-15T05:36:42Z" uid="325087" user="Palitu" changeset="6046295">
    <nd ref="280223889"/>
    <nd ref="280224660"/>
    <nd ref="280224661"/>
    <tag k="addr:city" v="South Lake"/>
    <tag k="addr:postcode" v="6164"/>
    <tag k="fixme" v="Sign Missing"/>
    <tag k="highway" v="residential"/>
    <tag k="maxspeed" v="50"/>
    <tag k="maxspeed:source" v="default residential speed limit in Australia"/>
  </way>
  <way id="25702675" version="5" timestamp="2011-02-07T07:48:17Z" uid="325087" user="Palitu" changeset="7213187">
    <nd ref="280223889"/>
    <nd ref="280224660"/>
    <nd ref="280224661"/>
    <tag k="addr:city" v="South Lake"/>
    <tag k="addr:postcode" v="6164"/>
    <tag k="fixme" v="Sign Missing"/>
    <tag k="highway" v="residential"/>
    <tag k="maxspeed" v="50"/>
    <tag k="maxspeed:source" v="default residential speed limit in Australia"/>
    <tag k="name" v="Tandou Close"/>
  </way>
  <way id="25702675" version="6" timestamp="2012-01-17T00:41:09Z" uid="147510" user="woodpeck_fixbot" changeset="10412890">
    <nd ref="280223889"/>
    <nd ref="280224660"/>
    <nd ref="280224661"/>
    <tag k="addr:city" v="South Lake"/>
    <tag k="addr:postcode" v="6164"/>
    <tag k="fixme" v="Sign Missing"/>
    <tag k="highway" v="residential"/>
    <tag k="name" v="Tandou Close"/>
  </way>
  <way id="25702682" version="2" timestamp="2010-05-02T03:35:11Z" uid="242497" user="cvl" changeset="4580950">
    <nd ref="280224735"/>
    <nd ref="280224736"/>
    <nd ref="280224737"/>
    <nd ref="280224738"/>
    <nd ref="280224739"/>
    <nd ref="280224740"/>
    <nd ref="280224741"/>
    <nd ref="280224742"/>
    <nd ref="280224743"/>
    <nd ref="280224744"/>
    <nd ref="280224745"/>
    <nd ref="280224746"/>
    <nd ref="280224735"/>
    <tag k="leisure" v="park"/>
    <tag k="name" v="Glen Mia Park"/>
  </way>
  <way id="25702689" version="4" timestamp="2010-05-02T03:35:04Z" uid="242497" user="cvl" changeset="4580950">
    <nd ref="280224751"/>
    <nd ref="280224813"/>
    <nd ref="280224835"/>
    <nd ref="280224825"/>
    <nd ref="280224815"/>
    <nd ref="280224837"/>
    <tag k="highway" v="residential"/>
    <tag k="name" v="Travallyn Gardens"/>
  </way>
  <way id="25702689" version="5" timestamp="2010-07-09T07:32:39Z" uid="74617" user="JohnSmith" changeset="5171412">
    <nd ref="280224751"/>
    <nd ref="280224813"/>
    <nd ref="280224835"/>
    <nd ref="280224825"/>
    <nd ref="280224815"/>
    <nd ref="280224837"/>
    <tag k="highway" v="residential"/>
    <tag k="maxspeed" v="50"/>
    <tag k="maxspeed:source" v="default residential speed limit in Australia"/>
    <tag k="name" v="Travallyn Gardens"/>
  </way>
  <way id="25702689" version="6" timestamp="2010-10-15T05:37:09Z" uid="325087" user="Palitu" changeset="6046295">
    <nd ref="280224751"/>
    <nd ref="280224813"/>
    <nd ref="280224835"/>
    <nd ref="280224825"/>
    <nd ref="280224815"/>
    <nd ref="280224837"/>
    <tag k="addr:city" v="South Lake"/>
    <tag k="addr:postcode" v="6164"/>
    <tag k="highway" v="residential"/>
    <tag k="maxspeed" v="50"/>
    <tag k="maxspeed:source" v="default residential speed limit in Australia"/>
    <tag k="name" v="Travallyn Gardens"/>
  </way>
  <way id="25702689" version="7" timestamp="2011-02-07T07:47:25Z" uid="325087" user="Palitu" changeset="7213187">
    <nd ref="280224751"/>
    <nd ref="280224813"/>
    <nd ref="280224835"/>
    <nd ref="280224825"/>
    <nd ref="280224815"/>
    <nd ref="280224837"/>
    <tag k="addr:city" v="South Lake"/>
    <tag k="addr:postcode" v="6164"/>
    <tag k="highway" v="residential"/>
    <tag k="maxspeed" v="50"/>
    <tag k="maxspeed:source" v="default residential speed limit in Australia"/>
    <tag k="name" v="Travallyn Gardens"/>
  </way>
  <way id="25702689" version="8" timestamp="2012-01-17T00:41:11Z" uid="147510" user="woodpeck_fixbot" changeset="10412890">
    <nd ref="280224751"/>
    <nd ref="280224813"/>
    <nd ref="280224835"/>
    <nd ref="280224825"/>
    <nd ref="280224815"/>
    <nd ref="280224837"/>
    <tag k="addr:city" v="South Lake"/>
    <tag k="addr:postcode" v="6164"/>
    <tag k="highway" v="residential"/>
    <tag k="name" v="Travallyn Gardens"/>
  </way>
  <way id="25702691" version="2" timestamp="2010-05-02T03:35:04Z" uid="242497" user="cvl" changeset="4580950">
    <nd ref="280224825"/>
    <nd ref="280224826"/>
    <tag k="highway" v="residential"/>
    <tag k="name" v="Mipia Court"/>
  </way>
  <way id="25702691" version="3" timestamp="2010-07-09T07:26:22Z" uid="74617" user="JohnSmith" changeset="5171412">
    <nd ref="280224825"/>
    <nd ref="280224826"/>
    <tag k="highway" v="residential"/>
    <tag k="maxspeed" v="50"/>
    <tag k="maxspeed:source" v="default residential speed limit in Australia"/>
    <tag k="name" v="Mipia Court"/>
  </way>
  <way id="25702691" version="4" timestamp="2010-10-15T05:36:51Z" uid="325087" user="Palitu" changeset="6046295">
    <nd ref="280224825"/>
    <nd ref="280224826"/>
    <tag k="addr:city" v="South Lake"/>
    <tag k="addr:postcode" v="6164"/>
    <tag k="highway" v="residential"/>
    <tag k="maxspeed" v="50"/>
    <tag k="maxspeed:source" v="default residential speed limit in Australia"/>
    <tag k="name" v="Mipia Court"/>
  </way>
  <way id="25702691" version="5" timestamp="2011-02-07T07:48:05Z" uid="325087" user="Palitu" changeset="7213187">
    <nd ref="280224825"/>
    <nd ref="280224826"/>
    <tag k="addr:city" v="South Lake"/>
    <tag k="addr:postcode" v="6164"/>
    <tag k="highway" v="residential"/>
    <tag k="maxspeed" v="50"/>
    <tag k="maxspeed:source" v="default residential speed limit in Australia"/>
    <tag k="name" v="Mipia Court"/>
  </way>
  <way id="25702691" version="6" timestamp="2012-01-17T00:41:12Z" uid="147510" user="woodpeck_fixbot" changeset="10412890">
    <nd ref="280224825"/>
    <nd ref="280224826"/>
    <tag k="addr:city" v="South Lake"/>
    <tag k="addr:postcode" v="6164"/>
    <tag k="highway" v="residential"/>
    <tag k="name" v="Mipia Court"/>
  </way>
  <way id="25702693" version="3" timestamp="2010-05-02T03:35:00Z" uid="242497" user="cvl" changeset="4580950">
    <nd ref="280224835"/>
    <nd ref="280224904"/>
    <nd ref="280224905"/>
    <nd ref="280225024"/>
    <nd ref="280224907"/>
    <nd ref="280224908"/>
    <nd ref="280224909"/>
    <nd ref="280224910"/>
    <tag k="highway" v="residential"/>
    <tag k="name" v="Corringle Grove"/>
  </way>
  <way id="25702693" version="4" timestamp="2010-07-09T07:30:22Z" uid="74617" user="JohnSmith" changeset="5171412">
    <nd ref="280224835"/>
    <nd ref="280224904"/>
    <nd ref="280224905"/>
    <nd ref="280225024"/>
    <nd ref="280224907"/>
    <nd ref="280224908"/>
    <nd ref="280224909"/>
    <nd ref="280224910"/>
    <tag k="highway" v="residential"/>
    <tag k="maxspeed" v="50"/>
    <tag k="maxspeed:source" v="default residential speed limit in Australia"/>
    <tag k="name" v="Corringle Grove"/>
  </way>
  <way id="25702693" version="5" timestamp="2010-10-15T05:37:16Z" uid="325087" user="Palitu" changeset="6046295">
    <nd ref="280224835"/>
    <nd ref="280224904"/>
    <nd ref="280224905"/>
    <nd ref="280225024"/>
    <nd ref="280224907"/>
    <nd ref="280224908"/>
    <nd ref="280224909"/>
    <nd ref="280224910"/>
    <tag k="addr:city" v="South Lake"/>
    <tag k="addr:postcode" v="6164"/>
    <tag k="highway" v="residential"/>
    <tag k="maxspeed" v="50"/>
    <tag k="maxspeed:source" v="default residential speed limit in Australia"/>
    <tag k="name" v="Corringle Grove"/>
  </way>
  <way id="25702693" version="6" timestamp="2011-02-07T07:47:47Z" uid="325087" user="Palitu" changeset="7213187">
    <nd ref="280224835"/>
    <nd ref="280224904"/>
    <nd ref="280224905"/>
    <nd ref="280225024"/>
    <nd ref="280224907"/>
    <nd ref="280224908"/>
    <nd ref="280224909"/>
    <nd ref="280224910"/>
    <tag k="addr:city" v="South Lake"/>
    <tag k="addr:postcode" v="6164"/>
    <tag k="highway" v="residential"/>
    <tag k="maxspeed" v="50"/>
    <tag k="maxspeed:source" v="default residential speed limit in Australia"/>
    <tag k="name" v="Corringle Grove"/>
  </way>
  <way id="25702693" version="7" timestamp="2012-01-17T00:41:14Z" uid="147510" user="woodpeck_fixbot" changeset="10412890">
    <nd ref="280224835"/>
    <nd ref="280224904"/>
    <nd ref="280224905"/>
    <nd ref="280225024"/>
    <nd ref="280224907"/>
    <nd ref="280224908"/>
    <nd ref="280224909"/>
    <nd ref="280224910"/>
    <tag k="addr:city" v="South Lake"/>
    <tag k="addr:postcode" v="6164"/>
    <tag k="highway" v="residential"/>
    <tag k="name" v="Corringle Grove"/>
  </way>
  <way id="25702699" version="2" timestamp="2010-05-02T03:35:00Z" uid="242497" user="cvl" changeset="4580950">
    <nd ref="280225024"/>
    <nd ref="280225025"/>
    <tag k="highway" v="residential"/>
    <tag k="name" v="Durras Place"/>
  </way>
  <way id="25702699" version="3" timestamp="2010-07-09T07:31:08Z" uid="74617" user="JohnSmith" changeset="5171412">
    <nd ref="280225024"/>
    <nd ref="280225025"/>
    <tag k="highway" v="residential"/>
    <tag k="maxspeed" v="50"/>
    <tag k="maxspeed:source" v="default residential speed limit in Australia"/>
    <tag k="name" v="Durras Place"/>
  </way>
  <way id="25702699" version="4" timestamp="2010-10-15T05:36:33Z" uid="325087" user="Palitu" changeset="6046295">
    <nd ref="280225024"/>
    <nd ref="280225025"/>
    <tag k="addr:city" v="South Lake"/>
    <tag k="addr:postcode" v="6164"/>
    <tag k="highway" v="residential"/>
    <tag k="maxspeed" v="50"/>
    <tag k="maxspeed:source" v="default residential speed limit in Australia"/>
    <tag k="name" v="Durras Place"/>
  </way>
  <way id="25702699" version="5" timestamp="2012-01-17T00:41:15Z" uid="147510" user="woodpeck_fixbot" changeset="10412890">
    <nd ref="280225024"/>
    <nd ref="280225025"/>
    <tag k="addr:city" v="South Lake"/>
    <tag k="addr:postcode" v="6164"/>
    <tag k="highway" v="residential"/>
    <tag k="name" v="Durras Place"/>
  </way>
  <way id="25702710" version="2" timestamp="2010-05-02T03:35:01Z" uid="242497" user="cvl" changeset="4580950">
    <nd ref="280225194"/>
    <nd ref="280225195"/>
    <nd ref="280225196"/>
    <nd ref="280225197"/>
    <nd ref="280225198"/>
    <nd ref="280225199"/>
    <nd ref="280225200"/>
    <nd ref="280225201"/>
    <nd ref="280225194"/>
    <tag k="access:dog" v="leash"/>
    <tag k="access:golf" v="no"/>
    <tag k="leisure" v="park"/>
    <tag k="name" v="Blackburn Park"/>
  </way>
  <way id="25702712" version="3" timestamp="2010-05-02T03:35:12Z" uid="242497" user="cvl" changeset="4580950">
    <nd ref="280225203"/>
    <nd ref="280225296"/>
    <nd ref="280226311"/>
    <tag k="highway" v="residential"/>
    <tag k="name" v="Tarndale Way"/>
  </way>
  <way id="25702712" version="4" timestamp="2010-07-09T07:28:01Z" uid="74617" user="JohnSmith" changeset="5171412">
    <nd ref="280225203"/>
    <nd ref="280225296"/>
    <nd ref="280226311"/>
    <tag k="highway" v="residential"/>
    <tag k="maxspeed" v="50"/>
    <tag k="maxspeed:source" v="default residential speed limit in Australia"/>
    <tag k="name" v="Tarndale Way"/>
  </way>
  <way id="25702712" version="5" timestamp="2010-10-15T05:36:47Z" uid="325087" user="Palitu" changeset="6046295">
    <nd ref="280225203"/>
    <nd ref="280225296"/>
    <nd ref="280226311"/>
    <tag k="addr:city" v="South Lake"/>
    <tag k="addr:postcode" v="6164"/>
    <tag k="highway" v="residential"/>
    <tag k="maxspeed" v="50"/>
    <tag k="maxspeed:source" v="default residential speed limit in Australia"/>
    <tag k="name" v="Tarndale Way"/>
  </way>
  <way id="25702712" version="6" timestamp="2012-01-17T00:41:16Z" uid="147510" user="woodpeck_fixbot" changeset="10412890">
    <nd ref="280225203"/>
    <nd ref="280225296"/>
    <nd ref="280226311"/>
    <tag k="addr:city" v="South Lake"/>
    <tag k="addr:postcode" v="6164"/>
    <tag k="highway" v="residential"/>
    <tag k="name" v="Tarndale Way"/>
  </way>
  <way id="25702727" version="3" timestamp="2010-05-02T03:35:12Z" uid="242497" user="cvl" changeset="4580950">
    <nd ref="280225296"/>
    <nd ref="280225415"/>
    <nd ref="280225417"/>
    <nd ref="280225419"/>
    <nd ref="280225420"/>
    <tag k="highway" v="residential"/>
    <tag k="name" v="Mollerin Place"/>
  </way>
  <way id="25702727" version="4" timestamp="2010-07-09T07:28:47Z" uid="74617" user="JohnSmith" changeset="5171412">
    <nd ref="280225296"/>
    <nd ref="280225415"/>
    <nd ref="280225417"/>
    <nd ref="280225419"/>
    <nd ref="280225420"/>
    <tag k="highway" v="residential"/>
    <tag k="maxspeed" v="50"/>
    <tag k="maxspeed:source" v="default residential speed limit in Australia"/>
    <tag k="name" v="Mollerin Place"/>
  </way>
  <way id="25702727" version="5" timestamp="2010-10-15T05:36:46Z" uid="325087" user="Palitu" changeset="6046295">
    <nd ref="280225296"/>
    <nd ref="280225415"/>
    <nd ref="280225417"/>
    <nd ref="280225419"/>
    <nd ref="280225420"/>
    <tag k="addr:city" v="South Lake"/>
    <tag k="addr:postcode" v="6164"/>
    <tag k="highway" v="residential"/>
    <tag k="maxspeed" v="50"/>
    <tag k="maxspeed:source" v="default residential speed limit in Australia"/>
    <tag k="name" v="Mollerin Place"/>
  </way>
  <way id="25702727" version="6" timestamp="2012-01-17T00:41:18Z" uid="147510" user="woodpeck_fixbot" changeset="10412890">
    <nd ref="280225296"/>
    <nd ref="280225415"/>
    <nd ref="280225417"/>
    <nd ref="280225419"/>
    <nd ref="280225420"/>
    <tag k="addr:city" v="South Lake"/>
    <tag k="addr:postcode" v="6164"/>
    <tag k="highway" v="residential"/>
    <tag k="name" v="Mollerin Place"/>
  </way>
  <way id="25702738" version="5" timestamp="2009-02-23T13:22:37Z" uid="34428" user="usm78-gis" changeset="634299"/>
  <way id="25702746" version="4" timestamp="2010-05-02T03:35:06Z" uid="242497" user="cvl" changeset="4580950">
    <nd ref="280225417"/>
    <nd ref="280225493"/>
    <nd ref="280225494"/>
    <tag k="highway" v="residential"/>
    <tag k="name" v="Hazlett Close"/>
  </way>
  <way id="25702746" version="5" timestamp="2010-07-09T07:26:45Z" uid="74617" user="JohnSmith" changeset="5171412">
    <nd ref="280225417"/>
    <nd ref="280225493"/>
    <nd ref="280225494"/>
    <tag k="highway" v="residential"/>
    <tag k="maxspeed" v="50"/>
    <tag k="maxspeed:source" v="default residential speed limit in Australia"/>
    <tag k="name" v="Hazlett Close"/>
  </way>
  <way id="25702746" version="6" timestamp="2010-10-15T05:37:04Z" uid="325087" user="Palitu" changeset="6046295">
    <nd ref="280225417"/>
    <nd ref="280225493"/>
    <nd ref="280225494"/>
    <tag k="addr:city" v="South Lake"/>
    <tag k="addr:postcode" v="6164"/>
    <tag k="highway" v="residential"/>
    <tag k="maxspeed" v="50"/>
    <tag k="maxspeed:source" v="default residential speed limit in Australia"/>
    <tag k="name" v="Hazlett Close"/>
  </way>
  <way id="25702746" version="7" timestamp="2012-01-17T00:41:20Z" uid="147510" user="woodpeck_fixbot" changeset="10412890">
    <nd ref="280225417"/>
    <nd ref="280225493"/>
    <nd ref="280225494"/>
    <tag k="addr:city" v="South Lake"/>
    <tag k="addr:postcode" v="6164"/>
    <tag k="highway" v="residential"/>
    <tag k="name" v="Hazlett Close"/>
  </way>
  <way id="25702750" version="3" timestamp="2010-05-02T03:35:20Z" uid="242497" user="cvl" changeset="4580950">
    <nd ref="280220309"/>
    <nd ref="280225579"/>
    <nd ref="280225580"/>
    <tag k="highway" v="residential"/>
    <tag k="name" v="Meadowbank Terrace"/>
  </way>
  <way id="25702750" version="4" timestamp="2010-07-09T07:24:21Z" uid="74617" user="JohnSmith" changeset="5171412">
    <nd ref="280220309"/>
    <nd ref="280225579"/>
    <nd ref="280225580"/>
    <tag k="highway" v="residential"/>
    <tag k="maxspeed" v="50"/>
    <tag k="maxspeed:source" v="default residential speed limit in Australia"/>
    <tag k="name" v="Meadowbank Terrace"/>
  </way>
  <way id="25702750" version="5" timestamp="2010-10-15T05:37:11Z" uid="325087" user="Palitu" changeset="6046295">
    <nd ref="280220309"/>
    <nd ref="280225579"/>
    <nd ref="280225580"/>
    <tag k="addr:city" v="South Lake"/>
    <tag k="addr:postcode" v="6164"/>
    <tag k="highway" v="residential"/>
    <tag k="maxspeed" v="50"/>
    <tag k="maxspeed:source" v="default residential speed limit in Australia"/>
    <tag k="name" v="Meadowbank Terrace"/>
  </way>
  <way id="25702750" version="6" timestamp="2012-01-17T00:41:21Z" uid="147510" user="woodpeck_fixbot" changeset="10412890">
    <nd ref="280220309"/>
    <nd ref="280225579"/>
    <nd ref="280225580"/>
    <tag k="addr:city" v="South Lake"/>
    <tag k="addr:postcode" v="6164"/>
    <tag k="highway" v="residential"/>
    <tag k="name" v="Meadowbank Terrace"/>
  </way>
  <way id="25702760" version="3" timestamp="2010-05-02T03:35:07Z" uid="242497" user="cvl" changeset="4580950">
    <nd ref="280225579"/>
    <nd ref="716308736"/>
    <nd ref="280225589"/>
    <nd ref="716308737"/>
    <nd ref="280225590"/>
    <tag k="highway" v="residential"/>
    <tag k="name" v="Lanagan RL"/>
  </way>
  <way id="25702760" version="4" timestamp="2010-07-09T07:27:10Z" uid="74617" user="JohnSmith" changeset="5171412">
    <nd ref="280225579"/>
    <nd ref="716308736"/>
    <nd ref="280225589"/>
    <nd ref="716308737"/>
    <nd ref="280225590"/>
    <tag k="highway" v="residential"/>
    <tag k="maxspeed" v="50"/>
    <tag k="maxspeed:source" v="default residential speed limit in Australia"/>
    <tag k="name" v="Lanagan RL"/>
  </way>
  <way id="25702760" version="5" timestamp="2010-10-15T05:36:44Z" uid="325087" user="Palitu" changeset="6046295">
    <nd ref="280225579"/>
    <nd ref="716308736"/>
    <nd ref="280225589"/>
    <nd ref="716308737"/>
    <nd ref="280225590"/>
    <tag k="addr:city" v="South Lake"/>
    <tag k="addr:postcode" v="6164"/>
    <tag k="highway" v="residential"/>
    <tag k="maxspeed" v="50"/>
    <tag k="maxspeed:source" v="default residential speed limit in Australia"/>
    <tag k="name" v="Lanagan RL"/>
  </way>
  <way id="25702760" version="6" timestamp="2012-01-17T00:41:23Z" uid="147510" user="woodpeck_fixbot" changeset="10412890">
    <nd ref="280225579"/>
    <nd ref="716308736"/>
    <nd ref="280225589"/>
    <nd ref="716308737"/>
    <nd ref="280225590"/>
    <tag k="addr:city" v="South Lake"/>
    <tag k="addr:postcode" v="6164"/>
    <tag k="highway" v="residential"/>
    <tag k="name" v="Lanagan RL"/>
  </way>
  <way id="25702774" version="4" timestamp="2010-05-02T03:35:29Z" uid="242497" user="cvl" changeset="4580950">
    <nd ref="280220311"/>
    <nd ref="280225782"/>
    <nd ref="280225783"/>
    <nd ref="280225784"/>
    <nd ref="280225785"/>
    <nd ref="280225786"/>
    <nd ref="280225772"/>
    <nd ref="280225773"/>
    <nd ref="280225774"/>
    <nd ref="280225775"/>
    <nd ref="280225776"/>
    <tag k="highway" v="residential"/>
    <tag k="name" v="Stillwater Gardens"/>
  </way>
  <way id="25702774" version="5" timestamp="2010-07-09T07:39:39Z" uid="74617" user="JohnSmith" changeset="5171412">
    <nd ref="280220311"/>
    <nd ref="280225782"/>
    <nd ref="280225783"/>
    <nd ref="280225784"/>
    <nd ref="280225785"/>
    <nd ref="280225786"/>
    <nd ref="280225772"/>
    <nd ref="280225773"/>
    <nd ref="280225774"/>
    <nd ref="280225775"/>
    <nd ref="280225776"/>
    <tag k="highway" v="residential"/>
    <tag k="maxspeed" v="50"/>
    <tag k="maxspeed:source" v="default residential speed limit in Australia"/>
    <tag k="name" v="Stillwater Gardens"/>
  </way>
  <way id="25702774" version="6" timestamp="2010-10-15T05:37:14Z" uid="325087" user="Palitu" changeset="6046295">
    <nd ref="280220311"/>
    <nd ref="280225782"/>
    <nd ref="280225783"/>
    <nd ref="280225784"/>
    <nd ref="280225785"/>
    <nd ref="280225786"/>
    <nd ref="280225772"/>
    <nd ref="280225773"/>
    <nd ref="280225774"/>
    <nd ref="280225775"/>
    <nd ref="280225776"/>
    <tag k="addr:city" v="South Lake"/>
    <tag k="addr:postcode" v="6164"/>
    <tag k="highway" v="residential"/>
    <tag k="maxspeed" v="50"/>
    <tag k="maxspeed:source" v="default residential speed limit in Australia"/>
    <tag k="name" v="Stillwater Gardens"/>
  </way>
  <way id="25702774" version="7" timestamp="2012-01-17T00:41:24Z" uid="147510" user="woodpeck_fixbot" changeset="10412890">
    <nd ref="280220311"/>
    <nd ref="280225782"/>
    <nd ref="280225783"/>
    <nd ref="280225784"/>
    <nd ref="280225785"/>
    <nd ref="280225786"/>
    <nd ref="280225772"/>
    <nd ref="280225773"/>
    <nd ref="280225774"/>
    <nd ref="280225775"/>
    <nd ref="280225776"/>
    <tag k="addr:city" v="South Lake"/>
    <tag k="addr:postcode" v="6164"/>
    <tag k="highway" v="residential"/>
    <tag k="name" v="Stillwater Gardens"/>
  </way>
  <way id="25702775" version="3" timestamp="2010-05-02T03:35:20Z" uid="242497" user="cvl" changeset="4580950">
    <nd ref="280225773"/>
    <nd ref="280225778"/>
    <nd ref="280225779"/>
    <nd ref="280225780"/>
    <tag k="highway" v="residential"/>
    <tag k="name" v="Little Lake Road"/>
  </way>
  <way id="25702775" version="4" timestamp="2010-07-09T07:26:31Z" uid="74617" user="JohnSmith" changeset="5171412">
    <nd ref="280225773"/>
    <nd ref="280225778"/>
    <nd ref="280225779"/>
    <nd ref="280225780"/>
    <tag k="highway" v="residential"/>
    <tag k="maxspeed" v="50"/>
    <tag k="maxspeed:source" v="default residential speed limit in Australia"/>
    <tag k="name" v="Little Lake Road"/>
  </way>
  <way id="25702775" version="5" timestamp="2010-10-15T05:37:06Z" uid="325087" user="Palitu" changeset="6046295">
    <nd ref="280225773"/>
    <nd ref="280225778"/>
    <nd ref="280225779"/>
    <nd ref="280225780"/>
    <tag k="addr:city" v="South Lake"/>
    <tag k="addr:postcode" v="6164"/>
    <tag k="highway" v="residential"/>
    <tag k="maxspeed" v="50"/>
    <tag k="maxspeed:source" v="default residential speed limit in Australia"/>
    <tag k="name" v="Little Lake Road"/>
  </way>
  <way id="25702775" version="6" timestamp="2012-01-17T00:41:28Z" uid="147510" user="woodpeck_fixbot" changeset="10412890">
    <nd ref="280225773"/>
    <nd ref="280225778"/>
    <nd ref="280225779"/>
    <nd ref="280225780"/>
    <tag k="addr:city" v="South Lake"/>
    <tag k="addr:postcode" v="6164"/>
    <tag k="highway" v="residential"/>
    <tag k="name" v="Little Lake Road"/>
  </way>
  <way id="25702776" version="3" timestamp="2010-05-02T03:35:20Z" uid="242497" user="cvl" changeset="4580950">
    <nd ref="280225778"/>
    <nd ref="280225781"/>
    <tag k="highway" v="residential"/>
    <tag k="name" v="Pond Place"/>
  </way>
  <way id="25702776" version="4" timestamp="2010-07-09T07:37:18Z" uid="74617" user="JohnSmith" changeset="5171412">
    <nd ref="280225778"/>
    <nd ref="280225781"/>
    <tag k="highway" v="residential"/>
    <tag k="maxspeed" v="50"/>
    <tag k="maxspeed:source" v="default residential speed limit in Australia"/>
    <tag k="name" v="Pond Place"/>
  </way>
  <way id="25702776" version="5" timestamp="2010-10-15T05:37:13Z" uid="325087" user="Palitu" changeset="6046295">
    <nd ref="280225778"/>
    <nd ref="280225781"/>
    <tag k="addr:city" v="South Lake"/>
    <tag k="addr:postcode" v="6164"/>
    <tag k="highway" v="residential"/>
    <tag k="maxspeed" v="50"/>
    <tag k="maxspeed:source" v="default residential speed limit in Australia"/>
    <tag k="name" v="Pond Place"/>
  </way>
  <way id="25702776" version="6" timestamp="2012-01-17T00:41:30Z" uid="147510" user="woodpeck_fixbot" changeset="10412890">
    <nd ref="280225778"/>
    <nd ref="280225781"/>
    <tag k="addr:city" v="South Lake"/>
    <tag k="addr:postcode" v="6164"/>
    <tag k="highway" v="residential"/>
    <tag k="name" v="Pond Place"/>
  </way>
  <way id="25702778" version="2" timestamp="2010-05-02T03:35:30Z" uid="242497" user="cvl" changeset="4580950">
    <nd ref="280225784"/>
    <nd ref="280225817"/>
    <nd ref="280225818"/>
    <tag k="highway" v="residential"/>
    <tag k="name" v="Lake Edge Lane"/>
  </way>
  <way id="25702778" version="3" timestamp="2010-07-09T07:30:07Z" uid="74617" user="JohnSmith" changeset="5171412">
    <nd ref="280225784"/>
    <nd ref="280225817"/>
    <nd ref="280225818"/>
    <tag k="highway" v="residential"/>
    <tag k="maxspeed" v="50"/>
    <tag k="maxspeed:source" v="default residential speed limit in Australia"/>
    <tag k="name" v="Lake Edge Lane"/>
  </way>
  <way id="25702778" version="4" timestamp="2010-10-15T05:36:55Z" uid="325087" user="Palitu" changeset="6046295">
    <nd ref="280225784"/>
    <nd ref="280225817"/>
    <nd ref="280225818"/>
    <tag k="addr:city" v="South Lake"/>
    <tag k="addr:postcode" v="6164"/>
    <tag k="highway" v="residential"/>
    <tag k="maxspeed" v="50"/>
    <tag k="maxspeed:source" v="default residential speed limit in Australia"/>
    <tag k="name" v="Lake Edge Lane"/>
  </way>
  <way id="25702778" version="5" timestamp="2012-01-17T00:41:32Z" uid="147510" user="woodpeck_fixbot" changeset="10412890">
    <nd ref="280225784"/>
    <nd ref="280225817"/>
    <nd ref="280225818"/>
    <tag k="addr:city" v="South Lake"/>
    <tag k="addr:postcode" v="6164"/>
    <tag k="highway" v="residential"/>
    <tag k="name" v="Lake Edge Lane"/>
  </way>
  <way id="25702782" version="3" timestamp="2010-04-26T14:46:23Z" uid="242497" user="vlchung" changeset="4532563">
    <nd ref="280225825"/>
    <nd ref="707488520"/>
    <nd ref="707488516"/>
    <nd ref="707488513"/>
    <nd ref="707488447"/>
    <nd ref="707488532"/>
    <nd ref="707488524"/>
    <nd ref="707488520"/>
    <tag k="highway" v="residential"/>
  </way>
  <way id="25702782" version="4" timestamp="2010-05-02T03:35:30Z" uid="242497" user="cvl" changeset="4580950">
    <nd ref="280225825"/>
    <nd ref="707488520"/>
    <nd ref="707488516"/>
    <nd ref="707488513"/>
    <nd ref="707488447"/>
    <nd ref="707488532"/>
    <nd ref="707488524"/>
    <nd ref="707488520"/>
    <tag k="highway" v="residential"/>
    <tag k="name" v="Moondarra Circle"/>
  </way>
  <way id="25702782" version="5" timestamp="2010-05-21T08:02:16Z" uid="4467" user="Rosscoe" changeset="4763603">
    <nd ref="280225825"/>
    <nd ref="707488447"/>
    <tag k="highway" v="residential"/>
    <tag k="name" v="Moondarra Circle"/>
  </way>
  <way id="25702782" version="6" timestamp="2010-07-09T07:27:39Z" uid="74617" user="JohnSmith" changeset="5171412">
    <nd ref="280225825"/>
    <nd ref="707488447"/>
    <tag k="highway" v="residential"/>
    <tag k="maxspeed" v="50"/>
    <tag k="maxspeed:source" v="default residential speed limit in Australia"/>
    <tag k="name" v="Moondarra Circle"/>
  </way>
  <way id="25702782" version="7" timestamp="2012-01-17T00:41:34Z" uid="147510" user="woodpeck_fixbot" changeset="10412890">
    <nd ref="280225825"/>
    <nd ref="707488447"/>
    <tag k="highway" v="residential"/>
    <tag k="name" v="Moondarra Circle"/>
  </way>
  <way id="25702784" version="3" timestamp="2010-04-26T14:46:20Z" uid="242497" user="vlchung" changeset="4532563">
    <nd ref="280225977"/>
    <nd ref="280225978"/>
    <nd ref="280225979"/>
    <nd ref="280225980"/>
    <nd ref="707488620"/>
    <nd ref="280225981"/>
    <nd ref="280225982"/>
    <tag k="highway" v="residential"/>
  </way>
  <way id="25702784" version="4" timestamp="2010-05-02T03:35:23Z" uid="242497" user="cvl" changeset="4580950">
    <nd ref="280225977"/>
    <nd ref="280225978"/>
    <nd ref="280225979"/>
    <nd ref="280225980"/>
    <nd ref="707488620"/>
    <nd ref="280225981"/>
    <nd ref="280225982"/>
    <tag k="highway" v="residential"/>
    <tag k="name" v="Dulverson Place"/>
  </way>
  <way id="25702784" version="5" timestamp="2010-07-09T07:27:22Z" uid="74617" user="JohnSmith" changeset="5171412">
    <nd ref="280225977"/>
    <nd ref="280225978"/>
    <nd ref="280225979"/>
    <nd ref="280225980"/>
    <nd ref="707488620"/>
    <nd ref="280225981"/>
    <nd ref="280225982"/>
    <tag k="highway" v="residential"/>
    <tag k="maxspeed" v="50"/>
    <tag k="maxspeed:source" v="default residential speed limit in Australia"/>
    <tag k="name" v="Dulverson Place"/>
  </way>
  <way id="25702784" version="6" timestamp="2010-10-15T05:36:48Z" uid="325087" user="Palitu" changeset="6046295">
    <nd ref="280225977"/>
    <nd ref="280225978"/>
    <nd ref="280225979"/>
    <nd ref="280225980"/>
    <nd ref="707488620"/>
    <nd ref="280225981"/>
    <nd ref="280225982"/>
    <tag k="addr:city" v="South Lake"/>
    <tag k="addr:postcode" v="6164"/>
    <tag k="highway" v="residential"/>
    <tag k="maxspeed" v="50"/>
    <tag k="maxspeed:source" v="default residential speed limit in Australia"/>
    <tag k="name" v="Dulverson Place"/>
  </way>
  <way id="25702784" version="7" timestamp="2012-01-17T00:41:35Z" uid="147510" user="woodpeck_fixbot" changeset="10412890">
    <nd ref="280225977"/>
    <nd ref="280225978"/>
    <nd ref="280225979"/>
    <nd ref="280225980"/>
    <nd ref="707488620"/>
    <nd ref="280225981"/>
    <nd ref="280225982"/>
    <tag k="addr:city" v="South Lake"/>
    <tag k="addr:postcode" v="6164"/>
    <tag k="highway" v="residential"/>
    <tag k="name" v="Dulverson Place"/>
  </way>
  <way id="25702786" version="3" timestamp="2010-05-02T03:35:22Z" uid="242497" user="cvl" changeset="4580950">
    <nd ref="280225979"/>
    <nd ref="280225996"/>
    <tag k="highway" v="residential"/>
    <tag k="name" v="Eldon Court"/>
  </way>
  <way id="25702786" version="4" timestamp="2010-07-09T07:36:50Z" uid="74617" user="JohnSmith" changeset="5171412">
    <nd ref="280225979"/>
    <nd ref="280225996"/>
    <tag k="highway" v="residential"/>
    <tag k="maxspeed" v="50"/>
    <tag k="maxspeed:source" v="default residential speed limit in Australia"/>
    <tag k="name" v="Eldon Court"/>
  </way>
  <way id="25702786" version="5" timestamp="2012-01-17T00:41:37Z" uid="147510" user="woodpeck_fixbot" changeset="10412890">
    <nd ref="280225979"/>
    <nd ref="280225996"/>
    <tag k="highway" v="residential"/>
    <tag k="name" v="Eldon Court"/>
  </way>
  <way id="25702791" version="2" timestamp="2010-05-02T03:35:23Z" uid="242497" user="cvl" changeset="4580950">
    <nd ref="280226101"/>
    <nd ref="280226102"/>
    <nd ref="280226103"/>
    <nd ref="280226104"/>
    <nd ref="280226105"/>
    <nd ref="280226106"/>
    <nd ref="280226107"/>
    <nd ref="280226108"/>
    <nd ref="280226109"/>
    <nd ref="280226110"/>
    <nd ref="280226111"/>
    <nd ref="280226101"/>
    <tag k="access:dog" v="leash"/>
    <tag k="access:golf" v="no"/>
    <tag k="leisure" v="park"/>
    <tag k="name" v="Lucken Reserve"/>
  </way>
  <way id="25702804" version="4" timestamp="2010-04-26T14:46:20Z" uid="242497" user="vlchung" changeset="4532563">
    <nd ref="280226163"/>
    <nd ref="707488654"/>
    <nd ref="280226258"/>
    <nd ref="707488656"/>
    <nd ref="707488658"/>
    <nd ref="280226259"/>
    <tag k="highway" v="residential"/>
  </way>
  <way id="25702804" version="5" timestamp="2010-07-09T07:34:25Z" uid="74617" user="JohnSmith" changeset="5171412">
    <nd ref="280226163"/>
    <nd ref="707488654"/>
    <nd ref="280226258"/>
    <nd ref="707488656"/>
    <nd ref="707488658"/>
    <nd ref="280226259"/>
    <tag k="highway" v="residential"/>
    <tag k="maxspeed" v="50"/>
    <tag k="maxspeed:source" v="default residential speed limit in Australia"/>
  </way>
  <way id="25702804" version="6" timestamp="2012-01-17T00:41:38Z" uid="147510" user="woodpeck_fixbot" changeset="10412890">
    <nd ref="280226163"/>
    <nd ref="707488654"/>
    <nd ref="280226258"/>
    <nd ref="707488656"/>
    <nd ref="707488658"/>
    <nd ref="280226259"/>
    <tag k="highway" v="residential"/>
  </way>
  <way id="25702806" version="2" timestamp="2010-04-26T14:46:21Z" uid="242497" user="vlchung" changeset="4532563">
    <nd ref="280226267"/>
    <nd ref="280226286"/>
    <nd ref="280226287"/>
    <nd ref="280226288"/>
    <nd ref="280226289"/>
    <nd ref="707488565"/>
    <nd ref="707488667"/>
    <nd ref="707488556"/>
    <nd ref="280226290"/>
    <nd ref="280226291"/>
    <tag k="highway" v="service"/>
  </way>
  <way id="25702808" version="2" timestamp="2010-04-26T11:08:36Z" uid="242497" user="vlchung" changeset="4530656">
    <nd ref="280226296"/>
    <nd ref="707161791"/>
    <nd ref="707161879"/>
    <nd ref="707161892"/>
    <nd ref="707161894"/>
    <nd ref="280226308"/>
    <nd ref="707161898"/>
    <nd ref="707161899"/>
    <nd ref="707161900"/>
    <nd ref="707161901"/>
    <nd ref="707161847"/>
    <tag k="highway" v="service"/>
    <tag k="oneway" v="yes"/>
  </way>
  <way id="25702808" version="3" timestamp="2010-04-26T11:08:58Z" uid="242497" user="vlchung" changeset="4530656">
    <nd ref="707161847"/>
    <nd ref="707161901"/>
    <nd ref="707161900"/>
    <nd ref="707161899"/>
    <nd ref="707161898"/>
    <nd ref="280226308"/>
    <nd ref="707161894"/>
    <nd ref="707161892"/>
    <nd ref="707161879"/>
    <nd ref="707161791"/>
    <nd ref="280226296"/>
    <tag k="highway" v="service"/>
    <tag k="oneway" v="yes"/>
  </way>
  <way id="25702809" version="3" timestamp="2010-07-09T07:29:30Z" uid="74617" user="JohnSmith" changeset="5171412">
    <nd ref="280226560"/>
    <nd ref="280226317"/>
    <nd ref="280226318"/>
    <nd ref="280226319"/>
    <tag k="highway" v="residential"/>
    <tag k="maxspeed" v="50"/>
    <tag k="maxspeed:source" v="default residential speed limit in Australia"/>
  </way>
  <way id="25702809" version="4" timestamp="2010-10-15T05:36:55Z" uid="325087" user="Palitu" changeset="6046295">
    <nd ref="280226560"/>
    <nd ref="280226317"/>
    <nd ref="280226318"/>
    <nd ref="280226319"/>
    <tag k="addr:city" v="South Lake"/>
    <tag k="addr:postcode" v="6164"/>
    <tag k="highway" v="residential"/>
    <tag k="maxspeed" v="50"/>
    <tag k="maxspeed:source" v="default residential speed limit in Australia"/>
  </way>
  <way id="25702809" version="5" timestamp="2011-02-07T07:48:49Z" uid="325087" user="Palitu" changeset="7213187">
    <nd ref="280226560"/>
    <nd ref="280226317"/>
    <nd ref="280226318"/>
    <nd ref="280226319"/>
    <tag k="addr:city" v="South Lake"/>
    <tag k="addr:postcode" v="6164"/>
    <tag k="highway" v="residential"/>
    <tag k="maxspeed" v="50"/>
    <tag k="maxspeed:source" v="default residential speed limit in Australia"/>
    <tag k="name" v="McLemon Place"/>
  </way>
  <way id="25702809" version="6" timestamp="2012-01-17T00:41:39Z" uid="147510" user="woodpeck_fixbot" changeset="10412890">
    <nd ref="280226560"/>
    <nd ref="280226317"/>
    <nd ref="280226318"/>
    <nd ref="280226319"/>
    <tag k="addr:city" v="South Lake"/>
    <tag k="addr:postcode" v="6164"/>
    <tag k="highway" v="residential"/>
    <tag k="name" v="McLemon Place"/>
  </way>
  <way id="25702810" version="2" timestamp="2010-07-09T07:34:58Z" uid="74617" user="JohnSmith" changeset="5171412">
    <nd ref="280226318"/>
    <nd ref="280226349"/>
    <nd ref="280226351"/>
    <tag k="highway" v="residential"/>
    <tag k="maxspeed" v="50"/>
    <tag k="maxspeed:source" v="default residential speed limit in Australia"/>
  </way>
  <way id="25702810" version="3" timestamp="2010-10-15T05:36:42Z" uid="325087" user="Palitu" changeset="6046295">
    <nd ref="280226318"/>
    <nd ref="280226349"/>
    <nd ref="280226351"/>
    <tag k="addr:city" v="South Lake"/>
    <tag k="addr:postcode" v="6164"/>
    <tag k="highway" v="residential"/>
    <tag k="maxspeed" v="50"/>
    <tag k="maxspeed:source" v="default residential speed limit in Australia"/>
  </way>
  <way id="25702810" version="4" timestamp="2011-02-07T07:48:37Z" uid="325087" user="Palitu" changeset="7213187">
    <nd ref="280226318"/>
    <nd ref="280226349"/>
    <nd ref="280226351"/>
    <tag k="addr:city" v="South Lake"/>
    <tag k="addr:postcode" v="6164"/>
    <tag k="highway" v="residential"/>
    <tag k="maxspeed" v="50"/>
    <tag k="maxspeed:source" v="default residential speed limit in Australia"/>
    <tag k="name" v="Nagambie Close"/>
  </way>
  <way id="25702810" version="5" timestamp="2012-01-17T00:41:40Z" uid="147510" user="woodpeck_fixbot" changeset="10412890">
    <nd ref="280226318"/>
    <nd ref="280226349"/>
    <nd ref="280226351"/>
    <tag k="addr:city" v="South Lake"/>
    <tag k="addr:postcode" v="6164"/>
    <tag k="highway" v="residential"/>
    <tag k="name" v="Nagambie Close"/>
  </way>
  <way id="25702814" version="2" timestamp="2010-07-09T07:32:40Z" uid="74617" user="JohnSmith" changeset="5171412">
    <nd ref="280225299"/>
    <nd ref="280226380"/>
    <nd ref="280226381"/>
    <tag k="highway" v="residential"/>
    <tag k="maxspeed" v="50"/>
    <tag k="maxspeed:source" v="default residential speed limit in Australia"/>
  </way>
  <way id="25702814" version="3" timestamp="2010-10-15T05:36:51Z" uid="325087" user="Palitu" changeset="6046295">
    <nd ref="280225299"/>
    <nd ref="280226380"/>
    <nd ref="280226381"/>
    <tag k="addr:city" v="South Lake"/>
    <tag k="addr:postcode" v="6164"/>
    <tag k="highway" v="residential"/>
    <tag k="maxspeed" v="50"/>
    <tag k="maxspeed:source" v="default residential speed limit in Australia"/>
  </way>
  <way id="25702814" version="4" timestamp="2011-02-07T07:47:26Z" uid="325087" user="Palitu" changeset="7213187">
    <nd ref="280225299"/>
    <nd ref="280226380"/>
    <nd ref="280226381"/>
    <tag k="addr:city" v="South Lake"/>
    <tag k="addr:postcode" v="6164"/>
    <tag k="highway" v="residential"/>
    <tag k="maxspeed" v="50"/>
    <tag k="maxspeed:source" v="default residential speed limit in Australia"/>
    <tag k="name" v="Jindabyne Heights"/>
  </way>
  <way id="25702814" version="5" timestamp="2012-01-17T00:41:42Z" uid="147510" user="woodpeck_fixbot" changeset="10412890">
    <nd ref="280225299"/>
    <nd ref="280226380"/>
    <nd ref="280226381"/>
    <tag k="addr:city" v="South Lake"/>
    <tag k="addr:postcode" v="6164"/>
    <tag k="highway" v="residential"/>
    <tag k="name" v="Jindabyne Heights"/>
  </way>
  <way id="25702822" version="3" timestamp="2010-07-09T07:38:37Z" uid="74617" user="JohnSmith" changeset="5171412">
    <nd ref="280226380"/>
    <nd ref="280226412"/>
    <nd ref="280226413"/>
    <tag k="highway" v="residential"/>
    <tag k="maxspeed" v="50"/>
    <tag k="maxspeed:source" v="default residential speed limit in Australia"/>
  </way>
  <way id="25702822" version="4" timestamp="2010-10-15T05:37:11Z" uid="325087" user="Palitu" changeset="6046295">
    <nd ref="280226380"/>
    <nd ref="280226412"/>
    <nd ref="280226413"/>
    <tag k="addr:city" v="South Lake"/>
    <tag k="addr:postcode" v="6164"/>
    <tag k="highway" v="residential"/>
    <tag k="maxspeed" v="50"/>
    <tag k="maxspeed:source" v="default residential speed limit in Australia"/>
  </way>
  <way id="25702822" version="5" timestamp="2011-02-07T07:47:52Z" uid="325087" user="Palitu" changeset="7213187">
    <nd ref="280226380"/>
    <nd ref="280226412"/>
    <nd ref="280226413"/>
    <tag k="addr:city" v="South Lake"/>
    <tag k="addr:postcode" v="6164"/>
    <tag k="highway" v="residential"/>
    <tag k="maxspeed" v="50"/>
    <tag k="maxspeed:source" v="default residential speed limit in Australia"/>
    <tag k="name" v="Wapenga Close"/>
  </way>
  <way id="25702822" version="6" timestamp="2012-01-17T00:41:43Z" uid="147510" user="woodpeck_fixbot" changeset="10412890">
    <nd ref="280226380"/>
    <nd ref="280226412"/>
    <nd ref="280226413"/>
    <tag k="addr:city" v="South Lake"/>
    <tag k="addr:postcode" v="6164"/>
    <tag k="highway" v="residential"/>
    <tag k="name" v="Wapenga Close"/>
  </way>
  <way id="25702823" version="2" timestamp="2010-07-09T07:25:37Z" uid="74617" user="JohnSmith" changeset="5171412">
    <nd ref="280221712"/>
    <nd ref="280226420"/>
    <nd ref="280226421"/>
    <nd ref="280226422"/>
    <tag k="highway" v="residential"/>
    <tag k="maxspeed" v="50"/>
    <tag k="maxspeed:source" v="default residential speed limit in Australia"/>
  </way>
  <way id="25702823" version="3" timestamp="2010-10-15T05:37:02Z" uid="325087" user="Palitu" changeset="6046295">
    <nd ref="280221712"/>
    <nd ref="280226420"/>
    <nd ref="280226421"/>
    <nd ref="280226422"/>
    <tag k="addr:city" v="South Lake"/>
    <tag k="addr:postcode" v="6164"/>
    <tag k="highway" v="residential"/>
    <tag k="maxspeed" v="50"/>
    <tag k="maxspeed:source" v="default residential speed limit in Australia"/>
  </way>
  <way id="25702823" version="4" timestamp="2011-02-07T07:47:33Z" uid="325087" user="Palitu" changeset="7213187">
    <nd ref="280221712"/>
    <nd ref="280226420"/>
    <nd ref="280226421"/>
    <nd ref="280226422"/>
    <tag k="addr:city" v="South Lake"/>
    <tag k="addr:postcode" v="6164"/>
    <tag k="highway" v="residential"/>
    <tag k="maxspeed" v="50"/>
    <tag k="maxspeed:source" v="default residential speed limit in Australia"/>
    <tag k="name" v="Jeavons Place"/>
  </way>
  <way id="25702823" version="5" timestamp="2012-01-17T00:41:45Z" uid="147510" user="woodpeck_fixbot" changeset="10412890">
    <nd ref="280221712"/>
    <nd ref="280226420"/>
    <nd ref="280226421"/>
    <nd ref="280226422"/>
    <tag k="addr:city" v="South Lake"/>
    <tag k="addr:postcode" v="6164"/>
    <tag k="highway" v="residential"/>
    <tag k="name" v="Jeavons Place"/>
  </way>
  <way id="25702824" version="4" timestamp="2010-07-09T07:35:42Z" uid="74617" user="JohnSmith" changeset="5171412">
    <nd ref="280226421"/>
    <nd ref="280226424"/>
    <nd ref="280226425"/>
    <nd ref="280226426"/>
    <tag k="highway" v="residential"/>
    <tag k="maxspeed" v="50"/>
    <tag k="maxspeed:source" v="default residential speed limit in Australia"/>
  </way>
  <way id="25702824" version="5" timestamp="2010-10-15T05:37:10Z" uid="325087" user="Palitu" changeset="6046295">
    <nd ref="280226421"/>
    <nd ref="280226424"/>
    <nd ref="280226425"/>
    <nd ref="280226426"/>
    <tag k="addr:city" v="South Lake"/>
    <tag k="addr:postcode" v="6164"/>
    <tag k="highway" v="residential"/>
    <tag k="maxspeed" v="50"/>
    <tag k="maxspeed:source" v="default residential speed limit in Australia"/>
  </way>
  <way id="25702824" version="6" timestamp="2011-02-07T07:47:34Z" uid="325087" user="Palitu" changeset="7213187">
    <nd ref="280226421"/>
    <nd ref="280226424"/>
    <nd ref="280226425"/>
    <nd ref="280226426"/>
    <tag k="addr:city" v="South Lake"/>
    <tag k="addr:postcode" v="6164"/>
    <tag k="highway" v="residential"/>
    <tag k="maxspeed" v="50"/>
    <tag k="maxspeed:source" v="default residential speed limit in Australia"/>
    <tag k="name" v="Eucumbene Gardens"/>
  </way>
  <way id="25702824" version="7" timestamp="2012-01-17T00:41:46Z" uid="147510" user="woodpeck_fixbot" changeset="10412890">
    <nd ref="280226421"/>
    <nd ref="280226424"/>
    <nd ref="280226425"/>
    <nd ref="280226426"/>
    <tag k="addr:city" v="South Lake"/>
    <tag k="addr:postcode" v="6164"/>
    <tag k="highway" v="residential"/>
    <tag k="name" v="Eucumbene Gardens"/>
  </way>
  <way id="25702830" version="4" timestamp="2010-07-09T07:26:49Z" uid="74617" user="JohnSmith" changeset="5171412">
    <nd ref="280226424"/>
    <nd ref="706918962"/>
    <nd ref="280226558"/>
    <nd ref="706918963"/>
    <nd ref="280226559"/>
    <tag k="highway" v="residential"/>
    <tag k="maxspeed" v="50"/>
    <tag k="maxspeed:source" v="default residential speed limit in Australia"/>
  </way>
  <way id="25702830" version="5" timestamp="2010-10-15T05:36:59Z" uid="325087" user="Palitu" changeset="6046295">
    <nd ref="280226424"/>
    <nd ref="706918962"/>
    <nd ref="280226558"/>
    <nd ref="706918963"/>
    <nd ref="280226559"/>
    <tag k="addr:city" v="South Lake"/>
    <tag k="addr:postcode" v="6164"/>
    <tag k="highway" v="residential"/>
    <tag k="maxspeed" v="50"/>
    <tag k="maxspeed:source" v="default residential speed limit in Australia"/>
  </way>
  <way id="25702830" version="6" timestamp="2011-02-07T07:48:53Z" uid="325087" user="Palitu" changeset="7213187">
    <nd ref="280226424"/>
    <nd ref="706918962"/>
    <nd ref="280226558"/>
    <nd ref="706918963"/>
    <nd ref="280226559"/>
    <tag k="addr:city" v="South Lake"/>
    <tag k="addr:postcode" v="6164"/>
    <tag k="highway" v="residential"/>
    <tag k="maxspeed" v="50"/>
    <tag k="maxspeed:source" v="default residential speed limit in Australia"/>
    <tag k="name" v="Curalo Mews"/>
  </way>
  <way id="25702830" version="7" timestamp="2012-01-17T00:41:50Z" uid="147510" user="woodpeck_fixbot" changeset="10412890">
    <nd ref="280226424"/>
    <nd ref="706918962"/>
    <nd ref="280226558"/>
    <nd ref="706918963"/>
    <nd ref="280226559"/>
    <tag k="addr:city" v="South Lake"/>
    <tag k="addr:postcode" v="6164"/>
    <tag k="highway" v="residential"/>
    <tag k="name" v="Curalo Mews"/>
  </way>
  <way id="25702839" version="13" timestamp="2010-07-09T07:34:37Z" uid="74617" user="JohnSmith" changeset="5171412">
    <nd ref="280226562"/>
    <nd ref="280226636"/>
    <nd ref="280226638"/>
    <nd ref="280227714"/>
    <nd ref="280226640"/>
    <nd ref="280227700"/>
    <nd ref="280226642"/>
    <nd ref="280227438"/>
    <nd ref="280227931"/>
    <nd ref="280226644"/>
    <nd ref="280226648"/>
    <nd ref="280226650"/>
    <nd ref="280227751"/>
    <nd ref="280226652"/>
    <nd ref="280226654"/>
    <nd ref="280226656"/>
    <nd ref="280227956"/>
    <nd ref="280226658"/>
    <nd ref="280228393"/>
    <nd ref="280228047"/>
    <nd ref="280226660"/>
    <nd ref="280226665"/>
    <nd ref="280227930"/>
    <nd ref="280226666"/>
    <nd ref="280226667"/>
    <nd ref="280226668"/>
    <nd ref="280226730"/>
    <nd ref="280226669"/>
    <nd ref="280226670"/>
    <nd ref="280226671"/>
    <nd ref="280226679"/>
    <nd ref="280226673"/>
    <nd ref="280226674"/>
    <tag k="highway" v="residential"/>
    <tag k="maxspeed" v="50"/>
    <tag k="maxspeed:source" v="default residential speed limit in Australia"/>
  </way>
  <way id="25702839" version="14" timestamp="2010-10-15T05:36:44Z" uid="325087" user="Palitu" changeset="6046295">
    <nd ref="280226562"/>
    <nd ref="280226636"/>
    <nd ref="280226638"/>
    <nd ref="280227714"/>
    <nd ref="280226640"/>
    <nd ref="280227700"/>
    <nd ref="280226642"/>
    <nd ref="280227438"/>
    <nd ref="280227931"/>
    <nd ref="280226644"/>
    <nd ref="280226648"/>
    <nd ref="280226650"/>
    <nd ref="280227751"/>
    <nd ref="280226652"/>
    <nd ref="280226654"/>
    <nd ref="280226656"/>
    <nd ref="280227956"/>
    <nd ref="280226658"/>
    <nd ref="280228393"/>
    <nd ref="280228047"/>
    <nd ref="280226660"/>
    <nd ref="280226665"/>
    <nd ref="280227930"/>
    <nd ref="280226666"/>
    <nd ref="280226667"/>
    <nd ref="280226668"/>
    <nd ref="280226730"/>
    <nd ref="280226669"/>
    <nd ref="280226670"/>
    <nd ref="280226671"/>
    <nd ref="280226679"/>
    <nd ref="280226673"/>
    <nd ref="280226674"/>
    <tag k="addr:city" v="South Lake"/>
    <tag k="addr:postcode" v="6164"/>
    <tag k="highway" v="residential"/>
    <tag k="maxspeed" v="50"/>
    <tag k="maxspeed:source" v="default residential speed limit in Australia"/>
  </way>
  <way id="25702839" version="15" timestamp="2011-02-07T07:48:58Z" uid="325087" user="Palitu" changeset="7213187">
    <nd ref="280226562"/>
    <nd ref="280226636"/>
    <nd ref="280226638"/>
    <nd ref="280227714"/>
    <nd ref="280226640"/>
    <nd ref="280227700"/>
    <nd ref="280226642"/>
    <nd ref="280227438"/>
    <nd ref="280227931"/>
    <nd ref="280226644"/>
    <nd ref="280226648"/>
    <nd ref="280226650"/>
    <nd ref="280227751"/>
    <nd ref="280226652"/>
    <nd ref="280226654"/>
    <nd ref="280226656"/>
    <nd ref="280227956"/>
    <nd ref="280226658"/>
    <nd ref="280228393"/>
    <nd ref="280228047"/>
    <nd ref="280226660"/>
    <nd ref="280226665"/>
    <nd ref="280227930"/>
    <nd ref="280226666"/>
    <nd ref="280226667"/>
    <nd ref="280226668"/>
    <nd ref="280226730"/>
    <nd ref="280226669"/>
    <nd ref="280226670"/>
    <nd ref="280226671"/>
    <nd ref="280226679"/>
    <nd ref="280226673"/>
    <nd ref="280226674"/>
    <tag k="addr:city" v="South Lake"/>
    <tag k="addr:postcode" v="6164"/>
    <tag k="highway" v="residential"/>
    <tag k="maxspeed" v="50"/>
    <tag k="maxspeed:source" v="default residential speed limit in Australia"/>
    <tag k="name" v="Bolderwood Drive"/>
  </way>
  <way id="25702839" version="16" timestamp="2012-01-17T00:41:53Z" uid="147510" user="woodpeck_fixbot" changeset="10412890">
    <nd ref="280226562"/>
    <nd ref="280226636"/>
    <nd ref="280226638"/>
    <nd ref="280227714"/>
    <nd ref="280226640"/>
    <nd ref="280227700"/>
    <nd ref="280226642"/>
    <nd ref="280227438"/>
    <nd ref="280227931"/>
    <nd ref="280226644"/>
    <nd ref="280226648"/>
    <nd ref="280226650"/>
    <nd ref="280227751"/>
    <nd ref="280226652"/>
    <nd ref="280226654"/>
    <nd ref="280226656"/>
    <nd ref="280227956"/>
    <nd ref="280226658"/>
    <nd ref="280228393"/>
    <nd ref="280228047"/>
    <nd ref="280226660"/>
    <nd ref="280226665"/>
    <nd ref="280227930"/>
    <nd ref="280226666"/>
    <nd ref="280226667"/>
    <nd ref="280226668"/>
    <nd ref="280226730"/>
    <nd ref="280226669"/>
    <nd ref="280226670"/>
    <nd ref="280226671"/>
    <nd ref="280226679"/>
    <nd ref="280226673"/>
    <nd ref="280226674"/>
    <tag k="addr:city" v="South Lake"/>
    <tag k="addr:postcode" v="6164"/>
    <tag k="highway" v="residential"/>
    <tag k="name" v="Bolderwood Drive"/>
  </way>
  <way id="25702841" version="3" timestamp="2010-05-02T06:11:44Z" uid="242497" user="cvl" changeset="4581339">
    <nd ref="280226679"/>
    <nd ref="280226723"/>
    <nd ref="280226681"/>
    <tag k="highway" v="residential"/>
  </way>
  <way id="25702841" version="4" timestamp="2010-07-09T07:32:50Z" uid="74617" user="JohnSmith" changeset="5171412">
    <nd ref="280226679"/>
    <nd ref="280226723"/>
    <nd ref="280226681"/>
    <tag k="highway" v="residential"/>
    <tag k="maxspeed" v="50"/>
    <tag k="maxspeed:source" v="default residential speed limit in Australia"/>
  </way>
  <way id="25702841" version="5" timestamp="2010-10-15T05:36:41Z" uid="325087" user="Palitu" changeset="6046295">
    <nd ref="280226679"/>
    <nd ref="280226723"/>
    <nd ref="280226681"/>
    <tag k="addr:city" v="South Lake"/>
    <tag k="addr:postcode" v="6164"/>
    <tag k="highway" v="residential"/>
    <tag k="maxspeed" v="50"/>
    <tag k="maxspeed:source" v="default residential speed limit in Australia"/>
  </way>
  <way id="25702841" version="6" timestamp="2011-02-07T07:48:08Z" uid="325087" user="Palitu" changeset="7213187">
    <nd ref="280226679"/>
    <nd ref="280226723"/>
    <nd ref="280226681"/>
    <tag k="addr:city" v="South Lake"/>
    <tag k="addr:postcode" v="6164"/>
    <tag k="highway" v="residential"/>
    <tag k="maxspeed" v="50"/>
    <tag k="maxspeed:source" v="default residential speed limit in Australia"/>
    <tag k="name" v="Zilner Court"/>
  </way>
  <way id="25702841" version="7" timestamp="2012-01-17T00:41:55Z" uid="147510" user="woodpeck_fixbot" changeset="10412890">
    <nd ref="280226679"/>
    <nd ref="280226723"/>
    <nd ref="280226681"/>
    <tag k="addr:city" v="South Lake"/>
    <tag k="addr:postcode" v="6164"/>
    <tag k="highway" v="residential"/>
    <tag k="name" v="Zilner Court"/>
  </way>
  <way id="25702842" version="4" timestamp="2008-07-25T17:22:24Z" uid="34428" user="usm78-gis" changeset="592876">
    <nd ref="267426868"/>
    <nd ref="280226682"/>
    <nd ref="280226700"/>
    <nd ref="281041875"/>
    <nd ref="281041876"/>
    <tag k="created_by" v="Potlatch 0.10"/>
    <tag k="highway" v="secondary"/>
  </way>
  <way id="25702842" version="5" timestamp="2008-08-09T17:45:20Z" uid="40563" user="gorch" changeset="158560">
    <nd ref="267426868"/>
    <nd ref="280226682"/>
    <tag k="created_by" v="Potlatch 0.10"/>
    <tag k="highway" v="secondary"/>
    <tag k="oneway" v="yes"/>
  </way>
  <way id="25702842" version="6" timestamp="2008-08-16T11:15:51Z" uid="22214" user="V1ad" changeset="274285">
    <nd ref="267426868"/>
    <nd ref="280226682"/>
    <tag k="created_by" v="Potlatch 0.10"/>
    <tag k="highway" v="residential"/>
    <tag k="oneway" v="yes"/>
  </way>
  <way id="25702842" version="7" timestamp="2009-10-30T17:56:54Z" uid="182473" user="KartaFan" changeset="2991124">
    <nd ref="267426868"/>
    <nd ref="280226682"/>
    <tag k="highway" v="residential"/>
    <tag k="oneway" v="yes"/>
  </way>
  <way id="25702846" version="2" timestamp="2010-07-09T07:36:34Z" uid="74617" user="JohnSmith" changeset="5171412">
    <nd ref="280226723"/>
    <nd ref="280226724"/>
    <nd ref="280226725"/>
    <nd ref="280226726"/>
    <nd ref="280226727"/>
    <nd ref="280226728"/>
    <nd ref="280226729"/>
    <nd ref="280226730"/>
    <tag k="highway" v="residential"/>
    <tag k="maxspeed" v="50"/>
    <tag k="maxspeed:source" v="default residential speed limit in Australia"/>
  </way>
  <way id="25702846" version="3" timestamp="2010-10-15T05:36:38Z" uid="325087" user="Palitu" changeset="6046295">
    <nd ref="280226723"/>
    <nd ref="280226724"/>
    <nd ref="280226725"/>
    <nd ref="280226726"/>
    <nd ref="280226727"/>
    <nd ref="280226728"/>
    <nd ref="280226729"/>
    <nd ref="280226730"/>
    <tag k="addr:city" v="South Lake"/>
    <tag k="addr:postcode" v="6164"/>
    <tag k="highway" v="residential"/>
    <tag k="maxspeed" v="50"/>
    <tag k="maxspeed:source" v="default residential speed limit in Australia"/>
  </way>
  <way id="25702846" version="4" timestamp="2011-02-07T07:48:40Z" uid="325087" user="Palitu" changeset="7213187">
    <nd ref="280226723"/>
    <nd ref="280226724"/>
    <nd ref="280226725"/>
    <nd ref="280226726"/>
    <nd ref="280226727"/>
    <nd ref="280226728"/>
    <nd ref="280226729"/>
    <nd ref="280226730"/>
    <tag k="addr:city" v="South Lake"/>
    <tag k="addr:postcode" v="6164"/>
    <tag k="highway" v="residential"/>
    <tag k="maxspeed" v="50"/>
    <tag k="maxspeed:source" v="default residential speed limit in Australia"/>
    <tag k="name" v="Virgilia Terrace"/>
  </way>
  <way id="25702846" version="5" timestamp="2012-01-17T00:41:58Z" uid="147510" user="woodpeck_fixbot" changeset="10412890">
    <nd ref="280226723"/>
    <nd ref="280226724"/>
    <nd ref="280226725"/>
    <nd ref="280226726"/>
    <nd ref="280226727"/>
    <nd ref="280226728"/>
    <nd ref="280226729"/>
    <nd ref="280226730"/>
    <tag k="addr:city" v="South Lake"/>
    <tag k="addr:postcode" v="6164"/>
    <tag k="highway" v="residential"/>
    <tag k="name" v="Virgilia Terrace"/>
  </way>
  <way id="25702863" version="3" timestamp="2010-07-09T07:34:55Z" uid="74617" user="JohnSmith" changeset="5171412">
    <nd ref="280226725"/>
    <nd ref="280227028"/>
    <tag k="highway" v="residential"/>
    <tag k="maxspeed" v="50"/>
    <tag k="maxspeed:source" v="default residential speed limit in Australia"/>
  </way>
  <way id="25702863" version="4" timestamp="2010-10-15T05:36:35Z" uid="325087" user="Palitu" changeset="6046295">
    <nd ref="280226725"/>
    <nd ref="280227028"/>
    <tag k="addr:city" v="South Lake"/>
    <tag k="addr:postcode" v="6164"/>
    <tag k="highway" v="residential"/>
    <tag k="maxspeed" v="50"/>
    <tag k="maxspeed:source" v="default residential speed limit in Australia"/>
  </way>
  <way id="25702863" version="5" timestamp="2011-02-07T07:47:43Z" uid="325087" user="Palitu" changeset="7213187">
    <nd ref="280226725"/>
    <nd ref="280227028"/>
    <tag k="addr:city" v="South Lake"/>
    <tag k="addr:postcode" v="6164"/>
    <tag k="highway" v="residential"/>
    <tag k="maxspeed" v="50"/>
    <tag k="maxspeed:source" v="default residential speed limit in Australia"/>
    <tag k="name" v="Banyalla Court"/>
  </way>
  <way id="25702863" version="6" timestamp="2012-01-17T00:42:00Z" uid="147510" user="woodpeck_fixbot" changeset="10412890">
    <nd ref="280226725"/>
    <nd ref="280227028"/>
    <tag k="addr:city" v="South Lake"/>
    <tag k="addr:postcode" v="6164"/>
    <tag k="highway" v="residential"/>
    <tag k="name" v="Banyalla Court"/>
  </way>
  <way id="25702864" version="3" timestamp="2010-05-02T06:11:41Z" uid="242497" user="cvl" changeset="4581339">
    <nd ref="280226729"/>
    <nd ref="280227051"/>
    <nd ref="280227053"/>
    <nd ref="716372317"/>
    <nd ref="716372319"/>
    <nd ref="280227054"/>
    <tag k="highway" v="service"/>
  </way>
  <way id="25702865" version="5" timestamp="2010-07-09T07:33:07Z" uid="74617" user="JohnSmith" changeset="5171412">
    <nd ref="280226667"/>
    <nd ref="280227148"/>
    <nd ref="280227064"/>
    <nd ref="280227065"/>
    <nd ref="280227296"/>
    <nd ref="280227066"/>
    <nd ref="280227067"/>
    <nd ref="280227068"/>
    <nd ref="280227303"/>
    <nd ref="280227307"/>
    <nd ref="280227298"/>
    <nd ref="280227305"/>
    <nd ref="280227300"/>
    <nd ref="280226670"/>
    <tag k="highway" v="residential"/>
    <tag k="maxspeed" v="50"/>
    <tag k="maxspeed:source" v="default residential speed limit in Australia"/>
  </way>
  <way id="25702865" version="6" timestamp="2010-10-15T05:36:45Z" uid="325087" user="Palitu" changeset="6046295">
    <nd ref="280226667"/>
    <nd ref="280227148"/>
    <nd ref="280227064"/>
    <nd ref="280227065"/>
    <nd ref="280227296"/>
    <nd ref="280227066"/>
    <nd ref="280227067"/>
    <nd ref="280227068"/>
    <nd ref="280227303"/>
    <nd ref="280227307"/>
    <nd ref="280227298"/>
    <nd ref="280227305"/>
    <nd ref="280227300"/>
    <nd ref="280226670"/>
    <tag k="addr:city" v="South Lake"/>
    <tag k="addr:postcode" v="6164"/>
    <tag k="highway" v="residential"/>
    <tag k="maxspeed" v="50"/>
    <tag k="maxspeed:source" v="default residential speed limit in Australia"/>
  </way>
  <way id="25702865" version="7" timestamp="2011-02-07T07:48:14Z" uid="325087" user="Palitu" changeset="7213187">
    <nd ref="280226667"/>
    <nd ref="280227148"/>
    <nd ref="280227064"/>
    <nd ref="280227065"/>
    <nd ref="280227296"/>
    <nd ref="280227066"/>
    <nd ref="280227067"/>
    <nd ref="280227068"/>
    <nd ref="280227303"/>
    <nd ref="280227307"/>
    <nd ref="280227298"/>
    <nd ref="280227305"/>
    <nd ref="280227300"/>
    <nd ref="280226670"/>
    <tag k="addr:city" v="South Lake"/>
    <tag k="addr:postcode" v="6164"/>
    <tag k="highway" v="residential"/>
    <tag k="maxspeed" v="50"/>
    <tag k="maxspeed:source" v="default residential speed limit in Australia"/>
    <tag k="name" v="Wineberry Loop"/>
  </way>
  <way id="25702865" version="8" timestamp="2012-01-17T00:42:02Z" uid="147510" user="woodpeck_fixbot" changeset="10412890">
    <nd ref="280226667"/>
    <nd ref="280227148"/>
    <nd ref="280227064"/>
    <nd ref="280227065"/>
    <nd ref="280227296"/>
    <nd ref="280227066"/>
    <nd ref="280227067"/>
    <nd ref="280227068"/>
    <nd ref="280227303"/>
    <nd ref="280227307"/>
    <nd ref="280227298"/>
    <nd ref="280227305"/>
    <nd ref="280227300"/>
    <nd ref="280226670"/>
    <tag k="addr:city" v="South Lake"/>
    <tag k="addr:postcode" v="6164"/>
    <tag k="highway" v="residential"/>
    <tag k="name" v="Wineberry Loop"/>
  </way>
  <way id="25702876" version="3" timestamp="2010-07-09T07:32:19Z" uid="74617" user="JohnSmith" changeset="5171412">
    <nd ref="280227148"/>
    <nd ref="280227150"/>
    <nd ref="280227152"/>
    <tag k="highway" v="residential"/>
    <tag k="maxspeed" v="50"/>
    <tag k="maxspeed:source" v="default residential speed limit in Australia"/>
  </way>
  <way id="25702876" version="4" timestamp="2010-10-15T05:36:49Z" uid="325087" user="Palitu" changeset="6046295">
    <nd ref="280227148"/>
    <nd ref="280227150"/>
    <nd ref="280227152"/>
    <tag k="addr:city" v="South Lake"/>
    <tag k="addr:postcode" v="6164"/>
    <tag k="highway" v="residential"/>
    <tag k="maxspeed" v="50"/>
    <tag k="maxspeed:source" v="default residential speed limit in Australia"/>
  </way>
  <way id="25702876" version="5" timestamp="2011-02-07T07:48:40Z" uid="325087" user="Palitu" changeset="7213187">
    <nd ref="280227148"/>
    <nd ref="280227150"/>
    <nd ref="280227152"/>
    <tag k="addr:city" v="South Lake"/>
    <tag k="addr:postcode" v="6164"/>
    <tag k="highway" v="residential"/>
    <tag k="maxspeed" v="50"/>
    <tag k="maxspeed:source" v="default residential speed limit in Australia"/>
    <tag k="name" v="Cestrum Rise"/>
  </way>
  <way id="25702876" version="6" timestamp="2012-01-17T00:42:05Z" uid="147510" user="woodpeck_fixbot" changeset="10412890">
    <nd ref="280227148"/>
    <nd ref="280227150"/>
    <nd ref="280227152"/>
    <tag k="addr:city" v="South Lake"/>
    <tag k="addr:postcode" v="6164"/>
    <tag k="highway" v="residential"/>
    <tag k="name" v="Cestrum Rise"/>
  </way>
  <way id="25702885" version="3" timestamp="2010-07-09T07:24:59Z" uid="74617" user="JohnSmith" changeset="5171412">
    <nd ref="280227064"/>
    <nd ref="280227292"/>
    <nd ref="280227293"/>
    <nd ref="280227294"/>
    <tag k="highway" v="residential"/>
    <tag k="maxspeed" v="50"/>
    <tag k="maxspeed:source" v="default residential speed limit in Australia"/>
  </way>
  <way id="25702885" version="4" timestamp="2010-10-15T05:37:01Z" uid="325087" user="Palitu" changeset="6046295">
    <nd ref="280227064"/>
    <nd ref="280227292"/>
    <nd ref="280227293"/>
    <nd ref="280227294"/>
    <tag k="addr:city" v="South Lake"/>
    <tag k="addr:postcode" v="6164"/>
    <tag k="highway" v="residential"/>
    <tag k="maxspeed" v="50"/>
    <tag k="maxspeed:source" v="default residential speed limit in Australia"/>
  </way>
  <way id="25702885" version="5" timestamp="2011-02-07T07:48:46Z" uid="325087" user="Palitu" changeset="7213187">
    <nd ref="280227064"/>
    <nd ref="280227292"/>
    <nd ref="280227293"/>
    <nd ref="280227294"/>
    <tag k="addr:city" v="South Lake"/>
    <tag k="addr:postcode" v="6164"/>
    <tag k="highway" v="residential"/>
    <tag k="maxspeed" v="50"/>
    <tag k="maxspeed:source" v="default residential speed limit in Australia"/>
    <tag k="name" v="Wyalong Place"/>
  </way>
  <way id="25702885" version="6" timestamp="2012-01-17T00:42:07Z" uid="147510" user="woodpeck_fixbot" changeset="10412890">
    <nd ref="280227064"/>
    <nd ref="280227292"/>
    <nd ref="280227293"/>
    <nd ref="280227294"/>
    <tag k="addr:city" v="South Lake"/>
    <tag k="addr:postcode" v="6164"/>
    <tag k="highway" v="residential"/>
    <tag k="name" v="Wyalong Place"/>
  </way>
  <way id="25702886" version="3" timestamp="2010-07-09T07:30:36Z" uid="74617" user="JohnSmith" changeset="5171412">
    <nd ref="280227296"/>
    <nd ref="280227301"/>
    <nd ref="280227302"/>
    <tag k="highway" v="residential"/>
    <tag k="maxspeed" v="50"/>
    <tag k="maxspeed:source" v="default residential speed limit in Australia"/>
  </way>
  <way id="25702886" version="4" timestamp="2010-10-15T05:36:52Z" uid="325087" user="Palitu" changeset="6046295">
    <nd ref="280227296"/>
    <nd ref="280227301"/>
    <nd ref="280227302"/>
    <tag k="addr:city" v="South Lake"/>
    <tag k="addr:postcode" v="6164"/>
    <tag k="highway" v="residential"/>
    <tag k="maxspeed" v="50"/>
    <tag k="maxspeed:source" v="default residential speed limit in Australia"/>
  </way>
  <way id="25702886" version="5" timestamp="2011-02-07T07:48:34Z" uid="325087" user="Palitu" changeset="7213187">
    <nd ref="280227296"/>
    <nd ref="280227301"/>
    <nd ref="280227302"/>
    <tag k="addr:city" v="South Lake"/>
    <tag k="addr:postcode" v="6164"/>
    <tag k="highway" v="residential"/>
    <tag k="maxspeed" v="50"/>
    <tag k="maxspeed:source" v="default residential speed limit in Australia"/>
    <tag k="name" v="Tallow Place"/>
  </way>
  <way id="25702886" version="6" timestamp="2012-01-17T00:42:09Z" uid="147510" user="woodpeck_fixbot" changeset="10412890">
    <nd ref="280227296"/>
    <nd ref="280227301"/>
    <nd ref="280227302"/>
    <tag k="addr:city" v="South Lake"/>
    <tag k="addr:postcode" v="6164"/>
    <tag k="highway" v="residential"/>
    <tag k="name" v="Tallow Place"/>
  </way>
  <way id="25702887" version="3" timestamp="2010-07-09T07:33:47Z" uid="74617" user="JohnSmith" changeset="5171412">
    <nd ref="280227307"/>
    <nd ref="280227308"/>
    <tag k="highway" v="residential"/>
    <tag k="maxspeed" v="50"/>
    <tag k="maxspeed:source" v="default residential speed limit in Australia"/>
  </way>
  <way id="25702887" version="4" timestamp="2010-10-15T05:36:39Z" uid="325087" user="Palitu" changeset="6046295">
    <nd ref="280227307"/>
    <nd ref="280227308"/>
    <tag k="addr:city" v="South Lake"/>
    <tag k="addr:postcode" v="6164"/>
    <tag k="highway" v="residential"/>
    <tag k="maxspeed" v="50"/>
    <tag k="maxspeed:source" v="default residential speed limit in Australia"/>
  </way>
  <way id="25702887" version="5" timestamp="2012-01-17T00:42:10Z" uid="147510" user="woodpeck_fixbot" changeset="10412890">
    <nd ref="280227307"/>
    <nd ref="280227308"/>
    <tag k="addr:city" v="South Lake"/>
    <tag k="addr:postcode" v="6164"/>
    <tag k="highway" v="residential"/>
  </way>
  <way id="25702890" version="3" timestamp="2010-07-09T07:38:44Z" uid="74617" user="JohnSmith" changeset="5171412">
    <nd ref="280227300"/>
    <nd ref="280227318"/>
    <tag k="highway" v="residential"/>
    <tag k="maxspeed" v="50"/>
    <tag k="maxspeed:source" v="default residential speed limit in Australia"/>
  </way>
  <way id="25702890" version="4" timestamp="2010-10-15T05:37:15Z" uid="325087" user="Palitu" changeset="6046295">
    <nd ref="280227300"/>
    <nd ref="280227318"/>
    <tag k="addr:city" v="South Lake"/>
    <tag k="addr:postcode" v="6164"/>
    <tag k="highway" v="residential"/>
    <tag k="maxspeed" v="50"/>
    <tag k="maxspeed:source" v="default residential speed limit in Australia"/>
  </way>
  <way id="25702890" version="5" timestamp="2012-01-17T00:42:12Z" uid="147510" user="woodpeck_fixbot" changeset="10412890">
    <nd ref="280227300"/>
    <nd ref="280227318"/>
    <tag k="addr:city" v="South Lake"/>
    <tag k="addr:postcode" v="6164"/>
    <tag k="highway" v="residential"/>
  </way>
  <way id="25702895" version="3" timestamp="2010-07-09T07:39:41Z" uid="74617" user="JohnSmith" changeset="5171412">
    <nd ref="280227320"/>
    <nd ref="280227377"/>
    <nd ref="280227378"/>
    <tag k="highway" v="residential"/>
    <tag k="maxspeed" v="50"/>
    <tag k="maxspeed:source" v="default residential speed limit in Australia"/>
  </way>
  <way id="25702895" version="4" timestamp="2011-02-07T07:49:02Z" uid="325087" user="Palitu" changeset="7213187">
    <nd ref="280227320"/>
    <nd ref="280227377"/>
    <nd ref="280227378"/>
    <tag k="highway" v="residential"/>
    <tag k="maxspeed" v="50"/>
    <tag k="maxspeed:source" v="default residential speed limit in Australia"/>
    <tag k="name" v="Bolwara Heights"/>
  </way>
  <way id="25702895" version="5" timestamp="2012-01-17T00:42:15Z" uid="147510" user="woodpeck_fixbot" changeset="10412890">
    <nd ref="280227320"/>
    <nd ref="280227377"/>
    <nd ref="280227378"/>
    <tag k="highway" v="residential"/>
    <tag k="name" v="Bolwara Heights"/>
  </way>
  <way id="25702901" version="3" timestamp="2010-07-09T07:34:13Z" uid="74617" user="JohnSmith" changeset="5171412">
    <nd ref="280227438"/>
    <nd ref="280227439"/>
    <nd ref="280227602"/>
    <nd ref="280227441"/>
    <nd ref="280227442"/>
    <nd ref="280227443"/>
    <nd ref="280227444"/>
    <nd ref="280227445"/>
    <nd ref="280227446"/>
    <nd ref="280227495"/>
    <nd ref="280227448"/>
    <nd ref="280227449"/>
    <nd ref="280227450"/>
    <nd ref="280227451"/>
    <nd ref="280227452"/>
    <nd ref="280227453"/>
    <nd ref="280227454"/>
    <nd ref="280227714"/>
    <tag k="highway" v="residential"/>
    <tag k="maxspeed" v="50"/>
    <tag k="maxspeed:source" v="default residential speed limit in Australia"/>
  </way>
  <way id="25702901" version="4" timestamp="2010-10-15T05:36:41Z" uid="325087" user="Palitu" changeset="6046295">
    <nd ref="280227438"/>
    <nd ref="280227439"/>
    <nd ref="280227602"/>
    <nd ref="280227441"/>
    <nd ref="280227442"/>
    <nd ref="280227443"/>
    <nd ref="280227444"/>
    <nd ref="280227445"/>
    <nd ref="280227446"/>
    <nd ref="280227495"/>
    <nd ref="280227448"/>
    <nd ref="280227449"/>
    <nd ref="280227450"/>
    <nd ref="280227451"/>
    <nd ref="280227452"/>
    <nd ref="280227453"/>
    <nd ref="280227454"/>
    <nd ref="280227714"/>
    <tag k="addr:city" v="South Lake"/>
    <tag k="addr:postcode" v="6164"/>
    <tag k="highway" v="residential"/>
    <tag k="maxspeed" v="50"/>
    <tag k="maxspeed:source" v="default residential speed limit in Australia"/>
  </way>
  <way id="25702901" version="5" timestamp="2011-02-07T07:48:24Z" uid="325087" user="Palitu" changeset="7213187">
    <nd ref="280227438"/>
    <nd ref="280227439"/>
    <nd ref="280227602"/>
    <nd ref="280227441"/>
    <nd ref="280227442"/>
    <nd ref="280227443"/>
    <nd ref="280227444"/>
    <nd ref="280227445"/>
    <nd ref="280227446"/>
    <nd ref="280227495"/>
    <nd ref="280227448"/>
    <nd ref="280227449"/>
    <nd ref="280227450"/>
    <nd ref="280227451"/>
    <nd ref="280227452"/>
    <nd ref="280227453"/>
    <nd ref="280227454"/>
    <nd ref="280227714"/>
    <tag k="addr:city" v="South Lake"/>
    <tag k="addr:postcode" v="6164"/>
    <tag k="highway" v="residential"/>
    <tag k="maxspeed" v="50"/>
    <tag k="maxspeed:source" v="default residential speed limit in Australia"/>
    <tag k="name" v="Catalpa Crescent"/>
  </way>
  <way id="25702901" version="6" timestamp="2012-01-17T00:42:17Z" uid="147510" user="woodpeck_fixbot" changeset="10412890">
    <nd ref="280227438"/>
    <nd ref="280227439"/>
    <nd ref="280227602"/>
    <nd ref="280227441"/>
    <nd ref="280227442"/>
    <nd ref="280227443"/>
    <nd ref="280227444"/>
    <nd ref="280227445"/>
    <nd ref="280227446"/>
    <nd ref="280227495"/>
    <nd ref="280227448"/>
    <nd ref="280227449"/>
    <nd ref="280227450"/>
    <nd ref="280227451"/>
    <nd ref="280227452"/>
    <nd ref="280227453"/>
    <nd ref="280227454"/>
    <nd ref="280227714"/>
    <tag k="addr:city" v="South Lake"/>
    <tag k="addr:postcode" v="6164"/>
    <tag k="highway" v="residential"/>
    <tag k="name" v="Catalpa Crescent"/>
  </way>
  <way id="25702904" version="3" timestamp="2010-07-09T07:39:17Z" uid="74617" user="JohnSmith" changeset="5171412">
    <nd ref="280227495"/>
    <nd ref="280227496"/>
    <nd ref="280227497"/>
    <tag k="highway" v="residential"/>
    <tag k="maxspeed" v="50"/>
    <tag k="maxspeed:source" v="default residential speed limit in Australia"/>
  </way>
  <way id="25702904" version="4" timestamp="2010-10-15T05:37:16Z" uid="325087" user="Palitu" changeset="6046295">
    <nd ref="280227495"/>
    <nd ref="280227496"/>
    <nd ref="280227497"/>
    <tag k="addr:city" v="South Lake"/>
    <tag k="addr:postcode" v="6164"/>
    <tag k="highway" v="residential"/>
    <tag k="maxspeed" v="50"/>
    <tag k="maxspeed:source" v="default residential speed limit in Australia"/>
  </way>
  <way id="25702904" version="5" timestamp="2011-02-07T07:47:52Z" uid="325087" user="Palitu" changeset="7213187">
    <nd ref="280227495"/>
    <nd ref="280227496"/>
    <nd ref="280227497"/>
    <tag k="addr:city" v="South Lake"/>
    <tag k="addr:postcode" v="6164"/>
    <tag k="highway" v="residential"/>
    <tag k="maxspeed" v="50"/>
    <tag k="maxspeed:source" v="default residential speed limit in Australia"/>
    <tag k="name" v="Leatherwood Rise"/>
  </way>
  <way id="25702904" version="6" timestamp="2012-01-17T00:42:22Z" uid="147510" user="woodpeck_fixbot" changeset="10412890">
    <nd ref="280227495"/>
    <nd ref="280227496"/>
    <nd ref="280227497"/>
    <tag k="addr:city" v="South Lake"/>
    <tag k="addr:postcode" v="6164"/>
    <tag k="highway" v="residential"/>
    <tag k="name" v="Leatherwood Rise"/>
  </way>
  <way id="25702907" version="3" timestamp="2010-07-09T07:34:46Z" uid="74617" user="JohnSmith" changeset="5171412">
    <nd ref="280227452"/>
    <nd ref="280227567"/>
    <tag k="highway" v="residential"/>
    <tag k="maxspeed" v="50"/>
    <tag k="maxspeed:source" v="default residential speed limit in Australia"/>
  </way>
  <way id="25702907" version="4" timestamp="2010-10-15T05:36:48Z" uid="325087" user="Palitu" changeset="6046295">
    <nd ref="280227452"/>
    <nd ref="280227567"/>
    <tag k="addr:city" v="South Lake"/>
    <tag k="addr:postcode" v="6164"/>
    <tag k="highway" v="residential"/>
    <tag k="maxspeed" v="50"/>
    <tag k="maxspeed:source" v="default residential speed limit in Australia"/>
  </way>
  <way id="25702907" version="5" timestamp="2012-01-17T00:42:23Z" uid="147510" user="woodpeck_fixbot" changeset="10412890">
    <nd ref="280227452"/>
    <nd ref="280227567"/>
    <tag k="addr:city" v="South Lake"/>
    <tag k="addr:postcode" v="6164"/>
    <tag k="highway" v="residential"/>
  </way>
  <way id="25702911" version="3" timestamp="2010-07-09T07:32:30Z" uid="74617" user="JohnSmith" changeset="5171412">
    <nd ref="280227602"/>
    <nd ref="280227603"/>
    <nd ref="280227604"/>
    <tag k="highway" v="residential"/>
    <tag k="maxspeed" v="50"/>
    <tag k="maxspeed:source" v="default residential speed limit in Australia"/>
  </way>
  <way id="25702911" version="4" timestamp="2010-10-15T05:36:56Z" uid="325087" user="Palitu" changeset="6046295">
    <nd ref="280227602"/>
    <nd ref="280227603"/>
    <nd ref="280227604"/>
    <tag k="addr:city" v="South Lake"/>
    <tag k="addr:postcode" v="6164"/>
    <tag k="highway" v="residential"/>
    <tag k="maxspeed" v="50"/>
    <tag k="maxspeed:source" v="default residential speed limit in Australia"/>
  </way>
  <way id="25702911" version="5" timestamp="2012-01-17T00:42:25Z" uid="147510" user="woodpeck_fixbot" changeset="10412890">
    <nd ref="280227602"/>
    <nd ref="280227603"/>
    <nd ref="280227604"/>
    <tag k="addr:city" v="South Lake"/>
    <tag k="addr:postcode" v="6164"/>
    <tag k="highway" v="residential"/>
  </way>
  <way id="25702913" version="3" timestamp="2010-07-09T07:39:29Z" uid="74617" user="JohnSmith" changeset="5171412">
    <nd ref="280226638"/>
    <nd ref="280227686"/>
    <nd ref="280227687"/>
    <tag k="highway" v="residential"/>
    <tag k="maxspeed" v="50"/>
    <tag k="maxspeed:source" v="default residential speed limit in Australia"/>
  </way>
  <way id="25702913" version="4" timestamp="2010-10-15T05:37:01Z" uid="325087" user="Palitu" changeset="6046295">
    <nd ref="280226638"/>
    <nd ref="280227686"/>
    <nd ref="280227687"/>
    <tag k="addr:city" v="South Lake"/>
    <tag k="addr:postcode" v="6164"/>
    <tag k="highway" v="residential"/>
    <tag k="maxspeed" v="50"/>
    <tag k="maxspeed:source" v="default residential speed limit in Australia"/>
  </way>
  <way id="25702913" version="5" timestamp="2011-02-07T07:48:08Z" uid="325087" user="Palitu" changeset="7213187">
    <nd ref="280226638"/>
    <nd ref="280227686"/>
    <nd ref="280227687"/>
    <tag k="addr:city" v="South Lake"/>
    <tag k="addr:postcode" v="6164"/>
    <tag k="highway" v="residential"/>
    <tag k="maxspeed" v="50"/>
    <tag k="maxspeed:source" v="default residential speed limit in Australia"/>
    <tag k="name" v="Bundy Court"/>
  </way>
  <way id="25702913" version="6" timestamp="2012-01-17T00:42:26Z" uid="147510" user="woodpeck_fixbot" changeset="10412890">
    <nd ref="280226638"/>
    <nd ref="280227686"/>
    <nd ref="280227687"/>
    <tag k="addr:city" v="South Lake"/>
    <tag k="addr:postcode" v="6164"/>
    <tag k="highway" v="residential"/>
    <tag k="name" v="Bundy Court"/>
  </way>
  <way id="25702915" version="3" timestamp="2010-07-09T07:31:53Z" uid="74617" user="JohnSmith" changeset="5171412">
    <nd ref="280227700"/>
    <nd ref="280227701"/>
    <nd ref="280227702"/>
    <tag k="highway" v="residential"/>
    <tag k="maxspeed" v="50"/>
    <tag k="maxspeed:source" v="default residential speed limit in Australia"/>
  </way>
  <way id="25702915" version="4" timestamp="2010-10-15T05:36:40Z" uid="325087" user="Palitu" changeset="6046295">
    <nd ref="280227700"/>
    <nd ref="280227701"/>
    <nd ref="280227702"/>
    <tag k="addr:city" v="South Lake"/>
    <tag k="addr:postcode" v="6164"/>
    <tag k="highway" v="residential"/>
    <tag k="maxspeed" v="50"/>
    <tag k="maxspeed:source" v="default residential speed limit in Australia"/>
  </way>
  <way id="25702915" version="5" timestamp="2011-02-07T07:47:49Z" uid="325087" user="Palitu" changeset="7213187">
    <nd ref="280227700"/>
    <nd ref="280227701"/>
    <nd ref="280227702"/>
    <tag k="addr:city" v="South Lake"/>
    <tag k="addr:postcode" v="6164"/>
    <tag k="highway" v="residential"/>
    <tag k="maxspeed" v="50"/>
    <tag k="maxspeed:source" v="default residential speed limit in Australia"/>
    <tag k="name" v="Silkpod Gardens"/>
  </way>
  <way id="25702915" version="6" timestamp="2012-01-17T00:42:28Z" uid="147510" user="woodpeck_fixbot" changeset="10412890">
    <nd ref="280227700"/>
    <nd ref="280227701"/>
    <nd ref="280227702"/>
    <tag k="addr:city" v="South Lake"/>
    <tag k="addr:postcode" v="6164"/>
    <tag k="highway" v="residential"/>
    <tag k="name" v="Silkpod Gardens"/>
  </way>
  <way id="25702918" version="4" timestamp="2010-07-09T07:26:23Z" uid="74617" user="JohnSmith" changeset="5171412">
    <nd ref="280227931"/>
    <nd ref="280227727"/>
    <tag k="highway" v="residential"/>
    <tag k="maxspeed" v="50"/>
    <tag k="maxspeed:source" v="default residential speed limit in Australia"/>
  </way>
  <way id="25702918" version="5" timestamp="2010-10-15T05:36:59Z" uid="325087" user="Palitu" changeset="6046295">
    <nd ref="280227931"/>
    <nd ref="280227727"/>
    <tag k="addr:city" v="South Lake"/>
    <tag k="addr:postcode" v="6164"/>
    <tag k="highway" v="residential"/>
    <tag k="maxspeed" v="50"/>
    <tag k="maxspeed:source" v="default residential speed limit in Australia"/>
  </way>
  <way id="25702918" version="6" timestamp="2011-02-07T07:48:37Z" uid="325087" user="Palitu" changeset="7213187">
    <nd ref="280227931"/>
    <nd ref="280227727"/>
    <tag k="addr:city" v="South Lake"/>
    <tag k="addr:postcode" v="6164"/>
    <tag k="highway" v="residential"/>
    <tag k="maxspeed" v="50"/>
    <tag k="maxspeed:source" v="default residential speed limit in Australia"/>
    <tag k="name" v="Bauera Glen"/>
  </way>
  <way id="25702918" version="7" timestamp="2012-01-17T00:42:30Z" uid="147510" user="woodpeck_fixbot" changeset="10412890">
    <nd ref="280227931"/>
    <nd ref="280227727"/>
    <tag k="addr:city" v="South Lake"/>
    <tag k="addr:postcode" v="6164"/>
    <tag k="highway" v="residential"/>
    <tag k="name" v="Bauera Glen"/>
  </way>
  <way id="25702921" version="3" timestamp="2010-07-09T07:27:30Z" uid="74617" user="JohnSmith" changeset="5171412">
    <nd ref="280226648"/>
    <nd ref="280227746"/>
    <tag k="highway" v="residential"/>
    <tag k="maxspeed" v="50"/>
    <tag k="maxspeed:source" v="default residential speed limit in Australia"/>
  </way>
  <way id="25702921" version="4" timestamp="2010-10-15T05:36:47Z" uid="325087" user="Palitu" changeset="6046295">
    <nd ref="280226648"/>
    <nd ref="280227746"/>
    <tag k="addr:city" v="South Lake"/>
    <tag k="addr:postcode" v="6164"/>
    <tag k="highway" v="residential"/>
    <tag k="maxspeed" v="50"/>
    <tag k="maxspeed:source" v="default residential speed limit in Australia"/>
  </way>
  <way id="25702921" version="5" timestamp="2012-01-17T00:42:33Z" uid="147510" user="woodpeck_fixbot" changeset="10412890">
    <nd ref="280226648"/>
    <nd ref="280227746"/>
    <tag k="addr:city" v="South Lake"/>
    <tag k="addr:postcode" v="6164"/>
    <tag k="highway" v="residential"/>
  </way>
  <way id="25702922" version="3" timestamp="2010-07-09T07:33:10Z" uid="74617" user="JohnSmith" changeset="5171412">
    <nd ref="280227751"/>
    <nd ref="280227753"/>
    <nd ref="280227754"/>
    <nd ref="280227755"/>
    <nd ref="280227760"/>
    <nd ref="280227757"/>
    <nd ref="280227758"/>
    <nd ref="280227759"/>
    <tag k="highway" v="residential"/>
    <tag k="maxspeed" v="50"/>
    <tag k="maxspeed:source" v="default residential speed limit in Australia"/>
  </way>
  <way id="25702922" version="4" timestamp="2010-10-15T05:36:35Z" uid="325087" user="Palitu" changeset="6046295">
    <nd ref="280227751"/>
    <nd ref="280227753"/>
    <nd ref="280227754"/>
    <nd ref="280227755"/>
    <nd ref="280227760"/>
    <nd ref="280227757"/>
    <nd ref="280227758"/>
    <nd ref="280227759"/>
    <tag k="addr:city" v="South Lake"/>
    <tag k="addr:postcode" v="6164"/>
    <tag k="highway" v="residential"/>
    <tag k="maxspeed" v="50"/>
    <tag k="maxspeed:source" v="default residential speed limit in Australia"/>
  </way>
  <way id="25702922" version="5" timestamp="2011-02-07T07:47:38Z" uid="325087" user="Palitu" changeset="7213187">
    <nd ref="280227751"/>
    <nd ref="280227753"/>
    <nd ref="280227754"/>
    <nd ref="280227755"/>
    <nd ref="280227760"/>
    <nd ref="280227757"/>
    <nd ref="280227758"/>
    <nd ref="280227759"/>
    <tag k="addr:city" v="South Lake"/>
    <tag k="addr:postcode" v="6164"/>
    <tag k="highway" v="residential"/>
    <tag k="maxspeed" v="50"/>
    <tag k="maxspeed:source" v="default residential speed limit in Australia"/>
    <tag k="name" v="Nettle Way"/>
  </way>
  <way id="25702922" version="6" timestamp="2012-01-17T00:42:34Z" uid="147510" user="woodpeck_fixbot" changeset="10412890">
    <nd ref="280227751"/>
    <nd ref="280227753"/>
    <nd ref="280227754"/>
    <nd ref="280227755"/>
    <nd ref="280227760"/>
    <nd ref="280227757"/>
    <nd ref="280227758"/>
    <nd ref="280227759"/>
    <tag k="addr:city" v="South Lake"/>
    <tag k="addr:postcode" v="6164"/>
    <tag k="highway" v="residential"/>
    <tag k="name" v="Nettle Way"/>
  </way>
  <way id="25702925" version="3" timestamp="2010-07-09T07:25:33Z" uid="74617" user="JohnSmith" changeset="5171412">
    <nd ref="280227760"/>
    <nd ref="280227761"/>
    <tag k="highway" v="residential"/>
    <tag k="maxspeed" v="50"/>
    <tag k="maxspeed:source" v="default residential speed limit in Australia"/>
  </way>
  <way id="25702925" version="4" timestamp="2010-10-15T05:36:56Z" uid="325087" user="Palitu" changeset="6046295">
    <nd ref="280227760"/>
    <nd ref="280227761"/>
    <tag k="addr:city" v="South Lake"/>
    <tag k="addr:postcode" v="6164"/>
    <tag k="highway" v="residential"/>
    <tag k="maxspeed" v="50"/>
    <tag k="maxspeed:source" v="default residential speed limit in Australia"/>
  </way>
  <way id="25702925" version="5" timestamp="2011-02-07T07:47:55Z" uid="325087" user="Palitu" changeset="7213187">
    <nd ref="280227760"/>
    <nd ref="280227761"/>
    <tag k="addr:city" v="South Lake"/>
    <tag k="addr:postcode" v="6164"/>
    <tag k="highway" v="residential"/>
    <tag k="maxspeed" v="50"/>
    <tag k="maxspeed:source" v="default residential speed limit in Australia"/>
    <tag k="name" v="Mudgee Court"/>
  </way>
  <way id="25702925" version="6" timestamp="2012-01-17T00:42:36Z" uid="147510" user="woodpeck_fixbot" changeset="10412890">
    <nd ref="280227760"/>
    <nd ref="280227761"/>
    <tag k="addr:city" v="South Lake"/>
    <tag k="addr:postcode" v="6164"/>
    <tag k="highway" v="residential"/>
    <tag k="name" v="Mudgee Court"/>
  </way>
  <way id="25702930" version="5" timestamp="2010-07-09T07:39:03Z" uid="74617" user="JohnSmith" changeset="5171412">
    <nd ref="280226654"/>
    <nd ref="280228130"/>
    <nd ref="280227916"/>
    <nd ref="280227759"/>
    <nd ref="280228133"/>
    <nd ref="280228134"/>
    <nd ref="280227920"/>
    <nd ref="280228253"/>
    <nd ref="280227921"/>
    <nd ref="280228254"/>
    <nd ref="280227923"/>
    <nd ref="280227924"/>
    <nd ref="280228255"/>
    <nd ref="280228137"/>
    <nd ref="280227927"/>
    <nd ref="280228138"/>
    <nd ref="280228256"/>
    <nd ref="280227929"/>
    <nd ref="280227930"/>
    <tag k="highway" v="residential"/>
    <tag k="maxspeed" v="50"/>
    <tag k="maxspeed:source" v="default residential speed limit in Australia"/>
  </way>
  <way id="25702930" version="6" timestamp="2010-10-15T05:36:31Z" uid="325087" user="Palitu" changeset="6046295">
    <nd ref="280226654"/>
    <nd ref="280228130"/>
    <nd ref="280227916"/>
    <nd ref="280227759"/>
    <nd ref="280228133"/>
    <nd ref="280228134"/>
    <nd ref="280227920"/>
    <nd ref="280228253"/>
    <nd ref="280227921"/>
    <nd ref="280228254"/>
    <nd ref="280227923"/>
    <nd ref="280227924"/>
    <nd ref="280228255"/>
    <nd ref="280228137"/>
    <nd ref="280227927"/>
    <nd ref="280228138"/>
    <nd ref="280228256"/>
    <nd ref="280227929"/>
    <nd ref="280227930"/>
    <tag k="addr:city" v="South Lake"/>
    <tag k="addr:postcode" v="6164"/>
    <tag k="highway" v="residential"/>
    <tag k="maxspeed" v="50"/>
    <tag k="maxspeed:source" v="default residential speed limit in Australia"/>
  </way>
  <way id="25702930" version="7" timestamp="2011-02-07T07:47:58Z" uid="325087" user="Palitu" changeset="7213187">
    <nd ref="280226654"/>
    <nd ref="280228130"/>
    <nd ref="280227916"/>
    <nd ref="280227759"/>
    <nd ref="280228133"/>
    <nd ref="280228134"/>
    <nd ref="280227920"/>
    <nd ref="280228253"/>
    <nd ref="280227921"/>
    <nd ref="280228254"/>
    <nd ref="280227923"/>
    <nd ref="280227924"/>
    <nd ref="280228255"/>
    <nd ref="280228137"/>
    <nd ref="280227927"/>
    <nd ref="280228138"/>
    <nd ref="280228256"/>
    <nd ref="280227929"/>
    <nd ref="280227930"/>
    <tag k="addr:city" v="South Lake"/>
    <tag k="addr:postcode" v="6164"/>
    <tag k="highway" v="residential"/>
    <tag k="maxspeed" v="50"/>
    <tag k="maxspeed:source" v="default residential speed limit in Australia"/>
    <tag k="name" v="Bloodwood Circle"/>
  </way>
  <way id="25702930" version="8" timestamp="2012-01-17T00:42:38Z" uid="147510" user="woodpeck_fixbot" changeset="10412890">
    <nd ref="280226654"/>
    <nd ref="280228130"/>
    <nd ref="280227916"/>
    <nd ref="280227759"/>
    <nd ref="280228133"/>
    <nd ref="280228134"/>
    <nd ref="280227920"/>
    <nd ref="280228253"/>
    <nd ref="280227921"/>
    <nd ref="280228254"/>
    <nd ref="280227923"/>
    <nd ref="280227924"/>
    <nd ref="280228255"/>
    <nd ref="280228137"/>
    <nd ref="280227927"/>
    <nd ref="280228138"/>
    <nd ref="280228256"/>
    <nd ref="280227929"/>
    <nd ref="280227930"/>
    <tag k="addr:city" v="South Lake"/>
    <tag k="addr:postcode" v="6164"/>
    <tag k="highway" v="residential"/>
    <tag k="name" v="Bloodwood Circle"/>
  </way>
  <way id="25702931" version="3" timestamp="2010-07-09T07:26:05Z" uid="74617" user="JohnSmith" changeset="5171412">
    <nd ref="280227956"/>
    <nd ref="280227957"/>
    <tag k="highway" v="residential"/>
    <tag k="maxspeed" v="50"/>
    <tag k="maxspeed:source" v="default residential speed limit in Australia"/>
  </way>
  <way id="25702931" version="4" timestamp="2010-10-15T05:37:10Z" uid="325087" user="Palitu" changeset="6046295">
    <nd ref="280227956"/>
    <nd ref="280227957"/>
    <tag k="addr:city" v="South Lake"/>
    <tag k="addr:postcode" v="6164"/>
    <tag k="highway" v="residential"/>
    <tag k="maxspeed" v="50"/>
    <tag k="maxspeed:source" v="default residential speed limit in Australia"/>
  </way>
  <way id="25702931" version="5" timestamp="2011-02-07T07:47:41Z" uid="325087" user="Palitu" changeset="7213187">
    <nd ref="280227956"/>
    <nd ref="280227957"/>
    <tag k="addr:city" v="South Lake"/>
    <tag k="addr:postcode" v="6164"/>
    <tag k="highway" v="residential"/>
    <tag k="maxspeed" v="50"/>
    <tag k="maxspeed:source" v="default residential speed limit in Australia"/>
    <tag k="name" v="Manna Ct"/>
  </way>
  <way id="25702931" version="6" timestamp="2011-02-08T15:28:36Z" uid="4467" user="Rosscoe" changeset="7227652">
    <nd ref="280227956"/>
    <nd ref="280227957"/>
    <tag k="addr:city" v="South Lake"/>
    <tag k="addr:postcode" v="6164"/>
    <tag k="highway" v="residential"/>
    <tag k="maxspeed" v="50"/>
    <tag k="maxspeed:source" v="default residential speed limit in Australia"/>
    <tag k="name" v="Manna Court"/>
  </way>
  <way id="25702931" version="7" timestamp="2012-01-17T00:42:40Z" uid="147510" user="woodpeck_fixbot" changeset="10412890">
    <nd ref="280227956"/>
    <nd ref="280227957"/>
    <tag k="addr:city" v="South Lake"/>
    <tag k="addr:postcode" v="6164"/>
    <tag k="highway" v="residential"/>
    <tag k="name" v="Manna Court"/>
  </way>
  <way id="25702933" version="3" timestamp="2010-07-09T07:30:00Z" uid="74617" user="JohnSmith" changeset="5171412">
    <nd ref="280228047"/>
    <nd ref="280228048"/>
    <nd ref="280228049"/>
    <nd ref="280228050"/>
    <tag k="highway" v="residential"/>
    <tag k="maxspeed" v="50"/>
    <tag k="maxspeed:source" v="default residential speed limit in Australia"/>
  </way>
  <way id="25702933" version="4" timestamp="2010-10-15T05:36:51Z" uid="325087" user="Palitu" changeset="6046295">
    <nd ref="280228047"/>
    <nd ref="280228048"/>
    <nd ref="280228049"/>
    <nd ref="280228050"/>
    <tag k="addr:city" v="South Lake"/>
    <tag k="addr:postcode" v="6164"/>
    <tag k="highway" v="residential"/>
    <tag k="maxspeed" v="50"/>
    <tag k="maxspeed:source" v="default residential speed limit in Australia"/>
  </way>
  <way id="25702933" version="5" timestamp="2011-02-07T07:48:31Z" uid="325087" user="Palitu" changeset="7213187">
    <nd ref="280228047"/>
    <nd ref="280228048"/>
    <nd ref="280228049"/>
    <nd ref="280228050"/>
    <tag k="addr:city" v="South Lake"/>
    <tag k="addr:postcode" v="6164"/>
    <tag k="highway" v="residential"/>
    <tag k="maxspeed" v="50"/>
    <tag k="maxspeed:source" v="default residential speed limit in Australia"/>
    <tag k="name" v="Lavelle Rise"/>
  </way>
  <way id="25702933" version="6" timestamp="2012-01-17T00:42:41Z" uid="147510" user="woodpeck_fixbot" changeset="10412890">
    <nd ref="280228047"/>
    <nd ref="280228048"/>
    <nd ref="280228049"/>
    <nd ref="280228050"/>
    <tag k="addr:city" v="South Lake"/>
    <tag k="addr:postcode" v="6164"/>
    <tag k="highway" v="residential"/>
    <tag k="name" v="Lavelle Rise"/>
  </way>
  <way id="25702934" version="3" timestamp="2010-07-09T07:35:39Z" uid="74617" user="JohnSmith" changeset="5171412">
    <nd ref="280228049"/>
    <nd ref="280228121"/>
    <tag k="highway" v="residential"/>
    <tag k="maxspeed" v="50"/>
    <tag k="maxspeed:source" v="default residential speed limit in Australia"/>
  </way>
  <way id="25702934" version="4" timestamp="2010-10-15T05:36:39Z" uid="325087" user="Palitu" changeset="6046295">
    <nd ref="280228049"/>
    <nd ref="280228121"/>
    <tag k="addr:city" v="South Lake"/>
    <tag k="addr:postcode" v="6164"/>
    <tag k="highway" v="residential"/>
    <tag k="maxspeed" v="50"/>
    <tag k="maxspeed:source" v="default residential speed limit in Australia"/>
  </way>
  <way id="25702934" version="5" timestamp="2011-02-07T07:48:11Z" uid="325087" user="Palitu" changeset="7213187">
    <nd ref="280228049"/>
    <nd ref="280228121"/>
    <tag k="addr:city" v="South Lake"/>
    <tag k="addr:postcode" v="6164"/>
    <tag k="highway" v="residential"/>
    <tag k="maxspeed" v="50"/>
    <tag k="maxspeed:source" v="default residential speed limit in Australia"/>
    <tag k="name" v="Poinsettia Grove"/>
  </way>
  <way id="25702934" version="6" timestamp="2012-01-17T00:42:42Z" uid="147510" user="woodpeck_fixbot" changeset="10412890">
    <nd ref="280228049"/>
    <nd ref="280228121"/>
    <tag k="addr:city" v="South Lake"/>
    <tag k="addr:postcode" v="6164"/>
    <tag k="highway" v="residential"/>
    <tag k="name" v="Poinsettia Grove"/>
  </way>
  <way id="25702942" version="3" timestamp="2010-07-09T07:25:00Z" uid="74617" user="JohnSmith" changeset="5171412">
    <nd ref="280228138"/>
    <nd ref="280228250"/>
    <nd ref="280228251"/>
    <tag k="highway" v="residential"/>
    <tag k="maxspeed" v="50"/>
    <tag k="maxspeed:source" v="default residential speed limit in Australia"/>
  </way>
  <way id="25702942" version="4" timestamp="2010-10-15T05:37:13Z" uid="325087" user="Palitu" changeset="6046295">
    <nd ref="280228138"/>
    <nd ref="280228250"/>
    <nd ref="280228251"/>
    <tag k="addr:city" v="South Lake"/>
    <tag k="addr:postcode" v="6164"/>
    <tag k="highway" v="residential"/>
    <tag k="maxspeed" v="50"/>
    <tag k="maxspeed:source" v="default residential speed limit in Australia"/>
  </way>
  <way id="25702942" version="5" timestamp="2011-02-07T07:47:47Z" uid="325087" user="Palitu" changeset="7213187">
    <nd ref="280228138"/>
    <nd ref="280228250"/>
    <nd ref="280228251"/>
    <tag k="addr:city" v="South Lake"/>
    <tag k="addr:postcode" v="6164"/>
    <tag k="highway" v="residential"/>
    <tag k="maxspeed" v="50"/>
    <tag k="maxspeed:source" v="default residential speed limit in Australia"/>
    <tag k="name" v="Pavonia Heights"/>
  </way>
  <way id="25702942" version="6" timestamp="2012-01-17T00:42:44Z" uid="147510" user="woodpeck_fixbot" changeset="10412890">
    <nd ref="280228138"/>
    <nd ref="280228250"/>
    <nd ref="280228251"/>
    <tag k="addr:city" v="South Lake"/>
    <tag k="addr:postcode" v="6164"/>
    <tag k="highway" v="residential"/>
    <tag k="name" v="Pavonia Heights"/>
  </way>
  <way id="25702979" version="3" timestamp="2010-07-09T07:24:54Z" uid="74617" user="JohnSmith" changeset="5171412">
    <nd ref="280228253"/>
    <nd ref="280228365"/>
    <nd ref="280228366"/>
    <nd ref="280228367"/>
    <nd ref="280228368"/>
    <nd ref="280228369"/>
    <tag k="highway" v="residential"/>
    <tag k="maxspeed" v="50"/>
    <tag k="maxspeed:source" v="default residential speed limit in Australia"/>
  </way>
  <way id="25702979" version="4" timestamp="2010-10-15T05:37:07Z" uid="325087" user="Palitu" changeset="6046295">
    <nd ref="280228253"/>
    <nd ref="280228365"/>
    <nd ref="280228366"/>
    <nd ref="280228367"/>
    <nd ref="280228368"/>
    <nd ref="280228369"/>
    <tag k="addr:city" v="South Lake"/>
    <tag k="addr:postcode" v="6164"/>
    <tag k="highway" v="residential"/>
    <tag k="maxspeed" v="50"/>
    <tag k="maxspeed:source" v="default residential speed limit in Australia"/>
  </way>
  <way id="25702979" version="5" timestamp="2012-01-17T00:42:45Z" uid="147510" user="woodpeck_fixbot" changeset="10412890">
    <nd ref="280228253"/>
    <nd ref="280228365"/>
    <nd ref="280228366"/>
    <nd ref="280228367"/>
    <nd ref="280228368"/>
    <nd ref="280228369"/>
    <tag k="addr:city" v="South Lake"/>
    <tag k="addr:postcode" v="6164"/>
    <tag k="highway" v="residential"/>
  </way>
  <way id="25702980" version="4" timestamp="2010-07-09T07:26:02Z" uid="74617" user="JohnSmith" changeset="5171412">
    <nd ref="280228366"/>
    <nd ref="280228371"/>
    <tag k="highway" v="residential"/>
    <tag k="maxspeed" v="50"/>
    <tag k="maxspeed:source" v="default residential speed limit in Australia"/>
  </way>
  <way id="25702980" version="5" timestamp="2010-10-15T05:36:58Z" uid="325087" user="Palitu" changeset="6046295">
    <nd ref="280228366"/>
    <nd ref="280228371"/>
    <tag k="addr:city" v="South Lake"/>
    <tag k="addr:postcode" v="6164"/>
    <tag k="highway" v="residential"/>
    <tag k="maxspeed" v="50"/>
    <tag k="maxspeed:source" v="default residential speed limit in Australia"/>
  </way>
  <way id="25702980" version="6" timestamp="2012-01-17T00:42:46Z" uid="147510" user="woodpeck_fixbot" changeset="10412890">
    <nd ref="280228366"/>
    <nd ref="280228371"/>
    <tag k="addr:city" v="South Lake"/>
    <tag k="addr:postcode" v="6164"/>
    <tag k="highway" v="residential"/>
  </way>
  <way id="25702982" version="3" timestamp="2010-07-09T07:34:29Z" uid="74617" user="JohnSmith" changeset="5171412">
    <nd ref="280227924"/>
    <nd ref="280228390"/>
    <nd ref="280228391"/>
    <tag k="highway" v="residential"/>
    <tag k="maxspeed" v="50"/>
    <tag k="maxspeed:source" v="default residential speed limit in Australia"/>
  </way>
  <way id="25702982" version="4" timestamp="2010-10-15T05:36:36Z" uid="325087" user="Palitu" changeset="6046295">
    <nd ref="280227924"/>
    <nd ref="280228390"/>
    <nd ref="280228391"/>
    <tag k="addr:city" v="South Lake"/>
    <tag k="addr:postcode" v="6164"/>
    <tag k="highway" v="residential"/>
    <tag k="maxspeed" v="50"/>
    <tag k="maxspeed:source" v="default residential speed limit in Australia"/>
  </way>
  <way id="25702982" version="5" timestamp="2012-01-17T00:42:48Z" uid="147510" user="woodpeck_fixbot" changeset="10412890">
    <nd ref="280227924"/>
    <nd ref="280228390"/>
    <nd ref="280228391"/>
    <tag k="addr:city" v="South Lake"/>
    <tag k="addr:postcode" v="6164"/>
    <tag k="highway" v="residential"/>
  </way>
  <way id="25702983" version="3" timestamp="2010-07-09T07:38:59Z" uid="74617" user="JohnSmith" changeset="5171412">
    <nd ref="280228393"/>
    <nd ref="280228422"/>
    <nd ref="280228423"/>
    <nd ref="280228424"/>
    <nd ref="280228425"/>
    <tag k="highway" v="residential"/>
    <tag k="maxspeed" v="50"/>
    <tag k="maxspeed:source" v="default residential speed limit in Australia"/>
  </way>
  <way id="25702983" version="4" timestamp="2010-10-15T05:37:14Z" uid="325087" user="Palitu" changeset="6046295">
    <nd ref="280228393"/>
    <nd ref="280228422"/>
    <nd ref="280228423"/>
    <nd ref="280228424"/>
    <nd ref="280228425"/>
    <tag k="addr:city" v="South Lake"/>
    <tag k="addr:postcode" v="6164"/>
    <tag k="highway" v="residential"/>
    <tag k="maxspeed" v="50"/>
    <tag k="maxspeed:source" v="default residential speed limit in Australia"/>
  </way>
  <way id="25702983" version="5" timestamp="2011-02-07T07:48:48Z" uid="325087" user="Palitu" changeset="7213187">
    <nd ref="280228393"/>
    <nd ref="280228422"/>
    <nd ref="280228423"/>
    <nd ref="280228424"/>
    <nd ref="280228425"/>
    <tag k="addr:city" v="South Lake"/>
    <tag k="addr:postcode" v="6164"/>
    <tag k="highway" v="residential"/>
    <tag k="maxspeed" v="50"/>
    <tag k="maxspeed:source" v="default residential speed limit in Australia"/>
    <tag k="name" v="Ploughshare Place"/>
  </way>
  <way id="25702983" version="6" timestamp="2012-01-17T00:42:49Z" uid="147510" user="woodpeck_fixbot" changeset="10412890">
    <nd ref="280228393"/>
    <nd ref="280228422"/>
    <nd ref="280228423"/>
    <nd ref="280228424"/>
    <nd ref="280228425"/>
    <tag k="addr:city" v="South Lake"/>
    <tag k="addr:postcode" v="6164"/>
    <tag k="highway" v="residential"/>
    <tag k="name" v="Ploughshare Place"/>
  </way>
</osm>
