<?xml version='1.0' encoding='UTF-8'?>
<osm version="0.6" generator="libosmium/2.20.0">
  <way id="25703004" version="2" timestamp="2010-05-02T06:11:42Z" uid="242497" user="cvl" changeset="4581339">
    <nd ref="280228716"/>
    <nd ref="280228717"/>
    <nd ref="280228718"/>
    <nd ref="280228719"/>
    <nd ref="280228720"/>
    <nd ref="280228721"/>
    <nd ref="280228722"/>
    <nd ref="280228723"/>
    <nd ref="280228725"/>
    <nd ref="280228726"/>
    <nd ref="280228727"/>
    <nd ref="280228728"/>
    <nd ref="280228729"/>
    <nd ref="280228730"/>
    <nd ref="280228731"/>
    <nd ref="280228716"/>
    <tag k="leisure" v="park"/>
  </way>
  <way id="25703006" version="6" timestamp="2009-02-23T12:12:08Z" uid="34428" user="usm78-gis" changeset="634299"/>
  <way id="25703009" version="3" timestamp="2008-07-22T23:08:32Z" uid="34428" user="usm78-gis" changeset="573858">
    <nd ref="27018550"/>
    <nd ref="280228962"/>
    <nd ref="280231704"/>
    <nd ref="280228964"/>
    <nd ref="280367654"/>
    <tag k="created_by" v="Potlatch 0.10"/>
    <tag k="highway" v="unclassified"/>
  </way>
  <way id="25703009" version="4" timestamp="2008-08-13T09:48:37Z" uid="52583" user="Bedouin" changeset="218973">
    <nd ref="27018550"/>
    <nd ref="280228962"/>
    <nd ref="280231704"/>
    <nd ref="280228964"/>
    <nd ref="280367654"/>
    <tag k="created_by" v="Potlatch 0.10b"/>
    <tag k="highway" v="unclassified"/>
  </way>
  <way id="25703009" version="5" timestamp="2008-08-13T09:50:20Z" uid="52583" user="Bedouin" changeset="218973">
    <nd ref="27018550"/>
    <nd ref="280228962"/>
    <nd ref="280231704"/>
    <nd ref="280228964"/>
    <nd ref="280367654"/>
    <tag k="created_by" v="Potlatch 0.10b"/>
    <tag k="highway" v="unclassified"/>
  </way>
  <way id="25703009" version="6" timestamp="2008-08-13T09:50:40Z" uid="52583" user="Bedouin" changeset="218973">
    <nd ref="27018550"/>
    <nd ref="287554260"/>
    <nd ref="280228962"/>
    <nd ref="280231704"/>
    <nd ref="280228964"/>
    <nd ref="280367654"/>
    <tag k="created_by" v="Potlatch 0.10b"/>
    <tag k="highway" v="unclassified"/>
  </way>
  <way id="25703009" version="7" timestamp="2008-08-13T09:50:53Z" uid="52583" user="Bedouin" changeset="218973">
    <nd ref="27018550"/>
    <nd ref="287554260"/>
    <nd ref="280228962"/>
    <nd ref="280231704"/>
    <nd ref="280228964"/>
    <nd ref="280367654"/>
    <tag k="created_by" v="Potlatch 0.10b"/>
    <tag k="highway" v="secondary"/>
  </way>
  <way id="25703009" version="8" timestamp="2008-08-13T09:51:24Z" uid="52583" user="Bedouin" changeset="218973">
    <nd ref="27018550"/>
    <nd ref="287554260"/>
    <nd ref="280228962"/>
    <nd ref="280231704"/>
    <nd ref="280228964"/>
    <nd ref="280367654"/>
    <tag k="created_by" v="Potlatch 0.10b"/>
    <tag k="highway" v="primary"/>
  </way>
  <way id="25703009" version="9" timestamp="2008-08-18T13:05:32Z" uid="52583" user="Bedouin" changeset="315420">
    <nd ref="27018550"/>
    <nd ref="287554260"/>
    <nd ref="280228962"/>
    <nd ref="280231704"/>
    <nd ref="280228964"/>
    <nd ref="280367654"/>
    <tag k="created_by" v="Potlatch 0.10b"/>
    <tag k="highway" v="secondary"/>
  </way>
  <way id="25703009" version="10" timestamp="2008-08-18T13:28:46Z" uid="52583" user="Bedouin" changeset="315420"/>
  <way id="25703013" version="5" timestamp="2010-07-09T07:32:26Z" uid="74617" user="JohnSmith" changeset="5171412">
    <nd ref="280229007"/>
    <nd ref="280229008"/>
    <nd ref="280235519"/>
    <nd ref="280235602"/>
    <nd ref="280229010"/>
    <nd ref="280235524"/>
    <nd ref="280235444"/>
    <nd ref="280235445"/>
    <nd ref="280229012"/>
    <nd ref="280229013"/>
    <tag k="highway" v="residential"/>
    <tag k="maxspeed" v="50"/>
    <tag k="maxspeed:source" v="default residential speed limit in Australia"/>
  </way>
  <way id="25703013" version="6" timestamp="2010-10-15T05:36:34Z" uid="325087" user="Palitu" changeset="6046295">
    <nd ref="280229007"/>
    <nd ref="280229008"/>
    <nd ref="280235519"/>
    <nd ref="280235602"/>
    <nd ref="280229010"/>
    <nd ref="280235524"/>
    <nd ref="280235444"/>
    <nd ref="280235445"/>
    <nd ref="280229012"/>
    <nd ref="280229013"/>
    <tag k="addr:city" v="South Lake"/>
    <tag k="addr:postcode" v="6164"/>
    <tag k="highway" v="residential"/>
    <tag k="maxspeed" v="50"/>
    <tag k="maxspeed:source" v="default residential speed limit in Australia"/>
  </way>
  <way id="25703013" version="7" timestamp="2011-02-07T07:47:31Z" uid="325087" user="Palitu" changeset="7213187">
    <nd ref="280229007"/>
    <nd ref="280229008"/>
    <nd ref="280235519"/>
    <nd ref="280235602"/>
    <nd ref="280229010"/>
    <nd ref="280235524"/>
    <nd ref="280235444"/>
    <nd ref="280235445"/>
    <nd ref="280229012"/>
    <nd ref="280229013"/>
    <tag k="addr:city" v="South Lake"/>
    <tag k="addr:postcode" v="6164"/>
    <tag k="highway" v="residential"/>
    <tag k="maxspeed" v="50"/>
    <tag k="maxspeed:source" v="default residential speed limit in Australia"/>
    <tag k="name" v="Whitlock Crescent"/>
  </way>
  <way id="25703013" version="8" timestamp="2012-01-17T00:42:52Z" uid="147510" user="woodpeck_fixbot" changeset="10412890">
    <nd ref="280229007"/>
    <nd ref="280229008"/>
    <nd ref="280235519"/>
    <nd ref="280235602"/>
    <nd ref="280229010"/>
    <nd ref="280235524"/>
    <nd ref="280235444"/>
    <nd ref="280235445"/>
    <nd ref="280229012"/>
    <nd ref="280229013"/>
    <tag k="addr:city" v="South Lake"/>
    <tag k="addr:postcode" v="6164"/>
    <tag k="highway" v="residential"/>
    <tag k="name" v="Whitlock Crescent"/>
  </way>
  <way id="25703016" version="2" timestamp="2008-07-22T23:06:49Z" uid="34428" user="usm78-gis" changeset="573858"/>
  <way id="25703024" version="3" timestamp="2009-11-03T13:24:18Z" uid="36809" user="pfoten_weg_!_" changeset="3023908">
    <nd ref="280229123"/>
    <nd ref="280229180"/>
    <nd ref="280229197"/>
    <nd ref="280229182"/>
    <nd ref="280229198"/>
    <nd ref="254709660"/>
    <tag k="highway" v="primary"/>
    <tag k="oneway" v="yes"/>
    <tag k="ref" v="10"/>
  </way>
  <way id="25703024" version="4" timestamp="2009-12-18T15:07:55Z" uid="30632" user="antblant" changeset="3401090">
    <nd ref="280229123"/>
    <nd ref="280229180"/>
    <nd ref="280229197"/>
    <nd ref="280229182"/>
    <nd ref="280229198"/>
    <nd ref="595680073"/>
    <nd ref="254709660"/>
    <tag k="highway" v="primary"/>
    <tag k="oneway" v="yes"/>
    <tag k="ref" v="10"/>
  </way>
  <way id="25703024" version="5" timestamp="2009-12-21T16:14:58Z" uid="103749" user="Pawlik9" changeset="3421370">
    <nd ref="280229123"/>
    <nd ref="280229180"/>
    <nd ref="280229197"/>
    <nd ref="280229182"/>
    <nd ref="280229198"/>
    <tag k="highway" v="primary_link"/>
    <tag k="oneway" v="yes"/>
    <tag k="ref" v="10"/>
  </way>
  <way id="25703024" version="6" timestamp="2009-12-21T19:27:08Z" uid="30632" user="antblant" changeset="3422418">
    <nd ref="280229123"/>
    <nd ref="280229180"/>
    <nd ref="280229197"/>
    <nd ref="280229182"/>
    <nd ref="280229198"/>
    <tag k="highway" v="tertiary"/>
    <tag k="oneway" v="yes"/>
  </way>
  <way id="25703024" version="7" timestamp="2011-06-24T19:08:50Z" uid="338064" user="bombka190" changeset="8535946">
    <nd ref="280229123"/>
    <nd ref="280229180"/>
    <nd ref="280229197"/>
    <nd ref="280229182"/>
    <nd ref="280229198"/>
    <tag k="highway" v="trunk_link"/>
    <tag k="oneway" v="yes"/>
  </way>
  <way id="25703026" version="2" timestamp="2008-10-01T19:21:52Z" uid="30632" user="antblant" changeset="12463">
    <nd ref="254709660"/>
    <nd ref="254709664"/>
    <nd ref="254710069"/>
    <nd ref="254710071"/>
    <nd ref="254710066"/>
    <nd ref="254710068"/>
    <nd ref="254710079"/>
    <nd ref="254710082"/>
    <nd ref="254710073"/>
    <nd ref="254710075"/>
    <nd ref="254710054"/>
    <nd ref="254710056"/>
    <nd ref="254710050"/>
    <nd ref="254710052"/>
    <nd ref="254710062"/>
    <nd ref="301446513"/>
    <nd ref="254710064"/>
    <nd ref="254710057"/>
    <nd ref="254710059"/>
    <nd ref="254710112"/>
    <nd ref="254710115"/>
    <nd ref="254710107"/>
    <nd ref="254710109"/>
    <nd ref="254696816"/>
    <nd ref="254710109"/>
    <tag k="created_by" v="Potlatch 0.10c"/>
    <tag k="highway" v="primary"/>
    <tag k="ref" v="10"/>
    <tag k="source" v="UMP-PL, ./UMP-Szczecin/src/inne.ulice.txt"/>
  </way>
  <way id="25703026" version="3" timestamp="2008-10-01T19:28:37Z" uid="30632" user="antblant" changeset="12463">
    <nd ref="254709660"/>
    <nd ref="254709664"/>
    <nd ref="254710069"/>
    <nd ref="254710071"/>
    <nd ref="254710066"/>
    <nd ref="254710068"/>
    <nd ref="254710079"/>
    <nd ref="254710082"/>
    <nd ref="254710073"/>
    <nd ref="254710075"/>
    <nd ref="254710054"/>
    <nd ref="254710056"/>
    <nd ref="254710050"/>
    <nd ref="254710052"/>
    <nd ref="254710062"/>
    <nd ref="301446513"/>
    <nd ref="254710064"/>
    <nd ref="254710057"/>
    <nd ref="254710059"/>
    <nd ref="254710112"/>
    <nd ref="254710115"/>
    <nd ref="254710107"/>
    <nd ref="254710109"/>
    <tag k="created_by" v="Potlatch 0.10c"/>
    <tag k="highway" v="primary"/>
    <tag k="ref" v="10"/>
    <tag k="source" v="UMP-PL, ./UMP-Szczecin/src/inne.ulice.txt"/>
  </way>
  <way id="25703026" version="4" timestamp="2008-10-01T19:29:09Z" uid="30632" user="antblant" changeset="12463">
    <nd ref="254709660"/>
    <nd ref="254709664"/>
    <nd ref="254710069"/>
    <nd ref="254710071"/>
    <nd ref="254710066"/>
    <nd ref="254710068"/>
    <nd ref="254710079"/>
    <nd ref="254710082"/>
    <nd ref="254710073"/>
    <nd ref="254710075"/>
    <nd ref="254710054"/>
    <nd ref="254710056"/>
    <nd ref="254710050"/>
    <nd ref="254710052"/>
    <nd ref="254710062"/>
    <nd ref="301446513"/>
    <tag k="created_by" v="Potlatch 0.10c"/>
    <tag k="highway" v="primary"/>
    <tag k="ref" v="10"/>
    <tag k="source" v="UMP-PL, ./UMP-Szczecin/src/inne.ulice.txt"/>
  </way>
  <way id="25703026" version="5" timestamp="2009-11-03T15:15:45Z" uid="36809" user="pfoten_weg_!_" changeset="3025069">
    <nd ref="254709660"/>
    <nd ref="254709664"/>
    <nd ref="254710069"/>
    <nd ref="254710071"/>
    <nd ref="254710066"/>
    <nd ref="254710068"/>
    <nd ref="254710079"/>
    <nd ref="254710082"/>
    <nd ref="254710073"/>
    <nd ref="254710075"/>
    <nd ref="254710054"/>
    <nd ref="254710056"/>
    <nd ref="254710050"/>
    <nd ref="254710052"/>
    <nd ref="254710062"/>
    <nd ref="301446513"/>
    <tag k="highway" v="primary"/>
    <tag k="ref" v="10"/>
    <tag k="source" v="UMP-PL, ./UMP-Szczecin/src/inne.ulice.txt"/>
  </way>
  <way id="25703026" version="6" timestamp="2011-01-05T22:24:11Z" uid="30632" user="antblant" changeset="6877102">
    <nd ref="254709664"/>
    <nd ref="254710069"/>
    <nd ref="254710071"/>
    <nd ref="254710066"/>
    <nd ref="254710068"/>
    <nd ref="254710079"/>
    <nd ref="254710082"/>
    <nd ref="254710073"/>
    <nd ref="254710075"/>
    <nd ref="254710054"/>
    <nd ref="254710056"/>
    <nd ref="254710050"/>
    <nd ref="254710052"/>
    <nd ref="254710062"/>
    <nd ref="301446513"/>
    <tag k="highway" v="primary"/>
    <tag k="ref" v="10"/>
    <tag k="source" v="UMP-PL, ./UMP-Szczecin/src/inne.ulice.txt"/>
  </way>
  <way id="25703026" version="7" timestamp="2011-06-26T19:13:22Z" uid="383893" user="Diddy2010" changeset="8555240">
    <nd ref="254709664"/>
    <nd ref="254710069"/>
    <nd ref="254710071"/>
    <nd ref="254710066"/>
    <nd ref="254710068"/>
    <nd ref="254710079"/>
    <nd ref="254710082"/>
    <nd ref="254710073"/>
    <nd ref="254710075"/>
    <nd ref="254710054"/>
    <nd ref="254710056"/>
    <nd ref="254710050"/>
    <nd ref="254710052"/>
    <nd ref="254710062"/>
    <nd ref="301446513"/>
    <tag k="highway" v="trunk"/>
    <tag k="ref" v="S10"/>
    <tag k="source" v="GDDKiA"/>
  </way>
  <way id="25703028" version="9" timestamp="2009-04-10T14:07:53Z" uid="30632" user="antblant" changeset="372340">
    <nd ref="254709660"/>
    <nd ref="254709670"/>
    <nd ref="254709666"/>
    <nd ref="254709655"/>
    <tag k="created_by" v="Potlatch 0.10f"/>
    <tag k="highway" v="primary"/>
    <tag k="oneway" v="yes"/>
    <tag k="ref" v="10"/>
  </way>
  <way id="25703028" version="10" timestamp="2009-11-03T13:24:23Z" uid="36809" user="pfoten_weg_!_" changeset="3023908">
    <nd ref="254709660"/>
    <nd ref="254709670"/>
    <nd ref="254709666"/>
    <nd ref="254709655"/>
    <tag k="highway" v="primary"/>
    <tag k="oneway" v="yes"/>
    <tag k="ref" v="10"/>
  </way>
  <way id="25703028" version="11" timestamp="2009-12-18T15:07:57Z" uid="30632" user="antblant" changeset="3401090">
    <nd ref="254709660"/>
    <nd ref="595680074"/>
    <nd ref="254709670"/>
    <nd ref="254709666"/>
    <nd ref="254709655"/>
    <tag k="highway" v="primary"/>
    <tag k="oneway" v="yes"/>
    <tag k="ref" v="10"/>
  </way>
  <way id="25703028" version="12" timestamp="2009-12-21T16:15:06Z" uid="103749" user="Pawlik9" changeset="3421370"/>
  <way id="25703050" version="3" timestamp="2010-04-07T12:44:02Z" uid="20587" user="balrog-kun" changeset="4353646">
    <nd ref="280229552"/>
    <nd ref="152581097"/>
    <tag k="bridge" v="yes"/>
    <tag k="created_by" v="Potlatch 0.10"/>
    <tag k="highway" v="residential"/>
    <tag k="name" v="West 32nd Street"/>
    <tag k="tiger:cfcc" v="A41"/>
    <tag k="tiger:county" v="Travis, TX"/>
    <tag k="tiger:name_base" v="32nd"/>
    <tag k="tiger:name_direction_prefix" v="W"/>
    <tag k="tiger:name_type" v="St"/>
    <tag k="tiger:reviewed" v="no"/>
    <tag k="tiger:separated" v="no"/>
    <tag k="tiger:source" v="tiger_import_dch_v0.6_20070830"/>
    <tag k="tiger:tlid" v="63945452:63945454:63945661:63945464:64019131:64019132"/>
    <tag k="tiger:zip_left" v="78705"/>
    <tag k="tiger:zip_right" v="78705"/>
  </way>
  <way id="25703050" version="4" timestamp="2011-08-21T20:39:37Z" uid="119881" user="Clorox" changeset="9088622">
    <nd ref="280229552"/>
    <nd ref="152581097"/>
    <tag k="bridge" v="yes"/>
    <tag k="highway" v="residential"/>
    <tag k="layer" v="1"/>
    <tag k="name" v="West 32nd Street"/>
    <tag k="tiger:cfcc" v="A41"/>
    <tag k="tiger:county" v="Travis, TX"/>
    <tag k="tiger:name_base" v="32nd"/>
    <tag k="tiger:name_direction_prefix" v="W"/>
    <tag k="tiger:name_type" v="St"/>
    <tag k="tiger:reviewed" v="no"/>
    <tag k="tiger:separated" v="no"/>
    <tag k="tiger:source" v="tiger_import_dch_v0.6_20070830"/>
    <tag k="tiger:tlid" v="63945452:63945454:63945661:63945464:64019131:64019132"/>
    <tag k="tiger:zip_left" v="78705"/>
    <tag k="tiger:zip_right" v="78705"/>
  </way>
  <way id="25703051" version="2" timestamp="2010-04-07T12:44:03Z" uid="20587" user="balrog-kun" changeset="4353646">
    <nd ref="152581097"/>
    <nd ref="152461296"/>
    <nd ref="152581100"/>
    <nd ref="152456702"/>
    <tag k="created_by" v="Potlatch 0.10"/>
    <tag k="highway" v="residential"/>
    <tag k="name" v="West 32nd Street"/>
    <tag k="tiger:cfcc" v="A41"/>
    <tag k="tiger:county" v="Travis, TX"/>
    <tag k="tiger:name_base" v="32nd"/>
    <tag k="tiger:name_direction_prefix" v="W"/>
    <tag k="tiger:name_type" v="St"/>
    <tag k="tiger:reviewed" v="no"/>
    <tag k="tiger:separated" v="no"/>
    <tag k="tiger:source" v="tiger_import_dch_v0.6_20070830"/>
    <tag k="tiger:tlid" v="63945452:63945454:63945661:63945464:64019131:64019132"/>
    <tag k="tiger:zip_left" v="78705"/>
    <tag k="tiger:zip_right" v="78705"/>
  </way>
  <way id="25703051" version="3" timestamp="2012-01-31T22:26:47Z" uid="92286" user="Paul Johnson" changeset="10551674">
    <nd ref="152581097"/>
    <nd ref="152461296"/>
    <nd ref="152581100"/>
    <nd ref="152456702"/>
    <tag k="highway" v="residential"/>
    <tag k="name" v="West 32nd Street"/>
    <tag k="odbl" v="clean"/>
    <tag k="tiger:cfcc" v="A41"/>
    <tag k="tiger:county" v="Travis, TX"/>
    <tag k="tiger:name_base" v="32nd"/>
    <tag k="tiger:name_direction_prefix" v="W"/>
    <tag k="tiger:name_type" v="St"/>
    <tag k="tiger:reviewed" v="no"/>
    <tag k="tiger:separated" v="no"/>
    <tag k="tiger:source" v="tiger_import_dch_v0.6_20070830"/>
    <tag k="tiger:tlid" v="63945452:63945454:63945661:63945464:64019131:64019132"/>
    <tag k="tiger:zip_left" v="78705"/>
    <tag k="tiger:zip_right" v="78705"/>
  </way>
  <way id="25703052" version="2" timestamp="2010-04-07T12:44:03Z" uid="20587" user="balrog-kun" changeset="4353646">
    <nd ref="152612630"/>
    <nd ref="152461287"/>
    <nd ref="152612633"/>
    <nd ref="152612636"/>
    <nd ref="152612638"/>
    <nd ref="152581100"/>
    <tag k="created_by" v="Potlatch 0.10"/>
    <tag k="highway" v="residential"/>
    <tag k="name" v="Wheeler Street"/>
    <tag k="tiger:cfcc" v="A41"/>
    <tag k="tiger:county" v="Travis, TX"/>
    <tag k="tiger:name_base" v="Wheeler"/>
    <tag k="tiger:name_type" v="St"/>
    <tag k="tiger:reviewed" v="no"/>
    <tag k="tiger:separated" v="no"/>
    <tag k="tiger:source" v="tiger_import_dch_v0.6_20070830"/>
    <tag k="tiger:tlid" v="63945455:64019135:64019136"/>
    <tag k="tiger:zip_left" v="78705"/>
    <tag k="tiger:zip_right" v="78705"/>
  </way>
  <way id="25703052" version="3" timestamp="2011-08-14T04:16:56Z" uid="119881" user="Clorox" changeset="9011533">
    <nd ref="152612630"/>
    <nd ref="152461287"/>
    <nd ref="1398069740"/>
    <nd ref="152612633"/>
    <nd ref="152612636"/>
    <nd ref="152612638"/>
    <nd ref="1398069787"/>
    <nd ref="152581100"/>
    <tag k="highway" v="residential"/>
    <tag k="name" v="Wheeler Street"/>
    <tag k="tiger:cfcc" v="A41"/>
    <tag k="tiger:county" v="Travis, TX"/>
    <tag k="tiger:name_base" v="Wheeler"/>
    <tag k="tiger:name_type" v="St"/>
    <tag k="tiger:reviewed" v="no"/>
    <tag k="tiger:separated" v="no"/>
    <tag k="tiger:source" v="tiger_import_dch_v0.6_20070830"/>
    <tag k="tiger:tlid" v="63945455:64019135:64019136"/>
    <tag k="tiger:zip_left" v="78705"/>
    <tag k="tiger:zip_right" v="78705"/>
  </way>
  <way id="25703052" version="4" timestamp="2011-08-14T04:39:37Z" uid="119881" user="Clorox" changeset="9011579">
    <nd ref="152612630"/>
    <nd ref="152461287"/>
    <nd ref="1398069740"/>
    <nd ref="1398079793"/>
    <nd ref="1398079792"/>
    <nd ref="152612633"/>
    <nd ref="1398079791"/>
    <nd ref="1398079790"/>
    <nd ref="152612636"/>
    <nd ref="1398079789"/>
    <nd ref="1398079787"/>
    <nd ref="1398079788"/>
    <nd ref="152612638"/>
    <nd ref="1398079786"/>
    <nd ref="1398069787"/>
    <nd ref="152581100"/>
    <tag k="highway" v="residential"/>
    <tag k="name" v="Wheeler Street"/>
    <tag k="tiger:cfcc" v="A41"/>
    <tag k="tiger:county" v="Travis, TX"/>
    <tag k="tiger:name_base" v="Wheeler"/>
    <tag k="tiger:name_type" v="St"/>
    <tag k="tiger:reviewed" v="no"/>
    <tag k="tiger:separated" v="no"/>
    <tag k="tiger:source" v="tiger_import_dch_v0.6_20070830"/>
    <tag k="tiger:tlid" v="63945455:64019135:64019136"/>
    <tag k="tiger:zip_left" v="78705"/>
    <tag k="tiger:zip_right" v="78705"/>
  </way>
  <way id="25703053" version="3" timestamp="2010-04-07T12:44:03Z" uid="20587" user="balrog-kun" changeset="4353646">
    <nd ref="280229553"/>
    <nd ref="152612630"/>
    <tag k="bridge" v="yes"/>
    <tag k="created_by" v="Potlatch 0.10"/>
    <tag k="highway" v="residential"/>
    <tag k="name" v="Wheeler Street"/>
    <tag k="tiger:cfcc" v="A41"/>
    <tag k="tiger:county" v="Travis, TX"/>
    <tag k="tiger:name_base" v="Wheeler"/>
    <tag k="tiger:name_type" v="St"/>
    <tag k="tiger:reviewed" v="no"/>
    <tag k="tiger:separated" v="no"/>
    <tag k="tiger:source" v="tiger_import_dch_v0.6_20070830"/>
    <tag k="tiger:tlid" v="63945455:64019135:64019136"/>
    <tag k="tiger:zip_left" v="78705"/>
    <tag k="tiger:zip_right" v="78705"/>
  </way>
  <way id="25703053" version="4" timestamp="2011-08-16T18:35:03Z" uid="119881" user="Clorox" changeset="9039628">
    <nd ref="280229553"/>
    <nd ref="152612630"/>
    <tag k="bridge" v="yes"/>
    <tag k="highway" v="residential"/>
    <tag k="layer" v="1"/>
    <tag k="name" v="Wheeler Street"/>
    <tag k="tiger:cfcc" v="A41"/>
    <tag k="tiger:county" v="Travis, TX"/>
    <tag k="tiger:name_base" v="Wheeler"/>
    <tag k="tiger:name_type" v="St"/>
    <tag k="tiger:reviewed" v="no"/>
    <tag k="tiger:separated" v="no"/>
    <tag k="tiger:source" v="tiger_import_dch_v0.6_20070830"/>
    <tag k="tiger:tlid" v="63945455:64019135:64019136"/>
    <tag k="tiger:zip_left" v="78705"/>
    <tag k="tiger:zip_right" v="78705"/>
  </way>
  <way id="25703061" version="5" timestamp="2009-09-22T02:37:11Z" uid="68769" user="david lynch" changeset="2564072">
    <nd ref="280230030"/>
    <nd ref="280229944"/>
    <nd ref="152467469"/>
    <nd ref="504850470"/>
    <nd ref="152461283"/>
    <nd ref="152467472"/>
    <nd ref="280230168"/>
    <tag k="highway" v="residential"/>
    <tag k="name" v="East Dr"/>
    <tag k="oneway" v="yes"/>
    <tag k="tiger:cfcc" v="A41"/>
    <tag k="tiger:county" v="Travis, TX"/>
    <tag k="tiger:name_base" v="East"/>
    <tag k="tiger:name_type" v="Dr"/>
    <tag k="tiger:reviewed" v="no"/>
    <tag k="tiger:separated" v="no"/>
    <tag k="tiger:source" v="tiger_import_dch_v0.6_20070830"/>
    <tag k="tiger:tlid" v="63945634:63945637:63945643"/>
    <tag k="tiger:upload_uuid" v="bulk_upload.pl-d2be3ce0-24d6-40df-9a5f-7cd099f6eb32"/>
    <tag k="tiger:zip_left" v="78705"/>
    <tag k="tiger:zip_right" v="78705"/>
  </way>
  <way id="25703061" version="6" timestamp="2010-04-07T12:44:04Z" uid="20587" user="balrog-kun" changeset="4353646">
    <nd ref="280230030"/>
    <nd ref="280229944"/>
    <nd ref="152467469"/>
    <nd ref="504850470"/>
    <nd ref="152461283"/>
    <nd ref="152467472"/>
    <nd ref="280230168"/>
    <tag k="highway" v="residential"/>
    <tag k="name" v="East Drive"/>
    <tag k="oneway" v="yes"/>
    <tag k="tiger:cfcc" v="A41"/>
    <tag k="tiger:county" v="Travis, TX"/>
    <tag k="tiger:name_base" v="East"/>
    <tag k="tiger:name_type" v="Dr"/>
    <tag k="tiger:reviewed" v="no"/>
    <tag k="tiger:separated" v="no"/>
    <tag k="tiger:source" v="tiger_import_dch_v0.6_20070830"/>
    <tag k="tiger:tlid" v="63945634:63945637:63945643"/>
    <tag k="tiger:zip_left" v="78705"/>
    <tag k="tiger:zip_right" v="78705"/>
  </way>
  <way id="25703061" version="7" timestamp="2011-08-14T04:39:43Z" uid="119881" user="Clorox" changeset="9011579">
    <nd ref="280230030"/>
    <nd ref="1398079825"/>
    <nd ref="1398079826"/>
    <nd ref="280229944"/>
    <nd ref="152467469"/>
    <nd ref="1398079828"/>
    <nd ref="1398079827"/>
    <nd ref="504850470"/>
    <nd ref="152461283"/>
    <nd ref="1398079818"/>
    <nd ref="152467472"/>
    <nd ref="280230168"/>
    <tag k="highway" v="residential"/>
    <tag k="name" v="East Drive"/>
    <tag k="oneway" v="yes"/>
    <tag k="tiger:cfcc" v="A41"/>
    <tag k="tiger:county" v="Travis, TX"/>
    <tag k="tiger:name_base" v="East"/>
    <tag k="tiger:name_type" v="Dr"/>
    <tag k="tiger:reviewed" v="no"/>
    <tag k="tiger:separated" v="no"/>
    <tag k="tiger:source" v="tiger_import_dch_v0.6_20070830"/>
    <tag k="tiger:tlid" v="63945634:63945637:63945643"/>
    <tag k="tiger:zip_left" v="78705"/>
    <tag k="tiger:zip_right" v="78705"/>
  </way>
  <way id="25703062" version="2" timestamp="2009-03-12T17:42:52Z" uid="68769" user="david lynch" changeset="793799">
    <nd ref="280229945"/>
    <nd ref="280229946"/>
    <nd ref="280229947"/>
    <nd ref="280229948"/>
    <nd ref="280229949"/>
    <nd ref="280229950"/>
    <nd ref="280229951"/>
    <nd ref="280229952"/>
    <nd ref="280229953"/>
    <nd ref="280229954"/>
    <nd ref="359619974"/>
    <nd ref="359619976"/>
    <nd ref="359619977"/>
    <nd ref="359619979"/>
    <nd ref="359619980"/>
    <nd ref="359619982"/>
    <nd ref="359619983"/>
    <nd ref="359619984"/>
    <nd ref="359619985"/>
    <nd ref="359619987"/>
    <nd ref="359619992"/>
    <nd ref="359619993"/>
    <nd ref="300769988"/>
    <tag k="boat" v="no"/>
    <tag k="created_by" v="Potlatch 0.10f"/>
    <tag k="waterway" v="stream"/>
  </way>
  <way id="25703062" version="3" timestamp="2009-07-06T17:30:17Z" uid="92970" user="owlman" changeset="1755143">
    <nd ref="280229945"/>
    <nd ref="280229946"/>
    <nd ref="280229947"/>
    <nd ref="280229948"/>
    <nd ref="280229949"/>
    <nd ref="280229950"/>
    <nd ref="280229951"/>
    <nd ref="280229952"/>
    <nd ref="280229953"/>
    <nd ref="280229954"/>
    <nd ref="359619974"/>
    <nd ref="359619976"/>
    <nd ref="359619977"/>
    <nd ref="359619979"/>
    <nd ref="359619980"/>
    <nd ref="359619982"/>
    <nd ref="359619983"/>
    <nd ref="359619984"/>
    <nd ref="359619985"/>
    <nd ref="359619987"/>
    <nd ref="359619992"/>
    <nd ref="359619993"/>
    <nd ref="300769988"/>
    <tag k="boat" v="no"/>
    <tag k="created_by" v="Potlatch 0.10f"/>
    <tag k="name" v="Hemphill Creek"/>
    <tag k="waterway" v="stream"/>
  </way>
  <way id="25703062" version="4" timestamp="2011-08-14T04:16:52Z" uid="119881" user="Clorox" changeset="9011533">
    <nd ref="280229945"/>
    <nd ref="280229946"/>
    <nd ref="280229947"/>
    <nd ref="280229948"/>
    <nd ref="280229949"/>
    <nd ref="280229950"/>
    <nd ref="280229951"/>
    <nd ref="280229952"/>
    <nd ref="1398069711"/>
    <nd ref="280229953"/>
    <nd ref="280229954"/>
    <nd ref="359619974"/>
    <nd ref="359619976"/>
    <nd ref="359619977"/>
    <nd ref="359619979"/>
    <nd ref="359619980"/>
    <nd ref="359619982"/>
    <nd ref="359619983"/>
    <nd ref="359619984"/>
    <nd ref="359619985"/>
    <nd ref="359619987"/>
    <nd ref="359619992"/>
    <nd ref="359619993"/>
    <nd ref="300769988"/>
    <tag k="boat" v="no"/>
    <tag k="name" v="Hemphill Creek"/>
    <tag k="waterway" v="stream"/>
  </way>
  <way id="25703062" version="5" timestamp="2011-08-14T06:09:11Z" uid="119881" user="Clorox" changeset="9011903">
    <nd ref="280229945"/>
    <nd ref="280229946"/>
    <nd ref="280229947"/>
    <nd ref="280229948"/>
    <nd ref="280229949"/>
    <nd ref="280229950"/>
    <nd ref="280229951"/>
    <nd ref="280229952"/>
    <nd ref="1398069711"/>
    <nd ref="280229953"/>
    <nd ref="280229954"/>
    <nd ref="359619974"/>
    <nd ref="359619976"/>
    <nd ref="359619977"/>
    <nd ref="359619979"/>
    <nd ref="359619980"/>
    <nd ref="359619982"/>
    <nd ref="1398129340"/>
    <nd ref="1398129337"/>
    <nd ref="359619983"/>
    <nd ref="359619984"/>
    <nd ref="359619985"/>
    <nd ref="359619987"/>
    <nd ref="359619992"/>
    <nd ref="359619993"/>
    <nd ref="300769988"/>
    <tag k="boat" v="no"/>
    <tag k="name" v="Hemphill Creek"/>
    <tag k="waterway" v="stream"/>
  </way>
  <way id="25703062" version="6" timestamp="2011-08-15T19:30:28Z" uid="119881" user="Clorox" changeset="9030387">
    <nd ref="280229945"/>
    <nd ref="280229946"/>
    <nd ref="280229947"/>
    <nd ref="280229948"/>
    <nd ref="280229949"/>
    <nd ref="280229950"/>
    <nd ref="280229951"/>
    <nd ref="280229952"/>
    <nd ref="1398069711"/>
    <nd ref="280229953"/>
    <nd ref="280229954"/>
    <nd ref="359619974"/>
    <nd ref="359619976"/>
    <nd ref="359619977"/>
    <nd ref="359619979"/>
    <nd ref="359619980"/>
    <nd ref="359619982"/>
    <nd ref="1398129340"/>
    <nd ref="1398129337"/>
    <nd ref="359619983"/>
    <nd ref="359619984"/>
    <nd ref="359619985"/>
    <nd ref="359619987"/>
    <nd ref="359619992"/>
    <nd ref="359619993"/>
    <nd ref="1400211282"/>
    <nd ref="300769988"/>
    <tag k="boat" v="no"/>
    <tag k="name" v="Hemphill Creek"/>
    <tag k="waterway" v="stream"/>
  </way>
  <way id="25703062" version="7" timestamp="2011-08-16T18:35:03Z" uid="119881" user="Clorox" changeset="9039628">
    <nd ref="280229945"/>
    <nd ref="1401329661"/>
    <nd ref="280229946"/>
    <nd ref="1401329636"/>
    <nd ref="1401329675"/>
    <nd ref="1401329632"/>
    <nd ref="280229947"/>
    <nd ref="1401329588"/>
    <nd ref="280229948"/>
    <nd ref="1401329563"/>
    <nd ref="1401329656"/>
    <nd ref="1401329560"/>
    <nd ref="1401329514"/>
    <nd ref="1401329506"/>
    <nd ref="280229949"/>
    <nd ref="280229950"/>
    <nd ref="280229951"/>
    <nd ref="1401329668"/>
    <nd ref="280229952"/>
    <nd ref="1398069711"/>
    <nd ref="1401329619"/>
    <nd ref="280229953"/>
    <nd ref="280229954"/>
    <nd ref="1401329546"/>
    <nd ref="359619974"/>
    <nd ref="1401329566"/>
    <nd ref="359619976"/>
    <nd ref="359619977"/>
    <nd ref="1401329590"/>
    <nd ref="1401329635"/>
    <nd ref="359619979"/>
    <nd ref="1401329577"/>
    <nd ref="359619980"/>
    <nd ref="1401329691"/>
    <nd ref="359619982"/>
    <nd ref="1401329617"/>
    <nd ref="1401329570"/>
    <nd ref="1401329670"/>
    <nd ref="1398129340"/>
    <nd ref="1398129337"/>
    <nd ref="359619983"/>
    <nd ref="1401329659"/>
    <nd ref="359619984"/>
    <nd ref="359619985"/>
    <nd ref="359619987"/>
    <nd ref="1401329538"/>
    <nd ref="359619992"/>
    <nd ref="1401329689"/>
    <tag k="boat" v="no"/>
    <tag k="name" v="Hemphill Creek"/>
    <tag k="waterway" v="stream"/>
  </way>
  <way id="25703074" version="3" timestamp="2009-09-22T02:37:11Z" uid="68769" user="david lynch" changeset="2564072">
    <nd ref="152457427"/>
    <nd ref="152694132"/>
    <nd ref="280230131"/>
    <nd ref="280230165"/>
    <tag k="highway" v="residential"/>
    <tag k="name" v="West Dr"/>
    <tag k="oneway" v="yes"/>
    <tag k="tiger:cfcc" v="A41"/>
    <tag k="tiger:county" v="Travis, TX"/>
    <tag k="tiger:name_base" v="West"/>
    <tag k="tiger:name_type" v="Dr"/>
    <tag k="tiger:reviewed" v="no"/>
    <tag k="tiger:separated" v="no"/>
    <tag k="tiger:source" v="tiger_import_dch_v0.6_20070830"/>
    <tag k="tiger:tlid" v="63945628"/>
    <tag k="tiger:upload_uuid" v="bulk_upload.pl-d2be3ce0-24d6-40df-9a5f-7cd099f6eb32"/>
    <tag k="tiger:zip_left" v="78705"/>
    <tag k="tiger:zip_right" v="78705"/>
  </way>
  <way id="25703074" version="4" timestamp="2010-04-07T12:44:04Z" uid="20587" user="balrog-kun" changeset="4353646">
    <nd ref="152457427"/>
    <nd ref="152694132"/>
    <nd ref="280230131"/>
    <nd ref="280230165"/>
    <tag k="highway" v="residential"/>
    <tag k="name" v="West Drive"/>
    <tag k="oneway" v="yes"/>
    <tag k="tiger:cfcc" v="A41"/>
    <tag k="tiger:county" v="Travis, TX"/>
    <tag k="tiger:name_base" v="West"/>
    <tag k="tiger:name_type" v="Dr"/>
    <tag k="tiger:reviewed" v="no"/>
    <tag k="tiger:separated" v="no"/>
    <tag k="tiger:source" v="tiger_import_dch_v0.6_20070830"/>
    <tag k="tiger:tlid" v="63945628"/>
    <tag k="tiger:zip_left" v="78705"/>
    <tag k="tiger:zip_right" v="78705"/>
  </way>
  <way id="25703074" version="5" timestamp="2011-08-14T04:39:44Z" uid="119881" user="Clorox" changeset="9011579">
    <nd ref="152457427"/>
    <nd ref="1398079832"/>
    <nd ref="1398079831"/>
    <nd ref="1398079823"/>
    <nd ref="1398079824"/>
    <nd ref="152694132"/>
    <nd ref="1398079822"/>
    <nd ref="1398079821"/>
    <nd ref="1398079819"/>
    <nd ref="1398079820"/>
    <nd ref="280230131"/>
    <nd ref="280230165"/>
    <tag k="highway" v="residential"/>
    <tag k="name" v="West Drive"/>
    <tag k="oneway" v="yes"/>
    <tag k="tiger:cfcc" v="A41"/>
    <tag k="tiger:county" v="Travis, TX"/>
    <tag k="tiger:name_base" v="West"/>
    <tag k="tiger:name_type" v="Dr"/>
    <tag k="tiger:reviewed" v="no"/>
    <tag k="tiger:separated" v="no"/>
    <tag k="tiger:source" v="tiger_import_dch_v0.6_20070830"/>
    <tag k="tiger:tlid" v="63945628"/>
    <tag k="tiger:zip_left" v="78705"/>
    <tag k="tiger:zip_right" v="78705"/>
  </way>
  <way id="25703076" version="4" timestamp="2009-09-22T02:37:11Z" uid="68769" user="david lynch" changeset="2564072">
    <nd ref="280230168"/>
    <nd ref="152457423"/>
    <tag k="bridge" v="yes"/>
    <tag k="highway" v="residential"/>
    <tag k="name" v="East Dr"/>
    <tag k="oneway" v="yes"/>
    <tag k="tiger:cfcc" v="A41"/>
    <tag k="tiger:county" v="Travis, TX"/>
    <tag k="tiger:name_base" v="East"/>
    <tag k="tiger:name_type" v="Dr"/>
    <tag k="tiger:reviewed" v="no"/>
    <tag k="tiger:separated" v="no"/>
    <tag k="tiger:source" v="tiger_import_dch_v0.6_20070830"/>
    <tag k="tiger:tlid" v="63945634:63945637:63945643"/>
    <tag k="tiger:upload_uuid" v="bulk_upload.pl-d2be3ce0-24d6-40df-9a5f-7cd099f6eb32"/>
    <tag k="tiger:zip_left" v="78705"/>
    <tag k="tiger:zip_right" v="78705"/>
  </way>
  <way id="25703076" version="5" timestamp="2010-04-07T12:44:05Z" uid="20587" user="balrog-kun" changeset="4353646">
    <nd ref="280230168"/>
    <nd ref="152457423"/>
    <tag k="bridge" v="yes"/>
    <tag k="highway" v="residential"/>
    <tag k="name" v="East Drive"/>
    <tag k="oneway" v="yes"/>
    <tag k="tiger:cfcc" v="A41"/>
    <tag k="tiger:county" v="Travis, TX"/>
    <tag k="tiger:name_base" v="East"/>
    <tag k="tiger:name_type" v="Dr"/>
    <tag k="tiger:reviewed" v="no"/>
    <tag k="tiger:separated" v="no"/>
    <tag k="tiger:source" v="tiger_import_dch_v0.6_20070830"/>
    <tag k="tiger:tlid" v="63945634:63945637:63945643"/>
    <tag k="tiger:zip_left" v="78705"/>
    <tag k="tiger:zip_right" v="78705"/>
  </way>
  <way id="25703076" version="6" timestamp="2011-09-10T20:29:56Z" uid="119881" user="Clorox" changeset="9265592">
    <nd ref="280230168"/>
    <nd ref="152457423"/>
    <tag k="bridge" v="yes"/>
    <tag k="highway" v="residential"/>
    <tag k="layer" v="1"/>
    <tag k="name" v="East Drive"/>
    <tag k="oneway" v="yes"/>
    <tag k="tiger:cfcc" v="A41"/>
    <tag k="tiger:county" v="Travis, TX"/>
    <tag k="tiger:name_base" v="East"/>
    <tag k="tiger:name_type" v="Dr"/>
    <tag k="tiger:reviewed" v="no"/>
    <tag k="tiger:separated" v="no"/>
    <tag k="tiger:source" v="tiger_import_dch_v0.6_20070830"/>
    <tag k="tiger:tlid" v="63945634:63945637:63945643"/>
    <tag k="tiger:zip_left" v="78705"/>
    <tag k="tiger:zip_right" v="78705"/>
  </way>
  <way id="25703077" version="5" timestamp="2009-08-17T09:47:41Z" uid="157412" user="Leopold" changeset="2175657">
    <nd ref="253504005"/>
    <nd ref="280230177"/>
    <nd ref="280230178"/>
    <nd ref="280230179"/>
    <nd ref="280230180"/>
    <nd ref="280230181"/>
    <nd ref="280230182"/>
    <nd ref="280230183"/>
    <nd ref="280230184"/>
    <nd ref="280230185"/>
    <nd ref="280230186"/>
    <nd ref="280230187"/>
    <nd ref="280230188"/>
    <nd ref="280230189"/>
    <nd ref="280230190"/>
    <nd ref="280230191"/>
    <nd ref="280230192"/>
    <nd ref="280230193"/>
    <nd ref="280230194"/>
    <nd ref="280230195"/>
    <nd ref="469722089"/>
    <nd ref="280230196"/>
    <nd ref="280230197"/>
    <tag k="highway" v="track"/>
    <tag k="tracktype" v="grade1"/>
  </way>
  <way id="25703077" version="6" timestamp="2009-08-17T15:19:56Z" uid="157412" user="Leopold" changeset="2179028">
    <nd ref="253504005"/>
    <nd ref="280230177"/>
    <nd ref="280230178"/>
    <nd ref="280230179"/>
    <nd ref="280230180"/>
    <nd ref="280230181"/>
    <nd ref="280230182"/>
    <nd ref="280230183"/>
    <nd ref="280230184"/>
    <nd ref="280230185"/>
    <nd ref="280230186"/>
    <nd ref="280230187"/>
    <nd ref="280230188"/>
    <nd ref="280230189"/>
    <nd ref="280230190"/>
    <nd ref="280230191"/>
    <nd ref="280230192"/>
    <nd ref="280230193"/>
    <nd ref="280230194"/>
    <nd ref="280230195"/>
    <nd ref="469722089"/>
    <nd ref="280230196"/>
    <nd ref="280230197"/>
    <tag k="highway" v="track"/>
    <tag k="surface" v="paved"/>
    <tag k="tracktype" v="grade1"/>
  </way>
  <way id="25703077" version="7" timestamp="2009-10-04T21:38:43Z" uid="81477" user="Dueppi" changeset="2743568">
    <nd ref="253504005"/>
    <nd ref="280230177"/>
    <nd ref="280230178"/>
    <nd ref="280230179"/>
    <nd ref="280230180"/>
    <nd ref="280230181"/>
    <nd ref="280230182"/>
    <nd ref="280230183"/>
    <nd ref="280230184"/>
    <nd ref="280230185"/>
    <nd ref="280230186"/>
    <nd ref="280230187"/>
    <nd ref="280230188"/>
    <nd ref="280230189"/>
    <nd ref="280230190"/>
    <nd ref="280230191"/>
    <nd ref="280230192"/>
    <nd ref="280230193"/>
    <nd ref="280230194"/>
    <nd ref="280230195"/>
    <nd ref="520762828"/>
    <nd ref="280230196"/>
    <nd ref="280230197"/>
    <tag k="highway" v="track"/>
    <tag k="surface" v="paved"/>
    <tag k="tracktype" v="grade1"/>
  </way>
  <way id="25703077" version="8" timestamp="2009-12-30T16:13:02Z" uid="157412" user="Leopold" changeset="3491161">
    <nd ref="253504005"/>
    <nd ref="280230177"/>
    <nd ref="280230178"/>
    <nd ref="280230179"/>
    <nd ref="280230180"/>
    <nd ref="280230181"/>
    <nd ref="280230182"/>
    <nd ref="280230183"/>
    <nd ref="280230184"/>
    <nd ref="280230185"/>
    <nd ref="280230186"/>
    <nd ref="280230187"/>
    <nd ref="280230188"/>
    <nd ref="280230189"/>
    <nd ref="280230190"/>
    <nd ref="280230191"/>
    <nd ref="280230192"/>
    <nd ref="280230193"/>
    <nd ref="280230194"/>
    <nd ref="280230195"/>
    <nd ref="520762828"/>
    <nd ref="280230196"/>
    <nd ref="280230197"/>
    <tag k="highway" v="cycleway"/>
    <tag k="surface" v="paved"/>
    <tag k="tracktype" v="grade1"/>
  </way>
  <way id="25703077" version="9" timestamp="2009-12-31T17:32:38Z" uid="157412" user="Leopold" changeset="3502906">
    <nd ref="253504005"/>
    <nd ref="280230177"/>
    <nd ref="280230178"/>
    <nd ref="280230179"/>
    <nd ref="280230180"/>
    <nd ref="280230181"/>
    <nd ref="280230182"/>
    <nd ref="280230183"/>
    <nd ref="280230184"/>
    <nd ref="280230185"/>
    <nd ref="280230186"/>
    <nd ref="280230187"/>
    <nd ref="280230188"/>
    <nd ref="280230189"/>
    <nd ref="280230190"/>
    <nd ref="280230191"/>
    <nd ref="280230192"/>
    <nd ref="280230193"/>
    <nd ref="280230194"/>
    <nd ref="280230195"/>
    <nd ref="520762828"/>
    <nd ref="280230196"/>
    <nd ref="280230197"/>
    <tag k="highway" v="cycleway"/>
    <tag k="surface" v="paved (wheelchair suitable)"/>
    <tag k="tracktype" v="grade1"/>
  </way>
  <way id="25703077" version="10" timestamp="2010-03-05T13:38:01Z" uid="44217" user="kjon" changeset="4040992">
    <nd ref="253504005"/>
    <nd ref="280230177"/>
    <nd ref="280230178"/>
    <nd ref="280230179"/>
    <nd ref="280230180"/>
    <nd ref="280230181"/>
    <nd ref="280230182"/>
    <nd ref="280230183"/>
    <nd ref="280230184"/>
    <nd ref="280230185"/>
    <nd ref="280230186"/>
    <nd ref="280230187"/>
    <nd ref="280230188"/>
    <nd ref="280230189"/>
    <nd ref="280230190"/>
    <nd ref="280230191"/>
    <nd ref="660658458"/>
    <tag k="highway" v="cycleway"/>
    <tag k="surface" v="paved (wheelchair suitable)"/>
    <tag k="tracktype" v="grade1"/>
  </way>
  <way id="25703077" version="11" timestamp="2010-03-21T21:21:41Z" uid="228913" user="jerry-55" changeset="4196988">
    <nd ref="253504005"/>
    <nd ref="280230177"/>
    <tag k="highway" v="cycleway"/>
    <tag k="surface" v="paved (wheelchair suitable)"/>
    <tag k="tracktype" v="grade1"/>
  </way>
  <way id="25703077" version="12" timestamp="2010-05-01T08:57:57Z" uid="228913" user="jerry-55" changeset="4572736">
    <nd ref="253504005"/>
    <nd ref="280230177"/>
    <tag k="highway" v="track"/>
    <tag k="surface" v="asphalt"/>
    <tag k="tracktype" v="grade1"/>
  </way>
  <way id="25703078" version="2" timestamp="2010-04-07T12:44:05Z" uid="20587" user="balrog-kun" changeset="4353646">
    <nd ref="280230200"/>
    <nd ref="152467475"/>
    <nd ref="152467477"/>
    <nd ref="152461316"/>
    <tag k="created_by" v="Potlatch 0.10"/>
    <tag k="highway" v="residential"/>
    <tag k="name" v="East Drive"/>
    <tag k="tiger:cfcc" v="A41"/>
    <tag k="tiger:county" v="Travis, TX"/>
    <tag k="tiger:name_base" v="East"/>
    <tag k="tiger:name_type" v="Dr"/>
    <tag k="tiger:reviewed" v="no"/>
    <tag k="tiger:separated" v="no"/>
    <tag k="tiger:source" v="tiger_import_dch_v0.6_20070830"/>
    <tag k="tiger:tlid" v="63945634:63945637:63945643"/>
    <tag k="tiger:zip_left" v="78705"/>
    <tag k="tiger:zip_right" v="78705"/>
  </way>
  <way id="25703078" version="3" timestamp="2011-08-14T04:16:53Z" uid="119881" user="Clorox" changeset="9011533">
    <nd ref="280230200"/>
    <nd ref="152467475"/>
    <nd ref="152467477"/>
    <nd ref="1398069726"/>
    <nd ref="1398069724"/>
    <nd ref="1398069731"/>
    <nd ref="152461316"/>
    <tag k="highway" v="residential"/>
    <tag k="name" v="East Drive"/>
    <tag k="tiger:cfcc" v="A41"/>
    <tag k="tiger:county" v="Travis, TX"/>
    <tag k="tiger:name_base" v="East"/>
    <tag k="tiger:name_type" v="Dr"/>
    <tag k="tiger:reviewed" v="no"/>
    <tag k="tiger:separated" v="no"/>
    <tag k="tiger:source" v="tiger_import_dch_v0.6_20070830"/>
    <tag k="tiger:tlid" v="63945634:63945637:63945643"/>
    <tag k="tiger:zip_left" v="78705"/>
    <tag k="tiger:zip_right" v="78705"/>
  </way>
  <way id="25703078" version="4" timestamp="2011-08-14T04:39:44Z" uid="119881" user="Clorox" changeset="9011579">
    <nd ref="280230200"/>
    <nd ref="152467475"/>
    <nd ref="152467477"/>
    <nd ref="1398069726"/>
    <nd ref="1398069724"/>
    <nd ref="1398069731"/>
    <nd ref="1398079833"/>
    <nd ref="152461316"/>
    <tag k="highway" v="residential"/>
    <tag k="name" v="East Drive"/>
    <tag k="tiger:cfcc" v="A41"/>
    <tag k="tiger:county" v="Travis, TX"/>
    <tag k="tiger:name_base" v="East"/>
    <tag k="tiger:name_type" v="Dr"/>
    <tag k="tiger:reviewed" v="no"/>
    <tag k="tiger:separated" v="no"/>
    <tag k="tiger:source" v="tiger_import_dch_v0.6_20070830"/>
    <tag k="tiger:tlid" v="63945634:63945637:63945643"/>
    <tag k="tiger:zip_left" v="78705"/>
    <tag k="tiger:zip_right" v="78705"/>
  </way>
  <way id="25703122" version="6" timestamp="2009-09-30T11:57:35Z" uid="36809" user="pfoten_weg_!_" changeset="2687494">
    <nd ref="280230747"/>
    <nd ref="280230748"/>
    <tag k="highway" v="residential"/>
    <tag k="name" v="Gernholzweg"/>
  </way>
  <way id="25703149" version="10" timestamp="2011-02-16T11:29:41Z" uid="4467" user="Rosscoe" changeset="7302936">
    <nd ref="774504442"/>
    <nd ref="774518620"/>
    <nd ref="774504915"/>
    <nd ref="26034636"/>
    <tag k="highway" v="tertiary"/>
    <tag k="lanes" v="2"/>
    <tag k="name" v="Elizabeth Street"/>
    <tag k="oneway" v="yes"/>
    <tag k="source" v="nearmap"/>
  </way>
  <way id="25703149" version="11" timestamp="2011-11-05T06:35:33Z" uid="11111" user="melb_guy" changeset="9743918">
    <nd ref="774504442"/>
    <nd ref="774518620"/>
    <nd ref="774504915"/>
    <nd ref="26034636"/>
    <tag k="highway" v="tertiary"/>
    <tag k="lanes" v="2"/>
    <tag k="maxspeed" v="50"/>
    <tag k="name" v="Elizabeth Street"/>
    <tag k="oneway" v="yes"/>
    <tag k="source" v="nearmap"/>
  </way>
  <way id="25703151" version="7" timestamp="2011-02-16T11:30:00Z" uid="4467" user="Rosscoe" changeset="7302936">
    <nd ref="26034636"/>
    <nd ref="774505346"/>
    <nd ref="774505719"/>
    <tag k="cycleway" v="lane"/>
    <tag k="highway" v="tertiary"/>
    <tag k="name" v="Elizabeth Street"/>
    <tag k="oneway" v="yes"/>
    <tag k="source" v="nearmap"/>
  </way>
  <way id="25703151" version="8" timestamp="2011-11-05T06:35:33Z" uid="11111" user="melb_guy" changeset="9743918">
    <nd ref="26034636"/>
    <nd ref="774505346"/>
    <nd ref="774505719"/>
    <tag k="cycleway" v="lane"/>
    <tag k="highway" v="tertiary"/>
    <tag k="maxspeed" v="50"/>
    <tag k="name" v="Elizabeth Street"/>
    <tag k="oneway" v="yes"/>
    <tag k="source" v="nearmap"/>
  </way>
  <way id="25703152" version="11" timestamp="2011-02-16T11:29:06Z" uid="4467" user="Rosscoe" changeset="7302936">
    <nd ref="26034636"/>
    <nd ref="26034637"/>
    <nd ref="1156240423"/>
    <nd ref="33085987"/>
    <nd ref="34600117"/>
    <nd ref="26034552"/>
    <nd ref="176693339"/>
    <nd ref="26034553"/>
    <nd ref="26034554"/>
    <nd ref="595594359"/>
    <nd ref="176679691"/>
    <nd ref="21579129"/>
    <nd ref="21579127"/>
    <nd ref="21579126"/>
    <nd ref="174833696"/>
    <nd ref="21579124"/>
    <nd ref="591429017"/>
    <tag k="highway" v="tertiary"/>
    <tag k="is_in" v="Melbourne,Victoria,Australia"/>
    <tag k="name" v="Elizabeth Street"/>
    <tag k="postal_code" v="3000"/>
    <tag k="railway" v="tram"/>
  </way>
  <way id="25703152" version="12" timestamp="2011-03-19T06:59:35Z" uid="46482" user="Leon K" changeset="7601775">
    <nd ref="26034636"/>
    <nd ref="26034637"/>
    <nd ref="1156240423"/>
    <nd ref="33085987"/>
    <nd ref="34600117"/>
    <nd ref="26034552"/>
    <nd ref="176693339"/>
    <nd ref="26034553"/>
    <nd ref="26034554"/>
    <nd ref="595594359"/>
    <nd ref="176679691"/>
    <nd ref="21579129"/>
    <nd ref="21579127"/>
    <nd ref="21579126"/>
    <nd ref="174833696"/>
    <nd ref="21579124"/>
    <nd ref="591429017"/>
    <tag k="highway" v="tertiary"/>
    <tag k="is_in" v="Melbourne,Victoria,Australia"/>
    <tag k="maxspeed" v="50"/>
    <tag k="name" v="Elizabeth Street"/>
    <tag k="postal_code" v="3000"/>
    <tag k="railway" v="tram"/>
  </way>
  <way id="25703168" version="2" timestamp="2010-04-07T12:44:05Z" uid="20587" user="balrog-kun" changeset="4353646">
    <nd ref="82508339"/>
    <nd ref="82508259"/>
    <nd ref="82737875"/>
    <nd ref="82392071"/>
    <nd ref="82737876"/>
    <nd ref="82737877"/>
    <nd ref="82737878"/>
    <nd ref="82647426"/>
    <nd ref="82737879"/>
    <nd ref="82737880"/>
    <nd ref="82388752"/>
    <nd ref="82737881"/>
    <nd ref="82737882"/>
    <nd ref="82737883"/>
    <nd ref="82667695"/>
    <nd ref="82737884"/>
    <nd ref="82667755"/>
    <nd ref="82737885"/>
    <nd ref="82737886"/>
    <nd ref="82737887"/>
    <nd ref="82737888"/>
    <nd ref="82737889"/>
    <nd ref="82737890"/>
    <nd ref="82384197"/>
    <tag k="highway" v="residential"/>
    <tag k="name" v="Buckingham Road"/>
    <tag k="tiger:cfcc" v="A41"/>
    <tag k="tiger:county" v="Tarrant, TX"/>
    <tag k="tiger:name_base" v="Buckingham"/>
    <tag k="tiger:name_type" v="Rd"/>
    <tag k="tiger:reviewed" v="no"/>
    <tag k="tiger:separated" v="no"/>
    <tag k="tiger:source" v="tiger_import_dch_v0.6_20070830"/>
    <tag k="tiger:tlid" v="102141711:102141712:102142879:102142881:102142882:102141687:102141689:102141690"/>
    <tag k="tiger:zip_left" v="76155"/>
    <tag k="tiger:zip_right" v="76155"/>
  </way>
  <way id="25703222" version="3" timestamp="2009-02-23T13:14:30Z" uid="34428" user="usm78-gis" changeset="634299"/>
  <way id="25703258" version="3" timestamp="2008-09-29T00:49:51Z" uid="68769" user="david lynch" changeset="719676">
    <nd ref="152399397"/>
    <nd ref="152399401"/>
    <tag k="created_by" v="Potlatch 0.10c"/>
    <tag k="highway" v="secondary"/>
    <tag k="name" v="W Dean Keeton St"/>
    <tag k="oneway" v="yes"/>
    <tag k="tiger:cfcc" v="A41"/>
    <tag k="tiger:county" v="Travis, TX"/>
    <tag k="tiger:name_base" v="Dean Keeton"/>
    <tag k="tiger:name_direction_prefix" v="W"/>
    <tag k="tiger:name_type" v="St"/>
    <tag k="tiger:reviewed" v="no"/>
    <tag k="tiger:separated" v="no"/>
    <tag k="tiger:source" v="tiger_import_dch_v0.6_20070830"/>
    <tag k="tiger:tlid" v="63945695:63945698"/>
    <tag k="tiger:upload_uuid" v="bulk_upload.pl-d2be3ce0-24d6-40df-9a5f-7cd099f6eb32"/>
    <tag k="tiger:zip_left" v="78712"/>
    <tag k="tiger:zip_right" v="78712"/>
  </way>
  <way id="25703258" version="4" timestamp="2009-07-01T13:15:06Z" uid="91777" user="Nathan Wilkes" changeset="1700650"/>
  <way id="25703263" version="3" timestamp="2008-09-29T00:49:56Z" uid="68769" user="david lynch" changeset="719676">
    <nd ref="280233425"/>
    <nd ref="280233410"/>
    <tag k="created_by" v="Potlatch 0.10c"/>
    <tag k="highway" v="secondary"/>
    <tag k="name" v="W Dean Keeton St"/>
    <tag k="oneway" v="yes"/>
    <tag k="tiger:cfcc" v="A41"/>
    <tag k="tiger:county" v="Travis, TX"/>
    <tag k="tiger:name_base" v="Dean Keeton"/>
    <tag k="tiger:name_direction_prefix" v="W"/>
    <tag k="tiger:name_type" v="St"/>
    <tag k="tiger:reviewed" v="no"/>
    <tag k="tiger:separated" v="no"/>
    <tag k="tiger:source" v="tiger_import_dch_v0.6_20070830"/>
    <tag k="tiger:tlid" v="63945695:63945698"/>
    <tag k="tiger:upload_uuid" v="bulk_upload.pl-d2be3ce0-24d6-40df-9a5f-7cd099f6eb32"/>
    <tag k="tiger:zip_left" v="78712"/>
    <tag k="tiger:zip_right" v="78712"/>
  </way>
  <way id="25703263" version="4" timestamp="2009-09-04T00:47:33Z" uid="68769" user="david lynch" changeset="2365445">
    <nd ref="280233425"/>
    <nd ref="482805054"/>
    <nd ref="152399397"/>
    <tag k="highway" v="secondary"/>
    <tag k="name" v="W Dean Keeton St"/>
    <tag k="oneway" v="yes"/>
    <tag k="tiger:cfcc" v="A41"/>
    <tag k="tiger:county" v="Travis, TX"/>
    <tag k="tiger:name_base" v="Dean Keeton"/>
    <tag k="tiger:name_direction_prefix" v="W"/>
    <tag k="tiger:name_type" v="St"/>
    <tag k="tiger:reviewed" v="no"/>
    <tag k="tiger:separated" v="no"/>
    <tag k="tiger:source" v="tiger_import_dch_v0.6_20070830"/>
    <tag k="tiger:tlid" v="63945695:63945698"/>
    <tag k="tiger:upload_uuid" v="bulk_upload.pl-d2be3ce0-24d6-40df-9a5f-7cd099f6eb32"/>
    <tag k="tiger:zip_left" v="78712"/>
    <tag k="tiger:zip_right" v="78712"/>
  </way>
  <way id="25703263" version="5" timestamp="2010-04-07T12:44:06Z" uid="20587" user="balrog-kun" changeset="4353646">
    <nd ref="280233425"/>
    <nd ref="482805054"/>
    <nd ref="152399397"/>
    <tag k="highway" v="secondary"/>
    <tag k="name" v="West Dean Keeton Street"/>
    <tag k="oneway" v="yes"/>
    <tag k="tiger:cfcc" v="A41"/>
    <tag k="tiger:county" v="Travis, TX"/>
    <tag k="tiger:name_base" v="Dean Keeton"/>
    <tag k="tiger:name_direction_prefix" v="W"/>
    <tag k="tiger:name_type" v="St"/>
    <tag k="tiger:reviewed" v="no"/>
    <tag k="tiger:separated" v="no"/>
    <tag k="tiger:source" v="tiger_import_dch_v0.6_20070830"/>
    <tag k="tiger:tlid" v="63945695:63945698"/>
    <tag k="tiger:zip_left" v="78712"/>
    <tag k="tiger:zip_right" v="78712"/>
  </way>
  <way id="25703263" version="6" timestamp="2011-08-30T03:10:29Z" uid="119881" user="Clorox" changeset="9163519">
    <nd ref="280233425"/>
    <nd ref="482805054"/>
    <nd ref="1417712699"/>
    <nd ref="152399397"/>
    <tag k="highway" v="secondary"/>
    <tag k="name" v="West Dean Keeton Street"/>
    <tag k="oneway" v="yes"/>
    <tag k="tiger:cfcc" v="A41"/>
    <tag k="tiger:county" v="Travis, TX"/>
    <tag k="tiger:name_base" v="Dean Keeton"/>
    <tag k="tiger:name_direction_prefix" v="W"/>
    <tag k="tiger:name_type" v="St"/>
    <tag k="tiger:reviewed" v="no"/>
    <tag k="tiger:separated" v="no"/>
    <tag k="tiger:source" v="tiger_import_dch_v0.6_20070830"/>
    <tag k="tiger:tlid" v="63945695:63945698"/>
    <tag k="tiger:zip_left" v="78712"/>
    <tag k="tiger:zip_right" v="78712"/>
  </way>
  <way id="25703263" version="7" timestamp="2011-09-05T17:55:28Z" uid="119881" user="Clorox" changeset="9220182">
    <nd ref="280233425"/>
    <nd ref="482805054"/>
    <nd ref="1417712699"/>
    <nd ref="152399397"/>
    <tag k="highway" v="secondary"/>
    <tag k="name" v="West Dean Keeton Street"/>
    <tag k="oneway" v="yes"/>
    <tag k="tiger:cfcc" v="A41"/>
    <tag k="tiger:county" v="Travis, TX"/>
    <tag k="tiger:name_base" v="Dean Keeton"/>
    <tag k="tiger:name_direction_prefix" v="W"/>
    <tag k="tiger:name_type" v="St"/>
    <tag k="tiger:separated" v="no"/>
    <tag k="tiger:source" v="tiger_import_dch_v0.6_20070830"/>
    <tag k="tiger:tlid" v="63945695:63945698"/>
    <tag k="tiger:zip_left" v="78712"/>
    <tag k="tiger:zip_right" v="78712"/>
  </way>
  <way id="25703263" version="8" timestamp="2011-09-06T01:07:06Z" uid="119881" user="Clorox" changeset="9223545">
    <nd ref="280233425"/>
    <nd ref="1424731742"/>
    <nd ref="482805054"/>
    <nd ref="1417712699"/>
    <nd ref="152399397"/>
    <tag k="highway" v="secondary"/>
    <tag k="name" v="West Dean Keeton Street"/>
    <tag k="oneway" v="yes"/>
    <tag k="tiger:cfcc" v="A41"/>
    <tag k="tiger:county" v="Travis, TX"/>
    <tag k="tiger:name_base" v="Dean Keeton"/>
    <tag k="tiger:name_direction_prefix" v="W"/>
    <tag k="tiger:name_type" v="St"/>
    <tag k="tiger:separated" v="no"/>
    <tag k="tiger:source" v="tiger_import_dch_v0.6_20070830"/>
    <tag k="tiger:tlid" v="63945695:63945698"/>
    <tag k="tiger:zip_left" v="78712"/>
    <tag k="tiger:zip_right" v="78712"/>
  </way>
  <way id="25703280" version="2" timestamp="2008-09-28T18:15:31Z" uid="68769" user="david lynch" changeset="714647">
    <nd ref="152400287"/>
    <nd ref="152400290"/>
    <nd ref="300658092"/>
    <nd ref="152400293"/>
    <nd ref="152400296"/>
    <nd ref="152400299"/>
    <nd ref="152400302"/>
    <nd ref="152400305"/>
    <nd ref="152400309"/>
    <tag k="created_by" v="Potlatch 0.10c"/>
    <tag k="highway" v="residential"/>
    <tag k="name" v="Speedway"/>
    <tag k="tiger:cfcc" v="A41"/>
    <tag k="tiger:county" v="Travis, TX"/>
    <tag k="tiger:name_base" v="Speedway"/>
    <tag k="tiger:reviewed" v="no"/>
    <tag k="tiger:separated" v="no"/>
    <tag k="tiger:source" v="tiger_import_dch_v0.6_20070830"/>
    <tag k="tiger:tlid" v="64123047:63945688:63945689:63945692:63945708:64017879:63981234:64017880:64017895:64017896"/>
    <tag k="tiger:upload_uuid" v="bulk_upload.pl-d2be3ce0-24d6-40df-9a5f-7cd099f6eb32"/>
    <tag k="tiger:zip_left" v="78705"/>
    <tag k="tiger:zip_right" v="78705"/>
  </way>
  <way id="25703280" version="3" timestamp="2009-07-17T02:57:05Z" uid="92970" user="owlman" changeset="1850231">
    <nd ref="152400287"/>
    <nd ref="152400290"/>
    <nd ref="300658092"/>
    <nd ref="152400293"/>
    <nd ref="152400296"/>
    <tag k="created_by" v="Potlatch 0.10c"/>
    <tag k="highway" v="residential"/>
    <tag k="name" v="Speedway"/>
    <tag k="tiger:cfcc" v="A41"/>
    <tag k="tiger:county" v="Travis, TX"/>
    <tag k="tiger:name_base" v="Speedway"/>
    <tag k="tiger:reviewed" v="no"/>
    <tag k="tiger:separated" v="no"/>
    <tag k="tiger:source" v="tiger_import_dch_v0.6_20070830"/>
    <tag k="tiger:tlid" v="64123047:63945688:63945689:63945692:63945708:64017879:63981234:64017880:64017895:64017896"/>
    <tag k="tiger:upload_uuid" v="bulk_upload.pl-d2be3ce0-24d6-40df-9a5f-7cd099f6eb32"/>
    <tag k="tiger:zip_left" v="78705"/>
    <tag k="tiger:zip_right" v="78705"/>
  </way>
  <way id="25703280" version="4" timestamp="2011-08-07T01:25:11Z" uid="119881" user="Clorox" changeset="8943194">
    <nd ref="152400287"/>
    <nd ref="152400290"/>
    <nd ref="300658092"/>
    <nd ref="152400293"/>
    <tag k="highway" v="residential"/>
    <tag k="name" v="Speedway"/>
    <tag k="tiger:cfcc" v="A41"/>
    <tag k="tiger:county" v="Travis, TX"/>
    <tag k="tiger:name_base" v="Speedway"/>
    <tag k="tiger:reviewed" v="no"/>
    <tag k="tiger:separated" v="no"/>
    <tag k="tiger:source" v="tiger_import_dch_v0.6_20070830"/>
    <tag k="tiger:tlid" v="64123047:63945688:63945689:63945692:63945708:64017879:63981234:64017880:64017895:64017896"/>
    <tag k="tiger:upload_uuid" v="bulk_upload.pl-d2be3ce0-24d6-40df-9a5f-7cd099f6eb32"/>
    <tag k="tiger:zip_left" v="78705"/>
    <tag k="tiger:zip_right" v="78705"/>
  </way>
  <way id="25703280" version="5" timestamp="2011-08-14T04:16:51Z" uid="119881" user="Clorox" changeset="9011533">
    <nd ref="152400287"/>
    <nd ref="152400293"/>
    <tag k="highway" v="residential"/>
    <tag k="name" v="Speedway"/>
    <tag k="tiger:cfcc" v="A41"/>
    <tag k="tiger:county" v="Travis, TX"/>
    <tag k="tiger:name_base" v="Speedway"/>
    <tag k="tiger:reviewed" v="no"/>
    <tag k="tiger:separated" v="no"/>
    <tag k="tiger:source" v="tiger_import_dch_v0.6_20070830"/>
    <tag k="tiger:tlid" v="64123047:63945688:63945689:63945692:63945708:64017879:63981234:64017880:64017895:64017896"/>
    <tag k="tiger:upload_uuid" v="bulk_upload.pl-d2be3ce0-24d6-40df-9a5f-7cd099f6eb32"/>
    <tag k="tiger:zip_left" v="78705"/>
    <tag k="tiger:zip_right" v="78705"/>
  </way>
  <way id="25703280" version="6" timestamp="2011-08-31T03:28:52Z" uid="119881" user="Clorox" changeset="9172895">
    <nd ref="152400287"/>
    <nd ref="1418837725"/>
    <nd ref="1418837767"/>
    <nd ref="1418837784"/>
    <nd ref="1418837798"/>
    <nd ref="1418837801"/>
    <nd ref="152400293"/>
    <tag k="highway" v="residential"/>
    <tag k="name" v="Speedway"/>
    <tag k="tiger:cfcc" v="A41"/>
    <tag k="tiger:county" v="Travis, TX"/>
    <tag k="tiger:name_base" v="Speedway"/>
    <tag k="tiger:reviewed" v="no"/>
    <tag k="tiger:separated" v="no"/>
    <tag k="tiger:source" v="tiger_import_dch_v0.6_20070830"/>
    <tag k="tiger:tlid" v="64123047:63945688:63945689:63945692:63945708:64017879:63981234:64017880:64017895:64017896"/>
    <tag k="tiger:upload_uuid" v="bulk_upload.pl-d2be3ce0-24d6-40df-9a5f-7cd099f6eb32"/>
    <tag k="tiger:zip_left" v="78705"/>
    <tag k="tiger:zip_right" v="78705"/>
  </way>
  <way id="25703280" version="7" timestamp="2011-08-31T03:30:41Z" uid="119881" user="Clorox" changeset="9172897">
    <nd ref="152400287"/>
    <nd ref="1418837725"/>
    <nd ref="1418839819"/>
    <nd ref="1418837767"/>
    <nd ref="1418837784"/>
    <nd ref="1418837798"/>
    <nd ref="1418837801"/>
    <nd ref="152400293"/>
    <tag k="highway" v="residential"/>
    <tag k="name" v="Speedway"/>
    <tag k="tiger:cfcc" v="A41"/>
    <tag k="tiger:county" v="Travis, TX"/>
    <tag k="tiger:name_base" v="Speedway"/>
    <tag k="tiger:reviewed" v="no"/>
    <tag k="tiger:separated" v="no"/>
    <tag k="tiger:source" v="tiger_import_dch_v0.6_20070830"/>
    <tag k="tiger:tlid" v="64123047:63945688:63945689:63945692:63945708:64017879:63981234:64017880:64017895:64017896"/>
    <tag k="tiger:upload_uuid" v="bulk_upload.pl-d2be3ce0-24d6-40df-9a5f-7cd099f6eb32"/>
    <tag k="tiger:zip_left" v="78705"/>
    <tag k="tiger:zip_right" v="78705"/>
  </way>
  <way id="25703280" version="8" timestamp="2011-09-05T17:55:19Z" uid="119881" user="Clorox" changeset="9220182">
    <nd ref="152400287"/>
    <nd ref="1418837725"/>
    <nd ref="1418839819"/>
    <nd ref="1418837767"/>
    <nd ref="1418837784"/>
    <nd ref="1418837798"/>
    <nd ref="1418837801"/>
    <nd ref="152400293"/>
    <tag k="highway" v="unclassified"/>
    <tag k="name" v="Speedway"/>
    <tag k="tiger:cfcc" v="A41"/>
    <tag k="tiger:county" v="Travis, TX"/>
    <tag k="tiger:name_base" v="Speedway"/>
    <tag k="tiger:separated" v="no"/>
    <tag k="tiger:source" v="tiger_import_dch_v0.6_20070830"/>
    <tag k="tiger:tlid" v="64123047:63945688:63945689:63945692:63945708:64017879:63981234:64017880:64017895:64017896"/>
    <tag k="tiger:upload_uuid" v="bulk_upload.pl-d2be3ce0-24d6-40df-9a5f-7cd099f6eb32"/>
    <tag k="tiger:zip_left" v="78705"/>
    <tag k="tiger:zip_right" v="78705"/>
  </way>
  <way id="25703280" version="9" timestamp="2011-10-10T22:49:46Z" uid="119881" user="Clorox" changeset="9526914">
    <nd ref="152400287"/>
    <nd ref="1418837725"/>
    <nd ref="1418839819"/>
    <nd ref="1418837767"/>
    <nd ref="1418837784"/>
    <nd ref="1418837798"/>
    <nd ref="1418837801"/>
    <nd ref="1461926387"/>
    <nd ref="1461926388"/>
    <nd ref="152400293"/>
    <tag k="highway" v="unclassified"/>
    <tag k="name" v="Speedway"/>
    <tag k="tiger:cfcc" v="A41"/>
    <tag k="tiger:county" v="Travis, TX"/>
    <tag k="tiger:name_base" v="Speedway"/>
    <tag k="tiger:separated" v="no"/>
    <tag k="tiger:source" v="tiger_import_dch_v0.6_20070830"/>
    <tag k="tiger:tlid" v="64123047:63945688:63945689:63945692:63945708:64017879:63981234:64017880:64017895:64017896"/>
    <tag k="tiger:upload_uuid" v="bulk_upload.pl-d2be3ce0-24d6-40df-9a5f-7cd099f6eb32"/>
    <tag k="tiger:zip_left" v="78705"/>
    <tag k="tiger:zip_right" v="78705"/>
  </way>
  <way id="25703280" version="10" timestamp="2012-02-29T06:33:19Z" uid="119881" user="Clorox" changeset="10825186">
    <nd ref="152400287"/>
    <nd ref="1418837725"/>
    <nd ref="1418839819"/>
    <nd ref="1418837767"/>
    <nd ref="1418837784"/>
    <nd ref="1418837798"/>
    <nd ref="1418837801"/>
    <nd ref="1461926387"/>
    <nd ref="1461926388"/>
    <nd ref="152400293"/>
    <tag k="highway" v="unclassified"/>
    <tag k="name" v="Speedway"/>
    <tag k="old_name" v="Lampasas Street"/>
    <tag k="tiger:cfcc" v="A41"/>
    <tag k="tiger:county" v="Travis, TX"/>
    <tag k="tiger:name_base" v="Speedway"/>
    <tag k="tiger:separated" v="no"/>
    <tag k="tiger:source" v="tiger_import_dch_v0.6_20070830"/>
    <tag k="tiger:tlid" v="64123047:63945688:63945689:63945692:63945708:64017879:63981234:64017880:64017895:64017896"/>
    <tag k="tiger:upload_uuid" v="bulk_upload.pl-d2be3ce0-24d6-40df-9a5f-7cd099f6eb32"/>
    <tag k="tiger:zip_left" v="78705"/>
    <tag k="tiger:zip_right" v="78705"/>
  </way>
  <way id="25703294" version="3" timestamp="2009-02-23T12:50:40Z" uid="34428" user="usm78-gis" changeset="634299"/>
  <way id="25703380" version="3" timestamp="2010-07-09T07:33:39Z" uid="74617" user="JohnSmith" changeset="5171412">
    <nd ref="280235445"/>
    <nd ref="280235514"/>
    <tag k="highway" v="residential"/>
    <tag k="maxspeed" v="50"/>
    <tag k="maxspeed:source" v="default residential speed limit in Australia"/>
  </way>
  <way id="25703380" version="4" timestamp="2010-10-15T05:36:32Z" uid="325087" user="Palitu" changeset="6046295">
    <nd ref="280235445"/>
    <nd ref="280235514"/>
    <tag k="addr:city" v="South Lake"/>
    <tag k="addr:postcode" v="6164"/>
    <tag k="highway" v="residential"/>
    <tag k="maxspeed" v="50"/>
    <tag k="maxspeed:source" v="default residential speed limit in Australia"/>
  </way>
  <way id="25703380" version="5" timestamp="2012-01-17T00:42:54Z" uid="147510" user="woodpeck_fixbot" changeset="10412890">
    <nd ref="280235445"/>
    <nd ref="280235514"/>
    <tag k="addr:city" v="South Lake"/>
    <tag k="addr:postcode" v="6164"/>
    <tag k="highway" v="residential"/>
  </way>
  <way id="25703383" version="3" timestamp="2010-07-09T07:30:28Z" uid="74617" user="JohnSmith" changeset="5171412">
    <nd ref="280235524"/>
    <nd ref="280235525"/>
    <nd ref="280235526"/>
    <tag k="highway" v="residential"/>
    <tag k="maxspeed" v="50"/>
    <tag k="maxspeed:source" v="default residential speed limit in Australia"/>
  </way>
  <way id="25703383" version="4" timestamp="2010-10-15T05:36:53Z" uid="325087" user="Palitu" changeset="6046295">
    <nd ref="280235524"/>
    <nd ref="280235525"/>
    <nd ref="280235526"/>
    <tag k="addr:city" v="South Lake"/>
    <tag k="addr:postcode" v="6164"/>
    <tag k="highway" v="residential"/>
    <tag k="maxspeed" v="50"/>
    <tag k="maxspeed:source" v="default residential speed limit in Australia"/>
  </way>
  <way id="25703383" version="5" timestamp="2012-01-17T00:42:55Z" uid="147510" user="woodpeck_fixbot" changeset="10412890">
    <nd ref="280235524"/>
    <nd ref="280235525"/>
    <nd ref="280235526"/>
    <tag k="addr:city" v="South Lake"/>
    <tag k="addr:postcode" v="6164"/>
    <tag k="highway" v="residential"/>
  </way>
  <way id="25703386" version="3" timestamp="2010-07-09T07:34:07Z" uid="74617" user="JohnSmith" changeset="5171412">
    <nd ref="280235546"/>
    <nd ref="280235547"/>
    <nd ref="280235548"/>
    <tag k="highway" v="residential"/>
    <tag k="maxspeed" v="50"/>
    <tag k="maxspeed:source" v="default residential speed limit in Australia"/>
  </way>
  <way id="25703386" version="4" timestamp="2010-10-15T05:36:39Z" uid="325087" user="Palitu" changeset="6046295">
    <nd ref="280235546"/>
    <nd ref="280235547"/>
    <nd ref="280235548"/>
    <tag k="addr:city" v="South Lake"/>
    <tag k="addr:postcode" v="6164"/>
    <tag k="highway" v="residential"/>
    <tag k="maxspeed" v="50"/>
    <tag k="maxspeed:source" v="default residential speed limit in Australia"/>
  </way>
  <way id="25703386" version="5" timestamp="2011-02-07T07:47:30Z" uid="325087" user="Palitu" changeset="7213187">
    <nd ref="280235546"/>
    <nd ref="280235547"/>
    <nd ref="280235548"/>
    <tag k="addr:city" v="South Lake"/>
    <tag k="addr:postcode" v="6164"/>
    <tag k="highway" v="residential"/>
    <tag k="maxspeed" v="50"/>
    <tag k="maxspeed:source" v="default residential speed limit in Australia"/>
    <tag k="name" v="Chestnut Place"/>
  </way>
  <way id="25703386" version="6" timestamp="2012-01-17T00:42:56Z" uid="147510" user="woodpeck_fixbot" changeset="10412890">
    <nd ref="280235546"/>
    <nd ref="280235547"/>
    <nd ref="280235548"/>
    <tag k="addr:city" v="South Lake"/>
    <tag k="addr:postcode" v="6164"/>
    <tag k="highway" v="residential"/>
    <tag k="name" v="Chestnut Place"/>
  </way>
  <way id="25703391" version="3" timestamp="2010-07-09T07:35:01Z" uid="74617" user="JohnSmith" changeset="5171412">
    <nd ref="280235563"/>
    <nd ref="280235564"/>
    <tag k="highway" v="residential"/>
    <tag k="maxspeed" v="50"/>
    <tag k="maxspeed:source" v="default residential speed limit in Australia"/>
  </way>
  <way id="25703391" version="4" timestamp="2010-10-15T05:36:36Z" uid="325087" user="Palitu" changeset="6046295">
    <nd ref="280235563"/>
    <nd ref="280235564"/>
    <tag k="addr:city" v="South Lake"/>
    <tag k="addr:postcode" v="6164"/>
    <tag k="highway" v="residential"/>
    <tag k="maxspeed" v="50"/>
    <tag k="maxspeed:source" v="default residential speed limit in Australia"/>
  </way>
  <way id="25703391" version="5" timestamp="2011-02-07T07:48:55Z" uid="325087" user="Palitu" changeset="7213187">
    <nd ref="280235563"/>
    <nd ref="280235564"/>
    <tag k="addr:city" v="South Lake"/>
    <tag k="addr:postcode" v="6164"/>
    <tag k="highway" v="residential"/>
    <tag k="maxspeed" v="50"/>
    <tag k="maxspeed:source" v="default residential speed limit in Australia"/>
    <tag k="name" v="Bomaria Close"/>
  </way>
  <way id="25703391" version="6" timestamp="2012-01-17T00:42:57Z" uid="147510" user="woodpeck_fixbot" changeset="10412890">
    <nd ref="280235563"/>
    <nd ref="280235564"/>
    <tag k="addr:city" v="South Lake"/>
    <tag k="addr:postcode" v="6164"/>
    <tag k="highway" v="residential"/>
    <tag k="name" v="Bomaria Close"/>
  </way>
  <way id="25703395" version="3" timestamp="2010-07-09T07:26:51Z" uid="74617" user="JohnSmith" changeset="5171412">
    <nd ref="280235565"/>
    <nd ref="280235591"/>
    <tag k="highway" v="residential"/>
    <tag k="maxspeed" v="50"/>
    <tag k="maxspeed:source" v="default residential speed limit in Australia"/>
  </way>
  <way id="25703395" version="4" timestamp="2010-10-15T05:36:54Z" uid="325087" user="Palitu" changeset="6046295">
    <nd ref="280235565"/>
    <nd ref="280235591"/>
    <tag k="addr:city" v="South Lake"/>
    <tag k="addr:postcode" v="6164"/>
    <tag k="highway" v="residential"/>
    <tag k="maxspeed" v="50"/>
    <tag k="maxspeed:source" v="default residential speed limit in Australia"/>
  </way>
  <way id="25703395" version="5" timestamp="2011-02-07T07:47:34Z" uid="325087" user="Palitu" changeset="7213187">
    <nd ref="280235565"/>
    <nd ref="280235591"/>
    <tag k="addr:city" v="South Lake"/>
    <tag k="addr:postcode" v="6164"/>
    <tag k="highway" v="residential"/>
    <tag k="maxspeed" v="50"/>
    <tag k="maxspeed:source" v="default residential speed limit in Australia"/>
    <tag k="name" v="Panax Ct"/>
  </way>
  <way id="25703395" version="6" timestamp="2011-02-08T15:28:35Z" uid="4467" user="Rosscoe" changeset="7227652">
    <nd ref="280235565"/>
    <nd ref="280235591"/>
    <tag k="addr:city" v="South Lake"/>
    <tag k="addr:postcode" v="6164"/>
    <tag k="highway" v="residential"/>
    <tag k="maxspeed" v="50"/>
    <tag k="maxspeed:source" v="default residential speed limit in Australia"/>
    <tag k="name" v="Panax Court"/>
  </way>
  <way id="25703395" version="7" timestamp="2012-01-17T00:42:59Z" uid="147510" user="woodpeck_fixbot" changeset="10412890">
    <nd ref="280235565"/>
    <nd ref="280235591"/>
    <tag k="addr:city" v="South Lake"/>
    <tag k="addr:postcode" v="6164"/>
    <tag k="highway" v="residential"/>
    <tag k="name" v="Panax Court"/>
  </way>
  <way id="25703398" version="2" timestamp="2010-07-09T07:37:11Z" uid="74617" user="JohnSmith" changeset="5171412">
    <nd ref="280235593"/>
    <nd ref="280235602"/>
    <tag k="highway" v="residential"/>
    <tag k="maxspeed" v="50"/>
    <tag k="maxspeed:source" v="default residential speed limit in Australia"/>
  </way>
  <way id="25703398" version="3" timestamp="2010-10-15T05:37:09Z" uid="325087" user="Palitu" changeset="6046295">
    <nd ref="280235593"/>
    <nd ref="280235602"/>
    <tag k="addr:city" v="South Lake"/>
    <tag k="addr:postcode" v="6164"/>
    <tag k="highway" v="residential"/>
    <tag k="maxspeed" v="50"/>
    <tag k="maxspeed:source" v="default residential speed limit in Australia"/>
  </way>
  <way id="25703398" version="4" timestamp="2012-01-17T00:43:00Z" uid="147510" user="woodpeck_fixbot" changeset="10412890">
    <nd ref="280235593"/>
    <nd ref="280235602"/>
    <tag k="addr:city" v="South Lake"/>
    <tag k="addr:postcode" v="6164"/>
    <tag k="highway" v="residential"/>
  </way>
  <way id="25703418" version="7" timestamp="2010-07-09T07:38:48Z" uid="74617" user="JohnSmith" changeset="5171412">
    <nd ref="280235605"/>
    <nd ref="280235799"/>
    <nd ref="280235722"/>
    <nd ref="280235747"/>
    <nd ref="280235794"/>
    <nd ref="280235869"/>
    <nd ref="280235798"/>
    <nd ref="280235682"/>
    <nd ref="280235683"/>
    <nd ref="280235684"/>
    <nd ref="280235685"/>
    <nd ref="280235686"/>
    <nd ref="280235877"/>
    <nd ref="280235687"/>
    <nd ref="280235749"/>
    <nd ref="280235750"/>
    <nd ref="280235751"/>
    <tag k="highway" v="residential"/>
    <tag k="maxspeed" v="50"/>
    <tag k="maxspeed:source" v="default residential speed limit in Australia"/>
  </way>
  <way id="25703418" version="8" timestamp="2010-10-15T05:37:15Z" uid="325087" user="Palitu" changeset="6046295">
    <nd ref="280235605"/>
    <nd ref="280235799"/>
    <nd ref="280235722"/>
    <nd ref="280235747"/>
    <nd ref="280235794"/>
    <nd ref="280235869"/>
    <nd ref="280235798"/>
    <nd ref="280235682"/>
    <nd ref="280235683"/>
    <nd ref="280235684"/>
    <nd ref="280235685"/>
    <nd ref="280235686"/>
    <nd ref="280235877"/>
    <nd ref="280235687"/>
    <nd ref="280235749"/>
    <nd ref="280235750"/>
    <nd ref="280235751"/>
    <tag k="addr:city" v="South Lake"/>
    <tag k="addr:postcode" v="6164"/>
    <tag k="highway" v="residential"/>
    <tag k="maxspeed" v="50"/>
    <tag k="maxspeed:source" v="default residential speed limit in Australia"/>
  </way>
  <way id="25703418" version="9" timestamp="2011-02-07T07:48:43Z" uid="325087" user="Palitu" changeset="7213187">
    <nd ref="280235605"/>
    <nd ref="280235799"/>
    <nd ref="280235722"/>
    <nd ref="280235747"/>
    <nd ref="280235794"/>
    <nd ref="280235869"/>
    <nd ref="280235798"/>
    <nd ref="280235682"/>
    <nd ref="280235683"/>
    <nd ref="280235684"/>
    <nd ref="280235685"/>
    <nd ref="280235686"/>
    <nd ref="280235877"/>
    <nd ref="280235687"/>
    <nd ref="280235749"/>
    <nd ref="280235750"/>
    <nd ref="280235751"/>
    <tag k="addr:city" v="South Lake"/>
    <tag k="addr:postcode" v="6164"/>
    <tag k="highway" v="residential"/>
    <tag k="maxspeed" v="50"/>
    <tag k="maxspeed:source" v="default residential speed limit in Australia"/>
    <tag k="name" v="Mason Court"/>
  </way>
  <way id="25703418" version="10" timestamp="2012-01-17T00:43:02Z" uid="147510" user="woodpeck_fixbot" changeset="10412890">
    <nd ref="280235605"/>
    <nd ref="280235799"/>
    <nd ref="280235722"/>
    <nd ref="280235747"/>
    <nd ref="280235794"/>
    <nd ref="280235869"/>
    <nd ref="280235798"/>
    <nd ref="280235682"/>
    <nd ref="280235683"/>
    <nd ref="280235684"/>
    <nd ref="280235685"/>
    <nd ref="280235686"/>
    <nd ref="280235877"/>
    <nd ref="280235687"/>
    <nd ref="280235749"/>
    <nd ref="280235750"/>
    <nd ref="280235751"/>
    <tag k="addr:city" v="South Lake"/>
    <tag k="addr:postcode" v="6164"/>
    <tag k="highway" v="residential"/>
    <tag k="name" v="Mason Court"/>
  </way>
  <way id="25703421" version="2" timestamp="2010-07-09T07:29:45Z" uid="74617" user="JohnSmith" changeset="5171412">
    <nd ref="280235722"/>
    <nd ref="280235723"/>
    <nd ref="280235724"/>
    <nd ref="280235725"/>
    <tag k="highway" v="residential"/>
    <tag k="maxspeed" v="50"/>
    <tag k="maxspeed:source" v="default residential speed limit in Australia"/>
  </way>
  <way id="25703421" version="3" timestamp="2010-10-15T05:36:46Z" uid="325087" user="Palitu" changeset="6046295">
    <nd ref="280235722"/>
    <nd ref="280235723"/>
    <nd ref="280235724"/>
    <nd ref="280235725"/>
    <tag k="addr:city" v="South Lake"/>
    <tag k="addr:postcode" v="6164"/>
    <tag k="highway" v="residential"/>
    <tag k="maxspeed" v="50"/>
    <tag k="maxspeed:source" v="default residential speed limit in Australia"/>
  </way>
  <way id="25703421" version="4" timestamp="2012-01-17T00:43:03Z" uid="147510" user="woodpeck_fixbot" changeset="10412890">
    <nd ref="280235722"/>
    <nd ref="280235723"/>
    <nd ref="280235724"/>
    <nd ref="280235725"/>
    <tag k="addr:city" v="South Lake"/>
    <tag k="addr:postcode" v="6164"/>
    <tag k="highway" v="residential"/>
  </way>
  <way id="25703426" version="3" timestamp="2010-07-09T07:34:26Z" uid="74617" user="JohnSmith" changeset="5171412">
    <nd ref="280235723"/>
    <nd ref="280235745"/>
    <nd ref="280235746"/>
    <nd ref="280235747"/>
    <tag k="highway" v="residential"/>
    <tag k="maxspeed" v="50"/>
    <tag k="maxspeed:source" v="default residential speed limit in Australia"/>
  </way>
  <way id="25703426" version="4" timestamp="2010-10-15T05:36:43Z" uid="325087" user="Palitu" changeset="6046295">
    <nd ref="280235723"/>
    <nd ref="280235745"/>
    <nd ref="280235746"/>
    <nd ref="280235747"/>
    <tag k="addr:city" v="South Lake"/>
    <tag k="addr:postcode" v="6164"/>
    <tag k="highway" v="residential"/>
    <tag k="maxspeed" v="50"/>
    <tag k="maxspeed:source" v="default residential speed limit in Australia"/>
  </way>
  <way id="25703426" version="5" timestamp="2011-02-07T07:47:55Z" uid="325087" user="Palitu" changeset="7213187">
    <nd ref="280235723"/>
    <nd ref="280235745"/>
    <nd ref="280235746"/>
    <nd ref="280235747"/>
    <tag k="addr:city" v="South Lake"/>
    <tag k="addr:postcode" v="6164"/>
    <tag k="highway" v="residential"/>
    <tag k="maxspeed" v="50"/>
    <tag k="maxspeed:source" v="default residential speed limit in Australia"/>
    <tag k="name" v="Natham Road"/>
  </way>
  <way id="25703426" version="6" timestamp="2012-01-17T00:43:05Z" uid="147510" user="woodpeck_fixbot" changeset="10412890">
    <nd ref="280235723"/>
    <nd ref="280235745"/>
    <nd ref="280235746"/>
    <nd ref="280235747"/>
    <tag k="addr:city" v="South Lake"/>
    <tag k="addr:postcode" v="6164"/>
    <tag k="highway" v="residential"/>
    <tag k="name" v="Natham Road"/>
  </way>
  <way id="25703428" version="8" timestamp="2009-02-23T13:30:55Z" uid="34428" user="usm78-gis" changeset="634299"/>
  <way id="25703429" version="2" timestamp="2010-07-09T07:26:43Z" uid="74617" user="JohnSmith" changeset="5171412">
    <nd ref="280235794"/>
    <nd ref="280235795"/>
    <nd ref="280235796"/>
    <nd ref="280235797"/>
    <nd ref="280235798"/>
    <tag k="highway" v="residential"/>
    <tag k="maxspeed" v="50"/>
    <tag k="maxspeed:source" v="default residential speed limit in Australia"/>
  </way>
  <way id="25703429" version="3" timestamp="2010-10-15T05:37:00Z" uid="325087" user="Palitu" changeset="6046295">
    <nd ref="280235794"/>
    <nd ref="280235795"/>
    <nd ref="280235796"/>
    <nd ref="280235797"/>
    <nd ref="280235798"/>
    <tag k="addr:city" v="South Lake"/>
    <tag k="addr:postcode" v="6164"/>
    <tag k="highway" v="residential"/>
    <tag k="maxspeed" v="50"/>
    <tag k="maxspeed:source" v="default residential speed limit in Australia"/>
  </way>
  <way id="25703429" version="4" timestamp="2011-02-07T07:48:14Z" uid="325087" user="Palitu" changeset="7213187">
    <nd ref="280235794"/>
    <nd ref="280235795"/>
    <nd ref="280235796"/>
    <nd ref="280235797"/>
    <nd ref="280235798"/>
    <tag k="addr:city" v="South Lake"/>
    <tag k="addr:postcode" v="6164"/>
    <tag k="highway" v="residential"/>
    <tag k="maxspeed" v="50"/>
    <tag k="maxspeed:source" v="default residential speed limit in Australia"/>
    <tag k="name" v="Citrus Loop"/>
  </way>
  <way id="25703429" version="5" timestamp="2012-01-17T00:43:06Z" uid="147510" user="woodpeck_fixbot" changeset="10412890">
    <nd ref="280235794"/>
    <nd ref="280235795"/>
    <nd ref="280235796"/>
    <nd ref="280235797"/>
    <nd ref="280235798"/>
    <tag k="addr:city" v="South Lake"/>
    <tag k="addr:postcode" v="6164"/>
    <tag k="highway" v="residential"/>
    <tag k="name" v="Citrus Loop"/>
  </way>
  <way id="25703436" version="5" timestamp="2010-07-09T07:27:56Z" uid="74617" user="JohnSmith" changeset="5171412">
    <nd ref="280235869"/>
    <nd ref="280235915"/>
    <nd ref="280235751"/>
    <nd ref="280235870"/>
    <nd ref="280235881"/>
    <nd ref="280235938"/>
    <nd ref="280226312"/>
    <tag k="highway" v="residential"/>
    <tag k="maxspeed" v="50"/>
    <tag k="maxspeed:source" v="default residential speed limit in Australia"/>
  </way>
  <way id="25703436" version="6" timestamp="2010-10-15T05:36:57Z" uid="325087" user="Palitu" changeset="6046295">
    <nd ref="280235869"/>
    <nd ref="280235915"/>
    <nd ref="280235751"/>
    <nd ref="280235870"/>
    <nd ref="280235881"/>
    <nd ref="280235938"/>
    <nd ref="280226312"/>
    <tag k="addr:city" v="South Lake"/>
    <tag k="addr:postcode" v="6164"/>
    <tag k="highway" v="residential"/>
    <tag k="maxspeed" v="50"/>
    <tag k="maxspeed:source" v="default residential speed limit in Australia"/>
  </way>
  <way id="25703436" version="7" timestamp="2011-02-07T07:48:02Z" uid="325087" user="Palitu" changeset="7213187">
    <nd ref="280235869"/>
    <nd ref="280235915"/>
    <nd ref="280235751"/>
    <nd ref="280235870"/>
    <nd ref="280235881"/>
    <nd ref="280235938"/>
    <nd ref="280226312"/>
    <tag k="addr:city" v="South Lake"/>
    <tag k="addr:postcode" v="6164"/>
    <tag k="highway" v="residential"/>
    <tag k="maxspeed" v="50"/>
    <tag k="maxspeed:source" v="default residential speed limit in Australia"/>
    <tag k="name" v="Hackettiana Avenue"/>
  </way>
  <way id="25703436" version="8" timestamp="2012-01-17T00:43:08Z" uid="147510" user="woodpeck_fixbot" changeset="10412890">
    <nd ref="280235869"/>
    <nd ref="280235915"/>
    <nd ref="280235751"/>
    <nd ref="280235870"/>
    <nd ref="280235881"/>
    <nd ref="280235938"/>
    <nd ref="280226312"/>
    <tag k="addr:city" v="South Lake"/>
    <tag k="addr:postcode" v="6164"/>
    <tag k="highway" v="residential"/>
    <tag k="name" v="Hackettiana Avenue"/>
  </way>
  <way id="25703438" version="2" timestamp="2010-07-09T07:37:49Z" uid="74617" user="JohnSmith" changeset="5171412">
    <nd ref="280235877"/>
    <nd ref="280235878"/>
    <nd ref="280235879"/>
    <tag k="highway" v="residential"/>
    <tag k="maxspeed" v="50"/>
    <tag k="maxspeed:source" v="default residential speed limit in Australia"/>
  </way>
  <way id="25703438" version="3" timestamp="2010-10-15T05:36:33Z" uid="325087" user="Palitu" changeset="6046295">
    <nd ref="280235877"/>
    <nd ref="280235878"/>
    <nd ref="280235879"/>
    <tag k="addr:city" v="South Lake"/>
    <tag k="addr:postcode" v="6164"/>
    <tag k="highway" v="residential"/>
    <tag k="maxspeed" v="50"/>
    <tag k="maxspeed:source" v="default residential speed limit in Australia"/>
  </way>
  <way id="25703438" version="4" timestamp="2011-02-07T07:47:41Z" uid="325087" user="Palitu" changeset="7213187">
    <nd ref="280235877"/>
    <nd ref="280235878"/>
    <nd ref="280235879"/>
    <tag k="addr:city" v="South Lake"/>
    <tag k="addr:postcode" v="6164"/>
    <tag k="highway" v="residential"/>
    <tag k="maxspeed" v="50"/>
    <tag k="maxspeed:source" v="default residential speed limit in Australia"/>
    <tag k="name" v="Pecan Court"/>
  </way>
  <way id="25703438" version="5" timestamp="2012-01-17T00:43:09Z" uid="147510" user="woodpeck_fixbot" changeset="10412890">
    <nd ref="280235877"/>
    <nd ref="280235878"/>
    <nd ref="280235879"/>
    <tag k="addr:city" v="South Lake"/>
    <tag k="addr:postcode" v="6164"/>
    <tag k="highway" v="residential"/>
    <tag k="name" v="Pecan Court"/>
  </way>
  <way id="25703445" version="3" timestamp="2010-07-09T07:36:21Z" uid="74617" user="JohnSmith" changeset="5171412">
    <nd ref="280235915"/>
    <nd ref="280235916"/>
    <nd ref="280235917"/>
    <nd ref="280235918"/>
    <nd ref="280235919"/>
    <nd ref="280235920"/>
    <tag k="highway" v="residential"/>
    <tag k="maxspeed" v="50"/>
    <tag k="maxspeed:source" v="default residential speed limit in Australia"/>
  </way>
  <way id="25703445" version="4" timestamp="2010-10-15T05:36:40Z" uid="325087" user="Palitu" changeset="6046295">
    <nd ref="280235915"/>
    <nd ref="280235916"/>
    <nd ref="280235917"/>
    <nd ref="280235918"/>
    <nd ref="280235919"/>
    <nd ref="280235920"/>
    <tag k="addr:city" v="South Lake"/>
    <tag k="addr:postcode" v="6164"/>
    <tag k="highway" v="residential"/>
    <tag k="maxspeed" v="50"/>
    <tag k="maxspeed:source" v="default residential speed limit in Australia"/>
  </way>
  <way id="25703445" version="5" timestamp="2012-01-17T00:43:11Z" uid="147510" user="woodpeck_fixbot" changeset="10412890">
    <nd ref="280235915"/>
    <nd ref="280235916"/>
    <nd ref="280235917"/>
    <nd ref="280235918"/>
    <nd ref="280235919"/>
    <nd ref="280235920"/>
    <tag k="addr:city" v="South Lake"/>
    <tag k="addr:postcode" v="6164"/>
    <tag k="highway" v="residential"/>
  </way>
  <way id="25703446" version="3" timestamp="2010-07-09T07:26:28Z" uid="74617" user="JohnSmith" changeset="5171412">
    <nd ref="280235917"/>
    <nd ref="280235935"/>
    <nd ref="280235936"/>
    <tag k="highway" v="residential"/>
    <tag k="maxspeed" v="50"/>
    <tag k="maxspeed:source" v="default residential speed limit in Australia"/>
  </way>
  <way id="25703446" version="4" timestamp="2010-10-15T05:36:30Z" uid="325087" user="Palitu" changeset="6046295">
    <nd ref="280235917"/>
    <nd ref="280235935"/>
    <nd ref="280235936"/>
    <tag k="addr:city" v="South Lake"/>
    <tag k="addr:postcode" v="6164"/>
    <tag k="highway" v="residential"/>
    <tag k="maxspeed" v="50"/>
    <tag k="maxspeed:source" v="default residential speed limit in Australia"/>
  </way>
  <way id="25703446" version="5" timestamp="2012-01-17T00:43:13Z" uid="147510" user="woodpeck_fixbot" changeset="10412890">
    <nd ref="280235917"/>
    <nd ref="280235935"/>
    <nd ref="280235936"/>
    <tag k="addr:city" v="South Lake"/>
    <tag k="addr:postcode" v="6164"/>
    <tag k="highway" v="residential"/>
  </way>
  <way id="25703447" version="2" timestamp="2010-07-09T07:29:33Z" uid="74617" user="JohnSmith" changeset="5171412">
    <nd ref="280235938"/>
    <nd ref="280235941"/>
    <nd ref="280235942"/>
    <tag k="highway" v="residential"/>
    <tag k="maxspeed" v="50"/>
    <tag k="maxspeed:source" v="default residential speed limit in Australia"/>
  </way>
  <way id="25703447" version="3" timestamp="2010-10-15T05:37:08Z" uid="325087" user="Palitu" changeset="6046295">
    <nd ref="280235938"/>
    <nd ref="280235941"/>
    <nd ref="280235942"/>
    <tag k="addr:city" v="South Lake"/>
    <tag k="addr:postcode" v="6164"/>
    <tag k="highway" v="residential"/>
    <tag k="maxspeed" v="50"/>
    <tag k="maxspeed:source" v="default residential speed limit in Australia"/>
  </way>
  <way id="25703447" version="4" timestamp="2011-02-07T07:47:44Z" uid="325087" user="Palitu" changeset="7213187">
    <nd ref="280235938"/>
    <nd ref="280235941"/>
    <nd ref="280235942"/>
    <tag k="addr:city" v="South Lake"/>
    <tag k="addr:postcode" v="6164"/>
    <tag k="highway" v="residential"/>
    <tag k="maxspeed" v="50"/>
    <tag k="maxspeed:source" v="default residential speed limit in Australia"/>
    <tag k="name" v="Lessing Place"/>
  </way>
  <way id="25703447" version="5" timestamp="2012-01-17T00:43:14Z" uid="147510" user="woodpeck_fixbot" changeset="10412890">
    <nd ref="280235938"/>
    <nd ref="280235941"/>
    <nd ref="280235942"/>
    <tag k="addr:city" v="South Lake"/>
    <tag k="addr:postcode" v="6164"/>
    <tag k="highway" v="residential"/>
    <tag k="name" v="Lessing Place"/>
  </way>
  <way id="25703452" version="3" timestamp="2010-07-09T07:38:39Z" uid="74617" user="JohnSmith" changeset="5171412">
    <nd ref="280235941"/>
    <nd ref="280235971"/>
    <nd ref="280235972"/>
    <tag k="highway" v="residential"/>
    <tag k="maxspeed" v="50"/>
    <tag k="maxspeed:source" v="default residential speed limit in Australia"/>
  </way>
  <way id="25703452" version="4" timestamp="2010-10-15T05:36:36Z" uid="325087" user="Palitu" changeset="6046295">
    <nd ref="280235941"/>
    <nd ref="280235971"/>
    <nd ref="280235972"/>
    <tag k="addr:city" v="South Lake"/>
    <tag k="addr:postcode" v="6164"/>
    <tag k="highway" v="residential"/>
    <tag k="maxspeed" v="50"/>
    <tag k="maxspeed:source" v="default residential speed limit in Australia"/>
  </way>
  <way id="25703452" version="5" timestamp="2011-02-07T07:48:01Z" uid="325087" user="Palitu" changeset="7213187">
    <nd ref="280235941"/>
    <nd ref="280235971"/>
    <nd ref="280235972"/>
    <tag k="addr:city" v="South Lake"/>
    <tag k="addr:postcode" v="6164"/>
    <tag k="highway" v="residential"/>
    <tag k="maxspeed" v="50"/>
    <tag k="maxspeed:source" v="default residential speed limit in Australia"/>
    <tag k="name" v="Adrina Court"/>
  </way>
  <way id="25703452" version="6" timestamp="2012-01-17T00:43:16Z" uid="147510" user="woodpeck_fixbot" changeset="10412890">
    <nd ref="280235941"/>
    <nd ref="280235971"/>
    <nd ref="280235972"/>
    <tag k="addr:city" v="South Lake"/>
    <tag k="addr:postcode" v="6164"/>
    <tag k="highway" v="residential"/>
    <tag k="name" v="Adrina Court"/>
  </way>
  <way id="25703455" version="3" timestamp="2010-07-09T07:34:08Z" uid="74617" user="JohnSmith" changeset="5171412">
    <nd ref="280235974"/>
    <nd ref="280235984"/>
    <nd ref="280236106"/>
    <tag k="highway" v="residential"/>
    <tag k="maxspeed" v="50"/>
    <tag k="maxspeed:source" v="default residential speed limit in Australia"/>
  </way>
  <way id="25703455" version="4" timestamp="2011-01-15T06:35:11Z" uid="4467" user="Rosscoe" changeset="6973859">
    <nd ref="1041109871"/>
    <nd ref="280235974"/>
    <nd ref="280235984"/>
    <nd ref="280236106"/>
    <tag k="highway" v="residential"/>
    <tag k="maxspeed" v="50"/>
    <tag k="maxspeed:source" v="default residential speed limit in Australia"/>
  </way>
  <way id="25703455" version="5" timestamp="2011-02-07T07:48:34Z" uid="325087" user="Palitu" changeset="7213187">
    <nd ref="1041109871"/>
    <nd ref="280235974"/>
    <nd ref="280235984"/>
    <nd ref="280236106"/>
    <tag k="highway" v="residential"/>
    <tag k="maxspeed" v="50"/>
    <tag k="maxspeed:source" v="default residential speed limit in Australia"/>
    <tag k="name" v="Omeo Street"/>
  </way>
  <way id="25703455" version="6" timestamp="2012-01-17T00:43:17Z" uid="147510" user="woodpeck_fixbot" changeset="10412890">
    <nd ref="1041109871"/>
    <nd ref="280235974"/>
    <nd ref="280235984"/>
    <nd ref="280236106"/>
    <tag k="highway" v="residential"/>
    <tag k="name" v="Omeo Street"/>
  </way>
  <way id="25703459" version="2" timestamp="2010-07-09T07:26:11Z" uid="74617" user="JohnSmith" changeset="5171412">
    <nd ref="280236104"/>
    <nd ref="280236105"/>
    <nd ref="280236106"/>
    <nd ref="280236107"/>
    <nd ref="280236108"/>
    <nd ref="280236109"/>
    <tag k="highway" v="residential"/>
    <tag k="maxspeed" v="50"/>
    <tag k="maxspeed:source" v="default residential speed limit in Australia"/>
  </way>
  <way id="25703459" version="3" timestamp="2011-02-07T07:48:52Z" uid="325087" user="Palitu" changeset="7213187">
    <nd ref="280236104"/>
    <nd ref="280236105"/>
    <nd ref="280236106"/>
    <nd ref="280236107"/>
    <nd ref="280236108"/>
    <nd ref="280236109"/>
    <tag k="highway" v="residential"/>
    <tag k="maxspeed" v="50"/>
    <tag k="maxspeed:source" v="default residential speed limit in Australia"/>
    <tag k="name" v="Little Rush Close"/>
  </way>
  <way id="25703459" version="4" timestamp="2012-01-17T00:43:18Z" uid="147510" user="woodpeck_fixbot" changeset="10412890">
    <nd ref="280236104"/>
    <nd ref="280236105"/>
    <nd ref="280236106"/>
    <nd ref="280236107"/>
    <nd ref="280236108"/>
    <nd ref="280236109"/>
    <tag k="highway" v="residential"/>
    <tag k="name" v="Little Rush Close"/>
  </way>
  <way id="25703473" version="4" timestamp="2010-04-30T15:19:20Z" uid="242497" user="cvl" changeset="4567129">
    <nd ref="280236214"/>
    <nd ref="280236215"/>
    <nd ref="280236216"/>
    <nd ref="280236217"/>
    <nd ref="280236218"/>
    <nd ref="280236219"/>
    <nd ref="280236220"/>
    <nd ref="280236221"/>
    <nd ref="280236222"/>
    <nd ref="280236223"/>
    <nd ref="280236224"/>
    <nd ref="280236225"/>
    <nd ref="280236214"/>
    <tag k="landuse" v="retail"/>
    <tag k="name" v="Lakeside Shopping Centre"/>
  </way>
  <way id="25703473" version="5" timestamp="2011-02-10T06:11:27Z" uid="325087" user="Palitu" changeset="7242612">
    <nd ref="280236214"/>
    <nd ref="280236215"/>
    <nd ref="280236216"/>
    <nd ref="280236217"/>
    <nd ref="280236218"/>
    <nd ref="280236219"/>
    <nd ref="280236220"/>
    <nd ref="280236221"/>
    <nd ref="280236222"/>
    <nd ref="280236223"/>
    <nd ref="280236224"/>
    <nd ref="280236225"/>
    <nd ref="280236214"/>
    <tag k="landuse" v="retail"/>
    <tag k="name" v="Lakes Shopping Centre"/>
  </way>
  <way id="25703507" version="4" timestamp="2010-04-29T05:49:15Z" uid="242497" user="cvl" changeset="4555271">
    <nd ref="280236464"/>
    <nd ref="280236521"/>
    <nd ref="280236538"/>
    <nd ref="280236523"/>
    <nd ref="711425363"/>
    <nd ref="280236542"/>
    <nd ref="280236552"/>
    <nd ref="280236549"/>
    <nd ref="280236525"/>
    <tag k="highway" v="residential"/>
  </way>
  <way id="25703507" version="5" timestamp="2010-07-09T07:25:01Z" uid="74617" user="JohnSmith" changeset="5171412">
    <nd ref="280236464"/>
    <nd ref="280236521"/>
    <nd ref="280236538"/>
    <nd ref="280236523"/>
    <nd ref="711425363"/>
    <nd ref="280236542"/>
    <nd ref="280236552"/>
    <nd ref="280236549"/>
    <nd ref="280236525"/>
    <tag k="highway" v="residential"/>
    <tag k="maxspeed" v="50"/>
    <tag k="maxspeed:source" v="default residential speed limit in Australia"/>
  </way>
  <way id="25703507" version="6" timestamp="2010-10-15T05:36:39Z" uid="325087" user="Palitu" changeset="6046295">
    <nd ref="280236464"/>
    <nd ref="280236521"/>
    <nd ref="280236538"/>
    <nd ref="280236523"/>
    <nd ref="711425363"/>
    <nd ref="280236542"/>
    <nd ref="280236552"/>
    <nd ref="280236549"/>
    <nd ref="280236525"/>
    <tag k="addr:city" v="Bibra Lake"/>
    <tag k="addr:postcode" v="6163"/>
    <tag k="highway" v="residential"/>
    <tag k="maxspeed" v="50"/>
    <tag k="maxspeed:source" v="default residential speed limit in Australia"/>
  </way>
  <way id="25703507" version="7" timestamp="2011-12-16T05:29:48Z" uid="96046" user="colin_090" changeset="10128832">
    <nd ref="280236464"/>
    <nd ref="280236521"/>
    <nd ref="280236538"/>
    <nd ref="280236523"/>
    <nd ref="711425363"/>
    <nd ref="280236542"/>
    <nd ref="280236552"/>
    <nd ref="280236549"/>
    <nd ref="1548361176"/>
    <nd ref="280236525"/>
    <nd ref="280236549"/>
    <nd ref="1548361176"/>
    <nd ref="280236549"/>
    <tag k="addr:city" v="Bibra Lake"/>
    <tag k="addr:postcode" v="6163"/>
    <tag k="highway" v="residential"/>
    <tag k="maxspeed" v="50"/>
    <tag k="maxspeed:source" v="default residential speed limit in Australia"/>
    <tag k="name" v="Prout Way"/>
    <tag k="oneway" v="no"/>
  </way>
  <way id="25703507" version="8" timestamp="2012-01-17T00:43:20Z" uid="147510" user="woodpeck_fixbot" changeset="10412890">
    <nd ref="280236464"/>
    <nd ref="280236521"/>
    <nd ref="280236538"/>
    <nd ref="280236523"/>
    <nd ref="711425363"/>
    <nd ref="280236542"/>
    <nd ref="280236552"/>
    <nd ref="280236549"/>
    <nd ref="1548361176"/>
    <nd ref="280236525"/>
    <nd ref="280236549"/>
    <nd ref="1548361176"/>
    <nd ref="280236549"/>
    <tag k="addr:city" v="Bibra Lake"/>
    <tag k="addr:postcode" v="6163"/>
    <tag k="highway" v="residential"/>
    <tag k="name" v="Prout Way"/>
    <tag k="oneway" v="no"/>
  </way>
  <way id="25703507" version="9" timestamp="2012-03-25T09:43:18Z" uid="189263" user="wildmyron" changeset="11092955">
    <nd ref="280236464"/>
    <nd ref="280236521"/>
    <nd ref="280236538"/>
    <nd ref="280236523"/>
    <nd ref="711425363"/>
    <nd ref="280236542"/>
    <nd ref="280236552"/>
    <nd ref="280236549"/>
    <nd ref="280236525"/>
    <tag k="addr:city" v="Bibra Lake"/>
    <tag k="addr:postcode" v="6163"/>
    <tag k="highway" v="residential"/>
    <tag k="name" v="Prout Way"/>
    <tag k="oneway" v="no"/>
  </way>
  <way id="25703509" version="2" timestamp="2010-07-09T07:29:03Z" uid="74617" user="JohnSmith" changeset="5171412">
    <nd ref="280236538"/>
    <nd ref="280236539"/>
    <nd ref="280236540"/>
    <nd ref="280236541"/>
    <nd ref="280236542"/>
    <tag k="highway" v="residential"/>
    <tag k="maxspeed" v="50"/>
    <tag k="maxspeed:source" v="default residential speed limit in Australia"/>
  </way>
  <way id="25703509" version="3" timestamp="2010-10-15T05:37:07Z" uid="325087" user="Palitu" changeset="6046295">
    <nd ref="280236538"/>
    <nd ref="280236539"/>
    <nd ref="280236540"/>
    <nd ref="280236541"/>
    <nd ref="280236542"/>
    <tag k="addr:city" v="Bibra Lake"/>
    <tag k="addr:postcode" v="6163"/>
    <tag k="highway" v="residential"/>
    <tag k="maxspeed" v="50"/>
    <tag k="maxspeed:source" v="default residential speed limit in Australia"/>
  </way>
  <way id="25703509" version="4" timestamp="2012-01-17T00:43:21Z" uid="147510" user="woodpeck_fixbot" changeset="10412890">
    <nd ref="280236538"/>
    <nd ref="280236539"/>
    <nd ref="280236540"/>
    <nd ref="280236541"/>
    <nd ref="280236542"/>
    <tag k="addr:city" v="Bibra Lake"/>
    <tag k="addr:postcode" v="6163"/>
    <tag k="highway" v="residential"/>
  </way>
  <way id="25703511" version="2" timestamp="2010-07-09T07:39:06Z" uid="74617" user="JohnSmith" changeset="5171412">
    <nd ref="280236549"/>
    <nd ref="280236550"/>
    <tag k="highway" v="residential"/>
    <tag k="maxspeed" v="50"/>
    <tag k="maxspeed:source" v="default residential speed limit in Australia"/>
  </way>
  <way id="25703511" version="3" timestamp="2012-01-17T00:43:23Z" uid="147510" user="woodpeck_fixbot" changeset="10412890">
    <nd ref="280236549"/>
    <nd ref="280236550"/>
    <tag k="highway" v="residential"/>
  </way>
  <way id="25703516" version="4" timestamp="2010-07-09T07:30:41Z" uid="74617" user="JohnSmith" changeset="5171412">
    <nd ref="280236583"/>
    <nd ref="280236568"/>
    <nd ref="280236584"/>
    <nd ref="280236550"/>
    <nd ref="280236591"/>
    <nd ref="280236570"/>
    <nd ref="280236571"/>
    <nd ref="280236586"/>
    <nd ref="280236573"/>
    <tag k="highway" v="residential"/>
    <tag k="maxspeed" v="50"/>
    <tag k="maxspeed:source" v="default residential speed limit in Australia"/>
  </way>
  <way id="25703516" version="5" timestamp="2010-10-15T05:37:03Z" uid="325087" user="Palitu" changeset="6046295">
    <nd ref="280236583"/>
    <nd ref="280236568"/>
    <nd ref="280236584"/>
    <nd ref="280236550"/>
    <nd ref="280236591"/>
    <nd ref="280236570"/>
    <nd ref="280236571"/>
    <nd ref="280236586"/>
    <nd ref="280236573"/>
    <tag k="addr:city" v="Bibra Lake"/>
    <tag k="addr:postcode" v="6163"/>
    <tag k="highway" v="residential"/>
    <tag k="maxspeed" v="50"/>
    <tag k="maxspeed:source" v="default residential speed limit in Australia"/>
  </way>
  <way id="25703516" version="6" timestamp="2012-01-17T00:43:24Z" uid="147510" user="woodpeck_fixbot" changeset="10412890">
    <nd ref="280236583"/>
    <nd ref="280236568"/>
    <nd ref="280236584"/>
    <nd ref="280236550"/>
    <nd ref="280236591"/>
    <nd ref="280236570"/>
    <nd ref="280236571"/>
    <nd ref="280236586"/>
    <nd ref="280236573"/>
    <tag k="addr:city" v="Bibra Lake"/>
    <tag k="addr:postcode" v="6163"/>
    <tag k="highway" v="residential"/>
  </way>
  <way id="25703519" version="2" timestamp="2010-07-09T07:27:15Z" uid="74617" user="JohnSmith" changeset="5171412">
    <nd ref="280236570"/>
    <nd ref="280236582"/>
    <tag k="highway" v="residential"/>
    <tag k="maxspeed" v="50"/>
    <tag k="maxspeed:source" v="default residential speed limit in Australia"/>
  </way>
  <way id="25703519" version="3" timestamp="2010-10-15T05:36:31Z" uid="325087" user="Palitu" changeset="6046295">
    <nd ref="280236570"/>
    <nd ref="280236582"/>
    <tag k="addr:city" v="Bibra Lake"/>
    <tag k="addr:postcode" v="6163"/>
    <tag k="highway" v="residential"/>
    <tag k="maxspeed" v="50"/>
    <tag k="maxspeed:source" v="default residential speed limit in Australia"/>
  </way>
  <way id="25703519" version="4" timestamp="2012-01-17T00:43:25Z" uid="147510" user="woodpeck_fixbot" changeset="10412890">
    <nd ref="280236570"/>
    <nd ref="280236582"/>
    <tag k="addr:city" v="Bibra Lake"/>
    <tag k="addr:postcode" v="6163"/>
    <tag k="highway" v="residential"/>
  </way>
  <way id="25703521" version="3" timestamp="2010-07-09T07:25:47Z" uid="74617" user="JohnSmith" changeset="5171412">
    <nd ref="280236591"/>
    <nd ref="280236593"/>
    <tag k="highway" v="residential"/>
    <tag k="maxspeed" v="50"/>
    <tag k="maxspeed:source" v="default residential speed limit in Australia"/>
  </way>
  <way id="25703521" version="4" timestamp="2010-10-15T05:37:08Z" uid="325087" user="Palitu" changeset="6046295">
    <nd ref="280236591"/>
    <nd ref="280236593"/>
    <tag k="addr:city" v="Bibra Lake"/>
    <tag k="addr:postcode" v="6163"/>
    <tag k="highway" v="residential"/>
    <tag k="maxspeed" v="50"/>
    <tag k="maxspeed:source" v="default residential speed limit in Australia"/>
  </way>
  <way id="25703521" version="5" timestamp="2012-01-17T00:43:26Z" uid="147510" user="woodpeck_fixbot" changeset="10412890">
    <nd ref="280236591"/>
    <nd ref="280236593"/>
    <tag k="addr:city" v="Bibra Lake"/>
    <tag k="addr:postcode" v="6163"/>
    <tag k="highway" v="residential"/>
  </way>
  <way id="25703522" version="2" timestamp="2010-07-09T07:31:22Z" uid="74617" user="JohnSmith" changeset="5171412">
    <nd ref="280236593"/>
    <nd ref="280236541"/>
    <tag k="highway" v="residential"/>
    <tag k="maxspeed" v="50"/>
    <tag k="maxspeed:source" v="default residential speed limit in Australia"/>
  </way>
  <way id="25703522" version="3" timestamp="2010-10-15T05:36:59Z" uid="325087" user="Palitu" changeset="6046295">
    <nd ref="280236593"/>
    <nd ref="280236541"/>
    <tag k="addr:city" v="Bibra Lake"/>
    <tag k="addr:postcode" v="6163"/>
    <tag k="highway" v="residential"/>
    <tag k="maxspeed" v="50"/>
    <tag k="maxspeed:source" v="default residential speed limit in Australia"/>
  </way>
  <way id="25703522" version="4" timestamp="2012-01-17T00:43:27Z" uid="147510" user="woodpeck_fixbot" changeset="10412890">
    <nd ref="280236593"/>
    <nd ref="280236541"/>
    <tag k="addr:city" v="Bibra Lake"/>
    <tag k="addr:postcode" v="6163"/>
    <tag k="highway" v="residential"/>
  </way>
  <way id="25703532" version="9" timestamp="2010-07-09T07:24:37Z" uid="74617" user="JohnSmith" changeset="5171412">
    <nd ref="280236525"/>
    <nd ref="280236716"/>
    <nd ref="280236678"/>
    <nd ref="280236679"/>
    <nd ref="280237383"/>
    <nd ref="280236681"/>
    <nd ref="280237514"/>
    <nd ref="280237588"/>
    <nd ref="280236684"/>
    <nd ref="280236685"/>
    <nd ref="280238423"/>
    <nd ref="280241549"/>
    <nd ref="280237590"/>
    <nd ref="280236687"/>
    <nd ref="280238445"/>
    <nd ref="280236688"/>
    <nd ref="280241217"/>
    <nd ref="280237592"/>
    <nd ref="280236691"/>
    <nd ref="280238404"/>
    <nd ref="280241550"/>
    <nd ref="280241548"/>
    <nd ref="574275476"/>
    <nd ref="280241459"/>
    <nd ref="280236693"/>
    <tag k="highway" v="residential"/>
    <tag k="maxspeed" v="50"/>
    <tag k="maxspeed:source" v="default residential speed limit in Australia"/>
  </way>
  <way id="25703532" version="10" timestamp="2010-10-15T05:37:10Z" uid="325087" user="Palitu" changeset="6046295">
    <nd ref="280236525"/>
    <nd ref="280236716"/>
    <nd ref="280236678"/>
    <nd ref="280236679"/>
    <nd ref="280237383"/>
    <nd ref="280236681"/>
    <nd ref="280237514"/>
    <nd ref="280237588"/>
    <nd ref="280236684"/>
    <nd ref="280236685"/>
    <nd ref="280238423"/>
    <nd ref="280241549"/>
    <nd ref="280237590"/>
    <nd ref="280236687"/>
    <nd ref="280238445"/>
    <nd ref="280236688"/>
    <nd ref="280241217"/>
    <nd ref="280237592"/>
    <nd ref="280236691"/>
    <nd ref="280238404"/>
    <nd ref="280241550"/>
    <nd ref="280241548"/>
    <nd ref="574275476"/>
    <nd ref="280241459"/>
    <nd ref="280236693"/>
    <tag k="addr:city" v="Bibra Lake"/>
    <tag k="addr:postcode" v="6163"/>
    <tag k="highway" v="residential"/>
    <tag k="maxspeed" v="50"/>
    <tag k="maxspeed:source" v="default residential speed limit in Australia"/>
  </way>
  <way id="25703532" version="11" timestamp="2011-12-16T05:30:20Z" uid="96046" user="colin_090" changeset="10128832">
    <nd ref="280236525"/>
    <nd ref="280236716"/>
    <nd ref="280236678"/>
    <nd ref="280236679"/>
    <nd ref="280237383"/>
    <nd ref="280236681"/>
    <nd ref="280237514"/>
    <nd ref="280237588"/>
    <nd ref="280236684"/>
    <nd ref="280236685"/>
    <nd ref="280238423"/>
    <nd ref="280241549"/>
    <nd ref="280237590"/>
    <nd ref="280236687"/>
    <nd ref="280238445"/>
    <nd ref="280236688"/>
    <nd ref="280241217"/>
    <nd ref="280237592"/>
    <nd ref="280236691"/>
    <nd ref="280238404"/>
    <tag k="addr:city" v="Bibra Lake"/>
    <tag k="addr:postcode" v="6163"/>
    <tag k="highway" v="residential"/>
    <tag k="maxspeed" v="50"/>
    <tag k="maxspeed:source" v="default residential speed limit in Australia"/>
    <tag k="name" v="Meller Road"/>
    <tag k="oneway" v="no"/>
  </way>
  <way id="25703532" version="12" timestamp="2012-01-17T00:43:29Z" uid="147510" user="woodpeck_fixbot" changeset="10412890">
    <nd ref="280236525"/>
    <nd ref="280236716"/>
    <nd ref="280236678"/>
    <nd ref="280236679"/>
    <nd ref="280237383"/>
    <nd ref="280236681"/>
    <nd ref="280237514"/>
    <nd ref="280237588"/>
    <nd ref="280236684"/>
    <nd ref="280236685"/>
    <nd ref="280238423"/>
    <nd ref="280241549"/>
    <nd ref="280237590"/>
    <nd ref="280236687"/>
    <nd ref="280238445"/>
    <nd ref="280236688"/>
    <nd ref="280241217"/>
    <nd ref="280237592"/>
    <nd ref="280236691"/>
    <nd ref="280238404"/>
    <tag k="addr:city" v="Bibra Lake"/>
    <tag k="addr:postcode" v="6163"/>
    <tag k="highway" v="residential"/>
    <tag k="name" v="Meller Road"/>
    <tag k="oneway" v="no"/>
  </way>
  <way id="25703538" version="4" timestamp="2010-04-29T05:49:14Z" uid="242497" user="cvl" changeset="4555271">
    <nd ref="280236716"/>
    <nd ref="280236717"/>
    <nd ref="280236706"/>
    <nd ref="711425356"/>
    <nd ref="280236707"/>
    <nd ref="280236718"/>
    <nd ref="280236709"/>
    <nd ref="280237005"/>
    <nd ref="279520876"/>
    <tag k="highway" v="residential"/>
  </way>
  <way id="25703538" version="5" timestamp="2010-07-09T07:25:17Z" uid="74617" user="JohnSmith" changeset="5171412">
    <nd ref="280236716"/>
    <nd ref="280236717"/>
    <nd ref="280236706"/>
    <nd ref="711425356"/>
    <nd ref="280236707"/>
    <nd ref="280236718"/>
    <nd ref="280236709"/>
    <nd ref="280237005"/>
    <nd ref="279520876"/>
    <tag k="highway" v="residential"/>
    <tag k="maxspeed" v="50"/>
    <tag k="maxspeed:source" v="default residential speed limit in Australia"/>
  </way>
  <way id="25703538" version="6" timestamp="2010-10-15T05:36:38Z" uid="325087" user="Palitu" changeset="6046295">
    <nd ref="280236716"/>
    <nd ref="280236717"/>
    <nd ref="280236706"/>
    <nd ref="711425356"/>
    <nd ref="280236707"/>
    <nd ref="280236718"/>
    <nd ref="280236709"/>
    <nd ref="280237005"/>
    <nd ref="279520876"/>
    <tag k="addr:city" v="Bibra Lake"/>
    <tag k="addr:postcode" v="6163"/>
    <tag k="highway" v="residential"/>
    <tag k="maxspeed" v="50"/>
    <tag k="maxspeed:source" v="default residential speed limit in Australia"/>
  </way>
  <way id="25703538" version="7" timestamp="2011-02-09T03:01:40Z" uid="325087" user="Palitu" changeset="7232674">
    <nd ref="280236716"/>
    <nd ref="280236717"/>
    <nd ref="280236706"/>
    <nd ref="711425356"/>
    <nd ref="280236707"/>
    <nd ref="280236718"/>
    <nd ref="280236709"/>
    <nd ref="280237005"/>
    <nd ref="279520876"/>
    <tag k="addr:city" v="Bibra Lake"/>
    <tag k="addr:postcode" v="6163"/>
    <tag k="highway" v="residential"/>
    <tag k="maxspeed" v="50"/>
    <tag k="maxspeed:source" v="default residential speed limit in Australia"/>
    <tag k="name" v="Fantail Drive"/>
  </way>
  <way id="25703538" version="8" timestamp="2012-01-17T00:43:30Z" uid="147510" user="woodpeck_fixbot" changeset="10412890">
    <nd ref="280236716"/>
    <nd ref="280236717"/>
    <nd ref="280236706"/>
    <nd ref="711425356"/>
    <nd ref="280236707"/>
    <nd ref="280236718"/>
    <nd ref="280236709"/>
    <nd ref="280237005"/>
    <nd ref="279520876"/>
    <tag k="addr:city" v="Bibra Lake"/>
    <tag k="addr:postcode" v="6163"/>
    <tag k="highway" v="residential"/>
    <tag k="name" v="Fantail Drive"/>
  </way>
  <way id="25703540" version="2" timestamp="2010-07-09T07:29:17Z" uid="74617" user="JohnSmith" changeset="5171412">
    <nd ref="280236707"/>
    <nd ref="280236713"/>
    <nd ref="280236714"/>
    <nd ref="280236715"/>
    <nd ref="280236678"/>
    <tag k="highway" v="residential"/>
    <tag k="maxspeed" v="50"/>
    <tag k="maxspeed:source" v="default residential speed limit in Australia"/>
  </way>
  <way id="25703540" version="3" timestamp="2010-10-15T05:37:07Z" uid="325087" user="Palitu" changeset="6046295">
    <nd ref="280236707"/>
    <nd ref="280236713"/>
    <nd ref="280236714"/>
    <nd ref="280236715"/>
    <nd ref="280236678"/>
    <tag k="addr:city" v="Bibra Lake"/>
    <tag k="addr:postcode" v="6163"/>
    <tag k="highway" v="residential"/>
    <tag k="maxspeed" v="50"/>
    <tag k="maxspeed:source" v="default residential speed limit in Australia"/>
  </way>
  <way id="25703540" version="4" timestamp="2011-12-16T05:40:54Z" uid="96046" user="colin_090" changeset="10128832">
    <nd ref="280236707"/>
    <nd ref="280236713"/>
    <nd ref="280236714"/>
    <nd ref="280236715"/>
    <nd ref="280236678"/>
    <tag k="addr:city" v="Bibra Lake"/>
    <tag k="addr:postcode" v="6163"/>
    <tag k="highway" v="residential"/>
    <tag k="maxspeed" v="50"/>
    <tag k="maxspeed:source" v="default residential speed limit in Australia"/>
    <tag k="name" v="Bracken Way"/>
  </way>
  <way id="25703540" version="5" timestamp="2012-01-17T00:43:32Z" uid="147510" user="woodpeck_fixbot" changeset="10412890">
    <nd ref="280236707"/>
    <nd ref="280236713"/>
    <nd ref="280236714"/>
    <nd ref="280236715"/>
    <nd ref="280236678"/>
    <tag k="addr:city" v="Bibra Lake"/>
    <tag k="addr:postcode" v="6163"/>
    <tag k="highway" v="residential"/>
    <tag k="name" v="Bracken Way"/>
  </way>
  <way id="25703542" version="2" timestamp="2010-07-09T07:39:19Z" uid="74617" user="JohnSmith" changeset="5171412">
    <nd ref="280236717"/>
    <nd ref="280236728"/>
    <nd ref="280236729"/>
    <tag k="highway" v="residential"/>
    <tag k="maxspeed" v="50"/>
    <tag k="maxspeed:source" v="default residential speed limit in Australia"/>
  </way>
  <way id="25703542" version="3" timestamp="2010-10-15T05:36:47Z" uid="325087" user="Palitu" changeset="6046295">
    <nd ref="280236717"/>
    <nd ref="280236728"/>
    <nd ref="280236729"/>
    <tag k="addr:city" v="Bibra Lake"/>
    <tag k="addr:postcode" v="6163"/>
    <tag k="highway" v="residential"/>
    <tag k="maxspeed" v="50"/>
    <tag k="maxspeed:source" v="default residential speed limit in Australia"/>
  </way>
  <way id="25703542" version="4" timestamp="2011-02-10T06:11:29Z" uid="325087" user="Palitu" changeset="7242612">
    <nd ref="280236717"/>
    <nd ref="280236728"/>
    <nd ref="280236729"/>
    <tag k="addr:city" v="Bibra Lake"/>
    <tag k="addr:postcode" v="6163"/>
    <tag k="highway" v="residential"/>
    <tag k="maxspeed" v="50"/>
    <tag k="maxspeed:source" v="default residential speed limit in Australia"/>
    <tag k="name" v="Bevis Court"/>
  </way>
  <way id="25703542" version="5" timestamp="2012-01-17T00:43:33Z" uid="147510" user="woodpeck_fixbot" changeset="10412890">
    <nd ref="280236717"/>
    <nd ref="280236728"/>
    <nd ref="280236729"/>
    <tag k="addr:city" v="Bibra Lake"/>
    <tag k="addr:postcode" v="6163"/>
    <tag k="highway" v="residential"/>
    <tag k="name" v="Bevis Court"/>
  </way>
  <way id="25703543" version="2" timestamp="2010-07-09T07:26:17Z" uid="74617" user="JohnSmith" changeset="5171412">
    <nd ref="280236730"/>
    <nd ref="280236737"/>
    <tag k="highway" v="residential"/>
    <tag k="maxspeed" v="50"/>
    <tag k="maxspeed:source" v="default residential speed limit in Australia"/>
  </way>
  <way id="25703543" version="3" timestamp="2010-10-15T05:36:36Z" uid="325087" user="Palitu" changeset="6046295">
    <nd ref="280236730"/>
    <nd ref="280236737"/>
    <tag k="addr:city" v="Bibra Lake"/>
    <tag k="addr:postcode" v="6163"/>
    <tag k="highway" v="residential"/>
    <tag k="maxspeed" v="50"/>
    <tag k="maxspeed:source" v="default residential speed limit in Australia"/>
  </way>
  <way id="25703543" version="4" timestamp="2012-01-17T00:43:37Z" uid="147510" user="woodpeck_fixbot" changeset="10412890">
    <nd ref="280236730"/>
    <nd ref="280236737"/>
    <tag k="addr:city" v="Bibra Lake"/>
    <tag k="addr:postcode" v="6163"/>
    <tag k="highway" v="residential"/>
  </way>
  <way id="25703547" version="3" timestamp="2010-04-29T05:45:43Z" uid="242497" user="cvl" changeset="4555271">
    <nd ref="280236755"/>
    <nd ref="280236833"/>
    <nd ref="444346797"/>
    <nd ref="280236834"/>
    <nd ref="711422103"/>
    <nd ref="711422106"/>
    <nd ref="711422113"/>
    <nd ref="280236835"/>
    <nd ref="711422115"/>
    <nd ref="280236836"/>
    <nd ref="280236837"/>
    <nd ref="280236838"/>
    <tag k="highway" v="service"/>
  </way>
  <way id="25703547" version="4" timestamp="2010-10-15T05:37:03Z" uid="325087" user="Palitu" changeset="6046295">
    <nd ref="280236755"/>
    <nd ref="280236833"/>
    <nd ref="444346797"/>
    <nd ref="280236834"/>
    <nd ref="711422103"/>
    <nd ref="711422106"/>
    <nd ref="711422113"/>
    <nd ref="280236835"/>
    <nd ref="711422115"/>
    <nd ref="280236836"/>
    <nd ref="280236837"/>
    <nd ref="280236838"/>
    <tag k="addr:city" v="Bibra Lake"/>
    <tag k="addr:postcode" v="6163"/>
    <tag k="highway" v="service"/>
  </way>
  <way id="25703562" version="2" timestamp="2009-01-26T14:42:20Z" uid="68769" user="david lynch" changeset="841427">
    <nd ref="280237012"/>
    <nd ref="152400287"/>
    <nd ref="152400287"/>
    <tag k="created_by" v="Potlatch 0.10f"/>
    <tag k="highway" v="pedestrian"/>
    <tag k="name" v="speedway"/>
  </way>
  <way id="25703562" version="3" timestamp="2009-02-03T04:30:11Z" uid="96380" user="rlobkovsky" changeset="115366">
    <nd ref="280237012"/>
    <nd ref="152400287"/>
    <tag k="created_by" v="Potlatch 0.10f"/>
    <tag k="highway" v="pedestrian"/>
    <tag k="name" v="speedway"/>
  </way>
  <way id="25703562" version="4" timestamp="2009-03-09T18:23:50Z" uid="105002" user="APD" changeset="769222">
    <nd ref="280237012"/>
    <nd ref="152400287"/>
    <tag k="bicycle" v="yes"/>
    <tag k="created_by" v="Potlatch 0.10f"/>
    <tag k="foot" v="yes"/>
    <tag k="highway" v="footway"/>
    <tag k="name" v="speedway"/>
  </way>
  <way id="25703562" version="5" timestamp="2009-03-10T11:15:13Z" uid="105002" user="APD" changeset="776315">
    <nd ref="280237012"/>
    <nd ref="152400287"/>
    <tag k="created_by" v="Potlatch 0.10f"/>
    <tag k="highway" v="pedestrian"/>
    <tag k="name" v="speedway"/>
  </way>
  <way id="25703562" version="6" timestamp="2009-07-31T01:21:37Z" uid="103782" user="Jordan Anderson" changeset="1990321">
    <nd ref="280237012"/>
    <nd ref="152400287"/>
    <tag k="created_by" v="Potlatch 0.10f"/>
    <tag k="highway" v="residential"/>
    <tag k="name" v="speedway"/>
  </way>
  <way id="25703562" version="7" timestamp="2009-09-04T00:46:18Z" uid="68769" user="david lynch" changeset="2365443">
    <nd ref="280237012"/>
    <nd ref="152400287"/>
    <tag k="highway" v="pedestrian"/>
    <tag k="name" v="speedway"/>
  </way>
  <way id="25703562" version="8" timestamp="2011-03-14T22:41:28Z" uid="119881" user="Clorox" changeset="7562028">
    <nd ref="280237012"/>
    <nd ref="152400287"/>
    <tag k="highway" v="pedestrian"/>
    <tag k="name" v="Speedway"/>
  </way>
  <way id="25703562" version="9" timestamp="2011-08-15T19:42:00Z" uid="119881" user="Clorox" changeset="9030387">
    <nd ref="280237012"/>
    <nd ref="152400287"/>
    <tag k="bicycle" v="yes"/>
    <tag k="highway" v="pedestrian"/>
    <tag k="name" v="Speedway"/>
  </way>
  <way id="25703562" version="10" timestamp="2011-08-20T23:41:23Z" uid="119881" user="Clorox" changeset="9079635">
    <nd ref="280237012"/>
    <nd ref="1406550769"/>
    <nd ref="152400287"/>
    <tag k="bicycle" v="yes"/>
    <tag k="highway" v="pedestrian"/>
    <tag k="name" v="Speedway"/>
  </way>
  <way id="25703562" version="11" timestamp="2012-01-30T18:56:23Z" uid="119002" user="Thea Clay" changeset="10542629">
    <nd ref="280237012"/>
    <nd ref="1406550769"/>
    <nd ref="152400287"/>
    <tag k="bicycle" v="yes"/>
    <tag k="highway" v="pedestrian"/>
    <tag k="name" v="Speedway"/>
  </way>
  <way id="25703562" version="12" timestamp="2012-02-29T06:33:20Z" uid="119881" user="Clorox" changeset="10825186">
    <nd ref="280237012"/>
    <nd ref="1406550769"/>
    <nd ref="152400287"/>
    <tag k="bicycle" v="yes"/>
    <tag k="highway" v="pedestrian"/>
    <tag k="name" v="Speedway"/>
    <tag k="old_name" v="Lampasas Street"/>
  </way>
  <way id="25703578" version="2" timestamp="2010-07-09T07:34:43Z" uid="74617" user="JohnSmith" changeset="5171412">
    <nd ref="280236679"/>
    <nd ref="280237312"/>
    <nd ref="280237313"/>
    <nd ref="280237314"/>
    <tag k="highway" v="residential"/>
    <tag k="maxspeed" v="50"/>
    <tag k="maxspeed:source" v="default residential speed limit in Australia"/>
  </way>
  <way id="25703578" version="3" timestamp="2010-10-15T05:37:02Z" uid="325087" user="Palitu" changeset="6046295">
    <nd ref="280236679"/>
    <nd ref="280237312"/>
    <nd ref="280237313"/>
    <nd ref="280237314"/>
    <tag k="addr:city" v="Bibra Lake"/>
    <tag k="addr:postcode" v="6163"/>
    <tag k="highway" v="residential"/>
    <tag k="maxspeed" v="50"/>
    <tag k="maxspeed:source" v="default residential speed limit in Australia"/>
  </way>
  <way id="25703578" version="4" timestamp="2011-02-09T03:01:39Z" uid="325087" user="Palitu" changeset="7232674">
    <nd ref="280236679"/>
    <nd ref="280237312"/>
    <nd ref="280237313"/>
    <nd ref="280237314"/>
    <tag k="addr:city" v="Bibra Lake"/>
    <tag k="addr:postcode" v="6163"/>
    <tag k="highway" v="residential"/>
    <tag k="maxspeed" v="50"/>
    <tag k="maxspeed:source" v="default residential speed limit in Australia"/>
    <tag k="name" v="Bevis Court"/>
  </way>
  <way id="25703578" version="5" timestamp="2011-02-10T06:11:28Z" uid="325087" user="Palitu" changeset="7242612">
    <nd ref="280236679"/>
    <nd ref="280237312"/>
    <nd ref="280237313"/>
    <nd ref="280237314"/>
    <tag k="addr:city" v="Bibra Lake"/>
    <tag k="addr:postcode" v="6163"/>
    <tag k="highway" v="residential"/>
    <tag k="maxspeed" v="50"/>
    <tag k="maxspeed:source" v="default residential speed limit in Australia"/>
  </way>
  <way id="25703578" version="6" timestamp="2011-12-16T05:38:53Z" uid="96046" user="colin_090" changeset="10128832">
    <nd ref="280236679"/>
    <nd ref="280237312"/>
    <nd ref="280237313"/>
    <nd ref="280237314"/>
    <tag k="addr:city" v="Bibra Lake"/>
    <tag k="addr:postcode" v="6163"/>
    <tag k="highway" v="residential"/>
    <tag k="maxspeed" v="50"/>
    <tag k="maxspeed:source" v="default residential speed limit in Australia"/>
    <tag k="name" v="Woolllybrush Place"/>
    <tag k="oneway" v="no"/>
  </way>
  <way id="25703578" version="7" timestamp="2012-01-17T00:43:39Z" uid="147510" user="woodpeck_fixbot" changeset="10412890">
    <nd ref="280236679"/>
    <nd ref="280237312"/>
    <nd ref="280237313"/>
    <nd ref="280237314"/>
    <tag k="addr:city" v="Bibra Lake"/>
    <tag k="addr:postcode" v="6163"/>
    <tag k="highway" v="residential"/>
    <tag k="name" v="Woolllybrush Place"/>
    <tag k="oneway" v="no"/>
  </way>
  <way id="25703588" version="2" timestamp="2010-07-09T07:28:13Z" uid="74617" user="JohnSmith" changeset="5171412">
    <nd ref="280237383"/>
    <nd ref="280237385"/>
    <nd ref="280237386"/>
    <nd ref="280237387"/>
    <nd ref="280237388"/>
    <nd ref="280237389"/>
    <nd ref="280237390"/>
    <nd ref="280237391"/>
    <nd ref="280237392"/>
    <tag k="highway" v="residential"/>
    <tag k="maxspeed" v="50"/>
    <tag k="maxspeed:source" v="default residential speed limit in Australia"/>
  </way>
  <way id="25703588" version="3" timestamp="2010-10-15T05:37:04Z" uid="325087" user="Palitu" changeset="6046295">
    <nd ref="280237383"/>
    <nd ref="280237385"/>
    <nd ref="280237386"/>
    <nd ref="280237387"/>
    <nd ref="280237388"/>
    <nd ref="280237389"/>
    <nd ref="280237390"/>
    <nd ref="280237391"/>
    <nd ref="280237392"/>
    <tag k="addr:city" v="Bibra Lake"/>
    <tag k="addr:postcode" v="6163"/>
    <tag k="highway" v="residential"/>
    <tag k="maxspeed" v="50"/>
    <tag k="maxspeed:source" v="default residential speed limit in Australia"/>
  </way>
  <way id="25703588" version="4" timestamp="2011-12-16T05:38:54Z" uid="96046" user="colin_090" changeset="10128832">
    <nd ref="280237383"/>
    <nd ref="280237385"/>
    <nd ref="280237386"/>
    <nd ref="280237387"/>
    <nd ref="280237388"/>
    <nd ref="280237389"/>
    <nd ref="280237390"/>
    <nd ref="280237391"/>
    <nd ref="280237392"/>
    <tag k="addr:city" v="Bibra Lake"/>
    <tag k="addr:postcode" v="6163"/>
    <tag k="highway" v="residential"/>
    <tag k="maxspeed" v="50"/>
    <tag k="maxspeed:source" v="default residential speed limit in Australia"/>
    <tag k="name" v="Bullrush drive"/>
    <tag k="oneway" v="no"/>
  </way>
  <way id="25703588" version="5" timestamp="2012-01-17T00:43:42Z" uid="147510" user="woodpeck_fixbot" changeset="10412890">
    <nd ref="280237383"/>
    <nd ref="280237385"/>
    <nd ref="280237386"/>
    <nd ref="280237387"/>
    <nd ref="280237388"/>
    <nd ref="280237389"/>
    <nd ref="280237390"/>
    <nd ref="280237391"/>
    <nd ref="280237392"/>
    <tag k="addr:city" v="Bibra Lake"/>
    <tag k="addr:postcode" v="6163"/>
    <tag k="highway" v="residential"/>
    <tag k="name" v="Bullrush drive"/>
    <tag k="oneway" v="no"/>
  </way>
  <way id="25703596" version="3" timestamp="2010-07-09T07:32:56Z" uid="74617" user="JohnSmith" changeset="5171412">
    <nd ref="280237388"/>
    <nd ref="280237435"/>
    <tag k="highway" v="residential"/>
    <tag k="maxspeed" v="50"/>
    <tag k="maxspeed:source" v="default residential speed limit in Australia"/>
  </way>
  <way id="25703596" version="4" timestamp="2010-10-15T05:36:50Z" uid="325087" user="Palitu" changeset="6046295">
    <nd ref="280237388"/>
    <nd ref="280237435"/>
    <tag k="addr:city" v="Bibra Lake"/>
    <tag k="addr:postcode" v="6163"/>
    <tag k="highway" v="residential"/>
    <tag k="maxspeed" v="50"/>
    <tag k="maxspeed:source" v="default residential speed limit in Australia"/>
  </way>
  <way id="25703596" version="5" timestamp="2011-12-16T05:38:54Z" uid="96046" user="colin_090" changeset="10128832">
    <nd ref="280237388"/>
    <nd ref="280237435"/>
    <tag k="addr:city" v="Bibra Lake"/>
    <tag k="addr:postcode" v="6163"/>
    <tag k="highway" v="residential"/>
    <tag k="maxspeed" v="50"/>
    <tag k="maxspeed:source" v="default residential speed limit in Australia"/>
    <tag k="name" v="Clover Place"/>
    <tag k="oneway" v="no"/>
  </way>
  <way id="25703596" version="6" timestamp="2012-01-17T00:43:44Z" uid="147510" user="woodpeck_fixbot" changeset="10412890">
    <nd ref="280237388"/>
    <nd ref="280237435"/>
    <tag k="addr:city" v="Bibra Lake"/>
    <tag k="addr:postcode" v="6163"/>
    <tag k="highway" v="residential"/>
    <tag k="name" v="Clover Place"/>
    <tag k="oneway" v="no"/>
  </way>
  <way id="25703605" version="3" timestamp="2010-07-09T07:25:55Z" uid="74617" user="JohnSmith" changeset="5171412">
    <nd ref="280236681"/>
    <nd ref="280237487"/>
    <nd ref="280241331"/>
    <tag k="highway" v="residential"/>
    <tag k="maxspeed" v="50"/>
    <tag k="maxspeed:source" v="default residential speed limit in Australia"/>
  </way>
  <way id="25703605" version="4" timestamp="2010-10-15T05:36:34Z" uid="325087" user="Palitu" changeset="6046295">
    <nd ref="280236681"/>
    <nd ref="280237487"/>
    <nd ref="280241331"/>
    <tag k="addr:city" v="Bibra Lake"/>
    <tag k="addr:postcode" v="6163"/>
    <tag k="highway" v="residential"/>
    <tag k="maxspeed" v="50"/>
    <tag k="maxspeed:source" v="default residential speed limit in Australia"/>
  </way>
  <way id="25703605" version="5" timestamp="2011-12-16T05:38:54Z" uid="96046" user="colin_090" changeset="10128832">
    <nd ref="280236681"/>
    <nd ref="280237487"/>
    <nd ref="280241331"/>
    <tag k="addr:city" v="Bibra Lake"/>
    <tag k="addr:postcode" v="6163"/>
    <tag k="highway" v="residential"/>
    <tag k="maxspeed" v="50"/>
    <tag k="maxspeed:source" v="default residential speed limit in Australia"/>
    <tag k="name" v="Gwalia Place"/>
    <tag k="oneway" v="no"/>
  </way>
  <way id="25703605" version="6" timestamp="2012-01-17T00:43:46Z" uid="147510" user="woodpeck_fixbot" changeset="10412890">
    <nd ref="280236681"/>
    <nd ref="280237487"/>
    <nd ref="280241331"/>
    <tag k="addr:city" v="Bibra Lake"/>
    <tag k="addr:postcode" v="6163"/>
    <tag k="highway" v="residential"/>
    <tag k="name" v="Gwalia Place"/>
    <tag k="oneway" v="no"/>
  </way>
  <way id="25703610" version="3" timestamp="2010-07-09T07:39:30Z" uid="74617" user="JohnSmith" changeset="5171412">
    <nd ref="280237514"/>
    <nd ref="280237529"/>
    <tag k="highway" v="residential"/>
    <tag k="maxspeed" v="50"/>
    <tag k="maxspeed:source" v="default residential speed limit in Australia"/>
  </way>
  <way id="25703610" version="4" timestamp="2010-10-15T05:36:53Z" uid="325087" user="Palitu" changeset="6046295">
    <nd ref="280237514"/>
    <nd ref="280237529"/>
    <tag k="addr:city" v="Bibra Lake"/>
    <tag k="addr:postcode" v="6163"/>
    <tag k="highway" v="residential"/>
    <tag k="maxspeed" v="50"/>
    <tag k="maxspeed:source" v="default residential speed limit in Australia"/>
  </way>
  <way id="25703610" version="5" timestamp="2011-12-16T05:36:52Z" uid="96046" user="colin_090" changeset="10128832">
    <nd ref="280237514"/>
    <nd ref="280237529"/>
    <nd ref="280237527"/>
    <nd ref="280237529"/>
    <nd ref="280237531"/>
    <tag k="addr:city" v="Bibra Lake"/>
    <tag k="addr:postcode" v="6163"/>
    <tag k="highway" v="residential"/>
    <tag k="maxspeed" v="50"/>
    <tag k="maxspeed:source" v="default residential speed limit in Australia"/>
    <tag k="name" v="Crestia Court"/>
    <tag k="oneway" v="no"/>
  </way>
  <way id="25703610" version="6" timestamp="2012-01-17T00:43:48Z" uid="147510" user="woodpeck_fixbot" changeset="10412890">
    <nd ref="280237514"/>
    <nd ref="280237529"/>
    <nd ref="280237527"/>
    <nd ref="280237529"/>
    <nd ref="280237531"/>
    <tag k="addr:city" v="Bibra Lake"/>
    <tag k="addr:postcode" v="6163"/>
    <tag k="highway" v="residential"/>
    <tag k="name" v="Crestia Court"/>
    <tag k="oneway" v="no"/>
  </way>
  <way id="25703612" version="2" timestamp="2010-07-09T07:27:05Z" uid="74617" user="JohnSmith" changeset="5171412">
    <nd ref="280237527"/>
    <nd ref="280237529"/>
    <nd ref="280237531"/>
    <tag k="highway" v="residential"/>
    <tag k="maxspeed" v="50"/>
    <tag k="maxspeed:source" v="default residential speed limit in Australia"/>
  </way>
  <way id="25703612" version="3" timestamp="2010-10-15T05:36:29Z" uid="325087" user="Palitu" changeset="6046295">
    <nd ref="280237527"/>
    <nd ref="280237529"/>
    <nd ref="280237531"/>
    <tag k="addr:city" v="Bibra Lake"/>
    <tag k="addr:postcode" v="6163"/>
    <tag k="highway" v="residential"/>
    <tag k="maxspeed" v="50"/>
    <tag k="maxspeed:source" v="default residential speed limit in Australia"/>
  </way>
  <way id="25703612" version="4" timestamp="2012-01-17T00:43:52Z" uid="147510" user="woodpeck_fixbot" changeset="10412890">
    <nd ref="280237527"/>
    <nd ref="280237529"/>
    <nd ref="280237531"/>
    <tag k="addr:city" v="Bibra Lake"/>
    <tag k="addr:postcode" v="6163"/>
    <tag k="highway" v="residential"/>
  </way>
  <way id="25703618" version="3" timestamp="2010-07-09T07:29:08Z" uid="74617" user="JohnSmith" changeset="5171412">
    <nd ref="280237590"/>
    <nd ref="280237628"/>
    <nd ref="280237608"/>
    <nd ref="280237629"/>
    <nd ref="280237630"/>
    <nd ref="280237610"/>
    <tag k="highway" v="residential"/>
    <tag k="maxspeed" v="50"/>
    <tag k="maxspeed:source" v="default residential speed limit in Australia"/>
  </way>
  <way id="25703618" version="4" timestamp="2010-10-15T05:37:13Z" uid="325087" user="Palitu" changeset="6046295">
    <nd ref="280237590"/>
    <nd ref="280237628"/>
    <nd ref="280237608"/>
    <nd ref="280237629"/>
    <nd ref="280237630"/>
    <nd ref="280237610"/>
    <tag k="addr:city" v="Bibra Lake"/>
    <tag k="addr:postcode" v="6163"/>
    <tag k="highway" v="residential"/>
    <tag k="maxspeed" v="50"/>
    <tag k="maxspeed:source" v="default residential speed limit in Australia"/>
  </way>
  <way id="25703618" version="5" timestamp="2011-12-16T05:36:13Z" uid="96046" user="colin_090" changeset="10128832">
    <nd ref="280237590"/>
    <nd ref="280237628"/>
    <nd ref="280237608"/>
    <nd ref="280237629"/>
    <nd ref="280237630"/>
    <nd ref="280237610"/>
    <tag k="addr:city" v="Bibra Lake"/>
    <tag k="addr:postcode" v="6163"/>
    <tag k="highway" v="residential"/>
    <tag k="maxspeed" v="50"/>
    <tag k="maxspeed:source" v="default residential speed limit in Australia"/>
    <tag k="name" v="Bluebell Way"/>
    <tag k="oneway" v="no"/>
  </way>
  <way id="25703618" version="6" timestamp="2012-01-17T00:43:56Z" uid="147510" user="woodpeck_fixbot" changeset="10412890">
    <nd ref="280237590"/>
    <nd ref="280237628"/>
    <nd ref="280237608"/>
    <nd ref="280237629"/>
    <nd ref="280237630"/>
    <nd ref="280237610"/>
    <tag k="addr:city" v="Bibra Lake"/>
    <tag k="addr:postcode" v="6163"/>
    <tag k="highway" v="residential"/>
    <tag k="name" v="Bluebell Way"/>
    <tag k="oneway" v="no"/>
  </way>
  <way id="25703621" version="5" timestamp="2010-07-09T07:37:11Z" uid="74617" user="JohnSmith" changeset="5171412">
    <nd ref="280237612"/>
    <nd ref="280237622"/>
    <nd ref="280237610"/>
    <nd ref="280237729"/>
    <nd ref="280237668"/>
    <nd ref="280237624"/>
    <tag k="highway" v="residential"/>
    <tag k="maxspeed" v="50"/>
    <tag k="maxspeed:source" v="default residential speed limit in Australia"/>
  </way>
  <way id="25703621" version="6" timestamp="2010-10-15T05:36:43Z" uid="325087" user="Palitu" changeset="6046295">
    <nd ref="280237612"/>
    <nd ref="280237622"/>
    <nd ref="280237610"/>
    <nd ref="280237729"/>
    <nd ref="280237668"/>
    <nd ref="280237624"/>
    <tag k="addr:city" v="Bibra Lake"/>
    <tag k="addr:postcode" v="6163"/>
    <tag k="highway" v="residential"/>
    <tag k="maxspeed" v="50"/>
    <tag k="maxspeed:source" v="default residential speed limit in Australia"/>
  </way>
  <way id="25703621" version="7" timestamp="2011-12-16T05:35:19Z" uid="96046" user="colin_090" changeset="10128832">
    <nd ref="280237612"/>
    <nd ref="280237622"/>
    <nd ref="280237610"/>
    <nd ref="280237729"/>
    <nd ref="280237668"/>
    <nd ref="280237624"/>
    <tag k="addr:city" v="Bibra Lake"/>
    <tag k="addr:postcode" v="6163"/>
    <tag k="highway" v="residential"/>
    <tag k="maxspeed" v="50"/>
    <tag k="maxspeed:source" v="default residential speed limit in Australia"/>
    <tag k="name" v="Style Court"/>
    <tag k="oneway" v="no"/>
  </way>
  <way id="25703621" version="8" timestamp="2012-01-17T00:43:58Z" uid="147510" user="woodpeck_fixbot" changeset="10412890">
    <nd ref="280237612"/>
    <nd ref="280237622"/>
    <nd ref="280237610"/>
    <nd ref="280237729"/>
    <nd ref="280237668"/>
    <nd ref="280237624"/>
    <tag k="addr:city" v="Bibra Lake"/>
    <tag k="addr:postcode" v="6163"/>
    <tag k="highway" v="residential"/>
    <tag k="name" v="Style Court"/>
    <tag k="oneway" v="no"/>
  </way>
  <way id="25703627" version="3" timestamp="2010-07-09T07:38:06Z" uid="74617" user="JohnSmith" changeset="5171412">
    <nd ref="280237629"/>
    <nd ref="280237638"/>
    <nd ref="280237639"/>
    <nd ref="280237640"/>
    <nd ref="280237641"/>
    <tag k="highway" v="residential"/>
    <tag k="maxspeed" v="50"/>
    <tag k="maxspeed:source" v="default residential speed limit in Australia"/>
  </way>
  <way id="25703627" version="4" timestamp="2010-10-15T05:36:50Z" uid="325087" user="Palitu" changeset="6046295">
    <nd ref="280237629"/>
    <nd ref="280237638"/>
    <nd ref="280237639"/>
    <nd ref="280237640"/>
    <nd ref="280237641"/>
    <tag k="addr:city" v="Bibra Lake"/>
    <tag k="addr:postcode" v="6163"/>
    <tag k="highway" v="residential"/>
    <tag k="maxspeed" v="50"/>
    <tag k="maxspeed:source" v="default residential speed limit in Australia"/>
  </way>
  <way id="25703627" version="5" timestamp="2011-12-16T05:36:13Z" uid="96046" user="colin_090" changeset="10128832">
    <nd ref="280237629"/>
    <nd ref="280237638"/>
    <nd ref="280237639"/>
    <nd ref="280237640"/>
    <nd ref="280237641"/>
    <tag k="addr:city" v="Bibra Lake"/>
    <tag k="addr:postcode" v="6163"/>
    <tag k="highway" v="residential"/>
    <tag k="maxspeed" v="50"/>
    <tag k="maxspeed:source" v="default residential speed limit in Australia"/>
    <tag k="name" v="Hamlet Court"/>
    <tag k="oneway" v="no"/>
  </way>
  <way id="25703627" version="6" timestamp="2012-01-17T00:44:03Z" uid="147510" user="woodpeck_fixbot" changeset="10412890">
    <nd ref="280237629"/>
    <nd ref="280237638"/>
    <nd ref="280237639"/>
    <nd ref="280237640"/>
    <nd ref="280237641"/>
    <tag k="addr:city" v="Bibra Lake"/>
    <tag k="addr:postcode" v="6163"/>
    <tag k="highway" v="residential"/>
    <tag k="name" v="Hamlet Court"/>
    <tag k="oneway" v="no"/>
  </way>
  <way id="25703642" version="3" timestamp="2010-07-09T07:27:45Z" uid="74617" user="JohnSmith" changeset="5171412">
    <nd ref="280237729"/>
    <nd ref="280237730"/>
    <tag k="highway" v="residential"/>
    <tag k="maxspeed" v="50"/>
    <tag k="maxspeed:source" v="default residential speed limit in Australia"/>
  </way>
  <way id="25703642" version="4" timestamp="2010-10-15T05:36:39Z" uid="325087" user="Palitu" changeset="6046295">
    <nd ref="280237729"/>
    <nd ref="280237730"/>
    <tag k="addr:city" v="Bibra Lake"/>
    <tag k="addr:postcode" v="6163"/>
    <tag k="highway" v="residential"/>
    <tag k="maxspeed" v="50"/>
    <tag k="maxspeed:source" v="default residential speed limit in Australia"/>
  </way>
  <way id="25703642" version="5" timestamp="2011-12-16T05:34:12Z" uid="96046" user="colin_090" changeset="10128832">
    <nd ref="280237729"/>
    <nd ref="280237730"/>
    <nd ref="280237729"/>
    <tag k="addr:city" v="Bibra Lake"/>
    <tag k="addr:postcode" v="6163"/>
    <tag k="highway" v="residential"/>
    <tag k="maxspeed" v="50"/>
    <tag k="maxspeed:source" v="default residential speed limit in Australia"/>
  </way>
  <way id="25703642" version="6" timestamp="2011-12-16T05:35:27Z" uid="96046" user="colin_090" changeset="10128832">
    <nd ref="280237729"/>
    <nd ref="280237730"/>
    <nd ref="280237729"/>
    <tag k="addr:city" v="Bibra Lake"/>
    <tag k="addr:postcode" v="6163"/>
    <tag k="highway" v="residential"/>
    <tag k="maxspeed" v="50"/>
    <tag k="maxspeed:source" v="default residential speed limit in Australia"/>
    <tag k="name" v="Style Court"/>
    <tag k="oneway" v="no"/>
  </way>
  <way id="25703642" version="7" timestamp="2011-12-20T04:21:58Z" uid="349913" user="Peter W34" changeset="10160857"/>
  <way id="25703671" version="3" timestamp="2009-11-02T20:45:14Z" uid="9581" user="Lobelt" changeset="3019759">
    <nd ref="17393501"/>
    <nd ref="17393502"/>
    <nd ref="276516282"/>
    <nd ref="17393504"/>
    <nd ref="17393505"/>
    <nd ref="17393506"/>
    <nd ref="17393508"/>
    <nd ref="17393509"/>
    <nd ref="17393510"/>
    <nd ref="364771967"/>
    <nd ref="17393513"/>
    <nd ref="272418346"/>
    <nd ref="17393516"/>
    <nd ref="17393517"/>
    <nd ref="15609778"/>
    <tag k="highway" v="secondary"/>
    <tag k="maxspeed" v="50"/>
    <tag k="ref" v="K 4134"/>
  </way>
  <way id="25703671" version="4" timestamp="2009-11-14T22:53:33Z" uid="9581" user="Lobelt" changeset="3117904">
    <nd ref="17393501"/>
    <nd ref="564297673"/>
    <nd ref="17393502"/>
    <nd ref="276516282"/>
    <nd ref="17393504"/>
    <nd ref="17393505"/>
    <nd ref="17393506"/>
    <nd ref="17393508"/>
    <nd ref="17393509"/>
    <nd ref="17393510"/>
    <nd ref="364771967"/>
    <nd ref="17393513"/>
    <nd ref="272418346"/>
    <nd ref="17393516"/>
    <nd ref="17393517"/>
    <nd ref="15609778"/>
    <tag k="highway" v="secondary"/>
    <tag k="maxspeed" v="50"/>
    <tag k="ref" v="K 4134"/>
  </way>
  <way id="25703671" version="5" timestamp="2011-05-31T09:48:00Z" uid="312215" user="bmskater" changeset="8299794">
    <nd ref="17393501"/>
    <nd ref="564297673"/>
    <nd ref="17393502"/>
    <nd ref="276516282"/>
    <nd ref="17393504"/>
    <nd ref="17393505"/>
    <nd ref="17393506"/>
    <nd ref="17393508"/>
    <nd ref="17393509"/>
    <nd ref="17393510"/>
    <nd ref="364771967"/>
    <nd ref="17393513"/>
    <nd ref="272418346"/>
    <nd ref="17393516"/>
    <nd ref="17393517"/>
    <nd ref="15609778"/>
    <tag k="highway" v="secondary"/>
    <tag k="maxspeed" v="50"/>
    <tag k="ref" v="K 4134"/>
    <tag k="smoothess" v="intermediate"/>
  </way>
  <way id="25703671" version="6" timestamp="2011-05-31T13:34:11Z" uid="312215" user="bmskater" changeset="8301640">
    <nd ref="17393501"/>
    <nd ref="564297673"/>
    <nd ref="17393502"/>
    <nd ref="276516282"/>
    <nd ref="17393504"/>
    <nd ref="17393505"/>
    <nd ref="17393506"/>
    <nd ref="17393508"/>
    <nd ref="17393509"/>
    <nd ref="17393510"/>
    <nd ref="364771967"/>
    <nd ref="17393513"/>
    <nd ref="272418346"/>
    <nd ref="17393516"/>
    <nd ref="17393517"/>
    <nd ref="15609778"/>
    <tag k="highway" v="secondary"/>
    <tag k="maxspeed" v="50"/>
    <tag k="ref" v="K 4134"/>
    <tag k="smoothness" v="intermediate"/>
  </way>
  <way id="25703671" version="7" timestamp="2012-02-12T20:29:44Z" uid="6326" user="mike_hd" changeset="10667804">
    <nd ref="17393501"/>
    <nd ref="564297673"/>
    <nd ref="17393502"/>
    <nd ref="276516282"/>
    <nd ref="17393504"/>
    <nd ref="17393505"/>
    <nd ref="1630390065"/>
    <nd ref="17393506"/>
    <nd ref="17393508"/>
    <nd ref="1630390103"/>
    <nd ref="17393509"/>
    <nd ref="1630390087"/>
    <nd ref="17393510"/>
    <nd ref="1630390082"/>
    <nd ref="364771967"/>
    <nd ref="17393513"/>
    <nd ref="272418346"/>
    <nd ref="17393516"/>
    <nd ref="17393517"/>
    <nd ref="15609778"/>
    <tag k="highway" v="secondary"/>
    <tag k="maxspeed" v="50"/>
    <tag k="ref" v="K 4134"/>
    <tag k="smoothness" v="intermediate"/>
  </way>
  <way id="25703696" version="3" timestamp="2010-07-09T07:32:08Z" uid="74617" user="JohnSmith" changeset="5171412">
    <nd ref="280235555"/>
    <nd ref="280238003"/>
    <nd ref="280238004"/>
    <tag k="highway" v="residential"/>
    <tag k="maxspeed" v="50"/>
    <tag k="maxspeed:source" v="default residential speed limit in Australia"/>
  </way>
  <way id="25703696" version="4" timestamp="2010-10-15T05:36:33Z" uid="325087" user="Palitu" changeset="6046295">
    <nd ref="280235555"/>
    <nd ref="280238003"/>
    <nd ref="280238004"/>
    <tag k="addr:city" v="South Lake"/>
    <tag k="addr:postcode" v="6164"/>
    <tag k="highway" v="residential"/>
    <tag k="maxspeed" v="50"/>
    <tag k="maxspeed:source" v="default residential speed limit in Australia"/>
  </way>
  <way id="25703696" version="5" timestamp="2012-01-17T00:44:07Z" uid="147510" user="woodpeck_fixbot" changeset="10412890">
    <nd ref="280235555"/>
    <nd ref="280238003"/>
    <nd ref="280238004"/>
    <tag k="addr:city" v="South Lake"/>
    <tag k="addr:postcode" v="6164"/>
    <tag k="highway" v="residential"/>
  </way>
  <way id="25703736" version="3" timestamp="2010-07-09T07:24:59Z" uid="74617" user="JohnSmith" changeset="5171412">
    <nd ref="280238005"/>
    <nd ref="280238383"/>
    <nd ref="280238384"/>
    <tag k="highway" v="residential"/>
    <tag k="maxspeed" v="50"/>
    <tag k="maxspeed:source" v="default residential speed limit in Australia"/>
  </way>
  <way id="25703736" version="4" timestamp="2010-10-15T05:36:59Z" uid="325087" user="Palitu" changeset="6046295">
    <nd ref="280238005"/>
    <nd ref="280238383"/>
    <nd ref="280238384"/>
    <tag k="addr:city" v="South Lake"/>
    <tag k="addr:postcode" v="6164"/>
    <tag k="highway" v="residential"/>
    <tag k="maxspeed" v="50"/>
    <tag k="maxspeed:source" v="default residential speed limit in Australia"/>
  </way>
  <way id="25703736" version="5" timestamp="2012-01-17T00:44:11Z" uid="147510" user="woodpeck_fixbot" changeset="10412890">
    <nd ref="280238005"/>
    <nd ref="280238383"/>
    <nd ref="280238384"/>
    <tag k="addr:city" v="South Lake"/>
    <tag k="addr:postcode" v="6164"/>
    <tag k="highway" v="residential"/>
  </way>
  <way id="25703741" version="3" timestamp="2010-07-09T07:26:04Z" uid="74617" user="JohnSmith" changeset="5171412">
    <nd ref="280238423"/>
    <nd ref="280238424"/>
    <tag k="highway" v="residential"/>
    <tag k="maxspeed" v="50"/>
    <tag k="maxspeed:source" v="default residential speed limit in Australia"/>
  </way>
  <way id="25703741" version="4" timestamp="2010-10-15T05:36:56Z" uid="325087" user="Palitu" changeset="6046295">
    <nd ref="280238423"/>
    <nd ref="280238424"/>
    <tag k="addr:city" v="Bibra Lake"/>
    <tag k="addr:postcode" v="6163"/>
    <tag k="highway" v="residential"/>
    <tag k="maxspeed" v="50"/>
    <tag k="maxspeed:source" v="default residential speed limit in Australia"/>
  </way>
  <way id="25703741" version="5" timestamp="2011-12-16T05:36:14Z" uid="96046" user="colin_090" changeset="10128832">
    <nd ref="280238423"/>
    <nd ref="280238424"/>
    <tag k="addr:city" v="Bibra Lake"/>
    <tag k="addr:postcode" v="6163"/>
    <tag k="highway" v="residential"/>
    <tag k="maxspeed" v="50"/>
    <tag k="maxspeed:source" v="default residential speed limit in Australia"/>
    <tag k="name" v="Cobble Court"/>
    <tag k="oneway" v="no"/>
  </way>
  <way id="25703741" version="6" timestamp="2012-01-17T00:44:12Z" uid="147510" user="woodpeck_fixbot" changeset="10412890">
    <nd ref="280238423"/>
    <nd ref="280238424"/>
    <tag k="addr:city" v="Bibra Lake"/>
    <tag k="addr:postcode" v="6163"/>
    <tag k="highway" v="residential"/>
    <tag k="name" v="Cobble Court"/>
    <tag k="oneway" v="no"/>
  </way>
  <way id="25703744" version="3" timestamp="2010-07-09T07:31:23Z" uid="74617" user="JohnSmith" changeset="5171412">
    <nd ref="280238445"/>
    <nd ref="280238446"/>
    <nd ref="280238447"/>
    <nd ref="280238448"/>
    <nd ref="280238449"/>
    <tag k="highway" v="residential"/>
    <tag k="maxspeed" v="50"/>
    <tag k="maxspeed:source" v="default residential speed limit in Australia"/>
  </way>
  <way id="25703744" version="4" timestamp="2010-10-15T05:36:30Z" uid="325087" user="Palitu" changeset="6046295">
    <nd ref="280238445"/>
    <nd ref="280238446"/>
    <nd ref="280238447"/>
    <nd ref="280238448"/>
    <nd ref="280238449"/>
    <tag k="addr:city" v="Bibra Lake"/>
    <tag k="addr:postcode" v="6163"/>
    <tag k="highway" v="residential"/>
    <tag k="maxspeed" v="50"/>
    <tag k="maxspeed:source" v="default residential speed limit in Australia"/>
  </way>
  <way id="25703744" version="5" timestamp="2011-12-16T05:36:14Z" uid="96046" user="colin_090" changeset="10128832">
    <nd ref="280238445"/>
    <nd ref="280238446"/>
    <nd ref="280238447"/>
    <nd ref="280238448"/>
    <nd ref="280238449"/>
    <tag k="addr:city" v="Bibra Lake"/>
    <tag k="addr:postcode" v="6163"/>
    <tag k="highway" v="residential"/>
    <tag k="maxspeed" v="50"/>
    <tag k="maxspeed:source" v="default residential speed limit in Australia"/>
    <tag k="name" v="Blacksmith Court"/>
    <tag k="oneway" v="no"/>
  </way>
  <way id="25703744" version="6" timestamp="2012-01-17T00:44:16Z" uid="147510" user="woodpeck_fixbot" changeset="10412890">
    <nd ref="280238445"/>
    <nd ref="280238446"/>
    <nd ref="280238447"/>
    <nd ref="280238448"/>
    <nd ref="280238449"/>
    <tag k="addr:city" v="Bibra Lake"/>
    <tag k="addr:postcode" v="6163"/>
    <tag k="highway" v="residential"/>
    <tag k="name" v="Blacksmith Court"/>
    <tag k="oneway" v="no"/>
  </way>
</osm>
