<?xml version='1.0' encoding='UTF-8'?>
<osm version="0.6" generator="libosmium/2.20.0">
  <way id="25704009" version="2" timestamp="2009-12-06T23:34:17Z" uid="200463" user="harmagedon" changeset="3311555">
    <nd ref="60767848"/>
    <nd ref="280240869"/>
    <nd ref="280240872"/>
    <tag k="highway" v="footway"/>
  </way>
  <way id="25704017" version="2" timestamp="2009-12-06T23:34:16Z" uid="200463" user="harmagedon" changeset="3311555">
    <nd ref="280240874"/>
    <nd ref="255946021"/>
    <tag k="highway" v="footway"/>
  </way>
  <way id="25704019" version="4" timestamp="2009-12-06T23:34:17Z" uid="200463" user="harmagedon" changeset="3311555">
    <nd ref="280240872"/>
    <nd ref="280240874"/>
    <tag k="highway" v="steps"/>
    <tag k="note" v="the steps_count value is not exact"/>
    <tag k="step_count" v="75"/>
    <tag k="wheelchair" v="no"/>
  </way>
  <way id="25704022" version="3" timestamp="2010-07-09T07:25:40Z" uid="74617" user="JohnSmith" changeset="5171412">
    <nd ref="280241217"/>
    <nd ref="280241218"/>
    <nd ref="280241219"/>
    <nd ref="280241220"/>
    <tag k="highway" v="residential"/>
    <tag k="maxspeed" v="50"/>
    <tag k="maxspeed:source" v="default residential speed limit in Australia"/>
  </way>
  <way id="25704022" version="4" timestamp="2010-10-15T05:37:15Z" uid="325087" user="Palitu" changeset="6046295">
    <nd ref="280241217"/>
    <nd ref="280241218"/>
    <nd ref="280241219"/>
    <nd ref="280241220"/>
    <tag k="addr:city" v="Bibra Lake"/>
    <tag k="addr:postcode" v="6163"/>
    <tag k="highway" v="residential"/>
    <tag k="maxspeed" v="50"/>
    <tag k="maxspeed:source" v="default residential speed limit in Australia"/>
  </way>
  <way id="25704022" version="5" timestamp="2011-02-07T08:03:06Z" uid="325087" user="Palitu" changeset="7213274">
    <nd ref="280241217"/>
    <nd ref="280241218"/>
    <nd ref="280241219"/>
    <nd ref="280241220"/>
    <tag k="addr:city" v="Bibra Lake"/>
    <tag k="addr:postcode" v="6163"/>
    <tag k="highway" v="residential"/>
    <tag k="maxspeed" v="50"/>
    <tag k="maxspeed:source" v="default residential speed limit in Australia"/>
    <tag k="name" v="Sunshine Place"/>
  </way>
  <way id="25704022" version="6" timestamp="2012-01-17T00:44:17Z" uid="147510" user="woodpeck_fixbot" changeset="10412890">
    <nd ref="280241217"/>
    <nd ref="280241218"/>
    <nd ref="280241219"/>
    <nd ref="280241220"/>
    <tag k="addr:city" v="Bibra Lake"/>
    <tag k="addr:postcode" v="6163"/>
    <tag k="highway" v="residential"/>
    <tag k="name" v="Sunshine Place"/>
  </way>
  <way id="25704023" version="2" timestamp="2009-12-06T23:34:14Z" uid="200463" user="harmagedon" changeset="3311555">
    <nd ref="280240903"/>
    <nd ref="280240911"/>
    <nd ref="280240912"/>
    <nd ref="280240913"/>
    <tag k="highway" v="service"/>
  </way>
  <way id="25704024" version="2" timestamp="2009-12-06T23:34:16Z" uid="200463" user="harmagedon" changeset="3311555">
    <nd ref="280240922"/>
    <nd ref="280240923"/>
    <nd ref="280240925"/>
    <nd ref="280240926"/>
    <nd ref="280240928"/>
    <nd ref="280240929"/>
    <nd ref="280240922"/>
    <tag k="landuse" v="forest"/>
    <tag k="source" v="estimated"/>
    <tag k="wood" v="mixed"/>
  </way>
  <way id="25704025" version="2" timestamp="2009-12-06T23:34:15Z" uid="200463" user="harmagedon" changeset="3311555">
    <nd ref="60767858"/>
    <nd ref="280240932"/>
    <tag k="highway" v="service"/>
  </way>
  <way id="25704027" version="2" timestamp="2009-12-06T23:34:15Z" uid="200463" user="harmagedon" changeset="3311555">
    <nd ref="60767857"/>
    <nd ref="280240934"/>
    <tag k="highway" v="service"/>
  </way>
  <way id="25704028" version="2" timestamp="2009-12-06T23:34:15Z" uid="200463" user="harmagedon" changeset="3311555">
    <nd ref="280240936"/>
    <nd ref="280240938"/>
    <tag k="addr:interpolation" v="even"/>
  </way>
  <way id="25704029" version="2" timestamp="2009-12-06T23:34:16Z" uid="200463" user="harmagedon" changeset="3311555">
    <nd ref="280240940"/>
    <nd ref="280240941"/>
    <tag k="addr:interpolation" v="even"/>
  </way>
  <way id="25704030" version="3" timestamp="2010-07-09T07:30:06Z" uid="74617" user="JohnSmith" changeset="5171412">
    <nd ref="280237592"/>
    <nd ref="280241273"/>
    <nd ref="280241275"/>
    <nd ref="280241277"/>
    <nd ref="280241279"/>
    <tag k="highway" v="residential"/>
    <tag k="maxspeed" v="50"/>
    <tag k="maxspeed:source" v="default residential speed limit in Australia"/>
  </way>
  <way id="25704030" version="4" timestamp="2010-10-15T05:37:02Z" uid="325087" user="Palitu" changeset="6046295">
    <nd ref="280237592"/>
    <nd ref="280241273"/>
    <nd ref="280241275"/>
    <nd ref="280241277"/>
    <nd ref="280241279"/>
    <tag k="addr:city" v="Bibra Lake"/>
    <tag k="addr:postcode" v="6163"/>
    <tag k="highway" v="residential"/>
    <tag k="maxspeed" v="50"/>
    <tag k="maxspeed:source" v="default residential speed limit in Australia"/>
  </way>
  <way id="25704030" version="5" timestamp="2011-02-07T08:03:04Z" uid="325087" user="Palitu" changeset="7213274">
    <nd ref="280237592"/>
    <nd ref="280241273"/>
    <nd ref="280241275"/>
    <nd ref="280241277"/>
    <nd ref="280241279"/>
    <tag k="addr:city" v="Bibra Lake"/>
    <tag k="addr:postcode" v="6163"/>
    <tag k="highway" v="residential"/>
    <tag k="maxspeed" v="50"/>
    <tag k="maxspeed:source" v="default residential speed limit in Australia"/>
    <tag k="name" v="Thantched Court"/>
  </way>
  <way id="25704030" version="6" timestamp="2012-01-17T00:44:18Z" uid="147510" user="woodpeck_fixbot" changeset="10412890">
    <nd ref="280237592"/>
    <nd ref="280241273"/>
    <nd ref="280241275"/>
    <nd ref="280241277"/>
    <nd ref="280241279"/>
    <tag k="addr:city" v="Bibra Lake"/>
    <tag k="addr:postcode" v="6163"/>
    <tag k="highway" v="residential"/>
    <tag k="name" v="Thantched Court"/>
  </way>
  <way id="25704032" version="2" timestamp="2009-12-06T23:34:01Z" uid="200463" user="harmagedon" changeset="3311555">
    <nd ref="60767855"/>
    <nd ref="280240944"/>
    <nd ref="280240948"/>
    <nd ref="280240949"/>
    <nd ref="280240950"/>
    <nd ref="280240958"/>
    <tag k="highway" v="residential"/>
    <tag k="maxspeed" v="30"/>
    <tag k="name" v="Am Voglfelsen"/>
    <tag k="note" v="the &quot;missing&quot; e in &quot;Vogl&quot; is not a typo"/>
  </way>
  <way id="25704033" version="2" timestamp="2009-12-06T23:34:15Z" uid="200463" user="harmagedon" changeset="3311555">
    <nd ref="280240944"/>
    <nd ref="280240959"/>
    <nd ref="280240960"/>
    <nd ref="280240961"/>
    <tag k="highway" v="residential"/>
    <tag k="maxspeed" v="30"/>
    <tag k="name" v="Scheffweg"/>
  </way>
  <way id="25704033" version="3" timestamp="2011-10-29T17:58:00Z" uid="13010" user="Peda" changeset="9686988">
    <nd ref="280240944"/>
    <nd ref="280240959"/>
    <nd ref="280240960"/>
    <nd ref="1484884307"/>
    <nd ref="280240961"/>
    <tag k="highway" v="residential"/>
    <tag k="maxspeed" v="30"/>
    <tag k="name" v="Scheffweg"/>
  </way>
  <way id="25704034" version="2" timestamp="2009-12-06T23:34:15Z" uid="200463" user="harmagedon" changeset="3311555">
    <nd ref="280240960"/>
    <nd ref="280240962"/>
    <tag k="highway" v="residential"/>
    <tag k="maxspeed" v="30"/>
  </way>
  <way id="25704035" version="2" timestamp="2009-12-06T23:34:14Z" uid="200463" user="harmagedon" changeset="3311555">
    <nd ref="280240968"/>
    <nd ref="280240967"/>
    <nd ref="280240966"/>
    <nd ref="280240963"/>
    <nd ref="60767853"/>
    <tag k="highway" v="service"/>
    <tag k="oneway" v="yes"/>
  </way>
  <way id="25704035" version="3" timestamp="2011-07-20T16:21:56Z" uid="238266" user="bangla" changeset="8780172">
    <nd ref="280240968"/>
    <nd ref="280240967"/>
    <nd ref="280240966"/>
    <nd ref="280240963"/>
    <nd ref="1367999285"/>
    <nd ref="60767853"/>
    <tag k="highway" v="service"/>
    <tag k="oneway" v="yes"/>
  </way>
  <way id="25704035" version="4" timestamp="2011-10-29T17:58:00Z" uid="13010" user="Peda" changeset="9686988">
    <nd ref="280240968"/>
    <nd ref="1484884348"/>
    <nd ref="280240967"/>
    <nd ref="280240966"/>
    <nd ref="280240963"/>
    <nd ref="1367999285"/>
    <nd ref="60767853"/>
    <tag k="highway" v="service"/>
    <tag k="oneway" v="yes"/>
  </way>
  <way id="25704036" version="2" timestamp="2009-12-06T23:34:17Z" uid="200463" user="harmagedon" changeset="3311555">
    <nd ref="60767850"/>
    <nd ref="280241050"/>
    <tag k="highway" v="service"/>
  </way>
  <way id="25704037" version="3" timestamp="2010-07-09T07:29:11Z" uid="74617" user="JohnSmith" changeset="5171412">
    <nd ref="280241275"/>
    <nd ref="280241329"/>
    <nd ref="280241330"/>
    <tag k="highway" v="residential"/>
    <tag k="maxspeed" v="50"/>
    <tag k="maxspeed:source" v="default residential speed limit in Australia"/>
  </way>
  <way id="25704037" version="4" timestamp="2010-10-15T05:36:46Z" uid="325087" user="Palitu" changeset="6046295">
    <nd ref="280241275"/>
    <nd ref="280241329"/>
    <nd ref="280241330"/>
    <tag k="addr:city" v="Bibra Lake"/>
    <tag k="addr:postcode" v="6163"/>
    <tag k="highway" v="residential"/>
    <tag k="maxspeed" v="50"/>
    <tag k="maxspeed:source" v="default residential speed limit in Australia"/>
  </way>
  <way id="25704037" version="5" timestamp="2011-02-07T08:03:06Z" uid="325087" user="Palitu" changeset="7213274">
    <nd ref="280241275"/>
    <nd ref="280241329"/>
    <nd ref="280241330"/>
    <tag k="addr:city" v="Bibra Lake"/>
    <tag k="addr:postcode" v="6163"/>
    <tag k="highway" v="residential"/>
    <tag k="maxspeed" v="50"/>
    <tag k="maxspeed:source" v="default residential speed limit in Australia"/>
    <tag k="name" v="Well Place"/>
  </way>
  <way id="25704037" version="6" timestamp="2012-01-17T00:44:20Z" uid="147510" user="woodpeck_fixbot" changeset="10412890">
    <nd ref="280241275"/>
    <nd ref="280241329"/>
    <nd ref="280241330"/>
    <tag k="addr:city" v="Bibra Lake"/>
    <tag k="addr:postcode" v="6163"/>
    <tag k="highway" v="residential"/>
    <tag k="name" v="Well Place"/>
  </way>
  <way id="25704038" version="2" timestamp="2009-12-06T23:34:17Z" uid="200463" user="harmagedon" changeset="3311555">
    <nd ref="280241053"/>
    <nd ref="280241056"/>
    <tag k="highway" v="footway"/>
  </way>
  <way id="25704039" version="2" timestamp="2009-12-06T23:34:18Z" uid="200463" user="harmagedon" changeset="3311555">
    <nd ref="60885447"/>
    <nd ref="280241155"/>
    <tag k="foot" v="designated"/>
    <tag k="highway" v="cycleway"/>
  </way>
  <way id="25704040" version="2" timestamp="2009-12-06T23:34:17Z" uid="200463" user="harmagedon" changeset="3311555">
    <nd ref="280241155"/>
    <nd ref="280241148"/>
    <tag k="highway" v="service"/>
  </way>
  <way id="25704041" version="2" timestamp="2010-07-09T07:36:41Z" uid="74617" user="JohnSmith" changeset="5171412">
    <nd ref="280241332"/>
    <nd ref="280241333"/>
    <nd ref="280241334"/>
    <nd ref="280241335"/>
    <nd ref="280236688"/>
    <tag k="highway" v="residential"/>
    <tag k="maxspeed" v="50"/>
    <tag k="maxspeed:source" v="default residential speed limit in Australia"/>
  </way>
  <way id="25704041" version="3" timestamp="2010-10-15T05:37:12Z" uid="325087" user="Palitu" changeset="6046295">
    <nd ref="280241332"/>
    <nd ref="280241333"/>
    <nd ref="280241334"/>
    <nd ref="280241335"/>
    <nd ref="280236688"/>
    <tag k="addr:city" v="Bibra Lake"/>
    <tag k="addr:postcode" v="6163"/>
    <tag k="highway" v="residential"/>
    <tag k="maxspeed" v="50"/>
    <tag k="maxspeed:source" v="default residential speed limit in Australia"/>
  </way>
  <way id="25704041" version="4" timestamp="2011-12-16T05:33:35Z" uid="96046" user="colin_090" changeset="10128832">
    <nd ref="280241332"/>
    <nd ref="280241333"/>
    <nd ref="280241334"/>
    <nd ref="280241335"/>
    <nd ref="280236688"/>
    <tag k="addr:city" v="Bibra Lake"/>
    <tag k="addr:postcode" v="6163"/>
    <tag k="highway" v="residential"/>
    <tag k="maxspeed" v="50"/>
    <tag k="maxspeed:source" v="default residential speed limit in Australia"/>
    <tag k="name" v="Walliabup Way"/>
    <tag k="oneway" v="no"/>
  </way>
  <way id="25704041" version="5" timestamp="2012-01-17T00:44:22Z" uid="147510" user="woodpeck_fixbot" changeset="10412890">
    <nd ref="280241332"/>
    <nd ref="280241333"/>
    <nd ref="280241334"/>
    <nd ref="280241335"/>
    <nd ref="280236688"/>
    <tag k="addr:city" v="Bibra Lake"/>
    <tag k="addr:postcode" v="6163"/>
    <tag k="highway" v="residential"/>
    <tag k="name" v="Walliabup Way"/>
    <tag k="oneway" v="no"/>
  </way>
  <way id="25704046" version="5" timestamp="2010-07-09T07:24:15Z" uid="74617" user="JohnSmith" changeset="5171412">
    <nd ref="280241334"/>
    <nd ref="280241405"/>
    <nd ref="280241406"/>
    <nd ref="280241465"/>
    <nd ref="574275509"/>
    <nd ref="280241550"/>
    <tag k="highway" v="residential"/>
    <tag k="maxspeed" v="50"/>
    <tag k="maxspeed:source" v="default residential speed limit in Australia"/>
  </way>
  <way id="25704046" version="6" timestamp="2010-10-15T05:37:09Z" uid="325087" user="Palitu" changeset="6046295">
    <nd ref="280241334"/>
    <nd ref="280241405"/>
    <nd ref="280241406"/>
    <nd ref="280241465"/>
    <nd ref="574275509"/>
    <nd ref="280241550"/>
    <tag k="addr:city" v="Bibra Lake"/>
    <tag k="addr:postcode" v="6163"/>
    <tag k="highway" v="residential"/>
    <tag k="maxspeed" v="50"/>
    <tag k="maxspeed:source" v="default residential speed limit in Australia"/>
  </way>
  <way id="25704046" version="7" timestamp="2011-12-16T05:33:02Z" uid="96046" user="colin_090" changeset="10128832">
    <nd ref="280241334"/>
    <nd ref="280241405"/>
    <nd ref="280241406"/>
    <nd ref="280241465"/>
    <nd ref="574275509"/>
    <nd ref="280241550"/>
    <tag k="addr:city" v="Bibra Lake"/>
    <tag k="addr:postcode" v="6163"/>
    <tag k="highway" v="residential"/>
    <tag k="maxspeed" v="50"/>
    <tag k="maxspeed:source" v="default residential speed limit in Australia"/>
    <tag k="name" v="Farmhouse Drive"/>
    <tag k="oneway" v="no"/>
  </way>
  <way id="25704046" version="8" timestamp="2012-01-17T00:44:25Z" uid="147510" user="woodpeck_fixbot" changeset="10412890">
    <nd ref="280241334"/>
    <nd ref="280241405"/>
    <nd ref="280241406"/>
    <nd ref="280241465"/>
    <nd ref="574275509"/>
    <nd ref="280241550"/>
    <tag k="addr:city" v="Bibra Lake"/>
    <tag k="addr:postcode" v="6163"/>
    <tag k="highway" v="residential"/>
    <tag k="name" v="Farmhouse Drive"/>
    <tag k="oneway" v="no"/>
  </way>
  <way id="25704049" version="2" timestamp="2008-08-22T12:57:45Z" uid="6269" user="Mueck" changeset="366703">
    <nd ref="280241424"/>
    <nd ref="280241426"/>
    <nd ref="280241427"/>
    <tag k="created_by" v="Potlatch 0.10b"/>
    <tag k="highway" v="residential"/>
    <tag k="maxspeed" v="30"/>
  </way>
  <way id="25704049" version="3" timestamp="2008-08-22T13:46:29Z" uid="6269" user="Mueck" changeset="366703">
    <nd ref="280241424"/>
    <nd ref="280241426"/>
    <nd ref="280241427"/>
    <tag k="created_by" v="Potlatch 0.10b"/>
    <tag k="highway" v="residential"/>
    <tag k="maxspeed" v="30"/>
    <tag k="name" v="Waldstraße"/>
  </way>
  <way id="25704049" version="4" timestamp="2010-02-17T19:03:47Z" uid="65364" user="Harry99" changeset="3903309">
    <nd ref="280241424"/>
    <nd ref="280241426"/>
    <nd ref="280241427"/>
    <tag k="highway" v="residential"/>
    <tag k="maxspeed" v="30"/>
    <tag k="name" v="Waldstraße"/>
  </way>
  <way id="25704049" version="5" timestamp="2012-01-11T15:53:59Z" uid="65364" user="Harry99" changeset="10361685"/>
  <way id="25704050" version="2" timestamp="2008-08-22T12:57:13Z" uid="6269" user="Mueck" changeset="366703">
    <nd ref="264136596"/>
    <nd ref="280241421"/>
    <nd ref="280241422"/>
    <nd ref="280241423"/>
    <nd ref="280241424"/>
    <nd ref="280241425"/>
    <tag k="created_by" v="Potlatch 0.10b"/>
    <tag k="highway" v="residential"/>
    <tag k="maxspeed" v="30"/>
  </way>
  <way id="25704050" version="3" timestamp="2008-08-22T12:57:42Z" uid="6269" user="Mueck" changeset="366703">
    <nd ref="264136596"/>
    <nd ref="280241421"/>
    <nd ref="280241422"/>
    <nd ref="280241423"/>
    <nd ref="280241424"/>
    <nd ref="280241425"/>
    <tag k="created_by" v="Potlatch 0.10b"/>
    <tag k="highway" v="residential"/>
    <tag k="maxspeed" v="30"/>
  </way>
  <way id="25704050" version="4" timestamp="2008-08-22T13:46:27Z" uid="6269" user="Mueck" changeset="366703">
    <nd ref="264136596"/>
    <nd ref="280241421"/>
    <nd ref="280241422"/>
    <nd ref="280241423"/>
    <nd ref="280241424"/>
    <nd ref="280241425"/>
    <tag k="created_by" v="Potlatch 0.10b"/>
    <tag k="highway" v="residential"/>
    <tag k="maxspeed" v="30"/>
    <tag k="name" v="Waldstraße"/>
  </way>
  <way id="25704050" version="5" timestamp="2010-02-17T19:03:52Z" uid="65364" user="Harry99" changeset="3903309">
    <nd ref="264136596"/>
    <nd ref="280241421"/>
    <nd ref="280241422"/>
    <nd ref="280241423"/>
    <nd ref="280241424"/>
    <nd ref="280241425"/>
    <tag k="highway" v="residential"/>
    <tag k="maxspeed" v="30"/>
    <tag k="name" v="Waldstraße"/>
  </way>
  <way id="25704050" version="6" timestamp="2012-01-11T15:53:59Z" uid="65364" user="Harry99" changeset="10361685"/>
  <way id="25704051" version="2" timestamp="2008-08-22T12:57:32Z" uid="6269" user="Mueck" changeset="366703">
    <nd ref="280241430"/>
    <nd ref="280241425"/>
    <nd ref="280241431"/>
    <nd ref="280241432"/>
    <tag k="created_by" v="Potlatch 0.10b"/>
    <tag k="highway" v="residential"/>
    <tag k="maxspeed" v="30"/>
  </way>
  <way id="25704051" version="3" timestamp="2008-08-22T13:46:32Z" uid="6269" user="Mueck" changeset="366703">
    <nd ref="280241430"/>
    <nd ref="280241425"/>
    <nd ref="280241431"/>
    <nd ref="280241432"/>
    <tag k="created_by" v="Potlatch 0.10b"/>
    <tag k="highway" v="residential"/>
    <tag k="maxspeed" v="30"/>
    <tag k="name" v="Waldstraße"/>
  </way>
  <way id="25704051" version="4" timestamp="2010-02-17T19:03:52Z" uid="65364" user="Harry99" changeset="3903309">
    <nd ref="280241430"/>
    <nd ref="280241425"/>
    <nd ref="280241431"/>
    <nd ref="280241432"/>
    <tag k="highway" v="residential"/>
    <tag k="maxspeed" v="30"/>
    <tag k="name" v="Waldstraße"/>
  </way>
  <way id="25704051" version="5" timestamp="2012-01-11T15:53:59Z" uid="65364" user="Harry99" changeset="10361685"/>
  <way id="25704052" version="2" timestamp="2008-08-22T12:57:30Z" uid="6269" user="Mueck" changeset="366703">
    <nd ref="280241433"/>
    <nd ref="280241432"/>
    <nd ref="280241434"/>
    <tag k="created_by" v="Potlatch 0.10b"/>
    <tag k="highway" v="residential"/>
    <tag k="maxspeed" v="30"/>
  </way>
  <way id="25704052" version="3" timestamp="2008-08-22T13:46:51Z" uid="6269" user="Mueck" changeset="366703">
    <nd ref="280241433"/>
    <nd ref="280241432"/>
    <nd ref="280241434"/>
    <tag k="created_by" v="Potlatch 0.10b"/>
    <tag k="highway" v="residential"/>
    <tag k="maxspeed" v="30"/>
    <tag k="name" v="Waldstraße"/>
  </way>
  <way id="25704052" version="4" timestamp="2010-02-17T19:03:53Z" uid="65364" user="Harry99" changeset="3903309">
    <nd ref="280241433"/>
    <nd ref="280241432"/>
    <nd ref="280241434"/>
    <tag k="highway" v="residential"/>
    <tag k="maxspeed" v="30"/>
    <tag k="name" v="Waldstraße"/>
  </way>
  <way id="25704052" version="5" timestamp="2012-01-11T15:53:59Z" uid="65364" user="Harry99" changeset="10361685"/>
  <way id="25704055" version="5" timestamp="2010-07-09T07:32:08Z" uid="74617" user="JohnSmith" changeset="5171412">
    <nd ref="280241405"/>
    <nd ref="280241454"/>
    <nd ref="280241455"/>
    <nd ref="574275529"/>
    <nd ref="574275530"/>
    <nd ref="280241456"/>
    <nd ref="280241551"/>
    <nd ref="280241612"/>
    <nd ref="574275532"/>
    <nd ref="280241457"/>
    <nd ref="280241463"/>
    <nd ref="574275534"/>
    <nd ref="574275535"/>
    <nd ref="280241459"/>
    <tag k="highway" v="residential"/>
    <tag k="maxspeed" v="50"/>
    <tag k="maxspeed:source" v="default residential speed limit in Australia"/>
  </way>
  <way id="25704055" version="6" timestamp="2010-10-15T05:36:57Z" uid="325087" user="Palitu" changeset="6046295">
    <nd ref="280241405"/>
    <nd ref="280241454"/>
    <nd ref="280241455"/>
    <nd ref="574275529"/>
    <nd ref="574275530"/>
    <nd ref="280241456"/>
    <nd ref="280241551"/>
    <nd ref="280241612"/>
    <nd ref="574275532"/>
    <nd ref="280241457"/>
    <nd ref="280241463"/>
    <nd ref="574275534"/>
    <nd ref="574275535"/>
    <nd ref="280241459"/>
    <tag k="addr:city" v="Bibra Lake"/>
    <tag k="addr:postcode" v="6163"/>
    <tag k="highway" v="residential"/>
    <tag k="maxspeed" v="50"/>
    <tag k="maxspeed:source" v="default residential speed limit in Australia"/>
  </way>
  <way id="25704055" version="7" timestamp="2011-12-16T05:31:20Z" uid="96046" user="colin_090" changeset="10128832">
    <nd ref="280241405"/>
    <nd ref="280241454"/>
    <nd ref="280241455"/>
    <nd ref="574275529"/>
    <nd ref="574275530"/>
    <nd ref="280241456"/>
    <nd ref="280241551"/>
    <nd ref="280241612"/>
    <nd ref="574275532"/>
    <nd ref="280241457"/>
    <nd ref="280241463"/>
    <nd ref="574275534"/>
    <nd ref="574275535"/>
    <nd ref="280241459"/>
    <tag k="addr:city" v="Bibra Lake"/>
    <tag k="addr:postcode" v="6163"/>
    <tag k="highway" v="residential"/>
    <tag k="maxspeed" v="50"/>
    <tag k="maxspeed:source" v="default residential speed limit in Australia"/>
    <tag k="name" v="Windmill Drive"/>
    <tag k="oneway" v="no"/>
  </way>
  <way id="25704055" version="8" timestamp="2011-12-16T05:32:00Z" uid="96046" user="colin_090" changeset="10128832">
    <nd ref="1548361917"/>
    <nd ref="280241454"/>
    <nd ref="280241405"/>
    <nd ref="280241454"/>
    <nd ref="1548361917"/>
    <nd ref="280241455"/>
    <nd ref="574275529"/>
    <nd ref="574275530"/>
    <nd ref="280241456"/>
    <nd ref="280241551"/>
    <nd ref="280241612"/>
    <nd ref="574275532"/>
    <nd ref="280241457"/>
    <nd ref="280241463"/>
    <nd ref="574275534"/>
    <nd ref="574275535"/>
    <nd ref="280241459"/>
    <tag k="addr:city" v="Bibra Lake"/>
    <tag k="addr:postcode" v="6163"/>
    <tag k="highway" v="residential"/>
    <tag k="maxspeed" v="50"/>
    <tag k="maxspeed:source" v="default residential speed limit in Australia"/>
    <tag k="name" v="Windmill Drive"/>
    <tag k="oneway" v="no"/>
  </way>
  <way id="25704055" version="9" timestamp="2012-01-17T00:44:27Z" uid="147510" user="woodpeck_fixbot" changeset="10412890">
    <nd ref="1548361917"/>
    <nd ref="280241454"/>
    <nd ref="280241405"/>
    <nd ref="280241454"/>
    <nd ref="1548361917"/>
    <nd ref="280241455"/>
    <nd ref="574275529"/>
    <nd ref="574275530"/>
    <nd ref="280241456"/>
    <nd ref="280241551"/>
    <nd ref="280241612"/>
    <nd ref="574275532"/>
    <nd ref="280241457"/>
    <nd ref="280241463"/>
    <nd ref="574275534"/>
    <nd ref="574275535"/>
    <nd ref="280241459"/>
    <tag k="addr:city" v="Bibra Lake"/>
    <tag k="addr:postcode" v="6163"/>
    <tag k="highway" v="residential"/>
    <tag k="name" v="Windmill Drive"/>
    <tag k="oneway" v="no"/>
  </way>
  <way id="25704057" version="3" timestamp="2010-07-09T07:30:20Z" uid="74617" user="JohnSmith" changeset="5171412">
    <nd ref="280241463"/>
    <nd ref="280241464"/>
    <nd ref="280241465"/>
    <tag k="highway" v="residential"/>
    <tag k="maxspeed" v="50"/>
    <tag k="maxspeed:source" v="default residential speed limit in Australia"/>
  </way>
  <way id="25704057" version="4" timestamp="2010-10-15T05:36:55Z" uid="325087" user="Palitu" changeset="6046295">
    <nd ref="280241463"/>
    <nd ref="280241464"/>
    <nd ref="280241465"/>
    <tag k="addr:city" v="Bibra Lake"/>
    <tag k="addr:postcode" v="6163"/>
    <tag k="highway" v="residential"/>
    <tag k="maxspeed" v="50"/>
    <tag k="maxspeed:source" v="default residential speed limit in Australia"/>
  </way>
  <way id="25704057" version="5" timestamp="2011-12-16T05:32:41Z" uid="96046" user="colin_090" changeset="10128832">
    <nd ref="280241463"/>
    <nd ref="280241464"/>
    <nd ref="280241465"/>
    <tag k="addr:city" v="Bibra Lake"/>
    <tag k="addr:postcode" v="6163"/>
    <tag k="highway" v="residential"/>
    <tag k="maxspeed" v="50"/>
    <tag k="maxspeed:source" v="default residential speed limit in Australia"/>
    <tag k="name" v="Corn Way"/>
    <tag k="oneway" v="no"/>
  </way>
  <way id="25704057" version="6" timestamp="2012-01-17T00:44:30Z" uid="147510" user="woodpeck_fixbot" changeset="10412890">
    <nd ref="280241463"/>
    <nd ref="280241464"/>
    <nd ref="280241465"/>
    <tag k="addr:city" v="Bibra Lake"/>
    <tag k="addr:postcode" v="6163"/>
    <tag k="highway" v="residential"/>
    <tag k="name" v="Corn Way"/>
    <tag k="oneway" v="no"/>
  </way>
  <way id="25704064" version="3" timestamp="2010-07-09T07:33:13Z" uid="74617" user="JohnSmith" changeset="5171412">
    <nd ref="280241464"/>
    <nd ref="574275543"/>
    <nd ref="574275548"/>
    <nd ref="280241548"/>
    <tag k="highway" v="residential"/>
    <tag k="maxspeed" v="50"/>
    <tag k="maxspeed:source" v="default residential speed limit in Australia"/>
  </way>
  <way id="25704064" version="4" timestamp="2010-10-15T05:36:37Z" uid="325087" user="Palitu" changeset="6046295">
    <nd ref="280241464"/>
    <nd ref="574275543"/>
    <nd ref="574275548"/>
    <nd ref="280241548"/>
    <tag k="addr:city" v="Bibra Lake"/>
    <tag k="addr:postcode" v="6163"/>
    <tag k="highway" v="residential"/>
    <tag k="maxspeed" v="50"/>
    <tag k="maxspeed:source" v="default residential speed limit in Australia"/>
  </way>
  <way id="25704064" version="5" timestamp="2011-12-16T05:32:21Z" uid="96046" user="colin_090" changeset="10128832">
    <nd ref="280241464"/>
    <nd ref="574275543"/>
    <nd ref="1548362039"/>
    <nd ref="574275548"/>
    <nd ref="280241548"/>
    <tag k="addr:city" v="Bibra Lake"/>
    <tag k="addr:postcode" v="6163"/>
    <tag k="highway" v="residential"/>
    <tag k="maxspeed" v="50"/>
    <tag k="maxspeed:source" v="default residential speed limit in Australia"/>
    <tag k="name" v="Farrow Way"/>
    <tag k="oneway" v="no"/>
  </way>
  <way id="25704064" version="6" timestamp="2012-01-17T00:44:31Z" uid="147510" user="woodpeck_fixbot" changeset="10412890">
    <nd ref="280241464"/>
    <nd ref="574275543"/>
    <nd ref="1548362039"/>
    <nd ref="574275548"/>
    <nd ref="280241548"/>
    <tag k="addr:city" v="Bibra Lake"/>
    <tag k="addr:postcode" v="6163"/>
    <tag k="highway" v="residential"/>
    <tag k="name" v="Farrow Way"/>
    <tag k="oneway" v="no"/>
  </way>
  <way id="25704067" version="3" timestamp="2010-07-09T07:30:00Z" uid="74617" user="JohnSmith" changeset="5171412">
    <nd ref="280241551"/>
    <nd ref="280241609"/>
    <nd ref="574275502"/>
    <nd ref="574275503"/>
    <nd ref="280241610"/>
    <nd ref="574275504"/>
    <nd ref="280241611"/>
    <nd ref="574275506"/>
    <nd ref="280241612"/>
    <tag k="highway" v="residential"/>
    <tag k="maxspeed" v="50"/>
    <tag k="maxspeed:source" v="default residential speed limit in Australia"/>
  </way>
  <way id="25704067" version="4" timestamp="2010-10-15T05:36:57Z" uid="325087" user="Palitu" changeset="6046295">
    <nd ref="280241551"/>
    <nd ref="280241609"/>
    <nd ref="574275502"/>
    <nd ref="574275503"/>
    <nd ref="280241610"/>
    <nd ref="574275504"/>
    <nd ref="280241611"/>
    <nd ref="574275506"/>
    <nd ref="280241612"/>
    <tag k="addr:city" v="Bibra Lake"/>
    <tag k="addr:postcode" v="6163"/>
    <tag k="highway" v="residential"/>
    <tag k="maxspeed" v="50"/>
    <tag k="maxspeed:source" v="default residential speed limit in Australia"/>
  </way>
  <way id="25704067" version="5" timestamp="2011-12-16T05:32:01Z" uid="96046" user="colin_090" changeset="10128832">
    <nd ref="280241551"/>
    <nd ref="280241609"/>
    <nd ref="574275502"/>
    <nd ref="574275503"/>
    <nd ref="280241610"/>
    <nd ref="574275504"/>
    <nd ref="280241611"/>
    <nd ref="574275506"/>
    <nd ref="280241612"/>
    <tag k="addr:city" v="Bibra Lake"/>
    <tag k="addr:postcode" v="6163"/>
    <tag k="highway" v="residential"/>
    <tag k="maxspeed" v="50"/>
    <tag k="maxspeed:source" v="default residential speed limit in Australia"/>
    <tag k="name" v="Wind Mill Drive"/>
    <tag k="oneway" v="no"/>
  </way>
  <way id="25704067" version="6" timestamp="2012-01-17T00:44:33Z" uid="147510" user="woodpeck_fixbot" changeset="10412890">
    <nd ref="280241551"/>
    <nd ref="280241609"/>
    <nd ref="574275502"/>
    <nd ref="574275503"/>
    <nd ref="280241610"/>
    <nd ref="574275504"/>
    <nd ref="280241611"/>
    <nd ref="574275506"/>
    <nd ref="280241612"/>
    <tag k="addr:city" v="Bibra Lake"/>
    <tag k="addr:postcode" v="6163"/>
    <tag k="highway" v="residential"/>
    <tag k="name" v="Wind Mill Drive"/>
    <tag k="oneway" v="no"/>
  </way>
  <way id="25704112" version="15" timestamp="2010-03-07T04:53:57Z" uid="242497" user="vlchung" changeset="4057361">
    <nd ref="279520887"/>
    <nd ref="280242032"/>
    <nd ref="280243026"/>
    <nd ref="280236693"/>
    <nd ref="280242394"/>
    <nd ref="280242033"/>
    <nd ref="280242034"/>
    <nd ref="280242035"/>
    <nd ref="280242036"/>
    <nd ref="280242550"/>
    <nd ref="280243099"/>
    <nd ref="280243028"/>
    <nd ref="574275571"/>
    <nd ref="280242397"/>
    <nd ref="574275573"/>
    <nd ref="280242521"/>
    <nd ref="280243029"/>
    <nd ref="280242400"/>
    <nd ref="280242401"/>
    <nd ref="280243101"/>
    <nd ref="280243805"/>
    <nd ref="280242403"/>
    <nd ref="280242524"/>
    <nd ref="280243656"/>
    <nd ref="280244010"/>
    <nd ref="280242048"/>
    <nd ref="280242049"/>
    <nd ref="280242050"/>
    <nd ref="280242051"/>
    <nd ref="280244515"/>
    <nd ref="280242052"/>
    <nd ref="280243735"/>
    <nd ref="280242053"/>
    <nd ref="280242054"/>
    <nd ref="280242055"/>
    <nd ref="280242056"/>
    <nd ref="280242057"/>
    <nd ref="280242058"/>
    <nd ref="280242406"/>
    <nd ref="280242407"/>
    <nd ref="280243655"/>
    <nd ref="280242526"/>
    <nd ref="280244792"/>
    <nd ref="280242410"/>
    <nd ref="280243095"/>
    <nd ref="280243474"/>
    <nd ref="280242411"/>
    <nd ref="263286303"/>
    <tag k="highway" v="residential"/>
    <tag k="name" v="Fairway"/>
  </way>
  <way id="25704112" version="16" timestamp="2010-03-07T05:03:22Z" uid="242497" user="vlchung" changeset="4057361">
    <nd ref="279520887"/>
    <nd ref="280242032"/>
    <nd ref="280243026"/>
    <nd ref="280236693"/>
    <nd ref="280242394"/>
    <nd ref="280242033"/>
    <nd ref="280242034"/>
    <nd ref="280242035"/>
    <nd ref="280242036"/>
    <nd ref="280242550"/>
    <nd ref="280243099"/>
    <nd ref="280243028"/>
    <nd ref="574275571"/>
    <nd ref="280242397"/>
    <nd ref="574275573"/>
    <nd ref="280242521"/>
    <nd ref="280243029"/>
    <nd ref="280242400"/>
    <nd ref="280242401"/>
    <nd ref="280243101"/>
    <nd ref="280243805"/>
    <nd ref="280242403"/>
    <nd ref="280242524"/>
    <nd ref="280243656"/>
    <nd ref="280244010"/>
    <nd ref="280242048"/>
    <nd ref="280242049"/>
    <nd ref="280242050"/>
    <nd ref="280242051"/>
    <nd ref="280244515"/>
    <nd ref="280242052"/>
    <nd ref="280243735"/>
    <nd ref="280242053"/>
    <nd ref="280242054"/>
    <nd ref="280242055"/>
    <nd ref="280242056"/>
    <nd ref="280242057"/>
    <nd ref="280242058"/>
    <nd ref="280242406"/>
    <nd ref="280242407"/>
    <nd ref="280243655"/>
    <nd ref="280242526"/>
    <nd ref="280244792"/>
    <nd ref="280242410"/>
    <nd ref="280243095"/>
    <nd ref="280243474"/>
    <nd ref="280242411"/>
    <nd ref="263286303"/>
    <tag k="highway" v="residential"/>
    <tag k="name" v="Parkway Road"/>
  </way>
  <way id="25704112" version="17" timestamp="2010-04-30T06:00:49Z" uid="192584" user="ORYX" changeset="4563226">
    <nd ref="279520887"/>
    <nd ref="280242032"/>
    <nd ref="280243026"/>
    <nd ref="280236693"/>
    <nd ref="280242394"/>
    <nd ref="280242033"/>
    <nd ref="280242034"/>
    <nd ref="280242035"/>
    <nd ref="280242036"/>
    <nd ref="280242550"/>
    <nd ref="280243099"/>
    <nd ref="280243028"/>
    <nd ref="574275571"/>
    <nd ref="280242397"/>
    <nd ref="574275573"/>
    <nd ref="280242521"/>
    <nd ref="280243029"/>
    <nd ref="280242400"/>
    <nd ref="280242401"/>
    <nd ref="280243101"/>
    <nd ref="280243805"/>
    <nd ref="280242403"/>
    <nd ref="280242524"/>
    <nd ref="280243656"/>
    <nd ref="280244010"/>
    <nd ref="280242048"/>
    <nd ref="280242049"/>
    <nd ref="280242050"/>
    <nd ref="280242051"/>
    <nd ref="280244515"/>
    <nd ref="280242052"/>
    <nd ref="280243735"/>
    <nd ref="280242053"/>
    <nd ref="280242054"/>
    <nd ref="280242055"/>
    <nd ref="280242056"/>
    <nd ref="280242057"/>
    <nd ref="280242058"/>
    <nd ref="280242406"/>
    <nd ref="280242407"/>
    <nd ref="280243655"/>
    <tag k="highway" v="residential"/>
    <tag k="name" v="Parkway Road"/>
  </way>
  <way id="25704112" version="18" timestamp="2010-05-11T14:18:50Z" uid="4467" user="Rosscoe" changeset="4668974">
    <nd ref="729699809"/>
    <nd ref="729699785"/>
    <nd ref="280242032"/>
    <nd ref="280243026"/>
    <nd ref="280236693"/>
    <nd ref="280242394"/>
    <nd ref="280242033"/>
    <nd ref="280242034"/>
    <nd ref="280242035"/>
    <nd ref="280242036"/>
    <nd ref="280242550"/>
    <nd ref="280243099"/>
    <nd ref="280243028"/>
    <nd ref="574275571"/>
    <nd ref="280242397"/>
    <nd ref="574275573"/>
    <nd ref="280242521"/>
    <nd ref="280243029"/>
    <nd ref="280242400"/>
    <nd ref="280242401"/>
    <nd ref="280243101"/>
    <nd ref="280243805"/>
    <nd ref="280242403"/>
    <nd ref="280242524"/>
    <nd ref="280243656"/>
    <nd ref="280244010"/>
    <nd ref="280242048"/>
    <nd ref="280242049"/>
    <nd ref="280242050"/>
    <nd ref="280242051"/>
    <nd ref="280244515"/>
    <nd ref="280242052"/>
    <nd ref="280243735"/>
    <nd ref="280242053"/>
    <nd ref="280242054"/>
    <nd ref="280242055"/>
    <nd ref="280242056"/>
    <nd ref="280242057"/>
    <nd ref="280242058"/>
    <nd ref="280242406"/>
    <nd ref="280242407"/>
    <nd ref="280243655"/>
    <tag k="highway" v="residential"/>
    <tag k="name" v="Parkway Road"/>
  </way>
  <way id="25704112" version="19" timestamp="2010-07-09T07:31:01Z" uid="74617" user="JohnSmith" changeset="5171412">
    <nd ref="729699809"/>
    <nd ref="729699785"/>
    <nd ref="280242032"/>
    <nd ref="280243026"/>
    <nd ref="280236693"/>
    <nd ref="280242394"/>
    <nd ref="280242033"/>
    <nd ref="280242034"/>
    <nd ref="280242035"/>
    <nd ref="280242036"/>
    <nd ref="280242550"/>
    <nd ref="280243099"/>
    <nd ref="280243028"/>
    <nd ref="574275571"/>
    <nd ref="280242397"/>
    <nd ref="574275573"/>
    <nd ref="280242521"/>
    <nd ref="280243029"/>
    <nd ref="280242400"/>
    <nd ref="280242401"/>
    <nd ref="280243101"/>
    <nd ref="280243805"/>
    <nd ref="280242403"/>
    <nd ref="280242524"/>
    <nd ref="280243656"/>
    <nd ref="280244010"/>
    <nd ref="280242048"/>
    <nd ref="280242049"/>
    <nd ref="280242050"/>
    <nd ref="280242051"/>
    <nd ref="280244515"/>
    <nd ref="280242052"/>
    <nd ref="280243735"/>
    <nd ref="280242053"/>
    <nd ref="280242054"/>
    <nd ref="280242055"/>
    <nd ref="280242056"/>
    <nd ref="280242057"/>
    <nd ref="280242058"/>
    <nd ref="280242406"/>
    <nd ref="280242407"/>
    <nd ref="280243655"/>
    <tag k="highway" v="residential"/>
    <tag k="maxspeed" v="50"/>
    <tag k="maxspeed:source" v="default residential speed limit in Australia"/>
    <tag k="name" v="Parkway Road"/>
  </way>
  <way id="25704112" version="20" timestamp="2010-10-15T05:36:58Z" uid="325087" user="Palitu" changeset="6046295">
    <nd ref="729699809"/>
    <nd ref="729699785"/>
    <nd ref="280242032"/>
    <nd ref="280243026"/>
    <nd ref="280236693"/>
    <nd ref="280242394"/>
    <nd ref="280242033"/>
    <nd ref="280242034"/>
    <nd ref="280242035"/>
    <nd ref="280242036"/>
    <nd ref="280242550"/>
    <nd ref="280243099"/>
    <nd ref="280243028"/>
    <nd ref="574275571"/>
    <nd ref="280242397"/>
    <nd ref="574275573"/>
    <nd ref="280242521"/>
    <nd ref="280243029"/>
    <nd ref="280242400"/>
    <nd ref="280242401"/>
    <nd ref="280243101"/>
    <nd ref="280243805"/>
    <nd ref="280242403"/>
    <nd ref="280242524"/>
    <nd ref="280243656"/>
    <nd ref="280244010"/>
    <nd ref="280242048"/>
    <nd ref="280242049"/>
    <nd ref="280242050"/>
    <nd ref="280242051"/>
    <nd ref="280244515"/>
    <nd ref="280242052"/>
    <nd ref="280243735"/>
    <nd ref="280242053"/>
    <nd ref="280242054"/>
    <nd ref="280242055"/>
    <nd ref="280242056"/>
    <nd ref="280242057"/>
    <nd ref="280242058"/>
    <nd ref="280242406"/>
    <nd ref="280242407"/>
    <nd ref="280243655"/>
    <tag k="addr:city" v="Bibra Lake"/>
    <tag k="addr:postcode" v="6163"/>
    <tag k="highway" v="residential"/>
    <tag k="maxspeed" v="50"/>
    <tag k="maxspeed:source" v="default residential speed limit in Australia"/>
    <tag k="name" v="Parkway Road"/>
  </way>
  <way id="25704112" version="21" timestamp="2011-02-09T03:01:39Z" uid="325087" user="Palitu" changeset="7232674">
    <nd ref="729699809"/>
    <nd ref="729699785"/>
    <nd ref="280242032"/>
    <nd ref="1143298497"/>
    <nd ref="280243026"/>
    <nd ref="1143298495"/>
    <nd ref="280236693"/>
    <nd ref="280242394"/>
    <nd ref="280242033"/>
    <nd ref="280242034"/>
    <nd ref="280242035"/>
    <nd ref="280242036"/>
    <nd ref="280242550"/>
    <nd ref="280243099"/>
    <nd ref="280243028"/>
    <nd ref="574275571"/>
    <nd ref="280242397"/>
    <nd ref="574275573"/>
    <nd ref="280242521"/>
    <nd ref="280243029"/>
    <nd ref="280242400"/>
    <nd ref="280242401"/>
    <nd ref="280243101"/>
    <nd ref="280243805"/>
    <nd ref="280242403"/>
    <nd ref="280242524"/>
    <nd ref="280243656"/>
    <nd ref="280244010"/>
    <nd ref="280242048"/>
    <nd ref="280242049"/>
    <nd ref="280242050"/>
    <nd ref="280242051"/>
    <nd ref="280244515"/>
    <nd ref="280242052"/>
    <nd ref="280243735"/>
    <nd ref="280242053"/>
    <nd ref="280242054"/>
    <nd ref="280242055"/>
    <nd ref="280242056"/>
    <nd ref="280242057"/>
    <nd ref="280242058"/>
    <nd ref="280242406"/>
    <nd ref="280242407"/>
    <nd ref="280243655"/>
    <tag k="addr:city" v="Bibra Lake"/>
    <tag k="addr:postcode" v="6163"/>
    <tag k="highway" v="residential"/>
    <tag k="maxspeed" v="50"/>
    <tag k="maxspeed:source" v="default residential speed limit in Australia"/>
    <tag k="name" v="Parkway Road"/>
  </way>
  <way id="25704112" version="22" timestamp="2012-01-17T00:44:38Z" uid="147510" user="woodpeck_fixbot" changeset="10412890">
    <nd ref="729699809"/>
    <nd ref="729699785"/>
    <nd ref="280242032"/>
    <nd ref="1143298497"/>
    <nd ref="280243026"/>
    <nd ref="1143298495"/>
    <nd ref="280236693"/>
    <nd ref="280242394"/>
    <nd ref="280242033"/>
    <nd ref="280242034"/>
    <nd ref="280242035"/>
    <nd ref="280242036"/>
    <nd ref="280242550"/>
    <nd ref="280243099"/>
    <nd ref="280243028"/>
    <nd ref="574275571"/>
    <nd ref="280242397"/>
    <nd ref="574275573"/>
    <nd ref="280242521"/>
    <nd ref="280243029"/>
    <nd ref="280242400"/>
    <nd ref="280242401"/>
    <nd ref="280243101"/>
    <nd ref="280243805"/>
    <nd ref="280242403"/>
    <nd ref="280242524"/>
    <nd ref="280243656"/>
    <nd ref="280244010"/>
    <nd ref="280242048"/>
    <nd ref="280242049"/>
    <nd ref="280242050"/>
    <nd ref="280242051"/>
    <nd ref="280244515"/>
    <nd ref="280242052"/>
    <nd ref="280243735"/>
    <nd ref="280242053"/>
    <nd ref="280242054"/>
    <nd ref="280242055"/>
    <nd ref="280242056"/>
    <nd ref="280242057"/>
    <nd ref="280242058"/>
    <nd ref="280242406"/>
    <nd ref="280242407"/>
    <nd ref="280243655"/>
    <tag k="addr:city" v="Bibra Lake"/>
    <tag k="addr:postcode" v="6163"/>
    <tag k="highway" v="residential"/>
    <tag k="name" v="Parkway Road"/>
  </way>
  <way id="25704119" version="2" timestamp="2010-05-11T14:18:51Z" uid="4467" user="Rosscoe" changeset="4668974">
    <nd ref="280242256"/>
    <nd ref="280242257"/>
    <nd ref="280242258"/>
    <nd ref="280242259"/>
    <nd ref="729699772"/>
    <nd ref="280242260"/>
    <nd ref="729699804"/>
    <nd ref="280242261"/>
    <nd ref="280242262"/>
    <nd ref="729699783"/>
    <nd ref="280242263"/>
    <nd ref="729699792"/>
    <nd ref="280242264"/>
    <nd ref="729699811"/>
    <nd ref="729699795"/>
    <nd ref="280242265"/>
    <nd ref="280242256"/>
    <tag k="amenity" v="school"/>
  </way>
  <way id="25704124" version="5" timestamp="2010-05-01T22:23:08Z" uid="151899" user="Bikeman2000" changeset="4580046">
    <nd ref="395694399"/>
    <nd ref="395694511"/>
    <nd ref="395694546"/>
    <nd ref="715922724"/>
    <nd ref="253802096"/>
    <nd ref="280242445"/>
    <nd ref="395694483"/>
    <nd ref="395694402"/>
    <nd ref="395694406"/>
    <nd ref="395694488"/>
    <nd ref="395694409"/>
    <nd ref="395694414"/>
    <nd ref="395694415"/>
    <nd ref="395694419"/>
    <nd ref="395694421"/>
    <nd ref="395694423"/>
    <nd ref="395694439"/>
    <nd ref="395694533"/>
    <nd ref="280242446"/>
    <nd ref="395694528"/>
    <nd ref="395694516"/>
    <nd ref="253802098"/>
    <nd ref="395694514"/>
    <nd ref="395694345"/>
    <nd ref="395694399"/>
    <tag k="landuse" v="recreation_ground"/>
    <tag k="layer" v="-1"/>
    <tag k="leisure" v="park"/>
  </way>
  <way id="25704124" version="6" timestamp="2010-10-24T13:05:43Z" uid="12614" user="rabenkind" changeset="6156419"/>
  <way id="25704133" version="5" timestamp="2010-03-19T16:47:07Z" uid="242497" user="vlchung" changeset="4171764">
    <nd ref="280242394"/>
    <nd ref="280242513"/>
    <nd ref="280242638"/>
    <nd ref="280242514"/>
    <nd ref="280242515"/>
    <nd ref="280242549"/>
    <nd ref="280242516"/>
    <nd ref="280242517"/>
    <nd ref="280242550"/>
    <tag k="highway" v="residential"/>
    <tag k="name" v="Beedelup Loop"/>
  </way>
  <way id="25704133" version="6" timestamp="2010-07-09T07:27:12Z" uid="74617" user="JohnSmith" changeset="5171412">
    <nd ref="280242394"/>
    <nd ref="280242513"/>
    <nd ref="280242638"/>
    <nd ref="280242514"/>
    <nd ref="280242515"/>
    <nd ref="280242549"/>
    <nd ref="280242516"/>
    <nd ref="280242517"/>
    <nd ref="280242550"/>
    <tag k="highway" v="residential"/>
    <tag k="maxspeed" v="50"/>
    <tag k="maxspeed:source" v="default residential speed limit in Australia"/>
    <tag k="name" v="Beedelup Loop"/>
  </way>
  <way id="25704133" version="7" timestamp="2010-10-15T05:37:02Z" uid="325087" user="Palitu" changeset="6046295">
    <nd ref="280242394"/>
    <nd ref="280242513"/>
    <nd ref="280242638"/>
    <nd ref="280242514"/>
    <nd ref="280242515"/>
    <nd ref="280242549"/>
    <nd ref="280242516"/>
    <nd ref="280242517"/>
    <nd ref="280242550"/>
    <tag k="addr:city" v="Bibra Lake"/>
    <tag k="addr:postcode" v="6163"/>
    <tag k="highway" v="residential"/>
    <tag k="maxspeed" v="50"/>
    <tag k="maxspeed:source" v="default residential speed limit in Australia"/>
    <tag k="name" v="Beedelup Loop"/>
  </way>
  <way id="25704133" version="8" timestamp="2012-01-17T00:44:42Z" uid="147510" user="woodpeck_fixbot" changeset="10412890">
    <nd ref="280242394"/>
    <nd ref="280242513"/>
    <nd ref="280242638"/>
    <nd ref="280242514"/>
    <nd ref="280242515"/>
    <nd ref="280242549"/>
    <nd ref="280242516"/>
    <nd ref="280242517"/>
    <nd ref="280242550"/>
    <tag k="addr:city" v="Bibra Lake"/>
    <tag k="addr:postcode" v="6163"/>
    <tag k="highway" v="residential"/>
    <tag k="name" v="Beedelup Loop"/>
  </way>
  <way id="25704141" version="2" timestamp="2010-07-09T07:32:01Z" uid="74617" user="JohnSmith" changeset="5171412">
    <nd ref="280242513"/>
    <nd ref="280242547"/>
    <nd ref="280242548"/>
    <nd ref="280242549"/>
    <tag k="highway" v="residential"/>
    <tag k="maxspeed" v="50"/>
    <tag k="maxspeed:source" v="default residential speed limit in Australia"/>
  </way>
  <way id="25704141" version="3" timestamp="2010-10-15T05:36:47Z" uid="325087" user="Palitu" changeset="6046295">
    <nd ref="280242513"/>
    <nd ref="280242547"/>
    <nd ref="280242548"/>
    <nd ref="280242549"/>
    <tag k="addr:city" v="Bibra Lake"/>
    <tag k="addr:postcode" v="6163"/>
    <tag k="highway" v="residential"/>
    <tag k="maxspeed" v="50"/>
    <tag k="maxspeed:source" v="default residential speed limit in Australia"/>
  </way>
  <way id="25704141" version="4" timestamp="2011-12-16T05:27:37Z" uid="96046" user="colin_090" changeset="10128832">
    <nd ref="280242513"/>
    <nd ref="280242547"/>
    <nd ref="280242548"/>
    <nd ref="280242549"/>
    <tag k="addr:city" v="Bibra Lake"/>
    <tag k="addr:postcode" v="6163"/>
    <tag k="highway" v="residential"/>
    <tag k="maxspeed" v="50"/>
    <tag k="maxspeed:source" v="default residential speed limit in Australia"/>
    <tag k="name" v="Nambung Crescent"/>
    <tag k="oneway" v="no"/>
  </way>
  <way id="25704141" version="5" timestamp="2012-01-17T00:44:44Z" uid="147510" user="woodpeck_fixbot" changeset="10412890">
    <nd ref="280242513"/>
    <nd ref="280242547"/>
    <nd ref="280242548"/>
    <nd ref="280242549"/>
    <tag k="addr:city" v="Bibra Lake"/>
    <tag k="addr:postcode" v="6163"/>
    <tag k="highway" v="residential"/>
    <tag k="name" v="Nambung Crescent"/>
    <tag k="oneway" v="no"/>
  </way>
  <way id="25704142" version="6" timestamp="2009-10-29T19:48:25Z" uid="36809" user="pfoten_weg_!_" changeset="2983914">
    <nd ref="278748776"/>
    <nd ref="278759982"/>
    <nd ref="278759651"/>
    <nd ref="278758209"/>
    <nd ref="278758880"/>
    <nd ref="278759533"/>
    <nd ref="278760379"/>
    <nd ref="278758444"/>
    <nd ref="278759225"/>
    <nd ref="286516881"/>
    <nd ref="286516882"/>
    <tag k="highway" v="track"/>
    <tag k="name" v="Wilmerei"/>
    <tag k="surface" v="unpaved"/>
  </way>
  <way id="25704142" version="7" timestamp="2010-04-09T08:39:42Z" uid="6808" user="wwwFrank" changeset="4370787">
    <nd ref="278748776"/>
    <nd ref="278759982"/>
    <nd ref="278759651"/>
    <nd ref="278758209"/>
    <nd ref="278758880"/>
    <nd ref="278759533"/>
    <nd ref="278760379"/>
    <nd ref="278758444"/>
    <nd ref="278759225"/>
    <nd ref="286516881"/>
    <nd ref="286516882"/>
    <tag k="highway" v="track"/>
    <tag k="name" v="Wilmerei"/>
    <tag k="surface" v="unpaved"/>
  </way>
  <way id="25704142" version="8" timestamp="2010-05-13T12:30:23Z" uid="6808" user="wwwFrank" changeset="4685364">
    <nd ref="278748776"/>
    <nd ref="278759982"/>
    <nd ref="732081489"/>
    <nd ref="278759651"/>
    <nd ref="278758209"/>
    <nd ref="278758880"/>
    <nd ref="278759533"/>
    <nd ref="278760379"/>
    <nd ref="278759225"/>
    <nd ref="286516881"/>
    <nd ref="286516882"/>
    <tag k="highway" v="track"/>
    <tag k="name" v="Wilmerei"/>
    <tag k="surface" v="unpaved"/>
  </way>
  <way id="25704146" version="3" timestamp="2010-07-09T07:29:14Z" uid="74617" user="JohnSmith" changeset="5171412">
    <nd ref="280242638"/>
    <nd ref="280242639"/>
    <nd ref="591430829"/>
    <tag k="highway" v="residential"/>
    <tag k="maxspeed" v="50"/>
    <tag k="maxspeed:source" v="default residential speed limit in Australia"/>
  </way>
  <way id="25704146" version="4" timestamp="2010-10-15T05:37:13Z" uid="325087" user="Palitu" changeset="6046295">
    <nd ref="280242638"/>
    <nd ref="280242639"/>
    <nd ref="591430829"/>
    <tag k="addr:city" v="Bibra Lake"/>
    <tag k="addr:postcode" v="6163"/>
    <tag k="highway" v="residential"/>
    <tag k="maxspeed" v="50"/>
    <tag k="maxspeed:source" v="default residential speed limit in Australia"/>
  </way>
  <way id="25704146" version="5" timestamp="2011-12-16T05:27:01Z" uid="96046" user="colin_090" changeset="10128832">
    <nd ref="280242638"/>
    <nd ref="280242639"/>
    <nd ref="591430829"/>
    <tag k="addr:city" v="Bibra Lake"/>
    <tag k="addr:postcode" v="6163"/>
    <tag k="highway" v="residential"/>
    <tag k="maxspeed" v="50"/>
    <tag k="maxspeed:source" v="default residential speed limit in Australia"/>
    <tag k="name" v="Kanjini Court"/>
    <tag k="oneway" v="no"/>
  </way>
  <way id="25704146" version="6" timestamp="2012-01-17T00:44:47Z" uid="147510" user="woodpeck_fixbot" changeset="10412890">
    <nd ref="280242638"/>
    <nd ref="280242639"/>
    <nd ref="591430829"/>
    <tag k="addr:city" v="Bibra Lake"/>
    <tag k="addr:postcode" v="6163"/>
    <tag k="highway" v="residential"/>
    <tag k="name" v="Kanjini Court"/>
    <tag k="oneway" v="no"/>
  </way>
  <way id="25704166" version="3" timestamp="2010-03-17T12:40:36Z" uid="242497" user="vlchung" changeset="4152703">
    <nd ref="280242035"/>
    <nd ref="280242834"/>
    <nd ref="280242835"/>
    <nd ref="280242918"/>
    <nd ref="280242837"/>
    <nd ref="280242919"/>
    <nd ref="280242920"/>
    <nd ref="280242921"/>
    <nd ref="280242841"/>
    <nd ref="280242842"/>
    <nd ref="280242922"/>
    <nd ref="280242844"/>
    <nd ref="280242845"/>
    <nd ref="280242923"/>
    <nd ref="280242924"/>
    <nd ref="280242925"/>
    <nd ref="280242848"/>
    <nd ref="280242048"/>
    <tag k="highway" v="residential"/>
    <tag k="name" v="Marchant Drive"/>
  </way>
  <way id="25704166" version="4" timestamp="2010-07-09T07:36:46Z" uid="74617" user="JohnSmith" changeset="5171412">
    <nd ref="280242035"/>
    <nd ref="280242834"/>
    <nd ref="280242835"/>
    <nd ref="280242918"/>
    <nd ref="280242837"/>
    <nd ref="280242919"/>
    <nd ref="280242920"/>
    <nd ref="280242921"/>
    <nd ref="280242841"/>
    <nd ref="280242842"/>
    <nd ref="280242922"/>
    <nd ref="280242844"/>
    <nd ref="280242845"/>
    <nd ref="280242923"/>
    <nd ref="280242924"/>
    <nd ref="280242925"/>
    <nd ref="280242848"/>
    <nd ref="280242048"/>
    <tag k="highway" v="residential"/>
    <tag k="maxspeed" v="50"/>
    <tag k="maxspeed:source" v="default residential speed limit in Australia"/>
    <tag k="name" v="Marchant Drive"/>
  </way>
  <way id="25704166" version="5" timestamp="2010-10-15T05:36:39Z" uid="325087" user="Palitu" changeset="6046295">
    <nd ref="280242035"/>
    <nd ref="280242834"/>
    <nd ref="280242835"/>
    <nd ref="280242918"/>
    <nd ref="280242837"/>
    <nd ref="280242919"/>
    <nd ref="280242920"/>
    <nd ref="280242921"/>
    <nd ref="280242841"/>
    <nd ref="280242842"/>
    <nd ref="280242922"/>
    <nd ref="280242844"/>
    <nd ref="280242845"/>
    <nd ref="280242923"/>
    <nd ref="280242924"/>
    <nd ref="280242925"/>
    <nd ref="280242848"/>
    <nd ref="280242048"/>
    <tag k="addr:city" v="Bibra Lake"/>
    <tag k="addr:postcode" v="6163"/>
    <tag k="highway" v="residential"/>
    <tag k="maxspeed" v="50"/>
    <tag k="maxspeed:source" v="default residential speed limit in Australia"/>
    <tag k="name" v="Marchant Drive"/>
  </way>
  <way id="25704166" version="6" timestamp="2012-01-17T00:44:49Z" uid="147510" user="woodpeck_fixbot" changeset="10412890">
    <nd ref="280242035"/>
    <nd ref="280242834"/>
    <nd ref="280242835"/>
    <nd ref="280242918"/>
    <nd ref="280242837"/>
    <nd ref="280242919"/>
    <nd ref="280242920"/>
    <nd ref="280242921"/>
    <nd ref="280242841"/>
    <nd ref="280242842"/>
    <nd ref="280242922"/>
    <nd ref="280242844"/>
    <nd ref="280242845"/>
    <nd ref="280242923"/>
    <nd ref="280242924"/>
    <nd ref="280242925"/>
    <nd ref="280242848"/>
    <nd ref="280242048"/>
    <tag k="addr:city" v="Bibra Lake"/>
    <tag k="addr:postcode" v="6163"/>
    <tag k="highway" v="residential"/>
    <tag k="name" v="Marchant Drive"/>
  </way>
  <way id="25704170" version="3" timestamp="2010-07-09T07:27:51Z" uid="74617" user="JohnSmith" changeset="5171412">
    <nd ref="280242837"/>
    <nd ref="280242915"/>
    <nd ref="280242916"/>
    <nd ref="280242917"/>
    <nd ref="591430835"/>
    <tag k="highway" v="residential"/>
    <tag k="maxspeed" v="50"/>
    <tag k="maxspeed:source" v="default residential speed limit in Australia"/>
  </way>
  <way id="25704170" version="4" timestamp="2010-09-15T13:09:10Z" uid="325087" user="Palitu" changeset="5787057">
    <nd ref="280242837"/>
    <nd ref="280242915"/>
    <nd ref="280242916"/>
    <nd ref="280242917"/>
    <nd ref="591430835"/>
    <tag k="highway" v="residential"/>
    <tag k="maxspeed" v="50"/>
    <tag k="maxspeed:source" v="default residential speed limit in Australia"/>
    <tag k="name" v="Lucken Place"/>
  </way>
  <way id="25704170" version="5" timestamp="2010-10-15T05:37:06Z" uid="325087" user="Palitu" changeset="6046295">
    <nd ref="280242837"/>
    <nd ref="280242915"/>
    <nd ref="280242916"/>
    <nd ref="280242917"/>
    <nd ref="591430835"/>
    <tag k="addr:city" v="Bibra Lake"/>
    <tag k="addr:postcode" v="6163"/>
    <tag k="highway" v="residential"/>
    <tag k="maxspeed" v="50"/>
    <tag k="maxspeed:source" v="default residential speed limit in Australia"/>
    <tag k="name" v="Lucken Place"/>
  </way>
  <way id="25704170" version="6" timestamp="2012-01-17T00:44:51Z" uid="147510" user="woodpeck_fixbot" changeset="10412890">
    <nd ref="280242837"/>
    <nd ref="280242915"/>
    <nd ref="280242916"/>
    <nd ref="280242917"/>
    <nd ref="591430835"/>
    <tag k="addr:city" v="Bibra Lake"/>
    <tag k="addr:postcode" v="6163"/>
    <tag k="highway" v="residential"/>
    <tag k="name" v="Lucken Place"/>
  </way>
  <way id="25704180" version="4" timestamp="2010-03-17T12:40:33Z" uid="242497" user="vlchung" changeset="4152703">
    <nd ref="280242925"/>
    <nd ref="280243010"/>
    <nd ref="280243011"/>
    <nd ref="591430833"/>
    <nd ref="280243012"/>
    <tag k="highway" v="residential"/>
    <tag k="name" v="Clamp Court"/>
  </way>
  <way id="25704180" version="5" timestamp="2010-07-09T07:37:45Z" uid="74617" user="JohnSmith" changeset="5171412">
    <nd ref="280242925"/>
    <nd ref="280243010"/>
    <nd ref="280243011"/>
    <nd ref="591430833"/>
    <nd ref="280243012"/>
    <tag k="highway" v="residential"/>
    <tag k="maxspeed" v="50"/>
    <tag k="maxspeed:source" v="default residential speed limit in Australia"/>
    <tag k="name" v="Clamp Court"/>
  </way>
  <way id="25704180" version="6" timestamp="2010-10-15T05:36:43Z" uid="325087" user="Palitu" changeset="6046295">
    <nd ref="280242925"/>
    <nd ref="280243010"/>
    <nd ref="280243011"/>
    <nd ref="591430833"/>
    <nd ref="280243012"/>
    <tag k="addr:city" v="Bibra Lake"/>
    <tag k="addr:postcode" v="6163"/>
    <tag k="highway" v="residential"/>
    <tag k="maxspeed" v="50"/>
    <tag k="maxspeed:source" v="default residential speed limit in Australia"/>
    <tag k="name" v="Clamp Court"/>
  </way>
  <way id="25704180" version="7" timestamp="2012-01-17T00:44:52Z" uid="147510" user="woodpeck_fixbot" changeset="10412890">
    <nd ref="280242925"/>
    <nd ref="280243010"/>
    <nd ref="280243011"/>
    <nd ref="591430833"/>
    <nd ref="280243012"/>
    <tag k="addr:city" v="Bibra Lake"/>
    <tag k="addr:postcode" v="6163"/>
    <tag k="highway" v="residential"/>
    <tag k="name" v="Clamp Court"/>
  </way>
  <way id="25704183" version="4" timestamp="2010-03-17T12:40:34Z" uid="242497" user="vlchung" changeset="4152703">
    <nd ref="280243026"/>
    <nd ref="280243403"/>
    <nd ref="280243134"/>
    <nd ref="280243623"/>
    <nd ref="280243095"/>
    <tag k="highway" v="residential"/>
    <tag k="name" v="Colonial Drive"/>
  </way>
  <way id="25704183" version="5" timestamp="2010-07-09T07:33:36Z" uid="74617" user="JohnSmith" changeset="5171412">
    <nd ref="280243026"/>
    <nd ref="280243403"/>
    <nd ref="280243134"/>
    <nd ref="280243623"/>
    <nd ref="280243095"/>
    <tag k="highway" v="residential"/>
    <tag k="maxspeed" v="50"/>
    <tag k="maxspeed:source" v="default residential speed limit in Australia"/>
    <tag k="name" v="Colonial Drive"/>
  </way>
  <way id="25704183" version="6" timestamp="2010-10-15T05:37:01Z" uid="325087" user="Palitu" changeset="6046295">
    <nd ref="280243026"/>
    <nd ref="280243403"/>
    <nd ref="280243134"/>
    <nd ref="280243623"/>
    <nd ref="280243095"/>
    <tag k="addr:city" v="Bibra Lake"/>
    <tag k="addr:postcode" v="6163"/>
    <tag k="highway" v="residential"/>
    <tag k="maxspeed" v="50"/>
    <tag k="maxspeed:source" v="default residential speed limit in Australia"/>
    <tag k="name" v="Colonial Drive"/>
  </way>
  <way id="25704183" version="7" timestamp="2012-01-17T00:44:54Z" uid="147510" user="woodpeck_fixbot" changeset="10412890">
    <nd ref="280243026"/>
    <nd ref="280243403"/>
    <nd ref="280243134"/>
    <nd ref="280243623"/>
    <nd ref="280243095"/>
    <tag k="addr:city" v="Bibra Lake"/>
    <tag k="addr:postcode" v="6163"/>
    <tag k="highway" v="residential"/>
    <tag k="name" v="Colonial Drive"/>
  </way>
  <way id="25704187" version="6" timestamp="2010-03-17T12:40:34Z" uid="242497" user="vlchung" changeset="4152703">
    <nd ref="280243134"/>
    <nd ref="280243267"/>
    <nd ref="280243697"/>
    <nd ref="280243205"/>
    <nd ref="280243206"/>
    <nd ref="280243136"/>
    <tag k="highway" v="residential"/>
    <tag k="name" v="Needwell Road"/>
  </way>
  <way id="25704187" version="7" timestamp="2010-03-23T14:47:48Z" uid="242497" user="vlchung" changeset="4212693">
    <nd ref="280243134"/>
    <nd ref="280243267"/>
    <nd ref="280243697"/>
    <nd ref="280243205"/>
    <nd ref="280243206"/>
    <nd ref="280243136"/>
    <tag k="highway" v="residential"/>
    <tag k="name" v="Needwell Road"/>
    <tag k="source" v="survey"/>
  </way>
  <way id="25704187" version="8" timestamp="2010-07-09T07:25:36Z" uid="74617" user="JohnSmith" changeset="5171412">
    <nd ref="280243134"/>
    <nd ref="280243267"/>
    <nd ref="280243697"/>
    <nd ref="280243205"/>
    <nd ref="280243206"/>
    <nd ref="280243136"/>
    <tag k="highway" v="residential"/>
    <tag k="maxspeed" v="50"/>
    <tag k="maxspeed:source" v="default residential speed limit in Australia"/>
    <tag k="name" v="Needwell Road"/>
    <tag k="source" v="survey"/>
  </way>
  <way id="25704187" version="9" timestamp="2010-10-15T05:36:37Z" uid="325087" user="Palitu" changeset="6046295">
    <nd ref="280243134"/>
    <nd ref="280243267"/>
    <nd ref="280243697"/>
    <nd ref="280243205"/>
    <nd ref="280243206"/>
    <nd ref="280243136"/>
    <tag k="addr:city" v="Bibra Lake"/>
    <tag k="addr:postcode" v="6163"/>
    <tag k="highway" v="residential"/>
    <tag k="maxspeed" v="50"/>
    <tag k="maxspeed:source" v="default residential speed limit in Australia"/>
    <tag k="name" v="Needwell Road"/>
    <tag k="source" v="survey"/>
  </way>
  <way id="25704187" version="10" timestamp="2012-01-17T00:44:56Z" uid="147510" user="woodpeck_fixbot" changeset="10412890">
    <nd ref="280243134"/>
    <nd ref="280243267"/>
    <nd ref="280243697"/>
    <nd ref="280243205"/>
    <nd ref="280243206"/>
    <nd ref="280243136"/>
    <tag k="addr:city" v="Bibra Lake"/>
    <tag k="addr:postcode" v="6163"/>
    <tag k="highway" v="residential"/>
    <tag k="name" v="Needwell Road"/>
    <tag k="source" v="survey"/>
  </way>
  <way id="25704193" version="4" timestamp="2010-03-17T12:40:34Z" uid="242497" user="vlchung" changeset="4152703">
    <nd ref="280242033"/>
    <nd ref="280243200"/>
    <nd ref="280243269"/>
    <nd ref="280243201"/>
    <nd ref="667925389"/>
    <nd ref="280243202"/>
    <nd ref="280243270"/>
    <nd ref="280243204"/>
    <nd ref="280243205"/>
    <tag k="highway" v="residential"/>
    <tag k="name" v="Foxon Road"/>
  </way>
  <way id="25704193" version="5" timestamp="2010-07-09T07:32:03Z" uid="74617" user="JohnSmith" changeset="5171412">
    <nd ref="280242033"/>
    <nd ref="280243200"/>
    <nd ref="280243269"/>
    <nd ref="280243201"/>
    <nd ref="667925389"/>
    <nd ref="280243202"/>
    <nd ref="280243270"/>
    <nd ref="280243204"/>
    <nd ref="280243205"/>
    <tag k="highway" v="residential"/>
    <tag k="maxspeed" v="50"/>
    <tag k="maxspeed:source" v="default residential speed limit in Australia"/>
    <tag k="name" v="Foxon Road"/>
  </way>
  <way id="25704193" version="6" timestamp="2010-10-15T05:37:02Z" uid="325087" user="Palitu" changeset="6046295">
    <nd ref="280242033"/>
    <nd ref="280243200"/>
    <nd ref="280243269"/>
    <nd ref="280243201"/>
    <nd ref="667925389"/>
    <nd ref="280243202"/>
    <nd ref="280243270"/>
    <nd ref="280243204"/>
    <nd ref="280243205"/>
    <tag k="addr:city" v="Bibra Lake"/>
    <tag k="addr:postcode" v="6163"/>
    <tag k="highway" v="residential"/>
    <tag k="maxspeed" v="50"/>
    <tag k="maxspeed:source" v="default residential speed limit in Australia"/>
    <tag k="name" v="Foxon Road"/>
  </way>
  <way id="25704193" version="7" timestamp="2012-01-17T00:44:59Z" uid="147510" user="woodpeck_fixbot" changeset="10412890">
    <nd ref="280242033"/>
    <nd ref="280243200"/>
    <nd ref="280243269"/>
    <nd ref="280243201"/>
    <nd ref="667925389"/>
    <nd ref="280243202"/>
    <nd ref="280243270"/>
    <nd ref="280243204"/>
    <nd ref="280243205"/>
    <tag k="addr:city" v="Bibra Lake"/>
    <tag k="addr:postcode" v="6163"/>
    <tag k="highway" v="residential"/>
    <tag k="name" v="Foxon Road"/>
  </way>
  <way id="25704198" version="3" timestamp="2010-03-17T12:40:34Z" uid="242497" user="vlchung" changeset="4152703">
    <nd ref="280243201"/>
    <nd ref="280243239"/>
    <nd ref="280243240"/>
    <nd ref="280243241"/>
    <nd ref="280243242"/>
    <nd ref="280243243"/>
    <nd ref="280243244"/>
    <nd ref="280243245"/>
    <nd ref="280243246"/>
    <tag k="highway" v="residential"/>
    <tag k="name" v="Robertson Place"/>
  </way>
  <way id="25704198" version="4" timestamp="2010-07-09T07:35:10Z" uid="74617" user="JohnSmith" changeset="5171412">
    <nd ref="280243201"/>
    <nd ref="280243239"/>
    <nd ref="280243240"/>
    <nd ref="280243241"/>
    <nd ref="280243242"/>
    <nd ref="280243243"/>
    <nd ref="280243244"/>
    <nd ref="280243245"/>
    <nd ref="280243246"/>
    <tag k="highway" v="residential"/>
    <tag k="maxspeed" v="50"/>
    <tag k="maxspeed:source" v="default residential speed limit in Australia"/>
    <tag k="name" v="Robertson Place"/>
  </way>
  <way id="25704198" version="5" timestamp="2010-10-15T05:37:00Z" uid="325087" user="Palitu" changeset="6046295">
    <nd ref="280243201"/>
    <nd ref="280243239"/>
    <nd ref="280243240"/>
    <nd ref="280243241"/>
    <nd ref="280243242"/>
    <nd ref="280243243"/>
    <nd ref="280243244"/>
    <nd ref="280243245"/>
    <nd ref="280243246"/>
    <tag k="addr:city" v="Bibra Lake"/>
    <tag k="addr:postcode" v="6163"/>
    <tag k="highway" v="residential"/>
    <tag k="maxspeed" v="50"/>
    <tag k="maxspeed:source" v="default residential speed limit in Australia"/>
    <tag k="name" v="Robertson Place"/>
  </way>
  <way id="25704198" version="6" timestamp="2012-01-17T00:45:01Z" uid="147510" user="woodpeck_fixbot" changeset="10412890">
    <nd ref="280243201"/>
    <nd ref="280243239"/>
    <nd ref="280243240"/>
    <nd ref="280243241"/>
    <nd ref="280243242"/>
    <nd ref="280243243"/>
    <nd ref="280243244"/>
    <nd ref="280243245"/>
    <nd ref="280243246"/>
    <tag k="addr:city" v="Bibra Lake"/>
    <tag k="addr:postcode" v="6163"/>
    <tag k="highway" v="residential"/>
    <tag k="name" v="Robertson Place"/>
  </way>
  <way id="25704201" version="3" timestamp="2010-03-17T12:40:35Z" uid="242497" user="vlchung" changeset="4152703">
    <nd ref="280236693"/>
    <nd ref="280243351"/>
    <nd ref="280243267"/>
    <tag k="highway" v="residential"/>
    <tag k="name" v="Annois Road"/>
  </way>
  <way id="25704201" version="4" timestamp="2010-07-09T07:37:26Z" uid="74617" user="JohnSmith" changeset="5171412">
    <nd ref="280236693"/>
    <nd ref="280243351"/>
    <nd ref="280243267"/>
    <tag k="highway" v="residential"/>
    <tag k="maxspeed" v="50"/>
    <tag k="maxspeed:source" v="default residential speed limit in Australia"/>
    <tag k="name" v="Annois Road"/>
  </way>
  <way id="25704201" version="5" timestamp="2010-10-15T05:36:48Z" uid="325087" user="Palitu" changeset="6046295">
    <nd ref="280236693"/>
    <nd ref="280243351"/>
    <nd ref="280243267"/>
    <tag k="addr:city" v="Bibra Lake"/>
    <tag k="addr:postcode" v="6163"/>
    <tag k="highway" v="residential"/>
    <tag k="maxspeed" v="50"/>
    <tag k="maxspeed:source" v="default residential speed limit in Australia"/>
    <tag k="name" v="Annois Road"/>
  </way>
  <way id="25704201" version="6" timestamp="2011-12-16T05:30:42Z" uid="96046" user="colin_090" changeset="10128832">
    <nd ref="280238404"/>
    <nd ref="1548361537"/>
    <nd ref="280241548"/>
    <nd ref="280241459"/>
    <nd ref="280236693"/>
    <nd ref="280243351"/>
    <nd ref="280243267"/>
    <tag k="addr:city" v="Bibra Lake"/>
    <tag k="addr:postcode" v="6163"/>
    <tag k="highway" v="residential"/>
    <tag k="maxspeed" v="50"/>
    <tag k="maxspeed:source" v="default residential speed limit in Australia"/>
    <tag k="name" v="Annois Road"/>
    <tag k="oneway" v="no"/>
  </way>
  <way id="25704201" version="7" timestamp="2012-01-17T00:45:04Z" uid="147510" user="woodpeck_fixbot" changeset="10412890">
    <nd ref="280238404"/>
    <nd ref="1548361537"/>
    <nd ref="280241548"/>
    <nd ref="280241459"/>
    <nd ref="280236693"/>
    <nd ref="280243351"/>
    <nd ref="280243267"/>
    <tag k="addr:city" v="Bibra Lake"/>
    <tag k="addr:postcode" v="6163"/>
    <tag k="highway" v="residential"/>
    <tag k="name" v="Annois Road"/>
    <tag k="oneway" v="no"/>
  </way>
  <way id="25704211" version="4" timestamp="2010-03-17T12:40:31Z" uid="242497" user="vlchung" changeset="4152703">
    <nd ref="280243269"/>
    <nd ref="280243342"/>
    <nd ref="280243343"/>
    <tag k="highway" v="residential"/>
    <tag k="name" v="Simon Court"/>
  </way>
  <way id="25704211" version="5" timestamp="2010-07-09T07:34:47Z" uid="74617" user="JohnSmith" changeset="5171412">
    <nd ref="280243269"/>
    <nd ref="280243342"/>
    <nd ref="280243343"/>
    <tag k="highway" v="residential"/>
    <tag k="maxspeed" v="50"/>
    <tag k="maxspeed:source" v="default residential speed limit in Australia"/>
    <tag k="name" v="Simon Court"/>
  </way>
  <way id="25704211" version="6" timestamp="2010-10-15T05:37:11Z" uid="325087" user="Palitu" changeset="6046295">
    <nd ref="280243269"/>
    <nd ref="280243342"/>
    <nd ref="280243343"/>
    <tag k="addr:city" v="Bibra Lake"/>
    <tag k="addr:postcode" v="6163"/>
    <tag k="highway" v="residential"/>
    <tag k="maxspeed" v="50"/>
    <tag k="maxspeed:source" v="default residential speed limit in Australia"/>
    <tag k="name" v="Simon Court"/>
  </way>
  <way id="25704211" version="7" timestamp="2012-01-17T00:45:05Z" uid="147510" user="woodpeck_fixbot" changeset="10412890">
    <nd ref="280243269"/>
    <nd ref="280243342"/>
    <nd ref="280243343"/>
    <tag k="addr:city" v="Bibra Lake"/>
    <tag k="addr:postcode" v="6163"/>
    <tag k="highway" v="residential"/>
    <tag k="name" v="Simon Court"/>
  </way>
  <way id="25704215" version="3" timestamp="2010-03-17T14:24:05Z" uid="242497" user="vlchung" changeset="4153399">
    <nd ref="280243351"/>
    <nd ref="280243401"/>
    <nd ref="280243402"/>
    <nd ref="280243401"/>
    <nd ref="667953169"/>
    <tag k="highway" v="residential"/>
  </way>
  <way id="25704215" version="4" timestamp="2010-03-19T16:47:07Z" uid="242497" user="vlchung" changeset="4171764">
    <nd ref="280243351"/>
    <nd ref="280243401"/>
    <nd ref="280243402"/>
    <nd ref="280243401"/>
    <nd ref="667953169"/>
    <tag k="highway" v="residential"/>
    <tag k="name" v="Dairy Court"/>
  </way>
  <way id="25704215" version="5" timestamp="2010-07-09T07:32:31Z" uid="74617" user="JohnSmith" changeset="5171412">
    <nd ref="280243351"/>
    <nd ref="280243401"/>
    <nd ref="280243402"/>
    <nd ref="280243401"/>
    <nd ref="667953169"/>
    <tag k="highway" v="residential"/>
    <tag k="maxspeed" v="50"/>
    <tag k="maxspeed:source" v="default residential speed limit in Australia"/>
    <tag k="name" v="Dairy Court"/>
  </way>
  <way id="25704215" version="6" timestamp="2010-10-15T05:36:29Z" uid="325087" user="Palitu" changeset="6046295">
    <nd ref="280243351"/>
    <nd ref="280243401"/>
    <nd ref="280243402"/>
    <nd ref="280243401"/>
    <nd ref="667953169"/>
    <tag k="addr:city" v="Bibra Lake"/>
    <tag k="addr:postcode" v="6163"/>
    <tag k="highway" v="residential"/>
    <tag k="maxspeed" v="50"/>
    <tag k="maxspeed:source" v="default residential speed limit in Australia"/>
    <tag k="name" v="Dairy Court"/>
  </way>
  <way id="25704215" version="7" timestamp="2012-01-17T00:45:06Z" uid="147510" user="woodpeck_fixbot" changeset="10412890">
    <nd ref="280243351"/>
    <nd ref="280243401"/>
    <nd ref="280243402"/>
    <nd ref="280243401"/>
    <nd ref="667953169"/>
    <tag k="addr:city" v="Bibra Lake"/>
    <tag k="addr:postcode" v="6163"/>
    <tag k="highway" v="residential"/>
    <tag k="name" v="Dairy Court"/>
  </way>
  <way id="25704221" version="3" timestamp="2010-07-09T07:28:16Z" uid="74617" user="JohnSmith" changeset="5171412">
    <nd ref="280243465"/>
    <nd ref="280243466"/>
    <nd ref="280243467"/>
    <nd ref="280243468"/>
    <nd ref="280243469"/>
    <tag k="highway" v="residential"/>
    <tag k="maxspeed" v="50"/>
    <tag k="maxspeed:source" v="default residential speed limit in Australia"/>
  </way>
  <way id="25704221" version="4" timestamp="2010-09-15T12:50:46Z" uid="325087" user="Palitu" changeset="5786896">
    <nd ref="280243465"/>
    <nd ref="280243466"/>
    <nd ref="280243467"/>
    <nd ref="280243468"/>
    <nd ref="280243469"/>
    <tag k="highway" v="residential"/>
    <tag k="maxspeed" v="50"/>
    <tag k="maxspeed:source" v="default residential speed limit in Australia"/>
    <tag k="name" v="Morgan Place"/>
  </way>
  <way id="25704221" version="5" timestamp="2010-10-15T05:36:34Z" uid="325087" user="Palitu" changeset="6046295">
    <nd ref="280243465"/>
    <nd ref="280243466"/>
    <nd ref="280243467"/>
    <nd ref="280243468"/>
    <nd ref="280243469"/>
    <tag k="addr:city" v="Bibra Lake"/>
    <tag k="addr:postcode" v="6163"/>
    <tag k="highway" v="residential"/>
    <tag k="maxspeed" v="50"/>
    <tag k="maxspeed:source" v="default residential speed limit in Australia"/>
    <tag k="name" v="Morgan Place"/>
  </way>
  <way id="25704221" version="6" timestamp="2012-01-17T00:45:08Z" uid="147510" user="woodpeck_fixbot" changeset="10412890">
    <nd ref="280243465"/>
    <nd ref="280243466"/>
    <nd ref="280243467"/>
    <nd ref="280243468"/>
    <nd ref="280243469"/>
    <tag k="addr:city" v="Bibra Lake"/>
    <tag k="addr:postcode" v="6163"/>
    <tag k="highway" v="residential"/>
    <tag k="name" v="Morgan Place"/>
  </way>
  <way id="25704228" version="3" timestamp="2010-03-18T15:58:26Z" uid="242497" user="vlchung" changeset="4162390"/>
  <way id="25704229" version="2" timestamp="2010-03-18T15:58:25Z" uid="242497" user="vlchung" changeset="4162390">
    <nd ref="280243474"/>
    <nd ref="280243610"/>
    <nd ref="280243606"/>
    <nd ref="280243609"/>
    <nd ref="280243608"/>
    <nd ref="280243610"/>
    <tag k="highway" v="residential"/>
    <tag k="name" v="Marlene Way"/>
  </way>
  <way id="25704229" version="3" timestamp="2010-07-09T08:02:42Z" uid="74617" user="JohnSmith" changeset="5171412">
    <nd ref="280243474"/>
    <nd ref="280243610"/>
    <nd ref="280243606"/>
    <nd ref="280243609"/>
    <nd ref="280243608"/>
    <nd ref="280243610"/>
    <tag k="highway" v="residential"/>
    <tag k="maxspeed" v="50"/>
    <tag k="maxspeed:source" v="default residential speed limit in Australia"/>
    <tag k="name" v="Marlene Way"/>
  </way>
  <way id="25704229" version="4" timestamp="2010-10-15T05:37:00Z" uid="325087" user="Palitu" changeset="6046295">
    <nd ref="280243474"/>
    <nd ref="280243610"/>
    <nd ref="280243606"/>
    <nd ref="280243609"/>
    <nd ref="280243608"/>
    <nd ref="280243610"/>
    <tag k="addr:city" v="Bibra Lake"/>
    <tag k="addr:postcode" v="6163"/>
    <tag k="highway" v="residential"/>
    <tag k="maxspeed" v="50"/>
    <tag k="maxspeed:source" v="default residential speed limit in Australia"/>
    <tag k="name" v="Marlene Way"/>
  </way>
  <way id="25704229" version="5" timestamp="2012-01-17T00:45:10Z" uid="147510" user="woodpeck_fixbot" changeset="10412890">
    <nd ref="280243474"/>
    <nd ref="280243610"/>
    <nd ref="280243606"/>
    <nd ref="280243609"/>
    <nd ref="280243608"/>
    <nd ref="280243610"/>
    <tag k="addr:city" v="Bibra Lake"/>
    <tag k="addr:postcode" v="6163"/>
    <tag k="highway" v="residential"/>
    <tag k="name" v="Marlene Way"/>
  </way>
  <way id="25704235" version="2" timestamp="2010-03-17T12:40:32Z" uid="242497" user="vlchung" changeset="4152703">
    <nd ref="280243623"/>
    <nd ref="280243653"/>
    <nd ref="280243654"/>
    <nd ref="280243655"/>
    <tag k="highway" v="residential"/>
    <tag k="name" v="Mallard Avenue"/>
  </way>
  <way id="25704235" version="3" timestamp="2010-04-30T06:00:50Z" uid="192584" user="ORYX" changeset="4563226">
    <nd ref="280243623"/>
    <nd ref="280243653"/>
    <tag k="highway" v="residential"/>
    <tag k="name" v="Mallard Avenue"/>
  </way>
  <way id="25704235" version="4" timestamp="2010-07-09T08:03:18Z" uid="74617" user="JohnSmith" changeset="5171412">
    <nd ref="280243623"/>
    <nd ref="280243653"/>
    <tag k="highway" v="residential"/>
    <tag k="maxspeed" v="50"/>
    <tag k="maxspeed:source" v="default residential speed limit in Australia"/>
    <tag k="name" v="Mallard Avenue"/>
  </way>
  <way id="25704235" version="5" timestamp="2010-10-15T05:37:05Z" uid="325087" user="Palitu" changeset="6046295">
    <nd ref="280243623"/>
    <nd ref="280243653"/>
    <tag k="addr:city" v="Bibra Lake"/>
    <tag k="addr:postcode" v="6163"/>
    <tag k="highway" v="residential"/>
    <tag k="maxspeed" v="50"/>
    <tag k="maxspeed:source" v="default residential speed limit in Australia"/>
    <tag k="name" v="Mallard Avenue"/>
  </way>
  <way id="25704235" version="6" timestamp="2012-01-17T00:45:12Z" uid="147510" user="woodpeck_fixbot" changeset="10412890">
    <nd ref="280243623"/>
    <nd ref="280243653"/>
    <tag k="addr:city" v="Bibra Lake"/>
    <tag k="addr:postcode" v="6163"/>
    <tag k="highway" v="residential"/>
    <tag k="name" v="Mallard Avenue"/>
  </way>
  <way id="25704243" version="3" timestamp="2010-03-17T12:40:39Z" uid="242497" user="vlchung" changeset="4152703"/>
  <way id="25704244" version="4" timestamp="2010-03-17T12:40:31Z" uid="242497" user="vlchung" changeset="4152703">
    <nd ref="280243403"/>
    <nd ref="280243685"/>
    <nd ref="280243465"/>
    <nd ref="280243699"/>
    <nd ref="280243683"/>
    <nd ref="280243684"/>
    <nd ref="280243685"/>
    <tag k="highway" v="residential"/>
    <tag k="name" v="Lachlan Way"/>
  </way>
  <way id="25704244" version="5" timestamp="2010-07-09T07:24:00Z" uid="74617" user="JohnSmith" changeset="5171412">
    <nd ref="280243403"/>
    <nd ref="280243685"/>
    <nd ref="280243465"/>
    <nd ref="280243699"/>
    <nd ref="280243683"/>
    <nd ref="280243684"/>
    <nd ref="280243685"/>
    <tag k="highway" v="residential"/>
    <tag k="maxspeed" v="50"/>
    <tag k="maxspeed:source" v="default residential speed limit in Australia"/>
    <tag k="name" v="Lachlan Way"/>
  </way>
  <way id="25704244" version="6" timestamp="2010-10-15T05:36:52Z" uid="325087" user="Palitu" changeset="6046295">
    <nd ref="280243403"/>
    <nd ref="280243685"/>
    <nd ref="280243465"/>
    <nd ref="280243699"/>
    <nd ref="280243683"/>
    <nd ref="280243684"/>
    <nd ref="280243685"/>
    <tag k="addr:city" v="Bibra Lake"/>
    <tag k="addr:postcode" v="6163"/>
    <tag k="highway" v="residential"/>
    <tag k="maxspeed" v="50"/>
    <tag k="maxspeed:source" v="default residential speed limit in Australia"/>
    <tag k="name" v="Lachlan Way"/>
  </way>
  <way id="25704244" version="7" timestamp="2012-01-17T00:45:15Z" uid="147510" user="woodpeck_fixbot" changeset="10412890">
    <nd ref="280243403"/>
    <nd ref="280243685"/>
    <nd ref="280243465"/>
    <nd ref="280243699"/>
    <nd ref="280243683"/>
    <nd ref="280243684"/>
    <nd ref="280243685"/>
    <tag k="addr:city" v="Bibra Lake"/>
    <tag k="addr:postcode" v="6163"/>
    <tag k="highway" v="residential"/>
    <tag k="name" v="Lachlan Way"/>
  </way>
  <way id="25704246" version="2" timestamp="2010-03-17T12:40:32Z" uid="242497" user="vlchung" changeset="4152703">
    <nd ref="280242058"/>
    <nd ref="280243694"/>
    <nd ref="280243695"/>
    <nd ref="280243696"/>
    <nd ref="280243697"/>
    <tag k="highway" v="residential"/>
    <tag k="name" v="Bucknell Road"/>
  </way>
  <way id="25704246" version="3" timestamp="2010-03-23T14:47:49Z" uid="242497" user="vlchung" changeset="4212693">
    <nd ref="280242058"/>
    <nd ref="280243694"/>
    <nd ref="280243695"/>
    <nd ref="280243696"/>
    <nd ref="280243697"/>
    <tag k="highway" v="residential"/>
    <tag k="name" v="Bucknell Road"/>
    <tag k="source" v="survey"/>
  </way>
  <way id="25704246" version="4" timestamp="2010-07-09T07:32:41Z" uid="74617" user="JohnSmith" changeset="5171412">
    <nd ref="280242058"/>
    <nd ref="280243694"/>
    <nd ref="280243695"/>
    <nd ref="280243696"/>
    <nd ref="280243697"/>
    <tag k="highway" v="residential"/>
    <tag k="maxspeed" v="50"/>
    <tag k="maxspeed:source" v="default residential speed limit in Australia"/>
    <tag k="name" v="Bucknell Road"/>
    <tag k="source" v="survey"/>
  </way>
  <way id="25704246" version="5" timestamp="2010-10-15T05:37:16Z" uid="325087" user="Palitu" changeset="6046295">
    <nd ref="280242058"/>
    <nd ref="280243694"/>
    <nd ref="280243695"/>
    <nd ref="280243696"/>
    <nd ref="280243697"/>
    <tag k="addr:city" v="Bibra Lake"/>
    <tag k="addr:postcode" v="6163"/>
    <tag k="highway" v="residential"/>
    <tag k="maxspeed" v="50"/>
    <tag k="maxspeed:source" v="default residential speed limit in Australia"/>
    <tag k="name" v="Bucknell Road"/>
    <tag k="source" v="survey"/>
  </way>
  <way id="25704246" version="6" timestamp="2012-01-17T00:45:17Z" uid="147510" user="woodpeck_fixbot" changeset="10412890">
    <nd ref="280242058"/>
    <nd ref="280243694"/>
    <nd ref="280243695"/>
    <nd ref="280243696"/>
    <nd ref="280243697"/>
    <tag k="addr:city" v="Bibra Lake"/>
    <tag k="addr:postcode" v="6163"/>
    <tag k="highway" v="residential"/>
    <tag k="name" v="Bucknell Road"/>
    <tag k="source" v="survey"/>
  </way>
  <way id="25704251" version="3" timestamp="2010-07-09T07:57:45Z" uid="74617" user="JohnSmith" changeset="5171412">
    <nd ref="280243696"/>
    <nd ref="280243720"/>
    <nd ref="280243721"/>
    <nd ref="591430836"/>
    <tag k="highway" v="residential"/>
    <tag k="maxspeed" v="50"/>
    <tag k="maxspeed:source" v="default residential speed limit in Australia"/>
  </way>
  <way id="25704251" version="4" timestamp="2010-09-15T13:09:05Z" uid="325087" user="Palitu" changeset="5787057">
    <nd ref="280243696"/>
    <nd ref="280243720"/>
    <nd ref="280243721"/>
    <nd ref="591430836"/>
    <tag k="highway" v="residential"/>
    <tag k="maxspeed" v="50"/>
    <tag k="maxspeed:source" v="default residential speed limit in Australia"/>
    <tag k="name" v="Peters Place"/>
  </way>
  <way id="25704251" version="5" timestamp="2010-10-15T05:36:46Z" uid="325087" user="Palitu" changeset="6046295">
    <nd ref="280243696"/>
    <nd ref="280243720"/>
    <nd ref="280243721"/>
    <nd ref="591430836"/>
    <tag k="addr:city" v="Bibra Lake"/>
    <tag k="addr:postcode" v="6163"/>
    <tag k="highway" v="residential"/>
    <tag k="maxspeed" v="50"/>
    <tag k="maxspeed:source" v="default residential speed limit in Australia"/>
    <tag k="name" v="Peters Place"/>
  </way>
  <way id="25704251" version="6" timestamp="2011-01-31T14:28:12Z" uid="402475" user="gwillow" changeset="7145496">
    <nd ref="280243696"/>
    <nd ref="280243720"/>
    <nd ref="280243721"/>
    <nd ref="591430836"/>
    <tag k="addr:city" v="Bibra Lake"/>
    <tag k="addr:postcode" v="6163"/>
    <tag k="highway" v="residential"/>
    <tag k="maxspeed" v="50"/>
    <tag k="maxspeed:source" v="default residential speed limit in Australia"/>
    <tag k="name" v="Peters Way"/>
  </way>
  <way id="25704251" version="7" timestamp="2012-01-17T00:45:19Z" uid="147510" user="woodpeck_fixbot" changeset="10412890">
    <nd ref="280243696"/>
    <nd ref="280243720"/>
    <nd ref="280243721"/>
    <nd ref="591430836"/>
    <tag k="addr:city" v="Bibra Lake"/>
    <tag k="addr:postcode" v="6163"/>
    <tag k="highway" v="residential"/>
    <tag k="name" v="Peters Way"/>
  </way>
  <way id="25704256" version="4" timestamp="2010-07-09T08:08:22Z" uid="74617" user="JohnSmith" changeset="5171412">
    <nd ref="280243720"/>
    <nd ref="280243733"/>
    <nd ref="280243734"/>
    <tag k="highway" v="residential"/>
    <tag k="maxspeed" v="50"/>
    <tag k="maxspeed:source" v="default residential speed limit in Australia"/>
  </way>
  <way id="25704256" version="5" timestamp="2010-09-15T13:09:14Z" uid="325087" user="Palitu" changeset="5787057">
    <nd ref="280243720"/>
    <nd ref="280243733"/>
    <nd ref="280243734"/>
    <tag k="highway" v="residential"/>
    <tag k="maxspeed" v="50"/>
    <tag k="maxspeed:source" v="default residential speed limit in Australia"/>
    <tag k="name" v="Martin Place"/>
  </way>
  <way id="25704256" version="6" timestamp="2010-10-15T05:36:52Z" uid="325087" user="Palitu" changeset="6046295">
    <nd ref="280243720"/>
    <nd ref="280243733"/>
    <nd ref="280243734"/>
    <tag k="addr:city" v="Bibra Lake"/>
    <tag k="addr:postcode" v="6163"/>
    <tag k="highway" v="residential"/>
    <tag k="maxspeed" v="50"/>
    <tag k="maxspeed:source" v="default residential speed limit in Australia"/>
    <tag k="name" v="Martin Place"/>
  </way>
  <way id="25704256" version="7" timestamp="2012-01-17T00:45:22Z" uid="147510" user="woodpeck_fixbot" changeset="10412890">
    <nd ref="280243720"/>
    <nd ref="280243733"/>
    <nd ref="280243734"/>
    <tag k="addr:city" v="Bibra Lake"/>
    <tag k="addr:postcode" v="6163"/>
    <tag k="highway" v="residential"/>
    <tag k="name" v="Martin Place"/>
  </way>
  <way id="25704269" version="3" timestamp="2010-03-17T12:40:32Z" uid="242497" user="vlchung" changeset="4152703">
    <nd ref="280243735"/>
    <nd ref="280243802"/>
    <nd ref="280243803"/>
    <nd ref="280243804"/>
    <tag k="highway" v="residential"/>
    <tag k="name" v="Greenham Place"/>
  </way>
  <way id="25704269" version="4" timestamp="2010-07-09T07:57:29Z" uid="74617" user="JohnSmith" changeset="5171412">
    <nd ref="280243735"/>
    <nd ref="280243802"/>
    <nd ref="280243803"/>
    <nd ref="280243804"/>
    <tag k="highway" v="residential"/>
    <tag k="maxspeed" v="50"/>
    <tag k="maxspeed:source" v="default residential speed limit in Australia"/>
    <tag k="name" v="Greenham Place"/>
  </way>
  <way id="25704269" version="5" timestamp="2010-10-15T05:36:32Z" uid="325087" user="Palitu" changeset="6046295">
    <nd ref="280243735"/>
    <nd ref="280243802"/>
    <nd ref="280243803"/>
    <nd ref="280243804"/>
    <tag k="addr:city" v="Bibra Lake"/>
    <tag k="addr:postcode" v="6163"/>
    <tag k="highway" v="residential"/>
    <tag k="maxspeed" v="50"/>
    <tag k="maxspeed:source" v="default residential speed limit in Australia"/>
    <tag k="name" v="Greenham Place"/>
  </way>
  <way id="25704269" version="6" timestamp="2012-01-17T00:45:24Z" uid="147510" user="woodpeck_fixbot" changeset="10412890">
    <nd ref="280243735"/>
    <nd ref="280243802"/>
    <nd ref="280243803"/>
    <nd ref="280243804"/>
    <tag k="addr:city" v="Bibra Lake"/>
    <tag k="addr:postcode" v="6163"/>
    <tag k="highway" v="residential"/>
    <tag k="name" v="Greenham Place"/>
  </way>
  <way id="25704275" version="3" timestamp="2010-03-07T04:53:58Z" uid="242497" user="vlchung" changeset="4057361">
    <nd ref="280243805"/>
    <nd ref="280243824"/>
    <nd ref="280243825"/>
    <nd ref="280243826"/>
    <nd ref="280243827"/>
    <tag k="highway" v="residential"/>
    <tag k="name" v="Dowell Place"/>
  </way>
  <way id="25704275" version="4" timestamp="2010-05-02T06:11:37Z" uid="242497" user="cvl" changeset="4581339">
    <nd ref="280243805"/>
    <nd ref="280243824"/>
    <nd ref="280243825"/>
    <nd ref="280243826"/>
    <nd ref="716372209"/>
    <nd ref="280243827"/>
    <tag k="highway" v="residential"/>
    <tag k="name" v="Dowell Place"/>
  </way>
  <way id="25704275" version="5" timestamp="2010-07-09T07:27:49Z" uid="74617" user="JohnSmith" changeset="5171412">
    <nd ref="280243805"/>
    <nd ref="280243824"/>
    <nd ref="280243825"/>
    <nd ref="280243826"/>
    <nd ref="716372209"/>
    <nd ref="280243827"/>
    <tag k="highway" v="residential"/>
    <tag k="maxspeed" v="50"/>
    <tag k="maxspeed:source" v="default residential speed limit in Australia"/>
    <tag k="name" v="Dowell Place"/>
  </way>
  <way id="25704275" version="6" timestamp="2010-10-15T05:36:50Z" uid="325087" user="Palitu" changeset="6046295">
    <nd ref="280243805"/>
    <nd ref="280243824"/>
    <nd ref="280243825"/>
    <nd ref="280243826"/>
    <nd ref="716372209"/>
    <nd ref="280243827"/>
    <tag k="addr:city" v="Bibra Lake"/>
    <tag k="addr:postcode" v="6163"/>
    <tag k="highway" v="residential"/>
    <tag k="maxspeed" v="50"/>
    <tag k="maxspeed:source" v="default residential speed limit in Australia"/>
    <tag k="name" v="Dowell Place"/>
  </way>
  <way id="25704275" version="7" timestamp="2012-01-17T00:45:27Z" uid="147510" user="woodpeck_fixbot" changeset="10412890">
    <nd ref="280243805"/>
    <nd ref="280243824"/>
    <nd ref="280243825"/>
    <nd ref="280243826"/>
    <nd ref="716372209"/>
    <nd ref="280243827"/>
    <tag k="addr:city" v="Bibra Lake"/>
    <tag k="addr:postcode" v="6163"/>
    <tag k="highway" v="residential"/>
    <tag k="name" v="Dowell Place"/>
  </way>
  <way id="25704302" version="3" timestamp="2010-03-17T12:40:29Z" uid="242497" user="vlchung" changeset="4152703">
    <nd ref="280244010"/>
    <nd ref="280244037"/>
    <nd ref="280244038"/>
    <nd ref="280244039"/>
    <nd ref="280244040"/>
    <nd ref="280244515"/>
    <tag k="highway" v="residential"/>
    <tag k="name" v="Bondini Way"/>
  </way>
  <way id="25704302" version="4" timestamp="2010-07-09T07:37:05Z" uid="74617" user="JohnSmith" changeset="5171412">
    <nd ref="280244010"/>
    <nd ref="280244037"/>
    <nd ref="280244038"/>
    <nd ref="280244039"/>
    <nd ref="280244040"/>
    <nd ref="280244515"/>
    <tag k="highway" v="residential"/>
    <tag k="maxspeed" v="50"/>
    <tag k="maxspeed:source" v="default residential speed limit in Australia"/>
    <tag k="name" v="Bondini Way"/>
  </way>
  <way id="25704302" version="5" timestamp="2010-10-15T05:37:01Z" uid="325087" user="Palitu" changeset="6046295">
    <nd ref="280244010"/>
    <nd ref="280244037"/>
    <nd ref="280244038"/>
    <nd ref="280244039"/>
    <nd ref="280244040"/>
    <nd ref="280244515"/>
    <tag k="addr:city" v="Bibra Lake"/>
    <tag k="addr:postcode" v="6163"/>
    <tag k="highway" v="residential"/>
    <tag k="maxspeed" v="50"/>
    <tag k="maxspeed:source" v="default residential speed limit in Australia"/>
    <tag k="name" v="Bondini Way"/>
  </way>
  <way id="25704302" version="6" timestamp="2012-01-17T00:45:32Z" uid="147510" user="woodpeck_fixbot" changeset="10412890">
    <nd ref="280244010"/>
    <nd ref="280244037"/>
    <nd ref="280244038"/>
    <nd ref="280244039"/>
    <nd ref="280244040"/>
    <nd ref="280244515"/>
    <tag k="addr:city" v="Bibra Lake"/>
    <tag k="addr:postcode" v="6163"/>
    <tag k="highway" v="residential"/>
    <tag k="name" v="Bondini Way"/>
  </way>
  <way id="25704317" version="3" timestamp="2010-03-17T12:40:29Z" uid="242497" user="vlchung" changeset="4152703">
    <nd ref="280244037"/>
    <nd ref="280244095"/>
    <nd ref="280244096"/>
    <nd ref="280244097"/>
    <nd ref="591430834"/>
    <tag k="highway" v="residential"/>
    <tag k="name" v="Tetlow Place"/>
  </way>
  <way id="25704317" version="4" timestamp="2010-07-09T07:54:38Z" uid="74617" user="JohnSmith" changeset="5171412">
    <nd ref="280244037"/>
    <nd ref="280244095"/>
    <nd ref="280244096"/>
    <nd ref="280244097"/>
    <nd ref="591430834"/>
    <tag k="highway" v="residential"/>
    <tag k="maxspeed" v="50"/>
    <tag k="maxspeed:source" v="default residential speed limit in Australia"/>
    <tag k="name" v="Tetlow Place"/>
  </way>
  <way id="25704317" version="5" timestamp="2010-10-15T05:36:53Z" uid="325087" user="Palitu" changeset="6046295">
    <nd ref="280244037"/>
    <nd ref="280244095"/>
    <nd ref="280244096"/>
    <nd ref="280244097"/>
    <nd ref="591430834"/>
    <tag k="addr:city" v="Bibra Lake"/>
    <tag k="addr:postcode" v="6163"/>
    <tag k="highway" v="residential"/>
    <tag k="maxspeed" v="50"/>
    <tag k="maxspeed:source" v="default residential speed limit in Australia"/>
    <tag k="name" v="Tetlow Place"/>
  </way>
  <way id="25704317" version="6" timestamp="2012-01-17T00:45:34Z" uid="147510" user="woodpeck_fixbot" changeset="10412890">
    <nd ref="280244037"/>
    <nd ref="280244095"/>
    <nd ref="280244096"/>
    <nd ref="280244097"/>
    <nd ref="591430834"/>
    <tag k="addr:city" v="Bibra Lake"/>
    <tag k="addr:postcode" v="6163"/>
    <tag k="highway" v="residential"/>
    <tag k="name" v="Tetlow Place"/>
  </way>
  <way id="25704324" version="3" timestamp="2010-03-17T12:40:29Z" uid="242497" user="vlchung" changeset="4152703">
    <nd ref="280244095"/>
    <nd ref="280244183"/>
    <tag k="highway" v="residential"/>
    <tag k="name" v="McKay Court"/>
  </way>
  <way id="25704324" version="4" timestamp="2010-07-09T07:57:56Z" uid="74617" user="JohnSmith" changeset="5171412">
    <nd ref="280244095"/>
    <nd ref="280244183"/>
    <tag k="highway" v="residential"/>
    <tag k="maxspeed" v="50"/>
    <tag k="maxspeed:source" v="default residential speed limit in Australia"/>
    <tag k="name" v="McKay Court"/>
  </way>
  <way id="25704324" version="5" timestamp="2010-10-15T05:36:35Z" uid="325087" user="Palitu" changeset="6046295">
    <nd ref="280244095"/>
    <nd ref="280244183"/>
    <tag k="addr:city" v="Bibra Lake"/>
    <tag k="addr:postcode" v="6163"/>
    <tag k="highway" v="residential"/>
    <tag k="maxspeed" v="50"/>
    <tag k="maxspeed:source" v="default residential speed limit in Australia"/>
    <tag k="name" v="McKay Court"/>
  </way>
  <way id="25704324" version="6" timestamp="2012-01-17T00:45:36Z" uid="147510" user="woodpeck_fixbot" changeset="10412890">
    <nd ref="280244095"/>
    <nd ref="280244183"/>
    <tag k="addr:city" v="Bibra Lake"/>
    <tag k="addr:postcode" v="6163"/>
    <tag k="highway" v="residential"/>
    <tag k="name" v="McKay Court"/>
  </way>
  <way id="25704326" version="3" timestamp="2010-03-17T12:40:29Z" uid="242497" user="vlchung" changeset="4152703">
    <nd ref="280244039"/>
    <nd ref="280244201"/>
    <nd ref="280244202"/>
    <nd ref="280244203"/>
    <tag k="highway" v="residential"/>
    <tag k="name" v="Currie Place"/>
  </way>
  <way id="25704326" version="4" timestamp="2010-07-09T08:07:52Z" uid="74617" user="JohnSmith" changeset="5171412">
    <nd ref="280244039"/>
    <nd ref="280244201"/>
    <nd ref="280244202"/>
    <nd ref="280244203"/>
    <tag k="highway" v="residential"/>
    <tag k="maxspeed" v="50"/>
    <tag k="maxspeed:source" v="default residential speed limit in Australia"/>
    <tag k="name" v="Currie Place"/>
  </way>
  <way id="25704326" version="5" timestamp="2010-10-15T05:37:04Z" uid="325087" user="Palitu" changeset="6046295">
    <nd ref="280244039"/>
    <nd ref="280244201"/>
    <nd ref="280244202"/>
    <nd ref="280244203"/>
    <tag k="addr:city" v="Bibra Lake"/>
    <tag k="addr:postcode" v="6163"/>
    <tag k="highway" v="residential"/>
    <tag k="maxspeed" v="50"/>
    <tag k="maxspeed:source" v="default residential speed limit in Australia"/>
    <tag k="name" v="Currie Place"/>
  </way>
  <way id="25704326" version="6" timestamp="2012-01-17T00:45:39Z" uid="147510" user="woodpeck_fixbot" changeset="10412890">
    <nd ref="280244039"/>
    <nd ref="280244201"/>
    <nd ref="280244202"/>
    <nd ref="280244203"/>
    <tag k="addr:city" v="Bibra Lake"/>
    <tag k="addr:postcode" v="6163"/>
    <tag k="highway" v="residential"/>
    <tag k="name" v="Currie Place"/>
  </way>
  <way id="25704329" version="3" timestamp="2010-03-17T12:40:30Z" uid="242497" user="vlchung" changeset="4152703">
    <nd ref="280244201"/>
    <nd ref="280244262"/>
    <nd ref="280244263"/>
    <tag k="highway" v="residential"/>
    <tag k="name" v="Stone Court"/>
  </way>
  <way id="25704329" version="4" timestamp="2010-07-09T08:09:17Z" uid="74617" user="JohnSmith" changeset="5171412">
    <nd ref="280244201"/>
    <nd ref="280244262"/>
    <nd ref="280244263"/>
    <tag k="highway" v="residential"/>
    <tag k="maxspeed" v="50"/>
    <tag k="maxspeed:source" v="default residential speed limit in Australia"/>
    <tag k="name" v="Stone Court"/>
  </way>
  <way id="25704329" version="5" timestamp="2010-10-15T05:36:54Z" uid="325087" user="Palitu" changeset="6046295">
    <nd ref="280244201"/>
    <nd ref="280244262"/>
    <nd ref="280244263"/>
    <tag k="addr:city" v="Bibra Lake"/>
    <tag k="addr:postcode" v="6163"/>
    <tag k="highway" v="residential"/>
    <tag k="maxspeed" v="50"/>
    <tag k="maxspeed:source" v="default residential speed limit in Australia"/>
    <tag k="name" v="Stone Court"/>
  </way>
  <way id="25704329" version="6" timestamp="2012-01-17T00:45:41Z" uid="147510" user="woodpeck_fixbot" changeset="10412890">
    <nd ref="280244201"/>
    <nd ref="280244262"/>
    <nd ref="280244263"/>
    <tag k="addr:city" v="Bibra Lake"/>
    <tag k="addr:postcode" v="6163"/>
    <tag k="highway" v="residential"/>
    <tag k="name" v="Stone Court"/>
  </way>
  <way id="25704335" version="2" timestamp="2010-07-09T07:59:15Z" uid="74617" user="JohnSmith" changeset="5171412">
    <nd ref="280244328"/>
    <nd ref="280244329"/>
    <nd ref="280244330"/>
    <nd ref="280244331"/>
    <nd ref="280244332"/>
    <nd ref="280244333"/>
    <nd ref="280244334"/>
    <nd ref="280244335"/>
    <tag k="highway" v="residential"/>
    <tag k="maxspeed" v="50"/>
    <tag k="maxspeed:source" v="default residential speed limit in Australia"/>
  </way>
  <way id="25704335" version="3" timestamp="2010-10-15T05:36:38Z" uid="325087" user="Palitu" changeset="6046295">
    <nd ref="280244328"/>
    <nd ref="280244329"/>
    <nd ref="280244330"/>
    <nd ref="280244331"/>
    <nd ref="280244332"/>
    <nd ref="280244333"/>
    <nd ref="280244334"/>
    <nd ref="280244335"/>
    <tag k="addr:city" v="Bibra Lake"/>
    <tag k="addr:postcode" v="6163"/>
    <tag k="highway" v="residential"/>
    <tag k="maxspeed" v="50"/>
    <tag k="maxspeed:source" v="default residential speed limit in Australia"/>
  </way>
  <way id="25704335" version="4" timestamp="2012-01-17T00:45:43Z" uid="147510" user="woodpeck_fixbot" changeset="10412890">
    <nd ref="280244328"/>
    <nd ref="280244329"/>
    <nd ref="280244330"/>
    <nd ref="280244331"/>
    <nd ref="280244332"/>
    <nd ref="280244333"/>
    <nd ref="280244334"/>
    <nd ref="280244335"/>
    <tag k="addr:city" v="Bibra Lake"/>
    <tag k="addr:postcode" v="6163"/>
    <tag k="highway" v="residential"/>
  </way>
  <way id="25704336" version="2" timestamp="2010-07-09T07:54:01Z" uid="74617" user="JohnSmith" changeset="5171412">
    <nd ref="263286415"/>
    <nd ref="280244335"/>
    <nd ref="280244336"/>
    <nd ref="280244328"/>
    <tag k="highway" v="residential"/>
    <tag k="maxspeed" v="50"/>
    <tag k="maxspeed:source" v="default residential speed limit in Australia"/>
  </way>
  <way id="25704336" version="3" timestamp="2010-10-15T05:36:59Z" uid="325087" user="Palitu" changeset="6046295">
    <nd ref="263286415"/>
    <nd ref="280244335"/>
    <nd ref="280244336"/>
    <nd ref="280244328"/>
    <tag k="addr:city" v="Bibra Lake"/>
    <tag k="addr:postcode" v="6163"/>
    <tag k="highway" v="residential"/>
    <tag k="maxspeed" v="50"/>
    <tag k="maxspeed:source" v="default residential speed limit in Australia"/>
  </way>
  <way id="25704336" version="4" timestamp="2012-01-17T00:45:45Z" uid="147510" user="woodpeck_fixbot" changeset="10412890">
    <nd ref="263286415"/>
    <nd ref="280244335"/>
    <nd ref="280244336"/>
    <nd ref="280244328"/>
    <tag k="addr:city" v="Bibra Lake"/>
    <tag k="addr:postcode" v="6163"/>
    <tag k="highway" v="residential"/>
  </way>
  <way id="25704345" version="2" timestamp="2010-03-07T05:03:23Z" uid="242497" user="vlchung" changeset="4057361">
    <nd ref="280242056"/>
    <nd ref="280244441"/>
    <nd ref="280244442"/>
    <nd ref="280244443"/>
    <nd ref="280244444"/>
    <nd ref="280244445"/>
    <nd ref="263286401"/>
    <tag k="highway" v="residential"/>
  </way>
  <way id="25704345" version="3" timestamp="2010-03-17T12:40:25Z" uid="242497" user="vlchung" changeset="4152703">
    <nd ref="280242056"/>
    <nd ref="280244441"/>
    <nd ref="280244442"/>
    <nd ref="280244443"/>
    <nd ref="280244444"/>
    <nd ref="280244445"/>
    <nd ref="263286401"/>
    <tag k="highway" v="residential"/>
    <tag k="name" v="Gilchrist Avenue"/>
  </way>
  <way id="25704345" version="4" timestamp="2010-07-09T08:01:37Z" uid="74617" user="JohnSmith" changeset="5171412">
    <nd ref="280242056"/>
    <nd ref="280244441"/>
    <nd ref="280244442"/>
    <nd ref="280244443"/>
    <nd ref="280244444"/>
    <nd ref="280244445"/>
    <nd ref="263286401"/>
    <tag k="highway" v="residential"/>
    <tag k="maxspeed" v="50"/>
    <tag k="maxspeed:source" v="default residential speed limit in Australia"/>
    <tag k="name" v="Gilchrist Avenue"/>
  </way>
  <way id="25704345" version="5" timestamp="2010-10-15T05:36:32Z" uid="325087" user="Palitu" changeset="6046295">
    <nd ref="280242056"/>
    <nd ref="280244441"/>
    <nd ref="280244442"/>
    <nd ref="280244443"/>
    <nd ref="280244444"/>
    <nd ref="280244445"/>
    <nd ref="263286401"/>
    <tag k="addr:city" v="Bibra Lake"/>
    <tag k="addr:postcode" v="6163"/>
    <tag k="highway" v="residential"/>
    <tag k="maxspeed" v="50"/>
    <tag k="maxspeed:source" v="default residential speed limit in Australia"/>
    <tag k="name" v="Gilchrist Avenue"/>
  </way>
  <way id="25704345" version="6" timestamp="2012-01-17T00:45:46Z" uid="147510" user="woodpeck_fixbot" changeset="10412890">
    <nd ref="280242056"/>
    <nd ref="280244441"/>
    <nd ref="280244442"/>
    <nd ref="280244443"/>
    <nd ref="280244444"/>
    <nd ref="280244445"/>
    <nd ref="263286401"/>
    <tag k="addr:city" v="Bibra Lake"/>
    <tag k="addr:postcode" v="6163"/>
    <tag k="highway" v="residential"/>
    <tag k="name" v="Gilchrist Avenue"/>
  </way>
  <way id="25704347" version="3" timestamp="2010-03-17T12:40:22Z" uid="242497" user="vlchung" changeset="4152703">
    <nd ref="280244443"/>
    <nd ref="280244446"/>
    <nd ref="591430837"/>
    <tag k="highway" v="residential"/>
    <tag k="name" v="Brooks Court"/>
  </way>
  <way id="25704347" version="4" timestamp="2010-07-09T07:55:35Z" uid="74617" user="JohnSmith" changeset="5171412">
    <nd ref="280244443"/>
    <nd ref="280244446"/>
    <nd ref="591430837"/>
    <tag k="highway" v="residential"/>
    <tag k="maxspeed" v="50"/>
    <tag k="maxspeed:source" v="default residential speed limit in Australia"/>
    <tag k="name" v="Brooks Court"/>
  </way>
  <way id="25704347" version="5" timestamp="2010-10-15T05:37:01Z" uid="325087" user="Palitu" changeset="6046295">
    <nd ref="280244443"/>
    <nd ref="280244446"/>
    <nd ref="591430837"/>
    <tag k="addr:city" v="Bibra Lake"/>
    <tag k="addr:postcode" v="6163"/>
    <tag k="highway" v="residential"/>
    <tag k="maxspeed" v="50"/>
    <tag k="maxspeed:source" v="default residential speed limit in Australia"/>
    <tag k="name" v="Brooks Court"/>
  </way>
  <way id="25704347" version="6" timestamp="2012-01-17T00:45:50Z" uid="147510" user="woodpeck_fixbot" changeset="10412890">
    <nd ref="280244443"/>
    <nd ref="280244446"/>
    <nd ref="591430837"/>
    <tag k="addr:city" v="Bibra Lake"/>
    <tag k="addr:postcode" v="6163"/>
    <tag k="highway" v="residential"/>
    <tag k="name" v="Brooks Court"/>
  </way>
  <way id="25704353" version="3" timestamp="2010-03-17T12:40:26Z" uid="242497" user="vlchung" changeset="4152703">
    <nd ref="280244442"/>
    <nd ref="280244500"/>
    <nd ref="280244501"/>
    <nd ref="280244502"/>
    <tag k="highway" v="residential"/>
    <tag k="name" v="Lakeview Place"/>
  </way>
  <way id="25704353" version="4" timestamp="2010-03-17T14:24:06Z" uid="242497" user="vlchung" changeset="4153399"/>
  <way id="25704355" version="4" timestamp="2010-03-17T12:40:26Z" uid="242497" user="vlchung" changeset="4152703">
    <nd ref="280244500"/>
    <nd ref="280244513"/>
    <tag k="highway" v="residential"/>
    <tag k="name" v="Lakeview Place"/>
  </way>
  <way id="25704355" version="5" timestamp="2010-03-17T14:24:05Z" uid="242497" user="vlchung" changeset="4153399">
    <nd ref="280244442"/>
    <nd ref="280244500"/>
    <nd ref="280244501"/>
    <nd ref="280244502"/>
    <nd ref="280244500"/>
    <nd ref="280244513"/>
    <tag k="highway" v="residential"/>
    <tag k="name" v="Lakeview Place"/>
  </way>
  <way id="25704355" version="6" timestamp="2010-04-30T06:08:45Z" uid="192584" user="ORYX" changeset="4563226">
    <nd ref="280244442"/>
    <nd ref="280244500"/>
    <tag k="highway" v="residential"/>
    <tag k="name" v="Lakeview Place"/>
  </way>
  <way id="25704355" version="7" timestamp="2010-07-09T08:00:12Z" uid="74617" user="JohnSmith" changeset="5171412">
    <nd ref="280244442"/>
    <nd ref="280244500"/>
    <tag k="highway" v="residential"/>
    <tag k="maxspeed" v="50"/>
    <tag k="maxspeed:source" v="default residential speed limit in Australia"/>
    <tag k="name" v="Lakeview Place"/>
  </way>
  <way id="25704355" version="8" timestamp="2010-10-15T05:36:34Z" uid="325087" user="Palitu" changeset="6046295">
    <nd ref="280244442"/>
    <nd ref="280244500"/>
    <tag k="addr:city" v="Bibra Lake"/>
    <tag k="addr:postcode" v="6163"/>
    <tag k="highway" v="residential"/>
    <tag k="maxspeed" v="50"/>
    <tag k="maxspeed:source" v="default residential speed limit in Australia"/>
    <tag k="name" v="Lakeview Place"/>
  </way>
  <way id="25704355" version="9" timestamp="2012-01-17T00:45:51Z" uid="147510" user="woodpeck_fixbot" changeset="10412890">
    <nd ref="280244442"/>
    <nd ref="280244500"/>
    <tag k="addr:city" v="Bibra Lake"/>
    <tag k="addr:postcode" v="6163"/>
    <tag k="highway" v="residential"/>
    <tag k="name" v="Lakeview Place"/>
  </way>
  <way id="25704360" version="4" timestamp="2010-03-17T12:40:27Z" uid="242497" user="vlchung" changeset="4152703">
    <nd ref="280244792"/>
    <nd ref="280244793"/>
    <nd ref="280244795"/>
    <nd ref="280244677"/>
    <nd ref="280244937"/>
    <nd ref="280244797"/>
    <nd ref="280244679"/>
    <nd ref="280244680"/>
    <nd ref="280244681"/>
    <tag k="highway" v="residential"/>
    <tag k="name" v="Homestead Avenue"/>
  </way>
  <way id="25704360" version="5" timestamp="2010-07-09T08:09:37Z" uid="74617" user="JohnSmith" changeset="5171412">
    <nd ref="280244792"/>
    <nd ref="280244793"/>
    <nd ref="280244795"/>
    <nd ref="280244677"/>
    <nd ref="280244937"/>
    <nd ref="280244797"/>
    <nd ref="280244679"/>
    <nd ref="280244680"/>
    <nd ref="280244681"/>
    <tag k="highway" v="residential"/>
    <tag k="maxspeed" v="50"/>
    <tag k="maxspeed:source" v="default residential speed limit in Australia"/>
    <tag k="name" v="Homestead Avenue"/>
  </way>
  <way id="25704360" version="6" timestamp="2010-10-15T05:36:53Z" uid="325087" user="Palitu" changeset="6046295">
    <nd ref="280244792"/>
    <nd ref="280244793"/>
    <nd ref="280244795"/>
    <nd ref="280244677"/>
    <nd ref="280244937"/>
    <nd ref="280244797"/>
    <nd ref="280244679"/>
    <nd ref="280244680"/>
    <nd ref="280244681"/>
    <tag k="addr:city" v="Bibra Lake"/>
    <tag k="addr:postcode" v="6163"/>
    <tag k="highway" v="residential"/>
    <tag k="maxspeed" v="50"/>
    <tag k="maxspeed:source" v="default residential speed limit in Australia"/>
    <tag k="name" v="Homestead Avenue"/>
  </way>
  <way id="25704360" version="7" timestamp="2012-01-17T00:45:52Z" uid="147510" user="woodpeck_fixbot" changeset="10412890">
    <nd ref="280244792"/>
    <nd ref="280244793"/>
    <nd ref="280244795"/>
    <nd ref="280244677"/>
    <nd ref="280244937"/>
    <nd ref="280244797"/>
    <nd ref="280244679"/>
    <nd ref="280244680"/>
    <nd ref="280244681"/>
    <tag k="addr:city" v="Bibra Lake"/>
    <tag k="addr:postcode" v="6163"/>
    <tag k="highway" v="residential"/>
    <tag k="name" v="Homestead Avenue"/>
  </way>
  <way id="25704365" version="3" timestamp="2010-03-17T12:40:27Z" uid="242497" user="vlchung" changeset="4152703">
    <nd ref="280244795"/>
    <nd ref="280244771"/>
    <nd ref="280244773"/>
    <nd ref="280244775"/>
    <nd ref="280244777"/>
    <tag k="highway" v="residential"/>
    <tag k="name" v="Farmview Place"/>
  </way>
  <way id="25704365" version="4" timestamp="2010-07-09T07:53:38Z" uid="74617" user="JohnSmith" changeset="5171412">
    <nd ref="280244795"/>
    <nd ref="280244771"/>
    <nd ref="280244773"/>
    <nd ref="280244775"/>
    <nd ref="280244777"/>
    <tag k="highway" v="residential"/>
    <tag k="maxspeed" v="50"/>
    <tag k="maxspeed:source" v="default residential speed limit in Australia"/>
    <tag k="name" v="Farmview Place"/>
  </way>
  <way id="25704365" version="5" timestamp="2010-10-15T05:36:49Z" uid="325087" user="Palitu" changeset="6046295">
    <nd ref="280244795"/>
    <nd ref="280244771"/>
    <nd ref="280244773"/>
    <nd ref="280244775"/>
    <nd ref="280244777"/>
    <tag k="addr:city" v="Bibra Lake"/>
    <tag k="addr:postcode" v="6163"/>
    <tag k="highway" v="residential"/>
    <tag k="maxspeed" v="50"/>
    <tag k="maxspeed:source" v="default residential speed limit in Australia"/>
    <tag k="name" v="Farmview Place"/>
  </way>
  <way id="25704365" version="6" timestamp="2012-01-17T00:45:54Z" uid="147510" user="woodpeck_fixbot" changeset="10412890">
    <nd ref="280244795"/>
    <nd ref="280244771"/>
    <nd ref="280244773"/>
    <nd ref="280244775"/>
    <nd ref="280244777"/>
    <tag k="addr:city" v="Bibra Lake"/>
    <tag k="addr:postcode" v="6163"/>
    <tag k="highway" v="residential"/>
    <tag k="name" v="Farmview Place"/>
  </way>
  <way id="25704369" version="2" timestamp="2011-05-01T06:23:12Z" uid="33382" user="de_muur" changeset="8017912">
    <nd ref="280244730"/>
    <nd ref="280244818"/>
    <nd ref="277759652"/>
    <nd ref="277759684"/>
    <nd ref="277759686"/>
    <nd ref="277759688"/>
    <tag k="bicycle" v="yes"/>
    <tag k="foot" v="yes"/>
    <tag k="highway" v="track"/>
    <tag k="motorcar" v="no"/>
    <tag k="surface" v="concrete"/>
    <tag k="tracktype" v="grade2"/>
  </way>
  <way id="25704372" version="3" timestamp="2010-03-17T12:40:21Z" uid="242497" user="vlchung" changeset="4152703">
    <nd ref="280244937"/>
    <nd ref="280244939"/>
    <nd ref="280244940"/>
    <tag k="highway" v="residential"/>
    <tag k="name" v="Settlers Court"/>
  </way>
  <way id="25704372" version="4" timestamp="2010-07-09T07:55:12Z" uid="74617" user="JohnSmith" changeset="5171412">
    <nd ref="280244937"/>
    <nd ref="280244939"/>
    <nd ref="280244940"/>
    <tag k="highway" v="residential"/>
    <tag k="maxspeed" v="50"/>
    <tag k="maxspeed:source" v="default residential speed limit in Australia"/>
    <tag k="name" v="Settlers Court"/>
  </way>
  <way id="25704372" version="5" timestamp="2010-10-15T05:36:56Z" uid="325087" user="Palitu" changeset="6046295">
    <nd ref="280244937"/>
    <nd ref="280244939"/>
    <nd ref="280244940"/>
    <tag k="addr:city" v="Bibra Lake"/>
    <tag k="addr:postcode" v="6163"/>
    <tag k="highway" v="residential"/>
    <tag k="maxspeed" v="50"/>
    <tag k="maxspeed:source" v="default residential speed limit in Australia"/>
    <tag k="name" v="Settlers Court"/>
  </way>
  <way id="25704372" version="6" timestamp="2012-01-17T00:45:55Z" uid="147510" user="woodpeck_fixbot" changeset="10412890">
    <nd ref="280244937"/>
    <nd ref="280244939"/>
    <nd ref="280244940"/>
    <tag k="addr:city" v="Bibra Lake"/>
    <tag k="addr:postcode" v="6163"/>
    <tag k="highway" v="residential"/>
    <tag k="name" v="Settlers Court"/>
  </way>
  <way id="25704376" version="3" timestamp="2010-07-09T08:01:51Z" uid="74617" user="JohnSmith" changeset="5171412">
    <nd ref="280242411"/>
    <nd ref="280245031"/>
    <nd ref="280245032"/>
    <nd ref="280245033"/>
    <nd ref="280245034"/>
    <nd ref="280245035"/>
    <nd ref="591430830"/>
    <tag k="highway" v="residential"/>
    <tag k="maxspeed" v="50"/>
    <tag k="maxspeed:source" v="default residential speed limit in Australia"/>
  </way>
  <way id="25704376" version="4" timestamp="2010-10-15T05:36:31Z" uid="325087" user="Palitu" changeset="6046295">
    <nd ref="280242411"/>
    <nd ref="280245031"/>
    <nd ref="280245032"/>
    <nd ref="280245033"/>
    <nd ref="280245034"/>
    <nd ref="280245035"/>
    <nd ref="591430830"/>
    <tag k="addr:city" v="Bibra Lake"/>
    <tag k="addr:postcode" v="6163"/>
    <tag k="highway" v="residential"/>
    <tag k="maxspeed" v="50"/>
    <tag k="maxspeed:source" v="default residential speed limit in Australia"/>
  </way>
  <way id="25704376" version="5" timestamp="2012-01-17T00:45:57Z" uid="147510" user="woodpeck_fixbot" changeset="10412890">
    <nd ref="280242411"/>
    <nd ref="280245031"/>
    <nd ref="280245032"/>
    <nd ref="280245033"/>
    <nd ref="280245034"/>
    <nd ref="280245035"/>
    <nd ref="591430830"/>
    <tag k="addr:city" v="Bibra Lake"/>
    <tag k="addr:postcode" v="6163"/>
    <tag k="highway" v="residential"/>
  </way>
  <way id="25704411" version="4" timestamp="2009-10-29T19:44:04Z" uid="36809" user="pfoten_weg_!_" changeset="2983914">
    <nd ref="280245408"/>
    <nd ref="278750653"/>
    <tag k="highway" v="unclassified"/>
    <tag k="name" v="Auf dem Pulsfeld"/>
    <tag k="surface" v="paved"/>
  </way>
  <way id="25704411" version="5" timestamp="2012-01-07T17:01:30Z" uid="104779" user="ABRob" changeset="10323159">
    <nd ref="280245408"/>
    <nd ref="278750653"/>
    <tag k="highway" v="unclassified"/>
    <tag k="maxheight" v="2.1"/>
    <tag k="name" v="Auf dem Pulsfeld"/>
    <tag k="surface" v="asphalt"/>
  </way>
  <way id="25704420" version="2" timestamp="2010-07-09T07:54:10Z" uid="74617" user="JohnSmith" changeset="5171412">
    <nd ref="280245428"/>
    <nd ref="280245442"/>
    <tag k="highway" v="residential"/>
    <tag k="maxspeed" v="50"/>
    <tag k="maxspeed:source" v="default residential speed limit in Australia"/>
  </way>
  <way id="25704420" version="3" timestamp="2012-01-17T00:45:58Z" uid="147510" user="woodpeck_fixbot" changeset="10412890">
    <nd ref="280245428"/>
    <nd ref="280245442"/>
    <tag k="highway" v="residential"/>
  </way>
  <way id="25704438" version="2" timestamp="2010-07-09T07:27:17Z" uid="74617" user="JohnSmith" changeset="5171412">
    <nd ref="280245519"/>
    <nd ref="280245520"/>
    <nd ref="280245521"/>
    <nd ref="280245522"/>
    <nd ref="280245523"/>
    <nd ref="280245524"/>
    <nd ref="280245525"/>
    <nd ref="280245526"/>
    <nd ref="280245527"/>
    <nd ref="280245528"/>
    <nd ref="280245529"/>
    <nd ref="280245530"/>
    <nd ref="280245531"/>
    <nd ref="280245532"/>
    <nd ref="280245533"/>
    <nd ref="280245534"/>
    <nd ref="280245535"/>
    <nd ref="280245536"/>
    <nd ref="280245537"/>
    <nd ref="280245538"/>
    <nd ref="280245539"/>
    <nd ref="280218705"/>
    <tag k="highway" v="residential"/>
    <tag k="maxspeed" v="50"/>
    <tag k="maxspeed:source" v="default residential speed limit in Australia"/>
  </way>
  <way id="25704438" version="3" timestamp="2010-12-15T10:00:28Z" uid="383880" user="phair" changeset="6665901">
    <nd ref="280245519"/>
    <nd ref="280245520"/>
    <nd ref="280245521"/>
    <nd ref="280245522"/>
    <nd ref="280245523"/>
    <nd ref="280245524"/>
    <nd ref="280245525"/>
    <nd ref="280245526"/>
    <nd ref="280245527"/>
    <nd ref="280245528"/>
    <nd ref="280245529"/>
    <nd ref="280245530"/>
    <nd ref="280245531"/>
    <nd ref="280245532"/>
    <nd ref="280245533"/>
    <nd ref="280245534"/>
    <nd ref="280245535"/>
    <nd ref="280245536"/>
    <nd ref="280245537"/>
    <nd ref="280245538"/>
    <nd ref="280245539"/>
    <nd ref="280218705"/>
    <tag k="highway" v="residential"/>
    <tag k="maxspeed" v="50"/>
    <tag k="maxspeed:source" v="default residential speed limit in Australia"/>
    <tag k="name" v="Lakes Way"/>
  </way>
  <way id="25704438" version="4" timestamp="2012-01-17T00:45:59Z" uid="147510" user="woodpeck_fixbot" changeset="10412890">
    <nd ref="280245519"/>
    <nd ref="280245520"/>
    <nd ref="280245521"/>
    <nd ref="280245522"/>
    <nd ref="280245523"/>
    <nd ref="280245524"/>
    <nd ref="280245525"/>
    <nd ref="280245526"/>
    <nd ref="280245527"/>
    <nd ref="280245528"/>
    <nd ref="280245529"/>
    <nd ref="280245530"/>
    <nd ref="280245531"/>
    <nd ref="280245532"/>
    <nd ref="280245533"/>
    <nd ref="280245534"/>
    <nd ref="280245535"/>
    <nd ref="280245536"/>
    <nd ref="280245537"/>
    <nd ref="280245538"/>
    <nd ref="280245539"/>
    <nd ref="280218705"/>
    <tag k="highway" v="residential"/>
    <tag k="name" v="Lakes Way"/>
  </way>
  <way id="25704443" version="3" timestamp="2010-07-09T07:38:47Z" uid="74617" user="JohnSmith" changeset="5171412">
    <nd ref="280245539"/>
    <nd ref="280245561"/>
    <tag k="highway" v="residential"/>
    <tag k="maxspeed" v="50"/>
    <tag k="maxspeed:source" v="default residential speed limit in Australia"/>
  </way>
  <way id="25704443" version="4" timestamp="2012-01-17T00:46:02Z" uid="147510" user="woodpeck_fixbot" changeset="10412890">
    <nd ref="280245539"/>
    <nd ref="280245561"/>
    <tag k="highway" v="residential"/>
  </way>
  <way id="25704443" version="5" timestamp="2012-03-06T04:41:04Z" uid="618141" user="LakesWayResident" changeset="10886820">
    <nd ref="280245539"/>
    <nd ref="280245561"/>
    <tag k="highway" v="service"/>
    <tag k="service" v="driveway"/>
  </way>
  <way id="25704452" version="4" timestamp="2010-04-27T04:16:58Z" uid="4467" user="Rosscoe" changeset="4537790">
    <nd ref="708320928"/>
    <nd ref="569919419"/>
    <nd ref="280245668"/>
    <nd ref="280245669"/>
    <nd ref="280245670"/>
    <nd ref="280245671"/>
    <nd ref="280245672"/>
    <nd ref="280245674"/>
    <nd ref="280245676"/>
    <nd ref="280245678"/>
    <nd ref="280245680"/>
    <nd ref="280245681"/>
    <nd ref="280245682"/>
    <nd ref="280245683"/>
    <nd ref="280245684"/>
    <nd ref="280245685"/>
    <nd ref="280245686"/>
    <nd ref="280245687"/>
    <nd ref="280245688"/>
    <tag k="highway" v="residential"/>
  </way>
  <way id="25704452" version="5" timestamp="2010-07-09T07:35:23Z" uid="74617" user="JohnSmith" changeset="5171412">
    <nd ref="708320928"/>
    <nd ref="569919419"/>
    <nd ref="280245668"/>
    <nd ref="280245669"/>
    <nd ref="280245670"/>
    <nd ref="280245671"/>
    <nd ref="280245672"/>
    <nd ref="280245674"/>
    <nd ref="280245676"/>
    <nd ref="280245678"/>
    <nd ref="280245680"/>
    <nd ref="280245681"/>
    <nd ref="280245682"/>
    <nd ref="280245683"/>
    <nd ref="280245684"/>
    <nd ref="280245685"/>
    <nd ref="280245686"/>
    <nd ref="280245687"/>
    <nd ref="280245688"/>
    <tag k="highway" v="residential"/>
    <tag k="maxspeed" v="50"/>
    <tag k="maxspeed:source" v="default residential speed limit in Australia"/>
  </way>
  <way id="25704452" version="6" timestamp="2011-02-08T06:37:32Z" uid="325087" user="Palitu" changeset="7223675">
    <nd ref="708320928"/>
    <nd ref="569919419"/>
    <nd ref="280245668"/>
    <nd ref="280245669"/>
    <nd ref="280245670"/>
    <nd ref="280245671"/>
    <nd ref="280245672"/>
    <nd ref="280245674"/>
    <nd ref="280245676"/>
    <nd ref="280245678"/>
    <nd ref="280245680"/>
    <nd ref="280245681"/>
    <nd ref="280245682"/>
    <nd ref="280245683"/>
    <nd ref="280245684"/>
    <nd ref="280245685"/>
    <nd ref="280245686"/>
    <nd ref="280245687"/>
    <nd ref="1141787884"/>
    <tag k="highway" v="residential"/>
    <tag k="maxspeed" v="50"/>
    <tag k="maxspeed:source" v="default residential speed limit in Australia"/>
    <tag k="name" v="Dean Road"/>
  </way>
  <way id="25704452" version="7" timestamp="2012-01-17T00:46:03Z" uid="147510" user="woodpeck_fixbot" changeset="10412890">
    <nd ref="708320928"/>
    <nd ref="569919419"/>
    <nd ref="280245668"/>
    <nd ref="280245669"/>
    <nd ref="280245670"/>
    <nd ref="280245671"/>
    <nd ref="280245672"/>
    <nd ref="280245674"/>
    <nd ref="280245676"/>
    <nd ref="280245678"/>
    <nd ref="280245680"/>
    <nd ref="280245681"/>
    <nd ref="280245682"/>
    <nd ref="280245683"/>
    <nd ref="280245684"/>
    <nd ref="280245685"/>
    <nd ref="280245686"/>
    <nd ref="280245687"/>
    <nd ref="1141787884"/>
    <tag k="highway" v="residential"/>
    <tag k="name" v="Dean Road"/>
  </way>
  <way id="25704470" version="8" timestamp="2010-04-27T04:16:36Z" uid="4467" user="Rosscoe" changeset="4537790">
    <nd ref="280245688"/>
    <nd ref="280248130"/>
    <nd ref="280246051"/>
    <nd ref="280246800"/>
    <nd ref="280246053"/>
    <nd ref="280248131"/>
    <nd ref="280246055"/>
    <nd ref="280246057"/>
    <nd ref="280248735"/>
    <nd ref="280246802"/>
    <nd ref="280246059"/>
    <nd ref="280247923"/>
    <nd ref="280246061"/>
    <nd ref="280246062"/>
    <nd ref="280246804"/>
    <nd ref="280246065"/>
    <nd ref="280247924"/>
    <nd ref="280246067"/>
    <nd ref="280247926"/>
    <nd ref="280246808"/>
    <nd ref="280246070"/>
    <nd ref="280248140"/>
    <nd ref="280246073"/>
    <nd ref="280246811"/>
    <nd ref="280246812"/>
    <nd ref="280246076"/>
    <nd ref="280248133"/>
    <nd ref="280246078"/>
    <nd ref="280246814"/>
    <nd ref="280246081"/>
    <nd ref="280246082"/>
    <nd ref="280247930"/>
    <nd ref="280246085"/>
    <nd ref="280246817"/>
    <nd ref="280246087"/>
    <nd ref="280246088"/>
    <nd ref="280247931"/>
    <nd ref="280246090"/>
    <nd ref="280246819"/>
    <nd ref="280246092"/>
    <nd ref="280246820"/>
    <nd ref="280248128"/>
    <nd ref="280247933"/>
    <nd ref="280247920"/>
    <nd ref="280246095"/>
    <nd ref="280246822"/>
    <nd ref="280246097"/>
    <nd ref="280248134"/>
    <nd ref="280246825"/>
    <nd ref="280247935"/>
    <nd ref="280246100"/>
    <nd ref="280246828"/>
    <nd ref="280246102"/>
    <nd ref="280246773"/>
    <nd ref="280246104"/>
    <nd ref="708320390"/>
    <tag k="highway" v="residential"/>
  </way>
  <way id="25704470" version="9" timestamp="2010-05-01T12:00:31Z" uid="192584" user="ORYX" changeset="4574068">
    <nd ref="280245688"/>
    <nd ref="280248130"/>
    <nd ref="280246051"/>
    <nd ref="280246800"/>
    <nd ref="280246053"/>
    <nd ref="280248131"/>
    <nd ref="280246055"/>
    <nd ref="280246057"/>
    <nd ref="280248735"/>
    <nd ref="280246802"/>
    <nd ref="280246059"/>
    <nd ref="280247923"/>
    <nd ref="280246061"/>
    <nd ref="280246062"/>
    <nd ref="280246804"/>
    <nd ref="280246065"/>
    <nd ref="280247924"/>
    <nd ref="280246067"/>
    <nd ref="280247926"/>
    <nd ref="280246808"/>
    <nd ref="280246070"/>
    <nd ref="280248140"/>
    <nd ref="280246073"/>
    <nd ref="280246811"/>
    <nd ref="280246812"/>
    <nd ref="280246076"/>
    <nd ref="280248133"/>
    <nd ref="280246078"/>
    <nd ref="280246814"/>
    <nd ref="280246081"/>
    <nd ref="280246082"/>
    <nd ref="280247930"/>
    <nd ref="280246085"/>
    <nd ref="280246817"/>
    <nd ref="280246087"/>
    <nd ref="280246088"/>
    <nd ref="280247931"/>
    <nd ref="280246090"/>
    <nd ref="280246819"/>
    <nd ref="280246092"/>
    <nd ref="280246820"/>
    <nd ref="280248128"/>
    <nd ref="280247933"/>
    <nd ref="280247920"/>
    <nd ref="280246095"/>
    <nd ref="280246822"/>
    <nd ref="280246097"/>
    <nd ref="280248134"/>
    <nd ref="280246825"/>
    <nd ref="280247935"/>
    <nd ref="280246100"/>
    <nd ref="280246828"/>
    <nd ref="280246102"/>
    <nd ref="280246773"/>
    <nd ref="280246104"/>
    <tag k="highway" v="residential"/>
  </way>
  <way id="25704470" version="10" timestamp="2010-07-09T07:39:33Z" uid="74617" user="JohnSmith" changeset="5171412">
    <nd ref="280245688"/>
    <nd ref="280248130"/>
    <nd ref="280246051"/>
    <nd ref="280246800"/>
    <nd ref="280246053"/>
    <nd ref="280248131"/>
    <nd ref="280246055"/>
    <nd ref="280246057"/>
    <nd ref="280248735"/>
    <nd ref="280246802"/>
    <nd ref="280246059"/>
    <nd ref="280247923"/>
    <nd ref="280246061"/>
    <nd ref="280246062"/>
    <nd ref="280246804"/>
    <nd ref="280246065"/>
    <nd ref="280247924"/>
    <nd ref="280246067"/>
    <nd ref="280247926"/>
    <nd ref="280246808"/>
    <nd ref="280246070"/>
    <nd ref="280248140"/>
    <nd ref="280246073"/>
    <nd ref="280246811"/>
    <nd ref="280246812"/>
    <nd ref="280246076"/>
    <nd ref="280248133"/>
    <nd ref="280246078"/>
    <nd ref="280246814"/>
    <nd ref="280246081"/>
    <nd ref="280246082"/>
    <nd ref="280247930"/>
    <nd ref="280246085"/>
    <nd ref="280246817"/>
    <nd ref="280246087"/>
    <nd ref="280246088"/>
    <nd ref="280247931"/>
    <nd ref="280246090"/>
    <nd ref="280246819"/>
    <nd ref="280246092"/>
    <nd ref="280246820"/>
    <nd ref="280248128"/>
    <nd ref="280247933"/>
    <nd ref="280247920"/>
    <nd ref="280246095"/>
    <nd ref="280246822"/>
    <nd ref="280246097"/>
    <nd ref="280248134"/>
    <nd ref="280246825"/>
    <nd ref="280247935"/>
    <nd ref="280246100"/>
    <nd ref="280246828"/>
    <nd ref="280246102"/>
    <nd ref="280246773"/>
    <nd ref="280246104"/>
    <tag k="highway" v="residential"/>
    <tag k="maxspeed" v="50"/>
    <tag k="maxspeed:source" v="default residential speed limit in Australia"/>
  </way>
  <way id="25704470" version="11" timestamp="2011-01-15T03:23:14Z" uid="4467" user="Rosscoe" changeset="6973513">
    <nd ref="280245688"/>
    <nd ref="280248130"/>
    <nd ref="280246051"/>
    <nd ref="280246800"/>
    <nd ref="280246053"/>
    <nd ref="280248131"/>
    <nd ref="280246055"/>
    <nd ref="280246057"/>
    <nd ref="280248735"/>
    <nd ref="280246802"/>
    <nd ref="280246059"/>
    <nd ref="280247923"/>
    <nd ref="280246061"/>
    <nd ref="280246062"/>
    <nd ref="280246804"/>
    <nd ref="280246065"/>
    <nd ref="280247924"/>
    <nd ref="280246067"/>
    <nd ref="280247926"/>
    <nd ref="280246808"/>
    <nd ref="280246070"/>
    <nd ref="280248140"/>
    <nd ref="280246073"/>
    <nd ref="280246811"/>
    <nd ref="280246812"/>
    <nd ref="280246076"/>
    <nd ref="280248133"/>
    <nd ref="280246078"/>
    <nd ref="280246814"/>
    <nd ref="280246081"/>
    <nd ref="280246082"/>
    <nd ref="280247930"/>
    <nd ref="280246085"/>
    <nd ref="280246817"/>
    <nd ref="280246087"/>
    <nd ref="280246088"/>
    <nd ref="280247931"/>
    <nd ref="280246090"/>
    <nd ref="280246819"/>
    <nd ref="280246092"/>
    <nd ref="280246820"/>
    <nd ref="280248128"/>
    <nd ref="280247933"/>
    <nd ref="280247920"/>
    <nd ref="280246095"/>
    <nd ref="280246822"/>
    <nd ref="280246097"/>
    <nd ref="280248134"/>
    <nd ref="280246825"/>
    <nd ref="280247935"/>
    <nd ref="280246100"/>
    <nd ref="280246828"/>
    <nd ref="1104205239"/>
    <nd ref="280246102"/>
    <nd ref="280246773"/>
    <nd ref="1104205194"/>
    <nd ref="280246104"/>
    <tag k="highway" v="residential"/>
    <tag k="maxspeed" v="50"/>
    <tag k="maxspeed:source" v="default residential speed limit in Australia"/>
  </way>
  <way id="25704470" version="12" timestamp="2011-02-08T06:37:36Z" uid="325087" user="Palitu" changeset="7223675"/>
  <way id="25704472" version="3" timestamp="2011-05-01T06:35:05Z" uid="33382" user="de_muur" changeset="8017986">
    <nd ref="280246121"/>
    <nd ref="280246122"/>
    <nd ref="280246123"/>
    <tag k="bicycle" v="yes"/>
    <tag k="foot" v="yes"/>
    <tag k="highway" v="track"/>
    <tag k="motorcar" v="no"/>
    <tag k="surface" v="unpaved"/>
    <tag k="tracktype" v="grade2"/>
  </way>
  <way id="25704473" version="3" timestamp="2011-05-01T06:35:05Z" uid="33382" user="de_muur" changeset="8017986">
    <nd ref="280246123"/>
    <nd ref="280246125"/>
    <nd ref="280246126"/>
    <nd ref="280246127"/>
    <tag k="bicycle" v="yes"/>
    <tag k="foot" v="yes"/>
    <tag k="highway" v="track"/>
    <tag k="motorcar" v="no"/>
    <tag k="surface" v="unpaved"/>
    <tag k="tracktype" v="grade3"/>
  </way>
  <way id="25704475" version="2" timestamp="2011-05-01T06:35:05Z" uid="33382" user="de_muur" changeset="8017986">
    <nd ref="280246158"/>
    <nd ref="280246184"/>
    <nd ref="280246181"/>
    <nd ref="1268386979"/>
    <nd ref="280246182"/>
    <nd ref="280246185"/>
    <nd ref="280246186"/>
    <nd ref="280246187"/>
    <nd ref="280246188"/>
    <nd ref="280246189"/>
    <nd ref="280246190"/>
    <nd ref="280246183"/>
    <tag k="bicycle" v="yes"/>
    <tag k="foot" v="yes"/>
    <tag k="highway" v="track"/>
    <tag k="motorcar" v="no"/>
    <tag k="tracktype" v="grade1"/>
  </way>
  <way id="25704481" version="4" timestamp="2010-04-27T04:17:07Z" uid="4467" user="Rosscoe" changeset="4537790">
    <nd ref="708320339"/>
    <nd ref="280246179"/>
    <nd ref="569919400"/>
    <nd ref="280246430"/>
    <nd ref="708320512"/>
    <tag k="highway" v="residential"/>
    <tag k="source" v="nearmap"/>
  </way>
  <way id="25704481" version="5" timestamp="2010-07-09T07:29:09Z" uid="74617" user="JohnSmith" changeset="5171412">
    <nd ref="708320339"/>
    <nd ref="280246179"/>
    <nd ref="569919400"/>
    <nd ref="280246430"/>
    <nd ref="708320512"/>
    <tag k="highway" v="residential"/>
    <tag k="maxspeed" v="50"/>
    <tag k="maxspeed:source" v="default residential speed limit in Australia"/>
    <tag k="source" v="nearmap"/>
  </way>
  <way id="25704481" version="6" timestamp="2011-01-15T03:23:08Z" uid="4467" user="Rosscoe" changeset="6973513">
    <nd ref="708320339"/>
    <nd ref="280246179"/>
    <nd ref="1104205256"/>
    <nd ref="569919400"/>
    <nd ref="1104205233"/>
    <nd ref="280246430"/>
    <nd ref="708320512"/>
    <tag k="highway" v="residential"/>
    <tag k="maxspeed" v="50"/>
    <tag k="maxspeed:source" v="default residential speed limit in Australia"/>
    <tag k="oneway" v="yes"/>
    <tag k="source" v="nearmap"/>
  </way>
  <way id="25704481" version="7" timestamp="2011-02-08T06:37:31Z" uid="325087" user="Palitu" changeset="7223675">
    <nd ref="708320339"/>
    <nd ref="280246179"/>
    <nd ref="1104205256"/>
    <nd ref="569919400"/>
    <nd ref="1104205233"/>
    <nd ref="280246430"/>
    <nd ref="708320512"/>
    <tag k="highway" v="residential"/>
    <tag k="maxspeed" v="50"/>
    <tag k="maxspeed:source" v="default residential speed limit in Australia"/>
    <tag k="name" v="Turnbury Park Drive"/>
    <tag k="oneway" v="yes"/>
    <tag k="source" v="nearmap"/>
  </way>
  <way id="25704481" version="8" timestamp="2012-01-17T00:46:05Z" uid="147510" user="woodpeck_fixbot" changeset="10412890">
    <nd ref="708320339"/>
    <nd ref="280246179"/>
    <nd ref="1104205256"/>
    <nd ref="569919400"/>
    <nd ref="1104205233"/>
    <nd ref="280246430"/>
    <nd ref="708320512"/>
    <tag k="highway" v="residential"/>
    <tag k="name" v="Turnbury Park Drive"/>
    <tag k="oneway" v="yes"/>
    <tag k="source" v="nearmap"/>
  </way>
  <way id="25704483" version="4" timestamp="2009-10-29T19:40:28Z" uid="36809" user="pfoten_weg_!_" changeset="2983914">
    <nd ref="260625689"/>
    <nd ref="260625691"/>
    <nd ref="260625692"/>
    <nd ref="260625693"/>
    <nd ref="260625694"/>
    <nd ref="260625695"/>
    <nd ref="260625696"/>
    <nd ref="260625697"/>
    <nd ref="260625698"/>
    <nd ref="282877416"/>
    <nd ref="260625699"/>
    <nd ref="260625700"/>
    <nd ref="260625701"/>
    <nd ref="260625702"/>
    <nd ref="260625703"/>
    <nd ref="260625704"/>
    <nd ref="260625705"/>
    <nd ref="260625706"/>
    <nd ref="260625707"/>
    <nd ref="260625708"/>
    <nd ref="260625709"/>
    <nd ref="260625711"/>
    <nd ref="260625712"/>
    <nd ref="260625713"/>
    <nd ref="260625715"/>
    <nd ref="260625716"/>
    <nd ref="260625718"/>
    <nd ref="323132427"/>
    <nd ref="323132308"/>
    <nd ref="260625720"/>
    <nd ref="260625722"/>
    <nd ref="260625723"/>
    <nd ref="260625724"/>
    <nd ref="260625725"/>
    <nd ref="260625726"/>
    <nd ref="260625727"/>
    <tag k="highway" v="footway"/>
  </way>
  <way id="25704483" version="5" timestamp="2009-11-11T16:15:23Z" uid="6808" user="wwwFrank" changeset="3091267">
    <nd ref="260625689"/>
    <nd ref="260625691"/>
    <nd ref="260625692"/>
    <nd ref="260625693"/>
    <nd ref="260625694"/>
    <nd ref="260625695"/>
    <nd ref="260625696"/>
    <nd ref="260625697"/>
    <nd ref="260625698"/>
    <nd ref="282877416"/>
    <nd ref="260625699"/>
    <nd ref="260625700"/>
    <nd ref="260625701"/>
    <nd ref="260625702"/>
    <nd ref="260625703"/>
    <nd ref="260625704"/>
    <nd ref="260625705"/>
    <nd ref="260625706"/>
    <nd ref="260625707"/>
    <nd ref="260625708"/>
    <nd ref="260625709"/>
    <nd ref="260625711"/>
    <nd ref="260625712"/>
    <nd ref="260625713"/>
    <nd ref="260625715"/>
    <nd ref="260625716"/>
    <nd ref="260625718"/>
    <nd ref="323132427"/>
    <nd ref="323132308"/>
    <nd ref="260625720"/>
    <nd ref="260625722"/>
    <nd ref="260625723"/>
    <nd ref="260625724"/>
    <nd ref="260625725"/>
    <nd ref="260625726"/>
    <nd ref="260625727"/>
    <tag k="highway" v="footway"/>
  </way>
  <way id="25704483" version="6" timestamp="2009-12-30T17:31:43Z" uid="213209" user="gero_08" changeset="3491903">
    <nd ref="260625689"/>
    <nd ref="601530320"/>
    <nd ref="601530304"/>
    <tag k="highway" v="footway"/>
  </way>
  <way id="25704483" version="7" timestamp="2011-08-06T13:04:35Z" uid="331024" user="spürnase59" changeset="8937342">
    <nd ref="260625689"/>
    <nd ref="601530320"/>
    <nd ref="601530304"/>
    <tag k="bicycle" v="designated"/>
    <tag k="highway" v="footway"/>
  </way>
  <way id="25704494" version="2" timestamp="2010-07-09T07:38:06Z" uid="74617" user="JohnSmith" changeset="5171412">
    <nd ref="280246773"/>
    <nd ref="280246774"/>
    <tag k="highway" v="residential"/>
    <tag k="maxspeed" v="50"/>
    <tag k="maxspeed:source" v="default residential speed limit in Australia"/>
  </way>
  <way id="25704494" version="3" timestamp="2011-01-15T03:23:17Z" uid="4467" user="Rosscoe" changeset="6973513">
    <nd ref="280246773"/>
    <nd ref="1104205186"/>
    <nd ref="280246774"/>
    <tag k="highway" v="residential"/>
    <tag k="maxspeed" v="50"/>
    <tag k="maxspeed:source" v="default residential speed limit in Australia"/>
  </way>
  <way id="25704494" version="4" timestamp="2011-02-08T06:37:35Z" uid="325087" user="Palitu" changeset="7223675">
    <nd ref="280246773"/>
    <nd ref="1104205186"/>
    <nd ref="280246774"/>
    <tag k="highway" v="residential"/>
    <tag k="maxspeed" v="50"/>
    <tag k="maxspeed:source" v="default residential speed limit in Australia"/>
    <tag k="name" v="St James Mews"/>
  </way>
  <way id="25704494" version="5" timestamp="2012-01-17T00:46:06Z" uid="147510" user="woodpeck_fixbot" changeset="10412890">
    <nd ref="280246773"/>
    <nd ref="1104205186"/>
    <nd ref="280246774"/>
    <tag k="highway" v="residential"/>
    <tag k="name" v="St James Mews"/>
  </way>
  <way id="25704501" version="3" timestamp="2010-07-09T07:36:36Z" uid="74617" user="JohnSmith" changeset="5171412">
    <nd ref="280246825"/>
    <nd ref="280247135"/>
    <nd ref="280247387"/>
    <nd ref="280247136"/>
    <nd ref="280247388"/>
    <nd ref="280247389"/>
    <nd ref="280247139"/>
    <tag k="highway" v="residential"/>
    <tag k="maxspeed" v="50"/>
    <tag k="maxspeed:source" v="default residential speed limit in Australia"/>
  </way>
  <way id="25704501" version="4" timestamp="2011-02-08T06:37:31Z" uid="325087" user="Palitu" changeset="7223675">
    <nd ref="280246825"/>
    <nd ref="280247135"/>
    <nd ref="280247387"/>
    <nd ref="280247136"/>
    <nd ref="280247388"/>
    <nd ref="280247389"/>
    <nd ref="280247139"/>
    <tag k="highway" v="residential"/>
    <tag k="maxspeed" v="50"/>
    <tag k="maxspeed:source" v="default residential speed limit in Australia"/>
    <tag k="name" v="McGellin Court"/>
  </way>
  <way id="25704501" version="5" timestamp="2012-01-17T00:46:08Z" uid="147510" user="woodpeck_fixbot" changeset="10412890">
    <nd ref="280246825"/>
    <nd ref="280247135"/>
    <nd ref="280247387"/>
    <nd ref="280247136"/>
    <nd ref="280247388"/>
    <nd ref="280247389"/>
    <nd ref="280247139"/>
    <tag k="highway" v="residential"/>
    <tag k="name" v="McGellin Court"/>
  </way>
  <way id="25704525" version="4" timestamp="2010-07-09T07:37:06Z" uid="74617" user="JohnSmith" changeset="5171412">
    <nd ref="280247388"/>
    <nd ref="280247375"/>
    <nd ref="280247713"/>
    <nd ref="280247572"/>
    <nd ref="280247378"/>
    <nd ref="280247573"/>
    <nd ref="280247380"/>
    <tag k="highway" v="residential"/>
    <tag k="maxspeed" v="50"/>
    <tag k="maxspeed:source" v="default residential speed limit in Australia"/>
  </way>
  <way id="25704525" version="5" timestamp="2011-02-08T06:37:34Z" uid="325087" user="Palitu" changeset="7223675">
    <nd ref="280247388"/>
    <nd ref="280247375"/>
    <nd ref="280247713"/>
    <nd ref="280247572"/>
    <nd ref="280247378"/>
    <nd ref="280247573"/>
    <nd ref="280247380"/>
    <tag k="highway" v="residential"/>
    <tag k="maxspeed" v="50"/>
    <tag k="maxspeed:source" v="default residential speed limit in Australia"/>
    <tag k="name" v="Aylesbury Court"/>
  </way>
  <way id="25704525" version="6" timestamp="2012-01-17T00:46:09Z" uid="147510" user="woodpeck_fixbot" changeset="10412890">
    <nd ref="280247388"/>
    <nd ref="280247375"/>
    <nd ref="280247713"/>
    <nd ref="280247572"/>
    <nd ref="280247378"/>
    <nd ref="280247573"/>
    <nd ref="280247380"/>
    <tag k="highway" v="residential"/>
    <tag k="name" v="Aylesbury Court"/>
  </way>
  <way id="25704529" version="2" timestamp="2010-07-09T07:28:02Z" uid="74617" user="JohnSmith" changeset="5171412">
    <nd ref="280247387"/>
    <nd ref="280247527"/>
    <nd ref="280247528"/>
    <nd ref="280247529"/>
    <tag k="highway" v="residential"/>
    <tag k="maxspeed" v="50"/>
    <tag k="maxspeed:source" v="default residential speed limit in Australia"/>
  </way>
  <way id="25704529" version="3" timestamp="2011-01-15T03:23:10Z" uid="4467" user="Rosscoe" changeset="6973513">
    <nd ref="280247387"/>
    <nd ref="280247527"/>
    <nd ref="1104205228"/>
    <nd ref="280247528"/>
    <nd ref="1104205212"/>
    <nd ref="1104205223"/>
    <nd ref="280247529"/>
    <tag k="highway" v="residential"/>
    <tag k="maxspeed" v="50"/>
    <tag k="maxspeed:source" v="default residential speed limit in Australia"/>
  </way>
  <way id="25704529" version="4" timestamp="2011-02-08T06:37:35Z" uid="325087" user="Palitu" changeset="7223675">
    <nd ref="280247387"/>
    <nd ref="280247527"/>
    <nd ref="1104205228"/>
    <nd ref="280247528"/>
    <nd ref="1104205212"/>
    <nd ref="1104205223"/>
    <nd ref="280247529"/>
    <tag k="highway" v="residential"/>
    <tag k="maxspeed" v="50"/>
    <tag k="maxspeed:source" v="default residential speed limit in Australia"/>
    <tag k="name" v="Millcroft Elbow"/>
  </way>
  <way id="25704529" version="5" timestamp="2012-01-17T00:46:13Z" uid="147510" user="woodpeck_fixbot" changeset="10412890">
    <nd ref="280247387"/>
    <nd ref="280247527"/>
    <nd ref="1104205228"/>
    <nd ref="280247528"/>
    <nd ref="1104205212"/>
    <nd ref="1104205223"/>
    <nd ref="280247529"/>
    <tag k="highway" v="residential"/>
    <tag k="name" v="Millcroft Elbow"/>
  </way>
  <way id="25704535" version="2" timestamp="2010-07-09T07:34:34Z" uid="74617" user="JohnSmith" changeset="5171412">
    <nd ref="280247713"/>
    <nd ref="280247717"/>
    <nd ref="280247719"/>
    <tag k="highway" v="residential"/>
    <tag k="maxspeed" v="50"/>
    <tag k="maxspeed:source" v="default residential speed limit in Australia"/>
  </way>
  <way id="25704535" version="3" timestamp="2011-02-08T06:37:30Z" uid="325087" user="Palitu" changeset="7223675">
    <nd ref="280247713"/>
    <nd ref="280247717"/>
    <nd ref="280247719"/>
    <tag k="highway" v="residential"/>
    <tag k="maxspeed" v="50"/>
    <tag k="maxspeed:source" v="default residential speed limit in Australia"/>
    <tag k="name" v="Dorrey Place"/>
  </way>
  <way id="25704535" version="4" timestamp="2012-01-17T00:46:14Z" uid="147510" user="woodpeck_fixbot" changeset="10412890">
    <nd ref="280247713"/>
    <nd ref="280247717"/>
    <nd ref="280247719"/>
    <tag k="highway" v="residential"/>
    <tag k="name" v="Dorrey Place"/>
  </way>
  <way id="25704541" version="2" timestamp="2010-07-09T07:30:39Z" uid="74617" user="JohnSmith" changeset="5171412">
    <nd ref="280246097"/>
    <nd ref="280247917"/>
    <nd ref="280247918"/>
    <nd ref="280247919"/>
    <nd ref="280247920"/>
    <tag k="highway" v="residential"/>
    <tag k="maxspeed" v="50"/>
    <tag k="maxspeed:source" v="default residential speed limit in Australia"/>
  </way>
  <way id="25704541" version="3" timestamp="2011-02-08T06:37:31Z" uid="325087" user="Palitu" changeset="7223675">
    <nd ref="1141787815"/>
    <nd ref="1141787892"/>
    <nd ref="280247917"/>
    <nd ref="280247918"/>
    <nd ref="280247919"/>
    <nd ref="280247920"/>
    <tag k="highway" v="residential"/>
    <tag k="maxspeed" v="50"/>
    <tag k="maxspeed:source" v="default residential speed limit in Australia"/>
    <tag k="name" v="Glacier Way"/>
  </way>
  <way id="25704541" version="4" timestamp="2012-01-17T00:46:16Z" uid="147510" user="woodpeck_fixbot" changeset="10412890">
    <nd ref="1141787815"/>
    <nd ref="1141787892"/>
    <nd ref="280247917"/>
    <nd ref="280247918"/>
    <nd ref="280247919"/>
    <nd ref="280247920"/>
    <tag k="highway" v="residential"/>
    <tag k="name" v="Glacier Way"/>
  </way>
  <way id="25704580" version="2" timestamp="2010-07-09T07:37:54Z" uid="74617" user="JohnSmith" changeset="5171412">
    <nd ref="280248128"/>
    <nd ref="280248129"/>
    <tag k="highway" v="residential"/>
    <tag k="maxspeed" v="50"/>
    <tag k="maxspeed:source" v="default residential speed limit in Australia"/>
  </way>
  <way id="25704580" version="3" timestamp="2011-02-08T06:37:35Z" uid="325087" user="Palitu" changeset="7223675">
    <nd ref="280248128"/>
    <nd ref="280248129"/>
    <tag k="highway" v="residential"/>
    <tag k="maxspeed" v="50"/>
    <tag k="maxspeed:source" v="default residential speed limit in Australia"/>
    <tag k="name" v="Eadie Court"/>
  </way>
  <way id="25704580" version="4" timestamp="2012-01-17T00:46:18Z" uid="147510" user="woodpeck_fixbot" changeset="10412890">
    <nd ref="280248128"/>
    <nd ref="280248129"/>
    <tag k="highway" v="residential"/>
    <tag k="name" v="Eadie Court"/>
  </way>
  <way id="25704587" version="2" timestamp="2010-07-09T07:25:42Z" uid="74617" user="JohnSmith" changeset="5171412">
    <nd ref="280246090"/>
    <nd ref="280248174"/>
    <nd ref="280248175"/>
    <tag k="highway" v="residential"/>
    <tag k="maxspeed" v="50"/>
    <tag k="maxspeed:source" v="default residential speed limit in Australia"/>
  </way>
  <way id="25704587" version="3" timestamp="2011-02-08T06:37:31Z" uid="325087" user="Palitu" changeset="7223675">
    <nd ref="280246090"/>
    <nd ref="280248174"/>
    <nd ref="280248175"/>
    <tag k="highway" v="residential"/>
    <tag k="maxspeed" v="50"/>
    <tag k="maxspeed:source" v="default residential speed limit in Australia"/>
    <tag k="name" v="The Pines Grove"/>
  </way>
  <way id="25704587" version="4" timestamp="2012-01-17T00:46:21Z" uid="147510" user="woodpeck_fixbot" changeset="10412890">
    <nd ref="280246090"/>
    <nd ref="280248174"/>
    <nd ref="280248175"/>
    <tag k="highway" v="residential"/>
    <tag k="name" v="The Pines Grove"/>
  </way>
  <way id="25704591" version="2" timestamp="2010-07-09T07:39:39Z" uid="74617" user="JohnSmith" changeset="5171412">
    <nd ref="280247930"/>
    <nd ref="280248403"/>
    <nd ref="280248405"/>
    <tag k="highway" v="residential"/>
    <tag k="maxspeed" v="50"/>
    <tag k="maxspeed:source" v="default residential speed limit in Australia"/>
  </way>
  <way id="25704591" version="3" timestamp="2011-02-08T06:37:33Z" uid="325087" user="Palitu" changeset="7223675">
    <nd ref="1141787744"/>
    <nd ref="280248403"/>
    <nd ref="280248405"/>
    <tag k="highway" v="residential"/>
    <tag k="maxspeed" v="50"/>
    <tag k="maxspeed:source" v="default residential speed limit in Australia"/>
    <tag k="name" v="Bonville glen"/>
  </way>
  <way id="25704591" version="4" timestamp="2012-01-17T00:46:22Z" uid="147510" user="woodpeck_fixbot" changeset="10412890">
    <nd ref="1141787744"/>
    <nd ref="280248403"/>
    <nd ref="280248405"/>
    <tag k="highway" v="residential"/>
    <tag k="name" v="Bonville glen"/>
  </way>
  <way id="25704594" version="2" timestamp="2010-07-09T07:26:56Z" uid="74617" user="JohnSmith" changeset="5171412">
    <nd ref="280246812"/>
    <nd ref="280248510"/>
    <tag k="highway" v="residential"/>
    <tag k="maxspeed" v="50"/>
    <tag k="maxspeed:source" v="default residential speed limit in Australia"/>
  </way>
  <way id="25704594" version="3" timestamp="2012-01-17T00:46:23Z" uid="147510" user="woodpeck_fixbot" changeset="10412890">
    <nd ref="280246812"/>
    <nd ref="280248510"/>
    <tag k="highway" v="residential"/>
  </way>
  <way id="25704608" version="2" timestamp="2010-07-09T07:27:20Z" uid="74617" user="JohnSmith" changeset="5171412">
    <nd ref="280248140"/>
    <nd ref="280248733"/>
    <nd ref="280248734"/>
    <tag k="highway" v="residential"/>
    <tag k="maxspeed" v="50"/>
    <tag k="maxspeed:source" v="default residential speed limit in Australia"/>
  </way>
  <way id="25704608" version="3" timestamp="2011-02-08T06:37:36Z" uid="325087" user="Palitu" changeset="7223675"/>
  <way id="25704626" version="2" timestamp="2010-07-09T07:30:23Z" uid="74617" user="JohnSmith" changeset="5171412">
    <nd ref="280248735"/>
    <nd ref="280248774"/>
    <nd ref="280248775"/>
    <tag k="highway" v="residential"/>
    <tag k="maxspeed" v="50"/>
    <tag k="maxspeed:source" v="default residential speed limit in Australia"/>
  </way>
  <way id="25704626" version="3" timestamp="2012-01-17T00:46:27Z" uid="147510" user="woodpeck_fixbot" changeset="10412890">
    <nd ref="280248735"/>
    <nd ref="280248774"/>
    <nd ref="280248775"/>
    <tag k="highway" v="residential"/>
  </way>
  <way id="25704630" version="2" timestamp="2010-07-09T07:27:49Z" uid="74617" user="JohnSmith" changeset="5171412">
    <nd ref="280246061"/>
    <nd ref="280248850"/>
    <nd ref="280248851"/>
    <tag k="highway" v="residential"/>
    <tag k="maxspeed" v="50"/>
    <tag k="maxspeed:source" v="default residential speed limit in Australia"/>
  </way>
  <way id="25704630" version="3" timestamp="2011-02-08T06:37:30Z" uid="325087" user="Palitu" changeset="7223675">
    <nd ref="280246061"/>
    <nd ref="280248850"/>
    <nd ref="280248851"/>
    <tag k="highway" v="residential"/>
    <tag k="maxspeed" v="50"/>
    <tag k="maxspeed:source" v="default residential speed limit in Australia"/>
    <tag k="name" v="Coolum Mews"/>
  </way>
  <way id="25704630" version="4" timestamp="2012-01-17T00:46:30Z" uid="147510" user="woodpeck_fixbot" changeset="10412890">
    <nd ref="280246061"/>
    <nd ref="280248850"/>
    <nd ref="280248851"/>
    <tag k="highway" v="residential"/>
    <tag k="name" v="Coolum Mews"/>
  </way>
  <way id="25704634" version="2" timestamp="2010-07-09T07:34:56Z" uid="74617" user="JohnSmith" changeset="5171412">
    <nd ref="280245688"/>
    <nd ref="280248872"/>
    <nd ref="280248873"/>
    <nd ref="280248874"/>
    <nd ref="280248875"/>
    <nd ref="280248876"/>
    <nd ref="280248877"/>
    <nd ref="280248878"/>
    <nd ref="280248879"/>
    <nd ref="280248880"/>
    <nd ref="280248881"/>
    <tag k="highway" v="residential"/>
    <tag k="maxspeed" v="50"/>
    <tag k="maxspeed:source" v="default residential speed limit in Australia"/>
  </way>
  <way id="25704634" version="3" timestamp="2011-02-08T06:37:36Z" uid="325087" user="Palitu" changeset="7223675"/>
  <way id="25704642" version="2" timestamp="2010-07-09T07:26:08Z" uid="74617" user="JohnSmith" changeset="5171412">
    <nd ref="280248873"/>
    <nd ref="280248956"/>
    <nd ref="280248957"/>
    <nd ref="280248958"/>
    <nd ref="280248959"/>
    <tag k="highway" v="residential"/>
    <tag k="maxspeed" v="50"/>
    <tag k="maxspeed:source" v="default residential speed limit in Australia"/>
  </way>
  <way id="25704642" version="3" timestamp="2011-02-08T06:37:32Z" uid="325087" user="Palitu" changeset="7223675">
    <nd ref="280248873"/>
    <nd ref="280248956"/>
    <nd ref="280248957"/>
    <nd ref="280248958"/>
    <nd ref="280248959"/>
    <tag k="highway" v="residential"/>
    <tag k="maxspeed" v="50"/>
    <tag k="maxspeed:source" v="default residential speed limit in Australia"/>
    <tag k="name" v="Kooyonga Crescent"/>
  </way>
  <way id="25704642" version="4" timestamp="2012-01-17T00:46:32Z" uid="147510" user="woodpeck_fixbot" changeset="10412890">
    <nd ref="280248873"/>
    <nd ref="280248956"/>
    <nd ref="280248957"/>
    <nd ref="280248958"/>
    <nd ref="280248959"/>
    <tag k="highway" v="residential"/>
    <tag k="name" v="Kooyonga Crescent"/>
  </way>
  <way id="25704659" version="7" timestamp="2010-07-09T07:39:43Z" uid="74617" user="JohnSmith" changeset="5171412">
    <nd ref="280245688"/>
    <nd ref="280249138"/>
    <nd ref="280249139"/>
    <nd ref="280249213"/>
    <nd ref="280249398"/>
    <nd ref="280249216"/>
    <nd ref="280249235"/>
    <nd ref="280249607"/>
    <nd ref="280249219"/>
    <nd ref="280249150"/>
    <nd ref="280249756"/>
    <nd ref="280249153"/>
    <nd ref="280249210"/>
    <tag k="highway" v="residential"/>
    <tag k="maxspeed" v="50"/>
    <tag k="maxspeed:source" v="default residential speed limit in Australia"/>
  </way>
  <way id="25704659" version="8" timestamp="2011-02-08T06:37:36Z" uid="325087" user="Palitu" changeset="7223675"/>
  <way id="25704660" version="2" timestamp="2010-07-09T07:24:10Z" uid="74617" user="JohnSmith" changeset="5171412">
    <nd ref="280249210"/>
    <nd ref="280249155"/>
    <nd ref="280249156"/>
    <nd ref="280249211"/>
    <nd ref="280249159"/>
    <nd ref="280249160"/>
    <nd ref="280249139"/>
    <tag k="highway" v="residential"/>
    <tag k="maxspeed" v="50"/>
    <tag k="maxspeed:source" v="default residential speed limit in Australia"/>
  </way>
  <way id="25704660" version="3" timestamp="2011-02-08T06:42:54Z" uid="325087" user="Palitu" changeset="7223704">
    <nd ref="280249210"/>
    <nd ref="280249155"/>
    <nd ref="280249156"/>
    <nd ref="280249211"/>
    <nd ref="280249159"/>
    <nd ref="280249160"/>
    <nd ref="280249139"/>
    <tag k="highway" v="residential"/>
    <tag k="maxspeed" v="50"/>
    <tag k="maxspeed:source" v="default residential speed limit in Australia"/>
    <tag k="name" v="Kooralbyn Valley Crescent"/>
  </way>
  <way id="25704660" version="4" timestamp="2012-01-17T00:46:35Z" uid="147510" user="woodpeck_fixbot" changeset="10412890">
    <nd ref="280249210"/>
    <nd ref="280249155"/>
    <nd ref="280249156"/>
    <nd ref="280249211"/>
    <nd ref="280249159"/>
    <nd ref="280249160"/>
    <nd ref="280249139"/>
    <tag k="highway" v="residential"/>
    <tag k="name" v="Kooralbyn Valley Crescent"/>
  </way>
  <way id="25704694" version="2" timestamp="2010-07-09T07:36:59Z" uid="74617" user="JohnSmith" changeset="5171412">
    <nd ref="280249398"/>
    <nd ref="280249399"/>
    <nd ref="280249400"/>
    <nd ref="280249401"/>
    <nd ref="280249402"/>
    <tag k="highway" v="residential"/>
    <tag k="maxspeed" v="50"/>
    <tag k="maxspeed:source" v="default residential speed limit in Australia"/>
  </way>
  <way id="25704694" version="3" timestamp="2011-02-08T06:42:55Z" uid="325087" user="Palitu" changeset="7223704"/>
  <way id="25704700" version="3" timestamp="2010-07-09T07:32:15Z" uid="74617" user="JohnSmith" changeset="5171412">
    <nd ref="280249156"/>
    <nd ref="280249400"/>
    <tag k="highway" v="residential"/>
    <tag k="maxspeed" v="50"/>
    <tag k="maxspeed:source" v="default residential speed limit in Australia"/>
  </way>
  <way id="25704700" version="4" timestamp="2011-02-08T06:42:54Z" uid="325087" user="Palitu" changeset="7223704">
    <nd ref="280249156"/>
    <nd ref="280249400"/>
    <nd ref="280249399"/>
    <nd ref="280249398"/>
    <tag k="highway" v="residential"/>
    <tag k="maxspeed" v="50"/>
    <tag k="maxspeed:source" v="default residential speed limit in Australia"/>
    <tag k="name" v="Riversdale Pass"/>
  </way>
  <way id="25704700" version="5" timestamp="2012-01-17T00:46:37Z" uid="147510" user="woodpeck_fixbot" changeset="10412890">
    <nd ref="280249156"/>
    <nd ref="280249400"/>
    <nd ref="280249399"/>
    <nd ref="280249398"/>
    <tag k="highway" v="residential"/>
    <tag k="name" v="Riversdale Pass"/>
  </way>
  <way id="25704707" version="2" timestamp="2010-07-09T07:31:43Z" uid="74617" user="JohnSmith" changeset="5171412">
    <nd ref="280249607"/>
    <nd ref="280249752"/>
    <nd ref="280249753"/>
    <nd ref="280249754"/>
    <nd ref="280249755"/>
    <nd ref="280249756"/>
    <tag k="highway" v="residential"/>
    <tag k="maxspeed" v="50"/>
    <tag k="maxspeed:source" v="default residential speed limit in Australia"/>
  </way>
  <way id="25704707" version="3" timestamp="2011-02-08T06:42:54Z" uid="325087" user="Palitu" changeset="7223704">
    <nd ref="280249607"/>
    <nd ref="280249752"/>
    <nd ref="280249753"/>
    <nd ref="280249754"/>
    <nd ref="280249755"/>
    <nd ref="280249756"/>
    <tag k="highway" v="residential"/>
    <tag k="maxspeed" v="50"/>
    <tag k="maxspeed:source" v="default residential speed limit in Australia"/>
    <tag k="name" v="Woodlands Way"/>
  </way>
  <way id="25704707" version="4" timestamp="2012-01-17T00:46:39Z" uid="147510" user="woodpeck_fixbot" changeset="10412890">
    <nd ref="280249607"/>
    <nd ref="280249752"/>
    <nd ref="280249753"/>
    <nd ref="280249754"/>
    <nd ref="280249755"/>
    <nd ref="280249756"/>
    <tag k="highway" v="residential"/>
    <tag k="name" v="Woodlands Way"/>
  </way>
  <way id="25704711" version="3" timestamp="2010-07-09T07:29:10Z" uid="74617" user="JohnSmith" changeset="5171412">
    <nd ref="280245668"/>
    <nd ref="280249879"/>
    <nd ref="280249881"/>
    <tag k="highway" v="residential"/>
    <tag k="maxspeed" v="50"/>
    <tag k="maxspeed:source" v="default residential speed limit in Australia"/>
  </way>
  <way id="25704711" version="4" timestamp="2011-02-08T06:37:34Z" uid="325087" user="Palitu" changeset="7223675">
    <nd ref="280245668"/>
    <nd ref="280249879"/>
    <nd ref="280249881"/>
    <tag k="highway" v="residential"/>
    <tag k="maxspeed" v="50"/>
    <tag k="maxspeed:source" v="default residential speed limit in Australia"/>
    <tag k="name" v="Par Court"/>
  </way>
  <way id="25704711" version="5" timestamp="2012-01-17T00:46:41Z" uid="147510" user="woodpeck_fixbot" changeset="10412890">
    <nd ref="280245668"/>
    <nd ref="280249879"/>
    <nd ref="280249881"/>
    <tag k="highway" v="residential"/>
    <tag k="name" v="Par Court"/>
  </way>
  <way id="25704882" version="2" timestamp="2010-07-09T07:27:15Z" uid="74617" user="JohnSmith" changeset="5171412">
    <nd ref="280253882"/>
    <nd ref="280254542"/>
    <nd ref="280254543"/>
    <nd ref="280254544"/>
    <nd ref="280254545"/>
    <nd ref="280254546"/>
    <nd ref="280254548"/>
    <nd ref="280254549"/>
    <nd ref="280254550"/>
    <nd ref="280254551"/>
    <nd ref="280254553"/>
    <nd ref="280254554"/>
    <nd ref="280254555"/>
    <nd ref="280254556"/>
    <nd ref="280254557"/>
    <nd ref="280254558"/>
    <nd ref="280254560"/>
    <tag k="highway" v="residential"/>
    <tag k="maxspeed" v="50"/>
    <tag k="maxspeed:source" v="default residential speed limit in Australia"/>
  </way>
  <way id="25704882" version="3" timestamp="2010-12-15T10:00:29Z" uid="383880" user="phair" changeset="6665901">
    <nd ref="280253882"/>
    <nd ref="280254542"/>
    <nd ref="280254543"/>
    <nd ref="280254544"/>
    <nd ref="280254545"/>
    <nd ref="280254546"/>
    <nd ref="280254548"/>
    <nd ref="280254549"/>
    <nd ref="280254550"/>
    <nd ref="280254551"/>
    <nd ref="280254553"/>
    <nd ref="280254554"/>
    <nd ref="280254555"/>
    <nd ref="280254556"/>
    <nd ref="280254557"/>
    <nd ref="280254558"/>
    <nd ref="280254560"/>
    <tag k="highway" v="residential"/>
    <tag k="maxspeed" v="50"/>
    <tag k="maxspeed:source" v="default residential speed limit in Australia"/>
    <tag k="name" v="Glendale Crescent"/>
  </way>
  <way id="25704882" version="4" timestamp="2011-02-08T06:37:35Z" uid="325087" user="Palitu" changeset="7223675">
    <nd ref="280253882"/>
    <nd ref="280254542"/>
    <nd ref="280254543"/>
    <nd ref="280254544"/>
    <nd ref="280254545"/>
    <nd ref="280254546"/>
    <nd ref="280254548"/>
    <nd ref="280254549"/>
    <nd ref="280254550"/>
    <nd ref="280254551"/>
    <nd ref="280254553"/>
    <nd ref="280254554"/>
    <nd ref="280254555"/>
    <nd ref="280254556"/>
    <nd ref="280254557"/>
    <nd ref="280254558"/>
    <nd ref="280254560"/>
    <tag k="highway" v="residential"/>
    <tag k="maxspeed" v="50"/>
    <tag k="maxspeed:source" v="default residential speed limit in Australia"/>
    <tag k="name" v="Glendale Crescent"/>
  </way>
  <way id="25704882" version="5" timestamp="2012-01-17T00:46:43Z" uid="147510" user="woodpeck_fixbot" changeset="10412890">
    <nd ref="280253882"/>
    <nd ref="280254542"/>
    <nd ref="280254543"/>
    <nd ref="280254544"/>
    <nd ref="280254545"/>
    <nd ref="280254546"/>
    <nd ref="280254548"/>
    <nd ref="280254549"/>
    <nd ref="280254550"/>
    <nd ref="280254551"/>
    <nd ref="280254553"/>
    <nd ref="280254554"/>
    <nd ref="280254555"/>
    <nd ref="280254556"/>
    <nd ref="280254557"/>
    <nd ref="280254558"/>
    <nd ref="280254560"/>
    <tag k="highway" v="residential"/>
    <tag k="name" v="Glendale Crescent"/>
  </way>
  <way id="25704885" version="2" timestamp="2010-07-09T07:34:35Z" uid="74617" user="JohnSmith" changeset="5171412">
    <nd ref="280254558"/>
    <nd ref="280254690"/>
    <tag k="highway" v="residential"/>
    <tag k="maxspeed" v="50"/>
    <tag k="maxspeed:source" v="default residential speed limit in Australia"/>
  </way>
  <way id="25704885" version="3" timestamp="2011-02-08T06:37:34Z" uid="325087" user="Palitu" changeset="7223675">
    <nd ref="280254558"/>
    <nd ref="280254690"/>
    <tag k="highway" v="residential"/>
    <tag k="maxspeed" v="50"/>
    <tag k="maxspeed:source" v="default residential speed limit in Australia"/>
    <tag k="name" v="Banksia Court"/>
  </way>
  <way id="25704885" version="4" timestamp="2012-01-17T00:46:46Z" uid="147510" user="woodpeck_fixbot" changeset="10412890">
    <nd ref="280254558"/>
    <nd ref="280254690"/>
    <tag k="highway" v="residential"/>
    <tag k="name" v="Banksia Court"/>
  </way>
  <way id="25704983" version="2" timestamp="2010-07-09T07:32:18Z" uid="74617" user="JohnSmith" changeset="5171412">
    <nd ref="280254546"/>
    <nd ref="280254796"/>
    <tag k="highway" v="residential"/>
    <tag k="maxspeed" v="50"/>
    <tag k="maxspeed:source" v="default residential speed limit in Australia"/>
  </way>
  <way id="25704983" version="3" timestamp="2011-02-08T06:37:32Z" uid="325087" user="Palitu" changeset="7223675">
    <nd ref="280254546"/>
    <nd ref="280254796"/>
    <tag k="highway" v="residential"/>
    <tag k="maxspeed" v="50"/>
    <tag k="maxspeed:source" v="default residential speed limit in Australia"/>
    <tag k="name" v="Flora Court"/>
  </way>
  <way id="25704983" version="4" timestamp="2012-01-17T00:46:47Z" uid="147510" user="woodpeck_fixbot" changeset="10412890">
    <nd ref="280254546"/>
    <nd ref="280254796"/>
    <tag k="highway" v="residential"/>
    <tag k="name" v="Flora Court"/>
  </way>
</osm>
