<?xml version='1.0' encoding='UTF-8'?>
<osm version="0.6" generator="libosmium/2.20.0">
  <way id="25715010" version="7" timestamp="2010-11-06T22:18:48Z" uid="16922" user="amai" changeset="6307005">
    <nd ref="280387351"/>
    <nd ref="269347995"/>
    <tag k="bridge" v="yes"/>
    <tag k="highway" v="secondary"/>
    <tag k="layer" v="1"/>
    <tag k="name" v="สะพานพระปิ่นเกล้า"/>
    <tag k="name:en" v="Phra Pin-klao Bridge"/>
    <tag k="name:th" v="สะพานพระปิ่นเกล้า"/>
    <tag k="oneway" v="true"/>
  </way>
  <way id="25715010" version="8" timestamp="2011-06-29T13:52:17Z" uid="328321" user="medecember" changeset="8581216">
    <nd ref="280387351"/>
    <nd ref="269347995"/>
    <tag k="bridge" v="yes"/>
    <tag k="highway" v="secondary"/>
    <tag k="int_name" v="Somdet Phra Pin Klao Bridge"/>
    <tag k="lanes" v="3"/>
    <tag k="layer" v="1"/>
    <tag k="name" v="สะพานสมเด็จพระปิ่นเกล้า"/>
    <tag k="name:en" v="Somdet Phra Pin Klao Bridge"/>
    <tag k="name:th" v="สะพานสมเด็จพระปิ่นเกล้า"/>
    <tag k="oneway" v="true"/>
  </way>
  <way id="25715011" version="7" timestamp="2010-11-06T22:18:45Z" uid="16922" user="amai" changeset="6307005">
    <nd ref="280387286"/>
    <nd ref="280387354"/>
    <tag k="bridge" v="yes"/>
    <tag k="highway" v="secondary"/>
    <tag k="layer" v="1"/>
    <tag k="name" v="สะพานพระปิ่นเกล้า"/>
    <tag k="name:en" v="Phra Pin-klao Bridge"/>
    <tag k="name:th" v="สะพานพระปิ่นเกล้า"/>
    <tag k="oneway" v="true"/>
  </way>
  <way id="25715011" version="8" timestamp="2011-06-29T13:52:18Z" uid="328321" user="medecember" changeset="8581216">
    <nd ref="280387286"/>
    <nd ref="280387354"/>
    <tag k="bridge" v="yes"/>
    <tag k="highway" v="secondary"/>
    <tag k="int_name" v="Somdet Phra Pin Klao Bridge"/>
    <tag k="lanes" v="3"/>
    <tag k="layer" v="1"/>
    <tag k="name" v="สะพานสมเด็จพระปิ่นเกล้า"/>
    <tag k="name:en" v="Somdet Phra Pin Klao Bridge"/>
    <tag k="name:th" v="สะพานสมเด็จพระปิ่นเกล้า"/>
    <tag k="oneway" v="true"/>
  </way>
  <way id="25715178" version="4" timestamp="2010-11-06T21:29:58Z" uid="16922" user="amai" changeset="6306604">
    <nd ref="312063229"/>
    <nd ref="312063230"/>
    <nd ref="312063231"/>
    <nd ref="280388164"/>
    <nd ref="280388165"/>
    <nd ref="280388166"/>
    <nd ref="268242851"/>
    <nd ref="268242660"/>
    <nd ref="268242657"/>
    <nd ref="268242654"/>
    <nd ref="268242651"/>
    <nd ref="979726898"/>
    <nd ref="268242649"/>
    <nd ref="268242646"/>
    <nd ref="268242644"/>
    <nd ref="268242641"/>
    <nd ref="268242639"/>
    <nd ref="268242636"/>
    <nd ref="268242634"/>
    <tag k="highway" v="tertiary"/>
    <tag k="oneway" v="yes"/>
  </way>
  <way id="25715178" version="5" timestamp="2012-02-18T11:36:04Z" uid="61891" user="stephankn" changeset="10719147">
    <nd ref="312063229"/>
    <nd ref="312063230"/>
    <nd ref="312063231"/>
    <nd ref="280388164"/>
    <nd ref="280388165"/>
    <nd ref="1637549249"/>
    <nd ref="268242851"/>
    <nd ref="268242660"/>
    <nd ref="268242657"/>
    <nd ref="268242654"/>
    <nd ref="268242651"/>
    <nd ref="268242649"/>
    <nd ref="268242646"/>
    <nd ref="268242644"/>
    <nd ref="268242641"/>
    <nd ref="268242639"/>
    <nd ref="268242636"/>
    <nd ref="268242634"/>
    <tag k="highway" v="tertiary"/>
    <tag k="oneway" v="yes"/>
  </way>
  <way id="25715178" version="6" timestamp="2012-03-02T14:50:27Z" uid="100662" user="Paul_012" changeset="10849088">
    <nd ref="1656024361"/>
    <nd ref="312063231"/>
    <nd ref="280388164"/>
    <nd ref="280388165"/>
    <nd ref="1637549249"/>
    <nd ref="268242851"/>
    <nd ref="268242660"/>
    <nd ref="268242657"/>
    <nd ref="268242654"/>
    <nd ref="268242651"/>
    <nd ref="268242649"/>
    <nd ref="268242646"/>
    <nd ref="268242644"/>
    <nd ref="268242641"/>
    <nd ref="268242639"/>
    <nd ref="268242636"/>
    <nd ref="268242634"/>
    <tag k="highway" v="tertiary"/>
    <tag k="oneway" v="yes"/>
  </way>
  <way id="25715178" version="7" timestamp="2012-03-23T06:14:51Z" uid="100662" user="Paul_012" changeset="11070631">
    <nd ref="1656024361"/>
    <nd ref="312063231"/>
    <nd ref="280388164"/>
    <nd ref="280388165"/>
    <nd ref="1637549249"/>
    <nd ref="268242851"/>
    <nd ref="268242660"/>
    <nd ref="268242657"/>
    <nd ref="268242654"/>
    <nd ref="268242651"/>
    <nd ref="268242649"/>
    <nd ref="268242646"/>
    <nd ref="268242644"/>
    <nd ref="268242641"/>
    <nd ref="268242639"/>
    <nd ref="268242636"/>
    <nd ref="268242634"/>
    <tag k="highway" v="tertiary"/>
    <tag k="oneway" v="yes"/>
  </way>
  <way id="25715178" version="8" timestamp="2012-03-27T16:54:37Z" uid="510836" user="Rub21" changeset="11117752">
    <nd ref="1656024361"/>
    <nd ref="312063231"/>
    <nd ref="280388164"/>
    <nd ref="280388165"/>
    <nd ref="1637549249"/>
    <nd ref="268242851"/>
    <nd ref="268242660"/>
    <nd ref="268242657"/>
    <nd ref="268242654"/>
    <nd ref="268242651"/>
    <nd ref="1693436774"/>
    <nd ref="1693436772"/>
    <nd ref="268242649"/>
    <nd ref="268242646"/>
    <nd ref="268242644"/>
    <nd ref="1693436710"/>
    <nd ref="268242641"/>
    <nd ref="268242639"/>
    <nd ref="268242636"/>
    <nd ref="268242634"/>
    <tag k="highway" v="tertiary"/>
    <tag k="oneway" v="yes"/>
  </way>
  <way id="25715184" version="1" timestamp="2008-07-23T03:38:03Z" uid="30201" user="rrankin" changeset="577653">
    <nd ref="19134757"/>
    <nd ref="19134758"/>
    <nd ref="19134760"/>
    <nd ref="19134761"/>
    <nd ref="19134762"/>
    <nd ref="19134763"/>
    <nd ref="19134765"/>
    <nd ref="19134766"/>
    <nd ref="19134767"/>
    <nd ref="19134770"/>
    <nd ref="19134771"/>
    <nd ref="19134776"/>
    <nd ref="19134780"/>
    <nd ref="19134784"/>
    <nd ref="19134788"/>
    <nd ref="19134792"/>
    <nd ref="19134797"/>
    <nd ref="19134801"/>
    <nd ref="19134804"/>
    <nd ref="19134808"/>
    <nd ref="19134812"/>
    <nd ref="19134814"/>
    <nd ref="19134818"/>
    <nd ref="19134821"/>
    <nd ref="19134822"/>
    <nd ref="19134823"/>
    <nd ref="19134824"/>
    <nd ref="19134825"/>
    <tag k="created_by" v="Potlatch 0.10"/>
    <tag k="cycleway" v="track"/>
    <tag k="foot" v="yes"/>
    <tag k="highway" v="cycleway"/>
    <tag k="name" v="M7 Cycleway"/>
    <tag k="rcn" v="yes"/>
    <tag k="rcn_ref" v="M7 Cycleway"/>
  </way>
  <way id="25715184" version="2" timestamp="2010-11-15T06:03:02Z" uid="320632" user="Zulu99" changeset="6375027">
    <nd ref="19134757"/>
    <nd ref="19134758"/>
    <nd ref="19134760"/>
    <nd ref="19134761"/>
    <nd ref="19134762"/>
    <nd ref="19134763"/>
    <nd ref="19134765"/>
    <nd ref="19134766"/>
    <nd ref="19134767"/>
    <nd ref="19134770"/>
    <nd ref="19134771"/>
    <nd ref="19134776"/>
    <nd ref="19134780"/>
    <nd ref="19134784"/>
    <nd ref="19134788"/>
    <nd ref="19134792"/>
    <nd ref="19134797"/>
    <nd ref="19134801"/>
    <nd ref="19134804"/>
    <nd ref="19134808"/>
    <nd ref="19134812"/>
    <nd ref="19134814"/>
    <nd ref="19134818"/>
    <nd ref="19134821"/>
    <nd ref="19134822"/>
    <nd ref="19134823"/>
    <nd ref="19134824"/>
    <nd ref="19134825"/>
    <tag k="bicycle" v="yes"/>
    <tag k="cycleway" v="track"/>
    <tag k="foot" v="yes"/>
    <tag k="highway" v="cycleway"/>
    <tag k="name" v="M7 Cycleway"/>
    <tag k="rcn" v="yes"/>
    <tag k="rcn_ref" v="M7 Cycleway"/>
  </way>
  <way id="25715184" version="3" timestamp="2011-03-08T04:39:34Z" uid="9719" user="dvaey" changeset="7491043">
    <nd ref="19134757"/>
    <nd ref="1192203799"/>
    <nd ref="19134758"/>
    <nd ref="19134760"/>
    <nd ref="19134761"/>
    <nd ref="19134762"/>
    <nd ref="19134763"/>
    <nd ref="19134765"/>
    <nd ref="19134766"/>
    <nd ref="19134767"/>
    <nd ref="19134770"/>
    <nd ref="19134771"/>
    <nd ref="19134776"/>
    <nd ref="19134780"/>
    <nd ref="19134784"/>
    <nd ref="19134788"/>
    <nd ref="19134792"/>
    <nd ref="19134797"/>
    <nd ref="19134801"/>
    <nd ref="19134804"/>
    <nd ref="19134808"/>
    <nd ref="19134812"/>
    <nd ref="19134814"/>
    <nd ref="19134818"/>
    <nd ref="19134821"/>
    <nd ref="19134822"/>
    <nd ref="19134823"/>
    <nd ref="19134824"/>
    <nd ref="19134825"/>
    <tag k="bicycle" v="yes"/>
    <tag k="cycleway" v="track"/>
    <tag k="foot" v="yes"/>
    <tag k="highway" v="cycleway"/>
    <tag k="name" v="M7 Cycleway"/>
    <tag k="rcn" v="yes"/>
    <tag k="rcn_ref" v="M7 Cycleway"/>
  </way>
  <way id="25715184" version="4" timestamp="2012-03-29T00:44:54Z" uid="7523" user="inas" changeset="11132661">
    <nd ref="19134757"/>
    <nd ref="1192203799"/>
    <nd ref="19134758"/>
    <nd ref="19134760"/>
    <nd ref="19134761"/>
    <nd ref="19134762"/>
    <nd ref="19134763"/>
    <nd ref="19134765"/>
    <nd ref="19134766"/>
    <nd ref="19134767"/>
    <nd ref="19134770"/>
    <nd ref="19134771"/>
    <nd ref="19134776"/>
    <nd ref="19134780"/>
    <nd ref="1695391027"/>
    <nd ref="1695391026"/>
    <tag k="bicycle" v="yes"/>
    <tag k="cycleway" v="track"/>
    <tag k="foot" v="yes"/>
    <tag k="highway" v="cycleway"/>
    <tag k="name" v="M7 Cycleway"/>
    <tag k="rcn" v="yes"/>
    <tag k="rcn_ref" v="M7 Cycleway"/>
  </way>
  <way id="25715185" version="1" timestamp="2008-07-23T03:38:04Z" uid="30201" user="rrankin" changeset="577653">
    <nd ref="19134755"/>
    <nd ref="19134757"/>
    <tag k="bridge" v="yes"/>
    <tag k="created_by" v="Potlatch 0.10"/>
    <tag k="cycleway" v="track"/>
    <tag k="foot" v="yes"/>
    <tag k="highway" v="cycleway"/>
    <tag k="layer" v="1"/>
    <tag k="name" v="M7 Cycleway"/>
    <tag k="rcn" v="yes"/>
    <tag k="rcn_ref" v="M7 Cycleway"/>
  </way>
  <way id="25715185" version="2" timestamp="2008-07-28T09:21:36Z" uid="52818" user="Wing Nut" changeset="611653">
    <nd ref="19134755"/>
    <nd ref="281686016"/>
    <nd ref="19134757"/>
    <tag k="bridge" v="yes"/>
    <tag k="created_by" v="Potlatch 0.10"/>
    <tag k="cycleway" v="track"/>
    <tag k="foot" v="yes"/>
    <tag k="highway" v="cycleway"/>
    <tag k="layer" v="1"/>
    <tag k="name" v="M7 Cycleway"/>
    <tag k="rcn" v="yes"/>
    <tag k="rcn_ref" v="M7 Cycleway"/>
  </way>
  <way id="25715185" version="3" timestamp="2010-11-15T06:03:12Z" uid="320632" user="Zulu99" changeset="6375027">
    <nd ref="19134755"/>
    <nd ref="281686016"/>
    <nd ref="19134757"/>
    <tag k="bicycle" v="yes"/>
    <tag k="bridge" v="yes"/>
    <tag k="cycleway" v="track"/>
    <tag k="foot" v="yes"/>
    <tag k="highway" v="cycleway"/>
    <tag k="layer" v="1"/>
    <tag k="name" v="M7 Cycleway"/>
    <tag k="rcn" v="yes"/>
    <tag k="rcn_ref" v="M7 Cycleway"/>
  </way>
  <way id="25715185" version="4" timestamp="2011-03-08T04:39:34Z" uid="9719" user="dvaey" changeset="7491043">
    <nd ref="19134755"/>
    <nd ref="19134757"/>
    <tag k="bicycle" v="yes"/>
    <tag k="bridge" v="yes"/>
    <tag k="cycleway" v="track"/>
    <tag k="foot" v="yes"/>
    <tag k="highway" v="cycleway"/>
    <tag k="layer" v="1"/>
    <tag k="name" v="M7 Cycleway"/>
    <tag k="rcn" v="yes"/>
    <tag k="rcn_ref" v="M7 Cycleway"/>
  </way>
  <way id="25715186" version="1" timestamp="2008-07-23T03:38:05Z" uid="30201" user="rrankin" changeset="577653">
    <nd ref="280388180"/>
    <nd ref="34145488"/>
    <nd ref="34145490"/>
    <nd ref="34145493"/>
    <nd ref="34145496"/>
    <nd ref="34145500"/>
    <nd ref="280387270"/>
    <tag k="created_by" v="Tways 0.2"/>
    <tag k="highway" v="motorway"/>
    <tag k="name" v="Westlink"/>
    <tag k="oneway" v="yes"/>
    <tag k="ref" v="M7"/>
  </way>
  <way id="25715186" version="2" timestamp="2009-12-28T06:09:32Z" uid="12203" user="brainwad" changeset="3468863">
    <nd ref="280388180"/>
    <nd ref="34145488"/>
    <nd ref="34145490"/>
    <nd ref="34145493"/>
    <nd ref="34145496"/>
    <nd ref="34145500"/>
    <nd ref="280387270"/>
    <tag k="highway" v="motorway"/>
    <tag k="lanes" v="2"/>
    <tag k="maxspeed" v="signals"/>
    <tag k="name" v="Westlink"/>
    <tag k="oneway" v="yes"/>
    <tag k="ref" v="M7"/>
  </way>
  <way id="25715186" version="3" timestamp="2010-03-29T07:38:42Z" uid="74617" user="JohnSmith" changeset="4264737">
    <nd ref="280388180"/>
    <nd ref="34145488"/>
    <nd ref="34145490"/>
    <nd ref="34145493"/>
    <nd ref="34145496"/>
    <nd ref="34145500"/>
    <nd ref="280387270"/>
    <tag k="highway" v="motorway"/>
    <tag k="lanes" v="2"/>
    <tag k="maxspeed" v="signals"/>
    <tag k="oneway" v="yes"/>
  </way>
  <way id="25715186" version="4" timestamp="2010-06-18T01:23:24Z" uid="299678" user="peteramjet" changeset="5013360">
    <nd ref="280388180"/>
    <nd ref="34145488"/>
    <nd ref="34145490"/>
    <nd ref="34145493"/>
    <nd ref="34145496"/>
    <nd ref="34145500"/>
    <nd ref="280387270"/>
    <tag k="highway" v="motorway"/>
    <tag k="lanes" v="2"/>
    <tag k="maxspeed" v="signals"/>
    <tag k="name" v="Westlink M7"/>
    <tag k="oneway" v="yes"/>
  </way>
  <way id="25715186" version="5" timestamp="2010-06-27T07:15:05Z" uid="299678" user="peteramjet" changeset="5086859">
    <nd ref="280388180"/>
    <nd ref="34145488"/>
    <nd ref="34145490"/>
    <nd ref="34145493"/>
    <nd ref="34145496"/>
    <nd ref="34145500"/>
    <nd ref="280387270"/>
    <tag k="highway" v="motorway"/>
    <tag k="maxspeed" v="signals"/>
    <tag k="name" v="Westlink M7"/>
    <tag k="oneway" v="yes"/>
    <tag k="ref" v="M7"/>
  </way>
  <way id="25715186" version="6" timestamp="2010-06-27T23:42:02Z" uid="299678" user="peteramjet" changeset="5094127">
    <nd ref="280388180"/>
    <nd ref="34145488"/>
    <nd ref="34145490"/>
    <nd ref="34145493"/>
    <nd ref="34145496"/>
    <nd ref="34145500"/>
    <nd ref="280387270"/>
    <tag k="highway" v="motorway"/>
    <tag k="lanes" v="2"/>
    <tag k="maxspeed" v="signals"/>
    <tag k="name" v="Westlink M7"/>
    <tag k="oneway" v="yes"/>
  </way>
  <way id="25715186" version="7" timestamp="2010-06-30T11:26:25Z" uid="299678" user="peteramjet" changeset="5112617">
    <nd ref="280388180"/>
    <nd ref="34145488"/>
    <nd ref="34145490"/>
    <nd ref="34145493"/>
    <nd ref="34145496"/>
    <nd ref="34145500"/>
    <nd ref="280387270"/>
    <tag k="highway" v="motorway"/>
    <tag k="lanes" v="2"/>
    <tag k="maxspeed" v="signals"/>
    <tag k="name" v="Westlink M7"/>
    <tag k="oneway" v="yes"/>
    <tag k="ref" v="M7"/>
  </way>
  <way id="25715186" version="8" timestamp="2010-07-08T11:28:50Z" uid="299678" user="peteramjet" changeset="5165369">
    <nd ref="280388180"/>
    <nd ref="34145488"/>
    <nd ref="34145490"/>
    <nd ref="34145493"/>
    <nd ref="34145496"/>
    <nd ref="34145500"/>
    <nd ref="280387270"/>
    <tag k="highway" v="motorway"/>
    <tag k="lanes" v="2"/>
    <tag k="maxspeed" v="signals"/>
    <tag k="name" v="Westlink M7"/>
    <tag k="oneway" v="yes"/>
  </way>
  <way id="25715186" version="9" timestamp="2011-03-08T04:39:37Z" uid="9719" user="dvaey" changeset="7491043">
    <nd ref="280388180"/>
    <nd ref="34145488"/>
    <nd ref="34145490"/>
    <nd ref="34145493"/>
    <nd ref="1192203869"/>
    <nd ref="34145496"/>
    <nd ref="34145500"/>
    <nd ref="280387270"/>
    <tag k="highway" v="motorway"/>
    <tag k="lanes" v="2"/>
    <tag k="maxspeed" v="signals"/>
    <tag k="name" v="Westlink M7"/>
    <tag k="oneway" v="yes"/>
  </way>
  <way id="25715186" version="10" timestamp="2011-06-28T03:18:08Z" uid="11111" user="melb_guy" changeset="8567906">
    <nd ref="280388180"/>
    <nd ref="34145488"/>
    <nd ref="34145490"/>
    <nd ref="34145493"/>
    <nd ref="1192203869"/>
    <nd ref="34145496"/>
    <nd ref="34145500"/>
    <nd ref="280387270"/>
    <tag k="highway" v="motorway"/>
    <tag k="lanes" v="2"/>
    <tag k="maxspeed" v="signals"/>
    <tag k="name" v="Westlink M7"/>
    <tag k="oneway" v="yes"/>
    <tag k="toll" v="yes"/>
  </way>
  <way id="25715186" version="11" timestamp="2012-01-30T07:29:05Z" uid="54784" user="Tom Hollander" changeset="10536990">
    <nd ref="280388180"/>
    <nd ref="34145488"/>
    <nd ref="34145490"/>
    <nd ref="34145493"/>
    <nd ref="1192203869"/>
    <nd ref="34145496"/>
    <nd ref="34145500"/>
    <nd ref="280387270"/>
    <tag k="highway" v="motorway"/>
    <tag k="lanes" v="2"/>
    <tag k="maxspeed" v="100"/>
    <tag k="name" v="Westlink M7"/>
    <tag k="oneway" v="yes"/>
    <tag k="ref" v="M7"/>
    <tag k="toll" v="yes"/>
  </way>
  <way id="25715186" version="12" timestamp="2012-03-27T21:29:16Z" uid="7523" user="inas" changeset="11121216"/>
  <way id="25715187" version="1" timestamp="2008-07-23T03:38:06Z" uid="30201" user="rrankin" changeset="577653">
    <nd ref="280388181"/>
    <nd ref="33036575"/>
    <tag k="bridge" v="yes"/>
    <tag k="created_by" v="Potlatch alpha"/>
    <tag k="highway" v="motorway"/>
    <tag k="layer" v="1"/>
    <tag k="name" v="Westlink"/>
    <tag k="oneway" v="yes"/>
    <tag k="ref" v="M7"/>
  </way>
  <way id="25715187" version="2" timestamp="2009-12-28T06:09:34Z" uid="12203" user="brainwad" changeset="3468863">
    <nd ref="280388181"/>
    <nd ref="33036575"/>
    <tag k="bridge" v="yes"/>
    <tag k="highway" v="motorway"/>
    <tag k="lanes" v="2"/>
    <tag k="layer" v="1"/>
    <tag k="maxspeed" v="signals"/>
    <tag k="name" v="Westlink"/>
    <tag k="oneway" v="yes"/>
    <tag k="ref" v="M7"/>
  </way>
  <way id="25715187" version="3" timestamp="2010-03-29T07:38:43Z" uid="74617" user="JohnSmith" changeset="4264737">
    <nd ref="280388181"/>
    <nd ref="33036575"/>
    <tag k="bridge" v="yes"/>
    <tag k="highway" v="motorway"/>
    <tag k="lanes" v="2"/>
    <tag k="layer" v="1"/>
    <tag k="maxspeed" v="signals"/>
    <tag k="oneway" v="yes"/>
  </way>
  <way id="25715187" version="4" timestamp="2010-06-18T01:23:22Z" uid="299678" user="peteramjet" changeset="5013360">
    <nd ref="280388181"/>
    <nd ref="33036575"/>
    <tag k="bridge" v="yes"/>
    <tag k="highway" v="motorway"/>
    <tag k="lanes" v="2"/>
    <tag k="layer" v="1"/>
    <tag k="maxspeed" v="signals"/>
    <tag k="name" v="Westlink M7"/>
    <tag k="oneway" v="yes"/>
  </way>
  <way id="25715187" version="5" timestamp="2010-06-30T11:26:19Z" uid="299678" user="peteramjet" changeset="5112617">
    <nd ref="280388181"/>
    <nd ref="33036575"/>
    <tag k="bridge" v="yes"/>
    <tag k="highway" v="motorway"/>
    <tag k="lanes" v="2"/>
    <tag k="layer" v="1"/>
    <tag k="maxspeed" v="signals"/>
    <tag k="name" v="Westlink M7"/>
    <tag k="oneway" v="yes"/>
    <tag k="ref" v="M7"/>
  </way>
  <way id="25715187" version="6" timestamp="2010-07-08T11:28:48Z" uid="299678" user="peteramjet" changeset="5165369">
    <nd ref="280388181"/>
    <nd ref="33036575"/>
    <tag k="bridge" v="yes"/>
    <tag k="highway" v="motorway"/>
    <tag k="lanes" v="2"/>
    <tag k="layer" v="1"/>
    <tag k="maxspeed" v="signals"/>
    <tag k="name" v="Westlink M7"/>
    <tag k="oneway" v="yes"/>
  </way>
  <way id="25715187" version="7" timestamp="2011-06-28T03:18:08Z" uid="11111" user="melb_guy" changeset="8567906">
    <nd ref="280388181"/>
    <nd ref="33036575"/>
    <tag k="bridge" v="yes"/>
    <tag k="highway" v="motorway"/>
    <tag k="lanes" v="2"/>
    <tag k="layer" v="1"/>
    <tag k="maxspeed" v="signals"/>
    <tag k="name" v="Westlink M7"/>
    <tag k="oneway" v="yes"/>
    <tag k="toll" v="yes"/>
  </way>
  <way id="25715187" version="8" timestamp="2012-01-30T07:29:06Z" uid="54784" user="Tom Hollander" changeset="10536990">
    <nd ref="280388181"/>
    <nd ref="33036575"/>
    <tag k="bridge" v="yes"/>
    <tag k="highway" v="motorway"/>
    <tag k="lanes" v="2"/>
    <tag k="layer" v="1"/>
    <tag k="maxspeed" v="100"/>
    <tag k="name" v="Westlink M7"/>
    <tag k="oneway" v="yes"/>
    <tag k="ref" v="M7"/>
    <tag k="toll" v="yes"/>
  </way>
  <way id="25715187" version="9" timestamp="2012-03-27T21:29:17Z" uid="7523" user="inas" changeset="11121216"/>
  <way id="25715188" version="1" timestamp="2008-07-23T03:38:07Z" uid="30201" user="rrankin" changeset="577653">
    <nd ref="34145484"/>
    <nd ref="280388180"/>
    <tag k="bridge" v="yes"/>
    <tag k="created_by" v="Tways 0.2"/>
    <tag k="highway" v="motorway"/>
    <tag k="layer" v="1"/>
    <tag k="name" v="Westlink"/>
    <tag k="oneway" v="yes"/>
    <tag k="ref" v="M7"/>
  </way>
  <way id="25715188" version="2" timestamp="2009-12-28T06:09:34Z" uid="12203" user="brainwad" changeset="3468863">
    <nd ref="34145484"/>
    <nd ref="280388180"/>
    <tag k="bridge" v="yes"/>
    <tag k="highway" v="motorway"/>
    <tag k="lanes" v="2"/>
    <tag k="layer" v="1"/>
    <tag k="maxspeed" v="signals"/>
    <tag k="name" v="Westlink"/>
    <tag k="oneway" v="yes"/>
    <tag k="ref" v="M7"/>
  </way>
  <way id="25715188" version="3" timestamp="2010-03-29T07:38:43Z" uid="74617" user="JohnSmith" changeset="4264737">
    <nd ref="34145484"/>
    <nd ref="280388180"/>
    <tag k="bridge" v="yes"/>
    <tag k="highway" v="motorway"/>
    <tag k="lanes" v="2"/>
    <tag k="layer" v="1"/>
    <tag k="maxspeed" v="signals"/>
    <tag k="oneway" v="yes"/>
  </way>
  <way id="25715188" version="4" timestamp="2010-06-18T01:23:23Z" uid="299678" user="peteramjet" changeset="5013360">
    <nd ref="34145484"/>
    <nd ref="280388180"/>
    <tag k="bridge" v="yes"/>
    <tag k="highway" v="motorway"/>
    <tag k="lanes" v="2"/>
    <tag k="layer" v="1"/>
    <tag k="maxspeed" v="signals"/>
    <tag k="name" v="Westlink M7"/>
    <tag k="oneway" v="yes"/>
  </way>
  <way id="25715188" version="5" timestamp="2010-06-30T11:26:22Z" uid="299678" user="peteramjet" changeset="5112617">
    <nd ref="34145484"/>
    <nd ref="280388180"/>
    <tag k="bridge" v="yes"/>
    <tag k="highway" v="motorway"/>
    <tag k="lanes" v="2"/>
    <tag k="layer" v="1"/>
    <tag k="maxspeed" v="signals"/>
    <tag k="name" v="Westlink M7"/>
    <tag k="oneway" v="yes"/>
    <tag k="ref" v="M7"/>
  </way>
  <way id="25715188" version="6" timestamp="2010-07-10T08:24:50Z" uid="299678" user="peteramjet" changeset="5180284">
    <nd ref="34145484"/>
    <nd ref="280388180"/>
    <tag k="bridge" v="yes"/>
    <tag k="highway" v="motorway"/>
    <tag k="lanes" v="2"/>
    <tag k="layer" v="1"/>
    <tag k="maxspeed" v="signals"/>
    <tag k="name" v="Westlink M7"/>
    <tag k="oneway" v="yes"/>
  </way>
  <way id="25715188" version="7" timestamp="2011-06-28T03:18:08Z" uid="11111" user="melb_guy" changeset="8567906">
    <nd ref="34145484"/>
    <nd ref="280388180"/>
    <tag k="bridge" v="yes"/>
    <tag k="highway" v="motorway"/>
    <tag k="lanes" v="2"/>
    <tag k="layer" v="1"/>
    <tag k="maxspeed" v="signals"/>
    <tag k="name" v="Westlink M7"/>
    <tag k="oneway" v="yes"/>
    <tag k="toll" v="yes"/>
  </way>
  <way id="25715188" version="8" timestamp="2012-01-30T07:29:06Z" uid="54784" user="Tom Hollander" changeset="10536990">
    <nd ref="34145484"/>
    <nd ref="280388180"/>
    <tag k="bridge" v="yes"/>
    <tag k="highway" v="motorway"/>
    <tag k="lanes" v="2"/>
    <tag k="layer" v="1"/>
    <tag k="maxspeed" v="100"/>
    <tag k="name" v="Westlink M7"/>
    <tag k="oneway" v="yes"/>
    <tag k="ref" v="M7"/>
    <tag k="toll" v="yes"/>
  </way>
  <way id="25715188" version="9" timestamp="2012-03-27T21:29:17Z" uid="7523" user="inas" changeset="11121216"/>
  <way id="25715189" version="1" timestamp="2008-07-23T03:38:08Z" uid="30201" user="rrankin" changeset="577653">
    <nd ref="33036575"/>
    <nd ref="33036576"/>
    <nd ref="33036577"/>
    <nd ref="33036578"/>
    <nd ref="33036579"/>
    <nd ref="33036580"/>
    <nd ref="33036584"/>
    <nd ref="33036592"/>
    <nd ref="33036624"/>
    <nd ref="33036625"/>
    <nd ref="33036626"/>
    <nd ref="33036630"/>
    <nd ref="33036631"/>
    <nd ref="33036632"/>
    <nd ref="33036633"/>
    <nd ref="33036634"/>
    <nd ref="33036635"/>
    <nd ref="33036636"/>
    <nd ref="33036637"/>
    <nd ref="33036638"/>
    <nd ref="33036639"/>
    <nd ref="33036643"/>
    <nd ref="33036644"/>
    <nd ref="33036645"/>
    <nd ref="33036646"/>
    <nd ref="33036647"/>
    <nd ref="33036650"/>
    <nd ref="33036653"/>
    <nd ref="33036654"/>
    <nd ref="33036655"/>
    <nd ref="33036657"/>
    <nd ref="33036660"/>
    <nd ref="33036661"/>
    <tag k="created_by" v="Potlatch alpha"/>
    <tag k="highway" v="motorway"/>
    <tag k="name" v="Westlink"/>
    <tag k="oneway" v="yes"/>
    <tag k="ref" v="M7"/>
  </way>
  <way id="25715189" version="2" timestamp="2008-07-25T01:27:20Z" uid="30201" user="rrankin" changeset="587621">
    <nd ref="33036575"/>
    <nd ref="33036576"/>
    <nd ref="33036577"/>
    <nd ref="33036578"/>
    <nd ref="33036579"/>
    <nd ref="280896468"/>
    <tag k="created_by" v="Potlatch alpha"/>
    <tag k="highway" v="motorway"/>
    <tag k="name" v="Westlink"/>
    <tag k="oneway" v="yes"/>
    <tag k="ref" v="M7"/>
  </way>
  <way id="25715189" version="3" timestamp="2009-12-28T06:09:33Z" uid="12203" user="brainwad" changeset="3468863">
    <nd ref="33036575"/>
    <nd ref="33036576"/>
    <nd ref="33036577"/>
    <nd ref="33036578"/>
    <nd ref="33036579"/>
    <nd ref="280896468"/>
    <tag k="highway" v="motorway"/>
    <tag k="lanes" v="2"/>
    <tag k="maxspeed" v="signals"/>
    <tag k="name" v="Westlink"/>
    <tag k="oneway" v="yes"/>
    <tag k="ref" v="M7"/>
  </way>
  <way id="25715189" version="4" timestamp="2010-03-29T07:38:43Z" uid="74617" user="JohnSmith" changeset="4264737">
    <nd ref="33036575"/>
    <nd ref="33036576"/>
    <nd ref="33036577"/>
    <nd ref="33036578"/>
    <nd ref="33036579"/>
    <nd ref="280896468"/>
    <tag k="highway" v="motorway"/>
    <tag k="lanes" v="2"/>
    <tag k="maxspeed" v="signals"/>
    <tag k="oneway" v="yes"/>
  </way>
  <way id="25715189" version="5" timestamp="2010-06-18T01:23:25Z" uid="299678" user="peteramjet" changeset="5013360">
    <nd ref="33036575"/>
    <nd ref="33036576"/>
    <nd ref="33036577"/>
    <nd ref="33036578"/>
    <nd ref="33036579"/>
    <nd ref="280896468"/>
    <tag k="highway" v="motorway"/>
    <tag k="lanes" v="2"/>
    <tag k="maxspeed" v="signals"/>
    <tag k="name" v="Westlink M7"/>
    <tag k="oneway" v="yes"/>
  </way>
  <way id="25715189" version="6" timestamp="2010-06-19T02:35:14Z" uid="299678" user="peteramjet" changeset="5020602">
    <nd ref="33036575"/>
    <nd ref="33036576"/>
    <nd ref="33036577"/>
    <nd ref="775913604"/>
    <nd ref="33036578"/>
    <nd ref="33036579"/>
    <nd ref="280896468"/>
    <tag k="highway" v="motorway"/>
    <tag k="lanes" v="2"/>
    <tag k="maxspeed" v="signals"/>
    <tag k="name" v="Westlink M7"/>
    <tag k="oneway" v="yes"/>
  </way>
  <way id="25715189" version="7" timestamp="2010-06-27T07:15:25Z" uid="299678" user="peteramjet" changeset="5086859">
    <nd ref="33036575"/>
    <nd ref="33036576"/>
    <nd ref="33036577"/>
    <nd ref="775913604"/>
    <nd ref="33036578"/>
    <nd ref="33036579"/>
    <nd ref="280896468"/>
    <tag k="highway" v="motorway"/>
    <tag k="maxspeed" v="signals"/>
    <tag k="name" v="Westlink M7"/>
    <tag k="oneway" v="yes"/>
    <tag k="ref" v="M7"/>
  </way>
  <way id="25715189" version="8" timestamp="2010-06-27T23:42:01Z" uid="299678" user="peteramjet" changeset="5094127">
    <nd ref="33036575"/>
    <nd ref="33036576"/>
    <nd ref="33036577"/>
    <nd ref="775913604"/>
    <nd ref="33036578"/>
    <nd ref="33036579"/>
    <nd ref="280896468"/>
    <tag k="highway" v="motorway"/>
    <tag k="lanes" v="2"/>
    <tag k="maxspeed" v="signals"/>
    <tag k="name" v="Westlink M7"/>
    <tag k="oneway" v="yes"/>
  </way>
  <way id="25715189" version="9" timestamp="2010-06-30T11:26:20Z" uid="299678" user="peteramjet" changeset="5112617">
    <nd ref="33036575"/>
    <nd ref="33036576"/>
    <nd ref="33036577"/>
    <nd ref="775913604"/>
    <nd ref="33036578"/>
    <nd ref="33036579"/>
    <nd ref="280896468"/>
    <tag k="highway" v="motorway"/>
    <tag k="lanes" v="2"/>
    <tag k="maxspeed" v="signals"/>
    <tag k="name" v="Westlink M7"/>
    <tag k="oneway" v="yes"/>
    <tag k="ref" v="M7"/>
  </way>
  <way id="25715189" version="10" timestamp="2010-07-08T11:28:46Z" uid="299678" user="peteramjet" changeset="5165369">
    <nd ref="33036575"/>
    <nd ref="33036576"/>
    <nd ref="33036577"/>
    <nd ref="775913604"/>
    <nd ref="33036578"/>
    <nd ref="33036579"/>
    <nd ref="280896468"/>
    <tag k="highway" v="motorway"/>
    <tag k="lanes" v="2"/>
    <tag k="maxspeed" v="signals"/>
    <tag k="name" v="Westlink M7"/>
    <tag k="oneway" v="yes"/>
  </way>
  <way id="25715189" version="11" timestamp="2011-03-08T04:39:33Z" uid="9719" user="dvaey" changeset="7491043">
    <nd ref="33036575"/>
    <nd ref="1192203754"/>
    <nd ref="33036576"/>
    <nd ref="1192203747"/>
    <nd ref="33036577"/>
    <nd ref="775913604"/>
    <nd ref="33036578"/>
    <nd ref="33036579"/>
    <nd ref="280896468"/>
    <tag k="highway" v="motorway"/>
    <tag k="lanes" v="2"/>
    <tag k="maxspeed" v="signals"/>
    <tag k="name" v="Westlink M7"/>
    <tag k="oneway" v="yes"/>
  </way>
  <way id="25715189" version="12" timestamp="2011-06-28T03:18:08Z" uid="11111" user="melb_guy" changeset="8567906">
    <nd ref="33036575"/>
    <nd ref="1192203754"/>
    <nd ref="33036576"/>
    <nd ref="1192203747"/>
    <nd ref="33036577"/>
    <nd ref="775913604"/>
    <nd ref="33036578"/>
    <nd ref="33036579"/>
    <nd ref="280896468"/>
    <tag k="highway" v="motorway"/>
    <tag k="lanes" v="2"/>
    <tag k="maxspeed" v="signals"/>
    <tag k="name" v="Westlink M7"/>
    <tag k="oneway" v="yes"/>
    <tag k="toll" v="yes"/>
  </way>
  <way id="25715189" version="13" timestamp="2012-01-30T07:29:06Z" uid="54784" user="Tom Hollander" changeset="10536990">
    <nd ref="33036575"/>
    <nd ref="1192203754"/>
    <nd ref="33036576"/>
    <nd ref="1192203747"/>
    <nd ref="33036577"/>
    <nd ref="775913604"/>
    <nd ref="33036578"/>
    <nd ref="33036579"/>
    <nd ref="280896468"/>
    <tag k="highway" v="motorway"/>
    <tag k="lanes" v="2"/>
    <tag k="maxspeed" v="100"/>
    <tag k="name" v="Westlink M7"/>
    <tag k="oneway" v="yes"/>
    <tag k="ref" v="M7"/>
    <tag k="toll" v="yes"/>
  </way>
  <way id="25715189" version="14" timestamp="2012-03-27T21:29:18Z" uid="7523" user="inas" changeset="11121216"/>
  <way id="25715190" version="1" timestamp="2008-07-23T03:38:10Z" uid="30201" user="rrankin" changeset="577653">
    <nd ref="280388185"/>
    <nd ref="280388187"/>
    <nd ref="280388188"/>
    <nd ref="245823870"/>
    <nd ref="280388190"/>
    <nd ref="280388192"/>
    <nd ref="280388185"/>
    <tag k="created_by" v="Potlatch 0.7a"/>
    <tag k="highway" v="residential"/>
    <tag k="junction" v="roundabout"/>
    <tag k="name" v="Green Valley Road"/>
  </way>
  <way id="25715190" version="2" timestamp="2009-12-20T13:59:37Z" uid="7617" user="Franc" changeset="3413695">
    <nd ref="280388185"/>
    <nd ref="597268323"/>
    <nd ref="280388187"/>
    <nd ref="597268322"/>
    <nd ref="280388188"/>
    <nd ref="597268319"/>
    <nd ref="245823870"/>
    <nd ref="597268320"/>
    <nd ref="280388190"/>
    <nd ref="597268321"/>
    <nd ref="280388192"/>
    <nd ref="597268324"/>
    <nd ref="280388185"/>
    <tag k="highway" v="residential"/>
    <tag k="junction" v="roundabout"/>
    <tag k="name" v="Green Valley Road"/>
  </way>
  <way id="25715190" version="3" timestamp="2010-07-07T22:35:56Z" uid="74617" user="JohnSmith" changeset="5162525">
    <nd ref="280388185"/>
    <nd ref="597268323"/>
    <nd ref="280388187"/>
    <nd ref="597268322"/>
    <nd ref="280388188"/>
    <nd ref="597268319"/>
    <nd ref="245823870"/>
    <nd ref="597268320"/>
    <nd ref="280388190"/>
    <nd ref="597268321"/>
    <nd ref="280388192"/>
    <nd ref="597268324"/>
    <nd ref="280388185"/>
    <tag k="highway" v="residential"/>
    <tag k="junction" v="roundabout"/>
    <tag k="maxspeed" v="50"/>
    <tag k="maxspeed:source" v="default residential speed limit in Australia"/>
    <tag k="name" v="Green Valley Road"/>
  </way>
  <way id="25715190" version="4" timestamp="2012-01-17T00:47:10Z" uid="147510" user="woodpeck_fixbot" changeset="10412890">
    <nd ref="280388185"/>
    <nd ref="597268323"/>
    <nd ref="280388187"/>
    <nd ref="597268322"/>
    <nd ref="280388188"/>
    <nd ref="597268319"/>
    <nd ref="245823870"/>
    <nd ref="597268320"/>
    <nd ref="280388190"/>
    <nd ref="597268321"/>
    <nd ref="280388192"/>
    <nd ref="597268324"/>
    <nd ref="280388185"/>
    <tag k="highway" v="residential"/>
    <tag k="junction" v="roundabout"/>
    <tag k="name" v="Green Valley Road"/>
  </way>
  <way id="25715191" version="1" timestamp="2008-07-23T03:38:11Z" uid="30201" user="rrankin" changeset="577653">
    <nd ref="280388187"/>
    <nd ref="245824180"/>
    <nd ref="280388186"/>
    <nd ref="245824183"/>
    <nd ref="245824185"/>
    <nd ref="245824186"/>
    <nd ref="245824187"/>
    <nd ref="245824188"/>
    <nd ref="245844633"/>
    <nd ref="245824189"/>
    <nd ref="245824190"/>
    <nd ref="245845146"/>
    <nd ref="245824191"/>
    <nd ref="245824192"/>
    <nd ref="245824193"/>
    <nd ref="245824194"/>
    <nd ref="245824195"/>
    <nd ref="245824196"/>
    <nd ref="245824197"/>
    <nd ref="245824198"/>
    <nd ref="245824199"/>
    <tag k="created_by" v="Potlatch 0.7"/>
    <tag k="highway" v="residential"/>
  </way>
  <way id="25715191" version="2" timestamp="2008-07-24T03:22:46Z" uid="30201" user="rrankin" changeset="585050">
    <nd ref="280388187"/>
    <nd ref="245824180"/>
    <nd ref="280388186"/>
    <nd ref="245824183"/>
    <nd ref="245824185"/>
    <nd ref="280639012"/>
    <tag k="created_by" v="Potlatch 0.7"/>
    <tag k="highway" v="residential"/>
    <tag k="name" v="Whitford Road"/>
    <tag k="oneway" v="yes"/>
  </way>
  <way id="25715191" version="3" timestamp="2009-12-20T13:59:32Z" uid="7617" user="Franc" changeset="3413695">
    <nd ref="280388187"/>
    <nd ref="597268316"/>
    <nd ref="245824180"/>
    <nd ref="597268318"/>
    <nd ref="280388186"/>
    <nd ref="597268301"/>
    <nd ref="245824183"/>
    <nd ref="597268308"/>
    <nd ref="597268303"/>
    <nd ref="245824185"/>
    <nd ref="597268295"/>
    <nd ref="597268289"/>
    <nd ref="280639012"/>
    <tag k="highway" v="residential"/>
    <tag k="name" v="Whitford Road"/>
    <tag k="oneway" v="yes"/>
  </way>
  <way id="25715191" version="4" timestamp="2010-07-07T22:27:35Z" uid="74617" user="JohnSmith" changeset="5162525">
    <nd ref="280388187"/>
    <nd ref="597268316"/>
    <nd ref="245824180"/>
    <nd ref="597268318"/>
    <nd ref="280388186"/>
    <nd ref="597268301"/>
    <nd ref="245824183"/>
    <nd ref="597268308"/>
    <nd ref="597268303"/>
    <nd ref="245824185"/>
    <nd ref="597268295"/>
    <nd ref="597268289"/>
    <nd ref="280639012"/>
    <tag k="highway" v="residential"/>
    <tag k="maxspeed" v="50"/>
    <tag k="maxspeed:source" v="default residential speed limit in Australia"/>
    <tag k="name" v="Whitford Road"/>
    <tag k="oneway" v="yes"/>
  </way>
  <way id="25715191" version="5" timestamp="2012-01-17T00:47:12Z" uid="147510" user="woodpeck_fixbot" changeset="10412890">
    <nd ref="280388187"/>
    <nd ref="597268316"/>
    <nd ref="245824180"/>
    <nd ref="597268318"/>
    <nd ref="280388186"/>
    <nd ref="597268301"/>
    <nd ref="245824183"/>
    <nd ref="597268308"/>
    <nd ref="597268303"/>
    <nd ref="245824185"/>
    <nd ref="597268295"/>
    <nd ref="597268289"/>
    <nd ref="280639012"/>
    <tag k="highway" v="residential"/>
    <tag k="name" v="Whitford Road"/>
    <tag k="oneway" v="yes"/>
  </way>
  <way id="25715192" version="1" timestamp="2008-07-23T03:38:12Z" uid="30201" user="rrankin" changeset="577653">
    <nd ref="280388185"/>
    <nd ref="280388193"/>
    <nd ref="47786630"/>
    <tag k="created_by" v="Potlatch 0.7a"/>
    <tag k="highway" v="residential"/>
    <tag k="name" v="Green Valley Road"/>
  </way>
  <way id="25715192" version="2" timestamp="2008-07-24T03:22:46Z" uid="30201" user="rrankin" changeset="585050">
    <nd ref="280388185"/>
    <nd ref="280388193"/>
    <nd ref="280639008"/>
    <nd ref="47786630"/>
    <tag k="created_by" v="Potlatch 0.7a"/>
    <tag k="highway" v="residential"/>
    <tag k="name" v="Green Valley Road"/>
  </way>
  <way id="25715192" version="3" timestamp="2008-08-10T14:06:19Z" uid="12203" user="brainwad" changeset="172520">
    <nd ref="280388185"/>
    <nd ref="280388193"/>
    <nd ref="280639008"/>
    <nd ref="47786630"/>
    <tag k="created_by" v="Potlatch 0.10b"/>
    <tag k="highway" v="residential"/>
    <tag k="name" v="Green Valley Road"/>
  </way>
  <way id="25715192" version="4" timestamp="2008-11-04T04:14:57Z" uid="30201" user="rrankin" changeset="679294">
    <nd ref="280388185"/>
    <nd ref="280388193"/>
    <nd ref="309814247"/>
    <nd ref="309814249"/>
    <nd ref="280639008"/>
    <nd ref="47786630"/>
    <tag k="created_by" v="Potlatch 0.10b"/>
    <tag k="highway" v="residential"/>
    <tag k="name" v="Green Valley Road"/>
  </way>
  <way id="25715192" version="5" timestamp="2008-12-09T03:42:43Z" uid="10413" user="Go Team K" changeset="280282">
    <nd ref="280388185"/>
    <nd ref="280388193"/>
    <nd ref="309814247"/>
    <nd ref="317502218"/>
    <nd ref="309814249"/>
    <nd ref="280639008"/>
    <nd ref="47786630"/>
    <tag k="created_by" v="Potlatch 0.10f"/>
    <tag k="highway" v="residential"/>
    <tag k="name" v="Green Valley Road"/>
  </way>
  <way id="25715192" version="6" timestamp="2009-11-26T03:14:55Z" uid="30201" user="rrankin" changeset="3217625">
    <nd ref="280388185"/>
    <nd ref="280388193"/>
    <nd ref="309814247"/>
    <nd ref="317502218"/>
    <nd ref="309814249"/>
    <nd ref="571323776"/>
    <nd ref="280639008"/>
    <nd ref="47786630"/>
    <tag k="highway" v="residential"/>
    <tag k="name" v="Green Valley Road"/>
  </way>
  <way id="25715192" version="7" timestamp="2010-07-07T22:29:02Z" uid="74617" user="JohnSmith" changeset="5162525">
    <nd ref="280388185"/>
    <nd ref="280388193"/>
    <nd ref="309814247"/>
    <nd ref="317502218"/>
    <nd ref="309814249"/>
    <nd ref="571323776"/>
    <nd ref="280639008"/>
    <nd ref="47786630"/>
    <tag k="highway" v="residential"/>
    <tag k="maxspeed" v="50"/>
    <tag k="maxspeed:source" v="default residential speed limit in Australia"/>
    <tag k="name" v="Green Valley Road"/>
  </way>
  <way id="25715192" version="8" timestamp="2012-01-17T00:47:13Z" uid="147510" user="woodpeck_fixbot" changeset="10412890">
    <nd ref="280388185"/>
    <nd ref="280388193"/>
    <nd ref="309814247"/>
    <nd ref="317502218"/>
    <nd ref="309814249"/>
    <nd ref="571323776"/>
    <nd ref="280639008"/>
    <nd ref="47786630"/>
    <tag k="highway" v="residential"/>
    <tag k="name" v="Green Valley Road"/>
  </way>
  <way id="25715261" version="11" timestamp="2010-09-24T19:35:48Z" uid="16922" user="amai" changeset="5865828">
    <nd ref="280388695"/>
    <nd ref="280388696"/>
    <nd ref="312063214"/>
    <nd ref="280388697"/>
    <nd ref="280388698"/>
    <nd ref="312063229"/>
    <nd ref="280388169"/>
    <nd ref="280387915"/>
    <nd ref="312063273"/>
    <nd ref="312063284"/>
    <nd ref="312063278"/>
    <tag k="highway" v="secondary"/>
    <tag k="name:en" v="Ratchadamnoen Nok Avenue"/>
  </way>
  <way id="25715261" version="12" timestamp="2011-07-26T13:29:02Z" uid="495178" user="pixelwand" changeset="8835525">
    <nd ref="280388695"/>
    <nd ref="280388696"/>
    <nd ref="312063214"/>
    <nd ref="280388697"/>
    <nd ref="280388698"/>
    <nd ref="312063229"/>
    <nd ref="280388169"/>
    <nd ref="280387915"/>
    <nd ref="312063273"/>
    <nd ref="312063284"/>
    <nd ref="312063278"/>
    <tag k="highway" v="secondary"/>
    <tag k="name" v="Thanon Ratchadamnoen Nok"/>
    <tag k="name:en" v="Ratchadamnoen Nok Avenue"/>
    <tag k="oneway" v="no"/>
  </way>
  <way id="25715261" version="13" timestamp="2012-02-05T08:11:41Z" uid="159027" user="geritsel" changeset="10591146">
    <nd ref="280388695"/>
    <nd ref="280388696"/>
    <nd ref="312063214"/>
    <nd ref="280388697"/>
    <nd ref="280388698"/>
    <nd ref="312063229"/>
    <nd ref="280388169"/>
    <nd ref="280387915"/>
    <nd ref="312063273"/>
    <nd ref="312063284"/>
    <nd ref="1618612205"/>
    <nd ref="312063278"/>
    <tag k="highway" v="secondary"/>
    <tag k="name" v="Thanon Ratchadamnoen Nok"/>
    <tag k="name:en" v="Ratchadamnoen Nok Avenue"/>
    <tag k="oneway" v="no"/>
  </way>
  <way id="25715261" version="14" timestamp="2012-03-02T14:50:23Z" uid="100662" user="Paul_012" changeset="10849088">
    <nd ref="280388695"/>
    <nd ref="280388696"/>
    <nd ref="312063214"/>
    <nd ref="280388697"/>
    <nd ref="280388698"/>
    <nd ref="312063229"/>
    <nd ref="280388169"/>
    <nd ref="280387915"/>
    <nd ref="312063273"/>
    <nd ref="312063284"/>
    <nd ref="312063278"/>
    <tag k="highway" v="secondary"/>
    <tag k="name" v="ถนนราชดำเนินนอก"/>
    <tag k="name:en" v="Ratchadamnoen Nok Avenue"/>
    <tag k="name:th" v="ถนนราชดำเนินนอก"/>
    <tag k="oneway" v="no"/>
  </way>
  <way id="25715356" version="16" timestamp="2011-02-11T18:11:21Z" uid="16922" user="amai" changeset="7257622">
    <nd ref="280389187"/>
    <nd ref="1147690512"/>
    <nd ref="479664511"/>
    <nd ref="479664512"/>
    <nd ref="479664513"/>
    <nd ref="479664514"/>
    <tag k="highway" v="motorway_link"/>
    <tag k="oneway" v="yes"/>
    <tag k="toll" v="yes"/>
  </way>
  <way id="25715356" version="17" timestamp="2012-02-15T23:21:38Z" uid="61891" user="stephankn" changeset="10697748"/>
  <way id="25715395" version="19" timestamp="2010-09-25T16:10:48Z" uid="16922" user="amai" changeset="5872223">
    <nd ref="330923605"/>
    <nd ref="359628895"/>
    <nd ref="359628896"/>
    <nd ref="925555648"/>
    <nd ref="359628897"/>
    <nd ref="359628898"/>
    <nd ref="359628899"/>
    <nd ref="359628901"/>
    <nd ref="359628902"/>
    <nd ref="359759118"/>
    <nd ref="280389348"/>
    <nd ref="359619867"/>
    <nd ref="280389364"/>
    <nd ref="359617606"/>
    <nd ref="359617685"/>
    <nd ref="280389346"/>
    <nd ref="269740352"/>
    <tag k="highway" v="secondary"/>
    <tag k="name" v="ถนนเจริญราษฎร์"/>
    <tag k="name:en" v="Thanon Charoen Rat"/>
    <tag k="name:th" v="ถนนเจริญราษฎร์"/>
    <tag k="oneway" v="true"/>
  </way>
  <way id="25715395" version="20" timestamp="2010-11-06T16:20:54Z" uid="16922" user="amai" changeset="6303778">
    <nd ref="330923605"/>
    <nd ref="359628895"/>
    <nd ref="359628896"/>
    <nd ref="925555648"/>
    <nd ref="359628897"/>
    <nd ref="359628898"/>
    <nd ref="359628899"/>
    <nd ref="359628901"/>
    <nd ref="979217727"/>
    <nd ref="359628902"/>
    <nd ref="359759118"/>
    <nd ref="280389348"/>
    <nd ref="359619867"/>
    <nd ref="280389364"/>
    <nd ref="359617606"/>
    <nd ref="359617685"/>
    <nd ref="280389346"/>
    <nd ref="269740352"/>
    <tag k="highway" v="secondary"/>
    <tag k="name" v="ถนนเจริญราษฎร์"/>
    <tag k="name:en" v="Thanon Charoen Rat"/>
    <tag k="name:th" v="ถนนเจริญราษฎร์"/>
    <tag k="oneway" v="true"/>
  </way>
  <way id="25715395" version="21" timestamp="2011-03-24T14:43:43Z" uid="324599" user="Exilschorsch" changeset="7656476">
    <nd ref="330923605"/>
    <nd ref="359628895"/>
    <nd ref="359628896"/>
    <nd ref="925555648"/>
    <nd ref="359628897"/>
    <nd ref="359628898"/>
    <nd ref="359628899"/>
    <nd ref="359628901"/>
    <nd ref="979217727"/>
    <nd ref="359628902"/>
    <nd ref="1215968178"/>
    <nd ref="359759118"/>
    <nd ref="280389348"/>
    <nd ref="359619867"/>
    <nd ref="280389364"/>
    <nd ref="359617606"/>
    <nd ref="359617685"/>
    <nd ref="280389346"/>
    <nd ref="269740352"/>
    <tag k="highway" v="secondary"/>
    <tag k="name" v="ถนนเจริญราษฎร์"/>
    <tag k="name:en" v="Thanon Charoen Rat"/>
    <tag k="name:th" v="ถนนเจริญราษฎร์"/>
    <tag k="oneway" v="true"/>
  </way>
  <way id="25715395" version="22" timestamp="2011-03-26T13:57:25Z" uid="16922" user="amai" changeset="7675687">
    <nd ref="330923605"/>
    <nd ref="359628895"/>
    <nd ref="359628896"/>
    <nd ref="925555648"/>
    <nd ref="359628897"/>
    <nd ref="359628898"/>
    <nd ref="359628899"/>
    <nd ref="359628901"/>
    <nd ref="1219029516"/>
    <nd ref="979217727"/>
    <nd ref="359628902"/>
    <nd ref="1215968178"/>
    <nd ref="359759118"/>
    <nd ref="280389348"/>
    <nd ref="359619867"/>
    <nd ref="280389364"/>
    <nd ref="359617606"/>
    <nd ref="359617685"/>
    <nd ref="280389346"/>
    <nd ref="269740352"/>
    <tag k="highway" v="secondary"/>
    <tag k="name" v="ถนนเจริญราษฎร์"/>
    <tag k="name:en" v="Thanon Charoen Rat"/>
    <tag k="name:th" v="ถนนเจริญราษฎร์"/>
    <tag k="oneway" v="true"/>
  </way>
  <way id="25715395" version="23" timestamp="2011-11-16T15:06:45Z" uid="29320" user="Komяpa" changeset="9845452">
    <nd ref="330923605"/>
    <nd ref="359628895"/>
    <nd ref="359628896"/>
    <nd ref="925555648"/>
    <nd ref="359628897"/>
    <nd ref="359628898"/>
    <nd ref="359628899"/>
    <nd ref="359628901"/>
    <nd ref="1219029516"/>
    <nd ref="979217727"/>
    <nd ref="359628902"/>
    <nd ref="1505233513"/>
    <nd ref="1215968178"/>
    <nd ref="359759118"/>
    <nd ref="280389348"/>
    <nd ref="359619867"/>
    <nd ref="280389364"/>
    <nd ref="359617606"/>
    <nd ref="359617685"/>
    <nd ref="280389346"/>
    <nd ref="269740352"/>
    <tag k="highway" v="secondary"/>
    <tag k="name" v="ถนนเจริญราษฎร์"/>
    <tag k="name:en" v="Thanon Charoen Rat"/>
    <tag k="name:th" v="ถนนเจริญราษฎร์"/>
    <tag k="oneway" v="true"/>
  </way>
  <way id="25715395" version="24" timestamp="2012-03-06T23:36:00Z" uid="61891" user="stephankn" changeset="10895672">
    <nd ref="330923605"/>
    <nd ref="359628895"/>
    <nd ref="359628896"/>
    <nd ref="359628897"/>
    <nd ref="359628898"/>
    <nd ref="359628899"/>
    <nd ref="359628901"/>
    <nd ref="359628902"/>
    <nd ref="1505233513"/>
    <nd ref="1215968178"/>
    <nd ref="359759118"/>
    <nd ref="280389348"/>
    <nd ref="359619867"/>
    <nd ref="280389364"/>
    <nd ref="359617606"/>
    <nd ref="359617685"/>
    <nd ref="280389346"/>
    <nd ref="269740352"/>
    <tag k="highway" v="secondary"/>
    <tag k="name" v="ถนนเจริญราษฎร์"/>
    <tag k="name:en" v="Thanon Charoen Rat"/>
    <tag k="name:th" v="ถนนเจริญราษฎร์"/>
    <tag k="oneway" v="true"/>
  </way>
  <way id="25715395" version="25" timestamp="2012-03-12T20:57:52Z" uid="61891" user="stephankn" changeset="10960459"/>
  <way id="25715397" version="13" timestamp="2010-09-25T16:10:48Z" uid="16922" user="amai" changeset="5872223">
    <nd ref="280389365"/>
    <nd ref="280389286"/>
    <nd ref="280389366"/>
    <nd ref="359617674"/>
    <nd ref="280389369"/>
    <nd ref="359620458"/>
    <nd ref="359619451"/>
    <nd ref="280389368"/>
    <nd ref="359628944"/>
    <nd ref="359628942"/>
    <nd ref="359628941"/>
    <nd ref="359628939"/>
    <nd ref="359628938"/>
    <nd ref="925555647"/>
    <nd ref="359628936"/>
    <nd ref="359628865"/>
    <nd ref="359629169"/>
    <tag k="highway" v="secondary"/>
    <tag k="name" v="ถนนเจริญราษฎร์"/>
    <tag k="name:en" v="Thanon Charoen Rat"/>
    <tag k="name:th" v="ถนนเจริญราษฎร์"/>
    <tag k="oneway" v="true"/>
  </way>
  <way id="25715397" version="14" timestamp="2011-03-24T14:43:44Z" uid="324599" user="Exilschorsch" changeset="7656476">
    <nd ref="280389365"/>
    <nd ref="280389286"/>
    <nd ref="280389366"/>
    <nd ref="359617674"/>
    <nd ref="280389369"/>
    <nd ref="359620458"/>
    <nd ref="359619451"/>
    <nd ref="280389368"/>
    <nd ref="1215968176"/>
    <nd ref="359628944"/>
    <nd ref="359628942"/>
    <nd ref="359628941"/>
    <nd ref="359628939"/>
    <nd ref="359628938"/>
    <nd ref="925555647"/>
    <nd ref="359628936"/>
    <nd ref="359628865"/>
    <nd ref="359629169"/>
    <tag k="highway" v="secondary"/>
    <tag k="name" v="ถนนเจริญราษฎร์"/>
    <tag k="name:en" v="Thanon Charoen Rat"/>
    <tag k="name:th" v="ถนนเจริญราษฎร์"/>
    <tag k="oneway" v="true"/>
  </way>
  <way id="25715397" version="15" timestamp="2011-03-26T13:57:27Z" uid="16922" user="amai" changeset="7675687">
    <nd ref="280389365"/>
    <nd ref="280389286"/>
    <nd ref="280389366"/>
    <nd ref="359617674"/>
    <nd ref="280389369"/>
    <nd ref="359620458"/>
    <nd ref="359619451"/>
    <nd ref="280389368"/>
    <nd ref="1215968176"/>
    <nd ref="359628944"/>
    <nd ref="359628942"/>
    <nd ref="1219028283"/>
    <nd ref="359628941"/>
    <nd ref="359628939"/>
    <nd ref="359628938"/>
    <nd ref="925555647"/>
    <nd ref="359628936"/>
    <nd ref="359628865"/>
    <nd ref="359629169"/>
    <tag k="highway" v="secondary"/>
    <tag k="name" v="ถนนเจริญราษฎร์"/>
    <tag k="name:en" v="Thanon Charoen Rat"/>
    <tag k="name:th" v="ถนนเจริญราษฎร์"/>
    <tag k="oneway" v="true"/>
  </way>
  <way id="25715397" version="16" timestamp="2012-03-06T23:35:59Z" uid="61891" user="stephankn" changeset="10895672">
    <nd ref="280389365"/>
    <nd ref="280389286"/>
    <nd ref="280389366"/>
    <nd ref="359617674"/>
    <nd ref="280389369"/>
    <nd ref="359620458"/>
    <nd ref="359619451"/>
    <nd ref="280389368"/>
    <nd ref="1215968176"/>
    <nd ref="359628944"/>
    <nd ref="359628942"/>
    <nd ref="359628941"/>
    <nd ref="359628939"/>
    <nd ref="359628938"/>
    <nd ref="359628936"/>
    <nd ref="359628865"/>
    <nd ref="359629169"/>
    <tag k="highway" v="secondary"/>
    <tag k="name" v="ถนนเจริญราษฎร์"/>
    <tag k="name:en" v="Thanon Charoen Rat"/>
    <tag k="name:th" v="ถนนเจริญราษฎร์"/>
    <tag k="oneway" v="true"/>
  </way>
  <way id="25715397" version="17" timestamp="2012-03-12T20:57:52Z" uid="61891" user="stephankn" changeset="10960459"/>
  <way id="25715398" version="19" timestamp="2010-10-16T16:41:17Z" uid="16922" user="amai" changeset="6059314">
    <nd ref="281467617"/>
    <nd ref="281467618"/>
    <nd ref="277924657"/>
    <nd ref="277925604"/>
    <nd ref="481996225"/>
    <nd ref="281467350"/>
    <nd ref="281467347"/>
    <nd ref="481996311"/>
    <nd ref="481996307"/>
    <nd ref="481996303"/>
    <nd ref="481996281"/>
    <nd ref="281467342"/>
    <nd ref="481996278"/>
    <nd ref="481996138"/>
    <nd ref="281467339"/>
    <nd ref="207159237"/>
    <nd ref="951806703"/>
    <nd ref="476364772"/>
    <nd ref="482018105"/>
    <tag k="highway" v="primary_link"/>
    <tag k="name:en" v="Chan Road"/>
  </way>
  <way id="25715398" version="20" timestamp="2011-02-09T22:17:30Z" uid="16922" user="amai" changeset="7241091">
    <nd ref="281467617"/>
    <nd ref="281467618"/>
    <nd ref="277924657"/>
    <nd ref="277925604"/>
    <nd ref="481996225"/>
    <nd ref="281467350"/>
    <nd ref="281467347"/>
    <nd ref="481996311"/>
    <nd ref="481996307"/>
    <nd ref="481996303"/>
    <nd ref="481996281"/>
    <nd ref="281467342"/>
    <nd ref="481996278"/>
    <nd ref="481996138"/>
    <nd ref="281467339"/>
    <nd ref="207159237"/>
    <nd ref="951806703"/>
    <nd ref="476364772"/>
    <nd ref="1144623646"/>
    <nd ref="482018105"/>
    <tag k="highway" v="primary_link"/>
    <tag k="name:en" v="Chan Road"/>
  </way>
  <way id="25715398" version="21" timestamp="2011-02-16T22:38:43Z" uid="16922" user="amai" changeset="7308536">
    <nd ref="281467617"/>
    <nd ref="281467618"/>
    <nd ref="277924657"/>
    <nd ref="277925604"/>
    <nd ref="481996225"/>
    <nd ref="281467350"/>
    <nd ref="281467347"/>
    <nd ref="481996311"/>
    <nd ref="481996307"/>
    <nd ref="481996303"/>
    <nd ref="481996281"/>
    <nd ref="281467342"/>
    <nd ref="481996278"/>
    <nd ref="481996138"/>
    <nd ref="281467339"/>
    <nd ref="207159237"/>
    <nd ref="951806703"/>
    <nd ref="476364772"/>
    <nd ref="1156901806"/>
    <nd ref="1144623646"/>
    <nd ref="482018105"/>
    <tag k="highway" v="primary_link"/>
    <tag k="name:en" v="Chan Road"/>
  </way>
  <way id="25715398" version="22" timestamp="2011-02-26T23:26:14Z" uid="16922" user="amai" changeset="7405686">
    <nd ref="281467617"/>
    <nd ref="281467618"/>
    <nd ref="277924657"/>
    <nd ref="277925604"/>
    <nd ref="481996225"/>
    <nd ref="281467350"/>
    <nd ref="281467347"/>
    <nd ref="481996311"/>
    <nd ref="481996307"/>
    <nd ref="481996303"/>
    <nd ref="481996281"/>
    <nd ref="281467342"/>
    <nd ref="481996278"/>
    <nd ref="481996138"/>
    <nd ref="281467339"/>
    <nd ref="207159237"/>
    <nd ref="1175943463"/>
    <nd ref="951806703"/>
    <nd ref="476364772"/>
    <nd ref="1156901806"/>
    <nd ref="1144623646"/>
    <nd ref="482018105"/>
    <tag k="highway" v="primary_link"/>
    <tag k="name:en" v="Chan Road"/>
  </way>
  <way id="25715398" version="23" timestamp="2011-11-22T14:17:37Z" uid="29320" user="Komяpa" changeset="9909499">
    <nd ref="281467617"/>
    <nd ref="281467618"/>
    <nd ref="277924657"/>
    <nd ref="277925604"/>
    <nd ref="481996225"/>
    <nd ref="281467350"/>
    <nd ref="281467347"/>
    <nd ref="481996311"/>
    <nd ref="481996307"/>
    <nd ref="481996303"/>
    <nd ref="481996281"/>
    <nd ref="281467342"/>
    <nd ref="481996278"/>
    <nd ref="481996138"/>
    <nd ref="281467339"/>
    <nd ref="207159237"/>
    <nd ref="1175943463"/>
    <nd ref="951806703"/>
    <nd ref="476364772"/>
    <nd ref="1156901806"/>
    <nd ref="1144623646"/>
    <nd ref="482018105"/>
    <tag k="highway" v="primary"/>
    <tag k="name:en" v="Chan Road"/>
  </way>
  <way id="25715398" version="24" timestamp="2012-02-24T07:58:09Z" uid="100662" user="Paul_012" changeset="10775218">
    <nd ref="281467617"/>
    <nd ref="281467618"/>
    <nd ref="277924657"/>
    <nd ref="277925604"/>
    <nd ref="481996225"/>
    <nd ref="281467350"/>
    <nd ref="281467347"/>
    <nd ref="481996311"/>
    <nd ref="481996307"/>
    <nd ref="481996303"/>
    <nd ref="481996281"/>
    <nd ref="281467342"/>
    <nd ref="481996278"/>
    <nd ref="481996138"/>
    <nd ref="281467339"/>
    <nd ref="207159237"/>
    <nd ref="1175943463"/>
    <nd ref="951806703"/>
    <nd ref="476364772"/>
    <nd ref="1156901806"/>
    <nd ref="1144623646"/>
    <nd ref="482018105"/>
    <tag k="highway" v="secondary"/>
    <tag k="name" v="ถนนจันทน์"/>
    <tag k="name:en" v="Chan Road"/>
  </way>
  <way id="25715398" version="25" timestamp="2012-03-06T23:35:46Z" uid="61891" user="stephankn" changeset="10895672">
    <nd ref="281467617"/>
    <nd ref="281467618"/>
    <nd ref="277924657"/>
    <nd ref="277925604"/>
    <nd ref="481996225"/>
    <nd ref="281467350"/>
    <nd ref="281467347"/>
    <nd ref="481996311"/>
    <nd ref="481996307"/>
    <nd ref="481996303"/>
    <nd ref="481996281"/>
    <nd ref="281467342"/>
    <nd ref="481996278"/>
    <nd ref="481996138"/>
    <nd ref="281467339"/>
    <nd ref="207159237"/>
    <nd ref="476364772"/>
    <nd ref="482018105"/>
    <tag k="highway" v="secondary"/>
    <tag k="name" v="ถนนจันทน์"/>
    <tag k="name:en" v="Chan Road"/>
  </way>
  <way id="25715398" version="26" timestamp="2012-03-23T13:44:38Z" uid="510836" user="Rub21" changeset="11074014">
    <nd ref="281467617"/>
    <nd ref="281467618"/>
    <nd ref="277924657"/>
    <nd ref="277925604"/>
    <nd ref="481996225"/>
    <nd ref="281467350"/>
    <nd ref="281467347"/>
    <nd ref="481996311"/>
    <nd ref="481996307"/>
    <nd ref="481996303"/>
    <nd ref="481996281"/>
    <nd ref="281467342"/>
    <nd ref="481996278"/>
    <nd ref="481996138"/>
    <nd ref="281467339"/>
    <nd ref="207159237"/>
    <nd ref="476364772"/>
    <nd ref="1687188116"/>
    <nd ref="1687188121"/>
    <nd ref="482018105"/>
    <tag k="highway" v="secondary"/>
    <tag k="name" v="ถนนจันทน์"/>
    <tag k="name:en" v="Chan Road"/>
  </way>
  <way id="25715398" version="27" timestamp="2012-03-26T06:04:33Z" uid="100662" user="Paul_012" changeset="11102302">
    <nd ref="281467617"/>
    <nd ref="281467618"/>
    <nd ref="277924657"/>
    <nd ref="277925604"/>
    <nd ref="481996225"/>
    <nd ref="281467350"/>
    <nd ref="281467347"/>
    <nd ref="481996311"/>
    <nd ref="481996307"/>
    <nd ref="481996303"/>
    <nd ref="481996281"/>
    <nd ref="281467342"/>
    <nd ref="481996278"/>
    <nd ref="481996138"/>
    <nd ref="281467339"/>
    <nd ref="207159237"/>
    <nd ref="476364772"/>
    <nd ref="1687188116"/>
    <nd ref="1687188121"/>
    <nd ref="482018105"/>
    <tag k="highway" v="tertiary"/>
    <tag k="name" v="ถนนจันทน์"/>
    <tag k="name:en" v="Chan Road"/>
  </way>
  <way id="25715432" version="2" timestamp="2010-06-01T08:06:11Z" uid="4467" user="Rosscoe" changeset="4872520">
    <nd ref="280389489"/>
    <nd ref="280389490"/>
    <nd ref="280389491"/>
    <nd ref="280389492"/>
    <nd ref="280389493"/>
    <nd ref="280389494"/>
    <nd ref="280389495"/>
    <tag k="created_by" v="Potlatch 0.10"/>
    <tag k="highway" v="residential"/>
    <tag k="name" v="Greenham Avenue"/>
  </way>
  <way id="25715432" version="3" timestamp="2010-07-09T06:41:00Z" uid="74617" user="JohnSmith" changeset="5171134">
    <nd ref="280389489"/>
    <nd ref="280389490"/>
    <nd ref="280389491"/>
    <nd ref="280389492"/>
    <nd ref="280389493"/>
    <nd ref="280389494"/>
    <nd ref="280389495"/>
    <tag k="highway" v="residential"/>
    <tag k="maxspeed" v="50"/>
    <tag k="maxspeed:source" v="default residential speed limit in Australia"/>
    <tag k="name" v="Greenham Avenue"/>
  </way>
  <way id="25715432" version="4" timestamp="2012-01-17T00:47:15Z" uid="147510" user="woodpeck_fixbot" changeset="10412890">
    <nd ref="280389489"/>
    <nd ref="280389490"/>
    <nd ref="280389491"/>
    <nd ref="280389492"/>
    <nd ref="280389493"/>
    <nd ref="280389494"/>
    <nd ref="280389495"/>
    <tag k="highway" v="residential"/>
    <tag k="name" v="Greenham Avenue"/>
  </way>
  <way id="25715436" version="7" timestamp="2011-01-27T05:11:27Z" uid="4467" user="Rosscoe" changeset="7100329">
    <nd ref="623851348"/>
    <nd ref="280389532"/>
    <nd ref="623851351"/>
    <nd ref="280389534"/>
    <tag k="highway" v="tertiary"/>
    <tag k="oneway" v="yes"/>
  </way>
  <way id="25715436" version="8" timestamp="2011-04-20T12:15:32Z" uid="206929" user="Supt_of_Printing" changeset="7915647">
    <nd ref="623851348"/>
    <nd ref="1252339179"/>
    <nd ref="1252339490"/>
    <nd ref="1252339134"/>
    <nd ref="280389532"/>
    <nd ref="623851351"/>
    <nd ref="1252339493"/>
    <nd ref="280389534"/>
    <tag k="highway" v="tertiary"/>
    <tag k="oneway" v="yes"/>
  </way>
  <way id="25715460" version="8" timestamp="2011-01-27T05:11:28Z" uid="4467" user="Rosscoe" changeset="7100329">
    <nd ref="472448869"/>
    <nd ref="1123067366"/>
    <nd ref="1123067333"/>
    <nd ref="1123067349"/>
    <nd ref="1123067368"/>
    <nd ref="623928580"/>
    <nd ref="1123067357"/>
    <nd ref="1123067325"/>
    <nd ref="1123067331"/>
    <nd ref="1123067363"/>
    <nd ref="623851348"/>
    <nd ref="1123067372"/>
    <nd ref="280389667"/>
    <tag k="highway" v="tertiary"/>
    <tag k="name" v="Lyall Road"/>
    <tag k="oneway" v="yes"/>
    <tag k="ref" v="S 61"/>
  </way>
  <way id="25715460" version="9" timestamp="2011-04-20T12:15:39Z" uid="206929" user="Supt_of_Printing" changeset="7915647"/>
  <way id="25715465" version="9" timestamp="2011-01-27T05:11:31Z" uid="4467" user="Rosscoe" changeset="7100329"/>
  <way id="25715475" version="5" timestamp="2010-05-27T13:23:48Z" uid="4467" user="Rosscoe" changeset="4821926">
    <nd ref="280389792"/>
    <nd ref="280389793"/>
    <nd ref="280389794"/>
    <nd ref="280389795"/>
    <nd ref="280390376"/>
    <nd ref="280390361"/>
    <nd ref="429218670"/>
    <nd ref="280389783"/>
    <nd ref="280389798"/>
    <nd ref="280389785"/>
    <nd ref="429218465"/>
    <nd ref="429218555"/>
    <nd ref="280389786"/>
    <nd ref="429218484"/>
    <nd ref="280389787"/>
    <nd ref="27060483"/>
    <nd ref="280390375"/>
    <nd ref="207728952"/>
    <nd ref="207728953"/>
    <nd ref="207728954"/>
    <nd ref="27060485"/>
    <nd ref="429218817"/>
    <nd ref="27060489"/>
    <nd ref="27060492"/>
    <nd ref="27060540"/>
    <nd ref="27060542"/>
    <nd ref="27060544"/>
    <nd ref="27060546"/>
    <nd ref="27060548"/>
    <nd ref="27060574"/>
    <nd ref="59614541"/>
    <tag k="highway" v="secondary"/>
    <tag k="lanes" v="2"/>
    <tag k="name" v="Princes Highway"/>
    <tag k="oneway" v="yes"/>
    <tag k="ref" v="C101"/>
  </way>
  <way id="25715475" version="6" timestamp="2011-04-28T08:33:09Z" uid="206929" user="Supt_of_Printing" changeset="7992297">
    <nd ref="280389792"/>
    <nd ref="280389793"/>
    <nd ref="1263155428"/>
    <nd ref="1263155422"/>
    <nd ref="280389794"/>
    <nd ref="280389795"/>
    <nd ref="280390376"/>
    <nd ref="1263155350"/>
    <nd ref="1263155487"/>
    <nd ref="280390361"/>
    <nd ref="1263155525"/>
    <nd ref="429218670"/>
    <nd ref="280389783"/>
    <nd ref="1263155542"/>
    <nd ref="280389798"/>
    <nd ref="1263155554"/>
    <nd ref="280389785"/>
    <nd ref="429218465"/>
    <nd ref="429218555"/>
    <nd ref="280389786"/>
    <nd ref="429218484"/>
    <nd ref="280389787"/>
    <nd ref="27060483"/>
    <nd ref="280390375"/>
    <nd ref="207728952"/>
    <nd ref="207728953"/>
    <nd ref="207728954"/>
    <nd ref="27060485"/>
    <nd ref="429218817"/>
    <nd ref="27060489"/>
    <nd ref="27060492"/>
    <nd ref="27060540"/>
    <nd ref="27060542"/>
    <nd ref="27060544"/>
    <nd ref="27060546"/>
    <nd ref="27060548"/>
    <nd ref="27060574"/>
    <nd ref="59614541"/>
    <tag k="highway" v="secondary"/>
    <tag k="lanes" v="2"/>
    <tag k="name" v="Princes Highway"/>
    <tag k="oneway" v="yes"/>
    <tag k="ref" v="C101"/>
  </way>
  <way id="25715475" version="7" timestamp="2011-04-28T11:56:53Z" uid="206929" user="Supt_of_Printing" changeset="7993987">
    <nd ref="280389792"/>
    <nd ref="280389793"/>
    <nd ref="1263155428"/>
    <nd ref="1263155422"/>
    <nd ref="280389794"/>
    <nd ref="280389795"/>
    <nd ref="280390376"/>
    <nd ref="1263155350"/>
    <nd ref="1263155487"/>
    <nd ref="280390361"/>
    <nd ref="1263155525"/>
    <nd ref="429218670"/>
    <nd ref="280389783"/>
    <nd ref="1263155542"/>
    <nd ref="280389798"/>
    <nd ref="1263155554"/>
    <nd ref="1263340398"/>
    <nd ref="280389785"/>
    <nd ref="429218465"/>
    <nd ref="429218555"/>
    <nd ref="280389786"/>
    <nd ref="429218484"/>
    <nd ref="280389787"/>
    <nd ref="27060483"/>
    <nd ref="280390375"/>
    <nd ref="207728952"/>
    <nd ref="1263340473"/>
    <nd ref="207728953"/>
    <nd ref="1263340399"/>
    <nd ref="207728954"/>
    <nd ref="1263340532"/>
    <nd ref="27060485"/>
    <nd ref="1263340444"/>
    <nd ref="429218817"/>
    <nd ref="27060489"/>
    <nd ref="27060492"/>
    <nd ref="1263340377"/>
    <nd ref="27060540"/>
    <nd ref="27060542"/>
    <nd ref="1263340370"/>
    <nd ref="1263340306"/>
    <nd ref="27060544"/>
    <nd ref="1263340321"/>
    <nd ref="27060546"/>
    <nd ref="1263340307"/>
    <nd ref="27060548"/>
    <nd ref="27060574"/>
    <nd ref="59614541"/>
    <tag k="highway" v="secondary"/>
    <tag k="lanes" v="2"/>
    <tag k="name" v="Princes Highway"/>
    <tag k="oneway" v="yes"/>
    <tag k="ref" v="C101"/>
  </way>
  <way id="25715475" version="8" timestamp="2011-04-28T12:28:21Z" uid="206929" user="Supt_of_Printing" changeset="7994256">
    <nd ref="280389792"/>
    <nd ref="280389793"/>
    <nd ref="1263155428"/>
    <nd ref="1263155422"/>
    <nd ref="280389794"/>
    <nd ref="280389795"/>
    <nd ref="280390376"/>
    <nd ref="1263155350"/>
    <nd ref="1263155487"/>
    <nd ref="280390361"/>
    <nd ref="1263155525"/>
    <nd ref="429218670"/>
    <nd ref="280389783"/>
    <nd ref="1263155542"/>
    <nd ref="280389798"/>
    <nd ref="1263155554"/>
    <nd ref="1263340398"/>
    <nd ref="280389785"/>
    <nd ref="429218465"/>
    <nd ref="429218555"/>
    <nd ref="280389786"/>
    <nd ref="429218484"/>
    <nd ref="280389787"/>
    <nd ref="27060483"/>
    <nd ref="280390375"/>
    <nd ref="207728952"/>
    <nd ref="1263340473"/>
    <nd ref="207728953"/>
    <nd ref="1263340399"/>
    <nd ref="207728954"/>
    <nd ref="1263340532"/>
    <nd ref="27060485"/>
    <nd ref="1263340444"/>
    <nd ref="429218817"/>
    <nd ref="27060489"/>
    <nd ref="1263359912"/>
    <nd ref="27060492"/>
    <nd ref="1263340377"/>
    <nd ref="27060540"/>
    <nd ref="27060542"/>
    <nd ref="1263340370"/>
    <nd ref="1263340306"/>
    <nd ref="27060544"/>
    <nd ref="1263340321"/>
    <nd ref="27060546"/>
    <nd ref="1263340307"/>
    <nd ref="27060548"/>
    <nd ref="27060574"/>
    <nd ref="59614541"/>
    <tag k="highway" v="secondary"/>
    <tag k="lanes" v="2"/>
    <tag k="name" v="Princes Highway"/>
    <tag k="oneway" v="yes"/>
    <tag k="ref" v="C101"/>
  </way>
  <way id="25715475" version="9" timestamp="2011-04-28T22:11:01Z" uid="206929" user="Supt_of_Printing" changeset="7999257">
    <nd ref="280389792"/>
    <nd ref="280389793"/>
    <nd ref="1263155428"/>
    <nd ref="1263155422"/>
    <nd ref="280389794"/>
    <nd ref="280389795"/>
    <nd ref="1264263657"/>
    <nd ref="280390376"/>
    <nd ref="1263155350"/>
    <nd ref="1263155487"/>
    <nd ref="280390361"/>
    <nd ref="1263155525"/>
    <nd ref="429218670"/>
    <nd ref="280389783"/>
    <nd ref="1263155542"/>
    <nd ref="280389798"/>
    <nd ref="1263155554"/>
    <nd ref="1263340398"/>
    <nd ref="280389785"/>
    <nd ref="429218465"/>
    <nd ref="429218555"/>
    <nd ref="280389786"/>
    <nd ref="429218484"/>
    <nd ref="280389787"/>
    <nd ref="1264263638"/>
    <nd ref="27060483"/>
    <nd ref="280390375"/>
    <nd ref="207728952"/>
    <nd ref="1263340473"/>
    <nd ref="207728953"/>
    <nd ref="1263340399"/>
    <nd ref="207728954"/>
    <nd ref="1263340532"/>
    <nd ref="27060485"/>
    <nd ref="1263340444"/>
    <nd ref="429218817"/>
    <nd ref="27060489"/>
    <nd ref="1263359912"/>
    <nd ref="27060492"/>
    <nd ref="1263340377"/>
    <nd ref="27060540"/>
    <nd ref="27060542"/>
    <nd ref="1263340370"/>
    <nd ref="1263340306"/>
    <nd ref="27060544"/>
    <nd ref="1263340321"/>
    <nd ref="27060546"/>
    <nd ref="1263340307"/>
    <nd ref="27060548"/>
    <nd ref="27060574"/>
    <nd ref="59614541"/>
    <tag k="highway" v="secondary"/>
    <tag k="lanes" v="2"/>
    <tag k="name" v="Princes Highway"/>
    <tag k="oneway" v="yes"/>
    <tag k="ref" v="C101"/>
  </way>
  <way id="25715475" version="10" timestamp="2011-09-05T08:39:52Z" uid="11111" user="melb_guy" changeset="9215502">
    <nd ref="280389792"/>
    <nd ref="280389793"/>
    <nd ref="1263155428"/>
    <nd ref="1263155422"/>
    <nd ref="280389794"/>
    <nd ref="280389795"/>
    <nd ref="1264263657"/>
    <nd ref="280390376"/>
    <nd ref="1263155350"/>
    <nd ref="1263155487"/>
    <nd ref="280390361"/>
    <nd ref="1263155525"/>
    <nd ref="429218670"/>
    <nd ref="280389783"/>
    <nd ref="1263155542"/>
    <nd ref="280389798"/>
    <nd ref="1263155554"/>
    <nd ref="1263340398"/>
    <nd ref="280389785"/>
    <nd ref="429218465"/>
    <nd ref="429218555"/>
    <nd ref="280389786"/>
    <nd ref="429218484"/>
    <nd ref="280389787"/>
    <nd ref="1264263638"/>
    <nd ref="27060483"/>
    <nd ref="280390375"/>
    <nd ref="207728952"/>
    <nd ref="1263340473"/>
    <nd ref="207728953"/>
    <nd ref="1263340399"/>
    <nd ref="207728954"/>
    <nd ref="1263340532"/>
    <nd ref="27060485"/>
    <nd ref="1263340444"/>
    <nd ref="429218817"/>
    <nd ref="27060489"/>
    <nd ref="1263359912"/>
    <nd ref="27060492"/>
    <nd ref="1263340377"/>
    <nd ref="27060540"/>
    <nd ref="1423826006"/>
    <nd ref="27060542"/>
    <nd ref="1263340370"/>
    <nd ref="1263340306"/>
    <nd ref="27060544"/>
    <nd ref="1263340321"/>
    <nd ref="27060546"/>
    <nd ref="1263340307"/>
    <nd ref="27060548"/>
    <nd ref="27060574"/>
    <nd ref="59614541"/>
    <tag k="highway" v="secondary"/>
    <tag k="lanes" v="2"/>
    <tag k="name" v="Princes Highway"/>
    <tag k="oneway" v="yes"/>
    <tag k="ref" v="C101"/>
  </way>
  <way id="25715476" version="7" timestamp="2010-05-28T06:02:07Z" uid="4467" user="Rosscoe" changeset="4827770">
    <nd ref="623866277"/>
    <nd ref="26855459"/>
    <nd ref="623905948"/>
    <nd ref="428237298"/>
    <nd ref="623898401"/>
    <nd ref="26855457"/>
    <tag k="highway" v="secondary"/>
    <tag k="lanes" v="2"/>
    <tag k="name" v="Princes Highway"/>
    <tag k="oneway" v="yes"/>
    <tag k="ref" v="C101"/>
  </way>
  <way id="25715476" version="8" timestamp="2010-06-29T11:25:07Z" uid="206929" user="Supt_of_Printing" changeset="5105173">
    <nd ref="623866277"/>
    <nd ref="795685678"/>
    <nd ref="795685680"/>
    <nd ref="795685681"/>
    <nd ref="26855459"/>
    <nd ref="623905948"/>
    <nd ref="428237298"/>
    <nd ref="623898401"/>
    <nd ref="26855457"/>
    <tag k="highway" v="secondary"/>
    <tag k="lanes" v="2"/>
    <tag k="name" v="Princes Highway"/>
    <tag k="oneway" v="yes"/>
    <tag k="ref" v="C101"/>
  </way>
  <way id="25715476" version="9" timestamp="2010-07-29T08:31:59Z" uid="32810" user="Yoda" changeset="5344719">
    <nd ref="623866277"/>
    <nd ref="795685678"/>
    <nd ref="795685680"/>
    <nd ref="795685681"/>
    <nd ref="26855459"/>
    <nd ref="623905948"/>
    <nd ref="428237298"/>
    <nd ref="623898401"/>
    <nd ref="837197196"/>
    <nd ref="26855457"/>
    <tag k="highway" v="secondary"/>
    <tag k="lanes" v="2"/>
    <tag k="name" v="Princes Highway"/>
    <tag k="oneway" v="yes"/>
    <tag k="ref" v="C101"/>
  </way>
  <way id="25715476" version="10" timestamp="2011-01-27T05:11:18Z" uid="4467" user="Rosscoe" changeset="7100329">
    <nd ref="623866277"/>
    <nd ref="795685678"/>
    <nd ref="795685680"/>
    <nd ref="795685681"/>
    <nd ref="26855459"/>
    <nd ref="623905948"/>
    <nd ref="428237298"/>
    <nd ref="1123067335"/>
    <nd ref="623898401"/>
    <nd ref="837197196"/>
    <nd ref="26855457"/>
    <tag k="highway" v="secondary"/>
    <tag k="lanes" v="2"/>
    <tag k="name" v="Princes Highway"/>
    <tag k="oneway" v="yes"/>
    <tag k="ref" v="C101"/>
  </way>
  <way id="25715499" version="2" timestamp="2010-05-27T13:23:36Z" uid="4467" user="Rosscoe" changeset="4821926">
    <nd ref="280389793"/>
    <nd ref="280389889"/>
    <nd ref="280389884"/>
    <tag k="highway" v="secondary"/>
    <tag k="oneway" v="yes"/>
  </way>
  <way id="25715499" version="3" timestamp="2011-04-28T08:33:11Z" uid="206929" user="Supt_of_Printing" changeset="7992297">
    <nd ref="280389793"/>
    <nd ref="1263155565"/>
    <nd ref="280389889"/>
    <nd ref="1263155481"/>
    <nd ref="1263155384"/>
    <nd ref="1263155517"/>
    <nd ref="1263155585"/>
    <nd ref="1263155616"/>
    <nd ref="280389884"/>
    <tag k="highway" v="secondary"/>
    <tag k="oneway" v="yes"/>
  </way>
  <way id="25715508" version="3" timestamp="2010-05-28T06:03:01Z" uid="4467" user="Rosscoe" changeset="4827770">
    <nd ref="280389880"/>
    <nd ref="280389901"/>
    <nd ref="280389907"/>
    <nd ref="280389903"/>
    <nd ref="443659618"/>
    <nd ref="665551263"/>
    <nd ref="280389923"/>
    <tag k="highway" v="secondary"/>
    <tag k="lanes" v="2"/>
    <tag k="name" v="Princes Highway"/>
    <tag k="oneway" v="yes"/>
    <tag k="ref" v="C101"/>
    <tag k="source" v="nearmap"/>
  </way>
  <way id="25715508" version="4" timestamp="2010-06-05T03:30:20Z" uid="4467" user="Rosscoe" changeset="4905793">
    <nd ref="280389880"/>
    <nd ref="280389901"/>
    <nd ref="280389907"/>
    <nd ref="280389903"/>
    <nd ref="443659618"/>
    <nd ref="665551263"/>
    <nd ref="764757830"/>
    <nd ref="280389923"/>
    <tag k="highway" v="secondary"/>
    <tag k="lanes" v="2"/>
    <tag k="name" v="Princes Highway"/>
    <tag k="oneway" v="yes"/>
    <tag k="ref" v="C101"/>
    <tag k="source" v="nearmap"/>
  </way>
  <way id="25715508" version="5" timestamp="2010-06-21T07:25:49Z" uid="201443" user="stevage" changeset="5039981">
    <nd ref="280389880"/>
    <nd ref="280389901"/>
    <nd ref="280389907"/>
    <nd ref="280389903"/>
    <nd ref="778910184"/>
    <nd ref="443659618"/>
    <nd ref="665551263"/>
    <nd ref="764757830"/>
    <nd ref="280389923"/>
    <tag k="highway" v="secondary"/>
    <tag k="lanes" v="2"/>
    <tag k="name" v="Princes Highway"/>
    <tag k="oneway" v="yes"/>
    <tag k="ref" v="C101"/>
    <tag k="source" v="nearmap"/>
  </way>
  <way id="25715508" version="6" timestamp="2011-04-27T11:22:09Z" uid="206929" user="Supt_of_Printing" changeset="7984022">
    <nd ref="280389880"/>
    <nd ref="280389901"/>
    <nd ref="1261998296"/>
    <nd ref="280389907"/>
    <nd ref="280389903"/>
    <nd ref="778910184"/>
    <nd ref="443659618"/>
    <nd ref="1261998390"/>
    <nd ref="665551263"/>
    <nd ref="764757830"/>
    <nd ref="280389923"/>
    <tag k="highway" v="secondary"/>
    <tag k="lanes" v="2"/>
    <tag k="name" v="Princes Highway"/>
    <tag k="oneway" v="yes"/>
    <tag k="ref" v="C101"/>
    <tag k="source" v="nearmap"/>
  </way>
  <way id="25715509" version="2" timestamp="2010-05-28T06:02:13Z" uid="4467" user="Rosscoe" changeset="4827770">
    <nd ref="280389923"/>
    <nd ref="752202915"/>
    <nd ref="752202924"/>
    <nd ref="752202914"/>
    <nd ref="752202865"/>
    <nd ref="752202907"/>
    <nd ref="752202918"/>
    <nd ref="752202913"/>
    <nd ref="752202908"/>
    <nd ref="752202927"/>
    <nd ref="280389906"/>
    <nd ref="280389905"/>
    <nd ref="280389799"/>
    <tag k="highway" v="secondary"/>
    <tag k="lanes" v="2"/>
    <tag k="name" v="Princes Highway"/>
    <tag k="oneway" v="yes"/>
    <tag k="ref" v="C101"/>
    <tag k="source" v="nearmap"/>
  </way>
  <way id="25715509" version="3" timestamp="2010-06-21T07:25:50Z" uid="201443" user="stevage" changeset="5039981">
    <nd ref="280389923"/>
    <nd ref="752202915"/>
    <nd ref="752202924"/>
    <nd ref="752202914"/>
    <nd ref="752202865"/>
    <nd ref="752202907"/>
    <nd ref="752202918"/>
    <nd ref="752202913"/>
    <nd ref="752202908"/>
    <nd ref="778910186"/>
    <nd ref="752202927"/>
    <nd ref="280389906"/>
    <nd ref="280389905"/>
    <nd ref="280389799"/>
    <tag k="highway" v="secondary"/>
    <tag k="lanes" v="2"/>
    <tag k="name" v="Princes Highway"/>
    <tag k="oneway" v="yes"/>
    <tag k="ref" v="C101"/>
    <tag k="source" v="nearmap"/>
  </way>
  <way id="25715509" version="4" timestamp="2011-04-26T12:40:25Z" uid="206929" user="Supt_of_Printing" changeset="7974354">
    <nd ref="280389923"/>
    <nd ref="752202915"/>
    <nd ref="1260714132"/>
    <nd ref="752202924"/>
    <nd ref="752202914"/>
    <nd ref="752202865"/>
    <nd ref="752202907"/>
    <nd ref="752202918"/>
    <nd ref="752202913"/>
    <nd ref="752202908"/>
    <nd ref="778910186"/>
    <nd ref="752202927"/>
    <nd ref="280389906"/>
    <nd ref="280389905"/>
    <nd ref="280389799"/>
    <tag k="highway" v="secondary"/>
    <tag k="lanes" v="2"/>
    <tag k="name" v="Princes Highway"/>
    <tag k="oneway" v="yes"/>
    <tag k="ref" v="C101"/>
    <tag k="source" v="nearmap"/>
  </way>
  <way id="25715509" version="5" timestamp="2011-04-27T11:22:09Z" uid="206929" user="Supt_of_Printing" changeset="7984022">
    <nd ref="280389923"/>
    <nd ref="752202915"/>
    <nd ref="1260714132"/>
    <nd ref="752202924"/>
    <nd ref="752202914"/>
    <nd ref="752202865"/>
    <nd ref="1261998300"/>
    <nd ref="1261998331"/>
    <nd ref="752202907"/>
    <nd ref="752202918"/>
    <nd ref="752202913"/>
    <nd ref="1261998499"/>
    <nd ref="752202908"/>
    <nd ref="778910186"/>
    <nd ref="752202927"/>
    <nd ref="280389906"/>
    <nd ref="280389905"/>
    <nd ref="1261998466"/>
    <nd ref="280389799"/>
    <tag k="highway" v="secondary"/>
    <tag k="lanes" v="2"/>
    <tag k="name" v="Princes Highway"/>
    <tag k="oneway" v="yes"/>
    <tag k="ref" v="C101"/>
    <tag k="source" v="nearmap"/>
  </way>
  <way id="25715509" version="6" timestamp="2011-12-09T17:08:04Z" uid="338866" user="tiger" changeset="10073225">
    <nd ref="280389923"/>
    <nd ref="752202915"/>
    <nd ref="1260714132"/>
    <nd ref="752202924"/>
    <nd ref="752202914"/>
    <nd ref="752202865"/>
    <nd ref="1261998300"/>
    <nd ref="1261998331"/>
    <nd ref="752202907"/>
    <nd ref="752202918"/>
    <nd ref="752202913"/>
    <nd ref="752202908"/>
    <nd ref="778910186"/>
    <nd ref="752202927"/>
    <nd ref="280389906"/>
    <nd ref="280389905"/>
    <nd ref="1261998466"/>
    <nd ref="280389799"/>
    <tag k="highway" v="secondary"/>
    <tag k="lanes" v="2"/>
    <tag k="name" v="Princes Highway"/>
    <tag k="oneway" v="yes"/>
    <tag k="ref" v="C101"/>
    <tag k="source" v="nearmap"/>
  </way>
  <way id="25715509" version="7" timestamp="2012-02-20T13:10:14Z" uid="606829" user="Novastorm" changeset="10740367">
    <nd ref="280389923"/>
    <nd ref="752202915"/>
    <nd ref="1260714132"/>
    <nd ref="752202924"/>
    <nd ref="752202914"/>
    <nd ref="752202865"/>
    <nd ref="1261998300"/>
    <nd ref="1261998331"/>
    <nd ref="752202907"/>
    <nd ref="752202918"/>
    <nd ref="752202913"/>
    <nd ref="752202908"/>
    <nd ref="778910186"/>
    <nd ref="752202927"/>
    <nd ref="280389906"/>
    <nd ref="280389905"/>
    <nd ref="1261998466"/>
    <nd ref="280389799"/>
    <tag k="highway" v="secondary"/>
    <tag k="lanes" v="2"/>
    <tag k="name" v="Princes Highway"/>
    <tag k="oneway" v="yes"/>
    <tag k="ref" v="C101"/>
    <tag k="source" v="nearmap"/>
  </way>
  <way id="25715513" version="6" timestamp="2010-05-27T13:23:56Z" uid="4467" user="Rosscoe" changeset="4821926">
    <nd ref="280389903"/>
    <nd ref="443659618"/>
    <nd ref="665551263"/>
    <nd ref="280389923"/>
    <tag k="highway" v="secondary"/>
    <tag k="name" v="Princes Highway"/>
  </way>
  <way id="25715513" version="7" timestamp="2010-05-28T06:03:10Z" uid="4467" user="Rosscoe" changeset="4827770"/>
  <way id="25715515" version="5" timestamp="2010-06-05T03:30:22Z" uid="4467" user="Rosscoe" changeset="4905793">
    <nd ref="280389929"/>
    <nd ref="764757839"/>
    <tag k="highway" v="residential"/>
    <tag k="name" v="Edrington Park Drive"/>
    <tag k="oneway" v="yes"/>
    <tag k="source" v="nearmap"/>
  </way>
  <way id="25715515" version="6" timestamp="2010-07-08T18:59:24Z" uid="74617" user="JohnSmith" changeset="5167338">
    <nd ref="280389929"/>
    <nd ref="764757839"/>
    <tag k="highway" v="residential"/>
    <tag k="maxspeed" v="50"/>
    <tag k="maxspeed:source" v="default residential speed limit in Australia"/>
    <tag k="name" v="Edrington Park Drive"/>
    <tag k="oneway" v="yes"/>
    <tag k="source" v="nearmap"/>
  </way>
  <way id="25715515" version="7" timestamp="2011-04-26T12:40:28Z" uid="206929" user="Supt_of_Printing" changeset="7974354">
    <nd ref="280389929"/>
    <nd ref="1260714152"/>
    <nd ref="1260713891"/>
    <nd ref="764757839"/>
    <tag k="highway" v="tertiary"/>
    <tag k="maxspeed" v="50"/>
    <tag k="maxspeed:source" v="default residential speed limit in Australia"/>
    <tag k="oneway" v="yes"/>
    <tag k="source" v="nearmap"/>
  </way>
  <way id="25715515" version="8" timestamp="2012-01-17T00:47:16Z" uid="147510" user="woodpeck_fixbot" changeset="10412890">
    <nd ref="280389929"/>
    <nd ref="1260714152"/>
    <nd ref="1260713891"/>
    <nd ref="764757839"/>
    <tag k="highway" v="tertiary"/>
    <tag k="oneway" v="yes"/>
    <tag k="source" v="nearmap"/>
  </way>
  <way id="25715516" version="10" timestamp="2010-05-28T06:03:16Z" uid="4467" user="Rosscoe" changeset="4827770"/>
  <way id="25715531" version="11" timestamp="2010-06-05T03:24:32Z" uid="4467" user="Rosscoe" changeset="4905786">
    <nd ref="363465181"/>
    <nd ref="764757409"/>
    <nd ref="280390026"/>
    <nd ref="280390094"/>
    <nd ref="280390028"/>
    <nd ref="280390029"/>
    <nd ref="280390095"/>
    <nd ref="280390005"/>
    <nd ref="280390006"/>
    <nd ref="432753848"/>
    <nd ref="280390007"/>
    <nd ref="280390008"/>
    <nd ref="280390009"/>
    <nd ref="280390031"/>
    <nd ref="280390117"/>
    <nd ref="280390118"/>
    <nd ref="280390098"/>
    <nd ref="280390119"/>
    <nd ref="280390120"/>
    <nd ref="665556788"/>
    <tag k="highway" v="tertiary"/>
    <tag k="name" v="Soldiers Road"/>
  </way>
  <way id="25715531" version="12" timestamp="2010-06-05T04:18:24Z" uid="4467" user="Rosscoe" changeset="4905888">
    <nd ref="363465181"/>
    <nd ref="764757409"/>
    <nd ref="280390026"/>
    <nd ref="280390094"/>
    <nd ref="280390028"/>
    <nd ref="280390029"/>
    <nd ref="280390095"/>
    <nd ref="764796544"/>
    <nd ref="280390006"/>
    <nd ref="432753848"/>
    <nd ref="280390007"/>
    <nd ref="280390008"/>
    <nd ref="280390009"/>
    <nd ref="280390031"/>
    <nd ref="280390117"/>
    <nd ref="280390118"/>
    <nd ref="280390098"/>
    <nd ref="280390119"/>
    <nd ref="280390120"/>
    <nd ref="665556788"/>
    <tag k="highway" v="tertiary"/>
    <tag k="name" v="Soldiers Road"/>
  </way>
  <way id="25715531" version="13" timestamp="2010-06-21T07:29:42Z" uid="201443" user="stevage" changeset="5039981">
    <nd ref="363465181"/>
    <nd ref="764757409"/>
    <nd ref="280390026"/>
    <nd ref="280390094"/>
    <nd ref="280390028"/>
    <nd ref="280390029"/>
    <nd ref="280390095"/>
    <nd ref="764796544"/>
    <nd ref="778910901"/>
    <nd ref="280390006"/>
    <nd ref="432753848"/>
    <nd ref="280390007"/>
    <nd ref="280390008"/>
    <nd ref="280390009"/>
    <nd ref="280390031"/>
    <nd ref="280390117"/>
    <nd ref="280390118"/>
    <nd ref="280390098"/>
    <nd ref="280390119"/>
    <nd ref="280390120"/>
    <nd ref="665556788"/>
    <tag k="highway" v="tertiary"/>
    <tag k="name" v="Soldiers Road"/>
  </way>
  <way id="25715531" version="14" timestamp="2011-04-30T12:39:22Z" uid="206929" user="Supt_of_Printing" changeset="8011347"/>
  <way id="25715534" version="5" timestamp="2010-06-05T03:24:44Z" uid="4467" user="Rosscoe" changeset="4905786">
    <nd ref="280390033"/>
    <nd ref="280390042"/>
    <tag k="bridge" v="yes"/>
    <tag k="highway" v="tertiary"/>
    <tag k="layer" v="1"/>
    <tag k="name" v="Bryn Mawr Boulevard"/>
    <tag k="source" v="nearmap"/>
  </way>
  <way id="25715534" version="6" timestamp="2011-04-30T12:39:20Z" uid="206929" user="Supt_of_Printing" changeset="8011347">
    <nd ref="280390033"/>
    <nd ref="1267070738"/>
    <nd ref="280390042"/>
    <tag k="bridge" v="yes"/>
    <tag k="highway" v="tertiary"/>
    <tag k="layer" v="1"/>
    <tag k="name" v="Bryn Mawr Boulevard"/>
    <tag k="source" v="nearmap"/>
  </way>
  <way id="25715535" version="9" timestamp="2010-06-05T03:24:06Z" uid="4467" user="Rosscoe" changeset="4905786">
    <nd ref="280390042"/>
    <nd ref="280390035"/>
    <nd ref="280389988"/>
    <nd ref="280390052"/>
    <nd ref="764757402"/>
    <nd ref="280389990"/>
    <nd ref="280389991"/>
    <nd ref="363468169"/>
    <nd ref="280389992"/>
    <tag k="highway" v="tertiary"/>
    <tag k="name" v="Bryn Mawr Boulevard"/>
    <tag k="source" v="nearmap"/>
  </way>
  <way id="25715535" version="10" timestamp="2011-04-30T12:39:19Z" uid="206929" user="Supt_of_Printing" changeset="8011347">
    <nd ref="280390042"/>
    <nd ref="1267070377"/>
    <nd ref="280390035"/>
    <nd ref="1267070203"/>
    <nd ref="280389988"/>
    <nd ref="1267070171"/>
    <nd ref="280390052"/>
    <nd ref="1267070580"/>
    <nd ref="764757402"/>
    <nd ref="1267070225"/>
    <nd ref="280389990"/>
    <nd ref="1267070151"/>
    <nd ref="280389991"/>
    <nd ref="1267070239"/>
    <nd ref="363468169"/>
    <nd ref="1267070244"/>
    <nd ref="280389992"/>
    <tag k="highway" v="tertiary"/>
    <tag k="name" v="Bryn Mawr Boulevard"/>
    <tag k="source" v="nearmap"/>
  </way>
  <way id="25715535" version="11" timestamp="2011-12-14T14:12:10Z" uid="338866" user="tiger" changeset="10114445">
    <nd ref="280390042"/>
    <nd ref="1267070377"/>
    <nd ref="280389988"/>
    <nd ref="1267070580"/>
    <nd ref="1267070225"/>
    <nd ref="1267070151"/>
    <nd ref="280389991"/>
    <nd ref="363468169"/>
    <nd ref="280389992"/>
    <tag k="highway" v="tertiary"/>
    <tag k="name" v="Bryn Mawr Boulevard"/>
    <tag k="source" v="nearmap"/>
  </way>
  <way id="25715539" version="6" timestamp="2010-07-08T18:58:30Z" uid="74617" user="JohnSmith" changeset="5167338">
    <nd ref="280390256"/>
    <nd ref="280390234"/>
    <nd ref="280390235"/>
    <nd ref="280390236"/>
    <nd ref="280390237"/>
    <nd ref="280390238"/>
    <nd ref="280390239"/>
    <nd ref="280390240"/>
    <nd ref="280390241"/>
    <nd ref="280390242"/>
    <nd ref="280390243"/>
    <nd ref="280390244"/>
    <nd ref="280390257"/>
    <nd ref="280390258"/>
    <nd ref="280390259"/>
    <nd ref="280390260"/>
    <nd ref="280390261"/>
    <nd ref="280390262"/>
    <nd ref="280390263"/>
    <nd ref="280390264"/>
    <nd ref="280390265"/>
    <nd ref="280390266"/>
    <nd ref="280390267"/>
    <nd ref="280390148"/>
    <nd ref="280390149"/>
    <nd ref="280390150"/>
    <tag k="highway" v="residential"/>
    <tag k="maxspeed" v="50"/>
    <tag k="maxspeed:source" v="default residential speed limit in Australia"/>
    <tag k="name" v="Kenilworth Avenue"/>
  </way>
  <way id="25715539" version="7" timestamp="2011-04-28T11:56:57Z" uid="206929" user="Supt_of_Printing" changeset="7993987">
    <nd ref="280390256"/>
    <nd ref="280390234"/>
    <nd ref="280390235"/>
    <nd ref="280390236"/>
    <nd ref="280390237"/>
    <nd ref="280390238"/>
    <nd ref="280390239"/>
    <nd ref="280390240"/>
    <nd ref="280390241"/>
    <nd ref="280390242"/>
    <nd ref="280390243"/>
    <nd ref="280390244"/>
    <nd ref="280390257"/>
    <nd ref="280390258"/>
    <nd ref="280390259"/>
    <nd ref="280390260"/>
    <nd ref="280390261"/>
    <nd ref="280390262"/>
    <nd ref="280390263"/>
    <nd ref="280390264"/>
    <nd ref="280390265"/>
    <nd ref="280390266"/>
    <nd ref="280390267"/>
    <nd ref="280390148"/>
    <nd ref="280390149"/>
    <nd ref="1263340289"/>
    <nd ref="1263340437"/>
    <nd ref="1263340381"/>
    <nd ref="1263340524"/>
    <nd ref="1263340305"/>
    <nd ref="280390150"/>
    <tag k="highway" v="residential"/>
    <tag k="maxspeed" v="50"/>
    <tag k="maxspeed:source" v="default residential speed limit in Australia"/>
    <tag k="name" v="Kenilworth Avenue"/>
  </way>
  <way id="25715539" version="8" timestamp="2012-01-17T00:47:18Z" uid="147510" user="woodpeck_fixbot" changeset="10412890">
    <nd ref="280390256"/>
    <nd ref="280390234"/>
    <nd ref="280390235"/>
    <nd ref="280390236"/>
    <nd ref="280390237"/>
    <nd ref="280390238"/>
    <nd ref="280390239"/>
    <nd ref="280390240"/>
    <nd ref="280390241"/>
    <nd ref="280390242"/>
    <nd ref="280390243"/>
    <nd ref="280390244"/>
    <nd ref="280390257"/>
    <nd ref="280390258"/>
    <nd ref="280390259"/>
    <nd ref="280390260"/>
    <nd ref="280390261"/>
    <nd ref="280390262"/>
    <nd ref="280390263"/>
    <nd ref="280390264"/>
    <nd ref="280390265"/>
    <nd ref="280390266"/>
    <nd ref="280390267"/>
    <nd ref="280390148"/>
    <nd ref="280390149"/>
    <nd ref="1263340289"/>
    <nd ref="1263340437"/>
    <nd ref="1263340381"/>
    <nd ref="1263340524"/>
    <nd ref="1263340305"/>
    <nd ref="280390150"/>
    <tag k="highway" v="residential"/>
    <tag k="name" v="Kenilworth Avenue"/>
  </way>
  <way id="25715541" version="6" timestamp="2010-03-27T23:52:17Z" uid="20587" user="balrog-kun" changeset="4250871">
    <nd ref="89054757"/>
    <nd ref="89054759"/>
    <nd ref="89054779"/>
    <tag k="created_by" v="Potlatch 0.10b"/>
    <tag k="highway" v="trunk"/>
    <tag k="lanes" v="4"/>
    <tag k="name" v="State Route 14"/>
    <tag k="name_1" v="Midland Trail"/>
    <tag k="ref" v="CA 14"/>
    <tag k="tiger:cfcc" v="A31"/>
    <tag k="tiger:county" v="Kern, CA"/>
    <tag k="tiger:name_base" v="State Route 14"/>
    <tag k="tiger:name_base_1" v="Midland"/>
    <tag k="tiger:name_type_1" v="Trl"/>
    <tag k="tiger:separated" v="no"/>
    <tag k="tiger:source" v="tiger_import_dch_v0.6_20070809"/>
    <tag k="tiger:tlid" v="109035079:109486417:109486418:109035076:109568224:109035440:109566957:109011843:109011855:109477043:109477044:109011863:109566967:109477045:109477046:109568223:109035075:109486263:109486265:109486266:109035073:109568168:109035360:109035491:109573627:10901"/>
  </way>
  <way id="25715541" version="7" timestamp="2011-06-23T18:39:22Z" uid="473471" user="NE3" changeset="8525401">
    <nd ref="89054757"/>
    <nd ref="1335885732"/>
    <tag k="highway" v="trunk"/>
    <tag k="lanes" v="3"/>
    <tag k="name" v="State Route 14"/>
    <tag k="name_1" v="Midland Trail"/>
    <tag k="note:lanes" v="1 northbound, 2 southbound"/>
    <tag k="ref" v="CA 14"/>
    <tag k="tiger:cfcc" v="A31"/>
    <tag k="tiger:county" v="Kern, CA"/>
    <tag k="tiger:name_base" v="State Route 14"/>
    <tag k="tiger:name_base_1" v="Midland"/>
    <tag k="tiger:name_type_1" v="Trl"/>
    <tag k="tiger:separated" v="no"/>
    <tag k="tiger:source" v="tiger_import_dch_v0.6_20070809"/>
    <tag k="tiger:tlid" v="109035079:109486417:109486418:109035076:109568224:109035440:109566957:109011843:109011855:109477043:109477044:109011863:109566967:109477045:109477046:109568223:109035075:109486263:109486265:109486266:109035073:109568168:109035360:109035491:109573627:10901"/>
  </way>
  <way id="25715541" version="8" timestamp="2011-07-19T01:08:44Z" uid="473471" user="NE3" changeset="8764274">
    <nd ref="89054757"/>
    <nd ref="1335885732"/>
    <tag k="NHS" v="yes"/>
    <tag k="highway" v="trunk"/>
    <tag k="lanes" v="3"/>
    <tag k="name" v="State Route 14"/>
    <tag k="name_1" v="Midland Trail"/>
    <tag k="note:lanes" v="1 northbound, 2 southbound"/>
    <tag k="ref" v="CA 14"/>
    <tag k="tiger:cfcc" v="A31"/>
    <tag k="tiger:county" v="Kern, CA"/>
    <tag k="tiger:name_base" v="State Route 14"/>
    <tag k="tiger:name_base_1" v="Midland"/>
    <tag k="tiger:name_type_1" v="Trl"/>
    <tag k="tiger:separated" v="no"/>
    <tag k="tiger:source" v="tiger_import_dch_v0.6_20070809"/>
    <tag k="tiger:tlid" v="109035079:109486417:109486418:109035076:109568224:109035440:109566957:109011843:109011855:109477043:109477044:109011863:109566967:109477045:109477046:109568223:109035075:109486263:109486265:109486266:109035073:109568168:109035360:109035491:109573627:10901"/>
  </way>
  <way id="25715541" version="9" timestamp="2011-07-28T12:53:06Z" uid="207745" user="NE2" changeset="8854325">
    <nd ref="89054757"/>
    <nd ref="1335885732"/>
    <tag k="NHS" v="yes"/>
    <tag k="highway" v="trunk"/>
    <tag k="lanes" v="3"/>
    <tag k="name" v="Midland Trail"/>
    <tag k="note:lanes" v="1 northbound, 2 southbound"/>
    <tag k="ref" v="CA 14"/>
    <tag k="tiger:cfcc" v="A31"/>
    <tag k="tiger:county" v="Kern, CA"/>
    <tag k="tiger:name_base" v="State Route 14"/>
    <tag k="tiger:name_base_1" v="Midland"/>
    <tag k="tiger:name_type_1" v="Trl"/>
    <tag k="tiger:separated" v="no"/>
    <tag k="tiger:source" v="tiger_import_dch_v0.6_20070809"/>
    <tag k="tiger:tlid" v="109035079:109486417:109486418:109035076:109568224:109035440:109566957:109011843:109011855:109477043:109477044:109011863:109566967:109477045:109477046:109568223:109035075:109486263:109486265:109486266:109035073:109568168:109035360:109035491:109573627:10901"/>
  </way>
  <way id="25715541" version="10" timestamp="2011-08-25T21:10:05Z" uid="207745" user="NE2" changeset="9125003">
    <nd ref="89054757"/>
    <nd ref="1335885732"/>
    <tag k="NHS" v="yes"/>
    <tag k="highway" v="trunk"/>
    <tag k="lanes" v="3"/>
    <tag k="name" v="Midland Trail"/>
    <tag k="note:lanes" v="1 northbound, 2 southbound"/>
    <tag k="old_ref" v="US 6"/>
    <tag k="ref" v="CA 14"/>
    <tag k="tiger:cfcc" v="A31"/>
    <tag k="tiger:county" v="Kern, CA"/>
    <tag k="tiger:name_base" v="State Route 14"/>
    <tag k="tiger:name_base_1" v="Midland"/>
    <tag k="tiger:name_type_1" v="Trl"/>
    <tag k="tiger:separated" v="no"/>
    <tag k="tiger:source" v="tiger_import_dch_v0.6_20070809"/>
    <tag k="tiger:tlid" v="109035079:109486417:109486418:109035076:109568224:109035440:109566957:109011843:109011855:109477043:109477044:109011863:109566967:109477045:109477046:109568223:109035075:109486263:109486265:109486266:109035073:109568168:109035360:109035491:109573627:10901"/>
  </way>
  <way id="25715541" version="11" timestamp="2011-11-25T14:40:12Z" uid="207745" user="NE2" changeset="9943893">
    <nd ref="89054757"/>
    <nd ref="1335885732"/>
    <tag k="NHS" v="yes"/>
    <tag k="hgv:national_network" v="yes"/>
    <tag k="highway" v="trunk"/>
    <tag k="lanes" v="3"/>
    <tag k="name" v="Midland Trail"/>
    <tag k="note:lanes" v="1 northbound, 2 southbound"/>
    <tag k="old_ref" v="US 6"/>
    <tag k="ref" v="CA 14"/>
    <tag k="source:hgv:national_network" v="Title 23: Highways Part 658 http://ecfr.gpoaccess.gov/cgi/t/text/text-idx?c=ecfr&amp;rgn=div5&amp;view=text&amp;node=23:1.0.1.7.33&amp;idno=23"/>
    <tag k="tiger:cfcc" v="A31"/>
    <tag k="tiger:county" v="Kern, CA"/>
    <tag k="tiger:name_base" v="State Route 14"/>
    <tag k="tiger:name_base_1" v="Midland"/>
    <tag k="tiger:name_type_1" v="Trl"/>
    <tag k="tiger:separated" v="no"/>
    <tag k="tiger:source" v="tiger_import_dch_v0.6_20070809"/>
    <tag k="tiger:tlid" v="109035079:109486417:109486418:109035076:109568224:109035440:109566957:109011843:109011855:109477043:109477044:109011863:109566967:109477045:109477046:109568223:109035075:109486263:109486265:109486266:109035073:109568168:109035360:109035491:109573627:10901"/>
  </way>
  <way id="25715541" version="12" timestamp="2011-11-25T17:13:53Z" uid="207745" user="NE2" changeset="9945963">
    <nd ref="89054757"/>
    <nd ref="1335885732"/>
    <tag k="NHS" v="yes"/>
    <tag k="hgv" v="designated"/>
    <tag k="hgv:national_network" v="yes"/>
    <tag k="highway" v="trunk"/>
    <tag k="lanes" v="3"/>
    <tag k="name" v="Midland Trail"/>
    <tag k="note:lanes" v="1 northbound, 2 southbound"/>
    <tag k="old_ref" v="US 6"/>
    <tag k="ref" v="CA 14"/>
    <tag k="source:hgv:national_network" v="Title 23: Highways Part 658 http://ecfr.gpoaccess.gov/cgi/t/text/text-idx?c=ecfr&amp;rgn=div5&amp;view=text&amp;node=23:1.0.1.7.33&amp;idno=23"/>
    <tag k="tiger:cfcc" v="A31"/>
    <tag k="tiger:county" v="Kern, CA"/>
    <tag k="tiger:name_base" v="State Route 14"/>
    <tag k="tiger:name_base_1" v="Midland"/>
    <tag k="tiger:name_type_1" v="Trl"/>
    <tag k="tiger:separated" v="no"/>
    <tag k="tiger:source" v="tiger_import_dch_v0.6_20070809"/>
    <tag k="tiger:tlid" v="109035079:109486417:109486418:109035076:109568224:109035440:109566957:109011843:109011855:109477043:109477044:109011863:109566967:109477045:109477046:109568223:109035075:109486263:109486265:109486266:109035073:109568168:109035360:109035491:109573627:10901"/>
  </way>
  <way id="25715553" version="8" timestamp="2009-10-03T14:23:00Z" uid="179968" user="Ich_hasse_doitsche_OSM-Korinthenkacker" changeset="2724403">
    <nd ref="280390479"/>
    <nd ref="280390480"/>
    <nd ref="280390481"/>
    <nd ref="280390482"/>
    <nd ref="280390483"/>
    <nd ref="280390461"/>
    <nd ref="280390462"/>
    <nd ref="280390484"/>
    <nd ref="280390485"/>
    <nd ref="280390486"/>
    <nd ref="280390443"/>
    <nd ref="280390487"/>
    <nd ref="280390445"/>
    <nd ref="280390467"/>
    <nd ref="280390468"/>
    <nd ref="280390384"/>
    <nd ref="280390385"/>
    <nd ref="280390386"/>
    <nd ref="280390387"/>
    <nd ref="280390448"/>
    <nd ref="280390449"/>
    <nd ref="280390400"/>
    <nd ref="280390471"/>
    <nd ref="280390455"/>
    <nd ref="280390343"/>
    <nd ref="266894419"/>
    <tag k="name" v="Sellin - Saßnitz"/>
    <tag k="route" v="ferry"/>
  </way>
  <way id="25715553" version="9" timestamp="2009-12-14T10:27:56Z" uid="76587" user="circusfreunde" changeset="3370442">
    <nd ref="280390479"/>
    <nd ref="280390480"/>
    <nd ref="280390481"/>
    <nd ref="280390482"/>
    <nd ref="280390483"/>
    <nd ref="280390461"/>
    <nd ref="280390462"/>
    <nd ref="280390484"/>
    <nd ref="280390485"/>
    <nd ref="280390486"/>
    <nd ref="280390443"/>
    <nd ref="280390487"/>
    <nd ref="280390445"/>
    <nd ref="280390467"/>
    <nd ref="280390468"/>
    <nd ref="280390384"/>
    <nd ref="280390385"/>
    <nd ref="280390386"/>
    <nd ref="280390387"/>
    <nd ref="280390448"/>
    <nd ref="280390449"/>
    <nd ref="280390400"/>
    <nd ref="280390471"/>
    <nd ref="280390455"/>
    <nd ref="280390343"/>
    <nd ref="266894419"/>
    <tag k="name" v="Sassnitz - Sellin"/>
    <tag k="route" v="ferry"/>
  </way>
  <way id="25715553" version="10" timestamp="2010-01-19T14:51:21Z" uid="209311" user="SiggiB" changeset="3659367">
    <nd ref="616703889"/>
    <nd ref="280390480"/>
    <nd ref="280390481"/>
    <nd ref="280390482"/>
    <nd ref="280390483"/>
    <nd ref="280390461"/>
    <nd ref="280390462"/>
    <nd ref="280390484"/>
    <nd ref="280390485"/>
    <nd ref="280390486"/>
    <nd ref="280390443"/>
    <nd ref="280390487"/>
    <nd ref="280390445"/>
    <nd ref="280390467"/>
    <nd ref="280390468"/>
    <nd ref="280390384"/>
    <nd ref="280390385"/>
    <nd ref="280390386"/>
    <nd ref="280390387"/>
    <nd ref="280390448"/>
    <nd ref="280390449"/>
    <nd ref="280390400"/>
    <nd ref="280390471"/>
    <nd ref="280390455"/>
    <nd ref="280390343"/>
    <nd ref="266894419"/>
    <tag k="name" v="Sassnitz - Sellin"/>
    <tag k="route" v="ferry"/>
  </way>
  <way id="25715553" version="11" timestamp="2011-05-17T11:45:40Z" uid="76587" user="nbuettler" changeset="8170882">
    <nd ref="616703889"/>
    <nd ref="280390480"/>
    <nd ref="280390481"/>
    <nd ref="280390482"/>
    <nd ref="280390483"/>
    <nd ref="280390461"/>
    <tag k="name" v="Sassnitz - Sellin"/>
    <tag k="route" v="ferry"/>
  </way>
  <way id="25715554" version="2" timestamp="2010-05-27T13:24:06Z" uid="4467" user="Rosscoe" changeset="4821926">
    <nd ref="280390361"/>
    <nd ref="280390363"/>
    <nd ref="280390365"/>
    <nd ref="280390366"/>
    <nd ref="280390367"/>
    <nd ref="280390368"/>
    <nd ref="280390369"/>
    <nd ref="280390370"/>
    <nd ref="280390371"/>
    <nd ref="280390372"/>
    <nd ref="280390136"/>
    <tag k="highway" v="tertiary"/>
    <tag k="name" v="Woods Street"/>
  </way>
  <way id="25715554" version="3" timestamp="2011-04-28T08:33:10Z" uid="206929" user="Supt_of_Printing" changeset="7992297">
    <nd ref="280390361"/>
    <nd ref="1263155506"/>
    <nd ref="280390363"/>
    <tag k="highway" v="secondary"/>
  </way>
  <way id="25715555" version="2" timestamp="2010-05-27T13:24:07Z" uid="4467" user="Rosscoe" changeset="4821926"/>
  <way id="25715560" version="4" timestamp="2010-06-05T04:18:22Z" uid="4467" user="Rosscoe" changeset="4905888">
    <nd ref="280390040"/>
    <nd ref="280390459"/>
    <tag k="bridge" v="yes"/>
    <tag k="highway" v="tertiary"/>
    <tag k="layer" v="1"/>
    <tag k="name" v="Soldiers Road"/>
    <tag k="source" v="nearmap"/>
  </way>
  <way id="25715561" version="7" timestamp="2010-05-02T03:21:56Z" uid="4467" user="Rosscoe" changeset="4580939">
    <nd ref="280390459"/>
    <nd ref="280390503"/>
    <nd ref="280390504"/>
    <nd ref="280390493"/>
    <nd ref="280390494"/>
    <nd ref="427853638"/>
    <nd ref="280390495"/>
    <nd ref="280390496"/>
    <nd ref="280390497"/>
    <nd ref="280390505"/>
    <nd ref="280390506"/>
    <nd ref="280390507"/>
    <nd ref="280390508"/>
    <nd ref="716306764"/>
    <tag k="highway" v="tertiary"/>
    <tag k="name" v="Soldiers Road"/>
  </way>
  <way id="25715561" version="8" timestamp="2011-05-08T11:57:23Z" uid="206929" user="Supt_of_Printing" changeset="8081782">
    <nd ref="280390459"/>
    <nd ref="1276939590"/>
    <nd ref="280390503"/>
    <nd ref="1276939585"/>
    <nd ref="1276939598"/>
    <nd ref="280390504"/>
    <nd ref="1276939601"/>
    <nd ref="280390493"/>
    <nd ref="280390494"/>
    <nd ref="1276939587"/>
    <nd ref="427853638"/>
    <nd ref="280390495"/>
    <nd ref="1276939586"/>
    <nd ref="280390496"/>
    <nd ref="280390497"/>
    <nd ref="280390505"/>
    <nd ref="1276939522"/>
    <nd ref="1276939606"/>
    <nd ref="280390506"/>
    <nd ref="280390507"/>
    <nd ref="1276939605"/>
    <nd ref="280390508"/>
    <nd ref="1276939517"/>
    <nd ref="716306764"/>
    <tag k="highway" v="tertiary"/>
    <tag k="name" v="Soldiers Road"/>
  </way>
  <way id="25715561" version="9" timestamp="2011-12-09T15:38:59Z" uid="338866" user="tiger" changeset="10073225">
    <nd ref="280390459"/>
    <nd ref="1276939590"/>
    <nd ref="280390503"/>
    <nd ref="1276939585"/>
    <nd ref="1276939598"/>
    <nd ref="280390504"/>
    <nd ref="1538280171"/>
    <nd ref="1276939601"/>
    <nd ref="280390493"/>
    <nd ref="280390494"/>
    <nd ref="1276939587"/>
    <nd ref="427853638"/>
    <nd ref="280390495"/>
    <nd ref="1276939586"/>
    <nd ref="280390496"/>
    <nd ref="280390497"/>
    <nd ref="280390505"/>
    <nd ref="1276939522"/>
    <nd ref="1276939606"/>
    <nd ref="280390506"/>
    <nd ref="280390507"/>
    <nd ref="1276939605"/>
    <nd ref="280390508"/>
    <nd ref="1276939517"/>
    <nd ref="716306764"/>
    <tag k="highway" v="tertiary"/>
    <tag k="name" v="Soldiers Road"/>
  </way>
  <way id="25715564" version="6" timestamp="2010-05-11T14:04:16Z" uid="4467" user="Rosscoe" changeset="4668870">
    <nd ref="31563098"/>
    <nd ref="646734939"/>
    <nd ref="534510656"/>
    <nd ref="729695821"/>
    <tag k="highway" v="tertiary"/>
    <tag k="name" v="Soldiers Road"/>
  </way>
  <way id="25715564" version="7" timestamp="2011-03-31T02:11:11Z" uid="4467" user="Rosscoe" changeset="7722330">
    <nd ref="31563098"/>
    <nd ref="1226317185"/>
    <nd ref="646734939"/>
    <nd ref="1226317184"/>
    <nd ref="534510656"/>
    <nd ref="729695821"/>
    <tag k="highway" v="tertiary"/>
    <tag k="name" v="Soldiers Road"/>
  </way>
  <way id="25715568" version="5" timestamp="2010-05-11T14:04:18Z" uid="4467" user="Rosscoe" changeset="4668870"/>
  <way id="25715572" version="6" timestamp="2010-05-11T14:04:17Z" uid="4467" user="Rosscoe" changeset="4668870">
    <nd ref="729695817"/>
    <nd ref="280390902"/>
    <nd ref="729695823"/>
    <nd ref="280390602"/>
    <nd ref="534510505"/>
    <nd ref="280390604"/>
    <nd ref="280390844"/>
    <tag k="highway" v="tertiary"/>
    <tag k="name" v="Soldiers Road"/>
    <tag k="surface" v="paved"/>
  </way>
  <way id="25715613" version="8" timestamp="2010-03-27T23:52:18Z" uid="20587" user="balrog-kun" changeset="4250871">
    <nd ref="89054779"/>
    <nd ref="89054788"/>
    <nd ref="89054798"/>
    <nd ref="88630117"/>
    <nd ref="88599651"/>
    <nd ref="88509859"/>
    <nd ref="89054818"/>
    <nd ref="88612241"/>
    <nd ref="88598970"/>
    <nd ref="89054826"/>
    <nd ref="89054827"/>
    <nd ref="89054830"/>
    <tag k="created_by" v="Potlatch 0.10b"/>
    <tag k="highway" v="trunk"/>
    <tag k="lanes" v="2"/>
    <tag k="name" v="State Route 14"/>
    <tag k="name_1" v="Midland Trail"/>
    <tag k="ref" v="CA 14"/>
    <tag k="tiger:cfcc" v="A31"/>
    <tag k="tiger:county" v="Kern, CA"/>
    <tag k="tiger:name_base" v="State Route 14"/>
    <tag k="tiger:name_base_1" v="Midland"/>
    <tag k="tiger:name_type_1" v="Trl"/>
    <tag k="tiger:separated" v="no"/>
    <tag k="tiger:source" v="tiger_import_dch_v0.6_20070809"/>
    <tag k="tiger:tlid" v="109035079:109486417:109486418:109035076:109568224:109035440:109566957:109011843:109011855:109477043:109477044:109011863:109566967:109477045:109477046:109568223:109035075:109486263:109486265:109486266:109035073:109568168:109035360:109035491:109573627:10901"/>
  </way>
  <way id="25715613" version="9" timestamp="2011-06-23T18:40:56Z" uid="473471" user="NE3" changeset="8525401">
    <nd ref="89054779"/>
    <nd ref="89054788"/>
    <nd ref="89054798"/>
    <nd ref="88630117"/>
    <nd ref="88599651"/>
    <nd ref="88509859"/>
    <nd ref="89054818"/>
    <nd ref="88612241"/>
    <nd ref="88598970"/>
    <nd ref="89054826"/>
    <nd ref="89054827"/>
    <nd ref="1335886067"/>
    <tag k="highway" v="trunk"/>
    <tag k="lanes" v="2"/>
    <tag k="name" v="State Route 14"/>
    <tag k="name_1" v="Midland Trail"/>
    <tag k="ref" v="CA 14"/>
    <tag k="tiger:cfcc" v="A31"/>
    <tag k="tiger:county" v="Kern, CA"/>
    <tag k="tiger:name_base" v="State Route 14"/>
    <tag k="tiger:name_base_1" v="Midland"/>
    <tag k="tiger:name_type_1" v="Trl"/>
    <tag k="tiger:separated" v="no"/>
    <tag k="tiger:source" v="tiger_import_dch_v0.6_20070809"/>
    <tag k="tiger:tlid" v="109035079:109486417:109486418:109035076:109568224:109035440:109566957:109011843:109011855:109477043:109477044:109011863:109566967:109477045:109477046:109568223:109035075:109486263:109486265:109486266:109035073:109568168:109035360:109035491:109573627:10901"/>
  </way>
  <way id="25715613" version="10" timestamp="2011-07-19T01:08:42Z" uid="473471" user="NE3" changeset="8764274">
    <nd ref="89054779"/>
    <nd ref="89054788"/>
    <nd ref="89054798"/>
    <nd ref="88630117"/>
    <nd ref="88599651"/>
    <nd ref="88509859"/>
    <nd ref="89054818"/>
    <nd ref="88612241"/>
    <nd ref="88598970"/>
    <nd ref="89054826"/>
    <nd ref="89054827"/>
    <nd ref="1335886067"/>
    <tag k="NHS" v="yes"/>
    <tag k="highway" v="trunk"/>
    <tag k="lanes" v="2"/>
    <tag k="name" v="State Route 14"/>
    <tag k="name_1" v="Midland Trail"/>
    <tag k="ref" v="CA 14"/>
    <tag k="tiger:cfcc" v="A31"/>
    <tag k="tiger:county" v="Kern, CA"/>
    <tag k="tiger:name_base" v="State Route 14"/>
    <tag k="tiger:name_base_1" v="Midland"/>
    <tag k="tiger:name_type_1" v="Trl"/>
    <tag k="tiger:separated" v="no"/>
    <tag k="tiger:source" v="tiger_import_dch_v0.6_20070809"/>
    <tag k="tiger:tlid" v="109035079:109486417:109486418:109035076:109568224:109035440:109566957:109011843:109011855:109477043:109477044:109011863:109566967:109477045:109477046:109568223:109035075:109486263:109486265:109486266:109035073:109568168:109035360:109035491:109573627:10901"/>
  </way>
  <way id="25715613" version="11" timestamp="2011-07-28T12:53:04Z" uid="207745" user="NE2" changeset="8854325">
    <nd ref="89054779"/>
    <nd ref="89054788"/>
    <nd ref="89054798"/>
    <nd ref="88630117"/>
    <nd ref="88599651"/>
    <nd ref="88509859"/>
    <nd ref="89054818"/>
    <nd ref="88612241"/>
    <nd ref="88598970"/>
    <nd ref="89054826"/>
    <nd ref="89054827"/>
    <nd ref="1335886067"/>
    <tag k="NHS" v="yes"/>
    <tag k="highway" v="trunk"/>
    <tag k="lanes" v="2"/>
    <tag k="name" v="Midland Trail"/>
    <tag k="ref" v="CA 14"/>
    <tag k="tiger:cfcc" v="A31"/>
    <tag k="tiger:county" v="Kern, CA"/>
    <tag k="tiger:name_base" v="State Route 14"/>
    <tag k="tiger:name_base_1" v="Midland"/>
    <tag k="tiger:name_type_1" v="Trl"/>
    <tag k="tiger:separated" v="no"/>
    <tag k="tiger:source" v="tiger_import_dch_v0.6_20070809"/>
    <tag k="tiger:tlid" v="109035079:109486417:109486418:109035076:109568224:109035440:109566957:109011843:109011855:109477043:109477044:109011863:109566967:109477045:109477046:109568223:109035075:109486263:109486265:109486266:109035073:109568168:109035360:109035491:109573627:10901"/>
  </way>
  <way id="25715613" version="12" timestamp="2011-08-25T21:10:03Z" uid="207745" user="NE2" changeset="9125003">
    <nd ref="89054779"/>
    <nd ref="89054788"/>
    <nd ref="89054798"/>
    <nd ref="88630117"/>
    <nd ref="88599651"/>
    <nd ref="88509859"/>
    <nd ref="89054818"/>
    <nd ref="88612241"/>
    <nd ref="88598970"/>
    <nd ref="89054826"/>
    <nd ref="89054827"/>
    <nd ref="1335886067"/>
    <tag k="NHS" v="yes"/>
    <tag k="highway" v="trunk"/>
    <tag k="lanes" v="2"/>
    <tag k="name" v="Midland Trail"/>
    <tag k="old_ref" v="US 6"/>
    <tag k="ref" v="CA 14"/>
    <tag k="tiger:cfcc" v="A31"/>
    <tag k="tiger:county" v="Kern, CA"/>
    <tag k="tiger:name_base" v="State Route 14"/>
    <tag k="tiger:name_base_1" v="Midland"/>
    <tag k="tiger:name_type_1" v="Trl"/>
    <tag k="tiger:separated" v="no"/>
    <tag k="tiger:source" v="tiger_import_dch_v0.6_20070809"/>
    <tag k="tiger:tlid" v="109035079:109486417:109486418:109035076:109568224:109035440:109566957:109011843:109011855:109477043:109477044:109011863:109566967:109477045:109477046:109568223:109035075:109486263:109486265:109486266:109035073:109568168:109035360:109035491:109573627:10901"/>
  </way>
  <way id="25715613" version="13" timestamp="2011-11-25T14:40:09Z" uid="207745" user="NE2" changeset="9943893">
    <nd ref="89054779"/>
    <nd ref="89054788"/>
    <nd ref="89054798"/>
    <nd ref="88630117"/>
    <nd ref="88599651"/>
    <nd ref="88509859"/>
    <nd ref="89054818"/>
    <nd ref="88612241"/>
    <nd ref="88598970"/>
    <nd ref="89054826"/>
    <nd ref="89054827"/>
    <nd ref="1335886067"/>
    <tag k="NHS" v="yes"/>
    <tag k="hgv:national_network" v="yes"/>
    <tag k="highway" v="trunk"/>
    <tag k="lanes" v="2"/>
    <tag k="name" v="Midland Trail"/>
    <tag k="old_ref" v="US 6"/>
    <tag k="ref" v="CA 14"/>
    <tag k="source:hgv:national_network" v="Title 23: Highways Part 658 http://ecfr.gpoaccess.gov/cgi/t/text/text-idx?c=ecfr&amp;rgn=div5&amp;view=text&amp;node=23:1.0.1.7.33&amp;idno=23"/>
    <tag k="tiger:cfcc" v="A31"/>
    <tag k="tiger:county" v="Kern, CA"/>
    <tag k="tiger:name_base" v="State Route 14"/>
    <tag k="tiger:name_base_1" v="Midland"/>
    <tag k="tiger:name_type_1" v="Trl"/>
    <tag k="tiger:separated" v="no"/>
    <tag k="tiger:source" v="tiger_import_dch_v0.6_20070809"/>
    <tag k="tiger:tlid" v="109035079:109486417:109486418:109035076:109568224:109035440:109566957:109011843:109011855:109477043:109477044:109011863:109566967:109477045:109477046:109568223:109035075:109486263:109486265:109486266:109035073:109568168:109035360:109035491:109573627:10901"/>
  </way>
  <way id="25715613" version="14" timestamp="2011-11-25T17:13:50Z" uid="207745" user="NE2" changeset="9945963">
    <nd ref="89054779"/>
    <nd ref="89054788"/>
    <nd ref="89054798"/>
    <nd ref="88630117"/>
    <nd ref="88599651"/>
    <nd ref="88509859"/>
    <nd ref="89054818"/>
    <nd ref="88612241"/>
    <nd ref="88598970"/>
    <nd ref="89054826"/>
    <nd ref="89054827"/>
    <nd ref="1335886067"/>
    <tag k="NHS" v="yes"/>
    <tag k="hgv" v="designated"/>
    <tag k="hgv:national_network" v="yes"/>
    <tag k="highway" v="trunk"/>
    <tag k="lanes" v="2"/>
    <tag k="name" v="Midland Trail"/>
    <tag k="old_ref" v="US 6"/>
    <tag k="ref" v="CA 14"/>
    <tag k="source:hgv:national_network" v="Title 23: Highways Part 658 http://ecfr.gpoaccess.gov/cgi/t/text/text-idx?c=ecfr&amp;rgn=div5&amp;view=text&amp;node=23:1.0.1.7.33&amp;idno=23"/>
    <tag k="tiger:cfcc" v="A31"/>
    <tag k="tiger:county" v="Kern, CA"/>
    <tag k="tiger:name_base" v="State Route 14"/>
    <tag k="tiger:name_base_1" v="Midland"/>
    <tag k="tiger:name_type_1" v="Trl"/>
    <tag k="tiger:separated" v="no"/>
    <tag k="tiger:source" v="tiger_import_dch_v0.6_20070809"/>
    <tag k="tiger:tlid" v="109035079:109486417:109486418:109035076:109568224:109035440:109566957:109011843:109011855:109477043:109477044:109011863:109566967:109477045:109477046:109568223:109035075:109486263:109486265:109486266:109035073:109568168:109035360:109035491:109573627:10901"/>
  </way>
  <way id="25715624" version="17" timestamp="2009-02-23T13:07:14Z" uid="34428" user="usm78-gis" changeset="634299"/>
  <way id="25715650" version="1" timestamp="2008-07-23T05:46:02Z" uid="43863" user="Rundling" changeset="572838">
    <nd ref="280391296"/>
    <nd ref="280391297"/>
    <tag k="created_by" v="Potlatch 0.10"/>
    <tag k="highway" v="service"/>
  </way>
  <way id="25715650" version="2" timestamp="2008-08-12T16:13:16Z" uid="43863" user="Rundling" changeset="211912">
    <nd ref="287330000"/>
    <nd ref="280391297"/>
    <nd ref="287329999"/>
    <tag k="created_by" v="Potlatch 0.10b"/>
    <tag k="highway" v="service"/>
  </way>
  <way id="25715651" version="1" timestamp="2008-07-23T05:46:49Z" uid="43863" user="Rundling" changeset="572838">
    <nd ref="280391299"/>
    <nd ref="280391300"/>
    <tag k="created_by" v="Potlatch 0.10"/>
    <tag k="highway" v="residential"/>
  </way>
  <way id="25715651" version="2" timestamp="2008-07-23T05:57:17Z" uid="43863" user="Rundling" changeset="572838">
    <nd ref="280391299"/>
    <nd ref="280391599"/>
    <tag k="created_by" v="Potlatch 0.10"/>
    <tag k="highway" v="residential"/>
    <tag k="name" v="Tannenweg"/>
  </way>
  <way id="25715651" version="3" timestamp="2008-07-23T18:15:36Z" uid="43863" user="Rundling" changeset="578416">
    <nd ref="280391299"/>
    <nd ref="280391599"/>
    <tag k="created_by" v="Potlatch 0.10"/>
    <tag k="highway" v="residential"/>
    <tag k="name" v="Am Bahnhof"/>
  </way>
  <way id="25715651" version="4" timestamp="2008-08-12T16:13:26Z" uid="43863" user="Rundling" changeset="211912">
    <nd ref="280391599"/>
    <nd ref="287330014"/>
    <tag k="created_by" v="Potlatch 0.10b"/>
    <tag k="highway" v="residential"/>
    <tag k="name" v="Am Bahnhof"/>
  </way>
  <way id="25715652" version="1" timestamp="2008-07-23T05:48:05Z" uid="43863" user="Rundling" changeset="572838">
    <nd ref="280391303"/>
    <nd ref="280391304"/>
    <nd ref="280391305"/>
    <nd ref="280391306"/>
    <nd ref="280391307"/>
    <nd ref="280391308"/>
    <nd ref="280391309"/>
    <tag k="created_by" v="Potlatch 0.10"/>
    <tag k="highway" v="secondary"/>
    <tag k="name" v="K54"/>
  </way>
  <way id="25715652" version="2" timestamp="2008-07-23T05:49:01Z" uid="43863" user="Rundling" changeset="572838">
    <nd ref="280391314"/>
    <nd ref="280391315"/>
    <nd ref="280391316"/>
    <nd ref="280391317"/>
    <nd ref="280391318"/>
    <nd ref="280391319"/>
    <nd ref="280391320"/>
    <nd ref="280391304"/>
    <nd ref="280391305"/>
    <nd ref="280391321"/>
    <nd ref="280391322"/>
    <nd ref="280391308"/>
    <nd ref="280391309"/>
    <tag k="created_by" v="Potlatch 0.10"/>
    <tag k="highway" v="secondary"/>
    <tag k="name" v="K54"/>
  </way>
  <way id="25715652" version="3" timestamp="2008-07-23T05:55:36Z" uid="43863" user="Rundling" changeset="572838">
    <nd ref="280391314"/>
    <nd ref="280391315"/>
    <nd ref="280391316"/>
    <nd ref="280391317"/>
    <nd ref="280391600"/>
    <nd ref="280391601"/>
    <nd ref="280391602"/>
    <nd ref="280391304"/>
    <nd ref="280391305"/>
    <tag k="created_by" v="Potlatch 0.10"/>
    <tag k="highway" v="secondary"/>
    <tag k="name" v="K54"/>
  </way>
  <way id="25715652" version="4" timestamp="2008-07-23T05:56:02Z" uid="43863" user="Rundling" changeset="572838">
    <nd ref="280391314"/>
    <nd ref="280391315"/>
    <nd ref="280391316"/>
    <nd ref="280391317"/>
    <nd ref="280391616"/>
    <nd ref="280391601"/>
    <nd ref="280391617"/>
    <nd ref="280391304"/>
    <nd ref="280391305"/>
    <tag k="created_by" v="Potlatch 0.10"/>
    <tag k="highway" v="secondary"/>
    <tag k="name" v="Puttbarg"/>
    <tag k="ref" v="K54"/>
  </way>
  <way id="25715652" version="5" timestamp="2008-07-23T05:56:24Z" uid="43863" user="Rundling" changeset="572838">
    <nd ref="280391314"/>
    <nd ref="280391315"/>
    <nd ref="280391316"/>
    <nd ref="280391317"/>
    <nd ref="280391616"/>
    <nd ref="280391601"/>
    <nd ref="280391630"/>
    <nd ref="280391304"/>
    <nd ref="280391305"/>
    <tag k="created_by" v="Potlatch 0.10"/>
    <tag k="highway" v="secondary"/>
    <tag k="name" v="Himberger Straße"/>
    <tag k="ref" v="K54"/>
  </way>
  <way id="25715652" version="6" timestamp="2008-07-23T18:18:12Z" uid="43863" user="Rundling" changeset="578416">
    <nd ref="280522181"/>
    <nd ref="280522182"/>
    <nd ref="280522183"/>
    <nd ref="280522184"/>
    <nd ref="280522185"/>
    <nd ref="280522186"/>
    <nd ref="280522187"/>
    <nd ref="280522188"/>
    <nd ref="280522189"/>
    <nd ref="280522190"/>
    <nd ref="280522191"/>
    <nd ref="280522192"/>
    <nd ref="280391314"/>
    <nd ref="280391315"/>
    <nd ref="280391316"/>
    <nd ref="280391317"/>
    <nd ref="280391616"/>
    <nd ref="280391601"/>
    <nd ref="280391630"/>
    <nd ref="280391304"/>
    <nd ref="280391305"/>
    <tag k="created_by" v="Potlatch 0.10"/>
    <tag k="highway" v="secondary"/>
    <tag k="name" v="Himberger Straße"/>
    <tag k="ref" v="K54"/>
  </way>
  <way id="25715652" version="7" timestamp="2008-07-23T18:18:45Z" uid="43863" user="Rundling" changeset="578416">
    <nd ref="280522254"/>
    <nd ref="280522231"/>
    <nd ref="280522255"/>
    <nd ref="280522256"/>
    <nd ref="280522257"/>
    <nd ref="280522258"/>
    <nd ref="280522259"/>
    <nd ref="280522260"/>
    <nd ref="280522261"/>
    <nd ref="280522262"/>
    <nd ref="280522263"/>
    <nd ref="280522264"/>
    <nd ref="280522265"/>
    <nd ref="280391314"/>
    <nd ref="280391315"/>
    <nd ref="280391316"/>
    <nd ref="280391317"/>
    <nd ref="280391616"/>
    <nd ref="280391601"/>
    <nd ref="280391630"/>
    <nd ref="280391304"/>
    <nd ref="280391305"/>
    <tag k="created_by" v="Potlatch 0.10"/>
    <tag k="highway" v="secondary"/>
    <tag k="name" v="Himberger Straße"/>
    <tag k="ref" v="K54"/>
  </way>
  <way id="25715652" version="8" timestamp="2008-07-24T06:58:04Z" uid="43863" user="Rundling" changeset="580631">
    <nd ref="280522254"/>
    <nd ref="280522231"/>
    <nd ref="280522255"/>
    <nd ref="280522256"/>
    <nd ref="280522257"/>
    <nd ref="280522258"/>
    <nd ref="280522259"/>
    <nd ref="280522260"/>
    <nd ref="280522261"/>
    <nd ref="280522262"/>
    <nd ref="280522263"/>
    <nd ref="280522264"/>
    <nd ref="280522265"/>
    <nd ref="280391314"/>
    <nd ref="280391315"/>
    <nd ref="280391316"/>
    <nd ref="280391317"/>
    <nd ref="280391616"/>
    <nd ref="280391601"/>
    <nd ref="280391630"/>
    <tag k="created_by" v="Potlatch 0.10"/>
    <tag k="highway" v="secondary"/>
    <tag k="name" v="Himberger Straße"/>
    <tag k="ref" v="K54"/>
  </way>
  <way id="25715652" version="9" timestamp="2008-07-24T07:00:40Z" uid="43863" user="Rundling" changeset="580631">
    <nd ref="280522254"/>
    <nd ref="280522231"/>
    <nd ref="280522255"/>
    <nd ref="280522256"/>
    <nd ref="280522257"/>
    <nd ref="280522258"/>
    <nd ref="280522259"/>
    <nd ref="280522260"/>
    <nd ref="280522261"/>
    <nd ref="280522262"/>
    <nd ref="280522263"/>
    <nd ref="280522264"/>
    <nd ref="280522265"/>
    <nd ref="280391314"/>
    <nd ref="280391315"/>
    <nd ref="280391316"/>
    <nd ref="280391317"/>
    <nd ref="280391616"/>
    <nd ref="280391601"/>
    <nd ref="280391630"/>
    <tag k="created_by" v="Potlatch 0.10"/>
    <tag k="highway" v="secondary"/>
    <tag k="name" v="K54"/>
    <tag k="ref" v="K54"/>
  </way>
  <way id="25715652" version="10" timestamp="2008-07-30T12:41:41Z" uid="43863" user="Rundling" changeset="627277">
    <nd ref="280522254"/>
    <nd ref="280522231"/>
    <nd ref="280522255"/>
    <nd ref="280522256"/>
    <nd ref="280522257"/>
    <nd ref="280522258"/>
    <nd ref="280522259"/>
    <nd ref="280522260"/>
    <nd ref="280522261"/>
    <nd ref="280522262"/>
    <nd ref="280522263"/>
    <nd ref="280522264"/>
    <nd ref="280522265"/>
    <nd ref="280391314"/>
    <nd ref="280391315"/>
    <nd ref="280391316"/>
    <nd ref="280391317"/>
    <nd ref="280391616"/>
    <nd ref="280391601"/>
    <nd ref="280391630"/>
    <tag k="created_by" v="Potlatch 0.10a"/>
    <tag k="highway" v="secondary"/>
    <tag k="ref" v="K54"/>
  </way>
  <way id="25715652" version="11" timestamp="2008-07-30T14:20:57Z" uid="43863" user="Rundling" changeset="627277">
    <nd ref="282232821"/>
    <nd ref="280522254"/>
    <nd ref="280522231"/>
    <nd ref="280522255"/>
    <nd ref="280522256"/>
    <nd ref="280522257"/>
    <nd ref="280522258"/>
    <nd ref="280522259"/>
    <nd ref="280522260"/>
    <nd ref="280522261"/>
    <nd ref="280522262"/>
    <nd ref="280522263"/>
    <nd ref="280522264"/>
    <nd ref="280522265"/>
    <nd ref="280391314"/>
    <nd ref="280391315"/>
    <nd ref="280391316"/>
    <nd ref="280391317"/>
    <nd ref="280391616"/>
    <nd ref="280391601"/>
    <nd ref="280391630"/>
    <tag k="created_by" v="Potlatch 0.10a"/>
    <tag k="highway" v="secondary"/>
    <tag k="ref" v="K54"/>
  </way>
  <way id="25715652" version="12" timestamp="2008-07-30T14:21:04Z" uid="43863" user="Rundling" changeset="627277">
    <nd ref="282232881"/>
    <nd ref="282232886"/>
    <nd ref="282232821"/>
    <nd ref="280522254"/>
    <nd ref="280522231"/>
    <nd ref="280522255"/>
    <nd ref="280522256"/>
    <nd ref="280522257"/>
    <nd ref="280522258"/>
    <nd ref="280522259"/>
    <nd ref="280522260"/>
    <nd ref="280522261"/>
    <nd ref="280522262"/>
    <nd ref="280522263"/>
    <nd ref="280522264"/>
    <nd ref="280522265"/>
    <nd ref="280391314"/>
    <nd ref="280391315"/>
    <nd ref="280391316"/>
    <nd ref="280391317"/>
    <nd ref="280391616"/>
    <nd ref="280391601"/>
    <nd ref="280391630"/>
    <tag k="created_by" v="Potlatch 0.10a"/>
    <tag k="highway" v="secondary"/>
    <tag k="ref" v="K54"/>
  </way>
  <way id="25715652" version="13" timestamp="2008-08-07T18:11:36Z" uid="43863" user="Rundling" changeset="128023">
    <nd ref="282232881"/>
    <nd ref="282232886"/>
    <nd ref="282232821"/>
    <nd ref="280522254"/>
    <nd ref="280522231"/>
    <nd ref="280522255"/>
    <nd ref="280522256"/>
    <nd ref="280522257"/>
    <nd ref="280522258"/>
    <nd ref="280522259"/>
    <nd ref="280522260"/>
    <nd ref="280522261"/>
    <nd ref="280522262"/>
    <nd ref="280522263"/>
    <nd ref="280522264"/>
    <nd ref="280522265"/>
    <nd ref="280391314"/>
    <nd ref="285984050"/>
    <nd ref="280391315"/>
    <nd ref="280391316"/>
    <nd ref="280391317"/>
    <nd ref="280391616"/>
    <nd ref="280391601"/>
    <nd ref="280391630"/>
    <tag k="created_by" v="Potlatch 0.10b"/>
    <tag k="highway" v="secondary"/>
    <tag k="ref" v="K54"/>
  </way>
  <way id="25715652" version="14" timestamp="2008-08-12T16:03:44Z" uid="43863" user="Rundling" changeset="211912">
    <nd ref="282232881"/>
    <nd ref="282232886"/>
    <nd ref="282232821"/>
    <nd ref="280522254"/>
    <nd ref="280522231"/>
    <nd ref="280522255"/>
    <nd ref="280522256"/>
    <nd ref="280522257"/>
    <nd ref="280522258"/>
    <nd ref="280522259"/>
    <nd ref="280522260"/>
    <nd ref="280522261"/>
    <nd ref="280522262"/>
    <nd ref="280522263"/>
    <nd ref="280522264"/>
    <nd ref="280522265"/>
    <nd ref="280391314"/>
    <nd ref="285984050"/>
    <nd ref="280391315"/>
    <nd ref="280391316"/>
    <nd ref="280391317"/>
    <nd ref="287328206"/>
    <nd ref="280391616"/>
    <nd ref="280391601"/>
    <nd ref="280391630"/>
    <tag k="created_by" v="Potlatch 0.10b"/>
    <tag k="highway" v="secondary"/>
    <tag k="ref" v="K54"/>
  </way>
  <way id="25715652" version="15" timestamp="2008-08-12T16:04:15Z" uid="43863" user="Rundling" changeset="211912">
    <nd ref="282232881"/>
    <nd ref="282232886"/>
    <nd ref="282232821"/>
    <nd ref="280522254"/>
    <nd ref="280522231"/>
    <nd ref="280522255"/>
    <nd ref="280522256"/>
    <nd ref="280522257"/>
    <nd ref="280522258"/>
    <nd ref="280522259"/>
    <nd ref="280522260"/>
    <nd ref="280522261"/>
    <nd ref="280522262"/>
    <nd ref="280522263"/>
    <nd ref="280522264"/>
    <nd ref="280522265"/>
    <nd ref="280391314"/>
    <nd ref="287328304"/>
    <nd ref="285984050"/>
    <nd ref="280391315"/>
    <nd ref="280391316"/>
    <nd ref="280391317"/>
    <nd ref="287328206"/>
    <nd ref="280391616"/>
    <nd ref="280391601"/>
    <nd ref="280391630"/>
    <tag k="created_by" v="Potlatch 0.10b"/>
    <tag k="highway" v="secondary"/>
    <tag k="ref" v="K54"/>
  </way>
  <way id="25715652" version="16" timestamp="2008-08-12T16:05:13Z" uid="43863" user="Rundling" changeset="211912">
    <nd ref="282232881"/>
    <nd ref="282232886"/>
    <nd ref="282232821"/>
    <nd ref="280522254"/>
    <nd ref="287328608"/>
    <nd ref="280522231"/>
    <nd ref="280522255"/>
    <nd ref="280522256"/>
    <nd ref="280522257"/>
    <nd ref="280522258"/>
    <nd ref="280522259"/>
    <nd ref="280522260"/>
    <nd ref="280522261"/>
    <nd ref="280522262"/>
    <nd ref="280522263"/>
    <nd ref="280522264"/>
    <nd ref="280522265"/>
    <nd ref="280391314"/>
    <nd ref="287328304"/>
    <nd ref="285984050"/>
    <nd ref="280391315"/>
    <nd ref="280391316"/>
    <nd ref="280391317"/>
    <nd ref="287328206"/>
    <nd ref="280391616"/>
    <nd ref="280391601"/>
    <nd ref="280391630"/>
    <tag k="created_by" v="Potlatch 0.10b"/>
    <tag k="highway" v="secondary"/>
    <tag k="ref" v="K54"/>
  </way>
  <way id="25715652" version="17" timestamp="2008-08-13T05:59:23Z" uid="43863" user="Rundling" changeset="217016">
    <nd ref="282232881"/>
    <nd ref="282232886"/>
    <nd ref="282232821"/>
    <nd ref="280522254"/>
    <nd ref="287328608"/>
    <nd ref="280522231"/>
    <nd ref="280522255"/>
    <nd ref="280522256"/>
    <nd ref="280522257"/>
    <nd ref="280522258"/>
    <nd ref="280522259"/>
    <nd ref="280522260"/>
    <nd ref="280522261"/>
    <nd ref="280522262"/>
    <nd ref="280522263"/>
    <nd ref="280522264"/>
    <nd ref="280522265"/>
    <nd ref="280391314"/>
    <nd ref="287328304"/>
    <nd ref="285984050"/>
    <nd ref="280391315"/>
    <nd ref="280391316"/>
    <nd ref="280391317"/>
    <nd ref="287328206"/>
    <nd ref="280391616"/>
    <nd ref="280391601"/>
    <nd ref="280391630"/>
    <tag k="created_by" v="Potlatch 0.10b"/>
    <tag k="highway" v="secondary"/>
    <tag k="ref" v="K 54"/>
  </way>
  <way id="25715652" version="18" timestamp="2008-08-13T09:08:37Z" uid="43863" user="Rundling" changeset="218683">
    <nd ref="282232881"/>
    <nd ref="282232886"/>
    <nd ref="287538940"/>
    <nd ref="282232821"/>
    <nd ref="280522254"/>
    <nd ref="287328608"/>
    <nd ref="280522231"/>
    <nd ref="280522255"/>
    <nd ref="280522256"/>
    <nd ref="280522257"/>
    <nd ref="280522258"/>
    <nd ref="280522259"/>
    <nd ref="280522260"/>
    <nd ref="280522261"/>
    <nd ref="280522262"/>
    <nd ref="280522263"/>
    <nd ref="280522264"/>
    <nd ref="280522265"/>
    <nd ref="280391314"/>
    <nd ref="287328304"/>
    <nd ref="285984050"/>
    <nd ref="280391315"/>
    <nd ref="280391316"/>
    <nd ref="280391317"/>
    <nd ref="287328206"/>
    <nd ref="280391616"/>
    <nd ref="280391601"/>
    <nd ref="280391630"/>
    <tag k="created_by" v="Potlatch 0.10b"/>
    <tag k="highway" v="secondary"/>
    <tag k="ref" v="K 54"/>
  </way>
  <way id="25715652" version="19" timestamp="2008-08-13T09:09:14Z" uid="43863" user="Rundling" changeset="218683">
    <nd ref="282232881"/>
    <nd ref="282232886"/>
    <nd ref="287539003"/>
    <nd ref="282232821"/>
    <nd ref="280522254"/>
    <nd ref="287328608"/>
    <nd ref="280522231"/>
    <nd ref="280522255"/>
    <nd ref="280522256"/>
    <nd ref="280522257"/>
    <nd ref="280522258"/>
    <nd ref="280522259"/>
    <nd ref="280522260"/>
    <nd ref="280522261"/>
    <nd ref="280522262"/>
    <nd ref="280522263"/>
    <nd ref="280522264"/>
    <nd ref="280522265"/>
    <nd ref="280391314"/>
    <nd ref="287328304"/>
    <nd ref="285984050"/>
    <nd ref="280391315"/>
    <nd ref="280391316"/>
    <nd ref="280391317"/>
    <nd ref="287328206"/>
    <nd ref="280391616"/>
    <nd ref="280391601"/>
    <nd ref="280391630"/>
    <tag k="created_by" v="Potlatch 0.10b"/>
    <tag k="highway" v="secondary"/>
    <tag k="ref" v="K 54"/>
  </way>
  <way id="25715652" version="20" timestamp="2008-09-09T14:52:35Z" uid="43863" user="Rundling" changeset="582421">
    <nd ref="282232881"/>
    <nd ref="282232886"/>
    <nd ref="287539003"/>
    <nd ref="282232821"/>
    <nd ref="280522254"/>
    <nd ref="287328608"/>
    <nd ref="295365684"/>
    <nd ref="280522231"/>
    <nd ref="280522255"/>
    <nd ref="280522256"/>
    <nd ref="280522257"/>
    <nd ref="280522258"/>
    <nd ref="280522259"/>
    <nd ref="280522260"/>
    <nd ref="280522261"/>
    <nd ref="280522262"/>
    <nd ref="280522263"/>
    <nd ref="280522264"/>
    <nd ref="280522265"/>
    <nd ref="280391314"/>
    <nd ref="287328304"/>
    <nd ref="285984050"/>
    <nd ref="280391315"/>
    <nd ref="280391316"/>
    <nd ref="280391317"/>
    <nd ref="287328206"/>
    <nd ref="280391616"/>
    <nd ref="280391601"/>
    <nd ref="280391630"/>
    <tag k="created_by" v="Potlatch 0.10b"/>
    <tag k="highway" v="secondary"/>
    <tag k="ref" v="K 54"/>
  </way>
  <way id="25715652" version="21" timestamp="2008-09-20T20:43:00Z" uid="51324" user="OPerivar" changeset="669000">
    <nd ref="282232881"/>
    <nd ref="282232886"/>
    <nd ref="287539003"/>
    <nd ref="282232821"/>
    <nd ref="280522254"/>
    <nd ref="287328608"/>
    <nd ref="295365684"/>
    <nd ref="280522206"/>
    <nd ref="280522255"/>
    <nd ref="280522256"/>
    <nd ref="280522257"/>
    <nd ref="280522258"/>
    <nd ref="280522259"/>
    <nd ref="280522260"/>
    <nd ref="280522261"/>
    <nd ref="280522262"/>
    <nd ref="280522263"/>
    <nd ref="280522264"/>
    <nd ref="280522265"/>
    <nd ref="280391314"/>
    <nd ref="287328304"/>
    <nd ref="285984050"/>
    <nd ref="280391315"/>
    <nd ref="280391316"/>
    <nd ref="280391317"/>
    <nd ref="287328206"/>
    <nd ref="280391616"/>
    <nd ref="280391601"/>
    <nd ref="280391630"/>
    <tag k="created_by" v="Potlatch 0.10b"/>
    <tag k="highway" v="secondary"/>
    <tag k="ref" v="K 54"/>
  </way>
  <way id="25715652" version="22" timestamp="2008-11-25T09:36:47Z" uid="43863" user="Rundling" changeset="791325">
    <nd ref="282232881"/>
    <nd ref="282232886"/>
    <nd ref="287539003"/>
    <nd ref="282232821"/>
    <tag k="created_by" v="Potlatch 0.10b"/>
    <tag k="highway" v="secondary"/>
    <tag k="name" v="Stoetzer Straße"/>
    <tag k="ref" v="K 54"/>
  </way>
  <way id="25715652" version="23" timestamp="2008-11-25T14:00:37Z" uid="43863" user="Rundling" changeset="791826">
    <nd ref="314637676"/>
    <nd ref="282232886"/>
    <nd ref="314637674"/>
    <tag k="created_by" v="Potlatch 0.10b"/>
    <tag k="highway" v="secondary"/>
    <tag k="name" v="Stoetzer Straße"/>
    <tag k="ref" v="K 54"/>
  </way>
  <way id="25715652" version="24" timestamp="2008-12-03T21:23:16Z" uid="43863" user="Rundling" changeset="82725">
    <nd ref="314637676"/>
    <nd ref="282232886"/>
    <nd ref="316511649"/>
    <nd ref="314637674"/>
    <tag k="created_by" v="Potlatch 0.10b"/>
    <tag k="highway" v="secondary"/>
    <tag k="name" v="Stoetzer Straße"/>
    <tag k="ref" v="K 54"/>
  </way>
  <way id="25715652" version="25" timestamp="2008-12-16T19:25:43Z" uid="43863" user="Rundling" changeset="424249">
    <nd ref="319270755"/>
    <nd ref="282232886"/>
    <nd ref="316511649"/>
    <nd ref="314637674"/>
    <tag k="created_by" v="Potlatch 0.10b"/>
    <tag k="highway" v="secondary"/>
    <tag k="name" v="Stoetzer Straße"/>
    <tag k="ref" v="K 54"/>
  </way>
  <way id="25715652" version="26" timestamp="2008-12-24T10:07:37Z" uid="43863" user="Rundling" changeset="581932">
    <nd ref="319270755"/>
    <nd ref="282232886"/>
    <nd ref="316511649"/>
    <nd ref="314637674"/>
    <tag k="created_by" v="Potlatch 0.10b"/>
    <tag k="highway" v="tertiary"/>
    <tag k="name" v="Stoetzer Straße"/>
    <tag k="ref" v="K 54"/>
  </way>
  <way id="25715652" version="27" timestamp="2009-06-10T16:53:05Z" uid="43863" user="Rundling" changeset="1479536">
    <nd ref="319270755"/>
    <nd ref="282232886"/>
    <nd ref="316511649"/>
    <nd ref="314637674"/>
    <tag k="highway" v="tertiary"/>
    <tag k="name" v="Stoetzer Straße"/>
    <tag k="ref" v="K 54"/>
  </way>
  <way id="25715654" version="1" timestamp="2008-07-23T05:48:18Z" uid="43863" user="Rundling" changeset="572838">
    <nd ref="280391291"/>
    <nd ref="280391310"/>
    <nd ref="280391293"/>
    <nd ref="280391308"/>
    <tag k="created_by" v="Potlatch 0.10"/>
    <tag k="highway" v="tertiary"/>
    <tag k="name" v="L252"/>
    <tag k="ref" v="1"/>
  </way>
  <way id="25715654" version="2" timestamp="2008-07-23T05:54:34Z" uid="43863" user="Rundling" changeset="572838"/>
  <way id="25715655" version="1" timestamp="2008-07-23T05:48:41Z" uid="43863" user="Rundling" changeset="572838">
    <nd ref="280391311"/>
    <nd ref="280391312"/>
    <nd ref="280391313"/>
    <nd ref="280391291"/>
    <tag k="created_by" v="Potlatch 0.10"/>
    <tag k="highway" v="residential"/>
  </way>
  <way id="25715655" version="2" timestamp="2008-07-23T05:56:48Z" uid="43863" user="Rundling" changeset="572838">
    <nd ref="280391311"/>
    <nd ref="280391650"/>
    <nd ref="280391313"/>
    <nd ref="280391291"/>
    <tag k="created_by" v="Potlatch 0.10"/>
    <tag k="highway" v="residential"/>
    <tag k="name" v="Altdorf"/>
  </way>
  <way id="25715655" version="3" timestamp="2008-07-23T18:15:40Z" uid="43863" user="Rundling" changeset="578416">
    <nd ref="280391311"/>
    <nd ref="280391650"/>
    <nd ref="280391313"/>
    <nd ref="280391291"/>
    <tag k="created_by" v="Potlatch 0.10"/>
    <tag k="highway" v="residential"/>
    <tag k="name" v="Altdorf"/>
  </way>
  <way id="25715655" version="4" timestamp="2008-08-12T16:03:04Z" uid="43863" user="Rundling" changeset="211912">
    <nd ref="280391311"/>
    <nd ref="280391650"/>
    <nd ref="280391313"/>
    <nd ref="287328081"/>
    <nd ref="280391291"/>
    <tag k="created_by" v="Potlatch 0.10b"/>
    <tag k="highway" v="residential"/>
    <tag k="name" v="Altdorf"/>
  </way>
  <way id="25715655" version="5" timestamp="2008-08-12T16:03:23Z" uid="43863" user="Rundling" changeset="211912">
    <nd ref="280391311"/>
    <nd ref="287328130"/>
    <nd ref="280391650"/>
    <nd ref="280391313"/>
    <nd ref="287328081"/>
    <nd ref="280391291"/>
    <tag k="created_by" v="Potlatch 0.10b"/>
    <tag k="highway" v="residential"/>
    <tag k="name" v="Altdorf"/>
  </way>
  <way id="25715655" version="6" timestamp="2008-08-12T16:03:30Z" uid="43863" user="Rundling" changeset="211912">
    <nd ref="287328140"/>
    <nd ref="287328130"/>
    <nd ref="280391650"/>
    <nd ref="280391313"/>
    <nd ref="287328081"/>
    <nd ref="280391291"/>
    <tag k="created_by" v="Potlatch 0.10b"/>
    <tag k="highway" v="residential"/>
    <tag k="name" v="Altdorf"/>
  </way>
  <way id="25715655" version="7" timestamp="2008-12-19T07:57:54Z" uid="43863" user="Rundling" changeset="470915">
    <nd ref="287328140"/>
    <nd ref="287328130"/>
    <nd ref="280391650"/>
    <nd ref="280391313"/>
    <nd ref="319890491"/>
    <nd ref="287328081"/>
    <nd ref="280391291"/>
    <tag k="created_by" v="Potlatch 0.10b"/>
    <tag k="highway" v="residential"/>
    <tag k="name" v="Altdorf"/>
  </way>
  <way id="25715655" version="8" timestamp="2008-12-23T21:54:32Z" uid="43863" user="Rundling" changeset="574593">
    <nd ref="321363979"/>
    <nd ref="287328130"/>
    <nd ref="280391650"/>
    <nd ref="280391313"/>
    <nd ref="319890491"/>
    <nd ref="287328081"/>
    <nd ref="280391291"/>
    <tag k="created_by" v="Potlatch 0.10b"/>
    <tag k="highway" v="residential"/>
    <tag k="name" v="Altdorf"/>
  </way>
  <way id="25715656" version="1" timestamp="2008-07-23T05:49:19Z" uid="43863" user="Rundling" changeset="572838">
    <nd ref="280391323"/>
    <nd ref="280391324"/>
    <nd ref="280391325"/>
    <nd ref="280391326"/>
    <nd ref="280391327"/>
    <tag k="created_by" v="Potlatch 0.10"/>
    <tag k="highway" v="residential"/>
  </way>
  <way id="25715656" version="2" timestamp="2008-07-23T05:49:56Z" uid="43863" user="Rundling" changeset="572838">
    <nd ref="280391323"/>
    <nd ref="280391344"/>
    <nd ref="280391325"/>
    <nd ref="280391345"/>
    <nd ref="280391327"/>
    <tag k="created_by" v="Potlatch 0.10"/>
    <tag k="highway" v="residential"/>
  </way>
  <way id="25715656" version="3" timestamp="2008-07-23T05:57:49Z" uid="43863" user="Rundling" changeset="572838">
    <nd ref="280391323"/>
    <nd ref="280391344"/>
    <nd ref="280391325"/>
    <nd ref="280391677"/>
    <nd ref="280391327"/>
    <tag k="created_by" v="Potlatch 0.10"/>
    <tag k="highway" v="residential"/>
    <tag k="name" v="Boecke"/>
  </way>
  <way id="25715656" version="4" timestamp="2008-07-23T18:16:08Z" uid="43863" user="Rundling" changeset="578416">
    <nd ref="280391323"/>
    <nd ref="280391344"/>
    <nd ref="280391325"/>
    <nd ref="280391677"/>
    <nd ref="280391327"/>
    <nd ref="280522113"/>
    <tag k="created_by" v="Potlatch 0.10"/>
    <tag k="highway" v="residential"/>
    <tag k="name" v="Boecke"/>
  </way>
  <way id="25715656" version="5" timestamp="2008-08-12T16:03:44Z" uid="43863" user="Rundling" changeset="211912">
    <nd ref="287328206"/>
    <nd ref="280391344"/>
    <nd ref="280391325"/>
    <nd ref="280391677"/>
    <nd ref="280391327"/>
    <nd ref="280522113"/>
    <tag k="created_by" v="Potlatch 0.10b"/>
    <tag k="highway" v="residential"/>
    <tag k="name" v="Boecke"/>
  </way>
  <way id="25715656" version="6" timestamp="2008-11-25T14:00:36Z" uid="43863" user="Rundling" changeset="791826">
    <nd ref="280391344"/>
    <nd ref="280391325"/>
    <nd ref="280391677"/>
    <nd ref="280391327"/>
    <nd ref="280522113"/>
    <tag k="created_by" v="Potlatch 0.10b"/>
    <tag k="highway" v="residential"/>
    <tag k="name" v="Boecke"/>
  </way>
  <way id="25715656" version="7" timestamp="2008-11-25T16:52:39Z" uid="43863" user="Rundling" changeset="791826">
    <nd ref="280391344"/>
    <nd ref="280391325"/>
    <nd ref="280391677"/>
    <nd ref="280391327"/>
    <nd ref="314670021"/>
    <nd ref="280522113"/>
    <tag k="created_by" v="Potlatch 0.10b"/>
    <tag k="highway" v="residential"/>
    <tag k="name" v="Boecke"/>
  </way>
  <way id="25715656" version="8" timestamp="2008-12-03T21:23:15Z" uid="43863" user="Rundling" changeset="82725">
    <nd ref="316511650"/>
    <nd ref="280391325"/>
    <nd ref="280391677"/>
    <nd ref="280391327"/>
    <nd ref="314670021"/>
    <nd ref="280522113"/>
    <tag k="created_by" v="Potlatch 0.10b"/>
    <tag k="highway" v="residential"/>
    <tag k="name" v="Boecke"/>
  </way>
  <way id="25715656" version="9" timestamp="2008-12-23T21:54:32Z" uid="43863" user="Rundling" changeset="574593">
    <nd ref="321363967"/>
    <nd ref="280391325"/>
    <nd ref="280391677"/>
    <nd ref="280391327"/>
    <nd ref="314670021"/>
    <nd ref="280522113"/>
    <tag k="created_by" v="Potlatch 0.10b"/>
    <tag k="highway" v="residential"/>
    <tag k="name" v="Boecke"/>
  </way>
  <way id="25715656" version="10" timestamp="2010-01-27T19:03:57Z" uid="43863" user="Rundling" changeset="3730587">
    <nd ref="321363967"/>
    <nd ref="280391325"/>
    <nd ref="280391677"/>
    <nd ref="314670021"/>
    <nd ref="280522113"/>
    <tag k="highway" v="residential"/>
    <tag k="name" v="Boecke"/>
  </way>
  <way id="25715656" version="11" timestamp="2011-01-05T15:09:10Z" uid="43863" user="Rundling" changeset="6872729">
    <nd ref="321363967"/>
    <nd ref="1083592225"/>
    <nd ref="280391325"/>
    <nd ref="280391677"/>
    <nd ref="314670021"/>
    <nd ref="280522113"/>
    <tag k="highway" v="residential"/>
    <tag k="name" v="Boecke"/>
  </way>
  <way id="25715656" version="12" timestamp="2011-03-03T17:26:50Z" uid="43863" user="Rundling" changeset="7447622">
    <nd ref="321363967"/>
    <nd ref="1083592225"/>
    <nd ref="1184598483"/>
    <nd ref="280391325"/>
    <nd ref="280391677"/>
    <nd ref="314670021"/>
    <nd ref="280522113"/>
    <tag k="highway" v="residential"/>
    <tag k="name" v="Boecke"/>
  </way>
  <way id="25715657" version="1" timestamp="2008-07-23T05:49:37Z" uid="43863" user="Rundling" changeset="572838">
    <nd ref="280391328"/>
    <nd ref="280391329"/>
    <nd ref="280391330"/>
    <nd ref="280391331"/>
    <nd ref="280391332"/>
    <nd ref="280391333"/>
    <nd ref="280391334"/>
    <tag k="created_by" v="Potlatch 0.10"/>
    <tag k="highway" v="residential"/>
  </way>
  <way id="25715657" version="2" timestamp="2008-07-23T05:49:47Z" uid="43863" user="Rundling" changeset="572838">
    <nd ref="280391337"/>
    <nd ref="280391338"/>
    <nd ref="280391330"/>
    <nd ref="280391339"/>
    <nd ref="280391332"/>
    <nd ref="280391336"/>
    <nd ref="280391333"/>
    <nd ref="280391334"/>
    <tag k="created_by" v="Potlatch 0.10"/>
    <tag k="highway" v="residential"/>
  </way>
  <way id="25715657" version="3" timestamp="2008-07-23T05:49:59Z" uid="43863" user="Rundling" changeset="572838">
    <nd ref="280391337"/>
    <nd ref="280391364"/>
    <nd ref="280391330"/>
    <nd ref="280391339"/>
    <nd ref="280391332"/>
    <nd ref="280391366"/>
    <nd ref="280391333"/>
    <nd ref="280391334"/>
    <tag k="created_by" v="Potlatch 0.10"/>
    <tag k="highway" v="residential"/>
  </way>
  <way id="25715657" version="4" timestamp="2008-07-23T05:58:09Z" uid="43863" user="Rundling" changeset="572838">
    <nd ref="280391337"/>
    <nd ref="280391364"/>
    <nd ref="280391330"/>
    <nd ref="280391339"/>
    <nd ref="280391332"/>
    <nd ref="280391424"/>
    <nd ref="280391333"/>
    <nd ref="280391334"/>
    <tag k="created_by" v="Potlatch 0.10"/>
    <tag k="highway" v="residential"/>
    <tag k="name" v="Boecke"/>
  </way>
  <way id="25715657" version="5" timestamp="2008-07-24T06:11:58Z" uid="43863" user="Rundling" changeset="580631">
    <nd ref="280391337"/>
    <nd ref="280391364"/>
    <nd ref="280391330"/>
    <nd ref="280391339"/>
    <nd ref="280391332"/>
    <nd ref="280391424"/>
    <nd ref="280662225"/>
    <nd ref="280391333"/>
    <nd ref="280391334"/>
    <tag k="created_by" v="Potlatch 0.10"/>
    <tag k="highway" v="residential"/>
    <tag k="name" v="Boecke"/>
  </way>
  <way id="25715657" version="6" timestamp="2008-07-24T06:12:06Z" uid="43863" user="Rundling" changeset="580631">
    <nd ref="280391337"/>
    <nd ref="280391364"/>
    <nd ref="280391330"/>
    <nd ref="280391339"/>
    <nd ref="280391332"/>
    <nd ref="280391424"/>
    <nd ref="280662225"/>
    <nd ref="280391333"/>
    <nd ref="280391334"/>
    <tag k="created_by" v="Potlatch 0.10"/>
    <tag k="highway" v="residential"/>
    <tag k="name" v="Boecke"/>
  </way>
  <way id="25715657" version="7" timestamp="2008-07-24T06:57:05Z" uid="43863" user="Rundling" changeset="580631">
    <nd ref="280391337"/>
    <nd ref="280391364"/>
    <nd ref="280391330"/>
    <nd ref="280391339"/>
    <nd ref="280391332"/>
    <nd ref="280391424"/>
    <tag k="created_by" v="Potlatch 0.10"/>
    <tag k="highway" v="residential"/>
    <tag k="name" v="Boecke"/>
  </way>
  <way id="25715657" version="8" timestamp="2008-08-12T16:04:14Z" uid="43863" user="Rundling" changeset="211912">
    <nd ref="287328304"/>
    <nd ref="280391364"/>
    <nd ref="280391330"/>
    <nd ref="280391339"/>
    <nd ref="280391332"/>
    <nd ref="280391424"/>
    <tag k="created_by" v="Potlatch 0.10b"/>
    <tag k="highway" v="residential"/>
    <tag k="name" v="Boecke"/>
  </way>
  <way id="25715657" version="9" timestamp="2008-12-03T21:23:15Z" uid="43863" user="Rundling" changeset="82725">
    <nd ref="280391314"/>
    <nd ref="287328304"/>
    <nd ref="280391364"/>
    <nd ref="280391330"/>
    <nd ref="280391339"/>
    <nd ref="280391332"/>
    <nd ref="280391424"/>
    <tag k="created_by" v="Potlatch 0.10b"/>
    <tag k="highway" v="residential"/>
    <tag k="name" v="Boecke"/>
  </way>
  <way id="25715657" version="10" timestamp="2008-12-23T21:54:32Z" uid="43863" user="Rundling" changeset="574593">
    <nd ref="321364005"/>
    <nd ref="287328304"/>
    <nd ref="280391364"/>
    <nd ref="280391330"/>
    <nd ref="280391339"/>
    <nd ref="280391332"/>
    <nd ref="280391424"/>
    <tag k="created_by" v="Potlatch 0.10b"/>
    <tag k="highway" v="residential"/>
    <tag k="name" v="Boecke"/>
  </way>
  <way id="25715659" version="1" timestamp="2008-07-23T05:49:46Z" uid="43863" user="Rundling" changeset="572838">
    <nd ref="280391335"/>
    <nd ref="280391336"/>
    <tag k="created_by" v="Potlatch 0.10"/>
    <tag k="highway" v="residential"/>
  </way>
  <way id="25715659" version="2" timestamp="2008-07-23T05:51:00Z" uid="43863" user="Rundling" changeset="572838">
    <nd ref="280391335"/>
    <nd ref="280391424"/>
    <tag k="created_by" v="Potlatch 0.10"/>
    <tag k="highway" v="residential"/>
  </way>
  <way id="25715659" version="3" timestamp="2008-07-23T05:58:20Z" uid="43863" user="Rundling" changeset="572838">
    <nd ref="280391335"/>
    <nd ref="280391424"/>
    <tag k="created_by" v="Potlatch 0.10"/>
    <tag k="highway" v="residential"/>
    <tag k="name" v="Boecke"/>
  </way>
  <way id="25715659" version="4" timestamp="2008-08-06T19:15:44Z" uid="43863" user="Rundling" changeset="109919">
    <nd ref="280391424"/>
    <nd ref="280391677"/>
    <tag k="created_by" v="Potlatch 0.10b"/>
    <tag k="highway" v="residential"/>
    <tag k="name" v="Boecke"/>
  </way>
  <way id="25715659" version="5" timestamp="2008-12-23T21:54:32Z" uid="43863" user="Rundling" changeset="574593">
    <nd ref="280391424"/>
    <nd ref="321364006"/>
    <nd ref="280391677"/>
    <tag k="created_by" v="Potlatch 0.10b"/>
    <tag k="highway" v="residential"/>
    <tag k="name" v="Boecke"/>
  </way>
  <way id="25715662" version="1" timestamp="2008-07-23T05:50:20Z" uid="43863" user="Rundling" changeset="572838">
    <nd ref="280391373"/>
    <nd ref="280391374"/>
    <tag k="created_by" v="Potlatch 0.10"/>
    <tag k="highway" v="track"/>
  </way>
  <way id="25715662" version="2" timestamp="2008-07-23T18:15:43Z" uid="43863" user="Rundling" changeset="578416"/>
  <way id="25715662" version="3" timestamp="2008-07-23T18:15:45Z" uid="43863" user="Rundling" changeset="578416">
    <nd ref="280391373"/>
    <nd ref="280391374"/>
    <tag k="created_by" v="Potlatch 0.10"/>
    <tag k="highway" v="track"/>
  </way>
  <way id="25715662" version="4" timestamp="2008-07-23T18:15:57Z" uid="43863" user="Rundling" changeset="578416"/>
  <way id="25715664" version="1" timestamp="2008-07-23T05:50:44Z" uid="43863" user="Rundling" changeset="572838">
    <nd ref="280391382"/>
    <nd ref="280391383"/>
    <tag k="created_by" v="Potlatch 0.10"/>
    <tag k="highway" v="tertiary"/>
  </way>
  <way id="25715664" version="2" timestamp="2008-07-23T18:16:23Z" uid="43863" user="Rundling" changeset="578416">
    <nd ref="280391382"/>
    <nd ref="280391383"/>
    <tag k="created_by" v="Potlatch 0.10"/>
    <tag k="highway" v="tertiary"/>
  </way>
  <way id="25715664" version="3" timestamp="2008-07-23T18:18:30Z" uid="43863" user="Rundling" changeset="578416">
    <nd ref="280391382"/>
    <nd ref="280391383"/>
    <nd ref="280522211"/>
    <nd ref="280522212"/>
    <nd ref="280522213"/>
    <nd ref="280522214"/>
    <nd ref="280522215"/>
    <nd ref="280522216"/>
    <nd ref="280522217"/>
    <nd ref="280522218"/>
    <tag k="created_by" v="Potlatch 0.10"/>
    <tag k="highway" v="tertiary"/>
  </way>
  <way id="25715664" version="4" timestamp="2008-07-23T18:18:44Z" uid="43863" user="Rundling" changeset="578416">
    <nd ref="280391382"/>
    <nd ref="280391383"/>
    <nd ref="280522246"/>
    <nd ref="280522247"/>
    <nd ref="280522248"/>
    <nd ref="280522249"/>
    <nd ref="280522250"/>
    <nd ref="280522251"/>
    <nd ref="280522252"/>
    <nd ref="280522253"/>
    <tag k="created_by" v="Potlatch 0.10"/>
    <tag k="highway" v="tertiary"/>
  </way>
  <way id="25715664" version="5" timestamp="2008-08-13T06:06:35Z" uid="43863" user="Rundling" changeset="217016">
    <nd ref="280391382"/>
    <nd ref="280391383"/>
    <nd ref="280522246"/>
    <nd ref="280522247"/>
    <nd ref="280522248"/>
    <nd ref="280522249"/>
    <nd ref="280522250"/>
    <nd ref="280522251"/>
    <nd ref="280522252"/>
    <nd ref="287504390"/>
    <tag k="created_by" v="Potlatch 0.10b"/>
    <tag k="highway" v="tertiary"/>
  </way>
  <way id="25715664" version="6" timestamp="2008-08-13T09:51:26Z" uid="43863" user="Rundling" changeset="218683">
    <nd ref="280391382"/>
    <nd ref="280391383"/>
    <nd ref="280522246"/>
    <nd ref="280522247"/>
    <nd ref="280522248"/>
    <nd ref="280522249"/>
    <nd ref="280522250"/>
    <nd ref="280522251"/>
    <nd ref="280522252"/>
    <nd ref="287543562"/>
    <tag k="created_by" v="Potlatch 0.10b"/>
    <tag k="highway" v="tertiary"/>
  </way>
  <way id="25715664" version="7" timestamp="2008-11-13T07:40:07Z" uid="43863" user="Rundling" changeset="741886">
    <nd ref="280391382"/>
    <nd ref="280391383"/>
    <nd ref="280522246"/>
    <nd ref="280522247"/>
    <nd ref="280522248"/>
    <nd ref="280522249"/>
    <nd ref="280522250"/>
    <nd ref="280522251"/>
    <nd ref="280522252"/>
    <nd ref="287543562"/>
    <tag k="created_by" v="Potlatch 0.10f"/>
    <tag k="highway" v="unclassified"/>
  </way>
  <way id="25715664" version="8" timestamp="2008-11-25T16:51:40Z" uid="43863" user="Rundling" changeset="791826">
    <nd ref="280391382"/>
    <nd ref="280391383"/>
    <nd ref="280522246"/>
    <nd ref="280522247"/>
    <nd ref="280522248"/>
    <nd ref="280522249"/>
    <nd ref="280522250"/>
    <nd ref="314669887"/>
    <nd ref="280522251"/>
    <nd ref="280522252"/>
    <nd ref="287543562"/>
    <tag k="created_by" v="Potlatch 0.10f"/>
    <tag k="highway" v="unclassified"/>
  </way>
  <way id="25715664" version="9" timestamp="2009-01-02T21:50:45Z" uid="43863" user="Rundling" changeset="713869">
    <nd ref="280391382"/>
    <nd ref="280391383"/>
    <nd ref="280522246"/>
    <nd ref="280522247"/>
    <nd ref="280522248"/>
    <nd ref="280522249"/>
    <nd ref="280522250"/>
    <nd ref="314669887"/>
    <nd ref="280522251"/>
    <nd ref="324768308"/>
    <nd ref="280522252"/>
    <nd ref="287543562"/>
    <tag k="created_by" v="Potlatch 0.10f"/>
    <tag k="highway" v="unclassified"/>
  </way>
  <way id="25715664" version="10" timestamp="2009-05-28T17:43:50Z" uid="43863" user="Rundling" changeset="1344914">
    <nd ref="280391382"/>
    <nd ref="280391383"/>
    <nd ref="280522246"/>
    <nd ref="280522247"/>
    <nd ref="280522248"/>
    <nd ref="314669887"/>
    <nd ref="324768308"/>
    <nd ref="280522252"/>
    <nd ref="287543562"/>
    <tag k="created_by" v="Potlatch 0.10f"/>
    <tag k="highway" v="unclassified"/>
  </way>
  <way id="25715688" version="1" timestamp="2008-07-23T05:54:00Z" uid="43863" user="Rundling" changeset="572838">
    <nd ref="275514649"/>
    <nd ref="275514650"/>
    <nd ref="280391291"/>
    <tag k="created_by" v="Potlatch 0.10"/>
    <tag k="highway" v="tertiary"/>
    <tag k="name" v="L252"/>
    <tag k="ref" v="1"/>
  </way>
  <way id="25715688" version="2" timestamp="2008-07-23T05:54:34Z" uid="43863" user="Rundling" changeset="572838">
    <nd ref="275514649"/>
    <nd ref="275514650"/>
    <nd ref="280391291"/>
    <nd ref="280391310"/>
    <nd ref="280391293"/>
    <nd ref="280391308"/>
    <tag k="created_by" v="Potlatch 0.10"/>
    <tag k="highway" v="tertiary"/>
    <tag k="name" v="Hauptstrasse"/>
    <tag k="ref" v="L252"/>
  </way>
  <way id="25715688" version="3" timestamp="2008-07-23T18:04:58Z" uid="43863" user="Rundling" changeset="578416">
    <nd ref="275514649"/>
    <nd ref="275514650"/>
    <nd ref="280521082"/>
    <nd ref="280391291"/>
    <nd ref="280391310"/>
    <nd ref="280391293"/>
    <nd ref="280391308"/>
    <tag k="created_by" v="Potlatch 0.10"/>
    <tag k="highway" v="tertiary"/>
    <tag k="name" v="Hauptstrasse"/>
    <tag k="ref" v="L252"/>
  </way>
  <way id="25715688" version="4" timestamp="2008-07-23T18:17:55Z" uid="43863" user="Rundling" changeset="578416">
    <nd ref="275514649"/>
    <nd ref="275514650"/>
    <nd ref="280522153"/>
    <nd ref="280391291"/>
    <nd ref="280391310"/>
    <nd ref="280391293"/>
    <nd ref="280391308"/>
    <tag k="created_by" v="Potlatch 0.10"/>
    <tag k="highway" v="tertiary"/>
    <tag k="name" v="Hauptstrasse"/>
    <tag k="ref" v="L252"/>
  </way>
  <way id="25715688" version="5" timestamp="2008-07-23T18:18:45Z" uid="43863" user="Rundling" changeset="578416">
    <nd ref="275514649"/>
    <nd ref="275514650"/>
    <nd ref="280521082"/>
    <nd ref="280391291"/>
    <nd ref="280391310"/>
    <nd ref="280391293"/>
    <nd ref="280391308"/>
    <tag k="created_by" v="Potlatch 0.10"/>
    <tag k="highway" v="tertiary"/>
    <tag k="name" v="Hauptstrasse"/>
    <tag k="ref" v="L252"/>
  </way>
  <way id="25715688" version="6" timestamp="2008-07-24T05:23:21Z" uid="43863" user="Rundling" changeset="580631">
    <nd ref="275514649"/>
    <nd ref="275514650"/>
    <nd ref="280521082"/>
    <nd ref="280391291"/>
    <nd ref="280391310"/>
    <nd ref="280391293"/>
    <nd ref="280391308"/>
    <tag k="created_by" v="Potlatch 0.10"/>
    <tag k="highway" v="tertiary"/>
    <tag k="name" v="Hauptstrasse"/>
    <tag k="ref" v="L252"/>
  </way>
  <way id="25715688" version="7" timestamp="2008-07-24T05:25:21Z" uid="43863" user="Rundling" changeset="580631">
    <nd ref="275514649"/>
    <nd ref="275514650"/>
    <nd ref="280521082"/>
    <nd ref="280391291"/>
    <nd ref="280391310"/>
    <nd ref="280391293"/>
    <nd ref="280391308"/>
    <nd ref="280522267"/>
    <nd ref="280657549"/>
    <nd ref="280657550"/>
    <nd ref="280657551"/>
    <nd ref="280657552"/>
    <nd ref="280657553"/>
    <nd ref="280522243"/>
    <tag k="created_by" v="Potlatch 0.10"/>
    <tag k="highway" v="tertiary"/>
    <tag k="name" v="Hauptstrasse"/>
    <tag k="ref" v="L252"/>
  </way>
  <way id="25715688" version="8" timestamp="2008-07-24T05:26:40Z" uid="43863" user="Rundling" changeset="580631">
    <nd ref="275514649"/>
    <nd ref="275514650"/>
    <nd ref="280521082"/>
    <nd ref="280391291"/>
    <nd ref="280391310"/>
    <nd ref="280391293"/>
    <nd ref="280391308"/>
    <tag k="created_by" v="Potlatch 0.10"/>
    <tag k="highway" v="tertiary"/>
    <tag k="name" v="Hauptstrasse"/>
    <tag k="ref" v="L252"/>
  </way>
  <way id="25715688" version="9" timestamp="2008-07-24T06:03:20Z" uid="43863" user="Rundling" changeset="580631">
    <nd ref="275514649"/>
    <nd ref="275514650"/>
    <nd ref="280521082"/>
    <nd ref="280391291"/>
    <nd ref="280391310"/>
    <nd ref="280391293"/>
    <nd ref="280391308"/>
    <nd ref="280522267"/>
    <tag k="created_by" v="Potlatch 0.10"/>
    <tag k="highway" v="tertiary"/>
    <tag k="name" v="Hauptstrasse"/>
    <tag k="ref" v="L252"/>
  </way>
  <way id="25715688" version="10" timestamp="2008-08-12T16:13:26Z" uid="43863" user="Rundling" changeset="211912">
    <nd ref="275514649"/>
    <nd ref="275514650"/>
    <nd ref="280521082"/>
    <nd ref="280391291"/>
    <nd ref="280391310"/>
    <nd ref="287330014"/>
    <nd ref="280391293"/>
    <nd ref="280391308"/>
    <nd ref="280522267"/>
    <tag k="created_by" v="Potlatch 0.10b"/>
    <tag k="highway" v="tertiary"/>
    <tag k="name" v="Hauptstrasse"/>
    <tag k="ref" v="L252"/>
  </way>
  <way id="25715688" version="11" timestamp="2008-08-13T06:00:33Z" uid="43863" user="Rundling" changeset="217016">
    <nd ref="275514649"/>
    <nd ref="275514650"/>
    <nd ref="280521082"/>
    <nd ref="280391291"/>
    <nd ref="280391310"/>
    <nd ref="287330014"/>
    <nd ref="280391293"/>
    <nd ref="280391308"/>
    <nd ref="280522267"/>
    <tag k="created_by" v="Potlatch 0.10b"/>
    <tag k="highway" v="tertiary"/>
    <tag k="name" v="Hauptstrasse"/>
    <tag k="ref" v="L 252"/>
  </way>
  <way id="25715688" version="12" timestamp="2008-08-19T10:59:53Z" uid="43863" user="Rundling" changeset="320565">
    <nd ref="275514649"/>
    <nd ref="275514650"/>
    <nd ref="289348364"/>
    <nd ref="280521082"/>
    <nd ref="280391291"/>
    <nd ref="280391310"/>
    <nd ref="287330014"/>
    <nd ref="280391293"/>
    <nd ref="280391308"/>
    <nd ref="280522267"/>
    <tag k="created_by" v="Potlatch 0.10b"/>
    <tag k="highway" v="tertiary"/>
    <tag k="name" v="Hauptstrasse"/>
    <tag k="ref" v="L 252"/>
  </way>
  <way id="25715688" version="13" timestamp="2008-08-19T12:15:32Z" uid="43863" user="Rundling" changeset="320565">
    <nd ref="275514649"/>
    <nd ref="275514650"/>
    <nd ref="289348364"/>
    <nd ref="280521082"/>
    <nd ref="280391291"/>
    <nd ref="280391310"/>
    <nd ref="289361460"/>
    <nd ref="287330014"/>
    <nd ref="280391293"/>
    <nd ref="280391308"/>
    <nd ref="280522267"/>
    <tag k="created_by" v="Potlatch 0.10b"/>
    <tag k="highway" v="tertiary"/>
    <tag k="name" v="Hauptstrasse"/>
    <tag k="ref" v="L 252"/>
  </way>
  <way id="25715688" version="14" timestamp="2008-09-05T12:26:57Z" uid="31059" user="DaBear" changeset="535450">
    <nd ref="275514649"/>
    <nd ref="275514650"/>
    <nd ref="289348364"/>
    <nd ref="280521082"/>
    <nd ref="280391291"/>
    <nd ref="280391310"/>
    <nd ref="289361460"/>
    <nd ref="287330014"/>
    <nd ref="280391293"/>
    <nd ref="280391308"/>
    <nd ref="280522267"/>
    <tag k="created_by" v="Potlatch 0.10b"/>
    <tag k="highway" v="tertiary"/>
    <tag k="name" v="Hauptstraße"/>
    <tag k="ref" v="L 252"/>
  </way>
  <way id="25715688" version="15" timestamp="2008-09-21T10:03:18Z" uid="51324" user="OPerivar" changeset="673630">
    <nd ref="275514649"/>
    <nd ref="275514650"/>
    <nd ref="289348364"/>
    <nd ref="280521082"/>
    <nd ref="280520592"/>
    <nd ref="280391291"/>
    <nd ref="280520590"/>
    <nd ref="280391310"/>
    <nd ref="289361460"/>
    <nd ref="287330014"/>
    <nd ref="280391293"/>
    <nd ref="280391308"/>
    <nd ref="280522267"/>
    <tag k="created_by" v="Potlatch 0.10b"/>
    <tag k="highway" v="tertiary"/>
    <tag k="name" v="Hauptstraße"/>
    <tag k="ref" v="L 252"/>
  </way>
  <way id="25715688" version="16" timestamp="2008-10-21T15:08:43Z" uid="43863" user="Rundling" changeset="492906">
    <nd ref="275514649"/>
    <nd ref="275514650"/>
    <nd ref="289348364"/>
    <nd ref="280521082"/>
    <nd ref="280520592"/>
    <nd ref="280391291"/>
    <nd ref="280520590"/>
    <nd ref="280391310"/>
    <nd ref="289361460"/>
    <nd ref="287330014"/>
    <nd ref="280391293"/>
    <nd ref="280391308"/>
    <nd ref="280522267"/>
    <tag k="created_by" v="Potlatch 0.10b"/>
    <tag k="highway" v="residential"/>
    <tag k="name" v="Hauptstraße"/>
    <tag k="ref" v="L 252"/>
    <tag k="surface" v="paved"/>
  </way>
  <way id="25715688" version="17" timestamp="2008-11-13T07:39:02Z" uid="43863" user="Rundling" changeset="741886">
    <nd ref="275514649"/>
    <nd ref="275514650"/>
    <nd ref="289348364"/>
    <nd ref="280521082"/>
    <nd ref="280520592"/>
    <nd ref="280391291"/>
    <nd ref="280520590"/>
    <nd ref="280391310"/>
    <nd ref="289361460"/>
    <nd ref="287330014"/>
    <nd ref="280391293"/>
    <nd ref="280391308"/>
    <nd ref="280522267"/>
    <tag k="created_by" v="Potlatch 0.10f"/>
    <tag k="highway" v="secondary"/>
    <tag k="name" v="Hauptstraße"/>
    <tag k="ref" v="L 252"/>
    <tag k="surface" v="paved"/>
  </way>
  <way id="25715688" version="18" timestamp="2009-01-02T21:50:46Z" uid="43863" user="Rundling" changeset="713869">
    <nd ref="275514649"/>
    <nd ref="275514650"/>
    <nd ref="324768295"/>
    <nd ref="289348364"/>
    <nd ref="280521082"/>
    <nd ref="280520592"/>
    <nd ref="280391291"/>
    <nd ref="280520590"/>
    <nd ref="280391310"/>
    <nd ref="289361460"/>
    <nd ref="287330014"/>
    <nd ref="280391293"/>
    <nd ref="280391308"/>
    <nd ref="280522267"/>
    <tag k="created_by" v="Potlatch 0.10f"/>
    <tag k="highway" v="secondary"/>
    <tag k="name" v="Hauptstraße"/>
    <tag k="ref" v="L 252"/>
    <tag k="surface" v="paved"/>
  </way>
  <way id="25715688" version="19" timestamp="2009-06-07T09:32:10Z" uid="43863" user="Rundling" changeset="1446137">
    <nd ref="275514649"/>
    <nd ref="275514650"/>
    <nd ref="324768295"/>
    <nd ref="289348364"/>
    <nd ref="280521082"/>
    <nd ref="280520592"/>
    <nd ref="280391291"/>
    <nd ref="280520590"/>
    <nd ref="289361460"/>
    <nd ref="287330014"/>
    <nd ref="280391293"/>
    <nd ref="280391308"/>
    <nd ref="280522267"/>
    <tag k="created_by" v="Potlatch 0.10f"/>
    <tag k="highway" v="secondary"/>
    <tag k="name" v="Hauptstraße"/>
    <tag k="ref" v="L 252"/>
    <tag k="surface" v="paved"/>
  </way>
  <way id="25715688" version="20" timestamp="2010-02-14T16:25:43Z" uid="43863" user="Rundling" changeset="3875390">
    <nd ref="275514649"/>
    <nd ref="621421600"/>
    <nd ref="324768295"/>
    <nd ref="289348364"/>
    <nd ref="280521082"/>
    <nd ref="280520592"/>
    <nd ref="280391291"/>
    <nd ref="280520590"/>
    <nd ref="289361460"/>
    <nd ref="287330014"/>
    <nd ref="280391293"/>
    <nd ref="280391308"/>
    <nd ref="280522267"/>
    <tag k="highway" v="secondary"/>
    <tag k="name" v="Hauptstraße"/>
    <tag k="ref" v="L 252"/>
    <tag k="surface" v="paved"/>
  </way>
  <way id="25715698" version="1" timestamp="2008-07-23T05:55:35Z" uid="43863" user="Rundling" changeset="572838">
    <nd ref="280391305"/>
    <nd ref="280391321"/>
    <nd ref="280391599"/>
    <nd ref="280391308"/>
    <nd ref="280391309"/>
    <tag k="created_by" v="Potlatch 0.10"/>
    <tag k="highway" v="secondary"/>
    <tag k="name" v="K54"/>
  </way>
  <way id="25715698" version="2" timestamp="2008-07-23T18:15:15Z" uid="43863" user="Rundling" changeset="578416">
    <nd ref="280391305"/>
    <nd ref="280391321"/>
    <nd ref="280391599"/>
    <nd ref="280391308"/>
    <nd ref="280391309"/>
    <tag k="created_by" v="Potlatch 0.10"/>
    <tag k="highway" v="secondary"/>
    <tag k="name" v="K54"/>
  </way>
  <way id="25715698" version="3" timestamp="2008-07-23T18:18:12Z" uid="43863" user="Rundling" changeset="578416">
    <nd ref="280391305"/>
    <nd ref="280391321"/>
    <nd ref="280391599"/>
    <nd ref="280522193"/>
    <nd ref="280522194"/>
    <tag k="created_by" v="Potlatch 0.10"/>
    <tag k="highway" v="secondary"/>
    <tag k="name" v="K54"/>
  </way>
  <way id="25715698" version="4" timestamp="2008-07-23T18:18:46Z" uid="43863" user="Rundling" changeset="578416">
    <nd ref="280391305"/>
    <nd ref="280391321"/>
    <nd ref="280391599"/>
    <nd ref="280522266"/>
    <nd ref="280522267"/>
    <tag k="created_by" v="Potlatch 0.10"/>
    <tag k="highway" v="secondary"/>
    <tag k="name" v="K54"/>
  </way>
  <way id="25715698" version="5" timestamp="2008-07-24T06:02:54Z" uid="43863" user="Rundling" changeset="580631">
    <nd ref="280391305"/>
    <nd ref="280391321"/>
    <nd ref="280391599"/>
    <nd ref="280522266"/>
    <nd ref="280522267"/>
    <nd ref="280660990"/>
    <nd ref="280660991"/>
    <nd ref="280660992"/>
    <nd ref="280660993"/>
    <nd ref="280660994"/>
    <nd ref="280660995"/>
    <nd ref="280660996"/>
    <nd ref="280660997"/>
    <nd ref="280660998"/>
    <nd ref="280660999"/>
    <nd ref="280661000"/>
    <nd ref="280661001"/>
    <nd ref="280661002"/>
    <nd ref="280522243"/>
    <tag k="created_by" v="Potlatch 0.10"/>
    <tag k="highway" v="secondary"/>
    <tag k="name" v="K54"/>
  </way>
  <way id="25715698" version="6" timestamp="2008-07-24T06:59:38Z" uid="43863" user="Rundling" changeset="580631">
    <nd ref="280391305"/>
    <nd ref="280391321"/>
    <nd ref="280667370"/>
    <nd ref="280391599"/>
    <nd ref="280522266"/>
    <nd ref="280522267"/>
    <nd ref="280660990"/>
    <nd ref="280660991"/>
    <nd ref="280660992"/>
    <nd ref="280660993"/>
    <nd ref="280660994"/>
    <nd ref="280660995"/>
    <nd ref="280660996"/>
    <nd ref="280660997"/>
    <nd ref="280660998"/>
    <nd ref="280660999"/>
    <nd ref="280661000"/>
    <nd ref="280661001"/>
    <nd ref="280661002"/>
    <nd ref="280522243"/>
    <tag k="created_by" v="Potlatch 0.10"/>
    <tag k="highway" v="secondary"/>
    <tag k="name" v="K54"/>
  </way>
  <way id="25715698" version="7" timestamp="2008-07-24T06:59:44Z" uid="43863" user="Rundling" changeset="580631">
    <nd ref="280391305"/>
    <nd ref="280391321"/>
    <nd ref="280667370"/>
    <tag k="created_by" v="Potlatch 0.10"/>
    <tag k="highway" v="secondary"/>
    <tag k="name" v="K54"/>
  </way>
  <way id="25715698" version="8" timestamp="2008-07-24T06:59:58Z" uid="43863" user="Rundling" changeset="580631">
    <nd ref="280391305"/>
    <nd ref="280391321"/>
    <nd ref="280667370"/>
    <tag k="created_by" v="Potlatch 0.10"/>
    <tag k="highway" v="secondary"/>
    <tag k="name" v="Himberger Straße"/>
    <tag k="ref" v="K54"/>
  </way>
  <way id="25715698" version="9" timestamp="2008-09-16T22:31:42Z" uid="31059" user="DaBear" changeset="653506">
    <nd ref="280391305"/>
    <nd ref="280391321"/>
    <nd ref="280667370"/>
    <tag k="created_by" v="Potlatch 0.10"/>
    <tag k="highway" v="secondary"/>
    <tag k="name" v="Himberger Straße"/>
    <tag k="ref" v="K 54"/>
  </way>
  <way id="25715698" version="10" timestamp="2008-10-21T15:08:42Z" uid="43863" user="Rundling" changeset="492906">
    <nd ref="280391630"/>
    <nd ref="287328140"/>
    <nd ref="287651120"/>
    <nd ref="280391304"/>
    <nd ref="280391305"/>
    <nd ref="280391321"/>
    <nd ref="280667370"/>
    <tag k="created_by" v="JOSM"/>
    <tag k="highway" v="secondary"/>
    <tag k="name" v="Himberger Straße"/>
    <tag k="ref" v="K 54"/>
  </way>
  <way id="25715698" version="11" timestamp="2008-12-19T07:57:54Z" uid="43863" user="Rundling" changeset="470915">
    <nd ref="280391630"/>
    <nd ref="287328140"/>
    <nd ref="287651120"/>
    <nd ref="280391304"/>
    <nd ref="319890488"/>
    <nd ref="280391305"/>
    <nd ref="280391321"/>
    <nd ref="280667370"/>
    <tag k="created_by" v="JOSM"/>
    <tag k="highway" v="secondary"/>
    <tag k="name" v="Himberger Straße"/>
    <tag k="ref" v="K 54"/>
  </way>
  <way id="25715698" version="12" timestamp="2008-12-23T21:54:30Z" uid="43863" user="Rundling" changeset="574593">
    <nd ref="321363973"/>
    <nd ref="321363977"/>
    <nd ref="321363979"/>
    <nd ref="321363981"/>
    <nd ref="280391304"/>
    <nd ref="321363999"/>
    <nd ref="321364000"/>
    <nd ref="280667370"/>
    <tag k="created_by" v="JOSM"/>
    <tag k="highway" v="secondary"/>
    <tag k="name" v="Himberger Straße"/>
    <tag k="ref" v="K 54"/>
  </way>
  <way id="25715698" version="13" timestamp="2008-12-24T10:07:38Z" uid="43863" user="Rundling" changeset="581932">
    <nd ref="321363973"/>
    <nd ref="321363977"/>
    <nd ref="321363979"/>
    <nd ref="321363981"/>
    <nd ref="280391304"/>
    <nd ref="321363999"/>
    <nd ref="321364000"/>
    <nd ref="280667370"/>
    <tag k="created_by" v="JOSM"/>
    <tag k="highway" v="tertiary"/>
    <tag k="name" v="Himberger Straße"/>
    <tag k="ref" v="K 54"/>
  </way>
  <way id="25715698" version="14" timestamp="2010-02-14T16:25:44Z" uid="43863" user="Rundling" changeset="3875390">
    <nd ref="321363973"/>
    <nd ref="321363977"/>
    <nd ref="321363979"/>
    <nd ref="321363981"/>
    <nd ref="621421602"/>
    <nd ref="621421603"/>
    <nd ref="621421604"/>
    <nd ref="280667370"/>
    <tag k="highway" v="tertiary"/>
    <tag k="name" v="Himberger Straße"/>
    <tag k="ref" v="K 54"/>
  </way>
  <way id="25715709" version="6" timestamp="2010-10-10T20:34:03Z" uid="20587" user="balrog-kun" changeset="6006462">
    <nd ref="280391693"/>
    <nd ref="280391715"/>
    <nd ref="280391691"/>
    <nd ref="280391706"/>
    <nd ref="944569337"/>
    <nd ref="280391689"/>
    <tag k="highway" v="unclassified"/>
    <tag k="name" v="Władysława Broniewskiego"/>
  </way>
  <way id="25715709" version="7" timestamp="2011-06-07T09:40:48Z" uid="52087" user="kocio" changeset="8368323"/>
  <way id="25715736" version="3" timestamp="2010-02-22T23:22:30Z" uid="9581" user="Lobelt" changeset="3948572">
    <nd ref="25205587"/>
    <nd ref="20977515"/>
    <nd ref="20977521"/>
    <nd ref="651020274"/>
    <nd ref="20977530"/>
    <tag k="highway" v="secondary"/>
    <tag k="maxspeed" v="50"/>
    <tag k="name" v="Werderstraße"/>
  </way>
  <way id="25715736" version="4" timestamp="2011-12-14T21:24:08Z" uid="6390" user="grenzdebil_bonn" changeset="10119586">
    <nd ref="1546357080"/>
    <nd ref="1546357091"/>
    <nd ref="1546357096"/>
    <tag k="highway" v="secondary"/>
    <tag k="maxspeed" v="50"/>
    <tag k="name" v="Werderstraße"/>
  </way>
  <way id="25715952" version="6" timestamp="2008-09-06T11:33:49Z" uid="58091" user="Andreas M" changeset="547954">
    <nd ref="251207325"/>
    <nd ref="213287623"/>
    <tag k="created_by" v="Potlatch 0.10"/>
    <tag k="highway" v="secondary"/>
    <tag k="is_in" v="Austria, Europe,Vienna,Wien"/>
    <tag k="name" v="Währinger Straße"/>
  </way>
  <way id="25715952" version="7" timestamp="2009-01-03T13:01:46Z" uid="58091" user="Andreas M" changeset="721411">
    <nd ref="251207325"/>
    <nd ref="213287623"/>
    <tag k="created_by" v="Potlatch 0.10"/>
    <tag k="highway" v="secondary"/>
    <tag k="is_in" v="Austria, Europe,Vienna,Wien"/>
    <tag k="name" v="Währinger Straße"/>
    <tag k="railway" v="tram"/>
  </way>
  <way id="25715952" version="8" timestamp="2010-04-18T20:00:38Z" uid="129531" user="almich" changeset="4462273">
    <nd ref="251207325"/>
    <nd ref="213287623"/>
    <tag k="gauge" v="1435"/>
    <tag k="highway" v="secondary"/>
    <tag k="is_in" v="Austria, Europe,Vienna,Wien"/>
    <tag k="name" v="Währinger Straße"/>
    <tag k="railway" v="tram"/>
  </way>
  <way id="25715952" version="9" timestamp="2010-04-18T20:25:29Z" uid="129531" user="almich" changeset="4462598">
    <nd ref="251207325"/>
    <nd ref="213287623"/>
    <tag k="electrified" v="contact_line"/>
    <tag k="frequency" v="0"/>
    <tag k="gauge" v="1435"/>
    <tag k="highway" v="secondary"/>
    <tag k="is_in" v="Austria, Europe,Vienna,Wien"/>
    <tag k="name" v="Währinger Straße"/>
    <tag k="railway" v="tram"/>
  </way>
  <way id="25715952" version="10" timestamp="2011-11-08T00:01:40Z" uid="129531" user="almich" changeset="9770029">
    <nd ref="251207325"/>
    <nd ref="213287623"/>
    <tag k="electrified" v="contact_line"/>
    <tag k="frequency" v="0"/>
    <tag k="gauge" v="1435"/>
    <tag k="highway" v="secondary"/>
    <tag k="is_in" v="Austria, Europe,Vienna,Wien"/>
    <tag k="name" v="Währinger Straße"/>
    <tag k="railway" v="tram"/>
    <tag k="voltage" v="600"/>
  </way>
  <way id="25715998" version="4" timestamp="2010-10-24T18:59:12Z" uid="9581" user="Lobelt" changeset="6161173">
    <nd ref="274621517"/>
    <nd ref="963722144"/>
    <nd ref="277596418"/>
    <tag k="highway" v="footway"/>
  </way>
</osm>
