<?xml version='1.0' encoding='UTF-8'?>
<osm version="0.6" generator="libosmium/2.20.0">
  <way id="26090057" version="2" timestamp="2008-09-16T10:43:31Z" uid="1066" user="pavel" changeset="646258">
    <nd ref="31505127"/>
    <nd ref="285569293"/>
    <tag k="created_by" v="Potlatch 0.10b"/>
    <tag k="highway" v="residential"/>
    <tag k="name" v="Dvorní"/>
    <tag k="name:source" v="nameit/uir-adr"/>
  </way>
  <way id="26090057" version="3" timestamp="2009-03-13T23:51:51Z" uid="3516" user="BiIbo" changeset="803821">
    <nd ref="31505127"/>
    <nd ref="285569293"/>
    <tag k="highway" v="residential"/>
    <tag k="name" v="Dvorní"/>
    <tag k="source:name" v="nameit/uir-adr"/>
  </way>
  <way id="26090057" version="4" timestamp="2010-11-21T10:22:13Z" uid="22793" user="ppisa" changeset="6421056">
    <nd ref="31505127"/>
    <nd ref="285569293"/>
    <nd ref="997573856"/>
    <tag k="highway" v="residential"/>
    <tag k="name" v="Dvorní"/>
    <tag k="source:name" v="nameit/uir-adr"/>
  </way>
  <way id="26090057" version="5" timestamp="2011-04-27T08:44:58Z" uid="17615" user="Petr Dlouhý" changeset="7982790">
    <nd ref="31505127"/>
    <nd ref="285569293"/>
    <nd ref="1261894640"/>
    <nd ref="1261894744"/>
    <tag k="highway" v="residential"/>
    <tag k="name" v="Dvorní"/>
    <tag k="source:name" v="nameit/uir-adr"/>
  </way>
  <way id="26090076" version="2" timestamp="2009-07-22T22:48:09Z" uid="23543" user="jkjk" changeset="1909977">
    <nd ref="285483450"/>
    <nd ref="285483453"/>
    <nd ref="285483458"/>
    <nd ref="285483467"/>
    <nd ref="285483500"/>
    <nd ref="285483504"/>
    <nd ref="285483507"/>
    <nd ref="285483511"/>
    <nd ref="285483485"/>
    <nd ref="285483488"/>
    <nd ref="285483492"/>
    <nd ref="285483495"/>
    <nd ref="285483373"/>
    <nd ref="285483370"/>
    <nd ref="285483387"/>
    <nd ref="285483379"/>
    <nd ref="285483358"/>
    <nd ref="285483353"/>
    <nd ref="285483367"/>
    <nd ref="285483363"/>
    <nd ref="285483438"/>
    <nd ref="285483431"/>
    <nd ref="285483447"/>
    <nd ref="285483443"/>
    <nd ref="285483401"/>
    <nd ref="445915952"/>
    <nd ref="285483394"/>
    <nd ref="285483422"/>
    <nd ref="285483411"/>
    <nd ref="285483594"/>
    <nd ref="285483598"/>
    <nd ref="285483586"/>
    <nd ref="285483590"/>
    <nd ref="285483578"/>
    <nd ref="285483582"/>
    <nd ref="285483572"/>
    <nd ref="285483577"/>
    <nd ref="285483622"/>
    <nd ref="285483626"/>
    <nd ref="285483616"/>
    <nd ref="285483619"/>
    <nd ref="285483608"/>
    <nd ref="285483612"/>
    <nd ref="285483601"/>
    <nd ref="285483604"/>
    <nd ref="285483538"/>
    <nd ref="285483535"/>
    <nd ref="285483532"/>
    <nd ref="285483529"/>
    <nd ref="285483526"/>
    <nd ref="285483520"/>
    <nd ref="285483517"/>
    <nd ref="285483514"/>
    <nd ref="285483569"/>
    <nd ref="285483566"/>
    <nd ref="285483562"/>
    <nd ref="285483558"/>
    <nd ref="285483554"/>
    <nd ref="285483551"/>
    <nd ref="285483545"/>
    <nd ref="285483542"/>
    <nd ref="285484170"/>
    <nd ref="285484165"/>
    <nd ref="285484162"/>
    <nd ref="285484158"/>
    <nd ref="285484184"/>
    <nd ref="285484180"/>
    <nd ref="285484176"/>
    <nd ref="285484173"/>
    <nd ref="285484139"/>
    <nd ref="285484136"/>
    <nd ref="285484132"/>
    <nd ref="285484128"/>
    <nd ref="285484154"/>
    <nd ref="285484151"/>
    <nd ref="285484148"/>
    <nd ref="285484142"/>
    <nd ref="285484237"/>
    <nd ref="285484240"/>
    <nd ref="285484230"/>
    <nd ref="285484234"/>
    <nd ref="285484252"/>
    <nd ref="285484255"/>
    <nd ref="285484244"/>
    <nd ref="285484248"/>
    <nd ref="285484203"/>
    <nd ref="285484209"/>
    <nd ref="285484190"/>
    <nd ref="285484197"/>
    <nd ref="285484221"/>
    <nd ref="285484224"/>
    <nd ref="285484214"/>
    <nd ref="285484217"/>
    <nd ref="285484292"/>
    <nd ref="285484288"/>
    <nd ref="285484299"/>
    <nd ref="285484296"/>
    <nd ref="285484307"/>
    <nd ref="285484304"/>
    <nd ref="285484314"/>
    <nd ref="285484311"/>
    <nd ref="285484263"/>
    <nd ref="285483450"/>
    <tag k="landuse" v="forest"/>
    <tag k="source" v="uhul:wms"/>
  </way>
  <way id="26090096" version="2" timestamp="2008-09-16T10:43:34Z" uid="1066" user="pavel" changeset="646258">
    <nd ref="285569422"/>
    <nd ref="285569423"/>
    <tag k="created_by" v="Potlatch 0.10b"/>
    <tag k="highway" v="residential"/>
    <tag k="name" v="Perštejnská"/>
    <tag k="name:source" v="nameit/uir-adr"/>
  </way>
  <way id="26090096" version="3" timestamp="2008-12-23T13:10:51Z" uid="8007" user="vrabcak" changeset="564854">
    <nd ref="285569422"/>
    <nd ref="321236106"/>
    <nd ref="285569423"/>
    <tag k="created_by" v="Potlatch 0.10b"/>
    <tag k="highway" v="residential"/>
    <tag k="name" v="Perštejnská"/>
    <tag k="name:source" v="nameit/uir-adr"/>
  </way>
  <way id="26090096" version="4" timestamp="2009-03-13T23:51:51Z" uid="3516" user="BiIbo" changeset="803821">
    <nd ref="285569422"/>
    <nd ref="321236106"/>
    <nd ref="285569423"/>
    <tag k="highway" v="residential"/>
    <tag k="name" v="Perštejnská"/>
    <tag k="source:name" v="nameit/uir-adr"/>
  </way>
  <way id="26090096" version="5" timestamp="2011-04-27T08:44:57Z" uid="17615" user="Petr Dlouhý" changeset="7982790">
    <nd ref="285569422"/>
    <nd ref="1261894752"/>
    <nd ref="321236106"/>
    <nd ref="1261894708"/>
    <nd ref="173637648"/>
    <tag k="highway" v="residential"/>
    <tag k="name" v="Perštejnská"/>
    <tag k="source:name" v="nameit/uir-adr"/>
  </way>
  <way id="26090096" version="6" timestamp="2011-12-29T19:30:19Z" uid="527259" user="Vratislav Filler" changeset="10238850">
    <nd ref="321236106"/>
    <nd ref="1261894752"/>
    <nd ref="285569422"/>
    <tag k="highway" v="residential"/>
    <tag k="name" v="Perštejnská"/>
    <tag k="oneway" v="yes"/>
    <tag k="source:name" v="nameit/uir-adr"/>
  </way>
  <way id="26090215" version="2" timestamp="2008-09-16T10:42:23Z" uid="1066" user="pavel" changeset="646258">
    <nd ref="285569513"/>
    <nd ref="285569828"/>
    <tag k="created_by" v="Potlatch 0.10b"/>
    <tag k="highway" v="residential"/>
    <tag k="name" v="Prunéřovská"/>
    <tag k="name:source" v="nameit/uir-adr"/>
  </way>
  <way id="26090215" version="3" timestamp="2008-12-23T13:10:59Z" uid="8007" user="vrabcak" changeset="564854">
    <nd ref="285569513"/>
    <nd ref="321236103"/>
    <nd ref="285569828"/>
    <tag k="created_by" v="Potlatch 0.10b"/>
    <tag k="highway" v="residential"/>
    <tag k="name" v="Prunéřovská"/>
    <tag k="name:source" v="nameit/uir-adr"/>
  </way>
  <way id="26090215" version="4" timestamp="2009-03-13T23:51:41Z" uid="3516" user="BiIbo" changeset="803821">
    <nd ref="285569513"/>
    <nd ref="321236103"/>
    <nd ref="285569828"/>
    <tag k="highway" v="residential"/>
    <tag k="name" v="Prunéřovská"/>
    <tag k="source:name" v="nameit/uir-adr"/>
  </way>
  <way id="26090215" version="5" timestamp="2011-04-27T08:45:07Z" uid="17615" user="Petr Dlouhý" changeset="7982790">
    <nd ref="285569513"/>
    <nd ref="1261894698"/>
    <nd ref="321236103"/>
    <nd ref="285569828"/>
    <tag k="highway" v="residential"/>
    <tag k="name" v="Prunéřovská"/>
    <tag k="source:name" v="nameit/uir-adr"/>
  </way>
  <way id="26090215" version="6" timestamp="2011-05-23T17:35:16Z" uid="3516" user="BiIbo" changeset="8225819">
    <nd ref="285569513"/>
    <nd ref="1261894698"/>
    <nd ref="321236103"/>
    <tag k="highway" v="residential"/>
    <tag k="name" v="Prunéřovská"/>
    <tag k="source:name" v="nameit/uir-adr"/>
  </way>
  <way id="26090215" version="7" timestamp="2011-12-29T19:30:20Z" uid="527259" user="Vratislav Filler" changeset="10238850">
    <nd ref="285569513"/>
    <nd ref="1261894698"/>
    <nd ref="321236103"/>
    <tag k="highway" v="residential"/>
    <tag k="name" v="Prunéřovská"/>
    <tag k="oneway" v="yes"/>
    <tag k="source:name" v="nameit/uir-adr"/>
  </way>
  <way id="26090369" version="2" timestamp="2008-09-16T10:43:25Z" uid="1066" user="pavel" changeset="646258">
    <nd ref="285570009"/>
    <nd ref="285570319"/>
    <tag k="created_by" v="Potlatch 0.10b"/>
    <tag k="highway" v="residential"/>
    <tag k="name" v="Křimovská"/>
    <tag k="name:source" v="nameit/uir-adr"/>
  </way>
  <way id="26090369" version="3" timestamp="2009-03-13T23:51:59Z" uid="3516" user="BiIbo" changeset="803821">
    <nd ref="285570009"/>
    <nd ref="285570319"/>
    <tag k="highway" v="residential"/>
    <tag k="name" v="Křimovská"/>
    <tag k="source:name" v="nameit/uir-adr"/>
  </way>
  <way id="26090425" version="2" timestamp="2008-09-16T10:44:26Z" uid="1066" user="pavel" changeset="646258">
    <nd ref="285338714"/>
    <nd ref="285569513"/>
    <tag k="created_by" v="Potlatch 0.10b"/>
    <tag k="highway" v="residential"/>
    <tag k="name" v="Prunéřovská"/>
    <tag k="name:source" v="nameit/uir-adr"/>
  </way>
  <way id="26090425" version="3" timestamp="2009-03-13T23:52:01Z" uid="3516" user="BiIbo" changeset="803821">
    <nd ref="285338714"/>
    <nd ref="285569513"/>
    <tag k="highway" v="residential"/>
    <tag k="name" v="Prunéřovská"/>
    <tag k="source:name" v="nameit/uir-adr"/>
  </way>
  <way id="26090543" version="2" timestamp="2008-09-16T10:43:05Z" uid="1066" user="pavel" changeset="646258">
    <nd ref="285569446"/>
    <nd ref="285338846"/>
    <tag k="created_by" v="Potlatch 0.10b"/>
    <tag k="highway" v="residential"/>
    <tag k="name" v="Perštejnská"/>
    <tag k="name:source" v="nameit/uir-adr"/>
  </way>
  <way id="26090543" version="3" timestamp="2008-12-23T13:10:55Z" uid="8007" user="vrabcak" changeset="564854">
    <nd ref="285569422"/>
    <nd ref="285338846"/>
    <tag k="created_by" v="Potlatch 0.10b"/>
    <tag k="highway" v="residential"/>
    <tag k="name" v="Perštejnská"/>
    <tag k="name:source" v="nameit/uir-adr"/>
  </way>
  <way id="26090543" version="4" timestamp="2009-03-13T23:51:50Z" uid="3516" user="BiIbo" changeset="803821">
    <nd ref="285569422"/>
    <nd ref="285338846"/>
    <tag k="highway" v="residential"/>
    <tag k="name" v="Perštejnská"/>
    <tag k="source:name" v="nameit/uir-adr"/>
  </way>
</osm>
