<?xml version='1.0' encoding='UTF-8'?>
<osm version="0.6" generator="libosmium/2.20.0">
  <way id="26134062" version="2" timestamp="2009-01-03T16:52:27Z" uid="6975" user="ulfl" changeset="722303">
    <nd ref="286102506"/>
    <nd ref="286102507"/>
    <nd ref="286092030"/>
    <nd ref="286092031"/>
    <nd ref="286102508"/>
    <nd ref="286092033"/>
    <nd ref="286112722"/>
    <nd ref="286112721"/>
    <nd ref="286112720"/>
    <nd ref="286112719"/>
    <nd ref="286112717"/>
    <nd ref="286112716"/>
    <nd ref="286112715"/>
    <nd ref="286102506"/>
    <tag k="int_name" v="Sayano-Shushenskaya Dam"/>
    <tag k="name" v="Саяно-Шушенская"/>
    <tag k="waterway" v="dam"/>
  </way>
  <way id="26134062" version="3" timestamp="2009-01-08T11:20:52Z" uid="308" user="MichaelCollinson" changeset="755641">
    <nd ref="286102506"/>
    <nd ref="286102507"/>
    <nd ref="286092030"/>
    <nd ref="286092031"/>
    <nd ref="286102508"/>
    <nd ref="286092033"/>
    <nd ref="286112722"/>
    <nd ref="286112721"/>
    <nd ref="286112720"/>
    <nd ref="330174011"/>
    <nd ref="286112719"/>
    <nd ref="286112717"/>
    <nd ref="286112716"/>
    <nd ref="286112715"/>
    <nd ref="286102506"/>
    <tag k="created_by" v="Potlatch 0.10f"/>
    <tag k="int_name" v="Sayano-Shushenskaya Dam"/>
    <tag k="name" v="Саяно-Шушенская"/>
    <tag k="waterway" v="dam"/>
  </way>
  <way id="26134062" version="4" timestamp="2009-07-29T06:20:41Z" uid="17497" user="katpatuka" changeset="1972291">
    <nd ref="286102506"/>
    <nd ref="286102507"/>
    <nd ref="450533614"/>
    <nd ref="286092030"/>
    <nd ref="286092031"/>
    <nd ref="286102508"/>
    <nd ref="286092033"/>
    <nd ref="286112722"/>
    <nd ref="286112721"/>
    <nd ref="286112720"/>
    <nd ref="330174011"/>
    <nd ref="286112719"/>
    <nd ref="286112717"/>
    <nd ref="286112716"/>
    <nd ref="286112715"/>
    <nd ref="286102506"/>
    <tag k="int_name" v="Sayano-Shushenskaya Dam"/>
    <tag k="name" v="Саяно-Шушенская"/>
    <tag k="waterway" v="dam"/>
  </way>
  <way id="26134062" version="5" timestamp="2009-09-26T12:04:16Z" uid="126933" user="amphetoleto" changeset="2640637"/>
  <way id="26134098" version="2" timestamp="2008-08-14T20:13:38Z" uid="6975" user="ulfl" changeset="264731">
    <nd ref="286115045"/>
    <nd ref="286115046"/>
    <nd ref="123601000"/>
    <nd ref="123601001"/>
    <nd ref="123601004"/>
    <nd ref="123601005"/>
    <nd ref="123601007"/>
    <nd ref="123601009"/>
    <nd ref="123601011"/>
    <nd ref="123601012"/>
    <nd ref="123601013"/>
    <nd ref="123601015"/>
    <nd ref="123601016"/>
    <nd ref="123601018"/>
    <nd ref="123601020"/>
    <nd ref="123601021"/>
    <nd ref="123601022"/>
    <nd ref="123601023"/>
    <nd ref="123601024"/>
    <nd ref="123601025"/>
    <nd ref="123601026"/>
    <nd ref="123601028"/>
    <nd ref="123601030"/>
    <nd ref="123601031"/>
    <nd ref="123601033"/>
    <nd ref="49280675"/>
    <tag k="highway" v="primary"/>
    <tag k="int_ref" v="E55"/>
  </way>
  <way id="26134098" version="3" timestamp="2008-09-09T21:46:57Z" uid="14235" user="AiNikolas" changeset="592194">
    <nd ref="286115045"/>
    <nd ref="286115046"/>
    <nd ref="123601000"/>
    <nd ref="123601001"/>
    <nd ref="123601004"/>
    <nd ref="123601005"/>
    <nd ref="123601007"/>
    <nd ref="123601009"/>
    <nd ref="123601011"/>
    <nd ref="123601012"/>
    <nd ref="123601013"/>
    <nd ref="123601015"/>
    <nd ref="123601016"/>
    <nd ref="123601018"/>
    <nd ref="123601020"/>
    <nd ref="123601021"/>
    <nd ref="123601022"/>
    <nd ref="123601023"/>
    <nd ref="123601024"/>
    <nd ref="123601025"/>
    <nd ref="123601026"/>
    <nd ref="123601028"/>
    <nd ref="123601030"/>
    <nd ref="123601031"/>
    <nd ref="123601033"/>
    <nd ref="49280675"/>
    <tag k="created_by" v="Potlatch 0.10b"/>
    <tag k="highway" v="primary"/>
    <tag k="int_ref" v="E55"/>
    <tag k="lanes" v="2"/>
    <tag k="name" v="Εθνική Οδός 101"/>
    <tag k="name:de" v="Nationalstraße 101"/>
    <tag k="name:el" v="Εθνική Οδός 101"/>
    <tag k="name:en" v="National Road 101"/>
    <tag k="name:fr" v="Route Nationale 101"/>
    <tag k="oneway" v="yes"/>
    <tag k="ref" v="EO101"/>
  </way>
  <way id="26134098" version="4" timestamp="2008-09-09T22:15:01Z" uid="14235" user="AiNikolas" changeset="592194">
    <nd ref="286115045"/>
    <nd ref="286115046"/>
    <nd ref="123601000"/>
    <nd ref="123601001"/>
    <nd ref="123601004"/>
    <nd ref="123601005"/>
    <nd ref="123601007"/>
    <nd ref="123601009"/>
    <nd ref="123601011"/>
    <nd ref="123601012"/>
    <nd ref="123601013"/>
    <nd ref="123601015"/>
    <nd ref="123601016"/>
    <nd ref="123601018"/>
    <nd ref="123601020"/>
    <nd ref="123601021"/>
    <nd ref="123601022"/>
    <nd ref="123601023"/>
    <nd ref="123601024"/>
    <nd ref="123601025"/>
    <nd ref="123601026"/>
    <nd ref="123601028"/>
    <nd ref="123601030"/>
    <nd ref="123601031"/>
    <nd ref="123601033"/>
    <nd ref="49280675"/>
    <tag k="created_by" v="Potlatch 0.10b"/>
    <tag k="highway" v="primary"/>
    <tag k="int_ref" v="E55"/>
    <tag k="lanes" v="2"/>
    <tag k="name" v="Εθνική Οδός 101"/>
    <tag k="name:de" v="Nationalstraße 101"/>
    <tag k="name:el" v="Εθνική Οδός 101"/>
    <tag k="name:en" v="National Road 101"/>
    <tag k="name:fr" v="Route Nationale 101"/>
    <tag k="oneway" v="no"/>
    <tag k="ref" v="EO101"/>
  </way>
  <way id="26134098" version="5" timestamp="2008-09-26T01:32:52Z" uid="14235" user="AiNikolas" changeset="698595">
    <nd ref="286115045"/>
    <nd ref="286115046"/>
    <nd ref="123601000"/>
    <nd ref="123601001"/>
    <nd ref="123601004"/>
    <nd ref="123601005"/>
    <nd ref="123601007"/>
    <nd ref="123601009"/>
    <nd ref="123601011"/>
    <nd ref="123601012"/>
    <nd ref="123601013"/>
    <nd ref="123601015"/>
    <nd ref="123601016"/>
    <nd ref="123601018"/>
    <nd ref="123601020"/>
    <nd ref="123601021"/>
    <nd ref="123601022"/>
    <nd ref="123601023"/>
    <nd ref="123601024"/>
    <nd ref="123601025"/>
    <nd ref="123601026"/>
    <nd ref="123601028"/>
    <nd ref="123601030"/>
    <nd ref="123601031"/>
    <nd ref="123601033"/>
    <nd ref="49280675"/>
    <tag k="created_by" v="Potlatch 0.10b"/>
    <tag k="highway" v="primary"/>
    <tag k="int_ref" v="E55"/>
    <tag k="lanes" v="2"/>
    <tag k="name" v="Εθνική Οδός 101"/>
    <tag k="name:de" v="Nationalstraße 101"/>
    <tag k="name:el" v="Εθνική Οδός 101"/>
    <tag k="name:en" v="National Road 101"/>
    <tag k="name:fr" v="Route Nationale 101"/>
    <tag k="oneway" v="no"/>
    <tag k="ref" v="EO101"/>
  </way>
  <way id="26134098" version="6" timestamp="2008-10-29T18:07:36Z" uid="74560" user="bavarian" changeset="628057">
    <nd ref="286115045"/>
    <nd ref="286115046"/>
    <nd ref="308562758"/>
    <nd ref="123601000"/>
    <nd ref="123601001"/>
    <nd ref="123601004"/>
    <nd ref="123601005"/>
    <nd ref="123601007"/>
    <nd ref="123601009"/>
    <nd ref="123601011"/>
    <nd ref="123601012"/>
    <nd ref="123601013"/>
    <nd ref="123601015"/>
    <nd ref="123601016"/>
    <nd ref="123601018"/>
    <nd ref="123601020"/>
    <nd ref="123601021"/>
    <nd ref="123601022"/>
    <nd ref="123601023"/>
    <nd ref="123601024"/>
    <nd ref="123601025"/>
    <nd ref="123601026"/>
    <nd ref="123601028"/>
    <nd ref="123601030"/>
    <nd ref="123601031"/>
    <nd ref="123601033"/>
    <nd ref="49280675"/>
    <tag k="created_by" v="Potlatch 0.10f"/>
    <tag k="highway" v="primary"/>
    <tag k="int_ref" v="E55"/>
    <tag k="lanes" v="2"/>
    <tag k="name" v="Εθνική Οδός 101"/>
    <tag k="name:de" v="Nationalstraße 101"/>
    <tag k="name:el" v="Εθνική Οδός 101"/>
    <tag k="name:en" v="National Road 101"/>
    <tag k="name:fr" v="Route Nationale 101"/>
    <tag k="oneway" v="no"/>
    <tag k="ref" v="EO101"/>
  </way>
  <way id="26134098" version="7" timestamp="2009-03-08T09:00:46Z" uid="14235" user="AiNikolas" changeset="758078">
    <nd ref="286115045"/>
    <nd ref="286115046"/>
    <nd ref="308562758"/>
    <nd ref="123601000"/>
    <nd ref="123601001"/>
    <nd ref="123601004"/>
    <nd ref="123601005"/>
    <nd ref="123601007"/>
    <nd ref="123601009"/>
    <nd ref="123601011"/>
    <tag k="created_by" v="Potlatch 0.10f"/>
    <tag k="highway" v="primary"/>
    <tag k="int_ref" v="E55"/>
    <tag k="lanes" v="2"/>
    <tag k="name" v="Εθνική Οδός 101"/>
    <tag k="name:de" v="Nationalstraße 101"/>
    <tag k="name:el" v="Εθνική Οδός 101"/>
    <tag k="name:en" v="National Road 101"/>
    <tag k="name:fr" v="Route Nationale 101"/>
    <tag k="oneway" v="no"/>
    <tag k="ref" v="EO101"/>
  </way>
  <way id="26134098" version="8" timestamp="2009-03-22T16:45:31Z" uid="9176" user="Maarten Deen" changeset="843428">
    <nd ref="286115045"/>
    <nd ref="286115046"/>
    <nd ref="308562758"/>
    <nd ref="123601000"/>
    <nd ref="123601001"/>
    <nd ref="123601004"/>
    <nd ref="123601005"/>
    <nd ref="123601007"/>
    <nd ref="123601009"/>
    <nd ref="123601011"/>
    <tag k="highway" v="primary"/>
    <tag k="int_ref" v="E 55"/>
    <tag k="lanes" v="2"/>
    <tag k="name" v="Εθνική Οδός 101"/>
    <tag k="name:de" v="Nationalstraße 101"/>
    <tag k="name:el" v="Εθνική Οδός 101"/>
    <tag k="name:en" v="National Road 101"/>
    <tag k="name:fr" v="Route Nationale 101"/>
    <tag k="oneway" v="no"/>
    <tag k="ref" v="EO101"/>
  </way>
  <way id="26134098" version="9" timestamp="2010-02-10T00:14:43Z" uid="23785" user="Simon Kokolakis" changeset="3837242">
    <nd ref="286115045"/>
    <nd ref="634720819"/>
    <nd ref="308562758"/>
    <nd ref="634720821"/>
    <nd ref="634720822"/>
    <nd ref="634720823"/>
    <nd ref="634720824"/>
    <nd ref="634720825"/>
    <nd ref="634720827"/>
    <nd ref="634720828"/>
    <nd ref="634720829"/>
    <nd ref="634720832"/>
    <nd ref="634720833"/>
    <nd ref="634720835"/>
    <nd ref="634720836"/>
    <nd ref="634720838"/>
    <nd ref="634720839"/>
    <nd ref="634720841"/>
    <nd ref="634720842"/>
    <nd ref="634720844"/>
    <nd ref="634720845"/>
    <nd ref="634720846"/>
    <nd ref="634720848"/>
    <nd ref="123601011"/>
    <tag k="highway" v="primary"/>
    <tag k="int_ref" v="E 55"/>
    <tag k="lanes" v="2"/>
    <tag k="name" v="Εθνική Οδός 101"/>
    <tag k="name:de" v="Nationalstraße 101"/>
    <tag k="name:el" v="Εθνική Οδός 101"/>
    <tag k="name:en" v="National Road 101"/>
    <tag k="name:fr" v="Route Nationale 101"/>
    <tag k="oneway" v="no"/>
    <tag k="ref" v="EO101"/>
  </way>
  <way id="26134098" version="10" timestamp="2010-02-10T00:19:03Z" uid="23785" user="Simon Kokolakis" changeset="3837242">
    <nd ref="286115045"/>
    <nd ref="634720819"/>
    <nd ref="308562758"/>
    <nd ref="634720821"/>
    <nd ref="634720822"/>
    <nd ref="634720823"/>
    <nd ref="634720824"/>
    <nd ref="634720825"/>
    <nd ref="634720827"/>
    <nd ref="634720828"/>
    <nd ref="634720829"/>
    <nd ref="634720832"/>
    <nd ref="634720833"/>
    <nd ref="634720835"/>
    <nd ref="634720836"/>
    <nd ref="634720838"/>
    <nd ref="634720839"/>
    <nd ref="634720841"/>
    <nd ref="634720842"/>
    <nd ref="634720844"/>
    <nd ref="634720845"/>
    <nd ref="634720846"/>
    <nd ref="634720848"/>
    <nd ref="123601011"/>
    <tag k="highway" v="primary"/>
    <tag k="lanes" v="2"/>
    <tag k="oneway" v="no"/>
  </way>
  <way id="26134098" version="11" timestamp="2011-08-01T22:19:40Z" uid="78861" user="ageor" changeset="8894702"/>
  <way id="26134184" version="10" timestamp="2009-07-31T19:07:54Z" uid="9581" user="Lobelt" changeset="1997528">
    <nd ref="282666491"/>
    <nd ref="288520915"/>
    <nd ref="424277428"/>
    <tag k="bicycle" v="no"/>
    <tag k="created_by" v="Potlatch 0.10f"/>
    <tag k="foot" v="no"/>
    <tag k="highway" v="secondary"/>
    <tag k="lanes" v="2"/>
    <tag k="name" v="Stadtrodaer Straße"/>
    <tag k="oneway" v="yes"/>
  </way>
  <way id="26134184" version="11" timestamp="2010-03-07T19:54:36Z" uid="128287" user="cMartin" changeset="4065563">
    <nd ref="282666491"/>
    <nd ref="288520915"/>
    <nd ref="424277428"/>
    <tag k="bicycle" v="no"/>
    <tag k="foot" v="no"/>
    <tag k="highway" v="primary"/>
    <tag k="lanes" v="2"/>
    <tag k="name" v="Stadtrodaer Straße"/>
    <tag k="oneway" v="yes"/>
    <tag k="ref" v="B 88"/>
  </way>
  <way id="26134184" version="12" timestamp="2010-08-09T20:29:07Z" uid="67020" user="Nibbler" changeset="5448112">
    <nd ref="282666491"/>
    <nd ref="851561500"/>
    <nd ref="288520915"/>
    <nd ref="424277428"/>
    <tag k="bicycle" v="no"/>
    <tag k="foot" v="no"/>
    <tag k="highway" v="primary"/>
    <tag k="lanes" v="2"/>
    <tag k="name" v="Stadtrodaer Straße"/>
    <tag k="oneway" v="yes"/>
    <tag k="ref" v="B 88"/>
  </way>
  <way id="26134184" version="13" timestamp="2012-02-10T02:56:41Z" uid="128287" user="cMartin" changeset="10640028">
    <nd ref="282666491"/>
    <nd ref="851561500"/>
    <nd ref="288520915"/>
    <nd ref="424277428"/>
    <tag k="bicycle" v="no"/>
    <tag k="foot" v="no"/>
    <tag k="highway" v="primary"/>
    <tag k="lanes" v="2"/>
    <tag k="maxspeed" v="50"/>
    <tag k="name" v="Stadtrodaer Straße"/>
    <tag k="oneway" v="yes"/>
    <tag k="ref" v="B 88"/>
  </way>
  <way id="26134185" version="4" timestamp="2009-07-31T19:07:54Z" uid="9581" user="Lobelt" changeset="1997528">
    <nd ref="282666492"/>
    <nd ref="282666491"/>
    <tag k="bicycle" v="no"/>
    <tag k="bridge" v="yes"/>
    <tag k="highway" v="secondary"/>
    <tag k="lanes" v="2"/>
    <tag k="layer" v="1"/>
    <tag k="name" v="Stadtrodaer Straße"/>
    <tag k="oneway" v="yes"/>
  </way>
  <way id="26134185" version="5" timestamp="2010-03-07T19:54:34Z" uid="128287" user="cMartin" changeset="4065563">
    <nd ref="282666492"/>
    <nd ref="282666491"/>
    <tag k="bicycle" v="no"/>
    <tag k="bridge" v="yes"/>
    <tag k="highway" v="primary"/>
    <tag k="lanes" v="2"/>
    <tag k="layer" v="1"/>
    <tag k="name" v="Stadtrodaer Straße"/>
    <tag k="oneway" v="yes"/>
    <tag k="ref" v="B 88"/>
  </way>
  <way id="26134185" version="6" timestamp="2011-11-16T14:14:35Z" uid="146335" user="ol-kn" changeset="9845073">
    <nd ref="282666492"/>
    <nd ref="1505202875"/>
    <nd ref="282666491"/>
    <tag k="bicycle" v="no"/>
    <tag k="bridge" v="yes"/>
    <tag k="highway" v="primary"/>
    <tag k="lanes" v="2"/>
    <tag k="layer" v="1"/>
    <tag k="name" v="Stadtrodaer Straße"/>
    <tag k="oneway" v="yes"/>
    <tag k="ref" v="B 88"/>
  </way>
  <way id="26134185" version="7" timestamp="2012-02-10T02:56:39Z" uid="128287" user="cMartin" changeset="10640028">
    <nd ref="282666492"/>
    <nd ref="1505202875"/>
    <nd ref="282666491"/>
    <tag k="bicycle" v="no"/>
    <tag k="bridge" v="yes"/>
    <tag k="highway" v="primary"/>
    <tag k="lanes" v="2"/>
    <tag k="layer" v="1"/>
    <tag k="maxspeed" v="50"/>
    <tag k="name" v="Stadtrodaer Straße"/>
    <tag k="oneway" v="yes"/>
    <tag k="ref" v="B 88"/>
  </way>
  <way id="26134253" version="5" timestamp="2010-06-07T14:25:02Z" uid="4467" user="Rosscoe" changeset="4928602">
    <nd ref="766706292"/>
    <nd ref="286119652"/>
    <nd ref="367125574"/>
    <nd ref="286119446"/>
    <tag k="highway" v="residential"/>
    <tag k="maxspeed" v="50"/>
    <tag k="name" v="Cameron Street"/>
  </way>
  <way id="26134263" version="5" timestamp="2010-06-07T14:24:50Z" uid="4467" user="Rosscoe" changeset="4928602">
    <nd ref="286118996"/>
    <nd ref="286118880"/>
    <nd ref="286119405"/>
    <nd ref="355167695"/>
    <nd ref="766706290"/>
    <nd ref="286119628"/>
    <tag k="highway" v="residential"/>
    <tag k="maxspeed" v="50"/>
    <tag k="name" v="Pokolbin Street"/>
  </way>
  <way id="26134273" version="5" timestamp="2009-08-03T12:24:58Z" uid="4467" user="Rosscoe" changeset="2024953">
    <nd ref="286118937"/>
    <nd ref="367125595"/>
    <nd ref="367126381"/>
    <nd ref="286119340"/>
    <tag k="highway" v="residential"/>
    <tag k="maxspeed" v="50"/>
    <tag k="name" v="Bronte Road"/>
  </way>
  <way id="26134279" version="4" timestamp="2010-06-07T14:25:04Z" uid="4467" user="Rosscoe" changeset="4928602">
    <nd ref="286119902"/>
    <nd ref="766706100"/>
    <nd ref="286119041"/>
    <nd ref="286119045"/>
    <tag k="highway" v="residential"/>
    <tag k="maxspeed" v="50"/>
    <tag k="name" v="Koree Road"/>
  </way>
  <way id="26134284" version="4" timestamp="2009-09-17T05:37:03Z" uid="74617" user="JohnSmith" changeset="2508720">
    <nd ref="286119025"/>
    <nd ref="498736068"/>
    <nd ref="286119006"/>
    <nd ref="286119446"/>
    <tag k="highway" v="residential"/>
    <tag k="maxspeed" v="50"/>
    <tag k="name" v="Newton Street"/>
  </way>
  <way id="26134312" version="5" timestamp="2009-08-03T12:24:58Z" uid="4467" user="Rosscoe" changeset="2024953">
    <nd ref="286119577"/>
    <nd ref="367125594"/>
    <nd ref="286119872"/>
    <nd ref="367126617"/>
    <nd ref="286118958"/>
    <tag k="highway" v="residential"/>
    <tag k="maxspeed" v="50"/>
    <tag k="name" v="Bavin Road"/>
  </way>
  <way id="26134318" version="3" timestamp="2010-06-29T19:13:20Z" uid="74617" user="JohnSmith" changeset="5108182">
    <nd ref="286120575"/>
    <nd ref="286120576"/>
    <nd ref="286120579"/>
    <nd ref="286120580"/>
    <nd ref="286120581"/>
    <nd ref="286120582"/>
    <nd ref="286120583"/>
    <nd ref="286120584"/>
    <nd ref="286120585"/>
    <nd ref="286120586"/>
    <nd ref="286120589"/>
    <nd ref="286120590"/>
    <nd ref="286120591"/>
    <nd ref="286120592"/>
    <nd ref="286120593"/>
    <nd ref="286120575"/>
    <tag k="fixme" v="sport=football is ambiguous, see http://wiki.osm.org/wiki/Football for more details"/>
    <tag k="leisure" v="stadium"/>
    <tag k="name" v="Pearse Stadium"/>
    <tag k="sport" v="football"/>
  </way>
  <way id="26134318" version="4" timestamp="2011-09-23T17:48:24Z" uid="6367" user="mackerski" changeset="9378582"/>
  <way id="26134444" version="6" timestamp="2010-03-27T23:55:45Z" uid="20587" user="balrog-kun" changeset="4250871">
    <nd ref="65532594"/>
    <nd ref="65542108"/>
    <tag k="bridge" v="yes"/>
    <tag k="highway" v="secondary"/>
    <tag k="layer" v="1"/>
    <tag k="name" v="West Julian Street"/>
    <tag k="oneway" v="yes"/>
    <tag k="tiger:cfcc" v="A41"/>
    <tag k="tiger:county" v="Santa Clara, CA"/>
    <tag k="tiger:name_base" v="Julian"/>
    <tag k="tiger:name_direction_prefix" v="W"/>
    <tag k="tiger:name_type" v="St"/>
    <tag k="tiger:separated" v="no"/>
    <tag k="tiger:source" v="tiger_import_dch_v0.6_20070809"/>
    <tag k="tiger:tlid" v="122987481:122987482:123003839:122987512:122987534:122987535:122987548:122993117:123007218:123007219:122907712:122907718"/>
    <tag k="tiger:zip_left" v="95110"/>
    <tag k="tiger:zip_right" v="95110"/>
  </way>
  <way id="26134557" version="2" timestamp="2010-04-02T17:19:09Z" uid="20587" user="balrog-kun" changeset="4304500">
    <nd ref="53133771"/>
    <nd ref="53133773"/>
    <tag k="bridge" v="yes"/>
    <tag k="created_by" v="Potlatch 0.10b"/>
    <tag k="highway" v="footway"/>
    <tag k="layer" v="1"/>
    <tag k="name" v="Snoqualmie Valley Trail"/>
    <tag k="tiger:cfcc" v="A71"/>
    <tag k="tiger:county" v="King, WA"/>
    <tag k="tiger:name_base" v="Snoqualmie Valley"/>
    <tag k="tiger:name_type" v="Trl"/>
    <tag k="tiger:source" v="tiger_import_dch_v0.6_20070830"/>
    <tag k="tiger:tlid" v="186616652:186949038:186616670:186955085:186698884:186955086:186946047:186955087:186617891:186698877:186944511:186620005:186620007:186620015:186687040:186667629:186963539:186619927:186619954:186619957:186619963:186963558:186620027:186620034:186620038:18662"/>
  </way>
  <way id="26134557" version="3" timestamp="2011-12-05T13:31:56Z" uid="525234" user="MasiMaster" changeset="10041934">
    <nd ref="53133771"/>
    <nd ref="53133773"/>
    <tag k="bicycle" v="designated"/>
    <tag k="bridge" v="yes"/>
    <tag k="cycleway" v="track"/>
    <tag k="foot" v="designated"/>
    <tag k="highway" v="cycleway"/>
    <tag k="horse" v="yes"/>
    <tag k="layer" v="1"/>
    <tag k="name" v="Snoqualmie Valley Trail"/>
    <tag k="surface" v="compacted"/>
    <tag k="tiger:cfcc" v="A71"/>
    <tag k="tiger:county" v="King, WA"/>
    <tag k="tiger:name_base" v="Snoqualmie Valley"/>
    <tag k="tiger:name_type" v="Trl"/>
    <tag k="tiger:source" v="tiger_import_dch_v0.6_20070830"/>
    <tag k="tiger:tlid" v="186616652:186949038:186616670:186955085:186698884:186955086:186946047:186955087:186617891:186698877:186944511:186620005:186620007:186620015:186687040:186667629:186963539:186619927:186619954:186619957:186619963:186963558:186620027:186620034:186620038:18662"/>
  </way>
  <way id="26134558" version="19" timestamp="2010-04-02T17:19:09Z" uid="20587" user="balrog-kun" changeset="4304500">
    <nd ref="53133773"/>
    <nd ref="53133774"/>
    <nd ref="53133776"/>
    <nd ref="53045077"/>
    <nd ref="53133777"/>
    <nd ref="53133778"/>
    <nd ref="389155325"/>
    <tag k="created_by" v="Potlatch 0.10b"/>
    <tag k="highway" v="footway"/>
    <tag k="name" v="Snoqualmie Valley Trail"/>
    <tag k="tiger:cfcc" v="A71"/>
    <tag k="tiger:county" v="King, WA"/>
    <tag k="tiger:name_base" v="Snoqualmie Valley"/>
    <tag k="tiger:name_type" v="Trl"/>
    <tag k="tiger:reviewed" v="no"/>
    <tag k="tiger:source" v="tiger_import_dch_v0.6_20070830"/>
    <tag k="tiger:tlid" v="186616652:186949038:186616670:186955085:186698884:186955086:186946047:186955087:186617891:186698877:186944511:186620005:186620007:186620015:186687040:186667629:186963539:186619927:186619954:186619957:186619963:186963558:186620027:186620034:186620038:18662"/>
  </way>
  <way id="26134558" version="20" timestamp="2011-12-05T13:32:01Z" uid="525234" user="MasiMaster" changeset="10041934">
    <nd ref="53133773"/>
    <nd ref="53133774"/>
    <nd ref="53133776"/>
    <nd ref="53045077"/>
    <nd ref="53133777"/>
    <nd ref="599905900"/>
    <nd ref="53133778"/>
    <nd ref="389155325"/>
    <tag k="bicycle" v="designated"/>
    <tag k="cycleway" v="track"/>
    <tag k="foot" v="designated"/>
    <tag k="highway" v="cycleway"/>
    <tag k="horse" v="yes"/>
    <tag k="name" v="Snoqualmie Valley Trail"/>
    <tag k="surface" v="compacted"/>
    <tag k="tiger:cfcc" v="A71"/>
    <tag k="tiger:county" v="King, WA"/>
    <tag k="tiger:name_base" v="Snoqualmie Valley"/>
    <tag k="tiger:name_type" v="Trl"/>
    <tag k="tiger:reviewed" v="no"/>
    <tag k="tiger:source" v="tiger_import_dch_v0.6_20070830"/>
    <tag k="tiger:tlid" v="186616652:186949038:186616670:186955085:186698884:186955086:186946047:186955087:186617891:186698877:186944511:186620005:186620007:186620015:186687040:186667629:186963539:186619927:186619954:186619957:186619963:186963558:186620027:186620034:186620038:18662"/>
  </way>
  <way id="26134616" version="2" timestamp="2010-06-12T08:43:18Z" uid="30201" user="rrankin" changeset="4968439"/>
  <way id="26134617" version="2" timestamp="2010-06-21T23:27:07Z" uid="4467" user="Rosscoe" changeset="5047579"/>
  <way id="26134618" version="7" timestamp="2009-08-05T13:17:57Z" uid="4467" user="Rosscoe" changeset="2046199">
    <nd ref="286124135"/>
    <nd ref="367126889"/>
    <nd ref="286124136"/>
    <nd ref="286124137"/>
    <nd ref="286124138"/>
    <nd ref="286124206"/>
    <nd ref="286124207"/>
    <nd ref="428424354"/>
    <nd ref="428424351"/>
    <nd ref="428424350"/>
    <nd ref="428424341"/>
    <nd ref="367174983"/>
    <nd ref="286124143"/>
    <nd ref="287003502"/>
    <nd ref="287003501"/>
    <nd ref="323649384"/>
    <nd ref="323650404"/>
    <nd ref="174761881"/>
    <nd ref="456922424"/>
    <nd ref="323651340"/>
    <nd ref="287012059"/>
    <tag k="highway" v="residential"/>
    <tag k="maxspeed" v="50"/>
    <tag k="name" v="Chatham Road"/>
  </way>
  <way id="26134618" version="8" timestamp="2010-06-07T14:25:00Z" uid="4467" user="Rosscoe" changeset="4928602">
    <nd ref="286124135"/>
    <nd ref="286124136"/>
    <nd ref="286124137"/>
    <nd ref="286124138"/>
    <nd ref="286124206"/>
    <nd ref="286124207"/>
    <nd ref="428424354"/>
    <nd ref="428424351"/>
    <nd ref="428424350"/>
    <nd ref="428424341"/>
    <nd ref="367174983"/>
    <nd ref="286124143"/>
    <nd ref="287003502"/>
    <nd ref="287003501"/>
    <nd ref="323649384"/>
    <nd ref="323650404"/>
    <nd ref="174761881"/>
    <nd ref="456922424"/>
    <nd ref="323651340"/>
    <nd ref="287012059"/>
    <tag k="highway" v="residential"/>
    <tag k="maxspeed" v="50"/>
    <tag k="name" v="Chatham Road"/>
  </way>
  <way id="26134622" version="5" timestamp="2009-08-03T12:24:58Z" uid="4467" user="Rosscoe" changeset="2024953">
    <nd ref="286124170"/>
    <nd ref="367125590"/>
    <nd ref="286124193"/>
    <nd ref="367126905"/>
    <nd ref="286124163"/>
    <nd ref="286124203"/>
    <nd ref="286124204"/>
    <nd ref="428699804"/>
    <nd ref="286124205"/>
    <tag k="highway" v="residential"/>
    <tag k="maxspeed" v="50"/>
    <tag k="name" v="Curley Road"/>
  </way>
  <way id="26134624" version="5" timestamp="2009-08-05T13:17:57Z" uid="4467" user="Rosscoe" changeset="2046199">
    <nd ref="261679833"/>
    <nd ref="456922417"/>
    <nd ref="261679840"/>
    <nd ref="323652703"/>
    <nd ref="448284776"/>
    <nd ref="261679841"/>
    <nd ref="323653493"/>
    <nd ref="261679843"/>
    <tag k="highway" v="secondary"/>
    <tag k="name" v="Broadmeadow Road"/>
    <tag k="source" v="survey"/>
  </way>
  <way id="26134624" version="6" timestamp="2010-05-01T02:48:43Z" uid="4467" user="Rosscoe" changeset="4571328">
    <nd ref="261679833"/>
    <nd ref="456922417"/>
    <nd ref="261679840"/>
    <nd ref="323652703"/>
    <nd ref="448284776"/>
    <nd ref="261679841"/>
    <nd ref="714387840"/>
    <tag k="highway" v="secondary"/>
    <tag k="name" v="Broadmeadow Road"/>
    <tag k="source" v="survey"/>
  </way>
  <way id="26134624" version="7" timestamp="2010-06-12T10:42:45Z" uid="30201" user="rrankin" changeset="4969186">
    <nd ref="261679833"/>
    <nd ref="456922417"/>
    <nd ref="261679840"/>
    <nd ref="323652703"/>
    <nd ref="769866087"/>
    <nd ref="769866077"/>
    <nd ref="261679841"/>
    <nd ref="714387840"/>
    <tag k="highway" v="secondary"/>
    <tag k="name" v="Broadmeadow Road"/>
    <tag k="source" v="survey"/>
  </way>
  <way id="26134624" version="8" timestamp="2010-10-06T11:35:00Z" uid="79475" user="AlexOnTheBus" changeset="5968235">
    <nd ref="261679833"/>
    <nd ref="456922417"/>
    <nd ref="261679840"/>
    <nd ref="323652703"/>
    <nd ref="769866087"/>
    <nd ref="769866077"/>
    <nd ref="261679841"/>
    <nd ref="714387840"/>
    <tag k="highway" v="tertiary"/>
    <tag k="name" v="Broadmeadow Road"/>
    <tag k="source" v="survey"/>
  </way>
  <way id="26134663" version="2" timestamp="2010-01-01T22:42:35Z" uid="23543" user="jkjk" changeset="3514669">
    <nd ref="286125075"/>
    <nd ref="286125074"/>
    <nd ref="286125073"/>
    <nd ref="286125072"/>
    <nd ref="286125071"/>
    <tag k="highway" v="residential"/>
  </way>
  <way id="26134676" version="2" timestamp="2010-01-01T22:42:35Z" uid="23543" user="jkjk" changeset="3514669">
    <nd ref="286125071"/>
    <nd ref="286125082"/>
    <nd ref="286125081"/>
    <nd ref="286125083"/>
    <nd ref="286125084"/>
    <nd ref="286125085"/>
    <nd ref="286125086"/>
    <nd ref="286125087"/>
    <nd ref="286125088"/>
    <tag k="highway" v="residential"/>
    <tag k="kct_yellow" v="major"/>
  </way>
  <way id="26134676" version="4" timestamp="2010-09-08T14:35:48Z" uid="17615" user="Petr Dlouhý" changeset="5717630">
    <nd ref="286125071"/>
    <nd ref="286125082"/>
    <nd ref="286125081"/>
    <nd ref="286125083"/>
    <nd ref="286125084"/>
    <nd ref="286125085"/>
    <nd ref="286125086"/>
    <nd ref="286125087"/>
    <nd ref="902709542"/>
    <nd ref="286125088"/>
    <tag k="highway" v="residential"/>
  </way>
  <way id="26134676" version="5" timestamp="2012-03-17T22:39:31Z" uid="367303" user="Vaekk" changeset="11013430">
    <nd ref="1678960444"/>
    <nd ref="880411497"/>
    <nd ref="880411302"/>
    <nd ref="880411094"/>
    <nd ref="880410910"/>
    <nd ref="1678960485"/>
    <nd ref="286125088"/>
    <nd ref="880410944"/>
    <nd ref="902709542"/>
    <nd ref="286125087"/>
    <nd ref="286125086"/>
    <nd ref="286125085"/>
    <nd ref="286125084"/>
    <nd ref="286125083"/>
    <nd ref="286125081"/>
    <nd ref="286125082"/>
    <nd ref="286125071"/>
    <tag k="highway" v="residential"/>
    <tag k="source" v="cuzk:km;uhul:ortofoto"/>
  </way>
  <way id="26134882" version="2" timestamp="2010-08-29T14:20:20Z" uid="4467" user="Rosscoe" changeset="5626240"/>
  <way id="26134883" version="2" timestamp="2010-08-29T14:20:23Z" uid="4467" user="Rosscoe" changeset="5626240"/>
  <way id="26134884" version="7" timestamp="2010-06-09T08:30:21Z" uid="4467" user="Rosscoe" changeset="4943269">
    <nd ref="286126978"/>
    <nd ref="767801463"/>
    <nd ref="286127018"/>
    <nd ref="286127002"/>
    <nd ref="286127012"/>
    <nd ref="286126999"/>
    <nd ref="286127019"/>
    <nd ref="286126982"/>
    <nd ref="286126984"/>
    <nd ref="470335373"/>
    <nd ref="286126983"/>
    <nd ref="286126976"/>
    <nd ref="470341945"/>
    <nd ref="286621751"/>
    <nd ref="286621735"/>
    <nd ref="286621744"/>
    <nd ref="286621736"/>
    <nd ref="286621737"/>
    <tag k="highway" v="residential"/>
    <tag k="maxspeed" v="50"/>
    <tag k="name" v="Crescent Road"/>
  </way>
  <way id="26134885" version="4" timestamp="2009-08-05T12:50:22Z" uid="4467" user="Rosscoe" changeset="2045970">
    <nd ref="176357911"/>
    <nd ref="456905629"/>
    <nd ref="286126984"/>
    <nd ref="286126985"/>
    <nd ref="286126992"/>
    <nd ref="286621742"/>
    <nd ref="286621737"/>
    <nd ref="286621713"/>
    <tag k="highway" v="residential"/>
    <tag k="maxspeed" v="50"/>
  </way>
  <way id="26134885" version="5" timestamp="2009-08-18T13:37:49Z" uid="83382" user="c-j-b" changeset="2190065">
    <nd ref="176357911"/>
    <nd ref="456905629"/>
    <nd ref="286126984"/>
    <nd ref="286126985"/>
    <tag k="highway" v="residential"/>
    <tag k="maxspeed" v="50"/>
    <tag k="name" v="Kahibah Road"/>
  </way>
  <way id="26134885" version="6" timestamp="2009-08-20T08:42:21Z" uid="83382" user="c-j-b" changeset="2209532">
    <nd ref="176357911"/>
    <nd ref="456905629"/>
    <nd ref="286126984"/>
    <nd ref="471342790"/>
    <nd ref="286126985"/>
    <tag k="highway" v="residential"/>
    <tag k="maxspeed" v="50"/>
    <tag k="name" v="Kahibah Road"/>
  </way>
  <way id="26134885" version="7" timestamp="2010-06-09T08:55:30Z" uid="4467" user="Rosscoe" changeset="4943478">
    <nd ref="767814221"/>
    <nd ref="456905629"/>
    <nd ref="767814190"/>
    <nd ref="286126984"/>
    <nd ref="471342790"/>
    <nd ref="286126985"/>
    <tag k="highway" v="residential"/>
    <tag k="maxspeed" v="50"/>
    <tag k="name" v="Kahibah Road"/>
  </way>
  <way id="26134895" version="2" timestamp="2010-06-09T08:30:46Z" uid="4467" user="Rosscoe" changeset="4943269">
    <nd ref="286127037"/>
    <nd ref="286127040"/>
    <nd ref="286127041"/>
    <nd ref="286127043"/>
    <nd ref="286127044"/>
    <nd ref="767801457"/>
    <nd ref="767801628"/>
    <nd ref="286127045"/>
    <nd ref="286127046"/>
    <nd ref="286127047"/>
    <nd ref="286127037"/>
    <tag k="landuse" v="retail"/>
  </way>
  <way id="26134895" version="3" timestamp="2010-06-09T08:55:05Z" uid="4467" user="Rosscoe" changeset="4943478">
    <nd ref="286127037"/>
    <nd ref="767814189"/>
    <nd ref="286127040"/>
    <nd ref="286127041"/>
    <nd ref="286127043"/>
    <nd ref="286127044"/>
    <nd ref="767801457"/>
    <nd ref="767801628"/>
    <nd ref="286127045"/>
    <nd ref="286127046"/>
    <nd ref="767814191"/>
    <nd ref="286127047"/>
    <nd ref="286127037"/>
    <tag k="landuse" v="retail"/>
  </way>
</osm>
