<?xml version='1.0' encoding='UTF-8'?>
<osm version="0.6" generator="libosmium/2.20.0">
  <way id="26177001" version="4" timestamp="2010-07-09T04:06:27Z" uid="74617" user="JohnSmith" changeset="5170825">
    <nd ref="286657742"/>
    <nd ref="286658779"/>
    <nd ref="286657744"/>
    <nd ref="286658780"/>
    <nd ref="286657746"/>
    <nd ref="286657457"/>
    <tag k="highway" v="residential"/>
    <tag k="maxspeed" v="50"/>
    <tag k="maxspeed:source" v="default residential speed limit in Australia"/>
    <tag k="name" v="Daphne Crescent"/>
  </way>
  <way id="26177001" version="5" timestamp="2012-01-17T01:58:52Z" uid="147510" user="woodpeck_fixbot" changeset="10413896">
    <nd ref="286657742"/>
    <nd ref="286658779"/>
    <nd ref="286657744"/>
    <nd ref="286658780"/>
    <nd ref="286657746"/>
    <nd ref="286657457"/>
    <tag k="highway" v="residential"/>
    <tag k="name" v="Daphne Crescent"/>
  </way>
  <way id="26177005" version="5" timestamp="2010-07-09T04:08:55Z" uid="74617" user="JohnSmith" changeset="5170825">
    <nd ref="286657891"/>
    <nd ref="286657769"/>
    <tag k="highway" v="residential"/>
    <tag k="maxspeed" v="50"/>
    <tag k="maxspeed:source" v="default residential speed limit in Australia"/>
    <tag k="name" v="Erica Court"/>
  </way>
  <way id="26177005" version="6" timestamp="2012-01-17T01:58:54Z" uid="147510" user="woodpeck_fixbot" changeset="10413896">
    <nd ref="286657891"/>
    <nd ref="286657769"/>
    <tag k="highway" v="residential"/>
    <tag k="name" v="Erica Court"/>
  </way>
  <way id="26177007" version="5" timestamp="2010-07-09T04:02:04Z" uid="74617" user="JohnSmith" changeset="5170825">
    <nd ref="286657564"/>
    <nd ref="286657569"/>
    <nd ref="286657790"/>
    <tag k="highway" v="residential"/>
    <tag k="maxspeed" v="50"/>
    <tag k="maxspeed:source" v="default residential speed limit in Australia"/>
    <tag k="name" v="McGrath Street"/>
  </way>
  <way id="26177007" version="6" timestamp="2011-09-12T21:58:42Z" uid="38690" user="emexes" changeset="9284664">
    <nd ref="286657564"/>
    <nd ref="1431403080"/>
    <nd ref="286657569"/>
    <nd ref="286657790"/>
    <tag k="highway" v="residential"/>
    <tag k="maxspeed" v="50"/>
    <tag k="maxspeed:source" v="default residential speed limit in Australia"/>
    <tag k="name" v="McGrath Street"/>
  </way>
  <way id="26177007" version="7" timestamp="2012-01-17T01:58:55Z" uid="147510" user="woodpeck_fixbot" changeset="10413896">
    <nd ref="286657564"/>
    <nd ref="1431403080"/>
    <nd ref="286657569"/>
    <nd ref="286657790"/>
    <tag k="highway" v="residential"/>
    <tag k="name" v="McGrath Street"/>
  </way>
  <way id="26177018" version="4" timestamp="2010-07-09T04:12:46Z" uid="74617" user="JohnSmith" changeset="5170825">
    <nd ref="286657568"/>
    <nd ref="286657889"/>
    <nd ref="286657890"/>
    <tag k="highway" v="residential"/>
    <tag k="maxspeed" v="50"/>
    <tag k="maxspeed:source" v="default residential speed limit in Australia"/>
    <tag k="name" v="Sullivan Street"/>
  </way>
  <way id="26177018" version="5" timestamp="2012-01-17T01:58:56Z" uid="147510" user="woodpeck_fixbot" changeset="10413896">
    <nd ref="286657568"/>
    <nd ref="286657889"/>
    <nd ref="286657890"/>
    <tag k="highway" v="residential"/>
    <tag k="name" v="Sullivan Street"/>
  </way>
  <way id="26177019" version="4" timestamp="2010-07-09T04:09:39Z" uid="74617" user="JohnSmith" changeset="5170825">
    <nd ref="286657889"/>
    <nd ref="286657905"/>
    <tag k="highway" v="residential"/>
    <tag k="maxspeed" v="50"/>
    <tag k="maxspeed:source" v="default residential speed limit in Australia"/>
    <tag k="name" v="Pearse Street"/>
  </way>
  <way id="26177019" version="5" timestamp="2012-01-17T01:58:58Z" uid="147510" user="woodpeck_fixbot" changeset="10413896">
    <nd ref="286657889"/>
    <nd ref="286657905"/>
    <tag k="highway" v="residential"/>
    <tag k="name" v="Pearse Street"/>
  </way>
  <way id="26177032" version="4" timestamp="2010-07-09T04:07:08Z" uid="74617" user="JohnSmith" changeset="5170825">
    <nd ref="286658745"/>
    <nd ref="286657980"/>
    <nd ref="286657800"/>
    <nd ref="286658746"/>
    <nd ref="286657982"/>
    <nd ref="286658747"/>
    <nd ref="286657984"/>
    <tag k="highway" v="residential"/>
    <tag k="maxspeed" v="50"/>
    <tag k="maxspeed:source" v="default residential speed limit in Australia"/>
    <tag k="name" v="Rich Crescent"/>
  </way>
  <way id="26177032" version="5" timestamp="2011-09-12T21:58:42Z" uid="38690" user="emexes" changeset="9284664">
    <nd ref="286658745"/>
    <nd ref="286657980"/>
    <nd ref="1431403078"/>
    <nd ref="286657800"/>
    <nd ref="286658746"/>
    <nd ref="286657982"/>
    <nd ref="286658747"/>
    <nd ref="286657984"/>
    <tag k="highway" v="residential"/>
    <tag k="maxspeed" v="50"/>
    <tag k="maxspeed:source" v="default residential speed limit in Australia"/>
    <tag k="name" v="Rich Crescent"/>
  </way>
  <way id="26177032" version="6" timestamp="2012-01-17T01:58:59Z" uid="147510" user="woodpeck_fixbot" changeset="10413896">
    <nd ref="286658745"/>
    <nd ref="286657980"/>
    <nd ref="1431403078"/>
    <nd ref="286657800"/>
    <nd ref="286658746"/>
    <nd ref="286657982"/>
    <nd ref="286658747"/>
    <nd ref="286657984"/>
    <tag k="highway" v="residential"/>
    <tag k="name" v="Rich Crescent"/>
  </way>
  <way id="26177039" version="5" timestamp="2010-07-09T03:58:18Z" uid="74617" user="JohnSmith" changeset="5170825">
    <nd ref="286657980"/>
    <nd ref="286658752"/>
    <nd ref="286658032"/>
    <nd ref="286658051"/>
    <nd ref="286657905"/>
    <nd ref="286657984"/>
    <nd ref="286658034"/>
    <nd ref="286657459"/>
    <tag k="highway" v="residential"/>
    <tag k="maxspeed" v="50"/>
    <tag k="maxspeed:source" v="default residential speed limit in Australia"/>
    <tag k="name" v="Ashe Crescent"/>
  </way>
  <way id="26177039" version="6" timestamp="2012-01-17T01:59:01Z" uid="147510" user="woodpeck_fixbot" changeset="10413896">
    <nd ref="286657980"/>
    <nd ref="286658752"/>
    <nd ref="286658032"/>
    <nd ref="286658051"/>
    <nd ref="286657905"/>
    <nd ref="286657984"/>
    <nd ref="286658034"/>
    <nd ref="286657459"/>
    <tag k="highway" v="residential"/>
    <tag k="name" v="Ashe Crescent"/>
  </way>
  <way id="26177044" version="5" timestamp="2010-07-09T04:08:18Z" uid="74617" user="JohnSmith" changeset="5170825">
    <nd ref="286658118"/>
    <nd ref="286658132"/>
    <tag k="highway" v="residential"/>
    <tag k="maxspeed" v="50"/>
    <tag k="maxspeed:source" v="default residential speed limit in Australia"/>
    <tag k="name" v="Lime Court"/>
  </way>
  <way id="26177044" version="6" timestamp="2012-01-17T01:59:04Z" uid="147510" user="woodpeck_fixbot" changeset="10413896">
    <nd ref="286658118"/>
    <nd ref="286658132"/>
    <tag k="highway" v="residential"/>
    <tag k="name" v="Lime Court"/>
  </way>
  <way id="26177045" version="5" timestamp="2010-07-09T04:04:49Z" uid="74617" user="JohnSmith" changeset="5170825">
    <nd ref="286658769"/>
    <nd ref="286658137"/>
    <tag k="highway" v="residential"/>
    <tag k="maxspeed" v="50"/>
    <tag k="maxspeed:source" v="default residential speed limit in Australia"/>
    <tag k="name" v="Orange Court"/>
  </way>
  <way id="26177045" version="6" timestamp="2012-01-17T01:59:06Z" uid="147510" user="woodpeck_fixbot" changeset="10413896">
    <nd ref="286658769"/>
    <nd ref="286658137"/>
    <tag k="highway" v="residential"/>
    <tag k="name" v="Orange Court"/>
  </way>
  <way id="26177050" version="5" timestamp="2010-07-09T04:10:14Z" uid="74617" user="JohnSmith" changeset="5170825">
    <nd ref="286655865"/>
    <nd ref="286658153"/>
    <tag k="highway" v="residential"/>
    <tag k="maxspeed" v="50"/>
    <tag k="maxspeed:source" v="default residential speed limit in Australia"/>
    <tag k="name" v="Banksia Street"/>
  </way>
  <way id="26177050" version="6" timestamp="2012-01-17T01:59:07Z" uid="147510" user="woodpeck_fixbot" changeset="10413896">
    <nd ref="286655865"/>
    <nd ref="286658153"/>
    <tag k="highway" v="residential"/>
    <tag k="name" v="Banksia Street"/>
  </way>
  <way id="26177072" version="4" timestamp="2010-07-09T04:09:38Z" uid="74617" user="JohnSmith" changeset="5170825">
    <nd ref="286658482"/>
    <nd ref="286658483"/>
    <tag k="highway" v="residential"/>
    <tag k="maxspeed" v="50"/>
    <tag k="maxspeed:source" v="default residential speed limit in Australia"/>
    <tag k="name" v="Willow Court"/>
  </way>
  <way id="26177072" version="5" timestamp="2012-01-17T01:59:09Z" uid="147510" user="woodpeck_fixbot" changeset="10413896">
    <nd ref="286658482"/>
    <nd ref="286658483"/>
    <tag k="highway" v="residential"/>
    <tag k="name" v="Willow Court"/>
  </way>
  <way id="26177147" version="2" timestamp="2009-06-17T23:58:58Z" uid="6975" user="ulfl" changeset="1550689">
    <nd ref="286659215"/>
    <nd ref="286659214"/>
    <nd ref="286659213"/>
    <nd ref="286659212"/>
    <nd ref="286659211"/>
    <nd ref="286659210"/>
    <nd ref="286659209"/>
    <nd ref="423575154"/>
    <nd ref="286659208"/>
    <tag k="highway" v="tertiary"/>
  </way>
  <way id="26177147" version="3" timestamp="2009-08-20T14:43:30Z" uid="64860" user="hansberger" changeset="2213222">
    <nd ref="286659215"/>
    <nd ref="286659214"/>
    <nd ref="286659213"/>
    <nd ref="286659212"/>
    <nd ref="286659211"/>
    <nd ref="286659210"/>
    <nd ref="286659209"/>
    <nd ref="423575154"/>
    <nd ref="286659208"/>
    <tag k="highway" v="residential"/>
  </way>
  <way id="26177147" version="4" timestamp="2009-10-24T13:53:12Z" uid="160605" user="pimpon" changeset="2938000">
    <nd ref="286659215"/>
    <nd ref="286659214"/>
    <nd ref="286659213"/>
    <nd ref="286659212"/>
    <nd ref="286659211"/>
    <nd ref="286659210"/>
    <nd ref="286659209"/>
    <nd ref="423575154"/>
    <tag k="highway" v="residential"/>
  </way>
  <way id="26177147" version="5" timestamp="2009-10-25T16:25:23Z" uid="160605" user="pimpon" changeset="2947759">
    <nd ref="286659215"/>
    <nd ref="286659214"/>
    <nd ref="286659213"/>
    <nd ref="286659212"/>
    <nd ref="286659211"/>
    <nd ref="540239211"/>
    <nd ref="286659210"/>
    <nd ref="286659209"/>
    <nd ref="423575154"/>
    <tag k="highway" v="residential"/>
    <tag k="name" v="Chemin du Ruisseau"/>
  </way>
  <way id="26177147" version="6" timestamp="2010-07-25T12:22:45Z" uid="138032" user="inetis" changeset="5311349">
    <nd ref="286659215"/>
    <nd ref="286659214"/>
    <nd ref="286659213"/>
    <nd ref="286659212"/>
    <nd ref="286659211"/>
    <nd ref="540239211"/>
    <nd ref="286659210"/>
    <nd ref="286659209"/>
    <tag k="highway" v="residential"/>
    <tag k="name" v="Chemin du Ruisseau"/>
  </way>
  <way id="26177147" version="7" timestamp="2010-09-06T20:11:41Z" uid="4786" user="Romain Aviolat [Xens]" changeset="5702156">
    <nd ref="286659215"/>
    <nd ref="286659214"/>
    <nd ref="286659213"/>
    <nd ref="286659212"/>
    <nd ref="899507348"/>
    <nd ref="286659211"/>
    <nd ref="540239211"/>
    <nd ref="286659210"/>
    <nd ref="286659209"/>
    <tag k="highway" v="residential"/>
    <tag k="name" v="Chemin du Ruisseau"/>
  </way>
  <way id="26177147" version="8" timestamp="2011-09-26T12:04:27Z" uid="125339" user="efred" changeset="9401447"/>
  <way id="26177265" version="6" timestamp="2010-07-09T04:11:41Z" uid="74617" user="JohnSmith" changeset="5170825">
    <nd ref="60100055"/>
    <nd ref="286662363"/>
    <nd ref="286660243"/>
    <tag k="highway" v="residential"/>
    <tag k="maxspeed" v="50"/>
    <tag k="maxspeed:source" v="default residential speed limit in Australia"/>
    <tag k="name" v="Edwin Street"/>
    <tag k="source" v="yahoo"/>
    <tag k="source:name" v="Collins 1936"/>
  </way>
  <way id="26177265" version="7" timestamp="2011-02-14T07:28:11Z" uid="104757" user="dogcutter" changeset="7283346">
    <nd ref="60100055"/>
    <nd ref="286662363"/>
    <nd ref="1152435977"/>
    <nd ref="1152436153"/>
    <nd ref="1152436025"/>
    <nd ref="1152436151"/>
    <nd ref="286660243"/>
    <tag k="highway" v="residential"/>
    <tag k="maxspeed" v="50"/>
    <tag k="maxspeed:source" v="default residential speed limit in Australia"/>
    <tag k="name" v="Edwin Street"/>
    <tag k="source" v="yahoo"/>
    <tag k="source:name" v="Collins 1936"/>
  </way>
  <way id="26177265" version="8" timestamp="2012-01-17T01:59:13Z" uid="147510" user="woodpeck_fixbot" changeset="10413896">
    <nd ref="60100055"/>
    <nd ref="286662363"/>
    <nd ref="1152435977"/>
    <nd ref="1152436153"/>
    <nd ref="1152436025"/>
    <nd ref="1152436151"/>
    <nd ref="286660243"/>
    <tag k="highway" v="residential"/>
    <tag k="name" v="Edwin Street"/>
    <tag k="source" v="yahoo"/>
    <tag k="source:name" v="Collins 1936"/>
  </way>
  <way id="26177265" version="9" timestamp="2012-03-30T03:03:05Z" uid="211804" user="KenS" changeset="11146680">
    <nd ref="226201410"/>
    <nd ref="60100055"/>
    <nd ref="286662363"/>
    <nd ref="1152435977"/>
    <nd ref="1152436153"/>
    <nd ref="1152436025"/>
    <nd ref="1152436151"/>
    <nd ref="286660243"/>
    <tag k="highway" v="residential"/>
    <tag k="name" v="Edwin Street"/>
    <tag k="source" v="yahoo,bing"/>
    <tag k="source:name" v="Collins 1936"/>
  </way>
  <way id="26177272" version="6" timestamp="2010-07-09T04:10:15Z" uid="74617" user="JohnSmith" changeset="5170825">
    <nd ref="286660356"/>
    <nd ref="333859887"/>
    <tag k="highway" v="residential"/>
    <tag k="maxspeed" v="50"/>
    <tag k="maxspeed:source" v="default residential speed limit in Australia"/>
    <tag k="name" v="Linden Avenue"/>
  </way>
  <way id="26177272" version="7" timestamp="2012-01-17T01:59:15Z" uid="147510" user="woodpeck_fixbot" changeset="10413896">
    <nd ref="286660356"/>
    <nd ref="333859887"/>
    <tag k="highway" v="residential"/>
    <tag k="name" v="Linden Avenue"/>
  </way>
  <way id="26177289" version="4" timestamp="2010-07-09T04:06:51Z" uid="74617" user="JohnSmith" changeset="5170825">
    <nd ref="286660764"/>
    <nd ref="286661747"/>
    <nd ref="286660774"/>
    <nd ref="251856811"/>
    <tag k="highway" v="residential"/>
    <tag k="maxspeed" v="50"/>
    <tag k="maxspeed:source" v="default residential speed limit in Australia"/>
    <tag k="name" v="Magnolia Road"/>
    <tag k="source" v="Yahoo"/>
    <tag k="source:name" v="Collins 1936"/>
  </way>
  <way id="26177289" version="5" timestamp="2012-01-17T01:59:16Z" uid="147510" user="woodpeck_fixbot" changeset="10413896">
    <nd ref="286660764"/>
    <nd ref="286661747"/>
    <nd ref="286660774"/>
    <nd ref="251856811"/>
    <tag k="highway" v="residential"/>
    <tag k="name" v="Magnolia Road"/>
    <tag k="source" v="Yahoo"/>
    <tag k="source:name" v="Collins 1936"/>
  </way>
  <way id="26177289" version="6" timestamp="2012-03-21T09:31:49Z" uid="211804" user="KenS" changeset="11050058">
    <nd ref="286660764"/>
    <nd ref="286661747"/>
    <nd ref="286660774"/>
    <nd ref="1684413678"/>
    <tag k="highway" v="residential"/>
    <tag k="name" v="Magnolia Road"/>
    <tag k="source" v="Yahoo"/>
    <tag k="source:name" v="Collins 1936"/>
  </way>
  <way id="26177291" version="3" timestamp="2010-07-09T03:59:29Z" uid="74617" user="JohnSmith" changeset="5170825">
    <nd ref="286662473"/>
    <nd ref="286660777"/>
    <tag k="highway" v="residential"/>
    <tag k="maxspeed" v="50"/>
    <tag k="maxspeed:source" v="default residential speed limit in Australia"/>
  </way>
  <way id="26177291" version="4" timestamp="2011-12-31T23:33:00Z" uid="211804" user="KenS" changeset="10258551">
    <nd ref="286662473"/>
    <nd ref="286660777"/>
    <tag k="highway" v="residential"/>
    <tag k="maxspeed" v="50"/>
    <tag k="maxspeed:source" v="default residential speed limit in Australia"/>
    <tag k="name" v="Melcombe Road"/>
    <tag k="source:name" v="survey"/>
  </way>
  <way id="26177291" version="5" timestamp="2012-01-17T01:59:18Z" uid="147510" user="woodpeck_fixbot" changeset="10413896">
    <nd ref="286662473"/>
    <nd ref="286660777"/>
    <tag k="highway" v="residential"/>
    <tag k="name" v="Melcombe Road"/>
    <tag k="source:name" v="survey"/>
  </way>
  <way id="26177294" version="7" timestamp="2010-07-09T04:05:52Z" uid="74617" user="JohnSmith" changeset="5170825">
    <nd ref="286660762"/>
    <nd ref="286661495"/>
    <tag k="highway" v="residential"/>
    <tag k="maxspeed" v="50"/>
    <tag k="maxspeed:source" v="default residential speed limit in Australia"/>
    <tag k="name" v="St Elmo Road"/>
    <tag k="source" v="MMBW"/>
  </way>
  <way id="26177294" version="8" timestamp="2012-01-17T01:59:19Z" uid="147510" user="woodpeck_fixbot" changeset="10413896">
    <nd ref="286660762"/>
    <nd ref="286661495"/>
    <tag k="highway" v="residential"/>
    <tag k="name" v="St Elmo Road"/>
    <tag k="source" v="MMBW"/>
  </way>
  <way id="26177296" version="5" timestamp="2010-07-09T04:09:05Z" uid="74617" user="JohnSmith" changeset="5170825">
    <nd ref="286660760"/>
    <nd ref="286660859"/>
    <nd ref="286660860"/>
    <nd ref="286661110"/>
    <nd ref="286660862"/>
    <nd ref="718632602"/>
    <nd ref="286662439"/>
    <nd ref="251856792"/>
    <tag k="highway" v="residential"/>
    <tag k="maxspeed" v="50"/>
    <tag k="maxspeed:source" v="default residential speed limit in Australia"/>
    <tag k="name" v="Ivanhoe Parade"/>
    <tag k="source" v="MMBW"/>
  </way>
  <way id="26177296" version="6" timestamp="2011-01-26T06:25:56Z" uid="104757" user="kurtrules100" changeset="7090641">
    <nd ref="286660760"/>
    <nd ref="286660859"/>
    <nd ref="286660860"/>
    <nd ref="286661110"/>
    <nd ref="286660862"/>
    <nd ref="718632602"/>
    <nd ref="286662439"/>
    <nd ref="1121118491"/>
    <nd ref="251856792"/>
    <tag k="highway" v="residential"/>
    <tag k="maxspeed" v="50"/>
    <tag k="maxspeed:source" v="default residential speed limit in Australia"/>
    <tag k="name" v="Ivanhoe Parade"/>
    <tag k="source" v="MMBW"/>
  </way>
  <way id="26177296" version="7" timestamp="2011-05-10T07:50:48Z" uid="104757" user="dogcutter" changeset="8099778">
    <nd ref="286660760"/>
    <nd ref="286660859"/>
    <nd ref="286660860"/>
    <nd ref="286661110"/>
    <nd ref="1279034383"/>
    <nd ref="1279034372"/>
    <nd ref="286660862"/>
    <nd ref="718632602"/>
    <nd ref="286662439"/>
    <nd ref="1121118491"/>
    <nd ref="251856792"/>
    <tag k="highway" v="residential"/>
    <tag k="maxspeed" v="50"/>
    <tag k="maxspeed:source" v="default residential speed limit in Australia"/>
    <tag k="name" v="Ivanhoe Parade"/>
    <tag k="source" v="MMBW"/>
  </way>
  <way id="26177296" version="8" timestamp="2012-01-17T01:59:23Z" uid="147510" user="woodpeck_fixbot" changeset="10413896">
    <nd ref="286660760"/>
    <nd ref="286660859"/>
    <nd ref="286660860"/>
    <nd ref="286661110"/>
    <nd ref="1279034383"/>
    <nd ref="1279034372"/>
    <nd ref="286660862"/>
    <nd ref="718632602"/>
    <nd ref="286662439"/>
    <nd ref="1121118491"/>
    <nd ref="251856792"/>
    <tag k="highway" v="residential"/>
    <tag k="name" v="Ivanhoe Parade"/>
    <tag k="source" v="MMBW"/>
  </way>
  <way id="26177299" version="5" timestamp="2010-07-09T04:14:33Z" uid="74617" user="JohnSmith" changeset="5170825">
    <nd ref="286660825"/>
    <nd ref="286661110"/>
    <nd ref="339595725"/>
    <tag k="highway" v="residential"/>
    <tag k="maxspeed" v="50"/>
    <tag k="maxspeed:source" v="default residential speed limit in Australia"/>
    <tag k="name" v="Clifton Grove"/>
    <tag k="source" v="Yahoo"/>
    <tag k="source:name" v="Collins 1936"/>
  </way>
  <way id="26177299" version="6" timestamp="2011-01-26T06:25:54Z" uid="104757" user="kurtrules100" changeset="7090641">
    <nd ref="286660825"/>
    <nd ref="286661110"/>
    <nd ref="1121118499"/>
    <nd ref="339595725"/>
    <tag k="highway" v="residential"/>
    <tag k="maxspeed" v="50"/>
    <tag k="maxspeed:source" v="default residential speed limit in Australia"/>
    <tag k="name" v="Clifton Grove"/>
    <tag k="source" v="Yahoo"/>
    <tag k="source:name" v="Collins 1936"/>
  </way>
  <way id="26177299" version="7" timestamp="2012-01-17T01:59:26Z" uid="147510" user="woodpeck_fixbot" changeset="10413896">
    <nd ref="286660825"/>
    <nd ref="286661110"/>
    <nd ref="1121118499"/>
    <nd ref="339595725"/>
    <tag k="highway" v="residential"/>
    <tag k="name" v="Clifton Grove"/>
    <tag k="source" v="Yahoo"/>
    <tag k="source:name" v="Collins 1936"/>
  </way>
  <way id="26177300" version="5" timestamp="2010-07-09T04:11:24Z" uid="74617" user="JohnSmith" changeset="5170825">
    <nd ref="286661211"/>
    <nd ref="286660860"/>
    <nd ref="339595970"/>
    <tag k="highway" v="residential"/>
    <tag k="maxspeed" v="50"/>
    <tag k="maxspeed:source" v="default residential speed limit in Australia"/>
    <tag k="name" v="Roseland Grove"/>
    <tag k="source" v="Yahoo"/>
    <tag k="source:name" v="Collins 1936"/>
  </way>
  <way id="26177300" version="6" timestamp="2011-01-26T06:25:51Z" uid="104757" user="kurtrules100" changeset="7090641">
    <nd ref="286661211"/>
    <nd ref="286660860"/>
    <nd ref="1121118388"/>
    <nd ref="339595970"/>
    <tag k="highway" v="residential"/>
    <tag k="maxspeed" v="50"/>
    <tag k="maxspeed:source" v="default residential speed limit in Australia"/>
    <tag k="name" v="Roseland Grove"/>
    <tag k="source" v="Yahoo"/>
    <tag k="source:name" v="Collins 1936"/>
  </way>
  <way id="26177300" version="7" timestamp="2012-01-17T01:59:27Z" uid="147510" user="woodpeck_fixbot" changeset="10413896">
    <nd ref="286661211"/>
    <nd ref="286660860"/>
    <nd ref="1121118388"/>
    <nd ref="339595970"/>
    <tag k="highway" v="residential"/>
    <tag k="name" v="Roseland Grove"/>
    <tag k="source" v="Yahoo"/>
    <tag k="source:name" v="Collins 1936"/>
  </way>
  <way id="26177315" version="5" timestamp="2010-07-09T04:08:38Z" uid="74617" user="JohnSmith" changeset="5170825">
    <nd ref="275571906"/>
    <nd ref="286660859"/>
    <nd ref="286661493"/>
    <tag k="highway" v="residential"/>
    <tag k="maxspeed" v="50"/>
    <tag k="maxspeed:source" v="default residential speed limit in Australia"/>
    <tag k="name" v="Lantana Street"/>
    <tag k="source" v="MMBW"/>
  </way>
  <way id="26177315" version="6" timestamp="2011-01-26T06:25:51Z" uid="104757" user="kurtrules100" changeset="7090641">
    <nd ref="275571906"/>
    <nd ref="1121118390"/>
    <nd ref="286660859"/>
    <nd ref="286661493"/>
    <tag k="highway" v="residential"/>
    <tag k="maxspeed" v="50"/>
    <tag k="maxspeed:source" v="default residential speed limit in Australia"/>
    <tag k="name" v="Lantana Street"/>
    <tag k="source" v="MMBW"/>
  </way>
  <way id="26177315" version="7" timestamp="2012-01-17T01:59:28Z" uid="147510" user="woodpeck_fixbot" changeset="10413896">
    <nd ref="275571906"/>
    <nd ref="1121118390"/>
    <nd ref="286660859"/>
    <nd ref="286661493"/>
    <tag k="highway" v="residential"/>
    <tag k="name" v="Lantana Street"/>
    <tag k="source" v="MMBW"/>
  </way>
  <way id="26177334" version="6" timestamp="2010-07-09T04:08:17Z" uid="74617" user="JohnSmith" changeset="5170825">
    <nd ref="286661595"/>
    <nd ref="286660777"/>
    <nd ref="286662263"/>
    <nd ref="286661747"/>
    <nd ref="286662277"/>
    <nd ref="286661748"/>
    <nd ref="251856815"/>
    <tag k="highway" v="residential"/>
    <tag k="maxspeed" v="50"/>
    <tag k="maxspeed:source" v="default residential speed limit in Australia"/>
    <tag k="name" v="Lantana Street"/>
    <tag k="source:name" v="Collins 1936"/>
  </way>
  <way id="26177334" version="7" timestamp="2012-01-17T01:59:30Z" uid="147510" user="woodpeck_fixbot" changeset="10413896">
    <nd ref="286661595"/>
    <nd ref="286660777"/>
    <nd ref="286662263"/>
    <nd ref="286661747"/>
    <nd ref="286662277"/>
    <nd ref="286661748"/>
    <nd ref="251856815"/>
    <tag k="highway" v="residential"/>
    <tag k="name" v="Lantana Street"/>
    <tag k="source:name" v="Collins 1936"/>
  </way>
  <way id="26177334" version="8" timestamp="2012-03-21T09:31:49Z" uid="211804" user="KenS" changeset="11050058">
    <nd ref="286661595"/>
    <nd ref="286660777"/>
    <nd ref="286662263"/>
    <nd ref="286661747"/>
    <nd ref="286662277"/>
    <nd ref="286661748"/>
    <nd ref="1684413659"/>
    <tag k="highway" v="residential"/>
    <tag k="name" v="Lantana Street"/>
    <tag k="source:name" v="Collins 1936"/>
  </way>
  <way id="26177344" version="4" timestamp="2010-07-09T04:06:23Z" uid="74617" user="JohnSmith" changeset="5170825">
    <nd ref="286662482"/>
    <nd ref="286661801"/>
    <tag k="highway" v="residential"/>
    <tag k="maxspeed" v="50"/>
    <tag k="maxspeed:source" v="default residential speed limit in Australia"/>
    <tag k="name" v="Hampton Court"/>
    <tag k="source" v="MMBW"/>
  </way>
  <way id="26177344" version="5" timestamp="2012-01-17T01:59:31Z" uid="147510" user="woodpeck_fixbot" changeset="10413896">
    <nd ref="286662482"/>
    <nd ref="286661801"/>
    <tag k="highway" v="residential"/>
    <tag k="name" v="Hampton Court"/>
    <tag k="source" v="MMBW"/>
  </way>
  <way id="26177345" version="4" timestamp="2010-07-09T04:02:55Z" uid="74617" user="JohnSmith" changeset="5170825">
    <nd ref="286661774"/>
    <nd ref="286661804"/>
    <tag k="highway" v="residential"/>
    <tag k="maxspeed" v="50"/>
    <tag k="maxspeed:source" v="default residential speed limit in Australia"/>
    <tag k="name" v="Tudor Court"/>
    <tag k="source" v="MMBW"/>
  </way>
  <way id="26177345" version="5" timestamp="2012-01-17T01:59:33Z" uid="147510" user="woodpeck_fixbot" changeset="10413896">
    <nd ref="286661774"/>
    <nd ref="286661804"/>
    <tag k="highway" v="residential"/>
    <tag k="name" v="Tudor Court"/>
    <tag k="source" v="MMBW"/>
  </way>
  <way id="26177347" version="1" timestamp="2008-08-10T09:55:08Z" uid="7617" user="Franc" changeset="171973">
    <nd ref="17991866"/>
    <nd ref="286661807"/>
    <tag k="created_by" v="JOSM"/>
    <tag k="highway" v="service"/>
    <tag k="name" v="Mulqueeny Lane"/>
    <tag k="source" v="historical"/>
    <tag k="source_ref" v="http://www.sl.nsw.gov.au/online/maps.cfm"/>
  </way>
  <way id="26177347" version="2" timestamp="2009-11-14T12:06:34Z" uid="117890" user="Jonathan Trott" changeset="3112508">
    <nd ref="17991866"/>
    <nd ref="286661807"/>
    <tag k="highway" v="service"/>
    <tag k="name" v="Mulqueeny Lane"/>
    <tag k="source" v="historical"/>
    <tag k="source_ref" v="http://www.sl.nsw.gov.au/online/maps.cfm"/>
  </way>
  <way id="26177348" version="1" timestamp="2008-08-10T09:55:09Z" uid="7617" user="Franc" changeset="171973">
    <nd ref="286661812"/>
    <nd ref="286661814"/>
    <tag k="created_by" v="JOSM"/>
    <tag k="highway" v="service"/>
    <tag k="name" v="Marmion Lane"/>
    <tag k="source" v="historical"/>
    <tag k="source_ref" v="http://www.sl.nsw.gov.au/online/maps.cfm"/>
  </way>
  <way id="26177348" version="2" timestamp="2009-11-14T12:07:09Z" uid="117890" user="Jonathan Trott" changeset="3112508">
    <nd ref="286661812"/>
    <nd ref="286661814"/>
    <tag k="highway" v="service"/>
    <tag k="name" v="Marmion Lane"/>
    <tag k="source" v="historical"/>
    <tag k="source_ref" v="http://www.sl.nsw.gov.au/online/maps.cfm"/>
  </way>
  <way id="26177351" version="4" timestamp="2010-07-09T04:14:27Z" uid="74617" user="JohnSmith" changeset="5170825">
    <nd ref="286661819"/>
    <nd ref="286662531"/>
    <tag k="highway" v="residential"/>
    <tag k="maxspeed" v="50"/>
    <tag k="maxspeed:source" v="default residential speed limit in Australia"/>
    <tag k="name" v="Surrey Court"/>
    <tag k="source" v="MMBW"/>
  </way>
  <way id="26177351" version="5" timestamp="2012-01-17T01:59:34Z" uid="147510" user="woodpeck_fixbot" changeset="10413896">
    <nd ref="286661819"/>
    <nd ref="286662531"/>
    <tag k="highway" v="residential"/>
    <tag k="name" v="Surrey Court"/>
    <tag k="source" v="MMBW"/>
  </way>
  <way id="26177363" version="5" timestamp="2010-07-09T04:05:58Z" uid="74617" user="JohnSmith" changeset="5170825">
    <nd ref="286662481"/>
    <nd ref="286661937"/>
    <tag k="highway" v="residential"/>
    <tag k="maxspeed" v="50"/>
    <tag k="maxspeed:source" v="default residential speed limit in Australia"/>
    <tag k="name" v="Lincoln Court"/>
    <tag k="source" v="MMBW"/>
  </way>
  <way id="26177363" version="6" timestamp="2011-03-21T10:03:54Z" uid="104757" user="dogcutter" changeset="7625255">
    <nd ref="286662481"/>
    <nd ref="286661937"/>
    <tag k="highway" v="residential"/>
    <tag k="maxspeed" v="50"/>
    <tag k="maxspeed:source" v="default residential speed limit in Australia"/>
    <tag k="name" v="Lincoln Court"/>
    <tag k="source" v="MMBW"/>
  </way>
  <way id="26177363" version="7" timestamp="2012-01-17T01:59:35Z" uid="147510" user="woodpeck_fixbot" changeset="10413896">
    <nd ref="286662481"/>
    <nd ref="286661937"/>
    <tag k="highway" v="residential"/>
    <tag k="name" v="Lincoln Court"/>
    <tag k="source" v="MMBW"/>
  </way>
  <way id="26177366" version="5" timestamp="2010-07-09T04:11:53Z" uid="74617" user="JohnSmith" changeset="5170825">
    <nd ref="286660471"/>
    <nd ref="286660363"/>
    <nd ref="286660349"/>
    <nd ref="286661960"/>
    <nd ref="286662363"/>
    <tag k="highway" v="residential"/>
    <tag k="maxspeed" v="50"/>
    <tag k="maxspeed:source" v="default residential speed limit in Australia"/>
    <tag k="name" v="Forster Street"/>
    <tag k="source" v="yahoo"/>
    <tag k="source:name" v="Collins 1936"/>
  </way>
  <way id="26177366" version="6" timestamp="2011-01-26T06:25:37Z" uid="104757" user="kurtrules100" changeset="7090641">
    <nd ref="286660471"/>
    <nd ref="1121118081"/>
    <nd ref="286660363"/>
    <nd ref="286660349"/>
    <nd ref="286661960"/>
    <nd ref="286662363"/>
    <tag k="highway" v="residential"/>
    <tag k="maxspeed" v="50"/>
    <tag k="maxspeed:source" v="default residential speed limit in Australia"/>
    <tag k="name" v="Forster Street"/>
    <tag k="source" v="yahoo"/>
    <tag k="source:name" v="Collins 1936"/>
  </way>
  <way id="26177366" version="7" timestamp="2011-04-23T12:39:28Z" uid="104757" user="dogcutter" changeset="7943129">
    <nd ref="1256649742"/>
    <nd ref="1121118081"/>
    <nd ref="286660363"/>
    <nd ref="286660349"/>
    <nd ref="286661960"/>
    <nd ref="286662363"/>
    <tag k="highway" v="residential"/>
    <tag k="maxspeed" v="50"/>
    <tag k="maxspeed:source" v="default residential speed limit in Australia"/>
    <tag k="name" v="Forster Street"/>
    <tag k="source" v="yahoo"/>
    <tag k="source:name" v="Collins 1936"/>
  </way>
  <way id="26177366" version="8" timestamp="2012-01-17T01:59:36Z" uid="147510" user="woodpeck_fixbot" changeset="10413896">
    <nd ref="1256649742"/>
    <nd ref="1121118081"/>
    <nd ref="286660363"/>
    <nd ref="286660349"/>
    <nd ref="286661960"/>
    <nd ref="286662363"/>
    <tag k="highway" v="residential"/>
    <tag k="name" v="Forster Street"/>
    <tag k="source" v="yahoo"/>
    <tag k="source:name" v="Collins 1936"/>
  </way>
  <way id="26177373" version="3" timestamp="2010-07-09T04:10:26Z" uid="74617" user="JohnSmith" changeset="5170825">
    <nd ref="286661960"/>
    <nd ref="286661986"/>
    <tag k="highway" v="residential"/>
    <tag k="maxspeed" v="50"/>
    <tag k="maxspeed:source" v="default residential speed limit in Australia"/>
  </way>
  <way id="26177373" version="4" timestamp="2011-12-31T23:32:59Z" uid="211804" user="KenS" changeset="10258551">
    <nd ref="286661960"/>
    <nd ref="286661986"/>
    <tag k="highway" v="residential"/>
    <tag k="maxspeed" v="50"/>
    <tag k="maxspeed:source" v="default residential speed limit in Australia"/>
    <tag k="name" v="Huntingfield Place"/>
    <tag k="source:name" v="survey"/>
  </way>
  <way id="26177373" version="5" timestamp="2012-01-17T01:59:38Z" uid="147510" user="woodpeck_fixbot" changeset="10413896">
    <nd ref="286661960"/>
    <nd ref="286661986"/>
    <tag k="highway" v="residential"/>
    <tag k="name" v="Huntingfield Place"/>
    <tag k="source:name" v="survey"/>
  </way>
  <way id="26177376" version="8" timestamp="2010-07-09T04:10:06Z" uid="74617" user="JohnSmith" changeset="5170825">
    <nd ref="286662006"/>
    <nd ref="286660349"/>
    <nd ref="286662007"/>
    <nd ref="286660351"/>
    <tag k="highway" v="residential"/>
    <tag k="maxspeed" v="50"/>
    <tag k="maxspeed:source" v="default residential speed limit in Australia"/>
    <tag k="name" v="Myrtle Street"/>
    <tag k="source" v="yahoo"/>
    <tag k="source:name" v="Collins 1936"/>
  </way>
  <way id="26177376" version="9" timestamp="2012-01-17T01:59:39Z" uid="147510" user="woodpeck_fixbot" changeset="10413896">
    <nd ref="286662006"/>
    <nd ref="286660349"/>
    <nd ref="286662007"/>
    <nd ref="286660351"/>
    <tag k="highway" v="residential"/>
    <tag k="name" v="Myrtle Street"/>
    <tag k="source" v="yahoo"/>
    <tag k="source:name" v="Collins 1936"/>
  </way>
  <way id="26177397" version="5" timestamp="2010-07-09T04:02:44Z" uid="74617" user="JohnSmith" changeset="5170825">
    <nd ref="286662101"/>
    <nd ref="286660258"/>
    <tag k="highway" v="residential"/>
    <tag k="maxspeed" v="50"/>
    <tag k="maxspeed:source" v="default residential speed limit in Australia"/>
    <tag k="name" v="Myrtle Street"/>
  </way>
  <way id="26177397" version="6" timestamp="2012-01-17T01:59:41Z" uid="147510" user="woodpeck_fixbot" changeset="10413896">
    <nd ref="286662101"/>
    <nd ref="286660258"/>
    <tag k="highway" v="residential"/>
    <tag k="name" v="Myrtle Street"/>
  </way>
  <way id="26177397" version="7" timestamp="2012-03-30T03:03:07Z" uid="211804" user="KenS" changeset="11146680">
    <nd ref="286662101"/>
    <nd ref="286660258"/>
    <nd ref="60100436"/>
    <tag k="highway" v="residential"/>
    <tag k="name" v="Myrtle Street"/>
    <tag k="source" v="bing"/>
  </way>
  <way id="26177423" version="6" timestamp="2010-07-09T04:01:00Z" uid="74617" user="JohnSmith" changeset="5170825">
    <nd ref="286662277"/>
    <nd ref="286662278"/>
    <nd ref="286662519"/>
    <tag k="highway" v="residential"/>
    <tag k="maxspeed" v="50"/>
    <tag k="maxspeed:source" v="default residential speed limit in Australia"/>
    <tag k="name" v="Alanah Place"/>
  </way>
  <way id="26177423" version="7" timestamp="2012-01-17T01:59:42Z" uid="147510" user="woodpeck_fixbot" changeset="10413896">
    <nd ref="286662277"/>
    <nd ref="286662278"/>
    <nd ref="286662519"/>
    <tag k="highway" v="residential"/>
    <tag k="name" v="Alanah Place"/>
  </way>
  <way id="26177424" version="5" timestamp="2010-07-09T04:07:27Z" uid="74617" user="JohnSmith" changeset="5170825">
    <nd ref="286662278"/>
    <nd ref="286662282"/>
    <tag k="highway" v="residential"/>
    <tag k="maxspeed" v="50"/>
    <tag k="maxspeed:source" v="default residential speed limit in Australia"/>
  </way>
  <way id="26177424" version="6" timestamp="2011-12-31T23:32:56Z" uid="211804" user="KenS" changeset="10258551">
    <nd ref="286662278"/>
    <nd ref="286662282"/>
    <tag k="highway" v="residential"/>
    <tag k="maxspeed" v="50"/>
    <tag k="maxspeed:source" v="default residential speed limit in Australia"/>
    <tag k="name" v="Alanah PLace"/>
    <tag k="source:name" v="survey"/>
  </way>
  <way id="26177424" version="7" timestamp="2012-01-17T01:59:43Z" uid="147510" user="woodpeck_fixbot" changeset="10413896">
    <nd ref="286662278"/>
    <nd ref="286662282"/>
    <tag k="highway" v="residential"/>
    <tag k="name" v="Alanah PLace"/>
    <tag k="source:name" v="survey"/>
  </way>
  <way id="26177501" version="6" timestamp="2010-05-16T08:44:42Z" uid="4467" user="Rosscoe" changeset="4714375">
    <nd ref="286663309"/>
    <nd ref="736131524"/>
    <nd ref="736131520"/>
    <nd ref="286668488"/>
    <nd ref="286663311"/>
    <nd ref="736131513"/>
    <nd ref="736131514"/>
    <nd ref="286667788"/>
    <nd ref="286663242"/>
    <nd ref="286663243"/>
    <nd ref="286663244"/>
    <nd ref="736131519"/>
    <nd ref="286663245"/>
    <nd ref="286663246"/>
    <nd ref="286663247"/>
    <nd ref="286663309"/>
    <tag k="highway" v="secondary"/>
    <tag k="junction" v="roundabout"/>
    <tag k="maxspeed" v="70"/>
    <tag k="source" v="nearmap"/>
  </way>
  <way id="26177501" version="7" timestamp="2010-10-08T12:24:51Z" uid="79475" user="AlexOnTheBus" changeset="5985602">
    <nd ref="286663309"/>
    <nd ref="941388553"/>
    <nd ref="736131524"/>
    <nd ref="736131520"/>
    <nd ref="286668488"/>
    <nd ref="286663311"/>
    <nd ref="736131513"/>
    <nd ref="736131514"/>
    <nd ref="286667788"/>
    <nd ref="286663242"/>
    <nd ref="941388554"/>
    <nd ref="286663243"/>
    <nd ref="286663244"/>
    <nd ref="736131519"/>
    <nd ref="941388555"/>
    <nd ref="286663245"/>
    <nd ref="286663246"/>
    <nd ref="941388556"/>
    <nd ref="286663247"/>
    <nd ref="286663309"/>
    <tag k="highway" v="primary"/>
    <tag k="junction" v="roundabout"/>
    <tag k="maxspeed" v="70"/>
    <tag k="oneway" v="yes"/>
    <tag k="source" v="nearmap"/>
  </way>
  <way id="26177564" version="4" timestamp="2010-05-16T08:44:46Z" uid="4467" user="Rosscoe" changeset="4714375">
    <nd ref="260545785"/>
    <nd ref="286666505"/>
    <nd ref="286666429"/>
    <nd ref="286668378"/>
    <nd ref="286666431"/>
    <nd ref="286666508"/>
    <nd ref="286666435"/>
    <nd ref="286668379"/>
    <nd ref="286666437"/>
    <nd ref="286666510"/>
    <nd ref="286666439"/>
    <nd ref="286668380"/>
    <nd ref="286666441"/>
    <nd ref="286666513"/>
    <nd ref="286666443"/>
    <nd ref="286668381"/>
    <nd ref="286666445"/>
    <nd ref="286663304"/>
    <nd ref="736131524"/>
    <tag k="highway" v="secondary"/>
    <tag k="maxspeed" v="70"/>
    <tag k="name" v="Wyong Road"/>
    <tag k="oneway" v="yes"/>
  </way>
  <way id="26177564" version="5" timestamp="2010-05-17T02:24:54Z" uid="4467" user="Rosscoe" changeset="4724836">
    <nd ref="260545785"/>
    <nd ref="286666505"/>
    <nd ref="286666429"/>
    <nd ref="286668378"/>
    <nd ref="737044844"/>
    <nd ref="286666431"/>
    <nd ref="737044848"/>
    <nd ref="286666508"/>
    <nd ref="286666435"/>
    <nd ref="286668379"/>
    <nd ref="286666437"/>
    <nd ref="286666510"/>
    <nd ref="286666439"/>
    <nd ref="286668380"/>
    <nd ref="286666441"/>
    <nd ref="286666513"/>
    <nd ref="737044847"/>
    <nd ref="286666443"/>
    <nd ref="286668381"/>
    <nd ref="286666445"/>
    <nd ref="286663304"/>
    <nd ref="736131524"/>
    <tag k="highway" v="secondary"/>
    <tag k="maxspeed" v="70"/>
    <tag k="name" v="Wyong Road"/>
    <tag k="oneway" v="yes"/>
    <tag k="source" v="nearmap"/>
  </way>
  <way id="26177564" version="6" timestamp="2010-10-08T12:24:11Z" uid="79475" user="AlexOnTheBus" changeset="5985602">
    <nd ref="260545785"/>
    <nd ref="286666505"/>
    <nd ref="286666429"/>
    <nd ref="286668378"/>
    <nd ref="737044844"/>
    <nd ref="286666431"/>
    <nd ref="737044848"/>
    <nd ref="286666508"/>
    <nd ref="286666435"/>
    <nd ref="286668379"/>
    <nd ref="286666437"/>
    <nd ref="286666510"/>
    <nd ref="286666439"/>
    <nd ref="286668380"/>
    <nd ref="286666441"/>
    <nd ref="286666513"/>
    <nd ref="737044847"/>
    <nd ref="286666443"/>
    <nd ref="286668381"/>
    <nd ref="286666445"/>
    <nd ref="286663304"/>
    <nd ref="736131524"/>
    <tag k="highway" v="primary"/>
    <tag k="maxspeed" v="70"/>
    <tag k="name" v="Wyong Road"/>
    <tag k="oneway" v="yes"/>
    <tag k="source" v="nearmap"/>
  </way>
  <way id="26177617" version="3" timestamp="2010-05-17T02:24:54Z" uid="4467" user="Rosscoe" changeset="4724836">
    <nd ref="286663247"/>
    <nd ref="286666883"/>
    <nd ref="286666884"/>
    <nd ref="286668400"/>
    <nd ref="286666887"/>
    <nd ref="737044843"/>
    <nd ref="286668401"/>
    <nd ref="286666890"/>
    <nd ref="286666891"/>
    <nd ref="286666892"/>
    <nd ref="286668402"/>
    <nd ref="737044845"/>
    <nd ref="286666894"/>
    <nd ref="286668404"/>
    <nd ref="286668405"/>
    <nd ref="737044846"/>
    <nd ref="286666899"/>
    <nd ref="286668406"/>
    <nd ref="286666901"/>
    <nd ref="286668407"/>
    <nd ref="286668408"/>
    <nd ref="260545778"/>
    <tag k="highway" v="secondary"/>
    <tag k="maxspeed" v="70"/>
    <tag k="name" v="Wyong Road"/>
    <tag k="oneway" v="yes"/>
    <tag k="source" v="nearmap"/>
  </way>
  <way id="26177617" version="4" timestamp="2010-10-08T12:24:14Z" uid="79475" user="AlexOnTheBus" changeset="5985602">
    <nd ref="286663247"/>
    <nd ref="286666883"/>
    <nd ref="286666884"/>
    <nd ref="286668400"/>
    <nd ref="286666887"/>
    <nd ref="737044843"/>
    <nd ref="286668401"/>
    <nd ref="286666890"/>
    <nd ref="286666891"/>
    <nd ref="286666892"/>
    <nd ref="286668402"/>
    <nd ref="737044845"/>
    <nd ref="286666894"/>
    <nd ref="286668404"/>
    <nd ref="286668405"/>
    <nd ref="737044846"/>
    <nd ref="286666899"/>
    <nd ref="286668406"/>
    <nd ref="286666901"/>
    <nd ref="286668407"/>
    <nd ref="286668408"/>
    <nd ref="260545778"/>
    <tag k="highway" v="primary"/>
    <tag k="maxspeed" v="70"/>
    <tag k="name" v="Wyong Road"/>
    <tag k="oneway" v="yes"/>
    <tag k="source" v="nearmap"/>
  </way>
  <way id="26177668" version="1" timestamp="2008-08-10T10:11:25Z" uid="7617" user="Franc" changeset="171973">
    <nd ref="286667303"/>
    <nd ref="286667304"/>
    <tag k="created_by" v="JOSM"/>
    <tag k="highway" v="service"/>
    <tag k="name" v="Watkin Lane"/>
    <tag k="source" v="historical"/>
    <tag k="source_ref" v="http://www.sl.nsw.gov.au/online/maps.cfm"/>
  </way>
  <way id="26177668" version="2" timestamp="2009-11-14T12:06:54Z" uid="117890" user="Jonathan Trott" changeset="3112508">
    <nd ref="286667303"/>
    <nd ref="286667304"/>
    <tag k="highway" v="service"/>
    <tag k="name" v="Watkin Lane"/>
    <tag k="source" v="historical"/>
    <tag k="source_ref" v="http://www.sl.nsw.gov.au/online/maps.cfm"/>
  </way>
  <way id="26177668" version="3" timestamp="2011-03-11T10:05:34Z" uid="7617" user="Franc" changeset="7521816">
    <nd ref="286667303"/>
    <nd ref="1196629045"/>
    <nd ref="286667304"/>
    <tag k="highway" v="service"/>
    <tag k="name" v="Watkin Lane"/>
    <tag k="source" v="historical"/>
    <tag k="source_ref" v="http://www.sl.nsw.gov.au/online/maps.cfm"/>
  </way>
  <way id="26177715" version="4" timestamp="2010-05-16T08:44:47Z" uid="4467" user="Rosscoe" changeset="4714375">
    <nd ref="736131519"/>
    <nd ref="286667638"/>
    <nd ref="286668610"/>
    <nd ref="285917872"/>
    <tag k="highway" v="residential"/>
    <tag k="maxspeed" v="50"/>
    <tag k="name" v="Bundeena Road"/>
    <tag k="oneway" v="yes"/>
  </way>
  <way id="26177733" version="11" timestamp="2010-02-14T08:12:30Z" uid="30201" user="rrankin" changeset="3870991">
    <nd ref="286670410"/>
    <nd ref="286633250"/>
    <nd ref="286633249"/>
    <nd ref="241807051"/>
    <nd ref="286633272"/>
    <nd ref="241807050"/>
    <nd ref="241807049"/>
    <nd ref="638910820"/>
    <nd ref="286668835"/>
    <nd ref="285920954"/>
    <nd ref="241807048"/>
    <nd ref="286669220"/>
    <nd ref="285920955"/>
    <tag k="highway" v="secondary"/>
    <tag k="maxspeed" v="70"/>
    <tag k="name" v="Wyong Road"/>
    <tag k="oneway" v="yes"/>
  </way>
  <way id="26177733" version="12" timestamp="2010-05-17T02:18:08Z" uid="4467" user="Rosscoe" changeset="4724799">
    <nd ref="286670410"/>
    <nd ref="286633250"/>
    <nd ref="286633249"/>
    <nd ref="241807051"/>
    <nd ref="286633272"/>
    <nd ref="737032319"/>
    <nd ref="241807050"/>
    <nd ref="737032300"/>
    <nd ref="241807049"/>
    <nd ref="737032334"/>
    <nd ref="638910820"/>
    <nd ref="737032308"/>
    <nd ref="286668835"/>
    <nd ref="286669220"/>
    <nd ref="285920955"/>
    <tag k="highway" v="secondary"/>
    <tag k="maxspeed" v="70"/>
    <tag k="name" v="Wyong Road"/>
    <tag k="oneway" v="yes"/>
    <tag k="source" v="nearmap"/>
  </way>
  <way id="26177733" version="13" timestamp="2010-10-08T12:25:21Z" uid="79475" user="AlexOnTheBus" changeset="5985602">
    <nd ref="286670410"/>
    <nd ref="286633250"/>
    <nd ref="286633249"/>
    <nd ref="241807051"/>
    <nd ref="286633272"/>
    <nd ref="737032319"/>
    <nd ref="241807050"/>
    <nd ref="737032300"/>
    <nd ref="241807049"/>
    <nd ref="737032334"/>
    <nd ref="638910820"/>
    <nd ref="737032308"/>
    <nd ref="286668835"/>
    <nd ref="286669220"/>
    <nd ref="285920955"/>
    <tag k="highway" v="primary"/>
    <tag k="maxspeed" v="70"/>
    <tag k="name" v="Wyong Road"/>
    <tag k="oneway" v="yes"/>
    <tag k="source" v="nearmap"/>
  </way>
  <way id="26177753" version="9" timestamp="2010-02-14T08:12:31Z" uid="30201" user="rrankin" changeset="3870991">
    <nd ref="286667788"/>
    <nd ref="286668043"/>
    <nd ref="286668153"/>
    <nd ref="286668045"/>
    <nd ref="286668213"/>
    <nd ref="286668047"/>
    <nd ref="286668010"/>
    <nd ref="286668011"/>
    <nd ref="286668012"/>
    <nd ref="286668013"/>
    <nd ref="286668014"/>
    <nd ref="286633193"/>
    <tag k="highway" v="secondary"/>
    <tag k="maxspeed" v="70"/>
    <tag k="name" v="Wyong Road"/>
    <tag k="oneway" v="yes"/>
  </way>
  <way id="26177753" version="10" timestamp="2010-05-17T02:18:04Z" uid="4467" user="Rosscoe" changeset="4724799">
    <nd ref="286667788"/>
    <nd ref="286668043"/>
    <nd ref="286668153"/>
    <nd ref="286668045"/>
    <nd ref="286668213"/>
    <nd ref="286668047"/>
    <nd ref="286668010"/>
    <nd ref="286668011"/>
    <nd ref="286668013"/>
    <nd ref="286633193"/>
    <tag k="highway" v="secondary"/>
    <tag k="maxspeed" v="70"/>
    <tag k="name" v="Wyong Road"/>
    <tag k="oneway" v="yes"/>
  </way>
  <way id="26177753" version="11" timestamp="2010-05-17T02:19:34Z" uid="4467" user="Rosscoe" changeset="4724808">
    <nd ref="286667788"/>
    <nd ref="286668043"/>
    <nd ref="286668153"/>
    <nd ref="286668045"/>
    <nd ref="286668213"/>
    <nd ref="286668047"/>
    <nd ref="286668010"/>
    <nd ref="286668011"/>
    <nd ref="286668013"/>
    <nd ref="286633193"/>
    <tag k="highway" v="secondary"/>
    <tag k="maxspeed" v="70"/>
    <tag k="name" v="Wyong Road"/>
    <tag k="oneway" v="yes"/>
    <tag k="source" v="nearmap"/>
  </way>
  <way id="26177753" version="12" timestamp="2010-10-08T12:24:52Z" uid="79475" user="AlexOnTheBus" changeset="5985602">
    <nd ref="286667788"/>
    <nd ref="286668043"/>
    <nd ref="286668153"/>
    <nd ref="286668045"/>
    <nd ref="286668213"/>
    <nd ref="286668047"/>
    <nd ref="286668010"/>
    <nd ref="286668011"/>
    <nd ref="286668013"/>
    <nd ref="286633193"/>
    <tag k="highway" v="primary"/>
    <tag k="maxspeed" v="70"/>
    <tag k="name" v="Wyong Road"/>
    <tag k="oneway" v="yes"/>
    <tag k="source" v="nearmap"/>
  </way>
  <way id="26177823" version="6" timestamp="2010-05-16T08:44:40Z" uid="4467" user="Rosscoe" changeset="4714375">
    <nd ref="285920955"/>
    <nd ref="286668584"/>
    <nd ref="286668603"/>
    <nd ref="286668604"/>
    <nd ref="286668605"/>
    <nd ref="286668606"/>
    <nd ref="286668607"/>
    <nd ref="286668590"/>
    <nd ref="286668591"/>
    <nd ref="286668592"/>
    <nd ref="286668593"/>
    <nd ref="286668594"/>
    <nd ref="286668739"/>
    <nd ref="286663244"/>
    <tag k="highway" v="secondary"/>
    <tag k="maxspeed" v="70"/>
    <tag k="name" v="Wyong Road"/>
    <tag k="oneway" v="yes"/>
  </way>
  <way id="26177823" version="7" timestamp="2010-05-17T02:18:06Z" uid="4467" user="Rosscoe" changeset="4724799">
    <nd ref="285920955"/>
    <nd ref="286668603"/>
    <nd ref="286668604"/>
    <nd ref="286668605"/>
    <nd ref="286668606"/>
    <nd ref="286668607"/>
    <nd ref="286668590"/>
    <nd ref="286668591"/>
    <nd ref="286668592"/>
    <nd ref="286668593"/>
    <nd ref="286668594"/>
    <nd ref="286668739"/>
    <nd ref="286663244"/>
    <tag k="highway" v="secondary"/>
    <tag k="maxspeed" v="70"/>
    <tag k="name" v="Wyong Road"/>
    <tag k="oneway" v="yes"/>
  </way>
  <way id="26177823" version="8" timestamp="2010-05-17T02:19:45Z" uid="4467" user="Rosscoe" changeset="4724808">
    <nd ref="285920955"/>
    <nd ref="286668603"/>
    <nd ref="286668604"/>
    <nd ref="286668605"/>
    <nd ref="286668606"/>
    <nd ref="286668607"/>
    <nd ref="286668590"/>
    <nd ref="286668591"/>
    <nd ref="286668594"/>
    <nd ref="286668739"/>
    <nd ref="286663244"/>
    <tag k="highway" v="secondary"/>
    <tag k="maxspeed" v="70"/>
    <tag k="name" v="Wyong Road"/>
    <tag k="oneway" v="yes"/>
    <tag k="source" v="nearmap"/>
  </way>
  <way id="26177823" version="9" timestamp="2010-10-08T12:24:54Z" uid="79475" user="AlexOnTheBus" changeset="5985602">
    <nd ref="285920955"/>
    <nd ref="286668603"/>
    <nd ref="286668604"/>
    <nd ref="286668605"/>
    <nd ref="286668606"/>
    <nd ref="286668607"/>
    <nd ref="286668590"/>
    <nd ref="286668591"/>
    <nd ref="286668594"/>
    <nd ref="286668739"/>
    <nd ref="286663244"/>
    <tag k="highway" v="primary"/>
    <tag k="maxspeed" v="70"/>
    <tag k="name" v="Wyong Road"/>
    <tag k="oneway" v="yes"/>
    <tag k="source" v="nearmap"/>
  </way>
  <way id="26177904" version="7" timestamp="2010-02-14T08:12:31Z" uid="30201" user="rrankin" changeset="3870991">
    <nd ref="285917109"/>
    <nd ref="286669026"/>
    <nd ref="285920955"/>
    <nd ref="286633193"/>
    <tag k="highway" v="tertiary"/>
    <tag k="maxspeed" v="50"/>
    <tag k="name" v="Berkeley Road"/>
    <tag k="oneway" v="yes"/>
  </way>
  <way id="26177904" version="8" timestamp="2010-05-17T02:18:07Z" uid="4467" user="Rosscoe" changeset="4724799">
    <nd ref="285917109"/>
    <nd ref="737032339"/>
    <nd ref="737032305"/>
    <nd ref="286669026"/>
    <nd ref="285920955"/>
    <nd ref="286633193"/>
    <tag k="highway" v="tertiary"/>
    <tag k="maxspeed" v="50"/>
    <tag k="name" v="Berkeley Road"/>
    <tag k="oneway" v="yes"/>
    <tag k="source" v="nearmap"/>
  </way>
  <way id="26177941" version="8" timestamp="2010-05-17T02:18:08Z" uid="4467" user="Rosscoe" changeset="4724799">
    <nd ref="286669295"/>
    <nd ref="286669220"/>
    <nd ref="286669223"/>
    <nd ref="737032296"/>
    <nd ref="285917109"/>
    <tag k="highway" v="tertiary"/>
    <tag k="maxspeed" v="50"/>
    <tag k="name" v="Berkeley Road"/>
    <tag k="oneway" v="yes"/>
    <tag k="source" v="nearmap"/>
  </way>
</osm>
