<?xml version='1.0' encoding='UTF-8'?>
<osm version="0.6" generator="libosmium/2.20.0">
  <way id="26224000" version="3" timestamp="2009-06-27T17:02:07Z" uid="33382" user="de_muur" changeset="1651693">
    <nd ref="287145169"/>
    <nd ref="287145170"/>
    <nd ref="429886671"/>
    <nd ref="300079336"/>
    <nd ref="287145171"/>
    <nd ref="300079328"/>
    <nd ref="300079326"/>
    <nd ref="300079331"/>
    <nd ref="287145172"/>
    <nd ref="429886670"/>
    <nd ref="300079333"/>
    <nd ref="287145169"/>
    <tag k="leisure" v="park"/>
    <tag k="name" v="Rosengarten"/>
  </way>
  <way id="26224000" version="4" timestamp="2010-01-19T17:09:49Z" uid="43972" user="chris66" changeset="3660246">
    <nd ref="287145169"/>
    <nd ref="287145170"/>
    <nd ref="429886671"/>
    <nd ref="300079336"/>
    <nd ref="287145171"/>
    <nd ref="300079328"/>
    <nd ref="300079326"/>
    <nd ref="300079331"/>
    <nd ref="429886670"/>
    <nd ref="300079333"/>
    <nd ref="287145169"/>
    <tag k="leisure" v="park"/>
    <tag k="name" v="Rosengarten"/>
  </way>
  <way id="26224000" version="5" timestamp="2011-06-20T11:05:03Z" uid="153031" user="ajoessen" changeset="8493224">
    <nd ref="287145169"/>
    <nd ref="287145170"/>
    <nd ref="429886671"/>
    <nd ref="300079336"/>
    <nd ref="287145171"/>
    <nd ref="300079328"/>
    <nd ref="300079326"/>
    <nd ref="300079331"/>
    <nd ref="429886670"/>
    <nd ref="1332155679"/>
    <nd ref="300079333"/>
    <nd ref="287145169"/>
    <tag k="leisure" v="park"/>
    <tag k="name" v="Rosengarten"/>
  </way>
  <way id="26224049" version="3" timestamp="2008-11-26T01:56:44Z" uid="6975" user="ulfl" changeset="794829">
    <nd ref="35417001"/>
    <nd ref="287145447"/>
    <nd ref="287145448"/>
    <nd ref="287145479"/>
    <nd ref="287145449"/>
    <nd ref="287145450"/>
    <tag k="highway" v="secondary"/>
    <tag k="layer" v="1"/>
    <tag k="name" v="Route de Meyrin"/>
    <tag k="nat_ref" v="101"/>
    <tag k="oneway" v="yes"/>
  </way>
  <way id="26224049" version="4" timestamp="2008-12-28T19:49:25Z" uid="58410" user="tlacuilo" changeset="651745">
    <nd ref="35417001"/>
    <nd ref="287145447"/>
    <nd ref="287145448"/>
    <nd ref="287145479"/>
    <nd ref="287145449"/>
    <nd ref="287145450"/>
    <tag k="created_by" v="Potlatch 0.10f"/>
    <tag k="highway" v="secondary"/>
    <tag k="layer" v="1"/>
    <tag k="name" v="Route de Meyrin"/>
    <tag k="nat_ref" v="101"/>
    <tag k="oneway" v="yes"/>
  </way>
  <way id="26224049" version="5" timestamp="2008-12-29T00:17:36Z" uid="74847" user="Marc Mongenet" changeset="656278">
    <nd ref="35417001"/>
    <nd ref="287145447"/>
    <nd ref="287145448"/>
    <nd ref="287145479"/>
    <nd ref="287145449"/>
    <nd ref="287145450"/>
    <tag k="created_by" v="Potlatch 0.10f"/>
    <tag k="highway" v="secondary"/>
    <tag k="name" v="Route de Meyrin"/>
    <tag k="nat_ref" v="101"/>
    <tag k="oneway" v="yes"/>
  </way>
  <way id="26224049" version="6" timestamp="2009-01-06T15:07:47Z" uid="58410" user="tlacuilo" changeset="744674">
    <nd ref="35417001"/>
    <nd ref="287145447"/>
    <nd ref="287145448"/>
    <nd ref="287145479"/>
    <nd ref="287145449"/>
    <nd ref="287145450"/>
    <tag k="created_by" v="Potlatch 0.10f"/>
    <tag k="highway" v="secondary"/>
    <tag k="name" v="Route de Meyrin"/>
    <tag k="nat_ref" v="101"/>
    <tag k="oneway" v="yes"/>
  </way>
  <way id="26224049" version="7" timestamp="2009-03-05T23:10:27Z" uid="74847" user="Marc Mongenet" changeset="744397"/>
  <way id="26224050" version="7" timestamp="2008-11-26T01:56:45Z" uid="6975" user="ulfl" changeset="794829">
    <nd ref="35417001"/>
    <nd ref="35417002"/>
    <nd ref="35417003"/>
    <nd ref="306577275"/>
    <nd ref="35417004"/>
    <nd ref="35417005"/>
    <nd ref="35417006"/>
    <nd ref="35417007"/>
    <nd ref="35423002"/>
    <tag k="highway" v="secondary"/>
    <tag k="layer" v="1"/>
    <tag k="name" v="Route de Meyrin"/>
    <tag k="nat_ref" v="101"/>
    <tag k="railway" v="tram"/>
  </way>
  <way id="26224050" version="8" timestamp="2008-12-22T14:55:32Z" uid="74847" user="Marc Mongenet" changeset="545697">
    <nd ref="35417001"/>
    <nd ref="306577275"/>
    <nd ref="35417004"/>
    <nd ref="35417005"/>
    <nd ref="35417006"/>
    <nd ref="35417007"/>
    <nd ref="35423002"/>
    <tag k="highway" v="secondary"/>
    <tag k="layer" v="1"/>
    <tag k="name" v="Route de Meyrin"/>
    <tag k="nat_ref" v="101"/>
    <tag k="railway" v="tram"/>
  </way>
  <way id="26224050" version="9" timestamp="2009-04-30T22:49:19Z" uid="74847" user="Marc Mongenet" changeset="1031636">
    <nd ref="35417001"/>
    <nd ref="306577275"/>
    <nd ref="35417004"/>
    <nd ref="35417005"/>
    <nd ref="35417006"/>
    <nd ref="35417007"/>
    <nd ref="35423002"/>
    <tag k="highway" v="secondary"/>
    <tag k="name" v="Route de Meyrin"/>
    <tag k="nat_ref" v="101"/>
    <tag k="railway" v="tram"/>
  </way>
  <way id="26224050" version="10" timestamp="2009-06-24T03:33:40Z" uid="82717" user="oliviers" changeset="1607557">
    <nd ref="35417001"/>
    <nd ref="306577275"/>
    <nd ref="428676751"/>
    <nd ref="35417004"/>
    <nd ref="35417005"/>
    <nd ref="35417006"/>
    <nd ref="35417007"/>
    <nd ref="35423002"/>
    <tag k="highway" v="secondary"/>
    <tag k="name" v="Route de Meyrin"/>
    <tag k="nat_ref" v="101"/>
    <tag k="railway" v="tram"/>
  </way>
  <way id="26224050" version="11" timestamp="2009-09-28T13:38:03Z" uid="178986" user="refbotCH" changeset="2664658">
    <nd ref="35417001"/>
    <nd ref="306577275"/>
    <nd ref="428676751"/>
    <nd ref="35417004"/>
    <nd ref="35417005"/>
    <nd ref="35417006"/>
    <nd ref="35417007"/>
    <nd ref="35423002"/>
    <tag k="highway" v="secondary"/>
    <tag k="name" v="Route de Meyrin"/>
    <tag k="railway" v="tram"/>
    <tag k="ref" v="101"/>
  </way>
  <way id="26224050" version="12" timestamp="2009-12-26T15:09:09Z" uid="211293" user="Bahnfahrer" changeset="3455404">
    <nd ref="35417001"/>
    <nd ref="599608088"/>
    <nd ref="306577275"/>
    <nd ref="428676751"/>
    <nd ref="35417004"/>
    <nd ref="35417005"/>
    <nd ref="35417006"/>
    <nd ref="35417007"/>
    <nd ref="35423002"/>
    <tag k="highway" v="secondary"/>
    <tag k="name" v="Route de Meyrin"/>
    <tag k="railway" v="tram"/>
    <tag k="ref" v="101"/>
  </way>
  <way id="26224050" version="13" timestamp="2009-12-28T22:16:43Z" uid="199791" user="bergamote" changeset="3476484">
    <nd ref="35417001"/>
    <nd ref="599608088"/>
    <nd ref="306577275"/>
    <nd ref="428676751"/>
    <nd ref="35417004"/>
    <nd ref="35417005"/>
    <nd ref="35417006"/>
    <nd ref="35417007"/>
    <nd ref="35423002"/>
    <tag k="highway" v="primary"/>
    <tag k="name" v="Route de Meyrin"/>
    <tag k="railway" v="tram"/>
    <tag k="ref" v="101"/>
  </way>
  <way id="26224050" version="14" timestamp="2010-03-03T10:09:31Z" uid="74847" user="Marc Mongenet" changeset="4023404">
    <nd ref="35417001"/>
    <nd ref="599608088"/>
    <nd ref="306577275"/>
    <nd ref="428676751"/>
    <nd ref="35417004"/>
    <nd ref="35417005"/>
    <nd ref="35417006"/>
    <nd ref="35417007"/>
    <nd ref="35423002"/>
    <tag k="highway" v="secondary"/>
    <tag k="name" v="Route de Meyrin"/>
    <tag k="railway" v="tram"/>
    <tag k="ref" v="101"/>
  </way>
  <way id="26224050" version="15" timestamp="2010-06-11T20:23:48Z" uid="300892" user="b_l" changeset="4965548">
    <nd ref="35417001"/>
    <nd ref="599608088"/>
    <nd ref="306577275"/>
    <nd ref="428676751"/>
    <nd ref="35417004"/>
    <nd ref="35417005"/>
    <nd ref="35417006"/>
    <nd ref="35417007"/>
    <nd ref="35423002"/>
    <tag k="highway" v="secondary"/>
    <tag k="name" v="Route de Meyrin"/>
    <tag k="railway" v="tram"/>
  </way>
  <way id="26224050" version="16" timestamp="2010-06-19T15:02:58Z" uid="300892" user="b_l" changeset="5024679">
    <nd ref="35417001"/>
    <nd ref="599608088"/>
    <nd ref="306577275"/>
    <nd ref="428676751"/>
    <nd ref="35417004"/>
    <nd ref="35417005"/>
    <nd ref="35417006"/>
    <nd ref="35417007"/>
    <nd ref="35423002"/>
    <nd ref="35423002"/>
    <tag k="highway" v="secondary"/>
    <tag k="name" v="Route de Meyrin"/>
    <tag k="railway" v="tram"/>
  </way>
  <way id="26224050" version="17" timestamp="2010-06-19T22:17:17Z" uid="70696" user="xybot" changeset="5026580">
    <nd ref="35417001"/>
    <nd ref="599608088"/>
    <nd ref="306577275"/>
    <nd ref="428676751"/>
    <nd ref="35417004"/>
    <nd ref="35417005"/>
    <nd ref="35417006"/>
    <nd ref="35417007"/>
    <nd ref="35423002"/>
    <tag k="highway" v="secondary"/>
    <tag k="name" v="Route de Meyrin"/>
    <tag k="railway" v="tram"/>
  </way>
  <way id="26224050" version="18" timestamp="2010-07-13T22:08:13Z" uid="300892" user="b_l" changeset="5212909">
    <nd ref="35417001"/>
    <nd ref="599608088"/>
    <nd ref="306577275"/>
    <nd ref="428676751"/>
    <nd ref="35417004"/>
    <nd ref="35417005"/>
    <nd ref="35417006"/>
    <nd ref="35417007"/>
    <nd ref="35423002"/>
    <tag k="highway" v="primary"/>
    <tag k="name" v="Route de Meyrin"/>
    <tag k="railway" v="tram"/>
  </way>
  <way id="26224050" version="19" timestamp="2010-08-12T10:26:58Z" uid="300892" user="b_l" changeset="5471818">
    <nd ref="35417001"/>
    <nd ref="856482881"/>
    <nd ref="856483314"/>
    <nd ref="599608088"/>
    <nd ref="306577275"/>
    <nd ref="428676751"/>
    <nd ref="35417004"/>
    <nd ref="35417005"/>
    <nd ref="35417006"/>
    <nd ref="35417007"/>
    <nd ref="35423002"/>
    <tag k="cycleway" v="lane"/>
    <tag k="highway" v="primary"/>
    <tag k="name" v="Route de Meyrin"/>
    <tag k="railway" v="tram"/>
  </way>
  <way id="26224050" version="20" timestamp="2010-09-08T21:12:09Z" uid="340523" user="nounours 6B" changeset="5728227">
    <nd ref="35417001"/>
    <nd ref="856482881"/>
    <nd ref="856483314"/>
    <nd ref="599608088"/>
    <nd ref="306577275"/>
    <nd ref="428676751"/>
    <nd ref="903572097"/>
    <nd ref="35417004"/>
    <nd ref="35417005"/>
    <nd ref="35417006"/>
    <nd ref="35417007"/>
    <nd ref="35423002"/>
    <tag k="cycleway" v="lane"/>
    <tag k="highway" v="primary"/>
    <tag k="name" v="Route de Meyrin"/>
    <tag k="railway" v="tram"/>
  </way>
  <way id="26224050" version="21" timestamp="2010-10-18T12:59:56Z" uid="120583" user="x-pab" changeset="6081829">
    <nd ref="35417001"/>
    <nd ref="856482881"/>
    <nd ref="856483314"/>
    <nd ref="599608088"/>
    <nd ref="306577275"/>
    <nd ref="955976402"/>
    <nd ref="428676751"/>
    <nd ref="903572097"/>
    <nd ref="35417004"/>
    <nd ref="35417005"/>
    <nd ref="955978736"/>
    <nd ref="35417006"/>
    <nd ref="35417007"/>
    <nd ref="35423002"/>
    <tag k="cycleway" v="lane"/>
    <tag k="highway" v="primary"/>
    <tag k="name" v="Route de Meyrin"/>
    <tag k="railway" v="tram"/>
  </way>
  <way id="26224050" version="22" timestamp="2010-10-26T20:30:46Z" uid="74847" user="Marc Mongenet" changeset="6186491">
    <nd ref="35417001"/>
    <nd ref="856482881"/>
    <nd ref="856483314"/>
    <nd ref="599608088"/>
    <nd ref="306577275"/>
    <nd ref="955976402"/>
    <nd ref="428676751"/>
    <nd ref="903572097"/>
    <nd ref="35417004"/>
    <nd ref="35417005"/>
    <nd ref="955978736"/>
    <nd ref="35417006"/>
    <nd ref="35417007"/>
    <nd ref="35423002"/>
    <tag k="cycleway" v="lane"/>
    <tag k="highway" v="secondary"/>
    <tag k="name" v="Route de Meyrin"/>
    <tag k="railway" v="tram"/>
    <tag k="ref" v="101"/>
  </way>
  <way id="26224050" version="23" timestamp="2010-10-30T18:55:40Z" uid="74847" user="Marc Mongenet" changeset="6232115">
    <nd ref="35417001"/>
    <nd ref="856482881"/>
    <nd ref="856483314"/>
    <nd ref="599608088"/>
    <nd ref="306577275"/>
    <nd ref="955976402"/>
    <nd ref="428676751"/>
    <nd ref="903572097"/>
    <nd ref="35417004"/>
    <nd ref="35417005"/>
    <nd ref="955978736"/>
    <nd ref="35417006"/>
    <nd ref="970927489"/>
    <nd ref="35417007"/>
    <nd ref="35423002"/>
    <tag k="cycleway" v="lane"/>
    <tag k="highway" v="secondary"/>
    <tag k="name" v="Route de Meyrin"/>
    <tag k="railway" v="tram"/>
    <tag k="ref" v="101"/>
  </way>
  <way id="26224050" version="24" timestamp="2011-02-11T21:36:17Z" uid="300892" user="b_l" changeset="7259505">
    <nd ref="35423002"/>
    <nd ref="35417007"/>
    <nd ref="970927489"/>
    <nd ref="35417006"/>
    <nd ref="955978736"/>
    <nd ref="35417005"/>
    <nd ref="35417004"/>
    <nd ref="903572097"/>
    <nd ref="428676751"/>
    <nd ref="955976402"/>
    <nd ref="306577275"/>
    <nd ref="599608088"/>
    <nd ref="856483314"/>
    <nd ref="856482881"/>
    <nd ref="35417001"/>
    <tag k="cycleway" v="lane"/>
    <tag k="highway" v="secondary"/>
    <tag k="name" v="Route de Meyrin"/>
    <tag k="railway" v="tram"/>
    <tag k="ref" v="101"/>
  </way>
  <way id="26224050" version="25" timestamp="2011-12-05T23:57:46Z" uid="42429" user="FK270673" changeset="10046584">
    <nd ref="35423002"/>
    <nd ref="35417007"/>
    <nd ref="970927489"/>
    <nd ref="35417006"/>
    <nd ref="955978736"/>
    <nd ref="35417005"/>
    <nd ref="35417004"/>
    <nd ref="903572097"/>
    <nd ref="428676751"/>
    <nd ref="955976402"/>
    <nd ref="306577275"/>
    <nd ref="599608088"/>
    <nd ref="856483314"/>
    <nd ref="856482881"/>
    <nd ref="35417001"/>
    <tag k="cycleway" v="lane"/>
    <tag k="electrified" v="contact_line"/>
    <tag k="frequency" v="0"/>
    <tag k="gauge" v="1000"/>
    <tag k="highway" v="secondary"/>
    <tag k="name" v="Route de Meyrin"/>
    <tag k="railway" v="tram"/>
    <tag k="ref" v="101"/>
    <tag k="voltage" v="600"/>
  </way>
  <way id="26224050" version="26" timestamp="2011-12-16T22:08:08Z" uid="300892" user="b_l" changeset="10134602">
    <nd ref="35423002"/>
    <nd ref="35417007"/>
    <nd ref="970927489"/>
    <nd ref="35417006"/>
    <nd ref="955978736"/>
    <nd ref="35417005"/>
    <nd ref="35417004"/>
    <nd ref="903572097"/>
    <nd ref="428676751"/>
    <nd ref="955976402"/>
    <nd ref="306577275"/>
    <nd ref="599608088"/>
    <nd ref="856483314"/>
    <nd ref="856482881"/>
    <nd ref="35417001"/>
    <tag k="cycleway" v="lane"/>
    <tag k="highway" v="secondary"/>
    <tag k="name" v="Route de Meyrin"/>
  </way>
  <way id="26224051" version="13" timestamp="2008-11-26T01:56:46Z" uid="6975" user="ulfl" changeset="794829">
    <nd ref="266560377"/>
    <nd ref="301266386"/>
    <nd ref="301267154"/>
    <nd ref="301267287"/>
    <tag k="highway" v="secondary"/>
    <tag k="name" v="Route de Meyrin"/>
    <tag k="nat_ref" v="101"/>
  </way>
  <way id="26224051" version="14" timestamp="2009-06-27T11:57:20Z" uid="30891" user="wiso" changeset="1649325">
    <nd ref="266560377"/>
    <nd ref="301266386"/>
    <nd ref="301267154"/>
    <tag k="highway" v="secondary"/>
    <tag k="name" v="Route de Meyrin"/>
    <tag k="nat_ref" v="101"/>
  </way>
  <way id="26224051" version="15" timestamp="2009-09-28T13:38:04Z" uid="178986" user="refbotCH" changeset="2664658">
    <nd ref="266560377"/>
    <nd ref="301266386"/>
    <nd ref="301267154"/>
    <tag k="highway" v="secondary"/>
    <tag k="name" v="Route de Meyrin"/>
    <tag k="ref" v="101"/>
  </way>
  <way id="26224051" version="16" timestamp="2009-12-28T22:16:30Z" uid="199791" user="bergamote" changeset="3476484">
    <nd ref="266560377"/>
    <nd ref="301266386"/>
    <nd ref="301267154"/>
    <tag k="highway" v="primary"/>
    <tag k="name" v="Route de Meyrin"/>
    <tag k="ref" v="101"/>
  </way>
  <way id="26224051" version="17" timestamp="2010-01-27T21:32:14Z" uid="199791" user="bergamote" changeset="3731792">
    <nd ref="266560377"/>
    <nd ref="301266386"/>
    <tag k="highway" v="primary"/>
    <tag k="name" v="Route de Meyrin"/>
    <tag k="ref" v="101"/>
  </way>
  <way id="26224051" version="18" timestamp="2010-06-11T20:23:38Z" uid="300892" user="b_l" changeset="4965548">
    <nd ref="266560377"/>
    <nd ref="301266386"/>
    <tag k="highway" v="primary"/>
    <tag k="name" v="Route de Meyrin"/>
  </way>
  <way id="26224051" version="19" timestamp="2010-10-26T19:05:30Z" uid="74847" user="Marc Mongenet" changeset="6185533">
    <nd ref="266560377"/>
    <nd ref="301266386"/>
    <tag k="highway" v="primary"/>
    <tag k="name" v="Route de Meyrin"/>
    <tag k="ref" v="101"/>
  </way>
  <way id="26224051" version="20" timestamp="2011-04-30T06:53:51Z" uid="300892" user="b_l" changeset="8009029">
    <nd ref="266560377"/>
    <nd ref="301266386"/>
    <tag k="highway" v="primary"/>
    <tag k="name" v="Route de Meyrin"/>
    <tag k="railway" v="tram"/>
    <tag k="ref" v="101"/>
  </way>
  <way id="26224051" version="21" timestamp="2011-12-05T23:57:49Z" uid="42429" user="FK270673" changeset="10046584">
    <nd ref="266560377"/>
    <nd ref="301266386"/>
    <tag k="electrified" v="contact_line"/>
    <tag k="frequency" v="0"/>
    <tag k="gauge" v="1000"/>
    <tag k="highway" v="primary"/>
    <tag k="name" v="Route de Meyrin"/>
    <tag k="railway" v="tram"/>
    <tag k="ref" v="101"/>
    <tag k="voltage" v="600"/>
  </way>
  <way id="26224051" version="22" timestamp="2011-12-17T11:52:15Z" uid="300892" user="b_l" changeset="10137718">
    <nd ref="266560377"/>
    <nd ref="301266386"/>
    <tag k="highway" v="primary"/>
    <tag k="name" v="Route de Meyrin"/>
    <tag k="ref" v="101"/>
  </way>
  <way id="26224057" version="3" timestamp="2008-11-26T01:56:22Z" uid="6975" user="ulfl" changeset="794829">
    <nd ref="25578622"/>
    <nd ref="25578606"/>
    <nd ref="35416998"/>
    <nd ref="287145444"/>
    <nd ref="35416999"/>
    <nd ref="35417000"/>
    <nd ref="35417001"/>
    <tag k="highway" v="secondary"/>
    <tag k="layer" v="1"/>
    <tag k="name" v="Route de Meyrin"/>
    <tag k="nat_ref" v="101"/>
    <tag k="oneway" v="yes"/>
  </way>
  <way id="26224057" version="4" timestamp="2008-12-28T19:50:28Z" uid="58410" user="tlacuilo" changeset="651745">
    <nd ref="25578622"/>
    <nd ref="25578606"/>
    <nd ref="35416998"/>
    <nd ref="287145444"/>
    <nd ref="35416999"/>
    <nd ref="35417000"/>
    <nd ref="35417001"/>
    <tag k="created_by" v="Potlatch 0.10f"/>
    <tag k="highway" v="secondary"/>
    <tag k="layer" v="1"/>
    <tag k="name" v="Route de Meyrin"/>
    <tag k="nat_ref" v="101"/>
    <tag k="oneway" v="yes"/>
  </way>
  <way id="26224057" version="5" timestamp="2008-12-29T00:17:46Z" uid="74847" user="Marc Mongenet" changeset="656278">
    <nd ref="25578622"/>
    <nd ref="25578606"/>
    <nd ref="35416998"/>
    <nd ref="287145444"/>
    <nd ref="35416999"/>
    <nd ref="35417000"/>
    <nd ref="35417001"/>
    <tag k="created_by" v="Potlatch 0.10f"/>
    <tag k="highway" v="secondary"/>
    <tag k="name" v="Route de Meyrin"/>
    <tag k="nat_ref" v="101"/>
    <tag k="oneway" v="yes"/>
  </way>
  <way id="26224057" version="6" timestamp="2009-01-12T13:35:59Z" uid="91210" user="ziyah" changeset="781300">
    <nd ref="25578622"/>
    <nd ref="25578606"/>
    <nd ref="35416998"/>
    <nd ref="287145444"/>
    <nd ref="35416999"/>
    <nd ref="35417000"/>
    <nd ref="331454317"/>
    <nd ref="35417001"/>
    <tag k="created_by" v="Potlatch 0.10f"/>
    <tag k="highway" v="secondary"/>
    <tag k="name" v="Route de Meyrin"/>
    <tag k="nat_ref" v="101"/>
    <tag k="oneway" v="yes"/>
  </way>
  <way id="26224057" version="7" timestamp="2009-02-27T23:49:21Z" uid="74847" user="Marc Mongenet" changeset="695491">
    <nd ref="25578622"/>
    <nd ref="25578606"/>
    <nd ref="35416998"/>
    <nd ref="287145444"/>
    <nd ref="35417000"/>
    <nd ref="331454317"/>
    <nd ref="35417001"/>
    <tag k="created_by" v="Potlatch 0.10f"/>
    <tag k="highway" v="secondary"/>
    <tag k="name" v="Route de Meyrin"/>
    <tag k="nat_ref" v="101"/>
    <tag k="oneway" v="yes"/>
  </way>
  <way id="26224057" version="8" timestamp="2009-03-05T23:10:26Z" uid="74847" user="Marc Mongenet" changeset="744397">
    <nd ref="356062757"/>
    <nd ref="25578622"/>
    <nd ref="25578606"/>
    <nd ref="356062756"/>
    <nd ref="35416998"/>
    <nd ref="287145444"/>
    <nd ref="35417000"/>
    <nd ref="331454317"/>
    <nd ref="35417001"/>
    <tag k="created_by" v="Potlatch 0.10f"/>
    <tag k="highway" v="secondary"/>
    <tag k="name" v="Route de Meyrin"/>
    <tag k="nat_ref" v="101"/>
    <tag k="oneway" v="yes"/>
  </way>
  <way id="26224057" version="9" timestamp="2009-04-02T22:24:32Z" uid="74847" user="Marc Mongenet" changeset="142158">
    <nd ref="356062757"/>
    <nd ref="25578622"/>
    <nd ref="25578606"/>
    <nd ref="356062756"/>
    <nd ref="35416998"/>
    <nd ref="287145444"/>
    <nd ref="35417000"/>
    <nd ref="369108963"/>
    <nd ref="331454317"/>
    <nd ref="35417001"/>
    <tag k="created_by" v="Potlatch 0.10f"/>
    <tag k="highway" v="secondary"/>
    <tag k="name" v="Route de Meyrin"/>
    <tag k="nat_ref" v="101"/>
    <tag k="oneway" v="yes"/>
  </way>
  <way id="26224057" version="10" timestamp="2009-04-10T00:41:27Z" uid="74847" user="Marc Mongenet" changeset="372050">
    <nd ref="356062757"/>
    <nd ref="371261260"/>
    <nd ref="25578622"/>
    <nd ref="25578606"/>
    <nd ref="356062756"/>
    <nd ref="371261261"/>
    <nd ref="371261262"/>
    <nd ref="35416998"/>
    <nd ref="371261263"/>
    <tag k="created_by" v="Potlatch 0.10f"/>
    <tag k="highway" v="secondary"/>
    <tag k="name" v="Route de Meyrin"/>
    <tag k="nat_ref" v="101"/>
    <tag k="oneway" v="yes"/>
  </way>
  <way id="26224057" version="11" timestamp="2009-06-19T07:01:55Z" uid="30891" user="wiso" changeset="1561671">
    <nd ref="356062757"/>
    <nd ref="371261260"/>
    <nd ref="25578622"/>
    <nd ref="25578606"/>
    <tag k="created_by" v="Potlatch 0.10f"/>
    <tag k="highway" v="secondary"/>
    <tag k="name" v="Route de Meyrin"/>
    <tag k="nat_ref" v="101"/>
    <tag k="oneway" v="yes"/>
  </way>
  <way id="26224057" version="12" timestamp="2009-09-28T13:38:04Z" uid="178986" user="refbotCH" changeset="2664658">
    <nd ref="356062757"/>
    <nd ref="371261260"/>
    <nd ref="25578622"/>
    <nd ref="25578606"/>
    <tag k="highway" v="secondary"/>
    <tag k="name" v="Route de Meyrin"/>
    <tag k="oneway" v="yes"/>
    <tag k="ref" v="101"/>
  </way>
  <way id="26224057" version="13" timestamp="2009-12-26T14:02:44Z" uid="211293" user="Bahnfahrer" changeset="3454590">
    <nd ref="356062757"/>
    <nd ref="371261260"/>
    <nd ref="25578622"/>
    <nd ref="25578606"/>
    <tag k="highway" v="secondary"/>
    <tag k="lanes" v="2"/>
    <tag k="name" v="Route de Meyrin"/>
    <tag k="oneway" v="yes"/>
    <tag k="ref" v="101"/>
  </way>
  <way id="26224057" version="14" timestamp="2009-12-28T22:16:39Z" uid="199791" user="bergamote" changeset="3476484">
    <nd ref="356062757"/>
    <nd ref="371261260"/>
    <nd ref="25578622"/>
    <nd ref="25578606"/>
    <tag k="highway" v="primary"/>
    <tag k="lanes" v="2"/>
    <tag k="name" v="Route de Meyrin"/>
    <tag k="oneway" v="yes"/>
    <tag k="ref" v="101"/>
  </way>
  <way id="26224057" version="15" timestamp="2010-09-02T21:57:24Z" uid="74847" user="Marc Mongenet" changeset="5666523">
    <nd ref="356062757"/>
    <nd ref="25578622"/>
    <nd ref="25578606"/>
    <tag k="highway" v="primary"/>
    <tag k="lanes" v="2"/>
    <tag k="name" v="Route de Meyrin"/>
    <tag k="oneway" v="yes"/>
    <tag k="ref" v="101"/>
  </way>
  <way id="26224057" version="16" timestamp="2010-09-15T13:04:19Z" uid="300892" user="b_l" changeset="5787013">
    <nd ref="356062757"/>
    <nd ref="25578622"/>
    <nd ref="25578606"/>
    <tag k="highway" v="primary"/>
    <tag k="lanes" v="2"/>
    <tag k="name" v="Route de Meyrin"/>
    <tag k="oneway" v="yes"/>
  </way>
  <way id="26224057" version="17" timestamp="2010-10-26T20:30:28Z" uid="74847" user="Marc Mongenet" changeset="6186491">
    <nd ref="356062757"/>
    <nd ref="25578622"/>
    <nd ref="25578606"/>
    <tag k="highway" v="primary"/>
    <tag k="lanes" v="2"/>
    <tag k="name" v="Route de Meyrin"/>
    <tag k="oneway" v="yes"/>
    <tag k="ref" v="101"/>
  </way>
  <way id="26224057" version="18" timestamp="2012-01-20T22:34:20Z" uid="178186" user="mdk" changeset="10451153"/>
  <way id="26224059" version="3" timestamp="2008-11-26T01:56:28Z" uid="6975" user="ulfl" changeset="794829">
    <nd ref="287145451"/>
    <nd ref="287145452"/>
    <tag k="bridge" v="yes"/>
    <tag k="highway" v="secondary"/>
    <tag k="layer" v="2"/>
    <tag k="name" v="Route de Meyrin"/>
    <tag k="nat_ref" v="101"/>
    <tag k="oneway" v="yes"/>
  </way>
  <way id="26224059" version="4" timestamp="2009-09-28T13:38:05Z" uid="178986" user="refbotCH" changeset="2664658">
    <nd ref="287145451"/>
    <nd ref="287145452"/>
    <tag k="bridge" v="yes"/>
    <tag k="highway" v="secondary"/>
    <tag k="layer" v="2"/>
    <tag k="name" v="Route de Meyrin"/>
    <tag k="oneway" v="yes"/>
    <tag k="ref" v="101"/>
  </way>
  <way id="26224059" version="5" timestamp="2009-12-28T22:16:38Z" uid="199791" user="bergamote" changeset="3476484">
    <nd ref="287145451"/>
    <nd ref="287145452"/>
    <tag k="bridge" v="yes"/>
    <tag k="highway" v="primary"/>
    <tag k="layer" v="2"/>
    <tag k="name" v="Route de Meyrin"/>
    <tag k="oneway" v="yes"/>
    <tag k="ref" v="101"/>
  </way>
  <way id="26224059" version="6" timestamp="2010-06-11T20:23:46Z" uid="300892" user="b_l" changeset="4965548">
    <nd ref="287145451"/>
    <nd ref="287145452"/>
    <tag k="bridge" v="yes"/>
    <tag k="highway" v="primary"/>
    <tag k="layer" v="2"/>
    <tag k="name" v="Route de Meyrin"/>
    <tag k="oneway" v="yes"/>
  </way>
  <way id="26224059" version="7" timestamp="2010-09-02T23:04:15Z" uid="74847" user="Marc Mongenet" changeset="5666831">
    <nd ref="287145451"/>
    <nd ref="287145452"/>
    <tag k="bridge" v="yes"/>
    <tag k="highway" v="primary"/>
    <tag k="layer" v="2"/>
    <tag k="name" v="Route de Meyrin"/>
    <tag k="oneway" v="yes"/>
  </way>
  <way id="26224060" version="3" timestamp="2008-11-26T01:56:33Z" uid="6975" user="ulfl" changeset="794829">
    <nd ref="287145452"/>
    <nd ref="287145453"/>
    <nd ref="287145454"/>
    <tag k="highway" v="secondary"/>
    <tag k="layer" v="1"/>
    <tag k="name" v="Route de Meyrin"/>
    <tag k="nat_ref" v="101"/>
    <tag k="oneway" v="yes"/>
  </way>
  <way id="26224060" version="4" timestamp="2008-12-29T00:17:48Z" uid="74847" user="Marc Mongenet" changeset="656278">
    <nd ref="287145452"/>
    <nd ref="287145453"/>
    <nd ref="287145454"/>
    <tag k="highway" v="secondary"/>
    <tag k="name" v="Route de Meyrin"/>
    <tag k="nat_ref" v="101"/>
    <tag k="oneway" v="yes"/>
  </way>
  <way id="26224060" version="5" timestamp="2009-09-28T13:38:05Z" uid="178986" user="refbotCH" changeset="2664658">
    <nd ref="287145452"/>
    <nd ref="287145453"/>
    <nd ref="287145454"/>
    <tag k="highway" v="secondary"/>
    <tag k="name" v="Route de Meyrin"/>
    <tag k="oneway" v="yes"/>
    <tag k="ref" v="101"/>
  </way>
  <way id="26224060" version="6" timestamp="2009-12-28T22:16:37Z" uid="199791" user="bergamote" changeset="3476484">
    <nd ref="287145452"/>
    <nd ref="287145453"/>
    <nd ref="287145454"/>
    <tag k="highway" v="primary"/>
    <tag k="name" v="Route de Meyrin"/>
    <tag k="oneway" v="yes"/>
    <tag k="ref" v="101"/>
  </way>
  <way id="26224060" version="7" timestamp="2010-06-11T20:23:41Z" uid="300892" user="b_l" changeset="4965548">
    <nd ref="287145452"/>
    <nd ref="287145453"/>
    <nd ref="287145454"/>
    <tag k="highway" v="primary"/>
    <tag k="name" v="Route de Meyrin"/>
    <tag k="oneway" v="yes"/>
  </way>
  <way id="26224060" version="8" timestamp="2012-01-20T22:34:21Z" uid="178186" user="mdk" changeset="10451153"/>
  <way id="26224061" version="3" timestamp="2008-11-26T01:56:34Z" uid="6975" user="ulfl" changeset="794829">
    <nd ref="266566347"/>
    <nd ref="262882139"/>
    <nd ref="287145480"/>
    <tag k="bridge" v="yes"/>
    <tag k="highway" v="secondary"/>
    <tag k="layer" v="2"/>
    <tag k="name" v="Route de Meyrin"/>
    <tag k="nat_ref" v="101"/>
    <tag k="oneway" v="yes"/>
  </way>
  <way id="26224061" version="4" timestamp="2009-01-06T15:16:25Z" uid="58410" user="tlacuilo" changeset="744674">
    <nd ref="266566347"/>
    <nd ref="262882139"/>
    <nd ref="287145480"/>
    <tag k="bridge" v="yes"/>
    <tag k="created_by" v="Potlatch 0.10f"/>
    <tag k="highway" v="secondary"/>
    <tag k="layer" v="2"/>
    <tag k="name" v="Route de Meyrin"/>
    <tag k="nat_ref" v="101"/>
    <tag k="oneway" v="yes"/>
  </way>
  <way id="26224061" version="5" timestamp="2009-09-28T13:38:06Z" uid="178986" user="refbotCH" changeset="2664658">
    <nd ref="266566347"/>
    <nd ref="262882139"/>
    <nd ref="287145480"/>
    <tag k="bridge" v="yes"/>
    <tag k="highway" v="secondary"/>
    <tag k="layer" v="2"/>
    <tag k="name" v="Route de Meyrin"/>
    <tag k="oneway" v="yes"/>
    <tag k="ref" v="101"/>
  </way>
  <way id="26224061" version="6" timestamp="2009-12-28T22:16:38Z" uid="199791" user="bergamote" changeset="3476484">
    <nd ref="266566347"/>
    <nd ref="262882139"/>
    <nd ref="287145480"/>
    <tag k="bridge" v="yes"/>
    <tag k="highway" v="primary"/>
    <tag k="layer" v="2"/>
    <tag k="name" v="Route de Meyrin"/>
    <tag k="oneway" v="yes"/>
    <tag k="ref" v="101"/>
  </way>
  <way id="26224061" version="7" timestamp="2010-02-08T20:30:47Z" uid="231242" user="Philippe Tarbouriech" changeset="3826558">
    <nd ref="266566347"/>
    <nd ref="633582507"/>
    <nd ref="633582338"/>
    <nd ref="262882139"/>
    <nd ref="287145480"/>
    <tag k="bridge" v="yes"/>
    <tag k="highway" v="primary"/>
    <tag k="layer" v="2"/>
    <tag k="name" v="Route de Meyrin"/>
    <tag k="oneway" v="yes"/>
    <tag k="ref" v="101"/>
  </way>
  <way id="26224061" version="8" timestamp="2010-06-11T20:23:46Z" uid="300892" user="b_l" changeset="4965548">
    <nd ref="266566347"/>
    <nd ref="633582507"/>
    <nd ref="633582338"/>
    <nd ref="262882139"/>
    <nd ref="287145480"/>
    <tag k="bridge" v="yes"/>
    <tag k="highway" v="primary"/>
    <tag k="layer" v="2"/>
    <tag k="name" v="Route de Meyrin"/>
    <tag k="oneway" v="yes"/>
  </way>
  <way id="26224061" version="9" timestamp="2012-01-20T22:34:19Z" uid="178186" user="mdk" changeset="10451153"/>
  <way id="26224063" version="4" timestamp="2008-11-26T01:56:39Z" uid="6975" user="ulfl" changeset="794829">
    <nd ref="287145480"/>
    <nd ref="298481961"/>
    <nd ref="287145506"/>
    <tag k="highway" v="secondary"/>
    <tag k="layer" v="1"/>
    <tag k="name" v="Route de Meyrin"/>
    <tag k="nat_ref" v="101"/>
    <tag k="oneway" v="yes"/>
  </way>
  <way id="26224063" version="6" timestamp="2008-12-29T00:17:39Z" uid="74847" user="Marc Mongenet" changeset="656278">
    <nd ref="287145480"/>
    <nd ref="298481961"/>
    <nd ref="315130875"/>
    <nd ref="287145506"/>
    <tag k="highway" v="secondary"/>
    <tag k="name" v="Route de Meyrin"/>
    <tag k="nat_ref" v="101"/>
    <tag k="oneway" v="yes"/>
  </way>
  <way id="26224063" version="7" timestamp="2009-09-28T13:38:06Z" uid="178986" user="refbotCH" changeset="2664658">
    <nd ref="287145480"/>
    <nd ref="298481961"/>
    <nd ref="315130875"/>
    <nd ref="287145506"/>
    <tag k="highway" v="secondary"/>
    <tag k="name" v="Route de Meyrin"/>
    <tag k="oneway" v="yes"/>
    <tag k="ref" v="101"/>
  </way>
  <way id="26224063" version="8" timestamp="2009-12-26T14:02:46Z" uid="211293" user="Bahnfahrer" changeset="3454590">
    <nd ref="287145480"/>
    <nd ref="298481961"/>
    <nd ref="315130875"/>
    <nd ref="287145506"/>
    <tag k="highway" v="secondary"/>
    <tag k="lanes" v="2"/>
    <tag k="name" v="Route de Meyrin"/>
    <tag k="oneway" v="yes"/>
    <tag k="ref" v="101"/>
  </way>
  <way id="26224063" version="9" timestamp="2009-12-28T22:16:39Z" uid="199791" user="bergamote" changeset="3476484">
    <nd ref="287145480"/>
    <nd ref="298481961"/>
    <nd ref="315130875"/>
    <nd ref="287145506"/>
    <tag k="highway" v="primary"/>
    <tag k="lanes" v="2"/>
    <tag k="name" v="Route de Meyrin"/>
    <tag k="oneway" v="yes"/>
    <tag k="ref" v="101"/>
  </way>
  <way id="26224063" version="10" timestamp="2010-06-11T20:23:44Z" uid="300892" user="b_l" changeset="4965548">
    <nd ref="287145480"/>
    <nd ref="298481961"/>
    <nd ref="315130875"/>
    <nd ref="287145506"/>
    <tag k="highway" v="primary"/>
    <tag k="lanes" v="2"/>
    <tag k="name" v="Route de Meyrin"/>
    <tag k="oneway" v="yes"/>
  </way>
  <way id="26224063" version="11" timestamp="2012-01-20T22:34:19Z" uid="178186" user="mdk" changeset="10451153"/>
  <way id="26224070" version="3" timestamp="2008-11-26T01:59:09Z" uid="6975" user="ulfl" changeset="794829">
    <nd ref="287145450"/>
    <nd ref="287145505"/>
    <tag k="bridge" v="yes"/>
    <tag k="highway" v="secondary"/>
    <tag k="layer" v="1"/>
    <tag k="name" v="Route de Meyrin"/>
    <tag k="nat_ref" v="101"/>
    <tag k="oneway" v="yes"/>
  </way>
  <way id="26224070" version="4" timestamp="2009-01-06T15:08:33Z" uid="58410" user="tlacuilo" changeset="744674">
    <nd ref="287145450"/>
    <nd ref="287145505"/>
    <tag k="bridge" v="yes"/>
    <tag k="created_by" v="Potlatch 0.10f"/>
    <tag k="highway" v="secondary"/>
    <tag k="layer" v="1"/>
    <tag k="name" v="Route de Meyrin"/>
    <tag k="nat_ref" v="101"/>
    <tag k="oneway" v="yes"/>
  </way>
  <way id="26224070" version="5" timestamp="2009-03-05T23:10:26Z" uid="74847" user="Marc Mongenet" changeset="744397">
    <nd ref="35417001"/>
    <nd ref="287145447"/>
    <nd ref="287145448"/>
    <nd ref="287145479"/>
    <nd ref="287145449"/>
    <nd ref="287145450"/>
    <nd ref="356062758"/>
    <tag k="created_by" v="Potlatch 0.10f"/>
    <tag k="highway" v="secondary"/>
    <tag k="name" v="Route de Meyrin"/>
    <tag k="nat_ref" v="101"/>
    <tag k="oneway" v="yes"/>
  </way>
  <way id="26224070" version="6" timestamp="2009-03-24T21:34:53Z" uid="74847" user="Marc Mongenet" changeset="857354">
    <nd ref="35417001"/>
    <nd ref="287145447"/>
    <nd ref="287145448"/>
    <nd ref="287145479"/>
    <nd ref="287145449"/>
    <nd ref="365404378"/>
    <nd ref="287145450"/>
    <nd ref="356062758"/>
    <tag k="created_by" v="Potlatch 0.10f"/>
    <tag k="highway" v="secondary"/>
    <tag k="name" v="Route de Meyrin"/>
    <tag k="nat_ref" v="101"/>
    <tag k="oneway" v="yes"/>
  </way>
  <way id="26224070" version="7" timestamp="2009-03-24T21:40:55Z" uid="74847" user="Marc Mongenet" changeset="857354">
    <nd ref="35417001"/>
    <nd ref="287145447"/>
    <nd ref="287145448"/>
    <nd ref="287145479"/>
    <nd ref="287145449"/>
    <nd ref="365404378"/>
    <nd ref="365407300"/>
    <nd ref="356062758"/>
    <tag k="created_by" v="Potlatch 0.10f"/>
    <tag k="highway" v="secondary"/>
    <tag k="name" v="Route de Meyrin"/>
    <tag k="nat_ref" v="101"/>
    <tag k="oneway" v="yes"/>
  </way>
  <way id="26224070" version="8" timestamp="2009-04-02T22:24:31Z" uid="74847" user="Marc Mongenet" changeset="142158">
    <nd ref="35417001"/>
    <nd ref="369108962"/>
    <nd ref="287145447"/>
    <nd ref="369108965"/>
    <nd ref="369108964"/>
    <nd ref="369108966"/>
    <nd ref="287145448"/>
    <nd ref="287145479"/>
    <nd ref="287145449"/>
    <nd ref="365404378"/>
    <nd ref="365407300"/>
    <nd ref="356062758"/>
    <tag k="created_by" v="Potlatch 0.10f"/>
    <tag k="highway" v="secondary"/>
    <tag k="name" v="Route de Meyrin"/>
    <tag k="nat_ref" v="101"/>
    <tag k="oneway" v="yes"/>
  </way>
  <way id="26224070" version="9" timestamp="2009-04-10T00:41:32Z" uid="74847" user="Marc Mongenet" changeset="372050"/>
  <way id="26224071" version="3" timestamp="2008-11-26T01:59:07Z" uid="6975" user="ulfl" changeset="794829">
    <nd ref="287145505"/>
    <nd ref="287145504"/>
    <nd ref="287145481"/>
    <nd ref="287145451"/>
    <tag k="highway" v="secondary"/>
    <tag k="layer" v="1"/>
    <tag k="name" v="Route de Meyrin"/>
    <tag k="nat_ref" v="101"/>
    <tag k="oneway" v="yes"/>
  </way>
  <way id="26224071" version="4" timestamp="2008-12-29T00:17:43Z" uid="74847" user="Marc Mongenet" changeset="656278">
    <nd ref="287145505"/>
    <nd ref="287145504"/>
    <nd ref="287145481"/>
    <nd ref="287145451"/>
    <tag k="highway" v="secondary"/>
    <tag k="name" v="Route de Meyrin"/>
    <tag k="nat_ref" v="101"/>
    <tag k="oneway" v="yes"/>
  </way>
  <way id="26224071" version="5" timestamp="2009-01-06T15:08:27Z" uid="58410" user="tlacuilo" changeset="744674">
    <nd ref="287145505"/>
    <nd ref="287145504"/>
    <nd ref="287145481"/>
    <nd ref="287145451"/>
    <tag k="created_by" v="Potlatch 0.10f"/>
    <tag k="highway" v="secondary"/>
    <tag k="name" v="Route de Meyrin"/>
    <tag k="nat_ref" v="101"/>
    <tag k="oneway" v="yes"/>
  </way>
  <way id="26224071" version="6" timestamp="2009-01-06T15:08:44Z" uid="58410" user="tlacuilo" changeset="744674">
    <nd ref="287145505"/>
    <nd ref="287145504"/>
    <nd ref="287145481"/>
    <nd ref="287145451"/>
    <tag k="created_by" v="Potlatch 0.10f"/>
    <tag k="highway" v="secondary"/>
    <tag k="name" v="Route de Meyrin"/>
    <tag k="nat_ref" v="101"/>
    <tag k="oneway" v="yes"/>
  </way>
  <way id="26224071" version="7" timestamp="2009-04-08T22:02:13Z" uid="74847" user="Marc Mongenet" changeset="357542">
    <nd ref="370945737"/>
    <nd ref="370945739"/>
    <nd ref="287145504"/>
    <nd ref="287145481"/>
    <nd ref="287145451"/>
    <tag k="created_by" v="Potlatch 0.10f"/>
    <tag k="highway" v="secondary"/>
    <tag k="name" v="Route de Meyrin"/>
    <tag k="nat_ref" v="101"/>
    <tag k="oneway" v="yes"/>
  </way>
  <way id="26224071" version="8" timestamp="2009-09-28T13:38:07Z" uid="178986" user="refbotCH" changeset="2664658">
    <nd ref="370945737"/>
    <nd ref="370945739"/>
    <nd ref="287145504"/>
    <nd ref="287145481"/>
    <nd ref="287145451"/>
    <tag k="highway" v="secondary"/>
    <tag k="name" v="Route de Meyrin"/>
    <tag k="oneway" v="yes"/>
    <tag k="ref" v="101"/>
  </way>
  <way id="26224071" version="9" timestamp="2009-12-26T14:02:45Z" uid="211293" user="Bahnfahrer" changeset="3454590">
    <nd ref="370945737"/>
    <nd ref="370945739"/>
    <nd ref="287145504"/>
    <nd ref="287145481"/>
    <nd ref="287145451"/>
    <tag k="highway" v="secondary"/>
    <tag k="lanes" v="2"/>
    <tag k="name" v="Route de Meyrin"/>
    <tag k="oneway" v="yes"/>
    <tag k="ref" v="101"/>
  </way>
  <way id="26224071" version="10" timestamp="2009-12-28T22:16:39Z" uid="199791" user="bergamote" changeset="3476484">
    <nd ref="370945737"/>
    <nd ref="370945739"/>
    <nd ref="287145504"/>
    <nd ref="287145481"/>
    <nd ref="287145451"/>
    <tag k="highway" v="primary"/>
    <tag k="lanes" v="2"/>
    <tag k="name" v="Route de Meyrin"/>
    <tag k="oneway" v="yes"/>
    <tag k="ref" v="101"/>
  </way>
  <way id="26224071" version="11" timestamp="2010-06-11T20:23:46Z" uid="300892" user="b_l" changeset="4965548">
    <nd ref="370945737"/>
    <nd ref="370945739"/>
    <nd ref="287145504"/>
    <nd ref="287145481"/>
    <nd ref="287145451"/>
    <tag k="highway" v="primary"/>
    <tag k="lanes" v="2"/>
    <tag k="name" v="Route de Meyrin"/>
    <tag k="oneway" v="yes"/>
  </way>
  <way id="26224071" version="12" timestamp="2010-09-02T21:58:06Z" uid="74847" user="Marc Mongenet" changeset="5666523">
    <nd ref="370945737"/>
    <nd ref="370945739"/>
    <nd ref="287145504"/>
    <nd ref="287145481"/>
    <nd ref="893484490"/>
    <nd ref="287145451"/>
    <tag k="highway" v="primary"/>
    <tag k="lanes" v="2"/>
    <tag k="name" v="Route de Meyrin"/>
    <tag k="oneway" v="yes"/>
  </way>
  <way id="26224071" version="13" timestamp="2012-01-20T22:34:19Z" uid="178186" user="mdk" changeset="10451153"/>
  <way id="26224072" version="3" timestamp="2008-11-26T01:59:07Z" uid="6975" user="ulfl" changeset="794829">
    <nd ref="287145506"/>
    <nd ref="25578622"/>
    <tag k="bridge" v="yes"/>
    <tag k="highway" v="secondary"/>
    <tag k="layer" v="1"/>
    <tag k="name" v="Route de Meyrin"/>
    <tag k="nat_ref" v="101"/>
    <tag k="oneway" v="yes"/>
  </way>
  <way id="26224072" version="4" timestamp="2009-03-05T23:10:26Z" uid="74847" user="Marc Mongenet" changeset="744397">
    <nd ref="287145506"/>
    <nd ref="356062757"/>
    <tag k="bridge" v="yes"/>
    <tag k="highway" v="secondary"/>
    <tag k="layer" v="1"/>
    <tag k="name" v="Route de Meyrin"/>
    <tag k="nat_ref" v="101"/>
    <tag k="oneway" v="yes"/>
  </way>
  <way id="26224072" version="5" timestamp="2009-09-28T13:38:07Z" uid="178986" user="refbotCH" changeset="2664658">
    <nd ref="287145506"/>
    <nd ref="356062757"/>
    <tag k="bridge" v="yes"/>
    <tag k="highway" v="secondary"/>
    <tag k="layer" v="1"/>
    <tag k="name" v="Route de Meyrin"/>
    <tag k="oneway" v="yes"/>
    <tag k="ref" v="101"/>
  </way>
  <way id="26224072" version="6" timestamp="2010-01-27T21:22:27Z" uid="199791" user="bergamote" changeset="3731712">
    <nd ref="287145506"/>
    <nd ref="356062757"/>
    <tag k="bridge" v="yes"/>
    <tag k="highway" v="primary"/>
    <tag k="layer" v="1"/>
    <tag k="name" v="Route de Meyrin"/>
    <tag k="oneway" v="yes"/>
    <tag k="ref" v="101"/>
  </way>
  <way id="26224072" version="7" timestamp="2010-09-15T13:04:18Z" uid="300892" user="b_l" changeset="5787013">
    <nd ref="287145506"/>
    <nd ref="356062757"/>
    <tag k="bridge" v="yes"/>
    <tag k="highway" v="primary"/>
    <tag k="layer" v="1"/>
    <tag k="name" v="Route de Meyrin"/>
    <tag k="oneway" v="yes"/>
  </way>
  <way id="26224072" version="8" timestamp="2012-01-20T22:34:21Z" uid="178186" user="mdk" changeset="10451153"/>
  <way id="26224076" version="3" timestamp="2008-11-26T01:58:54Z" uid="6975" user="ulfl" changeset="794829">
    <nd ref="287145454"/>
    <nd ref="287145514"/>
    <tag k="bridge" v="yes"/>
    <tag k="highway" v="secondary"/>
    <tag k="layer" v="1"/>
    <tag k="name" v="Route de Meyrin"/>
    <tag k="nat_ref" v="101"/>
    <tag k="oneway" v="yes"/>
  </way>
  <way id="26224076" version="4" timestamp="2009-04-30T22:43:59Z" uid="74847" user="Marc Mongenet" changeset="1031611">
    <nd ref="287145454"/>
    <nd ref="387945651"/>
    <tag k="bridge" v="yes"/>
    <tag k="highway" v="secondary"/>
    <tag k="layer" v="1"/>
    <tag k="name" v="Route de Meyrin"/>
    <tag k="nat_ref" v="101"/>
    <tag k="oneway" v="yes"/>
  </way>
  <way id="26224076" version="5" timestamp="2009-09-28T13:38:08Z" uid="178986" user="refbotCH" changeset="2664658">
    <nd ref="287145454"/>
    <nd ref="387945651"/>
    <tag k="bridge" v="yes"/>
    <tag k="highway" v="secondary"/>
    <tag k="layer" v="1"/>
    <tag k="name" v="Route de Meyrin"/>
    <tag k="oneway" v="yes"/>
    <tag k="ref" v="101"/>
  </way>
  <way id="26224076" version="6" timestamp="2009-12-28T22:16:37Z" uid="199791" user="bergamote" changeset="3476484">
    <nd ref="287145454"/>
    <nd ref="387945651"/>
    <tag k="bridge" v="yes"/>
    <tag k="highway" v="primary"/>
    <tag k="layer" v="1"/>
    <tag k="name" v="Route de Meyrin"/>
    <tag k="oneway" v="yes"/>
    <tag k="ref" v="101"/>
  </way>
  <way id="26224076" version="7" timestamp="2010-10-01T17:47:00Z" uid="300892" user="b_l" changeset="5929921">
    <nd ref="287145454"/>
    <nd ref="387945651"/>
    <tag k="bridge" v="yes"/>
    <tag k="highway" v="primary"/>
    <tag k="layer" v="1"/>
    <tag k="name" v="Route de Meyrin"/>
    <tag k="oneway" v="yes"/>
  </way>
  <way id="26224076" version="8" timestamp="2012-01-20T22:34:20Z" uid="178186" user="mdk" changeset="10451153"/>
  <way id="26224077" version="3" timestamp="2008-11-26T01:58:53Z" uid="6975" user="ulfl" changeset="794829">
    <nd ref="36676402"/>
    <nd ref="266559868"/>
    <nd ref="266566347"/>
    <tag k="highway" v="secondary"/>
    <tag k="layer" v="1"/>
    <tag k="name" v="Route de Meyrin"/>
    <tag k="nat_ref" v="101"/>
    <tag k="oneway" v="yes"/>
  </way>
  <way id="26224077" version="4" timestamp="2008-12-29T00:17:35Z" uid="74847" user="Marc Mongenet" changeset="656278">
    <nd ref="36676402"/>
    <nd ref="266559868"/>
    <nd ref="266566347"/>
    <tag k="highway" v="secondary"/>
    <tag k="name" v="Route de Meyrin"/>
    <tag k="nat_ref" v="101"/>
    <tag k="oneway" v="yes"/>
  </way>
  <way id="26224077" version="5" timestamp="2009-02-27T23:49:17Z" uid="74847" user="Marc Mongenet" changeset="695491">
    <nd ref="36676402"/>
    <nd ref="266566347"/>
    <tag k="highway" v="secondary"/>
    <tag k="name" v="Route de Meyrin"/>
    <tag k="nat_ref" v="101"/>
    <tag k="oneway" v="yes"/>
  </way>
  <way id="26224077" version="6" timestamp="2009-07-19T08:07:55Z" uid="30891" user="wiso" changeset="1870335">
    <nd ref="36676402"/>
    <nd ref="443620322"/>
    <nd ref="266566347"/>
    <tag k="highway" v="secondary"/>
    <tag k="name" v="Route de Meyrin"/>
    <tag k="nat_ref" v="101"/>
    <tag k="oneway" v="yes"/>
  </way>
  <way id="26224077" version="7" timestamp="2009-09-28T13:38:09Z" uid="178986" user="refbotCH" changeset="2664658">
    <nd ref="36676402"/>
    <nd ref="443620322"/>
    <nd ref="266566347"/>
    <tag k="highway" v="secondary"/>
    <tag k="name" v="Route de Meyrin"/>
    <tag k="oneway" v="yes"/>
    <tag k="ref" v="101"/>
  </way>
  <way id="26224077" version="8" timestamp="2009-12-28T22:16:37Z" uid="199791" user="bergamote" changeset="3476484">
    <nd ref="36676402"/>
    <nd ref="443620322"/>
    <nd ref="266566347"/>
    <tag k="highway" v="primary"/>
    <tag k="name" v="Route de Meyrin"/>
    <tag k="oneway" v="yes"/>
    <tag k="ref" v="101"/>
  </way>
  <way id="26224077" version="9" timestamp="2010-06-11T20:23:44Z" uid="300892" user="b_l" changeset="4965548">
    <nd ref="36676402"/>
    <nd ref="443620322"/>
    <nd ref="266566347"/>
    <tag k="highway" v="primary"/>
    <tag k="name" v="Route de Meyrin"/>
    <tag k="oneway" v="yes"/>
  </way>
  <way id="26224077" version="10" timestamp="2010-09-02T21:57:57Z" uid="74847" user="Marc Mongenet" changeset="5666523">
    <nd ref="36676402"/>
    <nd ref="893485012"/>
    <nd ref="443620322"/>
    <nd ref="266566347"/>
    <tag k="highway" v="primary"/>
    <tag k="name" v="Route de Meyrin"/>
    <tag k="oneway" v="yes"/>
  </way>
  <way id="26224077" version="11" timestamp="2012-01-20T22:34:21Z" uid="178186" user="mdk" changeset="10451153"/>
  <way id="26224078" version="6" timestamp="2008-11-26T01:58:52Z" uid="6975" user="ulfl" changeset="794829">
    <nd ref="287145514"/>
    <nd ref="287145455"/>
    <nd ref="298507872"/>
    <nd ref="287145456"/>
    <nd ref="298509397"/>
    <nd ref="287145519"/>
    <nd ref="287145458"/>
    <tag k="highway" v="secondary"/>
    <tag k="layer" v="1"/>
    <tag k="name" v="Route de Meyrin"/>
    <tag k="nat_ref" v="101"/>
    <tag k="oneway" v="yes"/>
  </way>
  <way id="26224078" version="7" timestamp="2008-12-29T00:17:37Z" uid="74847" user="Marc Mongenet" changeset="656278">
    <nd ref="287145514"/>
    <nd ref="287145455"/>
    <nd ref="298507872"/>
    <nd ref="287145456"/>
    <nd ref="298509397"/>
    <nd ref="287145519"/>
    <nd ref="287145458"/>
    <tag k="highway" v="secondary"/>
    <tag k="name" v="Route de Meyrin"/>
    <tag k="nat_ref" v="101"/>
    <tag k="oneway" v="yes"/>
  </way>
  <way id="26224078" version="8" timestamp="2009-06-19T07:16:21Z" uid="30891" user="wiso" changeset="1561837">
    <nd ref="287145514"/>
    <nd ref="287145455"/>
    <nd ref="298507872"/>
    <nd ref="287145456"/>
    <nd ref="298509397"/>
    <nd ref="287145519"/>
    <tag k="highway" v="secondary"/>
    <tag k="name" v="Route de Meyrin"/>
    <tag k="nat_ref" v="101"/>
    <tag k="oneway" v="yes"/>
  </way>
  <way id="26224078" version="9" timestamp="2009-09-28T13:38:09Z" uid="178986" user="refbotCH" changeset="2664658">
    <nd ref="287145514"/>
    <nd ref="287145455"/>
    <nd ref="298507872"/>
    <nd ref="287145456"/>
    <nd ref="298509397"/>
    <nd ref="287145519"/>
    <tag k="highway" v="secondary"/>
    <tag k="name" v="Route de Meyrin"/>
    <tag k="oneway" v="yes"/>
    <tag k="ref" v="101"/>
  </way>
  <way id="26224078" version="10" timestamp="2009-12-28T22:16:31Z" uid="199791" user="bergamote" changeset="3476484">
    <nd ref="287145514"/>
    <nd ref="287145455"/>
    <nd ref="298507872"/>
    <nd ref="287145456"/>
    <nd ref="298509397"/>
    <nd ref="287145519"/>
    <tag k="highway" v="primary"/>
    <tag k="name" v="Route de Meyrin"/>
    <tag k="oneway" v="yes"/>
    <tag k="ref" v="101"/>
  </way>
  <way id="26224078" version="11" timestamp="2010-06-11T20:23:41Z" uid="300892" user="b_l" changeset="4965548">
    <nd ref="287145514"/>
    <nd ref="287145455"/>
    <nd ref="298507872"/>
    <nd ref="287145456"/>
    <nd ref="298509397"/>
    <nd ref="287145519"/>
    <tag k="highway" v="primary"/>
    <tag k="name" v="Route de Meyrin"/>
    <tag k="oneway" v="yes"/>
  </way>
  <way id="26224078" version="12" timestamp="2010-09-27T12:22:57Z" uid="120583" user="x-pab" changeset="5891595">
    <nd ref="287145514"/>
    <nd ref="928073406"/>
    <nd ref="928073437"/>
    <nd ref="287145455"/>
    <nd ref="298507872"/>
    <nd ref="287145456"/>
    <nd ref="298509397"/>
    <nd ref="287145519"/>
    <tag k="highway" v="primary"/>
    <tag k="name" v="Route de Meyrin"/>
    <tag k="oneway" v="yes"/>
  </way>
  <way id="26224078" version="13" timestamp="2010-10-12T14:40:37Z" uid="120583" user="x-pab" changeset="6021508">
    <nd ref="287145514"/>
    <nd ref="928073406"/>
    <nd ref="928073437"/>
    <nd ref="287145455"/>
    <nd ref="298507872"/>
    <nd ref="945873840"/>
    <nd ref="287145456"/>
    <nd ref="298509397"/>
    <nd ref="945873819"/>
    <nd ref="287145519"/>
    <tag k="highway" v="primary"/>
    <tag k="name" v="Route de Meyrin"/>
    <tag k="oneway" v="yes"/>
  </way>
  <way id="26224078" version="14" timestamp="2010-10-12T21:34:40Z" uid="120583" user="x-pab" changeset="6025458">
    <nd ref="287145514"/>
    <nd ref="928073406"/>
    <nd ref="928073437"/>
    <nd ref="287145455"/>
    <nd ref="298507872"/>
    <nd ref="945873840"/>
    <nd ref="287145456"/>
    <nd ref="298509397"/>
    <nd ref="945873819"/>
    <nd ref="946207652"/>
    <nd ref="946207415"/>
    <nd ref="287145519"/>
    <tag k="highway" v="primary"/>
    <tag k="name" v="Route de Meyrin"/>
    <tag k="oneway" v="yes"/>
  </way>
  <way id="26224078" version="15" timestamp="2010-10-26T19:05:31Z" uid="74847" user="Marc Mongenet" changeset="6185533">
    <nd ref="287145514"/>
    <nd ref="928073406"/>
    <nd ref="928073437"/>
    <nd ref="287145455"/>
    <nd ref="298507872"/>
    <nd ref="945873840"/>
    <nd ref="287145456"/>
    <nd ref="298509397"/>
    <nd ref="945873819"/>
    <nd ref="946207652"/>
    <nd ref="946207415"/>
    <nd ref="287145519"/>
    <tag k="highway" v="primary"/>
    <tag k="name" v="Route de Meyrin"/>
    <tag k="oneway" v="yes"/>
    <tag k="ref" v="101"/>
  </way>
  <way id="26224078" version="16" timestamp="2010-11-03T20:52:04Z" uid="74847" user="Marc Mongenet" changeset="6279433">
    <nd ref="287145514"/>
    <nd ref="976076224"/>
    <nd ref="976076222"/>
    <nd ref="976076215"/>
    <nd ref="976076226"/>
    <nd ref="928073406"/>
    <nd ref="928073437"/>
    <nd ref="287145455"/>
    <nd ref="298507872"/>
    <nd ref="945873840"/>
    <nd ref="287145456"/>
    <nd ref="298509397"/>
    <nd ref="945873819"/>
    <nd ref="946207652"/>
    <nd ref="946207415"/>
    <nd ref="287145519"/>
    <tag k="highway" v="primary"/>
    <tag k="name" v="Route de Meyrin"/>
    <tag k="oneway" v="yes"/>
    <tag k="ref" v="101"/>
  </way>
  <way id="26224078" version="17" timestamp="2012-01-20T22:34:20Z" uid="178186" user="mdk" changeset="10451153"/>
  <way id="26224079" version="3" timestamp="2008-11-26T01:58:51Z" uid="6975" user="ulfl" changeset="794829">
    <nd ref="287145516"/>
    <nd ref="36676402"/>
    <tag k="bridge" v="yes"/>
    <tag k="highway" v="secondary"/>
    <tag k="layer" v="1"/>
    <tag k="name" v="Route de Meyrin"/>
    <tag k="nat_ref" v="101"/>
    <tag k="oneway" v="yes"/>
  </way>
  <way id="26224079" version="4" timestamp="2009-04-30T22:43:59Z" uid="74847" user="Marc Mongenet" changeset="1031611">
    <nd ref="287145516"/>
    <nd ref="387945649"/>
    <tag k="bridge" v="yes"/>
    <tag k="highway" v="secondary"/>
    <tag k="layer" v="1"/>
    <tag k="name" v="Route de Meyrin"/>
    <tag k="nat_ref" v="101"/>
    <tag k="oneway" v="yes"/>
  </way>
  <way id="26224079" version="5" timestamp="2009-09-28T13:38:10Z" uid="178986" user="refbotCH" changeset="2664658">
    <nd ref="287145516"/>
    <nd ref="387945649"/>
    <tag k="bridge" v="yes"/>
    <tag k="highway" v="secondary"/>
    <tag k="layer" v="1"/>
    <tag k="name" v="Route de Meyrin"/>
    <tag k="oneway" v="yes"/>
    <tag k="ref" v="101"/>
  </way>
  <way id="26224079" version="6" timestamp="2009-12-28T22:16:36Z" uid="199791" user="bergamote" changeset="3476484">
    <nd ref="287145516"/>
    <nd ref="387945649"/>
    <tag k="bridge" v="yes"/>
    <tag k="highway" v="primary"/>
    <tag k="layer" v="1"/>
    <tag k="name" v="Route de Meyrin"/>
    <tag k="oneway" v="yes"/>
    <tag k="ref" v="101"/>
  </way>
  <way id="26224079" version="7" timestamp="2010-10-01T17:46:57Z" uid="300892" user="b_l" changeset="5929921">
    <nd ref="287145516"/>
    <nd ref="387945649"/>
    <tag k="bridge" v="yes"/>
    <tag k="highway" v="primary"/>
    <tag k="layer" v="1"/>
    <tag k="name" v="Route de Meyrin"/>
    <tag k="oneway" v="yes"/>
  </way>
  <way id="26224079" version="8" timestamp="2010-10-26T19:05:21Z" uid="74847" user="Marc Mongenet" changeset="6185533">
    <nd ref="287145516"/>
    <nd ref="387945649"/>
    <tag k="bridge" v="yes"/>
    <tag k="highway" v="primary"/>
    <tag k="layer" v="1"/>
    <tag k="name" v="Route de Meyrin"/>
    <tag k="oneway" v="yes"/>
    <tag k="ref" v="101"/>
  </way>
  <way id="26224079" version="9" timestamp="2012-01-20T22:34:21Z" uid="178186" user="mdk" changeset="10451153"/>
  <way id="26224082" version="7" timestamp="2008-11-26T01:59:37Z" uid="6975" user="ulfl" changeset="794829">
    <nd ref="287145458"/>
    <nd ref="301266912"/>
    <tag k="bridge" v="yes"/>
    <tag k="highway" v="secondary"/>
    <tag k="layer" v="1"/>
    <tag k="name" v="Route de Meyrin"/>
    <tag k="nat_ref" v="101"/>
    <tag k="oneway" v="yes"/>
  </way>
  <way id="26224082" version="8" timestamp="2009-09-28T13:38:11Z" uid="178986" user="refbotCH" changeset="2664658">
    <nd ref="287145458"/>
    <nd ref="301266912"/>
    <tag k="bridge" v="yes"/>
    <tag k="highway" v="secondary"/>
    <tag k="layer" v="1"/>
    <tag k="name" v="Route de Meyrin"/>
    <tag k="oneway" v="yes"/>
    <tag k="ref" v="101"/>
  </way>
  <way id="26224082" version="9" timestamp="2009-12-28T22:16:31Z" uid="199791" user="bergamote" changeset="3476484">
    <nd ref="287145458"/>
    <nd ref="301266912"/>
    <tag k="bridge" v="yes"/>
    <tag k="highway" v="primary"/>
    <tag k="layer" v="1"/>
    <tag k="name" v="Route de Meyrin"/>
    <tag k="oneway" v="yes"/>
    <tag k="ref" v="101"/>
  </way>
  <way id="26224082" version="10" timestamp="2011-04-30T06:53:51Z" uid="300892" user="b_l" changeset="8009029">
    <nd ref="287145458"/>
    <nd ref="301266912"/>
    <tag k="bridge" v="yes"/>
    <tag k="highway" v="primary"/>
    <tag k="layer" v="1"/>
    <tag k="name" v="Route de Meyrin"/>
    <tag k="oneway" v="yes"/>
    <tag k="railway" v="tram"/>
    <tag k="ref" v="101"/>
  </way>
  <way id="26224082" version="11" timestamp="2011-12-05T23:57:47Z" uid="42429" user="FK270673" changeset="10046584">
    <nd ref="287145458"/>
    <nd ref="301266912"/>
    <tag k="bridge" v="yes"/>
    <tag k="electrified" v="contact_line"/>
    <tag k="frequency" v="0"/>
    <tag k="gauge" v="1000"/>
    <tag k="highway" v="primary"/>
    <tag k="layer" v="1"/>
    <tag k="name" v="Route de Meyrin"/>
    <tag k="oneway" v="yes"/>
    <tag k="railway" v="tram"/>
    <tag k="ref" v="101"/>
    <tag k="voltage" v="600"/>
  </way>
  <way id="26224082" version="12" timestamp="2011-12-17T17:48:10Z" uid="300892" user="b_l" changeset="10140301">
    <nd ref="287145458"/>
    <nd ref="301266912"/>
    <tag k="bridge" v="yes"/>
    <tag k="highway" v="primary"/>
    <tag k="layer" v="1"/>
    <tag k="name" v="Route de Meyrin"/>
    <tag k="oneway" v="yes"/>
    <tag k="ref" v="101"/>
  </way>
  <way id="26224083" version="5" timestamp="2008-11-26T01:59:39Z" uid="6975" user="ulfl" changeset="794829">
    <nd ref="262882132"/>
    <nd ref="300983005"/>
    <nd ref="59646264"/>
    <tag k="highway" v="secondary"/>
    <tag k="layer" v="1"/>
    <tag k="name" v="Route de Meyrin"/>
    <tag k="nat_ref" v="101"/>
    <tag k="oneway" v="yes"/>
  </way>
  <way id="26224083" version="6" timestamp="2009-01-03T03:40:52Z" uid="74847" user="Marc Mongenet" changeset="725645">
    <nd ref="262882132"/>
    <nd ref="300983005"/>
    <nd ref="59646264"/>
    <tag k="highway" v="secondary"/>
    <tag k="name" v="Route de Meyrin"/>
    <tag k="nat_ref" v="101"/>
    <tag k="oneway" v="yes"/>
  </way>
  <way id="26224083" version="7" timestamp="2009-05-19T21:10:44Z" uid="54697" user="Freebourg" changeset="1255212">
    <nd ref="262882132"/>
    <nd ref="406714650"/>
    <nd ref="300983005"/>
    <nd ref="59646264"/>
    <tag k="highway" v="secondary"/>
    <tag k="name" v="Route de Meyrin"/>
    <tag k="nat_ref" v="101"/>
    <tag k="oneway" v="yes"/>
  </way>
  <way id="26224083" version="8" timestamp="2009-06-19T06:59:53Z" uid="30891" user="wiso" changeset="1561671">
    <nd ref="262882132"/>
    <nd ref="406714650"/>
    <tag k="highway" v="secondary"/>
    <tag k="name" v="Route de Meyrin"/>
    <tag k="nat_ref" v="101"/>
    <tag k="oneway" v="yes"/>
  </way>
  <way id="26224083" version="9" timestamp="2009-09-28T13:38:11Z" uid="178986" user="refbotCH" changeset="2664658">
    <nd ref="262882132"/>
    <nd ref="406714650"/>
    <tag k="highway" v="secondary"/>
    <tag k="name" v="Route de Meyrin"/>
    <tag k="oneway" v="yes"/>
    <tag k="ref" v="101"/>
  </way>
  <way id="26224083" version="10" timestamp="2009-12-28T22:16:29Z" uid="199791" user="bergamote" changeset="3476484">
    <nd ref="262882132"/>
    <nd ref="406714650"/>
    <tag k="highway" v="primary"/>
    <tag k="name" v="Route de Meyrin"/>
    <tag k="oneway" v="yes"/>
    <tag k="ref" v="101"/>
  </way>
  <way id="26224083" version="11" timestamp="2010-01-10T12:17:12Z" uid="58410" user="tlacuilo" changeset="3586346">
    <nd ref="262882132"/>
    <nd ref="610876686"/>
    <nd ref="610876689"/>
    <nd ref="406714650"/>
    <tag k="highway" v="primary"/>
    <tag k="name" v="Route de Meyrin"/>
    <tag k="oneway" v="yes"/>
    <tag k="ref" v="101"/>
  </way>
  <way id="26224083" version="12" timestamp="2010-01-10T15:09:13Z" uid="58410" user="tlacuilo" changeset="3587792">
    <nd ref="262882132"/>
    <nd ref="406714650"/>
    <tag k="highway" v="primary"/>
    <tag k="name" v="Route de Meyrin"/>
    <tag k="oneway" v="yes"/>
    <tag k="ref" v="101"/>
  </way>
  <way id="26224083" version="13" timestamp="2010-09-15T13:04:20Z" uid="300892" user="b_l" changeset="5787013">
    <nd ref="262882132"/>
    <nd ref="406714650"/>
    <tag k="highway" v="primary"/>
    <tag k="name" v="Route de Meyrin"/>
    <tag k="oneway" v="yes"/>
  </way>
  <way id="26224083" version="14" timestamp="2010-09-20T07:36:09Z" uid="120583" user="x-pab" changeset="5826606">
    <nd ref="262882132"/>
    <nd ref="919416794"/>
    <nd ref="919416794"/>
    <nd ref="406714650"/>
    <tag k="highway" v="primary"/>
    <tag k="name" v="Route de Meyrin"/>
    <tag k="oneway" v="yes"/>
  </way>
  <way id="26224083" version="15" timestamp="2010-09-20T18:49:04Z" uid="70696" user="xybot" changeset="5831389">
    <nd ref="262882132"/>
    <nd ref="919416794"/>
    <nd ref="406714650"/>
    <tag k="highway" v="primary"/>
    <tag k="name" v="Route de Meyrin"/>
    <tag k="oneway" v="yes"/>
  </way>
  <way id="26224083" version="16" timestamp="2010-10-26T19:05:14Z" uid="74847" user="Marc Mongenet" changeset="6185533">
    <nd ref="262882132"/>
    <nd ref="919416794"/>
    <nd ref="406714650"/>
    <tag k="highway" v="primary"/>
    <tag k="name" v="Route de Meyrin"/>
    <tag k="oneway" v="yes"/>
    <tag k="ref" v="101"/>
  </way>
  <way id="26224117" version="8" timestamp="2008-09-14T18:30:53Z" uid="6975" user="ulfl" changeset="640534">
    <nd ref="260696480"/>
    <nd ref="287145836"/>
    <nd ref="35258405"/>
    <nd ref="35258403"/>
    <nd ref="250574578"/>
    <nd ref="287145894"/>
    <nd ref="287145838"/>
    <nd ref="260696481"/>
    <nd ref="260696480"/>
    <tag k="amenity" v="townhall"/>
    <tag k="building" v="yes"/>
    <tag k="name" v="Palais Rohan"/>
  </way>
  <way id="26224117" version="9" timestamp="2008-09-28T20:02:36Z" uid="25762" user="frodrigo" changeset="712206">
    <nd ref="260696480"/>
    <nd ref="287145836"/>
    <nd ref="35258405"/>
    <nd ref="35258403"/>
    <nd ref="251294969"/>
    <nd ref="250574578"/>
    <nd ref="267160539"/>
    <nd ref="287145894"/>
    <nd ref="287145838"/>
    <nd ref="260696481"/>
    <nd ref="260696480"/>
    <tag k="amenity" v="townhall"/>
    <tag k="building" v="yes"/>
    <tag k="name" v="Palais Rohan"/>
  </way>
  <way id="26224117" version="10" timestamp="2010-10-01T15:47:49Z" uid="53048" user="jfnif" changeset="5929001"/>
  <way id="26224128" version="3" timestamp="2010-07-08T03:49:59Z" uid="74617" user="JohnSmith" changeset="5163091">
    <nd ref="287145878"/>
    <nd ref="287145879"/>
    <nd ref="287145978"/>
    <tag k="highway" v="residential"/>
    <tag k="maxspeed" v="50"/>
    <tag k="maxspeed:source" v="default residential speed limit in Australia"/>
  </way>
  <way id="26224128" version="4" timestamp="2012-01-17T02:13:54Z" uid="147510" user="woodpeck_fixbot" changeset="10413896">
    <nd ref="287145878"/>
    <nd ref="287145879"/>
    <nd ref="287145978"/>
    <tag k="highway" v="residential"/>
  </way>
  <way id="26224132" version="2" timestamp="2010-07-08T03:49:33Z" uid="74617" user="JohnSmith" changeset="5163091">
    <nd ref="287145881"/>
    <nd ref="276876321"/>
    <tag k="highway" v="residential"/>
    <tag k="maxspeed" v="50"/>
    <tag k="maxspeed:source" v="default residential speed limit in Australia"/>
  </way>
  <way id="26224132" version="3" timestamp="2012-01-17T02:13:56Z" uid="147510" user="woodpeck_fixbot" changeset="10413896">
    <nd ref="287145881"/>
    <nd ref="276876321"/>
    <tag k="highway" v="residential"/>
  </way>
  <way id="26224132" version="4" timestamp="2012-02-15T02:46:10Z" uid="602082" user="mvmaps" changeset="10688932"/>
  <way id="26224194" version="5" timestamp="2010-07-12T06:44:50Z" uid="74027" user="katzlbt" changeset="5196060">
    <nd ref="287146965"/>
    <nd ref="299559771"/>
    <nd ref="287146966"/>
    <nd ref="287146967"/>
    <nd ref="287146968"/>
    <nd ref="287146969"/>
    <nd ref="287146970"/>
    <nd ref="287146971"/>
    <nd ref="287146972"/>
    <nd ref="287146973"/>
    <nd ref="287146974"/>
    <nd ref="287146975"/>
    <nd ref="287146976"/>
    <nd ref="287146977"/>
    <nd ref="287146978"/>
    <nd ref="287146979"/>
    <nd ref="287146980"/>
    <nd ref="287146981"/>
    <nd ref="287146982"/>
    <nd ref="287146983"/>
    <nd ref="287146984"/>
    <nd ref="287146985"/>
    <nd ref="287146986"/>
    <nd ref="287146987"/>
    <nd ref="287146988"/>
    <nd ref="287146989"/>
    <nd ref="287146990"/>
    <nd ref="287146991"/>
    <nd ref="287146992"/>
    <nd ref="287146999"/>
    <nd ref="287147009"/>
    <nd ref="812181430"/>
    <nd ref="287147016"/>
    <nd ref="287147017"/>
    <nd ref="287147018"/>
    <nd ref="287147019"/>
    <nd ref="287147020"/>
    <nd ref="812181499"/>
    <nd ref="287147021"/>
    <nd ref="812181490"/>
    <nd ref="287147022"/>
    <nd ref="287147023"/>
    <nd ref="812847613"/>
    <nd ref="287147024"/>
    <nd ref="812847614"/>
    <nd ref="287147025"/>
    <nd ref="287147026"/>
    <nd ref="287147027"/>
    <nd ref="287147028"/>
    <nd ref="812847615"/>
    <nd ref="287147029"/>
    <nd ref="812181461"/>
    <nd ref="287147030"/>
    <nd ref="287147031"/>
    <nd ref="812181453"/>
    <nd ref="287147032"/>
    <nd ref="287147033"/>
    <nd ref="287147034"/>
    <nd ref="812181420"/>
    <nd ref="287147035"/>
    <tag k="highway" v="track"/>
    <tag k="network" v="rcn"/>
    <tag k="ref" v="517"/>
    <tag k="tracktype" v="grade3"/>
  </way>
  <way id="26224194" version="6" timestamp="2010-08-03T15:28:44Z" uid="303915" user="billi_rubin" changeset="5390893">
    <nd ref="287146965"/>
    <nd ref="299559771"/>
    <nd ref="287146966"/>
    <nd ref="287146967"/>
    <nd ref="287146968"/>
    <nd ref="287146969"/>
    <nd ref="287146970"/>
    <nd ref="287146971"/>
    <nd ref="287146972"/>
    <nd ref="287146973"/>
    <nd ref="287146974"/>
    <nd ref="287146975"/>
    <nd ref="287146976"/>
    <nd ref="287146977"/>
    <nd ref="287146978"/>
    <nd ref="287146979"/>
    <nd ref="287146980"/>
    <nd ref="287146981"/>
    <nd ref="287146982"/>
    <nd ref="287146983"/>
    <nd ref="287146984"/>
    <nd ref="287146985"/>
    <nd ref="287146986"/>
    <nd ref="287146987"/>
    <nd ref="287146988"/>
    <nd ref="287146989"/>
    <nd ref="287146990"/>
    <nd ref="287146991"/>
    <nd ref="287146992"/>
    <nd ref="287146999"/>
    <nd ref="287147009"/>
    <nd ref="812181430"/>
    <nd ref="287147016"/>
    <nd ref="287147017"/>
    <nd ref="287147018"/>
    <nd ref="287147019"/>
    <nd ref="287147020"/>
    <nd ref="812181499"/>
    <nd ref="287147021"/>
    <nd ref="812181490"/>
    <nd ref="287147022"/>
    <nd ref="287147023"/>
    <nd ref="812847613"/>
    <nd ref="287147024"/>
    <nd ref="812847614"/>
    <nd ref="287147025"/>
    <nd ref="287147026"/>
    <nd ref="287147027"/>
    <nd ref="287147028"/>
    <nd ref="812847615"/>
    <nd ref="287147029"/>
    <nd ref="812181461"/>
    <nd ref="287147030"/>
    <nd ref="287147031"/>
    <nd ref="812181453"/>
    <nd ref="287147032"/>
    <nd ref="287147033"/>
    <nd ref="287147034"/>
    <nd ref="812181420"/>
    <nd ref="844975580"/>
    <nd ref="287147035"/>
    <tag k="highway" v="track"/>
    <tag k="network" v="rcn"/>
    <tag k="ref" v="517"/>
    <tag k="tracktype" v="grade3"/>
  </way>
  <way id="26224194" version="7" timestamp="2012-02-22T20:24:48Z" uid="606250" user="katzlmacher" changeset="10762883">
    <nd ref="287146965"/>
    <nd ref="299559771"/>
    <nd ref="287146966"/>
    <nd ref="287146967"/>
    <nd ref="287146968"/>
    <nd ref="287146969"/>
    <nd ref="287146970"/>
    <nd ref="287146971"/>
    <nd ref="287146972"/>
    <nd ref="287146973"/>
    <nd ref="287146974"/>
    <nd ref="287146975"/>
    <nd ref="287146976"/>
    <nd ref="287146977"/>
    <nd ref="287146978"/>
    <nd ref="287146979"/>
    <nd ref="287146980"/>
    <nd ref="287146981"/>
    <nd ref="287146982"/>
    <nd ref="287146983"/>
    <nd ref="287146984"/>
    <nd ref="287146985"/>
    <nd ref="1643424109"/>
    <nd ref="287146986"/>
    <nd ref="287146987"/>
    <nd ref="1643424108"/>
    <nd ref="287146988"/>
    <nd ref="287146989"/>
    <nd ref="287146990"/>
    <nd ref="287146991"/>
    <nd ref="287146992"/>
    <nd ref="287146999"/>
    <nd ref="287147009"/>
    <nd ref="812181430"/>
    <nd ref="287147016"/>
    <nd ref="287147017"/>
    <nd ref="287147018"/>
    <nd ref="287147019"/>
    <nd ref="287147020"/>
    <nd ref="812181499"/>
    <nd ref="287147021"/>
    <nd ref="1643424106"/>
    <nd ref="1643424107"/>
    <nd ref="287147023"/>
    <nd ref="1643424105"/>
    <nd ref="287147025"/>
    <nd ref="287147026"/>
    <nd ref="287147027"/>
    <nd ref="287147028"/>
    <nd ref="1643424104"/>
    <nd ref="287147029"/>
    <nd ref="812181461"/>
    <nd ref="287147030"/>
    <nd ref="287147031"/>
    <nd ref="812181453"/>
    <nd ref="287147032"/>
    <nd ref="287147033"/>
    <nd ref="287147034"/>
    <nd ref="812181420"/>
    <nd ref="844975580"/>
    <nd ref="287147035"/>
    <tag k="highway" v="track"/>
    <tag k="network" v="rcn"/>
    <tag k="ref" v="517"/>
    <tag k="tracktype" v="grade3"/>
  </way>
  <way id="26224199" version="1" timestamp="2008-08-11T22:21:12Z" uid="36809" user="pfoten_weg_!_" changeset="200412">
    <nd ref="287147071"/>
    <nd ref="287147072"/>
    <nd ref="287147073"/>
    <nd ref="287147074"/>
    <nd ref="287147075"/>
    <nd ref="287147076"/>
    <nd ref="287147077"/>
    <nd ref="287147078"/>
    <nd ref="287147079"/>
    <nd ref="287147080"/>
    <nd ref="287147081"/>
    <tag k="created_by" v="Potlatch 0.10b"/>
    <tag k="highway" v="track"/>
  </way>
  <way id="26224199" version="2" timestamp="2008-08-11T22:21:52Z" uid="36809" user="pfoten_weg_!_" changeset="200412">
    <nd ref="287147122"/>
    <nd ref="287147123"/>
    <nd ref="287147071"/>
    <nd ref="287147072"/>
    <nd ref="287147073"/>
    <nd ref="287147074"/>
    <nd ref="287147124"/>
    <nd ref="287147075"/>
    <nd ref="287147076"/>
    <nd ref="287147125"/>
    <nd ref="287147126"/>
    <nd ref="287147127"/>
    <nd ref="287147128"/>
    <nd ref="287147129"/>
    <nd ref="287147121"/>
    <tag k="created_by" v="Potlatch 0.10b"/>
    <tag k="highway" v="track"/>
  </way>
  <way id="26224199" version="3" timestamp="2008-08-11T22:50:20Z" uid="36809" user="pfoten_weg_!_" changeset="200412"/>
  <way id="26224213" version="6" timestamp="2008-09-19T03:53:07Z" uid="30632" user="antblant" changeset="662817">
    <nd ref="282365560"/>
    <nd ref="287258877"/>
    <nd ref="282365561"/>
    <nd ref="246772126"/>
    <tag k="created_by" v="Potlatch 0.10b"/>
    <tag k="highway" v="primary"/>
    <tag k="name" v="Bolesawa Limanowskiego"/>
    <tag k="ref" v="3"/>
  </way>
  <way id="26224213" version="7" timestamp="2009-02-22T16:57:30Z" uid="9176" user="Maarten Deen" changeset="611905">
    <nd ref="282365560"/>
    <nd ref="287258877"/>
    <nd ref="282365561"/>
    <nd ref="246772126"/>
    <tag k="created_by" v="Potlatch 0.10b"/>
    <tag k="highway" v="primary"/>
    <tag k="int_ref" v="E 65"/>
    <tag k="name" v="Bolesawa Limanowskiego"/>
    <tag k="ref" v="3"/>
  </way>
  <way id="26224213" version="8" timestamp="2009-03-13T17:12:09Z" uid="9176" user="Maarten Deen" changeset="800877">
    <nd ref="282365560"/>
    <nd ref="287258877"/>
    <tag k="created_by" v="Potlatch 0.10b"/>
    <tag k="highway" v="primary"/>
    <tag k="name" v="Bolesawa Limanowskiego"/>
    <tag k="ref" v="3"/>
  </way>
  <way id="26224213" version="9" timestamp="2010-04-28T16:37:52Z" uid="91056" user="Yarl" changeset="4550926">
    <nd ref="710679690"/>
    <nd ref="287258877"/>
    <tag k="highway" v="primary"/>
    <tag k="name" v="Bolesawa Limanowskiego"/>
    <tag k="ref" v="3"/>
  </way>
  <way id="26224229" version="4" timestamp="2009-09-30T14:32:33Z" uid="36809" user="pfoten_weg_!_" changeset="2688850">
    <nd ref="287147442"/>
    <nd ref="287147443"/>
    <nd ref="359020168"/>
    <nd ref="359020170"/>
    <nd ref="287147446"/>
    <nd ref="287147442"/>
    <tag k="amenity" v="parking"/>
  </way>
  <way id="26224229" version="5" timestamp="2010-04-14T09:54:32Z" uid="45481" user="borisC" changeset="4420977">
    <nd ref="287147442"/>
    <nd ref="696550419"/>
    <nd ref="287147443"/>
    <nd ref="359020168"/>
    <nd ref="359020170"/>
    <nd ref="287147446"/>
    <nd ref="287147442"/>
    <tag k="amenity" v="parking"/>
  </way>
  <way id="26224229" version="6" timestamp="2011-06-28T19:16:04Z" uid="19763" user="leofranz" changeset="8574415">
    <nd ref="287147442"/>
    <nd ref="696550419"/>
    <nd ref="287147443"/>
    <nd ref="359020168"/>
    <nd ref="359020170"/>
    <nd ref="1342544146"/>
    <nd ref="1342544424"/>
    <nd ref="1342544955"/>
    <nd ref="287147446"/>
    <nd ref="287147442"/>
    <tag k="amenity" v="parking"/>
  </way>
  <way id="26224288" version="4" timestamp="2008-08-14T23:12:51Z" uid="6975" user="ulfl" changeset="264731">
    <nd ref="287148038"/>
    <nd ref="287148095"/>
    <nd ref="287148040"/>
    <nd ref="287148092"/>
    <nd ref="287148038"/>
    <tag k="amenity" v="night_club"/>
  </way>
  <way id="26224288" version="5" timestamp="2008-09-14T14:18:13Z" uid="6975" user="ulfl" changeset="640534">
    <nd ref="287148038"/>
    <nd ref="287148095"/>
    <nd ref="287148040"/>
    <nd ref="287148092"/>
    <nd ref="287148038"/>
    <tag k="amenity" v="nightclub"/>
  </way>
  <way id="26224297" version="2" timestamp="2010-03-12T23:17:22Z" uid="30632" user="antblant" changeset="4110635">
    <nd ref="287143284"/>
    <nd ref="287143286"/>
    <nd ref="287143287"/>
    <nd ref="287148157"/>
    <nd ref="287148158"/>
    <nd ref="287148159"/>
    <nd ref="287148160"/>
    <nd ref="287148161"/>
    <nd ref="287143297"/>
    <nd ref="287148162"/>
    <nd ref="287148163"/>
    <nd ref="287148164"/>
    <nd ref="287148165"/>
    <nd ref="287148166"/>
    <nd ref="287143304"/>
    <nd ref="287143305"/>
    <nd ref="287143306"/>
    <nd ref="287143307"/>
    <nd ref="287143308"/>
    <nd ref="287148167"/>
    <nd ref="287143310"/>
    <nd ref="287143311"/>
    <nd ref="287143313"/>
    <nd ref="287143315"/>
    <nd ref="287143317"/>
    <nd ref="287148168"/>
    <nd ref="287148169"/>
    <nd ref="287148170"/>
    <nd ref="287148171"/>
    <nd ref="287148172"/>
    <nd ref="287143325"/>
    <nd ref="287148173"/>
    <nd ref="287148174"/>
    <nd ref="287148175"/>
    <nd ref="287143928"/>
    <tag k="highway" v="unclassified"/>
  </way>
  <way id="26224297" version="3" timestamp="2012-02-12T16:37:09Z" uid="400724" user="marco406" changeset="10664822">
    <nd ref="287143284"/>
    <nd ref="287143286"/>
    <nd ref="287143287"/>
    <nd ref="287148157"/>
    <nd ref="287148158"/>
    <nd ref="287148159"/>
    <nd ref="287148160"/>
    <nd ref="287148161"/>
    <nd ref="287143297"/>
    <nd ref="287148162"/>
    <nd ref="287148163"/>
    <nd ref="287148164"/>
    <nd ref="287148165"/>
    <nd ref="287148166"/>
    <nd ref="287143304"/>
    <nd ref="287143305"/>
    <nd ref="287143306"/>
    <nd ref="287143307"/>
    <nd ref="287143308"/>
    <nd ref="287148167"/>
    <nd ref="287143310"/>
    <nd ref="287143311"/>
    <nd ref="287143313"/>
    <nd ref="287143315"/>
    <nd ref="287143317"/>
    <nd ref="287148168"/>
    <nd ref="287148169"/>
    <nd ref="287148170"/>
    <nd ref="287148171"/>
    <nd ref="287148172"/>
    <nd ref="287143325"/>
    <nd ref="287148173"/>
    <nd ref="287148174"/>
    <nd ref="287148175"/>
    <nd ref="287143928"/>
    <tag k="highway" v="tertiary"/>
  </way>
  <way id="26224350" version="1" timestamp="2008-08-11T22:32:16Z" uid="36809" user="pfoten_weg_!_" changeset="200412">
    <nd ref="287148670"/>
    <nd ref="287148671"/>
    <nd ref="287148672"/>
    <nd ref="287148673"/>
    <nd ref="287148674"/>
    <nd ref="287148675"/>
    <nd ref="287148676"/>
    <nd ref="287148677"/>
    <nd ref="287148678"/>
    <nd ref="287148679"/>
    <nd ref="287148680"/>
    <nd ref="287148681"/>
    <nd ref="287148682"/>
    <nd ref="287148683"/>
    <nd ref="287148684"/>
    <nd ref="287148685"/>
    <nd ref="287148686"/>
    <nd ref="287148687"/>
    <nd ref="287148688"/>
    <tag k="created_by" v="Potlatch 0.10b"/>
  </way>
  <way id="26224350" version="2" timestamp="2008-08-11T22:33:32Z" uid="36809" user="pfoten_weg_!_" changeset="200412">
    <nd ref="268524090"/>
    <nd ref="287149234"/>
    <nd ref="287148670"/>
    <nd ref="287149235"/>
    <nd ref="287148671"/>
    <nd ref="287148672"/>
    <nd ref="287149236"/>
    <nd ref="287148674"/>
    <nd ref="287149238"/>
    <nd ref="287148676"/>
    <nd ref="287148677"/>
    <nd ref="287148678"/>
    <nd ref="287149239"/>
    <nd ref="287148680"/>
    <tag k="created_by" v="Potlatch 0.10b"/>
  </way>
  <way id="26224350" version="3" timestamp="2008-08-11T22:33:37Z" uid="36809" user="pfoten_weg_!_" changeset="200412">
    <nd ref="268524090"/>
    <nd ref="287149281"/>
    <nd ref="287148670"/>
    <nd ref="287149283"/>
    <nd ref="287148671"/>
    <nd ref="287148672"/>
    <nd ref="287149236"/>
    <nd ref="287148674"/>
    <nd ref="287149238"/>
    <nd ref="287148676"/>
    <nd ref="287148677"/>
    <nd ref="287148678"/>
    <nd ref="287149239"/>
    <nd ref="287148680"/>
    <tag k="created_by" v="Potlatch 0.10b"/>
    <tag k="highway" v="residential"/>
  </way>
  <way id="26224350" version="4" timestamp="2008-08-11T22:34:46Z" uid="36809" user="pfoten_weg_!_" changeset="200412">
    <nd ref="268524090"/>
    <nd ref="287149678"/>
    <nd ref="287148670"/>
    <nd ref="287149283"/>
    <nd ref="287148671"/>
    <nd ref="287148672"/>
    <nd ref="287149236"/>
    <nd ref="287148674"/>
    <nd ref="287149238"/>
    <nd ref="287148676"/>
    <nd ref="287148677"/>
    <nd ref="287148678"/>
    <nd ref="287149239"/>
    <nd ref="287148680"/>
    <tag k="created_by" v="Potlatch 0.10b"/>
    <tag k="highway" v="residential"/>
    <tag k="name" v="Mrlbacher Weg"/>
  </way>
  <way id="26224350" version="5" timestamp="2008-08-11T23:07:07Z" uid="36809" user="pfoten_weg_!_" changeset="200412">
    <nd ref="268524090"/>
    <nd ref="287149678"/>
    <nd ref="287148670"/>
    <nd ref="287149283"/>
    <nd ref="287148671"/>
    <nd ref="287148672"/>
    <nd ref="287149236"/>
    <nd ref="287148674"/>
    <nd ref="287149238"/>
    <nd ref="287148676"/>
    <nd ref="287148677"/>
    <nd ref="287148678"/>
    <nd ref="287149239"/>
    <nd ref="287148680"/>
    <tag k="created_by" v="RambaZamba"/>
    <tag k="highway" v="residential"/>
    <tag k="name" v="Mrlbacher Weg"/>
  </way>
  <way id="26224350" version="6" timestamp="2008-11-24T16:55:15Z" uid="36809" user="pfoten_weg_!_" changeset="787663">
    <nd ref="268524090"/>
    <nd ref="287149678"/>
    <nd ref="287148670"/>
    <nd ref="287149283"/>
    <nd ref="287148671"/>
    <nd ref="287148672"/>
    <nd ref="287149236"/>
    <nd ref="287148674"/>
    <tag k="created_by" v="RambaZamba"/>
    <tag k="highway" v="residential"/>
    <tag k="name" v="Mrlbacher Weg"/>
  </way>
  <way id="26224350" version="7" timestamp="2009-03-30T07:14:24Z" uid="36809" user="pfoten_weg_!_" changeset="869210">
    <nd ref="268524090"/>
    <nd ref="287149678"/>
    <nd ref="287148670"/>
    <nd ref="287149283"/>
    <nd ref="287148671"/>
    <nd ref="287148672"/>
    <nd ref="287149236"/>
    <nd ref="287148674"/>
    <tag k="created_by" v="RambaZamba"/>
    <tag k="highway" v="residential"/>
    <tag k="name" v="Mrlbacher Weg"/>
    <tag k="source" v="survey"/>
  </way>
  <way id="26224350" version="8" timestamp="2009-05-22T23:36:26Z" uid="36809" user="pfoten_weg_!_" changeset="1291139">
    <nd ref="268524090"/>
    <nd ref="287149678"/>
    <nd ref="287148670"/>
    <nd ref="287149283"/>
    <nd ref="287148671"/>
    <nd ref="287148672"/>
    <nd ref="287149236"/>
    <nd ref="409963603"/>
    <tag k="created_by" v="RambaZamba"/>
    <tag k="highway" v="residential"/>
    <tag k="name" v="Mrlbacher Weg"/>
    <tag k="source" v="survey"/>
  </way>
  <way id="26224350" version="9" timestamp="2009-08-28T19:58:25Z" uid="156995" user="HampelZamba" changeset="2294580">
    <nd ref="268524090"/>
    <nd ref="287149678"/>
    <nd ref="287148670"/>
    <nd ref="287149283"/>
    <nd ref="287148671"/>
    <nd ref="287148672"/>
    <nd ref="287149236"/>
    <nd ref="409963603"/>
    <tag k="highway" v="residential"/>
    <tag k="name" v="Mrlbacher Weg"/>
    <tag k="source" v="survey"/>
  </way>
  <way id="26224350" version="10" timestamp="2009-08-28T21:33:41Z" uid="36809" user="pfoten_weg_!_" changeset="2295609">
    <nd ref="268524090"/>
    <nd ref="287149678"/>
    <nd ref="287148670"/>
    <nd ref="287149283"/>
    <nd ref="287148671"/>
    <nd ref="287148672"/>
    <nd ref="287149236"/>
    <nd ref="409963603"/>
    <tag k="discovered_by" v="RambaZamba"/>
    <tag k="highway" v="residential"/>
    <tag k="name" v="Mrlbacher Weg"/>
    <tag k="source" v="survey"/>
  </way>
  <way id="26224350" version="11" timestamp="2009-08-30T09:25:44Z" uid="156995" user="HampelZamba" changeset="2310659">
    <nd ref="268524090"/>
    <nd ref="287149678"/>
    <nd ref="287148670"/>
    <nd ref="287149283"/>
    <nd ref="287148671"/>
    <nd ref="287148672"/>
    <nd ref="287149236"/>
    <nd ref="409963603"/>
    <tag k="highway" v="residential"/>
    <tag k="name" v="Mrlbacher Weg"/>
    <tag k="source" v="survey"/>
  </way>
  <way id="26224350" version="12" timestamp="2009-08-31T17:47:22Z" uid="36809" user="pfoten_weg_!_" changeset="2328905">
    <nd ref="268524090"/>
    <nd ref="287149678"/>
    <nd ref="287148670"/>
    <nd ref="287149283"/>
    <nd ref="287148671"/>
    <nd ref="287148672"/>
    <nd ref="287149236"/>
    <nd ref="409963603"/>
    <tag k="highway" v="residential"/>
    <tag k="name" v="Mrlbacher Weg"/>
    <tag k="source" v="survey"/>
  </way>
  <way id="26224350" version="13" timestamp="2009-10-02T18:10:48Z" uid="86259" user="hasse_osm_korinthenkacker" changeset="2715119">
    <nd ref="268524090"/>
    <nd ref="287149678"/>
    <nd ref="287148670"/>
    <nd ref="287149283"/>
    <nd ref="287148671"/>
    <nd ref="287148672"/>
    <nd ref="287149236"/>
    <nd ref="409963603"/>
    <tag k="highway" v="residential"/>
    <tag k="name" v="Mrlbacher Weg"/>
  </way>
  <way id="26224362" version="1" timestamp="2008-08-11T22:33:31Z" uid="36809" user="pfoten_weg_!_" changeset="200412">
    <nd ref="287148680"/>
    <nd ref="287149225"/>
    <nd ref="287149226"/>
    <nd ref="287149228"/>
    <nd ref="287148684"/>
    <nd ref="287149229"/>
    <nd ref="287148686"/>
    <nd ref="287149230"/>
    <nd ref="287149231"/>
    <tag k="created_by" v="Potlatch 0.10b"/>
  </way>
  <way id="26224362" version="2" timestamp="2008-08-11T22:33:51Z" uid="36809" user="pfoten_weg_!_" changeset="200412">
    <nd ref="287148680"/>
    <nd ref="287149225"/>
    <nd ref="287149226"/>
    <nd ref="287149228"/>
    <nd ref="287148684"/>
    <nd ref="287149521"/>
    <nd ref="287148686"/>
    <nd ref="287149522"/>
    <nd ref="287149523"/>
    <tag k="created_by" v="Potlatch 0.10b"/>
    <tag k="highway" v="track"/>
  </way>
  <way id="26224362" version="3" timestamp="2008-08-11T22:35:28Z" uid="36809" user="pfoten_weg_!_" changeset="200412">
    <nd ref="287148680"/>
    <nd ref="287149225"/>
    <nd ref="287149226"/>
    <nd ref="287149228"/>
    <nd ref="287148684"/>
    <nd ref="287149521"/>
    <nd ref="287148686"/>
    <nd ref="287149522"/>
    <nd ref="287149718"/>
    <nd ref="287149720"/>
    <tag k="created_by" v="Potlatch 0.10b"/>
    <tag k="highway" v="track"/>
  </way>
  <way id="26224362" version="4" timestamp="2008-08-11T22:35:43Z" uid="36809" user="pfoten_weg_!_" changeset="200412">
    <nd ref="287148680"/>
    <nd ref="287149225"/>
    <nd ref="287149226"/>
    <nd ref="287149228"/>
    <nd ref="287148684"/>
    <nd ref="287149521"/>
    <nd ref="287148686"/>
    <nd ref="287149522"/>
    <nd ref="287149744"/>
    <nd ref="287149720"/>
    <tag k="created_by" v="Potlatch 0.10b"/>
    <tag k="highway" v="track"/>
  </way>
  <way id="26224362" version="5" timestamp="2008-08-14T14:37:29Z" uid="36809" user="pfoten_weg_!_" changeset="250529">
    <nd ref="287148680"/>
    <nd ref="287149225"/>
    <nd ref="287149226"/>
    <nd ref="287149228"/>
    <nd ref="287148684"/>
    <nd ref="287149521"/>
    <nd ref="287148686"/>
    <nd ref="287149522"/>
    <nd ref="287149744"/>
    <nd ref="287149720"/>
    <tag k="created_by" v="RambaZamba"/>
    <tag k="highway" v="track"/>
  </way>
  <way id="26224362" version="6" timestamp="2008-11-24T16:55:16Z" uid="36809" user="pfoten_weg_!_" changeset="787663">
    <nd ref="287148680"/>
    <nd ref="287149225"/>
    <nd ref="287149226"/>
    <nd ref="287149228"/>
    <nd ref="287148684"/>
    <nd ref="287149521"/>
    <nd ref="287148686"/>
    <nd ref="287149522"/>
    <nd ref="287149744"/>
    <nd ref="287149720"/>
    <tag k="created_by" v="RambaZamba"/>
    <tag k="highway" v="track"/>
    <tag k="source" v="survey"/>
  </way>
  <way id="26224362" version="7" timestamp="2009-05-09T18:01:58Z" uid="106615" user="matafumar" changeset="1130542">
    <nd ref="287148680"/>
    <nd ref="287149225"/>
    <nd ref="287149226"/>
    <nd ref="287149228"/>
    <nd ref="287148684"/>
    <nd ref="287149521"/>
    <nd ref="287148686"/>
    <nd ref="287149522"/>
    <nd ref="287149744"/>
    <nd ref="287149720"/>
    <tag k="highway" v="track"/>
    <tag k="source" v="survey"/>
    <tag k="tracktype" v="grade2"/>
  </way>
  <way id="26224362" version="8" timestamp="2009-09-01T17:50:03Z" uid="62236" user="Paulchen Panther" changeset="2340608">
    <nd ref="287148680"/>
    <nd ref="287149225"/>
    <nd ref="287149226"/>
    <nd ref="287149228"/>
    <nd ref="287148684"/>
    <nd ref="287149521"/>
    <nd ref="287148686"/>
    <nd ref="287149522"/>
    <nd ref="287149744"/>
    <tag k="highway" v="track"/>
    <tag k="source" v="survey"/>
    <tag k="tracktype" v="grade2"/>
  </way>
  <way id="26224362" version="9" timestamp="2009-10-02T17:01:42Z" uid="86259" user="hasse_osm_korinthenkacker" changeset="2714981">
    <nd ref="287148680"/>
    <nd ref="287149225"/>
    <nd ref="287149226"/>
    <nd ref="287149228"/>
    <nd ref="287148684"/>
    <nd ref="287149521"/>
    <nd ref="287148686"/>
    <nd ref="287149522"/>
    <nd ref="287149744"/>
    <tag k="highway" v="track"/>
    <tag k="source" v="survey"/>
    <tag k="tracktype" v="grade2"/>
  </way>
  <way id="26224362" version="10" timestamp="2009-10-02T18:11:03Z" uid="86259" user="hasse_osm_korinthenkacker" changeset="2715119">
    <nd ref="287148680"/>
    <nd ref="287149225"/>
    <nd ref="287149226"/>
    <nd ref="287149228"/>
    <nd ref="287148684"/>
    <nd ref="287149521"/>
    <nd ref="287148686"/>
    <nd ref="287149522"/>
    <nd ref="287149744"/>
    <tag k="highway" v="track"/>
    <tag k="tracktype" v="grade2"/>
  </way>
  <way id="26224613" version="1" timestamp="2008-08-11T22:50:19Z" uid="36809" user="pfoten_weg_!_" changeset="200412">
    <nd ref="287151680"/>
    <nd ref="287151681"/>
    <nd ref="287151682"/>
    <nd ref="287151683"/>
    <nd ref="287147122"/>
    <nd ref="287147123"/>
    <nd ref="287147071"/>
    <nd ref="287147072"/>
    <nd ref="287147073"/>
    <nd ref="287147074"/>
    <nd ref="287147124"/>
    <nd ref="287147075"/>
    <nd ref="287147076"/>
    <nd ref="287147125"/>
    <nd ref="287147126"/>
    <nd ref="287147127"/>
    <nd ref="287147128"/>
    <nd ref="287147129"/>
    <nd ref="287147121"/>
    <tag k="created_by" v="Potlatch 0.10b"/>
    <tag k="highway" v="track"/>
  </way>
  <way id="26224613" version="2" timestamp="2008-08-11T22:51:11Z" uid="36809" user="pfoten_weg_!_" changeset="200412">
    <nd ref="287151794"/>
    <nd ref="287151796"/>
    <nd ref="287151798"/>
    <nd ref="287151800"/>
    <nd ref="287151802"/>
    <nd ref="287151804"/>
    <nd ref="287151806"/>
    <nd ref="287151807"/>
    <nd ref="287151808"/>
    <nd ref="287151809"/>
    <nd ref="287151810"/>
    <nd ref="287151811"/>
    <nd ref="287151812"/>
    <nd ref="287151813"/>
    <nd ref="287151814"/>
    <nd ref="287151815"/>
    <nd ref="287151816"/>
    <nd ref="287151817"/>
    <nd ref="287151818"/>
    <nd ref="287151819"/>
    <nd ref="287151820"/>
    <nd ref="287151821"/>
    <nd ref="287151822"/>
    <nd ref="287151823"/>
    <nd ref="287151824"/>
    <nd ref="287151825"/>
    <nd ref="287151826"/>
    <nd ref="287151827"/>
    <nd ref="287151828"/>
    <nd ref="287151829"/>
    <nd ref="287151830"/>
    <nd ref="287151831"/>
    <nd ref="287151680"/>
    <nd ref="287151832"/>
    <nd ref="287151682"/>
    <nd ref="287151833"/>
    <nd ref="287147122"/>
    <nd ref="287147123"/>
    <nd ref="287147071"/>
    <nd ref="287147072"/>
    <nd ref="287147073"/>
    <nd ref="287147074"/>
    <nd ref="287147124"/>
    <nd ref="287147075"/>
    <nd ref="287147076"/>
    <nd ref="287147125"/>
    <nd ref="287147126"/>
    <nd ref="287147127"/>
    <nd ref="287147128"/>
    <nd ref="287147129"/>
    <nd ref="287147121"/>
    <tag k="created_by" v="Potlatch 0.10b"/>
    <tag k="highway" v="track"/>
  </way>
  <way id="26224613" version="3" timestamp="2008-08-11T22:51:26Z" uid="36809" user="pfoten_weg_!_" changeset="200412">
    <nd ref="287151843"/>
    <nd ref="287151796"/>
    <nd ref="287151798"/>
    <nd ref="287151800"/>
    <nd ref="287151802"/>
    <nd ref="287151804"/>
    <nd ref="287151806"/>
    <nd ref="287151844"/>
    <nd ref="287151845"/>
    <nd ref="287151846"/>
    <nd ref="287151847"/>
    <nd ref="287151811"/>
    <nd ref="287151848"/>
    <nd ref="287151849"/>
    <nd ref="287151850"/>
    <nd ref="287151851"/>
    <nd ref="287151852"/>
    <nd ref="287151853"/>
    <nd ref="287151818"/>
    <nd ref="287151819"/>
    <nd ref="287151820"/>
    <nd ref="287151821"/>
    <nd ref="287151854"/>
    <nd ref="287151823"/>
    <nd ref="287151824"/>
    <nd ref="287151825"/>
    <nd ref="287151826"/>
    <nd ref="287151827"/>
    <nd ref="287151828"/>
    <nd ref="287151855"/>
    <nd ref="287151856"/>
    <nd ref="287151857"/>
    <nd ref="287151680"/>
    <tag k="created_by" v="Potlatch 0.10b"/>
    <tag k="highway" v="track"/>
  </way>
  <way id="26224613" version="4" timestamp="2008-08-11T22:52:53Z" uid="36809" user="pfoten_weg_!_" changeset="200412">
    <nd ref="287151843"/>
    <nd ref="287151796"/>
    <nd ref="287151798"/>
    <nd ref="287151800"/>
    <nd ref="287151802"/>
    <nd ref="287151804"/>
    <nd ref="287151806"/>
    <nd ref="287152023"/>
    <nd ref="287152024"/>
    <nd ref="287151846"/>
    <nd ref="287151847"/>
    <nd ref="287151811"/>
    <nd ref="287151848"/>
    <nd ref="287151849"/>
    <nd ref="287151850"/>
    <nd ref="287152019"/>
    <tag k="created_by" v="Potlatch 0.10b"/>
    <tag k="highway" v="track"/>
  </way>
  <way id="26224613" version="5" timestamp="2008-08-11T22:53:06Z" uid="36809" user="pfoten_weg_!_" changeset="200412">
    <nd ref="287151843"/>
    <nd ref="287151796"/>
    <nd ref="287151798"/>
    <nd ref="287151800"/>
    <nd ref="287151802"/>
    <nd ref="287151804"/>
    <nd ref="287151806"/>
    <nd ref="287152023"/>
    <nd ref="287152048"/>
    <nd ref="287151846"/>
    <nd ref="287151847"/>
    <nd ref="287151811"/>
    <nd ref="287151848"/>
    <nd ref="287151849"/>
    <nd ref="287151850"/>
    <nd ref="287152019"/>
    <tag k="created_by" v="Potlatch 0.10b"/>
    <tag k="highway" v="track"/>
    <tag k="name" v="Haarkirchner Weg"/>
  </way>
  <way id="26224613" version="6" timestamp="2008-08-11T22:57:24Z" uid="36809" user="pfoten_weg_!_" changeset="200412">
    <nd ref="287151843"/>
    <nd ref="287151796"/>
    <nd ref="287151798"/>
    <nd ref="287152895"/>
    <nd ref="287151800"/>
    <nd ref="287151802"/>
    <nd ref="287151804"/>
    <nd ref="287151806"/>
    <nd ref="287152023"/>
    <nd ref="287152048"/>
    <nd ref="287151846"/>
    <nd ref="287152904"/>
    <nd ref="287151847"/>
    <nd ref="287151811"/>
    <nd ref="287151848"/>
    <nd ref="287151849"/>
    <nd ref="287151850"/>
    <nd ref="287152019"/>
    <tag k="created_by" v="Potlatch 0.10b"/>
    <tag k="highway" v="track"/>
    <tag k="name" v="Haarkirchner Weg"/>
  </way>
  <way id="26224613" version="7" timestamp="2008-08-11T22:57:32Z" uid="36809" user="pfoten_weg_!_" changeset="200412">
    <nd ref="287151843"/>
    <nd ref="287151796"/>
    <nd ref="287151798"/>
    <nd ref="287153042"/>
    <nd ref="287151800"/>
    <nd ref="287151802"/>
    <nd ref="287151804"/>
    <nd ref="287151806"/>
    <nd ref="287152023"/>
    <nd ref="287152048"/>
    <nd ref="287151846"/>
    <nd ref="287152904"/>
    <nd ref="287151847"/>
    <nd ref="287151811"/>
    <nd ref="287151848"/>
    <nd ref="287151849"/>
    <nd ref="287151850"/>
    <nd ref="287152019"/>
    <tag k="created_by" v="Potlatch 0.10b"/>
    <tag k="highway" v="track"/>
    <tag k="name" v="Haarkirchner Weg"/>
  </way>
  <way id="26224613" version="8" timestamp="2008-08-11T22:57:48Z" uid="36809" user="pfoten_weg_!_" changeset="200412">
    <nd ref="287151843"/>
    <nd ref="287151796"/>
    <nd ref="287151798"/>
    <nd ref="287153042"/>
    <nd ref="287151800"/>
    <nd ref="287151802"/>
    <nd ref="287151804"/>
    <nd ref="287151806"/>
    <nd ref="287152023"/>
    <nd ref="287152048"/>
    <nd ref="287151846"/>
    <nd ref="287152904"/>
    <nd ref="287151847"/>
    <nd ref="287151811"/>
    <nd ref="287151848"/>
    <nd ref="287151849"/>
    <nd ref="287151850"/>
    <nd ref="287152019"/>
    <tag k="created_by" v="Potlatch 0.10b"/>
    <tag k="highway" v="track"/>
  </way>
  <way id="26224613" version="9" timestamp="2008-08-11T23:07:10Z" uid="36809" user="pfoten_weg_!_" changeset="200412"/>
  <way id="26224625" version="1" timestamp="2008-08-11T22:51:26Z" uid="36809" user="pfoten_weg_!_" changeset="200412">
    <nd ref="287151680"/>
    <nd ref="287151841"/>
    <nd ref="287151682"/>
    <nd ref="287151842"/>
    <nd ref="287147122"/>
    <nd ref="287147123"/>
    <nd ref="287147071"/>
    <nd ref="287147072"/>
    <nd ref="287147073"/>
    <nd ref="287147074"/>
    <nd ref="287147124"/>
    <nd ref="287147075"/>
    <nd ref="287147076"/>
    <nd ref="287147125"/>
    <nd ref="287147126"/>
    <nd ref="287147127"/>
    <nd ref="287147128"/>
    <nd ref="287147129"/>
    <nd ref="287147121"/>
    <tag k="created_by" v="Potlatch 0.10b"/>
    <tag k="highway" v="track"/>
  </way>
  <way id="26224625" version="2" timestamp="2008-08-11T22:51:56Z" uid="36809" user="pfoten_weg_!_" changeset="200412">
    <nd ref="287151680"/>
    <nd ref="287151841"/>
    <nd ref="287151682"/>
    <nd ref="287151906"/>
    <nd ref="287147122"/>
    <nd ref="287147123"/>
    <nd ref="287147071"/>
    <nd ref="287147072"/>
    <nd ref="287147073"/>
    <nd ref="287147074"/>
    <nd ref="287147124"/>
    <nd ref="287147075"/>
    <nd ref="287147076"/>
    <nd ref="287147125"/>
    <nd ref="287147126"/>
    <tag k="created_by" v="Potlatch 0.10b"/>
    <tag k="highway" v="track"/>
  </way>
  <way id="26224625" version="3" timestamp="2008-08-11T22:52:12Z" uid="36809" user="pfoten_weg_!_" changeset="200412">
    <nd ref="287151680"/>
    <nd ref="287151841"/>
    <nd ref="287151682"/>
    <nd ref="287151906"/>
    <nd ref="287147122"/>
    <nd ref="287147123"/>
    <nd ref="287147071"/>
    <nd ref="287147072"/>
    <nd ref="287147073"/>
    <nd ref="287147074"/>
    <nd ref="287147124"/>
    <nd ref="287147075"/>
    <nd ref="287147076"/>
    <nd ref="287147125"/>
    <nd ref="287147126"/>
    <tag k="created_by" v="Potlatch 0.10b"/>
    <tag k="highway" v="track"/>
    <tag k="name" v="Aufkirchner Weg"/>
  </way>
  <way id="26224625" version="4" timestamp="2008-08-11T22:52:16Z" uid="36809" user="pfoten_weg_!_" changeset="200412">
    <nd ref="287151680"/>
    <nd ref="287151841"/>
    <nd ref="287151682"/>
    <nd ref="287151906"/>
    <nd ref="287147122"/>
    <tag k="created_by" v="Potlatch 0.10b"/>
    <tag k="highway" v="track"/>
    <tag k="name" v="Aufkirchner Weg"/>
  </way>
  <way id="26224625" version="5" timestamp="2008-08-11T22:52:22Z" uid="36809" user="pfoten_weg_!_" changeset="200412">
    <nd ref="287151680"/>
    <nd ref="287151841"/>
    <nd ref="287151682"/>
    <nd ref="287151906"/>
    <nd ref="287147122"/>
    <tag k="created_by" v="Potlatch 0.10b"/>
    <tag k="highway" v="residential"/>
    <tag k="name" v="Aufkirchner Weg"/>
  </way>
  <way id="26224625" version="6" timestamp="2008-08-11T23:07:10Z" uid="36809" user="pfoten_weg_!_" changeset="200412"/>
  <way id="26224628" version="1" timestamp="2008-08-11T22:51:56Z" uid="36809" user="pfoten_weg_!_" changeset="200412">
    <nd ref="287147126"/>
    <nd ref="287147127"/>
    <nd ref="287147128"/>
    <nd ref="287147129"/>
    <nd ref="287147121"/>
    <tag k="created_by" v="Potlatch 0.10b"/>
    <tag k="highway" v="track"/>
  </way>
  <way id="26224628" version="2" timestamp="2008-08-11T23:07:09Z" uid="36809" user="pfoten_weg_!_" changeset="200412">
    <nd ref="287147126"/>
    <nd ref="287147127"/>
    <nd ref="287147128"/>
    <nd ref="287147129"/>
    <nd ref="287147121"/>
    <tag k="created_by" v="RambaZamba"/>
    <tag k="highway" v="track"/>
  </way>
  <way id="26224628" version="3" timestamp="2008-11-24T16:55:17Z" uid="36809" user="pfoten_weg_!_" changeset="787663">
    <nd ref="287147126"/>
    <nd ref="287147127"/>
    <nd ref="287147128"/>
    <nd ref="287147129"/>
    <nd ref="287147121"/>
    <tag k="created_by" v="RambaZamba"/>
    <tag k="highway" v="track"/>
    <tag k="source" v="survey"/>
  </way>
  <way id="26224628" version="4" timestamp="2009-05-09T18:01:58Z" uid="106615" user="matafumar" changeset="1130542">
    <nd ref="287147126"/>
    <nd ref="287147127"/>
    <nd ref="287147128"/>
    <nd ref="287147129"/>
    <nd ref="287147121"/>
    <tag k="highway" v="track"/>
    <tag k="source" v="survey"/>
    <tag k="tracktype" v="grade2"/>
  </way>
  <way id="26224628" version="5" timestamp="2009-05-27T02:10:30Z" uid="36809" user="pfoten_weg_!_" changeset="1330475"/>
  <way id="26224632" version="1" timestamp="2008-08-11T22:52:16Z" uid="36809" user="pfoten_weg_!_" changeset="200412">
    <nd ref="287147122"/>
    <nd ref="287147123"/>
    <nd ref="287147071"/>
    <nd ref="287147072"/>
    <nd ref="287147073"/>
    <nd ref="287147074"/>
    <nd ref="287147124"/>
    <nd ref="287147075"/>
    <nd ref="287147076"/>
    <nd ref="287147125"/>
    <nd ref="287147126"/>
    <tag k="created_by" v="Potlatch 0.10b"/>
    <tag k="highway" v="track"/>
    <tag k="name" v="Aufkirchner Weg"/>
  </way>
  <way id="26224632" version="2" timestamp="2008-08-11T23:07:08Z" uid="36809" user="pfoten_weg_!_" changeset="200412">
    <nd ref="287155242"/>
    <nd ref="287147123"/>
    <nd ref="287147071"/>
    <nd ref="287147072"/>
    <nd ref="287147073"/>
    <nd ref="287147074"/>
    <nd ref="287147124"/>
    <nd ref="287147075"/>
    <nd ref="287147076"/>
    <nd ref="287147125"/>
    <nd ref="287147126"/>
    <tag k="created_by" v="RambaZamba"/>
    <tag k="highway" v="track"/>
    <tag k="name" v="Aufkirchner Weg"/>
  </way>
  <way id="26224632" version="3" timestamp="2008-11-24T16:55:16Z" uid="36809" user="pfoten_weg_!_" changeset="787663">
    <nd ref="287155242"/>
    <nd ref="287147123"/>
    <nd ref="287147071"/>
    <nd ref="287147072"/>
    <nd ref="287147073"/>
    <nd ref="287147074"/>
    <nd ref="287147124"/>
    <nd ref="287147075"/>
    <nd ref="287147076"/>
    <nd ref="287147125"/>
    <nd ref="287147126"/>
    <tag k="created_by" v="RambaZamba"/>
    <tag k="highway" v="track"/>
    <tag k="name" v="Aufkirchner Weg"/>
    <tag k="source" v="survey"/>
  </way>
  <way id="26224632" version="4" timestamp="2008-11-28T14:09:46Z" uid="38907" user="hongakonga" changeset="805411">
    <nd ref="287155242"/>
    <nd ref="287147123"/>
    <nd ref="287147071"/>
    <nd ref="287147072"/>
    <nd ref="287147073"/>
    <nd ref="287147074"/>
    <nd ref="287147124"/>
    <nd ref="287147075"/>
    <nd ref="287147076"/>
    <nd ref="287147125"/>
    <nd ref="287147126"/>
    <tag k="created_by" v="Potlatch 0.10f"/>
    <tag k="highway" v="track"/>
    <tag k="name" v="Aufkirchner Weg"/>
    <tag k="source" v="survey"/>
  </way>
  <way id="26224632" version="5" timestamp="2009-02-18T23:30:28Z" uid="36809" user="pfoten_weg_!_" changeset="561499"/>
  <way id="26224632" version="6" timestamp="2009-03-20T22:40:12Z" uid="5164" user="woodpeck" changeset="839312">
    <nd ref="287155242"/>
    <nd ref="287147123"/>
    <nd ref="287147071"/>
    <nd ref="287147072"/>
    <nd ref="287147073"/>
    <nd ref="287147074"/>
    <nd ref="287147124"/>
    <nd ref="287147075"/>
    <nd ref="287147076"/>
    <nd ref="287147125"/>
    <nd ref="287147126"/>
    <tag k="created_by" v="Potlatch 0.10f"/>
    <tag k="highway" v="track"/>
    <tag k="name" v="Aufkirchner Weg"/>
    <tag k="source" v="survey"/>
  </way>
  <way id="26224632" version="7" timestamp="2009-03-30T07:35:10Z" uid="36809" user="pfoten_weg_!_" changeset="869210"/>
  <way id="26224632" version="8" timestamp="2009-03-31T09:38:03Z" uid="5164" user="woodpeck" changeset="871977">
    <nd ref="287155242"/>
    <nd ref="287147123"/>
    <nd ref="287147071"/>
    <nd ref="287147072"/>
    <nd ref="287147073"/>
    <nd ref="287147074"/>
    <nd ref="287147124"/>
    <nd ref="287147075"/>
    <nd ref="287147076"/>
    <nd ref="287147125"/>
    <nd ref="287147126"/>
    <tag k="created_by" v="Potlatch 0.10f"/>
    <tag k="highway" v="track"/>
    <tag k="name" v="Aufkirchner Weg"/>
    <tag k="source" v="survey"/>
  </way>
  <way id="26224632" version="9" timestamp="2009-04-02T20:19:39Z" uid="36809" user="pfoten_weg_!_" changeset="104288"/>
  <way id="26224637" version="1" timestamp="2008-08-11T22:52:52Z" uid="36809" user="pfoten_weg_!_" changeset="200412">
    <nd ref="287152019"/>
    <nd ref="287151852"/>
    <nd ref="287152020"/>
    <nd ref="287151818"/>
    <nd ref="287151819"/>
    <nd ref="287151820"/>
    <nd ref="287151821"/>
    <nd ref="287152021"/>
    <nd ref="287151823"/>
    <nd ref="287151824"/>
    <nd ref="287151825"/>
    <nd ref="287151826"/>
    <nd ref="287151827"/>
    <nd ref="287151828"/>
    <nd ref="287151855"/>
    <nd ref="287151856"/>
    <nd ref="287152022"/>
    <nd ref="287151680"/>
    <tag k="created_by" v="Potlatch 0.10b"/>
    <tag k="highway" v="track"/>
  </way>
  <way id="26224637" version="2" timestamp="2008-08-11T22:54:21Z" uid="36809" user="pfoten_weg_!_" changeset="200412">
    <nd ref="287152019"/>
    <nd ref="287151852"/>
    <nd ref="287152020"/>
    <nd ref="287151818"/>
    <nd ref="287151819"/>
    <nd ref="287151820"/>
    <nd ref="287151821"/>
    <nd ref="287152021"/>
    <nd ref="287151823"/>
    <nd ref="287151824"/>
    <nd ref="287151825"/>
    <nd ref="287151826"/>
    <nd ref="287151827"/>
    <nd ref="287151828"/>
    <nd ref="287151855"/>
    <nd ref="287151856"/>
    <tag k="created_by" v="Potlatch 0.10b"/>
    <tag k="highway" v="track"/>
  </way>
  <way id="26224637" version="3" timestamp="2008-08-11T22:55:21Z" uid="36809" user="pfoten_weg_!_" changeset="200412">
    <nd ref="287152019"/>
    <nd ref="287151852"/>
    <nd ref="287152020"/>
    <nd ref="287151818"/>
    <nd ref="287151819"/>
    <nd ref="287151820"/>
    <nd ref="287151821"/>
    <nd ref="287152021"/>
    <nd ref="287151823"/>
    <nd ref="287151824"/>
    <nd ref="287151825"/>
    <nd ref="287151826"/>
    <nd ref="287151827"/>
    <nd ref="287151828"/>
    <nd ref="287151855"/>
    <nd ref="287151856"/>
    <tag k="created_by" v="Potlatch 0.10b"/>
    <tag k="highway" v="track"/>
    <tag k="name" v="Haarkirchner Strae"/>
  </way>
  <way id="26224637" version="4" timestamp="2008-08-11T22:56:59Z" uid="36809" user="pfoten_weg_!_" changeset="200412">
    <nd ref="287152019"/>
    <nd ref="287151852"/>
    <nd ref="287152020"/>
    <nd ref="287151818"/>
    <nd ref="287151819"/>
    <nd ref="287151820"/>
    <nd ref="287151821"/>
    <nd ref="287152021"/>
    <nd ref="287151823"/>
    <nd ref="287151824"/>
    <nd ref="287151825"/>
    <nd ref="287151826"/>
    <nd ref="287151827"/>
    <nd ref="287151828"/>
    <nd ref="287152838"/>
    <nd ref="287151855"/>
    <nd ref="287151856"/>
    <tag k="created_by" v="Potlatch 0.10b"/>
    <tag k="highway" v="track"/>
    <tag k="name" v="Haarkirchner Strae"/>
  </way>
  <way id="26224637" version="5" timestamp="2008-08-11T23:07:10Z" uid="36809" user="pfoten_weg_!_" changeset="200412"/>
  <way id="26224663" version="1" timestamp="2008-08-11T22:54:21Z" uid="36809" user="pfoten_weg_!_" changeset="200412">
    <nd ref="287151856"/>
    <nd ref="287152022"/>
    <nd ref="287151680"/>
    <tag k="created_by" v="Potlatch 0.10b"/>
    <tag k="highway" v="track"/>
  </way>
  <way id="26224663" version="2" timestamp="2008-08-11T22:55:30Z" uid="36809" user="pfoten_weg_!_" changeset="200412">
    <nd ref="287151856"/>
    <nd ref="287152022"/>
    <nd ref="287151680"/>
    <tag k="created_by" v="Potlatch 0.10b"/>
    <tag k="highway" v="residential"/>
    <tag k="name" v="Haarkirchner Strae"/>
  </way>
  <way id="26224663" version="3" timestamp="2008-08-11T23:07:10Z" uid="36809" user="pfoten_weg_!_" changeset="200412"/>
  <way id="26224698" version="1" timestamp="2008-08-11T22:56:13Z" uid="36809" user="pfoten_weg_!_" changeset="200412">
    <nd ref="287151680"/>
    <nd ref="287152744"/>
    <tag k="created_by" v="Potlatch 0.10b"/>
    <tag k="highway" v="residential"/>
  </way>
  <way id="26224698" version="2" timestamp="2008-08-11T22:56:33Z" uid="36809" user="pfoten_weg_!_" changeset="200412">
    <nd ref="287151680"/>
    <nd ref="287152744"/>
    <tag k="created_by" v="Potlatch 0.10b"/>
    <tag k="highway" v="residential"/>
    <tag k="name" v="Haarkirchner Strae"/>
  </way>
  <way id="26224698" version="3" timestamp="2008-08-11T23:07:11Z" uid="36809" user="pfoten_weg_!_" changeset="200412"/>
  <way id="26224721" version="9" timestamp="2011-04-30T11:41:36Z" uid="9581" user="Lobelt" changeset="8010951">
    <nd ref="254999228"/>
    <nd ref="254999229"/>
    <nd ref="1226632142"/>
    <nd ref="254999230"/>
    <nd ref="254999231"/>
    <nd ref="713527040"/>
    <nd ref="254999232"/>
    <nd ref="1266978852"/>
    <nd ref="254999233"/>
    <nd ref="1226632159"/>
    <nd ref="1071605840"/>
    <nd ref="254999234"/>
    <nd ref="1226632152"/>
    <nd ref="254999235"/>
    <nd ref="287630295"/>
    <nd ref="729649997"/>
    <nd ref="287630294"/>
    <nd ref="254999236"/>
    <nd ref="1226632151"/>
    <nd ref="254999237"/>
    <nd ref="1226632140"/>
    <nd ref="254999238"/>
    <nd ref="1226632157"/>
    <nd ref="254999239"/>
    <nd ref="1226632154"/>
    <nd ref="254999240"/>
    <nd ref="1226632149"/>
    <nd ref="254999241"/>
    <nd ref="1266978978"/>
    <nd ref="254999242"/>
    <nd ref="729647178"/>
    <nd ref="1266978834"/>
    <nd ref="254999243"/>
    <nd ref="287629156"/>
    <nd ref="254999244"/>
    <nd ref="287629155"/>
    <nd ref="287629154"/>
    <nd ref="274072763"/>
    <tag k="highway" v="secondary"/>
    <tag k="ref" v="L 455"/>
  </way>
  <way id="26224721" version="10" timestamp="2011-06-14T15:58:24Z" uid="152289" user="cgu66" changeset="8438810">
    <nd ref="254999228"/>
    <nd ref="254999229"/>
    <nd ref="1226632142"/>
    <nd ref="254999230"/>
    <nd ref="254999231"/>
    <nd ref="713527040"/>
    <nd ref="254999232"/>
    <nd ref="1266978852"/>
    <nd ref="254999233"/>
    <nd ref="1226632159"/>
    <nd ref="1071605840"/>
    <nd ref="254999234"/>
    <nd ref="1226632152"/>
    <nd ref="254999235"/>
    <nd ref="287630295"/>
    <nd ref="729649997"/>
    <nd ref="287630294"/>
    <nd ref="254999236"/>
    <nd ref="1226632151"/>
    <nd ref="254999237"/>
    <nd ref="1226632140"/>
    <nd ref="254999238"/>
    <nd ref="1226632157"/>
    <nd ref="254999239"/>
    <nd ref="1226632154"/>
    <nd ref="254999240"/>
    <nd ref="1226632149"/>
    <nd ref="254999241"/>
    <nd ref="1266978978"/>
    <nd ref="254999242"/>
    <nd ref="729647178"/>
    <nd ref="1266978834"/>
    <nd ref="254999243"/>
    <nd ref="287629156"/>
    <nd ref="254999244"/>
    <nd ref="287629155"/>
    <tag k="highway" v="secondary"/>
    <tag k="ref" v="L 455"/>
  </way>
  <way id="26224732" version="3" timestamp="2010-05-30T18:13:14Z" uid="9581" user="Lobelt" changeset="4855432">
    <nd ref="287153020"/>
    <nd ref="759795328"/>
    <nd ref="287153013"/>
    <tag k="railway" v="rail"/>
  </way>
  <way id="26224732" version="4" timestamp="2011-09-07T19:17:16Z" uid="123364" user="Tronikon" changeset="9239859">
    <nd ref="287153020"/>
    <nd ref="759795328"/>
    <nd ref="287153013"/>
    <tag k="electrified" v="no"/>
    <tag k="railway" v="rail"/>
  </way>
  <way id="26224732" version="5" timestamp="2011-11-05T11:25:02Z" uid="42429" user="FK270673" changeset="9745285">
    <nd ref="287153020"/>
    <nd ref="759795328"/>
    <nd ref="287153013"/>
    <tag k="electrified" v="no"/>
    <tag k="gauge" v="1435"/>
    <tag k="railway" v="rail"/>
  </way>
  <way id="26224732" version="6" timestamp="2012-03-18T15:02:10Z" uid="123364" user="Tronikon" changeset="11019840">
    <nd ref="287153020"/>
    <nd ref="1679938738"/>
    <nd ref="287153013"/>
    <tag k="electrified" v="no"/>
    <tag k="gauge" v="1435"/>
    <tag k="railway" v="rail"/>
  </way>
  <way id="26224922" version="6" timestamp="2008-10-05T20:56:36Z" uid="20587" user="balrog-kun" changeset="83244">
    <nd ref="296237262"/>
    <nd ref="287155145"/>
    <nd ref="302406893"/>
    <nd ref="302406892"/>
    <nd ref="287155196"/>
    <tag k="created_by" v="Potlatch 0.10b"/>
    <tag k="highway" v="residential"/>
    <tag k="name" v="Duga"/>
  </way>
  <way id="26224922" version="7" timestamp="2009-07-15T19:09:09Z" uid="55919" user="mateuszkj" changeset="1839309">
    <nd ref="296237262"/>
    <nd ref="287155145"/>
    <nd ref="302406893"/>
    <nd ref="302406892"/>
    <nd ref="442317527"/>
    <nd ref="442317515"/>
    <nd ref="287155196"/>
    <tag k="highway" v="residential"/>
    <tag k="name" v="Duga"/>
  </way>
  <way id="26224941" version="1" timestamp="2008-08-11T23:06:48Z" uid="36809" user="pfoten_weg_!_" changeset="200412">
    <nd ref="287155217"/>
    <nd ref="287155216"/>
    <nd ref="287155243"/>
    <nd ref="287152744"/>
    <tag k="created_by" v="RambaZamba"/>
    <tag k="highway" v="residential"/>
    <tag k="name" v="Haarkirchner Strae"/>
  </way>
  <way id="26224941" version="2" timestamp="2008-09-13T23:11:46Z" uid="36809" user="pfoten_weg_!_" changeset="629750">
    <nd ref="287155217"/>
    <nd ref="287155216"/>
    <nd ref="287155243"/>
    <nd ref="287152744"/>
    <tag k="created_by" v="RambaZamba"/>
    <tag k="highway" v="residential"/>
    <tag k="name" v="Haarkirchner Strae"/>
  </way>
  <way id="26224941" version="3" timestamp="2009-08-28T19:58:25Z" uid="156995" user="HampelZamba" changeset="2294580">
    <nd ref="287155217"/>
    <nd ref="287155216"/>
    <nd ref="287155243"/>
    <nd ref="287152744"/>
    <tag k="highway" v="residential"/>
    <tag k="name" v="Haarkirchner Strae"/>
  </way>
  <way id="26224941" version="4" timestamp="2009-08-28T21:28:57Z" uid="36809" user="pfoten_weg_!_" changeset="2295609">
    <nd ref="287155217"/>
    <nd ref="287155216"/>
    <nd ref="287155243"/>
    <nd ref="287152744"/>
    <tag k="discovered_by" v="RambaZamba"/>
    <tag k="highway" v="residential"/>
    <tag k="name" v="Haarkirchner Strae"/>
    <tag k="source" v="survey"/>
  </way>
  <way id="26224941" version="5" timestamp="2009-08-30T09:25:44Z" uid="156995" user="HampelZamba" changeset="2310659">
    <nd ref="287155217"/>
    <nd ref="287155216"/>
    <nd ref="287155243"/>
    <nd ref="287152744"/>
    <tag k="highway" v="residential"/>
    <tag k="name" v="Haarkirchner Strae"/>
    <tag k="source" v="survey"/>
  </way>
  <way id="26224941" version="6" timestamp="2009-08-31T17:44:56Z" uid="36809" user="pfoten_weg_!_" changeset="2328905">
    <nd ref="287155217"/>
    <nd ref="287155216"/>
    <nd ref="287155243"/>
    <nd ref="287152744"/>
    <tag k="highway" v="residential"/>
    <tag k="name" v="Haarkirchner Strae"/>
    <tag k="source" v="survey"/>
  </way>
  <way id="26224941" version="7" timestamp="2009-10-02T17:54:44Z" uid="86259" user="hasse_osm_korinthenkacker" changeset="2715119">
    <nd ref="287155217"/>
    <nd ref="287155216"/>
    <nd ref="287155243"/>
    <nd ref="287152744"/>
    <tag k="highway" v="residential"/>
    <tag k="name" v="Haarkirchner Strae"/>
  </way>
  <way id="26224941" version="8" timestamp="2010-05-30T19:38:08Z" uid="269344" user="landini" changeset="4856566">
    <nd ref="287155217"/>
    <nd ref="287155216"/>
    <nd ref="287155243"/>
    <nd ref="287152744"/>
    <tag k="highway" v="residential"/>
    <tag k="name" v="Haarkirchener Strae"/>
  </way>
  <way id="26224941" version="9" timestamp="2010-08-09T17:45:56Z" uid="269344" user="landini" changeset="5446327">
    <nd ref="268524080"/>
    <nd ref="367156930"/>
    <nd ref="367156925"/>
    <nd ref="367156928"/>
    <nd ref="367156927"/>
    <nd ref="367156931"/>
    <nd ref="367156929"/>
    <nd ref="287152744"/>
    <nd ref="287155243"/>
    <nd ref="287155216"/>
    <nd ref="287155217"/>
    <tag k="highway" v="residential"/>
    <tag k="name" v="Haarkirchener Strae"/>
  </way>
  <way id="26224942" version="1" timestamp="2008-08-11T23:06:48Z" uid="36809" user="pfoten_weg_!_" changeset="200412">
    <nd ref="287155220"/>
    <nd ref="287155227"/>
    <nd ref="287155239"/>
    <nd ref="287155236"/>
    <nd ref="287155241"/>
    <nd ref="287155219"/>
    <nd ref="287155223"/>
    <nd ref="287155234"/>
    <nd ref="287155229"/>
    <nd ref="287155231"/>
    <nd ref="287155230"/>
    <nd ref="287155237"/>
    <nd ref="287155233"/>
    <nd ref="287155222"/>
    <nd ref="287155226"/>
    <nd ref="287155224"/>
    <nd ref="287155217"/>
    <tag k="created_by" v="RambaZamba"/>
    <tag k="highway" v="track"/>
    <tag k="name" v="Haarkirchner Strae"/>
  </way>
  <way id="26224942" version="2" timestamp="2008-08-12T18:55:10Z" uid="36809" user="pfoten_weg_!_" changeset="210447">
    <nd ref="287155220"/>
    <nd ref="287155227"/>
    <nd ref="287155239"/>
    <nd ref="287155236"/>
    <nd ref="287155241"/>
    <nd ref="287155219"/>
    <nd ref="287155223"/>
    <nd ref="287155234"/>
    <nd ref="287155229"/>
    <nd ref="287155231"/>
    <nd ref="287155230"/>
    <nd ref="287155237"/>
    <nd ref="287155233"/>
    <nd ref="287155222"/>
    <nd ref="287155226"/>
    <nd ref="287155224"/>
    <nd ref="287155217"/>
    <tag k="created_by" v="RambaZamba"/>
    <tag k="highway" v="track"/>
    <tag k="name" v="Haarkirchner Weg"/>
  </way>
  <way id="26224942" version="3" timestamp="2008-08-30T16:07:07Z" uid="13203" user="bahnpirat" changeset="460912">
    <nd ref="287155220"/>
    <nd ref="287155227"/>
    <nd ref="287155239"/>
    <nd ref="287155236"/>
    <nd ref="287155241"/>
    <nd ref="287155219"/>
    <nd ref="287155223"/>
    <nd ref="287155234"/>
    <nd ref="287155229"/>
    <nd ref="287155231"/>
    <nd ref="287155230"/>
    <nd ref="287155237"/>
    <nd ref="287155233"/>
    <nd ref="287155222"/>
    <nd ref="287155226"/>
    <nd ref="287155224"/>
    <nd ref="287155217"/>
    <tag k="created_by" v="Potlatch 0.10b"/>
    <tag k="highway" v="track"/>
    <tag k="name" v="Haarkirchner Weg"/>
    <tag k="tracktype" v="grade1"/>
  </way>
  <way id="26224942" version="4" timestamp="2008-09-13T23:12:18Z" uid="36809" user="pfoten_weg_!_" changeset="629750"/>
  <way id="26224943" version="1" timestamp="2008-08-11T23:06:49Z" uid="36809" user="pfoten_weg_!_" changeset="200412">
    <nd ref="287155243"/>
    <nd ref="287155244"/>
    <nd ref="287155247"/>
    <nd ref="287155248"/>
    <nd ref="287155242"/>
    <tag k="created_by" v="RambaZamba"/>
    <tag k="highway" v="residential"/>
    <tag k="name" v="Aufkirchner Weg"/>
  </way>
  <way id="26224943" version="2" timestamp="2008-11-28T14:09:38Z" uid="38907" user="hongakonga" changeset="805411">
    <nd ref="287155243"/>
    <nd ref="287155244"/>
    <nd ref="287155247"/>
    <nd ref="287155248"/>
    <nd ref="287155242"/>
    <tag k="created_by" v="Potlatch 0.10f"/>
    <tag k="highway" v="residential"/>
    <tag k="name" v="Aufkirchner Weg"/>
  </way>
  <way id="26224943" version="3" timestamp="2009-03-30T07:21:09Z" uid="36809" user="pfoten_weg_!_" changeset="869210"/>
  <way id="26224943" version="4" timestamp="2009-03-31T09:38:05Z" uid="5164" user="woodpeck" changeset="871977">
    <nd ref="287155243"/>
    <nd ref="287155244"/>
    <nd ref="287155247"/>
    <nd ref="287155248"/>
    <nd ref="287155242"/>
    <tag k="created_by" v="Potlatch 0.10f"/>
    <tag k="highway" v="residential"/>
    <tag k="name" v="Aufkirchner Weg"/>
  </way>
  <way id="26224943" version="5" timestamp="2009-04-02T20:19:41Z" uid="36809" user="pfoten_weg_!_" changeset="104288"/>
  <way id="26224944" version="1" timestamp="2008-08-11T23:06:49Z" uid="36809" user="pfoten_weg_!_" changeset="200412">
    <nd ref="287155269"/>
    <nd ref="287155284"/>
    <nd ref="287155273"/>
    <nd ref="287155251"/>
    <nd ref="287155258"/>
    <nd ref="287155253"/>
    <nd ref="287155280"/>
    <nd ref="287155272"/>
    <nd ref="287155263"/>
    <nd ref="287155257"/>
    <nd ref="287155249"/>
    <nd ref="287155259"/>
    <nd ref="287155254"/>
    <nd ref="287155278"/>
    <nd ref="287155277"/>
    <nd ref="287155282"/>
    <nd ref="287155260"/>
    <nd ref="287155220"/>
    <tag k="created_by" v="RambaZamba"/>
    <tag k="highway" v="track"/>
  </way>
  <way id="26224944" version="2" timestamp="2008-09-13T23:11:41Z" uid="36809" user="pfoten_weg_!_" changeset="629750">
    <nd ref="287155269"/>
    <nd ref="287155284"/>
    <nd ref="287155273"/>
    <nd ref="287155251"/>
    <nd ref="287155258"/>
    <nd ref="287155253"/>
    <nd ref="287155280"/>
    <nd ref="287155272"/>
    <nd ref="287155263"/>
    <nd ref="287155257"/>
    <nd ref="287155249"/>
    <nd ref="287155259"/>
    <nd ref="287155254"/>
    <nd ref="287155278"/>
    <nd ref="287155277"/>
    <nd ref="287155282"/>
    <nd ref="287155260"/>
    <nd ref="287155220"/>
    <tag k="created_by" v="RambaZamba"/>
    <tag k="highway" v="track"/>
  </way>
  <way id="26224944" version="3" timestamp="2009-08-28T19:58:25Z" uid="156995" user="HampelZamba" changeset="2294580">
    <nd ref="287155269"/>
    <nd ref="287155284"/>
    <nd ref="287155273"/>
    <nd ref="287155251"/>
    <nd ref="287155258"/>
    <nd ref="287155253"/>
    <nd ref="287155280"/>
    <nd ref="287155272"/>
    <nd ref="287155263"/>
    <nd ref="287155257"/>
    <nd ref="287155249"/>
    <nd ref="287155259"/>
    <nd ref="287155254"/>
    <nd ref="287155278"/>
    <nd ref="287155277"/>
    <nd ref="287155282"/>
    <nd ref="287155260"/>
    <nd ref="287155220"/>
    <tag k="highway" v="track"/>
  </way>
  <way id="26224944" version="4" timestamp="2009-08-28T21:28:15Z" uid="36809" user="pfoten_weg_!_" changeset="2295609">
    <nd ref="287155269"/>
    <nd ref="287155284"/>
    <nd ref="287155273"/>
    <nd ref="287155251"/>
    <nd ref="287155258"/>
    <nd ref="287155253"/>
    <nd ref="287155280"/>
    <nd ref="287155272"/>
    <nd ref="287155263"/>
    <nd ref="287155257"/>
    <nd ref="287155249"/>
    <nd ref="287155259"/>
    <nd ref="287155254"/>
    <nd ref="287155278"/>
    <nd ref="287155277"/>
    <nd ref="287155282"/>
    <nd ref="287155260"/>
    <nd ref="287155220"/>
    <tag k="discovered_by" v="RambaZamba"/>
    <tag k="highway" v="track"/>
    <tag k="source" v="survey"/>
  </way>
  <way id="26224944" version="5" timestamp="2009-08-30T09:25:44Z" uid="156995" user="HampelZamba" changeset="2310659">
    <nd ref="287155269"/>
    <nd ref="287155284"/>
    <nd ref="287155273"/>
    <nd ref="287155251"/>
    <nd ref="287155258"/>
    <nd ref="287155253"/>
    <nd ref="287155280"/>
    <nd ref="287155272"/>
    <nd ref="287155263"/>
    <nd ref="287155257"/>
    <nd ref="287155249"/>
    <nd ref="287155259"/>
    <nd ref="287155254"/>
    <nd ref="287155278"/>
    <nd ref="287155277"/>
    <nd ref="287155282"/>
    <nd ref="287155260"/>
    <nd ref="287155220"/>
    <tag k="highway" v="track"/>
    <tag k="source" v="survey"/>
  </way>
  <way id="26224944" version="6" timestamp="2009-08-31T17:44:16Z" uid="36809" user="pfoten_weg_!_" changeset="2328905">
    <nd ref="287155269"/>
    <nd ref="287155284"/>
    <nd ref="287155273"/>
    <nd ref="287155251"/>
    <nd ref="287155258"/>
    <nd ref="287155253"/>
    <nd ref="287155280"/>
    <nd ref="287155272"/>
    <nd ref="287155263"/>
    <nd ref="287155257"/>
    <nd ref="287155249"/>
    <nd ref="287155259"/>
    <nd ref="287155254"/>
    <nd ref="287155278"/>
    <nd ref="287155277"/>
    <nd ref="287155282"/>
    <nd ref="287155260"/>
    <nd ref="287155220"/>
    <tag k="highway" v="track"/>
    <tag k="source" v="survey"/>
  </way>
  <way id="26224944" version="7" timestamp="2009-09-01T18:00:57Z" uid="62236" user="Paulchen Panther" changeset="2340768">
    <nd ref="287155269"/>
    <nd ref="287155284"/>
    <nd ref="287155273"/>
    <nd ref="287155251"/>
    <nd ref="287155258"/>
    <nd ref="287155253"/>
    <nd ref="287155280"/>
    <nd ref="287155272"/>
    <nd ref="287155263"/>
    <tag k="highway" v="track"/>
    <tag k="source" v="survey"/>
  </way>
  <way id="26224944" version="8" timestamp="2009-10-12T21:19:22Z" uid="36809" user="pfoten_weg_!_" changeset="2831084">
    <nd ref="287155269"/>
    <nd ref="287155284"/>
    <nd ref="287155273"/>
    <nd ref="287155251"/>
    <nd ref="287155258"/>
    <nd ref="287155253"/>
    <nd ref="287155280"/>
    <nd ref="287155272"/>
    <nd ref="287155263"/>
    <tag k="highway" v="track"/>
  </way>
  <way id="26224952" version="2" timestamp="2009-08-30T13:15:37Z" uid="74617" user="JohnSmith" changeset="2313326">
    <nd ref="287152760"/>
    <nd ref="287152761"/>
    <nd ref="287152762"/>
    <nd ref="287152763"/>
    <nd ref="287152764"/>
    <nd ref="287152765"/>
    <nd ref="287152774"/>
    <nd ref="287152760"/>
    <tag k="natural" v="land"/>
  </way>
  <way id="26224952" version="3" timestamp="2010-01-24T17:54:45Z" uid="83382" user="c-j-b" changeset="3703772">
    <nd ref="287152760"/>
    <nd ref="287152761"/>
    <nd ref="287152762"/>
    <nd ref="287152763"/>
    <nd ref="287152764"/>
    <nd ref="287152765"/>
    <nd ref="287152774"/>
    <nd ref="287152760"/>
    <tag k="layer" v="1"/>
    <tag k="natural" v="land"/>
  </way>
  <way id="26224954" version="2" timestamp="2009-08-30T13:15:37Z" uid="74617" user="JohnSmith" changeset="2313326">
    <nd ref="287152775"/>
    <nd ref="287152776"/>
    <nd ref="287152777"/>
    <nd ref="287152778"/>
    <nd ref="287152779"/>
    <nd ref="287152782"/>
    <nd ref="287152783"/>
    <nd ref="287152784"/>
    <nd ref="287152785"/>
    <nd ref="287152786"/>
    <nd ref="287152787"/>
    <nd ref="287152788"/>
    <nd ref="287152789"/>
    <nd ref="287152775"/>
    <tag k="natural" v="land"/>
  </way>
  <way id="26224954" version="3" timestamp="2010-01-24T17:54:56Z" uid="83382" user="c-j-b" changeset="3703772">
    <nd ref="287152775"/>
    <nd ref="287152776"/>
    <nd ref="287152777"/>
    <nd ref="287152778"/>
    <nd ref="287152779"/>
    <nd ref="287152782"/>
    <nd ref="287152783"/>
    <nd ref="287152784"/>
    <nd ref="287152785"/>
    <nd ref="287152786"/>
    <nd ref="287152787"/>
    <nd ref="287152788"/>
    <nd ref="287152789"/>
    <nd ref="287152775"/>
    <tag k="layer" v="1"/>
    <tag k="natural" v="land"/>
  </way>
  <way id="26224955" version="2" timestamp="2009-08-30T13:15:37Z" uid="74617" user="JohnSmith" changeset="2313326">
    <nd ref="287152790"/>
    <nd ref="287152792"/>
    <nd ref="287152793"/>
    <nd ref="287152811"/>
    <nd ref="287152812"/>
    <nd ref="287152813"/>
    <nd ref="287152814"/>
    <nd ref="287152815"/>
    <nd ref="287152816"/>
    <nd ref="287152790"/>
    <tag k="natural" v="land"/>
  </way>
  <way id="26224955" version="3" timestamp="2010-01-24T17:54:49Z" uid="83382" user="c-j-b" changeset="3703772">
    <nd ref="287152790"/>
    <nd ref="287152792"/>
    <nd ref="287152793"/>
    <nd ref="287152811"/>
    <nd ref="287152812"/>
    <nd ref="287152813"/>
    <nd ref="287152814"/>
    <nd ref="287152815"/>
    <nd ref="287152816"/>
    <nd ref="287152790"/>
    <tag k="layer" v="1"/>
    <tag k="natural" v="land"/>
  </way>
  <way id="26224982" version="7" timestamp="2010-06-13T09:49:06Z" uid="30201" user="rrankin" changeset="4976942">
    <nd ref="287153644"/>
    <nd ref="287153645"/>
    <nd ref="287153647"/>
    <nd ref="287153649"/>
    <nd ref="287153651"/>
    <nd ref="287153652"/>
    <nd ref="287153653"/>
    <nd ref="287153654"/>
    <nd ref="287153656"/>
    <nd ref="287153657"/>
    <nd ref="287153659"/>
    <nd ref="287153660"/>
    <nd ref="287153663"/>
    <nd ref="287153664"/>
    <nd ref="287153665"/>
    <nd ref="287153666"/>
    <nd ref="287153670"/>
    <nd ref="287153672"/>
    <nd ref="287153673"/>
    <nd ref="287153674"/>
    <nd ref="287153676"/>
    <nd ref="287153679"/>
    <nd ref="287153680"/>
    <nd ref="287153682"/>
    <nd ref="287153683"/>
    <nd ref="287153684"/>
    <nd ref="287153685"/>
    <nd ref="287153687"/>
    <nd ref="287153688"/>
    <nd ref="287153689"/>
    <nd ref="287153691"/>
    <nd ref="287153692"/>
    <nd ref="287153695"/>
    <nd ref="287153700"/>
    <nd ref="287153704"/>
    <nd ref="287153717"/>
    <nd ref="287153729"/>
    <nd ref="287153742"/>
    <nd ref="287153748"/>
    <nd ref="287153757"/>
    <nd ref="287153761"/>
    <nd ref="287153762"/>
    <nd ref="287153768"/>
    <nd ref="287153772"/>
    <nd ref="287153781"/>
    <nd ref="287153788"/>
    <nd ref="287153795"/>
    <nd ref="287153802"/>
    <nd ref="414559626"/>
    <nd ref="414559623"/>
    <nd ref="287153809"/>
    <nd ref="287153817"/>
    <nd ref="287153823"/>
    <nd ref="287153829"/>
    <nd ref="287153835"/>
    <nd ref="287153841"/>
    <nd ref="287153849"/>
    <nd ref="287153856"/>
    <nd ref="287153867"/>
    <nd ref="287153883"/>
    <nd ref="287153896"/>
    <nd ref="287153904"/>
    <nd ref="414559616"/>
    <nd ref="414559615"/>
    <nd ref="287153911"/>
    <nd ref="287153912"/>
    <nd ref="287153914"/>
    <nd ref="287153915"/>
    <nd ref="287153916"/>
    <nd ref="287153917"/>
    <nd ref="287153923"/>
    <nd ref="287153929"/>
    <nd ref="287153934"/>
    <nd ref="287153940"/>
    <nd ref="287153945"/>
    <nd ref="287154607"/>
    <nd ref="287153952"/>
    <nd ref="287153961"/>
    <nd ref="287153962"/>
    <nd ref="287153966"/>
    <nd ref="287153973"/>
    <nd ref="287153976"/>
    <nd ref="287154906"/>
    <nd ref="287154418"/>
    <nd ref="287153977"/>
    <nd ref="287153978"/>
    <nd ref="287154774"/>
    <nd ref="287153981"/>
    <nd ref="287153982"/>
    <nd ref="287153984"/>
    <nd ref="287153985"/>
    <nd ref="287153986"/>
    <nd ref="771213024"/>
    <nd ref="771213025"/>
    <nd ref="287153987"/>
    <nd ref="445359391"/>
    <nd ref="287153988"/>
    <nd ref="287154000"/>
    <nd ref="445366974"/>
    <nd ref="445366986"/>
    <nd ref="445366997"/>
    <nd ref="287154015"/>
    <nd ref="287154019"/>
    <nd ref="287154020"/>
    <nd ref="287154022"/>
    <nd ref="445367075"/>
    <nd ref="445367071"/>
    <nd ref="287153312"/>
    <nd ref="287153318"/>
    <nd ref="287153331"/>
    <nd ref="287153332"/>
    <nd ref="287153334"/>
    <nd ref="287153335"/>
    <nd ref="287153337"/>
    <nd ref="445359738"/>
    <nd ref="287153338"/>
    <nd ref="287153340"/>
    <nd ref="287153342"/>
    <nd ref="445359672"/>
    <nd ref="287153343"/>
    <nd ref="287153345"/>
    <nd ref="287153346"/>
    <nd ref="287153348"/>
    <nd ref="287153350"/>
    <nd ref="287153351"/>
    <nd ref="287153353"/>
    <nd ref="287153311"/>
    <nd ref="287154023"/>
    <nd ref="287154026"/>
    <nd ref="287154027"/>
    <nd ref="287154029"/>
    <nd ref="287154031"/>
    <nd ref="287154032"/>
    <nd ref="287154033"/>
    <nd ref="287154034"/>
    <nd ref="287154036"/>
    <nd ref="287154037"/>
    <nd ref="287154043"/>
    <nd ref="287154057"/>
    <nd ref="287154059"/>
    <nd ref="287153644"/>
    <tag k="landuse" v="residential"/>
  </way>
</osm>
