<?xml version='1.0' encoding='UTF-8'?>
<osm version="0.6" generator="libosmium/2.20.0">
  <way id="26302110" version="7" timestamp="2011-02-22T08:45:08Z" uid="20587" user="balrog-kun" changeset="7361212">
    <nd ref="288138193"/>
    <nd ref="251533762"/>
    <nd ref="251805947"/>
    <nd ref="251979823"/>
    <nd ref="251806054"/>
    <nd ref="251979834"/>
    <nd ref="251806100"/>
    <nd ref="251980306"/>
    <nd ref="251806190"/>
    <nd ref="1116410557"/>
    <nd ref="1166225400"/>
    <nd ref="251805873"/>
    <tag k="ccc" v="cyclingpath"/>
    <tag k="cycleway" v="lane"/>
    <tag k="highway" v="unclassified"/>
    <tag k="name" v="Tennyson Street"/>
  </way>
  <way id="26302110" version="8" timestamp="2011-05-25T05:46:24Z" uid="341519" user="lcmortensen" changeset="8241593">
    <nd ref="288138193"/>
    <nd ref="251533762"/>
    <nd ref="251805947"/>
    <tag k="ccc" v="cyclingpath"/>
    <tag k="cycleway" v="lane"/>
    <tag k="highway" v="unclassified"/>
    <tag k="name" v="Tennyson Street"/>
  </way>
  <way id="26302140" version="3" timestamp="2010-10-05T01:34:41Z" uid="20587" user="balrog-kun" changeset="5958352">
    <nd ref="207511824"/>
    <nd ref="207519161"/>
    <nd ref="207511826"/>
    <nd ref="321460548"/>
    <nd ref="207511828"/>
    <nd ref="207511830"/>
    <nd ref="207511832"/>
    <nd ref="207511835"/>
    <tag k="highway" v="tertiary"/>
    <tag k="name" v="Aleja pułkownika Władysława Beliny-Prażmowskiego"/>
    <tag k="oneway" v="yes"/>
  </way>
  <way id="26302140" version="4" timestamp="2010-10-24T17:49:41Z" uid="318514" user="eleaar" changeset="6159850">
    <nd ref="207511824"/>
    <nd ref="207519161"/>
    <nd ref="207511826"/>
    <nd ref="321460548"/>
    <nd ref="207511828"/>
    <nd ref="207511830"/>
    <nd ref="207511832"/>
    <nd ref="963659892"/>
    <nd ref="207511835"/>
    <tag k="highway" v="tertiary"/>
    <tag k="name" v="Aleja pułkownika Władysława Beliny-Prażmowskiego"/>
    <tag k="oneway" v="yes"/>
  </way>
  <way id="26302140" version="5" timestamp="2010-10-24T18:16:01Z" uid="318514" user="eleaar" changeset="6160333">
    <nd ref="207511824"/>
    <nd ref="207519161"/>
    <nd ref="207511826"/>
    <nd ref="321460548"/>
    <nd ref="207511828"/>
    <nd ref="207511830"/>
    <nd ref="207511832"/>
    <nd ref="963659892"/>
    <tag k="highway" v="tertiary"/>
    <tag k="name" v="Aleja pułkownika Władysława Beliny-Prażmowskiego"/>
    <tag k="oneway" v="yes"/>
  </way>
  <way id="26302140" version="6" timestamp="2012-03-10T17:28:12Z" uid="196804" user="hektor" changeset="10934527">
    <nd ref="207511824"/>
    <nd ref="207519161"/>
    <nd ref="1668947309"/>
    <nd ref="207511826"/>
    <nd ref="321460548"/>
    <nd ref="207511828"/>
    <nd ref="207511830"/>
    <nd ref="207511832"/>
    <nd ref="963659892"/>
    <tag k="highway" v="tertiary"/>
    <tag k="name" v="Aleja pułkownika Władysława Beliny-Prażmowskiego"/>
    <tag k="oneway" v="yes"/>
  </way>
  <way id="26302146" version="6" timestamp="2010-10-05T01:33:45Z" uid="20587" user="balrog-kun" changeset="5958352">
    <nd ref="207518766"/>
    <nd ref="207511907"/>
    <nd ref="207511908"/>
    <nd ref="596220520"/>
    <nd ref="931906211"/>
    <nd ref="316295947"/>
    <nd ref="206371912"/>
    <tag k="highway" v="tertiary"/>
    <tag k="name" v="Aleja pułkownika Władysława Beliny-Prażmowskiego"/>
    <tag k="oneway" v="yes"/>
  </way>
  <way id="26302239" version="5" timestamp="2009-06-08T14:53:42Z" uid="58091" user="Andreas M" changeset="1459485">
    <nd ref="288138890"/>
    <nd ref="288139244"/>
    <nd ref="288138892"/>
    <nd ref="288139318"/>
    <nd ref="288139247"/>
    <nd ref="288139319"/>
    <nd ref="288138890"/>
    <tag k="amenity" v="recycling"/>
    <tag k="created_by" v="Potlatch 0.10f"/>
    <tag k="name" v="Mistplatz Baumgarten"/>
  </way>
  <way id="26302239" version="6" timestamp="2011-10-09T21:04:15Z" uid="78656" user="Walter Schlögl" changeset="9517369">
    <nd ref="288138890"/>
    <nd ref="288139244"/>
    <nd ref="288138892"/>
    <nd ref="288139318"/>
    <nd ref="288139247"/>
    <nd ref="288139319"/>
    <nd ref="288138890"/>
    <tag k="amenity" v="recycling"/>
    <tag k="name" v="Mistplatz Baumgarten"/>
    <tag k="recycling_type" v="centre"/>
  </way>
  <way id="26302239" version="7" timestamp="2011-10-10T20:57:23Z" uid="78656" user="Walter Schlögl" changeset="9526098">
    <nd ref="288138890"/>
    <nd ref="288139244"/>
    <nd ref="288138892"/>
    <nd ref="288139318"/>
    <nd ref="288139247"/>
    <nd ref="288139319"/>
    <nd ref="288138890"/>
    <tag k="addr:city" v="Wien"/>
    <tag k="addr:country" v="AT"/>
    <tag k="addr:housenumber" v="7-9"/>
    <tag k="addr:postcode" v="1140"/>
    <tag k="addr:street" v="Zehetnergasse"/>
    <tag k="amenity" v="recycling"/>
    <tag k="landuse" v="landfill"/>
    <tag k="name" v="Mistplatz Baumgarten"/>
    <tag k="opening_hours" v="Mo-Sa 07:00-18:00"/>
    <tag k="recycling_type" v="centre"/>
  </way>
  <way id="26302262" version="6" timestamp="2009-11-02T00:15:25Z" uid="20587" user="balrog-kun" changeset="3012820">
    <nd ref="236181677"/>
    <nd ref="236175574"/>
    <nd ref="243645073"/>
    <nd ref="271136156"/>
    <nd ref="282874850"/>
    <nd ref="236175738"/>
    <nd ref="236174458"/>
    <nd ref="236101995"/>
    <tag k="highway" v="primary"/>
    <tag k="lanes" v="3"/>
    <tag k="name" v="Generała Tadeusza Bora-Komorowskiego"/>
    <tag k="oneway" v="yes"/>
    <tag k="ref" v="79"/>
  </way>
  <way id="26302262" version="7" timestamp="2010-10-24T13:40:23Z" uid="318514" user="eleaar" changeset="6156757">
    <nd ref="236181677"/>
    <nd ref="236175574"/>
    <nd ref="243645073"/>
    <nd ref="271136156"/>
    <nd ref="282874850"/>
    <tag k="highway" v="primary"/>
    <tag k="lanes" v="3"/>
    <tag k="name" v="Generała Tadeusza Bora-Komorowskiego"/>
    <tag k="oneway" v="yes"/>
    <tag k="ref" v="79"/>
  </way>
  <way id="26302262" version="8" timestamp="2010-11-13T22:19:42Z" uid="256858" user="lukeeu" changeset="6362587">
    <nd ref="236181677"/>
    <nd ref="236175574"/>
    <nd ref="243645073"/>
    <nd ref="271136156"/>
    <nd ref="282874850"/>
    <tag k="highway" v="primary"/>
    <tag k="lanes" v="3"/>
    <tag k="maxspeed" v="70"/>
    <tag k="name" v="Generała Tadeusza Bora-Komorowskiego"/>
    <tag k="oneway" v="yes"/>
    <tag k="ref" v="79"/>
  </way>
  <way id="26302262" version="9" timestamp="2011-02-24T09:16:31Z" uid="164910" user="ppece" changeset="7379716">
    <nd ref="236181677"/>
    <nd ref="236175574"/>
    <nd ref="243645073"/>
    <nd ref="1169655063"/>
    <nd ref="271136156"/>
    <nd ref="282874850"/>
    <tag k="highway" v="primary"/>
    <tag k="lanes" v="3"/>
    <tag k="maxspeed" v="70"/>
    <tag k="name" v="Generała Tadeusza Bora-Komorowskiego"/>
    <tag k="oneway" v="yes"/>
    <tag k="ref" v="79"/>
  </way>
  <way id="26302267" version="4" timestamp="2009-11-02T00:38:30Z" uid="20587" user="balrog-kun" changeset="3012901">
    <nd ref="236178781"/>
    <nd ref="236179541"/>
    <nd ref="236180372"/>
    <tag k="highway" v="primary"/>
    <tag k="lanes" v="2"/>
    <tag k="name" v="Generała Tadeusza Bora-Komorowskiego"/>
    <tag k="oneway" v="yes"/>
    <tag k="ref" v="79"/>
  </way>
  <way id="26302267" version="5" timestamp="2010-11-13T22:19:49Z" uid="256858" user="lukeeu" changeset="6362587">
    <nd ref="236178781"/>
    <nd ref="236179541"/>
    <nd ref="236180372"/>
    <tag k="highway" v="primary"/>
    <tag k="lanes" v="2"/>
    <tag k="maxspeed" v="70"/>
    <tag k="name" v="Generała Tadeusza Bora-Komorowskiego"/>
    <tag k="oneway" v="yes"/>
    <tag k="ref" v="79"/>
  </way>
  <way id="26302303" version="4" timestamp="2009-12-20T21:21:01Z" uid="30201" user="rrankin" changeset="3417105">
    <nd ref="288139434"/>
    <nd ref="82460836"/>
    <nd ref="120291772"/>
    <nd ref="267448515"/>
    <nd ref="29941971"/>
    <tag k="highway" v="tertiary"/>
    <tag k="lcn" v="yes"/>
    <tag k="maxspeed" v="50"/>
    <tag k="name" v="Grosvenor Crescent"/>
  </way>
  <way id="26302303" version="5" timestamp="2010-11-01T10:00:38Z" uid="7617" user="Franc" changeset="6252988">
    <nd ref="288139434"/>
    <nd ref="82460836"/>
    <nd ref="120291772"/>
    <nd ref="973571178"/>
    <nd ref="267448515"/>
    <nd ref="973571183"/>
    <nd ref="29941971"/>
    <tag k="highway" v="tertiary"/>
    <tag k="lcn" v="yes"/>
    <tag k="maxspeed" v="50"/>
    <tag k="name" v="Grosvenor Crescent"/>
  </way>
  <way id="26302303" version="6" timestamp="2012-03-24T21:38:48Z" uid="20949" user="Ebenezer" changeset="11089261">
    <nd ref="288139434"/>
    <nd ref="82460836"/>
    <nd ref="120291772"/>
    <nd ref="973571178"/>
    <nd ref="267448515"/>
    <nd ref="973571183"/>
    <nd ref="1689329529"/>
    <tag k="highway" v="tertiary"/>
    <tag k="lcn" v="yes"/>
    <tag k="maxspeed" v="50"/>
    <tag k="name" v="Grosvenor Crescent"/>
  </way>
  <way id="26302306" version="4" timestamp="2009-12-29T01:03:32Z" uid="7617" user="Franc" changeset="3477329">
    <nd ref="288139486"/>
    <nd ref="29149612"/>
    <nd ref="257603128"/>
    <nd ref="600582360"/>
    <nd ref="288139434"/>
    <tag k="highway" v="tertiary"/>
    <tag k="lcn" v="yes"/>
    <tag k="maxspeed" v="40"/>
    <tag k="name" v="Grosvenor Crescent"/>
  </way>
  <way id="26302334" version="3" timestamp="2009-12-25T11:21:00Z" uid="30201" user="rrankin" changeset="3447390">
    <nd ref="262309185"/>
    <nd ref="29942535"/>
    <nd ref="33925056"/>
    <nd ref="42800457"/>
    <nd ref="33924951"/>
    <nd ref="31244211"/>
    <nd ref="42800530"/>
    <nd ref="259761272"/>
    <nd ref="599205480"/>
    <nd ref="31243758"/>
    <nd ref="31243760"/>
    <nd ref="599205481"/>
    <nd ref="31243757"/>
    <tag k="highway" v="residential"/>
    <tag k="maxspeed" v="50"/>
    <tag k="name" v="Smith Street"/>
  </way>
  <way id="26302334" version="4" timestamp="2009-12-29T01:03:32Z" uid="7617" user="Franc" changeset="3477329">
    <nd ref="262309185"/>
    <nd ref="29942535"/>
    <nd ref="33925056"/>
    <nd ref="42800457"/>
    <nd ref="33924951"/>
    <nd ref="600582361"/>
    <nd ref="31244211"/>
    <nd ref="42800530"/>
    <nd ref="259761272"/>
    <nd ref="599205480"/>
    <nd ref="31243758"/>
    <nd ref="31243760"/>
    <nd ref="599205481"/>
    <nd ref="31243757"/>
    <tag k="highway" v="residential"/>
    <tag k="maxspeed" v="50"/>
    <tag k="name" v="Smith Street"/>
  </way>
  <way id="26302334" version="5" timestamp="2010-01-24T05:50:03Z" uid="20949" user="Ebenezer" changeset="3697986">
    <nd ref="262309185"/>
    <nd ref="29942535"/>
    <nd ref="33925056"/>
    <nd ref="42800457"/>
    <nd ref="33924951"/>
    <nd ref="600582361"/>
    <nd ref="31244211"/>
    <tag k="highway" v="residential"/>
    <tag k="maxspeed" v="50"/>
    <tag k="name" v="Smith Street"/>
  </way>
  <way id="26302334" version="6" timestamp="2010-04-10T22:26:30Z" uid="20949" user="Ebenezer" changeset="4388082">
    <nd ref="262309185"/>
    <nd ref="29942535"/>
    <nd ref="33925056"/>
    <nd ref="42800457"/>
    <nd ref="33924951"/>
    <nd ref="600582361"/>
    <nd ref="31244211"/>
    <tag k="highway" v="residential"/>
    <tag k="lcn" v="yes"/>
    <tag k="maxspeed" v="50"/>
    <tag k="name" v="Smith Street"/>
  </way>
  <way id="26302512" version="2" timestamp="2010-02-14T15:44:20Z" uid="74617" user="JohnSmith" changeset="3874884">
    <nd ref="288140809"/>
    <nd ref="288140922"/>
    <nd ref="158317928"/>
    <nd ref="157974578"/>
    <tag k="highway" v="residential"/>
    <tag k="maxspeed" v="50"/>
    <tag k="name" v="Newton Street"/>
  </way>
  <way id="26302512" version="3" timestamp="2012-01-17T02:29:33Z" uid="147510" user="woodpeck_fixbot" changeset="10413896">
    <nd ref="288140809"/>
    <nd ref="288140922"/>
    <nd ref="158317928"/>
    <nd ref="157974578"/>
    <tag k="highway" v="residential"/>
    <tag k="name" v="Newton Street"/>
  </way>
  <way id="26302520" version="2" timestamp="2010-02-14T15:44:21Z" uid="74617" user="JohnSmith" changeset="3874884">
    <nd ref="288140922"/>
    <nd ref="288141039"/>
    <nd ref="288141040"/>
    <nd ref="288141041"/>
    <nd ref="288141042"/>
    <tag k="highway" v="residential"/>
    <tag k="maxspeed" v="50"/>
    <tag k="name" v="Corner Street"/>
  </way>
  <way id="26302520" version="3" timestamp="2012-01-17T02:29:34Z" uid="147510" user="woodpeck_fixbot" changeset="10413896">
    <nd ref="288140922"/>
    <nd ref="288141039"/>
    <nd ref="288141040"/>
    <nd ref="288141041"/>
    <nd ref="288141042"/>
    <tag k="highway" v="residential"/>
    <tag k="name" v="Corner Street"/>
  </way>
  <way id="26302532" version="3" timestamp="2010-02-14T15:44:20Z" uid="74617" user="JohnSmith" changeset="3874884">
    <nd ref="288141041"/>
    <nd ref="288141218"/>
    <nd ref="158023220"/>
    <tag k="highway" v="residential"/>
    <tag k="maxspeed" v="50"/>
    <tag k="name" v="Robe Street"/>
  </way>
  <way id="26302532" version="4" timestamp="2012-01-17T02:29:36Z" uid="147510" user="woodpeck_fixbot" changeset="10413896">
    <nd ref="288141041"/>
    <nd ref="288141218"/>
    <nd ref="158023220"/>
    <tag k="highway" v="residential"/>
    <tag k="name" v="Robe Street"/>
  </way>
  <way id="26302537" version="3" timestamp="2010-02-14T15:44:21Z" uid="74617" user="JohnSmith" changeset="3874884">
    <nd ref="158023218"/>
    <nd ref="288141262"/>
    <nd ref="288141346"/>
    <nd ref="158313330"/>
    <tag k="highway" v="residential"/>
    <tag k="maxspeed" v="50"/>
    <tag k="name" v="Robe Street"/>
  </way>
  <way id="26302537" version="4" timestamp="2012-01-17T02:29:37Z" uid="147510" user="woodpeck_fixbot" changeset="10413896">
    <nd ref="158023218"/>
    <nd ref="288141262"/>
    <nd ref="288141346"/>
    <nd ref="158313330"/>
    <tag k="highway" v="residential"/>
    <tag k="name" v="Robe Street"/>
  </way>
  <way id="26302553" version="2" timestamp="2010-02-14T15:44:21Z" uid="74617" user="JohnSmith" changeset="3874884">
    <nd ref="288141218"/>
    <nd ref="158317927"/>
    <tag k="highway" v="residential"/>
    <tag k="maxspeed" v="50"/>
    <tag k="name" v="Frome Street"/>
  </way>
  <way id="26302553" version="3" timestamp="2012-01-17T02:29:39Z" uid="147510" user="woodpeck_fixbot" changeset="10413896">
    <nd ref="288141218"/>
    <nd ref="158317927"/>
    <tag k="highway" v="residential"/>
    <tag k="name" v="Frome Street"/>
  </way>
  <way id="26302568" version="3" timestamp="2010-02-14T15:48:41Z" uid="74617" user="JohnSmith" changeset="3874884">
    <nd ref="157974580"/>
    <nd ref="288141652"/>
    <tag k="highway" v="residential"/>
    <tag k="maxspeed" v="50"/>
    <tag k="name" v="Bruce Street"/>
  </way>
  <way id="26302568" version="4" timestamp="2012-01-17T02:29:41Z" uid="147510" user="woodpeck_fixbot" changeset="10413896">
    <nd ref="157974580"/>
    <nd ref="288141652"/>
    <tag k="highway" v="residential"/>
    <tag k="name" v="Bruce Street"/>
  </way>
  <way id="26302597" version="5" timestamp="2010-02-14T15:42:07Z" uid="74617" user="JohnSmith" changeset="3874884">
    <nd ref="288142164"/>
    <nd ref="157977551"/>
    <nd ref="157977552"/>
    <nd ref="157977553"/>
    <nd ref="157977554"/>
    <nd ref="157977556"/>
    <nd ref="157977557"/>
    <nd ref="157977558"/>
    <nd ref="157977559"/>
    <nd ref="157977560"/>
    <nd ref="157977561"/>
    <nd ref="157977562"/>
    <nd ref="157977563"/>
    <nd ref="157977564"/>
    <nd ref="157959458"/>
    <tag k="highway" v="tertiary"/>
    <tag k="name" v="Lanham Avenue"/>
  </way>
  <way id="26302607" version="4" timestamp="2010-02-14T15:44:23Z" uid="74617" user="JohnSmith" changeset="3874884">
    <nd ref="288142164"/>
    <nd ref="315454610"/>
    <nd ref="288142237"/>
    <nd ref="315454613"/>
    <nd ref="288142166"/>
    <nd ref="315454616"/>
    <nd ref="288143155"/>
    <nd ref="315454606"/>
    <nd ref="288142164"/>
    <tag k="highway" v="tertiary"/>
    <tag k="junction" v="roundabout"/>
    <tag k="name" v="Lanham Avenue"/>
  </way>
  <way id="26302618" version="2" timestamp="2010-02-14T15:42:17Z" uid="74617" user="JohnSmith" changeset="3874884">
    <nd ref="288142164"/>
    <nd ref="288142318"/>
    <nd ref="288142319"/>
    <nd ref="288142320"/>
    <tag k="highway" v="footway"/>
  </way>
  <way id="26302618" version="3" timestamp="2010-05-31T04:46:08Z" uid="14505" user="David Dean" changeset="4859649">
    <nd ref="315454610"/>
    <nd ref="288142318"/>
    <nd ref="288142319"/>
    <nd ref="288142320"/>
    <tag k="highway" v="footway"/>
  </way>
  <way id="26302687" version="5" timestamp="2010-02-14T15:44:22Z" uid="74617" user="JohnSmith" changeset="3874884">
    <nd ref="157977546"/>
    <nd ref="315454620"/>
    <nd ref="157994750"/>
    <nd ref="315454631"/>
    <nd ref="157977544"/>
    <nd ref="315454634"/>
    <nd ref="157994045"/>
    <nd ref="315454627"/>
    <nd ref="157977546"/>
    <tag k="highway" v="tertiary"/>
    <tag k="junction" v="roundabout"/>
    <tag k="name" v="Lanham Avenue"/>
  </way>
  <way id="26302692" version="3" timestamp="2010-02-14T15:44:22Z" uid="74617" user="JohnSmith" changeset="3874884">
    <nd ref="157994045"/>
    <nd ref="157994046"/>
    <nd ref="157975559"/>
    <tag k="highway" v="residential"/>
    <tag k="maxspeed" v="50"/>
    <tag k="name" v="Evelyn Street"/>
  </way>
  <way id="26302692" version="4" timestamp="2012-01-17T02:29:42Z" uid="147510" user="woodpeck_fixbot" changeset="10413896">
    <nd ref="157994045"/>
    <nd ref="157994046"/>
    <nd ref="157975559"/>
    <tag k="highway" v="residential"/>
    <tag k="name" v="Evelyn Street"/>
  </way>
  <way id="26302697" version="3" timestamp="2010-02-14T15:44:20Z" uid="74617" user="JohnSmith" changeset="3874884">
    <nd ref="157977546"/>
    <nd ref="157977547"/>
    <nd ref="157977548"/>
    <nd ref="288142166"/>
    <tag k="highway" v="tertiary"/>
    <tag k="name" v="Lanham Avenue"/>
  </way>
  <way id="26302697" version="4" timestamp="2010-05-31T04:46:08Z" uid="14505" user="David Dean" changeset="4859649">
    <nd ref="157977546"/>
    <nd ref="157977547"/>
    <nd ref="157977548"/>
    <nd ref="760171761"/>
    <nd ref="288142166"/>
    <tag k="highway" v="tertiary"/>
    <tag k="name" v="Lanham Avenue"/>
  </way>
  <way id="26302735" version="9" timestamp="2009-12-08T08:43:34Z" uid="200463" user="harmagedon" changeset="3322149">
    <nd ref="288141324"/>
    <nd ref="288143329"/>
    <nd ref="288141325"/>
    <nd ref="288141326"/>
    <nd ref="288141327"/>
    <nd ref="288141328"/>
    <tag k="highway" v="unclassified"/>
    <tag k="name" v="Lagerhausstraße"/>
  </way>
  <way id="26302741" version="2" timestamp="2009-09-04T17:10:02Z" uid="49111" user="Markus B" changeset="2372003">
    <nd ref="288143302"/>
    <nd ref="288143303"/>
    <nd ref="270172666"/>
    <tag k="highway" v="residential"/>
  </way>
  <way id="26302741" version="3" timestamp="2011-01-05T10:50:19Z" uid="176591" user="Windsurfer" changeset="6870194">
    <nd ref="288143302"/>
    <nd ref="288143303"/>
    <nd ref="270172666"/>
    <nd ref="1082672862"/>
    <tag k="highway" v="residential"/>
    <tag k="name" v="Rainerfeld"/>
  </way>
  <way id="26302754" version="4" timestamp="2008-11-26T19:50:20Z" uid="6975" user="ulfl" changeset="797054">
    <nd ref="288143354"/>
    <nd ref="288143355"/>
    <nd ref="288143356"/>
    <nd ref="288143357"/>
    <nd ref="288143358"/>
    <nd ref="288143359"/>
    <nd ref="288143360"/>
    <nd ref="288143361"/>
    <nd ref="288143362"/>
    <nd ref="308510331"/>
    <nd ref="308510332"/>
    <nd ref="308510333"/>
    <nd ref="308510334"/>
    <nd ref="308510335"/>
    <nd ref="308510322"/>
    <tag k="highway" v="residential"/>
    <tag k="name" v="Agarnstrasse"/>
  </way>
  <way id="26302754" version="5" timestamp="2010-08-14T23:49:39Z" uid="333359" user="FernaW" changeset="5495650">
    <nd ref="860695359"/>
    <nd ref="288143355"/>
    <nd ref="288143356"/>
    <nd ref="288143357"/>
    <nd ref="288143358"/>
    <nd ref="288143359"/>
    <nd ref="860695350"/>
    <nd ref="288143361"/>
    <nd ref="860695362"/>
    <nd ref="308510331"/>
    <nd ref="308510332"/>
    <nd ref="860695353"/>
    <nd ref="308510334"/>
    <nd ref="308510335"/>
    <nd ref="860695351"/>
    <nd ref="860695356"/>
    <tag k="highway" v="residential"/>
    <tag k="name" v="Agarnstrasse"/>
  </way>
  <way id="26302754" version="6" timestamp="2010-08-17T17:59:20Z" uid="333359" user="FernaW" changeset="5520025">
    <nd ref="288143354"/>
    <nd ref="288143355"/>
    <nd ref="288143356"/>
    <nd ref="288143357"/>
    <nd ref="288143358"/>
    <nd ref="288143359"/>
    <nd ref="288143360"/>
    <nd ref="288143361"/>
    <nd ref="288143362"/>
    <nd ref="308510331"/>
    <nd ref="308510332"/>
    <nd ref="308510333"/>
    <nd ref="308510334"/>
    <nd ref="308510335"/>
    <nd ref="860695351"/>
    <nd ref="860695356"/>
    <tag k="highway" v="residential"/>
    <tag k="name" v="Agarnstrasse"/>
  </way>
  <way id="26302754" version="7" timestamp="2010-09-07T18:42:48Z" uid="121434" user="dave_zh" changeset="5710797">
    <nd ref="288143354"/>
    <nd ref="288143355"/>
    <nd ref="288143356"/>
    <nd ref="288143357"/>
    <nd ref="288143358"/>
    <nd ref="288143359"/>
    <nd ref="288143360"/>
    <nd ref="288143361"/>
    <nd ref="288143362"/>
    <tag k="highway" v="residential"/>
    <tag k="name" v="Agarnstrasse"/>
  </way>
  <way id="26302754" version="8" timestamp="2011-12-25T23:19:23Z" uid="74900" user="FischersFritz" changeset="10203786">
    <nd ref="1471790100"/>
    <nd ref="288143356"/>
    <nd ref="288143357"/>
    <nd ref="288143358"/>
    <nd ref="288143359"/>
    <nd ref="288143360"/>
    <nd ref="288143361"/>
    <nd ref="288143362"/>
    <tag k="highway" v="residential"/>
    <tag k="name" v="Agarnstrasse"/>
  </way>
  <way id="26302754" version="9" timestamp="2012-02-02T14:50:11Z" uid="122213" user="kds_ch" changeset="10568068">
    <nd ref="1471790100"/>
    <nd ref="288143356"/>
    <nd ref="288143357"/>
    <nd ref="288143358"/>
    <nd ref="288143359"/>
    <nd ref="1615677851"/>
    <nd ref="288143360"/>
    <nd ref="288143361"/>
    <nd ref="1615677846"/>
    <nd ref="288143362"/>
    <tag k="highway" v="residential"/>
    <tag k="name" v="Agarnstrasse"/>
  </way>
  <way id="26302754" version="10" timestamp="2012-02-03T23:48:01Z" uid="178186" user="mdk" changeset="10580402"/>
  <way id="26302755" version="4" timestamp="2008-11-26T19:50:21Z" uid="6975" user="ulfl" changeset="797054">
    <nd ref="288143360"/>
    <nd ref="288143363"/>
    <nd ref="288143364"/>
    <nd ref="288143366"/>
    <nd ref="288207201"/>
    <tag k="highway" v="residential"/>
    <tag k="name" v="Kreuzmattenstrasse"/>
  </way>
  <way id="26302755" version="5" timestamp="2010-09-07T18:42:36Z" uid="121434" user="dave_zh" changeset="5710797">
    <nd ref="288143360"/>
    <nd ref="288143363"/>
    <nd ref="288143364"/>
    <nd ref="288143366"/>
    <nd ref="288207201"/>
    <nd ref="901338479"/>
    <tag k="highway" v="residential"/>
    <tag k="name" v="Kreuzmattenstrasse"/>
  </way>
  <way id="26302755" version="6" timestamp="2011-10-20T20:17:03Z" uid="538582" user="koebilee" changeset="9611958">
    <nd ref="288143360"/>
    <nd ref="288143363"/>
    <nd ref="288143364"/>
    <nd ref="288143366"/>
    <nd ref="288207201"/>
    <nd ref="901338479"/>
    <tag k="highway" v="residential"/>
    <tag k="name" v="Kreuzmattenstrasse"/>
  </way>
  <way id="26302755" version="7" timestamp="2012-02-02T14:50:11Z" uid="122213" user="kds_ch" changeset="10568068">
    <nd ref="288143360"/>
    <nd ref="288143363"/>
    <nd ref="288143364"/>
    <nd ref="1615677876"/>
    <nd ref="288143366"/>
    <nd ref="288207201"/>
    <nd ref="901338479"/>
    <tag k="highway" v="residential"/>
    <tag k="name" v="Kreuzmattenstrasse"/>
  </way>
  <way id="26302755" version="8" timestamp="2012-02-03T23:48:01Z" uid="178186" user="mdk" changeset="10580402"/>
  <way id="26302772" version="7" timestamp="2010-02-14T15:44:20Z" uid="74617" user="JohnSmith" changeset="3874884">
    <nd ref="442074048"/>
    <nd ref="442074008"/>
    <nd ref="288143617"/>
    <nd ref="288143495"/>
    <nd ref="288143576"/>
    <nd ref="288143611"/>
    <nd ref="288143498"/>
    <nd ref="288143580"/>
    <nd ref="288143500"/>
    <nd ref="288143627"/>
    <nd ref="288143570"/>
    <nd ref="288143571"/>
    <nd ref="442074048"/>
    <tag k="landuse" v="retail"/>
  </way>
  <way id="26302772" version="8" timestamp="2010-05-31T03:16:39Z" uid="14505" user="David Dean" changeset="4859253">
    <nd ref="760159774"/>
    <nd ref="288143617"/>
    <nd ref="288143576"/>
    <nd ref="288143611"/>
    <nd ref="760159784"/>
    <nd ref="760159821"/>
    <nd ref="288143498"/>
    <nd ref="288143580"/>
    <nd ref="760159774"/>
    <tag k="landuse" v="retail"/>
  </way>
  <way id="26302813" version="5" timestamp="2010-04-01T12:48:51Z" uid="74617" user="JohnSmith" changeset="4293399">
    <nd ref="60282819"/>
    <nd ref="60283035"/>
    <nd ref="60283036"/>
    <tag k="highway" v="trunk"/>
    <tag k="maxspeed" v="60"/>
    <tag k="name" v="The Crescent"/>
    <tag k="oneway" v="yes"/>
  </way>
  <way id="26302813" version="6" timestamp="2010-06-30T07:57:23Z" uid="299678" user="peteramjet" changeset="5111489">
    <nd ref="60282819"/>
    <nd ref="60283035"/>
    <nd ref="60283036"/>
    <tag k="highway" v="trunk"/>
    <tag k="maxspeed" v="60"/>
    <tag k="name" v="The Crescent"/>
    <tag k="oneway" v="yes"/>
    <tag k="ref" v="MR4"/>
  </way>
  <way id="26302813" version="7" timestamp="2010-07-08T04:41:27Z" uid="30201" user="rrankin" changeset="5163349">
    <nd ref="60282819"/>
    <nd ref="60283035"/>
    <nd ref="60283036"/>
    <tag k="highway" v="trunk"/>
    <tag k="maxspeed" v="70"/>
    <tag k="name" v="The Crescent"/>
    <tag k="oneway" v="yes"/>
    <tag k="ref" v="MR4"/>
  </way>
  <way id="26302813" version="8" timestamp="2010-07-09T22:55:21Z" uid="299678" user="peteramjet" changeset="5177814">
    <nd ref="60282819"/>
    <nd ref="60283035"/>
    <nd ref="60283036"/>
    <tag k="highway" v="trunk"/>
    <tag k="maxspeed" v="70"/>
    <tag k="name" v="The Crescent"/>
    <tag k="oneway" v="yes"/>
  </way>
  <way id="26302813" version="9" timestamp="2011-09-23T01:38:21Z" uid="20949" user="Ebenezer" changeset="9373524">
    <nd ref="60282819"/>
    <nd ref="60283035"/>
    <nd ref="1441193898"/>
    <nd ref="60283036"/>
    <tag k="highway" v="trunk"/>
    <tag k="maxspeed" v="70"/>
    <tag k="name" v="The Crescent"/>
    <tag k="oneway" v="yes"/>
  </way>
  <way id="26302813" version="10" timestamp="2012-01-31T05:53:11Z" uid="54784" user="Tom Hollander" changeset="10546288">
    <nd ref="60282819"/>
    <nd ref="60283035"/>
    <nd ref="1441193898"/>
    <nd ref="60283036"/>
    <tag k="highway" v="trunk"/>
    <tag k="maxspeed" v="70"/>
    <tag k="name" v="The Crescent"/>
    <tag k="oneway" v="yes"/>
    <tag k="ref" v="MR4"/>
  </way>
  <way id="26302845" version="2" timestamp="2009-12-08T08:43:23Z" uid="200463" user="harmagedon" changeset="3322149">
    <nd ref="288143087"/>
    <nd ref="288143964"/>
    <nd ref="288143965"/>
    <nd ref="288143966"/>
    <nd ref="288143967"/>
    <nd ref="288143968"/>
    <nd ref="288143969"/>
    <nd ref="288143970"/>
    <nd ref="288143971"/>
    <nd ref="288143972"/>
    <nd ref="288143974"/>
    <nd ref="288143975"/>
    <nd ref="288143976"/>
    <nd ref="288143977"/>
    <nd ref="288143978"/>
    <nd ref="288143979"/>
    <nd ref="288143980"/>
    <nd ref="288143981"/>
    <nd ref="288143982"/>
    <nd ref="288143983"/>
    <nd ref="288143984"/>
    <nd ref="288143986"/>
    <nd ref="288143987"/>
    <nd ref="288143988"/>
    <nd ref="288143989"/>
    <nd ref="288143990"/>
    <tag k="cycleway" v="track"/>
    <tag k="highway" v="cycleway"/>
  </way>
  <way id="26302871" version="4" timestamp="2008-11-26T19:50:21Z" uid="6975" user="ulfl" changeset="797054">
    <nd ref="215826738"/>
    <nd ref="288144165"/>
    <nd ref="288147209"/>
    <nd ref="288144172"/>
    <tag k="highway" v="residential"/>
    <tag k="name" v="Pflanzettastrasse"/>
  </way>
  <way id="26302871" version="5" timestamp="2009-06-12T14:30:08Z" uid="132884" user="ma472at2" changeset="1497058">
    <nd ref="215826738"/>
    <nd ref="288144165"/>
    <nd ref="288147209"/>
    <nd ref="288144172"/>
    <nd ref="419240832"/>
    <nd ref="419240833"/>
    <tag k="highway" v="residential"/>
    <tag k="name" v="Pflanzettastrasse"/>
  </way>
  <way id="26302871" version="6" timestamp="2012-01-25T22:49:12Z" uid="74900" user="FischersFritz" changeset="10498449">
    <nd ref="1605755553"/>
    <nd ref="288144165"/>
    <nd ref="288147209"/>
    <nd ref="288144172"/>
    <nd ref="419240832"/>
    <nd ref="419240833"/>
    <tag k="highway" v="residential"/>
    <tag k="name" v="Pflanzettastrasse"/>
  </way>
  <way id="26302876" version="4" timestamp="2008-10-09T20:11:03Z" uid="38524" user="Kuddy" changeset="196635">
    <nd ref="266347733"/>
    <nd ref="266347732"/>
    <nd ref="266347731"/>
    <nd ref="289814275"/>
    <nd ref="266347730"/>
    <nd ref="291026939"/>
    <nd ref="266347729"/>
    <nd ref="289814276"/>
    <nd ref="266347728"/>
    <nd ref="266347727"/>
    <nd ref="266347726"/>
    <nd ref="266347725"/>
    <nd ref="266347724"/>
    <nd ref="266347723"/>
    <nd ref="266347722"/>
    <nd ref="266347718"/>
    <tag k="bicycle" v="yes"/>
    <tag k="created_by" v="Potlatch 0.10b"/>
    <tag k="foot" v="yes"/>
    <tag k="highway" v="track"/>
    <tag k="tracktype" v="grade1"/>
  </way>
  <way id="26302876" version="5" timestamp="2008-10-19T11:04:27Z" uid="30270" user="janssend" changeset="449537">
    <nd ref="266347733"/>
    <nd ref="266347732"/>
    <nd ref="266347731"/>
    <nd ref="289814275"/>
    <nd ref="266347730"/>
    <nd ref="291026939"/>
    <nd ref="266347729"/>
    <nd ref="289814276"/>
    <nd ref="266347728"/>
    <nd ref="266347727"/>
    <nd ref="266347726"/>
    <nd ref="266347725"/>
    <nd ref="266347724"/>
    <nd ref="266347723"/>
    <nd ref="266347722"/>
    <nd ref="266347718"/>
    <tag k="created_by" v="Potlatch 0.10e"/>
    <tag k="highway" v="track"/>
    <tag k="tracktype" v="grade1"/>
  </way>
  <way id="26302876" version="6" timestamp="2008-10-19T11:05:28Z" uid="30270" user="janssend" changeset="449537">
    <nd ref="266347733"/>
    <nd ref="266347732"/>
    <nd ref="266347731"/>
    <nd ref="289814275"/>
    <nd ref="266347730"/>
    <nd ref="291026939"/>
    <nd ref="266347729"/>
    <nd ref="289814276"/>
    <nd ref="266347728"/>
    <nd ref="266347727"/>
    <nd ref="266347726"/>
    <nd ref="266347725"/>
    <nd ref="266347724"/>
    <nd ref="266347723"/>
    <nd ref="266347722"/>
    <nd ref="266347718"/>
    <tag k="created_by" v="Potlatch 0.10e"/>
    <tag k="foot" v="yes"/>
    <tag k="highway" v="cycleway"/>
  </way>
  <way id="26302876" version="7" timestamp="2009-03-31T17:24:19Z" uid="14228" user="KK-O" changeset="872262">
    <nd ref="266347733"/>
    <nd ref="266347732"/>
    <nd ref="266347731"/>
    <nd ref="289814275"/>
    <nd ref="266347730"/>
    <nd ref="291026939"/>
    <nd ref="266347729"/>
    <nd ref="289814276"/>
    <nd ref="266347728"/>
    <nd ref="266347727"/>
    <nd ref="266347726"/>
    <nd ref="266347725"/>
    <nd ref="266347724"/>
    <nd ref="266347723"/>
    <nd ref="266347722"/>
    <nd ref="266347718"/>
    <tag k="created_by" v="Potlatch 0.10f"/>
    <tag k="foot" v="yes"/>
    <tag k="highway" v="cycleway"/>
  </way>
  <way id="26302876" version="8" timestamp="2009-03-31T17:24:51Z" uid="14228" user="KK-O" changeset="872262">
    <nd ref="266347733"/>
    <nd ref="266347732"/>
    <nd ref="266347731"/>
    <nd ref="289814275"/>
    <nd ref="266347730"/>
    <nd ref="291026939"/>
    <nd ref="266347729"/>
    <nd ref="289814276"/>
    <nd ref="266347728"/>
    <nd ref="266347727"/>
    <nd ref="266347726"/>
    <nd ref="266347725"/>
    <nd ref="266347724"/>
    <nd ref="266347723"/>
    <nd ref="266347722"/>
    <nd ref="266347718"/>
    <tag k="created_by" v="Potlatch 0.10f"/>
    <tag k="foot" v="yes"/>
    <tag k="highway" v="cycleway"/>
  </way>
  <way id="26302876" version="9" timestamp="2009-04-01T07:50:45Z" uid="14228" user="KK-O" changeset="9781">
    <nd ref="266347733"/>
    <nd ref="368179063"/>
    <nd ref="266347732"/>
    <nd ref="266347731"/>
    <nd ref="289814275"/>
    <nd ref="266347730"/>
    <nd ref="291026939"/>
    <nd ref="266347729"/>
    <nd ref="289814276"/>
    <nd ref="266347728"/>
    <nd ref="266347727"/>
    <nd ref="266347726"/>
    <nd ref="266347725"/>
    <nd ref="266347724"/>
    <nd ref="266347723"/>
    <nd ref="266347722"/>
    <nd ref="266347718"/>
    <tag k="created_by" v="Potlatch 0.10f"/>
    <tag k="foot" v="yes"/>
    <tag k="highway" v="cycleway"/>
  </way>
  <way id="26302876" version="10" timestamp="2009-04-01T07:51:58Z" uid="14228" user="KK-O" changeset="9781">
    <nd ref="266347733"/>
    <nd ref="368179063"/>
    <nd ref="266347732"/>
    <nd ref="266347731"/>
    <tag k="created_by" v="Potlatch 0.10f"/>
    <tag k="foot" v="yes"/>
    <tag k="highway" v="cycleway"/>
  </way>
  <way id="26302876" version="11" timestamp="2009-04-01T07:52:17Z" uid="14228" user="KK-O" changeset="9781">
    <nd ref="266347733"/>
    <nd ref="368179063"/>
    <nd ref="266347732"/>
    <nd ref="266347731"/>
    <tag k="created_by" v="Potlatch 0.10f"/>
    <tag k="foot" v="yes"/>
    <tag k="highway" v="cycleway"/>
    <tag k="surface" v="cobblestone"/>
  </way>
  <way id="26302876" version="12" timestamp="2011-10-26T14:16:35Z" uid="44217" user="kjon" changeset="9660691">
    <nd ref="266347733"/>
    <nd ref="368179063"/>
    <nd ref="266347732"/>
    <nd ref="266347731"/>
    <tag k="foot" v="yes"/>
    <tag k="highway" v="cycleway"/>
    <tag k="surface" v="cobblestone"/>
  </way>
  <way id="26302901" version="7" timestamp="2009-12-08T08:43:23Z" uid="200463" user="harmagedon" changeset="3322149">
    <nd ref="288144156"/>
    <nd ref="288145030"/>
    <nd ref="387185559"/>
    <nd ref="288145032"/>
    <nd ref="288145033"/>
    <nd ref="288145035"/>
    <nd ref="288145036"/>
    <nd ref="288144893"/>
    <nd ref="288145037"/>
    <nd ref="288143990"/>
    <tag k="highway" v="unclassified"/>
    <tag k="name" v="Staudach"/>
  </way>
  <way id="26302901" version="8" timestamp="2011-09-12T02:12:23Z" uid="149876" user="dbusse" changeset="9276657">
    <nd ref="288144156"/>
    <nd ref="288145030"/>
    <nd ref="1430639061"/>
    <nd ref="387185559"/>
    <nd ref="288145032"/>
    <nd ref="288145033"/>
    <nd ref="288145035"/>
    <nd ref="288145036"/>
    <nd ref="1430639060"/>
    <nd ref="288144893"/>
    <nd ref="288145037"/>
    <nd ref="288143990"/>
    <tag k="highway" v="unclassified"/>
    <tag k="name" v="Staudach"/>
  </way>
  <way id="26302914" version="6" timestamp="2009-12-08T08:44:25Z" uid="200463" user="harmagedon" changeset="3322149">
    <nd ref="288144899"/>
    <nd ref="288144900"/>
    <nd ref="288144901"/>
    <tag k="highway" v="unclassified"/>
    <tag k="name" v="Heitzing"/>
  </way>
  <way id="26302926" version="9" timestamp="2009-12-08T08:44:26Z" uid="200463" user="harmagedon" changeset="3322149">
    <nd ref="288144901"/>
    <nd ref="288144902"/>
    <nd ref="288144903"/>
    <nd ref="288144904"/>
    <nd ref="288145014"/>
    <nd ref="288144907"/>
    <nd ref="288144908"/>
    <nd ref="288144909"/>
    <nd ref="288144910"/>
    <nd ref="288145015"/>
    <nd ref="288145016"/>
    <nd ref="288145017"/>
    <tag k="highway" v="unclassified"/>
    <tag k="name" v="Eglsee"/>
  </way>
  <way id="26302926" version="10" timestamp="2010-12-03T22:24:52Z" uid="12178" user="edwin-ldbg" changeset="6532365">
    <nd ref="288144901"/>
    <nd ref="288144902"/>
    <nd ref="1019198814"/>
    <nd ref="1019198989"/>
    <nd ref="288144903"/>
    <nd ref="1019198996"/>
    <nd ref="288144904"/>
    <nd ref="288145014"/>
    <nd ref="288144907"/>
    <nd ref="288144908"/>
    <nd ref="288144909"/>
    <nd ref="288144910"/>
    <nd ref="288145015"/>
    <nd ref="288145016"/>
    <nd ref="288145017"/>
    <tag k="highway" v="unclassified"/>
    <tag k="name" v="Eglsee"/>
  </way>
  <way id="26302930" version="2" timestamp="2010-03-14T18:37:41Z" uid="115477" user="wowik" changeset="4128111">
    <nd ref="287608133"/>
    <nd ref="666193548"/>
    <nd ref="249665801"/>
    <nd ref="287607818"/>
    <nd ref="287607795"/>
    <nd ref="249665800"/>
    <tag k="highway" v="primary"/>
    <tag k="name" v="Волоколамское ш."/>
  </way>
  <way id="26302930" version="3" timestamp="2010-03-14T18:43:39Z" uid="115477" user="wowik" changeset="4128111">
    <nd ref="287608133"/>
    <nd ref="666193548"/>
    <nd ref="249665801"/>
    <nd ref="287607818"/>
    <nd ref="287607795"/>
    <nd ref="249665800"/>
    <tag k="highway" v="primary"/>
    <tag k="lanes" v="4"/>
    <tag k="name" v="Волоколамское ш."/>
  </way>
  <way id="26302930" version="4" timestamp="2010-09-17T18:06:53Z" uid="313900" user="Stud555" changeset="5805818">
    <nd ref="287608133"/>
    <nd ref="666193548"/>
    <nd ref="249665801"/>
    <nd ref="287607818"/>
    <nd ref="287607795"/>
    <nd ref="249665800"/>
    <tag k="highway" v="primary"/>
    <tag k="lanes" v="4"/>
    <tag k="name" v="шоссе Волоколамское"/>
  </way>
  <way id="26302930" version="5" timestamp="2011-01-17T08:39:35Z" uid="313900" user="Stud555" changeset="6996977">
    <nd ref="287608133"/>
    <nd ref="666193548"/>
    <nd ref="1085242554"/>
    <nd ref="249665801"/>
    <nd ref="287607818"/>
    <nd ref="287607795"/>
    <nd ref="249665800"/>
    <tag k="highway" v="primary"/>
    <tag k="lanes" v="4"/>
    <tag k="name" v="шоссе Волоколамское"/>
  </way>
  <way id="26302930" version="6" timestamp="2011-02-09T01:40:22Z" uid="133332" user="AMDmi3" changeset="7232465">
    <nd ref="287608133"/>
    <nd ref="666193548"/>
    <nd ref="1085242554"/>
    <nd ref="249665801"/>
    <nd ref="287607818"/>
    <nd ref="287607795"/>
    <nd ref="249665800"/>
    <tag k="highway" v="primary"/>
    <tag k="lanes" v="4"/>
    <tag k="name" v="Волоколамское шоссе"/>
  </way>
  <way id="26302930" version="7" timestamp="2011-02-13T21:02:41Z" uid="336354" user="esaulenka" changeset="7280491">
    <nd ref="287608133"/>
    <nd ref="666193548"/>
    <nd ref="249665801"/>
    <nd ref="287607818"/>
    <nd ref="287607795"/>
    <nd ref="249665800"/>
    <tag k="highway" v="primary"/>
    <tag k="lanes" v="4"/>
    <tag k="name" v="Волоколамское шоссе"/>
  </way>
  <way id="26302930" version="8" timestamp="2011-11-13T18:48:02Z" uid="433361" user="Dima M" changeset="9817608">
    <nd ref="287608133"/>
    <nd ref="666193548"/>
    <nd ref="249665801"/>
    <nd ref="287607818"/>
    <nd ref="287607795"/>
    <nd ref="1501844761"/>
    <nd ref="249665800"/>
    <tag k="highway" v="primary"/>
    <tag k="lanes" v="4"/>
    <tag k="name" v="Волоколамское шоссе"/>
  </way>
  <way id="26302933" version="4" timestamp="2009-12-08T08:44:11Z" uid="200463" user="harmagedon" changeset="3322149">
    <nd ref="288145017"/>
    <nd ref="288145018"/>
    <nd ref="288145019"/>
    <nd ref="288145021"/>
    <nd ref="288144918"/>
    <nd ref="288145022"/>
    <nd ref="288145023"/>
    <nd ref="288145024"/>
    <nd ref="288145025"/>
    <nd ref="288144924"/>
    <nd ref="288144925"/>
    <nd ref="288144926"/>
    <nd ref="288144928"/>
    <nd ref="288144929"/>
    <nd ref="288144930"/>
    <nd ref="288145066"/>
    <nd ref="288144932"/>
    <nd ref="288144933"/>
    <nd ref="288144934"/>
    <nd ref="288144936"/>
    <nd ref="288145027"/>
    <nd ref="288144883"/>
    <tag k="highway" v="cycleway"/>
    <tag k="surface" v="unpaved"/>
  </way>
</osm>
