<?xml version='1.0' encoding='UTF-8'?>
<osm version="0.6" generator="libosmium/2.20.0">
  <way id="26514017" version="5" timestamp="2010-08-22T16:58:22Z" uid="4467" user="Rosscoe" changeset="5563092">
    <nd ref="289559700"/>
    <nd ref="290591958"/>
    <nd ref="290591959"/>
    <nd ref="290591960"/>
    <tag k="cycleway" v="unmarked_lane"/>
    <tag k="highway" v="tertiary"/>
    <tag k="name" v="Avalon Park Boulevard"/>
  </way>
  <way id="26514017" version="6" timestamp="2010-08-29T06:21:22Z" uid="207745" user="NE2" changeset="5622284">
    <nd ref="289559700"/>
    <nd ref="290591958"/>
    <nd ref="290591959"/>
    <nd ref="290591960"/>
    <tag k="cycleway" v="unmarked_lane"/>
    <tag k="highway" v="secondary"/>
    <tag k="name" v="Avalon Park Boulevard"/>
  </way>
  <way id="26514017" version="7" timestamp="2010-08-30T14:04:26Z" uid="207745" user="NE2" changeset="5635592">
    <nd ref="289559700"/>
    <nd ref="290591958"/>
    <nd ref="290591959"/>
    <nd ref="290591960"/>
    <tag k="HFCS" v="Urban Collector"/>
    <tag k="cycleway" v="unmarked_lane"/>
    <tag k="highway" v="secondary"/>
    <tag k="name" v="Avalon Park Boulevard"/>
  </way>
  <way id="26514017" version="8" timestamp="2010-10-29T07:27:29Z" uid="207745" user="NE2" changeset="6214548">
    <nd ref="289559700"/>
    <nd ref="290591958"/>
    <nd ref="290591959"/>
    <nd ref="290591960"/>
    <tag k="HFCS" v="Urban Collector"/>
    <tag k="cycleway" v="unmarked_lane"/>
    <tag k="highway" v="secondary"/>
    <tag k="lanes" v="4"/>
    <tag k="name" v="Avalon Park Boulevard"/>
  </way>
  <way id="26514017" version="9" timestamp="2012-01-16T20:39:51Z" uid="207745" user="NE2" changeset="10410864">
    <nd ref="289559700"/>
    <nd ref="290591958"/>
    <nd ref="290591959"/>
    <nd ref="290591960"/>
    <tag k="HFCS" v="Urban Collector"/>
    <tag k="cycleway" v="unmarked_lane"/>
    <tag k="highway" v="secondary"/>
    <tag k="lanes" v="4"/>
    <tag k="name" v="Avalon Park Boulevard"/>
    <tag k="odbl" v="clean"/>
  </way>
  <way id="26514034" version="8" timestamp="2010-08-22T16:58:20Z" uid="4467" user="Rosscoe" changeset="5563092">
    <nd ref="290591998"/>
    <nd ref="290592067"/>
    <nd ref="290592068"/>
    <nd ref="290592069"/>
    <nd ref="290592073"/>
    <nd ref="99605443"/>
    <nd ref="290592070"/>
    <nd ref="290592071"/>
    <nd ref="290592072"/>
    <nd ref="290592204"/>
    <nd ref="290592205"/>
    <tag k="cycleway" v="unmarked_lane"/>
    <tag k="highway" v="tertiary"/>
    <tag k="name" v="Avalon Park Boulevard"/>
  </way>
  <way id="26514034" version="9" timestamp="2010-08-28T05:12:32Z" uid="207745" user="NE2" changeset="5613037">
    <nd ref="290591998"/>
    <nd ref="290592067"/>
    <nd ref="290592068"/>
    <nd ref="290592069"/>
    <nd ref="290592073"/>
    <nd ref="99605443"/>
    <nd ref="290592070"/>
    <nd ref="290592071"/>
    <nd ref="290592072"/>
    <nd ref="290592204"/>
    <nd ref="883919736"/>
    <nd ref="290592205"/>
    <tag k="cycleway" v="unmarked_lane"/>
    <tag k="highway" v="tertiary"/>
    <tag k="name" v="Avalon Park Boulevard"/>
  </way>
  <way id="26514034" version="10" timestamp="2010-08-28T05:12:44Z" uid="207745" user="NE2" changeset="5613037">
    <nd ref="290591998"/>
    <nd ref="290592067"/>
    <nd ref="290592068"/>
    <nd ref="290592069"/>
    <nd ref="290592073"/>
    <nd ref="99605443"/>
    <nd ref="290592071"/>
    <nd ref="290592072"/>
    <nd ref="290592204"/>
    <nd ref="883919736"/>
    <nd ref="290592205"/>
    <tag k="cycleway" v="unmarked_lane"/>
    <tag k="highway" v="tertiary"/>
    <tag k="name" v="Avalon Park Boulevard"/>
  </way>
  <way id="26514034" version="11" timestamp="2010-08-29T06:22:21Z" uid="207745" user="NE2" changeset="5622284">
    <nd ref="290591998"/>
    <nd ref="290592067"/>
    <nd ref="290592068"/>
    <nd ref="290592069"/>
    <nd ref="290592073"/>
    <nd ref="99605443"/>
    <nd ref="290592071"/>
    <nd ref="290592072"/>
    <nd ref="290592204"/>
    <nd ref="883919736"/>
    <nd ref="290592205"/>
    <tag k="cycleway" v="unmarked_lane"/>
    <tag k="highway" v="secondary"/>
    <tag k="name" v="Avalon Park Boulevard"/>
  </way>
  <way id="26514034" version="12" timestamp="2010-08-30T14:04:30Z" uid="207745" user="NE2" changeset="5635592">
    <nd ref="290591998"/>
    <nd ref="290592067"/>
    <nd ref="290592068"/>
    <nd ref="290592069"/>
    <nd ref="290592073"/>
    <nd ref="99605443"/>
    <nd ref="290592071"/>
    <nd ref="290592072"/>
    <nd ref="290592204"/>
    <nd ref="883919736"/>
    <nd ref="290592205"/>
    <tag k="HFCS" v="Urban Collector"/>
    <tag k="cycleway" v="unmarked_lane"/>
    <tag k="highway" v="secondary"/>
    <tag k="name" v="Avalon Park Boulevard"/>
  </way>
  <way id="26514034" version="13" timestamp="2010-10-29T07:27:38Z" uid="207745" user="NE2" changeset="6214548">
    <nd ref="290591998"/>
    <nd ref="290592067"/>
    <nd ref="290592068"/>
    <nd ref="290592069"/>
    <nd ref="290592073"/>
    <nd ref="99605443"/>
    <nd ref="290592071"/>
    <nd ref="290592072"/>
    <nd ref="290592204"/>
    <nd ref="883919736"/>
    <nd ref="290592205"/>
    <tag k="HFCS" v="Urban Collector"/>
    <tag k="cycleway" v="unmarked_lane"/>
    <tag k="highway" v="secondary"/>
    <tag k="lanes" v="4"/>
    <tag k="name" v="Avalon Park Boulevard"/>
  </way>
  <way id="26514034" version="14" timestamp="2012-01-16T20:39:51Z" uid="207745" user="NE2" changeset="10410864">
    <nd ref="290591998"/>
    <nd ref="290592067"/>
    <nd ref="290592068"/>
    <nd ref="290592069"/>
    <nd ref="290592073"/>
    <nd ref="99605443"/>
    <nd ref="290592071"/>
    <nd ref="290592072"/>
    <nd ref="290592204"/>
    <nd ref="883919736"/>
    <nd ref="290592205"/>
    <tag k="HFCS" v="Urban Collector"/>
    <tag k="cycleway" v="unmarked_lane"/>
    <tag k="highway" v="secondary"/>
    <tag k="lanes" v="4"/>
    <tag k="name" v="Avalon Park Boulevard"/>
    <tag k="odbl" v="clean"/>
  </way>
  <way id="26514100" version="3" timestamp="2009-10-02T20:04:36Z" uid="86259" user="hasse_osm_korinthenkacker" changeset="2717024">
    <nd ref="10847460"/>
    <nd ref="7421857"/>
    <nd ref="32039211"/>
    <tag k="highway" v="secondary"/>
    <tag k="name" v="Rosenheimer Straße"/>
    <tag k="ref" v="MB 4"/>
  </way>
  <way id="26514100" version="4" timestamp="2011-08-15T09:11:16Z" uid="42393" user="mawi42" changeset="9024727">
    <nd ref="10847460"/>
    <nd ref="1399588514"/>
    <nd ref="1399588483"/>
    <nd ref="7421857"/>
    <nd ref="32039211"/>
    <tag k="highway" v="secondary"/>
    <tag k="name" v="Rosenheimer Straße"/>
    <tag k="ref" v="MB 4"/>
  </way>
  <way id="26514231" version="6" timestamp="2010-01-24T13:11:00Z" uid="58091" user="Andreas M" changeset="3700750">
    <nd ref="290592536"/>
    <nd ref="290593489"/>
    <nd ref="429313659"/>
    <nd ref="290593066"/>
    <tag k="highway" v="unclassified"/>
    <tag k="name" v="Höhenstraße"/>
  </way>
  <way id="26514267" version="4" timestamp="2008-09-22T00:16:59Z" uid="7617" user="Franc" changeset="678118">
    <nd ref="29856140"/>
    <nd ref="29856162"/>
    <nd ref="298925856"/>
    <nd ref="245926109"/>
    <nd ref="25631795"/>
    <tag k="created_by" v="Potlatch 0.10b"/>
    <tag k="highway" v="residential"/>
    <tag k="name" v="Twin Road"/>
  </way>
  <way id="26514267" version="5" timestamp="2010-07-08T00:21:25Z" uid="74617" user="JohnSmith" changeset="5162525">
    <nd ref="29856140"/>
    <nd ref="29856162"/>
    <nd ref="298925856"/>
    <nd ref="245926109"/>
    <nd ref="25631795"/>
    <tag k="highway" v="residential"/>
    <tag k="maxspeed" v="50"/>
    <tag k="maxspeed:source" v="default residential speed limit in Australia"/>
    <tag k="name" v="Twin Road"/>
  </way>
  <way id="26514267" version="6" timestamp="2012-01-17T03:47:32Z" uid="147510" user="woodpeck_fixbot" changeset="10414164">
    <nd ref="29856140"/>
    <nd ref="29856162"/>
    <nd ref="298925856"/>
    <nd ref="245926109"/>
    <nd ref="25631795"/>
    <tag k="highway" v="residential"/>
    <tag k="name" v="Twin Road"/>
  </way>
  <way id="26514267" version="7" timestamp="2012-03-09T03:51:43Z" uid="7523" user="inas" changeset="10915861">
    <nd ref="29856140"/>
    <nd ref="29856162"/>
    <nd ref="298925856"/>
    <nd ref="245926109"/>
    <nd ref="1666775328"/>
    <nd ref="25631795"/>
    <tag k="highway" v="residential"/>
    <tag k="name" v="Twin Road"/>
  </way>
  <way id="26514297" version="5" timestamp="2009-01-17T13:54:00Z" uid="7617" user="Franc" changeset="800131">
    <nd ref="290594856"/>
    <nd ref="332572523"/>
    <nd ref="332572556"/>
    <nd ref="332572522"/>
    <nd ref="252692225"/>
    <tag k="created_by" v="Potlatch 0.10b"/>
    <tag k="highway" v="unclassified"/>
    <tag k="name" v="Blenheim Road"/>
    <tag k="source" v="survey"/>
  </way>
  <way id="26514316" version="6" timestamp="2009-08-24T22:46:45Z" uid="36809" user="pfoten_weg_!_" changeset="2250819">
    <nd ref="288274489"/>
    <nd ref="290595105"/>
    <tag k="discovered_by" v="RambaZamba"/>
    <tag k="highway" v="unclassified"/>
    <tag k="tracktype" v="grade4"/>
  </way>
  <way id="26514316" version="7" timestamp="2009-08-28T19:59:15Z" uid="156995" user="HampelZamba" changeset="2294580">
    <nd ref="288274489"/>
    <nd ref="290595105"/>
    <tag k="highway" v="unclassified"/>
    <tag k="tracktype" v="grade4"/>
  </way>
  <way id="26514316" version="8" timestamp="2009-08-31T21:58:39Z" uid="36809" user="pfoten_weg_!_" changeset="2331993">
    <nd ref="288274489"/>
    <nd ref="290595105"/>
    <tag k="highway" v="unclassified"/>
    <tag k="tracktype" v="grade4"/>
  </way>
  <way id="26514316" version="9" timestamp="2011-12-20T16:15:10Z" uid="55462" user="Lübeck" changeset="10164771"/>
  <way id="26514324" version="5" timestamp="2008-09-14T13:54:36Z" uid="6975" user="ulfl" changeset="640534">
    <nd ref="290595148"/>
    <nd ref="290595885"/>
    <nd ref="290595650"/>
    <nd ref="290595150"/>
    <nd ref="290595651"/>
    <nd ref="290595152"/>
    <nd ref="290595859"/>
    <nd ref="290595148"/>
    <tag k="name" v="Musée d&amp;apos;Aquitaine"/>
    <tag k="tourism" v="museum"/>
  </way>
  <way id="26514324" version="6" timestamp="2008-09-28T20:02:38Z" uid="25762" user="frodrigo" changeset="712206">
    <nd ref="290595148"/>
    <nd ref="290595885"/>
    <nd ref="290595650"/>
    <nd ref="290595150"/>
    <nd ref="290595651"/>
    <nd ref="290595152"/>
    <nd ref="290595859"/>
    <nd ref="290595148"/>
    <tag k="building" v="yes"/>
    <tag k="name" v="Musée d&apos;Aquitaine"/>
    <tag k="tourism" v="museum"/>
  </way>
  <way id="26514324" version="7" timestamp="2010-10-01T19:09:17Z" uid="53048" user="jfnif" changeset="5930642"/>
  <way id="26514459" version="15" timestamp="2009-11-12T02:43:40Z" uid="36809" user="pfoten_weg_!_" changeset="3095231">
    <nd ref="290596583"/>
    <nd ref="483035641"/>
    <nd ref="290596584"/>
    <nd ref="290596585"/>
    <nd ref="441154344"/>
    <nd ref="290596586"/>
    <nd ref="290596587"/>
    <nd ref="483035642"/>
    <nd ref="290596583"/>
    <tag k="animal" v="sport"/>
    <tag k="area" v="yes"/>
    <tag k="barrier" v="fence"/>
    <tag k="network" v="Bayerischer Landesverband für Hundesport (BLV)"/>
    <tag k="school_type" v="dog"/>
    <tag k="sport" v="dog"/>
  </way>
  <way id="26514459" version="16" timestamp="2009-12-08T10:38:48Z" uid="42393" user="mawi42" changeset="3323747">
    <nd ref="290596583"/>
    <nd ref="483035641"/>
    <nd ref="290596584"/>
    <nd ref="290596585"/>
    <nd ref="441154344"/>
    <nd ref="290596586"/>
    <nd ref="290596587"/>
    <nd ref="483035642"/>
    <nd ref="290596583"/>
    <tag k="animal" v="sport"/>
    <tag k="area" v="yes"/>
    <tag k="barrier" v="fence"/>
    <tag k="name" v="Hundefreunde Thann"/>
    <tag k="network" v="Bayerischer Landesverband für Hundesport (BLV)"/>
    <tag k="school_type" v="dog"/>
    <tag k="sport" v="dog"/>
  </way>
  <way id="26514459" version="17" timestamp="2010-03-27T14:31:34Z" uid="42393" user="mawi42" changeset="4246871">
    <nd ref="290596583"/>
    <nd ref="483035641"/>
    <nd ref="290596584"/>
    <nd ref="290596585"/>
    <nd ref="441154344"/>
    <nd ref="290596586"/>
    <nd ref="675913461"/>
    <nd ref="290596587"/>
    <nd ref="675913467"/>
    <nd ref="483035642"/>
    <nd ref="290596583"/>
    <tag k="animal" v="sport"/>
    <tag k="area" v="yes"/>
    <tag k="barrier" v="fence"/>
    <tag k="name" v="Hundefreunde Thann"/>
    <tag k="network" v="Bayerischer Landesverband für Hundesport (BLV)"/>
    <tag k="school_type" v="dog"/>
    <tag k="sport" v="dog"/>
  </way>
  <way id="26514459" version="18" timestamp="2010-05-23T19:09:38Z" uid="42393" user="mawi42" changeset="4786545">
    <nd ref="290596583"/>
    <nd ref="483035641"/>
    <nd ref="290596584"/>
    <nd ref="290596585"/>
    <nd ref="290596586"/>
    <nd ref="675913461"/>
    <nd ref="290596587"/>
    <nd ref="675913467"/>
    <nd ref="483035642"/>
    <nd ref="290596583"/>
    <tag k="animal" v="sport"/>
    <tag k="area" v="yes"/>
    <tag k="barrier" v="fence"/>
    <tag k="name" v="Hundefreunde Thann"/>
    <tag k="network" v="Bayerischer Landesverband für Hundesport (BLV)"/>
    <tag k="school_type" v="dog"/>
    <tag k="sport" v="dog"/>
  </way>
  <way id="26514459" version="19" timestamp="2010-05-23T19:13:41Z" uid="42393" user="mawi42" changeset="4786545">
    <nd ref="290596583"/>
    <nd ref="483035641"/>
    <nd ref="290596584"/>
    <nd ref="290596585"/>
    <nd ref="290596586"/>
    <nd ref="675913461"/>
    <nd ref="290596587"/>
    <nd ref="675913467"/>
    <nd ref="483035642"/>
    <nd ref="290596583"/>
    <tag k="animal" v="sport"/>
    <tag k="area" v="yes"/>
    <tag k="barrier" v="fence"/>
    <tag k="landuse" v="grass"/>
    <tag k="name" v="Hundefreunde Thann"/>
    <tag k="network" v="Bayerischer Landesverband für Hundesport (BLV)"/>
    <tag k="school_type" v="dog"/>
    <tag k="sport" v="dog"/>
  </way>
  <way id="26514629" version="4" timestamp="2009-02-08T17:21:13Z" uid="4667" user="MapZ" changeset="273266">
    <nd ref="290599080"/>
    <nd ref="25875577"/>
    <nd ref="25875508"/>
    <nd ref="25875707"/>
    <nd ref="25875483"/>
    <nd ref="343468743"/>
    <nd ref="25875496"/>
    <nd ref="343468718"/>
    <nd ref="25875650"/>
    <nd ref="252686284"/>
    <nd ref="148197883"/>
    <nd ref="25279945"/>
    <tag k="created_by" v="Potlatch 0.10b"/>
    <tag k="highway" v="secondary"/>
    <tag k="name" v="Neckarstraße"/>
    <tag k="ref" v="L597"/>
  </way>
  <way id="26514629" version="5" timestamp="2009-04-10T15:06:36Z" changeset="376994">
    <nd ref="290599080"/>
    <nd ref="25875577"/>
    <nd ref="25875508"/>
    <nd ref="25875707"/>
    <nd ref="25875483"/>
    <nd ref="343468743"/>
    <nd ref="25875496"/>
    <nd ref="343468718"/>
    <nd ref="25875650"/>
    <nd ref="252686284"/>
    <tag k="created_by" v="Merkaartor 0.14"/>
    <tag k="highway" v="secondary"/>
    <tag k="maxspeed" v="50"/>
    <tag k="name" v="Neckarstraße"/>
    <tag k="ref" v="L597"/>
  </way>
  <way id="26514629" version="6" timestamp="2009-05-13T17:50:39Z" uid="110263" user="werner2101" changeset="1177758">
    <nd ref="290599080"/>
    <nd ref="25875577"/>
    <nd ref="25875508"/>
    <nd ref="25875707"/>
    <nd ref="25875483"/>
    <nd ref="343468743"/>
    <nd ref="25875496"/>
    <nd ref="343468718"/>
    <nd ref="25875650"/>
    <nd ref="252686284"/>
    <tag k="created_by" v="Merkaartor 0.14"/>
    <tag k="highway" v="secondary"/>
    <tag k="maxspeed" v="50"/>
    <tag k="name" v="Neckarstraße"/>
    <tag k="ref" v="L 597"/>
  </way>
  <way id="26514629" version="7" timestamp="2009-08-18T18:25:22Z" uid="4667" user="MapZ" changeset="2193296">
    <nd ref="290599080"/>
    <nd ref="25875577"/>
    <nd ref="25875508"/>
    <nd ref="25875707"/>
    <nd ref="25875483"/>
    <nd ref="343468743"/>
    <nd ref="25875496"/>
    <nd ref="343468718"/>
    <nd ref="470508267"/>
    <nd ref="25875650"/>
    <nd ref="252686284"/>
    <tag k="highway" v="secondary"/>
    <tag k="maxspeed" v="50"/>
    <tag k="name" v="Neckarstraße"/>
    <tag k="ref" v="L 597"/>
  </way>
  <way id="26514629" version="8" timestamp="2010-02-21T18:34:41Z" uid="6326" user="mike_hd" changeset="3936906">
    <nd ref="290599080"/>
    <nd ref="25875577"/>
    <nd ref="25875508"/>
    <nd ref="25875707"/>
    <nd ref="25875483"/>
    <nd ref="343468743"/>
    <nd ref="343468718"/>
    <nd ref="470508267"/>
    <nd ref="25875650"/>
    <nd ref="252686284"/>
    <tag k="highway" v="secondary"/>
    <tag k="maxspeed" v="50"/>
    <tag k="name" v="Neckarstraße"/>
    <tag k="ref" v="L 597"/>
  </way>
  <way id="26514629" version="9" timestamp="2011-02-13T18:30:11Z" uid="160164" user="mahau" changeset="7278683">
    <nd ref="290599080"/>
    <nd ref="25875577"/>
    <nd ref="1151432271"/>
    <nd ref="25875508"/>
    <nd ref="25875707"/>
    <nd ref="25875483"/>
    <nd ref="343468743"/>
    <nd ref="343468718"/>
    <nd ref="470508267"/>
    <nd ref="25875650"/>
    <nd ref="252686284"/>
    <tag k="highway" v="secondary"/>
    <tag k="maxspeed" v="50"/>
    <tag k="name" v="Neckarstraße"/>
    <tag k="ref" v="L 597"/>
  </way>
  <way id="26514629" version="10" timestamp="2011-05-24T12:02:41Z" uid="6326" user="mike_hd" changeset="8234736">
    <nd ref="290599080"/>
    <nd ref="1151432271"/>
    <nd ref="25875508"/>
    <nd ref="25875707"/>
    <nd ref="25875483"/>
    <nd ref="343468743"/>
    <nd ref="343468718"/>
    <nd ref="470508267"/>
    <nd ref="25875650"/>
    <nd ref="252686284"/>
    <tag k="highway" v="secondary"/>
    <tag k="maxspeed" v="50"/>
    <tag k="name" v="Neckarstraße"/>
    <tag k="ref" v="L 597"/>
  </way>
  <way id="26514629" version="11" timestamp="2011-07-23T19:16:26Z" uid="6326" user="mike_hd" changeset="8809210">
    <nd ref="290599080"/>
    <nd ref="1151432271"/>
    <nd ref="25875508"/>
    <nd ref="25875707"/>
    <nd ref="25875483"/>
    <nd ref="343468743"/>
    <nd ref="343468718"/>
    <nd ref="1371470186"/>
    <nd ref="470508267"/>
    <nd ref="25875650"/>
    <nd ref="252686284"/>
    <tag k="highway" v="secondary"/>
    <tag k="maxspeed" v="50"/>
    <tag k="name" v="Neckarstraße"/>
    <tag k="ref" v="L 597"/>
  </way>
  <way id="26514633" version="5" timestamp="2009-08-27T12:53:59Z" uid="4667" user="MapZ" changeset="2277716">
    <nd ref="25875523"/>
    <nd ref="475054270"/>
    <nd ref="475054264"/>
    <nd ref="475054266"/>
    <nd ref="25875688"/>
    <nd ref="25875539"/>
    <nd ref="25875709"/>
    <nd ref="25875544"/>
    <nd ref="25875719"/>
    <nd ref="271882787"/>
    <nd ref="25875556"/>
    <nd ref="25875729"/>
    <nd ref="25875562"/>
    <nd ref="290599080"/>
    <tag k="highway" v="secondary"/>
    <tag k="name" v="Neckarstraße"/>
    <tag k="ref" v="L 597"/>
  </way>
  <way id="26514633" version="6" timestamp="2009-09-02T22:51:22Z" uid="140064" user="debfreak" changeset="2354570">
    <nd ref="25875523"/>
    <nd ref="475054270"/>
    <nd ref="475054264"/>
    <nd ref="475054266"/>
    <nd ref="25875688"/>
    <nd ref="25875539"/>
    <nd ref="25875709"/>
    <nd ref="25875544"/>
    <nd ref="25875719"/>
    <nd ref="481505989"/>
    <nd ref="271882787"/>
    <nd ref="25875556"/>
    <nd ref="25875729"/>
    <nd ref="25875562"/>
    <nd ref="290599080"/>
    <tag k="highway" v="secondary"/>
    <tag k="name" v="Neckarstraße"/>
    <tag k="ref" v="L 597"/>
  </way>
  <way id="26514633" version="7" timestamp="2009-10-08T20:25:29Z" uid="142422" user="BIGTH" changeset="2787525">
    <nd ref="25875523"/>
    <nd ref="526229147"/>
    <nd ref="526229158"/>
    <nd ref="475054270"/>
    <nd ref="475054264"/>
    <nd ref="475054266"/>
    <nd ref="25875688"/>
    <nd ref="25875539"/>
    <nd ref="25875709"/>
    <nd ref="25875544"/>
    <nd ref="25875719"/>
    <nd ref="481505989"/>
    <nd ref="271882787"/>
    <nd ref="25875556"/>
    <nd ref="25875729"/>
    <nd ref="25875562"/>
    <nd ref="290599080"/>
    <tag k="highway" v="secondary"/>
    <tag k="name" v="Neckarstraße"/>
    <tag k="ref" v="L 597"/>
  </way>
  <way id="26514633" version="8" timestamp="2009-10-08T20:34:45Z" uid="142422" user="BIGTH" changeset="2787525">
    <nd ref="25875523"/>
    <nd ref="526229147"/>
    <nd ref="526229158"/>
    <nd ref="475054270"/>
    <nd ref="475054264"/>
    <nd ref="475054266"/>
    <nd ref="25875688"/>
    <nd ref="25875539"/>
    <nd ref="25875709"/>
    <nd ref="25875544"/>
    <nd ref="25875719"/>
    <nd ref="481505989"/>
    <nd ref="271882787"/>
    <nd ref="25875556"/>
    <nd ref="25875729"/>
    <tag k="highway" v="secondary"/>
    <tag k="name" v="Neckarstraße"/>
    <tag k="ref" v="L 597"/>
  </way>
  <way id="26514633" version="9" timestamp="2009-10-08T21:52:04Z" uid="142422" user="BIGTH" changeset="2788358">
    <nd ref="25875523"/>
    <nd ref="526229147"/>
    <nd ref="526229158"/>
    <nd ref="475054270"/>
    <nd ref="475054264"/>
    <nd ref="475054266"/>
    <nd ref="25875688"/>
    <nd ref="25875539"/>
    <nd ref="25875709"/>
    <nd ref="25875544"/>
    <nd ref="25875719"/>
    <nd ref="481505989"/>
    <nd ref="271882787"/>
    <nd ref="25875556"/>
    <nd ref="25875729"/>
    <nd ref="25875729"/>
    <tag k="highway" v="secondary"/>
    <tag k="name" v="Neckarstraße"/>
    <tag k="ref" v="L 597"/>
  </way>
  <way id="26514633" version="10" timestamp="2009-10-31T14:00:23Z" uid="166129" user="BugBuster" changeset="2997562">
    <nd ref="25875523"/>
    <nd ref="526229147"/>
    <nd ref="526229158"/>
    <nd ref="475054270"/>
    <nd ref="475054264"/>
    <nd ref="475054266"/>
    <nd ref="25875688"/>
    <nd ref="25875539"/>
    <nd ref="25875709"/>
    <nd ref="25875544"/>
    <nd ref="25875719"/>
    <nd ref="481505989"/>
    <nd ref="271882787"/>
    <nd ref="25875556"/>
    <nd ref="25875729"/>
    <tag k="highway" v="secondary"/>
    <tag k="name" v="Neckarstraße"/>
    <tag k="ref" v="L 597"/>
  </way>
  <way id="26514633" version="11" timestamp="2009-11-18T10:41:14Z" uid="6326" user="mike_hd" changeset="3149098">
    <nd ref="25875523"/>
    <nd ref="526229147"/>
    <nd ref="526229158"/>
    <nd ref="475054270"/>
    <nd ref="475054264"/>
    <nd ref="475054266"/>
    <nd ref="25875688"/>
    <nd ref="25875539"/>
    <nd ref="25875709"/>
    <nd ref="25875544"/>
    <nd ref="25875719"/>
    <nd ref="481505989"/>
    <nd ref="560743456"/>
    <tag k="highway" v="secondary"/>
    <tag k="name" v="Neckarstraße"/>
    <tag k="ref" v="L 597"/>
  </way>
  <way id="26514633" version="12" timestamp="2009-11-18T10:41:28Z" uid="6326" user="mike_hd" changeset="3149098">
    <nd ref="25875523"/>
    <nd ref="526229147"/>
    <nd ref="526229158"/>
    <nd ref="475054270"/>
    <nd ref="475054264"/>
    <nd ref="475054266"/>
    <nd ref="25875688"/>
    <nd ref="25875539"/>
    <nd ref="25875709"/>
    <nd ref="25875544"/>
    <nd ref="25875719"/>
    <nd ref="481505989"/>
    <nd ref="566586483"/>
    <tag k="highway" v="secondary"/>
    <tag k="name" v="Neckarstraße"/>
    <tag k="ref" v="L 597"/>
  </way>
  <way id="26514633" version="13" timestamp="2009-11-18T10:42:18Z" uid="6326" user="mike_hd" changeset="3149098">
    <nd ref="25875523"/>
    <nd ref="526229147"/>
    <nd ref="526229158"/>
    <nd ref="475054270"/>
    <nd ref="475054264"/>
    <nd ref="475054266"/>
    <nd ref="25875688"/>
    <nd ref="25875539"/>
    <nd ref="25875709"/>
    <nd ref="25875544"/>
    <nd ref="25875719"/>
    <nd ref="481505989"/>
    <nd ref="271882787"/>
    <nd ref="566586630"/>
    <nd ref="25875729"/>
    <tag k="highway" v="secondary"/>
    <tag k="name" v="Neckarstraße"/>
    <tag k="ref" v="L 597"/>
  </way>
  <way id="26514633" version="14" timestamp="2009-12-02T14:52:43Z" uid="6326" user="mike_hd" changeset="3272826">
    <nd ref="25875523"/>
    <nd ref="526229147"/>
    <nd ref="526229158"/>
    <nd ref="475054270"/>
    <nd ref="475054264"/>
    <nd ref="475054266"/>
    <nd ref="25875688"/>
    <nd ref="25875539"/>
    <nd ref="25875709"/>
    <nd ref="25875544"/>
    <nd ref="25875719"/>
    <nd ref="481505989"/>
    <nd ref="566586630"/>
    <nd ref="25875729"/>
    <tag k="highway" v="secondary"/>
    <tag k="name" v="Neckarstraße"/>
    <tag k="ref" v="L 597"/>
  </way>
  <way id="26514633" version="15" timestamp="2009-12-02T14:53:40Z" uid="6326" user="mike_hd" changeset="3272826">
    <nd ref="25875523"/>
    <nd ref="526229147"/>
    <nd ref="526229158"/>
    <nd ref="475054270"/>
    <nd ref="475054264"/>
    <nd ref="475054266"/>
    <nd ref="25875688"/>
    <nd ref="25875539"/>
    <nd ref="25875709"/>
    <nd ref="25875544"/>
    <nd ref="25875719"/>
    <nd ref="481505989"/>
    <nd ref="577625833"/>
    <tag k="highway" v="secondary"/>
    <tag k="name" v="Neckarstraße"/>
    <tag k="ref" v="L 597"/>
  </way>
  <way id="26514633" version="16" timestamp="2010-03-03T21:09:37Z" uid="9581" user="Lobelt" changeset="4028560">
    <nd ref="25875523"/>
    <nd ref="526229147"/>
    <nd ref="526229158"/>
    <nd ref="475054270"/>
    <nd ref="475054264"/>
    <nd ref="475054266"/>
    <nd ref="25875688"/>
    <nd ref="25875539"/>
    <nd ref="25875709"/>
    <nd ref="659940949"/>
    <nd ref="25875719"/>
    <nd ref="481505989"/>
    <nd ref="577625833"/>
    <tag k="highway" v="secondary"/>
    <tag k="name" v="Neckarstraße"/>
    <tag k="ref" v="L 597"/>
  </way>
  <way id="26514633" version="17" timestamp="2010-03-16T14:24:31Z" uid="140064" user="debfreak" changeset="4143701">
    <nd ref="25875523"/>
    <nd ref="526229147"/>
    <nd ref="526229158"/>
    <nd ref="475054270"/>
    <nd ref="475054264"/>
    <nd ref="475054266"/>
    <nd ref="25875688"/>
    <nd ref="667343373"/>
    <nd ref="25875539"/>
    <nd ref="25875709"/>
    <nd ref="659940949"/>
    <nd ref="25875719"/>
    <nd ref="667343395"/>
    <nd ref="577625833"/>
    <tag k="highway" v="secondary"/>
    <tag k="name" v="Neckarstraße"/>
    <tag k="ref" v="L 597"/>
  </way>
  <way id="26514633" version="18" timestamp="2010-03-18T16:14:45Z" uid="140064" user="debfreak" changeset="4162492">
    <nd ref="25875523"/>
    <nd ref="526229147"/>
    <nd ref="526229158"/>
    <nd ref="475054270"/>
    <nd ref="475054264"/>
    <nd ref="475054266"/>
    <nd ref="25875688"/>
    <nd ref="667343373"/>
    <nd ref="25875539"/>
    <nd ref="25875709"/>
    <nd ref="659940949"/>
    <nd ref="25875719"/>
    <nd ref="668953471"/>
    <nd ref="577625833"/>
    <tag k="highway" v="secondary"/>
    <tag k="name" v="Neckarstraße"/>
    <tag k="ref" v="L 597"/>
  </way>
  <way id="26514633" version="19" timestamp="2010-08-11T12:50:24Z" uid="140064" user="debfreak" changeset="5462620">
    <nd ref="25875523"/>
    <nd ref="526229147"/>
    <nd ref="526229158"/>
    <nd ref="475054270"/>
    <nd ref="475054264"/>
    <nd ref="475054266"/>
    <nd ref="25875688"/>
    <nd ref="667343373"/>
    <nd ref="25875539"/>
    <nd ref="854541311"/>
    <nd ref="854541310"/>
    <nd ref="854541307"/>
    <nd ref="25875709"/>
    <nd ref="854541305"/>
    <nd ref="854541286"/>
    <nd ref="854541309"/>
    <nd ref="659940949"/>
    <nd ref="25875719"/>
    <nd ref="668953471"/>
    <nd ref="577625833"/>
    <tag k="highway" v="secondary"/>
    <tag k="name" v="Neckarstraße"/>
    <tag k="ref" v="L 597"/>
  </way>
  <way id="26514633" version="20" timestamp="2010-08-11T13:08:34Z" uid="140064" user="debfreak" changeset="5462775">
    <nd ref="25875523"/>
    <nd ref="526229147"/>
    <nd ref="526229158"/>
    <nd ref="475054270"/>
    <nd ref="475054264"/>
    <nd ref="475054266"/>
    <nd ref="25875688"/>
    <nd ref="667343373"/>
    <nd ref="25875539"/>
    <nd ref="854541311"/>
    <nd ref="854541310"/>
    <nd ref="854541307"/>
    <nd ref="25875709"/>
    <nd ref="854541305"/>
    <nd ref="854541286"/>
    <nd ref="854541309"/>
    <nd ref="659940949"/>
    <nd ref="854577124"/>
    <nd ref="25875719"/>
    <nd ref="668953471"/>
    <nd ref="577625833"/>
    <tag k="highway" v="secondary"/>
    <tag k="name" v="Neckarstraße"/>
    <tag k="ref" v="L 597"/>
  </way>
  <way id="26514633" version="21" timestamp="2011-02-26T09:59:02Z" uid="6326" user="mike_hd" changeset="7398041">
    <nd ref="25875523"/>
    <nd ref="526229147"/>
    <nd ref="526229158"/>
    <nd ref="475054270"/>
    <nd ref="475054264"/>
    <nd ref="475054266"/>
    <nd ref="25875688"/>
    <nd ref="667343373"/>
    <nd ref="854541311"/>
    <nd ref="854541310"/>
    <nd ref="659940949"/>
    <nd ref="854577124"/>
    <nd ref="25875719"/>
    <nd ref="668953471"/>
    <nd ref="577625833"/>
    <tag k="highway" v="secondary"/>
    <tag k="name" v="Neckarstraße"/>
    <tag k="ref" v="L 597"/>
  </way>
  <way id="26514633" version="22" timestamp="2011-04-11T17:07:24Z" uid="29639" user="bielebog" changeset="7835068">
    <nd ref="25875523"/>
    <nd ref="526229147"/>
    <nd ref="526229158"/>
    <nd ref="475054270"/>
    <tag k="highway" v="secondary"/>
    <tag k="maxspeed" v="30"/>
    <tag k="name" v="Neckarstraße"/>
    <tag k="ref" v="L 597"/>
  </way>
  <way id="26514703" version="1" timestamp="2008-08-24T07:58:50Z" uid="18775" user="drlizau" changeset="391058">
    <nd ref="290600007"/>
    <nd ref="290600016"/>
    <nd ref="290600026"/>
    <nd ref="290600037"/>
    <nd ref="290600045"/>
    <nd ref="290600055"/>
    <nd ref="290600063"/>
    <nd ref="290600068"/>
    <nd ref="290600078"/>
    <nd ref="290600084"/>
    <nd ref="290600095"/>
    <nd ref="290600105"/>
    <nd ref="290600115"/>
    <nd ref="290600123"/>
    <nd ref="290600135"/>
    <nd ref="290600146"/>
    <nd ref="290600164"/>
    <nd ref="290600174"/>
    <nd ref="290600182"/>
    <nd ref="290600193"/>
    <nd ref="290600204"/>
    <nd ref="290600215"/>
    <nd ref="290600227"/>
    <nd ref="290600237"/>
    <nd ref="290600258"/>
    <nd ref="290600248"/>
    <nd ref="290600258"/>
    <nd ref="290600269"/>
    <nd ref="290600278"/>
    <nd ref="290600287"/>
    <nd ref="290600290"/>
    <nd ref="290600293"/>
    <nd ref="290600007"/>
    <tag k="name" v="Fivebough Swamp"/>
    <tag k="natural" v="water"/>
  </way>
  <way id="26514703" version="2" timestamp="2008-08-24T08:07:23Z" uid="18775" user="drlizau" changeset="391058">
    <nd ref="290600007"/>
    <nd ref="290600016"/>
    <nd ref="290600026"/>
    <nd ref="290600037"/>
    <nd ref="290600045"/>
    <nd ref="290600055"/>
    <nd ref="290600063"/>
    <nd ref="290600068"/>
    <nd ref="290600078"/>
    <nd ref="290600084"/>
    <nd ref="290600095"/>
    <nd ref="290600105"/>
    <nd ref="290600115"/>
    <nd ref="290600123"/>
    <nd ref="290600135"/>
    <nd ref="290600146"/>
    <nd ref="290600164"/>
    <nd ref="290600174"/>
    <nd ref="290600182"/>
    <nd ref="290600193"/>
    <nd ref="290600204"/>
    <nd ref="290600215"/>
    <nd ref="290600227"/>
    <nd ref="290600237"/>
    <nd ref="290600258"/>
    <nd ref="290600248"/>
    <nd ref="290600258"/>
    <nd ref="290600269"/>
    <nd ref="290600278"/>
    <nd ref="290600287"/>
    <nd ref="290600290"/>
    <nd ref="290600293"/>
    <nd ref="290600007"/>
    <tag k="name" v="Fivebough Swamp"/>
    <tag k="natural" v="water"/>
    <tag k="source" v="landsat"/>
  </way>
  <way id="26514703" version="3" timestamp="2008-08-28T07:53:30Z" uid="19626" user="Swamp" changeset="434470">
    <nd ref="290600269"/>
    <nd ref="290600278"/>
    <nd ref="290600287"/>
    <nd ref="290600290"/>
    <nd ref="290600293"/>
    <nd ref="290600007"/>
    <nd ref="290600016"/>
    <nd ref="290600026"/>
    <nd ref="290600037"/>
    <nd ref="290600045"/>
    <nd ref="290600055"/>
    <nd ref="290600063"/>
    <nd ref="290600068"/>
    <nd ref="290600078"/>
    <nd ref="290600084"/>
    <nd ref="290600095"/>
    <nd ref="290600105"/>
    <nd ref="290600115"/>
    <nd ref="290600123"/>
    <nd ref="290600135"/>
    <nd ref="290600146"/>
    <nd ref="290600164"/>
    <nd ref="290600174"/>
    <nd ref="290600182"/>
    <nd ref="290600193"/>
    <nd ref="290600204"/>
    <nd ref="290600215"/>
    <nd ref="290600227"/>
    <nd ref="290600237"/>
    <tag k="name" v="Fivebough Swamp"/>
    <tag k="natural" v="water"/>
    <tag k="source" v="landsat"/>
  </way>
  <way id="26514703" version="4" timestamp="2008-11-09T06:17:41Z" uid="30201" user="rrankin" changeset="719919"/>
  <way id="26514712" version="6" timestamp="2011-04-05T21:23:20Z" uid="16922" user="amai" changeset="7779617">
    <nd ref="290600423"/>
    <nd ref="290600424"/>
    <nd ref="290600433"/>
    <nd ref="290600425"/>
    <nd ref="290600427"/>
    <nd ref="407896414"/>
    <nd ref="290600431"/>
    <nd ref="290600432"/>
    <nd ref="290602102"/>
    <nd ref="290602103"/>
    <nd ref="290602104"/>
    <nd ref="290602105"/>
    <nd ref="290602106"/>
    <nd ref="290602107"/>
    <nd ref="290602108"/>
    <nd ref="290602109"/>
    <nd ref="290602111"/>
    <nd ref="290602112"/>
    <nd ref="290602113"/>
    <nd ref="290602114"/>
    <nd ref="290602115"/>
    <nd ref="290602116"/>
    <nd ref="1234158985"/>
    <nd ref="290602117"/>
    <nd ref="290602118"/>
    <nd ref="290602119"/>
    <nd ref="290602120"/>
    <nd ref="290602121"/>
    <nd ref="290602122"/>
    <nd ref="290602123"/>
    <nd ref="290602124"/>
    <nd ref="290602125"/>
    <nd ref="290602126"/>
    <nd ref="290602127"/>
    <nd ref="290602128"/>
    <nd ref="943046441"/>
    <tag k="highway" v="secondary"/>
    <tag k="name" v="Sura Narai"/>
    <tag k="ref" v="205"/>
    <tag k="source" v="GPS"/>
  </way>
  <way id="26514712" version="7" timestamp="2011-05-28T14:02:36Z" uid="61891" user="stephankn" changeset="8272067"/>
  <way id="26514896" version="1" timestamp="2008-08-24T08:06:36Z" uid="18775" user="drlizau" changeset="391058">
    <nd ref="290602075"/>
    <nd ref="290602078"/>
    <nd ref="290602079"/>
    <nd ref="290602080"/>
    <nd ref="290602081"/>
    <nd ref="290602075"/>
    <tag k="man_made" v="wastewater_plant"/>
    <tag k="name" v="Leeton Wastewater Plant"/>
  </way>
  <way id="26514896" version="2" timestamp="2008-08-24T08:07:25Z" uid="18775" user="drlizau" changeset="391058">
    <nd ref="290602075"/>
    <nd ref="290602078"/>
    <nd ref="290602079"/>
    <nd ref="290602080"/>
    <nd ref="290602081"/>
    <nd ref="290602075"/>
    <tag k="man_made" v="wastewater_plant"/>
    <tag k="name" v="Leeton Wastewater Plant"/>
    <tag k="source" v="landsat"/>
  </way>
  <way id="26514938" version="1" timestamp="2008-08-24T08:13:34Z" uid="18775" user="drlizau" changeset="391058">
    <nd ref="250964956"/>
    <nd ref="250965281"/>
    <nd ref="250965282"/>
    <nd ref="290602708"/>
    <nd ref="290602709"/>
    <nd ref="290602710"/>
    <nd ref="290602711"/>
    <nd ref="290602713"/>
    <nd ref="290602714"/>
    <nd ref="290602715"/>
    <nd ref="290602716"/>
    <nd ref="290602717"/>
    <nd ref="290602718"/>
    <nd ref="290602719"/>
    <nd ref="290602720"/>
    <nd ref="290602721"/>
    <nd ref="290602722"/>
    <nd ref="290602723"/>
    <nd ref="290602724"/>
    <nd ref="290602725"/>
    <nd ref="290602726"/>
    <nd ref="290602727"/>
    <tag k="created_by" v="JOSM"/>
    <tag k="highway" v="unclassified"/>
    <tag k="name" v="Colinroobie Road"/>
  </way>
  <way id="26514938" version="2" timestamp="2008-08-24T09:32:46Z" uid="18775" user="drlizau" changeset="391058"/>
  <way id="26514947" version="1" timestamp="2008-08-24T08:14:57Z" uid="18775" user="drlizau" changeset="391058">
    <nd ref="290602865"/>
    <nd ref="249793559"/>
    <nd ref="250964948"/>
    <nd ref="250964949"/>
    <nd ref="250964950"/>
    <nd ref="250964951"/>
    <nd ref="250964952"/>
    <nd ref="250964953"/>
    <nd ref="250964954"/>
    <nd ref="250964955"/>
    <nd ref="250964956"/>
    <tag k="created_by" v="JOSM"/>
    <tag k="highway" v="tertiary"/>
    <tag k="name" v="Hughenden Road"/>
    <tag k="source" v="landsat"/>
  </way>
  <way id="26514947" version="2" timestamp="2008-08-24T08:22:14Z" uid="18775" user="drlizau" changeset="391058">
    <nd ref="290602865"/>
    <nd ref="249793559"/>
    <nd ref="250964948"/>
    <nd ref="250964949"/>
    <nd ref="250964950"/>
    <nd ref="250964951"/>
    <nd ref="250964952"/>
    <nd ref="250964953"/>
    <nd ref="250964954"/>
    <nd ref="250964955"/>
    <nd ref="250964956"/>
    <tag k="created_by" v="JOSM"/>
    <tag k="highway" v="tertiary"/>
    <tag k="source" v="landsat"/>
  </way>
  <way id="26514947" version="3" timestamp="2008-08-24T09:25:58Z" uid="18775" user="drlizau" changeset="391058">
    <nd ref="290602865"/>
    <nd ref="249793559"/>
    <nd ref="250964948"/>
    <nd ref="250964949"/>
    <nd ref="250964950"/>
    <nd ref="250964951"/>
    <nd ref="250964952"/>
    <nd ref="250964953"/>
    <nd ref="250964954"/>
    <nd ref="250964955"/>
    <nd ref="250964956"/>
    <tag k="created_by" v="JOSM"/>
    <tag k="highway" v="tertiary"/>
    <tag k="name" v="Brobenah Hall Road"/>
    <tag k="source" v="landsat"/>
  </way>
  <way id="26514959" version="8" timestamp="2011-06-11T10:39:27Z" uid="16922" user="amai" changeset="8404693">
    <nd ref="298372260"/>
    <nd ref="298372258"/>
    <nd ref="298372257"/>
    <nd ref="298372256"/>
    <nd ref="298372253"/>
    <nd ref="290608277"/>
    <nd ref="290608278"/>
    <nd ref="290608334"/>
    <nd ref="290608092"/>
    <nd ref="290608381"/>
    <nd ref="290608336"/>
    <nd ref="290608095"/>
    <nd ref="1319901297"/>
    <nd ref="290608097"/>
    <nd ref="290608099"/>
    <nd ref="290608100"/>
    <nd ref="290608380"/>
    <nd ref="290608284"/>
    <nd ref="290608104"/>
    <nd ref="290608105"/>
    <nd ref="290603080"/>
    <nd ref="290603079"/>
    <nd ref="290603078"/>
    <nd ref="290603077"/>
    <nd ref="290603116"/>
    <nd ref="290603075"/>
    <nd ref="290603074"/>
    <nd ref="290603073"/>
    <nd ref="290603103"/>
    <nd ref="290603072"/>
    <nd ref="290603071"/>
    <nd ref="290603114"/>
    <nd ref="290603123"/>
    <nd ref="290603112"/>
    <nd ref="290603111"/>
    <nd ref="290603065"/>
    <nd ref="290604519"/>
    <nd ref="290604517"/>
    <nd ref="290603120"/>
    <nd ref="290603054"/>
    <tag k="highway" v="tertiary"/>
    <tag k="name" v="Nandigudda Road"/>
  </way>
  <way id="26514959" version="9" timestamp="2011-10-03T02:11:14Z" uid="492742" user="docaneesh" changeset="9456362">
    <nd ref="298372260"/>
    <nd ref="298372258"/>
    <nd ref="298372257"/>
    <nd ref="298372256"/>
    <nd ref="298372253"/>
    <nd ref="290608277"/>
    <nd ref="290608278"/>
    <nd ref="290608334"/>
    <nd ref="290608092"/>
    <nd ref="290608381"/>
    <nd ref="290608336"/>
    <nd ref="290608095"/>
    <nd ref="1319901297"/>
    <nd ref="290608097"/>
    <nd ref="290608099"/>
    <nd ref="290608100"/>
    <nd ref="290608380"/>
    <nd ref="290608284"/>
    <nd ref="290608104"/>
    <nd ref="290608105"/>
    <nd ref="290603080"/>
    <nd ref="290603079"/>
    <nd ref="290603078"/>
    <nd ref="290603077"/>
    <nd ref="290603116"/>
    <nd ref="290603075"/>
    <nd ref="290603074"/>
    <nd ref="290603073"/>
    <nd ref="290603103"/>
    <nd ref="290603072"/>
    <nd ref="290603071"/>
    <nd ref="290603114"/>
    <nd ref="290603123"/>
    <nd ref="290603112"/>
    <nd ref="290603111"/>
    <nd ref="290603065"/>
    <nd ref="1453316566"/>
    <nd ref="290604519"/>
    <nd ref="290604517"/>
    <nd ref="290603054"/>
    <tag k="highway" v="tertiary"/>
    <tag k="name" v="Nandigudda Road"/>
  </way>
  <way id="26514959" version="10" timestamp="2011-10-03T09:35:51Z" uid="492742" user="docaneesh" changeset="9458188">
    <nd ref="298372260"/>
    <nd ref="298372258"/>
    <nd ref="298372257"/>
    <nd ref="298372256"/>
    <nd ref="298372253"/>
    <nd ref="290608277"/>
    <nd ref="290608278"/>
    <nd ref="290608334"/>
    <nd ref="290608092"/>
    <nd ref="290608381"/>
    <nd ref="290608336"/>
    <nd ref="290608095"/>
    <nd ref="1319901297"/>
    <nd ref="290608097"/>
    <nd ref="290608099"/>
    <nd ref="290608100"/>
    <nd ref="290608380"/>
    <nd ref="290608284"/>
    <nd ref="290608104"/>
    <nd ref="290608105"/>
    <nd ref="290603080"/>
    <nd ref="290603079"/>
    <nd ref="290603078"/>
    <nd ref="290603077"/>
    <nd ref="290603116"/>
    <nd ref="290603075"/>
    <nd ref="290603074"/>
    <nd ref="290603073"/>
    <nd ref="290603103"/>
    <nd ref="290603072"/>
    <nd ref="290603071"/>
    <nd ref="290603114"/>
    <nd ref="290603123"/>
    <nd ref="290603112"/>
    <nd ref="1453575643"/>
    <nd ref="290603111"/>
    <nd ref="290603065"/>
    <nd ref="1453316566"/>
    <nd ref="290604519"/>
    <nd ref="290604517"/>
    <nd ref="290603054"/>
    <tag k="highway" v="tertiary"/>
    <tag k="name" v="Nandigudda Road"/>
  </way>
  <way id="26514959" version="11" timestamp="2012-03-20T16:28:00Z" uid="492742" user="docaneesh" changeset="11042028">
    <nd ref="1683317998"/>
    <nd ref="298372260"/>
    <nd ref="298372258"/>
    <nd ref="298372257"/>
    <nd ref="298372256"/>
    <nd ref="298372253"/>
    <nd ref="290608277"/>
    <nd ref="290608278"/>
    <nd ref="290608334"/>
    <nd ref="290608092"/>
    <nd ref="290608381"/>
    <nd ref="290608336"/>
    <nd ref="290608095"/>
    <nd ref="1319901297"/>
    <nd ref="290608097"/>
    <nd ref="290608099"/>
    <nd ref="290608100"/>
    <nd ref="290608380"/>
    <nd ref="290608284"/>
    <nd ref="290608104"/>
    <nd ref="290608105"/>
    <nd ref="290603080"/>
    <nd ref="290603079"/>
    <nd ref="290603078"/>
    <nd ref="290603077"/>
    <nd ref="290603116"/>
    <nd ref="290603075"/>
    <nd ref="290603074"/>
    <nd ref="290603073"/>
    <nd ref="290603103"/>
    <nd ref="290603072"/>
    <nd ref="290603071"/>
    <nd ref="290603114"/>
    <nd ref="290603123"/>
    <nd ref="290603112"/>
    <nd ref="1453575643"/>
    <nd ref="290603111"/>
    <nd ref="290603065"/>
    <nd ref="1453316566"/>
    <nd ref="290604519"/>
    <nd ref="290604517"/>
    <nd ref="290603054"/>
    <tag k="highway" v="tertiary"/>
    <tag k="name" v="Nandigudda Road"/>
  </way>
  <way id="26514974" version="6" timestamp="2011-06-11T10:39:28Z" uid="16922" user="amai" changeset="8404693">
    <nd ref="290603088"/>
    <nd ref="290604634"/>
    <nd ref="290603267"/>
    <nd ref="290604750"/>
    <nd ref="290603269"/>
    <nd ref="290603270"/>
    <nd ref="290603271"/>
    <nd ref="290603273"/>
    <nd ref="290604637"/>
    <nd ref="290604752"/>
    <nd ref="290604639"/>
    <nd ref="290603277"/>
    <nd ref="290604640"/>
    <nd ref="290604753"/>
    <nd ref="290608293"/>
    <nd ref="298347512"/>
    <nd ref="298347513"/>
    <nd ref="1319901262"/>
    <nd ref="298347514"/>
    <nd ref="298347515"/>
    <nd ref="298347516"/>
    <nd ref="298347517"/>
    <tag k="highway" v="tertiary"/>
    <tag k="name" v="Bishop Victor Road"/>
  </way>
  <way id="26514974" version="7" timestamp="2011-10-03T09:35:52Z" uid="492742" user="docaneesh" changeset="9458188">
    <nd ref="290603088"/>
    <nd ref="290603267"/>
    <nd ref="290604750"/>
    <nd ref="290603269"/>
    <nd ref="290603270"/>
    <nd ref="290603271"/>
    <nd ref="1453575659"/>
    <nd ref="290603273"/>
    <nd ref="290604637"/>
    <nd ref="290604752"/>
    <nd ref="290604639"/>
    <nd ref="290603277"/>
    <nd ref="290604640"/>
    <nd ref="290604753"/>
    <nd ref="290608293"/>
    <nd ref="298347512"/>
    <nd ref="298347513"/>
    <nd ref="1319901262"/>
    <nd ref="298347514"/>
    <nd ref="298347515"/>
    <nd ref="298347516"/>
    <nd ref="298347517"/>
    <tag k="highway" v="tertiary"/>
    <tag k="name" v="Bishop Victor Road"/>
  </way>
  <way id="26514974" version="8" timestamp="2012-03-20T16:45:21Z" uid="492742" user="docaneesh" changeset="11042028">
    <nd ref="290603088"/>
    <nd ref="290603267"/>
    <nd ref="290604750"/>
    <nd ref="290603269"/>
    <nd ref="290603270"/>
    <nd ref="290603271"/>
    <nd ref="1453575659"/>
    <nd ref="290603273"/>
    <nd ref="290604637"/>
    <nd ref="290604752"/>
    <nd ref="290604639"/>
    <nd ref="290603277"/>
    <nd ref="290604640"/>
    <nd ref="290604753"/>
    <nd ref="290608293"/>
    <nd ref="298347512"/>
    <nd ref="298347513"/>
    <nd ref="1319901262"/>
    <nd ref="298347514"/>
    <nd ref="298347515"/>
    <nd ref="298347516"/>
    <nd ref="298347517"/>
    <tag k="highway" v="tertiary_link"/>
    <tag k="name" v="Bishop Victor Road"/>
  </way>
  <way id="26514981" version="1" timestamp="2008-08-24T08:19:49Z" uid="18775" user="drlizau" changeset="391058">
    <nd ref="290602865"/>
    <nd ref="290603375"/>
    <nd ref="290603386"/>
    <nd ref="290603390"/>
    <nd ref="290603394"/>
    <nd ref="290603398"/>
    <nd ref="290603402"/>
    <tag k="highway" v="unclassified"/>
    <tag k="name" v="Evans Smylie Road"/>
    <tag k="source" v="survey"/>
    <tag k="surface" v="unpaved"/>
  </way>
  <way id="26514982" version="1" timestamp="2008-08-24T08:19:50Z" uid="18775" user="drlizau" changeset="391058">
    <nd ref="290603402"/>
    <nd ref="290603410"/>
    <nd ref="290603414"/>
    <nd ref="290603415"/>
    <nd ref="290603416"/>
    <nd ref="290603417"/>
    <nd ref="290603419"/>
    <nd ref="290603420"/>
    <nd ref="290603421"/>
    <tag k="highway" v="unclassified"/>
    <tag k="name" v="Round Hill Road"/>
    <tag k="source" v="survey"/>
    <tag k="surface" v="unpaved"/>
  </way>
  <way id="26514982" version="2" timestamp="2008-08-24T08:22:15Z" uid="18775" user="drlizau" changeset="391058">
    <nd ref="290603402"/>
    <nd ref="290603410"/>
    <nd ref="290603414"/>
    <nd ref="290603415"/>
    <nd ref="290603416"/>
    <nd ref="290603417"/>
    <nd ref="290603419"/>
    <nd ref="290603420"/>
    <nd ref="290603421"/>
    <nd ref="290604178"/>
    <tag k="highway" v="unclassified"/>
    <tag k="name" v="Round Hill Road"/>
    <tag k="source" v="survey"/>
    <tag k="surface" v="unpaved"/>
  </way>
  <way id="26514983" version="1" timestamp="2008-08-24T08:19:52Z" uid="18775" user="drlizau" changeset="391058">
    <nd ref="290603402"/>
    <nd ref="290603406"/>
    <tag k="highway" v="unclassified"/>
    <tag k="name" v="Evans Smylie Road"/>
    <tag k="source" v="landsat"/>
    <tag k="surface" v="unpaved"/>
  </way>
</osm>
