<?xml version='1.0' encoding='UTF-8'?>
<osm version="0.6" generator="libosmium/2.20.0">
  <way id="27099226" version="3" timestamp="2008-10-09T21:43:50Z" uid="30632" user="antblant" changeset="210278">
    <nd ref="297326762"/>
    <nd ref="297326781"/>
    <tag k="created_by" v="Potlatch 0.10d"/>
    <tag k="highway" v="secondary"/>
    <tag k="name" v="Kosynierów"/>
    <tag k="source" v="UMP-PL, ./UMP-Gdansk/src/RUMIA.ulice.txt"/>
  </way>
  <way id="27099226" version="4" timestamp="2009-10-21T19:10:37Z" uid="16188" user="Ahven" changeset="2915875">
    <nd ref="297326762"/>
    <nd ref="538028851"/>
    <nd ref="297326781"/>
    <tag k="highway" v="secondary"/>
    <tag k="name" v="Kosynierów"/>
    <tag k="source" v="UMP-PL, ./UMP-Gdansk/src/RUMIA.ulice.txt"/>
  </way>
  <way id="27099226" version="5" timestamp="2012-01-19T08:35:53Z" uid="378154" user="rosomak" changeset="10434716">
    <nd ref="538028851"/>
    <nd ref="297326781"/>
    <tag k="highway" v="secondary"/>
    <tag k="name" v="Kosynierów"/>
    <tag k="source" v="UMP-PL, ./UMP-Gdansk/src/RUMIA.ulice.txt"/>
  </way>
  <way id="27099229" version="3" timestamp="2008-10-09T21:55:47Z" uid="30632" user="antblant" changeset="210278">
    <nd ref="297327714"/>
    <nd ref="297327705"/>
    <nd ref="297328166"/>
    <tag k="created_by" v="Potlatch 0.10d"/>
    <tag k="highway" v="residential"/>
    <tag k="name" v="Pułaskiego"/>
    <tag k="source" v="UMP-PL, ./UMP-Gdansk/src/RUMIA.ulice.txt"/>
  </way>
  <way id="27099229" version="4" timestamp="2008-10-16T17:51:21Z" uid="53100" user="Jakub Klawiter" changeset="388840">
    <nd ref="297327714"/>
    <nd ref="297327705"/>
    <nd ref="297328166"/>
    <tag k="created_by" v="Potlatch 0.10d"/>
    <tag k="highway" v="residential"/>
    <tag k="name" v="Generała Kazimierza Pułaskiego"/>
    <tag k="source" v="UMP-PL, ./UMP-Gdansk/src/RUMIA.ulice.txt"/>
  </way>
  <way id="27099229" version="5" timestamp="2011-12-24T22:28:27Z" uid="378154" user="rosomak" changeset="10196643">
    <nd ref="297327714"/>
    <nd ref="297327705"/>
    <nd ref="297328166"/>
    <tag k="highway" v="residential"/>
    <tag k="name" v="Generała Kazimierza Pułaskiego"/>
  </way>
  <way id="27099229" version="6" timestamp="2012-01-15T11:53:36Z" uid="378154" user="rosomak" changeset="10396961">
    <nd ref="297327714"/>
    <nd ref="297327705"/>
    <nd ref="297328166"/>
    <tag k="highway" v="residential"/>
    <tag k="name" v="generała Kazimierza Pułaskiego"/>
  </way>
  <way id="27099229" version="7" timestamp="2012-01-15T16:08:50Z" uid="378154" user="rosomak" changeset="10399661">
    <nd ref="297327714"/>
    <nd ref="297327705"/>
    <nd ref="297328166"/>
    <tag k="highway" v="residential"/>
    <tag k="name" v="generała Kazimierza Pułaskiego"/>
  </way>
  <way id="27099235" version="3" timestamp="2008-10-09T21:59:27Z" uid="30632" user="antblant" changeset="210278">
    <nd ref="297327384"/>
    <nd ref="297327681"/>
    <nd ref="297327089"/>
    <tag k="created_by" v="Potlatch 0.10d"/>
    <tag k="highway" v="tertiary"/>
    <tag k="name" v="Dąbrowskiego"/>
    <tag k="source" v="UMP-PL, ./UMP-Gdansk/src/RUMIA.ulice.txt"/>
  </way>
  <way id="27099235" version="4" timestamp="2008-10-15T20:16:01Z" uid="53100" user="Jakub Klawiter" changeset="365918">
    <nd ref="297327384"/>
    <nd ref="297327681"/>
    <nd ref="297327089"/>
    <tag k="created_by" v="Potlatch 0.10d"/>
    <tag k="highway" v="tertiary"/>
    <tag k="name" v="Jana Henryka Dąbrowskiego"/>
    <tag k="source" v="UMP-PL, ./UMP-Gdansk/src/RUMIA.ulice.txt"/>
  </way>
  <way id="27099235" version="5" timestamp="2009-09-16T18:08:57Z" uid="16188" user="Ahven" changeset="2505144">
    <nd ref="297327384"/>
    <nd ref="297327681"/>
    <nd ref="297327089"/>
    <tag k="highway" v="tertiary"/>
    <tag k="name" v="Jana Henryka Dąbrowskiego"/>
    <tag k="source" v="UMP-PL, ./UMP-Gdansk/src/RUMIA.ulice.txt"/>
  </way>
  <way id="27099235" version="6" timestamp="2009-09-16T18:09:21Z" uid="16188" user="Ahven" changeset="2505144">
    <nd ref="297327384"/>
    <nd ref="297327681"/>
    <nd ref="297327089"/>
    <tag k="highway" v="tertiary"/>
    <tag k="name" v="Jana Henryka Dąbrowskiego"/>
    <tag k="oneway" v="yes"/>
    <tag k="source" v="UMP-PL, ./UMP-Gdansk/src/RUMIA.ulice.txt"/>
  </way>
  <way id="27099235" version="7" timestamp="2012-01-05T15:04:37Z" uid="378154" user="rosomak" changeset="10301862">
    <nd ref="297327384"/>
    <nd ref="297327681"/>
    <nd ref="297327089"/>
    <tag k="highway" v="tertiary"/>
    <tag k="name" v="Jana Henryka Dąbrowskiego"/>
    <tag k="oneway" v="yes"/>
  </way>
  <way id="27099235" version="8" timestamp="2012-01-09T09:41:21Z" uid="378154" user="rosomak" changeset="10340098">
    <nd ref="297327384"/>
    <nd ref="297327681"/>
    <nd ref="297327089"/>
    <tag k="highway" v="tertiary_link"/>
    <tag k="name" v="Jana Henryka Dąbrowskiego"/>
    <tag k="oneway" v="yes"/>
  </way>
  <way id="27099241" version="3" timestamp="2008-10-09T21:50:56Z" uid="30632" user="antblant" changeset="210278">
    <nd ref="297326638"/>
    <nd ref="297326627"/>
    <tag k="created_by" v="Potlatch 0.10d"/>
    <tag k="highway" v="residential"/>
    <tag k="name" v="Kosynierów"/>
    <tag k="source" v="UMP-PL, ./UMP-Gdansk/src/RUMIA.ulice.txt"/>
  </way>
  <way id="27099241" version="4" timestamp="2012-01-16T11:34:55Z" uid="378154" user="rosomak" changeset="10407528">
    <nd ref="297326638"/>
    <nd ref="297326627"/>
    <tag k="highway" v="residential"/>
    <tag k="name" v="Kosynierów"/>
  </way>
  <way id="27099252" version="3" timestamp="2008-09-22T15:49:43Z" uid="30632" user="antblant" changeset="680284">
    <nd ref="297326895"/>
    <nd ref="297326867"/>
    <nd ref="297327639"/>
    <nd ref="297327583"/>
    <nd ref="297327638"/>
    <nd ref="297327637"/>
    <nd ref="297327578"/>
    <nd ref="297327644"/>
    <nd ref="297327569"/>
    <nd ref="297326733"/>
    <nd ref="297327625"/>
    <nd ref="297327643"/>
    <nd ref="297327685"/>
    <nd ref="297327642"/>
    <nd ref="297327641"/>
    <nd ref="297326449"/>
    <nd ref="297326451"/>
    <nd ref="297327671"/>
    <nd ref="297327672"/>
    <nd ref="258290733"/>
    <tag k="created_by" v="Potlatch 0.10b"/>
    <tag k="highway" v="primary"/>
    <tag k="name" v=" Grunwaldzka"/>
    <tag k="oneway" v="yes"/>
    <tag k="ref" v="6"/>
    <tag k="source" v="UMP-PL, ./UMP-Gdansk/src/RUMIA.ulice.txt"/>
  </way>
  <way id="27099252" version="4" timestamp="2008-10-10T11:20:44Z" uid="30632" user="antblant" changeset="226581">
    <nd ref="297326895"/>
    <nd ref="297326867"/>
    <nd ref="297327639"/>
    <nd ref="297327583"/>
    <nd ref="297327638"/>
    <nd ref="297327637"/>
    <nd ref="297327578"/>
    <nd ref="297327644"/>
    <nd ref="297327569"/>
    <nd ref="297326733"/>
    <nd ref="297327625"/>
    <nd ref="297327643"/>
    <nd ref="297327685"/>
    <nd ref="297327642"/>
    <nd ref="297327641"/>
    <nd ref="297326449"/>
    <nd ref="297326451"/>
    <nd ref="297327671"/>
    <nd ref="297327672"/>
    <nd ref="258290733"/>
    <tag k="created_by" v="Potlatch 0.10b"/>
    <tag k="highway" v="primary"/>
    <tag k="name" v="Grunwaldzka"/>
    <tag k="oneway" v="yes"/>
    <tag k="ref" v="6"/>
    <tag k="source" v="UMP-PL, ./UMP-Gdansk/src/RUMIA.ulice.txt"/>
  </way>
  <way id="27099252" version="5" timestamp="2009-02-16T21:57:51Z" uid="9176" user="Maarten Deen" changeset="486420">
    <nd ref="297326895"/>
    <nd ref="297326867"/>
    <nd ref="297327639"/>
    <nd ref="297327583"/>
    <nd ref="297327638"/>
    <nd ref="297327637"/>
    <nd ref="297327578"/>
    <nd ref="297327644"/>
    <nd ref="297327569"/>
    <nd ref="297326733"/>
    <nd ref="297327625"/>
    <nd ref="297327643"/>
    <nd ref="297327685"/>
    <nd ref="297327642"/>
    <nd ref="297327641"/>
    <nd ref="297326449"/>
    <nd ref="297326451"/>
    <nd ref="297327671"/>
    <nd ref="297327672"/>
    <nd ref="258290733"/>
    <tag k="created_by" v="Potlatch 0.10b"/>
    <tag k="highway" v="primary"/>
    <tag k="int_ref" v="E 28"/>
    <tag k="name" v="Grunwaldzka"/>
    <tag k="oneway" v="yes"/>
    <tag k="ref" v="6"/>
    <tag k="source" v="UMP-PL, ./UMP-Gdansk/src/RUMIA.ulice.txt"/>
  </way>
  <way id="27099252" version="6" timestamp="2009-09-16T18:00:43Z" uid="16188" user="Ahven" changeset="2505144">
    <nd ref="297326895"/>
    <nd ref="297326867"/>
    <nd ref="498383715"/>
    <nd ref="297327639"/>
    <nd ref="297327583"/>
    <nd ref="297327638"/>
    <nd ref="297327637"/>
    <nd ref="297327578"/>
    <nd ref="297327644"/>
    <nd ref="297327569"/>
    <nd ref="297326733"/>
    <nd ref="297327625"/>
    <nd ref="297327643"/>
    <nd ref="297327685"/>
    <nd ref="297327642"/>
    <nd ref="297327641"/>
    <nd ref="297326449"/>
    <nd ref="297326451"/>
    <nd ref="297327671"/>
    <nd ref="297327672"/>
    <nd ref="258290733"/>
    <tag k="highway" v="primary"/>
    <tag k="int_ref" v="E 28"/>
    <tag k="name" v="Grunwaldzka"/>
    <tag k="oneway" v="yes"/>
    <tag k="ref" v="6"/>
    <tag k="source" v="UMP-PL, ./UMP-Gdansk/src/RUMIA.ulice.txt"/>
  </way>
  <way id="27099252" version="7" timestamp="2009-10-21T19:10:36Z" uid="16188" user="Ahven" changeset="2915875">
    <nd ref="297326895"/>
    <nd ref="297326867"/>
    <nd ref="498383715"/>
    <nd ref="297327639"/>
    <nd ref="297327583"/>
    <nd ref="297327638"/>
    <nd ref="297327637"/>
    <nd ref="297327578"/>
    <nd ref="297327644"/>
    <nd ref="297327569"/>
    <nd ref="297326733"/>
    <nd ref="297327625"/>
    <nd ref="297327643"/>
    <nd ref="538028772"/>
    <nd ref="297327685"/>
    <nd ref="297327642"/>
    <nd ref="297327641"/>
    <nd ref="297326449"/>
    <nd ref="297326451"/>
    <nd ref="297327671"/>
    <nd ref="297327672"/>
    <nd ref="258290733"/>
    <tag k="highway" v="primary"/>
    <tag k="int_ref" v="E 28"/>
    <tag k="name" v="Grunwaldzka"/>
    <tag k="oneway" v="yes"/>
    <tag k="ref" v="6"/>
    <tag k="source" v="UMP-PL, ./UMP-Gdansk/src/RUMIA.ulice.txt"/>
  </way>
  <way id="27099252" version="8" timestamp="2009-10-27T18:41:35Z" uid="16188" user="Ahven" changeset="2967694">
    <nd ref="297326895"/>
    <nd ref="297326867"/>
    <nd ref="498383715"/>
    <nd ref="297327639"/>
    <nd ref="297327583"/>
    <nd ref="297327638"/>
    <nd ref="297327637"/>
    <nd ref="297327578"/>
    <nd ref="297327644"/>
    <nd ref="297327569"/>
    <nd ref="297326733"/>
    <nd ref="297327625"/>
    <nd ref="538028772"/>
    <nd ref="297327685"/>
    <nd ref="297327642"/>
    <nd ref="297327641"/>
    <nd ref="297326449"/>
    <nd ref="297326451"/>
    <nd ref="297327671"/>
    <nd ref="297327672"/>
    <nd ref="258290733"/>
    <tag k="highway" v="primary"/>
    <tag k="int_ref" v="E 28"/>
    <tag k="name" v="Grunwaldzka"/>
    <tag k="oneway" v="yes"/>
    <tag k="ref" v="6"/>
    <tag k="source" v="UMP-PL, ./UMP-Gdansk/src/RUMIA.ulice.txt"/>
  </way>
  <way id="27099252" version="9" timestamp="2011-06-07T17:52:21Z" uid="16188" user="Ahven" changeset="8372354">
    <nd ref="297326895"/>
    <nd ref="297326867"/>
    <nd ref="498383715"/>
    <nd ref="297327639"/>
    <nd ref="297327583"/>
    <nd ref="297327638"/>
    <nd ref="297327637"/>
    <nd ref="297327578"/>
    <nd ref="297327644"/>
    <nd ref="297327569"/>
    <nd ref="297326733"/>
    <nd ref="297327625"/>
    <nd ref="538028772"/>
    <nd ref="297327685"/>
    <nd ref="1315302126"/>
    <nd ref="297327642"/>
    <nd ref="1315302106"/>
    <nd ref="297327641"/>
    <nd ref="1315302116"/>
    <nd ref="1315302111"/>
    <nd ref="297326449"/>
    <nd ref="297326451"/>
    <nd ref="297327671"/>
    <nd ref="297327672"/>
    <nd ref="258290733"/>
    <tag k="highway" v="primary"/>
    <tag k="int_ref" v="E 28"/>
    <tag k="name" v="Grunwaldzka"/>
    <tag k="oneway" v="yes"/>
    <tag k="ref" v="6"/>
    <tag k="source" v="UMP-PL, ./UMP-Gdansk/src/RUMIA.ulice.txt"/>
  </way>
  <way id="27099252" version="10" timestamp="2011-12-24T22:28:22Z" uid="378154" user="rosomak" changeset="10196643">
    <nd ref="297326895"/>
    <nd ref="297326867"/>
    <nd ref="498383715"/>
    <nd ref="297327639"/>
    <nd ref="297327583"/>
    <nd ref="297327638"/>
    <nd ref="297327637"/>
    <nd ref="297327578"/>
    <nd ref="297327644"/>
    <nd ref="297327569"/>
    <nd ref="297326733"/>
    <nd ref="297327625"/>
    <nd ref="538028772"/>
    <nd ref="297327685"/>
    <nd ref="1315302126"/>
    <nd ref="297327642"/>
    <nd ref="1315302106"/>
    <nd ref="297327641"/>
    <nd ref="1315302116"/>
    <nd ref="1315302111"/>
    <nd ref="297326449"/>
    <nd ref="297326451"/>
    <nd ref="297327671"/>
    <nd ref="297327672"/>
    <nd ref="258290733"/>
    <tag k="highway" v="primary"/>
    <tag k="int_ref" v="E 28"/>
    <tag k="name" v="Grunwaldzka"/>
    <tag k="oneway" v="yes"/>
    <tag k="ref" v="6"/>
  </way>
  <way id="27099252" version="11" timestamp="2011-12-30T10:17:34Z" uid="378154" user="rosomak" changeset="10243597">
    <nd ref="297326895"/>
    <nd ref="297326867"/>
    <nd ref="498383715"/>
    <nd ref="297327639"/>
    <nd ref="297327583"/>
    <nd ref="297327638"/>
    <nd ref="297327637"/>
    <nd ref="297327578"/>
    <nd ref="297327644"/>
    <nd ref="297327569"/>
    <nd ref="297326733"/>
    <nd ref="297327625"/>
    <nd ref="538028772"/>
    <nd ref="297327685"/>
    <nd ref="1315302126"/>
    <nd ref="297327642"/>
    <nd ref="1315302106"/>
    <nd ref="1315302116"/>
    <nd ref="1315302111"/>
    <nd ref="297326449"/>
    <nd ref="297326451"/>
    <nd ref="297327671"/>
    <nd ref="297327672"/>
    <nd ref="258290733"/>
    <tag k="highway" v="primary"/>
    <tag k="int_ref" v="E 28"/>
    <tag k="name" v="Grunwaldzka"/>
    <tag k="oneway" v="yes"/>
    <tag k="ref" v="6"/>
  </way>
  <way id="27099252" version="12" timestamp="2012-01-02T06:02:02Z" uid="378154" user="rosomak" changeset="10267890">
    <nd ref="297326895"/>
    <nd ref="1573666798"/>
    <nd ref="297326867"/>
    <nd ref="498383715"/>
    <nd ref="297327639"/>
    <nd ref="297327583"/>
    <nd ref="297327638"/>
    <nd ref="297327637"/>
    <nd ref="297327578"/>
    <nd ref="297327644"/>
    <nd ref="297327569"/>
    <nd ref="297326733"/>
    <nd ref="297327625"/>
    <nd ref="538028772"/>
    <nd ref="297327685"/>
    <nd ref="1315302126"/>
    <nd ref="297327642"/>
    <nd ref="1315302106"/>
    <nd ref="1315302116"/>
    <nd ref="1315302111"/>
    <nd ref="297326449"/>
    <nd ref="297326451"/>
    <nd ref="297327671"/>
    <nd ref="297327672"/>
    <nd ref="258290733"/>
    <tag k="highway" v="primary"/>
    <tag k="int_ref" v="E 28"/>
    <tag k="name" v="Grunwaldzka"/>
    <tag k="oneway" v="yes"/>
    <tag k="ref" v="6"/>
  </way>
  <way id="27099252" version="13" timestamp="2012-01-14T06:51:19Z" uid="378154" user="rosomak" changeset="10385006">
    <nd ref="297326895"/>
    <nd ref="1573666798"/>
    <nd ref="297326867"/>
    <nd ref="498383715"/>
    <nd ref="297327639"/>
    <nd ref="297327583"/>
    <nd ref="297327638"/>
    <nd ref="297327637"/>
    <nd ref="297327578"/>
    <nd ref="297327644"/>
    <nd ref="297327569"/>
    <nd ref="297326733"/>
    <nd ref="297327625"/>
    <nd ref="538028772"/>
    <nd ref="297327685"/>
    <nd ref="1315302126"/>
    <nd ref="297327642"/>
    <nd ref="1315302106"/>
    <nd ref="1315302116"/>
    <nd ref="1315302111"/>
    <nd ref="1589161862"/>
    <nd ref="297326449"/>
    <nd ref="297326451"/>
    <nd ref="297327671"/>
    <nd ref="297327672"/>
    <nd ref="258290733"/>
    <tag k="highway" v="primary"/>
    <tag k="int_ref" v="E 28"/>
    <tag k="name" v="Grunwaldzka"/>
    <tag k="oneway" v="yes"/>
    <tag k="ref" v="6"/>
  </way>
  <way id="27099260" version="2" timestamp="2008-10-09T21:51:02Z" uid="30632" user="antblant" changeset="210278">
    <nd ref="297326586"/>
    <nd ref="297326445"/>
    <nd ref="297326634"/>
    <tag k="created_by" v="Potlatch 0.10d"/>
    <tag k="highway" v="unclassified"/>
    <tag k="name" v="Kosynierów"/>
    <tag k="source" v="UMP-PL, ./UMP-Gdansk/src/RUMIA.ulice.txt"/>
    <tag k="surface" v="unpaved"/>
  </way>
  <way id="27099260" version="3" timestamp="2012-01-16T11:34:58Z" uid="378154" user="rosomak" changeset="10407528">
    <nd ref="297326586"/>
    <nd ref="297326445"/>
    <nd ref="297326634"/>
    <tag k="highway" v="unclassified"/>
    <tag k="name" v="Kosynierów"/>
    <tag k="surface" v="unpaved"/>
  </way>
  <way id="27099277" version="3" timestamp="2008-10-09T21:44:04Z" uid="30632" user="antblant" changeset="210278">
    <nd ref="297326816"/>
    <nd ref="297327708"/>
    <nd ref="297327460"/>
    <nd ref="297327709"/>
    <nd ref="297326789"/>
    <tag k="created_by" v="Potlatch 0.10d"/>
    <tag k="highway" v="tertiary"/>
    <tag k="name" v="Dębogórska"/>
    <tag k="source" v="UMP-PL, ./UMP-Gdansk/src/RUMIA.ulice.txt"/>
  </way>
  <way id="27099277" version="4" timestamp="2009-10-21T19:10:40Z" uid="16188" user="Ahven" changeset="2915875">
    <nd ref="297326816"/>
    <nd ref="297327708"/>
    <nd ref="297327460"/>
    <tag k="highway" v="tertiary"/>
    <tag k="name" v="Dębogórska"/>
    <tag k="source" v="UMP-PL, ./UMP-Gdansk/src/RUMIA.ulice.txt"/>
  </way>
  <way id="27099277" version="5" timestamp="2011-01-29T22:44:12Z" uid="16188" user="Ahven" changeset="7128328">
    <nd ref="297326816"/>
    <nd ref="297327708"/>
    <nd ref="297327460"/>
    <tag k="highway" v="tertiary"/>
    <tag k="name" v="Dębogórska"/>
    <tag k="name:csb" v="Dãbògórskô"/>
    <tag k="source" v="UMP-PL, ./UMP-Gdansk/src/RUMIA.ulice.txt"/>
  </way>
  <way id="27099277" version="6" timestamp="2012-01-09T10:59:06Z" uid="378154" user="rosomak" changeset="10340614">
    <nd ref="297326816"/>
    <nd ref="297327708"/>
    <nd ref="297327460"/>
    <tag k="highway" v="tertiary"/>
    <tag k="name" v="Dębogórska"/>
  </way>
  <way id="27099295" version="3" timestamp="2008-10-09T21:53:06Z" uid="30632" user="antblant" changeset="210278">
    <nd ref="297326885"/>
    <nd ref="297326904"/>
    <nd ref="297326907"/>
    <nd ref="297326900"/>
    <nd ref="297326902"/>
    <nd ref="297326914"/>
    <nd ref="297326916"/>
    <nd ref="297326909"/>
    <nd ref="297326912"/>
    <nd ref="297326967"/>
    <nd ref="297326744"/>
    <tag k="created_by" v="Potlatch 0.10d"/>
    <tag k="highway" v="tertiary"/>
    <tag k="name" v="Tysiąclecia"/>
    <tag k="source" v="UMP-PL, ./UMP-Gdansk/src/RUMIA.ulice.txt"/>
  </way>
  <way id="27099295" version="4" timestamp="2009-10-21T19:10:41Z" uid="16188" user="Ahven" changeset="2915875">
    <nd ref="297326885"/>
    <nd ref="297326904"/>
    <nd ref="297326907"/>
    <nd ref="538028908"/>
    <nd ref="297326900"/>
    <nd ref="538028906"/>
    <nd ref="297326902"/>
    <nd ref="538028894"/>
    <nd ref="297326914"/>
    <nd ref="538028895"/>
    <nd ref="297326916"/>
    <nd ref="297326909"/>
    <nd ref="297326912"/>
    <nd ref="297326967"/>
    <nd ref="297326744"/>
    <tag k="highway" v="tertiary"/>
    <tag k="name" v="Tysiąclecia"/>
    <tag k="source" v="UMP-PL, ./UMP-Gdansk/src/RUMIA.ulice.txt"/>
  </way>
  <way id="27099295" version="5" timestamp="2010-03-26T21:21:15Z" uid="16188" user="Ahven" changeset="4242078">
    <nd ref="297326885"/>
    <nd ref="297326904"/>
    <nd ref="297326907"/>
    <nd ref="538028908"/>
    <nd ref="297326900"/>
    <nd ref="538028906"/>
    <nd ref="675133024"/>
    <nd ref="297326902"/>
    <nd ref="538028894"/>
    <nd ref="297326914"/>
    <nd ref="538028895"/>
    <nd ref="297326916"/>
    <nd ref="297326909"/>
    <nd ref="297326912"/>
    <nd ref="297326967"/>
    <nd ref="297326744"/>
    <tag k="highway" v="tertiary"/>
    <tag k="name" v="Tysiąclecia"/>
    <tag k="source" v="UMP-PL, ./UMP-Gdansk/src/RUMIA.ulice.txt"/>
  </way>
  <way id="27099295" version="6" timestamp="2012-01-09T10:59:16Z" uid="378154" user="rosomak" changeset="10340614">
    <nd ref="297326885"/>
    <nd ref="297326904"/>
    <nd ref="297326907"/>
    <nd ref="538028908"/>
    <nd ref="297326900"/>
    <nd ref="538028906"/>
    <nd ref="675133024"/>
    <nd ref="297326902"/>
    <nd ref="538028894"/>
    <nd ref="297326914"/>
    <nd ref="538028895"/>
    <nd ref="297326916"/>
    <nd ref="297326909"/>
    <nd ref="297326912"/>
    <nd ref="297326967"/>
    <nd ref="297326744"/>
    <tag k="highway" v="tertiary"/>
    <tag k="name" v="Tysiąclecia"/>
  </way>
  <way id="27099300" version="3" timestamp="2008-09-22T15:49:36Z" uid="30632" user="antblant" changeset="680284">
    <nd ref="258292624"/>
    <nd ref="297326923"/>
    <nd ref="297326454"/>
    <nd ref="297326925"/>
    <nd ref="297326452"/>
    <nd ref="297326447"/>
    <nd ref="297326919"/>
    <nd ref="297326920"/>
    <nd ref="297326932"/>
    <nd ref="297326934"/>
    <nd ref="297326927"/>
    <nd ref="297326929"/>
    <nd ref="297326881"/>
    <nd ref="297326897"/>
    <tag k="created_by" v="Potlatch 0.10b"/>
    <tag k="highway" v="primary"/>
    <tag k="name" v=" Grunwaldzka"/>
    <tag k="ref" v="6"/>
    <tag k="source" v="UMP-PL, ./UMP-Gdansk/src/RUMIA.ulice.txt"/>
  </way>
  <way id="27099300" version="4" timestamp="2008-09-22T15:49:49Z" uid="30632" user="antblant" changeset="680284">
    <nd ref="258292624"/>
    <nd ref="297326923"/>
    <nd ref="297326454"/>
    <nd ref="297326925"/>
    <nd ref="297326452"/>
    <nd ref="297326447"/>
    <nd ref="297326919"/>
    <nd ref="297326920"/>
    <nd ref="297326932"/>
    <nd ref="297326934"/>
    <nd ref="297326927"/>
    <nd ref="297326929"/>
    <nd ref="297326881"/>
    <nd ref="297326897"/>
    <tag k="created_by" v="Potlatch 0.10b"/>
    <tag k="highway" v="primary"/>
    <tag k="name" v=" Grunwaldzka"/>
    <tag k="oneway" v="yes"/>
    <tag k="ref" v="6"/>
    <tag k="source" v="UMP-PL, ./UMP-Gdansk/src/RUMIA.ulice.txt"/>
  </way>
  <way id="27099300" version="5" timestamp="2008-10-10T11:20:45Z" uid="30632" user="antblant" changeset="226581">
    <nd ref="258292624"/>
    <nd ref="297326923"/>
    <nd ref="297326454"/>
    <nd ref="297326925"/>
    <nd ref="297326452"/>
    <nd ref="297326447"/>
    <nd ref="297326919"/>
    <nd ref="297326920"/>
    <nd ref="297326932"/>
    <nd ref="297326934"/>
    <nd ref="297326927"/>
    <nd ref="297326929"/>
    <nd ref="297326881"/>
    <nd ref="297326897"/>
    <tag k="created_by" v="Potlatch 0.10b"/>
    <tag k="highway" v="primary"/>
    <tag k="name" v="Grunwaldzka"/>
    <tag k="oneway" v="yes"/>
    <tag k="ref" v="6"/>
    <tag k="source" v="UMP-PL, ./UMP-Gdansk/src/RUMIA.ulice.txt"/>
  </way>
  <way id="27099300" version="6" timestamp="2009-02-16T21:57:52Z" uid="9176" user="Maarten Deen" changeset="486420">
    <nd ref="258292624"/>
    <nd ref="297326923"/>
    <nd ref="297326454"/>
    <nd ref="297326925"/>
    <nd ref="297326452"/>
    <nd ref="297326447"/>
    <nd ref="297326919"/>
    <nd ref="297326920"/>
    <nd ref="297326932"/>
    <nd ref="297326934"/>
    <nd ref="297326927"/>
    <nd ref="297326929"/>
    <nd ref="297326881"/>
    <nd ref="297326897"/>
    <tag k="created_by" v="Potlatch 0.10b"/>
    <tag k="highway" v="primary"/>
    <tag k="int_ref" v="E 28"/>
    <tag k="name" v="Grunwaldzka"/>
    <tag k="oneway" v="yes"/>
    <tag k="ref" v="6"/>
    <tag k="source" v="UMP-PL, ./UMP-Gdansk/src/RUMIA.ulice.txt"/>
  </way>
  <way id="27099300" version="7" timestamp="2009-10-27T18:41:36Z" uid="16188" user="Ahven" changeset="2967694">
    <nd ref="258292624"/>
    <nd ref="297326923"/>
    <nd ref="297326454"/>
    <nd ref="297326452"/>
    <nd ref="297326447"/>
    <nd ref="542094601"/>
    <nd ref="297326919"/>
    <nd ref="297326920"/>
    <nd ref="297326932"/>
    <nd ref="297326934"/>
    <nd ref="297326927"/>
    <nd ref="297326929"/>
    <nd ref="297326881"/>
    <nd ref="297326897"/>
    <tag k="highway" v="primary"/>
    <tag k="int_ref" v="E 28"/>
    <tag k="name" v="Grunwaldzka"/>
    <tag k="oneway" v="yes"/>
    <tag k="ref" v="6"/>
    <tag k="source" v="UMP-PL, ./UMP-Gdansk/src/RUMIA.ulice.txt"/>
  </way>
  <way id="27099300" version="8" timestamp="2009-10-27T19:11:14Z" uid="16188" user="Ahven" changeset="2967959">
    <nd ref="258292624"/>
    <nd ref="297326923"/>
    <nd ref="297326454"/>
    <nd ref="297326452"/>
    <nd ref="297326447"/>
    <nd ref="542094601"/>
    <nd ref="297326919"/>
    <nd ref="542194955"/>
    <nd ref="297326920"/>
    <nd ref="297326932"/>
    <nd ref="297326934"/>
    <nd ref="542194963"/>
    <nd ref="297326927"/>
    <nd ref="297326929"/>
    <nd ref="297326881"/>
    <nd ref="297326897"/>
    <tag k="highway" v="primary"/>
    <tag k="int_ref" v="E 28"/>
    <tag k="name" v="Grunwaldzka"/>
    <tag k="oneway" v="yes"/>
    <tag k="ref" v="6"/>
    <tag k="source" v="UMP-PL, ./UMP-Gdansk/src/RUMIA.ulice.txt"/>
  </way>
  <way id="27099300" version="9" timestamp="2011-01-16T12:44:27Z" uid="16188" user="Ahven" changeset="6987147">
    <nd ref="258292624"/>
    <nd ref="297326923"/>
    <nd ref="297326454"/>
    <nd ref="297326452"/>
    <nd ref="297326447"/>
    <nd ref="1106093531"/>
    <nd ref="542094601"/>
    <nd ref="297326919"/>
    <nd ref="542194955"/>
    <nd ref="297326920"/>
    <nd ref="297326932"/>
    <nd ref="297326934"/>
    <nd ref="542194963"/>
    <nd ref="297326927"/>
    <nd ref="297326929"/>
    <nd ref="297326881"/>
    <nd ref="297326897"/>
    <tag k="highway" v="primary"/>
    <tag k="int_ref" v="E 28"/>
    <tag k="name" v="Grunwaldzka"/>
    <tag k="oneway" v="yes"/>
    <tag k="ref" v="6"/>
    <tag k="source" v="UMP-PL, ./UMP-Gdansk/src/RUMIA.ulice.txt"/>
  </way>
  <way id="27099300" version="10" timestamp="2011-01-16T13:17:28Z" uid="16188" user="Ahven" changeset="6987479">
    <nd ref="258292624"/>
    <nd ref="297326923"/>
    <nd ref="297326454"/>
    <nd ref="297326452"/>
    <nd ref="297326447"/>
    <nd ref="1106093531"/>
    <nd ref="542094601"/>
    <nd ref="297326919"/>
    <nd ref="542194955"/>
    <nd ref="297326920"/>
    <nd ref="297326932"/>
    <nd ref="297326934"/>
    <nd ref="542194963"/>
    <nd ref="297326927"/>
    <nd ref="1106121108"/>
    <nd ref="297326929"/>
    <nd ref="297326881"/>
    <nd ref="297326897"/>
    <tag k="highway" v="primary"/>
    <tag k="int_ref" v="E 28"/>
    <tag k="name" v="Grunwaldzka"/>
    <tag k="oneway" v="yes"/>
    <tag k="ref" v="6"/>
    <tag k="source" v="UMP-PL, ./UMP-Gdansk/src/RUMIA.ulice.txt"/>
  </way>
  <way id="27099300" version="11" timestamp="2011-12-24T22:28:23Z" uid="378154" user="rosomak" changeset="10196643">
    <nd ref="258292624"/>
    <nd ref="297326923"/>
    <nd ref="297326454"/>
    <nd ref="297326452"/>
    <nd ref="297326447"/>
    <nd ref="1106093531"/>
    <nd ref="542094601"/>
    <nd ref="297326919"/>
    <nd ref="542194955"/>
    <nd ref="297326920"/>
    <nd ref="297326932"/>
    <nd ref="297326934"/>
    <nd ref="542194963"/>
    <nd ref="297326927"/>
    <nd ref="1106121108"/>
    <nd ref="297326929"/>
    <nd ref="297326881"/>
    <nd ref="297326897"/>
    <tag k="highway" v="primary"/>
    <tag k="int_ref" v="E 28"/>
    <tag k="name" v="Grunwaldzka"/>
    <tag k="oneway" v="yes"/>
    <tag k="ref" v="6"/>
  </way>
  <way id="27099300" version="12" timestamp="2011-12-28T09:57:19Z" uid="378154" user="rosomak" changeset="10223848">
    <nd ref="258292624"/>
    <nd ref="297326923"/>
    <nd ref="297326454"/>
    <nd ref="297326452"/>
    <nd ref="297326447"/>
    <nd ref="1106093531"/>
    <nd ref="542094601"/>
    <nd ref="297326919"/>
    <nd ref="542194955"/>
    <nd ref="1564950588"/>
    <nd ref="297326920"/>
    <nd ref="1564950576"/>
    <nd ref="297326932"/>
    <nd ref="297326934"/>
    <nd ref="542194963"/>
    <nd ref="297326927"/>
    <nd ref="1106121108"/>
    <nd ref="297326929"/>
    <nd ref="297326881"/>
    <nd ref="297326897"/>
    <tag k="highway" v="primary"/>
    <tag k="int_ref" v="E 28"/>
    <tag k="name" v="Grunwaldzka"/>
    <tag k="oneway" v="yes"/>
    <tag k="ref" v="6"/>
  </way>
  <way id="27099300" version="13" timestamp="2012-01-02T06:02:04Z" uid="378154" user="rosomak" changeset="10267890">
    <nd ref="258292624"/>
    <nd ref="297326923"/>
    <nd ref="297326454"/>
    <nd ref="297326452"/>
    <nd ref="297326447"/>
    <nd ref="1106093531"/>
    <nd ref="542094601"/>
    <nd ref="297326919"/>
    <nd ref="542194955"/>
    <nd ref="1564950588"/>
    <nd ref="297326920"/>
    <nd ref="1564950576"/>
    <nd ref="297326932"/>
    <nd ref="297326934"/>
    <nd ref="542194963"/>
    <nd ref="297326927"/>
    <nd ref="1106121108"/>
    <nd ref="297326929"/>
    <nd ref="297326881"/>
    <nd ref="1573666830"/>
    <nd ref="297326897"/>
    <tag k="highway" v="primary"/>
    <tag k="int_ref" v="E 28"/>
    <tag k="name" v="Grunwaldzka"/>
    <tag k="oneway" v="yes"/>
    <tag k="ref" v="6"/>
  </way>
  <way id="27099300" version="14" timestamp="2012-01-15T06:52:27Z" uid="378154" user="rosomak" changeset="10394972">
    <nd ref="258292624"/>
    <nd ref="297326923"/>
    <nd ref="297326454"/>
    <nd ref="297326452"/>
    <nd ref="297326447"/>
    <nd ref="1106093531"/>
    <nd ref="542094601"/>
    <nd ref="297326919"/>
    <nd ref="542194955"/>
    <nd ref="1564950588"/>
    <nd ref="297326920"/>
    <nd ref="1564950576"/>
    <nd ref="297326932"/>
    <nd ref="1590309267"/>
    <nd ref="297326934"/>
    <nd ref="1590309266"/>
    <nd ref="542194963"/>
    <nd ref="297326927"/>
    <nd ref="1106121108"/>
    <nd ref="297326929"/>
    <nd ref="297326881"/>
    <nd ref="1573666830"/>
    <nd ref="297326897"/>
    <tag k="highway" v="primary"/>
    <tag k="int_ref" v="E 28"/>
    <tag k="name" v="Grunwaldzka"/>
    <tag k="oneway" v="yes"/>
    <tag k="ref" v="6"/>
  </way>
  <way id="27099300" version="15" timestamp="2012-01-21T11:37:39Z" uid="378154" user="rosomak" changeset="10454406">
    <nd ref="258292624"/>
    <nd ref="297326923"/>
    <nd ref="297326454"/>
    <nd ref="297326452"/>
    <nd ref="297326447"/>
    <nd ref="1106093531"/>
    <nd ref="542094601"/>
    <nd ref="297326919"/>
    <nd ref="542194955"/>
    <nd ref="1564950588"/>
    <nd ref="297326920"/>
    <nd ref="1564950576"/>
    <nd ref="297326932"/>
    <nd ref="1590309267"/>
    <nd ref="297326934"/>
    <nd ref="1590309266"/>
    <nd ref="542194963"/>
    <nd ref="297326927"/>
    <nd ref="1106121108"/>
    <nd ref="1599763365"/>
    <nd ref="1599763378"/>
    <nd ref="1599763376"/>
    <nd ref="297326881"/>
    <nd ref="1573666830"/>
    <nd ref="297326897"/>
    <tag k="highway" v="primary"/>
    <tag k="int_ref" v="E 28"/>
    <tag k="name" v="Grunwaldzka"/>
    <tag k="oneway" v="yes"/>
    <tag k="ref" v="6"/>
  </way>
  <way id="27099300" version="16" timestamp="2012-02-11T06:24:59Z" uid="378154" user="rosomak" changeset="10649736">
    <nd ref="258292624"/>
    <nd ref="297326923"/>
    <nd ref="297326454"/>
    <nd ref="297326452"/>
    <nd ref="297326447"/>
    <nd ref="1106093531"/>
    <nd ref="542094601"/>
    <nd ref="297326919"/>
    <nd ref="542194955"/>
    <nd ref="1564950588"/>
    <nd ref="297326920"/>
    <nd ref="1564950576"/>
    <nd ref="297326932"/>
    <nd ref="1590278661"/>
    <nd ref="297326934"/>
    <nd ref="1590309266"/>
    <nd ref="542194963"/>
    <nd ref="297326927"/>
    <nd ref="1106121108"/>
    <nd ref="1599763365"/>
    <nd ref="1599763378"/>
    <nd ref="1599763376"/>
    <nd ref="297326881"/>
    <nd ref="1573666830"/>
    <nd ref="297326897"/>
    <tag k="highway" v="primary"/>
    <tag k="int_ref" v="E 28"/>
    <tag k="name" v="Grunwaldzka"/>
    <tag k="oneway" v="yes"/>
    <tag k="ref" v="6"/>
  </way>
  <way id="27099316" version="3" timestamp="2008-10-09T21:49:21Z" uid="30632" user="antblant" changeset="210278">
    <nd ref="297326820"/>
    <nd ref="297328125"/>
    <tag k="created_by" v="Potlatch 0.10d"/>
    <tag k="highway" v="residential"/>
    <tag k="name" v="Lotników"/>
    <tag k="source" v="UMP-PL, ./UMP-Gdansk/src/RUMIA.ulice.txt"/>
  </way>
  <way id="27099316" version="4" timestamp="2011-01-29T22:10:31Z" uid="16188" user="Ahven" changeset="7128031">
    <nd ref="297326820"/>
    <nd ref="297328125"/>
    <tag k="highway" v="residential"/>
    <tag k="name" v="Lotników"/>
  </way>
  <way id="27099316" version="5" timestamp="2012-01-19T14:30:57Z" uid="378154" user="rosomak" changeset="10437837">
    <nd ref="297326820"/>
    <nd ref="297328125"/>
    <tag k="highway" v="living_street"/>
    <tag k="name" v="Lotników"/>
  </way>
  <way id="27099328" version="3" timestamp="2008-10-10T11:20:46Z" uid="30632" user="antblant" changeset="226581">
    <nd ref="297326762"/>
    <nd ref="297326827"/>
    <nd ref="297326830"/>
    <nd ref="297326831"/>
    <nd ref="297326834"/>
    <nd ref="297326836"/>
    <nd ref="297326838"/>
    <nd ref="297326842"/>
    <nd ref="297326844"/>
    <nd ref="297326888"/>
    <nd ref="297326885"/>
    <nd ref="297326883"/>
    <nd ref="258292123"/>
    <tag k="highway" v="secondary"/>
    <tag k="name" v="1 Dywizji WP"/>
    <tag k="ref" v="100"/>
    <tag k="source" v="UMP-PL, ./UMP-Gdansk/src/RUMIA.ulice.txt"/>
  </way>
  <way id="27099328" version="4" timestamp="2009-10-21T19:10:38Z" uid="16188" user="Ahven" changeset="2915875">
    <nd ref="297326762"/>
    <nd ref="297326827"/>
    <nd ref="297326830"/>
    <nd ref="297326831"/>
    <nd ref="297326834"/>
    <nd ref="297326836"/>
    <nd ref="297326838"/>
    <nd ref="297326842"/>
    <nd ref="297326844"/>
    <nd ref="297326888"/>
    <nd ref="538028903"/>
    <nd ref="297326885"/>
    <nd ref="297326883"/>
    <nd ref="258292123"/>
    <tag k="highway" v="secondary"/>
    <tag k="name" v="1 Dywizji WP"/>
    <tag k="ref" v="100"/>
    <tag k="source" v="UMP-PL, ./UMP-Gdansk/src/RUMIA.ulice.txt"/>
  </way>
  <way id="27099328" version="5" timestamp="2011-01-29T22:10:35Z" uid="16188" user="Ahven" changeset="7128031">
    <nd ref="297326762"/>
    <nd ref="1126967933"/>
    <nd ref="297326827"/>
    <nd ref="297326830"/>
    <nd ref="297326831"/>
    <nd ref="297326834"/>
    <nd ref="297326836"/>
    <nd ref="297326838"/>
    <nd ref="297326842"/>
    <nd ref="297326844"/>
    <nd ref="297326888"/>
    <nd ref="538028903"/>
    <nd ref="297326885"/>
    <nd ref="297326883"/>
    <nd ref="258292123"/>
    <tag k="highway" v="secondary"/>
    <tag k="name" v="1 Dywizji WP"/>
    <tag k="ref" v="100"/>
    <tag k="source" v="UMP-PL, ./UMP-Gdansk/src/RUMIA.ulice.txt"/>
  </way>
  <way id="27099328" version="6" timestamp="2011-07-27T20:53:14Z" uid="378154" user="rosomak" changeset="8849187">
    <nd ref="297326762"/>
    <nd ref="1126967933"/>
    <nd ref="297326827"/>
    <nd ref="297326830"/>
    <nd ref="297326831"/>
    <nd ref="297326834"/>
    <nd ref="297326836"/>
    <nd ref="297326838"/>
    <nd ref="297326842"/>
    <nd ref="297326844"/>
    <nd ref="297326888"/>
    <nd ref="538028903"/>
    <nd ref="297326885"/>
    <nd ref="297326883"/>
    <nd ref="258292123"/>
    <tag k="highway" v="secondary"/>
    <tag k="name" v="1 Dywizji Wojska Polskiego"/>
    <tag k="ref" v="100"/>
    <tag k="source" v="UMP-PL, ./UMP-Gdansk/src/RUMIA.ulice.txt"/>
  </way>
  <way id="27099328" version="7" timestamp="2011-12-28T03:36:51Z" uid="378154" user="rosomak" changeset="10221814">
    <nd ref="297326762"/>
    <nd ref="1126967933"/>
    <nd ref="297326827"/>
    <nd ref="297326830"/>
    <nd ref="297326831"/>
    <nd ref="297326836"/>
    <nd ref="297326838"/>
    <nd ref="297326842"/>
    <nd ref="297326844"/>
    <nd ref="538028903"/>
    <nd ref="297326885"/>
    <nd ref="297326883"/>
    <nd ref="258292123"/>
    <tag k="highway" v="secondary"/>
    <tag k="name" v="1 Dywizji Wojska Polskiego"/>
    <tag k="ref" v="100"/>
    <tag k="source" v="UMP-PL, ./UMP-Gdansk/src/RUMIA.ulice.txt"/>
  </way>
  <way id="27099328" version="8" timestamp="2012-01-09T14:51:48Z" uid="378154" user="rosomak" changeset="10342428">
    <nd ref="297326762"/>
    <nd ref="1126967933"/>
    <nd ref="297326827"/>
    <nd ref="297326830"/>
    <nd ref="297326831"/>
    <nd ref="297326836"/>
    <nd ref="297326838"/>
    <nd ref="297326842"/>
    <nd ref="297326844"/>
    <nd ref="538028903"/>
    <nd ref="297326885"/>
    <nd ref="297326883"/>
    <nd ref="258292123"/>
    <tag k="highway" v="secondary"/>
    <tag k="name" v="1 Dywizji Wojska Polskiego"/>
    <tag k="ref" v="100"/>
  </way>
  <way id="27099328" version="9" timestamp="2012-01-19T08:35:54Z" uid="378154" user="rosomak" changeset="10434716">
    <nd ref="538028851"/>
    <nd ref="297326827"/>
    <nd ref="297326830"/>
    <nd ref="297326831"/>
    <nd ref="297326836"/>
    <nd ref="297326838"/>
    <nd ref="297326842"/>
    <nd ref="297326844"/>
    <nd ref="538028903"/>
    <nd ref="297326885"/>
    <nd ref="297326883"/>
    <nd ref="258292123"/>
    <tag k="highway" v="secondary"/>
    <tag k="name" v="1 Dywizji Wojska Polskiego"/>
    <tag k="ref" v="100"/>
  </way>
  <way id="27099328" version="10" timestamp="2012-01-19T11:36:43Z" uid="378154" user="rosomak" changeset="10436331">
    <nd ref="538028851"/>
    <nd ref="297326830"/>
    <nd ref="297326831"/>
    <nd ref="297326836"/>
    <nd ref="297326838"/>
    <nd ref="297326842"/>
    <nd ref="297326844"/>
    <nd ref="538028903"/>
    <nd ref="297326885"/>
    <nd ref="297326883"/>
    <nd ref="258292123"/>
    <tag k="highway" v="secondary"/>
    <tag k="name" v="1 Dywizji Wojska Polskiego"/>
    <tag k="ref" v="100"/>
  </way>
  <way id="27099335" version="3" timestamp="2008-10-10T11:20:46Z" uid="30632" user="antblant" changeset="226581">
    <nd ref="297326812"/>
    <nd ref="297326791"/>
    <nd ref="297326798"/>
    <nd ref="297326796"/>
    <nd ref="297326803"/>
    <nd ref="297326801"/>
    <nd ref="297326808"/>
    <nd ref="297326805"/>
    <nd ref="297326847"/>
    <nd ref="297326849"/>
    <nd ref="297326851"/>
    <nd ref="297326854"/>
    <nd ref="297326857"/>
    <nd ref="297326859"/>
    <nd ref="297326861"/>
    <nd ref="297326864"/>
    <tag k="highway" v="secondary"/>
    <tag k="name" v="Starowiejska"/>
    <tag k="ref" v="100"/>
    <tag k="source" v="UMP-PL, ./UMP-Gdansk/src/RUMIA.ulice.txt"/>
  </way>
  <way id="27099335" version="4" timestamp="2008-11-22T23:44:42Z" uid="60306" user="Jaqb" changeset="785421">
    <nd ref="297326812"/>
    <nd ref="297326791"/>
    <nd ref="297326798"/>
    <nd ref="297326796"/>
    <nd ref="297326803"/>
    <nd ref="297326801"/>
    <nd ref="297326808"/>
    <nd ref="297326805"/>
    <nd ref="297326847"/>
    <nd ref="297326849"/>
    <nd ref="297326851"/>
    <nd ref="297326854"/>
    <nd ref="297326857"/>
    <nd ref="297326859"/>
    <nd ref="297326861"/>
    <nd ref="297326864"/>
    <tag k="created_by" v="Potlatch 0.10f"/>
    <tag k="highway" v="secondary"/>
    <tag k="name" v="Starowiejska"/>
    <tag k="ref" v="100"/>
    <tag k="source" v="UMP-PL, ./UMP-Gdansk/src/RUMIA.ulice.txt"/>
  </way>
  <way id="27099335" version="5" timestamp="2009-10-19T19:28:38Z" uid="16188" user="Ahven" changeset="2897761">
    <nd ref="297326812"/>
    <nd ref="297326791"/>
    <nd ref="297326798"/>
    <nd ref="297326796"/>
    <nd ref="297326803"/>
    <nd ref="297326801"/>
    <nd ref="297326808"/>
    <nd ref="297326805"/>
    <nd ref="297326847"/>
    <nd ref="297326849"/>
    <nd ref="297326851"/>
    <tag k="highway" v="secondary"/>
    <tag k="name" v="Starowiejska"/>
    <tag k="ref" v="100"/>
    <tag k="source" v="UMP-PL, ./UMP-Gdansk/src/RUMIA.ulice.txt"/>
  </way>
  <way id="27099335" version="6" timestamp="2009-10-21T19:10:38Z" uid="16188" user="Ahven" changeset="2915875">
    <nd ref="297326812"/>
    <nd ref="297326791"/>
    <nd ref="297326798"/>
    <nd ref="297326803"/>
    <nd ref="297326801"/>
    <nd ref="297326808"/>
    <nd ref="297326805"/>
    <nd ref="538028839"/>
    <nd ref="297326847"/>
    <nd ref="297326849"/>
    <nd ref="297326851"/>
    <tag k="highway" v="secondary"/>
    <tag k="name" v="Starowiejska"/>
    <tag k="ref" v="100"/>
    <tag k="source" v="UMP-PL, ./UMP-Gdansk/src/RUMIA.ulice.txt"/>
  </way>
  <way id="27099335" version="7" timestamp="2009-10-23T19:31:39Z" uid="16188" user="Ahven" changeset="2932734">
    <nd ref="297326812"/>
    <nd ref="297326791"/>
    <nd ref="297326798"/>
    <nd ref="297326803"/>
    <nd ref="297326801"/>
    <nd ref="297326808"/>
    <nd ref="297326805"/>
    <nd ref="538028839"/>
    <nd ref="297326847"/>
    <nd ref="297326849"/>
    <nd ref="539133624"/>
    <nd ref="297326851"/>
    <tag k="highway" v="secondary"/>
    <tag k="name" v="Starowiejska"/>
    <tag k="ref" v="100"/>
    <tag k="source" v="UMP-PL, ./UMP-Gdansk/src/RUMIA.ulice.txt"/>
  </way>
  <way id="27099335" version="8" timestamp="2009-10-31T14:55:06Z" uid="16188" user="Ahven" changeset="2998073">
    <nd ref="297326812"/>
    <nd ref="297326791"/>
    <nd ref="297326798"/>
    <nd ref="297326803"/>
    <nd ref="297326801"/>
    <nd ref="297326808"/>
    <nd ref="297326805"/>
    <nd ref="538028839"/>
    <nd ref="297326847"/>
    <nd ref="297326849"/>
    <nd ref="539133624"/>
    <nd ref="548740826"/>
    <nd ref="297326851"/>
    <tag k="highway" v="secondary"/>
    <tag k="name" v="Starowiejska"/>
    <tag k="ref" v="100"/>
    <tag k="source" v="UMP-PL, ./UMP-Gdansk/src/RUMIA.ulice.txt"/>
  </way>
  <way id="27099335" version="9" timestamp="2011-01-29T22:44:05Z" uid="16188" user="Ahven" changeset="7128328">
    <nd ref="297326812"/>
    <nd ref="297326791"/>
    <nd ref="297326798"/>
    <nd ref="297326803"/>
    <nd ref="297326801"/>
    <nd ref="297326808"/>
    <nd ref="297326805"/>
    <nd ref="538028839"/>
    <nd ref="297326847"/>
    <nd ref="297326849"/>
    <nd ref="539133624"/>
    <nd ref="548740826"/>
    <nd ref="297326851"/>
    <tag k="highway" v="secondary"/>
    <tag k="name" v="Starowiejska"/>
    <tag k="name:csb" v="Stôrwiejskô"/>
    <tag k="ref" v="100"/>
    <tag k="source" v="UMP-PL, ./UMP-Gdansk/src/RUMIA.ulice.txt"/>
  </way>
  <way id="27099335" version="10" timestamp="2011-02-06T18:01:59Z" uid="16188" user="Ahven" changeset="7207154">
    <nd ref="297326812"/>
    <nd ref="297326791"/>
    <nd ref="297326798"/>
    <nd ref="297326803"/>
    <nd ref="297326801"/>
    <nd ref="297326808"/>
    <nd ref="297326805"/>
    <nd ref="538028839"/>
    <nd ref="1139483113"/>
    <nd ref="297326847"/>
    <nd ref="297326849"/>
    <nd ref="539133624"/>
    <nd ref="548740826"/>
    <nd ref="297326851"/>
    <tag k="highway" v="secondary"/>
    <tag k="name" v="Starowiejska"/>
    <tag k="name:csb" v="Stôrwiejskô"/>
    <tag k="ref" v="100"/>
    <tag k="source" v="UMP-PL, ./UMP-Gdansk/src/RUMIA.ulice.txt"/>
  </way>
  <way id="27099335" version="11" timestamp="2011-02-06T18:12:46Z" uid="16188" user="Ahven" changeset="7207310">
    <nd ref="297326812"/>
    <nd ref="297326791"/>
    <nd ref="297326798"/>
    <nd ref="297326803"/>
    <nd ref="297326801"/>
    <nd ref="297326808"/>
    <nd ref="297326805"/>
    <nd ref="538028839"/>
    <nd ref="1139483113"/>
    <nd ref="297326847"/>
    <nd ref="297326849"/>
    <nd ref="539133624"/>
    <nd ref="1139500916"/>
    <nd ref="548740826"/>
    <nd ref="297326851"/>
    <tag k="highway" v="secondary"/>
    <tag k="name" v="Starowiejska"/>
    <tag k="name:csb" v="Stôrwiejskô"/>
    <tag k="ref" v="100"/>
    <tag k="source" v="UMP-PL, ./UMP-Gdansk/src/RUMIA.ulice.txt"/>
  </way>
  <way id="27099335" version="12" timestamp="2011-12-24T22:28:25Z" uid="378154" user="rosomak" changeset="10196643">
    <nd ref="297326812"/>
    <nd ref="297326791"/>
    <nd ref="297326798"/>
    <nd ref="1561050894"/>
    <nd ref="297326803"/>
    <nd ref="297326801"/>
    <nd ref="297326808"/>
    <nd ref="297326805"/>
    <nd ref="538028839"/>
    <nd ref="1139483113"/>
    <nd ref="297326847"/>
    <nd ref="297326849"/>
    <nd ref="539133624"/>
    <nd ref="1139500916"/>
    <nd ref="548740826"/>
    <nd ref="297326851"/>
    <tag k="highway" v="secondary"/>
    <tag k="name" v="Starowiejska"/>
    <tag k="ref" v="100"/>
  </way>
  <way id="27099342" version="2" timestamp="2008-10-09T21:56:30Z" uid="30632" user="antblant" changeset="210278">
    <nd ref="297327688"/>
    <nd ref="297327678"/>
    <nd ref="297327452"/>
    <tag k="created_by" v="Potlatch 0.10d"/>
    <tag k="highway" v="unclassified"/>
    <tag k="name" v="Leszka Białego"/>
    <tag k="source" v="UMP-PL, ./UMP-Gdansk/src/RUMIA.ulice.txt"/>
    <tag k="surface" v="unpaved"/>
  </way>
  <way id="27099342" version="3" timestamp="2009-10-31T14:55:06Z" uid="16188" user="Ahven" changeset="2998073">
    <nd ref="297327688"/>
    <nd ref="548740881"/>
    <nd ref="297327678"/>
    <nd ref="297327452"/>
    <tag k="highway" v="unclassified"/>
    <tag k="name" v="Leszka Białego"/>
    <tag k="source" v="UMP-PL, ./UMP-Gdansk/src/RUMIA.ulice.txt"/>
    <tag k="surface" v="unpaved"/>
  </way>
  <way id="27099342" version="4" timestamp="2009-11-09T19:56:34Z" uid="16188" user="Ahven" changeset="3076960">
    <nd ref="297327688"/>
    <nd ref="548740881"/>
    <nd ref="560108045"/>
    <nd ref="297327678"/>
    <nd ref="297327452"/>
    <tag k="highway" v="residential"/>
    <tag k="name" v="Leszka Białego"/>
    <tag k="surface" v="unpaved"/>
  </way>
  <way id="27099342" version="5" timestamp="2010-08-09T20:22:44Z" uid="16188" user="Ahven" changeset="5448039">
    <nd ref="297327688"/>
    <nd ref="548740881"/>
    <nd ref="560108045"/>
    <nd ref="297327678"/>
    <nd ref="851549941"/>
    <nd ref="297327452"/>
    <tag k="highway" v="residential"/>
    <tag k="name" v="Leszka Białego"/>
    <tag k="surface" v="unpaved"/>
  </way>
  <way id="27099342" version="6" timestamp="2012-01-16T06:00:20Z" uid="378154" user="rosomak" changeset="10405680">
    <nd ref="297327688"/>
    <nd ref="548740881"/>
    <nd ref="560108045"/>
    <nd ref="297327678"/>
    <tag k="highway" v="living_street"/>
    <tag k="name" v="Leszka Białego"/>
    <tag k="surface" v="unpaved"/>
  </way>
  <way id="27099345" version="3" timestamp="2008-10-09T21:43:40Z" uid="30632" user="antblant" changeset="210278">
    <nd ref="297326789"/>
    <nd ref="297326786"/>
    <nd ref="297326785"/>
    <nd ref="297326782"/>
    <nd ref="297326781"/>
    <nd ref="297326778"/>
    <nd ref="297326775"/>
    <nd ref="297326773"/>
    <nd ref="297326812"/>
    <nd ref="297326809"/>
    <nd ref="297326816"/>
    <nd ref="297326789"/>
    <tag k="created_by" v="Potlatch 0.10d"/>
    <tag k="highway" v="secondary"/>
    <tag k="junction" v="roundabout"/>
    <tag k="name" v="Jana Pawła II"/>
    <tag k="source" v="UMP-PL, ./UMP-Gdansk/src/RUMIA.ulice.txt"/>
  </way>
  <way id="27099345" version="4" timestamp="2009-10-21T19:10:39Z" uid="16188" user="Ahven" changeset="2915875">
    <nd ref="297326789"/>
    <nd ref="538028848"/>
    <nd ref="538028845"/>
    <nd ref="538028849"/>
    <nd ref="297326781"/>
    <nd ref="538028846"/>
    <nd ref="297326773"/>
    <nd ref="538028852"/>
    <nd ref="297326812"/>
    <nd ref="297326809"/>
    <nd ref="538028847"/>
    <nd ref="297326816"/>
    <nd ref="538028853"/>
    <nd ref="297326789"/>
    <tag k="highway" v="secondary"/>
    <tag k="junction" v="roundabout"/>
    <tag k="name" v="Jana Pawła II"/>
    <tag k="source" v="UMP-PL, ./UMP-Gdansk/src/RUMIA.ulice.txt"/>
  </way>
  <way id="27099345" version="5" timestamp="2012-01-09T10:59:07Z" uid="378154" user="rosomak" changeset="10340614">
    <nd ref="297326789"/>
    <nd ref="538028848"/>
    <nd ref="538028845"/>
    <nd ref="538028849"/>
    <nd ref="297326781"/>
    <nd ref="538028846"/>
    <nd ref="297326773"/>
    <nd ref="538028852"/>
    <nd ref="297326812"/>
    <nd ref="297326809"/>
    <nd ref="538028847"/>
    <nd ref="297326816"/>
    <nd ref="538028853"/>
    <nd ref="297326789"/>
    <tag k="highway" v="secondary"/>
    <tag k="junction" v="roundabout"/>
    <tag k="name" v="Jana Pawła II"/>
  </way>
  <way id="27099349" version="2" timestamp="2008-10-09T21:49:57Z" uid="30632" user="antblant" changeset="210278">
    <nd ref="297326728"/>
    <nd ref="297326760"/>
    <nd ref="297326758"/>
    <nd ref="297326755"/>
    <nd ref="297326728"/>
    <tag k="created_by" v="Potlatch 0.10d"/>
    <tag k="highway" v="tertiary"/>
    <tag k="junction" v="roundabout"/>
    <tag k="source" v="UMP-PL, ./UMP-Gdansk/src/RUMIA.ulice.txt"/>
  </way>
  <way id="27099349" version="3" timestamp="2009-10-21T19:10:39Z" uid="16188" user="Ahven" changeset="2915875">
    <nd ref="297326728"/>
    <nd ref="538028827"/>
    <nd ref="297326760"/>
    <nd ref="538028826"/>
    <nd ref="297326758"/>
    <nd ref="538028825"/>
    <nd ref="297326755"/>
    <nd ref="538028823"/>
    <nd ref="297326728"/>
    <tag k="highway" v="tertiary"/>
    <tag k="junction" v="roundabout"/>
    <tag k="source" v="UMP-PL, ./UMP-Gdansk/src/RUMIA.ulice.txt"/>
  </way>
  <way id="27099359" version="3" timestamp="2008-10-09T21:49:45Z" uid="30632" user="antblant" changeset="210278">
    <nd ref="297326728"/>
    <nd ref="297326730"/>
    <nd ref="297326723"/>
    <nd ref="297326725"/>
    <nd ref="297326718"/>
    <nd ref="297326720"/>
    <nd ref="297326751"/>
    <tag k="created_by" v="Potlatch 0.10d"/>
    <tag k="highway" v="tertiary"/>
    <tag k="name" v="Żwirki i Wigury"/>
    <tag k="source" v="UMP-PL, ./UMP-Gdansk/src/RUMIA.ulice.txt"/>
  </way>
  <way id="27099359" version="4" timestamp="2008-10-16T22:52:41Z" uid="53100" user="Jakub Klawiter" changeset="388840">
    <nd ref="297326728"/>
    <nd ref="297326730"/>
    <nd ref="297326723"/>
    <nd ref="297326725"/>
    <nd ref="297326718"/>
    <nd ref="297326720"/>
    <nd ref="297326751"/>
    <tag k="created_by" v="Potlatch 0.10d"/>
    <tag k="highway" v="tertiary"/>
    <tag k="name" v="Franciszka Żwirki i Stanisława Wigury"/>
    <tag k="source" v="UMP-PL, ./UMP-Gdansk/src/RUMIA.ulice.txt"/>
  </way>
  <way id="27099359" version="5" timestamp="2009-10-21T19:10:39Z" uid="16188" user="Ahven" changeset="2915875">
    <nd ref="297326728"/>
    <nd ref="297326730"/>
    <nd ref="297326725"/>
    <nd ref="297326720"/>
    <nd ref="538028887"/>
    <nd ref="297326751"/>
    <tag k="highway" v="tertiary"/>
    <tag k="name" v="Franciszka Żwirki i Stanisława Wigury"/>
    <tag k="source" v="UMP-PL, ./UMP-Gdansk/src/RUMIA.ulice.txt"/>
  </way>
  <way id="27099359" version="6" timestamp="2011-12-24T22:28:22Z" uid="378154" user="rosomak" changeset="10196643">
    <nd ref="297326728"/>
    <nd ref="297326730"/>
    <nd ref="297326725"/>
    <nd ref="297326720"/>
    <nd ref="538028887"/>
    <nd ref="297326751"/>
    <tag k="highway" v="tertiary"/>
    <tag k="name" v="Franciszka Żwirki i Stanisława Wigury"/>
  </way>
  <way id="27099359" version="7" timestamp="2011-12-30T04:17:27Z" uid="378154" user="rosomak" changeset="10242034">
    <nd ref="297326728"/>
    <nd ref="297326730"/>
    <nd ref="297326725"/>
    <nd ref="1285059537"/>
    <nd ref="538028887"/>
    <nd ref="297326751"/>
    <tag k="highway" v="tertiary"/>
    <tag k="name" v="Franciszka Żwirki i Stanisława Wigury"/>
  </way>
  <way id="27099366" version="4" timestamp="2008-10-09T21:59:43Z" uid="30632" user="antblant" changeset="210278">
    <nd ref="297327068"/>
    <nd ref="298277926"/>
    <nd ref="297327075"/>
    <nd ref="297327074"/>
    <tag k="created_by" v="Potlatch 0.10d"/>
    <tag k="highway" v="tertiary"/>
    <tag k="name" v="Dąbrowskiego"/>
    <tag k="source" v="UMP-PL, ./UMP-Gdansk/src/RUMIA.ulice.txt"/>
  </way>
  <way id="27099366" version="5" timestamp="2008-10-15T20:16:17Z" uid="53100" user="Jakub Klawiter" changeset="365918">
    <nd ref="297327068"/>
    <nd ref="298277926"/>
    <nd ref="297327075"/>
    <nd ref="297327074"/>
    <tag k="created_by" v="Potlatch 0.10d"/>
    <tag k="highway" v="tertiary"/>
    <tag k="name" v="Jana Henryka Dąbrowskiego"/>
    <tag k="source" v="UMP-PL, ./UMP-Gdansk/src/RUMIA.ulice.txt"/>
  </way>
  <way id="27099366" version="6" timestamp="2009-03-08T19:31:52Z" uid="76623" user="DLX" changeset="762243">
    <nd ref="297327068"/>
    <nd ref="298277926"/>
    <nd ref="297327075"/>
    <nd ref="297327074"/>
    <tag k="created_by" v="Potlatch 0.10f"/>
    <tag k="highway" v="secondary"/>
    <tag k="name" v="Jana Henryka Dąbrowskiego"/>
    <tag k="source" v="UMP-PL, ./UMP-Gdansk/src/RUMIA.ulice.txt"/>
  </way>
  <way id="27099366" version="7" timestamp="2009-10-23T21:19:39Z" uid="16188" user="Ahven" changeset="2933498">
    <nd ref="297327068"/>
    <nd ref="298277926"/>
    <nd ref="297327075"/>
    <nd ref="297327074"/>
    <tag k="highway" v="tertiary"/>
    <tag k="name" v="Jana Henryka Dąbrowskiego"/>
    <tag k="source" v="UMP-PL, ./UMP-Gdansk/src/RUMIA.ulice.txt"/>
  </way>
  <way id="27099366" version="8" timestamp="2011-11-14T19:46:28Z" uid="378154" user="rosomak" changeset="9828025">
    <nd ref="297327068"/>
    <nd ref="298277926"/>
    <nd ref="297327075"/>
    <nd ref="300761791"/>
    <tag k="highway" v="tertiary"/>
    <tag k="name" v="Jana Henryka Dąbrowskiego"/>
    <tag k="source" v="UMP-PL, ./UMP-Gdansk/src/RUMIA.ulice.txt"/>
  </way>
  <way id="27099366" version="9" timestamp="2012-01-05T12:53:19Z" uid="378154" user="rosomak" changeset="10300528">
    <nd ref="297327068"/>
    <nd ref="298277926"/>
    <nd ref="297327075"/>
    <nd ref="1578083797"/>
    <nd ref="300761791"/>
    <tag k="highway" v="tertiary"/>
    <tag k="name" v="Jana Henryka Dąbrowskiego"/>
    <tag k="source" v="UMP-PL, ./UMP-Gdansk/src/RUMIA.ulice.txt"/>
  </way>
  <way id="27099366" version="10" timestamp="2012-01-05T15:04:35Z" uid="378154" user="rosomak" changeset="10301862">
    <nd ref="297327068"/>
    <nd ref="298277926"/>
    <nd ref="297327075"/>
    <nd ref="1578083797"/>
    <nd ref="300761791"/>
    <tag k="highway" v="tertiary"/>
    <tag k="name" v="Jana Henryka Dąbrowskiego"/>
  </way>
  <way id="27099373" version="3" timestamp="2008-10-09T21:52:54Z" uid="30632" user="antblant" changeset="210278">
    <nd ref="258292123"/>
    <nd ref="297327776"/>
    <nd ref="297327769"/>
    <nd ref="297327654"/>
    <nd ref="297326958"/>
    <nd ref="297327720"/>
    <nd ref="297327723"/>
    <nd ref="297327722"/>
    <tag k="created_by" v="Potlatch 0.10d"/>
    <tag k="highway" v="tertiary"/>
    <tag k="name" v="Partyzantów"/>
    <tag k="source" v="UMP-PL, ./UMP-Gdansk/src/RUMIA.ulice.txt"/>
  </way>
  <way id="27099373" version="4" timestamp="2009-10-23T19:31:39Z" uid="16188" user="Ahven" changeset="2932734">
    <nd ref="258292123"/>
    <nd ref="297327776"/>
    <nd ref="297327769"/>
    <nd ref="297327654"/>
    <nd ref="297326958"/>
    <nd ref="539133645"/>
    <nd ref="297327720"/>
    <nd ref="297327723"/>
    <nd ref="297327722"/>
    <tag k="highway" v="tertiary"/>
    <tag k="name" v="Partyzantów"/>
    <tag k="source" v="UMP-PL, ./UMP-Gdansk/src/RUMIA.ulice.txt"/>
  </way>
  <way id="27099373" version="5" timestamp="2010-08-09T20:22:42Z" uid="16188" user="Ahven" changeset="5448039">
    <nd ref="258292123"/>
    <nd ref="297327776"/>
    <nd ref="297327769"/>
    <nd ref="297327654"/>
    <nd ref="297326958"/>
    <nd ref="539133645"/>
    <nd ref="297327720"/>
    <tag k="highway" v="tertiary"/>
    <tag k="name" v="Partyzantów"/>
  </way>
  <way id="27099373" version="6" timestamp="2011-07-27T20:53:18Z" uid="378154" user="rosomak" changeset="8849187">
    <nd ref="258292123"/>
    <nd ref="1376220441"/>
    <nd ref="297327776"/>
    <nd ref="297327769"/>
    <nd ref="1376220452"/>
    <nd ref="297327654"/>
    <nd ref="1376220481"/>
    <nd ref="1376220485"/>
    <nd ref="297326958"/>
    <nd ref="539133645"/>
    <nd ref="1376220513"/>
    <nd ref="297327720"/>
    <tag k="highway" v="tertiary"/>
    <tag k="name" v="Partyzantów"/>
  </way>
  <way id="27099373" version="7" timestamp="2011-10-26T21:45:13Z" uid="544230" user="Fevver" changeset="9664498">
    <nd ref="258292123"/>
    <nd ref="1376220441"/>
    <nd ref="297327776"/>
    <nd ref="297327769"/>
    <nd ref="1376220452"/>
    <nd ref="297327654"/>
    <nd ref="1376220481"/>
    <nd ref="1376220485"/>
    <nd ref="297326958"/>
    <nd ref="539133645"/>
    <nd ref="1376220513"/>
    <nd ref="297327720"/>
    <tag k="highway" v="tertiary"/>
    <tag k="name" v="Partyzantów"/>
    <tag k="oneway" v="no"/>
  </way>
  <way id="27099373" version="8" timestamp="2011-12-24T22:28:19Z" uid="378154" user="rosomak" changeset="10196643">
    <nd ref="258292123"/>
    <nd ref="1376220441"/>
    <nd ref="297327776"/>
    <nd ref="297327769"/>
    <nd ref="1376220452"/>
    <nd ref="297327654"/>
    <nd ref="1376220481"/>
    <nd ref="1376220485"/>
    <nd ref="297326958"/>
    <nd ref="539133645"/>
    <nd ref="1376220513"/>
    <nd ref="1561050888"/>
    <nd ref="297327720"/>
    <tag k="highway" v="tertiary"/>
    <tag k="name" v="Partyzantów"/>
    <tag k="oneway" v="no"/>
  </way>
  <way id="27099373" version="9" timestamp="2011-12-28T17:16:44Z" uid="378154" user="rosomak" changeset="10228073">
    <nd ref="258292123"/>
    <nd ref="1376220441"/>
    <nd ref="297327776"/>
    <nd ref="297327769"/>
    <nd ref="1376220452"/>
    <nd ref="1376220481"/>
    <nd ref="1376220485"/>
    <nd ref="297326958"/>
    <nd ref="539133645"/>
    <nd ref="1376220513"/>
    <nd ref="1561050888"/>
    <nd ref="297327720"/>
    <tag k="highway" v="tertiary"/>
    <tag k="name" v="Partyzantów"/>
    <tag k="oneway" v="no"/>
  </way>
  <way id="27099373" version="10" timestamp="2011-12-28T20:55:50Z" uid="378154" user="rosomak" changeset="10230257">
    <nd ref="258292123"/>
    <nd ref="1376220441"/>
    <nd ref="297327776"/>
    <nd ref="297327769"/>
    <nd ref="1376220452"/>
    <nd ref="1376220481"/>
    <nd ref="1376220485"/>
    <nd ref="297326958"/>
    <nd ref="1566071021"/>
    <nd ref="539133645"/>
    <nd ref="1376220513"/>
    <nd ref="1561050888"/>
    <nd ref="297327720"/>
    <tag k="highway" v="tertiary"/>
    <tag k="name" v="Partyzantów"/>
    <tag k="oneway" v="no"/>
  </way>
  <way id="27099373" version="11" timestamp="2011-12-29T06:18:27Z" uid="378154" user="rosomak" changeset="10232368">
    <nd ref="258292123"/>
    <nd ref="1376220441"/>
    <nd ref="297327776"/>
    <nd ref="297327769"/>
    <nd ref="1376220452"/>
    <nd ref="1376220481"/>
    <nd ref="1376220485"/>
    <nd ref="297326958"/>
    <nd ref="1566071021"/>
    <nd ref="539133645"/>
    <nd ref="1376220513"/>
    <nd ref="542564694"/>
    <nd ref="1561050888"/>
    <nd ref="297327720"/>
    <tag k="highway" v="tertiary"/>
    <tag k="name" v="Partyzantów"/>
    <tag k="oneway" v="no"/>
  </way>
  <way id="27099373" version="12" timestamp="2011-12-29T21:40:18Z" uid="378154" user="rosomak" changeset="10240088">
    <nd ref="258292123"/>
    <nd ref="1376220441"/>
    <nd ref="297327776"/>
    <nd ref="297327769"/>
    <nd ref="1376220452"/>
    <nd ref="1376220481"/>
    <nd ref="1376220485"/>
    <nd ref="297326958"/>
    <nd ref="1566071021"/>
    <nd ref="539133645"/>
    <nd ref="1376220513"/>
    <nd ref="542564694"/>
    <nd ref="1561050888"/>
    <nd ref="1561832146"/>
    <nd ref="297327720"/>
    <tag k="highway" v="tertiary"/>
    <tag k="name" v="Partyzantów"/>
    <tag k="oneway" v="no"/>
  </way>
  <way id="27099373" version="13" timestamp="2012-01-20T09:14:40Z" uid="378154" user="rosomak" changeset="10444354">
    <nd ref="258292123"/>
    <nd ref="1376220441"/>
    <nd ref="297327776"/>
    <nd ref="297327769"/>
    <nd ref="1376220475"/>
    <nd ref="1376220452"/>
    <nd ref="1376220481"/>
    <nd ref="1376220485"/>
    <nd ref="297326958"/>
    <nd ref="1566071021"/>
    <nd ref="539133645"/>
    <nd ref="1376220513"/>
    <nd ref="542564694"/>
    <nd ref="1561050888"/>
    <nd ref="1561832146"/>
    <nd ref="297327720"/>
    <tag k="highway" v="tertiary"/>
    <tag k="name" v="Partyzantów"/>
    <tag k="oneway" v="no"/>
  </way>
  <way id="27099374" version="3" timestamp="2008-10-09T21:44:13Z" uid="30632" user="antblant" changeset="210278">
    <nd ref="297327442"/>
    <nd ref="297327383"/>
    <nd ref="297327443"/>
    <nd ref="297327444"/>
    <nd ref="297327445"/>
    <nd ref="297327454"/>
    <nd ref="297327455"/>
    <nd ref="297327456"/>
    <nd ref="297327457"/>
    <nd ref="297327450"/>
    <nd ref="297327451"/>
    <nd ref="297327452"/>
    <nd ref="297327453"/>
    <nd ref="297327463"/>
    <nd ref="297327462"/>
    <nd ref="297327465"/>
    <nd ref="297327464"/>
    <nd ref="297327459"/>
    <nd ref="297327458"/>
    <nd ref="297327461"/>
    <nd ref="297327460"/>
    <tag k="created_by" v="Potlatch 0.10d"/>
    <tag k="highway" v="tertiary"/>
    <tag k="name" v="Dębogórska"/>
    <tag k="source" v="UMP-PL, ./UMP-Gdansk/src/RUMIA.ulice.txt"/>
  </way>
  <way id="27099374" version="4" timestamp="2009-09-17T20:02:46Z" uid="16188" user="Ahven" changeset="2516525">
    <nd ref="499565911"/>
    <nd ref="499565912"/>
    <nd ref="499565913"/>
    <nd ref="297327442"/>
    <nd ref="297327383"/>
    <nd ref="297327443"/>
    <nd ref="297327444"/>
    <nd ref="297327445"/>
    <nd ref="297327454"/>
    <nd ref="297327455"/>
    <nd ref="297327456"/>
    <nd ref="297327457"/>
    <nd ref="297327450"/>
    <nd ref="297327451"/>
    <nd ref="297327452"/>
    <nd ref="297327453"/>
    <nd ref="297327463"/>
    <nd ref="297327462"/>
    <nd ref="297327465"/>
    <nd ref="297327464"/>
    <nd ref="297327459"/>
    <nd ref="297327458"/>
    <nd ref="297327461"/>
    <nd ref="297327460"/>
    <tag k="highway" v="tertiary"/>
    <tag k="name" v="Dębogórska"/>
    <tag k="source" v="UMP-PL, ./UMP-Gdansk/src/RUMIA.ulice.txt"/>
  </way>
  <way id="27099374" version="5" timestamp="2009-09-18T21:49:46Z" uid="16188" user="Ahven" changeset="2529042">
    <nd ref="499565911"/>
    <nd ref="500953640"/>
    <nd ref="499565912"/>
    <nd ref="499565913"/>
    <nd ref="297327442"/>
    <nd ref="297327383"/>
    <nd ref="297327443"/>
    <nd ref="297327444"/>
    <nd ref="297327445"/>
    <nd ref="297327454"/>
    <nd ref="297327455"/>
    <nd ref="297327456"/>
    <nd ref="297327457"/>
    <nd ref="297327450"/>
    <nd ref="297327451"/>
    <nd ref="297327452"/>
    <nd ref="297327453"/>
    <nd ref="297327463"/>
    <nd ref="297327462"/>
    <nd ref="297327465"/>
    <nd ref="297327464"/>
    <nd ref="297327459"/>
    <nd ref="297327458"/>
    <nd ref="297327461"/>
    <nd ref="297327460"/>
    <tag k="highway" v="tertiary"/>
    <tag k="name" v="Dębogórska"/>
    <tag k="source" v="UMP-PL, ./UMP-Gdansk/src/RUMIA.ulice.txt"/>
  </way>
  <way id="27099374" version="6" timestamp="2009-10-19T18:50:06Z" uid="16188" user="Ahven" changeset="2897308">
    <nd ref="499565911"/>
    <nd ref="500953640"/>
    <nd ref="499565912"/>
    <nd ref="499565913"/>
    <nd ref="297327442"/>
    <nd ref="297327383"/>
    <nd ref="297327443"/>
    <nd ref="297327444"/>
    <nd ref="297327445"/>
    <nd ref="297327454"/>
    <nd ref="297327455"/>
    <nd ref="297327456"/>
    <nd ref="297327457"/>
    <nd ref="297327450"/>
    <nd ref="297327451"/>
    <nd ref="297327452"/>
    <nd ref="297327453"/>
    <nd ref="297327463"/>
    <nd ref="297327462"/>
    <nd ref="297327465"/>
    <nd ref="297327464"/>
    <nd ref="297327459"/>
    <nd ref="297327458"/>
    <nd ref="297327461"/>
    <nd ref="297327460"/>
    <tag k="highway" v="tertiary"/>
    <tag k="layer" v="0"/>
    <tag k="name" v="Dębogórska"/>
    <tag k="source" v="UMP-PL, ./UMP-Gdansk/src/RUMIA.ulice.txt"/>
  </way>
  <way id="27099374" version="7" timestamp="2009-10-21T19:10:38Z" uid="16188" user="Ahven" changeset="2915875">
    <nd ref="499565911"/>
    <nd ref="500953640"/>
    <nd ref="499565912"/>
    <nd ref="499565913"/>
    <nd ref="538028876"/>
    <nd ref="297327442"/>
    <nd ref="538028865"/>
    <nd ref="297327383"/>
    <nd ref="538028866"/>
    <nd ref="538028873"/>
    <nd ref="538028868"/>
    <nd ref="538028861"/>
    <nd ref="297327443"/>
    <tag k="highway" v="tertiary"/>
    <tag k="layer" v="0"/>
    <tag k="name" v="Dębogórska"/>
    <tag k="source" v="UMP-PL, ./UMP-Gdansk/src/RUMIA.ulice.txt"/>
  </way>
  <way id="27099374" version="8" timestamp="2009-10-27T20:14:40Z" uid="16188" user="Ahven" changeset="2968550">
    <nd ref="499565911"/>
    <nd ref="542464566"/>
    <nd ref="500953640"/>
    <nd ref="499565912"/>
    <nd ref="499565913"/>
    <nd ref="538028876"/>
    <nd ref="297327442"/>
    <nd ref="538028865"/>
    <nd ref="297327383"/>
    <nd ref="538028866"/>
    <nd ref="538028873"/>
    <nd ref="538028868"/>
    <nd ref="538028861"/>
    <nd ref="297327443"/>
    <tag k="highway" v="tertiary"/>
    <tag k="layer" v="0"/>
    <tag k="name" v="Dębogórska"/>
    <tag k="source" v="UMP-PL, ./UMP-Gdansk/src/RUMIA.ulice.txt"/>
  </way>
  <way id="27099374" version="9" timestamp="2010-05-17T20:58:16Z" uid="16188" user="Ahven" changeset="4733349">
    <nd ref="499565911"/>
    <nd ref="738072995"/>
    <nd ref="738073026"/>
    <nd ref="738072985"/>
    <nd ref="738072999"/>
    <nd ref="542464566"/>
    <nd ref="500953640"/>
    <nd ref="499565912"/>
    <nd ref="499565913"/>
    <nd ref="538028876"/>
    <nd ref="297327442"/>
    <nd ref="538028865"/>
    <nd ref="297327383"/>
    <nd ref="538028866"/>
    <nd ref="538028873"/>
    <nd ref="538028868"/>
    <nd ref="538028861"/>
    <nd ref="297327443"/>
    <tag k="highway" v="tertiary"/>
    <tag k="layer" v="0"/>
    <tag k="name" v="Dębogórska"/>
    <tag k="source" v="UMP-PL, ./UMP-Gdansk/src/RUMIA.ulice.txt"/>
  </way>
  <way id="27099374" version="10" timestamp="2011-01-29T22:44:11Z" uid="16188" user="Ahven" changeset="7128328">
    <nd ref="499565911"/>
    <nd ref="738072995"/>
    <nd ref="738073026"/>
    <nd ref="738072985"/>
    <nd ref="738072999"/>
    <nd ref="542464566"/>
    <nd ref="500953640"/>
    <nd ref="499565912"/>
    <nd ref="499565913"/>
    <nd ref="538028876"/>
    <nd ref="297327442"/>
    <nd ref="538028865"/>
    <nd ref="297327383"/>
    <nd ref="538028866"/>
    <nd ref="538028873"/>
    <nd ref="538028868"/>
    <nd ref="538028861"/>
    <nd ref="297327443"/>
    <tag k="highway" v="tertiary"/>
    <tag k="layer" v="0"/>
    <tag k="name" v="Dębogórska"/>
    <tag k="name:csb" v="Dãbògórskô"/>
    <tag k="source" v="UMP-PL, ./UMP-Gdansk/src/RUMIA.ulice.txt"/>
  </way>
  <way id="27099374" version="11" timestamp="2011-03-13T18:51:19Z" uid="16188" user="Ahven" changeset="7548837">
    <nd ref="499565911"/>
    <nd ref="738072995"/>
    <nd ref="738073026"/>
    <nd ref="738072985"/>
    <nd ref="738072999"/>
    <nd ref="542464566"/>
    <nd ref="500953640"/>
    <nd ref="499565912"/>
    <nd ref="499565913"/>
    <nd ref="1200568420"/>
    <nd ref="1200568569"/>
    <nd ref="538028876"/>
    <nd ref="1200568590"/>
    <nd ref="297327442"/>
    <nd ref="1200568527"/>
    <nd ref="538028865"/>
    <nd ref="1200568573"/>
    <nd ref="297327383"/>
    <tag k="highway" v="tertiary"/>
    <tag k="layer" v="0"/>
    <tag k="name" v="Dębogórska"/>
    <tag k="name:csb" v="Dãbògórskô"/>
  </way>
  <way id="27099374" version="12" timestamp="2011-06-12T15:03:35Z" uid="16188" user="Ahven" changeset="8416254">
    <nd ref="499565911"/>
    <nd ref="1322019929"/>
    <nd ref="738072995"/>
    <nd ref="738073026"/>
    <nd ref="738072985"/>
    <nd ref="738072999"/>
    <nd ref="1322019886"/>
    <nd ref="542464566"/>
    <nd ref="500953640"/>
    <nd ref="499565912"/>
    <nd ref="499565913"/>
    <nd ref="1200568420"/>
    <nd ref="1200568569"/>
    <nd ref="538028876"/>
    <nd ref="1200568590"/>
    <nd ref="297327442"/>
    <nd ref="1200568527"/>
    <nd ref="538028865"/>
    <nd ref="1200568573"/>
    <nd ref="297327383"/>
    <tag k="highway" v="tertiary"/>
    <tag k="layer" v="0"/>
    <tag k="name" v="Dębogórska"/>
    <tag k="name:csb" v="Dãbògórskô"/>
  </way>
  <way id="27099374" version="13" timestamp="2011-12-26T14:02:44Z" uid="378154" user="rosomak" changeset="10207364">
    <nd ref="499565911"/>
    <nd ref="1322019929"/>
    <nd ref="738072995"/>
    <nd ref="738073026"/>
    <nd ref="738072985"/>
    <nd ref="738072999"/>
    <nd ref="1322019886"/>
    <nd ref="542464566"/>
    <nd ref="500953640"/>
    <nd ref="499565912"/>
    <nd ref="1562455201"/>
    <nd ref="499565913"/>
    <nd ref="1200568420"/>
    <nd ref="1200568569"/>
    <nd ref="538028876"/>
    <nd ref="1200568590"/>
    <nd ref="297327442"/>
    <nd ref="1200568527"/>
    <nd ref="538028865"/>
    <nd ref="1200568573"/>
    <nd ref="297327383"/>
    <tag k="highway" v="tertiary"/>
    <tag k="layer" v="0"/>
    <tag k="name" v="Dębogórska"/>
    <tag k="name:csb" v="Dãbògórskô"/>
  </way>
  <way id="27099374" version="14" timestamp="2012-01-09T10:59:05Z" uid="378154" user="rosomak" changeset="10340614">
    <nd ref="499565911"/>
    <nd ref="1322019929"/>
    <nd ref="738072995"/>
    <nd ref="738073026"/>
    <nd ref="738072985"/>
    <nd ref="738072999"/>
    <nd ref="1322019886"/>
    <nd ref="542464566"/>
    <nd ref="500953640"/>
    <nd ref="499565912"/>
    <nd ref="1562455201"/>
    <nd ref="499565913"/>
    <nd ref="1200568420"/>
    <nd ref="1200568569"/>
    <nd ref="538028876"/>
    <nd ref="1200568590"/>
    <nd ref="297327442"/>
    <nd ref="1200568527"/>
    <nd ref="538028865"/>
    <nd ref="1200568573"/>
    <nd ref="297327383"/>
    <tag k="highway" v="tertiary"/>
    <tag k="layer" v="0"/>
    <tag k="name" v="Dębogórska"/>
  </way>
  <way id="27099376" version="2" timestamp="2008-10-09T21:56:36Z" uid="30632" user="antblant" changeset="210278">
    <nd ref="297327459"/>
    <nd ref="297328386"/>
    <nd ref="297328387"/>
    <nd ref="297328388"/>
    <nd ref="297328389"/>
    <nd ref="297328390"/>
    <nd ref="297328391"/>
    <nd ref="297328392"/>
    <nd ref="297328399"/>
    <nd ref="297328397"/>
    <nd ref="297328396"/>
    <nd ref="297328394"/>
    <tag k="created_by" v="Potlatch 0.10d"/>
    <tag k="highway" v="unclassified"/>
    <tag k="name" v="Świętopełka"/>
    <tag k="source" v="UMP-PL, ./UMP-Gdansk/src/RUMIA.ulice.txt"/>
    <tag k="surface" v="unpaved"/>
  </way>
  <way id="27099376" version="3" timestamp="2009-09-18T22:01:29Z" uid="16188" user="Ahven" changeset="2529042">
    <nd ref="297327459"/>
    <nd ref="297328386"/>
    <nd ref="297328387"/>
    <nd ref="297328388"/>
    <nd ref="297328389"/>
    <nd ref="297328390"/>
    <nd ref="297328391"/>
    <nd ref="297328392"/>
    <nd ref="297328399"/>
    <nd ref="297328397"/>
    <nd ref="297328396"/>
    <nd ref="297328394"/>
    <tag k="highway" v="unclassified"/>
    <tag k="name" v="Świętopełka"/>
    <tag k="source" v="UMP-PL, ./UMP-Gdansk/src/RUMIA.ulice.txt"/>
    <tag k="surface" v="paving_stones"/>
  </way>
  <way id="27099376" version="4" timestamp="2010-08-09T20:22:48Z" uid="16188" user="Ahven" changeset="5448039">
    <nd ref="297327459"/>
    <nd ref="297328386"/>
    <nd ref="297328387"/>
    <nd ref="297328388"/>
    <nd ref="297328389"/>
    <nd ref="297328390"/>
    <nd ref="297328391"/>
    <nd ref="297328392"/>
    <nd ref="297328399"/>
    <tag k="highway" v="residential"/>
    <tag k="name" v="Świętopełka"/>
    <tag k="surface" v="paving_stones"/>
  </way>
  <way id="27099376" version="5" timestamp="2012-01-07T21:07:31Z" uid="16188" user="Ahven" changeset="10325754">
    <nd ref="297327459"/>
    <nd ref="1581576783"/>
    <nd ref="297328386"/>
    <nd ref="297328387"/>
    <nd ref="297328388"/>
    <nd ref="297328389"/>
    <nd ref="297328390"/>
    <nd ref="297328391"/>
    <nd ref="297328392"/>
    <nd ref="297328399"/>
    <tag k="highway" v="residential"/>
    <tag k="name" v="Świętopełka"/>
    <tag k="surface" v="paving_stones"/>
  </way>
  <way id="27099384" version="3" timestamp="2008-09-22T15:49:04Z" uid="30632" user="antblant" changeset="680284">
    <nd ref="297326897"/>
    <nd ref="297327014"/>
    <nd ref="297327012"/>
    <nd ref="297327011"/>
    <nd ref="297327009"/>
    <nd ref="297327008"/>
    <nd ref="297326988"/>
    <nd ref="297327006"/>
    <nd ref="297327005"/>
    <nd ref="297327003"/>
    <nd ref="297327001"/>
    <nd ref="297327000"/>
    <nd ref="297326998"/>
    <nd ref="297327052"/>
    <nd ref="297327054"/>
    <nd ref="297327049"/>
    <nd ref="297327051"/>
    <nd ref="297327046"/>
    <nd ref="297327048"/>
    <nd ref="297327043"/>
    <nd ref="297327044"/>
    <nd ref="297327038"/>
    <nd ref="297327041"/>
    <nd ref="297327030"/>
    <nd ref="297327035"/>
    <tag k="created_by" v="Potlatch 0.10b"/>
    <tag k="highway" v="primary"/>
    <tag k="name" v=" Sobieskiego"/>
    <tag k="ref" v="6"/>
    <tag k="source" v="UMP-PL, ./UMP-Gdansk/src/RUMIA.ulice.txt"/>
  </way>
  <way id="27099384" version="4" timestamp="2008-09-22T15:49:20Z" uid="30632" user="antblant" changeset="680284"/>
  <way id="27099388" version="3" timestamp="2008-09-22T15:48:59Z" uid="30632" user="antblant" changeset="680284">
    <nd ref="297327035"/>
    <nd ref="30788358"/>
    <tag k="created_by" v="Potlatch 0.10b"/>
    <tag k="highway" v="primary"/>
    <tag k="name" v=" Sobieskiego"/>
    <tag k="ref" v="6"/>
    <tag k="source" v="UMP-PL, ./UMP-Gdansk/src/RUMIA.ulice.txt"/>
  </way>
  <way id="27099388" version="4" timestamp="2008-09-22T15:49:20Z" uid="30632" user="antblant" changeset="680284">
    <nd ref="297326897"/>
    <nd ref="297327014"/>
    <nd ref="297327012"/>
    <nd ref="297327011"/>
    <nd ref="297327009"/>
    <nd ref="297327008"/>
    <nd ref="297326988"/>
    <nd ref="297327006"/>
    <nd ref="297327005"/>
    <nd ref="297327003"/>
    <nd ref="297327001"/>
    <nd ref="297327000"/>
    <nd ref="297326998"/>
    <nd ref="297327052"/>
    <nd ref="297327054"/>
    <nd ref="297327049"/>
    <nd ref="297327051"/>
    <nd ref="297327046"/>
    <nd ref="297327048"/>
    <nd ref="297327043"/>
    <nd ref="297327044"/>
    <nd ref="297327038"/>
    <nd ref="297327041"/>
    <nd ref="297327030"/>
    <nd ref="297327035"/>
    <nd ref="30788358"/>
    <tag k="created_by" v="Potlatch 0.10b"/>
    <tag k="highway" v="primary"/>
    <tag k="name" v=" Sobieskiego"/>
    <tag k="oneway" v="yes"/>
    <tag k="ref" v="6"/>
    <tag k="source" v="UMP-PL, ./UMP-Gdansk/src/RUMIA.ulice.txt"/>
  </way>
  <way id="27099388" version="5" timestamp="2008-09-29T02:08:49Z" uid="47334" user="TomDalek" changeset="715000">
    <nd ref="297326897"/>
    <nd ref="297327014"/>
    <nd ref="297327012"/>
    <nd ref="297327011"/>
    <nd ref="297327009"/>
    <nd ref="297327008"/>
    <nd ref="297326988"/>
    <nd ref="297327006"/>
    <nd ref="297327005"/>
    <nd ref="297327003"/>
    <nd ref="297327001"/>
    <nd ref="297327000"/>
    <nd ref="297326998"/>
    <nd ref="297327052"/>
    <nd ref="297327054"/>
    <nd ref="297327049"/>
    <nd ref="297327051"/>
    <nd ref="297327046"/>
    <nd ref="297327048"/>
    <nd ref="297327043"/>
    <nd ref="297327044"/>
    <nd ref="297327038"/>
    <nd ref="297327041"/>
    <nd ref="297327030"/>
    <nd ref="297327035"/>
    <tag k="created_by" v="Potlatch 0.10b"/>
    <tag k="highway" v="primary"/>
    <tag k="name" v=" Sobieskiego"/>
    <tag k="oneway" v="yes"/>
    <tag k="ref" v="6"/>
    <tag k="source" v="UMP-PL, ./UMP-Gdansk/src/RUMIA.ulice.txt"/>
  </way>
  <way id="27099388" version="6" timestamp="2008-10-10T11:20:47Z" uid="30632" user="antblant" changeset="226581">
    <nd ref="297326897"/>
    <nd ref="297327014"/>
    <nd ref="297327012"/>
    <nd ref="297327011"/>
    <nd ref="297327009"/>
    <nd ref="297327008"/>
    <nd ref="297326988"/>
    <nd ref="297327006"/>
    <nd ref="297327005"/>
    <nd ref="297327003"/>
    <nd ref="297327001"/>
    <nd ref="297327000"/>
    <nd ref="297326998"/>
    <nd ref="297327052"/>
    <nd ref="297327054"/>
    <nd ref="297327049"/>
    <nd ref="297327051"/>
    <nd ref="297327046"/>
    <nd ref="297327048"/>
    <nd ref="297327043"/>
    <nd ref="297327044"/>
    <nd ref="297327038"/>
    <nd ref="297327041"/>
    <nd ref="297327030"/>
    <nd ref="297327035"/>
    <tag k="created_by" v="Potlatch 0.10b"/>
    <tag k="highway" v="primary"/>
    <tag k="name" v="Sobieskiego"/>
    <tag k="oneway" v="yes"/>
    <tag k="ref" v="6"/>
    <tag k="source" v="UMP-PL, ./UMP-Gdansk/src/RUMIA.ulice.txt"/>
  </way>
  <way id="27099388" version="7" timestamp="2008-10-13T23:04:22Z" uid="53100" user="Jakub Klawiter" changeset="328363">
    <nd ref="297326897"/>
    <nd ref="297327014"/>
    <nd ref="297327012"/>
    <nd ref="297327011"/>
    <nd ref="297327009"/>
    <nd ref="297327008"/>
    <nd ref="297326988"/>
    <nd ref="297327006"/>
    <nd ref="297327005"/>
    <nd ref="297327003"/>
    <nd ref="297327001"/>
    <nd ref="297327000"/>
    <nd ref="297326998"/>
    <nd ref="297327052"/>
    <nd ref="297327054"/>
    <nd ref="297327049"/>
    <nd ref="297327051"/>
    <nd ref="297327046"/>
    <nd ref="297327048"/>
    <nd ref="297327043"/>
    <nd ref="297327044"/>
    <nd ref="297327038"/>
    <nd ref="297327041"/>
    <nd ref="297327030"/>
    <nd ref="297327035"/>
    <tag k="created_by" v="Potlatch 0.10b"/>
    <tag k="highway" v="primary"/>
    <tag k="name" v="Jana III Sobieskiego"/>
    <tag k="oneway" v="yes"/>
    <tag k="ref" v="6"/>
    <tag k="source" v="UMP-PL, ./UMP-Gdansk/src/RUMIA.ulice.txt"/>
  </way>
  <way id="27099388" version="8" timestamp="2009-01-02T00:02:04Z" uid="59808" user="ortylp" changeset="714928">
    <nd ref="297326897"/>
    <nd ref="297327014"/>
    <tag k="created_by" v="Potlatch 0.10b"/>
    <tag k="highway" v="primary"/>
    <tag k="name" v="Jana III Sobieskiego"/>
    <tag k="oneway" v="yes"/>
    <tag k="ref" v="6"/>
    <tag k="source" v="UMP-PL, ./UMP-Gdansk/src/RUMIA.ulice.txt"/>
  </way>
  <way id="27099388" version="9" timestamp="2009-02-16T21:57:53Z" uid="9176" user="Maarten Deen" changeset="486420">
    <nd ref="297326897"/>
    <nd ref="297327014"/>
    <tag k="created_by" v="Potlatch 0.10b"/>
    <tag k="highway" v="primary"/>
    <tag k="int_ref" v="E 28"/>
    <tag k="name" v="Jana III Sobieskiego"/>
    <tag k="oneway" v="yes"/>
    <tag k="ref" v="6"/>
    <tag k="source" v="UMP-PL, ./UMP-Gdansk/src/RUMIA.ulice.txt"/>
  </way>
  <way id="27099388" version="10" timestamp="2009-10-27T18:41:36Z" uid="16188" user="Ahven" changeset="2967694">
    <nd ref="297326897"/>
    <nd ref="542094519"/>
    <nd ref="542094524"/>
    <nd ref="542094530"/>
    <nd ref="542094514"/>
    <nd ref="297327014"/>
    <tag k="highway" v="primary"/>
    <tag k="int_ref" v="E 28"/>
    <tag k="name" v="Jana III Sobieskiego"/>
    <tag k="oneway" v="yes"/>
    <tag k="ref" v="6"/>
    <tag k="source" v="UMP-PL, ./UMP-Gdansk/src/RUMIA.ulice.txt"/>
  </way>
  <way id="27099388" version="11" timestamp="2011-12-24T22:28:24Z" uid="378154" user="rosomak" changeset="10196643">
    <nd ref="297326897"/>
    <nd ref="542094519"/>
    <nd ref="542094524"/>
    <nd ref="542094530"/>
    <nd ref="542094514"/>
    <nd ref="297327014"/>
    <tag k="highway" v="primary"/>
    <tag k="int_ref" v="E 28"/>
    <tag k="name" v="Jana III Sobieskiego"/>
    <tag k="oneway" v="yes"/>
    <tag k="ref" v="6"/>
  </way>
  <way id="27099388" version="12" timestamp="2011-12-26T13:30:56Z" uid="378154" user="rosomak" changeset="10207192">
    <nd ref="297326897"/>
    <nd ref="1562432096"/>
    <nd ref="542094519"/>
    <nd ref="542094524"/>
    <nd ref="542094530"/>
    <nd ref="542094514"/>
    <nd ref="297327014"/>
    <tag k="highway" v="primary"/>
    <tag k="int_ref" v="E 28"/>
    <tag k="name" v="Jana III Sobieskiego"/>
    <tag k="oneway" v="yes"/>
    <tag k="ref" v="6"/>
  </way>
  <way id="27099388" version="13" timestamp="2012-01-02T06:02:03Z" uid="378154" user="rosomak" changeset="10267890">
    <nd ref="297326897"/>
    <nd ref="542094519"/>
    <nd ref="542094524"/>
    <nd ref="542094530"/>
    <nd ref="542094514"/>
    <nd ref="297327014"/>
    <tag k="highway" v="primary"/>
    <tag k="int_ref" v="E 28"/>
    <tag k="name" v="Jana III Sobieskiego"/>
    <tag k="oneway" v="yes"/>
    <tag k="ref" v="6"/>
  </way>
  <way id="27099392" version="3" timestamp="2008-10-09T21:59:17Z" uid="30632" user="antblant" changeset="210278">
    <nd ref="297327089"/>
    <nd ref="297327060"/>
    <nd ref="297327059"/>
    <nd ref="297327057"/>
    <nd ref="297327055"/>
    <tag k="created_by" v="Potlatch 0.10d"/>
    <tag k="highway" v="tertiary"/>
    <tag k="name" v="Dąbrowskiego"/>
    <tag k="source" v="UMP-PL, ./UMP-Gdansk/src/RUMIA.ulice.txt"/>
  </way>
  <way id="27099392" version="4" timestamp="2008-10-15T20:16:28Z" uid="53100" user="Jakub Klawiter" changeset="365918">
    <nd ref="297327089"/>
    <nd ref="297327060"/>
    <nd ref="297327059"/>
    <nd ref="297327057"/>
    <nd ref="297327055"/>
    <tag k="created_by" v="Potlatch 0.10d"/>
    <tag k="highway" v="tertiary"/>
    <tag k="name" v="Jana Henryka Dąbrowskiego"/>
    <tag k="source" v="UMP-PL, ./UMP-Gdansk/src/RUMIA.ulice.txt"/>
  </way>
  <way id="27099392" version="5" timestamp="2009-07-29T18:04:48Z" uid="59808" user="ortylp" changeset="1978086">
    <nd ref="297327089"/>
    <nd ref="297327060"/>
    <nd ref="297327059"/>
    <nd ref="297327055"/>
    <tag k="created_by" v="Potlatch 0.10d"/>
    <tag k="highway" v="tertiary"/>
    <tag k="name" v="Jana Henryka Dąbrowskiego"/>
    <tag k="source" v="UMP-PL, ./UMP-Gdansk/src/RUMIA.ulice.txt"/>
  </way>
  <way id="27099392" version="6" timestamp="2009-09-16T17:38:38Z" uid="16188" user="Ahven" changeset="2504834">
    <nd ref="297327089"/>
    <nd ref="297327060"/>
    <nd ref="297327059"/>
    <nd ref="297327055"/>
    <tag k="highway" v="tertiary"/>
    <tag k="name" v="Jana Henryka Dąbrowskiego"/>
    <tag k="source" v="UMP-PL, ./UMP-Gdansk/src/RUMIA.ulice.txt"/>
  </way>
  <way id="27099392" version="7" timestamp="2009-10-27T19:11:13Z" uid="16188" user="Ahven" changeset="2967959">
    <nd ref="297327089"/>
    <nd ref="297327059"/>
    <nd ref="297327055"/>
    <tag k="highway" v="tertiary"/>
    <tag k="name" v="Jana Henryka Dąbrowskiego"/>
    <tag k="source" v="UMP-PL, ./UMP-Gdansk/src/RUMIA.ulice.txt"/>
  </way>
  <way id="27099392" version="8" timestamp="2009-11-10T20:52:54Z" uid="16188" user="Ahven" changeset="3085319">
    <nd ref="297327089"/>
    <nd ref="297327059"/>
    <nd ref="560555204"/>
    <nd ref="297327055"/>
    <tag k="highway" v="tertiary"/>
    <tag k="name" v="Jana Henryka Dąbrowskiego"/>
    <tag k="source" v="UMP-PL, ./UMP-Gdansk/src/RUMIA.ulice.txt"/>
  </way>
  <way id="27099392" version="9" timestamp="2012-01-05T15:04:36Z" uid="378154" user="rosomak" changeset="10301862">
    <nd ref="297327089"/>
    <nd ref="297327059"/>
    <nd ref="560555204"/>
    <nd ref="297327055"/>
    <tag k="highway" v="tertiary"/>
    <tag k="name" v="Jana Henryka Dąbrowskiego"/>
  </way>
  <way id="27099392" version="10" timestamp="2012-01-05T18:06:04Z" uid="378154" user="rosomak" changeset="10303666">
    <nd ref="297327089"/>
    <nd ref="1578523265"/>
    <nd ref="297327059"/>
    <nd ref="560555204"/>
    <nd ref="297327055"/>
    <tag k="highway" v="tertiary"/>
    <tag k="name" v="Jana Henryka Dąbrowskiego"/>
  </way>
  <way id="27099408" version="2" timestamp="2008-10-09T21:52:03Z" uid="30632" user="antblant" changeset="210278">
    <nd ref="297326615"/>
    <nd ref="297326658"/>
    <nd ref="297326996"/>
    <nd ref="297326604"/>
    <nd ref="297326608"/>
    <nd ref="297326663"/>
    <nd ref="297326671"/>
    <nd ref="297326615"/>
    <tag k="created_by" v="Potlatch 0.10d"/>
    <tag k="highway" v="residential"/>
    <tag k="junction" v="roundabout"/>
    <tag k="source" v="UMP-PL, ./UMP-Gdansk/src/RUMIA.ulice.txt"/>
  </way>
  <way id="27099408" version="3" timestamp="2010-09-11T13:24:54Z" uid="107566" user="Yabba" changeset="5749874">
    <nd ref="297326615"/>
    <nd ref="906817836"/>
    <nd ref="297326658"/>
    <nd ref="906817841"/>
    <nd ref="906817843"/>
    <nd ref="297326996"/>
    <nd ref="906817844"/>
    <nd ref="906817846"/>
    <nd ref="297326604"/>
    <nd ref="906817851"/>
    <nd ref="297326608"/>
    <nd ref="906817854"/>
    <nd ref="906817855"/>
    <nd ref="297326663"/>
    <nd ref="906817864"/>
    <nd ref="297326671"/>
    <nd ref="906817865"/>
    <nd ref="906817866"/>
    <nd ref="297326615"/>
    <tag k="highway" v="residential"/>
    <tag k="junction" v="roundabout"/>
    <tag k="oneway" v="yes"/>
    <tag k="source" v="UMP-PL, ./UMP-Gdansk/src/RUMIA.ulice.txt"/>
  </way>
  <way id="27099408" version="4" timestamp="2012-01-16T11:34:57Z" uid="378154" user="rosomak" changeset="10407528">
    <nd ref="297326615"/>
    <nd ref="906817836"/>
    <nd ref="297326658"/>
    <nd ref="906817841"/>
    <nd ref="906817843"/>
    <nd ref="297326996"/>
    <nd ref="906817844"/>
    <nd ref="906817846"/>
    <nd ref="297326604"/>
    <nd ref="906817851"/>
    <nd ref="297326608"/>
    <nd ref="906817854"/>
    <nd ref="906817855"/>
    <nd ref="297326663"/>
    <nd ref="906817864"/>
    <nd ref="297326671"/>
    <nd ref="906817865"/>
    <nd ref="906817866"/>
    <nd ref="297326615"/>
    <tag k="highway" v="residential"/>
    <tag k="junction" v="roundabout"/>
    <tag k="oneway" v="yes"/>
  </way>
  <way id="27099426" version="2" timestamp="2008-10-09T21:58:12Z" uid="30632" user="antblant" changeset="210278">
    <nd ref="297328417"/>
    <nd ref="297328425"/>
    <tag k="created_by" v="Potlatch 0.10d"/>
    <tag k="highway" v="unclassified"/>
    <tag k="name" v="Wiązowa"/>
    <tag k="source" v="UMP-PL, ./UMP-Gdansk/src/RUMIA.ulice.txt"/>
    <tag k="surface" v="unpaved"/>
  </way>
  <way id="27099426" version="3" timestamp="2012-01-09T10:59:13Z" uid="378154" user="rosomak" changeset="10340614">
    <nd ref="297328417"/>
    <nd ref="297328425"/>
    <tag k="highway" v="unclassified"/>
    <tag k="name" v="Wiązowa"/>
    <tag k="surface" v="unpaved"/>
  </way>
  <way id="27099426" version="4" timestamp="2012-01-18T08:34:27Z" uid="378154" user="rosomak" changeset="10425291">
    <nd ref="297328417"/>
    <nd ref="297328425"/>
    <tag k="highway" v="living_street"/>
    <tag k="name" v="Wiązowa"/>
    <tag k="surface" v="unpaved"/>
  </way>
  <way id="27099429" version="2" timestamp="2008-10-09T21:56:46Z" uid="30632" user="antblant" changeset="210278">
    <nd ref="297328388"/>
    <nd ref="297328332"/>
    <nd ref="297327733"/>
    <tag k="created_by" v="Potlatch 0.10d"/>
    <tag k="highway" v="unclassified"/>
    <tag k="name" v="Subisława"/>
    <tag k="source" v="UMP-PL, ./UMP-Gdansk/src/RUMIA.ulice.txt"/>
    <tag k="surface" v="unpaved"/>
  </way>
  <way id="27099429" version="3" timestamp="2010-05-02T20:56:14Z" uid="16188" user="Ahven" changeset="4590090">
    <nd ref="297328388"/>
    <nd ref="297328332"/>
    <nd ref="297327733"/>
    <tag k="highway" v="residential"/>
    <tag k="name" v="Subisława"/>
    <tag k="surface" v="unpaved"/>
  </way>
  <way id="27099429" version="4" timestamp="2012-01-09T10:59:09Z" uid="378154" user="rosomak" changeset="10340614">
    <nd ref="297328388"/>
    <nd ref="297327733"/>
    <tag k="highway" v="residential"/>
    <tag k="name" v="Subisława"/>
    <tag k="surface" v="unpaved"/>
  </way>
  <way id="27099429" version="5" timestamp="2012-01-19T08:27:28Z" uid="378154" user="rosomak" changeset="10434662">
    <nd ref="297328388"/>
    <nd ref="297327733"/>
    <tag k="highway" v="living_street"/>
    <tag k="name" v="Subisława"/>
    <tag k="surface" v="unpaved"/>
  </way>
  <way id="27099431" version="3" timestamp="2008-10-09T21:59:39Z" uid="30632" user="antblant" changeset="210278">
    <nd ref="297327387"/>
    <nd ref="297327388"/>
    <nd ref="297327068"/>
    <tag k="created_by" v="Potlatch 0.10d"/>
    <tag k="highway" v="tertiary"/>
    <tag k="name" v="Dąbrowskiego"/>
    <tag k="source" v="UMP-PL, ./UMP-Gdansk/src/RUMIA.ulice.txt"/>
  </way>
  <way id="27099431" version="4" timestamp="2008-10-15T20:16:42Z" uid="53100" user="Jakub Klawiter" changeset="365918">
    <nd ref="297327387"/>
    <nd ref="297327388"/>
    <nd ref="297327068"/>
    <tag k="created_by" v="Potlatch 0.10d"/>
    <tag k="highway" v="tertiary"/>
    <tag k="name" v="Jana Henryka Dąbrowskiego"/>
    <tag k="source" v="UMP-PL, ./UMP-Gdansk/src/RUMIA.ulice.txt"/>
  </way>
  <way id="27099431" version="5" timestamp="2008-11-22T23:50:47Z" uid="60306" user="Jaqb" changeset="785421">
    <nd ref="297327387"/>
    <nd ref="297327388"/>
    <nd ref="297327068"/>
    <tag k="created_by" v="Potlatch 0.10f"/>
    <tag k="highway" v="tertiary"/>
    <tag k="name" v="Jana Henryka Dąbrowskiego"/>
    <tag k="oneway" v="yes"/>
    <tag k="source" v="UMP-PL, ./UMP-Gdansk/src/RUMIA.ulice.txt"/>
  </way>
  <way id="27099431" version="6" timestamp="2009-03-08T19:31:55Z" uid="76623" user="DLX" changeset="762243">
    <nd ref="297327387"/>
    <nd ref="297327388"/>
    <nd ref="297327068"/>
    <tag k="created_by" v="Potlatch 0.10f"/>
    <tag k="highway" v="secondary"/>
    <tag k="name" v="Jana Henryka Dąbrowskiego"/>
    <tag k="oneway" v="yes"/>
    <tag k="source" v="UMP-PL, ./UMP-Gdansk/src/RUMIA.ulice.txt"/>
  </way>
  <way id="27099431" version="7" timestamp="2009-10-23T21:19:39Z" uid="16188" user="Ahven" changeset="2933498">
    <nd ref="297327387"/>
    <nd ref="297327388"/>
    <nd ref="297327068"/>
    <tag k="highway" v="tertiary"/>
    <tag k="name" v="Jana Henryka Dąbrowskiego"/>
    <tag k="oneway" v="yes"/>
    <tag k="source" v="UMP-PL, ./UMP-Gdansk/src/RUMIA.ulice.txt"/>
  </way>
  <way id="27099431" version="8" timestamp="2012-01-05T15:04:35Z" uid="378154" user="rosomak" changeset="10301862">
    <nd ref="297327387"/>
    <nd ref="297327388"/>
    <nd ref="297327068"/>
    <tag k="highway" v="tertiary"/>
    <tag k="name" v="Jana Henryka Dąbrowskiego"/>
    <tag k="oneway" v="yes"/>
  </way>
  <way id="27099440" version="3" timestamp="2008-10-09T21:59:52Z" uid="30632" user="antblant" changeset="210278">
    <nd ref="297327384"/>
    <nd ref="297327377"/>
    <nd ref="297327387"/>
    <nd ref="297327378"/>
    <nd ref="297327230"/>
    <nd ref="297327391"/>
    <nd ref="297327379"/>
    <nd ref="297327380"/>
    <nd ref="297327384"/>
    <tag k="created_by" v="Potlatch 0.10d"/>
    <tag k="highway" v="tertiary"/>
    <tag k="junction" v="roundabout"/>
    <tag k="name" v="Rondo Unii Europejskiej"/>
    <tag k="source" v="UMP-PL, ./UMP-Gdansk/src/RUMIA.ulice.txt"/>
  </way>
  <way id="27099440" version="4" timestamp="2009-09-16T18:08:55Z" uid="16188" user="Ahven" changeset="2505144">
    <nd ref="297327384"/>
    <nd ref="498390793"/>
    <nd ref="297327377"/>
    <nd ref="498390809"/>
    <nd ref="498390811"/>
    <nd ref="498390816"/>
    <nd ref="297327387"/>
    <nd ref="498390835"/>
    <nd ref="297327378"/>
    <nd ref="498390855"/>
    <nd ref="498390861"/>
    <nd ref="297327230"/>
    <nd ref="498390874"/>
    <nd ref="498390877"/>
    <nd ref="297327391"/>
    <nd ref="498390896"/>
    <nd ref="498390903"/>
    <nd ref="297327380"/>
    <nd ref="498390925"/>
    <nd ref="297327384"/>
    <tag k="highway" v="tertiary"/>
    <tag k="junction" v="roundabout"/>
    <tag k="name" v="Rondo Unii Europejskiej"/>
    <tag k="source" v="UMP-PL, ./UMP-Gdansk/src/RUMIA.ulice.txt"/>
  </way>
  <way id="27099440" version="5" timestamp="2012-01-05T15:04:37Z" uid="378154" user="rosomak" changeset="10301862">
    <nd ref="297327384"/>
    <nd ref="498390793"/>
    <nd ref="297327377"/>
    <nd ref="498390809"/>
    <nd ref="498390811"/>
    <nd ref="498390816"/>
    <nd ref="297327387"/>
    <nd ref="498390835"/>
    <nd ref="297327378"/>
    <nd ref="498390855"/>
    <nd ref="498390861"/>
    <nd ref="297327230"/>
    <nd ref="498390874"/>
    <nd ref="498390877"/>
    <nd ref="297327391"/>
    <nd ref="498390896"/>
    <nd ref="498390903"/>
    <nd ref="297327380"/>
    <nd ref="498390925"/>
    <nd ref="297327384"/>
    <tag k="highway" v="tertiary"/>
    <tag k="junction" v="roundabout"/>
    <tag k="name" v="Rondo Unii Europejskiej"/>
  </way>
  <way id="27099442" version="2" timestamp="2008-10-09T21:57:23Z" uid="30632" user="antblant" changeset="210278">
    <nd ref="297328389"/>
    <nd ref="297328337"/>
    <tag k="created_by" v="Potlatch 0.10d"/>
    <tag k="highway" v="unclassified"/>
    <tag k="name" v="Spółdzielcza"/>
    <tag k="source" v="UMP-PL, ./UMP-Gdansk/src/RUMIA.ulice.txt"/>
    <tag k="surface" v="unpaved"/>
  </way>
  <way id="27099442" version="3" timestamp="2010-05-02T20:56:12Z" uid="16188" user="Ahven" changeset="4590090">
    <nd ref="297328389"/>
    <nd ref="297328337"/>
    <tag k="highway" v="residential"/>
    <tag k="name" v="Spółdzielcza"/>
    <tag k="surface" v="unpaved"/>
  </way>
  <way id="27099442" version="4" timestamp="2012-01-19T08:27:28Z" uid="378154" user="rosomak" changeset="10434662">
    <nd ref="297328389"/>
    <nd ref="297328337"/>
    <tag k="highway" v="living_street"/>
    <tag k="name" v="Spółdzielcza"/>
    <tag k="surface" v="unpaved"/>
  </way>
  <way id="27099453" version="3" timestamp="2008-10-09T21:53:19Z" uid="30632" user="antblant" changeset="210278">
    <nd ref="297326740"/>
    <nd ref="297327663"/>
    <nd ref="297327666"/>
    <nd ref="297327658"/>
    <nd ref="297327771"/>
    <nd ref="297327772"/>
    <nd ref="297326907"/>
    <nd ref="297327769"/>
    <nd ref="297327770"/>
    <tag k="created_by" v="Potlatch 0.10d"/>
    <tag k="highway" v="residential"/>
    <tag k="name" v="Różana"/>
    <tag k="source" v="UMP-PL, ./UMP-Gdansk/src/RUMIA.ulice.txt"/>
  </way>
  <way id="27099453" version="4" timestamp="2009-10-21T19:10:34Z" uid="16188" user="Ahven" changeset="2915875">
    <nd ref="297326740"/>
    <nd ref="538028890"/>
    <nd ref="538028891"/>
    <nd ref="297327663"/>
    <nd ref="297327666"/>
    <nd ref="297327658"/>
    <nd ref="297327771"/>
    <tag k="highway" v="residential"/>
    <tag k="name" v="Różana"/>
    <tag k="source" v="UMP-PL, ./UMP-Gdansk/src/RUMIA.ulice.txt"/>
  </way>
  <way id="27099453" version="5" timestamp="2011-01-29T22:44:10Z" uid="16188" user="Ahven" changeset="7128328">
    <nd ref="297326740"/>
    <nd ref="538028890"/>
    <nd ref="538028891"/>
    <nd ref="297327663"/>
    <nd ref="297327666"/>
    <nd ref="297327658"/>
    <nd ref="297327771"/>
    <tag k="fixme" v="Outdated! This street has been rebuilt and needs updating"/>
    <tag k="highway" v="residential"/>
    <tag k="name" v="Różana"/>
    <tag k="source" v="UMP-PL, ./UMP-Gdansk/src/RUMIA.ulice.txt"/>
  </way>
  <way id="27099453" version="6" timestamp="2012-01-09T10:59:18Z" uid="378154" user="rosomak" changeset="10340614">
    <nd ref="297326740"/>
    <nd ref="538028890"/>
    <nd ref="538028891"/>
    <nd ref="297327663"/>
    <nd ref="297327666"/>
    <nd ref="297327658"/>
    <nd ref="297327771"/>
    <tag k="fixme" v="Outdated! This street has been rebuilt and needs updating"/>
    <tag k="highway" v="residential"/>
    <tag k="name" v="Różana"/>
  </way>
  <way id="27099461" version="3" timestamp="2008-10-09T21:54:03Z" uid="30632" user="antblant" changeset="210278">
    <nd ref="297327776"/>
    <nd ref="297326904"/>
    <nd ref="297327777"/>
    <nd ref="297327773"/>
    <nd ref="297327774"/>
    <nd ref="297326771"/>
    <tag k="created_by" v="Potlatch 0.10d"/>
    <tag k="highway" v="residential"/>
    <tag k="name" v="Lecha Bądkowskiego"/>
    <tag k="source" v="UMP-PL, ./UMP-Gdansk/src/RUMIA.ulice.txt"/>
  </way>
  <way id="27099461" version="4" timestamp="2009-10-21T19:10:34Z" uid="16188" user="Ahven" changeset="2915875">
    <nd ref="297327776"/>
    <nd ref="297326904"/>
    <nd ref="538028905"/>
    <nd ref="297327777"/>
    <nd ref="297327773"/>
    <nd ref="297327774"/>
    <nd ref="297326771"/>
    <tag k="highway" v="residential"/>
    <tag k="name" v="Lecha Bądkowskiego"/>
    <tag k="source" v="UMP-PL, ./UMP-Gdansk/src/RUMIA.ulice.txt"/>
  </way>
  <way id="27099461" version="5" timestamp="2012-01-09T10:59:18Z" uid="378154" user="rosomak" changeset="10340614">
    <nd ref="297327776"/>
    <nd ref="297326904"/>
    <nd ref="538028905"/>
    <nd ref="297327777"/>
    <nd ref="297327773"/>
    <nd ref="297327774"/>
    <nd ref="297326771"/>
    <tag k="highway" v="residential"/>
    <tag k="name" v="Lecha Bądkowskiego"/>
  </way>
  <way id="27099461" version="6" timestamp="2012-01-19T12:29:28Z" uid="378154" user="rosomak" changeset="10436745">
    <nd ref="297327776"/>
    <nd ref="297326904"/>
    <nd ref="538028905"/>
    <nd ref="297327777"/>
    <nd ref="297327773"/>
    <nd ref="297327774"/>
    <nd ref="297326771"/>
    <tag k="highway" v="living_street"/>
    <tag k="name" v="Lecha Bądkowskiego"/>
  </way>
  <way id="27099477" version="3" timestamp="2008-10-09T21:50:03Z" uid="30632" user="antblant" changeset="210278">
    <nd ref="297326758"/>
    <nd ref="297327634"/>
    <nd ref="297327635"/>
    <nd ref="297327636"/>
    <nd ref="297326985"/>
    <nd ref="297326995"/>
    <nd ref="297327629"/>
    <tag k="created_by" v="Potlatch 0.10d"/>
    <tag k="highway" v="tertiary"/>
    <tag k="name" v="Żwirki i Wigury"/>
    <tag k="source" v="UMP-PL, ./UMP-Gdansk/src/RUMIA.ulice.txt"/>
  </way>
  <way id="27099477" version="4" timestamp="2008-10-16T22:52:49Z" uid="53100" user="Jakub Klawiter" changeset="388840">
    <nd ref="297326758"/>
    <nd ref="297327634"/>
    <nd ref="297327635"/>
    <nd ref="297327636"/>
    <nd ref="297326985"/>
    <nd ref="297326995"/>
    <nd ref="297327629"/>
    <tag k="created_by" v="Potlatch 0.10d"/>
    <tag k="highway" v="tertiary"/>
    <tag k="name" v="Franciszka Żwirki i Stanisława Wigury"/>
    <tag k="source" v="UMP-PL, ./UMP-Gdansk/src/RUMIA.ulice.txt"/>
  </way>
  <way id="27099477" version="5" timestamp="2009-09-16T18:00:57Z" uid="16188" user="Ahven" changeset="2505144">
    <nd ref="297326758"/>
    <nd ref="297327634"/>
    <nd ref="297327635"/>
    <nd ref="297327636"/>
    <nd ref="297326985"/>
    <nd ref="297326995"/>
    <nd ref="297327629"/>
    <tag k="highway" v="tertiary"/>
    <tag k="name" v="Franciszka Żwirki i Stanisława Wigury"/>
    <tag k="source" v="UMP-PL, ./UMP-Gdansk/src/RUMIA.ulice.txt"/>
  </way>
  <way id="27099477" version="6" timestamp="2009-10-23T19:31:38Z" uid="16188" user="Ahven" changeset="2932734">
    <nd ref="297326758"/>
    <nd ref="297327634"/>
    <nd ref="539133620"/>
    <nd ref="297327635"/>
    <nd ref="297327636"/>
    <nd ref="297326985"/>
    <nd ref="297326995"/>
    <nd ref="297327629"/>
    <tag k="highway" v="tertiary"/>
    <tag k="name" v="Franciszka Żwirki i Stanisława Wigury"/>
    <tag k="source" v="UMP-PL, ./UMP-Gdansk/src/RUMIA.ulice.txt"/>
  </way>
  <way id="27099477" version="7" timestamp="2011-05-26T22:14:24Z" uid="460511" user="arturb" changeset="8257562">
    <nd ref="297326758"/>
    <nd ref="1301290473"/>
    <nd ref="297327634"/>
    <nd ref="539133620"/>
    <nd ref="297327635"/>
    <nd ref="297327636"/>
    <nd ref="297326985"/>
    <nd ref="297326995"/>
    <nd ref="1301290505"/>
    <nd ref="297327629"/>
    <tag k="highway" v="tertiary"/>
    <tag k="name" v="Franciszka Żwirki i Stanisława Wigury"/>
    <tag k="source" v="UMP-PL, ./UMP-Gdansk/src/RUMIA.ulice.txt"/>
  </way>
  <way id="27099477" version="8" timestamp="2011-12-24T22:28:22Z" uid="378154" user="rosomak" changeset="10196643">
    <nd ref="297326758"/>
    <nd ref="1301290473"/>
    <nd ref="297327634"/>
    <nd ref="539133620"/>
    <nd ref="297327635"/>
    <nd ref="297327636"/>
    <nd ref="297326985"/>
    <nd ref="297326995"/>
    <nd ref="1301290505"/>
    <nd ref="297327629"/>
    <tag k="highway" v="tertiary"/>
    <tag k="name" v="Franciszka Żwirki i Stanisława Wigury"/>
  </way>
  <way id="27099477" version="9" timestamp="2012-01-19T13:39:57Z" uid="378154" user="rosomak" changeset="10437342">
    <nd ref="297326758"/>
    <nd ref="1301290473"/>
    <nd ref="297327634"/>
    <nd ref="539133620"/>
    <nd ref="297327635"/>
    <nd ref="297327636"/>
    <nd ref="297326985"/>
    <nd ref="297326995"/>
    <nd ref="1301290505"/>
    <nd ref="297327629"/>
    <tag k="addr:city" v="Rumia"/>
    <tag k="addr:country" v="PL"/>
    <tag k="addr:housenumber" v="8"/>
    <tag k="addr:street" v="Franciszka Żwirki i Stanisława Wigury"/>
    <tag k="building" v="yes"/>
    <tag k="highway" v="tertiary"/>
    <tag k="name" v="Franciszka Żwirki i Stanisława Wigury"/>
  </way>
  <way id="27099485" version="2" timestamp="2008-10-09T21:52:12Z" uid="30632" user="antblant" changeset="210278">
    <nd ref="297326484"/>
    <nd ref="297326487"/>
    <nd ref="297326495"/>
    <nd ref="297326492"/>
    <nd ref="297326481"/>
    <nd ref="297326504"/>
    <nd ref="297326499"/>
    <nd ref="297326513"/>
    <nd ref="297326509"/>
    <nd ref="297326484"/>
    <tag k="created_by" v="Potlatch 0.10d"/>
    <tag k="highway" v="residential"/>
    <tag k="junction" v="roundabout"/>
    <tag k="source" v="UMP-PL, ./UMP-Gdansk/src/RUMIA.ulice.txt"/>
  </way>
  <way id="27099485" version="3" timestamp="2009-07-29T18:44:47Z" uid="59808" user="ortylp" changeset="1978489">
    <nd ref="297326484"/>
    <nd ref="297326487"/>
    <nd ref="297326495"/>
    <nd ref="297326492"/>
    <nd ref="297326481"/>
    <nd ref="297326504"/>
    <nd ref="297326499"/>
    <nd ref="297326513"/>
    <nd ref="297326509"/>
    <nd ref="297326484"/>
    <tag k="created_by" v="Potlatch 0.10d"/>
    <tag k="highway" v="residential"/>
    <tag k="junction" v="roundabout"/>
    <tag k="oneway" v="yes"/>
    <tag k="source" v="UMP-PL, ./UMP-Gdansk/src/RUMIA.ulice.txt"/>
  </way>
  <way id="27099485" version="4" timestamp="2010-09-11T13:17:58Z" uid="107566" user="Yabba" changeset="5749844">
    <nd ref="297326484"/>
    <nd ref="906809794"/>
    <nd ref="297326509"/>
    <nd ref="906809797"/>
    <nd ref="297326513"/>
    <nd ref="906809803"/>
    <nd ref="297326499"/>
    <nd ref="906809805"/>
    <nd ref="297326504"/>
    <nd ref="906809809"/>
    <nd ref="906809811"/>
    <nd ref="297326481"/>
    <nd ref="906809815"/>
    <nd ref="906809816"/>
    <nd ref="297326492"/>
    <nd ref="906809817"/>
    <nd ref="297326495"/>
    <nd ref="906809821"/>
    <nd ref="297326487"/>
    <nd ref="906809828"/>
    <nd ref="297326484"/>
    <tag k="highway" v="residential"/>
    <tag k="junction" v="roundabout"/>
    <tag k="oneway" v="yes"/>
    <tag k="source" v="UMP-PL, ./UMP-Gdansk/src/RUMIA.ulice.txt"/>
  </way>
  <way id="27099485" version="5" timestamp="2010-09-11T13:18:19Z" uid="107566" user="Yabba" changeset="5749844">
    <nd ref="297326484"/>
    <nd ref="906809828"/>
    <nd ref="297326487"/>
    <nd ref="906809821"/>
    <nd ref="297326495"/>
    <nd ref="906809817"/>
    <nd ref="297326492"/>
    <nd ref="906809816"/>
    <nd ref="906809815"/>
    <nd ref="297326481"/>
    <nd ref="906809811"/>
    <nd ref="906809809"/>
    <nd ref="297326504"/>
    <nd ref="906809805"/>
    <nd ref="297326499"/>
    <nd ref="906809803"/>
    <nd ref="297326513"/>
    <nd ref="906809797"/>
    <nd ref="297326509"/>
    <nd ref="906809794"/>
    <nd ref="297326484"/>
    <tag k="highway" v="residential"/>
    <tag k="junction" v="roundabout"/>
    <tag k="oneway" v="yes"/>
    <tag k="source" v="UMP-PL, ./UMP-Gdansk/src/RUMIA.ulice.txt"/>
  </way>
  <way id="27099485" version="6" timestamp="2012-01-16T11:34:49Z" uid="378154" user="rosomak" changeset="10407528">
    <nd ref="297326484"/>
    <nd ref="906809828"/>
    <nd ref="297326487"/>
    <nd ref="906809821"/>
    <nd ref="297326495"/>
    <nd ref="906809817"/>
    <nd ref="297326492"/>
    <nd ref="906809816"/>
    <nd ref="906809815"/>
    <nd ref="297326481"/>
    <nd ref="906809811"/>
    <nd ref="906809809"/>
    <nd ref="297326504"/>
    <nd ref="906809805"/>
    <nd ref="297326499"/>
    <nd ref="906809803"/>
    <nd ref="297326513"/>
    <nd ref="906809797"/>
    <nd ref="297326509"/>
    <nd ref="906809794"/>
    <nd ref="297326484"/>
    <tag k="highway" v="residential"/>
    <tag k="junction" v="roundabout"/>
    <tag k="oneway" v="yes"/>
  </way>
  <way id="27099490" version="2" timestamp="2008-10-09T21:54:56Z" uid="30632" user="antblant" changeset="210278">
    <nd ref="297328369"/>
    <nd ref="297328370"/>
    <nd ref="297328367"/>
    <nd ref="297328368"/>
    <nd ref="297328372"/>
    <nd ref="297328365"/>
    <nd ref="297328366"/>
    <nd ref="297328371"/>
    <nd ref="297327457"/>
    <tag k="created_by" v="Potlatch 0.10d"/>
    <tag k="highway" v="unclassified"/>
    <tag k="name" v="Władysława Jagiełły"/>
    <tag k="source" v="UMP-PL, ./UMP-Gdansk/src/RUMIA.ulice.txt"/>
    <tag k="surface" v="unpaved"/>
  </way>
  <way id="27099490" version="3" timestamp="2009-11-09T20:49:12Z" uid="16188" user="Ahven" changeset="3077552"/>
  <way id="27099492" version="3" timestamp="2008-10-09T21:59:01Z" uid="30632" user="antblant" changeset="210278">
    <nd ref="297327186"/>
    <nd ref="297327150"/>
    <tag k="created_by" v="Potlatch 0.10d"/>
    <tag k="highway" v="residential"/>
    <tag k="name" v="Szkutników"/>
    <tag k="source" v="UMP-PL, ./UMP-Gdansk/src/RUMIA.ulice.txt"/>
  </way>
  <way id="27099492" version="4" timestamp="2012-01-05T18:06:05Z" uid="378154" user="rosomak" changeset="10303666">
    <nd ref="297327186"/>
    <nd ref="297327150"/>
    <tag k="highway" v="living_street"/>
    <tag k="name" v="Szkutników"/>
  </way>
  <way id="27099494" version="3" timestamp="2008-10-09T21:49:14Z" uid="30632" user="antblant" changeset="210278">
    <nd ref="297326740"/>
    <nd ref="297327675"/>
    <nd ref="297326825"/>
    <tag k="created_by" v="Potlatch 0.10d"/>
    <tag k="highway" v="residential"/>
    <tag k="name" v="Saperów"/>
    <tag k="source" v="UMP-PL, ./UMP-Gdansk/src/RUMIA.ulice.txt"/>
  </way>
  <way id="27099494" version="4" timestamp="2011-01-29T22:10:35Z" uid="16188" user="Ahven" changeset="7128031">
    <nd ref="297326740"/>
    <nd ref="1126967891"/>
    <nd ref="1126967964"/>
    <nd ref="297327675"/>
    <nd ref="297326825"/>
    <tag k="highway" v="residential"/>
    <tag k="name" v="Saperów"/>
  </way>
  <way id="27099494" version="5" timestamp="2012-01-19T14:22:45Z" uid="378154" user="rosomak" changeset="10437740">
    <nd ref="297326740"/>
    <nd ref="1126967891"/>
    <nd ref="1126967964"/>
    <nd ref="297327675"/>
    <nd ref="297326825"/>
    <tag k="highway" v="living_street"/>
    <tag k="name" v="Saperów"/>
  </way>
  <way id="27099494" version="6" timestamp="2012-01-19T14:31:01Z" uid="378154" user="rosomak" changeset="10437837">
    <nd ref="297326740"/>
    <nd ref="1126967891"/>
    <nd ref="1126967964"/>
    <nd ref="297327675"/>
    <nd ref="297326825"/>
    <tag k="highway" v="residential"/>
    <tag k="name" v="Saperów"/>
  </way>
  <way id="27099502" version="3" timestamp="2008-10-09T21:56:58Z" uid="30632" user="antblant" changeset="210278">
    <nd ref="297327458"/>
    <nd ref="297327759"/>
    <nd ref="297327710"/>
    <nd ref="297327758"/>
    <nd ref="297327757"/>
    <nd ref="297327756"/>
    <nd ref="297327755"/>
    <nd ref="297327754"/>
    <nd ref="297327753"/>
    <nd ref="297327768"/>
    <nd ref="297327767"/>
    <nd ref="297327766"/>
    <nd ref="297327765"/>
    <nd ref="297327764"/>
    <nd ref="297327763"/>
    <tag k="created_by" v="Potlatch 0.10d"/>
    <tag k="highway" v="residential"/>
    <tag k="name" v="Kościelna"/>
    <tag k="source" v="UMP-PL, ./UMP-Gdansk/src/RUMIA.ulice.txt"/>
  </way>
  <way id="27099502" version="4" timestamp="2011-01-29T22:44:04Z" uid="16188" user="Ahven" changeset="7128328">
    <nd ref="297327458"/>
    <nd ref="297327759"/>
    <nd ref="297327710"/>
    <nd ref="297327758"/>
    <nd ref="297327757"/>
    <nd ref="297327756"/>
    <nd ref="297327755"/>
    <nd ref="297327754"/>
    <nd ref="297327753"/>
    <nd ref="297327768"/>
    <nd ref="297327767"/>
    <nd ref="297327766"/>
    <nd ref="297327765"/>
    <nd ref="297327764"/>
    <nd ref="297327763"/>
    <tag k="highway" v="residential"/>
    <tag k="name" v="Kościelna"/>
    <tag k="name:csb" v="Kòscelnô"/>
    <tag k="source" v="UMP-PL, ./UMP-Gdansk/src/RUMIA.ulice.txt"/>
  </way>
  <way id="27099502" version="5" timestamp="2011-07-27T20:53:13Z" uid="378154" user="rosomak" changeset="8849187">
    <nd ref="297327458"/>
    <nd ref="297327759"/>
    <nd ref="297327710"/>
    <nd ref="297327758"/>
    <nd ref="297327757"/>
    <nd ref="297327756"/>
    <nd ref="297327755"/>
    <nd ref="297327754"/>
    <nd ref="297327753"/>
    <nd ref="1376220428"/>
    <nd ref="297327768"/>
    <nd ref="297327767"/>
    <nd ref="297327766"/>
    <tag k="highway" v="residential"/>
    <tag k="name" v="Kościelna"/>
    <tag k="name:csb" v="Kòscelnô"/>
    <tag k="source" v="UMP-PL, ./UMP-Gdansk/src/RUMIA.ulice.txt"/>
  </way>
  <way id="27099502" version="6" timestamp="2012-01-07T21:07:30Z" uid="16188" user="Ahven" changeset="10325754">
    <nd ref="297327458"/>
    <nd ref="297327759"/>
    <nd ref="297327710"/>
    <nd ref="297327758"/>
    <nd ref="297327757"/>
    <nd ref="1581576789"/>
    <nd ref="1581576792"/>
    <nd ref="297327756"/>
    <nd ref="297327755"/>
    <nd ref="297327754"/>
    <nd ref="297327753"/>
    <nd ref="1376220428"/>
    <nd ref="297327768"/>
    <nd ref="297327767"/>
    <nd ref="297327766"/>
    <tag k="highway" v="residential"/>
    <tag k="name" v="Kościelna"/>
    <tag k="name:csb" v="Kòscelnô"/>
    <tag k="source" v="UMP-PL, ./UMP-Gdansk/src/RUMIA.ulice.txt"/>
  </way>
  <way id="27099502" version="7" timestamp="2012-01-09T10:59:08Z" uid="378154" user="rosomak" changeset="10340614">
    <nd ref="297327458"/>
    <nd ref="297327710"/>
    <nd ref="1581576789"/>
    <nd ref="1581576792"/>
    <nd ref="297327755"/>
    <nd ref="297327754"/>
    <nd ref="297327753"/>
    <nd ref="1376220428"/>
    <nd ref="297327767"/>
    <nd ref="297327766"/>
    <tag k="highway" v="residential"/>
    <tag k="name" v="Kościelna"/>
    <tag k="name:csb" v="Kòscelnô"/>
    <tag k="source" v="UMP-PL, ./UMP-Gdansk/src/RUMIA.ulice.txt"/>
  </way>
  <way id="27099502" version="8" timestamp="2012-01-09T14:51:51Z" uid="378154" user="rosomak" changeset="10342428">
    <nd ref="297327458"/>
    <nd ref="297327710"/>
    <nd ref="1581576789"/>
    <nd ref="1581576792"/>
    <nd ref="297327755"/>
    <nd ref="297327754"/>
    <nd ref="297327753"/>
    <nd ref="1376220428"/>
    <nd ref="297327767"/>
    <nd ref="297327766"/>
    <tag k="highway" v="residential"/>
    <tag k="name" v="Kościelna"/>
  </way>
  <way id="27099502" version="9" timestamp="2012-01-19T08:27:25Z" uid="378154" user="rosomak" changeset="10434662">
    <nd ref="297327458"/>
    <nd ref="297327710"/>
    <tag k="highway" v="residential"/>
    <tag k="name" v="plac Kaszubski"/>
  </way>
  <way id="27099504" version="3" timestamp="2008-10-09T21:58:53Z" uid="30632" user="antblant" changeset="210278">
    <nd ref="297327425"/>
    <nd ref="297327152"/>
    <tag k="created_by" v="Potlatch 0.10d"/>
    <tag k="highway" v="residential"/>
    <tag k="name" v="Żeglarzy"/>
    <tag k="source" v="UMP-PL, ./UMP-Gdansk/src/RUMIA.ulice.txt"/>
  </way>
  <way id="27099504" version="4" timestamp="2010-03-26T21:58:29Z" uid="16188" user="Ahven" changeset="4242360">
    <nd ref="297327425"/>
    <nd ref="297327152"/>
    <tag k="highway" v="residential"/>
  </way>
  <way id="27099504" version="5" timestamp="2011-11-19T20:00:22Z" uid="378154" user="rosomak" changeset="9876771">
    <nd ref="297327425"/>
    <nd ref="1508948248"/>
    <nd ref="297327152"/>
    <tag k="highway" v="residential"/>
  </way>
  <way id="27099507" version="2" timestamp="2008-10-09T21:52:12Z" uid="30632" user="antblant" changeset="210278">
    <nd ref="297326519"/>
    <nd ref="297326523"/>
    <nd ref="297326521"/>
    <nd ref="297326525"/>
    <nd ref="297326524"/>
    <nd ref="297326528"/>
    <nd ref="297326529"/>
    <nd ref="297326526"/>
    <nd ref="297326527"/>
    <nd ref="297326533"/>
    <nd ref="297326534"/>
    <nd ref="297326519"/>
    <tag k="created_by" v="Potlatch 0.10d"/>
    <tag k="highway" v="residential"/>
    <tag k="junction" v="roundabout"/>
    <tag k="source" v="UMP-PL, ./UMP-Gdansk/src/RUMIA.ulice.txt"/>
  </way>
  <way id="27099507" version="3" timestamp="2009-07-29T18:44:49Z" uid="59808" user="ortylp" changeset="1978489">
    <nd ref="297326519"/>
    <nd ref="297326523"/>
    <nd ref="297326521"/>
    <nd ref="297326525"/>
    <nd ref="297326524"/>
    <nd ref="297326528"/>
    <nd ref="297326529"/>
    <nd ref="297326526"/>
    <nd ref="297326527"/>
    <nd ref="297326533"/>
    <nd ref="297326534"/>
    <nd ref="297326519"/>
    <tag k="created_by" v="Potlatch 0.10d"/>
    <tag k="highway" v="residential"/>
    <tag k="junction" v="roundabout"/>
    <tag k="oneway" v="yes"/>
    <tag k="source" v="UMP-PL, ./UMP-Gdansk/src/RUMIA.ulice.txt"/>
  </way>
  <way id="27099507" version="4" timestamp="2010-09-11T13:18:14Z" uid="107566" user="Yabba" changeset="5749844">
    <nd ref="297326519"/>
    <nd ref="906810094"/>
    <nd ref="297326523"/>
    <nd ref="297326521"/>
    <nd ref="906810100"/>
    <nd ref="297326525"/>
    <nd ref="297326524"/>
    <nd ref="297326528"/>
    <nd ref="297326529"/>
    <nd ref="297326526"/>
    <nd ref="297326527"/>
    <nd ref="906810114"/>
    <nd ref="297326533"/>
    <nd ref="906810118"/>
    <nd ref="297326534"/>
    <nd ref="906810123"/>
    <nd ref="297326519"/>
    <tag k="highway" v="residential"/>
    <tag k="junction" v="roundabout"/>
    <tag k="oneway" v="yes"/>
    <tag k="source" v="UMP-PL, ./UMP-Gdansk/src/RUMIA.ulice.txt"/>
  </way>
  <way id="27099507" version="5" timestamp="2012-01-16T11:34:52Z" uid="378154" user="rosomak" changeset="10407528">
    <nd ref="297326519"/>
    <nd ref="906810094"/>
    <nd ref="297326523"/>
    <nd ref="297326521"/>
    <nd ref="906810100"/>
    <nd ref="297326525"/>
    <nd ref="297326524"/>
    <nd ref="297326528"/>
    <nd ref="297326529"/>
    <nd ref="297326526"/>
    <nd ref="297326527"/>
    <nd ref="906810114"/>
    <nd ref="297326533"/>
    <nd ref="906810118"/>
    <nd ref="297326534"/>
    <nd ref="906810123"/>
    <nd ref="297326519"/>
    <tag k="highway" v="residential"/>
    <tag k="junction" v="roundabout"/>
    <tag k="oneway" v="yes"/>
  </way>
  <way id="27099508" version="3" timestamp="2008-10-09T21:49:38Z" uid="30632" user="antblant" changeset="210278">
    <nd ref="297326723"/>
    <nd ref="297327779"/>
    <nd ref="297327760"/>
    <nd ref="297326744"/>
    <tag k="created_by" v="Potlatch 0.10d"/>
    <tag k="highway" v="residential"/>
    <tag k="name" v="Tysiąclecia"/>
    <tag k="source" v="UMP-PL, ./UMP-Gdansk/src/RUMIA.ulice.txt"/>
  </way>
  <way id="27099508" version="4" timestamp="2009-10-21T19:10:33Z" uid="16188" user="Ahven" changeset="2915875">
    <nd ref="297326725"/>
    <nd ref="538028828"/>
    <nd ref="297327760"/>
    <nd ref="297326744"/>
    <tag k="highway" v="residential"/>
    <tag k="name" v="Tysiąclecia"/>
    <tag k="source" v="UMP-PL, ./UMP-Gdansk/src/RUMIA.ulice.txt"/>
  </way>
  <way id="27099508" version="5" timestamp="2011-01-29T22:10:31Z" uid="16188" user="Ahven" changeset="7128031">
    <nd ref="297326725"/>
    <nd ref="538028828"/>
    <nd ref="1126967865"/>
    <nd ref="297327760"/>
    <nd ref="297326744"/>
    <tag k="highway" v="residential"/>
    <tag k="name" v="Tysiąclecia"/>
  </way>
  <way id="27099511" version="3" timestamp="2008-10-09T21:59:10Z" uid="30632" user="antblant" changeset="210278">
    <nd ref="297327144"/>
    <nd ref="297327155"/>
    <nd ref="297327152"/>
    <nd ref="297327151"/>
    <nd ref="297327149"/>
    <nd ref="297327150"/>
    <nd ref="297327059"/>
    <nd ref="297327132"/>
    <nd ref="297327131"/>
    <nd ref="297327130"/>
    <nd ref="297327129"/>
    <nd ref="297327128"/>
    <nd ref="297327127"/>
    <nd ref="297327126"/>
    <nd ref="297327125"/>
    <tag k="created_by" v="Potlatch 0.10d"/>
    <tag k="highway" v="residential"/>
    <tag k="name" v="Stoczniowców"/>
    <tag k="source" v="UMP-PL, ./UMP-Gdansk/src/RUMIA.ulice.txt"/>
  </way>
  <way id="27099511" version="4" timestamp="2008-11-19T14:22:43Z" uid="60306" user="Jaqb" changeset="769796">
    <nd ref="297327144"/>
    <nd ref="297327155"/>
    <nd ref="297327152"/>
    <nd ref="297327151"/>
    <nd ref="297327149"/>
    <nd ref="297327150"/>
    <nd ref="297327059"/>
    <nd ref="297327132"/>
    <nd ref="297327131"/>
    <nd ref="297327130"/>
    <nd ref="297327129"/>
    <nd ref="297327128"/>
    <nd ref="297327127"/>
    <nd ref="297327126"/>
    <nd ref="297327125"/>
    <tag k="created_by" v="Potlatch 0.10f"/>
    <tag k="highway" v="residential"/>
    <tag k="name" v="Stoczniowców"/>
    <tag k="source" v="UMP-PL, ./UMP-Gdansk/src/RUMIA.ulice.txt"/>
  </way>
  <way id="27099511" version="5" timestamp="2008-12-12T15:45:27Z" uid="60306" user="Jaqb" changeset="337967">
    <nd ref="297327144"/>
    <nd ref="297327155"/>
    <nd ref="297327152"/>
    <nd ref="297327151"/>
    <nd ref="297327149"/>
    <nd ref="297327150"/>
    <nd ref="297327059"/>
    <nd ref="297327132"/>
    <nd ref="297327131"/>
    <nd ref="297327130"/>
    <nd ref="297327129"/>
    <nd ref="297327128"/>
    <nd ref="297327127"/>
    <nd ref="297327126"/>
    <tag k="created_by" v="Potlatch 0.10f"/>
    <tag k="highway" v="residential"/>
    <tag k="name" v="Stoczniowców"/>
    <tag k="source" v="UMP-PL, ./UMP-Gdansk/src/RUMIA.ulice.txt"/>
  </way>
  <way id="27099511" version="6" timestamp="2008-12-12T15:46:07Z" uid="60306" user="Jaqb" changeset="337967">
    <nd ref="297327144"/>
    <nd ref="297327155"/>
    <nd ref="297327152"/>
    <nd ref="297327151"/>
    <nd ref="297327149"/>
    <nd ref="297327150"/>
    <nd ref="297327059"/>
    <nd ref="297327132"/>
    <nd ref="297327131"/>
    <nd ref="297327130"/>
    <tag k="created_by" v="Potlatch 0.10f"/>
    <tag k="highway" v="residential"/>
    <tag k="name" v="Stoczniowców"/>
    <tag k="source" v="UMP-PL, ./UMP-Gdansk/src/RUMIA.ulice.txt"/>
  </way>
  <way id="27099511" version="7" timestamp="2008-12-12T15:46:36Z" uid="60306" user="Jaqb" changeset="337967">
    <nd ref="297327144"/>
    <nd ref="297327155"/>
    <nd ref="297327152"/>
    <nd ref="297327151"/>
    <nd ref="297327149"/>
    <nd ref="297327150"/>
    <nd ref="297327059"/>
    <nd ref="297327132"/>
    <nd ref="318128516"/>
    <nd ref="297327131"/>
    <nd ref="297327130"/>
    <tag k="created_by" v="Potlatch 0.10f"/>
    <tag k="highway" v="residential"/>
    <tag k="name" v="Stoczniowców"/>
    <tag k="source" v="UMP-PL, ./UMP-Gdansk/src/RUMIA.ulice.txt"/>
  </way>
  <way id="27099511" version="8" timestamp="2008-12-12T15:46:42Z" uid="60306" user="Jaqb" changeset="337967">
    <nd ref="297327144"/>
    <nd ref="297327155"/>
    <nd ref="297327152"/>
    <nd ref="297327151"/>
    <nd ref="297327149"/>
    <nd ref="297327150"/>
    <nd ref="297327059"/>
    <nd ref="297327132"/>
    <nd ref="318128516"/>
    <tag k="created_by" v="Potlatch 0.10f"/>
    <tag k="highway" v="residential"/>
    <tag k="name" v="Stoczniowców"/>
    <tag k="source" v="UMP-PL, ./UMP-Gdansk/src/RUMIA.ulice.txt"/>
  </way>
  <way id="27099511" version="9" timestamp="2009-10-31T14:55:03Z" uid="16188" user="Ahven" changeset="2998073">
    <nd ref="297327144"/>
    <nd ref="297327155"/>
    <nd ref="297327152"/>
    <nd ref="297327151"/>
    <nd ref="297327149"/>
    <nd ref="297327150"/>
    <nd ref="297327059"/>
    <nd ref="297327132"/>
    <nd ref="548740921"/>
    <nd ref="318128516"/>
    <tag k="highway" v="residential"/>
    <tag k="name" v="Stoczniowców"/>
    <tag k="source" v="UMP-PL, ./UMP-Gdansk/src/RUMIA.ulice.txt"/>
  </way>
  <way id="27099511" version="10" timestamp="2009-11-10T20:52:54Z" uid="16188" user="Ahven" changeset="3085319">
    <nd ref="297327144"/>
    <nd ref="297327155"/>
    <nd ref="297327152"/>
    <nd ref="297327151"/>
    <nd ref="297327149"/>
    <nd ref="560555211"/>
    <nd ref="297327150"/>
    <nd ref="560555213"/>
    <nd ref="297327059"/>
    <nd ref="297327132"/>
    <nd ref="548740921"/>
    <nd ref="318128516"/>
    <tag k="highway" v="residential"/>
    <tag k="name" v="Stoczniowców"/>
    <tag k="source" v="UMP-PL, ./UMP-Gdansk/src/RUMIA.ulice.txt"/>
  </way>
  <way id="27099511" version="11" timestamp="2011-05-17T18:45:31Z" uid="16188" user="Ahven" changeset="8174555">
    <nd ref="297327144"/>
    <nd ref="297327155"/>
    <nd ref="297327152"/>
    <nd ref="297327151"/>
    <nd ref="1289303563"/>
    <nd ref="1289303629"/>
    <nd ref="297327149"/>
    <nd ref="1289303505"/>
    <nd ref="560555211"/>
    <nd ref="297327150"/>
    <nd ref="560555213"/>
    <nd ref="297327059"/>
    <nd ref="297327132"/>
    <nd ref="548740921"/>
    <nd ref="318128516"/>
    <tag k="highway" v="residential"/>
    <tag k="name" v="Stoczniowców"/>
    <tag k="source" v="UMP-PL, ./UMP-Gdansk/src/RUMIA.ulice.txt"/>
  </way>
  <way id="27099511" version="12" timestamp="2011-12-24T22:28:30Z" uid="378154" user="rosomak" changeset="10196643">
    <nd ref="297327144"/>
    <nd ref="297327155"/>
    <nd ref="297327152"/>
    <nd ref="297327151"/>
    <nd ref="1289303563"/>
    <nd ref="1289303629"/>
    <nd ref="297327149"/>
    <nd ref="1289303505"/>
    <nd ref="560555211"/>
    <nd ref="297327150"/>
    <nd ref="560555213"/>
    <nd ref="297327059"/>
    <nd ref="297327132"/>
    <nd ref="548740921"/>
    <nd ref="318128516"/>
    <tag k="highway" v="residential"/>
    <tag k="name" v="Stoczniowców"/>
  </way>
  <way id="27099522" version="3" timestamp="2008-10-09T21:59:23Z" uid="30632" user="antblant" changeset="210278">
    <nd ref="297327089"/>
    <nd ref="297327377"/>
    <tag k="created_by" v="Potlatch 0.10d"/>
    <tag k="highway" v="tertiary"/>
    <tag k="name" v="Dąbrowskiego"/>
    <tag k="source" v="UMP-PL, ./UMP-Gdansk/src/RUMIA.ulice.txt"/>
  </way>
  <way id="27099522" version="4" timestamp="2008-10-15T20:16:52Z" uid="53100" user="Jakub Klawiter" changeset="365918">
    <nd ref="297327089"/>
    <nd ref="297327377"/>
    <tag k="created_by" v="Potlatch 0.10d"/>
    <tag k="highway" v="tertiary"/>
    <tag k="name" v="Jana Henryka Dąbrowskiego"/>
    <tag k="source" v="UMP-PL, ./UMP-Gdansk/src/RUMIA.ulice.txt"/>
  </way>
  <way id="27099522" version="5" timestamp="2009-09-16T18:08:56Z" uid="16188" user="Ahven" changeset="2505144">
    <nd ref="297327089"/>
    <nd ref="498390990"/>
    <nd ref="297327377"/>
    <tag k="highway" v="tertiary"/>
    <tag k="name" v="Jana Henryka Dąbrowskiego"/>
    <tag k="source" v="UMP-PL, ./UMP-Gdansk/src/RUMIA.ulice.txt"/>
  </way>
  <way id="27099522" version="6" timestamp="2009-09-16T18:09:20Z" uid="16188" user="Ahven" changeset="2505144">
    <nd ref="297327089"/>
    <nd ref="498390990"/>
    <nd ref="297327377"/>
    <tag k="highway" v="tertiary"/>
    <tag k="name" v="Jana Henryka Dąbrowskiego"/>
    <tag k="oneway" v="yes"/>
    <tag k="source" v="UMP-PL, ./UMP-Gdansk/src/RUMIA.ulice.txt"/>
  </way>
  <way id="27099522" version="7" timestamp="2012-01-05T15:04:36Z" uid="378154" user="rosomak" changeset="10301862">
    <nd ref="297327089"/>
    <nd ref="498390990"/>
    <nd ref="297327377"/>
    <tag k="highway" v="tertiary"/>
    <tag k="name" v="Jana Henryka Dąbrowskiego"/>
    <tag k="oneway" v="yes"/>
  </way>
  <way id="27099522" version="8" timestamp="2012-01-09T09:41:21Z" uid="378154" user="rosomak" changeset="10340098">
    <nd ref="297327089"/>
    <nd ref="498390990"/>
    <nd ref="297327377"/>
    <tag k="highway" v="tertiary_link"/>
    <tag k="name" v="Jana Henryka Dąbrowskiego"/>
    <tag k="oneway" v="yes"/>
  </way>
  <way id="27099532" version="4" timestamp="2008-10-09T21:59:36Z" uid="30632" user="antblant" changeset="210278">
    <nd ref="297327068"/>
    <nd ref="297328381"/>
    <nd ref="298277928"/>
    <nd ref="297327378"/>
    <tag k="created_by" v="Potlatch 0.10d"/>
    <tag k="highway" v="tertiary"/>
    <tag k="name" v="Dąbrowskiego"/>
    <tag k="source" v="UMP-PL, ./UMP-Gdansk/src/RUMIA.ulice.txt"/>
  </way>
  <way id="27099532" version="5" timestamp="2008-10-15T20:16:56Z" uid="53100" user="Jakub Klawiter" changeset="365918">
    <nd ref="297327068"/>
    <nd ref="297328381"/>
    <nd ref="298277928"/>
    <nd ref="297327378"/>
    <tag k="created_by" v="Potlatch 0.10d"/>
    <tag k="highway" v="tertiary"/>
    <tag k="name" v="Jana Henryka Dąbrowskiego"/>
    <tag k="source" v="UMP-PL, ./UMP-Gdansk/src/RUMIA.ulice.txt"/>
  </way>
  <way id="27099532" version="6" timestamp="2008-11-22T23:50:08Z" uid="60306" user="Jaqb" changeset="785421">
    <nd ref="297327068"/>
    <nd ref="297328381"/>
    <nd ref="298277928"/>
    <nd ref="297327378"/>
    <tag k="created_by" v="Potlatch 0.10f"/>
    <tag k="highway" v="tertiary"/>
    <tag k="name" v="Jana Henryka Dąbrowskiego"/>
    <tag k="oneway" v="yes"/>
    <tag k="source" v="UMP-PL, ./UMP-Gdansk/src/RUMIA.ulice.txt"/>
  </way>
  <way id="27099532" version="7" timestamp="2009-03-08T19:32:03Z" uid="76623" user="DLX" changeset="762243">
    <nd ref="297327068"/>
    <nd ref="297328381"/>
    <nd ref="298277928"/>
    <nd ref="297327378"/>
    <tag k="created_by" v="Potlatch 0.10f"/>
    <tag k="highway" v="secondary"/>
    <tag k="name" v="Jana Henryka Dąbrowskiego"/>
    <tag k="oneway" v="yes"/>
    <tag k="source" v="UMP-PL, ./UMP-Gdansk/src/RUMIA.ulice.txt"/>
  </way>
  <way id="27099532" version="8" timestamp="2009-10-23T21:19:39Z" uid="16188" user="Ahven" changeset="2933498">
    <nd ref="297327068"/>
    <nd ref="297328381"/>
    <nd ref="298277928"/>
    <nd ref="297327378"/>
    <tag k="highway" v="tertiary"/>
    <tag k="name" v="Jana Henryka Dąbrowskiego"/>
    <tag k="oneway" v="yes"/>
    <tag k="source" v="UMP-PL, ./UMP-Gdansk/src/RUMIA.ulice.txt"/>
  </way>
  <way id="27099532" version="9" timestamp="2011-11-14T19:41:45Z" uid="378154" user="rosomak" changeset="9827974">
    <nd ref="297327068"/>
    <nd ref="298277928"/>
    <nd ref="297327378"/>
    <tag k="highway" v="tertiary"/>
    <tag k="name" v="Jana Henryka Dąbrowskiego"/>
    <tag k="oneway" v="yes"/>
    <tag k="source" v="UMP-PL, ./UMP-Gdansk/src/RUMIA.ulice.txt"/>
  </way>
  <way id="27099532" version="10" timestamp="2012-01-05T15:04:36Z" uid="378154" user="rosomak" changeset="10301862">
    <nd ref="297327068"/>
    <nd ref="298277928"/>
    <nd ref="297327378"/>
    <tag k="highway" v="tertiary"/>
    <tag k="name" v="Jana Henryka Dąbrowskiego"/>
    <tag k="oneway" v="yes"/>
  </way>
  <way id="27099540" version="2" timestamp="2008-10-09T21:50:42Z" uid="30632" user="antblant" changeset="210278">
    <nd ref="297326559"/>
    <nd ref="297326552"/>
    <nd ref="297326550"/>
    <nd ref="297326581"/>
    <nd ref="297326576"/>
    <nd ref="297326572"/>
    <nd ref="297326568"/>
    <nd ref="297326599"/>
    <nd ref="297326595"/>
    <nd ref="297326559"/>
    <tag k="created_by" v="Potlatch 0.10d"/>
    <tag k="highway" v="tertiary"/>
    <tag k="junction" v="roundabout"/>
    <tag k="source" v="UMP-PL, ./UMP-Gdansk/src/RUMIA.ulice.txt"/>
  </way>
  <way id="27099540" version="3" timestamp="2008-10-09T21:50:50Z" uid="30632" user="antblant" changeset="210278">
    <nd ref="297326559"/>
    <nd ref="297326552"/>
    <nd ref="297326550"/>
    <nd ref="297326581"/>
    <nd ref="297326576"/>
    <nd ref="297326572"/>
    <nd ref="297326568"/>
    <nd ref="297326599"/>
    <nd ref="297326595"/>
    <nd ref="297326559"/>
    <tag k="created_by" v="Potlatch 0.10d"/>
    <tag k="highway" v="residential"/>
    <tag k="junction" v="roundabout"/>
    <tag k="source" v="UMP-PL, ./UMP-Gdansk/src/RUMIA.ulice.txt"/>
  </way>
  <way id="27099540" version="4" timestamp="2010-09-11T13:23:18Z" uid="107566" user="Yabba" changeset="5749874">
    <nd ref="297326559"/>
    <nd ref="297326552"/>
    <nd ref="906815495"/>
    <nd ref="297326550"/>
    <nd ref="906815503"/>
    <nd ref="297326581"/>
    <nd ref="906815509"/>
    <nd ref="297326576"/>
    <nd ref="906815512"/>
    <nd ref="906815527"/>
    <nd ref="297326572"/>
    <nd ref="906815531"/>
    <nd ref="906815534"/>
    <nd ref="297326568"/>
    <nd ref="906815541"/>
    <nd ref="906815544"/>
    <nd ref="297326599"/>
    <nd ref="297326595"/>
    <nd ref="297326559"/>
    <tag k="highway" v="residential"/>
    <tag k="junction" v="roundabout"/>
    <tag k="oneway" v="yes"/>
    <tag k="source" v="UMP-PL, ./UMP-Gdansk/src/RUMIA.ulice.txt"/>
  </way>
  <way id="27099540" version="5" timestamp="2012-01-16T11:35:00Z" uid="378154" user="rosomak" changeset="10407528">
    <nd ref="297326559"/>
    <nd ref="297326552"/>
    <nd ref="906815495"/>
    <nd ref="297326550"/>
    <nd ref="906815503"/>
    <nd ref="297326581"/>
    <nd ref="906815509"/>
    <nd ref="297326576"/>
    <nd ref="906815512"/>
    <nd ref="906815527"/>
    <nd ref="297326572"/>
    <nd ref="906815531"/>
    <nd ref="906815534"/>
    <nd ref="297326568"/>
    <nd ref="906815541"/>
    <nd ref="906815544"/>
    <nd ref="297326599"/>
    <nd ref="297326595"/>
    <nd ref="297326559"/>
    <tag k="highway" v="residential"/>
    <tag k="junction" v="roundabout"/>
    <tag k="oneway" v="yes"/>
  </way>
  <way id="27099649" version="1" timestamp="2008-09-15T20:22:34Z" uid="6975" user="ulfl" changeset="641539">
    <nd ref="26897907"/>
    <nd ref="26897908"/>
    <nd ref="26910907"/>
    <nd ref="27152671"/>
    <tag k="created_by" v="JOSM"/>
    <tag k="highway" v="living_street"/>
    <tag k="name" v="Anne-Frank-Straße"/>
  </way>
  <way id="27099649" version="2" timestamp="2010-11-01T07:59:54Z" uid="202858" user="kellerma" changeset="6252155">
    <nd ref="26897907"/>
    <nd ref="26897908"/>
    <nd ref="26910907"/>
    <nd ref="27152671"/>
    <tag k="highway" v="living_street"/>
    <tag k="name" v="Anne-Frank-Straße"/>
  </way>
  <way id="27099649" version="3" timestamp="2011-12-11T01:53:13Z" uid="71557" user="Taroc" changeset="10086348"/>
  <way id="27099657" version="2" timestamp="2008-09-24T05:13:31Z" uid="6975" user="ulfl" changeset="687743">
    <nd ref="297330813"/>
    <nd ref="297330814"/>
    <nd ref="297330815"/>
    <nd ref="297330816"/>
    <nd ref="297330817"/>
    <nd ref="297330818"/>
    <nd ref="297330813"/>
    <tag k="amenity" v="restaurant"/>
    <tag k="ele" v="1747"/>
    <tag k="landuse" v="commercial"/>
    <tag k="name" v="Karalm"/>
  </way>
  <way id="27099657" version="3" timestamp="2009-10-06T16:23:49Z" uid="45347" user="eriosw" changeset="2762459">
    <nd ref="297330813"/>
    <nd ref="297330814"/>
    <nd ref="297330815"/>
    <nd ref="297330816"/>
    <nd ref="297330817"/>
    <nd ref="297330818"/>
    <nd ref="297330813"/>
    <tag k="amenity" v="restaurant"/>
    <tag k="building" v="yes"/>
    <tag k="ele" v="1747"/>
    <tag k="name" v="Karalm"/>
  </way>
  <way id="27099657" version="4" timestamp="2009-10-06T16:24:04Z" uid="45347" user="eriosw" changeset="2762459">
    <nd ref="297330813"/>
    <nd ref="297330814"/>
    <nd ref="297330815"/>
    <nd ref="297330816"/>
    <nd ref="297330817"/>
    <nd ref="297330818"/>
    <nd ref="297330813"/>
    <tag k="amenity" v="restaurant"/>
    <tag k="building" v="yes"/>
    <tag k="cousine" v="regional"/>
    <tag k="ele" v="1747"/>
    <tag k="name" v="Karalm"/>
  </way>
  <way id="27099657" version="5" timestamp="2009-10-07T11:32:08Z" uid="70696" user="xybot" changeset="2770333">
    <nd ref="297330813"/>
    <nd ref="297330814"/>
    <nd ref="297330815"/>
    <nd ref="297330816"/>
    <nd ref="297330817"/>
    <nd ref="297330818"/>
    <nd ref="297330813"/>
    <tag k="amenity" v="restaurant"/>
    <tag k="building" v="yes"/>
    <tag k="cuisine" v="regional"/>
    <tag k="ele" v="1747"/>
    <tag k="name" v="Karalm"/>
  </way>
  <way id="27099657" version="6" timestamp="2012-02-20T20:34:41Z" uid="606250" user="katzlmacher" changeset="10744683">
    <nd ref="297330813"/>
    <nd ref="297330814"/>
    <nd ref="297330815"/>
    <nd ref="297330816"/>
    <nd ref="297330817"/>
    <nd ref="297330818"/>
    <nd ref="297330813"/>
    <tag k="amenity" v="restaurant"/>
    <tag k="building" v="yes"/>
    <tag k="cuisine" v="regional"/>
    <tag k="ele" v="1747"/>
    <tag k="name" v="Karalm"/>
    <tag k="tourism" v="alpine_hut"/>
  </way>
  <way id="27099658" version="3" timestamp="2008-09-24T05:13:29Z" uid="6975" user="ulfl" changeset="687743">
    <nd ref="297330819"/>
    <nd ref="297330820"/>
    <nd ref="297330821"/>
    <nd ref="297330822"/>
    <nd ref="297330823"/>
    <nd ref="297330824"/>
    <nd ref="297330819"/>
    <tag k="amenity" v="restaurant"/>
    <tag k="ele" v="1747"/>
    <tag k="landuse" v="commercial"/>
    <tag k="name" v="Karalm"/>
  </way>
  <way id="27099658" version="4" timestamp="2009-10-06T16:24:17Z" uid="45347" user="eriosw" changeset="2762459">
    <nd ref="297330819"/>
    <nd ref="297330820"/>
    <nd ref="297330821"/>
    <nd ref="297330822"/>
    <nd ref="297330823"/>
    <nd ref="297330824"/>
    <nd ref="297330819"/>
    <tag k="amenity" v="restaurant"/>
    <tag k="building" v="yes"/>
    <tag k="ele" v="1747"/>
    <tag k="name" v="Karalm"/>
  </way>
  <way id="27099658" version="5" timestamp="2012-02-20T20:34:40Z" uid="606250" user="katzlmacher" changeset="10744683">
    <nd ref="297330819"/>
    <nd ref="297330820"/>
    <nd ref="297330821"/>
    <nd ref="297330822"/>
    <nd ref="297330823"/>
    <nd ref="297330824"/>
    <nd ref="297330819"/>
    <tag k="building" v="yes"/>
  </way>
  <way id="27099812" version="10" timestamp="2008-12-03T01:32:55Z" uid="6269" user="Mueck" changeset="77285">
    <nd ref="283822949"/>
    <nd ref="297333923"/>
    <nd ref="297334539"/>
    <nd ref="297333925"/>
    <nd ref="297333926"/>
    <nd ref="297333927"/>
    <nd ref="297335430"/>
    <nd ref="297334543"/>
    <nd ref="297333930"/>
    <nd ref="297334547"/>
    <nd ref="297334550"/>
    <nd ref="297333933"/>
    <nd ref="297333934"/>
    <nd ref="297334553"/>
    <nd ref="297333936"/>
    <nd ref="297334924"/>
    <nd ref="297334925"/>
    <nd ref="297334926"/>
    <nd ref="297334558"/>
    <nd ref="297334927"/>
    <nd ref="297334561"/>
    <nd ref="297336158"/>
    <nd ref="310682418"/>
    <nd ref="297334929"/>
    <nd ref="297334930"/>
    <nd ref="297335686"/>
    <nd ref="297334932"/>
    <nd ref="297334933"/>
    <nd ref="297334570"/>
    <nd ref="297335433"/>
    <nd ref="297334572"/>
    <nd ref="297334935"/>
    <nd ref="297334575"/>
    <nd ref="297334576"/>
    <nd ref="297334577"/>
    <nd ref="297334578"/>
    <nd ref="297334579"/>
    <nd ref="297335434"/>
    <nd ref="297335520"/>
    <nd ref="297335521"/>
    <nd ref="288299120"/>
    <tag k="admin_level" v="8"/>
    <tag k="boundary" v="administrative"/>
    <tag k="note" v="neuer level nach DE:Grenze Gemeinde"/>
  </way>
  <way id="27099812" version="11" timestamp="2009-06-23T05:19:55Z" uid="12143" user="slotty" changeset="1599032">
    <nd ref="283822949"/>
    <nd ref="297333923"/>
    <nd ref="297334539"/>
    <nd ref="297333925"/>
    <nd ref="297333926"/>
    <nd ref="297333927"/>
    <nd ref="297335430"/>
    <nd ref="297334543"/>
    <nd ref="297333930"/>
    <nd ref="297334547"/>
    <nd ref="297334550"/>
    <nd ref="297333933"/>
    <nd ref="297333934"/>
    <nd ref="297334553"/>
    <nd ref="297333936"/>
    <nd ref="297334924"/>
    <nd ref="297334925"/>
    <nd ref="297334926"/>
    <nd ref="297334558"/>
    <nd ref="297334927"/>
    <nd ref="297334561"/>
    <nd ref="297336158"/>
    <nd ref="310682418"/>
    <nd ref="297334929"/>
    <nd ref="297334930"/>
    <nd ref="297335686"/>
    <nd ref="297334932"/>
    <nd ref="297334933"/>
    <nd ref="297334570"/>
    <nd ref="297335433"/>
    <nd ref="297334572"/>
    <nd ref="297334935"/>
    <nd ref="297334575"/>
    <nd ref="297334576"/>
    <nd ref="297334577"/>
    <nd ref="297334578"/>
    <nd ref="297334579"/>
    <nd ref="297335434"/>
    <nd ref="297335520"/>
    <nd ref="297335521"/>
    <nd ref="288299120"/>
    <tag k="admin_level" v="8"/>
    <tag k="boundary" v="administrative"/>
    <tag k="name" v="Grenze Schönefeld/Mittenwalde"/>
    <tag k="note" v="neuer level nach DE:Grenze Gemeinde"/>
  </way>
  <way id="27099812" version="12" timestamp="2009-07-16T09:39:11Z" uid="115651" user="Konrad Aust" changeset="1843392">
    <nd ref="283822949"/>
    <nd ref="297333923"/>
    <nd ref="297334539"/>
    <nd ref="297333925"/>
    <nd ref="297333926"/>
    <nd ref="297333927"/>
    <nd ref="297335430"/>
    <nd ref="297334543"/>
    <nd ref="297333930"/>
    <nd ref="297334547"/>
    <nd ref="297334550"/>
    <nd ref="297333933"/>
    <nd ref="297333934"/>
    <nd ref="297334553"/>
    <nd ref="297333936"/>
    <nd ref="297334924"/>
    <nd ref="297334925"/>
    <nd ref="297334926"/>
    <nd ref="297334558"/>
    <nd ref="297334927"/>
    <nd ref="297334561"/>
    <nd ref="297336158"/>
    <nd ref="310682418"/>
    <nd ref="297334929"/>
    <nd ref="297334930"/>
    <nd ref="297335686"/>
    <nd ref="297334932"/>
    <nd ref="297334933"/>
    <nd ref="297334570"/>
    <nd ref="297335433"/>
    <nd ref="297334572"/>
    <nd ref="297334935"/>
    <nd ref="297334575"/>
    <nd ref="297334576"/>
    <nd ref="297334577"/>
    <nd ref="297334578"/>
    <nd ref="297334579"/>
    <nd ref="297335434"/>
    <nd ref="297335520"/>
    <nd ref="297335521"/>
    <nd ref="288299120"/>
    <tag k="admin_level" v="8"/>
    <tag k="boundary" v="administrative"/>
    <tag k="note" v="neuer level nach DE:Grenze Gemeinde"/>
  </way>
  <way id="27099823" version="2" timestamp="2008-09-16T22:25:51Z" uid="6975" user="ulfl" changeset="654624">
    <nd ref="297333304"/>
    <nd ref="297333305"/>
    <nd ref="297333306"/>
    <nd ref="297333307"/>
    <nd ref="297333308"/>
    <nd ref="297333309"/>
    <nd ref="297333310"/>
    <nd ref="297333311"/>
    <nd ref="297333304"/>
    <tag k="building" v="yes"/>
  </way>
  <way id="27099823" version="3" timestamp="2008-09-24T17:20:30Z" uid="67729" user="parshin" changeset="692918">
    <nd ref="297333304"/>
    <nd ref="297333305"/>
    <nd ref="297333306"/>
    <nd ref="297333307"/>
    <nd ref="297333308"/>
    <nd ref="297333309"/>
    <nd ref="297333310"/>
    <nd ref="297333311"/>
    <nd ref="297333304"/>
    <tag k="building" v="yes"/>
    <tag k="created_by" v="Potlatch 0.10b"/>
  </way>
  <way id="27099823" version="4" timestamp="2008-09-24T17:20:58Z" uid="67729" user="parshin" changeset="692918">
    <nd ref="297333304"/>
    <nd ref="297333305"/>
    <nd ref="297333306"/>
    <nd ref="297333307"/>
    <nd ref="297333308"/>
    <nd ref="297333309"/>
    <nd ref="297333310"/>
    <nd ref="297333311"/>
    <nd ref="297333304"/>
    <tag k="building" v="yes"/>
    <tag k="created_by" v="Potlatch 0.10b"/>
  </way>
  <way id="27099823" version="5" timestamp="2008-09-24T17:22:58Z" uid="67729" user="parshin" changeset="692918">
    <nd ref="297333304"/>
    <nd ref="297333305"/>
    <nd ref="297333306"/>
    <nd ref="297333307"/>
    <nd ref="297333308"/>
    <nd ref="297333309"/>
    <nd ref="297333310"/>
    <nd ref="297333311"/>
    <nd ref="297333304"/>
    <tag k="building" v="yes"/>
    <tag k="created_by" v="Potlatch 0.10b"/>
  </way>
  <way id="27099823" version="6" timestamp="2009-04-12T14:08:20Z" uid="94786" user="glebius" changeset="441321">
    <nd ref="297333304"/>
    <nd ref="297333305"/>
    <nd ref="297333306"/>
    <nd ref="297333307"/>
    <nd ref="297333308"/>
    <nd ref="297333309"/>
    <nd ref="297333310"/>
    <nd ref="297333311"/>
    <nd ref="297333304"/>
    <tag k="building" v="yes"/>
    <tag k="created_by" v="Potlatch 0.10b"/>
    <tag k="name" v="Физфак МГУ"/>
  </way>
  <way id="27099823" version="7" timestamp="2009-07-09T10:00:44Z" uid="94786" user="glebius" changeset="1779556">
    <nd ref="297333304"/>
    <nd ref="297333305"/>
    <nd ref="438004838"/>
    <nd ref="438004841"/>
    <nd ref="438004844"/>
    <nd ref="438004851"/>
    <nd ref="297333306"/>
    <nd ref="297333307"/>
    <nd ref="297333308"/>
    <nd ref="438004858"/>
    <nd ref="438004860"/>
    <nd ref="438004855"/>
    <nd ref="438004854"/>
    <nd ref="297333309"/>
    <nd ref="297333310"/>
    <nd ref="438004824"/>
    <nd ref="438004831"/>
    <nd ref="438004833"/>
    <nd ref="438004835"/>
    <nd ref="297333311"/>
    <nd ref="297333304"/>
    <tag k="building" v="yes"/>
    <tag k="created_by" v="Potlatch 0.10b"/>
    <tag k="name" v="Физфак МГУ"/>
  </way>
  <way id="27099823" version="8" timestamp="2009-12-30T10:48:57Z" uid="70742" user="Ezhick" changeset="3488634">
    <nd ref="297333304"/>
    <nd ref="297333305"/>
    <nd ref="438004838"/>
    <nd ref="438004841"/>
    <nd ref="438004844"/>
    <nd ref="438004851"/>
    <nd ref="297333306"/>
    <nd ref="297333307"/>
    <nd ref="297333308"/>
    <nd ref="438004858"/>
    <nd ref="438004860"/>
    <nd ref="438004855"/>
    <nd ref="438004854"/>
    <nd ref="297333309"/>
    <nd ref="297333310"/>
    <nd ref="438004824"/>
    <nd ref="438004831"/>
    <nd ref="438004833"/>
    <nd ref="438004835"/>
    <nd ref="297333311"/>
    <nd ref="297333304"/>
    <tag k="building" v="yes"/>
    <tag k="cladr:code" v="77000000000730500"/>
    <tag k="created_by" v="Potlatch 0.10b"/>
    <tag k="name" v="Физфак МГУ"/>
  </way>
  <way id="27099823" version="9" timestamp="2010-07-19T20:19:03Z" uid="232349" user="vovkav" changeset="5264753">
    <nd ref="297333304"/>
    <nd ref="297333305"/>
    <nd ref="438004838"/>
    <nd ref="438004841"/>
    <nd ref="438004844"/>
    <nd ref="438004851"/>
    <nd ref="297333306"/>
    <nd ref="297333307"/>
    <nd ref="297333308"/>
    <nd ref="438004858"/>
    <nd ref="438004860"/>
    <nd ref="438004855"/>
    <nd ref="438004854"/>
    <nd ref="297333309"/>
    <nd ref="825093761"/>
    <nd ref="297333310"/>
    <nd ref="438004824"/>
    <nd ref="438004831"/>
    <nd ref="825093774"/>
    <nd ref="438004833"/>
    <nd ref="438004835"/>
    <nd ref="297333311"/>
    <nd ref="297333304"/>
    <tag k="building" v="yes"/>
    <tag k="cladr:code" v="77000000000730500"/>
    <tag k="name" v="Физфак МГУ"/>
  </way>
  <way id="27099823" version="10" timestamp="2010-11-03T22:53:47Z" uid="329833" user="pankdm" changeset="6280272">
    <nd ref="297333304"/>
    <nd ref="297333305"/>
    <nd ref="438004838"/>
    <nd ref="438004841"/>
    <nd ref="438004844"/>
    <nd ref="438004851"/>
    <nd ref="297333306"/>
    <nd ref="297333307"/>
    <nd ref="297333308"/>
    <nd ref="438004858"/>
    <nd ref="438004860"/>
    <nd ref="438004855"/>
    <nd ref="438004854"/>
    <nd ref="297333309"/>
    <nd ref="825093761"/>
    <nd ref="297333310"/>
    <nd ref="438004824"/>
    <nd ref="438004831"/>
    <nd ref="825093774"/>
    <nd ref="438004833"/>
    <nd ref="438004835"/>
    <nd ref="297333311"/>
    <nd ref="297333304"/>
    <tag k="amenity" v="university"/>
    <tag k="building" v="yes"/>
    <tag k="cladr:code" v="77000000000730500"/>
    <tag k="name" v="Физфак МГУ"/>
  </way>
  <way id="27099823" version="11" timestamp="2011-05-17T09:59:49Z" uid="206282" user="Amigo" changeset="8169670">
    <nd ref="297333304"/>
    <nd ref="297333305"/>
    <nd ref="438004838"/>
    <nd ref="438004841"/>
    <nd ref="438004844"/>
    <nd ref="438004851"/>
    <nd ref="297333306"/>
    <nd ref="297333307"/>
    <nd ref="297333308"/>
    <nd ref="438004858"/>
    <nd ref="438004860"/>
    <nd ref="438004855"/>
    <nd ref="438004854"/>
    <nd ref="297333309"/>
    <nd ref="825093761"/>
    <nd ref="297333310"/>
    <nd ref="438004824"/>
    <nd ref="438004831"/>
    <nd ref="825093774"/>
    <nd ref="438004833"/>
    <nd ref="438004835"/>
    <nd ref="297333311"/>
    <nd ref="297333304"/>
    <tag k="addr:housenumber" v="1 с2"/>
    <tag k="addr:street" v="Ленинские горы"/>
    <tag k="alt_name" v="Физфак МГУ"/>
    <tag k="amenity" v="university"/>
    <tag k="building" v="yes"/>
    <tag k="cladr:code" v="77000000000730500"/>
    <tag k="name" v="Физический факультет МГУ"/>
    <tag k="official_name" v="Физический факультет МГУ им. М.В. Ломоносова"/>
    <tag k="website" v="http://www.phys.msu.ru/"/>
  </way>
  <way id="27099823" version="12" timestamp="2011-05-17T10:04:34Z" uid="206282" user="Amigo" changeset="8169670">
    <nd ref="297333304"/>
    <nd ref="297333305"/>
    <nd ref="438004838"/>
    <nd ref="438004841"/>
    <nd ref="438004844"/>
    <nd ref="438004851"/>
    <nd ref="297333306"/>
    <nd ref="297333307"/>
    <nd ref="297333308"/>
    <nd ref="438004858"/>
    <nd ref="438004860"/>
    <nd ref="438004855"/>
    <nd ref="438004854"/>
    <nd ref="297333309"/>
    <nd ref="825093761"/>
    <nd ref="297333310"/>
    <nd ref="438004824"/>
    <nd ref="438004831"/>
    <nd ref="825093774"/>
    <nd ref="438004833"/>
    <nd ref="438004835"/>
    <nd ref="297333311"/>
    <nd ref="297333304"/>
    <tag k="addr:housenumber" v="1 с2"/>
    <tag k="addr:street" v="Ленинские горы"/>
    <tag k="alt_name" v="Физфак МГУ"/>
    <tag k="building" v="university"/>
    <tag k="cladr:code" v="77000000000730500"/>
    <tag k="name" v="Корпус физического факультета"/>
    <tag k="official_name" v="Физический факультет МГУ им. М.В. Ломоносова"/>
    <tag k="website" v="http://www.phys.msu.ru/"/>
  </way>
  <way id="27099823" version="13" timestamp="2011-06-07T21:25:47Z" uid="133332" user="AMDmi3" changeset="8374216">
    <nd ref="297333304"/>
    <nd ref="297333305"/>
    <nd ref="438004838"/>
    <nd ref="438004841"/>
    <nd ref="438004844"/>
    <nd ref="438004851"/>
    <nd ref="297333306"/>
    <nd ref="297333307"/>
    <nd ref="297333308"/>
    <nd ref="438004858"/>
    <nd ref="438004860"/>
    <nd ref="438004855"/>
    <nd ref="438004854"/>
    <nd ref="297333309"/>
    <nd ref="825093761"/>
    <nd ref="297333310"/>
    <nd ref="438004824"/>
    <nd ref="438004831"/>
    <nd ref="825093774"/>
    <nd ref="438004833"/>
    <nd ref="438004835"/>
    <nd ref="297333311"/>
    <nd ref="297333304"/>
    <tag k="addr:housenumber" v="1 с2"/>
    <tag k="addr:street" v="Ленинские Горы"/>
    <tag k="alt_name" v="Физфак МГУ"/>
    <tag k="building" v="university"/>
    <tag k="cladr:code" v="77000000000730500"/>
    <tag k="name" v="Корпус физического факультета"/>
    <tag k="official_name" v="Физический факультет МГУ им. М.В. Ломоносова"/>
    <tag k="website" v="http://www.phys.msu.ru/"/>
  </way>
  <way id="27099823" version="14" timestamp="2011-11-25T19:55:39Z" uid="168188" user="s-s-s" changeset="9947988">
    <nd ref="297333304"/>
    <nd ref="297333305"/>
    <nd ref="438004838"/>
    <nd ref="438004841"/>
    <nd ref="438004844"/>
    <nd ref="438004851"/>
    <nd ref="297333306"/>
    <nd ref="297333307"/>
    <nd ref="297333308"/>
    <nd ref="438004858"/>
    <nd ref="438004860"/>
    <nd ref="438004855"/>
    <nd ref="438004854"/>
    <nd ref="297333309"/>
    <nd ref="825093761"/>
    <nd ref="297333310"/>
    <nd ref="438004824"/>
    <nd ref="438004831"/>
    <nd ref="825093774"/>
    <nd ref="438004833"/>
    <nd ref="438004835"/>
    <nd ref="297333311"/>
    <nd ref="297333304"/>
    <tag k="addr:housenumber" v="1 с2"/>
    <tag k="addr:street" v="Ленинские Горы"/>
    <tag k="alt_name" v="Физфак МГУ"/>
    <tag k="building" v="university"/>
    <tag k="building:levels" v="6"/>
    <tag k="cladr:code" v="77000000000730500"/>
    <tag k="name" v="Корпус физического факультета"/>
    <tag k="official_name" v="Физический факультет МГУ им. М.В. Ломоносова"/>
    <tag k="website" v="http://www.phys.msu.ru/"/>
  </way>
</osm>
