<?xml version='1.0' encoding='UTF-8'?>
<osm version="0.6" generator="libosmium/2.20.0">
  <way id="2722238" version="2" timestamp="2010-06-07T13:02:17Z" uid="4467" user="Rosscoe" changeset="4927896">
    <nd ref="12320847"/>
    <nd ref="766671425"/>
    <tag k="highway" v="primary"/>
    <tag k="name" v="The Sovereign Mile"/>
  </way>
  <way id="2722238" version="3" timestamp="2011-07-19T12:15:06Z" uid="349913" user="Peter W34" changeset="8767737">
    <nd ref="12320847"/>
    <nd ref="766671425"/>
    <tag k="highway" v="tertiary"/>
    <tag k="name" v="The Sovereign Mile"/>
  </way>
  <way id="2722247" version="4" timestamp="2010-06-01T02:36:13Z" uid="4467" user="Rosscoe" changeset="4871073">
    <nd ref="12320854"/>
    <nd ref="86203755"/>
    <tag k="created_by" v="Potlatch alpha"/>
    <tag k="highway" v="primary"/>
    <tag k="name" v="Donald Avenue"/>
  </way>
  <way id="2722247" version="5" timestamp="2010-06-07T13:02:02Z" uid="4467" user="Rosscoe" changeset="4927896">
    <nd ref="12320854"/>
    <nd ref="766671384"/>
    <nd ref="86203755"/>
    <tag k="highway" v="primary"/>
    <tag k="name" v="Donald Avenue"/>
    <tag k="source" v="nearmap"/>
  </way>
  <way id="2722247" version="6" timestamp="2011-07-19T12:15:06Z" uid="349913" user="Peter W34" changeset="8767737">
    <nd ref="12320854"/>
    <nd ref="766671384"/>
    <nd ref="86203755"/>
    <tag k="highway" v="residential"/>
    <tag k="name" v="Donald Avenue"/>
    <tag k="source" v="nearmap"/>
  </way>
  <way id="2722286" version="5" timestamp="2010-06-07T13:02:15Z" uid="4467" user="Rosscoe" changeset="4927896">
    <nd ref="12322813"/>
    <nd ref="86166633"/>
    <nd ref="12322754"/>
    <tag k="highway" v="residential"/>
    <tag k="name" v="Esplanade West"/>
    <tag k="source" v="nearmap"/>
  </way>
  <way id="2722286" version="6" timestamp="2010-07-06T11:59:07Z" uid="74617" user="JohnSmith" changeset="5147679">
    <nd ref="12322813"/>
    <nd ref="86166633"/>
    <nd ref="12322754"/>
    <tag k="highway" v="residential"/>
    <tag k="maxspeed" v="50"/>
    <tag k="maxspeed:source" v="default residential speed limit in Australia"/>
    <tag k="name" v="Esplanade West"/>
    <tag k="source" v="nearmap"/>
  </way>
  <way id="2722286" version="7" timestamp="2012-01-08T02:26:29Z" uid="147510" user="woodpeck_fixbot" changeset="10327743">
    <nd ref="12322813"/>
    <nd ref="86166633"/>
    <nd ref="12322754"/>
    <tag k="highway" v="residential"/>
    <tag k="name" v="Esplanade West"/>
    <tag k="source" v="nearmap"/>
  </way>
  <way id="2722294" version="3" timestamp="2010-06-01T02:36:14Z" uid="4467" user="Rosscoe" changeset="4871073">
    <nd ref="12322804"/>
    <nd ref="12322813"/>
    <tag k="highway" v="residential"/>
    <tag k="name" v="Killowill Avenue"/>
  </way>
  <way id="2722294" version="4" timestamp="2010-06-07T13:01:25Z" uid="4467" user="Rosscoe" changeset="4927896">
    <nd ref="12322804"/>
    <nd ref="766672640"/>
    <nd ref="12322813"/>
    <tag k="highway" v="residential"/>
    <tag k="name" v="Killowill Avenue"/>
    <tag k="source" v="nearmap"/>
  </way>
  <way id="2722294" version="5" timestamp="2010-07-06T11:58:59Z" uid="74617" user="JohnSmith" changeset="5147679">
    <nd ref="12322804"/>
    <nd ref="766672640"/>
    <nd ref="12322813"/>
    <tag k="highway" v="residential"/>
    <tag k="maxspeed" v="50"/>
    <tag k="maxspeed:source" v="default residential speed limit in Australia"/>
    <tag k="name" v="Killowill Avenue"/>
    <tag k="source" v="nearmap"/>
  </way>
  <way id="2722294" version="6" timestamp="2012-01-08T02:26:31Z" uid="147510" user="woodpeck_fixbot" changeset="10327743">
    <nd ref="12322804"/>
    <nd ref="766672640"/>
    <nd ref="12322813"/>
    <tag k="highway" v="residential"/>
    <tag k="name" v="Killowill Avenue"/>
    <tag k="source" v="nearmap"/>
  </way>
  <way id="2722313" version="16" timestamp="2010-05-28T13:47:21Z" uid="4467" user="Rosscoe" changeset="4831123">
    <nd ref="12324229"/>
    <nd ref="12324197"/>
    <nd ref="12324031"/>
    <nd ref="52600908"/>
    <nd ref="86200479"/>
    <nd ref="752883684"/>
    <tag k="highway" v="secondary"/>
    <tag k="name" v="The Esplanade"/>
  </way>
  <way id="2722313" version="17" timestamp="2011-07-19T12:14:45Z" uid="349913" user="Peter W34" changeset="8767737">
    <nd ref="12324229"/>
    <nd ref="12324197"/>
    <nd ref="1366575408"/>
    <nd ref="12324031"/>
    <nd ref="52600908"/>
    <nd ref="86200479"/>
    <nd ref="752883684"/>
    <tag k="highway" v="primary"/>
    <tag k="name" v="The Esplanade"/>
  </way>
  <way id="2722339" version="14" timestamp="2010-05-28T14:02:18Z" uid="4467" user="Rosscoe" changeset="4831284">
    <nd ref="12323920"/>
    <nd ref="12324242"/>
    <nd ref="12325524"/>
    <nd ref="86256893"/>
    <nd ref="86256891"/>
    <nd ref="752910734"/>
    <nd ref="12321029"/>
    <nd ref="752909930"/>
    <nd ref="12325505"/>
    <nd ref="12323908"/>
    <nd ref="752910481"/>
    <tag k="highway" v="primary"/>
    <tag k="name" v="Paradise Parade"/>
  </way>
  <way id="2722339" version="15" timestamp="2011-07-19T12:14:45Z" uid="349913" user="Peter W34" changeset="8767737">
    <nd ref="1366575580"/>
    <nd ref="12323920"/>
    <nd ref="12324242"/>
    <nd ref="12325524"/>
    <nd ref="86256893"/>
    <nd ref="86256891"/>
    <nd ref="752910734"/>
    <nd ref="12321029"/>
    <nd ref="752909930"/>
    <nd ref="12325505"/>
    <nd ref="12323908"/>
    <nd ref="752910481"/>
    <tag k="highway" v="secondary"/>
    <tag k="name" v="Paradise Parade"/>
    <tag k="source" v="Bing"/>
  </way>
  <way id="2722357" version="5" timestamp="2010-06-01T02:36:16Z" uid="4467" user="Rosscoe" changeset="4871073">
    <nd ref="86167704"/>
    <nd ref="86688791"/>
    <tag k="highway" v="residential"/>
    <tag k="name" v="Drake Avenue"/>
  </way>
  <way id="2722357" version="6" timestamp="2010-06-07T13:01:59Z" uid="4467" user="Rosscoe" changeset="4927896">
    <nd ref="86167704"/>
    <nd ref="86688791"/>
    <tag k="highway" v="residential"/>
    <tag k="name" v="Drake Avenue"/>
    <tag k="source" v="nearmap"/>
  </way>
  <way id="2722357" version="7" timestamp="2010-07-06T11:58:49Z" uid="74617" user="JohnSmith" changeset="5147679">
    <nd ref="86167704"/>
    <nd ref="86688791"/>
    <tag k="highway" v="residential"/>
    <tag k="maxspeed" v="50"/>
    <tag k="maxspeed:source" v="default residential speed limit in Australia"/>
    <tag k="name" v="Drake Avenue"/>
    <tag k="source" v="nearmap"/>
  </way>
  <way id="2722357" version="8" timestamp="2012-01-08T02:26:32Z" uid="147510" user="woodpeck_fixbot" changeset="10327743">
    <nd ref="86167704"/>
    <nd ref="86688791"/>
    <tag k="highway" v="residential"/>
    <tag k="name" v="Drake Avenue"/>
    <tag k="source" v="nearmap"/>
  </way>
  <way id="2722370" version="4" timestamp="2010-06-01T02:36:18Z" uid="4467" user="Rosscoe" changeset="4871073">
    <nd ref="12321004"/>
    <nd ref="12320909"/>
    <tag k="created_by" v="Potlatch alpha"/>
    <tag k="highway" v="residential"/>
    <tag k="name" v="Nankeen Avenue"/>
  </way>
  <way id="2722370" version="5" timestamp="2010-06-07T13:02:09Z" uid="4467" user="Rosscoe" changeset="4927896">
    <nd ref="12321004"/>
    <nd ref="12320909"/>
    <tag k="highway" v="residential"/>
    <tag k="name" v="Nankeen Avenue"/>
    <tag k="source" v="nearmap"/>
  </way>
  <way id="2722370" version="6" timestamp="2010-07-06T17:18:47Z" uid="74617" user="JohnSmith" changeset="5152225">
    <nd ref="12321004"/>
    <nd ref="12320909"/>
    <tag k="highway" v="residential"/>
    <tag k="maxspeed" v="50"/>
    <tag k="maxspeed:source" v="default residential speed limit in Australia"/>
    <tag k="name" v="Nankeen Avenue"/>
    <tag k="source" v="nearmap"/>
  </way>
  <way id="2722370" version="7" timestamp="2012-01-08T02:26:34Z" uid="147510" user="woodpeck_fixbot" changeset="10327743">
    <nd ref="12321004"/>
    <nd ref="12320909"/>
    <tag k="highway" v="residential"/>
    <tag k="name" v="Nankeen Avenue"/>
    <tag k="source" v="nearmap"/>
  </way>
  <way id="2722382" version="8" timestamp="2010-06-07T13:02:19Z" uid="4467" user="Rosscoe" changeset="4927896">
    <nd ref="12323250"/>
    <nd ref="766672339"/>
    <nd ref="303900209"/>
    <nd ref="12323243"/>
    <nd ref="766672659"/>
    <tag k="highway" v="residential"/>
    <tag k="name" v="Abalone Avenue"/>
  </way>
  <way id="2722382" version="9" timestamp="2010-07-06T17:13:02Z" uid="74617" user="JohnSmith" changeset="5152225">
    <nd ref="12323250"/>
    <nd ref="766672339"/>
    <nd ref="303900209"/>
    <nd ref="12323243"/>
    <nd ref="766672659"/>
    <tag k="highway" v="residential"/>
    <tag k="maxspeed" v="50"/>
    <tag k="maxspeed:source" v="default residential speed limit in Australia"/>
    <tag k="name" v="Abalone Avenue"/>
  </way>
  <way id="2722382" version="10" timestamp="2011-07-19T09:06:05Z" uid="349913" user="Peter W34" changeset="8765632">
    <nd ref="766672659"/>
    <nd ref="12323243"/>
    <nd ref="303900209"/>
    <nd ref="766672339"/>
    <nd ref="1366433126"/>
    <nd ref="1366433066"/>
    <nd ref="12323250"/>
    <tag k="highway" v="residential"/>
    <tag k="maxspeed" v="50"/>
    <tag k="maxspeed:source" v="default residential speed limit in Australia"/>
    <tag k="name" v="Abalone Avenue"/>
    <tag k="oneway" v="yes"/>
  </way>
  <way id="2722382" version="11" timestamp="2012-01-08T02:26:35Z" uid="147510" user="woodpeck_fixbot" changeset="10327743">
    <nd ref="766672659"/>
    <nd ref="12323243"/>
    <nd ref="303900209"/>
    <nd ref="766672339"/>
    <nd ref="1366433126"/>
    <nd ref="1366433066"/>
    <nd ref="12323250"/>
    <tag k="highway" v="residential"/>
    <tag k="name" v="Abalone Avenue"/>
    <tag k="oneway" v="yes"/>
  </way>
  <way id="2722407" version="5" timestamp="2010-06-01T02:53:06Z" uid="4467" user="Rosscoe" changeset="4871102">
    <nd ref="12323243"/>
    <nd ref="303900161"/>
    <nd ref="12323228"/>
    <nd ref="12323218"/>
    <nd ref="12323215"/>
    <tag k="created_by" v="Potlatch 0.10d"/>
    <tag k="highway" v="residential"/>
    <tag k="name" v="Lindsay Parade"/>
  </way>
  <way id="2722407" version="6" timestamp="2010-06-07T13:01:09Z" uid="4467" user="Rosscoe" changeset="4927896">
    <nd ref="12323243"/>
    <nd ref="303900161"/>
    <nd ref="12323228"/>
    <nd ref="766671100"/>
    <nd ref="12323218"/>
    <nd ref="766670832"/>
    <nd ref="12323215"/>
    <tag k="highway" v="residential"/>
    <tag k="name" v="Lindsay Parade"/>
    <tag k="source" v="nearmap"/>
  </way>
  <way id="2722407" version="7" timestamp="2010-07-06T11:58:49Z" uid="74617" user="JohnSmith" changeset="5147679">
    <nd ref="12323243"/>
    <nd ref="303900161"/>
    <nd ref="12323228"/>
    <nd ref="766671100"/>
    <nd ref="12323218"/>
    <nd ref="766670832"/>
    <nd ref="12323215"/>
    <tag k="highway" v="residential"/>
    <tag k="maxspeed" v="50"/>
    <tag k="maxspeed:source" v="default residential speed limit in Australia"/>
    <tag k="name" v="Lindsay Parade"/>
    <tag k="source" v="nearmap"/>
  </way>
  <way id="2722407" version="8" timestamp="2011-07-19T08:19:31Z" uid="349913" user="Peter W34" changeset="8765632">
    <nd ref="12323243"/>
    <nd ref="303900161"/>
    <nd ref="12323228"/>
    <nd ref="766671100"/>
    <nd ref="1366396532"/>
    <nd ref="12323218"/>
    <nd ref="1366396533"/>
    <nd ref="766670832"/>
    <nd ref="12323215"/>
    <tag k="highway" v="residential"/>
    <tag k="maxspeed" v="50"/>
    <tag k="maxspeed:source" v="default residential speed limit in Australia"/>
    <tag k="name" v="Lindsay Parade"/>
    <tag k="source" v="nearmap"/>
  </way>
  <way id="2722407" version="9" timestamp="2012-01-08T02:26:37Z" uid="147510" user="woodpeck_fixbot" changeset="10327743">
    <nd ref="12323243"/>
    <nd ref="303900161"/>
    <nd ref="12323228"/>
    <nd ref="766671100"/>
    <nd ref="1366396532"/>
    <nd ref="12323218"/>
    <nd ref="1366396533"/>
    <nd ref="766670832"/>
    <nd ref="12323215"/>
    <tag k="highway" v="residential"/>
    <tag k="name" v="Lindsay Parade"/>
    <tag k="source" v="nearmap"/>
  </way>
  <way id="2722412" version="3" timestamp="2010-06-01T02:36:20Z" uid="4467" user="Rosscoe" changeset="4871073">
    <nd ref="12323263"/>
    <nd ref="12323228"/>
    <tag k="highway" v="residential"/>
    <tag k="name" v="Dobell Avenue"/>
  </way>
  <way id="2722412" version="4" timestamp="2010-07-06T11:59:11Z" uid="74617" user="JohnSmith" changeset="5147679">
    <nd ref="12323263"/>
    <nd ref="12323228"/>
    <tag k="highway" v="residential"/>
    <tag k="maxspeed" v="50"/>
    <tag k="maxspeed:source" v="default residential speed limit in Australia"/>
    <tag k="name" v="Dobell Avenue"/>
  </way>
  <way id="2722412" version="5" timestamp="2012-01-08T02:26:38Z" uid="147510" user="woodpeck_fixbot" changeset="10327743">
    <nd ref="12323263"/>
    <nd ref="12323228"/>
    <tag k="highway" v="residential"/>
    <tag k="name" v="Dobell Avenue"/>
  </way>
  <way id="2722421" version="4" timestamp="2010-06-01T02:59:22Z" uid="4467" user="Rosscoe" changeset="4871181">
    <nd ref="12323273"/>
    <nd ref="12323263"/>
    <tag k="highway" v="residential"/>
    <tag k="name" v="Namatjira Street"/>
  </way>
  <way id="2722421" version="5" timestamp="2010-07-06T11:58:51Z" uid="74617" user="JohnSmith" changeset="5147679">
    <nd ref="12323273"/>
    <nd ref="12323263"/>
    <tag k="highway" v="residential"/>
    <tag k="maxspeed" v="50"/>
    <tag k="maxspeed:source" v="default residential speed limit in Australia"/>
    <tag k="name" v="Namatjira Street"/>
  </way>
  <way id="2722421" version="6" timestamp="2012-01-08T02:26:40Z" uid="147510" user="woodpeck_fixbot" changeset="10327743">
    <nd ref="12323273"/>
    <nd ref="12323263"/>
    <tag k="highway" v="residential"/>
    <tag k="name" v="Namatjira Street"/>
  </way>
  <way id="2722430" version="4" timestamp="2010-06-01T02:54:51Z" uid="4467" user="Rosscoe" changeset="4871118">
    <nd ref="12323255"/>
    <nd ref="12323250"/>
    <tag k="created_by" v="Potlatch 0.10d"/>
    <tag k="highway" v="residential"/>
    <tag k="name" v="Drysdale Place"/>
  </way>
  <way id="2722430" version="5" timestamp="2010-07-06T17:14:48Z" uid="74617" user="JohnSmith" changeset="5152225">
    <nd ref="12323255"/>
    <nd ref="12323250"/>
    <tag k="highway" v="residential"/>
    <tag k="maxspeed" v="50"/>
    <tag k="maxspeed:source" v="default residential speed limit in Australia"/>
    <tag k="name" v="Drysdale Place"/>
  </way>
  <way id="2722430" version="6" timestamp="2012-01-08T02:26:41Z" uid="147510" user="woodpeck_fixbot" changeset="10327743">
    <nd ref="12323255"/>
    <nd ref="12323250"/>
    <tag k="highway" v="residential"/>
    <tag k="name" v="Drysdale Place"/>
  </way>
  <way id="2722453" version="3" timestamp="2010-05-28T13:47:18Z" uid="4467" user="Rosscoe" changeset="4831123">
    <nd ref="12321029"/>
    <nd ref="86256901"/>
    <nd ref="752883675"/>
    <tag k="highway" v="primary"/>
    <tag k="name" v="Falkinder Avenue"/>
  </way>
  <way id="2722453" version="4" timestamp="2010-05-28T14:02:11Z" uid="4467" user="Rosscoe" changeset="4831284">
    <nd ref="12321029"/>
    <nd ref="86256901"/>
    <nd ref="752910406"/>
    <nd ref="752910507"/>
    <nd ref="752910104"/>
    <nd ref="752910038"/>
    <tag k="highway" v="primary"/>
    <tag k="name" v="Falkinder Avenue"/>
    <tag k="oneway" v="yes"/>
    <tag k="source" v="nearmap"/>
  </way>
  <way id="2722453" version="5" timestamp="2010-06-07T13:01:24Z" uid="4467" user="Rosscoe" changeset="4927896">
    <nd ref="12321029"/>
    <nd ref="766671822"/>
    <nd ref="86256901"/>
    <nd ref="752910406"/>
    <nd ref="752910507"/>
    <nd ref="752910104"/>
    <nd ref="752910038"/>
    <tag k="highway" v="primary"/>
    <tag k="name" v="Falkinder Avenue"/>
    <tag k="oneway" v="yes"/>
    <tag k="source" v="nearmap"/>
  </way>
  <way id="2722453" version="6" timestamp="2011-07-19T12:14:47Z" uid="349913" user="Peter W34" changeset="8767737">
    <nd ref="12321029"/>
    <nd ref="766671822"/>
    <nd ref="86256901"/>
    <nd ref="752910406"/>
    <nd ref="752910507"/>
    <nd ref="752910104"/>
    <nd ref="752910038"/>
    <tag k="highway" v="secondary"/>
    <tag k="name" v="Falkinder Avenue"/>
    <tag k="oneway" v="yes"/>
    <tag k="source" v="nearmap"/>
  </way>
  <way id="2722453" version="7" timestamp="2011-07-19T23:34:56Z" uid="349913" user="Peter W34" changeset="8773925">
    <nd ref="12321029"/>
    <nd ref="766671822"/>
    <nd ref="1367282483"/>
    <nd ref="86256901"/>
    <nd ref="752910406"/>
    <nd ref="752910507"/>
    <nd ref="752910104"/>
    <nd ref="752910038"/>
    <tag k="highway" v="secondary"/>
    <tag k="name" v="Falkinder Avenue"/>
    <tag k="oneway" v="yes"/>
    <tag k="source" v="nearmap"/>
  </way>
  <way id="2722480" version="7" timestamp="2010-05-28T08:38:17Z" uid="4467" user="Rosscoe" changeset="4828599">
    <nd ref="86256893"/>
    <nd ref="12324249"/>
    <nd ref="86256899"/>
    <nd ref="86200479"/>
    <nd ref="12324279"/>
    <tag k="highway" v="residential"/>
    <tag k="name" v="Milton Avenue"/>
  </way>
  <way id="2722480" version="8" timestamp="2010-05-28T14:02:04Z" uid="4467" user="Rosscoe" changeset="4831284">
    <nd ref="86256893"/>
    <nd ref="12324249"/>
    <nd ref="86256899"/>
    <nd ref="86200479"/>
    <nd ref="12324279"/>
    <tag k="highway" v="residential"/>
    <tag k="name" v="Milton Avenue"/>
    <tag k="source" v="nearmap"/>
  </way>
  <way id="2722480" version="9" timestamp="2010-07-06T17:14:26Z" uid="74617" user="JohnSmith" changeset="5152225">
    <nd ref="86256893"/>
    <nd ref="12324249"/>
    <nd ref="86256899"/>
    <nd ref="86200479"/>
    <nd ref="12324279"/>
    <tag k="highway" v="residential"/>
    <tag k="maxspeed" v="50"/>
    <tag k="maxspeed:source" v="default residential speed limit in Australia"/>
    <tag k="name" v="Milton Avenue"/>
    <tag k="source" v="nearmap"/>
  </way>
  <way id="2722480" version="10" timestamp="2012-01-08T02:26:42Z" uid="147510" user="woodpeck_fixbot" changeset="10327743">
    <nd ref="86256893"/>
    <nd ref="12324249"/>
    <nd ref="86256899"/>
    <nd ref="86200479"/>
    <nd ref="12324279"/>
    <tag k="highway" v="residential"/>
    <tag k="name" v="Milton Avenue"/>
    <tag k="source" v="nearmap"/>
  </way>
  <way id="2722489" version="6" timestamp="2010-05-28T08:38:14Z" uid="4467" user="Rosscoe" changeset="4828599">
    <nd ref="86198523"/>
    <nd ref="52600908"/>
    <nd ref="86256896"/>
    <nd ref="12324242"/>
    <tag k="highway" v="residential"/>
    <tag k="name" v="Errol Avenue"/>
  </way>
  <way id="2722489" version="7" timestamp="2010-07-06T17:16:14Z" uid="74617" user="JohnSmith" changeset="5152225">
    <nd ref="86198523"/>
    <nd ref="52600908"/>
    <nd ref="86256896"/>
    <nd ref="12324242"/>
    <tag k="highway" v="residential"/>
    <tag k="maxspeed" v="50"/>
    <tag k="maxspeed:source" v="default residential speed limit in Australia"/>
    <tag k="name" v="Errol Avenue"/>
  </way>
  <way id="2722489" version="8" timestamp="2012-01-08T02:26:44Z" uid="147510" user="woodpeck_fixbot" changeset="10327743">
    <nd ref="86198523"/>
    <nd ref="52600908"/>
    <nd ref="86256896"/>
    <nd ref="12324242"/>
    <tag k="highway" v="residential"/>
    <tag k="name" v="Errol Avenue"/>
  </way>
  <way id="2722507" version="5" timestamp="2010-05-28T08:38:15Z" uid="4467" user="Rosscoe" changeset="4828599">
    <nd ref="12324197"/>
    <nd ref="12324195"/>
    <nd ref="86198527"/>
    <nd ref="303900599"/>
    <nd ref="12323920"/>
    <nd ref="12323926"/>
    <tag k="highway" v="primary"/>
    <tag k="name" v="Matthew Flinders Drive"/>
  </way>
  <way id="2722507" version="6" timestamp="2011-07-19T12:14:48Z" uid="349913" user="Peter W34" changeset="8767737">
    <nd ref="12324197"/>
    <nd ref="1366575461"/>
    <nd ref="1366575792"/>
    <nd ref="12324195"/>
    <nd ref="1366575423"/>
    <nd ref="86198527"/>
    <nd ref="303900599"/>
    <nd ref="1366575528"/>
    <nd ref="1366575635"/>
    <nd ref="1366575610"/>
    <nd ref="1366575637"/>
    <tag k="highway" v="secondary"/>
    <tag k="name" v="Matthew Flinders Drive"/>
    <tag k="oneway" v="yes"/>
  </way>
  <way id="2722538" version="5" timestamp="2010-06-01T02:41:20Z" uid="4467" user="Rosscoe" changeset="4871080">
    <nd ref="86202521"/>
    <nd ref="12323309"/>
    <tag k="created_by" v="Potlatch alpha"/>
    <tag k="highway" v="residential"/>
    <tag k="name" v="Wills Court"/>
  </way>
  <way id="2722538" version="6" timestamp="2010-07-06T11:58:53Z" uid="74617" user="JohnSmith" changeset="5147679">
    <nd ref="86202521"/>
    <nd ref="12323309"/>
    <tag k="highway" v="residential"/>
    <tag k="maxspeed" v="50"/>
    <tag k="maxspeed:source" v="default residential speed limit in Australia"/>
    <tag k="name" v="Wills Court"/>
  </way>
  <way id="2722538" version="7" timestamp="2011-07-19T07:38:10Z" uid="349913" user="Peter W34" changeset="8765632">
    <nd ref="86202521"/>
    <nd ref="1366380715"/>
    <nd ref="1366380712"/>
    <nd ref="12323309"/>
    <tag k="highway" v="residential"/>
    <tag k="maxspeed" v="50"/>
    <tag k="maxspeed:source" v="default residential speed limit in Australia"/>
    <tag k="name" v="Wills Court"/>
  </way>
  <way id="2722538" version="8" timestamp="2012-01-08T02:26:46Z" uid="147510" user="woodpeck_fixbot" changeset="10327743">
    <nd ref="86202521"/>
    <nd ref="1366380715"/>
    <nd ref="1366380712"/>
    <nd ref="12323309"/>
    <tag k="highway" v="residential"/>
    <tag k="name" v="Wills Court"/>
  </way>
  <way id="2722548" version="6" timestamp="2010-07-06T11:59:00Z" uid="74617" user="JohnSmith" changeset="5147679">
    <nd ref="12323293"/>
    <nd ref="86202525"/>
    <nd ref="12323297"/>
    <nd ref="86202521"/>
    <nd ref="12323302"/>
    <tag k="highway" v="residential"/>
    <tag k="maxspeed" v="50"/>
    <tag k="maxspeed:source" v="default residential speed limit in Australia"/>
    <tag k="name" v="Hume Parade"/>
  </way>
  <way id="2722548" version="7" timestamp="2011-07-19T07:38:14Z" uid="349913" user="Peter W34" changeset="8765632">
    <nd ref="12323293"/>
    <nd ref="86202525"/>
    <nd ref="1366380704"/>
    <nd ref="12323297"/>
    <nd ref="1366380707"/>
    <nd ref="86202521"/>
    <nd ref="12323302"/>
    <tag k="highway" v="residential"/>
    <tag k="maxspeed" v="50"/>
    <tag k="maxspeed:source" v="default residential speed limit in Australia"/>
    <tag k="name" v="Hume Parade"/>
  </way>
  <way id="2722548" version="8" timestamp="2012-01-08T02:26:47Z" uid="147510" user="woodpeck_fixbot" changeset="10327743">
    <nd ref="12323293"/>
    <nd ref="86202525"/>
    <nd ref="1366380704"/>
    <nd ref="12323297"/>
    <nd ref="1366380707"/>
    <nd ref="86202521"/>
    <nd ref="12323302"/>
    <tag k="highway" v="residential"/>
    <tag k="name" v="Hume Parade"/>
  </way>
  <way id="2722558" version="4" timestamp="2010-06-01T02:54:53Z" uid="4467" user="Rosscoe" changeset="4871118">
    <nd ref="12323367"/>
    <nd ref="12323355"/>
    <nd ref="12323348"/>
    <tag k="created_by" v="Potlatch alpha"/>
    <tag k="highway" v="residential"/>
    <tag k="name" v="Bass Place"/>
  </way>
  <way id="2722558" version="5" timestamp="2010-07-06T17:16:58Z" uid="74617" user="JohnSmith" changeset="5152225">
    <nd ref="12323367"/>
    <nd ref="12323355"/>
    <nd ref="12323348"/>
    <tag k="highway" v="residential"/>
    <tag k="maxspeed" v="50"/>
    <tag k="maxspeed:source" v="default residential speed limit in Australia"/>
    <tag k="name" v="Bass Place"/>
  </way>
  <way id="2722558" version="6" timestamp="2011-07-19T07:38:07Z" uid="349913" user="Peter W34" changeset="8765632">
    <nd ref="12323367"/>
    <nd ref="12323355"/>
    <nd ref="1366380751"/>
    <nd ref="1366380740"/>
    <nd ref="12323348"/>
    <tag k="highway" v="residential"/>
    <tag k="maxspeed" v="50"/>
    <tag k="maxspeed:source" v="default residential speed limit in Australia"/>
    <tag k="name" v="Bass Place"/>
  </way>
  <way id="2722558" version="7" timestamp="2012-01-08T02:26:48Z" uid="147510" user="woodpeck_fixbot" changeset="10327743">
    <nd ref="12323367"/>
    <nd ref="12323355"/>
    <nd ref="1366380751"/>
    <nd ref="1366380740"/>
    <nd ref="12323348"/>
    <tag k="highway" v="residential"/>
    <tag k="name" v="Bass Place"/>
  </way>
  <way id="2722574" version="10" timestamp="2010-06-01T02:47:43Z" uid="4467" user="Rosscoe" changeset="4871091">
    <nd ref="86202525"/>
    <nd ref="303900232"/>
    <nd ref="12323367"/>
    <nd ref="12323370"/>
    <nd ref="303900215"/>
    <nd ref="303900213"/>
    <nd ref="303900214"/>
    <nd ref="12323385"/>
    <tag k="created_by" v="Potlatch 0.10d"/>
    <tag k="highway" v="residential"/>
    <tag k="name" v="Ogrady Drive"/>
  </way>
  <way id="2722574" version="11" timestamp="2010-07-06T11:58:51Z" uid="74617" user="JohnSmith" changeset="5147679">
    <nd ref="86202525"/>
    <nd ref="303900232"/>
    <nd ref="12323367"/>
    <nd ref="12323370"/>
    <nd ref="303900215"/>
    <nd ref="303900213"/>
    <nd ref="303900214"/>
    <nd ref="12323385"/>
    <tag k="highway" v="residential"/>
    <tag k="maxspeed" v="50"/>
    <tag k="maxspeed:source" v="default residential speed limit in Australia"/>
    <tag k="name" v="Ogrady Drive"/>
  </way>
  <way id="2722574" version="12" timestamp="2011-07-19T07:38:07Z" uid="349913" user="Peter W34" changeset="8765632">
    <nd ref="86202525"/>
    <nd ref="303900232"/>
    <nd ref="12323367"/>
    <nd ref="1366380739"/>
    <nd ref="12323370"/>
    <nd ref="303900215"/>
    <nd ref="303900213"/>
    <nd ref="303900214"/>
    <nd ref="12323385"/>
    <tag k="highway" v="residential"/>
    <tag k="maxspeed" v="50"/>
    <tag k="maxspeed:source" v="default residential speed limit in Australia"/>
    <tag k="name" v="Ogrady Drive"/>
  </way>
  <way id="2722574" version="13" timestamp="2012-01-08T02:26:49Z" uid="147510" user="woodpeck_fixbot" changeset="10327743">
    <nd ref="86202525"/>
    <nd ref="303900232"/>
    <nd ref="12323367"/>
    <nd ref="1366380739"/>
    <nd ref="12323370"/>
    <nd ref="303900215"/>
    <nd ref="303900213"/>
    <nd ref="303900214"/>
    <nd ref="12323385"/>
    <tag k="highway" v="residential"/>
    <tag k="name" v="Ogrady Drive"/>
  </way>
  <way id="2722585" version="6" timestamp="2010-06-01T02:54:54Z" uid="4467" user="Rosscoe" changeset="4871118">
    <nd ref="12323187"/>
    <nd ref="12323655"/>
    <nd ref="303900215"/>
    <tag k="created_by" v="Potlatch 0.10d"/>
    <tag k="highway" v="residential"/>
    <tag k="name" v="Paterson Place"/>
  </way>
  <way id="2722585" version="7" timestamp="2010-07-06T17:13:47Z" uid="74617" user="JohnSmith" changeset="5152225">
    <nd ref="12323187"/>
    <nd ref="12323655"/>
    <nd ref="303900215"/>
    <tag k="highway" v="residential"/>
    <tag k="maxspeed" v="50"/>
    <tag k="maxspeed:source" v="default residential speed limit in Australia"/>
    <tag k="name" v="Paterson Place"/>
  </way>
  <way id="2722585" version="8" timestamp="2011-07-19T07:38:08Z" uid="349913" user="Peter W34" changeset="8765632">
    <nd ref="12323187"/>
    <nd ref="1366380720"/>
    <nd ref="12323655"/>
    <nd ref="1366380755"/>
    <nd ref="303900215"/>
    <tag k="highway" v="residential"/>
    <tag k="maxspeed" v="50"/>
    <tag k="maxspeed:source" v="default residential speed limit in Australia"/>
    <tag k="name" v="Paterson Place"/>
  </way>
  <way id="2722585" version="9" timestamp="2012-01-08T02:26:51Z" uid="147510" user="woodpeck_fixbot" changeset="10327743">
    <nd ref="12323187"/>
    <nd ref="1366380720"/>
    <nd ref="12323655"/>
    <nd ref="1366380755"/>
    <nd ref="303900215"/>
    <tag k="highway" v="residential"/>
    <tag k="name" v="Paterson Place"/>
  </way>
  <way id="2722711" version="5" timestamp="2010-06-01T02:59:24Z" uid="4467" user="Rosscoe" changeset="4871181">
    <nd ref="12323952"/>
    <nd ref="12323945"/>
    <nd ref="12323941"/>
    <nd ref="86200075"/>
    <tag k="created_by" v="Potlatch alpha"/>
    <tag k="highway" v="residential"/>
    <tag k="name" v="Seaspray Street"/>
  </way>
  <way id="2722711" version="6" timestamp="2010-07-06T17:14:50Z" uid="74617" user="JohnSmith" changeset="5152225">
    <nd ref="12323952"/>
    <nd ref="12323945"/>
    <nd ref="12323941"/>
    <nd ref="86200075"/>
    <tag k="highway" v="residential"/>
    <tag k="maxspeed" v="50"/>
    <tag k="maxspeed:source" v="default residential speed limit in Australia"/>
    <tag k="name" v="Seaspray Street"/>
  </way>
  <way id="2722711" version="7" timestamp="2011-07-19T09:06:08Z" uid="349913" user="Peter W34" changeset="8765632">
    <nd ref="12323952"/>
    <nd ref="12323945"/>
    <nd ref="1366433062"/>
    <nd ref="1366433092"/>
    <nd ref="1366433114"/>
    <nd ref="1366433099"/>
    <nd ref="12323941"/>
    <nd ref="1366433084"/>
    <nd ref="86200075"/>
    <tag k="highway" v="residential"/>
    <tag k="maxspeed" v="50"/>
    <tag k="maxspeed:source" v="default residential speed limit in Australia"/>
    <tag k="name" v="Seaspray Street"/>
    <tag k="source" v="Bing"/>
  </way>
  <way id="2722711" version="8" timestamp="2012-01-08T02:26:52Z" uid="147510" user="woodpeck_fixbot" changeset="10327743">
    <nd ref="12323952"/>
    <nd ref="12323945"/>
    <nd ref="1366433062"/>
    <nd ref="1366433092"/>
    <nd ref="1366433114"/>
    <nd ref="1366433099"/>
    <nd ref="12323941"/>
    <nd ref="1366433084"/>
    <nd ref="86200075"/>
    <tag k="highway" v="residential"/>
    <tag k="name" v="Seaspray Street"/>
    <tag k="source" v="Bing"/>
  </way>
  <way id="2722725" version="4" timestamp="2010-06-01T02:59:26Z" uid="4467" user="Rosscoe" changeset="4871181">
    <nd ref="12323688"/>
    <nd ref="12323385"/>
    <tag k="created_by" v="Potlatch alpha"/>
    <tag k="highway" v="residential"/>
    <tag k="name" v="Eyre Street"/>
  </way>
  <way id="2722725" version="5" timestamp="2010-07-06T17:13:28Z" uid="74617" user="JohnSmith" changeset="5152225">
    <nd ref="12323688"/>
    <nd ref="12323385"/>
    <tag k="highway" v="residential"/>
    <tag k="maxspeed" v="50"/>
    <tag k="maxspeed:source" v="default residential speed limit in Australia"/>
    <tag k="name" v="Eyre Street"/>
  </way>
  <way id="2722725" version="6" timestamp="2012-01-08T02:26:54Z" uid="147510" user="woodpeck_fixbot" changeset="10327743">
    <nd ref="12323688"/>
    <nd ref="12323385"/>
    <tag k="highway" v="residential"/>
    <tag k="name" v="Eyre Street"/>
  </way>
  <way id="2722732" version="8" timestamp="2010-06-01T02:36:22Z" uid="4467" user="Rosscoe" changeset="4871073">
    <nd ref="303900210"/>
    <nd ref="303900209"/>
    <nd ref="86201555"/>
    <nd ref="12323479"/>
    <nd ref="12325502"/>
    <nd ref="12325516"/>
    <nd ref="12325519"/>
    <tag k="created_by" v="Potlatch 0.10d"/>
    <tag k="highway" v="residential"/>
    <tag k="name" v="Thrush Avenue"/>
  </way>
  <way id="2722732" version="9" timestamp="2010-07-06T17:13:41Z" uid="74617" user="JohnSmith" changeset="5152225">
    <nd ref="303900210"/>
    <nd ref="303900209"/>
    <nd ref="86201555"/>
    <nd ref="12323479"/>
    <nd ref="12325502"/>
    <nd ref="12325516"/>
    <nd ref="12325519"/>
    <tag k="highway" v="residential"/>
    <tag k="maxspeed" v="50"/>
    <tag k="maxspeed:source" v="default residential speed limit in Australia"/>
    <tag k="name" v="Thrush Avenue"/>
  </way>
  <way id="2722732" version="10" timestamp="2012-01-08T02:26:55Z" uid="147510" user="woodpeck_fixbot" changeset="10327743">
    <nd ref="303900210"/>
    <nd ref="303900209"/>
    <nd ref="86201555"/>
    <nd ref="12323479"/>
    <nd ref="12325502"/>
    <nd ref="12325516"/>
    <nd ref="12325519"/>
    <tag k="highway" v="residential"/>
    <tag k="name" v="Thrush Avenue"/>
  </way>
  <way id="2722753" version="4" timestamp="2010-05-28T14:02:08Z" uid="4467" user="Rosscoe" changeset="4831284">
    <nd ref="12325502"/>
    <nd ref="12325505"/>
    <tag k="highway" v="residential"/>
    <tag k="name" v="Plover Avenue"/>
  </way>
  <way id="2722753" version="5" timestamp="2010-07-06T17:13:07Z" uid="74617" user="JohnSmith" changeset="5152225">
    <nd ref="12325502"/>
    <nd ref="12325505"/>
    <tag k="highway" v="residential"/>
    <tag k="maxspeed" v="50"/>
    <tag k="maxspeed:source" v="default residential speed limit in Australia"/>
    <tag k="name" v="Plover Avenue"/>
  </way>
  <way id="2722753" version="6" timestamp="2012-01-08T02:26:56Z" uid="147510" user="woodpeck_fixbot" changeset="10327743">
    <nd ref="12325502"/>
    <nd ref="12325505"/>
    <tag k="highway" v="residential"/>
    <tag k="name" v="Plover Avenue"/>
  </way>
  <way id="2722758" version="5" timestamp="2010-05-28T14:01:55Z" uid="4467" user="Rosscoe" changeset="4831284">
    <nd ref="86256891"/>
    <nd ref="12325516"/>
    <tag k="highway" v="residential"/>
    <tag k="name" v="Swallow Avenue"/>
  </way>
  <way id="2722758" version="6" timestamp="2010-07-06T17:12:55Z" uid="74617" user="JohnSmith" changeset="5152225">
    <nd ref="86256891"/>
    <nd ref="12325516"/>
    <tag k="highway" v="residential"/>
    <tag k="maxspeed" v="50"/>
    <tag k="maxspeed:source" v="default residential speed limit in Australia"/>
    <tag k="name" v="Swallow Avenue"/>
  </way>
  <way id="2722758" version="7" timestamp="2012-01-08T02:26:57Z" uid="147510" user="woodpeck_fixbot" changeset="10327743">
    <nd ref="86256891"/>
    <nd ref="12325516"/>
    <tag k="highway" v="residential"/>
    <tag k="name" v="Swallow Avenue"/>
  </way>
  <way id="2722766" version="3" timestamp="2010-05-28T14:02:09Z" uid="4467" user="Rosscoe" changeset="4831284">
    <nd ref="12325519"/>
    <nd ref="12325524"/>
    <tag k="highway" v="residential"/>
    <tag k="name" v="Robin Avenue"/>
  </way>
  <way id="2722766" version="4" timestamp="2010-07-06T17:18:12Z" uid="74617" user="JohnSmith" changeset="5152225">
    <nd ref="12325519"/>
    <nd ref="12325524"/>
    <tag k="highway" v="residential"/>
    <tag k="maxspeed" v="50"/>
    <tag k="maxspeed:source" v="default residential speed limit in Australia"/>
    <tag k="name" v="Robin Avenue"/>
  </way>
  <way id="2722766" version="5" timestamp="2012-01-08T02:26:59Z" uid="147510" user="woodpeck_fixbot" changeset="10327743">
    <nd ref="12325519"/>
    <nd ref="12325524"/>
    <tag k="highway" v="residential"/>
    <tag k="name" v="Robin Avenue"/>
  </way>
  <way id="2722781" version="4" timestamp="2010-05-28T14:02:01Z" uid="4467" user="Rosscoe" changeset="4831284">
    <nd ref="12324011"/>
    <nd ref="752910212"/>
    <tag k="highway" v="residential"/>
    <tag k="name" v="Blaxland Avenue"/>
  </way>
  <way id="2722781" version="5" timestamp="2010-07-06T17:13:40Z" uid="74617" user="JohnSmith" changeset="5152225">
    <nd ref="12324011"/>
    <nd ref="752910212"/>
    <tag k="highway" v="residential"/>
    <tag k="maxspeed" v="50"/>
    <tag k="maxspeed:source" v="default residential speed limit in Australia"/>
    <tag k="name" v="Blaxland Avenue"/>
  </way>
  <way id="2722781" version="6" timestamp="2011-07-19T09:06:10Z" uid="349913" user="Peter W34" changeset="8765632">
    <nd ref="1366433116"/>
    <nd ref="1366433118"/>
    <nd ref="752910212"/>
    <tag k="highway" v="residential"/>
    <tag k="maxspeed" v="50"/>
    <tag k="maxspeed:source" v="default residential speed limit in Australia"/>
    <tag k="name" v="Blaxland Avenue"/>
  </way>
  <way id="2722781" version="7" timestamp="2012-01-08T02:27:01Z" uid="147510" user="woodpeck_fixbot" changeset="10327743">
    <nd ref="1366433116"/>
    <nd ref="1366433118"/>
    <nd ref="752910212"/>
    <tag k="highway" v="residential"/>
    <tag k="name" v="Blaxland Avenue"/>
  </way>
  <way id="2722844" version="4" timestamp="2010-06-01T02:36:24Z" uid="4467" user="Rosscoe" changeset="4871073">
    <nd ref="86203760"/>
    <nd ref="86166633"/>
    <tag k="highway" v="residential"/>
    <tag k="name" v="Scoter Avenue"/>
  </way>
  <way id="2722844" version="5" timestamp="2010-06-07T13:01:10Z" uid="4467" user="Rosscoe" changeset="4927896">
    <nd ref="86203760"/>
    <nd ref="766671074"/>
    <nd ref="766671487"/>
    <nd ref="86166633"/>
    <tag k="highway" v="residential"/>
    <tag k="name" v="Scoter Avenue"/>
    <tag k="source" v="nearmap"/>
  </way>
  <way id="2722844" version="6" timestamp="2010-07-06T11:58:55Z" uid="74617" user="JohnSmith" changeset="5147679">
    <nd ref="86203760"/>
    <nd ref="766671074"/>
    <nd ref="766671487"/>
    <nd ref="86166633"/>
    <tag k="highway" v="residential"/>
    <tag k="maxspeed" v="50"/>
    <tag k="maxspeed:source" v="default residential speed limit in Australia"/>
    <tag k="name" v="Scoter Avenue"/>
    <tag k="source" v="nearmap"/>
  </way>
  <way id="2722844" version="7" timestamp="2012-01-08T02:27:02Z" uid="147510" user="woodpeck_fixbot" changeset="10327743">
    <nd ref="86203760"/>
    <nd ref="766671074"/>
    <nd ref="766671487"/>
    <nd ref="86166633"/>
    <tag k="highway" v="residential"/>
    <tag k="name" v="Scoter Avenue"/>
    <tag k="source" v="nearmap"/>
  </way>
  <way id="2722863" version="2" timestamp="2010-06-01T02:36:26Z" uid="4467" user="Rosscoe" changeset="4871073">
    <nd ref="12322754"/>
    <nd ref="12322778"/>
    <tag k="highway" v="residential"/>
    <tag k="name" v="Shoveller Avenue"/>
  </way>
  <way id="2722863" version="3" timestamp="2010-06-07T13:01:52Z" uid="4467" user="Rosscoe" changeset="4927896">
    <nd ref="12322754"/>
    <nd ref="766671000"/>
    <nd ref="12322778"/>
    <tag k="highway" v="residential"/>
    <tag k="name" v="Shoveller Avenue"/>
    <tag k="source" v="nearmap"/>
  </way>
  <way id="2722863" version="4" timestamp="2010-07-06T11:58:53Z" uid="74617" user="JohnSmith" changeset="5147679">
    <nd ref="12322754"/>
    <nd ref="766671000"/>
    <nd ref="12322778"/>
    <tag k="highway" v="residential"/>
    <tag k="maxspeed" v="50"/>
    <tag k="maxspeed:source" v="default residential speed limit in Australia"/>
    <tag k="name" v="Shoveller Avenue"/>
    <tag k="source" v="nearmap"/>
  </way>
  <way id="2722863" version="5" timestamp="2012-01-08T02:27:04Z" uid="147510" user="woodpeck_fixbot" changeset="10327743">
    <nd ref="12322754"/>
    <nd ref="766671000"/>
    <nd ref="12322778"/>
    <tag k="highway" v="residential"/>
    <tag k="name" v="Shoveller Avenue"/>
    <tag k="source" v="nearmap"/>
  </way>
</osm>
