<?xml version='1.0' encoding='UTF-8'?>
<osm version="0.6" generator="libosmium/2.20.0">
  <way id="2726148" version="6" timestamp="2010-04-25T06:13:50Z" uid="4467" user="Rosscoe" changeset="4517917">
    <nd ref="12336025"/>
    <nd ref="12336530"/>
    <nd ref="12336284"/>
    <nd ref="705767977"/>
    <nd ref="86209008"/>
    <nd ref="12335094"/>
    <nd ref="304510254"/>
    <nd ref="86261245"/>
    <nd ref="12335091"/>
    <tag k="highway" v="primary"/>
    <tag k="name" v="Hollywell Road"/>
  </way>
  <way id="2726148" version="7" timestamp="2011-07-21T02:15:44Z" uid="349913" user="Peter W34" changeset="8784469">
    <nd ref="12336025"/>
    <nd ref="12336530"/>
    <nd ref="12336284"/>
    <nd ref="705767977"/>
    <nd ref="86209008"/>
    <nd ref="12335094"/>
    <nd ref="304510254"/>
    <nd ref="1368577745"/>
    <nd ref="86261245"/>
    <nd ref="1368577727"/>
    <tag k="highway" v="primary"/>
    <tag k="name" v="Hollywell Road"/>
  </way>
  <way id="2726148" version="8" timestamp="2011-07-21T05:07:53Z" uid="349913" user="Peter W34" changeset="8784797">
    <nd ref="12336025"/>
    <nd ref="1368628724"/>
    <nd ref="1368628773"/>
    <nd ref="12336530"/>
    <nd ref="12336284"/>
    <nd ref="705767977"/>
    <nd ref="86209008"/>
    <nd ref="12335094"/>
    <nd ref="304510254"/>
    <nd ref="1368577745"/>
    <nd ref="86261245"/>
    <nd ref="1368577727"/>
    <tag k="highway" v="primary"/>
    <tag k="name" v="Hollywell Road"/>
  </way>
  <way id="2726167" version="3" timestamp="2010-04-25T06:13:59Z" uid="4467" user="Rosscoe" changeset="4517917">
    <nd ref="12336060"/>
    <nd ref="12336050"/>
    <nd ref="705768175"/>
    <nd ref="86234212"/>
    <nd ref="705768490"/>
    <tag k="highway" v="primary"/>
    <tag k="name" v="Marine Parade"/>
  </way>
  <way id="2726167" version="4" timestamp="2011-07-21T05:07:53Z" uid="349913" user="Peter W34" changeset="8784797">
    <nd ref="12336060"/>
    <nd ref="1368628745"/>
    <nd ref="12336050"/>
    <nd ref="705768175"/>
    <nd ref="86234212"/>
    <nd ref="705768490"/>
    <tag k="highway" v="primary"/>
    <tag k="name" v="Marine Parade"/>
  </way>
  <way id="2726167" version="5" timestamp="2011-07-23T06:59:24Z" uid="349913" user="Peter W34" changeset="8803666">
    <nd ref="12336060"/>
    <nd ref="1368628745"/>
    <nd ref="1370767547"/>
    <nd ref="12336050"/>
    <nd ref="705768175"/>
    <nd ref="1370767542"/>
    <nd ref="86234212"/>
    <nd ref="705768490"/>
    <tag k="highway" v="primary"/>
    <tag k="name" v="Marine Parade"/>
  </way>
  <way id="2726177" version="7" timestamp="2010-04-25T06:14:00Z" uid="4467" user="Rosscoe" changeset="4517917">
    <nd ref="86234219"/>
    <nd ref="138972249"/>
    <nd ref="705768106"/>
    <tag k="highway" v="residential"/>
    <tag k="name" v="Brighton Street"/>
  </way>
  <way id="2726177" version="8" timestamp="2010-07-06T17:18:35Z" uid="74617" user="JohnSmith" changeset="5152225">
    <nd ref="86234219"/>
    <nd ref="138972249"/>
    <nd ref="705768106"/>
    <tag k="highway" v="residential"/>
    <tag k="maxspeed" v="50"/>
    <tag k="maxspeed:source" v="default residential speed limit in Australia"/>
    <tag k="name" v="Brighton Street"/>
  </way>
  <way id="2726177" version="9" timestamp="2012-01-08T02:28:04Z" uid="147510" user="woodpeck_fixbot" changeset="10327743">
    <nd ref="86234219"/>
    <nd ref="138972249"/>
    <nd ref="705768106"/>
    <tag k="highway" v="residential"/>
    <tag k="name" v="Brighton Street"/>
  </way>
  <way id="2726188" version="4" timestamp="2010-04-25T06:14:05Z" uid="4467" user="Rosscoe" changeset="4517917">
    <nd ref="86231306"/>
    <nd ref="12335045"/>
    <tag k="highway" v="residential"/>
    <tag k="name" v="Oleander Avenue"/>
    <tag k="oneway" v="yes"/>
    <tag k="source" v="nearmap"/>
  </way>
  <way id="2726188" version="5" timestamp="2010-07-06T17:16:42Z" uid="74617" user="JohnSmith" changeset="5152225">
    <nd ref="86231306"/>
    <nd ref="12335045"/>
    <tag k="highway" v="residential"/>
    <tag k="maxspeed" v="50"/>
    <tag k="maxspeed:source" v="default residential speed limit in Australia"/>
    <tag k="name" v="Oleander Avenue"/>
    <tag k="oneway" v="yes"/>
    <tag k="source" v="nearmap"/>
  </way>
  <way id="2726188" version="6" timestamp="2012-01-08T02:28:05Z" uid="147510" user="woodpeck_fixbot" changeset="10327743">
    <nd ref="86231306"/>
    <nd ref="12335045"/>
    <tag k="highway" v="residential"/>
    <tag k="name" v="Oleander Avenue"/>
    <tag k="oneway" v="yes"/>
    <tag k="source" v="nearmap"/>
  </way>
  <way id="2726196" version="5" timestamp="2010-04-25T06:14:10Z" uid="4467" user="Rosscoe" changeset="4517917">
    <nd ref="12336513"/>
    <nd ref="304510359"/>
    <nd ref="304510324"/>
    <nd ref="304510320"/>
    <nd ref="705768444"/>
    <nd ref="705767977"/>
    <tag k="highway" v="residential"/>
    <tag k="name" v="Parr Street"/>
    <tag k="source" v="nearmap"/>
  </way>
  <way id="2726196" version="6" timestamp="2010-07-06T17:17:59Z" uid="74617" user="JohnSmith" changeset="5152225">
    <nd ref="12336513"/>
    <nd ref="304510359"/>
    <nd ref="304510324"/>
    <nd ref="304510320"/>
    <nd ref="705768444"/>
    <nd ref="705767977"/>
    <tag k="highway" v="residential"/>
    <tag k="maxspeed" v="50"/>
    <tag k="maxspeed:source" v="default residential speed limit in Australia"/>
    <tag k="name" v="Parr Street"/>
    <tag k="source" v="nearmap"/>
  </way>
  <way id="2726196" version="7" timestamp="2012-01-08T02:28:06Z" uid="147510" user="woodpeck_fixbot" changeset="10327743">
    <nd ref="12336513"/>
    <nd ref="304510359"/>
    <nd ref="304510324"/>
    <nd ref="304510320"/>
    <nd ref="705768444"/>
    <nd ref="705767977"/>
    <tag k="highway" v="residential"/>
    <tag k="name" v="Parr Street"/>
    <tag k="source" v="nearmap"/>
  </way>
  <way id="2726204" version="6" timestamp="2010-04-25T06:13:53Z" uid="4467" user="Rosscoe" changeset="4517917">
    <nd ref="12336513"/>
    <nd ref="86231306"/>
    <nd ref="86231309"/>
    <nd ref="705768145"/>
    <tag k="highway" v="residential"/>
    <tag k="name" v="Parr Street"/>
  </way>
  <way id="2726204" version="7" timestamp="2010-07-06T17:14:23Z" uid="74617" user="JohnSmith" changeset="5152225">
    <nd ref="12336513"/>
    <nd ref="86231306"/>
    <nd ref="86231309"/>
    <nd ref="705768145"/>
    <tag k="highway" v="residential"/>
    <tag k="maxspeed" v="50"/>
    <tag k="maxspeed:source" v="default residential speed limit in Australia"/>
    <tag k="name" v="Parr Street"/>
  </way>
  <way id="2726204" version="8" timestamp="2011-11-28T14:13:50Z" uid="338866" user="tiger" changeset="9977367">
    <nd ref="12336513"/>
    <nd ref="86231306"/>
    <nd ref="705768391"/>
    <nd ref="86231309"/>
    <nd ref="705768145"/>
    <tag k="highway" v="residential"/>
    <tag k="maxspeed" v="50"/>
    <tag k="maxspeed:source" v="default residential speed limit in Australia"/>
    <tag k="name" v="Parr Street"/>
  </way>
  <way id="2726204" version="9" timestamp="2012-01-08T02:28:08Z" uid="147510" user="woodpeck_fixbot" changeset="10327743">
    <nd ref="12336513"/>
    <nd ref="86231306"/>
    <nd ref="705768391"/>
    <nd ref="86231309"/>
    <nd ref="705768145"/>
    <tag k="highway" v="residential"/>
    <tag k="name" v="Parr Street"/>
  </way>
  <way id="2726211" version="2" timestamp="2010-04-25T06:13:48Z" uid="4467" user="Rosscoe" changeset="4517917">
    <nd ref="12336523"/>
    <nd ref="12336527"/>
    <nd ref="12336530"/>
    <tag k="highway" v="residential"/>
    <tag k="name" v="Cawthray Street"/>
    <tag k="source" v="nearmap"/>
  </way>
  <way id="2726211" version="3" timestamp="2010-07-06T17:14:17Z" uid="74617" user="JohnSmith" changeset="5152225">
    <nd ref="12336523"/>
    <nd ref="12336527"/>
    <nd ref="12336530"/>
    <tag k="highway" v="residential"/>
    <tag k="maxspeed" v="50"/>
    <tag k="maxspeed:source" v="default residential speed limit in Australia"/>
    <tag k="name" v="Cawthray Street"/>
    <tag k="source" v="nearmap"/>
  </way>
  <way id="2726211" version="4" timestamp="2012-01-08T02:28:09Z" uid="147510" user="woodpeck_fixbot" changeset="10327743">
    <nd ref="12336523"/>
    <nd ref="12336527"/>
    <nd ref="12336530"/>
    <tag k="highway" v="residential"/>
    <tag k="name" v="Cawthray Street"/>
    <tag k="source" v="nearmap"/>
  </way>
  <way id="2726215" version="4" timestamp="2010-04-25T06:13:53Z" uid="4467" user="Rosscoe" changeset="4517917">
    <nd ref="705768149"/>
    <nd ref="12336041"/>
    <nd ref="705768518"/>
    <tag k="highway" v="residential"/>
    <tag k="name" v="Clark Street"/>
  </way>
  <way id="2726215" version="5" timestamp="2010-07-06T17:19:54Z" uid="74617" user="JohnSmith" changeset="5152225">
    <nd ref="705768149"/>
    <nd ref="12336041"/>
    <nd ref="705768518"/>
    <tag k="highway" v="residential"/>
    <tag k="maxspeed" v="50"/>
    <tag k="maxspeed:source" v="default residential speed limit in Australia"/>
    <tag k="name" v="Clark Street"/>
  </way>
  <way id="2726215" version="6" timestamp="2011-07-21T05:07:57Z" uid="349913" user="Peter W34" changeset="8784797"/>
  <way id="2726219" version="5" timestamp="2010-04-25T06:13:59Z" uid="4467" user="Rosscoe" changeset="4517917">
    <nd ref="86231309"/>
    <nd ref="705768155"/>
    <tag k="highway" v="residential"/>
    <tag k="name" v="Loder Street"/>
  </way>
  <way id="2726219" version="6" timestamp="2010-07-06T17:19:17Z" uid="74617" user="JohnSmith" changeset="5152225">
    <nd ref="86231309"/>
    <nd ref="705768155"/>
    <tag k="highway" v="residential"/>
    <tag k="maxspeed" v="50"/>
    <tag k="maxspeed:source" v="default residential speed limit in Australia"/>
    <tag k="name" v="Loder Street"/>
  </way>
  <way id="2726219" version="7" timestamp="2012-01-08T02:28:10Z" uid="147510" user="woodpeck_fixbot" changeset="10327743">
    <nd ref="86231309"/>
    <nd ref="705768155"/>
    <tag k="highway" v="residential"/>
    <tag k="name" v="Loder Street"/>
  </way>
  <way id="2726227" version="4" timestamp="2010-05-26T14:06:55Z" uid="4467" user="Rosscoe" changeset="4813467">
    <nd ref="12335094"/>
    <nd ref="304510225"/>
    <nd ref="12336168"/>
    <nd ref="12336165"/>
    <tag k="highway" v="residential"/>
    <tag k="name" v="Wattle Avenue"/>
  </way>
  <way id="2726227" version="5" timestamp="2010-07-06T17:12:44Z" uid="74617" user="JohnSmith" changeset="5152225">
    <nd ref="12335094"/>
    <nd ref="304510225"/>
    <nd ref="12336168"/>
    <nd ref="12336165"/>
    <tag k="highway" v="residential"/>
    <tag k="maxspeed" v="50"/>
    <tag k="maxspeed:source" v="default residential speed limit in Australia"/>
    <tag k="name" v="Wattle Avenue"/>
  </way>
  <way id="2726227" version="6" timestamp="2011-07-21T02:15:46Z" uid="349913" user="Peter W34" changeset="8784469">
    <nd ref="12335094"/>
    <nd ref="304510225"/>
    <nd ref="12336168"/>
    <nd ref="1368577699"/>
    <nd ref="12336165"/>
    <tag k="highway" v="residential"/>
    <tag k="maxspeed" v="50"/>
    <tag k="maxspeed:source" v="default residential speed limit in Australia"/>
    <tag k="name" v="Wattle Avenue"/>
  </way>
  <way id="2726227" version="7" timestamp="2012-01-08T02:28:11Z" uid="147510" user="woodpeck_fixbot" changeset="10327743">
    <nd ref="12335094"/>
    <nd ref="304510225"/>
    <nd ref="12336168"/>
    <nd ref="1368577699"/>
    <nd ref="12336165"/>
    <tag k="highway" v="residential"/>
    <tag k="name" v="Wattle Avenue"/>
  </way>
  <way id="2726231" version="7" timestamp="2010-05-26T14:08:50Z" uid="4467" user="Rosscoe" changeset="4813467">
    <nd ref="12336165"/>
    <nd ref="304510257"/>
    <nd ref="133289901"/>
    <tag k="highway" v="residential"/>
    <tag k="name" v="Ashbourne Terrace"/>
  </way>
  <way id="2726231" version="8" timestamp="2010-07-06T17:18:21Z" uid="74617" user="JohnSmith" changeset="5152225">
    <nd ref="12336165"/>
    <nd ref="304510257"/>
    <nd ref="133289901"/>
    <tag k="highway" v="residential"/>
    <tag k="maxspeed" v="50"/>
    <tag k="maxspeed:source" v="default residential speed limit in Australia"/>
    <tag k="name" v="Ashbourne Terrace"/>
  </way>
  <way id="2726231" version="9" timestamp="2012-01-08T02:28:12Z" uid="147510" user="woodpeck_fixbot" changeset="10327743">
    <nd ref="12336165"/>
    <nd ref="304510257"/>
    <nd ref="133289901"/>
    <tag k="highway" v="residential"/>
    <tag k="name" v="Ashbourne Terrace"/>
  </way>
  <way id="2726262" version="3" timestamp="2010-05-26T14:08:51Z" uid="4467" user="Rosscoe" changeset="4813467">
    <nd ref="12336158"/>
    <nd ref="12336248"/>
    <nd ref="12336165"/>
    <tag k="highway" v="residential"/>
    <tag k="name" v="Willow Street"/>
  </way>
  <way id="2726262" version="4" timestamp="2010-07-06T17:17:40Z" uid="74617" user="JohnSmith" changeset="5152225">
    <nd ref="12336158"/>
    <nd ref="12336248"/>
    <nd ref="12336165"/>
    <tag k="highway" v="residential"/>
    <tag k="maxspeed" v="50"/>
    <tag k="maxspeed:source" v="default residential speed limit in Australia"/>
    <tag k="name" v="Willow Street"/>
  </way>
  <way id="2726262" version="5" timestamp="2011-07-21T10:14:03Z" uid="349913" user="Peter W34" changeset="8786672">
    <nd ref="12336158"/>
    <nd ref="1368835457"/>
    <nd ref="12336248"/>
    <nd ref="12336165"/>
    <tag k="highway" v="residential"/>
    <tag k="maxspeed" v="50"/>
    <tag k="maxspeed:source" v="default residential speed limit in Australia"/>
    <tag k="name" v="Willow Street"/>
  </way>
  <way id="2726262" version="6" timestamp="2012-01-08T02:28:14Z" uid="147510" user="woodpeck_fixbot" changeset="10327743">
    <nd ref="12336158"/>
    <nd ref="1368835457"/>
    <nd ref="12336248"/>
    <nd ref="12336165"/>
    <tag k="highway" v="residential"/>
    <tag k="name" v="Willow Street"/>
  </way>
  <way id="2726270" version="7" timestamp="2010-05-26T14:08:38Z" uid="4467" user="Rosscoe" changeset="4813467">
    <nd ref="86260954"/>
    <nd ref="86260888"/>
    <nd ref="12336875"/>
    <tag k="highway" v="residential"/>
    <tag k="name" v="Armaroo Street"/>
  </way>
  <way id="2726270" version="8" timestamp="2010-07-06T17:13:49Z" uid="74617" user="JohnSmith" changeset="5152225">
    <nd ref="86260954"/>
    <nd ref="86260888"/>
    <nd ref="12336875"/>
    <tag k="highway" v="residential"/>
    <tag k="maxspeed" v="50"/>
    <tag k="maxspeed:source" v="default residential speed limit in Australia"/>
    <tag k="name" v="Armaroo Street"/>
  </way>
  <way id="2726270" version="9" timestamp="2012-01-08T02:28:15Z" uid="147510" user="woodpeck_fixbot" changeset="10327743">
    <nd ref="86260954"/>
    <nd ref="86260888"/>
    <nd ref="12336875"/>
    <tag k="highway" v="residential"/>
    <tag k="name" v="Armaroo Street"/>
  </way>
  <way id="2726277" version="3" timestamp="2010-05-26T14:09:29Z" uid="4467" user="Rosscoe" changeset="4813467">
    <nd ref="86260888"/>
    <nd ref="12336223"/>
    <nd ref="12336221"/>
    <tag k="highway" v="residential"/>
    <tag k="name" v="Cabarita Street"/>
  </way>
  <way id="2726277" version="4" timestamp="2010-07-06T17:13:43Z" uid="74617" user="JohnSmith" changeset="5152225">
    <nd ref="86260888"/>
    <nd ref="12336223"/>
    <nd ref="12336221"/>
    <tag k="highway" v="residential"/>
    <tag k="maxspeed" v="50"/>
    <tag k="maxspeed:source" v="default residential speed limit in Australia"/>
    <tag k="name" v="Cabarita Street"/>
  </way>
  <way id="2726277" version="5" timestamp="2011-07-21T10:14:03Z" uid="349913" user="Peter W34" changeset="8786672">
    <nd ref="86260888"/>
    <nd ref="12336223"/>
    <nd ref="1368835470"/>
    <nd ref="12336221"/>
    <tag k="highway" v="residential"/>
    <tag k="maxspeed" v="50"/>
    <tag k="maxspeed:source" v="default residential speed limit in Australia"/>
    <tag k="name" v="Cabarita Street"/>
  </way>
  <way id="2726277" version="6" timestamp="2012-01-08T02:28:16Z" uid="147510" user="woodpeck_fixbot" changeset="10327743">
    <nd ref="86260888"/>
    <nd ref="12336223"/>
    <nd ref="1368835470"/>
    <nd ref="12336221"/>
    <tag k="highway" v="residential"/>
    <tag k="name" v="Cabarita Street"/>
  </way>
  <way id="2726286" version="4" timestamp="2010-05-26T14:08:41Z" uid="4467" user="Rosscoe" changeset="4813467">
    <nd ref="86260713"/>
    <nd ref="12336362"/>
    <nd ref="86260954"/>
    <nd ref="12336158"/>
    <tag k="highway" v="residential"/>
    <tag k="name" v="Clifton Street"/>
  </way>
  <way id="2726286" version="5" timestamp="2010-07-06T17:12:57Z" uid="74617" user="JohnSmith" changeset="5152225">
    <nd ref="86260713"/>
    <nd ref="12336362"/>
    <nd ref="86260954"/>
    <nd ref="12336158"/>
    <tag k="highway" v="residential"/>
    <tag k="maxspeed" v="50"/>
    <tag k="maxspeed:source" v="default residential speed limit in Australia"/>
    <tag k="name" v="Clifton Street"/>
  </way>
  <way id="2726286" version="6" timestamp="2011-07-21T10:14:03Z" uid="349913" user="Peter W34" changeset="8786672">
    <nd ref="86260713"/>
    <nd ref="12336362"/>
    <nd ref="86260954"/>
    <nd ref="1368835469"/>
    <nd ref="12336158"/>
    <tag k="highway" v="residential"/>
    <tag k="maxspeed" v="50"/>
    <tag k="maxspeed:source" v="default residential speed limit in Australia"/>
    <tag k="name" v="Clifton Street"/>
  </way>
  <way id="2726286" version="7" timestamp="2012-01-08T02:28:18Z" uid="147510" user="woodpeck_fixbot" changeset="10327743">
    <nd ref="86260713"/>
    <nd ref="12336362"/>
    <nd ref="86260954"/>
    <nd ref="1368835469"/>
    <nd ref="12336158"/>
    <tag k="highway" v="residential"/>
    <tag k="name" v="Clifton Street"/>
  </way>
  <way id="2726294" version="3" timestamp="2010-05-26T14:07:54Z" uid="4467" user="Rosscoe" changeset="4813467">
    <nd ref="12336264"/>
    <nd ref="12336257"/>
    <nd ref="12336248"/>
    <tag k="highway" v="residential"/>
    <tag k="name" v="Lergessner Street"/>
  </way>
  <way id="2726294" version="4" timestamp="2010-07-06T17:14:11Z" uid="74617" user="JohnSmith" changeset="5152225">
    <nd ref="12336264"/>
    <nd ref="12336257"/>
    <nd ref="12336248"/>
    <tag k="highway" v="residential"/>
    <tag k="maxspeed" v="50"/>
    <tag k="maxspeed:source" v="default residential speed limit in Australia"/>
    <tag k="name" v="Lergessner Street"/>
  </way>
  <way id="2726294" version="5" timestamp="2012-01-08T02:28:19Z" uid="147510" user="woodpeck_fixbot" changeset="10327743">
    <nd ref="12336264"/>
    <nd ref="12336257"/>
    <nd ref="12336248"/>
    <tag k="highway" v="residential"/>
    <tag k="name" v="Lergessner Street"/>
  </way>
  <way id="2726300" version="5" timestamp="2010-05-26T14:06:34Z" uid="4467" user="Rosscoe" changeset="4813467">
    <nd ref="12336221"/>
    <nd ref="86260713"/>
    <nd ref="12336264"/>
    <nd ref="133289899"/>
    <nd ref="133289901"/>
    <tag k="highway" v="residential"/>
    <tag k="name" v="Arthur Street"/>
  </way>
  <way id="2726300" version="6" timestamp="2010-07-06T17:12:38Z" uid="74617" user="JohnSmith" changeset="5152225">
    <nd ref="12336221"/>
    <nd ref="86260713"/>
    <nd ref="12336264"/>
    <nd ref="133289899"/>
    <nd ref="133289901"/>
    <tag k="highway" v="residential"/>
    <tag k="maxspeed" v="50"/>
    <tag k="maxspeed:source" v="default residential speed limit in Australia"/>
    <tag k="name" v="Arthur Street"/>
  </way>
  <way id="2726300" version="7" timestamp="2012-01-08T02:28:20Z" uid="147510" user="woodpeck_fixbot" changeset="10327743">
    <nd ref="12336221"/>
    <nd ref="86260713"/>
    <nd ref="12336264"/>
    <nd ref="133289899"/>
    <nd ref="133289901"/>
    <tag k="highway" v="residential"/>
    <tag k="name" v="Arthur Street"/>
  </way>
  <way id="2726557" version="7" timestamp="2010-07-06T17:15:40Z" uid="74617" user="JohnSmith" changeset="5152225">
    <nd ref="12333443"/>
    <nd ref="12337794"/>
    <nd ref="140536711"/>
    <nd ref="12337800"/>
    <nd ref="86228145"/>
    <nd ref="86228142"/>
    <nd ref="12337310"/>
    <nd ref="140535302"/>
    <nd ref="12337299"/>
    <tag k="highway" v="residential"/>
    <tag k="maxspeed" v="50"/>
    <tag k="maxspeed:source" v="default residential speed limit in Australia"/>
    <tag k="name" v="Limetree Parade"/>
  </way>
  <way id="2726557" version="8" timestamp="2011-03-04T10:08:29Z" uid="4467" user="Rosscoe" changeset="7453058">
    <nd ref="12333443"/>
    <nd ref="12337794"/>
    <nd ref="140536711"/>
    <nd ref="12337800"/>
    <nd ref="86228145"/>
    <nd ref="86228142"/>
    <nd ref="12337310"/>
    <nd ref="140535302"/>
    <nd ref="12337299"/>
    <tag k="highway" v="residential"/>
    <tag k="maxspeed" v="50"/>
    <tag k="name" v="Limetree Parade"/>
    <tag k="source:maxspeed" v="default residential speed limit in Australia"/>
  </way>
  <way id="2726557" version="9" timestamp="2011-03-04T10:22:14Z" uid="4467" user="Rosscoe" changeset="7453155">
    <nd ref="12333443"/>
    <nd ref="12337794"/>
    <nd ref="140536711"/>
    <nd ref="12337800"/>
    <nd ref="86228145"/>
    <nd ref="86228142"/>
    <nd ref="12337310"/>
    <nd ref="140535302"/>
    <tag k="highway" v="residential"/>
    <tag k="maxspeed" v="50"/>
    <tag k="name" v="Limetree Parade"/>
    <tag k="source:maxspeed" v="default residential speed limit in Australia"/>
  </way>
  <way id="2726557" version="10" timestamp="2011-07-21T02:15:44Z" uid="349913" user="Peter W34" changeset="8784469">
    <nd ref="12333443"/>
    <nd ref="12337794"/>
    <nd ref="140536711"/>
    <nd ref="12337800"/>
    <nd ref="86228145"/>
    <nd ref="1368577560"/>
    <nd ref="86228142"/>
    <nd ref="12337310"/>
    <nd ref="1368577627"/>
    <tag k="highway" v="residential"/>
    <tag k="maxspeed" v="50"/>
    <tag k="name" v="Limetree Parade"/>
    <tag k="source:maxspeed" v="default residential speed limit in Australia"/>
  </way>
  <way id="2726557" version="11" timestamp="2012-01-08T02:28:22Z" uid="147510" user="woodpeck_fixbot" changeset="10327743">
    <nd ref="12333443"/>
    <nd ref="12337794"/>
    <nd ref="140536711"/>
    <nd ref="12337800"/>
    <nd ref="86228145"/>
    <nd ref="1368577560"/>
    <nd ref="86228142"/>
    <nd ref="12337310"/>
    <nd ref="1368577627"/>
    <tag k="highway" v="residential"/>
    <tag k="name" v="Limetree Parade"/>
  </way>
  <way id="2726565" version="4" timestamp="2010-06-01T02:59:50Z" uid="4467" user="Rosscoe" changeset="4871181">
    <nd ref="12337310"/>
    <nd ref="12337346"/>
    <nd ref="303904663"/>
    <nd ref="303904665"/>
    <nd ref="12337355"/>
    <tag k="created_by" v="Potlatch 0.10d"/>
    <tag k="highway" v="residential"/>
    <tag k="name" v="Medika Street"/>
  </way>
  <way id="2726565" version="5" timestamp="2010-07-06T17:16:26Z" uid="74617" user="JohnSmith" changeset="5152225">
    <nd ref="12337310"/>
    <nd ref="12337346"/>
    <nd ref="303904663"/>
    <nd ref="303904665"/>
    <nd ref="12337355"/>
    <tag k="highway" v="residential"/>
    <tag k="maxspeed" v="50"/>
    <tag k="maxspeed:source" v="default residential speed limit in Australia"/>
    <tag k="name" v="Medika Street"/>
  </way>
  <way id="2726565" version="6" timestamp="2011-07-21T02:15:44Z" uid="349913" user="Peter W34" changeset="8784469">
    <nd ref="12337310"/>
    <nd ref="1368577532"/>
    <nd ref="12337346"/>
    <nd ref="303904663"/>
    <nd ref="303904665"/>
    <nd ref="12337355"/>
    <tag k="highway" v="residential"/>
    <tag k="maxspeed" v="50"/>
    <tag k="maxspeed:source" v="default residential speed limit in Australia"/>
    <tag k="name" v="Medika Street"/>
  </way>
  <way id="2726565" version="7" timestamp="2012-01-08T02:28:23Z" uid="147510" user="woodpeck_fixbot" changeset="10327743">
    <nd ref="12337310"/>
    <nd ref="1368577532"/>
    <nd ref="12337346"/>
    <nd ref="303904663"/>
    <nd ref="303904665"/>
    <nd ref="12337355"/>
    <tag k="highway" v="residential"/>
    <tag k="name" v="Medika Street"/>
  </way>
  <way id="2726574" version="3" timestamp="2010-07-06T17:15:11Z" uid="74617" user="JohnSmith" changeset="5152225">
    <nd ref="12337359"/>
    <nd ref="303904651"/>
    <nd ref="12337341"/>
    <nd ref="12337336"/>
    <tag k="highway" v="residential"/>
    <tag k="maxspeed" v="50"/>
    <tag k="maxspeed:source" v="default residential speed limit in Australia"/>
    <tag k="name" v="Anchorage Way"/>
  </way>
  <way id="2726574" version="4" timestamp="2011-07-21T02:15:44Z" uid="349913" user="Peter W34" changeset="8784469">
    <nd ref="12337359"/>
    <nd ref="303904651"/>
    <nd ref="12337341"/>
    <nd ref="1368577579"/>
    <nd ref="12337336"/>
    <tag k="highway" v="residential"/>
    <tag k="maxspeed" v="50"/>
    <tag k="maxspeed:source" v="default residential speed limit in Australia"/>
    <tag k="name" v="Anchorage Way"/>
  </way>
  <way id="2726574" version="5" timestamp="2012-01-08T02:28:24Z" uid="147510" user="woodpeck_fixbot" changeset="10327743">
    <nd ref="12337359"/>
    <nd ref="303904651"/>
    <nd ref="12337341"/>
    <nd ref="1368577579"/>
    <nd ref="12337336"/>
    <tag k="highway" v="residential"/>
    <tag k="name" v="Anchorage Way"/>
  </way>
  <way id="2726579" version="3" timestamp="2010-06-06T02:07:37Z" uid="4467" user="Rosscoe" changeset="4913810">
    <nd ref="12337794"/>
    <nd ref="765394328"/>
    <tag k="highway" v="residential"/>
    <tag k="name" v="The Drawbridge"/>
  </way>
  <way id="2726579" version="4" timestamp="2010-07-06T17:15:34Z" uid="74617" user="JohnSmith" changeset="5152225">
    <nd ref="12337794"/>
    <nd ref="765394328"/>
    <tag k="highway" v="residential"/>
    <tag k="maxspeed" v="50"/>
    <tag k="maxspeed:source" v="default residential speed limit in Australia"/>
    <tag k="name" v="The Drawbridge"/>
  </way>
  <way id="2726579" version="5" timestamp="2012-01-08T02:28:26Z" uid="147510" user="woodpeck_fixbot" changeset="10327743">
    <nd ref="12337794"/>
    <nd ref="765394328"/>
    <tag k="highway" v="residential"/>
    <tag k="name" v="The Drawbridge"/>
  </way>
  <way id="2726662" version="4" timestamp="2010-06-01T02:47:47Z" uid="4467" user="Rosscoe" changeset="4871091">
    <nd ref="12338108"/>
    <nd ref="12338118"/>
    <nd ref="12338068"/>
    <nd ref="12338076"/>
    <nd ref="12338093"/>
    <nd ref="12338090"/>
    <nd ref="12338087"/>
    <tag k="created_by" v="Potlatch 0.5d"/>
    <tag k="highway" v="residential"/>
    <tag k="name" v="Pebble Beach Drive"/>
  </way>
  <way id="2726662" version="5" timestamp="2010-07-06T17:16:38Z" uid="74617" user="JohnSmith" changeset="5152225">
    <nd ref="12338108"/>
    <nd ref="12338118"/>
    <nd ref="12338068"/>
    <nd ref="12338076"/>
    <nd ref="12338093"/>
    <nd ref="12338090"/>
    <nd ref="12338087"/>
    <tag k="highway" v="residential"/>
    <tag k="maxspeed" v="50"/>
    <tag k="maxspeed:source" v="default residential speed limit in Australia"/>
    <tag k="name" v="Pebble Beach Drive"/>
  </way>
  <way id="2726662" version="6" timestamp="2011-07-21T01:28:50Z" uid="349913" user="Peter W34" changeset="8784469">
    <nd ref="12338108"/>
    <nd ref="1368553672"/>
    <nd ref="1368553627"/>
    <nd ref="1368553628"/>
    <nd ref="12338118"/>
    <nd ref="12338068"/>
    <nd ref="1368553644"/>
    <tag k="highway" v="residential"/>
    <tag k="maxspeed" v="50"/>
    <tag k="maxspeed:source" v="default residential speed limit in Australia"/>
    <tag k="name" v="Pebble Beach Drive"/>
  </way>
  <way id="2726662" version="7" timestamp="2012-01-08T02:28:27Z" uid="147510" user="woodpeck_fixbot" changeset="10327743">
    <nd ref="12338108"/>
    <nd ref="1368553672"/>
    <nd ref="1368553627"/>
    <nd ref="1368553628"/>
    <nd ref="12338118"/>
    <nd ref="12338068"/>
    <nd ref="1368553644"/>
    <tag k="highway" v="residential"/>
    <tag k="name" v="Pebble Beach Drive"/>
  </way>
  <way id="2726671" version="4" timestamp="2010-06-01T02:41:23Z" uid="4467" user="Rosscoe" changeset="4871080">
    <nd ref="12338079"/>
    <nd ref="12338078"/>
    <nd ref="140541926"/>
    <nd ref="12338077"/>
    <nd ref="12338106"/>
    <nd ref="140541390"/>
    <nd ref="12338076"/>
    <tag k="created_by" v="Potlatch 0.5d"/>
    <tag k="highway" v="residential"/>
    <tag k="name" v="Cockleshell Court"/>
  </way>
  <way id="2726671" version="5" timestamp="2010-07-06T17:18:06Z" uid="74617" user="JohnSmith" changeset="5152225">
    <nd ref="12338079"/>
    <nd ref="12338078"/>
    <nd ref="140541926"/>
    <nd ref="12338077"/>
    <nd ref="12338106"/>
    <nd ref="140541390"/>
    <nd ref="12338076"/>
    <tag k="highway" v="residential"/>
    <tag k="maxspeed" v="50"/>
    <tag k="maxspeed:source" v="default residential speed limit in Australia"/>
    <tag k="name" v="Cockleshell Court"/>
  </way>
  <way id="2726671" version="6" timestamp="2011-07-21T01:28:50Z" uid="349913" user="Peter W34" changeset="8784469">
    <nd ref="12338079"/>
    <nd ref="12338078"/>
    <nd ref="1368553671"/>
    <nd ref="140541926"/>
    <nd ref="1368553697"/>
    <nd ref="12338077"/>
    <nd ref="12338106"/>
    <nd ref="1368553666"/>
    <nd ref="140541390"/>
    <nd ref="12338076"/>
    <tag k="highway" v="residential"/>
    <tag k="maxspeed" v="50"/>
    <tag k="maxspeed:source" v="default residential speed limit in Australia"/>
    <tag k="name" v="Cockleshell Court"/>
  </way>
  <way id="2726671" version="7" timestamp="2012-01-08T02:28:28Z" uid="147510" user="woodpeck_fixbot" changeset="10327743">
    <nd ref="12338079"/>
    <nd ref="12338078"/>
    <nd ref="1368553671"/>
    <nd ref="140541926"/>
    <nd ref="1368553697"/>
    <nd ref="12338077"/>
    <nd ref="12338106"/>
    <nd ref="1368553666"/>
    <nd ref="140541390"/>
    <nd ref="12338076"/>
    <tag k="highway" v="residential"/>
    <tag k="name" v="Cockleshell Court"/>
  </way>
  <way id="2726680" version="3" timestamp="2010-06-01T02:54:58Z" uid="4467" user="Rosscoe" changeset="4871118">
    <nd ref="12338106"/>
    <nd ref="12338102"/>
    <nd ref="12338098"/>
    <tag k="created_by" v="Potlatch 0.5d"/>
    <tag k="highway" v="residential"/>
    <tag k="name" v="Smugglers Place"/>
  </way>
  <way id="2726680" version="4" timestamp="2010-07-06T17:14:52Z" uid="74617" user="JohnSmith" changeset="5152225">
    <nd ref="12338106"/>
    <nd ref="12338102"/>
    <nd ref="12338098"/>
    <tag k="highway" v="residential"/>
    <tag k="maxspeed" v="50"/>
    <tag k="maxspeed:source" v="default residential speed limit in Australia"/>
    <tag k="name" v="Smugglers Place"/>
  </way>
  <way id="2726680" version="5" timestamp="2011-07-21T01:28:53Z" uid="349913" user="Peter W34" changeset="8784469">
    <nd ref="12338106"/>
    <nd ref="12338102"/>
    <nd ref="1368553668"/>
    <nd ref="12338098"/>
    <tag k="highway" v="residential"/>
    <tag k="maxspeed" v="50"/>
    <tag k="maxspeed:source" v="default residential speed limit in Australia"/>
    <tag k="name" v="Smugglers Place"/>
  </way>
  <way id="2726680" version="6" timestamp="2012-01-08T02:28:29Z" uid="147510" user="woodpeck_fixbot" changeset="10327743">
    <nd ref="12338106"/>
    <nd ref="12338102"/>
    <nd ref="1368553668"/>
    <nd ref="12338098"/>
    <tag k="highway" v="residential"/>
    <tag k="name" v="Smugglers Place"/>
  </way>
  <way id="2726688" version="7" timestamp="2010-06-01T02:41:25Z" uid="4467" user="Rosscoe" changeset="4871080">
    <nd ref="12337361"/>
    <nd ref="12337439"/>
    <nd ref="140537454"/>
    <nd ref="12337442"/>
    <nd ref="140537455"/>
    <nd ref="12337447"/>
    <nd ref="140537456"/>
    <nd ref="12337449"/>
    <nd ref="86228148"/>
    <nd ref="86228151"/>
    <tag k="created_by" v="Potlatch 0.5d"/>
    <tag k="highway" v="residential"/>
    <tag k="name" v="Midnight Court"/>
  </way>
  <way id="2726688" version="8" timestamp="2010-07-06T17:15:33Z" uid="74617" user="JohnSmith" changeset="5152225">
    <nd ref="12337361"/>
    <nd ref="12337439"/>
    <nd ref="140537454"/>
    <nd ref="12337442"/>
    <nd ref="140537455"/>
    <nd ref="12337447"/>
    <nd ref="140537456"/>
    <nd ref="12337449"/>
    <nd ref="86228148"/>
    <nd ref="86228151"/>
    <tag k="highway" v="residential"/>
    <tag k="maxspeed" v="50"/>
    <tag k="maxspeed:source" v="default residential speed limit in Australia"/>
    <tag k="name" v="Midnight Court"/>
  </way>
  <way id="2726688" version="9" timestamp="2012-01-08T02:28:32Z" uid="147510" user="woodpeck_fixbot" changeset="10327743">
    <nd ref="12337361"/>
    <nd ref="12337439"/>
    <nd ref="140537454"/>
    <nd ref="12337442"/>
    <nd ref="140537455"/>
    <nd ref="12337447"/>
    <nd ref="140537456"/>
    <nd ref="12337449"/>
    <nd ref="86228148"/>
    <nd ref="86228151"/>
    <tag k="highway" v="residential"/>
    <tag k="name" v="Midnight Court"/>
  </way>
  <way id="2726697" version="3" timestamp="2010-06-01T02:41:27Z" uid="4467" user="Rosscoe" changeset="4871080">
    <nd ref="12337360"/>
    <nd ref="12337454"/>
    <nd ref="140538799"/>
    <nd ref="140538800"/>
    <nd ref="140538801"/>
    <nd ref="12337455"/>
    <nd ref="12337459"/>
    <tag k="created_by" v="Potlatch 0.5d"/>
    <tag k="highway" v="residential"/>
    <tag k="name" v="Nirvana Court"/>
  </way>
  <way id="2726697" version="4" timestamp="2010-07-06T17:17:35Z" uid="74617" user="JohnSmith" changeset="5152225">
    <nd ref="12337360"/>
    <nd ref="12337454"/>
    <nd ref="140538799"/>
    <nd ref="140538800"/>
    <nd ref="140538801"/>
    <nd ref="12337455"/>
    <nd ref="12337459"/>
    <tag k="highway" v="residential"/>
    <tag k="maxspeed" v="50"/>
    <tag k="maxspeed:source" v="default residential speed limit in Australia"/>
    <tag k="name" v="Nirvana Court"/>
  </way>
  <way id="2726697" version="5" timestamp="2012-01-08T02:28:34Z" uid="147510" user="woodpeck_fixbot" changeset="10327743">
    <nd ref="12337360"/>
    <nd ref="12337454"/>
    <nd ref="140538799"/>
    <nd ref="140538800"/>
    <nd ref="140538801"/>
    <nd ref="12337455"/>
    <nd ref="12337459"/>
    <tag k="highway" v="residential"/>
    <tag k="name" v="Nirvana Court"/>
  </way>
  <way id="2726753" version="9" timestamp="2010-06-01T02:47:49Z" uid="4467" user="Rosscoe" changeset="4871091">
    <nd ref="133769883"/>
    <nd ref="133770906"/>
    <nd ref="12337160"/>
    <nd ref="12337169"/>
    <nd ref="140526865"/>
    <nd ref="140526866"/>
    <nd ref="12337177"/>
    <nd ref="12337387"/>
    <nd ref="140526868"/>
    <nd ref="12337335"/>
    <nd ref="599564616"/>
    <nd ref="140536276"/>
    <nd ref="12337299"/>
    <nd ref="140526871"/>
    <nd ref="140526873"/>
    <nd ref="12338180"/>
    <nd ref="140528554"/>
    <nd ref="140528556"/>
    <nd ref="140528557"/>
    <nd ref="140528559"/>
    <tag k="highway" v="primary"/>
    <tag k="name" v="Oxley Drive"/>
  </way>
  <way id="2726753" version="10" timestamp="2011-03-04T10:08:21Z" uid="4467" user="Rosscoe" changeset="7453058">
    <nd ref="133769883"/>
    <nd ref="133770906"/>
    <nd ref="12337160"/>
    <nd ref="12337169"/>
    <nd ref="140526865"/>
    <nd ref="140526866"/>
    <nd ref="1185661247"/>
    <nd ref="1185661191"/>
    <nd ref="1185661388"/>
    <nd ref="1185661111"/>
    <nd ref="12337177"/>
    <tag k="highway" v="primary"/>
    <tag k="name" v="Oxley Drive"/>
  </way>
  <way id="2726753" version="11" timestamp="2011-07-21T05:07:56Z" uid="349913" user="Peter W34" changeset="8784797">
    <nd ref="133769883"/>
    <nd ref="1368628723"/>
    <nd ref="133770906"/>
    <nd ref="12337160"/>
    <nd ref="12337169"/>
    <nd ref="140526865"/>
    <nd ref="140526866"/>
    <nd ref="1185661247"/>
    <nd ref="1185661191"/>
    <nd ref="1185661388"/>
    <nd ref="1185661111"/>
    <nd ref="12337177"/>
    <tag k="highway" v="primary"/>
    <tag k="name" v="Oxley Drive"/>
    <tag k="oneway" v="yes"/>
  </way>
</osm>
