<?xml version='1.0' encoding='UTF-8'?>
<osm version="0.6" generator="libosmium/2.20.0">
  <way id="27346315" version="1" timestamp="2008-09-27T03:59:53Z" uid="7617" user="Franc" changeset="703276">
    <nd ref="82456183"/>
    <nd ref="20146911"/>
    <nd ref="33616221"/>
    <nd ref="82456157"/>
    <nd ref="82456172"/>
    <nd ref="20146919"/>
    <nd ref="33224015"/>
    <nd ref="20146926"/>
    <nd ref="299643908"/>
    <nd ref="20166435"/>
    <tag k="abutters" v="mixed"/>
    <tag k="created_by" v="Potlatch 0.6c"/>
    <tag k="highway" v="trunk"/>
    <tag k="name" v="Parramatta Road"/>
    <tag k="ref" v="MR4"/>
  </way>
  <way id="27346315" version="2" timestamp="2008-09-27T05:08:51Z" uid="7617" user="Franc" changeset="703319">
    <nd ref="20166435"/>
    <nd ref="299643908"/>
    <nd ref="20146926"/>
    <nd ref="33224015"/>
    <nd ref="20146919"/>
    <nd ref="300215795"/>
    <nd ref="82456172"/>
    <nd ref="82456157"/>
    <nd ref="33616221"/>
    <nd ref="20146911"/>
    <nd ref="82456183"/>
    <tag k="abutters" v="mixed"/>
    <tag k="created_by" v="Potlatch 0.6c"/>
    <tag k="highway" v="trunk"/>
    <tag k="name" v="Parramatta Road"/>
    <tag k="oneway" v="yes"/>
    <tag k="ref" v="MR4"/>
  </way>
  <way id="27346315" version="3" timestamp="2009-12-10T05:14:39Z" uid="30201" user="rrankin" changeset="3339178">
    <nd ref="20166435"/>
    <nd ref="299643908"/>
    <nd ref="20146926"/>
    <nd ref="33224015"/>
    <nd ref="20146919"/>
    <nd ref="300215795"/>
    <nd ref="82456172"/>
    <nd ref="82456157"/>
    <nd ref="33616221"/>
    <nd ref="20146911"/>
    <nd ref="82456183"/>
    <tag k="highway" v="trunk"/>
    <tag k="name" v="Parramatta Road"/>
    <tag k="oneway" v="yes"/>
    <tag k="ref" v="MR4"/>
  </way>
  <way id="27346315" version="4" timestamp="2009-12-10T06:02:00Z" uid="30201" user="rrankin" changeset="3339278">
    <nd ref="20166435"/>
    <nd ref="299643908"/>
    <nd ref="20146926"/>
    <nd ref="33224015"/>
    <nd ref="20146919"/>
    <nd ref="300215795"/>
    <tag k="highway" v="trunk"/>
    <tag k="name" v="Parramatta Road"/>
    <tag k="oneway" v="yes"/>
    <tag k="ref" v="MR4"/>
  </way>
  <way id="27346315" version="5" timestamp="2009-12-26T16:55:45Z" uid="12203" user="brainwad" changeset="3455356">
    <nd ref="20166435"/>
    <nd ref="299643908"/>
    <nd ref="20146926"/>
    <nd ref="33224015"/>
    <nd ref="20146919"/>
    <nd ref="300215795"/>
    <tag k="highway" v="trunk"/>
    <tag k="maxspeed" v="60"/>
    <tag k="name" v="Parramatta Road"/>
    <tag k="oneway" v="yes"/>
    <tag k="ref" v="MR4"/>
  </way>
  <way id="27346315" version="6" timestamp="2009-12-26T16:56:47Z" uid="12203" user="brainwad" changeset="3455356">
    <nd ref="20166435"/>
    <nd ref="299643908"/>
    <nd ref="20146926"/>
    <nd ref="33224015"/>
    <nd ref="20146919"/>
    <nd ref="300215795"/>
    <tag k="highway" v="trunk"/>
    <tag k="lanes" v="3"/>
    <tag k="maxspeed" v="60"/>
    <tag k="name" v="Parramatta Road"/>
    <tag k="oneway" v="yes"/>
    <tag k="ref" v="MR4"/>
  </way>
  <way id="27346315" version="7" timestamp="2010-04-01T12:23:29Z" uid="74617" user="JohnSmith" changeset="4293399">
    <nd ref="20166435"/>
    <nd ref="299643908"/>
    <nd ref="20146926"/>
    <nd ref="33224015"/>
    <nd ref="20146919"/>
    <nd ref="300215795"/>
    <tag k="highway" v="trunk"/>
    <tag k="lanes" v="3"/>
    <tag k="maxspeed" v="60"/>
    <tag k="name" v="Parramatta Road"/>
    <tag k="oneway" v="yes"/>
  </way>
  <way id="27346315" version="8" timestamp="2011-06-19T12:55:07Z" uid="7617" user="Franc" changeset="8483675">
    <nd ref="20166435"/>
    <nd ref="299643908"/>
    <nd ref="20146926"/>
    <nd ref="33224015"/>
    <nd ref="20146919"/>
    <tag k="highway" v="trunk"/>
    <tag k="lanes" v="3"/>
    <tag k="maxspeed" v="60"/>
    <tag k="name" v="Parramatta Road"/>
    <tag k="oneway" v="yes"/>
  </way>
  <way id="27346315" version="9" timestamp="2012-01-31T05:36:43Z" uid="54784" user="Tom Hollander" changeset="10546288">
    <nd ref="20166435"/>
    <nd ref="299643908"/>
    <nd ref="20146926"/>
    <nd ref="33224015"/>
    <nd ref="20146919"/>
    <tag k="highway" v="trunk"/>
    <tag k="lanes" v="3"/>
    <tag k="maxspeed" v="60"/>
    <tag k="name" v="Parramatta Road"/>
    <tag k="oneway" v="yes"/>
    <tag k="ref" v="MR4"/>
  </way>
  <way id="27346343" version="2" timestamp="2010-03-28T00:09:17Z" uid="20587" user="balrog-kun" changeset="4250871">
    <nd ref="58850217"/>
    <nd ref="58827230"/>
    <nd ref="58833829"/>
    <nd ref="58920408"/>
    <nd ref="58920411"/>
    <nd ref="58907775"/>
    <nd ref="58650885"/>
    <nd ref="58483564"/>
    <nd ref="58452793"/>
    <nd ref="58920421"/>
    <nd ref="58920423"/>
    <nd ref="58920426"/>
    <nd ref="58827380"/>
    <nd ref="58920432"/>
    <nd ref="58920435"/>
    <nd ref="58895734"/>
    <nd ref="58920438"/>
    <tag k="highway" v="secondary"/>
    <tag k="name" v="Main Street"/>
    <tag k="name_1" v="County Road 1"/>
    <tag k="tiger:cfcc" v="A41"/>
    <tag k="tiger:county" v="Modoc, CA"/>
    <tag k="tiger:name_base" v="Main"/>
    <tag k="tiger:name_base_1" v="County Road 1"/>
    <tag k="tiger:name_type" v="St"/>
    <tag k="tiger:reviewed" v="no"/>
    <tag k="tiger:separated" v="no"/>
    <tag k="tiger:source" v="tiger_import_dch_v0.6_20070809"/>
    <tag k="tiger:tlid" v="127067795:127153067:127067848:127067849:127067850:127067847:127068097:127067845:127067846:127152961"/>
  </way>
  <way id="27346534" version="2" timestamp="2010-03-28T00:09:18Z" uid="20587" user="balrog-kun" changeset="4250871">
    <nd ref="58694552"/>
    <nd ref="58694554"/>
    <nd ref="58694556"/>
    <nd ref="58694558"/>
    <nd ref="58694560"/>
    <nd ref="58694562"/>
    <nd ref="58694564"/>
    <nd ref="58694567"/>
    <nd ref="58694569"/>
    <nd ref="58127290"/>
    <nd ref="58694571"/>
    <nd ref="58694573"/>
    <nd ref="58694575"/>
    <nd ref="58694577"/>
    <nd ref="58694579"/>
    <nd ref="58694582"/>
    <nd ref="58694584"/>
    <nd ref="58694586"/>
    <nd ref="58694588"/>
    <nd ref="58694591"/>
    <nd ref="58694592"/>
    <nd ref="58694593"/>
    <nd ref="58694594"/>
    <nd ref="58694595"/>
    <nd ref="58694596"/>
    <nd ref="58694597"/>
    <nd ref="58694598"/>
    <nd ref="58694599"/>
    <nd ref="58694600"/>
    <nd ref="58694603"/>
    <nd ref="58694605"/>
    <nd ref="58694609"/>
    <nd ref="58694611"/>
    <nd ref="58694614"/>
    <nd ref="58694618"/>
    <nd ref="58694621"/>
    <nd ref="58694623"/>
    <nd ref="58694625"/>
    <nd ref="58694628"/>
    <nd ref="58694631"/>
    <nd ref="58694633"/>
    <nd ref="58694636"/>
    <nd ref="58694638"/>
    <nd ref="58694642"/>
    <nd ref="58694644"/>
    <nd ref="58694646"/>
    <nd ref="58694647"/>
    <nd ref="58357461"/>
    <nd ref="58694650"/>
    <nd ref="58336615"/>
    <nd ref="58694654"/>
    <nd ref="58203482"/>
    <nd ref="58694660"/>
    <nd ref="58694663"/>
    <nd ref="58694666"/>
    <nd ref="58694667"/>
    <nd ref="58694668"/>
    <nd ref="58694670"/>
    <nd ref="58694672"/>
    <nd ref="58694675"/>
    <nd ref="58694677"/>
    <nd ref="58694682"/>
    <nd ref="58593008"/>
    <tag k="highway" v="track"/>
    <tag k="name" v="Surprise Valley Road"/>
    <tag k="tiger:cfcc" v="A41"/>
    <tag k="tiger:county" v="Lassen, CA"/>
    <tag k="tiger:name_base" v="Surprise Valley"/>
    <tag k="tiger:name_type" v="Rd"/>
    <tag k="tiger:reviewed" v="no"/>
    <tag k="tiger:separated" v="no"/>
    <tag k="tiger:source" v="tiger_import_dch_v0.6_20070809"/>
    <tag k="tiger:tlid" v="126927527:126927486:126927411:126927412:126927413"/>
  </way>
  <way id="27346542" version="2" timestamp="2010-03-28T00:09:19Z" uid="20587" user="balrog-kun" changeset="4250871">
    <nd ref="58875240"/>
    <nd ref="58829423"/>
    <nd ref="58880580"/>
    <nd ref="58911412"/>
    <nd ref="58911414"/>
    <tag k="created_by" v="Potlatch 0.10b"/>
    <tag k="highway" v="residential"/>
    <tag k="name" v="North Main Street"/>
    <tag k="tiger:cfcc" v="A41"/>
    <tag k="tiger:county" v="Modoc, CA"/>
    <tag k="tiger:name_base" v="Main"/>
    <tag k="tiger:name_direction_prefix" v="N"/>
    <tag k="tiger:name_type" v="St"/>
    <tag k="tiger:reviewed" v="no"/>
    <tag k="tiger:separated" v="no"/>
    <tag k="tiger:source" v="tiger_import_dch_v0.6_20070809"/>
    <tag k="tiger:tlid" v="127096079:127091532"/>
    <tag k="tiger:zip_left" v="96101"/>
    <tag k="tiger:zip_right" v="96101"/>
  </way>
  <way id="27346583" version="4" timestamp="2010-03-22T05:42:47Z" uid="20587" user="balrog-kun" changeset="4199043">
    <nd ref="35226193"/>
    <nd ref="35248704"/>
    <nd ref="35293377"/>
    <nd ref="35403451"/>
    <nd ref="35015817"/>
    <nd ref="35097326"/>
    <nd ref="35239285"/>
    <nd ref="35369532"/>
    <nd ref="35392470"/>
    <nd ref="35275490"/>
    <nd ref="35096556"/>
    <nd ref="35217420"/>
    <nd ref="35235982"/>
    <nd ref="35260715"/>
    <tag k="highway" v="trunk"/>
    <tag k="name" v="North G Street"/>
    <tag k="name_1" v="United States Highway 395"/>
    <tag k="name_2" v="State Highway 140"/>
    <tag k="ref" v="US 395"/>
    <tag k="tiger:cfcc" v="A21"/>
    <tag k="tiger:county" v="Lake, OR"/>
    <tag k="tiger:name_base" v="G"/>
    <tag k="tiger:name_base_1" v="United States Highway 395"/>
    <tag k="tiger:name_base_2" v="State Highway 140"/>
    <tag k="tiger:name_direction_prefix" v="N"/>
    <tag k="tiger:name_type" v="St"/>
    <tag k="tiger:reviewed" v="no"/>
    <tag k="tiger:separated" v="no"/>
    <tag k="tiger:source" v="tiger_import_dch_v0.6_20070808"/>
    <tag k="tiger:tlid" v="177949110:177912468:177912551:177911863:177955318"/>
  </way>
  <way id="27346583" version="5" timestamp="2010-08-03T03:43:06Z" uid="63936" user="MojaveNC" changeset="5386422">
    <nd ref="35226193"/>
    <nd ref="35248704"/>
    <nd ref="35293377"/>
    <nd ref="35403451"/>
    <nd ref="35015817"/>
    <nd ref="35097326"/>
    <nd ref="35239285"/>
    <nd ref="35369532"/>
    <nd ref="35392470"/>
    <nd ref="35275490"/>
    <nd ref="35096556"/>
    <nd ref="35217420"/>
    <nd ref="35235982"/>
    <nd ref="35260715"/>
    <tag k="highway" v="primary"/>
    <tag k="name" v="North G Street"/>
    <tag k="name_1" v="United States Highway 395"/>
    <tag k="name_2" v="State Highway 140"/>
    <tag k="ref" v="US 395"/>
    <tag k="tiger:cfcc" v="A21"/>
    <tag k="tiger:county" v="Lake, OR"/>
    <tag k="tiger:name_base" v="G"/>
    <tag k="tiger:name_base_1" v="United States Highway 395"/>
    <tag k="tiger:name_base_2" v="State Highway 140"/>
    <tag k="tiger:name_direction_prefix" v="N"/>
    <tag k="tiger:name_type" v="St"/>
    <tag k="tiger:reviewed" v="no"/>
    <tag k="tiger:separated" v="no"/>
    <tag k="tiger:source" v="tiger_import_dch_v0.6_20070808"/>
    <tag k="tiger:tlid" v="177949110:177912468:177912551:177911863:177955318"/>
  </way>
  <way id="27346583" version="6" timestamp="2011-06-12T10:16:12Z" uid="207745" user="NE2" changeset="8413596">
    <nd ref="35226193"/>
    <nd ref="35248704"/>
    <nd ref="35293377"/>
    <nd ref="35403451"/>
    <nd ref="35015817"/>
    <nd ref="35097326"/>
    <nd ref="35239285"/>
    <nd ref="35369532"/>
    <nd ref="35392470"/>
    <nd ref="35275490"/>
    <nd ref="35096556"/>
    <nd ref="35217420"/>
    <nd ref="35235982"/>
    <nd ref="35260715"/>
    <tag k="highway" v="primary"/>
    <tag k="lanes" v="2"/>
    <tag k="name" v="North G Street"/>
    <tag k="ref" v="US 395"/>
    <tag k="tiger:cfcc" v="A21"/>
    <tag k="tiger:county" v="Lake, OR"/>
    <tag k="tiger:name_base" v="G"/>
    <tag k="tiger:name_base_1" v="United States Highway 395"/>
    <tag k="tiger:name_base_2" v="State Highway 140"/>
    <tag k="tiger:name_direction_prefix" v="N"/>
    <tag k="tiger:name_type" v="St"/>
    <tag k="tiger:reviewed" v="no"/>
    <tag k="tiger:separated" v="no"/>
    <tag k="tiger:source" v="tiger_import_dch_v0.6_20070808"/>
    <tag k="tiger:tlid" v="177949110:177912468:177912551:177911863:177955318"/>
  </way>
  <way id="27346583" version="7" timestamp="2011-07-06T23:19:36Z" uid="473471" user="NE3" changeset="8653193">
    <nd ref="35226193"/>
    <nd ref="35248704"/>
    <nd ref="35293377"/>
    <nd ref="35403451"/>
    <nd ref="35015817"/>
    <nd ref="35097326"/>
    <nd ref="35239285"/>
    <nd ref="35369532"/>
    <nd ref="35392470"/>
    <nd ref="35275490"/>
    <nd ref="35096556"/>
    <nd ref="35217420"/>
    <nd ref="35235982"/>
    <nd ref="35260715"/>
    <tag k="NHS" v="yes"/>
    <tag k="highway" v="primary"/>
    <tag k="lanes" v="2"/>
    <tag k="name" v="North G Street"/>
    <tag k="ref" v="US 395"/>
    <tag k="tiger:cfcc" v="A21"/>
    <tag k="tiger:county" v="Lake, OR"/>
    <tag k="tiger:name_base" v="G"/>
    <tag k="tiger:name_base_1" v="United States Highway 395"/>
    <tag k="tiger:name_base_2" v="State Highway 140"/>
    <tag k="tiger:name_direction_prefix" v="N"/>
    <tag k="tiger:name_type" v="St"/>
    <tag k="tiger:reviewed" v="no"/>
    <tag k="tiger:separated" v="no"/>
    <tag k="tiger:source" v="tiger_import_dch_v0.6_20070808"/>
    <tag k="tiger:tlid" v="177949110:177912468:177912551:177911863:177955318"/>
  </way>
  <way id="27346583" version="8" timestamp="2011-08-09T13:05:09Z" uid="207745" user="NE2" changeset="8967018">
    <nd ref="35226193"/>
    <nd ref="35248704"/>
    <nd ref="35293377"/>
    <nd ref="35403451"/>
    <nd ref="35015817"/>
    <nd ref="35097326"/>
    <nd ref="35239285"/>
    <nd ref="35369532"/>
    <nd ref="35392470"/>
    <nd ref="35275490"/>
    <nd ref="35096556"/>
    <nd ref="35217420"/>
    <nd ref="35235982"/>
    <nd ref="35260715"/>
    <tag k="NHS" v="yes"/>
    <tag k="highway" v="primary"/>
    <tag k="lanes" v="2"/>
    <tag k="name" v="North G Street"/>
    <tag k="ref" v="US 395;OR 140"/>
    <tag k="tiger:cfcc" v="A21"/>
    <tag k="tiger:county" v="Lake, OR"/>
    <tag k="tiger:name_base" v="G"/>
    <tag k="tiger:name_base_1" v="United States Highway 395"/>
    <tag k="tiger:name_base_2" v="State Highway 140"/>
    <tag k="tiger:name_direction_prefix" v="N"/>
    <tag k="tiger:name_type" v="St"/>
    <tag k="tiger:reviewed" v="no"/>
    <tag k="tiger:separated" v="no"/>
    <tag k="tiger:source" v="tiger_import_dch_v0.6_20070808"/>
    <tag k="tiger:tlid" v="177949110:177912468:177912551:177911863:177955318"/>
  </way>
  <way id="27346583" version="9" timestamp="2011-11-25T16:57:34Z" uid="207745" user="NE2" changeset="9945867">
    <nd ref="35226193"/>
    <nd ref="35248704"/>
    <nd ref="35293377"/>
    <nd ref="35403451"/>
    <nd ref="35015817"/>
    <nd ref="35097326"/>
    <nd ref="35239285"/>
    <nd ref="35369532"/>
    <nd ref="35392470"/>
    <nd ref="35275490"/>
    <nd ref="35096556"/>
    <nd ref="35217420"/>
    <nd ref="35235982"/>
    <nd ref="35260715"/>
    <tag k="NHS" v="yes"/>
    <tag k="hgv" v="designated"/>
    <tag k="hgv:national_network" v="yes"/>
    <tag k="highway" v="primary"/>
    <tag k="lanes" v="2"/>
    <tag k="name" v="North G Street"/>
    <tag k="ref" v="US 395;OR 140"/>
    <tag k="source:hgv:national_network" v="Title 23: Highways Part 658 http://ecfr.gpoaccess.gov/cgi/t/text/text-idx?c=ecfr&amp;rgn=div5&amp;view=text&amp;node=23:1.0.1.7.33&amp;idno=23"/>
    <tag k="tiger:cfcc" v="A21"/>
    <tag k="tiger:county" v="Lake, OR"/>
    <tag k="tiger:name_base" v="G"/>
    <tag k="tiger:name_base_1" v="United States Highway 395"/>
    <tag k="tiger:name_base_2" v="State Highway 140"/>
    <tag k="tiger:name_direction_prefix" v="N"/>
    <tag k="tiger:name_type" v="St"/>
    <tag k="tiger:reviewed" v="no"/>
    <tag k="tiger:separated" v="no"/>
    <tag k="tiger:source" v="tiger_import_dch_v0.6_20070808"/>
    <tag k="tiger:tlid" v="177949110:177912468:177912551:177911863:177955318"/>
  </way>
  <way id="27346584" version="2" timestamp="2010-03-22T05:42:48Z" uid="20587" user="balrog-kun" changeset="4199043">
    <nd ref="35224928"/>
    <nd ref="35060666"/>
    <nd ref="35018652"/>
    <nd ref="35003483"/>
    <nd ref="35270632"/>
    <nd ref="35253837"/>
    <tag k="created_by" v="JOSM"/>
    <tag k="highway" v="residential"/>
    <tag k="name" v="North F Street"/>
    <tag k="tiger:cfcc" v="A41"/>
    <tag k="tiger:county" v="Lake, OR"/>
    <tag k="tiger:name_base" v="F"/>
    <tag k="tiger:name_direction_prefix" v="N"/>
    <tag k="tiger:name_type" v="St"/>
    <tag k="tiger:reviewed" v="no"/>
    <tag k="tiger:separated" v="no"/>
    <tag k="tiger:source" v="tiger_import_dch_v0.6_20070808"/>
    <tag k="tiger:tlid" v="177911882:177955525:177955526:177911890"/>
    <tag k="tiger:zip_left" v="97630"/>
    <tag k="tiger:zip_right" v="97630"/>
  </way>
  <way id="27346586" version="4" timestamp="2010-03-22T05:42:48Z" uid="20587" user="balrog-kun" changeset="4199043">
    <nd ref="35403353"/>
    <nd ref="35386019"/>
    <nd ref="35217126"/>
    <nd ref="35058609"/>
    <nd ref="34908615"/>
    <nd ref="35375665"/>
    <nd ref="35336223"/>
    <nd ref="35366361"/>
    <nd ref="35111843"/>
    <nd ref="35328953"/>
    <nd ref="35224442"/>
    <tag k="highway" v="trunk"/>
    <tag k="name" v="South F Street"/>
    <tag k="name_1" v="United States Highway 395"/>
    <tag k="ref" v="US 395"/>
    <tag k="tiger:cfcc" v="A21"/>
    <tag k="tiger:county" v="Lake, OR"/>
    <tag k="tiger:name_base" v="F"/>
    <tag k="tiger:name_base_1" v="United States Highway 395"/>
    <tag k="tiger:name_direction_prefix" v="S"/>
    <tag k="tiger:name_type" v="St"/>
    <tag k="tiger:reviewed" v="no"/>
    <tag k="tiger:separated" v="no"/>
    <tag k="tiger:source" v="tiger_import_dch_v0.6_20070808"/>
    <tag k="tiger:tlid" v="177911998"/>
  </way>
  <way id="27346586" version="5" timestamp="2010-08-03T03:43:18Z" uid="63936" user="MojaveNC" changeset="5386422">
    <nd ref="35403353"/>
    <nd ref="35386019"/>
    <nd ref="35217126"/>
    <nd ref="35058609"/>
    <nd ref="34908615"/>
    <nd ref="35375665"/>
    <nd ref="35336223"/>
    <nd ref="35366361"/>
    <nd ref="35111843"/>
    <nd ref="35328953"/>
    <nd ref="35224442"/>
    <tag k="highway" v="primary"/>
    <tag k="name" v="South F Street"/>
    <tag k="name_1" v="United States Highway 395"/>
    <tag k="ref" v="US 395"/>
    <tag k="tiger:cfcc" v="A21"/>
    <tag k="tiger:county" v="Lake, OR"/>
    <tag k="tiger:name_base" v="F"/>
    <tag k="tiger:name_base_1" v="United States Highway 395"/>
    <tag k="tiger:name_direction_prefix" v="S"/>
    <tag k="tiger:name_type" v="St"/>
    <tag k="tiger:reviewed" v="no"/>
    <tag k="tiger:separated" v="no"/>
    <tag k="tiger:source" v="tiger_import_dch_v0.6_20070808"/>
    <tag k="tiger:tlid" v="177911998"/>
  </way>
  <way id="27346586" version="6" timestamp="2011-06-12T10:13:46Z" uid="207745" user="NE2" changeset="8413596">
    <nd ref="35403353"/>
    <nd ref="35386019"/>
    <nd ref="35217126"/>
    <nd ref="35058609"/>
    <nd ref="34908615"/>
    <nd ref="35375665"/>
    <nd ref="35336223"/>
    <nd ref="35366361"/>
    <nd ref="35111843"/>
    <nd ref="35328953"/>
    <nd ref="35224442"/>
    <tag k="highway" v="primary"/>
    <tag k="lanes" v="2"/>
    <tag k="name" v="South F Street"/>
    <tag k="ref" v="US 395"/>
    <tag k="tiger:cfcc" v="A21"/>
    <tag k="tiger:county" v="Lake, OR"/>
    <tag k="tiger:name_base" v="F"/>
    <tag k="tiger:name_base_1" v="United States Highway 395"/>
    <tag k="tiger:name_direction_prefix" v="S"/>
    <tag k="tiger:name_type" v="St"/>
    <tag k="tiger:reviewed" v="no"/>
    <tag k="tiger:separated" v="no"/>
    <tag k="tiger:source" v="tiger_import_dch_v0.6_20070808"/>
    <tag k="tiger:tlid" v="177911998"/>
  </way>
  <way id="27346586" version="7" timestamp="2011-07-06T23:34:59Z" uid="473471" user="NE3" changeset="8653193">
    <nd ref="35403353"/>
    <nd ref="35386019"/>
    <nd ref="35217126"/>
    <nd ref="35058609"/>
    <nd ref="34908615"/>
    <nd ref="35375665"/>
    <nd ref="35336223"/>
    <nd ref="35366361"/>
    <nd ref="35111843"/>
    <nd ref="35328953"/>
    <nd ref="35224442"/>
    <tag k="NHS" v="yes"/>
    <tag k="highway" v="primary"/>
    <tag k="lanes" v="2"/>
    <tag k="name" v="South F Street"/>
    <tag k="ref" v="US 395"/>
    <tag k="tiger:cfcc" v="A21"/>
    <tag k="tiger:county" v="Lake, OR"/>
    <tag k="tiger:name_base" v="F"/>
    <tag k="tiger:name_base_1" v="United States Highway 395"/>
    <tag k="tiger:name_direction_prefix" v="S"/>
    <tag k="tiger:name_type" v="St"/>
    <tag k="tiger:reviewed" v="no"/>
    <tag k="tiger:separated" v="no"/>
    <tag k="tiger:source" v="tiger_import_dch_v0.6_20070808"/>
    <tag k="tiger:tlid" v="177911998"/>
  </way>
  <way id="27346586" version="8" timestamp="2011-11-25T17:25:42Z" uid="207745" user="NE2" changeset="9945867">
    <nd ref="35403353"/>
    <nd ref="35386019"/>
    <nd ref="35217126"/>
    <nd ref="35058609"/>
    <nd ref="34908615"/>
    <nd ref="35375665"/>
    <nd ref="35336223"/>
    <nd ref="35366361"/>
    <nd ref="35111843"/>
    <nd ref="35328953"/>
    <nd ref="35224442"/>
    <tag k="NHS" v="yes"/>
    <tag k="hgv" v="designated"/>
    <tag k="hgv:national_network" v="yes"/>
    <tag k="highway" v="primary"/>
    <tag k="lanes" v="2"/>
    <tag k="name" v="South F Street"/>
    <tag k="ref" v="US 395"/>
    <tag k="source:hgv:national_network" v="Title 23: Highways Part 658 http://ecfr.gpoaccess.gov/cgi/t/text/text-idx?c=ecfr&amp;rgn=div5&amp;view=text&amp;node=23:1.0.1.7.33&amp;idno=23"/>
    <tag k="tiger:cfcc" v="A21"/>
    <tag k="tiger:county" v="Lake, OR"/>
    <tag k="tiger:name_base" v="F"/>
    <tag k="tiger:name_base_1" v="United States Highway 395"/>
    <tag k="tiger:name_direction_prefix" v="S"/>
    <tag k="tiger:name_type" v="St"/>
    <tag k="tiger:reviewed" v="no"/>
    <tag k="tiger:separated" v="no"/>
    <tag k="tiger:source" v="tiger_import_dch_v0.6_20070808"/>
    <tag k="tiger:tlid" v="177911998"/>
  </way>
  <way id="27346587" version="2" timestamp="2010-03-22T05:42:50Z" uid="20587" user="balrog-kun" changeset="4199043">
    <nd ref="35075551"/>
    <nd ref="35020196"/>
    <nd ref="35370612"/>
    <nd ref="34949590"/>
    <nd ref="35051844"/>
    <nd ref="35118026"/>
    <nd ref="35082574"/>
    <nd ref="35189003"/>
    <nd ref="35248340"/>
    <tag k="created_by" v="JOSM"/>
    <tag k="highway" v="residential"/>
    <tag k="name" v="South G Street"/>
    <tag k="tiger:cfcc" v="A41"/>
    <tag k="tiger:county" v="Lake, OR"/>
    <tag k="tiger:name_base" v="G"/>
    <tag k="tiger:name_direction_prefix" v="S"/>
    <tag k="tiger:name_type" v="St"/>
    <tag k="tiger:reviewed" v="no"/>
    <tag k="tiger:separated" v="no"/>
    <tag k="tiger:source" v="tiger_import_dch_v0.6_20070808"/>
    <tag k="tiger:tlid" v="177912059:177912064:177912071:177912074:177912278:177912048"/>
    <tag k="tiger:zip_left" v="97630"/>
    <tag k="tiger:zip_right" v="97630"/>
  </way>
  <way id="27346623" version="1" timestamp="2008-09-27T04:27:10Z" uid="4467" user="Rosscoe" changeset="705949">
    <nd ref="300213311"/>
    <nd ref="300213312"/>
    <nd ref="300213313"/>
    <nd ref="300213314"/>
    <nd ref="300213315"/>
    <nd ref="300213316"/>
    <nd ref="300213317"/>
    <nd ref="300213318"/>
    <nd ref="300213319"/>
    <nd ref="300213320"/>
    <nd ref="300213321"/>
    <nd ref="300213322"/>
    <nd ref="300213323"/>
    <nd ref="300213324"/>
    <nd ref="300213325"/>
    <nd ref="300213326"/>
    <nd ref="300213327"/>
    <nd ref="300213328"/>
    <nd ref="300213329"/>
    <nd ref="300213330"/>
    <nd ref="300213332"/>
    <nd ref="300213333"/>
    <nd ref="300213334"/>
    <nd ref="300213335"/>
    <nd ref="300213336"/>
    <nd ref="300213337"/>
    <nd ref="300213338"/>
    <nd ref="300213339"/>
    <nd ref="300213340"/>
    <nd ref="300213341"/>
    <nd ref="300213342"/>
    <nd ref="300213343"/>
    <nd ref="300213344"/>
    <tag k="created_by" v="Potlatch 0.10c"/>
    <tag k="waterway" v="river"/>
  </way>
  <way id="27346623" version="2" timestamp="2008-09-27T04:27:48Z" uid="4467" user="Rosscoe" changeset="705949">
    <nd ref="300213311"/>
    <nd ref="300213312"/>
    <nd ref="300213313"/>
    <nd ref="300213314"/>
    <nd ref="300213315"/>
    <nd ref="300213316"/>
    <nd ref="300213317"/>
    <nd ref="300213318"/>
    <nd ref="300213319"/>
    <nd ref="300213320"/>
    <nd ref="300213321"/>
    <nd ref="300213322"/>
    <nd ref="300213323"/>
    <nd ref="300213324"/>
    <nd ref="300213325"/>
    <nd ref="300213326"/>
    <nd ref="300213327"/>
    <nd ref="300213328"/>
    <nd ref="300213329"/>
    <nd ref="300213330"/>
    <nd ref="300213332"/>
    <nd ref="300213333"/>
    <nd ref="300213334"/>
    <nd ref="300213335"/>
    <nd ref="300213336"/>
    <nd ref="300213337"/>
    <nd ref="300213338"/>
    <nd ref="300213339"/>
    <nd ref="300213340"/>
    <nd ref="300213341"/>
    <nd ref="300213342"/>
    <nd ref="300213343"/>
    <nd ref="300213344"/>
    <tag k="created_by" v="Potlatch 0.10c"/>
    <tag k="source" v="yahoo"/>
    <tag k="waterway" v="river"/>
  </way>
  <way id="27346623" version="3" timestamp="2009-06-05T01:20:05Z" uid="4467" user="Rosscoe" changeset="1425611">
    <nd ref="300213311"/>
    <nd ref="300213312"/>
    <nd ref="300213313"/>
    <nd ref="415837268"/>
    <nd ref="300213314"/>
    <nd ref="300213315"/>
    <nd ref="300213316"/>
    <nd ref="300213317"/>
    <nd ref="300213318"/>
    <nd ref="300213319"/>
    <nd ref="300213320"/>
    <nd ref="300213321"/>
    <nd ref="300213322"/>
    <nd ref="300213323"/>
    <nd ref="300213324"/>
    <nd ref="300213325"/>
    <nd ref="300213326"/>
    <nd ref="300213327"/>
    <nd ref="300213328"/>
    <nd ref="300213329"/>
    <nd ref="300213330"/>
    <nd ref="300213332"/>
    <nd ref="300213333"/>
    <nd ref="300213334"/>
    <nd ref="300213335"/>
    <nd ref="300213336"/>
    <nd ref="300213337"/>
    <nd ref="300213338"/>
    <nd ref="300213339"/>
    <nd ref="300213340"/>
    <nd ref="300213341"/>
    <nd ref="300213342"/>
    <nd ref="300213343"/>
    <nd ref="300213344"/>
    <tag k="created_by" v="Potlatch 0.10c"/>
    <tag k="source" v="yahoo"/>
    <tag k="waterway" v="river"/>
  </way>
  <way id="27346634" version="9" timestamp="2010-07-09T17:28:29Z" uid="74617" user="JohnSmith" changeset="5175333">
    <nd ref="300214363"/>
    <nd ref="456868746"/>
    <nd ref="300214403"/>
    <nd ref="559571208"/>
    <nd ref="559571210"/>
    <nd ref="300214364"/>
    <tag k="highway" v="residential"/>
    <tag k="maxspeed" v="50"/>
    <tag k="maxspeed:source" v="default residential speed limit in Australia"/>
    <tag k="name" v="Manning Street"/>
  </way>
  <way id="27346634" version="10" timestamp="2012-01-17T06:08:05Z" uid="147510" user="woodpeck_fixbot" changeset="10414499">
    <nd ref="300214363"/>
    <nd ref="456868746"/>
    <nd ref="300214403"/>
    <nd ref="559571208"/>
    <nd ref="559571210"/>
    <nd ref="300214364"/>
    <tag k="highway" v="residential"/>
    <tag k="name" v="Manning Street"/>
  </way>
  <way id="27346662" version="3" timestamp="2010-03-22T12:46:33Z" uid="74617" user="JohnSmith" changeset="4202042">
    <nd ref="356911898"/>
    <nd ref="300213420"/>
    <nd ref="300213418"/>
    <nd ref="300213416"/>
    <nd ref="300213413"/>
    <nd ref="300213410"/>
    <nd ref="300213407"/>
    <nd ref="300213405"/>
    <nd ref="300213403"/>
    <nd ref="300213412"/>
    <nd ref="300213402"/>
    <nd ref="300213397"/>
    <nd ref="300213399"/>
    <nd ref="356911869"/>
    <tag k="admin_level" v="10"/>
    <tag k="attribution" v="Based on Australian Bureau of Statistics data"/>
    <tag k="boundary" v="administrative"/>
    <tag k="highway" v="unclassified"/>
    <tag k="maxspeed" v="100"/>
    <tag k="name" v="Brooks Road"/>
    <tag k="source" v="survey"/>
    <tag k="source_ref:name" v="http://osm.beldin.org/dscf1955.jpg;http://osm.beldin.org/dscf1958.jpg"/>
    <tag k="source_ref:surface" v="http://osm.beldin.org/dscf1952.jpg"/>
    <tag k="surface" v="unpaved"/>
  </way>
  <way id="27346700" version="2" timestamp="2009-12-22T06:36:06Z" uid="7617" user="Franc" changeset="3424999"/>
  <way id="27346701" version="2" timestamp="2009-12-22T06:36:04Z" uid="7617" user="Franc" changeset="3424999">
    <nd ref="300214584"/>
    <nd ref="598056266"/>
    <nd ref="79733049"/>
    <tag k="highway" v="service"/>
    <tag k="name" v="Willoughby Lane"/>
    <tag k="oneway" v="yes"/>
    <tag k="source" v="yahoo_imagery"/>
    <tag k="source:name" v="historical"/>
  </way>
  <way id="27346701" version="3" timestamp="2010-06-21T11:04:51Z" uid="69319" user="Rhubarb" changeset="5041660">
    <nd ref="300214584"/>
    <nd ref="598056266"/>
    <tag k="highway" v="service"/>
    <tag k="name" v="Willoughby Lane"/>
    <tag k="oneway" v="yes"/>
    <tag k="source" v="yahoo_imagery"/>
    <tag k="source:name" v="historical"/>
  </way>
  <way id="27346703" version="2" timestamp="2009-12-22T06:36:05Z" uid="7617" user="Franc" changeset="3424999">
    <nd ref="300214585"/>
    <nd ref="300214586"/>
    <tag k="highway" v="pedestrian"/>
  </way>
  <way id="27346703" version="3" timestamp="2010-06-21T11:04:53Z" uid="69319" user="Rhubarb" changeset="5041660"/>
  <way id="27346704" version="2" timestamp="2009-12-22T06:36:05Z" uid="7617" user="Franc" changeset="3424999">
    <nd ref="79766273"/>
    <nd ref="598056268"/>
    <nd ref="300214585"/>
    <tag k="highway" v="service"/>
    <tag k="name" v="Zig Zag Lane"/>
    <tag k="oneway" v="yes"/>
  </way>
  <way id="27346707" version="5" timestamp="2010-07-09T17:20:03Z" uid="74617" user="JohnSmith" changeset="5175333">
    <nd ref="300214633"/>
    <nd ref="571490681"/>
    <nd ref="300214363"/>
    <nd ref="300214634"/>
    <nd ref="571490682"/>
    <nd ref="300214635"/>
    <tag k="highway" v="residential"/>
    <tag k="maxspeed" v="50"/>
    <tag k="maxspeed:source" v="default residential speed limit in Australia"/>
    <tag k="name" v="Jameson Street"/>
  </way>
  <way id="27346707" version="6" timestamp="2010-10-03T02:15:53Z" uid="134344" user="Andrew Gregory" changeset="5940884">
    <nd ref="300214633"/>
    <nd ref="936104589"/>
    <nd ref="571490681"/>
    <nd ref="300214363"/>
    <nd ref="300214634"/>
    <nd ref="571490682"/>
    <nd ref="300214635"/>
    <tag k="highway" v="residential"/>
    <tag k="maxspeed" v="50"/>
    <tag k="maxspeed:source" v="default residential speed limit in Australia"/>
    <tag k="name" v="Jameson Street"/>
  </way>
  <way id="27346707" version="7" timestamp="2012-01-17T06:08:07Z" uid="147510" user="woodpeck_fixbot" changeset="10414499">
    <nd ref="300214633"/>
    <nd ref="936104589"/>
    <nd ref="571490681"/>
    <nd ref="300214363"/>
    <nd ref="300214634"/>
    <nd ref="571490682"/>
    <nd ref="300214635"/>
    <tag k="highway" v="residential"/>
    <tag k="name" v="Jameson Street"/>
  </way>
  <way id="27346713" version="8" timestamp="2010-07-09T17:27:54Z" uid="74617" user="JohnSmith" changeset="5175333">
    <nd ref="48727402"/>
    <nd ref="571490685"/>
    <nd ref="336181203"/>
    <nd ref="300214633"/>
    <nd ref="559571191"/>
    <nd ref="300214749"/>
    <tag k="highway" v="residential"/>
    <tag k="maxspeed" v="50"/>
    <tag k="maxspeed:source" v="default residential speed limit in Australia"/>
    <tag k="name" v="Palmerston Street"/>
  </way>
  <way id="27346713" version="9" timestamp="2012-01-09T17:07:39Z" uid="142807" user="SDavies" changeset="10343688">
    <nd ref="48727402"/>
    <nd ref="571490685"/>
    <nd ref="336181203"/>
    <nd ref="300214633"/>
    <nd ref="559571191"/>
    <nd ref="300214749"/>
    <tag k="highway" v="tertiary"/>
    <tag k="maxspeed" v="50"/>
    <tag k="maxspeed:source" v="default residential speed limit in Australia"/>
    <tag k="name" v="Palmerston Street"/>
  </way>
  <way id="27346713" version="10" timestamp="2012-01-17T06:08:08Z" uid="147510" user="woodpeck_fixbot" changeset="10414499">
    <nd ref="48727402"/>
    <nd ref="571490685"/>
    <nd ref="336181203"/>
    <nd ref="300214633"/>
    <nd ref="559571191"/>
    <nd ref="300214749"/>
    <tag k="highway" v="tertiary"/>
    <tag k="name" v="Palmerston Street"/>
  </way>
  <way id="27346716" version="4" timestamp="2010-07-09T17:25:14Z" uid="74617" user="JohnSmith" changeset="5175333">
    <nd ref="300214774"/>
    <nd ref="559578399"/>
    <nd ref="48727375"/>
    <tag k="highway" v="residential"/>
    <tag k="maxspeed" v="50"/>
    <tag k="maxspeed:source" v="default residential speed limit in Australia"/>
    <tag k="name" v="Bateman Street"/>
  </way>
  <way id="27346716" version="5" timestamp="2010-10-10T14:22:54Z" uid="134344" user="Andrew Gregory" changeset="6002582">
    <nd ref="300214774"/>
    <nd ref="559578399"/>
    <nd ref="48727375"/>
    <nd ref="708501030"/>
    <tag k="highway" v="residential"/>
    <tag k="maxspeed" v="50"/>
    <tag k="maxspeed:source" v="default residential speed limit in Australia"/>
    <tag k="name" v="Bateman Street"/>
  </way>
  <way id="27346716" version="6" timestamp="2011-09-09T13:34:43Z" uid="215053" user="Richard Stallard" changeset="9254331">
    <nd ref="300214774"/>
    <nd ref="559578399"/>
    <nd ref="48727375"/>
    <tag k="highway" v="residential"/>
    <tag k="maxspeed" v="50"/>
    <tag k="maxspeed:source" v="default residential speed limit in Australia"/>
    <tag k="name" v="Bateman Street"/>
  </way>
  <way id="27346716" version="7" timestamp="2012-01-17T06:08:09Z" uid="147510" user="woodpeck_fixbot" changeset="10414499">
    <nd ref="300214774"/>
    <nd ref="559578399"/>
    <nd ref="48727375"/>
    <tag k="highway" v="residential"/>
    <tag k="name" v="Bateman Street"/>
  </way>
  <way id="27346718" version="5" timestamp="2010-07-09T17:28:23Z" uid="74617" user="JohnSmith" changeset="5175333">
    <nd ref="300214772"/>
    <nd ref="708501170"/>
    <nd ref="559578397"/>
    <nd ref="300214773"/>
    <nd ref="300214774"/>
    <tag k="highway" v="residential"/>
    <tag k="maxspeed" v="50"/>
    <tag k="maxspeed:source" v="default residential speed limit in Australia"/>
    <tag k="name" v="Marshall Street"/>
  </way>
  <way id="27346718" version="6" timestamp="2010-10-10T14:22:58Z" uid="134344" user="Andrew Gregory" changeset="6002582">
    <nd ref="300214763"/>
    <nd ref="300214764"/>
    <nd ref="300214765"/>
    <nd ref="300214766"/>
    <nd ref="300214767"/>
    <nd ref="300214768"/>
    <nd ref="300214769"/>
    <nd ref="300214770"/>
    <nd ref="300214771"/>
    <nd ref="300214772"/>
    <nd ref="708501170"/>
    <tag k="highway" v="residential"/>
    <tag k="maxspeed" v="50"/>
    <tag k="maxspeed:source" v="default residential speed limit in Australia"/>
    <tag k="name" v="Downey Street"/>
  </way>
  <way id="27346718" version="7" timestamp="2011-09-09T13:34:43Z" uid="215053" user="Richard Stallard" changeset="9254331">
    <nd ref="300214763"/>
    <nd ref="300214764"/>
    <tag k="highway" v="residential"/>
    <tag k="maxspeed" v="50"/>
    <tag k="maxspeed:source" v="default residential speed limit in Australia"/>
    <tag k="name" v="Downey Street"/>
  </way>
  <way id="27346718" version="8" timestamp="2012-01-17T06:08:11Z" uid="147510" user="woodpeck_fixbot" changeset="10414499">
    <nd ref="300214763"/>
    <nd ref="300214764"/>
    <tag k="highway" v="residential"/>
    <tag k="name" v="Downey Street"/>
  </way>
  <way id="27346719" version="3" timestamp="2010-07-09T17:21:53Z" uid="74617" user="JohnSmith" changeset="5175333">
    <nd ref="300214758"/>
    <nd ref="300214759"/>
    <nd ref="300214760"/>
    <nd ref="300214761"/>
    <nd ref="300214762"/>
    <nd ref="300214763"/>
    <nd ref="300214764"/>
    <nd ref="300214765"/>
    <nd ref="300214766"/>
    <nd ref="300214767"/>
    <nd ref="300214768"/>
    <nd ref="300214769"/>
    <nd ref="300214770"/>
    <nd ref="300214771"/>
    <nd ref="300214772"/>
    <tag k="highway" v="residential"/>
    <tag k="maxspeed" v="50"/>
    <tag k="maxspeed:source" v="default residential speed limit in Australia"/>
    <tag k="name" v="Downey Street"/>
  </way>
  <way id="27346719" version="4" timestamp="2010-10-10T14:22:47Z" uid="134344" user="Andrew Gregory" changeset="6002582">
    <nd ref="300214758"/>
    <nd ref="300214759"/>
    <nd ref="300214760"/>
    <nd ref="300214761"/>
    <nd ref="943980985"/>
    <tag k="highway" v="residential"/>
    <tag k="maxspeed" v="50"/>
    <tag k="maxspeed:source" v="default residential speed limit in Australia"/>
    <tag k="name" v="Downey Street"/>
  </way>
  <way id="27346719" version="5" timestamp="2012-01-17T06:08:12Z" uid="147510" user="woodpeck_fixbot" changeset="10414499">
    <nd ref="300214758"/>
    <nd ref="300214759"/>
    <nd ref="300214760"/>
    <nd ref="300214761"/>
    <nd ref="943980985"/>
    <tag k="highway" v="residential"/>
    <tag k="name" v="Downey Street"/>
  </way>
  <way id="27346727" version="3" timestamp="2009-12-22T06:36:05Z" uid="7617" user="Franc" changeset="3424999">
    <nd ref="79767804"/>
    <nd ref="79767810"/>
    <nd ref="598056265"/>
    <nd ref="300214847"/>
    <tag k="highway" v="service"/>
    <tag k="source" v="nearmap"/>
  </way>
  <way id="27346727" version="4" timestamp="2010-01-16T03:35:45Z" uid="69319" user="Rhubarb" changeset="3629163">
    <nd ref="79767804"/>
    <nd ref="79767810"/>
    <nd ref="598056265"/>
    <nd ref="300214847"/>
    <tag k="highway" v="service"/>
    <tag k="name" v="Zig Zag Lane"/>
    <tag k="source" v="nearmap"/>
  </way>
  <way id="27346728" version="2" timestamp="2009-12-22T06:36:05Z" uid="7617" user="Franc" changeset="3424999">
    <nd ref="300214847"/>
    <nd ref="598056267"/>
    <nd ref="300214846"/>
    <tag k="highway" v="footway"/>
  </way>
  <way id="27346728" version="3" timestamp="2010-01-16T03:35:45Z" uid="69319" user="Rhubarb" changeset="3629163">
    <nd ref="300214847"/>
    <nd ref="598056267"/>
    <nd ref="300214846"/>
    <tag k="highway" v="footway"/>
    <tag k="name" v="Zig Zag Lane"/>
  </way>
  <way id="27346801" version="1" timestamp="2008-09-27T05:07:30Z" uid="7617" user="Franc" changeset="703319">
    <nd ref="300215750"/>
    <nd ref="300215752"/>
    <tag k="bridge" v="yes"/>
    <tag k="created_by" v="Potlatch alpha"/>
    <tag k="highway" v="trunk"/>
    <tag k="layer" v="1"/>
    <tag k="name" v="Parramatta Road"/>
    <tag k="oneway" v="yes"/>
    <tag k="ref" v="MR4"/>
  </way>
  <way id="27346801" version="2" timestamp="2009-12-26T17:01:02Z" uid="12203" user="brainwad" changeset="3455356">
    <nd ref="300215750"/>
    <nd ref="300215752"/>
    <tag k="bridge" v="yes"/>
    <tag k="highway" v="trunk"/>
    <tag k="lanes" v="3"/>
    <tag k="layer" v="1"/>
    <tag k="maxspeed" v="60"/>
    <tag k="name" v="Parramatta Road"/>
    <tag k="oneway" v="yes"/>
    <tag k="ref" v="MR4"/>
  </way>
  <way id="27346801" version="3" timestamp="2010-04-01T12:28:49Z" uid="74617" user="JohnSmith" changeset="4293399">
    <nd ref="300215750"/>
    <nd ref="300215752"/>
    <tag k="bridge" v="yes"/>
    <tag k="highway" v="trunk"/>
    <tag k="lanes" v="3"/>
    <tag k="layer" v="1"/>
    <tag k="maxspeed" v="60"/>
    <tag k="oneway" v="yes"/>
  </way>
  <way id="27346801" version="4" timestamp="2010-06-30T08:02:36Z" uid="299678" user="peteramjet" changeset="5111489">
    <nd ref="300215750"/>
    <nd ref="300215752"/>
    <tag k="bridge" v="yes"/>
    <tag k="highway" v="trunk"/>
    <tag k="lanes" v="3"/>
    <tag k="layer" v="1"/>
    <tag k="maxspeed" v="60"/>
    <tag k="name" v="Parramatta Road"/>
    <tag k="oneway" v="yes"/>
    <tag k="ref" v="MR4"/>
  </way>
  <way id="27346801" version="5" timestamp="2010-07-09T22:59:50Z" uid="299678" user="peteramjet" changeset="5177814">
    <nd ref="300215750"/>
    <nd ref="300215752"/>
    <tag k="bridge" v="yes"/>
    <tag k="highway" v="trunk"/>
    <tag k="lanes" v="3"/>
    <tag k="layer" v="1"/>
    <tag k="maxspeed" v="60"/>
    <tag k="name" v="Parramatta Road"/>
    <tag k="oneway" v="yes"/>
  </way>
  <way id="27346801" version="6" timestamp="2012-01-31T05:52:58Z" uid="54784" user="Tom Hollander" changeset="10546288">
    <nd ref="300215750"/>
    <nd ref="300215752"/>
    <tag k="bridge" v="yes"/>
    <tag k="highway" v="trunk"/>
    <tag k="lanes" v="3"/>
    <tag k="layer" v="1"/>
    <tag k="maxspeed" v="60"/>
    <tag k="name" v="Parramatta Road"/>
    <tag k="oneway" v="yes"/>
    <tag k="ref" v="MR4"/>
  </way>
  <way id="27346802" version="1" timestamp="2008-09-27T05:07:31Z" uid="7617" user="Franc" changeset="703319">
    <nd ref="300215764"/>
    <nd ref="37809674"/>
    <nd ref="37811224"/>
    <nd ref="161318669"/>
    <nd ref="37809499"/>
    <nd ref="37809446"/>
    <tag k="created_by" v="Potlatch 0.7"/>
    <tag k="highway" v="residential"/>
    <tag k="name" v="Lang Street"/>
    <tag k="source" v="survey"/>
  </way>
  <way id="27346802" version="2" timestamp="2010-01-13T10:17:04Z" uid="30201" user="rrankin" changeset="3608813">
    <nd ref="300215764"/>
    <nd ref="37809674"/>
    <nd ref="37811224"/>
    <nd ref="612865773"/>
    <tag k="highway" v="residential"/>
    <tag k="name" v="Lang Street"/>
    <tag k="source" v="survey"/>
  </way>
  <way id="27346802" version="3" timestamp="2010-07-08T02:38:10Z" uid="74617" user="JohnSmith" changeset="5163091">
    <nd ref="300215764"/>
    <nd ref="37809674"/>
    <nd ref="37811224"/>
    <nd ref="612865773"/>
    <tag k="highway" v="residential"/>
    <tag k="maxspeed" v="50"/>
    <tag k="maxspeed:source" v="default residential speed limit in Australia"/>
    <tag k="name" v="Lang Street"/>
    <tag k="source" v="survey"/>
  </way>
  <way id="27346802" version="4" timestamp="2012-01-17T06:08:13Z" uid="147510" user="woodpeck_fixbot" changeset="10414499">
    <nd ref="300215764"/>
    <nd ref="37809674"/>
    <nd ref="37811224"/>
    <nd ref="612865773"/>
    <tag k="highway" v="residential"/>
    <tag k="name" v="Lang Street"/>
    <tag k="source" v="survey"/>
  </way>
  <way id="27346803" version="1" timestamp="2008-09-27T05:07:32Z" uid="7617" user="Franc" changeset="703319">
    <nd ref="300215759"/>
    <nd ref="258982179"/>
    <nd ref="191520526"/>
    <nd ref="191520544"/>
    <nd ref="191520486"/>
    <nd ref="191520500"/>
    <nd ref="191520514"/>
    <tag k="created_by" v="Potlatch 0.7a"/>
    <tag k="highway" v="residential"/>
    <tag k="name" v="Royce Avenue"/>
    <tag k="source" v="yahoo_imagery"/>
  </way>
  <way id="27346803" version="2" timestamp="2010-07-08T02:39:47Z" uid="74617" user="JohnSmith" changeset="5163091">
    <nd ref="300215759"/>
    <nd ref="258982179"/>
    <nd ref="191520526"/>
    <nd ref="191520544"/>
    <nd ref="191520486"/>
    <nd ref="191520500"/>
    <nd ref="191520514"/>
    <tag k="highway" v="residential"/>
    <tag k="maxspeed" v="50"/>
    <tag k="maxspeed:source" v="default residential speed limit in Australia"/>
    <tag k="name" v="Royce Avenue"/>
    <tag k="source" v="yahoo_imagery"/>
  </way>
  <way id="27346803" version="3" timestamp="2012-01-17T06:08:15Z" uid="147510" user="woodpeck_fixbot" changeset="10414499">
    <nd ref="300215759"/>
    <nd ref="258982179"/>
    <nd ref="191520526"/>
    <nd ref="191520544"/>
    <nd ref="191520486"/>
    <nd ref="191520500"/>
    <nd ref="191520514"/>
    <tag k="highway" v="residential"/>
    <tag k="name" v="Royce Avenue"/>
    <tag k="source" v="yahoo_imagery"/>
  </way>
  <way id="27346804" version="1" timestamp="2008-09-27T05:07:33Z" uid="7617" user="Franc" changeset="703319">
    <nd ref="300215772"/>
    <nd ref="300215775"/>
    <nd ref="300215774"/>
    <nd ref="300215776"/>
    <nd ref="300215781"/>
    <nd ref="300215802"/>
    <nd ref="300215779"/>
    <nd ref="300215778"/>
    <nd ref="300215777"/>
    <nd ref="300215773"/>
    <tag k="created_by" v="Potlatch alpha"/>
    <tag k="highway" v="trunk"/>
    <tag k="name" v="Parramatta Road"/>
    <tag k="oneway" v="yes"/>
    <tag k="ref" v="MR4"/>
  </way>
  <way id="27346804" version="2" timestamp="2009-12-26T16:55:59Z" uid="12203" user="brainwad" changeset="3455356">
    <nd ref="300215772"/>
    <nd ref="300215775"/>
    <nd ref="300215774"/>
    <nd ref="300215776"/>
    <nd ref="300215781"/>
    <nd ref="300215802"/>
    <nd ref="300215779"/>
    <nd ref="300215778"/>
    <nd ref="300215777"/>
    <nd ref="300215773"/>
    <tag k="highway" v="trunk"/>
    <tag k="maxspeed" v="60"/>
    <tag k="name" v="Parramatta Road"/>
    <tag k="oneway" v="yes"/>
    <tag k="ref" v="MR4"/>
  </way>
  <way id="27346804" version="3" timestamp="2009-12-26T16:56:37Z" uid="12203" user="brainwad" changeset="3455356">
    <nd ref="300215772"/>
    <nd ref="300215775"/>
    <nd ref="300215774"/>
    <nd ref="300215776"/>
    <nd ref="300215781"/>
    <nd ref="300215802"/>
    <nd ref="300215779"/>
    <nd ref="300215778"/>
    <nd ref="300215777"/>
    <nd ref="300215773"/>
    <tag k="highway" v="trunk"/>
    <tag k="lanes" v="3"/>
    <tag k="maxspeed" v="60"/>
    <tag k="name" v="Parramatta Road"/>
    <tag k="oneway" v="yes"/>
    <tag k="ref" v="MR4"/>
  </way>
  <way id="27346804" version="4" timestamp="2010-04-01T12:23:29Z" uid="74617" user="JohnSmith" changeset="4293399">
    <nd ref="300215772"/>
    <nd ref="300215775"/>
    <nd ref="300215774"/>
    <nd ref="300215776"/>
    <nd ref="300215781"/>
    <nd ref="300215802"/>
    <nd ref="300215779"/>
    <nd ref="300215778"/>
    <nd ref="300215777"/>
    <nd ref="300215773"/>
    <tag k="highway" v="trunk"/>
    <tag k="lanes" v="3"/>
    <tag k="maxspeed" v="60"/>
    <tag k="name" v="Parramatta Road"/>
    <tag k="oneway" v="yes"/>
  </way>
  <way id="27346804" version="5" timestamp="2010-06-30T08:03:34Z" uid="299678" user="peteramjet" changeset="5111489">
    <nd ref="300215772"/>
    <nd ref="300215775"/>
    <nd ref="300215774"/>
    <nd ref="300215776"/>
    <nd ref="300215781"/>
    <nd ref="300215802"/>
    <nd ref="300215779"/>
    <nd ref="300215778"/>
    <nd ref="300215777"/>
    <nd ref="300215773"/>
    <tag k="highway" v="trunk"/>
    <tag k="lanes" v="3"/>
    <tag k="maxspeed" v="60"/>
    <tag k="name" v="Parramatta Road"/>
    <tag k="oneway" v="yes"/>
    <tag k="ref" v="MR4"/>
  </way>
  <way id="27346804" version="6" timestamp="2010-07-09T22:59:47Z" uid="299678" user="peteramjet" changeset="5177814">
    <nd ref="300215772"/>
    <nd ref="300215775"/>
    <nd ref="300215774"/>
    <nd ref="300215776"/>
    <nd ref="300215781"/>
    <nd ref="300215802"/>
    <nd ref="300215779"/>
    <nd ref="300215778"/>
    <nd ref="300215777"/>
    <nd ref="300215773"/>
    <tag k="highway" v="trunk"/>
    <tag k="lanes" v="3"/>
    <tag k="maxspeed" v="60"/>
    <tag k="name" v="Parramatta Road"/>
    <tag k="oneway" v="yes"/>
  </way>
  <way id="27346804" version="7" timestamp="2011-06-19T12:54:55Z" uid="7617" user="Franc" changeset="8483675">
    <nd ref="300215772"/>
    <nd ref="300215775"/>
    <nd ref="300215774"/>
    <nd ref="300215776"/>
    <nd ref="300215781"/>
    <nd ref="300215802"/>
    <tag k="highway" v="trunk"/>
    <tag k="lanes" v="3"/>
    <tag k="maxspeed" v="60"/>
    <tag k="name" v="Parramatta Road"/>
    <tag k="oneway" v="yes"/>
  </way>
  <way id="27346804" version="8" timestamp="2012-01-31T05:36:43Z" uid="54784" user="Tom Hollander" changeset="10546288">
    <nd ref="300215772"/>
    <nd ref="300215775"/>
    <nd ref="300215774"/>
    <nd ref="300215776"/>
    <nd ref="300215781"/>
    <nd ref="300215802"/>
    <tag k="highway" v="trunk"/>
    <tag k="lanes" v="3"/>
    <tag k="maxspeed" v="60"/>
    <tag k="name" v="Parramatta Road"/>
    <tag k="oneway" v="yes"/>
    <tag k="ref" v="MR4"/>
  </way>
  <way id="27346805" version="1" timestamp="2008-09-27T05:07:34Z" uid="7617" user="Franc" changeset="703319">
    <nd ref="300215788"/>
    <nd ref="300215802"/>
    <nd ref="300215795"/>
    <tag k="highway" v="unclassified"/>
    <tag k="source" v="yahoo_imagery"/>
  </way>
  <way id="27346805" version="2" timestamp="2008-10-02T06:41:13Z" uid="7617" user="Franc" changeset="23906">
    <nd ref="300215788"/>
    <nd ref="300215802"/>
    <nd ref="300215795"/>
    <tag k="highway" v="unclassified"/>
    <tag k="name" v="Luke Avenue"/>
    <tag k="source" v="yahoo_imagery"/>
    <tag k="source:name" v="survey"/>
  </way>
  <way id="27346805" version="3" timestamp="2011-02-01T03:19:31Z" uid="30201" user="rrankin" changeset="7151434">
    <nd ref="82456093"/>
    <nd ref="1130480162"/>
    <nd ref="1130480160"/>
    <nd ref="300215788"/>
    <tag k="highway" v="footway"/>
    <tag k="source" v="nearmap"/>
  </way>
  <way id="27346806" version="1" timestamp="2008-09-27T05:07:35Z" uid="7617" user="Franc" changeset="703319">
    <nd ref="300215752"/>
    <nd ref="300215753"/>
    <nd ref="300215767"/>
    <nd ref="300215771"/>
    <nd ref="300215754"/>
    <nd ref="300215770"/>
    <nd ref="300215766"/>
    <nd ref="300215755"/>
    <nd ref="300215756"/>
    <nd ref="300215765"/>
    <nd ref="300215764"/>
    <nd ref="300215763"/>
    <nd ref="300215762"/>
    <nd ref="300215761"/>
    <nd ref="300215758"/>
    <nd ref="300215760"/>
    <nd ref="300215759"/>
    <nd ref="300215772"/>
    <tag k="created_by" v="Potlatch alpha"/>
    <tag k="highway" v="trunk"/>
    <tag k="name" v="Parramatta Road"/>
    <tag k="oneway" v="yes"/>
    <tag k="ref" v="MR4"/>
  </way>
  <way id="27346806" version="2" timestamp="2009-12-26T17:00:24Z" uid="12203" user="brainwad" changeset="3455356">
    <nd ref="300215752"/>
    <nd ref="300215753"/>
    <nd ref="300215767"/>
    <nd ref="300215771"/>
    <nd ref="300215754"/>
    <nd ref="300215770"/>
    <nd ref="300215766"/>
    <nd ref="300215755"/>
    <nd ref="300215756"/>
    <nd ref="300215765"/>
    <nd ref="300215764"/>
    <nd ref="300215763"/>
    <nd ref="300215762"/>
    <nd ref="300215761"/>
    <nd ref="300215758"/>
    <nd ref="300215760"/>
    <nd ref="300215759"/>
    <nd ref="300215772"/>
    <tag k="highway" v="trunk"/>
    <tag k="lanes" v="3"/>
    <tag k="maxspeed" v="60"/>
    <tag k="name" v="Parramatta Road"/>
    <tag k="oneway" v="yes"/>
    <tag k="ref" v="MR4"/>
  </way>
  <way id="27346806" version="3" timestamp="2010-02-22T02:27:16Z" uid="7617" user="Franc" changeset="3940549">
    <nd ref="300215752"/>
    <nd ref="300215753"/>
    <nd ref="300215767"/>
    <nd ref="300215771"/>
    <nd ref="300215754"/>
    <nd ref="300215770"/>
    <nd ref="300215766"/>
    <nd ref="649985380"/>
    <nd ref="300215755"/>
    <tag k="highway" v="trunk"/>
    <tag k="lanes" v="3"/>
    <tag k="maxspeed" v="60"/>
    <tag k="name" v="Parramatta Road"/>
    <tag k="oneway" v="yes"/>
    <tag k="ref" v="MR4"/>
  </way>
  <way id="27346806" version="4" timestamp="2010-04-01T12:28:49Z" uid="74617" user="JohnSmith" changeset="4293399">
    <nd ref="300215752"/>
    <nd ref="300215753"/>
    <nd ref="300215767"/>
    <nd ref="300215771"/>
    <nd ref="300215754"/>
    <nd ref="300215770"/>
    <nd ref="300215766"/>
    <nd ref="649985380"/>
    <nd ref="300215755"/>
    <tag k="highway" v="trunk"/>
    <tag k="lanes" v="3"/>
    <tag k="maxspeed" v="60"/>
    <tag k="name" v="Parramatta Road"/>
    <tag k="oneway" v="yes"/>
  </way>
  <way id="27346806" version="5" timestamp="2010-06-30T08:02:36Z" uid="299678" user="peteramjet" changeset="5111489">
    <nd ref="300215752"/>
    <nd ref="300215753"/>
    <nd ref="300215767"/>
    <nd ref="300215771"/>
    <nd ref="300215754"/>
    <nd ref="300215770"/>
    <nd ref="300215766"/>
    <nd ref="649985380"/>
    <nd ref="300215755"/>
    <tag k="highway" v="trunk"/>
    <tag k="lanes" v="3"/>
    <tag k="maxspeed" v="60"/>
    <tag k="name" v="Parramatta Road"/>
    <tag k="oneway" v="yes"/>
    <tag k="ref" v="MR4"/>
  </way>
  <way id="27346806" version="6" timestamp="2010-07-09T22:59:50Z" uid="299678" user="peteramjet" changeset="5177814">
    <nd ref="300215752"/>
    <nd ref="300215753"/>
    <nd ref="300215767"/>
    <nd ref="300215771"/>
    <nd ref="300215754"/>
    <nd ref="300215770"/>
    <nd ref="300215766"/>
    <nd ref="649985380"/>
    <nd ref="300215755"/>
    <tag k="highway" v="trunk"/>
    <tag k="lanes" v="3"/>
    <tag k="maxspeed" v="60"/>
    <tag k="name" v="Parramatta Road"/>
    <tag k="oneway" v="yes"/>
  </way>
  <way id="27346806" version="7" timestamp="2011-06-19T12:27:33Z" uid="7617" user="Franc" changeset="8483425">
    <nd ref="300215752"/>
    <nd ref="300215753"/>
    <tag k="highway" v="trunk"/>
    <tag k="lanes" v="3"/>
    <tag k="maxspeed" v="60"/>
    <tag k="name" v="Parramatta Road"/>
    <tag k="oneway" v="yes"/>
  </way>
  <way id="27346806" version="8" timestamp="2012-01-31T05:36:44Z" uid="54784" user="Tom Hollander" changeset="10546288">
    <nd ref="300215752"/>
    <nd ref="300215753"/>
    <tag k="highway" v="trunk"/>
    <tag k="lanes" v="3"/>
    <tag k="maxspeed" v="60"/>
    <tag k="name" v="Parramatta Road"/>
    <tag k="oneway" v="yes"/>
    <tag k="ref" v="MR4"/>
  </way>
  <way id="27346807" version="1" timestamp="2008-09-27T05:07:36Z" uid="7617" user="Franc" changeset="703319">
    <nd ref="300215773"/>
    <nd ref="20166435"/>
    <tag k="created_by" v="Potlatch 0.6a"/>
    <tag k="highway" v="secondary"/>
  </way>
  <way id="27346807" version="2" timestamp="2010-07-27T05:04:04Z" uid="4467" user="Rosscoe" changeset="5326202"/>
  <way id="27346808" version="1" timestamp="2008-09-27T05:07:37Z" uid="7617" user="Franc" changeset="703319">
    <nd ref="20146963"/>
    <nd ref="20146970"/>
    <nd ref="262970674"/>
    <nd ref="20146973"/>
    <tag k="created_by" v="Potlatch 0.9"/>
    <tag k="highway" v="primary"/>
    <tag k="name" v="Parramatta Road"/>
    <tag k="ref" v="S44"/>
  </way>
  <way id="27346808" version="2" timestamp="2009-04-24T23:58:02Z" uid="7617" user="Franc" changeset="935084">
    <nd ref="20146963"/>
    <nd ref="384016945"/>
    <nd ref="20146970"/>
    <nd ref="262970674"/>
    <nd ref="20146973"/>
    <tag k="created_by" v="Potlatch 0.9"/>
    <tag k="highway" v="primary"/>
    <tag k="name" v="Parramatta Road"/>
    <tag k="ref" v="S44"/>
  </way>
  <way id="27346808" version="3" timestamp="2009-12-16T06:00:47Z" uid="30201" user="rrankin" changeset="3384624">
    <nd ref="20146963"/>
    <nd ref="384016945"/>
    <nd ref="20146970"/>
    <tag k="highway" v="primary"/>
    <tag k="name" v="Parramatta Road"/>
    <tag k="ref" v="S44"/>
  </way>
  <way id="27346808" version="4" timestamp="2009-12-27T15:15:11Z" uid="12203" user="brainwad" changeset="3463581">
    <nd ref="20146963"/>
    <nd ref="384016945"/>
    <nd ref="20146970"/>
    <tag k="highway" v="primary"/>
    <tag k="maxspeed" v="60"/>
    <tag k="name" v="Parramatta Road"/>
    <tag k="ref" v="S44"/>
  </way>
  <way id="27346808" version="5" timestamp="2010-01-23T12:53:02Z" uid="74617" user="JohnSmith" changeset="3691269">
    <nd ref="20146963"/>
    <nd ref="384016945"/>
    <nd ref="618647160"/>
    <nd ref="618647159"/>
    <nd ref="618647162"/>
    <nd ref="20146970"/>
    <tag k="highway" v="primary"/>
    <tag k="maxspeed" v="60"/>
    <tag k="name" v="Parramatta Road"/>
    <tag k="ref" v="S44"/>
  </way>
  <way id="27346808" version="6" timestamp="2010-04-01T17:05:19Z" uid="74617" user="JohnSmith" changeset="4295590">
    <nd ref="20146963"/>
    <nd ref="384016945"/>
    <nd ref="618647160"/>
    <nd ref="618647159"/>
    <nd ref="618647162"/>
    <nd ref="20146970"/>
    <tag k="highway" v="primary"/>
    <tag k="maxspeed" v="60"/>
    <tag k="name" v="Parramatta Road"/>
  </way>
  <way id="27346809" version="1" timestamp="2008-09-27T05:07:38Z" uid="7617" user="Franc" changeset="703319">
    <nd ref="20146963"/>
    <nd ref="300215810"/>
    <nd ref="82399163"/>
    <nd ref="241531185"/>
    <nd ref="300215848"/>
    <nd ref="20146956"/>
    <tag k="created_by" v="Potlatch 0.9"/>
    <tag k="highway" v="primary"/>
    <tag k="name" v="Parramatta Road"/>
    <tag k="oneway" v="yes"/>
    <tag k="ref" v="S44"/>
  </way>
  <way id="27346809" version="2" timestamp="2009-12-26T16:57:51Z" uid="12203" user="brainwad" changeset="3455356">
    <nd ref="20146963"/>
    <nd ref="300215810"/>
    <nd ref="82399163"/>
    <nd ref="241531185"/>
    <nd ref="300215848"/>
    <nd ref="20146956"/>
    <tag k="highway" v="primary"/>
    <tag k="lanes" v="2"/>
    <tag k="maxspeed" v="60"/>
    <tag k="name" v="Parramatta Road"/>
    <tag k="oneway" v="yes"/>
    <tag k="ref" v="S44"/>
  </way>
  <way id="27346809" version="3" timestamp="2010-04-01T17:05:19Z" uid="74617" user="JohnSmith" changeset="4295590">
    <nd ref="20146963"/>
    <nd ref="300215810"/>
    <nd ref="82399163"/>
    <nd ref="241531185"/>
    <nd ref="300215848"/>
    <nd ref="20146956"/>
    <tag k="highway" v="primary"/>
    <tag k="lanes" v="2"/>
    <tag k="maxspeed" v="60"/>
    <tag k="name" v="Parramatta Road"/>
    <tag k="oneway" v="yes"/>
  </way>
  <way id="27346809" version="4" timestamp="2011-06-19T12:54:53Z" uid="7617" user="Franc" changeset="8483675">
    <nd ref="20146963"/>
    <nd ref="300215810"/>
    <nd ref="82399163"/>
    <nd ref="241531185"/>
    <nd ref="300215848"/>
    <tag k="highway" v="primary"/>
    <tag k="lanes" v="2"/>
    <tag k="maxspeed" v="60"/>
    <tag k="name" v="Parramatta Road"/>
    <tag k="oneway" v="yes"/>
  </way>
  <way id="27346810" version="1" timestamp="2008-09-27T05:07:38Z" uid="7617" user="Franc" changeset="703319">
    <nd ref="300215818"/>
    <nd ref="300215832"/>
    <nd ref="300215840"/>
    <nd ref="300215825"/>
    <nd ref="20146963"/>
    <tag k="created_by" v="Potlatch 0.9"/>
    <tag k="highway" v="primary"/>
    <tag k="name" v="Parramatta Road"/>
    <tag k="oneway" v="yes"/>
    <tag k="ref" v="S44"/>
  </way>
  <way id="27346810" version="2" timestamp="2009-12-26T16:58:12Z" uid="12203" user="brainwad" changeset="3455356">
    <nd ref="300215818"/>
    <nd ref="300215832"/>
    <nd ref="300215840"/>
    <nd ref="300215825"/>
    <nd ref="20146963"/>
    <tag k="highway" v="primary"/>
    <tag k="lanes" v="2"/>
    <tag k="maxspeed" v="60"/>
    <tag k="name" v="Parramatta Road"/>
    <tag k="oneway" v="yes"/>
    <tag k="ref" v="S44"/>
  </way>
  <way id="27346810" version="3" timestamp="2010-04-01T17:05:19Z" uid="74617" user="JohnSmith" changeset="4295590">
    <nd ref="300215818"/>
    <nd ref="300215832"/>
    <nd ref="300215840"/>
    <nd ref="300215825"/>
    <nd ref="20146963"/>
    <tag k="highway" v="primary"/>
    <tag k="lanes" v="2"/>
    <tag k="maxspeed" v="60"/>
    <tag k="name" v="Parramatta Road"/>
    <tag k="oneway" v="yes"/>
  </way>
  <way id="27346811" version="1" timestamp="2008-09-27T05:07:39Z" uid="7617" user="Franc" changeset="703319">
    <nd ref="300215925"/>
    <nd ref="200079075"/>
    <nd ref="286949812"/>
    <nd ref="199683421"/>
    <nd ref="199699033"/>
    <nd ref="199683518"/>
    <nd ref="199682523"/>
    <nd ref="199680831"/>
    <tag k="created_by" v="Potlatch 0.6"/>
    <tag k="highway" v="residential"/>
    <tag k="name" v="Park Road"/>
  </way>
  <way id="27346811" version="2" timestamp="2008-10-02T11:58:04Z" uid="7617" user="Franc" changeset="29883">
    <nd ref="300215925"/>
    <nd ref="200079075"/>
    <nd ref="286949812"/>
    <nd ref="199683421"/>
    <nd ref="199699033"/>
    <nd ref="199683518"/>
    <nd ref="199682523"/>
    <nd ref="301556129"/>
    <nd ref="199680831"/>
    <tag k="created_by" v="Potlatch 0.6"/>
    <tag k="highway" v="residential"/>
    <tag k="name" v="Park Road"/>
  </way>
  <way id="27346811" version="3" timestamp="2008-10-02T12:33:39Z" uid="7617" user="Franc" changeset="29883">
    <nd ref="300215925"/>
    <nd ref="301563249"/>
    <nd ref="200079075"/>
    <nd ref="286949812"/>
    <nd ref="199683421"/>
    <nd ref="199699033"/>
    <nd ref="199683518"/>
    <nd ref="199682523"/>
    <nd ref="301556129"/>
    <nd ref="199680831"/>
    <tag k="created_by" v="Potlatch 0.6"/>
    <tag k="highway" v="residential"/>
    <tag k="name" v="Park Road"/>
  </way>
  <way id="27346811" version="4" timestamp="2010-02-06T00:12:39Z" uid="30201" user="rrankin" changeset="3801878">
    <nd ref="300215925"/>
    <nd ref="301563249"/>
    <nd ref="631221518"/>
    <nd ref="200079075"/>
    <nd ref="286949812"/>
    <nd ref="199683421"/>
    <nd ref="199699033"/>
    <nd ref="199683518"/>
    <nd ref="199682523"/>
    <nd ref="301556129"/>
    <nd ref="199680831"/>
    <tag k="highway" v="residential"/>
    <tag k="name" v="Park Road"/>
  </way>
  <way id="27346811" version="5" timestamp="2010-02-15T15:03:38Z" uid="7617" user="Franc" changeset="3883877">
    <nd ref="300215925"/>
    <nd ref="639778313"/>
    <nd ref="639778305"/>
    <nd ref="639778308"/>
    <nd ref="639778310"/>
    <nd ref="301563249"/>
    <nd ref="631221518"/>
    <nd ref="200079075"/>
    <nd ref="639778294"/>
    <tag k="highway" v="residential"/>
    <tag k="name" v="Park Road"/>
    <tag k="restriction" v="school_zone"/>
  </way>
  <way id="27346811" version="6" timestamp="2010-06-12T22:48:58Z" uid="20949" user="Ebenezer" changeset="4974689">
    <nd ref="300215925"/>
    <nd ref="770718387"/>
    <nd ref="639778313"/>
    <nd ref="639778305"/>
    <nd ref="639778308"/>
    <nd ref="639778310"/>
    <nd ref="301563249"/>
    <nd ref="631221518"/>
    <nd ref="200079075"/>
    <nd ref="639778294"/>
    <tag k="highway" v="residential"/>
    <tag k="name" v="Park Road"/>
    <tag k="restriction" v="school_zone"/>
  </way>
  <way id="27346811" version="7" timestamp="2010-07-08T02:37:19Z" uid="74617" user="JohnSmith" changeset="5163091">
    <nd ref="300215925"/>
    <nd ref="770718387"/>
    <nd ref="639778313"/>
    <nd ref="639778305"/>
    <nd ref="639778308"/>
    <nd ref="639778310"/>
    <nd ref="301563249"/>
    <nd ref="631221518"/>
    <nd ref="200079075"/>
    <nd ref="639778294"/>
    <tag k="highway" v="residential"/>
    <tag k="maxspeed" v="50"/>
    <tag k="maxspeed:source" v="default residential speed limit in Australia"/>
    <tag k="name" v="Park Road"/>
    <tag k="restriction" v="school_zone"/>
  </way>
  <way id="27346811" version="8" timestamp="2012-01-17T06:08:17Z" uid="147510" user="woodpeck_fixbot" changeset="10414499">
    <nd ref="300215925"/>
    <nd ref="770718387"/>
    <nd ref="639778313"/>
    <nd ref="639778305"/>
    <nd ref="639778308"/>
    <nd ref="639778310"/>
    <nd ref="301563249"/>
    <nd ref="631221518"/>
    <nd ref="200079075"/>
    <nd ref="639778294"/>
    <tag k="highway" v="residential"/>
    <tag k="name" v="Park Road"/>
    <tag k="restriction" v="school_zone"/>
  </way>
  <way id="27346812" version="1" timestamp="2008-09-27T05:07:40Z" uid="7617" user="Franc" changeset="703319">
    <nd ref="300215917"/>
    <nd ref="31427913"/>
    <tag k="created_by" v="Potlatch 0.6"/>
    <tag k="highway" v="residential"/>
    <tag k="name" v="Grantham Street"/>
  </way>
  <way id="27346812" version="2" timestamp="2010-02-15T15:03:38Z" uid="7617" user="Franc" changeset="3883877">
    <nd ref="300215917"/>
    <nd ref="639778296"/>
    <nd ref="31427913"/>
    <tag k="highway" v="residential"/>
    <tag k="name" v="Grantham Street"/>
  </way>
  <way id="27346812" version="3" timestamp="2010-06-12T22:48:59Z" uid="20949" user="Ebenezer" changeset="4974689">
    <nd ref="300215917"/>
    <nd ref="770718379"/>
    <nd ref="770718407"/>
    <nd ref="639778296"/>
    <nd ref="31427913"/>
    <tag k="highway" v="residential"/>
    <tag k="lcn" v="yes"/>
    <tag k="name" v="Grantham Street"/>
  </way>
  <way id="27346812" version="4" timestamp="2010-07-08T02:37:51Z" uid="74617" user="JohnSmith" changeset="5163091">
    <nd ref="300215917"/>
    <nd ref="770718379"/>
    <nd ref="770718407"/>
    <nd ref="639778296"/>
    <nd ref="31427913"/>
    <tag k="highway" v="residential"/>
    <tag k="lcn" v="yes"/>
    <tag k="maxspeed" v="50"/>
    <tag k="maxspeed:source" v="default residential speed limit in Australia"/>
    <tag k="name" v="Grantham Street"/>
  </way>
  <way id="27346812" version="5" timestamp="2012-01-17T06:08:19Z" uid="147510" user="woodpeck_fixbot" changeset="10414499">
    <nd ref="300215917"/>
    <nd ref="770718379"/>
    <nd ref="770718407"/>
    <nd ref="639778296"/>
    <nd ref="31427913"/>
    <tag k="highway" v="residential"/>
    <tag k="lcn" v="yes"/>
    <tag k="name" v="Grantham Street"/>
  </way>
  <way id="27346956" version="2" timestamp="2010-07-09T04:12:02Z" uid="74617" user="JohnSmith" changeset="5170825">
    <nd ref="292539539"/>
    <nd ref="300216731"/>
    <tag k="highway" v="residential"/>
    <tag k="maxspeed" v="50"/>
    <tag k="maxspeed:source" v="default residential speed limit in Australia"/>
    <tag k="name" v="Yardie Court"/>
    <tag k="source" v="survey"/>
  </way>
  <way id="27346956" version="3" timestamp="2012-01-17T06:08:22Z" uid="147510" user="woodpeck_fixbot" changeset="10414499">
    <nd ref="292539539"/>
    <nd ref="300216731"/>
    <tag k="highway" v="residential"/>
    <tag k="name" v="Yardie Court"/>
    <tag k="source" v="survey"/>
  </way>
  <way id="27346957" version="2" timestamp="2010-07-09T04:08:41Z" uid="74617" user="JohnSmith" changeset="5170825">
    <nd ref="292539579"/>
    <nd ref="300216732"/>
    <tag k="highway" v="residential"/>
    <tag k="maxspeed" v="50"/>
    <tag k="maxspeed:source" v="default residential speed limit in Australia"/>
    <tag k="name" v="Beckett Court"/>
    <tag k="source" v="survey"/>
  </way>
  <way id="27346957" version="3" timestamp="2012-01-17T06:08:23Z" uid="147510" user="woodpeck_fixbot" changeset="10414499">
    <nd ref="292539579"/>
    <nd ref="300216732"/>
    <tag k="highway" v="residential"/>
    <tag k="name" v="Beckett Court"/>
    <tag k="source" v="survey"/>
  </way>
  <way id="27346958" version="4" timestamp="2010-07-09T04:05:13Z" uid="74617" user="JohnSmith" changeset="5170825">
    <nd ref="292539541"/>
    <nd ref="300216733"/>
    <nd ref="300216734"/>
    <tag k="highway" v="residential"/>
    <tag k="maxspeed" v="50"/>
    <tag k="maxspeed:source" v="default residential speed limit in Australia"/>
    <tag k="name" v="Bolton Street"/>
    <tag k="source" v="survey"/>
    <tag k="surface" v="unpaved"/>
    <tag k="tracktype" v="grade2"/>
  </way>
  <way id="27346958" version="5" timestamp="2012-01-17T06:08:25Z" uid="147510" user="woodpeck_fixbot" changeset="10414499">
    <nd ref="292539541"/>
    <nd ref="300216733"/>
    <nd ref="300216734"/>
    <tag k="highway" v="residential"/>
    <tag k="name" v="Bolton Street"/>
    <tag k="source" v="survey"/>
    <tag k="surface" v="unpaved"/>
    <tag k="tracktype" v="grade2"/>
  </way>
  <way id="27346959" version="4" timestamp="2010-07-09T04:01:55Z" uid="74617" user="JohnSmith" changeset="5170825">
    <nd ref="300216733"/>
    <nd ref="300216735"/>
    <tag k="highway" v="residential"/>
    <tag k="maxspeed" v="50"/>
    <tag k="maxspeed:source" v="default residential speed limit in Australia"/>
    <tag k="name" v="Geoffrey Court"/>
    <tag k="source" v="survey"/>
    <tag k="surface" v="unpaved"/>
    <tag k="tracktype" v="grade2"/>
  </way>
  <way id="27346959" version="5" timestamp="2012-01-17T06:08:26Z" uid="147510" user="woodpeck_fixbot" changeset="10414499">
    <nd ref="300216733"/>
    <nd ref="300216735"/>
    <tag k="highway" v="residential"/>
    <tag k="name" v="Geoffrey Court"/>
    <tag k="source" v="survey"/>
    <tag k="surface" v="unpaved"/>
    <tag k="tracktype" v="grade2"/>
  </way>
  <way id="27346960" version="3" timestamp="2010-07-09T04:08:18Z" uid="74617" user="JohnSmith" changeset="5170825">
    <nd ref="292539531"/>
    <nd ref="300216738"/>
    <nd ref="300216737"/>
    <nd ref="300216736"/>
    <tag k="highway" v="residential"/>
    <tag k="maxspeed" v="50"/>
    <tag k="maxspeed:source" v="default residential speed limit in Australia"/>
    <tag k="name" v="Rangeview Road"/>
    <tag k="source" v="survey"/>
  </way>
  <way id="27346960" version="4" timestamp="2012-01-17T06:08:28Z" uid="147510" user="woodpeck_fixbot" changeset="10414499">
    <nd ref="292539531"/>
    <nd ref="300216738"/>
    <nd ref="300216737"/>
    <nd ref="300216736"/>
    <tag k="highway" v="residential"/>
    <tag k="name" v="Rangeview Road"/>
    <tag k="source" v="survey"/>
  </way>
  <way id="27346962" version="2" timestamp="2010-07-09T04:01:33Z" uid="74617" user="JohnSmith" changeset="5170825">
    <nd ref="292459356"/>
    <nd ref="300216745"/>
    <nd ref="300216746"/>
    <nd ref="300216750"/>
    <nd ref="300216754"/>
    <nd ref="300216757"/>
    <tag k="highway" v="residential"/>
    <tag k="maxspeed" v="50"/>
    <tag k="maxspeed:source" v="default residential speed limit in Australia"/>
    <tag k="name" v="Yarra Hill Close"/>
    <tag k="source" v="survey"/>
  </way>
  <way id="27346962" version="3" timestamp="2012-01-17T06:08:30Z" uid="147510" user="woodpeck_fixbot" changeset="10414499">
    <nd ref="292459356"/>
    <nd ref="300216745"/>
    <nd ref="300216746"/>
    <nd ref="300216750"/>
    <nd ref="300216754"/>
    <nd ref="300216757"/>
    <tag k="highway" v="residential"/>
    <tag k="name" v="Yarra Hill Close"/>
    <tag k="source" v="survey"/>
  </way>
  <way id="27346963" version="2" timestamp="2010-07-09T04:13:59Z" uid="74617" user="JohnSmith" changeset="5170825">
    <nd ref="300216758"/>
    <nd ref="300216759"/>
    <tag k="highway" v="residential"/>
    <tag k="maxspeed" v="50"/>
    <tag k="maxspeed:source" v="default residential speed limit in Australia"/>
    <tag k="name" v="Riverhill Drive"/>
    <tag k="source" v="survey"/>
  </way>
  <way id="27346963" version="3" timestamp="2012-01-17T06:08:31Z" uid="147510" user="woodpeck_fixbot" changeset="10414499">
    <nd ref="300216758"/>
    <nd ref="300216759"/>
    <tag k="highway" v="residential"/>
    <tag k="name" v="Riverhill Drive"/>
    <tag k="source" v="survey"/>
  </way>
  <way id="27346964" version="2" timestamp="2010-07-09T04:10:48Z" uid="74617" user="JohnSmith" changeset="5170825">
    <nd ref="300216763"/>
    <nd ref="300216760"/>
    <nd ref="300216761"/>
    <nd ref="300216762"/>
    <tag k="highway" v="residential"/>
    <tag k="maxspeed" v="50"/>
    <tag k="maxspeed:source" v="default residential speed limit in Australia"/>
    <tag k="name" v="Karafili Way"/>
    <tag k="source" v="survey"/>
  </way>
  <way id="27346964" version="3" timestamp="2012-01-17T06:08:33Z" uid="147510" user="woodpeck_fixbot" changeset="10414499">
    <nd ref="300216763"/>
    <nd ref="300216760"/>
    <nd ref="300216761"/>
    <nd ref="300216762"/>
    <tag k="highway" v="residential"/>
    <tag k="name" v="Karafili Way"/>
    <tag k="source" v="survey"/>
  </way>
  <way id="27346965" version="2" timestamp="2010-07-09T04:07:23Z" uid="74617" user="JohnSmith" changeset="5170825">
    <nd ref="282156999"/>
    <nd ref="300216764"/>
    <nd ref="300216765"/>
    <tag k="highway" v="residential"/>
    <tag k="maxspeed" v="50"/>
    <tag k="maxspeed:source" v="default residential speed limit in Australia"/>
    <tag k="name" v="Lynwood Crescent"/>
    <tag k="source" v="survey"/>
  </way>
  <way id="27346965" version="3" timestamp="2011-12-12T08:03:14Z" uid="69319" user="Rhubarb" changeset="10096582">
    <nd ref="282156999"/>
    <nd ref="1541952080"/>
    <nd ref="300216764"/>
    <nd ref="1541952048"/>
    <nd ref="300216765"/>
    <tag k="highway" v="residential"/>
    <tag k="maxspeed" v="50"/>
    <tag k="maxspeed:source" v="default residential speed limit in Australia"/>
    <tag k="name" v="Lynwood Crescent"/>
    <tag k="source" v="survey"/>
  </way>
  <way id="27346965" version="4" timestamp="2012-01-17T06:08:35Z" uid="147510" user="woodpeck_fixbot" changeset="10414499">
    <nd ref="282156999"/>
    <nd ref="1541952080"/>
    <nd ref="300216764"/>
    <nd ref="1541952048"/>
    <nd ref="300216765"/>
    <tag k="highway" v="residential"/>
    <tag k="name" v="Lynwood Crescent"/>
    <tag k="source" v="survey"/>
  </way>
  <way id="27346966" version="2" timestamp="2010-07-09T04:03:48Z" uid="74617" user="JohnSmith" changeset="5170825">
    <nd ref="282156830"/>
    <nd ref="300216766"/>
    <tag k="highway" v="residential"/>
    <tag k="maxspeed" v="50"/>
    <tag k="maxspeed:source" v="default residential speed limit in Australia"/>
    <tag k="name" v="Gwenda Court"/>
    <tag k="source" v="survey"/>
  </way>
  <way id="27346966" version="3" timestamp="2011-12-12T08:03:13Z" uid="69319" user="Rhubarb" changeset="10096582">
    <nd ref="282156830"/>
    <nd ref="1541951984"/>
    <nd ref="300216766"/>
    <tag k="highway" v="residential"/>
    <tag k="maxspeed" v="50"/>
    <tag k="maxspeed:source" v="default residential speed limit in Australia"/>
    <tag k="name" v="Gwenda Court"/>
    <tag k="source" v="survey"/>
  </way>
  <way id="27346966" version="4" timestamp="2012-01-17T06:08:36Z" uid="147510" user="woodpeck_fixbot" changeset="10414499">
    <nd ref="282156830"/>
    <nd ref="1541951984"/>
    <nd ref="300216766"/>
    <tag k="highway" v="residential"/>
    <tag k="name" v="Gwenda Court"/>
    <tag k="source" v="survey"/>
  </way>
  <way id="27346967" version="3" timestamp="2010-07-09T04:00:25Z" uid="74617" user="JohnSmith" changeset="5170825">
    <nd ref="300216771"/>
    <nd ref="300216767"/>
    <tag k="highway" v="residential"/>
    <tag k="maxspeed" v="50"/>
    <tag k="maxspeed:source" v="default residential speed limit in Australia"/>
    <tag k="name" v="Symes Street"/>
    <tag k="source" v="survey"/>
  </way>
  <way id="27346967" version="4" timestamp="2012-01-17T06:08:39Z" uid="147510" user="woodpeck_fixbot" changeset="10414499">
    <nd ref="300216771"/>
    <nd ref="300216767"/>
    <tag k="highway" v="residential"/>
    <tag k="name" v="Symes Street"/>
    <tag k="source" v="survey"/>
  </way>
  <way id="27346968" version="3" timestamp="2010-07-09T04:03:13Z" uid="74617" user="JohnSmith" changeset="5170825">
    <nd ref="300216767"/>
    <nd ref="300216768"/>
    <nd ref="300216769"/>
    <tag k="highway" v="residential"/>
    <tag k="maxspeed" v="50"/>
    <tag k="maxspeed:source" v="default residential speed limit in Australia"/>
    <tag k="name" v="Philip Street"/>
    <tag k="source" v="survey"/>
  </way>
  <way id="27346968" version="4" timestamp="2012-01-17T06:08:40Z" uid="147510" user="woodpeck_fixbot" changeset="10414499">
    <nd ref="300216767"/>
    <nd ref="300216768"/>
    <nd ref="300216769"/>
    <tag k="highway" v="residential"/>
    <tag k="name" v="Philip Street"/>
    <tag k="source" v="survey"/>
  </way>
  <way id="27346969" version="2" timestamp="2010-07-09T03:59:16Z" uid="74617" user="JohnSmith" changeset="5170825">
    <nd ref="282156839"/>
    <nd ref="300216770"/>
    <tag k="highway" v="residential"/>
    <tag k="maxspeed" v="50"/>
    <tag k="maxspeed:source" v="default residential speed limit in Australia"/>
    <tag k="name" v="Philip Street"/>
    <tag k="source" v="survey"/>
  </way>
  <way id="27346969" version="3" timestamp="2011-12-12T08:03:16Z" uid="69319" user="Rhubarb" changeset="10096582">
    <nd ref="282156839"/>
    <nd ref="1541951992"/>
    <nd ref="300216770"/>
    <tag k="highway" v="residential"/>
    <tag k="maxspeed" v="50"/>
    <tag k="maxspeed:source" v="default residential speed limit in Australia"/>
    <tag k="name" v="Philip Street"/>
    <tag k="source" v="survey"/>
  </way>
  <way id="27346969" version="4" timestamp="2012-01-17T06:08:41Z" uid="147510" user="woodpeck_fixbot" changeset="10414499">
    <nd ref="282156839"/>
    <nd ref="1541951992"/>
    <nd ref="300216770"/>
    <tag k="highway" v="residential"/>
    <tag k="name" v="Philip Street"/>
    <tag k="source" v="survey"/>
  </way>
  <way id="27346971" version="2" timestamp="2010-07-09T04:09:23Z" uid="74617" user="JohnSmith" changeset="5170825">
    <nd ref="292538905"/>
    <nd ref="300216774"/>
    <tag k="highway" v="residential"/>
    <tag k="maxspeed" v="50"/>
    <tag k="maxspeed:source" v="default residential speed limit in Australia"/>
    <tag k="name" v="Gees Court"/>
    <tag k="source" v="survey"/>
  </way>
  <way id="27346971" version="3" timestamp="2011-12-12T08:03:12Z" uid="69319" user="Rhubarb" changeset="10096582">
    <nd ref="292538905"/>
    <nd ref="1541952135"/>
    <nd ref="300216774"/>
    <tag k="highway" v="residential"/>
    <tag k="maxspeed" v="50"/>
    <tag k="maxspeed:source" v="default residential speed limit in Australia"/>
    <tag k="name" v="Gees Court"/>
    <tag k="source" v="survey"/>
  </way>
  <way id="27346971" version="4" timestamp="2012-01-17T06:08:43Z" uid="147510" user="woodpeck_fixbot" changeset="10414499">
    <nd ref="292538905"/>
    <nd ref="1541952135"/>
    <nd ref="300216774"/>
    <tag k="highway" v="residential"/>
    <tag k="name" v="Gees Court"/>
    <tag k="source" v="survey"/>
  </way>
  <way id="27346972" version="3" timestamp="2010-07-09T04:05:44Z" uid="74617" user="JohnSmith" changeset="5170825">
    <nd ref="292539453"/>
    <nd ref="611591089"/>
    <nd ref="611591112"/>
    <nd ref="611591155"/>
    <nd ref="136493240"/>
    <tag k="highway" v="residential"/>
    <tag k="maxspeed" v="50"/>
    <tag k="maxspeed:source" v="default residential speed limit in Australia"/>
    <tag k="name" v="Prosperity Road"/>
    <tag k="source" v="survey"/>
  </way>
  <way id="27346972" version="4" timestamp="2011-12-12T08:37:56Z" uid="69319" user="Rhubarb" changeset="10096801">
    <nd ref="292539453"/>
    <nd ref="611591089"/>
    <nd ref="611591112"/>
    <nd ref="611591155"/>
    <nd ref="1541997547"/>
    <nd ref="136493240"/>
    <tag k="highway" v="residential"/>
    <tag k="maxspeed" v="50"/>
    <tag k="maxspeed:source" v="default residential speed limit in Australia"/>
    <tag k="name" v="Prosperity Road"/>
    <tag k="source" v="survey"/>
  </way>
  <way id="27346972" version="5" timestamp="2012-01-17T06:08:44Z" uid="147510" user="woodpeck_fixbot" changeset="10414499">
    <nd ref="292539453"/>
    <nd ref="611591089"/>
    <nd ref="611591112"/>
    <nd ref="611591155"/>
    <nd ref="1541997547"/>
    <nd ref="136493240"/>
    <tag k="highway" v="residential"/>
    <tag k="name" v="Prosperity Road"/>
    <tag k="source" v="survey"/>
  </way>
</osm>
