<?xml version='1.0' encoding='UTF-8'?>
<osm version="0.6" generator="libosmium/2.20.0">
  <way id="27464022" version="1" timestamp="2008-10-02T11:57:53Z" uid="7617" user="Franc" changeset="29883">
    <nd ref="301556134"/>
    <nd ref="301556137"/>
    <tag k="bridge" v="yes"/>
    <tag k="highway" v="footway"/>
    <tag k="layer" v="1"/>
    <tag k="source" v="yahoo_imagery"/>
  </way>
  <way id="27464022" version="2" timestamp="2009-02-10T00:55:10Z" uid="30201" user="rrankin" changeset="315226">
    <nd ref="343863729"/>
    <nd ref="343863728"/>
    <tag k="highway" v="footway"/>
    <tag k="source" v="yahoo_imagery"/>
  </way>
  <way id="27464022" version="3" timestamp="2010-01-05T12:47:26Z" uid="30201" user="rrankin" changeset="3544973"/>
  <way id="27464338" version="1" timestamp="2008-10-02T12:12:38Z" uid="7617" user="Franc" changeset="29883">
    <nd ref="301559972"/>
    <nd ref="301559974"/>
    <tag k="highway" v="service"/>
    <tag k="name" v="Britannia Lane"/>
    <tag k="source" v="survey"/>
  </way>
  <way id="27464712" version="1" timestamp="2008-10-02T12:33:19Z" uid="7617" user="Franc" changeset="29883">
    <nd ref="301563257"/>
    <nd ref="301563261"/>
    <tag k="bridge" v="yes"/>
    <tag k="highway" v="footway"/>
    <tag k="layer" v="1"/>
    <tag k="source" v="survey"/>
  </way>
  <way id="27464712" version="2" timestamp="2010-06-12T22:48:55Z" uid="20949" user="Ebenezer" changeset="4974689">
    <nd ref="301563257"/>
    <nd ref="301563261"/>
    <tag k="bicycle" v="yes"/>
    <tag k="bridge" v="yes"/>
    <tag k="highway" v="footway"/>
    <tag k="layer" v="1"/>
    <tag k="lcn" v="yes"/>
    <tag k="source" v="survey"/>
  </way>
  <way id="27464713" version="1" timestamp="2008-10-02T12:33:20Z" uid="7617" user="Franc" changeset="29883">
    <nd ref="301563266"/>
    <nd ref="301563268"/>
    <nd ref="301563269"/>
    <nd ref="301563270"/>
    <nd ref="301563271"/>
    <nd ref="301563272"/>
    <nd ref="301563266"/>
    <tag k="amenity" v="bus_station"/>
    <tag k="name" v="Sydney Bus Station ?"/>
  </way>
  <way id="27464713" version="2" timestamp="2009-09-09T12:33:09Z" uid="27043" user="The New Andy" changeset="2424819">
    <nd ref="301563266"/>
    <nd ref="301563268"/>
    <nd ref="301563269"/>
    <nd ref="301563270"/>
    <nd ref="301563271"/>
    <nd ref="301563272"/>
    <nd ref="301563266"/>
    <tag k="amenity" v="bus_station"/>
    <tag k="name" v="Burwood Bus Depot"/>
  </way>
  <way id="27464713" version="3" timestamp="2009-09-09T12:41:38Z" uid="27043" user="The New Andy" changeset="2424847">
    <nd ref="301563266"/>
    <nd ref="301563268"/>
    <nd ref="301563269"/>
    <nd ref="301563270"/>
    <nd ref="301563271"/>
    <nd ref="301563272"/>
    <nd ref="301563266"/>
    <tag k="bus_depot" v="yes"/>
    <tag k="name" v="Burwood Bus Depot"/>
  </way>
  <way id="27464713" version="4" timestamp="2010-07-27T05:03:48Z" uid="4467" user="Rosscoe" changeset="5326202">
    <nd ref="301563266"/>
    <nd ref="301563268"/>
    <nd ref="301563269"/>
    <nd ref="301563270"/>
    <nd ref="301563271"/>
    <nd ref="301563272"/>
    <nd ref="835039769"/>
    <nd ref="301563266"/>
    <tag k="amenity" v="bus_depot"/>
    <tag k="name" v="Burwood Bus Depot"/>
  </way>
  <way id="27464713" version="5" timestamp="2011-05-21T13:52:26Z" uid="7617" user="Franc" changeset="8206884">
    <nd ref="301563266"/>
    <nd ref="301563268"/>
    <nd ref="301563269"/>
    <nd ref="301563270"/>
    <nd ref="301563271"/>
    <nd ref="301563272"/>
    <nd ref="835039769"/>
    <nd ref="301563266"/>
    <tag k="amenity" v="bus_depot"/>
    <tag k="landuse" v="industrial"/>
    <tag k="name" v="Burwood Bus Depot"/>
  </way>
  <way id="27464714" version="1" timestamp="2008-10-02T12:33:21Z" uid="7617" user="Franc" changeset="29883">
    <nd ref="301563275"/>
    <nd ref="301563282"/>
    <nd ref="301563281"/>
    <nd ref="301563280"/>
    <nd ref="301563277"/>
    <nd ref="301563279"/>
    <nd ref="301563275"/>
    <tag k="amenity" v="parking"/>
    <tag k="source" v="survey"/>
  </way>
  <way id="27464773" version="1" timestamp="2008-10-02T12:37:40Z" uid="7617" user="Franc" changeset="29883">
    <nd ref="301563970"/>
    <nd ref="301563976"/>
    <tag k="highway" v="unclassified"/>
    <tag k="note" v="location deduced from photo"/>
    <tag k="source" v="survey"/>
  </way>
  <way id="27464773" version="2" timestamp="2010-02-15T15:03:42Z" uid="7617" user="Franc" changeset="3883877"/>
  <way id="27464846" version="4" timestamp="2009-08-03T13:34:26Z" uid="4467" user="Rosscoe" changeset="2025552">
    <nd ref="301564374"/>
    <nd ref="31237925"/>
    <nd ref="31237927"/>
    <nd ref="115986621"/>
    <tag k="highway" v="trunk"/>
    <tag k="lanes" v="2"/>
    <tag k="layer" v="1"/>
    <tag k="name" v="Main South Road"/>
    <tag k="oneway" v="yes"/>
    <tag k="ref" v="1"/>
  </way>
  <way id="27464846" version="5" timestamp="2011-04-26T10:28:23Z" uid="44659" user="Phil Shipley" changeset="7972973">
    <nd ref="301564374"/>
    <nd ref="31237925"/>
    <nd ref="1260600430"/>
    <nd ref="1260600428"/>
    <nd ref="1260600399"/>
    <nd ref="31237927"/>
    <nd ref="115986621"/>
    <tag k="highway" v="trunk"/>
    <tag k="lanes" v="2"/>
    <tag k="layer" v="1"/>
    <tag k="name" v="Main South Road"/>
    <tag k="oneway" v="yes"/>
    <tag k="ref" v="1"/>
  </way>
  <way id="27464846" version="6" timestamp="2011-05-21T05:16:03Z" uid="341519" user="lcmortensen" changeset="8203850">
    <nd ref="301564374"/>
    <nd ref="31237925"/>
    <nd ref="1260600430"/>
    <nd ref="1260600428"/>
    <nd ref="1260600399"/>
    <nd ref="31237927"/>
    <tag k="highway" v="trunk"/>
    <tag k="lanes" v="2"/>
    <tag k="layer" v="1"/>
    <tag k="name" v="Main South Road"/>
    <tag k="oneway" v="yes"/>
    <tag k="ref" v="1"/>
  </way>
  <way id="27464846" version="7" timestamp="2011-06-25T01:26:38Z" uid="341519" user="lcmortensen" changeset="8538539">
    <nd ref="301564374"/>
    <nd ref="31237925"/>
    <nd ref="1260600430"/>
    <nd ref="1260600428"/>
    <nd ref="1260600399"/>
    <nd ref="31237927"/>
    <tag k="highway" v="trunk"/>
    <tag k="lanes" v="2"/>
    <tag k="name" v="Main South Road"/>
    <tag k="oneway" v="yes"/>
    <tag k="ref" v="1"/>
  </way>
  <way id="27464846" version="8" timestamp="2011-12-04T03:32:37Z" uid="341519" user="lcmortensen" changeset="10029938">
    <nd ref="301564374"/>
    <nd ref="31237925"/>
    <tag k="highway" v="trunk"/>
    <tag k="lanes" v="2"/>
    <tag k="name" v="Main South Road"/>
    <tag k="oneway" v="yes"/>
    <tag k="ref" v="1"/>
  </way>
  <way id="27464846" version="9" timestamp="2012-01-25T03:55:43Z" uid="341519" user="lcmortensen" changeset="10490359">
    <nd ref="301564374"/>
    <nd ref="31237925"/>
    <tag k="highway" v="trunk"/>
    <tag k="lanes" v="2"/>
    <tag k="maxspeed" v="50"/>
    <tag k="name" v="Main South Road"/>
    <tag k="oneway" v="yes"/>
    <tag k="ref" v="1"/>
  </way>
  <way id="27464846" version="10" timestamp="2012-03-20T23:09:43Z" uid="341519" user="lcmortensen" changeset="11046879">
    <nd ref="301564374"/>
    <nd ref="31237925"/>
    <tag k="highway" v="trunk"/>
    <tag k="lanes" v="2"/>
    <tag k="maxspeed" v="50"/>
    <tag k="name" v="Main South Road"/>
    <tag k="oneway" v="yes"/>
    <tag k="ref" v="SH 1"/>
  </way>
  <way id="27464847" version="2" timestamp="2009-08-03T13:34:25Z" uid="4467" user="Rosscoe" changeset="2025552">
    <nd ref="301564359"/>
    <nd ref="301564370"/>
    <nd ref="301564373"/>
    <nd ref="301564375"/>
    <nd ref="301564379"/>
    <nd ref="301564374"/>
    <tag k="highway" v="trunk"/>
    <tag k="lanes" v="2"/>
    <tag k="name" v="Carmen Road"/>
    <tag k="oneway" v="yes"/>
    <tag k="ref" v="1"/>
  </way>
  <way id="27464847" version="3" timestamp="2009-08-19T07:27:36Z" uid="20013" user="rcr" changeset="2197939">
    <nd ref="301564359"/>
    <nd ref="301564370"/>
    <nd ref="470874899"/>
    <nd ref="301564373"/>
    <nd ref="301564375"/>
    <nd ref="301564379"/>
    <nd ref="301564374"/>
    <tag k="highway" v="trunk"/>
    <tag k="lanes" v="2"/>
    <tag k="name" v="Carmen Road"/>
    <tag k="oneway" v="yes"/>
    <tag k="ref" v="1"/>
  </way>
  <way id="27464847" version="4" timestamp="2009-08-21T08:04:35Z" uid="20013" user="rcr" changeset="2220309">
    <nd ref="301564359"/>
    <nd ref="301564370"/>
    <nd ref="470874899"/>
    <nd ref="301564373"/>
    <nd ref="301564375"/>
    <nd ref="301564379"/>
    <nd ref="301564374"/>
    <tag k="highway" v="trunk"/>
    <tag k="lanes" v="2"/>
    <tag k="maxspeed" v="50"/>
    <tag k="name" v="Carmen Road"/>
    <tag k="oneway" v="yes"/>
    <tag k="ref" v="1"/>
  </way>
  <way id="27464847" version="5" timestamp="2011-04-26T10:28:22Z" uid="44659" user="Phil Shipley" changeset="7972973">
    <nd ref="301564359"/>
    <nd ref="301564370"/>
    <nd ref="470874899"/>
    <nd ref="301564373"/>
    <nd ref="1260600389"/>
    <nd ref="1260600367"/>
    <nd ref="301564375"/>
    <nd ref="301564379"/>
    <nd ref="301564374"/>
    <tag k="highway" v="trunk"/>
    <tag k="lanes" v="2"/>
    <tag k="maxspeed" v="50"/>
    <tag k="name" v="Carmen Road"/>
    <tag k="oneway" v="yes"/>
    <tag k="ref" v="1"/>
  </way>
  <way id="27464847" version="6" timestamp="2011-04-26T10:39:08Z" uid="44659" user="Phil Shipley" changeset="7972973">
    <nd ref="301564359"/>
    <nd ref="301564370"/>
    <nd ref="1260604610"/>
    <nd ref="470874899"/>
    <nd ref="301564373"/>
    <nd ref="1260600389"/>
    <nd ref="1260600367"/>
    <nd ref="301564375"/>
    <nd ref="301564379"/>
    <nd ref="301564374"/>
    <tag k="highway" v="trunk"/>
    <tag k="lanes" v="2"/>
    <tag k="maxspeed" v="50"/>
    <tag k="name" v="Carmen Road"/>
    <tag k="oneway" v="yes"/>
    <tag k="ref" v="1"/>
  </way>
  <way id="27464847" version="7" timestamp="2011-05-21T05:16:03Z" uid="341519" user="lcmortensen" changeset="8203850">
    <nd ref="301564359"/>
    <nd ref="301564370"/>
    <nd ref="1260604610"/>
    <nd ref="470874899"/>
    <nd ref="301564373"/>
    <nd ref="1260600389"/>
    <nd ref="1260600367"/>
    <tag k="highway" v="trunk"/>
    <tag k="lanes" v="2"/>
    <tag k="maxspeed" v="50"/>
    <tag k="name" v="Carmen Road"/>
    <tag k="oneway" v="yes"/>
    <tag k="ref" v="1"/>
  </way>
  <way id="27464847" version="8" timestamp="2011-06-25T01:26:39Z" uid="341519" user="lcmortensen" changeset="8538539">
    <nd ref="301564359"/>
    <nd ref="301564370"/>
    <nd ref="1260604610"/>
    <nd ref="470874899"/>
    <nd ref="301564373"/>
    <tag k="highway" v="trunk"/>
    <tag k="lanes" v="1"/>
    <tag k="maxspeed" v="50"/>
    <tag k="name" v="Carmen Road"/>
    <tag k="oneway" v="yes"/>
    <tag k="ref" v="1"/>
  </way>
  <way id="27464847" version="9" timestamp="2012-03-08T04:31:46Z" uid="341519" user="lcmortensen" changeset="10906022">
    <nd ref="301564359"/>
    <nd ref="301564370"/>
    <nd ref="1260604610"/>
    <nd ref="470874899"/>
    <nd ref="301564373"/>
    <tag k="highway" v="trunk"/>
    <tag k="lanes" v="1"/>
    <tag k="maxspeed" v="50"/>
    <tag k="name" v="Carmen Road"/>
    <tag k="oneway" v="yes"/>
    <tag k="proposed:lanes" v="2"/>
    <tag k="ref" v="SH 1"/>
  </way>
  <way id="27464847" version="10" timestamp="2012-03-18T04:42:36Z" uid="341519" user="lcmortensen" changeset="11014832">
    <nd ref="301564359"/>
    <nd ref="301564370"/>
    <nd ref="1260604610"/>
    <nd ref="470874899"/>
    <nd ref="301564373"/>
    <tag k="construction:lanes" v="2"/>
    <tag k="highway" v="trunk"/>
    <tag k="lanes" v="1"/>
    <tag k="maxspeed" v="50"/>
    <tag k="name" v="Carmen Road"/>
    <tag k="oneway" v="yes"/>
    <tag k="ref" v="SH 1"/>
  </way>
  <way id="27464851" version="2" timestamp="2009-08-03T13:34:25Z" uid="4467" user="Rosscoe" changeset="2025552">
    <nd ref="133006624"/>
    <nd ref="133006625"/>
    <nd ref="133006626"/>
    <nd ref="31237925"/>
    <tag k="highway" v="secondary"/>
    <tag k="lanes" v="2"/>
    <tag k="name" v="Shands Road"/>
    <tag k="oneway" v="yes"/>
  </way>
  <way id="27464851" version="3" timestamp="2009-08-21T08:04:36Z" uid="20013" user="rcr" changeset="2220309">
    <nd ref="133006624"/>
    <nd ref="133006625"/>
    <nd ref="133006626"/>
    <nd ref="31237925"/>
    <tag k="highway" v="secondary"/>
    <tag k="lanes" v="2"/>
    <tag k="maxspeed" v="50"/>
    <tag k="name" v="Shands Road"/>
    <tag k="oneway" v="yes"/>
  </way>
  <way id="27464851" version="4" timestamp="2009-10-08T00:21:41Z" uid="54757" user="gerkin" changeset="2777704">
    <nd ref="133006624"/>
    <nd ref="133006625"/>
    <nd ref="524911750"/>
    <nd ref="133006626"/>
    <nd ref="31237925"/>
    <tag k="highway" v="secondary"/>
    <tag k="lanes" v="2"/>
    <tag k="maxspeed" v="50"/>
    <tag k="name" v="Shands Road"/>
    <tag k="oneway" v="yes"/>
  </way>
  <way id="27464851" version="5" timestamp="2011-05-21T05:16:03Z" uid="341519" user="lcmortensen" changeset="8203850">
    <nd ref="133006624"/>
    <nd ref="133006625"/>
    <tag k="highway" v="secondary"/>
    <tag k="lanes" v="2"/>
    <tag k="maxspeed" v="50"/>
    <tag k="name" v="Shands Road"/>
    <tag k="oneway" v="yes"/>
  </way>
  <way id="27464851" version="6" timestamp="2011-07-07T04:09:15Z" uid="341519" user="lcmortensen" changeset="8653919">
    <nd ref="133006624"/>
    <nd ref="133006625"/>
    <tag k="highway" v="secondary"/>
    <tag k="lanes" v="1"/>
    <tag k="maxspeed" v="50"/>
    <tag k="name" v="Shands Road"/>
    <tag k="oneway" v="yes"/>
  </way>
  <way id="27464852" version="2" timestamp="2009-08-03T13:34:26Z" uid="4467" user="Rosscoe" changeset="2025552">
    <nd ref="301564374"/>
    <nd ref="301564381"/>
    <nd ref="301564380"/>
    <nd ref="133006624"/>
    <tag k="highway" v="secondary"/>
    <tag k="lanes" v="2"/>
    <tag k="name" v="Shands Road"/>
    <tag k="oneway" v="yes"/>
  </way>
  <way id="27464852" version="3" timestamp="2009-08-21T08:04:36Z" uid="20013" user="rcr" changeset="2220309">
    <nd ref="301564374"/>
    <nd ref="301564381"/>
    <nd ref="301564380"/>
    <nd ref="133006624"/>
    <tag k="highway" v="secondary"/>
    <tag k="lanes" v="2"/>
    <tag k="maxspeed" v="50"/>
    <tag k="name" v="Shands Road"/>
    <tag k="oneway" v="yes"/>
  </way>
  <way id="27464852" version="4" timestamp="2009-10-08T00:21:41Z" uid="54757" user="gerkin" changeset="2777704">
    <nd ref="301564374"/>
    <nd ref="301564381"/>
    <nd ref="524911744"/>
    <nd ref="301564380"/>
    <nd ref="133006624"/>
    <tag k="highway" v="secondary"/>
    <tag k="lanes" v="2"/>
    <tag k="maxspeed" v="50"/>
    <tag k="name" v="Shands Road"/>
    <tag k="oneway" v="yes"/>
  </way>
  <way id="27464852" version="5" timestamp="2011-05-21T05:16:04Z" uid="341519" user="lcmortensen" changeset="8203850">
    <nd ref="301564374"/>
    <nd ref="301564381"/>
    <nd ref="524911744"/>
    <nd ref="301564380"/>
    <tag k="highway" v="secondary"/>
    <tag k="lanes" v="2"/>
    <tag k="maxspeed" v="50"/>
    <tag k="name" v="Shands Road"/>
    <tag k="oneway" v="yes"/>
  </way>
</osm>
