<?xml version='1.0' encoding='UTF-8'?>
<osm version="0.6" generator="libosmium/2.20.0">
  <way id="27557153" version="3" timestamp="2010-07-08T20:15:21Z" uid="74617" user="JohnSmith" changeset="5168730">
    <nd ref="247174158"/>
    <nd ref="536299745"/>
    <nd ref="302537560"/>
    <tag k="highway" v="residential"/>
    <tag k="maxspeed" v="50"/>
    <tag k="maxspeed:source" v="default residential speed limit in Australia"/>
    <tag k="name" v="Park Lane"/>
  </way>
  <way id="27557153" version="4" timestamp="2012-01-17T06:39:23Z" uid="147510" user="woodpeck_fixbot" changeset="10414499">
    <nd ref="247174158"/>
    <nd ref="536299745"/>
    <nd ref="302537560"/>
    <tag k="highway" v="residential"/>
    <tag k="name" v="Park Lane"/>
  </way>
  <way id="27557309" version="4" timestamp="2010-02-15T10:46:29Z" uid="74617" user="JohnSmith" changeset="3881940">
    <nd ref="302538865"/>
    <nd ref="302538866"/>
    <nd ref="598951731"/>
    <nd ref="302538838"/>
    <nd ref="598951608"/>
    <nd ref="598951848"/>
    <nd ref="302538839"/>
    <tag k="highway" v="residential"/>
    <tag k="maxspeed" v="50"/>
  </way>
  <way id="27557309" version="5" timestamp="2010-07-05T15:50:27Z" uid="255148" user="svegress" changeset="5143065">
    <nd ref="302538839"/>
    <nd ref="598951848"/>
    <nd ref="598951608"/>
    <nd ref="302538838"/>
    <nd ref="598951731"/>
    <nd ref="302538866"/>
    <nd ref="302538865"/>
    <nd ref="600339196"/>
    <nd ref="600339198"/>
    <nd ref="600339199"/>
    <nd ref="600339200"/>
    <nd ref="600339201"/>
    <nd ref="600339203"/>
    <nd ref="600339204"/>
    <tag k="highway" v="residential"/>
    <tag k="maxspeed" v="50"/>
    <tag k="name" v="Highland Ridge Road"/>
    <tag k="source" v="nearmap"/>
    <tag k="surface" v="unpaved"/>
  </way>
  <way id="27557309" version="6" timestamp="2012-01-17T06:39:24Z" uid="147510" user="woodpeck_fixbot" changeset="10414499">
    <nd ref="302538839"/>
    <nd ref="598951848"/>
    <nd ref="598951608"/>
    <nd ref="302538838"/>
    <nd ref="598951731"/>
    <nd ref="302538866"/>
    <nd ref="302538865"/>
    <nd ref="600339196"/>
    <nd ref="600339198"/>
    <nd ref="600339199"/>
    <nd ref="600339200"/>
    <nd ref="600339201"/>
    <nd ref="600339203"/>
    <nd ref="600339204"/>
    <tag k="highway" v="residential"/>
    <tag k="name" v="Highland Ridge Road"/>
    <tag k="source" v="nearmap"/>
    <tag k="surface" v="unpaved"/>
  </way>
  <way id="27557316" version="3" timestamp="2010-02-15T10:46:42Z" uid="74617" user="JohnSmith" changeset="3881940">
    <nd ref="598951489"/>
    <nd ref="598951488"/>
    <nd ref="302538980"/>
    <nd ref="598951916"/>
    <nd ref="598951909"/>
    <nd ref="598951511"/>
    <nd ref="302538981"/>
    <tag k="highway" v="residential"/>
    <tag k="maxspeed" v="50"/>
  </way>
  <way id="27557316" version="4" timestamp="2010-06-21T23:09:23Z" uid="244897" user="M526244" changeset="5047475">
    <nd ref="598951489"/>
    <nd ref="598951488"/>
    <nd ref="302538980"/>
    <nd ref="598951916"/>
    <nd ref="598951909"/>
    <nd ref="598951511"/>
    <nd ref="302538981"/>
    <tag k="highway" v="residential"/>
    <tag k="maxspeed" v="50"/>
    <tag k="name" v="Shore Street"/>
  </way>
  <way id="27557316" version="5" timestamp="2010-09-18T06:55:27Z" uid="127786" user="rodj59" changeset="5808934">
    <nd ref="598951489"/>
    <nd ref="598951488"/>
    <nd ref="302538980"/>
    <nd ref="598951916"/>
    <nd ref="598951909"/>
    <nd ref="598951511"/>
    <nd ref="302538981"/>
    <tag k="highway" v="residential"/>
    <tag k="maxspeed" v="50"/>
    <tag k="name" v="Shore Street"/>
    <tag k="surface" v="paved"/>
  </way>
  <way id="27557316" version="6" timestamp="2012-01-17T06:39:26Z" uid="147510" user="woodpeck_fixbot" changeset="10414499">
    <nd ref="598951489"/>
    <nd ref="598951488"/>
    <nd ref="302538980"/>
    <nd ref="598951916"/>
    <nd ref="598951909"/>
    <nd ref="598951511"/>
    <nd ref="302538981"/>
    <tag k="highway" v="residential"/>
    <tag k="name" v="Shore Street"/>
    <tag k="surface" v="paved"/>
  </way>
  <way id="27557320" version="3" timestamp="2010-02-15T10:46:50Z" uid="74617" user="JohnSmith" changeset="3881940">
    <nd ref="598951485"/>
    <nd ref="302539055"/>
    <nd ref="302539057"/>
    <tag k="highway" v="residential"/>
    <tag k="maxspeed" v="50"/>
    <tag k="source" v="nearmap"/>
    <tag k="surface" v="unpaved"/>
  </way>
  <way id="27557320" version="4" timestamp="2010-06-21T23:09:24Z" uid="244897" user="M526244" changeset="5047475">
    <nd ref="598951485"/>
    <nd ref="302539055"/>
    <nd ref="302539057"/>
    <tag k="highway" v="residential"/>
    <tag k="maxspeed" v="50"/>
    <tag k="name" v="Cunningham Avenue"/>
    <tag k="source" v="nearmap"/>
    <tag k="surface" v="unpaved"/>
  </way>
  <way id="27557320" version="5" timestamp="2012-01-17T06:39:27Z" uid="147510" user="woodpeck_fixbot" changeset="10414499">
    <nd ref="598951485"/>
    <nd ref="302539055"/>
    <nd ref="302539057"/>
    <tag k="highway" v="residential"/>
    <tag k="name" v="Cunningham Avenue"/>
    <tag k="source" v="nearmap"/>
    <tag k="surface" v="unpaved"/>
  </way>
  <way id="27557323" version="3" timestamp="2010-02-15T10:48:15Z" uid="74617" user="JohnSmith" changeset="3881940">
    <nd ref="600341420"/>
    <nd ref="302539401"/>
    <nd ref="600341409"/>
    <nd ref="600341397"/>
    <nd ref="600341389"/>
    <nd ref="600341375"/>
    <nd ref="600341395"/>
    <nd ref="302539403"/>
    <tag k="highway" v="residential"/>
    <tag k="maxspeed" v="50"/>
  </way>
  <way id="27557323" version="4" timestamp="2010-04-22T06:35:08Z" uid="255148" user="svegress" changeset="4492820">
    <nd ref="600341420"/>
    <nd ref="302539401"/>
    <nd ref="600341409"/>
    <nd ref="600341397"/>
    <nd ref="600341389"/>
    <nd ref="600341375"/>
    <nd ref="600341395"/>
    <nd ref="302539403"/>
    <tag k="highway" v="residential"/>
    <tag k="maxspeed" v="50"/>
    <tag k="name" v="Waratah Street"/>
  </way>
  <way id="27557323" version="5" timestamp="2012-01-17T06:39:30Z" uid="147510" user="woodpeck_fixbot" changeset="10414499">
    <nd ref="600341420"/>
    <nd ref="302539401"/>
    <nd ref="600341409"/>
    <nd ref="600341397"/>
    <nd ref="600341389"/>
    <nd ref="600341375"/>
    <nd ref="600341395"/>
    <nd ref="302539403"/>
    <tag k="highway" v="residential"/>
    <tag k="name" v="Waratah Street"/>
  </way>
  <way id="27557329" version="3" timestamp="2010-02-15T10:48:07Z" uid="74617" user="JohnSmith" changeset="3881940">
    <nd ref="600743302"/>
    <nd ref="302539471"/>
    <nd ref="600743358"/>
    <nd ref="600743184"/>
    <nd ref="600743195"/>
    <nd ref="302539472"/>
    <tag k="highway" v="residential"/>
    <tag k="maxspeed" v="50"/>
  </way>
  <way id="27557329" version="4" timestamp="2010-05-01T02:28:17Z" uid="255148" user="svegress" changeset="4571300">
    <nd ref="600743302"/>
    <nd ref="302539471"/>
    <nd ref="600743358"/>
    <nd ref="600743184"/>
    <nd ref="600743195"/>
    <nd ref="302539472"/>
    <tag k="highway" v="residential"/>
    <tag k="maxspeed" v="50"/>
    <tag k="name" v="Currong Street"/>
  </way>
  <way id="27557329" version="5" timestamp="2012-01-17T06:39:31Z" uid="147510" user="woodpeck_fixbot" changeset="10414499">
    <nd ref="600743302"/>
    <nd ref="302539471"/>
    <nd ref="600743358"/>
    <nd ref="600743184"/>
    <nd ref="600743195"/>
    <nd ref="302539472"/>
    <tag k="highway" v="residential"/>
    <tag k="name" v="Currong Street"/>
  </way>
  <way id="27557386" version="5" timestamp="2010-07-09T06:49:35Z" uid="74617" user="JohnSmith" changeset="5171134">
    <nd ref="302540181"/>
    <nd ref="302540363"/>
    <tag k="highway" v="residential"/>
    <tag k="maxspeed" v="50"/>
    <tag k="maxspeed:source" v="default residential speed limit in Australia"/>
    <tag k="name" v="St Lucia Way"/>
  </way>
  <way id="27557386" version="6" timestamp="2012-01-17T06:39:32Z" uid="147510" user="woodpeck_fixbot" changeset="10414499">
    <nd ref="302540181"/>
    <nd ref="302540363"/>
    <tag k="highway" v="residential"/>
    <tag k="name" v="St Lucia Way"/>
  </way>
  <way id="27557391" version="1" timestamp="2008-10-06T10:03:14Z" uid="61114" user="Trav" changeset="115802">
    <nd ref="302540409"/>
    <nd ref="302540419"/>
    <nd ref="302540424"/>
    <nd ref="302540425"/>
    <nd ref="302540409"/>
    <tag k="created_by" v="Merkaartor 0.13"/>
    <tag k="landuse" v="retail"/>
    <tag k="name" v="East Killara Shopping Centre"/>
    <tag k="source" v="yahoo_imagery"/>
    <tag k="source:name" v="survey"/>
  </way>
  <way id="27557392" version="1" timestamp="2008-10-06T10:03:17Z" uid="61114" user="Trav" changeset="115802">
    <nd ref="302540428"/>
    <nd ref="302540429"/>
    <nd ref="302540433"/>
    <nd ref="302540436"/>
    <nd ref="302540428"/>
    <tag k="amenity" v="parking"/>
    <tag k="created_by" v="Merkaartor 0.13"/>
    <tag k="source" v="yahoo_imagery;survey"/>
  </way>
  <way id="27557434" version="2" timestamp="2010-07-09T06:47:18Z" uid="74617" user="JohnSmith" changeset="5171134">
    <nd ref="302540526"/>
    <nd ref="302540691"/>
    <nd ref="302540692"/>
    <tag k="highway" v="residential"/>
    <tag k="maxspeed" v="50"/>
    <tag k="maxspeed:source" v="default residential speed limit in Australia"/>
    <tag k="name" v="Joyce Avenue"/>
  </way>
  <way id="27557434" version="3" timestamp="2012-01-17T06:39:34Z" uid="147510" user="woodpeck_fixbot" changeset="10414499">
    <nd ref="302540526"/>
    <nd ref="302540691"/>
    <nd ref="302540692"/>
    <tag k="highway" v="residential"/>
    <tag k="name" v="Joyce Avenue"/>
  </way>
  <way id="27557446" version="5" timestamp="2010-07-09T06:49:16Z" uid="74617" user="JohnSmith" changeset="5171134">
    <nd ref="302484297"/>
    <nd ref="302540692"/>
    <nd ref="302540527"/>
    <tag k="highway" v="residential"/>
    <tag k="maxspeed" v="50"/>
    <tag k="maxspeed:source" v="default residential speed limit in Australia"/>
    <tag k="name" v="Rex Avenue"/>
  </way>
  <way id="27557446" version="6" timestamp="2012-01-17T06:39:35Z" uid="147510" user="woodpeck_fixbot" changeset="10414499">
    <nd ref="302484297"/>
    <nd ref="302540692"/>
    <nd ref="302540527"/>
    <tag k="highway" v="residential"/>
    <tag k="name" v="Rex Avenue"/>
  </way>
  <way id="27557495" version="2" timestamp="2010-07-09T06:47:46Z" uid="74617" user="JohnSmith" changeset="5171134">
    <nd ref="302541340"/>
    <nd ref="302540528"/>
    <tag k="highway" v="residential"/>
    <tag k="maxspeed" v="50"/>
    <tag k="maxspeed:source" v="default residential speed limit in Australia"/>
    <tag k="name" v="George Street"/>
  </way>
  <way id="27557495" version="3" timestamp="2012-01-17T06:39:36Z" uid="147510" user="woodpeck_fixbot" changeset="10414499">
    <nd ref="302541340"/>
    <nd ref="302540528"/>
    <tag k="highway" v="residential"/>
    <tag k="name" v="George Street"/>
  </way>
  <way id="27557496" version="3" timestamp="2010-07-09T06:50:30Z" uid="74617" user="JohnSmith" changeset="5171134">
    <nd ref="302541604"/>
    <nd ref="302541599"/>
    <tag k="highway" v="residential"/>
    <tag k="maxspeed" v="50"/>
    <tag k="maxspeed:source" v="default residential speed limit in Australia"/>
    <tag k="name" v="Redford Street"/>
  </way>
  <way id="27557496" version="4" timestamp="2012-01-17T06:39:37Z" uid="147510" user="woodpeck_fixbot" changeset="10414499">
    <nd ref="302541604"/>
    <nd ref="302541599"/>
    <tag k="highway" v="residential"/>
    <tag k="name" v="Redford Street"/>
  </way>
  <way id="27557508" version="2" timestamp="2010-07-09T06:48:49Z" uid="74617" user="JohnSmith" changeset="5171134">
    <nd ref="302541341"/>
    <nd ref="302541827"/>
    <nd ref="302541828"/>
    <nd ref="302540526"/>
    <tag k="highway" v="residential"/>
    <tag k="maxspeed" v="50"/>
    <tag k="maxspeed:source" v="default residential speed limit in Australia"/>
    <tag k="name" v="Linsay Street"/>
  </way>
  <way id="27557508" version="3" timestamp="2012-01-17T06:39:38Z" uid="147510" user="woodpeck_fixbot" changeset="10414499">
    <nd ref="302541341"/>
    <nd ref="302541827"/>
    <nd ref="302541828"/>
    <nd ref="302540526"/>
    <tag k="highway" v="residential"/>
    <tag k="name" v="Linsay Street"/>
  </way>
  <way id="27557509" version="3" timestamp="2010-07-09T06:49:34Z" uid="74617" user="JohnSmith" changeset="5171134">
    <nd ref="302541827"/>
    <nd ref="302541839"/>
    <tag k="highway" v="residential"/>
    <tag k="maxspeed" v="50"/>
    <tag k="maxspeed:source" v="default residential speed limit in Australia"/>
    <tag k="name" v="Elm Cresent"/>
  </way>
  <way id="27557509" version="4" timestamp="2012-01-17T06:39:40Z" uid="147510" user="woodpeck_fixbot" changeset="10414499">
    <nd ref="302541827"/>
    <nd ref="302541839"/>
    <tag k="highway" v="residential"/>
    <tag k="name" v="Elm Cresent"/>
  </way>
  <way id="27557529" version="2" timestamp="2010-07-09T06:50:07Z" uid="74617" user="JohnSmith" changeset="5171134">
    <nd ref="302541342"/>
    <nd ref="302541986"/>
    <nd ref="302540187"/>
    <nd ref="302484959"/>
    <tag k="highway" v="residential"/>
    <tag k="maxspeed" v="50"/>
    <tag k="maxspeed:source" v="default residential speed limit in Australia"/>
    <tag k="name" v="Hutton Street"/>
  </way>
  <way id="27557529" version="3" timestamp="2012-01-17T06:39:40Z" uid="147510" user="woodpeck_fixbot" changeset="10414499">
    <nd ref="302541342"/>
    <nd ref="302541986"/>
    <nd ref="302540187"/>
    <nd ref="302484959"/>
    <tag k="highway" v="residential"/>
    <tag k="name" v="Hutton Street"/>
  </way>
  <way id="27557530" version="2" timestamp="2010-07-09T06:47:48Z" uid="74617" user="JohnSmith" changeset="5171134">
    <nd ref="302541986"/>
    <nd ref="302541828"/>
    <tag k="highway" v="residential"/>
    <tag k="maxspeed" v="50"/>
    <tag k="maxspeed:source" v="default residential speed limit in Australia"/>
    <tag k="name" v="Chase Grove"/>
  </way>
  <way id="27557530" version="3" timestamp="2012-01-17T06:39:42Z" uid="147510" user="woodpeck_fixbot" changeset="10414499">
    <nd ref="302541986"/>
    <nd ref="302541828"/>
    <tag k="highway" v="residential"/>
    <tag k="name" v="Chase Grove"/>
  </way>
  <way id="27557539" version="2" timestamp="2010-07-09T06:50:14Z" uid="74617" user="JohnSmith" changeset="5171134">
    <nd ref="302541343"/>
    <nd ref="302540184"/>
    <tag k="highway" v="residential"/>
    <tag k="maxspeed" v="50"/>
    <tag k="maxspeed:source" v="default residential speed limit in Australia"/>
    <tag k="name" v="Hamilton Street"/>
  </way>
  <way id="27557539" version="3" timestamp="2012-01-17T06:39:43Z" uid="147510" user="woodpeck_fixbot" changeset="10414499">
    <nd ref="302541343"/>
    <nd ref="302540184"/>
    <tag k="highway" v="residential"/>
    <tag k="name" v="Hamilton Street"/>
  </way>
  <way id="27557546" version="1" timestamp="2008-10-06T10:13:43Z" uid="61114" user="Trav" changeset="115802">
    <nd ref="302542672"/>
    <nd ref="302542676"/>
    <nd ref="302542679"/>
    <nd ref="302542683"/>
    <nd ref="302542686"/>
    <nd ref="302542688"/>
    <nd ref="302542692"/>
    <nd ref="302542695"/>
    <nd ref="302542672"/>
    <tag k="amenity" v="school"/>
    <tag k="created_by" v="Merkaartor 0.13"/>
    <tag k="layer" v="-1"/>
    <tag k="name" v="Killara High School"/>
    <tag k="source" v="yahoo_imagery;approximation"/>
    <tag k="source:name" v="survey"/>
  </way>
  <way id="27557551" version="1" timestamp="2008-10-06T10:13:52Z" uid="61114" user="Trav" changeset="115802">
    <nd ref="302542702"/>
    <nd ref="302542705"/>
    <nd ref="302542709"/>
    <nd ref="302542715"/>
    <nd ref="302542720"/>
    <nd ref="302542723"/>
    <nd ref="302542727"/>
    <nd ref="302542733"/>
    <nd ref="302542756"/>
    <nd ref="302542776"/>
    <nd ref="302542783"/>
    <nd ref="302542787"/>
    <nd ref="302542789"/>
    <nd ref="302542808"/>
    <nd ref="302542834"/>
    <nd ref="302542854"/>
    <nd ref="302542867"/>
    <nd ref="302542873"/>
    <nd ref="302542877"/>
    <nd ref="302542880"/>
    <nd ref="302542702"/>
    <tag k="created_by" v="Merkaartor 0.13"/>
    <tag k="leisure" v="pitch"/>
    <tag k="source" v="yahoo_imagery"/>
  </way>
  <way id="27557553" version="1" timestamp="2008-10-06T10:13:57Z" uid="61114" user="Trav" changeset="115802">
    <nd ref="302542888"/>
    <nd ref="302542899"/>
    <nd ref="302542903"/>
    <nd ref="302542906"/>
    <nd ref="302542910"/>
    <tag k="created_by" v="Merkaartor 0.13"/>
    <tag k="highway" v="residential"/>
    <tag k="name" v="Warrego Place"/>
    <tag k="source" v="yahoo_imagery"/>
    <tag k="source:name" v="survey"/>
  </way>
  <way id="27557553" version="2" timestamp="2010-07-08T00:23:40Z" uid="74617" user="JohnSmith" changeset="5162525">
    <nd ref="302542888"/>
    <nd ref="302542899"/>
    <nd ref="302542903"/>
    <nd ref="302542906"/>
    <nd ref="302542910"/>
    <tag k="highway" v="residential"/>
    <tag k="maxspeed" v="50"/>
    <tag k="maxspeed:source" v="default residential speed limit in Australia"/>
    <tag k="name" v="Warrego Place"/>
    <tag k="source" v="yahoo_imagery"/>
    <tag k="source:name" v="survey"/>
  </way>
  <way id="27557553" version="3" timestamp="2012-01-17T06:39:44Z" uid="147510" user="woodpeck_fixbot" changeset="10414499">
    <nd ref="302542888"/>
    <nd ref="302542899"/>
    <nd ref="302542903"/>
    <nd ref="302542906"/>
    <nd ref="302542910"/>
    <tag k="highway" v="residential"/>
    <tag k="name" v="Warrego Place"/>
    <tag k="source" v="yahoo_imagery"/>
    <tag k="source:name" v="survey"/>
  </way>
  <way id="27557612" version="3" timestamp="2010-07-09T06:48:31Z" uid="74617" user="JohnSmith" changeset="5171134">
    <nd ref="302543087"/>
    <nd ref="256048595"/>
    <tag k="highway" v="residential"/>
    <tag k="maxspeed" v="50"/>
    <tag k="maxspeed:source" v="default residential speed limit in Australia"/>
    <tag k="name" v="Doreen Street"/>
  </way>
  <way id="27557612" version="4" timestamp="2012-01-17T06:39:46Z" uid="147510" user="woodpeck_fixbot" changeset="10414499">
    <nd ref="302543087"/>
    <nd ref="256048595"/>
    <tag k="highway" v="residential"/>
    <tag k="name" v="Doreen Street"/>
  </way>
  <way id="27557626" version="3" timestamp="2010-07-09T06:48:39Z" uid="74617" user="JohnSmith" changeset="5171134">
    <nd ref="302543234"/>
    <nd ref="253326115"/>
    <nd ref="302543330"/>
    <tag k="highway" v="residential"/>
    <tag k="maxspeed" v="50"/>
    <tag k="maxspeed:source" v="default residential speed limit in Australia"/>
    <tag k="name" v="Milne Street"/>
  </way>
  <way id="27557626" version="4" timestamp="2012-01-17T06:39:47Z" uid="147510" user="woodpeck_fixbot" changeset="10414499">
    <nd ref="302543234"/>
    <nd ref="253326115"/>
    <nd ref="302543330"/>
    <tag k="highway" v="residential"/>
    <tag k="name" v="Milne Street"/>
  </way>
  <way id="27557650" version="1" timestamp="2008-10-06T10:18:04Z" uid="61114" user="Trav" changeset="115802">
    <nd ref="302543682"/>
    <nd ref="302543684"/>
    <nd ref="302543685"/>
    <nd ref="302543680"/>
    <nd ref="302543660"/>
    <tag k="created_by" v="Merkaartor 0.13"/>
    <tag k="highway" v="residential"/>
    <tag k="name" v="Fairbairn Avenue"/>
    <tag k="source:name" v="survey"/>
  </way>
  <way id="27557650" version="2" timestamp="2008-10-06T10:20:53Z" uid="61114" user="Trav" changeset="115802">
    <nd ref="302543682"/>
    <nd ref="302543684"/>
    <nd ref="302543685"/>
    <nd ref="302543680"/>
    <nd ref="302544127"/>
    <nd ref="302543660"/>
    <tag k="created_by" v="Merkaartor 0.13"/>
    <tag k="highway" v="residential"/>
    <tag k="name" v="Fairbairn Avenue"/>
    <tag k="source:name" v="survey"/>
  </way>
  <way id="27557650" version="3" timestamp="2010-07-08T00:26:39Z" uid="74617" user="JohnSmith" changeset="5162525">
    <nd ref="302543682"/>
    <nd ref="302543684"/>
    <nd ref="302543685"/>
    <nd ref="302543680"/>
    <nd ref="302544127"/>
    <nd ref="302543660"/>
    <tag k="highway" v="residential"/>
    <tag k="maxspeed" v="50"/>
    <tag k="maxspeed:source" v="default residential speed limit in Australia"/>
    <tag k="name" v="Fairbairn Avenue"/>
    <tag k="source:name" v="survey"/>
  </way>
  <way id="27557650" version="4" timestamp="2012-01-17T06:39:48Z" uid="147510" user="woodpeck_fixbot" changeset="10414499">
    <nd ref="302543682"/>
    <nd ref="302543684"/>
    <nd ref="302543685"/>
    <nd ref="302543680"/>
    <nd ref="302544127"/>
    <nd ref="302543660"/>
    <tag k="highway" v="residential"/>
    <tag k="name" v="Fairbairn Avenue"/>
    <tag k="source:name" v="survey"/>
  </way>
  <way id="27557687" version="1" timestamp="2008-10-06T10:20:53Z" uid="61114" user="Trav" changeset="115802">
    <nd ref="247473899"/>
    <nd ref="302544127"/>
    <tag k="created_by" v="Merkaartor 0.13"/>
    <tag k="highway" v="residential"/>
    <tag k="name" v="Eastgate Avenue"/>
    <tag k="source" v="yahoo_imagery;approximation"/>
    <tag k="source:name" v="survey"/>
  </way>
  <way id="27557687" version="2" timestamp="2008-10-06T10:38:34Z" uid="61114" user="Trav" changeset="115802">
    <nd ref="247473899"/>
    <nd ref="302547679"/>
    <nd ref="302544127"/>
    <tag k="created_by" v="Merkaartor 0.13"/>
    <tag k="highway" v="residential"/>
    <tag k="name" v="Eastgate Avenue"/>
    <tag k="source" v="yahoo_imagery;approximation"/>
    <tag k="source:name" v="survey"/>
  </way>
  <way id="27557687" version="3" timestamp="2010-07-08T00:21:40Z" uid="74617" user="JohnSmith" changeset="5162525">
    <nd ref="247473899"/>
    <nd ref="302547679"/>
    <nd ref="302544127"/>
    <tag k="highway" v="residential"/>
    <tag k="maxspeed" v="50"/>
    <tag k="maxspeed:source" v="default residential speed limit in Australia"/>
    <tag k="name" v="Eastgate Avenue"/>
    <tag k="source" v="yahoo_imagery;approximation"/>
    <tag k="source:name" v="survey"/>
  </way>
  <way id="27557687" version="4" timestamp="2012-01-17T06:39:50Z" uid="147510" user="woodpeck_fixbot" changeset="10414499">
    <nd ref="247473899"/>
    <nd ref="302547679"/>
    <nd ref="302544127"/>
    <tag k="highway" v="residential"/>
    <tag k="name" v="Eastgate Avenue"/>
    <tag k="source" v="yahoo_imagery;approximation"/>
    <tag k="source:name" v="survey"/>
  </way>
  <way id="27557688" version="1" timestamp="2008-10-06T10:20:54Z" uid="61114" user="Trav" changeset="115802">
    <nd ref="247473691"/>
    <nd ref="302544129"/>
    <tag k="created_by" v="Merkaartor 0.13"/>
    <tag k="highway" v="residential"/>
    <tag k="name" v="Churchill Road"/>
    <tag k="source" v="yahoo_imagery;approximation"/>
    <tag k="source:name" v="survey"/>
  </way>
  <way id="27557688" version="2" timestamp="2010-07-08T00:22:07Z" uid="74617" user="JohnSmith" changeset="5162525">
    <nd ref="247473691"/>
    <nd ref="302544129"/>
    <tag k="highway" v="residential"/>
    <tag k="maxspeed" v="50"/>
    <tag k="maxspeed:source" v="default residential speed limit in Australia"/>
    <tag k="name" v="Churchill Road"/>
    <tag k="source" v="yahoo_imagery;approximation"/>
    <tag k="source:name" v="survey"/>
  </way>
  <way id="27557688" version="3" timestamp="2012-01-17T06:39:51Z" uid="147510" user="woodpeck_fixbot" changeset="10414499">
    <nd ref="247473691"/>
    <nd ref="302544129"/>
    <tag k="highway" v="residential"/>
    <tag k="name" v="Churchill Road"/>
    <tag k="source" v="yahoo_imagery;approximation"/>
    <tag k="source:name" v="survey"/>
  </way>
  <way id="27557776" version="1" timestamp="2008-10-06T10:26:21Z" uid="61114" user="Trav" changeset="115802">
    <nd ref="302545235"/>
    <nd ref="302545241"/>
    <nd ref="302545242"/>
    <nd ref="302545245"/>
    <nd ref="302545246"/>
    <nd ref="302545248"/>
    <nd ref="302545250"/>
    <nd ref="302545252"/>
    <nd ref="302545255"/>
    <nd ref="302545256"/>
    <nd ref="302545260"/>
    <tag k="created_by" v="Merkaartor 0.13"/>
    <tag k="highway" v="residential"/>
    <tag k="name" v="Monash Avenue"/>
    <tag k="source" v="yahoo_imagery;approximation"/>
    <tag k="source:name" v="survey"/>
  </way>
  <way id="27557776" version="2" timestamp="2010-07-08T00:22:00Z" uid="74617" user="JohnSmith" changeset="5162525">
    <nd ref="302545235"/>
    <nd ref="302545241"/>
    <nd ref="302545242"/>
    <nd ref="302545245"/>
    <nd ref="302545246"/>
    <nd ref="302545248"/>
    <nd ref="302545250"/>
    <nd ref="302545252"/>
    <nd ref="302545255"/>
    <nd ref="302545256"/>
    <nd ref="302545260"/>
    <tag k="highway" v="residential"/>
    <tag k="maxspeed" v="50"/>
    <tag k="maxspeed:source" v="default residential speed limit in Australia"/>
    <tag k="name" v="Monash Avenue"/>
    <tag k="source" v="yahoo_imagery;approximation"/>
    <tag k="source:name" v="survey"/>
  </way>
  <way id="27557776" version="3" timestamp="2012-01-17T06:39:53Z" uid="147510" user="woodpeck_fixbot" changeset="10414499">
    <nd ref="302545235"/>
    <nd ref="302545241"/>
    <nd ref="302545242"/>
    <nd ref="302545245"/>
    <nd ref="302545246"/>
    <nd ref="302545248"/>
    <nd ref="302545250"/>
    <nd ref="302545252"/>
    <nd ref="302545255"/>
    <nd ref="302545256"/>
    <nd ref="302545260"/>
    <tag k="highway" v="residential"/>
    <tag k="name" v="Monash Avenue"/>
    <tag k="source" v="yahoo_imagery;approximation"/>
    <tag k="source:name" v="survey"/>
  </way>
  <way id="27557787" version="4" timestamp="2010-07-09T06:49:19Z" uid="74617" user="JohnSmith" changeset="5171134">
    <nd ref="302545853"/>
    <nd ref="302545952"/>
    <tag k="highway" v="residential"/>
    <tag k="maxspeed" v="50"/>
    <tag k="maxspeed:source" v="default residential speed limit in Australia"/>
    <tag k="name" v="Wallace Street"/>
  </way>
  <way id="27557787" version="5" timestamp="2012-01-17T06:39:55Z" uid="147510" user="woodpeck_fixbot" changeset="10414499">
    <nd ref="302545853"/>
    <nd ref="302545952"/>
    <tag k="highway" v="residential"/>
    <tag k="name" v="Wallace Street"/>
  </way>
  <way id="27557790" version="3" timestamp="2010-07-09T06:49:05Z" uid="74617" user="JohnSmith" changeset="5171134">
    <nd ref="302545783"/>
    <nd ref="302546068"/>
    <nd ref="302546069"/>
    <nd ref="302546070"/>
    <tag k="highway" v="residential"/>
    <tag k="maxspeed" v="50"/>
    <tag k="maxspeed:source" v="default residential speed limit in Australia"/>
    <tag k="name" v="Washington Street"/>
  </way>
  <way id="27557790" version="4" timestamp="2012-01-17T06:39:56Z" uid="147510" user="woodpeck_fixbot" changeset="10414499">
    <nd ref="302545783"/>
    <nd ref="302546068"/>
    <nd ref="302546069"/>
    <nd ref="302546070"/>
    <tag k="highway" v="residential"/>
    <tag k="name" v="Washington Street"/>
  </way>
  <way id="27557799" version="1" timestamp="2008-10-06T10:30:03Z" uid="61114" user="Trav" changeset="115802">
    <nd ref="302546196"/>
    <nd ref="302546198"/>
    <nd ref="302546200"/>
    <nd ref="302546201"/>
    <nd ref="302546196"/>
    <tag k="created_by" v="Merkaartor 0.13"/>
    <tag k="leisure" v="playground"/>
    <tag k="name" v="Jane MacGilvray Place"/>
    <tag k="source" v="yahoo_imagery;approximation"/>
    <tag k="source:name" v="survey"/>
  </way>
  <way id="27557808" version="5" timestamp="2010-02-28T03:30:55Z" uid="23543" user="jkjk" changeset="3994516"/>
  <way id="27557809" version="4" timestamp="2010-02-28T03:30:54Z" uid="23543" user="jkjk" changeset="3994516">
    <nd ref="110657737"/>
    <nd ref="302546398"/>
    <nd ref="655619222"/>
    <tag k="highway" v="primary"/>
    <tag k="name" v="Rohanské nábřeží"/>
    <tag k="oneway" v="yes"/>
  </way>
  <way id="27557809" version="5" timestamp="2011-09-03T07:03:59Z" uid="17615" user="Petr Dlouhý" changeset="9198333">
    <nd ref="110657737"/>
    <nd ref="302546398"/>
    <nd ref="1421692704"/>
    <tag k="highway" v="primary"/>
    <tag k="name" v="Rohanské nábřeží"/>
    <tag k="oneway" v="yes"/>
  </way>
  <way id="27557822" version="2" timestamp="2010-07-09T06:37:20Z" uid="74617" user="JohnSmith" changeset="5171134">
    <nd ref="302545953"/>
    <nd ref="302545954"/>
    <nd ref="302545955"/>
    <nd ref="302545956"/>
    <nd ref="302545784"/>
    <tag k="highway" v="residential"/>
    <tag k="maxspeed" v="50"/>
    <tag k="maxspeed:source" v="default residential speed limit in Australia"/>
    <tag k="name" v="Wallace Street"/>
  </way>
  <way id="27557822" version="3" timestamp="2012-01-17T06:39:57Z" uid="147510" user="woodpeck_fixbot" changeset="10414499">
    <nd ref="302545953"/>
    <nd ref="302545954"/>
    <nd ref="302545955"/>
    <nd ref="302545956"/>
    <nd ref="302545784"/>
    <tag k="highway" v="residential"/>
    <tag k="name" v="Wallace Street"/>
  </way>
  <way id="27557824" version="1" timestamp="2008-10-06T10:33:43Z" uid="61114" user="Trav" changeset="115802">
    <nd ref="302543684"/>
    <nd ref="302546919"/>
    <tag k="created_by" v="Merkaartor 0.13"/>
    <tag k="highway" v="residential"/>
    <tag k="name" v="Colette Place"/>
    <tag k="source" v="yahoo_imagery;approximation"/>
    <tag k="source:name" v="survey"/>
  </way>
  <way id="27557824" version="2" timestamp="2010-07-08T00:27:46Z" uid="74617" user="JohnSmith" changeset="5162525">
    <nd ref="302543684"/>
    <nd ref="302546919"/>
    <tag k="highway" v="residential"/>
    <tag k="maxspeed" v="50"/>
    <tag k="maxspeed:source" v="default residential speed limit in Australia"/>
    <tag k="name" v="Colette Place"/>
    <tag k="source" v="yahoo_imagery;approximation"/>
    <tag k="source:name" v="survey"/>
  </way>
  <way id="27557824" version="3" timestamp="2012-01-17T06:39:58Z" uid="147510" user="woodpeck_fixbot" changeset="10414499">
    <nd ref="302543684"/>
    <nd ref="302546919"/>
    <tag k="highway" v="residential"/>
    <tag k="name" v="Colette Place"/>
    <tag k="source" v="yahoo_imagery;approximation"/>
    <tag k="source:name" v="survey"/>
  </way>
  <way id="27557829" version="2" timestamp="2008-10-14T09:00:28Z" uid="27600" user="Islanit" changeset="320010">
    <nd ref="258153614"/>
    <nd ref="302546997"/>
    <nd ref="302546998"/>
    <nd ref="302546999"/>
    <tag k="created_by" v="Potlatch 0.10e"/>
    <tag k="highway" v="residential"/>
    <tag k="surface" v="unpaved"/>
  </way>
  <way id="27557829" version="3" timestamp="2008-10-17T06:22:33Z" uid="65263" user="HPHenschel" changeset="388454">
    <nd ref="258153614"/>
    <nd ref="305100973"/>
    <nd ref="302546997"/>
    <nd ref="302546998"/>
    <nd ref="302546999"/>
    <tag k="created_by" v="Potlatch 0.10e"/>
    <tag k="highway" v="residential"/>
    <tag k="surface" v="unpaved"/>
  </way>
  <way id="27557829" version="4" timestamp="2008-10-17T06:22:42Z" uid="65263" user="HPHenschel" changeset="388454">
    <nd ref="258153614"/>
    <nd ref="305100973"/>
    <nd ref="302546997"/>
    <nd ref="302546998"/>
    <nd ref="302546999"/>
    <tag k="created_by" v="Potlatch 0.10e"/>
    <tag k="highway" v="residential"/>
    <tag k="surface" v="unpaved"/>
  </way>
  <way id="27557829" version="5" timestamp="2008-10-20T08:46:08Z" uid="65263" user="HPHenschel" changeset="460201">
    <nd ref="258153614"/>
    <nd ref="305100973"/>
    <nd ref="302546997"/>
    <nd ref="302546998"/>
    <nd ref="302546999"/>
    <tag k="created_by" v="Potlatch 0.10e"/>
    <tag k="highway" v="residential"/>
    <tag k="surface" v="unpaved"/>
  </way>
  <way id="27557829" version="6" timestamp="2008-12-15T20:29:02Z" uid="68216" user="CWittenberg" changeset="405444">
    <nd ref="258153614"/>
    <nd ref="305100973"/>
    <nd ref="302546997"/>
    <nd ref="302546998"/>
    <nd ref="302546999"/>
    <tag k="created_by" v="Potlatch 0.10e"/>
    <tag k="highway" v="residential"/>
    <tag k="name" v="Knapendorfer Weg"/>
    <tag k="surface" v="unpaved"/>
  </way>
  <way id="27557864" version="5" timestamp="2008-10-14T09:00:15Z" uid="27600" user="Islanit" changeset="320010">
    <nd ref="304510213"/>
    <nd ref="302547490"/>
    <nd ref="302547598"/>
    <tag k="created_by" v="Potlatch 0.10e"/>
    <tag k="highway" v="residential"/>
    <tag k="name" v="Paracelsusweg"/>
  </way>
  <way id="27557864" version="6" timestamp="2008-12-15T20:29:14Z" uid="68216" user="CWittenberg" changeset="405444">
    <nd ref="304510213"/>
    <nd ref="319068170"/>
    <nd ref="319068172"/>
    <nd ref="302547490"/>
    <nd ref="319068175"/>
    <nd ref="319068177"/>
    <nd ref="302547598"/>
    <tag k="created_by" v="Potlatch 0.10e"/>
    <tag k="highway" v="residential"/>
    <tag k="name" v="Paracelsusweg"/>
  </way>
  <way id="27557871" version="1" timestamp="2008-10-06T10:38:36Z" uid="61114" user="Trav" changeset="115802">
    <nd ref="302547679"/>
    <nd ref="302547681"/>
    <nd ref="302547682"/>
    <nd ref="302547684"/>
    <nd ref="302547685"/>
    <tag k="created_by" v="Merkaartor 0.13"/>
    <tag k="highway" v="residential"/>
    <tag k="name" v="Truscott Place"/>
    <tag k="source" v="approximation"/>
    <tag k="source:name" v="survey"/>
  </way>
  <way id="27557871" version="2" timestamp="2010-07-08T00:24:44Z" uid="74617" user="JohnSmith" changeset="5162525">
    <nd ref="302547679"/>
    <nd ref="302547681"/>
    <nd ref="302547682"/>
    <nd ref="302547684"/>
    <nd ref="302547685"/>
    <tag k="highway" v="residential"/>
    <tag k="maxspeed" v="50"/>
    <tag k="maxspeed:source" v="default residential speed limit in Australia"/>
    <tag k="name" v="Truscott Place"/>
    <tag k="source" v="approximation"/>
    <tag k="source:name" v="survey"/>
  </way>
  <way id="27557871" version="3" timestamp="2012-01-17T06:39:59Z" uid="147510" user="woodpeck_fixbot" changeset="10414499">
    <nd ref="302547679"/>
    <nd ref="302547681"/>
    <nd ref="302547682"/>
    <nd ref="302547684"/>
    <nd ref="302547685"/>
    <tag k="highway" v="residential"/>
    <tag k="name" v="Truscott Place"/>
    <tag k="source" v="approximation"/>
    <tag k="source:name" v="survey"/>
  </way>
  <way id="27557873" version="1" timestamp="2008-10-06T10:38:37Z" uid="61114" user="Trav" changeset="115802">
    <nd ref="302547685"/>
    <nd ref="302547687"/>
    <tag k="complete" v="no"/>
    <tag k="created_by" v="Merkaartor 0.13"/>
    <tag k="highway" v="track"/>
  </way>
  <way id="27557906" version="6" timestamp="2010-07-09T06:39:54Z" uid="74617" user="JohnSmith" changeset="5171134">
    <nd ref="302548055"/>
    <nd ref="744592044"/>
    <nd ref="744592047"/>
    <nd ref="302548056"/>
    <nd ref="744592049"/>
    <tag k="highway" v="residential"/>
    <tag k="maxspeed" v="50"/>
    <tag k="maxspeed:source" v="default residential speed limit in Australia"/>
    <tag k="source" v="nearmap"/>
  </way>
  <way id="27557906" version="7" timestamp="2012-01-17T06:40:00Z" uid="147510" user="woodpeck_fixbot" changeset="10414499">
    <nd ref="302548055"/>
    <nd ref="744592044"/>
    <nd ref="744592047"/>
    <nd ref="302548056"/>
    <nd ref="744592049"/>
    <tag k="highway" v="residential"/>
    <tag k="source" v="nearmap"/>
  </way>
  <way id="27557927" version="1" timestamp="2008-10-06T10:43:58Z" uid="61114" user="Trav" changeset="115802">
    <nd ref="247473672"/>
    <nd ref="302548779"/>
    <nd ref="302548784"/>
    <tag k="created_by" v="Merkaartor 0.13"/>
    <tag k="highway" v="residential"/>
    <tag k="name" v="Harcourt Street"/>
    <tag k="source" v="approximation"/>
    <tag k="source:name" v="survey"/>
  </way>
  <way id="27557927" version="2" timestamp="2010-07-08T00:25:24Z" uid="74617" user="JohnSmith" changeset="5162525">
    <nd ref="247473672"/>
    <nd ref="302548779"/>
    <nd ref="302548784"/>
    <tag k="highway" v="residential"/>
    <tag k="maxspeed" v="50"/>
    <tag k="maxspeed:source" v="default residential speed limit in Australia"/>
    <tag k="name" v="Harcourt Street"/>
    <tag k="source" v="approximation"/>
    <tag k="source:name" v="survey"/>
  </way>
  <way id="27557927" version="3" timestamp="2012-01-17T06:40:02Z" uid="147510" user="woodpeck_fixbot" changeset="10414499">
    <nd ref="247473672"/>
    <nd ref="302548779"/>
    <nd ref="302548784"/>
    <tag k="highway" v="residential"/>
    <tag k="name" v="Harcourt Street"/>
    <tag k="source" v="approximation"/>
    <tag k="source:name" v="survey"/>
  </way>
  <way id="27557928" version="1" timestamp="2008-10-06T10:43:59Z" uid="61114" user="Trav" changeset="115802">
    <nd ref="302548779"/>
    <nd ref="302548799"/>
    <tag k="created_by" v="Merkaartor 0.13"/>
    <tag k="highway" v="residential"/>
    <tag k="name" v="Stella Close"/>
    <tag k="source" v="approximation"/>
    <tag k="source:name" v="survey"/>
  </way>
  <way id="27557928" version="2" timestamp="2010-07-08T00:25:49Z" uid="74617" user="JohnSmith" changeset="5162525">
    <nd ref="302548779"/>
    <nd ref="302548799"/>
    <tag k="highway" v="residential"/>
    <tag k="maxspeed" v="50"/>
    <tag k="maxspeed:source" v="default residential speed limit in Australia"/>
    <tag k="name" v="Stella Close"/>
    <tag k="source" v="approximation"/>
    <tag k="source:name" v="survey"/>
  </way>
  <way id="27557928" version="3" timestamp="2012-01-17T06:40:04Z" uid="147510" user="woodpeck_fixbot" changeset="10414499">
    <nd ref="302548779"/>
    <nd ref="302548799"/>
    <tag k="highway" v="residential"/>
    <tag k="name" v="Stella Close"/>
    <tag k="source" v="approximation"/>
    <tag k="source:name" v="survey"/>
  </way>
  <way id="27557997" version="8" timestamp="2010-07-09T05:56:58Z" uid="74617" user="JohnSmith" changeset="5171134">
    <nd ref="302549618"/>
    <nd ref="304710412"/>
    <nd ref="302549619"/>
    <tag k="highway" v="residential"/>
    <tag k="maxspeed" v="50"/>
    <tag k="maxspeed:source" v="default residential speed limit in Australia"/>
    <tag k="source" v="survey"/>
  </way>
  <way id="27557997" version="9" timestamp="2012-01-17T06:40:05Z" uid="147510" user="woodpeck_fixbot" changeset="10414499">
    <nd ref="302549618"/>
    <nd ref="304710412"/>
    <nd ref="302549619"/>
    <tag k="highway" v="residential"/>
    <tag k="source" v="survey"/>
  </way>
  <way id="27557999" version="6" timestamp="2010-07-09T05:57:19Z" uid="74617" user="JohnSmith" changeset="5171134">
    <nd ref="302549664"/>
    <nd ref="304709179"/>
    <nd ref="302549665"/>
    <nd ref="302551790"/>
    <tag k="highway" v="residential"/>
    <tag k="maxspeed" v="50"/>
    <tag k="maxspeed:source" v="default residential speed limit in Australia"/>
    <tag k="name" v="Keef Close"/>
    <tag k="source" v="gps"/>
  </way>
  <way id="27557999" version="7" timestamp="2012-01-17T06:40:07Z" uid="147510" user="woodpeck_fixbot" changeset="10414499">
    <nd ref="302549664"/>
    <nd ref="304709179"/>
    <nd ref="302549665"/>
    <nd ref="302551790"/>
    <tag k="highway" v="residential"/>
    <tag k="name" v="Keef Close"/>
    <tag k="source" v="gps"/>
  </way>
</osm>
