<?xml version='1.0' encoding='UTF-8'?>
<osm version="0.6" generator="libosmium/2.20.0">
  <way id="27601000" version="2" timestamp="2009-06-17T21:47:59Z" uid="6269" user="Mueck" changeset="1549517">
    <nd ref="26202211"/>
    <nd ref="25875297"/>
    <nd ref="25875300"/>
    <nd ref="25875303"/>
    <tag k="created_by" v="Potlatch 0.10d"/>
    <tag k="highway" v="trunk_link"/>
    <tag k="motorroad" v="yes"/>
    <tag k="oneway" v="yes"/>
  </way>
  <way id="27601005" version="2" timestamp="2010-07-08T16:05:49Z" uid="74617" user="JohnSmith" changeset="5167338">
    <nd ref="303076585"/>
    <nd ref="303076207"/>
    <nd ref="303076209"/>
    <nd ref="303076211"/>
    <nd ref="303076213"/>
    <nd ref="303076217"/>
    <nd ref="303076219"/>
    <nd ref="303076221"/>
    <nd ref="303076222"/>
    <nd ref="303076224"/>
    <nd ref="303076226"/>
    <nd ref="303076230"/>
    <nd ref="303076232"/>
    <nd ref="303076234"/>
    <nd ref="303076236"/>
    <nd ref="303076245"/>
    <nd ref="303076246"/>
    <nd ref="303076248"/>
    <nd ref="303076250"/>
    <nd ref="303076252"/>
    <nd ref="303076254"/>
    <nd ref="303076256"/>
    <nd ref="303076583"/>
    <nd ref="303076257"/>
    <nd ref="303076259"/>
    <nd ref="303076261"/>
    <nd ref="303076263"/>
    <nd ref="303076570"/>
    <nd ref="303076268"/>
    <nd ref="303076270"/>
    <nd ref="303076564"/>
    <nd ref="303076271"/>
    <nd ref="303076273"/>
    <nd ref="303076300"/>
    <nd ref="303076313"/>
    <nd ref="303076315"/>
    <nd ref="303076317"/>
    <nd ref="303076318"/>
    <nd ref="303076320"/>
    <nd ref="303076322"/>
    <nd ref="303076324"/>
    <nd ref="303076326"/>
    <nd ref="303076328"/>
    <nd ref="303076329"/>
    <nd ref="303076502"/>
    <nd ref="303076331"/>
    <nd ref="303076334"/>
    <nd ref="303076392"/>
    <nd ref="303076386"/>
    <nd ref="303076399"/>
    <nd ref="303076336"/>
    <nd ref="303076338"/>
    <nd ref="303076340"/>
    <nd ref="303076341"/>
    <nd ref="303076343"/>
    <nd ref="303076345"/>
    <nd ref="303076347"/>
    <nd ref="303076361"/>
    <nd ref="303076363"/>
    <nd ref="303076367"/>
    <nd ref="303076374"/>
    <tag k="highway" v="residential"/>
    <tag k="maxspeed" v="50"/>
    <tag k="maxspeed:source" v="default residential speed limit in Australia"/>
    <tag k="name" v="Breakaway Drive"/>
    <tag k="source" v="survey"/>
  </way>
  <way id="27601005" version="3" timestamp="2012-01-17T06:52:53Z" uid="147510" user="woodpeck_fixbot" changeset="10414499">
    <nd ref="303076585"/>
    <nd ref="303076207"/>
    <nd ref="303076209"/>
    <nd ref="303076211"/>
    <nd ref="303076213"/>
    <nd ref="303076217"/>
    <nd ref="303076219"/>
    <nd ref="303076221"/>
    <nd ref="303076222"/>
    <nd ref="303076224"/>
    <nd ref="303076226"/>
    <nd ref="303076230"/>
    <nd ref="303076232"/>
    <nd ref="303076234"/>
    <nd ref="303076236"/>
    <nd ref="303076245"/>
    <nd ref="303076246"/>
    <nd ref="303076248"/>
    <nd ref="303076250"/>
    <nd ref="303076252"/>
    <nd ref="303076254"/>
    <nd ref="303076256"/>
    <nd ref="303076583"/>
    <nd ref="303076257"/>
    <nd ref="303076259"/>
    <nd ref="303076261"/>
    <nd ref="303076263"/>
    <nd ref="303076570"/>
    <nd ref="303076268"/>
    <nd ref="303076270"/>
    <nd ref="303076564"/>
    <nd ref="303076271"/>
    <nd ref="303076273"/>
    <nd ref="303076300"/>
    <nd ref="303076313"/>
    <nd ref="303076315"/>
    <nd ref="303076317"/>
    <nd ref="303076318"/>
    <nd ref="303076320"/>
    <nd ref="303076322"/>
    <nd ref="303076324"/>
    <nd ref="303076326"/>
    <nd ref="303076328"/>
    <nd ref="303076329"/>
    <nd ref="303076502"/>
    <nd ref="303076331"/>
    <nd ref="303076334"/>
    <nd ref="303076392"/>
    <nd ref="303076386"/>
    <nd ref="303076399"/>
    <nd ref="303076336"/>
    <nd ref="303076338"/>
    <nd ref="303076340"/>
    <nd ref="303076341"/>
    <nd ref="303076343"/>
    <nd ref="303076345"/>
    <nd ref="303076347"/>
    <nd ref="303076361"/>
    <nd ref="303076363"/>
    <nd ref="303076367"/>
    <nd ref="303076374"/>
    <tag k="highway" v="residential"/>
    <tag k="name" v="Breakaway Drive"/>
    <tag k="source" v="survey"/>
  </way>
  <way id="27601006" version="2" timestamp="2010-07-08T16:06:19Z" uid="74617" user="JohnSmith" changeset="5167338">
    <nd ref="303076502"/>
    <nd ref="303076401"/>
    <nd ref="303076407"/>
    <nd ref="303076408"/>
    <nd ref="303076413"/>
    <nd ref="303076415"/>
    <nd ref="303076419"/>
    <nd ref="303076421"/>
    <nd ref="303076500"/>
    <nd ref="303076422"/>
    <nd ref="303076433"/>
    <nd ref="303076440"/>
    <nd ref="303076442"/>
    <nd ref="303076444"/>
    <nd ref="303076446"/>
    <nd ref="303076448"/>
    <nd ref="303076450"/>
    <nd ref="303076452"/>
    <nd ref="303076454"/>
    <nd ref="303076456"/>
    <tag k="highway" v="residential"/>
    <tag k="maxspeed" v="50"/>
    <tag k="maxspeed:source" v="default residential speed limit in Australia"/>
    <tag k="name" v="Vaiente Parade"/>
    <tag k="source" v="survey"/>
  </way>
  <way id="27601006" version="3" timestamp="2012-01-17T06:52:55Z" uid="147510" user="woodpeck_fixbot" changeset="10414499">
    <nd ref="303076502"/>
    <nd ref="303076401"/>
    <nd ref="303076407"/>
    <nd ref="303076408"/>
    <nd ref="303076413"/>
    <nd ref="303076415"/>
    <nd ref="303076419"/>
    <nd ref="303076421"/>
    <nd ref="303076500"/>
    <nd ref="303076422"/>
    <nd ref="303076433"/>
    <nd ref="303076440"/>
    <nd ref="303076442"/>
    <nd ref="303076444"/>
    <nd ref="303076446"/>
    <nd ref="303076448"/>
    <nd ref="303076450"/>
    <nd ref="303076452"/>
    <nd ref="303076454"/>
    <nd ref="303076456"/>
    <tag k="highway" v="residential"/>
    <tag k="name" v="Vaiente Parade"/>
    <tag k="source" v="survey"/>
  </way>
  <way id="27601007" version="2" timestamp="2010-07-08T16:05:10Z" uid="74617" user="JohnSmith" changeset="5167338">
    <nd ref="303076500"/>
    <nd ref="303076458"/>
    <nd ref="303076459"/>
    <nd ref="303076461"/>
    <nd ref="303076464"/>
    <nd ref="303076466"/>
    <nd ref="303076467"/>
    <nd ref="303076473"/>
    <nd ref="303076475"/>
    <nd ref="303076477"/>
    <nd ref="303076481"/>
    <nd ref="303076485"/>
    <nd ref="303076487"/>
    <nd ref="303076489"/>
    <nd ref="303076491"/>
    <nd ref="303076493"/>
    <nd ref="303076494"/>
    <nd ref="303076496"/>
    <nd ref="303076498"/>
    <tag k="highway" v="residential"/>
    <tag k="maxspeed" v="50"/>
    <tag k="maxspeed:source" v="default residential speed limit in Australia"/>
    <tag k="name" v="Little Bend"/>
    <tag k="source" v="survey"/>
  </way>
  <way id="27601007" version="3" timestamp="2012-01-17T06:52:57Z" uid="147510" user="woodpeck_fixbot" changeset="10414499">
    <nd ref="303076500"/>
    <nd ref="303076458"/>
    <nd ref="303076459"/>
    <nd ref="303076461"/>
    <nd ref="303076464"/>
    <nd ref="303076466"/>
    <nd ref="303076467"/>
    <nd ref="303076473"/>
    <nd ref="303076475"/>
    <nd ref="303076477"/>
    <nd ref="303076481"/>
    <nd ref="303076485"/>
    <nd ref="303076487"/>
    <nd ref="303076489"/>
    <nd ref="303076491"/>
    <nd ref="303076493"/>
    <nd ref="303076494"/>
    <nd ref="303076496"/>
    <nd ref="303076498"/>
    <tag k="highway" v="residential"/>
    <tag k="name" v="Little Bend"/>
    <tag k="source" v="survey"/>
  </way>
  <way id="27601008" version="2" timestamp="2010-07-08T16:05:05Z" uid="74617" user="JohnSmith" changeset="5167338">
    <nd ref="303076564"/>
    <nd ref="303076507"/>
    <nd ref="303076509"/>
    <nd ref="303076511"/>
    <nd ref="303076513"/>
    <nd ref="303076515"/>
    <nd ref="303076517"/>
    <nd ref="303076518"/>
    <nd ref="303076520"/>
    <nd ref="303076522"/>
    <nd ref="303076524"/>
    <nd ref="303076531"/>
    <nd ref="303076533"/>
    <nd ref="303076534"/>
    <nd ref="303076536"/>
    <nd ref="303076539"/>
    <nd ref="303076541"/>
    <nd ref="303076544"/>
    <nd ref="303076549"/>
    <nd ref="303076550"/>
    <nd ref="303076554"/>
    <tag k="highway" v="residential"/>
    <tag k="maxspeed" v="50"/>
    <tag k="maxspeed:source" v="default residential speed limit in Australia"/>
    <tag k="name" v="Elliana Boulevarde"/>
    <tag k="source" v="survey"/>
  </way>
  <way id="27601008" version="3" timestamp="2012-01-17T06:52:58Z" uid="147510" user="woodpeck_fixbot" changeset="10414499">
    <nd ref="303076564"/>
    <nd ref="303076507"/>
    <nd ref="303076509"/>
    <nd ref="303076511"/>
    <nd ref="303076513"/>
    <nd ref="303076515"/>
    <nd ref="303076517"/>
    <nd ref="303076518"/>
    <nd ref="303076520"/>
    <nd ref="303076522"/>
    <nd ref="303076524"/>
    <nd ref="303076531"/>
    <nd ref="303076533"/>
    <nd ref="303076534"/>
    <nd ref="303076536"/>
    <nd ref="303076539"/>
    <nd ref="303076541"/>
    <nd ref="303076544"/>
    <nd ref="303076549"/>
    <nd ref="303076550"/>
    <nd ref="303076554"/>
    <tag k="highway" v="residential"/>
    <tag k="name" v="Elliana Boulevarde"/>
    <tag k="source" v="survey"/>
  </way>
  <way id="27601009" version="2" timestamp="2010-07-08T16:05:37Z" uid="74617" user="JohnSmith" changeset="5167338">
    <nd ref="303076570"/>
    <nd ref="303076566"/>
    <nd ref="303076568"/>
    <tag k="highway" v="residential"/>
    <tag k="maxspeed" v="50"/>
    <tag k="maxspeed:source" v="default residential speed limit in Australia"/>
    <tag k="name" v="Smyth Crescent"/>
    <tag k="source" v="survey"/>
  </way>
  <way id="27601009" version="3" timestamp="2012-01-17T06:52:59Z" uid="147510" user="woodpeck_fixbot" changeset="10414499">
    <nd ref="303076570"/>
    <nd ref="303076566"/>
    <nd ref="303076568"/>
    <tag k="highway" v="residential"/>
    <tag k="name" v="Smyth Crescent"/>
    <tag k="source" v="survey"/>
  </way>
  <way id="27601010" version="2" timestamp="2010-07-08T16:06:07Z" uid="74617" user="JohnSmith" changeset="5167338">
    <nd ref="303076583"/>
    <nd ref="303076572"/>
    <nd ref="303076576"/>
    <nd ref="303076578"/>
    <nd ref="303076580"/>
    <tag k="highway" v="residential"/>
    <tag k="maxspeed" v="50"/>
    <tag k="maxspeed:source" v="default residential speed limit in Australia"/>
    <tag k="name" v="Lloyd Close"/>
    <tag k="source" v="survey"/>
  </way>
  <way id="27601010" version="3" timestamp="2012-01-17T06:53:00Z" uid="147510" user="woodpeck_fixbot" changeset="10414499">
    <nd ref="303076583"/>
    <nd ref="303076572"/>
    <nd ref="303076576"/>
    <nd ref="303076578"/>
    <nd ref="303076580"/>
    <tag k="highway" v="residential"/>
    <tag k="name" v="Lloyd Close"/>
    <tag k="source" v="survey"/>
  </way>
  <way id="27601014" version="1" timestamp="2008-10-08T13:47:06Z" uid="43863" user="Rundling" changeset="161265">
    <nd ref="303076640"/>
    <nd ref="303076645"/>
    <nd ref="303076641"/>
    <nd ref="303076642"/>
    <nd ref="303076643"/>
    <nd ref="303076640"/>
    <tag k="addr:city" v="Rosche"/>
    <tag k="addr:housenumber" v="2"/>
    <tag k="addr:postcode" v="29571"/>
    <tag k="addr:street" v="Am Spielplatz"/>
    <tag k="building" v="yes"/>
    <tag k="created_by" v="Merkaartor 0.11"/>
  </way>
  <way id="27601014" version="2" timestamp="2011-01-24T20:49:38Z" uid="43863" user="Rundling" changeset="7077864">
    <nd ref="303076640"/>
    <nd ref="303076645"/>
    <nd ref="1119276347"/>
    <nd ref="303076642"/>
    <nd ref="303076643"/>
    <nd ref="303076640"/>
    <tag k="addr:city" v="Rosche"/>
    <tag k="addr:housenumber" v="2"/>
    <tag k="addr:postcode" v="29571"/>
    <tag k="addr:street" v="Am Spielplatz"/>
    <tag k="building" v="yes"/>
  </way>
  <way id="27601014" version="3" timestamp="2011-02-13T13:47:55Z" uid="43863" user="Rundling" changeset="7275480"/>
  <way id="27601015" version="1" timestamp="2008-10-08T13:47:06Z" uid="43863" user="Rundling" changeset="161265">
    <nd ref="303076645"/>
    <nd ref="296889031"/>
    <tag k="access" v="private"/>
    <tag k="highway" v="service"/>
  </way>
  <way id="27601015" version="2" timestamp="2011-02-13T13:47:55Z" uid="43863" user="Rundling" changeset="7275480"/>
  <way id="27601016" version="1" timestamp="2008-10-08T13:47:07Z" uid="43863" user="Rundling" changeset="161265">
    <nd ref="303076652"/>
    <nd ref="303076646"/>
    <nd ref="303076651"/>
    <nd ref="303076648"/>
    <nd ref="303076650"/>
    <nd ref="303076652"/>
    <tag k="addr:city" v="Rosche"/>
    <tag k="addr:housenumber" v="4"/>
    <tag k="addr:postcode" v="29571"/>
    <tag k="addr:street" v="Am Spielplatz"/>
    <tag k="building" v="yes"/>
    <tag k="created_by" v="Merkaartor 0.11"/>
  </way>
  <way id="27601061" version="1" timestamp="2008-10-08T13:48:57Z" uid="43863" user="Rundling" changeset="161265">
    <nd ref="303077582"/>
    <nd ref="303077583"/>
    <tag k="access" v="private"/>
    <tag k="highway" v="service"/>
  </way>
  <way id="27601068" version="1" timestamp="2008-10-08T13:50:01Z" uid="43863" user="Rundling" changeset="161265">
    <nd ref="303077675"/>
    <nd ref="303077677"/>
    <nd ref="303077678"/>
    <nd ref="303077679"/>
    <nd ref="303077675"/>
    <tag k="addr:city" v="Rosche"/>
    <tag k="addr:housenumber" v="14"/>
    <tag k="addr:postcode" v="29571"/>
    <tag k="addr:street" v="Bodenteicher Straße"/>
    <tag k="building" v="yes"/>
    <tag k="created_by" v="Merkaartor 0.11"/>
  </way>
  <way id="27601078" version="1" timestamp="2008-10-08T13:50:56Z" uid="43863" user="Rundling" changeset="161265">
    <nd ref="303077794"/>
    <nd ref="303077795"/>
    <nd ref="303077797"/>
    <nd ref="303077798"/>
    <nd ref="303077794"/>
    <tag k="addr:city" v="Rosche"/>
    <tag k="addr:housenumber" v="11"/>
    <tag k="addr:postcode" v="29571"/>
    <tag k="addr:street" v="Bodenteicher Straße"/>
    <tag k="building" v="yes"/>
    <tag k="created_by" v="Merkaartor 0.11"/>
  </way>
  <way id="27601078" version="2" timestamp="2011-04-05T17:13:16Z" uid="43863" user="Rundling" changeset="7776905">
    <nd ref="303077794"/>
    <nd ref="303077795"/>
    <nd ref="303077797"/>
    <nd ref="303077798"/>
    <nd ref="303077794"/>
    <tag k="addr:city" v="Rosche"/>
    <tag k="addr:housenumber" v="11"/>
    <tag k="addr:postcode" v="29571"/>
    <tag k="addr:street" v="Bodenteicher Straße"/>
    <tag k="building" v="yes"/>
  </way>
  <way id="27601171" version="1" timestamp="2008-10-08T13:55:26Z" uid="43863" user="Rundling" changeset="161265">
    <nd ref="303078324"/>
    <nd ref="303078325"/>
    <nd ref="303078326"/>
    <nd ref="303078327"/>
    <nd ref="303078324"/>
    <tag k="addr:city" v="Rosche"/>
    <tag k="addr:housenumber" v="13"/>
    <tag k="addr:postcode" v="29571"/>
    <tag k="addr:street" v="Bodenteicher Straße"/>
    <tag k="building" v="yes"/>
    <tag k="created_by" v="Merkaartor 0.11"/>
  </way>
  <way id="27601171" version="2" timestamp="2011-04-05T17:13:19Z" uid="43863" user="Rundling" changeset="7776905"/>
  <way id="27601172" version="1" timestamp="2008-10-08T13:55:26Z" uid="43863" user="Rundling" changeset="161265">
    <nd ref="303078329"/>
    <nd ref="303078331"/>
    <nd ref="303078332"/>
    <nd ref="303078333"/>
    <nd ref="303078329"/>
    <tag k="addr:city" v="Rosche"/>
    <tag k="addr:housenumber" v="15"/>
    <tag k="addr:postcode" v="29571"/>
    <tag k="addr:street" v="Bodenteicher Straße"/>
    <tag k="building" v="yes"/>
    <tag k="created_by" v="Merkaartor 0.11"/>
  </way>
  <way id="27601172" version="2" timestamp="2011-04-05T17:13:18Z" uid="43863" user="Rundling" changeset="7776905">
    <nd ref="303078329"/>
    <nd ref="303078331"/>
    <nd ref="303078332"/>
    <nd ref="303078333"/>
    <nd ref="303078329"/>
    <tag k="addr:city" v="Rosche"/>
    <tag k="addr:housenumber" v="15"/>
    <tag k="addr:postcode" v="29571"/>
    <tag k="addr:street" v="Bodenteicher Straße"/>
    <tag k="building" v="yes"/>
  </way>
  <way id="27601173" version="1" timestamp="2008-10-08T13:55:27Z" uid="43863" user="Rundling" changeset="161265">
    <nd ref="303078334"/>
    <nd ref="303078335"/>
    <nd ref="303078336"/>
    <nd ref="303078337"/>
    <nd ref="303078334"/>
    <tag k="addr:city" v="Rosche"/>
    <tag k="addr:housenumber" v="1"/>
    <tag k="addr:postcode" v="29571"/>
    <tag k="addr:street" v="Dammweg"/>
    <tag k="building" v="yes"/>
    <tag k="created_by" v="Merkaartor 0.11"/>
  </way>
  <way id="27601173" version="2" timestamp="2011-04-05T17:13:19Z" uid="43863" user="Rundling" changeset="7776905">
    <nd ref="303078334"/>
    <nd ref="303078335"/>
    <nd ref="303078336"/>
    <nd ref="303078337"/>
    <nd ref="303078334"/>
    <tag k="addr:city" v="Rosche"/>
    <tag k="addr:housenumber" v="1"/>
    <tag k="addr:postcode" v="29571"/>
    <tag k="addr:street" v="Dammweg"/>
    <tag k="building" v="yes"/>
  </way>
  <way id="27601174" version="1" timestamp="2008-10-08T13:55:27Z" uid="43863" user="Rundling" changeset="161265">
    <nd ref="303078344"/>
    <nd ref="303078346"/>
    <nd ref="303078340"/>
    <nd ref="303078347"/>
    <nd ref="303078344"/>
    <tag k="addr:city" v="Rosche"/>
    <tag k="addr:housenumber" v="3"/>
    <tag k="addr:postcode" v="29571"/>
    <tag k="addr:street" v="Dammweg"/>
    <tag k="building" v="yes"/>
    <tag k="created_by" v="Merkaartor 0.11"/>
  </way>
  <way id="27601175" version="1" timestamp="2008-10-08T13:55:27Z" uid="43863" user="Rundling" changeset="161265">
    <nd ref="303078349"/>
    <nd ref="303078350"/>
    <nd ref="303078348"/>
    <nd ref="303078351"/>
    <nd ref="303078349"/>
    <tag k="addr:city" v="Rosche"/>
    <tag k="addr:housenumber" v="2"/>
    <tag k="addr:postcode" v="29571"/>
    <tag k="addr:street" v="Dammweg"/>
    <tag k="building" v="yes"/>
    <tag k="created_by" v="Merkaartor 0.11"/>
  </way>
  <way id="27601175" version="2" timestamp="2011-04-05T17:13:18Z" uid="43863" user="Rundling" changeset="7776905">
    <nd ref="303078349"/>
    <nd ref="303078350"/>
    <nd ref="303078348"/>
    <nd ref="303078351"/>
    <nd ref="303078349"/>
    <tag k="addr:city" v="Rosche"/>
    <tag k="addr:housenumber" v="2"/>
    <tag k="addr:postcode" v="29571"/>
    <tag k="addr:street" v="Dammweg"/>
    <tag k="building" v="yes"/>
  </way>
  <way id="27601176" version="1" timestamp="2008-10-08T13:55:28Z" uid="43863" user="Rundling" changeset="161265">
    <nd ref="303078353"/>
    <nd ref="303078354"/>
    <nd ref="303078352"/>
    <nd ref="303078355"/>
    <nd ref="303078353"/>
    <tag k="addr:city" v="Rosche"/>
    <tag k="addr:housenumber" v="4"/>
    <tag k="addr:postcode" v="29571"/>
    <tag k="addr:street" v="Dammweg"/>
    <tag k="building" v="yes"/>
    <tag k="created_by" v="Merkaartor 0.11"/>
  </way>
  <way id="27601176" version="2" timestamp="2011-04-05T17:13:15Z" uid="43863" user="Rundling" changeset="7776905">
    <nd ref="303078353"/>
    <nd ref="303078354"/>
    <nd ref="303078352"/>
    <nd ref="303078355"/>
    <nd ref="303078353"/>
    <tag k="addr:city" v="Rosche"/>
    <tag k="addr:housenumber" v="4"/>
    <tag k="addr:postcode" v="29571"/>
    <tag k="addr:street" v="Dammweg"/>
    <tag k="building" v="yes"/>
  </way>
  <way id="27601177" version="1" timestamp="2008-10-08T13:55:28Z" uid="43863" user="Rundling" changeset="161265">
    <nd ref="303078357"/>
    <nd ref="303078358"/>
    <nd ref="303078356"/>
    <nd ref="303078359"/>
    <nd ref="303078357"/>
    <tag k="addr:city" v="Rosche"/>
    <tag k="addr:housenumber" v="6"/>
    <tag k="addr:postcode" v="29571"/>
    <tag k="addr:street" v="Dammweg"/>
    <tag k="building" v="yes"/>
    <tag k="created_by" v="Merkaartor 0.11"/>
  </way>
  <way id="27601177" version="2" timestamp="2011-04-05T17:13:15Z" uid="43863" user="Rundling" changeset="7776905">
    <nd ref="303078357"/>
    <nd ref="1233813728"/>
    <nd ref="303078356"/>
    <nd ref="1233813702"/>
    <nd ref="303078357"/>
    <tag k="addr:city" v="Rosche"/>
    <tag k="addr:housenumber" v="6"/>
    <tag k="addr:postcode" v="29571"/>
    <tag k="addr:street" v="Dammweg"/>
    <tag k="building" v="yes"/>
  </way>
  <way id="27601185" version="3" timestamp="2008-12-27T17:16:31Z" uid="8619" user="cetest" changeset="628752">
    <nd ref="286594282"/>
    <nd ref="288383935"/>
    <nd ref="286593928"/>
    <nd ref="286593919"/>
    <nd ref="286593935"/>
    <nd ref="286593938"/>
    <nd ref="286596286"/>
    <nd ref="286594288"/>
    <nd ref="286596272"/>
    <nd ref="286594285"/>
    <tag k="created_by" v="Potlatch 0.10d"/>
    <tag k="highway" v="secondary"/>
    <tag k="name" v="Route de Paris"/>
  </way>
  <way id="27601185" version="4" timestamp="2008-12-27T17:42:24Z" uid="8619" user="cetest" changeset="628752">
    <nd ref="286594282"/>
    <nd ref="288383935"/>
    <nd ref="286593928"/>
    <nd ref="286593919"/>
    <nd ref="286593935"/>
    <nd ref="286593938"/>
    <nd ref="286596286"/>
    <nd ref="286594288"/>
    <nd ref="286596272"/>
    <nd ref="322075435"/>
    <nd ref="286594285"/>
    <tag k="created_by" v="Potlatch 0.10d"/>
    <tag k="highway" v="secondary"/>
    <tag k="name" v="Route de Paris"/>
  </way>
  <way id="27601185" version="5" timestamp="2010-09-01T16:11:21Z" uid="107257" user="FrViPofm" changeset="5654852">
    <nd ref="286594282"/>
    <nd ref="288383935"/>
    <nd ref="286593928"/>
    <nd ref="286593919"/>
    <nd ref="286593935"/>
    <nd ref="286593938"/>
    <nd ref="286596286"/>
    <nd ref="286594288"/>
    <nd ref="286596272"/>
    <nd ref="322075435"/>
    <nd ref="286594285"/>
    <nd ref="892086999"/>
    <tag k="highway" v="secondary"/>
    <tag k="name" v="Route de Paris"/>
  </way>
  <way id="27601185" version="6" timestamp="2011-03-24T23:52:43Z" uid="412560" user="Meersbrook" changeset="7661295">
    <nd ref="286594282"/>
    <nd ref="288383935"/>
    <nd ref="286593928"/>
    <nd ref="286593919"/>
    <nd ref="286593935"/>
    <nd ref="286593938"/>
    <nd ref="1216826417"/>
    <nd ref="286596286"/>
    <nd ref="286594288"/>
    <nd ref="286596272"/>
    <nd ref="322075435"/>
    <nd ref="286594285"/>
    <nd ref="892086999"/>
    <tag k="highway" v="secondary"/>
    <tag k="name" v="Route de Paris"/>
  </way>
  <way id="27601185" version="7" timestamp="2012-02-02T01:29:48Z" uid="99151" user="quicky" changeset="10564109">
    <nd ref="286594282"/>
    <nd ref="1615048237"/>
    <nd ref="288383935"/>
    <nd ref="286593928"/>
    <nd ref="286593919"/>
    <nd ref="286593935"/>
    <nd ref="286593938"/>
    <nd ref="1216826417"/>
    <nd ref="286596286"/>
    <nd ref="286594288"/>
    <nd ref="286596272"/>
    <nd ref="322075435"/>
    <nd ref="286594285"/>
    <nd ref="892086999"/>
    <tag k="highway" v="secondary"/>
    <tag k="name" v="Route de Paris"/>
  </way>
  <way id="27601185" version="8" timestamp="2012-02-02T23:40:39Z" uid="99151" user="quicky" changeset="10572463"/>
  <way id="27601215" version="5" timestamp="2011-05-26T19:39:47Z" uid="8619" user="cetest" changeset="8256568">
    <nd ref="1301120485"/>
    <nd ref="287993259"/>
    <nd ref="288318530"/>
    <nd ref="1301120432"/>
    <nd ref="1301120455"/>
    <nd ref="288318540"/>
    <nd ref="288318541"/>
    <nd ref="1301120687"/>
    <nd ref="1301120502"/>
    <nd ref="1301120632"/>
    <nd ref="288318543"/>
    <nd ref="892018798"/>
    <nd ref="346261840"/>
    <nd ref="288318546"/>
    <nd ref="288318550"/>
    <nd ref="288318554"/>
    <tag k="highway" v="secondary"/>
  </way>
  <way id="27601215" version="6" timestamp="2011-05-27T20:19:53Z" uid="8619" user="cetest" changeset="8266368">
    <nd ref="1301120485"/>
    <nd ref="287993259"/>
    <nd ref="288318530"/>
    <nd ref="1301120432"/>
    <nd ref="1301120455"/>
    <nd ref="288318540"/>
    <nd ref="288318541"/>
    <nd ref="1302533511"/>
    <nd ref="1301120687"/>
    <nd ref="1301120502"/>
    <nd ref="1301120632"/>
    <nd ref="288318543"/>
    <nd ref="892018798"/>
    <nd ref="346261840"/>
    <nd ref="1302533794"/>
    <nd ref="1302533988"/>
    <nd ref="1302533864"/>
    <nd ref="288318546"/>
    <nd ref="1302533834"/>
    <nd ref="1302533549"/>
    <nd ref="1302533624"/>
    <nd ref="288318550"/>
    <nd ref="288318554"/>
    <tag k="highway" v="secondary"/>
  </way>
  <way id="27601215" version="7" timestamp="2011-07-21T11:45:53Z" uid="491902" user="cricritermit" changeset="8787447">
    <nd ref="1301120485"/>
    <nd ref="287993259"/>
    <nd ref="1368914884"/>
    <nd ref="288318530"/>
    <nd ref="1301120432"/>
    <nd ref="1301120455"/>
    <nd ref="288318540"/>
    <nd ref="288318541"/>
    <nd ref="1302533511"/>
    <nd ref="1301120687"/>
    <nd ref="1301120502"/>
    <nd ref="1301120632"/>
    <nd ref="288318543"/>
    <nd ref="892018798"/>
    <nd ref="346261840"/>
    <nd ref="1302533794"/>
    <nd ref="1302533988"/>
    <nd ref="1302533864"/>
    <nd ref="288318546"/>
    <nd ref="1302533834"/>
    <nd ref="1302533549"/>
    <nd ref="1302533624"/>
    <nd ref="288318550"/>
    <nd ref="288318554"/>
    <tag k="highway" v="secondary"/>
  </way>
  <way id="27601215" version="8" timestamp="2011-08-12T07:55:36Z" uid="491902" user="cricritermit" changeset="8992814">
    <nd ref="1301120485"/>
    <nd ref="287993259"/>
    <nd ref="1368914884"/>
    <nd ref="288318530"/>
    <nd ref="1301120432"/>
    <nd ref="1301120455"/>
    <nd ref="288318540"/>
    <nd ref="288318541"/>
    <nd ref="1302533511"/>
    <nd ref="1301120687"/>
    <tag k="highway" v="secondary"/>
  </way>
  <way id="27601215" version="9" timestamp="2012-01-26T00:09:09Z" uid="99151" user="quicky" changeset="10498919"/>
  <way id="27601230" version="1" timestamp="2008-10-08T13:59:14Z" uid="43863" user="Rundling" changeset="161265">
    <nd ref="303079140"/>
    <nd ref="303079142"/>
    <nd ref="303079139"/>
    <nd ref="303079143"/>
    <nd ref="303079140"/>
    <tag k="addr:city" v="Rosche"/>
    <tag k="addr:housenumber" v="1"/>
    <tag k="addr:postcode" v="29571"/>
    <tag k="addr:street" v="Schulstraße"/>
    <tag k="building" v="yes"/>
    <tag k="created_by" v="Merkaartor 0.11"/>
  </way>
  <way id="27601230" version="2" timestamp="2010-07-20T19:57:50Z" uid="43863" user="Rundling" changeset="5273828">
    <nd ref="826652733"/>
    <nd ref="826652725"/>
    <nd ref="303079139"/>
    <nd ref="303079143"/>
    <nd ref="826652733"/>
    <tag k="addr:city" v="Rosche"/>
    <tag k="addr:housenumber" v="1"/>
    <tag k="addr:postcode" v="29571"/>
    <tag k="addr:street" v="Schulstraße"/>
    <tag k="building" v="yes"/>
  </way>
  <way id="27601231" version="1" timestamp="2008-10-08T13:59:14Z" uid="43863" user="Rundling" changeset="161265">
    <nd ref="303079144"/>
    <nd ref="303079146"/>
    <nd ref="303079151"/>
    <nd ref="303079147"/>
    <nd ref="303079144"/>
    <tag k="addr:city" v="Rosche"/>
    <tag k="addr:housenumber" v="3"/>
    <tag k="addr:postcode" v="29571"/>
    <tag k="addr:street" v="Schulstraße"/>
    <tag k="building" v="yes"/>
    <tag k="created_by" v="Merkaartor 0.11"/>
  </way>
  <way id="27601232" version="1" timestamp="2008-10-08T13:59:14Z" uid="43863" user="Rundling" changeset="161265">
    <nd ref="303079155"/>
    <nd ref="303079159"/>
    <nd ref="303079169"/>
    <nd ref="303079162"/>
    <nd ref="303079155"/>
    <tag k="addr:city" v="Rosche"/>
    <tag k="addr:housenumber" v="5"/>
    <tag k="addr:postcode" v="29571"/>
    <tag k="addr:street" v="Schulstraße"/>
    <tag k="building" v="yes"/>
    <tag k="created_by" v="Merkaartor 0.11"/>
  </way>
  <way id="27601233" version="1" timestamp="2008-10-08T13:59:15Z" uid="43863" user="Rundling" changeset="161265">
    <nd ref="303079171"/>
    <nd ref="303079175"/>
    <nd ref="303079182"/>
    <nd ref="303079178"/>
    <nd ref="303079171"/>
    <tag k="addr:city" v="Rosche"/>
    <tag k="addr:housenumber" v="13"/>
    <tag k="addr:postcode" v="29571"/>
    <tag k="addr:street" v="Schulstraße"/>
    <tag k="building" v="yes"/>
    <tag k="created_by" v="Merkaartor 0.11"/>
  </way>
  <way id="27601234" version="1" timestamp="2008-10-08T13:59:15Z" uid="43863" user="Rundling" changeset="161265">
    <nd ref="303079187"/>
    <nd ref="303079189"/>
    <nd ref="303079195"/>
    <nd ref="303079192"/>
    <nd ref="303079187"/>
    <tag k="addr:city" v="Rosche"/>
    <tag k="addr:housenumber" v="17"/>
    <tag k="addr:postcode" v="29571"/>
    <tag k="addr:street" v="Schulstraße"/>
    <tag k="building" v="yes"/>
    <tag k="created_by" v="Merkaartor 0.11"/>
  </way>
  <way id="27601235" version="1" timestamp="2008-10-08T13:59:16Z" uid="43863" user="Rundling" changeset="161265">
    <nd ref="303079198"/>
    <nd ref="303079202"/>
    <nd ref="303079209"/>
    <nd ref="303079206"/>
    <nd ref="303079198"/>
    <tag k="addr:city" v="Rosche"/>
    <tag k="addr:housenumber" v="21"/>
    <tag k="addr:postcode" v="29571"/>
    <tag k="addr:street" v="Schulstraße"/>
    <tag k="building" v="yes"/>
    <tag k="created_by" v="Merkaartor 0.11"/>
  </way>
  <way id="27601317" version="1" timestamp="2008-10-08T14:03:42Z" uid="43863" user="Rundling" changeset="161265">
    <nd ref="303080305"/>
    <nd ref="303080306"/>
    <nd ref="303080309"/>
    <nd ref="303080308"/>
    <nd ref="303080305"/>
    <tag k="addr:city" v="Rosche"/>
    <tag k="addr:housenumber" v="12"/>
    <tag k="addr:postcode" v="29571"/>
    <tag k="addr:street" v="Schulstraße"/>
    <tag k="building" v="yes"/>
    <tag k="created_by" v="Merkaartor 0.11"/>
  </way>
  <way id="27601319" version="1" timestamp="2008-10-08T14:03:43Z" uid="43863" user="Rundling" changeset="161265">
    <nd ref="303080311"/>
    <nd ref="303080312"/>
    <nd ref="303080315"/>
    <nd ref="303080314"/>
    <nd ref="303080311"/>
    <tag k="addr:city" v="Rosche"/>
    <tag k="addr:housenumber" v="10"/>
    <tag k="addr:postcode" v="29571"/>
    <tag k="addr:street" v="Schulstraße"/>
    <tag k="building" v="yes"/>
    <tag k="created_by" v="Merkaartor 0.11"/>
  </way>
  <way id="27601360" version="1" timestamp="2008-10-08T14:04:54Z" uid="43863" user="Rundling" changeset="161265">
    <nd ref="303080632"/>
    <nd ref="303080635"/>
    <nd ref="303080638"/>
    <nd ref="303080640"/>
    <nd ref="303080632"/>
    <tag k="addr:city" v="Rosche"/>
    <tag k="addr:housenumber" v="5"/>
    <tag k="addr:postcode" v="29571"/>
    <tag k="addr:street" v="Bodenteicher Straße"/>
    <tag k="building" v="yes"/>
    <tag k="created_by" v="Merkaartor 0.11"/>
  </way>
  <way id="27601409" version="1" timestamp="2008-10-08T14:09:14Z" uid="43863" user="Rundling" changeset="161265">
    <nd ref="303081600"/>
    <nd ref="303081597"/>
    <nd ref="303081595"/>
    <nd ref="303081599"/>
    <nd ref="303081600"/>
    <tag k="building" v="yes"/>
  </way>
  <way id="27601415" version="2" timestamp="2009-02-23T12:19:13Z" uid="34428" user="usm78-gis" changeset="634299"/>
  <way id="27601421" version="2" timestamp="2009-02-01T18:42:09Z" uid="34428" user="usm78-gis" changeset="31975">
    <nd ref="303081699"/>
    <nd ref="450856"/>
    <tag k="bridge" v="yes"/>
    <tag k="created_by" v="Potlatch alpha"/>
    <tag k="highway" v="motorway"/>
    <tag k="layer" v="1"/>
    <tag k="name" v="КАД"/>
    <tag k="oneway" v="yes"/>
  </way>
  <way id="27601421" version="3" timestamp="2010-02-28T15:05:46Z" uid="136198" user="tmprec" changeset="3999057">
    <nd ref="303081699"/>
    <nd ref="450856"/>
    <tag k="bridge" v="yes"/>
    <tag k="highway" v="motorway"/>
    <tag k="layer" v="1"/>
    <tag k="maxspeed" v="110"/>
    <tag k="name" v="КАД"/>
    <tag k="oneway" v="yes"/>
  </way>
  <way id="27601421" version="4" timestamp="2010-07-23T17:43:38Z" uid="136198" user="tmprec" changeset="5297377">
    <nd ref="303081699"/>
    <nd ref="450856"/>
    <tag k="bridge" v="yes"/>
    <tag k="highway" v="motorway"/>
    <tag k="layer" v="1"/>
    <tag k="maxspeed" v="110"/>
    <tag k="maxspeed:practical" v="120"/>
    <tag k="name" v="КАД"/>
    <tag k="oneway" v="yes"/>
  </way>
  <way id="27601421" version="5" timestamp="2010-09-24T14:18:11Z" uid="290271" user="Zverik" changeset="5863159">
    <nd ref="303081699"/>
    <nd ref="450856"/>
    <tag k="bridge" v="yes"/>
    <tag k="highway" v="motorway"/>
    <tag k="layer" v="1"/>
    <tag k="lit" v="yes"/>
    <tag k="maxspeed" v="110"/>
    <tag k="maxspeed:practical" v="120"/>
    <tag k="name" v="КАД"/>
    <tag k="oneway" v="yes"/>
    <tag k="surface" v="asphalt"/>
  </way>
  <way id="27601421" version="6" timestamp="2011-01-24T21:46:42Z" uid="303945" user="Дмитрий Кудряшов" changeset="7078534">
    <nd ref="303081699"/>
    <nd ref="450856"/>
    <tag k="bridge" v="yes"/>
    <tag k="highway" v="motorway"/>
    <tag k="layer" v="1"/>
    <tag k="lit" v="yes"/>
    <tag k="maxspeed" v="110"/>
    <tag k="maxspeed:practical" v="120"/>
    <tag k="name" v="КАД"/>
    <tag k="oneway" v="yes"/>
    <tag k="ref" v="A-118"/>
    <tag k="surface" v="asphalt"/>
  </way>
  <way id="27601421" version="7" timestamp="2011-04-15T11:58:58Z" uid="206282" user="Amigo" changeset="7868986">
    <nd ref="303081699"/>
    <nd ref="450856"/>
    <tag k="bridge" v="yes"/>
    <tag k="highway" v="motorway"/>
    <tag k="layer" v="1"/>
    <tag k="lit" v="yes"/>
    <tag k="maxspeed" v="110"/>
    <tag k="maxspeed:practical" v="120"/>
    <tag k="name" v="КАД"/>
    <tag k="oneway" v="yes"/>
    <tag k="ref" v="A118"/>
    <tag k="surface" v="asphalt"/>
  </way>
  <way id="27601421" version="8" timestamp="2011-11-24T18:30:57Z" uid="39040" user="Dinamik" changeset="9935835">
    <nd ref="303081699"/>
    <nd ref="450856"/>
    <tag k="bridge" v="yes"/>
    <tag k="highway" v="motorway"/>
    <tag k="layer" v="1"/>
    <tag k="lit" v="yes"/>
    <tag k="maxspeed" v="signals"/>
    <tag k="maxspeed:practical" v="120"/>
    <tag k="name" v="КАД"/>
    <tag k="oneway" v="yes"/>
    <tag k="ref" v="A118"/>
    <tag k="surface" v="asphalt"/>
  </way>
  <way id="27601422" version="2" timestamp="2009-02-01T18:46:34Z" uid="34428" user="usm78-gis" changeset="31975">
    <nd ref="450856"/>
    <nd ref="450857"/>
    <nd ref="278742782"/>
    <tag k="created_by" v="Potlatch alpha"/>
    <tag k="highway" v="motorway"/>
    <tag k="name" v="КАД"/>
    <tag k="oneway" v="yes"/>
  </way>
  <way id="27601422" version="3" timestamp="2009-02-23T12:37:33Z" uid="34428" user="usm78-gis" changeset="634299"/>
  <way id="27601423" version="2" timestamp="2009-02-01T18:44:45Z" uid="34428" user="usm78-gis" changeset="31975">
    <nd ref="303081696"/>
    <nd ref="303081698"/>
    <tag k="bridge" v="yes"/>
    <tag k="created_by" v="GRASS v.build.polylines 14042007"/>
    <tag k="highway" v="motorway"/>
    <tag k="layer" v="1"/>
    <tag k="name" v="КАД"/>
    <tag k="oneway" v="yes"/>
  </way>
  <way id="27601423" version="3" timestamp="2010-02-28T15:05:47Z" uid="136198" user="tmprec" changeset="3999057">
    <nd ref="303081696"/>
    <nd ref="303081698"/>
    <tag k="bridge" v="yes"/>
    <tag k="highway" v="motorway"/>
    <tag k="layer" v="1"/>
    <tag k="maxspeed" v="110"/>
    <tag k="name" v="КАД"/>
    <tag k="oneway" v="yes"/>
  </way>
  <way id="27601423" version="4" timestamp="2010-07-23T17:43:18Z" uid="136198" user="tmprec" changeset="5297377">
    <nd ref="303081696"/>
    <nd ref="303081698"/>
    <tag k="bridge" v="yes"/>
    <tag k="highway" v="motorway"/>
    <tag k="layer" v="1"/>
    <tag k="maxspeed" v="110"/>
    <tag k="maxspeed:practical" v="120"/>
    <tag k="name" v="КАД"/>
    <tag k="oneway" v="yes"/>
  </way>
  <way id="27601423" version="5" timestamp="2010-09-24T14:17:31Z" uid="290271" user="Zverik" changeset="5863159">
    <nd ref="303081696"/>
    <nd ref="303081698"/>
    <tag k="bridge" v="yes"/>
    <tag k="highway" v="motorway"/>
    <tag k="layer" v="1"/>
    <tag k="lit" v="yes"/>
    <tag k="maxspeed" v="110"/>
    <tag k="maxspeed:practical" v="120"/>
    <tag k="name" v="КАД"/>
    <tag k="oneway" v="yes"/>
    <tag k="surface" v="asphalt"/>
  </way>
  <way id="27601423" version="6" timestamp="2011-01-24T21:44:37Z" uid="303945" user="Дмитрий Кудряшов" changeset="7078534">
    <nd ref="303081696"/>
    <nd ref="303081698"/>
    <tag k="bridge" v="yes"/>
    <tag k="highway" v="motorway"/>
    <tag k="layer" v="1"/>
    <tag k="lit" v="yes"/>
    <tag k="maxspeed" v="110"/>
    <tag k="maxspeed:practical" v="120"/>
    <tag k="name" v="КАД"/>
    <tag k="oneway" v="yes"/>
    <tag k="ref" v="A-118"/>
    <tag k="surface" v="asphalt"/>
  </way>
  <way id="27601423" version="7" timestamp="2011-04-15T11:58:57Z" uid="206282" user="Amigo" changeset="7868986">
    <nd ref="303081696"/>
    <nd ref="303081698"/>
    <tag k="bridge" v="yes"/>
    <tag k="highway" v="motorway"/>
    <tag k="layer" v="1"/>
    <tag k="lit" v="yes"/>
    <tag k="maxspeed" v="110"/>
    <tag k="maxspeed:practical" v="120"/>
    <tag k="name" v="КАД"/>
    <tag k="oneway" v="yes"/>
    <tag k="ref" v="A118"/>
    <tag k="surface" v="asphalt"/>
  </way>
  <way id="27601423" version="8" timestamp="2011-11-24T18:31:12Z" uid="39040" user="Dinamik" changeset="9935835">
    <nd ref="303081696"/>
    <nd ref="303081698"/>
    <tag k="bridge" v="yes"/>
    <tag k="highway" v="motorway"/>
    <tag k="layer" v="1"/>
    <tag k="lit" v="yes"/>
    <tag k="maxspeed" v="signals"/>
    <tag k="maxspeed:practical" v="120"/>
    <tag k="name" v="КАД"/>
    <tag k="oneway" v="yes"/>
    <tag k="ref" v="A118"/>
    <tag k="surface" v="asphalt"/>
  </way>
  <way id="27601424" version="3" timestamp="2009-02-01T18:35:29Z" uid="34428" user="usm78-gis" changeset="31975">
    <nd ref="303081698"/>
    <nd ref="450855"/>
    <nd ref="249168778"/>
    <nd ref="59474682"/>
    <nd ref="94079467"/>
    <nd ref="94079465"/>
    <nd ref="94079458"/>
    <nd ref="94079457"/>
    <nd ref="94079455"/>
    <nd ref="94079454"/>
    <nd ref="59474716"/>
    <nd ref="81330993"/>
    <nd ref="81330992"/>
    <nd ref="81330991"/>
    <nd ref="81330990"/>
    <nd ref="81330988"/>
    <nd ref="178250802"/>
    <nd ref="10594008"/>
    <nd ref="10594012"/>
    <nd ref="10594016"/>
    <tag k="created_by" v="GRASS v.build.polylines 14042007"/>
    <tag k="highway" v="motorway"/>
    <tag k="name" v="КАД"/>
    <tag k="oneway" v="yes"/>
  </way>
  <way id="27601424" version="4" timestamp="2009-02-23T12:31:08Z" uid="34428" user="usm78-gis" changeset="634299"/>
  <way id="27601425" version="2" timestamp="2009-02-23T13:12:50Z" uid="34428" user="usm78-gis" changeset="634299"/>
  <way id="27601426" version="1" timestamp="2008-10-08T14:09:52Z" uid="43863" user="Rundling" changeset="161265">
    <nd ref="303081790"/>
    <nd ref="303081782"/>
    <nd ref="303081779"/>
    <nd ref="303081785"/>
    <nd ref="303081790"/>
    <tag k="building" v="yes"/>
  </way>
  <way id="27601426" version="2" timestamp="2011-01-24T20:32:45Z" uid="43863" user="Rundling" changeset="7077627"/>
  <way id="27601574" version="2" timestamp="2010-06-29T19:11:56Z" uid="74617" user="JohnSmith" changeset="5108182">
    <nd ref="303084283"/>
    <nd ref="303084284"/>
    <nd ref="303084286"/>
    <nd ref="303084287"/>
    <nd ref="303084283"/>
    <tag k="fixme" v="sport=football is ambiguous, see http://wiki.osm.org/wiki/Football for more details"/>
    <tag k="sport" v="football"/>
  </way>
  <way id="27601574" version="3" timestamp="2011-12-19T11:09:09Z" uid="92075" user="Art Penteur" changeset="10154563">
    <nd ref="303084283"/>
    <nd ref="303084284"/>
    <nd ref="1553772448"/>
    <nd ref="1553772444"/>
    <nd ref="303084286"/>
    <nd ref="303084287"/>
    <nd ref="1553772461"/>
    <nd ref="303084283"/>
    <tag k="leisure" v="pitch"/>
    <tag k="sport" v="soccer"/>
  </way>
  <way id="27601581" version="7" timestamp="2008-10-23T17:05:18Z" uid="6975" user="ulfl" changeset="530870">
    <nd ref="303184081"/>
    <nd ref="303184082"/>
    <nd ref="303084558"/>
    <nd ref="303084978"/>
    <nd ref="303085064"/>
    <nd ref="253633546"/>
    <tag k="highway" v="residential"/>
    <tag k="name" v="Kringelhejdevägen"/>
    <tag k="source" v="Yahoo"/>
  </way>
  <way id="27601598" version="5" timestamp="2009-10-23T12:16:25Z" uid="36809" user="pfoten_weg_!_" changeset="2929257">
    <nd ref="303085034"/>
    <nd ref="303085035"/>
    <nd ref="303085037"/>
    <nd ref="303085038"/>
    <nd ref="303085034"/>
    <tag k="building" v="yes"/>
  </way>
  <way id="27601599" version="3" timestamp="2009-10-23T12:16:27Z" uid="36809" user="pfoten_weg_!_" changeset="2929257">
    <nd ref="303085053"/>
    <nd ref="303085054"/>
    <nd ref="303085055"/>
    <nd ref="303085057"/>
    <nd ref="303085053"/>
    <tag k="building" v="yes"/>
  </way>
  <way id="27601714" version="8" timestamp="2008-10-23T18:44:28Z" uid="6975" user="ulfl" changeset="530870">
    <nd ref="303088017"/>
    <nd ref="303088020"/>
    <nd ref="303088022"/>
    <nd ref="303088025"/>
    <nd ref="303088028"/>
    <nd ref="303088030"/>
    <nd ref="303088017"/>
    <tag k="landuse" v="residential"/>
    <tag k="name" v="Vejlø"/>
    <tag k="place" v="village"/>
  </way>
  <way id="27601714" version="9" timestamp="2009-02-25T19:52:05Z" uid="50215" user="Anders Mikkelsen" changeset="667696">
    <nd ref="303088017"/>
    <nd ref="303088020"/>
    <nd ref="303088022"/>
    <nd ref="303088025"/>
    <nd ref="303088028"/>
    <nd ref="303088030"/>
    <nd ref="303088017"/>
    <tag k="created_by" v="Potlatch 0.10f"/>
    <tag k="landuse" v="residential"/>
    <tag k="name" v="Vejlø"/>
    <tag k="place" v="village"/>
  </way>
  <way id="27601740" version="5" timestamp="2008-11-26T20:03:13Z" uid="6975" user="ulfl" changeset="797054">
    <nd ref="303089048"/>
    <nd ref="303089049"/>
    <nd ref="271242100"/>
    <nd ref="148775052"/>
    <tag k="aeroway" v="taxiway"/>
  </way>
  <way id="27601740" version="6" timestamp="2009-04-25T10:58:04Z" uid="48157" user="Jekader" changeset="945886">
    <nd ref="384639934"/>
    <nd ref="384639941"/>
    <nd ref="384639927"/>
    <nd ref="384639939"/>
    <nd ref="384639925"/>
    <nd ref="303089048"/>
    <tag k="aeroway" v="taxiway"/>
  </way>
  <way id="27601891" version="9" timestamp="2010-03-28T00:12:54Z" uid="20587" user="balrog-kun" changeset="4250871">
    <nd ref="303091475"/>
    <nd ref="303611592"/>
    <nd ref="122869310"/>
    <nd ref="122680421"/>
    <nd ref="123015841"/>
    <nd ref="122842328"/>
    <nd ref="297398849"/>
    <nd ref="297397530"/>
    <tag k="created_by" v="Potlatch 0.10d"/>
    <tag k="highway" v="residential"/>
    <tag k="name" v="Fidler Avenue"/>
    <tag k="tiger:cfcc" v="A41"/>
    <tag k="tiger:county" v="Los Angeles, CA"/>
    <tag k="tiger:name_base" v="Fidler"/>
    <tag k="tiger:name_type" v="Ave"/>
    <tag k="tiger:reviewed" v="no"/>
    <tag k="tiger:separated" v="no"/>
    <tag k="tiger:source" v="tiger_import_dch_v0.6_20070809"/>
    <tag k="tiger:tlid" v="141699781:142660214:142660215:141699809:141699816:141818857:141699846:141699788"/>
    <tag k="tiger:zip_left" v="90712"/>
    <tag k="tiger:zip_right" v="90712"/>
  </way>
  <way id="27601891" version="10" timestamp="2011-10-21T14:59:03Z" uid="28923" user="California Bear" changeset="9616976">
    <nd ref="303091475"/>
    <nd ref="303611592"/>
    <nd ref="122869310"/>
    <nd ref="122680421"/>
    <nd ref="123015841"/>
    <nd ref="122842328"/>
    <nd ref="297398849"/>
    <nd ref="1475056774"/>
    <nd ref="297397530"/>
    <tag k="highway" v="residential"/>
    <tag k="name" v="Fidler Avenue"/>
    <tag k="tiger:cfcc" v="A41"/>
    <tag k="tiger:county" v="Los Angeles, CA"/>
    <tag k="tiger:name_base" v="Fidler"/>
    <tag k="tiger:name_type" v="Ave"/>
    <tag k="tiger:reviewed" v="no"/>
    <tag k="tiger:separated" v="no"/>
    <tag k="tiger:source" v="tiger_import_dch_v0.6_20070809"/>
    <tag k="tiger:tlid" v="141699781:142660214:142660215:141699809:141699816:141818857:141699846:141699788"/>
    <tag k="tiger:zip_left" v="90712"/>
    <tag k="tiger:zip_right" v="90712"/>
  </way>
  <way id="27601901" version="2" timestamp="2008-12-01T14:13:52Z" uid="6269" user="Mueck" changeset="11996"/>
  <way id="27601904" version="3" timestamp="2010-03-28T00:12:54Z" uid="20587" user="balrog-kun" changeset="4250871">
    <nd ref="123041886"/>
    <nd ref="122740716"/>
    <nd ref="122843361"/>
    <tag k="created_by" v="Potlatch 0.10d"/>
    <tag k="highway" v="residential"/>
    <tag k="name" v="North Pearce Avenue"/>
    <tag k="tiger:cfcc" v="A41"/>
    <tag k="tiger:county" v="Los Angeles, CA"/>
    <tag k="tiger:name_base" v="Pearce"/>
    <tag k="tiger:name_direction_prefix" v="N"/>
    <tag k="tiger:name_type" v="Ave"/>
    <tag k="tiger:reviewed" v="no"/>
    <tag k="tiger:separated" v="no"/>
    <tag k="tiger:source" v="tiger_import_dch_v0.6_20070809"/>
    <tag k="tiger:tlid" v="141699881"/>
  </way>
  <way id="27601907" version="2" timestamp="2010-03-28T00:12:54Z" uid="20587" user="balrog-kun" changeset="4250871">
    <nd ref="123189034"/>
    <nd ref="122869311"/>
    <nd ref="122680423"/>
    <nd ref="123015843"/>
    <nd ref="122842331"/>
    <tag k="created_by" v="Potlatch 0.10d"/>
    <tag k="highway" v="residential"/>
    <tag k="name" v="Premiere Avenue"/>
    <tag k="tiger:cfcc" v="A41"/>
    <tag k="tiger:county" v="Los Angeles, CA"/>
    <tag k="tiger:name_base" v="Premiere"/>
    <tag k="tiger:name_type" v="Ave"/>
    <tag k="tiger:reviewed" v="no"/>
    <tag k="tiger:separated" v="no"/>
    <tag k="tiger:source" v="tiger_import_dch_v0.6_20070809"/>
    <tag k="tiger:tlid" v="141699818:141699820:141818858:141699848"/>
    <tag k="tiger:zip_left" v="90712"/>
    <tag k="tiger:zip_right" v="90712"/>
  </way>
  <way id="27601913" version="2" timestamp="2010-03-28T00:12:55Z" uid="20587" user="balrog-kun" changeset="4250871">
    <nd ref="123637795"/>
    <nd ref="122869315"/>
    <nd ref="122680429"/>
    <nd ref="123015850"/>
    <nd ref="297397517"/>
    <tag k="created_by" v="Potlatch 0.10d"/>
    <tag k="highway" v="residential"/>
    <tag k="name" v="Lorelei Avenue"/>
    <tag k="tiger:cfcc" v="A41"/>
    <tag k="tiger:county" v="Los Angeles, CA"/>
    <tag k="tiger:name_base" v="Lorelei"/>
    <tag k="tiger:name_type" v="Ave"/>
    <tag k="tiger:reviewed" v="no"/>
    <tag k="tiger:separated" v="no"/>
    <tag k="tiger:source" v="tiger_import_dch_v0.6_20070809"/>
    <tag k="tiger:tlid" v="141699786:141699814:141699826:141818859:141699852:141699794"/>
    <tag k="tiger:zip_left" v="90712"/>
    <tag k="tiger:zip_right" v="90712"/>
  </way>
  <way id="27601918" version="2" timestamp="2010-03-28T00:12:55Z" uid="20587" user="balrog-kun" changeset="4250871">
    <nd ref="123405050"/>
    <nd ref="122869318"/>
    <nd ref="122680431"/>
    <nd ref="123015853"/>
    <nd ref="297397480"/>
    <tag k="created_by" v="Potlatch 0.10d"/>
    <tag k="highway" v="residential"/>
    <tag k="name" v="Hersholt Avenue"/>
    <tag k="tiger:cfcc" v="A41"/>
    <tag k="tiger:county" v="Los Angeles, CA"/>
    <tag k="tiger:name_base" v="Hersholt"/>
    <tag k="tiger:name_type" v="Ave"/>
    <tag k="tiger:reviewed" v="no"/>
    <tag k="tiger:separated" v="no"/>
    <tag k="tiger:source" v="tiger_import_dch_v0.6_20070809"/>
    <tag k="tiger:tlid" v="141699802:141699828:141699834:141818860:141699861:141699796"/>
    <tag k="tiger:zip_left" v="90712"/>
    <tag k="tiger:zip_right" v="90712"/>
  </way>
  <way id="27601922" version="4" timestamp="2010-03-28T00:12:55Z" uid="20587" user="balrog-kun" changeset="4250871">
    <nd ref="303611331"/>
    <nd ref="122577689"/>
    <nd ref="122577691"/>
    <nd ref="122577694"/>
    <nd ref="122577696"/>
    <nd ref="122577700"/>
    <nd ref="122577704"/>
    <nd ref="297398855"/>
    <nd ref="297397513"/>
    <tag k="created_by" v="Potlatch 0.10d"/>
    <tag k="highway" v="residential"/>
    <tag k="name" v="Autry Avenue"/>
    <tag k="tiger:cfcc" v="A41"/>
    <tag k="tiger:county" v="Los Angeles, CA"/>
    <tag k="tiger:name_base" v="Autry"/>
    <tag k="tiger:name_type" v="Ave"/>
    <tag k="tiger:reviewed" v="no"/>
    <tag k="tiger:separated" v="no"/>
    <tag k="tiger:source" v="tiger_import_dch_v0.6_20070809"/>
    <tag k="tiger:tlid" v="141699804:141699829:141699832:141699835:141699838:141699863:141699870:141699798"/>
    <tag k="tiger:zip_left" v="90712"/>
    <tag k="tiger:zip_right" v="90712"/>
  </way>
  <way id="27601926" version="13" timestamp="2008-12-13T23:18:14Z" uid="85111" user="jar_jar" changeset="387014">
    <nd ref="29721426"/>
    <nd ref="29721427"/>
    <nd ref="29721428"/>
    <nd ref="29721429"/>
    <nd ref="29721430"/>
    <nd ref="29721431"/>
    <nd ref="29721432"/>
    <nd ref="29721433"/>
    <nd ref="29721434"/>
    <nd ref="29721435"/>
    <nd ref="29721436"/>
    <nd ref="29721437"/>
    <nd ref="29721438"/>
    <nd ref="303109822"/>
    <nd ref="29721439"/>
    <nd ref="303109826"/>
    <nd ref="29721440"/>
    <nd ref="303095432"/>
    <nd ref="29721441"/>
    <nd ref="303109850"/>
    <nd ref="29721442"/>
    <nd ref="29721443"/>
    <nd ref="29721444"/>
    <nd ref="29721497"/>
    <nd ref="29721498"/>
    <nd ref="303110352"/>
    <nd ref="29721499"/>
    <nd ref="29721500"/>
    <nd ref="29721501"/>
    <nd ref="303111427"/>
    <nd ref="29721502"/>
    <nd ref="303112597"/>
    <nd ref="29721503"/>
    <tag k="boat" v="yes"/>
    <tag k="created_by" v="Potlatch 0.10f"/>
    <tag k="name" v="Mittellandkanal"/>
    <tag k="waterway" v="river"/>
    <tag k="width" v="42"/>
  </way>
  <way id="27601926" version="14" timestamp="2008-12-16T18:23:06Z" uid="78264" user="HHeumann" changeset="428349">
    <nd ref="29721426"/>
    <nd ref="29721427"/>
    <nd ref="29721428"/>
    <nd ref="29721429"/>
    <nd ref="29721430"/>
    <nd ref="29721431"/>
    <nd ref="29721432"/>
    <nd ref="29721433"/>
    <nd ref="29721434"/>
    <nd ref="29721435"/>
    <nd ref="29721436"/>
    <nd ref="29721437"/>
    <nd ref="29721438"/>
    <nd ref="303109822"/>
    <nd ref="29721439"/>
    <nd ref="303109826"/>
    <nd ref="29721440"/>
    <nd ref="303095432"/>
    <nd ref="29721441"/>
    <nd ref="303109850"/>
    <nd ref="29721442"/>
    <nd ref="29721443"/>
    <nd ref="29721444"/>
    <nd ref="29721497"/>
    <nd ref="29721498"/>
    <nd ref="303110352"/>
    <nd ref="29721499"/>
    <nd ref="29721500"/>
    <nd ref="29721501"/>
    <nd ref="303111427"/>
    <nd ref="29721502"/>
    <nd ref="303112597"/>
    <nd ref="29721503"/>
    <tag k="boat" v="yes"/>
    <tag k="created_by" v="Potlatch 0.10f"/>
    <tag k="layer" v="0"/>
    <tag k="name" v="Mittellandkanal"/>
    <tag k="waterway" v="canal"/>
    <tag k="width" v="42"/>
  </way>
  <way id="27601926" version="15" timestamp="2008-12-22T06:01:42Z" uid="78264" user="HHeumann" changeset="540128">
    <nd ref="29721426"/>
    <nd ref="29721427"/>
    <nd ref="29721428"/>
    <nd ref="29721429"/>
    <nd ref="29721430"/>
    <nd ref="29721431"/>
    <nd ref="29721432"/>
    <nd ref="29721433"/>
    <nd ref="320823115"/>
    <nd ref="29721434"/>
    <nd ref="29721435"/>
    <nd ref="29721436"/>
    <nd ref="29721437"/>
    <nd ref="29721438"/>
    <nd ref="303109822"/>
    <nd ref="29721439"/>
    <nd ref="303109826"/>
    <nd ref="29721440"/>
    <nd ref="303095432"/>
    <nd ref="29721441"/>
    <nd ref="303109850"/>
    <nd ref="29721442"/>
    <nd ref="29721443"/>
    <nd ref="29721444"/>
    <nd ref="29721497"/>
    <nd ref="29721498"/>
    <nd ref="303110352"/>
    <nd ref="29721499"/>
    <nd ref="29721500"/>
    <nd ref="29721501"/>
    <nd ref="303111427"/>
    <nd ref="29721502"/>
    <nd ref="303112597"/>
    <nd ref="29721503"/>
    <tag k="boat" v="yes"/>
    <tag k="created_by" v="Potlatch 0.10f"/>
    <tag k="layer" v="0"/>
    <tag k="name" v="Mittellandkanal"/>
    <tag k="waterway" v="canal"/>
    <tag k="width" v="42"/>
  </way>
  <way id="27601926" version="16" timestamp="2009-06-01T14:33:48Z" uid="130642" user="tgrobleben" changeset="1380887">
    <nd ref="29721426"/>
    <nd ref="29721427"/>
    <nd ref="29721428"/>
    <nd ref="29721429"/>
    <nd ref="29721430"/>
    <nd ref="29721431"/>
    <nd ref="29721432"/>
    <nd ref="29721433"/>
    <nd ref="320823115"/>
    <nd ref="29721434"/>
    <nd ref="29721435"/>
    <nd ref="29721436"/>
    <nd ref="29721437"/>
    <nd ref="29721438"/>
    <nd ref="303109822"/>
    <nd ref="29721439"/>
    <nd ref="303109826"/>
    <nd ref="29721440"/>
    <nd ref="303095432"/>
    <nd ref="29721441"/>
    <nd ref="303109850"/>
    <nd ref="29721442"/>
    <nd ref="29721443"/>
    <nd ref="29721444"/>
    <nd ref="29721497"/>
    <nd ref="414059484"/>
    <nd ref="29721498"/>
    <nd ref="303110352"/>
    <nd ref="29721499"/>
    <nd ref="29721500"/>
    <nd ref="29721501"/>
    <nd ref="303111427"/>
    <nd ref="29721502"/>
    <nd ref="303112597"/>
    <nd ref="29721503"/>
    <tag k="boat" v="yes"/>
    <tag k="layer" v="0"/>
    <tag k="name" v="Mittellandkanal"/>
    <tag k="waterway" v="canal"/>
    <tag k="width" v="42"/>
  </way>
  <way id="27601926" version="17" timestamp="2010-02-19T15:44:46Z" uid="45882" user="smarties" changeset="3916458">
    <nd ref="29721426"/>
    <nd ref="29721427"/>
    <nd ref="29721428"/>
    <nd ref="29721429"/>
    <nd ref="29721430"/>
    <nd ref="29721431"/>
    <nd ref="29721432"/>
    <nd ref="29721433"/>
    <nd ref="320823115"/>
    <nd ref="29721434"/>
    <nd ref="29721435"/>
    <nd ref="29721436"/>
    <nd ref="29721437"/>
    <nd ref="29721438"/>
    <nd ref="303109822"/>
    <nd ref="29721439"/>
    <nd ref="303109826"/>
    <nd ref="29721440"/>
    <nd ref="303095432"/>
    <nd ref="29721441"/>
    <nd ref="303109850"/>
    <nd ref="29721442"/>
    <nd ref="29721443"/>
    <nd ref="29721444"/>
    <nd ref="29721497"/>
    <nd ref="414059484"/>
    <nd ref="29721498"/>
    <nd ref="303110352"/>
    <nd ref="29721499"/>
    <nd ref="29721500"/>
    <nd ref="29721501"/>
    <nd ref="303111427"/>
    <nd ref="29721502"/>
    <nd ref="303112597"/>
    <nd ref="29721503"/>
    <tag k="boat" v="yes"/>
    <tag k="layer" v="0"/>
    <tag k="name" v="Mittellandkanal"/>
    <tag k="ref" v="MLK"/>
    <tag k="waterway" v="canal"/>
    <tag k="width" v="42"/>
  </way>
  <way id="27601926" version="18" timestamp="2010-04-04T17:10:11Z" uid="152342" user="Hilmar" changeset="4324108">
    <nd ref="29721426"/>
    <nd ref="29721427"/>
    <nd ref="29721428"/>
    <nd ref="29721429"/>
    <nd ref="29721430"/>
    <nd ref="29721431"/>
    <nd ref="29721432"/>
    <nd ref="29721433"/>
    <nd ref="320823115"/>
    <nd ref="29721434"/>
    <nd ref="29721435"/>
    <nd ref="29721436"/>
    <nd ref="29721437"/>
    <nd ref="29721438"/>
    <nd ref="303109822"/>
    <nd ref="29721439"/>
    <nd ref="303109826"/>
    <nd ref="29721440"/>
    <nd ref="303095432"/>
    <nd ref="29721441"/>
    <nd ref="303109850"/>
    <nd ref="29721442"/>
    <nd ref="29721443"/>
    <nd ref="29721444"/>
    <nd ref="29721497"/>
    <nd ref="414059484"/>
    <nd ref="29721498"/>
    <nd ref="303110352"/>
    <nd ref="29721499"/>
    <nd ref="29721500"/>
    <nd ref="29721501"/>
    <nd ref="303111427"/>
    <nd ref="29721502"/>
    <nd ref="303112597"/>
    <nd ref="29721503"/>
    <tag k="boat" v="yes"/>
    <tag k="layer" v="-1"/>
    <tag k="name" v="Mittellandkanal"/>
    <tag k="ref" v="MLK"/>
    <tag k="waterway" v="canal"/>
    <tag k="width" v="42"/>
  </way>
  <way id="27601926" version="19" timestamp="2010-04-05T10:37:28Z" uid="72235" user="Basstoelpel" changeset="4331515">
    <nd ref="29721426"/>
    <nd ref="29721427"/>
    <nd ref="29721428"/>
    <nd ref="29721429"/>
    <nd ref="29721430"/>
    <nd ref="29721431"/>
    <nd ref="29721432"/>
    <nd ref="29721433"/>
    <nd ref="320823115"/>
    <nd ref="29721434"/>
    <nd ref="29721435"/>
    <nd ref="29721436"/>
    <nd ref="29721437"/>
    <nd ref="29721438"/>
    <nd ref="303109822"/>
    <nd ref="29721439"/>
    <nd ref="303109826"/>
    <nd ref="29721440"/>
    <nd ref="303095432"/>
    <nd ref="29721441"/>
    <nd ref="303109850"/>
    <nd ref="29721442"/>
    <nd ref="29721443"/>
    <nd ref="29721444"/>
    <nd ref="29721497"/>
    <nd ref="414059484"/>
    <nd ref="29721498"/>
    <nd ref="303110352"/>
    <nd ref="29721499"/>
    <nd ref="29721500"/>
    <nd ref="29721501"/>
    <nd ref="303111427"/>
    <nd ref="685158940"/>
    <nd ref="29721502"/>
    <nd ref="303112597"/>
    <nd ref="29721503"/>
    <tag k="boat" v="yes"/>
    <tag k="layer" v="-1"/>
    <tag k="name" v="Mittellandkanal"/>
    <tag k="ref" v="MLK"/>
    <tag k="waterway" v="canal"/>
    <tag k="width" v="42"/>
  </way>
  <way id="27601926" version="20" timestamp="2010-04-05T11:18:54Z" uid="72235" user="Basstoelpel" changeset="4331886">
    <nd ref="29721426"/>
    <nd ref="29721427"/>
    <nd ref="29721428"/>
    <nd ref="29721429"/>
    <nd ref="29721430"/>
    <nd ref="29721431"/>
    <nd ref="29721432"/>
    <nd ref="29721433"/>
    <nd ref="320823115"/>
    <nd ref="29721434"/>
    <nd ref="29721435"/>
    <nd ref="29721436"/>
    <nd ref="29721437"/>
    <nd ref="29721438"/>
    <nd ref="303109822"/>
    <nd ref="29721439"/>
    <nd ref="303109826"/>
    <nd ref="29721440"/>
    <nd ref="303095432"/>
    <nd ref="29721441"/>
    <nd ref="303109850"/>
    <nd ref="29721442"/>
    <nd ref="29721443"/>
    <nd ref="29721444"/>
    <nd ref="29721497"/>
    <nd ref="414059484"/>
    <nd ref="29721498"/>
    <nd ref="303110352"/>
    <nd ref="29721499"/>
    <nd ref="29721500"/>
    <nd ref="29721501"/>
    <nd ref="303111427"/>
    <nd ref="685158940"/>
    <nd ref="29721502"/>
    <nd ref="685179555"/>
    <nd ref="303112597"/>
    <nd ref="29721503"/>
    <tag k="boat" v="yes"/>
    <tag k="layer" v="-1"/>
    <tag k="name" v="Mittellandkanal"/>
    <tag k="ref" v="MLK"/>
    <tag k="waterway" v="canal"/>
    <tag k="width" v="42"/>
  </way>
  <way id="27601926" version="21" timestamp="2010-04-22T20:51:19Z" uid="72235" user="Basstoelpel" changeset="4498806">
    <nd ref="29721426"/>
    <nd ref="29721427"/>
    <nd ref="29721428"/>
    <nd ref="29721429"/>
    <nd ref="29721430"/>
    <nd ref="29721431"/>
    <nd ref="29721432"/>
    <nd ref="29721433"/>
    <nd ref="320823115"/>
    <nd ref="29721434"/>
    <nd ref="29721435"/>
    <nd ref="29721436"/>
    <nd ref="29721437"/>
    <nd ref="29721438"/>
    <nd ref="303109822"/>
    <nd ref="29721439"/>
    <nd ref="303109826"/>
    <nd ref="29721440"/>
    <nd ref="303095432"/>
    <nd ref="29721441"/>
    <nd ref="303109850"/>
    <nd ref="29721442"/>
    <nd ref="29721443"/>
    <nd ref="29721444"/>
    <nd ref="29721497"/>
    <nd ref="414059484"/>
    <nd ref="29721498"/>
    <nd ref="303110352"/>
    <nd ref="29721499"/>
    <nd ref="29721500"/>
    <nd ref="29721501"/>
    <nd ref="303111427"/>
    <nd ref="685158940"/>
    <nd ref="29721502"/>
    <nd ref="685179555"/>
    <nd ref="303112597"/>
    <nd ref="29721503"/>
    <tag k="boat" v="yes"/>
    <tag k="name" v="Mittellandkanal"/>
    <tag k="ref" v="MLK"/>
    <tag k="waterway" v="canal"/>
    <tag k="width" v="42"/>
  </way>
  <way id="27601926" version="22" timestamp="2010-09-16T09:59:44Z" uid="81732" user="zahilb" changeset="5793937">
    <nd ref="29721426"/>
    <nd ref="29721427"/>
    <nd ref="29721428"/>
    <nd ref="29721429"/>
    <nd ref="914310107"/>
    <nd ref="29721430"/>
    <nd ref="914310108"/>
    <nd ref="29721431"/>
    <nd ref="29721432"/>
    <nd ref="29721433"/>
    <nd ref="320823115"/>
    <nd ref="29721434"/>
    <nd ref="29721435"/>
    <nd ref="29721436"/>
    <nd ref="29721437"/>
    <nd ref="29721438"/>
    <nd ref="303109822"/>
    <nd ref="29721439"/>
    <nd ref="303109826"/>
    <nd ref="29721440"/>
    <nd ref="303095432"/>
    <nd ref="29721441"/>
    <nd ref="303109850"/>
    <nd ref="29721442"/>
    <nd ref="29721443"/>
    <nd ref="29721444"/>
    <nd ref="29721497"/>
    <nd ref="414059484"/>
    <nd ref="29721498"/>
    <nd ref="303110352"/>
    <nd ref="29721499"/>
    <nd ref="29721500"/>
    <nd ref="29721501"/>
    <nd ref="303111427"/>
    <nd ref="685158940"/>
    <nd ref="29721502"/>
    <nd ref="685179555"/>
    <nd ref="303112597"/>
    <nd ref="29721503"/>
    <tag k="boat" v="yes"/>
    <tag k="name" v="Mittellandkanal"/>
    <tag k="ref" v="MLK"/>
    <tag k="waterway" v="canal"/>
    <tag k="width" v="42"/>
  </way>
  <way id="27601926" version="23" timestamp="2011-01-14T12:39:16Z" uid="28783" user="mey2008" changeset="6966828">
    <nd ref="29721426"/>
    <nd ref="29721427"/>
    <nd ref="29721428"/>
    <nd ref="29721429"/>
    <nd ref="914310107"/>
    <nd ref="29721430"/>
    <nd ref="914310108"/>
    <nd ref="29721431"/>
    <nd ref="29721432"/>
    <nd ref="29721433"/>
    <nd ref="320823115"/>
    <nd ref="29721434"/>
    <nd ref="29721435"/>
    <nd ref="29721436"/>
    <nd ref="29721437"/>
    <nd ref="29721438"/>
    <nd ref="1103185745"/>
    <nd ref="303109822"/>
    <nd ref="29721439"/>
    <nd ref="303109826"/>
    <nd ref="29721440"/>
    <nd ref="303095432"/>
    <nd ref="1103185701"/>
    <nd ref="29721441"/>
    <nd ref="303109850"/>
    <nd ref="29721442"/>
    <nd ref="29721443"/>
    <nd ref="29721444"/>
    <nd ref="29721497"/>
    <nd ref="414059484"/>
    <nd ref="29721498"/>
    <nd ref="303110352"/>
    <nd ref="29721499"/>
    <nd ref="29721500"/>
    <nd ref="29721501"/>
    <nd ref="303111427"/>
    <nd ref="685158940"/>
    <nd ref="29721502"/>
    <nd ref="685179555"/>
    <nd ref="303112597"/>
    <nd ref="29721503"/>
    <tag k="boat" v="yes"/>
    <tag k="name" v="Mittellandkanal"/>
    <tag k="ref" v="MLK"/>
    <tag k="waterway" v="canal"/>
    <tag k="width" v="42"/>
  </way>
  <way id="27601926" version="24" timestamp="2011-01-18T07:10:12Z" uid="28783" user="mey2008" changeset="7007396">
    <nd ref="29721426"/>
    <nd ref="29721427"/>
    <nd ref="29721428"/>
    <nd ref="29721429"/>
    <nd ref="914310107"/>
    <nd ref="29721430"/>
    <nd ref="1108694480"/>
    <nd ref="914310108"/>
    <nd ref="29721431"/>
    <nd ref="29721432"/>
    <nd ref="29721433"/>
    <nd ref="320823115"/>
    <nd ref="29721434"/>
    <nd ref="1108694485"/>
    <nd ref="29721435"/>
    <nd ref="29721436"/>
    <nd ref="29721437"/>
    <nd ref="29721438"/>
    <nd ref="1103185745"/>
    <nd ref="303109822"/>
    <nd ref="29721439"/>
    <nd ref="303109826"/>
    <nd ref="29721440"/>
    <nd ref="303095432"/>
    <nd ref="1103185701"/>
    <nd ref="29721441"/>
    <nd ref="303109850"/>
    <nd ref="29721442"/>
    <nd ref="29721443"/>
    <nd ref="29721444"/>
    <nd ref="29721497"/>
    <nd ref="414059484"/>
    <nd ref="29721498"/>
    <nd ref="303110352"/>
    <nd ref="29721499"/>
    <nd ref="29721500"/>
    <nd ref="29721501"/>
    <nd ref="303111427"/>
    <nd ref="685158940"/>
    <nd ref="29721502"/>
    <nd ref="685179555"/>
    <nd ref="303112597"/>
    <nd ref="29721503"/>
    <tag k="boat" v="yes"/>
    <tag k="name" v="Mittellandkanal"/>
    <tag k="ref" v="MLK"/>
    <tag k="waterway" v="canal"/>
    <tag k="width" v="42"/>
  </way>
  <way id="27601926" version="25" timestamp="2011-01-24T16:35:27Z" uid="55696" user="MatzeM" changeset="7074653">
    <nd ref="29721426"/>
    <nd ref="29721427"/>
    <nd ref="29721428"/>
    <nd ref="29721429"/>
    <nd ref="914310107"/>
    <nd ref="29721430"/>
    <nd ref="1108694480"/>
    <nd ref="914310108"/>
    <nd ref="29721431"/>
    <nd ref="29721432"/>
    <nd ref="29721433"/>
    <nd ref="320823115"/>
    <nd ref="29721434"/>
    <nd ref="1108694485"/>
    <nd ref="29721435"/>
    <nd ref="1118886928"/>
    <nd ref="29721436"/>
    <nd ref="29721437"/>
    <nd ref="29721438"/>
    <nd ref="1103185745"/>
    <nd ref="303109822"/>
    <nd ref="29721439"/>
    <nd ref="303109826"/>
    <nd ref="29721440"/>
    <nd ref="303095432"/>
    <nd ref="1103185701"/>
    <nd ref="29721441"/>
    <nd ref="303109850"/>
    <nd ref="29721442"/>
    <nd ref="29721443"/>
    <nd ref="29721444"/>
    <nd ref="29721497"/>
    <nd ref="414059484"/>
    <nd ref="29721498"/>
    <nd ref="303110352"/>
    <nd ref="29721499"/>
    <nd ref="29721500"/>
    <nd ref="29721501"/>
    <nd ref="303111427"/>
    <nd ref="685158940"/>
    <nd ref="29721502"/>
    <nd ref="685179555"/>
    <nd ref="303112597"/>
    <nd ref="29721503"/>
    <tag k="boat" v="yes"/>
    <tag k="name" v="Mittellandkanal"/>
    <tag k="ref" v="MLK"/>
    <tag k="waterway" v="canal"/>
    <tag k="width" v="42"/>
  </way>
  <way id="27601926" version="26" timestamp="2011-08-09T17:54:25Z" uid="72235" user="Basstoelpel" changeset="8969585">
    <nd ref="29721426"/>
    <nd ref="1392799690"/>
    <nd ref="1392799680"/>
    <nd ref="29721427"/>
    <nd ref="29721428"/>
    <nd ref="29721429"/>
    <nd ref="914310107"/>
    <nd ref="29721430"/>
    <nd ref="1108694480"/>
    <nd ref="914310108"/>
    <nd ref="29721431"/>
    <nd ref="29721432"/>
    <nd ref="29721433"/>
    <nd ref="320823115"/>
    <nd ref="29721434"/>
    <nd ref="1108694485"/>
    <nd ref="29721435"/>
    <nd ref="1118886928"/>
    <nd ref="29721436"/>
    <nd ref="29721437"/>
    <nd ref="29721438"/>
    <nd ref="1103185745"/>
    <nd ref="303109822"/>
    <nd ref="29721439"/>
    <nd ref="303109826"/>
    <nd ref="29721440"/>
    <nd ref="303095432"/>
    <nd ref="1103185701"/>
    <nd ref="29721441"/>
    <nd ref="303109850"/>
    <nd ref="29721442"/>
    <nd ref="29721443"/>
    <nd ref="29721444"/>
    <nd ref="29721497"/>
    <nd ref="414059484"/>
    <nd ref="29721498"/>
    <nd ref="303110352"/>
    <nd ref="29721499"/>
    <nd ref="29721500"/>
    <nd ref="29721501"/>
    <nd ref="303111427"/>
    <nd ref="685158940"/>
    <nd ref="29721502"/>
    <nd ref="685179555"/>
    <nd ref="303112597"/>
    <nd ref="29721503"/>
    <tag k="boat" v="yes"/>
    <tag k="name" v="Mittellandkanal"/>
    <tag k="ref" v="MLK"/>
    <tag k="waterway" v="canal"/>
    <tag k="width" v="42"/>
  </way>
  <way id="27601926" version="27" timestamp="2012-01-07T08:05:28Z" uid="42429" user="FK270673" changeset="10318830">
    <nd ref="29721426"/>
    <nd ref="1392799690"/>
    <nd ref="1392799680"/>
    <nd ref="29721427"/>
    <nd ref="29721428"/>
    <nd ref="29721429"/>
    <nd ref="914310107"/>
    <nd ref="29721430"/>
    <nd ref="1108694480"/>
    <nd ref="914310108"/>
    <nd ref="29721431"/>
    <nd ref="29721432"/>
    <nd ref="29721433"/>
    <nd ref="320823115"/>
    <nd ref="29721434"/>
    <nd ref="1108694485"/>
    <nd ref="29721435"/>
    <nd ref="1118886928"/>
    <nd ref="29721436"/>
    <nd ref="29721437"/>
    <nd ref="29721438"/>
    <nd ref="1103185745"/>
    <nd ref="303109822"/>
    <nd ref="29721439"/>
    <nd ref="303109826"/>
    <nd ref="29721440"/>
    <nd ref="303095432"/>
    <nd ref="1103185701"/>
    <nd ref="29721441"/>
    <nd ref="303109850"/>
    <nd ref="29721442"/>
    <nd ref="29721443"/>
    <nd ref="29721444"/>
    <nd ref="29721497"/>
    <nd ref="414059484"/>
    <nd ref="29721498"/>
    <nd ref="303110352"/>
    <nd ref="29721499"/>
    <nd ref="29721500"/>
    <nd ref="29721501"/>
    <nd ref="303111427"/>
    <nd ref="685158940"/>
    <nd ref="29721502"/>
    <nd ref="685179555"/>
    <nd ref="303112597"/>
    <nd ref="29721503"/>
    <tag k="CEMT" v="Vb"/>
    <tag k="boat" v="yes"/>
    <tag k="name" v="Mittellandkanal"/>
    <tag k="ref" v="MLK"/>
    <tag k="waterway" v="canal"/>
    <tag k="width" v="42"/>
  </way>
  <way id="27601926" version="28" timestamp="2012-02-09T19:51:17Z" uid="72235" user="Basstoelpel" changeset="10637445">
    <nd ref="29721426"/>
    <nd ref="1392799690"/>
    <nd ref="1392799680"/>
    <nd ref="29721427"/>
    <nd ref="29721428"/>
    <nd ref="29721429"/>
    <nd ref="914310107"/>
    <nd ref="29721430"/>
    <nd ref="1108694480"/>
    <nd ref="914310108"/>
    <nd ref="29721431"/>
    <nd ref="29721432"/>
    <nd ref="29721433"/>
    <nd ref="320823115"/>
    <nd ref="29721434"/>
    <nd ref="1108694485"/>
    <nd ref="29721435"/>
    <nd ref="1118886928"/>
    <nd ref="29721436"/>
    <nd ref="29721437"/>
    <nd ref="29721438"/>
    <nd ref="1103185745"/>
    <nd ref="303109822"/>
    <nd ref="29721439"/>
    <nd ref="303109826"/>
    <nd ref="29721440"/>
    <nd ref="303095432"/>
    <nd ref="1103185701"/>
    <nd ref="29721441"/>
    <nd ref="303109850"/>
    <nd ref="29721442"/>
    <nd ref="29721443"/>
    <nd ref="29721444"/>
    <nd ref="29721497"/>
    <nd ref="414059484"/>
    <nd ref="29721498"/>
    <nd ref="303110352"/>
    <nd ref="29721499"/>
    <nd ref="29721500"/>
    <nd ref="29721501"/>
    <nd ref="303111427"/>
    <nd ref="685158940"/>
    <nd ref="29721502"/>
    <nd ref="685179555"/>
    <nd ref="303112597"/>
    <nd ref="29721503"/>
    <tag k="CEMT" v="Vb"/>
    <tag k="boat" v="yes"/>
    <tag k="name" v="Mittellandkanal"/>
    <tag k="odbl" v="clean"/>
    <tag k="ref" v="MLK"/>
    <tag k="waterway" v="canal"/>
    <tag k="width" v="42"/>
  </way>
</osm>
