<?xml version='1.0' encoding='UTF-8'?>
<osm version="0.6" generator="libosmium/2.20.0">
  <way id="27733332" version="3" timestamp="2009-10-03T14:21:40Z" uid="179968" user="Ich_hasse_doitsche_OSM-Korinthenkacker" changeset="2724403">
    <nd ref="304547747"/>
    <nd ref="304547748"/>
    <nd ref="304547749"/>
    <nd ref="304547750"/>
    <nd ref="304547751"/>
    <nd ref="304547752"/>
    <nd ref="304547753"/>
    <nd ref="304547754"/>
    <nd ref="304547755"/>
    <nd ref="304547756"/>
    <nd ref="304547757"/>
    <nd ref="304547758"/>
    <nd ref="304547759"/>
    <nd ref="304547760"/>
    <nd ref="304547761"/>
    <nd ref="304547747"/>
    <tag k="landuse" v="allotments"/>
    <tag k="name" v="Wochenendsiedlung"/>
  </way>
  <way id="27733340" version="3" timestamp="2009-10-03T14:21:41Z" uid="179968" user="Ich_hasse_doitsche_OSM-Korinthenkacker" changeset="2724403">
    <nd ref="304547962"/>
    <nd ref="304547963"/>
    <nd ref="304547964"/>
    <nd ref="304547965"/>
    <nd ref="304547966"/>
    <nd ref="304547967"/>
    <nd ref="304548051"/>
    <nd ref="304548052"/>
    <nd ref="304548053"/>
    <nd ref="304548054"/>
    <nd ref="304548055"/>
    <nd ref="304547962"/>
    <tag k="landuse" v="residential"/>
  </way>
  <way id="27733350" version="4" timestamp="2009-07-25T04:15:21Z" uid="74617" user="JohnSmith" changeset="1930637">
    <nd ref="304548018"/>
    <nd ref="440601604"/>
    <nd ref="272276128"/>
    <nd ref="440601607"/>
    <nd ref="56992759"/>
    <nd ref="440601608"/>
    <nd ref="272276125"/>
    <nd ref="56992760"/>
    <nd ref="301923590"/>
    <tag k="highway" v="trunk"/>
    <tag k="maxspeed" v="60"/>
    <tag k="name" v="Mann Road"/>
    <tag k="oneway" v="yes"/>
    <tag k="ref" v="A21"/>
    <tag k="source" v="survey"/>
  </way>
  <way id="27733350" version="5" timestamp="2010-04-07T13:53:44Z" uid="79475" user="AlexOnTheBus" changeset="4354916">
    <nd ref="304548018"/>
    <nd ref="440601604"/>
    <nd ref="272276128"/>
    <nd ref="687496115"/>
    <nd ref="440601607"/>
    <nd ref="56992759"/>
    <nd ref="687496116"/>
    <nd ref="440601608"/>
    <nd ref="272276125"/>
    <nd ref="56992760"/>
    <nd ref="301923590"/>
    <tag k="highway" v="trunk"/>
    <tag k="maxspeed" v="60"/>
    <tag k="name" v="Mann Road"/>
    <tag k="oneway" v="yes"/>
    <tag k="ref" v="A21"/>
    <tag k="source" v="survey"/>
  </way>
  <way id="27733350" version="6" timestamp="2010-07-26T15:27:18Z" uid="150488" user="ralmin" changeset="5321789">
    <nd ref="304548018"/>
    <nd ref="440601604"/>
    <nd ref="272276128"/>
    <nd ref="687496115"/>
    <nd ref="440601607"/>
    <nd ref="56992759"/>
    <nd ref="687496116"/>
    <nd ref="440601608"/>
    <nd ref="272276125"/>
    <nd ref="834059620"/>
    <nd ref="834059620"/>
    <nd ref="56992760"/>
    <nd ref="834059592"/>
    <tag k="cycleway" v="lane"/>
    <tag k="highway" v="trunk"/>
    <tag k="maxspeed" v="60"/>
    <tag k="name" v="Mann Road"/>
    <tag k="oneway" v="yes"/>
    <tag k="ref" v="A21"/>
    <tag k="source" v="survey"/>
  </way>
  <way id="27733350" version="7" timestamp="2010-07-26T19:17:13Z" uid="70696" user="xybot" changeset="5323184">
    <nd ref="304548018"/>
    <nd ref="440601604"/>
    <nd ref="272276128"/>
    <nd ref="687496115"/>
    <nd ref="440601607"/>
    <nd ref="56992759"/>
    <nd ref="687496116"/>
    <nd ref="440601608"/>
    <nd ref="272276125"/>
    <nd ref="834059620"/>
    <nd ref="56992760"/>
    <nd ref="834059592"/>
    <tag k="cycleway" v="lane"/>
    <tag k="highway" v="trunk"/>
    <tag k="maxspeed" v="60"/>
    <tag k="name" v="Mann Road"/>
    <tag k="oneway" v="yes"/>
    <tag k="ref" v="A21"/>
    <tag k="source" v="survey"/>
  </way>
  <way id="27733350" version="8" timestamp="2010-09-27T04:04:31Z" uid="79475" user="AlexOnTheBus" changeset="5888740">
    <nd ref="304548018"/>
    <nd ref="440601604"/>
    <nd ref="272276128"/>
    <nd ref="687496115"/>
    <nd ref="440601607"/>
    <nd ref="56992759"/>
    <nd ref="687496116"/>
    <nd ref="440601608"/>
    <nd ref="272276125"/>
    <nd ref="834059620"/>
    <nd ref="56992760"/>
    <nd ref="834059592"/>
    <tag k="cycleway" v="lane"/>
    <tag k="highway" v="primary"/>
    <tag k="maxspeed" v="60"/>
    <tag k="name" v="Mann Road"/>
    <tag k="oneway" v="yes"/>
    <tag k="ref" v="A21"/>
    <tag k="source" v="survey"/>
  </way>
  <way id="27733350" version="9" timestamp="2010-12-06T22:56:14Z" uid="320632" user="Zulu99" changeset="6569971">
    <nd ref="304548018"/>
    <nd ref="1025634775"/>
    <tag k="highway" v="primary"/>
    <tag k="maxspeed" v="60"/>
    <tag k="name" v="Mann Road"/>
    <tag k="oneway" v="yes"/>
    <tag k="ref" v="A21"/>
    <tag k="source" v="survey"/>
  </way>
  <way id="27733350" version="10" timestamp="2011-03-12T10:16:55Z" uid="4467" user="Rosscoe" changeset="7531438">
    <nd ref="304548018"/>
    <nd ref="1025634775"/>
    <tag k="highway" v="primary"/>
    <tag k="maxspeed" v="60"/>
    <tag k="name" v="Mann Road"/>
    <tag k="oneway" v="yes"/>
    <tag k="ref" v="A21"/>
    <tag k="source" v="survey"/>
  </way>
  <way id="27733351" version="2" timestamp="2009-07-25T04:15:31Z" uid="74617" user="JohnSmith" changeset="1930637">
    <nd ref="304548030"/>
    <nd ref="304548024"/>
    <tag k="bridge" v="yes"/>
    <tag k="highway" v="trunk"/>
    <tag k="lanes" v="2"/>
    <tag k="layer" v="1"/>
    <tag k="maxspeed" v="60"/>
    <tag k="name" v="Hackney Road"/>
    <tag k="oneway" v="yes"/>
    <tag k="ref" v="A21"/>
    <tag k="source" v="survey"/>
  </way>
  <way id="27733351" version="3" timestamp="2010-09-27T04:05:04Z" uid="79475" user="AlexOnTheBus" changeset="5888740">
    <nd ref="304548030"/>
    <nd ref="304548024"/>
    <tag k="bridge" v="yes"/>
    <tag k="highway" v="primary"/>
    <tag k="lanes" v="2"/>
    <tag k="layer" v="1"/>
    <tag k="maxspeed" v="60"/>
    <tag k="name" v="Hackney Road"/>
    <tag k="oneway" v="yes"/>
    <tag k="ref" v="A21"/>
    <tag k="source" v="survey"/>
  </way>
  <way id="27733352" version="3" timestamp="2009-07-25T04:15:31Z" uid="74617" user="JohnSmith" changeset="1930637">
    <nd ref="304548024"/>
    <nd ref="440601605"/>
    <nd ref="304548018"/>
    <tag k="highway" v="trunk"/>
    <tag k="lanes" v="2"/>
    <tag k="maxspeed" v="60"/>
    <tag k="name" v="Hackney Road"/>
    <tag k="oneway" v="yes"/>
    <tag k="ref" v="A21"/>
    <tag k="source" v="survey"/>
  </way>
  <way id="27733352" version="4" timestamp="2010-09-27T04:05:00Z" uid="79475" user="AlexOnTheBus" changeset="5888740">
    <nd ref="304548024"/>
    <nd ref="440601605"/>
    <nd ref="304548018"/>
    <tag k="highway" v="primary"/>
    <tag k="lanes" v="2"/>
    <tag k="maxspeed" v="60"/>
    <tag k="name" v="Hackney Road"/>
    <tag k="oneway" v="yes"/>
    <tag k="ref" v="A21"/>
    <tag k="source" v="survey"/>
  </way>
  <way id="27733352" version="5" timestamp="2011-03-12T10:16:36Z" uid="4467" user="Rosscoe" changeset="7531438">
    <nd ref="304548024"/>
    <nd ref="440601605"/>
    <nd ref="304548018"/>
    <tag k="highway" v="primary"/>
    <tag k="lanes" v="2"/>
    <tag k="maxspeed" v="60"/>
    <tag k="name" v="Hackney Road"/>
    <tag k="oneway" v="yes"/>
    <tag k="ref" v="A21"/>
    <tag k="source" v="survey"/>
  </way>
  <way id="27733354" version="2" timestamp="2009-07-25T04:15:32Z" uid="74617" user="JohnSmith" changeset="1930637">
    <nd ref="304548035"/>
    <nd ref="304548032"/>
    <nd ref="304548034"/>
    <nd ref="304548030"/>
    <tag k="highway" v="trunk"/>
    <tag k="lanes" v="2"/>
    <tag k="maxspeed" v="60"/>
    <tag k="name" v="Hackney Road"/>
    <tag k="oneway" v="yes"/>
    <tag k="ref" v="A21"/>
    <tag k="source" v="survey"/>
  </way>
  <way id="27733354" version="3" timestamp="2009-12-26T15:23:29Z" uid="143129" user="petersfreeman" changeset="3455509">
    <nd ref="304548035"/>
    <nd ref="599615730"/>
    <nd ref="599615729"/>
    <nd ref="304548032"/>
    <nd ref="304548034"/>
    <nd ref="304548030"/>
    <tag k="highway" v="trunk"/>
    <tag k="lanes" v="2"/>
    <tag k="maxspeed" v="60"/>
    <tag k="name" v="Hackney Road"/>
    <tag k="oneway" v="yes"/>
    <tag k="ref" v="A21"/>
    <tag k="source" v="survey"/>
  </way>
  <way id="27733354" version="4" timestamp="2010-08-11T11:32:09Z" uid="21143" user="hryciuk" changeset="5461863">
    <nd ref="304548035"/>
    <nd ref="599615730"/>
    <nd ref="854485875"/>
    <nd ref="599615729"/>
    <nd ref="304548032"/>
    <nd ref="304548034"/>
    <nd ref="304548030"/>
    <tag k="highway" v="trunk"/>
    <tag k="lanes" v="2"/>
    <tag k="maxspeed" v="60"/>
    <tag k="name" v="Hackney Road"/>
    <tag k="oneway" v="yes"/>
    <tag k="ref" v="A21"/>
    <tag k="source" v="survey"/>
  </way>
  <way id="27733354" version="5" timestamp="2010-09-27T04:05:17Z" uid="79475" user="AlexOnTheBus" changeset="5888740">
    <nd ref="304548035"/>
    <nd ref="599615730"/>
    <nd ref="854485875"/>
    <nd ref="599615729"/>
    <nd ref="304548032"/>
    <nd ref="304548034"/>
    <nd ref="304548030"/>
    <tag k="highway" v="primary"/>
    <tag k="lanes" v="2"/>
    <tag k="maxspeed" v="60"/>
    <tag k="name" v="Hackney Road"/>
    <tag k="oneway" v="yes"/>
    <tag k="ref" v="A21"/>
    <tag k="source" v="survey"/>
  </way>
  <way id="27733354" version="6" timestamp="2011-03-12T10:16:59Z" uid="4467" user="Rosscoe" changeset="7531438">
    <nd ref="304548035"/>
    <nd ref="599615730"/>
    <nd ref="854485875"/>
    <nd ref="599615729"/>
    <nd ref="304548032"/>
    <nd ref="304548034"/>
    <nd ref="1198106208"/>
    <nd ref="304548030"/>
    <tag k="highway" v="primary"/>
    <tag k="lanes" v="2"/>
    <tag k="maxspeed" v="60"/>
    <tag k="name" v="Hackney Road"/>
    <tag k="oneway" v="yes"/>
    <tag k="ref" v="A21"/>
    <tag k="source" v="survey"/>
  </way>
  <way id="27733354" version="7" timestamp="2011-04-04T01:59:25Z" uid="4467" user="Rosscoe" changeset="7760508">
    <nd ref="304548035"/>
    <nd ref="599615730"/>
    <nd ref="854485875"/>
    <nd ref="1231769628"/>
    <nd ref="599615729"/>
    <nd ref="304548032"/>
    <nd ref="304548034"/>
    <nd ref="1198106208"/>
    <nd ref="304548030"/>
    <tag k="highway" v="primary"/>
    <tag k="lanes" v="2"/>
    <tag k="maxspeed" v="60"/>
    <tag k="name" v="Hackney Road"/>
    <tag k="oneway" v="yes"/>
    <tag k="ref" v="A21"/>
    <tag k="source" v="survey"/>
  </way>
  <way id="27733354" version="8" timestamp="2011-07-04T15:51:13Z" uid="238041" user="marquisite" changeset="8630711">
    <nd ref="304548035"/>
    <nd ref="599615730"/>
    <nd ref="854485875"/>
    <nd ref="1349321279"/>
    <nd ref="1231769628"/>
    <nd ref="599615729"/>
    <nd ref="304548032"/>
    <nd ref="1349321204"/>
    <nd ref="304548034"/>
    <nd ref="1198106208"/>
    <nd ref="304548030"/>
    <tag k="highway" v="primary"/>
    <tag k="lanes" v="2"/>
    <tag k="maxspeed" v="60"/>
    <tag k="name" v="Hackney Road"/>
    <tag k="oneway" v="yes"/>
    <tag k="ref" v="A21"/>
    <tag k="source" v="survey"/>
  </way>
  <way id="27733354" version="9" timestamp="2011-08-01T13:29:02Z" uid="494561" user="Yeti Hunter" changeset="8890858">
    <nd ref="304548035"/>
    <nd ref="599615730"/>
    <nd ref="854485875"/>
    <nd ref="1349321279"/>
    <nd ref="1231769628"/>
    <nd ref="599615729"/>
    <nd ref="304548032"/>
    <nd ref="1381760095"/>
    <nd ref="1349321204"/>
    <nd ref="304548034"/>
    <nd ref="1198106208"/>
    <nd ref="304548030"/>
    <tag k="highway" v="primary"/>
    <tag k="lanes" v="2"/>
    <tag k="maxspeed" v="60"/>
    <tag k="name" v="Hackney Road"/>
    <tag k="oneway" v="yes"/>
    <tag k="ref" v="A21"/>
    <tag k="source" v="survey"/>
  </way>
  <way id="27733354" version="10" timestamp="2011-08-29T23:26:07Z" uid="320632" user="Zulu99" changeset="9163066">
    <nd ref="304548035"/>
    <nd ref="599615730"/>
    <nd ref="854485875"/>
    <nd ref="1349321279"/>
    <nd ref="1231769628"/>
    <nd ref="1417658714"/>
    <tag k="highway" v="primary"/>
    <tag k="lanes" v="2"/>
    <tag k="maxspeed" v="60"/>
    <tag k="name" v="Hackney Road"/>
    <tag k="oneway" v="yes"/>
    <tag k="ref" v="A21"/>
    <tag k="source" v="Bing"/>
  </way>
  <way id="27733355" version="4" timestamp="2011-04-04T02:00:05Z" uid="4467" user="Rosscoe" changeset="7760508">
    <nd ref="304548043"/>
    <nd ref="320547864"/>
    <nd ref="132392032"/>
    <tag k="highway" v="tertiary"/>
    <tag k="is_in" v="Adelaide,South Australia,Australia"/>
    <tag k="maxspeed" v="50"/>
    <tag k="oneway" v="yes"/>
    <tag k="postal_code" v="5000"/>
  </way>
  <way id="27733355" version="5" timestamp="2011-06-28T00:28:25Z" uid="428465" user="markinspace" changeset="8567548">
    <nd ref="304548043"/>
    <nd ref="320547864"/>
    <nd ref="132392032"/>
    <tag k="highway" v="tertiary_link"/>
    <tag k="is_in" v="Adelaide,South Australia,Australia"/>
    <tag k="maxspeed" v="50"/>
    <tag k="oneway" v="yes"/>
    <tag k="postal_code" v="5000"/>
  </way>
  <way id="27733357" version="6" timestamp="2011-04-03T16:50:13Z" uid="4467" user="Rosscoe" changeset="7756305">
    <nd ref="304548036"/>
    <nd ref="790065343"/>
    <nd ref="664966268"/>
    <nd ref="304548035"/>
    <tag k="highway" v="primary"/>
    <tag k="lanes" v="3"/>
    <tag k="maxspeed" v="60"/>
    <tag k="name" v="Dequetteville Terrace"/>
    <tag k="oneway" v="yes"/>
    <tag k="ref" v="A21"/>
    <tag k="source" v="survey"/>
  </way>
  <way id="27733357" version="7" timestamp="2011-06-28T00:28:25Z" uid="428465" user="markinspace" changeset="8567548">
    <nd ref="304548036"/>
    <nd ref="1341805243"/>
    <nd ref="790065343"/>
    <nd ref="664966268"/>
    <nd ref="304548035"/>
    <tag k="highway" v="primary"/>
    <tag k="lanes" v="3"/>
    <tag k="maxspeed" v="60"/>
    <tag k="name" v="Dequetteville Terrace"/>
    <tag k="oneway" v="yes"/>
    <tag k="ref" v="A21"/>
    <tag k="source" v="survey"/>
  </way>
  <way id="27733360" version="2" timestamp="2010-05-21T14:33:37Z" uid="4467" user="Rosscoe" changeset="4766199">
    <nd ref="304548068"/>
    <nd ref="57186842"/>
    <nd ref="315301192"/>
    <nd ref="701841984"/>
    <tag k="highway" v="residential"/>
    <tag k="maxspeed" v="50"/>
    <tag k="name" v="Hewitt Avenue"/>
    <tag k="source" v="nearmap"/>
    <tag k="source_ref:name" v="http://osm.beldin.org/2009/03/dscf7463.jpg"/>
  </way>
  <way id="27733360" version="3" timestamp="2010-05-21T14:36:36Z" uid="4467" user="Rosscoe" changeset="4766199">
    <nd ref="304548068"/>
    <nd ref="57186842"/>
    <nd ref="315301192"/>
    <nd ref="701841984"/>
    <tag k="highway" v="residential"/>
    <tag k="maxspeed" v="50"/>
    <tag k="name" v="Hewitt Avenue"/>
    <tag k="source" v="nearmap"/>
    <tag k="source_ref:name" v="http://osm.beldin.org/2009/03/dscf7463.jpg"/>
  </way>
  <way id="27733361" version="3" timestamp="2011-04-03T16:50:48Z" uid="4467" user="Rosscoe" changeset="7756305"/>
  <way id="27733362" version="5" timestamp="2011-04-03T16:48:40Z" uid="4467" user="Rosscoe" changeset="7756305">
    <nd ref="134797916"/>
    <nd ref="134801426"/>
    <nd ref="134801428"/>
    <nd ref="354837524"/>
    <nd ref="134801429"/>
    <nd ref="100010993"/>
    <nd ref="315301427"/>
    <nd ref="134801436"/>
    <nd ref="1231096859"/>
    <tag k="highway" v="residential"/>
    <tag k="maxspeed" v="50"/>
    <tag k="name" v="Alexandra Avenue"/>
    <tag k="oneway" v="yes"/>
    <tag k="source" v="yahoo"/>
    <tag k="source:name" v="survey"/>
  </way>
  <way id="27733363" version="4" timestamp="2011-04-03T16:50:37Z" uid="4467" user="Rosscoe" changeset="7756305">
    <nd ref="304548083"/>
    <nd ref="100013249"/>
    <nd ref="315301428"/>
    <nd ref="354837431"/>
    <nd ref="1005038713"/>
    <nd ref="354837438"/>
    <nd ref="354837451"/>
    <tag k="cycleway" v="lane"/>
    <tag k="highway" v="tertiary"/>
    <tag k="maxspeed" v="50"/>
    <tag k="name" v="Grant Avenue"/>
    <tag k="source" v="survey"/>
  </way>
  <way id="27733364" version="4" timestamp="2011-04-03T16:49:43Z" uid="4467" user="Rosscoe" changeset="7756305">
    <nd ref="304548085"/>
    <nd ref="137531520"/>
    <nd ref="799301285"/>
    <nd ref="1005038782"/>
    <tag k="highway" v="residential"/>
    <tag k="maxspeed" v="50"/>
    <tag k="name" v="Dulwich Avenue"/>
    <tag k="source" v="survey;yahoo"/>
    <tag k="source_ref:name" v="http://osm.beldin.org/2009/05/DSCF9555.JPG"/>
  </way>
  <way id="27733365" version="3" timestamp="2011-04-03T16:46:30Z" uid="4467" user="Rosscoe" changeset="7756305">
    <nd ref="304548086"/>
    <nd ref="302592321"/>
    <nd ref="302592322"/>
    <tag k="highway" v="service"/>
  </way>
  <way id="27733391" version="3" timestamp="2009-10-03T14:22:01Z" uid="179968" user="Ich_hasse_doitsche_OSM-Korinthenkacker" changeset="2724403">
    <nd ref="284149616"/>
    <nd ref="284149573"/>
    <nd ref="304548461"/>
    <nd ref="284149575"/>
    <nd ref="284149576"/>
    <nd ref="284149577"/>
    <nd ref="304548289"/>
    <nd ref="284149579"/>
    <nd ref="284149583"/>
    <nd ref="284149584"/>
    <nd ref="284149585"/>
    <nd ref="284149587"/>
    <nd ref="284149588"/>
    <nd ref="304548368"/>
    <nd ref="284149589"/>
    <nd ref="284149591"/>
    <nd ref="284149594"/>
    <nd ref="284149605"/>
    <nd ref="284149611"/>
    <nd ref="304548231"/>
    <nd ref="284149612"/>
    <nd ref="284149613"/>
    <nd ref="284149568"/>
    <tag k="highway" v="residential"/>
    <tag k="name" v="Am Kurpark"/>
  </way>
  <way id="27733408" version="2" timestamp="2009-10-03T14:21:56Z" uid="179968" user="Ich_hasse_doitsche_OSM-Korinthenkacker" changeset="2724403">
    <nd ref="304548701"/>
    <nd ref="304548702"/>
    <nd ref="304548704"/>
    <nd ref="304548705"/>
    <nd ref="304548706"/>
    <nd ref="304548707"/>
    <nd ref="304548709"/>
    <nd ref="304548710"/>
    <nd ref="304548711"/>
    <nd ref="304548712"/>
    <nd ref="304548713"/>
    <nd ref="304548715"/>
    <nd ref="304548716"/>
    <nd ref="304548717"/>
    <nd ref="304548718"/>
    <nd ref="304548719"/>
    <nd ref="304548721"/>
    <nd ref="304548722"/>
    <nd ref="304548701"/>
    <tag k="highway" v="service"/>
  </way>
  <way id="27733416" version="3" timestamp="2009-10-03T14:21:55Z" uid="179968" user="Ich_hasse_doitsche_OSM-Korinthenkacker" changeset="2724403">
    <nd ref="304227718"/>
    <nd ref="304227719"/>
    <nd ref="304227720"/>
    <nd ref="304548996"/>
    <nd ref="304549060"/>
    <nd ref="304549061"/>
    <nd ref="304549062"/>
    <nd ref="304549063"/>
    <nd ref="304549064"/>
    <nd ref="304549065"/>
    <nd ref="304549066"/>
    <nd ref="304549067"/>
    <nd ref="304548716"/>
    <tag k="highway" v="service"/>
  </way>
  <way id="27733426" version="2" timestamp="2009-10-03T14:21:53Z" uid="179968" user="Ich_hasse_doitsche_OSM-Korinthenkacker" changeset="2724403">
    <nd ref="304548719"/>
    <nd ref="304549108"/>
    <nd ref="304549109"/>
    <nd ref="304549110"/>
    <nd ref="304549111"/>
    <nd ref="304549060"/>
    <nd ref="304549112"/>
    <nd ref="304549113"/>
    <nd ref="304549114"/>
    <nd ref="304549115"/>
    <tag k="highway" v="service"/>
  </way>
  <way id="27733428" version="2" timestamp="2009-10-03T14:21:54Z" uid="179968" user="Ich_hasse_doitsche_OSM-Korinthenkacker" changeset="2724403">
    <nd ref="304549114"/>
    <nd ref="304549118"/>
    <tag k="highway" v="service"/>
  </way>
  <way id="27733430" version="2" timestamp="2009-10-03T14:21:54Z" uid="179968" user="Ich_hasse_doitsche_OSM-Korinthenkacker" changeset="2724403">
    <nd ref="304227720"/>
    <nd ref="304549126"/>
    <nd ref="304549127"/>
    <nd ref="304549128"/>
    <nd ref="304548701"/>
    <tag k="highway" v="service"/>
  </way>
  <way id="27733433" version="3" timestamp="2009-10-03T14:21:53Z" uid="179968" user="Ich_hasse_doitsche_OSM-Korinthenkacker" changeset="2724403">
    <nd ref="304549134"/>
    <nd ref="304549135"/>
    <nd ref="304549136"/>
    <nd ref="304549137"/>
    <nd ref="304549138"/>
    <nd ref="304549139"/>
    <nd ref="304549140"/>
    <nd ref="304549134"/>
    <tag k="amenity" v="parking"/>
  </way>
  <way id="27733439" version="2" timestamp="2009-10-03T14:21:53Z" uid="179968" user="Ich_hasse_doitsche_OSM-Korinthenkacker" changeset="2724403">
    <nd ref="304548709"/>
    <nd ref="304549230"/>
    <nd ref="304549231"/>
    <nd ref="304549232"/>
    <nd ref="304549233"/>
    <nd ref="304549234"/>
    <nd ref="304549235"/>
    <nd ref="304549236"/>
    <tag k="highway" v="service"/>
  </way>
  <way id="27733443" version="2" timestamp="2009-10-03T14:21:52Z" uid="179968" user="Ich_hasse_doitsche_OSM-Korinthenkacker" changeset="2724403">
    <nd ref="304549235"/>
    <nd ref="304549326"/>
    <nd ref="304549327"/>
    <nd ref="50901203"/>
    <tag k="access" v="permissive"/>
    <tag k="foot" v="yes"/>
    <tag k="highway" v="footway"/>
  </way>
  <way id="27733502" version="5" timestamp="2009-10-03T14:21:49Z" uid="179968" user="Ich_hasse_doitsche_OSM-Korinthenkacker" changeset="2724403">
    <nd ref="304550153"/>
    <nd ref="304550154"/>
    <nd ref="304550155"/>
    <nd ref="304550156"/>
    <nd ref="304550158"/>
    <nd ref="304550226"/>
    <nd ref="304550160"/>
    <nd ref="304550162"/>
    <nd ref="304550164"/>
    <nd ref="304550166"/>
    <nd ref="304550168"/>
    <nd ref="304622906"/>
    <nd ref="304550170"/>
    <nd ref="304622908"/>
    <nd ref="304550171"/>
    <nd ref="304550172"/>
    <nd ref="304550174"/>
    <nd ref="304550176"/>
    <nd ref="304550178"/>
    <nd ref="304550179"/>
    <nd ref="304550153"/>
    <tag k="amenity" v="hospital"/>
    <tag k="area" v="yes"/>
    <tag k="name" v="Mutter-Kind-Kureinrichtung Ostseeklinik"/>
  </way>
  <way id="27733502" version="6" timestamp="2010-08-07T17:50:51Z" uid="30192" user="hubert08" changeset="5426501">
    <nd ref="304550153"/>
    <nd ref="304550154"/>
    <nd ref="304550155"/>
    <nd ref="304550156"/>
    <nd ref="304550158"/>
    <nd ref="304550226"/>
    <nd ref="304550160"/>
    <nd ref="304550162"/>
    <nd ref="304550164"/>
    <nd ref="304550166"/>
    <nd ref="304550168"/>
    <nd ref="304622906"/>
    <nd ref="304550170"/>
    <nd ref="304622908"/>
    <nd ref="304550171"/>
    <nd ref="304550172"/>
    <nd ref="304550174"/>
    <nd ref="304550179"/>
    <nd ref="304550153"/>
    <tag k="amenity" v="hospital"/>
    <tag k="area" v="yes"/>
    <tag k="name" v="Mutter-Kind-Kureinrichtung Ostseeklinik"/>
  </way>
  <way id="27733502" version="7" timestamp="2010-08-07T17:58:04Z" uid="30192" user="hubert08" changeset="5426546">
    <nd ref="304550155"/>
    <nd ref="304550156"/>
    <nd ref="304550158"/>
    <nd ref="304550226"/>
    <nd ref="304550160"/>
    <nd ref="304550162"/>
    <nd ref="304550164"/>
    <nd ref="304550166"/>
    <nd ref="304550168"/>
    <nd ref="304622906"/>
    <nd ref="304550170"/>
    <nd ref="304622908"/>
    <nd ref="304550171"/>
    <nd ref="304550172"/>
    <nd ref="304550174"/>
    <nd ref="304550179"/>
    <nd ref="304550155"/>
    <tag k="amenity" v="hospital"/>
    <tag k="area" v="yes"/>
    <tag k="name" v="Mutter-Kind-Kureinrichtung Ostseeklinik"/>
  </way>
  <way id="27733502" version="8" timestamp="2010-12-21T18:37:35Z" uid="70400" user="Schwedenhagen" changeset="6728376">
    <nd ref="304550155"/>
    <nd ref="304550156"/>
    <nd ref="304550158"/>
    <nd ref="304550226"/>
    <nd ref="304550160"/>
    <nd ref="304550162"/>
    <nd ref="304550164"/>
    <nd ref="304550166"/>
    <nd ref="304550168"/>
    <nd ref="304622906"/>
    <nd ref="304550170"/>
    <nd ref="304622908"/>
    <nd ref="304550171"/>
    <nd ref="304550172"/>
    <nd ref="304550174"/>
    <nd ref="304550179"/>
    <nd ref="1055132735"/>
    <nd ref="304550155"/>
    <tag k="amenity" v="hospital"/>
    <tag k="area" v="yes"/>
    <tag k="name" v="Mutter-Kind-Kureinrichtung Ostseeklinik"/>
  </way>
  <way id="27733510" version="1" timestamp="2008-10-14T11:52:51Z" uid="27600" user="Islanit" changeset="332518">
    <nd ref="234547564"/>
    <nd ref="26795235"/>
    <tag k="created_by" v="Potlatch 0.10e"/>
    <tag k="cycleway" v="lane"/>
    <tag k="highway" v="primary"/>
    <tag k="lanes" v="4"/>
    <tag k="loc_ref" v="Ring 2"/>
    <tag k="name" v="Horner Rampe"/>
  </way>
  <way id="27733510" version="2" timestamp="2009-05-28T09:00:56Z" uid="7041" user="UncleOwen" changeset="1340785">
    <nd ref="26795235"/>
    <nd ref="234547564"/>
    <tag k="created_by" v="Potlatch 0.10e"/>
    <tag k="cycleway" v="lane"/>
    <tag k="highway" v="primary"/>
    <tag k="lanes" v="4"/>
    <tag k="loc_ref" v="Ring 2"/>
    <tag k="name" v="Horner Rampe"/>
  </way>
  <way id="27733510" version="3" timestamp="2009-05-28T10:55:27Z" uid="7041" user="UncleOwen" changeset="1341627">
    <nd ref="26795235"/>
    <nd ref="234547564"/>
    <tag k="created_by" v="Potlatch 0.10e"/>
    <tag k="cycleway" v="lane"/>
    <tag k="highway" v="primary"/>
    <tag k="lanes" v="4"/>
    <tag k="loc_ref" v="Ring 2"/>
    <tag k="name" v="Horner Rampe"/>
    <tag k="ref" v="Ring 2"/>
  </way>
  <way id="27733510" version="4" timestamp="2009-05-28T11:04:39Z" uid="7041" user="UncleOwen" changeset="1341699">
    <nd ref="26795235"/>
    <nd ref="234547564"/>
    <tag k="created_by" v="Potlatch 0.10e"/>
    <tag k="cycleway" v="lane"/>
    <tag k="highway" v="primary"/>
    <tag k="lanes" v="4"/>
    <tag k="name" v="Horner Rampe"/>
    <tag k="ref" v="Ring 2"/>
  </way>
  <way id="27733510" version="5" timestamp="2009-06-16T08:09:35Z" uid="112195" user="Jochend" changeset="1532731">
    <nd ref="26795235"/>
    <nd ref="234547564"/>
    <tag k="created_by" v="Potlatch 0.10e"/>
    <tag k="cycleway" v="track"/>
    <tag k="highway" v="primary"/>
    <tag k="lanes" v="4"/>
    <tag k="name" v="Horner Rampe"/>
    <tag k="ref" v="Ring 2"/>
  </way>
  <way id="27733510" version="6" timestamp="2009-07-02T18:33:27Z" uid="112195" user="Jochend" changeset="1712722">
    <nd ref="26795235"/>
    <nd ref="432621995"/>
    <nd ref="234547564"/>
    <tag k="created_by" v="Potlatch 0.10e"/>
    <tag k="cycleway" v="track"/>
    <tag k="highway" v="primary"/>
    <tag k="lanes" v="4"/>
    <tag k="name" v="Horner Rampe"/>
    <tag k="ref" v="Ring 2"/>
  </way>
  <way id="27733510" version="7" timestamp="2009-11-15T01:14:24Z" uid="51991" user="Wolfgang H" changeset="3118571">
    <nd ref="26795235"/>
    <nd ref="432621995"/>
    <nd ref="234547564"/>
    <tag k="cycleway" v="track"/>
    <tag k="highway" v="primary"/>
    <tag k="lanes" v="4"/>
    <tag k="lit" v="yes"/>
    <tag k="maxspeed" v="50"/>
    <tag k="name" v="Horner Rampe"/>
    <tag k="ref" v="Ring 2"/>
  </way>
  <way id="27733510" version="8" timestamp="2012-03-08T16:05:29Z" uid="63375" user="Divjo" changeset="10910573"/>
  <way id="27733514" version="3" timestamp="2009-10-03T14:21:21Z" uid="179968" user="Ich_hasse_doitsche_OSM-Korinthenkacker" changeset="2724403">
    <nd ref="304550392"/>
    <nd ref="304550393"/>
    <nd ref="304550395"/>
    <nd ref="304550396"/>
    <nd ref="304550392"/>
    <tag k="amenity" v="parking"/>
  </way>
  <way id="27733545" version="3" timestamp="2009-10-03T14:21:23Z" uid="179968" user="Ich_hasse_doitsche_OSM-Korinthenkacker" changeset="2724403">
    <nd ref="304550635"/>
    <nd ref="304550636"/>
    <nd ref="304550637"/>
    <nd ref="304550638"/>
    <nd ref="304550635"/>
    <tag k="landuse" v="retail"/>
  </way>
  <way id="27733545" version="4" timestamp="2012-03-10T11:02:49Z" uid="454712" user="pangowski" changeset="10930335">
    <nd ref="304550635"/>
    <nd ref="304550636"/>
    <nd ref="304550637"/>
    <nd ref="304550638"/>
    <nd ref="304550635"/>
    <tag k="landuse" v="retail"/>
    <tag k="name" v="Baumarkt"/>
  </way>
  <way id="27733571" version="2" timestamp="2009-10-03T14:21:17Z" uid="179968" user="Ich_hasse_doitsche_OSM-Korinthenkacker" changeset="2724403">
    <nd ref="304550912"/>
    <nd ref="304550913"/>
    <nd ref="304550914"/>
    <nd ref="304550915"/>
    <nd ref="304550916"/>
    <nd ref="304550917"/>
    <nd ref="304550918"/>
    <nd ref="304550919"/>
    <nd ref="304550920"/>
    <nd ref="304550921"/>
    <nd ref="304550922"/>
    <nd ref="304550923"/>
    <nd ref="304550924"/>
    <nd ref="304550912"/>
    <tag k="landuse" v="residential"/>
  </way>
  <way id="27733582" version="1" timestamp="2008-10-14T11:56:54Z" uid="36809" user="pfoten_weg_!_" changeset="322483">
    <nd ref="304551182"/>
    <nd ref="304551188"/>
    <nd ref="304551190"/>
    <nd ref="304551192"/>
    <nd ref="304551193"/>
    <nd ref="304551195"/>
    <nd ref="304551197"/>
    <nd ref="304551198"/>
    <nd ref="304551200"/>
    <nd ref="304551201"/>
    <nd ref="304551203"/>
    <nd ref="304551205"/>
    <nd ref="304551182"/>
    <tag k="name" v="E.ON Wasserkraft"/>
    <tag k="power" v="generator"/>
    <tag k="power_source" v="hydro"/>
  </way>
  <way id="27733582" version="2" timestamp="2008-10-14T11:58:11Z" uid="36809" user="pfoten_weg_!_" changeset="322483">
    <nd ref="304551182"/>
    <nd ref="304551188"/>
    <nd ref="304551190"/>
    <nd ref="304551192"/>
    <nd ref="304551193"/>
    <nd ref="304551195"/>
    <nd ref="304551197"/>
    <nd ref="304551198"/>
    <nd ref="304551200"/>
    <nd ref="304551201"/>
    <nd ref="304551203"/>
    <nd ref="304551205"/>
    <nd ref="304551182"/>
    <tag k="layer" v="1"/>
    <tag k="name" v="E.ON Wasserkraft"/>
    <tag k="power" v="generator"/>
    <tag k="power_source" v="hydro"/>
  </way>
  <way id="27733582" version="3" timestamp="2008-10-14T21:26:18Z" uid="36809" user="pfoten_weg_!_" changeset="345995">
    <nd ref="304551182"/>
    <nd ref="304551188"/>
    <nd ref="304551190"/>
    <nd ref="304551192"/>
    <nd ref="304551193"/>
    <nd ref="304551195"/>
    <nd ref="304551197"/>
    <nd ref="304551198"/>
    <nd ref="304551200"/>
    <nd ref="304551201"/>
    <nd ref="304551203"/>
    <nd ref="304551205"/>
    <nd ref="304551182"/>
    <tag k="area" v="yes"/>
    <tag k="layer" v="1"/>
    <tag k="name" v="E.ON Wasserkraft"/>
    <tag k="power" v="generator"/>
    <tag k="power_source" v="hydro"/>
  </way>
  <way id="27733582" version="4" timestamp="2008-10-14T22:38:40Z" uid="36809" user="pfoten_weg_!_" changeset="345995">
    <nd ref="304551182"/>
    <nd ref="304551188"/>
    <nd ref="304551190"/>
    <nd ref="304551192"/>
    <nd ref="304551193"/>
    <nd ref="304551195"/>
    <nd ref="304551197"/>
    <nd ref="304551198"/>
    <nd ref="304551200"/>
    <nd ref="304551201"/>
    <nd ref="304551203"/>
    <nd ref="304551205"/>
    <nd ref="304551182"/>
    <tag k="area" v="yes"/>
    <tag k="landuse" v="commercial"/>
    <tag k="layer" v="1"/>
    <tag k="name" v="E.ON Wasserkraft"/>
    <tag k="power" v="generator"/>
    <tag k="power_source" v="hydro"/>
    <tag k="ref" v="Kraftwerk"/>
  </way>
  <way id="27733582" version="5" timestamp="2008-10-15T18:49:19Z" uid="36809" user="pfoten_weg_!_" changeset="352384">
    <nd ref="304551182"/>
    <nd ref="304551188"/>
    <nd ref="304551190"/>
    <nd ref="304551192"/>
    <nd ref="304551193"/>
    <nd ref="304551195"/>
    <nd ref="304551197"/>
    <nd ref="304551198"/>
    <nd ref="304551200"/>
    <nd ref="304551201"/>
    <nd ref="304551203"/>
    <nd ref="304551205"/>
    <nd ref="304551182"/>
    <tag k="area" v="yes"/>
    <tag k="fenced" v="yes"/>
    <tag k="landuse" v="commercial"/>
    <tag k="layer" v="1"/>
    <tag k="name" v="E.ON Wasserkraft"/>
    <tag k="power" v="generator"/>
    <tag k="power_source" v="hydro"/>
    <tag k="ref" v="Kraftwerk"/>
  </way>
  <way id="27733582" version="6" timestamp="2009-02-15T13:10:32Z" uid="36809" user="pfoten_weg_!_" changeset="463903">
    <nd ref="304551182"/>
    <nd ref="304551188"/>
    <nd ref="304551190"/>
    <nd ref="304551192"/>
    <nd ref="304551193"/>
    <nd ref="304551195"/>
    <nd ref="304551197"/>
    <nd ref="304551198"/>
    <nd ref="304551200"/>
    <nd ref="304551201"/>
    <nd ref="304551203"/>
    <nd ref="304551205"/>
    <nd ref="304551182"/>
    <tag k="area" v="yes"/>
    <tag k="created_by" v="RambaZamba"/>
    <tag k="fenced" v="yes"/>
    <tag k="landuse" v="commercial"/>
    <tag k="layer" v="1"/>
    <tag k="name" v="E.ON Wasserkraft"/>
    <tag k="power" v="generator"/>
    <tag k="power_source" v="hydro"/>
    <tag k="ref" v="Kraftwerk"/>
    <tag k="source" v="survey"/>
  </way>
  <way id="27733582" version="7" timestamp="2009-03-29T21:00:49Z" uid="36809" user="pfoten_weg_!_" changeset="869093">
    <nd ref="304551182"/>
    <nd ref="304551188"/>
    <nd ref="304551190"/>
    <nd ref="304551192"/>
    <nd ref="304551193"/>
    <nd ref="304551195"/>
    <nd ref="304551197"/>
    <nd ref="304551198"/>
    <nd ref="304551200"/>
    <nd ref="304551201"/>
    <nd ref="304551203"/>
    <nd ref="304551205"/>
    <nd ref="304551182"/>
    <tag k="area" v="yes"/>
    <tag k="created_by" v="RambaZamba"/>
    <tag k="fenced" v="yes"/>
    <tag k="landuse" v="commercial"/>
    <tag k="layer" v="1"/>
    <tag k="name" v="E.ON Wasserkraft"/>
    <tag k="power" v="generator"/>
    <tag k="power_source" v="hydro"/>
    <tag k="ref" v="Kraftwerk"/>
    <tag k="source" v="survey"/>
  </way>
  <way id="27733582" version="8" timestamp="2009-07-16T22:31:38Z" uid="36809" user="pfoten_weg_!_" changeset="1849761">
    <nd ref="304551182"/>
    <nd ref="304551188"/>
    <nd ref="304551190"/>
    <nd ref="304551192"/>
    <nd ref="304551193"/>
    <nd ref="304551195"/>
    <nd ref="304551197"/>
    <nd ref="304551198"/>
    <nd ref="304551200"/>
    <nd ref="304551201"/>
    <nd ref="304551203"/>
    <nd ref="304551205"/>
    <nd ref="304551182"/>
    <tag k="area" v="yes"/>
    <tag k="discovered_by" v="RambaZamba"/>
    <tag k="fenced" v="yes"/>
    <tag k="landuse" v="commercial"/>
    <tag k="layer" v="1"/>
    <tag k="name" v="E.ON Wasserkraft"/>
    <tag k="power" v="generator"/>
    <tag k="power_source" v="hydro"/>
    <tag k="ref" v="Kraftwerk"/>
    <tag k="source" v="landsat"/>
  </way>
  <way id="27733582" version="9" timestamp="2009-08-30T09:27:55Z" uid="156995" user="HampelZamba" changeset="2310659">
    <nd ref="304551182"/>
    <nd ref="304551188"/>
    <nd ref="304551190"/>
    <nd ref="304551192"/>
    <nd ref="304551193"/>
    <nd ref="304551195"/>
    <nd ref="304551197"/>
    <nd ref="304551198"/>
    <nd ref="304551200"/>
    <nd ref="304551201"/>
    <nd ref="304551203"/>
    <nd ref="304551205"/>
    <nd ref="304551182"/>
    <tag k="area" v="yes"/>
    <tag k="fenced" v="yes"/>
    <tag k="landuse" v="commercial"/>
    <tag k="layer" v="1"/>
    <tag k="name" v="E.ON Wasserkraft"/>
    <tag k="power" v="generator"/>
    <tag k="power_source" v="hydro"/>
    <tag k="ref" v="Kraftwerk"/>
    <tag k="source" v="landsat"/>
  </way>
  <way id="27733582" version="10" timestamp="2009-09-01T10:38:27Z" uid="36809" user="pfoten_weg_!_" changeset="2335754">
    <nd ref="304551182"/>
    <nd ref="304551188"/>
    <nd ref="304551190"/>
    <nd ref="304551192"/>
    <nd ref="304551193"/>
    <nd ref="304551195"/>
    <nd ref="304551197"/>
    <nd ref="304551198"/>
    <nd ref="304551200"/>
    <nd ref="304551201"/>
    <nd ref="304551203"/>
    <nd ref="304551205"/>
    <nd ref="304551182"/>
    <tag k="area" v="yes"/>
    <tag k="fenced" v="yes"/>
    <tag k="landuse" v="commercial"/>
    <tag k="layer" v="1"/>
    <tag k="name" v="E.ON Wasserkraft"/>
    <tag k="power" v="generator"/>
    <tag k="power_source" v="hydro"/>
    <tag k="ref" v="Kraftwerk"/>
    <tag k="source" v="landsat"/>
  </way>
  <way id="27733582" version="11" timestamp="2009-10-11T23:36:56Z" uid="36809" user="pfoten_weg_!_" changeset="2821194">
    <nd ref="304551182"/>
    <nd ref="304551188"/>
    <nd ref="304551190"/>
    <nd ref="304551192"/>
    <nd ref="304551193"/>
    <nd ref="304551195"/>
    <nd ref="304551197"/>
    <nd ref="304551198"/>
    <nd ref="304551200"/>
    <nd ref="304551201"/>
    <nd ref="304551203"/>
    <nd ref="304551205"/>
    <nd ref="304551182"/>
    <tag k="area" v="yes"/>
    <tag k="fenced" v="yes"/>
    <tag k="landuse" v="commercial"/>
    <tag k="layer" v="1"/>
    <tag k="name" v="E.ON Wasserkraft"/>
    <tag k="power" v="generator"/>
    <tag k="power_source" v="hydro"/>
    <tag k="ref" v="Kraftwerk"/>
  </way>
  <way id="27733582" version="12" timestamp="2010-02-13T23:09:16Z" uid="72235" user="Basstoelpel" changeset="3869334">
    <nd ref="304551182"/>
    <nd ref="304551188"/>
    <nd ref="304551190"/>
    <nd ref="304551192"/>
    <nd ref="304551193"/>
    <nd ref="304551195"/>
    <nd ref="304551197"/>
    <nd ref="304551198"/>
    <nd ref="304551200"/>
    <nd ref="304551201"/>
    <nd ref="304551203"/>
    <nd ref="304551205"/>
    <nd ref="304551182"/>
    <tag k="area" v="yes"/>
    <tag k="fenced" v="yes"/>
    <tag k="layer" v="1"/>
    <tag k="name" v="E.ON Wasserkraft"/>
    <tag k="power" v="generator"/>
    <tag k="power_source" v="hydro"/>
    <tag k="ref" v="Kraftwerk"/>
  </way>
  <way id="27733582" version="13" timestamp="2010-09-25T14:22:45Z" uid="72235" user="Basstoelpel" changeset="5871320">
    <nd ref="304551182"/>
    <nd ref="304551188"/>
    <nd ref="304551190"/>
    <nd ref="304551192"/>
    <nd ref="304551193"/>
    <nd ref="304551195"/>
    <nd ref="304551197"/>
    <nd ref="304551198"/>
    <nd ref="304551200"/>
    <nd ref="304551201"/>
    <nd ref="304551203"/>
    <nd ref="304551205"/>
    <nd ref="304551182"/>
    <tag k="addr:city" v="Höllriegelskreuth"/>
    <tag k="addr:street" v="Am Isarkanal"/>
    <tag k="area" v="yes"/>
    <tag k="fenced" v="yes"/>
    <tag k="layer" v="1"/>
    <tag k="name" v="Laufwasserkraftwerk  Höllriegelskreuth"/>
    <tag k="operator" v="E.ON Wasserkraft"/>
    <tag k="power" v="generator"/>
    <tag k="power_rating" v="3.1 MW"/>
    <tag k="power_source" v="hydro"/>
    <tag k="ref" v="Kraftwerk"/>
  </way>
  <way id="27733582" version="14" timestamp="2011-06-04T02:09:36Z" uid="297482" user="don-vip" changeset="8335625">
    <nd ref="304551182"/>
    <nd ref="304551188"/>
    <nd ref="304551190"/>
    <nd ref="304551192"/>
    <nd ref="304551193"/>
    <nd ref="304551195"/>
    <nd ref="304551197"/>
    <nd ref="304551198"/>
    <nd ref="304551200"/>
    <nd ref="304551201"/>
    <nd ref="304551203"/>
    <nd ref="304551205"/>
    <nd ref="304551182"/>
    <tag k="addr:city" v="Höllriegelskreuth"/>
    <tag k="addr:street" v="Am Isarkanal"/>
    <tag k="area" v="yes"/>
    <tag k="fenced" v="yes"/>
    <tag k="generator:source" v="hydro"/>
    <tag k="layer" v="1"/>
    <tag k="name" v="Laufwasserkraftwerk  Höllriegelskreuth"/>
    <tag k="operator" v="E.ON Wasserkraft"/>
    <tag k="power" v="generator"/>
    <tag k="power_rating" v="3.1 MW"/>
    <tag k="power_source" v="hydro"/>
    <tag k="ref" v="Kraftwerk"/>
  </way>
  <way id="27733582" version="15" timestamp="2011-07-09T17:23:21Z" uid="179033" user="Radeln" changeset="8676485">
    <nd ref="304551182"/>
    <nd ref="304551188"/>
    <nd ref="304551190"/>
    <nd ref="304551192"/>
    <nd ref="304551193"/>
    <nd ref="304551195"/>
    <nd ref="304551197"/>
    <nd ref="304551198"/>
    <nd ref="304551200"/>
    <nd ref="304551201"/>
    <nd ref="304551203"/>
    <nd ref="304551205"/>
    <nd ref="304551182"/>
    <tag k="addr:city" v="Höllriegelskreuth"/>
    <tag k="addr:street" v="Am Isarkanal"/>
    <tag k="fenced" v="yes"/>
    <tag k="generator:source" v="hydro"/>
    <tag k="layer" v="1"/>
    <tag k="name" v="Laufwasserkraftwerk  Höllriegelskreuth"/>
    <tag k="operator" v="E.ON Wasserkraft"/>
    <tag k="power" v="generator"/>
    <tag k="power_rating" v="3.1 MW"/>
    <tag k="power_source" v="hydro"/>
    <tag k="ref" v="Kraftwerk"/>
  </way>
  <way id="27733582" version="16" timestamp="2011-08-14T09:51:56Z" uid="205377" user="geoMILLImeter" changeset="9013681">
    <nd ref="304551182"/>
    <nd ref="304551188"/>
    <nd ref="304551190"/>
    <nd ref="304551192"/>
    <nd ref="304551193"/>
    <nd ref="1398412587"/>
    <nd ref="1398412586"/>
    <nd ref="1398412584"/>
    <nd ref="304551195"/>
    <nd ref="304551197"/>
    <nd ref="304551198"/>
    <nd ref="304551200"/>
    <nd ref="304551201"/>
    <nd ref="304551203"/>
    <nd ref="304551205"/>
    <nd ref="304551182"/>
    <tag k="addr:city" v="Höllriegelskreuth"/>
    <tag k="addr:street" v="Am Isarkanal"/>
    <tag k="fenced" v="yes"/>
    <tag k="generator:source" v="hydro"/>
    <tag k="layer" v="1"/>
    <tag k="name" v="Laufwasserkraftwerk  Höllriegelskreuth"/>
    <tag k="operator" v="E.ON Wasserkraft"/>
    <tag k="power" v="generator"/>
    <tag k="power_rating" v="3.1 MW"/>
    <tag k="power_source" v="hydro"/>
    <tag k="ref" v="Kraftwerk"/>
  </way>
  <way id="27733582" version="17" timestamp="2011-12-21T17:09:44Z" uid="384060" user="aliponte" changeset="10173458">
    <nd ref="304551182"/>
    <nd ref="304551188"/>
    <nd ref="304551190"/>
    <nd ref="304551192"/>
    <nd ref="304551193"/>
    <nd ref="1398412587"/>
    <nd ref="1398412586"/>
    <nd ref="1398412584"/>
    <nd ref="304551195"/>
    <nd ref="304551197"/>
    <nd ref="304551198"/>
    <nd ref="304551200"/>
    <nd ref="304551201"/>
    <nd ref="304551203"/>
    <nd ref="304551205"/>
    <nd ref="304551182"/>
    <tag k="addr:city" v="Höllriegelskreuth"/>
    <tag k="addr:street" v="Am Isarkanal"/>
    <tag k="fenced" v="yes"/>
    <tag k="generator:output:electricity" v="3.1MW"/>
    <tag k="generator:source" v="hydro"/>
    <tag k="name" v="Laufwasserkraftwerk Höllriegelskreuth"/>
    <tag k="operator" v="E.ON Wasserkraft"/>
    <tag k="power" v="generator"/>
  </way>
  <way id="27733734" version="3" timestamp="2010-08-16T05:43:24Z" uid="4467" user="Rosscoe" changeset="5506276">
    <nd ref="862748623"/>
    <nd ref="862748932"/>
    <nd ref="244446606"/>
    <nd ref="244492852"/>
    <tag k="highway" v="trunk"/>
    <tag k="is_in" v="Fullarton,South Australia,Australia"/>
    <tag k="maxspeed" v="60"/>
    <tag k="name" v="Glen Osmond Road"/>
    <tag k="oneway" v="yes"/>
    <tag k="postal_code" v="5063"/>
    <tag k="ref" v="A1"/>
    <tag k="source" v="survey"/>
  </way>
  <way id="27733734" version="4" timestamp="2010-09-27T03:40:00Z" uid="79475" user="AlexOnTheBus" changeset="5888712">
    <nd ref="862748623"/>
    <nd ref="862748932"/>
    <nd ref="244446606"/>
    <nd ref="244492852"/>
    <tag k="highway" v="primary"/>
    <tag k="is_in" v="Fullarton,South Australia,Australia"/>
    <tag k="maxspeed" v="60"/>
    <tag k="name" v="Glen Osmond Road"/>
    <tag k="oneway" v="yes"/>
    <tag k="postal_code" v="5063"/>
    <tag k="ref" v="A1"/>
    <tag k="source" v="survey"/>
  </way>
  <way id="27733734" version="5" timestamp="2011-08-02T08:26:18Z" uid="428465" user="markinspace" changeset="8898424">
    <nd ref="862748623"/>
    <nd ref="862748932"/>
    <nd ref="244446606"/>
    <nd ref="244492852"/>
    <tag k="highway" v="primary"/>
    <tag k="is_in" v="Fullarton,South Australia,Australia"/>
    <tag k="lanes" v="2"/>
    <tag k="maxspeed" v="60"/>
    <tag k="name" v="Glen Osmond Road"/>
    <tag k="oneway" v="yes"/>
    <tag k="postal_code" v="5063"/>
    <tag k="ref" v="A1"/>
    <tag k="source" v="survey"/>
  </way>
  <way id="27733777" version="1" timestamp="2008-10-14T12:11:15Z" uid="36809" user="pfoten_weg_!_" changeset="322483">
    <nd ref="304553534"/>
    <nd ref="304553536"/>
    <tag k="created_by" v="RambaZamba"/>
    <tag k="source" v="survey"/>
    <tag k="waterway" v="weir"/>
  </way>
  <way id="27733777" version="2" timestamp="2008-10-14T17:45:11Z" uid="36809" user="pfoten_weg_!_" changeset="327971">
    <nd ref="304553534"/>
    <nd ref="304615152"/>
    <nd ref="304553536"/>
    <tag k="created_by" v="RambaZamba"/>
    <tag k="source" v="survey"/>
    <tag k="waterway" v="weir"/>
  </way>
  <way id="27733777" version="3" timestamp="2008-10-14T17:46:11Z" uid="36809" user="pfoten_weg_!_" changeset="327971">
    <nd ref="304553534"/>
    <nd ref="304615152"/>
    <nd ref="304553536"/>
    <tag k="created_by" v="RambaZamba"/>
    <tag k="source" v="survey"/>
    <tag k="waterway" v="wehr"/>
  </way>
  <way id="27733777" version="4" timestamp="2008-10-14T17:51:50Z" uid="36809" user="pfoten_weg_!_" changeset="327971">
    <nd ref="304553534"/>
    <nd ref="304615152"/>
    <nd ref="304553536"/>
    <tag k="created_by" v="RambaZamba"/>
    <tag k="name" v="Wehr"/>
    <tag k="source" v="survey"/>
    <tag k="waterway" v="weir"/>
  </way>
  <way id="27733777" version="5" timestamp="2008-10-14T17:53:21Z" uid="36809" user="pfoten_weg_!_" changeset="327971"/>
  <way id="27733806" version="1" timestamp="2008-10-14T12:13:14Z" uid="43863" user="Rundling" changeset="334890">
    <nd ref="275636444"/>
    <nd ref="275636445"/>
    <nd ref="275636446"/>
    <nd ref="275636448"/>
    <nd ref="275636449"/>
    <nd ref="275636450"/>
    <nd ref="275636451"/>
    <tag k="access" v="agricultural"/>
    <tag k="created_by" v="fixbot_csv"/>
    <tag k="highway" v="track"/>
    <tag k="ref" v="2"/>
    <tag k="surface" v="grass"/>
    <tag k="tracktype" v="grade3"/>
  </way>
  <way id="27733806" version="2" timestamp="2008-10-14T12:20:39Z" uid="43863" user="Rundling" changeset="334890">
    <nd ref="275636445"/>
    <nd ref="275636446"/>
    <nd ref="275636448"/>
    <nd ref="275636449"/>
    <nd ref="275636450"/>
    <nd ref="275636451"/>
    <tag k="access" v="agricultural"/>
    <tag k="created_by" v="fixbot_csv"/>
    <tag k="highway" v="track"/>
    <tag k="ref" v="2"/>
    <tag k="surface" v="grass"/>
    <tag k="tracktype" v="grade3"/>
  </way>
  <way id="27733806" version="3" timestamp="2009-01-02T13:20:34Z" uid="43863" user="Rundling" changeset="709299">
    <nd ref="275636445"/>
    <nd ref="275636448"/>
    <nd ref="275636449"/>
    <nd ref="275636451"/>
    <tag k="access" v="agricultural"/>
    <tag k="created_by" v="fixbot_csv"/>
    <tag k="highway" v="track"/>
    <tag k="ref" v="2"/>
    <tag k="surface" v="grass"/>
    <tag k="tracktype" v="grade3"/>
  </way>
  <way id="27733806" version="4" timestamp="2009-02-01T17:16:33Z" uid="43863" user="Rundling" changeset="34014">
    <nd ref="273447727"/>
    <nd ref="275636445"/>
    <nd ref="275636448"/>
    <nd ref="275636449"/>
    <nd ref="275636451"/>
    <tag k="access" v="agricultural"/>
    <tag k="created_by" v="fixbot_csv"/>
    <tag k="highway" v="track"/>
    <tag k="ref" v="2"/>
    <tag k="surface" v="grass"/>
    <tag k="tracktype" v="grade3"/>
  </way>
  <way id="27733806" version="5" timestamp="2009-02-05T19:00:18Z" uid="43863" user="Rundling" changeset="157466">
    <nd ref="273447727"/>
    <nd ref="275636445"/>
    <nd ref="341277360"/>
    <nd ref="275636448"/>
    <nd ref="275636449"/>
    <nd ref="275636451"/>
    <tag k="access" v="agricultural"/>
    <tag k="created_by" v="fixbot_csv"/>
    <tag k="highway" v="track"/>
    <tag k="ref" v="2"/>
    <tag k="surface" v="grass"/>
    <tag k="tracktype" v="grade3"/>
  </way>
  <way id="27733806" version="6" timestamp="2009-02-20T16:37:23Z" uid="43863" user="Rundling" changeset="573792">
    <nd ref="273447727"/>
    <nd ref="275636445"/>
    <nd ref="341277360"/>
    <nd ref="275636448"/>
    <nd ref="275636449"/>
    <nd ref="348064487"/>
    <nd ref="348064485"/>
    <nd ref="348064479"/>
    <nd ref="348064476"/>
    <nd ref="275636451"/>
    <tag k="access" v="agricultural"/>
    <tag k="created_by" v="fixbot_csv"/>
    <tag k="highway" v="track"/>
    <tag k="ref" v="2"/>
    <tag k="surface" v="grass"/>
    <tag k="tracktype" v="grade3"/>
  </way>
  <way id="27733806" version="7" timestamp="2009-06-14T06:25:51Z" uid="43863" user="Rundling" changeset="1510682">
    <nd ref="273447727"/>
    <nd ref="275636445"/>
    <nd ref="275636448"/>
    <nd ref="275636449"/>
    <nd ref="420047778"/>
    <tag k="access" v="agricultural"/>
    <tag k="created_by" v="fixbot_csv"/>
    <tag k="highway" v="track"/>
    <tag k="ref" v="2"/>
    <tag k="surface" v="grass"/>
    <tag k="tracktype" v="grade3"/>
  </way>
  <way id="27733806" version="8" timestamp="2009-06-28T11:38:49Z" uid="58950" user="mfi" changeset="1661779">
    <nd ref="273447727"/>
    <nd ref="275636445"/>
    <nd ref="275636448"/>
    <nd ref="275636449"/>
    <nd ref="275636451"/>
    <tag k="access" v="agricultural"/>
    <tag k="created_by" v="fixbot_csv"/>
    <tag k="highway" v="track"/>
    <tag k="ref" v="2"/>
    <tag k="surface" v="grass"/>
    <tag k="tracktype" v="grade3"/>
  </way>
  <way id="27733806" version="9" timestamp="2009-07-01T07:04:40Z" uid="43863" user="Rundling" changeset="1698087">
    <nd ref="273447727"/>
    <nd ref="275636445"/>
    <nd ref="275636448"/>
    <nd ref="275636449"/>
    <nd ref="275636451"/>
    <tag k="access" v="agricultural"/>
    <tag k="highway" v="track"/>
    <tag k="surface" v="grass"/>
    <tag k="tracktype" v="grade3"/>
  </way>
  <way id="27733806" version="10" timestamp="2009-11-29T19:39:38Z" uid="44827" user="snail044" changeset="3249628">
    <nd ref="273447727"/>
    <nd ref="275636445"/>
    <nd ref="275636448"/>
    <nd ref="275636449"/>
    <nd ref="574934017"/>
    <nd ref="275636451"/>
    <tag k="access" v="agricultural"/>
    <tag k="highway" v="track"/>
    <tag k="surface" v="grass"/>
    <tag k="tracktype" v="grade3"/>
  </way>
  <way id="27733806" version="11" timestamp="2009-11-30T12:44:26Z" uid="43863" user="Rundling" changeset="3255382">
    <nd ref="273447727"/>
    <nd ref="275636445"/>
    <nd ref="575911691"/>
    <nd ref="275636448"/>
    <nd ref="275636449"/>
    <nd ref="574934017"/>
    <nd ref="275636451"/>
    <tag k="access" v="agricultural"/>
    <tag k="highway" v="track"/>
    <tag k="surface" v="grass"/>
    <tag k="tracktype" v="grade3"/>
  </way>
  <way id="27733807" version="1" timestamp="2008-10-14T12:13:14Z" uid="43863" user="Rundling" changeset="334890">
    <nd ref="275636451"/>
    <nd ref="275636452"/>
    <nd ref="275636453"/>
    <nd ref="275636454"/>
    <tag k="access" v="agricultural"/>
    <tag k="created_by" v="fixbot_csv"/>
    <tag k="highway" v="track"/>
    <tag k="ref" v="2"/>
    <tag k="surface" v="paved"/>
    <tag k="tracktype" v="grade1"/>
  </way>
  <way id="27733807" version="2" timestamp="2009-02-05T18:55:32Z" uid="43863" user="Rundling" changeset="157466">
    <nd ref="275636451"/>
    <nd ref="275636452"/>
    <nd ref="275636453"/>
    <nd ref="341273830"/>
    <nd ref="341273828"/>
    <nd ref="275636454"/>
    <tag k="access" v="agricultural"/>
    <tag k="created_by" v="fixbot_csv"/>
    <tag k="highway" v="track"/>
    <tag k="ref" v="2"/>
    <tag k="surface" v="paved"/>
    <tag k="tracktype" v="grade1"/>
  </way>
  <way id="27733807" version="3" timestamp="2011-02-05T11:05:57Z" uid="43863" user="Rundling" changeset="7191003">
    <nd ref="275636451"/>
    <nd ref="275636452"/>
    <nd ref="275636453"/>
    <nd ref="1137277668"/>
    <nd ref="341273830"/>
    <nd ref="341273828"/>
    <nd ref="1137277852"/>
    <nd ref="275636454"/>
    <tag k="access" v="agricultural"/>
    <tag k="highway" v="track"/>
    <tag k="surface" v="paved"/>
    <tag k="tracktype" v="grade1"/>
  </way>
</osm>
