<?xml version='1.0' encoding='UTF-8'?>
<osm version="0.6" generator="libosmium/2.20.0">
  <way id="27795084" version="14" timestamp="2010-01-08T08:20:24Z" uid="12188" user="Babis" changeset="3568215">
    <nd ref="305183753"/>
    <nd ref="387846852"/>
    <nd ref="387846849"/>
    <nd ref="305184367"/>
    <nd ref="305182947"/>
    <nd ref="305184901"/>
    <nd ref="305184406"/>
    <nd ref="387846894"/>
    <nd ref="305183070"/>
    <nd ref="271894110"/>
    <tag k="highway" v="residential"/>
    <tag k="name" v="Ανδριανουπολεως"/>
  </way>
  <way id="27795084" version="15" timestamp="2010-07-30T09:10:49Z" uid="230802" user="skoteinos" changeset="5352850">
    <nd ref="305183753"/>
    <nd ref="387846852"/>
    <nd ref="387846849"/>
    <nd ref="305184367"/>
    <nd ref="305182947"/>
    <nd ref="305184901"/>
    <nd ref="305184406"/>
    <nd ref="387846894"/>
    <nd ref="305183070"/>
    <nd ref="271894110"/>
    <tag k="highway" v="residential"/>
    <tag k="name" v="Ανδριανουπόλεως"/>
  </way>
  <way id="27795084" version="16" timestamp="2011-02-11T17:35:11Z" uid="653" user="aitolos" changeset="7256852">
    <nd ref="305183753"/>
    <nd ref="387846852"/>
    <nd ref="387846849"/>
    <nd ref="305184367"/>
    <nd ref="305182947"/>
    <nd ref="305184901"/>
    <nd ref="305184406"/>
    <nd ref="387846894"/>
    <nd ref="305183070"/>
    <nd ref="271894110"/>
    <tag k="highway" v="residential"/>
    <tag k="name" v="Αδριανουπόλεως"/>
  </way>
  <way id="27795208" version="3" timestamp="2010-01-08T08:20:07Z" uid="12188" user="Babis" changeset="3568215">
    <nd ref="305184271"/>
    <nd ref="305184272"/>
    <tag k="highway" v="residential"/>
    <tag k="name" v="Πλαταιων"/>
    <tag k="ref" v="platewn"/>
  </way>
  <way id="27795208" version="4" timestamp="2010-07-30T09:13:32Z" uid="230802" user="skoteinos" changeset="5352874">
    <nd ref="305184271"/>
    <nd ref="305184272"/>
    <tag k="highway" v="residential"/>
    <tag k="name" v="Πλαταιών"/>
    <tag k="name:en" v="Plataion"/>
  </way>
  <way id="27795217" version="5" timestamp="2010-01-08T08:20:00Z" uid="12188" user="Babis" changeset="3568215">
    <nd ref="305184299"/>
    <nd ref="305184297"/>
    <nd ref="305184298"/>
    <tag k="highway" v="residential"/>
    <tag k="name" v="Κιουταχειας"/>
    <tag k="ref" v="kioutaxeias"/>
  </way>
  <way id="27795217" version="6" timestamp="2010-07-30T09:10:49Z" uid="230802" user="skoteinos" changeset="5352850">
    <nd ref="305184299"/>
    <nd ref="305184297"/>
    <nd ref="305184298"/>
    <tag k="highway" v="residential"/>
    <tag k="name" v="Κιουταχειας"/>
    <tag k="name:en" v="Kioutacheias"/>
  </way>
  <way id="27795217" version="7" timestamp="2012-01-17T22:25:02Z" uid="588270" user="pavo" changeset="10422586">
    <nd ref="305184299"/>
    <nd ref="305184297"/>
    <nd ref="305184298"/>
    <tag k="highway" v="residential"/>
    <tag k="name" v="Κιουταχειας"/>
    <tag k="name:en" v="Kioutacheias"/>
    <tag k="oneway" v="yes"/>
  </way>
  <way id="27795237" version="5" timestamp="2010-01-08T08:19:53Z" uid="12188" user="Babis" changeset="3568215">
    <nd ref="305184364"/>
    <nd ref="305184365"/>
    <nd ref="305184366"/>
    <nd ref="305184367"/>
    <nd ref="305184878"/>
    <nd ref="305184368"/>
    <tag k="highway" v="residential"/>
    <tag k="name" v="Οδεμησιου"/>
    <tag k="ref" v="odemisiou"/>
  </way>
  <way id="27795237" version="6" timestamp="2010-07-30T09:10:49Z" uid="230802" user="skoteinos" changeset="5352850">
    <nd ref="305184364"/>
    <nd ref="305184365"/>
    <nd ref="305184366"/>
    <nd ref="305184367"/>
    <nd ref="305184878"/>
    <nd ref="305184368"/>
    <tag k="highway" v="residential"/>
    <tag k="name" v="Οδεμησίου"/>
  </way>
  <way id="27795237" version="7" timestamp="2011-02-11T17:35:11Z" uid="653" user="aitolos" changeset="7256852">
    <nd ref="305184364"/>
    <nd ref="305184365"/>
    <nd ref="305184366"/>
    <tag k="highway" v="residential"/>
    <tag k="name" v="Οδεμησίου"/>
  </way>
  <way id="27795237" version="8" timestamp="2012-01-17T22:25:03Z" uid="588270" user="pavo" changeset="10422586">
    <nd ref="305184364"/>
    <nd ref="305184365"/>
    <nd ref="305184366"/>
    <tag k="highway" v="residential"/>
    <tag k="name" v="Οδεμησίου"/>
    <tag k="oneway" v="yes"/>
  </way>
  <way id="27795248" version="4" timestamp="2010-01-08T08:19:39Z" uid="12188" user="Babis" changeset="3568215">
    <nd ref="305184399"/>
    <nd ref="269171003"/>
    <nd ref="305184400"/>
    <tag k="highway" v="residential"/>
    <tag k="name" v="Σειρηνων"/>
  </way>
  <way id="27795248" version="5" timestamp="2010-07-30T09:10:51Z" uid="230802" user="skoteinos" changeset="5352850">
    <nd ref="305184399"/>
    <nd ref="269171003"/>
    <nd ref="305184400"/>
    <tag k="highway" v="residential"/>
    <tag k="name" v="Σειρήνων"/>
  </way>
  <way id="27795269" version="4" timestamp="2010-01-08T08:18:52Z" uid="12188" user="Babis" changeset="3568215">
    <nd ref="305184509"/>
    <nd ref="305184431"/>
    <nd ref="305184466"/>
    <tag k="highway" v="residential"/>
    <tag k="name" v="Σειρηνων"/>
  </way>
  <way id="27795269" version="5" timestamp="2010-07-30T09:10:49Z" uid="230802" user="skoteinos" changeset="5352850">
    <nd ref="305184509"/>
    <nd ref="305184431"/>
    <nd ref="305184466"/>
    <tag k="highway" v="residential"/>
    <tag k="name" v="Σειρήνων"/>
  </way>
  <way id="27795273" version="7" timestamp="2010-01-08T08:19:14Z" uid="12188" user="Babis" changeset="3568215">
    <nd ref="305184749"/>
    <nd ref="305184534"/>
    <nd ref="305184678"/>
    <tag k="highway" v="residential"/>
    <tag k="name" v="Νυμφαιου"/>
    <tag k="ref" v="nymfaiou"/>
  </way>
  <way id="27795277" version="10" timestamp="2010-01-08T08:18:33Z" uid="12188" user="Babis" changeset="3568215">
    <nd ref="271735727"/>
    <nd ref="271735740"/>
    <nd ref="271735724"/>
    <nd ref="271735741"/>
    <nd ref="271735873"/>
    <nd ref="271735690"/>
    <nd ref="271735892"/>
    <nd ref="271736198"/>
    <nd ref="271735787"/>
    <nd ref="271736019"/>
    <nd ref="271735550"/>
    <nd ref="271736020"/>
    <nd ref="305184466"/>
    <nd ref="305184678"/>
    <nd ref="271736022"/>
    <nd ref="271736023"/>
    <nd ref="305185450"/>
    <nd ref="271736802"/>
    <nd ref="271737431"/>
    <tag k="highway" v="residential"/>
    <tag k="name" v="Μεσολογγιου"/>
  </way>
  <way id="27795277" version="11" timestamp="2010-07-30T09:10:52Z" uid="230802" user="skoteinos" changeset="5352850">
    <nd ref="271735727"/>
    <nd ref="271735740"/>
    <nd ref="271735724"/>
    <nd ref="271735741"/>
    <nd ref="271735873"/>
    <nd ref="271735690"/>
    <nd ref="271735892"/>
    <nd ref="271736198"/>
    <nd ref="271735787"/>
    <nd ref="271736019"/>
    <nd ref="271735550"/>
    <nd ref="271736020"/>
    <nd ref="305184466"/>
    <nd ref="305184678"/>
    <nd ref="271736022"/>
    <nd ref="271736023"/>
    <nd ref="305185450"/>
    <nd ref="271736802"/>
    <nd ref="271737431"/>
    <tag k="highway" v="residential"/>
    <tag k="name" v="Μεσολογγίου"/>
  </way>
  <way id="27795277" version="12" timestamp="2011-06-25T13:40:11Z" uid="23785" user="greecemapper" changeset="8542559">
    <nd ref="271735727"/>
    <nd ref="271735740"/>
    <nd ref="271735724"/>
    <nd ref="271735741"/>
    <nd ref="271735873"/>
    <nd ref="271735690"/>
    <nd ref="271735892"/>
    <nd ref="271736198"/>
    <nd ref="271735787"/>
    <nd ref="271736019"/>
    <nd ref="271735550"/>
    <nd ref="305184466"/>
    <nd ref="305184678"/>
    <nd ref="271736022"/>
    <nd ref="271736023"/>
    <nd ref="305185450"/>
    <nd ref="271736802"/>
    <nd ref="271737431"/>
    <tag k="highway" v="residential"/>
    <tag k="name" v="Μεσολογγίου"/>
  </way>
  <way id="27795381" version="4" timestamp="2010-12-19T22:37:30Z" uid="6269" user="Mueck" changeset="6711092">
    <nd ref="305185602"/>
    <nd ref="1050192195"/>
    <nd ref="1050192182"/>
    <nd ref="48628108"/>
    <nd ref="48628112"/>
    <nd ref="1050192101"/>
    <nd ref="48628116"/>
    <tag k="highway" v="residential"/>
    <tag k="maxspeed" v="30"/>
    <tag k="name" v="Bremer Straße"/>
    <tag k="source" v="survey"/>
    <tag k="surface" v="paved"/>
  </way>
  <way id="27795381" version="5" timestamp="2011-04-21T08:24:46Z" uid="42429" user="FK270673" changeset="7923215">
    <nd ref="305185602"/>
    <nd ref="1050192195"/>
    <nd ref="1050192182"/>
    <nd ref="48628108"/>
    <nd ref="48628112"/>
    <nd ref="1050192101"/>
    <nd ref="48628116"/>
    <tag k="highway" v="residential"/>
    <tag k="lit" v="yes"/>
    <tag k="maxspeed" v="30"/>
    <tag k="name" v="Bremer Straße"/>
    <tag k="source" v="survey"/>
    <tag k="surface" v="paved"/>
  </way>
  <way id="27795459" version="3" timestamp="2010-04-07T12:59:35Z" uid="20587" user="balrog-kun" changeset="4353646">
    <nd ref="226124665"/>
    <nd ref="226124659"/>
    <nd ref="226124654"/>
    <nd ref="226001986"/>
    <nd ref="226124434"/>
    <nd ref="225965271"/>
    <nd ref="225997732"/>
    <nd ref="226124491"/>
    <nd ref="226115150"/>
    <nd ref="226124504"/>
    <nd ref="226124642"/>
    <nd ref="225856750"/>
    <nd ref="226085160"/>
    <nd ref="225861469"/>
    <nd ref="225866459"/>
    <nd ref="225866439"/>
    <nd ref="225906378"/>
    <nd ref="226124636"/>
    <nd ref="226094739"/>
    <nd ref="226124632"/>
    <nd ref="226124622"/>
    <nd ref="226124616"/>
    <nd ref="226124610"/>
    <nd ref="226124603"/>
    <nd ref="226124597"/>
    <nd ref="226124591"/>
    <nd ref="226124585"/>
    <nd ref="226124580"/>
    <nd ref="225906395"/>
    <nd ref="226124577"/>
    <nd ref="226124573"/>
    <nd ref="226124565"/>
    <nd ref="225906520"/>
    <nd ref="226124560"/>
    <nd ref="226124555"/>
    <nd ref="226124551"/>
    <nd ref="226124545"/>
    <nd ref="226124541"/>
    <nd ref="225906532"/>
    <nd ref="226124538"/>
    <nd ref="225906153"/>
    <nd ref="226034171"/>
    <nd ref="226124529"/>
    <nd ref="226124524"/>
    <nd ref="226124517"/>
    <nd ref="226124513"/>
    <nd ref="226124509"/>
    <nd ref="226124504"/>
    <tag k="created_by" v="Potlatch 0.10e"/>
    <tag k="highway" v="residential"/>
    <tag k="name" v="Interstate Highway  10 Service Drive"/>
    <tag k="note" v="frontage"/>
    <tag k="tiger:cfcc" v="A64"/>
    <tag k="tiger:county" v="Jefferson, TX"/>
    <tag k="tiger:name_base" v="I- 10 Service"/>
    <tag k="tiger:name_type" v="Dr"/>
    <tag k="tiger:reviewed" v="no"/>
    <tag k="tiger:source" v="tiger_import_dch_v0.6_20070830"/>
    <tag k="tiger:tlid" v="73929932:73917556:73917573:73852953:73852954:73852969:73852972:73852998:73852999:73853003:73852975:73853004:73853031:73898177:73898178:73853007:73917036:73917037:73869877:73898171:73898172:73853013:73881498:73875979:73853023:73898179:73898180:73917052:739"/>
  </way>
  <way id="27795459" version="4" timestamp="2011-03-21T01:03:19Z" uid="119881" user="Clorox" changeset="7623433"/>
  <way id="27795904" version="1" timestamp="2008-10-17T15:27:09Z" uid="33382" user="de_muur" changeset="393971">
    <nd ref="266417049"/>
    <nd ref="305190326"/>
    <nd ref="305190327"/>
    <nd ref="305190328"/>
    <tag k="created_by" v="JOSM"/>
    <tag k="highway" v="track"/>
    <tag k="surface" v="unpaved"/>
    <tag k="tracktype" v="grade3"/>
  </way>
  <way id="27795905" version="1" timestamp="2008-10-17T15:27:09Z" uid="33382" user="de_muur" changeset="393971">
    <nd ref="305190328"/>
    <nd ref="305190329"/>
    <nd ref="305190330"/>
    <tag k="created_by" v="JOSM"/>
    <tag k="highway" v="track"/>
    <tag k="surface" v="unpaved"/>
    <tag k="tracktype" v="grade5"/>
  </way>
  <way id="27795906" version="1" timestamp="2008-10-17T15:27:09Z" uid="33382" user="de_muur" changeset="393971">
    <nd ref="305190333"/>
    <nd ref="305190334"/>
    <nd ref="305190335"/>
    <nd ref="305190336"/>
    <tag k="created_by" v="JOSM"/>
    <tag k="highway" v="unclassified"/>
    <tag k="name" v="Ebersoll"/>
    <tag k="surface" v="unpaved"/>
  </way>
  <way id="27795906" version="2" timestamp="2012-03-24T22:51:03Z" uid="161619" user="FvGordon" changeset="11089875">
    <nd ref="1686131955"/>
    <nd ref="305190334"/>
    <nd ref="305190335"/>
    <nd ref="305190336"/>
    <tag k="highway" v="unclassified"/>
    <tag k="name" v="Ebersoll"/>
    <tag k="surface" v="unpaved"/>
  </way>
  <way id="27795906" version="3" timestamp="2012-03-30T12:34:08Z" uid="349191" user="Glühwürmchen" changeset="11151317"/>
  <way id="27795907" version="1" timestamp="2008-10-17T15:27:10Z" uid="33382" user="de_muur" changeset="393971">
    <nd ref="305190336"/>
    <nd ref="305190337"/>
    <nd ref="305190338"/>
    <tag k="created_by" v="JOSM"/>
    <tag k="highway" v="track"/>
    <tag k="surface" v="unpaved"/>
    <tag k="tracktype" v="grade4"/>
  </way>
  <way id="27795907" version="2" timestamp="2012-03-30T12:34:08Z" uid="349191" user="Glühwürmchen" changeset="11151317"/>
  <way id="27795908" version="1" timestamp="2008-10-17T15:27:10Z" uid="33382" user="de_muur" changeset="393971">
    <nd ref="305190339"/>
    <nd ref="305190340"/>
    <nd ref="305190341"/>
    <tag k="created_by" v="JOSM"/>
    <tag k="highway" v="track"/>
    <tag k="surface" v="unpaved"/>
    <tag k="tracktype" v="grade5"/>
  </way>
  <way id="27795908" version="2" timestamp="2012-03-12T12:17:38Z" uid="63375" user="Divjo" changeset="10954104">
    <nd ref="1671877625"/>
    <nd ref="1671877627"/>
    <nd ref="305190340"/>
    <nd ref="305190341"/>
    <tag k="highway" v="track"/>
    <tag k="surface" v="unpaved"/>
    <tag k="tracktype" v="grade5"/>
  </way>
  <way id="27795908" version="3" timestamp="2012-03-30T13:13:23Z" uid="349191" user="Glühwürmchen" changeset="11151317"/>
  <way id="27795909" version="1" timestamp="2008-10-17T15:27:10Z" uid="33382" user="de_muur" changeset="393971">
    <nd ref="305190342"/>
    <nd ref="305190343"/>
    <nd ref="305190344"/>
    <nd ref="305190345"/>
    <tag k="created_by" v="JOSM"/>
    <tag k="highway" v="track"/>
    <tag k="surface" v="paved"/>
    <tag k="tracktype" v="grade1"/>
  </way>
  <way id="27795909" version="2" timestamp="2012-03-12T12:17:39Z" uid="63375" user="Divjo" changeset="10954104">
    <nd ref="1671877622"/>
    <nd ref="1671877624"/>
    <nd ref="305190343"/>
    <nd ref="305190344"/>
    <nd ref="305190345"/>
    <tag k="highway" v="track"/>
    <tag k="surface" v="paved"/>
    <tag k="tracktype" v="grade1"/>
  </way>
  <way id="27795922" version="3" timestamp="2009-09-18T14:51:43Z" uid="174946" user="nevminoz" changeset="2525197">
    <nd ref="305190573"/>
    <nd ref="500384081"/>
    <nd ref="305190562"/>
    <nd ref="305190572"/>
    <nd ref="305190570"/>
    <nd ref="305190571"/>
    <tag k="cladr:code" v="71000001000018400"/>
    <tag k="cladr:name" v="Епифанская"/>
    <tag k="cladr:suffix" v="Улица"/>
    <tag k="highway" v="residential"/>
    <tag k="name" v="Епифанская ул."/>
  </way>
  <way id="27795922" version="4" timestamp="2010-05-05T20:03:58Z" uid="27371" user="vvoovv" changeset="4616413">
    <nd ref="305190573"/>
    <nd ref="500384081"/>
    <nd ref="305190562"/>
    <nd ref="305190572"/>
    <nd ref="305190570"/>
    <nd ref="722892968"/>
    <nd ref="305190571"/>
    <tag k="cladr:code" v="71000001000018400"/>
    <tag k="cladr:name" v="Епифанская"/>
    <tag k="cladr:suffix" v="Улица"/>
    <tag k="highway" v="residential"/>
    <tag k="name" v="Епифанская ул."/>
  </way>
  <way id="27795922" version="5" timestamp="2011-06-15T00:29:46Z" uid="133332" user="AMDmi3" changeset="8443297">
    <nd ref="305190573"/>
    <nd ref="500384081"/>
    <nd ref="305190562"/>
    <nd ref="305190572"/>
    <nd ref="305190570"/>
    <nd ref="722892968"/>
    <nd ref="305190571"/>
    <tag k="cladr:code" v="71000001000018400"/>
    <tag k="cladr:name" v="Епифанская"/>
    <tag k="cladr:suffix" v="Улица"/>
    <tag k="highway" v="residential"/>
    <tag k="name" v="Епифанская улица"/>
  </way>
  <way id="27795924" version="3" timestamp="2009-09-18T14:51:44Z" uid="174946" user="nevminoz" changeset="2525197"/>
  <way id="27795924" version="4" timestamp="2009-09-25T10:19:37Z" uid="27371" user="vvoovv" changeset="2616295">
    <nd ref="305190562"/>
    <nd ref="305190578"/>
    <nd ref="305190563"/>
    <nd ref="305190564"/>
    <nd ref="305190565"/>
    <nd ref="305190566"/>
    <tag k="addr:postcode" v="300004"/>
    <tag k="cladr:code" v="71000001000022400"/>
    <tag k="cladr:name" v="Марата"/>
    <tag k="cladr:suffix" v="Улица"/>
    <tag k="highway" v="residential"/>
    <tag k="history" v="Retrieved from v2"/>
    <tag k="motorcar" v="no"/>
    <tag k="name" v="ул. Марата"/>
    <tag k="railway" v="tram"/>
  </way>
  <way id="27795924" version="5" timestamp="2010-05-06T20:37:37Z" uid="27371" user="vvoovv" changeset="4625263">
    <nd ref="305190562"/>
    <nd ref="305190578"/>
    <nd ref="305190563"/>
    <nd ref="724475221"/>
    <nd ref="305190564"/>
    <nd ref="724475177"/>
    <nd ref="500384065"/>
    <nd ref="500384050"/>
    <nd ref="724475110"/>
    <nd ref="724475002"/>
    <nd ref="724475174"/>
    <nd ref="724475064"/>
    <nd ref="724474914"/>
    <tag k="highway" v="residential"/>
    <tag k="motorcar" v="no"/>
    <tag k="name" v="ул. Марата"/>
    <tag k="railway" v="tram"/>
  </way>
  <way id="27795924" version="6" timestamp="2010-05-07T19:32:13Z" uid="27371" user="vvoovv" changeset="4633108">
    <nd ref="305190562"/>
    <nd ref="305190578"/>
    <nd ref="305190563"/>
    <nd ref="724475221"/>
    <nd ref="305190564"/>
    <nd ref="724475177"/>
    <nd ref="500384065"/>
    <tag k="highway" v="residential"/>
    <tag k="motorcar" v="no"/>
    <tag k="name" v="ул. Марата"/>
    <tag k="railway" v="tram"/>
  </way>
  <way id="27795924" version="7" timestamp="2010-05-12T18:05:34Z" uid="30590" user="KekcuHa" changeset="4679451">
    <nd ref="305190562"/>
    <nd ref="305190578"/>
    <nd ref="305190563"/>
    <nd ref="724475221"/>
    <nd ref="305190564"/>
    <nd ref="724475177"/>
    <nd ref="500384065"/>
    <tag k="addr:postcode" v="300004"/>
    <tag k="cladr:code" v="71000001000022400"/>
    <tag k="cladr:name" v="Марата"/>
    <tag k="cladr:suffix" v="Улица"/>
    <tag k="highway" v="residential"/>
    <tag k="motorcar" v="no"/>
    <tag k="name" v="ул. Марата"/>
    <tag k="railway" v="tram"/>
  </way>
  <way id="27795924" version="8" timestamp="2011-06-15T00:29:41Z" uid="133332" user="AMDmi3" changeset="8443297">
    <nd ref="305190562"/>
    <nd ref="305190578"/>
    <nd ref="305190563"/>
    <nd ref="724475221"/>
    <nd ref="305190564"/>
    <nd ref="724475177"/>
    <nd ref="500384065"/>
    <tag k="addr:postcode" v="300004"/>
    <tag k="cladr:code" v="71000001000022400"/>
    <tag k="cladr:name" v="Марата"/>
    <tag k="cladr:suffix" v="Улица"/>
    <tag k="highway" v="residential"/>
    <tag k="motorcar" v="no"/>
    <tag k="name" v="улица Марата"/>
    <tag k="railway" v="tram"/>
  </way>
  <way id="27795924" version="9" timestamp="2011-07-27T13:33:07Z" uid="397326" user="trolleway" changeset="8844750">
    <nd ref="305190562"/>
    <nd ref="305190578"/>
    <nd ref="305190563"/>
    <nd ref="724475221"/>
    <nd ref="305190564"/>
    <nd ref="724475177"/>
    <nd ref="500384065"/>
    <tag k="addr:postcode" v="300004"/>
    <tag k="cladr:code" v="71000001000022400"/>
    <tag k="cladr:name" v="Марата"/>
    <tag k="cladr:suffix" v="Улица"/>
    <tag k="highway" v="residential"/>
    <tag k="motorcar" v="no"/>
    <tag k="name" v="улица Марата"/>
  </way>
  <way id="27795932" version="1" timestamp="2008-10-17T15:29:14Z" uid="43863" user="Rundling" changeset="393177">
    <nd ref="305190832"/>
    <nd ref="305190833"/>
    <nd ref="305190834"/>
    <nd ref="305190835"/>
    <nd ref="305190832"/>
    <tag k="amenity" v="parking"/>
  </way>
</osm>
