<?xml version='1.0' encoding='UTF-8'?>
<osm version="0.6" generator="libosmium/2.20.0">
  <way id="27839043" version="14" timestamp="2009-10-22T21:25:51Z" uid="36809" user="pfoten_weg_!_" changeset="2925674">
    <nd ref="413903243"/>
    <nd ref="413903241"/>
    <nd ref="413903240"/>
    <nd ref="413903238"/>
    <nd ref="305650346"/>
    <nd ref="305650350"/>
    <nd ref="323588515"/>
    <nd ref="323588516"/>
    <nd ref="323588517"/>
    <nd ref="323588518"/>
    <nd ref="323588519"/>
    <nd ref="323588520"/>
    <nd ref="323588521"/>
    <nd ref="323588522"/>
    <nd ref="323588523"/>
    <nd ref="323588524"/>
    <nd ref="323588525"/>
    <nd ref="323588526"/>
    <nd ref="323588527"/>
    <nd ref="323588528"/>
    <nd ref="323588529"/>
    <nd ref="323588530"/>
    <nd ref="323588531"/>
    <nd ref="323588532"/>
    <nd ref="323588533"/>
    <nd ref="323588534"/>
    <nd ref="323588604"/>
    <nd ref="323588535"/>
    <nd ref="323588536"/>
    <nd ref="372427091"/>
    <nd ref="323588537"/>
    <nd ref="323588538"/>
    <nd ref="323588539"/>
    <nd ref="323588540"/>
    <nd ref="372427215"/>
    <nd ref="323588541"/>
    <nd ref="323588542"/>
    <nd ref="323588543"/>
    <nd ref="323588544"/>
    <nd ref="323588545"/>
    <nd ref="323588546"/>
    <nd ref="323588547"/>
    <nd ref="370022186"/>
    <nd ref="323588548"/>
    <nd ref="323588549"/>
    <nd ref="323588550"/>
    <nd ref="323588551"/>
    <nd ref="323588552"/>
    <nd ref="368405886"/>
    <nd ref="323588553"/>
    <nd ref="323588554"/>
    <nd ref="323588555"/>
    <nd ref="323588556"/>
    <nd ref="323588557"/>
    <nd ref="323588558"/>
    <nd ref="323588559"/>
    <nd ref="323588560"/>
    <nd ref="323588561"/>
    <nd ref="323588562"/>
    <nd ref="323588563"/>
    <nd ref="323588564"/>
    <nd ref="323588565"/>
    <tag k="highway" v="track"/>
    <tag k="tracktype" v="grade2"/>
  </way>
  <way id="27839043" version="15" timestamp="2012-03-09T09:24:37Z" uid="16696" user="Hike39" changeset="10917597">
    <nd ref="413903243"/>
    <nd ref="413903241"/>
    <nd ref="413903240"/>
    <nd ref="413903238"/>
    <nd ref="305650346"/>
    <nd ref="305650350"/>
    <nd ref="323588515"/>
    <nd ref="323588516"/>
    <nd ref="323588517"/>
    <nd ref="323588518"/>
    <nd ref="323588519"/>
    <nd ref="323588520"/>
    <nd ref="323588521"/>
    <nd ref="323588522"/>
    <nd ref="323588523"/>
    <nd ref="323588524"/>
    <nd ref="323588525"/>
    <nd ref="323588526"/>
    <nd ref="323588527"/>
    <nd ref="323588528"/>
    <nd ref="323588529"/>
    <nd ref="323588530"/>
    <nd ref="323588531"/>
    <nd ref="323588532"/>
    <nd ref="323588533"/>
    <nd ref="323588534"/>
    <nd ref="323588604"/>
    <tag k="highway" v="track"/>
    <tag k="tracktype" v="grade2"/>
  </way>
  <way id="27839047" version="3" timestamp="2009-10-02T20:05:05Z" uid="86259" user="hasse_osm_korinthenkacker" changeset="2717024">
    <nd ref="290741214"/>
    <nd ref="290741491"/>
    <nd ref="290741493"/>
    <nd ref="290681645"/>
    <nd ref="290741495"/>
    <nd ref="290741496"/>
    <nd ref="290741217"/>
    <nd ref="290681648"/>
    <nd ref="290741498"/>
    <nd ref="290681649"/>
    <nd ref="290741219"/>
    <tag k="highway" v="track"/>
    <tag k="postal_code" v="83607"/>
    <tag k="tracktype" v="grade4"/>
  </way>
  <way id="27839047" version="4" timestamp="2011-02-03T17:58:44Z" uid="42393" user="mawi42" changeset="7176118">
    <nd ref="290741214"/>
    <nd ref="290741491"/>
    <nd ref="290741493"/>
    <nd ref="290681645"/>
    <nd ref="290741495"/>
    <nd ref="290741496"/>
    <nd ref="290741217"/>
    <nd ref="290681648"/>
    <nd ref="290741498"/>
    <nd ref="1134053173"/>
    <nd ref="290681649"/>
    <nd ref="290741219"/>
    <tag k="highway" v="track"/>
    <tag k="postal_code" v="83607"/>
    <tag k="tracktype" v="grade4"/>
  </way>
  <way id="27839072" version="1" timestamp="2008-10-19T14:35:24Z" uid="66036" user="h4v" changeset="455314">
    <nd ref="305650848"/>
    <nd ref="283336517"/>
    <nd ref="83703971"/>
    <tag k="created_by" v="Potlatch 0.10e"/>
    <tag k="highway" v="primary"/>
    <tag k="name" v="Stefana Kopcińskiego"/>
    <tag k="oneway" v="yes"/>
  </way>
  <way id="27839072" version="2" timestamp="2009-01-28T09:59:24Z" uid="35127" user="wopozka" changeset="848664">
    <nd ref="305650848"/>
    <nd ref="283336517"/>
    <nd ref="83703971"/>
    <tag k="created_by" v="Potlatch 0.10f"/>
    <tag k="highway" v="primary"/>
    <tag k="name" v="Stefana Kopcińskiego"/>
    <tag k="oneway" v="yes"/>
  </way>
  <way id="27839072" version="3" timestamp="2009-09-04T19:20:20Z" uid="166882" user="wojciech mlynarczyk" changeset="2373488">
    <nd ref="305650848"/>
    <nd ref="483573406"/>
    <nd ref="483573342"/>
    <nd ref="483573447"/>
    <nd ref="283336517"/>
    <nd ref="83703971"/>
    <tag k="highway" v="primary"/>
    <tag k="name" v="Stefana Kopcińskiego"/>
    <tag k="oneway" v="yes"/>
  </way>
  <way id="27839072" version="4" timestamp="2010-07-11T13:23:35Z" uid="314341" user="mc20" changeset="5190319">
    <nd ref="305650848"/>
    <nd ref="483573406"/>
    <nd ref="483573342"/>
    <nd ref="483573447"/>
    <nd ref="283336517"/>
    <nd ref="83703971"/>
    <tag k="highway" v="primary"/>
    <tag k="is_in" v="Łódź"/>
    <tag k="name" v="Stefana Kopcińskiego"/>
    <tag k="oneway" v="yes"/>
  </way>
  <way id="27839073" version="1" timestamp="2008-10-19T14:35:27Z" uid="66036" user="h4v" changeset="455314">
    <nd ref="305650859"/>
    <nd ref="305650848"/>
    <tag k="created_by" v="Potlatch 0.10e"/>
    <tag k="highway" v="primary"/>
    <tag k="name" v="Stefana Kopcińskiego"/>
    <tag k="oneway" v="yes"/>
  </way>
  <way id="27839073" version="2" timestamp="2008-10-19T14:35:37Z" uid="66036" user="h4v" changeset="455314">
    <nd ref="305650859"/>
    <nd ref="305650848"/>
    <tag k="bridge" v="yes"/>
    <tag k="created_by" v="Potlatch 0.10e"/>
    <tag k="highway" v="primary"/>
    <tag k="name" v="Stefana Kopcińskiego"/>
    <tag k="oneway" v="yes"/>
  </way>
  <way id="27839073" version="3" timestamp="2009-09-23T15:23:18Z" uid="86504" user="Thomas8122" changeset="2596613">
    <nd ref="305650859"/>
    <nd ref="305650848"/>
    <tag k="bridge" v="yes"/>
    <tag k="highway" v="primary"/>
    <tag k="layer" v="1"/>
    <tag k="name" v="Stefana Kopcińskiego"/>
    <tag k="oneway" v="yes"/>
  </way>
  <way id="27839075" version="1" timestamp="2008-10-19T14:35:39Z" uid="66036" user="h4v" changeset="455314">
    <nd ref="29828922"/>
    <nd ref="305650830"/>
    <nd ref="29847601"/>
    <nd ref="29828923"/>
    <nd ref="297915412"/>
    <nd ref="29828924"/>
    <nd ref="302273137"/>
    <nd ref="29780734"/>
    <tag k="created_by" v="Potlatch 0.10e"/>
    <tag k="highway" v="primary"/>
    <tag k="name" v="Stefana Kopcińskiego"/>
    <tag k="oneway" v="yes"/>
  </way>
  <way id="27839075" version="2" timestamp="2008-10-19T14:35:44Z" uid="66036" user="h4v" changeset="455314">
    <nd ref="29828922"/>
    <nd ref="305650830"/>
    <tag k="created_by" v="Potlatch 0.10e"/>
    <tag k="highway" v="primary"/>
    <tag k="name" v="Stefana Kopcińskiego"/>
    <tag k="oneway" v="yes"/>
  </way>
  <way id="27839075" version="3" timestamp="2008-10-19T14:35:52Z" uid="66036" user="h4v" changeset="455314">
    <nd ref="29828922"/>
    <nd ref="305650830"/>
    <tag k="bridge" v="yes"/>
    <tag k="created_by" v="Potlatch 0.10e"/>
    <tag k="highway" v="primary"/>
    <tag k="name" v="Stefana Kopcińskiego"/>
    <tag k="oneway" v="yes"/>
  </way>
  <way id="27839075" version="4" timestamp="2008-10-19T14:36:18Z" uid="66036" user="h4v" changeset="455314">
    <nd ref="29828922"/>
    <nd ref="305650830"/>
    <tag k="bridge" v="yes"/>
    <tag k="created_by" v="Potlatch 0.10e"/>
    <tag k="highway" v="primary"/>
    <tag k="name" v="Stefana Kopcińskiego"/>
    <tag k="oneway" v="yes"/>
  </way>
  <way id="27839075" version="5" timestamp="2009-09-23T15:23:26Z" uid="86504" user="Thomas8122" changeset="2596613">
    <nd ref="29828922"/>
    <nd ref="305650830"/>
    <tag k="bridge" v="yes"/>
    <tag k="highway" v="primary"/>
    <tag k="layer" v="1"/>
    <tag k="name" v="Stefana Kopcińskiego"/>
    <tag k="oneway" v="yes"/>
  </way>
  <way id="27839076" version="1" timestamp="2008-10-19T14:35:44Z" uid="66036" user="h4v" changeset="455314">
    <nd ref="305650830"/>
    <nd ref="29847601"/>
    <nd ref="29828923"/>
    <nd ref="297915412"/>
    <nd ref="29828924"/>
    <nd ref="302273137"/>
    <nd ref="29780734"/>
    <tag k="created_by" v="Potlatch 0.10e"/>
    <tag k="highway" v="primary"/>
    <tag k="name" v="Stefana Kopcińskiego"/>
    <tag k="oneway" v="yes"/>
  </way>
  <way id="27839076" version="2" timestamp="2010-03-26T14:09:47Z" uid="252372" user="EmiluS" changeset="4237862">
    <nd ref="305650830"/>
    <nd ref="29847601"/>
    <nd ref="29828923"/>
    <nd ref="297915412"/>
    <nd ref="29828924"/>
    <nd ref="302273137"/>
    <nd ref="29780734"/>
    <tag k="highway" v="primary"/>
    <tag k="name" v="Stefana Kopcińskiego"/>
    <tag k="oneway" v="yes"/>
  </way>
  <way id="27839076" version="3" timestamp="2010-06-17T23:39:08Z" uid="66036" user="h4v" changeset="5013171">
    <nd ref="305650830"/>
    <nd ref="29828923"/>
    <nd ref="297915412"/>
    <nd ref="302273137"/>
    <nd ref="29780734"/>
    <tag k="highway" v="primary"/>
    <tag k="name" v="Stefana Kopcińskiego"/>
    <tag k="oneway" v="yes"/>
  </way>
  <way id="27839076" version="4" timestamp="2011-03-10T10:37:12Z" uid="338611" user="marek kleciak" changeset="7512622">
    <nd ref="305650830"/>
    <nd ref="29828923"/>
    <nd ref="297915412"/>
    <nd ref="1195225339"/>
    <nd ref="302273137"/>
    <nd ref="29780734"/>
    <tag k="highway" v="primary"/>
    <tag k="name" v="Stefana Kopcińskiego"/>
    <tag k="oneway" v="yes"/>
  </way>
  <way id="27839076" version="5" timestamp="2011-03-11T14:22:26Z" uid="338611" user="marek kleciak" changeset="7523261">
    <nd ref="305650830"/>
    <nd ref="29828923"/>
    <nd ref="1196808991"/>
    <nd ref="1196809360"/>
    <nd ref="1196808950"/>
    <nd ref="297915412"/>
    <nd ref="1195225339"/>
    <nd ref="302273137"/>
    <nd ref="29780734"/>
    <tag k="highway" v="primary"/>
    <tag k="name" v="Stefana Kopcińskiego"/>
    <tag k="oneway" v="yes"/>
  </way>
  <way id="27839076" version="6" timestamp="2011-04-10T22:13:49Z" uid="66036" user="h4v" changeset="7828290">
    <nd ref="305650830"/>
    <nd ref="29828923"/>
    <nd ref="1196808991"/>
    <nd ref="1196809360"/>
    <nd ref="1196808950"/>
    <nd ref="297915412"/>
    <nd ref="1195225339"/>
    <nd ref="1240390633"/>
    <nd ref="302273137"/>
    <nd ref="29780734"/>
    <tag k="highway" v="primary"/>
    <tag k="name" v="Stefana Kopcińskiego"/>
    <tag k="oneway" v="yes"/>
  </way>
  <way id="27839082" version="24" timestamp="2008-12-13T20:47:19Z" uid="6975" user="ulfl" changeset="352865">
    <nd ref="305651024"/>
    <nd ref="305654180"/>
    <nd ref="305651025"/>
    <nd ref="305651026"/>
    <nd ref="305651028"/>
    <nd ref="305651029"/>
    <nd ref="305651030"/>
    <nd ref="305651032"/>
    <nd ref="305651033"/>
    <nd ref="305651035"/>
    <nd ref="305654184"/>
    <nd ref="305651024"/>
    <tag k="amenity" v="school"/>
    <tag k="fax number" v="045–5715094"/>
    <tag k="house number" v="129"/>
    <tag k="name" v="Sintermeertencollege"/>
    <tag k="number of students" v="1400"/>
    <tag k="phone" v="045–5711664"/>
    <tag k="school" v="high school"/>
    <tag k="web page" v="http://sintermeerten.nl"/>
  </way>
  <way id="27839082" version="25" timestamp="2009-03-28T18:49:09Z" uid="62301" user="Daniël" changeset="865896">
    <nd ref="305651024"/>
    <nd ref="305654180"/>
    <nd ref="305651025"/>
    <nd ref="305651026"/>
    <nd ref="305651028"/>
    <nd ref="305651029"/>
    <nd ref="305651030"/>
    <nd ref="305651032"/>
    <nd ref="305651033"/>
    <nd ref="305651035"/>
    <nd ref="305654184"/>
    <nd ref="305651024"/>
    <tag k="addr:city" v="Heerlen"/>
    <tag k="addr:housenumber" v="129"/>
    <tag k="addr:postcode" v="6419 AT"/>
    <tag k="addr:street" v="Valkenburgerweg"/>
    <tag k="amenity" v="school"/>
    <tag k="created_by" v="Potlatch 0.10f"/>
    <tag k="fax number" v="045–5715094"/>
    <tag k="name" v="Sintermeertencollege"/>
    <tag k="number of students" v="1400"/>
    <tag k="phone" v="045–5711664"/>
    <tag k="school" v="high school"/>
    <tag k="web page" v="http://sintermeerten.nl"/>
  </way>
  <way id="27839082" version="26" timestamp="2009-03-28T18:50:42Z" uid="62301" user="Daniël" changeset="865896">
    <nd ref="305651024"/>
    <nd ref="305654180"/>
    <nd ref="305651025"/>
    <nd ref="305651026"/>
    <nd ref="305651028"/>
    <nd ref="305651029"/>
    <nd ref="305651030"/>
    <nd ref="305651032"/>
    <nd ref="305651033"/>
    <nd ref="305651035"/>
    <nd ref="305654184"/>
    <nd ref="305651024"/>
    <tag k="addr:city" v="Heerlen"/>
    <tag k="addr:housenumber" v="129"/>
    <tag k="addr:postcode" v="6419 AT"/>
    <tag k="addr:street" v="Valkenburgerweg"/>
    <tag k="amenity" v="school"/>
    <tag k="created_by" v="Potlatch 0.10f"/>
    <tag k="fax number" v="045–5715094"/>
    <tag k="name" v="Sintermeertencollege"/>
    <tag k="number of students" v="1400"/>
    <tag k="phone" v="045–5711664"/>
    <tag k="school" v="high school"/>
    <tag k="web page" v="http://sintermeerten.nl"/>
  </way>
  <way id="27839082" version="27" timestamp="2009-03-28T18:57:44Z" uid="62301" user="Daniël" changeset="865896">
    <nd ref="305651024"/>
    <nd ref="305654180"/>
    <nd ref="305651025"/>
    <nd ref="305651026"/>
    <nd ref="305651028"/>
    <nd ref="305651029"/>
    <nd ref="305651030"/>
    <nd ref="305651032"/>
    <nd ref="305651033"/>
    <nd ref="305651035"/>
    <nd ref="305654184"/>
    <nd ref="305651024"/>
    <tag k="addr:city" v="Heerlen"/>
    <tag k="addr:housenumber" v="129"/>
    <tag k="addr:postcode" v="6419 AT"/>
    <tag k="addr:street" v="Valkenburgerweg"/>
    <tag k="amenity" v="school"/>
    <tag k="created_by" v="Potlatch 0.10f"/>
    <tag k="fax number" v="045–5715094"/>
    <tag k="name" v="Sintermeertencollege"/>
    <tag k="number of students" v="1400"/>
    <tag k="phone" v="045–5711664"/>
    <tag k="school" v="high school"/>
    <tag k="web page" v="http://sintermeerten.nl"/>
  </way>
  <way id="27839082" version="28" timestamp="2009-03-28T18:57:48Z" uid="62301" user="Daniël" changeset="865896">
    <nd ref="305651024"/>
    <nd ref="305654180"/>
    <nd ref="305651025"/>
    <nd ref="305651026"/>
    <nd ref="305651028"/>
    <nd ref="305651029"/>
    <nd ref="305651030"/>
    <nd ref="305651032"/>
    <nd ref="305651033"/>
    <nd ref="305651035"/>
    <nd ref="305654184"/>
    <nd ref="305651024"/>
    <tag k="amenity" v="school"/>
    <tag k="created_by" v="Potlatch 0.10f"/>
    <tag k="fax number" v="045–5715094"/>
    <tag k="house number" v="129"/>
    <tag k="name" v="Sintermeertencollege"/>
    <tag k="number of students" v="1400"/>
    <tag k="phone" v="045–5711664"/>
    <tag k="school" v="high school"/>
    <tag k="web page" v="http://sintermeerten.nl"/>
  </way>
  <way id="27839082" version="29" timestamp="2009-03-28T19:00:21Z" uid="62301" user="Daniël" changeset="865896">
    <nd ref="305651024"/>
    <nd ref="305654180"/>
    <nd ref="305651025"/>
    <nd ref="305651026"/>
    <nd ref="305651028"/>
    <nd ref="305651029"/>
    <nd ref="305651030"/>
    <nd ref="305651032"/>
    <nd ref="305651033"/>
    <nd ref="305651035"/>
    <nd ref="305654184"/>
    <nd ref="305651024"/>
    <tag k="addr:city" v="Heerlen"/>
    <tag k="addr:housenumber" v="129"/>
    <tag k="addr:postcode" v="6419 AT"/>
    <tag k="addr:street" v="Heerlerweg"/>
    <tag k="amenity" v="school"/>
    <tag k="created_by" v="Potlatch 0.10f"/>
    <tag k="fax number" v="045–5715094"/>
    <tag k="name" v="Sintermeertencollege"/>
    <tag k="number of students" v="1400"/>
    <tag k="phone" v="045–5711664"/>
    <tag k="school" v="high school"/>
    <tag k="web page" v="http://sintermeerten.nl"/>
  </way>
  <way id="27839082" version="30" timestamp="2009-05-05T14:49:03Z" uid="86504" user="Thomas8122" changeset="1087651">
    <nd ref="305651024"/>
    <nd ref="305654180"/>
    <nd ref="305651025"/>
    <nd ref="305651026"/>
    <nd ref="305651028"/>
    <nd ref="305651029"/>
    <nd ref="305651030"/>
    <nd ref="305651032"/>
    <nd ref="305651033"/>
    <nd ref="305651035"/>
    <nd ref="305654184"/>
    <nd ref="305651024"/>
    <tag k="addr:city" v="Heerlen"/>
    <tag k="addr:housenumber" v="129"/>
    <tag k="addr:postcode" v="6419 AT"/>
    <tag k="addr:street" v="Heerlerweg"/>
    <tag k="amenity" v="school"/>
    <tag k="created_by" v="Potlatch 0.10f"/>
    <tag k="fax" v="045–5715094"/>
    <tag k="name" v="Sintermeertencollege"/>
    <tag k="number_of_students" v="1400"/>
    <tag k="phone" v="045–5711664"/>
    <tag k="school" v="high school"/>
    <tag k="website" v="http://sintermeerten.nl"/>
  </way>
  <way id="27839082" version="31" timestamp="2010-02-08T17:01:54Z" uid="62301" user="Daniël" changeset="3824950"/>
  <way id="27839085" version="4" timestamp="2009-10-22T21:26:01Z" uid="36809" user="pfoten_weg_!_" changeset="2925674">
    <nd ref="264498661"/>
    <nd ref="305651149"/>
    <nd ref="264498663"/>
    <nd ref="305651142"/>
    <nd ref="264498665"/>
    <nd ref="305651136"/>
    <nd ref="264498667"/>
    <nd ref="305669042"/>
    <nd ref="264498669"/>
    <nd ref="264498670"/>
    <nd ref="305651132"/>
    <nd ref="273149685"/>
    <nd ref="264498672"/>
    <nd ref="305651126"/>
    <tag k="highway" v="track"/>
    <tag k="surface" v="paved"/>
    <tag k="tracktype" v="grade1"/>
  </way>
  <way id="27839085" version="5" timestamp="2011-08-07T23:08:33Z" uid="418282" user="Norbert18" changeset="8952867">
    <nd ref="264498661"/>
    <nd ref="305651149"/>
    <nd ref="264498663"/>
    <nd ref="305651142"/>
    <nd ref="264498665"/>
    <nd ref="305651136"/>
    <nd ref="305669042"/>
    <nd ref="264498669"/>
    <nd ref="264498670"/>
    <nd ref="305651132"/>
    <nd ref="273149685"/>
    <nd ref="264498672"/>
    <nd ref="305651126"/>
    <tag k="highway" v="track"/>
    <tag k="surface" v="paved"/>
    <tag k="tracktype" v="grade1"/>
  </way>
  <way id="27839085" version="6" timestamp="2012-03-09T09:24:40Z" uid="16696" user="Hike39" changeset="10917597">
    <nd ref="264498661"/>
    <nd ref="305651149"/>
    <nd ref="264498663"/>
    <nd ref="305651142"/>
    <nd ref="264498665"/>
    <nd ref="305651136"/>
    <nd ref="305669042"/>
    <nd ref="264498669"/>
    <tag k="highway" v="track"/>
    <tag k="surface" v="paved"/>
    <tag k="tracktype" v="grade1"/>
  </way>
  <way id="27839100" version="1" timestamp="2008-10-19T14:36:55Z" uid="66036" user="h4v" changeset="455314">
    <nd ref="305651160"/>
    <nd ref="305651324"/>
    <nd ref="305651327"/>
    <nd ref="305651330"/>
    <nd ref="305651332"/>
    <tag k="created_by" v="Potlatch 0.10e"/>
  </way>
  <way id="27839100" version="2" timestamp="2008-10-19T14:37:33Z" uid="66036" user="h4v" changeset="455314">
    <nd ref="305651160"/>
    <nd ref="305651324"/>
    <nd ref="305651327"/>
    <nd ref="305651330"/>
    <nd ref="305651332"/>
    <tag k="created_by" v="Potlatch 0.10e"/>
    <tag k="highway" v="residential"/>
    <tag k="name" v="Dobra"/>
  </way>
  <way id="27839100" version="3" timestamp="2009-08-15T08:49:11Z" uid="157647" user="Pitero" changeset="2151093">
    <nd ref="305651160"/>
    <nd ref="305651324"/>
    <nd ref="305651327"/>
    <nd ref="305651330"/>
    <nd ref="305651332"/>
    <tag k="created_by" v="Potlatch 0.10e"/>
    <tag k="highway" v="residential"/>
    <tag k="name" v="Nowa"/>
  </way>
  <way id="27839100" version="4" timestamp="2009-09-13T10:54:16Z" uid="66036" user="h4v" changeset="2467948">
    <nd ref="305651160"/>
    <nd ref="305651324"/>
    <nd ref="305651327"/>
    <nd ref="494987404"/>
    <nd ref="305651330"/>
    <nd ref="305651332"/>
    <tag k="highway" v="residential"/>
    <tag k="name" v="Nowa"/>
  </way>
  <way id="27839100" version="5" timestamp="2010-06-13T17:55:17Z" uid="66036" user="h4v" changeset="4981176">
    <nd ref="305651160"/>
    <nd ref="305651324"/>
    <nd ref="305651327"/>
    <nd ref="494987404"/>
    <nd ref="305651330"/>
    <nd ref="771716763"/>
    <nd ref="305651332"/>
    <tag k="highway" v="residential"/>
    <tag k="name" v="Nowa"/>
  </way>
  <way id="27839100" version="6" timestamp="2011-03-11T14:22:26Z" uid="338611" user="marek kleciak" changeset="7523261">
    <nd ref="305651160"/>
    <nd ref="305651324"/>
    <nd ref="305651327"/>
    <nd ref="494987404"/>
    <nd ref="771716763"/>
    <nd ref="305651332"/>
    <tag k="highway" v="residential"/>
    <tag k="name" v="Nowa"/>
  </way>
  <way id="27839187" version="1" timestamp="2008-10-19T14:40:22Z" uid="66036" user="h4v" changeset="455314">
    <nd ref="305652942"/>
    <nd ref="305652943"/>
    <nd ref="305652944"/>
    <nd ref="305652945"/>
    <nd ref="305652942"/>
    <tag k="building" v="yes"/>
    <tag k="created_by" v="Potlatch 0.10e"/>
    <tag k="name" v="Tesco"/>
    <tag k="shop" v="supermarket"/>
  </way>
  <way id="27839287" version="6" timestamp="2011-05-27T21:38:14Z" uid="16922" user="amai" changeset="8267059">
    <nd ref="305654315"/>
    <nd ref="1302668476"/>
    <nd ref="262647717"/>
    <nd ref="262647718"/>
    <nd ref="262647719"/>
    <nd ref="357094266"/>
    <nd ref="357077189"/>
    <nd ref="262647720"/>
    <nd ref="357077187"/>
    <nd ref="262647721"/>
    <nd ref="279257493"/>
    <nd ref="279257494"/>
    <nd ref="279257495"/>
    <nd ref="279257496"/>
    <tag k="highway" v="trunk"/>
    <tag k="name" v="ถนนสุขุมวิท"/>
    <tag k="name:en" v="Sukhumvit Road"/>
    <tag k="name:th" v="ถนนสุขุมวิท"/>
    <tag k="ref" v="3"/>
  </way>
  <way id="27839287" version="7" timestamp="2012-02-08T04:20:16Z" uid="381887" user="RocketMan" changeset="10619963">
    <nd ref="305654315"/>
    <nd ref="1302668476"/>
    <nd ref="262647717"/>
    <nd ref="262647718"/>
    <nd ref="262647719"/>
    <nd ref="357094266"/>
    <nd ref="357077189"/>
    <nd ref="262647720"/>
    <nd ref="357077187"/>
    <nd ref="262647721"/>
    <nd ref="279257493"/>
    <nd ref="1623212812"/>
    <nd ref="279257494"/>
    <nd ref="279257495"/>
    <nd ref="279257496"/>
    <tag k="highway" v="trunk"/>
    <tag k="name" v="ถนนสุขุมวิท"/>
    <tag k="name:en" v="Sukhumvit Road"/>
    <tag k="name:th" v="ถนนสุขุมวิท"/>
    <tag k="oneway" v="yes"/>
    <tag k="ref" v="3"/>
  </way>
  <way id="27839287" version="8" timestamp="2012-02-08T04:24:26Z" uid="381887" user="RocketMan" changeset="10619963">
    <nd ref="305654315"/>
    <nd ref="1302668476"/>
    <nd ref="262647717"/>
    <nd ref="262647718"/>
    <nd ref="262647719"/>
    <nd ref="357094266"/>
    <nd ref="357077189"/>
    <nd ref="262647720"/>
    <nd ref="357077187"/>
    <nd ref="262647721"/>
    <nd ref="279257493"/>
    <nd ref="1623212812"/>
    <nd ref="279257494"/>
    <nd ref="279257496"/>
    <nd ref="357077177"/>
    <nd ref="357077158"/>
    <nd ref="357077145"/>
    <nd ref="1623217084"/>
    <nd ref="357077138"/>
    <nd ref="357077136"/>
    <nd ref="1623217068"/>
    <nd ref="1623217071"/>
    <nd ref="357077134"/>
    <nd ref="1623217067"/>
    <nd ref="357077132"/>
    <nd ref="1623212798"/>
    <nd ref="357077131"/>
    <tag k="highway" v="trunk"/>
    <tag k="name" v="ถนนสุขุมวิท"/>
    <tag k="name:en" v="Sukhumvit Road"/>
    <tag k="name:th" v="ถนนสุขุมวิท"/>
    <tag k="oneway" v="yes"/>
    <tag k="ref" v="3"/>
  </way>
  <way id="27839287" version="9" timestamp="2012-02-08T04:34:46Z" uid="381887" user="RocketMan" changeset="10619963">
    <nd ref="305654315"/>
    <nd ref="1302668476"/>
    <nd ref="262647717"/>
    <nd ref="262647718"/>
    <nd ref="262647719"/>
    <nd ref="357094266"/>
    <nd ref="357077189"/>
    <nd ref="262647720"/>
    <nd ref="1623230787"/>
    <nd ref="357077187"/>
    <nd ref="1623230789"/>
    <nd ref="262647721"/>
    <nd ref="1623230748"/>
    <nd ref="279257493"/>
    <nd ref="1623212812"/>
    <nd ref="279257494"/>
    <nd ref="279257496"/>
    <nd ref="357077177"/>
    <nd ref="357077158"/>
    <nd ref="357077145"/>
    <nd ref="1623217084"/>
    <nd ref="357077138"/>
    <nd ref="357077136"/>
    <nd ref="1623217068"/>
    <nd ref="1623217071"/>
    <nd ref="357077134"/>
    <nd ref="1623217067"/>
    <nd ref="357077132"/>
    <nd ref="1623212798"/>
    <nd ref="357077131"/>
    <tag k="highway" v="trunk"/>
    <tag k="name" v="ถนนสุขุมวิท"/>
    <tag k="name:en" v="Sukhumvit Road"/>
    <tag k="name:th" v="ถนนสุขุมวิท"/>
    <tag k="oneway" v="yes"/>
    <tag k="ref" v="3"/>
  </way>
  <way id="27839287" version="10" timestamp="2012-02-08T04:46:13Z" uid="381887" user="RocketMan" changeset="10619963">
    <nd ref="305654315"/>
    <nd ref="1302668476"/>
    <nd ref="262647717"/>
    <nd ref="262647718"/>
    <nd ref="262647719"/>
    <nd ref="357094266"/>
    <nd ref="357077189"/>
    <nd ref="1623242128"/>
    <nd ref="262647720"/>
    <nd ref="1623230787"/>
    <nd ref="357077187"/>
    <nd ref="1623230789"/>
    <nd ref="262647721"/>
    <nd ref="1623230748"/>
    <nd ref="279257493"/>
    <nd ref="1623212812"/>
    <nd ref="279257494"/>
    <nd ref="279257496"/>
    <nd ref="357077177"/>
    <nd ref="357077158"/>
    <nd ref="357077145"/>
    <nd ref="1623217084"/>
    <nd ref="357077138"/>
    <nd ref="357077136"/>
    <nd ref="1623217068"/>
    <nd ref="1623217071"/>
    <nd ref="357077134"/>
    <nd ref="1623217067"/>
    <nd ref="357077132"/>
    <nd ref="1623212798"/>
    <nd ref="357077131"/>
    <tag k="highway" v="trunk"/>
    <tag k="name" v="ถนนสุขุมวิท"/>
    <tag k="name:en" v="Sukhumvit Road"/>
    <tag k="name:th" v="ถนนสุขุมวิท"/>
    <tag k="oneway" v="yes"/>
    <tag k="ref" v="3"/>
  </way>
  <way id="27839287" version="11" timestamp="2012-02-08T04:59:17Z" uid="381887" user="RocketMan" changeset="10619963"/>
  <way id="27839410" version="1" timestamp="2008-10-19T14:45:51Z" uid="33382" user="de_muur" changeset="440843">
    <nd ref="60236078"/>
    <nd ref="258937145"/>
    <nd ref="258937146"/>
    <nd ref="298632870"/>
    <nd ref="258937147"/>
    <nd ref="305655104"/>
    <nd ref="272020851"/>
    <tag k="created_by" v="Potlatch 0.9c"/>
    <tag k="highway" v="tertiary"/>
    <tag k="name" v="Triangel"/>
  </way>
  <way id="27839410" version="2" timestamp="2009-06-08T20:24:59Z" uid="42429" user="FK270673" changeset="1463195">
    <nd ref="60236078"/>
    <nd ref="258937145"/>
    <nd ref="258937146"/>
    <nd ref="298632870"/>
    <nd ref="258937147"/>
    <nd ref="305655104"/>
    <nd ref="272020851"/>
    <tag k="created_by" v="Potlatch 0.9c"/>
    <tag k="highway" v="secondary"/>
    <tag k="name" v="Triangel"/>
    <tag k="ref" v="L 144"/>
  </way>
  <way id="27839410" version="3" timestamp="2009-06-08T20:27:26Z" uid="42429" user="FK270673" changeset="1463195">
    <nd ref="60236078"/>
    <nd ref="258937145"/>
    <nd ref="258937146"/>
    <nd ref="298632870"/>
    <nd ref="258937147"/>
    <nd ref="305655104"/>
    <nd ref="272020851"/>
    <tag k="created_by" v="Potlatch 0.9c"/>
    <tag k="highway" v="secondary"/>
    <tag k="name" v="Triangel"/>
    <tag k="ref" v="L 237"/>
  </way>
  <way id="27839410" version="4" timestamp="2011-02-20T22:36:19Z" uid="49785" user="mike67" changeset="7348842">
    <nd ref="60236078"/>
    <nd ref="258937145"/>
    <nd ref="1164361139"/>
    <nd ref="258937146"/>
    <nd ref="298632870"/>
    <nd ref="258937147"/>
    <nd ref="305655104"/>
    <nd ref="272020851"/>
    <tag k="highway" v="secondary"/>
    <tag k="name" v="Triangel"/>
    <tag k="ref" v="L 237"/>
  </way>
  <way id="27839410" version="5" timestamp="2011-05-15T20:27:02Z" uid="333740" user="chkr" changeset="8156625"/>
  <way id="27839467" version="1" timestamp="2008-10-19T14:49:26Z" uid="66036" user="h4v" changeset="455314">
    <nd ref="305656125"/>
    <nd ref="305656156"/>
    <nd ref="305656519"/>
    <nd ref="305656521"/>
    <nd ref="305656522"/>
    <nd ref="305656523"/>
    <nd ref="305656525"/>
    <nd ref="305656526"/>
    <nd ref="305656529"/>
    <tag k="created_by" v="Potlatch 0.10e"/>
    <tag k="highway" v="unclassified"/>
    <tag k="name" v="Smutna"/>
  </way>
  <way id="27839467" version="2" timestamp="2011-02-06T22:46:57Z" uid="91056" user="Yarl" changeset="7211137">
    <nd ref="305656125"/>
    <nd ref="305656156"/>
    <nd ref="305656519"/>
    <nd ref="305656521"/>
    <nd ref="1139933756"/>
    <nd ref="305656522"/>
    <nd ref="305656523"/>
    <nd ref="1139934032"/>
    <nd ref="305656525"/>
    <nd ref="1139934024"/>
    <nd ref="305656526"/>
    <nd ref="305656529"/>
    <tag k="highway" v="unclassified"/>
    <tag k="name" v="Smutna"/>
  </way>
  <way id="27839467" version="3" timestamp="2011-02-25T12:13:06Z" uid="91056" user="Yarl" changeset="7389886">
    <nd ref="305656125"/>
    <nd ref="305656156"/>
    <nd ref="1172098956"/>
    <nd ref="1172099241"/>
    <nd ref="305656521"/>
    <nd ref="1172098867"/>
    <nd ref="1139933756"/>
    <nd ref="305656522"/>
    <nd ref="305656523"/>
    <nd ref="1139934032"/>
    <nd ref="305656525"/>
    <nd ref="1139934024"/>
    <nd ref="305656526"/>
    <nd ref="305656529"/>
    <tag k="highway" v="unclassified"/>
    <tag k="name" v="Smutna"/>
  </way>
  <way id="27839467" version="4" timestamp="2011-03-11T16:03:41Z" uid="338611" user="marek kleciak" changeset="7524457">
    <nd ref="305656125"/>
    <nd ref="305656156"/>
    <nd ref="1172098956"/>
    <nd ref="1172099241"/>
    <nd ref="305656521"/>
    <nd ref="1172098867"/>
    <nd ref="1196914071"/>
    <nd ref="1139933756"/>
    <nd ref="305656522"/>
    <nd ref="305656523"/>
    <nd ref="1139934032"/>
    <nd ref="305656525"/>
    <nd ref="1139934024"/>
    <nd ref="1196914367"/>
    <nd ref="305656526"/>
    <nd ref="1196914279"/>
    <nd ref="305656529"/>
    <tag k="highway" v="unclassified"/>
    <tag k="name" v="Smutna"/>
  </way>
  <way id="27839467" version="5" timestamp="2011-03-26T19:04:13Z" uid="338611" user="marek kleciak" changeset="7678485">
    <nd ref="305656125"/>
    <nd ref="305656156"/>
    <nd ref="1172098956"/>
    <nd ref="1172099241"/>
    <nd ref="305656521"/>
    <nd ref="1172098867"/>
    <nd ref="1196914071"/>
    <nd ref="1139933756"/>
    <nd ref="305656522"/>
    <nd ref="305656523"/>
    <nd ref="1139934032"/>
    <nd ref="305656525"/>
    <nd ref="1139934024"/>
    <nd ref="1196914367"/>
    <nd ref="305656526"/>
    <nd ref="1219483078"/>
    <nd ref="1196914279"/>
    <nd ref="1219481646"/>
    <nd ref="1219482938"/>
    <nd ref="305656529"/>
    <tag k="highway" v="unclassified"/>
    <tag k="name" v="Smutna"/>
  </way>
  <way id="27839580" version="1" timestamp="2008-10-19T14:54:01Z" uid="66036" user="h4v" changeset="455314">
    <nd ref="305658748"/>
    <nd ref="305658751"/>
    <nd ref="305658753"/>
    <nd ref="305658757"/>
    <nd ref="305658748"/>
    <tag k="building" v="yes"/>
    <tag k="created_by" v="Potlatch 0.10e"/>
    <tag k="name" v="Lidl"/>
    <tag k="shop" v="supermarket"/>
  </way>
  <way id="27839580" version="2" timestamp="2011-04-11T01:00:38Z" uid="66036" user="h4v" changeset="7828873">
    <nd ref="305658748"/>
    <nd ref="305658751"/>
    <nd ref="305658753"/>
    <nd ref="305658757"/>
    <nd ref="305658748"/>
    <tag k="building" v="supermarket"/>
    <tag k="name" v="Lidl"/>
    <tag k="shop" v="supermarket"/>
  </way>
  <way id="27839583" version="7" timestamp="2008-12-13T20:47:19Z" uid="6975" user="ulfl" changeset="352865">
    <nd ref="305658958"/>
    <nd ref="305658963"/>
    <nd ref="305658965"/>
    <nd ref="305658968"/>
    <nd ref="305658958"/>
    <tag k="amenity" v="public_building"/>
    <tag k="name" v="Sportcomplex De Joffer"/>
    <tag k="phone" v="045-5751268"/>
    <tag k="postal_code" v="6367 EB"/>
    <tag k="sport" v="swimming"/>
  </way>
  <way id="27839583" version="8" timestamp="2009-03-28T18:51:32Z" uid="62301" user="Daniël" changeset="865896">
    <nd ref="305658958"/>
    <nd ref="305658963"/>
    <nd ref="305658965"/>
    <nd ref="305658968"/>
    <nd ref="305658958"/>
    <tag k="addr:postcode" v="6367 EB"/>
    <tag k="amenity" v="school"/>
    <tag k="created_by" v="Potlatch 0.10f"/>
    <tag k="name" v="Sportcomplex De Joffer"/>
    <tag k="phone" v="045-5751268"/>
    <tag k="sport" v="swimming"/>
  </way>
  <way id="27839583" version="9" timestamp="2009-03-28T18:52:33Z" uid="62301" user="Daniël" changeset="865896">
    <nd ref="305658958"/>
    <nd ref="305658963"/>
    <nd ref="305658965"/>
    <nd ref="305658968"/>
    <nd ref="305658958"/>
    <tag k="addr:postcode" v="6367 EB"/>
    <tag k="amenity" v="school"/>
    <tag k="boat" v="yes"/>
    <tag k="created_by" v="Potlatch 0.10f"/>
    <tag k="landuse" v="forest"/>
    <tag k="leisure" v="sports_centre"/>
    <tag k="name" v="Sportcomplex De Joffer"/>
    <tag k="phone" v="045-5751268"/>
    <tag k="sport" v="swimming"/>
    <tag k="waterway" v="river"/>
  </way>
  <way id="27839583" version="10" timestamp="2009-03-28T18:57:40Z" uid="62301" user="Daniël" changeset="865896">
    <nd ref="305658958"/>
    <nd ref="305658963"/>
    <nd ref="305658965"/>
    <nd ref="305658968"/>
    <nd ref="305658958"/>
    <tag k="addr:postcode" v="6367 EB"/>
    <tag k="amenity" v="school"/>
    <tag k="created_by" v="Potlatch 0.10f"/>
    <tag k="name" v="Sportcomplex De Joffer"/>
    <tag k="phone" v="045-5751268"/>
    <tag k="sport" v="swimming"/>
  </way>
  <way id="27839583" version="11" timestamp="2009-03-28T18:57:42Z" uid="62301" user="Daniël" changeset="865896">
    <nd ref="305658958"/>
    <nd ref="305658963"/>
    <nd ref="305658965"/>
    <nd ref="305658968"/>
    <nd ref="305658958"/>
    <tag k="amenity" v="public_building"/>
    <tag k="created_by" v="Potlatch 0.10f"/>
    <tag k="name" v="Sportcomplex De Joffer"/>
    <tag k="phone" v="045-5751268"/>
    <tag k="postal_code" v="6367 EB"/>
    <tag k="sport" v="swimming"/>
  </way>
  <way id="27839583" version="12" timestamp="2009-03-28T18:58:57Z" uid="62301" user="Daniël" changeset="865896">
    <nd ref="305658958"/>
    <nd ref="305658963"/>
    <nd ref="305658965"/>
    <nd ref="305658968"/>
    <nd ref="305658958"/>
    <tag k="addr:postcode" v="6367 EB"/>
    <tag k="amenity" v="public_building"/>
    <tag k="created_by" v="Potlatch 0.10f"/>
    <tag k="leisure" v="sports_centre"/>
    <tag k="name" v="Sportcomplex De Joffer"/>
    <tag k="phone" v="045-5751268"/>
    <tag k="sport" v="swimming"/>
  </way>
  <way id="27839583" version="13" timestamp="2010-10-12T19:12:24Z" uid="62301" user="Daniël" changeset="6023832"/>
  <way id="27839635" version="4" timestamp="2010-12-05T19:57:31Z" uid="8619" user="cetest" changeset="6555696"/>
  <way id="27839636" version="3" timestamp="2010-12-05T19:56:31Z" uid="8619" user="cetest" changeset="6555696">
    <nd ref="305659406"/>
    <nd ref="305621000"/>
    <nd ref="305621002"/>
    <nd ref="305659398"/>
    <nd ref="305659400"/>
    <nd ref="305659402"/>
    <nd ref="1023535403"/>
    <nd ref="305620329"/>
    <nd ref="305620328"/>
    <nd ref="305659404"/>
    <nd ref="305659406"/>
    <tag k="highway" v="secondary"/>
    <tag k="junction" v="roundabout"/>
  </way>
  <way id="27839636" version="4" timestamp="2010-12-05T20:50:31Z" uid="90980" user="talkat" changeset="6556569">
    <nd ref="305659406"/>
    <nd ref="1023725025"/>
    <nd ref="305621000"/>
    <nd ref="1023725034"/>
    <nd ref="305621002"/>
    <nd ref="1023725069"/>
    <nd ref="305659398"/>
    <nd ref="305659400"/>
    <nd ref="305659402"/>
    <nd ref="1023725094"/>
    <nd ref="1023725108"/>
    <nd ref="1023535403"/>
    <nd ref="1023725134"/>
    <nd ref="1023725147"/>
    <nd ref="305620329"/>
    <nd ref="1023725171"/>
    <nd ref="305620328"/>
    <nd ref="305659404"/>
    <nd ref="1023725200"/>
    <nd ref="305659406"/>
    <tag k="highway" v="secondary"/>
    <tag k="junction" v="roundabout"/>
  </way>
  <way id="27839636" version="5" timestamp="2012-03-01T20:50:34Z" uid="22684" user="Mr_Israel" changeset="10842143"/>
  <way id="27839637" version="18" timestamp="2010-12-05T19:57:30Z" uid="8619" user="cetest" changeset="6555696">
    <nd ref="305620328"/>
    <nd ref="305620326"/>
    <nd ref="305620309"/>
    <nd ref="305620306"/>
    <nd ref="305620305"/>
    <nd ref="305620318"/>
    <nd ref="937053002"/>
    <nd ref="305620317"/>
    <nd ref="305620316"/>
    <nd ref="305620311"/>
    <nd ref="305620296"/>
    <nd ref="914415959"/>
    <tag k="highway" v="secondary"/>
    <tag k="oneway" v="yes"/>
    <tag k="ref" v="652"/>
  </way>
  <way id="27839637" version="19" timestamp="2010-12-05T20:24:24Z" uid="8619" user="cetest" changeset="6556150">
    <nd ref="305620328"/>
    <nd ref="305620326"/>
    <nd ref="305620309"/>
    <nd ref="305620306"/>
    <nd ref="305620305"/>
    <nd ref="937053002"/>
    <nd ref="305620317"/>
    <nd ref="305620316"/>
    <nd ref="305620311"/>
    <nd ref="305620296"/>
    <nd ref="914415959"/>
    <tag k="highway" v="secondary"/>
    <tag k="oneway" v="yes"/>
    <tag k="ref" v="652"/>
  </way>
  <way id="27839637" version="20" timestamp="2012-02-18T08:24:59Z" uid="22684" user="Mr_Israel" changeset="10717708">
    <nd ref="305620328"/>
    <nd ref="305620326"/>
    <nd ref="305620309"/>
    <nd ref="1637425467"/>
    <nd ref="305620306"/>
    <nd ref="305620305"/>
    <nd ref="937053002"/>
    <nd ref="305620317"/>
    <nd ref="305620316"/>
    <nd ref="305620311"/>
    <nd ref="305620296"/>
    <nd ref="914415959"/>
    <tag k="highway" v="secondary"/>
    <tag k="oneway" v="yes"/>
    <tag k="ref" v="652"/>
  </way>
  <way id="27839637" version="21" timestamp="2012-02-19T11:48:33Z" uid="22684" user="Mr_Israel" changeset="10728988">
    <nd ref="305620328"/>
    <nd ref="305620326"/>
    <nd ref="305620309"/>
    <nd ref="1637425467"/>
    <nd ref="305620306"/>
    <nd ref="305620305"/>
    <nd ref="937053002"/>
    <nd ref="305620317"/>
    <nd ref="305620316"/>
    <nd ref="305620311"/>
    <nd ref="305620296"/>
    <nd ref="1638942982"/>
    <nd ref="914415959"/>
    <tag k="highway" v="secondary"/>
    <tag k="oneway" v="yes"/>
    <tag k="ref" v="652"/>
  </way>
  <way id="27839638" version="3" timestamp="2010-12-05T19:56:05Z" uid="8619" user="cetest" changeset="6555696">
    <nd ref="305659398"/>
    <nd ref="305621010"/>
    <nd ref="305621012"/>
    <nd ref="973781351"/>
    <nd ref="305621027"/>
    <nd ref="270132217"/>
    <tag k="highway" v="secondary"/>
    <tag k="oneway" v="yes"/>
    <tag k="ref" v="652"/>
  </way>
  <way id="27839639" version="7" timestamp="2010-12-06T19:18:26Z" uid="8619" user="cetest" changeset="6567272">
    <nd ref="305620265"/>
    <nd ref="305620246"/>
    <nd ref="305620247"/>
    <nd ref="305620248"/>
    <nd ref="305620253"/>
    <nd ref="305620258"/>
    <nd ref="305620259"/>
    <nd ref="305620260"/>
    <nd ref="305620237"/>
    <nd ref="305620238"/>
    <nd ref="305620239"/>
    <nd ref="305620240"/>
    <nd ref="305620241"/>
    <nd ref="305620242"/>
    <nd ref="751300439"/>
    <nd ref="305620243"/>
    <nd ref="305620244"/>
    <nd ref="305620525"/>
    <nd ref="305620526"/>
    <nd ref="305620531"/>
    <nd ref="305620532"/>
    <nd ref="305620533"/>
    <nd ref="305620535"/>
    <nd ref="305620536"/>
    <nd ref="305620537"/>
    <nd ref="305620511"/>
    <nd ref="305620517"/>
    <nd ref="305620518"/>
    <nd ref="305620519"/>
    <nd ref="305620520"/>
    <nd ref="305620521"/>
    <nd ref="305620523"/>
    <nd ref="305620557"/>
    <tag k="highway" v="unclassified"/>
  </way>
  <way id="27839639" version="8" timestamp="2010-12-07T02:53:24Z" uid="8619" user="cetest" changeset="6570869">
    <nd ref="305620265"/>
    <nd ref="1025794806"/>
    <nd ref="305620246"/>
    <nd ref="305620247"/>
    <nd ref="305620248"/>
    <nd ref="305620253"/>
    <nd ref="305620258"/>
    <nd ref="305620259"/>
    <nd ref="305620260"/>
    <nd ref="305620237"/>
    <nd ref="305620238"/>
    <nd ref="305620239"/>
    <nd ref="305620240"/>
    <nd ref="305620241"/>
    <nd ref="305620242"/>
    <nd ref="751300439"/>
    <nd ref="305620243"/>
    <nd ref="305620244"/>
    <nd ref="305620525"/>
    <nd ref="305620526"/>
    <nd ref="305620531"/>
    <nd ref="305620532"/>
    <nd ref="305620533"/>
    <nd ref="305620535"/>
    <nd ref="305620536"/>
    <nd ref="305620537"/>
    <nd ref="305620511"/>
    <nd ref="305620517"/>
    <nd ref="305620518"/>
    <nd ref="305620519"/>
    <nd ref="305620520"/>
    <nd ref="305620521"/>
    <nd ref="305620523"/>
    <nd ref="305620557"/>
    <tag k="highway" v="unclassified"/>
  </way>
  <way id="27839639" version="9" timestamp="2011-03-06T10:56:16Z" uid="8619" user="cetest" changeset="7471733">
    <nd ref="305620265"/>
    <nd ref="1025794806"/>
    <nd ref="305620246"/>
    <nd ref="305620247"/>
    <nd ref="305620248"/>
    <nd ref="305620253"/>
    <nd ref="305620258"/>
    <nd ref="305620260"/>
    <nd ref="1188975094"/>
    <nd ref="305620237"/>
    <nd ref="305620238"/>
    <nd ref="305620239"/>
    <nd ref="305620240"/>
    <nd ref="305620241"/>
    <nd ref="305620242"/>
    <nd ref="751300439"/>
    <nd ref="305620243"/>
    <nd ref="305620244"/>
    <nd ref="305620525"/>
    <nd ref="305620526"/>
    <nd ref="305620531"/>
    <nd ref="305620532"/>
    <nd ref="305620533"/>
    <nd ref="305620535"/>
    <nd ref="305620536"/>
    <nd ref="305620537"/>
    <nd ref="305620511"/>
    <nd ref="305620517"/>
    <nd ref="305620518"/>
    <nd ref="305620519"/>
    <nd ref="305620520"/>
    <nd ref="305620521"/>
    <nd ref="305620523"/>
    <nd ref="305620557"/>
    <tag k="highway" v="unclassified"/>
  </way>
  <way id="27839639" version="10" timestamp="2011-05-06T17:11:09Z" uid="195738" user="Vladimir Kondratiev" changeset="8066923">
    <nd ref="305620265"/>
    <nd ref="1025794806"/>
    <nd ref="305620260"/>
    <nd ref="1188975094"/>
    <nd ref="305620237"/>
    <nd ref="305620238"/>
    <nd ref="305620239"/>
    <nd ref="305620240"/>
    <nd ref="305620241"/>
    <nd ref="305620242"/>
    <nd ref="751300439"/>
    <nd ref="305620243"/>
    <nd ref="305620244"/>
    <nd ref="305620525"/>
    <nd ref="305620526"/>
    <nd ref="305620531"/>
    <nd ref="305620532"/>
    <nd ref="305620533"/>
    <nd ref="305620535"/>
    <nd ref="305620536"/>
    <nd ref="305620537"/>
    <nd ref="305620511"/>
    <nd ref="305620517"/>
    <nd ref="305620518"/>
    <nd ref="305620519"/>
    <nd ref="305620520"/>
    <nd ref="305620521"/>
    <nd ref="305620523"/>
    <nd ref="305620557"/>
    <tag k="highway" v="unclassified"/>
  </way>
  <way id="27839639" version="11" timestamp="2011-06-30T17:57:32Z" uid="22684" user="Mr_Israel" changeset="8592685">
    <nd ref="305620265"/>
    <nd ref="1025794806"/>
    <nd ref="305620260"/>
    <nd ref="1188975094"/>
    <nd ref="305620237"/>
    <nd ref="305620238"/>
    <nd ref="305620239"/>
    <nd ref="305620241"/>
    <nd ref="751300439"/>
    <nd ref="305620243"/>
    <nd ref="305620244"/>
    <nd ref="305620525"/>
    <nd ref="305620526"/>
    <nd ref="305620531"/>
    <nd ref="305620532"/>
    <nd ref="305620533"/>
    <nd ref="305620535"/>
    <nd ref="305620536"/>
    <nd ref="305620537"/>
    <nd ref="305620511"/>
    <nd ref="305620517"/>
    <nd ref="305620523"/>
    <nd ref="305620557"/>
    <tag k="highway" v="unclassified"/>
  </way>
  <way id="27839639" version="12" timestamp="2012-02-19T11:31:00Z" uid="22684" user="Mr_Israel" changeset="10728791"/>
  <way id="27839640" version="2" timestamp="2011-03-06T10:56:17Z" uid="8619" user="cetest" changeset="7471733">
    <nd ref="305659408"/>
    <nd ref="305659410"/>
    <nd ref="305659412"/>
    <nd ref="305659413"/>
    <nd ref="305659408"/>
    <tag k="amenity" v="parking"/>
    <tag k="capacity" v="350"/>
    <tag k="fee" v="no"/>
    <tag k="name" v="Ramat HaNadiv"/>
    <tag k="parking" v="surface"/>
  </way>
  <way id="27839640" version="3" timestamp="2012-02-28T10:49:19Z" uid="22684" user="Mr_Israel" changeset="10817522"/>
</osm>
