<?xml version='1.0' encoding='UTF-8'?>
<osm version="0.6" generator="libosmium/2.20.0">
  <way id="27864266" version="2" timestamp="2009-12-09T23:05:47Z" uid="200463" user="harmagedon" changeset="3337772">
    <nd ref="305926679"/>
    <nd ref="305926704"/>
    <tag k="highway" v="service"/>
  </way>
  <way id="27864541" version="4" timestamp="2008-12-14T02:37:22Z" uid="6975" user="ulfl" changeset="365670">
    <nd ref="305928340"/>
    <nd ref="305929205"/>
    <tag k="highway" v="residential"/>
    <tag k="layer" v="-1"/>
    <tag k="name" v="Rue du Grelet"/>
    <tag k="tunnel" v="yes"/>
  </way>
  <way id="27864541" version="5" timestamp="2009-02-22T15:46:19Z" uid="65701" user="ZenerZ" changeset="612616">
    <nd ref="305928340"/>
    <nd ref="349140438"/>
    <nd ref="305929205"/>
    <tag k="highway" v="residential"/>
    <tag k="layer" v="-1"/>
    <tag k="name" v="Rue du Grelet"/>
    <tag k="tunnel" v="yes"/>
  </way>
  <way id="27864541" version="6" timestamp="2009-02-22T21:44:57Z" uid="65701" user="ZenerZ" changeset="619498">
    <nd ref="305928340"/>
    <nd ref="349303168"/>
    <nd ref="349140438"/>
    <nd ref="349303176"/>
    <nd ref="305929205"/>
    <tag k="highway" v="residential"/>
    <tag k="layer" v="-1"/>
    <tag k="name" v="Rue du Grelet"/>
    <tag k="tunnel" v="yes"/>
  </way>
  <way id="27864541" version="7" timestamp="2009-05-22T19:04:09Z" uid="65701" user="ZenerZ" changeset="1289432">
    <nd ref="305928340"/>
    <nd ref="349303168"/>
    <nd ref="349140438"/>
    <nd ref="349303176"/>
    <nd ref="305929205"/>
    <tag k="highway" v="residential"/>
    <tag k="layer" v="-1"/>
    <tag k="name" v="Rue du Grelet"/>
    <tag k="tunnel" v="yes"/>
  </way>
  <way id="27864541" version="8" timestamp="2010-09-27T15:34:30Z" uid="65701" user="CedricDV" changeset="5893073">
    <nd ref="305928340"/>
    <nd ref="349303168"/>
    <nd ref="349140438"/>
    <nd ref="349303176"/>
    <nd ref="305929205"/>
    <tag k="highway" v="residential"/>
    <tag k="layer" v="-1"/>
    <tag k="maxheight" v="3.8"/>
    <tag k="name" v="Rue du Grelet"/>
    <tag k="tunnel" v="yes"/>
  </way>
  <way id="27864541" version="9" timestamp="2012-02-27T16:15:17Z" uid="420883" user="joedalton85" changeset="10810094">
    <nd ref="305928340"/>
    <nd ref="349303168"/>
    <nd ref="349140438"/>
    <nd ref="349303176"/>
    <nd ref="305929205"/>
    <tag k="highway" v="residential"/>
    <tag k="layer" v="-1"/>
    <tag k="maxheight" v="3.8"/>
    <tag k="maxspeed" v="40"/>
    <tag k="name" v="Rue du Grelet"/>
    <tag k="tunnel" v="yes"/>
  </way>
  <way id="27864587" version="3" timestamp="2009-10-12T21:27:35Z" uid="36809" user="pfoten_weg_!_" changeset="2831103">
    <nd ref="305922033"/>
    <nd ref="305885671"/>
    <tag k="foot" v="yes"/>
    <tag k="highway" v="footway"/>
  </way>
  <way id="27864591" version="8" timestamp="2009-10-12T21:27:36Z" uid="36809" user="pfoten_weg_!_" changeset="2831103">
    <nd ref="305922033"/>
    <nd ref="305922034"/>
    <nd ref="314955274"/>
    <nd ref="305922055"/>
    <nd ref="305922035"/>
    <tag k="bicycle" v="yes"/>
    <tag k="foot" v="yes"/>
    <tag k="highway" v="footway"/>
  </way>
  <way id="27864607" version="2" timestamp="2009-10-12T21:27:36Z" uid="36809" user="pfoten_weg_!_" changeset="2831103">
    <nd ref="305921887"/>
    <nd ref="305921892"/>
    <nd ref="305930212"/>
    <nd ref="305930213"/>
    <tag k="highway" v="service"/>
  </way>
  <way id="27864608" version="1" timestamp="2008-10-20T12:24:18Z" uid="43863" user="Rundling" changeset="465618">
    <nd ref="305930214"/>
    <nd ref="305930215"/>
    <tag k="access" v="private"/>
    <tag k="highway" v="footway"/>
    <tag k="surface" v="paved"/>
  </way>
  <way id="27864608" version="2" timestamp="2009-01-11T20:54:31Z" uid="43863" user="Rundling" changeset="774178">
    <nd ref="305930214"/>
    <nd ref="305930215"/>
    <tag k="access" v="destination"/>
    <tag k="bicycle" v="yes"/>
    <tag k="boat" v="no"/>
    <tag k="foot" v="yes"/>
    <tag k="goods" v="no"/>
    <tag k="hgv" v="no"/>
    <tag k="highway" v="footway"/>
    <tag k="horse" v="no"/>
    <tag k="motorboat" v="no"/>
    <tag k="motorcar" v="no"/>
    <tag k="motorcycle" v="no"/>
    <tag k="psv" v="no"/>
    <tag k="surface" v="paved"/>
  </way>
  <way id="27864609" version="1" timestamp="2008-10-20T12:24:19Z" uid="43863" user="Rundling" changeset="465618">
    <nd ref="305930216"/>
    <nd ref="305930217"/>
    <tag k="access" v="private"/>
    <tag k="highway" v="footway"/>
    <tag k="surface" v="paved"/>
  </way>
  <way id="27864609" version="2" timestamp="2009-01-11T20:54:29Z" uid="43863" user="Rundling" changeset="774178">
    <nd ref="305930216"/>
    <nd ref="305930217"/>
    <tag k="access" v="destination"/>
    <tag k="bicycle" v="yes"/>
    <tag k="boat" v="no"/>
    <tag k="foot" v="yes"/>
    <tag k="goods" v="no"/>
    <tag k="hgv" v="no"/>
    <tag k="highway" v="footway"/>
    <tag k="horse" v="no"/>
    <tag k="motorboat" v="no"/>
    <tag k="motorcar" v="no"/>
    <tag k="motorcycle" v="no"/>
    <tag k="psv" v="no"/>
    <tag k="surface" v="paved"/>
  </way>
  <way id="27864610" version="3" timestamp="2008-10-23T18:12:44Z" uid="6975" user="ulfl" changeset="530870">
    <nd ref="305738345"/>
    <nd ref="305738346"/>
    <nd ref="305738348"/>
    <nd ref="305738349"/>
    <nd ref="305738350"/>
    <nd ref="305738352"/>
    <nd ref="305738353"/>
    <nd ref="305738354"/>
    <nd ref="305738356"/>
    <nd ref="305738357"/>
    <nd ref="305738359"/>
    <nd ref="305738360"/>
    <nd ref="305738361"/>
    <nd ref="305738363"/>
    <nd ref="305738364"/>
    <nd ref="305781234"/>
    <nd ref="305738365"/>
    <nd ref="305738367"/>
    <nd ref="305738368"/>
    <nd ref="305738370"/>
    <nd ref="305738371"/>
    <nd ref="305738372"/>
    <nd ref="305668534"/>
    <nd ref="305668534"/>
    <nd ref="305668534"/>
    <nd ref="305668534"/>
    <tag k="highway" v="track"/>
    <tag k="tracktype" v="grade4"/>
  </way>
  <way id="27864610" version="4" timestamp="2008-10-26T15:09:40Z" uid="73698" user="Sandstein" changeset="590492">
    <nd ref="305738345"/>
    <nd ref="305738346"/>
    <nd ref="305738348"/>
    <nd ref="305738349"/>
    <nd ref="305738350"/>
    <nd ref="305738352"/>
    <nd ref="305738353"/>
    <nd ref="305738354"/>
    <nd ref="305738356"/>
    <nd ref="305738357"/>
    <nd ref="305738359"/>
    <nd ref="305738360"/>
    <nd ref="305738361"/>
    <nd ref="305738363"/>
    <nd ref="305738364"/>
    <nd ref="305781234"/>
    <nd ref="305738365"/>
    <nd ref="305738367"/>
    <nd ref="305738368"/>
    <nd ref="305738370"/>
    <nd ref="305738371"/>
    <nd ref="305738372"/>
    <nd ref="305668534"/>
    <nd ref="305668534"/>
    <nd ref="305668534"/>
    <nd ref="305668534"/>
    <tag k="created_by" v="Potlatch 0.10e"/>
    <tag k="highway" v="track"/>
    <tag k="tracktype" v="grade4"/>
  </way>
  <way id="27864610" version="5" timestamp="2008-10-26T15:09:53Z" uid="73698" user="Sandstein" changeset="590492">
    <nd ref="305738345"/>
    <nd ref="305738346"/>
    <nd ref="305738348"/>
    <nd ref="305738349"/>
    <nd ref="305738350"/>
    <nd ref="305738352"/>
    <nd ref="305738353"/>
    <nd ref="305738354"/>
    <nd ref="305738356"/>
    <nd ref="305738357"/>
    <nd ref="305738359"/>
    <nd ref="305738360"/>
    <nd ref="305738361"/>
    <nd ref="305738363"/>
    <nd ref="305738364"/>
    <nd ref="305781234"/>
    <nd ref="305738365"/>
    <nd ref="305738367"/>
    <nd ref="305738368"/>
    <nd ref="305738370"/>
    <nd ref="305738371"/>
    <nd ref="305738372"/>
    <nd ref="305668534"/>
    <nd ref="305668534"/>
    <nd ref="305668534"/>
    <nd ref="305668534"/>
    <tag k="created_by" v="Potlatch 0.10e"/>
    <tag k="highway" v="track"/>
    <tag k="tracktype" v="grade4"/>
  </way>
  <way id="27864610" version="6" timestamp="2008-10-26T15:24:14Z" uid="73698" user="Sandstein" changeset="590492">
    <nd ref="305738345"/>
    <nd ref="305738346"/>
    <nd ref="305738348"/>
    <nd ref="305738349"/>
    <nd ref="305738350"/>
    <nd ref="305738352"/>
    <nd ref="305738353"/>
    <nd ref="305738354"/>
    <tag k="created_by" v="Potlatch 0.10e"/>
    <tag k="highway" v="track"/>
    <tag k="tracktype" v="grade4"/>
  </way>
  <way id="27864610" version="7" timestamp="2010-07-28T19:46:31Z" uid="24920" user="Schusch" changeset="5341444">
    <nd ref="305738345"/>
    <nd ref="305738346"/>
    <nd ref="305738348"/>
    <nd ref="305738349"/>
    <nd ref="305738350"/>
    <nd ref="305738352"/>
    <nd ref="305738353"/>
    <nd ref="305738354"/>
    <tag k="highway" v="track"/>
    <tag k="tracktype" v="grade4"/>
  </way>
  <way id="27864610" version="8" timestamp="2011-07-10T13:02:14Z" uid="73698" user="Sandstein" changeset="8683259">
    <nd ref="305738345"/>
    <nd ref="305738346"/>
    <tag k="highway" v="track"/>
    <tag k="tracktype" v="grade4"/>
  </way>
  <way id="27864612" version="2" timestamp="2009-10-12T21:27:35Z" uid="36809" user="pfoten_weg_!_" changeset="2831103">
    <nd ref="305922055"/>
    <nd ref="305930212"/>
    <tag k="foot" v="yes"/>
    <tag k="highway" v="footway"/>
  </way>
  <way id="27864628" version="5" timestamp="2008-10-23T18:12:45Z" uid="6975" user="ulfl" changeset="530870">
    <nd ref="305738356"/>
    <nd ref="305738357"/>
    <nd ref="306198752"/>
    <nd ref="305738359"/>
    <nd ref="305738360"/>
    <nd ref="305738361"/>
    <tag k="highway" v="track"/>
    <tag k="tracktype" v="grade4"/>
  </way>
  <way id="27864628" version="6" timestamp="2008-10-28T19:50:29Z" uid="73698" user="Sandstein" changeset="617448">
    <nd ref="305738356"/>
    <nd ref="305738357"/>
    <nd ref="306198752"/>
    <nd ref="305738359"/>
    <nd ref="305738360"/>
    <nd ref="305738361"/>
    <tag k="created_by" v="Potlatch 0.10e"/>
    <tag k="highway" v="track"/>
    <tag k="tracktype" v="grade4"/>
  </way>
  <way id="27864628" version="7" timestamp="2008-10-28T19:50:40Z" uid="73698" user="Sandstein" changeset="617448">
    <nd ref="305738356"/>
    <nd ref="305738357"/>
    <nd ref="306198752"/>
    <nd ref="305738359"/>
    <nd ref="305738360"/>
    <tag k="created_by" v="Potlatch 0.10e"/>
    <tag k="highway" v="track"/>
    <tag k="tracktype" v="grade4"/>
  </way>
  <way id="27864628" version="8" timestamp="2008-11-02T21:00:36Z" uid="73698" user="Sandstein" changeset="662874">
    <nd ref="305668552"/>
    <nd ref="309518006"/>
    <nd ref="305738356"/>
    <nd ref="305738357"/>
    <nd ref="306198752"/>
    <nd ref="305738359"/>
    <nd ref="305738360"/>
    <tag k="created_by" v="Potlatch 0.10f"/>
    <tag k="highway" v="track"/>
    <tag k="tracktype" v="grade4"/>
  </way>
  <way id="27864628" version="9" timestamp="2008-11-12T21:50:16Z" uid="73698" user="Sandstein" changeset="744964">
    <nd ref="305668552"/>
    <nd ref="309518006"/>
    <nd ref="305738356"/>
    <nd ref="305738357"/>
    <nd ref="306198752"/>
    <nd ref="305738359"/>
    <nd ref="305738360"/>
    <tag k="created_by" v="Potlatch 0.10f"/>
    <tag k="highway" v="track"/>
    <tag k="tracktype" v="grade4"/>
  </way>
  <way id="27864628" version="10" timestamp="2008-11-12T21:50:37Z" uid="73698" user="Sandstein" changeset="744964">
    <nd ref="305668552"/>
    <nd ref="309518006"/>
    <nd ref="305738356"/>
    <nd ref="306198752"/>
    <nd ref="305738359"/>
    <nd ref="305738360"/>
    <tag k="created_by" v="Potlatch 0.10f"/>
    <tag k="highway" v="track"/>
    <tag k="tracktype" v="grade4"/>
  </way>
  <way id="27864628" version="11" timestamp="2008-11-12T21:50:43Z" uid="73698" user="Sandstein" changeset="744964">
    <nd ref="305668552"/>
    <nd ref="309518006"/>
    <nd ref="305738356"/>
    <nd ref="305738357"/>
    <nd ref="306198752"/>
    <nd ref="305738359"/>
    <nd ref="305738360"/>
    <tag k="created_by" v="Potlatch 0.10f"/>
    <tag k="highway" v="track"/>
    <tag k="tracktype" v="grade4"/>
  </way>
  <way id="27864628" version="12" timestamp="2008-11-12T21:50:53Z" uid="73698" user="Sandstein" changeset="744964">
    <nd ref="305668552"/>
    <nd ref="309518006"/>
    <nd ref="305738356"/>
    <tag k="created_by" v="Potlatch 0.10f"/>
    <tag k="highway" v="track"/>
    <tag k="tracktype" v="grade4"/>
  </way>
  <way id="27864628" version="13" timestamp="2008-11-12T22:50:51Z" uid="73698" user="Sandstein" changeset="744964">
    <nd ref="305668552"/>
    <nd ref="309518006"/>
    <nd ref="305738356"/>
    <tag k="created_by" v="Potlatch 0.10f"/>
    <tag k="highway" v="track"/>
    <tag k="tracktype" v="grade4"/>
  </way>
  <way id="27864628" version="14" timestamp="2010-07-28T19:47:04Z" uid="24920" user="Schusch" changeset="5341444">
    <nd ref="305668552"/>
    <nd ref="309518006"/>
    <nd ref="305738356"/>
    <tag k="highway" v="track"/>
    <tag k="tracktype" v="grade4"/>
  </way>
  <way id="27864628" version="15" timestamp="2011-07-10T13:02:15Z" uid="73698" user="Sandstein" changeset="8683259">
    <nd ref="305668552"/>
    <nd ref="1356443353"/>
    <nd ref="309518006"/>
    <tag k="highway" v="track"/>
    <tag k="tracktype" v="grade4"/>
  </way>
  <way id="27864631" version="3" timestamp="2008-10-23T18:12:44Z" uid="6975" user="ulfl" changeset="530870">
    <nd ref="305738361"/>
    <nd ref="305738363"/>
    <nd ref="305738364"/>
    <nd ref="305781234"/>
    <nd ref="305738365"/>
    <nd ref="305738367"/>
    <nd ref="305738368"/>
    <nd ref="305738370"/>
    <nd ref="305738371"/>
    <nd ref="305738372"/>
    <nd ref="305668534"/>
    <nd ref="305668534"/>
    <nd ref="305668534"/>
    <nd ref="305668534"/>
    <tag k="highway" v="track"/>
    <tag k="tracktype" v="grade1"/>
  </way>
  <way id="27864631" version="4" timestamp="2008-10-28T19:47:00Z" uid="73698" user="Sandstein" changeset="617448">
    <nd ref="305738361"/>
    <nd ref="305738363"/>
    <nd ref="305738364"/>
    <nd ref="305781234"/>
    <nd ref="305738365"/>
    <nd ref="305738367"/>
    <nd ref="305738368"/>
    <nd ref="305738370"/>
    <nd ref="305738371"/>
    <nd ref="305738372"/>
    <nd ref="305668534"/>
    <nd ref="305668534"/>
    <nd ref="305668534"/>
    <tag k="created_by" v="Potlatch 0.10e"/>
    <tag k="highway" v="track"/>
    <tag k="tracktype" v="grade1"/>
  </way>
  <way id="27864631" version="5" timestamp="2008-10-28T19:50:29Z" uid="73698" user="Sandstein" changeset="617448">
    <nd ref="305738361"/>
    <nd ref="305738363"/>
    <nd ref="305738364"/>
    <nd ref="305781234"/>
    <nd ref="305738365"/>
    <nd ref="305738367"/>
    <nd ref="305738368"/>
    <nd ref="305738370"/>
    <nd ref="305738371"/>
    <nd ref="305738372"/>
    <nd ref="305668534"/>
    <nd ref="305668534"/>
    <nd ref="305668534"/>
    <tag k="created_by" v="Potlatch 0.10e"/>
    <tag k="highway" v="track"/>
    <tag k="tracktype" v="grade1"/>
  </way>
  <way id="27864631" version="6" timestamp="2008-10-28T19:50:40Z" uid="73698" user="Sandstein" changeset="617448">
    <nd ref="305738363"/>
    <nd ref="305738364"/>
    <nd ref="305781234"/>
    <nd ref="305738365"/>
    <nd ref="305738367"/>
    <nd ref="305738368"/>
    <nd ref="305738370"/>
    <nd ref="305738371"/>
    <nd ref="305738372"/>
    <nd ref="305668534"/>
    <nd ref="305668534"/>
    <nd ref="305668534"/>
    <tag k="created_by" v="Potlatch 0.10e"/>
    <tag k="highway" v="track"/>
    <tag k="tracktype" v="grade1"/>
  </way>
  <way id="27864631" version="7" timestamp="2008-11-12T20:34:36Z" uid="73698" user="Sandstein" changeset="744964">
    <nd ref="305738363"/>
    <nd ref="305738364"/>
    <nd ref="305781234"/>
    <nd ref="305738365"/>
    <nd ref="305738367"/>
    <nd ref="305738368"/>
    <nd ref="305738370"/>
    <nd ref="305738371"/>
    <nd ref="305738372"/>
    <nd ref="305668534"/>
    <nd ref="305668534"/>
    <nd ref="305668534"/>
    <tag k="created_by" v="Potlatch 0.10f"/>
    <tag k="highway" v="track"/>
    <tag k="tracktype" v="grade1"/>
  </way>
  <way id="27864631" version="8" timestamp="2008-11-12T20:35:36Z" uid="73698" user="Sandstein" changeset="744964">
    <nd ref="305738363"/>
    <nd ref="305738364"/>
    <nd ref="305781234"/>
    <nd ref="305738365"/>
    <nd ref="305738367"/>
    <nd ref="305738368"/>
    <nd ref="305738370"/>
    <nd ref="305738371"/>
    <nd ref="305738372"/>
    <nd ref="305668534"/>
    <tag k="created_by" v="Potlatch 0.10f"/>
    <tag k="highway" v="track"/>
    <tag k="tracktype" v="grade1"/>
  </way>
  <way id="27864631" version="9" timestamp="2008-11-12T20:36:14Z" uid="73698" user="Sandstein" changeset="744964">
    <nd ref="305738363"/>
    <nd ref="305738364"/>
    <nd ref="305781234"/>
    <nd ref="305738365"/>
    <nd ref="305738367"/>
    <nd ref="305738368"/>
    <nd ref="305738370"/>
    <nd ref="305738371"/>
    <nd ref="305738372"/>
    <nd ref="305668534"/>
    <nd ref="305713164"/>
    <nd ref="305713163"/>
    <nd ref="305668529"/>
    <nd ref="305779366"/>
    <nd ref="305732142"/>
    <nd ref="305732141"/>
    <tag k="created_by" v="Potlatch 0.10f"/>
    <tag k="highway" v="track"/>
    <tag k="tracktype" v="grade1"/>
  </way>
  <way id="27864631" version="10" timestamp="2008-11-12T20:36:26Z" uid="73698" user="Sandstein" changeset="744964">
    <nd ref="305738363"/>
    <nd ref="305738364"/>
    <nd ref="305781234"/>
    <nd ref="305738365"/>
    <nd ref="305738367"/>
    <nd ref="305738368"/>
    <nd ref="305738370"/>
    <nd ref="305738371"/>
    <nd ref="305738372"/>
    <nd ref="305668534"/>
    <nd ref="305713164"/>
    <tag k="created_by" v="Potlatch 0.10f"/>
    <tag k="highway" v="track"/>
    <tag k="tracktype" v="grade1"/>
  </way>
  <way id="27864631" version="11" timestamp="2008-11-12T20:36:53Z" uid="73698" user="Sandstein" changeset="744964"/>
  <way id="27864635" version="2" timestamp="2008-10-23T18:12:42Z" uid="6975" user="ulfl" changeset="530870">
    <nd ref="305738354"/>
    <nd ref="305738356"/>
    <tag k="highway" v="track"/>
    <tag k="tracktype" v="grade5"/>
  </way>
  <way id="27864635" version="3" timestamp="2008-11-12T22:50:08Z" uid="73698" user="Sandstein" changeset="744964">
    <nd ref="305738354"/>
    <nd ref="305738356"/>
    <tag k="created_by" v="Potlatch 0.10f"/>
    <tag k="highway" v="track"/>
    <tag k="tracktype" v="grade5"/>
  </way>
  <way id="27864635" version="4" timestamp="2008-11-12T22:50:17Z" uid="73698" user="Sandstein" changeset="744964">
    <nd ref="305738354"/>
    <nd ref="305738356"/>
    <tag k="created_by" v="Potlatch 0.10f"/>
    <tag k="highway" v="track"/>
    <tag k="tracktype" v="grade5"/>
  </way>
  <way id="27864635" version="5" timestamp="2008-11-12T22:51:31Z" uid="73698" user="Sandstein" changeset="744964"/>
  <way id="27864738" version="1" timestamp="2008-10-20T12:29:45Z" uid="43863" user="Rundling" changeset="465618">
    <nd ref="305931347"/>
    <nd ref="305931342"/>
    <nd ref="305931344"/>
    <nd ref="305931345"/>
    <nd ref="305931347"/>
    <tag k="addr:city" v="Rosche"/>
    <tag k="addr:housenumber" v="1"/>
    <tag k="addr:postcode" v="29571"/>
    <tag k="addr:street" v="Borger Weg"/>
    <tag k="building" v="yes"/>
    <tag k="created_by" v="Merkaartor 0.11"/>
  </way>
  <way id="27864739" version="1" timestamp="2008-10-20T12:29:46Z" uid="43863" user="Rundling" changeset="465618">
    <nd ref="305931350"/>
    <nd ref="305931353"/>
    <nd ref="305931349"/>
    <nd ref="305931352"/>
    <nd ref="305931350"/>
    <tag k="addr:city" v="Rosche"/>
    <tag k="addr:housenumber" v="3"/>
    <tag k="addr:postcode" v="29571"/>
    <tag k="addr:street" v="Borger Weg"/>
    <tag k="building" v="yes"/>
    <tag k="created_by" v="Merkaartor 0.11"/>
  </way>
  <way id="27864739" version="2" timestamp="2011-02-27T17:45:29Z" uid="43863" user="Rundling" changeset="7413334">
    <nd ref="305931353"/>
    <nd ref="305931349"/>
    <nd ref="1177507720"/>
    <nd ref="1177507848"/>
    <nd ref="305931353"/>
    <tag k="addr:city" v="Rosche"/>
    <tag k="addr:housenumber" v="3"/>
    <tag k="addr:postcode" v="29571"/>
    <tag k="addr:street" v="Borger Weg"/>
    <tag k="building" v="yes"/>
  </way>
  <way id="27864740" version="1" timestamp="2008-10-20T12:29:46Z" uid="43863" user="Rundling" changeset="465618">
    <nd ref="305931356"/>
    <nd ref="305931359"/>
    <nd ref="305931355"/>
    <nd ref="305931357"/>
    <nd ref="305931356"/>
    <tag k="addr:city" v="Rosche"/>
    <tag k="addr:housenumber" v="5"/>
    <tag k="addr:postcode" v="29571"/>
    <tag k="addr:street" v="Borger Weg"/>
    <tag k="building" v="yes"/>
    <tag k="created_by" v="Merkaartor 0.11"/>
  </way>
  <way id="27864741" version="1" timestamp="2008-10-20T12:29:46Z" uid="43863" user="Rundling" changeset="465618">
    <nd ref="305931362"/>
    <nd ref="305931365"/>
    <nd ref="305931360"/>
    <nd ref="305931363"/>
    <nd ref="305931362"/>
    <tag k="addr:city" v="Rosche"/>
    <tag k="addr:housenumber" v="7"/>
    <tag k="addr:postcode" v="29571"/>
    <tag k="addr:street" v="Borger Weg"/>
    <tag k="building" v="yes"/>
    <tag k="created_by" v="Merkaartor 0.11"/>
  </way>
  <way id="27864742" version="1" timestamp="2008-10-20T12:29:47Z" uid="43863" user="Rundling" changeset="465618">
    <nd ref="305931369"/>
    <nd ref="305931373"/>
    <nd ref="305931367"/>
    <nd ref="305931370"/>
    <nd ref="305931369"/>
    <tag k="addr:city" v="Rosche"/>
    <tag k="addr:housenumber" v="9"/>
    <tag k="addr:postcode" v="29571"/>
    <tag k="addr:street" v="Borger Weg"/>
    <tag k="building" v="yes"/>
    <tag k="created_by" v="Merkaartor 0.11"/>
  </way>
  <way id="27864861" version="1" timestamp="2008-10-20T12:36:21Z" uid="36809" user="pfoten_weg_!_" changeset="465300">
    <nd ref="305932928"/>
    <nd ref="305932674"/>
    <nd ref="305932680"/>
    <nd ref="305932684"/>
    <nd ref="305932784"/>
    <nd ref="305932796"/>
    <nd ref="305932801"/>
    <nd ref="305932738"/>
    <nd ref="305932745"/>
    <nd ref="305932751"/>
    <nd ref="305932762"/>
    <tag k="created_by" v="RambaZamba"/>
    <tag k="highway" v="residential"/>
    <tag k="history" v="Retrieved from v4"/>
    <tag k="name" v="In den Schmiedebergen"/>
    <tag k="surface" v="unpaved"/>
  </way>
  <way id="27864861" version="2" timestamp="2008-10-20T12:43:09Z" uid="36809" user="pfoten_weg_!_" changeset="465300">
    <nd ref="305932928"/>
    <nd ref="305932674"/>
    <nd ref="305932680"/>
    <nd ref="305932684"/>
    <nd ref="305932784"/>
    <nd ref="305932796"/>
    <nd ref="305932801"/>
    <nd ref="305932738"/>
    <nd ref="305932745"/>
    <nd ref="305932751"/>
    <nd ref="305932762"/>
    <tag k="created_by" v="RambaZamba"/>
    <tag k="highway" v="residential"/>
    <tag k="history" v="Retrieved from v4"/>
    <tag k="name" v="In den Schmiedebergen"/>
    <tag k="source" v="survey"/>
    <tag k="surface" v="unpaved"/>
  </way>
  <way id="27864861" version="3" timestamp="2008-10-21T10:00:00Z" uid="36809" user="pfoten_weg_!_" changeset="480985">
    <nd ref="306112762"/>
    <nd ref="305932674"/>
    <nd ref="305932680"/>
    <nd ref="305932684"/>
    <nd ref="305932784"/>
    <nd ref="305932796"/>
    <nd ref="305932801"/>
    <nd ref="305932738"/>
    <nd ref="305932745"/>
    <nd ref="305932751"/>
    <nd ref="305932762"/>
    <tag k="created_by" v="RambaZamba"/>
    <tag k="highway" v="residential"/>
    <tag k="history" v="Retrieved from v4"/>
    <tag k="name" v="In den Schmiedebergen"/>
    <tag k="source" v="survey"/>
    <tag k="surface" v="unpaved"/>
  </way>
  <way id="27864861" version="4" timestamp="2008-10-22T18:56:22Z" uid="36809" user="pfoten_weg_!_" changeset="521388"/>
  <way id="27864862" version="1" timestamp="2008-10-20T12:36:21Z" uid="36809" user="pfoten_weg_!_" changeset="465300">
    <nd ref="305932848"/>
    <nd ref="305932778"/>
    <nd ref="305932677"/>
    <nd ref="305932770"/>
    <nd ref="305932774"/>
    <nd ref="305932799"/>
    <nd ref="305932800"/>
    <nd ref="305932789"/>
    <nd ref="305932795"/>
    <nd ref="305932743"/>
    <nd ref="305932693"/>
    <tag k="created_by" v="RambaZamba"/>
    <tag k="highway" v="residential"/>
    <tag k="history" v="Retrieved from v10"/>
    <tag k="name" v="Lange Straße"/>
    <tag k="surface" v="unpaved"/>
  </way>
  <way id="27864862" version="2" timestamp="2008-10-20T12:43:09Z" uid="36809" user="pfoten_weg_!_" changeset="465300">
    <nd ref="305932848"/>
    <nd ref="305932778"/>
    <nd ref="305932677"/>
    <nd ref="305932770"/>
    <nd ref="305932774"/>
    <nd ref="305932799"/>
    <nd ref="305932800"/>
    <nd ref="305932789"/>
    <nd ref="305932795"/>
    <nd ref="305932743"/>
    <nd ref="305234812"/>
    <tag k="created_by" v="RambaZamba"/>
    <tag k="highway" v="residential"/>
    <tag k="history" v="Retrieved from v10"/>
    <tag k="name" v="Lange Straße"/>
    <tag k="source" v="survey"/>
    <tag k="surface" v="unpaved"/>
  </way>
  <way id="27864862" version="3" timestamp="2008-10-21T09:44:48Z" uid="36809" user="pfoten_weg_!_" changeset="480985"/>
  <way id="27864863" version="1" timestamp="2008-10-20T12:36:21Z" uid="36809" user="pfoten_weg_!_" changeset="465300">
    <nd ref="305932806"/>
    <nd ref="305932811"/>
    <nd ref="305932852"/>
    <nd ref="305932863"/>
    <nd ref="305932870"/>
    <nd ref="305932840"/>
    <nd ref="305932917"/>
    <nd ref="305932916"/>
    <nd ref="305932918"/>
    <nd ref="305932907"/>
    <tag k="created_by" v="RambaZamba"/>
    <tag k="highway" v="residential"/>
    <tag k="name" v="Bogislav-Rosen-Weg"/>
    <tag k="surface" v="unpaved"/>
  </way>
  <way id="27864863" version="2" timestamp="2008-10-20T12:43:09Z" uid="36809" user="pfoten_weg_!_" changeset="465300">
    <nd ref="305932806"/>
    <nd ref="305932811"/>
    <nd ref="305932852"/>
    <nd ref="305932863"/>
    <nd ref="305932870"/>
    <nd ref="305932840"/>
    <nd ref="305932917"/>
    <nd ref="305932916"/>
    <nd ref="305932918"/>
    <nd ref="305932907"/>
    <tag k="created_by" v="RambaZamba"/>
    <tag k="highway" v="residential"/>
    <tag k="name" v="Bogislav-Rosen-Weg"/>
    <tag k="source" v="survey"/>
    <tag k="surface" v="unpaved"/>
  </way>
  <way id="27864863" version="3" timestamp="2008-10-22T18:56:23Z" uid="36809" user="pfoten_weg_!_" changeset="521388"/>
  <way id="27864864" version="1" timestamp="2008-10-20T12:36:21Z" uid="36809" user="pfoten_weg_!_" changeset="465300">
    <nd ref="305932754"/>
    <nd ref="305932763"/>
    <nd ref="305932690"/>
    <nd ref="305932654"/>
    <nd ref="305932871"/>
    <nd ref="305932737"/>
    <nd ref="305932740"/>
    <nd ref="305932906"/>
    <tag k="created_by" v="RambaZamba"/>
    <tag k="highway" v="residential"/>
    <tag k="history" v="Retrieved from v8"/>
    <tag k="name" v="Mühlenstraße"/>
    <tag k="surface" v="unpaved"/>
  </way>
  <way id="27864864" version="2" timestamp="2008-10-20T12:43:05Z" uid="36809" user="pfoten_weg_!_" changeset="465300">
    <nd ref="305932754"/>
    <nd ref="305238101"/>
    <nd ref="305932690"/>
    <nd ref="305932654"/>
    <nd ref="305932871"/>
    <nd ref="305932737"/>
    <nd ref="305932740"/>
    <nd ref="305234819"/>
    <tag k="created_by" v="RambaZamba"/>
    <tag k="highway" v="residential"/>
    <tag k="history" v="Retrieved from v8"/>
    <tag k="name" v="Mühlenstraße"/>
    <tag k="source" v="survey"/>
    <tag k="surface" v="unpaved"/>
  </way>
  <way id="27864864" version="3" timestamp="2008-10-21T09:44:49Z" uid="36809" user="pfoten_weg_!_" changeset="480985"/>
  <way id="27864865" version="1" timestamp="2008-10-20T12:36:22Z" uid="36809" user="pfoten_weg_!_" changeset="465300">
    <nd ref="305932732"/>
    <nd ref="305932730"/>
    <nd ref="305932711"/>
    <nd ref="305932707"/>
    <nd ref="305932702"/>
    <nd ref="305932698"/>
    <nd ref="305932686"/>
    <nd ref="305932760"/>
    <nd ref="305932764"/>
    <nd ref="305932765"/>
    <nd ref="305932769"/>
    <nd ref="305932752"/>
    <nd ref="305932741"/>
    <tag k="created_by" v="RambaZamba"/>
    <tag k="highway" v="residential"/>
    <tag k="history" v="Retrieved from v7"/>
    <tag k="name" v="Stückweg"/>
    <tag k="surface" v="unpaved"/>
  </way>
  <way id="27864865" version="2" timestamp="2008-10-20T12:43:05Z" uid="36809" user="pfoten_weg_!_" changeset="465300">
    <nd ref="305932732"/>
    <nd ref="305932730"/>
    <nd ref="305932711"/>
    <nd ref="305932707"/>
    <nd ref="305932702"/>
    <nd ref="305932698"/>
    <nd ref="305932686"/>
    <nd ref="305932760"/>
    <nd ref="305932764"/>
    <nd ref="305932765"/>
    <nd ref="305932769"/>
    <nd ref="305932752"/>
    <nd ref="305932741"/>
    <tag k="created_by" v="RambaZamba"/>
    <tag k="highway" v="residential"/>
    <tag k="name" v="Stückweg"/>
    <tag k="source" v="survey"/>
    <tag k="surface" v="unpaved"/>
  </way>
  <way id="27864865" version="3" timestamp="2008-10-22T18:56:08Z" uid="36809" user="pfoten_weg_!_" changeset="521388">
    <nd ref="305932915"/>
    <nd ref="306476040"/>
    <nd ref="305932730"/>
    <nd ref="305932711"/>
    <nd ref="305932707"/>
    <nd ref="305932702"/>
    <nd ref="305932698"/>
    <nd ref="305932686"/>
    <nd ref="305932760"/>
    <nd ref="305932764"/>
    <nd ref="305932765"/>
    <nd ref="305932769"/>
    <nd ref="305932752"/>
    <nd ref="305932741"/>
    <tag k="created_by" v="RambaZamba"/>
    <tag k="highway" v="residential"/>
    <tag k="name" v="Stückweg"/>
    <tag k="source" v="survey"/>
    <tag k="surface" v="unpaved"/>
  </way>
  <way id="27864865" version="4" timestamp="2008-11-18T11:51:12Z" uid="6808" user="wwwFrank" changeset="765244">
    <nd ref="305932915"/>
    <nd ref="306476040"/>
    <nd ref="305932730"/>
    <nd ref="305932711"/>
    <nd ref="305932707"/>
    <nd ref="305932702"/>
    <nd ref="305932686"/>
    <nd ref="305932764"/>
    <nd ref="305932769"/>
    <nd ref="305932752"/>
    <nd ref="305932741"/>
    <tag k="created_by" v="RambaZamba"/>
    <tag k="highway" v="residential"/>
    <tag k="name" v="Stückweg"/>
    <tag k="source" v="survey"/>
    <tag k="surface" v="unpaved"/>
  </way>
  <way id="27864865" version="5" timestamp="2008-12-24T01:05:05Z" uid="36809" user="pfoten_weg_!_" changeset="588962"/>
  <way id="27864866" version="1" timestamp="2008-10-20T12:36:22Z" uid="36809" user="pfoten_weg_!_" changeset="465300">
    <nd ref="305932797"/>
    <nd ref="305932777"/>
    <nd ref="305932775"/>
    <nd ref="305932772"/>
    <nd ref="305932771"/>
    <nd ref="305932787"/>
    <nd ref="305932783"/>
    <nd ref="305932782"/>
    <nd ref="305932781"/>
    <nd ref="305932851"/>
    <nd ref="305932857"/>
    <nd ref="305932862"/>
    <nd ref="305932869"/>
    <nd ref="305932835"/>
    <nd ref="305932797"/>
    <tag k="created_by" v="RambaZamba"/>
    <tag k="history" v="Retrieved from v3"/>
    <tag k="landuse" v="forest"/>
  </way>
  <way id="27864866" version="2" timestamp="2008-10-22T11:56:13Z" uid="36809" user="pfoten_weg_!_" changeset="503541">
    <nd ref="305932797"/>
    <nd ref="305932777"/>
    <nd ref="305932775"/>
    <nd ref="305932772"/>
    <nd ref="305932771"/>
    <nd ref="305932787"/>
    <nd ref="305932783"/>
    <nd ref="306386914"/>
    <nd ref="305932782"/>
    <nd ref="306386916"/>
    <nd ref="306386917"/>
    <nd ref="305932781"/>
    <nd ref="306386918"/>
    <nd ref="306386919"/>
    <nd ref="306386920"/>
    <nd ref="306386922"/>
    <nd ref="306386923"/>
    <nd ref="305932851"/>
    <nd ref="305932857"/>
    <nd ref="305932862"/>
    <nd ref="305932869"/>
    <nd ref="305932835"/>
    <nd ref="305932797"/>
    <tag k="created_by" v="RambaZamba"/>
    <tag k="history" v="Retrieved from v3"/>
    <tag k="landuse" v="forest"/>
  </way>
  <way id="27864866" version="3" timestamp="2008-10-22T19:38:08Z" uid="36809" user="pfoten_weg_!_" changeset="521388"/>
  <way id="27864867" version="1" timestamp="2008-10-20T12:36:22Z" uid="36809" user="pfoten_weg_!_" changeset="465300">
    <nd ref="305932749"/>
    <nd ref="305932803"/>
    <nd ref="305932905"/>
    <nd ref="305932911"/>
    <nd ref="305932910"/>
    <nd ref="305932909"/>
    <nd ref="305932908"/>
    <nd ref="305932764"/>
    <tag k="created_by" v="RambaZamba"/>
    <tag k="highway" v="residential"/>
    <tag k="history" v="Retrieved from v3"/>
    <tag k="name" v="Hohe Straße"/>
    <tag k="surface" v="unpaved"/>
  </way>
  <way id="27864867" version="2" timestamp="2008-10-20T12:43:05Z" uid="36809" user="pfoten_weg_!_" changeset="465300">
    <nd ref="305932749"/>
    <nd ref="305932803"/>
    <nd ref="305932905"/>
    <nd ref="305932911"/>
    <nd ref="305932910"/>
    <nd ref="305932909"/>
    <nd ref="305932908"/>
    <nd ref="305932764"/>
    <tag k="created_by" v="RambaZamba"/>
    <tag k="highway" v="residential"/>
    <tag k="name" v="Hohe Straße"/>
    <tag k="source" v="survey"/>
    <tag k="surface" v="unpaved"/>
  </way>
  <way id="27864867" version="3" timestamp="2008-10-21T09:44:49Z" uid="36809" user="pfoten_weg_!_" changeset="480985"/>
  <way id="27864868" version="1" timestamp="2008-10-20T12:36:23Z" uid="36809" user="pfoten_weg_!_" changeset="465300">
    <nd ref="305932794"/>
    <nd ref="305932651"/>
    <tag k="created_by" v="RambaZamba"/>
    <tag k="foot" v="yes"/>
    <tag k="highway" v="footway"/>
    <tag k="history" v="Retrieved from v2"/>
  </way>
  <way id="27864868" version="2" timestamp="2008-10-20T12:43:07Z" uid="36809" user="pfoten_weg_!_" changeset="465300">
    <nd ref="305932794"/>
    <nd ref="305932651"/>
    <tag k="created_by" v="RambaZamba"/>
    <tag k="foot" v="yes"/>
    <tag k="highway" v="footway"/>
    <tag k="source" v="survey"/>
  </way>
  <way id="27864868" version="3" timestamp="2008-10-22T18:56:24Z" uid="36809" user="pfoten_weg_!_" changeset="521388"/>
  <way id="27864869" version="1" timestamp="2008-10-20T12:36:23Z" uid="36809" user="pfoten_weg_!_" changeset="465300">
    <nd ref="305932785"/>
    <nd ref="305932794"/>
    <tag k="bridge" v="yes"/>
    <tag k="created_by" v="RambaZamba"/>
    <tag k="foot" v="yes"/>
    <tag k="highway" v="footway"/>
    <tag k="history" v="Retrieved from v2"/>
    <tag k="layer" v="0"/>
    <tag k="width" v="1.5"/>
  </way>
  <way id="27864869" version="2" timestamp="2008-10-20T12:43:06Z" uid="36809" user="pfoten_weg_!_" changeset="465300">
    <nd ref="305932785"/>
    <nd ref="305932794"/>
    <tag k="bridge" v="yes"/>
    <tag k="created_by" v="RambaZamba"/>
    <tag k="foot" v="yes"/>
    <tag k="highway" v="footway"/>
    <tag k="layer" v="0"/>
    <tag k="source" v="survey"/>
    <tag k="width" v="1.5"/>
  </way>
  <way id="27864869" version="3" timestamp="2008-10-22T18:56:24Z" uid="36809" user="pfoten_weg_!_" changeset="521388"/>
  <way id="27864870" version="1" timestamp="2008-10-20T12:36:23Z" uid="36809" user="pfoten_weg_!_" changeset="465300">
    <nd ref="305932907"/>
    <nd ref="305932856"/>
    <tag k="created_by" v="RambaZamba"/>
    <tag k="highway" v="residential"/>
    <tag k="name" v="Hafenstraße"/>
    <tag k="surface" v="unpaved"/>
  </way>
  <way id="27864870" version="2" timestamp="2008-10-20T12:43:07Z" uid="36809" user="pfoten_weg_!_" changeset="465300">
    <nd ref="305932907"/>
    <nd ref="305932856"/>
    <tag k="created_by" v="RambaZamba"/>
    <tag k="highway" v="residential"/>
    <tag k="name" v="Hafenstraße"/>
    <tag k="source" v="survey"/>
    <tag k="surface" v="unpaved"/>
  </way>
  <way id="27864870" version="3" timestamp="2008-10-22T11:56:14Z" uid="36809" user="pfoten_weg_!_" changeset="503541">
    <nd ref="305932907"/>
    <nd ref="306386856"/>
    <nd ref="305932856"/>
    <tag k="created_by" v="RambaZamba"/>
    <tag k="highway" v="residential"/>
    <tag k="name" v="Hafenstraße"/>
    <tag k="source" v="survey"/>
    <tag k="surface" v="unpaved"/>
  </way>
  <way id="27864870" version="4" timestamp="2008-12-24T01:27:55Z" uid="36809" user="pfoten_weg_!_" changeset="588962">
    <nd ref="305932907"/>
    <nd ref="306386856"/>
    <nd ref="305932856"/>
    <tag k="created_by" v="RambaZamba"/>
    <tag k="highway" v="residential"/>
    <tag k="layer" v="0"/>
    <tag k="name" v="Hafenstraße"/>
    <tag k="source" v="survey"/>
    <tag k="surface" v="unpaved"/>
  </way>
  <way id="27864870" version="5" timestamp="2009-01-21T16:49:12Z" uid="6808" user="wwwFrank" changeset="820884">
    <nd ref="305932907"/>
    <nd ref="306386856"/>
    <nd ref="305932856"/>
    <tag k="created_by" v="RambaZamba"/>
    <tag k="highway" v="residential"/>
    <tag k="name" v="Hafenstraße"/>
    <tag k="source" v="survey"/>
    <tag k="surface" v="unpaved"/>
  </way>
  <way id="27864870" version="6" timestamp="2009-02-26T21:35:47Z" uid="36809" user="pfoten_weg_!_" changeset="676860"/>
  <way id="27864871" version="1" timestamp="2008-10-20T12:36:23Z" uid="36809" user="pfoten_weg_!_" changeset="465300">
    <nd ref="305932810"/>
    <nd ref="305932768"/>
    <nd ref="305932757"/>
    <tag k="created_by" v="RambaZamba"/>
    <tag k="highway" v="residential"/>
    <tag k="name" v="Erlengrund"/>
    <tag k="surface" v="unpaved"/>
  </way>
  <way id="27864871" version="2" timestamp="2008-10-20T12:43:07Z" uid="36809" user="pfoten_weg_!_" changeset="465300">
    <nd ref="305932810"/>
    <nd ref="305932768"/>
    <nd ref="305932757"/>
    <tag k="created_by" v="RambaZamba"/>
    <tag k="highway" v="residential"/>
    <tag k="name" v="Erlengrund"/>
    <tag k="source" v="survey"/>
    <tag k="surface" v="unpaved"/>
  </way>
  <way id="27864871" version="3" timestamp="2008-10-21T09:44:48Z" uid="36809" user="pfoten_weg_!_" changeset="480985"/>
  <way id="27864872" version="1" timestamp="2008-10-20T12:36:23Z" uid="36809" user="pfoten_weg_!_" changeset="465300">
    <nd ref="305932848"/>
    <nd ref="305932867"/>
    <nd ref="305932749"/>
    <nd ref="305932907"/>
    <nd ref="305932817"/>
    <nd ref="305932821"/>
    <nd ref="305932742"/>
    <tag k="created_by" v="RambaZamba"/>
    <tag k="highway" v="residential"/>
    <tag k="history" v="Retrieved from v7"/>
    <tag k="name" v="Langseer Weg"/>
    <tag k="surface" v="unpaved"/>
  </way>
  <way id="27864872" version="2" timestamp="2008-10-20T12:43:03Z" uid="36809" user="pfoten_weg_!_" changeset="465300">
    <nd ref="305932848"/>
    <nd ref="305932867"/>
    <nd ref="305932749"/>
    <nd ref="305932907"/>
    <nd ref="305932817"/>
    <nd ref="305932821"/>
    <nd ref="31415380"/>
    <tag k="created_by" v="RambaZamba"/>
    <tag k="highway" v="residential"/>
    <tag k="name" v="Langseer Weg"/>
    <tag k="source" v="survey"/>
    <tag k="surface" v="unpaved"/>
  </way>
  <way id="27864872" version="3" timestamp="2008-10-21T09:44:50Z" uid="36809" user="pfoten_weg_!_" changeset="480985"/>
  <way id="27864873" version="1" timestamp="2008-10-20T12:36:24Z" uid="36809" user="pfoten_weg_!_" changeset="465300">
    <nd ref="305932849"/>
    <nd ref="305932855"/>
    <nd ref="305932859"/>
    <nd ref="305932865"/>
    <nd ref="305932836"/>
    <nd ref="305932841"/>
    <nd ref="305932844"/>
    <nd ref="305932847"/>
    <nd ref="305932816"/>
    <nd ref="305932829"/>
    <nd ref="305932832"/>
    <nd ref="305932802"/>
    <nd ref="305932807"/>
    <nd ref="305932812"/>
    <nd ref="305932938"/>
    <nd ref="305932936"/>
    <nd ref="305932928"/>
    <nd ref="305932926"/>
    <nd ref="305932924"/>
    <nd ref="305932923"/>
    <nd ref="305932922"/>
    <nd ref="305932918"/>
    <tag k="created_by" v="RambaZamba"/>
    <tag k="highway" v="residential"/>
    <tag k="history" v="Retrieved from v5"/>
    <tag k="name" v="In den Schmiedebergen"/>
    <tag k="surface" v="unpaved"/>
  </way>
  <way id="27864873" version="2" timestamp="2008-10-20T12:43:02Z" uid="36809" user="pfoten_weg_!_" changeset="465300">
    <nd ref="305932849"/>
    <nd ref="305932855"/>
    <nd ref="305932859"/>
    <nd ref="305932865"/>
    <nd ref="305932836"/>
    <nd ref="305932841"/>
    <nd ref="305932844"/>
    <nd ref="305932847"/>
    <nd ref="305932816"/>
    <nd ref="305932829"/>
    <nd ref="305932832"/>
    <nd ref="305932802"/>
    <nd ref="305932807"/>
    <nd ref="305932812"/>
    <nd ref="305932938"/>
    <nd ref="305932936"/>
    <nd ref="305932928"/>
    <nd ref="305932926"/>
    <nd ref="305932924"/>
    <nd ref="305932923"/>
    <nd ref="305932922"/>
    <nd ref="305932918"/>
    <tag k="created_by" v="RambaZamba"/>
    <tag k="highway" v="residential"/>
    <tag k="history" v="Retrieved from v5"/>
    <tag k="name" v="In den Schmiedebergen"/>
    <tag k="source" v="survey"/>
    <tag k="surface" v="unpaved"/>
  </way>
  <way id="27864873" version="3" timestamp="2008-10-21T09:44:51Z" uid="36809" user="pfoten_weg_!_" changeset="480985"/>
  <way id="27864874" version="1" timestamp="2008-10-20T12:36:24Z" uid="36809" user="pfoten_weg_!_" changeset="465300">
    <nd ref="305932921"/>
    <nd ref="305932893"/>
    <nd ref="305932903"/>
    <nd ref="305932902"/>
    <nd ref="305932871"/>
    <nd ref="305932925"/>
    <nd ref="305932876"/>
    <nd ref="305932881"/>
    <nd ref="305932774"/>
    <tag k="created_by" v="RambaZamba"/>
    <tag k="highway" v="residential"/>
    <tag k="history" v="Retrieved from v7"/>
    <tag k="name" v="Bebelstraße"/>
    <tag k="surface" v="unpaved"/>
  </way>
  <way id="27864874" version="2" timestamp="2008-10-20T12:43:03Z" uid="36809" user="pfoten_weg_!_" changeset="465300">
    <nd ref="305932921"/>
    <nd ref="305932893"/>
    <nd ref="305932903"/>
    <nd ref="305932902"/>
    <nd ref="305932871"/>
    <nd ref="305932925"/>
    <nd ref="305932876"/>
    <nd ref="305932881"/>
    <nd ref="305932774"/>
    <tag k="created_by" v="RambaZamba"/>
    <tag k="highway" v="residential"/>
    <tag k="history" v="Retrieved from v7"/>
    <tag k="name" v="Bebelstraße"/>
    <tag k="source" v="survey"/>
    <tag k="surface" v="unpaved"/>
  </way>
  <way id="27864874" version="3" timestamp="2008-10-21T09:44:50Z" uid="36809" user="pfoten_weg_!_" changeset="480985"/>
  <way id="27864876" version="1" timestamp="2008-10-20T12:36:24Z" uid="36809" user="pfoten_weg_!_" changeset="465300">
    <nd ref="305932694"/>
    <nd ref="305932682"/>
    <nd ref="305932677"/>
    <tag k="created_by" v="RambaZamba"/>
    <tag k="highway" v="residential"/>
    <tag k="history" v="Retrieved from v6"/>
    <tag k="name" v="Hohe Straße"/>
    <tag k="surface" v="unpaved"/>
  </way>
  <way id="27864876" version="2" timestamp="2008-10-20T12:43:04Z" uid="36809" user="pfoten_weg_!_" changeset="465300">
    <nd ref="305932694"/>
    <nd ref="305932682"/>
    <nd ref="305932677"/>
    <tag k="created_by" v="RambaZamba"/>
    <tag k="highway" v="residential"/>
    <tag k="history" v="Retrieved from v6"/>
    <tag k="name" v="Hohe Straße"/>
    <tag k="source" v="survey"/>
    <tag k="surface" v="unpaved"/>
  </way>
  <way id="27864876" version="3" timestamp="2008-10-21T09:44:50Z" uid="36809" user="pfoten_weg_!_" changeset="480985"/>
  <way id="27864877" version="1" timestamp="2008-10-20T12:36:25Z" uid="36809" user="pfoten_weg_!_" changeset="465300">
    <nd ref="305932686"/>
    <nd ref="305932753"/>
    <nd ref="305932748"/>
    <nd ref="305932746"/>
    <nd ref="305932744"/>
    <tag k="created_by" v="RambaZamba"/>
    <tag k="highway" v="residential"/>
    <tag k="history" v="Retrieved from v4"/>
    <tag k="name" v="Stückweg"/>
    <tag k="surface" v="unpaved"/>
  </way>
  <way id="27864877" version="2" timestamp="2008-10-20T12:43:03Z" uid="36809" user="pfoten_weg_!_" changeset="465300">
    <nd ref="305932686"/>
    <nd ref="305932753"/>
    <nd ref="305932748"/>
    <nd ref="305932746"/>
    <nd ref="305932744"/>
    <tag k="created_by" v="RambaZamba"/>
    <tag k="highway" v="residential"/>
    <tag k="name" v="Stückweg"/>
    <tag k="source" v="survey"/>
    <tag k="surface" v="unpaved"/>
  </way>
  <way id="27864877" version="3" timestamp="2008-12-24T01:27:49Z" uid="36809" user="pfoten_weg_!_" changeset="588962">
    <nd ref="305932686"/>
    <nd ref="305932753"/>
    <nd ref="305932748"/>
    <nd ref="305932746"/>
    <nd ref="305932744"/>
    <tag k="created_by" v="RambaZamba"/>
    <tag k="highway" v="residential"/>
    <tag k="layer" v="0"/>
    <tag k="name" v="Stückweg"/>
    <tag k="source" v="survey"/>
    <tag k="surface" v="unpaved"/>
  </way>
  <way id="27864877" version="4" timestamp="2009-01-21T16:49:49Z" uid="6808" user="wwwFrank" changeset="820884">
    <nd ref="305932686"/>
    <nd ref="305932753"/>
    <nd ref="305932748"/>
    <nd ref="305932746"/>
    <nd ref="305932744"/>
    <tag k="created_by" v="RambaZamba"/>
    <tag k="highway" v="residential"/>
    <tag k="name" v="Stückweg"/>
    <tag k="source" v="survey"/>
    <tag k="surface" v="unpaved"/>
  </way>
  <way id="27864877" version="5" timestamp="2009-02-26T21:35:55Z" uid="36809" user="pfoten_weg_!_" changeset="676860"/>
  <way id="27864878" version="1" timestamp="2008-10-20T12:36:25Z" uid="36809" user="pfoten_weg_!_" changeset="465300">
    <nd ref="305932750"/>
    <nd ref="305932879"/>
    <nd ref="305932880"/>
    <nd ref="305932651"/>
    <nd ref="305932895"/>
    <tag k="created_by" v="RambaZamba"/>
    <tag k="highway" v="residential"/>
    <tag k="history" v="Retrieved from v5"/>
    <tag k="name" v="Schlehenweg"/>
    <tag k="surface" v="unpaved"/>
  </way>
  <way id="27864878" version="2" timestamp="2008-10-20T12:43:04Z" uid="36809" user="pfoten_weg_!_" changeset="465300">
    <nd ref="305932750"/>
    <nd ref="305932879"/>
    <nd ref="305932880"/>
    <nd ref="305932651"/>
    <nd ref="305932895"/>
    <tag k="created_by" v="RambaZamba"/>
    <tag k="highway" v="residential"/>
    <tag k="name" v="Schlehenweg"/>
    <tag k="source" v="survey"/>
    <tag k="surface" v="unpaved"/>
  </way>
  <way id="27864878" version="3" timestamp="2008-10-22T18:56:24Z" uid="36809" user="pfoten_weg_!_" changeset="521388"/>
  <way id="27864879" version="1" timestamp="2008-10-20T12:36:25Z" uid="36809" user="pfoten_weg_!_" changeset="465300">
    <nd ref="305932884"/>
    <nd ref="305932885"/>
    <tag k="created_by" v="RambaZamba"/>
    <tag k="highway" v="residential"/>
    <tag k="history" v="Retrieved from v3"/>
    <tag k="name" v="Hafenstraße"/>
    <tag k="surface" v="unpaved"/>
  </way>
  <way id="27864879" version="2" timestamp="2008-10-20T12:43:04Z" uid="36809" user="pfoten_weg_!_" changeset="465300">
    <nd ref="305932884"/>
    <nd ref="305932885"/>
    <tag k="created_by" v="RambaZamba"/>
    <tag k="highway" v="residential"/>
    <tag k="history" v="Retrieved from v3"/>
    <tag k="name" v="Hafenstraße"/>
    <tag k="source" v="survey"/>
    <tag k="surface" v="unpaved"/>
  </way>
  <way id="27864879" version="3" timestamp="2008-10-21T09:44:49Z" uid="36809" user="pfoten_weg_!_" changeset="480985"/>
  <way id="27864880" version="1" timestamp="2008-10-20T12:36:25Z" uid="36809" user="pfoten_weg_!_" changeset="465300">
    <nd ref="305932873"/>
    <nd ref="305932886"/>
    <nd ref="305932778"/>
    <tag k="created_by" v="RambaZamba"/>
    <tag k="highway" v="residential"/>
    <tag k="history" v="Retrieved from v5"/>
    <tag k="name" v="Hohe Straße"/>
    <tag k="surface" v="unpaved"/>
  </way>
  <way id="27864880" version="2" timestamp="2008-10-20T12:42:57Z" uid="36809" user="pfoten_weg_!_" changeset="465300">
    <nd ref="305932873"/>
    <nd ref="305932886"/>
    <nd ref="305932778"/>
    <tag k="created_by" v="RambaZamba"/>
    <tag k="highway" v="residential"/>
    <tag k="history" v="Retrieved from v5"/>
    <tag k="name" v="Hohe Straße"/>
    <tag k="source" v="survey"/>
    <tag k="surface" v="unpaved"/>
  </way>
  <way id="27864880" version="3" timestamp="2008-10-21T09:44:52Z" uid="36809" user="pfoten_weg_!_" changeset="480985"/>
  <way id="27864881" version="1" timestamp="2008-10-20T12:36:26Z" uid="36809" user="pfoten_weg_!_" changeset="465300">
    <nd ref="305932770"/>
    <nd ref="305932913"/>
    <nd ref="305932914"/>
    <nd ref="305932694"/>
    <nd ref="305932875"/>
    <nd ref="305932887"/>
    <nd ref="305932883"/>
    <nd ref="305932873"/>
    <nd ref="305932888"/>
    <nd ref="305932901"/>
    <nd ref="305932900"/>
    <nd ref="305932815"/>
    <nd ref="305932849"/>
    <nd ref="305932804"/>
    <nd ref="305932830"/>
    <nd ref="305932828"/>
    <nd ref="305932820"/>
    <nd ref="305932749"/>
    <tag k="created_by" v="RambaZamba"/>
    <tag k="highway" v="residential"/>
    <tag k="history" v="Retrieved from v8"/>
    <tag k="name" v="Hohe Straße"/>
    <tag k="oneway" v="yes"/>
    <tag k="surface" v="unpaved"/>
  </way>
  <way id="27864881" version="2" timestamp="2008-10-20T12:42:58Z" uid="36809" user="pfoten_weg_!_" changeset="465300">
    <nd ref="305932770"/>
    <nd ref="305932913"/>
    <nd ref="305932914"/>
    <nd ref="305932694"/>
    <nd ref="305932875"/>
    <nd ref="305932887"/>
    <nd ref="305932883"/>
    <nd ref="305932873"/>
    <nd ref="305932888"/>
    <nd ref="305932901"/>
    <nd ref="305932900"/>
    <nd ref="305932815"/>
    <nd ref="305932849"/>
    <nd ref="305932804"/>
    <nd ref="305932830"/>
    <nd ref="305932828"/>
    <nd ref="305932820"/>
    <nd ref="305932749"/>
    <tag k="created_by" v="RambaZamba"/>
    <tag k="highway" v="residential"/>
    <tag k="history" v="Retrieved from v8"/>
    <tag k="name" v="Hohe Straße"/>
    <tag k="oneway" v="yes"/>
    <tag k="source" v="survey"/>
    <tag k="surface" v="unpaved"/>
  </way>
  <way id="27864881" version="3" timestamp="2008-10-21T09:44:52Z" uid="36809" user="pfoten_weg_!_" changeset="480985"/>
  <way id="27864882" version="1" timestamp="2008-10-20T12:36:26Z" uid="36809" user="pfoten_weg_!_" changeset="465300">
    <nd ref="305932817"/>
    <nd ref="305932850"/>
    <nd ref="305932856"/>
    <nd ref="305932861"/>
    <nd ref="305932808"/>
    <nd ref="305932803"/>
    <nd ref="305932814"/>
    <nd ref="305932810"/>
    <nd ref="305932822"/>
    <nd ref="305932818"/>
    <nd ref="305932842"/>
    <nd ref="305932884"/>
    <nd ref="305932890"/>
    <nd ref="305932881"/>
    <nd ref="305932894"/>
    <nd ref="305932663"/>
    <nd ref="305932898"/>
    <tag k="created_by" v="RambaZamba"/>
    <tag k="highway" v="residential"/>
    <tag k="history" v="Retrieved from v9"/>
    <tag k="name" v="Hafenstraße"/>
    <tag k="surface" v="unpaved"/>
  </way>
  <way id="27864882" version="2" timestamp="2008-10-20T12:42:59Z" uid="36809" user="pfoten_weg_!_" changeset="465300">
    <nd ref="305932817"/>
    <nd ref="305932850"/>
    <nd ref="305932856"/>
    <nd ref="305932861"/>
    <nd ref="305932808"/>
    <nd ref="305932803"/>
    <nd ref="305932814"/>
    <nd ref="305932810"/>
    <nd ref="305932822"/>
    <nd ref="305932818"/>
    <nd ref="31406507"/>
    <nd ref="305932884"/>
    <nd ref="305932890"/>
    <nd ref="305932881"/>
    <nd ref="305932894"/>
    <nd ref="305932663"/>
    <nd ref="305232948"/>
    <tag k="created_by" v="RambaZamba"/>
    <tag k="highway" v="residential"/>
    <tag k="name" v="Hafenstraße"/>
    <tag k="source" v="survey"/>
    <tag k="surface" v="unpaved"/>
  </way>
  <way id="27864882" version="3" timestamp="2008-10-21T09:44:52Z" uid="36809" user="pfoten_weg_!_" changeset="480985"/>
  <way id="27864883" version="1" timestamp="2008-10-20T12:36:26Z" uid="36809" user="pfoten_weg_!_" changeset="465300">
    <nd ref="305932663"/>
    <nd ref="305932743"/>
    <tag k="created_by" v="RambaZamba"/>
    <tag k="highway" v="residential"/>
    <tag k="history" v="Retrieved from v3"/>
    <tag k="name" v="Lange Straße"/>
  </way>
  <way id="27864883" version="2" timestamp="2008-10-21T09:44:51Z" uid="36809" user="pfoten_weg_!_" changeset="480985"/>
  <way id="27864884" version="1" timestamp="2008-10-20T12:36:27Z" uid="36809" user="pfoten_weg_!_" changeset="465300">
    <nd ref="305932733"/>
    <nd ref="305932785"/>
    <tag k="created_by" v="RambaZamba"/>
    <tag k="foot" v="yes"/>
    <tag k="highway" v="footway"/>
    <tag k="history" v="Retrieved from v2"/>
  </way>
  <way id="27864884" version="2" timestamp="2008-10-20T12:43:00Z" uid="36809" user="pfoten_weg_!_" changeset="465300">
    <nd ref="305932733"/>
    <nd ref="305932785"/>
    <tag k="created_by" v="RambaZamba"/>
    <tag k="foot" v="yes"/>
    <tag k="highway" v="footway"/>
    <tag k="source" v="survey"/>
  </way>
  <way id="27864884" version="3" timestamp="2008-10-22T18:56:25Z" uid="36809" user="pfoten_weg_!_" changeset="521388"/>
  <way id="27864885" version="1" timestamp="2008-10-20T12:36:27Z" uid="36809" user="pfoten_weg_!_" changeset="465300">
    <nd ref="305932648"/>
    <nd ref="305932656"/>
    <nd ref="305932670"/>
    <nd ref="305932661"/>
    <nd ref="305932736"/>
    <nd ref="305932688"/>
    <tag k="created_by" v="RambaZamba"/>
    <tag k="highway" v="residential"/>
    <tag k="history" v="Retrieved from v4"/>
    <tag k="name" v="Grüne Straße"/>
    <tag k="surface" v="unpaved"/>
  </way>
  <way id="27864885" version="2" timestamp="2008-10-20T12:43:01Z" uid="36809" user="pfoten_weg_!_" changeset="465300">
    <nd ref="305919730"/>
    <nd ref="305932656"/>
    <nd ref="305932670"/>
    <nd ref="305932661"/>
    <nd ref="305932736"/>
    <nd ref="305932688"/>
    <tag k="created_by" v="RambaZamba"/>
    <tag k="highway" v="residential"/>
    <tag k="history" v="Retrieved from v4"/>
    <tag k="name" v="Grüne Straße"/>
    <tag k="source" v="survey"/>
    <tag k="surface" v="unpaved"/>
  </way>
  <way id="27864885" version="3" timestamp="2008-12-24T01:27:46Z" uid="36809" user="pfoten_weg_!_" changeset="588962">
    <nd ref="305919730"/>
    <nd ref="305932656"/>
    <nd ref="305932670"/>
    <nd ref="305932661"/>
    <nd ref="305932736"/>
    <nd ref="305932688"/>
    <tag k="created_by" v="RambaZamba"/>
    <tag k="highway" v="residential"/>
    <tag k="history" v="Retrieved from v4"/>
    <tag k="layer" v="0"/>
    <tag k="name" v="Grüne Straße"/>
    <tag k="source" v="survey"/>
    <tag k="surface" v="unpaved"/>
  </way>
  <way id="27864885" version="4" timestamp="2008-12-24T01:57:08Z" uid="36809" user="pfoten_weg_!_" changeset="588962">
    <nd ref="305919730"/>
    <nd ref="305932656"/>
    <nd ref="305932670"/>
    <nd ref="305932661"/>
    <nd ref="305932736"/>
    <nd ref="305932688"/>
    <tag k="created_by" v="RambaZamba"/>
    <tag k="highway" v="residential"/>
    <tag k="layer" v="0"/>
    <tag k="name" v="Grüne Straße"/>
    <tag k="source" v="survey"/>
    <tag k="surface" v="unpaved"/>
  </way>
  <way id="27864885" version="5" timestamp="2009-01-21T16:49:29Z" uid="6808" user="wwwFrank" changeset="820884">
    <nd ref="305919730"/>
    <nd ref="305932656"/>
    <nd ref="305932670"/>
    <nd ref="305932661"/>
    <nd ref="305932736"/>
    <nd ref="305932688"/>
    <tag k="created_by" v="RambaZamba"/>
    <tag k="highway" v="residential"/>
    <tag k="name" v="Grüne Straße"/>
    <tag k="source" v="survey"/>
    <tag k="surface" v="unpaved"/>
  </way>
  <way id="27864885" version="6" timestamp="2009-02-26T21:36:01Z" uid="36809" user="pfoten_weg_!_" changeset="676860"/>
  <way id="27864886" version="1" timestamp="2008-10-20T12:36:27Z" uid="36809" user="pfoten_weg_!_" changeset="465300">
    <nd ref="305932690"/>
    <nd ref="305932716"/>
    <nd ref="305932672"/>
    <nd ref="305932668"/>
    <nd ref="305932676"/>
    <nd ref="305932659"/>
    <nd ref="305932654"/>
    <tag k="created_by" v="RambaZamba"/>
    <tag k="highway" v="residential"/>
    <tag k="history" v="Retrieved from v3"/>
    <tag k="name" v="Mühlenstraße"/>
    <tag k="surface" v="unpaved"/>
  </way>
  <way id="27864886" version="2" timestamp="2008-10-20T12:43:01Z" uid="36809" user="pfoten_weg_!_" changeset="465300">
    <nd ref="305932690"/>
    <nd ref="305932716"/>
    <nd ref="305932672"/>
    <nd ref="305932668"/>
    <nd ref="305932676"/>
    <nd ref="305932659"/>
    <nd ref="305932654"/>
    <tag k="created_by" v="RambaZamba"/>
    <tag k="highway" v="residential"/>
    <tag k="history" v="Retrieved from v3"/>
    <tag k="name" v="Mühlenstraße"/>
    <tag k="source" v="survey"/>
    <tag k="surface" v="unpaved"/>
  </way>
  <way id="27864886" version="3" timestamp="2008-10-21T09:44:51Z" uid="36809" user="pfoten_weg_!_" changeset="480985"/>
  <way id="27864887" version="1" timestamp="2008-10-20T12:36:27Z" uid="36809" user="pfoten_weg_!_" changeset="465300">
    <nd ref="305932879"/>
    <nd ref="305932892"/>
    <tag k="created_by" v="RambaZamba"/>
    <tag k="highway" v="residential"/>
    <tag k="history" v="Retrieved from v5"/>
    <tag k="name" v="Schlehenweg"/>
    <tag k="surface" v="unpaved"/>
  </way>
  <way id="27864887" version="2" timestamp="2008-10-20T12:43:02Z" uid="36809" user="pfoten_weg_!_" changeset="465300">
    <nd ref="305932879"/>
    <nd ref="305932892"/>
    <tag k="created_by" v="RambaZamba"/>
    <tag k="highway" v="residential"/>
    <tag k="name" v="Schlehenweg"/>
    <tag k="source" v="survey"/>
    <tag k="surface" v="unpaved"/>
  </way>
  <way id="27864887" version="3" timestamp="2008-10-22T18:56:25Z" uid="36809" user="pfoten_weg_!_" changeset="521388"/>
  <way id="27864888" version="1" timestamp="2008-10-20T12:36:27Z" uid="36809" user="pfoten_weg_!_" changeset="465300">
    <nd ref="305932915"/>
    <nd ref="305932919"/>
    <tag k="created_by" v="RambaZamba"/>
    <tag k="highway" v="residential"/>
    <tag k="history" v="Retrieved from v4"/>
    <tag k="name" v="Stückweg"/>
    <tag k="surface" v="unpaved"/>
  </way>
  <way id="27864888" version="2" timestamp="2008-10-20T12:42:54Z" uid="36809" user="pfoten_weg_!_" changeset="465300">
    <nd ref="305932915"/>
    <nd ref="305932919"/>
    <tag k="created_by" v="RambaZamba"/>
    <tag k="highway" v="residential"/>
    <tag k="history" v="Retrieved from v4"/>
    <tag k="name" v="Stückweg"/>
    <tag k="source" v="survey"/>
    <tag k="surface" v="unpaved"/>
  </way>
  <way id="27864888" version="3" timestamp="2008-10-22T18:56:27Z" uid="36809" user="pfoten_weg_!_" changeset="521388"/>
  <way id="27864889" version="1" timestamp="2008-10-20T12:36:28Z" uid="36809" user="pfoten_weg_!_" changeset="465300">
    <nd ref="305932878"/>
    <nd ref="305932843"/>
    <nd ref="305932839"/>
    <nd ref="305932834"/>
    <nd ref="305932864"/>
    <nd ref="305932858"/>
    <nd ref="305932854"/>
    <nd ref="305932843"/>
    <tag k="created_by" v="RambaZamba"/>
    <tag k="highway" v="residential"/>
    <tag k="name" v="Am Zentral"/>
    <tag k="surface" v="unpaved"/>
  </way>
  <way id="27864889" version="2" timestamp="2008-10-20T12:42:55Z" uid="36809" user="pfoten_weg_!_" changeset="465300">
    <nd ref="305932878"/>
    <nd ref="305932843"/>
    <nd ref="305932839"/>
    <nd ref="305932834"/>
    <nd ref="305932864"/>
    <nd ref="305932858"/>
    <nd ref="305932854"/>
    <nd ref="305932843"/>
    <tag k="created_by" v="RambaZamba"/>
    <tag k="highway" v="residential"/>
    <tag k="name" v="Am Zentral"/>
    <tag k="source" v="survey"/>
    <tag k="surface" v="unpaved"/>
  </way>
  <way id="27864889" version="3" timestamp="2008-10-21T09:44:52Z" uid="36809" user="pfoten_weg_!_" changeset="480985"/>
  <way id="27864890" version="1" timestamp="2008-10-20T12:36:28Z" uid="36809" user="pfoten_weg_!_" changeset="465300">
    <nd ref="305932741"/>
    <nd ref="305932692"/>
    <nd ref="305932727"/>
    <nd ref="305932721"/>
    <nd ref="305932925"/>
    <nd ref="305932767"/>
    <tag k="created_by" v="RambaZamba"/>
    <tag k="highway" v="residential"/>
    <tag k="name" v="Schulstraße"/>
    <tag k="surface" v="unpaved"/>
  </way>
  <way id="27864890" version="2" timestamp="2008-10-20T12:42:55Z" uid="36809" user="pfoten_weg_!_" changeset="465300">
    <nd ref="305932741"/>
    <nd ref="305932692"/>
    <nd ref="305932727"/>
    <nd ref="305932721"/>
    <nd ref="305932925"/>
    <nd ref="274246783"/>
    <tag k="created_by" v="RambaZamba"/>
    <tag k="highway" v="residential"/>
    <tag k="name" v="Schulstraße"/>
    <tag k="source" v="survey"/>
    <tag k="surface" v="unpaved"/>
  </way>
  <way id="27864890" version="3" timestamp="2008-10-21T09:44:52Z" uid="36809" user="pfoten_weg_!_" changeset="480985"/>
  <way id="27864892" version="1" timestamp="2008-10-20T12:36:28Z" uid="36809" user="pfoten_weg_!_" changeset="465300">
    <nd ref="305932896"/>
    <nd ref="305932735"/>
    <nd ref="305932726"/>
    <nd ref="305932733"/>
    <tag k="created_by" v="RambaZamba"/>
    <tag k="highway" v="residential"/>
    <tag k="history" v="Retrieved from v5"/>
    <tag k="name" v="Niege Reeg"/>
    <tag k="surface" v="unpaved"/>
  </way>
  <way id="27864892" version="2" timestamp="2008-10-20T12:42:56Z" uid="36809" user="pfoten_weg_!_" changeset="465300">
    <nd ref="305932896"/>
    <nd ref="305932735"/>
    <nd ref="305932726"/>
    <nd ref="305932733"/>
    <tag k="created_by" v="RambaZamba"/>
    <tag k="highway" v="residential"/>
    <tag k="name" v="Niege Reeg"/>
    <tag k="source" v="survey"/>
    <tag k="surface" v="unpaved"/>
  </way>
  <way id="27864892" version="3" timestamp="2008-10-22T18:56:26Z" uid="36809" user="pfoten_weg_!_" changeset="521388"/>
  <way id="27864893" version="1" timestamp="2008-10-20T12:36:28Z" uid="36809" user="pfoten_weg_!_" changeset="465300">
    <nd ref="305932788"/>
    <nd ref="305932776"/>
    <nd ref="305932779"/>
    <nd ref="305932846"/>
    <nd ref="305932838"/>
    <nd ref="305932809"/>
    <nd ref="305932868"/>
    <nd ref="305932833"/>
    <nd ref="305932825"/>
    <nd ref="305932899"/>
    <nd ref="305932891"/>
    <nd ref="305932877"/>
    <nd ref="305932872"/>
    <nd ref="305932750"/>
    <nd ref="305932728"/>
    <nd ref="305932731"/>
    <nd ref="305932915"/>
    <nd ref="305932732"/>
    <tag k="created_by" v="RambaZamba"/>
    <tag k="highway" v="residential"/>
    <tag k="history" v="Retrieved from v7"/>
    <tag k="name" v="Stückweg"/>
    <tag k="surface" v="unpaved"/>
  </way>
  <way id="27864893" version="2" timestamp="2008-10-20T12:42:57Z" uid="36809" user="pfoten_weg_!_" changeset="465300">
    <nd ref="305919689"/>
    <nd ref="305932776"/>
    <nd ref="305932779"/>
    <nd ref="305932846"/>
    <nd ref="305932838"/>
    <nd ref="305932809"/>
    <nd ref="305932868"/>
    <nd ref="305932833"/>
    <nd ref="305932825"/>
    <nd ref="305932899"/>
    <nd ref="305932891"/>
    <nd ref="305932877"/>
    <nd ref="305932872"/>
    <nd ref="305932750"/>
    <nd ref="305932728"/>
    <nd ref="305932731"/>
    <nd ref="305932915"/>
    <nd ref="305932732"/>
    <tag k="created_by" v="RambaZamba"/>
    <tag k="highway" v="residential"/>
    <tag k="history" v="Retrieved from v7"/>
    <tag k="name" v="Stückweg"/>
    <tag k="source" v="survey"/>
    <tag k="surface" v="unpaved"/>
  </way>
  <way id="27864893" version="3" timestamp="2008-10-22T18:56:26Z" uid="36809" user="pfoten_weg_!_" changeset="521388"/>
  <way id="27864896" version="1" timestamp="2008-10-20T12:36:41Z" uid="43863" user="Rundling" changeset="465618">
    <nd ref="305932966"/>
    <nd ref="305932969"/>
    <nd ref="305932965"/>
    <nd ref="305932967"/>
    <nd ref="305932966"/>
    <tag k="addr:city" v="Rosche"/>
    <tag k="addr:housenumber" v="1"/>
    <tag k="addr:postcode" v="29571"/>
    <tag k="addr:street" v="Mittelweg"/>
    <tag k="building" v="yes"/>
    <tag k="created_by" v="Merkaartor 0.11"/>
  </way>
  <way id="27864897" version="1" timestamp="2008-10-20T12:36:42Z" uid="43863" user="Rundling" changeset="465618">
    <nd ref="305932972"/>
    <nd ref="305932971"/>
    <nd ref="305932973"/>
    <nd ref="305932970"/>
    <nd ref="305932972"/>
    <tag k="addr:city" v="Rosche"/>
    <tag k="addr:housenumber" v="3"/>
    <tag k="addr:postcode" v="29571"/>
    <tag k="addr:street" v="Mittelweg"/>
    <tag k="building" v="yes"/>
    <tag k="created_by" v="Merkaartor 0.11"/>
  </way>
  <way id="27864898" version="1" timestamp="2008-10-20T12:36:42Z" uid="43863" user="Rundling" changeset="465618">
    <nd ref="305932976"/>
    <nd ref="305932975"/>
    <nd ref="305932978"/>
    <nd ref="305932974"/>
    <nd ref="305932976"/>
    <tag k="addr:city" v="Rosche"/>
    <tag k="addr:housenumber" v="5"/>
    <tag k="addr:postcode" v="29571"/>
    <tag k="addr:street" v="Mittelweg"/>
    <tag k="building" v="yes"/>
    <tag k="created_by" v="Merkaartor 0.11"/>
  </way>
  <way id="27864899" version="1" timestamp="2008-10-20T12:36:42Z" uid="43863" user="Rundling" changeset="465618">
    <nd ref="305932981"/>
    <nd ref="305932980"/>
    <nd ref="305932982"/>
    <nd ref="305932979"/>
    <nd ref="305932981"/>
    <tag k="addr:city" v="Rosche"/>
    <tag k="addr:housenumber" v="7"/>
    <tag k="addr:postcode" v="29571"/>
    <tag k="addr:street" v="Mittelweg"/>
    <tag k="building" v="yes"/>
    <tag k="created_by" v="Merkaartor 0.11"/>
  </way>
  <way id="27864900" version="1" timestamp="2008-10-20T12:36:43Z" uid="43863" user="Rundling" changeset="465618">
    <nd ref="305932985"/>
    <nd ref="305932984"/>
    <nd ref="305932987"/>
    <nd ref="305932983"/>
    <nd ref="305932985"/>
    <tag k="addr:city" v="Rosche"/>
    <tag k="addr:housenumber" v="2"/>
    <tag k="addr:postcode" v="29571"/>
    <tag k="addr:street" v="Mittelweg"/>
    <tag k="building" v="yes"/>
    <tag k="created_by" v="Merkaartor 0.11"/>
  </way>
  <way id="27864901" version="1" timestamp="2008-10-20T12:36:43Z" uid="43863" user="Rundling" changeset="465618">
    <nd ref="305932990"/>
    <nd ref="305932989"/>
    <nd ref="305932991"/>
    <nd ref="305932988"/>
    <nd ref="305932990"/>
    <tag k="addr:city" v="Rosche"/>
    <tag k="addr:housenumber" v="4"/>
    <tag k="addr:postcode" v="29571"/>
    <tag k="addr:street" v="Mittelweg"/>
    <tag k="building" v="yes"/>
    <tag k="created_by" v="Merkaartor 0.11"/>
  </way>
  <way id="27864902" version="1" timestamp="2008-10-20T12:36:43Z" uid="43863" user="Rundling" changeset="465618">
    <nd ref="305932995"/>
    <nd ref="305932993"/>
    <nd ref="305932996"/>
    <nd ref="305932992"/>
    <nd ref="305932995"/>
    <tag k="addr:city" v="Rosche"/>
    <tag k="addr:housenumber" v="6"/>
    <tag k="addr:postcode" v="29571"/>
    <tag k="addr:street" v="Mittelweg"/>
    <tag k="building" v="yes"/>
    <tag k="created_by" v="Merkaartor 0.11"/>
  </way>
  <way id="27864903" version="1" timestamp="2008-10-20T12:36:43Z" uid="43863" user="Rundling" changeset="465618">
    <nd ref="305932999"/>
    <nd ref="305932998"/>
    <nd ref="305933000"/>
    <nd ref="305932997"/>
    <nd ref="305932999"/>
    <tag k="addr:city" v="Rosche"/>
    <tag k="addr:housenumber" v="8"/>
    <tag k="addr:postcode" v="29571"/>
    <tag k="addr:street" v="Mittelweg"/>
    <tag k="building" v="yes"/>
    <tag k="created_by" v="Merkaartor 0.11"/>
  </way>
  <way id="27864904" version="1" timestamp="2008-10-20T12:36:44Z" uid="43863" user="Rundling" changeset="465618">
    <nd ref="305933004"/>
    <nd ref="305933002"/>
    <nd ref="305933005"/>
    <nd ref="305933001"/>
    <nd ref="305933004"/>
    <tag k="addr:city" v="Rosche"/>
    <tag k="addr:housenumber" v="1"/>
    <tag k="addr:postcode" v="29571"/>
    <tag k="addr:street" v="Westerstraße"/>
    <tag k="building" v="yes"/>
    <tag k="created_by" v="Merkaartor 0.11"/>
  </way>
  <way id="27864905" version="1" timestamp="2008-10-20T12:36:44Z" uid="43863" user="Rundling" changeset="465618">
    <nd ref="305933007"/>
    <nd ref="305933006"/>
    <nd ref="305933009"/>
    <nd ref="305933008"/>
    <nd ref="305933007"/>
    <tag k="addr:city" v="Rosche"/>
    <tag k="addr:housenumber" v="3"/>
    <tag k="addr:postcode" v="29571"/>
    <tag k="addr:street" v="Westerstraße"/>
    <tag k="building" v="yes"/>
    <tag k="created_by" v="Merkaartor 0.11"/>
  </way>
  <way id="27864906" version="1" timestamp="2008-10-20T12:36:44Z" uid="43863" user="Rundling" changeset="465618">
    <nd ref="305933014"/>
    <nd ref="305933010"/>
    <nd ref="305933012"/>
    <nd ref="305933013"/>
    <nd ref="305933014"/>
    <tag k="addr:city" v="Rosche"/>
    <tag k="addr:housenumber" v="5"/>
    <tag k="addr:postcode" v="29571"/>
    <tag k="addr:street" v="Westerstraße"/>
    <tag k="building" v="yes"/>
    <tag k="created_by" v="Merkaartor 0.11"/>
  </way>
  <way id="27864907" version="1" timestamp="2008-10-20T12:36:44Z" uid="43863" user="Rundling" changeset="465618">
    <nd ref="305933020"/>
    <nd ref="305933015"/>
    <nd ref="305933018"/>
    <nd ref="305933019"/>
    <nd ref="305933020"/>
    <tag k="addr:city" v="Rosche"/>
    <tag k="addr:housenumber" v="7"/>
    <tag k="addr:postcode" v="29571"/>
    <tag k="addr:street" v="Westerstraße"/>
    <tag k="building" v="yes"/>
    <tag k="created_by" v="Merkaartor 0.11"/>
  </way>
  <way id="27864908" version="1" timestamp="2008-10-20T12:36:45Z" uid="43863" user="Rundling" changeset="465618">
    <nd ref="305933025"/>
    <nd ref="305933021"/>
    <nd ref="305933022"/>
    <nd ref="305933023"/>
    <nd ref="305933025"/>
    <tag k="addr:city" v="Rosche"/>
    <tag k="addr:housenumber" v="9"/>
    <tag k="addr:postcode" v="29571"/>
    <tag k="addr:street" v="Westerstraße"/>
    <tag k="building" v="yes"/>
    <tag k="created_by" v="Merkaartor 0.11"/>
  </way>
  <way id="27864945" version="1" timestamp="2008-10-20T12:40:18Z" uid="43863" user="Rundling" changeset="465618">
    <nd ref="305933372"/>
    <nd ref="305933365"/>
    <nd ref="305933367"/>
    <nd ref="305933371"/>
    <nd ref="305933372"/>
    <tag k="addr:city" v="Rosche"/>
    <tag k="addr:housenumber" v="2"/>
    <tag k="addr:postcode" v="29571"/>
    <tag k="addr:street" v="Westerstraße"/>
    <tag k="building" v="yes"/>
    <tag k="created_by" v="Merkaartor 0.11"/>
  </way>
  <way id="27864947" version="1" timestamp="2008-10-20T12:40:18Z" uid="43863" user="Rundling" changeset="465618">
    <nd ref="305933376"/>
    <nd ref="305933373"/>
    <nd ref="305933374"/>
    <nd ref="305933375"/>
    <nd ref="305933376"/>
    <tag k="addr:city" v="Rosche"/>
    <tag k="addr:housenumber" v="4"/>
    <tag k="addr:postcode" v="29571"/>
    <tag k="addr:street" v="Westerstraße"/>
    <tag k="building" v="yes"/>
    <tag k="created_by" v="Merkaartor 0.11"/>
  </way>
  <way id="27864948" version="1" timestamp="2008-10-20T12:40:18Z" uid="43863" user="Rundling" changeset="465618">
    <nd ref="305933380"/>
    <nd ref="305933377"/>
    <nd ref="305933378"/>
    <nd ref="305933379"/>
    <nd ref="305933380"/>
    <tag k="addr:city" v="Rosche"/>
    <tag k="addr:housenumber" v="6"/>
    <tag k="addr:postcode" v="29571"/>
    <tag k="addr:street" v="Westerstraße"/>
    <tag k="building" v="yes"/>
    <tag k="created_by" v="Merkaartor 0.11"/>
  </way>
  <way id="27864949" version="1" timestamp="2008-10-20T12:40:19Z" uid="43863" user="Rundling" changeset="465618">
    <nd ref="305933384"/>
    <nd ref="305933381"/>
    <nd ref="305933382"/>
    <nd ref="305933383"/>
    <nd ref="305933384"/>
    <tag k="addr:city" v="Rosche"/>
    <tag k="addr:housenumber" v="8"/>
    <tag k="addr:postcode" v="29571"/>
    <tag k="addr:street" v="Westerstraße"/>
    <tag k="building" v="yes"/>
    <tag k="created_by" v="Merkaartor 0.11"/>
  </way>
  <way id="27864950" version="1" timestamp="2008-10-20T12:40:19Z" uid="43863" user="Rundling" changeset="465618">
    <nd ref="305933388"/>
    <nd ref="305933385"/>
    <nd ref="305933386"/>
    <nd ref="305933387"/>
    <nd ref="305933388"/>
    <tag k="addr:city" v="Rosche"/>
    <tag k="addr:housenumber" v="10"/>
    <tag k="addr:postcode" v="29571"/>
    <tag k="addr:street" v="Westerstraße"/>
    <tag k="building" v="yes"/>
    <tag k="created_by" v="Merkaartor 0.11"/>
  </way>
  <way id="27864951" version="1" timestamp="2008-10-20T12:40:19Z" uid="43863" user="Rundling" changeset="465618">
    <nd ref="305933392"/>
    <nd ref="305933389"/>
    <nd ref="305933390"/>
    <nd ref="305933391"/>
    <nd ref="305933392"/>
    <tag k="addr:city" v="Rosche"/>
    <tag k="addr:housenumber" v="12"/>
    <tag k="addr:postcode" v="29571"/>
    <tag k="addr:street" v="Westerstraße"/>
    <tag k="building" v="yes"/>
    <tag k="created_by" v="Merkaartor 0.11"/>
  </way>
  <way id="27864952" version="1" timestamp="2008-10-20T12:40:19Z" uid="43863" user="Rundling" changeset="465618">
    <nd ref="305933396"/>
    <nd ref="305933393"/>
    <nd ref="305933394"/>
    <nd ref="305933395"/>
    <nd ref="305933396"/>
    <tag k="addr:city" v="Rosche"/>
    <tag k="addr:housenumber" v="3"/>
    <tag k="addr:postcode" v="29571"/>
    <tag k="addr:street" v="Westerstraße"/>
    <tag k="building" v="yes"/>
    <tag k="created_by" v="Merkaartor 0.11"/>
  </way>
  <way id="27864980" version="1" timestamp="2008-10-20T12:43:09Z" uid="43863" user="Rundling" changeset="465618">
    <nd ref="305933531"/>
    <nd ref="305933533"/>
    <nd ref="305933534"/>
    <nd ref="305933532"/>
    <nd ref="305933531"/>
    <tag k="building" v="yes"/>
  </way>
  <way id="27864980" version="2" timestamp="2011-02-27T17:45:42Z" uid="43863" user="Rundling" changeset="7413334">
    <nd ref="305933531"/>
    <nd ref="305933533"/>
    <nd ref="305933534"/>
    <nd ref="305933532"/>
    <nd ref="305933531"/>
    <tag k="building" v="barn"/>
  </way>
  <way id="27864980" version="3" timestamp="2011-02-28T21:02:33Z" uid="43863" user="Rundling" changeset="7424489">
    <nd ref="1179556157"/>
    <nd ref="1179556137"/>
    <nd ref="1179556110"/>
    <nd ref="305933534"/>
    <nd ref="305933532"/>
    <nd ref="1179556163"/>
    <nd ref="1179556157"/>
    <tag k="building" v="barn"/>
  </way>
  <way id="27864983" version="3" timestamp="2008-10-23T19:15:07Z" uid="6975" user="ulfl" changeset="530870">
    <nd ref="306264881"/>
    <nd ref="305933538"/>
    <nd ref="305933539"/>
    <nd ref="305933540"/>
    <nd ref="305933541"/>
    <nd ref="305933542"/>
    <tag k="highway" v="track"/>
    <tag k="tracktype" v="grade2"/>
  </way>
  <way id="27864983" version="4" timestamp="2009-03-17T16:26:20Z" uid="94786" user="glebius" changeset="822899">
    <nd ref="361466584"/>
    <nd ref="361466583"/>
    <nd ref="361466582"/>
    <nd ref="361466580"/>
    <nd ref="361466579"/>
    <nd ref="306264881"/>
    <nd ref="305933538"/>
    <nd ref="305933539"/>
    <nd ref="305933540"/>
    <nd ref="305933541"/>
    <nd ref="305933542"/>
    <tag k="highway" v="track"/>
    <tag k="tracktype" v="grade2"/>
  </way>
  <way id="27864983" version="5" timestamp="2009-03-17T19:08:41Z" uid="94786" user="glebius" changeset="826231">
    <nd ref="361466584"/>
    <nd ref="361466583"/>
    <nd ref="361466582"/>
    <nd ref="361466580"/>
    <nd ref="361466579"/>
    <nd ref="306264881"/>
    <tag k="highway" v="track"/>
    <tag k="tracktype" v="grade2"/>
  </way>
  <way id="27864983" version="6" timestamp="2009-08-09T13:55:34Z" uid="150579" user="White-Elephant" changeset="2085917">
    <nd ref="361466584"/>
    <nd ref="361466583"/>
    <nd ref="361466582"/>
    <nd ref="361466580"/>
    <nd ref="361466579"/>
    <nd ref="306264881"/>
    <tag k="highway" v="track"/>
    <tag k="tracktype" v="grade3"/>
  </way>
  <way id="27864983" version="7" timestamp="2011-05-23T12:59:41Z" uid="235179" user="uryevich" changeset="8226208">
    <nd ref="361466584"/>
    <nd ref="1297252201"/>
    <nd ref="361466583"/>
    <nd ref="361466582"/>
    <nd ref="361466580"/>
    <nd ref="361466579"/>
    <nd ref="306264881"/>
    <tag k="highway" v="track"/>
    <tag k="tracktype" v="grade3"/>
  </way>
  <way id="27864983" version="8" timestamp="2011-06-24T22:56:40Z" uid="336354" user="esaulenka" changeset="8538052"/>
</osm>
