<?xml version='1.0' encoding='UTF-8'?>
<osm version="0.6" generator="libosmium/2.20.0">
  <way id="27961449" version="1" timestamp="2008-10-25T00:58:55Z" uid="30201" user="rrankin" changeset="559805">
    <nd ref="307316472"/>
    <nd ref="307316482"/>
    <nd ref="307316491"/>
    <nd ref="307316499"/>
    <nd ref="307316508"/>
    <nd ref="307316517"/>
    <nd ref="307316525"/>
    <tag k="highway" v="residential"/>
    <tag k="name" v="Cartwright Avenue"/>
    <tag k="source" v="yahoo"/>
  </way>
  <way id="27961449" version="2" timestamp="2010-07-07T22:34:31Z" uid="74617" user="JohnSmith" changeset="5162525">
    <nd ref="307316472"/>
    <nd ref="307316482"/>
    <nd ref="307316491"/>
    <nd ref="307316499"/>
    <nd ref="307316508"/>
    <nd ref="307316517"/>
    <nd ref="307316525"/>
    <tag k="highway" v="residential"/>
    <tag k="maxspeed" v="50"/>
    <tag k="maxspeed:source" v="default residential speed limit in Australia"/>
    <tag k="name" v="Cartwright Avenue"/>
    <tag k="source" v="yahoo"/>
  </way>
  <way id="27961449" version="3" timestamp="2012-01-17T09:15:05Z" uid="147510" user="woodpeck_fixbot" changeset="10415418">
    <nd ref="307316472"/>
    <nd ref="307316482"/>
    <nd ref="307316491"/>
    <nd ref="307316499"/>
    <nd ref="307316508"/>
    <nd ref="307316517"/>
    <nd ref="307316525"/>
    <tag k="highway" v="residential"/>
    <tag k="name" v="Cartwright Avenue"/>
    <tag k="source" v="yahoo"/>
  </way>
  <way id="27961452" version="1" timestamp="2008-10-25T00:58:56Z" uid="30201" user="rrankin" changeset="559805">
    <nd ref="288311950"/>
    <nd ref="307316534"/>
    <nd ref="307316543"/>
    <nd ref="307316551"/>
    <tag k="highway" v="residential"/>
    <tag k="name" v="Alexandria Place"/>
    <tag k="source" v="yahoo"/>
  </way>
  <way id="27961452" version="2" timestamp="2010-07-07T22:31:06Z" uid="74617" user="JohnSmith" changeset="5162525">
    <nd ref="288311950"/>
    <nd ref="307316534"/>
    <nd ref="307316543"/>
    <nd ref="307316551"/>
    <tag k="highway" v="residential"/>
    <tag k="maxspeed" v="50"/>
    <tag k="maxspeed:source" v="default residential speed limit in Australia"/>
    <tag k="name" v="Alexandria Place"/>
    <tag k="source" v="yahoo"/>
  </way>
  <way id="27961452" version="3" timestamp="2012-01-17T09:15:07Z" uid="147510" user="woodpeck_fixbot" changeset="10415418">
    <nd ref="288311950"/>
    <nd ref="307316534"/>
    <nd ref="307316543"/>
    <nd ref="307316551"/>
    <tag k="highway" v="residential"/>
    <tag k="name" v="Alexandria Place"/>
    <tag k="source" v="yahoo"/>
  </way>
  <way id="27961453" version="1" timestamp="2008-10-25T00:58:57Z" uid="30201" user="rrankin" changeset="559805">
    <nd ref="176292648"/>
    <nd ref="307316559"/>
    <nd ref="307316568"/>
    <nd ref="307316576"/>
    <tag k="highway" v="residential"/>
    <tag k="name" v="Tumut Place"/>
    <tag k="source" v="yahoo"/>
  </way>
  <way id="27961453" version="2" timestamp="2010-07-07T22:33:17Z" uid="74617" user="JohnSmith" changeset="5162525">
    <nd ref="176292648"/>
    <nd ref="307316559"/>
    <nd ref="307316568"/>
    <nd ref="307316576"/>
    <tag k="highway" v="residential"/>
    <tag k="maxspeed" v="50"/>
    <tag k="maxspeed:source" v="default residential speed limit in Australia"/>
    <tag k="name" v="Tumut Place"/>
    <tag k="source" v="yahoo"/>
  </way>
  <way id="27961453" version="3" timestamp="2012-01-17T09:15:09Z" uid="147510" user="woodpeck_fixbot" changeset="10415418">
    <nd ref="176292648"/>
    <nd ref="307316559"/>
    <nd ref="307316568"/>
    <nd ref="307316576"/>
    <tag k="highway" v="residential"/>
    <tag k="name" v="Tumut Place"/>
    <tag k="source" v="yahoo"/>
  </way>
  <way id="27961626" version="2" timestamp="2010-07-08T00:01:17Z" uid="74617" user="JohnSmith" changeset="5162525">
    <nd ref="243949503"/>
    <nd ref="243950501"/>
    <nd ref="243950449"/>
    <tag k="highway" v="residential"/>
    <tag k="maxspeed" v="50"/>
    <tag k="maxspeed:source" v="default residential speed limit in Australia"/>
    <tag k="name" v="Karloo Street"/>
    <tag k="oneway" v="yes"/>
    <tag k="source" v="survey"/>
  </way>
  <way id="27961626" version="3" timestamp="2010-07-08T00:11:23Z" uid="74617" user="JohnSmith" changeset="5162525">
    <nd ref="243949503"/>
    <nd ref="243950501"/>
    <nd ref="243950449"/>
    <tag k="highway" v="residential"/>
    <tag k="maxspeed" v="50"/>
    <tag k="maxspeed:source" v="default residential speed limit in Australia"/>
    <tag k="name" v="Karloo Street"/>
    <tag k="oneway" v="yes"/>
    <tag k="source" v="survey"/>
  </way>
  <way id="27961626" version="4" timestamp="2012-01-17T09:15:12Z" uid="147510" user="woodpeck_fixbot" changeset="10415418">
    <nd ref="243949503"/>
    <nd ref="243950501"/>
    <nd ref="243950449"/>
    <tag k="highway" v="residential"/>
    <tag k="name" v="Karloo Street"/>
    <tag k="oneway" v="yes"/>
    <tag k="source" v="survey"/>
  </way>
  <way id="27961803" version="2" timestamp="2010-07-08T00:00:58Z" uid="74617" user="JohnSmith" changeset="5162525">
    <nd ref="307318824"/>
    <nd ref="307319369"/>
    <tag k="highway" v="residential"/>
    <tag k="maxspeed" v="50"/>
    <tag k="maxspeed:source" v="default residential speed limit in Australia"/>
    <tag k="name" v="Coila Street"/>
    <tag k="source" v="survey"/>
  </way>
  <way id="27961803" version="3" timestamp="2010-07-08T00:11:02Z" uid="74617" user="JohnSmith" changeset="5162525">
    <nd ref="307318824"/>
    <nd ref="307319369"/>
    <tag k="highway" v="residential"/>
    <tag k="maxspeed" v="50"/>
    <tag k="maxspeed:source" v="default residential speed limit in Australia"/>
    <tag k="name" v="Coila Street"/>
    <tag k="source" v="survey"/>
  </way>
  <way id="27961803" version="4" timestamp="2012-01-17T09:15:14Z" uid="147510" user="woodpeck_fixbot" changeset="10415418">
    <nd ref="307318824"/>
    <nd ref="307319369"/>
    <tag k="highway" v="residential"/>
    <tag k="name" v="Coila Street"/>
    <tag k="source" v="survey"/>
  </way>
  <way id="27961854" version="4" timestamp="2011-05-26T17:52:54Z" uid="23543" user="jkjk" changeset="8255630">
    <nd ref="307318395"/>
    <nd ref="307318397"/>
    <nd ref="307318399"/>
    <nd ref="307318400"/>
    <nd ref="307318401"/>
    <nd ref="307318403"/>
    <nd ref="307318404"/>
    <nd ref="307318405"/>
    <nd ref="307318406"/>
    <nd ref="307318408"/>
    <nd ref="307318409"/>
    <nd ref="307318411"/>
    <nd ref="307318412"/>
    <nd ref="307318413"/>
    <nd ref="307318415"/>
    <nd ref="307318416"/>
    <nd ref="307318418"/>
    <nd ref="307318419"/>
    <nd ref="307318421"/>
    <nd ref="307318422"/>
    <nd ref="307318423"/>
    <nd ref="307318425"/>
    <nd ref="307318426"/>
    <nd ref="307318427"/>
    <nd ref="307318428"/>
    <nd ref="307318430"/>
    <nd ref="307318431"/>
    <nd ref="307318432"/>
    <nd ref="307318433"/>
    <nd ref="307318435"/>
    <nd ref="307318436"/>
    <nd ref="307318437"/>
    <nd ref="307318439"/>
    <nd ref="307318440"/>
    <nd ref="307318441"/>
    <nd ref="307318443"/>
    <nd ref="307318444"/>
    <nd ref="307318445"/>
    <nd ref="307318447"/>
    <nd ref="307318448"/>
    <nd ref="307318449"/>
    <nd ref="307318451"/>
    <nd ref="307318452"/>
    <nd ref="307318453"/>
    <nd ref="307318455"/>
    <nd ref="307318456"/>
    <nd ref="307318457"/>
    <nd ref="307318459"/>
    <nd ref="307318460"/>
    <nd ref="307318461"/>
    <nd ref="307318463"/>
    <nd ref="307318464"/>
    <nd ref="307318465"/>
    <tag k="boat" v="no"/>
    <tag k="fixme" v="yes"/>
    <tag k="is_in" v="Bulgaria"/>
    <tag k="name" v="Струма (Стримонас)"/>
    <tag k="name:bg" v="Струма (Стримонас)"/>
    <tag k="name:de" v="Strymonas (Struma)"/>
    <tag k="name:el" v="Στρυμόνας"/>
    <tag k="name:en" v="Strymonas (Struma)"/>
    <tag k="name:fr" v="Strymonas (Struma)"/>
    <tag k="name:mk" v="Струма"/>
    <tag k="old_name" v="Στρυμόν"/>
    <tag k="waterway" v="river"/>
    <tag k="width" v="200"/>
  </way>
  <way id="27961854" version="5" timestamp="2011-12-26T21:56:35Z" uid="44140" user="cassini83" changeset="10211339"/>
  <way id="27961898" version="4" timestamp="2010-06-01T06:10:00Z" uid="4467" user="Rosscoe" changeset="4871949">
    <nd ref="301930141"/>
    <nd ref="303210817"/>
    <nd ref="253321700"/>
    <nd ref="253321696"/>
    <tag k="highway" v="residential"/>
    <tag k="maxspeed" v="50"/>
    <tag k="name" v="Iona Street"/>
    <tag k="source" v="survey"/>
    <tag k="source_ref:name" v="http://osm.beldin.org/dscf2287.jpg;http://osm.beldin.org/2009/07/DSCF1864.JPG;DSCF1865.JPG"/>
  </way>
  <way id="27961900" version="3" timestamp="2010-08-29T05:41:32Z" uid="4467" user="Rosscoe" changeset="5622180">
    <nd ref="307330835"/>
    <nd ref="307330846"/>
    <nd ref="253310758"/>
    <nd ref="253310763"/>
    <tag k="highway" v="residential"/>
    <tag k="maxspeed" v="50"/>
    <tag k="name" v="Montrose Avenue"/>
    <tag k="source" v="yahoo"/>
  </way>
  <way id="27961900" version="4" timestamp="2010-09-07T03:08:00Z" uid="341547" user="PortBoy" changeset="5704059">
    <nd ref="307330835"/>
    <nd ref="307330846"/>
    <nd ref="900123823"/>
    <nd ref="253310758"/>
    <nd ref="253310763"/>
    <tag k="highway" v="residential"/>
    <tag k="maxspeed" v="50"/>
    <tag k="name" v="Montrose Avenue"/>
    <tag k="source" v="yahoo"/>
  </way>
  <way id="27961907" version="4" timestamp="2011-01-10T14:26:59Z" uid="4467" user="Rosscoe" changeset="6926806"/>
</osm>
