<?xml version='1.0' encoding='UTF-8'?>
<osm version="0.6" generator="libosmium/2.20.0">
  <way id="27972482" version="2" timestamp="2008-10-27T20:27:48Z" uid="38524" user="Kuddy" changeset="601537">
    <nd ref="306918535"/>
    <nd ref="308068089"/>
    <nd ref="306918536"/>
    <nd ref="306918537"/>
    <nd ref="306918538"/>
    <nd ref="306918539"/>
    <nd ref="306918540"/>
    <nd ref="306918541"/>
    <nd ref="306918542"/>
    <nd ref="306918543"/>
    <nd ref="306918150"/>
    <tag k="admin_level" v="8"/>
    <tag k="boundary" v="administrative"/>
    <tag k="created_by" v="ShapeToOSM - Laser Navigation s.r.l."/>
    <tag k="name:left" v="Grottammare"/>
    <tag k="name:right" v="Cupra Marittima"/>
    <tag k="province:left" v="Ascoli Piceno"/>
    <tag k="province:right" v="Ascoli Piceno"/>
    <tag k="region:left" v="Marche"/>
    <tag k="region:right" v="Marche"/>
    <tag k="source" v="Based on ISTAT data - 2001 Italian Census"/>
  </way>
  <way id="27972482" version="4" timestamp="2008-11-21T09:37:51Z" uid="15891" user="farlokko" changeset="775553">
    <nd ref="313460174"/>
    <nd ref="308068089"/>
    <nd ref="306918536"/>
    <nd ref="306918537"/>
    <nd ref="306918538"/>
    <nd ref="306918539"/>
    <nd ref="306918540"/>
    <nd ref="306918541"/>
    <nd ref="306918542"/>
    <nd ref="306918543"/>
    <nd ref="306918150"/>
    <tag k="admin_level" v="8"/>
    <tag k="boundary" v="administrative"/>
    <tag k="created_by" v="Potlatch 0.10f"/>
    <tag k="name:left" v="Grottammare"/>
    <tag k="name:right" v="Cupra Marittima"/>
    <tag k="source" v="Based on ISTAT data - 2001 Italian Census"/>
  </way>
  <way id="27972482" version="5" timestamp="2010-05-31T02:20:57Z" uid="123412" user="totera" changeset="4859101">
    <nd ref="313460174"/>
    <nd ref="308068089"/>
    <nd ref="306918536"/>
    <nd ref="306918537"/>
    <nd ref="306918538"/>
    <nd ref="306918539"/>
    <nd ref="306918540"/>
    <nd ref="306918541"/>
    <nd ref="306918542"/>
    <nd ref="760152630"/>
    <nd ref="760152158"/>
    <nd ref="760151897"/>
    <nd ref="760152358"/>
    <nd ref="306918543"/>
    <nd ref="760152073"/>
    <nd ref="760152733"/>
    <nd ref="760152812"/>
    <nd ref="760152539"/>
    <nd ref="760152346"/>
    <nd ref="306918150"/>
    <tag k="admin_level" v="8"/>
    <tag k="boundary" v="administrative"/>
    <tag k="name:left" v="Grottammare"/>
    <tag k="name:right" v="Cupra Marittima"/>
  </way>
  <way id="27972482" version="6" timestamp="2011-07-24T15:47:06Z" uid="123412" user="totera" changeset="8817766">
    <nd ref="313460174"/>
    <nd ref="306918536"/>
    <nd ref="306918537"/>
    <nd ref="306918538"/>
    <nd ref="306918539"/>
    <nd ref="306918540"/>
    <nd ref="306918541"/>
    <nd ref="306918542"/>
    <nd ref="760152630"/>
    <nd ref="760152158"/>
    <nd ref="760151897"/>
    <nd ref="760152358"/>
    <nd ref="306918543"/>
    <nd ref="760152073"/>
    <nd ref="760152733"/>
    <nd ref="760152812"/>
    <nd ref="760152539"/>
    <nd ref="760152346"/>
    <nd ref="306918150"/>
    <tag k="admin_level" v="8"/>
    <tag k="boundary" v="administrative"/>
    <tag k="name:left" v="Grottammare"/>
    <tag k="name:right" v="Cupra Marittima"/>
  </way>
</osm>
