<?xml version='1.0' encoding='UTF-8'?>
<osm version="0.6" generator="libosmium/2.20.0">
  <way id="28060009" version="2" timestamp="2010-07-09T03:08:50Z" uid="74617" user="JohnSmith" changeset="5170713">
    <nd ref="308115627"/>
    <nd ref="308115731"/>
    <tag k="highway" v="residential"/>
    <tag k="maxspeed" v="50"/>
    <tag k="maxspeed:source" v="default residential speed limit in Australia"/>
    <tag k="name" v="Charles Street"/>
    <tag k="source" v="MMBW"/>
  </way>
  <way id="28060009" version="3" timestamp="2012-01-17T09:50:16Z" uid="147510" user="woodpeck_fixbot" changeset="10415418">
    <nd ref="308115627"/>
    <nd ref="308115731"/>
    <tag k="highway" v="residential"/>
    <tag k="name" v="Charles Street"/>
    <tag k="source" v="MMBW"/>
  </way>
  <way id="28060022" version="2" timestamp="2010-07-09T03:06:29Z" uid="74617" user="JohnSmith" changeset="5170713">
    <nd ref="308115854"/>
    <nd ref="308115941"/>
    <tag k="highway" v="residential"/>
    <tag k="maxspeed" v="50"/>
    <tag k="maxspeed:source" v="default residential speed limit in Australia"/>
    <tag k="name" v="Garden Street"/>
    <tag k="source" v="MMBW"/>
  </way>
  <way id="28060022" version="3" timestamp="2012-01-17T09:50:17Z" uid="147510" user="woodpeck_fixbot" changeset="10415418">
    <nd ref="308115854"/>
    <nd ref="308115941"/>
    <tag k="highway" v="residential"/>
    <tag k="name" v="Garden Street"/>
    <tag k="source" v="MMBW"/>
  </way>
  <way id="28060031" version="2" timestamp="2010-07-09T03:06:43Z" uid="74617" user="JohnSmith" changeset="5170713">
    <nd ref="308116140"/>
    <nd ref="308116251"/>
    <tag k="highway" v="residential"/>
    <tag k="maxspeed" v="50"/>
    <tag k="maxspeed:source" v="default residential speed limit in Australia"/>
    <tag k="name" v="Hudson Street"/>
    <tag k="source" v="MMBW"/>
  </way>
  <way id="28060031" version="3" timestamp="2012-01-17T09:50:23Z" uid="147510" user="woodpeck_fixbot" changeset="10415418">
    <nd ref="308116140"/>
    <nd ref="308116251"/>
    <tag k="highway" v="residential"/>
    <tag k="name" v="Hudson Street"/>
    <tag k="source" v="MMBW"/>
  </way>
  <way id="28060092" version="4" timestamp="2010-07-09T03:10:36Z" uid="74617" user="JohnSmith" changeset="5170713">
    <nd ref="308116626"/>
    <nd ref="308116661"/>
    <nd ref="308116662"/>
    <nd ref="308116663"/>
    <tag k="highway" v="residential"/>
    <tag k="maxspeed" v="50"/>
    <tag k="maxspeed:source" v="default residential speed limit in Australia"/>
    <tag k="name" v="Deakin Street North"/>
    <tag k="source" v="MMBW"/>
  </way>
  <way id="28060092" version="5" timestamp="2012-01-17T09:50:25Z" uid="147510" user="woodpeck_fixbot" changeset="10415418">
    <nd ref="308116626"/>
    <nd ref="308116661"/>
    <nd ref="308116662"/>
    <nd ref="308116663"/>
    <tag k="highway" v="residential"/>
    <tag k="name" v="Deakin Street North"/>
    <tag k="source" v="MMBW"/>
  </way>
  <way id="28060103" version="5" timestamp="2010-07-09T03:08:44Z" uid="74617" user="JohnSmith" changeset="5170713">
    <nd ref="308116663"/>
    <nd ref="308124041"/>
    <nd ref="308124444"/>
    <nd ref="308116664"/>
    <tag k="highway" v="residential"/>
    <tag k="maxspeed" v="50"/>
    <tag k="maxspeed:source" v="default residential speed limit in Australia"/>
    <tag k="name" v="Crisp Street"/>
    <tag k="source" v="MMBW"/>
  </way>
  <way id="28060103" version="6" timestamp="2012-01-17T09:50:28Z" uid="147510" user="woodpeck_fixbot" changeset="10415418">
    <nd ref="308116663"/>
    <nd ref="308124041"/>
    <nd ref="308124444"/>
    <nd ref="308116664"/>
    <tag k="highway" v="residential"/>
    <tag k="name" v="Crisp Street"/>
    <tag k="source" v="MMBW"/>
  </way>
  <way id="28060115" version="4" timestamp="2010-07-09T03:09:06Z" uid="74617" user="JohnSmith" changeset="5170713">
    <nd ref="308116756"/>
    <nd ref="308116757"/>
    <tag k="highway" v="residential"/>
    <tag k="maxspeed" v="50"/>
    <tag k="maxspeed:source" v="default residential speed limit in Australia"/>
    <tag k="name" v="Crisp Street"/>
    <tag k="source" v="MMBW"/>
  </way>
  <way id="28060115" version="5" timestamp="2012-01-17T09:50:30Z" uid="147510" user="woodpeck_fixbot" changeset="10415418">
    <nd ref="308116756"/>
    <nd ref="308116757"/>
    <tag k="highway" v="residential"/>
    <tag k="name" v="Crisp Street"/>
    <tag k="source" v="MMBW"/>
  </way>
  <way id="28060116" version="5" timestamp="2010-07-09T03:09:44Z" uid="74617" user="JohnSmith" changeset="5170713">
    <nd ref="308116757"/>
    <nd ref="308116758"/>
    <nd ref="308117124"/>
    <tag k="highway" v="residential"/>
    <tag k="maxspeed" v="50"/>
    <tag k="maxspeed:source" v="default residential speed limit in Australia"/>
    <tag k="name" v="Deakin Street South"/>
    <tag k="source" v="MMBW"/>
  </way>
  <way id="28060116" version="6" timestamp="2012-01-17T09:50:32Z" uid="147510" user="woodpeck_fixbot" changeset="10415418">
    <nd ref="308116757"/>
    <nd ref="308116758"/>
    <nd ref="308117124"/>
    <tag k="highway" v="residential"/>
    <tag k="name" v="Deakin Street South"/>
    <tag k="source" v="MMBW"/>
  </way>
  <way id="28060118" version="3" timestamp="2008-11-03T23:46:02Z" uid="36809" user="pfoten_weg_!_" changeset="672443">
    <nd ref="308116707"/>
    <nd ref="308116763"/>
    <nd ref="308116764"/>
    <nd ref="308116765"/>
    <nd ref="308116766"/>
    <nd ref="308116767"/>
    <tag k="created_by" v="RambaZamba"/>
    <tag k="highway" v="service"/>
    <tag k="layer" v="0"/>
    <tag k="surface" v="paved"/>
    <tag k="width" v="4"/>
  </way>
  <way id="28060118" version="4" timestamp="2008-11-05T01:21:45Z" uid="36809" user="pfoten_weg_!_" changeset="683734"/>
  <way id="28060135" version="3" timestamp="2010-07-09T03:05:34Z" uid="74617" user="JohnSmith" changeset="5170713">
    <nd ref="308116933"/>
    <nd ref="308116759"/>
    <nd ref="308116990"/>
    <tag k="highway" v="residential"/>
    <tag k="maxspeed" v="50"/>
    <tag k="maxspeed:source" v="default residential speed limit in Australia"/>
    <tag k="name" v="Alicia Street"/>
    <tag k="source" v="MMBW"/>
  </way>
  <way id="28060135" version="4" timestamp="2012-01-17T09:50:34Z" uid="147510" user="woodpeck_fixbot" changeset="10415418">
    <nd ref="308116933"/>
    <nd ref="308116759"/>
    <nd ref="308116990"/>
    <tag k="highway" v="residential"/>
    <tag k="name" v="Alicia Street"/>
    <tag k="source" v="MMBW"/>
  </way>
  <way id="28060168" version="1" timestamp="2008-10-27T22:36:02Z" uid="20587" user="balrog-kun" changeset="600039">
    <nd ref="308117131"/>
    <nd ref="308117133"/>
    <nd ref="308117136"/>
    <nd ref="308117142"/>
    <nd ref="308117140"/>
    <nd ref="308117139"/>
    <nd ref="308117137"/>
    <nd ref="308117144"/>
    <nd ref="308117156"/>
    <nd ref="308117154"/>
    <nd ref="308117148"/>
    <nd ref="308117149"/>
    <nd ref="308117151"/>
    <nd ref="308117150"/>
    <nd ref="308117147"/>
    <nd ref="308117146"/>
    <nd ref="308117153"/>
    <nd ref="308117152"/>
    <nd ref="308117145"/>
    <nd ref="308117143"/>
    <nd ref="308117134"/>
    <nd ref="308117131"/>
    <tag k="addr:housenumber" v="5"/>
    <tag k="addr:street" v="3 Maja"/>
    <tag k="building" v="yes"/>
  </way>
  <way id="28060168" version="2" timestamp="2008-10-29T18:50:58Z" uid="20587" user="balrog-kun" changeset="624126">
    <nd ref="308117139"/>
    <nd ref="308117137"/>
    <nd ref="308117134"/>
    <nd ref="308117131"/>
    <nd ref="308117133"/>
    <nd ref="308117136"/>
    <nd ref="308117142"/>
    <nd ref="308117140"/>
    <nd ref="308117139"/>
    <tag k="addr:housenumber" v="7"/>
    <tag k="addr:street" v="3 Maja"/>
    <tag k="building" v="yes"/>
  </way>
  <way id="28060168" version="3" timestamp="2009-01-07T12:29:36Z" uid="20587" user="balrog-kun" changeset="750476">
    <nd ref="308117139"/>
    <nd ref="308117137"/>
    <nd ref="308117134"/>
    <nd ref="308117131"/>
    <nd ref="308117133"/>
    <nd ref="308117136"/>
    <nd ref="308117142"/>
    <nd ref="308117140"/>
    <nd ref="308117139"/>
    <tag k="addr:housenumber" v="7"/>
    <tag k="addr:street" v="3 Maja"/>
    <tag k="building" v="yes"/>
    <tag k="building:levels" v="7"/>
  </way>
  <way id="28060168" version="4" timestamp="2009-11-12T16:47:57Z" uid="20587" user="balrog-kun" changeset="3099613">
    <nd ref="308117139"/>
    <nd ref="308117137"/>
    <nd ref="308117134"/>
    <nd ref="308117131"/>
    <nd ref="308117133"/>
    <nd ref="308117136"/>
    <nd ref="308117142"/>
    <nd ref="308117140"/>
    <nd ref="308117139"/>
    <tag k="addr:housenumber" v="7"/>
    <tag k="addr:street" v="3 Maja"/>
    <tag k="building" v="residential"/>
    <tag k="building:levels" v="7"/>
  </way>
  <way id="28060169" version="1" timestamp="2008-10-27T22:36:02Z" uid="20587" user="balrog-kun" changeset="600039">
    <nd ref="308117157"/>
    <nd ref="308117158"/>
    <nd ref="308117160"/>
    <nd ref="308117159"/>
    <nd ref="308117157"/>
    <tag k="addr:housenumber" v="41"/>
    <tag k="addr:street" v="Jerzego Waszyngtona"/>
    <tag k="building" v="yes"/>
  </way>
  <way id="28060169" version="2" timestamp="2008-11-05T10:52:09Z" uid="20587" user="balrog-kun" changeset="684368">
    <nd ref="308117157"/>
    <nd ref="308117158"/>
    <nd ref="308117160"/>
    <nd ref="308117159"/>
    <nd ref="308117157"/>
    <tag k="addr:housenumber" v="41"/>
    <tag k="addr:street" v="Aleja Jerzego Waszyngtona"/>
    <tag k="building" v="yes"/>
  </way>
  <way id="28060169" version="3" timestamp="2009-02-08T22:24:14Z" uid="20587" user="balrog-kun" changeset="288825">
    <nd ref="308117157"/>
    <nd ref="308117158"/>
    <nd ref="308117160"/>
    <nd ref="308117159"/>
    <nd ref="308117157"/>
    <tag k="addr:housenumber" v="41"/>
    <tag k="addr:street" v="Aleja Jerzego Waszyngtona"/>
    <tag k="building" v="yes"/>
    <tag k="building:levels" v="8"/>
  </way>
  <way id="28060169" version="4" timestamp="2009-04-08T17:34:40Z" uid="20587" user="balrog-kun" changeset="326158">
    <nd ref="308117157"/>
    <nd ref="308117158"/>
    <nd ref="308117160"/>
    <nd ref="308117159"/>
    <nd ref="308117157"/>
    <tag k="addr:housenumber" v="41"/>
    <tag k="addr:street" v="Aleja Jerzego Waszyngtona"/>
    <tag k="building" v="residential"/>
    <tag k="building:levels" v="8"/>
  </way>
  <way id="28060170" version="1" timestamp="2008-10-27T22:36:03Z" uid="20587" user="balrog-kun" changeset="600039">
    <nd ref="308117161"/>
    <nd ref="308117163"/>
    <nd ref="308117164"/>
    <nd ref="308117162"/>
    <nd ref="308117161"/>
    <tag k="addr:street" v="Jerzego Waszyngtona"/>
    <tag k="building" v="yes"/>
    <tag k="shop" v="kiosk"/>
  </way>
  <way id="28060170" version="2" timestamp="2008-11-05T10:52:10Z" uid="20587" user="balrog-kun" changeset="684368">
    <nd ref="308117161"/>
    <nd ref="308117163"/>
    <nd ref="308117164"/>
    <nd ref="308117162"/>
    <nd ref="308117161"/>
    <tag k="addr:street" v="Aleja Jerzego Waszyngtona"/>
    <tag k="building" v="yes"/>
    <tag k="shop" v="kiosk"/>
  </way>
  <way id="28060170" version="3" timestamp="2009-01-08T14:00:48Z" uid="20587" user="balrog-kun" changeset="756602">
    <nd ref="308117161"/>
    <nd ref="308117163"/>
    <nd ref="308117164"/>
    <nd ref="308117162"/>
    <nd ref="308117161"/>
    <tag k="addr:street" v="Aleja Jerzego Waszyngtona"/>
    <tag k="building" v="yes"/>
    <tag k="building:levels" v="1"/>
    <tag k="shop" v="kiosk"/>
  </way>
  <way id="28060170" version="4" timestamp="2009-06-06T17:09:43Z" uid="20587" user="balrog-kun" changeset="1440432">
    <nd ref="308117161"/>
    <nd ref="308117163"/>
    <nd ref="308117164"/>
    <nd ref="308117162"/>
    <nd ref="308117161"/>
    <tag k="addr:street" v="Aleja Jerzego Waszyngtona"/>
    <tag k="building" v="yes"/>
    <tag k="building:levels" v="1"/>
    <tag k="name" v="Vegas"/>
    <tag k="shop" v="games"/>
  </way>
  <way id="28060171" version="1" timestamp="2008-10-27T22:36:03Z" uid="20587" user="balrog-kun" changeset="600039">
    <nd ref="308117166"/>
    <nd ref="308117167"/>
    <nd ref="308117165"/>
    <nd ref="308117168"/>
    <nd ref="308117166"/>
    <tag k="addr:street" v="Jerzego Waszyngtona"/>
    <tag k="building" v="yes"/>
    <tag k="shop" v="kiosk"/>
  </way>
  <way id="28060171" version="2" timestamp="2008-11-05T10:52:11Z" uid="20587" user="balrog-kun" changeset="684368">
    <nd ref="308117166"/>
    <nd ref="308117167"/>
    <nd ref="308117165"/>
    <nd ref="308117168"/>
    <nd ref="308117166"/>
    <tag k="addr:street" v="Aleja Jerzego Waszyngtona"/>
    <tag k="building" v="yes"/>
    <tag k="shop" v="kiosk"/>
  </way>
  <way id="28060171" version="3" timestamp="2009-01-08T14:00:49Z" uid="20587" user="balrog-kun" changeset="756602">
    <nd ref="308117166"/>
    <nd ref="308117167"/>
    <nd ref="308117165"/>
    <nd ref="308117168"/>
    <nd ref="308117166"/>
    <tag k="addr:street" v="Aleja Jerzego Waszyngtona"/>
    <tag k="building" v="yes"/>
    <tag k="building:levels" v="1"/>
    <tag k="shop" v="kiosk"/>
  </way>
  <way id="28060171" version="4" timestamp="2009-02-05T20:10:03Z" uid="20587" user="balrog-kun" changeset="165445">
    <nd ref="308117166"/>
    <nd ref="308117167"/>
    <nd ref="308117165"/>
    <nd ref="308117168"/>
    <nd ref="308117166"/>
    <tag k="addr:street" v="Aleja Jerzego Waszyngtona"/>
    <tag k="building" v="yes"/>
    <tag k="building:levels" v="1"/>
    <tag k="shop" v="convenience"/>
  </way>
  <way id="28060172" version="1" timestamp="2008-10-27T22:36:05Z" uid="20587" user="balrog-kun" changeset="600039">
    <nd ref="308117169"/>
    <nd ref="308117171"/>
    <nd ref="308117170"/>
    <nd ref="308117172"/>
    <nd ref="308117169"/>
    <tag k="addr:housenumber" v="37a"/>
    <tag k="addr:street" v="Jerzego Waszyngtona"/>
    <tag k="building" v="yes"/>
    <tag k="shop" v="kiosk"/>
  </way>
  <way id="28060172" version="2" timestamp="2008-11-05T10:52:07Z" uid="20587" user="balrog-kun" changeset="684368">
    <nd ref="308117169"/>
    <nd ref="308117171"/>
    <nd ref="308117170"/>
    <nd ref="308117172"/>
    <nd ref="308117169"/>
    <tag k="addr:housenumber" v="37a"/>
    <tag k="addr:street" v="Aleja Jerzego Waszyngtona"/>
    <tag k="building" v="yes"/>
    <tag k="shop" v="kiosk"/>
  </way>
  <way id="28060172" version="3" timestamp="2009-01-08T14:00:48Z" uid="20587" user="balrog-kun" changeset="756602">
    <nd ref="308117169"/>
    <nd ref="308117171"/>
    <nd ref="308117170"/>
    <nd ref="308117172"/>
    <nd ref="308117169"/>
    <tag k="addr:housenumber" v="37a"/>
    <tag k="addr:street" v="Aleja Jerzego Waszyngtona"/>
    <tag k="building" v="yes"/>
    <tag k="building:levels" v="1"/>
    <tag k="shop" v="kiosk"/>
  </way>
  <way id="28060172" version="4" timestamp="2009-04-07T14:42:03Z" uid="20587" user="balrog-kun" changeset="299837">
    <nd ref="308117169"/>
    <nd ref="308117171"/>
    <nd ref="308117170"/>
    <nd ref="308117172"/>
    <nd ref="308117169"/>
    <tag k="addr:housenumber" v="37a"/>
    <tag k="addr:street" v="Aleja Jerzego Waszyngtona"/>
    <tag k="building" v="yes"/>
    <tag k="building:levels" v="1"/>
    <tag k="name" v="Alicja"/>
    <tag k="shop" v="kiosk"/>
  </way>
  <way id="28060173" version="1" timestamp="2008-10-27T22:36:08Z" uid="20587" user="balrog-kun" changeset="600039">
    <nd ref="308117173"/>
    <nd ref="308117174"/>
    <nd ref="308117176"/>
    <nd ref="308117175"/>
    <nd ref="308117173"/>
    <tag k="addr:housenumber" v="39"/>
    <tag k="addr:street" v="Jerzego Waszyngtona"/>
    <tag k="building" v="yes"/>
  </way>
  <way id="28060173" version="2" timestamp="2008-11-05T10:52:07Z" uid="20587" user="balrog-kun" changeset="684368">
    <nd ref="308117173"/>
    <nd ref="308117174"/>
    <nd ref="308117176"/>
    <nd ref="308117175"/>
    <nd ref="308117173"/>
    <tag k="addr:housenumber" v="39"/>
    <tag k="addr:street" v="Aleja Jerzego Waszyngtona"/>
    <tag k="building" v="yes"/>
  </way>
  <way id="28060173" version="3" timestamp="2009-02-08T22:24:13Z" uid="20587" user="balrog-kun" changeset="288825">
    <nd ref="308117173"/>
    <nd ref="308117174"/>
    <nd ref="308117176"/>
    <nd ref="308117175"/>
    <nd ref="308117173"/>
    <tag k="addr:housenumber" v="39"/>
    <tag k="addr:street" v="Aleja Jerzego Waszyngtona"/>
    <tag k="building" v="yes"/>
    <tag k="building:levels" v="7"/>
  </way>
  <way id="28060173" version="4" timestamp="2009-04-08T17:34:39Z" uid="20587" user="balrog-kun" changeset="326158">
    <nd ref="308117173"/>
    <nd ref="308117174"/>
    <nd ref="308117176"/>
    <nd ref="308117175"/>
    <nd ref="308117173"/>
    <tag k="addr:housenumber" v="39"/>
    <tag k="addr:street" v="Aleja Jerzego Waszyngtona"/>
    <tag k="building" v="residential"/>
    <tag k="building:levels" v="7"/>
  </way>
  <way id="28060174" version="1" timestamp="2008-10-27T22:36:11Z" uid="20587" user="balrog-kun" changeset="600039">
    <nd ref="308117178"/>
    <nd ref="308117177"/>
    <nd ref="308117179"/>
    <nd ref="308117182"/>
    <nd ref="308117178"/>
    <tag k="addr:housenumber" v="14"/>
    <tag k="addr:street" v="Raszyńska"/>
    <tag k="building" v="yes"/>
  </way>
  <way id="28060178" version="1" timestamp="2008-10-27T22:36:16Z" uid="20587" user="balrog-kun" changeset="600039">
    <nd ref="307573753"/>
    <nd ref="307573756"/>
    <nd ref="308117177"/>
    <nd ref="308117178"/>
    <nd ref="307573753"/>
    <tag k="addr:housenumber" v="12"/>
    <tag k="addr:street" v="Raszyńska"/>
    <tag k="building" v="yes"/>
  </way>
  <way id="28060179" version="1" timestamp="2008-10-27T22:36:18Z" uid="20587" user="balrog-kun" changeset="600039">
    <nd ref="308117220"/>
    <nd ref="308117218"/>
    <nd ref="308117216"/>
    <nd ref="308117202"/>
    <nd ref="308117206"/>
    <nd ref="308117188"/>
    <nd ref="308117179"/>
    <nd ref="308117210"/>
    <nd ref="308117215"/>
    <nd ref="308117217"/>
    <nd ref="308117219"/>
    <nd ref="308117220"/>
    <tag k="addr:street" v="Tarczyńska"/>
    <tag k="building" v="yes"/>
  </way>
  <way id="28060180" version="1" timestamp="2008-10-27T22:36:20Z" uid="20587" user="balrog-kun" changeset="600039">
    <nd ref="308117188"/>
    <nd ref="308117197"/>
    <nd ref="308117192"/>
    <nd ref="308117182"/>
    <nd ref="308117179"/>
    <nd ref="308117188"/>
    <tag k="addr:housenumber" v="16"/>
    <tag k="addr:street" v="Raszyńska"/>
    <tag k="building" v="yes"/>
  </way>
  <way id="28060182" version="1" timestamp="2008-10-27T22:36:23Z" uid="20587" user="balrog-kun" changeset="600039">
    <nd ref="308117221"/>
    <nd ref="308117222"/>
    <nd ref="308117220"/>
    <nd ref="308117219"/>
    <nd ref="308117223"/>
    <nd ref="308117226"/>
    <nd ref="308117224"/>
    <nd ref="308117225"/>
    <nd ref="308117221"/>
    <tag k="addr:housenumber" v="1"/>
    <tag k="addr:street" v="Tarczyńska"/>
    <tag k="building" v="yes"/>
  </way>
  <way id="28060183" version="1" timestamp="2008-10-27T22:36:25Z" uid="20587" user="balrog-kun" changeset="600039">
    <nd ref="308117233"/>
    <nd ref="255309071"/>
    <nd ref="119902505"/>
    <nd ref="255309072"/>
    <nd ref="255309073"/>
    <nd ref="119902500"/>
    <nd ref="248664353"/>
    <nd ref="253170412"/>
    <nd ref="253170445"/>
    <nd ref="119902485"/>
    <nd ref="302956846"/>
    <nd ref="119902321"/>
    <tag k="created_by" v="JOSM"/>
    <tag k="name" v="1 - 7 - 9 - 14 - 25 - 35"/>
    <tag k="railway" v="tram"/>
  </way>
  <way id="28060183" version="2" timestamp="2009-01-02T14:14:26Z" uid="88595" user="matemaciek" changeset="717195">
    <nd ref="308117233"/>
    <nd ref="255309071"/>
    <nd ref="119902505"/>
    <nd ref="255309072"/>
    <nd ref="255309073"/>
    <nd ref="119902500"/>
    <tag k="created_by" v="Potlatch 0.10f"/>
    <tag k="name" v="1 - 7 - 9 - 14 - 25 - 35"/>
    <tag k="railway" v="tram"/>
  </way>
  <way id="28060183" version="3" timestamp="2009-01-02T14:14:34Z" uid="88595" user="matemaciek" changeset="717195"/>
  <way id="28060185" version="1" timestamp="2008-10-27T22:36:26Z" uid="20587" user="balrog-kun" changeset="600039">
    <nd ref="308117233"/>
    <nd ref="308117235"/>
    <nd ref="308117234"/>
    <nd ref="308117232"/>
    <nd ref="179870495"/>
    <nd ref="308117244"/>
    <nd ref="179870501"/>
    <nd ref="308117237"/>
    <nd ref="308117238"/>
    <nd ref="179870505"/>
    <nd ref="179870506"/>
    <nd ref="179870739"/>
    <nd ref="308117239"/>
    <nd ref="308117240"/>
    <nd ref="308117241"/>
    <nd ref="308117242"/>
    <nd ref="255309067"/>
    <nd ref="179870507"/>
    <tag k="created_by" v="JOSM"/>
    <tag k="oneway" v="yes"/>
    <tag k="railway" v="tram"/>
  </way>
  <way id="28060185" version="2" timestamp="2009-05-31T17:09:28Z" uid="128018" user="Tomek" changeset="1371220">
    <nd ref="308117233"/>
    <nd ref="308117235"/>
    <nd ref="308117234"/>
    <nd ref="308117232"/>
    <nd ref="179870495"/>
    <tag k="oneway" v="yes"/>
    <tag k="railway" v="tram"/>
  </way>
  <way id="28060185" version="3" timestamp="2009-05-31T20:27:41Z" uid="128018" user="Tomek" changeset="1373377">
    <nd ref="308117233"/>
    <nd ref="308117235"/>
    <nd ref="308117234"/>
    <nd ref="308117232"/>
    <nd ref="179870495"/>
    <tag k="name" v="14 - 35"/>
    <tag k="oneway" v="yes"/>
    <tag k="railway" v="tram"/>
  </way>
  <way id="28060185" version="4" timestamp="2010-01-22T14:32:37Z" uid="20587" user="balrog-kun" changeset="3683630"/>
  <way id="28060186" version="1" timestamp="2008-10-27T22:36:28Z" uid="20587" user="balrog-kun" changeset="600039">
    <nd ref="308117244"/>
    <nd ref="308117245"/>
    <nd ref="308117246"/>
    <nd ref="308117247"/>
    <nd ref="308117248"/>
    <nd ref="308117269"/>
    <nd ref="308117270"/>
    <nd ref="308117271"/>
    <tag k="railway" v="tram"/>
  </way>
  <way id="28060186" version="2" timestamp="2008-10-30T13:42:08Z" uid="20587" user="balrog-kun" changeset="630541">
    <nd ref="308117244"/>
    <nd ref="308117245"/>
    <nd ref="308117246"/>
    <nd ref="308117247"/>
    <nd ref="308117248"/>
    <nd ref="308117269"/>
    <nd ref="308117270"/>
    <nd ref="308117271"/>
    <tag k="oneway" v="yes"/>
    <tag k="railway" v="tram"/>
  </way>
  <way id="28060186" version="3" timestamp="2009-01-11T09:39:15Z" uid="20587" user="balrog-kun" changeset="770650">
    <nd ref="308117244"/>
    <nd ref="308117245"/>
    <nd ref="308117246"/>
    <nd ref="308117247"/>
    <nd ref="331143198"/>
    <nd ref="331143200"/>
    <nd ref="308117248"/>
    <nd ref="308117269"/>
    <nd ref="308117270"/>
    <nd ref="308117271"/>
    <tag k="oneway" v="yes"/>
    <tag k="railway" v="tram"/>
  </way>
  <way id="28060186" version="4" timestamp="2009-05-31T20:34:08Z" uid="128018" user="Tomek" changeset="1373452">
    <nd ref="308117244"/>
    <nd ref="308117245"/>
    <nd ref="308117246"/>
    <nd ref="308117247"/>
    <nd ref="331143198"/>
    <nd ref="331143200"/>
    <nd ref="308117248"/>
    <nd ref="308117269"/>
    <nd ref="308117270"/>
    <nd ref="308117271"/>
    <tag k="name" v=""/>
    <tag k="oneway" v="yes"/>
    <tag k="railway" v="tram"/>
  </way>
  <way id="28060186" version="5" timestamp="2009-05-31T20:35:42Z" uid="128018" user="Tomek" changeset="1373471">
    <nd ref="308117244"/>
    <nd ref="308117245"/>
    <nd ref="308117246"/>
    <nd ref="308117247"/>
    <nd ref="331143198"/>
    <nd ref="413700723"/>
    <nd ref="331143200"/>
    <nd ref="308117248"/>
    <nd ref="308117269"/>
    <nd ref="308117270"/>
    <nd ref="308117271"/>
    <tag k="name" v="32"/>
    <tag k="oneway" v="yes"/>
    <tag k="railway" v="tram"/>
  </way>
  <way id="28060186" version="6" timestamp="2009-11-01T03:15:22Z" uid="20587" user="balrog-kun" changeset="3003408">
    <nd ref="308117244"/>
    <nd ref="308117245"/>
    <nd ref="308117246"/>
    <nd ref="308117247"/>
    <nd ref="331143198"/>
    <nd ref="413700723"/>
    <nd ref="331143200"/>
    <nd ref="308117248"/>
    <nd ref="308117269"/>
    <nd ref="308117270"/>
    <nd ref="308117271"/>
    <tag k="name" v="21"/>
    <tag k="oneway" v="yes"/>
    <tag k="railway" v="tram"/>
  </way>
  <way id="28060186" version="7" timestamp="2010-01-17T00:57:43Z" uid="20587" user="balrog-kun" changeset="3637344">
    <nd ref="308117244"/>
    <nd ref="308117245"/>
    <nd ref="308117246"/>
    <tag k="name" v="21 - 32"/>
    <tag k="oneway" v="yes"/>
    <tag k="railway" v="tram"/>
  </way>
  <way id="28060186" version="8" timestamp="2011-10-05T23:49:16Z" uid="477744" user="hormel" changeset="9482421">
    <nd ref="308117244"/>
    <nd ref="308117245"/>
    <nd ref="308117246"/>
    <tag k="oneway" v="yes"/>
    <tag k="railway" v="tram"/>
  </way>
  <way id="28060186" version="9" timestamp="2012-02-07T21:50:01Z" uid="550476" user="fishcrosser" changeset="10617330"/>
  <way id="28060187" version="1" timestamp="2008-10-27T22:36:28Z" uid="20587" user="balrog-kun" changeset="600039">
    <nd ref="33207653"/>
    <nd ref="308117262"/>
    <nd ref="308117263"/>
    <nd ref="308117264"/>
    <nd ref="32594646"/>
    <tag k="created_by" v="JOSM"/>
    <tag k="highway" v="primary"/>
    <tag k="name" v="Grójecka"/>
    <tag k="oneway" v="yes"/>
  </way>
  <way id="28060187" version="2" timestamp="2008-10-28T08:39:54Z" uid="20587" user="balrog-kun" changeset="609926">
    <nd ref="33207653"/>
    <nd ref="308117262"/>
    <nd ref="308117263"/>
    <nd ref="308117264"/>
    <nd ref="32594646"/>
    <tag k="created_by" v="JOSM"/>
    <tag k="highway" v="primary"/>
    <tag k="name" v="Grójecka"/>
    <tag k="oneway" v="yes"/>
    <tag k="ref" v="631"/>
  </way>
  <way id="28060187" version="3" timestamp="2009-01-08T15:15:46Z" uid="20587" user="balrog-kun" changeset="756602">
    <nd ref="33207653"/>
    <nd ref="308117262"/>
    <nd ref="308117263"/>
    <nd ref="308117264"/>
    <nd ref="32594646"/>
    <tag k="created_by" v="JOSM"/>
    <tag k="highway" v="primary"/>
    <tag k="name" v="Grójecka"/>
    <tag k="oneway" v="yes"/>
    <tag k="ref" v="631"/>
    <tag k="wikipedia" v="pl:Ulica Grójecka w Warszawie"/>
  </way>
  <way id="28060187" version="4" timestamp="2009-02-22T15:24:29Z" uid="91921" user="kwiecinski" changeset="621682">
    <nd ref="33207653"/>
    <nd ref="308117262"/>
    <nd ref="308117263"/>
    <nd ref="308117264"/>
    <nd ref="32594646"/>
    <tag k="created_by" v="Merkaartor 0.12"/>
    <tag k="highway" v="secondary"/>
    <tag k="name" v="Grójecka"/>
    <tag k="oneway" v="yes"/>
    <tag k="ref" v="631"/>
    <tag k="wikipedia" v="pl:Ulica Grójecka w Warszawie"/>
  </way>
  <way id="28060187" version="5" timestamp="2009-11-12T18:11:25Z" uid="20587" user="balrog-kun" changeset="3100206">
    <nd ref="33207653"/>
    <nd ref="308117262"/>
    <nd ref="308117263"/>
    <nd ref="308117264"/>
    <nd ref="561287176"/>
    <nd ref="32594646"/>
    <tag k="highway" v="secondary"/>
    <tag k="name" v="Grójecka"/>
    <tag k="oneway" v="yes"/>
    <tag k="ref" v="631"/>
    <tag k="wikipedia" v="pl:Ulica Grójecka w Warszawie"/>
  </way>
  <way id="28060187" version="6" timestamp="2010-05-01T17:18:41Z" uid="20587" user="balrog-kun" changeset="4577369">
    <nd ref="33207653"/>
    <nd ref="308117262"/>
    <nd ref="308117263"/>
    <nd ref="308117264"/>
    <nd ref="561287176"/>
    <nd ref="32594646"/>
    <tag k="highway" v="secondary"/>
    <tag k="lanes" v="3"/>
    <tag k="name" v="Grójecka"/>
    <tag k="oneway" v="yes"/>
    <tag k="ref" v="631"/>
    <tag k="wikipedia" v="pl:Ulica Grójecka w Warszawie"/>
  </way>
  <way id="28060188" version="1" timestamp="2008-10-27T22:36:29Z" uid="20587" user="balrog-kun" changeset="600039">
    <nd ref="308117284"/>
    <nd ref="308117288"/>
    <nd ref="308117280"/>
    <nd ref="308117281"/>
    <nd ref="308117279"/>
    <nd ref="308117278"/>
    <nd ref="308117284"/>
    <tag k="addr:housenumber" v="1"/>
    <tag k="addr:street" v="Juliana Ursyna Niemcewicza"/>
    <tag k="building" v="yes"/>
  </way>
  <way id="28060189" version="1" timestamp="2008-10-27T22:36:30Z" uid="20587" user="balrog-kun" changeset="600039">
    <nd ref="308117280"/>
    <nd ref="308117282"/>
    <nd ref="308117283"/>
    <nd ref="308117281"/>
    <nd ref="308117280"/>
    <tag k="addr:housenumber" v="32/34"/>
    <tag k="addr:street" v="Raszyńska"/>
    <tag k="building" v="yes"/>
  </way>
  <way id="28060189" version="2" timestamp="2008-10-28T09:16:10Z" uid="20587" user="balrog-kun" changeset="609926">
    <nd ref="308117280"/>
    <nd ref="308117282"/>
    <nd ref="308117283"/>
    <nd ref="308117281"/>
    <nd ref="308117280"/>
    <tag k="addr:housenumber" v="32/44"/>
    <tag k="addr:street" v="Raszyńska"/>
    <tag k="building" v="yes"/>
  </way>
  <way id="28060189" version="3" timestamp="2008-10-31T17:06:51Z" uid="20587" user="balrog-kun" changeset="640219">
    <nd ref="308117281"/>
    <nd ref="308117280"/>
    <nd ref="308117282"/>
    <nd ref="308117283"/>
    <nd ref="308117281"/>
    <tag k="addr:housenumber" v="32/44"/>
    <tag k="addr:street" v="Raszyńska"/>
    <tag k="building" v="yes"/>
  </way>
  <way id="28060191" version="1" timestamp="2008-10-27T22:36:31Z" uid="20587" user="balrog-kun" changeset="600039">
    <nd ref="308117291"/>
    <nd ref="308117293"/>
    <nd ref="308117294"/>
    <nd ref="308117292"/>
    <nd ref="308117291"/>
    <tag k="leisure" v="pitch"/>
  </way>
  <way id="28060240" version="2" timestamp="2009-10-20T12:10:08Z" uid="36809" user="pfoten_weg_!_" changeset="2902112">
    <nd ref="308118052"/>
    <nd ref="308118053"/>
    <nd ref="308118054"/>
    <nd ref="308118055"/>
    <nd ref="308118052"/>
    <tag k="sport" v="soccer"/>
  </way>
  <way id="28060240" version="3" timestamp="2011-08-06T16:11:49Z" uid="118021" user="maggot27" changeset="8939508">
    <nd ref="308118052"/>
    <nd ref="308118053"/>
    <nd ref="308118054"/>
    <nd ref="308118055"/>
    <nd ref="308118052"/>
    <tag k="leisure" v="pitch"/>
    <tag k="sport" v="soccer"/>
  </way>
  <way id="28060245" version="3" timestamp="2009-10-20T12:10:08Z" uid="36809" user="pfoten_weg_!_" changeset="2902112">
    <nd ref="308118329"/>
    <nd ref="308118330"/>
    <nd ref="308118332"/>
    <nd ref="308118333"/>
    <nd ref="308118329"/>
    <tag k="building" v="yes"/>
  </way>
  <way id="28060474" version="2" timestamp="2008-11-26T01:45:05Z" uid="6975" user="ulfl" changeset="794829">
    <nd ref="308120523"/>
    <nd ref="308120524"/>
    <nd ref="308120525"/>
    <nd ref="308120526"/>
    <nd ref="308120527"/>
    <nd ref="308120523"/>
    <tag k="building" v="yes"/>
  </way>
  <way id="28060474" version="3" timestamp="2008-12-26T23:08:53Z" uid="55774" user="nmixter" changeset="622532">
    <nd ref="308120523"/>
    <nd ref="308120525"/>
    <nd ref="308120526"/>
    <nd ref="308120527"/>
    <nd ref="308120523"/>
    <tag k="building" v="yes"/>
  </way>
  <way id="28060520" version="4" timestamp="2009-01-07T14:10:47Z" uid="3451" user="sascha_silbe" changeset="752086">
    <nd ref="34825890"/>
    <nd ref="308121247"/>
    <tag k="FIXME" v="Turn-Restriction benutzen"/>
    <tag k="created_by" v="Potlatch 0.10f"/>
    <tag k="foot" v="no"/>
    <tag k="highway" v="residential"/>
    <tag k="name" v="Steinlachallee"/>
    <tag k="note" v="logical way for routing purposes"/>
    <tag k="source" v="knowledge"/>
  </way>
  <way id="28060520" version="5" timestamp="2009-06-01T14:04:05Z" uid="85761" user="klausis" changeset="1379895">
    <nd ref="34825890"/>
    <nd ref="308121247"/>
    <tag k="FIXME" v="Turn-Restriction benutzen"/>
    <tag k="foot" v="no"/>
    <tag k="highway" v="residential"/>
    <tag k="name" v="Steinlachallee"/>
    <tag k="note" v="logical way for routing purposes"/>
    <tag k="source" v="knowledge"/>
  </way>
  <way id="28060520" version="6" timestamp="2009-10-21T17:57:46Z" uid="85761" user="klausis" changeset="2914972">
    <nd ref="34825890"/>
    <nd ref="537990715"/>
    <nd ref="308121247"/>
    <tag k="FIXME" v="Turn-Restriction benutzen"/>
    <tag k="foot" v="no"/>
    <tag k="highway" v="residential"/>
    <tag k="name" v="Steinlachallee"/>
    <tag k="note" v="logical way for routing purposes"/>
    <tag k="source" v="knowledge"/>
  </way>
  <way id="28060522" version="3" timestamp="2009-01-07T13:52:09Z" uid="3451" user="sascha_silbe" changeset="752086">
    <nd ref="308121252"/>
    <nd ref="308121248"/>
    <nd ref="308121249"/>
    <nd ref="308121250"/>
    <nd ref="308121251"/>
    <tag k="created_by" v="Potlatch 0.10f"/>
    <tag k="highway" v="residential"/>
    <tag k="name" v="Steinlachallee"/>
    <tag k="note" v="logical way for routing purposes"/>
    <tag k="oneway" v="true"/>
    <tag k="source" v="knowledge"/>
  </way>
  <way id="28060522" version="4" timestamp="2009-04-17T04:41:12Z" uid="103885" user="logicbot" changeset="603450">
    <nd ref="308121252"/>
    <nd ref="308121248"/>
    <nd ref="308121249"/>
    <nd ref="308121250"/>
    <nd ref="308121251"/>
    <tag k="created_by" v="Potlatch 0.10f"/>
    <tag k="highway" v="residential"/>
    <tag k="name" v="Steinlachallee"/>
    <tag k="note" v="logical way for routing purposes"/>
    <tag k="oneway" v="yes"/>
    <tag k="source" v="knowledge"/>
  </way>
  <way id="28060522" version="5" timestamp="2009-06-01T14:04:06Z" uid="85761" user="klausis" changeset="1379895">
    <nd ref="308121252"/>
    <nd ref="308121248"/>
    <nd ref="308121249"/>
    <nd ref="308121250"/>
    <nd ref="308121251"/>
    <tag k="highway" v="residential"/>
    <tag k="name" v="Steinlachallee"/>
    <tag k="note" v="logical way for routing purposes"/>
    <tag k="oneway" v="yes"/>
    <tag k="source" v="knowledge"/>
  </way>
  <way id="28060612" version="2" timestamp="2009-01-05T21:19:14Z" uid="65847" user="LKK" changeset="740749">
    <nd ref="308122203"/>
    <nd ref="308120555"/>
    <tag k="created_by" v="Potlatch 0.10e"/>
    <tag k="highway" v="residential"/>
    <tag k="name" v="Gärtnerstraße"/>
  </way>
  <way id="28060690" version="8" timestamp="2010-07-08T20:01:57Z" uid="74617" user="JohnSmith" changeset="5168688">
    <nd ref="354138517"/>
    <nd ref="308123416"/>
    <nd ref="308123417"/>
    <nd ref="308123418"/>
    <nd ref="308123419"/>
    <nd ref="308123420"/>
    <nd ref="308123421"/>
    <nd ref="308123422"/>
    <nd ref="308123423"/>
    <nd ref="308123424"/>
    <nd ref="308123425"/>
    <nd ref="308123426"/>
    <nd ref="308123427"/>
    <nd ref="308123428"/>
    <nd ref="308123429"/>
    <nd ref="308123430"/>
    <nd ref="308123431"/>
    <nd ref="308123433"/>
    <nd ref="308123434"/>
    <nd ref="308123435"/>
    <nd ref="308123436"/>
    <nd ref="308123437"/>
    <nd ref="308123438"/>
    <nd ref="308123439"/>
    <nd ref="308123440"/>
    <nd ref="308123441"/>
    <nd ref="308123442"/>
    <nd ref="308123443"/>
    <nd ref="308123445"/>
    <nd ref="308123446"/>
    <nd ref="308123447"/>
    <nd ref="582218659"/>
    <nd ref="308123448"/>
    <tag k="highway" v="residential"/>
    <tag k="maxspeed" v="50"/>
    <tag k="maxspeed:source" v="default residential speed limit in Australia"/>
    <tag k="name" v="Lakesfield Drive"/>
  </way>
  <way id="28060690" version="9" timestamp="2012-01-17T09:50:36Z" uid="147510" user="woodpeck_fixbot" changeset="10415418">
    <nd ref="354138517"/>
    <nd ref="308123416"/>
    <nd ref="308123417"/>
    <nd ref="308123418"/>
    <nd ref="308123419"/>
    <nd ref="308123420"/>
    <nd ref="308123421"/>
    <nd ref="308123422"/>
    <nd ref="308123423"/>
    <nd ref="308123424"/>
    <nd ref="308123425"/>
    <nd ref="308123426"/>
    <nd ref="308123427"/>
    <nd ref="308123428"/>
    <nd ref="308123429"/>
    <nd ref="308123430"/>
    <nd ref="308123431"/>
    <nd ref="308123433"/>
    <nd ref="308123434"/>
    <nd ref="308123435"/>
    <nd ref="308123436"/>
    <nd ref="308123437"/>
    <nd ref="308123438"/>
    <nd ref="308123439"/>
    <nd ref="308123440"/>
    <nd ref="308123441"/>
    <nd ref="308123442"/>
    <nd ref="308123443"/>
    <nd ref="308123445"/>
    <nd ref="308123446"/>
    <nd ref="308123447"/>
    <nd ref="582218659"/>
    <nd ref="308123448"/>
    <tag k="highway" v="residential"/>
    <tag k="name" v="Lakesfield Drive"/>
  </way>
  <way id="28060719" version="5" timestamp="2010-07-08T19:51:51Z" uid="74617" user="JohnSmith" changeset="5168688">
    <nd ref="308123418"/>
    <nd ref="308123568"/>
    <nd ref="308123570"/>
    <nd ref="308123572"/>
    <nd ref="308123573"/>
    <nd ref="308123575"/>
    <nd ref="308123577"/>
    <nd ref="308123579"/>
    <nd ref="308123581"/>
    <nd ref="308123582"/>
    <nd ref="308123583"/>
    <nd ref="308123584"/>
    <nd ref="308123585"/>
    <nd ref="308123586"/>
    <nd ref="308123587"/>
    <nd ref="308123588"/>
    <nd ref="308123589"/>
    <nd ref="308123590"/>
    <nd ref="308123591"/>
    <nd ref="308123592"/>
    <nd ref="308123445"/>
    <tag k="highway" v="residential"/>
    <tag k="maxspeed" v="50"/>
    <tag k="maxspeed:source" v="default residential speed limit in Australia"/>
    <tag k="name" v="Bellfield Drive"/>
  </way>
  <way id="28060719" version="6" timestamp="2012-01-17T09:50:40Z" uid="147510" user="woodpeck_fixbot" changeset="10415418">
    <nd ref="308123418"/>
    <nd ref="308123568"/>
    <nd ref="308123570"/>
    <nd ref="308123572"/>
    <nd ref="308123573"/>
    <nd ref="308123575"/>
    <nd ref="308123577"/>
    <nd ref="308123579"/>
    <nd ref="308123581"/>
    <nd ref="308123582"/>
    <nd ref="308123583"/>
    <nd ref="308123584"/>
    <nd ref="308123585"/>
    <nd ref="308123586"/>
    <nd ref="308123587"/>
    <nd ref="308123588"/>
    <nd ref="308123589"/>
    <nd ref="308123590"/>
    <nd ref="308123591"/>
    <nd ref="308123592"/>
    <nd ref="308123445"/>
    <tag k="highway" v="residential"/>
    <tag k="name" v="Bellfield Drive"/>
  </way>
  <way id="28060727" version="3" timestamp="2010-07-08T19:52:36Z" uid="74617" user="JohnSmith" changeset="5168688">
    <nd ref="308123582"/>
    <nd ref="308123629"/>
    <nd ref="308123630"/>
    <nd ref="308123631"/>
    <nd ref="308123632"/>
    <nd ref="308123633"/>
    <nd ref="308123635"/>
    <nd ref="308123636"/>
    <nd ref="308123637"/>
    <nd ref="308123437"/>
    <tag k="highway" v="residential"/>
    <tag k="maxspeed" v="50"/>
    <tag k="maxspeed:source" v="default residential speed limit in Australia"/>
    <tag k="name" v="Crusoe Drive"/>
  </way>
  <way id="28060727" version="4" timestamp="2012-01-17T09:50:42Z" uid="147510" user="woodpeck_fixbot" changeset="10415418">
    <nd ref="308123582"/>
    <nd ref="308123629"/>
    <nd ref="308123630"/>
    <nd ref="308123631"/>
    <nd ref="308123632"/>
    <nd ref="308123633"/>
    <nd ref="308123635"/>
    <nd ref="308123636"/>
    <nd ref="308123637"/>
    <nd ref="308123437"/>
    <tag k="highway" v="residential"/>
    <tag k="name" v="Crusoe Drive"/>
  </way>
  <way id="28060747" version="4" timestamp="2010-07-08T19:55:04Z" uid="74617" user="JohnSmith" changeset="5168688">
    <nd ref="308123633"/>
    <nd ref="308123897"/>
    <nd ref="308123898"/>
    <nd ref="308123899"/>
    <nd ref="308123900"/>
    <nd ref="308123901"/>
    <nd ref="308123902"/>
    <nd ref="308123903"/>
    <nd ref="308123904"/>
    <nd ref="308123905"/>
    <nd ref="308123906"/>
    <nd ref="308123907"/>
    <nd ref="308123908"/>
    <nd ref="308123589"/>
    <tag k="highway" v="residential"/>
    <tag k="maxspeed" v="50"/>
    <tag k="maxspeed:source" v="default residential speed limit in Australia"/>
    <tag k="name" v="Laanecoorie Drive"/>
  </way>
  <way id="28060747" version="5" timestamp="2012-01-17T09:50:43Z" uid="147510" user="woodpeck_fixbot" changeset="10415418">
    <nd ref="308123633"/>
    <nd ref="308123897"/>
    <nd ref="308123898"/>
    <nd ref="308123899"/>
    <nd ref="308123900"/>
    <nd ref="308123901"/>
    <nd ref="308123902"/>
    <nd ref="308123903"/>
    <nd ref="308123904"/>
    <nd ref="308123905"/>
    <nd ref="308123906"/>
    <nd ref="308123907"/>
    <nd ref="308123908"/>
    <nd ref="308123589"/>
    <tag k="highway" v="residential"/>
    <tag k="name" v="Laanecoorie Drive"/>
  </way>
  <way id="28060752" version="4" timestamp="2010-07-08T20:00:07Z" uid="74617" user="JohnSmith" changeset="5168688">
    <nd ref="308123629"/>
    <nd ref="308123923"/>
    <nd ref="308123924"/>
    <tag k="highway" v="residential"/>
    <tag k="maxspeed" v="50"/>
    <tag k="maxspeed:source" v="default residential speed limit in Australia"/>
    <tag k="name" v="Weroona Court"/>
  </way>
  <way id="28060752" version="5" timestamp="2012-01-17T09:50:46Z" uid="147510" user="woodpeck_fixbot" changeset="10415418">
    <nd ref="308123629"/>
    <nd ref="308123923"/>
    <nd ref="308123924"/>
    <tag k="highway" v="residential"/>
    <tag k="name" v="Weroona Court"/>
  </way>
  <way id="28060755" version="4" timestamp="2010-07-08T19:56:13Z" uid="74617" user="JohnSmith" changeset="5168688">
    <nd ref="308123631"/>
    <nd ref="308123951"/>
    <tag k="highway" v="residential"/>
    <tag k="maxspeed" v="50"/>
    <tag k="maxspeed:source" v="default residential speed limit in Australia"/>
    <tag k="name" v="Bostock Court"/>
  </way>
  <way id="28060755" version="5" timestamp="2012-01-17T09:50:47Z" uid="147510" user="woodpeck_fixbot" changeset="10415418">
    <nd ref="308123631"/>
    <nd ref="308123951"/>
    <tag k="highway" v="residential"/>
    <tag k="name" v="Bostock Court"/>
  </way>
  <way id="28060757" version="4" timestamp="2010-07-08T20:01:09Z" uid="74617" user="JohnSmith" changeset="5168688">
    <nd ref="308123632"/>
    <nd ref="308123954"/>
    <nd ref="308123955"/>
    <nd ref="308123956"/>
    <tag k="highway" v="residential"/>
    <tag k="maxspeed" v="50"/>
    <tag k="maxspeed:source" v="default residential speed limit in Australia"/>
    <tag k="name" v="Wyangala Court"/>
  </way>
  <way id="28060757" version="5" timestamp="2012-01-17T09:50:50Z" uid="147510" user="woodpeck_fixbot" changeset="10415418">
    <nd ref="308123632"/>
    <nd ref="308123954"/>
    <nd ref="308123955"/>
    <nd ref="308123956"/>
    <tag k="highway" v="residential"/>
    <tag k="name" v="Wyangala Court"/>
  </way>
  <way id="28060764" version="4" timestamp="2010-07-08T19:50:09Z" uid="74617" user="JohnSmith" changeset="5168688">
    <nd ref="308123442"/>
    <nd ref="308123994"/>
    <nd ref="308123995"/>
    <nd ref="308123996"/>
    <nd ref="308123997"/>
    <tag k="highway" v="residential"/>
    <tag k="maxspeed" v="50"/>
    <tag k="maxspeed:source" v="default residential speed limit in Australia"/>
    <tag k="name" v="Marlene Court"/>
  </way>
  <way id="28060764" version="5" timestamp="2012-01-17T09:50:52Z" uid="147510" user="woodpeck_fixbot" changeset="10415418">
    <nd ref="308123442"/>
    <nd ref="308123994"/>
    <nd ref="308123995"/>
    <nd ref="308123996"/>
    <nd ref="308123997"/>
    <tag k="highway" v="residential"/>
    <tag k="name" v="Marlene Court"/>
  </way>
  <way id="28060766" version="4" timestamp="2010-07-08T19:55:23Z" uid="74617" user="JohnSmith" changeset="5168688">
    <nd ref="308123438"/>
    <nd ref="308124002"/>
    <tag k="highway" v="residential"/>
    <tag k="maxspeed" v="50"/>
    <tag k="maxspeed:source" v="default residential speed limit in Australia"/>
    <tag k="name" v="Farmillo Court"/>
  </way>
  <way id="28060766" version="5" timestamp="2012-01-17T09:50:54Z" uid="147510" user="woodpeck_fixbot" changeset="10415418">
    <nd ref="308123438"/>
    <nd ref="308124002"/>
    <tag k="highway" v="residential"/>
    <tag k="name" v="Farmillo Court"/>
  </way>
  <way id="28060774" version="4" timestamp="2010-07-08T19:51:22Z" uid="74617" user="JohnSmith" changeset="5168688">
    <nd ref="308123433"/>
    <nd ref="308124032"/>
    <nd ref="308124033"/>
    <nd ref="308124034"/>
    <nd ref="308124035"/>
    <tag k="highway" v="residential"/>
    <tag k="maxspeed" v="50"/>
    <tag k="maxspeed:source" v="default residential speed limit in Australia"/>
    <tag k="name" v="Jindabyne Court"/>
  </way>
  <way id="28060774" version="5" timestamp="2012-01-17T09:50:55Z" uid="147510" user="woodpeck_fixbot" changeset="10415418">
    <nd ref="308123433"/>
    <nd ref="308124032"/>
    <nd ref="308124033"/>
    <nd ref="308124034"/>
    <nd ref="308124035"/>
    <tag k="highway" v="residential"/>
    <tag k="name" v="Jindabyne Court"/>
  </way>
  <way id="28060776" version="2" timestamp="2010-07-09T03:10:54Z" uid="74617" user="JohnSmith" changeset="5170713">
    <nd ref="308115416"/>
    <nd ref="308124040"/>
    <nd ref="308124041"/>
    <nd ref="308124042"/>
    <tag k="highway" v="residential"/>
    <tag k="maxspeed" v="50"/>
    <tag k="maxspeed:source" v="default residential speed limit in Australia"/>
    <tag k="name" v="Gillies Street"/>
    <tag k="source" v="MMBW"/>
  </way>
  <way id="28060776" version="3" timestamp="2012-01-17T09:50:57Z" uid="147510" user="woodpeck_fixbot" changeset="10415418">
    <nd ref="308115416"/>
    <nd ref="308124040"/>
    <nd ref="308124041"/>
    <nd ref="308124042"/>
    <tag k="highway" v="residential"/>
    <tag k="name" v="Gillies Street"/>
    <tag k="source" v="MMBW"/>
  </way>
  <way id="28060784" version="4" timestamp="2010-07-08T19:50:55Z" uid="74617" user="JohnSmith" changeset="5168688">
    <nd ref="308123443"/>
    <nd ref="308124181"/>
    <nd ref="308124183"/>
    <nd ref="308124184"/>
    <nd ref="308124185"/>
    <tag k="highway" v="residential"/>
    <tag k="maxspeed" v="50"/>
    <tag k="maxspeed:source" v="default residential speed limit in Australia"/>
    <tag k="name" v="McFarlane Court"/>
  </way>
  <way id="28060784" version="5" timestamp="2012-01-17T09:50:59Z" uid="147510" user="woodpeck_fixbot" changeset="10415418">
    <nd ref="308123443"/>
    <nd ref="308124181"/>
    <nd ref="308124183"/>
    <nd ref="308124184"/>
    <nd ref="308124185"/>
    <tag k="highway" v="residential"/>
    <tag k="name" v="McFarlane Court"/>
  </way>
  <way id="28060797" version="4" timestamp="2010-07-08T19:54:06Z" uid="74617" user="JohnSmith" changeset="5168688">
    <nd ref="308123441"/>
    <nd ref="308124333"/>
    <nd ref="308124334"/>
    <nd ref="308124335"/>
    <nd ref="308124336"/>
    <nd ref="308124337"/>
    <nd ref="308124338"/>
    <tag k="highway" v="residential"/>
    <tag k="maxspeed" v="50"/>
    <tag k="maxspeed:source" v="default residential speed limit in Australia"/>
    <tag k="name" v="Nicholas Court"/>
  </way>
  <way id="28060797" version="5" timestamp="2012-01-17T09:51:01Z" uid="147510" user="woodpeck_fixbot" changeset="10415418">
    <nd ref="308123441"/>
    <nd ref="308124333"/>
    <nd ref="308124334"/>
    <nd ref="308124335"/>
    <nd ref="308124336"/>
    <nd ref="308124337"/>
    <nd ref="308124338"/>
    <tag k="highway" v="residential"/>
    <tag k="name" v="Nicholas Court"/>
  </way>
  <way id="28060799" version="4" timestamp="2010-07-08T19:50:19Z" uid="74617" user="JohnSmith" changeset="5168688">
    <nd ref="308123416"/>
    <nd ref="308124353"/>
    <tag k="highway" v="residential"/>
    <tag k="maxspeed" v="50"/>
    <tag k="maxspeed:source" v="default residential speed limit in Australia"/>
    <tag k="name" v="Tullaroop Court"/>
  </way>
  <way id="28060799" version="5" timestamp="2012-01-17T09:51:03Z" uid="147510" user="woodpeck_fixbot" changeset="10415418">
    <nd ref="308123416"/>
    <nd ref="308124353"/>
    <tag k="highway" v="residential"/>
    <tag k="name" v="Tullaroop Court"/>
  </way>
  <way id="28060803" version="5" timestamp="2010-07-08T20:00:57Z" uid="74617" user="JohnSmith" changeset="5168688">
    <nd ref="308123420"/>
    <nd ref="308124384"/>
    <nd ref="308124385"/>
    <nd ref="308124386"/>
    <nd ref="308124387"/>
    <tag k="highway" v="residential"/>
    <tag k="maxspeed" v="50"/>
    <tag k="maxspeed:source" v="default residential speed limit in Australia"/>
    <tag k="name" v="Winneke Court"/>
  </way>
  <way id="28060803" version="6" timestamp="2012-01-17T09:51:05Z" uid="147510" user="woodpeck_fixbot" changeset="10415418">
    <nd ref="308123420"/>
    <nd ref="308124384"/>
    <nd ref="308124385"/>
    <nd ref="308124386"/>
    <nd ref="308124387"/>
    <tag k="highway" v="residential"/>
    <tag k="name" v="Winneke Court"/>
  </way>
  <way id="28060813" version="4" timestamp="2010-07-08T19:54:22Z" uid="74617" user="JohnSmith" changeset="5168688">
    <nd ref="308123423"/>
    <nd ref="308124442"/>
    <nd ref="308124443"/>
    <tag k="highway" v="residential"/>
    <tag k="maxspeed" v="50"/>
    <tag k="maxspeed:source" v="default residential speed limit in Australia"/>
    <tag k="name" v="Newlyn Court"/>
  </way>
  <way id="28060813" version="5" timestamp="2012-01-17T09:51:06Z" uid="147510" user="woodpeck_fixbot" changeset="10415418">
    <nd ref="308123423"/>
    <nd ref="308124442"/>
    <nd ref="308124443"/>
    <tag k="highway" v="residential"/>
    <tag k="name" v="Newlyn Court"/>
  </way>
  <way id="28060814" version="2" timestamp="2010-07-09T03:09:15Z" uid="74617" user="JohnSmith" changeset="5170713">
    <nd ref="308124388"/>
    <nd ref="308124444"/>
    <nd ref="308124445"/>
    <nd ref="308124446"/>
    <tag k="highway" v="residential"/>
    <tag k="maxspeed" v="50"/>
    <tag k="maxspeed:source" v="default residential speed limit in Australia"/>
    <tag k="name" v="Kerferd Street"/>
    <tag k="source" v="MMBW"/>
  </way>
  <way id="28060814" version="3" timestamp="2012-01-17T09:51:07Z" uid="147510" user="woodpeck_fixbot" changeset="10415418">
    <nd ref="308124388"/>
    <nd ref="308124444"/>
    <nd ref="308124445"/>
    <nd ref="308124446"/>
    <tag k="highway" v="residential"/>
    <tag k="name" v="Kerferd Street"/>
    <tag k="source" v="MMBW"/>
  </way>
  <way id="28060817" version="4" timestamp="2010-07-08T19:57:41Z" uid="74617" user="JohnSmith" changeset="5168688">
    <nd ref="308123431"/>
    <nd ref="308124455"/>
    <nd ref="308124456"/>
    <nd ref="308124457"/>
    <tag k="highway" v="residential"/>
    <tag k="maxspeed" v="50"/>
    <tag k="maxspeed:source" v="default residential speed limit in Australia"/>
    <tag k="name" v="Tarago Court"/>
  </way>
  <way id="28060817" version="5" timestamp="2012-01-17T09:51:09Z" uid="147510" user="woodpeck_fixbot" changeset="10415418">
    <nd ref="308123431"/>
    <nd ref="308124455"/>
    <nd ref="308124456"/>
    <nd ref="308124457"/>
    <tag k="highway" v="residential"/>
    <tag k="name" v="Tarago Court"/>
  </way>
  <way id="28060834" version="6" timestamp="2010-07-08T20:01:11Z" uid="74617" user="JohnSmith" changeset="5168688">
    <nd ref="308124461"/>
    <nd ref="308124626"/>
    <nd ref="308124627"/>
    <nd ref="308124628"/>
    <nd ref="308124844"/>
    <nd ref="659758376"/>
    <nd ref="308124629"/>
    <tag k="highway" v="residential"/>
    <tag k="maxspeed" v="50"/>
    <tag k="maxspeed:source" v="default residential speed limit in Australia"/>
    <tag k="name" v="Palmerston Road"/>
  </way>
  <way id="28060834" version="7" timestamp="2012-01-17T09:51:10Z" uid="147510" user="woodpeck_fixbot" changeset="10415418">
    <nd ref="308124461"/>
    <nd ref="308124626"/>
    <nd ref="308124627"/>
    <nd ref="308124628"/>
    <nd ref="308124844"/>
    <nd ref="659758376"/>
    <nd ref="308124629"/>
    <tag k="highway" v="residential"/>
    <tag k="name" v="Palmerston Road"/>
  </way>
  <way id="28060836" version="3" timestamp="2010-07-08T19:51:53Z" uid="74617" user="JohnSmith" changeset="5168688">
    <nd ref="308124626"/>
    <nd ref="308124688"/>
    <tag k="highway" v="residential"/>
    <tag k="maxspeed" v="50"/>
    <tag k="maxspeed:source" v="default residential speed limit in Australia"/>
    <tag k="name" v="marmont Place"/>
  </way>
  <way id="28060836" version="4" timestamp="2012-01-17T09:51:12Z" uid="147510" user="woodpeck_fixbot" changeset="10415418">
    <nd ref="308124626"/>
    <nd ref="308124688"/>
    <tag k="highway" v="residential"/>
    <tag k="name" v="marmont Place"/>
  </way>
  <way id="28060849" version="3" timestamp="2010-07-08T20:01:27Z" uid="74617" user="JohnSmith" changeset="5168688">
    <nd ref="308124627"/>
    <nd ref="308124761"/>
    <nd ref="308124762"/>
    <nd ref="308124763"/>
    <nd ref="308124764"/>
    <nd ref="308124765"/>
    <tag k="highway" v="residential"/>
    <tag k="maxspeed" v="50"/>
    <tag k="maxspeed:source" v="default residential speed limit in Australia"/>
    <tag k="name" v="Constance Close"/>
  </way>
  <way id="28060849" version="4" timestamp="2012-01-17T09:51:13Z" uid="147510" user="woodpeck_fixbot" changeset="10415418">
    <nd ref="308124627"/>
    <nd ref="308124761"/>
    <nd ref="308124762"/>
    <nd ref="308124763"/>
    <nd ref="308124764"/>
    <nd ref="308124765"/>
    <tag k="highway" v="residential"/>
    <tag k="name" v="Constance Close"/>
  </way>
  <way id="28060853" version="3" timestamp="2010-07-08T19:58:58Z" uid="74617" user="JohnSmith" changeset="5168688">
    <nd ref="308124628"/>
    <nd ref="308124824"/>
    <nd ref="308123424"/>
    <tag k="highway" v="residential"/>
    <tag k="maxspeed" v="50"/>
    <tag k="maxspeed:source" v="default residential speed limit in Australia"/>
    <tag k="name" v="Kim Bolton Drive"/>
  </way>
  <way id="28060853" version="4" timestamp="2012-01-17T09:51:15Z" uid="147510" user="woodpeck_fixbot" changeset="10415418">
    <nd ref="308124628"/>
    <nd ref="308124824"/>
    <nd ref="308123424"/>
    <tag k="highway" v="residential"/>
    <tag k="name" v="Kim Bolton Drive"/>
  </way>
  <way id="28060867" version="2" timestamp="2010-07-09T03:09:22Z" uid="74617" user="JohnSmith" changeset="5170713">
    <nd ref="308124893"/>
    <nd ref="308124983"/>
    <nd ref="308124985"/>
    <nd ref="308124986"/>
    <tag k="highway" v="residential"/>
    <tag k="maxspeed" v="50"/>
    <tag k="maxspeed:source" v="default residential speed limit in Australia"/>
    <tag k="name" v="Karoola Street"/>
    <tag k="source" v="MMBW"/>
  </way>
  <way id="28060867" version="3" timestamp="2012-01-17T09:51:16Z" uid="147510" user="woodpeck_fixbot" changeset="10415418">
    <nd ref="308124893"/>
    <nd ref="308124983"/>
    <nd ref="308124985"/>
    <nd ref="308124986"/>
    <tag k="highway" v="residential"/>
    <tag k="name" v="Karoola Street"/>
    <tag k="source" v="MMBW"/>
  </way>
  <way id="28060869" version="3" timestamp="2010-07-09T03:06:50Z" uid="74617" user="JohnSmith" changeset="5170713">
    <nd ref="308124985"/>
    <nd ref="308125032"/>
    <nd ref="308125034"/>
    <nd ref="308125035"/>
    <tag k="highway" v="residential"/>
    <tag k="maxspeed" v="50"/>
    <tag k="maxspeed:source" v="default residential speed limit in Australia"/>
    <tag k="name" v="Bayside Crescent"/>
    <tag k="source" v="MMBW"/>
  </way>
  <way id="28060869" version="4" timestamp="2012-01-17T09:51:18Z" uid="147510" user="woodpeck_fixbot" changeset="10415418">
    <nd ref="308124985"/>
    <nd ref="308125032"/>
    <nd ref="308125034"/>
    <nd ref="308125035"/>
    <tag k="highway" v="residential"/>
    <tag k="name" v="Bayside Crescent"/>
    <tag k="source" v="MMBW"/>
  </way>
  <way id="28060893" version="3" timestamp="2010-07-09T03:08:58Z" uid="74617" user="JohnSmith" changeset="5170713">
    <nd ref="308125084"/>
    <nd ref="308127663"/>
    <nd ref="308125252"/>
    <tag k="highway" v="residential"/>
    <tag k="maxspeed" v="50"/>
    <tag k="maxspeed:source" v="default residential speed limit in Australia"/>
    <tag k="name" v="Kyarra Street"/>
    <tag k="source" v="MMBW"/>
  </way>
  <way id="28060893" version="4" timestamp="2012-01-17T09:51:21Z" uid="147510" user="woodpeck_fixbot" changeset="10415418">
    <nd ref="308125084"/>
    <nd ref="308127663"/>
    <nd ref="308125252"/>
    <tag k="highway" v="residential"/>
    <tag k="name" v="Kyarra Street"/>
    <tag k="source" v="MMBW"/>
  </way>
  <way id="28060895" version="2" timestamp="2010-07-08T20:00:49Z" uid="74617" user="JohnSmith" changeset="5168688">
    <nd ref="308124688"/>
    <nd ref="308125263"/>
    <tag k="highway" v="residential"/>
    <tag k="maxspeed" v="50"/>
    <tag k="maxspeed:source" v="default residential speed limit in Australia"/>
  </way>
  <way id="28060895" version="3" timestamp="2012-01-17T09:51:23Z" uid="147510" user="woodpeck_fixbot" changeset="10415418">
    <nd ref="308124688"/>
    <nd ref="308125263"/>
    <tag k="highway" v="residential"/>
  </way>
  <way id="28060902" version="2" timestamp="2010-07-08T19:52:10Z" uid="74617" user="JohnSmith" changeset="5168688">
    <nd ref="308124688"/>
    <nd ref="308125309"/>
    <tag k="highway" v="residential"/>
    <tag k="maxspeed" v="50"/>
    <tag k="maxspeed:source" v="default residential speed limit in Australia"/>
  </way>
  <way id="28060902" version="3" timestamp="2012-01-17T09:51:24Z" uid="147510" user="woodpeck_fixbot" changeset="10415418">
    <nd ref="308124688"/>
    <nd ref="308125309"/>
    <tag k="highway" v="residential"/>
  </way>
  <way id="28060909" version="2" timestamp="2010-07-08T19:51:40Z" uid="74617" user="JohnSmith" changeset="5168688">
    <nd ref="308125335"/>
    <nd ref="308125336"/>
    <nd ref="308125337"/>
    <tag k="highway" v="residential"/>
    <tag k="maxspeed" v="50"/>
    <tag k="maxspeed:source" v="default residential speed limit in Australia"/>
  </way>
  <way id="28060909" version="3" timestamp="2012-01-17T09:51:25Z" uid="147510" user="woodpeck_fixbot" changeset="10415418">
    <nd ref="308125335"/>
    <nd ref="308125336"/>
    <nd ref="308125337"/>
    <tag k="highway" v="residential"/>
  </way>
  <way id="28060938" version="6" timestamp="2010-10-15T18:57:09Z" uid="9581" user="Lobelt" changeset="6051444">
    <nd ref="290395321"/>
    <nd ref="950657782"/>
    <nd ref="306679607"/>
    <nd ref="306679605"/>
    <nd ref="306679602"/>
    <nd ref="306679599"/>
    <nd ref="308125286"/>
    <nd ref="306679598"/>
    <nd ref="306679596"/>
    <nd ref="306679594"/>
    <nd ref="306679592"/>
    <nd ref="306679590"/>
    <nd ref="306679589"/>
    <nd ref="306679587"/>
    <nd ref="306679586"/>
    <nd ref="914342588"/>
    <nd ref="306679584"/>
    <nd ref="306679582"/>
    <nd ref="306679581"/>
    <nd ref="914342674"/>
    <nd ref="306679579"/>
    <nd ref="306679577"/>
    <nd ref="306679576"/>
    <nd ref="306679574"/>
    <nd ref="306679572"/>
    <nd ref="306679571"/>
    <nd ref="306679569"/>
    <nd ref="306679567"/>
    <nd ref="306679566"/>
    <nd ref="306679564"/>
    <nd ref="306679563"/>
    <nd ref="306679561"/>
    <nd ref="306679559"/>
    <nd ref="306679558"/>
    <nd ref="306679556"/>
    <nd ref="306679554"/>
    <nd ref="306679553"/>
    <nd ref="306679551"/>
    <nd ref="306679549"/>
    <nd ref="913115473"/>
    <nd ref="390585586"/>
    <nd ref="913115471"/>
    <nd ref="913115486"/>
    <nd ref="913115480"/>
    <nd ref="913115472"/>
    <nd ref="913115456"/>
    <nd ref="913115478"/>
    <nd ref="308125490"/>
    <nd ref="913115476"/>
    <nd ref="308125491"/>
    <nd ref="308125492"/>
    <nd ref="306679525"/>
    <tag k="highway" v="residential"/>
    <tag k="name" v="Hauptstraße"/>
  </way>
  <way id="28060938" version="7" timestamp="2010-11-25T15:34:15Z" uid="131968" user="changchun_1" changeset="6455388">
    <nd ref="290395321"/>
    <nd ref="950657782"/>
    <tag k="highway" v="residential"/>
    <tag k="name" v="Hauptstraße"/>
  </way>
  <way id="28060938" version="8" timestamp="2012-01-13T09:55:19Z" uid="131968" user="changchun_1" changeset="10376923">
    <nd ref="290395321"/>
    <nd ref="1588210508"/>
    <tag k="highway" v="residential"/>
    <tag k="name" v="Hauptstraße"/>
  </way>
  <way id="28060938" version="9" timestamp="2012-01-13T10:27:30Z" uid="131968" user="changchun_1" changeset="10377133">
    <nd ref="1588225046"/>
    <nd ref="1588210508"/>
    <tag k="highway" v="residential"/>
    <tag k="name" v="Hauptstraße"/>
  </way>
  <way id="28060938" version="10" timestamp="2012-01-23T08:58:17Z" uid="131968" user="changchun_1" changeset="10473240"/>
  <way id="28060955" version="3" timestamp="2010-07-08T19:52:56Z" uid="74617" user="JohnSmith" changeset="5168688">
    <nd ref="308124844"/>
    <nd ref="308125336"/>
    <tag k="highway" v="residential"/>
    <tag k="maxspeed" v="50"/>
    <tag k="maxspeed:source" v="default residential speed limit in Australia"/>
    <tag k="name" v="Palm Court"/>
  </way>
  <way id="28060955" version="4" timestamp="2012-01-17T09:51:27Z" uid="147510" user="woodpeck_fixbot" changeset="10415418">
    <nd ref="308124844"/>
    <nd ref="308125336"/>
    <tag k="highway" v="residential"/>
    <tag k="name" v="Palm Court"/>
  </way>
</osm>
