<?xml version='1.0' encoding='UTF-8'?>
<osm version="0.6" generator="libosmium/2.20.0">
  <way id="28062121" version="1" timestamp="2008-10-28T00:56:10Z" uid="20587" user="balrog-kun" changeset="606345">
    <nd ref="308138959"/>
    <nd ref="308138960"/>
    <nd ref="308138962"/>
    <nd ref="308138964"/>
    <tag k="power" v="line"/>
  </way>
  <way id="28062122" version="1" timestamp="2008-10-28T00:56:11Z" uid="20587" user="balrog-kun" changeset="606345">
    <nd ref="308138966"/>
    <nd ref="308138968"/>
    <nd ref="308138969"/>
    <nd ref="308138971"/>
    <nd ref="308138966"/>
    <tag k="addr:housenumber" v="105"/>
    <tag k="addr:street" v="Racławicka"/>
    <tag k="building" v="yes"/>
  </way>
  <way id="28062122" version="2" timestamp="2009-06-02T10:18:13Z" uid="20587" user="balrog-kun" changeset="1402721">
    <nd ref="308138966"/>
    <nd ref="308138971"/>
    <nd ref="308138969"/>
    <nd ref="308138968"/>
    <nd ref="308138966"/>
    <tag k="addr:housenumber" v="105"/>
    <tag k="addr:street" v="Racławicka"/>
    <tag k="building" v="yes"/>
  </way>
  <way id="28062123" version="1" timestamp="2008-10-28T00:56:11Z" uid="20587" user="balrog-kun" changeset="606345">
    <nd ref="308138973"/>
    <nd ref="308138975"/>
    <nd ref="308138979"/>
    <nd ref="308138977"/>
    <nd ref="308138973"/>
    <tag k="addr:housenumber" v="101"/>
    <tag k="addr:street" v="Racławicka"/>
    <tag k="building" v="yes"/>
  </way>
  <way id="28062123" version="2" timestamp="2009-06-02T10:18:13Z" uid="20587" user="balrog-kun" changeset="1402721">
    <nd ref="308138973"/>
    <nd ref="308138977"/>
    <nd ref="308138979"/>
    <nd ref="308138975"/>
    <nd ref="308138973"/>
    <tag k="addr:housenumber" v="101"/>
    <tag k="addr:street" v="Racławicka"/>
    <tag k="building" v="yes"/>
  </way>
  <way id="28062124" version="1" timestamp="2008-10-28T00:56:11Z" uid="20587" user="balrog-kun" changeset="606345">
    <nd ref="308138981"/>
    <nd ref="308138988"/>
    <nd ref="308138984"/>
    <nd ref="308138983"/>
    <nd ref="308138981"/>
    <tag k="addr:housenumber" v="103"/>
    <tag k="addr:street" v="Racławicka"/>
    <tag k="building" v="yes"/>
  </way>
  <way id="28062124" version="2" timestamp="2009-06-02T10:18:13Z" uid="20587" user="balrog-kun" changeset="1402721">
    <nd ref="308138981"/>
    <nd ref="308138983"/>
    <nd ref="308138984"/>
    <nd ref="308138988"/>
    <nd ref="308138981"/>
    <tag k="addr:housenumber" v="103"/>
    <tag k="addr:street" v="Racławicka"/>
    <tag k="building" v="yes"/>
  </way>
  <way id="28062125" version="1" timestamp="2008-10-28T00:56:11Z" uid="20587" user="balrog-kun" changeset="606345">
    <nd ref="254296462"/>
    <nd ref="308138991"/>
    <tag k="highway" v="pedestrian"/>
  </way>
  <way id="28062126" version="1" timestamp="2008-10-28T00:56:12Z" uid="20587" user="balrog-kun" changeset="606345">
    <nd ref="308138993"/>
    <nd ref="308138995"/>
    <nd ref="308138997"/>
    <nd ref="308138991"/>
    <nd ref="308138999"/>
    <nd ref="308139000"/>
    <tag k="highway" v="footway"/>
  </way>
  <way id="28062126" version="2" timestamp="2010-06-19T17:27:14Z" uid="98542" user="wajak" changeset="5026024">
    <nd ref="308138993"/>
    <nd ref="308138995"/>
    <nd ref="308138997"/>
    <nd ref="308138991"/>
    <nd ref="308138999"/>
    <nd ref="308139000"/>
    <tag k="highway" v="footway"/>
  </way>
  <way id="28062127" version="1" timestamp="2008-10-28T00:56:12Z" uid="20587" user="balrog-kun" changeset="606345">
    <nd ref="308139018"/>
    <nd ref="308139022"/>
    <nd ref="308139024"/>
    <nd ref="308139020"/>
    <nd ref="308139018"/>
    <tag k="building" v="yes"/>
    <tag k="name" v="Narodowy Fundusz Ochrony Środowiska i Gospodarki Wodnej"/>
  </way>
  <way id="28062128" version="1" timestamp="2008-10-28T00:56:12Z" uid="20587" user="balrog-kun" changeset="606345">
    <nd ref="308139025"/>
    <nd ref="308139027"/>
    <nd ref="308139029"/>
    <nd ref="308139030"/>
    <nd ref="308139031"/>
    <nd ref="308139032"/>
    <tag k="highway" v="residential"/>
    <tag k="oneway" v="yes"/>
  </way>
  <way id="28062128" version="2" timestamp="2010-06-19T17:38:10Z" uid="98542" user="wajak" changeset="5026137">
    <nd ref="308139025"/>
    <nd ref="308139027"/>
    <nd ref="308139030"/>
    <nd ref="308139031"/>
    <nd ref="308139032"/>
    <tag k="highway" v="residential"/>
    <tag k="oneway" v="yes"/>
  </way>
  <way id="28062129" version="1" timestamp="2008-10-28T00:56:13Z" uid="20587" user="balrog-kun" changeset="606345">
    <nd ref="247807108"/>
    <nd ref="308139033"/>
    <nd ref="308139034"/>
    <nd ref="308139035"/>
    <nd ref="308139036"/>
    <nd ref="308139037"/>
    <tag k="railway" v="tram"/>
  </way>
  <way id="28062129" version="2" timestamp="2011-06-29T00:51:09Z" uid="477744" user="hormel" changeset="8576893"/>
  <way id="28062130" version="1" timestamp="2008-10-28T00:56:14Z" uid="20587" user="balrog-kun" changeset="606345">
    <nd ref="308139045"/>
    <nd ref="308139047"/>
    <tag k="highway" v="service"/>
  </way>
  <way id="28062130" version="2" timestamp="2011-02-09T01:54:02Z" uid="165509" user="koszatek" changeset="7232505">
    <nd ref="1143264116"/>
    <nd ref="308139045"/>
    <nd ref="308139047"/>
    <tag k="highway" v="service"/>
  </way>
  <way id="28062131" version="1" timestamp="2008-10-28T00:56:14Z" uid="20587" user="balrog-kun" changeset="606345">
    <nd ref="308139050"/>
    <nd ref="308139052"/>
    <nd ref="308139054"/>
    <nd ref="308139056"/>
    <nd ref="308139057"/>
    <nd ref="247807110"/>
    <tag k="railway" v="tram"/>
  </way>
  <way id="28062131" version="2" timestamp="2011-06-29T04:49:18Z" uid="477744" user="hormel" changeset="8577471"/>
  <way id="28062132" version="1" timestamp="2008-10-28T00:56:14Z" uid="20587" user="balrog-kun" changeset="606345">
    <nd ref="308139063"/>
    <nd ref="308139067"/>
    <nd ref="308139069"/>
    <nd ref="308139065"/>
    <nd ref="308139063"/>
    <tag k="power" v="sub_station"/>
  </way>
  <way id="28062132" version="2" timestamp="2012-02-20T09:00:47Z" uid="598860" user="Marek-M" changeset="10738271"/>
  <way id="28062133" version="1" timestamp="2008-10-28T00:56:15Z" uid="20587" user="balrog-kun" changeset="606345">
    <nd ref="308139081"/>
    <nd ref="308139083"/>
    <nd ref="308139084"/>
    <nd ref="308139086"/>
    <nd ref="308139038"/>
    <nd ref="308139061"/>
    <nd ref="308139075"/>
    <tag k="power" v="line"/>
  </way>
  <way id="28062134" version="1" timestamp="2008-10-28T00:56:15Z" uid="20587" user="balrog-kun" changeset="606345">
    <nd ref="308139088"/>
    <nd ref="308139090"/>
    <nd ref="308139092"/>
    <nd ref="308139094"/>
    <nd ref="308139096"/>
    <nd ref="308139098"/>
    <nd ref="308139100"/>
    <nd ref="308139101"/>
    <nd ref="308139103"/>
    <tag k="highway" v="service"/>
  </way>
  <way id="28062135" version="1" timestamp="2008-10-28T00:56:15Z" uid="20587" user="balrog-kun" changeset="606345">
    <nd ref="308139136"/>
    <nd ref="308139138"/>
    <tag k="highway" v="residential"/>
  </way>
  <way id="28062135" version="2" timestamp="2009-01-21T14:22:11Z" uid="20587" user="balrog-kun" changeset="821206">
    <nd ref="308139136"/>
    <nd ref="308139138"/>
    <tag k="highway" v="residential"/>
    <tag k="name" v="Piłkarska"/>
    <tag k="source:name" v="msi"/>
  </way>
  <way id="28062136" version="1" timestamp="2008-10-28T00:56:15Z" uid="20587" user="balrog-kun" changeset="606345">
    <nd ref="33391575"/>
    <nd ref="33391585"/>
    <tag k="created_by" v="JOSM"/>
    <tag k="highway" v="residential"/>
    <tag k="name" v="Wiktorska"/>
  </way>
  <way id="28062149" version="1" timestamp="2008-10-28T00:59:36Z" uid="36809" user="pfoten_weg_!_" changeset="606679">
    <nd ref="308140309"/>
    <nd ref="32921538"/>
    <nd ref="100261848"/>
    <nd ref="1956241"/>
    <tag k="access" v="destination"/>
    <tag k="created_by" v="RambaZamba"/>
    <tag k="highway" v="residential"/>
    <tag k="layer" v="0"/>
    <tag k="name" v="An der Isar"/>
    <tag k="source" v="survey"/>
    <tag k="surface" v="paved"/>
    <tag k="width" v="5"/>
  </way>
  <way id="28062149" version="2" timestamp="2008-12-10T16:43:44Z" uid="8748" user="ToniE" changeset="295589">
    <nd ref="308140309"/>
    <nd ref="32921538"/>
    <nd ref="100261848"/>
    <nd ref="1956241"/>
    <tag k="access" v="destination"/>
    <tag k="created_by" v="RambaZamba"/>
    <tag k="highway" v="residential"/>
    <tag k="name" v="An der Isar"/>
    <tag k="source" v="survey"/>
    <tag k="surface" v="paved"/>
    <tag k="width" v="5"/>
  </way>
  <way id="28062149" version="3" timestamp="2009-03-27T16:03:52Z" uid="8748" user="ToniE" changeset="862943">
    <nd ref="308140309"/>
    <nd ref="308136879"/>
    <tag k="access" v="destination"/>
    <tag k="created_by" v="RambaZamba"/>
    <tag k="highway" v="residential"/>
    <tag k="name" v="An der Isar"/>
    <tag k="source" v="survey"/>
    <tag k="surface" v="paved"/>
    <tag k="width" v="5"/>
  </way>
  <way id="28062149" version="4" timestamp="2009-03-30T21:07:11Z" uid="36809" user="pfoten_weg_!_" changeset="871597">
    <nd ref="308140309"/>
    <nd ref="308136879"/>
    <tag k="access" v="destination"/>
    <tag k="created_by" v="RambaZamba"/>
    <tag k="highway" v="residential"/>
    <tag k="name" v="An der Isar"/>
    <tag k="source" v="survey"/>
    <tag k="surface" v="paved"/>
    <tag k="width" v="5"/>
  </way>
  <way id="28062149" version="5" timestamp="2009-07-27T21:21:45Z" uid="36809" user="pfoten_weg_!_" changeset="1960036">
    <nd ref="308140309"/>
    <nd ref="308136879"/>
    <tag k="access" v="destination"/>
    <tag k="discovered_by" v="RambaZamba"/>
    <tag k="highway" v="residential"/>
    <tag k="name" v="An der Isar"/>
    <tag k="source" v="survey"/>
    <tag k="surface" v="paved"/>
    <tag k="width" v="5"/>
  </way>
  <way id="28062149" version="6" timestamp="2009-08-30T09:28:48Z" uid="156995" user="HampelZamba" changeset="2310659">
    <nd ref="308140309"/>
    <nd ref="308136879"/>
    <tag k="access" v="destination"/>
    <tag k="highway" v="residential"/>
    <tag k="name" v="An der Isar"/>
    <tag k="source" v="survey"/>
    <tag k="surface" v="paved"/>
    <tag k="width" v="5"/>
  </way>
  <way id="28062149" version="7" timestamp="2009-09-01T10:39:56Z" uid="36809" user="pfoten_weg_!_" changeset="2335754">
    <nd ref="308140309"/>
    <nd ref="308136879"/>
    <tag k="access" v="destination"/>
    <tag k="highway" v="residential"/>
    <tag k="name" v="An der Isar"/>
    <tag k="source" v="survey"/>
    <tag k="surface" v="paved"/>
    <tag k="width" v="5"/>
  </way>
  <way id="28062149" version="8" timestamp="2009-10-13T23:42:42Z" uid="36809" user="pfoten_weg_!_" changeset="2841273">
    <nd ref="308140309"/>
    <nd ref="308136879"/>
    <tag k="access" v="destination"/>
    <tag k="highway" v="residential"/>
    <tag k="name" v="An der Isar"/>
    <tag k="surface" v="paved"/>
    <tag k="width" v="5"/>
  </way>
  <way id="28062149" version="9" timestamp="2012-01-31T15:05:51Z" uid="224490" user="Geo-Tobi" changeset="10550093">
    <nd ref="308140309"/>
    <nd ref="308136879"/>
    <tag k="highway" v="residential"/>
    <tag k="motor_vehicle" v="destination"/>
    <tag k="name" v="An der Isar"/>
    <tag k="surface" v="paved"/>
    <tag k="width" v="5"/>
  </way>
  <way id="28062149" version="10" timestamp="2012-03-21T18:26:04Z" uid="8748" user="ToniE" changeset="11055142"/>
  <way id="28062178" version="1" timestamp="2008-10-28T01:04:13Z" uid="36809" user="pfoten_weg_!_" changeset="606679">
    <nd ref="278521367"/>
    <nd ref="308141772"/>
    <tag k="created_by" v="RambaZamba"/>
    <tag k="highway" v="residential"/>
    <tag k="maxspeed" v="30"/>
    <tag k="name" v="Carusoweg"/>
    <tag k="source" v="survey"/>
    <tag k="width" v="4"/>
  </way>
  <way id="28062178" version="2" timestamp="2009-06-08T12:04:32Z" uid="132988" user="ich-liebe-euch" changeset="1457959">
    <nd ref="278521367"/>
    <nd ref="308141772"/>
    <tag k="highway" v="residential"/>
    <tag k="maxspeed" v="30"/>
    <tag k="name" v="Carusoweg"/>
    <tag k="source" v="survey"/>
    <tag k="width" v="4"/>
  </way>
  <way id="28062178" version="3" timestamp="2009-06-08T13:20:48Z" uid="36809" user="pfoten_weg_!_" changeset="1458721">
    <nd ref="278521367"/>
    <nd ref="308141772"/>
    <tag k="created_by" v="RambaZamba"/>
    <tag k="highway" v="residential"/>
    <tag k="maxspeed" v="30"/>
    <tag k="name" v="Carusoweg"/>
    <tag k="source" v="survey"/>
    <tag k="width" v="4"/>
  </way>
  <way id="28062178" version="4" timestamp="2009-08-14T15:50:55Z" uid="109925" user="WanMil" changeset="2144515">
    <nd ref="278521367"/>
    <nd ref="308141772"/>
    <tag k="highway" v="residential"/>
    <tag k="maxspeed" v="30"/>
    <tag k="name" v="Carusoweg"/>
    <tag k="source" v="survey"/>
    <tag k="width" v="4"/>
  </way>
  <way id="28062178" version="5" timestamp="2009-09-01T10:34:28Z" uid="36809" user="pfoten_weg_!_" changeset="2335754">
    <nd ref="278521367"/>
    <nd ref="308141772"/>
    <tag k="highway" v="residential"/>
    <tag k="maxspeed" v="30"/>
    <tag k="name" v="Carusoweg"/>
    <tag k="source" v="survey"/>
    <tag k="width" v="4"/>
  </way>
  <way id="28062178" version="6" timestamp="2009-10-03T17:42:01Z" uid="179968" user="Ich_hasse_doitsche_OSM-Korinthenkacker" changeset="2727120">
    <nd ref="278521367"/>
    <nd ref="308141772"/>
    <tag k="highway" v="residential"/>
    <tag k="maxspeed" v="30"/>
    <tag k="name" v="Carusoweg"/>
    <tag k="width" v="4"/>
  </way>
  <way id="28062178" version="7" timestamp="2011-11-01T17:07:26Z" uid="344721" user="stumpi80" changeset="9714409">
    <nd ref="278521367"/>
    <nd ref="308141772"/>
    <tag k="bicycle" v="yes"/>
    <tag k="highway" v="residential"/>
    <tag k="maxspeed" v="30"/>
    <tag k="name" v="Carusoweg"/>
    <tag k="smoothness" v="good"/>
    <tag k="surface" v="asphalt"/>
    <tag k="width" v="4"/>
  </way>
  <way id="28062178" version="8" timestamp="2012-01-01T10:20:27Z" uid="11374" user="q_un_go" changeset="10260038"/>
  <way id="28062179" version="1" timestamp="2008-10-28T01:04:14Z" uid="36809" user="pfoten_weg_!_" changeset="606679">
    <nd ref="308141772"/>
    <nd ref="283534650"/>
    <nd ref="278521368"/>
    <tag k="created_by" v="RambaZamba"/>
    <tag k="highway" v="residential"/>
    <tag k="maxspeed" v="30"/>
    <tag k="name" v="Carusoweg"/>
    <tag k="source" v="survey"/>
    <tag k="width" v="5"/>
  </way>
  <way id="28062179" version="2" timestamp="2009-06-08T12:04:33Z" uid="132988" user="ich-liebe-euch" changeset="1457959">
    <nd ref="308141772"/>
    <nd ref="283534650"/>
    <nd ref="278521368"/>
    <tag k="highway" v="residential"/>
    <tag k="maxspeed" v="30"/>
    <tag k="name" v="Carusoweg"/>
    <tag k="source" v="survey"/>
    <tag k="width" v="5"/>
  </way>
  <way id="28062179" version="3" timestamp="2009-06-08T13:20:48Z" uid="36809" user="pfoten_weg_!_" changeset="1458721">
    <nd ref="308141772"/>
    <nd ref="283534650"/>
    <nd ref="278521368"/>
    <tag k="created_by" v="RambaZamba"/>
    <tag k="highway" v="residential"/>
    <tag k="maxspeed" v="30"/>
    <tag k="name" v="Carusoweg"/>
    <tag k="source" v="survey"/>
    <tag k="width" v="5"/>
  </way>
  <way id="28062179" version="4" timestamp="2009-07-23T10:18:39Z" uid="36809" user="pfoten_weg_!_" changeset="1914006">
    <nd ref="308141772"/>
    <nd ref="283534650"/>
    <nd ref="278521368"/>
    <tag k="discovered_by" v="RambaZamba"/>
    <tag k="highway" v="residential"/>
    <tag k="maxspeed" v="30"/>
    <tag k="name" v="Carusoweg"/>
    <tag k="source" v="survey"/>
    <tag k="width" v="5"/>
  </way>
  <way id="28062179" version="5" timestamp="2009-08-14T15:50:44Z" uid="109925" user="WanMil" changeset="2144515">
    <nd ref="308141772"/>
    <nd ref="283534650"/>
    <nd ref="278521368"/>
    <tag k="highway" v="residential"/>
    <tag k="maxspeed" v="30"/>
    <tag k="name" v="Carusoweg"/>
    <tag k="source" v="survey"/>
    <tag k="width" v="5"/>
  </way>
  <way id="28062179" version="6" timestamp="2009-09-01T10:34:38Z" uid="36809" user="pfoten_weg_!_" changeset="2335754">
    <nd ref="308141772"/>
    <nd ref="283534650"/>
    <nd ref="278521368"/>
    <tag k="highway" v="residential"/>
    <tag k="maxspeed" v="30"/>
    <tag k="name" v="Carusoweg"/>
    <tag k="source" v="survey"/>
    <tag k="width" v="5"/>
  </way>
  <way id="28062179" version="7" timestamp="2009-10-03T17:42:02Z" uid="179968" user="Ich_hasse_doitsche_OSM-Korinthenkacker" changeset="2727120">
    <nd ref="308141772"/>
    <nd ref="283534650"/>
    <nd ref="278521368"/>
    <tag k="highway" v="residential"/>
    <tag k="maxspeed" v="30"/>
    <tag k="name" v="Carusoweg"/>
    <tag k="width" v="5"/>
  </way>
  <way id="28062179" version="8" timestamp="2011-11-01T17:07:27Z" uid="344721" user="stumpi80" changeset="9714409">
    <nd ref="308141772"/>
    <nd ref="283534650"/>
    <nd ref="278521368"/>
    <tag k="bicycle" v="yes"/>
    <tag k="highway" v="residential"/>
    <tag k="maxspeed" v="30"/>
    <tag k="name" v="Carusoweg"/>
    <tag k="smoothness" v="good"/>
    <tag k="surface" v="asphalt"/>
    <tag k="width" v="5"/>
  </way>
  <way id="28062179" version="9" timestamp="2012-01-01T10:20:27Z" uid="11374" user="q_un_go" changeset="10260038"/>
  <way id="28062180" version="1" timestamp="2008-10-28T01:04:14Z" uid="36809" user="pfoten_weg_!_" changeset="606679">
    <nd ref="299801733"/>
    <nd ref="283534672"/>
    <tag k="created_by" v="RambaZamba"/>
    <tag k="foot" v="yes"/>
    <tag k="highway" v="footway"/>
    <tag k="source" v="survey"/>
  </way>
  <way id="28062180" version="2" timestamp="2009-06-08T12:04:30Z" uid="132988" user="ich-liebe-euch" changeset="1457959">
    <nd ref="299801733"/>
    <nd ref="283534672"/>
    <tag k="foot" v="yes"/>
    <tag k="highway" v="footway"/>
    <tag k="source" v="survey"/>
  </way>
  <way id="28062180" version="3" timestamp="2009-06-08T13:20:47Z" uid="36809" user="pfoten_weg_!_" changeset="1458721">
    <nd ref="299801733"/>
    <nd ref="283534672"/>
    <tag k="created_by" v="RambaZamba"/>
    <tag k="foot" v="yes"/>
    <tag k="highway" v="footway"/>
    <tag k="source" v="survey"/>
  </way>
  <way id="28062180" version="4" timestamp="2009-06-09T08:35:42Z" uid="36809" user="pfoten_weg_!_" changeset="1466184"/>
  <way id="28062221" version="8" timestamp="2010-07-09T05:47:33Z" uid="74617" user="JohnSmith" changeset="5171128">
    <nd ref="361402906"/>
    <nd ref="380038080"/>
    <nd ref="380038054"/>
    <nd ref="380038067"/>
    <nd ref="282326611"/>
    <nd ref="282326612"/>
    <nd ref="282326613"/>
    <tag k="highway" v="residential"/>
    <tag k="maxspeed" v="50"/>
    <tag k="maxspeed:source" v="default residential speed limit in Australia"/>
    <tag k="name" v="School Avenue"/>
    <tag k="source" v="survey"/>
  </way>
  <way id="28062221" version="9" timestamp="2012-01-17T09:53:41Z" uid="147510" user="woodpeck_fixbot" changeset="10415418">
    <nd ref="361402906"/>
    <nd ref="380038080"/>
    <nd ref="380038054"/>
    <nd ref="380038067"/>
    <nd ref="282326611"/>
    <nd ref="282326612"/>
    <nd ref="282326613"/>
    <tag k="highway" v="residential"/>
    <tag k="name" v="School Avenue"/>
    <tag k="source" v="survey"/>
  </way>
  <way id="28062222" version="4" timestamp="2010-07-09T05:47:41Z" uid="74617" user="JohnSmith" changeset="5171128">
    <nd ref="282326611"/>
    <nd ref="380038060"/>
    <nd ref="282326610"/>
    <tag k="highway" v="residential"/>
    <tag k="maxspeed" v="50"/>
    <tag k="maxspeed:source" v="default residential speed limit in Australia"/>
    <tag k="name" v="Cleeland Street"/>
  </way>
  <way id="28062222" version="5" timestamp="2012-01-17T09:53:42Z" uid="147510" user="woodpeck_fixbot" changeset="10415418">
    <nd ref="282326611"/>
    <nd ref="380038060"/>
    <nd ref="282326610"/>
    <tag k="highway" v="residential"/>
    <tag k="name" v="Cleeland Street"/>
  </way>
</osm>
