<?xml version='1.0' encoding='UTF-8'?>
<osm version="0.6" generator="libosmium/2.20.0">
  <way id="28150001" version="1" timestamp="2008-11-01T18:03:30Z" uid="20587" user="balrog-kun" changeset="650410">
    <nd ref="309180440"/>
    <nd ref="309180382"/>
    <nd ref="309180387"/>
    <nd ref="309180408"/>
    <nd ref="309180440"/>
    <tag k="addr:housenumber" v="16"/>
    <tag k="addr:street" v="Grochowska"/>
    <tag k="building" v="yes"/>
  </way>
  <way id="28150001" version="2" timestamp="2009-02-22T21:46:30Z" uid="20587" user="balrog-kun" changeset="616326">
    <nd ref="309180440"/>
    <nd ref="309180382"/>
    <nd ref="309180387"/>
    <nd ref="309180408"/>
    <nd ref="309180440"/>
    <tag k="addr:housenumber" v="16"/>
    <tag k="addr:street" v="Grochowska"/>
    <tag k="building" v="yes"/>
    <tag k="building:levels" v="2"/>
  </way>
  <way id="28150001" version="3" timestamp="2009-12-01T23:15:03Z" uid="20587" user="balrog-kun" changeset="3268533">
    <nd ref="309180440"/>
    <nd ref="309180382"/>
    <nd ref="309180387"/>
    <nd ref="309180408"/>
    <nd ref="309180440"/>
    <tag k="addr:housenumber" v="14"/>
    <tag k="addr:street" v="Grochowska"/>
    <tag k="building" v="retail"/>
    <tag k="building:levels" v="2"/>
  </way>
  <way id="28150003" version="1" timestamp="2008-11-01T18:03:31Z" uid="20587" user="balrog-kun" changeset="650410">
    <nd ref="309180436"/>
    <nd ref="309180403"/>
    <nd ref="309180399"/>
    <nd ref="309180394"/>
    <nd ref="309180391"/>
    <nd ref="307524556"/>
    <nd ref="309180436"/>
    <tag k="addr:housenumber" v="18"/>
    <tag k="addr:street" v="Grochowska"/>
    <tag k="building" v="yes"/>
  </way>
  <way id="28150003" version="2" timestamp="2009-02-22T21:46:31Z" uid="20587" user="balrog-kun" changeset="616326">
    <nd ref="309180436"/>
    <nd ref="309180403"/>
    <nd ref="309180399"/>
    <nd ref="309180394"/>
    <nd ref="309180391"/>
    <nd ref="307524556"/>
    <nd ref="309180436"/>
    <tag k="addr:housenumber" v="16"/>
    <tag k="addr:street" v="Grochowska"/>
    <tag k="amenity" v="video_rental"/>
    <tag k="building" v="yes"/>
    <tag k="building:levels" v="2"/>
    <tag k="name" v="Beverly Hills"/>
  </way>
  <way id="28150003" version="3" timestamp="2012-01-14T15:26:08Z" uid="78656" user="Walter SchlÃ¶gl" changeset="10388790">
    <nd ref="309180436"/>
    <nd ref="309180403"/>
    <nd ref="309180399"/>
    <nd ref="309180394"/>
    <nd ref="309180391"/>
    <nd ref="307524556"/>
    <nd ref="309180436"/>
    <tag k="addr:housenumber" v="16"/>
    <tag k="addr:street" v="Grochowska"/>
    <tag k="building" v="yes"/>
    <tag k="building:levels" v="2"/>
    <tag k="name" v="Beverly Hills"/>
    <tag k="shop" v="video"/>
  </way>
  <way id="28150005" version="1" timestamp="2008-11-01T18:03:31Z" uid="20587" user="balrog-kun" changeset="650410">
    <nd ref="309180436"/>
    <nd ref="309180440"/>
    <nd ref="309180408"/>
    <nd ref="309180403"/>
    <nd ref="309180436"/>
    <tag k="addr:housenumber" v="16a"/>
    <tag k="addr:street" v="Grochowska"/>
    <tag k="building" v="yes"/>
  </way>
  <way id="28150005" version="2" timestamp="2009-02-22T21:46:29Z" uid="20587" user="balrog-kun" changeset="616326">
    <nd ref="309180436"/>
    <nd ref="309180440"/>
    <nd ref="309180408"/>
    <nd ref="309180403"/>
    <nd ref="309180436"/>
    <tag k="addr:housenumber" v="16a"/>
    <tag k="addr:street" v="Grochowska"/>
    <tag k="building" v="yes"/>
    <tag k="building:levels" v="2"/>
  </way>
  <way id="28150005" version="3" timestamp="2009-12-01T23:15:03Z" uid="20587" user="balrog-kun" changeset="3268533">
    <nd ref="309180436"/>
    <nd ref="577398389"/>
    <nd ref="309180440"/>
    <nd ref="309180408"/>
    <nd ref="577398391"/>
    <nd ref="309180403"/>
    <nd ref="309180436"/>
    <tag k="addr:housenumber" v="16a"/>
    <tag k="addr:street" v="Grochowska"/>
    <tag k="building" v="retail"/>
    <tag k="building:levels" v="2"/>
  </way>
  <way id="28150106" version="6" timestamp="2009-10-02T19:50:16Z" uid="86259" user="hasse_osm_korinthenkacker" changeset="2716821">
    <nd ref="309181732"/>
    <nd ref="287711935"/>
    <nd ref="287711936"/>
    <nd ref="295901845"/>
    <nd ref="287711939"/>
    <nd ref="459083143"/>
    <nd ref="282151695"/>
    <tag k="highway" v="track"/>
    <tag k="name" v="Heidenweg"/>
    <tag k="postal_code" v="83607"/>
  </way>
  <way id="28150106" version="7" timestamp="2011-01-11T19:47:40Z" uid="8748" user="ToniE" changeset="6940618">
    <nd ref="309181732"/>
    <nd ref="287711935"/>
    <nd ref="287711936"/>
    <nd ref="295901845"/>
    <nd ref="287711939"/>
    <nd ref="459083143"/>
    <nd ref="282151695"/>
    <tag k="fixme" v="tracktype"/>
    <tag k="highway" v="track"/>
    <tag k="name" v="Heidenweg"/>
    <tag k="postal_code" v="83607"/>
  </way>
  <way id="28150106" version="8" timestamp="2012-01-25T15:59:09Z" uid="564368" user="gescho" changeset="10494914">
    <nd ref="309181732"/>
    <nd ref="287711935"/>
    <nd ref="287711936"/>
    <nd ref="295901845"/>
    <nd ref="287711939"/>
    <nd ref="459083143"/>
    <nd ref="282151695"/>
    <tag k="fixme" v="tracktype"/>
    <tag k="highway" v="cycleway"/>
    <tag k="name" v="Heidenweg"/>
    <tag k="postal_code" v="83607"/>
  </way>
  <way id="28150108" version="7" timestamp="2009-10-02T19:50:16Z" uid="86259" user="hasse_osm_korinthenkacker" changeset="2716821">
    <nd ref="309181755"/>
    <nd ref="309181732"/>
    <tag k="bridge" v="yes"/>
    <tag k="highway" v="track"/>
    <tag k="layer" v="1"/>
    <tag k="name" v="Heidenweg"/>
  </way>
  <way id="28150108" version="8" timestamp="2011-01-11T19:47:45Z" uid="8748" user="ToniE" changeset="6940618">
    <nd ref="309181755"/>
    <nd ref="309181732"/>
    <tag k="bridge" v="yes"/>
    <tag k="fixme" v="tracktype"/>
    <tag k="highway" v="track"/>
    <tag k="layer" v="1"/>
    <tag k="name" v="Heidenweg"/>
  </way>
  <way id="28150108" version="9" timestamp="2012-02-02T16:24:25Z" uid="564368" user="gescho" changeset="10569051">
    <nd ref="309181755"/>
    <nd ref="309181732"/>
    <tag k="fixme" v="tracktype"/>
    <tag k="highway" v="cycleway"/>
    <tag k="layer" v="-3"/>
    <tag k="name" v="Heidenweg"/>
  </way>
  <way id="28150319" version="3" timestamp="2009-10-02T20:25:43Z" uid="86259" user="hasse_osm_korinthenkacker" changeset="2717291">
    <nd ref="309184214"/>
    <nd ref="309184221"/>
    <nd ref="309184224"/>
    <nd ref="309184228"/>
    <nd ref="309184000"/>
    <tag k="highway" v="service"/>
  </way>
  <way id="28150429" version="1" timestamp="2008-11-01T18:15:13Z" uid="20587" user="balrog-kun" changeset="650410">
    <nd ref="309168356"/>
    <nd ref="309185352"/>
    <nd ref="309185355"/>
    <nd ref="309185361"/>
    <nd ref="309168326"/>
    <nd ref="309185365"/>
    <tag k="power" v="line"/>
  </way>
  <way id="28150429" version="2" timestamp="2009-05-02T21:08:42Z" uid="20587" user="balrog-kun" changeset="1054278">
    <nd ref="309168356"/>
    <nd ref="309185352"/>
    <nd ref="309185355"/>
    <nd ref="309185361"/>
    <nd ref="309168326"/>
    <nd ref="389117063"/>
    <tag k="power" v="line"/>
  </way>
  <way id="28150548" version="12" timestamp="2009-10-02T20:25:44Z" uid="86259" user="hasse_osm_korinthenkacker" changeset="2717291">
    <nd ref="310921837"/>
    <nd ref="310922326"/>
    <nd ref="310921867"/>
    <nd ref="310921869"/>
    <nd ref="310922032"/>
    <nd ref="310921871"/>
    <nd ref="310918839"/>
    <nd ref="310919543"/>
    <nd ref="310918840"/>
    <nd ref="309185966"/>
    <nd ref="309167851"/>
    <tag k="highway" v="service"/>
  </way>
  <way id="28150548" version="13" timestamp="2010-05-08T07:13:28Z" uid="42393" user="mawi42" changeset="4636105">
    <nd ref="310921837"/>
    <nd ref="310922326"/>
    <nd ref="310921867"/>
    <nd ref="310921869"/>
    <nd ref="310922032"/>
    <nd ref="310921871"/>
    <nd ref="310918839"/>
    <nd ref="310919543"/>
    <nd ref="310918840"/>
    <nd ref="309185966"/>
    <nd ref="725903383"/>
    <nd ref="725903384"/>
    <nd ref="309167851"/>
    <tag k="highway" v="service"/>
  </way>
  <way id="28150607" version="5" timestamp="2009-10-02T20:25:42Z" uid="86259" user="hasse_osm_korinthenkacker" changeset="2717291">
    <nd ref="309186714"/>
    <nd ref="309186715"/>
    <nd ref="309186716"/>
    <nd ref="309186717"/>
    <nd ref="309186714"/>
    <tag k="building" v="yes"/>
  </way>
  <way id="28150607" version="6" timestamp="2010-05-08T07:13:28Z" uid="42393" user="mawi42" changeset="4636105">
    <nd ref="309186714"/>
    <nd ref="309186715"/>
    <nd ref="725903403"/>
    <nd ref="725903409"/>
    <nd ref="309186716"/>
    <nd ref="309186717"/>
    <nd ref="309186714"/>
    <tag k="building" v="yes"/>
  </way>
  <way id="28150925" version="3" timestamp="2010-03-28T00:17:36Z" uid="20587" user="balrog-kun" changeset="4250871">
    <nd ref="54528744"/>
    <nd ref="54528748"/>
    <nd ref="54528749"/>
    <nd ref="54528750"/>
    <nd ref="54528751"/>
    <nd ref="54528752"/>
    <nd ref="54528753"/>
    <nd ref="54528754"/>
    <nd ref="54528755"/>
    <nd ref="54528756"/>
    <nd ref="54528757"/>
    <nd ref="54528759"/>
    <nd ref="54528761"/>
    <nd ref="54528763"/>
    <nd ref="54528764"/>
    <nd ref="54528766"/>
    <nd ref="54528768"/>
    <tag k="highway" v="primary"/>
    <tag k="name" v="Barton Road"/>
    <tag k="tiger:cfcc" v="A41"/>
    <tag k="tiger:county" v="San Bernardino, CA"/>
    <tag k="tiger:name_base" v="Barton"/>
    <tag k="tiger:name_type" v="Rd"/>
    <tag k="tiger:reviewed" v="no"/>
    <tag k="tiger:separated" v="no"/>
    <tag k="tiger:source" v="tiger_import_dch_v0.6_20070809"/>
    <tag k="tiger:tlid" v="144732439:144663606:144663609:144967534:144720536:144720537:144663265:145227518:144663280"/>
    <tag k="tiger:zip_left" v="92373"/>
    <tag k="tiger:zip_right" v="92373"/>
  </way>
</osm>
