<?xml version='1.0' encoding='UTF-8'?>
<osm version="0.6" generator="libosmium/2.20.0">
  <way id="28239005" version="3" timestamp="2010-12-11T16:52:42Z" uid="151899" user="Bikeman2000" changeset="6626567">
    <nd ref="310160909"/>
    <nd ref="457019156"/>
    <nd ref="310160910"/>
    <nd ref="1033497432"/>
    <nd ref="1033497593"/>
    <nd ref="457019158"/>
    <nd ref="310160911"/>
    <tag k="highway" v="residential"/>
    <tag k="name" v="Bardelebenstraße"/>
    <tag k="oneway" v="yes"/>
  </way>
  <way id="28239005" version="4" timestamp="2011-11-06T23:32:56Z" uid="18130" user="black_bike" changeset="9761125">
    <nd ref="310160909"/>
    <nd ref="457019156"/>
    <nd ref="310160910"/>
    <nd ref="1033497432"/>
    <nd ref="1033497593"/>
    <nd ref="457019158"/>
    <nd ref="310160911"/>
    <tag k="highway" v="residential"/>
    <tag k="lit" v="yes"/>
    <tag k="lit_by_gaslight" v="yes"/>
    <tag k="maxspeed" v="30"/>
    <tag k="name" v="Bardelebenstraße"/>
    <tag k="oneway" v="yes"/>
    <tag k="surface" v="asphalt"/>
  </way>
  <way id="28239005" version="5" timestamp="2011-11-27T08:36:28Z" uid="173844" user="Antikalk" changeset="9964073">
    <nd ref="310160909"/>
    <nd ref="457019156"/>
    <nd ref="310160910"/>
    <nd ref="1033497432"/>
    <nd ref="1033497593"/>
    <nd ref="457019158"/>
    <nd ref="310160911"/>
    <tag k="highway" v="residential"/>
    <tag k="lit" v="yes"/>
    <tag k="lit_by_gaslight" v="yes"/>
    <tag k="maxspeed" v="30"/>
    <tag k="name" v="Bardelebenstraße"/>
    <tag k="oneway" v="yes"/>
    <tag k="postal_code" v="40545"/>
    <tag k="surface" v="asphalt"/>
  </way>
  <way id="28239005" version="6" timestamp="2011-12-22T07:15:04Z" uid="173844" user="Antikalk" changeset="10177294">
    <nd ref="310160909"/>
    <nd ref="457019156"/>
    <nd ref="310160910"/>
    <nd ref="1557921979"/>
    <nd ref="1557921976"/>
    <nd ref="457019158"/>
    <nd ref="310160911"/>
    <tag k="highway" v="residential"/>
    <tag k="lit" v="yes"/>
    <tag k="lit_by_gaslight" v="yes"/>
    <tag k="maxspeed" v="30"/>
    <tag k="name" v="Bardelebenstraße"/>
    <tag k="oneway" v="yes"/>
    <tag k="postal_code" v="40545"/>
    <tag k="surface" v="asphalt"/>
  </way>
  <way id="28239005" version="7" timestamp="2011-12-26T11:45:27Z" uid="173844" user="Antikalk" changeset="10206384"/>
  <way id="28239012" version="2" timestamp="2010-07-09T03:07:04Z" uid="74617" user="JohnSmith" changeset="5170713">
    <nd ref="310160980"/>
    <nd ref="310160981"/>
    <tag k="highway" v="residential"/>
    <tag k="maxspeed" v="50"/>
    <tag k="maxspeed:source" v="default residential speed limit in Australia"/>
    <tag k="name" v="Agnes Street"/>
    <tag k="source" v="MMBW"/>
  </way>
  <way id="28239012" version="3" timestamp="2012-01-17T11:47:50Z" uid="147510" user="woodpeck_fixbot" changeset="10415418">
    <nd ref="310160980"/>
    <nd ref="310160981"/>
    <tag k="highway" v="residential"/>
    <tag k="name" v="Agnes Street"/>
    <tag k="source" v="MMBW"/>
  </way>
  <way id="28239013" version="2" timestamp="2010-07-09T03:09:24Z" uid="74617" user="JohnSmith" changeset="5170713">
    <nd ref="310160981"/>
    <nd ref="310160983"/>
    <nd ref="310160984"/>
    <nd ref="310160982"/>
    <tag k="highway" v="residential"/>
    <tag k="maxspeed" v="50"/>
    <tag k="maxspeed:source" v="default residential speed limit in Australia"/>
    <tag k="name" v="Herbert Street"/>
    <tag k="source" v="MMBW"/>
  </way>
  <way id="28239013" version="3" timestamp="2012-01-17T11:47:52Z" uid="147510" user="woodpeck_fixbot" changeset="10415418">
    <nd ref="310160981"/>
    <nd ref="310160983"/>
    <nd ref="310160984"/>
    <nd ref="310160982"/>
    <tag k="highway" v="residential"/>
    <tag k="name" v="Herbert Street"/>
    <tag k="source" v="MMBW"/>
  </way>
  <way id="28239014" version="5" timestamp="2010-07-09T03:08:02Z" uid="74617" user="JohnSmith" changeset="5170713">
    <nd ref="310160981"/>
    <nd ref="310161014"/>
    <nd ref="310161052"/>
    <nd ref="310161037"/>
    <nd ref="310160985"/>
    <tag k="highway" v="residential"/>
    <tag k="maxspeed" v="50"/>
    <tag k="maxspeed:source" v="default residential speed limit in Australia"/>
  </way>
  <way id="28239014" version="6" timestamp="2012-01-17T11:47:56Z" uid="147510" user="woodpeck_fixbot" changeset="10415418">
    <nd ref="310160981"/>
    <nd ref="310161014"/>
    <nd ref="310161052"/>
    <nd ref="310161037"/>
    <nd ref="310160985"/>
    <tag k="highway" v="residential"/>
  </way>
  <way id="28239016" version="3" timestamp="2010-07-09T03:06:36Z" uid="74617" user="JohnSmith" changeset="5170713">
    <nd ref="310160985"/>
    <nd ref="310158569"/>
    <tag k="highway" v="residential"/>
    <tag k="maxspeed" v="50"/>
    <tag k="maxspeed:source" v="default residential speed limit in Australia"/>
    <tag k="name" v="John Street"/>
    <tag k="source" v="MMBW"/>
  </way>
  <way id="28239016" version="4" timestamp="2012-01-17T11:47:57Z" uid="147510" user="woodpeck_fixbot" changeset="10415418">
    <nd ref="310160985"/>
    <nd ref="310158569"/>
    <tag k="highway" v="residential"/>
    <tag k="name" v="John Street"/>
    <tag k="source" v="MMBW"/>
  </way>
  <way id="28239017" version="2" timestamp="2010-07-09T03:08:57Z" uid="74617" user="JohnSmith" changeset="5170713">
    <nd ref="310161014"/>
    <nd ref="310161015"/>
    <tag k="highway" v="residential"/>
    <tag k="maxspeed" v="50"/>
    <tag k="maxspeed:source" v="default residential speed limit in Australia"/>
    <tag k="name" v="Emily Street"/>
    <tag k="source" v="MMBW"/>
  </way>
  <way id="28239017" version="3" timestamp="2012-01-17T11:48:03Z" uid="147510" user="woodpeck_fixbot" changeset="10415418">
    <nd ref="310161014"/>
    <nd ref="310161015"/>
    <tag k="highway" v="residential"/>
    <tag k="name" v="Emily Street"/>
    <tag k="source" v="MMBW"/>
  </way>
  <way id="28239019" version="3" timestamp="2010-07-09T03:09:45Z" uid="74617" user="JohnSmith" changeset="5170713">
    <nd ref="310161023"/>
    <nd ref="310161024"/>
    <nd ref="310161051"/>
    <nd ref="310161025"/>
    <nd ref="310161026"/>
    <tag k="highway" v="residential"/>
    <tag k="maxspeed" v="50"/>
    <tag k="maxspeed:source" v="default residential speed limit in Australia"/>
  </way>
  <way id="28239019" version="4" timestamp="2011-10-08T03:21:30Z" uid="472067" user="pringle" changeset="9499016">
    <nd ref="310161026"/>
    <nd ref="1458396910"/>
    <nd ref="310161025"/>
    <nd ref="310161051"/>
    <nd ref="1458396907"/>
    <nd ref="1458396906"/>
    <nd ref="310161024"/>
    <nd ref="1458396909"/>
    <nd ref="310161023"/>
    <tag k="highway" v="service"/>
    <tag k="maxspeed" v="50"/>
    <tag k="maxspeed:source" v="default residential speed limit in Australia"/>
    <tag k="oneway" v="yes"/>
    <tag k="service" v="parking_aisle"/>
  </way>
  <way id="28239019" version="5" timestamp="2011-10-08T03:29:29Z" uid="472067" user="pringle" changeset="9499016">
    <nd ref="310161026"/>
    <nd ref="1458396910"/>
    <nd ref="310161025"/>
    <tag k="highway" v="service"/>
    <tag k="maxspeed" v="50"/>
    <tag k="maxspeed:source" v="default residential speed limit in Australia"/>
    <tag k="oneway" v="yes"/>
    <tag k="service" v="parking_aisle"/>
  </way>
  <way id="28239019" version="6" timestamp="2012-01-17T11:48:14Z" uid="147510" user="woodpeck_fixbot" changeset="10415418">
    <nd ref="310161026"/>
    <nd ref="1458396910"/>
    <nd ref="310161025"/>
    <tag k="highway" v="service"/>
    <tag k="oneway" v="yes"/>
    <tag k="service" v="parking_aisle"/>
  </way>
  <way id="28239023" version="2" timestamp="2010-07-09T03:08:13Z" uid="74617" user="JohnSmith" changeset="5170713">
    <nd ref="310161037"/>
    <nd ref="310161043"/>
    <nd ref="310161044"/>
    <nd ref="310161045"/>
    <nd ref="310161046"/>
    <tag k="highway" v="residential"/>
    <tag k="maxspeed" v="50"/>
    <tag k="maxspeed:source" v="default residential speed limit in Australia"/>
  </way>
  <way id="28239023" version="3" timestamp="2011-10-08T03:21:30Z" uid="472067" user="pringle" changeset="9499016">
    <nd ref="310161037"/>
    <nd ref="310161043"/>
    <nd ref="310161044"/>
    <nd ref="310161045"/>
    <nd ref="1458396915"/>
    <nd ref="310161046"/>
    <tag k="highway" v="residential"/>
    <tag k="maxspeed" v="50"/>
    <tag k="maxspeed:source" v="default residential speed limit in Australia"/>
  </way>
  <way id="28239023" version="4" timestamp="2012-01-17T11:48:16Z" uid="147510" user="woodpeck_fixbot" changeset="10415418">
    <nd ref="310161037"/>
    <nd ref="310161043"/>
    <nd ref="310161044"/>
    <nd ref="310161045"/>
    <nd ref="1458396915"/>
    <nd ref="310161046"/>
    <tag k="highway" v="residential"/>
  </way>
  <way id="28239025" version="2" timestamp="2010-07-09T03:09:48Z" uid="74617" user="JohnSmith" changeset="5170713">
    <nd ref="310161051"/>
    <nd ref="310161052"/>
    <tag k="highway" v="residential"/>
    <tag k="maxspeed" v="50"/>
    <tag k="maxspeed:source" v="default residential speed limit in Australia"/>
  </way>
  <way id="28239025" version="3" timestamp="2012-01-17T11:48:18Z" uid="147510" user="woodpeck_fixbot" changeset="10415418">
    <nd ref="310161051"/>
    <nd ref="310161052"/>
    <tag k="highway" v="residential"/>
  </way>
  <way id="28239028" version="3" timestamp="2010-07-09T03:05:44Z" uid="74617" user="JohnSmith" changeset="5170713">
    <nd ref="310161059"/>
    <nd ref="310161064"/>
    <nd ref="310161065"/>
    <nd ref="310161088"/>
    <nd ref="310161066"/>
    <tag k="highway" v="residential"/>
    <tag k="maxspeed" v="50"/>
    <tag k="maxspeed:source" v="default residential speed limit in Australia"/>
    <tag k="name" v="Victor Street"/>
    <tag k="source" v="MMBW"/>
  </way>
  <way id="28239028" version="4" timestamp="2012-01-17T11:48:20Z" uid="147510" user="woodpeck_fixbot" changeset="10415418">
    <nd ref="310161059"/>
    <nd ref="310161064"/>
    <nd ref="310161065"/>
    <nd ref="310161088"/>
    <nd ref="310161066"/>
    <tag k="highway" v="residential"/>
    <tag k="name" v="Victor Street"/>
    <tag k="source" v="MMBW"/>
  </way>
  <way id="28239032" version="3" timestamp="2010-07-09T03:10:50Z" uid="74617" user="JohnSmith" changeset="5170713">
    <nd ref="310161088"/>
    <nd ref="310161089"/>
    <tag k="highway" v="residential"/>
    <tag k="maxspeed" v="50"/>
    <tag k="maxspeed:source" v="default residential speed limit in Australia"/>
    <tag k="name" v="Hugo Street"/>
  </way>
  <way id="28239032" version="4" timestamp="2012-01-17T11:48:23Z" uid="147510" user="woodpeck_fixbot" changeset="10415418">
    <nd ref="310161088"/>
    <nd ref="310161089"/>
    <tag k="highway" v="residential"/>
    <tag k="name" v="Hugo Street"/>
  </way>
  <way id="28239033" version="4" timestamp="2010-07-09T03:07:46Z" uid="74617" user="JohnSmith" changeset="5170713">
    <nd ref="310161090"/>
    <nd ref="310161132"/>
    <nd ref="310161123"/>
    <nd ref="310161091"/>
    <tag k="highway" v="residential"/>
    <tag k="maxspeed" v="50"/>
    <tag k="maxspeed:source" v="default residential speed limit in Australia"/>
    <tag k="name" v="Hotham Street"/>
    <tag k="source" v="MMBW"/>
  </way>
  <way id="28239033" version="5" timestamp="2012-01-17T11:48:27Z" uid="147510" user="woodpeck_fixbot" changeset="10415418">
    <nd ref="310161090"/>
    <nd ref="310161132"/>
    <nd ref="310161123"/>
    <nd ref="310161091"/>
    <tag k="highway" v="residential"/>
    <tag k="name" v="Hotham Street"/>
    <tag k="source" v="MMBW"/>
  </way>
  <way id="28239038" version="4" timestamp="2010-07-09T03:09:59Z" uid="74617" user="JohnSmith" changeset="5170713">
    <nd ref="310161091"/>
    <nd ref="310161098"/>
    <nd ref="310161100"/>
    <nd ref="310161097"/>
    <tag k="highway" v="residential"/>
    <tag k="maxspeed" v="50"/>
    <tag k="maxspeed:source" v="default residential speed limit in Australia"/>
    <tag k="name" v="Charlotte Road"/>
    <tag k="source" v="MMBW"/>
  </way>
  <way id="28239038" version="5" timestamp="2012-01-17T11:48:29Z" uid="147510" user="woodpeck_fixbot" changeset="10415418">
    <nd ref="310161091"/>
    <nd ref="310161098"/>
    <nd ref="310161100"/>
    <nd ref="310161097"/>
    <tag k="highway" v="residential"/>
    <tag k="name" v="Charlotte Road"/>
    <tag k="source" v="MMBW"/>
  </way>
  <way id="28239039" version="2" timestamp="2010-07-09T03:06:51Z" uid="74617" user="JohnSmith" changeset="5170713">
    <nd ref="310161098"/>
    <nd ref="310161099"/>
    <tag k="highway" v="residential"/>
    <tag k="maxspeed" v="50"/>
    <tag k="maxspeed:source" v="default residential speed limit in Australia"/>
    <tag k="name" v="Rosemary Road"/>
    <tag k="source" v="MMBW"/>
  </way>
  <way id="28239039" version="3" timestamp="2012-01-17T11:48:33Z" uid="147510" user="woodpeck_fixbot" changeset="10415418">
    <nd ref="310161098"/>
    <nd ref="310161099"/>
    <tag k="highway" v="residential"/>
    <tag k="name" v="Rosemary Road"/>
    <tag k="source" v="MMBW"/>
  </way>
  <way id="28239041" version="2" timestamp="2010-07-09T03:08:09Z" uid="74617" user="JohnSmith" changeset="5170713">
    <nd ref="310161100"/>
    <nd ref="310161109"/>
    <tag k="highway" v="residential"/>
    <tag k="maxspeed" v="50"/>
    <tag k="maxspeed:source" v="default residential speed limit in Australia"/>
    <tag k="name" v="Coreen Avenue"/>
    <tag k="source" v="MMBW"/>
  </way>
  <way id="28239041" version="3" timestamp="2012-01-17T11:48:35Z" uid="147510" user="woodpeck_fixbot" changeset="10415418">
    <nd ref="310161100"/>
    <nd ref="310161109"/>
    <tag k="highway" v="residential"/>
    <tag k="name" v="Coreen Avenue"/>
    <tag k="source" v="MMBW"/>
  </way>
  <way id="28239043" version="4" timestamp="2010-07-09T03:08:55Z" uid="74617" user="JohnSmith" changeset="5170713">
    <nd ref="310161120"/>
    <nd ref="310161147"/>
    <nd ref="310161126"/>
    <nd ref="310161121"/>
    <nd ref="310161122"/>
    <tag k="highway" v="residential"/>
    <tag k="maxspeed" v="50"/>
    <tag k="maxspeed:source" v="default residential speed limit in Australia"/>
    <tag k="name" v="Clonmore Street"/>
    <tag k="source" v="MMBW"/>
  </way>
  <way id="28239043" version="5" timestamp="2012-01-17T11:48:43Z" uid="147510" user="woodpeck_fixbot" changeset="10415418">
    <nd ref="310161120"/>
    <nd ref="310161147"/>
    <nd ref="310161126"/>
    <nd ref="310161121"/>
    <nd ref="310161122"/>
    <tag k="highway" v="residential"/>
    <tag k="name" v="Clonmore Street"/>
    <tag k="source" v="MMBW"/>
  </way>
  <way id="28239045" version="2" timestamp="2010-07-09T03:06:20Z" uid="74617" user="JohnSmith" changeset="5170713">
    <nd ref="310161123"/>
    <nd ref="310161126"/>
    <nd ref="310161129"/>
    <nd ref="310161127"/>
    <tag k="highway" v="residential"/>
    <tag k="maxspeed" v="50"/>
    <tag k="maxspeed:source" v="default residential speed limit in Australia"/>
    <tag k="name" v="Hume Street"/>
    <tag k="source" v="MMBW"/>
  </way>
  <way id="28239045" version="3" timestamp="2012-01-17T11:48:45Z" uid="147510" user="woodpeck_fixbot" changeset="10415418">
    <nd ref="310161123"/>
    <nd ref="310161126"/>
    <nd ref="310161129"/>
    <nd ref="310161127"/>
    <tag k="highway" v="residential"/>
    <tag k="name" v="Hume Street"/>
    <tag k="source" v="MMBW"/>
  </way>
  <way id="28239048" version="2" timestamp="2010-07-09T03:09:05Z" uid="74617" user="JohnSmith" changeset="5170713">
    <nd ref="310161132"/>
    <nd ref="310161147"/>
    <nd ref="310161183"/>
    <tag k="highway" v="residential"/>
    <tag k="maxspeed" v="50"/>
    <tag k="maxspeed:source" v="default residential speed limit in Australia"/>
    <tag k="name" v="McNaught Street"/>
    <tag k="source" v="MMBW"/>
  </way>
  <way id="28239048" version="3" timestamp="2012-01-17T11:48:47Z" uid="147510" user="woodpeck_fixbot" changeset="10415418">
    <nd ref="310161132"/>
    <nd ref="310161147"/>
    <nd ref="310161183"/>
    <tag k="highway" v="residential"/>
    <tag k="name" v="McNaught Street"/>
    <tag k="source" v="MMBW"/>
  </way>
  <way id="28239055" version="3" timestamp="2010-04-26T11:09:17Z" uid="4467" user="Rosscoe" changeset="4530663">
    <nd ref="310160982"/>
    <nd ref="310161237"/>
    <nd ref="310161238"/>
    <nd ref="310161239"/>
    <nd ref="310159877"/>
    <nd ref="310161240"/>
    <nd ref="707162048"/>
    <tag k="highway" v="residential"/>
    <tag k="name" v="Griffiths Street"/>
    <tag k="source" v="MMBW"/>
  </way>
  <way id="28239055" version="4" timestamp="2010-07-09T03:10:31Z" uid="74617" user="JohnSmith" changeset="5170713">
    <nd ref="310160982"/>
    <nd ref="310161237"/>
    <nd ref="310161238"/>
    <nd ref="310161239"/>
    <nd ref="310159877"/>
    <nd ref="310161240"/>
    <nd ref="707162048"/>
    <tag k="highway" v="residential"/>
    <tag k="maxspeed" v="50"/>
    <tag k="maxspeed:source" v="default residential speed limit in Australia"/>
    <tag k="name" v="Griffiths Street"/>
    <tag k="source" v="MMBW"/>
  </way>
  <way id="28239055" version="5" timestamp="2012-01-17T11:48:49Z" uid="147510" user="woodpeck_fixbot" changeset="10415418">
    <nd ref="310160982"/>
    <nd ref="310161237"/>
    <nd ref="310161238"/>
    <nd ref="310161239"/>
    <nd ref="310159877"/>
    <nd ref="310161240"/>
    <nd ref="707162048"/>
    <tag k="highway" v="residential"/>
    <tag k="name" v="Griffiths Street"/>
    <tag k="source" v="MMBW"/>
  </way>
  <way id="28239056" version="5" timestamp="2010-07-09T03:09:58Z" uid="74617" user="JohnSmith" changeset="5170713">
    <nd ref="310161240"/>
    <nd ref="310161261"/>
    <nd ref="310161259"/>
    <nd ref="310161241"/>
    <tag k="highway" v="residential"/>
    <tag k="maxspeed" v="50"/>
    <tag k="maxspeed:source" v="default residential speed limit in Australia"/>
    <tag k="name" v="Pellatt Street"/>
    <tag k="source" v="MMBW"/>
  </way>
  <way id="28239056" version="6" timestamp="2012-01-17T11:48:51Z" uid="147510" user="woodpeck_fixbot" changeset="10415418">
    <nd ref="310161240"/>
    <nd ref="310161261"/>
    <nd ref="310161259"/>
    <nd ref="310161241"/>
    <tag k="highway" v="residential"/>
    <tag k="name" v="Pellatt Street"/>
    <tag k="source" v="MMBW"/>
  </way>
  <way id="28239057" version="1" timestamp="2008-11-06T01:02:56Z" uid="36809" user="pfoten_weg_!_" changeset="694346">
    <nd ref="310161244"/>
    <nd ref="310161243"/>
    <nd ref="310161245"/>
    <nd ref="310161242"/>
    <nd ref="310161244"/>
    <tag k="created_by" v="RambaZamba"/>
    <tag k="landuse" v="retail"/>
    <tag k="layer" v="1"/>
    <tag k="name" v="Einkaufszentrum"/>
    <tag k="source" v="survey"/>
  </way>
  <way id="28239057" version="2" timestamp="2008-11-06T01:13:10Z" uid="36809" user="pfoten_weg_!_" changeset="694346"/>
  <way id="28239060" version="3" timestamp="2010-07-09T03:08:24Z" uid="74617" user="JohnSmith" changeset="5170713">
    <nd ref="310161257"/>
    <nd ref="310161259"/>
    <nd ref="310161260"/>
    <tag k="highway" v="residential"/>
    <tag k="maxspeed" v="50"/>
    <tag k="maxspeed:source" v="default residential speed limit in Australia"/>
    <tag k="name" v="Hardy Grove"/>
  </way>
  <way id="28239060" version="4" timestamp="2012-01-17T11:48:53Z" uid="147510" user="woodpeck_fixbot" changeset="10415418">
    <nd ref="310161257"/>
    <nd ref="310161259"/>
    <nd ref="310161260"/>
    <tag k="highway" v="residential"/>
    <tag k="name" v="Hardy Grove"/>
  </way>
  <way id="28239063" version="2" timestamp="2010-07-09T03:05:53Z" uid="74617" user="JohnSmith" changeset="5170713">
    <nd ref="310161272"/>
    <nd ref="310161273"/>
    <nd ref="310161274"/>
    <nd ref="310161275"/>
    <nd ref="310161276"/>
    <nd ref="310161277"/>
    <nd ref="310161278"/>
    <nd ref="310161279"/>
    <nd ref="310161280"/>
    <tag k="highway" v="residential"/>
    <tag k="maxspeed" v="50"/>
    <tag k="maxspeed:source" v="default residential speed limit in Australia"/>
    <tag k="name" v="Folkestone Crescent"/>
  </way>
  <way id="28239063" version="3" timestamp="2012-01-17T11:48:55Z" uid="147510" user="woodpeck_fixbot" changeset="10415418">
    <nd ref="310161272"/>
    <nd ref="310161273"/>
    <nd ref="310161274"/>
    <nd ref="310161275"/>
    <nd ref="310161276"/>
    <nd ref="310161277"/>
    <nd ref="310161278"/>
    <nd ref="310161279"/>
    <nd ref="310161280"/>
    <tag k="highway" v="residential"/>
    <tag k="name" v="Folkestone Crescent"/>
  </way>
  <way id="28239085" version="1" timestamp="2008-11-06T01:13:05Z" uid="36809" user="pfoten_weg_!_" changeset="694346">
    <nd ref="310161919"/>
    <nd ref="310161920"/>
    <nd ref="310161918"/>
    <nd ref="310161921"/>
    <nd ref="310161919"/>
    <tag k="created_by" v="RambaZamba"/>
    <tag k="landuse" v="retail"/>
    <tag k="layer" v="1"/>
    <tag k="name" v="Einkaufszentrum"/>
    <tag k="source" v="survey"/>
  </way>
  <way id="28239085" version="2" timestamp="2009-01-21T16:17:32Z" uid="6808" user="wwwFrank" changeset="820884"/>
  <way id="28239113" version="5" timestamp="2010-07-09T03:08:46Z" uid="74617" user="JohnSmith" changeset="5170713">
    <nd ref="310161275"/>
    <nd ref="310162337"/>
    <nd ref="310162154"/>
    <nd ref="324212369"/>
    <nd ref="310162117"/>
    <tag k="highway" v="residential"/>
    <tag k="maxspeed" v="50"/>
    <tag k="maxspeed:source" v="default residential speed limit in Australia"/>
    <tag k="name" v="Hastings Avenue"/>
    <tag k="source" v="MMBW"/>
  </way>
  <way id="28239113" version="6" timestamp="2012-01-17T11:48:57Z" uid="147510" user="woodpeck_fixbot" changeset="10415418">
    <nd ref="310161275"/>
    <nd ref="310162337"/>
    <nd ref="310162154"/>
    <nd ref="324212369"/>
    <nd ref="310162117"/>
    <tag k="highway" v="residential"/>
    <tag k="name" v="Hastings Avenue"/>
    <tag k="source" v="MMBW"/>
  </way>
  <way id="28239114" version="2" timestamp="2010-07-09T03:07:12Z" uid="74617" user="JohnSmith" changeset="5170713">
    <nd ref="310162137"/>
    <nd ref="310162154"/>
    <tag k="highway" v="residential"/>
    <tag k="maxspeed" v="50"/>
    <tag k="maxspeed:source" v="default residential speed limit in Australia"/>
    <tag k="name" v="Armstrong Street"/>
    <tag k="source" v="MMBW"/>
  </way>
  <way id="28239114" version="3" timestamp="2012-01-17T11:49:02Z" uid="147510" user="woodpeck_fixbot" changeset="10415418">
    <nd ref="310162137"/>
    <nd ref="310162154"/>
    <tag k="highway" v="residential"/>
    <tag k="name" v="Armstrong Street"/>
    <tag k="source" v="MMBW"/>
  </way>
  <way id="28239116" version="3" timestamp="2010-07-09T03:10:08Z" uid="74617" user="JohnSmith" changeset="5170713">
    <nd ref="310162154"/>
    <nd ref="310162568"/>
    <nd ref="310162313"/>
    <tag k="highway" v="residential"/>
    <tag k="maxspeed" v="50"/>
    <tag k="maxspeed:source" v="default residential speed limit in Australia"/>
    <tag k="name" v="Scarborough Grove"/>
    <tag k="source" v="MMBW"/>
  </way>
  <way id="28239116" version="4" timestamp="2012-01-17T11:49:03Z" uid="147510" user="woodpeck_fixbot" changeset="10415418">
    <nd ref="310162154"/>
    <nd ref="310162568"/>
    <nd ref="310162313"/>
    <tag k="highway" v="residential"/>
    <tag k="name" v="Scarborough Grove"/>
    <tag k="source" v="MMBW"/>
  </way>
  <way id="28239119" version="2" timestamp="2010-07-09T03:07:58Z" uid="74617" user="JohnSmith" changeset="5170713">
    <nd ref="310162326"/>
    <nd ref="310162337"/>
    <tag k="highway" v="residential"/>
    <tag k="maxspeed" v="50"/>
    <tag k="maxspeed:source" v="default residential speed limit in Australia"/>
    <tag k="name" v="Douglas Street"/>
    <tag k="source" v="MMBW"/>
  </way>
  <way id="28239119" version="3" timestamp="2012-01-17T11:49:07Z" uid="147510" user="woodpeck_fixbot" changeset="10415418">
    <nd ref="310162326"/>
    <nd ref="310162337"/>
    <tag k="highway" v="residential"/>
    <tag k="name" v="Douglas Street"/>
    <tag k="source" v="MMBW"/>
  </way>
  <way id="28239122" version="2" timestamp="2010-07-09T03:08:14Z" uid="74617" user="JohnSmith" changeset="5170713">
    <nd ref="310161277"/>
    <nd ref="310162568"/>
    <nd ref="310162569"/>
    <tag k="highway" v="residential"/>
    <tag k="maxspeed" v="50"/>
    <tag k="maxspeed:source" v="default residential speed limit in Australia"/>
    <tag k="name" v="Margate Street"/>
    <tag k="source" v="MMBW"/>
  </way>
  <way id="28239122" version="3" timestamp="2012-01-17T11:49:11Z" uid="147510" user="woodpeck_fixbot" changeset="10415418">
    <nd ref="310161277"/>
    <nd ref="310162568"/>
    <nd ref="310162569"/>
    <tag k="highway" v="residential"/>
    <tag k="name" v="Margate Street"/>
    <tag k="source" v="MMBW"/>
  </way>
  <way id="28239189" version="3" timestamp="2010-07-09T03:07:24Z" uid="74617" user="JohnSmith" changeset="5170713">
    <nd ref="310163378"/>
    <nd ref="310163437"/>
    <tag k="highway" v="residential"/>
    <tag k="maxspeed" v="50"/>
    <tag k="maxspeed:source" v="default residential speed limit in Australia"/>
    <tag k="name" v="Gray Court"/>
    <tag k="source" v="MMBW"/>
  </way>
  <way id="28239189" version="4" timestamp="2012-01-17T11:49:14Z" uid="147510" user="woodpeck_fixbot" changeset="10415418">
    <nd ref="310163378"/>
    <nd ref="310163437"/>
    <tag k="highway" v="residential"/>
    <tag k="name" v="Gray Court"/>
    <tag k="source" v="MMBW"/>
  </way>
  <way id="28239205" version="14" timestamp="2010-04-26T12:12:37Z" uid="4467" user="Rosscoe" changeset="4531219">
    <nd ref="310163765"/>
    <nd ref="310163862"/>
    <nd ref="310163888"/>
    <nd ref="310163809"/>
    <nd ref="31655743"/>
    <nd ref="310163766"/>
    <nd ref="310163909"/>
    <nd ref="707239295"/>
    <tag k="highway" v="residential"/>
    <tag k="name" v="Keating Street"/>
    <tag k="source" v="MMBW"/>
  </way>
  <way id="28239205" version="15" timestamp="2010-07-09T03:05:31Z" uid="74617" user="JohnSmith" changeset="5170713">
    <nd ref="310163765"/>
    <nd ref="310163862"/>
    <nd ref="310163888"/>
    <nd ref="310163809"/>
    <nd ref="31655743"/>
    <nd ref="310163766"/>
    <nd ref="310163909"/>
    <nd ref="707239295"/>
    <tag k="highway" v="residential"/>
    <tag k="maxspeed" v="50"/>
    <tag k="maxspeed:source" v="default residential speed limit in Australia"/>
    <tag k="name" v="Keating Street"/>
    <tag k="source" v="MMBW"/>
  </way>
  <way id="28239205" version="16" timestamp="2012-01-17T11:49:17Z" uid="147510" user="woodpeck_fixbot" changeset="10415418">
    <nd ref="310163765"/>
    <nd ref="310163862"/>
    <nd ref="310163888"/>
    <nd ref="310163809"/>
    <nd ref="31655743"/>
    <nd ref="310163766"/>
    <nd ref="310163909"/>
    <nd ref="707239295"/>
    <tag k="highway" v="residential"/>
    <tag k="name" v="Keating Street"/>
    <tag k="source" v="MMBW"/>
  </way>
  <way id="28239210" version="3" timestamp="2010-07-09T03:09:10Z" uid="74617" user="JohnSmith" changeset="5170713">
    <nd ref="310163503"/>
    <nd ref="310163512"/>
    <tag k="highway" v="residential"/>
    <tag k="maxspeed" v="50"/>
    <tag k="maxspeed:source" v="default residential speed limit in Australia"/>
    <tag k="name" v="Page Street"/>
    <tag k="source" v="MMBW"/>
  </way>
  <way id="28239210" version="4" timestamp="2012-01-17T11:49:20Z" uid="147510" user="woodpeck_fixbot" changeset="10415418">
    <nd ref="310163503"/>
    <nd ref="310163512"/>
    <tag k="highway" v="residential"/>
    <tag k="name" v="Page Street"/>
    <tag k="source" v="MMBW"/>
  </way>
  <way id="28239220" version="5" timestamp="2010-07-09T03:07:36Z" uid="74617" user="JohnSmith" changeset="5170713">
    <nd ref="310163513"/>
    <nd ref="737091757"/>
    <nd ref="310163516"/>
    <nd ref="310163512"/>
    <tag k="highway" v="residential"/>
    <tag k="maxspeed" v="50"/>
    <tag k="maxspeed:source" v="default residential speed limit in Australia"/>
    <tag k="name" v="Bruce Street"/>
    <tag k="source" v="MMBW"/>
  </way>
  <way id="28239220" version="6" timestamp="2012-01-17T11:49:26Z" uid="147510" user="woodpeck_fixbot" changeset="10415418">
    <nd ref="310163513"/>
    <nd ref="737091757"/>
    <nd ref="310163516"/>
    <nd ref="310163512"/>
    <tag k="highway" v="residential"/>
    <tag k="name" v="Bruce Street"/>
    <tag k="source" v="MMBW"/>
  </way>
  <way id="28239222" version="3" timestamp="2010-07-09T03:08:28Z" uid="74617" user="JohnSmith" changeset="5170713">
    <nd ref="310163512"/>
    <nd ref="310163517"/>
    <nd ref="310163518"/>
    <nd ref="310163519"/>
    <nd ref="310163520"/>
    <nd ref="310163521"/>
    <nd ref="310163522"/>
    <nd ref="310163523"/>
    <tag k="highway" v="residential"/>
    <tag k="maxspeed" v="50"/>
    <tag k="maxspeed:source" v="default residential speed limit in Australia"/>
    <tag k="name" v="Coronet Grove"/>
    <tag k="source" v="MMBW"/>
  </way>
  <way id="28239222" version="4" timestamp="2012-01-17T11:49:32Z" uid="147510" user="woodpeck_fixbot" changeset="10415418">
    <nd ref="310163512"/>
    <nd ref="310163517"/>
    <nd ref="310163518"/>
    <nd ref="310163519"/>
    <nd ref="310163520"/>
    <nd ref="310163521"/>
    <nd ref="310163522"/>
    <nd ref="310163523"/>
    <tag k="highway" v="residential"/>
    <tag k="name" v="Coronet Grove"/>
    <tag k="source" v="MMBW"/>
  </way>
  <way id="28239226" version="2" timestamp="2010-07-09T03:08:03Z" uid="74617" user="JohnSmith" changeset="5170713">
    <nd ref="310163527"/>
    <nd ref="310163529"/>
    <tag k="highway" v="residential"/>
    <tag k="maxspeed" v="50"/>
    <tag k="maxspeed:source" v="default residential speed limit in Australia"/>
    <tag k="name" v="Wellington Avenue"/>
    <tag k="source" v="MMBW"/>
  </way>
  <way id="28239226" version="3" timestamp="2012-01-17T11:49:38Z" uid="147510" user="woodpeck_fixbot" changeset="10415418">
    <nd ref="310163527"/>
    <nd ref="310163529"/>
    <tag k="highway" v="residential"/>
    <tag k="name" v="Wellington Avenue"/>
    <tag k="source" v="MMBW"/>
  </way>
  <way id="28239235" version="2" timestamp="2010-07-09T03:07:16Z" uid="74617" user="JohnSmith" changeset="5170713">
    <nd ref="310163552"/>
    <nd ref="310163554"/>
    <tag k="highway" v="residential"/>
    <tag k="maxspeed" v="50"/>
    <tag k="maxspeed:source" v="default residential speed limit in Australia"/>
    <tag k="name" v="Surf Avenue"/>
    <tag k="source" v="MMBW"/>
  </way>
  <way id="28239235" version="3" timestamp="2012-01-17T11:49:44Z" uid="147510" user="woodpeck_fixbot" changeset="10415418">
    <nd ref="310163552"/>
    <nd ref="310163554"/>
    <tag k="highway" v="residential"/>
    <tag k="name" v="Surf Avenue"/>
    <tag k="source" v="MMBW"/>
  </way>
  <way id="28239245" version="5" timestamp="2010-04-26T12:12:52Z" uid="4467" user="Rosscoe" changeset="4531219">
    <nd ref="310163593"/>
    <nd ref="310163887"/>
    <nd ref="707239065"/>
    <tag k="highway" v="residential"/>
    <tag k="name" v="Central Avenue"/>
    <tag k="source" v="MMBW"/>
  </way>
  <way id="28239245" version="6" timestamp="2010-07-09T03:08:14Z" uid="74617" user="JohnSmith" changeset="5170713">
    <nd ref="310163593"/>
    <nd ref="310163887"/>
    <nd ref="707239065"/>
    <tag k="highway" v="residential"/>
    <tag k="maxspeed" v="50"/>
    <tag k="maxspeed:source" v="default residential speed limit in Australia"/>
    <tag k="name" v="Central Avenue"/>
    <tag k="source" v="MMBW"/>
  </way>
  <way id="28239245" version="7" timestamp="2012-01-17T11:49:50Z" uid="147510" user="woodpeck_fixbot" changeset="10415418">
    <nd ref="310163593"/>
    <nd ref="310163887"/>
    <nd ref="707239065"/>
    <tag k="highway" v="residential"/>
    <tag k="name" v="Central Avenue"/>
    <tag k="source" v="MMBW"/>
  </way>
  <way id="28239248" version="3" timestamp="2010-04-26T12:12:53Z" uid="4467" user="Rosscoe" changeset="4531219">
    <nd ref="310163597"/>
    <nd ref="310163602"/>
    <nd ref="707239117"/>
    <tag k="highway" v="residential"/>
    <tag k="name" v="Fifth Street"/>
    <tag k="source" v="MMBW"/>
  </way>
  <way id="28239248" version="4" timestamp="2010-07-09T03:08:27Z" uid="74617" user="JohnSmith" changeset="5170713">
    <nd ref="310163597"/>
    <nd ref="310163602"/>
    <nd ref="707239117"/>
    <tag k="highway" v="residential"/>
    <tag k="maxspeed" v="50"/>
    <tag k="maxspeed:source" v="default residential speed limit in Australia"/>
    <tag k="name" v="Fifth Street"/>
    <tag k="source" v="MMBW"/>
  </way>
  <way id="28239248" version="5" timestamp="2012-01-17T11:50:03Z" uid="147510" user="woodpeck_fixbot" changeset="10415418">
    <nd ref="310163597"/>
    <nd ref="310163602"/>
    <nd ref="707239117"/>
    <tag k="highway" v="residential"/>
    <tag k="name" v="Fifth Street"/>
    <tag k="source" v="MMBW"/>
  </way>
  <way id="28239250" version="2" timestamp="2010-07-09T03:09:12Z" uid="74617" user="JohnSmith" changeset="5170713">
    <nd ref="30616776"/>
    <nd ref="310163601"/>
    <nd ref="310163602"/>
    <tag k="highway" v="residential"/>
    <tag k="maxspeed" v="50"/>
    <tag k="maxspeed:source" v="default residential speed limit in Australia"/>
    <tag k="name" v="McGregor Avenue"/>
    <tag k="source" v="MMBW"/>
  </way>
  <way id="28239250" version="3" timestamp="2012-01-17T11:50:37Z" uid="147510" user="woodpeck_fixbot" changeset="10415418">
    <nd ref="30616776"/>
    <nd ref="310163601"/>
    <nd ref="310163602"/>
    <tag k="highway" v="residential"/>
    <tag k="name" v="McGregor Avenue"/>
    <tag k="source" v="MMBW"/>
  </way>
  <way id="28239252" version="3" timestamp="2010-07-09T03:06:41Z" uid="74617" user="JohnSmith" changeset="5170713">
    <nd ref="310163502"/>
    <nd ref="310163554"/>
    <nd ref="310163527"/>
    <nd ref="310163503"/>
    <nd ref="310163504"/>
    <tag k="highway" v="residential"/>
    <tag k="maxspeed" v="50"/>
    <tag k="maxspeed:source" v="default residential speed limit in Australia"/>
    <tag k="name" v="Stawell Street"/>
    <tag k="source" v="MMBW"/>
  </way>
  <way id="28239252" version="4" timestamp="2012-01-17T11:50:50Z" uid="147510" user="woodpeck_fixbot" changeset="10415418">
    <nd ref="310163502"/>
    <nd ref="310163554"/>
    <nd ref="310163527"/>
    <nd ref="310163503"/>
    <nd ref="310163504"/>
    <tag k="highway" v="residential"/>
    <tag k="name" v="Stawell Street"/>
    <tag k="source" v="MMBW"/>
  </way>
  <way id="28239253" version="2" timestamp="2010-07-09T03:09:00Z" uid="74617" user="JohnSmith" changeset="5170713">
    <nd ref="310163766"/>
    <nd ref="310163767"/>
    <tag k="highway" v="residential"/>
    <tag k="maxspeed" v="50"/>
    <tag k="maxspeed:source" v="default residential speed limit in Australia"/>
    <tag k="name" v="Hornby Street"/>
    <tag k="source" v="MMBW"/>
  </way>
  <way id="28239253" version="3" timestamp="2012-01-17T11:51:01Z" uid="147510" user="woodpeck_fixbot" changeset="10415418">
    <nd ref="310163766"/>
    <nd ref="310163767"/>
    <tag k="highway" v="residential"/>
    <tag k="name" v="Hornby Street"/>
    <tag k="source" v="MMBW"/>
  </way>
  <way id="28239255" version="3" timestamp="2010-04-26T12:12:40Z" uid="4467" user="Rosscoe" changeset="4531219">
    <nd ref="310163555"/>
    <nd ref="310163556"/>
    <nd ref="310163557"/>
    <nd ref="707239124"/>
    <tag k="highway" v="tertiary"/>
    <tag k="name" v="Fourth Street"/>
    <tag k="source" v="MMBW"/>
  </way>
  <way id="28239255" version="4" timestamp="2010-05-17T03:35:04Z" uid="201443" user="stevage" changeset="4725130">
    <nd ref="310163555"/>
    <nd ref="310163556"/>
    <nd ref="737092655"/>
    <nd ref="310163557"/>
    <nd ref="707239124"/>
    <tag k="highway" v="tertiary"/>
    <tag k="name" v="Fourth Street"/>
    <tag k="source" v="MMBW"/>
  </way>
  <way id="28239255" version="5" timestamp="2010-05-17T03:35:16Z" uid="201443" user="stevage" changeset="4725130">
    <nd ref="310163555"/>
    <nd ref="310163556"/>
    <nd ref="737092751"/>
    <nd ref="737092655"/>
    <nd ref="310163557"/>
    <nd ref="707239124"/>
    <tag k="highway" v="tertiary"/>
    <tag k="name" v="Fourth Street"/>
    <tag k="source" v="MMBW"/>
  </way>
  <way id="28239255" version="6" timestamp="2010-05-17T03:35:25Z" uid="201443" user="stevage" changeset="4725130">
    <nd ref="310163555"/>
    <nd ref="310163556"/>
    <nd ref="737092841"/>
    <nd ref="737092751"/>
    <nd ref="737092655"/>
    <nd ref="310163557"/>
    <nd ref="707239124"/>
    <tag k="highway" v="tertiary"/>
    <tag k="name" v="Fourth Street"/>
    <tag k="source" v="MMBW"/>
  </way>
  <way id="28239261" version="3" timestamp="2010-07-09T03:06:51Z" uid="74617" user="JohnSmith" changeset="5170713">
    <nd ref="310163809"/>
    <nd ref="310163859"/>
    <nd ref="310163860"/>
    <nd ref="310163883"/>
    <nd ref="310163861"/>
    <tag k="highway" v="residential"/>
    <tag k="maxspeed" v="50"/>
    <tag k="maxspeed:source" v="default residential speed limit in Australia"/>
    <tag k="name" v="Hilton Street"/>
    <tag k="source" v="MMBW"/>
  </way>
  <way id="28239261" version="4" timestamp="2012-01-17T11:51:04Z" uid="147510" user="woodpeck_fixbot" changeset="10415418">
    <nd ref="310163809"/>
    <nd ref="310163859"/>
    <nd ref="310163860"/>
    <nd ref="310163883"/>
    <nd ref="310163861"/>
    <tag k="highway" v="residential"/>
    <tag k="name" v="Hilton Street"/>
    <tag k="source" v="MMBW"/>
  </way>
  <way id="28239262" version="3" timestamp="2010-07-09T03:10:51Z" uid="74617" user="JohnSmith" changeset="5170713">
    <nd ref="310163862"/>
    <nd ref="310163863"/>
    <nd ref="310163866"/>
    <nd ref="310163864"/>
    <nd ref="310163865"/>
    <tag k="highway" v="residential"/>
    <tag k="maxspeed" v="50"/>
    <tag k="maxspeed:source" v="default residential speed limit in Australia"/>
    <tag k="name" v="Bolton Street"/>
    <tag k="source" v="MMBW"/>
  </way>
  <way id="28239262" version="4" timestamp="2012-01-17T11:51:12Z" uid="147510" user="woodpeck_fixbot" changeset="10415418">
    <nd ref="310163862"/>
    <nd ref="310163863"/>
    <nd ref="310163866"/>
    <nd ref="310163864"/>
    <nd ref="310163865"/>
    <tag k="highway" v="residential"/>
    <tag k="name" v="Bolton Street"/>
    <tag k="source" v="MMBW"/>
  </way>
  <way id="28239266" version="2" timestamp="2010-07-09T03:07:27Z" uid="74617" user="JohnSmith" changeset="5170713">
    <nd ref="310163866"/>
    <nd ref="310163883"/>
    <tag k="highway" v="residential"/>
    <tag k="maxspeed" v="50"/>
    <tag k="maxspeed:source" v="default residential speed limit in Australia"/>
    <tag k="name" v="Bolton Street"/>
    <tag k="source" v="MMBW"/>
  </way>
  <way id="28239266" version="3" timestamp="2012-01-17T11:51:17Z" uid="147510" user="woodpeck_fixbot" changeset="10415418">
    <nd ref="310163866"/>
    <nd ref="310163883"/>
    <tag k="highway" v="residential"/>
    <tag k="name" v="Bolton Street"/>
    <tag k="source" v="MMBW"/>
  </way>
  <way id="28239268" version="2" timestamp="2010-07-09T03:10:20Z" uid="74617" user="JohnSmith" changeset="5170713">
    <nd ref="310163886"/>
    <nd ref="310163887"/>
    <nd ref="310163888"/>
    <tag k="highway" v="residential"/>
    <tag k="maxspeed" v="50"/>
    <tag k="maxspeed:source" v="default residential speed limit in Australia"/>
    <tag k="name" v="First Street"/>
    <tag k="source" v="MMBW"/>
  </way>
  <way id="28239268" version="3" timestamp="2012-01-17T11:51:20Z" uid="147510" user="woodpeck_fixbot" changeset="10415418">
    <nd ref="310163886"/>
    <nd ref="310163887"/>
    <nd ref="310163888"/>
    <tag k="highway" v="residential"/>
    <tag k="name" v="First Street"/>
    <tag k="source" v="MMBW"/>
  </way>
  <way id="28239271" version="2" timestamp="2010-07-09T03:08:11Z" uid="74617" user="JohnSmith" changeset="5170713">
    <nd ref="310163897"/>
    <nd ref="310163908"/>
    <nd ref="310163909"/>
    <tag k="highway" v="residential"/>
    <tag k="maxspeed" v="50"/>
    <tag k="maxspeed:source" v="default residential speed limit in Australia"/>
    <tag k="name" v="Third Street"/>
    <tag k="source" v="MMBW"/>
  </way>
  <way id="28239271" version="3" timestamp="2012-01-17T11:51:23Z" uid="147510" user="woodpeck_fixbot" changeset="10415418">
    <nd ref="310163897"/>
    <nd ref="310163908"/>
    <nd ref="310163909"/>
    <tag k="highway" v="residential"/>
    <tag k="name" v="Third Street"/>
    <tag k="source" v="MMBW"/>
  </way>
  <way id="28239271" version="4" timestamp="2012-01-28T08:27:43Z" uid="221032" user="thekingoffoxes" changeset="10518709">
    <nd ref="310163897"/>
    <nd ref="310163908"/>
    <nd ref="1608337045"/>
    <nd ref="310163909"/>
    <tag k="highway" v="residential"/>
    <tag k="name" v="Third Street"/>
    <tag k="source" v="MMBW"/>
  </way>
  <way id="28239290" version="3" timestamp="2010-07-09T03:09:32Z" uid="74617" user="JohnSmith" changeset="5170713">
    <nd ref="310164027"/>
    <nd ref="310164425"/>
    <nd ref="310164032"/>
    <tag k="highway" v="residential"/>
    <tag k="maxspeed" v="50"/>
    <tag k="maxspeed:source" v="default residential speed limit in Australia"/>
    <tag k="name" v="Stanley Street"/>
    <tag k="source" v="MMBW"/>
  </way>
  <way id="28239290" version="4" timestamp="2010-08-21T08:37:08Z" uid="320632" user="Zulu99" changeset="5549830">
    <nd ref="310164027"/>
    <nd ref="871694523"/>
    <nd ref="310164425"/>
    <nd ref="310164032"/>
    <tag k="highway" v="residential"/>
    <tag k="maxspeed" v="50"/>
    <tag k="maxspeed:source" v="default residential speed limit in Australia"/>
    <tag k="name" v="Stanley Street"/>
    <tag k="source" v="MMBW"/>
  </way>
  <way id="28239290" version="5" timestamp="2012-01-17T11:51:26Z" uid="147510" user="woodpeck_fixbot" changeset="10415418">
    <nd ref="310164027"/>
    <nd ref="871694523"/>
    <nd ref="310164425"/>
    <nd ref="310164032"/>
    <tag k="highway" v="residential"/>
    <tag k="name" v="Stanley Street"/>
    <tag k="source" v="MMBW"/>
  </way>
  <way id="28239297" version="6" timestamp="2010-07-09T03:05:47Z" uid="74617" user="JohnSmith" changeset="5170713">
    <nd ref="310164064"/>
    <nd ref="310164412"/>
    <nd ref="31657253"/>
    <nd ref="310164907"/>
    <nd ref="310164032"/>
    <nd ref="310164077"/>
    <tag k="highway" v="residential"/>
    <tag k="maxspeed" v="50"/>
    <tag k="maxspeed:source" v="default residential speed limit in Australia"/>
    <tag k="name" v="Iluka Street"/>
    <tag k="source" v="MMBW"/>
  </way>
  <way id="28239297" version="7" timestamp="2012-01-17T11:51:28Z" uid="147510" user="woodpeck_fixbot" changeset="10415418">
    <nd ref="310164064"/>
    <nd ref="310164412"/>
    <nd ref="31657253"/>
    <nd ref="310164907"/>
    <nd ref="310164032"/>
    <nd ref="310164077"/>
    <tag k="highway" v="residential"/>
    <tag k="name" v="Iluka Street"/>
    <tag k="source" v="MMBW"/>
  </way>
  <way id="28239344" version="2" timestamp="2010-07-09T03:10:14Z" uid="74617" user="JohnSmith" changeset="5170713">
    <nd ref="310164336"/>
    <nd ref="310164356"/>
    <nd ref="310164357"/>
    <nd ref="310164358"/>
    <nd ref="310164359"/>
    <nd ref="310164360"/>
    <tag k="highway" v="residential"/>
    <tag k="maxspeed" v="50"/>
    <tag k="maxspeed:source" v="default residential speed limit in Australia"/>
    <tag k="name" v="Prospect Grove"/>
    <tag k="source" v="MMBW"/>
  </way>
  <way id="28239344" version="3" timestamp="2012-01-17T11:51:34Z" uid="147510" user="woodpeck_fixbot" changeset="10415418">
    <nd ref="310164336"/>
    <nd ref="310164356"/>
    <nd ref="310164357"/>
    <nd ref="310164358"/>
    <nd ref="310164359"/>
    <nd ref="310164360"/>
    <tag k="highway" v="residential"/>
    <tag k="name" v="Prospect Grove"/>
    <tag k="source" v="MMBW"/>
  </way>
  <way id="28239346" version="3" timestamp="2010-07-09T03:05:33Z" uid="74617" user="JohnSmith" changeset="5170713">
    <nd ref="310164361"/>
    <nd ref="310164366"/>
    <nd ref="310164424"/>
    <nd ref="310164425"/>
    <tag k="highway" v="residential"/>
    <tag k="maxspeed" v="50"/>
    <tag k="maxspeed:source" v="default residential speed limit in Australia"/>
    <tag k="name" v="Cullinane Street"/>
    <tag k="source" v="MMBW"/>
  </way>
  <way id="28239346" version="4" timestamp="2012-01-17T11:51:36Z" uid="147510" user="woodpeck_fixbot" changeset="10415418">
    <nd ref="310164361"/>
    <nd ref="310164366"/>
    <nd ref="310164424"/>
    <nd ref="310164425"/>
    <tag k="highway" v="residential"/>
    <tag k="name" v="Cullinane Street"/>
    <tag k="source" v="MMBW"/>
  </way>
  <way id="28239349" version="2" timestamp="2010-07-09T03:10:53Z" uid="74617" user="JohnSmith" changeset="5170713">
    <nd ref="310164367"/>
    <nd ref="310164377"/>
    <tag k="highway" v="residential"/>
    <tag k="maxspeed" v="50"/>
    <tag k="maxspeed:source" v="default residential speed limit in Australia"/>
    <tag k="name" v="Champion Street"/>
    <tag k="source" v="MMBW"/>
  </way>
  <way id="28239349" version="3" timestamp="2012-01-17T11:51:42Z" uid="147510" user="woodpeck_fixbot" changeset="10415418">
    <nd ref="310164367"/>
    <nd ref="310164377"/>
    <tag k="highway" v="residential"/>
    <tag k="name" v="Champion Street"/>
    <tag k="source" v="MMBW"/>
  </way>
  <way id="28239352" version="2" timestamp="2010-07-09T03:08:16Z" uid="74617" user="JohnSmith" changeset="5170713">
    <nd ref="310164378"/>
    <nd ref="310164383"/>
    <tag k="highway" v="residential"/>
    <tag k="maxspeed" v="50"/>
    <tag k="maxspeed:source" v="default residential speed limit in Australia"/>
    <tag k="name" v="Hunter Avenue"/>
    <tag k="source" v="MMBW"/>
  </way>
  <way id="28239352" version="3" timestamp="2012-01-17T11:51:43Z" uid="147510" user="woodpeck_fixbot" changeset="10415418">
    <nd ref="310164378"/>
    <nd ref="310164383"/>
    <tag k="highway" v="residential"/>
    <tag k="name" v="Hunter Avenue"/>
    <tag k="source" v="MMBW"/>
  </way>
  <way id="28239358" version="2" timestamp="2010-07-09T03:07:19Z" uid="74617" user="JohnSmith" changeset="5170713">
    <nd ref="310164412"/>
    <nd ref="310164414"/>
    <tag k="highway" v="residential"/>
    <tag k="maxspeed" v="50"/>
    <tag k="maxspeed:source" v="default residential speed limit in Australia"/>
    <tag k="name" v="Woodall Street"/>
    <tag k="source" v="MMBW"/>
  </way>
  <way id="28239358" version="3" timestamp="2012-01-17T11:51:46Z" uid="147510" user="woodpeck_fixbot" changeset="10415418">
    <nd ref="310164412"/>
    <nd ref="310164414"/>
    <tag k="highway" v="residential"/>
    <tag k="name" v="Woodall Street"/>
    <tag k="source" v="MMBW"/>
  </way>
  <way id="28239361" version="4" timestamp="2010-07-09T03:08:44Z" uid="74617" user="JohnSmith" changeset="5170713">
    <nd ref="310164077"/>
    <nd ref="310164442"/>
    <nd ref="310164439"/>
    <tag k="highway" v="residential"/>
    <tag k="maxspeed" v="50"/>
    <tag k="maxspeed:source" v="default residential speed limit in Australia"/>
    <tag k="name" v="Ardoyne Street"/>
    <tag k="source" v="MMBW"/>
  </way>
  <way id="28239361" version="5" timestamp="2010-08-21T08:37:06Z" uid="320632" user="Zulu99" changeset="5549830">
    <nd ref="310164077"/>
    <nd ref="871694513"/>
    <nd ref="310164442"/>
    <nd ref="310164439"/>
    <tag k="highway" v="residential"/>
    <tag k="maxspeed" v="50"/>
    <tag k="maxspeed:source" v="default residential speed limit in Australia"/>
    <tag k="name" v="Ardoyne Street"/>
    <tag k="source" v="MMBW"/>
  </way>
  <way id="28239361" version="6" timestamp="2012-01-17T11:51:51Z" uid="147510" user="woodpeck_fixbot" changeset="10415418">
    <nd ref="310164077"/>
    <nd ref="871694513"/>
    <nd ref="310164442"/>
    <nd ref="310164439"/>
    <tag k="highway" v="residential"/>
    <tag k="name" v="Ardoyne Street"/>
    <tag k="source" v="MMBW"/>
  </way>
  <way id="28239362" version="3" timestamp="2010-07-09T03:07:10Z" uid="74617" user="JohnSmith" changeset="5170713">
    <nd ref="31657247"/>
    <nd ref="31657248"/>
    <tag k="highway" v="residential"/>
    <tag k="maxspeed" v="50"/>
    <tag k="maxspeed:source" v="default residential speed limit in Australia"/>
    <tag k="name" v="Arranmore Avenue"/>
  </way>
  <way id="28239362" version="4" timestamp="2012-01-17T11:51:57Z" uid="147510" user="woodpeck_fixbot" changeset="10415418">
    <nd ref="31657247"/>
    <nd ref="31657248"/>
    <tag k="highway" v="residential"/>
    <tag k="name" v="Arranmore Avenue"/>
  </way>
  <way id="28239368" version="4" timestamp="2010-07-09T03:09:41Z" uid="74617" user="JohnSmith" changeset="5170713">
    <nd ref="310164442"/>
    <nd ref="310164446"/>
    <nd ref="310164447"/>
    <nd ref="31657248"/>
    <nd ref="310164450"/>
    <nd ref="31657229"/>
    <tag k="highway" v="residential"/>
    <tag k="maxspeed" v="50"/>
    <tag k="maxspeed:source" v="default residential speed limit in Australia"/>
    <tag k="name" v="Links Street"/>
    <tag k="source" v="MMBW"/>
  </way>
  <way id="28239368" version="5" timestamp="2012-01-17T11:51:59Z" uid="147510" user="woodpeck_fixbot" changeset="10415418">
    <nd ref="310164442"/>
    <nd ref="310164446"/>
    <nd ref="310164447"/>
    <nd ref="31657248"/>
    <nd ref="310164450"/>
    <nd ref="31657229"/>
    <tag k="highway" v="residential"/>
    <tag k="name" v="Links Street"/>
    <tag k="source" v="MMBW"/>
  </way>
  <way id="28239371" version="3" timestamp="2009-04-15T06:00:25Z" uid="6975" user="ulfl" changeset="553994">
    <nd ref="310164459"/>
    <nd ref="310164460"/>
    <nd ref="310164461"/>
    <nd ref="310164462"/>
    <nd ref="310164459"/>
    <tag k="building" v="yes"/>
    <tag k="tourism" v="motel"/>
  </way>
  <way id="28239371" version="4" timestamp="2011-02-27T18:50:38Z" uid="55774" user="nmixter" changeset="7413943">
    <nd ref="310164459"/>
    <nd ref="310164460"/>
    <nd ref="310164461"/>
    <nd ref="310164462"/>
    <nd ref="310164459"/>
    <tag k="addr:city" v="San Benito County"/>
    <tag k="addr:county" v="San Benito County"/>
    <tag k="addr:housenumber" v="1"/>
    <tag k="addr:postcode" v="1 Bolsa Rd, Hollister, CA 95023"/>
    <tag k="addr:street" v="Bolsa Rd"/>
    <tag k="building" v="yes"/>
    <tag k="sbc_apn" v="0533800020"/>
    <tag k="sbc_id" v="12359"/>
    <tag k="sbc_parcel" v="053 380 002"/>
    <tag k="tourism" v="motel"/>
  </way>
  <way id="28239373" version="3" timestamp="2010-07-09T03:10:17Z" uid="74617" user="JohnSmith" changeset="5170713">
    <nd ref="31657239"/>
    <nd ref="310164492"/>
    <nd ref="310164463"/>
    <tag k="highway" v="residential"/>
    <tag k="maxspeed" v="50"/>
    <tag k="maxspeed:source" v="default residential speed limit in Australia"/>
    <tag k="name" v="Ferguson Street"/>
    <tag k="source" v="MMBW"/>
  </way>
  <way id="28239373" version="4" timestamp="2012-01-17T11:52:01Z" uid="147510" user="woodpeck_fixbot" changeset="10415418">
    <nd ref="31657239"/>
    <nd ref="310164492"/>
    <nd ref="310164463"/>
    <tag k="highway" v="residential"/>
    <tag k="name" v="Ferguson Street"/>
    <tag k="source" v="MMBW"/>
  </way>
  <way id="28239378" version="2" timestamp="2010-07-09T03:05:52Z" uid="74617" user="JohnSmith" changeset="5170713">
    <nd ref="310164473"/>
    <nd ref="310164478"/>
    <tag k="highway" v="residential"/>
    <tag k="maxspeed" v="50"/>
    <tag k="maxspeed:source" v="default residential speed limit in Australia"/>
    <tag k="name" v="Stanhope Street"/>
    <tag k="source" v="MMBW"/>
  </way>
  <way id="28239378" version="3" timestamp="2012-01-17T11:52:03Z" uid="147510" user="woodpeck_fixbot" changeset="10415418">
    <nd ref="310164473"/>
    <nd ref="310164478"/>
    <tag k="highway" v="residential"/>
    <tag k="name" v="Stanhope Street"/>
    <tag k="source" v="MMBW"/>
  </way>
  <way id="28239382" version="2" timestamp="2010-07-09T03:09:45Z" uid="74617" user="JohnSmith" changeset="5170713">
    <nd ref="310164479"/>
    <nd ref="310164491"/>
    <tag k="highway" v="residential"/>
    <tag k="maxspeed" v="50"/>
    <tag k="maxspeed:source" v="default residential speed limit in Australia"/>
    <tag k="name" v="Munro Street"/>
    <tag k="source" v="MMBW"/>
  </way>
  <way id="28239382" version="3" timestamp="2012-01-17T11:52:06Z" uid="147510" user="woodpeck_fixbot" changeset="10415418">
    <nd ref="310164479"/>
    <nd ref="310164491"/>
    <tag k="highway" v="residential"/>
    <tag k="name" v="Munro Street"/>
    <tag k="source" v="MMBW"/>
  </way>
  <way id="28239386" version="3" timestamp="2010-07-09T03:09:19Z" uid="74617" user="JohnSmith" changeset="5170713">
    <nd ref="310164494"/>
    <nd ref="310164503"/>
    <tag k="highway" v="residential"/>
    <tag k="maxspeed" v="50"/>
    <tag k="maxspeed:source" v="default residential speed limit in Australia"/>
    <tag k="name" v="Heather Grove"/>
    <tag k="source" v="MMBW"/>
  </way>
  <way id="28239386" version="4" timestamp="2012-01-17T11:52:10Z" uid="147510" user="woodpeck_fixbot" changeset="10415418">
    <nd ref="310164494"/>
    <nd ref="310164503"/>
    <tag k="highway" v="residential"/>
    <tag k="name" v="Heather Grove"/>
    <tag k="source" v="MMBW"/>
  </way>
  <way id="28239409" version="4" timestamp="2010-07-09T03:09:53Z" uid="74617" user="JohnSmith" changeset="5170713">
    <nd ref="310164907"/>
    <nd ref="310164932"/>
    <nd ref="310164944"/>
    <nd ref="310164912"/>
    <tag k="highway" v="residential"/>
    <tag k="maxspeed" v="50"/>
    <tag k="maxspeed:source" v="default residential speed limit in Australia"/>
    <tag k="name" v="Fairleigh Avenue"/>
    <tag k="source" v="MMBW"/>
  </way>
  <way id="28239409" version="5" timestamp="2012-01-17T11:52:17Z" uid="147510" user="woodpeck_fixbot" changeset="10415418">
    <nd ref="310164907"/>
    <nd ref="310164932"/>
    <nd ref="310164944"/>
    <nd ref="310164912"/>
    <tag k="highway" v="residential"/>
    <tag k="name" v="Fairleigh Avenue"/>
    <tag k="source" v="MMBW"/>
  </way>
  <way id="28239413" version="2" timestamp="2010-07-09T03:08:20Z" uid="74617" user="JohnSmith" changeset="5170713">
    <nd ref="310164925"/>
    <nd ref="310164932"/>
    <tag k="highway" v="residential"/>
    <tag k="maxspeed" v="50"/>
    <tag k="maxspeed:source" v="default residential speed limit in Australia"/>
    <tag k="name" v="Summerhill Road"/>
    <tag k="source" v="MMBW"/>
  </way>
  <way id="28239413" version="3" timestamp="2012-01-17T11:52:19Z" uid="147510" user="woodpeck_fixbot" changeset="10415418">
    <nd ref="310164925"/>
    <nd ref="310164932"/>
    <tag k="highway" v="residential"/>
    <tag k="name" v="Summerhill Road"/>
    <tag k="source" v="MMBW"/>
  </way>
  <way id="28239416" version="2" timestamp="2010-07-09T03:10:54Z" uid="74617" user="JohnSmith" changeset="5170713">
    <nd ref="31655755"/>
    <nd ref="310164941"/>
    <nd ref="310164942"/>
    <nd ref="310164943"/>
    <nd ref="310164944"/>
    <tag k="highway" v="residential"/>
    <tag k="maxspeed" v="50"/>
    <tag k="maxspeed:source" v="default residential speed limit in Australia"/>
    <tag k="name" v="Hepburn Avenue"/>
    <tag k="source" v="MMBW"/>
  </way>
  <way id="28239416" version="3" timestamp="2012-01-17T11:52:22Z" uid="147510" user="woodpeck_fixbot" changeset="10415418">
    <nd ref="31655755"/>
    <nd ref="310164941"/>
    <nd ref="310164942"/>
    <nd ref="310164943"/>
    <nd ref="310164944"/>
    <tag k="highway" v="residential"/>
    <tag k="name" v="Hepburn Avenue"/>
    <tag k="source" v="MMBW"/>
  </way>
  <way id="28239417" version="2" timestamp="2010-07-09T03:07:51Z" uid="74617" user="JohnSmith" changeset="5170713">
    <nd ref="310164912"/>
    <nd ref="310164945"/>
    <tag k="highway" v="residential"/>
    <tag k="maxspeed" v="50"/>
    <tag k="maxspeed:source" v="default residential speed limit in Australia"/>
    <tag k="name" v="Mary Street"/>
    <tag k="source" v="MMBW"/>
  </way>
  <way id="28239417" version="3" timestamp="2012-01-17T11:52:24Z" uid="147510" user="woodpeck_fixbot" changeset="10415418">
    <nd ref="310164912"/>
    <nd ref="310164945"/>
    <tag k="highway" v="residential"/>
    <tag k="name" v="Mary Street"/>
    <tag k="source" v="MMBW"/>
  </way>
  <way id="28239419" version="3" timestamp="2010-07-09T03:08:42Z" uid="74617" user="JohnSmith" changeset="5170713">
    <nd ref="310164946"/>
    <nd ref="310164958"/>
    <nd ref="310164959"/>
    <tag k="highway" v="residential"/>
    <tag k="maxspeed" v="50"/>
    <tag k="maxspeed:source" v="default residential speed limit in Australia"/>
    <tag k="name" v="Balcombe Park Lane"/>
  </way>
  <way id="28239419" version="4" timestamp="2012-01-17T11:52:30Z" uid="147510" user="woodpeck_fixbot" changeset="10415418">
    <nd ref="310164946"/>
    <nd ref="310164958"/>
    <nd ref="310164959"/>
    <tag k="highway" v="residential"/>
    <tag k="name" v="Balcombe Park Lane"/>
  </way>
  <way id="28239433" version="8" timestamp="2010-04-26T12:12:38Z" uid="4467" user="Rosscoe" changeset="4531219">
    <nd ref="310165027"/>
    <nd ref="310165067"/>
    <nd ref="310165084"/>
    <nd ref="707239123"/>
    <tag k="highway" v="residential"/>
    <tag k="name" v="Morey Street"/>
    <tag k="source" v="MMBW"/>
  </way>
  <way id="28239433" version="9" timestamp="2010-07-09T03:05:56Z" uid="74617" user="JohnSmith" changeset="5170713">
    <nd ref="310165027"/>
    <nd ref="310165067"/>
    <nd ref="310165084"/>
    <nd ref="707239123"/>
    <tag k="highway" v="residential"/>
    <tag k="maxspeed" v="50"/>
    <tag k="maxspeed:source" v="default residential speed limit in Australia"/>
    <tag k="name" v="Morey Street"/>
    <tag k="source" v="MMBW"/>
  </way>
  <way id="28239433" version="10" timestamp="2012-01-17T11:52:31Z" uid="147510" user="woodpeck_fixbot" changeset="10415418">
    <nd ref="310165027"/>
    <nd ref="310165067"/>
    <nd ref="310165084"/>
    <nd ref="707239123"/>
    <tag k="highway" v="residential"/>
    <tag k="name" v="Morey Street"/>
    <tag k="source" v="MMBW"/>
  </way>
  <way id="28239436" version="2" timestamp="2010-07-09T03:07:34Z" uid="74617" user="JohnSmith" changeset="5170713">
    <nd ref="310165060"/>
    <nd ref="310165067"/>
    <tag k="highway" v="residential"/>
    <tag k="maxspeed" v="50"/>
    <tag k="maxspeed:source" v="default residential speed limit in Australia"/>
    <tag k="name" v="Scott Street"/>
    <tag k="source" v="MMBW"/>
  </way>
  <way id="28239436" version="3" timestamp="2010-12-09T00:55:58Z" uid="381544" user="havok" changeset="6591310">
    <nd ref="310165060"/>
    <nd ref="310165067"/>
    <tag k="highway" v="residential"/>
    <tag k="maxspeed" v="50"/>
    <tag k="maxspeed:source" v="default residential speed limit in Australia"/>
    <tag k="name" v="Woff Street"/>
    <tag k="source" v="MMBW"/>
  </way>
  <way id="28239436" version="4" timestamp="2012-01-17T11:52:36Z" uid="147510" user="woodpeck_fixbot" changeset="10415418">
    <nd ref="310165060"/>
    <nd ref="310165067"/>
    <tag k="highway" v="residential"/>
    <tag k="name" v="Woff Street"/>
    <tag k="source" v="MMBW"/>
  </way>
  <way id="28239439" version="2" timestamp="2010-07-09T03:10:38Z" uid="74617" user="JohnSmith" changeset="5170713">
    <nd ref="310165068"/>
    <nd ref="310165084"/>
    <tag k="highway" v="residential"/>
    <tag k="maxspeed" v="50"/>
    <tag k="maxspeed:source" v="default residential speed limit in Australia"/>
    <tag k="name" v="Wood Street"/>
    <tag k="source" v="MMBW"/>
  </way>
  <way id="28239439" version="3" timestamp="2012-01-17T11:52:37Z" uid="147510" user="woodpeck_fixbot" changeset="10415418">
    <nd ref="310165068"/>
    <nd ref="310165084"/>
    <tag k="highway" v="residential"/>
    <tag k="name" v="Wood Street"/>
    <tag k="source" v="MMBW"/>
  </way>
  <way id="28239441" version="4" timestamp="2010-04-26T12:12:39Z" uid="4467" user="Rosscoe" changeset="4531219">
    <nd ref="310165085"/>
    <nd ref="707239241"/>
    <tag k="highway" v="residential"/>
    <tag k="name" v="McDonald Street"/>
    <tag k="source" v="MMBW"/>
  </way>
  <way id="28239441" version="5" timestamp="2010-07-09T03:06:53Z" uid="74617" user="JohnSmith" changeset="5170713">
    <nd ref="310165085"/>
    <nd ref="707239241"/>
    <tag k="highway" v="residential"/>
    <tag k="maxspeed" v="50"/>
    <tag k="maxspeed:source" v="default residential speed limit in Australia"/>
    <tag k="name" v="McDonald Street"/>
    <tag k="source" v="MMBW"/>
  </way>
  <way id="28239441" version="6" timestamp="2012-01-17T11:52:40Z" uid="147510" user="woodpeck_fixbot" changeset="10415418">
    <nd ref="310165085"/>
    <nd ref="707239241"/>
    <tag k="highway" v="residential"/>
    <tag k="name" v="McDonald Street"/>
    <tag k="source" v="MMBW"/>
  </way>
  <way id="28239444" version="2" timestamp="2010-07-09T03:08:29Z" uid="74617" user="JohnSmith" changeset="5170713">
    <nd ref="310165092"/>
    <nd ref="310165109"/>
    <tag k="highway" v="residential"/>
    <tag k="maxspeed" v="50"/>
    <tag k="maxspeed:source" v="default residential speed limit in Australia"/>
    <tag k="name" v="Tibbles Street"/>
    <tag k="source" v="MMBW"/>
  </way>
  <way id="28239444" version="3" timestamp="2012-01-17T11:52:43Z" uid="147510" user="woodpeck_fixbot" changeset="10415418">
    <nd ref="310165092"/>
    <nd ref="310165109"/>
    <tag k="highway" v="residential"/>
    <tag k="name" v="Tibbles Street"/>
    <tag k="source" v="MMBW"/>
  </way>
  <way id="28239454" version="2" timestamp="2010-07-09T03:07:06Z" uid="74617" user="JohnSmith" changeset="5170713">
    <nd ref="310165129"/>
    <nd ref="310165136"/>
    <tag k="highway" v="residential"/>
    <tag k="maxspeed" v="50"/>
    <tag k="maxspeed:source" v="default residential speed limit in Australia"/>
    <tag k="name" v="Erowal Street"/>
  </way>
  <way id="28239454" version="3" timestamp="2012-01-17T11:52:45Z" uid="147510" user="woodpeck_fixbot" changeset="10415418">
    <nd ref="310165129"/>
    <nd ref="310165136"/>
    <tag k="highway" v="residential"/>
    <tag k="name" v="Erowal Street"/>
  </way>
  <way id="28239456" version="2" timestamp="2009-03-08T02:18:08Z" uid="20587" user="balrog-kun" changeset="754466">
    <nd ref="310165145"/>
    <nd ref="310165146"/>
    <nd ref="310165147"/>
    <nd ref="310165148"/>
    <nd ref="310165149"/>
    <nd ref="310165150"/>
    <nd ref="310165151"/>
    <nd ref="310165152"/>
    <nd ref="310165145"/>
    <tag k="building" v="yes"/>
    <tag k="created_by" v="Potlatch 0.10f"/>
    <tag k="name" v="The United States Postal Service"/>
  </way>
  <way id="28239456" version="3" timestamp="2009-08-31T23:28:38Z" uid="97431" user="Dion Dock" changeset="2332466">
    <nd ref="310165145"/>
    <nd ref="310165146"/>
    <nd ref="310165147"/>
    <nd ref="310165148"/>
    <nd ref="310165149"/>
    <nd ref="310165150"/>
    <nd ref="310165151"/>
    <nd ref="310165152"/>
    <nd ref="310165145"/>
    <tag k="amenity" v="post_office"/>
    <tag k="building" v="yes"/>
    <tag k="name" v="Portland Post Office"/>
  </way>
  <way id="28239456" version="4" timestamp="2010-03-10T19:31:08Z" uid="20587" user="balrog-kun" changeset="4092594">
    <nd ref="310165145"/>
    <nd ref="310165152"/>
    <nd ref="310165151"/>
    <nd ref="310165150"/>
    <nd ref="310165149"/>
    <nd ref="310165148"/>
    <nd ref="310165147"/>
    <nd ref="310165146"/>
    <nd ref="310165145"/>
    <tag k="amenity" v="post_office"/>
    <tag k="building" v="yes"/>
    <tag k="name" v="Portland Post Office"/>
  </way>
  <way id="28239456" version="5" timestamp="2010-03-22T09:54:02Z" uid="92286" user="Paul Johnson" changeset="4200395">
    <nd ref="310165145"/>
    <nd ref="310165152"/>
    <nd ref="310165151"/>
    <nd ref="310165150"/>
    <nd ref="310165149"/>
    <nd ref="310165148"/>
    <nd ref="310165147"/>
    <nd ref="310165146"/>
    <nd ref="310165145"/>
    <tag k="addr:state" v="OR"/>
    <tag k="amenity" v="post_office"/>
    <tag k="building" v="yes"/>
    <tag k="ele" v="12"/>
    <tag k="gnis:county_id" v="051"/>
    <tag k="gnis:created" v="08/01/1994"/>
    <tag k="gnis:feature_id" v="1164611"/>
    <tag k="name" v="Portland Post Office"/>
  </way>
  <way id="28239456" version="6" timestamp="2012-03-23T03:42:48Z" uid="393906" user="Grant Humphries" changeset="11069966"/>
  <way id="28239457" version="4" timestamp="2010-04-26T12:12:37Z" uid="4467" user="Rosscoe" changeset="4531219">
    <nd ref="707239293"/>
    <nd ref="310165164"/>
    <nd ref="310165153"/>
    <tag k="highway" v="residential"/>
    <tag k="name" v="Glamis Street"/>
    <tag k="source" v="MMBW"/>
  </way>
  <way id="28239457" version="5" timestamp="2010-07-09T03:10:33Z" uid="74617" user="JohnSmith" changeset="5170713">
    <nd ref="707239293"/>
    <nd ref="310165164"/>
    <nd ref="310165153"/>
    <tag k="highway" v="residential"/>
    <tag k="maxspeed" v="50"/>
    <tag k="maxspeed:source" v="default residential speed limit in Australia"/>
    <tag k="name" v="Glamis Street"/>
    <tag k="source" v="MMBW"/>
  </way>
  <way id="28239457" version="6" timestamp="2012-01-17T11:52:47Z" uid="147510" user="woodpeck_fixbot" changeset="10415418">
    <nd ref="707239293"/>
    <nd ref="310165164"/>
    <nd ref="310165153"/>
    <tag k="highway" v="residential"/>
    <tag k="name" v="Glamis Street"/>
    <tag k="source" v="MMBW"/>
  </way>
  <way id="28239458" version="3" timestamp="2010-07-09T03:09:07Z" uid="74617" user="JohnSmith" changeset="5170713">
    <nd ref="310165153"/>
    <nd ref="310165154"/>
    <nd ref="310165155"/>
    <nd ref="310165156"/>
    <tag k="highway" v="residential"/>
    <tag k="maxspeed" v="50"/>
    <tag k="maxspeed:source" v="default residential speed limit in Australia"/>
    <tag k="name" v="Vardoon Avenue"/>
    <tag k="source" v="MMBW"/>
  </way>
  <way id="28239458" version="4" timestamp="2012-01-17T11:52:51Z" uid="147510" user="woodpeck_fixbot" changeset="10415418">
    <nd ref="310165153"/>
    <nd ref="310165154"/>
    <nd ref="310165155"/>
    <nd ref="310165156"/>
    <tag k="highway" v="residential"/>
    <tag k="name" v="Vardoon Avenue"/>
    <tag k="source" v="MMBW"/>
  </way>
  <way id="28239459" version="3" timestamp="2010-04-26T12:12:47Z" uid="4467" user="Rosscoe" changeset="4531219">
    <nd ref="310165156"/>
    <nd ref="707239253"/>
    <tag k="highway" v="residential"/>
    <tag k="name" v="Kirkwood Street"/>
    <tag k="source" v="MMBW"/>
  </way>
  <way id="28239459" version="4" timestamp="2010-07-09T03:05:52Z" uid="74617" user="JohnSmith" changeset="5170713">
    <nd ref="310165156"/>
    <nd ref="707239253"/>
    <tag k="highway" v="residential"/>
    <tag k="maxspeed" v="50"/>
    <tag k="maxspeed:source" v="default residential speed limit in Australia"/>
    <tag k="name" v="Kirkwood Street"/>
    <tag k="source" v="MMBW"/>
  </way>
  <way id="28239459" version="5" timestamp="2012-01-17T11:52:52Z" uid="147510" user="woodpeck_fixbot" changeset="10415418">
    <nd ref="310165156"/>
    <nd ref="707239253"/>
    <tag k="highway" v="residential"/>
    <tag k="name" v="Kirkwood Street"/>
    <tag k="source" v="MMBW"/>
  </way>
  <way id="28239462" version="3" timestamp="2010-04-26T12:12:38Z" uid="4467" user="Rosscoe" changeset="4531219">
    <nd ref="310165164"/>
    <nd ref="707239095"/>
    <tag k="highway" v="residential"/>
    <tag k="name" v="Comas Road"/>
    <tag k="source" v="MMBW"/>
  </way>
  <way id="28239462" version="4" timestamp="2010-07-09T03:07:30Z" uid="74617" user="JohnSmith" changeset="5170713">
    <nd ref="310165164"/>
    <nd ref="707239095"/>
    <tag k="highway" v="residential"/>
    <tag k="maxspeed" v="50"/>
    <tag k="maxspeed:source" v="default residential speed limit in Australia"/>
    <tag k="name" v="Comas Road"/>
    <tag k="source" v="MMBW"/>
  </way>
  <way id="28239462" version="5" timestamp="2012-01-17T11:52:56Z" uid="147510" user="woodpeck_fixbot" changeset="10415418">
    <nd ref="310165164"/>
    <nd ref="707239095"/>
    <tag k="highway" v="residential"/>
    <tag k="name" v="Comas Road"/>
    <tag k="source" v="MMBW"/>
  </way>
  <way id="28239465" version="2" timestamp="2010-07-09T03:08:35Z" uid="74617" user="JohnSmith" changeset="5170713">
    <nd ref="310165193"/>
    <nd ref="310165194"/>
    <tag k="highway" v="residential"/>
    <tag k="maxspeed" v="50"/>
    <tag k="maxspeed:source" v="default residential speed limit in Australia"/>
    <tag k="name" v="Bayview Road"/>
    <tag k="source" v="MMBW"/>
  </way>
  <way id="28239465" version="3" timestamp="2012-01-17T11:52:57Z" uid="147510" user="woodpeck_fixbot" changeset="10415418">
    <nd ref="310165193"/>
    <nd ref="310165194"/>
    <tag k="highway" v="residential"/>
    <tag k="name" v="Bayview Road"/>
    <tag k="source" v="MMBW"/>
  </way>
  <way id="28239467" version="2" timestamp="2010-07-09T03:09:20Z" uid="74617" user="JohnSmith" changeset="5170713">
    <nd ref="310165195"/>
    <nd ref="310165200"/>
    <tag k="highway" v="residential"/>
    <tag k="maxspeed" v="50"/>
    <tag k="maxspeed:source" v="default residential speed limit in Australia"/>
    <tag k="name" v="Ozone Avenue"/>
    <tag k="source" v="MMBW"/>
  </way>
  <way id="28239467" version="3" timestamp="2012-01-17T11:52:58Z" uid="147510" user="woodpeck_fixbot" changeset="10415418">
    <nd ref="310165195"/>
    <nd ref="310165200"/>
    <tag k="highway" v="residential"/>
    <tag k="name" v="Ozone Avenue"/>
    <tag k="source" v="MMBW"/>
  </way>
  <way id="28239468" version="2" timestamp="2010-07-09T03:09:57Z" uid="74617" user="JohnSmith" changeset="5170713">
    <nd ref="310165201"/>
    <nd ref="310165202"/>
    <tag k="highway" v="residential"/>
    <tag k="maxspeed" v="50"/>
    <tag k="maxspeed:source" v="default residential speed limit in Australia"/>
    <tag k="name" v="Canberra Grove"/>
  </way>
  <way id="28239468" version="3" timestamp="2012-01-17T11:52:59Z" uid="147510" user="woodpeck_fixbot" changeset="10415418">
    <nd ref="310165201"/>
    <nd ref="310165202"/>
    <tag k="highway" v="residential"/>
    <tag k="name" v="Canberra Grove"/>
  </way>
  <way id="28239470" version="3" timestamp="2010-07-09T03:10:47Z" uid="74617" user="JohnSmith" changeset="5170713">
    <nd ref="310165220"/>
    <nd ref="310165226"/>
    <nd ref="310165221"/>
    <tag k="highway" v="residential"/>
    <tag k="maxspeed" v="50"/>
    <tag k="maxspeed:source" v="default residential speed limit in Australia"/>
    <tag k="name" v="Cavell Court"/>
  </way>
  <way id="28239470" version="4" timestamp="2012-01-17T11:53:03Z" uid="147510" user="woodpeck_fixbot" changeset="10415418">
    <nd ref="310165220"/>
    <nd ref="310165226"/>
    <nd ref="310165221"/>
    <tag k="highway" v="residential"/>
    <tag k="name" v="Cavell Court"/>
  </way>
  <way id="28239472" version="2" timestamp="2010-07-09T03:07:03Z" uid="74617" user="JohnSmith" changeset="5170713">
    <nd ref="310165227"/>
    <nd ref="310165228"/>
    <tag k="highway" v="residential"/>
    <tag k="maxspeed" v="50"/>
    <tag k="maxspeed:source" v="default residential speed limit in Australia"/>
    <tag k="name" v="Haywood Street"/>
    <tag k="source" v="MMBW"/>
  </way>
  <way id="28239472" version="3" timestamp="2012-01-17T11:53:05Z" uid="147510" user="woodpeck_fixbot" changeset="10415418">
    <nd ref="310165227"/>
    <nd ref="310165228"/>
    <tag k="highway" v="residential"/>
    <tag k="name" v="Haywood Street"/>
    <tag k="source" v="MMBW"/>
  </way>
  <way id="28239474" version="2" timestamp="2010-07-09T03:08:01Z" uid="74617" user="JohnSmith" changeset="5170713">
    <nd ref="310165233"/>
    <nd ref="310165234"/>
    <nd ref="310165235"/>
    <nd ref="310165236"/>
    <tag k="highway" v="residential"/>
    <tag k="maxspeed" v="50"/>
    <tag k="maxspeed:source" v="default residential speed limit in Australia"/>
    <tag k="name" v="Michael Street"/>
    <tag k="source" v="MMBW"/>
  </way>
  <way id="28239474" version="3" timestamp="2012-01-17T11:53:12Z" uid="147510" user="woodpeck_fixbot" changeset="10415418">
    <nd ref="310165233"/>
    <nd ref="310165234"/>
    <nd ref="310165235"/>
    <nd ref="310165236"/>
    <tag k="highway" v="residential"/>
    <tag k="name" v="Michael Street"/>
    <tag k="source" v="MMBW"/>
  </way>
  <way id="28239476" version="2" timestamp="2010-07-09T03:10:50Z" uid="74617" user="JohnSmith" changeset="5170713">
    <nd ref="310165228"/>
    <nd ref="310165247"/>
    <nd ref="310165248"/>
    <nd ref="310165234"/>
    <tag k="highway" v="residential"/>
    <tag k="maxspeed" v="50"/>
    <tag k="maxspeed:source" v="default residential speed limit in Australia"/>
    <tag k="name" v="Cave Street"/>
    <tag k="source" v="MMBW"/>
  </way>
  <way id="28239476" version="3" timestamp="2012-01-17T11:53:14Z" uid="147510" user="woodpeck_fixbot" changeset="10415418">
    <nd ref="310165228"/>
    <nd ref="310165247"/>
    <nd ref="310165248"/>
    <nd ref="310165234"/>
    <tag k="highway" v="residential"/>
    <tag k="name" v="Cave Street"/>
    <tag k="source" v="MMBW"/>
  </way>
  <way id="28239478" version="12" timestamp="2010-07-09T03:06:10Z" uid="74617" user="JohnSmith" changeset="5170713">
    <nd ref="310165249"/>
    <nd ref="331970851"/>
    <nd ref="331970928"/>
    <nd ref="331971070"/>
    <nd ref="310165252"/>
    <nd ref="331971301"/>
    <nd ref="310165257"/>
    <nd ref="331971556"/>
    <nd ref="310165271"/>
    <nd ref="315017876"/>
    <nd ref="315017963"/>
    <nd ref="310165251"/>
    <tag k="highway" v="residential"/>
    <tag k="maxspeed" v="50"/>
    <tag k="maxspeed:source" v="default residential speed limit in Australia"/>
    <tag k="name" v="Church Street"/>
    <tag k="source" v="MMBW"/>
  </way>
  <way id="28239478" version="13" timestamp="2012-01-17T11:53:16Z" uid="147510" user="woodpeck_fixbot" changeset="10415418">
    <nd ref="310165249"/>
    <nd ref="331970851"/>
    <nd ref="331970928"/>
    <nd ref="331971070"/>
    <nd ref="310165252"/>
    <nd ref="331971301"/>
    <nd ref="310165257"/>
    <nd ref="331971556"/>
    <nd ref="310165271"/>
    <nd ref="315017876"/>
    <nd ref="315017963"/>
    <nd ref="310165251"/>
    <tag k="highway" v="residential"/>
    <tag k="name" v="Church Street"/>
    <tag k="source" v="MMBW"/>
  </way>
  <way id="28239479" version="2" timestamp="2010-07-09T03:08:38Z" uid="74617" user="JohnSmith" changeset="5170713">
    <nd ref="310165252"/>
    <nd ref="310165253"/>
    <tag k="highway" v="residential"/>
    <tag k="maxspeed" v="50"/>
    <tag k="maxspeed:source" v="default residential speed limit in Australia"/>
    <tag k="name" v="Cannes Grove"/>
    <tag k="source" v="MMBW"/>
  </way>
  <way id="28239479" version="3" timestamp="2012-01-17T11:53:18Z" uid="147510" user="woodpeck_fixbot" changeset="10415418">
    <nd ref="310165252"/>
    <nd ref="310165253"/>
    <tag k="highway" v="residential"/>
    <tag k="name" v="Cannes Grove"/>
    <tag k="source" v="MMBW"/>
  </way>
  <way id="28239480" version="3" timestamp="2010-07-09T03:10:22Z" uid="74617" user="JohnSmith" changeset="5170713">
    <nd ref="310165253"/>
    <nd ref="310165255"/>
    <nd ref="310165254"/>
    <tag k="highway" v="residential"/>
    <tag k="maxspeed" v="50"/>
    <tag k="maxspeed:source" v="default residential speed limit in Australia"/>
    <tag k="name" v="Marlo Grove"/>
    <tag k="source" v="MMBW"/>
  </way>
  <way id="28239480" version="4" timestamp="2012-01-17T11:53:20Z" uid="147510" user="woodpeck_fixbot" changeset="10415418">
    <nd ref="310165253"/>
    <nd ref="310165255"/>
    <nd ref="310165254"/>
    <tag k="highway" v="residential"/>
    <tag k="name" v="Marlo Grove"/>
    <tag k="source" v="MMBW"/>
  </way>
  <way id="28239481" version="3" timestamp="2010-07-09T03:07:14Z" uid="74617" user="JohnSmith" changeset="5170713">
    <nd ref="310165255"/>
    <nd ref="310165272"/>
    <nd ref="310165257"/>
    <tag k="highway" v="residential"/>
    <tag k="maxspeed" v="50"/>
    <tag k="maxspeed:source" v="default residential speed limit in Australia"/>
    <tag k="name" v="Biarritz Avenue"/>
  </way>
  <way id="28239481" version="4" timestamp="2012-01-17T11:53:22Z" uid="147510" user="woodpeck_fixbot" changeset="10415418">
    <nd ref="310165255"/>
    <nd ref="310165272"/>
    <nd ref="310165257"/>
    <tag k="highway" v="residential"/>
    <tag k="name" v="Biarritz Avenue"/>
  </way>
  <way id="28239482" version="2" timestamp="2010-07-09T03:05:40Z" uid="74617" user="JohnSmith" changeset="5170713">
    <nd ref="310165254"/>
    <nd ref="310165267"/>
    <nd ref="310165268"/>
    <nd ref="310165269"/>
    <nd ref="310165270"/>
    <nd ref="310165271"/>
    <tag k="highway" v="residential"/>
    <tag k="maxspeed" v="50"/>
    <tag k="maxspeed:source" v="default residential speed limit in Australia"/>
    <tag k="name" v="Monaco Crescent"/>
    <tag k="source" v="MMBW"/>
  </way>
  <way id="28239482" version="3" timestamp="2012-01-17T11:53:23Z" uid="147510" user="woodpeck_fixbot" changeset="10415418">
    <nd ref="310165254"/>
    <nd ref="310165267"/>
    <nd ref="310165268"/>
    <nd ref="310165269"/>
    <nd ref="310165270"/>
    <nd ref="310165271"/>
    <tag k="highway" v="residential"/>
    <tag k="name" v="Monaco Crescent"/>
    <tag k="source" v="MMBW"/>
  </way>
  <way id="28239483" version="3" timestamp="2010-07-09T03:08:12Z" uid="74617" user="JohnSmith" changeset="5170713">
    <nd ref="310165272"/>
    <nd ref="310165269"/>
    <nd ref="310165273"/>
    <tag k="highway" v="residential"/>
    <tag k="maxspeed" v="50"/>
    <tag k="maxspeed:source" v="default residential speed limit in Australia"/>
    <tag k="name" v="Cherbourg Avenue"/>
    <tag k="source" v="MMBW"/>
  </way>
  <way id="28239483" version="4" timestamp="2012-01-17T11:53:25Z" uid="147510" user="woodpeck_fixbot" changeset="10415418">
    <nd ref="310165272"/>
    <nd ref="310165269"/>
    <nd ref="310165273"/>
    <tag k="highway" v="residential"/>
    <tag k="name" v="Cherbourg Avenue"/>
    <tag k="source" v="MMBW"/>
  </way>
  <way id="28239541" version="4" timestamp="2010-07-09T03:09:19Z" uid="74617" user="JohnSmith" changeset="5170713">
    <nd ref="310165535"/>
    <nd ref="31244205"/>
    <nd ref="310165554"/>
    <nd ref="310165542"/>
    <nd ref="310165543"/>
    <tag k="highway" v="residential"/>
    <tag k="maxspeed" v="50"/>
    <tag k="maxspeed:source" v="default residential speed limit in Australia"/>
    <tag k="name" v="Marina Road"/>
    <tag k="source" v="MMBW"/>
  </way>
  <way id="28239541" version="5" timestamp="2012-01-17T11:53:27Z" uid="147510" user="woodpeck_fixbot" changeset="10415418">
    <nd ref="310165535"/>
    <nd ref="31244205"/>
    <nd ref="310165554"/>
    <nd ref="310165542"/>
    <nd ref="310165543"/>
    <tag k="highway" v="residential"/>
    <tag k="name" v="Marina Road"/>
    <tag k="source" v="MMBW"/>
  </way>
  <way id="28239546" version="3" timestamp="2010-07-09T03:07:25Z" uid="74617" user="JohnSmith" changeset="5170713">
    <nd ref="310165545"/>
    <nd ref="310165552"/>
    <nd ref="310165553"/>
    <nd ref="310165554"/>
    <tag k="highway" v="residential"/>
    <tag k="maxspeed" v="50"/>
    <tag k="maxspeed:source" v="default residential speed limit in Australia"/>
    <tag k="name" v="Wakool Avenue"/>
    <tag k="source" v="MMBW"/>
  </way>
  <way id="28239546" version="4" timestamp="2012-01-17T11:53:28Z" uid="147510" user="woodpeck_fixbot" changeset="10415418">
    <nd ref="310165545"/>
    <nd ref="310165552"/>
    <nd ref="310165553"/>
    <nd ref="310165554"/>
    <tag k="highway" v="residential"/>
    <tag k="name" v="Wakool Avenue"/>
    <tag k="source" v="MMBW"/>
  </way>
  <way id="28239548" version="3" timestamp="2010-07-09T03:10:17Z" uid="74617" user="JohnSmith" changeset="5170713">
    <nd ref="310165553"/>
    <nd ref="310165798"/>
    <nd ref="310165799"/>
    <nd ref="310165555"/>
    <tag k="highway" v="residential"/>
    <tag k="maxspeed" v="50"/>
    <tag k="maxspeed:source" v="default residential speed limit in Australia"/>
    <tag k="name" v="Sea Parade"/>
    <tag k="source" v="MMBW"/>
  </way>
  <way id="28239548" version="4" timestamp="2012-01-17T11:53:31Z" uid="147510" user="woodpeck_fixbot" changeset="10415418">
    <nd ref="310165553"/>
    <nd ref="310165798"/>
    <nd ref="310165799"/>
    <nd ref="310165555"/>
    <tag k="highway" v="residential"/>
    <tag k="name" v="Sea Parade"/>
    <tag k="source" v="MMBW"/>
  </way>
  <way id="28239558" version="3" timestamp="2010-04-07T13:04:30Z" uid="20587" user="balrog-kun" changeset="4353646">
    <nd ref="147390134"/>
    <nd ref="309311168"/>
    <nd ref="147390136"/>
    <nd ref="309311167"/>
    <nd ref="147390140"/>
    <tag k="created_by" v="Potlatch 0.10f"/>
    <tag k="highway" v="residential"/>
    <tag k="name" v="Southwest 54th Street"/>
    <tag k="tiger:cfcc" v="A41"/>
    <tag k="tiger:county" v="Oklahoma, OK"/>
    <tag k="tiger:name_base" v="54th"/>
    <tag k="tiger:name_direction_prefix" v="SW"/>
    <tag k="tiger:name_type" v="St"/>
    <tag k="tiger:reviewed" v="no"/>
    <tag k="tiger:separated" v="no"/>
    <tag k="tiger:source" v="tiger_import_dch_v0.6_20070829"/>
    <tag k="tiger:tlid" v="100405401:100405403"/>
    <tag k="tiger:zip_left" v="73119"/>
    <tag k="tiger:zip_right" v="73119"/>
  </way>
  <way id="28239606" version="4" timestamp="2010-07-09T03:07:17Z" uid="74617" user="JohnSmith" changeset="5170713">
    <nd ref="31244209"/>
    <nd ref="31244210"/>
    <tag k="highway" v="residential"/>
    <tag k="maxspeed" v="50"/>
    <tag k="maxspeed:source" v="default residential speed limit in Australia"/>
    <tag k="name" v="Catania Street"/>
    <tag k="source" v="MMBW"/>
  </way>
  <way id="28239606" version="5" timestamp="2012-01-17T11:53:33Z" uid="147510" user="woodpeck_fixbot" changeset="10415418">
    <nd ref="31244209"/>
    <nd ref="31244210"/>
    <tag k="highway" v="residential"/>
    <tag k="name" v="Catania Street"/>
    <tag k="source" v="MMBW"/>
  </way>
  <way id="28239607" version="6" timestamp="2010-07-09T03:09:35Z" uid="74617" user="JohnSmith" changeset="5170713">
    <nd ref="31244206"/>
    <nd ref="31244207"/>
    <nd ref="31244208"/>
    <nd ref="330343406"/>
    <nd ref="31244209"/>
    <nd ref="310165794"/>
    <nd ref="310165795"/>
    <nd ref="310165796"/>
    <nd ref="31244206"/>
    <tag k="highway" v="residential"/>
    <tag k="junction" v="roundabout"/>
    <tag k="maxspeed" v="50"/>
    <tag k="maxspeed:source" v="default residential speed limit in Australia"/>
  </way>
  <way id="28239607" version="7" timestamp="2012-01-17T11:53:35Z" uid="147510" user="woodpeck_fixbot" changeset="10415418">
    <nd ref="31244206"/>
    <nd ref="31244207"/>
    <nd ref="31244208"/>
    <nd ref="330343406"/>
    <nd ref="31244209"/>
    <nd ref="310165794"/>
    <nd ref="310165795"/>
    <nd ref="310165796"/>
    <nd ref="31244206"/>
    <tag k="highway" v="residential"/>
    <tag k="junction" v="roundabout"/>
  </way>
  <way id="28239608" version="2" timestamp="2010-07-09T03:05:55Z" uid="74617" user="JohnSmith" changeset="5170713">
    <nd ref="310165799"/>
    <nd ref="310165805"/>
    <tag k="highway" v="residential"/>
    <tag k="maxspeed" v="50"/>
    <tag k="maxspeed:source" v="default residential speed limit in Australia"/>
    <tag k="name" v="King Street"/>
    <tag k="source" v="MMBW"/>
  </way>
  <way id="28239608" version="3" timestamp="2012-01-17T11:53:37Z" uid="147510" user="woodpeck_fixbot" changeset="10415418">
    <nd ref="310165799"/>
    <nd ref="310165805"/>
    <tag k="highway" v="residential"/>
    <tag k="name" v="King Street"/>
    <tag k="source" v="MMBW"/>
  </way>
  <way id="28239609" version="2" timestamp="2010-07-09T03:08:25Z" uid="74617" user="JohnSmith" changeset="5170713">
    <nd ref="310165798"/>
    <nd ref="310165806"/>
    <tag k="highway" v="residential"/>
    <tag k="maxspeed" v="50"/>
    <tag k="maxspeed:source" v="default residential speed limit in Australia"/>
    <tag k="name" v="View Street"/>
    <tag k="source" v="MMBW"/>
  </way>
  <way id="28239609" version="3" timestamp="2012-01-17T11:53:39Z" uid="147510" user="woodpeck_fixbot" changeset="10415418">
    <nd ref="310165798"/>
    <nd ref="310165806"/>
    <tag k="highway" v="residential"/>
    <tag k="name" v="View Street"/>
    <tag k="source" v="MMBW"/>
  </way>
  <way id="28239610" version="6" timestamp="2010-07-09T03:06:50Z" uid="74617" user="JohnSmith" changeset="5170713">
    <nd ref="310165801"/>
    <nd ref="330343806"/>
    <nd ref="609296334"/>
    <nd ref="310165817"/>
    <nd ref="330343603"/>
    <nd ref="310165795"/>
    <tag k="highway" v="residential"/>
    <tag k="maxspeed" v="50"/>
    <tag k="maxspeed:source" v="default residential speed limit in Australia"/>
    <tag k="name" v="Plummer Road"/>
    <tag k="source" v="MMBW"/>
  </way>
  <way id="28239610" version="7" timestamp="2012-01-17T11:53:44Z" uid="147510" user="woodpeck_fixbot" changeset="10415418">
    <nd ref="310165801"/>
    <nd ref="330343806"/>
    <nd ref="609296334"/>
    <nd ref="310165817"/>
    <nd ref="330343603"/>
    <nd ref="310165795"/>
    <tag k="highway" v="residential"/>
    <tag k="name" v="Plummer Road"/>
    <tag k="source" v="MMBW"/>
  </way>
  <way id="28239611" version="5" timestamp="2010-04-26T12:12:42Z" uid="4467" user="Rosscoe" changeset="4531219">
    <nd ref="31244208"/>
    <nd ref="707239259"/>
    <tag k="highway" v="residential"/>
    <tag k="name" v="Plummer Road"/>
    <tag k="source" v="yahoo"/>
    <tag k="source:name" v="Collins 1936"/>
  </way>
  <way id="28239611" version="6" timestamp="2010-07-09T03:09:10Z" uid="74617" user="JohnSmith" changeset="5170713">
    <nd ref="31244208"/>
    <nd ref="707239259"/>
    <tag k="highway" v="residential"/>
    <tag k="maxspeed" v="50"/>
    <tag k="maxspeed:source" v="default residential speed limit in Australia"/>
    <tag k="name" v="Plummer Road"/>
    <tag k="source" v="yahoo"/>
    <tag k="source:name" v="Collins 1936"/>
  </way>
  <way id="28239611" version="7" timestamp="2012-01-17T11:53:46Z" uid="147510" user="woodpeck_fixbot" changeset="10415418">
    <nd ref="31244208"/>
    <nd ref="707239259"/>
    <tag k="highway" v="residential"/>
    <tag k="name" v="Plummer Road"/>
    <tag k="source" v="yahoo"/>
    <tag k="source:name" v="Collins 1936"/>
  </way>
  <way id="28239612" version="4" timestamp="2010-07-09T03:09:47Z" uid="74617" user="JohnSmith" changeset="5170713">
    <nd ref="310165800"/>
    <nd ref="310165802"/>
    <nd ref="310165803"/>
    <tag k="highway" v="residential"/>
    <tag k="maxspeed" v="50"/>
    <tag k="maxspeed:source" v="default residential speed limit in Australia"/>
    <tag k="name" v="Mundy Street"/>
    <tag k="source" v="yahoo"/>
    <tag k="source:name" v="Collins 1936"/>
  </way>
  <way id="28239612" version="5" timestamp="2012-01-17T11:53:49Z" uid="147510" user="woodpeck_fixbot" changeset="10415418">
    <nd ref="310165800"/>
    <nd ref="310165802"/>
    <nd ref="310165803"/>
    <tag k="highway" v="residential"/>
    <tag k="name" v="Mundy Street"/>
    <tag k="source" v="yahoo"/>
    <tag k="source:name" v="Collins 1936"/>
  </way>
  <way id="28239637" version="7" timestamp="2010-07-09T03:09:04Z" uid="74617" user="JohnSmith" changeset="5170713">
    <nd ref="30617058"/>
    <nd ref="310165874"/>
    <nd ref="310165875"/>
    <nd ref="310165876"/>
    <nd ref="609297025"/>
    <nd ref="310165877"/>
    <nd ref="609297029"/>
    <nd ref="310165878"/>
    <nd ref="609296325"/>
    <nd ref="310165879"/>
    <nd ref="310165880"/>
    <nd ref="310165912"/>
    <nd ref="310165881"/>
    <nd ref="286680586"/>
    <nd ref="286680916"/>
    <nd ref="286680559"/>
    <tag k="highway" v="residential"/>
    <tag k="maxspeed" v="50"/>
    <tag k="maxspeed:source" v="default residential speed limit in Australia"/>
    <tag k="name" v="Naples Road"/>
    <tag k="source" v="MMBW"/>
  </way>
  <way id="28239637" version="8" timestamp="2012-01-17T11:53:52Z" uid="147510" user="woodpeck_fixbot" changeset="10415418">
    <nd ref="30617058"/>
    <nd ref="310165874"/>
    <nd ref="310165875"/>
    <nd ref="310165876"/>
    <nd ref="609297025"/>
    <nd ref="310165877"/>
    <nd ref="609297029"/>
    <nd ref="310165878"/>
    <nd ref="609296325"/>
    <nd ref="310165879"/>
    <nd ref="310165880"/>
    <nd ref="310165912"/>
    <nd ref="310165881"/>
    <nd ref="286680586"/>
    <nd ref="286680916"/>
    <nd ref="286680559"/>
    <tag k="highway" v="residential"/>
    <tag k="name" v="Naples Road"/>
    <tag k="source" v="MMBW"/>
  </way>
  <way id="28239644" version="5" timestamp="2010-07-09T03:10:03Z" uid="74617" user="JohnSmith" changeset="5170713">
    <nd ref="310165885"/>
    <nd ref="310165884"/>
    <nd ref="310165878"/>
    <tag k="highway" v="residential"/>
    <tag k="maxspeed" v="50"/>
    <tag k="maxspeed:source" v="default residential speed limit in Australia"/>
    <tag k="name" v="Milan Street"/>
    <tag k="source" v="MMBW"/>
  </way>
  <way id="28239644" version="6" timestamp="2012-01-17T11:54:01Z" uid="147510" user="woodpeck_fixbot" changeset="10415418">
    <nd ref="310165885"/>
    <nd ref="310165884"/>
    <nd ref="310165878"/>
    <tag k="highway" v="residential"/>
    <tag k="name" v="Milan Street"/>
    <tag k="source" v="MMBW"/>
  </way>
  <way id="28239648" version="6" timestamp="2010-07-09T03:06:40Z" uid="74617" user="JohnSmith" changeset="5170713">
    <nd ref="310165885"/>
    <nd ref="310165899"/>
    <nd ref="310165886"/>
    <nd ref="310165887"/>
    <nd ref="609296703"/>
    <nd ref="310165888"/>
    <nd ref="310165889"/>
    <nd ref="310165890"/>
    <nd ref="310165904"/>
    <nd ref="330343738"/>
    <nd ref="310165937"/>
    <nd ref="310165891"/>
    <tag k="highway" v="residential"/>
    <tag k="maxspeed" v="50"/>
    <tag k="maxspeed:source" v="default residential speed limit in Australia"/>
    <tag k="name" v="Milan Street"/>
    <tag k="source" v="MMBW"/>
  </way>
  <way id="28239648" version="7" timestamp="2012-01-17T11:54:05Z" uid="147510" user="woodpeck_fixbot" changeset="10415418">
    <nd ref="310165885"/>
    <nd ref="310165899"/>
    <nd ref="310165886"/>
    <nd ref="310165887"/>
    <nd ref="609296703"/>
    <nd ref="310165888"/>
    <nd ref="310165889"/>
    <nd ref="310165890"/>
    <nd ref="310165904"/>
    <nd ref="330343738"/>
    <nd ref="310165937"/>
    <nd ref="310165891"/>
    <tag k="highway" v="residential"/>
    <tag k="name" v="Milan Street"/>
    <tag k="source" v="MMBW"/>
  </way>
  <way id="28239649" version="3" timestamp="2010-07-09T03:08:59Z" uid="74617" user="JohnSmith" changeset="5170713">
    <nd ref="310165885"/>
    <nd ref="310165900"/>
    <nd ref="609296689"/>
    <nd ref="609296692"/>
    <nd ref="310165901"/>
    <nd ref="310165902"/>
    <tag k="highway" v="residential"/>
    <tag k="maxspeed" v="50"/>
    <tag k="maxspeed:source" v="default residential speed limit in Australia"/>
    <tag k="name" v="Napier Street"/>
    <tag k="source" v="MMBW"/>
  </way>
  <way id="28239649" version="4" timestamp="2012-01-17T11:54:24Z" uid="147510" user="woodpeck_fixbot" changeset="10415418">
    <nd ref="310165885"/>
    <nd ref="310165900"/>
    <nd ref="609296689"/>
    <nd ref="609296692"/>
    <nd ref="310165901"/>
    <nd ref="310165902"/>
    <tag k="highway" v="residential"/>
    <tag k="name" v="Napier Street"/>
    <tag k="source" v="MMBW"/>
  </way>
  <way id="28239654" version="2" timestamp="2010-07-09T03:05:44Z" uid="74617" user="JohnSmith" changeset="5170713">
    <nd ref="310165911"/>
    <nd ref="310165912"/>
    <tag k="highway" v="residential"/>
    <tag k="maxspeed" v="50"/>
    <tag k="maxspeed:source" v="default residential speed limit in Australia"/>
    <tag k="name" v="Kilara Road"/>
    <tag k="source" v="MMBW"/>
  </way>
  <way id="28239654" version="3" timestamp="2012-01-17T11:54:37Z" uid="147510" user="woodpeck_fixbot" changeset="10415418">
    <nd ref="310165911"/>
    <nd ref="310165912"/>
    <tag k="highway" v="residential"/>
    <tag k="name" v="Kilara Road"/>
    <tag k="source" v="MMBW"/>
  </way>
  <way id="28239658" version="2" timestamp="2010-07-09T03:10:50Z" uid="74617" user="JohnSmith" changeset="5170713">
    <nd ref="310165881"/>
    <nd ref="310165920"/>
    <nd ref="310165921"/>
    <nd ref="310165922"/>
    <tag k="highway" v="residential"/>
    <tag k="maxspeed" v="50"/>
    <tag k="maxspeed:source" v="default residential speed limit in Australia"/>
    <tag k="name" v="Coryule Avenue"/>
    <tag k="source" v="MMBW"/>
  </way>
  <way id="28239658" version="3" timestamp="2012-01-17T11:54:51Z" uid="147510" user="woodpeck_fixbot" changeset="10415418">
    <nd ref="310165881"/>
    <nd ref="310165920"/>
    <nd ref="310165921"/>
    <nd ref="310165922"/>
    <tag k="highway" v="residential"/>
    <tag k="name" v="Coryule Avenue"/>
    <tag k="source" v="MMBW"/>
  </way>
  <way id="28239659" version="3" timestamp="2010-07-09T03:07:47Z" uid="74617" user="JohnSmith" changeset="5170713">
    <nd ref="310165888"/>
    <nd ref="310165923"/>
    <nd ref="609296710"/>
    <nd ref="609296711"/>
    <nd ref="310165924"/>
    <tag k="highway" v="residential"/>
    <tag k="maxspeed" v="50"/>
    <tag k="maxspeed:source" v="default residential speed limit in Australia"/>
    <tag k="name" v="Kitchener Street"/>
    <tag k="source" v="MMBW"/>
  </way>
  <way id="28239659" version="4" timestamp="2012-01-17T11:54:59Z" uid="147510" user="woodpeck_fixbot" changeset="10415418">
    <nd ref="310165888"/>
    <nd ref="310165923"/>
    <nd ref="609296710"/>
    <nd ref="609296711"/>
    <nd ref="310165924"/>
    <tag k="highway" v="residential"/>
    <tag k="name" v="Kitchener Street"/>
    <tag k="source" v="MMBW"/>
  </way>
  <way id="28239665" version="3" timestamp="2010-07-09T03:07:49Z" uid="74617" user="JohnSmith" changeset="5170713">
    <nd ref="310165930"/>
    <nd ref="310165939"/>
    <nd ref="310165937"/>
    <tag k="highway" v="residential"/>
    <tag k="maxspeed" v="50"/>
    <tag k="maxspeed:source" v="default residential speed limit in Australia"/>
    <tag k="name" v="Brindisi Street"/>
    <tag k="source" v="MMBW"/>
  </way>
  <way id="28239665" version="4" timestamp="2012-01-17T11:55:11Z" uid="147510" user="woodpeck_fixbot" changeset="10415418">
    <nd ref="310165930"/>
    <nd ref="310165939"/>
    <nd ref="310165937"/>
    <tag k="highway" v="residential"/>
    <tag k="name" v="Brindisi Street"/>
    <tag k="source" v="MMBW"/>
  </way>
  <way id="28239666" version="3" timestamp="2010-07-09T03:06:13Z" uid="74617" user="JohnSmith" changeset="5170713">
    <nd ref="310165938"/>
    <nd ref="310165939"/>
    <tag k="highway" v="residential"/>
    <tag k="maxspeed" v="50"/>
    <tag k="maxspeed:source" v="default residential speed limit in Australia"/>
    <tag k="name" v="Remo Street"/>
    <tag k="source" v="MMBW"/>
  </way>
  <way id="28239666" version="4" timestamp="2012-01-17T11:55:17Z" uid="147510" user="woodpeck_fixbot" changeset="10415418">
    <nd ref="310165938"/>
    <nd ref="310165939"/>
    <tag k="highway" v="residential"/>
    <tag k="name" v="Remo Street"/>
    <tag k="source" v="MMBW"/>
  </way>
  <way id="28239681" version="3" timestamp="2010-07-09T03:05:53Z" uid="74617" user="JohnSmith" changeset="5170713">
    <nd ref="286681324"/>
    <nd ref="310166098"/>
    <nd ref="310166099"/>
    <nd ref="310166100"/>
    <nd ref="310166101"/>
    <nd ref="310166102"/>
    <nd ref="310166103"/>
    <nd ref="310166104"/>
    <nd ref="310166105"/>
    <nd ref="310166106"/>
    <tag k="highway" v="residential"/>
    <tag k="maxspeed" v="50"/>
    <tag k="maxspeed:source" v="default residential speed limit in Australia"/>
    <tag k="name" v="Commercial Road"/>
    <tag k="source" v="MMBW"/>
  </way>
  <way id="28239681" version="4" timestamp="2012-01-17T11:55:21Z" uid="147510" user="woodpeck_fixbot" changeset="10415418">
    <nd ref="286681324"/>
    <nd ref="310166098"/>
    <nd ref="310166099"/>
    <nd ref="310166100"/>
    <nd ref="310166101"/>
    <nd ref="310166102"/>
    <nd ref="310166103"/>
    <nd ref="310166104"/>
    <nd ref="310166105"/>
    <nd ref="310166106"/>
    <tag k="highway" v="residential"/>
    <tag k="name" v="Commercial Road"/>
    <tag k="source" v="MMBW"/>
  </way>
  <way id="28239775" version="6" timestamp="2010-04-26T12:12:38Z" uid="4467" user="Rosscoe" changeset="4531219">
    <nd ref="310167057"/>
    <nd ref="707239307"/>
    <tag k="highway" v="residential"/>
    <tag k="name" v="Collins Street"/>
    <tag k="source" v="MMBW"/>
  </way>
  <way id="28239775" version="7" timestamp="2010-07-09T03:08:55Z" uid="74617" user="JohnSmith" changeset="5170713">
    <nd ref="310167057"/>
    <nd ref="707239307"/>
    <tag k="highway" v="residential"/>
    <tag k="maxspeed" v="50"/>
    <tag k="maxspeed:source" v="default residential speed limit in Australia"/>
    <tag k="name" v="Collins Street"/>
    <tag k="source" v="MMBW"/>
  </way>
  <way id="28239775" version="8" timestamp="2012-01-17T11:55:26Z" uid="147510" user="woodpeck_fixbot" changeset="10415418">
    <nd ref="310167057"/>
    <nd ref="707239307"/>
    <tag k="highway" v="residential"/>
    <tag k="name" v="Collins Street"/>
    <tag k="source" v="MMBW"/>
  </way>
  <way id="28239777" version="11" timestamp="2010-04-26T12:12:45Z" uid="4467" user="Rosscoe" changeset="4531219">
    <nd ref="310167059"/>
    <nd ref="707239183"/>
    <tag k="highway" v="residential"/>
    <tag k="name" v="Bourke Street"/>
    <tag k="source" v="MMBW"/>
  </way>
  <way id="28239777" version="12" timestamp="2010-07-09T03:10:02Z" uid="74617" user="JohnSmith" changeset="5170713">
    <nd ref="310167059"/>
    <nd ref="707239183"/>
    <tag k="highway" v="residential"/>
    <tag k="maxspeed" v="50"/>
    <tag k="maxspeed:source" v="default residential speed limit in Australia"/>
    <tag k="name" v="Bourke Street"/>
    <tag k="source" v="MMBW"/>
  </way>
  <way id="28239777" version="13" timestamp="2012-01-17T11:55:29Z" uid="147510" user="woodpeck_fixbot" changeset="10415418">
    <nd ref="310167059"/>
    <nd ref="707239183"/>
    <tag k="highway" v="residential"/>
    <tag k="name" v="Bourke Street"/>
    <tag k="source" v="MMBW"/>
  </way>
  <way id="28239780" version="7" timestamp="2010-04-26T12:12:36Z" uid="4467" user="Rosscoe" changeset="4531219">
    <nd ref="310167067"/>
    <nd ref="707239270"/>
    <tag k="highway" v="residential"/>
    <tag k="name" v="Patty Street"/>
    <tag k="source" v="MMBW"/>
  </way>
  <way id="28239780" version="8" timestamp="2010-07-09T03:06:00Z" uid="74617" user="JohnSmith" changeset="5170713">
    <nd ref="310167067"/>
    <nd ref="707239270"/>
    <tag k="highway" v="residential"/>
    <tag k="maxspeed" v="50"/>
    <tag k="maxspeed:source" v="default residential speed limit in Australia"/>
    <tag k="name" v="Patty Street"/>
    <tag k="source" v="MMBW"/>
  </way>
  <way id="28239780" version="9" timestamp="2012-01-17T11:55:31Z" uid="147510" user="woodpeck_fixbot" changeset="10415418">
    <nd ref="310167067"/>
    <nd ref="707239270"/>
    <tag k="highway" v="residential"/>
    <tag k="name" v="Patty Street"/>
    <tag k="source" v="MMBW"/>
  </way>
  <way id="28239789" version="3" timestamp="2010-07-09T03:06:13Z" uid="74617" user="JohnSmith" changeset="5170713">
    <nd ref="310167148"/>
    <nd ref="310167155"/>
    <tag k="highway" v="residential"/>
    <tag k="maxspeed" v="50"/>
    <tag k="maxspeed:source" v="default residential speed limit in Australia"/>
    <tag k="name" v="Russell Street"/>
  </way>
  <way id="28239789" version="4" timestamp="2012-01-17T11:55:34Z" uid="147510" user="woodpeck_fixbot" changeset="10415418">
    <nd ref="310167148"/>
    <nd ref="310167155"/>
    <tag k="highway" v="residential"/>
    <tag k="name" v="Russell Street"/>
  </way>
  <way id="28239793" version="7" timestamp="2010-07-09T03:08:53Z" uid="74617" user="JohnSmith" changeset="5170713">
    <nd ref="310167165"/>
    <nd ref="310167176"/>
    <nd ref="310167243"/>
    <nd ref="310167215"/>
    <nd ref="310167177"/>
    <tag k="highway" v="residential"/>
    <tag k="maxspeed" v="50"/>
    <tag k="maxspeed:source" v="default residential speed limit in Australia"/>
    <tag k="name" v="Flinders Street"/>
    <tag k="source" v="MMBW"/>
  </way>
  <way id="28239793" version="8" timestamp="2012-01-17T11:55:37Z" uid="147510" user="woodpeck_fixbot" changeset="10415418">
    <nd ref="310167165"/>
    <nd ref="310167176"/>
    <nd ref="310167243"/>
    <nd ref="310167215"/>
    <nd ref="310167177"/>
    <tag k="highway" v="residential"/>
    <tag k="name" v="Flinders Street"/>
    <tag k="source" v="MMBW"/>
  </way>
  <way id="28239799" version="2" timestamp="2010-07-09T03:08:06Z" uid="74617" user="JohnSmith" changeset="5170713">
    <nd ref="310167212"/>
    <nd ref="310167213"/>
    <nd ref="310167214"/>
    <nd ref="310167215"/>
    <tag k="highway" v="residential"/>
    <tag k="maxspeed" v="50"/>
    <tag k="maxspeed:source" v="default residential speed limit in Australia"/>
    <tag k="name" v="Rimmer Street"/>
    <tag k="source" v="MMBW"/>
  </way>
  <way id="28239799" version="3" timestamp="2012-01-17T11:55:55Z" uid="147510" user="woodpeck_fixbot" changeset="10415418">
    <nd ref="310167212"/>
    <nd ref="310167213"/>
    <nd ref="310167214"/>
    <nd ref="310167215"/>
    <tag k="highway" v="residential"/>
    <tag k="name" v="Rimmer Street"/>
    <tag k="source" v="MMBW"/>
  </way>
  <way id="28239810" version="2" timestamp="2010-07-09T03:05:29Z" uid="74617" user="JohnSmith" changeset="5170713">
    <nd ref="310167243"/>
    <nd ref="310167244"/>
    <tag k="highway" v="residential"/>
    <tag k="maxspeed" v="50"/>
    <tag k="maxspeed:source" v="default residential speed limit in Australia"/>
    <tag k="name" v="Clyve Avenue"/>
    <tag k="source" v="MMBW"/>
  </way>
  <way id="28239810" version="3" timestamp="2012-01-17T11:56:00Z" uid="147510" user="woodpeck_fixbot" changeset="10415418">
    <nd ref="310167243"/>
    <nd ref="310167244"/>
    <tag k="highway" v="residential"/>
    <tag k="name" v="Clyve Avenue"/>
    <tag k="source" v="MMBW"/>
  </way>
  <way id="28239819" version="4" timestamp="2010-07-09T03:05:41Z" uid="74617" user="JohnSmith" changeset="5170713">
    <nd ref="310167177"/>
    <nd ref="310167178"/>
    <nd ref="310167179"/>
    <nd ref="310167180"/>
    <nd ref="310167181"/>
    <nd ref="310167182"/>
    <nd ref="310167081"/>
    <nd ref="310167312"/>
    <nd ref="310167313"/>
    <tag k="highway" v="residential"/>
    <tag k="maxspeed" v="50"/>
    <tag k="maxspeed:source" v="default residential speed limit in Australia"/>
    <tag k="name" v="Elizabeth Street"/>
    <tag k="source" v="MMBW"/>
  </way>
  <way id="28239819" version="5" timestamp="2012-01-17T11:56:02Z" uid="147510" user="woodpeck_fixbot" changeset="10415418">
    <nd ref="310167177"/>
    <nd ref="310167178"/>
    <nd ref="310167179"/>
    <nd ref="310167180"/>
    <nd ref="310167181"/>
    <nd ref="310167182"/>
    <nd ref="310167081"/>
    <nd ref="310167312"/>
    <nd ref="310167313"/>
    <tag k="highway" v="residential"/>
    <tag k="name" v="Elizabeth Street"/>
    <tag k="source" v="MMBW"/>
  </way>
  <way id="28239876" version="7" timestamp="2010-07-09T03:07:31Z" uid="74617" user="JohnSmith" changeset="5170713">
    <nd ref="310167590"/>
    <nd ref="310167591"/>
    <tag k="highway" v="residential"/>
    <tag k="maxspeed" v="50"/>
    <tag k="maxspeed:source" v="default residential speed limit in Australia"/>
    <tag k="name" v="Greens Court"/>
  </way>
  <way id="28239876" version="8" timestamp="2012-01-17T11:56:05Z" uid="147510" user="woodpeck_fixbot" changeset="10415418">
    <nd ref="310167590"/>
    <nd ref="310167591"/>
    <tag k="highway" v="residential"/>
    <tag k="name" v="Greens Court"/>
  </way>
  <way id="28239877" version="3" timestamp="2010-07-09T03:09:46Z" uid="74617" user="JohnSmith" changeset="5170713">
    <nd ref="310167596"/>
    <nd ref="310167597"/>
    <nd ref="310167598"/>
    <nd ref="310167605"/>
    <tag k="highway" v="residential"/>
    <tag k="maxspeed" v="50"/>
    <tag k="maxspeed:source" v="default residential speed limit in Australia"/>
  </way>
  <way id="28239877" version="4" timestamp="2012-01-17T11:56:08Z" uid="147510" user="woodpeck_fixbot" changeset="10415418">
    <nd ref="310167596"/>
    <nd ref="310167597"/>
    <nd ref="310167598"/>
    <nd ref="310167605"/>
    <tag k="highway" v="residential"/>
  </way>
  <way id="28239878" version="3" timestamp="2010-07-09T03:08:25Z" uid="74617" user="JohnSmith" changeset="5170713">
    <nd ref="310167597"/>
    <nd ref="310167599"/>
    <tag k="highway" v="residential"/>
    <tag k="maxspeed" v="50"/>
    <tag k="maxspeed:source" v="default residential speed limit in Australia"/>
  </way>
  <way id="28239878" version="4" timestamp="2012-01-17T11:56:10Z" uid="147510" user="woodpeck_fixbot" changeset="10415418">
    <nd ref="310167597"/>
    <nd ref="310167599"/>
    <tag k="highway" v="residential"/>
  </way>
  <way id="28239880" version="3" timestamp="2010-07-09T03:07:01Z" uid="74617" user="JohnSmith" changeset="5170713">
    <nd ref="310167606"/>
    <nd ref="310167607"/>
    <nd ref="310167605"/>
    <nd ref="310167608"/>
    <nd ref="310167609"/>
    <tag k="highway" v="residential"/>
    <tag k="maxspeed" v="50"/>
    <tag k="maxspeed:source" v="default residential speed limit in Australia"/>
  </way>
  <way id="28239880" version="4" timestamp="2012-01-17T11:56:12Z" uid="147510" user="woodpeck_fixbot" changeset="10415418">
    <nd ref="310167606"/>
    <nd ref="310167607"/>
    <nd ref="310167605"/>
    <nd ref="310167608"/>
    <nd ref="310167609"/>
    <tag k="highway" v="residential"/>
  </way>
  <way id="28239883" version="5" timestamp="2010-07-09T03:10:08Z" uid="74617" user="JohnSmith" changeset="5170713">
    <nd ref="310167610"/>
    <nd ref="310167611"/>
    <nd ref="310167615"/>
    <nd ref="310167612"/>
    <nd ref="310167613"/>
    <tag k="highway" v="residential"/>
    <tag k="maxspeed" v="50"/>
    <tag k="maxspeed:source" v="default residential speed limit in Australia"/>
  </way>
  <way id="28239883" version="6" timestamp="2012-01-17T11:56:13Z" uid="147510" user="woodpeck_fixbot" changeset="10415418">
    <nd ref="310167610"/>
    <nd ref="310167611"/>
    <nd ref="310167615"/>
    <nd ref="310167612"/>
    <nd ref="310167613"/>
    <tag k="highway" v="residential"/>
  </way>
  <way id="28239886" version="3" timestamp="2010-07-09T03:06:09Z" uid="74617" user="JohnSmith" changeset="5170713">
    <nd ref="310167615"/>
    <nd ref="310167616"/>
    <nd ref="310167617"/>
    <tag k="highway" v="residential"/>
    <tag k="maxspeed" v="50"/>
    <tag k="maxspeed:source" v="default residential speed limit in Australia"/>
  </way>
  <way id="28239886" version="4" timestamp="2012-01-17T11:56:16Z" uid="147510" user="woodpeck_fixbot" changeset="10415418">
    <nd ref="310167615"/>
    <nd ref="310167616"/>
    <nd ref="310167617"/>
    <tag k="highway" v="residential"/>
  </way>
</osm>
