<?xml version='1.0' encoding='UTF-8'?>
<osm version="0.6" generator="libosmium/2.20.0">
  <way id="28435077" version="5" timestamp="2010-03-28T00:20:08Z" uid="20587" user="balrog-kun" changeset="4250871">
    <nd ref="122786416"/>
    <nd ref="122786418"/>
    <nd ref="122786422"/>
    <nd ref="122786425"/>
    <nd ref="122786428"/>
    <nd ref="122786431"/>
    <nd ref="122786434"/>
    <nd ref="122719449"/>
    <nd ref="122786437"/>
    <nd ref="122786440"/>
    <nd ref="122786443"/>
    <nd ref="122786445"/>
    <nd ref="322964986"/>
    <nd ref="312414912"/>
    <nd ref="122786451"/>
    <nd ref="122786454"/>
    <nd ref="122786456"/>
    <nd ref="122786459"/>
    <nd ref="273178336"/>
    <nd ref="273178211"/>
    <nd ref="122786467"/>
    <nd ref="122786469"/>
    <nd ref="305475818"/>
    <tag k="created_by" v="Potlatch 0.10f"/>
    <tag k="highway" v="tertiary"/>
    <tag k="name" v="East Slauson Avenue"/>
    <tag k="tiger:cfcc" v="A41"/>
    <tag k="tiger:county" v="Los Angeles, CA"/>
    <tag k="tiger:name_base" v="Slauson"/>
    <tag k="tiger:name_direction_prefix" v="E"/>
    <tag k="tiger:name_type" v="Ave"/>
    <tag k="tiger:separated" v="no"/>
    <tag k="tiger:source" v="tiger_import_dch_v0.6_20070809"/>
    <tag k="tiger:tlid" v="141820964:141737110:141818778:141737096:141695901:141695904"/>
    <tag k="tiger:zip_left" v="90040"/>
    <tag k="tiger:zip_left_1" v="90640"/>
    <tag k="tiger:zip_left_2" v="90640"/>
    <tag k="tiger:zip_left_3" v="90640"/>
    <tag k="tiger:zip_right" v="90640"/>
    <tag k="tiger:zip_right_3" v="90640"/>
  </way>
  <way id="28435085" version="3" timestamp="2010-03-28T00:20:08Z" uid="20587" user="balrog-kun" changeset="4250871">
    <nd ref="308868074"/>
    <nd ref="65510890"/>
    <tag k="bridge" v="yes"/>
    <tag k="created_by" v="Potlatch 0.10f"/>
    <tag k="highway" v="secondary"/>
    <tag k="layer" v="2"/>
    <tag k="name" v="Lean Avenue"/>
    <tag k="tiger:cfcc" v="A41"/>
    <tag k="tiger:county" v="Santa Clara, CA"/>
    <tag k="tiger:name_base" v="Lean"/>
    <tag k="tiger:name_type" v="Ave"/>
    <tag k="tiger:reviewed" v="no"/>
    <tag k="tiger:separated" v="no"/>
    <tag k="tiger:source" v="tiger_import_dch_v0.6_20070809"/>
    <tag k="tiger:tlid" v="122925582:122925583:122925584:122925586:122925589:122925502:122925481:122925484:122925487:123177634:122925490:122925495:122925498"/>
    <tag k="tiger:zip_left" v="95123"/>
    <tag k="tiger:zip_right" v="95123"/>
  </way>
  <way id="28435085" version="4" timestamp="2010-12-14T22:19:19Z" uid="79401" user="Alexander Avtanski" changeset="6663226">
    <nd ref="308868074"/>
    <nd ref="65510890"/>
    <tag k="bridge" v="yes"/>
    <tag k="highway" v="secondary"/>
    <tag k="layer" v="2"/>
    <tag k="name" v="Lean Avenue"/>
    <tag k="tiger:cfcc" v="A41"/>
    <tag k="tiger:county" v="Santa Clara, CA"/>
    <tag k="tiger:name_base" v="Lean"/>
    <tag k="tiger:name_type" v="Ave"/>
    <tag k="tiger:reviewed" v="yes"/>
    <tag k="tiger:separated" v="no"/>
    <tag k="tiger:source" v="tiger_import_dch_v0.6_20070809"/>
    <tag k="tiger:tlid" v="122925582:122925583:122925584:122925586:122925589:122925502:122925481:122925484:122925487:123177634:122925490:122925495:122925498"/>
    <tag k="tiger:zip_left" v="95123"/>
    <tag k="tiger:zip_right" v="95123"/>
  </way>
  <way id="28435085" version="5" timestamp="2011-01-11T06:49:25Z" uid="201724" user="mk408" changeset="6933736">
    <nd ref="308868074"/>
    <nd ref="65510890"/>
    <tag k="bridge" v="yes"/>
    <tag k="highway" v="tertiary"/>
    <tag k="layer" v="2"/>
    <tag k="name" v="Lean Avenue"/>
    <tag k="tiger:county" v="Santa Clara, CA"/>
    <tag k="tiger:name_base" v="Lean"/>
    <tag k="tiger:name_type" v="Ave"/>
    <tag k="tiger:reviewed" v="yes"/>
    <tag k="tiger:zip_left" v="95123"/>
    <tag k="tiger:zip_right" v="95123"/>
  </way>
  <way id="28435111" version="10" timestamp="2011-06-15T03:55:51Z" uid="30201" user="rrankin" changeset="8443750">
    <nd ref="312415153"/>
    <nd ref="312415267"/>
    <nd ref="312415269"/>
    <nd ref="312415270"/>
    <nd ref="312415271"/>
    <nd ref="312415272"/>
    <nd ref="312415273"/>
    <nd ref="312415274"/>
    <nd ref="312415275"/>
    <nd ref="312415276"/>
    <nd ref="312415277"/>
    <nd ref="312415278"/>
    <nd ref="312415279"/>
    <nd ref="312415280"/>
    <nd ref="312415281"/>
    <nd ref="312415282"/>
    <nd ref="312415283"/>
    <nd ref="312415284"/>
    <nd ref="1325961735"/>
    <tag k="railway" v="rail"/>
  </way>
  <way id="28435237" version="28" timestamp="2010-03-28T00:20:08Z" uid="20587" user="balrog-kun" changeset="4250871">
    <nd ref="312415840"/>
    <nd ref="312413498"/>
    <tag k="highway" v="secondary"/>
    <tag k="name" v="Sierra College Boulevard"/>
    <tag k="ref" v="E3"/>
    <tag k="tiger:cfcc" v="A45"/>
    <tag k="tiger:county" v="Placer, CA"/>
    <tag k="tiger:name_base" v="Sierra College"/>
    <tag k="tiger:name_type" v="Blvd"/>
    <tag k="tiger:reviewed" v="no"/>
    <tag k="tiger:separated" v="yes"/>
    <tag k="tiger:source" v="tiger_import_dch_v0.6_20070809"/>
    <tag k="tiger:tlid" v="106777096"/>
  </way>
  <way id="28435237" version="29" timestamp="2011-08-05T09:41:25Z" uid="243490" user="T99" changeset="8927378">
    <nd ref="312415840"/>
    <nd ref="1387246070"/>
    <nd ref="1387246073"/>
    <nd ref="1387246087"/>
    <nd ref="1387246091"/>
    <nd ref="1387246101"/>
    <tag k="cycleway" v="lane"/>
    <tag k="highway" v="secondary"/>
    <tag k="name" v="Sierra College Boulevard"/>
    <tag k="oneway" v="yes"/>
    <tag k="ref" v="E3"/>
    <tag k="source" v="NAIP"/>
  </way>
  <way id="28435237" version="30" timestamp="2011-08-29T07:21:31Z" uid="243490" user="T99" changeset="9154345">
    <nd ref="312415840"/>
    <nd ref="1387246070"/>
    <nd ref="1387246073"/>
    <nd ref="1387246087"/>
    <nd ref="1387246091"/>
    <nd ref="1387246101"/>
    <tag k="cycleway" v="lane"/>
    <tag k="highway" v="primary"/>
    <tag k="name" v="Sierra College Boulevard"/>
    <tag k="oneway" v="yes"/>
    <tag k="ref" v="E3"/>
    <tag k="source" v="NAIP"/>
  </way>
  <way id="28435238" version="7" timestamp="2010-03-28T00:20:08Z" uid="20587" user="balrog-kun" changeset="4250871">
    <nd ref="312415841"/>
    <nd ref="312415840"/>
    <tag k="bridge" v="yes"/>
    <tag k="highway" v="secondary"/>
    <tag k="layer" v="1"/>
    <tag k="name" v="Sierra College Boulevard"/>
    <tag k="ref" v="E3"/>
    <tag k="tiger:cfcc" v="A45"/>
    <tag k="tiger:county" v="Placer, CA"/>
    <tag k="tiger:name_base" v="Sierra College"/>
    <tag k="tiger:name_type" v="Blvd"/>
    <tag k="tiger:reviewed" v="no"/>
    <tag k="tiger:separated" v="yes"/>
    <tag k="tiger:source" v="tiger_import_dch_v0.6_20070809"/>
    <tag k="tiger:tlid" v="106777096"/>
  </way>
  <way id="28435238" version="8" timestamp="2011-08-05T09:41:24Z" uid="243490" user="T99" changeset="8927378">
    <nd ref="312415841"/>
    <nd ref="312415840"/>
    <tag k="bridge" v="yes"/>
    <tag k="cycleway" v="lane"/>
    <tag k="highway" v="secondary"/>
    <tag k="layer" v="1"/>
    <tag k="name" v="Sierra College Boulevard"/>
    <tag k="oneway" v="yes"/>
    <tag k="ref" v="E3"/>
    <tag k="source" v="NAIP"/>
  </way>
  <way id="28435238" version="9" timestamp="2011-08-29T07:21:28Z" uid="243490" user="T99" changeset="9154345">
    <nd ref="312415841"/>
    <nd ref="312415840"/>
    <tag k="bridge" v="yes"/>
    <tag k="cycleway" v="lane"/>
    <tag k="highway" v="primary"/>
    <tag k="layer" v="1"/>
    <tag k="name" v="Sierra College Boulevard"/>
    <tag k="oneway" v="yes"/>
    <tag k="ref" v="E3"/>
    <tag k="source" v="NAIP"/>
  </way>
  <way id="28435323" version="10" timestamp="2010-04-07T13:07:53Z" uid="20587" user="balrog-kun" changeset="4353646">
    <nd ref="144644785"/>
    <nd ref="144667042"/>
    <nd ref="144644863"/>
    <nd ref="144670889"/>
    <nd ref="144652308"/>
    <nd ref="144670893"/>
    <nd ref="144665039"/>
    <nd ref="144670899"/>
    <nd ref="144670902"/>
    <nd ref="144639949"/>
    <nd ref="144670905"/>
    <nd ref="144652178"/>
    <nd ref="144652870"/>
    <nd ref="144639939"/>
    <nd ref="144670910"/>
    <nd ref="144670911"/>
    <nd ref="144670912"/>
    <nd ref="144670913"/>
    <nd ref="144670914"/>
    <nd ref="144670915"/>
    <nd ref="144652861"/>
    <nd ref="144670916"/>
    <nd ref="144670917"/>
    <nd ref="144670919"/>
    <nd ref="144638788"/>
    <nd ref="144663126"/>
    <nd ref="144663133"/>
    <tag k="created_by" v="Potlatch 0.10f"/>
    <tag k="highway" v="secondary"/>
    <tag k="name" v="State Highway 43; State Highway 43  East"/>
    <tag k="tiger:cfcc" v="A31"/>
    <tag k="tiger:county" v="Atoka, OK"/>
    <tag k="tiger:name_base" v="State Highway 43"/>
    <tag k="tiger:name_direction_suffix" v="E"/>
    <tag k="tiger:reviewed" v="no"/>
    <tag k="tiger:separated" v="no"/>
    <tag k="tiger:source" v="tiger_import_dch_v0.6_20070829"/>
    <tag k="tiger:tlid" v="63076689:63076710:63075051:63075054:63076678:63076679:63075042:63075045:63075048:63076681:63076682:63075030:63075033:63075036:63066754:63066641:63066255:63066257:63075021:63075024; 63066260:63066565:63066271:63066264:63066405:63066275:63066276:63072029"/>
  </way>
  <way id="28435323" version="11" timestamp="2010-08-10T16:43:09Z" uid="7203" user="ToffeHoff" changeset="5455455">
    <nd ref="144644785"/>
    <nd ref="144644863"/>
    <nd ref="144670889"/>
    <nd ref="144652308"/>
    <nd ref="144670893"/>
    <nd ref="144665039"/>
    <nd ref="144670899"/>
    <nd ref="144670902"/>
    <nd ref="144639949"/>
    <nd ref="144670905"/>
    <nd ref="144652178"/>
    <nd ref="144652870"/>
    <nd ref="144639939"/>
    <nd ref="144670910"/>
    <nd ref="144670911"/>
    <nd ref="144670912"/>
    <nd ref="144670913"/>
    <nd ref="144670914"/>
    <nd ref="144670915"/>
    <nd ref="144652861"/>
    <nd ref="144670916"/>
    <nd ref="144670917"/>
    <nd ref="144670919"/>
    <nd ref="144638788"/>
    <nd ref="144663126"/>
    <nd ref="144663133"/>
    <tag k="highway" v="secondary"/>
    <tag k="name" v="State Highway 43; State Highway 43  East"/>
    <tag k="tiger:cfcc" v="A31"/>
    <tag k="tiger:county" v="Atoka, OK"/>
    <tag k="tiger:name_base" v="State Highway 43"/>
    <tag k="tiger:name_direction_suffix" v="E"/>
    <tag k="tiger:reviewed" v="no"/>
    <tag k="tiger:separated" v="no"/>
    <tag k="tiger:source" v="tiger_import_dch_v0.6_20070829"/>
    <tag k="tiger:tlid" v="63076689:63076710:63075051:63075054:63076678:63076679:63075042:63075045:63075048:63076681:63076682:63075030:63075033:63075036:63066754:63066641:63066255:63066257:63075021:63075024; 63066260:63066565:63066271:63066264:63066405:63066275:63066276:63072029"/>
  </way>
  <way id="28435347" version="3" timestamp="2008-11-26T02:09:11Z" uid="6975" user="ulfl" changeset="794829">
    <nd ref="312417418"/>
    <nd ref="312417419"/>
    <nd ref="310327232"/>
    <nd ref="312417720"/>
    <nd ref="262390934"/>
    <tag k="tracktype" v="grade1"/>
  </way>
  <way id="28435347" version="4" timestamp="2009-01-05T06:35:32Z" uid="78249" user="estailes" changeset="736786">
    <nd ref="312417418"/>
    <nd ref="312417419"/>
    <nd ref="310327232"/>
    <nd ref="312417720"/>
    <nd ref="262390934"/>
    <tag k="created_by" v="Potlatch 0.10f"/>
    <tag k="highway" v="tertiary"/>
    <tag k="tracktype" v="grade1"/>
  </way>
  <way id="28435347" version="5" timestamp="2009-03-31T06:53:06Z" uid="78249" user="estailes" changeset="871807">
    <nd ref="312417418"/>
    <nd ref="312417419"/>
    <nd ref="310327232"/>
    <nd ref="312417720"/>
    <nd ref="367817218"/>
    <nd ref="262390934"/>
    <tag k="created_by" v="Potlatch 0.10f"/>
    <tag k="highway" v="tertiary"/>
    <tag k="tracktype" v="grade1"/>
  </way>
  <way id="28435347" version="6" timestamp="2009-10-05T14:01:07Z" uid="175156" user="maxneo" changeset="2750312">
    <nd ref="312417418"/>
    <nd ref="312417419"/>
    <nd ref="310327232"/>
    <nd ref="312417720"/>
    <nd ref="367817218"/>
    <nd ref="262390934"/>
    <tag k="highway" v="tertiary"/>
    <tag k="name" v="Carrera 72"/>
    <tag k="tracktype" v="grade1"/>
  </way>
  <way id="28435347" version="7" timestamp="2009-10-09T15:23:20Z" uid="176083" user="hdorod" changeset="2794949">
    <nd ref="312417418"/>
    <nd ref="312417419"/>
    <nd ref="310327232"/>
    <nd ref="312417720"/>
    <nd ref="367817218"/>
    <nd ref="262390934"/>
    <tag k="highway" v="tertiary"/>
    <tag k="name" v="Avenida Boyacá Carrera 72"/>
    <tag k="tracktype" v="grade1"/>
  </way>
  <way id="28435347" version="8" timestamp="2010-05-01T18:13:50Z" uid="133835" user="rcastib" changeset="4577872">
    <nd ref="312417418"/>
    <nd ref="312417419"/>
    <nd ref="310327232"/>
    <nd ref="312417720"/>
    <nd ref="262390934"/>
    <tag k="highway" v="tertiary"/>
    <tag k="name" v="Avenida Boyacá Carrera 72"/>
    <tag k="tracktype" v="grade1"/>
  </way>
  <way id="28435347" version="9" timestamp="2010-09-19T03:31:01Z" uid="37987" user="ikks" changeset="5816514">
    <nd ref="262390934"/>
    <nd ref="312417720"/>
    <nd ref="310327232"/>
    <nd ref="312417419"/>
    <nd ref="917879200"/>
    <nd ref="917879038"/>
    <nd ref="917879064"/>
    <tag k="highway" v="tertiary"/>
    <tag k="name" v="Avenida Boyacá Carrera 72"/>
    <tag k="oneway" v="yes"/>
    <tag k="tracktype" v="grade1"/>
  </way>
  <way id="28435347" version="10" timestamp="2010-12-20T16:40:54Z" uid="340352" user="LGARS" changeset="6717598">
    <nd ref="262390934"/>
    <nd ref="312417720"/>
    <tag k="highway" v="tertiary"/>
    <tag k="name" v="Avenida Boyacá Carrera 72"/>
    <tag k="oneway" v="yes"/>
    <tag k="tracktype" v="grade1"/>
  </way>
  <way id="28435347" version="11" timestamp="2011-01-27T16:18:43Z" uid="400900" user="Alexgm01" changeset="7104732">
    <nd ref="262390934"/>
    <nd ref="312417720"/>
    <tag k="highway" v="secondary"/>
    <tag k="name" v="Avenida Boyacá Carrera 72"/>
    <tag k="oneway" v="yes"/>
    <tag k="tracktype" v="grade1"/>
  </way>
  <way id="28435367" version="2" timestamp="2008-11-26T02:09:11Z" uid="6975" user="ulfl" changeset="794829">
    <nd ref="312417695"/>
    <nd ref="310327233"/>
    <nd ref="312417696"/>
    <nd ref="312417697"/>
    <tag k="tracktype" v="grade1"/>
  </way>
  <way id="28435367" version="3" timestamp="2009-01-05T06:35:26Z" uid="78249" user="estailes" changeset="736786">
    <nd ref="312417695"/>
    <nd ref="310327233"/>
    <nd ref="312417696"/>
    <nd ref="312417697"/>
    <tag k="created_by" v="Potlatch 0.10f"/>
    <tag k="highway" v="residential"/>
    <tag k="tracktype" v="grade1"/>
  </way>
  <way id="28435367" version="4" timestamp="2009-10-05T14:01:10Z" uid="175156" user="maxneo" changeset="2750312">
    <nd ref="312417695"/>
    <nd ref="310327233"/>
    <nd ref="312417696"/>
    <nd ref="312417697"/>
    <tag k="highway" v="residential"/>
    <tag k="name" v="Carrera 70"/>
    <tag k="tracktype" v="grade1"/>
  </way>
  <way id="28435367" version="5" timestamp="2010-09-19T03:31:04Z" uid="37987" user="ikks" changeset="5816514">
    <nd ref="312417695"/>
    <nd ref="310327233"/>
    <nd ref="312417696"/>
    <nd ref="917879072"/>
    <tag k="highway" v="residential"/>
    <tag k="name" v="Carrera 70"/>
    <tag k="tracktype" v="grade1"/>
  </way>
  <way id="28435367" version="6" timestamp="2010-12-20T16:40:54Z" uid="340352" user="LGARS" changeset="6717598">
    <nd ref="312417695"/>
    <nd ref="310327233"/>
    <tag k="highway" v="residential"/>
    <tag k="name" v="Carrera 70"/>
    <tag k="tracktype" v="grade1"/>
  </way>
  <way id="28435368" version="2" timestamp="2008-11-26T02:09:14Z" uid="6975" user="ulfl" changeset="794829">
    <nd ref="312417718"/>
    <nd ref="312417719"/>
    <nd ref="312417720"/>
    <nd ref="312417721"/>
    <tag k="tracktype" v="grade1"/>
  </way>
  <way id="28435368" version="3" timestamp="2009-10-05T14:01:10Z" uid="175156" user="maxneo" changeset="2750312">
    <nd ref="312417718"/>
    <nd ref="312417719"/>
    <nd ref="312417720"/>
    <nd ref="312417721"/>
    <tag k="name" v="Calle 173"/>
    <tag k="tracktype" v="grade1"/>
  </way>
  <way id="28435368" version="4" timestamp="2009-10-05T14:06:14Z" uid="175156" user="maxneo" changeset="2750312">
    <nd ref="312417718"/>
    <nd ref="312417719"/>
    <nd ref="312417720"/>
    <nd ref="312417721"/>
    <tag k="highway" v="residential"/>
    <tag k="name" v="Calle 173"/>
  </way>
  <way id="28435368" version="5" timestamp="2010-12-20T16:40:55Z" uid="340352" user="LGARS" changeset="6717598">
    <nd ref="312417718"/>
    <nd ref="1051978360"/>
    <tag k="highway" v="residential"/>
    <tag k="name" v="Calle 173"/>
  </way>
  <way id="28435379" version="2" timestamp="2010-03-28T00:20:09Z" uid="20587" user="balrog-kun" changeset="4250871">
    <nd ref="312418077"/>
    <nd ref="248095932"/>
    <nd ref="248095931"/>
    <nd ref="248095943"/>
    <nd ref="248095965"/>
    <nd ref="33463490"/>
    <tag k="created_by" v="Potlatch 0.10f"/>
    <tag k="highway" v="primary"/>
    <tag k="name" v="West Tasman Drive"/>
    <tag k="oneway" v="yes"/>
  </way>
  <way id="28435379" version="3" timestamp="2011-07-05T14:37:57Z" uid="14293" user="JuxTPosition" changeset="8639692">
    <nd ref="312418077"/>
    <nd ref="248095932"/>
    <nd ref="1350366943"/>
    <nd ref="248095931"/>
    <nd ref="1350366873"/>
    <nd ref="248095943"/>
    <nd ref="248095965"/>
    <nd ref="33463490"/>
    <tag k="highway" v="primary"/>
    <tag k="name" v="West Tasman Drive"/>
    <tag k="oneway" v="yes"/>
  </way>
  <way id="28435379" version="4" timestamp="2011-07-05T15:06:13Z" uid="14293" user="JuxTPosition" changeset="8639940">
    <nd ref="312418077"/>
    <nd ref="248095932"/>
    <nd ref="1350383226"/>
    <nd ref="1350383183"/>
    <nd ref="1350366943"/>
    <nd ref="1350366873"/>
    <nd ref="248095943"/>
    <nd ref="1350383278"/>
    <nd ref="1350383222"/>
    <nd ref="248095965"/>
    <nd ref="33463490"/>
    <tag k="highway" v="primary"/>
    <tag k="name" v="West Tasman Drive"/>
    <tag k="oneway" v="yes"/>
  </way>
  <way id="28435379" version="5" timestamp="2012-03-05T08:44:51Z" uid="14293" user="JuxTPosition" changeset="10877124"/>
  <way id="28435380" version="3" timestamp="2010-03-28T00:20:09Z" uid="20587" user="balrog-kun" changeset="4250871">
    <nd ref="248095769"/>
    <nd ref="312418077"/>
    <tag k="bridge" v="yes"/>
    <tag k="created_by" v="Potlatch 0.10f"/>
    <tag k="highway" v="primary"/>
    <tag k="layer" v="1"/>
    <tag k="name" v="West Tasman Drive"/>
    <tag k="oneway" v="yes"/>
  </way>
  <way id="28435380" version="4" timestamp="2010-12-30T01:19:23Z" uid="14293" user="dahveed76" changeset="6805248">
    <nd ref="248095769"/>
    <nd ref="312418077"/>
    <tag k="bridge" v="yes"/>
    <tag k="highway" v="primary"/>
    <tag k="layer" v="1"/>
    <tag k="name" v="West Tasman Drive"/>
    <tag k="oneway" v="yes"/>
  </way>
  <way id="28435380" version="5" timestamp="2011-07-04T20:06:52Z" uid="42429" user="FK270673" changeset="8633311">
    <nd ref="248095769"/>
    <nd ref="312418077"/>
    <tag k="bridge" v="yes"/>
    <tag k="highway" v="primary"/>
    <tag k="layer" v="1"/>
    <tag k="name" v="West Tasman Drive"/>
    <tag k="oneway" v="yes"/>
  </way>
  <way id="28435389" version="8" timestamp="2011-05-24T09:01:52Z" uid="4467" user="Rosscoe" changeset="8233304">
    <nd ref="898309910"/>
    <nd ref="316203136"/>
    <nd ref="898309858"/>
    <nd ref="316203137"/>
    <nd ref="316203138"/>
    <nd ref="554267186"/>
    <nd ref="316203139"/>
    <nd ref="316203140"/>
    <nd ref="554267158"/>
    <nd ref="316203141"/>
    <nd ref="898309783"/>
    <nd ref="898309898"/>
    <tag k="highway" v="secondary"/>
    <tag k="name" v="Clarendon Street"/>
  </way>
  <way id="28435400" version="5" timestamp="2010-04-07T13:07:54Z" uid="20587" user="balrog-kun" changeset="4353646">
    <nd ref="144640500"/>
    <nd ref="144670256"/>
    <tag k="highway" v="secondary"/>
    <tag k="name" v="State Highway 43  East"/>
    <tag k="tiger:cfcc" v="A31"/>
    <tag k="tiger:county" v="Atoka, OK"/>
    <tag k="tiger:name_base" v="State Highway 43"/>
    <tag k="tiger:name_direction_suffix" v="E"/>
    <tag k="tiger:reviewed" v="no"/>
    <tag k="tiger:separated" v="no"/>
    <tag k="tiger:source" v="tiger_import_dch_v0.6_20070829"/>
    <tag k="tiger:tlid" v="63066260:63066565:63066271:63066264:63066405:63066275:63066276:63072029"/>
  </way>
  <way id="28435409" version="2" timestamp="2010-04-07T13:07:54Z" uid="20587" user="balrog-kun" changeset="4353646">
    <nd ref="144670256"/>
    <nd ref="144652921"/>
    <nd ref="144670258"/>
    <nd ref="144670260"/>
    <nd ref="144670263"/>
    <nd ref="144670265"/>
    <nd ref="144670269"/>
    <nd ref="144670271"/>
    <nd ref="144653864"/>
    <nd ref="144670273"/>
    <nd ref="144670286"/>
    <nd ref="144670290"/>
    <nd ref="144635193"/>
    <nd ref="144635170"/>
    <nd ref="144670292"/>
    <nd ref="144644785"/>
    <tag k="created_by" v="Potlatch 0.10f"/>
    <tag k="highway" v="secondary"/>
    <tag k="name" v="State Highway 43  East"/>
    <tag k="tiger:cfcc" v="A31"/>
    <tag k="tiger:county" v="Atoka, OK"/>
    <tag k="tiger:name_base" v="State Highway 43"/>
    <tag k="tiger:name_direction_suffix" v="E"/>
    <tag k="tiger:reviewed" v="no"/>
    <tag k="tiger:separated" v="no"/>
    <tag k="tiger:source" v="tiger_import_dch_v0.6_20070829"/>
    <tag k="tiger:tlid" v="63066260:63066565:63066271:63066264:63066405:63066275:63066276:63072029"/>
  </way>
  <way id="28435412" version="3" timestamp="2010-04-07T13:07:54Z" uid="20587" user="balrog-kun" changeset="4353646">
    <nd ref="144640500"/>
    <nd ref="144670256"/>
    <tag k="highway" v="secondary"/>
    <tag k="name" v="State Highway 43  East"/>
    <tag k="tiger:cfcc" v="A31"/>
    <tag k="tiger:county" v="Atoka, OK"/>
    <tag k="tiger:name_base" v="State Highway 43"/>
    <tag k="tiger:name_direction_suffix" v="E"/>
    <tag k="tiger:reviewed" v="no"/>
    <tag k="tiger:separated" v="no"/>
    <tag k="tiger:source" v="tiger_import_dch_v0.6_20070829"/>
    <tag k="tiger:tlid" v="63066260:63066565:63066271:63066264:63066405:63066275:63066276:63072029"/>
  </way>
  <way id="28435478" version="4" timestamp="2010-03-28T00:20:09Z" uid="20587" user="balrog-kun" changeset="4250871">
    <nd ref="312419186"/>
    <nd ref="65402244"/>
    <nd ref="245919614"/>
    <nd ref="245919636"/>
    <nd ref="33620631"/>
    <nd ref="33102518"/>
    <tag k="created_by" v="Potlatch 0.10f"/>
    <tag k="highway" v="motorway"/>
    <tag k="layer" v="1"/>
    <tag k="name" v="Nimitz Freeway"/>
    <tag k="oneway" v="yes"/>
    <tag k="ref" v="I 880"/>
  </way>
  <way id="28435478" version="5" timestamp="2011-01-02T11:49:24Z" uid="162110" user="tahongawaka" changeset="6837173">
    <nd ref="312419186"/>
    <nd ref="65402244"/>
    <nd ref="245919614"/>
    <nd ref="245919636"/>
    <nd ref="33620631"/>
    <nd ref="33102518"/>
    <tag k="highway" v="motorway"/>
    <tag k="layer" v="1"/>
    <tag k="name" v="Nimitz Freeway"/>
    <tag k="oneway" v="yes"/>
    <tag k="ref" v="I 880"/>
    <tag k="symbol" v="http://upload.wikimedia.org/wikipedia/commons/e/ea/I-880_%28CA%29.svg"/>
  </way>
  <way id="28435478" version="6" timestamp="2011-01-02T11:56:40Z" uid="162110" user="tahongawaka" changeset="6837530">
    <nd ref="312419186"/>
    <nd ref="65402244"/>
    <nd ref="245919614"/>
    <nd ref="245919636"/>
    <nd ref="33620631"/>
    <nd ref="33102518"/>
    <tag k="highway" v="motorway"/>
    <tag k="layer" v="1"/>
    <tag k="name" v="Interstate 880 (North)"/>
    <tag k="oneway" v="yes"/>
    <tag k="ref" v="I 880"/>
    <tag k="symbol" v="http://upload.wikimedia.org/wikipedia/commons/e/ea/I-880_%28CA%29.svg"/>
  </way>
  <way id="28435478" version="7" timestamp="2011-07-31T11:43:16Z" uid="207745" user="NE2" changeset="8880034">
    <nd ref="312419186"/>
    <nd ref="65402244"/>
    <nd ref="245919614"/>
    <nd ref="245919636"/>
    <nd ref="33620631"/>
    <nd ref="33102518"/>
    <tag k="highway" v="motorway"/>
    <tag k="lanes" v="3"/>
    <tag k="layer" v="1"/>
    <tag k="oneway" v="yes"/>
    <tag k="ref" v="I 880"/>
  </way>
  <way id="28435478" version="8" timestamp="2011-11-21T16:03:06Z" uid="207745" user="NE2" changeset="9898570">
    <nd ref="312419186"/>
    <nd ref="65402244"/>
    <nd ref="245919614"/>
    <nd ref="245919636"/>
    <nd ref="33620631"/>
    <nd ref="33102518"/>
    <tag k="hgv" v="designated"/>
    <tag k="highway" v="motorway"/>
    <tag k="lanes" v="3"/>
    <tag k="layer" v="1"/>
    <tag k="oneway" v="yes"/>
    <tag k="ref" v="I 880"/>
  </way>
  <way id="28435480" version="4" timestamp="2010-03-28T00:20:10Z" uid="20587" user="balrog-kun" changeset="4250871">
    <nd ref="312419190"/>
    <nd ref="312419186"/>
    <tag k="bridge" v="yes"/>
    <tag k="created_by" v="Potlatch 0.10f"/>
    <tag k="highway" v="motorway"/>
    <tag k="layer" v="1"/>
    <tag k="name" v="Nimitz Freeway"/>
    <tag k="oneway" v="yes"/>
    <tag k="ref" v="I 880"/>
  </way>
  <way id="28435480" version="5" timestamp="2011-01-02T11:49:42Z" uid="162110" user="tahongawaka" changeset="6837173">
    <nd ref="312419190"/>
    <nd ref="312419186"/>
    <tag k="bridge" v="yes"/>
    <tag k="highway" v="motorway"/>
    <tag k="layer" v="1"/>
    <tag k="name" v="Nimitz Freeway"/>
    <tag k="oneway" v="yes"/>
    <tag k="ref" v="I 880"/>
    <tag k="symbol" v="http://upload.wikimedia.org/wikipedia/commons/e/ea/I-880_%28CA%29.svg"/>
  </way>
  <way id="28435480" version="6" timestamp="2011-01-02T11:56:31Z" uid="162110" user="tahongawaka" changeset="6837530">
    <nd ref="312419190"/>
    <nd ref="312419186"/>
    <tag k="bridge" v="yes"/>
    <tag k="highway" v="motorway"/>
    <tag k="layer" v="1"/>
    <tag k="name" v="Interstate 880 (North)"/>
    <tag k="oneway" v="yes"/>
    <tag k="ref" v="I 880"/>
    <tag k="symbol" v="http://upload.wikimedia.org/wikipedia/commons/e/ea/I-880_%28CA%29.svg"/>
  </way>
  <way id="28435480" version="7" timestamp="2011-07-31T11:43:12Z" uid="207745" user="NE2" changeset="8880034">
    <nd ref="312419190"/>
    <nd ref="312419186"/>
    <tag k="bridge" v="yes"/>
    <tag k="highway" v="motorway"/>
    <tag k="lanes" v="3"/>
    <tag k="layer" v="1"/>
    <tag k="oneway" v="yes"/>
    <tag k="ref" v="I 880"/>
  </way>
  <way id="28435480" version="8" timestamp="2011-11-21T16:02:54Z" uid="207745" user="NE2" changeset="9898570">
    <nd ref="312419190"/>
    <nd ref="312419186"/>
    <tag k="bridge" v="yes"/>
    <tag k="hgv" v="designated"/>
    <tag k="highway" v="motorway"/>
    <tag k="lanes" v="3"/>
    <tag k="layer" v="1"/>
    <tag k="oneway" v="yes"/>
    <tag k="ref" v="I 880"/>
  </way>
  <way id="28435495" version="9" timestamp="2010-03-28T00:20:10Z" uid="20587" user="balrog-kun" changeset="4250871">
    <nd ref="65495533"/>
    <nd ref="65417082"/>
    <nd ref="312419904"/>
    <nd ref="65495535"/>
    <nd ref="312419905"/>
    <nd ref="83078840"/>
    <nd ref="65495536"/>
    <nd ref="312419945"/>
    <tag k="created_by" v="Potlatch 0.10f"/>
    <tag k="highway" v="motorway"/>
    <tag k="name" v="Nimitz Freeway"/>
    <tag k="oneway" v="yes"/>
    <tag k="ref" v="I 880"/>
    <tag k="tiger:cfcc" v="A11"/>
    <tag k="tiger:county" v="Santa Clara, CA"/>
    <tag k="tiger:name_base" v="I-880"/>
    <tag k="tiger:name_base_1" v="Nimitz"/>
    <tag k="tiger:name_type_1" v="Fwy"/>
    <tag k="tiger:separated" v="no"/>
    <tag k="tiger:source" v="tiger_import_dch_v0.6_20070809"/>
    <tag k="tiger:tlid" v="122904190:123180722:123176993:122904227:122995232:122902926:122902927:122902934:122902936:122902937:122902939:122902943:122995233:122903295:123004993:122903292:123014806:123014807:122903345:122903350:122903351:122968411:122903383:122902904:122903331:12290"/>
  </way>
  <way id="28435495" version="10" timestamp="2011-01-02T11:51:02Z" uid="162110" user="tahongawaka" changeset="6837173">
    <nd ref="65495533"/>
    <nd ref="65417082"/>
    <nd ref="312419904"/>
    <nd ref="65495535"/>
    <nd ref="312419905"/>
    <nd ref="83078840"/>
    <nd ref="65495536"/>
    <nd ref="312419945"/>
    <tag k="highway" v="motorway"/>
    <tag k="name" v="Nimitz Freeway"/>
    <tag k="oneway" v="yes"/>
    <tag k="ref" v="I 880"/>
    <tag k="symbol" v="http://upload.wikimedia.org/wikipedia/commons/e/ea/I-880_%28CA%29.svg"/>
    <tag k="tiger:cfcc" v="A11"/>
    <tag k="tiger:county" v="Santa Clara, CA"/>
    <tag k="tiger:name_base" v="I-880"/>
    <tag k="tiger:name_base_1" v="Nimitz"/>
    <tag k="tiger:name_type_1" v="Fwy"/>
    <tag k="tiger:separated" v="no"/>
    <tag k="tiger:source" v="tiger_import_dch_v0.6_20070809"/>
    <tag k="tiger:tlid" v="122904190:123180722:123176993:122904227:122995232:122902926:122902927:122902934:122902936:122902937:122902939:122902943:122995233:122903295:123004993:122903292:123014806:123014807:122903345:122903350:122903351:122968411:122903383:122902904:122903331:12290"/>
  </way>
  <way id="28435495" version="11" timestamp="2011-07-31T11:43:17Z" uid="207745" user="NE2" changeset="8880034">
    <nd ref="65495533"/>
    <nd ref="65417082"/>
    <nd ref="312419904"/>
    <nd ref="65495535"/>
    <nd ref="312419905"/>
    <nd ref="83078840"/>
    <nd ref="65495536"/>
    <nd ref="312419945"/>
    <tag k="highway" v="motorway"/>
    <tag k="lanes" v="3"/>
    <tag k="oneway" v="yes"/>
    <tag k="ref" v="I 880"/>
    <tag k="tiger:cfcc" v="A11"/>
    <tag k="tiger:county" v="Santa Clara, CA"/>
    <tag k="tiger:name_base" v="I-880"/>
    <tag k="tiger:name_base_1" v="Nimitz"/>
    <tag k="tiger:name_type_1" v="Fwy"/>
    <tag k="tiger:separated" v="no"/>
    <tag k="tiger:source" v="tiger_import_dch_v0.6_20070809"/>
    <tag k="tiger:tlid" v="122904190:123180722:123176993:122904227:122995232:122902926:122902927:122902934:122902936:122902937:122902939:122902943:122995233:122903295:123004993:122903292:123014806:123014807:122903345:122903350:122903351:122968411:122903383:122902904:122903331:12290"/>
  </way>
  <way id="28435495" version="12" timestamp="2011-11-21T16:03:08Z" uid="207745" user="NE2" changeset="9898570">
    <nd ref="65495533"/>
    <nd ref="65417082"/>
    <nd ref="312419904"/>
    <nd ref="65495535"/>
    <nd ref="312419905"/>
    <nd ref="83078840"/>
    <nd ref="65495536"/>
    <nd ref="312419945"/>
    <tag k="hgv" v="designated"/>
    <tag k="highway" v="motorway"/>
    <tag k="lanes" v="3"/>
    <tag k="oneway" v="yes"/>
    <tag k="ref" v="I 880"/>
    <tag k="tiger:cfcc" v="A11"/>
    <tag k="tiger:county" v="Santa Clara, CA"/>
    <tag k="tiger:name_base" v="I-880"/>
    <tag k="tiger:name_base_1" v="Nimitz"/>
    <tag k="tiger:name_type_1" v="Fwy"/>
    <tag k="tiger:separated" v="no"/>
    <tag k="tiger:source" v="tiger_import_dch_v0.6_20070809"/>
    <tag k="tiger:tlid" v="122904190:123180722:123176993:122904227:122995232:122902926:122902927:122902934:122902936:122902937:122902939:122902943:122995233:122903295:123004993:122903292:123014806:123014807:122903345:122903350:122903351:122968411:122903383:122902904:122903331:12290"/>
  </way>
  <way id="28435495" version="13" timestamp="2011-12-07T05:51:26Z" uid="425864" user="Lhelfrich" changeset="10055182">
    <nd ref="65495533"/>
    <nd ref="65417082"/>
    <nd ref="312419904"/>
    <nd ref="65495535"/>
    <nd ref="312419905"/>
    <nd ref="83078840"/>
    <nd ref="65495536"/>
    <nd ref="312419945"/>
    <tag k="hgv" v="designated"/>
    <tag k="highway" v="motorway"/>
    <tag k="lanes" v="3"/>
    <tag k="ref" v="I 880"/>
    <tag k="tiger:cfcc" v="A11"/>
    <tag k="tiger:county" v="Santa Clara, CA"/>
    <tag k="tiger:name_base" v="I-880"/>
    <tag k="tiger:name_base_1" v="Nimitz"/>
    <tag k="tiger:name_type_1" v="Fwy"/>
    <tag k="tiger:separated" v="no"/>
    <tag k="tiger:source" v="tiger_import_dch_v0.6_20070809"/>
    <tag k="tiger:tlid" v="122904190:123180722:123176993:122904227:122995232:122902926:122902927:122902934:122902936:122902937:122902939:122902943:122995233:122903295:123004993:122903292:123014806:123014807:122903345:122903350:122903351:122968411:122903383:122902904:122903331:12290"/>
  </way>
  <way id="28435496" version="5" timestamp="2010-03-28T00:20:10Z" uid="20587" user="balrog-kun" changeset="4250871">
    <nd ref="65390664"/>
    <nd ref="65495533"/>
    <tag k="bridge" v="yes"/>
    <tag k="highway" v="motorway"/>
    <tag k="layer" v="1"/>
    <tag k="name" v="Nimitz Freeway"/>
    <tag k="oneway" v="yes"/>
    <tag k="ref" v="I 880"/>
    <tag k="tiger:cfcc" v="A11"/>
    <tag k="tiger:county" v="Santa Clara, CA"/>
    <tag k="tiger:name_base" v="I-880"/>
    <tag k="tiger:name_base_1" v="Nimitz"/>
    <tag k="tiger:name_type_1" v="Fwy"/>
    <tag k="tiger:separated" v="no"/>
    <tag k="tiger:source" v="tiger_import_dch_v0.6_20070809"/>
    <tag k="tiger:tlid" v="122904190:123180722:123176993:122904227:122995232:122902926:122902927:122902934:122902936:122902937:122902939:122902943:122995233:122903295:123004993:122903292:123014806:123014807:122903345:122903350:122903351:122968411:122903383:122902904:122903331:12290"/>
  </way>
  <way id="28435496" version="6" timestamp="2011-07-31T11:43:14Z" uid="207745" user="NE2" changeset="8880034">
    <nd ref="65390664"/>
    <nd ref="65495533"/>
    <tag k="bridge" v="yes"/>
    <tag k="highway" v="motorway"/>
    <tag k="lanes" v="3"/>
    <tag k="layer" v="1"/>
    <tag k="oneway" v="yes"/>
    <tag k="ref" v="I 880"/>
    <tag k="tiger:cfcc" v="A11"/>
    <tag k="tiger:county" v="Santa Clara, CA"/>
    <tag k="tiger:name_base" v="I-880"/>
    <tag k="tiger:name_base_1" v="Nimitz"/>
    <tag k="tiger:name_type_1" v="Fwy"/>
    <tag k="tiger:separated" v="no"/>
    <tag k="tiger:source" v="tiger_import_dch_v0.6_20070809"/>
    <tag k="tiger:tlid" v="122904190:123180722:123176993:122904227:122995232:122902926:122902927:122902934:122902936:122902937:122902939:122902943:122995233:122903295:123004993:122903292:123014806:123014807:122903345:122903350:122903351:122968411:122903383:122902904:122903331:12290"/>
  </way>
  <way id="28435496" version="7" timestamp="2011-11-21T16:02:57Z" uid="207745" user="NE2" changeset="9898570">
    <nd ref="65390664"/>
    <nd ref="65495533"/>
    <tag k="bridge" v="yes"/>
    <tag k="hgv" v="designated"/>
    <tag k="highway" v="motorway"/>
    <tag k="lanes" v="3"/>
    <tag k="layer" v="1"/>
    <tag k="oneway" v="yes"/>
    <tag k="ref" v="I 880"/>
    <tag k="tiger:cfcc" v="A11"/>
    <tag k="tiger:county" v="Santa Clara, CA"/>
    <tag k="tiger:name_base" v="I-880"/>
    <tag k="tiger:name_base_1" v="Nimitz"/>
    <tag k="tiger:name_type_1" v="Fwy"/>
    <tag k="tiger:separated" v="no"/>
    <tag k="tiger:source" v="tiger_import_dch_v0.6_20070809"/>
    <tag k="tiger:tlid" v="122904190:123180722:123176993:122904227:122995232:122902926:122902927:122902934:122902936:122902937:122902939:122902943:122995233:122903295:123004993:122903292:123014806:123014807:122903345:122903350:122903351:122968411:122903383:122902904:122903331:12290"/>
  </way>
  <way id="28435499" version="5" timestamp="2010-03-28T00:20:11Z" uid="20587" user="balrog-kun" changeset="4250871">
    <nd ref="312419370"/>
    <nd ref="312419371"/>
    <tag k="bridge" v="yes"/>
    <tag k="created_by" v="Potlatch 0.10f"/>
    <tag k="highway" v="motorway"/>
    <tag k="layer" v="1"/>
    <tag k="name" v="Nimitz Freeway"/>
    <tag k="oneway" v="yes"/>
    <tag k="ref" v="I 880"/>
  </way>
  <way id="28435499" version="6" timestamp="2011-01-02T11:51:09Z" uid="162110" user="tahongawaka" changeset="6837173">
    <nd ref="312419370"/>
    <nd ref="312419371"/>
    <tag k="bridge" v="yes"/>
    <tag k="highway" v="motorway"/>
    <tag k="layer" v="1"/>
    <tag k="name" v="Nimitz Freeway"/>
    <tag k="oneway" v="yes"/>
    <tag k="ref" v="I 880"/>
    <tag k="symbol" v="http://upload.wikimedia.org/wikipedia/commons/e/ea/I-880_%28CA%29.svg"/>
  </way>
  <way id="28435499" version="7" timestamp="2011-01-02T11:56:02Z" uid="162110" user="tahongawaka" changeset="6837530">
    <nd ref="312419370"/>
    <nd ref="312419371"/>
    <tag k="bridge" v="yes"/>
    <tag k="highway" v="motorway"/>
    <tag k="layer" v="1"/>
    <tag k="name" v="Interstate 880 (North)"/>
    <tag k="oneway" v="yes"/>
    <tag k="ref" v="I 880"/>
    <tag k="symbol" v="http://upload.wikimedia.org/wikipedia/commons/e/ea/I-880_%28CA%29.svg"/>
  </way>
  <way id="28435499" version="8" timestamp="2011-07-31T11:43:11Z" uid="207745" user="NE2" changeset="8880034">
    <nd ref="312419370"/>
    <nd ref="312419371"/>
    <tag k="bridge" v="yes"/>
    <tag k="highway" v="motorway"/>
    <tag k="lanes" v="3"/>
    <tag k="layer" v="1"/>
    <tag k="oneway" v="yes"/>
    <tag k="ref" v="I 880"/>
  </way>
  <way id="28435499" version="9" timestamp="2011-11-21T16:02:57Z" uid="207745" user="NE2" changeset="9898570">
    <nd ref="312419370"/>
    <nd ref="312419371"/>
    <tag k="bridge" v="yes"/>
    <tag k="hgv" v="designated"/>
    <tag k="highway" v="motorway"/>
    <tag k="lanes" v="3"/>
    <tag k="layer" v="1"/>
    <tag k="oneway" v="yes"/>
    <tag k="ref" v="I 880"/>
  </way>
  <way id="28435501" version="7" timestamp="2010-03-28T00:20:11Z" uid="20587" user="balrog-kun" changeset="4250871">
    <nd ref="312419371"/>
    <nd ref="283018947"/>
    <nd ref="311577621"/>
    <nd ref="311577622"/>
    <nd ref="311577375"/>
    <nd ref="311577420"/>
    <nd ref="33102529"/>
    <nd ref="311575955"/>
    <nd ref="33102524"/>
    <nd ref="312419190"/>
    <tag k="highway" v="motorway"/>
    <tag k="layer" v="1"/>
    <tag k="name" v="Nimitz Freeway"/>
    <tag k="oneway" v="yes"/>
    <tag k="ref" v="I 880"/>
  </way>
  <way id="28435501" version="8" timestamp="2011-01-02T11:49:55Z" uid="162110" user="tahongawaka" changeset="6837173">
    <nd ref="312419371"/>
    <nd ref="283018947"/>
    <nd ref="311577621"/>
    <nd ref="311577622"/>
    <nd ref="311577375"/>
    <nd ref="311577420"/>
    <nd ref="33102529"/>
    <nd ref="311575955"/>
    <nd ref="33102524"/>
    <nd ref="312419190"/>
    <tag k="highway" v="motorway"/>
    <tag k="layer" v="1"/>
    <tag k="name" v="Nimitz Freeway"/>
    <tag k="oneway" v="yes"/>
    <tag k="ref" v="I 880"/>
    <tag k="symbol" v="http://upload.wikimedia.org/wikipedia/commons/e/ea/I-880_%28CA%29.svg"/>
  </way>
  <way id="28435501" version="9" timestamp="2011-01-02T11:56:11Z" uid="162110" user="tahongawaka" changeset="6837530">
    <nd ref="312419371"/>
    <nd ref="283018947"/>
    <nd ref="311577621"/>
    <nd ref="311577622"/>
    <nd ref="311577375"/>
    <nd ref="311577420"/>
    <nd ref="33102529"/>
    <nd ref="311575955"/>
    <nd ref="33102524"/>
    <nd ref="312419190"/>
    <tag k="highway" v="motorway"/>
    <tag k="layer" v="1"/>
    <tag k="name" v="Interstate 880 (North)"/>
    <tag k="oneway" v="yes"/>
    <tag k="ref" v="I 880"/>
    <tag k="symbol" v="http://upload.wikimedia.org/wikipedia/commons/e/ea/I-880_%28CA%29.svg"/>
  </way>
  <way id="28435501" version="10" timestamp="2011-07-31T11:43:09Z" uid="207745" user="NE2" changeset="8880034">
    <nd ref="312419371"/>
    <nd ref="283018947"/>
    <nd ref="311577621"/>
    <nd ref="311577622"/>
    <nd ref="311577375"/>
    <nd ref="311577420"/>
    <nd ref="33102529"/>
    <nd ref="311575955"/>
    <nd ref="33102524"/>
    <nd ref="312419190"/>
    <tag k="highway" v="motorway"/>
    <tag k="lanes" v="3"/>
    <tag k="layer" v="1"/>
    <tag k="oneway" v="yes"/>
    <tag k="ref" v="I 880"/>
  </way>
  <way id="28435501" version="11" timestamp="2011-11-21T16:02:49Z" uid="207745" user="NE2" changeset="9898570">
    <nd ref="312419371"/>
    <nd ref="283018947"/>
    <nd ref="311577621"/>
    <nd ref="311577622"/>
    <nd ref="311577375"/>
    <nd ref="311577420"/>
    <nd ref="33102529"/>
    <nd ref="311575955"/>
    <nd ref="33102524"/>
    <nd ref="312419190"/>
    <tag k="hgv" v="designated"/>
    <tag k="highway" v="motorway"/>
    <tag k="lanes" v="3"/>
    <tag k="layer" v="1"/>
    <tag k="oneway" v="yes"/>
    <tag k="ref" v="I 880"/>
  </way>
  <way id="28435541" version="4" timestamp="2010-04-07T13:07:54Z" uid="20587" user="balrog-kun" changeset="4353646">
    <nd ref="147594243"/>
    <nd ref="312419940"/>
    <nd ref="312419941"/>
    <nd ref="312419942"/>
    <nd ref="312419943"/>
    <nd ref="312419380"/>
    <tag k="created_by" v="Potlatch 0.10f"/>
    <tag k="highway" v="secondary"/>
    <tag k="name" v="State Highway 43; State Highway 43; Feed Road"/>
    <tag k="name_1" v="E1690 Road"/>
    <tag k="tiger:cfcc" v="A41"/>
    <tag k="tiger:county" v="Pushmataha, OK; Pushmataha, OK; Atoka, OK"/>
    <tag k="tiger:name_base" v="State Highway 43; State Highway 43; Feed"/>
    <tag k="tiger:name_base_1" v="E1690"/>
    <tag k="tiger:name_type" v="Rd"/>
    <tag k="tiger:name_type_1" v="Rd"/>
    <tag k="tiger:reviewed" v="no"/>
    <tag k="tiger:separated" v="no"/>
    <tag k="tiger:source" v="tiger_import_dch_v0.6_20070829"/>
    <tag k="tiger:tlid" v="68886121:68884522:68884523:68886123:68886124; 68884488; 68884489; 68881182:68877940:68884490:68884491; 63075056"/>
    <tag k="tiger:zip_left" v="74540"/>
  </way>
  <way id="28435546" version="4" timestamp="2010-03-28T00:20:11Z" uid="20587" user="balrog-kun" changeset="4250871">
    <nd ref="312419953"/>
    <nd ref="312419925"/>
    <nd ref="33620301"/>
    <nd ref="312419906"/>
    <nd ref="33620302"/>
    <nd ref="312419866"/>
    <nd ref="206680206"/>
    <nd ref="283018644"/>
    <nd ref="312419370"/>
    <tag k="created_by" v="Potlatch 0.10f"/>
    <tag k="highway" v="motorway"/>
    <tag k="layer" v="1"/>
    <tag k="name" v="Nimitz Freeway"/>
    <tag k="oneway" v="yes"/>
    <tag k="ref" v="I 880"/>
  </way>
  <way id="28435546" version="5" timestamp="2011-01-02T11:51:15Z" uid="162110" user="tahongawaka" changeset="6837173">
    <nd ref="312419953"/>
    <nd ref="312419925"/>
    <nd ref="33620301"/>
    <nd ref="312419906"/>
    <nd ref="33620302"/>
    <nd ref="312419866"/>
    <nd ref="206680206"/>
    <nd ref="283018644"/>
    <nd ref="312419370"/>
    <tag k="highway" v="motorway"/>
    <tag k="layer" v="1"/>
    <tag k="name" v="Nimitz Freeway"/>
    <tag k="oneway" v="yes"/>
    <tag k="ref" v="I 880"/>
    <tag k="symbol" v="http://upload.wikimedia.org/wikipedia/commons/e/ea/I-880_%28CA%29.svg"/>
  </way>
  <way id="28435546" version="6" timestamp="2011-01-02T11:55:57Z" uid="162110" user="tahongawaka" changeset="6837530">
    <nd ref="312419953"/>
    <nd ref="312419925"/>
    <nd ref="33620301"/>
    <nd ref="312419906"/>
    <nd ref="33620302"/>
    <nd ref="312419866"/>
    <nd ref="206680206"/>
    <nd ref="283018644"/>
    <nd ref="312419370"/>
    <tag k="highway" v="motorway"/>
    <tag k="layer" v="1"/>
    <tag k="name" v="Interstate 880 (North)"/>
    <tag k="oneway" v="yes"/>
    <tag k="ref" v="I 880"/>
    <tag k="symbol" v="http://upload.wikimedia.org/wikipedia/commons/e/ea/I-880_%28CA%29.svg"/>
  </way>
  <way id="28435546" version="7" timestamp="2011-07-31T11:43:17Z" uid="207745" user="NE2" changeset="8880034">
    <nd ref="312419953"/>
    <nd ref="312419925"/>
    <nd ref="33620301"/>
    <nd ref="312419906"/>
    <nd ref="33620302"/>
    <nd ref="312419866"/>
    <nd ref="206680206"/>
    <nd ref="283018644"/>
    <nd ref="312419370"/>
    <tag k="highway" v="motorway"/>
    <tag k="lanes" v="3"/>
    <tag k="layer" v="1"/>
    <tag k="oneway" v="yes"/>
    <tag k="ref" v="I 880"/>
  </way>
  <way id="28435546" version="8" timestamp="2011-11-21T16:03:08Z" uid="207745" user="NE2" changeset="9898570">
    <nd ref="312419953"/>
    <nd ref="312419925"/>
    <nd ref="33620301"/>
    <nd ref="312419906"/>
    <nd ref="33620302"/>
    <nd ref="312419866"/>
    <nd ref="206680206"/>
    <nd ref="283018644"/>
    <nd ref="312419370"/>
    <tag k="hgv" v="designated"/>
    <tag k="highway" v="motorway"/>
    <tag k="lanes" v="3"/>
    <tag k="layer" v="1"/>
    <tag k="oneway" v="yes"/>
    <tag k="ref" v="I 880"/>
  </way>
  <way id="28435546" version="9" timestamp="2011-12-07T05:51:29Z" uid="425864" user="Lhelfrich" changeset="10055182">
    <nd ref="312419953"/>
    <nd ref="312419925"/>
    <nd ref="33620301"/>
    <nd ref="312419906"/>
    <nd ref="33620302"/>
    <nd ref="312419866"/>
    <nd ref="206680206"/>
    <nd ref="283018644"/>
    <nd ref="312419370"/>
    <tag k="hgv" v="designated"/>
    <tag k="highway" v="motorway"/>
    <tag k="lanes" v="3"/>
    <tag k="layer" v="1"/>
    <tag k="ref" v="I 880"/>
  </way>
  <way id="28435547" version="4" timestamp="2010-03-28T00:20:11Z" uid="20587" user="balrog-kun" changeset="4250871">
    <nd ref="33620300"/>
    <nd ref="312419953"/>
    <tag k="bridge" v="yes"/>
    <tag k="created_by" v="Potlatch 0.10f"/>
    <tag k="highway" v="motorway"/>
    <tag k="layer" v="1"/>
    <tag k="name" v="Nimitz Freeway"/>
    <tag k="oneway" v="yes"/>
    <tag k="ref" v="I 880"/>
  </way>
  <way id="28435547" version="5" timestamp="2011-01-02T11:55:42Z" uid="162110" user="tahongawaka" changeset="6837530">
    <nd ref="33620300"/>
    <nd ref="312419953"/>
    <tag k="bridge" v="yes"/>
    <tag k="highway" v="motorway"/>
    <tag k="layer" v="1"/>
    <tag k="name" v="Interstate 880 (North)"/>
    <tag k="oneway" v="yes"/>
    <tag k="ref" v="I 880"/>
  </way>
  <way id="28435547" version="6" timestamp="2011-07-31T11:43:10Z" uid="207745" user="NE2" changeset="8880034">
    <nd ref="33620300"/>
    <nd ref="312419953"/>
    <tag k="bridge" v="yes"/>
    <tag k="highway" v="motorway"/>
    <tag k="lanes" v="3"/>
    <tag k="layer" v="1"/>
    <tag k="oneway" v="yes"/>
    <tag k="ref" v="I 880"/>
  </way>
  <way id="28435547" version="7" timestamp="2011-11-21T16:03:00Z" uid="207745" user="NE2" changeset="9898570">
    <nd ref="33620300"/>
    <nd ref="312419953"/>
    <tag k="bridge" v="yes"/>
    <tag k="hgv" v="designated"/>
    <tag k="highway" v="motorway"/>
    <tag k="lanes" v="3"/>
    <tag k="layer" v="1"/>
    <tag k="oneway" v="yes"/>
    <tag k="ref" v="I 880"/>
  </way>
  <way id="28435547" version="8" timestamp="2011-12-07T05:51:29Z" uid="425864" user="Lhelfrich" changeset="10055182">
    <nd ref="33620300"/>
    <nd ref="312419953"/>
    <tag k="bridge" v="yes"/>
    <tag k="hgv" v="designated"/>
    <tag k="highway" v="motorway"/>
    <tag k="lanes" v="3"/>
    <tag k="layer" v="1"/>
    <tag k="ref" v="I 880"/>
  </way>
  <way id="28435548" version="6" timestamp="2010-03-28T00:20:11Z" uid="20587" user="balrog-kun" changeset="4250871">
    <nd ref="312419945"/>
    <nd ref="312419959"/>
    <tag k="bridge" v="yes"/>
    <tag k="highway" v="motorway"/>
    <tag k="layer" v="1"/>
    <tag k="name" v="Nimitz Freeway"/>
    <tag k="oneway" v="yes"/>
    <tag k="ref" v="I 880"/>
    <tag k="tiger:cfcc" v="A11"/>
    <tag k="tiger:county" v="Santa Clara, CA"/>
    <tag k="tiger:name_base" v="I-880"/>
    <tag k="tiger:name_base_1" v="Nimitz"/>
    <tag k="tiger:name_type_1" v="Fwy"/>
    <tag k="tiger:separated" v="no"/>
    <tag k="tiger:source" v="tiger_import_dch_v0.6_20070809"/>
    <tag k="tiger:tlid" v="122904190:123180722:123176993:122904227:122995232:122902926:122902927:122902934:122902936:122902937:122902939:122902943:122995233:122903295:123004993:122903292:123014806:123014807:122903345:122903350:122903351:122968411:122903383:122902904:122903331:12290"/>
  </way>
  <way id="28435548" version="7" timestamp="2011-07-31T11:43:14Z" uid="207745" user="NE2" changeset="8880034">
    <nd ref="312419945"/>
    <nd ref="312419959"/>
    <tag k="bridge" v="yes"/>
    <tag k="highway" v="motorway"/>
    <tag k="lanes" v="3"/>
    <tag k="layer" v="1"/>
    <tag k="oneway" v="yes"/>
    <tag k="ref" v="I 880"/>
    <tag k="tiger:cfcc" v="A11"/>
    <tag k="tiger:county" v="Santa Clara, CA"/>
    <tag k="tiger:name_base" v="I-880"/>
    <tag k="tiger:name_base_1" v="Nimitz"/>
    <tag k="tiger:name_type_1" v="Fwy"/>
    <tag k="tiger:separated" v="no"/>
    <tag k="tiger:source" v="tiger_import_dch_v0.6_20070809"/>
    <tag k="tiger:tlid" v="122904190:123180722:123176993:122904227:122995232:122902926:122902927:122902934:122902936:122902937:122902939:122902943:122995233:122903295:123004993:122903292:123014806:123014807:122903345:122903350:122903351:122968411:122903383:122902904:122903331:12290"/>
  </way>
  <way id="28435548" version="8" timestamp="2011-11-21T16:02:52Z" uid="207745" user="NE2" changeset="9898570">
    <nd ref="312419945"/>
    <nd ref="312419959"/>
    <tag k="bridge" v="yes"/>
    <tag k="hgv" v="designated"/>
    <tag k="highway" v="motorway"/>
    <tag k="lanes" v="3"/>
    <tag k="layer" v="1"/>
    <tag k="oneway" v="yes"/>
    <tag k="ref" v="I 880"/>
    <tag k="tiger:cfcc" v="A11"/>
    <tag k="tiger:county" v="Santa Clara, CA"/>
    <tag k="tiger:name_base" v="I-880"/>
    <tag k="tiger:name_base_1" v="Nimitz"/>
    <tag k="tiger:name_type_1" v="Fwy"/>
    <tag k="tiger:separated" v="no"/>
    <tag k="tiger:source" v="tiger_import_dch_v0.6_20070809"/>
    <tag k="tiger:tlid" v="122904190:123180722:123176993:122904227:122995232:122902926:122902927:122902934:122902936:122902937:122902939:122902943:122995233:122903295:123004993:122903292:123014806:123014807:122903345:122903350:122903351:122968411:122903383:122902904:122903331:12290"/>
  </way>
  <way id="28435548" version="9" timestamp="2011-12-07T05:51:29Z" uid="425864" user="Lhelfrich" changeset="10055182">
    <nd ref="312419945"/>
    <nd ref="312419959"/>
    <tag k="bridge" v="yes"/>
    <tag k="hgv" v="designated"/>
    <tag k="highway" v="motorway"/>
    <tag k="lanes" v="3"/>
    <tag k="layer" v="1"/>
    <tag k="ref" v="I 880"/>
    <tag k="tiger:cfcc" v="A11"/>
    <tag k="tiger:county" v="Santa Clara, CA"/>
    <tag k="tiger:name_base" v="I-880"/>
    <tag k="tiger:name_base_1" v="Nimitz"/>
    <tag k="tiger:name_type_1" v="Fwy"/>
    <tag k="tiger:separated" v="no"/>
    <tag k="tiger:source" v="tiger_import_dch_v0.6_20070809"/>
    <tag k="tiger:tlid" v="122904190:123180722:123176993:122904227:122995232:122902926:122902927:122902934:122902936:122902937:122902939:122902943:122995233:122903295:123004993:122903292:123014806:123014807:122903345:122903350:122903351:122968411:122903383:122902904:122903331:12290"/>
  </way>
  <way id="28435549" version="7" timestamp="2010-03-28T00:20:12Z" uid="20587" user="balrog-kun" changeset="4250871">
    <nd ref="312419959"/>
    <nd ref="65495537"/>
    <nd ref="312419978"/>
    <nd ref="312419981"/>
    <nd ref="312419988"/>
    <tag k="created_by" v="Potlatch 0.10f"/>
    <tag k="highway" v="motorway"/>
    <tag k="name" v="Nimitz Freeway"/>
    <tag k="oneway" v="yes"/>
    <tag k="ref" v="I 880"/>
    <tag k="tiger:cfcc" v="A11"/>
    <tag k="tiger:county" v="Santa Clara, CA"/>
    <tag k="tiger:name_base" v="I-880"/>
    <tag k="tiger:name_base_1" v="Nimitz"/>
    <tag k="tiger:name_type_1" v="Fwy"/>
    <tag k="tiger:separated" v="no"/>
    <tag k="tiger:source" v="tiger_import_dch_v0.6_20070809"/>
    <tag k="tiger:tlid" v="122904190:123180722:123176993:122904227:122995232:122902926:122902927:122902934:122902936:122902937:122902939:122902943:122995233:122903295:123004993:122903292:123014806:123014807:122903345:122903350:122903351:122968411:122903383:122902904:122903331:12290"/>
  </way>
  <way id="28435549" version="8" timestamp="2011-07-31T11:43:16Z" uid="207745" user="NE2" changeset="8880034">
    <nd ref="312419959"/>
    <nd ref="65495537"/>
    <nd ref="312419978"/>
    <nd ref="312419981"/>
    <nd ref="312419988"/>
    <tag k="highway" v="motorway"/>
    <tag k="lanes" v="3"/>
    <tag k="oneway" v="yes"/>
    <tag k="ref" v="I 880"/>
    <tag k="tiger:cfcc" v="A11"/>
    <tag k="tiger:county" v="Santa Clara, CA"/>
    <tag k="tiger:name_base" v="I-880"/>
    <tag k="tiger:name_base_1" v="Nimitz"/>
    <tag k="tiger:name_type_1" v="Fwy"/>
    <tag k="tiger:separated" v="no"/>
    <tag k="tiger:source" v="tiger_import_dch_v0.6_20070809"/>
    <tag k="tiger:tlid" v="122904190:123180722:123176993:122904227:122995232:122902926:122902927:122902934:122902936:122902937:122902939:122902943:122995233:122903295:123004993:122903292:123014806:123014807:122903345:122903350:122903351:122968411:122903383:122902904:122903331:12290"/>
  </way>
  <way id="28435549" version="9" timestamp="2011-11-21T16:03:05Z" uid="207745" user="NE2" changeset="9898570">
    <nd ref="312419959"/>
    <nd ref="65495537"/>
    <nd ref="312419978"/>
    <nd ref="312419981"/>
    <nd ref="312419988"/>
    <tag k="hgv" v="designated"/>
    <tag k="highway" v="motorway"/>
    <tag k="lanes" v="3"/>
    <tag k="oneway" v="yes"/>
    <tag k="ref" v="I 880"/>
    <tag k="tiger:cfcc" v="A11"/>
    <tag k="tiger:county" v="Santa Clara, CA"/>
    <tag k="tiger:name_base" v="I-880"/>
    <tag k="tiger:name_base_1" v="Nimitz"/>
    <tag k="tiger:name_type_1" v="Fwy"/>
    <tag k="tiger:separated" v="no"/>
    <tag k="tiger:source" v="tiger_import_dch_v0.6_20070809"/>
    <tag k="tiger:tlid" v="122904190:123180722:123176993:122904227:122995232:122902926:122902927:122902934:122902936:122902937:122902939:122902943:122995233:122903295:123004993:122903292:123014806:123014807:122903345:122903350:122903351:122968411:122903383:122902904:122903331:12290"/>
  </way>
  <way id="28435549" version="10" timestamp="2011-12-07T05:51:30Z" uid="425864" user="Lhelfrich" changeset="10055182">
    <nd ref="312419959"/>
    <nd ref="65495537"/>
    <nd ref="312419978"/>
    <nd ref="312419981"/>
    <nd ref="312419988"/>
    <tag k="hgv" v="designated"/>
    <tag k="highway" v="motorway"/>
    <tag k="lanes" v="3"/>
    <tag k="ref" v="I 880"/>
    <tag k="tiger:cfcc" v="A11"/>
    <tag k="tiger:county" v="Santa Clara, CA"/>
    <tag k="tiger:name_base" v="I-880"/>
    <tag k="tiger:name_base_1" v="Nimitz"/>
    <tag k="tiger:name_type_1" v="Fwy"/>
    <tag k="tiger:separated" v="no"/>
    <tag k="tiger:source" v="tiger_import_dch_v0.6_20070809"/>
    <tag k="tiger:tlid" v="122904190:123180722:123176993:122904227:122995232:122902926:122902927:122902934:122902936:122902937:122902939:122902943:122995233:122903295:123004993:122903292:123014806:123014807:122903345:122903350:122903351:122968411:122903383:122902904:122903331:12290"/>
  </way>
  <way id="28435569" version="5" timestamp="2010-03-28T00:20:12Z" uid="20587" user="balrog-kun" changeset="4250871">
    <nd ref="312419990"/>
    <nd ref="312419991"/>
    <tag k="bridge" v="yes"/>
    <tag k="created_by" v="Potlatch 0.10f"/>
    <tag k="highway" v="motorway"/>
    <tag k="layer" v="1"/>
    <tag k="name" v="Nimitz Freeway"/>
    <tag k="oneway" v="yes"/>
    <tag k="ref" v="I 880"/>
  </way>
  <way id="28435569" version="6" timestamp="2011-01-02T11:51:41Z" uid="162110" user="tahongawaka" changeset="6837173">
    <nd ref="312419990"/>
    <nd ref="312419991"/>
    <tag k="bridge" v="yes"/>
    <tag k="highway" v="motorway"/>
    <tag k="layer" v="1"/>
    <tag k="name" v="Nimitz Freeway"/>
    <tag k="oneway" v="yes"/>
    <tag k="ref" v="I 880"/>
    <tag k="symbol" v="http://upload.wikimedia.org/wikipedia/commons/e/ea/I-880_%28CA%29.svg"/>
  </way>
  <way id="28435569" version="7" timestamp="2011-07-31T11:43:10Z" uid="207745" user="NE2" changeset="8880034">
    <nd ref="312419990"/>
    <nd ref="312419991"/>
    <tag k="bridge" v="yes"/>
    <tag k="highway" v="motorway"/>
    <tag k="lanes" v="3"/>
    <tag k="layer" v="1"/>
    <tag k="oneway" v="yes"/>
    <tag k="ref" v="I 880"/>
  </way>
  <way id="28435569" version="8" timestamp="2011-11-21T16:02:53Z" uid="207745" user="NE2" changeset="9898570">
    <nd ref="312419990"/>
    <nd ref="312419991"/>
    <tag k="bridge" v="yes"/>
    <tag k="hgv" v="designated"/>
    <tag k="highway" v="motorway"/>
    <tag k="lanes" v="3"/>
    <tag k="layer" v="1"/>
    <tag k="oneway" v="yes"/>
    <tag k="ref" v="I 880"/>
  </way>
  <way id="28435569" version="9" timestamp="2011-12-07T05:51:31Z" uid="425864" user="Lhelfrich" changeset="10055182">
    <nd ref="312419990"/>
    <nd ref="312419991"/>
    <tag k="bridge" v="yes"/>
    <tag k="hgv" v="designated"/>
    <tag k="highway" v="motorway"/>
    <tag k="lanes" v="3"/>
    <tag k="layer" v="1"/>
    <tag k="ref" v="I 880"/>
  </way>
  <way id="28435571" version="3" timestamp="2010-03-28T00:20:12Z" uid="20587" user="balrog-kun" changeset="4250871">
    <nd ref="312419991"/>
    <nd ref="33620299"/>
    <nd ref="312419973"/>
    <nd ref="312419974"/>
    <nd ref="33620300"/>
    <tag k="created_by" v="Potlatch 0.10f"/>
    <tag k="highway" v="motorway"/>
    <tag k="layer" v="1"/>
    <tag k="name" v="Nimitz Freeway"/>
    <tag k="oneway" v="yes"/>
    <tag k="ref" v="I 880"/>
  </way>
  <way id="28435571" version="4" timestamp="2011-01-02T11:55:30Z" uid="162110" user="tahongawaka" changeset="6837530">
    <nd ref="312419991"/>
    <nd ref="33620299"/>
    <nd ref="312419973"/>
    <nd ref="312419974"/>
    <nd ref="33620300"/>
    <tag k="highway" v="motorway"/>
    <tag k="layer" v="1"/>
    <tag k="name" v="Interstate 880 (North)"/>
    <tag k="oneway" v="yes"/>
    <tag k="ref" v="I 880"/>
  </way>
  <way id="28435571" version="5" timestamp="2011-07-31T11:43:16Z" uid="207745" user="NE2" changeset="8880034">
    <nd ref="312419991"/>
    <nd ref="33620299"/>
    <nd ref="312419973"/>
    <nd ref="312419974"/>
    <nd ref="33620300"/>
    <tag k="highway" v="motorway"/>
    <tag k="lanes" v="3"/>
    <tag k="layer" v="1"/>
    <tag k="oneway" v="yes"/>
    <tag k="ref" v="I 880"/>
  </way>
  <way id="28435571" version="6" timestamp="2011-11-21T16:03:04Z" uid="207745" user="NE2" changeset="9898570">
    <nd ref="312419991"/>
    <nd ref="33620299"/>
    <nd ref="312419973"/>
    <nd ref="312419974"/>
    <nd ref="33620300"/>
    <tag k="hgv" v="designated"/>
    <tag k="highway" v="motorway"/>
    <tag k="lanes" v="3"/>
    <tag k="layer" v="1"/>
    <tag k="oneway" v="yes"/>
    <tag k="ref" v="I 880"/>
  </way>
  <way id="28435571" version="7" timestamp="2011-12-07T05:51:31Z" uid="425864" user="Lhelfrich" changeset="10055182">
    <nd ref="312419991"/>
    <nd ref="33620299"/>
    <nd ref="312419973"/>
    <nd ref="312419974"/>
    <nd ref="33620300"/>
    <tag k="hgv" v="designated"/>
    <tag k="highway" v="motorway"/>
    <tag k="lanes" v="3"/>
    <tag k="layer" v="1"/>
    <tag k="ref" v="I 880"/>
  </way>
  <way id="28435572" version="7" timestamp="2010-03-28T00:20:12Z" uid="20587" user="balrog-kun" changeset="4250871">
    <nd ref="312419988"/>
    <nd ref="305549799"/>
    <tag k="bridge" v="yes"/>
    <tag k="highway" v="motorway"/>
    <tag k="layer" v="1"/>
    <tag k="name" v="Nimitz Freeway"/>
    <tag k="oneway" v="yes"/>
    <tag k="ref" v="I 880"/>
    <tag k="tiger:cfcc" v="A11"/>
    <tag k="tiger:county" v="Santa Clara, CA"/>
    <tag k="tiger:name_base" v="I-880"/>
    <tag k="tiger:name_base_1" v="Nimitz"/>
    <tag k="tiger:name_type_1" v="Fwy"/>
    <tag k="tiger:separated" v="no"/>
    <tag k="tiger:source" v="tiger_import_dch_v0.6_20070809"/>
    <tag k="tiger:tlid" v="122904190:123180722:123176993:122904227:122995232:122902926:122902927:122902934:122902936:122902937:122902939:122902943:122995233:122903295:123004993:122903292:123014806:123014807:122903345:122903350:122903351:122968411:122903383:122902904:122903331:12290"/>
  </way>
  <way id="28435572" version="8" timestamp="2011-01-02T11:51:54Z" uid="162110" user="tahongawaka" changeset="6837173">
    <nd ref="312419988"/>
    <nd ref="305549799"/>
    <tag k="bridge" v="yes"/>
    <tag k="highway" v="motorway"/>
    <tag k="layer" v="1"/>
    <tag k="name" v="Nimitz Freeway"/>
    <tag k="oneway" v="yes"/>
    <tag k="ref" v="I 880"/>
    <tag k="symbol" v="http://upload.wikimedia.org/wikipedia/commons/e/ea/I-880_%28CA%29.svg"/>
    <tag k="tiger:cfcc" v="A11"/>
    <tag k="tiger:county" v="Santa Clara, CA"/>
    <tag k="tiger:name_base" v="I-880"/>
    <tag k="tiger:name_base_1" v="Nimitz"/>
    <tag k="tiger:name_type_1" v="Fwy"/>
    <tag k="tiger:separated" v="no"/>
    <tag k="tiger:source" v="tiger_import_dch_v0.6_20070809"/>
    <tag k="tiger:tlid" v="122904190:123180722:123176993:122904227:122995232:122902926:122902927:122902934:122902936:122902937:122902939:122902943:122995233:122903295:123004993:122903292:123014806:123014807:122903345:122903350:122903351:122968411:122903383:122902904:122903331:12290"/>
  </way>
  <way id="28435572" version="9" timestamp="2011-07-31T11:43:12Z" uid="207745" user="NE2" changeset="8880034">
    <nd ref="312419988"/>
    <nd ref="305549799"/>
    <tag k="bridge" v="yes"/>
    <tag k="highway" v="motorway"/>
    <tag k="lanes" v="3"/>
    <tag k="layer" v="1"/>
    <tag k="oneway" v="yes"/>
    <tag k="ref" v="I 880"/>
    <tag k="tiger:cfcc" v="A11"/>
    <tag k="tiger:county" v="Santa Clara, CA"/>
    <tag k="tiger:name_base" v="I-880"/>
    <tag k="tiger:name_base_1" v="Nimitz"/>
    <tag k="tiger:name_type_1" v="Fwy"/>
    <tag k="tiger:separated" v="no"/>
    <tag k="tiger:source" v="tiger_import_dch_v0.6_20070809"/>
    <tag k="tiger:tlid" v="122904190:123180722:123176993:122904227:122995232:122902926:122902927:122902934:122902936:122902937:122902939:122902943:122995233:122903295:123004993:122903292:123014806:123014807:122903345:122903350:122903351:122968411:122903383:122902904:122903331:12290"/>
  </way>
  <way id="28435572" version="10" timestamp="2011-11-21T16:02:59Z" uid="207745" user="NE2" changeset="9898570">
    <nd ref="312419988"/>
    <nd ref="305549799"/>
    <tag k="bridge" v="yes"/>
    <tag k="hgv" v="designated"/>
    <tag k="highway" v="motorway"/>
    <tag k="lanes" v="3"/>
    <tag k="layer" v="1"/>
    <tag k="oneway" v="yes"/>
    <tag k="ref" v="I 880"/>
    <tag k="tiger:cfcc" v="A11"/>
    <tag k="tiger:county" v="Santa Clara, CA"/>
    <tag k="tiger:name_base" v="I-880"/>
    <tag k="tiger:name_base_1" v="Nimitz"/>
    <tag k="tiger:name_type_1" v="Fwy"/>
    <tag k="tiger:separated" v="no"/>
    <tag k="tiger:source" v="tiger_import_dch_v0.6_20070809"/>
    <tag k="tiger:tlid" v="122904190:123180722:123176993:122904227:122995232:122902926:122902927:122902934:122902936:122902937:122902939:122902943:122995233:122903295:123004993:122903292:123014806:123014807:122903345:122903350:122903351:122968411:122903383:122902904:122903331:12290"/>
  </way>
  <way id="28435572" version="11" timestamp="2011-12-07T05:51:31Z" uid="425864" user="Lhelfrich" changeset="10055182">
    <nd ref="312419988"/>
    <nd ref="305549799"/>
    <tag k="bridge" v="yes"/>
    <tag k="hgv" v="designated"/>
    <tag k="highway" v="motorway"/>
    <tag k="lanes" v="3"/>
    <tag k="layer" v="1"/>
    <tag k="ref" v="I 880"/>
    <tag k="tiger:cfcc" v="A11"/>
    <tag k="tiger:county" v="Santa Clara, CA"/>
    <tag k="tiger:name_base" v="I-880"/>
    <tag k="tiger:name_base_1" v="Nimitz"/>
    <tag k="tiger:name_type_1" v="Fwy"/>
    <tag k="tiger:separated" v="no"/>
    <tag k="tiger:source" v="tiger_import_dch_v0.6_20070809"/>
    <tag k="tiger:tlid" v="122904190:123180722:123176993:122904227:122995232:122902926:122902927:122902934:122902936:122902937:122902939:122902943:122995233:122903295:123004993:122903292:123014806:123014807:122903345:122903350:122903351:122968411:122903383:122902904:122903331:12290"/>
  </way>
  <way id="28435573" version="6" timestamp="2010-03-28T00:20:12Z" uid="20587" user="balrog-kun" changeset="4250871">
    <nd ref="305549799"/>
    <nd ref="289648907"/>
    <nd ref="317519542"/>
    <nd ref="317519543"/>
    <nd ref="65495541"/>
    <nd ref="65413757"/>
    <nd ref="65409576"/>
    <nd ref="279690751"/>
    <tag k="created_by" v="Potlatch 0.10f"/>
    <tag k="highway" v="motorway"/>
    <tag k="name" v="Nimitz Freeway"/>
    <tag k="oneway" v="yes"/>
    <tag k="ref" v="I 880"/>
    <tag k="tiger:cfcc" v="A11"/>
    <tag k="tiger:county" v="Santa Clara, CA"/>
    <tag k="tiger:name_base" v="I-880"/>
    <tag k="tiger:name_base_1" v="Nimitz"/>
    <tag k="tiger:name_type_1" v="Fwy"/>
    <tag k="tiger:separated" v="no"/>
    <tag k="tiger:source" v="tiger_import_dch_v0.6_20070809"/>
    <tag k="tiger:tlid" v="122904190:123180722:123176993:122904227:122995232:122902926:122902927:122902934:122902936:122902937:122902939:122902943:122995233:122903295:123004993:122903292:123014806:123014807:122903345:122903350:122903351:122968411:122903383:122902904:122903331:12290"/>
  </way>
  <way id="28435573" version="7" timestamp="2011-01-02T11:51:59Z" uid="162110" user="tahongawaka" changeset="6837173">
    <nd ref="305549799"/>
    <nd ref="289648907"/>
    <nd ref="317519542"/>
    <nd ref="317519543"/>
    <nd ref="65495541"/>
    <nd ref="65413757"/>
    <nd ref="65409576"/>
    <nd ref="279690751"/>
    <tag k="highway" v="motorway"/>
    <tag k="name" v="Nimitz Freeway"/>
    <tag k="oneway" v="yes"/>
    <tag k="ref" v="I 880"/>
    <tag k="symbol" v="http://upload.wikimedia.org/wikipedia/commons/e/ea/I-880_%28CA%29.svg"/>
    <tag k="tiger:cfcc" v="A11"/>
    <tag k="tiger:county" v="Santa Clara, CA"/>
    <tag k="tiger:name_base" v="I-880"/>
    <tag k="tiger:name_base_1" v="Nimitz"/>
    <tag k="tiger:name_type_1" v="Fwy"/>
    <tag k="tiger:separated" v="no"/>
    <tag k="tiger:source" v="tiger_import_dch_v0.6_20070809"/>
    <tag k="tiger:tlid" v="122904190:123180722:123176993:122904227:122995232:122902926:122902927:122902934:122902936:122902937:122902939:122902943:122995233:122903295:123004993:122903292:123014806:123014807:122903345:122903350:122903351:122968411:122903383:122902904:122903331:12290"/>
  </way>
  <way id="28435573" version="8" timestamp="2011-05-25T02:31:26Z" uid="14293" user="JuxTPosition" changeset="8240967">
    <nd ref="305549799"/>
    <nd ref="289648907"/>
    <nd ref="317519542"/>
    <nd ref="317519543"/>
    <nd ref="65495541"/>
    <nd ref="65413757"/>
    <nd ref="1299121626"/>
    <nd ref="1299121568"/>
    <nd ref="1299121700"/>
    <nd ref="65409576"/>
    <nd ref="1299121562"/>
    <nd ref="1299121629"/>
    <nd ref="279690751"/>
    <tag k="highway" v="motorway"/>
    <tag k="name" v="Nimitz Freeway"/>
    <tag k="oneway" v="yes"/>
    <tag k="ref" v="I 880"/>
    <tag k="symbol" v="http://upload.wikimedia.org/wikipedia/commons/e/ea/I-880_%28CA%29.svg"/>
    <tag k="tiger:cfcc" v="A11"/>
    <tag k="tiger:county" v="Santa Clara, CA"/>
    <tag k="tiger:name_base" v="I-880"/>
    <tag k="tiger:name_base_1" v="Nimitz"/>
    <tag k="tiger:name_type_1" v="Fwy"/>
    <tag k="tiger:separated" v="no"/>
    <tag k="tiger:source" v="tiger_import_dch_v0.6_20070809"/>
    <tag k="tiger:tlid" v="122904190:123180722:123176993:122904227:122995232:122902926:122902927:122902934:122902936:122902937:122902939:122902943:122995233:122903295:123004993:122903292:123014806:123014807:122903345:122903350:122903351:122968411:122903383:122902904:122903331:12290"/>
  </way>
  <way id="28435573" version="9" timestamp="2011-05-25T02:48:38Z" uid="14293" user="JuxTPosition" changeset="8241098">
    <nd ref="305549799"/>
    <nd ref="289648907"/>
    <nd ref="317519542"/>
    <nd ref="317519543"/>
    <nd ref="65495541"/>
    <nd ref="1299142116"/>
    <nd ref="1299121626"/>
    <nd ref="1299121568"/>
    <nd ref="1299121700"/>
    <nd ref="65409576"/>
    <nd ref="1299121562"/>
    <nd ref="1299121629"/>
    <nd ref="279690751"/>
    <tag k="highway" v="motorway"/>
    <tag k="name" v="Nimitz Freeway"/>
    <tag k="oneway" v="yes"/>
    <tag k="ref" v="I 880"/>
    <tag k="symbol" v="http://upload.wikimedia.org/wikipedia/commons/e/ea/I-880_%28CA%29.svg"/>
    <tag k="tiger:cfcc" v="A11"/>
    <tag k="tiger:county" v="Santa Clara, CA"/>
    <tag k="tiger:name_base" v="I-880"/>
    <tag k="tiger:name_base_1" v="Nimitz"/>
    <tag k="tiger:name_type_1" v="Fwy"/>
    <tag k="tiger:separated" v="no"/>
    <tag k="tiger:source" v="tiger_import_dch_v0.6_20070809"/>
    <tag k="tiger:tlid" v="122904190:123180722:123176993:122904227:122995232:122902926:122902927:122902934:122902936:122902937:122902939:122902943:122995233:122903295:123004993:122903292:123014806:123014807:122903345:122903350:122903351:122968411:122903383:122902904:122903331:12290"/>
  </way>
  <way id="28435573" version="10" timestamp="2011-06-27T01:22:00Z" uid="473471" user="NE3" changeset="8557781">
    <nd ref="305549799"/>
    <nd ref="289648907"/>
    <nd ref="317519542"/>
    <nd ref="317519543"/>
    <nd ref="65495541"/>
    <tag k="highway" v="motorway"/>
    <tag k="name" v="Nimitz Freeway"/>
    <tag k="oneway" v="yes"/>
    <tag k="ref" v="I 880"/>
    <tag k="tiger:cfcc" v="A11"/>
    <tag k="tiger:county" v="Santa Clara, CA"/>
    <tag k="tiger:name_base" v="I-880"/>
    <tag k="tiger:name_base_1" v="Nimitz"/>
    <tag k="tiger:name_type_1" v="Fwy"/>
    <tag k="tiger:separated" v="no"/>
    <tag k="tiger:source" v="tiger_import_dch_v0.6_20070809"/>
    <tag k="tiger:tlid" v="122904190:123180722:123176993:122904227:122995232:122902926:122902927:122902934:122902936:122902937:122902939:122902943:122995233:122903295:123004993:122903292:123014806:123014807:122903345:122903350:122903351:122968411:122903383:122902904:122903331:12290"/>
  </way>
  <way id="28435573" version="11" timestamp="2011-07-31T11:43:15Z" uid="207745" user="NE2" changeset="8880034">
    <nd ref="305549799"/>
    <nd ref="289648907"/>
    <nd ref="317519542"/>
    <nd ref="317519543"/>
    <nd ref="65495541"/>
    <tag k="highway" v="motorway"/>
    <tag k="lanes" v="3"/>
    <tag k="oneway" v="yes"/>
    <tag k="ref" v="I 880"/>
    <tag k="tiger:cfcc" v="A11"/>
    <tag k="tiger:county" v="Santa Clara, CA"/>
    <tag k="tiger:name_base" v="I-880"/>
    <tag k="tiger:name_base_1" v="Nimitz"/>
    <tag k="tiger:name_type_1" v="Fwy"/>
    <tag k="tiger:separated" v="no"/>
    <tag k="tiger:source" v="tiger_import_dch_v0.6_20070809"/>
    <tag k="tiger:tlid" v="122904190:123180722:123176993:122904227:122995232:122902926:122902927:122902934:122902936:122902937:122902939:122902943:122995233:122903295:123004993:122903292:123014806:123014807:122903345:122903350:122903351:122968411:122903383:122902904:122903331:12290"/>
  </way>
  <way id="28435573" version="12" timestamp="2011-11-21T16:03:03Z" uid="207745" user="NE2" changeset="9898570">
    <nd ref="305549799"/>
    <nd ref="289648907"/>
    <nd ref="317519542"/>
    <nd ref="317519543"/>
    <nd ref="65495541"/>
    <tag k="hgv" v="designated"/>
    <tag k="highway" v="motorway"/>
    <tag k="lanes" v="3"/>
    <tag k="oneway" v="yes"/>
    <tag k="ref" v="I 880"/>
    <tag k="tiger:cfcc" v="A11"/>
    <tag k="tiger:county" v="Santa Clara, CA"/>
    <tag k="tiger:name_base" v="I-880"/>
    <tag k="tiger:name_base_1" v="Nimitz"/>
    <tag k="tiger:name_type_1" v="Fwy"/>
    <tag k="tiger:separated" v="no"/>
    <tag k="tiger:source" v="tiger_import_dch_v0.6_20070809"/>
    <tag k="tiger:tlid" v="122904190:123180722:123176993:122904227:122995232:122902926:122902927:122902934:122902936:122902937:122902939:122902943:122995233:122903295:123004993:122903292:123014806:123014807:122903345:122903350:122903351:122968411:122903383:122902904:122903331:12290"/>
  </way>
  <way id="28435573" version="13" timestamp="2011-12-07T05:51:32Z" uid="425864" user="Lhelfrich" changeset="10055182">
    <nd ref="305549799"/>
    <nd ref="289648907"/>
    <nd ref="317519542"/>
    <nd ref="317519543"/>
    <nd ref="65495541"/>
    <tag k="hgv" v="designated"/>
    <tag k="highway" v="motorway"/>
    <tag k="lanes" v="3"/>
    <tag k="name" v="Nimitz Freeway"/>
    <tag k="ref" v="I 880"/>
    <tag k="tiger:cfcc" v="A11"/>
    <tag k="tiger:county" v="Santa Clara, CA"/>
    <tag k="tiger:name_base" v="I-880"/>
    <tag k="tiger:name_base_1" v="Nimitz"/>
    <tag k="tiger:name_type_1" v="Fwy"/>
    <tag k="tiger:separated" v="no"/>
    <tag k="tiger:source" v="tiger_import_dch_v0.6_20070809"/>
    <tag k="tiger:tlid" v="122904190:123180722:123176993:122904227:122995232:122902926:122902927:122902934:122902936:122902937:122902939:122902943:122995233:122903295:123004993:122903292:123014806:123014807:122903345:122903350:122903351:122968411:122903383:122902904:122903331:12290"/>
  </way>
  <way id="28435615" version="2" timestamp="2008-12-15T13:02:22Z" uid="9581" user="Lobelt" changeset="391313">
    <nd ref="312944043"/>
    <nd ref="33120941"/>
    <tag k="created_by" v="Potlatch 0.10b"/>
    <tag k="highway" v="primary"/>
    <tag k="maxspeed" v="50"/>
    <tag k="ref" v="B 88"/>
  </way>
  <way id="28435615" version="3" timestamp="2009-06-27T15:01:27Z" uid="69628" user="vsandre" changeset="1650673">
    <nd ref="312944043"/>
    <nd ref="33120941"/>
    <tag k="highway" v="primary"/>
    <tag k="maxspeed" v="50"/>
    <tag k="ref" v="B 88"/>
  </way>
  <way id="28435615" version="4" timestamp="2010-09-15T15:22:33Z" uid="118134" user="scai" changeset="5788157">
    <nd ref="312944043"/>
    <nd ref="33120941"/>
    <tag k="highway" v="primary"/>
    <tag k="maxspeed" v="50"/>
    <tag k="name" v="Ortsstraße"/>
    <tag k="ref" v="B 88"/>
  </way>
  <way id="28435615" version="5" timestamp="2011-12-08T18:12:26Z" uid="118134" user="scai" changeset="10067214">
    <nd ref="312944043"/>
    <nd ref="1537027283"/>
    <nd ref="1537027269"/>
    <nd ref="1537027264"/>
    <tag k="highway" v="primary"/>
    <tag k="maxspeed" v="50"/>
    <tag k="name" v="Ortsstraße"/>
    <tag k="ref" v="B 88"/>
  </way>
  <way id="28435615" version="6" timestamp="2011-12-11T10:58:40Z" uid="118134" user="scai" changeset="10088284">
    <nd ref="1540578974"/>
    <nd ref="1537027283"/>
    <nd ref="1537027269"/>
    <nd ref="1537027264"/>
    <tag k="highway" v="primary"/>
    <tag k="maxspeed" v="50"/>
    <tag k="name" v="Ortsstraße"/>
    <tag k="ref" v="B 88"/>
  </way>
  <way id="28435615" version="7" timestamp="2011-12-13T10:18:26Z" uid="118134" user="scai" changeset="10106344"/>
  <way id="28435616" version="2" timestamp="2008-12-15T13:02:43Z" uid="9581" user="Lobelt" changeset="391313"/>
  <way id="28435617" version="14" timestamp="2010-03-28T00:20:13Z" uid="20587" user="balrog-kun" changeset="4250871">
    <nd ref="655614076"/>
    <nd ref="655614077"/>
    <nd ref="65542690"/>
    <nd ref="316558020"/>
    <nd ref="65622477"/>
    <tag k="highway" v="primary"/>
    <tag k="name" v="South Winchester Boulevard"/>
    <tag k="name_1" v="Winchester Boulevard"/>
    <tag k="oneway" v="yes"/>
    <tag k="tiger:cfcc" v="A41"/>
    <tag k="tiger:county" v="Santa Clara, CA"/>
    <tag k="tiger:name_base" v="Winchester"/>
    <tag k="tiger:name_base_1" v="Winchester"/>
    <tag k="tiger:name_direction_prefix" v="S"/>
    <tag k="tiger:name_type" v="Blvd"/>
    <tag k="tiger:name_type_1" v="Blvd"/>
    <tag k="tiger:separated" v="no"/>
    <tag k="tiger:source" v="tiger_import_dch_v0.6_20070809"/>
    <tag k="tiger:tlid" v="122904705:122904808:122904809:122904810:122904811:122904812:122904815:122904816:122904817:122904818:122904840:122904851:122904854:122904861:12292:122920116:122920117:122920267:122920282:122920294:122999192:123007119:123007144:123007145:123177226:123181046"/>
    <tag k="tiger:zip_left" v="95008"/>
    <tag k="tiger:zip_right" v="95008"/>
  </way>
  <way id="28435617" version="15" timestamp="2011-01-13T18:21:29Z" uid="201724" user="mk408" changeset="6959916">
    <nd ref="655614076"/>
    <nd ref="655614077"/>
    <nd ref="65542690"/>
    <tag k="highway" v="primary"/>
    <tag k="name" v="South Winchester Boulevard"/>
    <tag k="name_1" v="Winchester Boulevard"/>
    <tag k="oneway" v="yes"/>
    <tag k="tiger:cfcc" v="A41"/>
    <tag k="tiger:county" v="Santa Clara, CA"/>
    <tag k="tiger:name_base" v="Winchester"/>
    <tag k="tiger:name_base_1" v="Winchester"/>
    <tag k="tiger:name_direction_prefix" v="S"/>
    <tag k="tiger:name_type" v="Blvd"/>
    <tag k="tiger:name_type_1" v="Blvd"/>
    <tag k="tiger:separated" v="no"/>
    <tag k="tiger:source" v="tiger_import_dch_v0.6_20070809"/>
    <tag k="tiger:tlid" v="122904705:122904808:122904809:122904810:122904811:122904812:122904815:122904816:122904817:122904818:122904840:122904851:122904854:122904861:12292:122920116:122920117:122920267:122920282:122920294:122999192:123007119:123007144:123007145:123177226:123181046"/>
    <tag k="tiger:zip_left" v="95008"/>
    <tag k="tiger:zip_right" v="95008"/>
  </way>
  <way id="28435618" version="6" timestamp="2010-03-28T00:20:13Z" uid="20587" user="balrog-kun" changeset="4250871">
    <nd ref="312420402"/>
    <nd ref="312420397"/>
    <tag k="bridge" v="yes"/>
    <tag k="highway" v="primary"/>
    <tag k="layer" v="1"/>
    <tag k="name" v="South Winchester Boulevard"/>
    <tag k="name_1" v="Winchester Boulevard"/>
    <tag k="tiger:cfcc" v="A41"/>
    <tag k="tiger:county" v="Santa Clara, CA"/>
    <tag k="tiger:name_base" v="Winchester"/>
    <tag k="tiger:name_base_1" v="Winchester"/>
    <tag k="tiger:name_direction_prefix" v="S"/>
    <tag k="tiger:name_type" v="Blvd"/>
    <tag k="tiger:name_type_1" v="Blvd"/>
    <tag k="tiger:separated" v="no"/>
    <tag k="tiger:source" v="tiger_import_dch_v0.6_20070809"/>
    <tag k="tiger:tlid" v="122920282:123007144:123007145:122920116:122920117:123007119:122904854:122904851:122904861:122920294:122999192:122920267:123177226:122904808:122904809:122904810:122904811:122904812:122904815:122904816:122904817:122904818:123181046:122904705:122904840:12292"/>
    <tag k="tiger:zip_left" v="95008"/>
    <tag k="tiger:zip_right" v="95008"/>
  </way>
  <way id="28435619" version="14" timestamp="2010-03-28T00:20:13Z" uid="20587" user="balrog-kun" changeset="4250871">
    <nd ref="312420404"/>
    <nd ref="33619566"/>
    <nd ref="289679551"/>
    <nd ref="33619572"/>
    <nd ref="257883727"/>
    <nd ref="32817458"/>
    <nd ref="32817459"/>
    <nd ref="257883757"/>
    <nd ref="33619577"/>
    <nd ref="257884472"/>
    <nd ref="315230974"/>
    <nd ref="257883812"/>
    <nd ref="315231012"/>
    <nd ref="279689149"/>
    <nd ref="257884156"/>
    <nd ref="26404628"/>
    <nd ref="347435080"/>
    <nd ref="279688498"/>
    <nd ref="279688499"/>
    <nd ref="33104806"/>
    <nd ref="315230619"/>
    <nd ref="315230513"/>
    <nd ref="315230514"/>
    <nd ref="315229069"/>
    <nd ref="33104813"/>
    <nd ref="315228764"/>
    <nd ref="315228765"/>
    <nd ref="315228767"/>
    <nd ref="267616342"/>
    <nd ref="315228768"/>
    <nd ref="315228769"/>
    <nd ref="267616404"/>
    <nd ref="26404640"/>
    <nd ref="311451698"/>
    <nd ref="347684652"/>
    <nd ref="311451955"/>
    <nd ref="267616576"/>
    <nd ref="26404645"/>
    <nd ref="311451649"/>
    <nd ref="267616577"/>
    <nd ref="26404652"/>
    <nd ref="311452228"/>
    <tag k="highway" v="motorway"/>
    <tag k="name" v="Junipero Serra Freeway"/>
    <tag k="oneway" v="yes"/>
    <tag k="ref" v="I 280"/>
  </way>
  <way id="28435619" version="15" timestamp="2011-05-24T07:55:05Z" uid="14293" user="JuxTPosition" changeset="8232841">
    <nd ref="312420404"/>
    <nd ref="1298190110"/>
    <nd ref="1298190073"/>
    <tag k="highway" v="motorway"/>
    <tag k="name" v="Junipero Serra Freeway"/>
    <tag k="oneway" v="yes"/>
    <tag k="ref" v="I 280"/>
  </way>
  <way id="28435619" version="16" timestamp="2011-07-31T11:44:05Z" uid="207745" user="NE2" changeset="8880034">
    <nd ref="312420404"/>
    <nd ref="1298190110"/>
    <nd ref="1298190073"/>
    <tag k="highway" v="motorway"/>
    <tag k="lanes" v="4"/>
    <tag k="name" v="Junipero Serra Freeway"/>
    <tag k="oneway" v="yes"/>
    <tag k="ref" v="I 280"/>
  </way>
  <way id="28435619" version="17" timestamp="2011-08-07T00:38:19Z" uid="207745" user="NE2" changeset="8943068">
    <nd ref="312420404"/>
    <nd ref="1298190110"/>
    <nd ref="1298190073"/>
    <tag k="highway" v="motorway"/>
    <tag k="hov" v="lane"/>
    <tag k="lanes" v="4"/>
    <tag k="name" v="Junipero Serra Freeway"/>
    <tag k="note:lanes" v="left lane is hov"/>
    <tag k="oneway" v="yes"/>
    <tag k="ref" v="I 280"/>
  </way>
  <way id="28435619" version="18" timestamp="2011-11-25T14:36:53Z" uid="207745" user="NE2" changeset="9943893">
    <nd ref="312420404"/>
    <nd ref="1298190110"/>
    <nd ref="1298190073"/>
    <tag k="hgv" v="designated"/>
    <tag k="highway" v="motorway"/>
    <tag k="hov" v="lane"/>
    <tag k="lanes" v="4"/>
    <tag k="name" v="Junipero Serra Freeway"/>
    <tag k="note:lanes" v="left lane is hov"/>
    <tag k="oneway" v="yes"/>
    <tag k="ref" v="I 280"/>
  </way>
  <way id="28435619" version="19" timestamp="2011-12-07T05:51:33Z" uid="425864" user="Lhelfrich" changeset="10055182">
    <nd ref="312420404"/>
    <nd ref="1298190110"/>
    <nd ref="1298190073"/>
    <tag k="hgv" v="designated"/>
    <tag k="highway" v="motorway"/>
    <tag k="hov" v="lane"/>
    <tag k="lanes" v="4"/>
    <tag k="name" v="Junipero Serra Freeway"/>
    <tag k="note:lanes" v="left lane is hov"/>
    <tag k="ref" v="I 280"/>
  </way>
  <way id="28435619" version="20" timestamp="2012-02-29T10:13:19Z" uid="14293" user="JuxTPosition" changeset="10826343">
    <nd ref="1652655113"/>
    <nd ref="1298190110"/>
    <nd ref="1298190073"/>
    <tag k="hgv" v="designated"/>
    <tag k="highway" v="motorway"/>
    <tag k="hov" v="lane"/>
    <tag k="lanes" v="4"/>
    <tag k="name" v="Junipero Serra Freeway"/>
    <tag k="note:lanes" v="left lane is hov"/>
    <tag k="oneway" v="yes"/>
    <tag k="ref" v="I 280"/>
  </way>
  <way id="28435620" version="4" timestamp="2010-03-28T00:20:15Z" uid="20587" user="balrog-kun" changeset="4250871">
    <nd ref="312420407"/>
    <nd ref="312420408"/>
    <tag k="bridge" v="yes"/>
    <tag k="created_by" v="Potlatch 0.10f"/>
    <tag k="highway" v="motorway"/>
    <tag k="layer" v="1"/>
    <tag k="name" v="Junipero Serra Freeway"/>
    <tag k="oneway" v="yes"/>
    <tag k="ref" v="I 280"/>
  </way>
  <way id="28435620" version="5" timestamp="2011-05-24T07:55:05Z" uid="14293" user="JuxTPosition" changeset="8232841">
    <nd ref="312420407"/>
    <nd ref="1298190107"/>
    <nd ref="312420408"/>
    <tag k="bridge" v="yes"/>
    <tag k="highway" v="motorway"/>
    <tag k="layer" v="1"/>
    <tag k="name" v="Junipero Serra Freeway"/>
    <tag k="oneway" v="yes"/>
    <tag k="ref" v="I 280"/>
  </way>
  <way id="28435620" version="6" timestamp="2011-07-31T11:44:03Z" uid="207745" user="NE2" changeset="8880034">
    <nd ref="312420407"/>
    <nd ref="1298190107"/>
    <nd ref="312420408"/>
    <tag k="bridge" v="yes"/>
    <tag k="highway" v="motorway"/>
    <tag k="lanes" v="4"/>
    <tag k="layer" v="1"/>
    <tag k="name" v="Junipero Serra Freeway"/>
    <tag k="oneway" v="yes"/>
    <tag k="ref" v="I 280"/>
  </way>
  <way id="28435620" version="7" timestamp="2011-08-07T00:38:20Z" uid="207745" user="NE2" changeset="8943068">
    <nd ref="312420407"/>
    <nd ref="1298190107"/>
    <nd ref="312420408"/>
    <tag k="bridge" v="yes"/>
    <tag k="highway" v="motorway"/>
    <tag k="hov" v="lane"/>
    <tag k="lanes" v="4"/>
    <tag k="layer" v="1"/>
    <tag k="name" v="Junipero Serra Freeway"/>
    <tag k="note:lanes" v="left lane is hov"/>
    <tag k="oneway" v="yes"/>
    <tag k="ref" v="I 280"/>
  </way>
  <way id="28435620" version="8" timestamp="2011-11-25T14:36:59Z" uid="207745" user="NE2" changeset="9943893">
    <nd ref="312420407"/>
    <nd ref="1298190107"/>
    <nd ref="312420408"/>
    <tag k="bridge" v="yes"/>
    <tag k="hgv" v="designated"/>
    <tag k="highway" v="motorway"/>
    <tag k="hov" v="lane"/>
    <tag k="lanes" v="4"/>
    <tag k="layer" v="1"/>
    <tag k="name" v="Junipero Serra Freeway"/>
    <tag k="note:lanes" v="left lane is hov"/>
    <tag k="oneway" v="yes"/>
    <tag k="ref" v="I 280"/>
  </way>
  <way id="28435620" version="9" timestamp="2011-12-07T05:51:33Z" uid="425864" user="Lhelfrich" changeset="10055182">
    <nd ref="312420407"/>
    <nd ref="1298190107"/>
    <nd ref="312420408"/>
    <tag k="bridge" v="yes"/>
    <tag k="hgv" v="designated"/>
    <tag k="highway" v="motorway"/>
    <tag k="hov" v="lane"/>
    <tag k="lanes" v="4"/>
    <tag k="name" v="Junipero Serra Freeway"/>
    <tag k="note:lanes" v="left lane is hov"/>
    <tag k="ref" v="I 280"/>
  </way>
  <way id="28435620" version="10" timestamp="2012-02-29T10:13:19Z" uid="14293" user="JuxTPosition" changeset="10826343">
    <nd ref="312420407"/>
    <nd ref="1298190107"/>
    <nd ref="312420408"/>
    <tag k="bridge" v="yes"/>
    <tag k="hgv" v="designated"/>
    <tag k="highway" v="motorway"/>
    <tag k="hov" v="lane"/>
    <tag k="lanes" v="4"/>
    <tag k="layer" v="1"/>
    <tag k="name" v="Junipero Serra Freeway"/>
    <tag k="note:lanes" v="left lane is hov"/>
    <tag k="oneway" v="yes"/>
    <tag k="ref" v="I 280"/>
  </way>
  <way id="28435621" version="6" timestamp="2010-03-28T00:20:15Z" uid="20587" user="balrog-kun" changeset="4250871">
    <nd ref="312420408"/>
    <nd ref="32817455"/>
    <nd ref="312420414"/>
    <nd ref="32817454"/>
    <nd ref="257883542"/>
    <nd ref="312420420"/>
    <nd ref="32817453"/>
    <nd ref="288985221"/>
    <nd ref="32817452"/>
    <nd ref="312420513"/>
    <nd ref="32817451"/>
    <nd ref="257883573"/>
    <nd ref="32817450"/>
    <nd ref="32817449"/>
    <nd ref="32817448"/>
    <nd ref="32817447"/>
    <nd ref="306531520"/>
    <nd ref="32817446"/>
    <nd ref="26506823"/>
    <nd ref="258965297"/>
    <nd ref="306531424"/>
    <tag k="created_by" v="Potlatch 0.10f"/>
    <tag k="highway" v="motorway"/>
    <tag k="name" v="Junipero Serra Freeway"/>
    <tag k="oneway" v="yes"/>
    <tag k="ref" v="I 280"/>
  </way>
  <way id="28435621" version="7" timestamp="2010-12-27T13:47:14Z" uid="14293" user="dahveed76" changeset="6777935">
    <nd ref="312420408"/>
    <nd ref="32817455"/>
    <nd ref="312420414"/>
    <nd ref="32817454"/>
    <nd ref="257883542"/>
    <nd ref="312420420"/>
    <nd ref="32817453"/>
    <nd ref="288985221"/>
    <nd ref="32817452"/>
    <nd ref="312420513"/>
    <nd ref="32817451"/>
    <nd ref="257883573"/>
    <nd ref="32817450"/>
    <nd ref="32817449"/>
    <nd ref="32817448"/>
    <nd ref="32817447"/>
    <nd ref="306531520"/>
    <nd ref="32817446"/>
    <nd ref="26506823"/>
    <nd ref="258965297"/>
    <nd ref="306531424"/>
    <tag k="highway" v="motorway"/>
    <tag k="name" v="Junipero Serra Freeway"/>
    <tag k="oneway" v="yes"/>
    <tag k="ref" v="I 280"/>
  </way>
  <way id="28435621" version="8" timestamp="2010-12-27T13:49:01Z" uid="14293" user="dahveed76" changeset="6777935">
    <nd ref="312420408"/>
    <nd ref="32817455"/>
    <nd ref="312420414"/>
    <nd ref="32817454"/>
    <nd ref="257883542"/>
    <nd ref="312420420"/>
    <nd ref="32817453"/>
    <nd ref="288985221"/>
    <nd ref="32817452"/>
    <nd ref="312420513"/>
    <nd ref="32817451"/>
    <nd ref="257883573"/>
    <nd ref="32817450"/>
    <nd ref="32817449"/>
    <nd ref="32817448"/>
    <nd ref="32817447"/>
    <nd ref="306531520"/>
    <nd ref="32817446"/>
    <nd ref="26506823"/>
    <nd ref="258965297"/>
    <nd ref="1067707107"/>
    <nd ref="306531424"/>
    <tag k="highway" v="motorway"/>
    <tag k="name" v="Junipero Serra Freeway"/>
    <tag k="oneway" v="yes"/>
    <tag k="ref" v="I 280"/>
  </way>
  <way id="28435621" version="9" timestamp="2011-05-24T08:32:28Z" uid="14293" user="JuxTPosition" changeset="8233100">
    <nd ref="312420408"/>
    <nd ref="32817455"/>
    <nd ref="312420414"/>
    <nd ref="32817454"/>
    <nd ref="257883542"/>
    <nd ref="312420420"/>
    <nd ref="32817453"/>
    <nd ref="288985221"/>
    <nd ref="32817452"/>
    <nd ref="312420513"/>
    <nd ref="32817451"/>
    <nd ref="257883573"/>
    <nd ref="32817450"/>
    <nd ref="1298215293"/>
    <nd ref="32817449"/>
    <nd ref="32817448"/>
    <nd ref="1298215259"/>
    <nd ref="1298215287"/>
    <nd ref="32817447"/>
    <nd ref="1298215239"/>
    <nd ref="306531520"/>
    <nd ref="1298215306"/>
    <nd ref="32817446"/>
    <nd ref="1298215277"/>
    <nd ref="26506823"/>
    <nd ref="1298215218"/>
    <nd ref="258965297"/>
    <nd ref="1067707107"/>
    <nd ref="1298215232"/>
    <nd ref="306531424"/>
    <tag k="highway" v="motorway"/>
    <tag k="name" v="Junipero Serra Freeway"/>
    <tag k="oneway" v="yes"/>
    <tag k="ref" v="I 280"/>
  </way>
  <way id="28435621" version="10" timestamp="2011-05-24T09:00:13Z" uid="14293" user="JuxTPosition" changeset="8233296">
    <nd ref="312420408"/>
    <nd ref="32817455"/>
    <nd ref="312420414"/>
    <nd ref="32817454"/>
    <nd ref="1298225878"/>
    <nd ref="1298225874"/>
    <nd ref="257883542"/>
    <nd ref="1298225897"/>
    <nd ref="312420420"/>
    <nd ref="32817453"/>
    <nd ref="288985221"/>
    <nd ref="1298225896"/>
    <nd ref="1298225883"/>
    <nd ref="32817452"/>
    <nd ref="312420513"/>
    <nd ref="1298225893"/>
    <nd ref="32817451"/>
    <nd ref="1298225890"/>
    <nd ref="257883573"/>
    <nd ref="1298225891"/>
    <nd ref="32817450"/>
    <nd ref="1298225895"/>
    <nd ref="1298225889"/>
    <nd ref="1298215293"/>
    <nd ref="32817449"/>
    <nd ref="32817448"/>
    <nd ref="1298215259"/>
    <nd ref="1298215287"/>
    <nd ref="32817447"/>
    <nd ref="1298215239"/>
    <nd ref="306531520"/>
    <nd ref="1298215306"/>
    <nd ref="32817446"/>
    <nd ref="1298215277"/>
    <nd ref="26506823"/>
    <nd ref="1298215218"/>
    <nd ref="258965297"/>
    <nd ref="1067707107"/>
    <nd ref="1298215232"/>
    <nd ref="306531424"/>
    <tag k="highway" v="motorway"/>
    <tag k="name" v="Junipero Serra Freeway"/>
    <tag k="oneway" v="yes"/>
    <tag k="ref" v="I 280"/>
  </way>
  <way id="28435621" version="11" timestamp="2011-07-31T11:44:16Z" uid="207745" user="NE2" changeset="8880034">
    <nd ref="312420408"/>
    <nd ref="32817455"/>
    <nd ref="312420414"/>
    <nd ref="32817454"/>
    <nd ref="1298225878"/>
    <nd ref="1298225874"/>
    <nd ref="257883542"/>
    <nd ref="1298225897"/>
    <nd ref="312420420"/>
    <nd ref="32817453"/>
    <nd ref="288985221"/>
    <nd ref="1298225896"/>
    <nd ref="1298225883"/>
    <nd ref="32817452"/>
    <nd ref="312420513"/>
    <nd ref="1298225893"/>
    <nd ref="32817451"/>
    <nd ref="1298225890"/>
    <nd ref="257883573"/>
    <nd ref="1298225891"/>
    <nd ref="32817450"/>
    <nd ref="1298225895"/>
    <nd ref="1298225889"/>
    <nd ref="1298215293"/>
    <nd ref="32817449"/>
    <nd ref="32817448"/>
    <nd ref="1298215259"/>
    <nd ref="1298215287"/>
    <nd ref="32817447"/>
    <nd ref="1298215239"/>
    <nd ref="306531520"/>
    <nd ref="1298215306"/>
    <nd ref="32817446"/>
    <nd ref="1298215277"/>
    <nd ref="26506823"/>
    <nd ref="1298215218"/>
    <nd ref="258965297"/>
    <nd ref="1067707107"/>
    <nd ref="1298215232"/>
    <nd ref="306531424"/>
    <tag k="highway" v="motorway"/>
    <tag k="lanes" v="4"/>
    <tag k="name" v="Junipero Serra Freeway"/>
    <tag k="oneway" v="yes"/>
    <tag k="ref" v="I 280"/>
  </way>
  <way id="28435621" version="12" timestamp="2011-08-07T00:38:23Z" uid="207745" user="NE2" changeset="8943068">
    <nd ref="312420408"/>
    <nd ref="32817455"/>
    <nd ref="312420414"/>
    <nd ref="32817454"/>
    <nd ref="1298225878"/>
    <nd ref="1298225874"/>
    <nd ref="257883542"/>
    <nd ref="1298225897"/>
    <nd ref="312420420"/>
    <nd ref="32817453"/>
    <nd ref="288985221"/>
    <nd ref="1298225896"/>
    <nd ref="1298225883"/>
    <nd ref="32817452"/>
    <nd ref="312420513"/>
    <nd ref="1298225893"/>
    <nd ref="32817451"/>
    <nd ref="1298225890"/>
    <nd ref="257883573"/>
    <nd ref="1298225891"/>
    <nd ref="32817450"/>
    <nd ref="1298225895"/>
    <nd ref="1298225889"/>
    <nd ref="1298215293"/>
    <nd ref="32817449"/>
    <nd ref="32817448"/>
    <nd ref="1298215259"/>
    <nd ref="1298215287"/>
    <nd ref="32817447"/>
    <nd ref="1298215239"/>
    <nd ref="306531520"/>
    <nd ref="1298215306"/>
    <nd ref="32817446"/>
    <nd ref="1298215277"/>
    <nd ref="26506823"/>
    <nd ref="1298215218"/>
    <nd ref="258965297"/>
    <nd ref="1067707107"/>
    <nd ref="1298215232"/>
    <nd ref="306531424"/>
    <tag k="highway" v="motorway"/>
    <tag k="hov" v="lane"/>
    <tag k="lanes" v="4"/>
    <tag k="name" v="Junipero Serra Freeway"/>
    <tag k="note:lanes" v="left lane is hov"/>
    <tag k="oneway" v="yes"/>
    <tag k="ref" v="I 280"/>
  </way>
  <way id="28435621" version="13" timestamp="2011-11-25T14:37:19Z" uid="207745" user="NE2" changeset="9943893">
    <nd ref="312420408"/>
    <nd ref="32817455"/>
    <nd ref="312420414"/>
    <nd ref="32817454"/>
    <nd ref="1298225878"/>
    <nd ref="1298225874"/>
    <nd ref="257883542"/>
    <nd ref="1298225897"/>
    <nd ref="312420420"/>
    <nd ref="32817453"/>
    <nd ref="288985221"/>
    <nd ref="1298225896"/>
    <nd ref="1298225883"/>
    <nd ref="32817452"/>
    <nd ref="312420513"/>
    <nd ref="1298225893"/>
    <nd ref="32817451"/>
    <nd ref="1298225890"/>
    <nd ref="257883573"/>
    <nd ref="1298225891"/>
    <nd ref="32817450"/>
    <nd ref="1298225895"/>
    <nd ref="1298225889"/>
    <nd ref="1298215293"/>
    <nd ref="32817449"/>
    <nd ref="32817448"/>
    <nd ref="1298215259"/>
    <nd ref="1298215287"/>
    <nd ref="32817447"/>
    <nd ref="1298215239"/>
    <nd ref="306531520"/>
    <nd ref="1298215306"/>
    <nd ref="32817446"/>
    <nd ref="1298215277"/>
    <nd ref="26506823"/>
    <nd ref="1298215218"/>
    <nd ref="258965297"/>
    <nd ref="1067707107"/>
    <nd ref="1298215232"/>
    <nd ref="306531424"/>
    <tag k="hgv" v="designated"/>
    <tag k="highway" v="motorway"/>
    <tag k="hov" v="lane"/>
    <tag k="lanes" v="4"/>
    <tag k="name" v="Junipero Serra Freeway"/>
    <tag k="note:lanes" v="left lane is hov"/>
    <tag k="oneway" v="yes"/>
    <tag k="ref" v="I 280"/>
  </way>
  <way id="28435621" version="14" timestamp="2011-12-07T05:51:33Z" uid="425864" user="Lhelfrich" changeset="10055182">
    <nd ref="312420408"/>
    <nd ref="32817455"/>
    <nd ref="32817454"/>
    <nd ref="1298225878"/>
    <nd ref="1298225874"/>
    <nd ref="257883542"/>
    <nd ref="1298225897"/>
    <nd ref="312420420"/>
    <nd ref="32817453"/>
    <nd ref="288985221"/>
    <nd ref="1298225896"/>
    <nd ref="1298225883"/>
    <nd ref="32817452"/>
    <nd ref="312420513"/>
    <nd ref="1298225893"/>
    <nd ref="32817451"/>
    <nd ref="1298225890"/>
    <nd ref="257883573"/>
    <nd ref="1298225891"/>
    <nd ref="32817450"/>
    <nd ref="1298225895"/>
    <nd ref="1298225889"/>
    <nd ref="1298215293"/>
    <nd ref="32817449"/>
    <nd ref="32817448"/>
    <nd ref="1298215259"/>
    <nd ref="1298215287"/>
    <nd ref="32817447"/>
    <nd ref="1298215239"/>
    <nd ref="306531520"/>
    <nd ref="1298215306"/>
    <nd ref="32817446"/>
    <nd ref="1298215277"/>
    <nd ref="26506823"/>
    <nd ref="1298215218"/>
    <nd ref="258965297"/>
    <nd ref="1067707107"/>
    <nd ref="1298215232"/>
    <nd ref="306531424"/>
    <tag k="hgv" v="designated"/>
    <tag k="highway" v="motorway"/>
    <tag k="hov" v="lane"/>
    <tag k="lanes" v="4"/>
    <tag k="name" v="Junipero Serra Freeway"/>
    <tag k="note:lanes" v="left lane is hov"/>
    <tag k="ref" v="I 280"/>
  </way>
  <way id="28435621" version="15" timestamp="2012-01-05T22:59:58Z" uid="92286" user="Paul Johnson" changeset="10306650">
    <nd ref="312420408"/>
    <nd ref="32817455"/>
    <nd ref="32817454"/>
    <nd ref="1298225878"/>
    <nd ref="1298225874"/>
    <nd ref="257883542"/>
    <nd ref="1298225897"/>
    <nd ref="312420420"/>
    <nd ref="32817453"/>
    <nd ref="288985221"/>
    <nd ref="1298225896"/>
    <nd ref="1298225883"/>
    <nd ref="32817452"/>
    <nd ref="312420513"/>
    <nd ref="1298225893"/>
    <nd ref="32817451"/>
    <nd ref="1298225890"/>
    <nd ref="257883573"/>
    <nd ref="1298225891"/>
    <nd ref="32817450"/>
    <nd ref="1298225895"/>
    <nd ref="1298225889"/>
    <nd ref="1298215293"/>
    <nd ref="32817449"/>
    <nd ref="32817448"/>
    <nd ref="1298215259"/>
    <nd ref="1298215287"/>
    <nd ref="32817447"/>
    <nd ref="1298215239"/>
    <nd ref="306531520"/>
    <nd ref="1298215306"/>
    <nd ref="32817446"/>
    <nd ref="1298215277"/>
    <nd ref="26506823"/>
    <nd ref="1298215218"/>
    <nd ref="258965297"/>
    <nd ref="1067707107"/>
    <nd ref="1298215232"/>
    <nd ref="306531424"/>
    <tag k="hgv" v="designated"/>
    <tag k="highway" v="motorway"/>
    <tag k="hov" v="lane"/>
    <tag k="lanes" v="4"/>
    <tag k="maxspeed" v="65 mph"/>
    <tag k="name" v="Junipero Serra Freeway"/>
    <tag k="note:lanes" v="left lane is hov"/>
    <tag k="ref" v="I 280"/>
  </way>
  <way id="28435621" version="16" timestamp="2012-02-29T09:57:42Z" uid="14293" user="JuxTPosition" changeset="10826326">
    <nd ref="312420408"/>
    <nd ref="32817455"/>
    <nd ref="1652633096"/>
    <nd ref="32817454"/>
    <nd ref="1298225878"/>
    <nd ref="1298225874"/>
    <nd ref="257883542"/>
    <nd ref="1298225897"/>
    <nd ref="312420420"/>
    <nd ref="32817453"/>
    <nd ref="288985221"/>
    <nd ref="1298225896"/>
    <nd ref="1298225883"/>
    <nd ref="32817452"/>
    <nd ref="312420513"/>
    <nd ref="1298225893"/>
    <nd ref="32817451"/>
    <nd ref="1298225890"/>
    <nd ref="257883573"/>
    <nd ref="1298225891"/>
    <nd ref="32817450"/>
    <nd ref="1298225895"/>
    <nd ref="1298225889"/>
    <nd ref="1298215293"/>
    <nd ref="32817449"/>
    <nd ref="32817448"/>
    <nd ref="1298215259"/>
    <nd ref="1298215287"/>
    <nd ref="32817447"/>
    <nd ref="1298215239"/>
    <nd ref="306531520"/>
    <nd ref="1298215306"/>
    <nd ref="32817446"/>
    <nd ref="1298215277"/>
    <nd ref="26506823"/>
    <nd ref="1298215218"/>
    <nd ref="258965297"/>
    <nd ref="1067707107"/>
    <nd ref="1298215232"/>
    <nd ref="306531424"/>
    <tag k="hgv" v="designated"/>
    <tag k="highway" v="motorway"/>
    <tag k="hov" v="lane"/>
    <tag k="lanes" v="4"/>
    <tag k="maxspeed" v="65 mph"/>
    <tag k="name" v="Junipero Serra Freeway"/>
    <tag k="note:lanes" v="left lane is hov"/>
    <tag k="ref" v="I 280"/>
  </way>
  <way id="28435621" version="17" timestamp="2012-02-29T10:13:20Z" uid="14293" user="JuxTPosition" changeset="10826343">
    <nd ref="312420408"/>
    <nd ref="32817455"/>
    <nd ref="1652633096"/>
    <nd ref="32817454"/>
    <nd ref="1298225878"/>
    <nd ref="1298225874"/>
    <nd ref="257883542"/>
    <nd ref="1298225897"/>
    <nd ref="312420420"/>
    <nd ref="32817453"/>
    <nd ref="288985221"/>
    <nd ref="1298225896"/>
    <nd ref="1298225883"/>
    <nd ref="32817452"/>
    <nd ref="312420513"/>
    <nd ref="1298225893"/>
    <nd ref="32817451"/>
    <nd ref="1298225890"/>
    <nd ref="257883573"/>
    <nd ref="1298225891"/>
    <nd ref="32817450"/>
    <nd ref="1298225895"/>
    <nd ref="1298225889"/>
    <nd ref="1298215293"/>
    <nd ref="32817449"/>
    <nd ref="32817448"/>
    <nd ref="1298215259"/>
    <nd ref="1298215287"/>
    <nd ref="32817447"/>
    <nd ref="1298215239"/>
    <nd ref="306531520"/>
    <nd ref="1298215306"/>
    <nd ref="32817446"/>
    <nd ref="1298215277"/>
    <nd ref="26506823"/>
    <nd ref="1298215218"/>
    <nd ref="258965297"/>
    <nd ref="1067707107"/>
    <nd ref="1298215232"/>
    <nd ref="306531424"/>
    <tag k="hgv" v="designated"/>
    <tag k="highway" v="motorway"/>
    <tag k="hov" v="lane"/>
    <tag k="lanes" v="4"/>
    <tag k="maxspeed" v="65 mph"/>
    <tag k="name" v="Junipero Serra Freeway"/>
    <tag k="note:lanes" v="left lane is hov"/>
    <tag k="oneway" v="yes"/>
    <tag k="ref" v="I 280"/>
  </way>
  <way id="28435623" version="3" timestamp="2010-02-15T05:05:09Z" uid="74617" user="JohnSmith" changeset="3880242">
    <nd ref="312420419"/>
    <nd ref="234931684"/>
    <nd ref="234931685"/>
    <tag k="highway" v="residential"/>
    <tag k="maxspeed" v="50"/>
    <tag k="name" v="Elwood Street"/>
  </way>
  <way id="28435623" version="4" timestamp="2012-01-17T17:51:19Z" uid="147510" user="woodpeck_fixbot" changeset="10417024">
    <nd ref="312420419"/>
    <nd ref="234931684"/>
    <nd ref="234931685"/>
    <tag k="highway" v="residential"/>
    <tag k="name" v="Elwood Street"/>
  </way>
  <way id="28435624" version="2" timestamp="2010-03-28T00:20:15Z" uid="20587" user="balrog-kun" changeset="4250871">
    <nd ref="312420405"/>
    <nd ref="312420404"/>
    <tag k="bridge" v="yes"/>
    <tag k="created_by" v="Potlatch 0.10f"/>
    <tag k="highway" v="motorway"/>
    <tag k="history" v="Retrieved from v23"/>
    <tag k="layer" v="1"/>
    <tag k="name" v="Junipero Serra Freeway"/>
    <tag k="oneway" v="yes"/>
    <tag k="ref" v="I 280"/>
  </way>
  <way id="28435624" version="3" timestamp="2011-05-24T07:55:06Z" uid="14293" user="JuxTPosition" changeset="8232841">
    <nd ref="312420405"/>
    <nd ref="1298190088"/>
    <nd ref="312420404"/>
    <tag k="bridge" v="yes"/>
    <tag k="highway" v="motorway"/>
    <tag k="history" v="Retrieved from v23"/>
    <tag k="layer" v="1"/>
    <tag k="name" v="Junipero Serra Freeway"/>
    <tag k="oneway" v="yes"/>
    <tag k="ref" v="I 280"/>
  </way>
  <way id="28435624" version="4" timestamp="2011-07-31T11:44:08Z" uid="207745" user="NE2" changeset="8880034">
    <nd ref="312420405"/>
    <nd ref="1298190088"/>
    <nd ref="312420404"/>
    <tag k="bridge" v="yes"/>
    <tag k="highway" v="motorway"/>
    <tag k="lanes" v="4"/>
    <tag k="layer" v="1"/>
    <tag k="name" v="Junipero Serra Freeway"/>
    <tag k="oneway" v="yes"/>
    <tag k="ref" v="I 280"/>
  </way>
  <way id="28435624" version="5" timestamp="2011-08-07T00:38:20Z" uid="207745" user="NE2" changeset="8943068">
    <nd ref="312420405"/>
    <nd ref="1298190088"/>
    <nd ref="312420404"/>
    <tag k="bridge" v="yes"/>
    <tag k="highway" v="motorway"/>
    <tag k="hov" v="lane"/>
    <tag k="lanes" v="4"/>
    <tag k="layer" v="1"/>
    <tag k="name" v="Junipero Serra Freeway"/>
    <tag k="note:lanes" v="left lane is hov"/>
    <tag k="oneway" v="yes"/>
    <tag k="ref" v="I 280"/>
  </way>
  <way id="28435624" version="6" timestamp="2011-11-25T14:36:46Z" uid="207745" user="NE2" changeset="9943893">
    <nd ref="312420405"/>
    <nd ref="1298190088"/>
    <nd ref="312420404"/>
    <tag k="bridge" v="yes"/>
    <tag k="hgv" v="designated"/>
    <tag k="highway" v="motorway"/>
    <tag k="hov" v="lane"/>
    <tag k="lanes" v="4"/>
    <tag k="layer" v="1"/>
    <tag k="name" v="Junipero Serra Freeway"/>
    <tag k="note:lanes" v="left lane is hov"/>
    <tag k="oneway" v="yes"/>
    <tag k="ref" v="I 280"/>
  </way>
  <way id="28435624" version="7" timestamp="2011-12-07T05:52:56Z" uid="425864" user="Lhelfrich" changeset="10055182"/>
  <way id="28435629" version="26" timestamp="2010-03-28T00:20:15Z" uid="20587" user="balrog-kun" changeset="4250871">
    <nd ref="65469318"/>
    <nd ref="282921454"/>
    <nd ref="65469316"/>
    <nd ref="65469315"/>
    <nd ref="65469312"/>
    <nd ref="65469309"/>
    <nd ref="65437128"/>
    <nd ref="65469308"/>
    <nd ref="65469307"/>
    <nd ref="65469306"/>
    <nd ref="65469303"/>
    <nd ref="65469302"/>
    <nd ref="65469299"/>
    <nd ref="65469298"/>
    <nd ref="65469297"/>
    <nd ref="317530908"/>
    <nd ref="317530909"/>
    <nd ref="65469295"/>
    <nd ref="65469293"/>
    <nd ref="65469290"/>
    <nd ref="65469288"/>
    <tag k="created_by" v="Potlatch 0.10f"/>
    <tag k="highway" v="secondary"/>
    <tag k="name" v="Saratoga Avenue"/>
    <tag k="tiger:cfcc" v="A41"/>
    <tag k="tiger:county" v="Santa Clara, CA"/>
    <tag k="tiger:name_base" v="Saratoga"/>
    <tag k="tiger:name_type" v="Ave"/>
    <tag k="tiger:reviewed" v="no"/>
    <tag k="tiger:separated" v="no"/>
    <tag k="tiger:source" v="tiger_import_dch_v0.6_20070809"/>
    <tag k="tiger:tlid" v="122942805:122942807:122942761:122942763:122942921:122942770:122942772:122942838:122942926:122942928:123014779:123014780:123020681:123020682:122943335:123014696:123014697:122942945:123177085:122942916:123013741:123013748:123180993:122971702:123177081:12301"/>
    <tag k="tiger:zip_left" v="95070"/>
    <tag k="tiger:zip_right" v="95070"/>
  </way>
  <way id="28435664" version="2" timestamp="2010-07-07T09:19:00Z" uid="74617" user="JohnSmith" changeset="5156250">
    <nd ref="273023470"/>
    <nd ref="312420838"/>
    <nd ref="312420839"/>
    <nd ref="312420840"/>
    <nd ref="312420841"/>
    <nd ref="312420842"/>
    <nd ref="273023471"/>
    <tag k="highway" v="residential"/>
    <tag k="maxspeed" v="50"/>
    <tag k="maxspeed:source" v="default residential speed limit in Australia"/>
    <tag k="name" v="Tenison-Woods Circuit"/>
    <tag k="oneway" v="yes"/>
  </way>
  <way id="28435664" version="3" timestamp="2012-01-17T17:51:23Z" uid="147510" user="woodpeck_fixbot" changeset="10417024">
    <nd ref="273023470"/>
    <nd ref="312420838"/>
    <nd ref="312420839"/>
    <nd ref="312420840"/>
    <nd ref="312420841"/>
    <nd ref="312420842"/>
    <nd ref="273023471"/>
    <tag k="highway" v="residential"/>
    <tag k="name" v="Tenison-Woods Circuit"/>
    <tag k="oneway" v="yes"/>
  </way>
  <way id="28435672" version="2" timestamp="2010-07-07T09:11:18Z" uid="74617" user="JohnSmith" changeset="5156250">
    <nd ref="312420988"/>
    <nd ref="312420989"/>
    <nd ref="312420990"/>
    <nd ref="312420991"/>
    <nd ref="312420992"/>
    <nd ref="312420993"/>
    <tag k="highway" v="residential"/>
    <tag k="maxspeed" v="50"/>
    <tag k="maxspeed:source" v="default residential speed limit in Australia"/>
    <tag k="name" v="Brooker Street"/>
  </way>
  <way id="28435672" version="3" timestamp="2012-01-17T17:51:29Z" uid="147510" user="woodpeck_fixbot" changeset="10417024">
    <nd ref="312420988"/>
    <nd ref="312420989"/>
    <nd ref="312420990"/>
    <nd ref="312420991"/>
    <nd ref="312420992"/>
    <nd ref="312420993"/>
    <tag k="highway" v="residential"/>
    <tag k="name" v="Brooker Street"/>
  </way>
  <way id="28435679" version="8" timestamp="2010-07-09T05:13:02Z" uid="74617" user="JohnSmith" changeset="5170986">
    <nd ref="312421055"/>
    <nd ref="312675720"/>
    <nd ref="312421276"/>
    <nd ref="444664517"/>
    <nd ref="73107164"/>
    <nd ref="444664519"/>
    <nd ref="444664520"/>
    <tag k="highway" v="residential"/>
    <tag k="lanes" v="2"/>
    <tag k="maxspeed" v="50"/>
    <tag k="maxspeed:source" v="default residential speed limit in Australia"/>
    <tag k="name" v="Athelstan Road"/>
    <tag k="source" v="MMBW"/>
    <tag k="surface" v="paved"/>
  </way>
  <way id="28435679" version="9" timestamp="2011-06-15T07:27:29Z" uid="201443" user="stevage" changeset="8444302">
    <nd ref="312421055"/>
    <nd ref="312675720"/>
    <nd ref="312421276"/>
    <nd ref="444664517"/>
    <nd ref="73107164"/>
    <nd ref="444664519"/>
    <nd ref="1326073498"/>
    <nd ref="444664520"/>
    <tag k="highway" v="residential"/>
    <tag k="lanes" v="2"/>
    <tag k="maxspeed" v="50"/>
    <tag k="maxspeed:source" v="default residential speed limit in Australia"/>
    <tag k="name" v="Athelstan Road"/>
    <tag k="source" v="MMBW"/>
    <tag k="surface" v="paved"/>
  </way>
  <way id="28435679" version="10" timestamp="2012-01-17T17:51:32Z" uid="147510" user="woodpeck_fixbot" changeset="10417024">
    <nd ref="312421055"/>
    <nd ref="312675720"/>
    <nd ref="312421276"/>
    <nd ref="444664517"/>
    <nd ref="73107164"/>
    <nd ref="444664519"/>
    <nd ref="1326073498"/>
    <nd ref="444664520"/>
    <tag k="highway" v="residential"/>
    <tag k="lanes" v="2"/>
    <tag k="name" v="Athelstan Road"/>
    <tag k="source" v="MMBW"/>
    <tag k="surface" v="paved"/>
  </way>
  <way id="28435680" version="7" timestamp="2010-07-09T05:12:34Z" uid="74617" user="JohnSmith" changeset="5170986">
    <nd ref="444664517"/>
    <nd ref="312421090"/>
    <nd ref="444664516"/>
    <nd ref="312421091"/>
    <nd ref="312421092"/>
    <nd ref="312421093"/>
    <nd ref="312421094"/>
    <nd ref="312421165"/>
    <nd ref="444664518"/>
    <nd ref="312421095"/>
    <tag k="highway" v="residential"/>
    <tag k="lanes" v="2"/>
    <tag k="maxspeed" v="50"/>
    <tag k="maxspeed:source" v="default residential speed limit in Australia"/>
    <tag k="name" v="Hazel Street"/>
    <tag k="surface" v="paved"/>
  </way>
  <way id="28435680" version="8" timestamp="2010-11-18T05:57:03Z" uid="320632" user="Zulu99" changeset="6397734">
    <nd ref="444664517"/>
    <nd ref="312421090"/>
    <nd ref="444664516"/>
    <nd ref="312421092"/>
    <nd ref="312421093"/>
    <nd ref="312421094"/>
    <nd ref="312421165"/>
    <nd ref="444664518"/>
    <nd ref="312421095"/>
    <tag k="highway" v="residential"/>
    <tag k="lanes" v="2"/>
    <tag k="maxspeed" v="50"/>
    <tag k="maxspeed:source" v="default residential speed limit in Australia"/>
    <tag k="name" v="Hazel Street"/>
    <tag k="surface" v="paved"/>
  </way>
  <way id="28435680" version="9" timestamp="2012-01-17T17:51:36Z" uid="147510" user="woodpeck_fixbot" changeset="10417024">
    <nd ref="444664517"/>
    <nd ref="312421090"/>
    <nd ref="444664516"/>
    <nd ref="312421092"/>
    <nd ref="312421093"/>
    <nd ref="312421094"/>
    <nd ref="312421165"/>
    <nd ref="444664518"/>
    <nd ref="312421095"/>
    <tag k="highway" v="residential"/>
    <tag k="lanes" v="2"/>
    <tag k="name" v="Hazel Street"/>
    <tag k="surface" v="paved"/>
  </way>
  <way id="28435683" version="6" timestamp="2010-07-09T05:15:34Z" uid="74617" user="JohnSmith" changeset="5170986">
    <nd ref="312421107"/>
    <nd ref="444664522"/>
    <tag k="highway" v="residential"/>
    <tag k="lanes" v="2"/>
    <tag k="maxspeed" v="50"/>
    <tag k="maxspeed:source" v="default residential speed limit in Australia"/>
    <tag k="name" v="St Andrews Street"/>
    <tag k="surface" v="paved"/>
  </way>
  <way id="28435683" version="7" timestamp="2012-01-17T17:51:38Z" uid="147510" user="woodpeck_fixbot" changeset="10417024">
    <nd ref="312421107"/>
    <nd ref="444664522"/>
    <tag k="highway" v="residential"/>
    <tag k="lanes" v="2"/>
    <tag k="name" v="St Andrews Street"/>
    <tag k="surface" v="paved"/>
  </way>
  <way id="28435687" version="7" timestamp="2010-07-09T05:16:48Z" uid="74617" user="JohnSmith" changeset="5170986">
    <nd ref="392643758"/>
    <nd ref="392643760"/>
    <nd ref="312421134"/>
    <nd ref="312421135"/>
    <tag k="highway" v="residential"/>
    <tag k="lanes" v="2"/>
    <tag k="maxspeed" v="50"/>
    <tag k="maxspeed:source" v="default residential speed limit in Australia"/>
    <tag k="name" v="Wilson Grove"/>
    <tag k="surface" v="paved"/>
  </way>
  <way id="28435687" version="8" timestamp="2012-01-17T17:51:40Z" uid="147510" user="woodpeck_fixbot" changeset="10417024">
    <nd ref="392643758"/>
    <nd ref="392643760"/>
    <nd ref="312421134"/>
    <nd ref="312421135"/>
    <tag k="highway" v="residential"/>
    <tag k="lanes" v="2"/>
    <tag k="name" v="Wilson Grove"/>
    <tag k="surface" v="paved"/>
  </way>
  <way id="28435689" version="6" timestamp="2010-07-09T05:16:30Z" uid="74617" user="JohnSmith" changeset="5170986">
    <nd ref="312421138"/>
    <nd ref="444664518"/>
    <tag k="highway" v="residential"/>
    <tag k="lanes" v="2"/>
    <tag k="maxspeed" v="50"/>
    <tag k="maxspeed:source" v="default residential speed limit in Australia"/>
    <tag k="name" v="Seville Street"/>
    <tag k="surface" v="paved"/>
  </way>
  <way id="28435689" version="7" timestamp="2012-01-17T17:51:42Z" uid="147510" user="woodpeck_fixbot" changeset="10417024">
    <nd ref="312421138"/>
    <nd ref="444664518"/>
    <tag k="highway" v="residential"/>
    <tag k="lanes" v="2"/>
    <tag k="name" v="Seville Street"/>
    <tag k="surface" v="paved"/>
  </way>
  <way id="28435690" version="6" timestamp="2010-07-09T05:14:45Z" uid="74617" user="JohnSmith" changeset="5170986">
    <nd ref="312421163"/>
    <nd ref="312421164"/>
    <nd ref="312421165"/>
    <tag k="highway" v="residential"/>
    <tag k="lanes" v="2"/>
    <tag k="maxspeed" v="50"/>
    <tag k="maxspeed:source" v="default residential speed limit in Australia"/>
    <tag k="name" v="Orange Grove"/>
    <tag k="surface" v="paved"/>
  </way>
  <way id="28435690" version="7" timestamp="2012-01-17T17:51:44Z" uid="147510" user="woodpeck_fixbot" changeset="10417024">
    <nd ref="312421163"/>
    <nd ref="312421164"/>
    <nd ref="312421165"/>
    <tag k="highway" v="residential"/>
    <tag k="lanes" v="2"/>
    <tag k="name" v="Orange Grove"/>
    <tag k="surface" v="paved"/>
  </way>
  <way id="28435696" version="8" timestamp="2010-07-09T05:17:31Z" uid="74617" user="JohnSmith" changeset="5170986">
    <nd ref="444664515"/>
    <nd ref="312421268"/>
    <nd ref="312421269"/>
    <nd ref="312421270"/>
    <nd ref="312421271"/>
    <nd ref="312421272"/>
    <nd ref="312421273"/>
    <nd ref="312421274"/>
    <nd ref="312421275"/>
    <nd ref="312421276"/>
    <tag k="highway" v="residential"/>
    <tag k="lanes" v="2"/>
    <tag k="maxspeed" v="50"/>
    <tag k="maxspeed:source" v="default residential speed limit in Australia"/>
    <tag k="name" v="Aroha Crescent"/>
    <tag k="surface" v="paved"/>
  </way>
  <way id="28435696" version="9" timestamp="2012-01-17T17:51:46Z" uid="147510" user="woodpeck_fixbot" changeset="10417024">
    <nd ref="444664515"/>
    <nd ref="312421268"/>
    <nd ref="312421269"/>
    <nd ref="312421270"/>
    <nd ref="312421271"/>
    <nd ref="312421272"/>
    <nd ref="312421273"/>
    <nd ref="312421274"/>
    <nd ref="312421275"/>
    <nd ref="312421276"/>
    <tag k="highway" v="residential"/>
    <tag k="lanes" v="2"/>
    <tag k="name" v="Aroha Crescent"/>
    <tag k="surface" v="paved"/>
  </way>
  <way id="28435707" version="6" timestamp="2010-07-09T05:17:57Z" uid="74617" user="JohnSmith" changeset="5170986">
    <nd ref="312421379"/>
    <nd ref="444664515"/>
    <nd ref="444664516"/>
    <tag k="highway" v="residential"/>
    <tag k="lanes" v="2"/>
    <tag k="maxspeed" v="50"/>
    <tag k="maxspeed:source" v="default residential speed limit in Australia"/>
    <tag k="name" v="Acheron Avenue"/>
    <tag k="surface" v="paved"/>
  </way>
  <way id="28435707" version="7" timestamp="2012-01-17T17:51:49Z" uid="147510" user="woodpeck_fixbot" changeset="10417024">
    <nd ref="312421379"/>
    <nd ref="444664515"/>
    <nd ref="444664516"/>
    <tag k="highway" v="residential"/>
    <tag k="lanes" v="2"/>
    <tag k="name" v="Acheron Avenue"/>
    <tag k="surface" v="paved"/>
  </way>
  <way id="28435709" version="15" timestamp="2010-07-09T05:14:36Z" uid="74617" user="JohnSmith" changeset="5170986">
    <nd ref="312422838"/>
    <nd ref="312421407"/>
    <nd ref="312421553"/>
    <nd ref="312422861"/>
    <nd ref="343598816"/>
    <tag k="highway" v="residential"/>
    <tag k="lanes" v="2"/>
    <tag k="maxspeed" v="50"/>
    <tag k="maxspeed:source" v="default residential speed limit in Australia"/>
    <tag k="name" v="Fairmont Avenue"/>
    <tag k="surface" v="paved"/>
  </way>
  <way id="28435709" version="16" timestamp="2011-11-10T11:36:03Z" uid="201443" user="stevage" changeset="9788087">
    <nd ref="312422838"/>
    <nd ref="312421407"/>
    <nd ref="312421553"/>
    <nd ref="312422861"/>
    <nd ref="343598816"/>
    <tag k="highway" v="residential"/>
    <tag k="lanes" v="2"/>
    <tag k="lcn" v="yes"/>
    <tag k="maxspeed" v="50"/>
    <tag k="maxspeed:source" v="default residential speed limit in Australia"/>
    <tag k="name" v="Fairmont Avenue"/>
    <tag k="surface" v="paved"/>
  </way>
  <way id="28435709" version="17" timestamp="2012-01-17T17:51:53Z" uid="147510" user="woodpeck_fixbot" changeset="10417024">
    <nd ref="312422838"/>
    <nd ref="312421407"/>
    <nd ref="312421553"/>
    <nd ref="312422861"/>
    <nd ref="343598816"/>
    <tag k="highway" v="residential"/>
    <tag k="lanes" v="2"/>
    <tag k="lcn" v="yes"/>
    <tag k="name" v="Fairmont Avenue"/>
    <tag k="surface" v="paved"/>
  </way>
  <way id="28435717" version="16" timestamp="2010-07-09T05:17:34Z" uid="74617" user="JohnSmith" changeset="5170986">
    <nd ref="444664521"/>
    <nd ref="312680052"/>
    <nd ref="312680046"/>
    <nd ref="312657446"/>
    <nd ref="312656777"/>
    <nd ref="312679393"/>
    <nd ref="312679208"/>
    <nd ref="312679158"/>
    <nd ref="312656734"/>
    <nd ref="312679125"/>
    <nd ref="312678877"/>
    <nd ref="312656727"/>
    <tag k="highway" v="residential"/>
    <tag k="lanes" v="2"/>
    <tag k="maxspeed" v="50"/>
    <tag k="maxspeed:source" v="default residential speed limit in Australia"/>
    <tag k="name" v="Rowell Avenue"/>
    <tag k="surface" v="paved"/>
  </way>
  <way id="28435717" version="17" timestamp="2010-10-08T06:54:16Z" uid="320632" user="Zulu99" changeset="5983597">
    <nd ref="444664521"/>
    <nd ref="312680052"/>
    <nd ref="312680046"/>
    <nd ref="312657446"/>
    <nd ref="312656777"/>
    <nd ref="312679393"/>
    <nd ref="312679208"/>
    <nd ref="312679158"/>
    <nd ref="312656734"/>
    <nd ref="312679125"/>
    <nd ref="312678877"/>
    <nd ref="312656727"/>
    <tag k="highway" v="residential"/>
    <tag k="lanes" v="2"/>
    <tag k="maxspeed" v="50"/>
    <tag k="maxspeed:source" v="default residential speed limit in Australia"/>
    <tag k="name" v="Rowell Avenue"/>
    <tag k="surface" v="paved"/>
  </way>
  <way id="28435717" version="18" timestamp="2012-01-17T17:51:57Z" uid="147510" user="woodpeck_fixbot" changeset="10417024">
    <nd ref="444664521"/>
    <nd ref="312680052"/>
    <nd ref="312680046"/>
    <nd ref="312657446"/>
    <nd ref="312656777"/>
    <nd ref="312679393"/>
    <nd ref="312679208"/>
    <nd ref="312679158"/>
    <nd ref="312656734"/>
    <nd ref="312679125"/>
    <nd ref="312678877"/>
    <nd ref="312656727"/>
    <tag k="highway" v="residential"/>
    <tag k="lanes" v="2"/>
    <tag k="name" v="Rowell Avenue"/>
    <tag k="surface" v="paved"/>
  </way>
  <way id="28435719" version="6" timestamp="2010-07-09T05:14:14Z" uid="74617" user="JohnSmith" changeset="5170986">
    <nd ref="444664519"/>
    <nd ref="312421493"/>
    <tag k="highway" v="residential"/>
    <tag k="lanes" v="2"/>
    <tag k="maxspeed" v="50"/>
    <tag k="maxspeed:source" v="default residential speed limit in Australia"/>
    <tag k="name" v="Range Street"/>
    <tag k="surface" v="paved"/>
  </way>
  <way id="28435719" version="7" timestamp="2012-01-17T17:52:02Z" uid="147510" user="woodpeck_fixbot" changeset="10417024">
    <nd ref="444664519"/>
    <nd ref="312421493"/>
    <tag k="highway" v="residential"/>
    <tag k="lanes" v="2"/>
    <tag k="name" v="Range Street"/>
    <tag k="surface" v="paved"/>
  </way>
  <way id="28435728" version="5" timestamp="2010-07-09T05:14:57Z" uid="74617" user="JohnSmith" changeset="5170986">
    <nd ref="315734982"/>
    <nd ref="312421552"/>
    <nd ref="312421553"/>
    <tag k="highway" v="residential"/>
    <tag k="lanes" v="2"/>
    <tag k="maxspeed" v="50"/>
    <tag k="maxspeed:source" v="default residential speed limit in Australia"/>
    <tag k="name" v="Lyric Grove"/>
    <tag k="source" v="Yahoo"/>
    <tag k="source:name" v="Collins 1936"/>
    <tag k="surface" v="paved"/>
  </way>
  <way id="28435728" version="6" timestamp="2012-01-17T17:52:05Z" uid="147510" user="woodpeck_fixbot" changeset="10417024">
    <nd ref="315734982"/>
    <nd ref="312421552"/>
    <nd ref="312421553"/>
    <tag k="highway" v="residential"/>
    <tag k="lanes" v="2"/>
    <tag k="name" v="Lyric Grove"/>
    <tag k="source" v="Yahoo"/>
    <tag k="source:name" v="Collins 1936"/>
    <tag k="surface" v="paved"/>
  </way>
  <way id="28435730" version="7" timestamp="2010-07-09T05:19:33Z" uid="74617" user="JohnSmith" changeset="5170986">
    <nd ref="315734951"/>
    <nd ref="315734968"/>
    <tag k="highway" v="residential"/>
    <tag k="lanes" v="2"/>
    <tag k="maxspeed" v="50"/>
    <tag k="maxspeed:source" v="default residential speed limit in Australia"/>
    <tag k="name" v="Marlborough Avenue"/>
    <tag k="surface" v="paved"/>
  </way>
  <way id="28435730" version="8" timestamp="2012-01-17T17:52:08Z" uid="147510" user="woodpeck_fixbot" changeset="10417024">
    <nd ref="315734951"/>
    <nd ref="315734968"/>
    <tag k="highway" v="residential"/>
    <tag k="lanes" v="2"/>
    <tag k="name" v="Marlborough Avenue"/>
    <tag k="surface" v="paved"/>
  </way>
  <way id="28435737" version="3" timestamp="2010-07-07T09:17:49Z" uid="74617" user="JohnSmith" changeset="5156250">
    <nd ref="312421628"/>
    <nd ref="312421625"/>
    <nd ref="303211393"/>
    <nd ref="303211392"/>
    <nd ref="303211391"/>
    <nd ref="312421752"/>
    <nd ref="312421757"/>
    <tag k="highway" v="residential"/>
    <tag k="maxspeed" v="50"/>
    <tag k="maxspeed:source" v="default residential speed limit in Australia"/>
    <tag k="name" v="Don Dunstan Drive"/>
  </way>
  <way id="28435737" version="4" timestamp="2012-01-17T17:52:14Z" uid="147510" user="woodpeck_fixbot" changeset="10417024">
    <nd ref="312421628"/>
    <nd ref="312421625"/>
    <nd ref="303211393"/>
    <nd ref="303211392"/>
    <nd ref="303211391"/>
    <nd ref="312421752"/>
    <nd ref="312421757"/>
    <tag k="highway" v="residential"/>
    <tag k="name" v="Don Dunstan Drive"/>
  </way>
  <way id="28435738" version="5" timestamp="2010-07-09T05:17:06Z" uid="74617" user="JohnSmith" changeset="5170986">
    <nd ref="271872242"/>
    <nd ref="312421633"/>
    <tag k="highway" v="residential"/>
    <tag k="lanes" v="2"/>
    <tag k="maxspeed" v="50"/>
    <tag k="maxspeed:source" v="default residential speed limit in Australia"/>
    <tag k="name" v="Aminya Place"/>
    <tag k="surface" v="paved"/>
  </way>
  <way id="28435738" version="6" timestamp="2012-01-17T17:52:19Z" uid="147510" user="woodpeck_fixbot" changeset="10417024">
    <nd ref="271872242"/>
    <nd ref="312421633"/>
    <tag k="highway" v="residential"/>
    <tag k="lanes" v="2"/>
    <tag k="name" v="Aminya Place"/>
    <tag k="surface" v="paved"/>
  </way>
  <way id="28435740" version="7" timestamp="2010-07-09T05:13:43Z" uid="74617" user="JohnSmith" changeset="5170986">
    <nd ref="316161102"/>
    <nd ref="312421636"/>
    <nd ref="312421648"/>
    <nd ref="312421637"/>
    <nd ref="312421638"/>
    <nd ref="312421639"/>
    <nd ref="312421640"/>
    <nd ref="312421641"/>
    <nd ref="312421642"/>
    <nd ref="312421643"/>
    <nd ref="312421644"/>
    <nd ref="312421645"/>
    <nd ref="312421646"/>
    <nd ref="312421647"/>
    <tag k="highway" v="residential"/>
    <tag k="lanes" v="2"/>
    <tag k="maxspeed" v="50"/>
    <tag k="maxspeed:source" v="default residential speed limit in Australia"/>
    <tag k="surface" v="paved"/>
  </way>
  <way id="28435740" version="8" timestamp="2012-01-17T17:52:31Z" uid="147510" user="woodpeck_fixbot" changeset="10417024">
    <nd ref="316161102"/>
    <nd ref="312421636"/>
    <nd ref="312421648"/>
    <nd ref="312421637"/>
    <nd ref="312421638"/>
    <nd ref="312421639"/>
    <nd ref="312421640"/>
    <nd ref="312421641"/>
    <nd ref="312421642"/>
    <nd ref="312421643"/>
    <nd ref="312421644"/>
    <nd ref="312421645"/>
    <nd ref="312421646"/>
    <nd ref="312421647"/>
    <tag k="highway" v="residential"/>
    <tag k="lanes" v="2"/>
    <tag k="surface" v="paved"/>
  </way>
  <way id="28435741" version="5" timestamp="2010-07-09T05:20:07Z" uid="74617" user="JohnSmith" changeset="5170986">
    <nd ref="312421648"/>
    <nd ref="312421649"/>
    <nd ref="312421645"/>
    <tag k="highway" v="residential"/>
    <tag k="lanes" v="2"/>
    <tag k="maxspeed" v="50"/>
    <tag k="maxspeed:source" v="default residential speed limit in Australia"/>
    <tag k="surface" v="paved"/>
  </way>
  <way id="28435741" version="6" timestamp="2012-01-17T17:52:36Z" uid="147510" user="woodpeck_fixbot" changeset="10417024">
    <nd ref="312421648"/>
    <nd ref="312421649"/>
    <nd ref="312421645"/>
    <tag k="highway" v="residential"/>
    <tag k="lanes" v="2"/>
    <tag k="surface" v="paved"/>
  </way>
  <way id="28435744" version="9" timestamp="2010-04-07T13:07:55Z" uid="20587" user="balrog-kun" changeset="4353646">
    <nd ref="147372105"/>
    <nd ref="147425130"/>
    <nd ref="147425134"/>
    <nd ref="147418149"/>
    <nd ref="147425137"/>
    <nd ref="340488518"/>
    <tag k="created_by" v="Potlatch 0.10f"/>
    <tag k="highway" v="tertiary"/>
    <tag k="name" v="Southeast 89th Street"/>
    <tag k="tiger:cfcc" v="A41"/>
    <tag k="tiger:county" v="Cleveland, OK; Oklahoma, OK"/>
    <tag k="tiger:name_base" v="89th"/>
    <tag k="tiger:name_direction_prefix" v="SE"/>
    <tag k="tiger:name_type" v="St"/>
    <tag k="tiger:reviewed" v="no"/>
    <tag k="tiger:separated" v="no"/>
    <tag k="tiger:source" v="tiger_import_dch_v0.6_20070829"/>
    <tag k="tiger:tlid" v="99908110:99921260:99916985:99921259:99920576:99907910:99907912:99916825:99921257:99921258:99920580:99903695:99905543; 99908110:99921260:99916985:99921259:99920576:99907910:99907912:99916825:99921257:99921258:99920580:99903695:99905543; 99908110:99921260:9"/>
    <tag k="tiger:zip_left" v="73135"/>
  </way>
  <way id="28435749" version="3" timestamp="2010-07-07T09:12:35Z" uid="74617" user="JohnSmith" changeset="5156250">
    <nd ref="312421755"/>
    <nd ref="312421753"/>
    <nd ref="303211385"/>
    <nd ref="303211384"/>
    <nd ref="303211418"/>
    <nd ref="303211383"/>
    <nd ref="303211424"/>
    <nd ref="303211382"/>
    <nd ref="303211425"/>
    <nd ref="303211381"/>
    <nd ref="303211380"/>
    <nd ref="303211379"/>
    <nd ref="303211412"/>
    <nd ref="303211378"/>
    <nd ref="312422202"/>
    <nd ref="312422205"/>
    <tag k="highway" v="residential"/>
    <tag k="maxspeed" v="50"/>
    <tag k="maxspeed:source" v="default residential speed limit in Australia"/>
    <tag k="name" v="Don Dunstan Drive"/>
  </way>
  <way id="28435749" version="4" timestamp="2012-01-17T17:52:42Z" uid="147510" user="woodpeck_fixbot" changeset="10417024">
    <nd ref="312421755"/>
    <nd ref="312421753"/>
    <nd ref="303211385"/>
    <nd ref="303211384"/>
    <nd ref="303211418"/>
    <nd ref="303211383"/>
    <nd ref="303211424"/>
    <nd ref="303211382"/>
    <nd ref="303211425"/>
    <nd ref="303211381"/>
    <nd ref="303211380"/>
    <nd ref="303211379"/>
    <nd ref="303211412"/>
    <nd ref="303211378"/>
    <nd ref="312422202"/>
    <nd ref="312422205"/>
    <tag k="highway" v="residential"/>
    <tag k="name" v="Don Dunstan Drive"/>
  </way>
  <way id="28435753" version="7" timestamp="2010-04-07T13:07:55Z" uid="20587" user="balrog-kun" changeset="4353646">
    <nd ref="147372105"/>
    <nd ref="340491372"/>
    <nd ref="147372102"/>
    <nd ref="147424016"/>
    <nd ref="340498042"/>
    <nd ref="147425120"/>
    <nd ref="299874733"/>
    <nd ref="147425117"/>
    <nd ref="312421893"/>
    <nd ref="312423443"/>
    <nd ref="147425113"/>
    <tag k="created_by" v="Potlatch 0.10f"/>
    <tag k="highway" v="secondary"/>
    <tag k="name" v="Southeast 89th Street"/>
    <tag k="oneway" v="yes"/>
    <tag k="tiger:cfcc" v="A41"/>
    <tag k="tiger:county" v="Oklahoma, OK"/>
    <tag k="tiger:name_base" v="89th"/>
    <tag k="tiger:name_direction_prefix" v="SE"/>
    <tag k="tiger:name_type" v="St"/>
    <tag k="tiger:reviewed" v="no"/>
    <tag k="tiger:separated" v="no"/>
    <tag k="tiger:source" v="tiger_import_dch_v0.6_20070829"/>
    <tag k="tiger:tlid" v="99908110:99921260:99916985:99921259:99920576:99907910:99907912:99916825:99921257:99921258:99920580:99903695:99905543"/>
    <tag k="tiger:zip_left" v="73135"/>
  </way>
  <way id="28435772" version="4" timestamp="2010-07-07T09:13:01Z" uid="74617" user="JohnSmith" changeset="5156250">
    <nd ref="312422207"/>
    <nd ref="312422204"/>
    <nd ref="303211377"/>
    <nd ref="303211405"/>
    <nd ref="303211376"/>
    <nd ref="289533719"/>
    <nd ref="571327228"/>
    <nd ref="312422927"/>
    <tag k="highway" v="residential"/>
    <tag k="maxspeed" v="50"/>
    <tag k="maxspeed:source" v="default residential speed limit in Australia"/>
    <tag k="name" v="Don Dunstan Drive"/>
  </way>
  <way id="28435772" version="5" timestamp="2012-01-17T17:53:02Z" uid="147510" user="woodpeck_fixbot" changeset="10417024">
    <nd ref="312422207"/>
    <nd ref="312422204"/>
    <nd ref="303211377"/>
    <nd ref="303211405"/>
    <nd ref="303211376"/>
    <nd ref="289533719"/>
    <nd ref="571327228"/>
    <nd ref="312422927"/>
    <tag k="highway" v="residential"/>
    <tag k="name" v="Don Dunstan Drive"/>
  </way>
  <way id="28435794" version="2" timestamp="2010-07-07T09:18:32Z" uid="74617" user="JohnSmith" changeset="5156250">
    <nd ref="312422310"/>
    <nd ref="303211408"/>
    <nd ref="303211409"/>
    <nd ref="303211410"/>
    <nd ref="303211411"/>
    <tag k="highway" v="residential"/>
    <tag k="maxspeed" v="50"/>
    <tag k="maxspeed:source" v="default residential speed limit in Australia"/>
    <tag k="name" v="Helpmann Street"/>
  </way>
  <way id="28435794" version="3" timestamp="2012-01-17T17:53:44Z" uid="147510" user="woodpeck_fixbot" changeset="10417024">
    <nd ref="312422310"/>
    <nd ref="303211408"/>
    <nd ref="303211409"/>
    <nd ref="303211410"/>
    <nd ref="303211411"/>
    <tag k="highway" v="residential"/>
    <tag k="name" v="Helpmann Street"/>
  </way>
  <way id="28435794" version="4" timestamp="2012-02-15T22:00:40Z" uid="12434" user="nm7s9" changeset="10697047">
    <nd ref="1634597748"/>
    <nd ref="303211408"/>
    <nd ref="303211409"/>
    <nd ref="303211410"/>
    <nd ref="303211411"/>
    <tag k="highway" v="residential"/>
    <tag k="name" v="Helpmann Street"/>
  </way>
  <way id="28435795" version="2" timestamp="2010-07-16T06:59:31Z" uid="4467" user="Rosscoe" changeset="5232480">
    <nd ref="312422308"/>
    <nd ref="820142121"/>
    <nd ref="312422309"/>
    <nd ref="820142616"/>
    <nd ref="312422310"/>
    <nd ref="820142599"/>
    <nd ref="312422311"/>
    <nd ref="820142124"/>
    <nd ref="312422308"/>
    <tag k="highway" v="unclassified"/>
    <tag k="junction" v="roundabout"/>
  </way>
  <way id="28435795" version="3" timestamp="2012-02-15T22:00:41Z" uid="12434" user="nm7s9" changeset="10697047"/>
  <way id="28435817" version="3" timestamp="2010-01-30T17:27:36Z" uid="9719" user="dvaey" changeset="3753022">
    <nd ref="312422724"/>
    <nd ref="571327239"/>
    <nd ref="54469291"/>
    <nd ref="303211411"/>
    <nd ref="54469302"/>
    <nd ref="54469308"/>
    <nd ref="273023874"/>
    <nd ref="273023852"/>
    <nd ref="54469316"/>
    <nd ref="303211397"/>
    <nd ref="54469324"/>
    <nd ref="54469332"/>
    <nd ref="153354166"/>
    <tag k="highway" v="tertiary"/>
    <tag k="name" v="Barr Smith Avenue"/>
  </way>
  <way id="28435818" version="4" timestamp="2010-02-01T04:19:49Z" uid="9719" user="dvaey" changeset="3764892">
    <nd ref="312422721"/>
    <nd ref="312422722"/>
    <nd ref="312422723"/>
    <nd ref="313284070"/>
    <nd ref="312422724"/>
    <nd ref="313284598"/>
    <nd ref="312422721"/>
    <tag k="highway" v="primary"/>
    <tag k="junction" v="roundabout"/>
  </way>
  <way id="28435818" version="5" timestamp="2010-07-16T06:59:15Z" uid="4467" user="Rosscoe" changeset="5232480">
    <nd ref="312422721"/>
    <nd ref="312422722"/>
    <nd ref="312422723"/>
    <nd ref="820142871"/>
    <nd ref="313284070"/>
    <nd ref="312422724"/>
    <nd ref="313284598"/>
    <nd ref="820142441"/>
    <nd ref="312422721"/>
    <tag k="highway" v="primary"/>
    <tag k="junction" v="roundabout"/>
  </way>
  <way id="28435818" version="6" timestamp="2012-02-22T20:56:29Z" uid="12434" user="nm7s9" changeset="10763229">
    <nd ref="312422721"/>
    <nd ref="1643473104"/>
    <nd ref="312422722"/>
    <nd ref="312422723"/>
    <nd ref="1643473106"/>
    <nd ref="1643473108"/>
    <nd ref="313284070"/>
    <nd ref="1643473123"/>
    <nd ref="312422724"/>
    <nd ref="1643473125"/>
    <nd ref="313284598"/>
    <nd ref="1643473112"/>
    <nd ref="1643473110"/>
    <nd ref="312422721"/>
    <tag k="highway" v="primary"/>
    <tag k="junction" v="roundabout"/>
  </way>
  <way id="28435833" version="12" timestamp="2010-07-09T05:12:31Z" uid="74617" user="JohnSmith" changeset="5170986">
    <nd ref="312421379"/>
    <nd ref="312422830"/>
    <nd ref="312422831"/>
    <nd ref="312422832"/>
    <nd ref="312422833"/>
    <nd ref="312422838"/>
    <nd ref="312422843"/>
    <nd ref="315734951"/>
    <nd ref="312422835"/>
    <nd ref="312427096"/>
    <nd ref="392229861"/>
    <tag k="highway" v="residential"/>
    <tag k="lanes" v="2"/>
    <tag k="maxspeed" v="50"/>
    <tag k="maxspeed:source" v="default residential speed limit in Australia"/>
    <tag k="name" v="Christowel Street"/>
    <tag k="surface" v="paved"/>
  </way>
  <way id="28435833" version="13" timestamp="2011-11-10T11:36:04Z" uid="201443" user="stevage" changeset="9788087">
    <nd ref="312421379"/>
    <nd ref="312422830"/>
    <nd ref="312422831"/>
    <nd ref="312422832"/>
    <nd ref="312422833"/>
    <nd ref="312422838"/>
    <nd ref="312422843"/>
    <nd ref="315734951"/>
    <nd ref="312422835"/>
    <nd ref="312427096"/>
    <nd ref="392229861"/>
    <tag k="highway" v="residential"/>
    <tag k="lanes" v="2"/>
    <tag k="lcn" v="yes"/>
    <tag k="maxspeed" v="50"/>
    <tag k="maxspeed:source" v="default residential speed limit in Australia"/>
    <tag k="name" v="Christowel Street"/>
    <tag k="surface" v="paved"/>
  </way>
  <way id="28435833" version="14" timestamp="2012-01-17T17:54:05Z" uid="147510" user="woodpeck_fixbot" changeset="10417024">
    <nd ref="312421379"/>
    <nd ref="312422830"/>
    <nd ref="312422831"/>
    <nd ref="312422832"/>
    <nd ref="312422833"/>
    <nd ref="312422838"/>
    <nd ref="312422843"/>
    <nd ref="315734951"/>
    <nd ref="312422835"/>
    <nd ref="312427096"/>
    <nd ref="392229861"/>
    <tag k="highway" v="residential"/>
    <tag k="lanes" v="2"/>
    <tag k="lcn" v="yes"/>
    <tag k="name" v="Christowel Street"/>
    <tag k="surface" v="paved"/>
  </way>
  <way id="28435837" version="10" timestamp="2010-07-09T05:13:51Z" uid="74617" user="JohnSmith" changeset="5170986">
    <nd ref="312422843"/>
    <nd ref="315734982"/>
    <nd ref="312422863"/>
    <nd ref="312421376"/>
    <nd ref="312427101"/>
    <nd ref="312427104"/>
    <tag k="highway" v="residential"/>
    <tag k="lanes" v="2"/>
    <tag k="maxspeed" v="50"/>
    <tag k="maxspeed:source" v="default residential speed limit in Australia"/>
    <tag k="name" v="Finsbury Way"/>
    <tag k="surface" v="paved"/>
  </way>
  <way id="28435837" version="11" timestamp="2012-01-17T17:54:14Z" uid="147510" user="woodpeck_fixbot" changeset="10417024">
    <nd ref="312422843"/>
    <nd ref="315734982"/>
    <nd ref="312422863"/>
    <nd ref="312421376"/>
    <nd ref="312427101"/>
    <nd ref="312427104"/>
    <tag k="highway" v="residential"/>
    <tag k="lanes" v="2"/>
    <tag k="name" v="Finsbury Way"/>
    <tag k="surface" v="paved"/>
  </way>
  <way id="28435844" version="4" timestamp="2010-07-09T05:18:25Z" uid="74617" user="JohnSmith" changeset="5170986">
    <nd ref="312422861"/>
    <nd ref="312422862"/>
    <nd ref="312422863"/>
    <tag k="highway" v="residential"/>
    <tag k="lanes" v="2"/>
    <tag k="maxspeed" v="50"/>
    <tag k="maxspeed:source" v="default residential speed limit in Australia"/>
    <tag k="name" v="Maple Crescent"/>
    <tag k="source" v="Yahoo"/>
    <tag k="source:name" v="Collins 1936"/>
    <tag k="surface" v="paved"/>
  </way>
  <way id="28435844" version="5" timestamp="2012-01-17T17:54:26Z" uid="147510" user="woodpeck_fixbot" changeset="10417024">
    <nd ref="312422861"/>
    <nd ref="312422862"/>
    <nd ref="312422863"/>
    <tag k="highway" v="residential"/>
    <tag k="lanes" v="2"/>
    <tag k="name" v="Maple Crescent"/>
    <tag k="source" v="Yahoo"/>
    <tag k="source:name" v="Collins 1936"/>
    <tag k="surface" v="paved"/>
  </way>
  <way id="28435846" version="6" timestamp="2009-12-30T16:02:11Z" uid="9719" user="dvaey" changeset="3491111">
    <nd ref="21540230"/>
    <nd ref="21540192"/>
    <nd ref="21540198"/>
    <nd ref="21540203"/>
    <nd ref="160527609"/>
    <nd ref="21540207"/>
    <nd ref="25297052"/>
    <nd ref="25297059"/>
    <nd ref="25297053"/>
    <nd ref="25297060"/>
    <nd ref="98786924"/>
    <tag k="highway" v="primary"/>
    <tag k="maxspeed" v="80"/>
    <tag k="name" v="Athllon Drive"/>
    <tag k="oneway" v="yes"/>
  </way>
  <way id="28435846" version="7" timestamp="2010-01-04T16:48:57Z" uid="9719" user="dvaey" changeset="3538599">
    <nd ref="21540230"/>
    <nd ref="21540192"/>
    <nd ref="21540198"/>
    <nd ref="604698284"/>
    <nd ref="604698284"/>
    <nd ref="604698284"/>
    <nd ref="604698284"/>
    <nd ref="604698284"/>
    <nd ref="604698284"/>
    <nd ref="21540203"/>
    <nd ref="160527609"/>
    <nd ref="21540207"/>
    <nd ref="25297052"/>
    <nd ref="25297059"/>
    <nd ref="25297053"/>
    <nd ref="25297060"/>
    <nd ref="98786924"/>
    <tag k="highway" v="primary"/>
    <tag k="maxspeed" v="80"/>
    <tag k="name" v="Athllon Drive"/>
    <tag k="oneway" v="yes"/>
  </way>
  <way id="28435846" version="8" timestamp="2010-01-20T03:37:40Z" uid="9719" user="dvaey" changeset="3663981">
    <nd ref="21540230"/>
    <nd ref="21540192"/>
    <nd ref="21540198"/>
    <nd ref="616943065"/>
    <nd ref="616943065"/>
    <nd ref="616943065"/>
    <nd ref="616943065"/>
    <nd ref="21540203"/>
    <nd ref="160527609"/>
    <nd ref="21540207"/>
    <nd ref="25297052"/>
    <nd ref="25297059"/>
    <nd ref="25297053"/>
    <nd ref="25297060"/>
    <nd ref="98786924"/>
    <tag k="highway" v="primary"/>
    <tag k="maxspeed" v="80"/>
    <tag k="name" v="Athllon Drive"/>
    <tag k="oneway" v="yes"/>
  </way>
  <way id="28435846" version="9" timestamp="2010-02-04T07:13:00Z" uid="70696" user="xybot" changeset="3788298">
    <nd ref="21540230"/>
    <nd ref="21540192"/>
    <nd ref="21540198"/>
    <nd ref="616943065"/>
    <nd ref="21540203"/>
    <nd ref="160527609"/>
    <nd ref="21540207"/>
    <nd ref="25297052"/>
    <nd ref="25297059"/>
    <nd ref="25297053"/>
    <nd ref="25297060"/>
    <nd ref="98786924"/>
    <tag k="highway" v="primary"/>
    <tag k="maxspeed" v="80"/>
    <tag k="name" v="Athllon Drive"/>
    <tag k="oneway" v="yes"/>
  </way>
  <way id="28435846" version="10" timestamp="2010-03-12T22:17:30Z" uid="79144" user="John H" changeset="4110072">
    <nd ref="21540230"/>
    <nd ref="664772126"/>
    <nd ref="21540192"/>
    <nd ref="664772116"/>
    <nd ref="21540198"/>
    <nd ref="664772111"/>
    <nd ref="21540203"/>
    <nd ref="160527609"/>
    <nd ref="664772105"/>
    <nd ref="21540207"/>
    <nd ref="25297052"/>
    <nd ref="25297059"/>
    <nd ref="25297053"/>
    <nd ref="25297060"/>
    <nd ref="98786924"/>
    <tag k="highway" v="primary"/>
    <tag k="maxspeed" v="80"/>
    <tag k="name" v="Athllon Drive"/>
    <tag k="oneway" v="yes"/>
  </way>
  <way id="28435846" version="11" timestamp="2010-03-13T01:54:08Z" uid="79144" user="John H" changeset="4111306">
    <nd ref="21540230"/>
    <nd ref="664772126"/>
    <nd ref="21540192"/>
    <nd ref="664772116"/>
    <nd ref="21540198"/>
    <nd ref="664772111"/>
    <nd ref="21540203"/>
    <nd ref="160527609"/>
    <nd ref="664772105"/>
    <nd ref="21540207"/>
    <nd ref="25297052"/>
    <nd ref="25297059"/>
    <nd ref="25297053"/>
    <nd ref="25297060"/>
    <nd ref="664964717"/>
    <nd ref="98786924"/>
    <tag k="highway" v="primary"/>
    <tag k="maxspeed" v="80"/>
    <tag k="name" v="Athllon Drive"/>
    <tag k="oneway" v="yes"/>
  </way>
  <way id="28435846" version="12" timestamp="2010-03-14T04:57:40Z" uid="1679" user="andrewpmk" changeset="4121060">
    <nd ref="21540230"/>
    <nd ref="664772126"/>
    <nd ref="21540192"/>
    <nd ref="664772116"/>
    <nd ref="21540198"/>
    <nd ref="664772111"/>
    <nd ref="21540203"/>
    <nd ref="665697233"/>
    <nd ref="160527609"/>
    <nd ref="664772105"/>
    <nd ref="21540207"/>
    <nd ref="25297052"/>
    <nd ref="25297059"/>
    <nd ref="25297053"/>
    <nd ref="25297060"/>
    <nd ref="664964717"/>
    <nd ref="98786924"/>
    <tag k="highway" v="primary"/>
    <tag k="maxspeed" v="80"/>
    <tag k="name" v="Athllon Drive"/>
    <tag k="oneway" v="yes"/>
  </way>
  <way id="28435846" version="13" timestamp="2010-09-12T10:47:30Z" uid="12434" user="nm7s9" changeset="5758029">
    <nd ref="21540230"/>
    <nd ref="664772126"/>
    <nd ref="21540192"/>
    <nd ref="664772116"/>
    <nd ref="907993850"/>
    <tag k="highway" v="primary"/>
    <tag k="maxspeed" v="80"/>
    <tag k="name" v="Athllon Drive"/>
    <tag k="oneway" v="yes"/>
  </way>
  <way id="28435846" version="14" timestamp="2011-04-18T03:05:10Z" uid="193306" user="kerrob" changeset="7893373">
    <nd ref="21540230"/>
    <nd ref="664772126"/>
    <nd ref="21540192"/>
    <nd ref="664772116"/>
    <nd ref="907993850"/>
    <tag k="cycleway" v="lane"/>
    <tag k="highway" v="primary"/>
    <tag k="maxspeed" v="80"/>
    <tag k="name" v="Athllon Drive"/>
    <tag k="oneway" v="yes"/>
  </way>
  <way id="28435856" version="6" timestamp="2010-07-09T05:14:12Z" uid="74617" user="JohnSmith" changeset="5170986">
    <nd ref="312422994"/>
    <nd ref="392229749"/>
    <tag k="highway" v="residential"/>
    <tag k="lanes" v="2"/>
    <tag k="maxspeed" v="50"/>
    <tag k="maxspeed:source" v="default residential speed limit in Australia"/>
    <tag k="name" v="Christowel Street"/>
    <tag k="surface" v="paved"/>
  </way>
  <way id="28435856" version="7" timestamp="2012-01-17T17:54:37Z" uid="147510" user="woodpeck_fixbot" changeset="10417024">
    <nd ref="312422994"/>
    <nd ref="392229749"/>
    <tag k="highway" v="residential"/>
    <tag k="lanes" v="2"/>
    <tag k="name" v="Christowel Street"/>
    <tag k="surface" v="paved"/>
  </way>
  <way id="28435858" version="7" timestamp="2010-07-09T05:18:45Z" uid="74617" user="JohnSmith" changeset="5170986">
    <nd ref="392229750"/>
    <nd ref="312423018"/>
    <nd ref="312423019"/>
    <nd ref="312423020"/>
    <nd ref="312423021"/>
    <nd ref="312423022"/>
    <tag k="highway" v="residential"/>
    <tag k="lanes" v="2"/>
    <tag k="maxspeed" v="50"/>
    <tag k="maxspeed:source" v="default residential speed limit in Australia"/>
    <tag k="name" v="Westbourne Grove"/>
    <tag k="surface" v="paved"/>
  </way>
  <way id="28435858" version="8" timestamp="2012-01-17T17:54:51Z" uid="147510" user="woodpeck_fixbot" changeset="10417024">
    <nd ref="392229750"/>
    <nd ref="312423018"/>
    <nd ref="312423019"/>
    <nd ref="312423020"/>
    <nd ref="312423021"/>
    <nd ref="312423022"/>
    <tag k="highway" v="residential"/>
    <tag k="lanes" v="2"/>
    <tag k="name" v="Westbourne Grove"/>
    <tag k="surface" v="paved"/>
  </way>
  <way id="28435860" version="1" timestamp="2008-11-16T04:34:43Z" uid="8807" user="brendanpuck" changeset="756646">
    <nd ref="312423004"/>
    <nd ref="243950655"/>
    <nd ref="243950656"/>
    <tag k="abutters" v="residential"/>
    <tag k="highway" v="residential"/>
    <tag k="name" v="Boundary Road"/>
    <tag k="source" v="survey"/>
  </way>
  <way id="28435860" version="2" timestamp="2010-01-19T04:43:39Z" uid="30201" user="rrankin" changeset="3656070">
    <nd ref="312423004"/>
    <nd ref="243950655"/>
    <nd ref="243950656"/>
    <tag k="highway" v="residential"/>
    <tag k="name" v="Boundary Road"/>
    <tag k="source" v="survey"/>
  </way>
  <way id="28435860" version="3" timestamp="2010-07-08T00:04:37Z" uid="74617" user="JohnSmith" changeset="5162525">
    <nd ref="312423004"/>
    <nd ref="243950655"/>
    <nd ref="243950656"/>
    <tag k="highway" v="residential"/>
    <tag k="maxspeed" v="50"/>
    <tag k="maxspeed:source" v="default residential speed limit in Australia"/>
    <tag k="name" v="Boundary Road"/>
    <tag k="source" v="survey"/>
  </way>
  <way id="28435860" version="4" timestamp="2010-07-08T00:15:15Z" uid="74617" user="JohnSmith" changeset="5162525">
    <nd ref="312423004"/>
    <nd ref="243950655"/>
    <nd ref="243950656"/>
    <tag k="highway" v="residential"/>
    <tag k="maxspeed" v="50"/>
    <tag k="maxspeed:source" v="default residential speed limit in Australia"/>
    <tag k="name" v="Boundary Road"/>
    <tag k="source" v="survey"/>
  </way>
  <way id="28435860" version="5" timestamp="2012-01-17T17:54:56Z" uid="147510" user="woodpeck_fixbot" changeset="10417024">
    <nd ref="312423004"/>
    <nd ref="243950655"/>
    <nd ref="243950656"/>
    <tag k="highway" v="residential"/>
    <tag k="name" v="Boundary Road"/>
    <tag k="source" v="survey"/>
  </way>
  <way id="28435862" version="1" timestamp="2008-11-16T04:34:44Z" uid="8807" user="brendanpuck" changeset="756646">
    <nd ref="312423005"/>
    <nd ref="202952005"/>
    <nd ref="202952029"/>
    <nd ref="202952060"/>
    <nd ref="202952075"/>
    <nd ref="202952103"/>
    <nd ref="202951840"/>
    <tag k="abutters" v="residential"/>
    <tag k="created_by" v="JOSM"/>
    <tag k="highway" v="residential"/>
    <tag k="name" v="Huon Street"/>
    <tag k="source" v="survey"/>
  </way>
  <way id="28435862" version="2" timestamp="2010-01-19T04:43:27Z" uid="30201" user="rrankin" changeset="3656070">
    <nd ref="312423005"/>
    <nd ref="202952005"/>
    <nd ref="202952029"/>
    <nd ref="202952060"/>
    <nd ref="202952075"/>
    <nd ref="202952103"/>
    <nd ref="202951840"/>
    <tag k="highway" v="residential"/>
    <tag k="name" v="Huon Street"/>
    <tag k="source" v="survey"/>
  </way>
  <way id="28435862" version="3" timestamp="2010-02-18T10:58:24Z" uid="7617" user="Franc" changeset="3907973">
    <nd ref="312423005"/>
    <nd ref="202952005"/>
    <nd ref="644629400"/>
    <nd ref="202952029"/>
    <nd ref="644629343"/>
    <nd ref="202952060"/>
    <nd ref="644629342"/>
    <nd ref="202952075"/>
    <nd ref="202952103"/>
    <nd ref="202951840"/>
    <tag k="highway" v="residential"/>
    <tag k="name" v="Huon Street"/>
    <tag k="source" v="survey"/>
  </way>
  <way id="28435862" version="4" timestamp="2010-07-08T00:02:21Z" uid="74617" user="JohnSmith" changeset="5162525">
    <nd ref="312423005"/>
    <nd ref="202952005"/>
    <nd ref="644629400"/>
    <nd ref="202952029"/>
    <nd ref="644629343"/>
    <nd ref="202952060"/>
    <nd ref="644629342"/>
    <nd ref="202952075"/>
    <nd ref="202952103"/>
    <nd ref="202951840"/>
    <tag k="highway" v="residential"/>
    <tag k="maxspeed" v="50"/>
    <tag k="maxspeed:source" v="default residential speed limit in Australia"/>
    <tag k="name" v="Huon Street"/>
    <tag k="source" v="survey"/>
  </way>
  <way id="28435862" version="5" timestamp="2010-07-08T00:12:34Z" uid="74617" user="JohnSmith" changeset="5162525">
    <nd ref="312423005"/>
    <nd ref="202952005"/>
    <nd ref="644629400"/>
    <nd ref="202952029"/>
    <nd ref="644629343"/>
    <nd ref="202952060"/>
    <nd ref="644629342"/>
    <nd ref="202952075"/>
    <nd ref="202952103"/>
    <nd ref="202951840"/>
    <tag k="highway" v="residential"/>
    <tag k="maxspeed" v="50"/>
    <tag k="maxspeed:source" v="default residential speed limit in Australia"/>
    <tag k="name" v="Huon Street"/>
    <tag k="source" v="survey"/>
  </way>
  <way id="28435862" version="6" timestamp="2012-01-17T17:55:05Z" uid="147510" user="woodpeck_fixbot" changeset="10417024">
    <nd ref="312423005"/>
    <nd ref="202952005"/>
    <nd ref="644629400"/>
    <nd ref="202952029"/>
    <nd ref="644629343"/>
    <nd ref="202952060"/>
    <nd ref="644629342"/>
    <nd ref="202952075"/>
    <nd ref="202952103"/>
    <nd ref="202951840"/>
    <tag k="highway" v="residential"/>
    <tag k="name" v="Huon Street"/>
    <tag k="source" v="survey"/>
  </way>
  <way id="28435863" version="1" timestamp="2008-11-16T04:34:45Z" uid="8807" user="brendanpuck" changeset="756646">
    <nd ref="202991234"/>
    <nd ref="202991237"/>
    <tag k="abutters" v="residential"/>
    <tag k="highway" v="residential"/>
    <tag k="name" v="Jacana Close"/>
    <tag k="source" v="survey"/>
  </way>
  <way id="28435863" version="2" timestamp="2008-11-16T04:56:08Z" uid="8807" user="brendanpuck" changeset="756646">
    <nd ref="202991234"/>
    <nd ref="202991237"/>
    <tag k="abutters" v="residential"/>
    <tag k="highway" v="residential"/>
    <tag k="name" v="Jacana Close"/>
    <tag k="source" v="survey"/>
  </way>
  <way id="28435863" version="3" timestamp="2009-09-01T06:12:15Z" uid="61114" user="Trav" changeset="2333653">
    <nd ref="202991234"/>
    <nd ref="410395123"/>
    <nd ref="202991237"/>
    <tag k="abutters" v="residential"/>
    <tag k="highway" v="residential"/>
    <tag k="name" v="Jacana Close"/>
    <tag k="source" v="survey"/>
  </way>
  <way id="28435863" version="4" timestamp="2010-01-19T04:43:41Z" uid="30201" user="rrankin" changeset="3656070">
    <nd ref="202991234"/>
    <nd ref="410395123"/>
    <nd ref="202991237"/>
    <tag k="highway" v="residential"/>
    <tag k="name" v="Jacana Close"/>
    <tag k="source" v="survey"/>
  </way>
  <way id="28435863" version="5" timestamp="2010-02-18T10:58:26Z" uid="7617" user="Franc" changeset="3907973">
    <nd ref="202991234"/>
    <nd ref="644629374"/>
    <nd ref="410395123"/>
    <nd ref="202991237"/>
    <tag k="highway" v="residential"/>
    <tag k="name" v="Jacana Close"/>
    <tag k="source" v="survey"/>
  </way>
  <way id="28435863" version="6" timestamp="2010-07-08T00:03:26Z" uid="74617" user="JohnSmith" changeset="5162525">
    <nd ref="202991234"/>
    <nd ref="644629374"/>
    <nd ref="410395123"/>
    <nd ref="202991237"/>
    <tag k="highway" v="residential"/>
    <tag k="maxspeed" v="50"/>
    <tag k="maxspeed:source" v="default residential speed limit in Australia"/>
    <tag k="name" v="Jacana Close"/>
    <tag k="source" v="survey"/>
  </way>
  <way id="28435863" version="7" timestamp="2010-07-08T00:13:43Z" uid="74617" user="JohnSmith" changeset="5162525">
    <nd ref="202991234"/>
    <nd ref="644629374"/>
    <nd ref="410395123"/>
    <nd ref="202991237"/>
    <tag k="highway" v="residential"/>
    <tag k="maxspeed" v="50"/>
    <tag k="maxspeed:source" v="default residential speed limit in Australia"/>
    <tag k="name" v="Jacana Close"/>
    <tag k="source" v="survey"/>
  </way>
  <way id="28435863" version="8" timestamp="2012-01-17T17:55:13Z" uid="147510" user="woodpeck_fixbot" changeset="10417024">
    <nd ref="202991234"/>
    <nd ref="644629374"/>
    <nd ref="410395123"/>
    <nd ref="202991237"/>
    <tag k="highway" v="residential"/>
    <tag k="name" v="Jacana Close"/>
    <tag k="source" v="survey"/>
  </way>
  <way id="28435864" version="1" timestamp="2008-11-16T04:34:47Z" uid="8807" user="brendanpuck" changeset="756646">
    <nd ref="312423012"/>
    <nd ref="202986956"/>
    <tag k="abutters" v="residential"/>
    <tag k="highway" v="residential"/>
    <tag k="name" v="Devon Street"/>
    <tag k="source" v="survey"/>
  </way>
  <way id="28435864" version="2" timestamp="2010-01-19T04:43:41Z" uid="30201" user="rrankin" changeset="3656070">
    <nd ref="312423012"/>
    <nd ref="202986956"/>
    <tag k="highway" v="residential"/>
    <tag k="name" v="Devon Street"/>
    <tag k="source" v="survey"/>
  </way>
  <way id="28435864" version="3" timestamp="2010-02-18T10:58:25Z" uid="7617" user="Franc" changeset="3907973">
    <nd ref="312423012"/>
    <nd ref="644629365"/>
    <nd ref="202986956"/>
    <tag k="highway" v="residential"/>
    <tag k="name" v="Devon Street"/>
    <tag k="source" v="survey"/>
  </way>
  <way id="28435864" version="4" timestamp="2010-07-08T00:03:42Z" uid="74617" user="JohnSmith" changeset="5162525">
    <nd ref="312423012"/>
    <nd ref="644629365"/>
    <nd ref="202986956"/>
    <tag k="highway" v="residential"/>
    <tag k="maxspeed" v="50"/>
    <tag k="maxspeed:source" v="default residential speed limit in Australia"/>
    <tag k="name" v="Devon Street"/>
    <tag k="source" v="survey"/>
  </way>
  <way id="28435864" version="5" timestamp="2010-07-08T00:14:01Z" uid="74617" user="JohnSmith" changeset="5162525">
    <nd ref="312423012"/>
    <nd ref="644629365"/>
    <nd ref="202986956"/>
    <tag k="highway" v="residential"/>
    <tag k="maxspeed" v="50"/>
    <tag k="maxspeed:source" v="default residential speed limit in Australia"/>
    <tag k="name" v="Devon Street"/>
    <tag k="source" v="survey"/>
  </way>
  <way id="28435864" version="6" timestamp="2012-01-17T17:55:24Z" uid="147510" user="woodpeck_fixbot" changeset="10417024">
    <nd ref="312423012"/>
    <nd ref="644629365"/>
    <nd ref="202986956"/>
    <tag k="highway" v="residential"/>
    <tag k="name" v="Devon Street"/>
    <tag k="source" v="survey"/>
  </way>
  <way id="28435865" version="1" timestamp="2008-11-16T04:34:47Z" uid="8807" user="brendanpuck" changeset="756646">
    <nd ref="312423016"/>
    <nd ref="312423023"/>
    <tag k="abutters" v="residential"/>
    <tag k="highway" v="residential"/>
    <tag k="name" v="Maranoa Place"/>
    <tag k="source" v="survey"/>
  </way>
  <way id="28435865" version="2" timestamp="2010-01-19T04:43:41Z" uid="30201" user="rrankin" changeset="3656070">
    <nd ref="312423016"/>
    <nd ref="312423023"/>
    <tag k="highway" v="residential"/>
    <tag k="name" v="Maranoa Place"/>
    <tag k="source" v="survey"/>
  </way>
  <way id="28435865" version="3" timestamp="2010-07-08T00:04:54Z" uid="74617" user="JohnSmith" changeset="5162525">
    <nd ref="312423016"/>
    <nd ref="312423023"/>
    <tag k="highway" v="residential"/>
    <tag k="maxspeed" v="50"/>
    <tag k="maxspeed:source" v="default residential speed limit in Australia"/>
    <tag k="name" v="Maranoa Place"/>
    <tag k="source" v="survey"/>
  </way>
  <way id="28435865" version="4" timestamp="2010-07-08T00:15:44Z" uid="74617" user="JohnSmith" changeset="5162525">
    <nd ref="312423016"/>
    <nd ref="312423023"/>
    <tag k="highway" v="residential"/>
    <tag k="maxspeed" v="50"/>
    <tag k="maxspeed:source" v="default residential speed limit in Australia"/>
    <tag k="name" v="Maranoa Place"/>
    <tag k="source" v="survey"/>
  </way>
  <way id="28435865" version="5" timestamp="2012-01-17T17:55:29Z" uid="147510" user="woodpeck_fixbot" changeset="10417024">
    <nd ref="312423016"/>
    <nd ref="312423023"/>
    <tag k="highway" v="residential"/>
    <tag k="name" v="Maranoa Place"/>
    <tag k="source" v="survey"/>
  </way>
  <way id="28435866" version="1" timestamp="2008-11-16T04:34:48Z" uid="8807" user="brendanpuck" changeset="756646">
    <nd ref="243950535"/>
    <nd ref="243950536"/>
    <tag k="abutters" v="residential"/>
    <tag k="highway" v="residential"/>
    <tag k="name" v="Broula Road"/>
  </way>
  <way id="28435866" version="2" timestamp="2010-01-19T04:43:40Z" uid="30201" user="rrankin" changeset="3656070">
    <nd ref="243950535"/>
    <nd ref="243950536"/>
    <tag k="highway" v="residential"/>
    <tag k="name" v="Broula Road"/>
  </way>
  <way id="28435866" version="3" timestamp="2010-07-08T00:01:28Z" uid="74617" user="JohnSmith" changeset="5162525">
    <nd ref="243950535"/>
    <nd ref="243950536"/>
    <tag k="highway" v="residential"/>
    <tag k="maxspeed" v="50"/>
    <tag k="maxspeed:source" v="default residential speed limit in Australia"/>
    <tag k="name" v="Broula Road"/>
  </way>
  <way id="28435866" version="4" timestamp="2010-07-08T00:11:36Z" uid="74617" user="JohnSmith" changeset="5162525">
    <nd ref="243950535"/>
    <nd ref="243950536"/>
    <tag k="highway" v="residential"/>
    <tag k="maxspeed" v="50"/>
    <tag k="maxspeed:source" v="default residential speed limit in Australia"/>
    <tag k="name" v="Broula Road"/>
  </way>
  <way id="28435866" version="5" timestamp="2012-01-17T17:55:36Z" uid="147510" user="woodpeck_fixbot" changeset="10417024">
    <nd ref="243950535"/>
    <nd ref="243950536"/>
    <tag k="highway" v="residential"/>
    <tag k="name" v="Broula Road"/>
  </way>
  <way id="28435867" version="1" timestamp="2008-11-16T04:34:49Z" uid="8807" user="brendanpuck" changeset="756646">
    <nd ref="202986943"/>
    <nd ref="312423026"/>
    <tag k="abutters" v="residential"/>
    <tag k="highway" v="residential"/>
    <tag k="name" v="Azalea Gardens"/>
    <tag k="source" v="survey"/>
  </way>
  <way id="28435867" version="2" timestamp="2010-01-19T04:43:40Z" uid="30201" user="rrankin" changeset="3656070">
    <nd ref="202986943"/>
    <nd ref="312423026"/>
    <tag k="highway" v="residential"/>
    <tag k="name" v="Azalea Gardens"/>
    <tag k="source" v="survey"/>
  </way>
  <way id="28435867" version="3" timestamp="2010-02-18T10:58:25Z" uid="7617" user="Franc" changeset="3907973">
    <nd ref="202986943"/>
    <nd ref="644629349"/>
    <nd ref="312423026"/>
    <tag k="highway" v="residential"/>
    <tag k="name" v="Azalea Gardens"/>
    <tag k="source" v="survey"/>
  </way>
  <way id="28435867" version="4" timestamp="2010-07-08T00:02:42Z" uid="74617" user="JohnSmith" changeset="5162525">
    <nd ref="202986943"/>
    <nd ref="644629349"/>
    <nd ref="312423026"/>
    <tag k="highway" v="residential"/>
    <tag k="maxspeed" v="50"/>
    <tag k="maxspeed:source" v="default residential speed limit in Australia"/>
    <tag k="name" v="Azalea Gardens"/>
    <tag k="source" v="survey"/>
  </way>
  <way id="28435867" version="5" timestamp="2010-07-08T00:12:55Z" uid="74617" user="JohnSmith" changeset="5162525">
    <nd ref="202986943"/>
    <nd ref="644629349"/>
    <nd ref="312423026"/>
    <tag k="highway" v="residential"/>
    <tag k="maxspeed" v="50"/>
    <tag k="maxspeed:source" v="default residential speed limit in Australia"/>
    <tag k="name" v="Azalea Gardens"/>
    <tag k="source" v="survey"/>
  </way>
  <way id="28435867" version="6" timestamp="2012-01-17T17:55:39Z" uid="147510" user="woodpeck_fixbot" changeset="10417024">
    <nd ref="202986943"/>
    <nd ref="644629349"/>
    <nd ref="312423026"/>
    <tag k="highway" v="residential"/>
    <tag k="name" v="Azalea Gardens"/>
    <tag k="source" v="survey"/>
  </way>
  <way id="28435868" version="1" timestamp="2008-11-16T04:34:50Z" uid="8807" user="brendanpuck" changeset="756646">
    <nd ref="312423027"/>
    <nd ref="202986948"/>
    <tag k="abutters" v="residential"/>
    <tag k="highway" v="residential"/>
    <tag k="name" v="Bunyana Avenue"/>
    <tag k="source" v="survey"/>
  </way>
  <way id="28435868" version="2" timestamp="2010-01-19T04:43:40Z" uid="30201" user="rrankin" changeset="3656070">
    <nd ref="312423027"/>
    <nd ref="202986948"/>
    <tag k="highway" v="residential"/>
    <tag k="name" v="Bunyana Avenue"/>
    <tag k="source" v="survey"/>
  </way>
  <way id="28435868" version="3" timestamp="2010-02-18T10:58:25Z" uid="7617" user="Franc" changeset="3907973">
    <nd ref="312423027"/>
    <nd ref="644629360"/>
    <nd ref="644629359"/>
    <nd ref="202986948"/>
    <tag k="highway" v="residential"/>
    <tag k="name" v="Bunyana Avenue"/>
    <tag k="source" v="survey"/>
  </way>
  <way id="28435868" version="4" timestamp="2010-07-08T00:02:59Z" uid="74617" user="JohnSmith" changeset="5162525">
    <nd ref="312423027"/>
    <nd ref="644629360"/>
    <nd ref="644629359"/>
    <nd ref="202986948"/>
    <tag k="highway" v="residential"/>
    <tag k="maxspeed" v="50"/>
    <tag k="maxspeed:source" v="default residential speed limit in Australia"/>
    <tag k="name" v="Bunyana Avenue"/>
    <tag k="source" v="survey"/>
  </way>
  <way id="28435868" version="5" timestamp="2010-07-08T00:13:13Z" uid="74617" user="JohnSmith" changeset="5162525">
    <nd ref="312423027"/>
    <nd ref="644629360"/>
    <nd ref="644629359"/>
    <nd ref="202986948"/>
    <tag k="highway" v="residential"/>
    <tag k="maxspeed" v="50"/>
    <tag k="maxspeed:source" v="default residential speed limit in Australia"/>
    <tag k="name" v="Bunyana Avenue"/>
    <tag k="source" v="survey"/>
  </way>
  <way id="28435868" version="6" timestamp="2012-01-17T17:55:47Z" uid="147510" user="woodpeck_fixbot" changeset="10417024">
    <nd ref="312423027"/>
    <nd ref="644629360"/>
    <nd ref="644629359"/>
    <nd ref="202986948"/>
    <tag k="highway" v="residential"/>
    <tag k="name" v="Bunyana Avenue"/>
    <tag k="source" v="survey"/>
  </way>
  <way id="28435884" version="20" timestamp="2010-04-07T13:07:56Z" uid="20587" user="balrog-kun" changeset="4353646">
    <nd ref="145161389"/>
    <nd ref="312423443"/>
    <nd ref="312423444"/>
    <nd ref="312423785"/>
    <nd ref="312423784"/>
    <nd ref="312423783"/>
    <nd ref="312423782"/>
    <nd ref="312423813"/>
    <nd ref="312423982"/>
    <nd ref="312423981"/>
    <nd ref="312423980"/>
    <nd ref="312423979"/>
    <nd ref="312423978"/>
    <nd ref="312424287"/>
    <nd ref="312424286"/>
    <nd ref="312424290"/>
    <nd ref="312424316"/>
    <nd ref="312423977"/>
    <nd ref="312424785"/>
    <nd ref="312424781"/>
    <nd ref="312424761"/>
    <nd ref="312424751"/>
    <nd ref="312424707"/>
    <nd ref="312424629"/>
    <nd ref="147438924"/>
    <tag k="created_by" v="Potlatch 0.10f"/>
    <tag k="highway" v="secondary"/>
    <tag k="name" v="South Santa Fe Avenue"/>
    <tag k="oneway" v="yes"/>
    <tag k="tiger:cfcc" v="A41"/>
    <tag k="tiger:county" v="Oklahoma, OK"/>
    <tag k="tiger:name_base" v="Santa Fe"/>
    <tag k="tiger:name_direction_prefix" v="S"/>
    <tag k="tiger:name_type" v="Ave"/>
    <tag k="tiger:reviewed" v="no"/>
    <tag k="tiger:separated" v="no"/>
    <tag k="tiger:source" v="tiger_import_dch_v0.6_20070829"/>
    <tag k="tiger:tlid" v="100407108:100407109:100428888:100407110:100407111:100407112:100407070:100407071:100407093:100407094:100407095:100407097:100450024:100407039:100407034:100407035:100407037:100448240:100407055:100407057:100407058:100407062:100407063"/>
    <tag k="tiger:zip_left" v="73139"/>
    <tag k="tiger:zip_right" v="73139"/>
  </way>
  <way id="28435898" version="3" timestamp="2010-04-07T13:07:56Z" uid="20587" user="balrog-kun" changeset="4353646">
    <nd ref="149104284"/>
    <nd ref="149444583"/>
    <nd ref="149444585"/>
    <nd ref="149237785"/>
    <nd ref="149147888"/>
    <tag k="created_by" v="Potlatch 0.10f"/>
    <tag k="highway" v="residential"/>
    <tag k="name" v="South Main Street"/>
    <tag k="tiger:cfcc" v="A41"/>
    <tag k="tiger:county" v="Bell, TX"/>
    <tag k="tiger:name_base" v="Main"/>
    <tag k="tiger:name_direction_prefix" v="S"/>
    <tag k="tiger:name_type" v="St"/>
    <tag k="tiger:reviewed" v="no"/>
    <tag k="tiger:separated" v="no"/>
    <tag k="tiger:source" v="tiger_import_dch_v0.6_20070829"/>
    <tag k="tiger:tlid" v="146227435:146145462"/>
  </way>
  <way id="28435898" version="4" timestamp="2011-07-24T19:10:50Z" uid="6424" user="Lambertus" changeset="8820043">
    <nd ref="149237785"/>
    <nd ref="149444585"/>
    <nd ref="149444583"/>
    <nd ref="149104284"/>
    <tag k="highway" v="residential"/>
    <tag k="name" v="South Main Street"/>
    <tag k="oneway" v="yes"/>
    <tag k="tiger:cfcc" v="A41"/>
    <tag k="tiger:county" v="Bell, TX"/>
    <tag k="tiger:name_base" v="Main"/>
    <tag k="tiger:name_direction_prefix" v="S"/>
    <tag k="tiger:name_type" v="St"/>
    <tag k="tiger:reviewed" v="no"/>
    <tag k="tiger:separated" v="no"/>
    <tag k="tiger:source" v="tiger_import_dch_v0.6_20070829"/>
    <tag k="tiger:tlid" v="146227435:146145462"/>
  </way>
  <way id="28435931" version="1" timestamp="2008-11-16T04:44:27Z" uid="18775" user="drlizau" changeset="754437">
    <nd ref="312423933"/>
    <nd ref="312423935"/>
    <nd ref="312423936"/>
    <nd ref="312423937"/>
    <tag k="highway" v="footway"/>
  </way>
  <way id="28435931" version="2" timestamp="2008-11-16T11:11:04Z" uid="18775" user="drlizau" changeset="756879">
    <nd ref="312423933"/>
    <nd ref="312423935"/>
    <nd ref="312423936"/>
    <nd ref="312423937"/>
    <tag k="highway" v="footway"/>
  </way>
  <way id="28435935" version="5" timestamp="2010-04-07T13:07:57Z" uid="20587" user="balrog-kun" changeset="4353646">
    <nd ref="149112509"/>
    <nd ref="149168926"/>
    <nd ref="149238104"/>
    <nd ref="149238107"/>
    <nd ref="149238113"/>
    <nd ref="149238117"/>
    <nd ref="149238119"/>
    <nd ref="149238121"/>
    <nd ref="149238123"/>
    <nd ref="149238126"/>
    <nd ref="149086832"/>
    <nd ref="149086835"/>
    <nd ref="149133995"/>
    <nd ref="312423992"/>
    <nd ref="149238284"/>
    <nd ref="149161476"/>
    <nd ref="149161352"/>
    <nd ref="149238286"/>
    <tag k="created_by" v="Potlatch 0.10f"/>
    <tag k="highway" v="unclassified"/>
    <tag k="name" v="Frontage Road"/>
    <tag k="name_1" v="Interstate Highway  35 Service Road"/>
    <tag k="note" v="frontage"/>
    <tag k="tiger:cfcc" v="A64; A41; A41"/>
    <tag k="tiger:county" v="Bell, TX"/>
    <tag k="tiger:name_base" v="Frontage"/>
    <tag k="tiger:name_base_1" v="I- 35 Service Road"/>
    <tag k="tiger:name_type" v="Rd"/>
    <tag k="tiger:reviewed" v="no"/>
    <tag k="tiger:separated" v="no"/>
    <tag k="tiger:source" v="tiger_import_dch_v0.6_20070829"/>
    <tag k="tiger:tlid" v="146145982:146145993:146146146:146144975; 146145977; 146155557:146194627:146146149:146192406:146145623"/>
  </way>
  <way id="28435935" version="6" timestamp="2011-07-24T20:51:51Z" uid="6424" user="Lambertus" changeset="8821199">
    <nd ref="149238286"/>
    <nd ref="149161476"/>
    <nd ref="1373050673"/>
    <nd ref="312423992"/>
    <nd ref="149133995"/>
    <nd ref="149086832"/>
    <nd ref="149238123"/>
    <tag k="highway" v="unclassified"/>
    <tag k="name" v="Frontage Road"/>
    <tag k="name_1" v="Interstate Highway  35 Service Road"/>
    <tag k="note" v="frontage"/>
    <tag k="oneway" v="yes"/>
    <tag k="tiger:cfcc" v="A64; A41; A41"/>
    <tag k="tiger:county" v="Bell, TX"/>
    <tag k="tiger:name_base" v="Frontage"/>
    <tag k="tiger:name_base_1" v="I- 35 Service Road"/>
    <tag k="tiger:name_type" v="Rd"/>
    <tag k="tiger:reviewed" v="no"/>
    <tag k="tiger:separated" v="no"/>
    <tag k="tiger:source" v="tiger_import_dch_v0.6_20070829"/>
    <tag k="tiger:tlid" v="146145982:146145993:146146146:146144975; 146145977; 146155557:146194627:146146149:146192406:146145623"/>
  </way>
  <way id="28435935" version="7" timestamp="2011-10-22T20:25:29Z" uid="332709" user="moosejaw" changeset="9627634">
    <nd ref="149238286"/>
    <nd ref="149161476"/>
    <nd ref="1373050673"/>
    <nd ref="312423992"/>
    <nd ref="149238283"/>
    <nd ref="149086832"/>
    <nd ref="149238123"/>
    <tag k="highway" v="unclassified"/>
    <tag k="name" v="Frontage Road"/>
    <tag k="name_1" v="Interstate Highway  35 Service Road"/>
    <tag k="note" v="frontage"/>
    <tag k="oneway" v="yes"/>
    <tag k="tiger:cfcc" v="A64; A41; A41"/>
    <tag k="tiger:county" v="Bell, TX"/>
    <tag k="tiger:name_base" v="Frontage"/>
    <tag k="tiger:name_base_1" v="I- 35 Service Road"/>
    <tag k="tiger:name_type" v="Rd"/>
    <tag k="tiger:reviewed" v="no"/>
    <tag k="tiger:separated" v="no"/>
    <tag k="tiger:source" v="tiger_import_dch_v0.6_20070829"/>
    <tag k="tiger:tlid" v="146145982:146145993:146146146:146144975; 146145977; 146155557:146194627:146146149:146192406:146145623"/>
  </way>
  <way id="28435937" version="4" timestamp="2010-04-07T13:07:57Z" uid="20587" user="balrog-kun" changeset="4353646">
    <nd ref="312424132"/>
    <nd ref="147514745"/>
    <nd ref="147514748"/>
    <nd ref="312423981"/>
    <nd ref="147450106"/>
    <nd ref="312423991"/>
    <nd ref="299593744"/>
    <tag k="created_by" v="Potlatch 0.10f"/>
    <tag k="highway" v="tertiary"/>
    <tag k="name" v="Southeast 78th Circle"/>
    <tag k="tiger:cfcc" v="A41"/>
    <tag k="tiger:county" v="Oklahoma, OK"/>
    <tag k="tiger:name_base" v="78th"/>
    <tag k="tiger:name_direction_prefix" v="SE"/>
    <tag k="tiger:name_type" v="Cir"/>
    <tag k="tiger:reviewed" v="no"/>
    <tag k="tiger:separated" v="no"/>
    <tag k="tiger:source" v="tiger_import_dch_v0.6_20070829"/>
    <tag k="tiger:tlid" v="100407101:100422370:100407096"/>
    <tag k="tiger:zip_left" v="73149"/>
    <tag k="tiger:zip_right" v="73149"/>
  </way>
  <way id="28435938" version="4" timestamp="2010-04-07T13:07:57Z" uid="20587" user="balrog-kun" changeset="4353646">
    <nd ref="312424209"/>
    <nd ref="147514743"/>
    <nd ref="147514741"/>
    <nd ref="147464012"/>
    <tag k="created_by" v="Potlatch 0.10f"/>
    <tag k="highway" v="residential"/>
    <tag k="name" v="Southeast 77th Terrace"/>
    <tag k="tiger:cfcc" v="A41"/>
    <tag k="tiger:county" v="Oklahoma, OK"/>
    <tag k="tiger:name_base" v="77th"/>
    <tag k="tiger:name_direction_prefix" v="SE"/>
    <tag k="tiger:name_type" v="Ter"/>
    <tag k="tiger:reviewed" v="no"/>
    <tag k="tiger:separated" v="no"/>
    <tag k="tiger:source" v="tiger_import_dch_v0.6_20070829"/>
    <tag k="tiger:tlid" v="100423542; 100407101:100422370:100407096"/>
    <tag k="tiger:zip_left" v="73149"/>
    <tag k="tiger:zip_right" v="73149"/>
  </way>
  <way id="28435954" version="1" timestamp="2008-11-16T04:53:46Z" uid="18775" user="drlizau" changeset="754437">
    <nd ref="312424350"/>
    <nd ref="312424349"/>
    <tag k="highway" v="track"/>
    <tag k="name" v="Noorla Lane"/>
    <tag k="source" v="survey"/>
  </way>
  <way id="28435954" version="2" timestamp="2008-11-16T11:11:06Z" uid="18775" user="drlizau" changeset="756879">
    <nd ref="312424350"/>
    <nd ref="312424349"/>
    <tag k="highway" v="track"/>
    <tag k="name" v="Noorla Lane"/>
  </way>
  <way id="28435954" version="3" timestamp="2008-11-16T11:38:13Z" uid="18775" user="drlizau" changeset="756879">
    <nd ref="312424350"/>
    <nd ref="312424349"/>
    <tag k="highway" v="track"/>
    <tag k="name" v="Noorla Lane"/>
    <tag k="source" v="survey"/>
  </way>
  <way id="28435959" version="1" timestamp="2008-11-16T04:55:28Z" uid="18775" user="drlizau" changeset="754437">
    <nd ref="247735683"/>
    <nd ref="247735626"/>
    <nd ref="247735684"/>
    <tag k="created_by" v="JOSM"/>
    <tag k="highway" v="residential"/>
    <tag k="name" v="Bowditch Place"/>
  </way>
  <way id="28435959" version="2" timestamp="2008-11-16T11:11:07Z" uid="18775" user="drlizau" changeset="756879">
    <nd ref="247735683"/>
    <nd ref="247735626"/>
    <nd ref="247735684"/>
    <tag k="created_by" v="JOSM"/>
    <tag k="highway" v="residential"/>
    <tag k="name" v="Bowditch Place"/>
  </way>
  <way id="28435959" version="3" timestamp="2008-11-16T11:38:15Z" uid="18775" user="drlizau" changeset="756879">
    <nd ref="247735683"/>
    <nd ref="247735626"/>
    <nd ref="247735684"/>
    <tag k="created_by" v="JOSM"/>
    <tag k="highway" v="residential"/>
    <tag k="name" v="Bowditch Place"/>
    <tag k="source" v="survey"/>
  </way>
  <way id="28435959" version="4" timestamp="2010-07-07T08:12:09Z" uid="74617" user="JohnSmith" changeset="5156250">
    <nd ref="247735683"/>
    <nd ref="247735626"/>
    <nd ref="247735684"/>
    <tag k="highway" v="residential"/>
    <tag k="maxspeed" v="50"/>
    <tag k="maxspeed:source" v="default residential speed limit in Australia"/>
    <tag k="name" v="Bowditch Place"/>
    <tag k="source" v="survey"/>
  </way>
  <way id="28435959" version="5" timestamp="2010-12-20T12:30:10Z" uid="19626" user="Swamp" changeset="6715499">
    <nd ref="247735683"/>
    <nd ref="247735626"/>
    <nd ref="247735684"/>
    <tag k="highway" v="residential"/>
    <tag k="maxspeed" v="50"/>
    <tag k="name" v="Bowditch Place"/>
    <tag k="source" v="survey"/>
  </way>
  <way id="28435959" version="6" timestamp="2012-01-17T17:55:57Z" uid="147510" user="woodpeck_fixbot" changeset="10417024">
    <nd ref="247735683"/>
    <nd ref="247735626"/>
    <nd ref="247735684"/>
    <tag k="highway" v="residential"/>
    <tag k="name" v="Bowditch Place"/>
    <tag k="source" v="survey"/>
  </way>
  <way id="28435984" version="1" timestamp="2008-11-16T04:55:53Z" uid="8807" user="brendanpuck" changeset="756646">
    <nd ref="312424743"/>
    <nd ref="312424746"/>
    <nd ref="312424749"/>
    <nd ref="312424753"/>
    <nd ref="312424743"/>
    <tag k="leisure" v="park"/>
  </way>
  <way id="28435984" version="2" timestamp="2010-02-18T10:58:24Z" uid="7617" user="Franc" changeset="3907973">
    <nd ref="312424743"/>
    <nd ref="312424746"/>
    <nd ref="312424749"/>
    <nd ref="644629338"/>
    <nd ref="312424743"/>
    <tag k="leisure" v="park"/>
  </way>
  <way id="28435987" version="1" timestamp="2008-11-16T04:55:54Z" uid="8807" user="brendanpuck" changeset="756646">
    <nd ref="312424759"/>
    <nd ref="312424763"/>
    <nd ref="312424767"/>
    <nd ref="312424769"/>
    <nd ref="312424759"/>
    <tag k="leisure" v="park"/>
    <tag k="name" v="Claude Cameron Grove"/>
  </way>
  <way id="28435990" version="1" timestamp="2008-11-16T04:55:55Z" uid="8807" user="brendanpuck" changeset="756646">
    <nd ref="312424772"/>
    <nd ref="312424773"/>
    <tag k="highway" v="service"/>
  </way>
  <way id="28435993" version="1" timestamp="2008-11-16T04:55:55Z" uid="8807" user="brendanpuck" changeset="756646">
    <nd ref="312424774"/>
    <nd ref="312424784"/>
    <nd ref="312424775"/>
    <nd ref="312424776"/>
    <nd ref="312424782"/>
    <nd ref="312424780"/>
    <nd ref="312424778"/>
    <nd ref="312424774"/>
    <tag k="amenity" v="parking"/>
    <tag k="name" v="East Wahroonga Shops"/>
  </way>
  <way id="28435993" version="2" timestamp="2011-03-26T10:04:08Z" uid="32394" user="AntBurnett" changeset="7673684">
    <nd ref="312424774"/>
    <nd ref="1218750416"/>
    <nd ref="312424784"/>
    <nd ref="312424775"/>
    <nd ref="312424776"/>
    <nd ref="312424782"/>
    <nd ref="312424780"/>
    <nd ref="312424778"/>
    <nd ref="1218750418"/>
    <nd ref="312424774"/>
    <tag k="amenity" v="parking"/>
    <tag k="name" v="East Wahroonga Shops"/>
  </way>
  <way id="28435996" version="1" timestamp="2008-11-16T04:55:56Z" uid="8807" user="brendanpuck" changeset="756646">
    <nd ref="312424779"/>
    <nd ref="312424780"/>
    <tag k="highway" v="service"/>
    <tag k="oneway" v="yes"/>
  </way>
  <way id="28435998" version="1" timestamp="2008-11-16T04:55:57Z" uid="8807" user="brendanpuck" changeset="756646">
    <nd ref="312424782"/>
    <nd ref="312424783"/>
    <tag k="highway" v="service"/>
    <tag k="oneway" v="yes"/>
  </way>
</osm>
