<?xml version='1.0' encoding='UTF-8'?>
<osm version="0.6" generator="libosmium/2.20.0">
  <way id="2859034" version="1" timestamp="2007-06-25T11:08:18Z" uid="7617" user="Franc" changeset="112541">
    <nd ref="13104632"/>
    <nd ref="13104627"/>
    <tag k="created_by" v="JOSM"/>
    <tag k="highway" v="service"/>
    <tag k="name" v="Allum Place"/>
    <tag k="note" v="FCC: check name, might have got it wrong"/>
  </way>
  <way id="2859034" version="2" timestamp="2007-11-18T01:27:52Z" uid="7617" user="Franc" changeset="549278">
    <nd ref="13104632"/>
    <nd ref="13104627"/>
    <tag k="created_by" v="JOSM"/>
    <tag k="highway" v="service"/>
    <tag k="name" v="Allum Place"/>
    <tag k="note" v="FCC: check name, might have got it wrong"/>
    <tag k="oneway" v="yes"/>
  </way>
  <way id="2859034" version="3" timestamp="2008-02-24T05:24:10Z" uid="7617" user="Franc" changeset="189648">
    <nd ref="13104632"/>
    <nd ref="249037468"/>
    <nd ref="13104627"/>
    <tag k="created_by" v="JOSM"/>
    <tag k="highway" v="service"/>
    <tag k="name" v="Allum Place"/>
    <tag k="note" v="FCC: check name, might have got it wrong"/>
    <tag k="oneway" v="yes"/>
  </way>
  <way id="2859034" version="4" timestamp="2008-08-14T04:41:07Z" uid="7617" user="Franc" changeset="236698">
    <nd ref="13104632"/>
    <nd ref="249037468"/>
    <nd ref="13104627"/>
    <tag k="created_by" v="JOSM"/>
    <tag k="highway" v="service"/>
    <tag k="name" v="Allum Place"/>
    <tag k="oneway" v="yes"/>
  </way>
  <way id="2859034" version="5" timestamp="2009-11-14T12:12:30Z" uid="117890" user="Jonathan Trott" changeset="3112508">
    <nd ref="13104632"/>
    <nd ref="249037468"/>
    <nd ref="13104627"/>
    <tag k="highway" v="service"/>
    <tag k="name" v="Allum Place"/>
    <tag k="oneway" v="yes"/>
  </way>
  <way id="2859035" version="1" timestamp="2007-06-25T09:13:48Z" uid="7617" user="Franc" changeset="111505">
    <nd ref="13104628"/>
    <nd ref="13104632"/>
    <tag k="created_by" v="JOSM"/>
    <tag k="highway" v="residential"/>
    <tag k="name" v="Bayview Street"/>
  </way>
  <way id="2859035" version="2" timestamp="2007-11-18T01:27:51Z" uid="7617" user="Franc" changeset="549278">
    <nd ref="13104628"/>
    <nd ref="13104632"/>
    <tag k="created_by" v="JOSM"/>
    <tag k="highway" v="residential"/>
    <tag k="name" v="Bayview Street"/>
    <tag k="oneway" v="yes"/>
  </way>
  <way id="2859035" version="3" timestamp="2008-08-14T04:41:05Z" uid="7617" user="Franc" changeset="236698">
    <nd ref="13104628"/>
    <nd ref="13104632"/>
    <tag k="created_by" v="JOSM"/>
    <tag k="highway" v="service"/>
    <tag k="name" v="Bayview Street"/>
    <tag k="oneway" v="yes"/>
  </way>
  <way id="2859035" version="4" timestamp="2009-11-14T12:12:27Z" uid="117890" user="Jonathan Trott" changeset="3112508">
    <nd ref="13104628"/>
    <nd ref="13104632"/>
    <tag k="highway" v="service"/>
    <tag k="name" v="Bayview Street"/>
    <tag k="oneway" v="yes"/>
  </way>
  <way id="2859036" version="2" timestamp="2008-04-06T05:52:11Z" uid="30201" user="rrankin" changeset="64490">
    <nd ref="13104607"/>
    <nd ref="13104608"/>
    <tag k="created_by" v="JOSM"/>
    <tag k="highway" v="footway"/>
    <tag k="name" v="Glebe Tram Stop entrance"/>
  </way>
  <way id="2859036" version="3" timestamp="2009-11-14T12:12:31Z" uid="117890" user="Jonathan Trott" changeset="3112508">
    <nd ref="13104607"/>
    <nd ref="13104608"/>
    <tag k="highway" v="footway"/>
    <tag k="name" v="Glebe Tram Stop entrance"/>
  </way>
  <way id="2859036" version="4" timestamp="2011-05-18T08:26:20Z" uid="7617" user="Franc" changeset="8178870">
    <nd ref="13104607"/>
    <nd ref="1290015666"/>
    <nd ref="13104608"/>
    <tag k="highway" v="footway"/>
    <tag k="name" v="Glebe Tram Stop entrance"/>
  </way>
  <way id="2859038" version="3" timestamp="2011-05-18T08:26:22Z" uid="7617" user="Franc" changeset="8178870">
    <nd ref="13104611"/>
    <nd ref="1290015648"/>
    <nd ref="13104614"/>
    <tag k="highway" v="footway"/>
    <tag k="name" v="Glebe Tram Stop"/>
  </way>
  <way id="2859039" version="2" timestamp="2008-01-28T09:53:11Z" uid="7617" user="Franc" changeset="704834">
    <nd ref="11978175"/>
    <nd ref="13104642"/>
    <nd ref="243823278"/>
    <nd ref="13104639"/>
    <tag k="created_by" v="JOSM"/>
    <tag k="highway" v="residential"/>
    <tag k="name" v="Burton Street"/>
  </way>
  <way id="2859039" version="3" timestamp="2009-11-14T12:12:00Z" uid="117890" user="Jonathan Trott" changeset="3112508">
    <nd ref="11978175"/>
    <nd ref="13104642"/>
    <nd ref="243823278"/>
    <nd ref="13104639"/>
    <tag k="highway" v="residential"/>
    <tag k="name" v="Burton Street"/>
  </way>
  <way id="2859039" version="4" timestamp="2010-06-28T10:15:21Z" uid="7617" user="Franc" changeset="5096291">
    <nd ref="11978175"/>
    <nd ref="794098839"/>
    <nd ref="13104642"/>
    <nd ref="243823278"/>
    <nd ref="13104639"/>
    <tag k="highway" v="residential"/>
    <tag k="name" v="Burton Street"/>
  </way>
  <way id="2859039" version="5" timestamp="2010-07-07T22:11:39Z" uid="74617" user="JohnSmith" changeset="5161069">
    <nd ref="11978175"/>
    <nd ref="794098839"/>
    <nd ref="13104642"/>
    <nd ref="243823278"/>
    <nd ref="13104639"/>
    <tag k="highway" v="residential"/>
    <tag k="maxspeed" v="50"/>
    <tag k="maxspeed:source" v="default residential speed limit in Australia"/>
    <tag k="name" v="Burton Street"/>
  </way>
  <way id="2859039" version="6" timestamp="2012-01-08T02:29:55Z" uid="147510" user="woodpeck_fixbot" changeset="10327743">
    <nd ref="11978175"/>
    <nd ref="794098839"/>
    <nd ref="13104642"/>
    <nd ref="243823278"/>
    <nd ref="13104639"/>
    <tag k="highway" v="residential"/>
    <tag k="name" v="Burton Street"/>
  </way>
  <way id="2859040" version="3" timestamp="2010-06-28T10:15:23Z" uid="7617" user="Franc" changeset="5096291">
    <nd ref="13104642"/>
    <nd ref="794098837"/>
    <nd ref="13104644"/>
    <nd ref="794098733"/>
    <tag k="highway" v="service"/>
    <tag k="name" v="Lower Avon Street"/>
  </way>
  <way id="2859041" version="4" timestamp="2009-12-03T02:31:38Z" uid="30201" user="rrankin" changeset="3277410">
    <nd ref="13104614"/>
    <nd ref="578903879"/>
    <nd ref="13104655"/>
    <tag k="highway" v="footway"/>
    <tag k="name" v="Glebe Tram Stop entrance"/>
  </way>
  <way id="2859042" version="2" timestamp="2008-08-14T04:41:09Z" uid="7617" user="Franc" changeset="236698"/>
  <way id="2859043" version="2" timestamp="2008-01-27T23:38:08Z" uid="7617" user="Franc" changeset="702554">
    <nd ref="13104655"/>
    <nd ref="13104658"/>
    <nd ref="243782399"/>
    <tag k="created_by" v="JOSM"/>
    <tag k="highway" v="footway"/>
  </way>
  <way id="2859043" version="3" timestamp="2008-08-14T04:41:08Z" uid="7617" user="Franc" changeset="236698">
    <nd ref="13104655"/>
    <nd ref="13104658"/>
    <nd ref="243782399"/>
    <nd ref="287793757"/>
    <nd ref="120580577"/>
    <tag k="created_by" v="JOSM"/>
    <tag k="highway" v="footway"/>
  </way>
  <way id="2859043" version="4" timestamp="2009-11-14T12:12:28Z" uid="117890" user="Jonathan Trott" changeset="3112508">
    <nd ref="13104655"/>
    <nd ref="13104658"/>
    <nd ref="243782399"/>
    <nd ref="287793757"/>
    <nd ref="120580577"/>
    <tag k="highway" v="footway"/>
  </way>
  <way id="2859044" version="2" timestamp="2008-08-21T13:17:17Z" uid="7617" user="Franc" changeset="355023">
    <nd ref="13104661"/>
    <nd ref="13104664"/>
    <nd ref="13104745"/>
    <nd ref="13104668"/>
    <nd ref="26362578"/>
    <tag k="created_by" v="JOSM"/>
    <tag k="highway" v="residential"/>
    <tag k="name" v="Darling Street"/>
  </way>
  <way id="2859044" version="3" timestamp="2009-11-14T12:12:23Z" uid="117890" user="Jonathan Trott" changeset="3112508">
    <nd ref="13104661"/>
    <nd ref="13104664"/>
    <nd ref="13104745"/>
    <nd ref="13104668"/>
    <nd ref="26362578"/>
    <tag k="highway" v="residential"/>
    <tag k="name" v="Darling Street"/>
  </way>
  <way id="2859044" version="4" timestamp="2010-01-02T03:53:37Z" uid="69319" user="Rhubarb" changeset="3515796">
    <nd ref="13104661"/>
    <nd ref="13104664"/>
    <nd ref="13104745"/>
    <nd ref="602893339"/>
    <nd ref="13104668"/>
    <nd ref="26362578"/>
    <tag k="highway" v="residential"/>
    <tag k="name" v="Darling Street"/>
  </way>
  <way id="2859044" version="5" timestamp="2010-07-07T22:10:35Z" uid="74617" user="JohnSmith" changeset="5161069">
    <nd ref="13104661"/>
    <nd ref="13104664"/>
    <nd ref="13104745"/>
    <nd ref="602893339"/>
    <nd ref="13104668"/>
    <nd ref="26362578"/>
    <tag k="highway" v="residential"/>
    <tag k="maxspeed" v="50"/>
    <tag k="maxspeed:source" v="default residential speed limit in Australia"/>
    <tag k="name" v="Darling Street"/>
  </way>
  <way id="2859044" version="6" timestamp="2012-01-08T02:29:56Z" uid="147510" user="woodpeck_fixbot" changeset="10327743">
    <nd ref="13104661"/>
    <nd ref="13104664"/>
    <nd ref="13104745"/>
    <nd ref="602893339"/>
    <nd ref="13104668"/>
    <nd ref="26362578"/>
    <tag k="highway" v="residential"/>
    <tag k="name" v="Darling Street"/>
  </way>
  <way id="2859046" version="3" timestamp="2010-06-18T22:16:56Z" uid="7617" user="Franc" changeset="5020041">
    <nd ref="13104664"/>
    <nd ref="13104669"/>
    <nd ref="13104674"/>
    <nd ref="13104675"/>
    <tag k="highway" v="unclassified"/>
    <tag k="name" v="Bridge Lane"/>
  </way>
  <way id="2859047" version="3" timestamp="2010-06-17T12:12:52Z" uid="7617" user="Franc" changeset="5008283">
    <nd ref="13104676"/>
    <nd ref="13104669"/>
    <tag k="highway" v="unclassified"/>
    <tag k="name" v="Darghan Street"/>
    <tag k="source" v="survey"/>
  </way>
  <way id="2859048" version="2" timestamp="2007-11-18T01:50:49Z" uid="7617" user="Franc" changeset="549278">
    <nd ref="13104677"/>
    <nd ref="13104722"/>
    <nd ref="13104745"/>
    <nd ref="13104671"/>
    <nd ref="13104732"/>
    <tag k="created_by" v="JOSM"/>
    <tag k="highway" v="residential"/>
    <tag k="name" v="Railway Street"/>
  </way>
  <way id="2859048" version="3" timestamp="2009-11-14T12:12:01Z" uid="117890" user="Jonathan Trott" changeset="3112508">
    <nd ref="13104677"/>
    <nd ref="13104722"/>
    <nd ref="13104745"/>
    <nd ref="13104671"/>
    <nd ref="13104732"/>
    <tag k="highway" v="residential"/>
    <tag k="name" v="Railway Street"/>
  </way>
  <way id="2859048" version="4" timestamp="2010-06-18T22:16:56Z" uid="7617" user="Franc" changeset="5020041">
    <nd ref="13104677"/>
    <nd ref="13104722"/>
    <nd ref="13104745"/>
    <nd ref="13104671"/>
    <nd ref="775878078"/>
    <nd ref="13104732"/>
    <tag k="highway" v="residential"/>
    <tag k="name" v="Railway Street"/>
  </way>
  <way id="2859048" version="5" timestamp="2010-07-07T22:10:43Z" uid="74617" user="JohnSmith" changeset="5161069">
    <nd ref="13104677"/>
    <nd ref="13104722"/>
    <nd ref="13104745"/>
    <nd ref="13104671"/>
    <nd ref="775878078"/>
    <nd ref="13104732"/>
    <tag k="highway" v="residential"/>
    <tag k="maxspeed" v="50"/>
    <tag k="maxspeed:source" v="default residential speed limit in Australia"/>
    <tag k="name" v="Railway Street"/>
  </way>
  <way id="2859048" version="6" timestamp="2012-01-08T02:29:57Z" uid="147510" user="woodpeck_fixbot" changeset="10327743">
    <nd ref="13104677"/>
    <nd ref="13104722"/>
    <nd ref="13104745"/>
    <nd ref="13104671"/>
    <nd ref="775878078"/>
    <nd ref="13104732"/>
    <tag k="highway" v="residential"/>
    <tag k="name" v="Railway Street"/>
  </way>
  <way id="2859049" version="2" timestamp="2007-11-18T01:50:50Z" uid="7617" user="Franc" changeset="549278">
    <nd ref="13104669"/>
    <nd ref="13104671"/>
    <tag k="created_by" v="JOSM"/>
    <tag k="highway" v="footway"/>
    <tag k="name" v="railway underpass"/>
  </way>
  <way id="2859049" version="3" timestamp="2009-11-14T12:12:35Z" uid="117890" user="Jonathan Trott" changeset="3112508">
    <nd ref="13104669"/>
    <nd ref="13104671"/>
    <tag k="highway" v="footway"/>
    <tag k="name" v="railway underpass"/>
  </way>
  <way id="2859050" version="2" timestamp="2007-11-18T01:54:59Z" uid="7617" user="Franc" changeset="549278">
    <nd ref="13104722"/>
    <nd ref="13104731"/>
    <nd ref="12226019"/>
    <nd ref="12226006"/>
    <nd ref="11981207"/>
    <nd ref="120655878"/>
    <nd ref="12228196"/>
    <nd ref="12228209"/>
    <tag k="created_by" v="JOSM"/>
    <tag k="highway" v="residential"/>
    <tag k="name" v="Broughton Street"/>
  </way>
  <way id="2859050" version="3" timestamp="2008-02-24T05:28:38Z" uid="7617" user="Franc" changeset="189648">
    <nd ref="13104722"/>
    <nd ref="13104731"/>
    <nd ref="12226019"/>
    <tag k="created_by" v="JOSM"/>
    <tag k="highway" v="residential"/>
    <tag k="name" v="Broughton Street"/>
  </way>
  <way id="2859050" version="4" timestamp="2009-11-14T12:12:24Z" uid="117890" user="Jonathan Trott" changeset="3112508">
    <nd ref="13104722"/>
    <nd ref="13104731"/>
    <nd ref="12226019"/>
    <tag k="highway" v="residential"/>
    <tag k="name" v="Broughton Street"/>
  </way>
  <way id="2859050" version="5" timestamp="2010-07-07T22:10:24Z" uid="74617" user="JohnSmith" changeset="5161069">
    <nd ref="13104722"/>
    <nd ref="13104731"/>
    <nd ref="12226019"/>
    <tag k="highway" v="residential"/>
    <tag k="maxspeed" v="50"/>
    <tag k="maxspeed:source" v="default residential speed limit in Australia"/>
    <tag k="name" v="Broughton Street"/>
  </way>
  <way id="2859050" version="6" timestamp="2012-01-08T02:29:58Z" uid="147510" user="woodpeck_fixbot" changeset="10327743">
    <nd ref="13104722"/>
    <nd ref="13104731"/>
    <nd ref="12226019"/>
    <tag k="highway" v="residential"/>
    <tag k="name" v="Broughton Street"/>
  </way>
  <way id="2859051" version="2" timestamp="2007-12-02T02:30:17Z" uid="7617" user="Franc" changeset="28389">
    <nd ref="13104749"/>
    <nd ref="13104753"/>
    <nd ref="147180607"/>
    <tag k="created_by" v="JOSM"/>
    <tag k="highway" v="unclassified"/>
    <tag k="name" v="Cardigan Street"/>
    <tag k="source" v="Yahoo Imagery"/>
    <tag k="source:name" v="survey"/>
  </way>
  <way id="2859051" version="3" timestamp="2009-11-14T12:12:35Z" uid="117890" user="Jonathan Trott" changeset="3112508">
    <nd ref="13104749"/>
    <nd ref="13104753"/>
    <nd ref="147180607"/>
    <tag k="highway" v="unclassified"/>
    <tag k="name" v="Cardigan Street"/>
    <tag k="source" v="Yahoo Imagery"/>
    <tag k="source:name" v="survey"/>
  </way>
  <way id="2859051" version="4" timestamp="2011-05-28T12:51:49Z" uid="7617" user="Franc" changeset="8271467">
    <nd ref="13104749"/>
    <nd ref="1303492608"/>
    <nd ref="13104753"/>
    <nd ref="147180607"/>
    <tag k="highway" v="unclassified"/>
    <tag k="name" v="Cardigan Street"/>
    <tag k="source" v="Yahoo Imagery"/>
    <tag k="source:name" v="survey"/>
  </way>
  <way id="2859110" version="2" timestamp="2007-11-18T01:50:45Z" uid="7617" user="Franc" changeset="549278">
    <nd ref="13104753"/>
    <nd ref="13105290"/>
    <nd ref="13105291"/>
    <tag k="created_by" v="JOSM"/>
    <tag k="highway" v="residential"/>
    <tag k="name" v="Bellevue Lane"/>
  </way>
  <way id="2859110" version="3" timestamp="2009-11-14T12:12:35Z" uid="117890" user="Jonathan Trott" changeset="3112508">
    <nd ref="13104753"/>
    <nd ref="13105290"/>
    <nd ref="13105291"/>
    <tag k="highway" v="residential"/>
    <tag k="name" v="Bellevue Lane"/>
  </way>
  <way id="2859110" version="4" timestamp="2010-07-07T22:10:27Z" uid="74617" user="JohnSmith" changeset="5161069">
    <nd ref="13104753"/>
    <nd ref="13105290"/>
    <nd ref="13105291"/>
    <tag k="highway" v="residential"/>
    <tag k="maxspeed" v="50"/>
    <tag k="maxspeed:source" v="default residential speed limit in Australia"/>
    <tag k="name" v="Bellevue Lane"/>
  </way>
  <way id="2859110" version="5" timestamp="2012-01-08T02:29:59Z" uid="147510" user="woodpeck_fixbot" changeset="10327743">
    <nd ref="13104753"/>
    <nd ref="13105290"/>
    <nd ref="13105291"/>
    <tag k="highway" v="residential"/>
    <tag k="name" v="Bellevue Lane"/>
  </way>
  <way id="2859113" version="2" timestamp="2007-11-18T01:50:46Z" uid="7617" user="Franc" changeset="549278">
    <nd ref="13105295"/>
    <nd ref="13105290"/>
    <tag k="created_by" v="JOSM"/>
    <tag k="highway" v="residential"/>
    <tag k="name" v="Lyndhurst Street"/>
    <tag k="source:name" v="survey"/>
  </way>
  <way id="2859113" version="3" timestamp="2009-11-14T12:12:35Z" uid="117890" user="Jonathan Trott" changeset="3112508">
    <nd ref="13105295"/>
    <nd ref="13105290"/>
    <tag k="highway" v="residential"/>
    <tag k="name" v="Lyndhurst Street"/>
    <tag k="source:name" v="survey"/>
  </way>
  <way id="2859113" version="4" timestamp="2010-07-07T22:09:59Z" uid="74617" user="JohnSmith" changeset="5161069">
    <nd ref="13105295"/>
    <nd ref="13105290"/>
    <tag k="highway" v="residential"/>
    <tag k="maxspeed" v="50"/>
    <tag k="maxspeed:source" v="default residential speed limit in Australia"/>
    <tag k="name" v="Lyndhurst Street"/>
    <tag k="source:name" v="survey"/>
  </way>
  <way id="2859113" version="5" timestamp="2012-01-08T02:30:00Z" uid="147510" user="woodpeck_fixbot" changeset="10327743">
    <nd ref="13105295"/>
    <nd ref="13105290"/>
    <tag k="highway" v="residential"/>
    <tag k="name" v="Lyndhurst Street"/>
    <tag k="source:name" v="survey"/>
  </way>
  <way id="2859114" version="2" timestamp="2007-11-18T01:50:47Z" uid="7617" user="Franc" changeset="549278">
    <nd ref="13105290"/>
    <nd ref="13105294"/>
    <tag k="created_by" v="JOSM"/>
    <tag k="highway" v="steps"/>
  </way>
  <way id="2859114" version="3" timestamp="2009-11-14T12:12:35Z" uid="117890" user="Jonathan Trott" changeset="3112508">
    <nd ref="13105290"/>
    <nd ref="13105294"/>
    <tag k="highway" v="steps"/>
  </way>
  <way id="2859115" version="2" timestamp="2007-11-18T01:50:48Z" uid="7617" user="Franc" changeset="549278">
    <nd ref="13105291"/>
    <nd ref="11981192"/>
    <tag k="created_by" v="JOSM"/>
    <tag k="highway" v="residential"/>
    <tag k="name" v="Park Lane"/>
  </way>
  <way id="2859115" version="3" timestamp="2009-11-14T12:12:35Z" uid="117890" user="Jonathan Trott" changeset="3112508">
    <nd ref="13105291"/>
    <nd ref="11981192"/>
    <tag k="highway" v="residential"/>
    <tag k="name" v="Park Lane"/>
  </way>
  <way id="2859115" version="4" timestamp="2010-07-07T22:09:36Z" uid="74617" user="JohnSmith" changeset="5161069">
    <nd ref="13105291"/>
    <nd ref="11981192"/>
    <tag k="highway" v="residential"/>
    <tag k="maxspeed" v="50"/>
    <tag k="maxspeed:source" v="default residential speed limit in Australia"/>
    <tag k="name" v="Park Lane"/>
  </way>
  <way id="2859115" version="5" timestamp="2012-01-08T02:30:02Z" uid="147510" user="woodpeck_fixbot" changeset="10327743">
    <nd ref="13105291"/>
    <nd ref="11981192"/>
    <tag k="highway" v="residential"/>
    <tag k="name" v="Park Lane"/>
  </way>
  <way id="2859116" version="1" timestamp="2007-09-15T13:27:58Z" uid="7617" user="Franc" changeset="437118">
    <nd ref="12228209"/>
    <nd ref="13105298"/>
    <tag k="created_by" v="JOSM"/>
    <tag k="highway" v="residential"/>
    <tag k="name" v="Queen Street"/>
  </way>
  <way id="2859116" version="2" timestamp="2007-11-18T02:03:43Z" uid="7617" user="Franc" changeset="549278">
    <nd ref="12228209"/>
    <nd ref="13105298"/>
    <tag k="created_by" v="JOSM"/>
    <tag k="highway" v="residential"/>
    <tag k="name" v="Queen Street"/>
    <tag k="oneway" v="yes"/>
  </way>
  <way id="2859116" version="3" timestamp="2009-11-14T12:11:50Z" uid="117890" user="Jonathan Trott" changeset="3112508">
    <nd ref="12228209"/>
    <nd ref="13105298"/>
    <tag k="highway" v="residential"/>
    <tag k="name" v="Queen Street"/>
    <tag k="oneway" v="yes"/>
  </way>
  <way id="2859116" version="4" timestamp="2010-07-07T22:11:38Z" uid="74617" user="JohnSmith" changeset="5161069">
    <nd ref="12228209"/>
    <nd ref="13105298"/>
    <tag k="highway" v="residential"/>
    <tag k="maxspeed" v="50"/>
    <tag k="maxspeed:source" v="default residential speed limit in Australia"/>
    <tag k="name" v="Queen Street"/>
    <tag k="oneway" v="yes"/>
  </way>
  <way id="2859116" version="5" timestamp="2012-01-08T02:30:04Z" uid="147510" user="woodpeck_fixbot" changeset="10327743">
    <nd ref="12228209"/>
    <nd ref="13105298"/>
    <tag k="highway" v="residential"/>
    <tag k="name" v="Queen Street"/>
    <tag k="oneway" v="yes"/>
  </way>
  <way id="2859117" version="2" timestamp="2009-09-22T05:22:04Z" uid="4467" user="Rosscoe" changeset="2564660">
    <nd ref="12502038"/>
    <nd ref="504905127"/>
    <nd ref="12502042"/>
    <tag k="highway" v="footway"/>
    <tag k="name" v="The Quadrant"/>
  </way>
  <way id="2859117" version="3" timestamp="2009-11-14T12:08:32Z" uid="117890" user="Jonathan Trott" changeset="3112508">
    <nd ref="12502038"/>
    <nd ref="504905127"/>
    <nd ref="12502042"/>
    <tag k="highway" v="footway"/>
    <tag k="name" v="The Quadrant"/>
  </way>
  <way id="2859117" version="4" timestamp="2012-02-01T16:48:24Z" uid="308" user="MichaelCollinson" changeset="10560324"/>
  <way id="2859248" version="1" timestamp="2007-08-12T17:00:57Z" uid="8328" user="benpre" changeset="207184">
    <nd ref="12983309"/>
    <nd ref="13106491"/>
    <nd ref="13106490"/>
    <nd ref="13106489"/>
    <nd ref="13106488"/>
    <nd ref="13106487"/>
    <nd ref="13106486"/>
    <nd ref="13106485"/>
    <nd ref="13106484"/>
    <nd ref="13106483"/>
    <nd ref="13106482"/>
    <nd ref="13106481"/>
    <nd ref="13106480"/>
    <nd ref="13106479"/>
    <nd ref="13106013"/>
    <tag k="created_by" v="JOSM"/>
    <tag k="highway" v="unclassified"/>
    <tag k="name" v="Trehøjevej"/>
  </way>
  <way id="2859248" version="2" timestamp="2009-07-31T13:03:38Z" uid="7467" user="StefanG" changeset="1994524">
    <nd ref="12983309"/>
    <nd ref="13106491"/>
    <nd ref="13106490"/>
    <nd ref="13106489"/>
    <nd ref="13106488"/>
    <nd ref="13106487"/>
    <nd ref="13106486"/>
    <nd ref="452502431"/>
    <nd ref="13106485"/>
    <nd ref="13106484"/>
    <nd ref="13106483"/>
    <nd ref="13106482"/>
    <nd ref="13106481"/>
    <nd ref="13106480"/>
    <nd ref="13106479"/>
    <nd ref="13106013"/>
    <tag k="highway" v="unclassified"/>
    <tag k="name" v="Trehøjevej"/>
  </way>
  <way id="2859248" version="3" timestamp="2011-11-14T14:47:52Z" uid="5863" user="KVR" changeset="9825359">
    <nd ref="12983309"/>
    <nd ref="13106491"/>
    <nd ref="13106490"/>
    <nd ref="13106489"/>
    <nd ref="13106488"/>
    <nd ref="13106487"/>
    <nd ref="1502874682"/>
    <nd ref="13106486"/>
    <nd ref="452502431"/>
    <nd ref="13106485"/>
    <nd ref="13106484"/>
    <nd ref="13106483"/>
    <nd ref="13106482"/>
    <nd ref="13106481"/>
    <nd ref="13106480"/>
    <nd ref="13106479"/>
    <nd ref="13106013"/>
    <tag k="highway" v="unclassified"/>
    <tag k="name" v="Trehøjevej"/>
  </way>
  <way id="2859248" version="4" timestamp="2011-12-29T22:06:24Z" uid="16411" user="hansgk" changeset="10240380">
    <nd ref="12983309"/>
    <nd ref="13106491"/>
    <nd ref="13106490"/>
    <nd ref="13106489"/>
    <nd ref="13106488"/>
    <nd ref="13106487"/>
    <nd ref="1502874682"/>
    <nd ref="13106486"/>
    <nd ref="452502431"/>
    <nd ref="1568268888"/>
    <nd ref="13106485"/>
    <nd ref="13106484"/>
    <nd ref="13106483"/>
    <nd ref="13106482"/>
    <nd ref="13106481"/>
    <nd ref="13106480"/>
    <nd ref="13106479"/>
    <nd ref="13106013"/>
    <tag k="highway" v="unclassified"/>
    <tag k="name" v="Trehøjevej"/>
  </way>
  <way id="2859248" version="5" timestamp="2011-12-31T14:27:54Z" uid="207581" user="Hjart" changeset="10255252">
    <nd ref="12983309"/>
    <nd ref="13106491"/>
    <nd ref="13106489"/>
    <nd ref="13106488"/>
    <nd ref="13106487"/>
    <nd ref="1502874682"/>
    <nd ref="13106486"/>
    <nd ref="452502431"/>
    <nd ref="1568268888"/>
    <nd ref="13106485"/>
    <nd ref="13106484"/>
    <nd ref="13106483"/>
    <nd ref="13106482"/>
    <nd ref="13106481"/>
    <nd ref="13106480"/>
    <nd ref="13106479"/>
    <nd ref="13106013"/>
    <tag k="highway" v="unclassified"/>
    <tag k="name" v="Trehøjevej"/>
  </way>
  <way id="2859248" version="6" timestamp="2012-01-02T08:48:49Z" uid="49777" user="Winbladh" changeset="10268491"/>
</osm>
