<?xml version='1.0' encoding='UTF-8'?>
<osm version="0.6" generator="libosmium/2.20.0">
  <way id="28640113" version="9" timestamp="2010-04-03T21:05:59Z" uid="20587" user="balrog-kun" changeset="4315899">
    <nd ref="39338761"/>
    <nd ref="314780148"/>
    <nd ref="39338772"/>
    <nd ref="314780402"/>
    <nd ref="314780404"/>
    <nd ref="314780406"/>
    <nd ref="314780407"/>
    <nd ref="39338783"/>
    <nd ref="39338791"/>
    <nd ref="39338799"/>
    <nd ref="39338805"/>
    <nd ref="39338816"/>
    <tag k="created_by" v="Potlatch 0.10f"/>
    <tag k="highway" v="residential"/>
    <tag k="name" v="Lower River Road"/>
    <tag k="tiger:cfcc" v="A41"/>
    <tag k="tiger:county" v="Cascade, MT"/>
    <tag k="tiger:name_base" v="Lower River"/>
    <tag k="tiger:name_type" v="Rd"/>
    <tag k="tiger:reviewed" v="no"/>
    <tag k="tiger:separated" v="no"/>
    <tag k="tiger:source" v="tiger_import_dch_v0.6_20070813"/>
    <tag k="tiger:tlid" v="202241501:202241497:202241498:202246043:202241525:202241526:202246042:202236565:202241646:202247646"/>
  </way>
  <way id="28640114" version="7" timestamp="2010-04-03T21:05:59Z" uid="20587" user="balrog-kun" changeset="4315899">
    <nd ref="39338755"/>
    <nd ref="39338757"/>
    <nd ref="39338761"/>
    <tag k="bridge" v="yes"/>
    <tag k="created_by" v="Potlatch 0.10f"/>
    <tag k="highway" v="residential"/>
    <tag k="name" v="Lower River Road"/>
    <tag k="tiger:cfcc" v="A41"/>
    <tag k="tiger:county" v="Cascade, MT"/>
    <tag k="tiger:name_base" v="Lower River"/>
    <tag k="tiger:name_type" v="Rd"/>
    <tag k="tiger:reviewed" v="no"/>
    <tag k="tiger:separated" v="no"/>
    <tag k="tiger:source" v="tiger_import_dch_v0.6_20070813"/>
    <tag k="tiger:tlid" v="202241501:202241497:202241498:202246043:202241525:202241526:202246042:202236565:202241646:202247646"/>
  </way>
  <way id="28640126" version="2" timestamp="2010-02-15T05:06:56Z" uid="74617" user="JohnSmith" changeset="3880242">
    <nd ref="314779827"/>
    <nd ref="314779842"/>
    <nd ref="314780230"/>
    <nd ref="314779834"/>
    <tag k="highway" v="residential"/>
    <tag k="maxspeed" v="50"/>
    <tag k="name" v="Horrocks Stret"/>
  </way>
  <way id="28640126" version="3" timestamp="2010-06-02T13:34:38Z" uid="4467" user="Rosscoe" changeset="4884139">
    <nd ref="314779827"/>
    <nd ref="314779842"/>
    <nd ref="314780230"/>
    <nd ref="314779834"/>
    <tag k="highway" v="residential"/>
    <tag k="maxspeed" v="50"/>
    <tag k="name" v="Horrocks Street"/>
  </way>
  <way id="28640126" version="4" timestamp="2012-01-17T21:58:28Z" uid="147510" user="woodpeck_fixbot" changeset="10421060">
    <nd ref="314779827"/>
    <nd ref="314779842"/>
    <nd ref="314780230"/>
    <nd ref="314779834"/>
    <tag k="highway" v="residential"/>
    <tag k="name" v="Horrocks Street"/>
  </way>
  <way id="28640127" version="2" timestamp="2010-02-15T05:08:43Z" uid="74617" user="JohnSmith" changeset="3880242">
    <nd ref="198539493"/>
    <nd ref="314779818"/>
    <tag k="highway" v="service"/>
    <tag k="maxspeed" v="50"/>
    <tag k="name" v="Nestor Avenue"/>
  </way>
  <way id="28640127" version="3" timestamp="2012-01-17T21:58:42Z" uid="147510" user="woodpeck_fixbot" changeset="10421060">
    <nd ref="198539493"/>
    <nd ref="314779818"/>
    <tag k="highway" v="service"/>
    <tag k="name" v="Nestor Avenue"/>
  </way>
  <way id="28640129" version="2" timestamp="2010-07-18T07:43:20Z" uid="4467" user="Rosscoe" changeset="5248527">
    <nd ref="314779919"/>
    <nd ref="314779863"/>
    <tag k="bridge" v="yes"/>
    <tag k="highway" v="footway"/>
    <tag k="layer" v="1"/>
  </way>
  <way id="28640135" version="2" timestamp="2010-07-18T07:43:25Z" uid="4467" user="Rosscoe" changeset="5248527">
    <nd ref="314779850"/>
    <nd ref="314779856"/>
    <nd ref="314779975"/>
    <tag k="bridge" v="yes"/>
    <tag k="highway" v="footway"/>
    <tag k="layer" v="1"/>
  </way>
  <way id="28640143" version="2" timestamp="2009-08-11T12:07:11Z" uid="4467" user="Rosscoe" changeset="2107678">
    <nd ref="314780131"/>
    <nd ref="278700914"/>
    <tag k="bridge" v="yes"/>
    <tag k="highway" v="primary"/>
    <tag k="layer" v="1"/>
    <tag k="name" v="Caxton Street"/>
    <tag k="oneway" v="yes"/>
    <tag k="ref" v="S12"/>
  </way>
  <way id="28640143" version="3" timestamp="2010-06-28T04:40:10Z" uid="211951" user="Dr Paul Martin" changeset="5094748"/>
  <way id="28640144" version="2" timestamp="2010-02-14T17:06:02Z" uid="74617" user="JohnSmith" changeset="3875836">
    <nd ref="75049030"/>
    <nd ref="61680425"/>
    <nd ref="61680241"/>
    <tag k="highway" v="primary"/>
    <tag k="name" v="Caxton Street"/>
    <tag k="oneway" v="yes"/>
    <tag k="ref" v="S12"/>
  </way>
  <way id="28640144" version="3" timestamp="2010-06-28T04:40:40Z" uid="211951" user="Dr Paul Martin" changeset="5094748">
    <nd ref="75049030"/>
    <nd ref="61680425"/>
    <nd ref="61680241"/>
    <tag k="highway" v="secondary"/>
    <tag k="name" v="Caxton Street"/>
    <tag k="oneway" v="yes"/>
    <tag k="ref" v="S12"/>
  </way>
  <way id="28640144" version="4" timestamp="2010-08-16T04:12:16Z" uid="4467" user="Rosscoe" changeset="5505974">
    <nd ref="75049030"/>
    <nd ref="61680425"/>
    <nd ref="862631070"/>
    <nd ref="61680241"/>
    <tag k="highway" v="secondary"/>
    <tag k="name" v="Caxton Street"/>
    <tag k="oneway" v="yes"/>
    <tag k="ref" v="S12"/>
  </way>
  <way id="28640145" version="2" timestamp="2010-02-14T17:06:00Z" uid="74617" user="JohnSmith" changeset="3875836">
    <nd ref="304154641"/>
    <nd ref="61680243"/>
    <nd ref="61680244"/>
    <tag k="highway" v="secondary"/>
    <tag k="name" v="Given Terrace"/>
    <tag k="oneway" v="yes"/>
  </way>
  <way id="28640145" version="3" timestamp="2010-06-28T04:39:31Z" uid="211951" user="Dr Paul Martin" changeset="5094748">
    <nd ref="304154641"/>
    <nd ref="793883980"/>
    <nd ref="61680243"/>
    <nd ref="61680244"/>
    <tag k="highway" v="secondary"/>
    <tag k="name" v="Given Terrace"/>
    <tag k="oneway" v="yes"/>
  </way>
  <way id="28640145" version="4" timestamp="2010-06-28T04:42:12Z" uid="211951" user="Dr Paul Martin" changeset="5094748">
    <nd ref="304154649"/>
    <nd ref="304154641"/>
    <nd ref="793883980"/>
    <nd ref="61680243"/>
    <nd ref="61680244"/>
    <tag k="highway" v="secondary"/>
    <tag k="name" v="Given Terrace"/>
    <tag k="oneway" v="yes"/>
    <tag k="ref" v="S12"/>
  </way>
  <way id="28640145" version="5" timestamp="2010-06-28T04:43:48Z" uid="211951" user="Dr Paul Martin" changeset="5094748">
    <nd ref="304154649"/>
    <nd ref="304154641"/>
    <nd ref="793885344"/>
    <nd ref="793883980"/>
    <nd ref="61680243"/>
    <nd ref="61680244"/>
    <tag k="highway" v="secondary"/>
    <tag k="name" v="Given Terrace"/>
    <tag k="oneway" v="yes"/>
    <tag k="ref" v="S12"/>
  </way>
  <way id="28640145" version="6" timestamp="2010-08-16T04:13:29Z" uid="4467" user="Rosscoe" changeset="5505974">
    <nd ref="304154649"/>
    <nd ref="304154641"/>
    <nd ref="793885344"/>
    <nd ref="862631051"/>
    <nd ref="862631113"/>
    <tag k="highway" v="secondary"/>
    <tag k="name" v="Given Terrace"/>
    <tag k="oneway" v="yes"/>
    <tag k="ref" v="S12"/>
  </way>
  <way id="28640146" version="2" timestamp="2010-02-15T05:07:07Z" uid="74617" user="JohnSmith" changeset="3880242">
    <nd ref="154679124"/>
    <nd ref="314780127"/>
    <nd ref="154682033"/>
    <nd ref="154681690"/>
    <tag k="highway" v="residential"/>
    <tag k="maxspeed" v="50"/>
    <tag k="name" v="Dart Street"/>
    <tag k="oneway" v="yes"/>
  </way>
  <way id="28640146" version="3" timestamp="2012-01-17T21:58:51Z" uid="147510" user="woodpeck_fixbot" changeset="10421060">
    <nd ref="154679124"/>
    <nd ref="314780127"/>
    <nd ref="154682033"/>
    <nd ref="154681690"/>
    <tag k="highway" v="residential"/>
    <tag k="name" v="Dart Street"/>
    <tag k="oneway" v="yes"/>
  </way>
  <way id="28640147" version="2" timestamp="2010-02-15T05:04:44Z" uid="74617" user="JohnSmith" changeset="3880242">
    <nd ref="198996236"/>
    <nd ref="314780203"/>
    <tag k="access" v="private"/>
    <tag k="highway" v="residential"/>
    <tag k="maxspeed" v="50"/>
    <tag k="name" v="Old Mt Coot-tha Road"/>
  </way>
  <way id="28640147" version="3" timestamp="2012-01-17T21:59:49Z" uid="147510" user="woodpeck_fixbot" changeset="10421060">
    <nd ref="198996236"/>
    <nd ref="314780203"/>
    <tag k="access" v="private"/>
    <tag k="highway" v="residential"/>
    <tag k="name" v="Old Mt Coot-tha Road"/>
  </way>
  <way id="28640148" version="2" timestamp="2010-02-15T05:04:44Z" uid="74617" user="JohnSmith" changeset="3880242">
    <nd ref="198996234"/>
    <nd ref="198996235"/>
    <nd ref="314780211"/>
    <nd ref="198996236"/>
    <nd ref="198996238"/>
    <nd ref="198996240"/>
    <tag k="access" v="private"/>
    <tag k="highway" v="residential"/>
    <tag k="maxspeed" v="50"/>
    <tag k="name" v="Old Mt Coot-tha Road"/>
  </way>
  <way id="28640148" version="3" timestamp="2012-01-17T22:00:10Z" uid="147510" user="woodpeck_fixbot" changeset="10421060">
    <nd ref="198996234"/>
    <nd ref="198996235"/>
    <nd ref="314780211"/>
    <nd ref="198996236"/>
    <nd ref="198996238"/>
    <nd ref="198996240"/>
    <tag k="access" v="private"/>
    <tag k="highway" v="residential"/>
    <tag k="name" v="Old Mt Coot-tha Road"/>
  </way>
  <way id="28640149" version="4" timestamp="2010-02-15T05:06:55Z" uid="74617" user="JohnSmith" changeset="3880242">
    <nd ref="314780246"/>
    <nd ref="346080629"/>
    <nd ref="314780250"/>
    <nd ref="314780255"/>
    <nd ref="430604766"/>
    <nd ref="430604769"/>
    <nd ref="314780258"/>
    <tag k="highway" v="service"/>
    <tag k="maxspeed" v="50"/>
  </way>
  <way id="28640149" version="5" timestamp="2012-01-17T22:00:28Z" uid="147510" user="woodpeck_fixbot" changeset="10421060">
    <nd ref="314780246"/>
    <nd ref="346080629"/>
    <nd ref="314780250"/>
    <nd ref="314780255"/>
    <nd ref="430604766"/>
    <nd ref="430604769"/>
    <nd ref="314780258"/>
    <tag k="highway" v="service"/>
  </way>
  <way id="28640151" version="2" timestamp="2010-02-15T05:06:54Z" uid="74617" user="JohnSmith" changeset="3880242">
    <nd ref="314780295"/>
    <nd ref="314780362"/>
    <nd ref="314780298"/>
    <nd ref="314780305"/>
    <nd ref="314780308"/>
    <nd ref="314780314"/>
    <nd ref="314780298"/>
    <tag k="highway" v="service"/>
    <tag k="maxspeed" v="50"/>
  </way>
  <way id="28640151" version="3" timestamp="2012-01-17T22:00:36Z" uid="147510" user="woodpeck_fixbot" changeset="10421060">
    <nd ref="314780295"/>
    <nd ref="314780362"/>
    <nd ref="314780298"/>
    <nd ref="314780305"/>
    <nd ref="314780308"/>
    <nd ref="314780314"/>
    <nd ref="314780298"/>
    <tag k="highway" v="service"/>
  </way>
  <way id="28640152" version="2" timestamp="2010-02-15T05:06:56Z" uid="74617" user="JohnSmith" changeset="3880242">
    <nd ref="314780320"/>
    <nd ref="314780387"/>
    <nd ref="314780326"/>
    <nd ref="314780332"/>
    <tag k="highway" v="service"/>
    <tag k="maxspeed" v="50"/>
  </way>
  <way id="28640152" version="3" timestamp="2012-01-17T22:00:42Z" uid="147510" user="woodpeck_fixbot" changeset="10421060">
    <nd ref="314780320"/>
    <nd ref="314780387"/>
    <nd ref="314780326"/>
    <nd ref="314780332"/>
    <tag k="highway" v="service"/>
  </way>
  <way id="28640158" version="12" timestamp="2010-04-03T21:06:00Z" uid="20587" user="balrog-kun" changeset="4315899">
    <nd ref="314780681"/>
    <nd ref="39265976"/>
    <nd ref="39338830"/>
    <nd ref="39270420"/>
    <nd ref="39338848"/>
    <nd ref="39338853"/>
    <nd ref="39338857"/>
    <nd ref="39309673"/>
    <nd ref="39338860"/>
    <nd ref="39277204"/>
    <nd ref="39313232"/>
    <nd ref="314783004"/>
    <nd ref="39337909"/>
    <tag k="created_by" v="Potlatch 0.10f"/>
    <tag k="highway" v="residential"/>
    <tag k="name" v="Lower River Road"/>
    <tag k="tiger:cfcc" v="A41"/>
    <tag k="tiger:county" v="Cascade, MT"/>
    <tag k="tiger:name_base" v="Lower River"/>
    <tag k="tiger:name_type" v="Rd"/>
    <tag k="tiger:reviewed" v="no"/>
    <tag k="tiger:separated" v="no"/>
    <tag k="tiger:source" v="tiger_import_dch_v0.6_20070813"/>
    <tag k="tiger:tlid" v="202241501:202241497:202241498:202246043:202241525:202241526:202246042:202236565:202241646:202247646"/>
  </way>
  <way id="28640161" version="5" timestamp="2010-04-03T21:06:00Z" uid="20587" user="balrog-kun" changeset="4315899">
    <nd ref="39338816"/>
    <nd ref="314780681"/>
    <tag k="bridge" v="yes"/>
    <tag k="created_by" v="Potlatch 0.10f"/>
    <tag k="highway" v="residential"/>
    <tag k="name" v="Lower River Road"/>
    <tag k="tiger:cfcc" v="A41"/>
    <tag k="tiger:county" v="Cascade, MT"/>
    <tag k="tiger:name_base" v="Lower River"/>
    <tag k="tiger:name_type" v="Rd"/>
    <tag k="tiger:reviewed" v="no"/>
    <tag k="tiger:separated" v="no"/>
    <tag k="tiger:source" v="tiger_import_dch_v0.6_20070813"/>
    <tag k="tiger:tlid" v="202241501:202241497:202241498:202246043:202241525:202241526:202246042:202236565:202241646:202247646"/>
  </way>
  <way id="28640221" version="3" timestamp="2010-04-03T21:06:00Z" uid="20587" user="balrog-kun" changeset="4315899">
    <nd ref="39277212"/>
    <nd ref="39277214"/>
    <nd ref="39277216"/>
    <nd ref="314782467"/>
    <nd ref="314782468"/>
    <nd ref="314782469"/>
    <nd ref="314782470"/>
    <nd ref="39277217"/>
    <nd ref="39313232"/>
    <tag k="access" v="private"/>
    <tag k="created_by" v="Potlatch 0.10f"/>
    <tag k="highway" v="residential"/>
    <tag k="name" v="Trailer Terrace Court"/>
    <tag k="tiger:cfcc" v="A41"/>
    <tag k="tiger:county" v="Cascade, MT"/>
    <tag k="tiger:name_base" v="Trailer Terrace"/>
    <tag k="tiger:name_type" v="Ct"/>
    <tag k="tiger:reviewed" v="no"/>
    <tag k="tiger:separated" v="no"/>
    <tag k="tiger:source" v="tiger_import_dch_v0.6_20070813"/>
    <tag k="tiger:tlid" v="202236567"/>
  </way>
  <way id="28640246" version="4" timestamp="2010-11-26T04:54:25Z" uid="20587" user="balrog-kun" changeset="6459318">
    <nd ref="610252623"/>
    <nd ref="314783278"/>
    <nd ref="314783279"/>
    <tag k="highway" v="residential"/>
    <tag k="name" v="Calle 47A S"/>
  </way>
  <way id="28640246" version="5" timestamp="2010-12-15T22:16:04Z" uid="314700" user="dmartinh" changeset="6671702">
    <nd ref="610252623"/>
    <nd ref="314783278"/>
    <tag k="highway" v="residential"/>
    <tag k="name" v="Calle 47A S"/>
  </way>
  <way id="28640246" version="6" timestamp="2011-06-15T22:50:41Z" uid="319039" user="Penelope86" changeset="8451706"/>
  <way id="28640255" version="4" timestamp="2010-11-26T04:54:19Z" uid="20587" user="balrog-kun" changeset="6459318">
    <nd ref="314783340"/>
    <nd ref="506807787"/>
    <nd ref="314783341"/>
    <nd ref="314783342"/>
    <tag k="highway" v="residential"/>
    <tag k="name" v="Calle 47 S"/>
  </way>
  <way id="28640255" version="5" timestamp="2010-12-15T22:16:08Z" uid="314700" user="dmartinh" changeset="6671702">
    <nd ref="314783340"/>
    <nd ref="506807787"/>
    <tag k="highway" v="residential"/>
    <tag k="name" v="Calle 47 S"/>
  </way>
  <way id="28640255" version="6" timestamp="2011-06-15T22:50:41Z" uid="319039" user="Penelope86" changeset="8451706"/>
  <way id="28640278" version="3" timestamp="2010-07-09T03:19:13Z" uid="74617" user="JohnSmith" changeset="5170713">
    <nd ref="314783345"/>
    <nd ref="314783368"/>
    <nd ref="311892105"/>
    <nd ref="311891662"/>
    <tag k="highway" v="residential"/>
    <tag k="maxspeed" v="50"/>
    <tag k="maxspeed:source" v="default residential speed limit in Australia"/>
    <tag k="name" v="Francesco Street"/>
    <tag k="source" v="MMBW"/>
  </way>
  <way id="28640278" version="4" timestamp="2012-01-17T22:00:51Z" uid="147510" user="woodpeck_fixbot" changeset="10421060">
    <nd ref="314783345"/>
    <nd ref="314783368"/>
    <nd ref="311892105"/>
    <nd ref="311891662"/>
    <tag k="highway" v="residential"/>
    <tag k="name" v="Francesco Street"/>
    <tag k="source" v="MMBW"/>
  </way>
  <way id="28640279" version="3" timestamp="2010-07-09T03:20:55Z" uid="74617" user="JohnSmith" changeset="5170713">
    <nd ref="314783369"/>
    <nd ref="314783378"/>
    <nd ref="311892062"/>
    <nd ref="311892092"/>
    <nd ref="311892055"/>
    <tag k="highway" v="residential"/>
    <tag k="maxspeed" v="50"/>
    <tag k="maxspeed:source" v="default residential speed limit in Australia"/>
    <tag k="name" v="Lilac Street"/>
    <tag k="source" v="MMBW"/>
  </way>
  <way id="28640279" version="4" timestamp="2012-01-17T22:00:56Z" uid="147510" user="woodpeck_fixbot" changeset="10421060">
    <nd ref="314783369"/>
    <nd ref="314783378"/>
    <nd ref="311892062"/>
    <nd ref="311892092"/>
    <nd ref="311892055"/>
    <tag k="highway" v="residential"/>
    <tag k="name" v="Lilac Street"/>
    <tag k="source" v="MMBW"/>
  </way>
  <way id="28640281" version="3" timestamp="2010-07-09T03:19:58Z" uid="74617" user="JohnSmith" changeset="5170713">
    <nd ref="311892063"/>
    <nd ref="314783385"/>
    <tag k="highway" v="residential"/>
    <tag k="maxspeed" v="50"/>
    <tag k="maxspeed:source" v="default residential speed limit in Australia"/>
    <tag k="name" v="Daphne Street"/>
  </way>
  <way id="28640281" version="4" timestamp="2012-01-17T22:01:06Z" uid="147510" user="woodpeck_fixbot" changeset="10421060">
    <nd ref="311892063"/>
    <nd ref="314783385"/>
    <tag k="highway" v="residential"/>
    <tag k="name" v="Daphne Street"/>
  </way>
  <way id="28640284" version="3" timestamp="2010-11-26T04:54:28Z" uid="20587" user="balrog-kun" changeset="6459318">
    <nd ref="314783391"/>
    <nd ref="314783392"/>
    <nd ref="314783393"/>
    <tag k="highway" v="residential"/>
    <tag k="name" v="Calle 47 S"/>
  </way>
  <way id="28640284" version="4" timestamp="2010-12-23T22:24:51Z" uid="314700" user="dmartinh" changeset="6749954">
    <nd ref="314783391"/>
    <nd ref="314783392"/>
    <tag k="highway" v="residential"/>
    <tag k="name" v="Calle 47 S"/>
  </way>
  <way id="28640284" version="5" timestamp="2011-06-15T23:10:29Z" uid="319039" user="Penelope86" changeset="8451967"/>
  <way id="28640285" version="3" timestamp="2010-11-26T04:54:35Z" uid="20587" user="balrog-kun" changeset="6459318">
    <nd ref="314783394"/>
    <nd ref="314783395"/>
    <tag k="highway" v="residential"/>
    <tag k="name" v="Calle 46B S"/>
  </way>
  <way id="28640285" version="4" timestamp="2011-06-15T23:10:29Z" uid="319039" user="Penelope86" changeset="8451967"/>
  <way id="28640287" version="4" timestamp="2010-04-03T21:06:01Z" uid="20587" user="balrog-kun" changeset="4315899">
    <nd ref="39366613"/>
    <nd ref="314783396"/>
    <tag k="created_by" v="Potlatch 0.10f"/>
    <tag k="highway" v="residential"/>
    <tag k="name" v="Fields Road"/>
    <tag k="tiger:cfcc" v="A41"/>
    <tag k="tiger:county" v="Cascade, MT"/>
    <tag k="tiger:name_base" v="Fields"/>
    <tag k="tiger:name_type" v="Rd"/>
    <tag k="tiger:reviewed" v="no"/>
    <tag k="tiger:separated" v="no"/>
    <tag k="tiger:source" v="tiger_import_dch_v0.6_20070813"/>
    <tag k="tiger:tlid" v="202228552"/>
  </way>
  <way id="28640289" version="2" timestamp="2010-04-03T21:06:01Z" uid="20587" user="balrog-kun" changeset="4315899">
    <nd ref="39366613"/>
    <nd ref="39366634"/>
    <nd ref="39366636"/>
    <nd ref="39366639"/>
    <nd ref="39366641"/>
    <nd ref="39366645"/>
    <nd ref="39366648"/>
    <nd ref="39366651"/>
    <nd ref="39366653"/>
    <nd ref="39366656"/>
    <nd ref="39360658"/>
    <nd ref="39366660"/>
    <nd ref="39294375"/>
    <nd ref="39363184"/>
    <nd ref="39366664"/>
    <nd ref="39366666"/>
    <nd ref="39366668"/>
    <nd ref="39340636"/>
    <nd ref="39366671"/>
    <nd ref="39366673"/>
    <nd ref="39366676"/>
    <nd ref="39366679"/>
    <nd ref="39366682"/>
    <nd ref="39327567"/>
    <nd ref="39366686"/>
    <nd ref="39345547"/>
    <nd ref="39366689"/>
    <nd ref="39366692"/>
    <nd ref="39366695"/>
    <nd ref="39366697"/>
    <nd ref="39366699"/>
    <nd ref="39366701"/>
    <nd ref="39366704"/>
    <nd ref="39366707"/>
    <nd ref="39366711"/>
    <nd ref="39366714"/>
    <nd ref="39366715"/>
    <nd ref="39366718"/>
    <nd ref="39366720"/>
    <nd ref="39366721"/>
    <nd ref="39366724"/>
    <nd ref="39366726"/>
    <nd ref="39366728"/>
    <nd ref="39366731"/>
    <nd ref="39366734"/>
    <nd ref="39366736"/>
    <nd ref="39366737"/>
    <nd ref="39366738"/>
    <nd ref="39366741"/>
    <nd ref="39366742"/>
    <nd ref="39366744"/>
    <nd ref="39296240"/>
    <nd ref="39366746"/>
    <nd ref="39366748"/>
    <nd ref="39366750"/>
    <nd ref="39366752"/>
    <nd ref="39366756"/>
    <nd ref="39366759"/>
    <nd ref="39366762"/>
    <nd ref="39366764"/>
    <nd ref="39296286"/>
    <nd ref="39366768"/>
    <nd ref="39366771"/>
    <nd ref="39366773"/>
    <nd ref="39366777"/>
    <nd ref="39366778"/>
    <nd ref="39366780"/>
    <nd ref="39366783"/>
    <nd ref="39366785"/>
    <nd ref="39366788"/>
    <nd ref="39366791"/>
    <nd ref="39366793"/>
    <nd ref="39366797"/>
    <nd ref="39366799"/>
    <nd ref="39366802"/>
    <nd ref="39366805"/>
    <nd ref="39366807"/>
    <nd ref="39366809"/>
    <nd ref="39366812"/>
    <nd ref="39366813"/>
    <nd ref="39366816"/>
    <nd ref="39366819"/>
    <nd ref="39366821"/>
    <nd ref="39366823"/>
    <nd ref="39366826"/>
    <nd ref="39366829"/>
    <nd ref="39366831"/>
    <nd ref="39366835"/>
    <nd ref="39366838"/>
    <nd ref="39347940"/>
    <tag k="created_by" v="Potlatch 0.10f"/>
    <tag k="highway" v="residential"/>
    <tag k="name" v="Fields Road"/>
    <tag k="tiger:cfcc" v="A41"/>
    <tag k="tiger:county" v="Cascade, MT"/>
    <tag k="tiger:name_base" v="Fields"/>
    <tag k="tiger:name_type" v="Rd"/>
    <tag k="tiger:reviewed" v="no"/>
    <tag k="tiger:separated" v="no"/>
    <tag k="tiger:source" v="tiger_import_dch_v0.6_20070813"/>
    <tag k="tiger:tlid" v="202228552"/>
  </way>
  <way id="28640294" version="3" timestamp="2010-07-09T03:17:52Z" uid="74617" user="JohnSmith" changeset="5170713">
    <nd ref="314783430"/>
    <nd ref="314783455"/>
    <nd ref="314783440"/>
    <tag k="highway" v="residential"/>
    <tag k="maxspeed" v="50"/>
    <tag k="maxspeed:source" v="default residential speed limit in Australia"/>
    <tag k="name" v="Browns Road"/>
  </way>
  <way id="28640294" version="4" timestamp="2012-01-17T22:01:13Z" uid="147510" user="woodpeck_fixbot" changeset="10421060">
    <nd ref="314783430"/>
    <nd ref="314783455"/>
    <nd ref="314783440"/>
    <tag k="highway" v="residential"/>
    <tag k="name" v="Browns Road"/>
  </way>
  <way id="28640297" version="7" timestamp="2010-07-09T03:18:38Z" uid="74617" user="JohnSmith" changeset="5170713">
    <nd ref="314783441"/>
    <nd ref="314783476"/>
    <nd ref="314783509"/>
    <nd ref="314783440"/>
    <nd ref="314783479"/>
    <nd ref="314783498"/>
    <nd ref="314783502"/>
    <nd ref="314783452"/>
    <tag k="highway" v="residential"/>
    <tag k="maxspeed" v="50"/>
    <tag k="maxspeed:source" v="default residential speed limit in Australia"/>
    <tag k="name" v="Elizabeth Street"/>
    <tag k="source" v="MMBW"/>
  </way>
  <way id="28640297" version="8" timestamp="2012-01-17T22:01:17Z" uid="147510" user="woodpeck_fixbot" changeset="10421060">
    <nd ref="314783441"/>
    <nd ref="314783476"/>
    <nd ref="314783509"/>
    <nd ref="314783440"/>
    <nd ref="314783479"/>
    <nd ref="314783498"/>
    <nd ref="314783502"/>
    <nd ref="314783452"/>
    <tag k="highway" v="residential"/>
    <tag k="name" v="Elizabeth Street"/>
    <tag k="source" v="MMBW"/>
  </way>
  <way id="28640299" version="3" timestamp="2010-04-03T21:06:02Z" uid="20587" user="balrog-kun" changeset="4315899">
    <nd ref="314783450"/>
    <nd ref="314783456"/>
    <nd ref="314783457"/>
    <nd ref="314783458"/>
    <nd ref="314783459"/>
    <nd ref="314783460"/>
    <nd ref="314783461"/>
    <nd ref="314783462"/>
    <nd ref="314783463"/>
    <nd ref="314783464"/>
    <nd ref="314783465"/>
    <nd ref="314783466"/>
    <nd ref="314783467"/>
    <nd ref="314783460"/>
    <tag k="created_by" v="Potlatch 0.10f"/>
    <tag k="highway" v="residential"/>
    <tag k="name" v="Upper River Road"/>
    <tag k="tiger:cfcc" v="A41"/>
    <tag k="tiger:county" v="Cascade, MT"/>
    <tag k="tiger:name_base" v="Upper River"/>
    <tag k="tiger:name_type" v="Rd"/>
    <tag k="tiger:reviewed" v="no"/>
    <tag k="tiger:separated" v="no"/>
    <tag k="tiger:source" v="tiger_import_dch_v0.6_20070813"/>
    <tag k="tiger:tlid" v="202247344:202226320:202226306:202248034:202236584:202230870:202230871:202226299:202230093:202226297:202230095:202230098:202238362:202238363:202230089"/>
    <tag k="tiger:zip_left" v="59405"/>
    <tag k="tiger:zip_right" v="59405"/>
  </way>
  <way id="28640301" version="3" timestamp="2010-07-09T03:17:25Z" uid="74617" user="JohnSmith" changeset="5170713">
    <nd ref="314783455"/>
    <nd ref="314783471"/>
    <nd ref="314783472"/>
    <nd ref="314783473"/>
    <tag k="highway" v="residential"/>
    <tag k="maxspeed" v="50"/>
    <tag k="maxspeed:source" v="default residential speed limit in Australia"/>
    <tag k="name" v="Caleb Street"/>
    <tag k="source" v="MMBW"/>
  </way>
  <way id="28640301" version="4" timestamp="2012-01-17T22:01:21Z" uid="147510" user="woodpeck_fixbot" changeset="10421060">
    <nd ref="314783455"/>
    <nd ref="314783471"/>
    <nd ref="314783472"/>
    <nd ref="314783473"/>
    <tag k="highway" v="residential"/>
    <tag k="name" v="Caleb Street"/>
    <tag k="source" v="MMBW"/>
  </way>
  <way id="28640303" version="3" timestamp="2010-07-09T03:22:13Z" uid="74617" user="JohnSmith" changeset="5170713">
    <nd ref="314783471"/>
    <nd ref="314783476"/>
    <tag k="highway" v="residential"/>
    <tag k="maxspeed" v="50"/>
    <tag k="maxspeed:source" v="default residential speed limit in Australia"/>
    <tag k="name" v="Allanby Grove"/>
  </way>
  <way id="28640303" version="4" timestamp="2012-01-17T22:01:32Z" uid="147510" user="woodpeck_fixbot" changeset="10421060">
    <nd ref="314783471"/>
    <nd ref="314783476"/>
    <tag k="highway" v="residential"/>
    <tag k="name" v="Allanby Grove"/>
  </way>
  <way id="28640307" version="2" timestamp="2010-07-09T03:24:12Z" uid="74617" user="JohnSmith" changeset="5170713">
    <nd ref="314783479"/>
    <nd ref="314783493"/>
    <tag k="highway" v="residential"/>
    <tag k="maxspeed" v="50"/>
    <tag k="maxspeed:source" v="default residential speed limit in Australia"/>
    <tag k="name" v="Becket Avenue"/>
    <tag k="source" v="MMBW"/>
  </way>
  <way id="28640307" version="3" timestamp="2012-01-17T22:01:38Z" uid="147510" user="woodpeck_fixbot" changeset="10421060">
    <nd ref="314783479"/>
    <nd ref="314783493"/>
    <tag k="highway" v="residential"/>
    <tag k="name" v="Becket Avenue"/>
    <tag k="source" v="MMBW"/>
  </way>
  <way id="28640310" version="2" timestamp="2010-07-09T03:21:05Z" uid="74617" user="JohnSmith" changeset="5170713">
    <nd ref="314783498"/>
    <nd ref="314783501"/>
    <tag k="highway" v="residential"/>
    <tag k="maxspeed" v="50"/>
    <tag k="maxspeed:source" v="default residential speed limit in Australia"/>
    <tag k="name" v="Alexander Street"/>
    <tag k="source" v="MMBW"/>
  </way>
  <way id="28640310" version="3" timestamp="2012-01-17T22:01:48Z" uid="147510" user="woodpeck_fixbot" changeset="10421060">
    <nd ref="314783498"/>
    <nd ref="314783501"/>
    <tag k="highway" v="residential"/>
    <tag k="name" v="Alexander Street"/>
    <tag k="source" v="MMBW"/>
  </way>
  <way id="28640312" version="2" timestamp="2010-07-09T03:20:05Z" uid="74617" user="JohnSmith" changeset="5170713">
    <nd ref="314783502"/>
    <nd ref="314783504"/>
    <tag k="highway" v="residential"/>
    <tag k="maxspeed" v="50"/>
    <tag k="maxspeed:source" v="default residential speed limit in Australia"/>
    <tag k="name" v="Gray Street"/>
    <tag k="source" v="MMBW"/>
  </way>
  <way id="28640312" version="3" timestamp="2012-01-17T22:01:53Z" uid="147510" user="woodpeck_fixbot" changeset="10421060">
    <nd ref="314783502"/>
    <nd ref="314783504"/>
    <tag k="highway" v="residential"/>
    <tag k="name" v="Gray Street"/>
    <tag k="source" v="MMBW"/>
  </way>
  <way id="28640314" version="4" timestamp="2010-04-26T14:00:40Z" uid="4467" user="Rosscoe" changeset="4532178">
    <nd ref="314783509"/>
    <nd ref="314783528"/>
    <nd ref="314783516"/>
    <nd ref="707419058"/>
    <tag k="highway" v="residential"/>
    <tag k="name" v="Browns Road"/>
    <tag k="source" v="MMBW"/>
  </way>
  <way id="28640314" version="5" timestamp="2010-07-09T03:16:37Z" uid="74617" user="JohnSmith" changeset="5170713">
    <nd ref="314783509"/>
    <nd ref="314783528"/>
    <nd ref="314783516"/>
    <nd ref="707419058"/>
    <tag k="highway" v="residential"/>
    <tag k="maxspeed" v="50"/>
    <tag k="maxspeed:source" v="default residential speed limit in Australia"/>
    <tag k="name" v="Browns Road"/>
    <tag k="source" v="MMBW"/>
  </way>
  <way id="28640314" version="6" timestamp="2012-01-17T22:01:54Z" uid="147510" user="woodpeck_fixbot" changeset="10421060">
    <nd ref="314783509"/>
    <nd ref="314783528"/>
    <nd ref="314783516"/>
    <nd ref="707419058"/>
    <tag k="highway" v="residential"/>
    <tag k="name" v="Browns Road"/>
    <tag k="source" v="MMBW"/>
  </way>
  <way id="28640316" version="3" timestamp="2010-07-09T03:18:50Z" uid="74617" user="JohnSmith" changeset="5170713">
    <nd ref="314783516"/>
    <nd ref="314783526"/>
    <nd ref="314783518"/>
    <tag k="highway" v="residential"/>
    <tag k="maxspeed" v="50"/>
    <tag k="maxspeed:source" v="default residential speed limit in Australia"/>
    <tag k="name" v="Moray Street"/>
    <tag k="source" v="MMBW"/>
  </way>
  <way id="28640316" version="4" timestamp="2012-01-17T22:01:59Z" uid="147510" user="woodpeck_fixbot" changeset="10421060">
    <nd ref="314783516"/>
    <nd ref="314783526"/>
    <nd ref="314783518"/>
    <tag k="highway" v="residential"/>
    <tag k="name" v="Moray Street"/>
    <tag k="source" v="MMBW"/>
  </way>
  <way id="28640318" version="4" timestamp="2010-04-03T21:06:02Z" uid="20587" user="balrog-kun" changeset="4315899">
    <nd ref="314783511"/>
    <nd ref="314783520"/>
    <nd ref="314783505"/>
    <nd ref="314783506"/>
    <nd ref="314783507"/>
    <nd ref="314783508"/>
    <nd ref="314783523"/>
    <nd ref="314783524"/>
    <nd ref="314783525"/>
    <nd ref="39336050"/>
    <tag k="created_by" v="Potlatch 0.10f"/>
    <tag k="highway" v="residential"/>
    <tag k="name" v="Sharon Drive"/>
    <tag k="tiger:cfcc" v="A41"/>
    <tag k="tiger:county" v="Cascade, MT"/>
    <tag k="tiger:name_base" v="Sharon"/>
    <tag k="tiger:name_type" v="Dr"/>
    <tag k="tiger:reviewed" v="no"/>
    <tag k="tiger:separated" v="no"/>
    <tag k="tiger:source" v="tiger_import_dch_v0.6_20070813"/>
    <tag k="tiger:tlid" v="202226309"/>
  </way>
  <way id="28640320" version="2" timestamp="2010-07-09T03:24:34Z" uid="74617" user="JohnSmith" changeset="5170713">
    <nd ref="314783476"/>
    <nd ref="314783526"/>
    <tag k="highway" v="residential"/>
    <tag k="maxspeed" v="50"/>
    <tag k="maxspeed:source" v="default residential speed limit in Australia"/>
    <tag k="name" v="Daffodil Street"/>
    <tag k="source" v="MMBW"/>
  </way>
  <way id="28640320" version="3" timestamp="2012-01-17T22:02:01Z" uid="147510" user="woodpeck_fixbot" changeset="10421060">
    <nd ref="314783476"/>
    <nd ref="314783526"/>
    <tag k="highway" v="residential"/>
    <tag k="name" v="Daffodil Street"/>
    <tag k="source" v="MMBW"/>
  </way>
  <way id="28640323" version="5" timestamp="2010-07-09T03:22:51Z" uid="74617" user="JohnSmith" changeset="5170713">
    <nd ref="314783528"/>
    <nd ref="314783539"/>
    <nd ref="314783544"/>
    <nd ref="314783550"/>
    <nd ref="314783537"/>
    <tag k="highway" v="residential"/>
    <tag k="maxspeed" v="50"/>
    <tag k="maxspeed:source" v="default residential speed limit in Australia"/>
    <tag k="name" v="Neville Street"/>
    <tag k="source" v="MMBW"/>
  </way>
  <way id="28640323" version="6" timestamp="2012-01-17T22:02:03Z" uid="147510" user="woodpeck_fixbot" changeset="10421060">
    <nd ref="314783528"/>
    <nd ref="314783539"/>
    <nd ref="314783544"/>
    <nd ref="314783550"/>
    <nd ref="314783537"/>
    <tag k="highway" v="residential"/>
    <tag k="name" v="Neville Street"/>
    <tag k="source" v="MMBW"/>
  </way>
  <way id="28640325" version="2" timestamp="2010-07-09T03:16:44Z" uid="74617" user="JohnSmith" changeset="5170713">
    <nd ref="314783539"/>
    <nd ref="314783542"/>
    <tag k="highway" v="residential"/>
    <tag k="maxspeed" v="50"/>
    <tag k="maxspeed:source" v="default residential speed limit in Australia"/>
    <tag k="name" v="Wallace Street"/>
    <tag k="source" v="MMBW"/>
  </way>
  <way id="28640325" version="3" timestamp="2012-01-17T22:02:05Z" uid="147510" user="woodpeck_fixbot" changeset="10421060">
    <nd ref="314783539"/>
    <nd ref="314783542"/>
    <tag k="highway" v="residential"/>
    <tag k="name" v="Wallace Street"/>
    <tag k="source" v="MMBW"/>
  </way>
  <way id="28640326" version="3" timestamp="2010-07-09T03:19:43Z" uid="74617" user="JohnSmith" changeset="5170713">
    <nd ref="314783543"/>
    <nd ref="314783544"/>
    <tag k="highway" v="residential"/>
    <tag k="maxspeed" v="50"/>
    <tag k="maxspeed:source" v="default residential speed limit in Australia"/>
    <tag k="name" v="Colin Street"/>
    <tag k="source" v="MMBW"/>
  </way>
  <way id="28640326" version="4" timestamp="2012-01-17T22:02:07Z" uid="147510" user="woodpeck_fixbot" changeset="10421060">
    <nd ref="314783543"/>
    <nd ref="314783544"/>
    <tag k="highway" v="residential"/>
    <tag k="name" v="Colin Street"/>
    <tag k="source" v="MMBW"/>
  </way>
  <way id="28640328" version="2" timestamp="2010-07-09T03:18:46Z" uid="74617" user="JohnSmith" changeset="5170713">
    <nd ref="314783549"/>
    <nd ref="314783550"/>
    <tag k="highway" v="residential"/>
    <tag k="maxspeed" v="50"/>
    <tag k="maxspeed:source" v="default residential speed limit in Australia"/>
    <tag k="name" v="David Street"/>
    <tag k="source" v="MMBW"/>
  </way>
  <way id="28640328" version="3" timestamp="2012-01-17T22:02:10Z" uid="147510" user="woodpeck_fixbot" changeset="10421060">
    <nd ref="314783549"/>
    <nd ref="314783550"/>
    <tag k="highway" v="residential"/>
    <tag k="name" v="David Street"/>
    <tag k="source" v="MMBW"/>
  </way>
  <way id="28640332" version="3" timestamp="2010-07-09T03:06:50Z" uid="74617" user="JohnSmith" changeset="5170713">
    <nd ref="307906028"/>
    <nd ref="307906045"/>
    <nd ref="307906029"/>
    <nd ref="307906030"/>
    <tag k="highway" v="residential"/>
    <tag k="maxspeed" v="50"/>
    <tag k="maxspeed:source" v="default residential speed limit in Australia"/>
    <tag k="name" v="Lespray Avenue"/>
    <tag k="source" v="MMBW"/>
  </way>
  <way id="28640332" version="4" timestamp="2012-01-17T22:02:12Z" uid="147510" user="woodpeck_fixbot" changeset="10421060">
    <nd ref="307906028"/>
    <nd ref="307906045"/>
    <nd ref="307906029"/>
    <nd ref="307906030"/>
    <tag k="highway" v="residential"/>
    <tag k="name" v="Lespray Avenue"/>
    <tag k="source" v="MMBW"/>
  </way>
  <way id="28640334" version="3" timestamp="2010-04-26T14:00:31Z" uid="4467" user="Rosscoe" changeset="4532178">
    <nd ref="707418483"/>
    <nd ref="307906058"/>
    <tag k="highway" v="residential"/>
    <tag k="name" v="England Street"/>
    <tag k="source" v="MMBW"/>
  </way>
  <way id="28640334" version="4" timestamp="2010-07-09T03:22:21Z" uid="74617" user="JohnSmith" changeset="5170713">
    <nd ref="707418483"/>
    <nd ref="307906058"/>
    <tag k="highway" v="residential"/>
    <tag k="maxspeed" v="50"/>
    <tag k="maxspeed:source" v="default residential speed limit in Australia"/>
    <tag k="name" v="England Street"/>
    <tag k="source" v="MMBW"/>
  </way>
  <way id="28640334" version="5" timestamp="2012-01-17T22:02:15Z" uid="147510" user="woodpeck_fixbot" changeset="10421060">
    <nd ref="707418483"/>
    <nd ref="307906058"/>
    <tag k="highway" v="residential"/>
    <tag k="name" v="England Street"/>
    <tag k="source" v="MMBW"/>
  </way>
  <way id="28640341" version="5" timestamp="2010-04-03T21:06:03Z" uid="20587" user="balrog-kun" changeset="4315899">
    <nd ref="39343578"/>
    <nd ref="314783761"/>
    <nd ref="314783830"/>
    <nd ref="314783831"/>
    <nd ref="314783832"/>
    <tag k="created_by" v="Potlatch 0.10f"/>
    <tag k="highway" v="residential"/>
    <tag k="name" v="9th Street South"/>
    <tag k="tiger:cfcc" v="A41"/>
    <tag k="tiger:county" v="Cascade, MT"/>
    <tag k="tiger:name_base" v="9th"/>
    <tag k="tiger:name_direction_suffix" v="S"/>
    <tag k="tiger:name_type" v="St"/>
    <tag k="tiger:reviewed" v="no"/>
    <tag k="tiger:separated" v="no"/>
    <tag k="tiger:source" v="tiger_import_dch_v0.6_20070813"/>
    <tag k="tiger:tlid" v="202237252:202237265"/>
    <tag k="tiger:zip_left" v="59405"/>
    <tag k="tiger:zip_right" v="59405"/>
  </way>
  <way id="28640363" version="6" timestamp="2010-04-03T21:06:03Z" uid="20587" user="balrog-kun" changeset="4315899">
    <nd ref="39375508"/>
    <nd ref="39382488"/>
    <nd ref="39330936"/>
    <nd ref="39352616"/>
    <nd ref="39350926"/>
    <nd ref="39362868"/>
    <nd ref="39385386"/>
    <nd ref="39385389"/>
    <nd ref="314786763"/>
    <nd ref="314786950"/>
    <nd ref="39385392"/>
    <tag k="created_by" v="Potlatch 0.10f"/>
    <tag k="highway" v="residential"/>
    <tag k="name" v="24th Avenue South"/>
    <tag k="tiger:cfcc" v="A41"/>
    <tag k="tiger:county" v="Cascade, MT"/>
    <tag k="tiger:name_base" v="24th"/>
    <tag k="tiger:name_direction_suffix" v="S"/>
    <tag k="tiger:name_type" v="Ave"/>
    <tag k="tiger:reviewed" v="no"/>
    <tag k="tiger:separated" v="no"/>
    <tag k="tiger:source" v="tiger_import_dch_v0.6_20070813"/>
    <tag k="tiger:tlid" v="202227161:202227168:202227170:202245101:202243558:202236343:202236344:202237278:202244343:202244344:202244295:202244296:202226361:202237280:202237281:202248220"/>
    <tag k="tiger:zip_left" v="59405"/>
    <tag k="tiger:zip_right" v="59405"/>
  </way>
  <way id="28640391" version="3" timestamp="2010-07-09T03:08:22Z" uid="74617" user="JohnSmith" changeset="5170713">
    <nd ref="314784415"/>
    <nd ref="314784420"/>
    <tag k="highway" v="residential"/>
    <tag k="maxspeed" v="50"/>
    <tag k="maxspeed:source" v="default residential speed limit in Australia"/>
    <tag k="name" v="Kalimna Street"/>
  </way>
  <way id="28640391" version="4" timestamp="2012-01-17T22:02:16Z" uid="147510" user="woodpeck_fixbot" changeset="10421060">
    <nd ref="314784415"/>
    <nd ref="314784420"/>
    <tag k="highway" v="residential"/>
    <tag k="name" v="Kalimna Street"/>
  </way>
  <way id="28640394" version="4" timestamp="2010-07-09T03:10:56Z" uid="74617" user="JohnSmith" changeset="5170713">
    <nd ref="314784440"/>
    <nd ref="314784452"/>
    <nd ref="314784445"/>
    <nd ref="314784446"/>
    <tag k="highway" v="residential"/>
    <tag k="maxspeed" v="50"/>
    <tag k="maxspeed:source" v="default residential speed limit in Australia"/>
    <tag k="name" v="Bonny Street"/>
  </way>
  <way id="28640394" version="5" timestamp="2012-01-17T22:02:17Z" uid="147510" user="woodpeck_fixbot" changeset="10421060">
    <nd ref="314784440"/>
    <nd ref="314784452"/>
    <nd ref="314784445"/>
    <nd ref="314784446"/>
    <tag k="highway" v="residential"/>
    <tag k="name" v="Bonny Street"/>
  </way>
  <way id="28640400" version="3" timestamp="2010-07-09T03:05:26Z" uid="74617" user="JohnSmith" changeset="5170713">
    <nd ref="314784420"/>
    <nd ref="314784450"/>
    <tag k="highway" v="residential"/>
    <tag k="maxspeed" v="50"/>
    <tag k="maxspeed:source" v="default residential speed limit in Australia"/>
    <tag k="name" v="Celia Street"/>
  </way>
  <way id="28640400" version="4" timestamp="2012-01-17T22:02:20Z" uid="147510" user="woodpeck_fixbot" changeset="10421060">
    <nd ref="314784420"/>
    <nd ref="314784450"/>
    <tag k="highway" v="residential"/>
    <tag k="name" v="Celia Street"/>
  </way>
  <way id="28640401" version="5" timestamp="2010-07-09T03:07:58Z" uid="74617" user="JohnSmith" changeset="5170713">
    <nd ref="314784451"/>
    <nd ref="314784452"/>
    <nd ref="332009829"/>
    <nd ref="332009906"/>
    <nd ref="314784453"/>
    <tag k="highway" v="residential"/>
    <tag k="maxspeed" v="50"/>
    <tag k="maxspeed:source" v="default residential speed limit in Australia"/>
    <tag k="name" v="Celia Street"/>
  </way>
  <way id="28640401" version="6" timestamp="2012-01-17T22:02:22Z" uid="147510" user="woodpeck_fixbot" changeset="10421060">
    <nd ref="314784451"/>
    <nd ref="314784452"/>
    <nd ref="332009829"/>
    <nd ref="332009906"/>
    <nd ref="314784453"/>
    <tag k="highway" v="residential"/>
    <tag k="name" v="Celia Street"/>
  </way>
  <way id="28640402" version="3" timestamp="2010-07-09T03:06:21Z" uid="74617" user="JohnSmith" changeset="5170713">
    <nd ref="314784446"/>
    <nd ref="314784439"/>
    <tag k="highway" v="residential"/>
    <tag k="maxspeed" v="50"/>
    <tag k="maxspeed:source" v="default residential speed limit in Australia"/>
    <tag k="name" v="Brad Street"/>
  </way>
  <way id="28640402" version="4" timestamp="2012-01-17T22:02:24Z" uid="147510" user="woodpeck_fixbot" changeset="10421060">
    <nd ref="314784446"/>
    <nd ref="314784439"/>
    <tag k="highway" v="residential"/>
    <tag k="name" v="Brad Street"/>
  </way>
  <way id="28640403" version="4" timestamp="2010-04-26T14:00:30Z" uid="4467" user="Rosscoe" changeset="4532178">
    <nd ref="314784435"/>
    <nd ref="314784451"/>
    <nd ref="314784450"/>
    <nd ref="314784437"/>
    <nd ref="314784438"/>
    <nd ref="314784439"/>
    <nd ref="707419227"/>
    <nd ref="707418400"/>
    <tag k="highway" v="residential"/>
    <tag k="name" v="Bellevue Road"/>
  </way>
  <way id="28640403" version="5" timestamp="2010-07-09T03:08:46Z" uid="74617" user="JohnSmith" changeset="5170713">
    <nd ref="314784435"/>
    <nd ref="314784451"/>
    <nd ref="314784450"/>
    <nd ref="314784437"/>
    <nd ref="314784438"/>
    <nd ref="314784439"/>
    <nd ref="707419227"/>
    <nd ref="707418400"/>
    <tag k="highway" v="residential"/>
    <tag k="maxspeed" v="50"/>
    <tag k="maxspeed:source" v="default residential speed limit in Australia"/>
    <tag k="name" v="Bellevue Road"/>
  </way>
  <way id="28640403" version="6" timestamp="2012-01-17T22:02:27Z" uid="147510" user="woodpeck_fixbot" changeset="10421060">
    <nd ref="314784435"/>
    <nd ref="314784451"/>
    <nd ref="314784450"/>
    <nd ref="314784437"/>
    <nd ref="314784438"/>
    <nd ref="314784439"/>
    <nd ref="707419227"/>
    <nd ref="707418400"/>
    <tag k="highway" v="residential"/>
    <tag k="name" v="Bellevue Road"/>
  </way>
  <way id="28640405" version="5" timestamp="2010-07-09T03:06:09Z" uid="74617" user="JohnSmith" changeset="5170713">
    <nd ref="314784454"/>
    <nd ref="458393320"/>
    <nd ref="458393392"/>
    <nd ref="314784468"/>
    <nd ref="458393357"/>
    <nd ref="458393530"/>
    <nd ref="314784455"/>
    <tag k="highway" v="residential"/>
    <tag k="maxspeed" v="50"/>
    <tag k="maxspeed:source" v="default residential speed limit in Australia"/>
    <tag k="name" v="Brosnan Road"/>
  </way>
  <way id="28640405" version="6" timestamp="2011-04-21T05:42:59Z" uid="4467" user="Rosscoe" changeset="7922157">
    <nd ref="314784454"/>
    <nd ref="458393320"/>
    <nd ref="458393392"/>
    <nd ref="1253601605"/>
    <tag k="highway" v="residential"/>
    <tag k="maxspeed" v="50"/>
    <tag k="name" v="Brosnan Road"/>
    <tag k="source:maxspeed" v="default residential speed limit in Australia"/>
  </way>
  <way id="28640405" version="7" timestamp="2012-01-17T22:02:28Z" uid="147510" user="woodpeck_fixbot" changeset="10421060">
    <nd ref="314784454"/>
    <nd ref="458393320"/>
    <nd ref="458393392"/>
    <nd ref="1253601605"/>
    <tag k="highway" v="residential"/>
    <tag k="name" v="Brosnan Road"/>
    <tag k="source:maxspeed" v="default residential speed limit in Australia"/>
  </way>
  <way id="28640406" version="3" timestamp="2010-04-03T21:06:03Z" uid="20587" user="balrog-kun" changeset="4315899">
    <nd ref="39350345"/>
    <nd ref="314784458"/>
    <tag k="created_by" v="Potlatch 0.10f"/>
    <tag k="highway" v="residential"/>
    <tag k="name" v="16th Avenue South"/>
    <tag k="tiger:cfcc" v="A41"/>
    <tag k="tiger:county" v="Cascade, MT"/>
    <tag k="tiger:name_base" v="16th"/>
    <tag k="tiger:name_direction_suffix" v="S"/>
    <tag k="tiger:name_type" v="Ave"/>
    <tag k="tiger:reviewed" v="no"/>
    <tag k="tiger:separated" v="no"/>
    <tag k="tiger:source" v="tiger_import_dch_v0.6_20070813"/>
    <tag k="tiger:tlid" v="202225922:202225910:202225990"/>
    <tag k="tiger:zip_left" v="59405"/>
    <tag k="tiger:zip_right" v="59405"/>
  </way>
  <way id="28640409" version="7" timestamp="2010-07-09T03:05:39Z" uid="74617" user="JohnSmith" changeset="5170713">
    <nd ref="314784465"/>
    <nd ref="458393532"/>
    <nd ref="458393356"/>
    <nd ref="314784469"/>
    <tag k="highway" v="residential"/>
    <tag k="maxspeed" v="50"/>
    <tag k="maxspeed:source" v="default residential speed limit in Australia"/>
    <tag k="name" v="Normdale Road"/>
  </way>
  <way id="28640409" version="8" timestamp="2011-04-21T05:43:17Z" uid="4467" user="Rosscoe" changeset="7922157">
    <nd ref="314784465"/>
    <nd ref="458393532"/>
    <nd ref="458393356"/>
    <nd ref="314784469"/>
    <tag k="highway" v="residential"/>
    <tag k="maxspeed" v="50"/>
    <tag k="name" v="Normdale Road"/>
    <tag k="source:maxspeed" v="default residential speed limit in Australia"/>
  </way>
  <way id="28640409" version="9" timestamp="2012-01-17T22:02:29Z" uid="147510" user="woodpeck_fixbot" changeset="10421060">
    <nd ref="314784465"/>
    <nd ref="458393532"/>
    <nd ref="458393356"/>
    <nd ref="314784469"/>
    <tag k="highway" v="residential"/>
    <tag k="name" v="Normdale Road"/>
    <tag k="source:maxspeed" v="default residential speed limit in Australia"/>
  </way>
  <way id="28640411" version="8" timestamp="2010-07-09T03:06:33Z" uid="74617" user="JohnSmith" changeset="5170713">
    <nd ref="314784468"/>
    <nd ref="332009640"/>
    <nd ref="314784469"/>
    <nd ref="314784479"/>
    <nd ref="314784480"/>
    <nd ref="332009286"/>
    <nd ref="332009305"/>
    <nd ref="332009353"/>
    <nd ref="332009354"/>
    <nd ref="332009309"/>
    <nd ref="332010108"/>
    <nd ref="332009306"/>
    <nd ref="332009307"/>
    <nd ref="308443085"/>
    <tag k="highway" v="residential"/>
    <tag k="maxspeed" v="50"/>
    <tag k="maxspeed:source" v="default residential speed limit in Australia"/>
    <tag k="name" v="Brady Road"/>
  </way>
  <way id="28640411" version="9" timestamp="2010-12-29T13:30:39Z" uid="201443" user="stevage" changeset="6798656">
    <nd ref="314784468"/>
    <nd ref="332009640"/>
    <nd ref="314784469"/>
    <nd ref="314784479"/>
    <nd ref="314784480"/>
    <nd ref="332009286"/>
    <nd ref="332009305"/>
    <nd ref="332009353"/>
    <nd ref="332009354"/>
    <nd ref="1070745495"/>
    <nd ref="332009309"/>
    <nd ref="1070745507"/>
    <nd ref="332010108"/>
    <nd ref="332009306"/>
    <nd ref="332009307"/>
    <nd ref="308443085"/>
    <tag k="highway" v="residential"/>
    <tag k="maxspeed" v="50"/>
    <tag k="maxspeed:source" v="default residential speed limit in Australia"/>
    <tag k="name" v="Brady Road"/>
  </way>
  <way id="28640411" version="10" timestamp="2011-04-21T05:43:06Z" uid="4467" user="Rosscoe" changeset="7922157">
    <nd ref="1253601628"/>
    <nd ref="332009640"/>
    <nd ref="314784469"/>
    <nd ref="1253601599"/>
    <nd ref="314784479"/>
    <nd ref="1253601674"/>
    <nd ref="1253601563"/>
    <nd ref="332009286"/>
    <nd ref="1253601706"/>
    <tag k="highway" v="residential"/>
    <tag k="maxspeed" v="50"/>
    <tag k="name" v="Brady Road"/>
    <tag k="source:maxspeed" v="default residential speed limit in Australia"/>
  </way>
  <way id="28640411" version="11" timestamp="2012-01-17T22:02:32Z" uid="147510" user="woodpeck_fixbot" changeset="10421060">
    <nd ref="1253601628"/>
    <nd ref="332009640"/>
    <nd ref="314784469"/>
    <nd ref="1253601599"/>
    <nd ref="314784479"/>
    <nd ref="1253601674"/>
    <nd ref="1253601563"/>
    <nd ref="332009286"/>
    <nd ref="1253601706"/>
    <tag k="highway" v="residential"/>
    <tag k="name" v="Brady Road"/>
    <tag k="source:maxspeed" v="default residential speed limit in Australia"/>
  </way>
  <way id="28640412" version="5" timestamp="2010-07-09T03:07:11Z" uid="74617" user="JohnSmith" changeset="5170713">
    <nd ref="314784479"/>
    <nd ref="314784487"/>
    <nd ref="314784485"/>
    <nd ref="33076951"/>
    <tag k="highway" v="residential"/>
    <tag k="maxspeed" v="50"/>
    <tag k="maxspeed:source" v="default residential speed limit in Australia"/>
    <tag k="name" v="Highview Road"/>
  </way>
  <way id="28640412" version="6" timestamp="2011-04-21T05:43:14Z" uid="4467" user="Rosscoe" changeset="7922157">
    <nd ref="314784479"/>
    <nd ref="314784487"/>
    <nd ref="314784485"/>
    <nd ref="33076951"/>
    <tag k="highway" v="residential"/>
    <tag k="maxspeed" v="50"/>
    <tag k="name" v="Highview Road"/>
    <tag k="source:maxspeed" v="default residential speed limit in Australia"/>
  </way>
  <way id="28640412" version="7" timestamp="2012-01-17T22:02:34Z" uid="147510" user="woodpeck_fixbot" changeset="10421060">
    <nd ref="314784479"/>
    <nd ref="314784487"/>
    <nd ref="314784485"/>
    <nd ref="33076951"/>
    <tag k="highway" v="residential"/>
    <tag k="name" v="Highview Road"/>
    <tag k="source:maxspeed" v="default residential speed limit in Australia"/>
  </way>
  <way id="28640413" version="3" timestamp="2010-07-09T03:09:32Z" uid="74617" user="JohnSmith" changeset="5170713">
    <nd ref="314784485"/>
    <nd ref="314784486"/>
    <tag k="highway" v="residential"/>
    <tag k="maxspeed" v="50"/>
    <tag k="maxspeed:source" v="default residential speed limit in Australia"/>
    <tag k="name" v="Millis Avenue"/>
  </way>
  <way id="28640413" version="4" timestamp="2011-04-21T05:43:18Z" uid="4467" user="Rosscoe" changeset="7922157">
    <nd ref="314784485"/>
    <nd ref="314784486"/>
    <tag k="highway" v="residential"/>
    <tag k="maxspeed" v="50"/>
    <tag k="name" v="Millis Avenue"/>
    <tag k="source:maxspeed" v="default residential speed limit in Australia"/>
  </way>
  <way id="28640413" version="5" timestamp="2012-01-17T22:02:38Z" uid="147510" user="woodpeck_fixbot" changeset="10421060">
    <nd ref="314784485"/>
    <nd ref="314784486"/>
    <tag k="highway" v="residential"/>
    <tag k="name" v="Millis Avenue"/>
    <tag k="source:maxspeed" v="default residential speed limit in Australia"/>
  </way>
  <way id="28640414" version="4" timestamp="2010-07-09T03:08:11Z" uid="74617" user="JohnSmith" changeset="5170713">
    <nd ref="314784487"/>
    <nd ref="314784488"/>
    <tag k="highway" v="residential"/>
    <tag k="maxspeed" v="50"/>
    <tag k="maxspeed:source" v="default residential speed limit in Australia"/>
    <tag k="name" v="Enniss Avenue"/>
  </way>
  <way id="28640414" version="5" timestamp="2011-04-21T05:43:04Z" uid="4467" user="Rosscoe" changeset="7922157">
    <nd ref="314784487"/>
    <nd ref="1253601600"/>
    <nd ref="314784488"/>
    <tag k="highway" v="residential"/>
    <tag k="maxspeed" v="50"/>
    <tag k="name" v="Enniss Avenue"/>
    <tag k="source:maxspeed" v="default residential speed limit in Australia"/>
  </way>
  <way id="28640414" version="6" timestamp="2012-01-17T22:02:40Z" uid="147510" user="woodpeck_fixbot" changeset="10421060">
    <nd ref="314784487"/>
    <nd ref="1253601600"/>
    <nd ref="314784488"/>
    <tag k="highway" v="residential"/>
    <tag k="name" v="Enniss Avenue"/>
    <tag k="source:maxspeed" v="default residential speed limit in Australia"/>
  </way>
  <way id="28640415" version="3" timestamp="2010-07-09T03:10:20Z" uid="74617" user="JohnSmith" changeset="5170713">
    <nd ref="314784486"/>
    <nd ref="314784488"/>
    <nd ref="314784489"/>
    <tag k="highway" v="residential"/>
    <tag k="maxspeed" v="50"/>
    <tag k="maxspeed:source" v="default residential speed limit in Australia"/>
    <tag k="name" v="Foley Place"/>
  </way>
  <way id="28640415" version="4" timestamp="2011-04-21T05:43:09Z" uid="4467" user="Rosscoe" changeset="7922157">
    <nd ref="1253601613"/>
    <nd ref="314784486"/>
    <nd ref="314784488"/>
    <nd ref="314784489"/>
    <tag k="highway" v="residential"/>
    <tag k="maxspeed" v="50"/>
    <tag k="name" v="Foley Place"/>
    <tag k="source:maxspeed" v="default residential speed limit in Australia"/>
  </way>
  <way id="28640415" version="5" timestamp="2012-01-17T22:02:44Z" uid="147510" user="woodpeck_fixbot" changeset="10421060">
    <nd ref="1253601613"/>
    <nd ref="314784486"/>
    <nd ref="314784488"/>
    <nd ref="314784489"/>
    <tag k="highway" v="residential"/>
    <tag k="name" v="Foley Place"/>
    <tag k="source:maxspeed" v="default residential speed limit in Australia"/>
  </way>
  <way id="28640473" version="4" timestamp="2010-04-03T21:06:04Z" uid="20587" user="balrog-kun" changeset="4315899">
    <nd ref="39375379"/>
    <nd ref="39375384"/>
    <nd ref="314784800"/>
    <nd ref="314784801"/>
    <nd ref="314784807"/>
    <nd ref="39346964"/>
    <nd ref="39349145"/>
    <tag k="created_by" v="Potlatch 0.10f"/>
    <tag k="highway" v="residential"/>
    <tag k="name" v="1st Street South"/>
    <tag k="tiger:cfcc" v="A41"/>
    <tag k="tiger:county" v="Cascade, MT"/>
    <tag k="tiger:name_base" v="1st"/>
    <tag k="tiger:name_direction_suffix" v="S"/>
    <tag k="tiger:name_type" v="St"/>
    <tag k="tiger:reviewed" v="no"/>
    <tag k="tiger:separated" v="no"/>
    <tag k="tiger:source" v="tiger_import_dch_v0.6_20070813"/>
    <tag k="tiger:tlid" v="202226216:202238666:202225986:202225995"/>
    <tag k="tiger:zip_left" v="59405"/>
    <tag k="tiger:zip_right" v="59405"/>
  </way>
  <way id="28640503" version="4" timestamp="2010-04-03T21:06:04Z" uid="20587" user="balrog-kun" changeset="4315899">
    <nd ref="39344451"/>
    <nd ref="39330921"/>
    <nd ref="39344453"/>
    <nd ref="39344455"/>
    <nd ref="39344457"/>
    <nd ref="39344461"/>
    <nd ref="314787054"/>
    <nd ref="314787055"/>
    <nd ref="39298216"/>
    <tag k="created_by" v="Potlatch 0.10f"/>
    <tag k="highway" v="residential"/>
    <tag k="name" v="20th Avenue South"/>
    <tag k="tiger:cfcc" v="A41"/>
    <tag k="tiger:county" v="Cascade, MT"/>
    <tag k="tiger:name_base" v="20th"/>
    <tag k="tiger:name_direction_suffix" v="S"/>
    <tag k="tiger:name_type" v="Ave"/>
    <tag k="tiger:reviewed" v="no"/>
    <tag k="tiger:separated" v="no"/>
    <tag k="tiger:source" v="tiger_import_dch_v0.6_20070813"/>
    <tag k="tiger:tlid" v="202227126:202227136:202227153:202227057:202226385:202226387:202227080:202227088"/>
    <tag k="tiger:zip_left" v="59405"/>
    <tag k="tiger:zip_right" v="59405"/>
  </way>
  <way id="28640613" version="2" timestamp="2010-04-03T21:06:04Z" uid="20587" user="balrog-kun" changeset="4315899">
    <nd ref="39385392"/>
    <nd ref="39350311"/>
    <tag k="created_by" v="Potlatch 0.10f"/>
    <tag k="highway" v="residential"/>
    <tag k="name" v="26th Street South"/>
    <tag k="tiger:cfcc" v="A41"/>
    <tag k="tiger:county" v="Cascade, MT"/>
    <tag k="tiger:name_base" v="26th"/>
    <tag k="tiger:name_direction_suffix" v="S"/>
    <tag k="tiger:name_type" v="St"/>
    <tag k="tiger:reviewed" v="no"/>
    <tag k="tiger:separated" v="no"/>
    <tag k="tiger:source" v="tiger_import_dch_v0.6_20070813"/>
    <tag k="tiger:tlid" v="202248677:202227011:202235846:202248252:202227005:202227007:202226961:202226963:202226965:202226952:202226953:202226991:202226993:202226994:202226997:202226999:202226871:202226878:202226880:202226882:202227211"/>
    <tag k="tiger:zip_left" v="59405"/>
    <tag k="tiger:zip_right" v="59405"/>
  </way>
  <way id="28640628" version="4" timestamp="2011-04-03T16:47:22Z" uid="4467" user="Rosscoe" changeset="7756305">
    <nd ref="314787047"/>
    <nd ref="314787012"/>
    <nd ref="1231096547"/>
    <tag k="highway" v="residential"/>
    <tag k="maxspeed" v="50"/>
    <tag k="name" v="Chapel Street"/>
    <tag k="source" v="survey"/>
  </way>
  <way id="28640639" version="7" timestamp="2010-04-03T21:06:04Z" uid="20587" user="balrog-kun" changeset="4315899">
    <nd ref="39296958"/>
    <nd ref="39341266"/>
    <nd ref="351102295"/>
    <nd ref="39341193"/>
    <tag k="created_by" v="Potlatch 0.10f"/>
    <tag k="highway" v="residential"/>
    <tag k="name" v="20th Street South"/>
    <tag k="tiger:cfcc" v="A41"/>
    <tag k="tiger:county" v="Cascade, MT"/>
    <tag k="tiger:name_base" v="20th"/>
    <tag k="tiger:name_direction_suffix" v="S"/>
    <tag k="tiger:name_type" v="St"/>
    <tag k="tiger:reviewed" v="no"/>
    <tag k="tiger:separated" v="no"/>
    <tag k="tiger:source" v="tiger_import_dch_v0.6_20070813"/>
    <tag k="tiger:tlid" v="202244413:202244414"/>
  </way>
  <way id="28640645" version="2" timestamp="2010-04-03T21:06:08Z" uid="20587" user="balrog-kun" changeset="4315899">
    <nd ref="39312556"/>
    <nd ref="39343928"/>
    <nd ref="39273112"/>
    <nd ref="39345151"/>
    <nd ref="39274901"/>
    <nd ref="39345866"/>
    <nd ref="39303839"/>
    <nd ref="39344453"/>
    <nd ref="39313257"/>
    <nd ref="39352606"/>
    <nd ref="39304376"/>
    <nd ref="39343498"/>
    <nd ref="39313131"/>
    <nd ref="39330407"/>
    <nd ref="39326980"/>
    <nd ref="39352616"/>
    <tag k="created_by" v="Potlatch 0.10f"/>
    <tag k="highway" v="residential"/>
    <tag k="name" v="16th Street South"/>
    <tag k="tiger:cfcc" v="A41"/>
    <tag k="tiger:county" v="Cascade, MT"/>
    <tag k="tiger:name_base" v="16th"/>
    <tag k="tiger:name_direction_suffix" v="S"/>
    <tag k="tiger:name_type" v="St"/>
    <tag k="tiger:reviewed" v="no"/>
    <tag k="tiger:separated" v="no"/>
    <tag k="tiger:source" v="tiger_import_dch_v0.6_20070813"/>
    <tag k="tiger:tlid" v="202248228:202248229:202244353:202246281:202244271:202244290:202244291:202244286:202246283:202244259:202243911:202243912:202243953:202243954:202244254:202244255:202240366:202227067:202243908:202226660:202237817"/>
    <tag k="tiger:zip_left" v="59405"/>
    <tag k="tiger:zip_left_1" v="59405"/>
    <tag k="tiger:zip_right" v="59405"/>
    <tag k="tiger:zip_right_1" v="59405"/>
  </way>
  <way id="28640665" version="7" timestamp="2010-04-03T21:06:09Z" uid="20587" user="balrog-kun" changeset="4315899">
    <nd ref="39349222"/>
    <nd ref="39349227"/>
    <nd ref="39349232"/>
    <nd ref="39349235"/>
    <nd ref="314787419"/>
    <nd ref="314787420"/>
    <nd ref="314787421"/>
    <nd ref="314787422"/>
    <nd ref="314787423"/>
    <nd ref="351102599"/>
    <nd ref="314787424"/>
    <tag k="created_by" v="Potlatch 0.10f"/>
    <tag k="highway" v="residential"/>
    <tag k="name" v="15th Avenue South"/>
    <tag k="tiger:cfcc" v="A41"/>
    <tag k="tiger:county" v="Cascade, MT"/>
    <tag k="tiger:name_base" v="15th"/>
    <tag k="tiger:name_direction_suffix" v="S"/>
    <tag k="tiger:name_type" v="Ave"/>
    <tag k="tiger:reviewed" v="no"/>
    <tag k="tiger:separated" v="no"/>
    <tag k="tiger:source" v="tiger_import_dch_v0.6_20070813"/>
    <tag k="tiger:tlid" v="202227576:202247349:202243556:202248432:202227002:202235504"/>
    <tag k="tiger:zip_left" v="59405"/>
    <tag k="tiger:zip_right" v="59405"/>
  </way>
  <way id="28640698" version="3" timestamp="2010-04-03T21:06:09Z" uid="20587" user="balrog-kun" changeset="4315899">
    <nd ref="314787817"/>
    <nd ref="314787808"/>
    <nd ref="314787818"/>
    <nd ref="314787819"/>
    <nd ref="314787820"/>
    <nd ref="314787821"/>
    <nd ref="314787816"/>
    <tag k="created_by" v="Potlatch 0.10f"/>
    <tag k="highway" v="residential"/>
    <tag k="name" v="44th Street South"/>
  </way>
  <way id="28640804" version="2" timestamp="2010-04-03T21:06:09Z" uid="20587" user="balrog-kun" changeset="4315899">
    <nd ref="39369512"/>
    <nd ref="39352352"/>
    <nd ref="39339586"/>
    <nd ref="39340971"/>
    <nd ref="39343089"/>
    <nd ref="314788254"/>
    <nd ref="39335516"/>
    <tag k="created_by" v="Potlatch 0.10f"/>
    <tag k="highway" v="residential"/>
    <tag k="name" v="5th Street North"/>
    <tag k="tiger:cfcc" v="A41"/>
    <tag k="tiger:county" v="Cascade, MT"/>
    <tag k="tiger:name_base" v="5th"/>
    <tag k="tiger:name_direction_suffix" v="N"/>
    <tag k="tiger:name_type" v="St"/>
    <tag k="tiger:reviewed" v="no"/>
    <tag k="tiger:separated" v="no"/>
    <tag k="tiger:source" v="tiger_import_dch_v0.6_20070813"/>
    <tag k="tiger:tlid" v="202225812:202225814:202225815:202225824:202225826:202225859:202225828"/>
    <tag k="tiger:zip_left" v="59401"/>
    <tag k="tiger:zip_right" v="59401"/>
  </way>
  <way id="28640805" version="2" timestamp="2010-04-03T21:06:10Z" uid="20587" user="balrog-kun" changeset="4315899">
    <nd ref="39366558"/>
    <nd ref="39352353"/>
    <nd ref="39339589"/>
    <nd ref="39340973"/>
    <nd ref="39343093"/>
    <nd ref="39335517"/>
    <nd ref="39336841"/>
    <tag k="created_by" v="Potlatch 0.10f"/>
    <tag k="highway" v="residential"/>
    <tag k="name" v="6th Street North"/>
    <tag k="tiger:cfcc" v="A41"/>
    <tag k="tiger:county" v="Cascade, MT"/>
    <tag k="tiger:name_base" v="6th"/>
    <tag k="tiger:name_direction_suffix" v="N"/>
    <tag k="tiger:name_type" v="St"/>
    <tag k="tiger:reviewed" v="no"/>
    <tag k="tiger:separated" v="no"/>
    <tag k="tiger:source" v="tiger_import_dch_v0.6_20070813"/>
    <tag k="tiger:tlid" v="202225817:202225819:202223359:202225830:202225832:202225834:202225822:202225865"/>
    <tag k="tiger:zip_left" v="59401"/>
    <tag k="tiger:zip_right" v="59401"/>
  </way>
  <way id="28640809" version="8" timestamp="2010-04-03T21:06:11Z" uid="20587" user="balrog-kun" changeset="4315899">
    <nd ref="314536739"/>
    <nd ref="39343741"/>
    <nd ref="39343743"/>
    <nd ref="39343745"/>
    <nd ref="39343748"/>
    <nd ref="39343750"/>
    <tag k="created_by" v="Potlatch 0.10f"/>
    <tag k="highway" v="primary"/>
    <tag k="name" v="1st Avenue North"/>
    <tag k="oneway" v="yes"/>
    <tag k="tiger:cfcc" v="A41"/>
    <tag k="tiger:county" v="Cascade, MT"/>
    <tag k="tiger:name_base" v="1st"/>
    <tag k="tiger:name_direction_suffix" v="N"/>
    <tag k="tiger:name_type" v="Ave"/>
    <tag k="tiger:reviewed" v="no"/>
    <tag k="tiger:separated" v="no"/>
    <tag k="tiger:source" v="tiger_import_dch_v0.6_20070813"/>
    <tag k="tiger:tlid" v="202246048:202227681:202227425:202227443:202227449:202227505:202227508:202227509:202227675:202226811:202226809:202226866:202226883:202226889:202226785:202226561:202226567:202226790:202226545:202226455:202226475:202226479:202226552:202226449:202226074:20222"/>
    <tag k="tiger:zip_left" v="59401"/>
    <tag k="tiger:zip_right" v="59401"/>
  </way>
  <way id="28640809" version="9" timestamp="2011-12-28T02:41:05Z" uid="207745" user="NE2" changeset="10221685">
    <nd ref="314536739"/>
    <nd ref="39343741"/>
    <nd ref="39343743"/>
    <nd ref="39343745"/>
    <nd ref="39343748"/>
    <tag k="highway" v="primary"/>
    <tag k="name" v="1st Avenue North"/>
    <tag k="oneway" v="yes"/>
    <tag k="ref" v="I 15 Business"/>
    <tag k="tiger:cfcc" v="A41"/>
    <tag k="tiger:county" v="Cascade, MT"/>
    <tag k="tiger:name_base" v="1st"/>
    <tag k="tiger:name_direction_suffix" v="N"/>
    <tag k="tiger:name_type" v="Ave"/>
    <tag k="tiger:reviewed" v="no"/>
    <tag k="tiger:separated" v="no"/>
    <tag k="tiger:source" v="tiger_import_dch_v0.6_20070813"/>
    <tag k="tiger:tlid" v="202246048:202227681:202227425:202227443:202227449:202227505:202227508:202227509:202227675:202226811:202226809:202226866:202226883:202226889:202226785:202226561:202226567:202226790:202226545:202226455:202226475:202226479:202226552:202226449:202226074:20222"/>
    <tag k="tiger:zip_left" v="59401"/>
    <tag k="tiger:zip_right" v="59401"/>
  </way>
  <way id="28640813" version="5" timestamp="2010-04-03T21:06:11Z" uid="20587" user="balrog-kun" changeset="4315899">
    <nd ref="39343830"/>
    <nd ref="39343416"/>
    <tag k="created_by" v="Potlatch 0.10f"/>
    <tag k="highway" v="residential"/>
    <tag k="name" v="1st Avenue North"/>
    <tag k="tiger:cfcc" v="A41"/>
    <tag k="tiger:county" v="Cascade, MT"/>
    <tag k="tiger:name_base" v="1st"/>
    <tag k="tiger:name_direction_suffix" v="N"/>
    <tag k="tiger:name_type" v="Ave"/>
    <tag k="tiger:reviewed" v="no"/>
    <tag k="tiger:separated" v="no"/>
    <tag k="tiger:source" v="tiger_import_dch_v0.6_20070813"/>
    <tag k="tiger:tlid" v="202246048:202227681:202227425:202227443:202227449:202227505:202227508:202227509:202227675:202226811:202226809:202226866:202226883:202226889:202226785:202226561:202226567:202226790:202226545:202226455:202226475:202226479:202226552:202226449:202226074:20222"/>
    <tag k="tiger:zip_left" v="59401"/>
    <tag k="tiger:zip_right" v="59401"/>
  </way>
  <way id="28640814" version="4" timestamp="2010-04-03T21:06:11Z" uid="20587" user="balrog-kun" changeset="4315899">
    <nd ref="39343419"/>
    <nd ref="314981950"/>
    <tag k="created_by" v="Potlatch 0.10f"/>
    <tag k="highway" v="residential"/>
    <tag k="name" v="37th Street North"/>
    <tag k="oneway" v="yes"/>
    <tag k="tiger:cfcc" v="A41"/>
    <tag k="tiger:county" v="Cascade, MT"/>
    <tag k="tiger:name_base" v="37th"/>
    <tag k="tiger:name_direction_suffix" v="N"/>
    <tag k="tiger:name_type" v="St"/>
    <tag k="tiger:reviewed" v="no"/>
    <tag k="tiger:separated" v="no"/>
    <tag k="tiger:source" v="tiger_import_dch_v0.6_20070813"/>
    <tag k="tiger:tlid" v="202227640:202227642:202227638:202227652:202227653:202227682:202227656"/>
    <tag k="tiger:zip_left" v="59401"/>
    <tag k="tiger:zip_right" v="59401"/>
  </way>
  <way id="28640815" version="8" timestamp="2010-04-03T21:06:11Z" uid="20587" user="balrog-kun" changeset="4315899">
    <nd ref="39343416"/>
    <nd ref="314981351"/>
    <tag k="created_by" v="Potlatch 0.10f"/>
    <tag k="highway" v="secondary"/>
    <tag k="name" v="37th Street North"/>
    <tag k="oneway" v="yes"/>
    <tag k="tiger:cfcc" v="A41"/>
    <tag k="tiger:county" v="Cascade, MT"/>
    <tag k="tiger:name_base" v="37th"/>
    <tag k="tiger:name_direction_suffix" v="N"/>
    <tag k="tiger:name_type" v="St"/>
    <tag k="tiger:reviewed" v="no"/>
    <tag k="tiger:separated" v="no"/>
    <tag k="tiger:source" v="tiger_import_dch_v0.6_20070813"/>
    <tag k="tiger:tlid" v="202227640:202227642:202227638:202227652:202227653:202227682:202227656"/>
    <tag k="tiger:zip_left" v="59401"/>
    <tag k="tiger:zip_right" v="59401"/>
  </way>
  <way id="28640840" version="11" timestamp="2010-04-03T21:06:11Z" uid="20587" user="balrog-kun" changeset="4315899">
    <nd ref="39376690"/>
    <nd ref="356512939"/>
    <nd ref="39373616"/>
    <nd ref="39302582"/>
    <nd ref="39345669"/>
    <tag k="created_by" v="Potlatch 0.10f"/>
    <tag k="highway" v="residential"/>
    <tag k="name" v="2nd Avenue North"/>
    <tag k="oneway" v="yes"/>
    <tag k="tiger:cfcc" v="A41"/>
    <tag k="tiger:county" v="Cascade, MT"/>
    <tag k="tiger:name_base" v="2nd"/>
    <tag k="tiger:name_direction_suffix" v="N"/>
    <tag k="tiger:name_type" v="Ave"/>
    <tag k="tiger:reviewed" v="no"/>
    <tag k="tiger:separated" v="no"/>
    <tag k="tiger:source" v="tiger_import_dch_v0.6_20070813"/>
    <tag k="tiger:tlid" v="202228355:202248523:202248524:202230295:202228347"/>
    <tag k="tiger:zip_left" v="59405"/>
    <tag k="tiger:zip_right" v="59405"/>
  </way>
  <way id="28640840" version="12" timestamp="2012-02-21T04:33:10Z" uid="586944" user="mesteve" changeset="10747092">
    <nd ref="39376690"/>
    <nd ref="39373616"/>
    <tag k="highway" v="tertiary"/>
    <tag k="name" v="2nd Avenue North"/>
    <tag k="oneway" v="yes"/>
  </way>
  <way id="28640843" version="10" timestamp="2010-04-03T21:06:12Z" uid="20587" user="balrog-kun" changeset="4315899">
    <nd ref="314981351"/>
    <nd ref="314789417"/>
    <nd ref="314789413"/>
    <nd ref="314789414"/>
    <nd ref="314789420"/>
    <nd ref="314789416"/>
    <nd ref="314789427"/>
    <nd ref="314789428"/>
    <tag k="created_by" v="Potlatch 0.10f"/>
    <tag k="highway" v="secondary"/>
    <tag k="name" v="2nd Avenue North"/>
    <tag k="name_1" v="I-15 (Bus)"/>
    <tag k="oneway" v="yes"/>
    <tag k="tiger:cfcc" v="A41"/>
    <tag k="tiger:county" v="Cascade, MT"/>
    <tag k="tiger:name_base" v="2nd"/>
    <tag k="tiger:name_base_1" v="I-15 (Bus)"/>
    <tag k="tiger:name_direction_suffix" v="N"/>
    <tag k="tiger:name_type" v="Ave"/>
    <tag k="tiger:reviewed" v="no"/>
    <tag k="tiger:separated" v="no"/>
    <tag k="tiger:source" v="tiger_import_dch_v0.6_20070813"/>
    <tag k="tiger:tlid" v="202248166:202248510:202248511:202248513:202248514:202248154:202248155:202227897"/>
    <tag k="tiger:zip_left" v="59405"/>
    <tag k="tiger:zip_right" v="59405"/>
  </way>
  <way id="28640843" version="11" timestamp="2012-02-21T04:47:05Z" uid="586944" user="mesteve" changeset="10747092">
    <nd ref="314981351"/>
    <nd ref="314789417"/>
    <nd ref="314789413"/>
    <nd ref="314789414"/>
    <nd ref="314789420"/>
    <nd ref="314789416"/>
    <nd ref="314789427"/>
    <tag k="highway" v="secondary"/>
    <tag k="name" v="2nd Avenue North"/>
    <tag k="name_1" v="I-15 (Bus)"/>
    <tag k="oneway" v="yes"/>
    <tag k="tiger:cfcc" v="A41"/>
    <tag k="tiger:county" v="Cascade, MT"/>
    <tag k="tiger:name_base" v="2nd"/>
    <tag k="tiger:name_base_1" v="I-15 (Bus)"/>
    <tag k="tiger:name_direction_suffix" v="N"/>
    <tag k="tiger:name_type" v="Ave"/>
    <tag k="tiger:reviewed" v="no"/>
    <tag k="tiger:separated" v="no"/>
    <tag k="tiger:source" v="tiger_import_dch_v0.6_20070813"/>
    <tag k="tiger:tlid" v="202248166:202248510:202248511:202248513:202248514:202248154:202248155:202227897"/>
    <tag k="tiger:zip_left" v="59405"/>
    <tag k="tiger:zip_right" v="59405"/>
  </way>
  <way id="28640857" version="4" timestamp="2009-07-25T20:33:44Z" uid="23543" user="jkjk" changeset="1938567">
    <nd ref="25657935"/>
    <nd ref="314789647"/>
    <nd ref="314789648"/>
    <nd ref="431313108"/>
    <nd ref="25657934"/>
    <nd ref="314789637"/>
    <nd ref="431313101"/>
    <nd ref="431313136"/>
    <nd ref="314789638"/>
    <nd ref="314789639"/>
    <nd ref="431317010"/>
    <nd ref="314789640"/>
    <nd ref="314789641"/>
    <nd ref="25657942"/>
    <nd ref="314789642"/>
    <nd ref="447992914"/>
    <nd ref="447992917"/>
    <nd ref="447992919"/>
    <nd ref="447992921"/>
    <nd ref="314789643"/>
    <nd ref="447992969"/>
    <nd ref="314789644"/>
    <nd ref="447992865"/>
    <nd ref="314789645"/>
    <nd ref="314789646"/>
    <nd ref="25657935"/>
    <tag k="area" v="yes"/>
    <tag k="highway" v="pedestrian"/>
    <tag k="name" v="Betlémské náměstí"/>
    <tag k="source" v="cuzk:km"/>
  </way>
  <way id="28640857" version="5" timestamp="2009-11-02T21:20:29Z" uid="3516" user="BiIbo" changeset="3020064">
    <nd ref="25657935"/>
    <nd ref="314789647"/>
    <nd ref="314789648"/>
    <nd ref="431313108"/>
    <nd ref="25657934"/>
    <nd ref="314789637"/>
    <nd ref="431313101"/>
    <nd ref="431313136"/>
    <nd ref="314789638"/>
    <nd ref="314789639"/>
    <nd ref="431317010"/>
    <nd ref="314789640"/>
    <nd ref="314789641"/>
    <nd ref="25657942"/>
    <nd ref="314789642"/>
    <nd ref="447992914"/>
    <nd ref="447992917"/>
    <nd ref="447992919"/>
    <nd ref="447992921"/>
    <nd ref="314789643"/>
    <nd ref="447992969"/>
    <nd ref="552409152"/>
    <nd ref="314789644"/>
    <nd ref="447992865"/>
    <nd ref="314789645"/>
    <nd ref="314789646"/>
    <nd ref="25657935"/>
    <tag k="area" v="yes"/>
    <tag k="highway" v="pedestrian"/>
    <tag k="name" v="Betlémské náměstí"/>
    <tag k="source" v="cuzk:km"/>
  </way>
  <way id="28640857" version="6" timestamp="2011-02-28T20:49:16Z" uid="42429" user="FK270673" changeset="7424353">
    <nd ref="25657935"/>
    <nd ref="314789647"/>
    <nd ref="314789648"/>
    <nd ref="431313108"/>
    <nd ref="25657934"/>
    <nd ref="314789637"/>
    <nd ref="431313101"/>
    <nd ref="431313136"/>
    <nd ref="314789638"/>
    <nd ref="314789639"/>
    <nd ref="431317010"/>
    <nd ref="314789640"/>
    <nd ref="314789641"/>
    <nd ref="25657942"/>
    <nd ref="314789642"/>
    <nd ref="447992914"/>
    <nd ref="447992917"/>
    <nd ref="447992919"/>
    <nd ref="447992921"/>
    <nd ref="314789643"/>
    <nd ref="447992969"/>
    <nd ref="552409152"/>
    <nd ref="314789644"/>
    <nd ref="447992865"/>
    <nd ref="314789645"/>
    <nd ref="314789646"/>
    <nd ref="25657935"/>
    <tag k="area" v="yes"/>
    <tag k="highway" v="pedestrian"/>
    <tag k="name" v="Betlémské náměstí"/>
    <tag k="name:de" v="Bethlehemsplatz"/>
    <tag k="name:nl" v="Bethlehemplein"/>
    <tag k="source" v="cuzk:km"/>
  </way>
  <way id="28640857" version="7" timestamp="2011-08-27T11:02:20Z" uid="17615" user="Petr Dlouhý" changeset="9136743">
    <nd ref="25657935"/>
    <nd ref="314789647"/>
    <nd ref="314789648"/>
    <nd ref="431313108"/>
    <nd ref="25657934"/>
    <nd ref="314789637"/>
    <nd ref="431313101"/>
    <nd ref="431313136"/>
    <nd ref="314789638"/>
    <nd ref="314789639"/>
    <nd ref="431317010"/>
    <nd ref="314789640"/>
    <nd ref="314789641"/>
    <nd ref="25657942"/>
    <nd ref="314789642"/>
    <nd ref="447992914"/>
    <nd ref="447992917"/>
    <nd ref="447992919"/>
    <nd ref="447992921"/>
    <nd ref="314789643"/>
    <nd ref="447992969"/>
    <nd ref="552409152"/>
    <nd ref="314789644"/>
    <nd ref="447992865"/>
    <nd ref="314789645"/>
    <nd ref="314789646"/>
    <nd ref="25657935"/>
    <tag k="area" v="yes"/>
    <tag k="highway" v="pedestrian"/>
    <tag k="name" v="Betlémské náměstí"/>
    <tag k="name:de" v="Bethlehemsplatz"/>
    <tag k="name:nl" v="Bethlehemplein"/>
    <tag k="source" v="cuzk:km"/>
    <tag k="surface" v="cobblestone"/>
  </way>
  <way id="28640889" version="4" timestamp="2010-04-03T04:03:48Z" uid="20587" user="balrog-kun" changeset="4309442">
    <nd ref="314788722"/>
    <nd ref="314788723"/>
    <nd ref="316518193"/>
    <nd ref="312791595"/>
    <nd ref="316518192"/>
    <nd ref="312791597"/>
    <tag k="highway" v="secondary"/>
    <tag k="name" v="North Perryville Road"/>
  </way>
  <way id="28640890" version="3" timestamp="2010-04-03T04:03:48Z" uid="20587" user="balrog-kun" changeset="4309442">
    <nd ref="314788722"/>
    <nd ref="314789903"/>
    <nd ref="314789904"/>
    <tag k="highway" v="secondary"/>
    <tag k="name" v="South Perryville Road"/>
  </way>
  <way id="28640891" version="4" timestamp="2010-04-03T04:03:48Z" uid="20587" user="balrog-kun" changeset="4309442">
    <nd ref="314788726"/>
    <nd ref="314788729"/>
    <nd ref="314788728"/>
    <nd ref="314788727"/>
    <nd ref="312682383"/>
    <nd ref="312682382"/>
    <nd ref="312682384"/>
    <nd ref="312682385"/>
    <nd ref="372174159"/>
    <tag k="highway" v="secondary"/>
    <tag k="name" v="North Jackrabbit Trail"/>
  </way>
  <way id="28640891" version="5" timestamp="2012-02-22T15:37:03Z" uid="4111" user="adenium" changeset="10760223">
    <nd ref="314788726"/>
    <nd ref="314788729"/>
    <nd ref="314788728"/>
    <nd ref="314788727"/>
    <nd ref="312682383"/>
    <nd ref="312682382"/>
    <nd ref="312682384"/>
    <nd ref="41921823"/>
    <tag k="highway" v="secondary"/>
    <tag k="name" v="North Jackrabbit Trail"/>
  </way>
  <way id="28640892" version="3" timestamp="2010-04-03T04:03:48Z" uid="20587" user="balrog-kun" changeset="4309442">
    <nd ref="314788726"/>
    <nd ref="314789905"/>
    <nd ref="314789906"/>
    <nd ref="314789907"/>
    <tag k="highway" v="secondary"/>
    <tag k="name" v="South Jackrabbit Trail"/>
  </way>
  <way id="28640892" version="4" timestamp="2012-02-22T18:00:23Z" uid="4111" user="adenium" changeset="10761428">
    <nd ref="314788726"/>
    <nd ref="314789905"/>
    <nd ref="1643301129"/>
    <nd ref="314789906"/>
    <nd ref="314789907"/>
    <tag k="highway" v="secondary"/>
    <tag k="name" v="South Jackrabbit Trail"/>
  </way>
  <way id="28640895" version="2" timestamp="2010-04-03T04:03:49Z" uid="20587" user="balrog-kun" changeset="4309442">
    <nd ref="314789904"/>
    <nd ref="314789913"/>
    <tag k="bridge" v="yes"/>
    <tag k="created_by" v="Merkaartor 0.12"/>
    <tag k="highway" v="unclassified"/>
    <tag k="layer" v="1"/>
    <tag k="name" v="South Perryville Road"/>
  </way>
  <way id="28640896" version="3" timestamp="2010-04-03T04:03:49Z" uid="20587" user="balrog-kun" changeset="4309442">
    <nd ref="314789913"/>
    <nd ref="314789908"/>
    <nd ref="314669952"/>
    <nd ref="314669951"/>
    <nd ref="314669949"/>
    <nd ref="314669948"/>
    <nd ref="314669933"/>
    <nd ref="314669931"/>
    <nd ref="314669930"/>
    <nd ref="314669928"/>
    <nd ref="314669924"/>
    <nd ref="314669921"/>
    <nd ref="314669917"/>
    <nd ref="314669914"/>
    <nd ref="314669912"/>
    <nd ref="314392157"/>
    <nd ref="314392159"/>
    <nd ref="314392160"/>
    <nd ref="314392162"/>
    <nd ref="314392151"/>
    <nd ref="314392163"/>
    <nd ref="314392165"/>
    <tag k="highway" v="secondary"/>
    <tag k="name" v="South Perryville Road"/>
  </way>
  <way id="28640898" version="3" timestamp="2009-04-24T07:21:36Z" uid="1066" user="pavel" changeset="923907">
    <nd ref="25670313"/>
    <nd ref="25670329"/>
    <nd ref="314789923"/>
    <nd ref="315982511"/>
    <nd ref="314789919"/>
    <nd ref="382922851"/>
    <nd ref="25670323"/>
    <nd ref="314789922"/>
    <nd ref="25670322"/>
    <nd ref="25670319"/>
    <tag k="highway" v="service"/>
    <tag k="name" v="autobusové nádraží Českomoravská"/>
  </way>
  <way id="28640898" version="4" timestamp="2011-02-03T23:21:15Z" uid="3516" user="BiIbo" changeset="7177737">
    <nd ref="25670313"/>
    <nd ref="1134638690"/>
    <nd ref="25670329"/>
    <nd ref="314789923"/>
    <nd ref="315982511"/>
    <nd ref="314789919"/>
    <nd ref="382922851"/>
    <nd ref="25670323"/>
    <nd ref="314789922"/>
    <nd ref="1134638787"/>
    <nd ref="25670322"/>
    <nd ref="25670319"/>
    <tag k="highway" v="service"/>
    <tag k="name" v="autobusové nádraží Českomoravská"/>
  </way>
  <way id="28640898" version="5" timestamp="2011-04-25T16:04:47Z" uid="3516" user="BiIbo" changeset="7961486">
    <nd ref="25670313"/>
    <nd ref="1134638690"/>
    <nd ref="1259714843"/>
    <nd ref="25670329"/>
    <nd ref="314789923"/>
    <nd ref="315982511"/>
    <nd ref="314789919"/>
    <nd ref="382922851"/>
    <nd ref="25670323"/>
    <nd ref="314789922"/>
    <nd ref="1134638787"/>
    <nd ref="25670322"/>
    <nd ref="25670319"/>
    <tag k="highway" v="service"/>
    <tag k="name" v="autobusové nádraží Českomoravská"/>
  </way>
  <way id="28640904" version="2" timestamp="2010-04-03T04:03:49Z" uid="20587" user="balrog-kun" changeset="4309442">
    <nd ref="314789907"/>
    <nd ref="314789929"/>
    <tag k="bridge" v="yes"/>
    <tag k="created_by" v="Merkaartor 0.12"/>
    <tag k="highway" v="unclassified"/>
    <tag k="layer" v="1"/>
    <tag k="name" v="South Jackrabbit Trail"/>
  </way>
  <way id="28640905" version="3" timestamp="2010-04-03T04:03:49Z" uid="20587" user="balrog-kun" changeset="4309442">
    <nd ref="314789929"/>
    <nd ref="314789924"/>
    <nd ref="314669956"/>
    <nd ref="314669947"/>
    <nd ref="314669939"/>
    <nd ref="313566163"/>
    <nd ref="313566157"/>
    <nd ref="313552723"/>
    <nd ref="313552721"/>
    <nd ref="313552717"/>
    <nd ref="313552716"/>
    <nd ref="313552715"/>
    <nd ref="314392344"/>
    <nd ref="313552714"/>
    <tag k="highway" v="secondary"/>
    <tag k="name" v="South Jackrabbit Trail"/>
  </way>
  <way id="28640906" version="3" timestamp="2010-04-03T04:03:49Z" uid="20587" user="balrog-kun" changeset="4309442">
    <nd ref="314789930"/>
    <nd ref="314789931"/>
    <nd ref="314789932"/>
    <nd ref="314789917"/>
    <nd ref="314789933"/>
    <nd ref="314789934"/>
    <nd ref="314789935"/>
    <nd ref="314789936"/>
    <nd ref="314788725"/>
    <tag k="created_by" v="Merkaartor 0.12"/>
    <tag k="highway" v="residential"/>
    <tag k="name" v="North 191st Avenue"/>
  </way>
  <way id="28640907" version="3" timestamp="2010-04-03T04:03:50Z" uid="20587" user="balrog-kun" changeset="4309442">
    <nd ref="312791595"/>
    <nd ref="314789937"/>
    <nd ref="314789930"/>
    <nd ref="314789938"/>
    <nd ref="314789939"/>
    <tag k="created_by" v="Merkaartor 0.12"/>
    <tag k="highway" v="residential"/>
    <tag k="name" v="West Culver Street"/>
  </way>
  <way id="28640908" version="3" timestamp="2010-04-03T04:03:50Z" uid="20587" user="balrog-kun" changeset="4309442">
    <nd ref="314788729"/>
    <nd ref="314789936"/>
    <tag k="created_by" v="Merkaartor 0.12"/>
    <tag k="highway" v="residential"/>
    <tag k="name" v="West Melvin Street"/>
  </way>
  <way id="28640909" version="3" timestamp="2010-04-03T04:03:50Z" uid="20587" user="balrog-kun" changeset="4309442">
    <nd ref="314789935"/>
    <nd ref="314788728"/>
    <tag k="created_by" v="Merkaartor 0.12"/>
    <tag k="highway" v="residential"/>
    <tag k="name" v="West Taylor Street"/>
  </way>
  <way id="28640910" version="3" timestamp="2010-04-03T04:03:50Z" uid="20587" user="balrog-kun" changeset="4309442">
    <nd ref="314789933"/>
    <nd ref="314789940"/>
    <nd ref="314789941"/>
    <nd ref="314789942"/>
    <nd ref="314788727"/>
    <tag k="created_by" v="Merkaartor 0.12"/>
    <tag k="highway" v="residential"/>
    <tag k="name" v="West Fillmore Street"/>
  </way>
  <way id="28640911" version="3" timestamp="2010-04-03T04:03:50Z" uid="20587" user="balrog-kun" changeset="4309442">
    <nd ref="314789942"/>
    <nd ref="314789914"/>
    <nd ref="314789943"/>
    <nd ref="314789944"/>
    <tag k="created_by" v="Merkaartor 0.12"/>
    <tag k="highway" v="residential"/>
    <tag k="name" v="North 194th Avenue"/>
  </way>
  <way id="28640912" version="3" timestamp="2010-04-03T04:03:50Z" uid="20587" user="balrog-kun" changeset="4309442">
    <nd ref="314789941"/>
    <nd ref="314789915"/>
    <nd ref="314789939"/>
    <nd ref="314789945"/>
    <nd ref="314789946"/>
    <tag k="created_by" v="Merkaartor 0.12"/>
    <tag k="highway" v="residential"/>
    <tag k="name" v="North 193rd Avenue"/>
  </way>
  <way id="28640913" version="3" timestamp="2010-04-03T04:03:50Z" uid="20587" user="balrog-kun" changeset="4309442">
    <nd ref="314789940"/>
    <nd ref="314789916"/>
    <nd ref="314789938"/>
    <nd ref="314789947"/>
    <tag k="created_by" v="Merkaartor 0.12"/>
    <tag k="highway" v="residential"/>
    <tag k="name" v="North 192nd Avenue"/>
  </way>
  <way id="28640915" version="3" timestamp="2010-04-03T04:03:50Z" uid="20587" user="balrog-kun" changeset="4309442">
    <nd ref="314789949"/>
    <nd ref="314789931"/>
    <tag k="created_by" v="Merkaartor 0.12"/>
    <tag k="highway" v="residential"/>
    <tag k="name" v="West Latham Street"/>
  </way>
  <way id="28640916" version="3" timestamp="2010-04-03T04:03:50Z" uid="20587" user="balrog-kun" changeset="4309442">
    <nd ref="314789948"/>
    <nd ref="314789932"/>
    <tag k="created_by" v="Merkaartor 0.12"/>
    <tag k="highway" v="residential"/>
    <tag k="name" v="West Portland Street"/>
  </way>
  <way id="28640956" version="4" timestamp="2010-07-08T16:16:21Z" uid="74617" user="JohnSmith" changeset="5167338">
    <nd ref="314790560"/>
    <nd ref="257671451"/>
    <tag k="highway" v="residential"/>
    <tag k="maxspeed" v="50"/>
    <tag k="maxspeed:source" v="default residential speed limit in Australia"/>
    <tag k="name" v="McKenna Cre4scent"/>
    <tag k="source" v="survey"/>
  </way>
  <way id="28640956" version="5" timestamp="2012-01-17T22:02:46Z" uid="147510" user="woodpeck_fixbot" changeset="10421060">
    <nd ref="314790560"/>
    <nd ref="257671451"/>
    <tag k="highway" v="residential"/>
    <tag k="name" v="McKenna Cre4scent"/>
    <tag k="source" v="survey"/>
  </way>
  <way id="28640958" version="3" timestamp="2010-07-08T16:13:33Z" uid="74617" user="JohnSmith" changeset="5167338">
    <nd ref="257671487"/>
    <nd ref="314790571"/>
    <nd ref="314790572"/>
    <nd ref="314790573"/>
    <nd ref="314790574"/>
    <nd ref="314790575"/>
    <tag k="highway" v="residential"/>
    <tag k="maxspeed" v="50"/>
    <tag k="maxspeed:source" v="default residential speed limit in Australia"/>
    <tag k="name" v="Mills Crescent"/>
    <tag k="source" v="survey"/>
  </way>
  <way id="28640958" version="4" timestamp="2012-01-17T22:02:50Z" uid="147510" user="woodpeck_fixbot" changeset="10421060">
    <nd ref="257671487"/>
    <nd ref="314790571"/>
    <nd ref="314790572"/>
    <nd ref="314790573"/>
    <nd ref="314790574"/>
    <nd ref="314790575"/>
    <tag k="highway" v="residential"/>
    <tag k="name" v="Mills Crescent"/>
    <tag k="source" v="survey"/>
  </way>
  <way id="28640959" version="4" timestamp="2010-07-08T16:15:35Z" uid="74617" user="JohnSmith" changeset="5167338">
    <nd ref="314790576"/>
    <nd ref="314790577"/>
    <nd ref="314790578"/>
    <nd ref="314790557"/>
    <tag k="highway" v="residential"/>
    <tag k="maxspeed" v="50"/>
    <tag k="maxspeed:source" v="default residential speed limit in Australia"/>
    <tag k="name" v="Bacon Close"/>
    <tag k="source" v="survey"/>
  </way>
  <way id="28640959" version="5" timestamp="2012-01-17T22:02:51Z" uid="147510" user="woodpeck_fixbot" changeset="10421060">
    <nd ref="314790576"/>
    <nd ref="314790577"/>
    <nd ref="314790578"/>
    <nd ref="314790557"/>
    <tag k="highway" v="residential"/>
    <tag k="name" v="Bacon Close"/>
    <tag k="source" v="survey"/>
  </way>
  <way id="28640961" version="5" timestamp="2010-07-08T16:16:13Z" uid="74617" user="JohnSmith" changeset="5167338">
    <nd ref="257671484"/>
    <nd ref="314790580"/>
    <nd ref="314790581"/>
    <nd ref="314790583"/>
    <nd ref="314790584"/>
    <nd ref="314790585"/>
    <nd ref="314790586"/>
    <nd ref="314790587"/>
    <tag k="highway" v="residential"/>
    <tag k="maxspeed" v="50"/>
    <tag k="maxspeed:source" v="default residential speed limit in Australia"/>
    <tag k="name" v="Dewing Close"/>
    <tag k="source" v="survey"/>
  </way>
  <way id="28640961" version="6" timestamp="2012-01-17T22:02:53Z" uid="147510" user="woodpeck_fixbot" changeset="10421060">
    <nd ref="257671484"/>
    <nd ref="314790580"/>
    <nd ref="314790581"/>
    <nd ref="314790583"/>
    <nd ref="314790584"/>
    <nd ref="314790585"/>
    <nd ref="314790586"/>
    <nd ref="314790587"/>
    <tag k="highway" v="residential"/>
    <tag k="name" v="Dewing Close"/>
    <tag k="source" v="survey"/>
  </way>
  <way id="28640971" version="2" timestamp="2010-07-09T03:22:56Z" uid="74617" user="JohnSmith" changeset="5170713">
    <nd ref="314790633"/>
    <nd ref="314790635"/>
    <nd ref="314790636"/>
    <tag k="highway" v="residential"/>
    <tag k="maxspeed" v="50"/>
    <tag k="maxspeed:source" v="default residential speed limit in Australia"/>
    <tag k="name" v="Moule Avenue"/>
    <tag k="source" v="MMBW"/>
  </way>
  <way id="28640971" version="3" timestamp="2012-01-17T22:02:54Z" uid="147510" user="woodpeck_fixbot" changeset="10421060">
    <nd ref="314790633"/>
    <nd ref="314790635"/>
    <nd ref="314790636"/>
    <tag k="highway" v="residential"/>
    <tag k="name" v="Moule Avenue"/>
    <tag k="source" v="MMBW"/>
  </way>
  <way id="28640975" version="4" timestamp="2010-07-09T03:21:38Z" uid="74617" user="JohnSmith" changeset="5170713">
    <nd ref="314790651"/>
    <nd ref="314790636"/>
    <nd ref="314790652"/>
    <nd ref="737244021"/>
    <nd ref="314790653"/>
    <nd ref="314790654"/>
    <nd ref="314790655"/>
    <nd ref="314790656"/>
    <nd ref="314790657"/>
    <nd ref="314790658"/>
    <tag k="highway" v="residential"/>
    <tag k="maxspeed" v="50"/>
    <tag k="maxspeed:source" v="default residential speed limit in Australia"/>
    <tag k="name" v="Seacombe Grove"/>
    <tag k="source" v="MMBW"/>
  </way>
  <way id="28640975" version="5" timestamp="2012-01-17T22:02:57Z" uid="147510" user="woodpeck_fixbot" changeset="10421060">
    <nd ref="314790651"/>
    <nd ref="314790636"/>
    <nd ref="314790652"/>
    <nd ref="737244021"/>
    <nd ref="314790653"/>
    <nd ref="314790654"/>
    <nd ref="314790655"/>
    <nd ref="314790656"/>
    <nd ref="314790657"/>
    <nd ref="314790658"/>
    <tag k="highway" v="residential"/>
    <tag k="name" v="Seacombe Grove"/>
    <tag k="source" v="MMBW"/>
  </way>
  <way id="28640976" version="2" timestamp="2010-07-09T03:17:01Z" uid="74617" user="JohnSmith" changeset="5170713">
    <nd ref="314790653"/>
    <nd ref="314790660"/>
    <tag k="highway" v="residential"/>
    <tag k="maxspeed" v="50"/>
    <tag k="maxspeed:source" v="default residential speed limit in Australia"/>
    <tag k="name" v="Seacombe Grove"/>
    <tag k="source" v="MMBW"/>
  </way>
  <way id="28640976" version="3" timestamp="2012-01-17T22:03:00Z" uid="147510" user="woodpeck_fixbot" changeset="10421060">
    <nd ref="314790653"/>
    <nd ref="314790660"/>
    <tag k="highway" v="residential"/>
    <tag k="name" v="Seacombe Grove"/>
    <tag k="source" v="MMBW"/>
  </way>
  <way id="28640977" version="3" timestamp="2010-07-09T03:18:44Z" uid="74617" user="JohnSmith" changeset="5170713">
    <nd ref="314790661"/>
    <nd ref="314790663"/>
    <nd ref="314790662"/>
    <tag k="highway" v="residential"/>
    <tag k="maxspeed" v="50"/>
    <tag k="maxspeed:source" v="default residential speed limit in Australia"/>
    <tag k="name" v="Sandown Street"/>
    <tag k="source" v="MMBW"/>
  </way>
  <way id="28640977" version="4" timestamp="2010-07-27T08:49:45Z" uid="4467" user="Rosscoe" changeset="5327375">
    <nd ref="30616395"/>
    <nd ref="314790663"/>
    <nd ref="835190761"/>
    <tag k="highway" v="residential"/>
    <tag k="maxspeed" v="50"/>
    <tag k="maxspeed:source" v="default residential speed limit in Australia"/>
    <tag k="name" v="Sandown Street"/>
    <tag k="source" v="MMBW"/>
  </way>
  <way id="28640977" version="5" timestamp="2012-01-17T22:03:01Z" uid="147510" user="woodpeck_fixbot" changeset="10421060">
    <nd ref="30616395"/>
    <nd ref="314790663"/>
    <nd ref="835190761"/>
    <tag k="highway" v="residential"/>
    <tag k="name" v="Sandown Street"/>
    <tag k="source" v="MMBW"/>
  </way>
  <way id="28640978" version="2" timestamp="2010-07-09T03:21:49Z" uid="74617" user="JohnSmith" changeset="5170713">
    <nd ref="314790663"/>
    <nd ref="314790658"/>
    <tag k="highway" v="residential"/>
    <tag k="maxspeed" v="50"/>
    <tag k="maxspeed:source" v="default residential speed limit in Australia"/>
    <tag k="name" v="Myrtle Street"/>
    <tag k="source" v="MMBW"/>
  </way>
  <way id="28640978" version="3" timestamp="2010-07-27T08:50:44Z" uid="4467" user="Rosscoe" changeset="5327375">
    <nd ref="314790663"/>
    <nd ref="314790658"/>
    <tag k="highway" v="residential"/>
    <tag k="maxspeed" v="50"/>
    <tag k="maxspeed:source" v="default residential speed limit in Australia"/>
    <tag k="name" v="Myrtle Street"/>
    <tag k="source" v="MMBW"/>
  </way>
  <way id="28640978" version="4" timestamp="2012-01-17T22:03:02Z" uid="147510" user="woodpeck_fixbot" changeset="10421060">
    <nd ref="314790663"/>
    <nd ref="314790658"/>
    <tag k="highway" v="residential"/>
    <tag k="name" v="Myrtle Street"/>
    <tag k="source" v="MMBW"/>
  </way>
  <way id="28640984" version="2" timestamp="2010-07-09T03:19:31Z" uid="74617" user="JohnSmith" changeset="5170713">
    <nd ref="314790665"/>
    <nd ref="314790734"/>
    <nd ref="314790735"/>
    <nd ref="314790736"/>
    <nd ref="314790737"/>
    <tag k="highway" v="residential"/>
    <tag k="maxspeed" v="50"/>
    <tag k="maxspeed:source" v="default residential speed limit in Australia"/>
    <tag k="name" v="Mytton Grove"/>
  </way>
  <way id="28640984" version="3" timestamp="2010-07-27T08:49:39Z" uid="4467" user="Rosscoe" changeset="5327375">
    <nd ref="835191187"/>
    <nd ref="835190959"/>
    <nd ref="314790735"/>
    <nd ref="314790736"/>
    <nd ref="314790737"/>
    <tag k="highway" v="residential"/>
    <tag k="maxspeed" v="50"/>
    <tag k="maxspeed:source" v="default residential speed limit in Australia"/>
    <tag k="name" v="Mytton Grove"/>
  </way>
  <way id="28640984" version="4" timestamp="2012-01-17T22:03:03Z" uid="147510" user="woodpeck_fixbot" changeset="10421060">
    <nd ref="835191187"/>
    <nd ref="835190959"/>
    <nd ref="314790735"/>
    <nd ref="314790736"/>
    <nd ref="314790737"/>
    <tag k="highway" v="residential"/>
    <tag k="name" v="Mytton Grove"/>
  </way>
  <way id="28640986" version="4" timestamp="2010-07-27T08:51:23Z" uid="4467" user="Rosscoe" changeset="5327375">
    <nd ref="305090682"/>
    <nd ref="314790745"/>
    <nd ref="580800557"/>
    <nd ref="314790746"/>
    <nd ref="314790747"/>
    <nd ref="580800558"/>
    <nd ref="314790748"/>
    <nd ref="580796614"/>
    <nd ref="314790728"/>
    <nd ref="314790749"/>
    <nd ref="835190827"/>
    <nd ref="314790739"/>
    <tag k="highway" v="service"/>
    <tag k="oneway" v="yes"/>
  </way>
  <way id="28640988" version="5" timestamp="2010-07-27T08:49:57Z" uid="4467" user="Rosscoe" changeset="5327375">
    <nd ref="314790755"/>
    <nd ref="314790756"/>
    <nd ref="314790757"/>
    <nd ref="835190747"/>
    <tag k="highway" v="service"/>
    <tag k="service" v="parking_aisle"/>
  </way>
  <way id="28640989" version="2" timestamp="2010-07-27T08:50:40Z" uid="4467" user="Rosscoe" changeset="5327375">
    <nd ref="314790746"/>
    <nd ref="310962767"/>
    <nd ref="835190939"/>
    <nd ref="314790755"/>
    <tag k="highway" v="service"/>
  </way>
  <way id="28640991" version="3" timestamp="2010-07-27T08:49:20Z" uid="4467" user="Rosscoe" changeset="5327375">
    <nd ref="835190747"/>
    <nd ref="835190763"/>
    <nd ref="314790760"/>
    <tag k="highway" v="service"/>
  </way>
  <way id="28640995" version="2" timestamp="2010-03-31T20:53:12Z" uid="163746" user="anti_bot-nonsense" changeset="4289355">
    <nd ref="314790775"/>
    <nd ref="314790774"/>
    <nd ref="266610053"/>
    <nd ref="266610054"/>
    <nd ref="266610056"/>
    <nd ref="266610057"/>
    <nd ref="314790771"/>
    <nd ref="314790772"/>
    <nd ref="314790779"/>
    <nd ref="314790773"/>
    <tag k="highway" v="residential"/>
    <tag k="source" v="Yahoo"/>
  </way>
</osm>
