<?xml version='1.0' encoding='UTF-8'?>
<osm version="0.6" generator="libosmium/2.20.0">
  <way id="28739007" version="5" timestamp="2010-03-28T00:22:52Z" uid="20587" user="balrog-kun" changeset="4250871">
    <nd ref="65465438"/>
    <nd ref="315998646"/>
    <nd ref="65433463"/>
    <nd ref="65465436"/>
    <nd ref="315998656"/>
    <nd ref="65465434"/>
    <nd ref="65465432"/>
    <nd ref="65465429"/>
    <nd ref="65465426"/>
    <nd ref="65465424"/>
    <tag k="created_by" v="Potlatch 0.10f"/>
    <tag k="highway" v="residential"/>
    <tag k="name" v="Almaden Road"/>
    <tag k="tiger:cfcc" v="A41"/>
    <tag k="tiger:county" v="Santa Clara, CA"/>
    <tag k="tiger:name_base" v="Almaden"/>
    <tag k="tiger:name_type" v="Rd"/>
    <tag k="tiger:reviewed" v="no"/>
    <tag k="tiger:separated" v="no"/>
    <tag k="tiger:source" v="tiger_import_dch_v0.6_20070809"/>
    <tag k="tiger:tlid" v="122923204:122923183"/>
  </way>
  <way id="28739023" version="3" timestamp="2010-04-03T04:04:06Z" uid="20587" user="balrog-kun" changeset="4309442">
    <nd ref="315299639"/>
    <nd ref="315998806"/>
    <nd ref="315998807"/>
    <nd ref="315299637"/>
    <tag k="created_by" v="Merkaartor 0.12"/>
    <tag k="highway" v="track"/>
    <tag k="name" v="West Watkins Street"/>
  </way>
  <way id="28739024" version="3" timestamp="2010-04-03T04:04:06Z" uid="20587" user="balrog-kun" changeset="4309442">
    <nd ref="315998804"/>
    <nd ref="315998808"/>
    <nd ref="315998800"/>
    <tag k="created_by" v="Merkaartor 0.12"/>
    <tag k="highway" v="track"/>
    <tag k="name" v="West Durango Street"/>
  </way>
  <way id="28739025" version="3" timestamp="2010-04-03T04:04:06Z" uid="20587" user="balrog-kun" changeset="4309442">
    <nd ref="315998808"/>
    <nd ref="315998806"/>
    <tag k="created_by" v="Merkaartor 0.12"/>
    <tag k="highway" v="track"/>
    <tag k="name" v="South 206th Avenue"/>
  </way>
  <way id="28739026" version="3" timestamp="2010-04-03T04:04:06Z" uid="20587" user="balrog-kun" changeset="4309442">
    <nd ref="314669947"/>
    <nd ref="315998809"/>
    <nd ref="315998810"/>
    <nd ref="315998803"/>
    <tag k="created_by" v="Merkaartor 0.12"/>
    <tag k="highway" v="residential"/>
    <tag k="name" v="West Hilton Avenue"/>
  </way>
  <way id="28739029" version="2" timestamp="2010-04-03T04:04:06Z" uid="20587" user="balrog-kun" changeset="4309442">
    <nd ref="315998802"/>
    <nd ref="315998801"/>
    <tag k="bridge" v="yes"/>
    <tag k="created_by" v="Merkaartor 0.12"/>
    <tag k="highway" v="unclassified"/>
    <tag k="layer" v="1"/>
    <tag k="name" v="South Airport Road"/>
  </way>
  <way id="28739030" version="3" timestamp="2010-04-03T04:04:06Z" uid="20587" user="balrog-kun" changeset="4309442">
    <nd ref="315998801"/>
    <nd ref="315998811"/>
    <nd ref="315998800"/>
    <nd ref="315299637"/>
    <nd ref="315299621"/>
    <nd ref="315299631"/>
    <nd ref="313564079"/>
    <nd ref="313564062"/>
    <nd ref="313419089"/>
    <nd ref="313419088"/>
    <nd ref="313419106"/>
    <nd ref="313419087"/>
    <tag k="highway" v="secondary"/>
    <tag k="name" v="South Airport Road"/>
  </way>
  <way id="28739041" version="6" timestamp="2010-04-07T13:10:58Z" uid="20587" user="balrog-kun" changeset="4353646">
    <nd ref="315998975"/>
    <nd ref="315998976"/>
    <nd ref="315998977"/>
    <nd ref="315998978"/>
    <nd ref="318137054"/>
    <tag k="created_by" v="Potlatch 0.10f"/>
    <tag k="highway" v="unclassified"/>
    <tag k="name" v="Jasons Place"/>
  </way>
  <way id="28739041" version="7" timestamp="2011-12-12T00:11:36Z" uid="365944" user="homeslice60148" changeset="10095358">
    <nd ref="1541641978"/>
    <nd ref="315998976"/>
    <nd ref="315998977"/>
    <nd ref="315998978"/>
    <nd ref="318137054"/>
    <tag k="highway" v="residential"/>
    <tag k="name" v="Jasons Place"/>
  </way>
  <way id="28739043" version="4" timestamp="2010-08-29T10:12:11Z" uid="4467" user="Rosscoe" changeset="5623910">
    <nd ref="315998989"/>
    <nd ref="315998990"/>
    <nd ref="315998991"/>
    <nd ref="315998993"/>
    <nd ref="315998994"/>
    <nd ref="315998996"/>
    <nd ref="315998997"/>
    <nd ref="315998998"/>
    <nd ref="315998999"/>
    <nd ref="315999007"/>
    <nd ref="315999008"/>
    <nd ref="315998989"/>
    <tag k="area" v="yes"/>
    <tag k="leisure" v="nature_reserve"/>
    <tag k="name" v="Karkarook Park"/>
  </way>
  <way id="28739043" version="5" timestamp="2011-11-02T11:56:17Z" uid="46482" user="Leon K" changeset="9721161">
    <nd ref="315998989"/>
    <nd ref="315998990"/>
    <nd ref="315998991"/>
    <nd ref="315998993"/>
    <nd ref="315998994"/>
    <nd ref="315998996"/>
    <nd ref="315998997"/>
    <nd ref="315998998"/>
    <nd ref="315998999"/>
    <nd ref="315999007"/>
    <nd ref="315999008"/>
    <nd ref="315998989"/>
    <tag k="area" v="yes"/>
    <tag k="leisure" v="nature_reserve"/>
    <tag k="name" v="Karkarook Park"/>
    <tag k="website" v="www.parkweb.vic.gov.au"/>
  </way>
  <way id="28739087" version="23" timestamp="2010-03-28T00:22:52Z" uid="20587" user="balrog-kun" changeset="4250871">
    <nd ref="65616352"/>
    <nd ref="65616349"/>
    <nd ref="316013661"/>
    <nd ref="369936630"/>
    <nd ref="65616335"/>
    <nd ref="65616332"/>
    <nd ref="65527237"/>
    <nd ref="65571236"/>
    <nd ref="65616328"/>
    <nd ref="65616321"/>
    <nd ref="65616318"/>
    <nd ref="65616315"/>
    <nd ref="65616311"/>
    <nd ref="65570363"/>
    <nd ref="65616309"/>
    <nd ref="65575847"/>
    <nd ref="65432024"/>
    <nd ref="65616306"/>
    <nd ref="65616303"/>
    <nd ref="65474205"/>
    <nd ref="65616300"/>
    <nd ref="65522275"/>
    <nd ref="316012848"/>
    <nd ref="65616297"/>
    <nd ref="316012849"/>
    <nd ref="316012850"/>
    <nd ref="65616294"/>
    <nd ref="65429743"/>
    <nd ref="65606395"/>
    <nd ref="65594788"/>
    <nd ref="65488419"/>
    <nd ref="65616281"/>
    <nd ref="65616276"/>
    <nd ref="65616274"/>
    <nd ref="65450154"/>
    <nd ref="65580651"/>
    <nd ref="65616272"/>
    <nd ref="65616268"/>
    <nd ref="65594033"/>
    <tag k="highway" v="trunk"/>
    <tag k="name" v="Blossom Hill Road"/>
    <tag k="name_1" v="County Route G10"/>
    <tag k="oneway" v="no"/>
    <tag k="ref" v="G10"/>
    <tag k="tiger:cfcc" v="A41"/>
    <tag k="tiger:county" v="Santa Clara, CA"/>
    <tag k="tiger:name_base" v="Blossom Hill"/>
    <tag k="tiger:name_type" v="Rd"/>
    <tag k="tiger:reviewed" v="no"/>
    <tag k="tiger:separated" v="no"/>
    <tag k="tiger:source" v="tiger_import_dch_v0.6_20070809"/>
    <tag k="tiger:tlid" v="122944285:122971919:122945640:122945641:122945645:122995962:122995963:122945554:123001956:122975354:122945559:123001839:122944286:123181025:122944109:122944190:122944191:123011102:122944251:122975359:122945745:123177280:122945793:122945837:122945795:12294"/>
    <tag k="tiger:zip_left" v="95032"/>
    <tag k="tiger:zip_right" v="95032"/>
  </way>
  <way id="28739087" version="24" timestamp="2010-12-04T23:56:19Z" uid="201724" user="mk408" changeset="6545671">
    <nd ref="65616352"/>
    <nd ref="65616349"/>
    <nd ref="316013661"/>
    <nd ref="369936630"/>
    <nd ref="65616335"/>
    <nd ref="65616332"/>
    <nd ref="65527237"/>
    <nd ref="65571236"/>
    <nd ref="65616328"/>
    <nd ref="65616321"/>
    <nd ref="65616318"/>
    <nd ref="65616315"/>
    <nd ref="65616311"/>
    <nd ref="65570363"/>
    <nd ref="65616309"/>
    <nd ref="65575847"/>
    <nd ref="65432024"/>
    <nd ref="65616306"/>
    <nd ref="65616303"/>
    <nd ref="65474205"/>
    <nd ref="65616300"/>
    <nd ref="65522275"/>
    <nd ref="316012848"/>
    <nd ref="65616297"/>
    <nd ref="316012849"/>
    <nd ref="316012850"/>
    <nd ref="65616294"/>
    <nd ref="65429743"/>
    <nd ref="65606395"/>
    <nd ref="65594788"/>
    <nd ref="65488419"/>
    <nd ref="65616281"/>
    <nd ref="65616276"/>
    <nd ref="65616274"/>
    <nd ref="65450154"/>
    <nd ref="65580651"/>
    <nd ref="65616272"/>
    <nd ref="65616268"/>
    <nd ref="65594033"/>
    <tag k="highway" v="primary"/>
    <tag k="name" v="Blossom Hill Road"/>
    <tag k="oneway" v="no"/>
    <tag k="tiger:cfcc" v="A41"/>
    <tag k="tiger:county" v="Santa Clara, CA"/>
    <tag k="tiger:name_base" v="Blossom Hill"/>
    <tag k="tiger:name_type" v="Rd"/>
    <tag k="tiger:reviewed" v="no"/>
    <tag k="tiger:separated" v="no"/>
    <tag k="tiger:source" v="tiger_import_dch_v0.6_20070809"/>
    <tag k="tiger:tlid" v="122944285:122971919:122945640:122945641:122945645:122995962:122995963:122945554:123001956:122975354:122945559:123001839:122944286:123181025:122944109:122944190:122944191:123011102:122944251:122975359:122945745:123177280:122945793:122945837:122945795:12294"/>
    <tag k="tiger:upload_uuid" v="bulk_upload.pl-9f300d22-5de3-4867-bd5e-8c2a200c22ad"/>
    <tag k="tiger:zip_left" v="95032"/>
    <tag k="tiger:zip_right" v="95032"/>
  </way>
  <way id="28739087" version="25" timestamp="2011-01-12T20:27:57Z" uid="201724" user="mk408" changeset="6951232">
    <nd ref="65616352"/>
    <nd ref="65616349"/>
    <nd ref="1100547223"/>
    <nd ref="316013661"/>
    <nd ref="369936630"/>
    <nd ref="65616335"/>
    <nd ref="1100547313"/>
    <nd ref="65616332"/>
    <nd ref="65527237"/>
    <nd ref="65571236"/>
    <nd ref="65616328"/>
    <nd ref="65616315"/>
    <nd ref="65616309"/>
    <nd ref="1100547229"/>
    <nd ref="65432024"/>
    <nd ref="1100547290"/>
    <nd ref="1100547241"/>
    <nd ref="65616306"/>
    <tag k="highway" v="primary"/>
    <tag k="name" v="Blossom Hill Road"/>
    <tag k="oneway" v="yes"/>
    <tag k="tiger:county" v="Santa Clara, CA"/>
    <tag k="tiger:name_base" v="Blossom Hill"/>
    <tag k="tiger:name_type" v="Rd"/>
    <tag k="tiger:zip_left" v="95032"/>
    <tag k="tiger:zip_right" v="95032"/>
  </way>
  <way id="28739087" version="26" timestamp="2011-01-22T15:02:39Z" uid="201724" user="mk408" changeset="7051228">
    <nd ref="65616352"/>
    <nd ref="65616349"/>
    <nd ref="1100547223"/>
    <nd ref="316013661"/>
    <nd ref="369936630"/>
    <nd ref="65616335"/>
    <nd ref="1100547313"/>
    <nd ref="65616332"/>
    <nd ref="65527237"/>
    <nd ref="65571236"/>
    <nd ref="65616328"/>
    <nd ref="65616315"/>
    <nd ref="1115468516"/>
    <nd ref="65616309"/>
    <nd ref="1100547229"/>
    <nd ref="65432024"/>
    <nd ref="1100547290"/>
    <nd ref="1100547241"/>
    <nd ref="65616306"/>
    <tag k="highway" v="primary"/>
    <tag k="name" v="Blossom Hill Road"/>
    <tag k="oneway" v="yes"/>
    <tag k="tiger:county" v="Santa Clara, CA"/>
    <tag k="tiger:name_base" v="Blossom Hill"/>
    <tag k="tiger:name_type" v="Rd"/>
    <tag k="tiger:zip_left" v="95032"/>
    <tag k="tiger:zip_right" v="95032"/>
  </way>
  <way id="28739087" version="27" timestamp="2011-02-16T05:03:24Z" uid="74705" user="Bike Mapper" changeset="7301052">
    <nd ref="65616352"/>
    <nd ref="65616349"/>
    <nd ref="1100547223"/>
    <nd ref="316013661"/>
    <nd ref="369936630"/>
    <nd ref="65616335"/>
    <nd ref="1100547313"/>
    <nd ref="1155861473"/>
    <nd ref="65616332"/>
    <nd ref="65527237"/>
    <nd ref="65571236"/>
    <nd ref="65616328"/>
    <nd ref="65616315"/>
    <nd ref="1115468516"/>
    <nd ref="65616309"/>
    <nd ref="1100547229"/>
    <nd ref="65432024"/>
    <nd ref="1100547290"/>
    <nd ref="1100547241"/>
    <nd ref="65616306"/>
    <tag k="highway" v="primary"/>
    <tag k="name" v="Blossom Hill Road"/>
    <tag k="oneway" v="yes"/>
    <tag k="tiger:county" v="Santa Clara, CA"/>
    <tag k="tiger:name_base" v="Blossom Hill"/>
    <tag k="tiger:name_type" v="Rd"/>
    <tag k="tiger:zip_left" v="95032"/>
    <tag k="tiger:zip_right" v="95032"/>
  </way>
  <way id="28739088" version="5" timestamp="2010-03-28T00:22:53Z" uid="20587" user="balrog-kun" changeset="4250871">
    <nd ref="65616357"/>
    <nd ref="65616352"/>
    <tag k="bridge" v="yes"/>
    <tag k="highway" v="trunk"/>
    <tag k="layer" v="1"/>
    <tag k="name" v="Blossom Hill Road"/>
    <tag k="name_1" v="County Route G10"/>
    <tag k="oneway" v="no"/>
    <tag k="ref" v="G10"/>
    <tag k="tiger:cfcc" v="A41"/>
    <tag k="tiger:county" v="Santa Clara, CA"/>
    <tag k="tiger:name_base" v="Blossom Hill"/>
    <tag k="tiger:name_type" v="Rd"/>
    <tag k="tiger:reviewed" v="no"/>
    <tag k="tiger:separated" v="no"/>
    <tag k="tiger:source" v="tiger_import_dch_v0.6_20070809"/>
    <tag k="tiger:tlid" v="122944285:122971919:122945640:122945641:122945645:122995962:122995963:122945554:123001956:122975354:122945559:123001839:122944286:123181025:122944109:122944190:122944191:123011102:122944251:122975359:122945745:123177280:122945793:122945837:122945795:12294"/>
    <tag k="tiger:zip_left" v="95032"/>
    <tag k="tiger:zip_right" v="95032"/>
  </way>
  <way id="28739088" version="6" timestamp="2010-12-04T23:55:51Z" uid="201724" user="mk408" changeset="6545671">
    <nd ref="65616357"/>
    <nd ref="65616352"/>
    <tag k="bridge" v="yes"/>
    <tag k="highway" v="primary"/>
    <tag k="layer" v="1"/>
    <tag k="name" v="Blossom Hill Road"/>
    <tag k="name_1" v="County Route G10"/>
    <tag k="oneway" v="no"/>
    <tag k="ref" v="G10"/>
    <tag k="tiger:cfcc" v="A41"/>
    <tag k="tiger:county" v="Santa Clara, CA"/>
    <tag k="tiger:name_base" v="Blossom Hill"/>
    <tag k="tiger:name_type" v="Rd"/>
    <tag k="tiger:reviewed" v="no"/>
    <tag k="tiger:separated" v="no"/>
    <tag k="tiger:source" v="tiger_import_dch_v0.6_20070809"/>
    <tag k="tiger:tlid" v="122944285:122971919:122945640:122945641:122945645:122995962:122995963:122945554:123001956:122975354:122945559:123001839:122944286:123181025:122944109:122944190:122944191:123011102:122944251:122975359:122945745:123177280:122945793:122945837:122945795:12294"/>
    <tag k="tiger:zip_left" v="95032"/>
    <tag k="tiger:zip_right" v="95032"/>
  </way>
  <way id="28739088" version="7" timestamp="2011-01-12T20:27:42Z" uid="201724" user="mk408" changeset="6951232">
    <nd ref="65616357"/>
    <nd ref="65616352"/>
    <tag k="bridge" v="yes"/>
    <tag k="highway" v="primary"/>
    <tag k="layer" v="1"/>
    <tag k="name" v="Blossom Hill Road"/>
    <tag k="name_1" v="County Route G10"/>
    <tag k="oneway" v="no"/>
    <tag k="ref" v="G10"/>
    <tag k="tiger:county" v="Santa Clara, CA"/>
    <tag k="tiger:name_base" v="Blossom Hill"/>
    <tag k="tiger:name_type" v="Rd"/>
    <tag k="tiger:zip_left" v="95032"/>
    <tag k="tiger:zip_right" v="95032"/>
  </way>
  <way id="28739088" version="8" timestamp="2011-08-09T14:06:02Z" uid="207745" user="NE2" changeset="8967545">
    <nd ref="65616357"/>
    <nd ref="65616352"/>
    <tag k="bridge" v="yes"/>
    <tag k="highway" v="primary"/>
    <tag k="layer" v="1"/>
    <tag k="name" v="Blossom Hill Road"/>
    <tag k="oneway" v="no"/>
    <tag k="ref" v="G10"/>
    <tag k="tiger:county" v="Santa Clara, CA"/>
    <tag k="tiger:name_base" v="Blossom Hill"/>
    <tag k="tiger:name_type" v="Rd"/>
    <tag k="tiger:zip_left" v="95032"/>
    <tag k="tiger:zip_right" v="95032"/>
  </way>
  <way id="28739126" version="3" timestamp="2010-04-03T04:04:06Z" uid="20587" user="balrog-kun" changeset="4309442">
    <nd ref="315999783"/>
    <nd ref="315999784"/>
    <nd ref="41550102"/>
    <tag k="access" v="private"/>
    <tag k="created_by" v="Potlatch 0.10f"/>
    <tag k="highway" v="residential"/>
    <tag k="name" v="North Roosevelt Avenue"/>
    <tag k="tiger:cfcc" v="A41"/>
    <tag k="tiger:county" v="Maricopa, AZ"/>
    <tag k="tiger:name_base" v="Roosevelt"/>
    <tag k="tiger:name_direction_prefix" v="N"/>
    <tag k="tiger:name_type" v="Ave"/>
    <tag k="tiger:reviewed" v="no"/>
    <tag k="tiger:separated" v="no"/>
    <tag k="tiger:source" v="tiger_import_dch_v0.6_20070809"/>
    <tag k="tiger:tlid" v="128777680:128777695:128791171:128777699:128777700"/>
    <tag k="tiger:zip_left" v="85226"/>
  </way>
  <way id="28739126" version="4" timestamp="2012-03-30T19:32:03Z" uid="292665" user="Dr Kludge" changeset="11159150">
    <nd ref="315999783"/>
    <nd ref="315999784"/>
    <nd ref="41550102"/>
    <tag k="access" v="private"/>
    <tag k="highway" v="residential"/>
    <tag k="name" v="North Roosevelt Avenue"/>
    <tag k="tiger:cfcc" v="A41"/>
    <tag k="tiger:county" v="Maricopa, AZ"/>
    <tag k="tiger:name_base" v="Roosevelt"/>
    <tag k="tiger:name_direction_prefix" v="N"/>
    <tag k="tiger:name_type" v="Ave"/>
    <tag k="tiger:reviewed" v="no"/>
    <tag k="tiger:separated" v="no"/>
    <tag k="tiger:source" v="tiger_import_dch_v0.6_20070809"/>
    <tag k="tiger:tlid" v="128777680:128777695:128791171:128777699:128777700"/>
    <tag k="tiger:zip_left" v="85226"/>
  </way>
  <way id="28739141" version="7" timestamp="2010-04-03T04:04:06Z" uid="20587" user="balrog-kun" changeset="4309442">
    <nd ref="316000127"/>
    <nd ref="316000128"/>
    <tag k="access" v="private"/>
    <tag k="created_by" v="Potlatch 0.10f"/>
    <tag k="highway" v="residential"/>
    <tag k="name" v="West Victoria Place"/>
  </way>
  <way id="28739141" version="8" timestamp="2012-03-30T19:40:12Z" uid="292665" user="Dr Kludge" changeset="11159150">
    <nd ref="316000127"/>
    <nd ref="316000128"/>
    <tag k="access" v="private"/>
    <tag k="highway" v="residential"/>
    <tag k="name" v="West Victoria Place"/>
  </way>
  <way id="28739142" version="3" timestamp="2010-04-03T04:04:07Z" uid="20587" user="balrog-kun" changeset="4309442">
    <nd ref="316000128"/>
    <nd ref="316000129"/>
    <nd ref="42276052"/>
    <nd ref="316000130"/>
    <nd ref="316000131"/>
    <tag k="access" v="private"/>
    <tag k="created_by" v="Potlatch 0.10f"/>
    <tag k="highway" v="residential"/>
    <tag k="name" v="North Austin Drive"/>
  </way>
  <way id="28739142" version="4" timestamp="2012-03-30T19:30:44Z" uid="292665" user="Dr Kludge" changeset="11159150">
    <nd ref="316000128"/>
    <nd ref="316000129"/>
    <nd ref="42276052"/>
    <nd ref="316000130"/>
    <nd ref="316000131"/>
    <tag k="access" v="private"/>
    <tag k="highway" v="residential"/>
    <tag k="name" v="North Austin Drive"/>
  </way>
  <way id="28739144" version="8" timestamp="2010-07-09T06:38:03Z" uid="74617" user="JohnSmith" changeset="5171128">
    <nd ref="320415783"/>
    <nd ref="316000261"/>
    <nd ref="316000263"/>
    <tag k="highway" v="residential"/>
    <tag k="maxspeed" v="50"/>
    <tag k="maxspeed:source" v="default residential speed limit in Australia"/>
    <tag k="name" v="McManus Road"/>
  </way>
  <way id="28739144" version="9" timestamp="2012-01-17T22:53:13Z" uid="147510" user="woodpeck_fixbot" changeset="10421060">
    <nd ref="320415783"/>
    <nd ref="316000261"/>
    <nd ref="316000263"/>
    <tag k="highway" v="residential"/>
    <tag k="name" v="McManus Road"/>
  </way>
  <way id="28739146" version="3" timestamp="2010-04-03T04:04:07Z" uid="20587" user="balrog-kun" changeset="4309442">
    <nd ref="316000378"/>
    <nd ref="316000131"/>
    <nd ref="316000380"/>
    <nd ref="316000381"/>
    <nd ref="316000382"/>
    <nd ref="316000383"/>
    <tag k="access" v="private"/>
    <tag k="created_by" v="Potlatch 0.10f"/>
    <tag k="highway" v="residential"/>
    <tag k="name" v="West Trovita Place"/>
  </way>
  <way id="28739146" version="4" timestamp="2012-03-30T19:40:00Z" uid="292665" user="Dr Kludge" changeset="11159150">
    <nd ref="316000378"/>
    <nd ref="316000131"/>
    <nd ref="316000380"/>
    <nd ref="316000381"/>
    <nd ref="316000382"/>
    <nd ref="316000383"/>
    <tag k="access" v="private"/>
    <tag k="highway" v="residential"/>
    <tag k="name" v="West Trovita Place"/>
  </way>
  <way id="28739147" version="4" timestamp="2010-04-03T04:04:07Z" uid="20587" user="balrog-kun" changeset="4309442">
    <nd ref="316000383"/>
    <nd ref="316000384"/>
    <nd ref="316000385"/>
    <nd ref="316000387"/>
    <tag k="access" v="private"/>
    <tag k="created_by" v="Potlatch 0.10f"/>
    <tag k="highway" v="residential"/>
    <tag k="name" v="North Kristin Lane"/>
  </way>
  <way id="28739147" version="5" timestamp="2012-03-30T19:31:37Z" uid="292665" user="Dr Kludge" changeset="11159150">
    <nd ref="316000383"/>
    <nd ref="316000384"/>
    <nd ref="316000385"/>
    <nd ref="316000387"/>
    <tag k="access" v="private"/>
    <tag k="highway" v="residential"/>
    <tag k="name" v="North Kristin Lane"/>
  </way>
  <way id="28739148" version="3" timestamp="2010-04-03T04:04:07Z" uid="20587" user="balrog-kun" changeset="4309442">
    <nd ref="316000387"/>
    <nd ref="316000388"/>
    <tag k="access" v="private"/>
    <tag k="created_by" v="Potlatch 0.10f"/>
    <tag k="highway" v="residential"/>
    <tag k="name" v="West Victoria Place"/>
  </way>
  <way id="28739148" version="4" timestamp="2012-03-30T19:40:12Z" uid="292665" user="Dr Kludge" changeset="11159150">
    <nd ref="316000387"/>
    <nd ref="316000388"/>
    <tag k="access" v="private"/>
    <tag k="highway" v="residential"/>
    <tag k="name" v="West Victoria Place"/>
  </way>
  <way id="28739211" version="3" timestamp="2010-07-09T03:09:39Z" uid="74617" user="JohnSmith" changeset="5170713">
    <nd ref="316001070"/>
    <nd ref="316001072"/>
    <tag k="highway" v="residential"/>
    <tag k="maxspeed" v="50"/>
    <tag k="maxspeed:source" v="default residential speed limit in Australia"/>
    <tag k="name" v="Alden Court"/>
  </way>
  <way id="28739211" version="4" timestamp="2012-01-17T22:53:14Z" uid="147510" user="woodpeck_fixbot" changeset="10421060">
    <nd ref="316001070"/>
    <nd ref="316001072"/>
    <tag k="highway" v="residential"/>
    <tag k="name" v="Alden Court"/>
  </way>
  <way id="28739213" version="2" timestamp="2010-04-02T17:23:20Z" uid="20587" user="balrog-kun" changeset="4304500">
    <nd ref="316001096"/>
    <nd ref="51805464"/>
    <tag k="bridge" v="yes"/>
    <tag k="highway" v="residential"/>
    <tag k="layer" v="1"/>
    <tag k="name" v="Main Street"/>
    <tag k="tiger:cfcc" v="A41"/>
    <tag k="tiger:county" v="Yakima, WA"/>
    <tag k="tiger:name_base" v="Main"/>
    <tag k="tiger:name_type" v="St"/>
    <tag k="tiger:reviewed" v="no"/>
    <tag k="tiger:separated" v="no"/>
    <tag k="tiger:source" v="tiger_import_dch_v0.6_20070830"/>
    <tag k="tiger:tlid" v="184962710:184964723:184964724"/>
  </way>
  <way id="28739213" version="3" timestamp="2011-03-27T21:16:21Z" uid="282329" user="compdude" changeset="7690766">
    <nd ref="316001096"/>
    <nd ref="51805464"/>
    <tag k="bridge" v="yes"/>
    <tag k="highway" v="tertiary"/>
    <tag k="layer" v="1"/>
    <tag k="name" v="Main Street"/>
    <tag k="tiger:cfcc" v="A41"/>
    <tag k="tiger:county" v="Yakima, WA"/>
    <tag k="tiger:name_base" v="Main"/>
    <tag k="tiger:name_type" v="St"/>
    <tag k="tiger:separated" v="no"/>
    <tag k="tiger:source" v="tiger_import_dch_v0.6_20070830"/>
    <tag k="tiger:tlid" v="184962710:184964723:184964724"/>
  </way>
  <way id="28739214" version="2" timestamp="2010-04-02T17:23:20Z" uid="20587" user="balrog-kun" changeset="4304500">
    <nd ref="51805464"/>
    <nd ref="51805466"/>
    <tag k="highway" v="residential"/>
    <tag k="name" v="Main Street"/>
    <tag k="tiger:cfcc" v="A41"/>
    <tag k="tiger:county" v="Yakima, WA"/>
    <tag k="tiger:name_base" v="Main"/>
    <tag k="tiger:name_type" v="St"/>
    <tag k="tiger:reviewed" v="no"/>
    <tag k="tiger:separated" v="no"/>
    <tag k="tiger:source" v="tiger_import_dch_v0.6_20070830"/>
    <tag k="tiger:tlid" v="184962710:184964723:184964724"/>
  </way>
  <way id="28739214" version="3" timestamp="2011-03-27T21:16:24Z" uid="282329" user="compdude" changeset="7690766">
    <nd ref="51805464"/>
    <nd ref="51805466"/>
    <tag k="highway" v="tertiary"/>
    <tag k="name" v="Main Street"/>
    <tag k="tiger:cfcc" v="A41"/>
    <tag k="tiger:county" v="Yakima, WA"/>
    <tag k="tiger:name_base" v="Main"/>
    <tag k="tiger:name_type" v="St"/>
    <tag k="tiger:separated" v="no"/>
    <tag k="tiger:source" v="tiger_import_dch_v0.6_20070830"/>
    <tag k="tiger:tlid" v="184962710:184964723:184964724"/>
  </way>
  <way id="28739216" version="2" timestamp="2010-04-02T17:23:20Z" uid="20587" user="balrog-kun" changeset="4304500">
    <nd ref="51805453"/>
    <nd ref="51805460"/>
    <tag k="bridge" v="yes"/>
    <tag k="highway" v="residential"/>
    <tag k="layer" v="1"/>
    <tag k="name" v="Main Street"/>
    <tag k="tiger:cfcc" v="A41"/>
    <tag k="tiger:county" v="Yakima, WA"/>
    <tag k="tiger:name_base" v="Main"/>
    <tag k="tiger:name_type" v="St"/>
    <tag k="tiger:reviewed" v="no"/>
    <tag k="tiger:separated" v="no"/>
    <tag k="tiger:source" v="tiger_import_dch_v0.6_20070830"/>
    <tag k="tiger:tlid" v="184962710:184964723:184964724"/>
  </way>
  <way id="28739216" version="3" timestamp="2011-03-27T21:16:23Z" uid="282329" user="compdude" changeset="7690766">
    <nd ref="51805453"/>
    <nd ref="51805460"/>
    <tag k="bridge" v="yes"/>
    <tag k="highway" v="tertiary"/>
    <tag k="layer" v="1"/>
    <tag k="name" v="Main Street"/>
    <tag k="tiger:cfcc" v="A41"/>
    <tag k="tiger:county" v="Yakima, WA"/>
    <tag k="tiger:name_base" v="Main"/>
    <tag k="tiger:name_type" v="St"/>
    <tag k="tiger:separated" v="no"/>
    <tag k="tiger:source" v="tiger_import_dch_v0.6_20070830"/>
    <tag k="tiger:tlid" v="184962710:184964723:184964724"/>
  </way>
  <way id="28739217" version="2" timestamp="2010-04-02T17:23:20Z" uid="20587" user="balrog-kun" changeset="4304500">
    <nd ref="51805460"/>
    <nd ref="316001154"/>
    <nd ref="51702368"/>
    <nd ref="316001096"/>
    <tag k="highway" v="residential"/>
    <tag k="name" v="Main Street"/>
    <tag k="tiger:cfcc" v="A41"/>
    <tag k="tiger:county" v="Yakima, WA"/>
    <tag k="tiger:name_base" v="Main"/>
    <tag k="tiger:name_type" v="St"/>
    <tag k="tiger:reviewed" v="no"/>
    <tag k="tiger:separated" v="no"/>
    <tag k="tiger:source" v="tiger_import_dch_v0.6_20070830"/>
    <tag k="tiger:tlid" v="184962710:184964723:184964724"/>
  </way>
  <way id="28739217" version="3" timestamp="2011-03-27T21:16:23Z" uid="282329" user="compdude" changeset="7690766">
    <nd ref="51805460"/>
    <nd ref="1222318820"/>
    <nd ref="316001154"/>
    <nd ref="1222318786"/>
    <nd ref="51702368"/>
    <nd ref="1222318763"/>
    <nd ref="1222318747"/>
    <nd ref="1222318723"/>
    <nd ref="316001096"/>
    <tag k="highway" v="tertiary"/>
    <tag k="name" v="Main Street"/>
    <tag k="tiger:cfcc" v="A41"/>
    <tag k="tiger:county" v="Yakima, WA"/>
    <tag k="tiger:name_base" v="Main"/>
    <tag k="tiger:name_type" v="St"/>
    <tag k="tiger:separated" v="no"/>
    <tag k="tiger:source" v="tiger_import_dch_v0.6_20070830"/>
    <tag k="tiger:tlid" v="184962710:184964723:184964724"/>
  </way>
  <way id="28739234" version="5" timestamp="2010-03-28T00:22:53Z" uid="20587" user="balrog-kun" changeset="4250871">
    <nd ref="110349029"/>
    <nd ref="110433252"/>
    <nd ref="110433254"/>
    <nd ref="110433258"/>
    <nd ref="262501954"/>
    <nd ref="110433260"/>
    <nd ref="110366256"/>
    <nd ref="671892982"/>
    <nd ref="110433262"/>
    <nd ref="262501968"/>
    <nd ref="262501969"/>
    <nd ref="262501970"/>
    <nd ref="110433264"/>
    <nd ref="262501971"/>
    <nd ref="110433266"/>
    <nd ref="110433270"/>
    <nd ref="262502057"/>
    <nd ref="262502058"/>
    <nd ref="262502059"/>
    <nd ref="110433272"/>
    <nd ref="110433274"/>
    <nd ref="262502060"/>
    <nd ref="304693654"/>
    <nd ref="110375288"/>
    <nd ref="262502061"/>
    <nd ref="262502062"/>
    <nd ref="110433276"/>
    <nd ref="294360189"/>
    <nd ref="262503173"/>
    <nd ref="262503175"/>
    <nd ref="262503177"/>
    <nd ref="262503227"/>
    <nd ref="110369182"/>
    <tag k="highway" v="track"/>
    <tag k="name" v="Tennessee Valley Road"/>
    <tag k="surface" v="unpaved"/>
  </way>
  <way id="28739234" version="6" timestamp="2011-04-14T06:59:34Z" uid="81024" user="wallclimber21" changeset="7858046">
    <nd ref="110349029"/>
    <nd ref="110433252"/>
    <nd ref="1244081481"/>
    <nd ref="110433254"/>
    <nd ref="1244081478"/>
    <nd ref="110433258"/>
    <nd ref="262501954"/>
    <nd ref="110433260"/>
    <nd ref="110366256"/>
    <nd ref="671892982"/>
    <nd ref="110433262"/>
    <nd ref="262501968"/>
    <nd ref="262501969"/>
    <nd ref="262501970"/>
    <nd ref="110433264"/>
    <nd ref="262501971"/>
    <nd ref="110433266"/>
    <nd ref="110433270"/>
    <nd ref="262502057"/>
    <nd ref="262502058"/>
    <nd ref="262502059"/>
    <nd ref="110433272"/>
    <nd ref="110433274"/>
    <nd ref="262502060"/>
    <nd ref="304693654"/>
    <nd ref="110375288"/>
    <nd ref="262502061"/>
    <nd ref="262502062"/>
    <nd ref="110433276"/>
    <nd ref="294360189"/>
    <nd ref="262503173"/>
    <nd ref="262503175"/>
    <nd ref="262503177"/>
    <nd ref="262503227"/>
    <nd ref="110369182"/>
    <tag k="highway" v="track"/>
    <tag k="name" v="Tennessee Valley Road"/>
    <tag k="surface" v="unpaved"/>
  </way>
  <way id="28739234" version="7" timestamp="2011-04-14T07:02:46Z" uid="81024" user="wallclimber21" changeset="7858071">
    <nd ref="110349029"/>
    <nd ref="110433252"/>
    <nd ref="1244081481"/>
    <nd ref="110433254"/>
    <nd ref="1244081478"/>
    <nd ref="110433258"/>
    <nd ref="1244085874"/>
    <nd ref="262501954"/>
    <nd ref="110433260"/>
    <nd ref="110366256"/>
    <nd ref="671892982"/>
    <nd ref="1244085888"/>
    <nd ref="1244085881"/>
    <nd ref="110433262"/>
    <nd ref="262501968"/>
    <nd ref="1244085855"/>
    <nd ref="262501969"/>
    <nd ref="1244085875"/>
    <nd ref="262501970"/>
    <nd ref="1244085883"/>
    <nd ref="110433264"/>
    <nd ref="1244085887"/>
    <nd ref="262501971"/>
    <nd ref="110433266"/>
    <nd ref="1244085877"/>
    <nd ref="1244085890"/>
    <nd ref="1244085876"/>
    <nd ref="110433270"/>
    <nd ref="1244085857"/>
    <nd ref="262502057"/>
    <nd ref="1244085871"/>
    <nd ref="262502058"/>
    <nd ref="1244085886"/>
    <nd ref="1244085861"/>
    <nd ref="1244085859"/>
    <nd ref="262502059"/>
    <nd ref="110433272"/>
    <nd ref="1244085873"/>
    <nd ref="110433274"/>
    <nd ref="1244085872"/>
    <nd ref="1244085884"/>
    <nd ref="262502060"/>
    <nd ref="304693654"/>
    <nd ref="110375288"/>
    <nd ref="262502061"/>
    <nd ref="262502062"/>
    <nd ref="110433276"/>
    <nd ref="294360189"/>
    <nd ref="262503173"/>
    <nd ref="262503175"/>
    <nd ref="262503177"/>
    <nd ref="262503227"/>
    <nd ref="110369182"/>
    <tag k="highway" v="track"/>
    <tag k="name" v="Tennessee Valley Road"/>
    <tag k="surface" v="unpaved"/>
  </way>
  <way id="28739234" version="8" timestamp="2011-04-14T07:03:22Z" uid="81024" user="wallclimber21" changeset="7858071">
    <nd ref="110349029"/>
    <nd ref="110433252"/>
    <nd ref="1244081481"/>
    <nd ref="110433254"/>
    <nd ref="1244081478"/>
    <nd ref="110433258"/>
    <nd ref="1244085874"/>
    <nd ref="262501954"/>
    <nd ref="110433260"/>
    <nd ref="110366256"/>
    <nd ref="671892982"/>
    <nd ref="1244085888"/>
    <nd ref="1244085881"/>
    <nd ref="110433262"/>
    <nd ref="262501968"/>
    <nd ref="1244085855"/>
    <nd ref="262501969"/>
    <nd ref="1244085875"/>
    <nd ref="262501970"/>
    <nd ref="1244085883"/>
    <nd ref="110433264"/>
    <nd ref="1244085887"/>
    <nd ref="262501971"/>
    <nd ref="110433266"/>
    <nd ref="1244085877"/>
    <nd ref="1244085890"/>
    <nd ref="1244085876"/>
    <nd ref="110433270"/>
    <nd ref="1244085857"/>
    <nd ref="262502057"/>
    <nd ref="1244085871"/>
    <nd ref="262502058"/>
    <nd ref="1244085886"/>
    <nd ref="1244085861"/>
    <nd ref="1244085859"/>
    <nd ref="262502059"/>
    <nd ref="110433272"/>
    <nd ref="1244085873"/>
    <nd ref="110433274"/>
    <nd ref="1244085872"/>
    <nd ref="1244085884"/>
    <nd ref="262502060"/>
    <nd ref="304693654"/>
    <nd ref="110375288"/>
    <nd ref="262502061"/>
    <nd ref="262502062"/>
    <nd ref="110433276"/>
    <nd ref="1244086822"/>
    <nd ref="1244086819"/>
    <nd ref="294360189"/>
    <nd ref="262503173"/>
    <nd ref="262503175"/>
    <nd ref="262503177"/>
    <nd ref="262503227"/>
    <nd ref="110369182"/>
    <tag k="highway" v="track"/>
    <tag k="name" v="Tennessee Valley Road"/>
    <tag k="surface" v="unpaved"/>
  </way>
  <way id="28739234" version="9" timestamp="2012-02-08T06:53:57Z" uid="153669" user="dchiles" changeset="10620856"/>
  <way id="28739237" version="4" timestamp="2010-03-28T00:22:54Z" uid="20587" user="balrog-kun" changeset="4250871">
    <nd ref="316001305"/>
    <nd ref="288532767"/>
    <nd ref="316001306"/>
    <tag k="bridge" v="yes"/>
    <tag k="created_by" v="Potlatch 0.10f"/>
    <tag k="highway" v="tertiary"/>
    <tag k="layer" v="1"/>
    <tag k="name" v="Graystone Lane"/>
    <tag k="tiger:cfcc" v="A41"/>
    <tag k="tiger:county" v="Santa Clara, CA"/>
    <tag k="tiger:name_base" v="Graystone"/>
    <tag k="tiger:name_type" v="Ln"/>
    <tag k="tiger:reviewed" v="no"/>
    <tag k="tiger:separated" v="no"/>
    <tag k="tiger:source" v="tiger_import_dch_v0.6_20070809"/>
    <tag k="tiger:tlid" v="122996078"/>
    <tag k="tiger:zip_left" v="95120"/>
    <tag k="tiger:zip_right" v="95120"/>
  </way>
  <way id="28739238" version="2" timestamp="2010-03-28T00:22:54Z" uid="20587" user="balrog-kun" changeset="4250871">
    <nd ref="316001306"/>
    <nd ref="65460334"/>
    <nd ref="65608751"/>
    <nd ref="65460979"/>
    <nd ref="288523874"/>
    <nd ref="288532769"/>
    <nd ref="288532572"/>
    <nd ref="65571628"/>
    <nd ref="65608759"/>
    <nd ref="65608766"/>
    <nd ref="288532770"/>
    <nd ref="288532574"/>
    <nd ref="288532575"/>
    <nd ref="65458872"/>
    <nd ref="288532576"/>
    <nd ref="288532771"/>
    <nd ref="65608724"/>
    <nd ref="288532773"/>
    <nd ref="65608775"/>
    <nd ref="288530310"/>
    <nd ref="65608778"/>
    <tag k="created_by" v="Potlatch 0.10f"/>
    <tag k="highway" v="tertiary"/>
    <tag k="name" v="Graystone Lane"/>
    <tag k="tiger:cfcc" v="A41"/>
    <tag k="tiger:county" v="Santa Clara, CA"/>
    <tag k="tiger:name_base" v="Graystone"/>
    <tag k="tiger:name_type" v="Ln"/>
    <tag k="tiger:reviewed" v="no"/>
    <tag k="tiger:separated" v="no"/>
    <tag k="tiger:source" v="tiger_import_dch_v0.6_20070809"/>
    <tag k="tiger:tlid" v="122996078"/>
    <tag k="tiger:zip_left" v="95120"/>
    <tag k="tiger:zip_right" v="95120"/>
  </way>
  <way id="28739238" version="3" timestamp="2010-12-30T05:55:49Z" uid="201724" user="mk408" changeset="6805918">
    <nd ref="316001306"/>
    <nd ref="65460334"/>
    <nd ref="65608751"/>
    <nd ref="65460979"/>
    <nd ref="288523874"/>
    <nd ref="288532769"/>
    <nd ref="288532572"/>
    <nd ref="65571628"/>
    <nd ref="65608759"/>
    <nd ref="65608766"/>
    <nd ref="288532770"/>
    <nd ref="288532574"/>
    <nd ref="288532575"/>
    <nd ref="65458872"/>
    <nd ref="288532576"/>
    <nd ref="288532771"/>
    <nd ref="65608724"/>
    <nd ref="1072182171"/>
    <nd ref="1072182153"/>
    <nd ref="288532773"/>
    <nd ref="65608775"/>
    <nd ref="288530310"/>
    <nd ref="65608778"/>
    <tag k="highway" v="tertiary"/>
    <tag k="name" v="Graystone Lane"/>
    <tag k="tiger:county" v="Santa Clara, CA"/>
    <tag k="tiger:name_base" v="Graystone"/>
    <tag k="tiger:name_type" v="Ln"/>
    <tag k="tiger:tlid" v="122996078"/>
    <tag k="tiger:zip_left" v="95120"/>
    <tag k="tiger:zip_right" v="95120"/>
  </way>
  <way id="28739245" version="3" timestamp="2010-03-28T00:22:55Z" uid="20587" user="balrog-kun" changeset="4250871">
    <nd ref="65667966"/>
    <nd ref="316001490"/>
    <nd ref="65585518"/>
    <nd ref="65599470"/>
    <nd ref="315999854"/>
    <nd ref="315999855"/>
    <nd ref="65642276"/>
    <nd ref="65630725"/>
    <nd ref="65661607"/>
    <nd ref="65599490"/>
    <nd ref="65483564"/>
    <nd ref="65667968"/>
    <nd ref="315999952"/>
    <nd ref="315999953"/>
    <tag k="created_by" v="Potlatch 0.10f"/>
    <tag k="highway" v="residential"/>
    <tag k="name" v="Mazzone Drive"/>
    <tag k="tiger:cfcc" v="A41"/>
    <tag k="tiger:county" v="Santa Clara, CA"/>
    <tag k="tiger:name_base" v="Mazzone"/>
    <tag k="tiger:name_type" v="Dr"/>
    <tag k="tiger:reviewed" v="no"/>
    <tag k="tiger:separated" v="no"/>
    <tag k="tiger:source" v="tiger_import_dch_v0.6_20070809"/>
    <tag k="tiger:tlid" v="122922986"/>
    <tag k="tiger:zip_left" v="95120"/>
  </way>
  <way id="28739245" version="4" timestamp="2010-12-30T01:22:51Z" uid="201724" user="mk408" changeset="6805280">
    <nd ref="65667966"/>
    <nd ref="316001490"/>
    <nd ref="65585518"/>
    <nd ref="65599470"/>
    <nd ref="315999854"/>
    <nd ref="315999855"/>
    <nd ref="65642276"/>
    <nd ref="65630725"/>
    <nd ref="65661607"/>
    <nd ref="65599490"/>
    <nd ref="65483564"/>
    <nd ref="65667968"/>
    <nd ref="315999952"/>
    <nd ref="315999953"/>
    <tag k="highway" v="tertiary"/>
    <tag k="name" v="Mazzone Drive"/>
    <tag k="tiger:county" v="Santa Clara, CA"/>
    <tag k="tiger:name_base" v="Mazzone"/>
    <tag k="tiger:name_type" v="Dr"/>
    <tag k="tiger:zip_left" v="95120"/>
  </way>
  <way id="28739246" version="3" timestamp="2010-03-28T00:22:55Z" uid="20587" user="balrog-kun" changeset="4250871">
    <nd ref="315998980"/>
    <nd ref="65667966"/>
    <tag k="bridge" v="yes"/>
    <tag k="created_by" v="Potlatch 0.10f"/>
    <tag k="highway" v="residential"/>
    <tag k="layer" v="1"/>
    <tag k="name" v="Mazzone Drive"/>
    <tag k="tiger:cfcc" v="A41"/>
    <tag k="tiger:county" v="Santa Clara, CA"/>
    <tag k="tiger:name_base" v="Mazzone"/>
    <tag k="tiger:name_type" v="Dr"/>
    <tag k="tiger:reviewed" v="no"/>
    <tag k="tiger:separated" v="no"/>
    <tag k="tiger:source" v="tiger_import_dch_v0.6_20070809"/>
    <tag k="tiger:tlid" v="122922986"/>
    <tag k="tiger:zip_left" v="95120"/>
  </way>
  <way id="28739246" version="4" timestamp="2010-12-30T01:22:48Z" uid="201724" user="mk408" changeset="6805280">
    <nd ref="315998980"/>
    <nd ref="65667966"/>
    <tag k="bridge" v="yes"/>
    <tag k="highway" v="tertiary"/>
    <tag k="layer" v="1"/>
    <tag k="name" v="Mazzone Drive"/>
    <tag k="tiger:county" v="Santa Clara, CA"/>
    <tag k="tiger:name_base" v="Mazzone"/>
    <tag k="tiger:name_type" v="Dr"/>
    <tag k="tiger:zip_left" v="95120"/>
  </way>
  <way id="28739273" version="4" timestamp="2010-03-28T00:22:56Z" uid="20587" user="balrog-kun" changeset="4250871">
    <nd ref="316001686"/>
    <nd ref="316001685"/>
    <nd ref="53089458"/>
    <nd ref="316001691"/>
    <tag k="highway" v="residential"/>
    <tag k="name" v="Thane Street"/>
    <tag k="tiger:cfcc" v="A41"/>
    <tag k="tiger:county" v="Alameda, CA"/>
    <tag k="tiger:name_base" v="Thane"/>
    <tag k="tiger:name_type" v="St"/>
    <tag k="tiger:reviewed" v="no"/>
    <tag k="tiger:separated" v="no"/>
    <tag k="tiger:source" v="tiger_import_dch_v0.6_20070809"/>
    <tag k="tiger:tlid" v="125030123"/>
    <tag k="tiger:zip_left" v="94536"/>
    <tag k="tiger:zip_right" v="94536"/>
  </way>
  <way id="28739353" version="27" timestamp="2010-04-07T13:10:58Z" uid="20587" user="balrog-kun" changeset="4353646">
    <nd ref="312246830"/>
    <nd ref="313108540"/>
    <nd ref="313108541"/>
    <nd ref="313108550"/>
    <nd ref="313108666"/>
    <nd ref="313108654"/>
    <nd ref="313108698"/>
    <nd ref="313108706"/>
    <nd ref="313108759"/>
    <nd ref="313108701"/>
    <nd ref="313108973"/>
    <nd ref="313108974"/>
    <nd ref="316162900"/>
    <nd ref="313108981"/>
    <nd ref="313108702"/>
    <nd ref="313109108"/>
    <nd ref="316162901"/>
    <nd ref="313109107"/>
    <nd ref="316162903"/>
    <nd ref="316162907"/>
    <nd ref="316162902"/>
    <nd ref="316162910"/>
    <nd ref="316162909"/>
    <nd ref="316163103"/>
    <nd ref="316163104"/>
    <nd ref="316163102"/>
    <nd ref="316375142"/>
    <nd ref="316375141"/>
    <nd ref="316538475"/>
    <nd ref="316538701"/>
    <nd ref="316538712"/>
    <nd ref="316538713"/>
    <nd ref="316538702"/>
    <nd ref="316538703"/>
    <nd ref="316539552"/>
    <nd ref="316908339"/>
    <nd ref="316908336"/>
    <nd ref="316908423"/>
    <nd ref="316911982"/>
    <nd ref="316908337"/>
    <nd ref="316996780"/>
    <nd ref="316996730"/>
    <nd ref="316996919"/>
    <nd ref="316996957"/>
    <nd ref="316997013"/>
    <nd ref="316997127"/>
    <nd ref="316997278"/>
    <nd ref="318547597"/>
    <tag k="created_by" v="Potlatch 0.10f"/>
    <tag k="highway" v="secondary"/>
    <tag k="name" v="Southeast 44th Street"/>
    <tag k="name_1" v="Mitchell Avenue"/>
    <tag k="oneway" v="yes"/>
    <tag k="tiger:cfcc" v="A41"/>
    <tag k="tiger:county" v="Oklahoma, OK"/>
    <tag k="tiger:name_base" v="44th"/>
    <tag k="tiger:name_base_1" v="Mitchell"/>
    <tag k="tiger:name_direction_prefix" v="SE"/>
    <tag k="tiger:name_type" v="St"/>
    <tag k="tiger:name_type_1" v="Ave"/>
    <tag k="tiger:reviewed" v="no"/>
    <tag k="tiger:separated" v="no"/>
    <tag k="tiger:source" v="tiger_import_dch_v0.6_20070829"/>
    <tag k="tiger:tlid" v="100418804:100418679:100418386:100418647:100418648:100428765:100428766"/>
  </way>
  <way id="28739363" version="15" timestamp="2010-04-07T13:11:00Z" uid="20587" user="balrog-kun" changeset="4353646">
    <nd ref="147449508"/>
    <nd ref="339063340"/>
    <nd ref="339063341"/>
    <nd ref="339063342"/>
    <nd ref="339063343"/>
    <nd ref="339063344"/>
    <nd ref="339063323"/>
    <nd ref="339063330"/>
    <nd ref="339063331"/>
    <nd ref="339063332"/>
    <nd ref="339063325"/>
    <nd ref="147472890"/>
    <nd ref="316902332"/>
    <nd ref="147443532"/>
    <nd ref="147468785"/>
    <nd ref="147468546"/>
    <nd ref="147472888"/>
    <nd ref="316907700"/>
    <nd ref="147472886"/>
    <nd ref="147472884"/>
    <nd ref="147472882"/>
    <nd ref="147446508"/>
    <nd ref="316538697"/>
    <nd ref="147450723"/>
    <nd ref="147472880"/>
    <nd ref="147472878"/>
    <nd ref="147433795"/>
    <nd ref="147472877"/>
    <nd ref="147472876"/>
    <nd ref="147472875"/>
    <nd ref="147472872"/>
    <nd ref="147472870"/>
    <nd ref="147372089"/>
    <nd ref="313202208"/>
    <nd ref="147425914"/>
    <nd ref="147472868"/>
    <nd ref="313192348"/>
    <nd ref="147455441"/>
    <nd ref="147470838"/>
    <nd ref="147434372"/>
    <nd ref="147408124"/>
    <nd ref="147472866"/>
    <nd ref="147427906"/>
    <nd ref="147472864"/>
    <nd ref="313109750"/>
    <nd ref="147472862"/>
    <nd ref="147472859"/>
    <nd ref="147357639"/>
    <nd ref="147472857"/>
    <nd ref="147472856"/>
    <nd ref="313109748"/>
    <nd ref="147401869"/>
    <nd ref="147472854"/>
    <nd ref="147422289"/>
    <nd ref="313109430"/>
    <nd ref="147434011"/>
    <nd ref="299874731"/>
    <nd ref="147472852"/>
    <nd ref="147472850"/>
    <nd ref="147438924"/>
    <tag k="created_by" v="Potlatch 0.10f"/>
    <tag k="highway" v="secondary"/>
    <tag k="name" v="Southeast 59th Street"/>
    <tag k="oneway" v="yes"/>
    <tag k="tiger:cfcc" v="A41"/>
    <tag k="tiger:county" v="Oklahoma, OK"/>
    <tag k="tiger:name_base" v="59th"/>
    <tag k="tiger:name_direction_prefix" v="SE"/>
    <tag k="tiger:name_type" v="St"/>
    <tag k="tiger:reviewed" v="no"/>
    <tag k="tiger:separated" v="no"/>
    <tag k="tiger:source" v="tiger_import_dch_v0.6_20070829"/>
    <tag k="tiger:tlid" v="100448362:100418942:100418944:100418946:100418879:100450093:100418781:100418746:100418745:100418488:100418489:100422666:100428774:100418457:100433283:100418887:100418888"/>
    <tag k="tiger:zip_left" v="73135"/>
    <tag k="tiger:zip_right" v="73135"/>
  </way>
  <way id="28739374" version="3" timestamp="2010-07-09T03:10:20Z" uid="74617" user="JohnSmith" changeset="5170713">
    <nd ref="313257482"/>
    <nd ref="316002645"/>
    <nd ref="316002647"/>
    <tag k="highway" v="residential"/>
    <tag k="maxspeed" v="50"/>
    <tag k="maxspeed:source" v="default residential speed limit in Australia"/>
    <tag k="name" v="Tambo Court"/>
  </way>
  <way id="28739374" version="4" timestamp="2012-01-17T22:53:15Z" uid="147510" user="woodpeck_fixbot" changeset="10421060">
    <nd ref="313257482"/>
    <nd ref="316002645"/>
    <nd ref="316002647"/>
    <tag k="highway" v="residential"/>
    <tag k="name" v="Tambo Court"/>
  </way>
  <way id="28739378" version="5" timestamp="2010-07-09T03:07:32Z" uid="74617" user="JohnSmith" changeset="5170713">
    <nd ref="193725452"/>
    <nd ref="316002691"/>
    <nd ref="316002845"/>
    <nd ref="316002687"/>
    <nd ref="316002688"/>
    <nd ref="316002689"/>
    <nd ref="316002690"/>
    <tag k="highway" v="residential"/>
    <tag k="maxspeed" v="50"/>
    <tag k="maxspeed:source" v="default residential speed limit in Australia"/>
    <tag k="name" v="Blackwood Avenue"/>
  </way>
  <way id="28739378" version="6" timestamp="2012-01-17T22:53:17Z" uid="147510" user="woodpeck_fixbot" changeset="10421060">
    <nd ref="193725452"/>
    <nd ref="316002691"/>
    <nd ref="316002845"/>
    <nd ref="316002687"/>
    <nd ref="316002688"/>
    <nd ref="316002689"/>
    <nd ref="316002690"/>
    <tag k="highway" v="residential"/>
    <tag k="name" v="Blackwood Avenue"/>
  </way>
  <way id="28739380" version="3" timestamp="2010-07-09T03:10:24Z" uid="74617" user="JohnSmith" changeset="5170713">
    <nd ref="316002691"/>
    <nd ref="316002692"/>
    <tag k="highway" v="residential"/>
    <tag k="maxspeed" v="50"/>
    <tag k="maxspeed:source" v="default residential speed limit in Australia"/>
    <tag k="name" v="Maxine Court"/>
  </way>
  <way id="28739380" version="4" timestamp="2012-01-17T22:53:18Z" uid="147510" user="woodpeck_fixbot" changeset="10421060">
    <nd ref="316002691"/>
    <nd ref="316002692"/>
    <tag k="highway" v="residential"/>
    <tag k="name" v="Maxine Court"/>
  </way>
  <way id="28739385" version="13" timestamp="2010-05-23T14:37:54Z" uid="4467" user="Rosscoe" changeset="4783793">
    <nd ref="316002708"/>
    <nd ref="316002925"/>
    <nd ref="316002950"/>
    <nd ref="316002735"/>
    <nd ref="316002722"/>
    <nd ref="316002723"/>
    <nd ref="316002724"/>
    <nd ref="316002725"/>
    <nd ref="445416579"/>
    <nd ref="316002961"/>
    <nd ref="445416593"/>
    <nd ref="445416539"/>
    <nd ref="316003106"/>
    <nd ref="316003100"/>
    <nd ref="731833150"/>
    <nd ref="316002726"/>
    <nd ref="316002727"/>
    <nd ref="316002728"/>
    <nd ref="316003135"/>
    <nd ref="316002729"/>
    <tag k="highway" v="residential"/>
    <tag k="name" v="Glenelg Drive"/>
  </way>
  <way id="28739385" version="14" timestamp="2010-07-09T03:06:49Z" uid="74617" user="JohnSmith" changeset="5170713">
    <nd ref="316002708"/>
    <nd ref="316002925"/>
    <nd ref="316002950"/>
    <nd ref="316002735"/>
    <nd ref="316002722"/>
    <nd ref="316002723"/>
    <nd ref="316002724"/>
    <nd ref="316002725"/>
    <nd ref="445416579"/>
    <nd ref="316002961"/>
    <nd ref="445416593"/>
    <nd ref="445416539"/>
    <nd ref="316003106"/>
    <nd ref="316003100"/>
    <nd ref="731833150"/>
    <nd ref="316002726"/>
    <nd ref="316002727"/>
    <nd ref="316002728"/>
    <nd ref="316003135"/>
    <nd ref="316002729"/>
    <tag k="highway" v="residential"/>
    <tag k="maxspeed" v="50"/>
    <tag k="maxspeed:source" v="default residential speed limit in Australia"/>
    <tag k="name" v="Glenelg Drive"/>
  </way>
  <way id="28739385" version="15" timestamp="2012-01-17T22:53:19Z" uid="147510" user="woodpeck_fixbot" changeset="10421060">
    <nd ref="316002708"/>
    <nd ref="316002925"/>
    <nd ref="316002950"/>
    <nd ref="316002735"/>
    <nd ref="316002722"/>
    <nd ref="316002723"/>
    <nd ref="316002724"/>
    <nd ref="316002725"/>
    <nd ref="445416579"/>
    <nd ref="316002961"/>
    <nd ref="445416593"/>
    <nd ref="445416539"/>
    <nd ref="316003106"/>
    <nd ref="316003100"/>
    <nd ref="731833150"/>
    <nd ref="316002726"/>
    <nd ref="316002727"/>
    <nd ref="316002728"/>
    <nd ref="316003135"/>
    <nd ref="316002729"/>
    <tag k="highway" v="residential"/>
    <tag k="name" v="Glenelg Drive"/>
  </way>
  <way id="28739387" version="6" timestamp="2010-07-09T03:07:45Z" uid="74617" user="JohnSmith" changeset="5170713">
    <nd ref="316002735"/>
    <nd ref="316002837"/>
    <nd ref="316002838"/>
    <nd ref="445416524"/>
    <nd ref="316002846"/>
    <nd ref="316002839"/>
    <nd ref="445416528"/>
    <nd ref="316002840"/>
    <nd ref="316002841"/>
    <nd ref="316003092"/>
    <nd ref="316002842"/>
    <nd ref="316002843"/>
    <nd ref="316002844"/>
    <nd ref="316002845"/>
    <tag k="highway" v="residential"/>
    <tag k="maxspeed" v="50"/>
    <tag k="maxspeed:source" v="default residential speed limit in Australia"/>
    <tag k="name" v="Cedar Street"/>
  </way>
  <way id="28739387" version="7" timestamp="2012-01-17T22:53:23Z" uid="147510" user="woodpeck_fixbot" changeset="10421060">
    <nd ref="316002735"/>
    <nd ref="316002837"/>
    <nd ref="316002838"/>
    <nd ref="445416524"/>
    <nd ref="316002846"/>
    <nd ref="316002839"/>
    <nd ref="445416528"/>
    <nd ref="316002840"/>
    <nd ref="316002841"/>
    <nd ref="316003092"/>
    <nd ref="316002842"/>
    <nd ref="316002843"/>
    <nd ref="316002844"/>
    <nd ref="316002845"/>
    <tag k="highway" v="residential"/>
    <tag k="name" v="Cedar Street"/>
  </way>
  <way id="28739389" version="3" timestamp="2010-07-09T03:10:35Z" uid="74617" user="JohnSmith" changeset="5170713">
    <nd ref="316002846"/>
    <nd ref="316002869"/>
    <nd ref="316002870"/>
    <nd ref="316002871"/>
    <tag k="highway" v="residential"/>
    <tag k="maxspeed" v="50"/>
    <tag k="maxspeed:source" v="default residential speed limit in Australia"/>
    <tag k="name" v="Ovens Court"/>
  </way>
  <way id="28739389" version="4" timestamp="2012-01-17T22:53:24Z" uid="147510" user="woodpeck_fixbot" changeset="10421060">
    <nd ref="316002846"/>
    <nd ref="316002869"/>
    <nd ref="316002870"/>
    <nd ref="316002871"/>
    <tag k="highway" v="residential"/>
    <tag k="name" v="Ovens Court"/>
  </way>
  <way id="28739390" version="4" timestamp="2010-07-09T03:09:09Z" uid="74617" user="JohnSmith" changeset="5170713">
    <nd ref="316002838"/>
    <nd ref="316002874"/>
    <nd ref="316002875"/>
    <nd ref="316002876"/>
    <tag k="highway" v="residential"/>
    <tag k="maxspeed" v="50"/>
    <tag k="maxspeed:source" v="default residential speed limit in Australia"/>
    <tag k="name" v="Lachlan Street"/>
  </way>
  <way id="28739390" version="5" timestamp="2012-01-17T22:53:26Z" uid="147510" user="woodpeck_fixbot" changeset="10421060">
    <nd ref="316002838"/>
    <nd ref="316002874"/>
    <nd ref="316002875"/>
    <nd ref="316002876"/>
    <tag k="highway" v="residential"/>
    <tag k="name" v="Lachlan Street"/>
  </way>
  <way id="28739392" version="3" timestamp="2010-07-09T03:10:16Z" uid="74617" user="JohnSmith" changeset="5170713">
    <nd ref="316002875"/>
    <nd ref="316002883"/>
    <tag k="highway" v="residential"/>
    <tag k="maxspeed" v="50"/>
    <tag k="maxspeed:source" v="default residential speed limit in Australia"/>
    <tag k="name" v="Avon Court"/>
  </way>
  <way id="28739392" version="4" timestamp="2012-01-17T22:53:27Z" uid="147510" user="woodpeck_fixbot" changeset="10421060">
    <nd ref="316002875"/>
    <nd ref="316002883"/>
    <tag k="highway" v="residential"/>
    <tag k="name" v="Avon Court"/>
  </way>
  <way id="28739401" version="2" timestamp="2008-12-14T11:38:52Z" uid="6975" user="ulfl" changeset="366940">
    <nd ref="316002917"/>
    <nd ref="316002918"/>
    <tag k="waterway" v="dam"/>
  </way>
  <way id="28739401" version="3" timestamp="2011-10-18T03:56:05Z" uid="47247" user="sammuell" changeset="9587536"/>
  <way id="28739404" version="4" timestamp="2010-07-09T03:06:31Z" uid="74617" user="JohnSmith" changeset="5170713">
    <nd ref="316002925"/>
    <nd ref="316002933"/>
    <nd ref="316002934"/>
    <nd ref="316002935"/>
    <tag k="highway" v="residential"/>
    <tag k="maxspeed" v="50"/>
    <tag k="maxspeed:source" v="default residential speed limit in Australia"/>
    <tag k="name" v="Avoca Court"/>
  </way>
  <way id="28739404" version="5" timestamp="2012-01-17T22:53:30Z" uid="147510" user="woodpeck_fixbot" changeset="10421060">
    <nd ref="316002925"/>
    <nd ref="316002933"/>
    <nd ref="316002934"/>
    <nd ref="316002935"/>
    <tag k="highway" v="residential"/>
    <tag k="name" v="Avoca Court"/>
  </way>
  <way id="28739405" version="3" timestamp="2010-07-09T03:08:54Z" uid="74617" user="JohnSmith" changeset="5170713">
    <nd ref="316002722"/>
    <nd ref="316002949"/>
    <tag k="highway" v="residential"/>
    <tag k="maxspeed" v="50"/>
    <tag k="maxspeed:source" v="default residential speed limit in Australia"/>
    <tag k="name" v="Daly Court"/>
  </way>
  <way id="28739405" version="4" timestamp="2012-01-17T22:53:31Z" uid="147510" user="woodpeck_fixbot" changeset="10421060">
    <nd ref="316002722"/>
    <nd ref="316002949"/>
    <tag k="highway" v="residential"/>
    <tag k="name" v="Daly Court"/>
  </way>
  <way id="28739407" version="3" timestamp="2010-07-09T03:09:40Z" uid="74617" user="JohnSmith" changeset="5170713">
    <nd ref="316002950"/>
    <nd ref="316002959"/>
    <tag k="highway" v="residential"/>
    <tag k="maxspeed" v="50"/>
    <tag k="maxspeed:source" v="default residential speed limit in Australia"/>
    <tag k="name" v="Todd Court"/>
  </way>
  <way id="28739407" version="4" timestamp="2012-01-17T22:53:35Z" uid="147510" user="woodpeck_fixbot" changeset="10421060">
    <nd ref="316002950"/>
    <nd ref="316002959"/>
    <tag k="highway" v="residential"/>
    <tag k="name" v="Todd Court"/>
  </way>
  <way id="28739423" version="4" timestamp="2010-07-09T03:08:34Z" uid="74617" user="JohnSmith" changeset="5170713">
    <nd ref="316002961"/>
    <nd ref="316003394"/>
    <nd ref="316003091"/>
    <tag k="highway" v="residential"/>
    <tag k="maxspeed" v="50"/>
    <tag k="maxspeed:source" v="default residential speed limit in Australia"/>
    <tag k="name" v="Barwon Street"/>
  </way>
  <way id="28739423" version="5" timestamp="2012-01-17T22:53:36Z" uid="147510" user="woodpeck_fixbot" changeset="10421060">
    <nd ref="316002961"/>
    <nd ref="316003394"/>
    <nd ref="316003091"/>
    <tag k="highway" v="residential"/>
    <tag k="name" v="Barwon Street"/>
  </way>
  <way id="28739424" version="4" timestamp="2010-07-09T03:07:19Z" uid="74617" user="JohnSmith" changeset="5170713">
    <nd ref="316003092"/>
    <nd ref="316003093"/>
    <nd ref="316003094"/>
    <nd ref="316003095"/>
    <nd ref="316003101"/>
    <nd ref="316003096"/>
    <nd ref="316003097"/>
    <nd ref="316003098"/>
    <nd ref="316003099"/>
    <nd ref="316003100"/>
    <tag k="highway" v="residential"/>
    <tag k="maxspeed" v="50"/>
    <tag k="maxspeed:source" v="default residential speed limit in Australia"/>
    <tag k="name" v="Derwent Street"/>
  </way>
  <way id="28739424" version="5" timestamp="2012-01-17T22:53:38Z" uid="147510" user="woodpeck_fixbot" changeset="10421060">
    <nd ref="316003092"/>
    <nd ref="316003093"/>
    <nd ref="316003094"/>
    <nd ref="316003095"/>
    <nd ref="316003101"/>
    <nd ref="316003096"/>
    <nd ref="316003097"/>
    <nd ref="316003098"/>
    <nd ref="316003099"/>
    <nd ref="316003100"/>
    <tag k="highway" v="residential"/>
    <tag k="name" v="Derwent Street"/>
  </way>
  <way id="28739426" version="3" timestamp="2010-07-09T03:08:16Z" uid="74617" user="JohnSmith" changeset="5170713">
    <nd ref="316003101"/>
    <nd ref="316003103"/>
    <nd ref="316003104"/>
    <nd ref="316003105"/>
    <tag k="highway" v="residential"/>
    <tag k="maxspeed" v="50"/>
    <tag k="maxspeed:source" v="default residential speed limit in Australia"/>
    <tag k="name" v="Bowen Court"/>
  </way>
  <way id="28739426" version="4" timestamp="2012-01-17T22:53:40Z" uid="147510" user="woodpeck_fixbot" changeset="10421060">
    <nd ref="316003101"/>
    <nd ref="316003103"/>
    <nd ref="316003104"/>
    <nd ref="316003105"/>
    <tag k="highway" v="residential"/>
    <tag k="name" v="Bowen Court"/>
  </way>
  <way id="28739427" version="7" timestamp="2010-05-23T14:39:57Z" uid="4467" user="Rosscoe" changeset="4783793">
    <nd ref="316003106"/>
    <nd ref="316003127"/>
    <nd ref="316003107"/>
    <nd ref="316003108"/>
    <nd ref="316003109"/>
    <nd ref="313257477"/>
    <nd ref="316003144"/>
    <nd ref="316003133"/>
    <nd ref="316003110"/>
    <nd ref="622980674"/>
    <tag k="highway" v="residential"/>
    <tag k="name" v="Avenza Street"/>
  </way>
  <way id="28739427" version="8" timestamp="2010-07-09T03:10:27Z" uid="74617" user="JohnSmith" changeset="5170713">
    <nd ref="316003106"/>
    <nd ref="316003127"/>
    <nd ref="316003107"/>
    <nd ref="316003108"/>
    <nd ref="316003109"/>
    <nd ref="313257477"/>
    <nd ref="316003144"/>
    <nd ref="316003133"/>
    <nd ref="316003110"/>
    <nd ref="622980674"/>
    <tag k="highway" v="residential"/>
    <tag k="maxspeed" v="50"/>
    <tag k="maxspeed:source" v="default residential speed limit in Australia"/>
    <tag k="name" v="Avenza Street"/>
  </way>
  <way id="28739427" version="9" timestamp="2012-01-17T22:53:41Z" uid="147510" user="woodpeck_fixbot" changeset="10421060">
    <nd ref="316003106"/>
    <nd ref="316003127"/>
    <nd ref="316003107"/>
    <nd ref="316003108"/>
    <nd ref="316003109"/>
    <nd ref="313257477"/>
    <nd ref="316003144"/>
    <nd ref="316003133"/>
    <nd ref="316003110"/>
    <nd ref="622980674"/>
    <tag k="highway" v="residential"/>
    <tag k="name" v="Avenza Street"/>
  </way>
  <way id="28739429" version="6" timestamp="2010-07-09T03:08:05Z" uid="74617" user="JohnSmith" changeset="5170713">
    <nd ref="316003127"/>
    <nd ref="316003292"/>
    <nd ref="316003139"/>
    <nd ref="316003128"/>
    <nd ref="316003129"/>
    <nd ref="316003130"/>
    <tag k="highway" v="residential"/>
    <tag k="maxspeed" v="50"/>
    <tag k="maxspeed:source" v="default residential speed limit in Australia"/>
    <tag k="name" v="Murray Street"/>
  </way>
  <way id="28739429" version="7" timestamp="2012-01-17T22:53:42Z" uid="147510" user="woodpeck_fixbot" changeset="10421060">
    <nd ref="316003127"/>
    <nd ref="316003292"/>
    <nd ref="316003139"/>
    <nd ref="316003128"/>
    <nd ref="316003129"/>
    <nd ref="316003130"/>
    <tag k="highway" v="residential"/>
    <tag k="name" v="Murray Street"/>
  </way>
  <way id="28739432" version="3" timestamp="2010-07-09T03:10:38Z" uid="74617" user="JohnSmith" changeset="5170713">
    <nd ref="316003139"/>
    <nd ref="316003141"/>
    <nd ref="316003142"/>
    <nd ref="316003143"/>
    <nd ref="316003144"/>
    <tag k="highway" v="residential"/>
    <tag k="maxspeed" v="50"/>
    <tag k="maxspeed:source" v="default residential speed limit in Australia"/>
    <tag k="name" v="Darling Street"/>
  </way>
  <way id="28739432" version="4" timestamp="2012-01-17T22:53:44Z" uid="147510" user="woodpeck_fixbot" changeset="10421060">
    <nd ref="316003139"/>
    <nd ref="316003141"/>
    <nd ref="316003142"/>
    <nd ref="316003143"/>
    <nd ref="316003144"/>
    <tag k="highway" v="residential"/>
    <tag k="name" v="Darling Street"/>
  </way>
  <way id="28739450" version="2" timestamp="2010-04-03T04:04:07Z" uid="20587" user="balrog-kun" changeset="4309442">
    <nd ref="315299612"/>
    <nd ref="316003241"/>
    <nd ref="316003242"/>
    <nd ref="316003243"/>
    <tag k="created_by" v="Merkaartor 0.12"/>
    <tag k="highway" v="residential"/>
    <tag k="name" v="South 198th Avenue"/>
  </way>
  <way id="28739452" version="2" timestamp="2010-04-03T04:04:07Z" uid="20587" user="balrog-kun" changeset="4309442">
    <nd ref="316003241"/>
    <nd ref="316003244"/>
    <nd ref="316003245"/>
    <tag k="created_by" v="Merkaartor 0.12"/>
    <tag k="highway" v="residential"/>
    <tag k="name" v="West Primrose Lane"/>
  </way>
  <way id="28739453" version="2" timestamp="2010-04-03T04:04:07Z" uid="20587" user="balrog-kun" changeset="4309442">
    <nd ref="316003242"/>
    <nd ref="316003246"/>
    <tag k="created_by" v="Merkaartor 0.12"/>
    <tag k="highway" v="residential"/>
    <tag k="name" v="West Magnolia Street"/>
  </way>
  <way id="28739454" version="2" timestamp="2010-04-03T04:04:08Z" uid="20587" user="balrog-kun" changeset="4309442">
    <nd ref="316003247"/>
    <nd ref="316003243"/>
    <tag k="created_by" v="Merkaartor 0.12"/>
    <tag k="highway" v="residential"/>
    <tag k="name" v="West Hammond Drive"/>
  </way>
  <way id="28739455" version="2" timestamp="2010-04-03T04:04:08Z" uid="20587" user="balrog-kun" changeset="4309442">
    <nd ref="316003245"/>
    <nd ref="316003248"/>
    <nd ref="316003247"/>
    <tag k="created_by" v="Merkaartor 0.12"/>
    <tag k="highway" v="residential"/>
    <tag k="name" v="South 195th Drive"/>
  </way>
  <way id="28739456" version="2" timestamp="2010-04-03T04:04:08Z" uid="20587" user="balrog-kun" changeset="4309442">
    <nd ref="316003248"/>
    <nd ref="316003250"/>
    <tag k="created_by" v="Merkaartor 0.12"/>
    <tag k="highway" v="residential"/>
    <tag k="name" v="West Magnolia Street"/>
  </way>
  <way id="28739463" version="3" timestamp="2010-07-09T03:08:04Z" uid="74617" user="JohnSmith" changeset="5170713">
    <nd ref="316003292"/>
    <nd ref="316003308"/>
    <nd ref="316003309"/>
    <nd ref="316003310"/>
    <nd ref="316003311"/>
    <tag k="highway" v="residential"/>
    <tag k="maxspeed" v="50"/>
    <tag k="maxspeed:source" v="default residential speed limit in Australia"/>
    <tag k="name" v="Lyons Court"/>
  </way>
  <way id="28739463" version="4" timestamp="2012-01-17T22:53:45Z" uid="147510" user="woodpeck_fixbot" changeset="10421060">
    <nd ref="316003292"/>
    <nd ref="316003308"/>
    <nd ref="316003309"/>
    <nd ref="316003310"/>
    <nd ref="316003311"/>
    <tag k="highway" v="residential"/>
    <tag k="name" v="Lyons Court"/>
  </way>
  <way id="28739472" version="6" timestamp="2010-05-23T14:40:29Z" uid="4467" user="Rosscoe" changeset="4783793">
    <nd ref="316003312"/>
    <nd ref="316004575"/>
    <nd ref="316004581"/>
    <nd ref="316003388"/>
    <nd ref="316003389"/>
    <nd ref="316003390"/>
    <nd ref="316003391"/>
    <tag k="highway" v="residential"/>
    <tag k="name" v="Blackwood Avenue"/>
  </way>
  <way id="28739472" version="7" timestamp="2010-07-09T03:10:41Z" uid="74617" user="JohnSmith" changeset="5170713">
    <nd ref="316003312"/>
    <nd ref="316004575"/>
    <nd ref="316004581"/>
    <nd ref="316003388"/>
    <nd ref="316003389"/>
    <nd ref="316003390"/>
    <nd ref="316003391"/>
    <tag k="highway" v="residential"/>
    <tag k="maxspeed" v="50"/>
    <tag k="maxspeed:source" v="default residential speed limit in Australia"/>
    <tag k="name" v="Blackwood Avenue"/>
  </way>
  <way id="28739472" version="8" timestamp="2012-01-17T22:53:46Z" uid="147510" user="woodpeck_fixbot" changeset="10421060">
    <nd ref="316003312"/>
    <nd ref="316004575"/>
    <nd ref="316004581"/>
    <nd ref="316003388"/>
    <nd ref="316003389"/>
    <nd ref="316003390"/>
    <nd ref="316003391"/>
    <tag k="highway" v="residential"/>
    <tag k="name" v="Blackwood Avenue"/>
  </way>
  <way id="28739473" version="7" timestamp="2010-07-09T03:07:38Z" uid="74617" user="JohnSmith" changeset="5170713">
    <nd ref="316003388"/>
    <nd ref="317345513"/>
    <nd ref="316004573"/>
    <nd ref="317345515"/>
    <nd ref="316004644"/>
    <nd ref="316003393"/>
    <tag k="highway" v="residential"/>
    <tag k="maxspeed" v="50"/>
    <tag k="maxspeed:source" v="default residential speed limit in Australia"/>
    <tag k="name" v="Broome Avenue"/>
  </way>
  <way id="28739473" version="8" timestamp="2012-01-17T22:53:48Z" uid="147510" user="woodpeck_fixbot" changeset="10421060">
    <nd ref="316003388"/>
    <nd ref="317345513"/>
    <nd ref="316004573"/>
    <nd ref="317345515"/>
    <nd ref="316004644"/>
    <nd ref="316003393"/>
    <tag k="highway" v="residential"/>
    <tag k="name" v="Broome Avenue"/>
  </way>
  <way id="28739474" version="3" timestamp="2010-07-09T03:06:01Z" uid="74617" user="JohnSmith" changeset="5170713">
    <nd ref="316003394"/>
    <nd ref="316003395"/>
    <nd ref="316003396"/>
    <tag k="highway" v="residential"/>
    <tag k="maxspeed" v="50"/>
    <tag k="maxspeed:source" v="default residential speed limit in Australia"/>
    <tag k="name" v="Logan Court"/>
  </way>
  <way id="28739474" version="4" timestamp="2012-01-17T22:53:51Z" uid="147510" user="woodpeck_fixbot" changeset="10421060">
    <nd ref="316003394"/>
    <nd ref="316003395"/>
    <nd ref="316003396"/>
    <tag k="highway" v="residential"/>
    <tag k="name" v="Logan Court"/>
  </way>
  <way id="28739598" version="4" timestamp="2010-07-09T03:07:25Z" uid="74617" user="JohnSmith" changeset="5170713">
    <nd ref="375690024"/>
    <nd ref="731835499"/>
    <nd ref="316004402"/>
    <tag k="highway" v="residential"/>
    <tag k="maxspeed" v="50"/>
    <tag k="maxspeed:source" v="default residential speed limit in Australia"/>
    <tag k="name" v="Collins Street"/>
    <tag k="source" v="MMBW"/>
  </way>
  <way id="28739598" version="5" timestamp="2012-01-17T22:53:54Z" uid="147510" user="woodpeck_fixbot" changeset="10421060">
    <nd ref="375690024"/>
    <nd ref="731835499"/>
    <nd ref="316004402"/>
    <tag k="highway" v="residential"/>
    <tag k="name" v="Collins Street"/>
    <tag k="source" v="MMBW"/>
  </way>
  <way id="28739605" version="3" timestamp="2010-05-23T14:38:40Z" uid="4467" user="Rosscoe" changeset="4783793">
    <nd ref="316004416"/>
    <nd ref="746504195"/>
    <nd ref="316004422"/>
    <tag k="highway" v="residential"/>
    <tag k="name" v="Tolls Avenue"/>
  </way>
  <way id="28739605" version="4" timestamp="2010-07-09T03:09:44Z" uid="74617" user="JohnSmith" changeset="5170713">
    <nd ref="316004416"/>
    <nd ref="746504195"/>
    <nd ref="316004422"/>
    <tag k="highway" v="residential"/>
    <tag k="maxspeed" v="50"/>
    <tag k="maxspeed:source" v="default residential speed limit in Australia"/>
    <tag k="name" v="Tolls Avenue"/>
  </way>
  <way id="28739605" version="5" timestamp="2012-01-17T22:53:56Z" uid="147510" user="woodpeck_fixbot" changeset="10421060">
    <nd ref="316004416"/>
    <nd ref="746504195"/>
    <nd ref="316004422"/>
    <tag k="highway" v="residential"/>
    <tag k="name" v="Tolls Avenue"/>
  </way>
  <way id="28739607" version="3" timestamp="2010-05-23T14:40:17Z" uid="4467" user="Rosscoe" changeset="4783793">
    <nd ref="316004423"/>
    <nd ref="746504296"/>
    <nd ref="316004424"/>
    <tag k="highway" v="residential"/>
    <tag k="name" v="Neville Street"/>
  </way>
  <way id="28739607" version="4" timestamp="2010-07-09T03:10:33Z" uid="74617" user="JohnSmith" changeset="5170713">
    <nd ref="316004423"/>
    <nd ref="746504296"/>
    <nd ref="316004424"/>
    <tag k="highway" v="residential"/>
    <tag k="maxspeed" v="50"/>
    <tag k="maxspeed:source" v="default residential speed limit in Australia"/>
    <tag k="name" v="Neville Street"/>
  </way>
  <way id="28739607" version="5" timestamp="2012-01-17T22:54:01Z" uid="147510" user="woodpeck_fixbot" changeset="10421060">
    <nd ref="316004423"/>
    <nd ref="746504296"/>
    <nd ref="316004424"/>
    <tag k="highway" v="residential"/>
    <tag k="name" v="Neville Street"/>
  </way>
  <way id="28739608" version="3" timestamp="2010-05-23T14:37:39Z" uid="4467" user="Rosscoe" changeset="4783793">
    <nd ref="316004450"/>
    <nd ref="746504171"/>
    <nd ref="316003452"/>
    <tag k="highway" v="residential"/>
    <tag k="name" v="Johnston Street"/>
  </way>
  <way id="28739608" version="4" timestamp="2010-07-09T03:06:58Z" uid="74617" user="JohnSmith" changeset="5170713">
    <nd ref="316004450"/>
    <nd ref="746504171"/>
    <nd ref="316003452"/>
    <tag k="highway" v="residential"/>
    <tag k="maxspeed" v="50"/>
    <tag k="maxspeed:source" v="default residential speed limit in Australia"/>
    <tag k="name" v="Johnston Street"/>
  </way>
  <way id="28739608" version="5" timestamp="2012-01-17T22:54:02Z" uid="147510" user="woodpeck_fixbot" changeset="10421060">
    <nd ref="316004450"/>
    <nd ref="746504171"/>
    <nd ref="316003452"/>
    <tag k="highway" v="residential"/>
    <tag k="name" v="Johnston Street"/>
  </way>
  <way id="28739624" version="6" timestamp="2010-04-28T09:09:11Z" uid="4467" user="Rosscoe" changeset="4547724">
    <nd ref="316004572"/>
    <nd ref="622980439"/>
    <nd ref="710186983"/>
    <tag k="highway" v="residential"/>
    <tag k="name" v="Coolabah Street"/>
  </way>
  <way id="28739624" version="7" timestamp="2010-05-23T14:40:43Z" uid="4467" user="Rosscoe" changeset="4783793">
    <nd ref="316004572"/>
    <nd ref="710186983"/>
    <tag k="highway" v="residential"/>
    <tag k="name" v="Coolabah Street"/>
  </way>
  <way id="28739624" version="8" timestamp="2010-07-09T03:10:39Z" uid="74617" user="JohnSmith" changeset="5170713">
    <nd ref="316004572"/>
    <nd ref="710186983"/>
    <tag k="highway" v="residential"/>
    <tag k="maxspeed" v="50"/>
    <tag k="maxspeed:source" v="default residential speed limit in Australia"/>
    <tag k="name" v="Coolabah Street"/>
  </way>
  <way id="28739624" version="9" timestamp="2012-01-17T22:54:05Z" uid="147510" user="woodpeck_fixbot" changeset="10421060">
    <nd ref="316004572"/>
    <nd ref="710186983"/>
    <tag k="highway" v="residential"/>
    <tag k="name" v="Coolabah Street"/>
  </way>
  <way id="28739626" version="4" timestamp="2010-04-28T09:09:19Z" uid="4467" user="Rosscoe" changeset="4547724">
    <nd ref="316004575"/>
    <nd ref="710187079"/>
    <tag k="highway" v="residential"/>
    <tag k="name" v="Acacia Avenue"/>
  </way>
  <way id="28739626" version="5" timestamp="2010-07-09T03:06:00Z" uid="74617" user="JohnSmith" changeset="5170713">
    <nd ref="316004575"/>
    <nd ref="710187079"/>
    <tag k="highway" v="residential"/>
    <tag k="maxspeed" v="50"/>
    <tag k="maxspeed:source" v="default residential speed limit in Australia"/>
    <tag k="name" v="Acacia Avenue"/>
  </way>
  <way id="28739626" version="6" timestamp="2012-01-17T22:54:10Z" uid="147510" user="woodpeck_fixbot" changeset="10421060">
    <nd ref="316004575"/>
    <nd ref="710187079"/>
    <tag k="highway" v="residential"/>
    <tag k="name" v="Acacia Avenue"/>
  </way>
  <way id="28739628" version="3" timestamp="2010-07-09T03:09:01Z" uid="74617" user="JohnSmith" changeset="5170713">
    <nd ref="316004581"/>
    <nd ref="316004582"/>
    <tag k="highway" v="residential"/>
    <tag k="maxspeed" v="50"/>
    <tag k="maxspeed:source" v="default residential speed limit in Australia"/>
    <tag k="name" v="Sycamore Avenue"/>
  </way>
  <way id="28739628" version="4" timestamp="2012-01-17T22:54:13Z" uid="147510" user="woodpeck_fixbot" changeset="10421060">
    <nd ref="316004581"/>
    <nd ref="316004582"/>
    <tag k="highway" v="residential"/>
    <tag k="name" v="Sycamore Avenue"/>
  </way>
  <way id="28739635" version="6" timestamp="2010-05-23T14:38:34Z" uid="4467" user="Rosscoe" changeset="4783793">
    <nd ref="316004606"/>
    <nd ref="316004580"/>
    <nd ref="316004629"/>
    <nd ref="316003393"/>
    <nd ref="316004642"/>
    <nd ref="316004622"/>
    <tag k="highway" v="residential"/>
    <tag k="name" v="Southern Road"/>
  </way>
  <way id="28739635" version="7" timestamp="2010-07-09T03:09:15Z" uid="74617" user="JohnSmith" changeset="5170713">
    <nd ref="316004606"/>
    <nd ref="316004580"/>
    <nd ref="316004629"/>
    <nd ref="316003393"/>
    <nd ref="316004642"/>
    <nd ref="316004622"/>
    <tag k="highway" v="residential"/>
    <tag k="maxspeed" v="50"/>
    <tag k="maxspeed:source" v="default residential speed limit in Australia"/>
    <tag k="name" v="Southern Road"/>
  </way>
  <way id="28739635" version="8" timestamp="2012-01-17T22:54:24Z" uid="147510" user="woodpeck_fixbot" changeset="10421060">
    <nd ref="316004606"/>
    <nd ref="316004580"/>
    <nd ref="316004629"/>
    <nd ref="316003393"/>
    <nd ref="316004642"/>
    <nd ref="316004622"/>
    <tag k="highway" v="residential"/>
    <tag k="name" v="Southern Road"/>
  </way>
  <way id="28739636" version="5" timestamp="2010-05-23T14:39:10Z" uid="4467" user="Rosscoe" changeset="4783793">
    <nd ref="308862535"/>
    <nd ref="316004625"/>
    <nd ref="316004630"/>
    <nd ref="316004626"/>
    <tag k="highway" v="residential"/>
    <tag k="name" v="Allandale Road"/>
  </way>
  <way id="28739636" version="6" timestamp="2010-07-09T03:09:53Z" uid="74617" user="JohnSmith" changeset="5170713">
    <nd ref="308862535"/>
    <nd ref="316004625"/>
    <nd ref="316004630"/>
    <nd ref="316004626"/>
    <tag k="highway" v="residential"/>
    <tag k="maxspeed" v="50"/>
    <tag k="maxspeed:source" v="default residential speed limit in Australia"/>
    <tag k="name" v="Allandale Road"/>
  </way>
  <way id="28739636" version="7" timestamp="2012-01-17T22:54:38Z" uid="147510" user="woodpeck_fixbot" changeset="10421060">
    <nd ref="308862535"/>
    <nd ref="316004625"/>
    <nd ref="316004630"/>
    <nd ref="316004626"/>
    <tag k="highway" v="residential"/>
    <tag k="name" v="Allandale Road"/>
  </way>
  <way id="28739638" version="5" timestamp="2010-07-09T03:10:42Z" uid="74617" user="JohnSmith" changeset="5170713">
    <nd ref="316004625"/>
    <nd ref="622981244"/>
    <nd ref="622981247"/>
    <nd ref="317345511"/>
    <nd ref="316004629"/>
    <tag k="highway" v="residential"/>
    <tag k="maxspeed" v="50"/>
    <tag k="maxspeed:source" v="default residential speed limit in Australia"/>
    <tag k="name" v="Sharan Avenue"/>
  </way>
  <way id="28739638" version="6" timestamp="2012-01-17T22:54:40Z" uid="147510" user="woodpeck_fixbot" changeset="10421060">
    <nd ref="316004625"/>
    <nd ref="622981244"/>
    <nd ref="622981247"/>
    <nd ref="317345511"/>
    <nd ref="316004629"/>
    <tag k="highway" v="residential"/>
    <tag k="name" v="Sharan Avenue"/>
  </way>
  <way id="28739641" version="4" timestamp="2010-07-09T03:06:15Z" uid="74617" user="JohnSmith" changeset="5170713">
    <nd ref="316004630"/>
    <nd ref="317345510"/>
    <nd ref="316004642"/>
    <nd ref="316004643"/>
    <tag k="highway" v="residential"/>
    <tag k="maxspeed" v="50"/>
    <tag k="maxspeed:source" v="default residential speed limit in Australia"/>
    <tag k="name" v="Delville Avenue"/>
  </way>
  <way id="28739641" version="5" timestamp="2012-01-17T22:54:47Z" uid="147510" user="woodpeck_fixbot" changeset="10421060">
    <nd ref="316004630"/>
    <nd ref="317345510"/>
    <nd ref="316004642"/>
    <nd ref="316004643"/>
    <tag k="highway" v="residential"/>
    <tag k="name" v="Delville Avenue"/>
  </way>
  <way id="28739643" version="3" timestamp="2010-07-09T03:07:07Z" uid="74617" user="JohnSmith" changeset="5170713">
    <nd ref="316004644"/>
    <nd ref="316004643"/>
    <nd ref="316004646"/>
    <tag k="highway" v="residential"/>
    <tag k="maxspeed" v="50"/>
    <tag k="maxspeed:source" v="default residential speed limit in Australia"/>
    <tag k="name" v="Craigmore Avenue"/>
  </way>
  <way id="28739643" version="4" timestamp="2012-01-17T22:54:55Z" uid="147510" user="woodpeck_fixbot" changeset="10421060">
    <nd ref="316004644"/>
    <nd ref="316004643"/>
    <nd ref="316004646"/>
    <tag k="highway" v="residential"/>
    <tag k="name" v="Craigmore Avenue"/>
  </way>
  <way id="28739647" version="6" timestamp="2010-07-09T03:10:53Z" uid="74617" user="JohnSmith" changeset="5170713">
    <nd ref="316004659"/>
    <nd ref="316004682"/>
    <nd ref="382893252"/>
    <tag k="highway" v="residential"/>
    <tag k="maxspeed" v="50"/>
    <tag k="maxspeed:source" v="default residential speed limit in Australia"/>
    <tag k="name" v="Houston Street"/>
  </way>
  <way id="28739647" version="7" timestamp="2012-01-17T22:54:58Z" uid="147510" user="woodpeck_fixbot" changeset="10421060">
    <nd ref="316004659"/>
    <nd ref="316004682"/>
    <nd ref="382893252"/>
    <tag k="highway" v="residential"/>
    <tag k="name" v="Houston Street"/>
  </way>
  <way id="28739649" version="7" timestamp="2010-05-23T14:40:28Z" uid="4467" user="Rosscoe" changeset="4783793">
    <nd ref="316004661"/>
    <nd ref="316004685"/>
    <nd ref="316004683"/>
    <nd ref="316004675"/>
    <nd ref="382893253"/>
    <tag k="highway" v="residential"/>
    <tag k="name" v="Bundora Parade"/>
  </way>
  <way id="28739649" version="8" timestamp="2010-07-09T03:06:38Z" uid="74617" user="JohnSmith" changeset="5170713">
    <nd ref="316004661"/>
    <nd ref="316004685"/>
    <nd ref="316004683"/>
    <nd ref="316004675"/>
    <nd ref="382893253"/>
    <tag k="highway" v="residential"/>
    <tag k="maxspeed" v="50"/>
    <tag k="maxspeed:source" v="default residential speed limit in Australia"/>
    <tag k="name" v="Bundora Parade"/>
  </way>
  <way id="28739649" version="9" timestamp="2012-01-17T22:55:02Z" uid="147510" user="woodpeck_fixbot" changeset="10421060">
    <nd ref="316004661"/>
    <nd ref="316004685"/>
    <nd ref="316004683"/>
    <nd ref="316004675"/>
    <nd ref="382893253"/>
    <tag k="highway" v="residential"/>
    <tag k="name" v="Bundora Parade"/>
  </way>
  <way id="28739651" version="3" timestamp="2010-07-09T03:07:33Z" uid="74617" user="JohnSmith" changeset="5170713">
    <nd ref="316004675"/>
    <nd ref="316004682"/>
    <tag k="highway" v="residential"/>
    <tag k="maxspeed" v="50"/>
    <tag k="maxspeed:source" v="default residential speed limit in Australia"/>
    <tag k="name" v="Dallas Street"/>
  </way>
  <way id="28739651" version="4" timestamp="2012-01-17T22:55:11Z" uid="147510" user="woodpeck_fixbot" changeset="10421060">
    <nd ref="316004675"/>
    <nd ref="316004682"/>
    <tag k="highway" v="residential"/>
    <tag k="name" v="Dallas Street"/>
  </way>
  <way id="28739652" version="3" timestamp="2010-07-09T03:08:15Z" uid="74617" user="JohnSmith" changeset="5170713">
    <nd ref="316004683"/>
    <nd ref="316004684"/>
    <tag k="highway" v="residential"/>
    <tag k="maxspeed" v="50"/>
    <tag k="maxspeed:source" v="default residential speed limit in Australia"/>
    <tag k="name" v="Virginia Court"/>
  </way>
  <way id="28739652" version="4" timestamp="2012-01-17T22:55:15Z" uid="147510" user="woodpeck_fixbot" changeset="10421060">
    <nd ref="316004683"/>
    <nd ref="316004684"/>
    <tag k="highway" v="residential"/>
    <tag k="name" v="Virginia Court"/>
  </way>
  <way id="28739655" version="5" timestamp="2010-07-09T03:05:43Z" uid="74617" user="JohnSmith" changeset="5170713">
    <nd ref="316004685"/>
    <nd ref="316004732"/>
    <nd ref="316004733"/>
    <nd ref="316004734"/>
    <nd ref="316004735"/>
    <nd ref="316004736"/>
    <tag k="highway" v="residential"/>
    <tag k="maxspeed" v="50"/>
    <tag k="maxspeed:source" v="default residential speed limit in Australia"/>
    <tag k="name" v="Glengala Court"/>
  </way>
  <way id="28739655" version="6" timestamp="2012-01-17T22:55:22Z" uid="147510" user="woodpeck_fixbot" changeset="10421060">
    <nd ref="316004685"/>
    <nd ref="316004732"/>
    <nd ref="316004733"/>
    <nd ref="316004734"/>
    <nd ref="316004735"/>
    <nd ref="316004736"/>
    <tag k="highway" v="residential"/>
    <tag k="name" v="Glengala Court"/>
  </way>
  <way id="28739656" version="4" timestamp="2010-07-09T03:07:46Z" uid="74617" user="JohnSmith" changeset="5170713">
    <nd ref="316004737"/>
    <nd ref="316004745"/>
    <nd ref="316004806"/>
    <nd ref="316004746"/>
    <tag k="highway" v="residential"/>
    <tag k="maxspeed" v="50"/>
    <tag k="maxspeed:source" v="default residential speed limit in Australia"/>
    <tag k="name" v="Keiller Avenue"/>
  </way>
  <way id="28739656" version="5" timestamp="2012-01-17T22:55:28Z" uid="147510" user="woodpeck_fixbot" changeset="10421060">
    <nd ref="316004737"/>
    <nd ref="316004745"/>
    <nd ref="316004806"/>
    <nd ref="316004746"/>
    <tag k="highway" v="residential"/>
    <tag k="name" v="Keiller Avenue"/>
  </way>
  <way id="28739658" version="4" timestamp="2010-05-23T14:37:51Z" uid="4467" user="Rosscoe" changeset="4783793">
    <nd ref="316004745"/>
    <nd ref="316004760"/>
    <nd ref="316004759"/>
    <tag k="highway" v="residential"/>
    <tag k="name" v="Margaret Street"/>
  </way>
  <way id="28739658" version="5" timestamp="2010-07-09T03:08:37Z" uid="74617" user="JohnSmith" changeset="5170713">
    <nd ref="316004745"/>
    <nd ref="316004760"/>
    <nd ref="316004759"/>
    <tag k="highway" v="residential"/>
    <tag k="maxspeed" v="50"/>
    <tag k="maxspeed:source" v="default residential speed limit in Australia"/>
    <tag k="name" v="Margaret Street"/>
  </way>
  <way id="28739658" version="6" timestamp="2012-01-17T22:55:30Z" uid="147510" user="woodpeck_fixbot" changeset="10421060">
    <nd ref="316004745"/>
    <nd ref="316004760"/>
    <nd ref="316004759"/>
    <tag k="highway" v="residential"/>
    <tag k="name" v="Margaret Street"/>
  </way>
  <way id="28739659" version="3" timestamp="2010-07-09T03:10:49Z" uid="74617" user="JohnSmith" changeset="5170713">
    <nd ref="316004760"/>
    <nd ref="316004761"/>
    <nd ref="316004762"/>
    <tag k="highway" v="residential"/>
    <tag k="maxspeed" v="50"/>
    <tag k="maxspeed:source" v="default residential speed limit in Australia"/>
    <tag k="name" v="Reid Street"/>
  </way>
  <way id="28739659" version="4" timestamp="2012-01-17T22:55:32Z" uid="147510" user="woodpeck_fixbot" changeset="10421060">
    <nd ref="316004760"/>
    <nd ref="316004761"/>
    <nd ref="316004762"/>
    <tag k="highway" v="residential"/>
    <tag k="name" v="Reid Street"/>
  </way>
  <way id="28739661" version="4" timestamp="2010-05-23T14:39:50Z" uid="4467" user="Rosscoe" changeset="4783793">
    <nd ref="316004761"/>
    <nd ref="316004778"/>
    <tag k="highway" v="residential"/>
    <tag k="name" v="Ewen Street"/>
  </way>
  <way id="28739661" version="5" timestamp="2010-07-09T03:08:25Z" uid="74617" user="JohnSmith" changeset="5170713">
    <nd ref="316004761"/>
    <nd ref="316004778"/>
    <tag k="highway" v="residential"/>
    <tag k="maxspeed" v="50"/>
    <tag k="maxspeed:source" v="default residential speed limit in Australia"/>
    <tag k="name" v="Ewen Street"/>
  </way>
  <way id="28739661" version="6" timestamp="2012-01-17T22:55:34Z" uid="147510" user="woodpeck_fixbot" changeset="10421060">
    <nd ref="316004761"/>
    <nd ref="316004778"/>
    <tag k="highway" v="residential"/>
    <tag k="name" v="Ewen Street"/>
  </way>
  <way id="28739663" version="4" timestamp="2010-07-09T03:09:10Z" uid="74617" user="JohnSmith" changeset="5170713">
    <nd ref="316004803"/>
    <nd ref="316004804"/>
    <nd ref="316004805"/>
    <tag k="highway" v="residential"/>
    <tag k="maxspeed" v="50"/>
    <tag k="maxspeed:source" v="default residential speed limit in Australia"/>
    <tag k="name" v="Grey Street"/>
  </way>
  <way id="28739663" version="5" timestamp="2012-01-17T22:55:36Z" uid="147510" user="woodpeck_fixbot" changeset="10421060">
    <nd ref="316004803"/>
    <nd ref="316004804"/>
    <nd ref="316004805"/>
    <tag k="highway" v="residential"/>
    <tag k="name" v="Grey Street"/>
  </way>
  <way id="28739664" version="4" timestamp="2010-07-09T03:08:40Z" uid="74617" user="JohnSmith" changeset="5170713">
    <nd ref="316004806"/>
    <nd ref="316004808"/>
    <tag k="highway" v="residential"/>
    <tag k="maxspeed" v="50"/>
    <tag k="maxspeed:source" v="default residential speed limit in Australia"/>
    <tag k="name" v="Hicks Street"/>
  </way>
  <way id="28739664" version="5" timestamp="2012-01-17T22:55:37Z" uid="147510" user="woodpeck_fixbot" changeset="10421060">
    <nd ref="316004806"/>
    <nd ref="316004808"/>
    <tag k="highway" v="residential"/>
    <tag k="name" v="Hicks Street"/>
  </way>
  <way id="28739665" version="3" timestamp="2010-07-09T03:10:51Z" uid="74617" user="JohnSmith" changeset="5170713">
    <nd ref="308862547"/>
    <nd ref="316004811"/>
    <tag k="highway" v="residential"/>
    <tag k="maxspeed" v="50"/>
    <tag k="maxspeed:source" v="default residential speed limit in Australia"/>
    <tag k="name" v="Jennifer Avenue"/>
  </way>
  <way id="28739665" version="4" timestamp="2012-01-17T22:55:41Z" uid="147510" user="woodpeck_fixbot" changeset="10421060">
    <nd ref="308862547"/>
    <nd ref="316004811"/>
    <tag k="highway" v="residential"/>
    <tag k="name" v="Jennifer Avenue"/>
  </way>
  <way id="28739668" version="6" timestamp="2010-07-09T03:06:53Z" uid="74617" user="JohnSmith" changeset="5170713">
    <nd ref="316004812"/>
    <nd ref="316004944"/>
    <nd ref="316004926"/>
    <nd ref="471034392"/>
    <nd ref="316004857"/>
    <nd ref="316004859"/>
    <nd ref="316004860"/>
    <nd ref="471034394"/>
    <nd ref="316004861"/>
    <nd ref="316004862"/>
    <nd ref="316004863"/>
    <nd ref="316004864"/>
    <nd ref="316004865"/>
    <tag k="highway" v="residential"/>
    <tag k="maxspeed" v="50"/>
    <tag k="maxspeed:source" v="default residential speed limit in Australia"/>
    <tag k="name" v="Scarlet Street"/>
  </way>
  <way id="28739668" version="7" timestamp="2012-01-17T22:55:43Z" uid="147510" user="woodpeck_fixbot" changeset="10421060">
    <nd ref="316004812"/>
    <nd ref="316004944"/>
    <nd ref="316004926"/>
    <nd ref="471034392"/>
    <nd ref="316004857"/>
    <nd ref="316004859"/>
    <nd ref="316004860"/>
    <nd ref="471034394"/>
    <nd ref="316004861"/>
    <nd ref="316004862"/>
    <nd ref="316004863"/>
    <nd ref="316004864"/>
    <nd ref="316004865"/>
    <tag k="highway" v="residential"/>
    <tag k="name" v="Scarlet Street"/>
  </way>
  <way id="28739673" version="4" timestamp="2010-07-09T03:08:49Z" uid="74617" user="JohnSmith" changeset="5170713">
    <nd ref="316004864"/>
    <nd ref="316004899"/>
    <tag k="highway" v="residential"/>
    <tag k="maxspeed" v="50"/>
    <tag k="maxspeed:source" v="default residential speed limit in Australia"/>
    <tag k="name" v="Duggan Street"/>
  </way>
  <way id="28739673" version="5" timestamp="2012-01-17T22:55:47Z" uid="147510" user="woodpeck_fixbot" changeset="10421060">
    <nd ref="316004864"/>
    <nd ref="316004899"/>
    <tag k="highway" v="residential"/>
    <tag k="name" v="Duggan Street"/>
  </way>
  <way id="28739677" version="6" timestamp="2010-05-23T14:39:24Z" uid="4467" user="Rosscoe" changeset="4783793">
    <nd ref="316004926"/>
    <nd ref="316004947"/>
    <nd ref="316004936"/>
    <nd ref="316004933"/>
    <nd ref="316004934"/>
    <tag k="highway" v="residential"/>
    <tag k="name" v="Rivette Street"/>
  </way>
  <way id="28739677" version="7" timestamp="2010-07-09T03:07:05Z" uid="74617" user="JohnSmith" changeset="5170713">
    <nd ref="316004926"/>
    <nd ref="316004947"/>
    <nd ref="316004936"/>
    <nd ref="316004933"/>
    <nd ref="316004934"/>
    <tag k="highway" v="residential"/>
    <tag k="maxspeed" v="50"/>
    <tag k="maxspeed:source" v="default residential speed limit in Australia"/>
    <tag k="name" v="Rivette Street"/>
  </way>
  <way id="28739677" version="8" timestamp="2012-01-17T22:55:53Z" uid="147510" user="woodpeck_fixbot" changeset="10421060">
    <nd ref="316004926"/>
    <nd ref="316004947"/>
    <nd ref="316004936"/>
    <nd ref="316004933"/>
    <nd ref="316004934"/>
    <tag k="highway" v="residential"/>
    <tag k="name" v="Rivette Street"/>
  </way>
  <way id="28739679" version="3" timestamp="2010-07-09T03:08:03Z" uid="74617" user="JohnSmith" changeset="5170713">
    <nd ref="316004933"/>
    <nd ref="316004935"/>
    <tag k="highway" v="residential"/>
    <tag k="maxspeed" v="50"/>
    <tag k="maxspeed:source" v="default residential speed limit in Australia"/>
    <tag k="name" v="Temora Street"/>
  </way>
  <way id="28739679" version="4" timestamp="2012-01-17T22:56:07Z" uid="147510" user="woodpeck_fixbot" changeset="10421060">
    <nd ref="316004933"/>
    <nd ref="316004935"/>
    <tag k="highway" v="residential"/>
    <tag k="name" v="Temora Street"/>
  </way>
  <way id="28739681" version="3" timestamp="2010-07-09T03:09:06Z" uid="74617" user="JohnSmith" changeset="5170713">
    <nd ref="316004936"/>
    <nd ref="316004942"/>
    <tag k="highway" v="residential"/>
    <tag k="maxspeed" v="50"/>
    <tag k="maxspeed:source" v="default residential speed limit in Australia"/>
    <tag k="name" v="Susan Street"/>
  </way>
  <way id="28739681" version="4" timestamp="2012-01-17T22:56:13Z" uid="147510" user="woodpeck_fixbot" changeset="10421060">
    <nd ref="316004936"/>
    <nd ref="316004942"/>
    <tag k="highway" v="residential"/>
    <tag k="name" v="Susan Street"/>
  </way>
  <way id="28739682" version="3" timestamp="2010-07-09T03:07:42Z" uid="74617" user="JohnSmith" changeset="5170713">
    <nd ref="316004944"/>
    <nd ref="316004946"/>
    <tag k="highway" v="residential"/>
    <tag k="maxspeed" v="50"/>
    <tag k="maxspeed:source" v="default residential speed limit in Australia"/>
    <tag k="name" v="Lisa Court"/>
  </way>
  <way id="28739682" version="4" timestamp="2012-01-17T22:56:21Z" uid="147510" user="woodpeck_fixbot" changeset="10421060">
    <nd ref="316004944"/>
    <nd ref="316004946"/>
    <tag k="highway" v="residential"/>
    <tag k="name" v="Lisa Court"/>
  </way>
  <way id="28739685" version="3" timestamp="2010-07-09T03:07:29Z" uid="74617" user="JohnSmith" changeset="5170713">
    <nd ref="316004947"/>
    <nd ref="316004958"/>
    <tag k="highway" v="residential"/>
    <tag k="maxspeed" v="50"/>
    <tag k="maxspeed:source" v="default residential speed limit in Australia"/>
    <tag k="name" v="Steven Court"/>
  </way>
  <way id="28739685" version="4" timestamp="2012-01-17T22:56:25Z" uid="147510" user="woodpeck_fixbot" changeset="10421060">
    <nd ref="316004947"/>
    <nd ref="316004958"/>
    <tag k="highway" v="residential"/>
    <tag k="name" v="Steven Court"/>
  </way>
  <way id="28739687" version="8" timestamp="2010-07-08T18:45:53Z" uid="74617" user="JohnSmith" changeset="5167338">
    <nd ref="305335226"/>
    <nd ref="316005399"/>
    <nd ref="316005398"/>
    <nd ref="316005013"/>
    <nd ref="316005336"/>
    <nd ref="316005014"/>
    <nd ref="316005051"/>
    <nd ref="316005052"/>
    <nd ref="316004981"/>
    <nd ref="316004968"/>
    <nd ref="316004969"/>
    <tag k="highway" v="residential"/>
    <tag k="maxspeed" v="50"/>
    <tag k="maxspeed:source" v="default residential speed limit in Australia"/>
    <tag k="name" v="Davey Street"/>
    <tag k="source" v="MMBW"/>
  </way>
  <way id="28739687" version="9" timestamp="2012-01-17T22:56:28Z" uid="147510" user="woodpeck_fixbot" changeset="10421060">
    <nd ref="305335226"/>
    <nd ref="316005399"/>
    <nd ref="316005398"/>
    <nd ref="316005013"/>
    <nd ref="316005336"/>
    <nd ref="316005014"/>
    <nd ref="316005051"/>
    <nd ref="316005052"/>
    <nd ref="316004981"/>
    <nd ref="316004968"/>
    <nd ref="316004969"/>
    <tag k="highway" v="residential"/>
    <tag k="name" v="Davey Street"/>
    <tag k="source" v="MMBW"/>
  </way>
  <way id="28739690" version="3" timestamp="2010-07-08T18:35:23Z" uid="74617" user="JohnSmith" changeset="5167338">
    <nd ref="316004968"/>
    <nd ref="316004979"/>
    <nd ref="316004980"/>
    <tag k="highway" v="residential"/>
    <tag k="maxspeed" v="50"/>
    <tag k="maxspeed:source" v="default residential speed limit in Australia"/>
    <tag k="name" v="Kershaw Street"/>
    <tag k="source" v="MMBW"/>
  </way>
  <way id="28739690" version="4" timestamp="2012-01-17T22:56:32Z" uid="147510" user="woodpeck_fixbot" changeset="10421060">
    <nd ref="316004968"/>
    <nd ref="316004979"/>
    <nd ref="316004980"/>
    <tag k="highway" v="residential"/>
    <tag k="name" v="Kershaw Street"/>
    <tag k="source" v="MMBW"/>
  </way>
  <way id="28739692" version="3" timestamp="2010-07-08T18:44:23Z" uid="74617" user="JohnSmith" changeset="5167338">
    <nd ref="316004981"/>
    <nd ref="30994725"/>
    <nd ref="30994737"/>
    <nd ref="316004988"/>
    <tag k="highway" v="residential"/>
    <tag k="maxspeed" v="50"/>
    <tag k="maxspeed:source" v="default residential speed limit in Australia"/>
    <tag k="name" v="Cedric Street"/>
    <tag k="source" v="MMBW"/>
  </way>
  <way id="28739692" version="4" timestamp="2012-01-17T22:56:36Z" uid="147510" user="woodpeck_fixbot" changeset="10421060">
    <nd ref="316004981"/>
    <nd ref="30994725"/>
    <nd ref="30994737"/>
    <nd ref="316004988"/>
    <tag k="highway" v="residential"/>
    <tag k="name" v="Cedric Street"/>
    <tag k="source" v="MMBW"/>
  </way>
  <way id="28739695" version="5" timestamp="2010-07-08T18:21:14Z" uid="74617" user="JohnSmith" changeset="5167338">
    <nd ref="317335899"/>
    <nd ref="316004988"/>
    <nd ref="316005018"/>
    <nd ref="316005017"/>
    <nd ref="316004994"/>
    <tag k="highway" v="residential"/>
    <tag k="maxspeed" v="50"/>
    <tag k="maxspeed:source" v="default residential speed limit in Australia"/>
    <tag k="name" v="Bradshaw Street"/>
    <tag k="source" v="MMBW"/>
  </way>
  <way id="28739695" version="6" timestamp="2012-01-17T22:56:38Z" uid="147510" user="woodpeck_fixbot" changeset="10421060">
    <nd ref="317335899"/>
    <nd ref="316004988"/>
    <nd ref="316005018"/>
    <nd ref="316005017"/>
    <nd ref="316004994"/>
    <tag k="highway" v="residential"/>
    <tag k="name" v="Bradshaw Street"/>
    <tag k="source" v="MMBW"/>
  </way>
  <way id="28739698" version="3" timestamp="2010-07-08T18:37:54Z" uid="74617" user="JohnSmith" changeset="5167338">
    <nd ref="316004994"/>
    <nd ref="30994736"/>
    <nd ref="316005012"/>
    <nd ref="316005013"/>
    <tag k="highway" v="residential"/>
    <tag k="maxspeed" v="50"/>
    <tag k="maxspeed:source" v="default residential speed limit in Australia"/>
    <tag k="name" v="Brownfield Street"/>
    <tag k="source" v="MMBW"/>
  </way>
  <way id="28739698" version="4" timestamp="2012-01-17T22:56:45Z" uid="147510" user="woodpeck_fixbot" changeset="10421060">
    <nd ref="316004994"/>
    <nd ref="30994736"/>
    <nd ref="316005012"/>
    <nd ref="316005013"/>
    <tag k="highway" v="residential"/>
    <tag k="name" v="Brownfield Street"/>
    <tag k="source" v="MMBW"/>
  </way>
  <way id="28739699" version="3" timestamp="2010-07-08T18:31:18Z" uid="74617" user="JohnSmith" changeset="5167338">
    <nd ref="316005014"/>
    <nd ref="316005015"/>
    <nd ref="316005016"/>
    <nd ref="316005017"/>
    <tag k="highway" v="residential"/>
    <tag k="maxspeed" v="50"/>
    <tag k="maxspeed:source" v="default residential speed limit in Australia"/>
    <tag k="name" v="McKay Street"/>
    <tag k="source" v="MMBW"/>
  </way>
  <way id="28739699" version="4" timestamp="2012-01-17T22:56:47Z" uid="147510" user="woodpeck_fixbot" changeset="10421060">
    <nd ref="316005014"/>
    <nd ref="316005015"/>
    <nd ref="316005016"/>
    <nd ref="316005017"/>
    <tag k="highway" v="residential"/>
    <tag k="name" v="McKay Street"/>
    <tag k="source" v="MMBW"/>
  </way>
  <way id="28739701" version="3" timestamp="2010-07-08T18:39:55Z" uid="74617" user="JohnSmith" changeset="5167338">
    <nd ref="316005018"/>
    <nd ref="316005049"/>
    <nd ref="316005050"/>
    <nd ref="316005051"/>
    <tag k="highway" v="residential"/>
    <tag k="maxspeed" v="50"/>
    <tag k="maxspeed:source" v="default residential speed limit in Australia"/>
    <tag k="name" v="Elliot Street"/>
    <tag k="source" v="MMBW"/>
  </way>
  <way id="28739701" version="4" timestamp="2012-01-17T22:56:52Z" uid="147510" user="woodpeck_fixbot" changeset="10421060">
    <nd ref="316005018"/>
    <nd ref="316005049"/>
    <nd ref="316005050"/>
    <nd ref="316005051"/>
    <tag k="highway" v="residential"/>
    <tag k="name" v="Elliot Street"/>
    <tag k="source" v="MMBW"/>
  </way>
  <way id="28739704" version="6" timestamp="2010-07-08T18:29:01Z" uid="74617" user="JohnSmith" changeset="5167338">
    <nd ref="316005052"/>
    <nd ref="316005142"/>
    <nd ref="316005112"/>
    <nd ref="316005164"/>
    <nd ref="316005106"/>
    <tag k="highway" v="residential"/>
    <tag k="maxspeed" v="50"/>
    <tag k="maxspeed:source" v="default residential speed limit in Australia"/>
    <tag k="name" v="Carrier Avenue"/>
    <tag k="source" v="MMBW"/>
  </way>
  <way id="28739704" version="7" timestamp="2010-08-10T23:45:14Z" uid="46482" user="Leon K" changeset="5458732">
    <nd ref="316005052"/>
    <nd ref="316005142"/>
    <nd ref="316005112"/>
    <nd ref="316005164"/>
    <nd ref="316005106"/>
    <nd ref="853967393"/>
    <nd ref="853967398"/>
    <tag k="highway" v="residential"/>
    <tag k="maxspeed" v="50"/>
    <tag k="maxspeed:source" v="default residential speed limit in Australia"/>
    <tag k="name" v="Carrier Avenue"/>
    <tag k="source" v="MMBW"/>
  </way>
  <way id="28739704" version="8" timestamp="2012-01-17T22:56:54Z" uid="147510" user="woodpeck_fixbot" changeset="10421060">
    <nd ref="316005052"/>
    <nd ref="316005142"/>
    <nd ref="316005112"/>
    <nd ref="316005164"/>
    <nd ref="316005106"/>
    <nd ref="853967393"/>
    <nd ref="853967398"/>
    <tag k="highway" v="residential"/>
    <tag k="name" v="Carrier Avenue"/>
    <tag k="source" v="MMBW"/>
  </way>
  <way id="28739706" version="4" timestamp="2010-07-08T18:47:07Z" uid="74617" user="JohnSmith" changeset="5167338">
    <nd ref="316005107"/>
    <nd ref="316005112"/>
    <tag k="highway" v="residential"/>
    <tag k="maxspeed" v="50"/>
    <tag k="maxspeed:source" v="default residential speed limit in Australia"/>
    <tag k="name" v="Mac Crescent"/>
    <tag k="source" v="MMBW"/>
  </way>
  <way id="28739706" version="5" timestamp="2012-01-17T22:56:56Z" uid="147510" user="woodpeck_fixbot" changeset="10421060">
    <nd ref="316005107"/>
    <nd ref="316005112"/>
    <tag k="highway" v="residential"/>
    <tag k="name" v="Mac Crescent"/>
    <tag k="source" v="MMBW"/>
  </way>
  <way id="28739715" version="4" timestamp="2010-07-08T18:24:49Z" uid="74617" user="JohnSmith" changeset="5167338">
    <nd ref="316005142"/>
    <nd ref="316005159"/>
    <nd ref="316005160"/>
    <tag k="highway" v="residential"/>
    <tag k="maxspeed" v="50"/>
    <tag k="maxspeed:source" v="default residential speed limit in Australia"/>
    <tag k="name" v="Eva Street"/>
    <tag k="source" v="MMBW"/>
  </way>
  <way id="28739715" version="5" timestamp="2012-01-17T22:56:57Z" uid="147510" user="woodpeck_fixbot" changeset="10421060">
    <nd ref="316005142"/>
    <nd ref="316005159"/>
    <nd ref="316005160"/>
    <tag k="highway" v="residential"/>
    <tag k="name" v="Eva Street"/>
    <tag k="source" v="MMBW"/>
  </way>
  <way id="28739717" version="3" timestamp="2010-07-08T18:34:42Z" uid="74617" user="JohnSmith" changeset="5167338">
    <nd ref="316005161"/>
    <nd ref="316005164"/>
    <nd ref="316005165"/>
    <tag k="highway" v="residential"/>
    <tag k="maxspeed" v="50"/>
    <tag k="maxspeed:source" v="default residential speed limit in Australia"/>
    <tag k="name" v="Melrose Street"/>
    <tag k="source" v="MMBW"/>
  </way>
  <way id="28739717" version="4" timestamp="2012-01-17T22:56:59Z" uid="147510" user="woodpeck_fixbot" changeset="10421060">
    <nd ref="316005161"/>
    <nd ref="316005164"/>
    <nd ref="316005165"/>
    <tag k="highway" v="residential"/>
    <tag k="name" v="Melrose Street"/>
    <tag k="source" v="MMBW"/>
  </way>
  <way id="28739719" version="3" timestamp="2010-07-08T18:17:20Z" uid="74617" user="JohnSmith" changeset="5167338">
    <nd ref="316005170"/>
    <nd ref="316005175"/>
    <tag k="highway" v="residential"/>
    <tag k="maxspeed" v="50"/>
    <tag k="maxspeed:source" v="default residential speed limit in Australia"/>
    <tag k="name" v="Melrose Street"/>
    <tag k="source" v="MMBW"/>
  </way>
  <way id="28739719" version="4" timestamp="2011-03-21T12:55:38Z" uid="4467" user="Rosscoe" changeset="7626974">
    <nd ref="316005170"/>
    <nd ref="316005175"/>
    <tag k="highway" v="residential"/>
    <tag k="maxspeed" v="50"/>
    <tag k="name" v="Melrose Street"/>
    <tag k="source" v="MMBW"/>
    <tag k="source:maxspeed" v="default residential speed limit in Australia"/>
  </way>
  <way id="28739719" version="5" timestamp="2012-01-17T22:57:00Z" uid="147510" user="woodpeck_fixbot" changeset="10421060">
    <nd ref="316005170"/>
    <nd ref="316005175"/>
    <tag k="highway" v="residential"/>
    <tag k="name" v="Melrose Street"/>
    <tag k="source" v="MMBW"/>
    <tag k="source:maxspeed" v="default residential speed limit in Australia"/>
  </way>
  <way id="28739721" version="3" timestamp="2010-07-08T18:47:57Z" uid="74617" user="JohnSmith" changeset="5167338">
    <nd ref="316005176"/>
    <nd ref="316005215"/>
    <tag k="highway" v="residential"/>
    <tag k="maxspeed" v="50"/>
    <tag k="maxspeed:source" v="default residential speed limit in Australia"/>
    <tag k="name" v="Eric Avenue"/>
    <tag k="source" v="MMBW"/>
  </way>
  <way id="28739721" version="4" timestamp="2012-01-17T22:57:03Z" uid="147510" user="woodpeck_fixbot" changeset="10421060">
    <nd ref="316005176"/>
    <nd ref="316005215"/>
    <tag k="highway" v="residential"/>
    <tag k="name" v="Eric Avenue"/>
    <tag k="source" v="MMBW"/>
  </way>
  <way id="28739722" version="5" timestamp="2010-07-08T18:42:50Z" uid="74617" user="JohnSmith" changeset="5167338">
    <nd ref="316005216"/>
    <nd ref="316005264"/>
    <nd ref="316005217"/>
    <nd ref="316005218"/>
    <nd ref="316005219"/>
    <nd ref="316005220"/>
    <nd ref="316005262"/>
    <nd ref="316005221"/>
    <tag k="highway" v="residential"/>
    <tag k="maxspeed" v="50"/>
    <tag k="maxspeed:source" v="default residential speed limit in Australia"/>
    <tag k="name" v="Edith Street"/>
    <tag k="source" v="MMBW"/>
  </way>
  <way id="28739722" version="6" timestamp="2012-01-17T22:57:04Z" uid="147510" user="woodpeck_fixbot" changeset="10421060">
    <nd ref="316005216"/>
    <nd ref="316005264"/>
    <nd ref="316005217"/>
    <nd ref="316005218"/>
    <nd ref="316005219"/>
    <nd ref="316005220"/>
    <nd ref="316005262"/>
    <nd ref="316005221"/>
    <tag k="highway" v="residential"/>
    <tag k="name" v="Edith Street"/>
    <tag k="source" v="MMBW"/>
  </way>
  <way id="28739731" version="3" timestamp="2010-07-08T18:38:23Z" uid="74617" user="JohnSmith" changeset="5167338">
    <nd ref="316005243"/>
    <nd ref="316005260"/>
    <nd ref="316005261"/>
    <nd ref="316005262"/>
    <nd ref="316005263"/>
    <tag k="highway" v="residential"/>
    <tag k="maxspeed" v="50"/>
    <tag k="maxspeed:source" v="default residential speed limit in Australia"/>
    <tag k="name" v="Ormond Street"/>
    <tag k="source" v="MMBW"/>
  </way>
  <way id="28739731" version="4" timestamp="2012-01-17T22:57:06Z" uid="147510" user="woodpeck_fixbot" changeset="10421060">
    <nd ref="316005243"/>
    <nd ref="316005260"/>
    <nd ref="316005261"/>
    <nd ref="316005262"/>
    <nd ref="316005263"/>
    <tag k="highway" v="residential"/>
    <tag k="name" v="Ormond Street"/>
    <tag k="source" v="MMBW"/>
  </way>
  <way id="28739733" version="3" timestamp="2010-07-08T18:46:40Z" uid="74617" user="JohnSmith" changeset="5167338">
    <nd ref="316005261"/>
    <nd ref="316005264"/>
    <nd ref="316005265"/>
    <tag k="highway" v="residential"/>
    <tag k="maxspeed" v="50"/>
    <tag k="maxspeed:source" v="default residential speed limit in Australia"/>
    <tag k="name" v="Krone Street"/>
    <tag k="source" v="MMBW"/>
  </way>
  <way id="28739733" version="4" timestamp="2012-01-17T22:57:06Z" uid="147510" user="woodpeck_fixbot" changeset="10421060">
    <nd ref="316005261"/>
    <nd ref="316005264"/>
    <nd ref="316005265"/>
    <tag k="highway" v="residential"/>
    <tag k="name" v="Krone Street"/>
    <tag k="source" v="MMBW"/>
  </way>
  <way id="28739740" version="4" timestamp="2010-07-08T18:31:48Z" uid="74617" user="JohnSmith" changeset="5167338">
    <nd ref="316005336"/>
    <nd ref="316005337"/>
    <nd ref="470353058"/>
    <nd ref="470353057"/>
    <nd ref="316005338"/>
    <tag k="highway" v="residential"/>
    <tag k="maxspeed" v="50"/>
    <tag k="maxspeed:source" v="default residential speed limit in Australia"/>
    <tag k="name" v="Mount View Avenue"/>
  </way>
  <way id="28739740" version="5" timestamp="2012-01-17T22:57:08Z" uid="147510" user="woodpeck_fixbot" changeset="10421060">
    <nd ref="316005336"/>
    <nd ref="316005337"/>
    <nd ref="470353058"/>
    <nd ref="470353057"/>
    <nd ref="316005338"/>
    <tag k="highway" v="residential"/>
    <tag k="name" v="Mount View Avenue"/>
  </way>
  <way id="28739755" version="3" timestamp="2010-07-08T18:43:18Z" uid="74617" user="JohnSmith" changeset="5167338">
    <nd ref="316005365"/>
    <nd ref="316005396"/>
    <nd ref="316005397"/>
    <nd ref="316005398"/>
    <tag k="highway" v="residential"/>
    <tag k="maxspeed" v="50"/>
    <tag k="maxspeed:source" v="default residential speed limit in Australia"/>
    <tag k="name" v="Vialls Avenue"/>
  </way>
  <way id="28739755" version="4" timestamp="2012-01-17T22:57:08Z" uid="147510" user="woodpeck_fixbot" changeset="10421060">
    <nd ref="316005365"/>
    <nd ref="316005396"/>
    <nd ref="316005397"/>
    <nd ref="316005398"/>
    <tag k="highway" v="residential"/>
    <tag k="name" v="Vialls Avenue"/>
  </way>
  <way id="28739760" version="3" timestamp="2010-07-08T18:34:05Z" uid="74617" user="JohnSmith" changeset="5167338">
    <nd ref="316005399"/>
    <nd ref="316005400"/>
    <tag k="highway" v="residential"/>
    <tag k="maxspeed" v="50"/>
    <tag k="maxspeed:source" v="default residential speed limit in Australia"/>
    <tag k="name" v="Morris Street"/>
    <tag k="source" v="yahoo"/>
    <tag k="source:name" v="Collins 1936"/>
  </way>
  <way id="28739760" version="4" timestamp="2012-01-17T22:57:09Z" uid="147510" user="woodpeck_fixbot" changeset="10421060">
    <nd ref="316005399"/>
    <nd ref="316005400"/>
    <tag k="highway" v="residential"/>
    <tag k="name" v="Morris Street"/>
    <tag k="source" v="yahoo"/>
    <tag k="source:name" v="Collins 1936"/>
  </way>
  <way id="28739761" version="6" timestamp="2010-07-08T18:26:29Z" uid="74617" user="JohnSmith" changeset="5167338">
    <nd ref="316005401"/>
    <nd ref="316005404"/>
    <nd ref="316005405"/>
    <nd ref="316005406"/>
    <nd ref="316005407"/>
    <nd ref="316005412"/>
    <nd ref="316005408"/>
    <nd ref="316005409"/>
    <nd ref="316005413"/>
    <nd ref="316005428"/>
    <nd ref="316005410"/>
    <tag k="highway" v="residential"/>
    <tag k="maxspeed" v="50"/>
    <tag k="maxspeed:source" v="default residential speed limit in Australia"/>
    <tag k="name" v="Belle Crescent"/>
  </way>
  <way id="28739761" version="7" timestamp="2012-01-17T22:57:10Z" uid="147510" user="woodpeck_fixbot" changeset="10421060">
    <nd ref="316005401"/>
    <nd ref="316005404"/>
    <nd ref="316005405"/>
    <nd ref="316005406"/>
    <nd ref="316005407"/>
    <nd ref="316005412"/>
    <nd ref="316005408"/>
    <nd ref="316005409"/>
    <nd ref="316005413"/>
    <nd ref="316005428"/>
    <nd ref="316005410"/>
    <tag k="highway" v="residential"/>
    <tag k="name" v="Belle Crescent"/>
  </way>
  <way id="28739762" version="4" timestamp="2010-07-08T18:16:40Z" uid="74617" user="JohnSmith" changeset="5167338">
    <nd ref="30994724"/>
    <nd ref="316005411"/>
    <nd ref="316005412"/>
    <tag k="highway" v="residential"/>
    <tag k="maxspeed" v="50"/>
    <tag k="maxspeed:source" v="default residential speed limit in Australia"/>
    <tag k="name" v="Kingston Street"/>
  </way>
  <way id="28739762" version="5" timestamp="2012-01-17T22:57:11Z" uid="147510" user="woodpeck_fixbot" changeset="10421060">
    <nd ref="30994724"/>
    <nd ref="316005411"/>
    <nd ref="316005412"/>
    <tag k="highway" v="residential"/>
    <tag k="name" v="Kingston Street"/>
  </way>
  <way id="28739768" version="3" timestamp="2010-07-08T18:44:13Z" uid="74617" user="JohnSmith" changeset="5167338">
    <nd ref="316005413"/>
    <nd ref="316005419"/>
    <nd ref="316005420"/>
    <nd ref="316005421"/>
    <nd ref="316005422"/>
    <nd ref="316005423"/>
    <nd ref="316005424"/>
    <tag k="highway" v="residential"/>
    <tag k="maxspeed" v="50"/>
    <tag k="maxspeed:source" v="default residential speed limit in Australia"/>
    <tag k="name" v="Waratah Street"/>
  </way>
  <way id="28739768" version="4" timestamp="2012-01-17T22:57:12Z" uid="147510" user="woodpeck_fixbot" changeset="10421060">
    <nd ref="316005413"/>
    <nd ref="316005419"/>
    <nd ref="316005420"/>
    <nd ref="316005421"/>
    <nd ref="316005422"/>
    <nd ref="316005423"/>
    <nd ref="316005424"/>
    <tag k="highway" v="residential"/>
    <tag k="name" v="Waratah Street"/>
  </way>
  <way id="28739769" version="3" timestamp="2010-07-09T03:07:24Z" uid="74617" user="JohnSmith" changeset="5170713">
    <nd ref="316005423"/>
    <nd ref="316005425"/>
    <nd ref="316005426"/>
    <tag k="highway" v="residential"/>
    <tag k="maxspeed" v="50"/>
    <tag k="maxspeed:source" v="default residential speed limit in Australia"/>
    <tag k="name" v="Magnolia Street"/>
  </way>
  <way id="28739769" version="4" timestamp="2012-01-17T22:57:14Z" uid="147510" user="woodpeck_fixbot" changeset="10421060">
    <nd ref="316005423"/>
    <nd ref="316005425"/>
    <nd ref="316005426"/>
    <tag k="highway" v="residential"/>
    <tag k="name" v="Magnolia Street"/>
  </way>
  <way id="28739770" version="3" timestamp="2010-07-08T18:30:13Z" uid="74617" user="JohnSmith" changeset="5167338">
    <nd ref="316005425"/>
    <nd ref="316005427"/>
    <nd ref="316005428"/>
    <tag k="highway" v="residential"/>
    <tag k="maxspeed" v="50"/>
    <tag k="maxspeed:source" v="default residential speed limit in Australia"/>
    <tag k="name" v="Verbena Street"/>
  </way>
  <way id="28739770" version="4" timestamp="2012-01-17T22:57:14Z" uid="147510" user="woodpeck_fixbot" changeset="10421060">
    <nd ref="316005425"/>
    <nd ref="316005427"/>
    <nd ref="316005428"/>
    <tag k="highway" v="residential"/>
    <tag k="name" v="Verbena Street"/>
  </way>
  <way id="28739772" version="3" timestamp="2010-07-08T18:38:47Z" uid="74617" user="JohnSmith" changeset="5167338">
    <nd ref="316005427"/>
    <nd ref="316005420"/>
    <tag k="highway" v="residential"/>
    <tag k="maxspeed" v="50"/>
    <tag k="maxspeed:source" v="default residential speed limit in Australia"/>
    <tag k="name" v="Felicia Street"/>
  </way>
  <way id="28739772" version="4" timestamp="2012-01-17T22:57:15Z" uid="147510" user="woodpeck_fixbot" changeset="10421060">
    <nd ref="316005427"/>
    <nd ref="316005420"/>
    <tag k="highway" v="residential"/>
    <tag k="name" v="Felicia Street"/>
  </way>
  <way id="28739774" version="3" timestamp="2009-07-26T07:24:40Z" uid="74617" user="JohnSmith" changeset="1941404">
    <nd ref="27800475"/>
    <nd ref="448124374"/>
    <tag k="highway" v="unclassified"/>
  </way>
  <way id="28739774" version="4" timestamp="2009-08-18T14:51:31Z" uid="158515" user="SimonWalduck" changeset="2190865">
    <nd ref="27800475"/>
    <nd ref="448124374"/>
    <tag k="highway" v="unclassified"/>
    <tag k="name" v="Japaddy Street"/>
  </way>
  <way id="28739774" version="5" timestamp="2010-07-09T05:14:08Z" uid="74617" user="JohnSmith" changeset="5170972">
    <nd ref="27800475"/>
    <nd ref="448124374"/>
    <tag k="highway" v="unclassified"/>
    <tag k="maxspeed" v="50"/>
    <tag k="maxspeed:source" v="default residential speed limit in Australia"/>
    <tag k="name" v="Japaddy Street"/>
  </way>
  <way id="28739774" version="6" timestamp="2012-01-17T22:57:17Z" uid="147510" user="woodpeck_fixbot" changeset="10421060">
    <nd ref="27800475"/>
    <nd ref="448124374"/>
    <tag k="highway" v="unclassified"/>
    <tag k="name" v="Japaddy Street"/>
  </way>
  <way id="28739777" version="4" timestamp="2010-05-23T14:39:52Z" uid="4467" user="Rosscoe" changeset="4783793">
    <nd ref="316005435"/>
    <nd ref="316005436"/>
    <nd ref="316005437"/>
    <nd ref="316005438"/>
    <nd ref="316005439"/>
    <nd ref="470353060"/>
    <nd ref="316005440"/>
    <nd ref="316005441"/>
    <tag k="highway" v="unclassified"/>
    <tag k="name" v="De Havelland Road"/>
  </way>
  <way id="28739781" version="2" timestamp="2009-07-26T07:24:40Z" uid="74617" user="JohnSmith" changeset="1941404">
    <nd ref="316005449"/>
    <nd ref="316005450"/>
    <nd ref="316005451"/>
    <nd ref="316005452"/>
    <nd ref="316005453"/>
    <nd ref="448124372"/>
    <tag k="highway" v="unclassified"/>
  </way>
  <way id="28739781" version="3" timestamp="2010-07-09T05:14:10Z" uid="74617" user="JohnSmith" changeset="5170972">
    <nd ref="316005449"/>
    <nd ref="316005450"/>
    <nd ref="316005451"/>
    <nd ref="316005452"/>
    <nd ref="316005453"/>
    <nd ref="448124372"/>
    <tag k="highway" v="unclassified"/>
    <tag k="maxspeed" v="50"/>
    <tag k="maxspeed:source" v="default residential speed limit in Australia"/>
  </way>
  <way id="28739781" version="4" timestamp="2012-01-17T22:57:17Z" uid="147510" user="woodpeck_fixbot" changeset="10421060">
    <nd ref="316005449"/>
    <nd ref="316005450"/>
    <nd ref="316005451"/>
    <nd ref="316005452"/>
    <nd ref="316005453"/>
    <nd ref="448124372"/>
    <tag k="highway" v="unclassified"/>
  </way>
  <way id="28739782" version="3" timestamp="2010-07-09T05:14:21Z" uid="74617" user="JohnSmith" changeset="5170972">
    <nd ref="316005450"/>
    <nd ref="316005455"/>
    <tag k="highway" v="unclassified"/>
    <tag k="maxspeed" v="50"/>
    <tag k="maxspeed:source" v="default residential speed limit in Australia"/>
    <tag k="name" v="Nicholls Court"/>
  </way>
  <way id="28739782" version="4" timestamp="2012-01-17T22:57:18Z" uid="147510" user="woodpeck_fixbot" changeset="10421060">
    <nd ref="316005450"/>
    <nd ref="316005455"/>
    <tag k="highway" v="unclassified"/>
    <tag k="name" v="Nicholls Court"/>
  </way>
  <way id="28739783" version="3" timestamp="2009-07-26T07:24:42Z" uid="74617" user="JohnSmith" changeset="1941404">
    <nd ref="316005457"/>
    <nd ref="316005465"/>
    <nd ref="448124363"/>
    <tag k="highway" v="unclassified"/>
  </way>
  <way id="28739783" version="4" timestamp="2009-08-18T14:51:31Z" uid="158515" user="SimonWalduck" changeset="2190865">
    <nd ref="316005457"/>
    <nd ref="316005465"/>
    <nd ref="448124363"/>
    <tag k="highway" v="unclassified"/>
    <tag k="name" v="Citrus Street"/>
  </way>
  <way id="28739783" version="5" timestamp="2010-07-09T05:14:16Z" uid="74617" user="JohnSmith" changeset="5170972">
    <nd ref="316005457"/>
    <nd ref="316005465"/>
    <nd ref="448124363"/>
    <tag k="highway" v="unclassified"/>
    <tag k="maxspeed" v="50"/>
    <tag k="maxspeed:source" v="default residential speed limit in Australia"/>
    <tag k="name" v="Citrus Street"/>
  </way>
  <way id="28739783" version="6" timestamp="2012-01-17T22:57:19Z" uid="147510" user="woodpeck_fixbot" changeset="10421060">
    <nd ref="316005457"/>
    <nd ref="316005465"/>
    <nd ref="448124363"/>
    <tag k="highway" v="unclassified"/>
    <tag k="name" v="Citrus Street"/>
  </way>
  <way id="28739784" version="4" timestamp="2009-08-03T13:51:40Z" uid="4467" user="Rosscoe" changeset="2025703">
    <nd ref="316005462"/>
    <nd ref="316005458"/>
    <nd ref="316005464"/>
    <tag k="highway" v="residential"/>
    <tag k="name" v="Downard Street"/>
  </way>
  <way id="28739784" version="5" timestamp="2010-07-08T18:38:32Z" uid="74617" user="JohnSmith" changeset="5167338">
    <nd ref="316005462"/>
    <nd ref="316005458"/>
    <nd ref="316005464"/>
    <tag k="highway" v="residential"/>
    <tag k="maxspeed" v="50"/>
    <tag k="maxspeed:source" v="default residential speed limit in Australia"/>
    <tag k="name" v="Downard Street"/>
  </way>
  <way id="28739784" version="6" timestamp="2012-01-17T22:57:20Z" uid="147510" user="woodpeck_fixbot" changeset="10421060">
    <nd ref="316005462"/>
    <nd ref="316005458"/>
    <nd ref="316005464"/>
    <tag k="highway" v="residential"/>
    <tag k="name" v="Downard Street"/>
  </way>
  <way id="28739785" version="3" timestamp="2010-07-09T05:14:15Z" uid="74617" user="JohnSmith" changeset="5170972">
    <nd ref="316005465"/>
    <nd ref="316005467"/>
    <nd ref="316005468"/>
    <tag k="highway" v="unclassified"/>
    <tag k="maxspeed" v="50"/>
    <tag k="maxspeed:source" v="default residential speed limit in Australia"/>
    <tag k="name" v="Hall Street"/>
  </way>
  <way id="28739785" version="4" timestamp="2012-01-17T22:57:21Z" uid="147510" user="woodpeck_fixbot" changeset="10421060">
    <nd ref="316005465"/>
    <nd ref="316005467"/>
    <nd ref="316005468"/>
    <tag k="highway" v="unclassified"/>
    <tag k="name" v="Hall Street"/>
  </way>
  <way id="28739848" version="6" timestamp="2010-04-07T13:11:01Z" uid="20587" user="balrog-kun" changeset="4353646">
    <nd ref="147631466"/>
    <nd ref="147631463"/>
    <nd ref="147631460"/>
    <nd ref="147631459"/>
    <nd ref="445848414"/>
    <tag k="highway" v="motorway"/>
    <tag k="name" v="Cimarron Turnpike"/>
    <tag k="name_2" v="United States Highway 412"/>
    <tag k="oneway" v="yes"/>
    <tag k="ref" v="US 412"/>
    <tag k="tiger:cfcc" v="A23"/>
    <tag k="tiger:county" v="Pawnee, OK"/>
    <tag k="tiger:name_base" v="Cimarron"/>
    <tag k="tiger:name_base_1" v="United States Highway 64"/>
    <tag k="tiger:name_base_2" v="United States Highway 412"/>
    <tag k="tiger:name_type" v="Tpke"/>
    <tag k="tiger:reviewed" v="no"/>
    <tag k="tiger:separated" v="no"/>
    <tag k="tiger:source" v="tiger_import_dch_v0.6_20070829"/>
    <tag k="tiger:tlid" v="166325650:166308687"/>
  </way>
  <way id="28739848" version="7" timestamp="2010-10-24T19:18:30Z" uid="92286" user="Paul Johnson" changeset="6161524">
    <nd ref="147328842"/>
    <nd ref="963744661"/>
    <tag k="highway" v="trunk"/>
    <tag k="name" v="Cimarron Turnpike"/>
    <tag k="name_1" v="United States Highway 412"/>
    <tag k="oneway" v="yes"/>
    <tag k="ref" v="US 412"/>
  </way>
  <way id="28739848" version="8" timestamp="2010-12-22T02:58:41Z" uid="207745" user="NE2" changeset="6732001">
    <nd ref="147328842"/>
    <nd ref="963744661"/>
    <tag k="highway" v="motorway"/>
    <tag k="name" v="Cimarron Turnpike"/>
    <tag k="name_1" v="United States Highway 412"/>
    <tag k="oneway" v="yes"/>
    <tag k="ref" v="US 412"/>
    <tag k="toll" v="no"/>
  </way>
  <way id="28739848" version="9" timestamp="2011-06-17T06:50:41Z" uid="207745" user="NE2" changeset="8461988">
    <nd ref="147328842"/>
    <nd ref="963744661"/>
    <tag k="highway" v="motorway"/>
    <tag k="lanes" v="2"/>
    <tag k="name" v="Cimarron Turnpike"/>
    <tag k="oneway" v="yes"/>
    <tag k="ref" v="US 412"/>
    <tag k="toll" v="no"/>
  </way>
  <way id="28739848" version="10" timestamp="2011-07-07T06:24:56Z" uid="473471" user="NE3" changeset="8654297">
    <nd ref="147328842"/>
    <nd ref="963744661"/>
    <tag k="NHS" v="yes"/>
    <tag k="highway" v="motorway"/>
    <tag k="lanes" v="2"/>
    <tag k="name" v="Cimarron Turnpike"/>
    <tag k="oneway" v="yes"/>
    <tag k="ref" v="US 412"/>
    <tag k="toll" v="no"/>
  </way>
  <way id="28739848" version="11" timestamp="2012-01-22T09:28:54Z" uid="262151" user="ToeBee" changeset="10462620"/>
</osm>
