<?xml version='1.0' encoding='UTF-8'?>
<osm version="0.6" generator="libosmium/2.20.0">
  <way id="28751000" version="8" timestamp="2008-12-20T03:01:41Z" uid="6975" user="ulfl" changeset="489842">
    <nd ref="316116018"/>
    <nd ref="316116019"/>
    <nd ref="316116020"/>
    <nd ref="316116021"/>
    <nd ref="316116022"/>
    <nd ref="316116023"/>
    <tag k="foot" v="yes"/>
    <tag k="highway" v="footway"/>
    <tag k="name" v="Schulweg"/>
    <tag k="source:name" v="table of Roadnames by Gemeinde Planegg"/>
    <tag k="surface" v="paved"/>
  </way>
  <way id="28751000" version="9" timestamp="2009-01-10T12:31:42Z" uid="51131" user="cmohrki" changeset="768188">
    <nd ref="316116018"/>
    <nd ref="317253715"/>
    <nd ref="316116019"/>
    <nd ref="316116020"/>
    <nd ref="316116021"/>
    <nd ref="316116022"/>
    <nd ref="316116023"/>
    <tag k="foot" v="yes"/>
    <tag k="highway" v="footway"/>
    <tag k="name" v="Schulweg"/>
    <tag k="source:name" v="table of Roadnames by Gemeinde Planegg"/>
    <tag k="surface" v="paved"/>
  </way>
  <way id="28751021" version="3" timestamp="2010-04-03T04:04:19Z" uid="20587" user="balrog-kun" changeset="4309442">
    <nd ref="316116230"/>
    <nd ref="41890357"/>
    <tag k="created_by" v="Potlatch 0.10f"/>
    <tag k="highway" v="motorway"/>
    <tag k="name" v="AZ 153"/>
    <tag k="name_1" v="South 44th Street"/>
    <tag k="oneway" v="yes"/>
    <tag k="ref" v="AZ 153"/>
    <tag k="tiger:cfcc" v="A21"/>
    <tag k="tiger:county" v="Maricopa, AZ"/>
    <tag k="tiger:name_base_1" v="44th"/>
    <tag k="tiger:name_type_1" v="St"/>
    <tag k="tiger:reviewed" v="no"/>
    <tag k="tiger:separated" v="no"/>
    <tag k="tiger:source" v="tiger_import_dch_v0.6_20070809"/>
    <tag k="tiger:tlid" v="128366084:128366085:128583315:128583316:128605047:128605050:128605053:128605056:128840237"/>
    <tag k="tiger:zip_left" v="85034"/>
    <tag k="tiger:zip_right" v="85034"/>
  </way>
  <way id="28751021" version="4" timestamp="2011-03-23T17:43:09Z" uid="207745" user="NE2" changeset="7648212">
    <nd ref="316116230"/>
    <nd ref="41890357"/>
    <tag k="highway" v="motorway"/>
    <tag k="oneway" v="yes"/>
    <tag k="ref" v="AZ 153"/>
    <tag k="tiger:cfcc" v="A21"/>
    <tag k="tiger:county" v="Maricopa, AZ"/>
    <tag k="tiger:name_base_1" v="44th"/>
    <tag k="tiger:name_type_1" v="St"/>
    <tag k="tiger:reviewed" v="no"/>
    <tag k="tiger:separated" v="no"/>
    <tag k="tiger:source" v="tiger_import_dch_v0.6_20070809"/>
    <tag k="tiger:tlid" v="128366084:128366085:128583315:128583316:128605047:128605050:128605053:128605056:128840237"/>
    <tag k="tiger:zip_left" v="85034"/>
    <tag k="tiger:zip_right" v="85034"/>
  </way>
  <way id="28751021" version="5" timestamp="2011-03-24T03:20:43Z" uid="207745" user="NE2" changeset="7652442"/>
  <way id="28751022" version="3" timestamp="2010-04-03T04:04:19Z" uid="20587" user="balrog-kun" changeset="4309442">
    <nd ref="41890354"/>
    <nd ref="316116230"/>
    <tag k="bridge" v="yes"/>
    <tag k="created_by" v="Potlatch 0.10f"/>
    <tag k="highway" v="motorway"/>
    <tag k="layer" v="1"/>
    <tag k="name" v="AZ 153"/>
    <tag k="name_1" v="South 44th Street"/>
    <tag k="oneway" v="yes"/>
    <tag k="ref" v="AZ 153"/>
    <tag k="tiger:cfcc" v="A21"/>
    <tag k="tiger:county" v="Maricopa, AZ"/>
    <tag k="tiger:name_base_1" v="44th"/>
    <tag k="tiger:name_type_1" v="St"/>
    <tag k="tiger:reviewed" v="no"/>
    <tag k="tiger:separated" v="no"/>
    <tag k="tiger:source" v="tiger_import_dch_v0.6_20070809"/>
    <tag k="tiger:tlid" v="128366084:128366085:128583315:128583316:128605047:128605050:128605053:128605056:128840237"/>
    <tag k="tiger:zip_left" v="85034"/>
    <tag k="tiger:zip_right" v="85034"/>
  </way>
  <way id="28751022" version="4" timestamp="2011-01-23T00:15:41Z" uid="292665" user="Dr Kludge" changeset="7056946">
    <nd ref="41890354"/>
    <nd ref="316116230"/>
    <tag k="bridge" v="yes"/>
    <tag k="highway" v="motorway"/>
    <tag k="layer" v="1"/>
    <tag k="name" v="AZ 153"/>
    <tag k="name_1" v="South 44th Street"/>
    <tag k="oneway" v="yes"/>
    <tag k="ref" v="AZ 153"/>
    <tag k="tiger:cfcc" v="A21"/>
    <tag k="tiger:county" v="Maricopa, AZ"/>
    <tag k="tiger:name_base_1" v="44th"/>
    <tag k="tiger:name_type_1" v="St"/>
    <tag k="tiger:reviewed" v="no"/>
    <tag k="tiger:separated" v="yes"/>
    <tag k="tiger:source" v="tiger_import_dch_v0.6_20070809"/>
    <tag k="tiger:tlid" v="128366084:128366085:128583315:128583316:128605047:128605050:128605053:128605056:128840237"/>
    <tag k="tiger:zip_left" v="85034"/>
    <tag k="tiger:zip_right" v="85034"/>
  </way>
  <way id="28751022" version="5" timestamp="2011-03-23T17:42:52Z" uid="207745" user="NE2" changeset="7648212">
    <nd ref="41890354"/>
    <nd ref="316116230"/>
    <tag k="bridge" v="yes"/>
    <tag k="highway" v="motorway"/>
    <tag k="layer" v="1"/>
    <tag k="oneway" v="yes"/>
    <tag k="ref" v="AZ 153"/>
    <tag k="tiger:cfcc" v="A21"/>
    <tag k="tiger:county" v="Maricopa, AZ"/>
    <tag k="tiger:name_base_1" v="44th"/>
    <tag k="tiger:name_type_1" v="St"/>
    <tag k="tiger:reviewed" v="no"/>
    <tag k="tiger:separated" v="yes"/>
    <tag k="tiger:source" v="tiger_import_dch_v0.6_20070809"/>
    <tag k="tiger:tlid" v="128366084:128366085:128583315:128583316:128605047:128605050:128605053:128605056:128840237"/>
    <tag k="tiger:zip_left" v="85034"/>
    <tag k="tiger:zip_right" v="85034"/>
  </way>
  <way id="28751022" version="6" timestamp="2011-03-24T03:20:43Z" uid="207745" user="NE2" changeset="7652442"/>
  <way id="28751043" version="4" timestamp="2010-04-03T04:04:20Z" uid="20587" user="balrog-kun" changeset="4309442">
    <nd ref="316116342"/>
    <nd ref="260796746"/>
    <nd ref="260796747"/>
    <nd ref="260796748"/>
    <nd ref="260796749"/>
    <nd ref="260796750"/>
    <nd ref="260797402"/>
    <nd ref="260796751"/>
    <nd ref="260796752"/>
    <nd ref="260796753"/>
    <nd ref="260796754"/>
    <nd ref="260796755"/>
    <nd ref="260796756"/>
    <nd ref="260796757"/>
    <nd ref="260796758"/>
    <nd ref="331861535"/>
    <tag k="created_by" v="Potlatch 0.10f"/>
    <tag k="highway" v="motorway"/>
    <tag k="name" v="AZ 153"/>
    <tag k="name_1" v="South 44th Street"/>
    <tag k="oneway" v="yes"/>
    <tag k="ref" v="AZ 153"/>
    <tag k="tiger:cfcc" v="A21"/>
    <tag k="tiger:county" v="Maricopa, AZ"/>
    <tag k="tiger:name_base_1" v="44th"/>
    <tag k="tiger:name_type_1" v="St"/>
    <tag k="tiger:reviewed" v="no"/>
    <tag k="tiger:separated" v="no"/>
    <tag k="tiger:source" v="tiger_import_dch_v0.6_20070809"/>
    <tag k="tiger:tlid" v="128366084:128366085:128583315:128583316:128605047:128605050:128605053:128605056:128840237"/>
    <tag k="tiger:zip_left" v="85034"/>
    <tag k="tiger:zip_right" v="85034"/>
  </way>
  <way id="28751043" version="5" timestamp="2010-11-12T05:32:33Z" uid="292665" user="Dr Kludge" changeset="6348639">
    <nd ref="316116342"/>
    <nd ref="260796746"/>
    <nd ref="260796747"/>
    <nd ref="260796748"/>
    <nd ref="260796749"/>
    <nd ref="260796750"/>
    <nd ref="260797402"/>
    <nd ref="260796751"/>
    <nd ref="260796752"/>
    <nd ref="260796753"/>
    <nd ref="260796754"/>
    <nd ref="260796755"/>
    <nd ref="260796756"/>
    <nd ref="260796757"/>
    <nd ref="260796758"/>
    <nd ref="331861535"/>
    <tag k="highway" v="motorway"/>
    <tag k="name" v="AZ 153"/>
    <tag k="name_1" v="South 44th Street"/>
    <tag k="oneway" v="yes"/>
    <tag k="ref" v="AZ 153"/>
    <tag k="tiger:cfcc" v="A21"/>
    <tag k="tiger:county" v="Maricopa, AZ"/>
    <tag k="tiger:name_base_1" v="44th"/>
    <tag k="tiger:name_type_1" v="St"/>
    <tag k="tiger:reviewed" v="no"/>
    <tag k="tiger:separated" v="no"/>
    <tag k="tiger:source" v="tiger_import_dch_v0.6_20070809"/>
    <tag k="tiger:tlid" v="128366084:128366085:128583315:128583316:128605047:128605050:128605053:128605056:128840237"/>
    <tag k="tiger:zip_left" v="85034"/>
    <tag k="tiger:zip_right" v="85034"/>
  </way>
  <way id="28751043" version="6" timestamp="2010-12-07T23:06:24Z" uid="239998" user="Sundance" changeset="6580959">
    <nd ref="316116342"/>
    <nd ref="260796746"/>
    <nd ref="260796747"/>
    <nd ref="260796748"/>
    <nd ref="260796749"/>
    <nd ref="260796750"/>
    <nd ref="260797402"/>
    <nd ref="260796751"/>
    <nd ref="260796752"/>
    <nd ref="260796753"/>
    <nd ref="260796754"/>
    <nd ref="260796755"/>
    <nd ref="260796756"/>
    <nd ref="260796757"/>
    <nd ref="260796758"/>
    <nd ref="331861535"/>
    <tag k="addr:postalcode" v="85034"/>
    <tag k="alt_name" v="State Route 153"/>
    <tag k="highway" v="motorway"/>
    <tag k="is_in" v="Maricopa, AZ"/>
    <tag k="name" v="AZ 153"/>
    <tag k="name_1" v="South 44th Street"/>
    <tag k="oneway" v="yes"/>
    <tag k="ref" v="AZ 153"/>
    <tag k="tiger:reviewed" v="no"/>
    <tag k="tiger:source" v="tiger_import_dch_v0.6_20070809"/>
    <tag k="tiger:tlid" v="128366084:128366085:128583315:128583316:128605047:128605050:128605053:128605056:128840237"/>
  </way>
  <way id="28751043" version="7" timestamp="2010-12-08T19:21:25Z" uid="70696" user="xybot" changeset="6588401">
    <nd ref="316116342"/>
    <nd ref="260796746"/>
    <nd ref="260796747"/>
    <nd ref="260796748"/>
    <nd ref="260796749"/>
    <nd ref="260796750"/>
    <nd ref="260797402"/>
    <nd ref="260796751"/>
    <nd ref="260796752"/>
    <nd ref="260796753"/>
    <nd ref="260796754"/>
    <nd ref="260796755"/>
    <nd ref="260796756"/>
    <nd ref="260796757"/>
    <nd ref="260796758"/>
    <nd ref="331861535"/>
    <tag k="addr:postcode" v="85034"/>
    <tag k="alt_name" v="State Route 153"/>
    <tag k="highway" v="motorway"/>
    <tag k="is_in" v="Maricopa, AZ"/>
    <tag k="name" v="AZ 153"/>
    <tag k="name_1" v="South 44th Street"/>
    <tag k="oneway" v="yes"/>
    <tag k="ref" v="AZ 153"/>
    <tag k="tiger:reviewed" v="no"/>
    <tag k="tiger:source" v="tiger_import_dch_v0.6_20070809"/>
    <tag k="tiger:tlid" v="128366084:128366085:128583315:128583316:128605047:128605050:128605053:128605056:128840237"/>
  </way>
  <way id="28751043" version="8" timestamp="2011-01-23T00:15:42Z" uid="292665" user="Dr Kludge" changeset="7056946">
    <nd ref="316116342"/>
    <nd ref="260796746"/>
    <nd ref="260796747"/>
    <nd ref="260796748"/>
    <nd ref="260796749"/>
    <nd ref="260796750"/>
    <nd ref="260797402"/>
    <nd ref="260796751"/>
    <nd ref="260796752"/>
    <nd ref="1116347805"/>
    <nd ref="260796753"/>
    <nd ref="1116347849"/>
    <nd ref="260796754"/>
    <nd ref="260796755"/>
    <nd ref="1116347711"/>
    <nd ref="260796756"/>
    <tag k="addr:postcode" v="85034"/>
    <tag k="alt_name" v="State Route 153"/>
    <tag k="highway" v="motorway"/>
    <tag k="is_in" v="Maricopa, AZ"/>
    <tag k="name" v="AZ 153"/>
    <tag k="name_1" v="South 44th Street"/>
    <tag k="oneway" v="yes"/>
    <tag k="ref" v="AZ 153"/>
    <tag k="tiger:reviewed" v="yes"/>
    <tag k="tiger:source" v="tiger_import_dch_v0.6_20070809"/>
    <tag k="tiger:tlid" v="128366084:128366085:128583315:128583316:128605047:128605050:128605053:128605056:128840237"/>
  </way>
  <way id="28751043" version="9" timestamp="2011-03-23T17:42:32Z" uid="207745" user="NE2" changeset="7648212">
    <nd ref="316116342"/>
    <nd ref="260796746"/>
    <nd ref="260796747"/>
    <nd ref="260796748"/>
    <nd ref="260796749"/>
    <nd ref="260796750"/>
    <nd ref="260797402"/>
    <nd ref="260796751"/>
    <nd ref="260796752"/>
    <nd ref="1116347805"/>
    <nd ref="260796753"/>
    <nd ref="1116347849"/>
    <nd ref="260796754"/>
    <nd ref="260796755"/>
    <nd ref="1116347711"/>
    <nd ref="260796756"/>
    <tag k="addr:postcode" v="85034"/>
    <tag k="alt_name" v="State Route 153"/>
    <tag k="highway" v="motorway"/>
    <tag k="is_in" v="Maricopa, AZ"/>
    <tag k="oneway" v="yes"/>
    <tag k="ref" v="AZ 153"/>
    <tag k="tiger:reviewed" v="yes"/>
    <tag k="tiger:source" v="tiger_import_dch_v0.6_20070809"/>
    <tag k="tiger:tlid" v="128366084:128366085:128583315:128583316:128605047:128605050:128605053:128605056:128840237"/>
  </way>
  <way id="28751043" version="10" timestamp="2011-03-24T03:20:43Z" uid="207745" user="NE2" changeset="7652442"/>
  <way id="28751045" version="3" timestamp="2010-04-03T04:04:20Z" uid="20587" user="balrog-kun" changeset="4309442">
    <nd ref="316116399"/>
    <nd ref="260796745"/>
    <nd ref="316116342"/>
    <tag k="bridge" v="yes"/>
    <tag k="created_by" v="Potlatch 0.10f"/>
    <tag k="highway" v="motorway"/>
    <tag k="layer" v="1"/>
    <tag k="name" v="AZ 153"/>
    <tag k="name_1" v="South 44th Street"/>
    <tag k="oneway" v="yes"/>
    <tag k="ref" v="AZ 153"/>
    <tag k="tiger:cfcc" v="A21"/>
    <tag k="tiger:county" v="Maricopa, AZ"/>
    <tag k="tiger:name_base_1" v="44th"/>
    <tag k="tiger:name_type_1" v="St"/>
    <tag k="tiger:reviewed" v="no"/>
    <tag k="tiger:separated" v="no"/>
    <tag k="tiger:source" v="tiger_import_dch_v0.6_20070809"/>
    <tag k="tiger:tlid" v="128366084:128366085:128583315:128583316:128605047:128605050:128605053:128605056:128840237"/>
    <tag k="tiger:zip_left" v="85034"/>
    <tag k="tiger:zip_right" v="85034"/>
  </way>
  <way id="28751045" version="4" timestamp="2011-01-23T00:15:42Z" uid="292665" user="Dr Kludge" changeset="7056946">
    <nd ref="316116399"/>
    <nd ref="260796745"/>
    <nd ref="316116342"/>
    <tag k="bridge" v="yes"/>
    <tag k="highway" v="motorway"/>
    <tag k="layer" v="1"/>
    <tag k="name" v="AZ 153"/>
    <tag k="name_1" v="South 44th Street"/>
    <tag k="oneway" v="yes"/>
    <tag k="ref" v="AZ 153"/>
    <tag k="tiger:cfcc" v="A21"/>
    <tag k="tiger:county" v="Maricopa, AZ"/>
    <tag k="tiger:name_base_1" v="44th"/>
    <tag k="tiger:name_type_1" v="St"/>
    <tag k="tiger:reviewed" v="yes"/>
    <tag k="tiger:separated" v="no"/>
    <tag k="tiger:source" v="tiger_import_dch_v0.6_20070809"/>
    <tag k="tiger:tlid" v="128366084:128366085:128583315:128583316:128605047:128605050:128605053:128605056:128840237"/>
    <tag k="tiger:zip_left" v="85034"/>
    <tag k="tiger:zip_right" v="85034"/>
  </way>
  <way id="28751045" version="5" timestamp="2011-03-23T17:43:18Z" uid="207745" user="NE2" changeset="7648212">
    <nd ref="316116399"/>
    <nd ref="260796745"/>
    <nd ref="316116342"/>
    <tag k="bridge" v="yes"/>
    <tag k="highway" v="motorway"/>
    <tag k="layer" v="1"/>
    <tag k="oneway" v="yes"/>
    <tag k="ref" v="AZ 153"/>
    <tag k="tiger:cfcc" v="A21"/>
    <tag k="tiger:county" v="Maricopa, AZ"/>
    <tag k="tiger:name_base_1" v="44th"/>
    <tag k="tiger:name_type_1" v="St"/>
    <tag k="tiger:reviewed" v="yes"/>
    <tag k="tiger:separated" v="no"/>
    <tag k="tiger:source" v="tiger_import_dch_v0.6_20070809"/>
    <tag k="tiger:tlid" v="128366084:128366085:128583315:128583316:128605047:128605050:128605053:128605056:128840237"/>
    <tag k="tiger:zip_left" v="85034"/>
    <tag k="tiger:zip_right" v="85034"/>
  </way>
  <way id="28751045" version="6" timestamp="2011-03-24T03:20:46Z" uid="207745" user="NE2" changeset="7652442"/>
  <way id="28751125" version="4" timestamp="2010-04-03T04:04:20Z" uid="20587" user="balrog-kun" changeset="4309442">
    <nd ref="41890357"/>
    <nd ref="41890360"/>
    <tag k="bridge" v="yes"/>
    <tag k="created_by" v="Potlatch 0.10f"/>
    <tag k="highway" v="motorway"/>
    <tag k="layer" v="1"/>
    <tag k="name" v="AZ 153"/>
    <tag k="name_1" v="South 44th Street"/>
    <tag k="oneway" v="yes"/>
    <tag k="ref" v="AZ 153"/>
    <tag k="tiger:cfcc" v="A21"/>
    <tag k="tiger:county" v="Maricopa, AZ"/>
    <tag k="tiger:name_base_1" v="44th"/>
    <tag k="tiger:name_type_1" v="St"/>
    <tag k="tiger:reviewed" v="no"/>
    <tag k="tiger:separated" v="no"/>
    <tag k="tiger:source" v="tiger_import_dch_v0.6_20070809"/>
    <tag k="tiger:tlid" v="128366084:128366085:128583315:128583316:128605047:128605050:128605053:128605056:128840237"/>
    <tag k="tiger:zip_left" v="85034"/>
    <tag k="tiger:zip_right" v="85034"/>
  </way>
  <way id="28751125" version="5" timestamp="2011-03-23T17:43:11Z" uid="207745" user="NE2" changeset="7648212">
    <nd ref="41890357"/>
    <nd ref="41890360"/>
    <tag k="bridge" v="yes"/>
    <tag k="highway" v="motorway"/>
    <tag k="layer" v="1"/>
    <tag k="oneway" v="yes"/>
    <tag k="ref" v="AZ 153"/>
    <tag k="tiger:cfcc" v="A21"/>
    <tag k="tiger:county" v="Maricopa, AZ"/>
    <tag k="tiger:name_base_1" v="44th"/>
    <tag k="tiger:name_type_1" v="St"/>
    <tag k="tiger:reviewed" v="no"/>
    <tag k="tiger:separated" v="no"/>
    <tag k="tiger:source" v="tiger_import_dch_v0.6_20070809"/>
    <tag k="tiger:tlid" v="128366084:128366085:128583315:128583316:128605047:128605050:128605053:128605056:128840237"/>
    <tag k="tiger:zip_left" v="85034"/>
    <tag k="tiger:zip_right" v="85034"/>
  </way>
  <way id="28751125" version="6" timestamp="2011-03-24T03:20:45Z" uid="207745" user="NE2" changeset="7652442"/>
  <way id="28751126" version="2" timestamp="2010-04-03T04:04:20Z" uid="20587" user="balrog-kun" changeset="4309442">
    <nd ref="41890360"/>
    <nd ref="41890369"/>
    <nd ref="41890370"/>
    <nd ref="41890372"/>
    <nd ref="316115338"/>
    <tag k="created_by" v="Potlatch 0.10f"/>
    <tag k="highway" v="motorway"/>
    <tag k="name" v="AZ 153"/>
    <tag k="name_1" v="South 44th Street"/>
    <tag k="oneway" v="yes"/>
    <tag k="ref" v="AZ 153"/>
    <tag k="tiger:cfcc" v="A21"/>
    <tag k="tiger:county" v="Maricopa, AZ"/>
    <tag k="tiger:name_base_1" v="44th"/>
    <tag k="tiger:name_type_1" v="St"/>
    <tag k="tiger:reviewed" v="no"/>
    <tag k="tiger:separated" v="no"/>
    <tag k="tiger:source" v="tiger_import_dch_v0.6_20070809"/>
    <tag k="tiger:tlid" v="128366084:128366085:128583315:128583316:128605047:128605050:128605053:128605056:128840237"/>
    <tag k="tiger:zip_left" v="85034"/>
    <tag k="tiger:zip_right" v="85034"/>
  </way>
  <way id="28751126" version="3" timestamp="2010-12-07T23:06:23Z" uid="239998" user="Sundance" changeset="6580959">
    <nd ref="41890360"/>
    <nd ref="41890369"/>
    <nd ref="41890370"/>
    <nd ref="41890372"/>
    <nd ref="316115338"/>
    <tag k="highway" v="motorway"/>
    <tag k="is_in" v="Maricopa, AZ"/>
    <tag k="name" v="AZ 153"/>
    <tag k="name_1" v="South 44th Street"/>
    <tag k="oneway" v="yes"/>
    <tag k="ref" v="AZ 153"/>
    <tag k="tiger:reviewed" v="no"/>
    <tag k="tiger:source" v="tiger_import_dch_v0.6_20070809"/>
    <tag k="tiger:tlid" v="128366084:128366085:128583315:128583316:128605047:128605050:128605053:128605056:128840237"/>
    <tag k="tiger:zip_left" v="85034"/>
    <tag k="tiger:zip_right" v="85034"/>
  </way>
  <way id="28751126" version="4" timestamp="2011-03-23T17:42:57Z" uid="207745" user="NE2" changeset="7648212">
    <nd ref="41890360"/>
    <nd ref="41890369"/>
    <nd ref="41890370"/>
    <nd ref="41890372"/>
    <nd ref="316115338"/>
    <tag k="highway" v="motorway"/>
    <tag k="is_in" v="Maricopa, AZ"/>
    <tag k="oneway" v="yes"/>
    <tag k="ref" v="AZ 153"/>
    <tag k="tiger:reviewed" v="no"/>
    <tag k="tiger:source" v="tiger_import_dch_v0.6_20070809"/>
    <tag k="tiger:tlid" v="128366084:128366085:128583315:128583316:128605047:128605050:128605053:128605056:128840237"/>
    <tag k="tiger:zip_left" v="85034"/>
    <tag k="tiger:zip_right" v="85034"/>
  </way>
  <way id="28751126" version="5" timestamp="2011-03-24T03:20:44Z" uid="207745" user="NE2" changeset="7652442"/>
  <way id="28751129" version="4" timestamp="2010-04-03T04:04:21Z" uid="20587" user="balrog-kun" changeset="4309442">
    <nd ref="260796743"/>
    <nd ref="260796744"/>
    <tag k="bridge" v="yes"/>
    <tag k="created_by" v="Potlatch 0.10f"/>
    <tag k="highway" v="motorway"/>
    <tag k="layer" v="1"/>
    <tag k="name" v="AZ 153"/>
    <tag k="name_1" v="South 44th Street"/>
    <tag k="oneway" v="yes"/>
    <tag k="ref" v="AZ 153"/>
    <tag k="tiger:cfcc" v="A21"/>
    <tag k="tiger:county" v="Maricopa, AZ"/>
    <tag k="tiger:name_base_1" v="44th"/>
    <tag k="tiger:name_type_1" v="St"/>
    <tag k="tiger:reviewed" v="no"/>
    <tag k="tiger:separated" v="no"/>
    <tag k="tiger:source" v="tiger_import_dch_v0.6_20070809"/>
    <tag k="tiger:tlid" v="128366084:128366085:128583315:128583316:128605047:128605050:128605053:128605056:128840237"/>
    <tag k="tiger:zip_left" v="85034"/>
    <tag k="tiger:zip_right" v="85034"/>
  </way>
  <way id="28751129" version="5" timestamp="2011-03-23T17:42:38Z" uid="207745" user="NE2" changeset="7648212">
    <nd ref="260796743"/>
    <nd ref="260796744"/>
    <tag k="bridge" v="yes"/>
    <tag k="highway" v="motorway"/>
    <tag k="layer" v="1"/>
    <tag k="oneway" v="yes"/>
    <tag k="ref" v="AZ 153"/>
    <tag k="tiger:cfcc" v="A21"/>
    <tag k="tiger:county" v="Maricopa, AZ"/>
    <tag k="tiger:name_base_1" v="44th"/>
    <tag k="tiger:name_type_1" v="St"/>
    <tag k="tiger:reviewed" v="no"/>
    <tag k="tiger:separated" v="no"/>
    <tag k="tiger:source" v="tiger_import_dch_v0.6_20070809"/>
    <tag k="tiger:tlid" v="128366084:128366085:128583315:128583316:128605047:128605050:128605053:128605056:128840237"/>
    <tag k="tiger:zip_left" v="85034"/>
    <tag k="tiger:zip_right" v="85034"/>
  </way>
  <way id="28751129" version="6" timestamp="2011-03-24T03:20:46Z" uid="207745" user="NE2" changeset="7652442"/>
  <way id="28751131" version="2" timestamp="2010-04-03T04:04:21Z" uid="20587" user="balrog-kun" changeset="4309442">
    <nd ref="260796744"/>
    <nd ref="316116399"/>
    <tag k="created_by" v="Potlatch 0.10f"/>
    <tag k="highway" v="motorway"/>
    <tag k="name" v="AZ 153"/>
    <tag k="name_1" v="South 44th Street"/>
    <tag k="oneway" v="yes"/>
    <tag k="ref" v="AZ 153"/>
    <tag k="tiger:cfcc" v="A21"/>
    <tag k="tiger:county" v="Maricopa, AZ"/>
    <tag k="tiger:name_base_1" v="44th"/>
    <tag k="tiger:name_type_1" v="St"/>
    <tag k="tiger:reviewed" v="no"/>
    <tag k="tiger:separated" v="no"/>
    <tag k="tiger:source" v="tiger_import_dch_v0.6_20070809"/>
    <tag k="tiger:tlid" v="128366084:128366085:128583315:128583316:128605047:128605050:128605053:128605056:128840237"/>
    <tag k="tiger:zip_left" v="85034"/>
    <tag k="tiger:zip_right" v="85034"/>
  </way>
  <way id="28751131" version="3" timestamp="2011-03-23T17:43:24Z" uid="207745" user="NE2" changeset="7648212">
    <nd ref="260796744"/>
    <nd ref="316116399"/>
    <tag k="highway" v="motorway"/>
    <tag k="oneway" v="yes"/>
    <tag k="ref" v="AZ 153"/>
    <tag k="tiger:cfcc" v="A21"/>
    <tag k="tiger:county" v="Maricopa, AZ"/>
    <tag k="tiger:name_base_1" v="44th"/>
    <tag k="tiger:name_type_1" v="St"/>
    <tag k="tiger:reviewed" v="no"/>
    <tag k="tiger:separated" v="no"/>
    <tag k="tiger:source" v="tiger_import_dch_v0.6_20070809"/>
    <tag k="tiger:tlid" v="128366084:128366085:128583315:128583316:128605047:128605050:128605053:128605056:128840237"/>
    <tag k="tiger:zip_left" v="85034"/>
    <tag k="tiger:zip_right" v="85034"/>
  </way>
  <way id="28751131" version="4" timestamp="2011-03-24T03:20:45Z" uid="207745" user="NE2" changeset="7652442"/>
  <way id="28751218" version="4" timestamp="2010-04-03T04:04:21Z" uid="20587" user="balrog-kun" changeset="4309442">
    <nd ref="255823544"/>
    <nd ref="156226386"/>
    <nd ref="255823519"/>
    <tag k="created_by" v="Potlatch 0.10f"/>
    <tag k="highway" v="motorway"/>
    <tag k="name" v="202"/>
    <tag k="name_1" v="Red Mountain Freeway"/>
    <tag k="ref" v="AZ 202"/>
    <tag k="tiger:cfcc" v="A11"/>
    <tag k="tiger:county" v="Maricopa, AZ"/>
    <tag k="tiger:name_base" v="202"/>
    <tag k="tiger:name_base_1" v="Red Mountain"/>
    <tag k="tiger:name_type_1" v="Fwy"/>
    <tag k="tiger:reviewed" v="no"/>
    <tag k="tiger:separated" v="no"/>
    <tag k="tiger:source" v="tiger_import_dch_v0.6_20070809"/>
    <tag k="tiger:tlid" v="128838507:128789703:128789704:128789689:128875678:128875679:128789652:128789622:128789664:128789665:128789672:128789697:128789698:128839394:128825348:128813913:128813916"/>
  </way>
  <way id="28751218" version="5" timestamp="2010-11-11T19:31:19Z" uid="316868" user="LexIgnatov" changeset="6346183">
    <nd ref="255823544"/>
    <nd ref="156226386"/>
    <nd ref="255823519"/>
    <tag k="highway" v="motorway_link"/>
    <tag k="name" v="202"/>
    <tag k="name_1" v="Red Mountain Freeway"/>
    <tag k="oneway" v="yes"/>
    <tag k="ref" v="AZ 202"/>
    <tag k="tiger:cfcc" v="A63"/>
    <tag k="tiger:county" v="Maricopa, AZ"/>
    <tag k="tiger:name_base" v="202"/>
    <tag k="tiger:name_base_1" v="Red Mountain"/>
    <tag k="tiger:name_type_1" v="Fwy"/>
    <tag k="tiger:reviewed" v="no"/>
    <tag k="tiger:separated" v="no"/>
    <tag k="tiger:source" v="tiger_import_dch_v0.6_20070809"/>
    <tag k="tiger:tlid" v="128605081:128605082"/>
    <tag k="tiger:upload_uuid" v="bulk_upload.pl-3a1de704-92f6-40cd-be77-1e308dbaf23d"/>
  </way>
  <way id="28751218" version="6" timestamp="2011-03-22T11:32:29Z" uid="207745" user="NE2" changeset="7636170">
    <nd ref="255823544"/>
    <nd ref="156226386"/>
    <nd ref="255823519"/>
    <tag k="highway" v="motorway_link"/>
    <tag k="name" v="Red Mountain Freeway"/>
    <tag k="oneway" v="yes"/>
    <tag k="ref" v="AZ 202"/>
    <tag k="tiger:cfcc" v="A63"/>
    <tag k="tiger:county" v="Maricopa, AZ"/>
    <tag k="tiger:name_base" v="202"/>
    <tag k="tiger:name_base_1" v="Red Mountain"/>
    <tag k="tiger:name_type_1" v="Fwy"/>
    <tag k="tiger:reviewed" v="no"/>
    <tag k="tiger:separated" v="no"/>
    <tag k="tiger:source" v="tiger_import_dch_v0.6_20070809"/>
    <tag k="tiger:tlid" v="128605081:128605082"/>
    <tag k="tiger:upload_uuid" v="bulk_upload.pl-3a1de704-92f6-40cd-be77-1e308dbaf23d"/>
  </way>
  <way id="28751218" version="7" timestamp="2011-07-28T10:29:03Z" uid="207745" user="NE2" changeset="8853028">
    <nd ref="255823544"/>
    <nd ref="156226386"/>
    <nd ref="255823519"/>
    <tag k="highway" v="motorway_link"/>
    <tag k="hov" v="lane"/>
    <tag k="lanes" v="5"/>
    <tag k="name" v="Red Mountain Freeway"/>
    <tag k="note:lanes" v="left lane is hov"/>
    <tag k="oneway" v="yes"/>
    <tag k="ref" v="AZ 202"/>
    <tag k="tiger:cfcc" v="A63"/>
    <tag k="tiger:county" v="Maricopa, AZ"/>
    <tag k="tiger:name_base" v="202"/>
    <tag k="tiger:name_base_1" v="Red Mountain"/>
    <tag k="tiger:name_type_1" v="Fwy"/>
    <tag k="tiger:reviewed" v="no"/>
    <tag k="tiger:separated" v="no"/>
    <tag k="tiger:source" v="tiger_import_dch_v0.6_20070809"/>
    <tag k="tiger:tlid" v="128605081:128605082"/>
    <tag k="tiger:upload_uuid" v="bulk_upload.pl-3a1de704-92f6-40cd-be77-1e308dbaf23d"/>
  </way>
  <way id="28751218" version="8" timestamp="2011-08-04T23:11:02Z" uid="207745" user="NE2" changeset="8924062">
    <nd ref="255823544"/>
    <nd ref="156226386"/>
    <nd ref="255823519"/>
    <tag k="highway" v="motorway"/>
    <tag k="hov" v="lane"/>
    <tag k="lanes" v="5"/>
    <tag k="name" v="Red Mountain Freeway"/>
    <tag k="note:lanes" v="left lane is hov"/>
    <tag k="oneway" v="yes"/>
    <tag k="ref" v="AZ 202"/>
    <tag k="tiger:cfcc" v="A63"/>
    <tag k="tiger:county" v="Maricopa, AZ"/>
    <tag k="tiger:name_base" v="202"/>
    <tag k="tiger:name_base_1" v="Red Mountain"/>
    <tag k="tiger:name_type_1" v="Fwy"/>
    <tag k="tiger:reviewed" v="no"/>
    <tag k="tiger:separated" v="no"/>
    <tag k="tiger:source" v="tiger_import_dch_v0.6_20070809"/>
    <tag k="tiger:tlid" v="128605081:128605082"/>
    <tag k="tiger:upload_uuid" v="bulk_upload.pl-3a1de704-92f6-40cd-be77-1e308dbaf23d"/>
  </way>
  <way id="28751218" version="9" timestamp="2011-10-14T13:31:46Z" uid="207745" user="NE2" changeset="9555438">
    <nd ref="255823544"/>
    <nd ref="156226386"/>
    <nd ref="255823519"/>
    <tag k="bicycle" v="no"/>
    <tag k="highway" v="motorway"/>
    <tag k="hov" v="lane"/>
    <tag k="lanes" v="5"/>
    <tag k="name" v="Red Mountain Freeway"/>
    <tag k="note:lanes" v="left lane is hov"/>
    <tag k="oneway" v="yes"/>
    <tag k="ref" v="AZ 202"/>
    <tag k="tiger:cfcc" v="A63"/>
    <tag k="tiger:county" v="Maricopa, AZ"/>
    <tag k="tiger:name_base" v="202"/>
    <tag k="tiger:name_base_1" v="Red Mountain"/>
    <tag k="tiger:name_type_1" v="Fwy"/>
    <tag k="tiger:reviewed" v="no"/>
    <tag k="tiger:separated" v="no"/>
    <tag k="tiger:source" v="tiger_import_dch_v0.6_20070809"/>
    <tag k="tiger:tlid" v="128605081:128605082"/>
    <tag k="tiger:upload_uuid" v="bulk_upload.pl-3a1de704-92f6-40cd-be77-1e308dbaf23d"/>
  </way>
  <way id="28751218" version="10" timestamp="2011-11-19T15:08:25Z" uid="292665" user="Dr Kludge" changeset="9873833">
    <nd ref="255823544"/>
    <nd ref="156226386"/>
    <nd ref="1508633923"/>
    <nd ref="255823519"/>
    <tag k="bicycle" v="no"/>
    <tag k="highway" v="motorway"/>
    <tag k="hov" v="lane"/>
    <tag k="lanes" v="5"/>
    <tag k="name" v="Red Mountain Freeway"/>
    <tag k="note:lanes" v="left lane is hov"/>
    <tag k="oneway" v="yes"/>
    <tag k="ref" v="AZ 202"/>
    <tag k="tiger:cfcc" v="A63"/>
    <tag k="tiger:county" v="Maricopa, AZ"/>
    <tag k="tiger:name_base" v="202"/>
    <tag k="tiger:name_base_1" v="Red Mountain"/>
    <tag k="tiger:name_type_1" v="Fwy"/>
    <tag k="tiger:reviewed" v="yes"/>
    <tag k="tiger:separated" v="no"/>
    <tag k="tiger:source" v="tiger_import_dch_v0.6_20070809"/>
    <tag k="tiger:tlid" v="128605081:128605082"/>
    <tag k="tiger:upload_uuid" v="bulk_upload.pl-3a1de704-92f6-40cd-be77-1e308dbaf23d"/>
  </way>
  <way id="28751219" version="5" timestamp="2010-04-03T04:04:21Z" uid="20587" user="balrog-kun" changeset="4309442">
    <nd ref="316118199"/>
    <nd ref="316118666"/>
    <nd ref="316118215"/>
    <nd ref="41476765"/>
    <tag k="bridge" v="yes"/>
    <tag k="created_by" v="Potlatch 0.10f"/>
    <tag k="highway" v="motorway"/>
    <tag k="layer" v="1"/>
    <tag k="name" v="Red Mountain Freeway"/>
    <tag k="name_1" v="202"/>
    <tag k="name_2" v="State Highway 202"/>
    <tag k="ref" v="AZ 202"/>
    <tag k="tiger:cfcc" v="A11"/>
    <tag k="tiger:county" v="Maricopa, AZ"/>
    <tag k="tiger:name_base" v="Red Mountain"/>
    <tag k="tiger:name_base_1" v="202"/>
    <tag k="tiger:name_base_2" v="202"/>
    <tag k="tiger:name_type" v="Fwy"/>
    <tag k="tiger:reviewed" v="no"/>
    <tag k="tiger:separated" v="no"/>
    <tag k="tiger:source" v="tiger_import_dch_v0.6_20070809"/>
    <tag k="tiger:tlid" v="128802036"/>
  </way>
  <way id="28751219" version="6" timestamp="2010-11-11T19:31:14Z" uid="316868" user="LexIgnatov" changeset="6346183">
    <nd ref="316118199"/>
    <nd ref="316118666"/>
    <nd ref="316118215"/>
    <nd ref="41476765"/>
    <tag k="bridge" v="yes"/>
    <tag k="highway" v="motorway"/>
    <tag k="is_in" v="Maricopa, AZ"/>
    <tag k="layer" v="1"/>
    <tag k="name" v="Red Mountain Freeway"/>
    <tag k="name_1" v="202"/>
    <tag k="name_2" v="State Highway 202"/>
    <tag k="oneway" v="yes"/>
    <tag k="ref" v="AZ 202"/>
    <tag k="tiger:cfcc" v="A11"/>
    <tag k="tiger:county" v="Maricopa, AZ"/>
    <tag k="tiger:name_base" v="Red Mountain"/>
    <tag k="tiger:name_base_1" v="202"/>
    <tag k="tiger:name_base_2" v="202"/>
    <tag k="tiger:name_type" v="Fwy"/>
    <tag k="tiger:reviewed" v="no"/>
    <tag k="tiger:separated" v="no"/>
    <tag k="tiger:source" v="tiger_import_dch_v0.6_20070809"/>
    <tag k="tiger:tlid" v="128802036"/>
  </way>
  <way id="28751219" version="7" timestamp="2011-03-22T11:31:44Z" uid="207745" user="NE2" changeset="7636170">
    <nd ref="316118199"/>
    <nd ref="316118666"/>
    <nd ref="316118215"/>
    <nd ref="41476765"/>
    <tag k="bridge" v="yes"/>
    <tag k="highway" v="motorway"/>
    <tag k="is_in" v="Maricopa, AZ"/>
    <tag k="layer" v="1"/>
    <tag k="name" v="Red Mountain Freeway"/>
    <tag k="oneway" v="yes"/>
    <tag k="ref" v="AZ 202"/>
    <tag k="tiger:cfcc" v="A11"/>
    <tag k="tiger:county" v="Maricopa, AZ"/>
    <tag k="tiger:name_base" v="Red Mountain"/>
    <tag k="tiger:name_base_1" v="202"/>
    <tag k="tiger:name_base_2" v="202"/>
    <tag k="tiger:name_type" v="Fwy"/>
    <tag k="tiger:reviewed" v="no"/>
    <tag k="tiger:separated" v="no"/>
    <tag k="tiger:source" v="tiger_import_dch_v0.6_20070809"/>
    <tag k="tiger:tlid" v="128802036"/>
  </way>
  <way id="28751219" version="8" timestamp="2011-07-28T10:29:12Z" uid="207745" user="NE2" changeset="8853028">
    <nd ref="316118199"/>
    <nd ref="316118666"/>
    <nd ref="316118215"/>
    <nd ref="41476765"/>
    <tag k="bridge" v="yes"/>
    <tag k="highway" v="motorway"/>
    <tag k="hov" v="lane"/>
    <tag k="is_in" v="Maricopa, AZ"/>
    <tag k="lanes" v="4"/>
    <tag k="layer" v="1"/>
    <tag k="name" v="Red Mountain Freeway"/>
    <tag k="note:lanes" v="left lane is hov"/>
    <tag k="oneway" v="yes"/>
    <tag k="ref" v="AZ 202"/>
    <tag k="tiger:cfcc" v="A11"/>
    <tag k="tiger:county" v="Maricopa, AZ"/>
    <tag k="tiger:name_base" v="Red Mountain"/>
    <tag k="tiger:name_base_1" v="202"/>
    <tag k="tiger:name_base_2" v="202"/>
    <tag k="tiger:name_type" v="Fwy"/>
    <tag k="tiger:reviewed" v="no"/>
    <tag k="tiger:separated" v="no"/>
    <tag k="tiger:source" v="tiger_import_dch_v0.6_20070809"/>
    <tag k="tiger:tlid" v="128802036"/>
  </way>
  <way id="28751219" version="9" timestamp="2011-10-14T13:31:55Z" uid="207745" user="NE2" changeset="9555438">
    <nd ref="316118199"/>
    <nd ref="316118666"/>
    <nd ref="316118215"/>
    <nd ref="41476765"/>
    <tag k="bicycle" v="no"/>
    <tag k="bridge" v="yes"/>
    <tag k="highway" v="motorway"/>
    <tag k="hov" v="lane"/>
    <tag k="is_in" v="Maricopa, AZ"/>
    <tag k="lanes" v="4"/>
    <tag k="layer" v="1"/>
    <tag k="name" v="Red Mountain Freeway"/>
    <tag k="note:lanes" v="left lane is hov"/>
    <tag k="oneway" v="yes"/>
    <tag k="ref" v="AZ 202"/>
    <tag k="tiger:cfcc" v="A11"/>
    <tag k="tiger:county" v="Maricopa, AZ"/>
    <tag k="tiger:name_base" v="Red Mountain"/>
    <tag k="tiger:name_base_1" v="202"/>
    <tag k="tiger:name_base_2" v="202"/>
    <tag k="tiger:name_type" v="Fwy"/>
    <tag k="tiger:reviewed" v="no"/>
    <tag k="tiger:separated" v="no"/>
    <tag k="tiger:source" v="tiger_import_dch_v0.6_20070809"/>
    <tag k="tiger:tlid" v="128802036"/>
  </way>
  <way id="28751219" version="10" timestamp="2011-11-19T15:08:27Z" uid="292665" user="Dr Kludge" changeset="9873833">
    <nd ref="316118199"/>
    <nd ref="316118666"/>
    <nd ref="316118215"/>
    <nd ref="41476765"/>
    <tag k="bicycle" v="no"/>
    <tag k="bridge" v="yes"/>
    <tag k="highway" v="motorway"/>
    <tag k="hov" v="lane"/>
    <tag k="is_in" v="Maricopa, AZ"/>
    <tag k="lanes" v="4"/>
    <tag k="layer" v="1"/>
    <tag k="name" v="Red Mountain Freeway"/>
    <tag k="note:lanes" v="left lane is hov"/>
    <tag k="oneway" v="yes"/>
    <tag k="ref" v="AZ 202"/>
    <tag k="tiger:cfcc" v="A11"/>
    <tag k="tiger:county" v="Maricopa, AZ"/>
    <tag k="tiger:name_base" v="Red Mountain"/>
    <tag k="tiger:name_base_1" v="202"/>
    <tag k="tiger:name_base_2" v="202"/>
    <tag k="tiger:name_type" v="Fwy"/>
    <tag k="tiger:reviewed" v="yes"/>
    <tag k="tiger:separated" v="no"/>
    <tag k="tiger:source" v="tiger_import_dch_v0.6_20070809"/>
    <tag k="tiger:tlid" v="128802036"/>
  </way>
  <way id="28751224" version="4" timestamp="2010-04-03T04:04:21Z" uid="20587" user="balrog-kun" changeset="4309442">
    <nd ref="316118444"/>
    <nd ref="156226375"/>
    <nd ref="316118705"/>
    <nd ref="255823544"/>
    <tag k="bridge" v="yes"/>
    <tag k="created_by" v="Potlatch 0.10f"/>
    <tag k="highway" v="motorway"/>
    <tag k="layer" v="1"/>
    <tag k="name" v="202"/>
    <tag k="name_1" v="Red Mountain Freeway"/>
    <tag k="ref" v="AZ 202"/>
    <tag k="tiger:cfcc" v="A11"/>
    <tag k="tiger:county" v="Maricopa, AZ"/>
    <tag k="tiger:name_base" v="202"/>
    <tag k="tiger:name_base_1" v="Red Mountain"/>
    <tag k="tiger:name_type_1" v="Fwy"/>
    <tag k="tiger:reviewed" v="no"/>
    <tag k="tiger:separated" v="no"/>
    <tag k="tiger:source" v="tiger_import_dch_v0.6_20070809"/>
    <tag k="tiger:tlid" v="128838507:128789703:128789704:128789689:128875678:128875679:128789652:128789622:128789664:128789665:128789672:128789697:128789698:128839394:128825348:128813913:128813916"/>
  </way>
  <way id="28751224" version="5" timestamp="2010-11-11T19:31:14Z" uid="316868" user="LexIgnatov" changeset="6346183">
    <nd ref="316118444"/>
    <nd ref="156226375"/>
    <nd ref="316118705"/>
    <nd ref="255823544"/>
    <tag k="bridge" v="yes"/>
    <tag k="highway" v="motorway_link"/>
    <tag k="layer" v="1"/>
    <tag k="name" v="202"/>
    <tag k="name_1" v="Red Mountain Freeway"/>
    <tag k="oneway" v="yes"/>
    <tag k="ref" v="AZ 202"/>
    <tag k="tiger:cfcc" v="A63"/>
    <tag k="tiger:county" v="Maricopa, AZ"/>
    <tag k="tiger:name_base" v="202"/>
    <tag k="tiger:name_base_1" v="Red Mountain"/>
    <tag k="tiger:name_type_1" v="Fwy"/>
    <tag k="tiger:reviewed" v="no"/>
    <tag k="tiger:separated" v="no"/>
    <tag k="tiger:source" v="tiger_import_dch_v0.6_20070809"/>
    <tag k="tiger:tlid" v="128605081:128605082"/>
    <tag k="tiger:upload_uuid" v="bulk_upload.pl-3a1de704-92f6-40cd-be77-1e308dbaf23d"/>
  </way>
  <way id="28751224" version="6" timestamp="2011-03-22T11:31:47Z" uid="207745" user="NE2" changeset="7636170">
    <nd ref="316118444"/>
    <nd ref="156226375"/>
    <nd ref="316118705"/>
    <nd ref="255823544"/>
    <tag k="bridge" v="yes"/>
    <tag k="highway" v="motorway_link"/>
    <tag k="layer" v="1"/>
    <tag k="name" v="Red Mountain Freeway"/>
    <tag k="oneway" v="yes"/>
    <tag k="ref" v="AZ 202"/>
    <tag k="tiger:cfcc" v="A63"/>
    <tag k="tiger:county" v="Maricopa, AZ"/>
    <tag k="tiger:name_base" v="202"/>
    <tag k="tiger:name_base_1" v="Red Mountain"/>
    <tag k="tiger:name_type_1" v="Fwy"/>
    <tag k="tiger:reviewed" v="no"/>
    <tag k="tiger:separated" v="no"/>
    <tag k="tiger:source" v="tiger_import_dch_v0.6_20070809"/>
    <tag k="tiger:tlid" v="128605081:128605082"/>
    <tag k="tiger:upload_uuid" v="bulk_upload.pl-3a1de704-92f6-40cd-be77-1e308dbaf23d"/>
  </way>
  <way id="28751224" version="7" timestamp="2011-07-28T10:29:10Z" uid="207745" user="NE2" changeset="8853028">
    <nd ref="316118444"/>
    <nd ref="156226375"/>
    <nd ref="316118705"/>
    <nd ref="255823544"/>
    <tag k="bridge" v="yes"/>
    <tag k="highway" v="motorway_link"/>
    <tag k="hov" v="lane"/>
    <tag k="lanes" v="5"/>
    <tag k="layer" v="1"/>
    <tag k="name" v="Red Mountain Freeway"/>
    <tag k="note:lanes" v="left lane is hov"/>
    <tag k="oneway" v="yes"/>
    <tag k="ref" v="AZ 202"/>
    <tag k="tiger:cfcc" v="A63"/>
    <tag k="tiger:county" v="Maricopa, AZ"/>
    <tag k="tiger:name_base" v="202"/>
    <tag k="tiger:name_base_1" v="Red Mountain"/>
    <tag k="tiger:name_type_1" v="Fwy"/>
    <tag k="tiger:reviewed" v="no"/>
    <tag k="tiger:separated" v="no"/>
    <tag k="tiger:source" v="tiger_import_dch_v0.6_20070809"/>
    <tag k="tiger:tlid" v="128605081:128605082"/>
    <tag k="tiger:upload_uuid" v="bulk_upload.pl-3a1de704-92f6-40cd-be77-1e308dbaf23d"/>
  </way>
  <way id="28751224" version="8" timestamp="2011-08-04T23:11:02Z" uid="207745" user="NE2" changeset="8924062">
    <nd ref="316118444"/>
    <nd ref="156226375"/>
    <nd ref="316118705"/>
    <nd ref="255823544"/>
    <tag k="bridge" v="yes"/>
    <tag k="highway" v="motorway"/>
    <tag k="hov" v="lane"/>
    <tag k="lanes" v="5"/>
    <tag k="layer" v="1"/>
    <tag k="name" v="Red Mountain Freeway"/>
    <tag k="note:lanes" v="left lane is hov"/>
    <tag k="oneway" v="yes"/>
    <tag k="ref" v="AZ 202"/>
    <tag k="tiger:cfcc" v="A63"/>
    <tag k="tiger:county" v="Maricopa, AZ"/>
    <tag k="tiger:name_base" v="202"/>
    <tag k="tiger:name_base_1" v="Red Mountain"/>
    <tag k="tiger:name_type_1" v="Fwy"/>
    <tag k="tiger:reviewed" v="no"/>
    <tag k="tiger:separated" v="no"/>
    <tag k="tiger:source" v="tiger_import_dch_v0.6_20070809"/>
    <tag k="tiger:tlid" v="128605081:128605082"/>
    <tag k="tiger:upload_uuid" v="bulk_upload.pl-3a1de704-92f6-40cd-be77-1e308dbaf23d"/>
  </way>
  <way id="28751224" version="9" timestamp="2011-10-14T13:31:53Z" uid="207745" user="NE2" changeset="9555438">
    <nd ref="316118444"/>
    <nd ref="156226375"/>
    <nd ref="316118705"/>
    <nd ref="255823544"/>
    <tag k="bicycle" v="no"/>
    <tag k="bridge" v="yes"/>
    <tag k="highway" v="motorway"/>
    <tag k="hov" v="lane"/>
    <tag k="lanes" v="5"/>
    <tag k="layer" v="1"/>
    <tag k="name" v="Red Mountain Freeway"/>
    <tag k="note:lanes" v="left lane is hov"/>
    <tag k="oneway" v="yes"/>
    <tag k="ref" v="AZ 202"/>
    <tag k="tiger:cfcc" v="A63"/>
    <tag k="tiger:county" v="Maricopa, AZ"/>
    <tag k="tiger:name_base" v="202"/>
    <tag k="tiger:name_base_1" v="Red Mountain"/>
    <tag k="tiger:name_type_1" v="Fwy"/>
    <tag k="tiger:reviewed" v="no"/>
    <tag k="tiger:separated" v="no"/>
    <tag k="tiger:source" v="tiger_import_dch_v0.6_20070809"/>
    <tag k="tiger:tlid" v="128605081:128605082"/>
    <tag k="tiger:upload_uuid" v="bulk_upload.pl-3a1de704-92f6-40cd-be77-1e308dbaf23d"/>
  </way>
  <way id="28751224" version="10" timestamp="2011-11-19T15:08:28Z" uid="292665" user="Dr Kludge" changeset="9873833">
    <nd ref="316118444"/>
    <nd ref="156226375"/>
    <nd ref="316118705"/>
    <nd ref="255823544"/>
    <tag k="bicycle" v="no"/>
    <tag k="bridge" v="yes"/>
    <tag k="highway" v="motorway"/>
    <tag k="hov" v="lane"/>
    <tag k="lanes" v="5"/>
    <tag k="layer" v="1"/>
    <tag k="name" v="Red Mountain Freeway"/>
    <tag k="note:lanes" v="left lane is hov"/>
    <tag k="oneway" v="yes"/>
    <tag k="ref" v="AZ 202"/>
    <tag k="tiger:cfcc" v="A63"/>
    <tag k="tiger:county" v="Maricopa, AZ"/>
    <tag k="tiger:name_base" v="202"/>
    <tag k="tiger:name_base_1" v="Red Mountain"/>
    <tag k="tiger:name_type_1" v="Fwy"/>
    <tag k="tiger:reviewed" v="yes"/>
    <tag k="tiger:separated" v="no"/>
    <tag k="tiger:source" v="tiger_import_dch_v0.6_20070809"/>
    <tag k="tiger:tlid" v="128605081:128605082"/>
    <tag k="tiger:upload_uuid" v="bulk_upload.pl-3a1de704-92f6-40cd-be77-1e308dbaf23d"/>
  </way>
  <way id="28751234" version="11" timestamp="2010-04-03T04:04:22Z" uid="20587" user="balrog-kun" changeset="4309442">
    <nd ref="41476765"/>
    <nd ref="42313688"/>
    <nd ref="316118797"/>
    <nd ref="42313685"/>
    <nd ref="42313676"/>
    <nd ref="41405521"/>
    <nd ref="42313666"/>
    <nd ref="42313660"/>
    <nd ref="41754047"/>
    <nd ref="42313655"/>
    <nd ref="42313649"/>
    <nd ref="42313643"/>
    <nd ref="41446000"/>
    <nd ref="42313637"/>
    <nd ref="42313630"/>
    <nd ref="41197582"/>
    <nd ref="41446015"/>
    <nd ref="41554012"/>
    <nd ref="42313602"/>
    <nd ref="42313591"/>
    <nd ref="41408114"/>
    <nd ref="42313569"/>
    <nd ref="42313561"/>
    <nd ref="42313558"/>
    <nd ref="42313553"/>
    <nd ref="41380690"/>
    <nd ref="42313538"/>
    <nd ref="42313533"/>
    <nd ref="41231042"/>
    <nd ref="256198636"/>
    <nd ref="42313521"/>
    <nd ref="42313511"/>
    <nd ref="42313504"/>
    <nd ref="41451003"/>
    <nd ref="42313497"/>
    <nd ref="41323687"/>
    <nd ref="41332978"/>
    <nd ref="42313473"/>
    <nd ref="42313468"/>
    <nd ref="42313463"/>
    <nd ref="41231025"/>
    <nd ref="42313457"/>
    <nd ref="256542002"/>
    <nd ref="156226172"/>
    <nd ref="330544422"/>
    <tag k="highway" v="motorway"/>
    <tag k="name" v="Red Mountain Freeway"/>
    <tag k="name_1" v="202"/>
    <tag k="name_2" v="State Highway 202"/>
    <tag k="oneway" v="yes"/>
    <tag k="ref" v="AZ 202"/>
    <tag k="tiger:cfcc" v="A11"/>
    <tag k="tiger:county" v="Maricopa, AZ"/>
    <tag k="tiger:name_base" v="Red Mountain"/>
    <tag k="tiger:name_base_1" v="202"/>
    <tag k="tiger:name_base_2" v="202"/>
    <tag k="tiger:name_type" v="Fwy"/>
    <tag k="tiger:reviewed" v="no"/>
    <tag k="tiger:separated" v="no"/>
    <tag k="tiger:source" v="tiger_import_dch_v0.6_20070809"/>
    <tag k="tiger:tlid" v="128802036"/>
  </way>
  <way id="28751234" version="12" timestamp="2010-06-28T22:53:38Z" uid="239998" user="Sundance" changeset="5102283">
    <nd ref="41476765"/>
    <nd ref="42313688"/>
    <nd ref="316118797"/>
    <nd ref="42313685"/>
    <nd ref="42313676"/>
    <nd ref="41405521"/>
    <nd ref="42313666"/>
    <nd ref="42313660"/>
    <nd ref="41754047"/>
    <nd ref="42313655"/>
    <nd ref="42313649"/>
    <nd ref="42313643"/>
    <nd ref="41446000"/>
    <nd ref="42313637"/>
    <nd ref="42313630"/>
    <nd ref="41197582"/>
    <nd ref="41446015"/>
    <nd ref="41554012"/>
    <nd ref="42313602"/>
    <nd ref="42313591"/>
    <nd ref="41408114"/>
    <nd ref="42313569"/>
    <nd ref="42313561"/>
    <nd ref="42313558"/>
    <nd ref="42313553"/>
    <nd ref="41380690"/>
    <nd ref="42313538"/>
    <nd ref="42313533"/>
    <nd ref="41231042"/>
    <nd ref="256198636"/>
    <nd ref="42313521"/>
    <nd ref="42313511"/>
    <nd ref="42313504"/>
    <nd ref="795237776"/>
    <tag k="highway" v="motorway"/>
    <tag k="is_in" v="Maricopa, AZ"/>
    <tag k="name" v="Red Mountain Freeway"/>
    <tag k="name_1" v="State Highway 202"/>
    <tag k="oneway" v="yes"/>
    <tag k="ref" v="AZ 202"/>
  </way>
  <way id="28751234" version="13" timestamp="2011-03-22T11:30:06Z" uid="207745" user="NE2" changeset="7636170">
    <nd ref="41476765"/>
    <nd ref="42313688"/>
    <nd ref="316118797"/>
    <nd ref="42313685"/>
    <nd ref="42313676"/>
    <nd ref="41405521"/>
    <nd ref="42313666"/>
    <nd ref="42313660"/>
    <nd ref="41754047"/>
    <nd ref="42313655"/>
    <nd ref="42313649"/>
    <nd ref="42313643"/>
    <nd ref="41446000"/>
    <nd ref="42313637"/>
    <nd ref="42313630"/>
    <nd ref="41197582"/>
    <nd ref="41446015"/>
    <nd ref="41554012"/>
    <nd ref="42313602"/>
    <nd ref="42313591"/>
    <nd ref="41408114"/>
    <nd ref="42313569"/>
    <nd ref="42313561"/>
    <nd ref="42313558"/>
    <nd ref="42313553"/>
    <nd ref="41380690"/>
    <nd ref="42313538"/>
    <nd ref="42313533"/>
    <nd ref="41231042"/>
    <nd ref="256198636"/>
    <nd ref="42313521"/>
    <nd ref="42313511"/>
    <nd ref="42313504"/>
    <nd ref="795237776"/>
    <tag k="highway" v="motorway"/>
    <tag k="is_in" v="Maricopa, AZ"/>
    <tag k="name" v="Red Mountain Freeway"/>
    <tag k="oneway" v="yes"/>
    <tag k="ref" v="AZ 202"/>
  </way>
  <way id="28751234" version="14" timestamp="2011-03-27T21:58:15Z" uid="282329" user="compdude" changeset="7691672">
    <nd ref="41476765"/>
    <nd ref="42313688"/>
    <nd ref="316118797"/>
    <nd ref="42313685"/>
    <nd ref="1222387994"/>
    <tag k="highway" v="motorway"/>
    <tag k="is_in" v="Maricopa, AZ"/>
    <tag k="name" v="Red Mountain Freeway"/>
    <tag k="oneway" v="yes"/>
    <tag k="ref" v="AZ 202"/>
  </way>
  <way id="28751234" version="15" timestamp="2011-07-28T10:29:20Z" uid="207745" user="NE2" changeset="8853028">
    <nd ref="41476765"/>
    <nd ref="42313688"/>
    <nd ref="316118797"/>
    <nd ref="42313685"/>
    <nd ref="1222387994"/>
    <tag k="highway" v="motorway"/>
    <tag k="hov" v="lane"/>
    <tag k="is_in" v="Maricopa, AZ"/>
    <tag k="lanes" v="4"/>
    <tag k="name" v="Red Mountain Freeway"/>
    <tag k="note:lanes" v="left lane is hov"/>
    <tag k="oneway" v="yes"/>
    <tag k="ref" v="AZ 202"/>
  </way>
  <way id="28751234" version="16" timestamp="2011-10-14T13:31:59Z" uid="207745" user="NE2" changeset="9555438">
    <nd ref="41476765"/>
    <nd ref="42313688"/>
    <nd ref="316118797"/>
    <nd ref="42313685"/>
    <nd ref="1222387994"/>
    <tag k="bicycle" v="no"/>
    <tag k="highway" v="motorway"/>
    <tag k="hov" v="lane"/>
    <tag k="is_in" v="Maricopa, AZ"/>
    <tag k="lanes" v="4"/>
    <tag k="name" v="Red Mountain Freeway"/>
    <tag k="note:lanes" v="left lane is hov"/>
    <tag k="oneway" v="yes"/>
    <tag k="ref" v="AZ 202"/>
  </way>
  <way id="28751382" version="4" timestamp="2010-04-03T04:04:22Z" uid="20587" user="balrog-kun" changeset="4309442">
    <nd ref="316119371"/>
    <nd ref="42313714"/>
    <nd ref="42313710"/>
    <tag k="bridge" v="yes"/>
    <tag k="created_by" v="Potlatch 0.10f"/>
    <tag k="highway" v="motorway"/>
    <tag k="layer" v="1"/>
    <tag k="name" v="Red Mountain Freeway"/>
    <tag k="name_1" v="202"/>
    <tag k="name_2" v="State Highway 202"/>
    <tag k="ref" v="AZ 202"/>
    <tag k="tiger:cfcc" v="A11"/>
    <tag k="tiger:county" v="Maricopa, AZ"/>
    <tag k="tiger:name_base" v="Red Mountain"/>
    <tag k="tiger:name_base_1" v="202"/>
    <tag k="tiger:name_base_2" v="202"/>
    <tag k="tiger:name_type" v="Fwy"/>
    <tag k="tiger:reviewed" v="no"/>
    <tag k="tiger:separated" v="no"/>
    <tag k="tiger:source" v="tiger_import_dch_v0.6_20070809"/>
    <tag k="tiger:tlid" v="128802036"/>
  </way>
  <way id="28751382" version="5" timestamp="2010-11-11T19:31:18Z" uid="316868" user="LexIgnatov" changeset="6346183">
    <nd ref="316119371"/>
    <nd ref="42313714"/>
    <nd ref="42313710"/>
    <tag k="bridge" v="yes"/>
    <tag k="highway" v="motorway"/>
    <tag k="is_in" v="Maricopa, AZ"/>
    <tag k="layer" v="1"/>
    <tag k="name" v="Red Mountain Freeway"/>
    <tag k="name_1" v="202"/>
    <tag k="name_2" v="State Highway 202"/>
    <tag k="oneway" v="yes"/>
    <tag k="ref" v="AZ 202"/>
    <tag k="tiger:cfcc" v="A11"/>
    <tag k="tiger:county" v="Maricopa, AZ"/>
    <tag k="tiger:name_base" v="Red Mountain"/>
    <tag k="tiger:name_base_1" v="202"/>
    <tag k="tiger:name_base_2" v="202"/>
    <tag k="tiger:name_type" v="Fwy"/>
    <tag k="tiger:reviewed" v="no"/>
    <tag k="tiger:separated" v="no"/>
    <tag k="tiger:source" v="tiger_import_dch_v0.6_20070809"/>
    <tag k="tiger:tlid" v="128802036"/>
  </way>
  <way id="28751382" version="6" timestamp="2011-03-22T11:33:13Z" uid="207745" user="NE2" changeset="7636170">
    <nd ref="316119371"/>
    <nd ref="42313714"/>
    <nd ref="42313710"/>
    <tag k="bridge" v="yes"/>
    <tag k="highway" v="motorway"/>
    <tag k="is_in" v="Maricopa, AZ"/>
    <tag k="layer" v="1"/>
    <tag k="name" v="Red Mountain Freeway"/>
    <tag k="oneway" v="yes"/>
    <tag k="ref" v="AZ 202"/>
    <tag k="tiger:cfcc" v="A11"/>
    <tag k="tiger:county" v="Maricopa, AZ"/>
    <tag k="tiger:name_base" v="Red Mountain"/>
    <tag k="tiger:name_base_1" v="202"/>
    <tag k="tiger:name_base_2" v="202"/>
    <tag k="tiger:name_type" v="Fwy"/>
    <tag k="tiger:reviewed" v="no"/>
    <tag k="tiger:separated" v="no"/>
    <tag k="tiger:source" v="tiger_import_dch_v0.6_20070809"/>
    <tag k="tiger:tlid" v="128802036"/>
  </way>
  <way id="28751382" version="7" timestamp="2011-07-28T10:29:06Z" uid="207745" user="NE2" changeset="8853028">
    <nd ref="316119371"/>
    <nd ref="42313714"/>
    <nd ref="42313710"/>
    <tag k="bridge" v="yes"/>
    <tag k="highway" v="motorway"/>
    <tag k="hov" v="lane"/>
    <tag k="is_in" v="Maricopa, AZ"/>
    <tag k="lanes" v="4"/>
    <tag k="layer" v="1"/>
    <tag k="name" v="Red Mountain Freeway"/>
    <tag k="note:lanes" v="left lane is hov"/>
    <tag k="oneway" v="yes"/>
    <tag k="ref" v="AZ 202"/>
    <tag k="tiger:cfcc" v="A11"/>
    <tag k="tiger:county" v="Maricopa, AZ"/>
    <tag k="tiger:name_base" v="Red Mountain"/>
    <tag k="tiger:name_base_1" v="202"/>
    <tag k="tiger:name_base_2" v="202"/>
    <tag k="tiger:name_type" v="Fwy"/>
    <tag k="tiger:reviewed" v="no"/>
    <tag k="tiger:separated" v="no"/>
    <tag k="tiger:source" v="tiger_import_dch_v0.6_20070809"/>
    <tag k="tiger:tlid" v="128802036"/>
  </way>
  <way id="28751382" version="8" timestamp="2011-10-14T13:31:47Z" uid="207745" user="NE2" changeset="9555438">
    <nd ref="316119371"/>
    <nd ref="42313714"/>
    <nd ref="42313710"/>
    <tag k="bicycle" v="no"/>
    <tag k="bridge" v="yes"/>
    <tag k="highway" v="motorway"/>
    <tag k="hov" v="lane"/>
    <tag k="is_in" v="Maricopa, AZ"/>
    <tag k="lanes" v="4"/>
    <tag k="layer" v="1"/>
    <tag k="name" v="Red Mountain Freeway"/>
    <tag k="note:lanes" v="left lane is hov"/>
    <tag k="oneway" v="yes"/>
    <tag k="ref" v="AZ 202"/>
    <tag k="tiger:cfcc" v="A11"/>
    <tag k="tiger:county" v="Maricopa, AZ"/>
    <tag k="tiger:name_base" v="Red Mountain"/>
    <tag k="tiger:name_base_1" v="202"/>
    <tag k="tiger:name_base_2" v="202"/>
    <tag k="tiger:name_type" v="Fwy"/>
    <tag k="tiger:reviewed" v="no"/>
    <tag k="tiger:separated" v="no"/>
    <tag k="tiger:source" v="tiger_import_dch_v0.6_20070809"/>
    <tag k="tiger:tlid" v="128802036"/>
  </way>
  <way id="28751382" version="9" timestamp="2011-11-19T15:08:22Z" uid="292665" user="Dr Kludge" changeset="9873833">
    <nd ref="316119371"/>
    <nd ref="42313714"/>
    <nd ref="42313710"/>
    <tag k="bicycle" v="no"/>
    <tag k="bridge" v="yes"/>
    <tag k="highway" v="motorway"/>
    <tag k="hov" v="lane"/>
    <tag k="is_in" v="Maricopa, AZ"/>
    <tag k="lanes" v="4"/>
    <tag k="layer" v="1"/>
    <tag k="name" v="Red Mountain Freeway"/>
    <tag k="note:lanes" v="left lane is hov"/>
    <tag k="oneway" v="yes"/>
    <tag k="ref" v="AZ 202"/>
    <tag k="tiger:cfcc" v="A11"/>
    <tag k="tiger:county" v="Maricopa, AZ"/>
    <tag k="tiger:name_base" v="Red Mountain"/>
    <tag k="tiger:name_base_1" v="202"/>
    <tag k="tiger:name_base_2" v="202"/>
    <tag k="tiger:name_type" v="Fwy"/>
    <tag k="tiger:reviewed" v="yes"/>
    <tag k="tiger:separated" v="no"/>
    <tag k="tiger:source" v="tiger_import_dch_v0.6_20070809"/>
    <tag k="tiger:tlid" v="128802036"/>
  </way>
  <way id="28751384" version="3" timestamp="2010-04-03T04:04:22Z" uid="20587" user="balrog-kun" changeset="4309442">
    <nd ref="42313710"/>
    <nd ref="316119408"/>
    <nd ref="42313704"/>
    <nd ref="42313700"/>
    <nd ref="316118199"/>
    <tag k="created_by" v="Potlatch 0.10f"/>
    <tag k="highway" v="motorway"/>
    <tag k="name" v="Red Mountain Freeway"/>
    <tag k="name_1" v="202"/>
    <tag k="name_2" v="State Highway 202"/>
    <tag k="ref" v="AZ 202"/>
    <tag k="tiger:cfcc" v="A11"/>
    <tag k="tiger:county" v="Maricopa, AZ"/>
    <tag k="tiger:name_base" v="Red Mountain"/>
    <tag k="tiger:name_base_1" v="202"/>
    <tag k="tiger:name_base_2" v="202"/>
    <tag k="tiger:name_type" v="Fwy"/>
    <tag k="tiger:reviewed" v="no"/>
    <tag k="tiger:separated" v="no"/>
    <tag k="tiger:source" v="tiger_import_dch_v0.6_20070809"/>
    <tag k="tiger:tlid" v="128802036"/>
  </way>
  <way id="28751384" version="4" timestamp="2010-11-11T19:31:18Z" uid="316868" user="LexIgnatov" changeset="6346183">
    <nd ref="42313710"/>
    <nd ref="316119408"/>
    <nd ref="42313704"/>
    <nd ref="42313700"/>
    <nd ref="316118199"/>
    <tag k="highway" v="motorway"/>
    <tag k="is_in" v="Maricopa, AZ"/>
    <tag k="name" v="Red Mountain Freeway"/>
    <tag k="name_1" v="202"/>
    <tag k="name_2" v="State Highway 202"/>
    <tag k="oneway" v="yes"/>
    <tag k="ref" v="AZ 202"/>
    <tag k="tiger:cfcc" v="A11"/>
    <tag k="tiger:county" v="Maricopa, AZ"/>
    <tag k="tiger:name_base" v="Red Mountain"/>
    <tag k="tiger:name_base_1" v="202"/>
    <tag k="tiger:name_base_2" v="202"/>
    <tag k="tiger:name_type" v="Fwy"/>
    <tag k="tiger:reviewed" v="no"/>
    <tag k="tiger:separated" v="no"/>
    <tag k="tiger:source" v="tiger_import_dch_v0.6_20070809"/>
    <tag k="tiger:tlid" v="128802036"/>
  </way>
  <way id="28751384" version="5" timestamp="2011-03-22T11:31:37Z" uid="207745" user="NE2" changeset="7636170">
    <nd ref="42313710"/>
    <nd ref="316119408"/>
    <nd ref="42313704"/>
    <nd ref="42313700"/>
    <nd ref="316118199"/>
    <tag k="highway" v="motorway"/>
    <tag k="is_in" v="Maricopa, AZ"/>
    <tag k="name" v="Red Mountain Freeway"/>
    <tag k="oneway" v="yes"/>
    <tag k="ref" v="AZ 202"/>
    <tag k="tiger:cfcc" v="A11"/>
    <tag k="tiger:county" v="Maricopa, AZ"/>
    <tag k="tiger:name_base" v="Red Mountain"/>
    <tag k="tiger:name_base_1" v="202"/>
    <tag k="tiger:name_base_2" v="202"/>
    <tag k="tiger:name_type" v="Fwy"/>
    <tag k="tiger:reviewed" v="no"/>
    <tag k="tiger:separated" v="no"/>
    <tag k="tiger:source" v="tiger_import_dch_v0.6_20070809"/>
    <tag k="tiger:tlid" v="128802036"/>
  </way>
  <way id="28751384" version="6" timestamp="2011-07-28T10:29:19Z" uid="207745" user="NE2" changeset="8853028">
    <nd ref="42313710"/>
    <nd ref="316119408"/>
    <nd ref="42313704"/>
    <nd ref="42313700"/>
    <nd ref="316118199"/>
    <tag k="highway" v="motorway"/>
    <tag k="hov" v="lane"/>
    <tag k="is_in" v="Maricopa, AZ"/>
    <tag k="lanes" v="4"/>
    <tag k="name" v="Red Mountain Freeway"/>
    <tag k="note:lanes" v="left lane is hov"/>
    <tag k="oneway" v="yes"/>
    <tag k="ref" v="AZ 202"/>
    <tag k="tiger:cfcc" v="A11"/>
    <tag k="tiger:county" v="Maricopa, AZ"/>
    <tag k="tiger:name_base" v="Red Mountain"/>
    <tag k="tiger:name_base_1" v="202"/>
    <tag k="tiger:name_base_2" v="202"/>
    <tag k="tiger:name_type" v="Fwy"/>
    <tag k="tiger:reviewed" v="no"/>
    <tag k="tiger:separated" v="no"/>
    <tag k="tiger:source" v="tiger_import_dch_v0.6_20070809"/>
    <tag k="tiger:tlid" v="128802036"/>
  </way>
  <way id="28751384" version="7" timestamp="2011-10-14T13:32:00Z" uid="207745" user="NE2" changeset="9555438">
    <nd ref="42313710"/>
    <nd ref="316119408"/>
    <nd ref="42313704"/>
    <nd ref="42313700"/>
    <nd ref="316118199"/>
    <tag k="bicycle" v="no"/>
    <tag k="highway" v="motorway"/>
    <tag k="hov" v="lane"/>
    <tag k="is_in" v="Maricopa, AZ"/>
    <tag k="lanes" v="4"/>
    <tag k="name" v="Red Mountain Freeway"/>
    <tag k="note:lanes" v="left lane is hov"/>
    <tag k="oneway" v="yes"/>
    <tag k="ref" v="AZ 202"/>
    <tag k="tiger:cfcc" v="A11"/>
    <tag k="tiger:county" v="Maricopa, AZ"/>
    <tag k="tiger:name_base" v="Red Mountain"/>
    <tag k="tiger:name_base_1" v="202"/>
    <tag k="tiger:name_base_2" v="202"/>
    <tag k="tiger:name_type" v="Fwy"/>
    <tag k="tiger:reviewed" v="no"/>
    <tag k="tiger:separated" v="no"/>
    <tag k="tiger:source" v="tiger_import_dch_v0.6_20070809"/>
    <tag k="tiger:tlid" v="128802036"/>
  </way>
  <way id="28751384" version="8" timestamp="2011-11-19T15:08:31Z" uid="292665" user="Dr Kludge" changeset="9873833">
    <nd ref="42313710"/>
    <nd ref="316119408"/>
    <nd ref="42313704"/>
    <nd ref="42313700"/>
    <nd ref="316118199"/>
    <tag k="bicycle" v="no"/>
    <tag k="highway" v="motorway"/>
    <tag k="hov" v="lane"/>
    <tag k="is_in" v="Maricopa, AZ"/>
    <tag k="lanes" v="4"/>
    <tag k="name" v="Red Mountain Freeway"/>
    <tag k="note:lanes" v="left lane is hov"/>
    <tag k="oneway" v="yes"/>
    <tag k="ref" v="AZ 202"/>
    <tag k="tiger:cfcc" v="A11"/>
    <tag k="tiger:county" v="Maricopa, AZ"/>
    <tag k="tiger:name_base" v="Red Mountain"/>
    <tag k="tiger:name_base_1" v="202"/>
    <tag k="tiger:name_base_2" v="202"/>
    <tag k="tiger:name_type" v="Fwy"/>
    <tag k="tiger:reviewed" v="yes"/>
    <tag k="tiger:separated" v="no"/>
    <tag k="tiger:source" v="tiger_import_dch_v0.6_20070809"/>
    <tag k="tiger:tlid" v="128802036"/>
  </way>
  <way id="28751399" version="3" timestamp="2010-04-03T04:04:23Z" uid="20587" user="balrog-kun" changeset="4309442">
    <nd ref="255823519"/>
    <nd ref="316119471"/>
    <nd ref="13365844"/>
    <tag k="bridge" v="yes"/>
    <tag k="created_by" v="Potlatch 0.10f"/>
    <tag k="highway" v="motorway"/>
    <tag k="layer" v="1"/>
    <tag k="name" v="202"/>
    <tag k="name_1" v="Red Mountain Freeway"/>
    <tag k="ref" v="AZ 202"/>
    <tag k="tiger:cfcc" v="A11"/>
    <tag k="tiger:county" v="Maricopa, AZ"/>
    <tag k="tiger:name_base" v="202"/>
    <tag k="tiger:name_base_1" v="Red Mountain"/>
    <tag k="tiger:name_type_1" v="Fwy"/>
    <tag k="tiger:reviewed" v="no"/>
    <tag k="tiger:separated" v="no"/>
    <tag k="tiger:source" v="tiger_import_dch_v0.6_20070809"/>
    <tag k="tiger:tlid" v="128838507:128789703:128789704:128789689:128875678:128875679:128789652:128789622:128789664:128789665:128789672:128789697:128789698:128839394:128825348:128813913:128813916"/>
  </way>
  <way id="28751399" version="4" timestamp="2010-11-11T19:31:17Z" uid="316868" user="LexIgnatov" changeset="6346183">
    <nd ref="255823519"/>
    <nd ref="316119471"/>
    <nd ref="13365844"/>
    <tag k="bridge" v="yes"/>
    <tag k="highway" v="motorway"/>
    <tag k="is_in" v="Maricopa, AZ"/>
    <tag k="layer" v="1"/>
    <tag k="name" v="Red Mountain Freeway"/>
    <tag k="name_1" v="Red Mountain Freeway"/>
    <tag k="name_2" v="State Highway 202"/>
    <tag k="oneway" v="yes"/>
    <tag k="ref" v="AZ 202"/>
    <tag k="tiger:cfcc" v="A11"/>
    <tag k="tiger:county" v="Maricopa, AZ"/>
    <tag k="tiger:name_base" v="202"/>
    <tag k="tiger:name_base_1" v="Red Mountain"/>
    <tag k="tiger:name_type_1" v="Fwy"/>
    <tag k="tiger:reviewed" v="no"/>
    <tag k="tiger:separated" v="no"/>
    <tag k="tiger:source" v="tiger_import_dch_v0.6_20070809"/>
    <tag k="tiger:tlid" v="128838507:128789703:128789704:128789689:128875678:128875679:128789652:128789622:128789664:128789665:128789672:128789697:128789698:128839394:128825348:128813913:128813916"/>
  </way>
  <way id="28751399" version="5" timestamp="2011-03-22T11:33:02Z" uid="207745" user="NE2" changeset="7636170">
    <nd ref="255823519"/>
    <nd ref="316119471"/>
    <nd ref="13365844"/>
    <tag k="bridge" v="yes"/>
    <tag k="highway" v="motorway"/>
    <tag k="is_in" v="Maricopa, AZ"/>
    <tag k="layer" v="1"/>
    <tag k="name" v="Red Mountain Freeway"/>
    <tag k="oneway" v="yes"/>
    <tag k="ref" v="AZ 202"/>
    <tag k="tiger:cfcc" v="A11"/>
    <tag k="tiger:county" v="Maricopa, AZ"/>
    <tag k="tiger:name_base" v="202"/>
    <tag k="tiger:name_base_1" v="Red Mountain"/>
    <tag k="tiger:name_type_1" v="Fwy"/>
    <tag k="tiger:reviewed" v="no"/>
    <tag k="tiger:separated" v="no"/>
    <tag k="tiger:source" v="tiger_import_dch_v0.6_20070809"/>
    <tag k="tiger:tlid" v="128838507:128789703:128789704:128789689:128875678:128875679:128789652:128789622:128789664:128789665:128789672:128789697:128789698:128839394:128825348:128813913:128813916"/>
  </way>
  <way id="28751399" version="6" timestamp="2011-07-28T10:29:02Z" uid="207745" user="NE2" changeset="8853028">
    <nd ref="255823519"/>
    <nd ref="316119471"/>
    <nd ref="13365844"/>
    <tag k="bridge" v="yes"/>
    <tag k="highway" v="motorway"/>
    <tag k="hov" v="lane"/>
    <tag k="is_in" v="Maricopa, AZ"/>
    <tag k="lanes" v="5"/>
    <tag k="layer" v="1"/>
    <tag k="name" v="Red Mountain Freeway"/>
    <tag k="note:lanes" v="left lane is hov"/>
    <tag k="oneway" v="yes"/>
    <tag k="ref" v="AZ 202"/>
    <tag k="tiger:cfcc" v="A11"/>
    <tag k="tiger:county" v="Maricopa, AZ"/>
    <tag k="tiger:name_base" v="202"/>
    <tag k="tiger:name_base_1" v="Red Mountain"/>
    <tag k="tiger:name_type_1" v="Fwy"/>
    <tag k="tiger:reviewed" v="no"/>
    <tag k="tiger:separated" v="no"/>
    <tag k="tiger:source" v="tiger_import_dch_v0.6_20070809"/>
    <tag k="tiger:tlid" v="128838507:128789703:128789704:128789689:128875678:128875679:128789652:128789622:128789664:128789665:128789672:128789697:128789698:128839394:128825348:128813913:128813916"/>
  </way>
  <way id="28751399" version="7" timestamp="2011-10-14T13:31:44Z" uid="207745" user="NE2" changeset="9555438">
    <nd ref="255823519"/>
    <nd ref="316119471"/>
    <nd ref="13365844"/>
    <tag k="bicycle" v="no"/>
    <tag k="bridge" v="yes"/>
    <tag k="highway" v="motorway"/>
    <tag k="hov" v="lane"/>
    <tag k="is_in" v="Maricopa, AZ"/>
    <tag k="lanes" v="5"/>
    <tag k="layer" v="1"/>
    <tag k="name" v="Red Mountain Freeway"/>
    <tag k="note:lanes" v="left lane is hov"/>
    <tag k="oneway" v="yes"/>
    <tag k="ref" v="AZ 202"/>
    <tag k="tiger:cfcc" v="A11"/>
    <tag k="tiger:county" v="Maricopa, AZ"/>
    <tag k="tiger:name_base" v="202"/>
    <tag k="tiger:name_base_1" v="Red Mountain"/>
    <tag k="tiger:name_type_1" v="Fwy"/>
    <tag k="tiger:reviewed" v="no"/>
    <tag k="tiger:separated" v="no"/>
    <tag k="tiger:source" v="tiger_import_dch_v0.6_20070809"/>
    <tag k="tiger:tlid" v="128838507:128789703:128789704:128789689:128875678:128875679:128789652:128789622:128789664:128789665:128789672:128789697:128789698:128839394:128825348:128813913:128813916"/>
  </way>
  <way id="28751399" version="8" timestamp="2011-11-19T15:08:23Z" uid="292665" user="Dr Kludge" changeset="9873833">
    <nd ref="255823519"/>
    <nd ref="316119471"/>
    <nd ref="13365844"/>
    <tag k="bicycle" v="no"/>
    <tag k="bridge" v="yes"/>
    <tag k="highway" v="motorway"/>
    <tag k="hov" v="lane"/>
    <tag k="is_in" v="Maricopa, AZ"/>
    <tag k="lanes" v="5"/>
    <tag k="layer" v="1"/>
    <tag k="name" v="Red Mountain Freeway"/>
    <tag k="note:lanes" v="left lane is hov"/>
    <tag k="oneway" v="yes"/>
    <tag k="ref" v="AZ 202"/>
    <tag k="tiger:cfcc" v="A11"/>
    <tag k="tiger:county" v="Maricopa, AZ"/>
    <tag k="tiger:name_base" v="202"/>
    <tag k="tiger:name_base_1" v="Red Mountain"/>
    <tag k="tiger:name_type_1" v="Fwy"/>
    <tag k="tiger:reviewed" v="yes"/>
    <tag k="tiger:separated" v="no"/>
    <tag k="tiger:source" v="tiger_import_dch_v0.6_20070809"/>
    <tag k="tiger:tlid" v="128838507:128789703:128789704:128789689:128875678:128875679:128789652:128789622:128789664:128789665:128789672:128789697:128789698:128839394:128825348:128813913:128813916"/>
  </way>
  <way id="28751401" version="7" timestamp="2010-04-03T04:04:23Z" uid="20587" user="balrog-kun" changeset="4309442">
    <nd ref="13365844"/>
    <nd ref="316119461"/>
    <nd ref="316119714"/>
    <nd ref="255823520"/>
    <nd ref="156226397"/>
    <nd ref="156226409"/>
    <nd ref="255822785"/>
    <nd ref="255822786"/>
    <nd ref="316119765"/>
    <nd ref="13365843"/>
    <nd ref="255936983"/>
    <nd ref="255818872"/>
    <tag k="highway" v="motorway"/>
    <tag k="is_in" v="Maricopa, AZ"/>
    <tag k="name" v="Red Mountain Freeway"/>
    <tag k="name_1" v="Red Mountain Freeway"/>
    <tag k="name_2" v="State Highway 202"/>
    <tag k="oneway" v="yes"/>
    <tag k="ref" v="AZ 202"/>
  </way>
  <way id="28751401" version="8" timestamp="2011-03-22T11:31:29Z" uid="207745" user="NE2" changeset="7636170">
    <nd ref="13365844"/>
    <nd ref="316119461"/>
    <nd ref="316119714"/>
    <nd ref="255823520"/>
    <nd ref="156226397"/>
    <nd ref="156226409"/>
    <nd ref="255822785"/>
    <nd ref="255822786"/>
    <nd ref="316119765"/>
    <nd ref="13365843"/>
    <nd ref="255936983"/>
    <nd ref="255818872"/>
    <tag k="highway" v="motorway"/>
    <tag k="is_in" v="Maricopa, AZ"/>
    <tag k="name" v="Red Mountain Freeway"/>
    <tag k="oneway" v="yes"/>
    <tag k="ref" v="AZ 202"/>
  </way>
  <way id="28751401" version="9" timestamp="2011-07-28T10:29:24Z" uid="207745" user="NE2" changeset="8853028">
    <nd ref="13365844"/>
    <nd ref="316119461"/>
    <nd ref="316119714"/>
    <nd ref="255823520"/>
    <nd ref="156226397"/>
    <nd ref="156226409"/>
    <nd ref="255822785"/>
    <tag k="highway" v="motorway"/>
    <tag k="hov" v="lane"/>
    <tag k="is_in" v="Maricopa, AZ"/>
    <tag k="lanes" v="5"/>
    <tag k="name" v="Red Mountain Freeway"/>
    <tag k="note:lanes" v="left lane is hov"/>
    <tag k="oneway" v="yes"/>
    <tag k="ref" v="AZ 202"/>
  </way>
  <way id="28751401" version="10" timestamp="2011-10-14T13:32:06Z" uid="207745" user="NE2" changeset="9555438">
    <nd ref="13365844"/>
    <nd ref="316119461"/>
    <nd ref="316119714"/>
    <nd ref="255823520"/>
    <nd ref="156226397"/>
    <nd ref="156226409"/>
    <nd ref="255822785"/>
    <tag k="bicycle" v="no"/>
    <tag k="highway" v="motorway"/>
    <tag k="hov" v="lane"/>
    <tag k="is_in" v="Maricopa, AZ"/>
    <tag k="lanes" v="5"/>
    <tag k="name" v="Red Mountain Freeway"/>
    <tag k="note:lanes" v="left lane is hov"/>
    <tag k="oneway" v="yes"/>
    <tag k="ref" v="AZ 202"/>
  </way>
  <way id="28751401" version="11" timestamp="2012-02-03T22:46:32Z" uid="239998" user="Sundance" changeset="10580012">
    <nd ref="13365844"/>
    <nd ref="316119461"/>
    <nd ref="1617121714"/>
    <nd ref="316119714"/>
    <nd ref="255823520"/>
    <nd ref="1617121783"/>
    <nd ref="156226397"/>
    <nd ref="1617121732"/>
    <nd ref="156226409"/>
    <nd ref="255822785"/>
    <tag k="bicycle" v="no"/>
    <tag k="highway" v="motorway"/>
    <tag k="hov" v="lane"/>
    <tag k="is_in" v="Maricopa, AZ"/>
    <tag k="lanes" v="5"/>
    <tag k="name" v="Red Mountain Freeway"/>
    <tag k="note:lanes" v="left lane is hov"/>
    <tag k="oneway" v="yes"/>
    <tag k="ref" v="AZ 202"/>
  </way>
  <way id="28751445" version="5" timestamp="2010-04-03T04:04:23Z" uid="20587" user="balrog-kun" changeset="4309442">
    <nd ref="316119715"/>
    <nd ref="41476783"/>
    <nd ref="316119736"/>
    <nd ref="41709969"/>
    <nd ref="41709971"/>
    <nd ref="41709973"/>
    <nd ref="41709977"/>
    <nd ref="41709979"/>
    <nd ref="41709988"/>
    <nd ref="330699444"/>
    <nd ref="255823718"/>
    <nd ref="330699578"/>
    <nd ref="41709996"/>
    <nd ref="41709998"/>
    <nd ref="41710000"/>
    <nd ref="41576900"/>
    <nd ref="41710005"/>
    <nd ref="41710007"/>
    <nd ref="41710011"/>
    <nd ref="41710014"/>
    <nd ref="41710016"/>
    <nd ref="41710019"/>
    <nd ref="41710022"/>
    <nd ref="41414016"/>
    <nd ref="41710025"/>
    <tag k="created_by" v="Potlatch 0.10f"/>
    <tag k="highway" v="secondary"/>
    <tag k="name" v="North Priest Drive"/>
    <tag k="tiger:cfcc" v="A41"/>
    <tag k="tiger:county" v="Maricopa, AZ"/>
    <tag k="tiger:name_base" v="Priest"/>
    <tag k="tiger:name_direction_prefix" v="N"/>
    <tag k="tiger:name_type" v="Dr"/>
    <tag k="tiger:reviewed" v="no"/>
    <tag k="tiger:separated" v="no"/>
    <tag k="tiger:source" v="tiger_import_dch_v0.6_20070809"/>
    <tag k="tiger:tlid" v="128357049:128780354:128780350:128780351:128825801:128225503:128266836:128356906"/>
    <tag k="tiger:zip_left" v="85281"/>
    <tag k="tiger:zip_right" v="85281"/>
  </way>
  <way id="28751445" version="6" timestamp="2011-10-01T18:15:36Z" uid="292665" user="Dr Kludge" changeset="9444639">
    <nd ref="316119715"/>
    <nd ref="41476783"/>
    <nd ref="316119736"/>
    <nd ref="41709969"/>
    <nd ref="41709971"/>
    <nd ref="41709973"/>
    <nd ref="41709977"/>
    <nd ref="41709979"/>
    <nd ref="41709988"/>
    <nd ref="330699444"/>
    <nd ref="255823718"/>
    <nd ref="330699578"/>
    <nd ref="41709996"/>
    <nd ref="41709998"/>
    <nd ref="41710000"/>
    <nd ref="41576900"/>
    <nd ref="41710005"/>
    <nd ref="41710007"/>
    <nd ref="41710011"/>
    <nd ref="41710014"/>
    <nd ref="41710016"/>
    <nd ref="41710019"/>
    <nd ref="41710022"/>
    <nd ref="41414016"/>
    <nd ref="41710025"/>
    <tag k="highway" v="secondary"/>
    <tag k="name" v="North Priest Drive"/>
    <tag k="tiger:cfcc" v="A41"/>
    <tag k="tiger:county" v="Maricopa, AZ"/>
    <tag k="tiger:name_base" v="Priest"/>
    <tag k="tiger:name_direction_prefix" v="N"/>
    <tag k="tiger:name_type" v="Dr"/>
    <tag k="tiger:reviewed" v="no"/>
    <tag k="tiger:separated" v="no"/>
    <tag k="tiger:source" v="tiger_import_dch_v0.6_20070809"/>
    <tag k="tiger:tlid" v="128357049:128780354:128780350:128780351:128825801:128225503:128266836:128356906"/>
    <tag k="tiger:zip_left" v="85281"/>
    <tag k="tiger:zip_right" v="85281"/>
  </way>
  <way id="28751445" version="7" timestamp="2011-11-11T06:11:13Z" uid="292665" user="Dr Kludge" changeset="9793991">
    <nd ref="316119715"/>
    <nd ref="41476783"/>
    <nd ref="316119736"/>
    <nd ref="41709969"/>
    <nd ref="41709971"/>
    <nd ref="41709973"/>
    <nd ref="41709977"/>
    <nd ref="41709979"/>
    <nd ref="41709988"/>
    <nd ref="330699444"/>
    <nd ref="255823718"/>
    <nd ref="1498066419"/>
    <nd ref="330699578"/>
    <nd ref="41709996"/>
    <nd ref="41709998"/>
    <nd ref="41710000"/>
    <nd ref="41576900"/>
    <nd ref="41710005"/>
    <nd ref="41710007"/>
    <nd ref="41710011"/>
    <nd ref="41710014"/>
    <nd ref="41710016"/>
    <nd ref="41710019"/>
    <nd ref="41710022"/>
    <nd ref="41414016"/>
    <nd ref="41710025"/>
    <tag k="highway" v="secondary"/>
    <tag k="name" v="North Priest Drive"/>
    <tag k="tiger:cfcc" v="A41"/>
    <tag k="tiger:county" v="Maricopa, AZ"/>
    <tag k="tiger:name_base" v="Priest"/>
    <tag k="tiger:name_direction_prefix" v="N"/>
    <tag k="tiger:name_type" v="Dr"/>
    <tag k="tiger:reviewed" v="no"/>
    <tag k="tiger:separated" v="no"/>
    <tag k="tiger:source" v="tiger_import_dch_v0.6_20070809"/>
    <tag k="tiger:tlid" v="128357049:128780354:128780350:128780351:128825801:128225503:128266836:128356906"/>
    <tag k="tiger:zip_left" v="85281"/>
    <tag k="tiger:zip_right" v="85281"/>
  </way>
  <way id="28751445" version="8" timestamp="2011-11-11T18:26:05Z" uid="292665" user="Dr Kludge" changeset="9798798">
    <nd ref="316119715"/>
    <nd ref="41476783"/>
    <nd ref="316119736"/>
    <nd ref="41709969"/>
    <nd ref="41709971"/>
    <nd ref="41709973"/>
    <nd ref="41709977"/>
    <nd ref="41709979"/>
    <nd ref="41709988"/>
    <nd ref="330699444"/>
    <nd ref="255823718"/>
    <nd ref="1498066419"/>
    <nd ref="330699578"/>
    <nd ref="41709996"/>
    <nd ref="41709998"/>
    <nd ref="41710000"/>
    <nd ref="41576900"/>
    <nd ref="41710005"/>
    <nd ref="41710007"/>
    <nd ref="1499091451"/>
    <nd ref="41710011"/>
    <nd ref="41710014"/>
    <nd ref="1499091587"/>
    <nd ref="41710016"/>
    <nd ref="41710019"/>
    <nd ref="41710022"/>
    <nd ref="41414016"/>
    <nd ref="41710025"/>
    <tag k="highway" v="secondary"/>
    <tag k="name" v="North Priest Drive"/>
    <tag k="tiger:cfcc" v="A41"/>
    <tag k="tiger:county" v="Maricopa, AZ"/>
    <tag k="tiger:name_base" v="Priest"/>
    <tag k="tiger:name_direction_prefix" v="N"/>
    <tag k="tiger:name_type" v="Dr"/>
    <tag k="tiger:reviewed" v="no"/>
    <tag k="tiger:separated" v="no"/>
    <tag k="tiger:source" v="tiger_import_dch_v0.6_20070809"/>
    <tag k="tiger:tlid" v="128357049:128780354:128780350:128780351:128825801:128225503:128266836:128356906"/>
    <tag k="tiger:zip_left" v="85281"/>
    <tag k="tiger:zip_right" v="85281"/>
  </way>
  <way id="28751445" version="9" timestamp="2011-11-12T00:26:13Z" uid="292665" user="Dr Kludge" changeset="9801226">
    <nd ref="316119715"/>
    <nd ref="41476783"/>
    <nd ref="316119736"/>
    <nd ref="41709969"/>
    <nd ref="41709971"/>
    <nd ref="41709973"/>
    <nd ref="41709977"/>
    <nd ref="41709979"/>
    <nd ref="1499493491"/>
    <nd ref="41709988"/>
    <nd ref="330699444"/>
    <nd ref="255823718"/>
    <nd ref="1498066419"/>
    <nd ref="330699578"/>
    <nd ref="41709996"/>
    <nd ref="41709998"/>
    <nd ref="41710000"/>
    <nd ref="41576900"/>
    <nd ref="41710005"/>
    <nd ref="41710007"/>
    <nd ref="1499091451"/>
    <nd ref="41710011"/>
    <nd ref="41710014"/>
    <nd ref="1499091587"/>
    <nd ref="41710016"/>
    <nd ref="41710019"/>
    <nd ref="41710022"/>
    <nd ref="41414016"/>
    <nd ref="41710025"/>
    <tag k="highway" v="secondary"/>
    <tag k="name" v="North Priest Drive"/>
    <tag k="tiger:cfcc" v="A41"/>
    <tag k="tiger:county" v="Maricopa, AZ"/>
    <tag k="tiger:name_base" v="Priest"/>
    <tag k="tiger:name_direction_prefix" v="N"/>
    <tag k="tiger:name_type" v="Dr"/>
    <tag k="tiger:reviewed" v="no"/>
    <tag k="tiger:separated" v="no"/>
    <tag k="tiger:source" v="tiger_import_dch_v0.6_20070809"/>
    <tag k="tiger:tlid" v="128357049:128780354:128780350:128780351:128825801:128225503:128266836:128356906"/>
    <tag k="tiger:zip_left" v="85281"/>
    <tag k="tiger:zip_right" v="85281"/>
  </way>
  <way id="28751445" version="10" timestamp="2011-11-14T01:57:24Z" uid="292665" user="Dr Kludge" changeset="9821120">
    <nd ref="316119715"/>
    <nd ref="41476783"/>
    <nd ref="316119736"/>
    <nd ref="41709969"/>
    <nd ref="41709971"/>
    <nd ref="41709973"/>
    <nd ref="41709977"/>
    <nd ref="41709979"/>
    <nd ref="1499493491"/>
    <nd ref="41709988"/>
    <nd ref="330699444"/>
    <nd ref="255823718"/>
    <nd ref="1498066419"/>
    <nd ref="330699578"/>
    <nd ref="41709996"/>
    <nd ref="1502376223"/>
    <nd ref="41709998"/>
    <nd ref="1502376293"/>
    <nd ref="41710000"/>
    <nd ref="41576900"/>
    <nd ref="41710005"/>
    <nd ref="41710007"/>
    <nd ref="1499091451"/>
    <nd ref="41710011"/>
    <nd ref="41710014"/>
    <nd ref="1499091587"/>
    <nd ref="41710016"/>
    <nd ref="41710019"/>
    <nd ref="41710022"/>
    <nd ref="41414016"/>
    <nd ref="41710025"/>
    <tag k="highway" v="secondary"/>
    <tag k="name" v="North Priest Drive"/>
    <tag k="tiger:cfcc" v="A41"/>
    <tag k="tiger:county" v="Maricopa, AZ"/>
    <tag k="tiger:name_base" v="Priest"/>
    <tag k="tiger:name_direction_prefix" v="N"/>
    <tag k="tiger:name_type" v="Dr"/>
    <tag k="tiger:reviewed" v="no"/>
    <tag k="tiger:separated" v="no"/>
    <tag k="tiger:source" v="tiger_import_dch_v0.6_20070809"/>
    <tag k="tiger:tlid" v="128357049:128780354:128780350:128780351:128825801:128225503:128266836:128356906"/>
    <tag k="tiger:zip_left" v="85281"/>
    <tag k="tiger:zip_right" v="85281"/>
  </way>
  <way id="28751445" version="11" timestamp="2011-11-16T02:37:51Z" uid="292665" user="Dr Kludge" changeset="9840876">
    <nd ref="316119715"/>
    <nd ref="41476783"/>
    <nd ref="316119736"/>
    <nd ref="41709969"/>
    <nd ref="41709971"/>
    <nd ref="41709973"/>
    <nd ref="41709977"/>
    <nd ref="41709979"/>
    <nd ref="1504649781"/>
    <nd ref="1499493491"/>
    <nd ref="41709988"/>
    <nd ref="330699444"/>
    <nd ref="255823718"/>
    <nd ref="1498066419"/>
    <nd ref="330699578"/>
    <nd ref="41709996"/>
    <nd ref="1502376223"/>
    <nd ref="41709998"/>
    <nd ref="1502376293"/>
    <nd ref="41710000"/>
    <nd ref="41576900"/>
    <nd ref="41710005"/>
    <nd ref="41710007"/>
    <nd ref="1499091451"/>
    <nd ref="41710011"/>
    <nd ref="41710014"/>
    <nd ref="1499091587"/>
    <nd ref="41710016"/>
    <nd ref="41710019"/>
    <nd ref="41710022"/>
    <nd ref="41414016"/>
    <nd ref="41710025"/>
    <tag k="highway" v="secondary"/>
    <tag k="name" v="North Priest Drive"/>
    <tag k="tiger:cfcc" v="A41"/>
    <tag k="tiger:county" v="Maricopa, AZ"/>
    <tag k="tiger:name_base" v="Priest"/>
    <tag k="tiger:name_direction_prefix" v="N"/>
    <tag k="tiger:name_type" v="Dr"/>
    <tag k="tiger:reviewed" v="no"/>
    <tag k="tiger:separated" v="no"/>
    <tag k="tiger:source" v="tiger_import_dch_v0.6_20070809"/>
    <tag k="tiger:tlid" v="128357049:128780354:128780350:128780351:128825801:128225503:128266836:128356906"/>
    <tag k="tiger:zip_left" v="85281"/>
    <tag k="tiger:zip_right" v="85281"/>
  </way>
  <way id="28751445" version="12" timestamp="2011-11-19T02:21:32Z" uid="292665" user="Dr Kludge" changeset="9869659">
    <nd ref="41709969"/>
    <nd ref="316119736"/>
    <nd ref="1507966904"/>
    <nd ref="41476783"/>
    <nd ref="316119715"/>
    <tag k="highway" v="secondary"/>
    <tag k="name" v="North Priest Drive"/>
    <tag k="oneway" v="yes"/>
    <tag k="tiger:cfcc" v="A41"/>
    <tag k="tiger:county" v="Maricopa, AZ"/>
    <tag k="tiger:name_base" v="Priest"/>
    <tag k="tiger:name_direction_prefix" v="N"/>
    <tag k="tiger:name_type" v="Dr"/>
    <tag k="tiger:reviewed" v="yes"/>
    <tag k="tiger:separated" v="no"/>
    <tag k="tiger:source" v="tiger_import_dch_v0.6_20070809"/>
    <tag k="tiger:tlid" v="128357049:128780354:128780350:128780351:128825801:128225503:128266836:128356906"/>
    <tag k="tiger:zip_left" v="85281"/>
    <tag k="tiger:zip_right" v="85281"/>
  </way>
  <way id="28751446" version="3" timestamp="2010-04-03T04:04:23Z" uid="20587" user="balrog-kun" changeset="4309442">
    <nd ref="316119716"/>
    <nd ref="316119715"/>
    <tag k="bridge" v="yes"/>
    <tag k="created_by" v="Potlatch 0.10f"/>
    <tag k="highway" v="secondary"/>
    <tag k="layer" v="1"/>
    <tag k="name" v="North Priest Drive"/>
    <tag k="tiger:cfcc" v="A41"/>
    <tag k="tiger:county" v="Maricopa, AZ"/>
    <tag k="tiger:name_base" v="Priest"/>
    <tag k="tiger:name_direction_prefix" v="N"/>
    <tag k="tiger:name_type" v="Dr"/>
    <tag k="tiger:reviewed" v="no"/>
    <tag k="tiger:separated" v="no"/>
    <tag k="tiger:source" v="tiger_import_dch_v0.6_20070809"/>
    <tag k="tiger:tlid" v="128357049:128780354:128780350:128780351:128825801:128225503:128266836:128356906"/>
    <tag k="tiger:zip_left" v="85281"/>
    <tag k="tiger:zip_right" v="85281"/>
  </way>
  <way id="28751446" version="4" timestamp="2011-10-01T18:15:36Z" uid="292665" user="Dr Kludge" changeset="9444639">
    <nd ref="316119716"/>
    <nd ref="316119715"/>
    <tag k="bridge" v="yes"/>
    <tag k="highway" v="secondary"/>
    <tag k="layer" v="1"/>
    <tag k="name" v="North Priest Drive"/>
    <tag k="tiger:cfcc" v="A41"/>
    <tag k="tiger:county" v="Maricopa, AZ"/>
    <tag k="tiger:name_base" v="Priest"/>
    <tag k="tiger:name_direction_prefix" v="N"/>
    <tag k="tiger:name_type" v="Dr"/>
    <tag k="tiger:reviewed" v="no"/>
    <tag k="tiger:separated" v="no"/>
    <tag k="tiger:source" v="tiger_import_dch_v0.6_20070809"/>
    <tag k="tiger:tlid" v="128357049:128780354:128780350:128780351:128825801:128225503:128266836:128356906"/>
    <tag k="tiger:zip_left" v="85281"/>
    <tag k="tiger:zip_right" v="85281"/>
  </way>
  <way id="28751446" version="5" timestamp="2011-11-19T04:47:55Z" uid="292665" user="Dr Kludge" changeset="9870138">
    <nd ref="316119715"/>
    <nd ref="316119716"/>
    <tag k="bridge" v="yes"/>
    <tag k="highway" v="secondary"/>
    <tag k="layer" v="1"/>
    <tag k="name" v="North Priest Drive"/>
    <tag k="oneway" v="yes"/>
    <tag k="tiger:cfcc" v="A41"/>
    <tag k="tiger:county" v="Maricopa, AZ"/>
    <tag k="tiger:name_base" v="Priest"/>
    <tag k="tiger:name_direction_prefix" v="N"/>
    <tag k="tiger:name_type" v="Dr"/>
    <tag k="tiger:reviewed" v="no"/>
    <tag k="tiger:separated" v="no"/>
    <tag k="tiger:source" v="tiger_import_dch_v0.6_20070809"/>
    <tag k="tiger:tlid" v="128357049:128780354:128780350:128780351:128825801:128225503:128266836:128356906"/>
    <tag k="tiger:zip_left" v="85281"/>
    <tag k="tiger:zip_right" v="85281"/>
  </way>
  <way id="28751454" version="4" timestamp="2010-04-03T04:04:24Z" uid="20587" user="balrog-kun" changeset="4309442">
    <nd ref="316119766"/>
    <nd ref="255929787"/>
    <tag k="bridge" v="yes"/>
    <tag k="created_by" v="Potlatch 0.10f"/>
    <tag k="highway" v="tertiary"/>
    <tag k="layer" v="1"/>
    <tag k="name" v="West Center Parkway"/>
    <tag k="tiger:cfcc" v="A41"/>
    <tag k="tiger:county" v="Maricopa, AZ"/>
    <tag k="tiger:name_base" v="Center"/>
    <tag k="tiger:name_direction_prefix" v="W"/>
    <tag k="tiger:name_type" v="Pky"/>
    <tag k="tiger:reviewed" v="no"/>
    <tag k="tiger:separated" v="no"/>
    <tag k="tiger:source" v="tiger_import_dch_v0.6_20070809"/>
    <tag k="tiger:tlid" v="128775896; 128225509"/>
  </way>
  <way id="28751454" version="5" timestamp="2011-11-10T05:54:56Z" uid="292665" user="Dr Kludge" changeset="9786490">
    <nd ref="316119766"/>
    <nd ref="255929787"/>
    <tag k="bridge" v="yes"/>
    <tag k="highway" v="tertiary"/>
    <tag k="layer" v="1"/>
    <tag k="name" v="West Center Parkway"/>
    <tag k="tiger:cfcc" v="A41"/>
    <tag k="tiger:county" v="Maricopa, AZ"/>
    <tag k="tiger:name_base" v="Center"/>
    <tag k="tiger:name_direction_prefix" v="W"/>
    <tag k="tiger:name_type" v="Pky"/>
    <tag k="tiger:reviewed" v="no"/>
    <tag k="tiger:separated" v="no"/>
    <tag k="tiger:source" v="tiger_import_dch_v0.6_20070809"/>
    <tag k="tiger:tlid" v="128775896; 128225509"/>
  </way>
  <way id="28751454" version="6" timestamp="2011-11-19T15:11:24Z" uid="292665" user="Dr Kludge" changeset="9873833">
    <nd ref="316119766"/>
    <nd ref="255929787"/>
    <tag k="bridge" v="yes"/>
    <tag k="highway" v="tertiary"/>
    <tag k="layer" v="1"/>
    <tag k="name" v="West Center Parkway"/>
    <tag k="tiger:cfcc" v="A41"/>
    <tag k="tiger:county" v="Maricopa, AZ"/>
    <tag k="tiger:name_base" v="Center"/>
    <tag k="tiger:name_direction_prefix" v="W"/>
    <tag k="tiger:name_type" v="Pky"/>
    <tag k="tiger:reviewed" v="yes"/>
    <tag k="tiger:separated" v="no"/>
    <tag k="tiger:source" v="tiger_import_dch_v0.6_20070809"/>
    <tag k="tiger:tlid" v="128775896; 128225509"/>
  </way>
  <way id="28751456" version="4" timestamp="2010-04-03T04:04:24Z" uid="20587" user="balrog-kun" changeset="4309442">
    <nd ref="255929787"/>
    <nd ref="255936359"/>
    <nd ref="255929788"/>
    <tag k="created_by" v="Potlatch 0.10f"/>
    <tag k="highway" v="tertiary"/>
    <tag k="layer" v="1"/>
    <tag k="name" v="West Center Parkway"/>
    <tag k="tiger:cfcc" v="A41"/>
    <tag k="tiger:county" v="Maricopa, AZ"/>
    <tag k="tiger:name_base" v="Center"/>
    <tag k="tiger:name_direction_prefix" v="W"/>
    <tag k="tiger:name_type" v="Pky"/>
    <tag k="tiger:reviewed" v="no"/>
    <tag k="tiger:separated" v="no"/>
    <tag k="tiger:source" v="tiger_import_dch_v0.6_20070809"/>
    <tag k="tiger:tlid" v="128775896; 128225509"/>
  </way>
  <way id="28751456" version="5" timestamp="2011-11-10T05:54:56Z" uid="292665" user="Dr Kludge" changeset="9786490">
    <nd ref="255929787"/>
    <nd ref="255936359"/>
    <nd ref="255929788"/>
    <tag k="highway" v="tertiary"/>
    <tag k="layer" v="1"/>
    <tag k="name" v="West Center Parkway"/>
    <tag k="tiger:cfcc" v="A41"/>
    <tag k="tiger:county" v="Maricopa, AZ"/>
    <tag k="tiger:name_base" v="Center"/>
    <tag k="tiger:name_direction_prefix" v="W"/>
    <tag k="tiger:name_type" v="Pky"/>
    <tag k="tiger:reviewed" v="no"/>
    <tag k="tiger:separated" v="no"/>
    <tag k="tiger:source" v="tiger_import_dch_v0.6_20070809"/>
    <tag k="tiger:tlid" v="128775896; 128225509"/>
  </way>
  <way id="28751456" version="6" timestamp="2011-11-19T15:11:26Z" uid="292665" user="Dr Kludge" changeset="9873833">
    <nd ref="255929787"/>
    <nd ref="255936359"/>
    <nd ref="255929788"/>
    <tag k="highway" v="tertiary"/>
    <tag k="layer" v="1"/>
    <tag k="name" v="West Center Parkway"/>
    <tag k="tiger:cfcc" v="A41"/>
    <tag k="tiger:county" v="Maricopa, AZ"/>
    <tag k="tiger:name_base" v="Center"/>
    <tag k="tiger:name_direction_prefix" v="W"/>
    <tag k="tiger:name_type" v="Pky"/>
    <tag k="tiger:reviewed" v="yes"/>
    <tag k="tiger:separated" v="no"/>
    <tag k="tiger:source" v="tiger_import_dch_v0.6_20070809"/>
    <tag k="tiger:tlid" v="128775896; 128225509"/>
  </way>
  <way id="28751481" version="5" timestamp="2010-04-03T04:04:24Z" uid="20587" user="balrog-kun" changeset="4309442">
    <nd ref="255818872"/>
    <nd ref="255937066"/>
    <nd ref="255818873"/>
    <tag k="bridge" v="yes"/>
    <tag k="created_by" v="Potlatch 0.10f"/>
    <tag k="highway" v="motorway"/>
    <tag k="layer" v="2"/>
    <tag k="name" v="AZ 202"/>
    <tag k="name_1" v="Red Mountain Freeway"/>
    <tag k="ref" v="AZ 202"/>
    <tag k="tiger:cfcc" v="A11"/>
    <tag k="tiger:county" v="Maricopa, AZ"/>
    <tag k="tiger:name_base" v="202"/>
    <tag k="tiger:name_base_1" v="Red Mountain"/>
    <tag k="tiger:name_type_1" v="Fwy"/>
    <tag k="tiger:reviewed" v="no"/>
    <tag k="tiger:separated" v="no"/>
    <tag k="tiger:source" v="tiger_import_dch_v0.6_20070809"/>
    <tag k="tiger:tlid" v="128838507:128789703:128789704:128789689:128875678:128875679:128789652:128789622:128789664:128789665:128789672:128789697:128789698:128839394:128825348:128813913:128813916"/>
  </way>
  <way id="28751481" version="6" timestamp="2010-11-11T19:31:26Z" uid="316868" user="LexIgnatov" changeset="6346183">
    <nd ref="255818872"/>
    <nd ref="255937066"/>
    <nd ref="255818873"/>
    <tag k="bridge" v="yes"/>
    <tag k="highway" v="motorway"/>
    <tag k="is_in" v="Maricopa, AZ"/>
    <tag k="layer" v="2"/>
    <tag k="name" v="Red Mountain Freeway"/>
    <tag k="name_1" v="Red Mountain Freeway"/>
    <tag k="name_2" v="State Highway 202"/>
    <tag k="oneway" v="yes"/>
    <tag k="ref" v="AZ 202"/>
    <tag k="tiger:cfcc" v="A11"/>
    <tag k="tiger:county" v="Maricopa, AZ"/>
    <tag k="tiger:name_base" v="202"/>
    <tag k="tiger:name_base_1" v="Red Mountain"/>
    <tag k="tiger:name_type_1" v="Fwy"/>
    <tag k="tiger:reviewed" v="no"/>
    <tag k="tiger:separated" v="no"/>
    <tag k="tiger:source" v="tiger_import_dch_v0.6_20070809"/>
    <tag k="tiger:tlid" v="128838507:128789703:128789704:128789689:128875678:128875679:128789652:128789622:128789664:128789665:128789672:128789697:128789698:128839394:128825348:128813913:128813916"/>
  </way>
  <way id="28751481" version="7" timestamp="2011-03-22T11:33:33Z" uid="207745" user="NE2" changeset="7636170">
    <nd ref="255818872"/>
    <nd ref="255937066"/>
    <nd ref="255818873"/>
    <tag k="bridge" v="yes"/>
    <tag k="highway" v="motorway"/>
    <tag k="is_in" v="Maricopa, AZ"/>
    <tag k="layer" v="2"/>
    <tag k="name" v="Red Mountain Freeway"/>
    <tag k="oneway" v="yes"/>
    <tag k="ref" v="AZ 202"/>
    <tag k="tiger:cfcc" v="A11"/>
    <tag k="tiger:county" v="Maricopa, AZ"/>
    <tag k="tiger:name_base" v="202"/>
    <tag k="tiger:name_base_1" v="Red Mountain"/>
    <tag k="tiger:name_type_1" v="Fwy"/>
    <tag k="tiger:reviewed" v="no"/>
    <tag k="tiger:separated" v="no"/>
    <tag k="tiger:source" v="tiger_import_dch_v0.6_20070809"/>
    <tag k="tiger:tlid" v="128838507:128789703:128789704:128789689:128875678:128875679:128789652:128789622:128789664:128789665:128789672:128789697:128789698:128839394:128825348:128813913:128813916"/>
  </way>
  <way id="28751481" version="8" timestamp="2011-07-28T10:29:06Z" uid="207745" user="NE2" changeset="8853028">
    <nd ref="255818872"/>
    <nd ref="255937066"/>
    <nd ref="255818873"/>
    <tag k="bridge" v="yes"/>
    <tag k="highway" v="motorway"/>
    <tag k="hov" v="lane"/>
    <tag k="is_in" v="Maricopa, AZ"/>
    <tag k="lanes" v="6"/>
    <tag k="layer" v="2"/>
    <tag k="name" v="Red Mountain Freeway"/>
    <tag k="note:lanes" v="left lane is hov"/>
    <tag k="oneway" v="yes"/>
    <tag k="ref" v="AZ 202"/>
    <tag k="tiger:cfcc" v="A11"/>
    <tag k="tiger:county" v="Maricopa, AZ"/>
    <tag k="tiger:name_base" v="202"/>
    <tag k="tiger:name_base_1" v="Red Mountain"/>
    <tag k="tiger:name_type_1" v="Fwy"/>
    <tag k="tiger:reviewed" v="no"/>
    <tag k="tiger:separated" v="no"/>
    <tag k="tiger:source" v="tiger_import_dch_v0.6_20070809"/>
    <tag k="tiger:tlid" v="128838507:128789703:128789704:128789689:128875678:128875679:128789652:128789622:128789664:128789665:128789672:128789697:128789698:128839394:128825348:128813913:128813916"/>
  </way>
  <way id="28751481" version="9" timestamp="2011-10-14T13:31:45Z" uid="207745" user="NE2" changeset="9555438">
    <nd ref="255818872"/>
    <nd ref="255937066"/>
    <nd ref="255818873"/>
    <tag k="bicycle" v="no"/>
    <tag k="bridge" v="yes"/>
    <tag k="highway" v="motorway"/>
    <tag k="hov" v="lane"/>
    <tag k="is_in" v="Maricopa, AZ"/>
    <tag k="lanes" v="6"/>
    <tag k="layer" v="2"/>
    <tag k="name" v="Red Mountain Freeway"/>
    <tag k="note:lanes" v="left lane is hov"/>
    <tag k="oneway" v="yes"/>
    <tag k="ref" v="AZ 202"/>
    <tag k="tiger:cfcc" v="A11"/>
    <tag k="tiger:county" v="Maricopa, AZ"/>
    <tag k="tiger:name_base" v="202"/>
    <tag k="tiger:name_base_1" v="Red Mountain"/>
    <tag k="tiger:name_type_1" v="Fwy"/>
    <tag k="tiger:reviewed" v="no"/>
    <tag k="tiger:separated" v="no"/>
    <tag k="tiger:source" v="tiger_import_dch_v0.6_20070809"/>
    <tag k="tiger:tlid" v="128838507:128789703:128789704:128789689:128875678:128875679:128789652:128789622:128789664:128789665:128789672:128789697:128789698:128839394:128825348:128813913:128813916"/>
  </way>
  <way id="28751481" version="10" timestamp="2011-11-19T15:08:24Z" uid="292665" user="Dr Kludge" changeset="9873833">
    <nd ref="255818872"/>
    <nd ref="255937066"/>
    <nd ref="255818873"/>
    <tag k="bicycle" v="no"/>
    <tag k="bridge" v="yes"/>
    <tag k="highway" v="motorway"/>
    <tag k="hov" v="lane"/>
    <tag k="is_in" v="Maricopa, AZ"/>
    <tag k="lanes" v="6"/>
    <tag k="layer" v="2"/>
    <tag k="name" v="Red Mountain Freeway"/>
    <tag k="note:lanes" v="left lane is hov"/>
    <tag k="oneway" v="yes"/>
    <tag k="ref" v="AZ 202"/>
    <tag k="tiger:cfcc" v="A11"/>
    <tag k="tiger:county" v="Maricopa, AZ"/>
    <tag k="tiger:name_base" v="202"/>
    <tag k="tiger:name_base_1" v="Red Mountain"/>
    <tag k="tiger:name_type_1" v="Fwy"/>
    <tag k="tiger:reviewed" v="yes"/>
    <tag k="tiger:separated" v="no"/>
    <tag k="tiger:source" v="tiger_import_dch_v0.6_20070809"/>
    <tag k="tiger:tlid" v="128838507:128789703:128789704:128789689:128875678:128875679:128789652:128789622:128789664:128789665:128789672:128789697:128789698:128839394:128825348:128813913:128813916"/>
  </way>
  <way id="28751488" version="4" timestamp="2010-04-03T04:04:25Z" uid="20587" user="balrog-kun" changeset="4309442">
    <nd ref="255818873"/>
    <nd ref="255818874"/>
    <nd ref="13365842"/>
    <nd ref="255818875"/>
    <nd ref="255818759"/>
    <nd ref="13365841"/>
    <nd ref="255818757"/>
    <nd ref="316129411"/>
    <tag k="created_by" v="Potlatch 0.10f"/>
    <tag k="highway" v="motorway"/>
    <tag k="name" v="AZ 202"/>
    <tag k="name_1" v="Red Mountain Freeway"/>
    <tag k="ref" v="AZ 202"/>
    <tag k="tiger:cfcc" v="A11"/>
    <tag k="tiger:county" v="Maricopa, AZ"/>
    <tag k="tiger:name_base" v="202"/>
    <tag k="tiger:name_base_1" v="Red Mountain"/>
    <tag k="tiger:name_type_1" v="Fwy"/>
    <tag k="tiger:reviewed" v="no"/>
    <tag k="tiger:separated" v="no"/>
    <tag k="tiger:source" v="tiger_import_dch_v0.6_20070809"/>
    <tag k="tiger:tlid" v="128838507:128789703:128789704:128789689:128875678:128875679:128789652:128789622:128789664:128789665:128789672:128789697:128789698:128839394:128825348:128813913:128813916"/>
  </way>
  <way id="28751488" version="5" timestamp="2010-11-11T19:31:20Z" uid="316868" user="LexIgnatov" changeset="6346183">
    <nd ref="255818873"/>
    <nd ref="255818874"/>
    <nd ref="13365842"/>
    <nd ref="255818875"/>
    <nd ref="255818759"/>
    <nd ref="13365841"/>
    <nd ref="255818757"/>
    <nd ref="316129411"/>
    <tag k="highway" v="motorway"/>
    <tag k="is_in" v="Maricopa, AZ"/>
    <tag k="name" v="Red Mountain Freeway"/>
    <tag k="name_1" v="AZ 202"/>
    <tag k="name_2" v="State Highway 202"/>
    <tag k="oneway" v="yes"/>
    <tag k="ref" v="AZ 202"/>
    <tag k="tiger:cfcc" v="A11"/>
    <tag k="tiger:county" v="Maricopa, AZ"/>
    <tag k="tiger:name_base" v="Red Mountain"/>
    <tag k="tiger:name_base_1" v="202"/>
    <tag k="tiger:name_base_2" v="202"/>
    <tag k="tiger:name_type" v="Fwy"/>
    <tag k="tiger:name_type_1" v="Fwy"/>
    <tag k="tiger:reviewed" v="no"/>
    <tag k="tiger:separated" v="no"/>
    <tag k="tiger:source" v="tiger_import_dch_v0.6_20070809"/>
    <tag k="tiger:tlid" v="128802036"/>
  </way>
  <way id="28751488" version="6" timestamp="2011-03-22T11:30:29Z" uid="207745" user="NE2" changeset="7636170">
    <nd ref="255818873"/>
    <nd ref="255818874"/>
    <nd ref="13365842"/>
    <nd ref="255818875"/>
    <nd ref="255818759"/>
    <nd ref="13365841"/>
    <nd ref="255818757"/>
    <nd ref="316129411"/>
    <tag k="highway" v="motorway"/>
    <tag k="is_in" v="Maricopa, AZ"/>
    <tag k="name" v="Red Mountain Freeway"/>
    <tag k="oneway" v="yes"/>
    <tag k="ref" v="AZ 202"/>
    <tag k="tiger:cfcc" v="A11"/>
    <tag k="tiger:county" v="Maricopa, AZ"/>
    <tag k="tiger:name_base" v="Red Mountain"/>
    <tag k="tiger:name_base_1" v="202"/>
    <tag k="tiger:name_base_2" v="202"/>
    <tag k="tiger:name_type" v="Fwy"/>
    <tag k="tiger:name_type_1" v="Fwy"/>
    <tag k="tiger:reviewed" v="no"/>
    <tag k="tiger:separated" v="no"/>
    <tag k="tiger:source" v="tiger_import_dch_v0.6_20070809"/>
    <tag k="tiger:tlid" v="128802036"/>
  </way>
  <way id="28751488" version="7" timestamp="2011-07-28T10:29:25Z" uid="207745" user="NE2" changeset="8853028">
    <nd ref="255818873"/>
    <nd ref="255818874"/>
    <nd ref="13365842"/>
    <nd ref="255818875"/>
    <nd ref="255818759"/>
    <nd ref="13365841"/>
    <nd ref="255818757"/>
    <nd ref="316129411"/>
    <tag k="highway" v="motorway"/>
    <tag k="hov" v="lane"/>
    <tag k="is_in" v="Maricopa, AZ"/>
    <tag k="lanes" v="6"/>
    <tag k="name" v="Red Mountain Freeway"/>
    <tag k="note:lanes" v="left lane is hov"/>
    <tag k="oneway" v="yes"/>
    <tag k="ref" v="AZ 202"/>
    <tag k="tiger:cfcc" v="A11"/>
    <tag k="tiger:county" v="Maricopa, AZ"/>
    <tag k="tiger:name_base" v="Red Mountain"/>
    <tag k="tiger:name_base_1" v="202"/>
    <tag k="tiger:name_base_2" v="202"/>
    <tag k="tiger:name_type" v="Fwy"/>
    <tag k="tiger:name_type_1" v="Fwy"/>
    <tag k="tiger:reviewed" v="no"/>
    <tag k="tiger:separated" v="no"/>
    <tag k="tiger:source" v="tiger_import_dch_v0.6_20070809"/>
    <tag k="tiger:tlid" v="128802036"/>
  </way>
  <way id="28751488" version="8" timestamp="2011-10-14T13:32:07Z" uid="207745" user="NE2" changeset="9555438">
    <nd ref="255818873"/>
    <nd ref="255818874"/>
    <nd ref="13365842"/>
    <nd ref="255818875"/>
    <nd ref="255818759"/>
    <nd ref="13365841"/>
    <nd ref="255818757"/>
    <nd ref="316129411"/>
    <tag k="bicycle" v="no"/>
    <tag k="highway" v="motorway"/>
    <tag k="hov" v="lane"/>
    <tag k="is_in" v="Maricopa, AZ"/>
    <tag k="lanes" v="6"/>
    <tag k="name" v="Red Mountain Freeway"/>
    <tag k="note:lanes" v="left lane is hov"/>
    <tag k="oneway" v="yes"/>
    <tag k="ref" v="AZ 202"/>
    <tag k="tiger:cfcc" v="A11"/>
    <tag k="tiger:county" v="Maricopa, AZ"/>
    <tag k="tiger:name_base" v="Red Mountain"/>
    <tag k="tiger:name_base_1" v="202"/>
    <tag k="tiger:name_base_2" v="202"/>
    <tag k="tiger:name_type" v="Fwy"/>
    <tag k="tiger:name_type_1" v="Fwy"/>
    <tag k="tiger:reviewed" v="no"/>
    <tag k="tiger:separated" v="no"/>
    <tag k="tiger:source" v="tiger_import_dch_v0.6_20070809"/>
    <tag k="tiger:tlid" v="128802036"/>
  </way>
  <way id="28751488" version="9" timestamp="2011-11-19T15:08:19Z" uid="292665" user="Dr Kludge" changeset="9873833">
    <nd ref="255818873"/>
    <nd ref="255818874"/>
    <nd ref="1508633716"/>
    <nd ref="13365842"/>
    <nd ref="1508633719"/>
    <nd ref="1508633723"/>
    <nd ref="255818875"/>
    <nd ref="255818759"/>
    <nd ref="13365841"/>
    <nd ref="255818757"/>
    <nd ref="316129411"/>
    <tag k="bicycle" v="no"/>
    <tag k="highway" v="motorway"/>
    <tag k="hov" v="lane"/>
    <tag k="is_in" v="Maricopa, AZ"/>
    <tag k="lanes" v="6"/>
    <tag k="name" v="Red Mountain Freeway"/>
    <tag k="note:lanes" v="left lane is hov"/>
    <tag k="oneway" v="yes"/>
    <tag k="ref" v="AZ 202"/>
    <tag k="tiger:cfcc" v="A11"/>
    <tag k="tiger:county" v="Maricopa, AZ"/>
    <tag k="tiger:name_base" v="Red Mountain"/>
    <tag k="tiger:name_base_1" v="202"/>
    <tag k="tiger:name_base_2" v="202"/>
    <tag k="tiger:name_type" v="Fwy"/>
    <tag k="tiger:name_type_1" v="Fwy"/>
    <tag k="tiger:reviewed" v="no"/>
    <tag k="tiger:separated" v="no"/>
    <tag k="tiger:source" v="tiger_import_dch_v0.6_20070809"/>
    <tag k="tiger:tlid" v="128802036"/>
  </way>
  <way id="28751502" version="1" timestamp="2008-12-01T20:46:26Z" uid="20587" user="balrog-kun" changeset="19969">
    <nd ref="316120101"/>
    <nd ref="316120102"/>
    <nd ref="316120100"/>
    <nd ref="316120099"/>
    <nd ref="316120101"/>
    <tag k="addr:housenumber" v="140"/>
    <tag k="addr:street" v="Puawska"/>
    <tag k="building" v="yes"/>
  </way>
  <way id="28751502" version="2" timestamp="2008-12-16T13:13:24Z" uid="20587" user="balrog-kun" changeset="421416">
    <nd ref="316120101"/>
    <nd ref="316120102"/>
    <nd ref="316120100"/>
    <nd ref="316120099"/>
    <nd ref="316120101"/>
    <tag k="addr:housenumber" v="240"/>
    <tag k="addr:street" v="Puawska"/>
    <tag k="building" v="yes"/>
  </way>
  <way id="28751504" version="1" timestamp="2008-12-01T20:46:28Z" uid="20587" user="balrog-kun" changeset="19969">
    <nd ref="316120103"/>
    <nd ref="316120104"/>
    <nd ref="316120105"/>
    <nd ref="316120106"/>
    <nd ref="316120103"/>
    <tag k="addr:housenumber" v="138"/>
    <tag k="addr:street" v="Puawska"/>
    <tag k="building" v="yes"/>
  </way>
  <way id="28751504" version="2" timestamp="2008-12-16T13:13:25Z" uid="20587" user="balrog-kun" changeset="421416"/>
  <way id="28751505" version="1" timestamp="2008-12-01T20:46:29Z" uid="20587" user="balrog-kun" changeset="19969">
    <nd ref="316120109"/>
    <nd ref="316120108"/>
    <nd ref="316120107"/>
    <nd ref="316120111"/>
    <nd ref="316120109"/>
    <tag k="addr:housenumber" v="134"/>
    <tag k="addr:street" v="Puawska"/>
    <tag k="building" v="yes"/>
  </way>
  <way id="28751505" version="2" timestamp="2008-12-16T13:13:25Z" uid="20587" user="balrog-kun" changeset="421416"/>
  <way id="28751506" version="1" timestamp="2008-12-01T20:46:30Z" uid="20587" user="balrog-kun" changeset="19969">
    <nd ref="316120123"/>
    <nd ref="316120124"/>
    <nd ref="316120126"/>
    <nd ref="316120128"/>
    <nd ref="316120130"/>
    <nd ref="316120131"/>
    <nd ref="316120123"/>
    <tag k="landuse" v="military"/>
    <tag k="name" v="Wojskowa Komenda Uzupenie Mokotw"/>
  </way>
  <way id="28751506" version="2" timestamp="2009-01-04T13:46:10Z" uid="20587" user="balrog-kun" changeset="728731">
    <nd ref="316120123"/>
    <nd ref="316120124"/>
    <nd ref="316120126"/>
    <nd ref="316120128"/>
    <nd ref="316120130"/>
    <nd ref="316120131"/>
    <nd ref="316120123"/>
    <tag k="landuse" v="military"/>
    <tag k="military" v="barracks"/>
    <tag k="name" v="Wojskowa Komenda Uzupenie Mokotw"/>
  </way>
  <way id="28751507" version="1" timestamp="2008-12-01T20:46:30Z" uid="20587" user="balrog-kun" changeset="19969">
    <nd ref="316120138"/>
    <nd ref="316120136"/>
    <nd ref="312882767"/>
    <nd ref="312882763"/>
    <nd ref="312882761"/>
    <nd ref="316120138"/>
    <tag k="building" v="yes"/>
    <tag k="name" v="Ministerstwo Spraw Zagranicznych"/>
    <tag k="name:en" v="Ministry of Foreign Affairs"/>
    <tag k="name:es" v="El Ministerio de Asuntos Exteriores"/>
  </way>
  <way id="28751507" version="2" timestamp="2008-12-17T03:21:16Z" uid="20587" user="balrog-kun" changeset="433442">
    <nd ref="316120138"/>
    <nd ref="316120136"/>
    <nd ref="312882767"/>
    <nd ref="312882763"/>
    <nd ref="312882761"/>
    <nd ref="316120138"/>
    <tag k="addr:housenumber" v="23"/>
    <tag k="addr:postcode" v="00-580"/>
    <tag k="addr:street" v="Aleja Szucha"/>
    <tag k="building" v="yes"/>
    <tag k="name" v="Ministerstwo Spraw Zagranicznych"/>
    <tag k="name:en" v="Ministry of Foreign Affairs"/>
    <tag k="name:es" v="El Ministerio de Asuntos Exteriores"/>
  </way>
  <way id="28751507" version="3" timestamp="2009-02-08T01:49:46Z" uid="20587" user="balrog-kun" changeset="256625">
    <nd ref="316120138"/>
    <nd ref="316120136"/>
    <nd ref="312882767"/>
    <nd ref="312882763"/>
    <nd ref="312882761"/>
    <nd ref="316120138"/>
    <tag k="addr:housenumber" v="23"/>
    <tag k="addr:postcode" v="00-580"/>
    <tag k="addr:street" v="Aleja Jana Chrystiana Szucha"/>
    <tag k="building" v="yes"/>
    <tag k="name" v="Ministerstwo Spraw Zagranicznych"/>
    <tag k="name:en" v="Ministry of Foreign Affairs"/>
    <tag k="name:es" v="El Ministerio de Asuntos Exteriores"/>
  </way>
  <way id="28751507" version="4" timestamp="2009-02-08T02:07:38Z" uid="20587" user="balrog-kun" changeset="256625">
    <nd ref="316120138"/>
    <nd ref="316120136"/>
    <nd ref="312882767"/>
    <nd ref="312882763"/>
    <nd ref="312882761"/>
    <nd ref="316120138"/>
    <tag k="addr:housenumber" v="23"/>
    <tag k="addr:postcode" v="00-580"/>
    <tag k="addr:street" v="Aleja Jana Chrystiana Szucha"/>
    <tag k="building" v="yes"/>
    <tag k="name" v="Ministerstwo Spraw Zagranicznych"/>
    <tag k="name:en" v="Ministry of Foreign Affairs"/>
    <tag k="name:es" v="El Ministerio de Asuntos Exteriores"/>
    <tag k="note" v="TODO: shape"/>
  </way>
  <way id="28751507" version="5" timestamp="2009-02-08T03:39:56Z" uid="20587" user="balrog-kun" changeset="270015">
    <nd ref="316120138"/>
    <nd ref="316120136"/>
    <nd ref="343300262"/>
    <nd ref="343300263"/>
    <nd ref="316120138"/>
    <tag k="addr:housenumber" v="23"/>
    <tag k="addr:postcode" v="00-580"/>
    <tag k="addr:street" v="Aleja Jana Chrystiana Szucha"/>
    <tag k="building" v="yes"/>
    <tag k="name" v="Ministerstwo Spraw Zagranicznych"/>
    <tag k="name:en" v="Ministry of Foreign Affairs"/>
    <tag k="name:es" v="El Ministerio de Asuntos Exteriores"/>
    <tag k="note" v="TODO: shape"/>
    <tag k="wikipedia" v="Ministry of Foreign Affairs (Poland)"/>
  </way>
  <way id="28751507" version="6" timestamp="2011-11-15T11:25:24Z" uid="477744" user="hormel" changeset="9833741"/>
  <way id="28751508" version="1" timestamp="2008-12-01T20:46:31Z" uid="20587" user="balrog-kun" changeset="19969">
    <nd ref="316120139"/>
    <nd ref="316120141"/>
    <tag k="highway" v="pedestrian"/>
  </way>
  <way id="28751509" version="1" timestamp="2008-12-01T20:46:31Z" uid="20587" user="balrog-kun" changeset="19969">
    <nd ref="316120158"/>
    <nd ref="316120160"/>
    <nd ref="316120162"/>
    <nd ref="316120164"/>
    <nd ref="316120158"/>
    <tag k="addr:housenumber" v="34/50"/>
    <tag k="addr:postcode" v="00-639"/>
    <tag k="addr:street" v="Marszakowska"/>
    <tag k="building" v="yes"/>
  </way>
  <way id="28751509" version="2" timestamp="2008-12-06T00:20:00Z" uid="20587" user="balrog-kun" changeset="204571">
    <nd ref="316120158"/>
    <nd ref="316120160"/>
    <nd ref="316120162"/>
    <nd ref="316120164"/>
    <nd ref="316886521"/>
    <nd ref="316886522"/>
    <nd ref="316886519"/>
    <nd ref="316886520"/>
    <nd ref="316120158"/>
    <tag k="addr:housenumber" v="34/50"/>
    <tag k="addr:postcode" v="00-639"/>
    <tag k="addr:street" v="Marszakowska"/>
    <tag k="building" v="yes"/>
  </way>
  <way id="28751509" version="3" timestamp="2009-04-27T21:51:53Z" uid="20587" user="balrog-kun" changeset="997856">
    <nd ref="316120158"/>
    <nd ref="316120160"/>
    <nd ref="316120162"/>
    <nd ref="316120164"/>
    <nd ref="316886521"/>
    <nd ref="316886522"/>
    <nd ref="316886519"/>
    <nd ref="316886520"/>
    <nd ref="316120158"/>
    <tag k="addr:housenumber" v="34/50"/>
    <tag k="addr:postcode" v="00-639"/>
    <tag k="addr:street" v="Marszakowska"/>
    <tag k="building" v="residential"/>
  </way>
  <way id="28751509" version="4" timestamp="2011-08-26T10:12:51Z" uid="508862" user="KeiDii" changeset="9128116">
    <nd ref="316120158"/>
    <nd ref="1412975455"/>
    <nd ref="1412975438"/>
    <nd ref="1412975437"/>
    <nd ref="316120160"/>
    <nd ref="316120162"/>
    <nd ref="316120164"/>
    <nd ref="316886521"/>
    <nd ref="301612726"/>
    <nd ref="301612724"/>
    <nd ref="316120158"/>
    <tag k="addr:housenumber" v="34/50"/>
    <tag k="addr:postcode" v="00-639"/>
    <tag k="addr:street" v="Marszakowska"/>
    <tag k="building" v="residential"/>
  </way>
  <way id="28751510" version="1" timestamp="2008-12-01T20:46:33Z" uid="20587" user="balrog-kun" changeset="19969">
    <nd ref="316120168"/>
    <nd ref="316120169"/>
    <tag k="highway" v="service"/>
  </way>
  <way id="28751510" version="2" timestamp="2008-12-06T00:20:01Z" uid="20587" user="balrog-kun" changeset="204571">
    <nd ref="316120168"/>
    <nd ref="316120169"/>
    <nd ref="316886523"/>
    <tag k="highway" v="service"/>
  </way>
  <way id="28751510" version="3" timestamp="2011-08-26T10:13:04Z" uid="508862" user="KeiDii" changeset="9128116">
    <nd ref="316120168"/>
    <nd ref="316120169"/>
    <nd ref="316886523"/>
    <nd ref="1412975454"/>
    <tag k="highway" v="service"/>
  </way>
  <way id="28751511" version="4" timestamp="2010-04-03T04:04:25Z" uid="20587" user="balrog-kun" changeset="4309442">
    <nd ref="41483049"/>
    <nd ref="255936343"/>
    <nd ref="42313763"/>
    <nd ref="316120118"/>
    <tag k="bridge" v="yes"/>
    <tag k="created_by" v="Potlatch 0.10f"/>
    <tag k="highway" v="motorway"/>
    <tag k="layer" v="2"/>
    <tag k="name" v="Red Mountain Freeway"/>
    <tag k="name_1" v="AZ 202"/>
    <tag k="name_2" v="State Highway 202"/>
    <tag k="ref" v="AZ 202"/>
    <tag k="tiger:cfcc" v="A11"/>
    <tag k="tiger:county" v="Maricopa, AZ"/>
    <tag k="tiger:name_base" v="Red Mountain"/>
    <tag k="tiger:name_base_1" v="202"/>
    <tag k="tiger:name_base_2" v="202"/>
    <tag k="tiger:name_type" v="Fwy"/>
    <tag k="tiger:reviewed" v="no"/>
    <tag k="tiger:separated" v="no"/>
    <tag k="tiger:source" v="tiger_import_dch_v0.6_20070809"/>
    <tag k="tiger:tlid" v="128802036"/>
  </way>
  <way id="28751511" version="5" timestamp="2010-11-11T19:31:26Z" uid="316868" user="LexIgnatov" changeset="6346183">
    <nd ref="41483049"/>
    <nd ref="255936343"/>
    <nd ref="42313763"/>
    <nd ref="316120118"/>
    <tag k="bridge" v="yes"/>
    <tag k="highway" v="motorway"/>
    <tag k="is_in" v="Maricopa, AZ"/>
    <tag k="layer" v="2"/>
    <tag k="name" v="Red Mountain Freeway"/>
    <tag k="name_1" v="AZ 202"/>
    <tag k="name_2" v="State Highway 202"/>
    <tag k="oneway" v="yes"/>
    <tag k="ref" v="AZ 202"/>
    <tag k="tiger:cfcc" v="A11"/>
    <tag k="tiger:county" v="Maricopa, AZ"/>
    <tag k="tiger:name_base" v="Red Mountain"/>
    <tag k="tiger:name_base_1" v="202"/>
    <tag k="tiger:name_base_2" v="202"/>
    <tag k="tiger:name_type" v="Fwy"/>
    <tag k="tiger:reviewed" v="no"/>
    <tag k="tiger:separated" v="no"/>
    <tag k="tiger:source" v="tiger_import_dch_v0.6_20070809"/>
    <tag k="tiger:tlid" v="128802036"/>
  </way>
  <way id="28751511" version="6" timestamp="2011-03-22T11:33:21Z" uid="207745" user="NE2" changeset="7636170">
    <nd ref="41483049"/>
    <nd ref="255936343"/>
    <nd ref="42313763"/>
    <nd ref="316120118"/>
    <tag k="bridge" v="yes"/>
    <tag k="highway" v="motorway"/>
    <tag k="is_in" v="Maricopa, AZ"/>
    <tag k="layer" v="2"/>
    <tag k="name" v="Red Mountain Freeway"/>
    <tag k="oneway" v="yes"/>
    <tag k="ref" v="AZ 202"/>
    <tag k="tiger:cfcc" v="A11"/>
    <tag k="tiger:county" v="Maricopa, AZ"/>
    <tag k="tiger:name_base" v="Red Mountain"/>
    <tag k="tiger:name_base_1" v="202"/>
    <tag k="tiger:name_base_2" v="202"/>
    <tag k="tiger:name_type" v="Fwy"/>
    <tag k="tiger:reviewed" v="no"/>
    <tag k="tiger:separated" v="no"/>
    <tag k="tiger:source" v="tiger_import_dch_v0.6_20070809"/>
    <tag k="tiger:tlid" v="128802036"/>
  </way>
  <way id="28751511" version="7" timestamp="2011-07-28T10:29:11Z" uid="207745" user="NE2" changeset="8853028">
    <nd ref="41483049"/>
    <nd ref="255936343"/>
    <nd ref="42313763"/>
    <nd ref="316120118"/>
    <tag k="bridge" v="yes"/>
    <tag k="highway" v="motorway"/>
    <tag k="hov" v="lane"/>
    <tag k="is_in" v="Maricopa, AZ"/>
    <tag k="lanes" v="5"/>
    <tag k="layer" v="2"/>
    <tag k="name" v="Red Mountain Freeway"/>
    <tag k="note:lanes" v="left lane is hov"/>
    <tag k="oneway" v="yes"/>
    <tag k="ref" v="AZ 202"/>
    <tag k="tiger:cfcc" v="A11"/>
    <tag k="tiger:county" v="Maricopa, AZ"/>
    <tag k="tiger:name_base" v="Red Mountain"/>
    <tag k="tiger:name_base_1" v="202"/>
    <tag k="tiger:name_base_2" v="202"/>
    <tag k="tiger:name_type" v="Fwy"/>
    <tag k="tiger:reviewed" v="no"/>
    <tag k="tiger:separated" v="no"/>
    <tag k="tiger:source" v="tiger_import_dch_v0.6_20070809"/>
    <tag k="tiger:tlid" v="128802036"/>
  </way>
  <way id="28751511" version="8" timestamp="2011-10-14T13:31:54Z" uid="207745" user="NE2" changeset="9555438">
    <nd ref="41483049"/>
    <nd ref="255936343"/>
    <nd ref="42313763"/>
    <nd ref="316120118"/>
    <tag k="bicycle" v="no"/>
    <tag k="bridge" v="yes"/>
    <tag k="highway" v="motorway"/>
    <tag k="hov" v="lane"/>
    <tag k="is_in" v="Maricopa, AZ"/>
    <tag k="lanes" v="5"/>
    <tag k="layer" v="2"/>
    <tag k="name" v="Red Mountain Freeway"/>
    <tag k="note:lanes" v="left lane is hov"/>
    <tag k="oneway" v="yes"/>
    <tag k="ref" v="AZ 202"/>
    <tag k="tiger:cfcc" v="A11"/>
    <tag k="tiger:county" v="Maricopa, AZ"/>
    <tag k="tiger:name_base" v="Red Mountain"/>
    <tag k="tiger:name_base_1" v="202"/>
    <tag k="tiger:name_base_2" v="202"/>
    <tag k="tiger:name_type" v="Fwy"/>
    <tag k="tiger:reviewed" v="no"/>
    <tag k="tiger:separated" v="no"/>
    <tag k="tiger:source" v="tiger_import_dch_v0.6_20070809"/>
    <tag k="tiger:tlid" v="128802036"/>
  </way>
  <way id="28751511" version="9" timestamp="2011-11-19T15:08:29Z" uid="292665" user="Dr Kludge" changeset="9873833">
    <nd ref="41483049"/>
    <nd ref="255936343"/>
    <nd ref="42313763"/>
    <nd ref="316120118"/>
    <tag k="bicycle" v="no"/>
    <tag k="bridge" v="yes"/>
    <tag k="highway" v="motorway"/>
    <tag k="hov" v="lane"/>
    <tag k="is_in" v="Maricopa, AZ"/>
    <tag k="lanes" v="5"/>
    <tag k="layer" v="2"/>
    <tag k="name" v="Red Mountain Freeway"/>
    <tag k="note:lanes" v="left lane is hov"/>
    <tag k="oneway" v="yes"/>
    <tag k="ref" v="AZ 202"/>
    <tag k="tiger:cfcc" v="A11"/>
    <tag k="tiger:county" v="Maricopa, AZ"/>
    <tag k="tiger:name_base" v="Red Mountain"/>
    <tag k="tiger:name_base_1" v="202"/>
    <tag k="tiger:name_base_2" v="202"/>
    <tag k="tiger:name_type" v="Fwy"/>
    <tag k="tiger:reviewed" v="yes"/>
    <tag k="tiger:separated" v="no"/>
    <tag k="tiger:source" v="tiger_import_dch_v0.6_20070809"/>
    <tag k="tiger:tlid" v="128802036"/>
  </way>
  <way id="28751519" version="5" timestamp="2010-04-03T04:04:25Z" uid="20587" user="balrog-kun" changeset="4309442">
    <nd ref="42040280"/>
    <nd ref="42040273"/>
    <nd ref="256604925"/>
    <tag k="bridge" v="yes"/>
    <tag k="highway" v="secondary"/>
    <tag k="layer" v="1"/>
    <tag k="name" v="North Mill Avenue"/>
    <tag k="oneway" v="yes"/>
    <tag k="tiger:cfcc" v="A21"/>
    <tag k="tiger:county" v="Maricopa, AZ"/>
    <tag k="tiger:name_base" v="Mill"/>
    <tag k="tiger:name_base_1" v="United States Highway 89"/>
    <tag k="tiger:name_direction_prefix" v="N"/>
    <tag k="tiger:name_type" v="Ave"/>
    <tag k="tiger:reviewed" v="no"/>
    <tag k="tiger:separated" v="no"/>
    <tag k="tiger:source" v="tiger_import_dch_v0.6_20070809"/>
    <tag k="tiger:tlid" v="128225921:128790714:128225925:128225495"/>
  </way>
  <way id="28751519" version="6" timestamp="2010-09-13T02:15:14Z" uid="211732" user="scrottie" changeset="5765707">
    <nd ref="42040280"/>
    <nd ref="42040273"/>
    <nd ref="256604925"/>
    <tag k="bridge" v="yes"/>
    <tag k="cycleway" v="lane"/>
    <tag k="highway" v="secondary"/>
    <tag k="layer" v="1"/>
    <tag k="name" v="North Mill Avenue"/>
    <tag k="oneway" v="yes"/>
    <tag k="tiger:cfcc" v="A21"/>
    <tag k="tiger:county" v="Maricopa, AZ"/>
    <tag k="tiger:name_base" v="Mill"/>
    <tag k="tiger:name_base_1" v="United States Highway 89"/>
    <tag k="tiger:name_direction_prefix" v="N"/>
    <tag k="tiger:name_type" v="Ave"/>
    <tag k="tiger:reviewed" v="no"/>
    <tag k="tiger:separated" v="no"/>
    <tag k="tiger:source" v="tiger_import_dch_v0.6_20070809"/>
    <tag k="tiger:tlid" v="128225921:128790714:128225925:128225495"/>
  </way>
  <way id="28751519" version="7" timestamp="2011-11-19T15:08:02Z" uid="292665" user="Dr Kludge" changeset="9873833">
    <nd ref="42040280"/>
    <nd ref="42040273"/>
    <nd ref="256604925"/>
    <tag k="bridge" v="yes"/>
    <tag k="cycleway" v="lane"/>
    <tag k="highway" v="secondary"/>
    <tag k="layer" v="1"/>
    <tag k="name" v="North Mill Avenue"/>
    <tag k="oneway" v="yes"/>
    <tag k="tiger:cfcc" v="A21"/>
    <tag k="tiger:county" v="Maricopa, AZ"/>
    <tag k="tiger:name_base" v="Mill"/>
    <tag k="tiger:name_base_1" v="United States Highway 89"/>
    <tag k="tiger:name_direction_prefix" v="N"/>
    <tag k="tiger:name_type" v="Ave"/>
    <tag k="tiger:reviewed" v="yes"/>
    <tag k="tiger:separated" v="no"/>
    <tag k="tiger:source" v="tiger_import_dch_v0.6_20070809"/>
    <tag k="tiger:tlid" v="128225921:128790714:128225925:128225495"/>
  </way>
  <way id="28751528" version="5" timestamp="2010-04-03T04:04:25Z" uid="20587" user="balrog-kun" changeset="4309442">
    <nd ref="255819340"/>
    <nd ref="255819341"/>
    <nd ref="41483020"/>
    <tag k="highway" v="secondary"/>
    <tag k="name" v="North Mill Avenue"/>
    <tag k="oneway" v="yes"/>
    <tag k="tiger:cfcc" v="A21"/>
    <tag k="tiger:county" v="Maricopa, AZ"/>
    <tag k="tiger:name_base" v="Mill"/>
    <tag k="tiger:name_base_1" v="United States Highway 89"/>
    <tag k="tiger:name_direction_prefix" v="N"/>
    <tag k="tiger:name_type" v="Ave"/>
    <tag k="tiger:reviewed" v="no"/>
    <tag k="tiger:separated" v="no"/>
    <tag k="tiger:source" v="tiger_import_dch_v0.6_20070809"/>
    <tag k="tiger:tlid" v="128225939:128266840"/>
  </way>
  <way id="28751528" version="6" timestamp="2010-09-13T02:15:18Z" uid="211732" user="scrottie" changeset="5765707">
    <nd ref="255819340"/>
    <nd ref="255819341"/>
    <nd ref="41483020"/>
    <tag k="cycleway" v="lane"/>
    <tag k="highway" v="secondary"/>
    <tag k="name" v="North Mill Avenue"/>
    <tag k="oneway" v="yes"/>
    <tag k="tiger:cfcc" v="A21"/>
    <tag k="tiger:county" v="Maricopa, AZ"/>
    <tag k="tiger:name_base" v="Mill"/>
    <tag k="tiger:name_base_1" v="United States Highway 89"/>
    <tag k="tiger:name_direction_prefix" v="N"/>
    <tag k="tiger:name_type" v="Ave"/>
    <tag k="tiger:reviewed" v="no"/>
    <tag k="tiger:separated" v="no"/>
    <tag k="tiger:source" v="tiger_import_dch_v0.6_20070809"/>
    <tag k="tiger:tlid" v="128225939:128266840"/>
  </way>
  <way id="28751539" version="8" timestamp="2010-04-03T04:04:25Z" uid="20587" user="balrog-kun" changeset="4309442">
    <nd ref="41662569"/>
    <nd ref="255819202"/>
    <nd ref="255819201"/>
    <nd ref="255819200"/>
    <tag k="created_by" v="Potlatch 0.10f"/>
    <tag k="highway" v="secondary"/>
    <tag k="name" v="South Mill Avenue"/>
    <tag k="oneway" v="yes"/>
    <tag k="tiger:cfcc" v="A41"/>
    <tag k="tiger:county" v="Maricopa, AZ"/>
    <tag k="tiger:name_base" v="Mill"/>
    <tag k="tiger:name_direction_prefix" v="S"/>
    <tag k="tiger:name_type" v="Ave"/>
    <tag k="tiger:reviewed" v="no"/>
    <tag k="tiger:separated" v="no"/>
    <tag k="tiger:source" v="tiger_import_dch_v0.6_20070809"/>
    <tag k="tiger:tlid" v="128237430"/>
    <tag k="tiger:zip_left" v="85283"/>
    <tag k="tiger:zip_right" v="85283"/>
  </way>
  <way id="28751539" version="9" timestamp="2010-09-13T02:15:20Z" uid="211732" user="scrottie" changeset="5765707">
    <nd ref="41662569"/>
    <nd ref="255819202"/>
    <nd ref="255819201"/>
    <nd ref="255819200"/>
    <tag k="cycleway" v="lane"/>
    <tag k="highway" v="secondary"/>
    <tag k="name" v="South Mill Avenue"/>
    <tag k="oneway" v="yes"/>
    <tag k="tiger:cfcc" v="A41"/>
    <tag k="tiger:county" v="Maricopa, AZ"/>
    <tag k="tiger:name_base" v="Mill"/>
    <tag k="tiger:name_direction_prefix" v="S"/>
    <tag k="tiger:name_type" v="Ave"/>
    <tag k="tiger:reviewed" v="no"/>
    <tag k="tiger:separated" v="no"/>
    <tag k="tiger:source" v="tiger_import_dch_v0.6_20070809"/>
    <tag k="tiger:tlid" v="128237430"/>
    <tag k="tiger:zip_left" v="85283"/>
    <tag k="tiger:zip_right" v="85283"/>
  </way>
  <way id="28751543" version="5" timestamp="2010-04-03T04:04:26Z" uid="20587" user="balrog-kun" changeset="4309442">
    <nd ref="255819200"/>
    <nd ref="316127162"/>
    <nd ref="255819199"/>
    <nd ref="41662567"/>
    <tag k="bridge" v="yes"/>
    <tag k="created_by" v="Potlatch 0.10f"/>
    <tag k="highway" v="secondary"/>
    <tag k="layer" v="1"/>
    <tag k="name" v="South Mill Avenue"/>
    <tag k="oneway" v="yes"/>
    <tag k="tiger:cfcc" v="A41"/>
    <tag k="tiger:county" v="Maricopa, AZ"/>
    <tag k="tiger:name_base" v="Mill"/>
    <tag k="tiger:name_direction_prefix" v="S"/>
    <tag k="tiger:name_type" v="Ave"/>
    <tag k="tiger:reviewed" v="no"/>
    <tag k="tiger:separated" v="no"/>
    <tag k="tiger:source" v="tiger_import_dch_v0.6_20070809"/>
    <tag k="tiger:tlid" v="128237430"/>
    <tag k="tiger:zip_left" v="85283"/>
    <tag k="tiger:zip_right" v="85283"/>
  </way>
  <way id="28751543" version="6" timestamp="2010-09-13T02:15:20Z" uid="211732" user="scrottie" changeset="5765707">
    <nd ref="255819200"/>
    <nd ref="316127162"/>
    <nd ref="255819199"/>
    <nd ref="41662567"/>
    <tag k="bridge" v="yes"/>
    <tag k="cycleway" v="lane"/>
    <tag k="highway" v="secondary"/>
    <tag k="layer" v="1"/>
    <tag k="name" v="South Mill Avenue"/>
    <tag k="oneway" v="yes"/>
    <tag k="tiger:cfcc" v="A41"/>
    <tag k="tiger:county" v="Maricopa, AZ"/>
    <tag k="tiger:name_base" v="Mill"/>
    <tag k="tiger:name_direction_prefix" v="S"/>
    <tag k="tiger:name_type" v="Ave"/>
    <tag k="tiger:reviewed" v="no"/>
    <tag k="tiger:separated" v="no"/>
    <tag k="tiger:source" v="tiger_import_dch_v0.6_20070809"/>
    <tag k="tiger:tlid" v="128237430"/>
    <tag k="tiger:zip_left" v="85283"/>
    <tag k="tiger:zip_right" v="85283"/>
  </way>
  <way id="28751543" version="7" timestamp="2011-11-10T05:54:46Z" uid="292665" user="Dr Kludge" changeset="9786490">
    <nd ref="255819200"/>
    <nd ref="316127162"/>
    <nd ref="255819199"/>
    <nd ref="1496913276"/>
    <nd ref="41662567"/>
    <tag k="bridge" v="yes"/>
    <tag k="cycleway" v="lane"/>
    <tag k="highway" v="secondary"/>
    <tag k="layer" v="1"/>
    <tag k="name" v="South Mill Avenue"/>
    <tag k="oneway" v="yes"/>
    <tag k="tiger:cfcc" v="A41"/>
    <tag k="tiger:county" v="Maricopa, AZ"/>
    <tag k="tiger:name_base" v="Mill"/>
    <tag k="tiger:name_direction_prefix" v="S"/>
    <tag k="tiger:name_type" v="Ave"/>
    <tag k="tiger:reviewed" v="no"/>
    <tag k="tiger:separated" v="no"/>
    <tag k="tiger:source" v="tiger_import_dch_v0.6_20070809"/>
    <tag k="tiger:tlid" v="128237430"/>
    <tag k="tiger:zip_left" v="85283"/>
    <tag k="tiger:zip_right" v="85283"/>
  </way>
  <way id="28751543" version="8" timestamp="2011-11-19T15:09:24Z" uid="292665" user="Dr Kludge" changeset="9873833">
    <nd ref="255819200"/>
    <nd ref="316127162"/>
    <nd ref="255819199"/>
    <nd ref="1496913276"/>
    <nd ref="41662567"/>
    <tag k="bridge" v="yes"/>
    <tag k="cycleway" v="lane"/>
    <tag k="highway" v="secondary"/>
    <tag k="layer" v="1"/>
    <tag k="name" v="South Mill Avenue"/>
    <tag k="oneway" v="yes"/>
    <tag k="tiger:cfcc" v="A41"/>
    <tag k="tiger:county" v="Maricopa, AZ"/>
    <tag k="tiger:name_base" v="Mill"/>
    <tag k="tiger:name_direction_prefix" v="S"/>
    <tag k="tiger:name_type" v="Ave"/>
    <tag k="tiger:reviewed" v="yes"/>
    <tag k="tiger:separated" v="no"/>
    <tag k="tiger:source" v="tiger_import_dch_v0.6_20070809"/>
    <tag k="tiger:tlid" v="128237430"/>
    <tag k="tiger:zip_left" v="85283"/>
    <tag k="tiger:zip_right" v="85283"/>
  </way>
  <way id="28751548" version="5" timestamp="2009-06-11T16:01:45Z" uid="43863" user="Rundling" changeset="1488704">
    <nd ref="364368944"/>
    <nd ref="386882216"/>
    <nd ref="316120592"/>
    <nd ref="316120594"/>
    <nd ref="316120595"/>
    <nd ref="316120598"/>
    <nd ref="316120599"/>
    <nd ref="316120600"/>
    <nd ref="316120601"/>
    <nd ref="316121094"/>
    <nd ref="258995507"/>
    <tag k="railway" v="rail"/>
  </way>
  <way id="28751548" version="6" timestamp="2011-04-20T13:39:41Z" uid="162161" user="holzheizer" changeset="7916358">
    <nd ref="364368944"/>
    <nd ref="386882216"/>
    <nd ref="316120592"/>
    <nd ref="316120594"/>
    <nd ref="316120595"/>
    <nd ref="316120598"/>
    <nd ref="316120599"/>
    <nd ref="316120600"/>
    <nd ref="316120601"/>
    <nd ref="1252424787"/>
    <nd ref="316121094"/>
    <nd ref="258995507"/>
    <tag k="railway" v="rail"/>
  </way>
  <way id="28751569" version="1" timestamp="2008-12-01T20:49:30Z" uid="20587" user="balrog-kun" changeset="19969">
    <nd ref="308595311"/>
    <nd ref="308595302"/>
    <nd ref="308595295"/>
    <nd ref="308595292"/>
    <nd ref="308595311"/>
    <tag k="addr:housenumber" v="31"/>
    <tag k="addr:street" v="Nowy wiat"/>
    <tag k="building" v="yes"/>
  </way>
  <way id="28751569" version="2" timestamp="2009-01-08T20:00:59Z" uid="20587" user="balrog-kun" changeset="757533">
    <nd ref="308595311"/>
    <nd ref="308595302"/>
    <nd ref="308595295"/>
    <nd ref="308595292"/>
    <nd ref="308595311"/>
    <tag k="addr:housenumber" v="31"/>
    <tag k="addr:street" v="Nowy wiat"/>
    <tag k="building" v="yes"/>
    <tag k="building:levels" v="3"/>
  </way>
  <way id="28751878" version="3" timestamp="2008-12-04T20:41:28Z" uid="6975" user="ulfl" changeset="107048">
    <nd ref="316123205"/>
    <nd ref="316123206"/>
    <nd ref="316123207"/>
    <nd ref="316123208"/>
    <nd ref="316123209"/>
    <nd ref="316123210"/>
    <nd ref="316123212"/>
    <nd ref="316123214"/>
    <nd ref="316123215"/>
    <nd ref="316123196"/>
    <tag k="highway" v="track"/>
    <tag k="tracktype" v="grade3"/>
  </way>
  <way id="28751878" version="4" timestamp="2008-12-06T15:04:24Z" uid="81477" user="Dueppi" changeset="176750">
    <nd ref="316123205"/>
    <nd ref="316123206"/>
    <nd ref="316123207"/>
    <nd ref="316123208"/>
    <nd ref="316123209"/>
    <nd ref="316123210"/>
    <nd ref="316123212"/>
    <nd ref="316123196"/>
    <tag k="created_by" v="Potlatch 0.10f"/>
    <tag k="highway" v="track"/>
    <tag k="tracktype" v="grade3"/>
  </way>
  <way id="28751878" version="5" timestamp="2008-12-06T21:10:52Z" uid="81477" user="Dueppi" changeset="214862">
    <nd ref="316123205"/>
    <nd ref="316123207"/>
    <nd ref="316123209"/>
    <nd ref="316123196"/>
    <tag k="created_by" v="Potlatch 0.10f"/>
    <tag k="highway" v="track"/>
    <tag k="tracktype" v="grade3"/>
  </way>
  <way id="28751878" version="6" timestamp="2008-12-21T20:21:30Z" uid="81477" user="Dueppi" changeset="521377">
    <nd ref="316123205"/>
    <nd ref="316123207"/>
    <nd ref="316123209"/>
    <nd ref="316123196"/>
    <tag k="created_by" v="Potlatch 0.10f"/>
    <tag k="highway" v="track"/>
    <tag k="tracktype" v="grade3"/>
  </way>
  <way id="28751878" version="7" timestamp="2008-12-29T17:21:25Z" uid="81477" user="Dueppi" changeset="659568">
    <nd ref="316123205"/>
    <nd ref="316123207"/>
    <nd ref="316970809"/>
    <nd ref="316123209"/>
    <nd ref="316123196"/>
    <tag k="created_by" v="Potlatch 0.10f"/>
    <tag k="highway" v="track"/>
    <tag k="tracktype" v="grade3"/>
  </way>
  <way id="28751878" version="8" timestamp="2009-01-03T19:32:37Z" uid="81477" user="Dueppi" changeset="726010">
    <nd ref="316123205"/>
    <nd ref="316123207"/>
    <nd ref="316970809"/>
    <nd ref="316123209"/>
    <nd ref="316123196"/>
    <tag k="highway" v="track"/>
    <tag k="tracktype" v="grade3"/>
  </way>
  <way id="28751878" version="9" timestamp="2009-02-21T16:42:03Z" uid="81477" user="Dueppi" changeset="590573">
    <nd ref="316123205"/>
    <nd ref="316123207"/>
    <nd ref="316970809"/>
    <nd ref="316123209"/>
    <nd ref="348343109"/>
    <nd ref="316123196"/>
    <tag k="highway" v="track"/>
    <tag k="tracktype" v="grade3"/>
  </way>
  <way id="28751962" version="1" timestamp="2008-12-01T21:02:34Z" uid="6269" user="Mueck" changeset="34612">
    <nd ref="292585964"/>
    <nd ref="292585966"/>
    <nd ref="292585968"/>
    <nd ref="292585969"/>
    <nd ref="292585970"/>
    <nd ref="292585971"/>
    <nd ref="292585972"/>
    <tag k="admin_level" v="10"/>
    <tag k="boundary" v="administrative"/>
    <tag k="note" v="neuer level nach DE:Grenze Stadtteil ohne Selbstverwaltung"/>
  </way>
  <way id="28751962" version="2" timestamp="2009-10-17T08:47:41Z" uid="11374" user="q_un_go" changeset="2871581">
    <nd ref="292585964"/>
    <nd ref="292585966"/>
    <nd ref="292585968"/>
    <nd ref="292585969"/>
    <nd ref="292585970"/>
    <nd ref="292585971"/>
    <nd ref="292585972"/>
    <tag k="admin_level" v="9"/>
    <tag k="boundary" v="administrative"/>
    <tag k="note" v="neuer level nach DE:Grenze Stadtteil ohne Selbstverwaltung"/>
  </way>
  <way id="28751962" version="3" timestamp="2012-01-06T21:07:51Z" uid="11374" user="q_un_go" changeset="10316114"/>
  <way id="28751963" version="1" timestamp="2008-12-01T21:02:34Z" uid="6269" user="Mueck" changeset="34612">
    <nd ref="292485848"/>
    <nd ref="292485852"/>
    <tag k="admin_level" v="9"/>
    <tag k="boundary" v="administrative"/>
  </way>
  <way id="28751963" version="2" timestamp="2009-01-13T12:51:13Z" uid="6893" user="[HEK]the_other" changeset="783332">
    <nd ref="292485848"/>
    <nd ref="324145543"/>
    <tag k="admin_level" v="9"/>
    <tag k="boundary" v="administrative"/>
  </way>
  <way id="28751963" version="3" timestamp="2012-01-05T17:08:19Z" uid="11374" user="q_un_go" changeset="10303074"/>
</osm>
