<?xml version='1.0' encoding='UTF-8'?>
<osm version="0.6" generator="libosmium/2.20.0">
  <way id="28896000" version="1" timestamp="2008-12-09T19:28:18Z" uid="33382" user="de_muur" changeset="278016">
    <nd ref="317630600"/>
    <nd ref="317630628"/>
    <nd ref="317630630"/>
    <nd ref="317630632"/>
    <nd ref="317630634"/>
    <nd ref="317630635"/>
    <nd ref="317630637"/>
    <nd ref="317630639"/>
    <nd ref="317630640"/>
    <nd ref="317630642"/>
    <nd ref="317630644"/>
    <nd ref="317630646"/>
    <nd ref="317630627"/>
    <nd ref="317630647"/>
    <nd ref="317630649"/>
    <nd ref="317630651"/>
    <nd ref="317630652"/>
    <nd ref="317630654"/>
    <nd ref="317630656"/>
    <nd ref="317630658"/>
    <nd ref="317630659"/>
    <nd ref="317630660"/>
    <nd ref="316055814"/>
    <nd ref="317630661"/>
    <nd ref="317630667"/>
    <nd ref="317630674"/>
    <nd ref="317630684"/>
    <nd ref="317630689"/>
    <nd ref="317630690"/>
    <nd ref="317630691"/>
    <nd ref="317630692"/>
    <nd ref="317630693"/>
    <nd ref="317630694"/>
    <nd ref="317630695"/>
    <nd ref="317630696"/>
    <nd ref="317630697"/>
    <nd ref="317630698"/>
    <nd ref="317630699"/>
    <nd ref="317630700"/>
    <nd ref="317630701"/>
    <nd ref="317630702"/>
    <nd ref="317630600"/>
    <tag k="created_by" v="JOSM"/>
    <tag k="highway" v="footway"/>
    <tag k="surface" v="unpaved"/>
  </way>
  <way id="28896001" version="1" timestamp="2008-12-09T19:28:19Z" uid="33382" user="de_muur" changeset="278016">
    <nd ref="317630634"/>
    <nd ref="317630704"/>
    <nd ref="317630706"/>
    <nd ref="317630625"/>
    <nd ref="317630707"/>
    <nd ref="317630709"/>
    <nd ref="317630615"/>
    <nd ref="317630712"/>
    <nd ref="317630715"/>
    <nd ref="317630698"/>
    <tag k="created_by" v="JOSM"/>
    <tag k="highway" v="footway"/>
    <tag k="surface" v="unpaved"/>
  </way>
  <way id="28896060" version="8" timestamp="2011-01-25T10:56:53Z" uid="115477" user="wowik" changeset="7082367">
    <nd ref="317630731"/>
    <nd ref="317630736"/>
    <nd ref="1119786220"/>
    <nd ref="1119786124"/>
    <nd ref="317630739"/>
    <nd ref="317630742"/>
    <nd ref="317630731"/>
    <tag k="addr:city" v="Москва"/>
    <tag k="addr:country" v="RU"/>
    <tag k="addr:housenumber" v="87 к2"/>
    <tag k="addr:postcode" v="125481"/>
    <tag k="addr:street" v="улица Свободы"/>
    <tag k="building" v="yes"/>
    <tag k="cladr:code" v="77000000000258900"/>
  </way>
  <way id="28896060" version="9" timestamp="2011-01-28T11:31:00Z" uid="206282" user="Amigo" changeset="7112045">
    <nd ref="317630731"/>
    <nd ref="317630736"/>
    <nd ref="1119786220"/>
    <nd ref="1119786124"/>
    <nd ref="317630739"/>
    <nd ref="317630742"/>
    <nd ref="317630731"/>
    <tag k="addr:city" v="Москва"/>
    <tag k="addr:country" v="RU"/>
    <tag k="addr:housenumber" v="87 к2"/>
    <tag k="addr:postcode" v="125481"/>
    <tag k="addr:street" v="улица Свободы"/>
    <tag k="building" v="yes"/>
    <tag k="building:levels" v="3"/>
    <tag k="cladr:code" v="77000000000258900"/>
  </way>
  <way id="28896060" version="10" timestamp="2011-02-06T17:07:14Z" uid="115477" user="wowik" changeset="7206339"/>
  <way id="28896061" version="6" timestamp="2011-01-25T10:56:45Z" uid="115477" user="wowik" changeset="7082367">
    <nd ref="317630746"/>
    <nd ref="317630744"/>
    <nd ref="317630743"/>
    <nd ref="1119786216"/>
    <nd ref="1119786040"/>
    <nd ref="317630745"/>
    <nd ref="317630746"/>
    <tag k="addr:city" v="Москва"/>
    <tag k="addr:country" v="RU"/>
    <tag k="addr:housenumber" v="16 к7"/>
    <tag k="addr:postcode" v="125481"/>
    <tag k="addr:street" v="Планерная улица"/>
    <tag k="building" v="yes"/>
    <tag k="building:levels" v="3"/>
    <tag k="cladr:code" v="77000000000229000"/>
  </way>
  <way id="28896061" version="7" timestamp="2011-01-25T11:33:08Z" uid="115477" user="wowik" changeset="7082670">
    <nd ref="317630746"/>
    <nd ref="317630744"/>
    <nd ref="317630743"/>
    <nd ref="1119786216"/>
    <nd ref="317630745"/>
    <nd ref="1119809611"/>
    <nd ref="317630746"/>
    <tag k="addr:city" v="Москва"/>
    <tag k="addr:country" v="RU"/>
    <tag k="addr:housenumber" v="16 к7"/>
    <tag k="addr:postcode" v="125481"/>
    <tag k="addr:street" v="Планерная улица"/>
    <tag k="building" v="yes"/>
    <tag k="building:levels" v="3"/>
    <tag k="cladr:code" v="77000000000229000"/>
  </way>
  <way id="28896061" version="8" timestamp="2011-02-06T17:14:09Z" uid="115477" user="wowik" changeset="7206436">
    <nd ref="1119786189"/>
    <nd ref="1119786085"/>
    <nd ref="1119785898"/>
    <nd ref="1119786216"/>
    <nd ref="317630745"/>
    <nd ref="1119809520"/>
    <nd ref="1119809826"/>
    <nd ref="1119809738"/>
    <nd ref="1119786189"/>
    <tag k="addr:city" v="Москва"/>
    <tag k="addr:country" v="RU"/>
    <tag k="addr:housenumber" v="16 к7"/>
    <tag k="addr:postcode" v="125481"/>
    <tag k="addr:street" v="Планерная улица"/>
    <tag k="building" v="yes"/>
    <tag k="building:levels" v="3"/>
    <tag k="cladr:code" v="77000000000229000"/>
  </way>
  <way id="28896062" version="5" timestamp="2011-01-25T10:56:15Z" uid="115477" user="wowik" changeset="7082367">
    <nd ref="317630754"/>
    <nd ref="317630753"/>
    <nd ref="317630792"/>
    <nd ref="317630764"/>
    <nd ref="317630751"/>
    <nd ref="317630759"/>
    <nd ref="317630768"/>
    <nd ref="317630765"/>
    <nd ref="317630778"/>
    <nd ref="317630795"/>
    <nd ref="317630754"/>
    <tag k="addr:city" v="Москва"/>
    <tag k="addr:country" v="RU"/>
    <tag k="addr:housenumber" v="22 к2"/>
    <tag k="addr:postcode" v="125481"/>
    <tag k="addr:street" v="Планерная улица"/>
    <tag k="alt_name" v="ФГУП ГосНИИГА"/>
    <tag k="building" v="yes"/>
    <tag k="building:levels" v="3"/>
    <tag k="cladr:code" v="77000000000229000"/>
    <tag k="name" v="ГосНИИГА"/>
  </way>
  <way id="28896062" version="6" timestamp="2011-01-27T19:55:09Z" uid="206282" user="Amigo" changeset="7107016">
    <nd ref="317630754"/>
    <nd ref="317630753"/>
    <nd ref="317630792"/>
    <nd ref="317630764"/>
    <nd ref="317630751"/>
    <nd ref="317630759"/>
    <nd ref="317630768"/>
    <nd ref="317630765"/>
    <nd ref="317630778"/>
    <nd ref="317630795"/>
    <nd ref="317630754"/>
    <tag k="building" v="yes"/>
    <tag k="building:levels" v="3"/>
  </way>
  <way id="28896062" version="7" timestamp="2012-03-28T06:22:03Z" uid="481934" user="iWowik" changeset="11123401">
    <nd ref="317630754"/>
    <nd ref="317630753"/>
    <nd ref="317630792"/>
    <nd ref="317630764"/>
    <nd ref="317630751"/>
    <nd ref="317630759"/>
    <nd ref="317630768"/>
    <nd ref="317630765"/>
    <nd ref="317630778"/>
    <nd ref="317630795"/>
    <nd ref="317630754"/>
    <tag k="addr:city" v="Москва"/>
    <tag k="addr:country" v="RU"/>
    <tag k="building" v="yes"/>
    <tag k="building:levels" v="3"/>
  </way>
  <way id="28896063" version="5" timestamp="2011-01-25T10:57:00Z" uid="115477" user="wowik" changeset="7082367">
    <nd ref="317630803"/>
    <nd ref="317630799"/>
    <nd ref="317630797"/>
    <nd ref="1119786128"/>
    <nd ref="1119785992"/>
    <nd ref="317630802"/>
    <nd ref="317630803"/>
    <tag k="addr:city" v="Москва"/>
    <tag k="addr:country" v="RU"/>
    <tag k="addr:housenumber" v="95"/>
    <tag k="addr:postcode" v="125481"/>
    <tag k="addr:street" v="улица Свободы"/>
    <tag k="building" v="yes"/>
    <tag k="building:levels" v="3"/>
    <tag k="cladr:code" v="77000000000258900"/>
    <tag k="name" v="Детский санаторий №62"/>
  </way>
  <way id="28896063" version="6" timestamp="2011-02-06T17:15:31Z" uid="115477" user="wowik" changeset="7206463"/>
  <way id="28896064" version="8" timestamp="2011-01-25T12:39:12Z" uid="115477" user="wowik" changeset="7083203">
    <nd ref="317630807"/>
    <nd ref="317630809"/>
    <nd ref="1119844273"/>
    <nd ref="1119844135"/>
    <nd ref="317630808"/>
    <nd ref="1119844139"/>
    <nd ref="317630807"/>
    <tag k="addr:city" v="Москва"/>
    <tag k="addr:country" v="RU"/>
    <tag k="addr:housenumber" v="14 к4"/>
    <tag k="addr:postcode" v="125481"/>
    <tag k="addr:street" v="Планерная улица"/>
    <tag k="building" v="yes"/>
    <tag k="building:levels" v="3"/>
    <tag k="cladr:code" v="77000000000229000"/>
  </way>
  <way id="28896064" version="9" timestamp="2011-02-06T17:07:14Z" uid="115477" user="wowik" changeset="7206339"/>
  <way id="28896065" version="8" timestamp="2011-01-25T10:56:25Z" uid="115477" user="wowik" changeset="7082367">
    <nd ref="317630829"/>
    <nd ref="317630828"/>
    <nd ref="317630836"/>
    <nd ref="317630837"/>
    <nd ref="317630827"/>
    <nd ref="317630825"/>
    <nd ref="317630835"/>
    <nd ref="317630817"/>
    <nd ref="317630819"/>
    <nd ref="317630833"/>
    <nd ref="317630829"/>
    <tag k="addr:city" v="Москва"/>
    <tag k="addr:country" v="RU"/>
    <tag k="addr:housenumber" v="81 к6"/>
    <tag k="addr:postcode" v="125481"/>
    <tag k="addr:street" v="улица Свободы"/>
    <tag k="building" v="yes"/>
    <tag k="building:levels" v="3"/>
    <tag k="cladr:code" v="77000000000258900"/>
  </way>
  <way id="28896065" version="9" timestamp="2011-01-27T20:12:16Z" uid="206282" user="Amigo" changeset="7107118">
    <nd ref="317630829"/>
    <nd ref="317630828"/>
    <nd ref="317630836"/>
    <nd ref="317630837"/>
    <nd ref="317630827"/>
    <nd ref="317630825"/>
    <nd ref="317630835"/>
    <nd ref="317630817"/>
    <nd ref="317630819"/>
    <nd ref="317630833"/>
    <nd ref="317630829"/>
    <tag k="building" v="yes"/>
    <tag k="building:levels" v="2"/>
  </way>
  <way id="28896065" version="10" timestamp="2011-02-06T16:30:47Z" uid="115477" user="wowik" changeset="7205768">
    <nd ref="317630829"/>
    <nd ref="317630828"/>
    <nd ref="317630836"/>
    <nd ref="317630837"/>
    <nd ref="317630827"/>
    <nd ref="317630825"/>
    <nd ref="317630835"/>
    <nd ref="317630817"/>
    <nd ref="317630819"/>
    <nd ref="317630833"/>
    <nd ref="317630829"/>
    <tag k="building" v="yes"/>
    <tag k="building:levels" v="3"/>
  </way>
  <way id="28896065" version="11" timestamp="2012-03-28T06:22:03Z" uid="481934" user="iWowik" changeset="11123401">
    <nd ref="317630829"/>
    <nd ref="317630828"/>
    <nd ref="317630836"/>
    <nd ref="317630837"/>
    <nd ref="317630827"/>
    <nd ref="317630825"/>
    <nd ref="317630835"/>
    <nd ref="317630817"/>
    <nd ref="317630819"/>
    <nd ref="317630833"/>
    <nd ref="317630829"/>
    <tag k="addr:city" v="Москва"/>
    <tag k="addr:country" v="RU"/>
    <tag k="building" v="yes"/>
    <tag k="building:levels" v="3"/>
  </way>
  <way id="28896066" version="9" timestamp="2011-01-25T12:05:06Z" uid="115477" user="wowik" changeset="7082915">
    <nd ref="317630840"/>
    <nd ref="317630843"/>
    <nd ref="317630842"/>
    <nd ref="317630856"/>
    <nd ref="317630853"/>
    <nd ref="317630859"/>
    <nd ref="317630851"/>
    <nd ref="317630849"/>
    <nd ref="317630866"/>
    <nd ref="317630868"/>
    <nd ref="317630840"/>
    <tag k="addr:city" v="Москва"/>
    <tag k="addr:country" v="RU"/>
    <tag k="addr:housenumber" v="81 к1"/>
    <tag k="addr:postcode" v="125481"/>
    <tag k="addr:street" v="улица Свободы"/>
    <tag k="building" v="yes"/>
    <tag k="building:levels" v="3"/>
    <tag k="cladr:code" v="77000000000258900"/>
  </way>
  <way id="28896066" version="10" timestamp="2011-01-27T20:10:30Z" uid="206282" user="Amigo" changeset="7107118">
    <nd ref="317630840"/>
    <nd ref="317630843"/>
    <nd ref="317630842"/>
    <nd ref="317630856"/>
    <nd ref="317630853"/>
    <nd ref="317630859"/>
    <nd ref="317630851"/>
    <nd ref="317630849"/>
    <nd ref="317630866"/>
    <nd ref="317630868"/>
    <nd ref="317630840"/>
    <tag k="building" v="yes"/>
    <tag k="building:levels" v="2"/>
  </way>
  <way id="28896066" version="11" timestamp="2011-02-06T17:07:10Z" uid="115477" user="wowik" changeset="7206339">
    <nd ref="317630840"/>
    <nd ref="317630843"/>
    <nd ref="317630842"/>
    <nd ref="317630856"/>
    <nd ref="317630853"/>
    <nd ref="317630859"/>
    <nd ref="317630851"/>
    <nd ref="317630849"/>
    <nd ref="317630866"/>
    <nd ref="317630868"/>
    <nd ref="317630840"/>
    <tag k="building" v="yes"/>
    <tag k="building:levels" v="3"/>
  </way>
  <way id="28896066" version="12" timestamp="2012-03-28T06:22:02Z" uid="481934" user="iWowik" changeset="11123401">
    <nd ref="317630840"/>
    <nd ref="317630843"/>
    <nd ref="317630842"/>
    <nd ref="317630856"/>
    <nd ref="317630853"/>
    <nd ref="317630859"/>
    <nd ref="317630851"/>
    <nd ref="317630849"/>
    <nd ref="317630866"/>
    <nd ref="317630868"/>
    <nd ref="317630840"/>
    <tag k="addr:city" v="Москва"/>
    <tag k="addr:country" v="RU"/>
    <tag k="building" v="yes"/>
    <tag k="building:levels" v="3"/>
  </way>
  <way id="28896067" version="8" timestamp="2011-01-25T12:49:33Z" uid="115477" user="wowik" changeset="7083302">
    <nd ref="317630875"/>
    <nd ref="317630880"/>
    <nd ref="1119851653"/>
    <nd ref="1119851625"/>
    <nd ref="317630873"/>
    <nd ref="317630871"/>
    <nd ref="317630875"/>
    <tag k="addr:city" v="Москва"/>
    <tag k="addr:country" v="RU"/>
    <tag k="addr:housenumber" v="12 к2"/>
    <tag k="addr:street" v="улица Фомичёвой"/>
    <tag k="building" v="yes"/>
    <tag k="building:levels" v="3"/>
    <tag k="cladr:code" v="77000000000299600"/>
  </way>
  <way id="28896067" version="9" timestamp="2011-02-06T17:14:15Z" uid="115477" user="wowik" changeset="7206436"/>
  <way id="28896068" version="8" timestamp="2011-01-25T12:49:31Z" uid="115477" user="wowik" changeset="7083302">
    <nd ref="317630889"/>
    <nd ref="317630887"/>
    <nd ref="1119851683"/>
    <nd ref="1119851691"/>
    <nd ref="317630888"/>
    <nd ref="317630886"/>
    <nd ref="317630889"/>
    <tag k="addr:city" v="Москва"/>
    <tag k="addr:country" v="RU"/>
    <tag k="addr:housenumber" v="8 к1"/>
    <tag k="addr:street" v="улица Фомичёвой"/>
    <tag k="building" v="yes"/>
    <tag k="building:levels" v="3"/>
    <tag k="cladr:code" v="77000000000299600"/>
    <tag k="name" v="Северо-Западное Окружное управление Образования Централизованная бухгалтерия №8"/>
  </way>
  <way id="28896068" version="9" timestamp="2011-02-06T17:14:16Z" uid="115477" user="wowik" changeset="7206436"/>
  <way id="28896069" version="9" timestamp="2011-01-25T12:39:28Z" uid="115477" user="wowik" changeset="7083203">
    <nd ref="317630898"/>
    <nd ref="317630891"/>
    <nd ref="1119844113"/>
    <nd ref="1119844131"/>
    <nd ref="317630894"/>
    <nd ref="1119844038"/>
    <nd ref="317630898"/>
    <tag k="addr:city" v="Москва"/>
    <tag k="addr:country" v="RU"/>
    <tag k="addr:housenumber" v="16 к4"/>
    <tag k="addr:street" v="улица Фомичёвой"/>
    <tag k="building" v="yes"/>
    <tag k="cladr:code" v="77000000000299600"/>
  </way>
  <way id="28896069" version="10" timestamp="2011-01-25T12:49:35Z" uid="115477" user="wowik" changeset="7083302">
    <nd ref="317630898"/>
    <nd ref="317630891"/>
    <nd ref="1119844113"/>
    <nd ref="1119844131"/>
    <nd ref="317630894"/>
    <nd ref="1119844038"/>
    <nd ref="317630898"/>
    <tag k="addr:city" v="Москва"/>
    <tag k="addr:country" v="RU"/>
    <tag k="addr:housenumber" v="16 к4"/>
    <tag k="addr:street" v="улица Фомичёвой"/>
    <tag k="building" v="yes"/>
    <tag k="building:levels" v="3"/>
    <tag k="cladr:code" v="77000000000299600"/>
  </way>
  <way id="28896069" version="11" timestamp="2011-02-06T17:14:16Z" uid="115477" user="wowik" changeset="7206436"/>
  <way id="28896106" version="7" timestamp="2011-01-25T10:56:55Z" uid="115477" user="wowik" changeset="7082367">
    <nd ref="317631213"/>
    <nd ref="317631217"/>
    <nd ref="317631219"/>
    <nd ref="317631215"/>
    <nd ref="317631213"/>
    <tag k="addr:city" v="Москва"/>
    <tag k="addr:country" v="RU"/>
    <tag k="addr:housenumber" v="83 к1"/>
    <tag k="addr:postcode" v="125481"/>
    <tag k="addr:street" v="улица Свободы"/>
    <tag k="building" v="yes"/>
    <tag k="building:levels" v="5"/>
    <tag k="cladr:code" v="77000000000258900"/>
  </way>
  <way id="28896114" version="9" timestamp="2011-01-25T12:39:02Z" uid="115477" user="wowik" changeset="7083203">
    <nd ref="317631273"/>
    <nd ref="317631266"/>
    <nd ref="317631268"/>
    <nd ref="317631263"/>
    <nd ref="317631271"/>
    <nd ref="317631272"/>
    <nd ref="317631281"/>
    <nd ref="317631274"/>
    <nd ref="317631269"/>
    <nd ref="317631285"/>
    <nd ref="317631273"/>
    <tag k="addr:city" v="Москва"/>
    <tag k="addr:country" v="RU"/>
    <tag k="addr:housenumber" v="12 к2"/>
    <tag k="addr:postcode" v="125481"/>
    <tag k="addr:street" v="Планерная улица"/>
    <tag k="building" v="yes"/>
    <tag k="cladr:code" v="77000000000229000"/>
  </way>
  <way id="28896114" version="10" timestamp="2011-01-25T12:49:32Z" uid="115477" user="wowik" changeset="7083302">
    <nd ref="317631273"/>
    <nd ref="317631266"/>
    <nd ref="317631268"/>
    <nd ref="317631263"/>
    <nd ref="317631271"/>
    <nd ref="317631272"/>
    <nd ref="317631281"/>
    <nd ref="317631274"/>
    <nd ref="317631269"/>
    <nd ref="317631285"/>
    <nd ref="317631273"/>
    <tag k="addr:city" v="Москва"/>
    <tag k="addr:country" v="RU"/>
    <tag k="addr:housenumber" v="12 к2"/>
    <tag k="addr:postcode" v="125481"/>
    <tag k="addr:street" v="Планерная улица"/>
    <tag k="building" v="yes"/>
    <tag k="building:levels" v="3"/>
    <tag k="cladr:code" v="77000000000229000"/>
  </way>
  <way id="28896114" version="11" timestamp="2011-01-27T20:13:28Z" uid="206282" user="Amigo" changeset="7107118">
    <nd ref="317631273"/>
    <nd ref="317631266"/>
    <nd ref="317631268"/>
    <nd ref="317631263"/>
    <nd ref="317631271"/>
    <nd ref="317631272"/>
    <nd ref="317631281"/>
    <nd ref="317631274"/>
    <nd ref="317631269"/>
    <nd ref="317631285"/>
    <nd ref="317631273"/>
    <tag k="building" v="yes"/>
    <tag k="building:levels" v="2"/>
  </way>
  <way id="28896114" version="12" timestamp="2011-02-06T17:07:10Z" uid="115477" user="wowik" changeset="7206339">
    <nd ref="317631273"/>
    <nd ref="317631266"/>
    <nd ref="317631268"/>
    <nd ref="317631263"/>
    <nd ref="317631271"/>
    <nd ref="317631272"/>
    <nd ref="317631281"/>
    <nd ref="317631274"/>
    <nd ref="317631269"/>
    <nd ref="317631285"/>
    <nd ref="317631273"/>
    <tag k="building" v="yes"/>
    <tag k="building:levels" v="3"/>
  </way>
  <way id="28896114" version="13" timestamp="2012-03-28T06:22:01Z" uid="481934" user="iWowik" changeset="11123401">
    <nd ref="317631273"/>
    <nd ref="317631266"/>
    <nd ref="317631268"/>
    <nd ref="317631263"/>
    <nd ref="317631271"/>
    <nd ref="317631272"/>
    <nd ref="317631281"/>
    <nd ref="317631274"/>
    <nd ref="317631269"/>
    <nd ref="317631285"/>
    <nd ref="317631273"/>
    <tag k="addr:city" v="Москва"/>
    <tag k="addr:country" v="RU"/>
    <tag k="building" v="yes"/>
    <tag k="building:levels" v="3"/>
  </way>
  <way id="28896116" version="7" timestamp="2011-01-25T13:39:48Z" uid="115477" user="wowik" changeset="7083719">
    <nd ref="317631294"/>
    <nd ref="1119881336"/>
    <nd ref="317631292"/>
    <nd ref="685127901"/>
    <nd ref="317631291"/>
    <nd ref="317631293"/>
    <nd ref="317631294"/>
    <tag k="addr:city" v="Москва"/>
    <tag k="addr:country" v="RU"/>
    <tag k="addr:housenumber" v="5 к2"/>
    <tag k="addr:street" v="улица Фомичёвой"/>
    <tag k="building" v="yes"/>
    <tag k="cladr:code" v="77000000000299600"/>
  </way>
  <way id="28896117" version="6" timestamp="2011-01-25T13:39:40Z" uid="115477" user="wowik" changeset="7083719">
    <nd ref="317631296"/>
    <nd ref="665733983"/>
    <nd ref="317631295"/>
    <nd ref="317631297"/>
    <nd ref="317631296"/>
    <tag k="addr:city" v="Москва"/>
    <tag k="addr:country" v="RU"/>
    <tag k="addr:housenumber" v="6 к3"/>
    <tag k="addr:street" v="улица Героев Панфиловцев"/>
    <tag k="building" v="yes"/>
    <tag k="building:levels" v="1"/>
    <tag k="cladr:code" v="77000000000107300"/>
  </way>
  <way id="28896127" version="5" timestamp="2011-01-25T13:40:07Z" uid="115477" user="wowik" changeset="7083719">
    <nd ref="317631334"/>
    <nd ref="317631336"/>
    <nd ref="1119881247"/>
    <nd ref="1119881188"/>
    <nd ref="1119881383"/>
    <nd ref="1119881335"/>
    <nd ref="1119881208"/>
    <nd ref="1119881296"/>
    <nd ref="317631337"/>
    <nd ref="317631335"/>
    <nd ref="317631334"/>
    <tag k="addr:city" v="Москва"/>
    <tag k="addr:country" v="RU"/>
    <tag k="addr:housenumber" v="10"/>
    <tag k="addr:street" v="Химкинский бульвар"/>
    <tag k="building" v="yes"/>
    <tag k="cladr:code" v="77000000000302800"/>
  </way>
  <way id="28896127" version="6" timestamp="2011-05-29T21:37:39Z" uid="244719" user="BigViking" changeset="8285807"/>
  <way id="28896129" version="5" timestamp="2011-01-25T13:40:10Z" uid="115477" user="wowik" changeset="7083719">
    <nd ref="317631338"/>
    <nd ref="317631345"/>
    <nd ref="1119881309"/>
    <nd ref="1119881260"/>
    <nd ref="317631339"/>
    <nd ref="317631342"/>
    <nd ref="317631338"/>
    <tag k="addr:city" v="Москва"/>
    <tag k="addr:country" v="RU"/>
    <tag k="addr:housenumber" v="6 к2"/>
    <tag k="addr:street" v="улица Героев Панфиловцев"/>
    <tag k="amenity" v="kindergarten"/>
    <tag k="building" v="yes"/>
    <tag k="building:levels" v="3"/>
    <tag k="cladr:code" v="77000000000107300"/>
    <tag k="name" v="Детский сад №259"/>
  </way>
  <way id="28896129" version="6" timestamp="2011-02-06T17:07:14Z" uid="115477" user="wowik" changeset="7206339"/>
  <way id="28896133" version="8" timestamp="2011-01-25T12:39:13Z" uid="115477" user="wowik" changeset="7083203">
    <nd ref="317631362"/>
    <nd ref="317631360"/>
    <nd ref="317631365"/>
    <nd ref="1119844106"/>
    <nd ref="1119844239"/>
    <nd ref="317631355"/>
    <nd ref="317631362"/>
    <tag k="addr:city" v="Москва"/>
    <tag k="addr:country" v="RU"/>
    <tag k="addr:housenumber" v="12 к7"/>
    <tag k="addr:postcode" v="125481"/>
    <tag k="addr:street" v="Планерная улица"/>
    <tag k="building" v="yes"/>
    <tag k="cladr:code" v="77000000000229000"/>
  </way>
  <way id="28896133" version="9" timestamp="2011-01-28T11:31:00Z" uid="206282" user="Amigo" changeset="7112045">
    <nd ref="317631362"/>
    <nd ref="317631360"/>
    <nd ref="317631365"/>
    <nd ref="1119844106"/>
    <nd ref="1119844239"/>
    <nd ref="317631355"/>
    <nd ref="317631362"/>
    <tag k="addr:city" v="Москва"/>
    <tag k="addr:country" v="RU"/>
    <tag k="addr:housenumber" v="12 к7"/>
    <tag k="addr:postcode" v="125481"/>
    <tag k="addr:street" v="Планерная улица"/>
    <tag k="building" v="yes"/>
    <tag k="building:levels" v="3"/>
    <tag k="cladr:code" v="77000000000229000"/>
  </way>
  <way id="28896133" version="10" timestamp="2011-02-06T17:07:06Z" uid="115477" user="wowik" changeset="7206339">
    <nd ref="317631362"/>
    <nd ref="317631360"/>
    <nd ref="1119844058"/>
    <nd ref="1119844266"/>
    <nd ref="1119844194"/>
    <nd ref="1119844106"/>
    <nd ref="1119844239"/>
    <nd ref="1119844159"/>
    <nd ref="1119844053"/>
    <nd ref="1119844258"/>
    <nd ref="317631362"/>
    <tag k="addr:city" v="Москва"/>
    <tag k="addr:country" v="RU"/>
    <tag k="addr:housenumber" v="12 к7"/>
    <tag k="addr:postcode" v="125481"/>
    <tag k="addr:street" v="Планерная улица"/>
    <tag k="building" v="yes"/>
    <tag k="building:levels" v="3"/>
    <tag k="cladr:code" v="77000000000229000"/>
  </way>
  <way id="28896133" version="11" timestamp="2011-02-06T17:14:06Z" uid="115477" user="wowik" changeset="7206436">
    <nd ref="1119844058"/>
    <nd ref="1119844266"/>
    <nd ref="1119844194"/>
    <nd ref="1119844106"/>
    <nd ref="1119844239"/>
    <nd ref="1119844159"/>
    <nd ref="1119844053"/>
    <nd ref="1119844258"/>
    <nd ref="1119844058"/>
    <tag k="addr:city" v="Москва"/>
    <tag k="addr:country" v="RU"/>
    <tag k="addr:housenumber" v="12 к7"/>
    <tag k="addr:postcode" v="125481"/>
    <tag k="addr:street" v="Планерная улица"/>
    <tag k="building" v="yes"/>
    <tag k="building:levels" v="3"/>
    <tag k="cladr:code" v="77000000000229000"/>
  </way>
  <way id="28896133" version="12" timestamp="2011-12-23T08:23:17Z" uid="206282" user="Amigo" changeset="10185145">
    <nd ref="1119844058"/>
    <nd ref="1119844266"/>
    <nd ref="1119844194"/>
    <nd ref="1119844106"/>
    <nd ref="1119844239"/>
    <nd ref="1119844159"/>
    <nd ref="1119844053"/>
    <nd ref="1119844258"/>
    <nd ref="1119844058"/>
    <tag k="addr:city" v="Москва"/>
    <tag k="addr:country" v="RU"/>
    <tag k="addr:housenumber" v="12 к7"/>
    <tag k="addr:postcode" v="125481"/>
    <tag k="addr:street" v="Планерная улица"/>
    <tag k="building" v="kindergarten"/>
    <tag k="building:levels" v="3"/>
    <tag k="cladr:code" v="77000000000229000"/>
  </way>
  <way id="28896135" version="6" timestamp="2011-01-25T10:56:50Z" uid="115477" user="wowik" changeset="7082367">
    <nd ref="317631368"/>
    <nd ref="317631372"/>
    <nd ref="1119786142"/>
    <nd ref="1119786122"/>
    <nd ref="1119786031"/>
    <nd ref="1119786241"/>
    <nd ref="1119785951"/>
    <nd ref="1119785851"/>
    <nd ref="1119786061"/>
    <nd ref="1119786163"/>
    <nd ref="317631374"/>
    <nd ref="317631370"/>
    <nd ref="1119785862"/>
    <nd ref="1119786126"/>
    <nd ref="1119786225"/>
    <nd ref="1119786015"/>
    <nd ref="1119786198"/>
    <nd ref="1119786249"/>
    <nd ref="1119785974"/>
    <nd ref="1119786098"/>
    <nd ref="1119786016"/>
    <nd ref="1119786094"/>
    <nd ref="1119786195"/>
    <nd ref="1119786011"/>
    <nd ref="1119786269"/>
    <nd ref="1119786221"/>
    <nd ref="1119785913"/>
    <nd ref="1119786138"/>
    <nd ref="317631368"/>
    <tag k="addr:city" v="Москва"/>
    <tag k="addr:country" v="RU"/>
    <tag k="addr:housenumber" v="20"/>
    <tag k="addr:housenumber2" v="20"/>
    <tag k="addr:postcode" v="125481"/>
    <tag k="addr:street" v="Планерная улица"/>
    <tag k="amenity" v="doctors"/>
    <tag k="building" v="yes"/>
    <tag k="cladr:code" v="77000000000229000"/>
    <tag k="name" v="Детская поликлиника №4 (филиал)"/>
  </way>
  <way id="28896135" version="7" timestamp="2011-01-27T20:19:25Z" uid="206282" user="Amigo" changeset="7107294">
    <nd ref="317631368"/>
    <nd ref="317631372"/>
    <nd ref="1119786142"/>
    <nd ref="1119786122"/>
    <nd ref="1119786031"/>
    <nd ref="1119786241"/>
    <nd ref="1119785951"/>
    <nd ref="1119785851"/>
    <nd ref="1119786061"/>
    <nd ref="1119786163"/>
    <nd ref="317631374"/>
    <nd ref="317631370"/>
    <nd ref="1119785862"/>
    <nd ref="1119786126"/>
    <nd ref="1119786225"/>
    <nd ref="1119786015"/>
    <nd ref="1119786198"/>
    <nd ref="1119786249"/>
    <nd ref="1119785974"/>
    <nd ref="1119786098"/>
    <nd ref="1119786016"/>
    <nd ref="1119786094"/>
    <nd ref="1119786195"/>
    <nd ref="1119786011"/>
    <nd ref="1119786269"/>
    <nd ref="1119786221"/>
    <nd ref="1119785913"/>
    <nd ref="1119786138"/>
    <nd ref="317631368"/>
    <tag k="addr:city" v="Москва"/>
    <tag k="addr:country" v="RU"/>
    <tag k="addr:housenumber" v="20"/>
    <tag k="addr:postcode" v="125481"/>
    <tag k="addr:street" v="Планерная улица"/>
    <tag k="building" v="yes"/>
    <tag k="cladr:code" v="77000000000229000"/>
  </way>
  <way id="28896136" version="5" timestamp="2011-01-25T10:56:23Z" uid="115477" user="wowik" changeset="7082367">
    <nd ref="317631377"/>
    <nd ref="317631379"/>
    <nd ref="317631381"/>
    <nd ref="1119786224"/>
    <nd ref="317631375"/>
    <nd ref="317631377"/>
    <tag k="addr:city" v="Москва"/>
    <tag k="addr:country" v="RU"/>
    <tag k="addr:housenumber" v="22 к1"/>
    <tag k="addr:postcode" v="125481"/>
    <tag k="addr:street" v="Планерная улица"/>
    <tag k="building" v="yes"/>
    <tag k="building:use" v="residential"/>
    <tag k="cladr:code" v="77000000000229000"/>
  </way>
  <way id="28896139" version="6" timestamp="2011-01-25T12:04:47Z" uid="115477" user="wowik" changeset="7082915">
    <nd ref="317631390"/>
    <nd ref="1119823521"/>
    <nd ref="1119823431"/>
    <nd ref="1119823563"/>
    <nd ref="1119823469"/>
    <nd ref="317631393"/>
    <nd ref="317631394"/>
    <nd ref="317631395"/>
    <nd ref="317631396"/>
    <nd ref="317631397"/>
    <nd ref="317631398"/>
    <nd ref="1119823595"/>
    <nd ref="1119823447"/>
    <nd ref="1119823484"/>
    <nd ref="1119823473"/>
    <nd ref="317631399"/>
    <nd ref="317631400"/>
    <nd ref="317631401"/>
    <nd ref="317631402"/>
    <nd ref="317631403"/>
    <nd ref="317631390"/>
    <tag k="addr:city" v="Москва"/>
    <tag k="addr:country" v="RU"/>
    <tag k="addr:housenumber" v="71 к1"/>
    <tag k="addr:street" v="улица Свободы"/>
    <tag k="building" v="yes"/>
    <tag k="cladr:code" v="77000000000258900"/>
  </way>
  <way id="28896140" version="6" timestamp="2011-01-25T12:39:26Z" uid="115477" user="wowik" changeset="7083203">
    <nd ref="317631410"/>
    <nd ref="1119844165"/>
    <nd ref="1119844057"/>
    <nd ref="1119844265"/>
    <nd ref="1119844071"/>
    <nd ref="317631413"/>
    <nd ref="317631415"/>
    <nd ref="317631406"/>
    <nd ref="317631405"/>
    <nd ref="317631411"/>
    <nd ref="317631414"/>
    <nd ref="1119844036"/>
    <nd ref="1119844164"/>
    <nd ref="1119844240"/>
    <nd ref="1119844132"/>
    <nd ref="317631412"/>
    <nd ref="317631404"/>
    <nd ref="317631407"/>
    <nd ref="317631409"/>
    <nd ref="317631408"/>
    <nd ref="317631410"/>
    <tag k="addr:city" v="Москва"/>
    <tag k="addr:country" v="RU"/>
    <tag k="addr:housenumber" v="71"/>
    <tag k="addr:street" v="улица Свободы"/>
    <tag k="building" v="yes"/>
    <tag k="cladr:code" v="77000000000258900"/>
  </way>
  <way id="28896141" version="7" timestamp="2011-01-25T12:05:03Z" uid="115477" user="wowik" changeset="7082915">
    <nd ref="317631423"/>
    <nd ref="1119823497"/>
    <nd ref="1119823588"/>
    <nd ref="1119823508"/>
    <nd ref="1119823453"/>
    <nd ref="317631418"/>
    <nd ref="317631416"/>
    <nd ref="317631426"/>
    <nd ref="317631421"/>
    <nd ref="317631417"/>
    <nd ref="317631425"/>
    <nd ref="1119823549"/>
    <nd ref="1119823428"/>
    <nd ref="317631420"/>
    <nd ref="317631422"/>
    <nd ref="317631424"/>
    <nd ref="317631427"/>
    <nd ref="317631419"/>
    <nd ref="317631423"/>
    <tag k="addr:city" v="Москва"/>
    <tag k="addr:country" v="RU"/>
    <tag k="addr:housenumber" v="71 к2"/>
    <tag k="addr:postcode" v="125481"/>
    <tag k="addr:street" v="улица Свободы"/>
    <tag k="building" v="yes"/>
    <tag k="cladr:code" v="77000000000258900"/>
  </way>
  <way id="28896142" version="5" timestamp="2011-01-25T13:39:36Z" uid="115477" user="wowik" changeset="7083719">
    <nd ref="1119881178"/>
    <nd ref="1119881311"/>
    <nd ref="317631432"/>
    <nd ref="317631433"/>
    <nd ref="317631434"/>
    <nd ref="317631435"/>
    <nd ref="317631436"/>
    <nd ref="317631437"/>
    <nd ref="317631438"/>
    <nd ref="317631439"/>
    <nd ref="317631428"/>
    <nd ref="317631429"/>
    <nd ref="1119881178"/>
    <tag k="addr:city" v="Москва"/>
    <tag k="addr:country" v="RU"/>
    <tag k="addr:housenumber" v="61 к2"/>
    <tag k="addr:street" v="улица Свободы"/>
    <tag k="building" v="yes"/>
    <tag k="cladr:code" v="77000000000258900"/>
  </way>
  <way id="28896143" version="6" timestamp="2011-01-25T13:40:15Z" uid="115477" user="wowik" changeset="7083719">
    <nd ref="1119881242"/>
    <nd ref="317631446"/>
    <nd ref="317631440"/>
    <nd ref="317631451"/>
    <nd ref="317631450"/>
    <nd ref="317631444"/>
    <nd ref="317631449"/>
    <nd ref="317631448"/>
    <nd ref="317631441"/>
    <nd ref="317631445"/>
    <nd ref="317631447"/>
    <nd ref="599060215"/>
    <nd ref="1119881242"/>
    <tag k="addr:city" v="Москва"/>
    <tag k="addr:country" v="RU"/>
    <tag k="addr:housenumber" v="61"/>
    <tag k="addr:street" v="улица Свободы"/>
    <tag k="building" v="yes"/>
    <tag k="cladr:code" v="77000000000258900"/>
  </way>
  <way id="28896144" version="5" timestamp="2011-01-25T13:39:51Z" uid="115477" user="wowik" changeset="7083719">
    <nd ref="317631460"/>
    <nd ref="1119881238"/>
    <nd ref="1119881329"/>
    <nd ref="317631458"/>
    <nd ref="1119881154"/>
    <nd ref="1119881243"/>
    <nd ref="317631454"/>
    <nd ref="317631456"/>
    <nd ref="1119881327"/>
    <nd ref="1119881236"/>
    <nd ref="317631463"/>
    <nd ref="1119881212"/>
    <nd ref="1119881133"/>
    <nd ref="317631462"/>
    <nd ref="317631459"/>
    <nd ref="1119881387"/>
    <nd ref="1119881301"/>
    <nd ref="317631455"/>
    <nd ref="1119881281"/>
    <nd ref="1119881368"/>
    <nd ref="317631453"/>
    <nd ref="317631457"/>
    <nd ref="1119881172"/>
    <nd ref="1119881259"/>
    <nd ref="317631461"/>
    <nd ref="1119881350"/>
    <nd ref="1119881152"/>
    <nd ref="317631452"/>
    <nd ref="317631460"/>
    <tag k="addr:city" v="Москва"/>
    <tag k="addr:country" v="RU"/>
    <tag k="addr:housenumber" v="59"/>
    <tag k="addr:street" v="улица Свободы"/>
    <tag k="building" v="yes"/>
    <tag k="cladr:code" v="77000000000258900"/>
  </way>
  <way id="28896145" version="5" timestamp="2011-01-25T13:39:44Z" uid="115477" user="wowik" changeset="7083719">
    <nd ref="317631464"/>
    <nd ref="599063042"/>
    <nd ref="1119881264"/>
    <nd ref="599063045"/>
    <nd ref="317631466"/>
    <nd ref="1119881371"/>
    <nd ref="1119881286"/>
    <nd ref="1119881161"/>
    <nd ref="1119881357"/>
    <nd ref="1119881177"/>
    <nd ref="1119881223"/>
    <nd ref="1119881268"/>
    <nd ref="1119881182"/>
    <nd ref="1119881341"/>
    <nd ref="1119881321"/>
    <nd ref="1119881227"/>
    <nd ref="317631467"/>
    <nd ref="1119881126"/>
    <nd ref="1119881143"/>
    <nd ref="317631465"/>
    <nd ref="1119881204"/>
    <nd ref="1119881324"/>
    <nd ref="1119881130"/>
    <nd ref="1119881155"/>
    <nd ref="1119881293"/>
    <nd ref="1119881249"/>
    <nd ref="1119881339"/>
    <nd ref="1119881377"/>
    <nd ref="317631464"/>
    <tag k="addr:city" v="Москва"/>
    <tag k="addr:country" v="RU"/>
    <tag k="addr:housenumber" v="65"/>
    <tag k="addr:postcode" v="125364"/>
    <tag k="addr:street" v="улица Свободы"/>
    <tag k="building" v="yes"/>
    <tag k="cladr:code" v="77000000000258900"/>
  </way>
  <way id="28896147" version="8" timestamp="2011-01-25T13:40:00Z" uid="115477" user="wowik" changeset="7083719">
    <nd ref="685127943"/>
    <nd ref="685127946"/>
    <nd ref="685127949"/>
    <nd ref="685127952"/>
    <nd ref="685127955"/>
    <nd ref="685127959"/>
    <nd ref="685127962"/>
    <nd ref="685135958"/>
    <nd ref="685135960"/>
    <nd ref="685127943"/>
    <tag k="addr:housenumber" v="5"/>
    <tag k="addr:street" v="улица Фомичёвой"/>
    <tag k="amenity" v="school"/>
    <tag k="building" v="yes"/>
    <tag k="cladr:code" v="77000000000299600"/>
    <tag k="name" v="Школа №833"/>
  </way>
  <way id="28896147" version="9" timestamp="2012-03-28T06:21:57Z" uid="481934" user="iWowik" changeset="11123401">
    <nd ref="685127943"/>
    <nd ref="685127946"/>
    <nd ref="685127949"/>
    <nd ref="685127952"/>
    <nd ref="685127955"/>
    <nd ref="685127959"/>
    <nd ref="685127962"/>
    <nd ref="685135958"/>
    <nd ref="685135960"/>
    <nd ref="685127943"/>
    <tag k="addr:city" v="Москва"/>
    <tag k="addr:country" v="RU"/>
    <tag k="addr:housenumber" v="5"/>
    <tag k="addr:street" v="улица Фомичёвой"/>
    <tag k="amenity" v="school"/>
    <tag k="building" v="yes"/>
    <tag k="cladr:code" v="77000000000299600"/>
    <tag k="name" v="Школа №833"/>
  </way>
  <way id="28896279" version="3" timestamp="2010-05-02T09:28:49Z" uid="279514" user="Cheaterkenner" changeset="4582598">
    <nd ref="317632825"/>
    <nd ref="715862474"/>
    <nd ref="317632852"/>
    <nd ref="715862482"/>
    <nd ref="317632854"/>
    <nd ref="317632855"/>
    <nd ref="317632856"/>
    <nd ref="716748864"/>
    <nd ref="317632863"/>
    <nd ref="317632834"/>
    <tag k="highway" v="residential"/>
    <tag k="name" v="Hanns-Rott-Weg"/>
    <tag k="surface" v="paved"/>
    <tag k="width" v="4"/>
  </way>
  <way id="28896279" version="4" timestamp="2011-06-15T08:34:05Z" uid="81732" user="zahilb" changeset="8445010">
    <nd ref="317632825"/>
    <nd ref="715862474"/>
    <nd ref="715862482"/>
    <nd ref="317632854"/>
    <nd ref="1326144102"/>
    <nd ref="1326144029"/>
    <nd ref="1326143959"/>
    <nd ref="317632856"/>
    <nd ref="716748864"/>
    <nd ref="317632863"/>
    <nd ref="317632834"/>
    <tag k="highway" v="residential"/>
    <tag k="name" v="Hanns-Rott-Weg"/>
    <tag k="surface" v="paved"/>
    <tag k="width" v="4"/>
  </way>
  <way id="28896280" version="3" timestamp="2010-05-02T09:28:50Z" uid="279514" user="Cheaterkenner" changeset="4582598">
    <nd ref="317632844"/>
    <nd ref="716748869"/>
    <nd ref="317632865"/>
    <nd ref="317632867"/>
    <nd ref="317632871"/>
    <nd ref="317632874"/>
    <nd ref="317632882"/>
    <tag k="highway" v="residential"/>
    <tag k="name" v="Wilhelm-Holthaus-Weg"/>
    <tag k="surface" v="paved"/>
    <tag k="width" v="4"/>
  </way>
  <way id="28896280" version="4" timestamp="2010-05-02T09:34:00Z" uid="279514" user="Cheaterkenner" changeset="4582666">
    <nd ref="317632844"/>
    <nd ref="716748869"/>
    <nd ref="317632865"/>
    <nd ref="317632867"/>
    <nd ref="317632871"/>
    <nd ref="317632874"/>
    <nd ref="317632882"/>
    <tag k="highway" v="residential"/>
    <tag k="name" v="Wilhelm-Holthaus-Weg"/>
    <tag k="surface" v="unpaved"/>
    <tag k="width" v="4"/>
  </way>
  <way id="28896289" version="2" timestamp="2011-04-02T20:32:46Z" uid="66036" user="h4v" changeset="7748094">
    <nd ref="278600263"/>
    <nd ref="279397915"/>
    <nd ref="278600264"/>
    <nd ref="1229748934"/>
    <nd ref="297226342"/>
    <tag k="highway" v="tertiary"/>
    <tag k="name" v="Prymasowska"/>
  </way>
  <way id="28896340" version="2" timestamp="2010-05-11T01:31:43Z" uid="4467" user="Rosscoe" changeset="4665022">
    <nd ref="729371349"/>
    <nd ref="317633277"/>
    <nd ref="317633278"/>
    <nd ref="317633280"/>
    <nd ref="317633281"/>
    <nd ref="317633283"/>
    <nd ref="317633284"/>
    <nd ref="317633285"/>
    <nd ref="317633287"/>
    <nd ref="317633288"/>
    <nd ref="317633290"/>
    <nd ref="317633291"/>
    <nd ref="253312313"/>
    <tag k="highway" v="secondary"/>
  </way>
  <way id="28896340" version="3" timestamp="2010-11-02T09:54:21Z" uid="18775" user="drlizau" changeset="6266334">
    <nd ref="729371349"/>
    <nd ref="317633277"/>
    <nd ref="974428597"/>
    <nd ref="317633278"/>
    <nd ref="974428578"/>
    <nd ref="317633280"/>
    <nd ref="317633281"/>
    <tag k="highway" v="secondary"/>
    <tag k="name" v="Eyre Street"/>
    <tag k="source" v="survey"/>
  </way>
  <way id="28896340" version="4" timestamp="2011-01-30T11:10:30Z" uid="18775" user="drlizau" changeset="7132533">
    <nd ref="729371349"/>
    <nd ref="317633277"/>
    <nd ref="974428597"/>
    <nd ref="317633278"/>
    <nd ref="974428578"/>
    <nd ref="317633280"/>
    <nd ref="317633281"/>
    <tag k="highway" v="tertiary"/>
    <tag k="name" v="Eyre Street"/>
    <tag k="source" v="survey"/>
  </way>
  <way id="28896340" version="5" timestamp="2011-02-01T01:07:35Z" uid="18775" user="drlizau" changeset="7151093">
    <nd ref="729371349"/>
    <nd ref="317633277"/>
    <nd ref="974428597"/>
    <nd ref="317633278"/>
    <nd ref="974428578"/>
    <nd ref="317633280"/>
    <nd ref="1127749729"/>
    <nd ref="317633281"/>
    <tag k="highway" v="tertiary"/>
    <tag k="name" v="Eyre Street"/>
    <tag k="source" v="survey"/>
  </way>
  <way id="28896340" version="6" timestamp="2011-05-07T04:26:14Z" uid="67896" user="mrpulley" changeset="8070518">
    <nd ref="729371349"/>
    <nd ref="317633277"/>
    <nd ref="974428597"/>
    <nd ref="317633278"/>
    <nd ref="1275285044"/>
    <nd ref="974428578"/>
    <nd ref="317633280"/>
    <nd ref="1127749729"/>
    <nd ref="1275285042"/>
    <nd ref="317633281"/>
    <tag k="highway" v="tertiary"/>
    <tag k="name" v="Eyre Street"/>
    <tag k="source" v="survey"/>
  </way>
  <way id="28896342" version="2" timestamp="2009-08-20T08:11:31Z" uid="74617" user="JohnSmith" changeset="2209186">
    <nd ref="317633293"/>
    <nd ref="243987675"/>
    <nd ref="317633299"/>
    <nd ref="317633298"/>
    <nd ref="317633296"/>
    <nd ref="317633295"/>
    <nd ref="317633294"/>
    <nd ref="317633292"/>
    <nd ref="317633293"/>
    <tag k="highway" v="trunk"/>
    <tag k="junction" v="roundabout"/>
    <tag k="oneway" v="yes"/>
  </way>
  <way id="28896342" version="3" timestamp="2010-06-23T00:34:09Z" uid="4467" user="Rosscoe" changeset="5055781">
    <nd ref="317633293"/>
    <nd ref="243987675"/>
    <nd ref="317633299"/>
    <nd ref="317633298"/>
    <nd ref="317633296"/>
    <nd ref="317633295"/>
    <nd ref="317633294"/>
    <nd ref="317633292"/>
    <nd ref="317633293"/>
    <tag k="highway" v="trunk"/>
    <tag k="junction" v="roundabout"/>
  </way>
  <way id="28896344" version="4" timestamp="2009-08-20T08:11:30Z" uid="74617" user="JohnSmith" changeset="2209186">
    <nd ref="317633292"/>
    <nd ref="243987676"/>
    <nd ref="243987677"/>
    <nd ref="243987678"/>
    <nd ref="355849799"/>
    <nd ref="243987679"/>
    <nd ref="243987680"/>
    <nd ref="243987681"/>
    <nd ref="243987682"/>
    <nd ref="243987683"/>
    <nd ref="243987684"/>
    <nd ref="243987685"/>
    <nd ref="243987686"/>
    <nd ref="243987687"/>
    <nd ref="243987688"/>
    <nd ref="243987689"/>
    <nd ref="243987690"/>
    <nd ref="243987691"/>
    <nd ref="243987692"/>
    <nd ref="243987693"/>
    <nd ref="243987694"/>
    <nd ref="243987695"/>
    <nd ref="243987696"/>
    <nd ref="243987697"/>
    <nd ref="243987698"/>
    <nd ref="243987699"/>
    <nd ref="243987700"/>
    <nd ref="243987701"/>
    <nd ref="243987702"/>
    <nd ref="243987703"/>
    <nd ref="243987704"/>
    <nd ref="243987705"/>
    <nd ref="243987706"/>
    <nd ref="243987707"/>
    <nd ref="243987708"/>
    <nd ref="243987709"/>
    <nd ref="243987710"/>
    <nd ref="243987711"/>
    <nd ref="243987712"/>
    <nd ref="243987713"/>
    <nd ref="243987714"/>
    <nd ref="243987715"/>
    <nd ref="243987716"/>
    <nd ref="243987717"/>
    <nd ref="243987718"/>
    <nd ref="243987719"/>
    <nd ref="243987720"/>
    <nd ref="243987721"/>
    <nd ref="243987722"/>
    <nd ref="243987723"/>
    <nd ref="243987724"/>
    <nd ref="243987725"/>
    <nd ref="243987726"/>
    <nd ref="243987727"/>
    <nd ref="243987728"/>
    <nd ref="243987729"/>
    <nd ref="243987730"/>
    <nd ref="243987731"/>
    <nd ref="243987732"/>
    <nd ref="243987733"/>
    <nd ref="243987734"/>
    <nd ref="243987735"/>
    <nd ref="243987736"/>
    <nd ref="243987737"/>
    <nd ref="243987738"/>
    <nd ref="243987739"/>
    <nd ref="243987740"/>
    <nd ref="243987741"/>
    <nd ref="243987742"/>
    <nd ref="243987743"/>
    <nd ref="243987744"/>
    <nd ref="243987745"/>
    <nd ref="243987746"/>
    <nd ref="243987747"/>
    <nd ref="243987748"/>
    <nd ref="243987749"/>
    <nd ref="243987750"/>
    <nd ref="243987751"/>
    <nd ref="243987752"/>
    <nd ref="243987753"/>
    <nd ref="243987754"/>
    <nd ref="243987755"/>
    <nd ref="243987756"/>
    <nd ref="243987757"/>
    <nd ref="243987758"/>
    <nd ref="243987759"/>
    <nd ref="243987760"/>
    <nd ref="243987761"/>
    <nd ref="243987762"/>
    <nd ref="243987763"/>
    <nd ref="243987764"/>
    <nd ref="243987765"/>
    <nd ref="243987766"/>
    <nd ref="243987767"/>
    <nd ref="243987768"/>
    <nd ref="243987769"/>
    <nd ref="243987770"/>
    <nd ref="243987771"/>
    <nd ref="243987772"/>
    <nd ref="243987773"/>
    <nd ref="243987774"/>
    <nd ref="243987775"/>
    <nd ref="243987776"/>
    <nd ref="243987777"/>
    <nd ref="243987778"/>
    <nd ref="243987779"/>
    <nd ref="243987780"/>
    <nd ref="243987781"/>
    <nd ref="243987782"/>
    <nd ref="243987783"/>
    <nd ref="243987784"/>
    <nd ref="243987785"/>
    <nd ref="243987786"/>
    <nd ref="243987787"/>
    <nd ref="243987788"/>
    <nd ref="243987789"/>
    <nd ref="243987790"/>
    <nd ref="243987791"/>
    <nd ref="243987792"/>
    <nd ref="243987793"/>
    <nd ref="243987794"/>
    <nd ref="243987795"/>
    <nd ref="243987796"/>
    <nd ref="243987797"/>
    <tag k="highway" v="trunk"/>
    <tag k="source" v="survey"/>
  </way>
  <way id="28896344" version="5" timestamp="2010-03-18T11:43:47Z" uid="158515" user="SimonWalduck" changeset="4160530">
    <nd ref="317633292"/>
    <nd ref="243987676"/>
    <nd ref="243987677"/>
    <nd ref="243987678"/>
    <nd ref="355849799"/>
    <nd ref="243987679"/>
    <nd ref="243987680"/>
    <nd ref="243987681"/>
    <nd ref="243987682"/>
    <nd ref="243987683"/>
    <nd ref="243987684"/>
    <nd ref="243987685"/>
    <nd ref="243987686"/>
    <nd ref="243987687"/>
    <nd ref="668728676"/>
    <nd ref="243987688"/>
    <nd ref="243987689"/>
    <nd ref="243987690"/>
    <nd ref="243987691"/>
    <nd ref="243987692"/>
    <nd ref="243987693"/>
    <nd ref="243987694"/>
    <nd ref="243987695"/>
    <nd ref="243987696"/>
    <nd ref="243987697"/>
    <nd ref="243987698"/>
    <nd ref="243987699"/>
    <nd ref="243987700"/>
    <nd ref="243987701"/>
    <nd ref="243987702"/>
    <nd ref="243987703"/>
    <nd ref="243987704"/>
    <nd ref="243987705"/>
    <nd ref="243987706"/>
    <nd ref="243987707"/>
    <nd ref="243987708"/>
    <nd ref="243987709"/>
    <nd ref="243987710"/>
    <nd ref="243987711"/>
    <nd ref="243987712"/>
    <nd ref="243987713"/>
    <nd ref="243987714"/>
    <nd ref="243987715"/>
    <nd ref="243987716"/>
    <nd ref="243987717"/>
    <nd ref="243987718"/>
    <nd ref="243987719"/>
    <nd ref="243987720"/>
    <nd ref="243987721"/>
    <nd ref="243987722"/>
    <nd ref="243987723"/>
    <nd ref="243987724"/>
    <nd ref="243987725"/>
    <nd ref="243987726"/>
    <nd ref="243987727"/>
    <nd ref="243987728"/>
    <nd ref="243987729"/>
    <nd ref="243987730"/>
    <nd ref="243987731"/>
    <nd ref="243987732"/>
    <nd ref="243987733"/>
    <nd ref="243987734"/>
    <nd ref="243987735"/>
    <nd ref="243987736"/>
    <nd ref="243987737"/>
    <nd ref="243987738"/>
    <nd ref="243987739"/>
    <nd ref="243987740"/>
    <nd ref="243987741"/>
    <nd ref="243987742"/>
    <nd ref="243987743"/>
    <nd ref="243987744"/>
    <nd ref="243987745"/>
    <nd ref="243987746"/>
    <nd ref="243987747"/>
    <nd ref="243987748"/>
    <nd ref="243987749"/>
    <nd ref="243987750"/>
    <nd ref="243987751"/>
    <nd ref="243987752"/>
    <nd ref="243987753"/>
    <nd ref="243987754"/>
    <nd ref="243987755"/>
    <nd ref="243987756"/>
    <nd ref="243987757"/>
    <nd ref="243987758"/>
    <nd ref="243987759"/>
    <nd ref="243987760"/>
    <nd ref="243987761"/>
    <nd ref="243987762"/>
    <nd ref="243987763"/>
    <nd ref="243987764"/>
    <nd ref="243987765"/>
    <nd ref="243987766"/>
    <nd ref="243987767"/>
    <nd ref="243987768"/>
    <nd ref="243987769"/>
    <nd ref="243987770"/>
    <nd ref="243987771"/>
    <nd ref="243987772"/>
    <nd ref="243987773"/>
    <nd ref="243987774"/>
    <nd ref="243987775"/>
    <nd ref="243987776"/>
    <nd ref="243987777"/>
    <nd ref="243987778"/>
    <nd ref="243987779"/>
    <nd ref="243987780"/>
    <nd ref="243987781"/>
    <nd ref="243987782"/>
    <nd ref="243987783"/>
    <nd ref="243987784"/>
    <nd ref="243987785"/>
    <nd ref="243987786"/>
    <nd ref="243987787"/>
    <nd ref="243987788"/>
    <nd ref="243987789"/>
    <nd ref="243987790"/>
    <nd ref="243987791"/>
    <nd ref="243987792"/>
    <nd ref="243987793"/>
    <nd ref="243987794"/>
    <nd ref="243987795"/>
    <nd ref="243987796"/>
    <nd ref="243987797"/>
    <tag k="highway" v="trunk"/>
    <tag k="source" v="survey"/>
  </way>
  <way id="28896344" version="6" timestamp="2010-11-01T10:49:41Z" uid="18775" user="drlizau" changeset="6253419">
    <nd ref="317633292"/>
    <nd ref="243987676"/>
    <nd ref="973589659"/>
    <nd ref="243987677"/>
    <nd ref="243987678"/>
    <nd ref="355849799"/>
    <nd ref="243987679"/>
    <nd ref="243987680"/>
    <nd ref="243987681"/>
    <nd ref="243987682"/>
    <nd ref="243987683"/>
    <nd ref="243987684"/>
    <nd ref="243987685"/>
    <nd ref="243987686"/>
    <nd ref="243987687"/>
    <nd ref="668728676"/>
    <nd ref="243987688"/>
    <nd ref="243987689"/>
    <nd ref="243987690"/>
    <nd ref="243987691"/>
    <nd ref="243987692"/>
    <nd ref="243987693"/>
    <nd ref="243987694"/>
    <nd ref="243987695"/>
    <nd ref="243987696"/>
    <nd ref="243987697"/>
    <nd ref="243987698"/>
    <nd ref="243987699"/>
    <nd ref="243987700"/>
    <nd ref="243987701"/>
    <nd ref="243987702"/>
    <nd ref="243987703"/>
    <nd ref="243987704"/>
    <nd ref="243987705"/>
    <nd ref="243987706"/>
    <nd ref="243987707"/>
    <nd ref="243987708"/>
    <nd ref="243987709"/>
    <nd ref="243987710"/>
    <nd ref="243987711"/>
    <nd ref="243987712"/>
    <nd ref="243987713"/>
    <nd ref="243987714"/>
    <nd ref="243987715"/>
    <nd ref="243987716"/>
    <nd ref="243987717"/>
    <nd ref="243987718"/>
    <nd ref="243987719"/>
    <nd ref="243987720"/>
    <nd ref="243987721"/>
    <nd ref="243987722"/>
    <nd ref="243987723"/>
    <nd ref="243987724"/>
    <nd ref="243987725"/>
    <nd ref="243987726"/>
    <nd ref="243987727"/>
    <nd ref="243987728"/>
    <nd ref="243987729"/>
    <nd ref="243987730"/>
    <nd ref="243987731"/>
    <nd ref="243987732"/>
    <nd ref="243987733"/>
    <nd ref="243987734"/>
    <nd ref="243987735"/>
    <nd ref="243987736"/>
    <nd ref="243987737"/>
    <nd ref="243987738"/>
    <nd ref="243987739"/>
    <nd ref="243987740"/>
    <nd ref="243987741"/>
    <nd ref="243987742"/>
    <nd ref="243987743"/>
    <nd ref="243987744"/>
    <nd ref="243987745"/>
    <nd ref="243987746"/>
    <nd ref="243987747"/>
    <nd ref="243987748"/>
    <nd ref="243987749"/>
    <nd ref="243987750"/>
    <nd ref="243987751"/>
    <nd ref="243987752"/>
    <nd ref="243987753"/>
    <nd ref="243987754"/>
    <nd ref="243987755"/>
    <nd ref="243987756"/>
    <nd ref="243987757"/>
    <nd ref="243987758"/>
    <nd ref="243987759"/>
    <nd ref="243987760"/>
    <nd ref="243987761"/>
    <nd ref="243987762"/>
    <nd ref="243987763"/>
    <nd ref="243987764"/>
    <nd ref="243987765"/>
    <nd ref="243987766"/>
    <nd ref="243987767"/>
    <nd ref="243987768"/>
    <nd ref="243987769"/>
    <nd ref="243987770"/>
    <nd ref="243987771"/>
    <nd ref="243987772"/>
    <nd ref="243987773"/>
    <nd ref="243987774"/>
    <nd ref="243987775"/>
    <nd ref="243987776"/>
    <nd ref="243987777"/>
    <nd ref="243987778"/>
    <nd ref="243987779"/>
    <nd ref="243987780"/>
    <nd ref="243987781"/>
    <nd ref="243987782"/>
    <nd ref="243987783"/>
    <nd ref="243987784"/>
    <nd ref="243987785"/>
    <nd ref="243987786"/>
    <nd ref="243987787"/>
    <nd ref="243987788"/>
    <nd ref="243987789"/>
    <nd ref="243987790"/>
    <nd ref="243987791"/>
    <nd ref="243987792"/>
    <nd ref="243987793"/>
    <nd ref="243987794"/>
    <nd ref="243987795"/>
    <nd ref="243987796"/>
    <nd ref="243987797"/>
    <tag k="highway" v="trunk"/>
    <tag k="source" v="survey"/>
  </way>
  <way id="28896344" version="7" timestamp="2010-11-02T09:54:18Z" uid="18775" user="drlizau" changeset="6266334">
    <nd ref="317633292"/>
    <nd ref="243987676"/>
    <nd ref="973589659"/>
    <nd ref="243987677"/>
    <nd ref="243987678"/>
    <nd ref="355849799"/>
    <tag k="highway" v="trunk"/>
    <tag k="name" v="Patton Street"/>
    <tag k="source" v="survey"/>
  </way>
  <way id="28896344" version="8" timestamp="2011-01-30T04:08:28Z" uid="18775" user="drlizau" changeset="7130020">
    <nd ref="317633292"/>
    <nd ref="1127299697"/>
    <nd ref="243987676"/>
    <nd ref="973589659"/>
    <nd ref="243987677"/>
    <nd ref="243987678"/>
    <nd ref="355849799"/>
    <tag k="highway" v="trunk"/>
    <tag k="name" v="Patton Street"/>
    <tag k="source" v="survey"/>
  </way>
  <way id="28896346" version="4" timestamp="2010-07-07T08:13:38Z" uid="74617" user="JohnSmith" changeset="5156250">
    <nd ref="317633298"/>
    <nd ref="317633301"/>
    <nd ref="355849705"/>
    <nd ref="317633302"/>
    <nd ref="317633303"/>
    <nd ref="355849701"/>
    <nd ref="317633280"/>
    <tag k="highway" v="residential"/>
    <tag k="maxspeed" v="50"/>
    <tag k="maxspeed:source" v="default residential speed limit in Australia"/>
  </way>
  <way id="28896346" version="5" timestamp="2010-11-02T09:54:20Z" uid="18775" user="drlizau" changeset="6266334">
    <nd ref="317633298"/>
    <nd ref="974428621"/>
    <tag k="highway" v="tertiary"/>
    <tag k="maxspeed" v="50"/>
    <tag k="name" v="Patton Street"/>
  </way>
  <way id="28896346" version="6" timestamp="2012-01-17T23:47:15Z" uid="147510" user="woodpeck_fixbot" changeset="10421060">
    <nd ref="317633298"/>
    <nd ref="974428621"/>
    <tag k="highway" v="tertiary"/>
    <tag k="name" v="Patton Street"/>
  </way>
  <way id="28896347" version="3" timestamp="2010-07-07T08:13:32Z" uid="74617" user="JohnSmith" changeset="5156250">
    <nd ref="317633278"/>
    <nd ref="355849700"/>
    <nd ref="317633302"/>
    <tag k="highway" v="residential"/>
    <tag k="maxspeed" v="50"/>
    <tag k="maxspeed:source" v="default residential speed limit in Australia"/>
  </way>
  <way id="28896347" version="4" timestamp="2010-11-02T09:54:15Z" uid="18775" user="drlizau" changeset="6266334">
    <nd ref="317633278"/>
    <nd ref="974428574"/>
    <nd ref="355849700"/>
    <nd ref="317633302"/>
    <tag k="highway" v="residential"/>
    <tag k="maxspeed" v="50"/>
    <tag k="name" v="Rockwell Street"/>
    <tag k="source" v="survey"/>
  </way>
  <way id="28896347" version="5" timestamp="2011-01-30T11:06:36Z" uid="18775" user="drlizau" changeset="7132446">
    <nd ref="1127749827"/>
    <nd ref="1127749641"/>
    <nd ref="1127750809"/>
    <nd ref="1127751403"/>
    <nd ref="1127749131"/>
    <nd ref="1127750871"/>
    <nd ref="1127750777"/>
    <nd ref="1127751270"/>
    <nd ref="1127749467"/>
    <nd ref="1127749077"/>
    <nd ref="1127751385"/>
    <nd ref="1127751138"/>
    <nd ref="1127750005"/>
    <nd ref="1127749111"/>
    <nd ref="317633302"/>
    <nd ref="1127750532"/>
    <nd ref="355849700"/>
    <nd ref="1127751090"/>
    <nd ref="974428574"/>
    <nd ref="1127750845"/>
    <nd ref="317633278"/>
    <tag k="highway" v="residential"/>
    <tag k="maxspeed" v="50"/>
    <tag k="name" v="Rockwell Street"/>
    <tag k="source" v="survey"/>
  </way>
  <way id="28896347" version="6" timestamp="2012-01-17T23:47:16Z" uid="147510" user="woodpeck_fixbot" changeset="10421060">
    <nd ref="1127749827"/>
    <nd ref="1127749641"/>
    <nd ref="1127750809"/>
    <nd ref="1127751403"/>
    <nd ref="1127749131"/>
    <nd ref="1127750871"/>
    <nd ref="1127750777"/>
    <nd ref="1127751270"/>
    <nd ref="1127749467"/>
    <nd ref="1127749077"/>
    <nd ref="1127751385"/>
    <nd ref="1127751138"/>
    <nd ref="1127750005"/>
    <nd ref="1127749111"/>
    <nd ref="317633302"/>
    <nd ref="1127750532"/>
    <nd ref="355849700"/>
    <nd ref="1127751090"/>
    <nd ref="974428574"/>
    <nd ref="1127750845"/>
    <nd ref="317633278"/>
    <tag k="highway" v="residential"/>
    <tag k="name" v="Rockwell Street"/>
    <tag k="source" v="survey"/>
  </way>
  <way id="28896348" version="2" timestamp="2010-07-07T08:13:44Z" uid="74617" user="JohnSmith" changeset="5156250">
    <nd ref="317633305"/>
    <nd ref="317633306"/>
    <nd ref="317633301"/>
    <tag k="highway" v="residential"/>
    <tag k="maxspeed" v="50"/>
    <tag k="maxspeed:source" v="default residential speed limit in Australia"/>
  </way>
  <way id="28896348" version="3" timestamp="2010-11-01T10:49:30Z" uid="18775" user="drlizau" changeset="6253419">
    <nd ref="355849701"/>
    <nd ref="355849700"/>
    <nd ref="355849699"/>
    <nd ref="317633306"/>
    <nd ref="317633305"/>
    <nd ref="973589674"/>
    <nd ref="973589654"/>
    <nd ref="973589528"/>
    <nd ref="973589667"/>
    <nd ref="973589674"/>
    <tag k="highway" v="residential"/>
    <tag k="maxspeed" v="50"/>
    <tag k="source" v="survey"/>
  </way>
  <way id="28896348" version="4" timestamp="2010-11-02T09:54:22Z" uid="18775" user="drlizau" changeset="6266334">
    <nd ref="355849701"/>
    <nd ref="974428575"/>
    <nd ref="355849700"/>
    <nd ref="355849699"/>
    <nd ref="317633306"/>
    <nd ref="974428625"/>
    <nd ref="317633305"/>
    <nd ref="973589674"/>
    <nd ref="973589654"/>
    <nd ref="973589528"/>
    <nd ref="973589667"/>
    <nd ref="973589674"/>
    <tag k="highway" v="residential"/>
    <tag k="maxspeed" v="50"/>
    <tag k="source" v="survey"/>
  </way>
  <way id="28896348" version="5" timestamp="2010-11-02T10:04:51Z" uid="18775" user="drlizau" changeset="6266410">
    <nd ref="355849701"/>
    <nd ref="974428575"/>
    <nd ref="355849700"/>
    <nd ref="355849699"/>
    <nd ref="317633306"/>
    <nd ref="974428625"/>
    <nd ref="317633305"/>
    <nd ref="973589674"/>
    <tag k="highway" v="residential"/>
    <tag k="maxspeed" v="50"/>
    <tag k="name" v="Hebbard Street"/>
    <tag k="source" v="survey"/>
  </way>
  <way id="28896348" version="6" timestamp="2011-01-30T04:08:36Z" uid="18775" user="drlizau" changeset="7130020">
    <nd ref="355849701"/>
    <nd ref="974428575"/>
    <nd ref="355849700"/>
    <nd ref="355849699"/>
    <nd ref="317633306"/>
    <nd ref="974428625"/>
    <nd ref="317633305"/>
    <tag k="highway" v="residential"/>
    <tag k="maxspeed" v="50"/>
    <tag k="name" v="Hebbard Street"/>
    <tag k="source" v="survey"/>
  </way>
  <way id="28896348" version="7" timestamp="2012-01-17T23:47:18Z" uid="147510" user="woodpeck_fixbot" changeset="10421060">
    <nd ref="355849701"/>
    <nd ref="974428575"/>
    <nd ref="355849700"/>
    <nd ref="355849699"/>
    <nd ref="317633306"/>
    <nd ref="974428625"/>
    <nd ref="317633305"/>
    <tag k="highway" v="residential"/>
    <tag k="name" v="Hebbard Street"/>
    <tag k="source" v="survey"/>
  </way>
  <way id="28896349" version="4" timestamp="2010-07-07T08:13:37Z" uid="74617" user="JohnSmith" changeset="5156250">
    <nd ref="317633295"/>
    <nd ref="355849788"/>
    <nd ref="355849889"/>
    <nd ref="317633308"/>
    <nd ref="317633309"/>
    <nd ref="317633311"/>
    <nd ref="317633312"/>
    <nd ref="317633314"/>
    <nd ref="317633315"/>
    <nd ref="317633316"/>
    <nd ref="317633317"/>
    <nd ref="317633319"/>
    <nd ref="317633320"/>
    <nd ref="317633322"/>
    <nd ref="317633323"/>
    <nd ref="317633324"/>
    <nd ref="317633314"/>
    <tag k="highway" v="residential"/>
    <tag k="maxspeed" v="50"/>
    <tag k="maxspeed:source" v="default residential speed limit in Australia"/>
  </way>
  <way id="28896349" version="5" timestamp="2010-11-01T10:49:53Z" uid="18775" user="drlizau" changeset="6253419">
    <nd ref="317633295"/>
    <nd ref="973589539"/>
    <nd ref="355849788"/>
    <nd ref="355849889"/>
    <nd ref="317633308"/>
    <nd ref="317633309"/>
    <nd ref="317633311"/>
    <nd ref="317633312"/>
    <nd ref="317633314"/>
    <nd ref="317633315"/>
    <nd ref="317633316"/>
    <nd ref="317633317"/>
    <nd ref="317633319"/>
    <nd ref="317633320"/>
    <nd ref="317633322"/>
    <nd ref="317633323"/>
    <nd ref="317633324"/>
    <nd ref="317633314"/>
    <tag k="highway" v="residential"/>
    <tag k="maxspeed" v="50"/>
    <tag k="maxspeed:source" v="default residential speed limit in Australia"/>
  </way>
  <way id="28896349" version="6" timestamp="2010-11-01T11:32:19Z" uid="18775" user="drlizau" changeset="6253790">
    <nd ref="317633295"/>
    <nd ref="973589539"/>
    <nd ref="355849788"/>
    <nd ref="355849889"/>
    <nd ref="973618334"/>
    <tag k="highway" v="residential"/>
    <tag k="maxspeed" v="50"/>
    <tag k="name" v="Bonanza Street"/>
  </way>
  <way id="28896349" version="7" timestamp="2010-11-02T10:39:26Z" uid="18775" user="drlizau" changeset="6266627">
    <nd ref="317633295"/>
    <nd ref="973589539"/>
    <nd ref="974447287"/>
    <nd ref="355849788"/>
    <nd ref="974447271"/>
    <nd ref="974447268"/>
    <nd ref="974447253"/>
    <nd ref="355849889"/>
    <nd ref="973618334"/>
    <tag k="highway" v="residential"/>
    <tag k="maxspeed" v="50"/>
    <tag k="name" v="Bonanza Street"/>
  </way>
  <way id="28896349" version="8" timestamp="2011-01-30T11:07:02Z" uid="18775" user="drlizau" changeset="7132446">
    <nd ref="317633295"/>
    <nd ref="1127749153"/>
    <nd ref="1127749323"/>
    <nd ref="1127750861"/>
    <nd ref="973589539"/>
    <nd ref="1127749351"/>
    <nd ref="974447287"/>
    <nd ref="1127749022"/>
    <nd ref="355849788"/>
    <nd ref="1127750591"/>
    <nd ref="974447271"/>
    <nd ref="1127750910"/>
    <nd ref="974447268"/>
    <nd ref="974447253"/>
    <nd ref="355849889"/>
    <nd ref="973618334"/>
    <tag k="highway" v="residential"/>
    <tag k="maxspeed" v="50"/>
    <tag k="name" v="Bonanza Street"/>
  </way>
  <way id="28896349" version="9" timestamp="2012-01-17T23:47:21Z" uid="147510" user="woodpeck_fixbot" changeset="10421060">
    <nd ref="317633295"/>
    <nd ref="1127749153"/>
    <nd ref="1127749323"/>
    <nd ref="1127750861"/>
    <nd ref="973589539"/>
    <nd ref="1127749351"/>
    <nd ref="974447287"/>
    <nd ref="1127749022"/>
    <nd ref="355849788"/>
    <nd ref="1127750591"/>
    <nd ref="974447271"/>
    <nd ref="1127750910"/>
    <nd ref="974447268"/>
    <nd ref="974447253"/>
    <nd ref="355849889"/>
    <nd ref="973618334"/>
    <tag k="highway" v="residential"/>
    <tag k="name" v="Bonanza Street"/>
  </way>
  <way id="28896350" version="2" timestamp="2010-11-01T11:33:50Z" uid="18775" user="drlizau" changeset="6253808">
    <nd ref="317633320"/>
    <nd ref="317633326"/>
    <nd ref="317633327"/>
    <nd ref="317633329"/>
    <tag k="highway" v="service"/>
    <tag k="maxspeed" v="10"/>
  </way>
  <way id="28896352" version="2" timestamp="2010-07-07T08:13:43Z" uid="74617" user="JohnSmith" changeset="5156250">
    <nd ref="243987650"/>
    <nd ref="317633332"/>
    <nd ref="317633333"/>
    <nd ref="317633334"/>
    <nd ref="317633336"/>
    <tag k="highway" v="residential"/>
    <tag k="maxspeed" v="50"/>
    <tag k="maxspeed:source" v="default residential speed limit in Australia"/>
  </way>
  <way id="28896352" version="3" timestamp="2010-11-01T11:07:47Z" uid="18775" user="drlizau" changeset="6253583">
    <nd ref="243987650"/>
    <nd ref="317633332"/>
    <tag k="highway" v="residential"/>
    <tag k="maxspeed" v="50"/>
    <tag k="name" v="Iodide Street"/>
    <tag k="source" v="survey"/>
  </way>
  <way id="28896352" version="4" timestamp="2010-11-13T11:40:08Z" uid="18775" user="drlizau" changeset="6357483">
    <nd ref="243987650"/>
    <nd ref="987501538"/>
    <nd ref="317633332"/>
    <tag k="highway" v="residential"/>
    <tag k="maxspeed" v="50"/>
    <tag k="name" v="Iodide Street"/>
    <tag k="source" v="survey"/>
  </way>
  <way id="28896352" version="5" timestamp="2011-02-02T05:35:32Z" uid="4467" user="Rosscoe" changeset="7161630">
    <nd ref="243987650"/>
    <nd ref="1132070178"/>
    <nd ref="987501538"/>
    <nd ref="317633332"/>
    <tag k="highway" v="residential"/>
    <tag k="maxspeed" v="50"/>
    <tag k="name" v="Iodide Street"/>
    <tag k="source" v="survey"/>
  </way>
  <way id="28896352" version="6" timestamp="2012-01-17T23:47:22Z" uid="147510" user="woodpeck_fixbot" changeset="10421060">
    <nd ref="243987650"/>
    <nd ref="1132070178"/>
    <nd ref="987501538"/>
    <nd ref="317633332"/>
    <tag k="highway" v="residential"/>
    <tag k="name" v="Iodide Street"/>
    <tag k="source" v="survey"/>
  </way>
  <way id="28896355" version="3" timestamp="2011-02-01T07:39:58Z" uid="18775" user="drlizau" changeset="7152176">
    <nd ref="317633366"/>
    <nd ref="317633363"/>
    <nd ref="317633358"/>
    <tag k="highway" v="service"/>
    <tag k="oneway" v="yes"/>
  </way>
  <way id="28896355" version="4" timestamp="2011-02-02T05:35:35Z" uid="4467" user="Rosscoe" changeset="7161630">
    <nd ref="1132070116"/>
    <nd ref="317633363"/>
    <nd ref="317633358"/>
    <tag k="highway" v="service"/>
    <tag k="oneway" v="yes"/>
  </way>
  <way id="28896356" version="2" timestamp="2011-02-02T05:35:35Z" uid="4467" user="Rosscoe" changeset="7161630">
    <nd ref="317633373"/>
    <nd ref="1132070174"/>
    <nd ref="317633378"/>
    <nd ref="317633401"/>
    <nd ref="1132070211"/>
    <nd ref="317633382"/>
    <nd ref="317633385"/>
    <nd ref="317633390"/>
    <nd ref="317633394"/>
    <tag k="highway" v="service"/>
  </way>
  <way id="28896357" version="2" timestamp="2011-01-31T22:11:13Z" uid="18775" user="drlizau" changeset="7149813">
    <nd ref="253313989"/>
    <nd ref="264600570"/>
    <tag k="railway" v="rail"/>
    <tag k="source" v="bing"/>
  </way>
  <way id="28896357" version="3" timestamp="2011-02-02T05:35:31Z" uid="4467" user="Rosscoe" changeset="7161630">
    <nd ref="987501538"/>
    <nd ref="1132070240"/>
    <nd ref="1132070195"/>
    <nd ref="1132070211"/>
    <nd ref="1132070260"/>
    <nd ref="1132070121"/>
    <nd ref="1132070262"/>
    <nd ref="1132070122"/>
    <nd ref="1132070193"/>
    <nd ref="1132070227"/>
    <nd ref="1132070218"/>
    <nd ref="1132070242"/>
    <nd ref="1132070231"/>
    <nd ref="1132070251"/>
    <nd ref="1132070113"/>
    <nd ref="1132070214"/>
    <tag k="railway" v="rail"/>
    <tag k="source" v="bing"/>
  </way>
  <way id="28896358" version="2" timestamp="2010-07-07T08:13:39Z" uid="74617" user="JohnSmith" changeset="5156250">
    <nd ref="243987650"/>
    <nd ref="253312309"/>
    <tag k="highway" v="residential"/>
    <tag k="maxspeed" v="50"/>
    <tag k="maxspeed:source" v="default residential speed limit in Australia"/>
  </way>
  <way id="28896358" version="3" timestamp="2011-02-01T09:44:10Z" uid="18775" user="drlizau" changeset="7152973">
    <nd ref="243987650"/>
    <nd ref="253312309"/>
    <tag k="highway" v="residential"/>
    <tag k="maxspeed" v="50"/>
    <tag k="name" v="Crystal Street"/>
  </way>
  <way id="28896358" version="4" timestamp="2012-01-17T23:47:24Z" uid="147510" user="woodpeck_fixbot" changeset="10421060">
    <nd ref="243987650"/>
    <nd ref="253312309"/>
    <tag k="highway" v="residential"/>
    <tag k="name" v="Crystal Street"/>
  </way>
  <way id="28896360" version="2" timestamp="2009-01-18T12:54:30Z" uid="9581" user="Lobelt" changeset="804372">
    <nd ref="304355711"/>
    <nd ref="317633425"/>
    <nd ref="317633430"/>
    <nd ref="317633431"/>
    <nd ref="317633433"/>
    <nd ref="317633435"/>
    <nd ref="317633436"/>
    <nd ref="317633438"/>
    <nd ref="317633440"/>
    <nd ref="317633441"/>
    <nd ref="317633443"/>
    <nd ref="317633444"/>
    <nd ref="317633446"/>
    <nd ref="333061879"/>
    <nd ref="333061882"/>
    <nd ref="333061885"/>
    <nd ref="317633447"/>
    <nd ref="333061886"/>
    <nd ref="333061891"/>
    <nd ref="333061888"/>
    <nd ref="333061893"/>
    <nd ref="333061896"/>
    <nd ref="317633448"/>
    <nd ref="333061899"/>
    <nd ref="333061901"/>
    <nd ref="317633449"/>
    <nd ref="333061906"/>
    <nd ref="333061908"/>
    <nd ref="317633451"/>
    <nd ref="333062034"/>
    <nd ref="317633452"/>
    <nd ref="333062039"/>
    <nd ref="333061911"/>
    <nd ref="317633454"/>
    <nd ref="333061917"/>
    <nd ref="333061914"/>
    <nd ref="333061920"/>
    <nd ref="317633455"/>
    <nd ref="333061921"/>
    <nd ref="333061923"/>
    <nd ref="333061926"/>
    <nd ref="317633457"/>
    <nd ref="317633458"/>
    <nd ref="317633460"/>
    <nd ref="317633462"/>
    <nd ref="317633463"/>
    <nd ref="304680704"/>
    <tag k="highway" v="track"/>
    <tag k="tracktype" v="grade3"/>
  </way>
  <way id="28896360" version="3" timestamp="2009-01-25T03:33:58Z" uid="60345" user="Mirko Küster" changeset="833636">
    <nd ref="304355711"/>
    <nd ref="317633425"/>
    <nd ref="317633430"/>
    <nd ref="317633431"/>
    <nd ref="317633433"/>
    <nd ref="317633435"/>
    <nd ref="336164470"/>
    <nd ref="317633436"/>
    <nd ref="317633438"/>
    <nd ref="317633440"/>
    <nd ref="317633441"/>
    <nd ref="317633443"/>
    <nd ref="317633444"/>
    <nd ref="317633446"/>
    <nd ref="333061879"/>
    <nd ref="333061882"/>
    <nd ref="333061885"/>
    <nd ref="317633447"/>
    <nd ref="333061886"/>
    <nd ref="333061891"/>
    <nd ref="333061888"/>
    <nd ref="333061893"/>
    <nd ref="333061896"/>
    <nd ref="317633448"/>
    <nd ref="333061899"/>
    <nd ref="333061901"/>
    <nd ref="317633449"/>
    <nd ref="333061906"/>
    <nd ref="333061908"/>
    <nd ref="317633451"/>
    <nd ref="333062034"/>
    <nd ref="317633452"/>
    <nd ref="333062039"/>
    <nd ref="333061911"/>
    <nd ref="317633454"/>
    <nd ref="333061917"/>
    <nd ref="333061914"/>
    <nd ref="333061920"/>
    <nd ref="317633455"/>
    <nd ref="333061921"/>
    <nd ref="333061923"/>
    <nd ref="333061926"/>
    <nd ref="317633457"/>
    <nd ref="317633458"/>
    <nd ref="317633460"/>
    <nd ref="317633462"/>
    <nd ref="317633463"/>
    <nd ref="304680704"/>
    <tag k="highway" v="track"/>
    <tag k="tracktype" v="grade3"/>
  </way>
  <way id="28896360" version="4" timestamp="2009-05-09T14:53:42Z" uid="50733" user="Jürgen Kanis" changeset="1128382">
    <nd ref="304355711"/>
    <nd ref="317633425"/>
    <nd ref="317633430"/>
    <nd ref="317633431"/>
    <nd ref="317633433"/>
    <nd ref="317633435"/>
    <nd ref="336164470"/>
    <nd ref="317633436"/>
    <nd ref="317633438"/>
    <nd ref="317633440"/>
    <nd ref="317633441"/>
    <nd ref="317633443"/>
    <nd ref="317633444"/>
    <nd ref="317633446"/>
    <nd ref="333061879"/>
    <nd ref="333061882"/>
    <nd ref="333061885"/>
    <nd ref="317633447"/>
    <nd ref="333061886"/>
    <nd ref="333061891"/>
    <nd ref="333061888"/>
    <nd ref="333061893"/>
    <nd ref="333061896"/>
    <nd ref="317633448"/>
    <nd ref="333061899"/>
    <nd ref="333061901"/>
    <nd ref="317633449"/>
    <nd ref="333061906"/>
    <nd ref="333061908"/>
    <nd ref="317633451"/>
    <nd ref="333062034"/>
    <nd ref="317633452"/>
    <nd ref="333062039"/>
    <nd ref="333061911"/>
    <nd ref="317633454"/>
    <nd ref="333061917"/>
    <nd ref="333061914"/>
    <nd ref="333061920"/>
    <nd ref="317633455"/>
    <nd ref="333061921"/>
    <nd ref="333061923"/>
    <nd ref="333061926"/>
    <nd ref="317633457"/>
    <nd ref="317633458"/>
    <nd ref="317633460"/>
    <nd ref="317633462"/>
    <nd ref="317633463"/>
    <nd ref="304680704"/>
    <tag k="access" v="agricultural"/>
    <tag k="bicycle" v="yes"/>
    <tag k="highway" v="track"/>
    <tag k="tracktype" v="grade3"/>
  </way>
  <way id="28896360" version="5" timestamp="2010-01-01T17:35:08Z" uid="123765" user="bitverkruemmer" changeset="3512101">
    <nd ref="304355711"/>
    <nd ref="317633425"/>
    <nd ref="602642623"/>
    <nd ref="317633430"/>
    <nd ref="317633431"/>
    <nd ref="602642625"/>
    <nd ref="317633433"/>
    <nd ref="602642624"/>
    <nd ref="317633435"/>
    <nd ref="336164470"/>
    <nd ref="317633436"/>
    <nd ref="317633438"/>
    <nd ref="317633440"/>
    <nd ref="602642626"/>
    <nd ref="317633441"/>
    <nd ref="602642628"/>
    <nd ref="602642627"/>
    <nd ref="317633443"/>
    <nd ref="317633444"/>
    <nd ref="317633446"/>
    <nd ref="602642629"/>
    <nd ref="333061879"/>
    <nd ref="333061882"/>
    <nd ref="333061885"/>
    <nd ref="317633447"/>
    <nd ref="333061886"/>
    <nd ref="333061891"/>
    <nd ref="333061888"/>
    <nd ref="333061893"/>
    <nd ref="333061896"/>
    <nd ref="317633448"/>
    <nd ref="333061899"/>
    <nd ref="333061901"/>
    <nd ref="317633449"/>
    <nd ref="333061906"/>
    <nd ref="333061908"/>
    <nd ref="317633451"/>
    <nd ref="333062034"/>
    <nd ref="317633452"/>
    <nd ref="333062039"/>
    <nd ref="333061911"/>
    <nd ref="317633454"/>
    <nd ref="333061917"/>
    <nd ref="333061914"/>
    <nd ref="333061920"/>
    <nd ref="317633455"/>
    <nd ref="333061921"/>
    <nd ref="333061923"/>
    <nd ref="333061926"/>
    <nd ref="317633457"/>
    <nd ref="317633458"/>
    <nd ref="317633460"/>
    <nd ref="317633462"/>
    <nd ref="317633463"/>
    <nd ref="304680704"/>
    <nd ref="602642633"/>
    <nd ref="602642632"/>
    <tag k="access" v="agricultural"/>
    <tag k="bicycle" v="yes"/>
    <tag k="highway" v="track"/>
    <tag k="tracktype" v="grade3"/>
  </way>
  <way id="28896360" version="6" timestamp="2010-01-24T17:22:18Z" uid="123765" user="bitverkruemmer" changeset="3703407">
    <nd ref="304355711"/>
    <nd ref="317633425"/>
    <nd ref="602642623"/>
    <nd ref="317633430"/>
    <nd ref="317633431"/>
    <nd ref="602642625"/>
    <nd ref="317633433"/>
    <nd ref="602642624"/>
    <nd ref="317633435"/>
    <nd ref="336164470"/>
    <nd ref="317633436"/>
    <nd ref="317633438"/>
    <nd ref="317633440"/>
    <nd ref="602642626"/>
    <nd ref="317633441"/>
    <nd ref="602642628"/>
    <nd ref="602642627"/>
    <nd ref="317633443"/>
    <nd ref="317633444"/>
    <nd ref="317633446"/>
    <nd ref="602642629"/>
    <nd ref="333061879"/>
    <nd ref="333061882"/>
    <nd ref="333061885"/>
    <nd ref="317633447"/>
    <nd ref="333061886"/>
    <nd ref="333061891"/>
    <nd ref="333061888"/>
    <nd ref="333061893"/>
    <nd ref="333061896"/>
    <nd ref="317633448"/>
    <nd ref="333061899"/>
    <nd ref="333061901"/>
    <nd ref="317633449"/>
    <nd ref="333061906"/>
    <nd ref="333061908"/>
    <nd ref="317633451"/>
    <nd ref="333062034"/>
    <nd ref="317633452"/>
    <nd ref="333062039"/>
    <nd ref="333061911"/>
    <nd ref="317633454"/>
    <nd ref="333061917"/>
    <nd ref="333061914"/>
    <nd ref="333061920"/>
    <nd ref="317633455"/>
    <nd ref="619351487"/>
    <nd ref="333061921"/>
    <nd ref="333061923"/>
    <nd ref="333061926"/>
    <nd ref="317633457"/>
    <nd ref="317633458"/>
    <nd ref="317633460"/>
    <nd ref="317633462"/>
    <nd ref="317633463"/>
    <nd ref="304680704"/>
    <nd ref="602642633"/>
    <nd ref="602642632"/>
    <tag k="access" v="agricultural"/>
    <tag k="bicycle" v="yes"/>
    <tag k="highway" v="track"/>
    <tag k="tracktype" v="grade3"/>
  </way>
  <way id="28896360" version="7" timestamp="2010-05-23T19:34:10Z" uid="123765" user="bitverkruemmer" changeset="4786862">
    <nd ref="304355711"/>
    <nd ref="317633425"/>
    <nd ref="602642623"/>
    <nd ref="317633430"/>
    <nd ref="317633431"/>
    <nd ref="602642625"/>
    <nd ref="317633433"/>
    <nd ref="602642624"/>
    <nd ref="317633435"/>
    <nd ref="336164470"/>
    <nd ref="317633436"/>
    <nd ref="317633438"/>
    <nd ref="317633440"/>
    <nd ref="602642626"/>
    <nd ref="317633441"/>
    <nd ref="602642628"/>
    <nd ref="602642627"/>
    <nd ref="317633443"/>
    <nd ref="317633444"/>
    <nd ref="317633446"/>
    <nd ref="602642629"/>
    <nd ref="333061879"/>
    <nd ref="333061882"/>
    <nd ref="333061885"/>
    <nd ref="317633447"/>
    <nd ref="333061886"/>
    <nd ref="333061891"/>
    <nd ref="333061888"/>
    <nd ref="333061893"/>
    <nd ref="333061896"/>
    <nd ref="317633448"/>
    <nd ref="333061899"/>
    <nd ref="333061901"/>
    <nd ref="317633449"/>
    <nd ref="333061906"/>
    <nd ref="333061908"/>
    <nd ref="317633451"/>
    <nd ref="333062034"/>
    <nd ref="317633452"/>
    <nd ref="333062039"/>
    <nd ref="333061911"/>
    <nd ref="317633454"/>
    <nd ref="333061917"/>
    <nd ref="333061914"/>
    <nd ref="333061920"/>
    <nd ref="317633455"/>
    <nd ref="619351487"/>
    <nd ref="333061921"/>
    <tag k="access" v="agricultural"/>
    <tag k="bicycle" v="yes"/>
    <tag k="highway" v="track"/>
    <tag k="tracktype" v="grade3"/>
  </way>
  <way id="28896360" version="8" timestamp="2012-03-29T18:16:15Z" uid="192395" user="BBO" changeset="11141851">
    <nd ref="304355711"/>
    <nd ref="317633425"/>
    <nd ref="602642623"/>
    <nd ref="317633430"/>
    <nd ref="317633431"/>
    <nd ref="602642625"/>
    <nd ref="317633433"/>
    <nd ref="602642624"/>
    <nd ref="317633435"/>
    <nd ref="1696536348"/>
    <nd ref="317633436"/>
    <nd ref="317633438"/>
    <nd ref="317633440"/>
    <nd ref="602642626"/>
    <nd ref="317633441"/>
    <nd ref="602642628"/>
    <nd ref="602642627"/>
    <nd ref="317633443"/>
    <nd ref="317633444"/>
    <nd ref="317633446"/>
    <nd ref="602642629"/>
    <nd ref="333061879"/>
    <nd ref="333061882"/>
    <nd ref="333061885"/>
    <nd ref="317633447"/>
    <nd ref="333061886"/>
    <nd ref="333061891"/>
    <nd ref="333061888"/>
    <nd ref="333061893"/>
    <nd ref="333061896"/>
    <nd ref="317633448"/>
    <nd ref="333061899"/>
    <nd ref="333061901"/>
    <nd ref="317633449"/>
    <nd ref="333061906"/>
    <nd ref="333061908"/>
    <nd ref="317633451"/>
    <nd ref="333062034"/>
    <nd ref="317633452"/>
    <nd ref="333062039"/>
    <nd ref="333061911"/>
    <nd ref="317633454"/>
    <nd ref="333061917"/>
    <nd ref="333061914"/>
    <nd ref="333061920"/>
    <nd ref="317633455"/>
    <nd ref="619351487"/>
    <nd ref="333061921"/>
    <tag k="access" v="agricultural"/>
    <tag k="bicycle" v="yes"/>
    <tag k="highway" v="track"/>
    <tag k="tracktype" v="grade3"/>
  </way>
  <way id="28896380" version="3" timestamp="2010-04-03T04:05:49Z" uid="20587" user="balrog-kun" changeset="4309442">
    <nd ref="317633783"/>
    <nd ref="175437557"/>
    <nd ref="175589807"/>
    <nd ref="175283932"/>
    <nd ref="175589812"/>
    <nd ref="175455094"/>
    <tag k="created_by" v="OSM Fixer"/>
    <tag k="highway" v="residential"/>
    <tag k="name" v="Goodyear Road"/>
    <tag k="tiger:cfcc" v="A41"/>
    <tag k="tiger:county" v="Pinal, AZ"/>
    <tag k="tiger:name_base" v="Goodyear"/>
    <tag k="tiger:name_type" v="Rd"/>
    <tag k="tiger:reviewed" v="no"/>
    <tag k="tiger:separated" v="no"/>
    <tag k="tiger:source" v="tiger_import_dch_v0.6_20070809"/>
    <tag k="tiger:tlid" v="129228194:129228244:129228245:129162636:129155455:129162703:129162312:129162309:129162311:129162314:129162315:129234385:129162748:129228224:129224132:129210845:129218790:129162776:129162516"/>
  </way>
  <way id="28896380" version="4" timestamp="2010-04-29T18:18:59Z" uid="239998" user="Sundance" changeset="4559918">
    <nd ref="317633783"/>
    <nd ref="712557287"/>
    <nd ref="712557289"/>
    <nd ref="175437557"/>
    <nd ref="175589807"/>
    <nd ref="175283932"/>
    <nd ref="175589812"/>
    <nd ref="175455094"/>
    <tag k="highway" v="residential"/>
    <tag k="name" v="Goodyear Road"/>
    <tag k="tiger:cfcc" v="A41"/>
    <tag k="tiger:county" v="Pinal, AZ"/>
    <tag k="tiger:name_base" v="Goodyear"/>
    <tag k="tiger:name_type" v="Rd"/>
    <tag k="tiger:reviewed" v="no"/>
    <tag k="tiger:separated" v="no"/>
    <tag k="tiger:source" v="tiger_import_dch_v0.6_20070809"/>
    <tag k="tiger:tlid" v="129228194:129228244:129228245:129162636:129155455:129162703:129162312:129162309:129162311:129162314:129162315:129234385:129162748:129228224:129224132:129210845:129218790:129162776:129162516"/>
  </way>
  <way id="28896380" version="5" timestamp="2012-02-20T02:22:39Z" uid="4111" user="adenium" changeset="10736810">
    <nd ref="317633783"/>
    <nd ref="712557287"/>
    <nd ref="1640048234"/>
    <nd ref="712557289"/>
    <nd ref="175437557"/>
    <nd ref="175589807"/>
    <nd ref="175283932"/>
    <nd ref="175589812"/>
    <nd ref="175455094"/>
    <tag k="highway" v="residential"/>
    <tag k="name" v="Goodyear Road"/>
    <tag k="tiger:cfcc" v="A41"/>
    <tag k="tiger:county" v="Pinal, AZ"/>
    <tag k="tiger:name_base" v="Goodyear"/>
    <tag k="tiger:name_type" v="Rd"/>
    <tag k="tiger:reviewed" v="no"/>
    <tag k="tiger:separated" v="no"/>
    <tag k="tiger:source" v="tiger_import_dch_v0.6_20070809"/>
    <tag k="tiger:tlid" v="129228194:129228244:129228245:129162636:129155455:129162703:129162312:129162309:129162311:129162314:129162315:129234385:129162748:129228224:129224132:129210845:129218790:129162776:129162516"/>
  </way>
  <way id="28896395" version="2" timestamp="2010-04-03T04:05:49Z" uid="20587" user="balrog-kun" changeset="4309442">
    <nd ref="317633787"/>
    <nd ref="317633783"/>
    <tag k="bridge" v="yes"/>
    <tag k="created_by" v="Potlatch 0.10f"/>
    <tag k="highway" v="residential"/>
    <tag k="layer" v="1"/>
    <tag k="name" v="Goodyear Road"/>
    <tag k="tiger:cfcc" v="A41"/>
    <tag k="tiger:county" v="Pinal, AZ"/>
    <tag k="tiger:name_base" v="Goodyear"/>
    <tag k="tiger:name_type" v="Rd"/>
    <tag k="tiger:reviewed" v="no"/>
    <tag k="tiger:separated" v="no"/>
    <tag k="tiger:source" v="tiger_import_dch_v0.6_20070809"/>
    <tag k="tiger:tlid" v="129228194:129228244:129228245:129162636:129155455:129162703:129162312:129162309:129162311:129162314:129162315:129234385:129162748:129228224:129224132:129210845:129218790:129162776:129162516"/>
  </way>
  <way id="28896442" version="3" timestamp="2010-04-03T04:05:50Z" uid="20587" user="balrog-kun" changeset="4309442">
    <nd ref="317634186"/>
    <nd ref="317634195"/>
    <tag k="bridge" v="yes"/>
    <tag k="created_by" v="Potlatch 0.10f"/>
    <tag k="highway" v="residential"/>
    <tag k="layer" v="1"/>
    <tag k="name" v="Riggs Road"/>
    <tag k="name_1" v="West Riggs Road"/>
    <tag k="tiger:cfcc" v="A41"/>
    <tag k="tiger:county" v="Maricopa, AZ"/>
    <tag k="tiger:name_base" v="Riggs"/>
    <tag k="tiger:name_base_1" v="Riggs"/>
    <tag k="tiger:name_direction_prefix_1" v="W"/>
    <tag k="tiger:name_type" v="Rd"/>
    <tag k="tiger:name_type_1" v="Rd"/>
    <tag k="tiger:reviewed" v="no"/>
    <tag k="tiger:separated" v="no"/>
    <tag k="tiger:source" v="tiger_import_dch_v0.6_20070809"/>
    <tag k="tiger:tlid" v="128149802:128149817:128149837:128149964:128149632:128149636:128149637:128149638:128788340:128788364:128788365:128318056:128149644:128126779:128126693:128126782:128126695:128126701:128126702:128126785:128126698"/>
  </way>
  <way id="28896442" version="4" timestamp="2010-05-04T17:22:31Z" uid="83527" user="SBadger" changeset="4606049"/>
  <way id="28896444" version="4" timestamp="2010-04-03T04:05:50Z" uid="20587" user="balrog-kun" changeset="4309442">
    <nd ref="317634195"/>
    <nd ref="41286594"/>
    <nd ref="42680955"/>
    <nd ref="42680959"/>
    <nd ref="42680963"/>
    <nd ref="42680974"/>
    <nd ref="42680982"/>
    <nd ref="41622350"/>
    <nd ref="42680994"/>
    <nd ref="42680998"/>
    <nd ref="42681001"/>
    <nd ref="42681004"/>
    <nd ref="42681009"/>
    <nd ref="42681012"/>
    <nd ref="42681014"/>
    <nd ref="42681017"/>
    <nd ref="41678251"/>
    <nd ref="42681023"/>
    <nd ref="42681028"/>
    <nd ref="41980630"/>
    <tag k="highway" v="secondary"/>
    <tag k="name" v="Riggs Road"/>
    <tag k="name_1" v="West Riggs Road"/>
    <tag k="tiger:cfcc" v="A41"/>
    <tag k="tiger:county" v="Maricopa, AZ"/>
    <tag k="tiger:name_base" v="Riggs"/>
    <tag k="tiger:name_base_1" v="Riggs"/>
    <tag k="tiger:name_direction_prefix_1" v="W"/>
    <tag k="tiger:name_type" v="Rd"/>
    <tag k="tiger:name_type_1" v="Rd"/>
    <tag k="tiger:reviewed" v="no"/>
    <tag k="tiger:separated" v="no"/>
    <tag k="tiger:source" v="tiger_import_dch_v0.6_20070809"/>
    <tag k="tiger:tlid" v="128149802:128149817:128149837:128149964:128149632:128149636:128149637:128149638:128788340:128788364:128788365:128318056:128149644:128126779:128126693:128126782:128126695:128126701:128126702:128126785:128126698"/>
  </way>
  <way id="28896444" version="5" timestamp="2010-05-04T17:14:38Z" uid="83527" user="SBadger" changeset="4605974"/>
  <way id="28896470" version="4" timestamp="2010-04-03T04:05:50Z" uid="20587" user="balrog-kun" changeset="4309442">
    <nd ref="317634262"/>
    <nd ref="41580395"/>
    <tag k="bridge" v="yes"/>
    <tag k="created_by" v="Potlatch 0.10f"/>
    <tag k="highway" v="secondary"/>
    <tag k="layer" v="1"/>
    <tag k="name" v="Queen Creek Rd; W Queen Creek Road"/>
    <tag k="tiger:cfcc" v="A41"/>
    <tag k="tiger:county" v="Maricopa, AZ"/>
    <tag k="tiger:name_base" v="Queen Creek"/>
    <tag k="tiger:name_direction_prefix" v="W"/>
    <tag k="tiger:name_type" v="Rd"/>
    <tag k="tiger:reviewed" v="no"/>
    <tag k="tiger:separated" v="no"/>
    <tag k="tiger:source" v="tiger_import_dch_v0.6_20070809"/>
    <tag k="tiger:tlid" v="128788354:128788370:128788371:128788377:128788378:128238361:128238378:128332340:128243710:128824731:128824732:128807773; 128344368:128805537:128344369:128243745:128271753"/>
    <tag k="tiger:zip_left" v="85248"/>
    <tag k="tiger:zip_right" v="85248"/>
  </way>
  <way id="28896470" version="5" timestamp="2011-03-23T17:21:52Z" uid="207745" user="NE2" changeset="7648212">
    <nd ref="317634262"/>
    <nd ref="41580395"/>
    <tag k="FIXME" v="name"/>
    <tag k="adot_name" v="Maricopa Road"/>
    <tag k="bridge" v="yes"/>
    <tag k="highway" v="secondary"/>
    <tag k="layer" v="1"/>
    <tag k="name" v="Queen Creek Rd; W Queen Creek Road"/>
    <tag k="ref" v="SR 347"/>
    <tag k="tiger:cfcc" v="A41"/>
    <tag k="tiger:county" v="Maricopa, AZ"/>
    <tag k="tiger:name_base" v="Queen Creek"/>
    <tag k="tiger:name_direction_prefix" v="W"/>
    <tag k="tiger:name_type" v="Rd"/>
    <tag k="tiger:reviewed" v="no"/>
    <tag k="tiger:separated" v="no"/>
    <tag k="tiger:source" v="tiger_import_dch_v0.6_20070809"/>
    <tag k="tiger:tlid" v="128788354:128788370:128788371:128788377:128788378:128238361:128238378:128332340:128243710:128824731:128824732:128807773; 128344368:128805537:128344369:128243745:128271753"/>
    <tag k="tiger:zip_left" v="85248"/>
    <tag k="tiger:zip_right" v="85248"/>
  </way>
  <way id="28896470" version="6" timestamp="2011-09-28T17:16:42Z" uid="207745" user="NE2" changeset="9421197">
    <nd ref="317634262"/>
    <nd ref="41580395"/>
    <tag k="FIXME" v="name?"/>
    <tag k="adot_name" v="Maricopa Road"/>
    <tag k="bridge" v="yes"/>
    <tag k="highway" v="secondary"/>
    <tag k="layer" v="1"/>
    <tag k="name" v="Queen Creek Rd; W Queen Creek Road"/>
    <tag k="ref" v="SR 347"/>
    <tag k="tiger:cfcc" v="A41"/>
    <tag k="tiger:county" v="Maricopa, AZ"/>
    <tag k="tiger:name_base" v="Queen Creek"/>
    <tag k="tiger:name_direction_prefix" v="W"/>
    <tag k="tiger:name_type" v="Rd"/>
    <tag k="tiger:reviewed" v="no"/>
    <tag k="tiger:separated" v="no"/>
    <tag k="tiger:source" v="tiger_import_dch_v0.6_20070809"/>
    <tag k="tiger:tlid" v="128788354:128788370:128788371:128788377:128788378:128238361:128238378:128332340:128243710:128824731:128824732:128807773; 128344368:128805537:128344369:128243745:128271753"/>
    <tag k="tiger:zip_left" v="85248"/>
    <tag k="tiger:zip_right" v="85248"/>
  </way>
  <way id="28896470" version="7" timestamp="2011-09-28T20:08:49Z" uid="207745" user="NE2" changeset="9422675">
    <nd ref="317634262"/>
    <nd ref="41580395"/>
    <tag k="FIXME" v="name?"/>
    <tag k="adot_name" v="Maricopa Road"/>
    <tag k="bridge" v="yes"/>
    <tag k="highway" v="primary"/>
    <tag k="lanes" v="4"/>
    <tag k="layer" v="1"/>
    <tag k="name" v="Queen Creek Rd; W Queen Creek Road"/>
    <tag k="ref" v="SR 347"/>
    <tag k="tiger:cfcc" v="A41"/>
    <tag k="tiger:county" v="Maricopa, AZ"/>
    <tag k="tiger:name_base" v="Queen Creek"/>
    <tag k="tiger:name_direction_prefix" v="W"/>
    <tag k="tiger:name_type" v="Rd"/>
    <tag k="tiger:reviewed" v="no"/>
    <tag k="tiger:separated" v="no"/>
    <tag k="tiger:source" v="tiger_import_dch_v0.6_20070809"/>
    <tag k="tiger:tlid" v="128788354:128788370:128788371:128788377:128788378:128238361:128238378:128332340:128243710:128824731:128824732:128807773; 128344368:128805537:128344369:128243745:128271753"/>
    <tag k="tiger:zip_left" v="85248"/>
    <tag k="tiger:zip_right" v="85248"/>
  </way>
  <way id="28896470" version="8" timestamp="2011-11-10T21:59:11Z" uid="239998" user="Sundance" changeset="9792718">
    <nd ref="317634262"/>
    <nd ref="41580395"/>
    <tag k="addr:postcode" v="85248"/>
    <tag k="adot_name" v="Maricopa Road"/>
    <tag k="bridge" v="yes"/>
    <tag k="highway" v="primary"/>
    <tag k="lanes" v="4"/>
    <tag k="layer" v="1"/>
    <tag k="name" v="West Queen Creek Road"/>
    <tag k="oneway" v="yes"/>
    <tag k="ref" v="AZ 347"/>
    <tag k="tiger:county" v="Maricopa, AZ"/>
    <tag k="tiger:reviewed" v="no"/>
    <tag k="tiger:source" v="tiger_import_dch_v0.6_20070809"/>
    <tag k="tiger:tlid" v="128788354:128788370:128788371:128788377:128788378:128238361:128238378:128332340:128243710:128824731:128824732:128807773; 128344368:128805537:128344369:128243745:128271753"/>
  </way>
  <way id="28896476" version="5" timestamp="2010-04-03T04:05:50Z" uid="20587" user="balrog-kun" changeset="4309442">
    <nd ref="41580395"/>
    <nd ref="41296889"/>
    <nd ref="41580397"/>
    <nd ref="41580399"/>
    <nd ref="41580401"/>
    <nd ref="255700559"/>
    <nd ref="41580402"/>
    <nd ref="255700600"/>
    <nd ref="390559938"/>
    <nd ref="255700601"/>
    <nd ref="255700602"/>
    <nd ref="390562484"/>
    <nd ref="255700603"/>
    <tag k="created_by" v="Potlatch 0.10f"/>
    <tag k="highway" v="secondary"/>
    <tag k="name" v="Queen Creek Rd; W Queen Creek Road"/>
    <tag k="tiger:cfcc" v="A41"/>
    <tag k="tiger:county" v="Maricopa, AZ"/>
    <tag k="tiger:name_base" v="Queen Creek"/>
    <tag k="tiger:name_direction_prefix" v="W"/>
    <tag k="tiger:name_type" v="Rd"/>
    <tag k="tiger:reviewed" v="no"/>
    <tag k="tiger:separated" v="no"/>
    <tag k="tiger:source" v="tiger_import_dch_v0.6_20070809"/>
    <tag k="tiger:tlid" v="128788354:128788370:128788371:128788377:128788378:128238361:128238378:128332340:128243710:128824731:128824732:128807773; 128344368:128805537:128344369:128243745:128271753"/>
    <tag k="tiger:zip_left" v="85248"/>
    <tag k="tiger:zip_right" v="85248"/>
  </way>
  <way id="28896476" version="6" timestamp="2011-03-23T17:22:55Z" uid="207745" user="NE2" changeset="7648212">
    <nd ref="41580395"/>
    <nd ref="41296889"/>
    <nd ref="41580397"/>
    <nd ref="41580399"/>
    <nd ref="41580401"/>
    <nd ref="255700559"/>
    <nd ref="41580402"/>
    <nd ref="255700600"/>
    <nd ref="390559938"/>
    <nd ref="255700601"/>
    <nd ref="255700602"/>
    <nd ref="390562484"/>
    <nd ref="255700603"/>
    <tag k="FIXME" v="name"/>
    <tag k="adot_name" v="Maricopa Road"/>
    <tag k="highway" v="secondary"/>
    <tag k="name" v="Queen Creek Rd; W Queen Creek Road"/>
    <tag k="ref" v="SR 347"/>
    <tag k="tiger:cfcc" v="A41"/>
    <tag k="tiger:county" v="Maricopa, AZ"/>
    <tag k="tiger:name_base" v="Queen Creek"/>
    <tag k="tiger:name_direction_prefix" v="W"/>
    <tag k="tiger:name_type" v="Rd"/>
    <tag k="tiger:reviewed" v="no"/>
    <tag k="tiger:separated" v="no"/>
    <tag k="tiger:source" v="tiger_import_dch_v0.6_20070809"/>
    <tag k="tiger:tlid" v="128788354:128788370:128788371:128788377:128788378:128238361:128238378:128332340:128243710:128824731:128824732:128807773; 128344368:128805537:128344369:128243745:128271753"/>
    <tag k="tiger:zip_left" v="85248"/>
    <tag k="tiger:zip_right" v="85248"/>
  </way>
  <way id="28896476" version="7" timestamp="2011-09-28T17:16:40Z" uid="207745" user="NE2" changeset="9421197">
    <nd ref="41580395"/>
    <nd ref="41296889"/>
    <nd ref="41580397"/>
    <nd ref="41580399"/>
    <nd ref="41580401"/>
    <nd ref="255700559"/>
    <nd ref="41580402"/>
    <nd ref="255700600"/>
    <nd ref="390559938"/>
    <nd ref="255700601"/>
    <nd ref="255700602"/>
    <nd ref="390562484"/>
    <nd ref="255700603"/>
    <tag k="FIXME" v="name?"/>
    <tag k="adot_name" v="Maricopa Road"/>
    <tag k="highway" v="secondary"/>
    <tag k="name" v="Queen Creek Rd; W Queen Creek Road"/>
    <tag k="ref" v="SR 347"/>
    <tag k="tiger:cfcc" v="A41"/>
    <tag k="tiger:county" v="Maricopa, AZ"/>
    <tag k="tiger:name_base" v="Queen Creek"/>
    <tag k="tiger:name_direction_prefix" v="W"/>
    <tag k="tiger:name_type" v="Rd"/>
    <tag k="tiger:reviewed" v="no"/>
    <tag k="tiger:separated" v="no"/>
    <tag k="tiger:source" v="tiger_import_dch_v0.6_20070809"/>
    <tag k="tiger:tlid" v="128788354:128788370:128788371:128788377:128788378:128238361:128238378:128332340:128243710:128824731:128824732:128807773; 128344368:128805537:128344369:128243745:128271753"/>
    <tag k="tiger:zip_left" v="85248"/>
    <tag k="tiger:zip_right" v="85248"/>
  </way>
  <way id="28896476" version="8" timestamp="2011-09-28T20:08:48Z" uid="207745" user="NE2" changeset="9422675">
    <nd ref="41580395"/>
    <nd ref="41296889"/>
    <nd ref="41580397"/>
    <nd ref="41580399"/>
    <nd ref="41580401"/>
    <nd ref="255700559"/>
    <nd ref="41580402"/>
    <nd ref="255700600"/>
    <nd ref="390559938"/>
    <nd ref="255700601"/>
    <nd ref="255700602"/>
    <nd ref="390562484"/>
    <nd ref="255700603"/>
    <tag k="FIXME" v="name?"/>
    <tag k="adot_name" v="Maricopa Road"/>
    <tag k="highway" v="primary"/>
    <tag k="lanes" v="4"/>
    <tag k="name" v="Queen Creek Rd; W Queen Creek Road"/>
    <tag k="ref" v="SR 347"/>
    <tag k="tiger:cfcc" v="A41"/>
    <tag k="tiger:county" v="Maricopa, AZ"/>
    <tag k="tiger:name_base" v="Queen Creek"/>
    <tag k="tiger:name_direction_prefix" v="W"/>
    <tag k="tiger:name_type" v="Rd"/>
    <tag k="tiger:reviewed" v="no"/>
    <tag k="tiger:separated" v="no"/>
    <tag k="tiger:source" v="tiger_import_dch_v0.6_20070809"/>
    <tag k="tiger:tlid" v="128788354:128788370:128788371:128788377:128788378:128238361:128238378:128332340:128243710:128824731:128824732:128807773; 128344368:128805537:128344369:128243745:128271753"/>
    <tag k="tiger:zip_left" v="85248"/>
    <tag k="tiger:zip_right" v="85248"/>
  </way>
  <way id="28896476" version="9" timestamp="2011-11-10T21:12:56Z" uid="239998" user="Sundance" changeset="9792354">
    <nd ref="41580395"/>
    <nd ref="41296889"/>
    <nd ref="41580397"/>
    <nd ref="41580399"/>
    <nd ref="41580401"/>
    <nd ref="255700559"/>
    <nd ref="41580402"/>
    <nd ref="255700600"/>
    <nd ref="390559938"/>
    <nd ref="255700601"/>
    <nd ref="255700602"/>
    <nd ref="390562484"/>
    <nd ref="255700603"/>
    <tag k="addr:postcode" v="85248"/>
    <tag k="adot_name" v="Maricopa Road"/>
    <tag k="highway" v="primary"/>
    <tag k="lanes" v="4"/>
    <tag k="name" v="West Queen Creek Road"/>
    <tag k="ref" v="AZ 347"/>
    <tag k="tiger:county" v="Maricopa, AZ"/>
    <tag k="tiger:reviewed" v="no"/>
    <tag k="tiger:source" v="tiger_import_dch_v0.6_20070809"/>
    <tag k="tiger:tlid" v="128788354:128788370:128788371:128788377:128788378:128238361:128238378:128332340:128243710:128824731:128824732:128807773; 128344368:128805537:128344369:128243745:128271753"/>
  </way>
  <way id="28896476" version="10" timestamp="2011-11-10T21:59:11Z" uid="239998" user="Sundance" changeset="9792718">
    <nd ref="41580395"/>
    <nd ref="41296889"/>
    <nd ref="1497855609"/>
    <nd ref="1497855506"/>
    <nd ref="1497855465"/>
    <nd ref="1497855597"/>
    <nd ref="1497855436"/>
    <nd ref="1497855206"/>
    <nd ref="1497855527"/>
    <nd ref="41580397"/>
    <nd ref="1497855237"/>
    <nd ref="1497855402"/>
    <nd ref="41580399"/>
    <nd ref="1497855377"/>
    <nd ref="1497855317"/>
    <nd ref="41580401"/>
    <nd ref="1497855373"/>
    <nd ref="1497855196"/>
    <nd ref="1497855316"/>
    <nd ref="255700559"/>
    <nd ref="1497855349"/>
    <nd ref="1497855438"/>
    <nd ref="41580402"/>
    <nd ref="1497855620"/>
    <nd ref="255700600"/>
    <nd ref="1497855179"/>
    <nd ref="1497855498"/>
    <nd ref="1497855398"/>
    <nd ref="1497855549"/>
    <nd ref="390559938"/>
    <nd ref="1497855266"/>
    <nd ref="255700601"/>
    <nd ref="1497855467"/>
    <nd ref="1497855554"/>
    <nd ref="255700602"/>
    <nd ref="1497855468"/>
    <nd ref="390562484"/>
    <nd ref="1497855545"/>
    <nd ref="255700603"/>
    <tag k="addr:postcode" v="85248"/>
    <tag k="adot_name" v="Maricopa Road"/>
    <tag k="highway" v="primary"/>
    <tag k="is_in" v="Maricopa, AZ"/>
    <tag k="lanes" v="2"/>
    <tag k="name" v="West Queen Creek Road"/>
    <tag k="oneway" v="yes"/>
    <tag k="ref" v="AZ 347"/>
    <tag k="tiger:reviewed" v="no"/>
    <tag k="tiger:source" v="tiger_import_dch_v0.6_20070809"/>
    <tag k="tiger:tlid" v="128788354:128788370:128788371:128788377:128788378:128238361:128238378:128332340:128243710:128824731:128824732:128807773; 128344368:128805537:128344369:128243745:128271753"/>
  </way>
  <way id="28896666" version="10" timestamp="2011-01-25T13:40:05Z" uid="115477" user="wowik" changeset="7083719">
    <nd ref="317636028"/>
    <nd ref="1119881266"/>
    <nd ref="1119881354"/>
    <nd ref="1119881275"/>
    <nd ref="1119881189"/>
    <nd ref="1119881385"/>
    <nd ref="1119881299"/>
    <nd ref="317636006"/>
    <nd ref="1119881361"/>
    <nd ref="1119881184"/>
    <nd ref="1119881379"/>
    <nd ref="1119881294"/>
    <nd ref="1119881205"/>
    <nd ref="1119881322"/>
    <nd ref="1119881127"/>
    <nd ref="1119881166"/>
    <nd ref="317636016"/>
    <nd ref="1119881373"/>
    <nd ref="1119881180"/>
    <nd ref="317636039"/>
    <nd ref="1119881120"/>
    <nd ref="1119881254"/>
    <nd ref="1119881343"/>
    <nd ref="1119881200"/>
    <nd ref="1119881289"/>
    <nd ref="756662661"/>
    <nd ref="756662659"/>
    <nd ref="317636028"/>
    <tag k="addr:city" v="Москва"/>
    <tag k="addr:country" v="RU"/>
    <tag k="addr:housenumber" v="1"/>
    <tag k="addr:street" v="улица Фомичёвой"/>
    <tag k="building" v="yes"/>
    <tag k="cladr:code" v="77000000000299600"/>
  </way>
  <way id="28896667" version="13" timestamp="2011-01-25T12:04:56Z" uid="115477" user="wowik" changeset="7082915">
    <nd ref="317636079"/>
    <nd ref="317636054"/>
    <nd ref="1119823452"/>
    <nd ref="1119823504"/>
    <nd ref="1119823461"/>
    <nd ref="1119823587"/>
    <nd ref="1119823574"/>
    <nd ref="1119823489"/>
    <nd ref="1119823570"/>
    <nd ref="1119823445"/>
    <nd ref="614192379"/>
    <nd ref="595752777"/>
    <nd ref="1119823573"/>
    <nd ref="1119823599"/>
    <nd ref="1119823475"/>
    <nd ref="1119823466"/>
    <nd ref="1119823427"/>
    <nd ref="1119823438"/>
    <nd ref="1119823525"/>
    <nd ref="1119823592"/>
    <nd ref="1119823515"/>
    <nd ref="1119823472"/>
    <nd ref="1119823541"/>
    <nd ref="1119823488"/>
    <nd ref="1119823432"/>
    <nd ref="1119823434"/>
    <nd ref="1119823487"/>
    <nd ref="1119823501"/>
    <nd ref="1119823455"/>
    <nd ref="1119823449"/>
    <nd ref="1119823584"/>
    <nd ref="1119823450"/>
    <nd ref="1119823586"/>
    <nd ref="1119823499"/>
    <nd ref="1119823568"/>
    <nd ref="1119823564"/>
    <nd ref="1119823485"/>
    <nd ref="1119823491"/>
    <nd ref="1119823429"/>
    <nd ref="1119823559"/>
    <nd ref="1119823482"/>
    <nd ref="1119823594"/>
    <nd ref="1119823467"/>
    <nd ref="1119823444"/>
    <nd ref="1119823548"/>
    <nd ref="1119823517"/>
    <nd ref="1119823458"/>
    <nd ref="1119823448"/>
    <nd ref="317636066"/>
    <nd ref="317636092"/>
    <nd ref="1119823443"/>
    <nd ref="1119823578"/>
    <nd ref="1119823440"/>
    <nd ref="1119823480"/>
    <nd ref="1119823583"/>
    <nd ref="1119823477"/>
    <nd ref="1119823544"/>
    <nd ref="1119823494"/>
    <nd ref="1119823581"/>
    <nd ref="1119823425"/>
    <nd ref="1119823465"/>
    <nd ref="1119823512"/>
    <nd ref="595752778"/>
    <nd ref="1119823470"/>
    <nd ref="1119823523"/>
    <nd ref="595752779"/>
    <nd ref="614192378"/>
    <nd ref="317636079"/>
    <tag k="addr:city" v="Москва"/>
    <tag k="addr:country" v="RU"/>
    <tag k="addr:housenumber" v="79"/>
    <tag k="addr:postcode" v="125481"/>
    <tag k="addr:street" v="улица Свободы"/>
    <tag k="building" v="yes"/>
    <tag k="cladr:code" v="77000000000258900"/>
  </way>
  <way id="28896667" version="14" timestamp="2011-02-06T15:49:54Z" uid="206282" user="Amigo" changeset="7205240">
    <nd ref="317636079"/>
    <nd ref="317636054"/>
    <nd ref="1119823452"/>
    <nd ref="1119823504"/>
    <nd ref="1119823461"/>
    <nd ref="1119823587"/>
    <nd ref="1119823574"/>
    <nd ref="1119823489"/>
    <nd ref="1119823570"/>
    <nd ref="1119823445"/>
    <nd ref="614192379"/>
    <nd ref="1139305638"/>
    <nd ref="1119823523"/>
    <nd ref="1139305821"/>
    <nd ref="614192378"/>
    <nd ref="317636079"/>
    <tag k="addr:city" v="Москва"/>
    <tag k="addr:country" v="RU"/>
    <tag k="addr:housenumber" v="79"/>
    <tag k="addr:postcode" v="125481"/>
    <tag k="addr:street" v="улица Свободы"/>
    <tag k="building" v="yes"/>
    <tag k="building:levels" v="2"/>
    <tag k="cladr:code" v="77000000000258900"/>
  </way>
  <way id="28896667" version="15" timestamp="2011-02-06T18:02:08Z" uid="206282" user="Amigo" changeset="7207162">
    <nd ref="317636079"/>
    <nd ref="317636054"/>
    <nd ref="1119823452"/>
    <nd ref="1119823504"/>
    <nd ref="1119823461"/>
    <nd ref="1119823587"/>
    <nd ref="1119823574"/>
    <nd ref="1119823489"/>
    <nd ref="1119823570"/>
    <nd ref="1119823445"/>
    <nd ref="614192379"/>
    <nd ref="1139305638"/>
    <nd ref="1119823523"/>
    <nd ref="1139483615"/>
    <nd ref="1139305821"/>
    <nd ref="614192378"/>
    <nd ref="317636079"/>
    <tag k="addr:city" v="Москва"/>
    <tag k="addr:country" v="RU"/>
    <tag k="addr:housenumber" v="79"/>
    <tag k="addr:postcode" v="125481"/>
    <tag k="addr:street" v="улица Свободы"/>
    <tag k="building" v="yes"/>
    <tag k="building:levels" v="2"/>
    <tag k="cladr:code" v="77000000000258900"/>
  </way>
  <way id="28896669" version="4" timestamp="2011-01-25T10:56:55Z" uid="115477" user="wowik" changeset="7082367">
    <nd ref="317636190"/>
    <nd ref="1119785921"/>
    <nd ref="1119786201"/>
    <nd ref="1119786068"/>
    <nd ref="1119785883"/>
    <nd ref="1119786075"/>
    <nd ref="1119786207"/>
    <nd ref="1119785865"/>
    <nd ref="1119786101"/>
    <nd ref="317636183"/>
    <nd ref="317636188"/>
    <nd ref="317636199"/>
    <nd ref="317636201"/>
    <nd ref="317636185"/>
    <nd ref="317636194"/>
    <nd ref="1119785818"/>
    <nd ref="1119785915"/>
    <nd ref="1119786252"/>
    <nd ref="1119786095"/>
    <nd ref="1119786196"/>
    <nd ref="1119786041"/>
    <nd ref="1119786151"/>
    <nd ref="1119786179"/>
    <nd ref="317636203"/>
    <nd ref="1119786064"/>
    <nd ref="317636197"/>
    <nd ref="317636192"/>
    <nd ref="317636207"/>
    <nd ref="317636181"/>
    <nd ref="317636190"/>
    <tag k="addr:city" v="Москва"/>
    <tag k="addr:country" v="RU"/>
    <tag k="addr:housenumber" v="91"/>
    <tag k="addr:street" v="улица Свободы"/>
    <tag k="building" v="yes"/>
    <tag k="cladr:code" v="77000000000258900"/>
  </way>
  <way id="28896669" version="5" timestamp="2011-01-25T11:33:10Z" uid="115477" user="wowik" changeset="7082670">
    <nd ref="317636190"/>
    <nd ref="1119785921"/>
    <nd ref="1119786201"/>
    <nd ref="1119786068"/>
    <nd ref="1119785883"/>
    <nd ref="1119809854"/>
    <nd ref="1119786207"/>
    <nd ref="1119785865"/>
    <nd ref="1119786101"/>
    <nd ref="317636183"/>
    <nd ref="317636188"/>
    <nd ref="317636199"/>
    <nd ref="317636201"/>
    <nd ref="317636185"/>
    <nd ref="317636194"/>
    <nd ref="1119785818"/>
    <nd ref="1119785915"/>
    <nd ref="1119786252"/>
    <nd ref="1119786095"/>
    <nd ref="1119786196"/>
    <nd ref="1119786041"/>
    <nd ref="1119786151"/>
    <nd ref="1119786179"/>
    <nd ref="317636203"/>
    <nd ref="1119786064"/>
    <nd ref="317636197"/>
    <nd ref="317636192"/>
    <nd ref="317636207"/>
    <nd ref="317636181"/>
    <nd ref="317636190"/>
    <tag k="addr:city" v="Москва"/>
    <tag k="addr:country" v="RU"/>
    <tag k="addr:housenumber" v="91"/>
    <tag k="addr:street" v="улица Свободы"/>
    <tag k="building" v="yes"/>
    <tag k="cladr:code" v="77000000000258900"/>
  </way>
  <way id="28896670" version="4" timestamp="2011-01-25T10:56:29Z" uid="115477" user="wowik" changeset="7082367">
    <nd ref="317636221"/>
    <nd ref="1119786082"/>
    <nd ref="1119786186"/>
    <nd ref="317636217"/>
    <nd ref="317636210"/>
    <nd ref="317636215"/>
    <nd ref="317636214"/>
    <nd ref="317636219"/>
    <nd ref="317636216"/>
    <nd ref="1119785832"/>
    <nd ref="1119785989"/>
    <nd ref="1119786229"/>
    <nd ref="1119786130"/>
    <nd ref="317636218"/>
    <nd ref="317636222"/>
    <nd ref="317636220"/>
    <nd ref="317636212"/>
    <nd ref="317636223"/>
    <nd ref="317636221"/>
    <tag k="addr:city" v="Москва"/>
    <tag k="addr:country" v="RU"/>
    <tag k="addr:housenumber" v="91 к1"/>
    <tag k="addr:street" v="улица Свободы"/>
    <tag k="building" v="yes"/>
    <tag k="cladr:code" v="77000000000258900"/>
  </way>
  <way id="28896670" version="5" timestamp="2011-01-25T12:04:42Z" uid="115477" user="wowik" changeset="7082915">
    <nd ref="317636221"/>
    <nd ref="1119786082"/>
    <nd ref="1119823436"/>
    <nd ref="1119823460"/>
    <nd ref="1119786186"/>
    <nd ref="317636217"/>
    <nd ref="317636210"/>
    <nd ref="317636215"/>
    <nd ref="317636214"/>
    <nd ref="317636219"/>
    <nd ref="317636216"/>
    <nd ref="1119785832"/>
    <nd ref="1119785989"/>
    <nd ref="1119786229"/>
    <nd ref="1119786130"/>
    <nd ref="317636218"/>
    <nd ref="317636222"/>
    <nd ref="317636220"/>
    <nd ref="317636212"/>
    <nd ref="317636223"/>
    <nd ref="317636221"/>
    <tag k="addr:city" v="Москва"/>
    <tag k="addr:country" v="RU"/>
    <tag k="addr:housenumber" v="91 к1"/>
    <tag k="addr:street" v="улица Свободы"/>
    <tag k="building" v="yes"/>
    <tag k="cladr:code" v="77000000000258900"/>
  </way>
  <way id="28896671" version="5" timestamp="2011-01-25T10:56:19Z" uid="115477" user="wowik" changeset="7082367">
    <nd ref="317636225"/>
    <nd ref="1119786261"/>
    <nd ref="1119786083"/>
    <nd ref="1119786187"/>
    <nd ref="1119785897"/>
    <nd ref="1119786215"/>
    <nd ref="1119786160"/>
    <nd ref="1119785834"/>
    <nd ref="1119786050"/>
    <nd ref="317636231"/>
    <nd ref="317636227"/>
    <nd ref="317636224"/>
    <nd ref="317636236"/>
    <nd ref="317636244"/>
    <nd ref="317636241"/>
    <nd ref="1119785808"/>
    <nd ref="1119786202"/>
    <nd ref="1119786070"/>
    <nd ref="1119785922"/>
    <nd ref="1119786102"/>
    <nd ref="1119786175"/>
    <nd ref="1119785866"/>
    <nd ref="1119786026"/>
    <nd ref="317636239"/>
    <nd ref="317636242"/>
    <nd ref="317636229"/>
    <nd ref="317636248"/>
    <nd ref="317636246"/>
    <nd ref="317636225"/>
    <tag k="addr:city" v="Москва"/>
    <tag k="addr:country" v="RU"/>
    <tag k="addr:housenumber" v="91 к2"/>
    <tag k="addr:street" v="улица Свободы"/>
    <tag k="building" v="yes"/>
    <tag k="cladr:code" v="77000000000258900"/>
  </way>
  <way id="28896672" version="4" timestamp="2011-01-25T10:56:43Z" uid="115477" user="wowik" changeset="7082367">
    <nd ref="317636292"/>
    <nd ref="317636250"/>
    <nd ref="317636298"/>
    <nd ref="317636252"/>
    <nd ref="317636295"/>
    <nd ref="317636300"/>
    <nd ref="317636253"/>
    <nd ref="317636255"/>
    <nd ref="317636306"/>
    <nd ref="317636303"/>
    <nd ref="317636257"/>
    <nd ref="317636261"/>
    <nd ref="1119786240"/>
    <nd ref="317636264"/>
    <nd ref="317636268"/>
    <nd ref="317636274"/>
    <nd ref="317636277"/>
    <nd ref="317636281"/>
    <nd ref="317636284"/>
    <nd ref="317636287"/>
    <nd ref="317636289"/>
    <nd ref="317636292"/>
    <tag k="addr:city" v="Москва"/>
    <tag k="addr:country" v="RU"/>
    <tag k="addr:housenumber" v="93"/>
    <tag k="addr:street" v="улица Свободы"/>
    <tag k="building" v="yes"/>
    <tag k="cladr:code" v="77000000000258900"/>
  </way>
  <way id="28896672" version="5" timestamp="2011-01-25T12:05:00Z" uid="115477" user="wowik" changeset="7082915">
    <nd ref="317636292"/>
    <nd ref="1119823439"/>
    <nd ref="1119823577"/>
    <nd ref="1119823490"/>
    <nd ref="1119823457"/>
    <nd ref="317636250"/>
    <nd ref="1119823546"/>
    <nd ref="1119823478"/>
    <nd ref="1119823426"/>
    <nd ref="1119823454"/>
    <nd ref="317636298"/>
    <nd ref="317636252"/>
    <nd ref="317636295"/>
    <nd ref="317636300"/>
    <nd ref="317636253"/>
    <nd ref="317636255"/>
    <nd ref="1119823441"/>
    <nd ref="1119823579"/>
    <nd ref="1119823492"/>
    <nd ref="1119823451"/>
    <nd ref="317636306"/>
    <nd ref="317636303"/>
    <nd ref="317636257"/>
    <nd ref="317636261"/>
    <nd ref="1119823511"/>
    <nd ref="317636264"/>
    <nd ref="317636268"/>
    <nd ref="317636274"/>
    <nd ref="1119823464"/>
    <nd ref="1119823424"/>
    <nd ref="1119823543"/>
    <nd ref="1119823476"/>
    <nd ref="317636277"/>
    <nd ref="317636281"/>
    <nd ref="317636284"/>
    <nd ref="317636287"/>
    <nd ref="317636289"/>
    <nd ref="317636292"/>
    <tag k="addr:city" v="Москва"/>
    <tag k="addr:country" v="RU"/>
    <tag k="addr:housenumber" v="93"/>
    <tag k="addr:street" v="улица Свободы"/>
    <tag k="building" v="yes"/>
    <tag k="cladr:code" v="77000000000258900"/>
  </way>
  <way id="28896674" version="5" timestamp="2011-01-25T10:56:59Z" uid="115477" user="wowik" changeset="7082367">
    <nd ref="317636330"/>
    <nd ref="317636333"/>
    <nd ref="317636336"/>
    <nd ref="317636339"/>
    <nd ref="317636341"/>
    <nd ref="317636344"/>
    <nd ref="317636347"/>
    <nd ref="1119785936"/>
    <nd ref="317636350"/>
    <nd ref="317636352"/>
    <nd ref="317636355"/>
    <nd ref="1119786111"/>
    <nd ref="317636358"/>
    <nd ref="317636361"/>
    <nd ref="317636330"/>
    <tag k="addr:city" v="Москва"/>
    <tag k="addr:country" v="RU"/>
    <tag k="addr:housenumber" v="24"/>
    <tag k="addr:street" v="Планерная улица"/>
    <tag k="building" v="yes"/>
    <tag k="cladr:code" v="77000000000229000"/>
  </way>
  <way id="28896675" version="5" timestamp="2011-01-25T10:56:51Z" uid="115477" user="wowik" changeset="7082367">
    <nd ref="317636371"/>
    <nd ref="317636370"/>
    <nd ref="317636374"/>
    <nd ref="1119785924"/>
    <nd ref="317636372"/>
    <nd ref="317636364"/>
    <nd ref="317636373"/>
    <nd ref="317636375"/>
    <nd ref="317636378"/>
    <nd ref="317636377"/>
    <nd ref="317636376"/>
    <nd ref="317636369"/>
    <nd ref="317636366"/>
    <nd ref="1119786230"/>
    <nd ref="317636371"/>
    <tag k="addr:city" v="Москва"/>
    <tag k="addr:country" v="RU"/>
    <tag k="addr:housenumber" v="24 к1"/>
    <tag k="addr:street" v="Планерная улица"/>
    <tag k="building" v="yes"/>
    <tag k="cladr:code" v="77000000000229000"/>
  </way>
  <way id="28896675" version="6" timestamp="2011-01-25T11:33:09Z" uid="115477" user="wowik" changeset="7082670">
    <nd ref="317636370"/>
    <nd ref="317636374"/>
    <nd ref="1119785924"/>
    <nd ref="317636372"/>
    <nd ref="317636364"/>
    <nd ref="317636373"/>
    <nd ref="317636375"/>
    <nd ref="317636378"/>
    <nd ref="317636377"/>
    <nd ref="317636376"/>
    <nd ref="317636369"/>
    <nd ref="317636366"/>
    <nd ref="1119786230"/>
    <nd ref="1119809851"/>
    <nd ref="317636370"/>
    <tag k="addr:city" v="Москва"/>
    <tag k="addr:country" v="RU"/>
    <tag k="addr:housenumber" v="24 к1"/>
    <tag k="addr:street" v="Планерная улица"/>
    <tag k="building" v="yes"/>
    <tag k="cladr:code" v="77000000000229000"/>
  </way>
  <way id="28896676" version="5" timestamp="2011-01-25T10:56:24Z" uid="115477" user="wowik" changeset="7082367">
    <nd ref="317636379"/>
    <nd ref="317636381"/>
    <nd ref="317636382"/>
    <nd ref="317636380"/>
    <nd ref="317636379"/>
    <tag k="addr:city" v="Москва"/>
    <tag k="addr:country" v="RU"/>
    <tag k="addr:housenumber" v="91 к1 с1"/>
    <tag k="addr:street" v="улица Свободы"/>
    <tag k="building" v="yes"/>
    <tag k="building:levels" v="1"/>
  </way>
  <way id="28896677" version="5" timestamp="2011-01-25T10:56:14Z" uid="115477" user="wowik" changeset="7082367">
    <nd ref="317636383"/>
    <nd ref="1119786177"/>
    <nd ref="1119786032"/>
    <nd ref="1119785812"/>
    <nd ref="1119786024"/>
    <nd ref="1119785845"/>
    <nd ref="1119786233"/>
    <nd ref="1119786134"/>
    <nd ref="1119785999"/>
    <nd ref="317636384"/>
    <nd ref="317636385"/>
    <nd ref="317636386"/>
    <nd ref="1119786090"/>
    <nd ref="1119786192"/>
    <nd ref="317636387"/>
    <nd ref="1119786206"/>
    <nd ref="1119785881"/>
    <nd ref="1119786072"/>
    <nd ref="1119786213"/>
    <nd ref="1119785894"/>
    <nd ref="1119786080"/>
    <nd ref="1119786108"/>
    <nd ref="1119786185"/>
    <nd ref="1119785829"/>
    <nd ref="1119785933"/>
    <nd ref="1119785919"/>
    <nd ref="1119786259"/>
    <nd ref="1119786158"/>
    <nd ref="1119786100"/>
    <nd ref="1119786046"/>
    <nd ref="1119786200"/>
    <nd ref="1119785864"/>
    <nd ref="1119786173"/>
    <nd ref="1119785796"/>
    <nd ref="1119786067"/>
    <nd ref="317636390"/>
    <nd ref="317636383"/>
    <tag k="addr:city" v="Москва"/>
    <tag k="addr:country" v="RU"/>
    <tag k="addr:housenumber" v="95 к2"/>
    <tag k="addr:street" v="улица Свободы"/>
    <tag k="building" v="yes"/>
    <tag k="cladr:code" v="77000000000258900"/>
  </way>
  <way id="28896680" version="7" timestamp="2011-01-25T12:05:16Z" uid="115477" user="wowik" changeset="7082915">
    <nd ref="317636442"/>
    <nd ref="1119823430"/>
    <nd ref="1119823561"/>
    <nd ref="317636444"/>
    <nd ref="317636445"/>
    <nd ref="1119823468"/>
    <nd ref="1119823519"/>
    <nd ref="317636443"/>
    <nd ref="317636442"/>
    <tag k="addr:city" v="Москва"/>
    <tag k="addr:country" v="RU"/>
    <tag k="addr:housenumber" v="75"/>
    <tag k="addr:street" v="улица Свободы"/>
    <tag k="building" v="yes"/>
    <tag k="cladr:code" v="77000000000258900"/>
  </way>
  <way id="28896681" version="7" timestamp="2011-01-25T12:05:05Z" uid="115477" user="wowik" changeset="7082915">
    <nd ref="317636446"/>
    <nd ref="317636448"/>
    <nd ref="1119823483"/>
    <nd ref="1119823582"/>
    <nd ref="1119823495"/>
    <nd ref="1119823446"/>
    <nd ref="317636449"/>
    <nd ref="317636447"/>
    <nd ref="317636446"/>
    <tag k="addr:city" v="Москва"/>
    <tag k="addr:country" v="RU"/>
    <tag k="addr:housenumber" v="75 к1"/>
    <tag k="addr:street" v="улица Свободы"/>
    <tag k="building" v="yes"/>
    <tag k="cladr:code" v="77000000000258900"/>
  </way>
  <way id="28896682" version="5" timestamp="2011-01-25T12:04:37Z" uid="115477" user="wowik" changeset="7082915">
    <nd ref="317636450"/>
    <nd ref="317636452"/>
    <nd ref="317636453"/>
    <nd ref="317636451"/>
    <nd ref="317636450"/>
    <tag k="addr:city" v="Москва"/>
    <tag k="addr:country" v="RU"/>
    <tag k="addr:housenumber" v="71 к1 с2"/>
    <tag k="addr:postcode" v="125481"/>
    <tag k="addr:street" v="улица Свободы"/>
    <tag k="building" v="yes"/>
    <tag k="building:levels" v="1"/>
    <tag k="cladr:code" v="77000000000258900"/>
  </way>
  <way id="28896683" version="5" timestamp="2011-01-25T12:39:31Z" uid="115477" user="wowik" changeset="7083203">
    <nd ref="317636454"/>
    <nd ref="1119844260"/>
    <nd ref="1119844102"/>
    <nd ref="317636456"/>
    <nd ref="317636457"/>
    <nd ref="1119844276"/>
    <nd ref="1119844292"/>
    <nd ref="317636455"/>
    <nd ref="317636454"/>
    <tag k="addr:city" v="Москва"/>
    <tag k="addr:country" v="RU"/>
    <tag k="addr:housenumber" v="8"/>
    <tag k="addr:street" v="улица Фомичёвой"/>
    <tag k="building" v="yes"/>
    <tag k="cladr:code" v="77000000000299600"/>
  </way>
  <way id="28896684" version="6" timestamp="2011-01-25T13:39:52Z" uid="115477" user="wowik" changeset="7083719">
    <nd ref="317636458"/>
    <nd ref="1119881342"/>
    <nd ref="1119881253"/>
    <nd ref="317636460"/>
    <nd ref="317636461"/>
    <nd ref="1119881360"/>
    <nd ref="1119881164"/>
    <nd ref="317636459"/>
    <nd ref="317636458"/>
    <tag k="addr:city" v="Москва"/>
    <tag k="addr:country" v="RU"/>
    <tag k="addr:housenumber" v="13"/>
    <tag k="addr:street" v="улица Фомичёвой"/>
    <tag k="building" v="yes"/>
    <tag k="cladr:code" v="77000000000299600"/>
  </way>
  <way id="28896685" version="5" timestamp="2011-01-25T13:39:45Z" uid="115477" user="wowik" changeset="7083719">
    <nd ref="317636462"/>
    <nd ref="1119881225"/>
    <nd ref="1119881317"/>
    <nd ref="317636464"/>
    <nd ref="317636465"/>
    <nd ref="317636463"/>
    <nd ref="1119881202"/>
    <nd ref="1119881123"/>
    <nd ref="317636462"/>
    <tag k="addr:city" v="Москва"/>
    <tag k="addr:country" v="RU"/>
    <tag k="addr:housenumber" v="13 к1"/>
    <tag k="addr:street" v="улица Фомичёвой"/>
    <tag k="building" v="yes"/>
  </way>
  <way id="28896685" version="6" timestamp="2011-04-23T16:42:19Z" uid="206282" user="Amigo" changeset="7945165">
    <nd ref="317636462"/>
    <nd ref="1119881225"/>
    <nd ref="1119881317"/>
    <nd ref="317636464"/>
    <nd ref="317636465"/>
    <nd ref="1256866819"/>
    <nd ref="317636463"/>
    <nd ref="1119881202"/>
    <nd ref="1119881123"/>
    <nd ref="317636462"/>
    <tag k="addr:city" v="Москва"/>
    <tag k="addr:country" v="RU"/>
    <tag k="addr:housenumber" v="13 к1"/>
    <tag k="addr:street" v="улица Фомичёвой"/>
    <tag k="building" v="yes"/>
  </way>
  <way id="28896754" version="5" timestamp="2010-04-03T04:05:51Z" uid="20587" user="balrog-kun" changeset="4309442">
    <nd ref="41674270"/>
    <nd ref="41674272"/>
    <nd ref="41412539"/>
    <tag k="created_by" v="Potlatch 0.10f"/>
    <tag k="highway" v="residential"/>
    <tag k="name" v="South Nelson Drive"/>
    <tag k="tiger:cfcc" v="A41"/>
    <tag k="tiger:county" v="Maricopa, AZ"/>
    <tag k="tiger:name_base" v="Nelson"/>
    <tag k="tiger:name_direction_prefix" v="S"/>
    <tag k="tiger:name_type" v="Dr"/>
    <tag k="tiger:reviewed" v="no"/>
    <tag k="tiger:separated" v="no"/>
    <tag k="tiger:source" v="tiger_import_dch_v0.6_20070809"/>
    <tag k="tiger:tlid" v="128310182:128238116:128238118"/>
    <tag k="tiger:zip_left" v="85226"/>
    <tag k="tiger:zip_right" v="85226"/>
  </way>
  <way id="28896793" version="2" timestamp="2008-12-28T16:19:03Z" uid="85955" user="Gerd Höweler" changeset="644635">
    <nd ref="317637210"/>
    <nd ref="317637213"/>
    <nd ref="317637214"/>
    <nd ref="317637215"/>
    <nd ref="317637216"/>
    <nd ref="317637217"/>
    <nd ref="317637218"/>
    <nd ref="317637219"/>
    <nd ref="317637220"/>
    <nd ref="317637221"/>
    <nd ref="317637222"/>
    <nd ref="317637223"/>
    <nd ref="317637224"/>
    <nd ref="317637225"/>
    <nd ref="317637226"/>
    <nd ref="317637227"/>
    <nd ref="317637228"/>
    <nd ref="317637229"/>
    <nd ref="317637230"/>
    <nd ref="317637231"/>
    <nd ref="317637232"/>
    <nd ref="317637233"/>
    <nd ref="317637234"/>
    <nd ref="317637235"/>
    <nd ref="317637236"/>
    <nd ref="317637237"/>
    <nd ref="317637238"/>
    <nd ref="317637239"/>
    <nd ref="300421272"/>
    <nd ref="322571386"/>
    <nd ref="322571339"/>
    <nd ref="322571342"/>
    <nd ref="322571344"/>
    <nd ref="322571346"/>
    <tag k="highway" v="footway"/>
    <tag k="surface" v="paved"/>
  </way>
  <way id="28896793" version="3" timestamp="2008-12-28T18:47:07Z" uid="85955" user="Gerd Höweler" changeset="653991">
    <nd ref="317637210"/>
    <nd ref="317637213"/>
    <nd ref="317637214"/>
    <nd ref="317637215"/>
    <nd ref="317637216"/>
    <nd ref="317637217"/>
    <nd ref="317637218"/>
    <nd ref="317637219"/>
    <nd ref="317637220"/>
    <nd ref="317637221"/>
    <nd ref="317637222"/>
    <nd ref="317637223"/>
    <nd ref="317637224"/>
    <nd ref="317637225"/>
    <nd ref="317637226"/>
    <nd ref="317637227"/>
    <nd ref="317637228"/>
    <nd ref="317637229"/>
    <nd ref="317637230"/>
    <nd ref="317637231"/>
    <nd ref="317637232"/>
    <nd ref="317637233"/>
    <nd ref="317637234"/>
    <nd ref="317637235"/>
    <nd ref="317637236"/>
    <nd ref="317637237"/>
    <nd ref="317637238"/>
    <nd ref="317637239"/>
    <nd ref="300421272"/>
    <nd ref="290910671"/>
    <nd ref="322571339"/>
    <nd ref="322571342"/>
    <nd ref="322571344"/>
    <nd ref="322571346"/>
    <tag k="highway" v="footway"/>
    <tag k="surface" v="paved"/>
  </way>
  <way id="28896793" version="4" timestamp="2009-01-13T16:56:19Z" uid="80110" user="nostalgia" changeset="784922">
    <nd ref="317637210"/>
    <nd ref="317637213"/>
    <nd ref="317637214"/>
    <nd ref="317637215"/>
    <nd ref="317637216"/>
    <nd ref="317637217"/>
    <nd ref="317637218"/>
    <nd ref="317637219"/>
    <nd ref="317637220"/>
    <nd ref="317637221"/>
    <nd ref="317637222"/>
    <nd ref="317637223"/>
    <nd ref="317637224"/>
    <nd ref="317637225"/>
    <nd ref="317637226"/>
    <nd ref="317637227"/>
    <nd ref="317637228"/>
    <nd ref="317637229"/>
    <nd ref="317637230"/>
    <nd ref="317637231"/>
    <nd ref="317637232"/>
    <nd ref="317637233"/>
    <nd ref="317637234"/>
    <nd ref="317637235"/>
    <nd ref="331854901"/>
    <nd ref="317637236"/>
    <nd ref="317637237"/>
    <nd ref="317637238"/>
    <nd ref="317637239"/>
    <nd ref="300421272"/>
    <nd ref="290910671"/>
    <nd ref="322571339"/>
    <nd ref="322571342"/>
    <nd ref="322571344"/>
    <nd ref="322571346"/>
    <tag k="highway" v="footway"/>
    <tag k="surface" v="paved"/>
  </way>
  <way id="28896793" version="5" timestamp="2009-01-13T17:10:08Z" uid="80110" user="nostalgia" changeset="784922">
    <nd ref="317637210"/>
    <nd ref="317637213"/>
    <nd ref="317637214"/>
    <nd ref="317637215"/>
    <nd ref="317637216"/>
    <nd ref="317637217"/>
    <nd ref="317637218"/>
    <nd ref="317637219"/>
    <nd ref="317637220"/>
    <nd ref="317637221"/>
    <nd ref="317637222"/>
    <nd ref="317637223"/>
    <nd ref="317637224"/>
    <nd ref="317637225"/>
    <nd ref="317637226"/>
    <nd ref="317637227"/>
    <nd ref="317637228"/>
    <nd ref="317637229"/>
    <nd ref="317637230"/>
    <nd ref="317637231"/>
    <nd ref="317637232"/>
    <nd ref="317637233"/>
    <nd ref="317637234"/>
    <nd ref="317637235"/>
    <nd ref="331854901"/>
    <nd ref="317637236"/>
    <nd ref="317637237"/>
    <nd ref="317637238"/>
    <nd ref="317637239"/>
    <nd ref="300421272"/>
    <nd ref="290910671"/>
    <nd ref="322571339"/>
    <nd ref="322571342"/>
    <nd ref="322571344"/>
    <nd ref="322571346"/>
    <nd ref="331856823"/>
    <nd ref="331856824"/>
    <nd ref="331856826"/>
    <nd ref="331856827"/>
    <nd ref="331856829"/>
    <nd ref="331856830"/>
    <nd ref="331856832"/>
    <nd ref="322571320"/>
    <tag k="highway" v="path"/>
    <tag k="surface" v="unpaved"/>
  </way>
  <way id="28896793" version="6" timestamp="2009-01-17T20:54:22Z" uid="80110" user="nostalgia" changeset="802575">
    <nd ref="317637210"/>
    <nd ref="317637213"/>
    <nd ref="317637214"/>
    <nd ref="317637215"/>
    <nd ref="317637216"/>
    <nd ref="317637217"/>
    <nd ref="317637218"/>
    <nd ref="317637219"/>
    <nd ref="317637220"/>
    <nd ref="317637221"/>
    <nd ref="317637222"/>
    <nd ref="317637223"/>
    <nd ref="317637224"/>
    <nd ref="317637225"/>
    <nd ref="317637226"/>
    <nd ref="317637227"/>
    <nd ref="317637228"/>
    <nd ref="317637229"/>
    <nd ref="317637230"/>
    <nd ref="317637231"/>
    <nd ref="317637232"/>
    <nd ref="317637233"/>
    <nd ref="317637234"/>
    <nd ref="317637235"/>
    <nd ref="331854901"/>
    <nd ref="317637236"/>
    <nd ref="317637237"/>
    <nd ref="317637238"/>
    <nd ref="317637239"/>
    <nd ref="300421272"/>
    <nd ref="290910671"/>
    <nd ref="322571339"/>
    <nd ref="322571342"/>
    <nd ref="322571344"/>
    <nd ref="322571346"/>
    <nd ref="332721336"/>
    <nd ref="331856823"/>
    <nd ref="331856824"/>
    <nd ref="331856826"/>
    <nd ref="331856827"/>
    <nd ref="332721338"/>
    <nd ref="331856829"/>
    <nd ref="331856830"/>
    <nd ref="331856832"/>
    <nd ref="322571320"/>
    <tag k="highway" v="path"/>
    <tag k="surface" v="unpaved"/>
  </way>
  <way id="28896793" version="7" timestamp="2009-01-20T19:59:15Z" uid="80110" user="nostalgia" changeset="818635">
    <nd ref="317637210"/>
    <nd ref="317637213"/>
    <nd ref="317637214"/>
    <nd ref="334333667"/>
    <nd ref="317637215"/>
    <nd ref="317637216"/>
    <nd ref="317637217"/>
    <nd ref="317637218"/>
    <nd ref="317637219"/>
    <nd ref="317637220"/>
    <nd ref="317637221"/>
    <nd ref="317637222"/>
    <nd ref="317637223"/>
    <nd ref="317637224"/>
    <nd ref="317637225"/>
    <nd ref="317637226"/>
    <nd ref="317637227"/>
    <nd ref="317637228"/>
    <nd ref="317637229"/>
    <nd ref="317637230"/>
    <nd ref="317637231"/>
    <nd ref="317637232"/>
    <nd ref="317637233"/>
    <nd ref="317637234"/>
    <nd ref="317637235"/>
    <nd ref="331854901"/>
    <nd ref="317637236"/>
    <nd ref="317637237"/>
    <nd ref="317637238"/>
    <nd ref="317637239"/>
    <nd ref="300421272"/>
    <nd ref="290910671"/>
    <nd ref="322571339"/>
    <nd ref="322571342"/>
    <nd ref="322571344"/>
    <nd ref="322571346"/>
    <nd ref="332721336"/>
    <nd ref="331856823"/>
    <nd ref="331856824"/>
    <nd ref="331856826"/>
    <nd ref="331856827"/>
    <nd ref="332721338"/>
    <nd ref="331856829"/>
    <nd ref="331856830"/>
    <nd ref="331856832"/>
    <nd ref="322571320"/>
    <tag k="highway" v="path"/>
    <tag k="surface" v="unpaved"/>
  </way>
  <way id="28896793" version="8" timestamp="2009-01-28T18:11:05Z" uid="80110" user="nostalgia" changeset="849535">
    <nd ref="317637210"/>
    <nd ref="317637213"/>
    <nd ref="317637214"/>
    <nd ref="334333667"/>
    <nd ref="317637215"/>
    <nd ref="317637216"/>
    <nd ref="317637217"/>
    <nd ref="317637218"/>
    <nd ref="317637219"/>
    <nd ref="317637220"/>
    <nd ref="317637221"/>
    <nd ref="317637222"/>
    <nd ref="317637223"/>
    <nd ref="317637224"/>
    <nd ref="317637225"/>
    <nd ref="317637226"/>
    <nd ref="317637227"/>
    <nd ref="317637228"/>
    <nd ref="317637229"/>
    <nd ref="317637230"/>
    <nd ref="317637231"/>
    <nd ref="317637232"/>
    <nd ref="317637233"/>
    <nd ref="317637234"/>
    <nd ref="317637235"/>
    <nd ref="331854901"/>
    <nd ref="317637236"/>
    <nd ref="317637237"/>
    <nd ref="317637238"/>
    <nd ref="317637239"/>
    <nd ref="300421272"/>
    <nd ref="290910671"/>
    <nd ref="322571339"/>
    <nd ref="322571342"/>
    <nd ref="322571344"/>
    <nd ref="322571346"/>
    <nd ref="332721336"/>
    <nd ref="331856823"/>
    <nd ref="331856824"/>
    <nd ref="331856826"/>
    <nd ref="331856827"/>
    <nd ref="332721338"/>
    <nd ref="331856829"/>
    <nd ref="331856830"/>
    <nd ref="331856832"/>
    <nd ref="322571320"/>
    <tag k="highway" v="path"/>
    <tag k="surface" v="paved"/>
  </way>
  <way id="28896793" version="9" timestamp="2009-02-06T17:44:51Z" uid="80110" user="nostalgia" changeset="208548">
    <nd ref="317637210"/>
    <nd ref="317637213"/>
    <nd ref="317637214"/>
    <nd ref="334333667"/>
    <nd ref="317637215"/>
    <nd ref="317637216"/>
    <nd ref="317637217"/>
    <nd ref="317637218"/>
    <nd ref="317637219"/>
    <nd ref="317637220"/>
    <nd ref="317637221"/>
    <nd ref="317637222"/>
    <nd ref="317637223"/>
    <nd ref="317637224"/>
    <nd ref="317637225"/>
    <nd ref="317637226"/>
    <nd ref="317637227"/>
    <nd ref="317637228"/>
    <nd ref="317637229"/>
    <nd ref="317637230"/>
    <nd ref="317637231"/>
    <nd ref="317637232"/>
    <nd ref="317637233"/>
    <nd ref="317637234"/>
    <nd ref="317637235"/>
    <nd ref="331854901"/>
    <nd ref="317637236"/>
    <nd ref="317637237"/>
    <nd ref="317637238"/>
    <nd ref="317637239"/>
    <nd ref="300421272"/>
    <nd ref="290910671"/>
    <nd ref="322571339"/>
    <nd ref="322571342"/>
    <nd ref="322571344"/>
    <nd ref="322571346"/>
    <nd ref="332721336"/>
    <nd ref="331856823"/>
    <nd ref="331856824"/>
    <nd ref="331856826"/>
    <nd ref="331856827"/>
    <nd ref="332721338"/>
    <nd ref="331856829"/>
    <nd ref="331856830"/>
    <nd ref="331856832"/>
    <nd ref="322571320"/>
    <tag k="highway" v="footway"/>
    <tag k="surface" v="paved"/>
  </way>
  <way id="28896793" version="10" timestamp="2012-03-28T12:29:37Z" uid="461103" user="nomatrix" changeset="11126519">
    <nd ref="317637210"/>
    <nd ref="334333667"/>
    <nd ref="317637216"/>
    <nd ref="317637217"/>
    <nd ref="317637218"/>
    <nd ref="317637219"/>
    <nd ref="317637220"/>
    <nd ref="317637221"/>
    <nd ref="317637222"/>
    <nd ref="317637223"/>
    <nd ref="317637224"/>
    <nd ref="317637225"/>
    <nd ref="317637226"/>
    <nd ref="317637227"/>
    <nd ref="317637228"/>
    <nd ref="317637229"/>
    <nd ref="317637230"/>
    <nd ref="317637231"/>
    <nd ref="317637232"/>
    <nd ref="317637233"/>
    <nd ref="317637234"/>
    <nd ref="317637235"/>
    <nd ref="331854901"/>
    <nd ref="317637236"/>
    <nd ref="317637237"/>
    <nd ref="317637238"/>
    <nd ref="317637239"/>
    <nd ref="300421272"/>
    <nd ref="290910671"/>
    <nd ref="322571339"/>
    <nd ref="322571342"/>
    <nd ref="322571344"/>
    <nd ref="322571346"/>
    <nd ref="332721336"/>
    <nd ref="331856823"/>
    <nd ref="331856824"/>
    <nd ref="331856826"/>
    <nd ref="331856827"/>
    <nd ref="332721338"/>
    <nd ref="331856829"/>
    <nd ref="331856830"/>
    <nd ref="331856832"/>
    <nd ref="322571320"/>
    <tag k="highway" v="footway"/>
    <tag k="surface" v="paved"/>
  </way>
  <way id="28896814" version="2" timestamp="2010-04-03T04:05:51Z" uid="20587" user="balrog-kun" changeset="4309442">
    <nd ref="317637439"/>
    <nd ref="317637474"/>
    <nd ref="317637475"/>
    <nd ref="317637476"/>
    <nd ref="317637477"/>
    <nd ref="317637478"/>
    <nd ref="317637479"/>
    <nd ref="317637480"/>
    <nd ref="317637481"/>
    <nd ref="317637482"/>
    <nd ref="41809122"/>
    <tag k="created_by" v="Potlatch 0.10f"/>
    <tag k="highway" v="residential"/>
    <tag k="name" v="Akimel Road"/>
  </way>
</osm>
