<?xml version='1.0' encoding='UTF-8'?>
<osm version="0.6" generator="libosmium/2.20.0">
  <way id="28901058" version="2" timestamp="2009-01-01T15:05:09Z" uid="43863" user="Rundling" changeset="702079"/>
  <way id="28901059" version="2" timestamp="2009-01-01T15:05:10Z" uid="43863" user="Rundling" changeset="702079"/>
  <way id="28901060" version="2" timestamp="2009-01-01T15:05:07Z" uid="43863" user="Rundling" changeset="702079"/>
  <way id="28901061" version="2" timestamp="2009-01-01T15:05:07Z" uid="43863" user="Rundling" changeset="702079"/>
  <way id="28901062" version="2" timestamp="2009-01-01T15:05:08Z" uid="43863" user="Rundling" changeset="702079"/>
  <way id="28901063" version="2" timestamp="2009-01-01T15:05:09Z" uid="43863" user="Rundling" changeset="702079"/>
  <way id="28901064" version="2" timestamp="2009-01-01T15:05:10Z" uid="43863" user="Rundling" changeset="702079"/>
  <way id="28901065" version="2" timestamp="2009-01-01T15:05:11Z" uid="43863" user="Rundling" changeset="702079"/>
  <way id="28901079" version="1" timestamp="2008-12-09T23:53:06Z" uid="17602" user="B10xyz" changeset="300950">
    <nd ref="317677217"/>
    <nd ref="317677218"/>
    <nd ref="317676172"/>
    <nd ref="317677219"/>
    <nd ref="317677220"/>
    <tag k="highway" v="footway"/>
  </way>
  <way id="28901079" version="2" timestamp="2008-12-10T00:01:55Z" uid="17602" user="B10xyz" changeset="300950">
    <nd ref="317677217"/>
    <nd ref="317677218"/>
    <nd ref="317676172"/>
    <nd ref="317677219"/>
    <nd ref="317677220"/>
    <tag k="created_by" v="Potlatch 0.10f"/>
    <tag k="highway" v="footway"/>
  </way>
  <way id="28901079" version="3" timestamp="2008-12-10T00:03:09Z" uid="17602" user="B10xyz" changeset="300950">
    <nd ref="317677217"/>
    <nd ref="317677218"/>
    <nd ref="317676172"/>
    <nd ref="317677219"/>
    <nd ref="317677220"/>
    <tag k="created_by" v="Potlatch 0.10f"/>
    <tag k="highway" v="footway"/>
  </way>
  <way id="28901079" version="4" timestamp="2009-03-11T02:05:13Z" uid="17602" user="B10xyz" changeset="787544">
    <nd ref="317677217"/>
    <nd ref="317677218"/>
    <nd ref="317676172"/>
    <nd ref="317677219"/>
    <nd ref="317677220"/>
    <tag k="highway" v="footway"/>
  </way>
  <way id="28901079" version="5" timestamp="2011-07-14T13:57:35Z" uid="486260" user="Luca81" changeset="8721678">
    <nd ref="317677217"/>
    <nd ref="317677218"/>
    <nd ref="317676172"/>
    <nd ref="317677219"/>
    <nd ref="317677220"/>
    <tag k="highway" v="pedestrian"/>
  </way>
  <way id="28901089" version="3" timestamp="2010-04-03T04:05:55Z" uid="20587" user="balrog-kun" changeset="4309442">
    <nd ref="41708491"/>
    <nd ref="317677311"/>
    <tag k="created_by" v="Potlatch 0.10f"/>
    <tag k="highway" v="residential"/>
    <tag k="name" v="South Rita Lane"/>
    <tag k="tiger:cfcc" v="A41"/>
    <tag k="tiger:county" v="Maricopa, AZ"/>
    <tag k="tiger:name_base" v="Rita"/>
    <tag k="tiger:name_direction_prefix" v="S"/>
    <tag k="tiger:name_type" v="Ln"/>
    <tag k="tiger:reviewed" v="no"/>
    <tag k="tiger:separated" v="no"/>
    <tag k="tiger:source" v="tiger_import_dch_v0.6_20070809"/>
    <tag k="tiger:tlid" v="128813332"/>
    <tag k="tiger:zip_left" v="85284"/>
  </way>
  <way id="28901091" version="3" timestamp="2010-07-09T05:20:05Z" uid="74617" user="JohnSmith" changeset="5170986">
    <nd ref="317677278"/>
    <nd ref="582556051"/>
    <nd ref="582556059"/>
    <nd ref="317677313"/>
    <tag k="highway" v="residential"/>
    <tag k="maxspeed" v="50"/>
    <tag k="maxspeed:source" v="default residential speed limit in Australia"/>
    <tag k="name" v="Barbra Street"/>
    <tag k="source" v="MMBW"/>
  </way>
  <way id="28901091" version="4" timestamp="2012-01-17T23:47:38Z" uid="147510" user="woodpeck_fixbot" changeset="10421060">
    <nd ref="317677278"/>
    <nd ref="582556051"/>
    <nd ref="582556059"/>
    <nd ref="317677313"/>
    <tag k="highway" v="residential"/>
    <tag k="name" v="Barbra Street"/>
    <tag k="source" v="MMBW"/>
  </way>
  <way id="28901092" version="3" timestamp="2010-07-09T05:18:15Z" uid="74617" user="JohnSmith" changeset="5170986">
    <nd ref="317677318"/>
    <nd ref="317677313"/>
    <tag k="highway" v="residential"/>
    <tag k="maxspeed" v="50"/>
    <tag k="maxspeed:source" v="default residential speed limit in Australia"/>
    <tag k="name" v="Benbrook Avenue"/>
    <tag k="source" v="MMBW"/>
  </way>
  <way id="28901092" version="4" timestamp="2012-01-17T23:47:39Z" uid="147510" user="woodpeck_fixbot" changeset="10421060">
    <nd ref="317677318"/>
    <nd ref="317677313"/>
    <tag k="highway" v="residential"/>
    <tag k="name" v="Benbrook Avenue"/>
    <tag k="source" v="MMBW"/>
  </way>
  <way id="28901099" version="5" timestamp="2010-07-09T05:17:32Z" uid="74617" user="JohnSmith" changeset="5170986">
    <nd ref="346575579"/>
    <nd ref="30949129"/>
    <nd ref="346575485"/>
    <nd ref="30949130"/>
    <tag k="highway" v="residential"/>
    <tag k="maxspeed" v="50"/>
    <tag k="maxspeed:source" v="default residential speed limit in Australia"/>
    <tag k="name" v="Horfield Avenue"/>
  </way>
  <way id="28901099" version="6" timestamp="2010-07-28T12:35:05Z" uid="46482" user="Leon K" changeset="5337659">
    <nd ref="346575579"/>
    <nd ref="30949129"/>
    <nd ref="346575485"/>
    <nd ref="836242951"/>
    <nd ref="30949130"/>
    <tag k="highway" v="residential"/>
    <tag k="maxspeed" v="50"/>
    <tag k="maxspeed:source" v="default residential speed limit in Australia"/>
    <tag k="name" v="Horfield Avenue"/>
  </way>
  <way id="28901099" version="7" timestamp="2012-01-17T23:47:41Z" uid="147510" user="woodpeck_fixbot" changeset="10421060">
    <nd ref="346575579"/>
    <nd ref="30949129"/>
    <nd ref="346575485"/>
    <nd ref="836242951"/>
    <nd ref="30949130"/>
    <tag k="highway" v="residential"/>
    <tag k="name" v="Horfield Avenue"/>
  </way>
  <way id="28901100" version="2" timestamp="2010-04-03T04:05:55Z" uid="20587" user="balrog-kun" changeset="4309442">
    <nd ref="317677334"/>
    <nd ref="42027083"/>
    <tag k="created_by" v="Potlatch 0.10f"/>
    <tag k="highway" v="residential"/>
    <tag k="name" v="South Rita Lane"/>
    <tag k="tiger:cfcc" v="A41"/>
    <tag k="tiger:county" v="Maricopa, AZ"/>
    <tag k="tiger:name_base" v="Rita"/>
    <tag k="tiger:name_direction_prefix" v="S"/>
    <tag k="tiger:name_type" v="Ln"/>
    <tag k="tiger:reviewed" v="no"/>
    <tag k="tiger:separated" v="no"/>
    <tag k="tiger:source" v="tiger_import_dch_v0.6_20070809"/>
    <tag k="tiger:tlid" v="128813332"/>
    <tag k="tiger:zip_left" v="85284"/>
  </way>
  <way id="28901117" version="2" timestamp="2009-01-02T19:17:27Z" uid="1066" user="pavel" changeset="711202">
    <nd ref="317677454"/>
    <nd ref="317677456"/>
    <nd ref="317677457"/>
    <nd ref="317677458"/>
    <nd ref="317677459"/>
    <nd ref="317677460"/>
    <nd ref="317677461"/>
    <tag k="highway" v="residential"/>
    <tag k="kct_blue" v="special"/>
    <tag k="kct_red" v="special"/>
    <tag k="kct_yellow" v="major"/>
  </way>
  <way id="28901117" version="3" timestamp="2010-03-04T01:32:10Z" uid="3516" user="BiIbo" changeset="4029792">
    <nd ref="317677454"/>
    <nd ref="660020598"/>
    <nd ref="317677456"/>
    <nd ref="317677457"/>
    <nd ref="660020604"/>
    <nd ref="660020608"/>
    <nd ref="317677458"/>
    <nd ref="317677459"/>
    <nd ref="317677460"/>
    <nd ref="317677461"/>
    <tag k="highway" v="residential"/>
    <tag k="kct_blue" v="special"/>
    <tag k="kct_red" v="special"/>
    <tag k="kct_yellow" v="major"/>
  </way>
  <way id="28901117" version="4" timestamp="2011-05-29T10:52:09Z" uid="19173" user="wopixe" changeset="8279623">
    <nd ref="317677454"/>
    <nd ref="660020598"/>
    <nd ref="317677456"/>
    <nd ref="317677457"/>
    <nd ref="660020604"/>
    <nd ref="660020608"/>
    <nd ref="317677458"/>
    <nd ref="317677459"/>
    <nd ref="317677460"/>
    <nd ref="317677461"/>
    <tag k="highway" v="residential"/>
    <tag k="kct_blue" v="special"/>
    <tag k="kct_red" v="special"/>
  </way>
  <way id="28901117" version="5" timestamp="2011-07-08T19:46:25Z" uid="25176" user="jttt" changeset="8668991">
    <nd ref="317677454"/>
    <nd ref="660020598"/>
    <nd ref="317677456"/>
    <nd ref="317677457"/>
    <nd ref="660020604"/>
    <nd ref="660020608"/>
    <nd ref="317677458"/>
    <nd ref="317677459"/>
    <nd ref="317677460"/>
    <nd ref="317677461"/>
    <tag k="highway" v="residential"/>
    <tag k="kct_blue" v="special"/>
  </way>
  <way id="28901117" version="6" timestamp="2011-07-10T09:09:01Z" uid="417405" user="jiri2" changeset="8681279">
    <nd ref="317677454"/>
    <nd ref="660020598"/>
    <nd ref="317677456"/>
    <nd ref="317677457"/>
    <nd ref="660020604"/>
    <nd ref="660020608"/>
    <nd ref="317677458"/>
    <nd ref="317677459"/>
    <nd ref="317677460"/>
    <nd ref="317677461"/>
    <tag k="highway" v="residential"/>
  </way>
  <way id="28901117" version="7" timestamp="2012-02-02T22:03:52Z" uid="8007" user="vrabcak" changeset="10571526"/>
  <way id="28901118" version="2" timestamp="2009-01-02T19:17:41Z" uid="1066" user="pavel" changeset="711202"/>
  <way id="28901119" version="2" timestamp="2009-01-02T19:17:09Z" uid="1066" user="pavel" changeset="711202">
    <nd ref="317677486"/>
    <nd ref="317677485"/>
    <nd ref="317677484"/>
    <nd ref="317677483"/>
    <nd ref="317677482"/>
    <nd ref="317677481"/>
    <nd ref="317677480"/>
    <nd ref="317677516"/>
    <nd ref="317677461"/>
    <tag k="highway" v="residential"/>
  </way>
  <way id="28901119" version="3" timestamp="2010-03-03T19:42:56Z" uid="3516" user="BiIbo" changeset="4027663">
    <nd ref="317677486"/>
    <nd ref="317677485"/>
    <nd ref="317677484"/>
    <nd ref="659899833"/>
    <nd ref="317677483"/>
    <nd ref="317677482"/>
    <nd ref="659899834"/>
    <nd ref="317677481"/>
    <nd ref="317677480"/>
    <nd ref="317677516"/>
    <nd ref="317677461"/>
    <tag k="highway" v="residential"/>
  </way>
  <way id="28901119" version="4" timestamp="2010-03-03T19:43:53Z" uid="3516" user="BiIbo" changeset="4027663">
    <nd ref="317677486"/>
    <nd ref="317677485"/>
    <nd ref="317677484"/>
    <nd ref="659899833"/>
    <nd ref="317677483"/>
    <nd ref="317677482"/>
    <nd ref="659899834"/>
    <nd ref="317677481"/>
    <nd ref="317677480"/>
    <nd ref="317677461"/>
    <tag k="highway" v="residential"/>
  </way>
  <way id="28901119" version="5" timestamp="2012-02-02T22:03:51Z" uid="8007" user="vrabcak" changeset="10571526"/>
  <way id="28901120" version="2" timestamp="2009-01-02T19:17:42Z" uid="1066" user="pavel" changeset="711202"/>
  <way id="28901121" version="2" timestamp="2009-01-02T19:17:34Z" uid="1066" user="pavel" changeset="711202">
    <nd ref="317677516"/>
    <nd ref="317677468"/>
    <nd ref="324721212"/>
    <nd ref="317677469"/>
    <nd ref="324721211"/>
    <nd ref="317677470"/>
    <nd ref="317677473"/>
    <nd ref="317677511"/>
    <nd ref="317677515"/>
    <nd ref="324721215"/>
    <nd ref="317677512"/>
    <nd ref="324721213"/>
    <nd ref="317677514"/>
    <nd ref="317677513"/>
    <tag k="highway" v="track"/>
    <tag k="kct_yellow" v="major"/>
  </way>
  <way id="28901121" version="3" timestamp="2010-03-03T19:43:53Z" uid="3516" user="BiIbo" changeset="4027663">
    <nd ref="317677461"/>
    <nd ref="317677468"/>
    <nd ref="324721212"/>
    <nd ref="317677469"/>
    <nd ref="324721211"/>
    <nd ref="317677470"/>
    <nd ref="317677473"/>
    <nd ref="317677511"/>
    <nd ref="317677515"/>
    <nd ref="324721215"/>
    <nd ref="317677512"/>
    <nd ref="324721213"/>
    <nd ref="317677514"/>
    <nd ref="317677513"/>
    <tag k="highway" v="track"/>
    <tag k="kct_yellow" v="major"/>
  </way>
  <way id="28901121" version="4" timestamp="2011-05-29T10:52:13Z" uid="19173" user="wopixe" changeset="8279623">
    <nd ref="317677461"/>
    <nd ref="317677468"/>
    <nd ref="324721212"/>
    <nd ref="317677469"/>
    <nd ref="324721211"/>
    <nd ref="317677470"/>
    <nd ref="317677473"/>
    <nd ref="317677511"/>
    <nd ref="317677515"/>
    <nd ref="324721215"/>
    <nd ref="317677512"/>
    <nd ref="324721213"/>
    <nd ref="317677514"/>
    <nd ref="317677513"/>
    <tag k="highway" v="track"/>
  </way>
  <way id="28901121" version="5" timestamp="2012-02-02T22:03:49Z" uid="8007" user="vrabcak" changeset="10571526">
    <nd ref="317677461"/>
    <nd ref="317677468"/>
    <nd ref="324721212"/>
    <nd ref="317677469"/>
    <nd ref="324721211"/>
    <nd ref="317677470"/>
    <nd ref="317677473"/>
    <tag k="highway" v="track"/>
    <tag k="tracktype" v="grade2"/>
  </way>
  <way id="28901121" version="6" timestamp="2012-02-02T22:30:24Z" uid="8007" user="vrabcak" changeset="10571526"/>
  <way id="28901122" version="2" timestamp="2009-01-02T19:17:39Z" uid="1066" user="pavel" changeset="711202"/>
  <way id="28901135" version="2" timestamp="2010-07-09T05:16:13Z" uid="74617" user="JohnSmith" changeset="5170986">
    <nd ref="317677559"/>
    <nd ref="317677567"/>
    <tag k="highway" v="residential"/>
    <tag k="maxspeed" v="50"/>
    <tag k="maxspeed:source" v="default residential speed limit in Australia"/>
    <tag k="name" v="Gracefield Drive"/>
  </way>
  <way id="28901135" version="3" timestamp="2012-01-17T23:47:42Z" uid="147510" user="woodpeck_fixbot" changeset="10421060">
    <nd ref="317677559"/>
    <nd ref="317677567"/>
    <tag k="highway" v="residential"/>
    <tag k="name" v="Gracefield Drive"/>
  </way>
  <way id="28901189" version="2" timestamp="2010-07-09T05:17:36Z" uid="74617" user="JohnSmith" changeset="5170986">
    <nd ref="70571916"/>
    <nd ref="317677799"/>
    <nd ref="317677800"/>
    <tag k="highway" v="residential"/>
    <tag k="maxspeed" v="50"/>
    <tag k="maxspeed:source" v="default residential speed limit in Australia"/>
    <tag k="name" v="Paul Avenue"/>
    <tag k="source" v="MMBW"/>
  </way>
  <way id="28901189" version="3" timestamp="2010-07-30T02:01:03Z" uid="4467" user="Rosscoe" changeset="5351286">
    <nd ref="70571916"/>
    <nd ref="838224695"/>
    <nd ref="317677799"/>
    <nd ref="317677800"/>
    <tag k="highway" v="residential"/>
    <tag k="maxspeed" v="50"/>
    <tag k="maxspeed:source" v="default residential speed limit in Australia"/>
    <tag k="name" v="Paul Avenue"/>
    <tag k="source" v="nearmap"/>
  </way>
  <way id="28901189" version="4" timestamp="2012-01-17T23:47:43Z" uid="147510" user="woodpeck_fixbot" changeset="10421060">
    <nd ref="70571916"/>
    <nd ref="838224695"/>
    <nd ref="317677799"/>
    <nd ref="317677800"/>
    <tag k="highway" v="residential"/>
    <tag k="name" v="Paul Avenue"/>
    <tag k="source" v="nearmap"/>
  </way>
  <way id="28901195" version="7" timestamp="2010-03-28T00:24:26Z" uid="20587" user="balrog-kun" changeset="4250871">
    <nd ref="317663450"/>
    <nd ref="310688433"/>
    <nd ref="25266714"/>
    <nd ref="25266715"/>
    <nd ref="565784355"/>
    <tag k="highway" v="motorway"/>
    <tag k="layer" v="1"/>
    <tag k="name" v="San Bernardino Freeway"/>
    <tag k="oneway" v="yes"/>
    <tag k="ref" v="I 10"/>
  </way>
  <way id="28901195" version="8" timestamp="2011-06-28T19:25:18Z" uid="4951" user="PeterIto" changeset="8574487">
    <nd ref="317663450"/>
    <nd ref="310688433"/>
    <nd ref="25266714"/>
    <nd ref="25266715"/>
    <nd ref="565784355"/>
    <tag k="highway" v="motorway"/>
    <tag k="name" v="San Bernardino Freeway"/>
    <tag k="oneway" v="yes"/>
    <tag k="ref" v="I 10"/>
  </way>
  <way id="28901195" version="9" timestamp="2011-08-02T08:06:47Z" uid="207745" user="NE2" changeset="8898279">
    <nd ref="317663450"/>
    <nd ref="310688433"/>
    <nd ref="25266714"/>
    <nd ref="25266715"/>
    <nd ref="565784355"/>
    <tag k="highway" v="motorway"/>
    <tag k="hov" v="lane"/>
    <tag k="lanes" v="5"/>
    <tag k="name" v="San Bernardino Freeway"/>
    <tag k="note:lanes" v="left lane is hov"/>
    <tag k="oneway" v="yes"/>
    <tag k="ref" v="I 10"/>
    <tag k="x" v="x"/>
  </way>
  <way id="28901195" version="10" timestamp="2011-08-07T19:53:40Z" uid="207745" user="NE2" changeset="8951104">
    <nd ref="317663450"/>
    <nd ref="310688433"/>
    <nd ref="25266714"/>
    <nd ref="25266715"/>
    <nd ref="565784355"/>
    <tag k="highway" v="motorway"/>
    <tag k="hov" v="lane"/>
    <tag k="lanes" v="5"/>
    <tag k="name" v="San Bernardino Freeway"/>
    <tag k="note:lanes" v="left lane is hov"/>
    <tag k="oneway" v="yes"/>
    <tag k="ref" v="I 10"/>
  </way>
  <way id="28901195" version="11" timestamp="2011-11-25T15:03:29Z" uid="207745" user="NE2" changeset="9943893">
    <nd ref="317663450"/>
    <nd ref="310688433"/>
    <nd ref="25266714"/>
    <nd ref="25266715"/>
    <nd ref="565784355"/>
    <tag k="hgv" v="designated"/>
    <tag k="highway" v="motorway"/>
    <tag k="hov" v="lane"/>
    <tag k="lanes" v="5"/>
    <tag k="name" v="San Bernardino Freeway"/>
    <tag k="note:lanes" v="left lane is hov"/>
    <tag k="oneway" v="yes"/>
    <tag k="ref" v="I 10"/>
  </way>
  <way id="28901197" version="5" timestamp="2010-03-28T00:24:26Z" uid="20587" user="balrog-kun" changeset="4250871">
    <nd ref="317677955"/>
    <nd ref="317677962"/>
    <nd ref="317677964"/>
    <nd ref="317677965"/>
    <tag k="highway" v="motorway"/>
    <tag k="name" v="San Bernardino Freeway"/>
    <tag k="oneway" v="yes"/>
    <tag k="ref" v="I 10"/>
  </way>
  <way id="28901197" version="6" timestamp="2011-08-02T08:06:44Z" uid="207745" user="NE2" changeset="8898279">
    <nd ref="317677955"/>
    <nd ref="317677962"/>
    <nd ref="317677964"/>
    <nd ref="317677965"/>
    <tag k="highway" v="motorway"/>
    <tag k="lanes" v="4"/>
    <tag k="name" v="San Bernardino Freeway"/>
    <tag k="oneway" v="yes"/>
    <tag k="ref" v="I 10"/>
    <tag k="x" v="x"/>
  </way>
  <way id="28901197" version="7" timestamp="2011-11-25T15:03:06Z" uid="207745" user="NE2" changeset="9943893">
    <nd ref="317677955"/>
    <nd ref="317677962"/>
    <nd ref="317677964"/>
    <nd ref="317677965"/>
    <tag k="hgv" v="designated"/>
    <tag k="highway" v="motorway"/>
    <tag k="lanes" v="4"/>
    <tag k="name" v="San Bernardino Freeway"/>
    <tag k="oneway" v="yes"/>
    <tag k="ref" v="I 10"/>
    <tag k="x" v="x"/>
  </way>
  <way id="28901197" version="8" timestamp="2012-02-07T09:30:27Z" uid="207745" user="NE2" changeset="10610324">
    <nd ref="317677955"/>
    <nd ref="317677962"/>
    <nd ref="317677964"/>
    <nd ref="317677965"/>
    <tag k="hgv" v="designated"/>
    <tag k="highway" v="motorway"/>
    <tag k="lanes" v="4"/>
    <tag k="name" v="San Bernardino Freeway"/>
    <tag k="oneway" v="yes"/>
    <tag k="ref" v="I 10"/>
  </way>
  <way id="28901199" version="4" timestamp="2010-07-09T05:19:52Z" uid="74617" user="JohnSmith" changeset="5170986">
    <nd ref="317677953"/>
    <nd ref="317677980"/>
    <nd ref="317677982"/>
    <nd ref="317677983"/>
    <nd ref="317677985"/>
    <nd ref="317677986"/>
    <nd ref="582558499"/>
    <nd ref="317677970"/>
    <tag k="highway" v="residential"/>
    <tag k="maxspeed" v="50"/>
    <tag k="maxspeed:source" v="default residential speed limit in Australia"/>
    <tag k="name" v="St. Phillips Place"/>
  </way>
  <way id="28901199" version="5" timestamp="2012-01-17T23:47:44Z" uid="147510" user="woodpeck_fixbot" changeset="10421060">
    <nd ref="317677953"/>
    <nd ref="317677980"/>
    <nd ref="317677982"/>
    <nd ref="317677983"/>
    <nd ref="317677985"/>
    <nd ref="317677986"/>
    <nd ref="582558499"/>
    <nd ref="317677970"/>
    <tag k="highway" v="residential"/>
    <tag k="name" v="St. Phillips Place"/>
  </way>
  <way id="28901208" version="7" timestamp="2010-03-28T00:24:27Z" uid="20587" user="balrog-kun" changeset="4250871">
    <nd ref="317677965"/>
    <nd ref="317677993"/>
    <nd ref="317677994"/>
    <nd ref="317677995"/>
    <nd ref="317677996"/>
    <nd ref="317677997"/>
    <nd ref="317677998"/>
    <nd ref="317678185"/>
    <tag k="highway" v="motorway"/>
    <tag k="name" v="San Bernardino Freeway"/>
    <tag k="oneway" v="yes"/>
    <tag k="ref" v="I 10"/>
  </way>
  <way id="28901208" version="8" timestamp="2011-08-02T08:06:44Z" uid="207745" user="NE2" changeset="8898279">
    <nd ref="317677965"/>
    <nd ref="317677993"/>
    <nd ref="317677994"/>
    <nd ref="317677995"/>
    <tag k="highway" v="motorway"/>
    <tag k="lanes" v="4"/>
    <tag k="name" v="San Bernardino Freeway"/>
    <tag k="oneway" v="yes"/>
    <tag k="ref" v="I 10"/>
    <tag k="x" v="x"/>
  </way>
  <way id="28901208" version="9" timestamp="2011-11-25T15:03:09Z" uid="207745" user="NE2" changeset="9943893">
    <nd ref="317677965"/>
    <nd ref="317677993"/>
    <nd ref="317677994"/>
    <nd ref="317677995"/>
    <tag k="hgv" v="designated"/>
    <tag k="highway" v="motorway"/>
    <tag k="lanes" v="4"/>
    <tag k="name" v="San Bernardino Freeway"/>
    <tag k="oneway" v="yes"/>
    <tag k="ref" v="I 10"/>
    <tag k="x" v="x"/>
  </way>
  <way id="28901208" version="10" timestamp="2012-02-07T09:30:26Z" uid="207745" user="NE2" changeset="10610324">
    <nd ref="317677965"/>
    <nd ref="317677993"/>
    <nd ref="317677994"/>
    <nd ref="317677995"/>
    <tag k="hgv" v="designated"/>
    <tag k="highway" v="motorway"/>
    <tag k="lanes" v="4"/>
    <tag k="name" v="San Bernardino Freeway"/>
    <tag k="oneway" v="yes"/>
    <tag k="ref" v="I 10"/>
  </way>
  <way id="28901212" version="6" timestamp="2010-03-28T00:24:27Z" uid="20587" user="balrog-kun" changeset="4250871">
    <nd ref="317678023"/>
    <nd ref="317678024"/>
    <tag k="bridge" v="yes"/>
    <tag k="highway" v="motorway"/>
    <tag k="name" v="San Bernardino Freeway"/>
    <tag k="oneway" v="yes"/>
    <tag k="ref" v="I 10"/>
  </way>
  <way id="28901212" version="7" timestamp="2010-11-22T01:48:22Z" uid="194231" user="Chris Bell in California" changeset="6428521">
    <nd ref="317678023"/>
    <nd ref="317678024"/>
    <tag k="bridge" v="yes"/>
    <tag k="highway" v="motorway"/>
    <tag k="layer" v="1"/>
    <tag k="name" v="San Bernardino Freeway"/>
    <tag k="oneway" v="yes"/>
    <tag k="ref" v="I 10"/>
  </way>
  <way id="28901212" version="8" timestamp="2011-08-02T08:05:29Z" uid="207745" user="NE2" changeset="8898279">
    <nd ref="317678023"/>
    <nd ref="317678024"/>
    <tag k="bridge" v="yes"/>
    <tag k="highway" v="motorway"/>
    <tag k="hov" v="lane"/>
    <tag k="lanes" v="5"/>
    <tag k="layer" v="1"/>
    <tag k="name" v="San Bernardino Freeway"/>
    <tag k="note:lanes" v="left lane is hov"/>
    <tag k="oneway" v="yes"/>
    <tag k="ref" v="I 10"/>
    <tag k="x" v="x"/>
  </way>
  <way id="28901212" version="9" timestamp="2011-08-07T19:53:21Z" uid="207745" user="NE2" changeset="8951104">
    <nd ref="317678023"/>
    <nd ref="317678024"/>
    <tag k="bridge" v="yes"/>
    <tag k="highway" v="motorway"/>
    <tag k="hov" v="lane"/>
    <tag k="lanes" v="5"/>
    <tag k="layer" v="1"/>
    <tag k="name" v="San Bernardino Freeway"/>
    <tag k="note:lanes" v="left lane is hov"/>
    <tag k="oneway" v="yes"/>
    <tag k="ref" v="I 10"/>
  </way>
  <way id="28901212" version="10" timestamp="2011-11-25T15:00:51Z" uid="207745" user="NE2" changeset="9943893">
    <nd ref="317678023"/>
    <nd ref="317678024"/>
    <tag k="bridge" v="yes"/>
    <tag k="hgv" v="designated"/>
    <tag k="highway" v="motorway"/>
    <tag k="hov" v="lane"/>
    <tag k="lanes" v="5"/>
    <tag k="layer" v="1"/>
    <tag k="name" v="San Bernardino Freeway"/>
    <tag k="note:lanes" v="left lane is hov"/>
    <tag k="oneway" v="yes"/>
    <tag k="ref" v="I 10"/>
  </way>
  <way id="28901213" version="6" timestamp="2010-03-28T00:24:27Z" uid="20587" user="balrog-kun" changeset="4250871">
    <nd ref="317678024"/>
    <nd ref="317678026"/>
    <nd ref="317678057"/>
    <nd ref="317678059"/>
    <nd ref="317678062"/>
    <nd ref="317678064"/>
    <nd ref="317678067"/>
    <nd ref="317678070"/>
    <nd ref="317678072"/>
    <nd ref="317678074"/>
    <nd ref="317678077"/>
    <tag k="highway" v="motorway"/>
    <tag k="name" v="San Bernardino Freeway"/>
    <tag k="oneway" v="yes"/>
    <tag k="ref" v="I 10"/>
  </way>
  <way id="28901213" version="7" timestamp="2011-08-02T08:05:14Z" uid="207745" user="NE2" changeset="8898279">
    <nd ref="317678024"/>
    <nd ref="317678026"/>
    <nd ref="317678057"/>
    <nd ref="317678059"/>
    <nd ref="317678062"/>
    <nd ref="317678064"/>
    <nd ref="317678067"/>
    <nd ref="317678070"/>
    <nd ref="317678072"/>
    <nd ref="317678074"/>
    <nd ref="317678077"/>
    <tag k="highway" v="motorway"/>
    <tag k="hov" v="lane"/>
    <tag k="lanes" v="5"/>
    <tag k="name" v="San Bernardino Freeway"/>
    <tag k="note:lanes" v="left lane is hov"/>
    <tag k="oneway" v="yes"/>
    <tag k="ref" v="I 10"/>
    <tag k="x" v="x"/>
  </way>
  <way id="28901213" version="8" timestamp="2011-08-07T19:53:00Z" uid="207745" user="NE2" changeset="8951104">
    <nd ref="317678024"/>
    <nd ref="317678026"/>
    <nd ref="317678057"/>
    <nd ref="317678059"/>
    <nd ref="317678062"/>
    <nd ref="317678064"/>
    <nd ref="317678067"/>
    <nd ref="317678070"/>
    <nd ref="317678072"/>
    <nd ref="317678074"/>
    <nd ref="317678077"/>
    <tag k="highway" v="motorway"/>
    <tag k="hov" v="lane"/>
    <tag k="lanes" v="5"/>
    <tag k="name" v="San Bernardino Freeway"/>
    <tag k="note:lanes" v="left lane is hov"/>
    <tag k="oneway" v="yes"/>
    <tag k="ref" v="I 10"/>
  </way>
  <way id="28901213" version="9" timestamp="2011-11-25T15:00:08Z" uid="207745" user="NE2" changeset="9943893">
    <nd ref="317678024"/>
    <nd ref="317678026"/>
    <nd ref="317678057"/>
    <nd ref="317678059"/>
    <nd ref="317678062"/>
    <nd ref="317678064"/>
    <nd ref="317678067"/>
    <nd ref="317678070"/>
    <nd ref="317678072"/>
    <nd ref="317678074"/>
    <nd ref="317678077"/>
    <tag k="hgv" v="designated"/>
    <tag k="highway" v="motorway"/>
    <tag k="hov" v="lane"/>
    <tag k="lanes" v="5"/>
    <tag k="name" v="San Bernardino Freeway"/>
    <tag k="note:lanes" v="left lane is hov"/>
    <tag k="oneway" v="yes"/>
    <tag k="ref" v="I 10"/>
  </way>
  <way id="28901219" version="5" timestamp="2010-07-09T05:19:12Z" uid="74617" user="JohnSmith" changeset="5170986">
    <nd ref="317678033"/>
    <nd ref="582558498"/>
    <nd ref="440592087"/>
    <nd ref="317678048"/>
    <nd ref="317678050"/>
    <nd ref="30949026"/>
    <tag k="highway" v="residential"/>
    <tag k="maxspeed" v="50"/>
    <tag k="maxspeed:source" v="default residential speed limit in Australia"/>
    <tag k="name" v="Lawford Street"/>
  </way>
  <way id="28901219" version="6" timestamp="2012-01-17T23:47:45Z" uid="147510" user="woodpeck_fixbot" changeset="10421060">
    <nd ref="317678033"/>
    <nd ref="582558498"/>
    <nd ref="440592087"/>
    <nd ref="317678048"/>
    <nd ref="317678050"/>
    <nd ref="30949026"/>
    <tag k="highway" v="residential"/>
    <tag k="name" v="Lawford Street"/>
  </way>
  <way id="28901221" version="5" timestamp="2010-03-28T00:24:27Z" uid="20587" user="balrog-kun" changeset="4250871">
    <nd ref="317678077"/>
    <nd ref="317663450"/>
    <tag k="bridge" v="yes"/>
    <tag k="highway" v="motorway"/>
    <tag k="name" v="San Bernardino Freeway"/>
    <tag k="oneway" v="yes"/>
    <tag k="ref" v="I 10"/>
  </way>
  <way id="28901221" version="6" timestamp="2010-11-22T01:47:50Z" uid="194231" user="Chris Bell in California" changeset="6428521">
    <nd ref="317678077"/>
    <nd ref="317663450"/>
    <tag k="bridge" v="yes"/>
    <tag k="highway" v="motorway"/>
    <tag k="layer" v="1"/>
    <tag k="name" v="San Bernardino Freeway"/>
    <tag k="oneway" v="yes"/>
    <tag k="ref" v="I 10"/>
  </way>
  <way id="28901221" version="7" timestamp="2011-08-02T08:05:27Z" uid="207745" user="NE2" changeset="8898279">
    <nd ref="317678077"/>
    <nd ref="317663450"/>
    <tag k="bridge" v="yes"/>
    <tag k="highway" v="motorway"/>
    <tag k="hov" v="lane"/>
    <tag k="lanes" v="5"/>
    <tag k="layer" v="1"/>
    <tag k="name" v="San Bernardino Freeway"/>
    <tag k="note:lanes" v="left lane is hov"/>
    <tag k="oneway" v="yes"/>
    <tag k="ref" v="I 10"/>
    <tag k="x" v="x"/>
  </way>
  <way id="28901221" version="8" timestamp="2011-08-07T19:53:19Z" uid="207745" user="NE2" changeset="8951104">
    <nd ref="317678077"/>
    <nd ref="317663450"/>
    <tag k="bridge" v="yes"/>
    <tag k="highway" v="motorway"/>
    <tag k="hov" v="lane"/>
    <tag k="lanes" v="5"/>
    <tag k="layer" v="1"/>
    <tag k="name" v="San Bernardino Freeway"/>
    <tag k="note:lanes" v="left lane is hov"/>
    <tag k="oneway" v="yes"/>
    <tag k="ref" v="I 10"/>
  </way>
  <way id="28901221" version="9" timestamp="2011-11-25T15:01:25Z" uid="207745" user="NE2" changeset="9943893">
    <nd ref="317678077"/>
    <nd ref="317663450"/>
    <tag k="bridge" v="yes"/>
    <tag k="hgv" v="designated"/>
    <tag k="highway" v="motorway"/>
    <tag k="hov" v="lane"/>
    <tag k="lanes" v="5"/>
    <tag k="layer" v="1"/>
    <tag k="name" v="San Bernardino Freeway"/>
    <tag k="note:lanes" v="left lane is hov"/>
    <tag k="oneway" v="yes"/>
    <tag k="ref" v="I 10"/>
  </way>
  <way id="28901222" version="6" timestamp="2010-03-28T00:24:27Z" uid="20587" user="balrog-kun" changeset="4250871">
    <nd ref="317678104"/>
    <nd ref="33142933"/>
    <nd ref="529374726"/>
    <nd ref="317677955"/>
    <tag k="bridge" v="yes"/>
    <tag k="highway" v="motorway"/>
    <tag k="layer" v="1"/>
    <tag k="name" v="San Bernardino Freeway"/>
    <tag k="oneway" v="yes"/>
    <tag k="ref" v="I 10"/>
  </way>
  <way id="28901222" version="7" timestamp="2011-08-02T08:06:43Z" uid="207745" user="NE2" changeset="8898279">
    <nd ref="317678104"/>
    <nd ref="33142933"/>
    <nd ref="529374726"/>
    <nd ref="317677955"/>
    <tag k="bridge" v="yes"/>
    <tag k="highway" v="motorway"/>
    <tag k="lanes" v="4"/>
    <tag k="layer" v="1"/>
    <tag k="name" v="San Bernardino Freeway"/>
    <tag k="oneway" v="yes"/>
    <tag k="ref" v="I 10"/>
    <tag k="x" v="x"/>
  </way>
  <way id="28901222" version="8" timestamp="2011-11-25T15:03:16Z" uid="207745" user="NE2" changeset="9943893">
    <nd ref="317678104"/>
    <nd ref="33142933"/>
    <nd ref="529374726"/>
    <nd ref="317677955"/>
    <tag k="bridge" v="yes"/>
    <tag k="hgv" v="designated"/>
    <tag k="highway" v="motorway"/>
    <tag k="lanes" v="4"/>
    <tag k="layer" v="1"/>
    <tag k="name" v="San Bernardino Freeway"/>
    <tag k="oneway" v="yes"/>
    <tag k="ref" v="I 10"/>
    <tag k="x" v="x"/>
  </way>
  <way id="28901222" version="9" timestamp="2012-02-07T09:30:28Z" uid="207745" user="NE2" changeset="10610324">
    <nd ref="317678104"/>
    <nd ref="33142933"/>
    <nd ref="529374726"/>
    <nd ref="317677955"/>
    <tag k="bridge" v="yes"/>
    <tag k="hgv" v="designated"/>
    <tag k="highway" v="motorway"/>
    <tag k="lanes" v="4"/>
    <tag k="layer" v="1"/>
    <tag k="name" v="San Bernardino Freeway"/>
    <tag k="oneway" v="yes"/>
    <tag k="ref" v="I 10"/>
  </way>
  <way id="28901235" version="7" timestamp="2010-03-28T00:24:27Z" uid="20587" user="balrog-kun" changeset="4250871">
    <nd ref="317678185"/>
    <nd ref="317677999"/>
    <tag k="bridge" v="yes"/>
    <tag k="highway" v="motorway"/>
    <tag k="layer" v="1"/>
    <tag k="name" v="San Bernardino Freeway"/>
    <tag k="oneway" v="yes"/>
    <tag k="ref" v="I 10"/>
  </way>
  <way id="28901235" version="8" timestamp="2011-08-02T08:06:17Z" uid="207745" user="NE2" changeset="8898279">
    <nd ref="317678185"/>
    <nd ref="317677999"/>
    <tag k="bridge" v="yes"/>
    <tag k="highway" v="motorway"/>
    <tag k="hov" v="lane"/>
    <tag k="lanes" v="5"/>
    <tag k="layer" v="1"/>
    <tag k="name" v="San Bernardino Freeway"/>
    <tag k="note:lanes" v="left lane is hov"/>
    <tag k="oneway" v="yes"/>
    <tag k="ref" v="I 10"/>
    <tag k="x" v="x"/>
  </way>
  <way id="28901235" version="9" timestamp="2011-08-07T19:53:15Z" uid="207745" user="NE2" changeset="8951104">
    <nd ref="317678185"/>
    <nd ref="317677999"/>
    <tag k="bridge" v="yes"/>
    <tag k="highway" v="motorway"/>
    <tag k="hov" v="lane"/>
    <tag k="lanes" v="5"/>
    <tag k="layer" v="1"/>
    <tag k="name" v="San Bernardino Freeway"/>
    <tag k="note:lanes" v="left lane is hov"/>
    <tag k="oneway" v="yes"/>
    <tag k="ref" v="I 10"/>
  </way>
  <way id="28901235" version="10" timestamp="2011-11-25T15:00:59Z" uid="207745" user="NE2" changeset="9943893">
    <nd ref="317678185"/>
    <nd ref="317677999"/>
    <tag k="bridge" v="yes"/>
    <tag k="hgv" v="designated"/>
    <tag k="highway" v="motorway"/>
    <tag k="hov" v="lane"/>
    <tag k="lanes" v="5"/>
    <tag k="layer" v="1"/>
    <tag k="name" v="San Bernardino Freeway"/>
    <tag k="note:lanes" v="left lane is hov"/>
    <tag k="oneway" v="yes"/>
    <tag k="ref" v="I 10"/>
  </way>
  <way id="28901236" version="5" timestamp="2010-03-28T00:24:27Z" uid="20587" user="balrog-kun" changeset="4250871">
    <nd ref="317677999"/>
    <nd ref="317678000"/>
    <nd ref="317678023"/>
    <tag k="highway" v="motorway"/>
    <tag k="name" v="San Bernardino Freeway"/>
    <tag k="oneway" v="yes"/>
    <tag k="ref" v="I 10"/>
  </way>
  <way id="28901236" version="6" timestamp="2011-08-02T08:06:30Z" uid="207745" user="NE2" changeset="8898279">
    <nd ref="317677999"/>
    <nd ref="317678000"/>
    <nd ref="317678023"/>
    <tag k="highway" v="motorway"/>
    <tag k="hov" v="lane"/>
    <tag k="lanes" v="5"/>
    <tag k="name" v="San Bernardino Freeway"/>
    <tag k="note:lanes" v="left lane is hov"/>
    <tag k="oneway" v="yes"/>
    <tag k="ref" v="I 10"/>
    <tag k="x" v="x"/>
  </way>
  <way id="28901236" version="7" timestamp="2011-08-07T19:53:35Z" uid="207745" user="NE2" changeset="8951104">
    <nd ref="317677999"/>
    <nd ref="317678000"/>
    <nd ref="317678023"/>
    <tag k="highway" v="motorway"/>
    <tag k="hov" v="lane"/>
    <tag k="lanes" v="5"/>
    <tag k="name" v="San Bernardino Freeway"/>
    <tag k="note:lanes" v="left lane is hov"/>
    <tag k="oneway" v="yes"/>
    <tag k="ref" v="I 10"/>
  </way>
  <way id="28901236" version="8" timestamp="2011-11-25T15:02:44Z" uid="207745" user="NE2" changeset="9943893">
    <nd ref="317677999"/>
    <nd ref="317678000"/>
    <nd ref="317678023"/>
    <tag k="hgv" v="designated"/>
    <tag k="highway" v="motorway"/>
    <tag k="hov" v="lane"/>
    <tag k="lanes" v="5"/>
    <tag k="name" v="San Bernardino Freeway"/>
    <tag k="note:lanes" v="left lane is hov"/>
    <tag k="oneway" v="yes"/>
    <tag k="ref" v="I 10"/>
  </way>
  <way id="28901239" version="10" timestamp="2010-03-28T00:24:27Z" uid="20587" user="balrog-kun" changeset="4250871">
    <nd ref="317678312"/>
    <nd ref="529374710"/>
    <tag k="bridge" v="yes"/>
    <tag k="highway" v="motorway"/>
    <tag k="layer" v="1"/>
    <tag k="name" v="San Bernardino Freeway"/>
    <tag k="oneway" v="yes"/>
    <tag k="ref" v="I 10"/>
  </way>
  <way id="28901239" version="11" timestamp="2011-01-17T04:35:58Z" uid="82317" user="AM909" changeset="6996057">
    <nd ref="317678312"/>
    <nd ref="1107174839"/>
    <nd ref="529374710"/>
    <tag k="bridge" v="yes"/>
    <tag k="highway" v="motorway"/>
    <tag k="layer" v="1"/>
    <tag k="name" v="San Bernardino Freeway"/>
    <tag k="oneway" v="yes"/>
    <tag k="ref" v="I 10"/>
  </way>
  <way id="28901239" version="12" timestamp="2011-08-02T08:05:38Z" uid="207745" user="NE2" changeset="8898279">
    <nd ref="317678312"/>
    <nd ref="1382740954"/>
    <tag k="bridge" v="yes"/>
    <tag k="highway" v="motorway"/>
    <tag k="hov" v="lane"/>
    <tag k="lanes" v="5"/>
    <tag k="layer" v="1"/>
    <tag k="name" v="San Bernardino Freeway"/>
    <tag k="note:lanes" v="left lane is hov"/>
    <tag k="oneway" v="yes"/>
    <tag k="ref" v="I 10"/>
    <tag k="x" v="x"/>
  </way>
  <way id="28901239" version="13" timestamp="2011-08-07T19:53:06Z" uid="207745" user="NE2" changeset="8951104">
    <nd ref="317678312"/>
    <nd ref="1382740954"/>
    <tag k="bridge" v="yes"/>
    <tag k="highway" v="motorway"/>
    <tag k="hov" v="lane"/>
    <tag k="lanes" v="5"/>
    <tag k="layer" v="1"/>
    <tag k="name" v="San Bernardino Freeway"/>
    <tag k="note:lanes" v="left lane is hov"/>
    <tag k="oneway" v="yes"/>
    <tag k="ref" v="I 10"/>
  </way>
  <way id="28901239" version="14" timestamp="2011-11-25T15:00:36Z" uid="207745" user="NE2" changeset="9943893">
    <nd ref="317678312"/>
    <nd ref="1382740954"/>
    <tag k="bridge" v="yes"/>
    <tag k="hgv" v="designated"/>
    <tag k="highway" v="motorway"/>
    <tag k="hov" v="lane"/>
    <tag k="lanes" v="5"/>
    <tag k="layer" v="1"/>
    <tag k="name" v="San Bernardino Freeway"/>
    <tag k="note:lanes" v="left lane is hov"/>
    <tag k="oneway" v="yes"/>
    <tag k="ref" v="I 10"/>
  </way>
  <way id="28901243" version="5" timestamp="2010-03-28T00:24:28Z" uid="20587" user="balrog-kun" changeset="4250871">
    <nd ref="317678268"/>
    <nd ref="317678269"/>
    <tag k="highway" v="motorway"/>
    <tag k="layer" v="1"/>
    <tag k="name" v="San Bernardino Freeway"/>
    <tag k="oneway" v="yes"/>
    <tag k="ref" v="I 10"/>
  </way>
  <way id="28901243" version="6" timestamp="2011-07-14T06:35:10Z" uid="4951" user="PeterIto" changeset="8718828">
    <nd ref="317678268"/>
    <nd ref="317678269"/>
    <tag k="highway" v="motorway"/>
    <tag k="name" v="San Bernardino Freeway"/>
    <tag k="oneway" v="yes"/>
    <tag k="ref" v="I 10"/>
  </way>
  <way id="28901243" version="7" timestamp="2011-08-02T08:06:08Z" uid="207745" user="NE2" changeset="8898279">
    <nd ref="317678268"/>
    <nd ref="317678269"/>
    <tag k="highway" v="motorway"/>
    <tag k="hov" v="lane"/>
    <tag k="lanes" v="5"/>
    <tag k="name" v="San Bernardino Freeway"/>
    <tag k="note:lanes" v="left lane is hov"/>
    <tag k="oneway" v="yes"/>
    <tag k="ref" v="I 10"/>
    <tag k="x" v="x"/>
  </way>
  <way id="28901243" version="8" timestamp="2011-08-07T19:53:21Z" uid="207745" user="NE2" changeset="8951104">
    <nd ref="317678268"/>
    <nd ref="317678269"/>
    <tag k="highway" v="motorway"/>
    <tag k="hov" v="lane"/>
    <tag k="lanes" v="5"/>
    <tag k="name" v="San Bernardino Freeway"/>
    <tag k="note:lanes" v="left lane is hov"/>
    <tag k="oneway" v="yes"/>
    <tag k="ref" v="I 10"/>
  </way>
  <way id="28901243" version="9" timestamp="2011-11-25T15:01:47Z" uid="207745" user="NE2" changeset="9943893">
    <nd ref="317678268"/>
    <nd ref="317678269"/>
    <tag k="hgv" v="designated"/>
    <tag k="highway" v="motorway"/>
    <tag k="hov" v="lane"/>
    <tag k="lanes" v="5"/>
    <tag k="name" v="San Bernardino Freeway"/>
    <tag k="note:lanes" v="left lane is hov"/>
    <tag k="oneway" v="yes"/>
    <tag k="ref" v="I 10"/>
  </way>
  <way id="28901245" version="6" timestamp="2010-03-28T00:24:28Z" uid="20587" user="balrog-kun" changeset="4250871">
    <nd ref="317678269"/>
    <nd ref="317678272"/>
    <tag k="bridge" v="yes"/>
    <tag k="highway" v="motorway"/>
    <tag k="layer" v="1"/>
    <tag k="name" v="San Bernardino Freeway"/>
    <tag k="oneway" v="yes"/>
    <tag k="ref" v="I 10"/>
  </way>
  <way id="28901245" version="7" timestamp="2011-08-02T08:05:46Z" uid="207745" user="NE2" changeset="8898279">
    <nd ref="317678269"/>
    <nd ref="317678272"/>
    <tag k="bridge" v="yes"/>
    <tag k="highway" v="motorway"/>
    <tag k="hov" v="lane"/>
    <tag k="lanes" v="5"/>
    <tag k="layer" v="1"/>
    <tag k="name" v="San Bernardino Freeway"/>
    <tag k="note:lanes" v="left lane is hov"/>
    <tag k="oneway" v="yes"/>
    <tag k="ref" v="I 10"/>
    <tag k="x" v="x"/>
  </way>
  <way id="28901245" version="8" timestamp="2011-08-07T19:53:14Z" uid="207745" user="NE2" changeset="8951104">
    <nd ref="317678269"/>
    <nd ref="317678272"/>
    <tag k="bridge" v="yes"/>
    <tag k="highway" v="motorway"/>
    <tag k="hov" v="lane"/>
    <tag k="lanes" v="5"/>
    <tag k="layer" v="1"/>
    <tag k="name" v="San Bernardino Freeway"/>
    <tag k="note:lanes" v="left lane is hov"/>
    <tag k="oneway" v="yes"/>
    <tag k="ref" v="I 10"/>
  </way>
  <way id="28901245" version="9" timestamp="2011-11-25T15:00:39Z" uid="207745" user="NE2" changeset="9943893">
    <nd ref="317678269"/>
    <nd ref="317678272"/>
    <tag k="bridge" v="yes"/>
    <tag k="hgv" v="designated"/>
    <tag k="highway" v="motorway"/>
    <tag k="hov" v="lane"/>
    <tag k="lanes" v="5"/>
    <tag k="layer" v="1"/>
    <tag k="name" v="San Bernardino Freeway"/>
    <tag k="note:lanes" v="left lane is hov"/>
    <tag k="oneway" v="yes"/>
    <tag k="ref" v="I 10"/>
  </way>
  <way id="28901246" version="6" timestamp="2010-03-28T00:24:28Z" uid="20587" user="balrog-kun" changeset="4250871">
    <nd ref="317678271"/>
    <nd ref="317678268"/>
    <tag k="bridge" v="yes"/>
    <tag k="highway" v="motorway"/>
    <tag k="layer" v="1"/>
    <tag k="name" v="San Bernardino Freeway"/>
    <tag k="oneway" v="yes"/>
    <tag k="ref" v="I 10"/>
  </way>
  <way id="28901246" version="7" timestamp="2011-08-02T08:06:18Z" uid="207745" user="NE2" changeset="8898279">
    <nd ref="317678271"/>
    <nd ref="317678268"/>
    <tag k="bridge" v="yes"/>
    <tag k="highway" v="motorway"/>
    <tag k="hov" v="lane"/>
    <tag k="lanes" v="5"/>
    <tag k="layer" v="1"/>
    <tag k="name" v="San Bernardino Freeway"/>
    <tag k="note:lanes" v="left lane is hov"/>
    <tag k="oneway" v="yes"/>
    <tag k="ref" v="I 10"/>
    <tag k="x" v="x"/>
  </way>
  <way id="28901246" version="8" timestamp="2011-08-07T19:53:25Z" uid="207745" user="NE2" changeset="8951104">
    <nd ref="317678271"/>
    <nd ref="317678268"/>
    <tag k="bridge" v="yes"/>
    <tag k="highway" v="motorway"/>
    <tag k="hov" v="lane"/>
    <tag k="lanes" v="5"/>
    <tag k="layer" v="1"/>
    <tag k="name" v="San Bernardino Freeway"/>
    <tag k="note:lanes" v="left lane is hov"/>
    <tag k="oneway" v="yes"/>
    <tag k="ref" v="I 10"/>
  </way>
  <way id="28901246" version="9" timestamp="2011-11-25T15:01:05Z" uid="207745" user="NE2" changeset="9943893">
    <nd ref="317678271"/>
    <nd ref="317678268"/>
    <tag k="bridge" v="yes"/>
    <tag k="hgv" v="designated"/>
    <tag k="highway" v="motorway"/>
    <tag k="hov" v="lane"/>
    <tag k="lanes" v="5"/>
    <tag k="layer" v="1"/>
    <tag k="name" v="San Bernardino Freeway"/>
    <tag k="note:lanes" v="left lane is hov"/>
    <tag k="oneway" v="yes"/>
    <tag k="ref" v="I 10"/>
  </way>
  <way id="28901247" version="6" timestamp="2010-03-28T00:24:28Z" uid="20587" user="balrog-kun" changeset="4250871">
    <nd ref="317678272"/>
    <nd ref="317678274"/>
    <nd ref="317678275"/>
    <nd ref="317678276"/>
    <nd ref="317678277"/>
    <nd ref="317678278"/>
    <nd ref="317678280"/>
    <nd ref="317678283"/>
    <nd ref="529374712"/>
    <nd ref="529374709"/>
    <nd ref="317678312"/>
    <tag k="highway" v="motorway"/>
    <tag k="layer" v="1"/>
    <tag k="name" v="San Bernardino Freeway"/>
    <tag k="oneway" v="yes"/>
    <tag k="ref" v="I 10"/>
  </way>
  <way id="28901247" version="7" timestamp="2011-07-14T06:35:10Z" uid="4951" user="PeterIto" changeset="8718828">
    <nd ref="317678272"/>
    <nd ref="317678274"/>
    <nd ref="317678275"/>
    <nd ref="317678276"/>
    <nd ref="317678277"/>
    <nd ref="317678278"/>
    <nd ref="317678280"/>
    <nd ref="317678283"/>
    <nd ref="529374712"/>
    <nd ref="529374709"/>
    <nd ref="317678312"/>
    <tag k="highway" v="motorway"/>
    <tag k="name" v="San Bernardino Freeway"/>
    <tag k="oneway" v="yes"/>
    <tag k="ref" v="I 10"/>
  </way>
  <way id="28901247" version="8" timestamp="2011-08-02T08:05:14Z" uid="207745" user="NE2" changeset="8898279">
    <nd ref="317678272"/>
    <nd ref="317678274"/>
    <nd ref="317678275"/>
    <nd ref="317678276"/>
    <nd ref="317678277"/>
    <nd ref="317678278"/>
    <nd ref="317678280"/>
    <nd ref="317678283"/>
    <nd ref="529374712"/>
    <nd ref="529374709"/>
    <nd ref="317678312"/>
    <tag k="highway" v="motorway"/>
    <tag k="hov" v="lane"/>
    <tag k="lanes" v="5"/>
    <tag k="name" v="San Bernardino Freeway"/>
    <tag k="note:lanes" v="left lane is hov"/>
    <tag k="oneway" v="yes"/>
    <tag k="ref" v="I 10"/>
    <tag k="x" v="x"/>
  </way>
  <way id="28901247" version="9" timestamp="2011-08-07T19:53:01Z" uid="207745" user="NE2" changeset="8951104">
    <nd ref="317678272"/>
    <nd ref="317678274"/>
    <nd ref="317678275"/>
    <nd ref="317678276"/>
    <nd ref="317678277"/>
    <nd ref="317678278"/>
    <nd ref="317678280"/>
    <nd ref="317678283"/>
    <nd ref="529374712"/>
    <nd ref="529374709"/>
    <nd ref="317678312"/>
    <tag k="highway" v="motorway"/>
    <tag k="hov" v="lane"/>
    <tag k="lanes" v="5"/>
    <tag k="name" v="San Bernardino Freeway"/>
    <tag k="note:lanes" v="left lane is hov"/>
    <tag k="oneway" v="yes"/>
    <tag k="ref" v="I 10"/>
  </way>
  <way id="28901247" version="10" timestamp="2011-11-25T15:00:09Z" uid="207745" user="NE2" changeset="9943893">
    <nd ref="317678272"/>
    <nd ref="317678274"/>
    <nd ref="317678275"/>
    <nd ref="317678276"/>
    <nd ref="317678277"/>
    <nd ref="317678278"/>
    <nd ref="317678280"/>
    <nd ref="317678283"/>
    <nd ref="529374712"/>
    <nd ref="529374709"/>
    <nd ref="317678312"/>
    <tag k="hgv" v="designated"/>
    <tag k="highway" v="motorway"/>
    <tag k="hov" v="lane"/>
    <tag k="lanes" v="5"/>
    <tag k="name" v="San Bernardino Freeway"/>
    <tag k="note:lanes" v="left lane is hov"/>
    <tag k="oneway" v="yes"/>
    <tag k="ref" v="I 10"/>
  </way>
  <way id="28901258" version="15" timestamp="2010-03-28T00:24:28Z" uid="20587" user="balrog-kun" changeset="4250871">
    <nd ref="317678321"/>
    <nd ref="310928677"/>
    <nd ref="529401627"/>
    <tag k="highway" v="motorway"/>
    <tag k="layer" v="1"/>
    <tag k="name" v="San Bernardino Freeway"/>
    <tag k="oneway" v="yes"/>
    <tag k="ref" v="I 10"/>
  </way>
  <way id="28901258" version="16" timestamp="2011-01-17T04:35:59Z" uid="82317" user="AM909" changeset="6996057">
    <nd ref="317678321"/>
    <nd ref="529401627"/>
    <tag k="highway" v="motorway"/>
    <tag k="layer" v="1"/>
    <tag k="name" v="San Bernardino Freeway"/>
    <tag k="oneway" v="yes"/>
    <tag k="ref" v="I 10"/>
  </way>
  <way id="28901258" version="17" timestamp="2011-06-28T19:22:45Z" uid="4951" user="PeterIto" changeset="8574487">
    <nd ref="317678321"/>
    <nd ref="529401627"/>
    <tag k="highway" v="motorway"/>
    <tag k="name" v="San Bernardino Freeway"/>
    <tag k="oneway" v="yes"/>
    <tag k="ref" v="I 10"/>
  </way>
  <way id="28901258" version="18" timestamp="2011-08-02T08:06:08Z" uid="207745" user="NE2" changeset="8898279">
    <nd ref="317678321"/>
    <nd ref="529401627"/>
    <tag k="highway" v="motorway"/>
    <tag k="lanes" v="4"/>
    <tag k="name" v="San Bernardino Freeway"/>
    <tag k="oneway" v="yes"/>
    <tag k="ref" v="I 10"/>
    <tag k="x" v="x"/>
  </way>
  <way id="28901258" version="19" timestamp="2011-11-25T15:01:24Z" uid="207745" user="NE2" changeset="9943893">
    <nd ref="317678321"/>
    <nd ref="529401627"/>
    <tag k="hgv" v="designated"/>
    <tag k="highway" v="motorway"/>
    <tag k="lanes" v="4"/>
    <tag k="name" v="San Bernardino Freeway"/>
    <tag k="oneway" v="yes"/>
    <tag k="ref" v="I 10"/>
    <tag k="x" v="x"/>
  </way>
  <way id="28901258" version="20" timestamp="2012-02-07T09:29:49Z" uid="207745" user="NE2" changeset="10610324">
    <nd ref="317678321"/>
    <nd ref="529401627"/>
    <tag k="hgv" v="designated"/>
    <tag k="highway" v="motorway"/>
    <tag k="lanes" v="4"/>
    <tag k="name" v="San Bernardino Freeway"/>
    <tag k="oneway" v="yes"/>
    <tag k="ref" v="I 10"/>
  </way>
  <way id="28901278" version="9" timestamp="2010-03-28T00:24:28Z" uid="20587" user="balrog-kun" changeset="4250871">
    <nd ref="317678447"/>
    <nd ref="529270029"/>
    <nd ref="668148"/>
    <nd ref="529270020"/>
    <nd ref="529270017"/>
    <nd ref="668149"/>
    <nd ref="529270014"/>
    <tag k="highway" v="motorway"/>
    <tag k="name" v="San Gabriel River Freeway"/>
    <tag k="oneway" v="yes"/>
    <tag k="ref" v="I 605"/>
  </way>
  <way id="28901278" version="10" timestamp="2011-01-19T22:13:23Z" uid="82317" user="AM909" changeset="7025519">
    <nd ref="317678447"/>
    <nd ref="529270029"/>
    <nd ref="668148"/>
    <nd ref="529270020"/>
    <nd ref="668149"/>
    <nd ref="1110946393"/>
    <nd ref="529270014"/>
    <tag k="highway" v="motorway"/>
    <tag k="name" v="San Gabriel River Freeway"/>
    <tag k="oneway" v="yes"/>
    <tag k="ref" v="I 605"/>
  </way>
  <way id="28901278" version="11" timestamp="2011-08-03T12:26:06Z" uid="207745" user="NE2" changeset="8909630">
    <nd ref="317678447"/>
    <nd ref="529270029"/>
    <nd ref="668148"/>
    <nd ref="529270020"/>
    <nd ref="668149"/>
    <nd ref="1110946393"/>
    <nd ref="529270014"/>
    <tag k="highway" v="motorway"/>
    <tag k="hov" v="lane"/>
    <tag k="lanes" v="5"/>
    <tag k="name" v="San Gabriel River Freeway"/>
    <tag k="note:lanes" v="left lane is hov"/>
    <tag k="oneway" v="yes"/>
    <tag k="ref" v="I 605"/>
  </way>
  <way id="28901278" version="12" timestamp="2011-11-25T15:15:36Z" uid="207745" user="NE2" changeset="9943893">
    <nd ref="317678447"/>
    <nd ref="529270029"/>
    <nd ref="668148"/>
    <nd ref="529270020"/>
    <nd ref="668149"/>
    <nd ref="1110946393"/>
    <nd ref="529270014"/>
    <tag k="hgv" v="designated"/>
    <tag k="highway" v="motorway"/>
    <tag k="hov" v="lane"/>
    <tag k="lanes" v="5"/>
    <tag k="name" v="San Gabriel River Freeway"/>
    <tag k="note:lanes" v="left lane is hov"/>
    <tag k="oneway" v="yes"/>
    <tag k="ref" v="I 605"/>
  </way>
  <way id="28901279" version="5" timestamp="2010-03-28T00:24:28Z" uid="20587" user="balrog-kun" changeset="4250871">
    <nd ref="668146"/>
    <nd ref="317678457"/>
    <tag k="bridge" v="yes"/>
    <tag k="highway" v="motorway"/>
    <tag k="layer" v="1"/>
    <tag k="name" v="San Gabriel River Freeway"/>
    <tag k="oneway" v="yes"/>
    <tag k="ref" v="I 605"/>
  </way>
  <way id="28901279" version="6" timestamp="2011-01-12T22:24:15Z" uid="82317" user="AM909" changeset="6952509">
    <nd ref="668146"/>
    <nd ref="317678457"/>
    <tag k="bridge" v="yes"/>
    <tag k="bridge_name" v="South Conn UC"/>
    <tag k="bridge_ref" v="605/LA/53-1631"/>
    <tag k="highway" v="motorway"/>
    <tag k="is_in:state_code" v="CA"/>
    <tag k="layer" v="1"/>
    <tag k="milepost:county" v="20.09"/>
    <tag k="name" v="San Gabriel River Freeway"/>
    <tag k="oneway" v="yes"/>
    <tag k="ref" v="I 605"/>
    <tag k="source:bridge" v="bing_imagery_0.06m_200801;CDOT"/>
  </way>
  <way id="28901279" version="7" timestamp="2011-08-03T12:25:50Z" uid="207745" user="NE2" changeset="8909630">
    <nd ref="668146"/>
    <nd ref="317678457"/>
    <tag k="bridge" v="yes"/>
    <tag k="bridge_name" v="South Conn UC"/>
    <tag k="bridge_ref" v="605/LA/53-1631"/>
    <tag k="highway" v="motorway"/>
    <tag k="hov" v="lane"/>
    <tag k="is_in:state_code" v="CA"/>
    <tag k="lanes" v="4"/>
    <tag k="layer" v="1"/>
    <tag k="milepost:county" v="20.09"/>
    <tag k="name" v="San Gabriel River Freeway"/>
    <tag k="note:lanes" v="left lane is hov"/>
    <tag k="oneway" v="yes"/>
    <tag k="ref" v="I 605"/>
    <tag k="source:bridge" v="bing_imagery_0.06m_200801;CDOT"/>
  </way>
  <way id="28901279" version="8" timestamp="2011-11-25T15:15:12Z" uid="207745" user="NE2" changeset="9943893">
    <nd ref="668146"/>
    <nd ref="317678457"/>
    <tag k="bridge" v="yes"/>
    <tag k="bridge_name" v="South Conn UC"/>
    <tag k="bridge_ref" v="605/LA/53-1631"/>
    <tag k="hgv" v="designated"/>
    <tag k="highway" v="motorway"/>
    <tag k="hov" v="lane"/>
    <tag k="is_in:state_code" v="CA"/>
    <tag k="lanes" v="4"/>
    <tag k="layer" v="1"/>
    <tag k="milepost:county" v="20.09"/>
    <tag k="name" v="San Gabriel River Freeway"/>
    <tag k="note:lanes" v="left lane is hov"/>
    <tag k="oneway" v="yes"/>
    <tag k="ref" v="I 605"/>
    <tag k="source:bridge" v="bing_imagery_0.06m_200801;CDOT"/>
  </way>
  <way id="28901281" version="7" timestamp="2010-03-28T00:24:29Z" uid="20587" user="balrog-kun" changeset="4250871">
    <nd ref="317678446"/>
    <nd ref="317678447"/>
    <tag k="bridge" v="yes"/>
    <tag k="highway" v="motorway"/>
    <tag k="layer" v="1"/>
    <tag k="name" v="San Gabriel River Freeway"/>
    <tag k="oneway" v="yes"/>
    <tag k="ref" v="I 605"/>
  </way>
  <way id="28901281" version="8" timestamp="2010-06-15T00:21:04Z" uid="82317" user="AM909" changeset="4992609">
    <nd ref="317678446"/>
    <nd ref="317678447"/>
    <tag k="bridge" v="yes"/>
    <tag k="bridge_name" v="Walnut Creek"/>
    <tag k="bridge_ref" v="605/LA/53-1343"/>
    <tag k="highway" v="motorway"/>
    <tag k="is_in:state_code" v="CA"/>
    <tag k="layer" v="1"/>
    <tag k="milepost:county" v="R19.85"/>
    <tag k="name" v="San Gabriel River Freeway"/>
    <tag k="note" v="Bridge ref pic from I-10 East onramp from I-605 North"/>
    <tag k="oneway" v="yes"/>
    <tag k="ref" v="I 605"/>
    <tag k="source:bridge" v="usgs_imagery;survey;image"/>
    <tag k="source_ref:bridge" v="AM909_DSCV1432"/>
  </way>
  <way id="28901281" version="9" timestamp="2011-01-19T22:13:02Z" uid="82317" user="AM909" changeset="7025519">
    <nd ref="317678446"/>
    <nd ref="317678447"/>
    <tag k="bridge" v="yes"/>
    <tag k="bridge_name" v="Walnut Creek"/>
    <tag k="bridge_ref" v="605/LA/53-1343"/>
    <tag k="highway" v="motorway"/>
    <tag k="is_in:state_code" v="CA"/>
    <tag k="layer" v="1"/>
    <tag k="milepost:county" v="R19.85;R19.94"/>
    <tag k="name" v="San Gabriel River Freeway"/>
    <tag k="note" v="Bridge ref pic from I-10 East onramp from I-605 North;Bridge ref pic from I-605 South"/>
    <tag k="oneway" v="yes"/>
    <tag k="ref" v="I 605"/>
    <tag k="source:bridge" v="bing_imagery_0.06m_200801;survey;image;CDOT"/>
    <tag k="source_ref:bridge" v="AM909_DSCV1432;AM909_IMG_0180"/>
  </way>
  <way id="28901281" version="10" timestamp="2011-08-03T12:25:54Z" uid="207745" user="NE2" changeset="8909630">
    <nd ref="317678446"/>
    <nd ref="317678447"/>
    <tag k="bridge" v="yes"/>
    <tag k="bridge_name" v="Walnut Creek"/>
    <tag k="bridge_ref" v="605/LA/53-1343"/>
    <tag k="highway" v="motorway"/>
    <tag k="hov" v="lane"/>
    <tag k="is_in:state_code" v="CA"/>
    <tag k="lanes" v="5"/>
    <tag k="layer" v="1"/>
    <tag k="milepost:county" v="R19.85;R19.94"/>
    <tag k="name" v="San Gabriel River Freeway"/>
    <tag k="note" v="Bridge ref pic from I-10 East onramp from I-605 North;Bridge ref pic from I-605 South"/>
    <tag k="note:lanes" v="left lane is hov"/>
    <tag k="oneway" v="yes"/>
    <tag k="ref" v="I 605"/>
    <tag k="source:bridge" v="bing_imagery_0.06m_200801;survey;image;CDOT"/>
    <tag k="source_ref:bridge" v="AM909_DSCV1432;AM909_IMG_0180"/>
  </way>
  <way id="28901281" version="11" timestamp="2011-11-25T15:15:09Z" uid="207745" user="NE2" changeset="9943893">
    <nd ref="317678446"/>
    <nd ref="317678447"/>
    <tag k="bridge" v="yes"/>
    <tag k="bridge_name" v="Walnut Creek"/>
    <tag k="bridge_ref" v="605/LA/53-1343"/>
    <tag k="hgv" v="designated"/>
    <tag k="highway" v="motorway"/>
    <tag k="hov" v="lane"/>
    <tag k="is_in:state_code" v="CA"/>
    <tag k="lanes" v="5"/>
    <tag k="layer" v="1"/>
    <tag k="milepost:county" v="R19.85;R19.94"/>
    <tag k="name" v="San Gabriel River Freeway"/>
    <tag k="note" v="Bridge ref pic from I-10 East onramp from I-605 North;Bridge ref pic from I-605 South"/>
    <tag k="note:lanes" v="left lane is hov"/>
    <tag k="oneway" v="yes"/>
    <tag k="ref" v="I 605"/>
    <tag k="source:bridge" v="bing_imagery_0.06m_200801;survey;image;CDOT"/>
    <tag k="source_ref:bridge" v="AM909_DSCV1432;AM909_IMG_0180"/>
  </way>
  <way id="28901285" version="5" timestamp="2010-03-28T00:24:29Z" uid="20587" user="balrog-kun" changeset="4250871">
    <nd ref="317678513"/>
    <nd ref="317678514"/>
    <nd ref="529374731"/>
    <nd ref="668146"/>
    <tag k="highway" v="motorway"/>
    <tag k="layer" v="1"/>
    <tag k="name" v="San Gabriel River Freeway"/>
    <tag k="oneway" v="yes"/>
    <tag k="ref" v="I 605"/>
  </way>
  <way id="28901285" version="6" timestamp="2011-06-28T19:22:46Z" uid="4951" user="PeterIto" changeset="8574487">
    <nd ref="317678513"/>
    <nd ref="317678514"/>
    <nd ref="529374731"/>
    <nd ref="668146"/>
    <tag k="highway" v="motorway"/>
    <tag k="name" v="San Gabriel River Freeway"/>
    <tag k="oneway" v="yes"/>
    <tag k="ref" v="I 605"/>
  </way>
  <way id="28901285" version="7" timestamp="2011-08-03T12:26:02Z" uid="207745" user="NE2" changeset="8909630">
    <nd ref="317678513"/>
    <nd ref="317678514"/>
    <nd ref="529374731"/>
    <nd ref="668146"/>
    <tag k="highway" v="motorway"/>
    <tag k="hov" v="lane"/>
    <tag k="lanes" v="4"/>
    <tag k="name" v="San Gabriel River Freeway"/>
    <tag k="note:lanes" v="left lane is hov"/>
    <tag k="oneway" v="yes"/>
    <tag k="ref" v="I 605"/>
  </way>
  <way id="28901285" version="8" timestamp="2011-11-25T15:15:32Z" uid="207745" user="NE2" changeset="9943893">
    <nd ref="317678513"/>
    <nd ref="317678514"/>
    <nd ref="529374731"/>
    <nd ref="668146"/>
    <tag k="hgv" v="designated"/>
    <tag k="highway" v="motorway"/>
    <tag k="hov" v="lane"/>
    <tag k="lanes" v="4"/>
    <tag k="name" v="San Gabriel River Freeway"/>
    <tag k="note:lanes" v="left lane is hov"/>
    <tag k="oneway" v="yes"/>
    <tag k="ref" v="I 605"/>
  </way>
  <way id="28901287" version="6" timestamp="2010-03-28T00:24:29Z" uid="20587" user="balrog-kun" changeset="4250871">
    <nd ref="25266710"/>
    <nd ref="317678587"/>
    <tag k="bridge" v="yes"/>
    <tag k="highway" v="motorway"/>
    <tag k="layer" v="1"/>
    <tag k="name" v="San Bernardino Freeway"/>
    <tag k="oneway" v="yes"/>
    <tag k="ref" v="I 10"/>
  </way>
  <way id="28901287" version="7" timestamp="2011-08-02T08:05:57Z" uid="207745" user="NE2" changeset="8898279">
    <nd ref="25266710"/>
    <nd ref="317678587"/>
    <tag k="bridge" v="yes"/>
    <tag k="highway" v="motorway"/>
    <tag k="lanes" v="4"/>
    <tag k="layer" v="1"/>
    <tag k="name" v="San Bernardino Freeway"/>
    <tag k="oneway" v="yes"/>
    <tag k="ref" v="I 10"/>
    <tag k="x" v="x"/>
  </way>
  <way id="28901287" version="8" timestamp="2011-11-25T15:01:53Z" uid="207745" user="NE2" changeset="9943893">
    <nd ref="25266710"/>
    <nd ref="317678587"/>
    <tag k="bridge" v="yes"/>
    <tag k="hgv" v="designated"/>
    <tag k="highway" v="motorway"/>
    <tag k="lanes" v="4"/>
    <tag k="layer" v="1"/>
    <tag k="name" v="San Bernardino Freeway"/>
    <tag k="oneway" v="yes"/>
    <tag k="ref" v="I 10"/>
    <tag k="x" v="x"/>
  </way>
  <way id="28901287" version="9" timestamp="2012-02-07T09:30:11Z" uid="207745" user="NE2" changeset="10610324">
    <nd ref="25266710"/>
    <nd ref="317678587"/>
    <tag k="bridge" v="yes"/>
    <tag k="hgv" v="designated"/>
    <tag k="highway" v="motorway"/>
    <tag k="lanes" v="4"/>
    <tag k="layer" v="1"/>
    <tag k="name" v="San Bernardino Freeway"/>
    <tag k="oneway" v="yes"/>
    <tag k="ref" v="I 10"/>
  </way>
  <way id="28901288" version="5" timestamp="2010-03-28T00:24:29Z" uid="20587" user="balrog-kun" changeset="4250871">
    <nd ref="317678587"/>
    <nd ref="317678104"/>
    <tag k="highway" v="motorway"/>
    <tag k="layer" v="1"/>
    <tag k="name" v="San Bernardino Freeway"/>
    <tag k="oneway" v="yes"/>
    <tag k="ref" v="I 10"/>
  </way>
  <way id="28901288" version="6" timestamp="2011-06-28T19:22:46Z" uid="4951" user="PeterIto" changeset="8574487">
    <nd ref="317678587"/>
    <nd ref="317678104"/>
    <tag k="highway" v="motorway"/>
    <tag k="name" v="San Bernardino Freeway"/>
    <tag k="oneway" v="yes"/>
    <tag k="ref" v="I 10"/>
  </way>
  <way id="28901288" version="7" timestamp="2011-08-02T08:05:28Z" uid="207745" user="NE2" changeset="8898279">
    <nd ref="317678587"/>
    <nd ref="317678104"/>
    <tag k="highway" v="motorway"/>
    <tag k="lanes" v="4"/>
    <tag k="name" v="San Bernardino Freeway"/>
    <tag k="oneway" v="yes"/>
    <tag k="ref" v="I 10"/>
    <tag k="x" v="x"/>
  </way>
  <way id="28901288" version="8" timestamp="2011-11-25T15:02:01Z" uid="207745" user="NE2" changeset="9943893">
    <nd ref="317678587"/>
    <nd ref="317678104"/>
    <tag k="hgv" v="designated"/>
    <tag k="highway" v="motorway"/>
    <tag k="lanes" v="4"/>
    <tag k="name" v="San Bernardino Freeway"/>
    <tag k="oneway" v="yes"/>
    <tag k="ref" v="I 10"/>
    <tag k="x" v="x"/>
  </way>
  <way id="28901288" version="9" timestamp="2012-02-07T09:30:13Z" uid="207745" user="NE2" changeset="10610324">
    <nd ref="317678587"/>
    <nd ref="317678104"/>
    <tag k="hgv" v="designated"/>
    <tag k="highway" v="motorway"/>
    <tag k="lanes" v="4"/>
    <tag k="name" v="San Bernardino Freeway"/>
    <tag k="oneway" v="yes"/>
    <tag k="ref" v="I 10"/>
  </way>
  <way id="28901331" version="6" timestamp="2010-03-28T00:24:29Z" uid="20587" user="balrog-kun" changeset="4250871">
    <nd ref="317678875"/>
    <nd ref="529374732"/>
    <nd ref="317678876"/>
    <nd ref="317678877"/>
    <tag k="highway" v="motorway"/>
    <tag k="layer" v="1"/>
    <tag k="name" v="San Gabriel River Freeway"/>
    <tag k="oneway" v="yes"/>
    <tag k="ref" v="I 605"/>
  </way>
  <way id="28901331" version="7" timestamp="2011-06-28T19:22:46Z" uid="4951" user="PeterIto" changeset="8574487">
    <nd ref="317678875"/>
    <nd ref="529374732"/>
    <nd ref="317678876"/>
    <nd ref="317678877"/>
    <tag k="highway" v="motorway"/>
    <tag k="name" v="San Gabriel River Freeway"/>
    <tag k="oneway" v="yes"/>
    <tag k="ref" v="I 605"/>
  </way>
  <way id="28901331" version="8" timestamp="2011-08-03T12:26:02Z" uid="207745" user="NE2" changeset="8909630">
    <nd ref="317678875"/>
    <nd ref="529374732"/>
    <nd ref="317678876"/>
    <nd ref="317678877"/>
    <tag k="highway" v="motorway"/>
    <tag k="lanes" v="4"/>
    <tag k="name" v="San Gabriel River Freeway"/>
    <tag k="oneway" v="yes"/>
    <tag k="ref" v="I 605"/>
  </way>
  <way id="28901331" version="9" timestamp="2011-11-25T15:15:33Z" uid="207745" user="NE2" changeset="9943893">
    <nd ref="317678875"/>
    <nd ref="529374732"/>
    <nd ref="317678876"/>
    <nd ref="317678877"/>
    <tag k="hgv" v="designated"/>
    <tag k="highway" v="motorway"/>
    <tag k="lanes" v="4"/>
    <tag k="name" v="San Gabriel River Freeway"/>
    <tag k="oneway" v="yes"/>
    <tag k="ref" v="I 605"/>
  </way>
  <way id="28901332" version="7" timestamp="2010-03-28T00:24:29Z" uid="20587" user="balrog-kun" changeset="4250871">
    <nd ref="317678877"/>
    <nd ref="317678879"/>
    <nd ref="317678880"/>
    <tag k="bridge" v="yes"/>
    <tag k="bridge_name" v="Rte 605/10 Sep"/>
    <tag k="bridge_ref" v="605/LA/53-1632"/>
    <tag k="highway" v="motorway"/>
    <tag k="is_in:state_code" v="CA"/>
    <tag k="layer" v="2"/>
    <tag k="milepost:county" v="R20.17"/>
    <tag k="name" v="San Gabriel River Freeway"/>
    <tag k="note" v="Bridge ref pic from I-605 North"/>
    <tag k="oneway" v="yes"/>
    <tag k="ref" v="I 605"/>
    <tag k="source:bridge" v="survey;image;usgs_imagery;CDOT"/>
    <tag k="source_ref:bridge" v="AM909_DSCS9711"/>
  </way>
  <way id="28901332" version="8" timestamp="2011-07-14T06:35:11Z" uid="4951" user="PeterIto" changeset="8718828">
    <nd ref="317678877"/>
    <nd ref="317678879"/>
    <nd ref="317678880"/>
    <tag k="bridge" v="yes"/>
    <tag k="bridge_name" v="Rte 605/10 Sep"/>
    <tag k="bridge_ref" v="605/LA/53-1632"/>
    <tag k="highway" v="motorway"/>
    <tag k="is_in:state_code" v="CA"/>
    <tag k="layer" v="1"/>
    <tag k="milepost:county" v="R20.17"/>
    <tag k="name" v="San Gabriel River Freeway"/>
    <tag k="note" v="Bridge ref pic from I-605 North"/>
    <tag k="oneway" v="yes"/>
    <tag k="ref" v="I 605"/>
    <tag k="source:bridge" v="survey;image;usgs_imagery;CDOT"/>
    <tag k="source_ref:bridge" v="AM909_DSCS9711"/>
  </way>
  <way id="28901332" version="9" timestamp="2011-08-03T12:26:01Z" uid="207745" user="NE2" changeset="8909630">
    <nd ref="317678877"/>
    <nd ref="317678879"/>
    <nd ref="317678880"/>
    <tag k="bridge" v="yes"/>
    <tag k="bridge_name" v="Rte 605/10 Sep"/>
    <tag k="bridge_ref" v="605/LA/53-1632"/>
    <tag k="highway" v="motorway"/>
    <tag k="is_in:state_code" v="CA"/>
    <tag k="lanes" v="4"/>
    <tag k="layer" v="1"/>
    <tag k="milepost:county" v="R20.17"/>
    <tag k="name" v="San Gabriel River Freeway"/>
    <tag k="note" v="Bridge ref pic from I-605 North"/>
    <tag k="oneway" v="yes"/>
    <tag k="ref" v="I 605"/>
    <tag k="source:bridge" v="survey;image;usgs_imagery;CDOT"/>
    <tag k="source_ref:bridge" v="AM909_DSCS9711"/>
  </way>
  <way id="28901332" version="10" timestamp="2011-11-25T15:15:23Z" uid="207745" user="NE2" changeset="9943893">
    <nd ref="317678877"/>
    <nd ref="317678879"/>
    <nd ref="317678880"/>
    <tag k="bridge" v="yes"/>
    <tag k="bridge_name" v="Rte 605/10 Sep"/>
    <tag k="bridge_ref" v="605/LA/53-1632"/>
    <tag k="hgv" v="designated"/>
    <tag k="highway" v="motorway"/>
    <tag k="is_in:state_code" v="CA"/>
    <tag k="lanes" v="4"/>
    <tag k="layer" v="1"/>
    <tag k="milepost:county" v="R20.17"/>
    <tag k="name" v="San Gabriel River Freeway"/>
    <tag k="note" v="Bridge ref pic from I-605 North"/>
    <tag k="oneway" v="yes"/>
    <tag k="ref" v="I 605"/>
    <tag k="source:bridge" v="survey;image;usgs_imagery;CDOT"/>
    <tag k="source_ref:bridge" v="AM909_DSCS9711"/>
  </way>
  <way id="28901335" version="5" timestamp="2010-03-28T00:24:29Z" uid="20587" user="balrog-kun" changeset="4250871">
    <nd ref="317678890"/>
    <nd ref="317678875"/>
    <tag k="bridge" v="yes"/>
    <tag k="highway" v="motorway"/>
    <tag k="layer" v="1"/>
    <tag k="name" v="San Gabriel River Freeway"/>
    <tag k="oneway" v="yes"/>
    <tag k="ref" v="I 605"/>
  </way>
  <way id="28901335" version="6" timestamp="2011-01-12T22:26:04Z" uid="82317" user="AM909" changeset="6952509">
    <nd ref="317678890"/>
    <nd ref="317678875"/>
    <tag k="bridge" v="yes"/>
    <tag k="bridge_name" v="South Conn UC"/>
    <tag k="bridge_ref" v="605/LA/53-1631"/>
    <tag k="highway" v="motorway"/>
    <tag k="is_in:state_code" v="CA"/>
    <tag k="layer" v="1"/>
    <tag k="milepost:county" v="20.09"/>
    <tag k="name" v="San Gabriel River Freeway"/>
    <tag k="note" v="Bridge ref pic from I-605 North"/>
    <tag k="oneway" v="yes"/>
    <tag k="ref" v="I 605"/>
    <tag k="source:bridge" v="bing_imagery_0.06m_200801;survey;image;CDOT"/>
    <tag k="source_ref:bridge" v="AM909_DSCW8503"/>
  </way>
  <way id="28901335" version="7" timestamp="2011-08-03T12:25:47Z" uid="207745" user="NE2" changeset="8909630">
    <nd ref="317678890"/>
    <nd ref="317678875"/>
    <tag k="bridge" v="yes"/>
    <tag k="bridge_name" v="South Conn UC"/>
    <tag k="bridge_ref" v="605/LA/53-1631"/>
    <tag k="highway" v="motorway"/>
    <tag k="is_in:state_code" v="CA"/>
    <tag k="lanes" v="4"/>
    <tag k="layer" v="1"/>
    <tag k="milepost:county" v="20.09"/>
    <tag k="name" v="San Gabriel River Freeway"/>
    <tag k="note" v="Bridge ref pic from I-605 North"/>
    <tag k="oneway" v="yes"/>
    <tag k="ref" v="I 605"/>
    <tag k="source:bridge" v="bing_imagery_0.06m_200801;survey;image;CDOT"/>
    <tag k="source_ref:bridge" v="AM909_DSCW8503"/>
  </way>
  <way id="28901335" version="8" timestamp="2011-11-25T15:15:10Z" uid="207745" user="NE2" changeset="9943893">
    <nd ref="317678890"/>
    <nd ref="317678875"/>
    <tag k="bridge" v="yes"/>
    <tag k="bridge_name" v="South Conn UC"/>
    <tag k="bridge_ref" v="605/LA/53-1631"/>
    <tag k="hgv" v="designated"/>
    <tag k="highway" v="motorway"/>
    <tag k="is_in:state_code" v="CA"/>
    <tag k="lanes" v="4"/>
    <tag k="layer" v="1"/>
    <tag k="milepost:county" v="20.09"/>
    <tag k="name" v="San Gabriel River Freeway"/>
    <tag k="note" v="Bridge ref pic from I-605 North"/>
    <tag k="oneway" v="yes"/>
    <tag k="ref" v="I 605"/>
    <tag k="source:bridge" v="bing_imagery_0.06m_200801;survey;image;CDOT"/>
    <tag k="source_ref:bridge" v="AM909_DSCW8503"/>
  </way>
  <way id="28901339" version="1" timestamp="2008-12-10T00:19:40Z" uid="17602" user="B10xyz" changeset="300950">
    <nd ref="317678916"/>
    <nd ref="317678917"/>
    <tag k="created_by" v="Potlatch 0.10f"/>
  </way>
  <way id="28901339" version="2" timestamp="2008-12-10T00:26:57Z" uid="17602" user="B10xyz" changeset="300950">
    <nd ref="317678916"/>
    <nd ref="317678917"/>
    <tag k="created_by" v="Potlatch 0.10f"/>
    <tag k="highway" v="footway"/>
  </way>
  <way id="28901339" version="3" timestamp="2009-03-11T02:05:44Z" uid="17602" user="B10xyz" changeset="787544">
    <nd ref="317678916"/>
    <nd ref="317678917"/>
    <tag k="highway" v="footway"/>
  </way>
  <way id="28901339" version="4" timestamp="2009-03-14T23:04:23Z" uid="17602" user="B10xyz" changeset="810268">
    <nd ref="317678916"/>
    <nd ref="317678917"/>
    <tag k="highway" v="footway"/>
    <tag k="name" v="CALLE FIANCO DE LA SCUOLA"/>
  </way>
  <way id="28901339" version="5" timestamp="2009-07-10T23:20:17Z" uid="17602" user="B10xyz" changeset="1793392">
    <nd ref="317678916"/>
    <nd ref="317678917"/>
    <tag k="highway" v="footway"/>
    <tag k="visible_name" v="CALLE FIANCO DE LA SCUOLA"/>
  </way>
  <way id="28901339" version="6" timestamp="2009-11-17T18:20:45Z" uid="17602" user="B10xyz" changeset="3143268">
    <nd ref="317678916"/>
    <nd ref="317678917"/>
    <tag k="highway" v="footway"/>
    <tag k="is_in" v="PARROCCHIA S. MARIA GLORIOSA DEI FRARI, S. POLO"/>
    <tag k="visible_name" v="CALLE FIANCO DE LA SCUOLA"/>
  </way>
  <way id="28901339" version="7" timestamp="2011-05-18T13:00:28Z" uid="451916" user="PamlynJ" changeset="8180876">
    <nd ref="317678916"/>
    <nd ref="317678917"/>
    <tag k="highway" v="footway"/>
    <tag k="is_in" v="PARROCCHIA S. MARIA GLORIOSA DEI FRARI, S. POLO"/>
    <tag k="name" v="C Fianco de la Scuola"/>
    <tag k="visible_name" v="CALLE FIANCO DE LA SCUOLA"/>
  </way>
  <way id="28901339" version="8" timestamp="2011-09-16T09:14:20Z" uid="486260" user="Luca81" changeset="9314361">
    <nd ref="317678916"/>
    <nd ref="317678917"/>
    <tag k="highway" v="pedestrian"/>
    <tag k="is_in" v="PARROCCHIA S. MARIA GLORIOSA DEI FRARI, S. POLO"/>
    <tag k="name" v="C Fianco de la Scuola"/>
    <tag k="visible_name" v="CALLE FIANCO DE LA SCUOLA"/>
  </way>
  <way id="28901353" version="1" timestamp="2008-12-10T00:21:28Z" uid="17602" user="B10xyz" changeset="300950">
    <nd ref="30025115"/>
    <nd ref="317679054"/>
    <nd ref="317679056"/>
    <nd ref="317679058"/>
    <nd ref="317678916"/>
    <tag k="created_by" v="Potlatch 0.10f"/>
  </way>
  <way id="28901353" version="2" timestamp="2008-12-10T00:26:53Z" uid="17602" user="B10xyz" changeset="300950">
    <nd ref="30025115"/>
    <nd ref="317679054"/>
    <nd ref="317679056"/>
    <nd ref="317679058"/>
    <nd ref="317678916"/>
    <tag k="created_by" v="Potlatch 0.10f"/>
    <tag k="highway" v="footway"/>
  </way>
  <way id="28901353" version="3" timestamp="2008-12-15T18:27:24Z" uid="17602" user="B10xyz" changeset="399991">
    <nd ref="30025115"/>
    <nd ref="319015884"/>
    <nd ref="317679054"/>
    <nd ref="317679056"/>
    <nd ref="317679058"/>
    <nd ref="317678916"/>
    <tag k="created_by" v="Merkaartor 0.12"/>
    <tag k="highway" v="footway"/>
  </way>
  <way id="28901353" version="4" timestamp="2009-11-17T18:24:05Z" uid="17602" user="B10xyz" changeset="3143268">
    <nd ref="30025115"/>
    <nd ref="319015884"/>
    <nd ref="317679054"/>
    <tag k="highway" v="footway"/>
    <tag k="note" v="3098A SC"/>
    <tag k="visible_name" v="CALLE DE CASTELFORTE S. ROCCO"/>
  </way>
  <way id="28901353" version="5" timestamp="2009-11-29T20:09:07Z" uid="17602" user="B10xyz" changeset="3249955">
    <nd ref="30025115"/>
    <nd ref="319015884"/>
    <nd ref="317679054"/>
    <tag k="highway" v="footway"/>
    <tag k="note" v="3098A SP"/>
    <tag k="visible_name" v="CALLE DE CASTELFORTE S. ROCCO"/>
  </way>
  <way id="28901353" version="6" timestamp="2011-07-14T13:57:35Z" uid="486260" user="Luca81" changeset="8721678">
    <nd ref="30025115"/>
    <nd ref="319015884"/>
    <nd ref="317679054"/>
    <tag k="highway" v="pedestrian"/>
    <tag k="note" v="3098A SP"/>
    <tag k="visible_name" v="CALLE DE CASTELFORTE S. ROCCO"/>
  </way>
  <way id="28901355" version="4" timestamp="2010-07-09T05:16:01Z" uid="74617" user="JohnSmith" changeset="5170986">
    <nd ref="317678082"/>
    <nd ref="317679104"/>
    <nd ref="317679111"/>
    <nd ref="317679105"/>
    <tag k="highway" v="residential"/>
    <tag k="maxspeed" v="50"/>
    <tag k="maxspeed:source" v="default residential speed limit in Australia"/>
    <tag k="name" v="Currie Street"/>
  </way>
  <way id="28901355" version="5" timestamp="2012-01-17T23:47:46Z" uid="147510" user="woodpeck_fixbot" changeset="10421060">
    <nd ref="317678082"/>
    <nd ref="317679104"/>
    <nd ref="317679111"/>
    <nd ref="317679105"/>
    <tag k="highway" v="residential"/>
    <tag k="name" v="Currie Street"/>
  </way>
  <way id="28901357" version="3" timestamp="2010-07-09T05:12:30Z" uid="74617" user="JohnSmith" changeset="5170986">
    <nd ref="317679104"/>
    <nd ref="317679110"/>
    <tag k="highway" v="residential"/>
    <tag k="maxspeed" v="50"/>
    <tag k="maxspeed:source" v="default residential speed limit in Australia"/>
    <tag k="name" v="Galt Street"/>
  </way>
  <way id="28901357" version="4" timestamp="2012-01-17T23:47:48Z" uid="147510" user="woodpeck_fixbot" changeset="10421060">
    <nd ref="317679104"/>
    <nd ref="317679110"/>
    <tag k="highway" v="residential"/>
    <tag k="name" v="Galt Street"/>
  </way>
  <way id="28901358" version="4" timestamp="2010-07-09T05:18:52Z" uid="74617" user="JohnSmith" changeset="5170986">
    <nd ref="317679111"/>
    <nd ref="30949394"/>
    <tag k="highway" v="residential"/>
    <tag k="maxspeed" v="50"/>
    <tag k="maxspeed:source" v="default residential speed limit in Australia"/>
    <tag k="name" v="Inglis Street"/>
  </way>
  <way id="28901358" version="5" timestamp="2012-01-17T23:47:49Z" uid="147510" user="woodpeck_fixbot" changeset="10421060">
    <nd ref="317679111"/>
    <nd ref="30949394"/>
    <tag k="highway" v="residential"/>
    <tag k="name" v="Inglis Street"/>
  </way>
  <way id="28901360" version="4" timestamp="2010-07-09T05:12:17Z" uid="74617" user="JohnSmith" changeset="5170986">
    <nd ref="317679122"/>
    <nd ref="317679127"/>
    <tag k="highway" v="residential"/>
    <tag k="maxspeed" v="50"/>
    <tag k="maxspeed:source" v="default residential speed limit in Australia"/>
    <tag k="name" v="Cole Court"/>
  </way>
  <way id="28901360" version="5" timestamp="2012-01-17T23:47:50Z" uid="147510" user="woodpeck_fixbot" changeset="10421060">
    <nd ref="317679122"/>
    <nd ref="317679127"/>
    <tag k="highway" v="residential"/>
    <tag k="name" v="Cole Court"/>
  </way>
  <way id="28901364" version="1" timestamp="2008-12-10T00:25:05Z" uid="17602" user="B10xyz" changeset="300950">
    <nd ref="317679147"/>
    <nd ref="317679148"/>
    <tag k="created_by" v="Potlatch 0.10f"/>
  </way>
  <way id="28901364" version="2" timestamp="2008-12-10T00:25:59Z" uid="17602" user="B10xyz" changeset="300950">
    <nd ref="317679147"/>
    <nd ref="317679148"/>
    <tag k="created_by" v="Potlatch 0.10f"/>
    <tag k="highway" v="footway"/>
    <tag k="name" v="CROSERA"/>
  </way>
  <way id="28901364" version="3" timestamp="2008-12-10T00:26:40Z" uid="17602" user="B10xyz" changeset="300950">
    <nd ref="317679147"/>
    <nd ref="317679148"/>
    <tag k="created_by" v="Potlatch 0.10f"/>
    <tag k="highway" v="footway"/>
  </way>
  <way id="28901364" version="4" timestamp="2008-12-10T00:30:28Z" uid="17602" user="B10xyz" changeset="300950">
    <nd ref="317679147"/>
    <nd ref="317679148"/>
    <tag k="created_by" v="Potlatch 0.10f"/>
    <tag k="highway" v="footway"/>
  </way>
  <way id="28901364" version="5" timestamp="2009-03-11T02:05:47Z" uid="17602" user="B10xyz" changeset="787544">
    <nd ref="317679147"/>
    <nd ref="317679148"/>
    <tag k="highway" v="footway"/>
  </way>
  <way id="28901364" version="6" timestamp="2009-11-17T18:20:51Z" uid="17602" user="B10xyz" changeset="3143268">
    <nd ref="317679147"/>
    <nd ref="566315459"/>
    <nd ref="317679148"/>
    <tag k="highway" v="footway"/>
    <tag k="is_in" v="PARROCCHIA S. PANTALON, DORSODURO"/>
    <tag k="note" v="3801 DD"/>
    <tag k="visible_name" v="CALLE DELLA SCUOLA"/>
  </way>
  <way id="28901364" version="7" timestamp="2011-05-18T13:30:17Z" uid="451916" user="PamlynJ" changeset="8181072">
    <nd ref="317679147"/>
    <nd ref="566315459"/>
    <nd ref="317679148"/>
    <tag k="highway" v="footway"/>
    <tag k="is_in" v="PARROCCHIA S. PANTALON, DORSODURO"/>
    <tag k="name" v="C della Scuola"/>
    <tag k="note" v="3801 DD"/>
    <tag k="visible_name" v="CALLE DELLA SCUOLA"/>
  </way>
  <way id="28901364" version="8" timestamp="2011-07-14T14:25:11Z" uid="486260" user="Luca81" changeset="8721678">
    <nd ref="317679147"/>
    <nd ref="566315459"/>
    <nd ref="317679148"/>
    <tag k="highway" v="pedestrian"/>
    <tag k="is_in" v="PARROCCHIA S. PANTALON, DORSODURO"/>
    <tag k="name" v="C della Scuola"/>
    <tag k="note" v="3801 DD"/>
    <tag k="visible_name" v="CALLE DELLA SCUOLA"/>
  </way>
  <way id="28901365" version="1" timestamp="2008-12-10T00:25:18Z" uid="17602" user="B10xyz" changeset="300950">
    <nd ref="317679148"/>
    <nd ref="317679058"/>
    <tag k="created_by" v="Potlatch 0.10f"/>
  </way>
  <way id="28901365" version="2" timestamp="2008-12-10T00:26:11Z" uid="17602" user="B10xyz" changeset="300950">
    <nd ref="317679148"/>
    <nd ref="317679058"/>
    <tag k="bridge" v="yes"/>
    <tag k="created_by" v="Potlatch 0.10f"/>
    <tag k="highway" v="footway"/>
    <tag k="layer" v="1"/>
  </way>
  <way id="28901365" version="3" timestamp="2009-03-11T02:05:47Z" uid="17602" user="B10xyz" changeset="787544">
    <nd ref="317679148"/>
    <nd ref="317679058"/>
    <tag k="bridge" v="yes"/>
    <tag k="highway" v="footway"/>
    <tag k="layer" v="1"/>
  </way>
  <way id="28901365" version="4" timestamp="2009-06-29T14:18:30Z" uid="4526" user="EdoM" changeset="1677800">
    <nd ref="317679148"/>
    <nd ref="317679058"/>
    <tag k="bridge" v="yes"/>
    <tag k="highway" v="steps"/>
    <tag k="layer" v="1"/>
  </way>
  <way id="28901365" version="5" timestamp="2009-11-17T18:20:51Z" uid="17602" user="B10xyz" changeset="3143268">
    <nd ref="317679148"/>
    <nd ref="317679058"/>
    <tag k="bridge" v="yes"/>
    <tag k="highway" v="steps"/>
    <tag k="layer" v="1"/>
    <tag k="visible_name" v="PONTE DE LA SCUOLA"/>
  </way>
  <way id="28901366" version="3" timestamp="2010-07-09T05:18:12Z" uid="74617" user="JohnSmith" changeset="5170986">
    <nd ref="317679154"/>
    <nd ref="317679169"/>
    <tag k="highway" v="residential"/>
    <tag k="maxspeed" v="50"/>
    <tag k="maxspeed:source" v="default residential speed limit in Australia"/>
    <tag k="name" v="Janda Court"/>
  </way>
  <way id="28901366" version="4" timestamp="2012-01-17T23:47:52Z" uid="147510" user="woodpeck_fixbot" changeset="10421060">
    <nd ref="317679154"/>
    <nd ref="317679169"/>
    <tag k="highway" v="residential"/>
    <tag k="name" v="Janda Court"/>
  </way>
  <way id="28901368" version="5" timestamp="2010-07-09T05:17:56Z" uid="74617" user="JohnSmith" changeset="5170986">
    <nd ref="317679206"/>
    <nd ref="317679207"/>
    <nd ref="317679208"/>
    <nd ref="346575784"/>
    <nd ref="317679209"/>
    <nd ref="317679210"/>
    <nd ref="317679211"/>
    <nd ref="317679212"/>
    <nd ref="317679213"/>
    <tag k="highway" v="residential"/>
    <tag k="maxspeed" v="50"/>
    <tag k="maxspeed:source" v="default residential speed limit in Australia"/>
    <tag k="name" v="Morley Crescent"/>
  </way>
  <way id="28901368" version="6" timestamp="2012-01-17T23:47:55Z" uid="147510" user="woodpeck_fixbot" changeset="10421060">
    <nd ref="317679206"/>
    <nd ref="317679207"/>
    <nd ref="317679208"/>
    <nd ref="346575784"/>
    <nd ref="317679209"/>
    <nd ref="317679210"/>
    <nd ref="317679211"/>
    <nd ref="317679212"/>
    <nd ref="317679213"/>
    <tag k="highway" v="residential"/>
    <tag k="name" v="Morley Crescent"/>
  </way>
  <way id="28901368" version="7" timestamp="2012-02-18T23:27:49Z" uid="472067" user="pringle" changeset="10725531">
    <nd ref="317679206"/>
    <nd ref="317679207"/>
    <nd ref="1638427602"/>
    <nd ref="317679208"/>
    <nd ref="346575784"/>
    <nd ref="317679209"/>
    <nd ref="317679210"/>
    <nd ref="317679211"/>
    <nd ref="317679212"/>
    <nd ref="317679213"/>
    <tag k="highway" v="residential"/>
    <tag k="name" v="Morley Crescent"/>
  </way>
  <way id="28901388" version="7" timestamp="2010-07-09T05:12:46Z" uid="74617" user="JohnSmith" changeset="5170986">
    <nd ref="317679342"/>
    <nd ref="317679529"/>
    <nd ref="571429277"/>
    <nd ref="571429278"/>
    <nd ref="571423019"/>
    <nd ref="571429340"/>
    <nd ref="317679509"/>
    <nd ref="317679473"/>
    <nd ref="276166240"/>
    <nd ref="317679383"/>
    <nd ref="317679384"/>
    <nd ref="317679385"/>
    <nd ref="317679386"/>
    <tag k="highway" v="residential"/>
    <tag k="maxspeed" v="50"/>
    <tag k="maxspeed:source" v="default residential speed limit in Australia"/>
    <tag k="name" v="Dunloe Avenue"/>
    <tag k="source" v="MMBW"/>
  </way>
  <way id="28901388" version="8" timestamp="2012-01-17T23:47:56Z" uid="147510" user="woodpeck_fixbot" changeset="10421060">
    <nd ref="317679342"/>
    <nd ref="317679529"/>
    <nd ref="571429277"/>
    <nd ref="571429278"/>
    <nd ref="571423019"/>
    <nd ref="571429340"/>
    <nd ref="317679509"/>
    <nd ref="317679473"/>
    <nd ref="276166240"/>
    <nd ref="317679383"/>
    <nd ref="317679384"/>
    <nd ref="317679385"/>
    <nd ref="317679386"/>
    <tag k="highway" v="residential"/>
    <tag k="name" v="Dunloe Avenue"/>
    <tag k="source" v="MMBW"/>
  </way>
  <way id="28901394" version="2" timestamp="2010-07-09T05:15:34Z" uid="74617" user="JohnSmith" changeset="5170986">
    <nd ref="317679473"/>
    <nd ref="317679499"/>
    <tag k="highway" v="residential"/>
    <tag k="maxspeed" v="50"/>
    <tag k="maxspeed:source" v="default residential speed limit in Australia"/>
    <tag k="name" v="Halifax Street"/>
    <tag k="source" v="MMBW"/>
  </way>
  <way id="28901394" version="3" timestamp="2012-01-17T23:47:58Z" uid="147510" user="woodpeck_fixbot" changeset="10421060">
    <nd ref="317679473"/>
    <nd ref="317679499"/>
    <tag k="highway" v="residential"/>
    <tag k="name" v="Halifax Street"/>
    <tag k="source" v="MMBW"/>
  </way>
  <way id="28901400" version="3" timestamp="2010-07-09T05:16:30Z" uid="74617" user="JohnSmith" changeset="5170986">
    <nd ref="317679509"/>
    <nd ref="317679521"/>
    <tag k="highway" v="residential"/>
    <tag k="maxspeed" v="50"/>
    <tag k="maxspeed:source" v="default residential speed limit in Australia"/>
    <tag k="name" v="Edgoose Avenue"/>
  </way>
  <way id="28901400" version="4" timestamp="2012-01-17T23:48:00Z" uid="147510" user="woodpeck_fixbot" changeset="10421060">
    <nd ref="317679509"/>
    <nd ref="317679521"/>
    <tag k="highway" v="residential"/>
    <tag k="name" v="Edgoose Avenue"/>
  </way>
  <way id="28901402" version="3" timestamp="2010-07-09T05:13:07Z" uid="74617" user="JohnSmith" changeset="5170986">
    <nd ref="317679521"/>
    <nd ref="317679526"/>
    <nd ref="317679527"/>
    <nd ref="317679528"/>
    <nd ref="317679529"/>
    <tag k="highway" v="residential"/>
    <tag k="maxspeed" v="50"/>
    <tag k="maxspeed:source" v="default residential speed limit in Australia"/>
    <tag k="name" v="Hawkins Avenue"/>
    <tag k="source" v="MMBW"/>
  </way>
  <way id="28901402" version="4" timestamp="2011-01-03T07:00:19Z" uid="20974" user="Mander" changeset="6846600">
    <nd ref="317679521"/>
    <nd ref="1080157489"/>
    <nd ref="317679526"/>
    <nd ref="317679527"/>
    <nd ref="317679528"/>
    <nd ref="317679529"/>
    <tag k="highway" v="residential"/>
    <tag k="maxspeed" v="50"/>
    <tag k="maxspeed:source" v="default residential speed limit in Australia"/>
    <tag k="name" v="Hawkins Avenue"/>
    <tag k="source" v="MMBW"/>
  </way>
  <way id="28901402" version="5" timestamp="2012-01-17T23:48:01Z" uid="147510" user="woodpeck_fixbot" changeset="10421060">
    <nd ref="317679521"/>
    <nd ref="1080157489"/>
    <nd ref="317679526"/>
    <nd ref="317679527"/>
    <nd ref="317679528"/>
    <nd ref="317679529"/>
    <tag k="highway" v="residential"/>
    <tag k="name" v="Hawkins Avenue"/>
    <tag k="source" v="MMBW"/>
  </way>
  <way id="28901407" version="3" timestamp="2010-07-09T05:12:35Z" uid="74617" user="JohnSmith" changeset="5170986">
    <nd ref="317679529"/>
    <nd ref="317679556"/>
    <tag k="highway" v="residential"/>
    <tag k="lanes" v="2"/>
    <tag k="maxspeed" v="50"/>
    <tag k="maxspeed:source" v="default residential speed limit in Australia"/>
    <tag k="name" v="Lloyd Street"/>
    <tag k="source" v="MMBW"/>
    <tag k="surface" v="paved"/>
  </way>
  <way id="28901407" version="4" timestamp="2012-01-17T23:48:02Z" uid="147510" user="woodpeck_fixbot" changeset="10421060">
    <nd ref="317679529"/>
    <nd ref="317679556"/>
    <tag k="highway" v="residential"/>
    <tag k="lanes" v="2"/>
    <tag k="name" v="Lloyd Street"/>
    <tag k="source" v="MMBW"/>
    <tag k="surface" v="paved"/>
  </way>
  <way id="28901413" version="4" timestamp="2010-07-09T05:19:50Z" uid="74617" user="JohnSmith" changeset="5170986">
    <nd ref="317679853"/>
    <nd ref="317679860"/>
    <nd ref="317679861"/>
    <nd ref="32562359"/>
    <tag k="highway" v="residential"/>
    <tag k="lanes" v="2"/>
    <tag k="maxspeed" v="50"/>
    <tag k="maxspeed:source" v="default residential speed limit in Australia"/>
    <tag k="name" v="Harriett Crescent"/>
    <tag k="source" v="MMBW"/>
    <tag k="surface" v="paved"/>
  </way>
  <way id="28901413" version="5" timestamp="2012-01-17T23:48:03Z" uid="147510" user="woodpeck_fixbot" changeset="10421060">
    <nd ref="317679853"/>
    <nd ref="317679860"/>
    <nd ref="317679861"/>
    <nd ref="32562359"/>
    <tag k="highway" v="residential"/>
    <tag k="lanes" v="2"/>
    <tag k="name" v="Harriett Crescent"/>
    <tag k="source" v="MMBW"/>
    <tag k="surface" v="paved"/>
  </way>
  <way id="28901457" version="3" timestamp="2009-12-09T21:16:57Z" uid="200463" user="harmagedon" changeset="3336909">
    <nd ref="317680184"/>
    <nd ref="317680185"/>
    <nd ref="317680186"/>
    <nd ref="317680187"/>
    <nd ref="317680188"/>
    <nd ref="317680189"/>
    <tag k="highway" v="residential"/>
    <tag k="name" v="Ottendorfer Weg"/>
  </way>
  <way id="28901457" version="4" timestamp="2010-10-20T20:11:02Z" uid="269223" user="ddgb" changeset="6119564">
    <nd ref="317680184"/>
    <nd ref="317680185"/>
    <nd ref="317680186"/>
    <nd ref="317680187"/>
    <nd ref="958650306"/>
    <nd ref="317680188"/>
    <nd ref="317680189"/>
    <tag k="highway" v="residential"/>
    <tag k="name" v="Ottendorfer Weg"/>
  </way>
  <way id="28901457" version="5" timestamp="2011-11-05T17:43:51Z" uid="269223" user="ddgb" changeset="9748681">
    <nd ref="317680184"/>
    <nd ref="317680185"/>
    <nd ref="1492553406"/>
    <nd ref="317680186"/>
    <nd ref="317680187"/>
    <nd ref="958650306"/>
    <nd ref="317680188"/>
    <nd ref="317680189"/>
    <tag k="highway" v="residential"/>
    <tag k="name" v="Ottendorfer Weg"/>
  </way>
  <way id="28901460" version="3" timestamp="2010-07-09T05:15:48Z" uid="74617" user="JohnSmith" changeset="5170986">
    <nd ref="317122248"/>
    <nd ref="317680199"/>
    <tag k="highway" v="residential"/>
    <tag k="lanes" v="2"/>
    <tag k="maxspeed" v="50"/>
    <tag k="maxspeed:source" v="default residential speed limit in Australia"/>
    <tag k="name" v="George Street"/>
    <tag k="source" v="MMBW"/>
    <tag k="surface" v="paved"/>
  </way>
  <way id="28901460" version="4" timestamp="2012-01-17T23:48:04Z" uid="147510" user="woodpeck_fixbot" changeset="10421060">
    <nd ref="317122248"/>
    <nd ref="317680199"/>
    <tag k="highway" v="residential"/>
    <tag k="lanes" v="2"/>
    <tag k="name" v="George Street"/>
    <tag k="source" v="MMBW"/>
    <tag k="surface" v="paved"/>
  </way>
  <way id="28901464" version="4" timestamp="2010-07-09T05:20:12Z" uid="74617" user="JohnSmith" changeset="5170986">
    <nd ref="317680200"/>
    <nd ref="571423025"/>
    <nd ref="317680215"/>
    <tag k="highway" v="residential"/>
    <tag k="lanes" v="2"/>
    <tag k="maxspeed" v="50"/>
    <tag k="maxspeed:source" v="default residential speed limit in Australia"/>
    <tag k="name" v="Hotham Street"/>
    <tag k="source" v="MMBW"/>
    <tag k="surface" v="paved"/>
  </way>
  <way id="28901464" version="5" timestamp="2012-01-17T23:48:05Z" uid="147510" user="woodpeck_fixbot" changeset="10421060">
    <nd ref="317680200"/>
    <nd ref="571423025"/>
    <nd ref="317680215"/>
    <tag k="highway" v="residential"/>
    <tag k="lanes" v="2"/>
    <tag k="name" v="Hotham Street"/>
    <tag k="source" v="MMBW"/>
    <tag k="surface" v="paved"/>
  </way>
  <way id="28901470" version="3" timestamp="2010-07-09T05:17:54Z" uid="74617" user="JohnSmith" changeset="5170986">
    <nd ref="317680215"/>
    <nd ref="317680270"/>
    <nd ref="317680271"/>
    <tag k="highway" v="residential"/>
    <tag k="lanes" v="2"/>
    <tag k="maxspeed" v="50"/>
    <tag k="maxspeed:source" v="default residential speed limit in Australia"/>
    <tag k="name" v="Hotham Court"/>
    <tag k="source" v="MMBW"/>
    <tag k="surface" v="paved"/>
  </way>
  <way id="28901470" version="4" timestamp="2012-01-17T23:48:06Z" uid="147510" user="woodpeck_fixbot" changeset="10421060">
    <nd ref="317680215"/>
    <nd ref="317680270"/>
    <nd ref="317680271"/>
    <tag k="highway" v="residential"/>
    <tag k="lanes" v="2"/>
    <tag k="name" v="Hotham Court"/>
    <tag k="source" v="MMBW"/>
    <tag k="surface" v="paved"/>
  </way>
  <way id="28901472" version="11" timestamp="2010-07-09T05:15:54Z" uid="74617" user="JohnSmith" changeset="5170986">
    <nd ref="317680323"/>
    <nd ref="317680547"/>
    <nd ref="317681018"/>
    <nd ref="317680343"/>
    <nd ref="317680344"/>
    <tag k="highway" v="residential"/>
    <tag k="lanes" v="2"/>
    <tag k="maxspeed" v="50"/>
    <tag k="maxspeed:source" v="default residential speed limit in Australia"/>
    <tag k="name" v="Inglisby Road"/>
    <tag k="source" v="MMBW"/>
    <tag k="surface" v="paved"/>
  </way>
  <way id="28901472" version="12" timestamp="2011-11-29T02:22:11Z" uid="320632" user="Zulu99" changeset="9984092">
    <nd ref="317680323"/>
    <nd ref="1522528081"/>
    <nd ref="317680547"/>
    <nd ref="317681018"/>
    <nd ref="317680343"/>
    <nd ref="317680344"/>
    <tag k="highway" v="residential"/>
    <tag k="lanes" v="2"/>
    <tag k="maxspeed" v="50"/>
    <tag k="maxspeed:source" v="default residential speed limit in Australia"/>
    <tag k="name" v="Inglisby Road"/>
    <tag k="source" v="MMBW"/>
    <tag k="surface" v="paved"/>
  </way>
  <way id="28901472" version="13" timestamp="2012-01-17T23:48:09Z" uid="147510" user="woodpeck_fixbot" changeset="10421060">
    <nd ref="317680323"/>
    <nd ref="1522528081"/>
    <nd ref="317680547"/>
    <nd ref="317681018"/>
    <nd ref="317680343"/>
    <nd ref="317680344"/>
    <tag k="highway" v="residential"/>
    <tag k="lanes" v="2"/>
    <tag k="name" v="Inglisby Road"/>
    <tag k="source" v="MMBW"/>
    <tag k="surface" v="paved"/>
  </way>
  <way id="28901477" version="3" timestamp="2010-07-09T05:15:24Z" uid="74617" user="JohnSmith" changeset="5170986">
    <nd ref="317680357"/>
    <nd ref="317680403"/>
    <tag k="highway" v="residential"/>
    <tag k="lanes" v="2"/>
    <tag k="maxspeed" v="50"/>
    <tag k="maxspeed:source" v="default residential speed limit in Australia"/>
    <tag k="surface" v="paved"/>
  </way>
  <way id="28901477" version="4" timestamp="2012-01-17T23:48:10Z" uid="147510" user="woodpeck_fixbot" changeset="10421060">
    <nd ref="317680357"/>
    <nd ref="317680403"/>
    <tag k="highway" v="residential"/>
    <tag k="lanes" v="2"/>
    <tag k="surface" v="paved"/>
  </way>
  <way id="28901480" version="5" timestamp="2010-07-09T05:13:24Z" uid="74617" user="JohnSmith" changeset="5170986">
    <nd ref="317680428"/>
    <nd ref="317680429"/>
    <nd ref="317680430"/>
    <tag k="highway" v="residential"/>
    <tag k="lanes" v="2"/>
    <tag k="maxspeed" v="50"/>
    <tag k="maxspeed:source" v="default residential speed limit in Australia"/>
    <tag k="surface" v="paved"/>
  </way>
  <way id="28901480" version="6" timestamp="2012-01-17T23:48:11Z" uid="147510" user="woodpeck_fixbot" changeset="10421060">
    <nd ref="317680428"/>
    <nd ref="317680429"/>
    <nd ref="317680430"/>
    <tag k="highway" v="residential"/>
    <tag k="lanes" v="2"/>
    <tag k="surface" v="paved"/>
  </way>
  <way id="28901483" version="4" timestamp="2010-07-09T05:16:20Z" uid="74617" user="JohnSmith" changeset="5170986">
    <nd ref="317680504"/>
    <nd ref="317680514"/>
    <nd ref="317680511"/>
    <tag k="highway" v="residential"/>
    <tag k="lanes" v="2"/>
    <tag k="maxspeed" v="50"/>
    <tag k="maxspeed:source" v="default residential speed limit in Australia"/>
    <tag k="surface" v="paved"/>
  </way>
  <way id="28901483" version="5" timestamp="2012-01-17T23:48:18Z" uid="147510" user="woodpeck_fixbot" changeset="10421060">
    <nd ref="317680504"/>
    <nd ref="317680514"/>
    <nd ref="317680511"/>
    <tag k="highway" v="residential"/>
    <tag k="lanes" v="2"/>
    <tag k="surface" v="paved"/>
  </way>
  <way id="28901484" version="5" timestamp="2010-07-09T05:14:36Z" uid="74617" user="JohnSmith" changeset="5170986">
    <nd ref="317680514"/>
    <nd ref="317680941"/>
    <nd ref="317680519"/>
    <tag k="highway" v="residential"/>
    <tag k="lanes" v="2"/>
    <tag k="maxspeed" v="50"/>
    <tag k="maxspeed:source" v="default residential speed limit in Australia"/>
    <tag k="name" v="Curlewis Street"/>
    <tag k="source" v="MMBW"/>
    <tag k="surface" v="paved"/>
  </way>
  <way id="28901484" version="6" timestamp="2012-01-17T23:48:21Z" uid="147510" user="woodpeck_fixbot" changeset="10421060">
    <nd ref="317680514"/>
    <nd ref="317680941"/>
    <nd ref="317680519"/>
    <tag k="highway" v="residential"/>
    <tag k="lanes" v="2"/>
    <tag k="name" v="Curlewis Street"/>
    <tag k="source" v="MMBW"/>
    <tag k="surface" v="paved"/>
  </way>
  <way id="28901487" version="4" timestamp="2010-07-09T05:17:31Z" uid="74617" user="JohnSmith" changeset="5170986">
    <nd ref="317680544"/>
    <nd ref="317680547"/>
    <tag k="highway" v="residential"/>
    <tag k="lanes" v="2"/>
    <tag k="maxspeed" v="50"/>
    <tag k="maxspeed:source" v="default residential speed limit in Australia"/>
    <tag k="name" v="Carson Avenue"/>
    <tag k="source" v="MMBW"/>
    <tag k="surface" v="paved"/>
  </way>
  <way id="28901487" version="5" timestamp="2012-01-17T23:48:22Z" uid="147510" user="woodpeck_fixbot" changeset="10421060">
    <nd ref="317680544"/>
    <nd ref="317680547"/>
    <tag k="highway" v="residential"/>
    <tag k="lanes" v="2"/>
    <tag k="name" v="Carson Avenue"/>
    <tag k="source" v="MMBW"/>
    <tag k="surface" v="paved"/>
  </way>
  <way id="28901492" version="6" timestamp="2010-07-09T05:14:00Z" uid="74617" user="JohnSmith" changeset="5170986">
    <nd ref="317680344"/>
    <nd ref="317680657"/>
    <nd ref="317679917"/>
    <tag k="highway" v="residential"/>
    <tag k="lanes" v="2"/>
    <tag k="maxspeed" v="50"/>
    <tag k="maxspeed:source" v="default residential speed limit in Australia"/>
    <tag k="name" v="Lightfoot Street"/>
    <tag k="source" v="MMBW"/>
    <tag k="surface" v="paved"/>
  </way>
  <way id="28901492" version="7" timestamp="2012-01-17T23:48:24Z" uid="147510" user="woodpeck_fixbot" changeset="10421060">
    <nd ref="317680344"/>
    <nd ref="317680657"/>
    <nd ref="317679917"/>
    <tag k="highway" v="residential"/>
    <tag k="lanes" v="2"/>
    <tag k="name" v="Lightfoot Street"/>
    <tag k="source" v="MMBW"/>
    <tag k="surface" v="paved"/>
  </way>
  <way id="28901494" version="5" timestamp="2010-07-09T05:18:34Z" uid="74617" user="JohnSmith" changeset="5170986">
    <nd ref="317680345"/>
    <nd ref="317680070"/>
    <nd ref="317680357"/>
    <nd ref="317680346"/>
    <tag k="highway" v="residential"/>
    <tag k="lanes" v="2"/>
    <tag k="maxspeed" v="50"/>
    <tag k="maxspeed:source" v="default residential speed limit in Australia"/>
    <tag k="name" v="Grace Street"/>
    <tag k="surface" v="paved"/>
  </way>
  <way id="28901494" version="6" timestamp="2012-01-17T23:48:26Z" uid="147510" user="woodpeck_fixbot" changeset="10421060">
    <nd ref="317680345"/>
    <nd ref="317680070"/>
    <nd ref="317680357"/>
    <nd ref="317680346"/>
    <tag k="highway" v="residential"/>
    <tag k="lanes" v="2"/>
    <tag k="name" v="Grace Street"/>
    <tag k="surface" v="paved"/>
  </way>
  <way id="28901497" version="1" timestamp="2008-12-10T00:43:56Z" uid="17602" user="B10xyz" changeset="300950">
    <nd ref="317680656"/>
    <nd ref="317680698"/>
    <tag k="created_by" v="Potlatch 0.10f"/>
    <tag k="highway" v="footway"/>
  </way>
  <way id="28901497" version="2" timestamp="2009-03-11T02:04:09Z" uid="17602" user="B10xyz" changeset="787544">
    <nd ref="317680656"/>
    <nd ref="317680698"/>
    <tag k="highway" v="footway"/>
  </way>
  <way id="28901497" version="3" timestamp="2010-02-27T21:15:18Z" uid="17602" user="B10xyz" changeset="3992779">
    <nd ref="317680656"/>
    <nd ref="317680698"/>
    <tag k="highway" v="footway"/>
    <tag k="note" v="819 SC"/>
    <tag k="visible_name" v="CALLE CONTARINA"/>
  </way>
  <way id="28901497" version="4" timestamp="2011-05-18T12:09:35Z" uid="451916" user="PamlynJ" changeset="8180495">
    <nd ref="317680656"/>
    <nd ref="317680698"/>
    <tag k="highway" v="footway"/>
    <tag k="name" v="Calle Contarina"/>
    <tag k="note" v="819 SC"/>
    <tag k="visible_name" v="CALLE CONTARINA"/>
  </way>
  <way id="28901497" version="5" timestamp="2011-07-14T14:24:55Z" uid="486260" user="Luca81" changeset="8721678">
    <nd ref="317680656"/>
    <nd ref="317680698"/>
    <tag k="highway" v="pedestrian"/>
    <tag k="name" v="Calle Contarina"/>
    <tag k="note" v="819 SC"/>
    <tag k="visible_name" v="CALLE CONTARINA"/>
  </way>
  <way id="28901511" version="4" timestamp="2010-07-09T05:17:22Z" uid="74617" user="JohnSmith" changeset="5170986">
    <nd ref="317680941"/>
    <nd ref="317680957"/>
    <nd ref="317680958"/>
    <nd ref="317680959"/>
    <nd ref="317680960"/>
    <nd ref="317680961"/>
    <tag k="highway" v="residential"/>
    <tag k="lanes" v="2"/>
    <tag k="maxspeed" v="50"/>
    <tag k="maxspeed:source" v="default residential speed limit in Australia"/>
    <tag k="name" v="Whyte Grove"/>
    <tag k="surface" v="paved"/>
  </way>
  <way id="28901511" version="5" timestamp="2012-01-17T23:48:32Z" uid="147510" user="woodpeck_fixbot" changeset="10421060">
    <nd ref="317680941"/>
    <nd ref="317680957"/>
    <nd ref="317680958"/>
    <nd ref="317680959"/>
    <nd ref="317680960"/>
    <nd ref="317680961"/>
    <tag k="highway" v="residential"/>
    <tag k="lanes" v="2"/>
    <tag k="name" v="Whyte Grove"/>
    <tag k="surface" v="paved"/>
  </way>
  <way id="28901517" version="4" timestamp="2010-07-09T05:18:17Z" uid="74617" user="JohnSmith" changeset="5170986">
    <nd ref="317681018"/>
    <nd ref="317681258"/>
    <tag k="highway" v="residential"/>
    <tag k="lanes" v="2"/>
    <tag k="maxspeed" v="50"/>
    <tag k="maxspeed:source" v="default residential speed limit in Australia"/>
    <tag k="name" v="Kinloch Avenue"/>
    <tag k="surface" v="paved"/>
  </way>
  <way id="28901517" version="5" timestamp="2012-01-17T23:48:35Z" uid="147510" user="woodpeck_fixbot" changeset="10421060">
    <nd ref="317681018"/>
    <nd ref="317681258"/>
    <tag k="highway" v="residential"/>
    <tag k="lanes" v="2"/>
    <tag k="name" v="Kinloch Avenue"/>
    <tag k="surface" v="paved"/>
  </way>
  <way id="28901518" version="4" timestamp="2010-07-09T05:16:40Z" uid="74617" user="JohnSmith" changeset="5170986">
    <nd ref="317680344"/>
    <nd ref="317680345"/>
    <tag k="highway" v="residential"/>
    <tag k="lanes" v="2"/>
    <tag k="maxspeed" v="50"/>
    <tag k="maxspeed:source" v="default residential speed limit in Australia"/>
    <tag k="name" v="Trent Street"/>
    <tag k="source" v="MMBW"/>
    <tag k="surface" v="paved"/>
  </way>
  <way id="28901518" version="5" timestamp="2012-01-17T23:48:41Z" uid="147510" user="woodpeck_fixbot" changeset="10421060">
    <nd ref="317680344"/>
    <nd ref="317680345"/>
    <tag k="highway" v="residential"/>
    <tag k="lanes" v="2"/>
    <tag k="name" v="Trent Street"/>
    <tag k="source" v="MMBW"/>
    <tag k="surface" v="paved"/>
  </way>
  <way id="28901524" version="1" timestamp="2008-12-10T00:50:40Z" uid="17602" user="B10xyz" changeset="300950">
    <nd ref="315260348"/>
    <nd ref="317681323"/>
    <tag k="created_by" v="Potlatch 0.10f"/>
  </way>
  <way id="28901524" version="2" timestamp="2008-12-10T00:51:40Z" uid="17602" user="B10xyz" changeset="300950">
    <nd ref="315260348"/>
    <nd ref="317681323"/>
    <tag k="created_by" v="Potlatch 0.10f"/>
    <tag k="highway" v="footway"/>
  </way>
  <way id="28901524" version="3" timestamp="2009-03-11T02:04:16Z" uid="17602" user="B10xyz" changeset="787544">
    <nd ref="315260348"/>
    <nd ref="317681323"/>
    <tag k="highway" v="footway"/>
  </way>
  <way id="28901524" version="4" timestamp="2009-11-17T18:21:58Z" uid="17602" user="B10xyz" changeset="3143268">
    <nd ref="315260348"/>
    <nd ref="566316192"/>
    <nd ref="317681323"/>
    <tag k="highway" v="footway"/>
    <tag k="visible_name" v="CALLE DE LE OCHE"/>
  </way>
  <way id="28901524" version="5" timestamp="2011-05-10T15:11:43Z" uid="451916" user="PamlynJ" changeset="8103118">
    <nd ref="315260348"/>
    <nd ref="566316192"/>
    <nd ref="317681323"/>
    <tag k="highway" v="footway"/>
    <tag k="name" v="L&apos;Oche"/>
    <tag k="visible_name" v="CALLE DE LE OCHE"/>
  </way>
  <way id="28901524" version="6" timestamp="2011-05-11T16:41:05Z" uid="451916" user="PamlynJ" changeset="8113906">
    <nd ref="315260348"/>
    <nd ref="566316192"/>
    <nd ref="317681323"/>
    <tag k="highway" v="footway"/>
    <tag k="name" v="Calle de le Oche"/>
    <tag k="visible_name" v="CALLE DE LE OCHE"/>
  </way>
  <way id="28901524" version="7" timestamp="2011-07-14T14:28:05Z" uid="486260" user="Luca81" changeset="8721678">
    <nd ref="315260348"/>
    <nd ref="566316192"/>
    <nd ref="317681323"/>
    <tag k="highway" v="pedestrian"/>
    <tag k="name" v="Calle de le Oche"/>
    <tag k="visible_name" v="CALLE DE LE OCHE"/>
  </way>
  <way id="28901525" version="4" timestamp="2010-07-09T05:17:40Z" uid="74617" user="JohnSmith" changeset="5170986">
    <nd ref="317681321"/>
    <nd ref="571425630"/>
    <nd ref="317681340"/>
    <nd ref="276158960"/>
    <tag k="highway" v="residential"/>
    <tag k="lanes" v="2"/>
    <tag k="maxspeed" v="50"/>
    <tag k="maxspeed:source" v="default residential speed limit in Australia"/>
    <tag k="name" v="Smythe Avenue"/>
    <tag k="source" v="MMBW"/>
    <tag k="surface" v="paved"/>
  </way>
  <way id="28901525" version="5" timestamp="2012-01-17T23:48:45Z" uid="147510" user="woodpeck_fixbot" changeset="10421060">
    <nd ref="317681321"/>
    <nd ref="571425630"/>
    <nd ref="317681340"/>
    <nd ref="276158960"/>
    <tag k="highway" v="residential"/>
    <tag k="lanes" v="2"/>
    <tag k="name" v="Smythe Avenue"/>
    <tag k="source" v="MMBW"/>
    <tag k="surface" v="paved"/>
  </way>
  <way id="28901526" version="1" timestamp="2008-12-10T00:51:03Z" uid="17602" user="B10xyz" changeset="300950">
    <nd ref="317681352"/>
    <nd ref="317681353"/>
    <tag k="created_by" v="Potlatch 0.10f"/>
    <tag k="source" v="Yahoo"/>
  </way>
  <way id="28901526" version="2" timestamp="2008-12-10T00:51:48Z" uid="17602" user="B10xyz" changeset="300950">
    <nd ref="317681352"/>
    <nd ref="317681353"/>
    <tag k="created_by" v="Potlatch 0.10f"/>
    <tag k="highway" v="footway"/>
    <tag k="source" v="Yahoo"/>
  </way>
  <way id="28901526" version="3" timestamp="2009-03-11T02:04:18Z" uid="17602" user="B10xyz" changeset="787544">
    <nd ref="317681352"/>
    <nd ref="317681353"/>
    <tag k="highway" v="footway"/>
    <tag k="source" v="Yahoo"/>
  </way>
  <way id="28901526" version="4" timestamp="2009-03-14T23:04:19Z" uid="17602" user="B10xyz" changeset="810268">
    <nd ref="360464734"/>
    <nd ref="360464733"/>
    <nd ref="317681352"/>
    <nd ref="360464735"/>
    <nd ref="317681353"/>
    <tag k="highway" v="footway"/>
    <tag k="name" v="CALLE DE LE OCHE"/>
  </way>
  <way id="28901526" version="5" timestamp="2009-07-10T23:19:17Z" uid="17602" user="B10xyz" changeset="1793392">
    <nd ref="360464734"/>
    <nd ref="360464733"/>
    <nd ref="317681352"/>
    <nd ref="360464735"/>
    <nd ref="317681353"/>
    <tag k="highway" v="footway"/>
    <tag k="visible_name" v="CALLE DE LE OCHE"/>
  </way>
  <way id="28901526" version="6" timestamp="2009-11-17T18:21:59Z" uid="17602" user="B10xyz" changeset="3143268">
    <nd ref="360464734"/>
    <nd ref="360464733"/>
    <nd ref="317681352"/>
    <nd ref="360464735"/>
    <nd ref="317681353"/>
    <tag k="highway" v="footway"/>
    <tag k="note" v="1530 SC"/>
    <tag k="visible_name" v="CALLE DE LE OCHE"/>
  </way>
  <way id="28901526" version="7" timestamp="2010-05-15T16:19:07Z" uid="17602" user="B10xyz" changeset="4707821">
    <nd ref="360464734"/>
    <nd ref="360464733"/>
    <nd ref="317681352"/>
    <nd ref="735158595"/>
    <nd ref="360464735"/>
    <nd ref="317681353"/>
    <tag k="highway" v="footway"/>
    <tag k="note" v="1530 SC"/>
    <tag k="visible_name" v="CALLE DE LE OCHE"/>
  </way>
  <way id="28901526" version="8" timestamp="2011-05-10T15:11:43Z" uid="451916" user="PamlynJ" changeset="8103118">
    <nd ref="360464734"/>
    <nd ref="360464733"/>
    <tag k="highway" v="footway"/>
    <tag k="name" v="Tagiapiera"/>
    <tag k="note" v="1530 SC"/>
    <tag k="visible_name" v="CALLE DE LE OCHE"/>
  </way>
  <way id="28901526" version="9" timestamp="2011-05-11T16:41:05Z" uid="451916" user="PamlynJ" changeset="8113906">
    <nd ref="360464734"/>
    <nd ref="360464733"/>
    <tag k="highway" v="footway"/>
    <tag k="name" v="Calle de le Oche"/>
    <tag k="note" v="1530 SC"/>
    <tag k="visible_name" v="CALLE DE LE OCHE"/>
  </way>
  <way id="28901526" version="10" timestamp="2011-07-14T14:28:05Z" uid="486260" user="Luca81" changeset="8721678">
    <nd ref="360464734"/>
    <nd ref="360464733"/>
    <tag k="highway" v="pedestrian"/>
    <tag k="name" v="Calle de le Oche"/>
    <tag k="note" v="1530 SC"/>
    <tag k="visible_name" v="CALLE DE LE OCHE"/>
  </way>
  <way id="28901527" version="1" timestamp="2008-12-10T00:51:14Z" uid="17602" user="B10xyz" changeset="300950">
    <nd ref="317681323"/>
    <nd ref="317681352"/>
    <tag k="created_by" v="Potlatch 0.10f"/>
    <tag k="source" v="Yahoo"/>
  </way>
  <way id="28901527" version="2" timestamp="2008-12-10T00:52:23Z" uid="17602" user="B10xyz" changeset="300950">
    <nd ref="317681323"/>
    <nd ref="317681352"/>
    <tag k="bridge" v="yes"/>
    <tag k="created_by" v="Potlatch 0.10f"/>
    <tag k="highway" v="footway"/>
    <tag k="layer" v="1"/>
  </way>
  <way id="28901527" version="3" timestamp="2009-03-11T02:04:18Z" uid="17602" user="B10xyz" changeset="787544">
    <nd ref="317681323"/>
    <nd ref="317681352"/>
    <tag k="bridge" v="yes"/>
    <tag k="highway" v="footway"/>
    <tag k="layer" v="1"/>
  </way>
  <way id="28901527" version="4" timestamp="2009-06-29T14:20:00Z" uid="4526" user="EdoM" changeset="1677800">
    <nd ref="317681323"/>
    <nd ref="317681352"/>
    <tag k="bridge" v="yes"/>
    <tag k="highway" v="steps"/>
    <tag k="layer" v="1"/>
  </way>
  <way id="28901527" version="5" timestamp="2010-02-27T20:57:26Z" uid="17602" user="B10xyz" changeset="3992615">
    <nd ref="317681323"/>
    <nd ref="317681352"/>
    <tag k="bridge" v="yes"/>
    <tag k="highway" v="steps"/>
    <tag k="layer" v="1"/>
    <tag k="visible_name" v="PONTE DE LE OCHE"/>
  </way>
  <way id="28901549" version="1" timestamp="2008-12-10T00:57:58Z" uid="17602" user="B10xyz" changeset="300950">
    <nd ref="315259891"/>
    <nd ref="315259953"/>
    <tag k="created_by" v="Potlatch 0.10f"/>
    <tag k="foot" v="yes"/>
    <tag k="highway" v="footway"/>
    <tag k="name" v="SALIZADA DE LA CHIESA"/>
    <tag k="note" v="958 SC"/>
  </way>
  <way id="28901549" version="2" timestamp="2009-03-11T02:04:20Z" uid="17602" user="B10xyz" changeset="787544">
    <nd ref="315259891"/>
    <nd ref="315259953"/>
    <tag k="foot" v="yes"/>
    <tag k="highway" v="footway"/>
    <tag k="name" v="SALIZADA DE LA CHIESA"/>
    <tag k="note" v="958 SC"/>
  </way>
  <way id="28901549" version="3" timestamp="2009-07-10T23:47:51Z" uid="17602" user="B10xyz" changeset="1793468">
    <nd ref="315259891"/>
    <nd ref="315259953"/>
    <tag k="foot" v="yes"/>
    <tag k="highway" v="footway"/>
    <tag k="note" v="958 SC"/>
    <tag k="visible_name" v="SALIZADA DE LA CHIESA"/>
  </way>
  <way id="28901549" version="4" timestamp="2011-07-14T14:30:42Z" uid="486260" user="Luca81" changeset="8721678">
    <nd ref="315259891"/>
    <nd ref="315259953"/>
    <tag k="foot" v="yes"/>
    <tag k="highway" v="pedestrian"/>
    <tag k="note" v="958 SC"/>
    <tag k="visible_name" v="SALIZADA DE LA CHIESA"/>
  </way>
  <way id="28901608" version="1" timestamp="2008-12-10T00:59:20Z" uid="17602" user="B10xyz" changeset="300950">
    <nd ref="317681972"/>
    <nd ref="317681973"/>
    <tag k="created_by" v="Potlatch 0.10f"/>
    <tag k="source" v="Yahoo"/>
  </way>
  <way id="28901608" version="2" timestamp="2008-12-10T01:27:54Z" uid="17602" user="B10xyz" changeset="300950">
    <nd ref="317681972"/>
    <nd ref="317681973"/>
    <tag k="created_by" v="Potlatch 0.10f"/>
    <tag k="highway" v="footway"/>
    <tag k="source" v="Yahoo"/>
  </way>
  <way id="28901608" version="3" timestamp="2009-02-19T00:35:27Z" uid="17602" user="B10xyz" changeset="558148">
    <nd ref="317681972"/>
    <nd ref="317681973"/>
    <tag k="highway" v="footway"/>
  </way>
  <way id="28901608" version="4" timestamp="2009-03-15T01:52:54Z" uid="17602" user="B10xyz" changeset="811362">
    <nd ref="317681972"/>
    <nd ref="317681973"/>
    <tag k="highway" v="footway"/>
    <tag k="name" v="CORTE PISANI"/>
  </way>
  <way id="28901608" version="5" timestamp="2009-07-10T23:19:23Z" uid="17602" user="B10xyz" changeset="1793392">
    <nd ref="317681972"/>
    <nd ref="317681973"/>
    <tag k="highway" v="footway"/>
    <tag k="visible_name" v="CORTE PISANI"/>
  </way>
  <way id="28901608" version="6" timestamp="2009-11-22T13:42:56Z" uid="17602" user="B10xyz" changeset="3185902">
    <nd ref="317681972"/>
    <nd ref="317681973"/>
    <tag k="highway" v="footway"/>
    <tag k="note" v="1178 SC"/>
    <tag k="visible_name" v="CORTE PISANI"/>
  </way>
  <way id="28901608" version="7" timestamp="2009-11-27T19:42:01Z" uid="135254" user="Tobi-rr" changeset="3231034">
    <nd ref="317681972"/>
    <nd ref="572359145"/>
    <tag k="highway" v="footway"/>
    <tag k="note" v="1178 SC"/>
    <tag k="visible_name" v="CORTE PISANI"/>
  </way>
  <way id="28901608" version="8" timestamp="2009-11-29T18:32:16Z" uid="17602" user="B10xyz" changeset="3248772">
    <nd ref="317681972"/>
    <nd ref="317681973"/>
    <tag k="highway" v="footway"/>
    <tag k="note" v="1178 SC"/>
    <tag k="visible_name" v="CORTE PISANI"/>
  </way>
  <way id="28901608" version="9" timestamp="2011-05-10T15:35:37Z" uid="451916" user="PamlynJ" changeset="8103331">
    <nd ref="317681972"/>
    <nd ref="317681973"/>
    <tag k="highway" v="footway"/>
    <tag k="name" v="ct Pisani"/>
    <tag k="note" v="1178 SC"/>
    <tag k="visible_name" v="CORTE PISANI"/>
  </way>
  <way id="28901608" version="10" timestamp="2011-05-11T16:41:06Z" uid="451916" user="PamlynJ" changeset="8113906">
    <nd ref="317681972"/>
    <nd ref="317681973"/>
    <tag k="highway" v="footway"/>
    <tag k="name" v="Corte Pisani"/>
    <tag k="note" v="1178 SC"/>
    <tag k="visible_name" v="CORTE PISANI"/>
  </way>
  <way id="28901608" version="11" timestamp="2011-07-14T14:30:43Z" uid="486260" user="Luca81" changeset="8721678">
    <nd ref="317681972"/>
    <nd ref="317681973"/>
    <tag k="highway" v="pedestrian"/>
    <tag k="name" v="Corte Pisani"/>
    <tag k="note" v="1178 SC"/>
    <tag k="visible_name" v="CORTE PISANI"/>
  </way>
  <way id="28901987" version="1" timestamp="2008-12-10T01:27:51Z" uid="17602" user="B10xyz" changeset="300950">
    <nd ref="183899431"/>
    <nd ref="317681972"/>
    <tag k="highway" v="footway"/>
  </way>
  <way id="28901987" version="2" timestamp="2011-07-14T14:30:43Z" uid="486260" user="Luca81" changeset="8721678">
    <nd ref="183899431"/>
    <nd ref="317681972"/>
    <tag k="highway" v="pedestrian"/>
  </way>
  <way id="28901988" version="1" timestamp="2008-12-10T01:27:51Z" uid="17602" user="B10xyz" changeset="300950">
    <nd ref="317681967"/>
    <nd ref="317681972"/>
    <tag k="created_by" v="Potlatch 0.10f"/>
    <tag k="foot" v="yes"/>
    <tag k="highway" v="footway"/>
    <tag k="name" v="SALIZADA DE LA CHIESA"/>
    <tag k="note" v="958 SC"/>
  </way>
  <way id="28901988" version="2" timestamp="2008-12-10T01:48:42Z" uid="17602" user="B10xyz" changeset="300950">
    <nd ref="317681967"/>
    <nd ref="317681972"/>
    <tag k="created_by" v="Potlatch 0.10f"/>
    <tag k="foot" v="yes"/>
    <tag k="highway" v="footway"/>
  </way>
  <way id="28901988" version="3" timestamp="2009-03-11T02:04:59Z" uid="17602" user="B10xyz" changeset="787544">
    <nd ref="317681967"/>
    <nd ref="317681972"/>
    <tag k="foot" v="yes"/>
    <tag k="highway" v="footway"/>
  </way>
  <way id="28901988" version="4" timestamp="2009-11-17T18:07:22Z" uid="17602" user="B10xyz" changeset="3143268">
    <nd ref="317681967"/>
    <nd ref="317681972"/>
    <tag k="highway" v="footway"/>
  </way>
  <way id="28901988" version="5" timestamp="2011-07-14T14:30:43Z" uid="486260" user="Luca81" changeset="8721678">
    <nd ref="317681967"/>
    <nd ref="317681972"/>
    <tag k="highway" v="pedestrian"/>
  </way>
  <way id="28901989" version="1" timestamp="2008-12-10T01:27:51Z" uid="17602" user="B10xyz" changeset="300950">
    <nd ref="315259675"/>
    <nd ref="315259676"/>
    <tag k="highway" v="footway"/>
  </way>
  <way id="28901989" version="2" timestamp="2009-03-31T13:02:57Z" uid="17602" user="B10xyz" changeset="872304">
    <nd ref="315259675"/>
    <nd ref="367891352"/>
    <nd ref="315259676"/>
    <nd ref="183719489"/>
    <tag k="highway" v="footway"/>
    <tag k="name" v="SALIZADA DE LA CHIESA"/>
  </way>
  <way id="28901989" version="3" timestamp="2009-07-10T23:47:56Z" uid="17602" user="B10xyz" changeset="1793468">
    <nd ref="315259675"/>
    <nd ref="367891352"/>
    <nd ref="315259676"/>
    <nd ref="183719489"/>
    <tag k="highway" v="footway"/>
    <tag k="visible_name" v="SALIZADA DE LA CHIESA"/>
  </way>
  <way id="28901989" version="4" timestamp="2009-11-17T18:21:47Z" uid="17602" user="B10xyz" changeset="3143268">
    <nd ref="315259675"/>
    <nd ref="367891352"/>
    <nd ref="315259676"/>
    <nd ref="183719489"/>
    <tag k="highway" v="footway"/>
    <tag k="is_in" v="SESTIER DE S. POLO"/>
    <tag k="name" v="2250 SP"/>
    <tag k="visible_name" v="SALIZADA DE LA CHIESA"/>
  </way>
  <way id="28901989" version="5" timestamp="2009-12-05T13:50:50Z" uid="17602" user="B10xyz" changeset="3295256">
    <nd ref="315259675"/>
    <nd ref="367891352"/>
    <nd ref="315259676"/>
    <nd ref="183719489"/>
    <tag k="highway" v="footway"/>
    <tag k="is_in" v="SESTIER DE S. POLO"/>
    <tag k="note" v="2250 SP"/>
    <tag k="visible_name" v="SALIZADA DE LA CHIESA"/>
  </way>
  <way id="28901989" version="6" timestamp="2011-07-14T13:09:05Z" uid="486260" user="Luca81" changeset="8721678">
    <nd ref="315259675"/>
    <nd ref="367891352"/>
    <nd ref="315259676"/>
    <nd ref="183719489"/>
    <tag k="highway" v="pedestrian"/>
    <tag k="is_in" v="SESTIER DE S. POLO"/>
    <tag k="note" v="2250 SP"/>
    <tag k="visible_name" v="SALIZADA DE LA CHIESA"/>
  </way>
  <way id="28901990" version="1" timestamp="2008-12-10T01:27:52Z" uid="17602" user="B10xyz" changeset="300950">
    <nd ref="315259673"/>
    <nd ref="315259675"/>
    <tag k="bridge" v="yes"/>
    <tag k="highway" v="footway"/>
    <tag k="layer" v="1"/>
  </way>
  <way id="28901990" version="2" timestamp="2009-03-31T13:02:57Z" uid="17602" user="B10xyz" changeset="872304">
    <nd ref="315259673"/>
    <nd ref="315259675"/>
    <tag k="bridge" v="yes"/>
    <tag k="highway" v="footway"/>
    <tag k="layer" v="1"/>
    <tag k="name" v="PONTE DEL MODENA"/>
  </way>
  <way id="28901990" version="3" timestamp="2009-06-29T14:20:37Z" uid="4526" user="EdoM" changeset="1677800">
    <nd ref="315259673"/>
    <nd ref="315259675"/>
    <tag k="bridge" v="yes"/>
    <tag k="highway" v="steps"/>
    <tag k="layer" v="1"/>
    <tag k="name" v="PONTE DEL MODENA"/>
  </way>
  <way id="28901990" version="4" timestamp="2009-11-17T18:21:46Z" uid="17602" user="B10xyz" changeset="3143268">
    <nd ref="315259673"/>
    <nd ref="315259675"/>
    <tag k="bridge" v="yes"/>
    <tag k="highway" v="steps"/>
    <tag k="layer" v="1"/>
    <tag k="visible_name" v="PONTE DEL MODENA"/>
  </way>
</osm>
