<?xml version='1.0' encoding='UTF-8'?>
<osm version="0.6" generator="libosmium/2.20.0">
  <way id="28950012" version="3" timestamp="2010-07-09T05:39:44Z" uid="74617" user="JohnSmith" changeset="5170986">
    <nd ref="318301236"/>
    <nd ref="318301237"/>
    <nd ref="318301238"/>
    <nd ref="318301239"/>
    <nd ref="318301240"/>
    <nd ref="318301241"/>
    <nd ref="318301242"/>
    <nd ref="318301243"/>
    <nd ref="318301244"/>
    <nd ref="318301160"/>
    <tag k="highway" v="residential"/>
    <tag k="maxspeed" v="50"/>
    <tag k="maxspeed:source" v="default residential speed limit in Australia"/>
    <tag k="name" v="Native Point Track"/>
    <tag k="surface" v="dirt"/>
  </way>
  <way id="28950012" version="4" timestamp="2012-01-18T00:02:39Z" uid="147510" user="woodpeck_fixbot" changeset="10423581">
    <nd ref="318301236"/>
    <nd ref="318301237"/>
    <nd ref="318301238"/>
    <nd ref="318301239"/>
    <nd ref="318301240"/>
    <nd ref="318301241"/>
    <nd ref="318301242"/>
    <nd ref="318301243"/>
    <nd ref="318301244"/>
    <nd ref="318301160"/>
    <tag k="highway" v="residential"/>
    <tag k="name" v="Native Point Track"/>
    <tag k="surface" v="dirt"/>
  </way>
  <way id="28950013" version="5" timestamp="2010-03-28T00:25:26Z" uid="20587" user="balrog-kun" changeset="4250871">
    <nd ref="33088664"/>
    <nd ref="560604228"/>
    <nd ref="122823250"/>
    <nd ref="122823253"/>
    <nd ref="122805321"/>
    <nd ref="122823258"/>
    <nd ref="122823260"/>
    <nd ref="560604229"/>
    <nd ref="560604157"/>
    <nd ref="560604138"/>
    <tag k="highway" v="tertiary"/>
    <tag k="name" v="Dover Drive"/>
    <tag k="tiger:cfcc" v="A41"/>
    <tag k="tiger:county" v="Orange, CA"/>
    <tag k="tiger:name_base" v="Dover"/>
    <tag k="tiger:name_type" v="Dr"/>
    <tag k="tiger:reviewed" v="no"/>
    <tag k="tiger:separated" v="no"/>
    <tag k="tiger:source" v="tiger_import_dch_v0.6_20070809"/>
    <tag k="tiger:tlid" v="144049453:144049581:144049618:144049619:144049620:144049622:144049631:144049633:144049634:144049481:144049485:144111297:144101359:144049623"/>
    <tag k="tiger:zip_left" v="92660"/>
    <tag k="tiger:zip_right" v="92660"/>
  </way>
  <way id="28950015" version="8" timestamp="2010-07-09T05:41:11Z" uid="74617" user="JohnSmith" changeset="5170986">
    <nd ref="312105717"/>
    <nd ref="318301248"/>
    <nd ref="318301249"/>
    <nd ref="339586485"/>
    <nd ref="329654621"/>
    <nd ref="318301250"/>
    <tag k="highway" v="residential"/>
    <tag k="maxspeed" v="50"/>
    <tag k="maxspeed:source" v="default residential speed limit in Australia"/>
    <tag k="name" v="Little Swan Point Road"/>
  </way>
  <way id="28950015" version="9" timestamp="2012-01-18T00:02:41Z" uid="147510" user="woodpeck_fixbot" changeset="10423581">
    <nd ref="312105717"/>
    <nd ref="318301248"/>
    <nd ref="318301249"/>
    <nd ref="339586485"/>
    <nd ref="329654621"/>
    <nd ref="318301250"/>
    <tag k="highway" v="residential"/>
    <tag k="name" v="Little Swan Point Road"/>
  </way>
  <way id="28950018" version="2" timestamp="2010-07-09T05:38:44Z" uid="74617" user="JohnSmith" changeset="5170986">
    <nd ref="318301273"/>
    <nd ref="318301274"/>
    <nd ref="318301275"/>
    <nd ref="318301276"/>
    <nd ref="318301277"/>
    <nd ref="318301278"/>
    <nd ref="318301279"/>
    <tag k="highway" v="residential"/>
    <tag k="maxspeed" v="50"/>
    <tag k="maxspeed:source" v="default residential speed limit in Australia"/>
    <tag k="name" v="Glen Ard Mohr Road"/>
  </way>
  <way id="28950018" version="3" timestamp="2012-01-18T00:02:44Z" uid="147510" user="woodpeck_fixbot" changeset="10423581">
    <nd ref="318301273"/>
    <nd ref="318301274"/>
    <nd ref="318301275"/>
    <nd ref="318301276"/>
    <nd ref="318301277"/>
    <nd ref="318301278"/>
    <nd ref="318301279"/>
    <tag k="highway" v="residential"/>
    <tag k="name" v="Glen Ard Mohr Road"/>
  </way>
  <way id="28950030" version="2" timestamp="2010-07-07T08:16:05Z" uid="74617" user="JohnSmith" changeset="5156250">
    <nd ref="318301314"/>
    <nd ref="318301328"/>
    <nd ref="318301329"/>
    <tag k="highway" v="residential"/>
    <tag k="maxspeed" v="50"/>
    <tag k="maxspeed:source" v="default residential speed limit in Australia"/>
    <tag k="name" v="Long Street"/>
  </way>
  <way id="28950030" version="3" timestamp="2011-07-13T01:44:13Z" uid="74275" user="behemoth14" changeset="8708447">
    <nd ref="318301314"/>
    <nd ref="318301328"/>
    <nd ref="1360004546"/>
    <nd ref="1360004538"/>
    <nd ref="318301329"/>
    <tag k="highway" v="residential"/>
    <tag k="maxspeed" v="50"/>
    <tag k="maxspeed:source" v="default residential speed limit in Australia"/>
    <tag k="name" v="Long Street"/>
  </way>
  <way id="28950030" version="4" timestamp="2012-01-18T00:02:45Z" uid="147510" user="woodpeck_fixbot" changeset="10423581">
    <nd ref="318301314"/>
    <nd ref="318301328"/>
    <nd ref="1360004546"/>
    <nd ref="1360004538"/>
    <nd ref="318301329"/>
    <tag k="highway" v="residential"/>
    <tag k="name" v="Long Street"/>
  </way>
  <way id="28950033" version="4" timestamp="2011-01-06T01:05:06Z" uid="30201" user="rrankin" changeset="6878179">
    <nd ref="318301321"/>
    <nd ref="318301334"/>
    <nd ref="318301335"/>
    <nd ref="318301336"/>
    <nd ref="984640722"/>
    <tag k="highway" v="unclassified"/>
    <tag k="name" v="Sinclair Street"/>
  </way>
  <way id="28950033" version="5" timestamp="2012-02-12T14:53:22Z" uid="12434" user="nm7s9" changeset="10663754"/>
  <way id="28950034" version="2" timestamp="2010-07-07T08:15:24Z" uid="74617" user="JohnSmith" changeset="5156250">
    <nd ref="318301337"/>
    <nd ref="318301338"/>
    <tag k="highway" v="residential"/>
    <tag k="maxspeed" v="50"/>
    <tag k="maxspeed:source" v="default residential speed limit in Australia"/>
    <tag k="name" v="Arthur Street"/>
    <tag k="surface" v="unpaved"/>
  </way>
  <way id="28950034" version="3" timestamp="2012-01-18T00:02:48Z" uid="147510" user="woodpeck_fixbot" changeset="10423581">
    <nd ref="318301337"/>
    <nd ref="318301338"/>
    <tag k="highway" v="residential"/>
    <tag k="name" v="Arthur Street"/>
    <tag k="surface" v="unpaved"/>
  </way>
  <way id="28950067" version="2" timestamp="2010-03-28T00:25:27Z" uid="20587" user="balrog-kun" changeset="4250871">
    <nd ref="65342760"/>
    <nd ref="65365439"/>
    <nd ref="258922145"/>
    <tag k="created_by" v="Potlatch 0.10f"/>
    <tag k="highway" v="residential"/>
    <tag k="name" v="Yorba Lane"/>
    <tag k="tiger:cfcc" v="A41"/>
    <tag k="tiger:county" v="San Francisco, CA"/>
    <tag k="tiger:name_base" v="Yorba"/>
    <tag k="tiger:name_type" v="Ln"/>
    <tag k="tiger:reviewed" v="no"/>
    <tag k="tiger:separated" v="no"/>
    <tag k="tiger:source" v="tiger_import_dch_v0.6_20070809"/>
    <tag k="tiger:tlid" v="192277181"/>
    <tag k="tiger:zip_left" v="94116"/>
    <tag k="tiger:zip_right" v="94116"/>
  </way>
  <way id="28950067" version="3" timestamp="2010-12-16T02:23:20Z" uid="28775" user="StellanL" changeset="6673347"/>
  <way id="28950093" version="5" timestamp="2011-01-06T01:05:08Z" uid="30201" user="rrankin" changeset="6878179">
    <nd ref="318302810"/>
    <nd ref="318302809"/>
    <nd ref="318302808"/>
    <nd ref="318302807"/>
    <nd ref="318302806"/>
    <nd ref="318302804"/>
    <nd ref="318302796"/>
    <nd ref="318302795"/>
    <nd ref="318302794"/>
    <nd ref="318302793"/>
    <nd ref="318302792"/>
    <nd ref="318302791"/>
    <nd ref="318302790"/>
    <nd ref="318302789"/>
    <nd ref="318302788"/>
    <nd ref="318302787"/>
    <nd ref="318302786"/>
    <nd ref="318302785"/>
    <nd ref="984640971"/>
    <nd ref="318302784"/>
    <nd ref="318302783"/>
    <nd ref="318302782"/>
    <nd ref="318302781"/>
    <nd ref="318302780"/>
    <nd ref="318302779"/>
    <nd ref="318302778"/>
    <nd ref="318302777"/>
    <nd ref="984617355"/>
    <nd ref="318302776"/>
    <nd ref="318302775"/>
    <nd ref="312646008"/>
    <tag k="highway" v="secondary"/>
  </way>
  <way id="28950093" version="6" timestamp="2011-07-13T01:07:41Z" uid="74275" user="behemoth14" changeset="8708395">
    <nd ref="318302810"/>
    <nd ref="318302809"/>
    <nd ref="318302808"/>
    <nd ref="318302807"/>
    <nd ref="318302806"/>
    <nd ref="318302804"/>
    <nd ref="318302796"/>
    <nd ref="318302795"/>
    <nd ref="318302794"/>
    <nd ref="318302793"/>
    <nd ref="318302792"/>
    <nd ref="318302791"/>
    <nd ref="318302790"/>
    <nd ref="318302789"/>
    <nd ref="318302788"/>
    <nd ref="318302787"/>
    <nd ref="318302786"/>
    <nd ref="318302785"/>
    <nd ref="984640971"/>
    <nd ref="318302784"/>
    <nd ref="318302783"/>
    <nd ref="318302782"/>
    <nd ref="318302781"/>
    <nd ref="318302780"/>
    <nd ref="318302779"/>
    <nd ref="318302778"/>
    <nd ref="318302777"/>
    <nd ref="984617355"/>
    <nd ref="318302776"/>
    <nd ref="1359997542"/>
    <nd ref="318302775"/>
    <nd ref="1359997541"/>
    <nd ref="312646008"/>
    <tag k="highway" v="secondary"/>
  </way>
  <way id="28950100" version="5" timestamp="2011-06-01T16:14:25Z" uid="115477" user="wowik" changeset="8311498">
    <nd ref="318301820"/>
    <nd ref="318301822"/>
    <nd ref="318301823"/>
    <nd ref="318301821"/>
    <nd ref="318301820"/>
    <tag k="addr:city" v="Москва"/>
    <tag k="addr:country" v="RU"/>
    <tag k="addr:housenumber" v="19 к2"/>
    <tag k="addr:postcode" v="125212"/>
    <tag k="addr:street" v="улица Адмирала Макарова"/>
    <tag k="building" v="yes"/>
  </way>
  <way id="28950101" version="4" timestamp="2011-06-01T16:14:24Z" uid="115477" user="wowik" changeset="8311498">
    <nd ref="318301824"/>
    <nd ref="318301826"/>
    <nd ref="318301827"/>
    <nd ref="318301825"/>
    <nd ref="318301824"/>
    <tag k="addr:city" v="Москва"/>
    <tag k="addr:country" v="RU"/>
    <tag k="addr:housenumber" v="21"/>
    <tag k="addr:postcode" v="125212"/>
    <tag k="addr:street" v="улица Адмирала Макарова"/>
    <tag k="building" v="yes"/>
  </way>
  <way id="28950102" version="5" timestamp="2011-06-01T16:14:21Z" uid="115477" user="wowik" changeset="8311498">
    <nd ref="318301830"/>
    <nd ref="318301829"/>
    <nd ref="318301831"/>
    <nd ref="318301828"/>
    <nd ref="318301830"/>
    <tag k="addr:city" v="Москва"/>
    <tag k="addr:country" v="RU"/>
    <tag k="addr:housenumber" v="19 к1"/>
    <tag k="addr:postcode" v="125212"/>
    <tag k="addr:street" v="улица Адмирала Макарова"/>
    <tag k="building" v="yes"/>
  </way>
  <way id="28950103" version="2" timestamp="2011-06-01T16:14:20Z" uid="115477" user="wowik" changeset="8311498">
    <nd ref="318301833"/>
    <nd ref="318301832"/>
    <nd ref="318301835"/>
    <nd ref="318301834"/>
    <nd ref="318301833"/>
    <tag k="addr:city" v="Москва"/>
    <tag k="addr:country" v="RU"/>
    <tag k="addr:housenumber" v="32"/>
    <tag k="addr:street" v="Ленинградское шоссе"/>
    <tag k="building" v="yes"/>
  </way>
  <way id="28950105" version="5" timestamp="2011-06-01T16:14:23Z" uid="115477" user="wowik" changeset="8311498">
    <nd ref="318301844"/>
    <nd ref="318301846"/>
    <nd ref="318301843"/>
    <nd ref="318301845"/>
    <nd ref="318301844"/>
    <tag k="addr:city" v="Москва"/>
    <tag k="addr:country" v="RU"/>
    <tag k="addr:housenumber" v="17 к2"/>
    <tag k="addr:street" v="улица Адмирала Макарова"/>
    <tag k="building" v="yes"/>
  </way>
  <way id="28950115" version="2" timestamp="2011-06-01T16:14:21Z" uid="115477" user="wowik" changeset="8311498">
    <nd ref="318301883"/>
    <nd ref="318301888"/>
    <nd ref="318301884"/>
    <nd ref="318301885"/>
    <nd ref="318301883"/>
    <tag k="addr:city" v="Москва"/>
    <tag k="addr:country" v="RU"/>
    <tag k="addr:housenumber" v="34 к1"/>
    <tag k="addr:street" v="Ленинградское шоссе"/>
    <tag k="building" v="yes"/>
  </way>
  <way id="28950116" version="3" timestamp="2011-06-01T16:14:22Z" uid="115477" user="wowik" changeset="8311498">
    <nd ref="318301889"/>
    <nd ref="318301890"/>
    <nd ref="318301888"/>
    <nd ref="1307855345"/>
    <nd ref="318301889"/>
    <tag k="addr:city" v="Москва"/>
    <tag k="addr:country" v="RU"/>
    <tag k="addr:housenumber" v="36 к1"/>
    <tag k="addr:street" v="Ленинградское шоссе"/>
    <tag k="building" v="yes"/>
  </way>
  <way id="28950117" version="2" timestamp="2011-06-01T16:14:22Z" uid="115477" user="wowik" changeset="8311498">
    <nd ref="318301893"/>
    <nd ref="318301894"/>
    <nd ref="318301892"/>
    <nd ref="1307855345"/>
    <nd ref="318301893"/>
    <tag k="addr:city" v="Москва"/>
    <tag k="addr:country" v="RU"/>
    <tag k="addr:housenumber" v="38 к1"/>
    <tag k="addr:street" v="Ленинградское шоссе"/>
    <tag k="building" v="yes"/>
  </way>
  <way id="28950118" version="2" timestamp="2011-06-01T16:05:59Z" uid="115477" user="wowik" changeset="8311498">
    <nd ref="318301897"/>
    <nd ref="318301896"/>
    <nd ref="318301895"/>
    <nd ref="318301898"/>
    <nd ref="1307844213"/>
    <nd ref="1307844387"/>
    <nd ref="1307844553"/>
    <nd ref="1307844357"/>
    <nd ref="318301897"/>
    <tag k="addr:city" v="Москва"/>
    <tag k="addr:country" v="RU"/>
    <tag k="addr:housenumber" v="38 к2"/>
    <tag k="addr:street" v="Ленинградское шоссе"/>
    <tag k="building" v="yes"/>
  </way>
  <way id="28950120" version="2" timestamp="2011-06-01T16:05:55Z" uid="115477" user="wowik" changeset="8311498">
    <nd ref="318301899"/>
    <nd ref="318301900"/>
    <nd ref="318301901"/>
    <nd ref="318301902"/>
    <nd ref="318301903"/>
    <nd ref="318301904"/>
    <nd ref="318301905"/>
    <nd ref="318301906"/>
    <nd ref="318301907"/>
    <nd ref="318301908"/>
    <nd ref="318301909"/>
    <nd ref="318301910"/>
    <nd ref="318301899"/>
    <tag k="addr:city" v="Москва"/>
    <tag k="addr:country" v="RU"/>
    <tag k="addr:housenumber" v="42"/>
    <tag k="addr:street" v="Ленинградское шоссе"/>
    <tag k="building" v="yes"/>
  </way>
  <way id="28950121" version="2" timestamp="2011-06-01T16:05:54Z" uid="115477" user="wowik" changeset="8311498">
    <nd ref="318301911"/>
    <nd ref="1307844432"/>
    <nd ref="318301917"/>
    <nd ref="318301915"/>
    <nd ref="318301916"/>
    <nd ref="318301918"/>
    <nd ref="318301920"/>
    <nd ref="318301927"/>
    <nd ref="318301933"/>
    <nd ref="318301912"/>
    <nd ref="318301913"/>
    <nd ref="318301914"/>
    <nd ref="318301919"/>
    <nd ref="318301911"/>
    <tag k="addr:city" v="Москва"/>
    <tag k="addr:country" v="RU"/>
    <tag k="addr:housenumber" v="40"/>
    <tag k="addr:street" v="Ленинградское шоссе"/>
    <tag k="building" v="yes"/>
  </way>
  <way id="28950122" version="3" timestamp="2011-06-01T16:05:58Z" uid="115477" user="wowik" changeset="8311498">
    <nd ref="318301961"/>
    <nd ref="1307844461"/>
    <nd ref="318301967"/>
    <nd ref="318301938"/>
    <nd ref="318301987"/>
    <nd ref="318301952"/>
    <nd ref="318301945"/>
    <nd ref="318301939"/>
    <nd ref="318301975"/>
    <nd ref="318301937"/>
    <nd ref="318301981"/>
    <nd ref="318301991"/>
    <nd ref="318301936"/>
    <nd ref="318301961"/>
    <tag k="addr:city" v="Москва"/>
    <tag k="addr:country" v="RU"/>
    <tag k="addr:housenumber" v="44"/>
    <tag k="addr:street" v="Ленинградское шоссе"/>
    <tag k="building" v="yes"/>
  </way>
  <way id="28950133" version="2" timestamp="2011-06-01T16:14:24Z" uid="115477" user="wowik" changeset="8311498">
    <nd ref="318302051"/>
    <nd ref="318302052"/>
    <nd ref="318302053"/>
    <nd ref="318302054"/>
    <nd ref="318302055"/>
    <nd ref="318302056"/>
    <nd ref="318302057"/>
    <nd ref="318302058"/>
    <nd ref="318302059"/>
    <nd ref="318302060"/>
    <nd ref="318302051"/>
    <tag k="addr:city" v="Москва"/>
    <tag k="addr:country" v="RU"/>
    <tag k="addr:housenumber" v="34 к2"/>
    <tag k="addr:street" v="Ленинградское шоссе"/>
    <tag k="building" v="yes"/>
  </way>
  <way id="28950134" version="2" timestamp="2011-06-01T16:14:22Z" uid="115477" user="wowik" changeset="8311498">
    <nd ref="318302061"/>
    <nd ref="318302062"/>
    <nd ref="318302063"/>
    <nd ref="318302064"/>
    <nd ref="318302065"/>
    <nd ref="318302066"/>
    <nd ref="318302067"/>
    <nd ref="318302068"/>
    <nd ref="318302069"/>
    <nd ref="318302070"/>
    <nd ref="318302061"/>
    <tag k="addr:city" v="Москва"/>
    <tag k="addr:country" v="RU"/>
    <tag k="addr:housenumber" v="36 к2"/>
    <tag k="addr:street" v="Ленинградское шоссе"/>
    <tag k="building" v="yes"/>
  </way>
  <way id="28950181" version="2" timestamp="2010-05-25T08:17:48Z" uid="115477" user="wowik" changeset="4801316">
    <nd ref="318302404"/>
    <nd ref="318302406"/>
    <nd ref="318302407"/>
    <nd ref="318302408"/>
    <nd ref="318302410"/>
    <nd ref="318302411"/>
    <nd ref="318302412"/>
    <nd ref="318302414"/>
    <nd ref="318302415"/>
    <nd ref="318302416"/>
    <nd ref="318302417"/>
    <nd ref="318302419"/>
    <nd ref="318302404"/>
    <tag k="amenity" v="school"/>
    <tag k="building" v="yes"/>
  </way>
  <way id="28950181" version="3" timestamp="2012-03-30T22:25:55Z" uid="336354" user="esaulenka" changeset="11160766"/>
  <way id="28950182" version="2" timestamp="2011-05-23T08:11:54Z" uid="115477" user="wowik" changeset="8223965">
    <nd ref="318302420"/>
    <nd ref="318302424"/>
    <nd ref="318302426"/>
    <nd ref="318302423"/>
    <nd ref="318302420"/>
    <tag k="addr:city" v="Москва"/>
    <tag k="addr:country" v="RU"/>
    <tag k="addr:housenumber" v="41 к2"/>
    <tag k="addr:street" v="Ленинградское шоссе"/>
    <tag k="building" v="yes"/>
  </way>
  <way id="28950184" version="2" timestamp="2011-05-23T08:11:54Z" uid="115477" user="wowik" changeset="8223965">
    <nd ref="318302428"/>
    <nd ref="318302431"/>
    <nd ref="318302427"/>
    <nd ref="318302430"/>
    <nd ref="318302428"/>
    <tag k="addr:city" v="Москва"/>
    <tag k="addr:country" v="RU"/>
    <tag k="addr:housenumber" v="41 к1"/>
    <tag k="addr:street" v="Ленинградское шоссе"/>
    <tag k="building" v="yes"/>
  </way>
  <way id="28950210" version="2" timestamp="2010-07-07T08:15:14Z" uid="74617" user="JohnSmith" changeset="5156250">
    <nd ref="318302366"/>
    <nd ref="318302652"/>
    <tag k="highway" v="residential"/>
    <tag k="maxspeed" v="50"/>
    <tag k="maxspeed:source" v="default residential speed limit in Australia"/>
    <tag k="name" v="Harris Street"/>
  </way>
  <way id="28950210" version="3" timestamp="2012-01-18T00:02:49Z" uid="147510" user="woodpeck_fixbot" changeset="10423581">
    <nd ref="318302366"/>
    <nd ref="318302652"/>
    <tag k="highway" v="residential"/>
    <tag k="name" v="Harris Street"/>
  </way>
  <way id="28950249" version="4" timestamp="2011-01-06T01:05:10Z" uid="30201" user="rrankin" changeset="6878179">
    <nd ref="318302791"/>
    <nd ref="318302811"/>
    <nd ref="318302812"/>
    <nd ref="318302813"/>
    <nd ref="318302814"/>
    <nd ref="318302815"/>
    <nd ref="318302816"/>
    <nd ref="318302817"/>
    <nd ref="318302818"/>
    <nd ref="984640450"/>
    <nd ref="984617168"/>
    <nd ref="984617291"/>
    <nd ref="984618257"/>
    <nd ref="984640700"/>
    <nd ref="984618208"/>
    <nd ref="984640994"/>
    <nd ref="984617507"/>
    <nd ref="984640343"/>
    <nd ref="984618308"/>
    <nd ref="984640653"/>
    <nd ref="984640510"/>
    <nd ref="984640841"/>
    <nd ref="984618024"/>
    <nd ref="984640919"/>
    <nd ref="984640787"/>
    <nd ref="984640628"/>
    <tag k="highway" v="track"/>
    <tag k="surface" v="unpaved"/>
  </way>
  <way id="28950249" version="5" timestamp="2011-07-13T01:44:15Z" uid="74275" user="behemoth14" changeset="8708447">
    <nd ref="318302791"/>
    <nd ref="318302811"/>
    <nd ref="1360004416"/>
    <nd ref="1360004417"/>
    <nd ref="318302812"/>
    <nd ref="318302813"/>
    <nd ref="1360004418"/>
    <nd ref="1360004419"/>
    <nd ref="1360004420"/>
    <nd ref="318302814"/>
    <nd ref="318302815"/>
    <nd ref="1360004421"/>
    <nd ref="318302816"/>
    <nd ref="318302817"/>
    <nd ref="984640450"/>
    <nd ref="1360004422"/>
    <nd ref="984617168"/>
    <nd ref="1360004423"/>
    <nd ref="984617291"/>
    <nd ref="1360004426"/>
    <nd ref="984618257"/>
    <nd ref="984640700"/>
    <nd ref="1360004437"/>
    <nd ref="984618208"/>
    <nd ref="984640994"/>
    <nd ref="984617507"/>
    <nd ref="1360004448"/>
    <nd ref="1360004451"/>
    <nd ref="984640343"/>
    <nd ref="1360004454"/>
    <nd ref="1360004457"/>
    <nd ref="984618308"/>
    <nd ref="1360004461"/>
    <nd ref="1360004462"/>
    <nd ref="984640653"/>
    <nd ref="984640510"/>
    <nd ref="984640841"/>
    <nd ref="1360004489"/>
    <nd ref="1360004494"/>
    <nd ref="1360004498"/>
    <nd ref="1360004502"/>
    <nd ref="1360004506"/>
    <nd ref="984618024"/>
    <nd ref="1360004513"/>
    <nd ref="1360004520"/>
    <nd ref="1360004521"/>
    <nd ref="984640919"/>
    <nd ref="1360004525"/>
    <nd ref="1360004529"/>
    <nd ref="1360004531"/>
    <nd ref="1360004533"/>
    <nd ref="1360004536"/>
    <nd ref="984640787"/>
    <nd ref="984640628"/>
    <nd ref="1360004555"/>
    <nd ref="1360004558"/>
    <nd ref="1360004562"/>
    <nd ref="1360004565"/>
    <nd ref="1360004567"/>
    <nd ref="1360004569"/>
    <nd ref="1360004572"/>
    <nd ref="1360004573"/>
    <nd ref="1360004577"/>
    <nd ref="1360004580"/>
    <nd ref="1360004582"/>
    <nd ref="1360004585"/>
    <nd ref="1360004586"/>
    <nd ref="1360004587"/>
    <nd ref="1360004588"/>
    <nd ref="1360004593"/>
    <nd ref="1360004594"/>
    <nd ref="1360004596"/>
    <nd ref="1360004603"/>
    <nd ref="1360004609"/>
    <nd ref="1360004612"/>
    <nd ref="1360004619"/>
    <nd ref="1360004621"/>
    <nd ref="1360004624"/>
    <nd ref="1360004625"/>
    <nd ref="1360004626"/>
    <nd ref="1360004627"/>
    <nd ref="1360004628"/>
    <nd ref="1360004629"/>
    <nd ref="1360004630"/>
    <nd ref="1360004631"/>
    <nd ref="1360004633"/>
    <tag k="highway" v="track"/>
    <tag k="surface" v="unpaved"/>
  </way>
  <way id="28950256" version="4" timestamp="2009-10-02T19:54:50Z" uid="86259" user="hasse_osm_korinthenkacker" changeset="2716821">
    <nd ref="318302944"/>
    <nd ref="318302945"/>
    <nd ref="318302946"/>
    <nd ref="318302948"/>
    <nd ref="318302949"/>
    <nd ref="318302950"/>
    <nd ref="318302951"/>
    <nd ref="318302944"/>
    <tag k="building" v="yes"/>
  </way>
  <way id="28950263" version="4" timestamp="2010-03-28T00:25:27Z" uid="20587" user="balrog-kun" changeset="4250871">
    <nd ref="65355429"/>
    <nd ref="65316690"/>
    <nd ref="65375019"/>
    <nd ref="65294056"/>
    <nd ref="65324769"/>
    <nd ref="65288319"/>
    <nd ref="65321237"/>
    <nd ref="65326349"/>
    <nd ref="65356873"/>
    <nd ref="65310662"/>
    <nd ref="65295168"/>
    <nd ref="65370640"/>
    <nd ref="65353316"/>
    <nd ref="65340962"/>
    <nd ref="65287863"/>
    <nd ref="65358541"/>
    <nd ref="65372564"/>
    <tag k="created_by" v="Potlatch 0.10f"/>
    <tag k="highway" v="residential"/>
    <tag k="name" v="36th Avenue"/>
    <tag k="tiger:cfcc" v="A41"/>
    <tag k="tiger:county" v="San Francisco, CA"/>
    <tag k="tiger:name_base" v="36th"/>
    <tag k="tiger:name_type" v="Ave"/>
    <tag k="tiger:separated" v="no"/>
    <tag k="tiger:source" v="tiger_import_dch_v0.6_20070809"/>
    <tag k="tiger:tlid" v="192277967:192277905:192277921:192277891:192277953:192277957:192295734"/>
    <tag k="tiger:zip_left" v="94116"/>
    <tag k="tiger:zip_right" v="94116"/>
  </way>
  <way id="28950263" version="5" timestamp="2011-03-11T10:32:25Z" uid="14293" user="dahveed76" changeset="7521926">
    <nd ref="65355429"/>
    <nd ref="65316690"/>
    <nd ref="65375019"/>
    <nd ref="65294056"/>
    <nd ref="65324769"/>
    <nd ref="65288319"/>
    <nd ref="65321237"/>
    <nd ref="65326349"/>
    <nd ref="65356873"/>
    <nd ref="65310662"/>
    <nd ref="65295168"/>
    <nd ref="65370640"/>
    <nd ref="65353316"/>
    <nd ref="65340962"/>
    <nd ref="65287863"/>
    <nd ref="65358541"/>
    <nd ref="65372564"/>
    <tag k="highway" v="residential"/>
    <tag k="name" v="36th Avenue"/>
    <tag k="tiger:cfcc" v="A41"/>
    <tag k="tiger:county" v="San Francisco, CA"/>
    <tag k="tiger:name_base" v="36th"/>
    <tag k="tiger:name_type" v="Ave"/>
    <tag k="tiger:separated" v="no"/>
    <tag k="tiger:source" v="tiger_import_dch_v0.6_20070809"/>
    <tag k="tiger:tlid" v="192277967:192277905:192277921:192277891:192277953:192277957:192295734"/>
    <tag k="tiger:zip_left" v="94116"/>
    <tag k="tiger:zip_right" v="94116"/>
  </way>
  <way id="28950263" version="6" timestamp="2011-12-28T00:01:12Z" uid="103253" user="gormur" changeset="10221202">
    <nd ref="65355429"/>
    <nd ref="65316690"/>
    <nd ref="65375019"/>
    <nd ref="65294056"/>
    <nd ref="65324769"/>
    <nd ref="65288319"/>
    <nd ref="65321237"/>
    <nd ref="65326349"/>
    <nd ref="65356873"/>
    <nd ref="65310662"/>
    <nd ref="65295168"/>
    <nd ref="1564500772"/>
    <nd ref="65370640"/>
    <nd ref="1564500751"/>
    <nd ref="65353316"/>
    <nd ref="65340962"/>
    <nd ref="65287863"/>
    <nd ref="65358541"/>
    <nd ref="65372564"/>
    <tag k="highway" v="residential"/>
    <tag k="name" v="36th Avenue"/>
    <tag k="tiger:cfcc" v="A41"/>
    <tag k="tiger:county" v="San Francisco, CA"/>
    <tag k="tiger:name_base" v="36th"/>
    <tag k="tiger:name_type" v="Ave"/>
    <tag k="tiger:separated" v="no"/>
    <tag k="tiger:source" v="tiger_import_dch_v0.6_20070809"/>
    <tag k="tiger:tlid" v="192277967:192277905:192277921:192277891:192277953:192277957:192295734"/>
    <tag k="tiger:zip_left" v="94116"/>
    <tag k="tiger:zip_right" v="94116"/>
  </way>
  <way id="28950263" version="7" timestamp="2012-01-08T19:52:25Z" uid="103253" user="gormur" changeset="10335851">
    <nd ref="65355429"/>
    <nd ref="1583149889"/>
    <nd ref="1583149442"/>
    <nd ref="65316690"/>
    <tag k="highway" v="residential"/>
    <tag k="name" v="36th Avenue"/>
    <tag k="tiger:cfcc" v="A41"/>
    <tag k="tiger:county" v="San Francisco, CA"/>
    <tag k="tiger:name_base" v="36th"/>
    <tag k="tiger:name_type" v="Ave"/>
    <tag k="tiger:separated" v="no"/>
    <tag k="tiger:source" v="tiger_import_dch_v0.6_20070809"/>
    <tag k="tiger:tlid" v="192277967:192277905:192277921:192277891:192277953:192277957:192295734"/>
    <tag k="tiger:zip_left" v="94116"/>
    <tag k="tiger:zip_right" v="94116"/>
  </way>
  <way id="28950264" version="3" timestamp="2009-10-02T19:54:48Z" uid="86259" user="hasse_osm_korinthenkacker" changeset="2716821">
    <nd ref="318302954"/>
    <nd ref="318302955"/>
    <nd ref="318302956"/>
    <nd ref="318302957"/>
    <nd ref="318302954"/>
    <tag k="building" v="yes"/>
  </way>
  <way id="28950266" version="3" timestamp="2009-10-02T19:54:49Z" uid="86259" user="hasse_osm_korinthenkacker" changeset="2716821">
    <nd ref="318302977"/>
    <nd ref="318302979"/>
    <nd ref="318302981"/>
    <nd ref="318302982"/>
    <nd ref="318302977"/>
    <tag k="building" v="yes"/>
  </way>
  <way id="28950272" version="4" timestamp="2010-03-28T00:25:27Z" uid="20587" user="balrog-kun" changeset="4250871">
    <nd ref="65296079"/>
    <nd ref="65296083"/>
    <nd ref="65296086"/>
    <nd ref="65294061"/>
    <nd ref="65296088"/>
    <nd ref="65288322"/>
    <nd ref="65296091"/>
    <nd ref="65296094"/>
    <nd ref="65296096"/>
    <nd ref="65296100"/>
    <nd ref="65295170"/>
    <nd ref="65296103"/>
    <nd ref="65296104"/>
    <nd ref="65296105"/>
    <nd ref="65287871"/>
    <nd ref="65296110"/>
    <nd ref="65296114"/>
    <tag k="created_by" v="Potlatch 0.10f"/>
    <tag k="highway" v="residential"/>
    <tag k="name" v="37th Avenue"/>
    <tag k="tiger:cfcc" v="A41"/>
    <tag k="tiger:county" v="San Francisco, CA"/>
    <tag k="tiger:name_base" v="37th"/>
    <tag k="tiger:name_type" v="Ave"/>
    <tag k="tiger:separated" v="no"/>
    <tag k="tiger:source" v="tiger_import_dch_v0.6_20070809"/>
    <tag k="tiger:tlid" v="192277948:192277904:192277907:192277933:192277939:192277951:192277888:192277761:192277770:192277774"/>
    <tag k="tiger:zip_left" v="94116"/>
    <tag k="tiger:zip_right" v="94116"/>
  </way>
  <way id="28950272" version="5" timestamp="2011-03-11T10:20:07Z" uid="14293" user="dahveed76" changeset="7521926">
    <nd ref="65296079"/>
    <nd ref="65296083"/>
    <nd ref="65296086"/>
    <nd ref="65294061"/>
    <nd ref="65296088"/>
    <nd ref="65288322"/>
    <nd ref="65296091"/>
    <nd ref="65296094"/>
    <nd ref="65296096"/>
    <nd ref="65296100"/>
    <nd ref="65295170"/>
    <nd ref="65296103"/>
    <nd ref="65296104"/>
    <nd ref="65296105"/>
    <nd ref="65287871"/>
    <nd ref="65296110"/>
    <nd ref="65296114"/>
    <tag k="highway" v="residential"/>
    <tag k="name" v="37th Avenue"/>
    <tag k="tiger:cfcc" v="A41"/>
    <tag k="tiger:county" v="San Francisco, CA"/>
    <tag k="tiger:name_base" v="37th"/>
    <tag k="tiger:name_type" v="Ave"/>
    <tag k="tiger:separated" v="no"/>
    <tag k="tiger:source" v="tiger_import_dch_v0.6_20070809"/>
    <tag k="tiger:tlid" v="192277948:192277904:192277907:192277933:192277939:192277951:192277888:192277761:192277770:192277774"/>
    <tag k="tiger:zip_left" v="94116"/>
    <tag k="tiger:zip_right" v="94116"/>
  </way>
  <way id="28950272" version="6" timestamp="2011-12-28T00:01:13Z" uid="103253" user="gormur" changeset="10221202">
    <nd ref="65296079"/>
    <nd ref="65296083"/>
    <nd ref="65296086"/>
    <nd ref="65294061"/>
    <nd ref="65296088"/>
    <nd ref="65288322"/>
    <nd ref="65296091"/>
    <nd ref="65296094"/>
    <nd ref="65296096"/>
    <nd ref="65296100"/>
    <nd ref="65295170"/>
    <nd ref="1564500743"/>
    <nd ref="65296103"/>
    <nd ref="1564500731"/>
    <nd ref="65296104"/>
    <nd ref="65296105"/>
    <nd ref="65287871"/>
    <nd ref="65296110"/>
    <nd ref="65296114"/>
    <tag k="highway" v="residential"/>
    <tag k="name" v="37th Avenue"/>
    <tag k="tiger:cfcc" v="A41"/>
    <tag k="tiger:county" v="San Francisco, CA"/>
    <tag k="tiger:name_base" v="37th"/>
    <tag k="tiger:name_type" v="Ave"/>
    <tag k="tiger:separated" v="no"/>
    <tag k="tiger:source" v="tiger_import_dch_v0.6_20070809"/>
    <tag k="tiger:tlid" v="192277948:192277904:192277907:192277933:192277939:192277951:192277888:192277761:192277770:192277774"/>
    <tag k="tiger:zip_left" v="94116"/>
    <tag k="tiger:zip_right" v="94116"/>
  </way>
  <way id="28950272" version="7" timestamp="2012-01-08T19:52:26Z" uid="103253" user="gormur" changeset="10335851">
    <nd ref="65296079"/>
    <nd ref="1583149831"/>
    <nd ref="1583149433"/>
    <nd ref="65296083"/>
    <nd ref="65296086"/>
    <nd ref="65294061"/>
    <nd ref="65296088"/>
    <nd ref="65288322"/>
    <nd ref="65296091"/>
    <nd ref="65296094"/>
    <nd ref="65296096"/>
    <nd ref="65296100"/>
    <nd ref="65295170"/>
    <nd ref="1564500743"/>
    <nd ref="65296103"/>
    <nd ref="1564500731"/>
    <nd ref="65296104"/>
    <nd ref="65296105"/>
    <nd ref="65287871"/>
    <nd ref="65296110"/>
    <nd ref="65296114"/>
    <tag k="highway" v="residential"/>
    <tag k="name" v="37th Avenue"/>
    <tag k="tiger:cfcc" v="A41"/>
    <tag k="tiger:county" v="San Francisco, CA"/>
    <tag k="tiger:name_base" v="37th"/>
    <tag k="tiger:name_type" v="Ave"/>
    <tag k="tiger:separated" v="no"/>
    <tag k="tiger:source" v="tiger_import_dch_v0.6_20070809"/>
    <tag k="tiger:tlid" v="192277948:192277904:192277907:192277933:192277939:192277951:192277888:192277761:192277770:192277774"/>
    <tag k="tiger:zip_left" v="94116"/>
    <tag k="tiger:zip_right" v="94116"/>
  </way>
  <way id="28950299" version="4" timestamp="2010-07-07T08:15:53Z" uid="74617" user="JohnSmith" changeset="5156250">
    <nd ref="318303209"/>
    <nd ref="318303205"/>
    <nd ref="317133892"/>
    <nd ref="317133899"/>
    <nd ref="277029223"/>
    <nd ref="317133914"/>
    <nd ref="318496975"/>
    <tag k="highway" v="residential"/>
    <tag k="maxspeed" v="50"/>
    <tag k="maxspeed:source" v="default residential speed limit in Australia"/>
    <tag k="name" v="Auburn Street"/>
  </way>
  <way id="28950299" version="5" timestamp="2012-01-18T00:02:51Z" uid="147510" user="woodpeck_fixbot" changeset="10423581">
    <nd ref="318303209"/>
    <nd ref="318303205"/>
    <nd ref="317133892"/>
    <nd ref="317133899"/>
    <nd ref="277029223"/>
    <nd ref="317133914"/>
    <nd ref="318496975"/>
    <tag k="highway" v="residential"/>
    <tag k="name" v="Auburn Street"/>
  </way>
  <way id="28950300" version="3" timestamp="2010-07-07T08:15:39Z" uid="74617" user="JohnSmith" changeset="5156250">
    <nd ref="318303208"/>
    <nd ref="318303206"/>
    <nd ref="317133854"/>
    <nd ref="317133846"/>
    <nd ref="317133872"/>
    <nd ref="279296776"/>
    <nd ref="318484525"/>
    <nd ref="318479282"/>
    <tag k="highway" v="residential"/>
    <tag k="maxspeed" v="50"/>
    <tag k="maxspeed:source" v="default residential speed limit in Australia"/>
    <tag k="name" v="Mundy Street"/>
  </way>
  <way id="28950300" version="4" timestamp="2012-01-18T00:02:55Z" uid="147510" user="woodpeck_fixbot" changeset="10423581">
    <nd ref="318303208"/>
    <nd ref="318303206"/>
    <nd ref="317133854"/>
    <nd ref="317133846"/>
    <nd ref="317133872"/>
    <nd ref="279296776"/>
    <nd ref="318484525"/>
    <nd ref="318479282"/>
    <tag k="highway" v="residential"/>
    <tag k="name" v="Mundy Street"/>
  </way>
  <way id="28950300" version="5" timestamp="2012-02-06T19:21:23Z" uid="12434" user="nm7s9" changeset="10606049">
    <nd ref="318303208"/>
    <nd ref="318303206"/>
    <nd ref="317133854"/>
    <nd ref="317133846"/>
    <nd ref="317133872"/>
    <nd ref="1620614901"/>
    <nd ref="318484525"/>
    <nd ref="318479282"/>
    <tag k="highway" v="residential"/>
    <tag k="name" v="Mundy Street"/>
  </way>
  <way id="28950316" version="2" timestamp="2009-10-21T00:09:58Z" uid="36809" user="pfoten_weg_!_" changeset="2908220">
    <nd ref="257508088"/>
    <nd ref="271784237"/>
    <nd ref="271784235"/>
    <nd ref="266575279"/>
    <nd ref="270095034"/>
    <nd ref="310099760"/>
    <nd ref="257508091"/>
    <nd ref="271784230"/>
    <nd ref="271784229"/>
    <tag k="highway" v="unclassified"/>
    <tag k="name" v="Erpftinger Straße"/>
  </way>
  <way id="28950316" version="3" timestamp="2011-05-24T08:05:12Z" uid="322211" user="messi" changeset="8232917">
    <nd ref="257508088"/>
    <nd ref="1298204229"/>
    <nd ref="271784237"/>
    <nd ref="271784235"/>
    <nd ref="266575279"/>
    <nd ref="270095034"/>
    <nd ref="310099760"/>
    <nd ref="257508091"/>
    <nd ref="271784230"/>
    <nd ref="271784229"/>
    <tag k="highway" v="unclassified"/>
    <tag k="name" v="Erpftinger Straße"/>
  </way>
  <way id="28950316" version="4" timestamp="2011-06-27T11:00:51Z" uid="315015" user="WernerP" changeset="8560850">
    <nd ref="257508088"/>
    <nd ref="1298204229"/>
    <nd ref="271784237"/>
    <nd ref="271784235"/>
    <nd ref="266575279"/>
    <nd ref="270095034"/>
    <nd ref="310099760"/>
    <nd ref="257508091"/>
    <nd ref="271784230"/>
    <nd ref="1340987776"/>
    <nd ref="1340987781"/>
    <nd ref="271784229"/>
    <tag k="highway" v="unclassified"/>
    <tag k="name" v="Erpftinger Straße"/>
  </way>
  <way id="28950316" version="5" timestamp="2011-06-27T11:20:59Z" uid="315015" user="WernerP" changeset="8561021">
    <nd ref="257508088"/>
    <nd ref="1298204229"/>
    <nd ref="271784237"/>
    <nd ref="271784235"/>
    <nd ref="266575279"/>
    <nd ref="270095034"/>
    <nd ref="310099760"/>
    <nd ref="257508091"/>
    <nd ref="271784230"/>
    <nd ref="1340987776"/>
    <nd ref="1340987781"/>
    <nd ref="271784229"/>
    <tag k="cycleway" v="lane"/>
    <tag k="highway" v="unclassified"/>
    <tag k="name" v="Erpftinger Straße"/>
  </way>
  <way id="28950316" version="6" timestamp="2012-03-14T20:08:50Z" uid="313192" user="Ohr" changeset="10981807">
    <nd ref="257508088"/>
    <nd ref="1298204229"/>
    <nd ref="271784237"/>
    <nd ref="271784235"/>
    <nd ref="266575279"/>
    <nd ref="1674934573"/>
    <nd ref="270095034"/>
    <nd ref="310099760"/>
    <nd ref="257508091"/>
    <nd ref="271784230"/>
    <nd ref="1340987776"/>
    <nd ref="1340987781"/>
    <nd ref="271784229"/>
    <tag k="cycleway" v="lane"/>
    <tag k="highway" v="unclassified"/>
    <tag k="name" v="Erpftinger Straße"/>
  </way>
  <way id="28950357" version="2" timestamp="2010-05-15T15:03:19Z" uid="49111" user="Markus B" changeset="4707108">
    <nd ref="300854785"/>
    <nd ref="318303592"/>
    <nd ref="318303593"/>
    <nd ref="735121279"/>
    <nd ref="735121277"/>
    <nd ref="318303594"/>
    <nd ref="318303595"/>
    <nd ref="318303596"/>
    <nd ref="318303597"/>
    <nd ref="735121237"/>
    <nd ref="318303598"/>
    <tag k="highway" v="tertiary"/>
  </way>
  <way id="28950357" version="3" timestamp="2010-05-16T08:25:15Z" uid="49111" user="Markus B" changeset="4714234">
    <nd ref="300854785"/>
    <nd ref="318303592"/>
    <nd ref="736084285"/>
    <nd ref="318303593"/>
    <nd ref="736084288"/>
    <nd ref="735121279"/>
    <nd ref="735121277"/>
    <nd ref="736084276"/>
    <nd ref="318303594"/>
    <nd ref="736084280"/>
    <nd ref="318303595"/>
    <nd ref="318303596"/>
    <nd ref="318303597"/>
    <nd ref="735121237"/>
    <nd ref="318303598"/>
    <tag k="highway" v="tertiary"/>
  </way>
  <way id="28950357" version="4" timestamp="2011-05-24T23:35:55Z" uid="449569" user="Nautic" changeset="8240620">
    <nd ref="300854785"/>
    <nd ref="318303592"/>
    <nd ref="736084285"/>
    <nd ref="318303593"/>
    <nd ref="736084288"/>
    <nd ref="735121279"/>
    <nd ref="735121277"/>
    <nd ref="736084276"/>
    <nd ref="318303594"/>
    <nd ref="736084280"/>
    <nd ref="318303595"/>
    <nd ref="318303596"/>
    <nd ref="318303597"/>
    <nd ref="735121237"/>
    <nd ref="1298918494"/>
    <nd ref="1298919069"/>
    <nd ref="1298919195"/>
    <nd ref="318303598"/>
    <tag k="highway" v="tertiary"/>
  </way>
  <way id="28950512" version="6" timestamp="2010-03-28T00:25:27Z" uid="20587" user="balrog-kun" changeset="4250871">
    <nd ref="314143431"/>
    <nd ref="65286997"/>
    <tag k="bridge" v="yes"/>
    <tag k="highway" v="trunk"/>
    <tag k="maxspeed" v="45 mph"/>
    <tag k="name" v="Junipero Serra Boulevard"/>
    <tag k="name_1" v="State Highway 1"/>
    <tag k="oneway" v="yes"/>
    <tag k="ref" v="CA 1"/>
    <tag k="tiger:cfcc" v="A35"/>
    <tag k="tiger:county" v="San Francisco, CA"/>
    <tag k="tiger:name_base" v="Junipero Serra"/>
    <tag k="tiger:name_base_1" v="State Highway 1"/>
    <tag k="tiger:name_type" v="Blvd"/>
    <tag k="tiger:separated" v="yes"/>
    <tag k="tiger:source" v="tiger_import_dch_v0.6_20070809"/>
    <tag k="tiger:tlid" v="192286171:192297129:192297131:192297132:192293943:192297123:192297124:192278791:192285559:192285574:192285577"/>
  </way>
  <way id="28950512" version="7" timestamp="2011-03-15T00:11:25Z" uid="14293" user="dahveed76" changeset="7562417">
    <nd ref="314143431"/>
    <nd ref="1202383364"/>
    <nd ref="65286997"/>
    <tag k="bridge" v="yes"/>
    <tag k="highway" v="trunk"/>
    <tag k="maxspeed" v="45 mph"/>
    <tag k="name" v="Junipero Serra Boulevard"/>
    <tag k="name_1" v="State Highway 1"/>
    <tag k="oneway" v="yes"/>
    <tag k="ref" v="CA 1"/>
    <tag k="tiger:cfcc" v="A35"/>
    <tag k="tiger:county" v="San Francisco, CA"/>
    <tag k="tiger:name_base" v="Junipero Serra"/>
    <tag k="tiger:name_base_1" v="State Highway 1"/>
    <tag k="tiger:name_type" v="Blvd"/>
    <tag k="tiger:separated" v="yes"/>
    <tag k="tiger:source" v="tiger_import_dch_v0.6_20070809"/>
    <tag k="tiger:tlid" v="192286171:192297129:192297131:192297132:192293943:192297123:192297124:192278791:192285559:192285574:192285577"/>
  </way>
  <way id="28950512" version="8" timestamp="2011-06-15T11:46:28Z" uid="207745" user="NE2" changeset="8446347">
    <nd ref="314143431"/>
    <nd ref="1202383364"/>
    <nd ref="65286997"/>
    <tag k="bridge" v="yes"/>
    <tag k="highway" v="trunk"/>
    <tag k="lanes" v="3"/>
    <tag k="maxspeed" v="45 mph"/>
    <tag k="name" v="Junipero Serra Boulevard"/>
    <tag k="oneway" v="yes"/>
    <tag k="ref" v="CA 1"/>
    <tag k="tiger:cfcc" v="A35"/>
    <tag k="tiger:county" v="San Francisco, CA"/>
    <tag k="tiger:name_base" v="Junipero Serra"/>
    <tag k="tiger:name_base_1" v="State Highway 1"/>
    <tag k="tiger:name_type" v="Blvd"/>
    <tag k="tiger:separated" v="yes"/>
    <tag k="tiger:source" v="tiger_import_dch_v0.6_20070809"/>
    <tag k="tiger:tlid" v="192286171:192297129:192297131:192297132:192293943:192297123:192297124:192278791:192285559:192285574:192285577"/>
  </way>
  <way id="28950513" version="7" timestamp="2010-03-28T00:25:28Z" uid="20587" user="balrog-kun" changeset="4250871">
    <nd ref="65286997"/>
    <nd ref="314143515"/>
    <nd ref="65358807"/>
    <nd ref="65284820"/>
    <nd ref="612724723"/>
    <nd ref="314143620"/>
    <tag k="highway" v="trunk"/>
    <tag k="maxspeed" v="45 mph"/>
    <tag k="name" v="Junipero Serra Boulevard"/>
    <tag k="name_1" v="State Highway 1"/>
    <tag k="oneway" v="yes"/>
    <tag k="ref" v="CA 1"/>
    <tag k="tiger:cfcc" v="A35"/>
    <tag k="tiger:county" v="San Francisco, CA"/>
    <tag k="tiger:name_base" v="Junipero Serra"/>
    <tag k="tiger:name_base_1" v="State Highway 1"/>
    <tag k="tiger:name_type" v="Blvd"/>
    <tag k="tiger:separated" v="yes"/>
    <tag k="tiger:source" v="tiger_import_dch_v0.6_20070809"/>
    <tag k="tiger:tlid" v="192286171:192297129:192297131:192297132:192293943:192297123:192297124:192278791:192285559:192285574:192285577"/>
  </way>
  <way id="28950513" version="8" timestamp="2011-03-15T00:03:29Z" uid="14293" user="dahveed76" changeset="7562417">
    <nd ref="65286997"/>
    <nd ref="314143515"/>
    <nd ref="65358807"/>
    <nd ref="1202371270"/>
    <nd ref="65284820"/>
    <nd ref="612724723"/>
    <nd ref="314143620"/>
    <tag k="highway" v="trunk"/>
    <tag k="maxspeed" v="45 mph"/>
    <tag k="name" v="Junipero Serra Boulevard"/>
    <tag k="name_1" v="State Highway 1"/>
    <tag k="oneway" v="yes"/>
    <tag k="ref" v="CA 1"/>
    <tag k="tiger:cfcc" v="A35"/>
    <tag k="tiger:county" v="San Francisco, CA"/>
    <tag k="tiger:name_base" v="Junipero Serra"/>
    <tag k="tiger:name_base_1" v="State Highway 1"/>
    <tag k="tiger:name_type" v="Blvd"/>
    <tag k="tiger:separated" v="yes"/>
    <tag k="tiger:source" v="tiger_import_dch_v0.6_20070809"/>
    <tag k="tiger:tlid" v="192286171:192297129:192297131:192297132:192293943:192297123:192297124:192278791:192285559:192285574:192285577"/>
  </way>
  <way id="28950513" version="9" timestamp="2011-03-15T00:03:50Z" uid="14293" user="dahveed76" changeset="7562417">
    <nd ref="65286997"/>
    <nd ref="314143515"/>
    <nd ref="65358807"/>
    <nd ref="1202371270"/>
    <nd ref="612724723"/>
    <nd ref="314143620"/>
    <tag k="highway" v="trunk"/>
    <tag k="maxspeed" v="45 mph"/>
    <tag k="name" v="Junipero Serra Boulevard"/>
    <tag k="name_1" v="State Highway 1"/>
    <tag k="oneway" v="yes"/>
    <tag k="ref" v="CA 1"/>
    <tag k="tiger:cfcc" v="A35"/>
    <tag k="tiger:county" v="San Francisco, CA"/>
    <tag k="tiger:name_base" v="Junipero Serra"/>
    <tag k="tiger:name_base_1" v="State Highway 1"/>
    <tag k="tiger:name_type" v="Blvd"/>
    <tag k="tiger:separated" v="yes"/>
    <tag k="tiger:source" v="tiger_import_dch_v0.6_20070809"/>
    <tag k="tiger:tlid" v="192286171:192297129:192297131:192297132:192293943:192297123:192297124:192278791:192285559:192285574:192285577"/>
  </way>
  <way id="28950513" version="10" timestamp="2011-06-15T11:40:28Z" uid="207745" user="NE2" changeset="8446347">
    <nd ref="65286997"/>
    <nd ref="314143515"/>
    <nd ref="65358807"/>
    <nd ref="1202371270"/>
    <nd ref="612724723"/>
    <nd ref="314143620"/>
    <tag k="highway" v="trunk"/>
    <tag k="lanes" v="3"/>
    <tag k="maxspeed" v="45 mph"/>
    <tag k="name" v="Junipero Serra Boulevard"/>
    <tag k="oneway" v="yes"/>
    <tag k="ref" v="CA 1"/>
    <tag k="tiger:cfcc" v="A35"/>
    <tag k="tiger:county" v="San Francisco, CA"/>
    <tag k="tiger:name_base" v="Junipero Serra"/>
    <tag k="tiger:name_base_1" v="State Highway 1"/>
    <tag k="tiger:name_type" v="Blvd"/>
    <tag k="tiger:separated" v="yes"/>
    <tag k="tiger:source" v="tiger_import_dch_v0.6_20070809"/>
    <tag k="tiger:tlid" v="192286171:192297129:192297131:192297132:192293943:192297123:192297124:192278791:192285559:192285574:192285577"/>
  </way>
  <way id="28950514" version="6" timestamp="2010-03-28T00:25:28Z" uid="20587" user="balrog-kun" changeset="4250871">
    <nd ref="65284849"/>
    <nd ref="65284851"/>
    <tag k="bridge" v="yes"/>
    <tag k="highway" v="trunk"/>
    <tag k="maxspeed" v="45 mph"/>
    <tag k="name" v="Junipero Serra Boulevard"/>
    <tag k="name_1" v="State Highway 1"/>
    <tag k="oneway" v="yes"/>
    <tag k="ref" v="CA 1"/>
    <tag k="tiger:cfcc" v="A35"/>
    <tag k="tiger:county" v="San Francisco, CA"/>
    <tag k="tiger:name_base" v="Junipero Serra"/>
    <tag k="tiger:name_base_1" v="State Highway 1"/>
    <tag k="tiger:name_type" v="Blvd"/>
    <tag k="tiger:separated" v="yes"/>
    <tag k="tiger:source" v="tiger_import_dch_v0.6_20070809"/>
    <tag k="tiger:tlid" v="192302116:192299065:192299326:192299075:192299240"/>
  </way>
  <way id="28950514" version="7" timestamp="2011-03-15T00:11:21Z" uid="14293" user="dahveed76" changeset="7562417">
    <nd ref="65284849"/>
    <nd ref="1202383277"/>
    <nd ref="65284851"/>
    <tag k="bridge" v="yes"/>
    <tag k="highway" v="trunk"/>
    <tag k="maxspeed" v="45 mph"/>
    <tag k="name" v="Junipero Serra Boulevard"/>
    <tag k="name_1" v="State Highway 1"/>
    <tag k="oneway" v="yes"/>
    <tag k="ref" v="CA 1"/>
    <tag k="tiger:cfcc" v="A35"/>
    <tag k="tiger:county" v="San Francisco, CA"/>
    <tag k="tiger:name_base" v="Junipero Serra"/>
    <tag k="tiger:name_base_1" v="State Highway 1"/>
    <tag k="tiger:name_type" v="Blvd"/>
    <tag k="tiger:separated" v="yes"/>
    <tag k="tiger:source" v="tiger_import_dch_v0.6_20070809"/>
    <tag k="tiger:tlid" v="192302116:192299065:192299326:192299075:192299240"/>
  </way>
  <way id="28950514" version="8" timestamp="2011-06-15T11:58:21Z" uid="207745" user="NE2" changeset="8446347">
    <nd ref="65284849"/>
    <nd ref="1202383277"/>
    <nd ref="65284851"/>
    <tag k="bridge" v="yes"/>
    <tag k="highway" v="trunk"/>
    <tag k="lanes" v="3"/>
    <tag k="maxspeed" v="45 mph"/>
    <tag k="name" v="Junipero Serra Boulevard"/>
    <tag k="oneway" v="yes"/>
    <tag k="ref" v="CA 1"/>
    <tag k="tiger:cfcc" v="A35"/>
    <tag k="tiger:county" v="San Francisco, CA"/>
    <tag k="tiger:name_base" v="Junipero Serra"/>
    <tag k="tiger:name_base_1" v="State Highway 1"/>
    <tag k="tiger:name_type" v="Blvd"/>
    <tag k="tiger:separated" v="yes"/>
    <tag k="tiger:source" v="tiger_import_dch_v0.6_20070809"/>
    <tag k="tiger:tlid" v="192302116:192299065:192299326:192299075:192299240"/>
  </way>
  <way id="28950515" version="6" timestamp="2010-03-28T00:25:28Z" uid="20587" user="balrog-kun" changeset="4250871">
    <nd ref="65284851"/>
    <nd ref="612725924"/>
    <nd ref="65358760"/>
    <nd ref="314144736"/>
    <nd ref="65283131"/>
    <nd ref="65358755"/>
    <nd ref="65358754"/>
    <nd ref="315417477"/>
    <nd ref="65358751"/>
    <nd ref="65358750"/>
    <nd ref="263989185"/>
    <tag k="highway" v="trunk"/>
    <tag k="maxspeed" v="45 mph"/>
    <tag k="name" v="Junipero Serra Boulevard"/>
    <tag k="name_1" v="State Highway 1"/>
    <tag k="oneway" v="yes"/>
    <tag k="ref" v="CA 1"/>
    <tag k="tiger:cfcc" v="A35"/>
    <tag k="tiger:county" v="San Francisco, CA"/>
    <tag k="tiger:name_base" v="Junipero Serra"/>
    <tag k="tiger:name_base_1" v="State Highway 1"/>
    <tag k="tiger:name_type" v="Blvd"/>
    <tag k="tiger:separated" v="yes"/>
    <tag k="tiger:source" v="tiger_import_dch_v0.6_20070809"/>
    <tag k="tiger:tlid" v="192302116:192299065:192299326:192299075:192299240"/>
  </way>
  <way id="28950515" version="7" timestamp="2011-03-14T23:59:00Z" uid="14293" user="dahveed76" changeset="7562417">
    <nd ref="65284851"/>
    <nd ref="612725924"/>
    <nd ref="65358760"/>
    <nd ref="314144736"/>
    <nd ref="65283131"/>
    <nd ref="1202367091"/>
    <nd ref="1202367092"/>
    <nd ref="65358755"/>
    <nd ref="315417477"/>
    <nd ref="65358751"/>
    <nd ref="65358750"/>
    <nd ref="263989185"/>
    <tag k="highway" v="trunk"/>
    <tag k="maxspeed" v="45 mph"/>
    <tag k="name" v="Junipero Serra Boulevard"/>
    <tag k="name_1" v="State Highway 1"/>
    <tag k="oneway" v="yes"/>
    <tag k="ref" v="CA 1"/>
    <tag k="tiger:cfcc" v="A35"/>
    <tag k="tiger:county" v="San Francisco, CA"/>
    <tag k="tiger:name_base" v="Junipero Serra"/>
    <tag k="tiger:name_base_1" v="State Highway 1"/>
    <tag k="tiger:name_type" v="Blvd"/>
    <tag k="tiger:separated" v="yes"/>
    <tag k="tiger:source" v="tiger_import_dch_v0.6_20070809"/>
    <tag k="tiger:tlid" v="192302116:192299065:192299326:192299075:192299240"/>
  </way>
  <way id="28950515" version="8" timestamp="2011-03-14T23:59:54Z" uid="14293" user="dahveed76" changeset="7562417">
    <nd ref="65284851"/>
    <nd ref="612725924"/>
    <nd ref="65358760"/>
    <nd ref="314144736"/>
    <nd ref="1202368408"/>
    <nd ref="65283131"/>
    <nd ref="1202367092"/>
    <nd ref="65358755"/>
    <nd ref="315417477"/>
    <nd ref="65358751"/>
    <nd ref="65358750"/>
    <nd ref="263989185"/>
    <tag k="highway" v="trunk"/>
    <tag k="maxspeed" v="45 mph"/>
    <tag k="name" v="Junipero Serra Boulevard"/>
    <tag k="name_1" v="State Highway 1"/>
    <tag k="oneway" v="yes"/>
    <tag k="ref" v="CA 1"/>
    <tag k="tiger:cfcc" v="A35"/>
    <tag k="tiger:county" v="San Francisco, CA"/>
    <tag k="tiger:name_base" v="Junipero Serra"/>
    <tag k="tiger:name_base_1" v="State Highway 1"/>
    <tag k="tiger:name_type" v="Blvd"/>
    <tag k="tiger:separated" v="yes"/>
    <tag k="tiger:source" v="tiger_import_dch_v0.6_20070809"/>
    <tag k="tiger:tlid" v="192302116:192299065:192299326:192299075:192299240"/>
  </way>
  <way id="28950515" version="9" timestamp="2011-06-15T11:52:45Z" uid="207745" user="NE2" changeset="8446347">
    <nd ref="65284851"/>
    <nd ref="612725924"/>
    <nd ref="65358760"/>
    <nd ref="314144736"/>
    <nd ref="1202368408"/>
    <nd ref="65283131"/>
    <nd ref="1202367092"/>
    <nd ref="65358755"/>
    <nd ref="315417477"/>
    <nd ref="65358751"/>
    <nd ref="65358750"/>
    <nd ref="263989185"/>
    <tag k="highway" v="trunk"/>
    <tag k="lanes" v="3"/>
    <tag k="maxspeed" v="45 mph"/>
    <tag k="name" v="Junipero Serra Boulevard"/>
    <tag k="oneway" v="yes"/>
    <tag k="ref" v="CA 1"/>
    <tag k="tiger:cfcc" v="A35"/>
    <tag k="tiger:county" v="San Francisco, CA"/>
    <tag k="tiger:name_base" v="Junipero Serra"/>
    <tag k="tiger:name_base_1" v="State Highway 1"/>
    <tag k="tiger:name_type" v="Blvd"/>
    <tag k="tiger:separated" v="yes"/>
    <tag k="tiger:source" v="tiger_import_dch_v0.6_20070809"/>
    <tag k="tiger:tlid" v="192302116:192299065:192299326:192299075:192299240"/>
  </way>
  <way id="28950545" version="2" timestamp="2010-04-02T03:17:28Z" uid="74617" user="JohnSmith" changeset="4299895">
    <nd ref="770352"/>
    <nd ref="318305268"/>
    <tag k="bridge" v="yes"/>
    <tag k="highway" v="motorway"/>
    <tag k="layer" v="1"/>
    <tag k="name" v="Federal Highway"/>
    <tag k="oneway" v="yes"/>
  </way>
  <way id="28950545" version="3" timestamp="2010-09-13T05:33:32Z" uid="30201" user="rrankin" changeset="5766265">
    <nd ref="770352"/>
    <nd ref="318305268"/>
    <tag k="bridge" v="yes"/>
    <tag k="highway" v="motorway"/>
    <tag k="layer" v="1"/>
    <tag k="maxspeed" v="110"/>
    <tag k="name" v="Federal Highway"/>
    <tag k="oneway" v="yes"/>
  </way>
  <way id="28950545" version="4" timestamp="2011-04-04T05:30:42Z" uid="193306" user="kerrob" changeset="7761072">
    <nd ref="770352"/>
    <nd ref="318305268"/>
    <tag k="bicycle" v="yes"/>
    <tag k="bridge" v="yes"/>
    <tag k="highway" v="motorway"/>
    <tag k="layer" v="1"/>
    <tag k="maxspeed" v="110"/>
    <tag k="name" v="Federal Highway"/>
    <tag k="oneway" v="yes"/>
  </way>
  <way id="28950546" version="2" timestamp="2010-04-02T03:17:21Z" uid="74617" user="JohnSmith" changeset="4299895">
    <nd ref="318305268"/>
    <nd ref="23611331"/>
    <nd ref="770355"/>
    <nd ref="23611340"/>
    <nd ref="770358"/>
    <nd ref="23611355"/>
    <nd ref="23611363"/>
    <nd ref="770360"/>
    <nd ref="23611368"/>
    <nd ref="770363"/>
    <nd ref="23611379"/>
    <nd ref="23611391"/>
    <nd ref="770366"/>
    <nd ref="23611395"/>
    <nd ref="770368"/>
    <nd ref="23611454"/>
    <nd ref="770371"/>
    <nd ref="23611470"/>
    <nd ref="770372"/>
    <nd ref="770373"/>
    <nd ref="23611489"/>
    <nd ref="770374"/>
    <nd ref="23611496"/>
    <nd ref="223273148"/>
    <nd ref="770375"/>
    <nd ref="23611512"/>
    <nd ref="770378"/>
    <nd ref="23611524"/>
    <nd ref="770380"/>
    <nd ref="174041743"/>
    <nd ref="316917479"/>
    <nd ref="770381"/>
    <tag k="highway" v="motorway"/>
    <tag k="name" v="Federal Highway"/>
    <tag k="oneway" v="yes"/>
  </way>
  <way id="28950546" version="3" timestamp="2010-09-13T05:33:33Z" uid="30201" user="rrankin" changeset="5766265">
    <nd ref="318305268"/>
    <nd ref="23611331"/>
    <nd ref="770355"/>
    <nd ref="23611340"/>
    <nd ref="770358"/>
    <nd ref="23611355"/>
    <nd ref="23611363"/>
    <nd ref="770360"/>
    <nd ref="23611368"/>
    <nd ref="770363"/>
    <nd ref="23611379"/>
    <nd ref="23611391"/>
    <nd ref="770366"/>
    <nd ref="23611395"/>
    <nd ref="770368"/>
    <nd ref="23611454"/>
    <nd ref="770371"/>
    <nd ref="23611470"/>
    <nd ref="770372"/>
    <nd ref="770373"/>
    <nd ref="23611489"/>
    <nd ref="770374"/>
    <nd ref="23611496"/>
    <nd ref="223273148"/>
    <nd ref="770375"/>
    <nd ref="23611512"/>
    <nd ref="770378"/>
    <nd ref="23611524"/>
    <nd ref="770380"/>
    <nd ref="174041743"/>
    <nd ref="316917479"/>
    <nd ref="770381"/>
    <tag k="highway" v="motorway"/>
    <tag k="maxspeed" v="110"/>
    <tag k="name" v="Federal Highway"/>
    <tag k="oneway" v="yes"/>
  </way>
  <way id="28950546" version="4" timestamp="2011-04-04T05:30:56Z" uid="193306" user="kerrob" changeset="7761072">
    <nd ref="318305268"/>
    <nd ref="23611331"/>
    <nd ref="770355"/>
    <nd ref="23611340"/>
    <nd ref="770358"/>
    <nd ref="23611355"/>
    <nd ref="23611363"/>
    <nd ref="770360"/>
    <nd ref="23611368"/>
    <nd ref="770363"/>
    <nd ref="23611379"/>
    <nd ref="23611391"/>
    <nd ref="770366"/>
    <nd ref="23611395"/>
    <nd ref="770368"/>
    <nd ref="23611454"/>
    <nd ref="770371"/>
    <nd ref="23611470"/>
    <nd ref="770372"/>
    <nd ref="770373"/>
    <nd ref="23611489"/>
    <nd ref="770374"/>
    <nd ref="23611496"/>
    <nd ref="223273148"/>
    <nd ref="770375"/>
    <nd ref="23611512"/>
    <nd ref="770378"/>
    <nd ref="23611524"/>
    <nd ref="770380"/>
    <nd ref="174041743"/>
    <nd ref="316917479"/>
    <nd ref="770381"/>
    <tag k="bicycle" v="yes"/>
    <tag k="highway" v="motorway"/>
    <tag k="maxspeed" v="110"/>
    <tag k="name" v="Federal Highway"/>
    <tag k="oneway" v="yes"/>
  </way>
  <way id="28950547" version="2" timestamp="2010-04-02T03:17:28Z" uid="74617" user="JohnSmith" changeset="4299895">
    <nd ref="318305270"/>
    <nd ref="318305269"/>
    <tag k="bridge" v="yes"/>
    <tag k="highway" v="motorway"/>
    <tag k="layer" v="1"/>
    <tag k="name" v="Federal Highway"/>
    <tag k="oneway" v="yes"/>
  </way>
  <way id="28950547" version="3" timestamp="2010-09-13T05:33:30Z" uid="30201" user="rrankin" changeset="5766265">
    <nd ref="318305270"/>
    <nd ref="318305269"/>
    <tag k="bridge" v="yes"/>
    <tag k="highway" v="motorway"/>
    <tag k="layer" v="1"/>
    <tag k="maxspeed" v="110"/>
    <tag k="name" v="Federal Highway"/>
    <tag k="oneway" v="yes"/>
  </way>
  <way id="28950548" version="2" timestamp="2010-04-02T03:17:25Z" uid="74617" user="JohnSmith" changeset="4299895">
    <nd ref="318305269"/>
    <nd ref="23614938"/>
    <nd ref="23614954"/>
    <nd ref="23614965"/>
    <nd ref="23614977"/>
    <nd ref="23614992"/>
    <nd ref="23615008"/>
    <nd ref="174040262"/>
    <nd ref="23615019"/>
    <nd ref="23615031"/>
    <nd ref="23615046"/>
    <nd ref="23615061"/>
    <nd ref="23615076"/>
    <nd ref="23615083"/>
    <nd ref="23615099"/>
    <nd ref="23615109"/>
    <nd ref="23615124"/>
    <nd ref="23615128"/>
    <nd ref="23615129"/>
    <nd ref="23615143"/>
    <nd ref="23615157"/>
    <nd ref="23615169"/>
    <nd ref="23615184"/>
    <nd ref="23615196"/>
    <nd ref="23615214"/>
    <nd ref="23615217"/>
    <nd ref="23615229"/>
    <nd ref="23615242"/>
    <nd ref="23604522"/>
    <nd ref="23622079"/>
    <nd ref="23622094"/>
    <nd ref="23622109"/>
    <nd ref="23622125"/>
    <nd ref="228509700"/>
    <tag k="highway" v="motorway"/>
    <tag k="name" v="Federal Highway"/>
    <tag k="oneway" v="yes"/>
  </way>
  <way id="28950548" version="3" timestamp="2010-06-13T23:58:29Z" uid="79144" user="John H" changeset="4984131">
    <nd ref="318305269"/>
    <nd ref="23614938"/>
    <nd ref="23614954"/>
    <nd ref="23614965"/>
    <nd ref="23614977"/>
    <nd ref="23615008"/>
    <nd ref="174040262"/>
    <nd ref="23615019"/>
    <nd ref="23615031"/>
    <nd ref="23615046"/>
    <nd ref="23615061"/>
    <nd ref="23615076"/>
    <nd ref="23615083"/>
    <nd ref="23615099"/>
    <nd ref="23615109"/>
    <nd ref="23615124"/>
    <nd ref="23615128"/>
    <nd ref="23615129"/>
    <nd ref="23615143"/>
    <nd ref="23615157"/>
    <nd ref="23615169"/>
    <nd ref="23615184"/>
    <nd ref="23615196"/>
    <nd ref="23615214"/>
    <nd ref="23615217"/>
    <nd ref="23615229"/>
    <nd ref="23615242"/>
    <nd ref="23604522"/>
    <nd ref="23622079"/>
    <nd ref="23622094"/>
    <nd ref="23622109"/>
    <nd ref="23622125"/>
    <nd ref="228509700"/>
    <tag k="highway" v="motorway"/>
    <tag k="name" v="Federal Highway"/>
    <tag k="oneway" v="yes"/>
  </way>
  <way id="28950548" version="4" timestamp="2010-09-09T10:42:32Z" uid="79475" user="AlexOnTheBus" changeset="5731470">
    <nd ref="318305269"/>
    <nd ref="23614938"/>
    <nd ref="23614954"/>
    <nd ref="23614965"/>
    <nd ref="23614977"/>
    <nd ref="23615008"/>
    <nd ref="174040262"/>
    <nd ref="23615019"/>
    <nd ref="23615031"/>
    <nd ref="23615046"/>
    <nd ref="23615061"/>
    <nd ref="23615076"/>
    <nd ref="23615083"/>
    <nd ref="23615099"/>
    <nd ref="23615109"/>
    <nd ref="23615124"/>
    <nd ref="903968191"/>
    <nd ref="903968190"/>
    <tag k="highway" v="motorway"/>
    <tag k="name" v="Federal Highway"/>
    <tag k="oneway" v="yes"/>
  </way>
  <way id="28950548" version="5" timestamp="2010-09-09T10:42:37Z" uid="79475" user="AlexOnTheBus" changeset="5731470">
    <nd ref="318305269"/>
    <nd ref="23614938"/>
    <nd ref="23614954"/>
    <nd ref="23614965"/>
    <nd ref="23614977"/>
    <nd ref="23615008"/>
    <nd ref="174040262"/>
    <nd ref="23615019"/>
    <nd ref="23615031"/>
    <nd ref="23615046"/>
    <nd ref="23615061"/>
    <nd ref="23615076"/>
    <nd ref="23615083"/>
    <nd ref="23615099"/>
    <nd ref="23615109"/>
    <nd ref="23615124"/>
    <nd ref="903968190"/>
    <tag k="highway" v="motorway"/>
    <tag k="name" v="Federal Highway"/>
    <tag k="oneway" v="yes"/>
  </way>
  <way id="28950548" version="6" timestamp="2010-09-13T05:33:29Z" uid="30201" user="rrankin" changeset="5766265">
    <nd ref="318305269"/>
    <nd ref="23614938"/>
    <nd ref="23614954"/>
    <nd ref="23614965"/>
    <nd ref="23614977"/>
    <nd ref="23615008"/>
    <nd ref="174040262"/>
    <nd ref="23615019"/>
    <nd ref="23615031"/>
    <nd ref="23615046"/>
    <nd ref="23615061"/>
    <nd ref="23615076"/>
    <nd ref="23615083"/>
    <nd ref="23615099"/>
    <nd ref="23615109"/>
    <nd ref="23615124"/>
    <nd ref="903968190"/>
    <tag k="highway" v="motorway"/>
    <tag k="maxspeed" v="110"/>
    <tag k="name" v="Federal Highway"/>
    <tag k="oneway" v="yes"/>
  </way>
  <way id="28950600" version="3" timestamp="2009-10-02T19:51:42Z" uid="86259" user="hasse_osm_korinthenkacker" changeset="2716821">
    <nd ref="277395191"/>
    <nd ref="277395195"/>
    <nd ref="277395196"/>
    <nd ref="277395197"/>
    <nd ref="277395198"/>
    <nd ref="287841923"/>
    <nd ref="277395199"/>
    <nd ref="277395200"/>
    <nd ref="277395201"/>
    <nd ref="277395202"/>
    <nd ref="277395203"/>
    <nd ref="459092198"/>
    <nd ref="277395206"/>
    <tag k="highway" v="residential"/>
    <tag k="name" v="Ignaz-Günther-Straße"/>
    <tag k="postal_code" v="83607"/>
  </way>
  <way id="28950600" version="4" timestamp="2011-12-19T20:37:47Z" uid="808" user="Roger the Shrubber" changeset="10158925">
    <nd ref="277395191"/>
    <nd ref="277395195"/>
    <nd ref="1554694534"/>
    <nd ref="1554694533"/>
    <nd ref="277395196"/>
    <nd ref="277395197"/>
    <nd ref="1554694509"/>
    <nd ref="277395198"/>
    <nd ref="287841923"/>
    <nd ref="277395199"/>
    <nd ref="277395200"/>
    <nd ref="277395201"/>
    <nd ref="277395202"/>
    <nd ref="277395203"/>
    <nd ref="459092198"/>
    <nd ref="277395206"/>
    <tag k="highway" v="residential"/>
    <tag k="name" v="Ignaz-Günther-Straße"/>
    <tag k="postal_code" v="83607"/>
  </way>
  <way id="28950632" version="13" timestamp="2010-03-28T00:25:29Z" uid="20587" user="balrog-kun" changeset="4250871">
    <nd ref="342655975"/>
    <nd ref="342656075"/>
    <nd ref="342657290"/>
    <nd ref="342657294"/>
    <nd ref="318306073"/>
    <nd ref="318306710"/>
    <nd ref="318306072"/>
    <nd ref="318306251"/>
    <nd ref="318306071"/>
    <nd ref="318306273"/>
    <nd ref="318309833"/>
    <nd ref="318306068"/>
    <nd ref="318309832"/>
    <nd ref="318306067"/>
    <tag k="created_by" v="Potlatch 0.10f"/>
    <tag k="highway" v="secondary"/>
    <tag k="name" v="John Daly Boulevard"/>
    <tag k="oneway" v="yes"/>
    <tag k="tiger:cfcc" v="A41"/>
    <tag k="tiger:county" v="San Mateo, CA"/>
    <tag k="tiger:name_base" v="John Daly"/>
    <tag k="tiger:name_type" v="Blvd"/>
    <tag k="tiger:reviewed" v="no"/>
    <tag k="tiger:separated" v="no"/>
    <tag k="tiger:source" v="tiger_import_dch_v0.6_20070809"/>
    <tag k="tiger:tlid" v="192367269"/>
  </way>
  <way id="28950632" version="14" timestamp="2010-12-13T23:44:55Z" uid="28775" user="StellanL" changeset="6654302">
    <nd ref="342655975"/>
    <nd ref="342656075"/>
    <nd ref="342657290"/>
    <nd ref="342657294"/>
    <nd ref="318306073"/>
    <nd ref="318306710"/>
    <nd ref="318306072"/>
    <nd ref="318306251"/>
    <nd ref="318306071"/>
    <nd ref="318306273"/>
    <nd ref="318309833"/>
    <nd ref="318306068"/>
    <nd ref="318309832"/>
    <nd ref="1037911935"/>
    <nd ref="65429128"/>
    <tag k="highway" v="secondary"/>
    <tag k="name" v="John Daly Boulevard"/>
    <tag k="oneway" v="yes"/>
    <tag k="tiger:cfcc" v="A41"/>
    <tag k="tiger:county" v="San Mateo, CA"/>
    <tag k="tiger:name_base" v="John Daly"/>
    <tag k="tiger:name_type" v="Blvd"/>
    <tag k="tiger:separated" v="no"/>
    <tag k="tiger:source" v="tiger_import_dch_v0.6_20070809"/>
    <tag k="tiger:tlid" v="192367269"/>
  </way>
  <way id="28950632" version="15" timestamp="2011-02-25T17:33:36Z" uid="14293" user="dahveed76" changeset="7392378">
    <nd ref="342655975"/>
    <nd ref="342656075"/>
    <nd ref="342657290"/>
    <nd ref="342657294"/>
    <nd ref="318306073"/>
    <nd ref="1172627558"/>
    <nd ref="318306710"/>
    <nd ref="318306072"/>
    <nd ref="318306251"/>
    <nd ref="318306071"/>
    <nd ref="318306273"/>
    <nd ref="318309833"/>
    <nd ref="318306068"/>
    <nd ref="318309832"/>
    <nd ref="1037911935"/>
    <nd ref="65429128"/>
    <tag k="highway" v="secondary"/>
    <tag k="name" v="John Daly Boulevard"/>
    <tag k="oneway" v="yes"/>
    <tag k="tiger:cfcc" v="A41"/>
    <tag k="tiger:county" v="San Mateo, CA"/>
    <tag k="tiger:name_base" v="John Daly"/>
    <tag k="tiger:name_type" v="Blvd"/>
    <tag k="tiger:separated" v="no"/>
    <tag k="tiger:source" v="tiger_import_dch_v0.6_20070809"/>
    <tag k="tiger:tlid" v="192367269"/>
  </way>
  <way id="28950632" version="16" timestamp="2011-02-25T17:47:31Z" uid="14293" user="dahveed76" changeset="7392469">
    <nd ref="342655975"/>
    <nd ref="342656075"/>
    <nd ref="342657290"/>
    <nd ref="342657294"/>
    <nd ref="318306073"/>
    <nd ref="1172627558"/>
    <nd ref="318306710"/>
    <nd ref="318306072"/>
    <nd ref="318306251"/>
    <nd ref="1172642581"/>
    <nd ref="1172642582"/>
    <nd ref="1172642583"/>
    <nd ref="318306071"/>
    <nd ref="318306273"/>
    <nd ref="318309833"/>
    <nd ref="318306068"/>
    <nd ref="318309832"/>
    <nd ref="1037911935"/>
    <nd ref="65429128"/>
    <tag k="highway" v="secondary"/>
    <tag k="name" v="John Daly Boulevard"/>
    <tag k="oneway" v="yes"/>
    <tag k="tiger:cfcc" v="A41"/>
    <tag k="tiger:county" v="San Mateo, CA"/>
    <tag k="tiger:name_base" v="John Daly"/>
    <tag k="tiger:name_type" v="Blvd"/>
    <tag k="tiger:separated" v="no"/>
    <tag k="tiger:source" v="tiger_import_dch_v0.6_20070809"/>
    <tag k="tiger:tlid" v="192367269"/>
  </way>
  <way id="28950632" version="17" timestamp="2011-02-25T18:10:30Z" uid="14293" user="dahveed76" changeset="7392802">
    <nd ref="342655975"/>
    <nd ref="342656075"/>
    <nd ref="342657290"/>
    <nd ref="342657294"/>
    <nd ref="318306073"/>
    <nd ref="1172627558"/>
    <nd ref="318306710"/>
    <nd ref="318306072"/>
    <nd ref="318306251"/>
    <nd ref="1172672305"/>
    <nd ref="1172642581"/>
    <nd ref="1172642582"/>
    <nd ref="1172642583"/>
    <nd ref="318306071"/>
    <nd ref="318306273"/>
    <nd ref="318309833"/>
    <nd ref="318306068"/>
    <nd ref="318309832"/>
    <nd ref="1037911935"/>
    <nd ref="65429128"/>
    <tag k="highway" v="secondary"/>
    <tag k="name" v="John Daly Boulevard"/>
    <tag k="oneway" v="yes"/>
    <tag k="tiger:cfcc" v="A41"/>
    <tag k="tiger:county" v="San Mateo, CA"/>
    <tag k="tiger:name_base" v="John Daly"/>
    <tag k="tiger:name_type" v="Blvd"/>
    <tag k="tiger:separated" v="no"/>
    <tag k="tiger:source" v="tiger_import_dch_v0.6_20070809"/>
    <tag k="tiger:tlid" v="192367269"/>
  </way>
  <way id="28950632" version="18" timestamp="2011-02-25T18:11:19Z" uid="14293" user="dahveed76" changeset="7392802">
    <nd ref="342655975"/>
    <nd ref="342656075"/>
    <nd ref="342657290"/>
    <nd ref="342657294"/>
    <nd ref="318306073"/>
    <nd ref="1172627558"/>
    <nd ref="318306710"/>
    <nd ref="318306072"/>
    <nd ref="318306251"/>
    <nd ref="1172672305"/>
    <nd ref="1172642581"/>
    <nd ref="1172642582"/>
    <nd ref="1172642583"/>
    <nd ref="318306071"/>
    <nd ref="1172673584"/>
    <nd ref="318306273"/>
    <nd ref="318309833"/>
    <nd ref="318306068"/>
    <nd ref="318309832"/>
    <nd ref="1037911935"/>
    <nd ref="65429128"/>
    <tag k="highway" v="secondary"/>
    <tag k="name" v="John Daly Boulevard"/>
    <tag k="oneway" v="yes"/>
    <tag k="tiger:cfcc" v="A41"/>
    <tag k="tiger:county" v="San Mateo, CA"/>
    <tag k="tiger:name_base" v="John Daly"/>
    <tag k="tiger:name_type" v="Blvd"/>
    <tag k="tiger:separated" v="no"/>
    <tag k="tiger:source" v="tiger_import_dch_v0.6_20070809"/>
    <tag k="tiger:tlid" v="192367269"/>
  </way>
  <way id="28950632" version="19" timestamp="2011-02-25T18:45:52Z" uid="14293" user="dahveed76" changeset="7393063">
    <nd ref="342655975"/>
    <nd ref="342656075"/>
    <nd ref="342657290"/>
    <nd ref="342657294"/>
    <nd ref="318306073"/>
    <nd ref="1172627558"/>
    <nd ref="318306710"/>
    <nd ref="318306072"/>
    <nd ref="318306251"/>
    <nd ref="1172672305"/>
    <nd ref="1172642581"/>
    <nd ref="1172717633"/>
    <nd ref="1172642582"/>
    <nd ref="1172642583"/>
    <nd ref="318306071"/>
    <nd ref="1172673584"/>
    <nd ref="318306273"/>
    <nd ref="318309833"/>
    <nd ref="318306068"/>
    <nd ref="318309832"/>
    <nd ref="1037911935"/>
    <nd ref="65429128"/>
    <tag k="highway" v="secondary"/>
    <tag k="name" v="John Daly Boulevard"/>
    <tag k="oneway" v="yes"/>
    <tag k="tiger:cfcc" v="A41"/>
    <tag k="tiger:county" v="San Mateo, CA"/>
    <tag k="tiger:name_base" v="John Daly"/>
    <tag k="tiger:name_type" v="Blvd"/>
    <tag k="tiger:separated" v="no"/>
    <tag k="tiger:source" v="tiger_import_dch_v0.6_20070809"/>
    <tag k="tiger:tlid" v="192367269"/>
  </way>
  <way id="28950632" version="20" timestamp="2011-02-25T18:48:02Z" uid="14293" user="dahveed76" changeset="7393063">
    <nd ref="342655975"/>
    <nd ref="342656075"/>
    <nd ref="342657290"/>
    <nd ref="342657294"/>
    <nd ref="318306073"/>
    <nd ref="1172627558"/>
    <nd ref="318306710"/>
    <nd ref="318306072"/>
    <nd ref="318306251"/>
    <nd ref="1172672305"/>
    <nd ref="1172642581"/>
    <nd ref="1172723705"/>
    <nd ref="1172717633"/>
    <nd ref="1172642582"/>
    <nd ref="1172642583"/>
    <nd ref="318306071"/>
    <nd ref="1172673584"/>
    <nd ref="318306273"/>
    <nd ref="318309833"/>
    <nd ref="318306068"/>
    <nd ref="318309832"/>
    <nd ref="1037911935"/>
    <nd ref="65429128"/>
    <tag k="highway" v="secondary"/>
    <tag k="name" v="John Daly Boulevard"/>
    <tag k="oneway" v="yes"/>
    <tag k="tiger:cfcc" v="A41"/>
    <tag k="tiger:county" v="San Mateo, CA"/>
    <tag k="tiger:name_base" v="John Daly"/>
    <tag k="tiger:name_type" v="Blvd"/>
    <tag k="tiger:separated" v="no"/>
    <tag k="tiger:source" v="tiger_import_dch_v0.6_20070809"/>
    <tag k="tiger:tlid" v="192367269"/>
  </way>
  <way id="28950632" version="21" timestamp="2012-03-04T19:15:06Z" uid="28775" user="StellanL" changeset="10871452">
    <nd ref="342655975"/>
    <nd ref="342656075"/>
    <nd ref="342657290"/>
    <nd ref="342657294"/>
    <nd ref="318306073"/>
    <nd ref="318306710"/>
    <nd ref="318306072"/>
    <nd ref="318306251"/>
    <nd ref="1659441001"/>
    <nd ref="1172723705"/>
    <nd ref="1172642582"/>
    <nd ref="1172642583"/>
    <nd ref="318306071"/>
    <nd ref="1172673584"/>
    <nd ref="318306273"/>
    <nd ref="318309833"/>
    <nd ref="318306068"/>
    <nd ref="1659440951"/>
    <nd ref="318309832"/>
    <nd ref="1037911935"/>
    <nd ref="65429128"/>
    <tag k="highway" v="secondary"/>
    <tag k="name" v="John Daly Boulevard"/>
    <tag k="oneway" v="yes"/>
    <tag k="tiger:cfcc" v="A41"/>
    <tag k="tiger:county" v="San Mateo, CA"/>
    <tag k="tiger:name_base" v="John Daly"/>
    <tag k="tiger:name_type" v="Blvd"/>
    <tag k="tiger:separated" v="no"/>
    <tag k="tiger:source" v="tiger_import_dch_v0.6_20070809"/>
    <tag k="tiger:tlid" v="192367269"/>
  </way>
  <way id="28950732" version="7" timestamp="2010-03-28T00:25:29Z" uid="20587" user="balrog-kun" changeset="4250871">
    <nd ref="65420970"/>
    <nd ref="318306703"/>
    <nd ref="318306704"/>
    <nd ref="318306705"/>
    <nd ref="318306706"/>
    <nd ref="318307143"/>
    <tag k="highway" v="unclassified"/>
    <tag k="name" v="Hillcrest Drive"/>
    <tag k="oneway" v="yes"/>
    <tag k="tiger:cfcc" v="A41"/>
    <tag k="tiger:county" v="San Mateo, CA"/>
    <tag k="tiger:name_base" v="Hillcrest"/>
    <tag k="tiger:name_type" v="Dr"/>
    <tag k="tiger:separated" v="no"/>
    <tag k="tiger:source" v="tiger_import_dch_v0.6_20070809"/>
    <tag k="tiger:tlid" v="192367505:192367496:192367576:192367584:192367586"/>
    <tag k="tiger:zip_left" v="94014"/>
    <tag k="tiger:zip_right" v="94014"/>
  </way>
  <way id="28950732" version="8" timestamp="2010-07-26T07:56:38Z" uid="28775" user="StellanL" changeset="5318817">
    <nd ref="65420970"/>
    <nd ref="318306703"/>
    <nd ref="318306704"/>
    <nd ref="318306705"/>
    <nd ref="318306706"/>
    <nd ref="318307143"/>
    <tag k="highway" v="unclassified"/>
    <tag k="oneway" v="yes"/>
    <tag k="tiger:cfcc" v="A41"/>
    <tag k="tiger:county" v="San Mateo, CA"/>
    <tag k="tiger:name_base" v="Hillcrest"/>
    <tag k="tiger:name_type" v="Dr"/>
    <tag k="tiger:separated" v="no"/>
    <tag k="tiger:source" v="tiger_import_dch_v0.6_20070809"/>
    <tag k="tiger:tlid" v="192367505:192367496:192367576:192367584:192367586"/>
    <tag k="tiger:zip_left" v="94014"/>
    <tag k="tiger:zip_right" v="94014"/>
  </way>
  <way id="28950732" version="9" timestamp="2011-02-25T17:30:23Z" uid="14293" user="dahveed76" changeset="7392378">
    <nd ref="65420970"/>
    <nd ref="1172624093"/>
    <nd ref="318306703"/>
    <nd ref="318306704"/>
    <nd ref="318306705"/>
    <nd ref="318306706"/>
    <nd ref="318307143"/>
    <tag k="highway" v="unclassified"/>
    <tag k="oneway" v="yes"/>
    <tag k="tiger:cfcc" v="A41"/>
    <tag k="tiger:county" v="San Mateo, CA"/>
    <tag k="tiger:name_base" v="Hillcrest"/>
    <tag k="tiger:name_type" v="Dr"/>
    <tag k="tiger:separated" v="no"/>
    <tag k="tiger:source" v="tiger_import_dch_v0.6_20070809"/>
    <tag k="tiger:tlid" v="192367505:192367496:192367576:192367584:192367586"/>
    <tag k="tiger:zip_left" v="94014"/>
    <tag k="tiger:zip_right" v="94014"/>
  </way>
  <way id="28950732" version="10" timestamp="2011-02-25T17:45:17Z" uid="14293" user="dahveed76" changeset="7392469">
    <nd ref="65420970"/>
    <nd ref="1172624093"/>
    <nd ref="318306703"/>
    <nd ref="318306704"/>
    <nd ref="318306705"/>
    <nd ref="318306706"/>
    <nd ref="318307143"/>
    <tag k="highway" v="service"/>
    <tag k="oneway" v="yes"/>
    <tag k="tiger:cfcc" v="A41"/>
    <tag k="tiger:county" v="San Mateo, CA"/>
    <tag k="tiger:name_base" v="Hillcrest"/>
    <tag k="tiger:name_type" v="Dr"/>
    <tag k="tiger:separated" v="no"/>
    <tag k="tiger:source" v="tiger_import_dch_v0.6_20070809"/>
    <tag k="tiger:tlid" v="192367505:192367496:192367576:192367584:192367586"/>
    <tag k="tiger:zip_left" v="94014"/>
    <tag k="tiger:zip_right" v="94014"/>
  </way>
  <way id="28950732" version="11" timestamp="2011-02-25T17:50:37Z" uid="14293" user="dahveed76" changeset="7392469">
    <nd ref="65420970"/>
    <nd ref="1172624093"/>
    <nd ref="318306703"/>
    <nd ref="318306704"/>
    <nd ref="318306705"/>
    <nd ref="318306706"/>
    <nd ref="318307143"/>
    <tag k="highway" v="service"/>
    <tag k="oneway" v="yes"/>
  </way>
  <way id="28950732" version="12" timestamp="2011-02-25T18:43:55Z" uid="14293" user="dahveed76" changeset="7393063">
    <nd ref="1172712834"/>
    <nd ref="318306703"/>
    <nd ref="318306704"/>
    <nd ref="318306705"/>
    <nd ref="318306706"/>
    <nd ref="318307143"/>
    <tag k="highway" v="service"/>
    <tag k="oneway" v="yes"/>
  </way>
  <way id="28950903" version="2" timestamp="2010-09-27T19:33:12Z" uid="9581" user="Lobelt" changeset="5894923">
    <nd ref="271459382"/>
    <nd ref="271459383"/>
    <nd ref="271459384"/>
    <nd ref="271459385"/>
    <nd ref="271459386"/>
    <nd ref="271459387"/>
    <nd ref="271459391"/>
    <nd ref="271459388"/>
    <tag k="highway" v="residential"/>
    <tag k="maxspeed" v="30"/>
    <tag k="name" v="Julius-Sturm-Straße"/>
  </way>
  <way id="28950907" version="9" timestamp="2009-02-23T11:57:38Z" uid="34428" user="usm78-gis" changeset="634299"/>
  <way id="28950908" version="9" timestamp="2009-02-23T12:47:23Z" uid="34428" user="usm78-gis" changeset="634299"/>
</osm>
