<?xml version='1.0' encoding='UTF-8'?>
<osm version="0.6" generator="libosmium/2.20.0">
  <way id="29093569" version="2" timestamp="2010-04-02T17:23:53Z" uid="20587" user="balrog-kun" changeset="4304500">
    <nd ref="53141386"/>
    <nd ref="53185661"/>
    <tag k="created_by" v="Potlatch 0.10f"/>
    <tag k="highway" v="residential"/>
    <tag k="name" v="Southwest Orleans Street"/>
    <tag k="tiger:cfcc" v="A41"/>
    <tag k="tiger:county" v="King, WA"/>
    <tag k="tiger:name_base" v="Orleans"/>
    <tag k="tiger:name_direction_prefix" v="SW"/>
    <tag k="tiger:name_type" v="St"/>
    <tag k="tiger:reviewed" v="no"/>
    <tag k="tiger:separated" v="no"/>
    <tag k="tiger:source" v="tiger_import_dch_v0.6_20070830"/>
    <tag k="tiger:tlid" v="186660514:186706222:186706225:186706226"/>
    <tag k="tiger:zip_left" v="98116"/>
    <tag k="tiger:zip_right" v="98116"/>
  </way>
  <way id="29093569" version="3" timestamp="2011-04-14T17:49:15Z" uid="282329" user="compdude" changeset="7862913">
    <nd ref="53141386"/>
    <nd ref="53185661"/>
    <tag k="highway" v="residential"/>
    <tag k="name" v="Southwest Orleans Street"/>
    <tag k="tiger:cfcc" v="A41"/>
    <tag k="tiger:county" v="King, WA"/>
    <tag k="tiger:name_base" v="Orleans"/>
    <tag k="tiger:name_direction_prefix" v="SW"/>
    <tag k="tiger:name_type" v="St"/>
    <tag k="tiger:separated" v="no"/>
    <tag k="tiger:source" v="tiger_import_dch_v0.6_20070830"/>
    <tag k="tiger:tlid" v="186660514:186706222:186706225:186706226"/>
    <tag k="tiger:zip_left" v="98116"/>
    <tag k="tiger:zip_right" v="98116"/>
  </way>
  <way id="29093576" version="3" timestamp="2010-04-02T17:23:54Z" uid="20587" user="balrog-kun" changeset="4304500">
    <nd ref="53140479"/>
    <nd ref="320023676"/>
    <tag k="created_by" v="Potlatch 0.10f"/>
    <tag k="highway" v="residential"/>
    <tag k="name" v="53rd Avenue Southwest"/>
    <tag k="tiger:cfcc" v="A41"/>
    <tag k="tiger:county" v="King, WA"/>
    <tag k="tiger:name_base" v="53rd"/>
    <tag k="tiger:name_direction_suffix" v="SW"/>
    <tag k="tiger:name_type" v="Ave"/>
    <tag k="tiger:reviewed" v="no"/>
    <tag k="tiger:separated" v="no"/>
    <tag k="tiger:source" v="tiger_import_dch_v0.6_20070830"/>
    <tag k="tiger:tlid" v="186660563:186660564:186660565:186660585"/>
    <tag k="tiger:zip_left" v="98116"/>
    <tag k="tiger:zip_right" v="98116"/>
  </way>
  <way id="29093576" version="4" timestamp="2011-04-14T17:49:14Z" uid="282329" user="compdude" changeset="7862913">
    <nd ref="53140479"/>
    <nd ref="320023676"/>
    <tag k="highway" v="residential"/>
    <tag k="name" v="53rd Avenue Southwest"/>
    <tag k="tiger:cfcc" v="A41"/>
    <tag k="tiger:county" v="King, WA"/>
    <tag k="tiger:name_base" v="53rd"/>
    <tag k="tiger:name_direction_suffix" v="SW"/>
    <tag k="tiger:name_type" v="Ave"/>
    <tag k="tiger:separated" v="no"/>
    <tag k="tiger:source" v="tiger_import_dch_v0.6_20070830"/>
    <tag k="tiger:tlid" v="186660563:186660564:186660565:186660585"/>
    <tag k="tiger:zip_left" v="98116"/>
    <tag k="tiger:zip_right" v="98116"/>
  </way>
  <way id="29093583" version="2" timestamp="2009-11-12T00:00:53Z" uid="36809" user="pfoten_weg_!_" changeset="3094650">
    <nd ref="320023667"/>
    <nd ref="131612935"/>
    <nd ref="131612936"/>
    <nd ref="131612937"/>
    <nd ref="282021015"/>
    <nd ref="131612938"/>
    <nd ref="282021035"/>
    <nd ref="282021029"/>
    <nd ref="131612939"/>
    <tag k="highway" v="primary"/>
    <tag k="int_ref" v="E67"/>
    <tag k="name" v="Generała Stanisława Maczka"/>
    <tag k="oneway" v="no"/>
    <tag k="ref" v="8; 65"/>
  </way>
  <way id="29093583" version="3" timestamp="2010-04-06T13:10:51Z" uid="22556" user="Lafriks" changeset="4343893">
    <nd ref="320023667"/>
    <nd ref="686568226"/>
    <nd ref="686568228"/>
    <nd ref="131612935"/>
    <nd ref="131612936"/>
    <nd ref="131612937"/>
    <nd ref="282021015"/>
    <nd ref="131612938"/>
    <nd ref="282021035"/>
    <nd ref="282021029"/>
    <nd ref="131612939"/>
    <tag k="highway" v="primary"/>
    <tag k="int_ref" v="E67"/>
    <tag k="name" v="Generała Stanisława Maczka"/>
    <tag k="oneway" v="no"/>
    <tag k="ref" v="8; 65"/>
  </way>
  <way id="29093583" version="4" timestamp="2010-09-05T15:08:04Z" uid="182212" user="langus" changeset="5688503">
    <nd ref="320023667"/>
    <nd ref="686568226"/>
    <nd ref="686568228"/>
    <nd ref="131612935"/>
    <nd ref="131612936"/>
    <tag k="highway" v="primary"/>
    <tag k="int_ref" v="E67"/>
    <tag k="name" v="Generała Stanisława Maczka"/>
    <tag k="oneway" v="yes"/>
    <tag k="ref" v="8; 65"/>
  </way>
  <way id="29093583" version="5" timestamp="2011-02-13T23:16:25Z" uid="163896" user="Zbigniew Czernik" changeset="7281424">
    <nd ref="320023667"/>
    <nd ref="686568226"/>
    <nd ref="686568228"/>
    <nd ref="131612935"/>
    <nd ref="1151962505"/>
    <nd ref="131612936"/>
    <tag k="highway" v="primary"/>
    <tag k="int_ref" v="E67"/>
    <tag k="name" v="Generała Stanisława Maczka"/>
    <tag k="oneway" v="yes"/>
    <tag k="ref" v="8; 65"/>
  </way>
  <way id="29093607" version="4" timestamp="2009-02-23T13:08:14Z" uid="34428" user="usm78-gis" changeset="634299"/>
  <way id="29093635" version="3" timestamp="2009-02-23T12:36:28Z" uid="34428" user="usm78-gis" changeset="634299"/>
  <way id="29093724" version="1" timestamp="2008-12-19T19:09:43Z" uid="43863" user="Rundling" changeset="483379">
    <nd ref="277085358"/>
    <nd ref="277085457"/>
    <nd ref="277085458"/>
    <nd ref="277085459"/>
    <nd ref="277085460"/>
    <nd ref="277085461"/>
    <nd ref="277085462"/>
    <nd ref="277085643"/>
    <nd ref="277085644"/>
    <nd ref="310192831"/>
    <nd ref="277085645"/>
    <nd ref="310192714"/>
    <nd ref="297505169"/>
    <nd ref="291967373"/>
    <tag k="access" v="agricultural"/>
    <tag k="created_by" v="Potlatch 0.10b"/>
    <tag k="highway" v="secondary"/>
    <tag k="motorcar" v="yes"/>
    <tag k="motorcycle" v="yes"/>
    <tag k="ref" v="K 61"/>
    <tag k="surface" v="paved"/>
    <tag k="tracktype" v="grade1"/>
  </way>
  <way id="29093724" version="2" timestamp="2008-12-19T19:16:27Z" uid="43863" user="Rundling" changeset="483379">
    <nd ref="277085358"/>
    <nd ref="277085458"/>
    <nd ref="277085459"/>
    <nd ref="277085460"/>
    <nd ref="277085461"/>
    <nd ref="277085644"/>
    <nd ref="310192831"/>
    <nd ref="277085645"/>
    <nd ref="310192714"/>
    <nd ref="297505169"/>
    <nd ref="291967373"/>
    <tag k="access" v="agricultural"/>
    <tag k="created_by" v="Potlatch 0.10b"/>
    <tag k="highway" v="secondary"/>
    <tag k="motorcar" v="yes"/>
    <tag k="motorcycle" v="yes"/>
    <tag k="ref" v="K 61"/>
    <tag k="surface" v="paved"/>
    <tag k="tracktype" v="grade1"/>
  </way>
  <way id="29093724" version="3" timestamp="2008-12-21T21:57:47Z" uid="43863" user="Rundling" changeset="528826">
    <nd ref="277085358"/>
    <nd ref="277085458"/>
    <nd ref="277085459"/>
    <nd ref="277085460"/>
    <nd ref="277085461"/>
    <nd ref="277085644"/>
    <nd ref="310192831"/>
    <nd ref="277085645"/>
    <nd ref="310192714"/>
    <nd ref="297505169"/>
    <nd ref="291967373"/>
    <tag k="access" v="agricultural"/>
    <tag k="created_by" v="Potlatch 0.10b"/>
    <tag k="highway" v="tertiary"/>
    <tag k="motorcar" v="yes"/>
    <tag k="motorcycle" v="yes"/>
    <tag k="ref" v="K 61"/>
    <tag k="surface" v="paved"/>
    <tag k="tracktype" v="grade1"/>
  </way>
  <way id="29093724" version="4" timestamp="2008-12-23T17:31:17Z" uid="43863" user="Rundling" changeset="574593">
    <nd ref="277085358"/>
    <nd ref="277085458"/>
    <nd ref="277085459"/>
    <nd ref="277085460"/>
    <nd ref="277085461"/>
    <nd ref="277085644"/>
    <nd ref="310192831"/>
    <nd ref="277085645"/>
    <nd ref="310192714"/>
    <nd ref="297505169"/>
    <nd ref="291967373"/>
    <tag k="highway" v="tertiary"/>
    <tag k="ref" v="K 61"/>
    <tag k="surface" v="paved"/>
  </way>
  <way id="29093724" version="5" timestamp="2009-01-02T09:05:25Z" uid="43863" user="Rundling" changeset="706325">
    <nd ref="277085358"/>
    <nd ref="277085458"/>
    <nd ref="277085459"/>
    <nd ref="277085460"/>
    <nd ref="277085461"/>
    <tag k="highway" v="tertiary"/>
    <tag k="ref" v="K 61"/>
    <tag k="surface" v="paved"/>
  </way>
  <way id="29093724" version="6" timestamp="2009-01-02T09:10:19Z" uid="43863" user="Rundling" changeset="706325">
    <nd ref="277085358"/>
    <nd ref="277085458"/>
    <nd ref="277085459"/>
    <nd ref="277085461"/>
    <tag k="highway" v="tertiary"/>
    <tag k="ref" v="K 61"/>
    <tag k="surface" v="paved"/>
  </way>
  <way id="29093724" version="7" timestamp="2010-05-10T21:10:09Z" uid="38735" user="GPS-Wolf" changeset="4663782">
    <nd ref="277085358"/>
    <nd ref="277085458"/>
    <nd ref="277085459"/>
    <nd ref="729019799"/>
    <nd ref="277085461"/>
    <tag k="highway" v="tertiary"/>
    <tag k="ref" v="K 61"/>
    <tag k="surface" v="paved"/>
  </way>
  <way id="29093724" version="8" timestamp="2010-09-08T19:44:17Z" uid="43863" user="Rundling" changeset="5727307">
    <nd ref="277085358"/>
    <nd ref="277085458"/>
    <nd ref="277085459"/>
    <nd ref="277085461"/>
    <tag k="highway" v="tertiary"/>
    <tag k="ref" v="K 61"/>
    <tag k="surface" v="paved"/>
  </way>
  <way id="29093724" version="9" timestamp="2011-02-20T13:23:03Z" uid="43863" user="Rundling" changeset="7342337">
    <nd ref="277085358"/>
    <nd ref="277085458"/>
    <nd ref="1163302331"/>
    <nd ref="277085459"/>
    <nd ref="277085461"/>
    <tag k="highway" v="tertiary"/>
    <tag k="ref" v="K 61"/>
    <tag k="surface" v="paved"/>
  </way>
  <way id="29093779" version="1" timestamp="2008-12-19T19:10:04Z" uid="20587" user="balrog-kun" changeset="477118">
    <nd ref="320025424"/>
    <nd ref="320025426"/>
    <nd ref="320025434"/>
    <nd ref="320025451"/>
    <nd ref="320025453"/>
    <nd ref="320025435"/>
    <nd ref="320025427"/>
    <nd ref="320025488"/>
    <nd ref="320025491"/>
    <nd ref="320025425"/>
    <nd ref="320025429"/>
    <nd ref="320025433"/>
    <nd ref="320025430"/>
    <nd ref="320025431"/>
    <nd ref="320025432"/>
    <nd ref="320025428"/>
    <nd ref="320025424"/>
    <tag k="building" v="yes"/>
  </way>
  <way id="29093779" version="2" timestamp="2009-01-21T14:22:18Z" uid="20587" user="balrog-kun" changeset="821206">
    <nd ref="320025424"/>
    <nd ref="320025426"/>
    <nd ref="320025434"/>
    <nd ref="320025451"/>
    <nd ref="320025453"/>
    <nd ref="320025435"/>
    <nd ref="320025427"/>
    <nd ref="320025488"/>
    <nd ref="320025491"/>
    <nd ref="320025425"/>
    <nd ref="320025429"/>
    <nd ref="320025433"/>
    <nd ref="320025430"/>
    <nd ref="320025431"/>
    <nd ref="320025432"/>
    <nd ref="320025428"/>
    <nd ref="320025424"/>
    <tag k="building" v="yes"/>
    <tag k="name" v="Pałac Namiestnikowski (prezydenta RP)"/>
  </way>
  <way id="29093779" version="3" timestamp="2009-02-09T03:03:25Z" uid="20587" user="balrog-kun" changeset="294990">
    <nd ref="320025424"/>
    <nd ref="320025426"/>
    <nd ref="320025434"/>
    <nd ref="320025451"/>
    <nd ref="320025453"/>
    <nd ref="320025435"/>
    <nd ref="320025427"/>
    <nd ref="320025488"/>
    <nd ref="320025491"/>
    <nd ref="320025425"/>
    <nd ref="320025429"/>
    <nd ref="320025433"/>
    <nd ref="320025430"/>
    <nd ref="320025431"/>
    <nd ref="320025432"/>
    <nd ref="320025428"/>
    <nd ref="320025424"/>
    <tag k="addr:housenumber" v="46/48"/>
    <tag k="addr:street" v="Krakowskie Przedmieście"/>
    <tag k="building" v="yes"/>
    <tag k="building:style" v="neoclassical"/>
    <tag k="name" v="Pałac Namiestnikowski (prezydenta RP)"/>
    <tag k="wikipedia" v="Presidential Palace, Warsaw"/>
  </way>
  <way id="29093779" version="4" timestamp="2011-02-24T11:39:26Z" uid="338611" user="marek kleciak" changeset="7380542">
    <nd ref="320025424"/>
    <nd ref="1169918184"/>
    <nd ref="1169918172"/>
    <nd ref="320025426"/>
    <nd ref="320025434"/>
    <nd ref="320025451"/>
    <nd ref="1169918189"/>
    <nd ref="1169918246"/>
    <nd ref="1169918255"/>
    <nd ref="1169918236"/>
    <nd ref="320025453"/>
    <nd ref="320025435"/>
    <nd ref="320025427"/>
    <nd ref="320025488"/>
    <nd ref="320025491"/>
    <nd ref="320025425"/>
    <nd ref="320025429"/>
    <nd ref="320025433"/>
    <nd ref="320025430"/>
    <nd ref="320025431"/>
    <nd ref="1169918252"/>
    <nd ref="320025432"/>
    <nd ref="320025428"/>
    <nd ref="320025424"/>
    <tag k="addr:housenumber" v="46/48"/>
    <tag k="addr:street" v="Krakowskie Przedmieście"/>
    <tag k="building" v="yes"/>
    <tag k="building:style" v="neoclassical"/>
    <tag k="name" v="Pałac Namiestnikowski (prezydenta RP)"/>
    <tag k="wikipedia" v="Presidential Palace, Warsaw"/>
  </way>
  <way id="29093779" version="5" timestamp="2011-10-18T08:09:20Z" uid="477744" user="hormel" changeset="9588976">
    <nd ref="320025424"/>
    <nd ref="1169918184"/>
    <nd ref="1169918172"/>
    <nd ref="320025426"/>
    <nd ref="320025434"/>
    <nd ref="320025451"/>
    <nd ref="1169918189"/>
    <nd ref="1169918246"/>
    <nd ref="1169918255"/>
    <nd ref="1169918236"/>
    <nd ref="320025453"/>
    <nd ref="320025435"/>
    <nd ref="320025427"/>
    <nd ref="320025488"/>
    <nd ref="320025491"/>
    <nd ref="320025425"/>
    <nd ref="320025433"/>
    <nd ref="320025430"/>
    <nd ref="320025431"/>
    <nd ref="1169918252"/>
    <nd ref="320025432"/>
    <nd ref="320025428"/>
    <nd ref="320025424"/>
    <tag k="addr:housenumber" v="46/48"/>
    <tag k="addr:street" v="Krakowskie Przedmieście"/>
    <tag k="building" v="yes"/>
    <tag k="building:style" v="neoclassical"/>
    <tag k="name" v="Pałac Namiestnikowski (prezydenta RP)"/>
    <tag k="wikipedia" v="Presidential Palace, Warsaw"/>
  </way>
  <way id="29093779" version="6" timestamp="2011-11-05T16:06:05Z" uid="91056" user="Yarl" changeset="9747689">
    <nd ref="320025424"/>
    <nd ref="1169918184"/>
    <nd ref="1169918172"/>
    <nd ref="1492476290"/>
    <nd ref="1492476293"/>
    <nd ref="1492476297"/>
    <nd ref="1492476296"/>
    <nd ref="1492476298"/>
    <nd ref="1492476304"/>
    <nd ref="320025426"/>
    <nd ref="320025434"/>
    <nd ref="320025451"/>
    <nd ref="1169918189"/>
    <nd ref="1169918246"/>
    <nd ref="1169918255"/>
    <nd ref="1169918236"/>
    <nd ref="320025453"/>
    <nd ref="320025435"/>
    <nd ref="320025427"/>
    <nd ref="320025488"/>
    <nd ref="320025491"/>
    <nd ref="1492476280"/>
    <nd ref="1492476276"/>
    <nd ref="1492476267"/>
    <nd ref="320025425"/>
    <nd ref="320025433"/>
    <nd ref="1492476283"/>
    <nd ref="1492476282"/>
    <nd ref="320025430"/>
    <nd ref="320025431"/>
    <nd ref="1169918252"/>
    <nd ref="320025432"/>
    <nd ref="320025428"/>
    <nd ref="320025424"/>
    <tag k="addr:housenumber" v="46/48"/>
    <tag k="addr:street" v="Krakowskie Przedmieście"/>
    <tag k="building" v="yes"/>
    <tag k="building:style" v="neoclassical"/>
    <tag k="name" v="Pałac Namiestnikowski (Prezydenta RP)"/>
    <tag k="wikipedia" v="Presidential Palace, Warsaw"/>
  </way>
  <way id="29093779" version="7" timestamp="2011-11-05T16:15:39Z" uid="91056" user="Yarl" changeset="9747777">
    <nd ref="320025424"/>
    <nd ref="1169918184"/>
    <nd ref="1169918172"/>
    <nd ref="1492476290"/>
    <nd ref="1492476293"/>
    <nd ref="1492476297"/>
    <nd ref="1492476296"/>
    <nd ref="1492476298"/>
    <nd ref="1492476304"/>
    <nd ref="320025426"/>
    <nd ref="320025434"/>
    <nd ref="320025451"/>
    <nd ref="1169918189"/>
    <nd ref="1169918246"/>
    <nd ref="1492484969"/>
    <nd ref="1169918255"/>
    <nd ref="1169918236"/>
    <nd ref="320025453"/>
    <nd ref="320025435"/>
    <nd ref="320025427"/>
    <nd ref="320025488"/>
    <nd ref="320025491"/>
    <nd ref="1492476280"/>
    <nd ref="1492476276"/>
    <nd ref="1492476267"/>
    <nd ref="320025425"/>
    <nd ref="320025433"/>
    <nd ref="1492476283"/>
    <nd ref="1492476282"/>
    <nd ref="320025430"/>
    <nd ref="320025431"/>
    <nd ref="1169918252"/>
    <nd ref="320025432"/>
    <nd ref="320025428"/>
    <nd ref="320025424"/>
    <tag k="addr:housenumber" v="46/48"/>
    <tag k="addr:street" v="Krakowskie Przedmieście"/>
    <tag k="building" v="yes"/>
    <tag k="building:style" v="neoclassical"/>
    <tag k="name" v="Pałac Namiestnikowski (Prezydenta RP)"/>
    <tag k="wikipedia" v="Presidential Palace, Warsaw"/>
  </way>
  <way id="29093781" version="1" timestamp="2008-12-19T19:10:05Z" uid="20587" user="balrog-kun" changeset="477118">
    <nd ref="320025454"/>
    <nd ref="320025458"/>
    <nd ref="320025462"/>
    <nd ref="320025464"/>
    <nd ref="320025466"/>
    <nd ref="320025460"/>
    <nd ref="320025456"/>
    <nd ref="320025454"/>
    <tag k="addr:housenumber" v="14/16"/>
    <tag k="addr:street" v="Karowa"/>
    <tag k="building" v="yes"/>
  </way>
  <way id="29093781" version="2" timestamp="2011-02-24T11:39:27Z" uid="338611" user="marek kleciak" changeset="7380542">
    <nd ref="320025454"/>
    <nd ref="320025458"/>
    <nd ref="320025462"/>
    <nd ref="320025464"/>
    <nd ref="320025466"/>
    <nd ref="320025456"/>
    <nd ref="320025454"/>
    <tag k="addr:housenumber" v="14/16"/>
    <tag k="addr:street" v="Karowa"/>
    <tag k="building" v="yes"/>
  </way>
  <way id="29093781" version="3" timestamp="2012-02-27T11:23:06Z" uid="99386" user="masti" changeset="10807491">
    <nd ref="1650250421"/>
    <nd ref="320025466"/>
    <nd ref="320025456"/>
    <nd ref="320025454"/>
    <nd ref="320025458"/>
    <nd ref="320025462"/>
    <nd ref="320025464"/>
    <nd ref="1169918141"/>
    <nd ref="1169918143"/>
    <nd ref="1169918286"/>
    <nd ref="320025485"/>
    <nd ref="320025486"/>
    <nd ref="320025468"/>
    <nd ref="1650250421"/>
    <tag k="addr:housenumber" v="14/16"/>
    <tag k="addr:street" v="Karowa"/>
    <tag k="building" v="yes"/>
  </way>
  <way id="29093783" version="1" timestamp="2008-12-19T19:10:05Z" uid="20587" user="balrog-kun" changeset="477118">
    <nd ref="320025483"/>
    <nd ref="320025479"/>
    <nd ref="320025481"/>
    <nd ref="320025477"/>
    <nd ref="320025475"/>
    <nd ref="320025491"/>
    <nd ref="320025425"/>
    <nd ref="320025483"/>
    <tag k="addr:housenumber" v="20"/>
    <tag k="addr:street" v="Karowa"/>
    <tag k="building" v="yes"/>
  </way>
  <way id="29093783" version="2" timestamp="2011-11-05T16:06:38Z" uid="91056" user="Yarl" changeset="9747689"/>
  <way id="29093786" version="1" timestamp="2008-12-19T19:10:05Z" uid="20587" user="balrog-kun" changeset="477118">
    <nd ref="320025472"/>
    <nd ref="320025488"/>
    <nd ref="320025491"/>
    <nd ref="320025475"/>
    <nd ref="320025477"/>
    <nd ref="320025473"/>
    <nd ref="320025472"/>
    <tag k="addr:housenumber" v="18a"/>
    <tag k="addr:street" v="Karowa"/>
    <tag k="building" v="yes"/>
  </way>
  <way id="29093786" version="2" timestamp="2011-11-05T16:06:04Z" uid="91056" user="Yarl" changeset="9747689">
    <nd ref="320025488"/>
    <nd ref="320025491"/>
    <nd ref="1492476280"/>
    <nd ref="1492476277"/>
    <nd ref="1492476279"/>
    <nd ref="1492476275"/>
    <nd ref="1492476278"/>
    <nd ref="1492476274"/>
    <nd ref="1492476272"/>
    <nd ref="1492476266"/>
    <nd ref="1492476265"/>
    <nd ref="1492476262"/>
    <nd ref="320025477"/>
    <nd ref="320025473"/>
    <nd ref="320025472"/>
    <nd ref="320025488"/>
    <tag k="addr:housenumber" v="18a"/>
    <tag k="addr:street" v="Karowa"/>
    <tag k="building" v="yes"/>
  </way>
  <way id="29093786" version="3" timestamp="2012-02-27T11:17:26Z" uid="99386" user="masti" changeset="10807461">
    <nd ref="320025488"/>
    <nd ref="320025491"/>
    <nd ref="1492476280"/>
    <nd ref="1492476277"/>
    <nd ref="1492476279"/>
    <nd ref="1492476275"/>
    <nd ref="1492476278"/>
    <nd ref="1492476274"/>
    <nd ref="1492476272"/>
    <nd ref="1492476266"/>
    <nd ref="1492476265"/>
    <nd ref="1492476262"/>
    <nd ref="320025477"/>
    <nd ref="320025473"/>
    <nd ref="320025472"/>
    <nd ref="320025488"/>
    <tag k="addr:housenumber" v="20"/>
    <tag k="addr:street" v="Karowa"/>
    <tag k="building" v="yes"/>
  </way>
  <way id="29093788" version="1" timestamp="2008-12-19T19:10:06Z" uid="20587" user="balrog-kun" changeset="477118">
    <nd ref="320025473"/>
    <nd ref="320025470"/>
    <nd ref="320025466"/>
    <nd ref="320025464"/>
    <nd ref="320025485"/>
    <nd ref="320025486"/>
    <nd ref="320025468"/>
    <nd ref="320025472"/>
    <nd ref="320025473"/>
    <tag k="addr:housenumber" v="18"/>
    <tag k="addr:street" v="Karowa"/>
    <tag k="building" v="yes"/>
  </way>
  <way id="29093788" version="2" timestamp="2011-02-24T11:39:27Z" uid="338611" user="marek kleciak" changeset="7380542">
    <nd ref="320025473"/>
    <nd ref="320025470"/>
    <nd ref="320025466"/>
    <nd ref="320025464"/>
    <nd ref="1169918141"/>
    <nd ref="1169918143"/>
    <nd ref="1169918286"/>
    <nd ref="320025485"/>
    <nd ref="320025486"/>
    <nd ref="320025468"/>
    <nd ref="320025472"/>
    <nd ref="320025473"/>
    <tag k="addr:housenumber" v="18"/>
    <tag k="addr:street" v="Karowa"/>
    <tag k="building" v="yes"/>
  </way>
  <way id="29093788" version="3" timestamp="2011-11-05T16:06:04Z" uid="91056" user="Yarl" changeset="9747689">
    <nd ref="320025473"/>
    <nd ref="320025466"/>
    <nd ref="320025464"/>
    <nd ref="1169918141"/>
    <nd ref="1169918143"/>
    <nd ref="1169918286"/>
    <nd ref="320025485"/>
    <nd ref="320025486"/>
    <nd ref="320025468"/>
    <nd ref="320025472"/>
    <nd ref="320025473"/>
    <tag k="addr:housenumber" v="18"/>
    <tag k="addr:street" v="Karowa"/>
    <tag k="building" v="yes"/>
  </way>
  <way id="29093788" version="4" timestamp="2012-02-27T11:23:07Z" uid="99386" user="masti" changeset="10807491">
    <nd ref="1650250422"/>
    <nd ref="1650250420"/>
    <nd ref="1650250421"/>
    <nd ref="320025468"/>
    <nd ref="1650250422"/>
    <tag k="addr:housenumber" v="18"/>
    <tag k="addr:street" v="Karowa"/>
    <tag k="building" v="yes"/>
  </way>
  <way id="29093947" version="3" timestamp="2009-11-12T01:26:07Z" uid="103576" user="DiverCTH" changeset="3095070">
    <nd ref="320026956"/>
    <nd ref="69600232"/>
    <nd ref="69256335"/>
    <nd ref="69173414"/>
    <nd ref="69436196"/>
    <tag k="highway" v="residential"/>
    <tag k="name" v="Seminole Ave NE"/>
    <tag k="tiger:cfcc" v="A41"/>
    <tag k="tiger:county" v="Fulton, GA"/>
    <tag k="tiger:name_base" v="Seminole"/>
    <tag k="tiger:name_direction_suffix" v="NE"/>
    <tag k="tiger:name_type" v="Ave"/>
    <tag k="tiger:reviewed" v="no"/>
    <tag k="tiger:separated" v="no"/>
    <tag k="tiger:source" v="tiger_import_dch_v0.6_20070809"/>
    <tag k="tiger:tlid" v="17408388"/>
    <tag k="tiger:upload_uuid" v="bulk_upload.pl-c8274ca7-1e7e-4947-a610-ec552689e057"/>
  </way>
  <way id="29093947" version="4" timestamp="2009-11-12T05:44:12Z" uid="103576" user="DiverCTH" changeset="3095661">
    <nd ref="320026956"/>
    <nd ref="69600232"/>
    <nd ref="69256335"/>
    <nd ref="69173414"/>
    <nd ref="69436196"/>
    <tag k="highway" v="residential"/>
    <tag k="name" v="Seminole Avenue Northeast"/>
    <tag k="tiger:cfcc" v="A41"/>
    <tag k="tiger:county" v="Fulton, GA"/>
    <tag k="tiger:name_base" v="Seminole"/>
    <tag k="tiger:name_direction_suffix" v="NE"/>
    <tag k="tiger:name_type" v="Ave"/>
    <tag k="tiger:reviewed" v="no"/>
    <tag k="tiger:separated" v="no"/>
    <tag k="tiger:source" v="tiger_import_dch_v0.6_20070809"/>
    <tag k="tiger:tlid" v="17408388"/>
    <tag k="tiger:upload_uuid" v="bulk_upload.pl-c8274ca7-1e7e-4947-a610-ec552689e057"/>
  </way>
  <way id="29093947" version="5" timestamp="2009-11-14T03:11:05Z" uid="103576" user="DiverCTH" changeset="3110424">
    <nd ref="320026956"/>
    <nd ref="69600232"/>
    <nd ref="69256335"/>
    <nd ref="69173414"/>
    <nd ref="69436196"/>
    <tag k="highway" v="residential"/>
    <tag k="name" v="Seminole Avenue Northeast"/>
    <tag k="ref" v="US:GA 42;"/>
    <tag k="tiger:cfcc" v="A41"/>
    <tag k="tiger:county" v="Fulton, GA"/>
    <tag k="tiger:name_base" v="Seminole"/>
    <tag k="tiger:name_direction_suffix" v="NE"/>
    <tag k="tiger:name_type" v="Ave"/>
    <tag k="tiger:reviewed" v="no"/>
    <tag k="tiger:separated" v="no"/>
    <tag k="tiger:source" v="tiger_import_dch_v0.6_20070809"/>
    <tag k="tiger:tlid" v="17408388"/>
    <tag k="tiger:upload_uuid" v="bulk_upload.pl-c8274ca7-1e7e-4947-a610-ec552689e057"/>
  </way>
  <way id="29093947" version="6" timestamp="2010-12-06T07:32:53Z" uid="207745" user="NE2" changeset="6559912">
    <nd ref="320026956"/>
    <nd ref="69600232"/>
    <nd ref="69256335"/>
    <nd ref="69173414"/>
    <nd ref="69436196"/>
    <tag k="highway" v="residential"/>
    <tag k="name" v="Seminole Avenue Northeast"/>
    <tag k="tiger:cfcc" v="A41"/>
    <tag k="tiger:county" v="Fulton, GA"/>
    <tag k="tiger:name_base" v="Seminole"/>
    <tag k="tiger:name_direction_suffix" v="NE"/>
    <tag k="tiger:name_type" v="Ave"/>
    <tag k="tiger:reviewed" v="no"/>
    <tag k="tiger:separated" v="no"/>
    <tag k="tiger:source" v="tiger_import_dch_v0.6_20070809"/>
    <tag k="tiger:tlid" v="17408388"/>
    <tag k="tiger:upload_uuid" v="bulk_upload.pl-c8274ca7-1e7e-4947-a610-ec552689e057"/>
  </way>
</osm>
