<?xml version='1.0' encoding='UTF-8'?>
<osm version="0.6" generator="libosmium/2.20.0">
  <way id="29109326" version="5" timestamp="2009-01-01T12:47:31Z" uid="6975" user="ulfl" changeset="699648">
    <nd ref="314416405"/>
    <nd ref="320194482"/>
    <tag k="bridge" v="yes"/>
    <tag k="highway" v="track"/>
    <tag k="layer" v="1"/>
    <tag k="tracktype" v="grade1"/>
  </way>
  <way id="29109564" version="4" timestamp="2010-08-27T06:48:53Z" uid="4467" user="Rosscoe" changeset="5604881">
    <nd ref="320196516"/>
    <nd ref="33172865"/>
    <nd ref="658924601"/>
    <nd ref="26784758"/>
    <nd ref="864633949"/>
    <nd ref="26784759"/>
    <nd ref="14166510"/>
    <tag k="highway" v="unclassified"/>
    <tag k="name" v="Challis Street"/>
    <tag k="oneway" v="yes"/>
  </way>
  <way id="29109564" version="5" timestamp="2010-08-27T06:53:28Z" uid="4467" user="Rosscoe" changeset="5604908">
    <nd ref="320196516"/>
    <nd ref="33172865"/>
    <nd ref="26784758"/>
    <nd ref="864633949"/>
    <nd ref="26784759"/>
    <nd ref="14166510"/>
    <tag k="highway" v="unclassified"/>
    <tag k="name" v="Challis Street"/>
    <tag k="oneway" v="yes"/>
  </way>
  <way id="29109621" version="9" timestamp="2010-08-27T06:53:30Z" uid="4467" user="Rosscoe" changeset="5604908"/>
  <way id="29109736" version="3" timestamp="2009-02-08T22:53:43Z" uid="6975" user="ulfl" changeset="302124">
    <nd ref="320183633"/>
    <nd ref="320198396"/>
    <tag k="highway" v="bridleway"/>
    <tag k="name" v="Jurrasic Way"/>
  </way>
  <way id="29109736" version="4" timestamp="2011-05-24T21:52:23Z" uid="2274" user="Ben" changeset="8240200">
    <nd ref="320183633"/>
    <nd ref="320198396"/>
    <tag k="designation" v="public_bridleway"/>
    <tag k="name" v="Jurrasic Way"/>
  </way>
  <way id="29109736" version="5" timestamp="2011-05-25T23:11:45Z" uid="2274" user="Ben" changeset="8249501">
    <nd ref="320183633"/>
    <nd ref="320198396"/>
    <tag k="designation" v="public_bridleway"/>
    <tag k="highway" v="path"/>
    <tag k="name" v="Jurrasic Way"/>
  </way>
  <way id="29109736" version="6" timestamp="2011-05-26T13:58:40Z" uid="2274" user="Ben" changeset="8253842">
    <nd ref="320183633"/>
    <nd ref="320198396"/>
    <tag k="bicycle" v="designated"/>
    <tag k="designation" v="public_bridleway"/>
    <tag k="foot" v="designated"/>
    <tag k="highway" v="path"/>
    <tag k="horse" v="designated"/>
    <tag k="name" v="Jurrasic Way"/>
  </way>
  <way id="29109832" version="2" timestamp="2010-07-07T08:51:31Z" uid="74617" user="JohnSmith" changeset="5156250">
    <nd ref="320199170"/>
    <nd ref="320199171"/>
    <tag k="bridge" v="yes"/>
    <tag k="highway" v="residential"/>
    <tag k="layer" v="1"/>
    <tag k="maxspeed" v="50"/>
    <tag k="maxspeed:source" v="default residential speed limit in Australia"/>
    <tag k="name" v="Miller Street"/>
    <tag k="source" v="image"/>
  </way>
  <way id="29109832" version="3" timestamp="2010-08-21T10:16:34Z" uid="12434" user="nm7s9" changeset="5550612">
    <nd ref="320199170"/>
    <nd ref="320199171"/>
    <tag k="bridge" v="yes"/>
    <tag k="bridge_number" v="2003"/>
    <tag k="highway" v="residential"/>
    <tag k="layer" v="1"/>
    <tag k="maxspeed" v="50"/>
    <tag k="maxspeed:source" v="default residential speed limit in Australia"/>
    <tag k="name" v="Miller Street"/>
    <tag k="source" v="image"/>
  </way>
  <way id="29109832" version="4" timestamp="2012-01-18T00:35:39Z" uid="147510" user="woodpeck_fixbot" changeset="10423581">
    <nd ref="320199170"/>
    <nd ref="320199171"/>
    <tag k="bridge" v="yes"/>
    <tag k="bridge_number" v="2003"/>
    <tag k="highway" v="residential"/>
    <tag k="layer" v="1"/>
    <tag k="name" v="Miller Street"/>
    <tag k="source" v="image"/>
  </way>
  <way id="29109833" version="3" timestamp="2010-07-07T08:47:16Z" uid="74617" user="JohnSmith" changeset="5156250">
    <nd ref="320199171"/>
    <nd ref="148279758"/>
    <nd ref="26925609"/>
    <nd ref="26921423"/>
    <nd ref="22120151"/>
    <nd ref="22120150"/>
    <nd ref="26921381"/>
    <nd ref="26925701"/>
    <nd ref="22120149"/>
    <nd ref="26903225"/>
    <tag k="highway" v="residential"/>
    <tag k="maxspeed" v="50"/>
    <tag k="maxspeed:source" v="default residential speed limit in Australia"/>
    <tag k="name" v="Miller Street"/>
    <tag k="source" v="image"/>
  </way>
  <way id="29109833" version="4" timestamp="2010-08-27T12:04:42Z" uid="232912" user="Jack Kirby" changeset="5607013">
    <nd ref="320199171"/>
    <nd ref="148279758"/>
    <nd ref="26925609"/>
    <nd ref="26921423"/>
    <nd ref="22120151"/>
    <nd ref="22120150"/>
    <nd ref="26921381"/>
    <nd ref="26925701"/>
    <nd ref="882358107"/>
    <nd ref="22120149"/>
    <nd ref="882359193"/>
    <nd ref="26903225"/>
    <tag k="highway" v="residential"/>
    <tag k="maxspeed" v="50"/>
    <tag k="maxspeed:source" v="default residential speed limit in Australia"/>
    <tag k="name" v="Miller Street"/>
    <tag k="source" v="image"/>
  </way>
  <way id="29109833" version="5" timestamp="2010-09-09T10:53:48Z" uid="232912" user="Jack Kirby" changeset="5731290">
    <nd ref="320199171"/>
    <nd ref="148279758"/>
    <nd ref="26925609"/>
    <nd ref="26921423"/>
    <nd ref="903971438"/>
    <nd ref="22120151"/>
    <nd ref="22120150"/>
    <nd ref="903971250"/>
    <nd ref="26921381"/>
    <nd ref="26925701"/>
    <nd ref="882358107"/>
    <nd ref="22120149"/>
    <nd ref="882359193"/>
    <nd ref="26903225"/>
    <tag k="highway" v="residential"/>
    <tag k="maxspeed" v="50"/>
    <tag k="maxspeed:source" v="default residential speed limit in Australia"/>
    <tag k="name" v="Miller Street"/>
    <tag k="source" v="image"/>
  </way>
  <way id="29109833" version="6" timestamp="2012-01-18T00:35:41Z" uid="147510" user="woodpeck_fixbot" changeset="10423581">
    <nd ref="320199171"/>
    <nd ref="148279758"/>
    <nd ref="26925609"/>
    <nd ref="26921423"/>
    <nd ref="903971438"/>
    <nd ref="22120151"/>
    <nd ref="22120150"/>
    <nd ref="903971250"/>
    <nd ref="26921381"/>
    <nd ref="26925701"/>
    <nd ref="882358107"/>
    <nd ref="22120149"/>
    <nd ref="882359193"/>
    <nd ref="26903225"/>
    <tag k="highway" v="residential"/>
    <tag k="name" v="Miller Street"/>
    <tag k="source" v="image"/>
  </way>
</osm>
