<?xml version='1.0' encoding='UTF-8'?>
<osm version="0.6" generator="libosmium/2.20.0">
  <way id="29173017" version="3" timestamp="2010-07-08T20:01:21Z" uid="74617" user="JohnSmith" changeset="5168730">
    <nd ref="320846701"/>
    <nd ref="320847731"/>
    <nd ref="320847243"/>
    <tag k="highway" v="residential"/>
    <tag k="maxspeed" v="50"/>
    <tag k="maxspeed:source" v="default residential speed limit in Australia"/>
    <tag k="name" v="Hansen Street"/>
    <tag k="source" v="MMBW"/>
  </way>
  <way id="29173017" version="4" timestamp="2012-01-18T00:46:46Z" uid="147510" user="woodpeck_fixbot" changeset="10423581">
    <nd ref="320846701"/>
    <nd ref="320847731"/>
    <nd ref="320847243"/>
    <tag k="highway" v="residential"/>
    <tag k="name" v="Hansen Street"/>
    <tag k="source" v="MMBW"/>
  </way>
  <way id="29173036" version="2" timestamp="2010-07-08T20:01:41Z" uid="74617" user="JohnSmith" changeset="5168730">
    <nd ref="320847319"/>
    <nd ref="320847419"/>
    <nd ref="320847420"/>
    <nd ref="320847421"/>
    <tag k="highway" v="residential"/>
    <tag k="maxspeed" v="50"/>
    <tag k="maxspeed:source" v="default residential speed limit in Australia"/>
    <tag k="name" v="Exhibition Street"/>
    <tag k="source" v="MMBW"/>
  </way>
  <way id="29173036" version="3" timestamp="2012-01-18T00:46:47Z" uid="147510" user="woodpeck_fixbot" changeset="10423581">
    <nd ref="320847319"/>
    <nd ref="320847419"/>
    <nd ref="320847420"/>
    <nd ref="320847421"/>
    <tag k="highway" v="residential"/>
    <tag k="name" v="Exhibition Street"/>
    <tag k="source" v="MMBW"/>
  </way>
  <way id="29173056" version="2" timestamp="2010-07-08T19:57:53Z" uid="74617" user="JohnSmith" changeset="5168730">
    <nd ref="320847419"/>
    <nd ref="320847617"/>
    <tag k="highway" v="residential"/>
    <tag k="maxspeed" v="50"/>
    <tag k="maxspeed:source" v="default residential speed limit in Australia"/>
    <tag k="name" v="Centennial Street"/>
    <tag k="source" v="MMBW"/>
  </way>
  <way id="29173056" version="3" timestamp="2012-01-18T00:46:50Z" uid="147510" user="woodpeck_fixbot" changeset="10423581">
    <nd ref="320847419"/>
    <nd ref="320847617"/>
    <tag k="highway" v="residential"/>
    <tag k="name" v="Centennial Street"/>
    <tag k="source" v="MMBW"/>
  </way>
  <way id="29173076" version="2" timestamp="2010-07-08T20:01:15Z" uid="74617" user="JohnSmith" changeset="5168730">
    <nd ref="320847731"/>
    <nd ref="320847789"/>
    <tag k="highway" v="residential"/>
    <tag k="maxspeed" v="50"/>
    <tag k="maxspeed:source" v="default residential speed limit in Australia"/>
    <tag k="name" v="Nesnah Street"/>
    <tag k="source" v="MMBW"/>
  </way>
  <way id="29173076" version="3" timestamp="2012-01-18T00:46:52Z" uid="147510" user="woodpeck_fixbot" changeset="10423581">
    <nd ref="320847731"/>
    <nd ref="320847789"/>
    <tag k="highway" v="residential"/>
    <tag k="name" v="Nesnah Street"/>
    <tag k="source" v="MMBW"/>
  </way>
  <way id="29173098" version="2" timestamp="2010-07-08T19:58:25Z" uid="74617" user="JohnSmith" changeset="5168730">
    <nd ref="320847931"/>
    <nd ref="320847987"/>
    <tag k="highway" v="residential"/>
    <tag k="maxspeed" v="50"/>
    <tag k="maxspeed:source" v="default residential speed limit in Australia"/>
    <tag k="name" v="Kathleen Street"/>
    <tag k="source" v="MMBW"/>
  </way>
  <way id="29173098" version="3" timestamp="2012-01-18T00:46:54Z" uid="147510" user="woodpeck_fixbot" changeset="10423581">
    <nd ref="320847931"/>
    <nd ref="320847987"/>
    <tag k="highway" v="residential"/>
    <tag k="name" v="Kathleen Street"/>
    <tag k="source" v="MMBW"/>
  </way>
  <way id="29173103" version="2" timestamp="2010-07-08T19:59:22Z" uid="74617" user="JohnSmith" changeset="5168730">
    <nd ref="320847987"/>
    <nd ref="320848083"/>
    <tag k="highway" v="residential"/>
    <tag k="maxspeed" v="50"/>
    <tag k="maxspeed:source" v="default residential speed limit in Australia"/>
    <tag k="name" v="Duke Street"/>
    <tag k="source" v="MMBW"/>
  </way>
  <way id="29173103" version="3" timestamp="2012-01-18T00:46:58Z" uid="147510" user="woodpeck_fixbot" changeset="10423581">
    <nd ref="320847987"/>
    <nd ref="320848083"/>
    <tag k="highway" v="residential"/>
    <tag k="name" v="Duke Street"/>
    <tag k="source" v="MMBW"/>
  </way>
  <way id="29173122" version="2" timestamp="2010-07-08T19:56:50Z" uid="74617" user="JohnSmith" changeset="5168730">
    <nd ref="320848083"/>
    <nd ref="320848174"/>
    <tag k="highway" v="residential"/>
    <tag k="maxspeed" v="50"/>
    <tag k="maxspeed:source" v="default residential speed limit in Australia"/>
    <tag k="name" v="Bruce Street"/>
    <tag k="source" v="MMBW"/>
  </way>
  <way id="29173122" version="3" timestamp="2012-01-18T00:47:00Z" uid="147510" user="woodpeck_fixbot" changeset="10423581">
    <nd ref="320848083"/>
    <nd ref="320848174"/>
    <tag k="highway" v="residential"/>
    <tag k="name" v="Bruce Street"/>
    <tag k="source" v="MMBW"/>
  </way>
  <way id="29173131" version="4" timestamp="2009-01-01T14:41:05Z" uid="6975" user="ulfl" changeset="699648">
    <nd ref="320839558"/>
    <nd ref="320842178"/>
    <tag k="highway" v="track"/>
    <tag k="tracktype" v="grade5"/>
  </way>
  <way id="29173131" version="5" timestamp="2009-11-15T23:01:13Z" uid="102228" user="gowr" changeset="3128086"/>
  <way id="29173132" version="4" timestamp="2009-01-01T14:41:08Z" uid="6975" user="ulfl" changeset="699648">
    <nd ref="320799181"/>
    <nd ref="320842206"/>
    <nd ref="320838783"/>
    <tag k="highway" v="track"/>
    <tag k="tracktype" v="grade5"/>
  </way>
  <way id="29173132" version="5" timestamp="2009-01-10T18:48:01Z" uid="21417" user="wildMan" changeset="766364"/>
  <way id="29173134" version="4" timestamp="2009-01-01T14:41:11Z" uid="6975" user="ulfl" changeset="699648">
    <nd ref="320842232"/>
    <nd ref="320709817"/>
    <nd ref="320709816"/>
    <tag k="highway" v="track"/>
    <tag k="tracktype" v="grade5"/>
  </way>
  <way id="29173134" version="5" timestamp="2009-01-10T16:44:54Z" uid="21417" user="wildMan" changeset="765943">
    <nd ref="320842232"/>
    <nd ref="320709817"/>
    <nd ref="320709816"/>
    <nd ref="320795575"/>
    <nd ref="320795574"/>
    <nd ref="320795576"/>
    <nd ref="320837638"/>
    <nd ref="320837641"/>
    <nd ref="320837644"/>
    <nd ref="320837647"/>
    <nd ref="320837648"/>
    <nd ref="320837649"/>
    <nd ref="320787432"/>
    <tag k="highway" v="track"/>
    <tag k="tracktype" v="grade5"/>
  </way>
  <way id="29173134" version="6" timestamp="2010-04-07T20:39:38Z" uid="102228" user="gowr" changeset="4358542"/>
  <way id="29173135" version="4" timestamp="2009-01-01T14:41:10Z" uid="6975" user="ulfl" changeset="699648">
    <nd ref="320838790"/>
    <nd ref="320837892"/>
    <tag k="highway" v="track"/>
    <tag k="tracktype" v="grade5"/>
  </way>
  <way id="29173135" version="5" timestamp="2009-01-10T16:48:45Z" uid="21417" user="wildMan" changeset="765943">
    <nd ref="320838790"/>
    <nd ref="320837892"/>
    <nd ref="320837891"/>
    <nd ref="320837893"/>
    <nd ref="320837894"/>
    <nd ref="320837895"/>
    <tag k="highway" v="track"/>
    <tag k="tracktype" v="grade5"/>
  </way>
  <way id="29173135" version="6" timestamp="2009-06-29T09:31:36Z" uid="102228" user="gowr" changeset="1674941">
    <nd ref="320797564"/>
    <nd ref="320838790"/>
    <nd ref="320837891"/>
    <nd ref="320837893"/>
    <nd ref="320837894"/>
    <nd ref="320837895"/>
    <tag k="highway" v="track"/>
    <tag k="tracktype" v="grade5"/>
  </way>
  <way id="29173135" version="7" timestamp="2010-12-15T21:56:17Z" uid="102228" user="gowr" changeset="6670003"/>
  <way id="29173164" version="5" timestamp="2010-07-08T20:00:22Z" uid="74617" user="JohnSmith" changeset="5168730">
    <nd ref="320848271"/>
    <nd ref="320848544"/>
    <nd ref="320848304"/>
    <nd ref="320848277"/>
    <tag k="highway" v="residential"/>
    <tag k="maxspeed" v="50"/>
    <tag k="maxspeed:source" v="default residential speed limit in Australia"/>
    <tag k="name" v="Currajong Street"/>
    <tag k="source" v="MMBW"/>
  </way>
  <way id="29173164" version="6" timestamp="2012-01-18T00:47:02Z" uid="147510" user="woodpeck_fixbot" changeset="10423581">
    <nd ref="320848271"/>
    <nd ref="320848544"/>
    <nd ref="320848304"/>
    <nd ref="320848277"/>
    <tag k="highway" v="residential"/>
    <tag k="name" v="Currajong Street"/>
    <tag k="source" v="MMBW"/>
  </way>
  <way id="29173196" version="2" timestamp="2010-07-08T19:57:02Z" uid="74617" user="JohnSmith" changeset="5168730">
    <nd ref="320848544"/>
    <nd ref="320848672"/>
    <tag k="highway" v="residential"/>
    <tag k="maxspeed" v="50"/>
    <tag k="maxspeed:source" v="default residential speed limit in Australia"/>
    <tag k="name" v="Braid Street"/>
    <tag k="source" v="MMBW"/>
  </way>
  <way id="29173196" version="3" timestamp="2012-01-18T00:47:03Z" uid="147510" user="woodpeck_fixbot" changeset="10423581">
    <nd ref="320848544"/>
    <nd ref="320848672"/>
    <tag k="highway" v="residential"/>
    <tag k="name" v="Braid Street"/>
    <tag k="source" v="MMBW"/>
  </way>
  <way id="29173207" version="2" timestamp="2010-07-08T19:56:46Z" uid="74617" user="JohnSmith" changeset="5168730">
    <nd ref="320848672"/>
    <nd ref="320848855"/>
    <tag k="highway" v="residential"/>
    <tag k="maxspeed" v="50"/>
    <tag k="maxspeed:source" v="default residential speed limit in Australia"/>
    <tag k="name" v="Stradbroke Street"/>
    <tag k="source" v="MMBW"/>
  </way>
  <way id="29173207" version="3" timestamp="2012-01-18T00:47:05Z" uid="147510" user="woodpeck_fixbot" changeset="10423581">
    <nd ref="320848672"/>
    <nd ref="320848855"/>
    <tag k="highway" v="residential"/>
    <tag k="name" v="Stradbroke Street"/>
    <tag k="source" v="MMBW"/>
  </way>
  <way id="29173224" version="5" timestamp="2010-07-08T19:55:59Z" uid="74617" user="JohnSmith" changeset="5168730">
    <nd ref="320846339"/>
    <nd ref="320848933"/>
    <nd ref="320849139"/>
    <tag k="highway" v="residential"/>
    <tag k="maxspeed" v="50"/>
    <tag k="maxspeed:source" v="default residential speed limit in Australia"/>
    <tag k="name" v="Graingers Road"/>
    <tag k="source" v="MMBW"/>
  </way>
  <way id="29173224" version="6" timestamp="2011-03-23T07:04:15Z" uid="4467" user="Rosscoe" changeset="7643838">
    <nd ref="320846339"/>
    <nd ref="320848933"/>
    <nd ref="320849139"/>
    <tag k="highway" v="residential"/>
    <tag k="maxspeed" v="50"/>
    <tag k="name" v="Graingers Road"/>
    <tag k="source" v="MMBW"/>
    <tag k="source:maxspeed" v="default residential speed limit in Australia"/>
  </way>
  <way id="29173224" version="7" timestamp="2012-01-18T00:47:06Z" uid="147510" user="woodpeck_fixbot" changeset="10423581">
    <nd ref="320846339"/>
    <nd ref="320848933"/>
    <nd ref="320849139"/>
    <tag k="highway" v="residential"/>
    <tag k="name" v="Graingers Road"/>
    <tag k="source" v="MMBW"/>
    <tag k="source:maxspeed" v="default residential speed limit in Australia"/>
  </way>
  <way id="29173259" version="2" timestamp="2010-07-08T19:55:45Z" uid="74617" user="JohnSmith" changeset="5168730">
    <nd ref="320849139"/>
    <nd ref="320849180"/>
    <nd ref="320849181"/>
    <tag k="highway" v="residential"/>
    <tag k="maxspeed" v="50"/>
    <tag k="maxspeed:source" v="default residential speed limit in Australia"/>
  </way>
  <way id="29173259" version="3" timestamp="2012-01-18T00:47:08Z" uid="147510" user="woodpeck_fixbot" changeset="10423581">
    <nd ref="320849139"/>
    <nd ref="320849180"/>
    <nd ref="320849181"/>
    <tag k="highway" v="residential"/>
  </way>
  <way id="29173271" version="3" timestamp="2010-07-08T19:56:11Z" uid="74617" user="JohnSmith" changeset="5168730">
    <nd ref="75136370"/>
    <nd ref="320849218"/>
    <nd ref="320849139"/>
    <tag k="highway" v="residential"/>
    <tag k="maxspeed" v="50"/>
    <tag k="maxspeed:source" v="default residential speed limit in Australia"/>
    <tag k="oneway" v="yes"/>
  </way>
  <way id="29173271" version="4" timestamp="2012-01-18T00:47:11Z" uid="147510" user="woodpeck_fixbot" changeset="10423581">
    <nd ref="75136370"/>
    <nd ref="320849218"/>
    <nd ref="320849139"/>
    <tag k="highway" v="residential"/>
    <tag k="oneway" v="yes"/>
  </way>
  <way id="29173414" version="2" timestamp="2010-03-28T00:26:38Z" uid="20587" user="balrog-kun" changeset="4250871">
    <nd ref="123152137"/>
    <nd ref="123583972"/>
    <nd ref="122668293"/>
    <nd ref="123058530"/>
    <nd ref="123058526"/>
    <nd ref="123349328"/>
    <nd ref="123583975"/>
    <nd ref="123583979"/>
    <nd ref="123583981"/>
    <tag k="highway" v="residential"/>
    <tag k="name" v="West 111th Street"/>
    <tag k="tiger:cfcc" v="A41"/>
    <tag k="tiger:county" v="Los Angeles, CA"/>
    <tag k="tiger:name_base" v="111th"/>
    <tag k="tiger:name_direction_prefix" v="W"/>
    <tag k="tiger:name_type" v="St"/>
    <tag k="tiger:reviewed" v="no"/>
    <tag k="tiger:separated" v="no"/>
    <tag k="tiger:source" v="tiger_import_dch_v0.6_20070809"/>
    <tag k="tiger:tlid" v="141660869:141661450:141661455:141661456:141661457:141661459:141660871:141661546:141661556:141661557:141661826:141661828:141661547"/>
    <tag k="tiger:zip_left" v="90044"/>
    <tag k="tiger:zip_right" v="90044"/>
  </way>
  <way id="29173415" version="2" timestamp="2010-03-28T00:26:38Z" uid="20587" user="balrog-kun" changeset="4250871">
    <nd ref="122768982"/>
    <nd ref="279643680"/>
    <tag k="created_by" v="Potlatch 0.10"/>
    <tag k="highway" v="residential"/>
    <tag k="name" v="South New Hampshire Avenue"/>
    <tag k="tiger:cfcc" v="A41"/>
    <tag k="tiger:county" v="Los Angeles, CA"/>
    <tag k="tiger:name_base" v="New Hampshire"/>
    <tag k="tiger:name_direction_prefix" v="S"/>
    <tag k="tiger:name_type" v="Ave"/>
    <tag k="tiger:reviewed" v="no"/>
    <tag k="tiger:separated" v="no"/>
    <tag k="tiger:source" v="tiger_import_dch_v0.6_20070809"/>
    <tag k="tiger:tlid" v="142455617"/>
    <tag k="tiger:zip_left" v="90044"/>
    <tag k="tiger:zip_right" v="90044"/>
  </way>
  <way id="29173694" version="3" timestamp="2009-12-13T13:09:43Z" uid="4467" user="Rosscoe" changeset="3362650">
    <nd ref="320852621"/>
    <nd ref="588465777"/>
    <tag k="highway" v="primary"/>
    <tag k="name" v="Paramount Road"/>
    <tag k="ref" v="S39"/>
    <tag k="source" v="nearmap"/>
  </way>
  <way id="29173694" version="4" timestamp="2010-04-06T06:56:43Z" uid="74617" user="JohnSmith" changeset="4340624">
    <nd ref="320852621"/>
    <nd ref="588465777"/>
    <tag k="highway" v="primary"/>
    <tag k="name" v="Paramount Road"/>
    <tag k="source" v="nearmap"/>
  </way>
  <way id="29173707" version="5" timestamp="2009-12-12T22:54:07Z" uid="46482" user="Leon K" changeset="3359388">
    <nd ref="320852621"/>
    <nd ref="250291493"/>
    <nd ref="370708433"/>
    <nd ref="321400652"/>
    <nd ref="250291494"/>
    <nd ref="588140726"/>
    <nd ref="250291495"/>
    <tag k="highway" v="primary"/>
    <tag k="name" v="Somerville Road"/>
    <tag k="ref" v="S39"/>
  </way>
  <way id="29173707" version="6" timestamp="2009-12-12T23:03:30Z" uid="46482" user="Leon K" changeset="3359388">
    <nd ref="320852621"/>
    <nd ref="250291493"/>
    <nd ref="370708433"/>
    <nd ref="321400652"/>
    <nd ref="250291494"/>
    <nd ref="588142736"/>
    <nd ref="588140726"/>
    <nd ref="250291495"/>
    <tag k="highway" v="primary"/>
    <tag k="name" v="Somerville Road"/>
    <tag k="ref" v="S39"/>
  </way>
  <way id="29173707" version="7" timestamp="2009-12-13T13:09:43Z" uid="4467" user="Rosscoe" changeset="3362650">
    <nd ref="320852621"/>
    <nd ref="588465776"/>
    <nd ref="370708433"/>
    <nd ref="321400652"/>
    <nd ref="250291494"/>
    <nd ref="588142736"/>
    <nd ref="588140726"/>
    <nd ref="250291495"/>
    <tag k="highway" v="primary"/>
    <tag k="name" v="Somerville Road"/>
    <tag k="ref" v="S39"/>
    <tag k="source" v="nearmap"/>
  </way>
  <way id="29173707" version="8" timestamp="2010-04-06T06:56:43Z" uid="74617" user="JohnSmith" changeset="4340624">
    <nd ref="320852621"/>
    <nd ref="588465776"/>
    <nd ref="370708433"/>
    <nd ref="321400652"/>
    <nd ref="250291494"/>
    <nd ref="588142736"/>
    <nd ref="588140726"/>
    <nd ref="250291495"/>
    <tag k="highway" v="primary"/>
    <tag k="name" v="Somerville Road"/>
    <tag k="source" v="nearmap"/>
  </way>
  <way id="29173716" version="4" timestamp="2009-12-13T13:09:40Z" uid="4467" user="Rosscoe" changeset="3362650">
    <nd ref="250291495"/>
    <nd ref="390289452"/>
    <nd ref="390289507"/>
    <nd ref="250291496"/>
    <nd ref="75143139"/>
    <tag k="highway" v="primary"/>
    <tag k="name" v="Somerville Road"/>
    <tag k="source" v="nearmap"/>
  </way>
  <way id="29173716" version="5" timestamp="2010-03-10T02:50:23Z" uid="201443" user="stevage" changeset="4086060">
    <nd ref="250291495"/>
    <nd ref="390289452"/>
    <nd ref="390289507"/>
    <nd ref="663501628"/>
    <nd ref="250291496"/>
    <nd ref="75143139"/>
    <tag k="highway" v="primary"/>
    <tag k="name" v="Somerville Road"/>
    <tag k="source" v="nearmap"/>
  </way>
  <way id="29173962" version="3" timestamp="2010-04-05T21:50:26Z" uid="74617" user="JohnSmith" changeset="4338595">
    <nd ref="250291495"/>
    <nd ref="458644982"/>
    <nd ref="320853350"/>
    <nd ref="320853351"/>
    <nd ref="320853352"/>
    <nd ref="685954912"/>
    <tag k="highway" v="primary"/>
    <tag k="name" v="McDonald Road"/>
    <tag k="ref" v="S39; S41"/>
  </way>
  <way id="29173962" version="4" timestamp="2010-04-05T21:56:31Z" uid="74617" user="JohnSmith" changeset="4338595">
    <nd ref="250291495"/>
    <nd ref="458644982"/>
    <nd ref="320853350"/>
    <nd ref="320853351"/>
    <nd ref="320853352"/>
    <nd ref="685954912"/>
    <tag k="highway" v="primary"/>
    <tag k="name" v="McDonald Road"/>
    <tag k="ref" v="S39; S41"/>
  </way>
  <way id="29173962" version="5" timestamp="2010-04-06T07:04:00Z" uid="74617" user="JohnSmith" changeset="4340624">
    <nd ref="250291495"/>
    <nd ref="458644982"/>
    <nd ref="320853350"/>
    <nd ref="320853351"/>
    <nd ref="320853352"/>
    <nd ref="685954912"/>
    <tag k="highway" v="primary"/>
    <tag k="name" v="McDonald Road"/>
  </way>
  <way id="29173962" version="6" timestamp="2011-01-10T04:23:58Z" uid="201443" user="stevage" changeset="6923023">
    <nd ref="250291495"/>
    <nd ref="1095930845"/>
    <nd ref="1095930847"/>
    <nd ref="458644982"/>
    <nd ref="320853350"/>
    <nd ref="320853351"/>
    <nd ref="320853352"/>
    <nd ref="685954912"/>
    <tag k="highway" v="primary"/>
    <tag k="name" v="McDonald Road"/>
  </way>
  <way id="29173962" version="7" timestamp="2011-08-23T07:49:49Z" uid="320632" user="Zulu99" changeset="9100857">
    <nd ref="250291495"/>
    <nd ref="1095930845"/>
    <nd ref="1095930847"/>
    <nd ref="458644982"/>
    <nd ref="1409468774"/>
    <nd ref="320853350"/>
    <nd ref="320853351"/>
    <nd ref="320853352"/>
    <nd ref="685954912"/>
    <tag k="highway" v="primary"/>
    <tag k="name" v="McDonald Road"/>
  </way>
</osm>
