<?xml version='1.0' encoding='UTF-8'?>
<osm version="0.6" generator="libosmium/2.20.0">
  <way id="29201000" version="1" timestamp="2008-12-23T09:35:32Z" uid="58091" user="Andreas M" changeset="575702">
    <nd ref="321201575"/>
    <nd ref="296151538"/>
    <nd ref="296151537"/>
    <nd ref="321201576"/>
    <nd ref="321201575"/>
    <tag k="addr:city" v="Wien"/>
    <tag k="addr:housenumber" v="9"/>
    <tag k="addr:postcode" v="1190"/>
    <tag k="addr:street" v="Pokornygasse"/>
    <tag k="building" v="yes"/>
  </way>
  <way id="29201000" version="2" timestamp="2009-01-18T11:21:49Z" uid="38255" user="BearT" changeset="805541">
    <nd ref="321201575"/>
    <nd ref="296151538"/>
    <nd ref="296151537"/>
    <nd ref="321201576"/>
    <nd ref="321201575"/>
    <tag k="addr:city" v="Wien"/>
    <tag k="addr:country" v="at"/>
    <tag k="addr:housenumber" v="9"/>
    <tag k="addr:postcode" v="1190"/>
    <tag k="addr:street" v="Pokornygasse"/>
    <tag k="building" v="yes"/>
    <tag k="created_by" v="Merkaartor 0.13"/>
  </way>
  <way id="29201000" version="3" timestamp="2009-01-22T07:24:50Z" uid="70696" user="xybot" changeset="822919">
    <nd ref="321201575"/>
    <nd ref="296151538"/>
    <nd ref="296151537"/>
    <nd ref="321201576"/>
    <nd ref="321201575"/>
    <tag k="addr:city" v="Wien"/>
    <tag k="addr:country" v="AT"/>
    <tag k="addr:housenumber" v="9"/>
    <tag k="addr:postcode" v="1190"/>
    <tag k="addr:street" v="Pokornygasse"/>
    <tag k="building" v="yes"/>
    <tag k="created_by" v="xybot"/>
  </way>
  <way id="29201001" version="1" timestamp="2008-12-23T09:35:32Z" uid="58091" user="Andreas M" changeset="575702">
    <nd ref="321201577"/>
    <nd ref="296156714"/>
    <nd ref="296156718"/>
    <nd ref="321201578"/>
    <nd ref="321201577"/>
    <tag k="addr:city" v="Wien"/>
    <tag k="addr:housenumber" v="27a"/>
    <tag k="addr:postcode" v="1190"/>
    <tag k="addr:street" v="Pokornygasse"/>
    <tag k="building" v="yes"/>
  </way>
  <way id="29201001" version="2" timestamp="2009-01-18T11:21:50Z" uid="38255" user="BearT" changeset="805541">
    <nd ref="321201577"/>
    <nd ref="296156714"/>
    <nd ref="296156718"/>
    <nd ref="321201578"/>
    <nd ref="321201577"/>
    <tag k="addr:city" v="Wien"/>
    <tag k="addr:country" v="at"/>
    <tag k="addr:housenumber" v="27a"/>
    <tag k="addr:postcode" v="1190"/>
    <tag k="addr:street" v="Pokornygasse"/>
    <tag k="building" v="yes"/>
    <tag k="created_by" v="Merkaartor 0.13"/>
  </way>
  <way id="29201001" version="3" timestamp="2009-01-22T07:24:51Z" uid="70696" user="xybot" changeset="822919">
    <nd ref="321201577"/>
    <nd ref="296156714"/>
    <nd ref="296156718"/>
    <nd ref="321201578"/>
    <nd ref="321201577"/>
    <tag k="addr:city" v="Wien"/>
    <tag k="addr:country" v="AT"/>
    <tag k="addr:housenumber" v="27a"/>
    <tag k="addr:postcode" v="1190"/>
    <tag k="addr:street" v="Pokornygasse"/>
    <tag k="building" v="yes"/>
    <tag k="created_by" v="xybot"/>
  </way>
  <way id="29201002" version="1" timestamp="2008-12-23T09:35:32Z" uid="58091" user="Andreas M" changeset="575702">
    <nd ref="296371007"/>
    <nd ref="296371010"/>
    <nd ref="321201579"/>
    <nd ref="321201580"/>
    <nd ref="296371007"/>
    <tag k="addr:city" v="Wien"/>
    <tag k="addr:housenumber" v="8"/>
    <tag k="addr:postcode" v="1190"/>
    <tag k="addr:street" v="Pokornygasse"/>
    <tag k="building" v="yes"/>
  </way>
  <way id="29201002" version="2" timestamp="2009-01-18T11:21:51Z" uid="38255" user="BearT" changeset="805541">
    <nd ref="296371007"/>
    <nd ref="296371010"/>
    <nd ref="321201579"/>
    <nd ref="321201580"/>
    <nd ref="296371007"/>
    <tag k="addr:city" v="Wien"/>
    <tag k="addr:country" v="at"/>
    <tag k="addr:housenumber" v="8"/>
    <tag k="addr:postcode" v="1190"/>
    <tag k="addr:street" v="Pokornygasse"/>
    <tag k="building" v="yes"/>
    <tag k="created_by" v="Merkaartor 0.13"/>
  </way>
  <way id="29201002" version="3" timestamp="2009-01-22T07:24:51Z" uid="70696" user="xybot" changeset="822919">
    <nd ref="296371007"/>
    <nd ref="296371010"/>
    <nd ref="321201579"/>
    <nd ref="321201580"/>
    <nd ref="296371007"/>
    <tag k="addr:city" v="Wien"/>
    <tag k="addr:country" v="AT"/>
    <tag k="addr:housenumber" v="8"/>
    <tag k="addr:postcode" v="1190"/>
    <tag k="addr:street" v="Pokornygasse"/>
    <tag k="building" v="yes"/>
    <tag k="created_by" v="xybot"/>
  </way>
  <way id="29201291" version="4" timestamp="2009-06-22T20:03:57Z" uid="87590" user="Alois_Paul" changeset="1597265">
    <nd ref="319841524"/>
    <nd ref="321204676"/>
    <nd ref="321204677"/>
    <nd ref="321204678"/>
    <nd ref="321204679"/>
    <nd ref="321204680"/>
    <nd ref="321204681"/>
    <nd ref="321204682"/>
    <nd ref="321205055"/>
    <nd ref="321205056"/>
    <nd ref="321205057"/>
    <nd ref="321205058"/>
    <nd ref="321205059"/>
    <nd ref="321205060"/>
    <nd ref="321205061"/>
    <nd ref="321205062"/>
    <nd ref="321205063"/>
    <nd ref="321205064"/>
    <nd ref="321205065"/>
    <nd ref="321205066"/>
    <nd ref="321205067"/>
    <nd ref="321205068"/>
    <nd ref="321205069"/>
    <nd ref="321205070"/>
    <nd ref="321205072"/>
    <nd ref="321205074"/>
    <nd ref="321205075"/>
    <nd ref="321205076"/>
    <nd ref="321205077"/>
    <nd ref="321205078"/>
    <nd ref="321205079"/>
    <nd ref="321205080"/>
    <nd ref="321205081"/>
    <nd ref="321205082"/>
    <nd ref="321205083"/>
    <nd ref="321205084"/>
    <nd ref="321205085"/>
    <nd ref="321205086"/>
    <nd ref="321205087"/>
    <nd ref="321205088"/>
    <tag k="created_by" v="Potlatch 0.10f"/>
    <tag k="foot" v="yes"/>
    <tag k="highway" v="footway"/>
    <tag k="sac_scale" v="mountain_hiking"/>
  </way>
  <way id="29201291" version="5" timestamp="2009-09-16T19:23:18Z" uid="115612" user="tyr_asd" changeset="2506057">
    <nd ref="319841524"/>
    <nd ref="321204676"/>
    <nd ref="321204677"/>
    <nd ref="321204678"/>
    <nd ref="321204679"/>
    <nd ref="321204680"/>
    <nd ref="321204681"/>
    <nd ref="321204682"/>
    <nd ref="321205055"/>
    <nd ref="321205056"/>
    <nd ref="321205057"/>
    <nd ref="321205058"/>
    <nd ref="321205059"/>
    <nd ref="321205060"/>
    <nd ref="321205061"/>
    <nd ref="321205062"/>
    <nd ref="321205063"/>
    <nd ref="321205064"/>
    <nd ref="321205065"/>
    <nd ref="321205066"/>
    <nd ref="321205067"/>
    <nd ref="321205068"/>
    <nd ref="321205069"/>
    <nd ref="321205070"/>
    <nd ref="321205072"/>
    <nd ref="321205074"/>
    <nd ref="321205075"/>
    <nd ref="321205076"/>
    <nd ref="321205077"/>
    <nd ref="321205078"/>
    <nd ref="321205079"/>
    <nd ref="321205080"/>
    <nd ref="321205081"/>
    <nd ref="321205082"/>
    <nd ref="321205083"/>
    <nd ref="321205084"/>
    <nd ref="321205085"/>
    <nd ref="321205086"/>
    <nd ref="321205087"/>
    <nd ref="321205088"/>
    <tag k="foot" v="yes"/>
    <tag k="highway" v="path"/>
    <tag k="sac_scale" v="mountain_hiking"/>
  </way>
  <way id="29201291" version="6" timestamp="2010-04-22T19:04:05Z" uid="97958" user="obb100" changeset="4497716">
    <nd ref="319841524"/>
    <nd ref="321204676"/>
    <nd ref="321204677"/>
    <nd ref="321204678"/>
    <nd ref="321204679"/>
    <nd ref="321204680"/>
    <nd ref="321204681"/>
    <nd ref="321204682"/>
    <nd ref="321205055"/>
    <nd ref="321205056"/>
    <nd ref="321205057"/>
    <nd ref="321205058"/>
    <nd ref="321205059"/>
    <nd ref="321205060"/>
    <nd ref="321205061"/>
    <nd ref="321205062"/>
    <nd ref="321205063"/>
    <nd ref="321205064"/>
    <nd ref="321205065"/>
    <nd ref="321205066"/>
    <nd ref="321205067"/>
    <nd ref="321205068"/>
    <nd ref="321205069"/>
    <nd ref="321205070"/>
    <nd ref="321205072"/>
    <nd ref="321205074"/>
    <nd ref="703837292"/>
    <tag k="foot" v="yes"/>
    <tag k="highway" v="path"/>
    <tag k="sac_scale" v="mountain_hiking"/>
  </way>
  <way id="29201291" version="7" timestamp="2011-07-12T06:48:58Z" uid="24966" user="alessioz" changeset="8700183">
    <nd ref="319841524"/>
    <nd ref="321204676"/>
    <nd ref="321204677"/>
    <nd ref="321204678"/>
    <nd ref="321204679"/>
    <nd ref="321204680"/>
    <nd ref="321204681"/>
    <nd ref="321204682"/>
    <nd ref="321205055"/>
    <nd ref="321205056"/>
    <nd ref="321205057"/>
    <nd ref="321205058"/>
    <nd ref="321205059"/>
    <nd ref="321205060"/>
    <nd ref="321205061"/>
    <nd ref="321205062"/>
    <nd ref="321205063"/>
    <nd ref="321205064"/>
    <nd ref="321205065"/>
    <nd ref="321205066"/>
    <nd ref="321205067"/>
    <nd ref="321205068"/>
    <nd ref="321205069"/>
    <nd ref="321205070"/>
    <nd ref="321205072"/>
    <nd ref="321205074"/>
    <nd ref="1358990295"/>
    <nd ref="703837292"/>
    <tag k="foot" v="yes"/>
    <tag k="highway" v="path"/>
    <tag k="sac_scale" v="mountain_hiking"/>
  </way>
  <way id="29201291" version="8" timestamp="2011-07-12T08:40:23Z" uid="24966" user="alessioz" changeset="8700927">
    <nd ref="319841524"/>
    <nd ref="321204676"/>
    <nd ref="321204677"/>
    <nd ref="321204678"/>
    <nd ref="321204679"/>
    <nd ref="321204680"/>
    <nd ref="321204681"/>
    <nd ref="321204682"/>
    <nd ref="321205055"/>
    <nd ref="321205056"/>
    <nd ref="321205057"/>
    <nd ref="321205058"/>
    <nd ref="321205059"/>
    <nd ref="321205060"/>
    <nd ref="321205061"/>
    <nd ref="321205062"/>
    <nd ref="321205063"/>
    <nd ref="321205064"/>
    <nd ref="321205065"/>
    <nd ref="321205066"/>
    <nd ref="321205067"/>
    <nd ref="321205068"/>
    <nd ref="321205069"/>
    <nd ref="321205070"/>
    <nd ref="321205072"/>
    <nd ref="321205074"/>
    <nd ref="1358990295"/>
    <nd ref="703837292"/>
    <tag k="foot" v="yes"/>
    <tag k="highway" v="path"/>
    <tag k="name" v="Rastenbachklamm"/>
    <tag k="ref" v="1"/>
    <tag k="sac_scale" v="mountain_hiking"/>
  </way>
  <way id="29201415" version="5" timestamp="2010-07-21T19:21:01Z" uid="6269" user="Mueck" changeset="5281510">
    <nd ref="321206146"/>
    <nd ref="26489525"/>
    <nd ref="26489524"/>
    <nd ref="26489523"/>
    <nd ref="26489522"/>
    <nd ref="828067600"/>
    <nd ref="615600519"/>
    <nd ref="26490677"/>
    <tag k="highway" v="tertiary"/>
  </way>
  <way id="29201415" version="6" timestamp="2010-08-29T19:04:35Z" uid="17286" user="Pieren" changeset="5629614">
    <nd ref="321206146"/>
    <nd ref="26489525"/>
    <nd ref="26489524"/>
    <nd ref="26489523"/>
    <nd ref="26489522"/>
    <nd ref="828067600"/>
    <nd ref="71591517"/>
    <nd ref="26490677"/>
    <tag k="highway" v="tertiary"/>
  </way>
  <way id="29201415" version="7" timestamp="2011-07-16T19:44:30Z" uid="118019" user="ferdinand" changeset="8742396">
    <nd ref="321206146"/>
    <nd ref="26489525"/>
    <nd ref="26489524"/>
    <nd ref="26489523"/>
    <nd ref="26489522"/>
    <nd ref="828067600"/>
    <nd ref="71591517"/>
    <nd ref="26490677"/>
    <tag k="highway" v="tertiary"/>
    <tag k="surface" v="asphalt"/>
  </way>
  <way id="29201428" version="2" timestamp="2010-03-28T00:26:55Z" uid="20587" user="balrog-kun" changeset="4250871">
    <nd ref="123057707"/>
    <nd ref="123057709"/>
    <tag k="highway" v="residential"/>
    <tag k="name" v="171st Street"/>
    <tag k="tiger:cfcc" v="A41"/>
    <tag k="tiger:county" v="Los Angeles, CA"/>
    <tag k="tiger:name_base" v="171st"/>
    <tag k="tiger:name_type" v="St"/>
    <tag k="tiger:reviewed" v="no"/>
    <tag k="tiger:separated" v="no"/>
    <tag k="tiger:source" v="tiger_import_dch_v0.6_20070809"/>
    <tag k="tiger:tlid" v="141663276:141663909"/>
    <tag k="tiger:zip_left" v="90260"/>
    <tag k="tiger:zip_right" v="90260"/>
  </way>
  <way id="29201522" version="2" timestamp="2009-11-28T12:55:56Z" uid="33382" user="de_muur" changeset="3235711">
    <nd ref="321206935"/>
    <nd ref="321206936"/>
    <nd ref="321206937"/>
    <nd ref="321206938"/>
    <nd ref="321206940"/>
    <nd ref="321206941"/>
    <nd ref="321206942"/>
    <nd ref="321206943"/>
    <nd ref="321206945"/>
    <nd ref="321206946"/>
    <nd ref="321206947"/>
    <nd ref="321206949"/>
    <nd ref="321206950"/>
    <nd ref="321206952"/>
    <nd ref="321206953"/>
    <nd ref="321206954"/>
    <nd ref="321206955"/>
    <nd ref="321206957"/>
    <nd ref="321206958"/>
    <nd ref="321206959"/>
    <nd ref="321206960"/>
    <nd ref="321206962"/>
    <nd ref="321206963"/>
    <nd ref="321206935"/>
    <tag k="landuse" v="forest"/>
  </way>
  <way id="29201522" version="3" timestamp="2012-03-25T22:07:18Z" uid="349191" user="Glühwürmchen" changeset="11099573"/>
  <way id="29201523" version="2" timestamp="2009-01-01T13:07:20Z" uid="6975" user="ulfl" changeset="699648">
    <nd ref="321206998"/>
    <nd ref="321207000"/>
    <nd ref="321207011"/>
    <nd ref="321207002"/>
    <nd ref="321207004"/>
    <nd ref="321207006"/>
    <nd ref="321207008"/>
    <nd ref="321206998"/>
    <tag k="landuse" v="forest"/>
    <tag k="name" v="Yliopistonrinne"/>
    <tag k="source" v="city plan. used with permission"/>
  </way>
  <way id="29201523" version="3" timestamp="2011-04-21T14:00:41Z" uid="167906" user="troh" changeset="7925776">
    <nd ref="321206998"/>
    <nd ref="1254027168"/>
    <nd ref="1254027165"/>
    <nd ref="1254027137"/>
    <nd ref="1254027162"/>
    <nd ref="125512972"/>
    <nd ref="1254027135"/>
    <nd ref="1254027134"/>
    <nd ref="1254027153"/>
    <nd ref="1254027146"/>
    <nd ref="1254027160"/>
    <nd ref="1254027148"/>
    <nd ref="321207000"/>
    <nd ref="321207011"/>
    <nd ref="321207002"/>
    <nd ref="321207004"/>
    <nd ref="321207006"/>
    <nd ref="321207008"/>
    <nd ref="321206998"/>
    <tag k="landuse" v="forest"/>
    <tag k="name" v="Yliopistonrinne"/>
    <tag k="source" v="city plan. used with permission"/>
  </way>
  <way id="29201523" version="4" timestamp="2011-11-07T19:23:25Z" uid="455041" user="zumo-b" changeset="9767863">
    <nd ref="321206998"/>
    <nd ref="1254027168"/>
    <nd ref="1494423195"/>
    <nd ref="1254027165"/>
    <nd ref="1494423206"/>
    <nd ref="1494423208"/>
    <nd ref="1254027162"/>
    <nd ref="1494423214"/>
    <nd ref="125512972"/>
    <nd ref="1494423221"/>
    <nd ref="1254027135"/>
    <nd ref="1254027134"/>
    <nd ref="1254027153"/>
    <nd ref="1254027146"/>
    <nd ref="1254027160"/>
    <nd ref="1254027148"/>
    <nd ref="321207000"/>
    <nd ref="321207011"/>
    <nd ref="321207002"/>
    <nd ref="321207004"/>
    <nd ref="321207006"/>
    <nd ref="321207008"/>
    <nd ref="321206998"/>
    <tag k="landuse" v="forest"/>
    <tag k="name" v="Yliopistonrinne"/>
    <tag k="source" v="city plan. used with permission"/>
  </way>
  <way id="29201523" version="5" timestamp="2011-11-07T19:27:57Z" uid="455041" user="zumo-b" changeset="9767897">
    <nd ref="321206998"/>
    <nd ref="1254027168"/>
    <nd ref="1494423195"/>
    <nd ref="1254027165"/>
    <nd ref="1494423206"/>
    <nd ref="1494423208"/>
    <nd ref="1254027162"/>
    <nd ref="1494423214"/>
    <nd ref="125512972"/>
    <nd ref="1494423221"/>
    <nd ref="1254027135"/>
    <nd ref="1254027134"/>
    <nd ref="1254027153"/>
    <nd ref="1254027146"/>
    <nd ref="1254027160"/>
    <nd ref="1254027148"/>
    <nd ref="321207000"/>
    <nd ref="321207011"/>
    <nd ref="321207002"/>
    <nd ref="321207004"/>
    <nd ref="321207006"/>
    <nd ref="321207008"/>
    <nd ref="321206998"/>
    <tag k="landuse" v="forest"/>
    <tag k="name" v="Yleisen sairaalan rinne"/>
    <tag k="source" v="city plan. used with permission"/>
  </way>
  <way id="29201588" version="9" timestamp="2009-04-15T05:59:27Z" uid="6975" user="ulfl" changeset="553994">
    <nd ref="321207465"/>
    <nd ref="321207466"/>
    <nd ref="321207467"/>
    <nd ref="321207468"/>
    <nd ref="321207469"/>
    <nd ref="321207470"/>
    <nd ref="321207471"/>
    <nd ref="321207472"/>
    <nd ref="321207465"/>
    <tag k="amenity" v="kindergarten"/>
    <tag k="building" v="yes"/>
  </way>
  <way id="29201588" version="10" timestamp="2009-07-25T18:41:20Z" uid="26998" user="hejebe" changeset="1937229">
    <nd ref="321207465"/>
    <nd ref="321207466"/>
    <nd ref="321207467"/>
    <nd ref="321207468"/>
    <nd ref="321207469"/>
    <nd ref="321207470"/>
    <nd ref="321207471"/>
    <nd ref="321207472"/>
    <nd ref="321207465"/>
    <tag k="addr:housenumber" v="57"/>
    <tag k="addr:postcode" v="13587"/>
    <tag k="addr:street" v="Wichernstraße"/>
    <tag k="amenity" v="kindergarten"/>
    <tag k="building" v="yes"/>
  </way>
  <way id="29201588" version="11" timestamp="2009-07-28T17:07:07Z" uid="26998" user="hejebe" changeset="1967316">
    <nd ref="321207465"/>
    <nd ref="321207466"/>
    <nd ref="321207467"/>
    <nd ref="321207468"/>
    <nd ref="321207469"/>
    <nd ref="321207470"/>
    <nd ref="321207471"/>
    <nd ref="321207472"/>
    <nd ref="321207465"/>
    <tag k="addr:housenumber" v="57"/>
    <tag k="addr:postcode" v="13587"/>
    <tag k="addr:street" v="Wichernstraße"/>
    <tag k="amenity" v="kindergarten"/>
    <tag k="building" v="yes"/>
    <tag k="name" v="Kindergarten Wichernstraße"/>
  </way>
  <way id="29201588" version="12" timestamp="2011-01-23T10:18:45Z" uid="26998" user="hejebe" changeset="7059178">
    <nd ref="321207465"/>
    <nd ref="321207466"/>
    <nd ref="321207467"/>
    <nd ref="321207468"/>
    <nd ref="321207469"/>
    <nd ref="321207470"/>
    <nd ref="321207471"/>
    <nd ref="321207472"/>
    <nd ref="321207465"/>
    <tag k="addr:city" v="Berlin"/>
    <tag k="addr:housenumber" v="57"/>
    <tag k="addr:postcode" v="13587"/>
    <tag k="addr:street" v="Wichernstraße"/>
    <tag k="amenity" v="kindergarten"/>
    <tag k="building" v="yes"/>
    <tag k="name" v="Kindergarten Wichernstraße"/>
  </way>
  <way id="29201588" version="13" timestamp="2011-01-24T14:49:22Z" uid="26998" user="hejebe" changeset="7073845">
    <nd ref="321207465"/>
    <nd ref="321207466"/>
    <nd ref="321207467"/>
    <nd ref="321207468"/>
    <nd ref="321207469"/>
    <nd ref="321207470"/>
    <nd ref="321207471"/>
    <nd ref="321207472"/>
    <nd ref="321207465"/>
    <tag k="addr:city" v="Berlin"/>
    <tag k="addr:postcode" v="13587"/>
    <tag k="addr:street" v="Wichernstraße"/>
    <tag k="amenity" v="kindergarten"/>
    <tag k="building" v="yes"/>
    <tag k="name" v="Kindergarten Wichernstraße"/>
  </way>
  <way id="29201588" version="14" timestamp="2011-01-28T11:07:54Z" uid="26998" user="hejebe" changeset="7111597">
    <nd ref="321207465"/>
    <nd ref="1124757736"/>
    <nd ref="1124757725"/>
    <nd ref="1124757735"/>
    <nd ref="1124757724"/>
    <nd ref="321207466"/>
    <nd ref="321207467"/>
    <nd ref="321207468"/>
    <nd ref="321207469"/>
    <nd ref="321207470"/>
    <nd ref="321207471"/>
    <nd ref="321207472"/>
    <nd ref="321207465"/>
    <tag k="addr:city" v="Berlin"/>
    <tag k="addr:postcode" v="13587"/>
    <tag k="addr:street" v="Wichernstraße"/>
    <tag k="amenity" v="kindergarten"/>
    <tag k="building" v="yes"/>
    <tag k="name" v="Kindergarten Wichernstraße"/>
  </way>
  <way id="29201598" version="2" timestamp="2011-02-06T05:41:33Z" uid="4467" user="Rosscoe" changeset="7200028">
    <nd ref="1138612920"/>
    <nd ref="1138612903"/>
    <nd ref="321207507"/>
    <nd ref="91342113"/>
    <nd ref="321207502"/>
    <nd ref="1138612916"/>
    <nd ref="286384369"/>
    <nd ref="1138612897"/>
    <nd ref="253739673"/>
    <nd ref="286384364"/>
    <nd ref="1138612939"/>
    <nd ref="253739683"/>
    <nd ref="253739674"/>
    <nd ref="253739675"/>
    <nd ref="253739676"/>
    <nd ref="253739711"/>
    <nd ref="253739677"/>
    <nd ref="683138303"/>
    <tag k="highway" v="secondary"/>
    <tag k="lanes" v="2"/>
    <tag k="maxspeed" v="60"/>
    <tag k="name" v="Hanson Road"/>
    <tag k="oneway" v="yes"/>
    <tag k="source" v="nearmap"/>
    <tag k="source:name" v="local knowledge"/>
  </way>
  <way id="29201598" version="3" timestamp="2011-07-30T00:51:48Z" uid="320632" user="Zulu99" changeset="8868362">
    <nd ref="1138612920"/>
    <nd ref="1138612903"/>
    <nd ref="1378107236"/>
    <tag k="highway" v="secondary"/>
    <tag k="lanes" v="2"/>
    <tag k="maxspeed" v="60"/>
    <tag k="name" v="Hanson Road"/>
    <tag k="oneway" v="yes"/>
    <tag k="source" v="nearmap"/>
    <tag k="source:name" v="local knowledge"/>
  </way>
  <way id="29201599" version="3" timestamp="2011-02-06T05:41:30Z" uid="4467" user="Rosscoe" changeset="7200028">
    <nd ref="1138612957"/>
    <nd ref="321207497"/>
    <nd ref="321207502"/>
    <tag k="highway" v="secondary"/>
    <tag k="maxspeed" v="60"/>
    <tag k="name:link" v="Hanson Road"/>
    <tag k="oneway" v="yes"/>
    <tag k="source" v="survey"/>
  </way>
  <way id="29201600" version="3" timestamp="2011-02-06T05:41:34Z" uid="4467" user="Rosscoe" changeset="7200028">
    <nd ref="321207507"/>
    <nd ref="321207511"/>
    <nd ref="321207491"/>
    <tag k="highway" v="secondary"/>
    <tag k="maxspeed" v="60"/>
    <tag k="name:link" v="Hanson Road"/>
    <tag k="oneway" v="yes"/>
    <tag k="source" v="extrapolation"/>
  </way>
  <way id="29201601" version="2" timestamp="2011-02-06T05:41:40Z" uid="4467" user="Rosscoe" changeset="7200028"/>
  <way id="29201976" version="2" timestamp="2010-03-28T00:26:55Z" uid="20587" user="balrog-kun" changeset="4250871">
    <nd ref="15384187"/>
    <nd ref="123253764"/>
    <tag k="highway" v="residential"/>
    <tag k="name" v="170th Street"/>
    <tag k="tiger:cfcc" v="A41"/>
    <tag k="tiger:county" v="Los Angeles, CA"/>
    <tag k="tiger:name_base" v="170th"/>
    <tag k="tiger:name_type" v="St"/>
    <tag k="tiger:reviewed" v="no"/>
    <tag k="tiger:separated" v="no"/>
    <tag k="tiger:source" v="tiger_import_dch_v0.6_20070809"/>
    <tag k="tiger:tlid" v="141768056:141663977:141663989"/>
    <tag k="tiger:zip_left" v="90504"/>
    <tag k="tiger:zip_right" v="90504"/>
  </way>
</osm>
