<?xml version='1.0' encoding='UTF-8'?>
<osm version="0.6" generator="libosmium/2.20.0">
  <way id="29243226" version="2" timestamp="2009-01-01T14:26:57Z" uid="6975" user="ulfl" changeset="699648">
    <nd ref="321626573"/>
    <nd ref="321626574"/>
    <nd ref="321626575"/>
    <nd ref="321626227"/>
    <nd ref="321626576"/>
    <tag k="area" v="yes"/>
    <tag k="building" v="yes"/>
    <tag k="name" v="Atelco GmbH"/>
    <tag k="operator" v="Atelco"/>
    <tag k="shop" v="computer"/>
  </way>
  <way id="29243226" version="3" timestamp="2009-01-15T19:18:16Z" uid="18407" user="thomas1904" changeset="791923">
    <nd ref="321626573"/>
    <nd ref="321626574"/>
    <nd ref="321626575"/>
    <nd ref="321626227"/>
    <nd ref="321626573"/>
    <tag k="area" v="yes"/>
    <tag k="building" v="yes"/>
    <tag k="name" v="Atelco GmbH"/>
    <tag k="operator" v="Atelco"/>
    <tag k="shop" v="computer"/>
  </way>
  <way id="29243226" version="4" timestamp="2010-04-10T14:13:10Z" uid="100952" user="elmarburke" changeset="4382804">
    <nd ref="321626573"/>
    <nd ref="691512370"/>
    <nd ref="691512372"/>
    <nd ref="321626575"/>
    <nd ref="321626227"/>
    <nd ref="321626573"/>
    <tag k="area" v="yes"/>
    <tag k="building" v="yes"/>
    <tag k="name" v="Atelco GmbH"/>
    <tag k="operator" v="Atelco"/>
    <tag k="shop" v="computer"/>
  </way>
  <way id="29243226" version="5" timestamp="2012-01-23T12:41:15Z" uid="590160" user="flo79" changeset="10474811"/>
  <way id="29243980" version="4" timestamp="2009-10-12T21:27:41Z" uid="36809" user="pfoten_weg_!_" changeset="2831103">
    <nd ref="321635134"/>
    <nd ref="321635263"/>
    <tag k="highway" v="residential"/>
    <tag k="name" v="Am Gries"/>
  </way>
</osm>
