<?xml version='1.0' encoding='UTF-8'?>
<osm version="0.6" generator="libosmium/2.20.0">
  <way id="29393126" version="3" timestamp="2009-09-22T16:38:49Z" uid="176350" user="Wolfgang_S" changeset="2573509">
    <nd ref="323333113"/>
    <nd ref="323333115"/>
    <tag k="addr:postcode" v="6890"/>
    <tag k="at:maxspeed" v="Ortsgebiet"/>
    <tag k="fixme" v="check import"/>
    <tag k="highway" v="residential"/>
    <tag k="is_in" v="...,Bezirk Dornbirn,Vorarlberg,Österreich,Europa"/>
    <tag k="name" v="Feldgasse"/>
    <tag k="note" v="imported from plan.at; (C)=CC-by-sa or oDBL; feel free to change if necessary"/>
    <tag k="plan_at:acad_id" v="do3FE"/>
    <tag k="source" v="plan.at 2008"/>
    <tag k="uploaded_by" v="Wolfgang W. Wasserburger"/>
  </way>
  <way id="29393126" version="4" timestamp="2009-09-23T08:18:36Z" uid="43863" user="Rundling" changeset="2591894">
    <nd ref="323333113"/>
    <nd ref="505396587"/>
    <tag k="addr:postcode" v="6890"/>
    <tag k="at:maxspeed" v="Ortsgebiet"/>
    <tag k="fixme" v="check import"/>
    <tag k="highway" v="residential"/>
    <tag k="is_in" v="...,Bezirk Dornbirn,Vorarlberg,Österreich,Europa"/>
    <tag k="name" v="Feldgasse"/>
    <tag k="note" v="imported from plan.at; (C)=CC-by-sa or oDBL; feel free to change if necessary"/>
    <tag k="plan_at:acad_id" v="do3FE"/>
    <tag k="source" v="plan.at 2008"/>
    <tag k="uploaded_by" v="Wolfgang W. Wasserburger"/>
  </way>
  <way id="29393126" version="5" timestamp="2010-02-06T16:30:17Z" uid="30106" user="iCore" changeset="3806601">
    <nd ref="323333113"/>
    <nd ref="631737888"/>
    <nd ref="631737889"/>
    <nd ref="631737890"/>
    <nd ref="505396587"/>
    <tag k="highway" v="residential"/>
    <tag k="name" v="Feldgasse"/>
  </way>
  <way id="29393126" version="6" timestamp="2011-11-05T17:10:20Z" uid="122406" user="hanskuster" changeset="9748373">
    <nd ref="323333113"/>
    <nd ref="631737890"/>
    <nd ref="505396587"/>
    <tag k="highway" v="residential"/>
    <tag k="name" v="Feldgasse"/>
  </way>
  <way id="29393126" version="7" timestamp="2012-02-15T18:23:39Z" uid="122406" user="hanskuster" changeset="10694915">
    <nd ref="323333113"/>
    <nd ref="631737890"/>
    <nd ref="505396587"/>
    <tag k="highway" v="residential"/>
    <tag k="name" v="Feldgasse"/>
  </way>
  <way id="29393126" version="8" timestamp="2012-03-17T18:52:01Z" uid="178186" user="mdk" changeset="11011188"/>
  <way id="29393809" version="1" timestamp="2008-12-31T01:31:48Z" uid="82536" user="Ventolinmono" changeset="684502">
    <nd ref="323363759"/>
    <nd ref="323363768"/>
    <tag k="highway" v="tertiary"/>
    <tag k="is_in" v="Cuernavaca"/>
    <tag k="lanes" v="2"/>
    <tag k="name" v="Oaxaca"/>
    <tag k="one_way" v="yes"/>
  </way>
  <way id="29393809" version="2" timestamp="2008-12-31T14:39:56Z" uid="82536" user="Ventolinmono" changeset="693558">
    <nd ref="323363759"/>
    <nd ref="323363768"/>
    <tag k="is_in" v="Cuernavaca"/>
    <tag k="lanes" v="2"/>
    <tag k="name" v="Oaxaca"/>
    <tag k="one_way" v="yes"/>
  </way>
  <way id="29393809" version="3" timestamp="2009-01-01T13:02:43Z" uid="6975" user="ulfl" changeset="699648">
    <nd ref="323363759"/>
    <nd ref="323363768"/>
    <tag k="is_in" v="Cuernavaca"/>
    <tag k="lanes" v="2"/>
    <tag k="name" v="Oaxaca"/>
    <tag k="oneway" v="yes"/>
  </way>
  <way id="29393809" version="4" timestamp="2009-01-01T19:23:11Z" uid="82536" user="Ventolinmono" changeset="698770">
    <nd ref="323363759"/>
    <nd ref="323363768"/>
    <tag k="highway" v="residential"/>
    <tag k="is_in" v="Cuernavaca"/>
    <tag k="lanes" v="2"/>
    <tag k="name" v="Oaxaca"/>
    <tag k="oneway" v="yes"/>
  </way>
  <way id="29393953" version="10" timestamp="2010-03-28T00:43:23Z" uid="20587" user="balrog-kun" changeset="4250871">
    <nd ref="323371855"/>
    <nd ref="665558424"/>
    <nd ref="258777638"/>
    <nd ref="665556729"/>
    <nd ref="665556730"/>
    <nd ref="665556731"/>
    <nd ref="258777637"/>
    <nd ref="323372498"/>
    <nd ref="665556735"/>
    <nd ref="323371636"/>
    <nd ref="436982286"/>
    <nd ref="323371635"/>
    <tag k="bridge" v="yes"/>
    <tag k="highway" v="primary_link"/>
    <tag k="history" v="Retrieved from v5"/>
    <tag k="layer" v="1"/>
    <tag k="name" v="San Jose Avenue"/>
    <tag k="oneway" v="yes"/>
    <tag k="tiger:cfcc" v="A63"/>
    <tag k="tiger:county" v="San Francisco, CA"/>
    <tag k="tiger:reviewed" v="no"/>
    <tag k="tiger:source" v="tiger_import_dch_v0.6_20070809"/>
    <tag k="tiger:tlid" v="192300062:192300720:192300165:192302214:192300728:192300048:192300606:192300024:192300025:192300601:192299521:192300540:192300014:192300015:192300037:192300050:192299516:192302215; 192300063:192300722:192300164:192300067:192300054:192300051:192300055:1923"/>
  </way>
  <way id="29393953" version="11" timestamp="2011-10-18T13:40:45Z" uid="207745" user="NE2" changeset="9591294">
    <nd ref="323371855"/>
    <nd ref="258777638"/>
    <nd ref="665556729"/>
    <nd ref="665556730"/>
    <nd ref="665556731"/>
    <nd ref="258777637"/>
    <nd ref="323372498"/>
    <nd ref="665556735"/>
    <nd ref="323371636"/>
    <nd ref="436982286"/>
    <nd ref="323371635"/>
    <tag k="bridge" v="yes"/>
    <tag k="highway" v="primary_link"/>
    <tag k="history" v="Retrieved from v5"/>
    <tag k="layer" v="1"/>
    <tag k="name" v="San Jose Avenue"/>
    <tag k="oneway" v="yes"/>
    <tag k="tiger:cfcc" v="A63"/>
    <tag k="tiger:county" v="San Francisco, CA"/>
    <tag k="tiger:reviewed" v="no"/>
    <tag k="tiger:source" v="tiger_import_dch_v0.6_20070809"/>
    <tag k="tiger:tlid" v="192300062:192300720:192300165:192302214:192300728:192300048:192300606:192300024:192300025:192300601:192299521:192300540:192300014:192300015:192300037:192300050:192299516:192302215; 192300063:192300722:192300164:192300067:192300054:192300051:192300055:1923"/>
  </way>
  <way id="29393953" version="12" timestamp="2012-02-22T12:54:12Z" uid="202256" user="Telecas" changeset="10758893">
    <nd ref="323371855"/>
    <nd ref="258777638"/>
    <nd ref="665556729"/>
    <nd ref="665556730"/>
    <nd ref="665556731"/>
    <nd ref="258777637"/>
    <nd ref="323372498"/>
    <nd ref="665556735"/>
    <nd ref="323371636"/>
    <nd ref="436982286"/>
    <nd ref="323371635"/>
    <tag k="bridge" v="yes"/>
    <tag k="highway" v="trunk_link"/>
    <tag k="history" v="Retrieved from v5"/>
    <tag k="layer" v="1"/>
    <tag k="name" v="San Jose Avenue"/>
    <tag k="oneway" v="yes"/>
    <tag k="tiger:cfcc" v="A63"/>
    <tag k="tiger:county" v="San Francisco, CA"/>
    <tag k="tiger:reviewed" v="no"/>
    <tag k="tiger:source" v="tiger_import_dch_v0.6_20070809"/>
    <tag k="tiger:tlid" v="192300062:192300720:192300165:192302214:192300728:192300048:192300606:192300024:192300025:192300601:192299521:192300540:192300014:192300015:192300037:192300050:192299516:192302215; 192300063:192300722:192300164:192300067:192300054:192300051:192300055:1923"/>
  </way>
  <way id="29393963" version="1" timestamp="2008-12-31T01:44:41Z" uid="83714" user="plan_at_Upload_by_Wolfgang_Wasserburger" changeset="693667">
    <nd ref="323373355"/>
    <nd ref="323373358"/>
    <nd ref="323373360"/>
    <nd ref="323373362"/>
    <nd ref="323373355"/>
    <tag k="addr:postcode" v="3571"/>
    <tag k="area" v="yes"/>
    <tag k="created_by" v="WWWOSM 0.1"/>
    <tag k="fixme" v="check import"/>
    <tag k="is_in" v="...,Bezirk Horn,Niederösterreich,Österreich,Europa"/>
    <tag k="leisure" v="natural_reserve"/>
    <tag k="name" v="Tennisplatz"/>
    <tag k="natural" v="plan.at:ho:reserve"/>
    <tag k="note" v="imported from plan.at; (C)=CC-by-sa or oDBL; feel free to change if necessary"/>
    <tag k="plan_at:acad_id" v="hoBAC"/>
    <tag k="source" v="plan.at 2008"/>
    <tag k="uploaded_by" v="Wolfgang W. Wasserburger"/>
  </way>
  <way id="29393963" version="2" timestamp="2009-01-01T14:12:50Z" uid="6975" user="ulfl" changeset="699648">
    <nd ref="323373355"/>
    <nd ref="323373358"/>
    <nd ref="323373360"/>
    <nd ref="323373362"/>
    <nd ref="323373355"/>
    <tag k="addr:postcode" v="3571"/>
    <tag k="area" v="yes"/>
    <tag k="fixme" v="check import"/>
    <tag k="is_in" v="...,Bezirk Horn,Niederösterreich,Österreich,Europa"/>
    <tag k="leisure" v="nature_reserve"/>
    <tag k="name" v="Tennisplatz"/>
    <tag k="natural" v="plan.at:ho:reserve"/>
    <tag k="note" v="imported from plan.at; (C)=CC-by-sa or oDBL; feel free to change if necessary"/>
    <tag k="plan_at:acad_id" v="hoBAC"/>
    <tag k="source" v="plan.at 2008"/>
    <tag k="uploaded_by" v="Wolfgang W. Wasserburger"/>
  </way>
  <way id="29393963" version="3" timestamp="2009-01-01T19:46:00Z" uid="39877" user="andreas_k" changeset="698720">
    <nd ref="323373355"/>
    <nd ref="323373358"/>
    <nd ref="323373360"/>
    <nd ref="323373362"/>
    <nd ref="323373355"/>
    <tag k="addr:postcode" v="3571"/>
    <tag k="area" v="yes"/>
    <tag k="fixme" v="check import"/>
    <tag k="is_in" v="...,Bezirk Horn,Niederösterreich,Österreich,Europa"/>
    <tag k="leisure" v="nature_reserve"/>
    <tag k="name" v="Tennisplatz"/>
    <tag k="natural" v="plan.at:ho:reserve"/>
    <tag k="note" v="imported from plan.at; (C)=CC-by-sa or oDBL; feel free to change if necessary"/>
    <tag k="plan_at:acad_id" v="hoBAC"/>
    <tag k="source" v="plan.at 2008"/>
    <tag k="sport" v="tennis"/>
    <tag k="uploaded_by" v="Wolfgang W. Wasserburger"/>
  </way>
  <way id="29393963" version="4" timestamp="2009-05-30T17:36:56Z" uid="99800" user="wolfbert" changeset="1361500">
    <nd ref="323373355"/>
    <nd ref="323373358"/>
    <nd ref="323373360"/>
    <nd ref="323373362"/>
    <nd ref="323373355"/>
    <tag k="addr:postcode" v="3571"/>
    <tag k="fixme" v="check import"/>
    <tag k="is_in" v="...,Bezirk Horn,Niederösterreich,Österreich,Europa"/>
    <tag k="leisure" v="nature_reserve"/>
    <tag k="name" v="Tennisplatz"/>
    <tag k="natural" v="plan.at:ho:reserve"/>
    <tag k="note" v="imported from plan.at; (C)=CC-by-sa or oDBL; feel free to change if necessary"/>
    <tag k="plan_at:acad_id" v="hoBAC"/>
    <tag k="source" v="plan.at 2008"/>
    <tag k="sport" v="tennis"/>
    <tag k="uploaded_by" v="Wolfgang W. Wasserburger"/>
  </way>
  <way id="29393963" version="5" timestamp="2009-11-02T18:01:19Z" uid="45347" user="eriosw" changeset="3018308">
    <nd ref="323373355"/>
    <nd ref="323373358"/>
    <nd ref="323373360"/>
    <nd ref="323373362"/>
    <nd ref="323373355"/>
    <tag k="addr:postcode" v="3571"/>
    <tag k="fixme" v="check import"/>
    <tag k="is_in" v="...,Bezirk Horn,Niederösterreich,Österreich,Europa"/>
    <tag k="leisure" v="pitch"/>
    <tag k="note" v="imported from plan.at; (C)=CC-by-sa or oDBL; feel free to change if necessary"/>
    <tag k="plan_at:acad_id" v="hoBAC"/>
    <tag k="source" v="plan.at 2008"/>
    <tag k="sport" v="tennis"/>
    <tag k="uploaded_by" v="Wolfgang W. Wasserburger"/>
  </way>
  <way id="29393963" version="6" timestamp="2011-01-28T18:22:40Z" uid="45347" user="eriosw" changeset="7115479">
    <nd ref="323373355"/>
    <nd ref="323373358"/>
    <nd ref="323373360"/>
    <nd ref="323373362"/>
    <nd ref="323373355"/>
    <tag k="addr:postcode" v="3571"/>
    <tag k="fixme" v="check import"/>
    <tag k="is_in" v="Gars am Kamp,Horn,Niederösterreich,Österreich,Europe"/>
    <tag k="leisure" v="pitch"/>
    <tag k="note" v="imported from plan.at; (C)=CC-by-sa or oDBL; feel free to change if necessary"/>
    <tag k="plan_at:acad_id" v="hoBAC"/>
    <tag k="source" v="plan.at 2008"/>
    <tag k="sport" v="tennis"/>
    <tag k="uploaded_by" v="Wolfgang W. Wasserburger"/>
  </way>
  <way id="29393963" version="7" timestamp="2011-07-25T08:30:42Z" uid="491845" user="data_at" changeset="8823579">
    <nd ref="323373355"/>
    <nd ref="323373358"/>
    <nd ref="323373360"/>
    <nd ref="323373362"/>
    <nd ref="323373355"/>
    <tag k="addr:postcode" v="3571"/>
    <tag k="fixme" v="check import"/>
    <tag k="is_in" v="Gars am Kamp,Horn,Niederösterreich,Österreich,Europe"/>
    <tag k="leisure" v="pitch"/>
    <tag k="source" v="plan.at 2008"/>
    <tag k="sport" v="tennis"/>
  </way>
  <way id="29393963" version="8" timestamp="2011-12-17T17:49:05Z" uid="474183" user="ratrun" changeset="10140163">
    <nd ref="323373355"/>
    <nd ref="323373358"/>
    <nd ref="323373360"/>
    <nd ref="323373362"/>
    <nd ref="323373355"/>
    <tag k="leisure" v="pitch"/>
    <tag k="source" v="plan.at 2008,geoimage.at"/>
    <tag k="sport" v="tennis"/>
  </way>
  <way id="29393971" version="1" timestamp="2008-12-31T01:44:49Z" uid="83714" user="plan_at_Upload_by_Wolfgang_Wasserburger" changeset="693667">
    <nd ref="323373486"/>
    <nd ref="323373489"/>
    <nd ref="323373491"/>
    <nd ref="323373494"/>
    <nd ref="323373486"/>
    <tag k="addr:postcode" v="3571"/>
    <tag k="area" v="yes"/>
    <tag k="created_by" v="WWWOSM 0.1"/>
    <tag k="fixme" v="check import"/>
    <tag k="is_in" v="...,Bezirk Horn,Niederösterreich,Österreich,Europa"/>
    <tag k="leisure" v="natural_reserve"/>
    <tag k="name" v="Sportplatz"/>
    <tag k="natural" v="plan.at:ho:reserve"/>
    <tag k="note" v="imported from plan.at; (C)=CC-by-sa or oDBL; feel free to change if necessary"/>
    <tag k="plan_at:acad_id" v="hoB9C"/>
    <tag k="source" v="plan.at 2008"/>
    <tag k="uploaded_by" v="Wolfgang W. Wasserburger"/>
  </way>
  <way id="29393971" version="2" timestamp="2009-01-01T14:12:38Z" uid="6975" user="ulfl" changeset="699648">
    <nd ref="323373486"/>
    <nd ref="323373489"/>
    <nd ref="323373491"/>
    <nd ref="323373494"/>
    <nd ref="323373486"/>
    <tag k="addr:postcode" v="3571"/>
    <tag k="area" v="yes"/>
    <tag k="fixme" v="check import"/>
    <tag k="is_in" v="...,Bezirk Horn,Niederösterreich,Österreich,Europa"/>
    <tag k="leisure" v="nature_reserve"/>
    <tag k="name" v="Sportplatz"/>
    <tag k="natural" v="plan.at:ho:reserve"/>
    <tag k="note" v="imported from plan.at; (C)=CC-by-sa or oDBL; feel free to change if necessary"/>
    <tag k="plan_at:acad_id" v="hoB9C"/>
    <tag k="source" v="plan.at 2008"/>
    <tag k="uploaded_by" v="Wolfgang W. Wasserburger"/>
  </way>
  <way id="29393971" version="3" timestamp="2009-09-13T07:17:10Z" uid="45347" user="eriosw" changeset="2465712">
    <nd ref="323373486"/>
    <nd ref="323373489"/>
    <nd ref="323373491"/>
    <nd ref="323373494"/>
    <nd ref="323373486"/>
    <tag k="addr:postcode" v="3571"/>
    <tag k="fixme" v="check import"/>
    <tag k="is_in" v="...,Bezirk Horn,Niederösterreich,Österreich,Europa"/>
    <tag k="leisure" v="pitch"/>
    <tag k="name" v="Sportplatz"/>
    <tag k="note" v="imported from plan.at; (C)=CC-by-sa or oDBL; feel free to change if necessary"/>
    <tag k="plan_at:acad_id" v="hoB9C"/>
    <tag k="source" v="plan.at 2008"/>
    <tag k="uploaded_by" v="Wolfgang W. Wasserburger"/>
  </way>
  <way id="29393971" version="4" timestamp="2011-01-03T22:28:51Z" uid="12295" user="mapper_07" changeset="6855737">
    <nd ref="323373486"/>
    <nd ref="323373489"/>
    <nd ref="323373491"/>
    <nd ref="323373494"/>
    <nd ref="323373486"/>
    <tag k="addr:postcode" v="3571"/>
    <tag k="fixme" v="check import"/>
    <tag k="is_in" v="...,Bezirk Horn,Niederösterreich,Österreich,Europa"/>
    <tag k="leisure" v="pitch"/>
    <tag k="name" v="Sportplatz"/>
    <tag k="note" v="imported from plan.at; (C)=CC-by-sa or oDBL; feel free to change if necessary"/>
    <tag k="plan_at:acad_id" v="hoB9C"/>
    <tag k="source" v="plan.at 2008"/>
    <tag k="sport" v="soccer"/>
    <tag k="uploaded_by" v="Wolfgang W. Wasserburger"/>
  </way>
  <way id="29393971" version="5" timestamp="2011-02-03T17:56:57Z" uid="45347" user="eriosw" changeset="7176090">
    <nd ref="323373486"/>
    <nd ref="323373489"/>
    <nd ref="323373491"/>
    <nd ref="323373494"/>
    <nd ref="323373486"/>
    <tag k="addr:postcode" v="3571"/>
    <tag k="fixme" v="check import"/>
    <tag k="is_in" v="Gars am Kamp,Horn,Niederösterreich,Österreich,Europe"/>
    <tag k="leisure" v="pitch"/>
    <tag k="name" v="Sportplatz"/>
    <tag k="note" v="imported from plan.at; (C)=CC-by-sa or oDBL; feel free to change if necessary"/>
    <tag k="plan_at:acad_id" v="hoB9C"/>
    <tag k="source" v="plan.at 2008"/>
    <tag k="sport" v="soccer"/>
    <tag k="uploaded_by" v="Wolfgang W. Wasserburger"/>
  </way>
  <way id="29393971" version="6" timestamp="2011-07-25T08:25:46Z" uid="491845" user="data_at" changeset="8823579">
    <nd ref="323373486"/>
    <nd ref="323373489"/>
    <nd ref="323373491"/>
    <nd ref="323373494"/>
    <nd ref="323373486"/>
    <tag k="addr:postcode" v="3571"/>
    <tag k="fixme" v="check import"/>
    <tag k="is_in" v="Gars am Kamp,Horn,Niederösterreich,Österreich,Europe"/>
    <tag k="leisure" v="pitch"/>
    <tag k="name" v="Sportplatz"/>
    <tag k="source" v="plan.at 2008"/>
    <tag k="sport" v="soccer"/>
  </way>
  <way id="29393971" version="7" timestamp="2012-01-06T13:54:18Z" uid="474183" user="ratrun" changeset="10311642">
    <nd ref="323373486"/>
    <nd ref="323373489"/>
    <nd ref="1579420398"/>
    <nd ref="1579420395"/>
    <nd ref="1579420393"/>
    <nd ref="323373491"/>
    <nd ref="323373494"/>
    <nd ref="323373486"/>
    <tag k="addr:postcode" v="3571"/>
    <tag k="is_in" v="Gars am Kamp,Horn,Niederösterreich,Österreich,Europe"/>
    <tag k="leisure" v="pitch"/>
    <tag k="name" v="Sportplatz"/>
    <tag k="source" v="plan.at 2008,geoimage.at"/>
    <tag k="sport" v="soccer"/>
  </way>
</osm>
