<?xml version='1.0' encoding='UTF-8'?>
<osm version="0.6" generator="libosmium/2.20.0">
  <way id="29430019" version="4" timestamp="2009-06-27T17:02:09Z" uid="33382" user="de_muur" changeset="1651693">
    <nd ref="324350951"/>
    <nd ref="324348150"/>
    <tag k="bridge" v="yes"/>
    <tag k="highway" v="tertiary"/>
    <tag k="layer" v="1"/>
    <tag k="maxweight" v="30t"/>
    <tag k="name" v="Erbdrostenweg"/>
    <tag k="ref" v="K 13"/>
  </way>
  <way id="29430019" version="5" timestamp="2009-10-09T14:29:58Z" uid="43972" user="chris66" changeset="2794652">
    <nd ref="324350951"/>
    <nd ref="324348150"/>
    <tag k="bridge" v="yes"/>
    <tag k="highway" v="tertiary"/>
    <tag k="layer" v="1"/>
    <tag k="maxspeed" v="30"/>
    <tag k="maxweight" v="30t"/>
    <tag k="name" v="Erbdrostenweg"/>
    <tag k="ref" v="K 13"/>
  </way>
  <way id="29430019" version="6" timestamp="2010-01-14T18:08:43Z" uid="52921" user="t-i" changeset="3618725">
    <nd ref="324350951"/>
    <nd ref="324348150"/>
    <tag k="bridge" v="yes"/>
    <tag k="highway" v="tertiary"/>
    <tag k="layer" v="1"/>
    <tag k="maxspeed" v="30"/>
    <tag k="maxweight" v="30"/>
    <tag k="name" v="Erbdrostenweg"/>
    <tag k="ref" v="K 13"/>
  </way>
  <way id="29430019" version="7" timestamp="2010-04-22T13:14:14Z" uid="43972" user="chris66" changeset="4495135">
    <nd ref="324350951"/>
    <nd ref="703688833"/>
    <tag k="bridge" v="yes"/>
    <tag k="highway" v="tertiary"/>
    <tag k="layer" v="1"/>
    <tag k="maxspeed" v="30"/>
    <tag k="maxweight" v="30"/>
    <tag k="name" v="Erbdrostenweg"/>
    <tag k="ref" v="K 13"/>
  </way>
  <way id="29430122" version="7" timestamp="2009-10-22T21:55:41Z" uid="36809" user="pfoten_weg_!_" changeset="2925817">
    <nd ref="324349741"/>
    <nd ref="243861695"/>
    <nd ref="243861694"/>
    <nd ref="243861693"/>
    <nd ref="243861692"/>
    <nd ref="243861691"/>
    <tag k="highway" v="residential"/>
    <tag k="maxspeed" v="30"/>
    <tag k="name" v="Jochbergstraße"/>
    <tag k="oneway" v="no"/>
  </way>
  <way id="29430193" version="8" timestamp="2009-07-26T02:47:28Z" uid="18775" user="drlizau" changeset="1940153">
    <nd ref="324335620"/>
    <nd ref="324335698"/>
    <nd ref="324335701"/>
    <nd ref="324335704"/>
    <nd ref="430050734"/>
    <nd ref="316689855"/>
    <tag k="highway" v="tertiary"/>
    <tag k="name" v="Abdullah Tahiri"/>
  </way>
  <way id="29430193" version="9" timestamp="2010-02-16T15:52:10Z" uid="39636" user="telegnom" changeset="3893262">
    <nd ref="324335620"/>
    <nd ref="641767732"/>
    <nd ref="324335701"/>
    <nd ref="324335704"/>
    <nd ref="430050734"/>
    <nd ref="316689855"/>
    <tag k="highway" v="tertiary"/>
    <tag k="name" v="Abdullah Tahiri"/>
  </way>
  <way id="29430193" version="10" timestamp="2011-02-10T23:58:21Z" uid="377239" user="Ferati11" changeset="7251012">
    <nd ref="641767732"/>
    <nd ref="324335701"/>
    <nd ref="324335704"/>
    <nd ref="430050734"/>
    <nd ref="316689855"/>
    <tag k="highway" v="tertiary"/>
    <tag k="name" v="Abdullah Tahiri"/>
  </way>
  <way id="29430193" version="11" timestamp="2011-04-08T11:21:03Z" uid="355102" user="Besfort Guri" changeset="7803138">
    <nd ref="641767732"/>
    <nd ref="324335701"/>
    <nd ref="324335704"/>
    <nd ref="430050734"/>
    <nd ref="316689855"/>
    <tag k="highway" v="primary"/>
    <tag k="name" v="Abdullah Tahiri"/>
  </way>
  <way id="29430230" version="7" timestamp="2009-05-03T09:24:37Z" uid="30632" user="antblant" changeset="1058230">
    <nd ref="29908084"/>
    <nd ref="29908086"/>
    <nd ref="324351747"/>
    <nd ref="314851392"/>
    <nd ref="29908098"/>
    <tag k="created_by" v="Potlatch 0.10f"/>
    <tag k="highway" v="primary"/>
    <tag k="int_ref" v="E 30"/>
    <tag k="name" v="Łódzka"/>
    <tag k="ref" v="2;14"/>
  </way>
  <way id="29430230" version="8" timestamp="2009-05-03T09:54:23Z" uid="30632" user="antblant" changeset="1058406">
    <nd ref="29908084"/>
    <nd ref="29908086"/>
    <nd ref="324351747"/>
    <nd ref="314851392"/>
    <nd ref="29908098"/>
    <tag k="created_by" v="Potlatch 0.10f"/>
    <tag k="highway" v="primary"/>
    <tag k="int_ref" v="E 30"/>
    <tag k="name" v="Łódzka"/>
    <tag k="ref" v="14"/>
  </way>
  <way id="29430230" version="9" timestamp="2009-05-21T08:41:12Z" uid="44414" user="marimil" changeset="1272953"/>
  <way id="29430232" version="6" timestamp="2011-05-07T13:21:18Z" uid="9581" user="Lobelt" changeset="8073417">
    <nd ref="324353312"/>
    <nd ref="324353322"/>
    <nd ref="324353319"/>
    <nd ref="324353316"/>
    <nd ref="324353314"/>
    <nd ref="324353315"/>
    <tag k="highway" v="service"/>
    <tag k="surface" v="paved"/>
    <tag k="width" v="4"/>
  </way>
  <way id="29430233" version="4" timestamp="2011-05-07T13:21:56Z" uid="9581" user="Lobelt" changeset="8073417">
    <nd ref="324353316"/>
    <nd ref="324353318"/>
    <tag k="highway" v="service"/>
    <tag k="surface" v="paved"/>
    <tag k="width" v="4"/>
  </way>
  <way id="29430234" version="4" timestamp="2011-05-07T13:21:09Z" uid="9581" user="Lobelt" changeset="8073417">
    <nd ref="324353319"/>
    <nd ref="324353321"/>
    <tag k="highway" v="service"/>
    <tag k="surface" v="paved"/>
    <tag k="width" v="4"/>
  </way>
  <way id="29430236" version="5" timestamp="2011-05-07T13:22:02Z" uid="9581" user="Lobelt" changeset="8073417">
    <nd ref="324353322"/>
    <nd ref="324353323"/>
    <tag k="highway" v="service"/>
    <tag k="surface" v="paved"/>
    <tag k="width" v="4"/>
  </way>
  <way id="29430356" version="5" timestamp="2009-11-06T15:48:44Z" uid="64756" user="alegria6208" changeset="3049322">
    <nd ref="243861707"/>
    <nd ref="443384014"/>
    <nd ref="452869343"/>
    <nd ref="452869409"/>
    <nd ref="324354335"/>
    <nd ref="324354334"/>
    <nd ref="452869389"/>
    <nd ref="324354333"/>
    <nd ref="324354332"/>
    <nd ref="319616355"/>
    <tag k="foot" v="yes"/>
    <tag k="highway" v="cycleway"/>
    <tag k="segregated" v="no"/>
  </way>
  <way id="29430356" version="6" timestamp="2009-11-06T18:12:09Z" uid="64756" user="alegria6208" changeset="3050520">
    <nd ref="243861707"/>
    <nd ref="443384014"/>
    <nd ref="452869343"/>
    <nd ref="452869409"/>
    <nd ref="324354335"/>
    <nd ref="324354334"/>
    <nd ref="452869389"/>
    <nd ref="324354333"/>
    <nd ref="324354332"/>
    <nd ref="319616355"/>
    <tag k="bicycle" v="yes"/>
    <tag k="foot" v="yes"/>
    <tag k="highway" v="footway"/>
    <tag k="segregated" v="no"/>
  </way>
  <way id="29430356" version="7" timestamp="2009-11-08T03:14:33Z" uid="36809" user="pfoten_weg_!_" changeset="3060646">
    <nd ref="243861707"/>
    <nd ref="443384014"/>
    <nd ref="452869343"/>
    <nd ref="452869409"/>
    <nd ref="324354335"/>
    <nd ref="324354334"/>
    <nd ref="452869389"/>
    <nd ref="324354333"/>
    <nd ref="324354332"/>
    <nd ref="319616355"/>
    <tag k="bicycle" v="yes"/>
    <tag k="foot" v="yes"/>
    <tag k="highway" v="footway"/>
    <tag k="segregated" v="no"/>
  </way>
  <way id="29430423" version="2" timestamp="2009-10-11T02:41:58Z" uid="20587" user="balrog-kun" changeset="2809762"/>
  <way id="29430468" version="2" timestamp="2009-02-09T15:32:26Z" uid="67142" user="zottel" changeset="295088">
    <nd ref="33202635"/>
    <nd ref="324356695"/>
    <nd ref="324356678"/>
    <nd ref="324356698"/>
    <nd ref="324356676"/>
    <nd ref="324356700"/>
    <nd ref="324356680"/>
    <nd ref="324356703"/>
    <nd ref="33202649"/>
    <tag k="highway" v="secondary"/>
    <tag k="junction" v="roundabout"/>
    <tag k="maxspeed" v="30"/>
    <tag k="name" v="Lindenstraße"/>
    <tag k="oneway" v="yes"/>
    <tag k="ref" v="L 343"/>
  </way>
  <way id="29430468" version="3" timestamp="2009-05-08T20:35:53Z" uid="48579" user="willikl" changeset="1121753">
    <nd ref="33202649"/>
    <nd ref="324356705"/>
    <nd ref="324356682"/>
    <nd ref="324356688"/>
    <nd ref="33202634"/>
    <nd ref="324356690"/>
    <nd ref="324356684"/>
    <nd ref="324356693"/>
    <nd ref="33202635"/>
    <nd ref="324356695"/>
    <nd ref="324356678"/>
    <nd ref="324356698"/>
    <nd ref="324356676"/>
    <nd ref="324356700"/>
    <nd ref="324356680"/>
    <nd ref="324356703"/>
    <nd ref="33202649"/>
    <tag k="created_by" v="JOSM"/>
    <tag k="highway" v="secondary"/>
    <tag k="junction" v="roundabout"/>
    <tag k="maxspeed" v="50"/>
    <tag k="name" v="Lindenstraße"/>
    <tag k="oneway" v="yes"/>
    <tag k="ref" v="L 343"/>
  </way>
  <way id="29430468" version="4" timestamp="2009-05-25T15:04:02Z" uid="85761" user="klausis" changeset="1317121">
    <nd ref="33202649"/>
    <nd ref="324356705"/>
    <nd ref="324356682"/>
    <nd ref="324356688"/>
    <nd ref="33202634"/>
    <nd ref="324356690"/>
    <nd ref="324356684"/>
    <nd ref="324356693"/>
    <nd ref="33202635"/>
    <nd ref="324356695"/>
    <nd ref="324356678"/>
    <nd ref="324356698"/>
    <nd ref="324356676"/>
    <nd ref="324356700"/>
    <nd ref="324356680"/>
    <nd ref="324356703"/>
    <nd ref="33202649"/>
    <tag k="highway" v="secondary"/>
    <tag k="junction" v="roundabout"/>
    <tag k="maxspeed" v="50"/>
    <tag k="name" v="Lindenstraße"/>
    <tag k="oneway" v="yes"/>
    <tag k="ref" v="L 343"/>
  </way>
  <way id="29430468" version="5" timestamp="2009-11-13T02:00:23Z" uid="24748" user="mabapla" changeset="3103283">
    <nd ref="33202649"/>
    <nd ref="324356705"/>
    <nd ref="324356682"/>
    <nd ref="324356688"/>
    <nd ref="33202634"/>
    <nd ref="324356690"/>
    <nd ref="324356684"/>
    <nd ref="324356693"/>
    <nd ref="33202635"/>
    <nd ref="324356695"/>
    <nd ref="324356678"/>
    <nd ref="324356698"/>
    <nd ref="324356676"/>
    <nd ref="324356700"/>
    <nd ref="324356680"/>
    <nd ref="324356703"/>
    <nd ref="33202649"/>
    <tag k="highway" v="secondary"/>
    <tag k="junction" v="roundabout"/>
    <tag k="maxspeed" v="50"/>
    <tag k="name" v="Lindenstraße"/>
    <tag k="oneway" v="yes"/>
    <tag k="ref" v="L 343"/>
  </way>
  <way id="29430468" version="6" timestamp="2012-02-03T12:04:46Z" uid="442210" user="dwausr" changeset="10575497"/>
  <way id="29430469" version="2" timestamp="2009-02-09T15:32:28Z" uid="67142" user="zottel" changeset="295088">
    <nd ref="33202649"/>
    <nd ref="324356705"/>
    <nd ref="324356682"/>
    <nd ref="324356688"/>
    <nd ref="33202634"/>
    <nd ref="324356690"/>
    <nd ref="324356684"/>
    <nd ref="324356693"/>
    <nd ref="33202635"/>
    <tag k="created_by" v="JOSM"/>
    <tag k="highway" v="secondary"/>
    <tag k="junction" v="roundabout"/>
    <tag k="name" v="Lindenstraße"/>
    <tag k="oneway" v="yes"/>
    <tag k="ref" v="L 343"/>
  </way>
  <way id="29430469" version="3" timestamp="2009-05-08T20:35:58Z" uid="48579" user="willikl" changeset="1121753"/>
  <way id="29430470" version="2" timestamp="2009-02-08T23:56:52Z" uid="67142" user="zottel" changeset="291664">
    <nd ref="33202635"/>
    <nd ref="324356707"/>
    <nd ref="33202636"/>
    <nd ref="324356711"/>
    <nd ref="33202637"/>
    <nd ref="324356713"/>
    <nd ref="33202638"/>
    <nd ref="324356715"/>
    <nd ref="33202639"/>
    <nd ref="324356717"/>
    <nd ref="33202640"/>
    <nd ref="33202641"/>
    <nd ref="324356719"/>
    <nd ref="343585555"/>
    <nd ref="324356721"/>
    <nd ref="33202642"/>
    <nd ref="343585549"/>
    <nd ref="324356723"/>
    <nd ref="324356749"/>
    <nd ref="343585548"/>
    <nd ref="324356725"/>
    <tag k="created_by" v="JOSM"/>
    <tag k="highway" v="secondary"/>
    <tag k="maxspeed" v="30"/>
    <tag k="ref" v="L 343"/>
  </way>
  <way id="29430470" version="3" timestamp="2009-02-09T00:57:38Z" uid="67142" user="zottel" changeset="291664">
    <nd ref="33202635"/>
    <nd ref="324356707"/>
    <nd ref="33202636"/>
    <nd ref="324356711"/>
    <nd ref="33202637"/>
    <nd ref="324356713"/>
    <nd ref="33202638"/>
    <nd ref="324356715"/>
    <nd ref="33202639"/>
    <nd ref="324356717"/>
    <nd ref="33202640"/>
    <nd ref="343592568"/>
    <nd ref="33202641"/>
    <nd ref="324356719"/>
    <nd ref="343585555"/>
    <nd ref="324356721"/>
    <nd ref="33202642"/>
    <nd ref="343585549"/>
    <nd ref="324356723"/>
    <nd ref="324356749"/>
    <nd ref="343585548"/>
    <nd ref="324356725"/>
    <tag k="created_by" v="JOSM"/>
    <tag k="highway" v="secondary"/>
    <tag k="maxspeed" v="30"/>
    <tag k="ref" v="L 343"/>
  </way>
  <way id="29430470" version="4" timestamp="2009-02-09T15:32:28Z" uid="67142" user="zottel" changeset="295088">
    <nd ref="33202635"/>
    <nd ref="324356707"/>
    <nd ref="343685496"/>
    <nd ref="33202636"/>
    <nd ref="324356711"/>
    <nd ref="33202637"/>
    <tag k="created_by" v="JOSM"/>
    <tag k="highway" v="secondary"/>
    <tag k="maxspeed" v="30"/>
    <tag k="name" v="Lindenstraße"/>
    <tag k="ref" v="L 343"/>
  </way>
  <way id="29430470" version="5" timestamp="2009-05-08T19:30:36Z" uid="48579" user="willikl" changeset="1121059">
    <nd ref="33202635"/>
    <nd ref="324356707"/>
    <nd ref="343685496"/>
    <nd ref="33202636"/>
    <nd ref="392411325"/>
    <nd ref="324356711"/>
    <nd ref="33202637"/>
    <tag k="created_by" v="JOSM"/>
    <tag k="highway" v="secondary"/>
    <tag k="maxspeed" v="30"/>
    <tag k="name" v="Lindenstraße"/>
    <tag k="ref" v="L 343"/>
  </way>
  <way id="29430470" version="6" timestamp="2009-05-25T15:04:02Z" uid="85761" user="klausis" changeset="1317121">
    <nd ref="33202635"/>
    <nd ref="324356707"/>
    <nd ref="343685496"/>
    <nd ref="33202636"/>
    <nd ref="392411325"/>
    <nd ref="324356711"/>
    <nd ref="33202637"/>
    <tag k="highway" v="secondary"/>
    <tag k="maxspeed" v="30"/>
    <tag k="name" v="Lindenstraße"/>
    <tag k="ref" v="L 343"/>
  </way>
  <way id="29430470" version="7" timestamp="2009-11-13T02:00:25Z" uid="24748" user="mabapla" changeset="3103283">
    <nd ref="33202635"/>
    <nd ref="324356707"/>
    <nd ref="343685496"/>
    <nd ref="33202636"/>
    <nd ref="392411325"/>
    <nd ref="324356711"/>
    <nd ref="33202637"/>
    <tag k="highway" v="secondary"/>
    <tag k="maxspeed" v="30"/>
    <tag k="name" v="Lindenstraße"/>
    <tag k="ref" v="L 343"/>
  </way>
  <way id="29430470" version="8" timestamp="2010-03-09T10:38:11Z" uid="238143" user="Super-AK" changeset="4079813">
    <nd ref="33202635"/>
    <nd ref="324356707"/>
    <nd ref="343685496"/>
    <nd ref="33202636"/>
    <nd ref="392411325"/>
    <nd ref="324356711"/>
    <nd ref="33202637"/>
    <tag k="highway" v="secondary"/>
    <tag k="maxspeed" v="50"/>
    <tag k="name" v="Lindenstraße"/>
    <tag k="ref" v="L 343"/>
  </way>
  <way id="29430470" version="9" timestamp="2011-05-17T21:09:06Z" uid="101348" user="Stefan Karl" changeset="8176266">
    <nd ref="33202635"/>
    <nd ref="324356707"/>
    <nd ref="343685496"/>
    <nd ref="33202636"/>
    <nd ref="392411325"/>
    <tag k="highway" v="secondary"/>
    <tag k="maxspeed" v="50"/>
    <tag k="name" v="Lindenstraße"/>
    <tag k="ref" v="L 343"/>
  </way>
  <way id="29430470" version="10" timestamp="2012-02-03T12:04:46Z" uid="442210" user="dwausr" changeset="10575497"/>
  <way id="29430472" version="2" timestamp="2009-02-09T15:32:28Z" uid="67142" user="zottel" changeset="295088">
    <nd ref="33202643"/>
    <nd ref="324356747"/>
    <tag k="created_by" v="JOSM"/>
    <tag k="highway" v="secondary"/>
    <tag k="maxspeed" v="30"/>
    <tag k="name" v="Liebenzeller Straße"/>
    <tag k="ref" v="L 343"/>
  </way>
  <way id="29430472" version="3" timestamp="2009-04-21T20:58:44Z" uid="63969" user="olvagor" changeset="888742">
    <nd ref="33202643"/>
    <nd ref="324356747"/>
    <tag k="created_by" v="JOSM"/>
    <tag k="highway" v="secondary"/>
    <tag k="maxspeed" v="30"/>
    <tag k="name" v="Liebenzeller Straße"/>
    <tag k="ref" v="L 343"/>
    <tag k="surface" v="paved"/>
  </way>
  <way id="29430472" version="4" timestamp="2009-05-25T15:04:01Z" uid="85761" user="klausis" changeset="1317121">
    <nd ref="33202643"/>
    <nd ref="324356747"/>
    <tag k="highway" v="secondary"/>
    <tag k="maxspeed" v="30"/>
    <tag k="name" v="Liebenzeller Straße"/>
    <tag k="ref" v="L 343"/>
    <tag k="surface" v="paved"/>
  </way>
  <way id="29430472" version="5" timestamp="2009-11-13T02:00:32Z" uid="24748" user="mabapla" changeset="3103283">
    <nd ref="33202643"/>
    <nd ref="324356747"/>
    <tag k="highway" v="secondary"/>
    <tag k="maxspeed" v="30"/>
    <tag k="name" v="Liebenzeller Straße"/>
    <tag k="ref" v="L 343"/>
    <tag k="surface" v="paved"/>
  </way>
  <way id="29430472" version="6" timestamp="2010-03-09T10:38:11Z" uid="238143" user="Super-AK" changeset="4079813">
    <nd ref="33202643"/>
    <nd ref="324356747"/>
    <tag k="highway" v="secondary"/>
    <tag k="maxspeed" v="50"/>
    <tag k="name" v="Liebenzeller Straße"/>
    <tag k="ref" v="L 343"/>
    <tag k="surface" v="paved"/>
  </way>
  <way id="29430472" version="7" timestamp="2011-12-18T13:24:45Z" uid="101348" user="Stefan Karl" changeset="10146432">
    <nd ref="33202643"/>
    <nd ref="324356747"/>
    <tag k="highway" v="secondary"/>
    <tag k="maxspeed" v="50"/>
    <tag k="name" v="Liebenzeller Straße"/>
    <tag k="ref" v="L 343"/>
    <tag k="surface" v="paved"/>
  </way>
  <way id="29430472" version="8" timestamp="2012-02-03T12:04:45Z" uid="442210" user="dwausr" changeset="10575497"/>
  <way id="29430473" version="2" timestamp="2009-02-08T23:56:52Z" uid="67142" user="zottel" changeset="291664">
    <nd ref="324356725"/>
    <nd ref="343585546"/>
    <nd ref="33202643"/>
    <tag k="created_by" v="JOSM"/>
    <tag k="highway" v="secondary"/>
    <tag k="maxspeed" v="30"/>
    <tag k="ref" v="L 343"/>
  </way>
  <way id="29430473" version="3" timestamp="2009-02-09T15:32:30Z" uid="67142" user="zottel" changeset="295088">
    <nd ref="324356725"/>
    <nd ref="343585546"/>
    <nd ref="33202643"/>
    <tag k="created_by" v="JOSM"/>
    <tag k="highway" v="secondary"/>
    <tag k="maxspeed" v="30"/>
    <tag k="name" v="Liebenzeller Straße"/>
    <tag k="ref" v="L 343"/>
  </way>
  <way id="29430473" version="4" timestamp="2009-04-21T20:58:44Z" uid="63969" user="olvagor" changeset="888742">
    <nd ref="324356725"/>
    <nd ref="343585546"/>
    <nd ref="33202643"/>
    <tag k="created_by" v="JOSM"/>
    <tag k="highway" v="secondary"/>
    <tag k="maxspeed" v="30"/>
    <tag k="name" v="Liebenzeller Straße"/>
    <tag k="ref" v="L 343"/>
    <tag k="surface" v="paved"/>
  </way>
  <way id="29430473" version="5" timestamp="2009-05-25T15:04:01Z" uid="85761" user="klausis" changeset="1317121">
    <nd ref="324356725"/>
    <nd ref="343585546"/>
    <nd ref="33202643"/>
    <tag k="highway" v="secondary"/>
    <tag k="maxspeed" v="30"/>
    <tag k="name" v="Liebenzeller Straße"/>
    <tag k="ref" v="L 343"/>
    <tag k="surface" v="paved"/>
  </way>
  <way id="29430473" version="6" timestamp="2009-11-13T02:00:32Z" uid="24748" user="mabapla" changeset="3103283">
    <nd ref="324356725"/>
    <nd ref="343585546"/>
    <nd ref="33202643"/>
    <tag k="highway" v="secondary"/>
    <tag k="maxspeed" v="30"/>
    <tag k="name" v="Liebenzeller Straße"/>
    <tag k="ref" v="L 343"/>
    <tag k="surface" v="paved"/>
  </way>
  <way id="29430473" version="7" timestamp="2010-03-09T10:38:11Z" uid="238143" user="Super-AK" changeset="4079813">
    <nd ref="324356725"/>
    <nd ref="343585546"/>
    <nd ref="33202643"/>
    <tag k="highway" v="secondary"/>
    <tag k="maxspeed" v="50"/>
    <tag k="name" v="Liebenzeller Straße"/>
    <tag k="ref" v="L 343"/>
    <tag k="surface" v="paved"/>
  </way>
  <way id="29430473" version="8" timestamp="2011-05-12T00:30:50Z" uid="93126" user="EmilioZ" changeset="8117737">
    <nd ref="324356725"/>
    <nd ref="33202643"/>
    <tag k="highway" v="secondary"/>
    <tag k="maxspeed" v="50"/>
    <tag k="name" v="Liebenzeller Straße"/>
    <tag k="ref" v="L 343"/>
    <tag k="surface" v="paved"/>
  </way>
  <way id="29430473" version="9" timestamp="2012-02-03T12:04:46Z" uid="442210" user="dwausr" changeset="10575497"/>
  <way id="29430474" version="2" timestamp="2009-02-09T15:32:31Z" uid="67142" user="zottel" changeset="295088">
    <nd ref="324356740"/>
    <nd ref="33202625"/>
    <nd ref="324356743"/>
    <nd ref="33202626"/>
    <nd ref="324356745"/>
    <nd ref="33202627"/>
    <nd ref="33202628"/>
    <nd ref="33202629"/>
    <nd ref="255299269"/>
    <nd ref="33202630"/>
    <nd ref="324356659"/>
    <nd ref="324356663"/>
    <nd ref="33202631"/>
    <nd ref="324356667"/>
    <nd ref="324356671"/>
    <nd ref="105678923"/>
    <tag k="created_by" v="JOSM"/>
    <tag k="highway" v="secondary"/>
    <tag k="maxspeed" v="30"/>
    <tag k="ref" v="L 343"/>
  </way>
  <way id="29430474" version="3" timestamp="2009-02-24T10:46:36Z" uid="63517" user="GeoBoris" changeset="648747">
    <nd ref="324356740"/>
    <nd ref="33202625"/>
    <nd ref="324356743"/>
    <nd ref="33202626"/>
    <nd ref="324356745"/>
    <nd ref="33202627"/>
    <nd ref="351134671"/>
    <nd ref="33202628"/>
    <nd ref="33202629"/>
    <nd ref="255299269"/>
    <nd ref="33202630"/>
    <nd ref="324356659"/>
    <nd ref="324356663"/>
    <nd ref="33202631"/>
    <nd ref="324356667"/>
    <nd ref="324356671"/>
    <nd ref="105678923"/>
    <tag k="created_by" v="Potlatch 0.10f"/>
    <tag k="highway" v="secondary"/>
    <tag k="maxspeed" v="30"/>
    <tag k="ref" v="L 343"/>
  </way>
  <way id="29430474" version="4" timestamp="2009-03-23T00:29:46Z" uid="103480" user="waldschrott" changeset="847423">
    <nd ref="324356740"/>
    <nd ref="33202625"/>
    <nd ref="324356743"/>
    <nd ref="33202626"/>
    <nd ref="324356745"/>
    <nd ref="364858634"/>
    <nd ref="33202627"/>
    <nd ref="364858686"/>
    <nd ref="351134671"/>
    <nd ref="33202628"/>
    <nd ref="33202629"/>
    <nd ref="364858688"/>
    <nd ref="255299269"/>
    <nd ref="33202630"/>
    <nd ref="324356659"/>
    <nd ref="324356663"/>
    <nd ref="33202631"/>
    <nd ref="324356667"/>
    <nd ref="324356671"/>
    <nd ref="105678923"/>
    <tag k="created_by" v="Potlatch 0.10f"/>
    <tag k="highway" v="secondary"/>
    <tag k="maxspeed" v="30"/>
    <tag k="ref" v="L 343"/>
  </way>
  <way id="29430474" version="5" timestamp="2009-04-21T20:58:45Z" uid="63969" user="olvagor" changeset="888742">
    <nd ref="324356740"/>
    <nd ref="33202625"/>
    <nd ref="324356743"/>
    <nd ref="33202626"/>
    <nd ref="324356745"/>
    <nd ref="364858634"/>
    <nd ref="33202627"/>
    <nd ref="364858686"/>
    <nd ref="351134671"/>
    <nd ref="33202628"/>
    <nd ref="33202629"/>
    <nd ref="364858688"/>
    <nd ref="255299269"/>
    <nd ref="324356659"/>
    <nd ref="324356663"/>
    <nd ref="33202631"/>
    <nd ref="324356667"/>
    <nd ref="324356671"/>
    <nd ref="105678923"/>
    <tag k="created_by" v="Potlatch 0.10f"/>
    <tag k="highway" v="secondary"/>
    <tag k="maxspeed" v="30"/>
    <tag k="ref" v="L 343"/>
  </way>
  <way id="29430474" version="6" timestamp="2009-04-22T16:01:49Z" uid="63969" user="olvagor" changeset="901263">
    <nd ref="324356740"/>
    <nd ref="380726003"/>
    <nd ref="33202625"/>
    <nd ref="324356743"/>
    <nd ref="380726000"/>
    <nd ref="33202626"/>
    <nd ref="324356745"/>
    <nd ref="364858634"/>
    <nd ref="33202627"/>
    <nd ref="364858686"/>
    <nd ref="380725998"/>
    <nd ref="380725996"/>
    <nd ref="351134671"/>
    <nd ref="33202628"/>
    <nd ref="380725994"/>
    <nd ref="380725990"/>
    <nd ref="380725992"/>
    <nd ref="380725987"/>
    <nd ref="33202629"/>
    <nd ref="364858688"/>
    <nd ref="255299269"/>
    <nd ref="324356659"/>
    <nd ref="324356663"/>
    <nd ref="33202631"/>
    <nd ref="324356667"/>
    <nd ref="324356671"/>
    <nd ref="105678923"/>
    <tag k="created_by" v="Potlatch 0.10f"/>
    <tag k="highway" v="secondary"/>
    <tag k="maxspeed" v="30"/>
    <tag k="name" v="Bergstraße"/>
    <tag k="ref" v="L 343"/>
    <tag k="surface" v="paved"/>
  </way>
  <way id="29430474" version="7" timestamp="2009-04-22T19:30:31Z" uid="63969" user="olvagor" changeset="905375">
    <nd ref="324356740"/>
    <nd ref="381108683"/>
    <nd ref="380726003"/>
    <nd ref="381108815"/>
    <nd ref="33202625"/>
    <nd ref="324356743"/>
    <nd ref="380726000"/>
    <nd ref="33202626"/>
    <nd ref="324356745"/>
    <nd ref="364858634"/>
    <nd ref="33202627"/>
    <nd ref="364858686"/>
    <nd ref="380725998"/>
    <nd ref="380725996"/>
    <nd ref="351134671"/>
    <nd ref="33202628"/>
    <nd ref="380725994"/>
    <nd ref="380725990"/>
    <nd ref="380725992"/>
    <nd ref="380725987"/>
    <nd ref="33202629"/>
    <nd ref="364858688"/>
    <nd ref="255299269"/>
    <nd ref="324356659"/>
    <nd ref="324356663"/>
    <nd ref="33202631"/>
    <nd ref="324356667"/>
    <nd ref="324356671"/>
    <nd ref="105678923"/>
    <tag k="created_by" v="Potlatch 0.10f"/>
    <tag k="highway" v="secondary"/>
    <tag k="maxspeed" v="50"/>
    <tag k="name" v="Bergstraße"/>
    <tag k="ref" v="L 343"/>
    <tag k="surface" v="paved"/>
  </way>
  <way id="29430474" version="8" timestamp="2009-04-22T21:06:04Z" uid="48579" user="willikl" changeset="907363">
    <nd ref="324356740"/>
    <nd ref="381108683"/>
    <nd ref="380726003"/>
    <nd ref="381108815"/>
    <nd ref="33202625"/>
    <nd ref="324356743"/>
    <nd ref="380726000"/>
    <nd ref="33202626"/>
    <nd ref="324356745"/>
    <nd ref="364858634"/>
    <nd ref="33202627"/>
    <nd ref="364858686"/>
    <nd ref="380725998"/>
    <nd ref="380725996"/>
    <nd ref="351134671"/>
    <nd ref="33202628"/>
    <nd ref="380725994"/>
    <nd ref="381439845"/>
    <nd ref="380725990"/>
    <nd ref="380725992"/>
    <nd ref="380725987"/>
    <nd ref="33202629"/>
    <nd ref="364858688"/>
    <nd ref="255299269"/>
    <nd ref="324356659"/>
    <nd ref="324356663"/>
    <nd ref="33202631"/>
    <nd ref="324356667"/>
    <nd ref="324356671"/>
    <nd ref="105678923"/>
    <tag k="created_by" v="Potlatch 0.10f"/>
    <tag k="highway" v="secondary"/>
    <tag k="maxspeed" v="50"/>
    <tag k="name" v="Bergstraße"/>
    <tag k="ref" v="L 343"/>
    <tag k="surface" v="paved"/>
  </way>
  <way id="29430474" version="9" timestamp="2009-05-25T15:04:01Z" uid="85761" user="klausis" changeset="1317121">
    <nd ref="324356740"/>
    <nd ref="381108683"/>
    <nd ref="380726003"/>
    <nd ref="381108815"/>
    <nd ref="33202625"/>
    <nd ref="324356743"/>
    <nd ref="380726000"/>
    <nd ref="33202626"/>
    <nd ref="324356745"/>
    <nd ref="364858634"/>
    <nd ref="33202627"/>
    <nd ref="364858686"/>
    <nd ref="380725998"/>
    <nd ref="380725996"/>
    <nd ref="351134671"/>
    <nd ref="33202628"/>
    <nd ref="380725994"/>
    <nd ref="381439845"/>
    <nd ref="380725990"/>
    <nd ref="380725992"/>
    <nd ref="380725987"/>
    <nd ref="33202629"/>
    <nd ref="364858688"/>
    <nd ref="255299269"/>
    <nd ref="324356659"/>
    <nd ref="324356663"/>
    <nd ref="33202631"/>
    <nd ref="324356667"/>
    <nd ref="324356671"/>
    <nd ref="105678923"/>
    <tag k="highway" v="secondary"/>
    <tag k="maxspeed" v="50"/>
    <tag k="name" v="Bergstraße"/>
    <tag k="ref" v="L 343"/>
    <tag k="surface" v="paved"/>
  </way>
  <way id="29430474" version="10" timestamp="2009-11-13T01:02:19Z" uid="24748" user="mabapla" changeset="3103165">
    <nd ref="324356740"/>
    <nd ref="381108683"/>
    <nd ref="380726003"/>
    <nd ref="381108815"/>
    <nd ref="33202625"/>
    <nd ref="324356743"/>
    <nd ref="380726000"/>
    <nd ref="33202626"/>
    <nd ref="324356745"/>
    <nd ref="364858634"/>
    <nd ref="33202627"/>
    <nd ref="364858686"/>
    <nd ref="380725998"/>
    <nd ref="380725996"/>
    <nd ref="351134671"/>
    <nd ref="33202628"/>
    <nd ref="380725994"/>
    <nd ref="381439845"/>
    <nd ref="380725992"/>
    <nd ref="380725987"/>
    <nd ref="33202629"/>
    <nd ref="364858688"/>
    <nd ref="255299269"/>
    <nd ref="324356659"/>
    <nd ref="324356663"/>
    <nd ref="33202631"/>
    <nd ref="324356667"/>
    <nd ref="324356671"/>
    <nd ref="105678923"/>
    <tag k="highway" v="secondary"/>
    <tag k="maxspeed" v="50"/>
    <tag k="name" v="Bergstraße"/>
    <tag k="ref" v="L 343"/>
    <tag k="surface" v="paved"/>
  </way>
  <way id="29430474" version="11" timestamp="2009-11-13T01:59:54Z" uid="24748" user="mabapla" changeset="3103283">
    <nd ref="324356740"/>
    <nd ref="381108683"/>
    <nd ref="380726003"/>
    <nd ref="381108815"/>
    <nd ref="33202625"/>
    <nd ref="324356743"/>
    <nd ref="380726000"/>
    <nd ref="33202626"/>
    <nd ref="324356745"/>
    <nd ref="364858634"/>
    <nd ref="33202627"/>
    <nd ref="364858686"/>
    <nd ref="380725998"/>
    <nd ref="380725996"/>
    <nd ref="351134671"/>
    <nd ref="33202628"/>
    <nd ref="380725994"/>
    <nd ref="381439845"/>
    <nd ref="380725992"/>
    <nd ref="380725987"/>
    <nd ref="33202629"/>
    <nd ref="364858688"/>
    <nd ref="255299269"/>
    <nd ref="324356659"/>
    <nd ref="324356663"/>
    <nd ref="33202631"/>
    <nd ref="324356667"/>
    <nd ref="324356671"/>
    <nd ref="105678923"/>
    <tag k="highway" v="secondary"/>
    <tag k="maxspeed" v="50"/>
    <tag k="name" v="Bergstraße"/>
    <tag k="ref" v="L 343"/>
    <tag k="surface" v="paved"/>
  </way>
  <way id="29430474" version="12" timestamp="2011-05-17T21:09:05Z" uid="101348" user="Stefan Karl" changeset="8176266">
    <nd ref="324356740"/>
    <nd ref="381108683"/>
    <nd ref="380726003"/>
    <nd ref="381108815"/>
    <tag k="highway" v="secondary"/>
    <tag k="maxspeed" v="50"/>
    <tag k="name" v="Bergstraße"/>
    <tag k="ref" v="L 343"/>
    <tag k="surface" v="paved"/>
  </way>
  <way id="29430475" version="2" timestamp="2009-02-08T23:56:53Z" uid="67142" user="zottel" changeset="291664">
    <nd ref="324356747"/>
    <nd ref="343585542"/>
    <tag k="created_by" v="JOSM"/>
    <tag k="highway" v="secondary"/>
    <tag k="maxspeed" v="70"/>
    <tag k="ref" v="L 343"/>
  </way>
  <way id="29430475" version="3" timestamp="2009-04-21T20:58:45Z" uid="63969" user="olvagor" changeset="888742">
    <nd ref="324356747"/>
    <nd ref="343585542"/>
    <tag k="created_by" v="JOSM"/>
    <tag k="highway" v="secondary"/>
    <tag k="maxspeed" v="70"/>
    <tag k="ref" v="L 343"/>
    <tag k="surface" v="paved"/>
  </way>
  <way id="29430475" version="4" timestamp="2009-05-25T15:04:01Z" uid="85761" user="klausis" changeset="1317121">
    <nd ref="324356747"/>
    <nd ref="343585542"/>
    <tag k="highway" v="secondary"/>
    <tag k="maxspeed" v="70"/>
    <tag k="ref" v="L 343"/>
    <tag k="surface" v="paved"/>
  </way>
  <way id="29430475" version="5" timestamp="2009-11-13T01:59:46Z" uid="24748" user="mabapla" changeset="3103283">
    <nd ref="324356747"/>
    <nd ref="343585542"/>
    <tag k="highway" v="secondary"/>
    <tag k="maxspeed" v="70"/>
    <tag k="ref" v="L 343"/>
    <tag k="surface" v="paved"/>
  </way>
  <way id="29430475" version="6" timestamp="2010-03-09T09:24:09Z" uid="238143" user="Super-AK" changeset="4079254">
    <nd ref="324356747"/>
    <nd ref="343585542"/>
    <tag k="highway" v="secondary"/>
    <tag k="maxspeed" v="70"/>
    <tag k="maxspeed:forward" v="100"/>
    <tag k="ref" v="L 343"/>
    <tag k="surface" v="paved"/>
  </way>
  <way id="29430475" version="7" timestamp="2011-12-18T13:25:45Z" uid="101348" user="Stefan Karl" changeset="10146432"/>
  <way id="29430765" version="1" timestamp="2009-01-01T19:35:41Z" uid="33382" user="de_muur" changeset="701380">
    <nd ref="324360181"/>
    <nd ref="324360170"/>
    <nd ref="266007771"/>
    <nd ref="311103934"/>
    <nd ref="311103933"/>
    <nd ref="324360197"/>
    <nd ref="324360205"/>
    <nd ref="324360213"/>
    <nd ref="324360222"/>
    <nd ref="324360230"/>
    <nd ref="324360238"/>
    <nd ref="324360247"/>
    <nd ref="324360255"/>
    <nd ref="324360263"/>
    <nd ref="324360181"/>
    <tag k="created_by" v="JOSM"/>
    <tag k="natural" v="scrub"/>
  </way>
  <way id="29430765" version="2" timestamp="2009-01-01T20:02:18Z" uid="33382" user="de_muur" changeset="701380">
    <nd ref="324360181"/>
    <nd ref="324360170"/>
    <nd ref="266007771"/>
    <nd ref="311103934"/>
    <nd ref="311103933"/>
    <nd ref="324360197"/>
    <nd ref="324360205"/>
    <nd ref="324360213"/>
    <nd ref="324360222"/>
    <nd ref="324360230"/>
    <nd ref="324360238"/>
    <nd ref="324360247"/>
    <nd ref="324369593"/>
    <nd ref="324360255"/>
    <nd ref="324360263"/>
    <nd ref="324369923"/>
    <nd ref="324360181"/>
    <tag k="created_by" v="JOSM"/>
    <tag k="natural" v="scrub"/>
  </way>
  <way id="29430765" version="3" timestamp="2009-01-03T08:32:23Z" uid="33382" user="de_muur" changeset="720402">
    <nd ref="324360181"/>
    <nd ref="324360170"/>
    <nd ref="266007771"/>
    <nd ref="311103934"/>
    <nd ref="311103933"/>
    <nd ref="324957183"/>
    <nd ref="324360197"/>
    <nd ref="324360205"/>
    <nd ref="324360213"/>
    <nd ref="324360222"/>
    <nd ref="324360230"/>
    <nd ref="324360238"/>
    <nd ref="324360247"/>
    <nd ref="324369593"/>
    <nd ref="324360255"/>
    <nd ref="324360263"/>
    <nd ref="324369923"/>
    <nd ref="324360181"/>
    <tag k="created_by" v="JOSM"/>
    <tag k="natural" v="scrub"/>
  </way>
  <way id="29430765" version="4" timestamp="2010-10-03T06:49:59Z" uid="33382" user="de_muur" changeset="5941344">
    <nd ref="324360181"/>
    <nd ref="324360170"/>
    <nd ref="266007771"/>
    <nd ref="311103934"/>
    <nd ref="311103933"/>
    <nd ref="324957183"/>
    <nd ref="324360197"/>
    <nd ref="936131960"/>
    <nd ref="324360205"/>
    <nd ref="324360213"/>
    <nd ref="324360222"/>
    <nd ref="324360230"/>
    <nd ref="324360238"/>
    <nd ref="324360247"/>
    <nd ref="324369593"/>
    <nd ref="324360255"/>
    <nd ref="324360263"/>
    <nd ref="324369923"/>
    <nd ref="324360181"/>
    <tag k="natural" v="scrub"/>
  </way>
  <way id="29430765" version="5" timestamp="2011-06-01T17:25:14Z" uid="451041" user="GPSfriend" changeset="8312140">
    <nd ref="324360181"/>
    <nd ref="324360170"/>
    <nd ref="266007771"/>
    <nd ref="311103934"/>
    <nd ref="311103933"/>
    <nd ref="324957183"/>
    <nd ref="324360197"/>
    <nd ref="936131960"/>
    <nd ref="324360205"/>
    <nd ref="324360213"/>
    <nd ref="324360222"/>
    <nd ref="324360230"/>
    <nd ref="1307933897"/>
    <nd ref="324360238"/>
    <nd ref="324360247"/>
    <nd ref="324369593"/>
    <nd ref="324360255"/>
    <nd ref="324360263"/>
    <nd ref="324369923"/>
    <nd ref="324360181"/>
    <tag k="natural" v="scrub"/>
  </way>
  <way id="29430765" version="6" timestamp="2012-03-26T08:49:53Z" uid="349191" user="Glühwürmchen" changeset="11103118"/>
  <way id="29430810" version="5" timestamp="2010-03-28T00:43:41Z" uid="20587" user="balrog-kun" changeset="4250871">
    <nd ref="122943492"/>
    <nd ref="122943494"/>
    <nd ref="122943497"/>
    <nd ref="122943499"/>
    <nd ref="122943501"/>
    <tag k="created_by" v="Potlatch 0.10f"/>
    <tag k="highway" v="residential"/>
    <tag k="name" v="East Avenue South"/>
    <tag k="tiger:cfcc" v="A41"/>
    <tag k="tiger:county" v="Los Angeles, CA"/>
    <tag k="tiger:name_base" v="E"/>
    <tag k="tiger:name_direction_suffix" v="S"/>
    <tag k="tiger:name_type" v="Ave"/>
    <tag k="tiger:reviewed" v="no"/>
    <tag k="tiger:separated" v="no"/>
    <tag k="tiger:source" v="tiger_import_dch_v0.6_20070809"/>
    <tag k="tiger:tlid" v="141833393:141856486:141531319"/>
  </way>
  <way id="29430810" version="6" timestamp="2010-04-13T18:10:44Z" uid="20587" user="balrog-kun" changeset="4416058">
    <nd ref="122943492"/>
    <nd ref="122943494"/>
    <nd ref="122943497"/>
    <nd ref="122943499"/>
    <nd ref="122943501"/>
    <tag k="created_by" v="Potlatch 0.10f"/>
    <tag k="highway" v="residential"/>
    <tag k="name" v="East Avenue S"/>
    <tag k="tiger:cfcc" v="A41"/>
    <tag k="tiger:county" v="Los Angeles, CA"/>
    <tag k="tiger:name_base" v="S"/>
    <tag k="tiger:name_direction_prefix" v="E"/>
    <tag k="tiger:name_type" v="Ave"/>
    <tag k="tiger:reviewed" v="no"/>
    <tag k="tiger:separated" v="no"/>
    <tag k="tiger:source" v="tiger_import_dch_v0.6_20070809"/>
    <tag k="tiger:tlid" v="141833393:141856486:141531319"/>
  </way>
  <way id="29430815" version="3" timestamp="2010-03-28T00:43:41Z" uid="20587" user="balrog-kun" changeset="4250871">
    <nd ref="122943501"/>
    <nd ref="122943505"/>
    <nd ref="122943507"/>
    <nd ref="122943509"/>
    <nd ref="122943511"/>
    <nd ref="122943514"/>
    <nd ref="621639717"/>
    <nd ref="122513259"/>
    <nd ref="122943516"/>
    <nd ref="621640066"/>
    <nd ref="122943518"/>
    <nd ref="621640059"/>
    <nd ref="122943520"/>
    <nd ref="122943522"/>
    <nd ref="122943524"/>
    <nd ref="122521488"/>
    <nd ref="122943526"/>
    <nd ref="122826784"/>
    <nd ref="122494080"/>
    <nd ref="122749983"/>
    <tag k="highway" v="track"/>
    <tag k="name" v="East Avenue South"/>
    <tag k="tiger:cfcc" v="A41"/>
    <tag k="tiger:county" v="Los Angeles, CA"/>
    <tag k="tiger:name_base" v="E"/>
    <tag k="tiger:name_direction_suffix" v="S"/>
    <tag k="tiger:name_type" v="Ave"/>
    <tag k="tiger:reviewed" v="no"/>
    <tag k="tiger:separated" v="no"/>
    <tag k="tiger:source" v="tiger_import_dch_v0.6_20070809"/>
    <tag k="tiger:tlid" v="141833393:141856486:141531319"/>
  </way>
  <way id="29430815" version="4" timestamp="2010-04-13T18:10:44Z" uid="20587" user="balrog-kun" changeset="4416058">
    <nd ref="122943501"/>
    <nd ref="122943505"/>
    <nd ref="122943507"/>
    <nd ref="122943509"/>
    <nd ref="122943511"/>
    <nd ref="122943514"/>
    <nd ref="621639717"/>
    <nd ref="122513259"/>
    <nd ref="122943516"/>
    <nd ref="621640066"/>
    <nd ref="122943518"/>
    <nd ref="621640059"/>
    <nd ref="122943520"/>
    <nd ref="122943522"/>
    <nd ref="122943524"/>
    <nd ref="122521488"/>
    <nd ref="122943526"/>
    <nd ref="122826784"/>
    <nd ref="122494080"/>
    <nd ref="122749983"/>
    <tag k="highway" v="track"/>
    <tag k="name" v="East Avenue S"/>
    <tag k="tiger:cfcc" v="A41"/>
    <tag k="tiger:county" v="Los Angeles, CA"/>
    <tag k="tiger:name_base" v="S"/>
    <tag k="tiger:name_direction_prefix" v="E"/>
    <tag k="tiger:name_type" v="Ave"/>
    <tag k="tiger:reviewed" v="no"/>
    <tag k="tiger:separated" v="no"/>
    <tag k="tiger:source" v="tiger_import_dch_v0.6_20070809"/>
    <tag k="tiger:tlid" v="141833393:141856486:141531319"/>
  </way>
</osm>
