<?xml version='1.0' encoding='UTF-8'?>
<osm version="0.6" generator="libosmium/2.20.0">
  <way id="29446447" version="3" timestamp="2010-03-28T00:43:42Z" uid="20587" user="balrog-kun" changeset="4250871">
    <nd ref="324534889"/>
    <nd ref="324534894"/>
    <nd ref="324534899"/>
    <nd ref="324534903"/>
    <nd ref="324534908"/>
    <nd ref="324534911"/>
    <nd ref="324534885"/>
    <tag k="highway" v="service"/>
    <tag k="name" v="North Point Lane"/>
    <tag k="oneway" v="yes"/>
  </way>
  <way id="29446457" version="3" timestamp="2010-03-28T00:43:43Z" uid="20587" user="balrog-kun" changeset="4250871">
    <nd ref="447643007"/>
    <nd ref="447640977"/>
    <nd ref="447642949"/>
    <nd ref="49054330"/>
    <nd ref="48923176"/>
    <tag k="highway" v="residential"/>
    <tag k="name" v="Pangea Drive"/>
  </way>
  <way id="29446457" version="4" timestamp="2011-05-05T02:36:53Z" uid="1679" user="andrewpmk" changeset="8054042">
    <nd ref="447640977"/>
    <nd ref="447642949"/>
    <nd ref="49054330"/>
    <nd ref="48923176"/>
    <tag k="highway" v="residential"/>
    <tag k="name" v="Pangea Drive"/>
  </way>
  <way id="29446469" version="3" timestamp="2010-03-28T00:43:43Z" uid="20587" user="balrog-kun" changeset="4250871">
    <nd ref="49343928"/>
    <nd ref="324535421"/>
    <nd ref="324407893"/>
    <tag k="highway" v="service"/>
    <tag k="name" v="John Jay Hopkins Drive"/>
    <tag k="tiger:cfcc" v="A41"/>
    <tag k="tiger:county" v="San Diego, CA"/>
    <tag k="tiger:name_base" v="John Jay Hopkins"/>
    <tag k="tiger:name_type" v="Dr"/>
    <tag k="tiger:reviewed" v="no"/>
    <tag k="tiger:separated" v="no"/>
    <tag k="tiger:source" v="tiger_import_dch_v0.6_20070809"/>
    <tag k="tiger:tlid" v="195720571"/>
  </way>
  <way id="29446557" version="1" timestamp="2009-01-02T09:05:23Z" uid="43863" user="Rundling" changeset="706325">
    <nd ref="277085644"/>
    <nd ref="310192831"/>
    <nd ref="277085645"/>
    <nd ref="310192714"/>
    <nd ref="297505169"/>
    <nd ref="291967373"/>
    <tag k="highway" v="tertiary"/>
    <tag k="ref" v="K 61"/>
    <tag k="surface" v="paved"/>
  </way>
  <way id="29446557" version="2" timestamp="2009-10-16T18:33:47Z" uid="173192" user="ChrSchultz" changeset="2867525">
    <nd ref="277085644"/>
    <nd ref="310192831"/>
    <nd ref="277085645"/>
    <nd ref="310192714"/>
    <nd ref="297505169"/>
    <tag k="highway" v="tertiary"/>
    <tag k="ref" v="K 61"/>
    <tag k="surface" v="paved"/>
  </way>
  <way id="29446557" version="3" timestamp="2010-05-10T21:10:13Z" uid="38735" user="GPS-Wolf" changeset="4663782">
    <nd ref="277085644"/>
    <nd ref="729020304"/>
    <nd ref="310192831"/>
    <nd ref="277085645"/>
    <nd ref="310192714"/>
    <nd ref="297505169"/>
    <tag k="highway" v="tertiary"/>
    <tag k="ref" v="K 61"/>
    <tag k="surface" v="paved"/>
  </way>
  <way id="29446557" version="4" timestamp="2010-06-27T06:11:03Z" uid="43863" user="Rundling" changeset="5086630">
    <nd ref="277085644"/>
    <nd ref="729020304"/>
    <tag k="highway" v="tertiary"/>
    <tag k="ref" v="K 61"/>
    <tag k="surface" v="paved"/>
  </way>
  <way id="29446558" version="1" timestamp="2009-01-02T09:05:23Z" uid="43863" user="Rundling" changeset="706325">
    <nd ref="277085461"/>
    <nd ref="277085644"/>
    <tag k="highway" v="tertiary"/>
    <tag k="layer" v="-1"/>
    <tag k="ref" v="K 61"/>
    <tag k="surface" v="paved"/>
    <tag k="tunnel" v="yes"/>
  </way>
  <way id="29446558" version="2" timestamp="2009-01-02T09:14:51Z" uid="43863" user="Rundling" changeset="706325">
    <nd ref="277085461"/>
    <nd ref="277085644"/>
    <tag k="highway" v="tertiary"/>
    <tag k="layer" v="-1"/>
    <tag k="surface" v="paved"/>
    <tag k="tunnel" v="yes"/>
  </way>
  <way id="29446558" version="3" timestamp="2010-06-26T14:41:40Z" uid="129688" user="MHohmann" changeset="5081509">
    <nd ref="277085461"/>
    <nd ref="277085644"/>
    <tag k="highway" v="tertiary"/>
    <tag k="layer" v="-1"/>
    <tag k="ref" v="K 61"/>
    <tag k="surface" v="paved"/>
    <tag k="tunnel" v="yes"/>
  </way>
  <way id="29446558" version="4" timestamp="2010-06-27T05:53:52Z" uid="43863" user="Rundling" changeset="5086578">
    <nd ref="277085461"/>
    <nd ref="277085644"/>
    <tag k="highway" v="tertiary"/>
    <tag k="history" v="Retrieved from v2"/>
    <tag k="layer" v="-1"/>
    <tag k="surface" v="paved"/>
    <tag k="tunnel" v="yes"/>
  </way>
  <way id="29446558" version="5" timestamp="2010-06-27T05:55:44Z" uid="43863" user="Rundling" changeset="5086584">
    <nd ref="277085461"/>
    <nd ref="277085644"/>
    <tag k="highway" v="tertiary"/>
    <tag k="layer" v="-1"/>
    <tag k="ref" v="K 61"/>
    <tag k="surface" v="paved"/>
    <tag k="tunnel" v="yes"/>
  </way>
</osm>
