<?xml version='1.0' encoding='UTF-8'?>
<osm version="0.6" generator="libosmium/2.20.0">
  <way id="29468015" version="1" timestamp="2009-01-02T21:48:30Z" uid="6269" user="Mueck" changeset="711630">
    <nd ref="324767669"/>
    <nd ref="320232154"/>
    <tag k="created_by" v="Potlatch 0.10f"/>
    <tag k="highway" v="road"/>
    <tag k="name" v="FIXME"/>
    <tag k="source" v="DOP_LVA_BY_01"/>
  </way>
  <way id="29468015" version="2" timestamp="2010-06-13T16:22:52Z" uid="70696" user="xybot" changeset="4980082">
    <nd ref="324767669"/>
    <nd ref="320232154"/>
    <tag k="FIXME" v="name"/>
    <tag k="highway" v="road"/>
    <tag k="source" v="DOP_LVA_BY_01"/>
  </way>
  <way id="29468015" version="3" timestamp="2011-01-04T09:18:50Z" uid="51230" user="gerzap" changeset="6858369">
    <nd ref="324767669"/>
    <nd ref="320232154"/>
    <tag k="FIXME" v="name"/>
    <tag k="highway" v="track"/>
  </way>
  <way id="29468015" version="4" timestamp="2011-12-07T09:31:28Z" uid="51230" user="gerzap" changeset="10056179">
    <nd ref="324767669"/>
    <nd ref="320232154"/>
    <tag k="highway" v="track"/>
  </way>
  <way id="29468015" version="5" timestamp="2012-02-19T16:42:31Z" uid="479256" user="geodreieck4711" changeset="10731911"/>
  <way id="29468018" version="1" timestamp="2009-01-02T21:48:41Z" uid="6269" user="Mueck" changeset="711630">
    <nd ref="324767741"/>
    <nd ref="324767742"/>
    <nd ref="320232157"/>
    <tag k="created_by" v="Potlatch 0.10f"/>
    <tag k="highway" v="road"/>
    <tag k="name" v="FIXME"/>
    <tag k="source" v="DOP_LVA_BY_01"/>
  </way>
  <way id="29468018" version="2" timestamp="2010-06-13T16:22:53Z" uid="70696" user="xybot" changeset="4980082">
    <nd ref="324767741"/>
    <nd ref="324767742"/>
    <nd ref="320232157"/>
    <tag k="FIXME" v="name"/>
    <tag k="highway" v="road"/>
    <tag k="source" v="DOP_LVA_BY_01"/>
  </way>
  <way id="29468018" version="3" timestamp="2011-01-04T09:18:53Z" uid="51230" user="gerzap" changeset="6858369">
    <nd ref="1081802785"/>
    <nd ref="1081802316"/>
    <nd ref="1081802512"/>
    <nd ref="1081802648"/>
    <nd ref="1081802597"/>
    <nd ref="1081802744"/>
    <nd ref="1081802332"/>
    <nd ref="1081802465"/>
    <nd ref="324767741"/>
    <nd ref="324767742"/>
    <nd ref="320232157"/>
    <tag k="FIXME" v="name"/>
    <tag k="highway" v="track"/>
  </way>
  <way id="29468018" version="4" timestamp="2011-12-07T09:31:26Z" uid="51230" user="gerzap" changeset="10056179">
    <nd ref="1081802785"/>
    <nd ref="1081802316"/>
    <nd ref="1081802512"/>
    <nd ref="1081802648"/>
    <nd ref="1081802597"/>
    <nd ref="1081802744"/>
    <nd ref="1081802332"/>
    <nd ref="1081802465"/>
    <nd ref="324767741"/>
    <nd ref="324767742"/>
    <nd ref="320232157"/>
    <tag k="highway" v="track"/>
  </way>
  <way id="29468018" version="5" timestamp="2012-02-19T13:29:53Z" uid="479256" user="geodreieck4711" changeset="10729928"/>
  <way id="29468027" version="3" timestamp="2009-01-05T16:16:42Z" uid="9581" user="Lobelt" changeset="737076">
    <nd ref="78020733"/>
    <nd ref="78020762"/>
    <nd ref="78020780"/>
    <nd ref="78020748"/>
    <nd ref="78020710"/>
    <nd ref="78020608"/>
    <nd ref="324772921"/>
    <nd ref="78020625"/>
    <nd ref="327303185"/>
    <tag k="created_by" v="Merkaartor 0.12"/>
    <tag k="highway" v="tertiary"/>
    <tag k="ref" v="L 2155"/>
  </way>
  <way id="29468027" version="4" timestamp="2010-04-24T14:59:14Z" uid="195713" user="_torsten_" changeset="4512381">
    <nd ref="78020733"/>
    <nd ref="78020762"/>
    <nd ref="78020780"/>
    <nd ref="78020748"/>
    <nd ref="78020710"/>
    <nd ref="705209461"/>
    <nd ref="78020608"/>
    <nd ref="324772921"/>
    <nd ref="78020625"/>
    <nd ref="327303185"/>
    <tag k="highway" v="tertiary"/>
    <tag k="ref" v="L 2155"/>
  </way>
  <way id="29468027" version="5" timestamp="2010-04-24T15:02:26Z" uid="195713" user="_torsten_" changeset="4512381">
    <nd ref="78020733"/>
    <nd ref="78020762"/>
    <nd ref="78020780"/>
    <nd ref="78020748"/>
    <nd ref="78020710"/>
    <nd ref="705209461"/>
    <nd ref="78020608"/>
    <nd ref="324772921"/>
    <nd ref="78020625"/>
    <nd ref="705210457"/>
    <nd ref="327303185"/>
    <tag k="highway" v="tertiary"/>
    <tag k="ref" v="L 2155"/>
  </way>
  <way id="29468027" version="6" timestamp="2010-11-06T11:16:13Z" uid="195713" user="_torsten_" changeset="6301396">
    <nd ref="78020733"/>
    <nd ref="78020762"/>
    <nd ref="78020780"/>
    <nd ref="78020748"/>
    <nd ref="78020710"/>
    <nd ref="705209461"/>
    <nd ref="78020608"/>
    <nd ref="324772921"/>
    <nd ref="78020625"/>
    <tag k="highway" v="tertiary"/>
    <tag k="ref" v="L 2155"/>
  </way>
  <way id="29468027" version="7" timestamp="2011-07-11T06:16:13Z" uid="195713" user="_torsten_" changeset="8690607">
    <nd ref="1357415185"/>
    <nd ref="1357415200"/>
    <nd ref="1357415204"/>
    <nd ref="1357415188"/>
    <nd ref="1357415189"/>
    <nd ref="1357415193"/>
    <nd ref="1357415179"/>
    <nd ref="1357415181"/>
    <nd ref="705209461"/>
    <tag k="embankment" v="yes"/>
    <tag k="highway" v="tertiary"/>
    <tag k="ref" v="L 2155"/>
  </way>
  <way id="29468027" version="8" timestamp="2011-07-12T07:50:30Z" uid="195713" user="_torsten_" changeset="8700332"/>
  <way id="29468115" version="4" timestamp="2009-08-10T01:08:08Z" uid="4467" user="Rosscoe" changeset="2092229">
    <nd ref="324768883"/>
    <nd ref="385020712"/>
    <nd ref="316912895"/>
    <tag k="highway" v="trunk_link"/>
  </way>
  <way id="29468115" version="5" timestamp="2011-06-17T23:50:23Z" uid="46482" user="Leon K" changeset="8469525">
    <nd ref="324768883"/>
    <nd ref="1329120585"/>
    <nd ref="385020712"/>
    <nd ref="316912895"/>
    <tag k="highway" v="trunk_link"/>
  </way>
  <way id="29468115" version="6" timestamp="2011-11-21T11:19:26Z" uid="46482" user="Leon K" changeset="9896003">
    <nd ref="324768883"/>
    <nd ref="1329120585"/>
    <nd ref="385020712"/>
    <nd ref="316912895"/>
    <tag k="highway" v="primary_link"/>
    <tag k="name" v="Georgetown Road"/>
    <tag k="ref" v="B81"/>
  </way>
  <way id="29468116" version="3" timestamp="2009-08-10T01:08:08Z" uid="4467" user="Rosscoe" changeset="2092229">
    <nd ref="360608942"/>
    <nd ref="324768883"/>
    <tag k="bridge" v="yes"/>
    <tag k="highway" v="trunk_link"/>
  </way>
  <way id="29468116" version="4" timestamp="2009-08-10T01:21:57Z" uid="4467" user="Rosscoe" changeset="2092252">
    <nd ref="360608942"/>
    <nd ref="324768883"/>
    <tag k="bridge" v="yes"/>
    <tag k="highway" v="trunk_link"/>
    <tag k="layer" v="1"/>
  </way>
  <way id="29468116" version="5" timestamp="2011-11-21T11:19:26Z" uid="46482" user="Leon K" changeset="9896003">
    <nd ref="360608942"/>
    <nd ref="324768883"/>
    <tag k="bridge" v="yes"/>
    <tag k="highway" v="primary_link"/>
    <tag k="layer" v="1"/>
    <tag k="name" v="Georgetown Road"/>
    <tag k="ref" v="B81"/>
  </way>
  <way id="29468127" version="4" timestamp="2010-03-28T00:43:47Z" uid="20587" user="balrog-kun" changeset="4250871">
    <nd ref="122843258"/>
    <nd ref="123137285"/>
    <nd ref="123137287"/>
    <nd ref="122843275"/>
    <tag k="created_by" v="Potlatch 0.10f"/>
    <tag k="highway" v="residential"/>
    <tag k="name" v="Perlman Place"/>
    <tag k="tiger:cfcc" v="A41"/>
    <tag k="tiger:county" v="Los Angeles, CA"/>
    <tag k="tiger:name_base" v="Perlman"/>
    <tag k="tiger:name_type" v="Pl"/>
    <tag k="tiger:reviewed" v="no"/>
    <tag k="tiger:separated" v="no"/>
    <tag k="tiger:source" v="tiger_import_dch_v0.6_20070809"/>
    <tag k="tiger:tlid" v="141834984:141834986:141834987:141834991:141834992"/>
  </way>
  <way id="29468129" version="2" timestamp="2010-03-28T00:43:47Z" uid="20587" user="balrog-kun" changeset="4250871">
    <nd ref="122843275"/>
    <nd ref="123137290"/>
    <nd ref="123137293"/>
    <tag k="created_by" v="Potlatch 0.10f"/>
    <tag k="highway" v="residential"/>
    <tag k="name" v="Perlman Place"/>
    <tag k="tiger:cfcc" v="A41"/>
    <tag k="tiger:county" v="Los Angeles, CA"/>
    <tag k="tiger:name_base" v="Perlman"/>
    <tag k="tiger:name_type" v="Pl"/>
    <tag k="tiger:reviewed" v="no"/>
    <tag k="tiger:separated" v="no"/>
    <tag k="tiger:source" v="tiger_import_dch_v0.6_20070809"/>
    <tag k="tiger:tlid" v="141834984:141834986:141834987:141834991:141834992"/>
  </way>
  <way id="29468139" version="4" timestamp="2010-03-28T00:43:47Z" uid="20587" user="balrog-kun" changeset="4250871">
    <nd ref="122843263"/>
    <nd ref="122843264"/>
    <nd ref="122843267"/>
    <nd ref="122843270"/>
    <tag k="created_by" v="Potlatch 0.10f"/>
    <tag k="highway" v="residential"/>
    <tag k="name" v="Holiday Circle"/>
    <tag k="tiger:cfcc" v="A41"/>
    <tag k="tiger:county" v="Los Angeles, CA"/>
    <tag k="tiger:name_base" v="Holiday"/>
    <tag k="tiger:name_type" v="Cir"/>
    <tag k="tiger:reviewed" v="no"/>
    <tag k="tiger:separated" v="no"/>
    <tag k="tiger:source" v="tiger_import_dch_v0.6_20070809"/>
    <tag k="tiger:tlid" v="142670965:141834998"/>
    <tag k="tiger:zip_left" v="91381"/>
    <tag k="tiger:zip_right" v="91381"/>
  </way>
  <way id="29468142" version="2" timestamp="2010-03-28T00:43:47Z" uid="20587" user="balrog-kun" changeset="4250871">
    <nd ref="122843270"/>
    <nd ref="122843275"/>
    <tag k="created_by" v="Potlatch 0.10f"/>
    <tag k="highway" v="residential"/>
    <tag k="name" v="Holiday Circle"/>
    <tag k="tiger:cfcc" v="A41"/>
    <tag k="tiger:county" v="Los Angeles, CA"/>
    <tag k="tiger:name_base" v="Holiday"/>
    <tag k="tiger:name_type" v="Cir"/>
    <tag k="tiger:reviewed" v="no"/>
    <tag k="tiger:separated" v="no"/>
    <tag k="tiger:source" v="tiger_import_dch_v0.6_20070809"/>
    <tag k="tiger:tlid" v="142670965:141834998"/>
    <tag k="tiger:zip_left" v="91381"/>
    <tag k="tiger:zip_right" v="91381"/>
  </way>
  <way id="29468148" version="2" timestamp="2010-03-28T00:43:47Z" uid="20587" user="balrog-kun" changeset="4250871">
    <nd ref="122754083"/>
    <nd ref="122754086"/>
    <tag k="created_by" v="Potlatch 0.10f"/>
    <tag k="highway" v="residential"/>
    <tag k="name" v="Armstrong Circle"/>
    <tag k="tiger:cfcc" v="A41"/>
    <tag k="tiger:county" v="Los Angeles, CA"/>
    <tag k="tiger:name_base" v="Armstrong"/>
    <tag k="tiger:name_type" v="Cir"/>
    <tag k="tiger:reviewed" v="no"/>
    <tag k="tiger:separated" v="no"/>
    <tag k="tiger:source" v="tiger_import_dch_v0.6_20070809"/>
    <tag k="tiger:tlid" v="141854545:141854547"/>
    <tag k="tiger:zip_left" v="91381"/>
    <tag k="tiger:zip_right" v="91381"/>
  </way>
  <way id="29468149" version="3" timestamp="2010-03-28T00:43:47Z" uid="20587" user="balrog-kun" changeset="4250871">
    <nd ref="122754079"/>
    <nd ref="122754081"/>
    <nd ref="122754082"/>
    <nd ref="122754083"/>
    <tag k="created_by" v="Potlatch 0.10f"/>
    <tag k="highway" v="residential"/>
    <tag k="name" v="Armstrong Circle"/>
    <tag k="tiger:cfcc" v="A41"/>
    <tag k="tiger:county" v="Los Angeles, CA"/>
    <tag k="tiger:name_base" v="Armstrong"/>
    <tag k="tiger:name_type" v="Cir"/>
    <tag k="tiger:reviewed" v="no"/>
    <tag k="tiger:separated" v="no"/>
    <tag k="tiger:source" v="tiger_import_dch_v0.6_20070809"/>
    <tag k="tiger:tlid" v="141854545:141854547"/>
    <tag k="tiger:zip_left" v="91381"/>
    <tag k="tiger:zip_right" v="91381"/>
  </way>
  <way id="29468590" version="4" timestamp="2010-03-28T00:43:48Z" uid="20587" user="balrog-kun" changeset="4250871">
    <nd ref="324778413"/>
    <nd ref="56859391"/>
    <nd ref="324777723"/>
    <nd ref="324777639"/>
    <tag k="highway" v="motorway"/>
    <tag k="name" v="Pomona Freeway"/>
    <tag k="oneway" v="yes"/>
    <tag k="ref" v="CA 60"/>
  </way>
  <way id="29468590" version="5" timestamp="2011-07-29T05:24:11Z" uid="207745" user="NE2" changeset="8860294">
    <nd ref="324778413"/>
    <nd ref="56859391"/>
    <nd ref="324777723"/>
    <nd ref="324777639"/>
    <tag k="highway" v="motorway"/>
    <tag k="hov" v="lane"/>
    <tag k="lanes" v="5"/>
    <tag k="name" v="Pomona Freeway"/>
    <tag k="note:lanes" v="left lane is hov"/>
    <tag k="oneway" v="yes"/>
    <tag k="ref" v="CA 60"/>
  </way>
  <way id="29468590" version="6" timestamp="2011-11-25T14:53:07Z" uid="207745" user="NE2" changeset="9943893">
    <nd ref="324778413"/>
    <nd ref="56859391"/>
    <nd ref="324777723"/>
    <nd ref="324777639"/>
    <tag k="hgv:national_network" v="yes"/>
    <tag k="highway" v="motorway"/>
    <tag k="hov" v="lane"/>
    <tag k="lanes" v="5"/>
    <tag k="name" v="Pomona Freeway"/>
    <tag k="note:lanes" v="left lane is hov"/>
    <tag k="oneway" v="yes"/>
    <tag k="ref" v="CA 60"/>
    <tag k="source:hgv:national_network" v="Title 23: Highways Part 658 http://ecfr.gpoaccess.gov/cgi/t/text/text-idx?c=ecfr&amp;rgn=div5&amp;view=text&amp;node=23:1.0.1.7.33&amp;idno=23"/>
  </way>
  <way id="29468590" version="7" timestamp="2011-11-25T17:20:00Z" uid="207745" user="NE2" changeset="9945963">
    <nd ref="324778413"/>
    <nd ref="56859391"/>
    <nd ref="324777723"/>
    <nd ref="324777639"/>
    <tag k="hgv" v="designated"/>
    <tag k="hgv:national_network" v="yes"/>
    <tag k="highway" v="motorway"/>
    <tag k="hov" v="lane"/>
    <tag k="lanes" v="5"/>
    <tag k="name" v="Pomona Freeway"/>
    <tag k="note:lanes" v="left lane is hov"/>
    <tag k="oneway" v="yes"/>
    <tag k="ref" v="CA 60"/>
    <tag k="source:hgv:national_network" v="Title 23: Highways Part 658 http://ecfr.gpoaccess.gov/cgi/t/text/text-idx?c=ecfr&amp;rgn=div5&amp;view=text&amp;node=23:1.0.1.7.33&amp;idno=23"/>
  </way>
  <way id="29468591" version="4" timestamp="2010-03-28T00:43:48Z" uid="20587" user="balrog-kun" changeset="4250871">
    <nd ref="324777639"/>
    <nd ref="324777653"/>
    <tag k="bridge" v="yes"/>
    <tag k="highway" v="motorway"/>
    <tag k="layer" v="1"/>
    <tag k="name" v="Pomona Freeway"/>
    <tag k="oneway" v="yes"/>
    <tag k="ref" v="CA 60"/>
  </way>
  <way id="29468591" version="5" timestamp="2011-07-29T05:23:23Z" uid="207745" user="NE2" changeset="8860294">
    <nd ref="324777639"/>
    <nd ref="324777653"/>
    <tag k="bridge" v="yes"/>
    <tag k="highway" v="motorway"/>
    <tag k="hov" v="lane"/>
    <tag k="lanes" v="5"/>
    <tag k="layer" v="1"/>
    <tag k="name" v="Pomona Freeway"/>
    <tag k="note:lanes" v="left lane is hov"/>
    <tag k="oneway" v="yes"/>
    <tag k="ref" v="CA 60"/>
  </way>
  <way id="29468591" version="6" timestamp="2011-11-25T14:51:04Z" uid="207745" user="NE2" changeset="9943893">
    <nd ref="324777639"/>
    <nd ref="324777653"/>
    <tag k="bridge" v="yes"/>
    <tag k="hgv:national_network" v="yes"/>
    <tag k="highway" v="motorway"/>
    <tag k="hov" v="lane"/>
    <tag k="lanes" v="5"/>
    <tag k="layer" v="1"/>
    <tag k="name" v="Pomona Freeway"/>
    <tag k="note:lanes" v="left lane is hov"/>
    <tag k="oneway" v="yes"/>
    <tag k="ref" v="CA 60"/>
    <tag k="source:hgv:national_network" v="Title 23: Highways Part 658 http://ecfr.gpoaccess.gov/cgi/t/text/text-idx?c=ecfr&amp;rgn=div5&amp;view=text&amp;node=23:1.0.1.7.33&amp;idno=23"/>
  </way>
  <way id="29468591" version="7" timestamp="2011-11-25T17:18:42Z" uid="207745" user="NE2" changeset="9945963">
    <nd ref="324777639"/>
    <nd ref="324777653"/>
    <tag k="bridge" v="yes"/>
    <tag k="hgv" v="designated"/>
    <tag k="hgv:national_network" v="yes"/>
    <tag k="highway" v="motorway"/>
    <tag k="hov" v="lane"/>
    <tag k="lanes" v="5"/>
    <tag k="layer" v="1"/>
    <tag k="name" v="Pomona Freeway"/>
    <tag k="note:lanes" v="left lane is hov"/>
    <tag k="oneway" v="yes"/>
    <tag k="ref" v="CA 60"/>
    <tag k="source:hgv:national_network" v="Title 23: Highways Part 658 http://ecfr.gpoaccess.gov/cgi/t/text/text-idx?c=ecfr&amp;rgn=div5&amp;view=text&amp;node=23:1.0.1.7.33&amp;idno=23"/>
  </way>
  <way id="29468592" version="4" timestamp="2010-03-28T00:43:48Z" uid="20587" user="balrog-kun" changeset="4250871">
    <nd ref="324700474"/>
    <nd ref="324700473"/>
    <nd ref="55099535"/>
    <nd ref="324777648"/>
    <tag k="highway" v="motorway"/>
    <tag k="name" v="Pomona Freeway"/>
    <tag k="oneway" v="yes"/>
    <tag k="ref" v="CA 60"/>
  </way>
  <way id="29468592" version="5" timestamp="2011-02-16T23:42:11Z" uid="82317" user="AM909" changeset="7308878">
    <nd ref="324700474"/>
    <nd ref="1156981461"/>
    <nd ref="324700473"/>
    <nd ref="55099535"/>
    <nd ref="324777648"/>
    <tag k="highway" v="motorway"/>
    <tag k="name" v="Pomona Freeway"/>
    <tag k="oneway" v="yes"/>
    <tag k="ref" v="CA 60"/>
  </way>
  <way id="29468592" version="6" timestamp="2011-07-29T05:24:20Z" uid="207745" user="NE2" changeset="8860294">
    <nd ref="324700474"/>
    <nd ref="1156981461"/>
    <nd ref="324700473"/>
    <nd ref="55099535"/>
    <nd ref="324777648"/>
    <tag k="highway" v="motorway"/>
    <tag k="hov" v="lane"/>
    <tag k="lanes" v="5"/>
    <tag k="name" v="Pomona Freeway"/>
    <tag k="note:lanes" v="left lane is hov"/>
    <tag k="oneway" v="yes"/>
    <tag k="ref" v="CA 60"/>
  </way>
  <way id="29468592" version="7" timestamp="2011-11-25T14:53:46Z" uid="207745" user="NE2" changeset="9943893">
    <nd ref="324700474"/>
    <nd ref="1156981461"/>
    <nd ref="324700473"/>
    <nd ref="55099535"/>
    <nd ref="324777648"/>
    <tag k="hgv:national_network" v="yes"/>
    <tag k="highway" v="motorway"/>
    <tag k="hov" v="lane"/>
    <tag k="lanes" v="5"/>
    <tag k="name" v="Pomona Freeway"/>
    <tag k="note:lanes" v="left lane is hov"/>
    <tag k="oneway" v="yes"/>
    <tag k="ref" v="CA 60"/>
    <tag k="source:hgv:national_network" v="Title 23: Highways Part 658 http://ecfr.gpoaccess.gov/cgi/t/text/text-idx?c=ecfr&amp;rgn=div5&amp;view=text&amp;node=23:1.0.1.7.33&amp;idno=23"/>
  </way>
  <way id="29468592" version="8" timestamp="2011-11-25T17:20:12Z" uid="207745" user="NE2" changeset="9945963">
    <nd ref="324700474"/>
    <nd ref="1156981461"/>
    <nd ref="324700473"/>
    <nd ref="55099535"/>
    <nd ref="324777648"/>
    <tag k="hgv" v="designated"/>
    <tag k="hgv:national_network" v="yes"/>
    <tag k="highway" v="motorway"/>
    <tag k="hov" v="lane"/>
    <tag k="lanes" v="5"/>
    <tag k="name" v="Pomona Freeway"/>
    <tag k="note:lanes" v="left lane is hov"/>
    <tag k="oneway" v="yes"/>
    <tag k="ref" v="CA 60"/>
    <tag k="source:hgv:national_network" v="Title 23: Highways Part 658 http://ecfr.gpoaccess.gov/cgi/t/text/text-idx?c=ecfr&amp;rgn=div5&amp;view=text&amp;node=23:1.0.1.7.33&amp;idno=23"/>
  </way>
  <way id="29468600" version="6" timestamp="2010-03-28T00:43:48Z" uid="20587" user="balrog-kun" changeset="4250871">
    <nd ref="324778391"/>
    <nd ref="324778444"/>
    <nd ref="54701884"/>
    <nd ref="324778327"/>
    <tag k="bridge" v="yes"/>
    <tag k="highway" v="motorway"/>
    <tag k="layer" v="1"/>
    <tag k="name" v="Pomona Freeway"/>
    <tag k="oneway" v="yes"/>
    <tag k="ref" v="CA 60"/>
    <tag k="tiger:cfcc" v="A11"/>
    <tag k="tiger:county" v="San Bernardino, CA"/>
    <tag k="tiger:name_base" v="State Highway 60"/>
    <tag k="tiger:name_base_1" v="Pomona"/>
    <tag k="tiger:name_type_1" v="Fwy"/>
    <tag k="tiger:reviewed" v="no"/>
    <tag k="tiger:separated" v="no"/>
    <tag k="tiger:source" v="tiger_import_dch_v0.6_20070809"/>
    <tag k="tiger:tlid" v="144637799:144637823:144637854:144637856:14467:144683736:144683738:144683740:144683752:144683756:144683758:144683760:144683834:144683855:144683857:144683859:144724374:144981791:144981792:144981857:144981858:144981861:144981863:144981864:144985233:144985234"/>
  </way>
  <way id="29468600" version="7" timestamp="2011-02-16T23:42:04Z" uid="82317" user="AM909" changeset="7308878">
    <nd ref="324778391"/>
    <nd ref="324778444"/>
    <tag k="bridge" v="yes"/>
    <tag k="highway" v="motorway"/>
    <tag k="layer" v="1"/>
    <tag k="name" v="Pomona Freeway"/>
    <tag k="oneway" v="yes"/>
    <tag k="ref" v="CA 60"/>
    <tag k="tiger:cfcc" v="A11"/>
    <tag k="tiger:county" v="San Bernardino, CA"/>
    <tag k="tiger:name_base" v="State Highway 60"/>
    <tag k="tiger:name_base_1" v="Pomona"/>
    <tag k="tiger:name_type_1" v="Fwy"/>
    <tag k="tiger:separated" v="no"/>
    <tag k="tiger:source" v="tiger_import_dch_v0.6_20070809"/>
    <tag k="tiger:tlid" v="144637799:144637823:144637854:144637856:14467:144683736:144683738:144683740:144683752:144683756:144683758:144683760:144683834:144683855:144683857:144683859:144724374:144981791:144981792:144981857:144981858:144981861:144981863:144981864:144985233:144985234"/>
  </way>
  <way id="29468600" version="8" timestamp="2011-07-29T05:23:51Z" uid="207745" user="NE2" changeset="8860294">
    <nd ref="324778391"/>
    <nd ref="324778444"/>
    <tag k="bridge" v="yes"/>
    <tag k="highway" v="motorway"/>
    <tag k="hov" v="lane"/>
    <tag k="lanes" v="5"/>
    <tag k="layer" v="1"/>
    <tag k="name" v="Pomona Freeway"/>
    <tag k="note:lanes" v="left lane is hov"/>
    <tag k="oneway" v="yes"/>
    <tag k="ref" v="CA 60"/>
    <tag k="tiger:cfcc" v="A11"/>
    <tag k="tiger:county" v="San Bernardino, CA"/>
    <tag k="tiger:name_base" v="State Highway 60"/>
    <tag k="tiger:name_base_1" v="Pomona"/>
    <tag k="tiger:name_type_1" v="Fwy"/>
    <tag k="tiger:separated" v="no"/>
    <tag k="tiger:source" v="tiger_import_dch_v0.6_20070809"/>
    <tag k="tiger:tlid" v="144637799:144637823:144637854:144637856:14467:144683736:144683738:144683740:144683752:144683756:144683758:144683760:144683834:144683855:144683857:144683859:144724374:144981791:144981792:144981857:144981858:144981861:144981863:144981864:144985233:144985234"/>
  </way>
  <way id="29468600" version="9" timestamp="2011-11-25T14:50:38Z" uid="207745" user="NE2" changeset="9943893">
    <nd ref="324778391"/>
    <nd ref="324778444"/>
    <tag k="bridge" v="yes"/>
    <tag k="hgv:national_network" v="yes"/>
    <tag k="highway" v="motorway"/>
    <tag k="hov" v="lane"/>
    <tag k="lanes" v="5"/>
    <tag k="layer" v="1"/>
    <tag k="name" v="Pomona Freeway"/>
    <tag k="note:lanes" v="left lane is hov"/>
    <tag k="oneway" v="yes"/>
    <tag k="ref" v="CA 60"/>
    <tag k="source:hgv:national_network" v="Title 23: Highways Part 658 http://ecfr.gpoaccess.gov/cgi/t/text/text-idx?c=ecfr&amp;rgn=div5&amp;view=text&amp;node=23:1.0.1.7.33&amp;idno=23"/>
    <tag k="tiger:cfcc" v="A11"/>
    <tag k="tiger:county" v="San Bernardino, CA"/>
    <tag k="tiger:name_base" v="State Highway 60"/>
    <tag k="tiger:name_base_1" v="Pomona"/>
    <tag k="tiger:name_type_1" v="Fwy"/>
    <tag k="tiger:separated" v="no"/>
    <tag k="tiger:source" v="tiger_import_dch_v0.6_20070809"/>
    <tag k="tiger:tlid" v="144637799:144637823:144637854:144637856:14467:144683736:144683738:144683740:144683752:144683756:144683758:144683760:144683834:144683855:144683857:144683859:144724374:144981791:144981792:144981857:144981858:144981861:144981863:144981864:144985233:144985234"/>
  </way>
  <way id="29468600" version="10" timestamp="2011-11-25T17:18:33Z" uid="207745" user="NE2" changeset="9945963">
    <nd ref="324778391"/>
    <nd ref="324778444"/>
    <tag k="bridge" v="yes"/>
    <tag k="hgv" v="designated"/>
    <tag k="hgv:national_network" v="yes"/>
    <tag k="highway" v="motorway"/>
    <tag k="hov" v="lane"/>
    <tag k="lanes" v="5"/>
    <tag k="layer" v="1"/>
    <tag k="name" v="Pomona Freeway"/>
    <tag k="note:lanes" v="left lane is hov"/>
    <tag k="oneway" v="yes"/>
    <tag k="ref" v="CA 60"/>
    <tag k="source:hgv:national_network" v="Title 23: Highways Part 658 http://ecfr.gpoaccess.gov/cgi/t/text/text-idx?c=ecfr&amp;rgn=div5&amp;view=text&amp;node=23:1.0.1.7.33&amp;idno=23"/>
    <tag k="tiger:cfcc" v="A11"/>
    <tag k="tiger:county" v="San Bernardino, CA"/>
    <tag k="tiger:name_base" v="State Highway 60"/>
    <tag k="tiger:name_base_1" v="Pomona"/>
    <tag k="tiger:name_type_1" v="Fwy"/>
    <tag k="tiger:separated" v="no"/>
    <tag k="tiger:source" v="tiger_import_dch_v0.6_20070809"/>
    <tag k="tiger:tlid" v="144637799:144637823:144637854:144637856:14467:144683736:144683738:144683740:144683752:144683756:144683758:144683760:144683834:144683855:144683857:144683859:144724374:144981791:144981792:144981857:144981858:144981861:144981863:144981864:144985233:144985234"/>
  </way>
  <way id="29468601" version="4" timestamp="2010-03-28T00:43:48Z" uid="20587" user="balrog-kun" changeset="4250871">
    <nd ref="324777645"/>
    <nd ref="54701887"/>
    <nd ref="324777686"/>
    <nd ref="54701886"/>
    <nd ref="324778391"/>
    <tag k="highway" v="motorway"/>
    <tag k="name" v="Pomona Freeway"/>
    <tag k="oneway" v="yes"/>
    <tag k="ref" v="CA 60"/>
    <tag k="tiger:cfcc" v="A11"/>
    <tag k="tiger:county" v="San Bernardino, CA"/>
    <tag k="tiger:name_base" v="State Highway 60"/>
    <tag k="tiger:name_base_1" v="Pomona"/>
    <tag k="tiger:name_type_1" v="Fwy"/>
    <tag k="tiger:reviewed" v="no"/>
    <tag k="tiger:separated" v="no"/>
    <tag k="tiger:source" v="tiger_import_dch_v0.6_20070809"/>
    <tag k="tiger:tlid" v="144637799:144637823:144637854:144637856:14467:144683736:144683738:144683740:144683752:144683756:144683758:144683760:144683834:144683855:144683857:144683859:144724374:144981791:144981792:144981857:144981858:144981861:144981863:144981864:144985233:144985234"/>
  </way>
  <way id="29468601" version="5" timestamp="2011-02-16T23:41:52Z" uid="82317" user="AM909" changeset="7308878">
    <nd ref="324777645"/>
    <nd ref="54701887"/>
    <nd ref="1156981463"/>
    <nd ref="324777686"/>
    <nd ref="1156981480"/>
    <nd ref="54701886"/>
    <nd ref="324778391"/>
    <tag k="highway" v="motorway"/>
    <tag k="name" v="Pomona Freeway"/>
    <tag k="oneway" v="yes"/>
    <tag k="ref" v="CA 60"/>
    <tag k="tiger:cfcc" v="A11"/>
    <tag k="tiger:county" v="San Bernardino, CA"/>
    <tag k="tiger:name_base" v="State Highway 60"/>
    <tag k="tiger:name_base_1" v="Pomona"/>
    <tag k="tiger:name_type_1" v="Fwy"/>
    <tag k="tiger:reviewed" v="no"/>
    <tag k="tiger:separated" v="no"/>
    <tag k="tiger:source" v="tiger_import_dch_v0.6_20070809"/>
    <tag k="tiger:tlid" v="144637799:144637823:144637854:144637856:14467:144683736:144683738:144683740:144683752:144683756:144683758:144683760:144683834:144683855:144683857:144683859:144724374:144981791:144981792:144981857:144981858:144981861:144981863:144981864:144985233:144985234"/>
  </way>
  <way id="29468601" version="6" timestamp="2011-07-29T05:24:27Z" uid="207745" user="NE2" changeset="8860294">
    <nd ref="324777645"/>
    <nd ref="54701887"/>
    <nd ref="1156981463"/>
    <nd ref="324777686"/>
    <nd ref="1156981480"/>
    <nd ref="54701886"/>
    <nd ref="324778391"/>
    <tag k="highway" v="motorway"/>
    <tag k="hov" v="lane"/>
    <tag k="lanes" v="5"/>
    <tag k="name" v="Pomona Freeway"/>
    <tag k="note:lanes" v="left lane is hov"/>
    <tag k="oneway" v="yes"/>
    <tag k="ref" v="CA 60"/>
    <tag k="tiger:cfcc" v="A11"/>
    <tag k="tiger:county" v="San Bernardino, CA"/>
    <tag k="tiger:name_base" v="State Highway 60"/>
    <tag k="tiger:name_base_1" v="Pomona"/>
    <tag k="tiger:name_type_1" v="Fwy"/>
    <tag k="tiger:reviewed" v="no"/>
    <tag k="tiger:separated" v="no"/>
    <tag k="tiger:source" v="tiger_import_dch_v0.6_20070809"/>
    <tag k="tiger:tlid" v="144637799:144637823:144637854:144637856:14467:144683736:144683738:144683740:144683752:144683756:144683758:144683760:144683834:144683855:144683857:144683859:144724374:144981791:144981792:144981857:144981858:144981861:144981863:144981864:144985233:144985234"/>
  </way>
  <way id="29468601" version="7" timestamp="2011-11-25T14:54:11Z" uid="207745" user="NE2" changeset="9943893">
    <nd ref="324777645"/>
    <nd ref="54701887"/>
    <nd ref="1156981463"/>
    <nd ref="324777686"/>
    <nd ref="1156981480"/>
    <nd ref="54701886"/>
    <nd ref="324778391"/>
    <tag k="hgv:national_network" v="yes"/>
    <tag k="highway" v="motorway"/>
    <tag k="hov" v="lane"/>
    <tag k="lanes" v="5"/>
    <tag k="name" v="Pomona Freeway"/>
    <tag k="note:lanes" v="left lane is hov"/>
    <tag k="oneway" v="yes"/>
    <tag k="ref" v="CA 60"/>
    <tag k="source:hgv:national_network" v="Title 23: Highways Part 658 http://ecfr.gpoaccess.gov/cgi/t/text/text-idx?c=ecfr&amp;rgn=div5&amp;view=text&amp;node=23:1.0.1.7.33&amp;idno=23"/>
    <tag k="tiger:cfcc" v="A11"/>
    <tag k="tiger:county" v="San Bernardino, CA"/>
    <tag k="tiger:name_base" v="State Highway 60"/>
    <tag k="tiger:name_base_1" v="Pomona"/>
    <tag k="tiger:name_type_1" v="Fwy"/>
    <tag k="tiger:reviewed" v="no"/>
    <tag k="tiger:separated" v="no"/>
    <tag k="tiger:source" v="tiger_import_dch_v0.6_20070809"/>
    <tag k="tiger:tlid" v="144637799:144637823:144637854:144637856:14467:144683736:144683738:144683740:144683752:144683756:144683758:144683760:144683834:144683855:144683857:144683859:144724374:144981791:144981792:144981857:144981858:144981861:144981863:144981864:144985233:144985234"/>
  </way>
  <way id="29468601" version="8" timestamp="2011-11-25T17:20:41Z" uid="207745" user="NE2" changeset="9945963">
    <nd ref="324777645"/>
    <nd ref="54701887"/>
    <nd ref="1156981463"/>
    <nd ref="324777686"/>
    <nd ref="1156981480"/>
    <nd ref="54701886"/>
    <nd ref="324778391"/>
    <tag k="hgv" v="designated"/>
    <tag k="hgv:national_network" v="yes"/>
    <tag k="highway" v="motorway"/>
    <tag k="hov" v="lane"/>
    <tag k="lanes" v="5"/>
    <tag k="name" v="Pomona Freeway"/>
    <tag k="note:lanes" v="left lane is hov"/>
    <tag k="oneway" v="yes"/>
    <tag k="ref" v="CA 60"/>
    <tag k="source:hgv:national_network" v="Title 23: Highways Part 658 http://ecfr.gpoaccess.gov/cgi/t/text/text-idx?c=ecfr&amp;rgn=div5&amp;view=text&amp;node=23:1.0.1.7.33&amp;idno=23"/>
    <tag k="tiger:cfcc" v="A11"/>
    <tag k="tiger:county" v="San Bernardino, CA"/>
    <tag k="tiger:name_base" v="State Highway 60"/>
    <tag k="tiger:name_base_1" v="Pomona"/>
    <tag k="tiger:name_type_1" v="Fwy"/>
    <tag k="tiger:reviewed" v="no"/>
    <tag k="tiger:separated" v="no"/>
    <tag k="tiger:source" v="tiger_import_dch_v0.6_20070809"/>
    <tag k="tiger:tlid" v="144637799:144637823:144637854:144637856:14467:144683736:144683738:144683740:144683752:144683756:144683758:144683760:144683834:144683855:144683857:144683859:144724374:144981791:144981792:144981857:144981858:144981861:144981863:144981864:144985233:144985234"/>
  </way>
  <way id="29468602" version="4" timestamp="2010-03-28T00:43:48Z" uid="20587" user="balrog-kun" changeset="4250871">
    <nd ref="57444730"/>
    <nd ref="55107805"/>
    <nd ref="55107718"/>
    <nd ref="56921487"/>
    <nd ref="55107570"/>
    <nd ref="56921488"/>
    <nd ref="55107565"/>
    <nd ref="56921252"/>
    <nd ref="55107529"/>
    <nd ref="56921246"/>
    <nd ref="55107490"/>
    <nd ref="55107365"/>
    <nd ref="55107465"/>
    <nd ref="324821376"/>
    <nd ref="324821378"/>
    <nd ref="15390954"/>
    <nd ref="56891105"/>
    <nd ref="56859397"/>
    <nd ref="324778356"/>
    <tag k="highway" v="motorway"/>
    <tag k="name" v="Pomona Freeway"/>
    <tag k="oneway" v="yes"/>
    <tag k="ref" v="CA 60"/>
  </way>
  <way id="29468602" version="5" timestamp="2011-02-02T10:41:05Z" uid="82317" user="AM909" changeset="7163303">
    <nd ref="57444730"/>
    <nd ref="55107805"/>
    <nd ref="55107718"/>
    <nd ref="56921487"/>
    <nd ref="55107570"/>
    <nd ref="56921488"/>
    <nd ref="55107565"/>
    <nd ref="55107490"/>
    <nd ref="55107365"/>
    <nd ref="55107465"/>
    <nd ref="324821376"/>
    <nd ref="324821378"/>
    <nd ref="15390954"/>
    <nd ref="56891105"/>
    <nd ref="56859397"/>
    <nd ref="324778356"/>
    <tag k="highway" v="motorway"/>
    <tag k="maxspeed" v="65 mph"/>
    <tag k="name" v="Pomona Freeway"/>
    <tag k="oneway" v="yes"/>
    <tag k="ref" v="CA 60"/>
    <tag k="source:maxspeed" v="survey;image"/>
    <tag k="source_ref:maxspeed" v="AM909_DSCW9024"/>
  </way>
  <way id="29468602" version="6" timestamp="2011-02-16T23:42:05Z" uid="82317" user="AM909" changeset="7308878">
    <nd ref="57444730"/>
    <nd ref="55107805"/>
    <nd ref="55107718"/>
    <nd ref="56921487"/>
    <nd ref="55107570"/>
    <nd ref="56921488"/>
    <nd ref="55107565"/>
    <nd ref="55107490"/>
    <nd ref="55107365"/>
    <nd ref="55107465"/>
    <nd ref="324821376"/>
    <nd ref="324821378"/>
    <nd ref="15390954"/>
    <nd ref="1156981444"/>
    <tag k="highway" v="motorway"/>
    <tag k="maxspeed" v="65 mph"/>
    <tag k="name" v="Pomona Freeway"/>
    <tag k="oneway" v="yes"/>
    <tag k="ref" v="CA 60"/>
    <tag k="source:maxspeed" v="survey;image"/>
    <tag k="source_ref:maxspeed" v="AM909_DSCW9024"/>
  </way>
  <way id="29468602" version="7" timestamp="2011-02-17T08:02:58Z" uid="82317" user="AM909" changeset="7310725">
    <nd ref="57444730"/>
    <nd ref="55107805"/>
    <nd ref="55107718"/>
    <nd ref="56921487"/>
    <nd ref="1157211294"/>
    <tag k="highway" v="motorway"/>
    <tag k="maxspeed" v="65 mph"/>
    <tag k="name" v="Pomona Freeway"/>
    <tag k="oneway" v="yes"/>
    <tag k="ref" v="CA 60"/>
    <tag k="source:maxspeed" v="survey;image"/>
    <tag k="source_ref:maxspeed" v="AM909_DSCW9024"/>
  </way>
  <way id="29468602" version="8" timestamp="2011-07-29T05:24:18Z" uid="207745" user="NE2" changeset="8860294">
    <nd ref="57444730"/>
    <nd ref="55107805"/>
    <nd ref="55107718"/>
    <nd ref="56921487"/>
    <nd ref="1157211294"/>
    <tag k="highway" v="motorway"/>
    <tag k="hov" v="lane"/>
    <tag k="lanes" v="5"/>
    <tag k="maxspeed" v="65 mph"/>
    <tag k="name" v="Pomona Freeway"/>
    <tag k="note:lanes" v="left lane is hov"/>
    <tag k="oneway" v="yes"/>
    <tag k="ref" v="CA 60"/>
    <tag k="source:maxspeed" v="survey;image"/>
    <tag k="source_ref:maxspeed" v="AM909_DSCW9024"/>
  </way>
  <way id="29468602" version="9" timestamp="2011-11-25T14:53:36Z" uid="207745" user="NE2" changeset="9943893">
    <nd ref="57444730"/>
    <nd ref="55107805"/>
    <nd ref="55107718"/>
    <nd ref="56921487"/>
    <nd ref="1157211294"/>
    <tag k="hgv:national_network" v="yes"/>
    <tag k="highway" v="motorway"/>
    <tag k="hov" v="lane"/>
    <tag k="lanes" v="5"/>
    <tag k="maxspeed" v="65 mph"/>
    <tag k="name" v="Pomona Freeway"/>
    <tag k="note:lanes" v="left lane is hov"/>
    <tag k="oneway" v="yes"/>
    <tag k="ref" v="CA 60"/>
    <tag k="source:hgv:national_network" v="Title 23: Highways Part 658 http://ecfr.gpoaccess.gov/cgi/t/text/text-idx?c=ecfr&amp;rgn=div5&amp;view=text&amp;node=23:1.0.1.7.33&amp;idno=23"/>
    <tag k="source:maxspeed" v="survey;image"/>
    <tag k="source_ref:maxspeed" v="AM909_DSCW9024"/>
  </way>
  <way id="29468602" version="10" timestamp="2011-11-25T17:20:31Z" uid="207745" user="NE2" changeset="9945963">
    <nd ref="57444730"/>
    <nd ref="55107805"/>
    <nd ref="55107718"/>
    <nd ref="56921487"/>
    <nd ref="1157211294"/>
    <tag k="hgv" v="designated"/>
    <tag k="hgv:national_network" v="yes"/>
    <tag k="highway" v="motorway"/>
    <tag k="hov" v="lane"/>
    <tag k="lanes" v="5"/>
    <tag k="maxspeed" v="65 mph"/>
    <tag k="name" v="Pomona Freeway"/>
    <tag k="note:lanes" v="left lane is hov"/>
    <tag k="oneway" v="yes"/>
    <tag k="ref" v="CA 60"/>
    <tag k="source:hgv:national_network" v="Title 23: Highways Part 658 http://ecfr.gpoaccess.gov/cgi/t/text/text-idx?c=ecfr&amp;rgn=div5&amp;view=text&amp;node=23:1.0.1.7.33&amp;idno=23"/>
    <tag k="source:maxspeed" v="survey;image"/>
    <tag k="source_ref:maxspeed" v="AM909_DSCW9024"/>
  </way>
  <way id="29468603" version="4" timestamp="2010-03-28T00:43:49Z" uid="20587" user="balrog-kun" changeset="4250871">
    <nd ref="324778356"/>
    <nd ref="324778375"/>
    <nd ref="15390956"/>
    <nd ref="324778423"/>
    <nd ref="324778413"/>
    <tag k="bridge" v="yes"/>
    <tag k="highway" v="motorway"/>
    <tag k="layer" v="1"/>
    <tag k="name" v="Pomona Freeway"/>
    <tag k="oneway" v="yes"/>
    <tag k="ref" v="CA 60"/>
  </way>
  <way id="29468603" version="5" timestamp="2011-02-16T23:41:58Z" uid="82317" user="AM909" changeset="7308878">
    <nd ref="324778356"/>
    <nd ref="324778375"/>
    <tag k="bridge" v="yes"/>
    <tag k="highway" v="motorway"/>
    <tag k="layer" v="1"/>
    <tag k="name" v="Pomona Freeway"/>
    <tag k="oneway" v="yes"/>
    <tag k="ref" v="CA 60"/>
  </way>
  <way id="29468603" version="6" timestamp="2011-07-29T05:23:01Z" uid="207745" user="NE2" changeset="8860294">
    <nd ref="324778356"/>
    <nd ref="324778375"/>
    <tag k="bridge" v="yes"/>
    <tag k="highway" v="motorway"/>
    <tag k="hov" v="lane"/>
    <tag k="lanes" v="5"/>
    <tag k="layer" v="1"/>
    <tag k="name" v="Pomona Freeway"/>
    <tag k="note:lanes" v="left lane is hov"/>
    <tag k="oneway" v="yes"/>
    <tag k="ref" v="CA 60"/>
  </way>
  <way id="29468603" version="7" timestamp="2011-11-25T14:51:45Z" uid="207745" user="NE2" changeset="9943893">
    <nd ref="324778356"/>
    <nd ref="324778375"/>
    <tag k="bridge" v="yes"/>
    <tag k="hgv:national_network" v="yes"/>
    <tag k="highway" v="motorway"/>
    <tag k="hov" v="lane"/>
    <tag k="lanes" v="5"/>
    <tag k="layer" v="1"/>
    <tag k="name" v="Pomona Freeway"/>
    <tag k="note:lanes" v="left lane is hov"/>
    <tag k="oneway" v="yes"/>
    <tag k="ref" v="CA 60"/>
    <tag k="source:hgv:national_network" v="Title 23: Highways Part 658 http://ecfr.gpoaccess.gov/cgi/t/text/text-idx?c=ecfr&amp;rgn=div5&amp;view=text&amp;node=23:1.0.1.7.33&amp;idno=23"/>
  </way>
  <way id="29468603" version="8" timestamp="2011-11-25T17:17:46Z" uid="207745" user="NE2" changeset="9945963">
    <nd ref="324778356"/>
    <nd ref="324778375"/>
    <tag k="bridge" v="yes"/>
    <tag k="hgv" v="designated"/>
    <tag k="hgv:national_network" v="yes"/>
    <tag k="highway" v="motorway"/>
    <tag k="hov" v="lane"/>
    <tag k="lanes" v="5"/>
    <tag k="layer" v="1"/>
    <tag k="name" v="Pomona Freeway"/>
    <tag k="note:lanes" v="left lane is hov"/>
    <tag k="oneway" v="yes"/>
    <tag k="ref" v="CA 60"/>
    <tag k="source:hgv:national_network" v="Title 23: Highways Part 658 http://ecfr.gpoaccess.gov/cgi/t/text/text-idx?c=ecfr&amp;rgn=div5&amp;view=text&amp;node=23:1.0.1.7.33&amp;idno=23"/>
  </way>
  <way id="29468613" version="10" timestamp="2010-12-10T12:24:04Z" uid="6269" user="Mueck" changeset="6604637">
    <nd ref="324052270"/>
    <nd ref="324778766"/>
    <nd ref="508703495"/>
    <nd ref="508703499"/>
    <nd ref="506576693"/>
    <nd ref="1030658257"/>
    <nd ref="324778764"/>
    <nd ref="325023925"/>
    <nd ref="324778761"/>
    <tag k="admin_level" v="6"/>
    <tag k="boundary" v="administrative"/>
  </way>
  <way id="29468613" version="11" timestamp="2011-12-31T15:19:50Z" uid="61005" user="nkbre" changeset="10255783">
    <nd ref="324052270"/>
    <nd ref="1571344565"/>
    <nd ref="1571344570"/>
    <nd ref="1571344568"/>
    <nd ref="324778764"/>
    <nd ref="325023925"/>
    <nd ref="324778761"/>
    <tag k="admin_level" v="6"/>
    <tag k="boundary" v="administrative"/>
  </way>
  <way id="29468613" version="12" timestamp="2012-01-04T13:25:50Z" uid="114813" user="Chrisuu" changeset="10290352">
    <nd ref="324052270"/>
    <nd ref="1571344565"/>
    <nd ref="1571344570"/>
    <nd ref="1571344568"/>
    <nd ref="324778764"/>
    <nd ref="1576746864"/>
    <nd ref="325023925"/>
    <nd ref="324778761"/>
    <tag k="admin_level" v="6"/>
    <tag k="boundary" v="administrative"/>
  </way>
  <way id="29468613" version="13" timestamp="2012-02-24T11:58:40Z" uid="61005" user="nkbre" changeset="10776412"/>
  <way id="29468614" version="4" timestamp="2011-01-04T00:25:07Z" uid="6269" user="Mueck" changeset="6856599">
    <nd ref="323759693"/>
    <nd ref="323489128"/>
    <nd ref="324158966"/>
    <nd ref="323422888"/>
    <nd ref="323436013"/>
    <nd ref="323938390"/>
    <nd ref="323455856"/>
    <nd ref="323485531"/>
    <nd ref="323891490"/>
    <nd ref="323362819"/>
    <nd ref="323704391"/>
    <nd ref="323278261"/>
    <nd ref="323620786"/>
    <nd ref="323728634"/>
    <nd ref="323647751"/>
    <nd ref="323718503"/>
    <nd ref="323790925"/>
    <nd ref="323790285"/>
    <nd ref="323437657"/>
    <nd ref="323983973"/>
    <nd ref="323624339"/>
    <nd ref="324016441"/>
    <nd ref="324123454"/>
    <nd ref="323518689"/>
    <nd ref="323855409"/>
    <tag k="import_boundary" v="administrative"/>
    <tag k="old_admin_level" v="6"/>
    <tag k="source" v="http://wiki.openstreetmap.org/wiki/Import/Catalogue/Kreisgrenzen_Deutschland_2005"/>
  </way>
  <way id="29468614" version="5" timestamp="2011-10-09T11:49:11Z" uid="92274" user="adjuva" changeset="9510220">
    <nd ref="323759693"/>
    <nd ref="323489128"/>
    <nd ref="324158966"/>
    <nd ref="323422888"/>
    <nd ref="323436013"/>
    <nd ref="323938390"/>
    <nd ref="323455856"/>
    <nd ref="323485531"/>
    <nd ref="323891490"/>
    <nd ref="323362819"/>
    <nd ref="323704391"/>
    <nd ref="323278261"/>
    <nd ref="323620786"/>
    <nd ref="323728634"/>
    <nd ref="323647751"/>
    <nd ref="323718503"/>
    <nd ref="323790925"/>
    <nd ref="323790285"/>
    <nd ref="323437657"/>
    <nd ref="323983973"/>
    <nd ref="323624339"/>
    <nd ref="324016441"/>
    <nd ref="324123454"/>
    <nd ref="323518689"/>
    <nd ref="323855409"/>
    <tag k="import_boundary" v="administrative"/>
    <tag k="old:admin_level" v="6"/>
    <tag k="source" v="http://wiki.openstreetmap.org/wiki/Import/Catalogue/Kreisgrenzen_Deutschland_2005"/>
  </way>
  <way id="29468615" version="3" timestamp="2010-12-09T22:08:31Z" uid="6269" user="Mueck" changeset="6600254"/>
  <way id="29468616" version="3" timestamp="2010-12-15T02:44:14Z" uid="6269" user="Mueck" changeset="6664352">
    <nd ref="324778769"/>
    <nd ref="324778772"/>
    <tag k="bridge" v="yes"/>
    <tag k="layer" v="1"/>
    <tag k="mapping_status" v="incomplete"/>
    <tag k="railway" v="rail"/>
    <tag k="source" v="Landsat/Yahoo"/>
    <tag k="usage" v="branch"/>
  </way>
  <way id="29468617" version="10" timestamp="2010-12-23T00:00:39Z" uid="6269" user="Mueck" changeset="6741418">
    <nd ref="324052270"/>
    <nd ref="323485080"/>
    <nd ref="323303050"/>
    <nd ref="323957584"/>
    <nd ref="323753886"/>
    <nd ref="323263518"/>
    <nd ref="1057899175"/>
    <tag k="admin_level" v="6"/>
    <tag k="boundary" v="administrative"/>
    <tag k="source" v="http://wiki.openstreetmap.org/wiki/Import/Catalogue/Kreisgrenzen_Deutschland_2005"/>
  </way>
  <way id="29468617" version="11" timestamp="2011-12-31T15:19:50Z" uid="61005" user="nkbre" changeset="10255783">
    <nd ref="324052270"/>
    <nd ref="323485080"/>
    <nd ref="323303050"/>
    <nd ref="323957584"/>
    <nd ref="323753886"/>
    <nd ref="323263518"/>
    <nd ref="1571344562"/>
    <tag k="admin_level" v="6"/>
    <tag k="boundary" v="administrative"/>
    <tag k="source" v="http://wiki.openstreetmap.org/wiki/Import/Catalogue/Kreisgrenzen_Deutschland_2005"/>
  </way>
  <way id="29468617" version="12" timestamp="2012-02-24T11:58:41Z" uid="61005" user="nkbre" changeset="10776412"/>
</osm>
