<?xml version='1.0' encoding='UTF-8'?>
<osm version="0.6" generator="libosmium/2.20.0">
  <way id="29477045" version="3" timestamp="2010-02-15T05:22:19Z" uid="74617" user="JohnSmith" changeset="3880269">
    <nd ref="268545374"/>
    <nd ref="324902446"/>
    <tag k="highway" v="residential"/>
    <tag k="maxspeed" v="50"/>
    <tag k="name" v="Alton Court"/>
  </way>
  <way id="29477045" version="4" timestamp="2012-01-18T01:56:02Z" uid="147510" user="woodpeck_fixbot" changeset="10423581">
    <nd ref="268545374"/>
    <nd ref="324902446"/>
    <tag k="highway" v="residential"/>
    <tag k="name" v="Alton Court"/>
  </way>
  <way id="29477048" version="2" timestamp="2010-02-15T05:22:20Z" uid="74617" user="JohnSmith" changeset="3880269">
    <nd ref="268545731"/>
    <nd ref="268545734"/>
    <tag k="highway" v="residential"/>
    <tag k="maxspeed" v="50"/>
    <tag k="name" v="Gum Leaf Court"/>
    <tag k="note" v="Odd numbers."/>
  </way>
  <way id="29477048" version="3" timestamp="2012-01-18T01:56:03Z" uid="147510" user="woodpeck_fixbot" changeset="10423581">
    <nd ref="268545731"/>
    <nd ref="268545734"/>
    <tag k="highway" v="residential"/>
    <tag k="name" v="Gum Leaf Court"/>
    <tag k="note" v="Odd numbers."/>
  </way>
  <way id="29477052" version="3" timestamp="2010-02-15T05:22:10Z" uid="74617" user="JohnSmith" changeset="3880269">
    <nd ref="268544391"/>
    <nd ref="268545230"/>
    <nd ref="268545231"/>
    <nd ref="268545232"/>
    <nd ref="268545233"/>
    <nd ref="268545234"/>
    <nd ref="340230021"/>
    <nd ref="268545235"/>
    <nd ref="268545236"/>
    <nd ref="268545238"/>
    <nd ref="268545240"/>
    <nd ref="268545242"/>
    <nd ref="340230029"/>
    <tag k="highway" v="tertiary"/>
    <tag k="name" v="Jagora Drive"/>
  </way>
  <way id="29477164" version="3" timestamp="2010-07-06T09:24:56Z" uid="4467" user="Rosscoe" changeset="5148673">
    <nd ref="27164962"/>
    <nd ref="324901463"/>
    <nd ref="324901464"/>
    <nd ref="324901465"/>
    <nd ref="324901466"/>
    <nd ref="324901467"/>
    <nd ref="324900726"/>
    <nd ref="324900759"/>
    <nd ref="324900599"/>
    <tag k="highway" v="motorway_link"/>
    <tag k="name" v="Blackburn Road Offramp"/>
    <tag k="oneway" v="yes"/>
  </way>
  <way id="29477164" version="4" timestamp="2011-12-02T05:56:35Z" uid="11111" user="melb_guy" changeset="10014351">
    <nd ref="27164962"/>
    <nd ref="1527875051"/>
    <nd ref="324901464"/>
    <nd ref="324901465"/>
    <nd ref="1527875146"/>
    <nd ref="324901466"/>
    <nd ref="1527875206"/>
    <nd ref="324901467"/>
    <tag k="highway" v="motorway_link"/>
    <tag k="name" v="Blackburn Road Offramp"/>
    <tag k="oneway" v="yes"/>
  </way>
  <way id="29477166" version="6" timestamp="2010-07-06T09:25:33Z" uid="4467" user="Rosscoe" changeset="5148673">
    <nd ref="324900599"/>
    <nd ref="324901513"/>
    <nd ref="324900869"/>
    <nd ref="324900870"/>
    <nd ref="324900871"/>
    <nd ref="324900872"/>
    <nd ref="324900874"/>
    <nd ref="324900876"/>
    <nd ref="324900877"/>
    <tag k="highway" v="motorway_link"/>
    <tag k="name" v="Monash Freeway Onramp"/>
    <tag k="oneway" v="yes"/>
  </way>
  <way id="29477166" version="7" timestamp="2011-12-02T05:56:35Z" uid="11111" user="melb_guy" changeset="10014351">
    <nd ref="324900599"/>
    <nd ref="1527875275"/>
    <nd ref="1527875171"/>
    <nd ref="324901513"/>
    <nd ref="324900869"/>
    <nd ref="1527875105"/>
    <nd ref="1527875239"/>
    <nd ref="324900870"/>
    <nd ref="1527875076"/>
    <nd ref="1527875050"/>
    <nd ref="324900871"/>
    <tag k="highway" v="motorway_link"/>
    <tag k="lanes" v="2"/>
    <tag k="maxspeed" v="70"/>
    <tag k="name" v="Monash Freeway Onramp"/>
    <tag k="oneway" v="yes"/>
    <tag k="surface" v="asphalt"/>
  </way>
  <way id="29477166" version="8" timestamp="2011-12-02T06:17:53Z" uid="11111" user="melb_guy" changeset="10014351">
    <nd ref="324900599"/>
    <nd ref="1527875275"/>
    <nd ref="1527875171"/>
    <nd ref="324901513"/>
    <tag k="highway" v="motorway_link"/>
    <tag k="lanes" v="1"/>
    <tag k="maxspeed" v="70"/>
    <tag k="name" v="Monash Freeway Onramp"/>
    <tag k="oneway" v="yes"/>
    <tag k="surface" v="asphalt"/>
  </way>
  <way id="29477424" version="4" timestamp="2010-03-28T00:44:08Z" uid="20587" user="balrog-kun" changeset="4250871">
    <nd ref="88821460"/>
    <nd ref="324906660"/>
    <nd ref="324906661"/>
    <nd ref="324906662"/>
    <nd ref="324906663"/>
    <nd ref="324906664"/>
    <nd ref="324906841"/>
    <nd ref="324906665"/>
    <nd ref="324906666"/>
    <nd ref="324906667"/>
    <nd ref="324906668"/>
    <nd ref="324906669"/>
    <nd ref="324906671"/>
    <nd ref="324906672"/>
    <nd ref="324906673"/>
    <nd ref="324906674"/>
    <nd ref="324906675"/>
    <nd ref="324906676"/>
    <nd ref="324906677"/>
    <nd ref="324906679"/>
    <nd ref="324906680"/>
    <nd ref="324906681"/>
    <nd ref="324906682"/>
    <nd ref="324906683"/>
    <nd ref="324906684"/>
    <nd ref="324906685"/>
    <nd ref="324906686"/>
    <nd ref="324906688"/>
    <nd ref="324906689"/>
    <nd ref="324906690"/>
    <nd ref="324906691"/>
    <nd ref="324906692"/>
    <nd ref="324906693"/>
    <nd ref="324906694"/>
    <nd ref="324906696"/>
    <nd ref="324906697"/>
    <tag k="created_by" v="Potlatch 0.10f"/>
    <tag k="highway" v="secondary"/>
    <tag k="name" v="Manzanita Lake Road"/>
    <tag k="tiger:cfcc" v="A31"/>
    <tag k="tiger:county" v="Madera, CA"/>
    <tag k="tiger:name_base" v="Manzanita Lake"/>
    <tag k="tiger:name_type" v="Rd"/>
    <tag k="tiger:reviewed" v="no"/>
    <tag k="tiger:separated" v="no"/>
    <tag k="tiger:source" v="tiger_import_dch_v0.6_20070809"/>
    <tag k="tiger:tlid" v="102368906:102328665:102371121"/>
  </way>
  <way id="29477467" version="2" timestamp="2010-03-28T00:44:09Z" uid="20587" user="balrog-kun" changeset="4250871">
    <nd ref="324906697"/>
    <nd ref="324907256"/>
    <nd ref="324907257"/>
    <nd ref="324907259"/>
    <nd ref="324907260"/>
    <nd ref="324907261"/>
    <nd ref="324907263"/>
    <nd ref="324907264"/>
    <nd ref="324907266"/>
    <tag k="created_by" v="Potlatch 0.10f"/>
    <tag k="highway" v="residential"/>
    <tag k="name" v="Road 222"/>
    <tag k="name_1" v="Manzanita Road"/>
    <tag k="tiger:cfcc" v="A41"/>
    <tag k="tiger:county" v="Madera, CA"/>
    <tag k="tiger:name_base" v="Road 222"/>
    <tag k="tiger:name_base_1" v="Manzanita"/>
    <tag k="tiger:name_type_1" v="Rd"/>
    <tag k="tiger:reviewed" v="no"/>
    <tag k="tiger:separated" v="no"/>
    <tag k="tiger:source" v="tiger_import_dch_v0.6_20070809"/>
    <tag k="tiger:tlid" v="102328517"/>
    <tag k="tiger:zip_left" v="93643"/>
    <tag k="tiger:zip_right" v="93643"/>
  </way>
  <way id="29477509" version="7" timestamp="2010-03-28T00:44:09Z" uid="20587" user="balrog-kun" changeset="4250871">
    <nd ref="324907266"/>
    <nd ref="324907941"/>
    <nd ref="324907942"/>
    <nd ref="324907943"/>
    <nd ref="324907944"/>
    <nd ref="324907945"/>
    <nd ref="324907946"/>
    <nd ref="324907947"/>
    <nd ref="324907948"/>
    <nd ref="324907949"/>
    <nd ref="324907950"/>
    <nd ref="324908682"/>
    <nd ref="324907952"/>
    <nd ref="324907953"/>
    <nd ref="324907954"/>
    <nd ref="324907955"/>
    <nd ref="324907957"/>
    <nd ref="324907958"/>
    <nd ref="324907959"/>
    <nd ref="324907960"/>
    <nd ref="324907962"/>
    <nd ref="324907963"/>
    <nd ref="324907964"/>
    <nd ref="324907965"/>
    <nd ref="324908484"/>
    <nd ref="324907966"/>
    <nd ref="324907967"/>
    <nd ref="324907968"/>
    <nd ref="324907970"/>
    <nd ref="324908440"/>
    <nd ref="324907971"/>
    <nd ref="324907972"/>
    <nd ref="324907973"/>
    <nd ref="324907974"/>
    <nd ref="324907975"/>
    <nd ref="324907976"/>
    <nd ref="324907977"/>
    <nd ref="324908269"/>
    <nd ref="324907978"/>
    <nd ref="324907979"/>
    <nd ref="324907981"/>
    <nd ref="324907982"/>
    <nd ref="324907983"/>
    <nd ref="324907984"/>
    <nd ref="324907985"/>
    <nd ref="324907986"/>
    <nd ref="324907988"/>
    <nd ref="324907989"/>
    <nd ref="324907990"/>
    <nd ref="324907991"/>
    <nd ref="324907992"/>
    <nd ref="324907993"/>
    <nd ref="88821927"/>
    <tag k="created_by" v="Potlatch 0.10f"/>
    <tag k="highway" v="residential"/>
    <tag k="name" v="Road 222"/>
    <tag k="name_1" v="Manzanita Road"/>
    <tag k="tiger:cfcc" v="A41"/>
    <tag k="tiger:county" v="Madera, CA"/>
    <tag k="tiger:name_base" v="Road 222"/>
    <tag k="tiger:name_base_1" v="Manzanita"/>
    <tag k="tiger:name_type_1" v="Rd"/>
    <tag k="tiger:reviewed" v="no"/>
    <tag k="tiger:separated" v="no"/>
    <tag k="tiger:source" v="tiger_import_dch_v0.6_20070809"/>
    <tag k="tiger:tlid" v="102354927:102363148:102363149:102328623"/>
    <tag k="tiger:zip_left" v="93643"/>
    <tag k="tiger:zip_right" v="93643"/>
  </way>
  <way id="29477720" version="3" timestamp="2009-10-08T23:07:11Z" uid="179968" user="Ich_hasse_doitsche_OSM-Korinthenkacker" changeset="2788677">
    <nd ref="324911472"/>
    <nd ref="324911473"/>
    <nd ref="324911474"/>
    <nd ref="324911475"/>
    <nd ref="324911476"/>
    <nd ref="324911477"/>
    <nd ref="324911478"/>
    <nd ref="324911479"/>
    <nd ref="324911480"/>
    <nd ref="324911481"/>
    <nd ref="324911482"/>
    <tag k="addr:postcode" v="6912"/>
    <tag k="at:maxspeed" v="Ortsgebiet"/>
    <tag k="fixme" v="check import x"/>
    <tag k="highway" v="residential"/>
    <tag k="is_in" v="...,Bezirk Bregenz,Vorarlberg,Österreich,Europa"/>
    <tag k="name" v="Wuhrstraße"/>
    <tag k="note" v="imported from plan.at; (C)=CC-by-sa or oDBL; feel free to change if necessary"/>
    <tag k="plan_at:acad_id" v="b#7D4"/>
    <tag k="source" v="plan.at 2009"/>
    <tag k="uploaded_by" v="Wolfgang W. Wasserburger"/>
  </way>
  <way id="29477720" version="4" timestamp="2009-12-30T19:59:06Z" uid="123355" user="AE_LOCHAU" changeset="3493250">
    <nd ref="324911475"/>
    <nd ref="324911476"/>
    <nd ref="324911477"/>
    <nd ref="324911478"/>
    <nd ref="324911479"/>
    <nd ref="324911480"/>
    <nd ref="324911481"/>
    <nd ref="324911482"/>
    <tag k="addr:postcode" v="6912"/>
    <tag k="at:maxspeed" v="Ortsgebiet"/>
    <tag k="fixme" v="check import x"/>
    <tag k="highway" v="residential"/>
    <tag k="is_in" v="...,Bezirk Bregenz,Vorarlberg,Österreich,Europa"/>
    <tag k="name" v="Wuhrstraße"/>
    <tag k="note" v="imported from plan.at; (C)=CC-by-sa or oDBL; feel free to change if necessary"/>
    <tag k="plan_at:acad_id" v="b#7D4"/>
    <tag k="source" v="plan.at 2009"/>
    <tag k="uploaded_by" v="Wolfgang W. Wasserburger"/>
  </way>
  <way id="29477720" version="5" timestamp="2010-11-24T22:33:05Z" uid="12178" user="edwin-ldbg" changeset="6450868">
    <nd ref="324911475"/>
    <nd ref="324911476"/>
    <nd ref="324911477"/>
    <nd ref="324911478"/>
    <nd ref="324911479"/>
    <nd ref="324911480"/>
    <nd ref="324911481"/>
    <nd ref="1003126235"/>
    <nd ref="324911482"/>
    <tag k="addr:postcode" v="6912"/>
    <tag k="at:maxspeed" v="Ortsgebiet"/>
    <tag k="highway" v="residential"/>
    <tag k="is_in" v="...,Bezirk Bregenz,Vorarlberg,Österreich,Europa"/>
    <tag k="name" v="Wuhrstraße"/>
    <tag k="note" v="imported from plan.at; (C)=CC-by-sa or oDBL; feel free to change if necessary"/>
    <tag k="plan_at:acad_id" v="b#7D4"/>
    <tag k="source" v="plan.at 2009"/>
    <tag k="uploaded_by" v="Wolfgang W. Wasserburger"/>
  </way>
  <way id="29477720" version="6" timestamp="2011-07-26T15:46:34Z" uid="491845" user="data_at" changeset="8836923">
    <nd ref="324911475"/>
    <nd ref="324911476"/>
    <nd ref="324911477"/>
    <nd ref="324911478"/>
    <nd ref="324911479"/>
    <nd ref="324911480"/>
    <nd ref="324911481"/>
    <nd ref="1003126235"/>
    <nd ref="324911482"/>
    <tag k="highway" v="residential"/>
    <tag k="is_in" v="...,Bezirk Bregenz,Vorarlberg,Österreich,Europa"/>
    <tag k="name" v="Wuhrstraße"/>
    <tag k="source" v="plan.at 2009"/>
  </way>
  <way id="29477720" version="7" timestamp="2011-07-26T18:37:15Z" uid="45347" user="eriosw" changeset="8838568">
    <nd ref="324911475"/>
    <nd ref="324911476"/>
    <nd ref="324911477"/>
    <nd ref="324911478"/>
    <nd ref="324911479"/>
    <nd ref="324911480"/>
    <nd ref="324911481"/>
    <nd ref="1003126235"/>
    <nd ref="324911482"/>
    <tag k="highway" v="residential"/>
    <tag k="is_in" v="Hörbranz,Bregenz,Vorarlberg,Österreich,Europe"/>
    <tag k="name" v="Wuhrstraße"/>
    <tag k="source" v="plan.at 2009"/>
  </way>
  <way id="29477729" version="3" timestamp="2009-10-08T23:07:21Z" uid="179968" user="Ich_hasse_doitsche_OSM-Korinthenkacker" changeset="2788677">
    <nd ref="324911612"/>
    <nd ref="324911614"/>
    <nd ref="324911615"/>
    <nd ref="324911616"/>
    <nd ref="176731026"/>
    <tag k="addr:postcode" v="6912"/>
    <tag k="at:maxspeed" v="Ortsgebiet"/>
    <tag k="fixme" v="check import"/>
    <tag k="highway" v="residential"/>
    <tag k="is_in" v="...,Bezirk Bregenz,Vorarlberg,Österreich,Europa"/>
    <tag k="name" v="Weidachweg"/>
    <tag k="note" v="imported from plan.at; (C)=CC-by-sa or oDBL; feel free to change if necessary"/>
    <tag k="plan_at:acad_id" v="b#7B9"/>
    <tag k="source" v="plan.at 2009"/>
    <tag k="uploaded_by" v="Wolfgang W. Wasserburger"/>
  </way>
  <way id="29477729" version="4" timestamp="2011-07-21T04:15:35Z" uid="491845" user="data_at" changeset="8784794">
    <nd ref="324911612"/>
    <nd ref="324911614"/>
    <nd ref="324911615"/>
    <nd ref="324911616"/>
    <nd ref="176731026"/>
    <tag k="fixme" v="check import"/>
    <tag k="highway" v="residential"/>
    <tag k="is_in" v="...,Bezirk Bregenz,Vorarlberg,Österreich,Europa"/>
    <tag k="name" v="Weidachweg"/>
    <tag k="source" v="plan.at 2009"/>
  </way>
  <way id="29477729" version="5" timestamp="2011-07-26T18:37:13Z" uid="45347" user="eriosw" changeset="8838568">
    <nd ref="324911612"/>
    <nd ref="324911614"/>
    <nd ref="324911615"/>
    <nd ref="324911616"/>
    <nd ref="176731026"/>
    <tag k="fixme" v="check import"/>
    <tag k="highway" v="residential"/>
    <tag k="is_in" v="Hörbranz,Bregenz,Vorarlberg,Österreich,Europe"/>
    <tag k="name" v="Weidachweg"/>
    <tag k="source" v="plan.at 2009"/>
  </way>
  <way id="29477748" version="4" timestamp="2010-03-28T00:44:10Z" uid="20587" user="balrog-kun" changeset="4250871">
    <nd ref="324912245"/>
    <nd ref="88868357"/>
    <nd ref="88868358"/>
    <nd ref="88868360"/>
    <nd ref="88868362"/>
    <nd ref="88868364"/>
    <nd ref="88868365"/>
    <nd ref="88868366"/>
    <nd ref="88868367"/>
    <nd ref="88868368"/>
    <nd ref="88868370"/>
    <nd ref="88868371"/>
    <nd ref="88868373"/>
    <nd ref="88868374"/>
    <nd ref="88868376"/>
    <nd ref="88868378"/>
    <nd ref="88868380"/>
    <nd ref="88868381"/>
    <nd ref="88868383"/>
    <nd ref="88868385"/>
    <nd ref="88868386"/>
    <nd ref="88868387"/>
    <nd ref="88868388"/>
    <nd ref="88868390"/>
    <nd ref="88868391"/>
    <nd ref="88868393"/>
    <nd ref="88868394"/>
    <nd ref="88868395"/>
    <nd ref="88868397"/>
    <nd ref="88868398"/>
    <nd ref="88868399"/>
    <nd ref="88868400"/>
    <nd ref="88868401"/>
    <nd ref="88868403"/>
    <nd ref="88868405"/>
    <nd ref="88868407"/>
    <nd ref="88868408"/>
    <nd ref="88868409"/>
    <nd ref="88868410"/>
    <nd ref="88868412"/>
    <nd ref="88868414"/>
    <nd ref="88868416"/>
    <nd ref="88868417"/>
    <nd ref="88868419"/>
    <nd ref="88868421"/>
    <nd ref="88868423"/>
    <nd ref="88868425"/>
    <nd ref="88868426"/>
    <nd ref="88868428"/>
    <nd ref="88868429"/>
    <nd ref="88868431"/>
    <nd ref="88868432"/>
    <nd ref="88868434"/>
    <nd ref="88868436"/>
    <nd ref="88868438"/>
    <nd ref="88868439"/>
    <nd ref="88868440"/>
    <nd ref="88868442"/>
    <nd ref="88868444"/>
    <nd ref="88868446"/>
    <nd ref="88868448"/>
    <nd ref="88868450"/>
    <nd ref="88868452"/>
    <nd ref="88868454"/>
    <nd ref="88868456"/>
    <nd ref="88868457"/>
    <nd ref="88868459"/>
    <nd ref="88868461"/>
    <nd ref="88868463"/>
    <nd ref="88868465"/>
    <nd ref="88868467"/>
    <nd ref="88868469"/>
    <nd ref="88868471"/>
    <nd ref="88868473"/>
    <nd ref="88868474"/>
    <nd ref="88868477"/>
    <nd ref="88868478"/>
    <nd ref="88868480"/>
    <nd ref="88841063"/>
    <tag k="created_by" v="Potlatch 0.10f"/>
    <tag k="highway" v="residential"/>
    <tag k="name" v="Beasore Road"/>
    <tag k="name_1" v="5S07"/>
    <tag k="tiger:cfcc" v="A41"/>
    <tag k="tiger:county" v="Madera, CA"/>
    <tag k="tiger:name_base" v="Beasore"/>
    <tag k="tiger:name_base_1" v="5S07"/>
    <tag k="tiger:name_type" v="Rd"/>
    <tag k="tiger:reviewed" v="no"/>
    <tag k="tiger:separated" v="no"/>
    <tag k="tiger:source" v="tiger_import_dch_v0.6_20070809"/>
    <tag k="tiger:tlid" v="102328345"/>
  </way>
  <way id="29477758" version="3" timestamp="2009-10-08T23:07:18Z" uid="179968" user="Ich_hasse_doitsche_OSM-Korinthenkacker" changeset="2788677">
    <nd ref="294774460"/>
    <nd ref="324912214"/>
    <tag k="addr:postcode" v="6912"/>
    <tag k="at:maxspeed" v="Ortsgebiet"/>
    <tag k="fixme" v="check import"/>
    <tag k="highway" v="residential"/>
    <tag k="is_in" v="...,Bezirk Bregenz,Vorarlberg,Österreich,Europa"/>
    <tag k="name" v="Staudachweg"/>
    <tag k="note" v="imported from plan.at; (C)=CC-by-sa or oDBL; feel free to change if necessary"/>
    <tag k="plan_at:acad_id" v="b#75C"/>
    <tag k="source" v="plan.at 2009"/>
    <tag k="uploaded_by" v="Wolfgang W. Wasserburger"/>
  </way>
  <way id="29477758" version="4" timestamp="2011-07-21T04:14:49Z" uid="491845" user="data_at" changeset="8784794">
    <nd ref="294774460"/>
    <nd ref="324912214"/>
    <tag k="fixme" v="check import"/>
    <tag k="highway" v="residential"/>
    <tag k="is_in" v="...,Bezirk Bregenz,Vorarlberg,Österreich,Europa"/>
    <tag k="name" v="Staudachweg"/>
    <tag k="source" v="plan.at 2009"/>
  </way>
  <way id="29477758" version="5" timestamp="2011-07-26T18:37:08Z" uid="45347" user="eriosw" changeset="8838568">
    <nd ref="294774460"/>
    <nd ref="324912214"/>
    <tag k="fixme" v="check import"/>
    <tag k="highway" v="residential"/>
    <tag k="is_in" v="Hörbranz,Bregenz,Vorarlberg,Österreich,Europe"/>
    <tag k="name" v="Staudachweg"/>
    <tag k="source" v="plan.at 2009"/>
  </way>
  <way id="29477837" version="4" timestamp="2009-10-08T23:06:54Z" uid="179968" user="Ich_hasse_doitsche_OSM-Korinthenkacker" changeset="2788677">
    <nd ref="324912790"/>
    <nd ref="324912792"/>
    <nd ref="324912794"/>
    <nd ref="251042896"/>
    <tag k="addr:postcode" v="6912"/>
    <tag k="at:maxspeed" v="Ortsgebiet"/>
    <tag k="fixme" v="check import"/>
    <tag k="highway" v="residential"/>
    <tag k="is_in" v="Hörbranz,Bezirk Bregenz,Vorarlberg,Österreich,Europa"/>
    <tag k="name" v="Sägerstraße"/>
    <tag k="note" v="imported from plan.at; (C)=CC-by-sa or oDBL; feel free to change if necessary"/>
    <tag k="plan_at:acad_id" v="b#6F3"/>
    <tag k="source" v="plan.at 2009"/>
    <tag k="uploaded_by" v="Wolfgang W. Wasserburger"/>
  </way>
  <way id="29477837" version="5" timestamp="2011-07-21T04:15:08Z" uid="491845" user="data_at" changeset="8784794">
    <nd ref="324912790"/>
    <nd ref="324912792"/>
    <nd ref="324912794"/>
    <nd ref="251042896"/>
    <tag k="fixme" v="check import"/>
    <tag k="highway" v="residential"/>
    <tag k="is_in" v="Hörbranz,Bezirk Bregenz,Vorarlberg,Österreich,Europa"/>
    <tag k="name" v="Sägerstraße"/>
    <tag k="source" v="plan.at 2009"/>
  </way>
  <way id="29477837" version="6" timestamp="2011-07-26T18:37:11Z" uid="45347" user="eriosw" changeset="8838568">
    <nd ref="324912790"/>
    <nd ref="324912792"/>
    <nd ref="324912794"/>
    <nd ref="251042896"/>
    <tag k="fixme" v="check import"/>
    <tag k="highway" v="residential"/>
    <tag k="is_in" v="Hörbranz,Bregenz,Vorarlberg,Österreich,Europe"/>
    <tag k="name" v="Sägerstraße"/>
    <tag k="source" v="plan.at 2009"/>
  </way>
  <way id="29477846" version="5" timestamp="2010-07-09T02:53:05Z" uid="74617" user="JohnSmith" changeset="5170713">
    <nd ref="324913008"/>
    <nd ref="597501058"/>
    <nd ref="324913009"/>
    <nd ref="324912941"/>
    <tag k="highway" v="residential"/>
    <tag k="maxspeed" v="50"/>
    <tag k="maxspeed:source" v="default residential speed limit in Australia"/>
    <tag k="name" v="Catherine Avenue"/>
    <tag k="oneway" v="yes"/>
  </way>
  <way id="29477846" version="6" timestamp="2012-01-18T01:56:05Z" uid="147510" user="woodpeck_fixbot" changeset="10423581">
    <nd ref="324913008"/>
    <nd ref="597501058"/>
    <nd ref="324913009"/>
    <nd ref="324912941"/>
    <tag k="highway" v="residential"/>
    <tag k="name" v="Catherine Avenue"/>
    <tag k="oneway" v="yes"/>
  </way>
  <way id="29477853" version="6" timestamp="2010-04-06T06:18:04Z" uid="74617" user="JohnSmith" changeset="4340624">
    <nd ref="30338584"/>
    <nd ref="324922638"/>
    <nd ref="324922639"/>
    <nd ref="324913008"/>
    <nd ref="324913012"/>
    <nd ref="324913079"/>
    <nd ref="324923168"/>
    <nd ref="324923170"/>
    <nd ref="324923074"/>
    <tag k="highway" v="primary"/>
    <tag k="name" v="Stephensons Road"/>
    <tag k="oneway" v="yes"/>
  </way>
  <way id="29477853" version="7" timestamp="2012-03-05T00:39:54Z" uid="201443" user="stevage" changeset="10875514">
    <nd ref="30338584"/>
    <nd ref="324922638"/>
    <nd ref="324922639"/>
    <nd ref="324913008"/>
    <nd ref="324913012"/>
    <nd ref="324913079"/>
    <nd ref="324923168"/>
    <nd ref="324923170"/>
    <nd ref="1659884519"/>
    <tag k="highway" v="primary"/>
    <tag k="name" v="Stephensons Road"/>
    <tag k="oneway" v="yes"/>
  </way>
  <way id="29477856" version="4" timestamp="2009-10-08T23:06:58Z" uid="179968" user="Ich_hasse_doitsche_OSM-Korinthenkacker" changeset="2788677">
    <nd ref="251042909"/>
    <nd ref="324913105"/>
    <nd ref="324913106"/>
    <nd ref="324913107"/>
    <nd ref="324913108"/>
    <nd ref="365785356"/>
    <nd ref="324913109"/>
    <tag k="addr:postcode" v="6912"/>
    <tag k="at:maxspeed" v="Ortsgebiet"/>
    <tag k="fixme" v="check import"/>
    <tag k="highway" v="residential"/>
    <tag k="is_in" v="...,Bezirk Bregenz,Vorarlberg,Österreich,Europa"/>
    <tag k="name" v="Richard-Sannwald-Platz"/>
    <tag k="note" v="imported from plan.at; (C)=CC-by-sa or oDBL; feel free to change if necessary"/>
    <tag k="plan_at:acad_id" v="b#6C3"/>
    <tag k="source" v="plan.at 2009"/>
    <tag k="uploaded_by" v="Wolfgang W. Wasserburger"/>
  </way>
  <way id="29477856" version="5" timestamp="2009-12-30T19:59:05Z" uid="123355" user="AE_LOCHAU" changeset="3493250">
    <nd ref="251042909"/>
    <nd ref="324913106"/>
    <nd ref="324913107"/>
    <nd ref="324913108"/>
    <nd ref="365785356"/>
    <nd ref="324913109"/>
    <tag k="addr:postcode" v="6912"/>
    <tag k="at:maxspeed" v="Ortsgebiet"/>
    <tag k="fixme" v="check import"/>
    <tag k="highway" v="residential"/>
    <tag k="is_in" v="Hörbranz,Bezirk Bregenz,Vorarlberg,Österreich,Europa"/>
    <tag k="name" v="Richard-Sannwald-Platz"/>
    <tag k="note" v="imported from plan.at; (C)=CC-by-sa or oDBL; feel free to change if necessary"/>
    <tag k="plan_at:acad_id" v="b#6C3"/>
    <tag k="source" v="plan.at 2009"/>
    <tag k="uploaded_by" v="Wolfgang W. Wasserburger"/>
  </way>
  <way id="29477856" version="6" timestamp="2010-08-05T17:00:16Z" uid="123355" user="AE_LOCHAU" changeset="5409997">
    <nd ref="847064036"/>
    <nd ref="324913106"/>
    <nd ref="324913107"/>
    <nd ref="324913108"/>
    <tag k="addr:postcode" v="6912"/>
    <tag k="at:maxspeed" v="Ortsgebiet"/>
    <tag k="fixme" v="check import"/>
    <tag k="highway" v="residential"/>
    <tag k="is_in" v="Hörbranz,Bezirk Bregenz,Vorarlberg,Österreich,Europa"/>
    <tag k="name" v="Richard-Sannwald-Platz"/>
    <tag k="note" v="imported from plan.at; (C)=CC-by-sa or oDBL; feel free to change if necessary"/>
    <tag k="plan_at:acad_id" v="b#6C3"/>
    <tag k="source" v="plan.at 2009"/>
    <tag k="uploaded_by" v="Wolfgang W. Wasserburger"/>
  </way>
  <way id="29477856" version="7" timestamp="2010-11-28T01:53:26Z" uid="12178" user="edwin-ldbg" changeset="6474895">
    <nd ref="847064036"/>
    <nd ref="324913106"/>
    <nd ref="324913107"/>
    <nd ref="1009757729"/>
    <nd ref="324913108"/>
    <tag k="addr:postcode" v="6912"/>
    <tag k="at:maxspeed" v="Ortsgebiet"/>
    <tag k="fixme" v="check import"/>
    <tag k="highway" v="residential"/>
    <tag k="is_in" v="Hörbranz,Bezirk Bregenz,Vorarlberg,Österreich,Europa"/>
    <tag k="name" v="Richard-Sannwald-Platz"/>
    <tag k="note" v="imported from plan.at; (C)=CC-by-sa or oDBL; feel free to change if necessary"/>
    <tag k="plan_at:acad_id" v="b#6C3"/>
    <tag k="source" v="plan.at 2009"/>
    <tag k="uploaded_by" v="Wolfgang W. Wasserburger"/>
  </way>
  <way id="29477856" version="8" timestamp="2011-07-21T04:14:00Z" uid="491845" user="data_at" changeset="8784794">
    <nd ref="847064036"/>
    <nd ref="324913106"/>
    <nd ref="324913107"/>
    <nd ref="1009757729"/>
    <nd ref="324913108"/>
    <tag k="fixme" v="check import"/>
    <tag k="highway" v="residential"/>
    <tag k="is_in" v="Hörbranz,Bezirk Bregenz,Vorarlberg,Österreich,Europa"/>
    <tag k="name" v="Richard-Sannwald-Platz"/>
    <tag k="source" v="plan.at 2009"/>
  </way>
  <way id="29477856" version="9" timestamp="2011-07-26T18:37:04Z" uid="45347" user="eriosw" changeset="8838568">
    <nd ref="847064036"/>
    <nd ref="324913106"/>
    <nd ref="324913107"/>
    <nd ref="1009757729"/>
    <nd ref="324913108"/>
    <tag k="fixme" v="check import"/>
    <tag k="highway" v="residential"/>
    <tag k="is_in" v="Hörbranz,Bregenz,Vorarlberg,Österreich,Europe"/>
    <tag k="name" v="Richard-Sannwald-Platz"/>
    <tag k="source" v="plan.at 2009"/>
  </way>
  <way id="29477862" version="3" timestamp="2010-04-06T06:18:05Z" uid="74617" user="JohnSmith" changeset="4340624">
    <nd ref="30338584"/>
    <nd ref="27347468"/>
    <nd ref="30596843"/>
    <nd ref="27170319"/>
    <tag k="highway" v="primary"/>
    <tag k="name" v="Stephensons Road"/>
  </way>
  <way id="29477878" version="3" timestamp="2009-10-08T23:06:56Z" uid="179968" user="Ich_hasse_doitsche_OSM-Korinthenkacker" changeset="2788677">
    <nd ref="324913405"/>
    <nd ref="324913406"/>
    <nd ref="324913407"/>
    <tag k="addr:postcode" v="6912"/>
    <tag k="at:maxspeed" v="Ortsgebiet"/>
    <tag k="fixme" v="check import x"/>
    <tag k="highway" v="residential"/>
    <tag k="is_in" v="...,Bezirk Bregenz,Vorarlberg,Österreich,Europa"/>
    <tag k="name" v="Patachonweg"/>
    <tag k="note" v="imported from plan.at; (C)=CC-by-sa or oDBL; feel free to change if necessary"/>
    <tag k="plan_at:acad_id" v="b#684"/>
    <tag k="source" v="plan.at 2009"/>
    <tag k="uploaded_by" v="Wolfgang W. Wasserburger"/>
  </way>
  <way id="29477878" version="4" timestamp="2011-07-22T06:24:53Z" uid="491845" user="data_at" changeset="8794809">
    <nd ref="324913405"/>
    <nd ref="324913406"/>
    <nd ref="324913407"/>
    <tag k="fixme" v="check import x"/>
    <tag k="highway" v="residential"/>
    <tag k="is_in" v="...,Bezirk Bregenz,Vorarlberg,Österreich,Europa"/>
    <tag k="name" v="Patachonweg"/>
    <tag k="source" v="plan.at 2009"/>
  </way>
  <way id="29477878" version="5" timestamp="2011-07-26T18:37:00Z" uid="45347" user="eriosw" changeset="8838568">
    <nd ref="324913405"/>
    <nd ref="324913406"/>
    <nd ref="324913407"/>
    <tag k="fixme" v="check import x"/>
    <tag k="highway" v="residential"/>
    <tag k="is_in" v="Hörbranz,Bregenz,Vorarlberg,Österreich,Europe"/>
    <tag k="name" v="Patachonweg"/>
    <tag k="source" v="plan.at 2009"/>
  </way>
  <way id="29477887" version="3" timestamp="2009-10-08T23:06:57Z" uid="179968" user="Ich_hasse_doitsche_OSM-Korinthenkacker" changeset="2788677">
    <nd ref="324912222"/>
    <nd ref="324913527"/>
    <nd ref="324913536"/>
    <nd ref="324913545"/>
    <nd ref="324913554"/>
    <nd ref="324913563"/>
    <nd ref="324913571"/>
    <tag k="addr:postcode" v="6912"/>
    <tag k="at:maxspeed" v="Ortsgebiet"/>
    <tag k="fixme" v="check import x"/>
    <tag k="highway" v="residential"/>
    <tag k="is_in" v="...,Bezirk Bregenz,Vorarlberg,Österreich,Europa"/>
    <tag k="name" v="Moosweg"/>
    <tag k="note" v="imported from plan.at; (C)=CC-by-sa or oDBL; feel free to change if necessary"/>
    <tag k="plan_at:acad_id" v="b#669"/>
    <tag k="source" v="plan.at 2009"/>
    <tag k="uploaded_by" v="Wolfgang W. Wasserburger"/>
  </way>
  <way id="29477887" version="4" timestamp="2011-07-22T06:24:16Z" uid="491845" user="data_at" changeset="8794809">
    <nd ref="324912222"/>
    <nd ref="324913527"/>
    <nd ref="324913536"/>
    <nd ref="324913545"/>
    <nd ref="324913554"/>
    <nd ref="324913563"/>
    <nd ref="324913571"/>
    <tag k="fixme" v="check import x"/>
    <tag k="highway" v="residential"/>
    <tag k="is_in" v="...,Bezirk Bregenz,Vorarlberg,Österreich,Europa"/>
    <tag k="name" v="Moosweg"/>
    <tag k="source" v="plan.at 2009"/>
  </way>
  <way id="29477887" version="5" timestamp="2011-07-26T18:37:00Z" uid="45347" user="eriosw" changeset="8838568">
    <nd ref="324912222"/>
    <nd ref="324913527"/>
    <nd ref="324913536"/>
    <nd ref="324913545"/>
    <nd ref="324913554"/>
    <nd ref="324913563"/>
    <nd ref="324913571"/>
    <tag k="fixme" v="check import x"/>
    <tag k="highway" v="residential"/>
    <tag k="is_in" v="Hörbranz,Bregenz,Vorarlberg,Österreich,Europe"/>
    <tag k="name" v="Moosweg"/>
    <tag k="source" v="plan.at 2009"/>
  </way>
  <way id="29477907" version="4" timestamp="2009-10-08T23:06:42Z" uid="179968" user="Ich_hasse_doitsche_OSM-Korinthenkacker" changeset="2788677">
    <nd ref="348490297"/>
    <nd ref="324913776"/>
    <nd ref="324913777"/>
    <nd ref="324913778"/>
    <nd ref="324913780"/>
    <nd ref="324913781"/>
    <nd ref="324913782"/>
    <nd ref="324913783"/>
    <nd ref="348477544"/>
    <tag k="addr:postcode" v="6912"/>
    <tag k="at:maxspeed" v="Ortsgebiet"/>
    <tag k="fixme" v="check import"/>
    <tag k="highway" v="residential"/>
    <tag k="is_in" v="...,Bezirk Bregenz,Vorarlberg,Österreich,Europa"/>
    <tag k="name" v="Maihofstraße"/>
    <tag k="note" v="imported from plan.at; (C)=CC-by-sa or oDBL; feel free to change if necessary"/>
    <tag k="plan_at:acad_id" v="b#636"/>
    <tag k="source" v="plan.at 2009"/>
    <tag k="uploaded_by" v="Wolfgang W. Wasserburger"/>
  </way>
  <way id="29477907" version="5" timestamp="2010-11-04T17:16:51Z" uid="12178" user="edwin-ldbg" changeset="6290008">
    <nd ref="348490297"/>
    <nd ref="324913776"/>
    <nd ref="324913777"/>
    <nd ref="324913778"/>
    <nd ref="324913780"/>
    <nd ref="324913781"/>
    <nd ref="324913782"/>
    <nd ref="324913783"/>
    <nd ref="348477544"/>
    <tag k="addr:postcode" v="6912"/>
    <tag k="at:maxspeed" v="Ortsgebiet"/>
    <tag k="highway" v="residential"/>
    <tag k="is_in" v="...,Bezirk Bregenz,Vorarlberg,Österreich,Europa"/>
    <tag k="name" v="Maihofstraße"/>
    <tag k="note" v="imported from plan.at; (C)=CC-by-sa or oDBL; feel free to change if necessary"/>
    <tag k="plan_at:acad_id" v="b#636"/>
    <tag k="source" v="plan.at 2009"/>
    <tag k="uploaded_by" v="Wolfgang W. Wasserburger"/>
  </way>
  <way id="29477907" version="6" timestamp="2011-04-17T16:36:55Z" uid="123355" user="AE_LOCHAU" changeset="7888713">
    <nd ref="1248593214"/>
    <nd ref="1248593250"/>
    <nd ref="1248593244"/>
    <nd ref="1248593238"/>
    <nd ref="1248593234"/>
    <nd ref="1248593261"/>
    <nd ref="1248593247"/>
    <nd ref="1248593241"/>
    <nd ref="324913776"/>
    <nd ref="324913777"/>
    <nd ref="324913778"/>
    <nd ref="324913780"/>
    <nd ref="324913781"/>
    <nd ref="324913782"/>
    <nd ref="324913783"/>
    <nd ref="348477544"/>
    <tag k="addr:postcode" v="6912"/>
    <tag k="at:maxspeed" v="Ortsgebiet"/>
    <tag k="highway" v="residential"/>
    <tag k="is_in" v="Hörbranz,Bezirk Bregenz,Vorarlberg,Österreich,Europa"/>
    <tag k="name" v="Maihofstraße"/>
    <tag k="plan_at:acad_id" v="b#636"/>
    <tag k="source" v="GPS"/>
    <tag k="uploaded_by" v="Wolfgang W. Wasserburger"/>
  </way>
  <way id="29477907" version="7" timestamp="2011-07-26T15:36:34Z" uid="491845" user="data_at" changeset="8836923">
    <nd ref="1248593214"/>
    <nd ref="1248593250"/>
    <nd ref="1248593244"/>
    <nd ref="1248593238"/>
    <nd ref="1248593234"/>
    <nd ref="1248593261"/>
    <nd ref="1248593247"/>
    <nd ref="1248593241"/>
    <nd ref="324913776"/>
    <nd ref="324913777"/>
    <nd ref="324913778"/>
    <nd ref="324913780"/>
    <nd ref="324913781"/>
    <nd ref="324913782"/>
    <nd ref="324913783"/>
    <nd ref="348477544"/>
    <tag k="highway" v="residential"/>
    <tag k="is_in" v="Hörbranz,Bezirk Bregenz,Vorarlberg,Österreich,Europa"/>
    <tag k="name" v="Maihofstraße"/>
    <tag k="source" v="GPS"/>
  </way>
  <way id="29477907" version="8" timestamp="2011-07-26T18:37:00Z" uid="45347" user="eriosw" changeset="8838568">
    <nd ref="1248593214"/>
    <nd ref="1248593250"/>
    <nd ref="1248593244"/>
    <nd ref="1248593238"/>
    <nd ref="1248593234"/>
    <nd ref="1248593261"/>
    <nd ref="1248593247"/>
    <nd ref="1248593241"/>
    <nd ref="324913776"/>
    <nd ref="324913777"/>
    <nd ref="324913778"/>
    <nd ref="324913780"/>
    <nd ref="324913781"/>
    <nd ref="324913782"/>
    <nd ref="324913783"/>
    <nd ref="348477544"/>
    <tag k="highway" v="residential"/>
    <tag k="is_in" v="Hörbranz,Bregenz,Vorarlberg,Österreich,Europe"/>
    <tag k="name" v="Maihofstraße"/>
    <tag k="source" v="GPS"/>
  </way>
  <way id="29477907" version="9" timestamp="2011-10-17T17:20:57Z" uid="11374" user="q_un_go" changeset="9584043">
    <nd ref="1248593214"/>
    <nd ref="1248593250"/>
    <nd ref="1248593244"/>
    <nd ref="1248593238"/>
    <nd ref="1248593234"/>
    <nd ref="1248593261"/>
    <nd ref="1248593247"/>
    <nd ref="1248593241"/>
    <nd ref="324913776"/>
    <nd ref="1470922477"/>
    <nd ref="324913777"/>
    <nd ref="1470922481"/>
    <nd ref="324913778"/>
    <nd ref="1470922491"/>
    <nd ref="324913780"/>
    <nd ref="324913781"/>
    <nd ref="1470922495"/>
    <nd ref="324913782"/>
    <nd ref="324913783"/>
    <nd ref="348477544"/>
    <tag k="highway" v="residential"/>
    <tag k="is_in" v="Hörbranz,Bregenz,Vorarlberg,Österreich,Europe"/>
    <tag k="name" v="Maihofstraße"/>
    <tag k="source" v="GPS"/>
  </way>
  <way id="29477915" version="5" timestamp="2009-10-08T23:06:45Z" uid="179968" user="Ich_hasse_doitsche_OSM-Korinthenkacker" changeset="2788677">
    <nd ref="324913910"/>
    <nd ref="269616760"/>
    <nd ref="324913911"/>
    <nd ref="269616761"/>
    <nd ref="324913913"/>
    <nd ref="324913914"/>
    <nd ref="348495573"/>
    <tag k="addr:postcode" v="6911"/>
    <tag k="at:maxspeed" v="Ortsgebiet"/>
    <tag k="fixme" v="check import"/>
    <tag k="highway" v="residential"/>
    <tag k="is_in" v="Lochau,Bezirk Bregenz,Vorarlberg,Österreich,Europa"/>
    <tag k="name" v="Burggräfler Straße"/>
    <tag k="note" v="imported from plan.at; (C)=CC-by-sa or oDBL; feel free to change if necessary"/>
    <tag k="plan_at:acad_id" v="b#61E"/>
    <tag k="source" v="plan.at 2009"/>
    <tag k="uploaded_by" v="Wolfgang W. Wasserburger"/>
  </way>
  <way id="29477915" version="6" timestamp="2010-11-13T00:00:38Z" uid="12178" user="edwin-ldbg" changeset="6355253">
    <nd ref="987151673"/>
    <nd ref="324913910"/>
    <nd ref="269616760"/>
    <nd ref="324913911"/>
    <nd ref="987151650"/>
    <nd ref="269616761"/>
    <nd ref="324913913"/>
    <nd ref="324913914"/>
    <nd ref="348495573"/>
    <tag k="addr:postcode" v="6911"/>
    <tag k="at:maxspeed" v="Ortsgebiet"/>
    <tag k="highway" v="residential"/>
    <tag k="is_in" v="Lochau,Bezirk Bregenz,Vorarlberg,Österreich,Europa"/>
    <tag k="name" v="Burggräfler Straße"/>
    <tag k="note" v="imported from plan.at; (C)=CC-by-sa or oDBL; feel free to change if necessary"/>
    <tag k="plan_at:acad_id" v="b#61E"/>
    <tag k="source" v="plan.at 2009"/>
    <tag k="uploaded_by" v="Wolfgang W. Wasserburger"/>
  </way>
  <way id="29477915" version="7" timestamp="2011-07-26T15:29:30Z" uid="491845" user="data_at" changeset="8836923">
    <nd ref="987151673"/>
    <nd ref="324913910"/>
    <nd ref="269616760"/>
    <nd ref="324913911"/>
    <nd ref="987151650"/>
    <nd ref="269616761"/>
    <nd ref="324913913"/>
    <nd ref="324913914"/>
    <nd ref="348495573"/>
    <tag k="highway" v="residential"/>
    <tag k="is_in" v="Lochau,Bezirk Bregenz,Vorarlberg,Österreich,Europa"/>
    <tag k="name" v="Burggräfler Straße"/>
    <tag k="source" v="plan.at 2009"/>
  </way>
  <way id="29477915" version="8" timestamp="2011-07-26T18:36:44Z" uid="45347" user="eriosw" changeset="8838568">
    <nd ref="987151673"/>
    <nd ref="324913910"/>
    <nd ref="269616760"/>
    <nd ref="324913911"/>
    <nd ref="987151650"/>
    <nd ref="269616761"/>
    <nd ref="324913913"/>
    <nd ref="324913914"/>
    <nd ref="348495573"/>
    <tag k="highway" v="residential"/>
    <tag k="is_in" v="Lochau,Bregenz,Vorarlberg,Österreich,Europe"/>
    <tag k="name" v="Burggräfler Straße"/>
    <tag k="source" v="plan.at 2009"/>
  </way>
  <way id="29477915" version="9" timestamp="2011-09-23T19:22:07Z" uid="12178" user="edwin-ldbg" changeset="9379243">
    <nd ref="987151673"/>
    <nd ref="324913910"/>
    <nd ref="269616760"/>
    <nd ref="324913911"/>
    <nd ref="1443396019"/>
    <nd ref="987151650"/>
    <nd ref="269616761"/>
    <nd ref="324913913"/>
    <nd ref="324913914"/>
    <nd ref="348495573"/>
    <tag k="highway" v="residential"/>
    <tag k="is_in" v="Lochau,Bregenz,Vorarlberg,Österreich,Europe"/>
    <tag k="name" v="Burggräfler Straße"/>
    <tag k="source" v="plan.at 2009"/>
  </way>
  <way id="29477915" version="10" timestamp="2012-02-16T13:46:20Z" uid="604182" user="Lunix1983" changeset="10701804">
    <nd ref="987151673"/>
    <nd ref="324913910"/>
    <nd ref="269616760"/>
    <nd ref="324913911"/>
    <nd ref="1443396019"/>
    <nd ref="987151650"/>
    <nd ref="1635229856"/>
    <nd ref="269616761"/>
    <nd ref="324913913"/>
    <nd ref="324913914"/>
    <nd ref="348495573"/>
    <tag k="highway" v="residential"/>
    <tag k="is_in" v="Lochau,Bregenz,Vorarlberg,Österreich,Europe"/>
    <tag k="name" v="Burggräfler Straße"/>
    <tag k="source" v="plan.at 2009"/>
  </way>
  <way id="29477917" version="5" timestamp="2009-10-08T23:06:46Z" uid="179968" user="Ich_hasse_doitsche_OSM-Korinthenkacker" changeset="2788677">
    <nd ref="324913904"/>
    <nd ref="324913924"/>
    <nd ref="324913925"/>
    <nd ref="324913926"/>
    <nd ref="429308878"/>
    <nd ref="324913976"/>
    <nd ref="429308879"/>
    <nd ref="324913929"/>
    <nd ref="324913930"/>
    <tag k="addr:postcode" v="6911"/>
    <tag k="at:maxspeed" v="Ortsgebiet"/>
    <tag k="fixme" v="check import"/>
    <tag k="highway" v="living_street"/>
    <tag k="is_in" v="Lochau,Bezirk Bregenz,Vorarlberg,Österreich,Europa"/>
    <tag k="name" v="Gartenstraße"/>
    <tag k="note" v="imported from plan.at; (C)=CC-by-sa or oDBL; feel free to change if necessary"/>
    <tag k="plan_at:acad_id" v="b#618"/>
    <tag k="source" v="plan.at 2009"/>
    <tag k="uploaded_by" v="Wolfgang W. Wasserburger"/>
  </way>
  <way id="29477917" version="6" timestamp="2009-11-15T20:54:06Z" uid="194982" user="Peter Johann" changeset="3126850">
    <nd ref="324913904"/>
    <nd ref="324913924"/>
    <nd ref="324913925"/>
    <nd ref="324913926"/>
    <nd ref="429308878"/>
    <nd ref="324913976"/>
    <nd ref="429308879"/>
    <nd ref="324913929"/>
    <nd ref="324913930"/>
    <nd ref="564999469"/>
    <nd ref="255948483"/>
    <nd ref="564999469"/>
    <nd ref="324913930"/>
    <nd ref="564999469"/>
    <nd ref="255948483"/>
    <nd ref="324913930"/>
    <nd ref="269616761"/>
    <tag k="addr:postcode" v="6911"/>
    <tag k="at:maxspeed" v="Ortsgebiet"/>
    <tag k="fixme" v="check import"/>
    <tag k="highway" v="living_street; residential"/>
    <tag k="is_in" v="Lochau,Bezirk Bregenz,Vorarlberg,Österreich,Europa"/>
    <tag k="name" v="Gartenstraße; Laurinweg"/>
    <tag k="note" v="imported from plan.at; (C)=CC-by-sa or oDBL; feel free to change if necessary"/>
    <tag k="plan_at:acad_id" v="b#618; b#600"/>
    <tag k="source" v="plan.at 2009"/>
    <tag k="uploaded_by" v="Wolfgang W. Wasserburger"/>
  </way>
  <way id="29477917" version="7" timestamp="2009-11-15T20:56:00Z" uid="194982" user="Peter Johann" changeset="3126850">
    <nd ref="324913926"/>
    <nd ref="324913904"/>
    <nd ref="324913924"/>
    <nd ref="324913925"/>
    <nd ref="324913926"/>
    <nd ref="429308878"/>
    <nd ref="324913976"/>
    <nd ref="429308879"/>
    <nd ref="324913929"/>
    <nd ref="324913930"/>
    <nd ref="564999469"/>
    <nd ref="255948483"/>
    <nd ref="564999469"/>
    <nd ref="324913930"/>
    <nd ref="564999469"/>
    <nd ref="255948483"/>
    <nd ref="324913930"/>
    <nd ref="269616761"/>
    <tag k="addr:postcode" v="6911"/>
    <tag k="at:maxspeed" v="Ortsgebiet"/>
    <tag k="fixme" v="check import"/>
    <tag k="highway" v="living_street; residential"/>
    <tag k="is_in" v="Lochau,Bezirk Bregenz,Vorarlberg,Österreich,Europa"/>
    <tag k="name" v="Gartenstraße; Laurinweg"/>
    <tag k="note" v="imported from plan.at; (C)=CC-by-sa or oDBL; feel free to change if necessary"/>
    <tag k="plan_at:acad_id" v="b#618; b#600"/>
    <tag k="source" v="plan.at 2009"/>
    <tag k="uploaded_by" v="Wolfgang W. Wasserburger"/>
  </way>
  <way id="29477917" version="8" timestamp="2009-11-15T20:56:30Z" uid="194982" user="Peter Johann" changeset="3126850">
    <nd ref="324913926"/>
    <nd ref="324913904"/>
    <nd ref="324913924"/>
    <nd ref="324913925"/>
    <nd ref="324913926"/>
    <nd ref="429308878"/>
    <nd ref="324913976"/>
    <nd ref="429308879"/>
    <nd ref="324913929"/>
    <nd ref="324913930"/>
    <nd ref="564999469"/>
    <nd ref="255948483"/>
    <nd ref="564999469"/>
    <nd ref="324913930"/>
    <nd ref="564999469"/>
    <nd ref="255948483"/>
    <nd ref="324913930"/>
    <nd ref="269616761"/>
    <tag k="addr:postcode" v="6911"/>
    <tag k="at:maxspeed" v="Ortsgebiet"/>
    <tag k="fixme" v="check import"/>
    <tag k="highway" v="secondary"/>
    <tag k="is_in" v="Lochau,Bezirk Bregenz,Vorarlberg,Österreich,Europa"/>
    <tag k="name" v="Gartenstraße; Laurinweg"/>
    <tag k="note" v="imported from plan.at; (C)=CC-by-sa or oDBL; feel free to change if necessary"/>
    <tag k="plan_at:acad_id" v="b#618; b#600"/>
    <tag k="source" v="plan.at 2009"/>
    <tag k="uploaded_by" v="Wolfgang W. Wasserburger"/>
  </way>
  <way id="29477917" version="9" timestamp="2009-11-15T20:57:09Z" uid="194982" user="Peter Johann" changeset="3126850">
    <nd ref="324913926"/>
    <nd ref="565002327"/>
    <nd ref="324913904"/>
    <nd ref="324913924"/>
    <nd ref="324913925"/>
    <nd ref="324913926"/>
    <nd ref="429308878"/>
    <nd ref="324913976"/>
    <nd ref="429308879"/>
    <nd ref="324913929"/>
    <nd ref="324913930"/>
    <nd ref="564999469"/>
    <nd ref="255948483"/>
    <nd ref="564999469"/>
    <nd ref="324913930"/>
    <nd ref="564999469"/>
    <nd ref="255948483"/>
    <nd ref="324913930"/>
    <nd ref="269616761"/>
    <tag k="addr:postcode" v="6911"/>
    <tag k="at:maxspeed" v="Ortsgebiet"/>
    <tag k="fixme" v="check import"/>
    <tag k="highway" v="secondary"/>
    <tag k="is_in" v="Lochau,Bezirk Bregenz,Vorarlberg,Österreich,Europa"/>
    <tag k="name" v="Gartenstraße; Laurinweg"/>
    <tag k="note" v="imported from plan.at; (C)=CC-by-sa or oDBL; feel free to change if necessary"/>
    <tag k="plan_at:acad_id" v="b#618; b#600"/>
    <tag k="source" v="plan.at 2009"/>
    <tag k="uploaded_by" v="Wolfgang W. Wasserburger"/>
  </way>
  <way id="29477917" version="10" timestamp="2009-11-15T20:57:59Z" uid="194982" user="Peter Johann" changeset="3126939">
    <nd ref="324913926"/>
    <nd ref="565002327"/>
    <nd ref="324913904"/>
    <nd ref="324913924"/>
    <nd ref="324913925"/>
    <nd ref="324913926"/>
    <nd ref="429308878"/>
    <nd ref="324913976"/>
    <nd ref="429308879"/>
    <nd ref="324913929"/>
    <nd ref="324913930"/>
    <nd ref="564999469"/>
    <nd ref="255948483"/>
    <nd ref="564999469"/>
    <nd ref="324913930"/>
    <nd ref="564999469"/>
    <nd ref="255948483"/>
    <nd ref="324913930"/>
    <nd ref="269616761"/>
    <tag k="addr:postcode" v="6911"/>
    <tag k="at:maxspeed" v="Ortsgebiet"/>
    <tag k="fixme" v="check import"/>
    <tag k="highway" v="residential"/>
    <tag k="is_in" v="Lochau,Bezirk Bregenz,Vorarlberg,Österreich,Europa"/>
    <tag k="name" v="Gartenstraße; Laurinweg"/>
    <tag k="note" v="imported from plan.at; (C)=CC-by-sa or oDBL; feel free to change if necessary"/>
    <tag k="plan_at:acad_id" v="b#618; b#600"/>
    <tag k="source" v="plan.at 2009"/>
    <tag k="uploaded_by" v="Wolfgang W. Wasserburger"/>
  </way>
  <way id="29477917" version="11" timestamp="2009-11-20T03:07:33Z" uid="56501" user="Rudolf_H" changeset="3165681"/>
  <way id="29477923" version="5" timestamp="2009-10-08T23:06:35Z" uid="179968" user="Ich_hasse_doitsche_OSM-Korinthenkacker" changeset="2788677">
    <nd ref="324913960"/>
    <nd ref="269616756"/>
    <tag k="addr:postcode" v="6911"/>
    <tag k="at:maxspeed" v="Ortsgebiet"/>
    <tag k="fixme" v="check import"/>
    <tag k="highway" v="residential"/>
    <tag k="is_in" v="Lochau,Bezirk Bregenz,Vorarlberg,Österreich,Europa"/>
    <tag k="name" v="Dr. Josef Fessler Straße"/>
    <tag k="plan_at:acad_id" v="b#606"/>
    <tag k="source" v="plan.at 2009"/>
    <tag k="uploaded_by" v="Wolfgang W. Wasserburger"/>
  </way>
  <way id="29477923" version="6" timestamp="2011-07-21T04:04:59Z" uid="491845" user="data_at" changeset="8784774">
    <nd ref="324913960"/>
    <nd ref="269616756"/>
    <tag k="fixme" v="check import"/>
    <tag k="highway" v="residential"/>
    <tag k="is_in" v="Lochau,Bezirk Bregenz,Vorarlberg,Österreich,Europa"/>
    <tag k="name" v="Dr. Josef Fessler Straße"/>
    <tag k="source" v="plan.at 2009"/>
  </way>
  <way id="29477923" version="7" timestamp="2011-07-26T18:36:46Z" uid="45347" user="eriosw" changeset="8838568">
    <nd ref="324913960"/>
    <nd ref="269616756"/>
    <tag k="fixme" v="check import"/>
    <tag k="highway" v="residential"/>
    <tag k="is_in" v="Lochau,Bregenz,Vorarlberg,Österreich,Europe"/>
    <tag k="name" v="Dr. Josef Fessler Straße"/>
    <tag k="source" v="plan.at 2009"/>
  </way>
  <way id="29477924" version="5" timestamp="2009-10-08T23:06:37Z" uid="179968" user="Ich_hasse_doitsche_OSM-Korinthenkacker" changeset="2788677">
    <nd ref="324913925"/>
    <nd ref="348480053"/>
    <tag k="access" v="private"/>
    <tag k="addr:postcode" v="6911"/>
    <tag k="at:maxspeed" v="Ortsgebiet"/>
    <tag k="highway" v="residential"/>
    <tag k="is_in" v="Lochau,Bezirk Bregenz,Vorarlberg,Österreich,Europa"/>
    <tag k="name" v="Seilerstraße"/>
  </way>
  <way id="29477924" version="6" timestamp="2011-07-26T15:41:14Z" uid="491845" user="data_at" changeset="8836923">
    <nd ref="324913925"/>
    <nd ref="348480053"/>
    <tag k="access" v="private"/>
    <tag k="highway" v="residential"/>
    <tag k="is_in" v="Lochau,Bezirk Bregenz,Vorarlberg,Österreich,Europa"/>
    <tag k="name" v="Seilerstraße"/>
  </way>
  <way id="29477924" version="7" timestamp="2011-07-26T18:37:07Z" uid="45347" user="eriosw" changeset="8838568">
    <nd ref="324913925"/>
    <nd ref="348480053"/>
    <tag k="access" v="private"/>
    <tag k="highway" v="residential"/>
    <tag k="is_in" v="Lochau,Bregenz,Vorarlberg,Österreich,Europe"/>
    <tag k="name" v="Seilerstraße"/>
  </way>
  <way id="29477927" version="6" timestamp="2009-10-08T23:06:36Z" uid="179968" user="Ich_hasse_doitsche_OSM-Korinthenkacker" changeset="2788677">
    <nd ref="348481479"/>
    <nd ref="324913975"/>
    <nd ref="429308879"/>
    <tag k="addr:postcode" v="6911"/>
    <tag k="at:maxspeed" v="Ortsgebiet"/>
    <tag k="highway" v="living_street"/>
    <tag k="is_in" v="Lochau,Bezirk Bregenz,Vorarlberg,Österreich,Europa"/>
    <tag k="name" v="Südtiroler Straße"/>
  </way>
  <way id="29477927" version="7" timestamp="2011-07-26T15:44:26Z" uid="491845" user="data_at" changeset="8836923">
    <nd ref="348481479"/>
    <nd ref="324913975"/>
    <nd ref="429308879"/>
    <tag k="highway" v="living_street"/>
    <tag k="is_in" v="Lochau,Bezirk Bregenz,Vorarlberg,Österreich,Europa"/>
    <tag k="name" v="Südtiroler Straße"/>
  </way>
  <way id="29477927" version="8" timestamp="2011-07-26T18:37:11Z" uid="45347" user="eriosw" changeset="8838568">
    <nd ref="348481479"/>
    <nd ref="324913975"/>
    <nd ref="429308879"/>
    <tag k="highway" v="living_street"/>
    <tag k="is_in" v="Lochau,Bregenz,Vorarlberg,Österreich,Europe"/>
    <tag k="name" v="Südtiroler Straße"/>
  </way>
  <way id="29477935" version="4" timestamp="2009-10-08T23:06:39Z" uid="179968" user="Ich_hasse_doitsche_OSM-Korinthenkacker" changeset="2788677">
    <nd ref="324912561"/>
    <nd ref="324914089"/>
    <nd ref="324914090"/>
    <nd ref="324914091"/>
    <nd ref="324914092"/>
    <nd ref="289558254"/>
    <tag k="addr:postcode" v="6912"/>
    <tag k="at:maxspeed" v="Ortsgebiet"/>
    <tag k="fixme" v="check import"/>
    <tag k="highway" v="residential"/>
    <tag k="is_in" v="...,Bezirk Bregenz,Vorarlberg,Österreich,Europa"/>
    <tag k="name" v="Leiblachstraße"/>
    <tag k="note" v="imported from plan.at; (C)=CC-by-sa or oDBL; feel free to change if necessary"/>
    <tag k="plan_at:acad_id" v="b#5E2"/>
    <tag k="source" v="plan.at 2009"/>
    <tag k="uploaded_by" v="Wolfgang W. Wasserburger"/>
  </way>
  <way id="29477935" version="5" timestamp="2011-07-21T04:12:44Z" uid="491845" user="data_at" changeset="8784794">
    <nd ref="324912561"/>
    <nd ref="324914089"/>
    <nd ref="324914090"/>
    <nd ref="324914091"/>
    <nd ref="324914092"/>
    <nd ref="289558254"/>
    <tag k="fixme" v="check import"/>
    <tag k="highway" v="residential"/>
    <tag k="is_in" v="...,Bezirk Bregenz,Vorarlberg,Österreich,Europa"/>
    <tag k="name" v="Leiblachstraße"/>
    <tag k="source" v="plan.at 2009"/>
  </way>
  <way id="29477935" version="6" timestamp="2011-07-26T18:36:58Z" uid="45347" user="eriosw" changeset="8838568">
    <nd ref="324912561"/>
    <nd ref="324914089"/>
    <nd ref="324914090"/>
    <nd ref="324914091"/>
    <nd ref="324914092"/>
    <nd ref="289558254"/>
    <tag k="fixme" v="check import"/>
    <tag k="highway" v="residential"/>
    <tag k="is_in" v="Hörbranz,Bregenz,Vorarlberg,Österreich,Europe"/>
    <tag k="name" v="Leiblachstraße"/>
    <tag k="source" v="plan.at 2009"/>
  </way>
  <way id="29477935" version="7" timestamp="2011-10-17T17:20:57Z" uid="11374" user="q_un_go" changeset="9584043">
    <nd ref="324912561"/>
    <nd ref="1470922630"/>
    <nd ref="324914089"/>
    <nd ref="324914090"/>
    <nd ref="324914091"/>
    <nd ref="324914092"/>
    <nd ref="289558254"/>
    <tag k="fixme" v="check import"/>
    <tag k="highway" v="residential"/>
    <tag k="is_in" v="Hörbranz,Bregenz,Vorarlberg,Österreich,Europe"/>
    <tag k="name" v="Leiblachstraße"/>
    <tag k="source" v="plan.at 2009"/>
  </way>
  <way id="29477986" version="3" timestamp="2009-10-08T23:06:47Z" uid="179968" user="Ich_hasse_doitsche_OSM-Korinthenkacker" changeset="2788677">
    <nd ref="294774058"/>
    <nd ref="324914481"/>
    <nd ref="324914482"/>
    <nd ref="324914483"/>
    <nd ref="324912559"/>
    <tag k="addr:postcode" v="6912"/>
    <tag k="at:maxspeed" v="Ortsgebiet"/>
    <tag k="fixme" v="check import"/>
    <tag k="highway" v="residential"/>
    <tag k="is_in" v="...,Bezirk Bregenz,Vorarlberg,Österreich,Europa"/>
    <tag k="name" v="Hörbranz"/>
    <tag k="note" v="imported from plan.at; (C)=CC-by-sa or oDBL; feel free to change if necessary"/>
    <tag k="plan_at:acad_id" v="b#561"/>
    <tag k="source" v="plan.at 2009"/>
    <tag k="uploaded_by" v="Wolfgang W. Wasserburger"/>
  </way>
  <way id="29477986" version="4" timestamp="2010-06-27T18:33:16Z" uid="123355" user="AE_LOCHAU" changeset="5091830">
    <nd ref="294774058"/>
    <nd ref="793266190"/>
    <tag k="addr:postcode" v="6912"/>
    <tag k="at:maxspeed" v="Ortsgebiet"/>
    <tag k="fixme" v="check import"/>
    <tag k="highway" v="residential"/>
    <tag k="is_in" v="...,Bezirk Bregenz,Vorarlberg,Österreich,Europa"/>
    <tag k="name" v="Hörbranz"/>
    <tag k="note" v="imported from plan.at; (C)=CC-by-sa or oDBL; feel free to change if necessary"/>
    <tag k="plan_at:acad_id" v="b#561"/>
    <tag k="source" v="plan.at 2009"/>
    <tag k="uploaded_by" v="Wolfgang W. Wasserburger"/>
  </way>
  <way id="29477986" version="5" timestamp="2010-11-04T17:16:56Z" uid="12178" user="edwin-ldbg" changeset="6290008">
    <nd ref="294774058"/>
    <nd ref="793266190"/>
    <tag k="addr:postcode" v="6912"/>
    <tag k="at:maxspeed" v="Ortsgebiet"/>
    <tag k="highway" v="residential"/>
    <tag k="is_in" v="...,Bezirk Bregenz,Vorarlberg,Österreich,Europa"/>
    <tag k="name" v="Hörbranz"/>
    <tag k="note" v="imported from plan.at; (C)=CC-by-sa or oDBL; feel free to change if necessary"/>
    <tag k="plan_at:acad_id" v="b#561"/>
    <tag k="source" v="plan.at 2009"/>
    <tag k="uploaded_by" v="Wolfgang W. Wasserburger"/>
  </way>
  <way id="29477986" version="6" timestamp="2011-07-26T15:33:54Z" uid="491845" user="data_at" changeset="8836923">
    <nd ref="294774058"/>
    <nd ref="793266190"/>
    <tag k="highway" v="residential"/>
    <tag k="is_in" v="...,Bezirk Bregenz,Vorarlberg,Österreich,Europa"/>
    <tag k="name" v="Hörbranz"/>
    <tag k="source" v="plan.at 2009"/>
  </way>
  <way id="29477986" version="7" timestamp="2011-07-26T18:36:55Z" uid="45347" user="eriosw" changeset="8838568">
    <nd ref="294774058"/>
    <nd ref="793266190"/>
    <tag k="highway" v="residential"/>
    <tag k="is_in" v="Hörbranz,Bregenz,Vorarlberg,Österreich,Europe"/>
    <tag k="name" v="Hörbranz"/>
    <tag k="source" v="plan.at 2009"/>
  </way>
  <way id="29477994" version="4" timestamp="2009-10-08T23:06:48Z" uid="179968" user="Ich_hasse_doitsche_OSM-Korinthenkacker" changeset="2788677">
    <nd ref="324914509"/>
    <nd ref="365785124"/>
    <nd ref="365785123"/>
    <tag k="addr:postcode" v="6912"/>
    <tag k="at:maxspeed" v="Ortsgebiet"/>
    <tag k="fixme" v="check import"/>
    <tag k="highway" v="residential"/>
    <tag k="is_in" v="...,Bezirk Bregenz,Vorarlberg,Österreich,Europa"/>
    <tag k="name" v="Hörbranz"/>
    <tag k="note" v="imported from plan.at; (C)=CC-by-sa or oDBL; feel free to change if necessary"/>
    <tag k="plan_at:acad_id" v="b#546"/>
    <tag k="source" v="plan.at 2009"/>
    <tag k="uploaded_by" v="Wolfgang W. Wasserburger"/>
  </way>
  <way id="29477994" version="5" timestamp="2011-07-21T04:06:34Z" uid="491845" user="data_at" changeset="8784774">
    <nd ref="324914509"/>
    <nd ref="365785124"/>
    <nd ref="365785123"/>
    <tag k="fixme" v="check import"/>
    <tag k="highway" v="residential"/>
    <tag k="is_in" v="...,Bezirk Bregenz,Vorarlberg,Österreich,Europa"/>
    <tag k="name" v="Hörbranz"/>
    <tag k="source" v="plan.at 2009"/>
  </way>
  <way id="29477994" version="6" timestamp="2011-07-26T18:36:55Z" uid="45347" user="eriosw" changeset="8838568">
    <nd ref="324914509"/>
    <nd ref="365785124"/>
    <nd ref="365785123"/>
    <tag k="fixme" v="check import"/>
    <tag k="highway" v="residential"/>
    <tag k="is_in" v="Hörbranz,Bregenz,Vorarlberg,Österreich,Europe"/>
    <tag k="name" v="Hörbranz"/>
    <tag k="source" v="plan.at 2009"/>
  </way>
</osm>
