<?xml version='1.0' encoding='UTF-8'?>
<osm version="0.6" generator="libosmium/2.20.0">
  <way id="29550011" version="1" timestamp="2009-01-04T12:21:25Z" uid="6269" user="Mueck" changeset="728840">
    <nd ref="325686647"/>
    <nd ref="325685483"/>
    <tag k="created_by" v="Potlatch 0.10f"/>
    <tag k="highway" v="track"/>
    <tag k="name" v="FIXME"/>
    <tag k="source" v="DOP_LVA_BY_01"/>
  </way>
  <way id="29550011" version="3" timestamp="2012-01-07T23:02:11Z" uid="479256" user="geodreieck4711" changeset="10326762">
    <nd ref="325686647"/>
    <nd ref="325685483"/>
    <tag k="highway" v="track"/>
    <tag k="source" v="DOP_LVA_BY_01"/>
    <tag k="tracktype" v="grade4"/>
  </way>
  <way id="29550011" version="4" timestamp="2012-02-20T18:48:17Z" uid="479256" user="geodreieck4711" changeset="10743549"/>
  <way id="29550033" version="2" timestamp="2009-02-01T19:49:38Z" uid="6975" user="ulfl" changeset="27333">
    <nd ref="325686934"/>
    <nd ref="45524647"/>
    <tag k="AND:importance_level" v="4"/>
    <tag k="AND_nosr_r" v="15153259"/>
    <tag k="bridge" v="yes"/>
    <tag k="highway" v="tertiary"/>
    <tag k="layer" v="1"/>
    <tag k="name" v="Langegracht"/>
  </way>
  <way id="29550033" version="3" timestamp="2009-06-08T16:28:26Z" uid="8259" user="Myckel" changeset="1460375">
    <nd ref="325686934"/>
    <nd ref="45524647"/>
    <tag k="AND:importance_level" v="4"/>
    <tag k="AND_nosr_r" v="15153259"/>
    <tag k="bridge" v="yes"/>
    <tag k="cycleway" v="lane"/>
    <tag k="highway" v="tertiary"/>
    <tag k="layer" v="1"/>
    <tag k="name" v="Langegracht"/>
  </way>
  <way id="29550033" version="4" timestamp="2010-12-02T12:55:15Z" uid="9942" user="bz2" changeset="6514326">
    <nd ref="325686934"/>
    <nd ref="45524647"/>
    <tag k="AND:importance_level" v="4"/>
    <tag k="AND_nosr_r" v="15153259"/>
    <tag k="bridge" v="yes"/>
    <tag k="cycleway" v="lane"/>
    <tag k="highway" v="tertiary"/>
    <tag k="layer" v="1"/>
    <tag k="maxspeed" v="50"/>
    <tag k="name" v="Langegracht"/>
  </way>
  <way id="29550038" version="1" timestamp="2009-01-04T12:22:14Z" uid="6269" user="Mueck" changeset="728840">
    <nd ref="325686971"/>
    <nd ref="325686972"/>
    <nd ref="325686973"/>
    <nd ref="325686975"/>
    <nd ref="325686976"/>
    <nd ref="325686977"/>
    <nd ref="325686978"/>
    <nd ref="325686979"/>
    <nd ref="325686980"/>
    <nd ref="325686971"/>
    <tag k="area" v="yes"/>
    <tag k="created_by" v="Potlatch 0.10f"/>
    <tag k="landuse" v="residential"/>
    <tag k="source" v="DOP_LVA_BY_01"/>
  </way>
  <way id="29550038" version="3" timestamp="2012-01-07T23:02:16Z" uid="479256" user="geodreieck4711" changeset="10326762">
    <nd ref="325686971"/>
    <nd ref="325686972"/>
    <nd ref="325686973"/>
    <nd ref="325686975"/>
    <nd ref="325686976"/>
    <nd ref="325686977"/>
    <nd ref="325686978"/>
    <nd ref="325686979"/>
    <nd ref="325686980"/>
    <nd ref="325686971"/>
    <tag k="area" v="yes"/>
    <tag k="landuse" v="residential"/>
    <tag k="name" v="Ziegelhütte"/>
    <tag k="source" v="DOP_LVA_BY_01"/>
  </way>
  <way id="29550038" version="4" timestamp="2012-01-17T21:06:51Z" uid="479256" user="geodreieck4711" changeset="10422169"/>
  <way id="29550053" version="1" timestamp="2009-01-04T12:22:56Z" uid="6269" user="Mueck" changeset="728840">
    <nd ref="325687151"/>
    <nd ref="325687152"/>
    <nd ref="325687153"/>
    <nd ref="318372433"/>
    <tag k="created_by" v="Potlatch 0.10f"/>
    <tag k="highway" v="road"/>
    <tag k="source" v="DOP_LVA_BY_01"/>
  </way>
  <way id="29550053" version="2" timestamp="2009-01-04T12:23:05Z" uid="6269" user="Mueck" changeset="728840">
    <nd ref="325687151"/>
    <nd ref="325687152"/>
    <nd ref="325687153"/>
    <nd ref="318372433"/>
    <tag k="created_by" v="Potlatch 0.10f"/>
    <tag k="highway" v="road"/>
    <tag k="name" v="FIXME"/>
    <tag k="source" v="DOP_LVA_BY_01"/>
  </way>
  <way id="29550053" version="4" timestamp="2012-01-07T23:02:12Z" uid="479256" user="geodreieck4711" changeset="10326762">
    <nd ref="325687151"/>
    <nd ref="325687152"/>
    <nd ref="325687153"/>
    <nd ref="318372433"/>
    <tag k="highway" v="track"/>
    <tag k="source" v="DOP_LVA_BY_01"/>
    <tag k="tracktype" v="grade4"/>
  </way>
  <way id="29550053" version="5" timestamp="2012-01-17T21:57:46Z" uid="479256" user="geodreieck4711" changeset="10422736"/>
  <way id="29550069" version="2" timestamp="2009-08-04T12:47:11Z" uid="4467" user="Rosscoe" changeset="2035463">
    <nd ref="325681370"/>
    <nd ref="325079219"/>
    <nd ref="325079220"/>
    <nd ref="325079221"/>
    <tag k="highway" v="service"/>
  </way>
  <way id="29550069" version="3" timestamp="2011-09-27T13:36:08Z" uid="119007" user="imroy" changeset="9410734">
    <nd ref="325681370"/>
    <nd ref="1446980469"/>
    <nd ref="325079219"/>
    <nd ref="325079220"/>
    <nd ref="325079221"/>
    <tag k="highway" v="service"/>
  </way>
  <way id="29550079" version="2" timestamp="2009-12-09T02:41:00Z" uid="200463" user="harmagedon" changeset="3330572">
    <nd ref="325227611"/>
    <nd ref="325227614"/>
    <nd ref="325227617"/>
    <nd ref="325227619"/>
    <nd ref="325221078"/>
    <nd ref="325227621"/>
    <nd ref="325227623"/>
    <nd ref="325227625"/>
    <nd ref="325227627"/>
    <nd ref="325225080"/>
    <tag k="addr:postcode" v="4150"/>
    <tag k="at:maxspeed" v="Ortsgebiet"/>
    <tag k="highway" v="residential"/>
    <tag k="is_in" v="...,Bezirk Rohrbach,Oberösterreich,Österreich,Europa"/>
    <tag k="name" v="Stifterstraße"/>
    <tag k="note" v="imported from plan.at; (C)=CC-by-sa or oDBL; feel free to change if necessary"/>
    <tag k="plan_at:acad_id" v="ro13F"/>
    <tag k="source" v="plan.at 2009"/>
  </way>
  <way id="29550079" version="3" timestamp="2010-09-04T21:19:43Z" uid="65631" user="Dominik Hurnaus" changeset="5682781">
    <nd ref="325227611"/>
    <nd ref="325227614"/>
    <nd ref="325227617"/>
    <nd ref="325227619"/>
    <nd ref="325221078"/>
    <nd ref="325227621"/>
    <nd ref="325227623"/>
    <nd ref="325227625"/>
    <nd ref="325227627"/>
    <nd ref="325225080"/>
    <tag k="addr:postcode" v="4150"/>
    <tag k="highway" v="residential"/>
    <tag k="is_in" v="...,Bezirk Rohrbach,Oberösterreich,Österreich,Europa"/>
    <tag k="name" v="Stifterstraße"/>
    <tag k="source" v="plan.at 2009"/>
  </way>
  <way id="29550079" version="4" timestamp="2011-01-08T13:35:05Z" uid="45347" user="eriosw" changeset="6903678">
    <nd ref="325227611"/>
    <nd ref="325227614"/>
    <nd ref="325227617"/>
    <nd ref="325227619"/>
    <nd ref="325221078"/>
    <nd ref="325227621"/>
    <nd ref="325227623"/>
    <nd ref="325227625"/>
    <nd ref="325227627"/>
    <nd ref="325225080"/>
    <tag k="addr:postcode" v="4150"/>
    <tag k="highway" v="residential"/>
    <tag k="is_in" v="Berg bei Rohrbach,Rohrbach,Oberösterreich,Österreich,Europe"/>
    <tag k="name" v="Stifterstraße"/>
    <tag k="source" v="plan.at 2009"/>
  </way>
  <way id="29550079" version="5" timestamp="2011-01-08T13:39:48Z" uid="45347" user="eriosw" changeset="6903721">
    <nd ref="325227611"/>
    <nd ref="325227614"/>
    <nd ref="325227617"/>
    <nd ref="325227619"/>
    <nd ref="325221078"/>
    <nd ref="325227621"/>
    <nd ref="325227623"/>
    <nd ref="325227625"/>
    <nd ref="325227627"/>
    <nd ref="325225080"/>
    <tag k="addr:postcode" v="4150"/>
    <tag k="highway" v="residential"/>
    <tag k="is_in" v="Rohrbach in Oberösterreich,Rohrbach,Oberösterreich,Österreich,Europe"/>
    <tag k="name" v="Stifterstraße"/>
    <tag k="source" v="plan.at 2009"/>
  </way>
  <way id="29550079" version="6" timestamp="2011-07-28T08:55:29Z" uid="491845" user="data_at" changeset="8852244">
    <nd ref="325227611"/>
    <nd ref="325227614"/>
    <nd ref="325227617"/>
    <nd ref="325227619"/>
    <nd ref="325221078"/>
    <nd ref="325227621"/>
    <nd ref="325227623"/>
    <nd ref="325227625"/>
    <nd ref="325227627"/>
    <nd ref="325225080"/>
    <tag k="highway" v="residential"/>
    <tag k="is_in" v="Rohrbach in Oberösterreich,Rohrbach,Oberösterreich,Österreich,Europe"/>
    <tag k="name" v="Stifterstraße"/>
    <tag k="source" v="plan.at 2009"/>
  </way>
  <way id="29550179" version="3" timestamp="2010-03-29T00:14:29Z" uid="6269" user="Mueck" changeset="4263212">
    <nd ref="323805354"/>
    <nd ref="323613739"/>
    <nd ref="323557194"/>
    <nd ref="323725584"/>
    <nd ref="323352816"/>
    <nd ref="323407711"/>
    <nd ref="323505674"/>
    <nd ref="324079707"/>
    <nd ref="323724998"/>
    <nd ref="323919711"/>
    <nd ref="323333485"/>
    <nd ref="323562696"/>
    <nd ref="323827163"/>
    <nd ref="323693951"/>
    <nd ref="323362943"/>
    <nd ref="323757417"/>
    <nd ref="323750842"/>
    <nd ref="323768979"/>
    <nd ref="323658156"/>
    <nd ref="323875559"/>
    <nd ref="323656892"/>
    <nd ref="323679510"/>
    <nd ref="324155677"/>
    <nd ref="323700839"/>
    <nd ref="323294545"/>
    <nd ref="323730980"/>
    <nd ref="323292341"/>
    <nd ref="323946565"/>
    <nd ref="323487637"/>
    <nd ref="323825594"/>
    <nd ref="323821460"/>
    <nd ref="323467395"/>
    <nd ref="323288164"/>
    <nd ref="323568821"/>
    <nd ref="324030646"/>
    <nd ref="323429043"/>
    <nd ref="324157313"/>
    <nd ref="323619838"/>
    <nd ref="323269795"/>
    <nd ref="323864341"/>
    <nd ref="323601386"/>
    <nd ref="323749653"/>
    <nd ref="324050188"/>
    <nd ref="323347248"/>
    <nd ref="323895425"/>
    <nd ref="323700742"/>
    <nd ref="323737517"/>
    <nd ref="323700954"/>
    <nd ref="677226141"/>
    <nd ref="323835492"/>
    <nd ref="323303968"/>
    <nd ref="323661513"/>
    <nd ref="323772355"/>
    <nd ref="323727627"/>
    <tag k="admin_level" v="6"/>
    <tag k="boundary" v="administrative"/>
    <tag k="source" v="http://wiki.openstreetmap.org/wiki/Import/Catalogue/Kreisgrenzen_Deutschland_2005"/>
  </way>
  <way id="29550179" version="4" timestamp="2010-12-18T14:32:31Z" uid="155345" user="raptor-82" changeset="6696322">
    <nd ref="323805354"/>
    <nd ref="323613739"/>
    <nd ref="323557194"/>
    <nd ref="323725584"/>
    <nd ref="323352816"/>
    <nd ref="323407711"/>
    <nd ref="323505674"/>
    <nd ref="324079707"/>
    <nd ref="323724998"/>
    <nd ref="323919711"/>
    <nd ref="323333485"/>
    <nd ref="323562696"/>
    <nd ref="323827163"/>
    <nd ref="323693951"/>
    <nd ref="323362943"/>
    <nd ref="323757417"/>
    <nd ref="323750842"/>
    <nd ref="323768979"/>
    <nd ref="323658156"/>
    <nd ref="323875559"/>
    <nd ref="323656892"/>
    <nd ref="323679510"/>
    <nd ref="324155677"/>
    <nd ref="323700839"/>
    <nd ref="323294545"/>
    <nd ref="323730980"/>
    <nd ref="323292341"/>
    <nd ref="323946565"/>
    <nd ref="323487637"/>
    <nd ref="323825594"/>
    <nd ref="323821460"/>
    <nd ref="323467395"/>
    <nd ref="323288164"/>
    <nd ref="323568821"/>
    <nd ref="324030646"/>
    <nd ref="323429043"/>
    <nd ref="324157313"/>
    <nd ref="323619838"/>
    <nd ref="323269795"/>
    <nd ref="323864341"/>
    <nd ref="323601386"/>
    <nd ref="323749653"/>
    <nd ref="324050188"/>
    <nd ref="323347248"/>
    <nd ref="323895425"/>
    <nd ref="323700742"/>
    <nd ref="323737517"/>
    <nd ref="323700954"/>
    <nd ref="677226141"/>
    <nd ref="323835492"/>
    <nd ref="323303968"/>
    <nd ref="323661513"/>
    <nd ref="1045093990"/>
    <nd ref="1045093940"/>
    <nd ref="323772355"/>
    <nd ref="323727627"/>
    <tag k="admin_level" v="6"/>
    <tag k="boundary" v="administrative"/>
    <tag k="source" v="http://wiki.openstreetmap.org/wiki/Import/Catalogue/Kreisgrenzen_Deutschland_2005"/>
  </way>
  <way id="29550179" version="5" timestamp="2012-01-16T12:17:03Z" uid="442210" user="dwausr" changeset="10407546"/>
  <way id="29550188" version="7" timestamp="2009-10-13T23:13:42Z" uid="36809" user="pfoten_weg_!_" changeset="2841207">
    <nd ref="325689514"/>
    <nd ref="325689515"/>
    <tag k="aerialway" v="chair_lift"/>
    <tag k="name" v="Plateau"/>
  </way>
  <way id="29550188" version="8" timestamp="2011-03-10T22:03:14Z" uid="230707" user="stanton" changeset="7518913">
    <nd ref="325689514"/>
    <nd ref="325689515"/>
    <tag k="aerialway" v="chair_lift"/>
    <tag k="aerialway:occupancy" v="6"/>
    <tag k="name" v="Plateau"/>
  </way>
  <way id="29550188" version="9" timestamp="2011-03-27T14:11:26Z" uid="230707" user="stanton" changeset="7686494">
    <nd ref="325689514"/>
    <nd ref="325689515"/>
    <tag k="aerialway" v="chair_lift"/>
    <tag k="aerialway:bubble" v="yes"/>
    <tag k="aerialway:occupancy" v="6"/>
    <tag k="name" v="Plateau"/>
    <tag k="ref" v="308"/>
  </way>
  <way id="29550240" version="3" timestamp="2009-12-09T02:38:58Z" uid="200463" user="harmagedon" changeset="3330572">
    <nd ref="294691145"/>
    <nd ref="294689486"/>
    <nd ref="294691088"/>
    <tag k="highway" v="residential"/>
    <tag k="name" v="Hopfengasse"/>
  </way>
  <way id="29550240" version="4" timestamp="2010-05-31T10:28:13Z" uid="211966" user="Hetzi" changeset="4861629">
    <nd ref="294691145"/>
    <nd ref="760286601"/>
    <tag k="highway" v="residential"/>
    <tag k="name" v="Hopfengasse"/>
  </way>
  <way id="29550241" version="2" timestamp="2009-12-09T02:39:04Z" uid="200463" user="harmagedon" changeset="3330572">
    <nd ref="294689484"/>
    <nd ref="294691145"/>
    <tag k="highway" v="unclassified"/>
    <tag k="name" v="Badstraße"/>
  </way>
  <way id="29550419" version="4" timestamp="2010-07-08T18:44:22Z" uid="74617" user="JohnSmith" changeset="5167338">
    <nd ref="31601884"/>
    <nd ref="623853689"/>
    <nd ref="325693030"/>
    <nd ref="325693014"/>
    <tag k="highway" v="residential"/>
    <tag k="maxspeed" v="50"/>
    <tag k="maxspeed:source" v="default residential speed limit in Australia"/>
    <tag k="name" v="Galway Street"/>
    <tag k="source" v="Yahoo Imagery"/>
  </way>
  <way id="29550419" version="5" timestamp="2012-01-18T02:07:36Z" uid="147510" user="woodpeck_fixbot" changeset="10423581">
    <nd ref="31601884"/>
    <nd ref="623853689"/>
    <nd ref="325693030"/>
    <nd ref="325693014"/>
    <tag k="highway" v="residential"/>
    <tag k="name" v="Galway Street"/>
    <tag k="source" v="Yahoo Imagery"/>
  </way>
  <way id="29550420" version="3" timestamp="2010-07-08T18:26:55Z" uid="74617" user="JohnSmith" changeset="5167338">
    <nd ref="325693022"/>
    <nd ref="325693030"/>
    <nd ref="325693038"/>
    <nd ref="325693042"/>
    <nd ref="325693063"/>
    <nd ref="325693027"/>
    <tag k="highway" v="residential"/>
    <tag k="maxspeed" v="50"/>
    <tag k="maxspeed:source" v="default residential speed limit in Australia"/>
    <tag k="name" v="Belvedere Road"/>
    <tag k="source" v="Yahoo Imagery"/>
  </way>
  <way id="29550420" version="4" timestamp="2012-01-18T02:07:39Z" uid="147510" user="woodpeck_fixbot" changeset="10423581">
    <nd ref="325693022"/>
    <nd ref="325693030"/>
    <nd ref="325693038"/>
    <nd ref="325693042"/>
    <nd ref="325693063"/>
    <nd ref="325693027"/>
    <tag k="highway" v="residential"/>
    <tag k="name" v="Belvedere Road"/>
    <tag k="source" v="Yahoo Imagery"/>
  </way>
  <way id="29550421" version="3" timestamp="2010-07-08T18:16:52Z" uid="74617" user="JohnSmith" changeset="5167338">
    <nd ref="325693033"/>
    <nd ref="325693038"/>
    <tag k="highway" v="residential"/>
    <tag k="maxspeed" v="50"/>
    <tag k="maxspeed:source" v="default residential speed limit in Australia"/>
    <tag k="name" v="Seacrest Avenue"/>
    <tag k="source" v="Yahoo Imagery"/>
  </way>
  <way id="29550421" version="4" timestamp="2012-01-18T02:07:40Z" uid="147510" user="woodpeck_fixbot" changeset="10423581">
    <nd ref="325693033"/>
    <nd ref="325693038"/>
    <tag k="highway" v="residential"/>
    <tag k="name" v="Seacrest Avenue"/>
    <tag k="source" v="Yahoo Imagery"/>
  </way>
  <way id="29550422" version="3" timestamp="2010-07-08T18:45:52Z" uid="74617" user="JohnSmith" changeset="5167338">
    <nd ref="325693042"/>
    <nd ref="325693048"/>
    <tag k="highway" v="residential"/>
    <tag k="maxspeed" v="50"/>
    <tag k="maxspeed:source" v="default residential speed limit in Australia"/>
    <tag k="name" v="Young Street"/>
    <tag k="source" v="Yahoo Imagery"/>
  </way>
  <way id="29550422" version="4" timestamp="2012-01-18T02:07:42Z" uid="147510" user="woodpeck_fixbot" changeset="10423581">
    <nd ref="325693042"/>
    <nd ref="325693048"/>
    <tag k="highway" v="residential"/>
    <tag k="name" v="Young Street"/>
    <tag k="source" v="Yahoo Imagery"/>
  </way>
  <way id="29550423" version="3" timestamp="2010-07-08T18:39:03Z" uid="74617" user="JohnSmith" changeset="5167338">
    <nd ref="325693055"/>
    <nd ref="325693027"/>
    <tag k="highway" v="residential"/>
    <tag k="maxspeed" v="50"/>
    <tag k="maxspeed:source" v="default residential speed limit in Australia"/>
    <tag k="name" v="Wicklow Street"/>
    <tag k="source" v="Yahoo Imagery"/>
  </way>
  <way id="29550423" version="4" timestamp="2012-01-16T09:29:59Z" uid="46482" user="Leon K" changeset="10406710">
    <nd ref="1592422607"/>
    <nd ref="325693027"/>
    <tag k="highway" v="residential"/>
    <tag k="maxspeed" v="50"/>
    <tag k="maxspeed:source" v="default residential speed limit in Australia"/>
    <tag k="name" v="Wicklow Street"/>
    <tag k="source" v="Yahoo Imagery"/>
  </way>
  <way id="29550423" version="5" timestamp="2012-01-18T02:07:43Z" uid="147510" user="woodpeck_fixbot" changeset="10423581">
    <nd ref="1592422607"/>
    <nd ref="325693027"/>
    <tag k="highway" v="residential"/>
    <tag k="name" v="Wicklow Street"/>
    <tag k="source" v="Yahoo Imagery"/>
  </way>
  <way id="29550424" version="3" timestamp="2010-07-08T18:42:22Z" uid="74617" user="JohnSmith" changeset="5167338">
    <nd ref="325693063"/>
    <nd ref="325693072"/>
    <nd ref="325693093"/>
    <nd ref="325693096"/>
    <nd ref="325693078"/>
    <tag k="highway" v="residential"/>
    <tag k="maxspeed" v="50"/>
    <tag k="maxspeed:source" v="default residential speed limit in Australia"/>
    <tag k="name" v="Belvedere Road"/>
    <tag k="source" v="Yahoo Imagery"/>
  </way>
  <way id="29550424" version="4" timestamp="2012-01-18T02:07:44Z" uid="147510" user="woodpeck_fixbot" changeset="10423581">
    <nd ref="325693063"/>
    <nd ref="325693072"/>
    <nd ref="325693093"/>
    <nd ref="325693096"/>
    <nd ref="325693078"/>
    <tag k="highway" v="residential"/>
    <tag k="name" v="Belvedere Road"/>
    <tag k="source" v="Yahoo Imagery"/>
  </way>
  <way id="29550425" version="3" timestamp="2010-07-08T18:35:23Z" uid="74617" user="JohnSmith" changeset="5167338">
    <nd ref="325693082"/>
    <nd ref="325693086"/>
    <nd ref="325693072"/>
    <tag k="highway" v="residential"/>
    <tag k="maxspeed" v="50"/>
    <tag k="maxspeed:source" v="default residential speed limit in Australia"/>
    <tag k="name" v="Chiquita Avenue"/>
    <tag k="source" v="Yahoo Imagery"/>
  </way>
  <way id="29550425" version="4" timestamp="2012-01-18T02:07:46Z" uid="147510" user="woodpeck_fixbot" changeset="10423581">
    <nd ref="325693082"/>
    <nd ref="325693086"/>
    <nd ref="325693072"/>
    <tag k="highway" v="residential"/>
    <tag k="name" v="Chiquita Avenue"/>
    <tag k="source" v="Yahoo Imagery"/>
  </way>
  <way id="29550426" version="3" timestamp="2010-07-08T18:28:17Z" uid="74617" user="JohnSmith" changeset="5167338">
    <nd ref="325693090"/>
    <nd ref="325693093"/>
    <tag k="highway" v="residential"/>
    <tag k="maxspeed" v="50"/>
    <tag k="maxspeed:source" v="default residential speed limit in Australia"/>
    <tag k="name" v="Moomba Avenue"/>
    <tag k="source" v="Yahoo Imagery"/>
  </way>
  <way id="29550426" version="4" timestamp="2012-01-18T02:07:47Z" uid="147510" user="woodpeck_fixbot" changeset="10423581">
    <nd ref="325693090"/>
    <nd ref="325693093"/>
    <tag k="highway" v="residential"/>
    <tag k="name" v="Moomba Avenue"/>
    <tag k="source" v="Yahoo Imagery"/>
  </way>
  <way id="29550427" version="3" timestamp="2010-07-08T18:17:57Z" uid="74617" user="JohnSmith" changeset="5167338">
    <nd ref="325693096"/>
    <nd ref="325693100"/>
    <tag k="highway" v="residential"/>
    <tag k="maxspeed" v="50"/>
    <tag k="maxspeed:source" v="default residential speed limit in Australia"/>
    <tag k="name" v="Keerok Avenue"/>
    <tag k="source" v="Yahoo Imagery"/>
  </way>
  <way id="29550427" version="4" timestamp="2012-01-18T02:07:49Z" uid="147510" user="woodpeck_fixbot" changeset="10423581">
    <nd ref="325693096"/>
    <nd ref="325693100"/>
    <tag k="highway" v="residential"/>
    <tag k="name" v="Keerok Avenue"/>
    <tag k="source" v="Yahoo Imagery"/>
  </way>
  <way id="29550428" version="4" timestamp="2010-07-08T18:37:03Z" uid="74617" user="JohnSmith" changeset="5167338">
    <nd ref="325693103"/>
    <nd ref="325693133"/>
    <nd ref="325693078"/>
    <nd ref="325693106"/>
    <nd ref="325693110"/>
    <nd ref="325693112"/>
    <nd ref="325693114"/>
    <nd ref="325693116"/>
    <tag k="highway" v="residential"/>
    <tag k="maxspeed" v="50"/>
    <tag k="maxspeed:source" v="default residential speed limit in Australia"/>
    <tag k="name" v="Carrington Avenue"/>
    <tag k="source" v="Yahoo Imagery"/>
  </way>
  <way id="29550428" version="5" timestamp="2012-01-18T02:07:51Z" uid="147510" user="woodpeck_fixbot" changeset="10423581">
    <nd ref="325693103"/>
    <nd ref="325693133"/>
    <nd ref="325693078"/>
    <nd ref="325693106"/>
    <nd ref="325693110"/>
    <nd ref="325693112"/>
    <nd ref="325693114"/>
    <nd ref="325693116"/>
    <tag k="highway" v="residential"/>
    <tag k="name" v="Carrington Avenue"/>
    <tag k="source" v="Yahoo Imagery"/>
  </way>
  <way id="29550430" version="3" timestamp="2010-07-08T18:21:02Z" uid="74617" user="JohnSmith" changeset="5167338">
    <nd ref="325693116"/>
    <nd ref="325693123"/>
    <tag k="highway" v="residential"/>
    <tag k="maxspeed" v="50"/>
    <tag k="maxspeed:source" v="default residential speed limit in Australia"/>
    <tag k="name" v="Fern Close"/>
    <tag k="source" v="Yahoo Imagery"/>
  </way>
  <way id="29550430" version="4" timestamp="2012-01-18T02:07:52Z" uid="147510" user="woodpeck_fixbot" changeset="10423581">
    <nd ref="325693116"/>
    <nd ref="325693123"/>
    <tag k="highway" v="residential"/>
    <tag k="name" v="Fern Close"/>
    <tag k="source" v="Yahoo Imagery"/>
  </way>
  <way id="29550432" version="3" timestamp="2010-07-08T18:26:24Z" uid="74617" user="JohnSmith" changeset="5167338">
    <nd ref="325693129"/>
    <nd ref="325693163"/>
    <nd ref="325693131"/>
    <tag k="highway" v="residential"/>
    <tag k="maxspeed" v="50"/>
    <tag k="maxspeed:source" v="default residential speed limit in Australia"/>
    <tag k="name" v="Elisdon Drive"/>
    <tag k="source" v="Yahoo Imagery"/>
  </way>
  <way id="29550432" version="4" timestamp="2012-01-18T02:07:54Z" uid="147510" user="woodpeck_fixbot" changeset="10423581">
    <nd ref="325693129"/>
    <nd ref="325693163"/>
    <nd ref="325693131"/>
    <tag k="highway" v="residential"/>
    <tag k="name" v="Elisdon Drive"/>
    <tag k="source" v="Yahoo Imagery"/>
  </way>
  <way id="29550433" version="4" timestamp="2010-04-26T12:12:43Z" uid="4467" user="Rosscoe" changeset="4531219">
    <nd ref="325693133"/>
    <nd ref="325693135"/>
    <nd ref="325693149"/>
    <nd ref="325693131"/>
    <nd ref="325693137"/>
    <nd ref="325693155"/>
    <nd ref="707239231"/>
    <tag k="highway" v="residential"/>
    <tag k="name" v="Centenary Street"/>
    <tag k="source" v="Yahoo Imagery"/>
  </way>
  <way id="29550433" version="5" timestamp="2010-07-08T18:16:38Z" uid="74617" user="JohnSmith" changeset="5167338">
    <nd ref="325693133"/>
    <nd ref="325693135"/>
    <nd ref="325693149"/>
    <nd ref="325693131"/>
    <nd ref="325693137"/>
    <nd ref="325693155"/>
    <nd ref="707239231"/>
    <tag k="highway" v="residential"/>
    <tag k="maxspeed" v="50"/>
    <tag k="maxspeed:source" v="default residential speed limit in Australia"/>
    <tag k="name" v="Centenary Street"/>
    <tag k="source" v="Yahoo Imagery"/>
  </way>
  <way id="29550433" version="6" timestamp="2012-01-18T02:07:55Z" uid="147510" user="woodpeck_fixbot" changeset="10423581">
    <nd ref="325693133"/>
    <nd ref="325693135"/>
    <nd ref="325693149"/>
    <nd ref="325693131"/>
    <nd ref="325693137"/>
    <nd ref="325693155"/>
    <nd ref="707239231"/>
    <tag k="highway" v="residential"/>
    <tag k="name" v="Centenary Street"/>
    <tag k="source" v="Yahoo Imagery"/>
  </way>
  <way id="29550434" version="3" timestamp="2010-07-08T18:45:39Z" uid="74617" user="JohnSmith" changeset="5167338">
    <nd ref="325693149"/>
    <nd ref="325693151"/>
    <nd ref="31601887"/>
    <tag k="highway" v="residential"/>
    <tag k="maxspeed" v="50"/>
    <tag k="maxspeed:source" v="default residential speed limit in Australia"/>
    <tag k="name" v="Elisdon Drive"/>
    <tag k="source" v="Yahoo Imagery"/>
  </way>
  <way id="29550434" version="4" timestamp="2012-01-16T09:29:58Z" uid="46482" user="Leon K" changeset="10406710">
    <nd ref="325693149"/>
    <nd ref="325693151"/>
    <nd ref="1592422604"/>
    <tag k="highway" v="residential"/>
    <tag k="maxspeed" v="50"/>
    <tag k="maxspeed:source" v="default residential speed limit in Australia"/>
    <tag k="name" v="Elisdon Drive"/>
    <tag k="source" v="Yahoo Imagery"/>
  </way>
  <way id="29550434" version="5" timestamp="2012-01-18T02:07:57Z" uid="147510" user="woodpeck_fixbot" changeset="10423581">
    <nd ref="325693149"/>
    <nd ref="325693151"/>
    <nd ref="1592422604"/>
    <tag k="highway" v="residential"/>
    <tag k="name" v="Elisdon Drive"/>
    <tag k="source" v="Yahoo Imagery"/>
  </way>
  <way id="29550435" version="3" timestamp="2010-07-08T18:38:45Z" uid="74617" user="JohnSmith" changeset="5167338">
    <nd ref="325693151"/>
    <nd ref="325693153"/>
    <tag k="highway" v="residential"/>
    <tag k="maxspeed" v="50"/>
    <tag k="maxspeed:source" v="default residential speed limit in Australia"/>
    <tag k="name" v="Eliza Court"/>
    <tag k="source" v="Yahoo Imagery"/>
  </way>
  <way id="29550435" version="4" timestamp="2012-01-18T02:07:59Z" uid="147510" user="woodpeck_fixbot" changeset="10423581">
    <nd ref="325693151"/>
    <nd ref="325693153"/>
    <tag k="highway" v="residential"/>
    <tag k="name" v="Eliza Court"/>
    <tag k="source" v="Yahoo Imagery"/>
  </way>
  <way id="29550438" version="3" timestamp="2010-07-08T18:40:46Z" uid="74617" user="JohnSmith" changeset="5167338">
    <nd ref="325693155"/>
    <nd ref="325693157"/>
    <tag k="highway" v="residential"/>
    <tag k="maxspeed" v="50"/>
    <tag k="maxspeed:source" v="default residential speed limit in Australia"/>
    <tag k="name" v="Prince Crescent"/>
    <tag k="source" v="Yahoo Imagery"/>
  </way>
  <way id="29550438" version="4" timestamp="2012-01-16T09:29:57Z" uid="46482" user="Leon K" changeset="10406710">
    <nd ref="325693155"/>
    <nd ref="1592422608"/>
    <tag k="highway" v="residential"/>
    <tag k="maxspeed" v="50"/>
    <tag k="maxspeed:source" v="default residential speed limit in Australia"/>
    <tag k="name" v="Prince Crescent"/>
    <tag k="source" v="Yahoo Imagery"/>
  </way>
  <way id="29550438" version="5" timestamp="2012-01-18T02:08:00Z" uid="147510" user="woodpeck_fixbot" changeset="10423581">
    <nd ref="325693155"/>
    <nd ref="1592422608"/>
    <tag k="highway" v="residential"/>
    <tag k="name" v="Prince Crescent"/>
    <tag k="source" v="Yahoo Imagery"/>
  </way>
  <way id="29550440" version="3" timestamp="2010-04-26T12:12:46Z" uid="4467" user="Rosscoe" changeset="4531219">
    <nd ref="325693159"/>
    <nd ref="707239109"/>
    <tag k="highway" v="tertiary"/>
    <tag k="name" v="Henry Crescent"/>
    <tag k="source" v="Yahoo Imagery"/>
  </way>
  <way id="29550440" version="4" timestamp="2011-02-23T12:23:41Z" uid="46482" user="Leon K" changeset="7371914">
    <nd ref="325693159"/>
    <nd ref="707239109"/>
    <tag k="highway" v="tertiary"/>
    <tag k="maxspeed" v="60"/>
    <tag k="name" v="Henry Crescent"/>
    <tag k="source" v="Yahoo Imagery"/>
  </way>
  <way id="29550440" version="5" timestamp="2012-01-16T09:29:58Z" uid="46482" user="Leon K" changeset="10406710">
    <nd ref="1592422597"/>
    <nd ref="707239109"/>
    <tag k="highway" v="tertiary"/>
    <tag k="maxspeed" v="60"/>
    <tag k="name" v="Henry Crescent"/>
    <tag k="source" v="Yahoo Imagery"/>
  </way>
  <way id="29550441" version="3" timestamp="2010-07-08T18:30:10Z" uid="74617" user="JohnSmith" changeset="5167338">
    <nd ref="325693163"/>
    <nd ref="325693165"/>
    <nd ref="325693167"/>
    <tag k="highway" v="residential"/>
    <tag k="maxspeed" v="50"/>
    <tag k="maxspeed:source" v="default residential speed limit in Australia"/>
    <tag k="name" v="Susan Court"/>
    <tag k="source" v="Yahoo Imagery"/>
  </way>
  <way id="29550441" version="4" timestamp="2012-01-18T02:08:01Z" uid="147510" user="woodpeck_fixbot" changeset="10423581">
    <nd ref="325693163"/>
    <nd ref="325693165"/>
    <nd ref="325693167"/>
    <tag k="highway" v="residential"/>
    <tag k="name" v="Susan Court"/>
    <tag k="source" v="Yahoo Imagery"/>
  </way>
  <way id="29550442" version="3" timestamp="2010-07-08T18:20:28Z" uid="74617" user="JohnSmith" changeset="5167338">
    <nd ref="325693169"/>
    <nd ref="325693171"/>
    <nd ref="325693173"/>
    <tag k="highway" v="residential"/>
    <tag k="maxspeed" v="50"/>
    <tag k="maxspeed:source" v="default residential speed limit in Australia"/>
    <tag k="name" v="Taldra Crescent"/>
    <tag k="source" v="Yahoo Imagery"/>
  </way>
  <way id="29550442" version="4" timestamp="2012-01-18T02:08:02Z" uid="147510" user="woodpeck_fixbot" changeset="10423581">
    <nd ref="325693169"/>
    <nd ref="325693171"/>
    <nd ref="325693173"/>
    <tag k="highway" v="residential"/>
    <tag k="name" v="Taldra Crescent"/>
    <tag k="source" v="Yahoo Imagery"/>
  </way>
  <way id="29550443" version="4" timestamp="2010-07-08T18:47:31Z" uid="74617" user="JohnSmith" changeset="5167338">
    <nd ref="325693175"/>
    <nd ref="604256524"/>
    <nd ref="325693177"/>
    <tag k="highway" v="residential"/>
    <tag k="maxspeed" v="50"/>
    <tag k="maxspeed:source" v="default residential speed limit in Australia"/>
    <tag k="name" v="Sussex Crescent"/>
    <tag k="source" v="Yahoo Imagery"/>
  </way>
  <way id="29550443" version="5" timestamp="2012-01-16T09:29:57Z" uid="46482" user="Leon K" changeset="10406710">
    <nd ref="325693175"/>
    <nd ref="604256524"/>
    <nd ref="1592422625"/>
    <tag k="highway" v="residential"/>
    <tag k="maxspeed" v="50"/>
    <tag k="maxspeed:source" v="default residential speed limit in Australia"/>
    <tag k="name" v="Sussex Crescent"/>
    <tag k="source" v="Yahoo Imagery"/>
  </way>
  <way id="29550443" version="6" timestamp="2012-01-18T02:08:04Z" uid="147510" user="woodpeck_fixbot" changeset="10423581">
    <nd ref="325693175"/>
    <nd ref="604256524"/>
    <nd ref="1592422625"/>
    <tag k="highway" v="residential"/>
    <tag k="name" v="Sussex Crescent"/>
    <tag k="source" v="Yahoo Imagery"/>
  </way>
  <way id="29550444" version="4" timestamp="2010-07-08T18:32:06Z" uid="74617" user="JohnSmith" changeset="5167338">
    <nd ref="325693179"/>
    <nd ref="604256527"/>
    <nd ref="325693181"/>
    <tag k="highway" v="residential"/>
    <tag k="maxspeed" v="50"/>
    <tag k="maxspeed:source" v="default residential speed limit in Australia"/>
    <tag k="name" v="Bellevue Crescent"/>
    <tag k="source" v="Yahoo Imagery"/>
  </way>
  <way id="29550444" version="5" timestamp="2012-01-16T09:29:58Z" uid="46482" user="Leon K" changeset="10406710">
    <nd ref="325693179"/>
    <nd ref="1592422586"/>
    <nd ref="604256527"/>
    <nd ref="1592422617"/>
    <tag k="highway" v="residential"/>
    <tag k="maxspeed" v="50"/>
    <tag k="maxspeed:source" v="default residential speed limit in Australia"/>
    <tag k="name" v="Bellevue Crescent"/>
    <tag k="source" v="Yahoo Imagery"/>
  </way>
  <way id="29550444" version="6" timestamp="2012-01-18T02:08:05Z" uid="147510" user="woodpeck_fixbot" changeset="10423581">
    <nd ref="325693179"/>
    <nd ref="1592422586"/>
    <nd ref="604256527"/>
    <nd ref="1592422617"/>
    <tag k="highway" v="residential"/>
    <tag k="name" v="Bellevue Crescent"/>
    <tag k="source" v="Yahoo Imagery"/>
  </way>
  <way id="29550445" version="7" timestamp="2010-04-26T12:12:47Z" uid="4467" user="Rosscoe" changeset="4531219">
    <nd ref="325693183"/>
    <nd ref="616560494"/>
    <nd ref="325693193"/>
    <nd ref="325693210"/>
    <nd ref="707239075"/>
    <tag k="highway" v="residential"/>
    <tag k="name" v="Ti-Tree Cresent"/>
    <tag k="source" v="Yahoo Imagery"/>
  </way>
  <way id="29550445" version="8" timestamp="2010-07-08T18:23:47Z" uid="74617" user="JohnSmith" changeset="5167338">
    <nd ref="325693183"/>
    <nd ref="616560494"/>
    <nd ref="325693193"/>
    <nd ref="325693210"/>
    <nd ref="707239075"/>
    <tag k="highway" v="residential"/>
    <tag k="maxspeed" v="50"/>
    <tag k="maxspeed:source" v="default residential speed limit in Australia"/>
    <tag k="name" v="Ti-Tree Cresent"/>
    <tag k="source" v="Yahoo Imagery"/>
  </way>
  <way id="29550445" version="9" timestamp="2012-01-18T02:08:06Z" uid="147510" user="woodpeck_fixbot" changeset="10423581">
    <nd ref="325693183"/>
    <nd ref="616560494"/>
    <nd ref="325693193"/>
    <nd ref="325693210"/>
    <nd ref="707239075"/>
    <tag k="highway" v="residential"/>
    <tag k="name" v="Ti-Tree Cresent"/>
    <tag k="source" v="Yahoo Imagery"/>
  </way>
  <way id="29550446" version="3" timestamp="2010-07-08T18:48:35Z" uid="74617" user="JohnSmith" changeset="5167338">
    <nd ref="325693187"/>
    <nd ref="325693189"/>
    <tag k="highway" v="residential"/>
    <tag k="maxspeed" v="50"/>
    <tag k="maxspeed:source" v="default residential speed limit in Australia"/>
    <tag k="name" v="Sunny Court"/>
    <tag k="source" v="Yahoo Imagery"/>
  </way>
  <way id="29550446" version="4" timestamp="2012-01-18T02:08:07Z" uid="147510" user="woodpeck_fixbot" changeset="10423581">
    <nd ref="325693187"/>
    <nd ref="325693189"/>
    <tag k="highway" v="residential"/>
    <tag k="name" v="Sunny Court"/>
    <tag k="source" v="Yahoo Imagery"/>
  </way>
  <way id="29550447" version="4" timestamp="2010-07-08T18:44:08Z" uid="74617" user="JohnSmith" changeset="5167338">
    <nd ref="325693191"/>
    <nd ref="325693194"/>
    <tag k="highway" v="residential"/>
    <tag k="maxspeed" v="50"/>
    <tag k="maxspeed:source" v="default residential speed limit in Australia"/>
    <tag k="name" v="Bambra Court"/>
    <tag k="source" v="Yahoo Imagery"/>
  </way>
  <way id="29550447" version="5" timestamp="2012-01-18T02:08:09Z" uid="147510" user="woodpeck_fixbot" changeset="10423581">
    <nd ref="325693191"/>
    <nd ref="325693194"/>
    <tag k="highway" v="residential"/>
    <tag k="name" v="Bambra Court"/>
    <tag k="source" v="Yahoo Imagery"/>
  </way>
  <way id="29550448" version="3" timestamp="2010-07-08T18:39:40Z" uid="74617" user="JohnSmith" changeset="5167338">
    <nd ref="325693196"/>
    <nd ref="325693201"/>
    <nd ref="325693198"/>
    <tag k="highway" v="residential"/>
    <tag k="maxspeed" v="50"/>
    <tag k="maxspeed:source" v="default residential speed limit in Australia"/>
    <tag k="name" v="Sturdee Street"/>
    <tag k="source" v="Yahoo Imagery"/>
  </way>
  <way id="29550448" version="4" timestamp="2012-01-18T02:08:10Z" uid="147510" user="woodpeck_fixbot" changeset="10423581">
    <nd ref="325693196"/>
    <nd ref="325693201"/>
    <nd ref="325693198"/>
    <tag k="highway" v="residential"/>
    <tag k="name" v="Sturdee Street"/>
    <tag k="source" v="Yahoo Imagery"/>
  </way>
  <way id="29550449" version="3" timestamp="2010-07-08T18:32:47Z" uid="74617" user="JohnSmith" changeset="5167338">
    <nd ref="325693201"/>
    <nd ref="325693204"/>
    <tag k="highway" v="residential"/>
    <tag k="maxspeed" v="50"/>
    <tag k="maxspeed:source" v="default residential speed limit in Australia"/>
    <tag k="name" v="Elandra Court"/>
    <tag k="source" v="Yahoo Imagery"/>
  </way>
  <way id="29550449" version="4" timestamp="2012-01-18T02:08:12Z" uid="147510" user="woodpeck_fixbot" changeset="10423581">
    <nd ref="325693201"/>
    <nd ref="325693204"/>
    <tag k="highway" v="residential"/>
    <tag k="name" v="Elandra Court"/>
    <tag k="source" v="Yahoo Imagery"/>
  </way>
  <way id="29550450" version="3" timestamp="2010-07-08T18:24:46Z" uid="74617" user="JohnSmith" changeset="5167338">
    <nd ref="325693206"/>
    <nd ref="325693208"/>
    <nd ref="325693210"/>
    <tag k="highway" v="residential"/>
    <tag k="maxspeed" v="50"/>
    <tag k="maxspeed:source" v="default residential speed limit in Australia"/>
    <tag k="name" v="Benelong Crescent"/>
    <tag k="source" v="Yahoo Imagery"/>
  </way>
  <way id="29550450" version="4" timestamp="2012-01-18T02:08:13Z" uid="147510" user="woodpeck_fixbot" changeset="10423581">
    <nd ref="325693206"/>
    <nd ref="325693208"/>
    <nd ref="325693210"/>
    <tag k="highway" v="residential"/>
    <tag k="name" v="Benelong Crescent"/>
    <tag k="source" v="Yahoo Imagery"/>
  </way>
  <way id="29550451" version="6" timestamp="2010-07-08T18:49:00Z" uid="74617" user="JohnSmith" changeset="5167338">
    <nd ref="325693212"/>
    <nd ref="604248158"/>
    <nd ref="325693214"/>
    <nd ref="604248167"/>
    <nd ref="604256540"/>
    <nd ref="365544445"/>
    <nd ref="275742900"/>
    <tag k="highway" v="residential"/>
    <tag k="maxspeed" v="50"/>
    <tag k="maxspeed:source" v="default residential speed limit in Australia"/>
    <tag k="name" v="Mountain View Crescent"/>
    <tag k="source" v="Yahoo Imagery"/>
  </way>
  <way id="29550451" version="7" timestamp="2012-01-18T02:08:14Z" uid="147510" user="woodpeck_fixbot" changeset="10423581">
    <nd ref="325693212"/>
    <nd ref="604248158"/>
    <nd ref="325693214"/>
    <nd ref="604248167"/>
    <nd ref="604256540"/>
    <nd ref="365544445"/>
    <nd ref="275742900"/>
    <tag k="highway" v="residential"/>
    <tag k="name" v="Mountain View Crescent"/>
    <tag k="source" v="Yahoo Imagery"/>
  </way>
  <way id="29550487" version="3" timestamp="2009-11-29T22:47:02Z" uid="200463" user="harmagedon" changeset="3251061">
    <nd ref="325693583"/>
    <nd ref="325693584"/>
    <nd ref="325693586"/>
    <nd ref="325693587"/>
    <nd ref="325693588"/>
    <nd ref="325693589"/>
    <tag k="highway" v="residential"/>
    <tag k="name" v="Florianstraße"/>
  </way>
  <way id="29550555" version="3" timestamp="2010-02-14T15:46:06Z" uid="74617" user="JohnSmith" changeset="3874884">
    <nd ref="231942660"/>
    <nd ref="268564039"/>
    <nd ref="325697401"/>
    <nd ref="268564038"/>
    <nd ref="268563933"/>
    <nd ref="268564037"/>
    <nd ref="268564036"/>
    <tag k="highway" v="residential"/>
    <tag k="maxspeed" v="50"/>
    <tag k="name" v="Olearia Street East"/>
  </way>
  <way id="29550555" version="4" timestamp="2012-01-18T02:08:16Z" uid="147510" user="woodpeck_fixbot" changeset="10423581">
    <nd ref="231942660"/>
    <nd ref="268564039"/>
    <nd ref="325697401"/>
    <nd ref="268564038"/>
    <nd ref="268563933"/>
    <nd ref="268564037"/>
    <nd ref="268564036"/>
    <tag k="highway" v="residential"/>
    <tag k="name" v="Olearia Street East"/>
  </way>
  <way id="29550556" version="2" timestamp="2010-02-14T15:47:22Z" uid="74617" user="JohnSmith" changeset="3874884">
    <nd ref="268564238"/>
    <nd ref="325694953"/>
    <tag k="highway" v="footway"/>
    <tag k="name" v="Olearia Street"/>
  </way>
  <way id="29550557" version="3" timestamp="2010-02-14T15:47:22Z" uid="74617" user="JohnSmith" changeset="3874884">
    <nd ref="325694953"/>
    <nd ref="325697636"/>
    <nd ref="268564239"/>
    <nd ref="268564036"/>
    <tag k="highway" v="residential"/>
    <tag k="maxspeed" v="50"/>
    <tag k="name" v="Olearia Street East"/>
  </way>
  <way id="29550557" version="4" timestamp="2012-01-18T02:08:17Z" uid="147510" user="woodpeck_fixbot" changeset="10423581">
    <nd ref="325694953"/>
    <nd ref="325697636"/>
    <nd ref="268564239"/>
    <nd ref="268564036"/>
    <tag k="highway" v="residential"/>
    <tag k="name" v="Olearia Street East"/>
  </way>
  <way id="29550566" version="2" timestamp="2009-11-06T11:23:15Z" uid="36809" user="pfoten_weg_!_" changeset="3047170">
    <nd ref="325695258"/>
    <nd ref="271391856"/>
    <tag k="foot" v="yes"/>
    <tag k="highway" v="footway"/>
  </way>
  <way id="29550567" version="4" timestamp="2010-03-16T22:14:36Z" uid="163746" user="anti_bot-nonsense" changeset="4147536">
    <nd ref="319591754"/>
    <nd ref="319591755"/>
    <nd ref="319591756"/>
    <nd ref="319591757"/>
    <nd ref="319591760"/>
    <tag k="highway" v="residential"/>
    <tag k="oneway" v="yes"/>
  </way>
  <way id="29550573" version="9" timestamp="2009-11-06T11:23:13Z" uid="36809" user="pfoten_weg_!_" changeset="3047170">
    <nd ref="325695258"/>
    <nd ref="325695327"/>
    <tag k="bridge" v="yes"/>
    <tag k="highway" v="footway"/>
    <tag k="layer" v="1"/>
  </way>
  <way id="29550585" version="3" timestamp="2009-12-09T21:17:23Z" uid="200463" user="harmagedon" changeset="3336909">
    <nd ref="256007866"/>
    <nd ref="339005758"/>
    <tag k="bridge" v="yes"/>
    <tag k="highway" v="secondary"/>
    <tag k="name" v="Blumenstraße"/>
    <tag k="ref" v="S154"/>
  </way>
  <way id="29550587" version="3" timestamp="2010-03-16T22:14:24Z" uid="163746" user="anti_bot-nonsense" changeset="4147536">
    <nd ref="325695400"/>
    <nd ref="325695579"/>
    <nd ref="325695581"/>
    <nd ref="325695582"/>
    <nd ref="325695584"/>
    <tag k="highway" v="tertiary"/>
    <tag k="oneway" v="yes"/>
  </way>
  <way id="29550587" version="4" timestamp="2011-04-18T17:11:26Z" uid="349880" user="fady" changeset="7898920">
    <nd ref="325695400"/>
    <nd ref="325695579"/>
    <nd ref="325695581"/>
    <nd ref="325695582"/>
    <tag k="highway" v="tertiary"/>
    <tag k="oneway" v="yes"/>
  </way>
  <way id="29550587" version="5" timestamp="2011-04-18T17:12:13Z" uid="349880" user="fady" changeset="7898920">
    <nd ref="325695400"/>
    <nd ref="325695579"/>
    <nd ref="325695581"/>
    <tag k="highway" v="tertiary"/>
    <tag k="oneway" v="yes"/>
  </way>
  <way id="29550590" version="6" timestamp="2009-10-13T23:13:48Z" uid="36809" user="pfoten_weg_!_" changeset="2841207">
    <nd ref="325695607"/>
    <nd ref="325695608"/>
    <tag k="aerialway" v="cable_car"/>
    <tag k="name" v="Belvedere"/>
  </way>
  <way id="29550590" version="7" timestamp="2010-01-02T17:06:39Z" uid="30891" user="wiso" changeset="3520378">
    <nd ref="603134314"/>
    <nd ref="325695607"/>
    <tag k="name" v="Belvedere"/>
    <tag k="piste:difficulty" v="easy"/>
    <tag k="piste:type" v="downhill"/>
    <tag k="ref" v="28"/>
  </way>
  <way id="29550590" version="8" timestamp="2011-03-27T14:11:15Z" uid="230707" user="stanton" changeset="7686494">
    <nd ref="603134314"/>
    <nd ref="325695607"/>
    <tag k="name" v="Belvedere"/>
    <tag k="piste:difficulty" v="easy"/>
    <tag k="piste:ref" v="8"/>
    <tag k="piste:type" v="downhill"/>
  </way>
  <way id="29550606" version="2" timestamp="2010-03-16T22:14:25Z" uid="163746" user="anti_bot-nonsense" changeset="4147536">
    <nd ref="325695582"/>
    <nd ref="325696007"/>
    <nd ref="314801869"/>
    <tag k="highway" v="tertiary"/>
    <tag k="oneway" v="yes"/>
  </way>
  <way id="29550615" version="1" timestamp="2009-01-04T12:54:59Z" uid="64977" user="CLoeser" changeset="728535">
    <nd ref="325696265"/>
    <nd ref="325696269"/>
    <nd ref="325696271"/>
    <nd ref="325696273"/>
    <nd ref="325696275"/>
    <nd ref="325696277"/>
    <nd ref="325696280"/>
    <nd ref="325696282"/>
    <tag k="created_by" v="Potlatch 0.10f"/>
  </way>
  <way id="29550615" version="2" timestamp="2009-01-04T12:56:14Z" uid="64977" user="CLoeser" changeset="728535">
    <nd ref="325696265"/>
    <nd ref="325696269"/>
    <nd ref="325696271"/>
    <nd ref="325696273"/>
    <nd ref="325696275"/>
    <nd ref="325696277"/>
    <nd ref="325696280"/>
    <nd ref="325696628"/>
    <nd ref="325696631"/>
    <nd ref="325696265"/>
    <tag k="created_by" v="Potlatch 0.10f"/>
    <tag k="description" v="Totalreservat"/>
    <tag k="natural" v="wood"/>
  </way>
  <way id="29550615" version="3" timestamp="2009-01-18T13:01:04Z" uid="20867" user="Wolef" changeset="805562">
    <nd ref="325696265"/>
    <nd ref="325696269"/>
    <nd ref="325696271"/>
    <nd ref="325696273"/>
    <nd ref="325696275"/>
    <nd ref="325696277"/>
    <nd ref="325696280"/>
    <nd ref="325696628"/>
    <nd ref="325696631"/>
    <nd ref="325696265"/>
    <tag k="created_by" v="Potlatch 0.10f"/>
    <tag k="description" v="Totalreservat"/>
    <tag k="leisure" v="nature_reserve"/>
    <tag k="natural" v="wood"/>
  </way>
  <way id="29550624" version="2" timestamp="2009-02-06T21:08:58Z" uid="33382" user="de_muur" changeset="200929"/>
  <way id="29550636" version="7" timestamp="2009-10-13T23:13:40Z" uid="36809" user="pfoten_weg_!_" changeset="2841207">
    <nd ref="325696901"/>
    <nd ref="325696908"/>
    <tag k="aerialway" v="cable_car"/>
    <tag k="name" v="Ruis"/>
  </way>
  <way id="29550636" version="8" timestamp="2010-03-06T23:54:48Z" uid="92142" user="lultimouomo" changeset="4056370">
    <nd ref="325696901"/>
    <nd ref="325696908"/>
    <tag k="aerialway" v="gondola"/>
    <tag k="name" v="Ruis"/>
  </way>
  <way id="29550636" version="9" timestamp="2011-03-27T14:11:09Z" uid="230707" user="stanton" changeset="7686494">
    <nd ref="325696901"/>
    <nd ref="325696908"/>
    <tag k="aerialway" v="gondola"/>
    <tag k="aerialway:occupancy" v="8"/>
    <tag k="name" v="Ruis"/>
    <tag k="ref" v="201"/>
  </way>
  <way id="29550639" version="5" timestamp="2009-09-04T21:19:13Z" uid="36809" user="pfoten_weg_!_" changeset="2374562">
    <nd ref="325696922"/>
    <nd ref="325696948"/>
    <tag k="bicycle" v="yes"/>
    <tag k="highway" v="footway"/>
    <tag k="name" v="Flauchersteg"/>
    <tag k="surface" v="unpaved"/>
  </way>
  <way id="29550639" version="6" timestamp="2010-02-28T04:02:23Z" uid="238370" user="BlaueBlüte" changeset="3994595">
    <nd ref="325696922"/>
    <nd ref="325696948"/>
    <tag k="bicycle" v="yes"/>
    <tag k="embankment" v="yes"/>
    <tag k="highway" v="footway"/>
    <tag k="name" v="Flauchersteg"/>
    <tag k="surface" v="unpaved"/>
  </way>
  <way id="29550639" version="7" timestamp="2010-06-07T09:25:55Z" uid="18015" user="chan" changeset="4926274">
    <nd ref="325696922"/>
    <nd ref="766487592"/>
    <nd ref="325696948"/>
    <tag k="bicycle" v="yes"/>
    <tag k="embankment" v="yes"/>
    <tag k="highway" v="footway"/>
    <tag k="name" v="Flauchersteg"/>
    <tag k="surface" v="unpaved"/>
  </way>
  <way id="29550639" version="8" timestamp="2011-07-18T20:34:16Z" uid="367380" user="Mloni" changeset="8761729">
    <nd ref="325696922"/>
    <nd ref="766487592"/>
    <nd ref="325696948"/>
    <tag k="bicycle" v="no"/>
    <tag k="embankment" v="yes"/>
    <tag k="highway" v="footway"/>
    <tag k="name" v="Flauchersteg"/>
    <tag k="surface" v="unpaved"/>
  </way>
  <way id="29550874" version="1" timestamp="2009-01-04T12:59:43Z" uid="64977" user="CLoeser" changeset="728535">
    <nd ref="325697785"/>
    <nd ref="325697786"/>
    <nd ref="325697787"/>
    <nd ref="325697788"/>
    <nd ref="325697790"/>
    <nd ref="325697791"/>
    <nd ref="325697792"/>
    <nd ref="325697793"/>
    <nd ref="325697794"/>
    <nd ref="325697795"/>
    <nd ref="325697797"/>
    <nd ref="325697798"/>
    <nd ref="325697799"/>
    <nd ref="325697800"/>
    <nd ref="325697801"/>
    <nd ref="325697802"/>
    <nd ref="325697803"/>
    <nd ref="325697804"/>
    <nd ref="325697806"/>
    <nd ref="325697807"/>
    <nd ref="325697808"/>
    <nd ref="325697809"/>
    <nd ref="325697810"/>
    <tag k="created_by" v="Potlatch 0.10f"/>
  </way>
  <way id="29550874" version="2" timestamp="2009-01-04T12:59:54Z" uid="64977" user="CLoeser" changeset="728535">
    <nd ref="325697785"/>
    <nd ref="325697786"/>
    <nd ref="325697787"/>
    <nd ref="325697788"/>
    <nd ref="325697790"/>
    <nd ref="325697791"/>
    <nd ref="325697792"/>
    <nd ref="325697793"/>
    <nd ref="325697794"/>
    <nd ref="325697795"/>
    <nd ref="325697797"/>
    <nd ref="325697798"/>
    <nd ref="325697799"/>
    <nd ref="325697800"/>
    <nd ref="325697801"/>
    <nd ref="325697802"/>
    <nd ref="325697803"/>
    <nd ref="325697804"/>
    <nd ref="325697806"/>
    <nd ref="325697807"/>
    <nd ref="325697808"/>
    <nd ref="325697809"/>
    <nd ref="325697810"/>
    <tag k="created_by" v="Potlatch 0.10f"/>
  </way>
  <way id="29550874" version="3" timestamp="2009-01-04T13:00:45Z" uid="64977" user="CLoeser" changeset="728535">
    <nd ref="325698149"/>
    <nd ref="325697786"/>
    <nd ref="325697787"/>
    <nd ref="325697788"/>
    <nd ref="325697790"/>
    <nd ref="325697791"/>
    <nd ref="325697792"/>
    <nd ref="325697793"/>
    <nd ref="325697794"/>
    <nd ref="325697795"/>
    <nd ref="325697797"/>
    <nd ref="325697798"/>
    <nd ref="325697799"/>
    <nd ref="325697800"/>
    <nd ref="325697801"/>
    <nd ref="325697802"/>
    <nd ref="325697803"/>
    <nd ref="325697804"/>
    <nd ref="325697806"/>
    <nd ref="325697807"/>
    <nd ref="325697808"/>
    <nd ref="325697809"/>
    <nd ref="325697810"/>
    <nd ref="325698154"/>
    <nd ref="325698155"/>
    <nd ref="325698156"/>
    <nd ref="325698157"/>
    <nd ref="325698149"/>
    <tag k="created_by" v="Potlatch 0.10f"/>
    <tag k="description" v="Totalreservat"/>
    <tag k="natural" v="wood"/>
  </way>
  <way id="29550874" version="4" timestamp="2009-01-04T13:42:59Z" uid="64977" user="CLoeser" changeset="728535">
    <nd ref="325698149"/>
    <nd ref="325697786"/>
    <nd ref="325697787"/>
    <nd ref="325697788"/>
    <nd ref="325697790"/>
    <nd ref="325697791"/>
    <nd ref="325697792"/>
    <nd ref="325697793"/>
    <nd ref="325697794"/>
    <nd ref="325697795"/>
    <nd ref="325697797"/>
    <nd ref="325697798"/>
    <nd ref="325697799"/>
    <nd ref="325697800"/>
    <nd ref="325697801"/>
    <nd ref="325697802"/>
    <nd ref="325697803"/>
    <nd ref="325697804"/>
    <nd ref="325697806"/>
    <nd ref="325697807"/>
    <nd ref="325697808"/>
    <nd ref="325697809"/>
    <nd ref="325697810"/>
    <nd ref="325698154"/>
    <nd ref="325698155"/>
    <nd ref="325698156"/>
    <nd ref="325698157"/>
    <nd ref="325698149"/>
    <tag k="created_by" v="Potlatch 0.10f"/>
    <tag k="description" v="Totalreservat"/>
    <tag k="name" v="Elisenhain"/>
    <tag k="natural" v="wood"/>
  </way>
  <way id="29550874" version="5" timestamp="2009-01-18T13:01:29Z" uid="20867" user="Wolef" changeset="805562">
    <nd ref="325698149"/>
    <nd ref="325697786"/>
    <nd ref="325697787"/>
    <nd ref="325697788"/>
    <nd ref="325697790"/>
    <nd ref="325697791"/>
    <nd ref="325697792"/>
    <nd ref="325697793"/>
    <nd ref="325697794"/>
    <nd ref="325697795"/>
    <nd ref="325697797"/>
    <nd ref="325697798"/>
    <nd ref="325697799"/>
    <nd ref="325697800"/>
    <nd ref="325697801"/>
    <nd ref="325697802"/>
    <nd ref="325697803"/>
    <nd ref="325697804"/>
    <nd ref="325697806"/>
    <nd ref="325697807"/>
    <nd ref="325697808"/>
    <nd ref="325697809"/>
    <nd ref="325697810"/>
    <nd ref="325698154"/>
    <nd ref="325698155"/>
    <nd ref="325698156"/>
    <nd ref="325698157"/>
    <nd ref="325698149"/>
    <tag k="created_by" v="Potlatch 0.10f"/>
    <tag k="description" v="Totalreservat"/>
    <tag k="leisure" v="nature_reserve"/>
    <tag k="name" v="Elisenhain"/>
    <tag k="natural" v="wood"/>
  </way>
  <way id="29550874" version="6" timestamp="2009-09-26T15:22:34Z" uid="139978" user="albrechtstark" changeset="2642484">
    <nd ref="325698149"/>
    <nd ref="325697786"/>
    <nd ref="203588951"/>
    <nd ref="203588954"/>
    <nd ref="325697790"/>
    <nd ref="203588972"/>
    <nd ref="325697792"/>
    <nd ref="325697793"/>
    <nd ref="203588986"/>
    <nd ref="325697795"/>
    <nd ref="325697797"/>
    <nd ref="203589002"/>
    <nd ref="203589837"/>
    <nd ref="364960021"/>
    <nd ref="325697801"/>
    <nd ref="203589018"/>
    <nd ref="325697803"/>
    <nd ref="203589028"/>
    <nd ref="203589034"/>
    <nd ref="203589037"/>
    <nd ref="325697808"/>
    <nd ref="364070325"/>
    <nd ref="203589049"/>
    <nd ref="364070512"/>
    <nd ref="364070511"/>
    <nd ref="203589066"/>
    <nd ref="325698157"/>
    <nd ref="325698149"/>
    <tag k="description" v="Totalreservat"/>
    <tag k="leisure" v="nature_reserve"/>
    <tag k="name" v="Elisenhain"/>
    <tag k="natural" v="wood"/>
  </way>
  <way id="29550874" version="7" timestamp="2009-11-17T19:54:25Z" uid="125718" user="Fabi2" changeset="3144599">
    <nd ref="325698149"/>
    <nd ref="325697786"/>
    <nd ref="203588951"/>
    <nd ref="203588954"/>
    <nd ref="325697790"/>
    <nd ref="203588972"/>
    <nd ref="325697792"/>
    <nd ref="325697793"/>
    <nd ref="203588986"/>
    <nd ref="325697795"/>
    <nd ref="325697797"/>
    <nd ref="203589002"/>
    <nd ref="203589837"/>
    <nd ref="364960021"/>
    <nd ref="325697801"/>
    <nd ref="203589018"/>
    <nd ref="325697803"/>
    <nd ref="203589028"/>
    <nd ref="203589034"/>
    <nd ref="203589037"/>
    <nd ref="325697808"/>
    <nd ref="364070325"/>
    <nd ref="203589049"/>
    <nd ref="364070512"/>
    <nd ref="364070511"/>
    <nd ref="203589066"/>
    <nd ref="325698157"/>
    <nd ref="325698149"/>
    <tag k="description" v="Totalreservat"/>
    <tag k="leisure" v="nature_reserve"/>
    <tag k="name" v="Elisenhain"/>
    <tag k="natural" v="wood"/>
    <tag k="woodtype" v="100 fagus"/>
  </way>
  <way id="29550921" version="3" timestamp="2010-02-15T05:21:00Z" uid="74617" user="JohnSmith" changeset="3880269">
    <nd ref="268564077"/>
    <nd ref="325697968"/>
    <nd ref="324926509"/>
    <nd ref="268564033"/>
    <tag k="highway" v="residential"/>
    <tag k="maxspeed" v="50"/>
    <tag k="name" v="Nymphaea Street"/>
  </way>
  <way id="29550921" version="4" timestamp="2012-01-18T02:08:18Z" uid="147510" user="woodpeck_fixbot" changeset="10423581">
    <nd ref="268564077"/>
    <nd ref="325697968"/>
    <nd ref="324926509"/>
    <nd ref="268564033"/>
    <tag k="highway" v="residential"/>
    <tag k="name" v="Nymphaea Street"/>
  </way>
</osm>
