<?xml version='1.0' encoding='UTF-8'?>
<osm version="0.6" generator="libosmium/2.20.0">
  <way id="29553122" version="3" timestamp="2009-10-13T23:13:44Z" uid="36809" user="pfoten_weg_!_" changeset="2841207">
    <nd ref="325706405"/>
    <nd ref="325706157"/>
    <nd ref="325706158"/>
    <nd ref="325705226"/>
    <tag k="name" v="Belvedere"/>
    <tag k="piste:difficulty" v="easy"/>
    <tag k="piste:type" v="downhill"/>
  </way>
  <way id="29553122" version="4" timestamp="2011-03-27T14:11:44Z" uid="230707" user="stanton" changeset="7686494"/>
  <way id="29553794" version="5" timestamp="2010-02-15T05:21:03Z" uid="74617" user="JohnSmith" changeset="3880269">
    <nd ref="325711653"/>
    <nd ref="325712321"/>
    <tag k="highway" v="residential"/>
    <tag k="maxspeed" v="50"/>
    <tag k="name" v="South Pine Road"/>
    <tag k="oneway" v="yes"/>
  </way>
  <way id="29553794" version="6" timestamp="2012-01-18T02:08:46Z" uid="147510" user="woodpeck_fixbot" changeset="10423581">
    <nd ref="325711653"/>
    <nd ref="325712321"/>
    <tag k="highway" v="residential"/>
    <tag k="name" v="South Pine Road"/>
    <tag k="oneway" v="yes"/>
  </way>
  <way id="29553802" version="3" timestamp="2010-07-21T09:21:15Z" uid="64977" user="CLoeser" changeset="5277307">
    <nd ref="827253521"/>
    <nd ref="827253522"/>
    <nd ref="827253523"/>
    <nd ref="325711886"/>
    <nd ref="325711884"/>
    <nd ref="325711883"/>
    <nd ref="325711882"/>
    <nd ref="325711881"/>
    <nd ref="322760490"/>
    <nd ref="322760489"/>
    <nd ref="325711894"/>
    <tag k="name" v="Neufelder Wettern"/>
    <tag k="source" v="LandSat"/>
    <tag k="waterway" v="drain"/>
  </way>
  <way id="29553802" version="4" timestamp="2011-05-06T06:04:50Z" uid="161619" user="FvGordon" changeset="8062605">
    <nd ref="827253521"/>
    <nd ref="827253522"/>
    <nd ref="827253523"/>
    <nd ref="1274032217"/>
    <tag k="name" v="Neufelder Wettern"/>
    <tag k="source" v="LandSat"/>
    <tag k="waterway" v="drain"/>
  </way>
  <way id="29553896" version="1" timestamp="2009-01-04T13:40:15Z" uid="64977" user="CLoeser" changeset="728535">
    <nd ref="325712310"/>
    <nd ref="325712313"/>
    <tag k="created_by" v="Potlatch 0.10f"/>
  </way>
  <way id="29553896" version="2" timestamp="2009-01-04T13:42:15Z" uid="64977" user="CLoeser" changeset="728535"/>
  <way id="29553903" version="4" timestamp="2010-02-15T05:21:03Z" uid="74617" user="JohnSmith" changeset="3880269">
    <nd ref="120469722"/>
    <nd ref="325712308"/>
    <nd ref="325711653"/>
    <tag k="highway" v="residential"/>
    <tag k="maxspeed" v="50"/>
    <tag k="name" v="Montague Court"/>
    <tag k="oneway" v="yes"/>
  </way>
  <way id="29553903" version="5" timestamp="2012-01-18T02:08:48Z" uid="147510" user="woodpeck_fixbot" changeset="10423581">
    <nd ref="120469722"/>
    <nd ref="325712308"/>
    <nd ref="325711653"/>
    <tag k="highway" v="residential"/>
    <tag k="name" v="Montague Court"/>
    <tag k="oneway" v="yes"/>
  </way>
  <way id="29553979" version="1" timestamp="2009-01-04T13:41:11Z" uid="64977" user="CLoeser" changeset="728535">
    <nd ref="325712440"/>
    <nd ref="325712443"/>
    <tag k="created_by" v="Potlatch 0.10f"/>
  </way>
  <way id="29553979" version="2" timestamp="2009-01-04T13:42:06Z" uid="64977" user="CLoeser" changeset="728535"/>
</osm>
