<?xml version='1.0' encoding='UTF-8'?>
<osm version="0.6" generator="libosmium/2.20.0">
  <way id="29573068" version="12" timestamp="2009-01-26T11:59:49Z" uid="46862" user="Mayer" changeset="838707">
    <nd ref="325887291"/>
    <nd ref="325874790"/>
    <nd ref="325891127"/>
    <nd ref="325891131"/>
    <nd ref="325891134"/>
    <nd ref="325874795"/>
    <nd ref="325885652"/>
    <nd ref="325887291"/>
    <tag k="addr:housenumber" v="7"/>
    <tag k="addr:postcode" v="99423"/>
    <tag k="addr:street" v="Trierer Straße"/>
    <tag k="amenity" v="pup"/>
    <tag k="building" v="yes"/>
    <tag k="created_by" v="Potlatch 0.10f"/>
    <tag k="name" v="Zum Falken"/>
  </way>
  <way id="29573068" version="13" timestamp="2009-01-26T12:00:10Z" uid="46862" user="Mayer" changeset="838707">
    <nd ref="325887291"/>
    <nd ref="325874790"/>
    <nd ref="325891127"/>
    <nd ref="325891131"/>
    <nd ref="325891134"/>
    <nd ref="325874795"/>
    <nd ref="325885652"/>
    <nd ref="325887291"/>
    <tag k="addr:housenumber" v="7"/>
    <tag k="addr:postcode" v="99423"/>
    <tag k="addr:street" v="Trierer Straße"/>
    <tag k="amenity" v="pup"/>
    <tag k="building" v="yes"/>
    <tag k="created_by" v="Potlatch 0.10f"/>
    <tag k="name" v="Zum Falken"/>
  </way>
  <way id="29573068" version="14" timestamp="2009-01-26T12:00:46Z" uid="46862" user="Mayer" changeset="838707">
    <nd ref="325887291"/>
    <nd ref="325874790"/>
    <nd ref="325891127"/>
    <nd ref="325891131"/>
    <nd ref="325891134"/>
    <nd ref="325874795"/>
    <nd ref="325885652"/>
    <nd ref="325887291"/>
    <tag k="addr:housenumber" v="7"/>
    <tag k="addr:postcode" v="99423"/>
    <tag k="addr:street" v="Trierer Straße"/>
    <tag k="amenity" v="pup"/>
    <tag k="building" v="yes"/>
    <tag k="created_by" v="Potlatch 0.10f"/>
    <tag k="name" v="Zum Falken"/>
  </way>
  <way id="29573068" version="15" timestamp="2009-02-01T19:45:18Z" uid="6975" user="ulfl" changeset="27333">
    <nd ref="325887291"/>
    <nd ref="325874790"/>
    <nd ref="325891127"/>
    <nd ref="325891131"/>
    <nd ref="325891134"/>
    <nd ref="325874795"/>
    <nd ref="325885652"/>
    <nd ref="325887291"/>
    <tag k="addr:housenumber" v="7"/>
    <tag k="addr:postcode" v="99423"/>
    <tag k="addr:street" v="Trierer Straße"/>
    <tag k="amenity" v="pub"/>
    <tag k="building" v="yes"/>
    <tag k="name" v="Zum Falken"/>
  </way>
  <way id="29573068" version="16" timestamp="2010-12-26T16:30:45Z" uid="5359" user="user_5359" changeset="6769666">
    <nd ref="325887291"/>
    <nd ref="325874790"/>
    <nd ref="325891127"/>
    <nd ref="325891131"/>
    <nd ref="325891134"/>
    <nd ref="325874795"/>
    <nd ref="325885652"/>
    <nd ref="325887291"/>
    <tag k="addr:city" v="Weimar"/>
    <tag k="addr:country" v="DE"/>
    <tag k="addr:housenumber" v="7"/>
    <tag k="addr:postcode" v="99423"/>
    <tag k="addr:street" v="Trierer Straße"/>
    <tag k="amenity" v="pub"/>
    <tag k="building" v="yes"/>
    <tag k="name" v="Zum Falken"/>
  </way>
  <way id="29573418" version="2" timestamp="2009-02-01T20:15:01Z" uid="6975" user="ulfl" changeset="27333">
    <nd ref="320552815"/>
    <nd ref="325889466"/>
    <nd ref="321527220"/>
    <tag k="highway" v="unclassified"/>
  </way>
  <way id="29573418" version="3" timestamp="2010-02-27T14:31:07Z" uid="91056" user="Yarl" changeset="3988990"/>
</osm>
