<?xml version='1.0' encoding='UTF-8'?>
<osm version="0.6" generator="libosmium/2.20.0">
  <way id="29597234" version="4" timestamp="2009-11-02T00:15:26Z" uid="20587" user="balrog-kun" changeset="3012820">
    <nd ref="213636697"/>
    <nd ref="32063370"/>
    <nd ref="32063368"/>
    <nd ref="271132889"/>
    <nd ref="283659899"/>
    <nd ref="29783003"/>
    <nd ref="32063367"/>
    <nd ref="29783004"/>
    <nd ref="32063434"/>
    <nd ref="32063364"/>
    <nd ref="213610666"/>
    <tag k="highway" v="primary"/>
    <tag k="lanes" v="2"/>
    <tag k="name" v="Aleja generała Władysława Andersa"/>
    <tag k="oneway" v="yes"/>
    <tag k="ref" v="79"/>
  </way>
  <way id="29597234" version="5" timestamp="2010-09-29T22:37:17Z" uid="256858" user="lukeeu" changeset="5916147">
    <nd ref="213636697"/>
    <nd ref="32063370"/>
    <nd ref="32063368"/>
    <nd ref="271132889"/>
    <nd ref="931130515"/>
    <nd ref="283659899"/>
    <nd ref="931130340"/>
    <nd ref="931130440"/>
    <nd ref="931130169"/>
    <nd ref="29783003"/>
    <nd ref="931130420"/>
    <nd ref="32063367"/>
    <nd ref="29783004"/>
    <nd ref="32063434"/>
    <nd ref="32063364"/>
    <nd ref="213610666"/>
    <tag k="highway" v="primary"/>
    <tag k="lanes" v="2"/>
    <tag k="name" v="Aleja generała Władysława Andersa"/>
    <tag k="oneway" v="yes"/>
    <tag k="ref" v="79"/>
  </way>
  <way id="29597234" version="6" timestamp="2010-10-25T22:01:53Z" uid="164910" user="ppece" changeset="6177931">
    <nd ref="213636697"/>
    <nd ref="965423838"/>
    <nd ref="32063370"/>
    <nd ref="32063368"/>
    <nd ref="271132889"/>
    <nd ref="931130515"/>
    <nd ref="283659899"/>
    <nd ref="931130340"/>
    <nd ref="931130440"/>
    <nd ref="931130169"/>
    <nd ref="29783003"/>
    <nd ref="931130420"/>
    <nd ref="32063367"/>
    <nd ref="29783004"/>
    <nd ref="32063434"/>
    <nd ref="32063364"/>
    <nd ref="213610666"/>
    <tag k="highway" v="primary"/>
    <tag k="lanes" v="2"/>
    <tag k="name" v="Aleja generała Władysława Andersa"/>
    <tag k="oneway" v="yes"/>
    <tag k="ref" v="79"/>
  </way>
  <way id="29597234" version="7" timestamp="2010-10-26T05:14:47Z" uid="164910" user="ppece" changeset="6179047">
    <nd ref="213636697"/>
    <nd ref="965423838"/>
    <nd ref="32063370"/>
    <nd ref="965773580"/>
    <nd ref="32063368"/>
    <nd ref="965773401"/>
    <nd ref="271132889"/>
    <nd ref="965773287"/>
    <nd ref="931130515"/>
    <nd ref="283659899"/>
    <nd ref="931130340"/>
    <nd ref="931130440"/>
    <nd ref="931130169"/>
    <nd ref="29783003"/>
    <nd ref="931130420"/>
    <nd ref="32063367"/>
    <nd ref="29783004"/>
    <nd ref="32063434"/>
    <nd ref="32063364"/>
    <nd ref="213610666"/>
    <tag k="highway" v="primary"/>
    <tag k="lanes" v="2"/>
    <tag k="name" v="Aleja generała Władysława Andersa"/>
    <tag k="oneway" v="yes"/>
    <tag k="ref" v="79"/>
  </way>
  <way id="29597234" version="8" timestamp="2011-07-24T21:53:30Z" uid="452548" user="yerry_b" changeset="8821756">
    <nd ref="213636697"/>
    <nd ref="965423838"/>
    <nd ref="32063370"/>
    <nd ref="965773580"/>
    <nd ref="32063368"/>
    <nd ref="965773401"/>
    <nd ref="271132889"/>
    <nd ref="965773287"/>
    <nd ref="931130515"/>
    <nd ref="283659899"/>
    <nd ref="931130340"/>
    <nd ref="931130440"/>
    <nd ref="931130169"/>
    <nd ref="29783003"/>
    <nd ref="931130420"/>
    <nd ref="32063367"/>
    <nd ref="29783004"/>
    <nd ref="32063434"/>
    <nd ref="32063364"/>
    <nd ref="213610666"/>
    <tag k="highway" v="primary"/>
    <tag k="lanes" v="2"/>
    <tag k="name" v="Aleja Generała Władysława Andersa"/>
    <tag k="oneway" v="yes"/>
    <tag k="ref" v="79"/>
  </way>
  <way id="29597312" version="3" timestamp="2009-11-02T00:15:26Z" uid="20587" user="balrog-kun" changeset="3012820">
    <nd ref="213610661"/>
    <nd ref="32063436"/>
    <nd ref="32063433"/>
    <nd ref="271132890"/>
    <nd ref="32063431"/>
    <nd ref="283659857"/>
    <nd ref="32063426"/>
    <nd ref="32063425"/>
    <nd ref="32063423"/>
    <tag k="highway" v="primary"/>
    <tag k="lanes" v="2"/>
    <tag k="name" v="Aleja generała Władysława Andersa"/>
    <tag k="oneway" v="yes"/>
    <tag k="ref" v="79"/>
  </way>
  <way id="29597312" version="4" timestamp="2010-09-29T22:37:27Z" uid="256858" user="lukeeu" changeset="5916147">
    <nd ref="213610661"/>
    <nd ref="931129370"/>
    <nd ref="32063436"/>
    <nd ref="32063433"/>
    <nd ref="271132890"/>
    <nd ref="931130338"/>
    <nd ref="32063431"/>
    <nd ref="931130020"/>
    <nd ref="931129535"/>
    <nd ref="931129852"/>
    <nd ref="283659857"/>
    <nd ref="931129762"/>
    <nd ref="32063426"/>
    <nd ref="32063425"/>
    <nd ref="32063423"/>
    <tag k="highway" v="primary"/>
    <tag k="lanes" v="2"/>
    <tag k="name" v="Aleja generała Władysława Andersa"/>
    <tag k="oneway" v="yes"/>
    <tag k="ref" v="79"/>
  </way>
  <way id="29597312" version="5" timestamp="2010-10-13T22:59:09Z" uid="256858" user="lukeeu" changeset="6034724">
    <nd ref="213610661"/>
    <nd ref="931129370"/>
    <nd ref="32063436"/>
    <nd ref="32063433"/>
    <nd ref="947387307"/>
    <nd ref="271132890"/>
    <nd ref="931130338"/>
    <nd ref="32063431"/>
    <nd ref="931130020"/>
    <nd ref="931129535"/>
    <nd ref="931129852"/>
    <nd ref="283659857"/>
    <nd ref="931129762"/>
    <nd ref="32063426"/>
    <nd ref="32063425"/>
    <nd ref="32063423"/>
    <tag k="highway" v="primary"/>
    <tag k="lanes" v="2"/>
    <tag k="name" v="Aleja generała Władysława Andersa"/>
    <tag k="oneway" v="yes"/>
    <tag k="ref" v="79"/>
  </way>
  <way id="29597312" version="6" timestamp="2010-10-25T22:01:38Z" uid="164910" user="ppece" changeset="6177931">
    <nd ref="213610661"/>
    <nd ref="931129370"/>
    <nd ref="32063436"/>
    <nd ref="32063433"/>
    <nd ref="947387307"/>
    <nd ref="271132890"/>
    <nd ref="931130338"/>
    <nd ref="32063431"/>
    <nd ref="931130020"/>
    <nd ref="931129535"/>
    <nd ref="931129852"/>
    <nd ref="283659857"/>
    <nd ref="931129762"/>
    <nd ref="32063426"/>
    <nd ref="32063425"/>
    <nd ref="965424245"/>
    <nd ref="32063423"/>
    <tag k="highway" v="primary"/>
    <tag k="lanes" v="2"/>
    <tag k="name" v="Aleja generała Władysława Andersa"/>
    <tag k="oneway" v="yes"/>
    <tag k="ref" v="79"/>
  </way>
  <way id="29597312" version="7" timestamp="2010-10-26T05:14:59Z" uid="164910" user="ppece" changeset="6179047">
    <nd ref="213610661"/>
    <nd ref="931129370"/>
    <nd ref="32063436"/>
    <nd ref="32063433"/>
    <nd ref="947387307"/>
    <nd ref="271132890"/>
    <nd ref="931130338"/>
    <nd ref="32063431"/>
    <nd ref="931130020"/>
    <nd ref="931129535"/>
    <nd ref="931129852"/>
    <nd ref="283659857"/>
    <nd ref="931129762"/>
    <nd ref="965773678"/>
    <nd ref="32063426"/>
    <nd ref="32063425"/>
    <nd ref="965424245"/>
    <nd ref="32063423"/>
    <tag k="highway" v="primary"/>
    <tag k="lanes" v="2"/>
    <tag k="name" v="Aleja generała Władysława Andersa"/>
    <tag k="oneway" v="yes"/>
    <tag k="ref" v="79"/>
  </way>
  <way id="29597312" version="8" timestamp="2011-07-24T21:53:31Z" uid="452548" user="yerry_b" changeset="8821756">
    <nd ref="213610661"/>
    <nd ref="931129370"/>
    <nd ref="32063436"/>
    <nd ref="32063433"/>
    <nd ref="947387307"/>
    <nd ref="271132890"/>
    <nd ref="931130338"/>
    <nd ref="32063431"/>
    <nd ref="931130020"/>
    <nd ref="931129535"/>
    <nd ref="931129852"/>
    <nd ref="283659857"/>
    <nd ref="931129762"/>
    <nd ref="965773678"/>
    <nd ref="32063426"/>
    <nd ref="32063425"/>
    <nd ref="965424245"/>
    <nd ref="32063423"/>
    <tag k="highway" v="primary"/>
    <tag k="lanes" v="2"/>
    <tag k="name" v="Aleja Generała Władysława Andersa"/>
    <tag k="oneway" v="yes"/>
    <tag k="ref" v="79"/>
  </way>
  <way id="29597312" version="9" timestamp="2012-02-06T14:35:25Z" uid="472616" user="spexpl" changeset="10603389">
    <nd ref="213610661"/>
    <nd ref="931129370"/>
    <nd ref="32063436"/>
    <nd ref="32063433"/>
    <nd ref="947387307"/>
    <nd ref="271132890"/>
    <nd ref="931130338"/>
    <nd ref="32063431"/>
    <nd ref="931130020"/>
    <nd ref="931129535"/>
    <nd ref="931129852"/>
    <nd ref="283659857"/>
    <tag k="highway" v="primary"/>
    <tag k="lanes" v="2"/>
    <tag k="name" v="Aleja Generała Władysława Andersa"/>
    <tag k="oneway" v="yes"/>
    <tag k="ref" v="79"/>
  </way>
</osm>
