<?xml version='1.0' encoding='UTF-8'?>
<osm version="0.6" generator="libosmium/2.20.0">
  <way id="29627918" version="1" timestamp="2009-01-04T23:22:57Z" uid="55964" user="Evan Sebire" changeset="736131">
    <nd ref="326220358"/>
    <nd ref="325737626"/>
    <tag k="created_by" v="Merkaartor 0.13"/>
    <tag k="highway" v="residential"/>
    <tag k="name" v="Greenlees Court"/>
  </way>
  <way id="29627918" version="2" timestamp="2009-12-02T05:31:44Z" uid="1679" user="andrewpmk" changeset="3269517">
    <nd ref="326220358"/>
    <nd ref="325737626"/>
    <tag k="highway" v="residential"/>
    <tag k="name" v="Greenlees Court"/>
  </way>
  <way id="29627918" version="3" timestamp="2010-07-08T19:40:32Z" uid="74617" user="JohnSmith" changeset="5168688">
    <nd ref="326220358"/>
    <nd ref="325737626"/>
    <tag k="highway" v="residential"/>
    <tag k="maxspeed" v="50"/>
    <tag k="maxspeed:source" v="default residential speed limit in Australia"/>
    <tag k="name" v="Greenlees Court"/>
  </way>
  <way id="29627918" version="4" timestamp="2012-01-18T02:09:13Z" uid="147510" user="woodpeck_fixbot" changeset="10423581">
    <nd ref="326220358"/>
    <nd ref="325737626"/>
    <tag k="highway" v="residential"/>
    <tag k="name" v="Greenlees Court"/>
  </way>
  <way id="29627933" version="1" timestamp="2009-01-04T23:22:59Z" uid="55964" user="Evan Sebire" changeset="736131">
    <nd ref="326220379"/>
    <nd ref="326220388"/>
    <nd ref="326220395"/>
    <nd ref="326220404"/>
    <tag k="created_by" v="Merkaartor 0.13"/>
    <tag k="highway" v="residential"/>
    <tag k="name" v="Worcester Street"/>
  </way>
  <way id="29627933" version="2" timestamp="2009-11-24T22:29:16Z" uid="55964" user="Evan Sebire" changeset="3208438">
    <nd ref="326220379"/>
    <nd ref="326220388"/>
    <nd ref="326220395"/>
    <nd ref="326220404"/>
    <tag k="highway" v="residential"/>
    <tag k="name" v="Worcester Street"/>
  </way>
  <way id="29627933" version="3" timestamp="2010-07-08T19:40:45Z" uid="74617" user="JohnSmith" changeset="5168688">
    <nd ref="326220379"/>
    <nd ref="326220388"/>
    <nd ref="326220395"/>
    <nd ref="326220404"/>
    <tag k="highway" v="residential"/>
    <tag k="maxspeed" v="50"/>
    <tag k="maxspeed:source" v="default residential speed limit in Australia"/>
    <tag k="name" v="Worcester Street"/>
  </way>
  <way id="29627933" version="4" timestamp="2012-01-18T02:09:14Z" uid="147510" user="woodpeck_fixbot" changeset="10423581">
    <nd ref="326220379"/>
    <nd ref="326220388"/>
    <nd ref="326220395"/>
    <nd ref="326220404"/>
    <tag k="highway" v="residential"/>
    <tag k="name" v="Worcester Street"/>
  </way>
</osm>
