<?xml version='1.0' encoding='UTF-8'?>
<osm version="0.6" generator="libosmium/2.20.0">
  <way id="29678565" version="3" timestamp="2010-03-28T00:44:33Z" uid="20587" user="balrog-kun" changeset="4250871">
    <nd ref="123105872"/>
    <nd ref="123105875"/>
    <tag k="bridge" v="yes"/>
    <tag k="highway" v="primary"/>
    <tag k="layer" v="1"/>
    <tag k="name" v="South Imperial Highway"/>
    <tag k="name_1" v="Richard M Nixon Highway"/>
    <tag k="name_2" v="State Highway 90"/>
    <tag k="ref" v="CA 90"/>
    <tag k="tiger:cfcc" v="A21"/>
    <tag k="tiger:county" v="Orange, CA"/>
    <tag k="tiger:name_base" v="Imperial"/>
    <tag k="tiger:name_base_1" v="Richard M Nixon"/>
    <tag k="tiger:name_base_2" v="State Highway 90"/>
    <tag k="tiger:name_direction_prefix" v="S"/>
    <tag k="tiger:name_type" v="Hwy"/>
    <tag k="tiger:name_type_1" v="Hwy"/>
    <tag k="tiger:reviewed" v="no"/>
    <tag k="tiger:separated" v="no"/>
    <tag k="tiger:source" v="tiger_import_dch_v0.6_20070809"/>
    <tag k="tiger:tlid" v="144116536:144116541:143996438:144079890:144079892:144128762:144128765:144128771:144128774:144128776:144128777:144128780:144128782:144128783:144128785:144128786:144423695:144413754:144138246:144032437:144119856"/>
  </way>
  <way id="29678565" version="4" timestamp="2010-05-12T13:08:57Z" uid="82317" user="AM909" changeset="4677059">
    <nd ref="122605468"/>
    <nd ref="123105875"/>
    <tag k="bridge" v="yes"/>
    <tag k="highway" v="primary"/>
    <tag k="layer" v="1"/>
    <tag k="name" v="South Imperial Highway"/>
    <tag k="name_1" v="Richard M Nixon Highway"/>
    <tag k="ref" v="CA 90"/>
    <tag k="tiger:cfcc" v="A21"/>
    <tag k="tiger:county" v="Orange, CA"/>
    <tag k="tiger:name_base" v="Imperial"/>
    <tag k="tiger:name_base_1" v="Richard M Nixon"/>
    <tag k="tiger:name_base_2" v="State Highway 90"/>
    <tag k="tiger:name_direction_prefix" v="S"/>
    <tag k="tiger:name_type" v="Hwy"/>
    <tag k="tiger:name_type_1" v="Hwy"/>
    <tag k="tiger:separated" v="no"/>
    <tag k="tiger:source" v="tiger_import_dch_v0.6_20070809"/>
    <tag k="tiger:tlid" v="144116536:144116541:143996438:144079890:144079892:144128762:144128765:144128771:144128774:144128776:144128777:144128780:144128782:144128783:144128785:144128786:144423695:144413754:144138246:144032437:144119856"/>
  </way>
  <way id="29678565" version="5" timestamp="2010-07-14T03:30:37Z" uid="82317" user="AM909" changeset="5213772">
    <nd ref="122605468"/>
    <nd ref="123105875"/>
    <tag k="bridge" v="yes"/>
    <tag k="highway" v="primary"/>
    <tag k="layer" v="1"/>
    <tag k="name" v="South Imperial Highway"/>
    <tag k="official_name" v="Marina Freeway"/>
    <tag k="ref" v="CA 90"/>
    <tag k="tiger:cfcc" v="A21"/>
    <tag k="tiger:county" v="Orange, CA"/>
    <tag k="tiger:name_base" v="Imperial"/>
    <tag k="tiger:name_base_1" v="Richard M Nixon"/>
    <tag k="tiger:name_base_2" v="State Highway 90"/>
    <tag k="tiger:name_direction_prefix" v="S"/>
    <tag k="tiger:name_type" v="Hwy"/>
    <tag k="tiger:name_type_1" v="Hwy"/>
    <tag k="tiger:separated" v="no"/>
    <tag k="tiger:source" v="tiger_import_dch_v0.6_20070809"/>
    <tag k="tiger:tlid" v="144116536:144116541:143996438:144079890:144079892:144128762:144128765:144128771:144128774:144128776:144128777:144128780:144128782:144128783:144128785:144128786:144423695:144413754:144138246:144032437:144119856"/>
  </way>
  <way id="29678565" version="6" timestamp="2011-01-21T03:29:27Z" uid="82317" user="AM909" changeset="7036724">
    <nd ref="122605468"/>
    <nd ref="123105875"/>
    <tag k="bridge" v="yes"/>
    <tag k="highway" v="primary"/>
    <tag k="layer" v="1"/>
    <tag k="maxspeed" v="40 mph"/>
    <tag k="name" v="Imperial Highway"/>
    <tag k="name:prefix" v="South"/>
    <tag k="official_name" v="Marina Freeway"/>
    <tag k="ref" v="CA 90"/>
    <tag k="source" v="GPS;bing_imagery_0.25m_200601"/>
    <tag k="source:maxspeed" v="survey;image"/>
    <tag k="source_ref:maxspeed" v="AM909_DSCW5658"/>
    <tag k="tiger:cfcc" v="A21"/>
    <tag k="tiger:county" v="Orange, CA"/>
    <tag k="tiger:name_base" v="Imperial"/>
    <tag k="tiger:name_base_1" v="Richard M Nixon"/>
    <tag k="tiger:name_base_2" v="State Highway 90"/>
    <tag k="tiger:name_direction_prefix" v="S"/>
    <tag k="tiger:name_type" v="Hwy"/>
    <tag k="tiger:name_type_1" v="Hwy"/>
    <tag k="tiger:separated" v="no"/>
    <tag k="tiger:source" v="tiger_import_dch_v0.6_20070809"/>
    <tag k="tiger:tlid" v="144116536:144116541:143996438:144079890:144079892:144128762:144128765:144128771:144128774:144128776:144128777:144128780:144128782:144128783:144128785:144128786:144423695:144413754:144138246:144032437:144119856"/>
  </way>
  <way id="29678565" version="7" timestamp="2011-07-29T11:06:07Z" uid="207745" user="NE2" changeset="8862241">
    <nd ref="122605468"/>
    <nd ref="123105875"/>
    <tag k="FIXME" v="dual carriageway"/>
    <tag k="bridge" v="yes"/>
    <tag k="highway" v="trunk"/>
    <tag k="lanes" v="7"/>
    <tag k="layer" v="1"/>
    <tag k="maxspeed" v="40 mph"/>
    <tag k="name" v="Imperial Highway"/>
    <tag k="name:prefix" v="South"/>
    <tag k="note:lanes" v="2 northbound, 3 southbound"/>
    <tag k="official_name" v="Marina Freeway"/>
    <tag k="ref" v="CA 90"/>
    <tag k="source" v="GPS;bing_imagery_0.25m_200601"/>
    <tag k="source:maxspeed" v="survey;image"/>
    <tag k="source_ref:maxspeed" v="AM909_DSCW5658"/>
    <tag k="tiger:cfcc" v="A21"/>
    <tag k="tiger:county" v="Orange, CA"/>
    <tag k="tiger:name_base" v="Imperial"/>
    <tag k="tiger:name_base_1" v="Richard M Nixon"/>
    <tag k="tiger:name_base_2" v="State Highway 90"/>
    <tag k="tiger:name_direction_prefix" v="S"/>
    <tag k="tiger:name_type" v="Hwy"/>
    <tag k="tiger:name_type_1" v="Hwy"/>
    <tag k="tiger:separated" v="no"/>
    <tag k="tiger:source" v="tiger_import_dch_v0.6_20070809"/>
    <tag k="tiger:tlid" v="144116536:144116541:143996438:144079890:144079892:144128762:144128765:144128771:144128774:144128776:144128777:144128780:144128782:144128783:144128785:144128786:144423695:144413754:144138246:144032437:144119856"/>
  </way>
  <way id="29678565" version="8" timestamp="2011-08-02T00:47:43Z" uid="416346" user="Brian@Brea" changeset="8896702">
    <nd ref="122605468"/>
    <nd ref="123105875"/>
    <tag k="FIXME" v="dual carriageway"/>
    <tag k="bridge" v="yes"/>
    <tag k="highway" v="primary"/>
    <tag k="lanes" v="7"/>
    <tag k="layer" v="1"/>
    <tag k="maxspeed" v="40 mph"/>
    <tag k="name" v="Imperial Highway"/>
    <tag k="name:prefix" v="South"/>
    <tag k="note:lanes" v="2 northbound, 3 southbound"/>
    <tag k="official_name" v="Marina Freeway"/>
    <tag k="ref" v="CA 90"/>
    <tag k="source" v="GPS;bing_imagery_0.25m_200601"/>
    <tag k="source:maxspeed" v="survey;image"/>
    <tag k="source_ref:maxspeed" v="AM909_DSCW5658"/>
    <tag k="tiger:cfcc" v="A21"/>
    <tag k="tiger:county" v="Orange, CA"/>
    <tag k="tiger:name_base" v="Imperial"/>
    <tag k="tiger:name_base_1" v="Richard M Nixon"/>
    <tag k="tiger:name_base_2" v="State Highway 90"/>
    <tag k="tiger:name_direction_prefix" v="S"/>
    <tag k="tiger:name_type" v="Hwy"/>
    <tag k="tiger:name_type_1" v="Hwy"/>
    <tag k="tiger:separated" v="no"/>
    <tag k="tiger:source" v="tiger_import_dch_v0.6_20070809"/>
    <tag k="tiger:tlid" v="144116536:144116541:143996438:144079890:144079892:144128762:144128765:144128771:144128774:144128776:144128777:144128780:144128782:144128783:144128785:144128786:144423695:144413754:144138246:144032437:144119856"/>
  </way>
  <way id="29678565" version="9" timestamp="2011-08-07T11:35:35Z" uid="207745" user="NE2" changeset="8945765">
    <nd ref="122605468"/>
    <nd ref="123105875"/>
    <tag k="FIXME" v="dual carriageway"/>
    <tag k="bridge" v="yes"/>
    <tag k="highway" v="trunk"/>
    <tag k="lanes" v="7"/>
    <tag k="layer" v="1"/>
    <tag k="maxspeed" v="40 mph"/>
    <tag k="name" v="Imperial Highway"/>
    <tag k="name:prefix" v="South"/>
    <tag k="note:lanes" v="2 northbound, 3 southbound"/>
    <tag k="official_name" v="Marina Freeway"/>
    <tag k="ref" v="CA 90"/>
    <tag k="source" v="GPS;bing_imagery_0.25m_200601"/>
    <tag k="source:maxspeed" v="survey;image"/>
    <tag k="source_ref:maxspeed" v="AM909_DSCW5658"/>
    <tag k="tiger:cfcc" v="A21"/>
    <tag k="tiger:county" v="Orange, CA"/>
    <tag k="tiger:name_base" v="Imperial"/>
    <tag k="tiger:name_base_1" v="Richard M Nixon"/>
    <tag k="tiger:name_base_2" v="State Highway 90"/>
    <tag k="tiger:name_direction_prefix" v="S"/>
    <tag k="tiger:name_type" v="Hwy"/>
    <tag k="tiger:name_type_1" v="Hwy"/>
    <tag k="tiger:separated" v="no"/>
    <tag k="tiger:source" v="tiger_import_dch_v0.6_20070809"/>
    <tag k="tiger:tlid" v="144116536:144116541:143996438:144079890:144079892:144128762:144128765:144128771:144128774:144128776:144128777:144128780:144128782:144128783:144128785:144128786:144423695:144413754:144138246:144032437:144119856"/>
  </way>
  <way id="29678565" version="10" timestamp="2011-08-07T15:54:15Z" uid="416346" user="Brian@Brea" changeset="8948605">
    <nd ref="122605468"/>
    <nd ref="123105875"/>
    <tag k="FIXME" v="dual carriageway"/>
    <tag k="bridge" v="yes"/>
    <tag k="highway" v="primary"/>
    <tag k="lanes" v="7"/>
    <tag k="layer" v="1"/>
    <tag k="maxspeed" v="40 mph"/>
    <tag k="name" v="Imperial Highway"/>
    <tag k="name:prefix" v="South"/>
    <tag k="note:lanes" v="2 northbound, 3 southbound"/>
    <tag k="official_name" v="Marina Freeway"/>
    <tag k="ref" v="CA 90"/>
    <tag k="source" v="GPS;bing_imagery_0.25m_200601"/>
    <tag k="source:maxspeed" v="survey;image"/>
    <tag k="source_ref:maxspeed" v="AM909_DSCW5658"/>
    <tag k="tiger:cfcc" v="A21"/>
    <tag k="tiger:county" v="Orange, CA"/>
    <tag k="tiger:name_base" v="Imperial"/>
    <tag k="tiger:name_base_1" v="Richard M Nixon"/>
    <tag k="tiger:name_base_2" v="State Highway 90"/>
    <tag k="tiger:name_direction_prefix" v="S"/>
    <tag k="tiger:name_type" v="Hwy"/>
    <tag k="tiger:name_type_1" v="Hwy"/>
    <tag k="tiger:separated" v="no"/>
    <tag k="tiger:source" v="tiger_import_dch_v0.6_20070809"/>
    <tag k="tiger:tlid" v="144116536:144116541:143996438:144079890:144079892:144128762:144128765:144128771:144128774:144128776:144128777:144128780:144128782:144128783:144128785:144128786:144423695:144413754:144138246:144032437:144119856"/>
  </way>
  <way id="29678565" version="11" timestamp="2011-08-07T17:03:14Z" uid="207745" user="NE2" changeset="8949392">
    <nd ref="122605468"/>
    <nd ref="123105875"/>
    <tag k="FIXME" v="dual carriageway"/>
    <tag k="bridge" v="yes"/>
    <tag k="highway" v="trunk"/>
    <tag k="lanes" v="7"/>
    <tag k="layer" v="1"/>
    <tag k="maxspeed" v="40 mph"/>
    <tag k="name" v="Imperial Highway"/>
    <tag k="name:prefix" v="South"/>
    <tag k="note:lanes" v="2 northbound, 3 southbound"/>
    <tag k="official_name" v="Marina Freeway"/>
    <tag k="ref" v="CA 90"/>
    <tag k="source" v="GPS;bing_imagery_0.25m_200601"/>
    <tag k="source:maxspeed" v="survey;image"/>
    <tag k="source_ref:maxspeed" v="AM909_DSCW5658"/>
    <tag k="tiger:cfcc" v="A21"/>
    <tag k="tiger:county" v="Orange, CA"/>
    <tag k="tiger:name_base" v="Imperial"/>
    <tag k="tiger:name_base_1" v="Richard M Nixon"/>
    <tag k="tiger:name_base_2" v="State Highway 90"/>
    <tag k="tiger:name_direction_prefix" v="S"/>
    <tag k="tiger:name_type" v="Hwy"/>
    <tag k="tiger:name_type_1" v="Hwy"/>
    <tag k="tiger:separated" v="no"/>
    <tag k="tiger:source" v="tiger_import_dch_v0.6_20070809"/>
    <tag k="tiger:tlid" v="144116536:144116541:143996438:144079890:144079892:144128762:144128765:144128771:144128774:144128776:144128777:144128780:144128782:144128783:144128785:144128786:144423695:144413754:144138246:144032437:144119856"/>
  </way>
  <way id="29678565" version="12" timestamp="2011-08-09T00:30:47Z" uid="416346" user="Brian@Brea" changeset="8962877">
    <nd ref="122605468"/>
    <nd ref="123105875"/>
    <tag k="FIXME" v="dual carriageway"/>
    <tag k="bridge" v="yes"/>
    <tag k="highway" v="primary"/>
    <tag k="lanes" v="7"/>
    <tag k="layer" v="1"/>
    <tag k="maxspeed" v="40 mph"/>
    <tag k="name" v="Imperial Highway"/>
    <tag k="name:prefix" v="South"/>
    <tag k="note:lanes" v="2 northbound, 3 southbound"/>
    <tag k="official_name" v="Marina Freeway"/>
    <tag k="ref" v="CA 90"/>
    <tag k="source" v="GPS;bing_imagery_0.25m_200601"/>
    <tag k="source:maxspeed" v="survey;image"/>
    <tag k="source_ref:maxspeed" v="AM909_DSCW5658"/>
    <tag k="tiger:cfcc" v="A21"/>
    <tag k="tiger:county" v="Orange, CA"/>
    <tag k="tiger:name_base" v="Imperial"/>
    <tag k="tiger:name_base_1" v="Richard M Nixon"/>
    <tag k="tiger:name_base_2" v="State Highway 90"/>
    <tag k="tiger:name_direction_prefix" v="S"/>
    <tag k="tiger:name_type" v="Hwy"/>
    <tag k="tiger:name_type_1" v="Hwy"/>
    <tag k="tiger:separated" v="no"/>
    <tag k="tiger:source" v="tiger_import_dch_v0.6_20070809"/>
    <tag k="tiger:tlid" v="144116536:144116541:143996438:144079890:144079892:144128762:144128765:144128771:144128774:144128776:144128777:144128780:144128782:144128783:144128785:144128786:144423695:144413754:144138246:144032437:144119856"/>
  </way>
  <way id="29678567" version="5" timestamp="2010-03-28T00:44:33Z" uid="20587" user="balrog-kun" changeset="4250871">
    <nd ref="123105875"/>
    <nd ref="122910028"/>
    <nd ref="123105880"/>
    <nd ref="122661052"/>
    <nd ref="122784094"/>
    <tag k="highway" v="primary"/>
    <tag k="name" v="South Imperial Highway"/>
    <tag k="name_1" v="Richard M Nixon Highway"/>
    <tag k="name_2" v="State Highway 90"/>
    <tag k="ref" v="CA 90"/>
    <tag k="tiger:cfcc" v="A21"/>
    <tag k="tiger:county" v="Orange, CA"/>
    <tag k="tiger:name_base" v="Imperial"/>
    <tag k="tiger:name_base_1" v="Richard M Nixon"/>
    <tag k="tiger:name_base_2" v="State Highway 90"/>
    <tag k="tiger:name_direction_prefix" v="S"/>
    <tag k="tiger:name_type" v="Hwy"/>
    <tag k="tiger:name_type_1" v="Hwy"/>
    <tag k="tiger:reviewed" v="no"/>
    <tag k="tiger:separated" v="no"/>
    <tag k="tiger:source" v="tiger_import_dch_v0.6_20070809"/>
    <tag k="tiger:tlid" v="144116536:144116541:143996438:144079890:144079892:144128762:144128765:144128771:144128774:144128776:144128777:144128780:144128782:144128783:144128785:144128786:144423695:144413754:144138246:144032437:144119856"/>
  </way>
  <way id="29678567" version="6" timestamp="2010-05-12T13:09:00Z" uid="82317" user="AM909" changeset="4677059">
    <nd ref="123105875"/>
    <nd ref="122910028"/>
    <nd ref="123105880"/>
    <nd ref="122661052"/>
    <nd ref="122784094"/>
    <tag k="highway" v="primary"/>
    <tag k="name" v="South Imperial Highway"/>
    <tag k="name_1" v="Richard M Nixon Highway"/>
    <tag k="ref" v="CA 90"/>
    <tag k="tiger:cfcc" v="A21"/>
    <tag k="tiger:county" v="Orange, CA"/>
    <tag k="tiger:name_base" v="Imperial"/>
    <tag k="tiger:name_base_1" v="Richard M Nixon"/>
    <tag k="tiger:name_base_2" v="State Highway 90"/>
    <tag k="tiger:name_direction_prefix" v="S"/>
    <tag k="tiger:name_type" v="Hwy"/>
    <tag k="tiger:name_type_1" v="Hwy"/>
    <tag k="tiger:reviewed" v="no"/>
    <tag k="tiger:separated" v="no"/>
    <tag k="tiger:source" v="tiger_import_dch_v0.6_20070809"/>
    <tag k="tiger:tlid" v="144116536:144116541:143996438:144079890:144079892:144128762:144128765:144128771:144128774:144128776:144128777:144128780:144128782:144128783:144128785:144128786:144423695:144413754:144138246:144032437:144119856"/>
  </way>
  <way id="29678567" version="7" timestamp="2010-07-14T03:30:41Z" uid="82317" user="AM909" changeset="5213772">
    <nd ref="123105875"/>
    <nd ref="816279268"/>
    <nd ref="122910028"/>
    <nd ref="816279210"/>
    <nd ref="816279227"/>
    <nd ref="816279262"/>
    <nd ref="816279288"/>
    <nd ref="123105880"/>
    <nd ref="122661052"/>
    <nd ref="122784094"/>
    <tag k="highway" v="primary"/>
    <tag k="name" v="South Imperial Highway"/>
    <tag k="official_name" v="Marina Freeway"/>
    <tag k="ref" v="CA 90"/>
    <tag k="tiger:cfcc" v="A21"/>
    <tag k="tiger:county" v="Orange, CA"/>
    <tag k="tiger:name_base" v="Imperial"/>
    <tag k="tiger:name_base_1" v="Richard M Nixon"/>
    <tag k="tiger:name_base_2" v="State Highway 90"/>
    <tag k="tiger:name_direction_prefix" v="S"/>
    <tag k="tiger:name_type" v="Hwy"/>
    <tag k="tiger:name_type_1" v="Hwy"/>
    <tag k="tiger:separated" v="no"/>
    <tag k="tiger:source" v="tiger_import_dch_v0.6_20070809"/>
    <tag k="tiger:tlid" v="144116536:144116541:143996438:144079890:144079892:144128762:144128765:144128771:144128774:144128776:144128777:144128780:144128782:144128783:144128785:144128786:144423695:144413754:144138246:144032437:144119856"/>
  </way>
  <way id="29678567" version="8" timestamp="2011-01-21T03:29:10Z" uid="82317" user="AM909" changeset="7036724">
    <nd ref="123105875"/>
    <nd ref="816279268"/>
    <nd ref="122910028"/>
    <tag k="highway" v="primary"/>
    <tag k="maxspeed" v="40 mph"/>
    <tag k="name" v="Imperial Highway"/>
    <tag k="name:prefix" v="South"/>
    <tag k="official_name" v="Marina Freeway"/>
    <tag k="ref" v="CA 90"/>
    <tag k="source" v="GPS;usgs_imagery_2005;survey;image"/>
    <tag k="source:maxspeed" v="survey;image"/>
    <tag k="source_ref" v="AM909_DSCW5660"/>
    <tag k="source_ref:maxspeed" v="AM909_DSCW5658"/>
    <tag k="tiger:cfcc" v="A21"/>
    <tag k="tiger:county" v="Orange, CA"/>
    <tag k="tiger:name_base" v="Imperial"/>
    <tag k="tiger:name_base_1" v="Richard M Nixon"/>
    <tag k="tiger:name_base_2" v="State Highway 90"/>
    <tag k="tiger:name_direction_prefix" v="S"/>
    <tag k="tiger:name_type" v="Hwy"/>
    <tag k="tiger:name_type_1" v="Hwy"/>
    <tag k="tiger:separated" v="no"/>
    <tag k="tiger:source" v="tiger_import_dch_v0.6_20070809"/>
    <tag k="tiger:tlid" v="144116536:144116541:143996438:144079890:144079892:144128762:144128765:144128771:144128774:144128776:144128777:144128780:144128782:144128783:144128785:144128786:144423695:144413754:144138246:144032437:144119856"/>
  </way>
  <way id="29678567" version="9" timestamp="2011-06-20T23:27:02Z" uid="351693" user="ctr112280" changeset="8500282">
    <nd ref="123105875"/>
    <nd ref="816279268"/>
    <nd ref="122910028"/>
    <tag k="highway" v="primary"/>
    <tag k="maxspeed" v="40 mph"/>
    <tag k="name" v="Imperial Highway"/>
    <tag k="name:prefix" v="South"/>
    <tag k="official_name" v="Marina Freeway"/>
    <tag k="ref" v="CA 90"/>
    <tag k="source" v="GPS;usgs_imagery_2005;survey;image"/>
    <tag k="source:maxspeed" v="survey;image"/>
    <tag k="source_ref" v="AM909_DSCW5660"/>
    <tag k="source_ref:maxspeed" v="AM909_DSCW5658"/>
    <tag k="tiger:cfcc" v="A21"/>
    <tag k="tiger:county" v="Orange, CA"/>
    <tag k="tiger:name_base" v="Imperial"/>
    <tag k="tiger:name_base_1" v="Richard M Nixon"/>
    <tag k="tiger:name_base_2" v="State Highway 90"/>
    <tag k="tiger:name_direction_prefix" v="S"/>
    <tag k="tiger:name_type" v="Hwy"/>
    <tag k="tiger:name_type_1" v="Hwy"/>
    <tag k="tiger:separated" v="no"/>
    <tag k="tiger:source" v="tiger_import_dch_v0.6_20070809"/>
    <tag k="tiger:tlid" v="144116536:144116541:143996438:144079890:144079892:144128762:144128765:144128771:144128774:144128776:144128777:144128780:144128782:144128783:144128785:144128786:144423695:144413754:144138246:144032437:144119856"/>
  </way>
  <way id="29678567" version="10" timestamp="2011-07-29T11:06:08Z" uid="207745" user="NE2" changeset="8862241">
    <nd ref="123105875"/>
    <nd ref="816279268"/>
    <nd ref="122910028"/>
    <tag k="FIXME" v="dual carriageway"/>
    <tag k="highway" v="trunk"/>
    <tag k="lanes" v="7"/>
    <tag k="maxspeed" v="40 mph"/>
    <tag k="name" v="Imperial Highway"/>
    <tag k="name:prefix" v="South"/>
    <tag k="note:lanes" v="2 northbound, 3 southbound"/>
    <tag k="official_name" v="Marina Freeway"/>
    <tag k="ref" v="CA 90"/>
    <tag k="source" v="GPS;usgs_imagery_2005;survey;image"/>
    <tag k="source:maxspeed" v="survey;image"/>
    <tag k="source_ref" v="AM909_DSCW5660"/>
    <tag k="source_ref:maxspeed" v="AM909_DSCW5658"/>
    <tag k="tiger:cfcc" v="A21"/>
    <tag k="tiger:county" v="Orange, CA"/>
    <tag k="tiger:name_base" v="Imperial"/>
    <tag k="tiger:name_base_1" v="Richard M Nixon"/>
    <tag k="tiger:name_base_2" v="State Highway 90"/>
    <tag k="tiger:name_direction_prefix" v="S"/>
    <tag k="tiger:name_type" v="Hwy"/>
    <tag k="tiger:name_type_1" v="Hwy"/>
    <tag k="tiger:separated" v="no"/>
    <tag k="tiger:source" v="tiger_import_dch_v0.6_20070809"/>
    <tag k="tiger:tlid" v="144116536:144116541:143996438:144079890:144079892:144128762:144128765:144128771:144128774:144128776:144128777:144128780:144128782:144128783:144128785:144128786:144423695:144413754:144138246:144032437:144119856"/>
  </way>
  <way id="29678567" version="11" timestamp="2011-08-02T00:47:43Z" uid="416346" user="Brian@Brea" changeset="8896702">
    <nd ref="123105875"/>
    <nd ref="816279268"/>
    <nd ref="122910028"/>
    <tag k="FIXME" v="dual carriageway"/>
    <tag k="highway" v="primary"/>
    <tag k="lanes" v="7"/>
    <tag k="maxspeed" v="40 mph"/>
    <tag k="name" v="Imperial Highway"/>
    <tag k="name:prefix" v="South"/>
    <tag k="note:lanes" v="2 northbound, 3 southbound"/>
    <tag k="official_name" v="Marina Freeway"/>
    <tag k="ref" v="CA 90"/>
    <tag k="source" v="GPS;usgs_imagery_2005;survey;image"/>
    <tag k="source:maxspeed" v="survey;image"/>
    <tag k="source_ref" v="AM909_DSCW5660"/>
    <tag k="source_ref:maxspeed" v="AM909_DSCW5658"/>
    <tag k="tiger:cfcc" v="A21"/>
    <tag k="tiger:county" v="Orange, CA"/>
    <tag k="tiger:name_base" v="Imperial"/>
    <tag k="tiger:name_base_1" v="Richard M Nixon"/>
    <tag k="tiger:name_base_2" v="State Highway 90"/>
    <tag k="tiger:name_direction_prefix" v="S"/>
    <tag k="tiger:name_type" v="Hwy"/>
    <tag k="tiger:name_type_1" v="Hwy"/>
    <tag k="tiger:separated" v="no"/>
    <tag k="tiger:source" v="tiger_import_dch_v0.6_20070809"/>
    <tag k="tiger:tlid" v="144116536:144116541:143996438:144079890:144079892:144128762:144128765:144128771:144128774:144128776:144128777:144128780:144128782:144128783:144128785:144128786:144423695:144413754:144138246:144032437:144119856"/>
  </way>
  <way id="29678567" version="12" timestamp="2011-08-07T11:35:36Z" uid="207745" user="NE2" changeset="8945765">
    <nd ref="123105875"/>
    <nd ref="816279268"/>
    <nd ref="122910028"/>
    <tag k="FIXME" v="dual carriageway"/>
    <tag k="highway" v="trunk"/>
    <tag k="lanes" v="7"/>
    <tag k="maxspeed" v="40 mph"/>
    <tag k="name" v="Imperial Highway"/>
    <tag k="name:prefix" v="South"/>
    <tag k="note:lanes" v="2 northbound, 3 southbound"/>
    <tag k="official_name" v="Marina Freeway"/>
    <tag k="ref" v="CA 90"/>
    <tag k="source" v="GPS;usgs_imagery_2005;survey;image"/>
    <tag k="source:maxspeed" v="survey;image"/>
    <tag k="source_ref" v="AM909_DSCW5660"/>
    <tag k="source_ref:maxspeed" v="AM909_DSCW5658"/>
    <tag k="tiger:cfcc" v="A21"/>
    <tag k="tiger:county" v="Orange, CA"/>
    <tag k="tiger:name_base" v="Imperial"/>
    <tag k="tiger:name_base_1" v="Richard M Nixon"/>
    <tag k="tiger:name_base_2" v="State Highway 90"/>
    <tag k="tiger:name_direction_prefix" v="S"/>
    <tag k="tiger:name_type" v="Hwy"/>
    <tag k="tiger:name_type_1" v="Hwy"/>
    <tag k="tiger:separated" v="no"/>
    <tag k="tiger:source" v="tiger_import_dch_v0.6_20070809"/>
    <tag k="tiger:tlid" v="144116536:144116541:143996438:144079890:144079892:144128762:144128765:144128771:144128774:144128776:144128777:144128780:144128782:144128783:144128785:144128786:144423695:144413754:144138246:144032437:144119856"/>
  </way>
  <way id="29678567" version="13" timestamp="2011-08-07T15:54:14Z" uid="416346" user="Brian@Brea" changeset="8948605">
    <nd ref="123105875"/>
    <nd ref="816279268"/>
    <nd ref="122910028"/>
    <tag k="FIXME" v="dual carriageway"/>
    <tag k="highway" v="primary"/>
    <tag k="lanes" v="7"/>
    <tag k="maxspeed" v="40 mph"/>
    <tag k="name" v="Imperial Highway"/>
    <tag k="name:prefix" v="South"/>
    <tag k="note:lanes" v="2 northbound, 3 southbound"/>
    <tag k="official_name" v="Marina Freeway"/>
    <tag k="ref" v="CA 90"/>
    <tag k="source" v="GPS;usgs_imagery_2005;survey;image"/>
    <tag k="source:maxspeed" v="survey;image"/>
    <tag k="source_ref" v="AM909_DSCW5660"/>
    <tag k="source_ref:maxspeed" v="AM909_DSCW5658"/>
    <tag k="tiger:cfcc" v="A21"/>
    <tag k="tiger:county" v="Orange, CA"/>
    <tag k="tiger:name_base" v="Imperial"/>
    <tag k="tiger:name_base_1" v="Richard M Nixon"/>
    <tag k="tiger:name_base_2" v="State Highway 90"/>
    <tag k="tiger:name_direction_prefix" v="S"/>
    <tag k="tiger:name_type" v="Hwy"/>
    <tag k="tiger:name_type_1" v="Hwy"/>
    <tag k="tiger:separated" v="no"/>
    <tag k="tiger:source" v="tiger_import_dch_v0.6_20070809"/>
    <tag k="tiger:tlid" v="144116536:144116541:143996438:144079890:144079892:144128762:144128765:144128771:144128774:144128776:144128777:144128780:144128782:144128783:144128785:144128786:144423695:144413754:144138246:144032437:144119856"/>
  </way>
  <way id="29678567" version="14" timestamp="2011-08-07T17:03:14Z" uid="207745" user="NE2" changeset="8949392">
    <nd ref="123105875"/>
    <nd ref="816279268"/>
    <nd ref="122910028"/>
    <tag k="FIXME" v="dual carriageway"/>
    <tag k="highway" v="trunk"/>
    <tag k="lanes" v="7"/>
    <tag k="maxspeed" v="40 mph"/>
    <tag k="name" v="Imperial Highway"/>
    <tag k="name:prefix" v="South"/>
    <tag k="note:lanes" v="2 northbound, 3 southbound"/>
    <tag k="official_name" v="Marina Freeway"/>
    <tag k="ref" v="CA 90"/>
    <tag k="source" v="GPS;usgs_imagery_2005;survey;image"/>
    <tag k="source:maxspeed" v="survey;image"/>
    <tag k="source_ref" v="AM909_DSCW5660"/>
    <tag k="source_ref:maxspeed" v="AM909_DSCW5658"/>
    <tag k="tiger:cfcc" v="A21"/>
    <tag k="tiger:county" v="Orange, CA"/>
    <tag k="tiger:name_base" v="Imperial"/>
    <tag k="tiger:name_base_1" v="Richard M Nixon"/>
    <tag k="tiger:name_base_2" v="State Highway 90"/>
    <tag k="tiger:name_direction_prefix" v="S"/>
    <tag k="tiger:name_type" v="Hwy"/>
    <tag k="tiger:name_type_1" v="Hwy"/>
    <tag k="tiger:separated" v="no"/>
    <tag k="tiger:source" v="tiger_import_dch_v0.6_20070809"/>
    <tag k="tiger:tlid" v="144116536:144116541:143996438:144079890:144079892:144128762:144128765:144128771:144128774:144128776:144128777:144128780:144128782:144128783:144128785:144128786:144423695:144413754:144138246:144032437:144119856"/>
  </way>
  <way id="29678567" version="15" timestamp="2011-08-09T00:30:47Z" uid="416346" user="Brian@Brea" changeset="8962877">
    <nd ref="123105875"/>
    <nd ref="816279268"/>
    <nd ref="122910028"/>
    <tag k="FIXME" v="dual carriageway"/>
    <tag k="highway" v="primary"/>
    <tag k="lanes" v="7"/>
    <tag k="maxspeed" v="40 mph"/>
    <tag k="name" v="Imperial Highway"/>
    <tag k="name:prefix" v="South"/>
    <tag k="note:lanes" v="2 northbound, 3 southbound"/>
    <tag k="official_name" v="Marina Freeway"/>
    <tag k="ref" v="CA 90"/>
    <tag k="source" v="GPS;usgs_imagery_2005;survey;image"/>
    <tag k="source:maxspeed" v="survey;image"/>
    <tag k="source_ref" v="AM909_DSCW5660"/>
    <tag k="source_ref:maxspeed" v="AM909_DSCW5658"/>
    <tag k="tiger:cfcc" v="A21"/>
    <tag k="tiger:county" v="Orange, CA"/>
    <tag k="tiger:name_base" v="Imperial"/>
    <tag k="tiger:name_base_1" v="Richard M Nixon"/>
    <tag k="tiger:name_base_2" v="State Highway 90"/>
    <tag k="tiger:name_direction_prefix" v="S"/>
    <tag k="tiger:name_type" v="Hwy"/>
    <tag k="tiger:name_type_1" v="Hwy"/>
    <tag k="tiger:separated" v="no"/>
    <tag k="tiger:source" v="tiger_import_dch_v0.6_20070809"/>
    <tag k="tiger:tlid" v="144116536:144116541:143996438:144079890:144079892:144128762:144128765:144128771:144128774:144128776:144128777:144128780:144128782:144128783:144128785:144128786:144423695:144413754:144138246:144032437:144119856"/>
  </way>
  <way id="29678571" version="2" timestamp="2010-03-28T00:44:33Z" uid="20587" user="balrog-kun" changeset="4250871">
    <nd ref="326558657"/>
    <nd ref="326558671"/>
    <tag k="bridge" v="yes"/>
    <tag k="created_by" v="Potlatch 0.10f"/>
    <tag k="highway" v="tertiary"/>
    <tag k="layer" v="2"/>
    <tag k="name" v="South Lakeview Avenue"/>
    <tag k="tiger:cfcc" v="A41"/>
    <tag k="tiger:county" v="Orange, CA"/>
    <tag k="tiger:name_base" v="Lakeview"/>
    <tag k="tiger:name_direction_prefix" v="S"/>
    <tag k="tiger:name_type" v="Ave"/>
    <tag k="tiger:reviewed" v="no"/>
    <tag k="tiger:separated" v="no"/>
    <tag k="tiger:source" v="tiger_import_dch_v0.6_20070809"/>
    <tag k="tiger:tlid" v="144029927:144029928:144030006:144030022:144030024:144030032:144030034:144029931:144121451:144117408:144117409:144128227:144128228:144121505:144121464:144029898"/>
  </way>
  <way id="29678571" version="3" timestamp="2010-07-13T11:47:59Z" uid="82317" user="AM909" changeset="5207176">
    <nd ref="326558657"/>
    <nd ref="326558671"/>
    <tag k="bridge" v="yes"/>
    <tag k="highway" v="tertiary"/>
    <tag k="layer" v="2"/>
    <tag k="name" v="Lakeview Avenue"/>
    <tag k="tiger:cfcc" v="A41"/>
    <tag k="tiger:county" v="Orange, CA"/>
    <tag k="tiger:name_base" v="Lakeview"/>
    <tag k="tiger:name_direction_prefix" v="S"/>
    <tag k="tiger:name_type" v="Ave"/>
    <tag k="tiger:separated" v="no"/>
    <tag k="tiger:source" v="tiger_import_dch_v0.6_20070809"/>
    <tag k="tiger:tlid" v="144029927:144029928:144030006:144030022:144030024:144030032:144030034:144029931:144121451:144117408:144117409:144128227:144128228:144121505:144121464:144029898"/>
  </way>
  <way id="29678571" version="4" timestamp="2011-07-06T21:58:53Z" uid="4951" user="PeterIto" changeset="8652761">
    <nd ref="326558657"/>
    <nd ref="326558671"/>
    <tag k="bridge" v="yes"/>
    <tag k="highway" v="tertiary"/>
    <tag k="layer" v="1"/>
    <tag k="name" v="Lakeview Avenue"/>
    <tag k="tiger:cfcc" v="A41"/>
    <tag k="tiger:county" v="Orange, CA"/>
    <tag k="tiger:name_base" v="Lakeview"/>
    <tag k="tiger:name_direction_prefix" v="S"/>
    <tag k="tiger:name_type" v="Ave"/>
    <tag k="tiger:separated" v="no"/>
    <tag k="tiger:source" v="tiger_import_dch_v0.6_20070809"/>
    <tag k="tiger:tlid" v="144029927:144029928:144030006:144030022:144030024:144030032:144030034:144029931:144121451:144117408:144117409:144128227:144128228:144121505:144121464:144029898"/>
  </way>
  <way id="29678573" version="2" timestamp="2010-03-28T00:44:33Z" uid="20587" user="balrog-kun" changeset="4250871">
    <nd ref="326558671"/>
    <nd ref="326558684"/>
    <nd ref="122589004"/>
    <nd ref="122976174"/>
    <nd ref="122750148"/>
    <nd ref="122748384"/>
    <nd ref="122765637"/>
    <tag k="created_by" v="Potlatch 0.10f"/>
    <tag k="highway" v="tertiary"/>
    <tag k="name" v="South Lakeview Avenue"/>
    <tag k="tiger:cfcc" v="A41"/>
    <tag k="tiger:county" v="Orange, CA"/>
    <tag k="tiger:name_base" v="Lakeview"/>
    <tag k="tiger:name_direction_prefix" v="S"/>
    <tag k="tiger:name_type" v="Ave"/>
    <tag k="tiger:reviewed" v="no"/>
    <tag k="tiger:separated" v="no"/>
    <tag k="tiger:source" v="tiger_import_dch_v0.6_20070809"/>
    <tag k="tiger:tlid" v="144029927:144029928:144030006:144030022:144030024:144030032:144030034:144029931:144121451:144117408:144117409:144128227:144128228:144121505:144121464:144029898"/>
  </way>
  <way id="29678573" version="3" timestamp="2010-07-13T11:47:20Z" uid="82317" user="AM909" changeset="5207176">
    <nd ref="326558671"/>
    <nd ref="326558684"/>
    <tag k="highway" v="tertiary"/>
    <tag k="name" v="Lakeview Avenue"/>
    <tag k="tiger:cfcc" v="A41"/>
    <tag k="tiger:county" v="Orange, CA"/>
    <tag k="tiger:name_base" v="Lakeview"/>
    <tag k="tiger:name_direction_prefix" v="S"/>
    <tag k="tiger:name_type" v="Ave"/>
    <tag k="tiger:separated" v="no"/>
    <tag k="tiger:source" v="tiger_import_dch_v0.6_20070809"/>
    <tag k="tiger:tlid" v="144029927:144029928:144030006:144030022:144030024:144030032:144030034:144029931:144121451:144117408:144117409:144128227:144128228:144121505:144121464:144029898"/>
  </way>
</osm>
