<?xml version='1.0' encoding='UTF-8'?>
<osm version="0.6" generator="libosmium/2.20.0">
  <way id="29689128" version="12" timestamp="2010-03-28T00:44:34Z" uid="20587" user="balrog-kun" changeset="4250871">
    <nd ref="33144625"/>
    <nd ref="257389901"/>
    <nd ref="257389906"/>
    <nd ref="257389903"/>
    <nd ref="298394145"/>
    <nd ref="257389826"/>
    <nd ref="601724750"/>
    <tag k="highway" v="motorway"/>
    <tag k="name" v="Nimitz Freeway"/>
    <tag k="oneway" v="yes"/>
    <tag k="ref" v="I 880"/>
  </way>
  <way id="29689128" version="13" timestamp="2010-05-04T20:33:11Z" uid="14293" user="dahveed76" changeset="4607955">
    <nd ref="257389901"/>
    <nd ref="257389906"/>
    <nd ref="257389903"/>
    <nd ref="298394145"/>
    <nd ref="257389826"/>
    <nd ref="601724750"/>
    <tag k="highway" v="motorway"/>
    <tag k="name" v="Nimitz Freeway"/>
    <tag k="oneway" v="yes"/>
    <tag k="ref" v="I 880"/>
  </way>
  <way id="29689128" version="14" timestamp="2010-05-04T20:36:36Z" uid="14293" user="dahveed76" changeset="4607955">
    <nd ref="257389901"/>
    <nd ref="721451015"/>
    <nd ref="257389906"/>
    <nd ref="257389903"/>
    <nd ref="298394145"/>
    <nd ref="257389826"/>
    <nd ref="601724750"/>
    <tag k="highway" v="motorway"/>
    <tag k="name" v="Nimitz Freeway"/>
    <tag k="oneway" v="yes"/>
    <tag k="ref" v="I 880"/>
  </way>
  <way id="29689128" version="15" timestamp="2010-05-04T20:37:14Z" uid="14293" user="dahveed76" changeset="4607955">
    <nd ref="257389901"/>
    <nd ref="721451015"/>
    <nd ref="257389906"/>
    <nd ref="298394145"/>
    <nd ref="257389826"/>
    <nd ref="601724750"/>
    <tag k="highway" v="motorway"/>
    <tag k="name" v="Nimitz Freeway"/>
    <tag k="oneway" v="yes"/>
    <tag k="ref" v="I 880"/>
  </way>
  <way id="29689128" version="16" timestamp="2011-01-02T11:32:50Z" uid="162110" user="tahongawaka" changeset="6837173">
    <nd ref="257389901"/>
    <nd ref="721451015"/>
    <nd ref="257389906"/>
    <nd ref="298394145"/>
    <nd ref="257389826"/>
    <nd ref="601724750"/>
    <tag k="highway" v="motorway"/>
    <tag k="name" v="Nimitz Freeway"/>
    <tag k="oneway" v="yes"/>
    <tag k="ref" v="I 880"/>
    <tag k="symbol" v="http://upload.wikimedia.org/wikipedia/commons/e/ea/I-880_%28CA%29.svg"/>
  </way>
  <way id="29689128" version="17" timestamp="2011-07-31T11:45:59Z" uid="207745" user="NE2" changeset="8880034">
    <nd ref="257389901"/>
    <nd ref="721451015"/>
    <nd ref="257389906"/>
    <nd ref="298394145"/>
    <nd ref="257389826"/>
    <nd ref="601724750"/>
    <tag k="highway" v="motorway"/>
    <tag k="lanes" v="4"/>
    <tag k="name" v="Nimitz Freeway"/>
    <tag k="oneway" v="yes"/>
    <tag k="ref" v="I 880"/>
  </way>
  <way id="29689128" version="18" timestamp="2011-08-07T00:38:46Z" uid="207745" user="NE2" changeset="8943068">
    <nd ref="257389901"/>
    <nd ref="721451015"/>
    <nd ref="257389906"/>
    <nd ref="298394145"/>
    <nd ref="257389826"/>
    <nd ref="601724750"/>
    <tag k="highway" v="motorway"/>
    <tag k="hov" v="lane"/>
    <tag k="lanes" v="4"/>
    <tag k="name" v="Nimitz Freeway"/>
    <tag k="note:lanes" v="left lane is hov"/>
    <tag k="oneway" v="yes"/>
    <tag k="ref" v="I 880"/>
  </way>
  <way id="29689128" version="19" timestamp="2011-11-21T16:06:11Z" uid="207745" user="NE2" changeset="9898570">
    <nd ref="257389901"/>
    <nd ref="721451015"/>
    <nd ref="257389906"/>
    <nd ref="298394145"/>
    <nd ref="257389826"/>
    <nd ref="601724750"/>
    <tag k="hgv" v="designated"/>
    <tag k="highway" v="motorway"/>
    <tag k="hov" v="lane"/>
    <tag k="lanes" v="4"/>
    <tag k="name" v="Nimitz Freeway"/>
    <tag k="note:lanes" v="left lane is hov"/>
    <tag k="oneway" v="yes"/>
    <tag k="ref" v="I 880"/>
  </way>
  <way id="29689779" version="2" timestamp="2010-03-28T00:44:35Z" uid="20587" user="balrog-kun" changeset="4250871">
    <nd ref="326766212"/>
    <nd ref="326766424"/>
    <nd ref="326766425"/>
    <nd ref="326766426"/>
    <nd ref="326766427"/>
    <nd ref="123227091"/>
    <nd ref="326766428"/>
    <nd ref="326766429"/>
    <nd ref="123256011"/>
    <tag k="created_by" v="Potlatch 0.10f"/>
    <tag k="highway" v="residential"/>
    <tag k="name" v="Chaparro Drive"/>
  </way>
</osm>
