<?xml version='1.0' encoding='UTF-8'?>
<osm version="0.6" generator="libosmium/2.20.0">
  <way id="29798505" version="5" timestamp="2011-04-22T21:14:08Z" uid="16922" user="amai" changeset="7938840">
    <nd ref="328359867"/>
    <nd ref="328359871"/>
    <nd ref="328362386"/>
    <nd ref="1255950989"/>
    <nd ref="1255951127"/>
    <nd ref="328329934"/>
    <tag k="highway" v="secondary"/>
    <tag k="ref" v="345"/>
  </way>
  <way id="29798505" version="6" timestamp="2011-12-15T10:32:20Z" uid="328321" user="medecember" changeset="10122090">
    <nd ref="328359867"/>
    <nd ref="328359871"/>
    <nd ref="328362386"/>
    <nd ref="1255950989"/>
    <nd ref="1255951127"/>
    <nd ref="1547011946"/>
    <nd ref="328329934"/>
    <tag k="highway" v="secondary"/>
    <tag k="ref" v="345"/>
  </way>
  <way id="29798505" version="7" timestamp="2011-12-15T10:36:23Z" uid="328321" user="medecember" changeset="10122090">
    <nd ref="328359867"/>
    <nd ref="328359871"/>
    <nd ref="328362386"/>
    <nd ref="1255950989"/>
    <nd ref="1255951127"/>
    <nd ref="1547011946"/>
    <nd ref="328329934"/>
    <tag k="highway" v="secondary"/>
    <tag k="oneway" v="yes"/>
    <tag k="ref" v="345"/>
  </way>
  <way id="29798505" version="8" timestamp="2012-03-11T01:06:39Z" uid="61891" user="stephankn" changeset="10938336">
    <nd ref="328359867"/>
    <nd ref="328359871"/>
    <nd ref="328362386"/>
    <nd ref="1255950989"/>
    <nd ref="1547011946"/>
    <nd ref="328329934"/>
    <tag k="highway" v="secondary"/>
    <tag k="oneway" v="yes"/>
    <tag k="ref" v="345"/>
  </way>
  <way id="29798505" version="9" timestamp="2012-03-18T16:01:04Z" uid="61891" user="stephankn" changeset="11020521"/>
  <way id="29798827" version="5" timestamp="2010-03-07T11:08:07Z" uid="58091" user="Andreas M" changeset="4059658">
    <nd ref="484210593"/>
    <nd ref="32463265"/>
    <nd ref="328366754"/>
    <nd ref="328366785"/>
    <tag k="fixme" v="check import"/>
    <tag k="highway" v="residential"/>
    <tag k="is_in:city" v="Kitzbühel"/>
    <tag k="is_in:country_code" v="AT"/>
    <tag k="name" v="Lugeistiege"/>
    <tag k="postal_code" v="6370"/>
    <tag k="source" v="plan.at 2009"/>
  </way>
  <way id="29798827" version="6" timestamp="2010-12-31T17:23:19Z" uid="364615" user="alpman" changeset="6822068">
    <nd ref="484210593"/>
    <nd ref="32463265"/>
    <nd ref="328366754"/>
    <nd ref="1075593692"/>
    <nd ref="1075593597"/>
    <nd ref="1075593623"/>
    <nd ref="1075593652"/>
    <nd ref="328366785"/>
    <tag k="fixme" v="check import"/>
    <tag k="highway" v="residential"/>
    <tag k="is_in:city" v="Kitzbühel"/>
    <tag k="is_in:country_code" v="AT"/>
    <tag k="name" v="Lugeistiege"/>
    <tag k="postal_code" v="6370"/>
    <tag k="source" v="plan.at 2009"/>
  </way>
  <way id="29798827" version="7" timestamp="2011-01-04T10:45:19Z" uid="364615" user="alpman" changeset="6859126">
    <nd ref="484210593"/>
    <nd ref="32463265"/>
    <nd ref="328366754"/>
    <nd ref="1075593692"/>
    <nd ref="1081909746"/>
    <nd ref="1075593597"/>
    <nd ref="1075593623"/>
    <nd ref="1075593652"/>
    <nd ref="1081909780"/>
    <nd ref="328366785"/>
    <tag k="fixme" v="check import"/>
    <tag k="highway" v="residential"/>
    <tag k="is_in:city" v="Kitzbühel"/>
    <tag k="is_in:country_code" v="AT"/>
    <tag k="name" v="Lugeistiege"/>
    <tag k="postal_code" v="6370"/>
    <tag k="source" v="plan.at 2009"/>
  </way>
</osm>
