<?xml version='1.0' encoding='UTF-8'?>
<osm version="0.6" generator="libosmium/2.20.0">
  <way id="29956212" version="1" timestamp="2009-01-07T03:26:51Z" uid="7617" user="Franc" changeset="749997">
    <nd ref="60716676"/>
    <nd ref="28829647"/>
    <tag k="created_by" v="YahooApplet 1.0"/>
    <tag k="highway" v="residential"/>
    <tag k="name" v="Wentworth Street"/>
  </way>
  <way id="29956212" version="2" timestamp="2010-07-08T02:54:19Z" uid="74617" user="JohnSmith" changeset="5163091">
    <nd ref="60716676"/>
    <nd ref="28829647"/>
    <tag k="highway" v="residential"/>
    <tag k="maxspeed" v="50"/>
    <tag k="maxspeed:source" v="default residential speed limit in Australia"/>
    <tag k="name" v="Wentworth Street"/>
  </way>
  <way id="29956212" version="3" timestamp="2012-01-18T02:24:16Z" uid="147510" user="woodpeck_fixbot" changeset="10424025">
    <nd ref="60716676"/>
    <nd ref="28829647"/>
    <tag k="highway" v="residential"/>
    <tag k="name" v="Wentworth Street"/>
  </way>
  <way id="29956212" version="4" timestamp="2012-03-23T01:24:45Z" uid="7523" user="inas" changeset="11069541">
    <nd ref="1686544506"/>
    <nd ref="28829647"/>
    <tag k="highway" v="residential"/>
    <tag k="name" v="Wentworth Street"/>
  </way>
  <way id="29956215" version="1" timestamp="2009-01-07T03:26:52Z" uid="7617" user="Franc" changeset="749997">
    <nd ref="60716673"/>
    <nd ref="26360749"/>
    <nd ref="17604283"/>
    <nd ref="30596836"/>
    <nd ref="30596835"/>
    <tag k="created_by" v="YahooApplet 1.0"/>
    <tag k="highway" v="unclassified"/>
    <tag k="name" v="Smith Street"/>
  </way>
  <way id="29956215" version="2" timestamp="2009-03-20T22:49:24Z" uid="20949" user="Ebenezer" changeset="838229">
    <nd ref="60716673"/>
    <nd ref="26360749"/>
    <nd ref="17604283"/>
    <nd ref="30596836"/>
    <nd ref="30596835"/>
    <tag k="created_by" v="Potlatch 0.10f"/>
    <tag k="highway" v="residential"/>
    <tag k="name" v="Smith Street"/>
  </way>
  <way id="29956215" version="3" timestamp="2009-03-20T22:49:42Z" uid="20949" user="Ebenezer" changeset="838229">
    <nd ref="26360748"/>
    <nd ref="60716673"/>
    <nd ref="26360749"/>
    <nd ref="17604283"/>
    <nd ref="30596836"/>
    <nd ref="30596835"/>
    <tag k="created_by" v="Potlatch 0.10f"/>
    <tag k="highway" v="residential"/>
    <tag k="name" v="Smith Street"/>
  </way>
  <way id="29956215" version="4" timestamp="2009-03-20T22:50:06Z" uid="20949" user="Ebenezer" changeset="838229">
    <nd ref="26360748"/>
    <nd ref="60716673"/>
    <nd ref="364165640"/>
    <nd ref="26360749"/>
    <nd ref="17604283"/>
    <nd ref="30596836"/>
    <nd ref="30596835"/>
    <tag k="created_by" v="Potlatch 0.10f"/>
    <tag k="highway" v="residential"/>
    <tag k="name" v="Smith Street"/>
  </way>
  <way id="29956215" version="5" timestamp="2009-03-20T22:51:36Z" uid="20949" user="Ebenezer" changeset="838229">
    <nd ref="26360748"/>
    <nd ref="60716673"/>
    <nd ref="364165640"/>
    <tag k="created_by" v="Potlatch 0.10f"/>
    <tag k="highway" v="residential"/>
    <tag k="name" v="Smith Street"/>
  </way>
  <way id="29956215" version="6" timestamp="2010-07-08T02:53:46Z" uid="74617" user="JohnSmith" changeset="5163091">
    <nd ref="26360748"/>
    <nd ref="60716673"/>
    <nd ref="364165640"/>
    <tag k="highway" v="residential"/>
    <tag k="maxspeed" v="50"/>
    <tag k="maxspeed:source" v="default residential speed limit in Australia"/>
    <tag k="name" v="Smith Street"/>
  </way>
  <way id="29956215" version="7" timestamp="2012-01-18T02:24:17Z" uid="147510" user="woodpeck_fixbot" changeset="10424025">
    <nd ref="26360748"/>
    <nd ref="60716673"/>
    <nd ref="364165640"/>
    <tag k="highway" v="residential"/>
    <tag k="name" v="Smith Street"/>
  </way>
  <way id="29956215" version="8" timestamp="2012-03-23T01:24:44Z" uid="7523" user="inas" changeset="11069541">
    <nd ref="1686544499"/>
    <nd ref="1686544500"/>
    <nd ref="364165640"/>
    <tag k="highway" v="residential"/>
    <tag k="name" v="Smith Street"/>
  </way>
</osm>
