<?xml version='1.0' encoding='UTF-8'?>
<osm version="0.6" generator="libosmium/2.20.0">
  <way id="29964483" version="3" timestamp="2010-07-08T17:16:25Z" uid="74617" user="JohnSmith" changeset="5167338">
    <nd ref="329916118"/>
    <nd ref="329916133"/>
    <tag k="highway" v="residential"/>
    <tag k="maxspeed" v="50"/>
    <tag k="maxspeed:source" v="default residential speed limit in Australia"/>
    <tag k="name" v="Amoore Avenue"/>
  </way>
  <way id="29964483" version="4" timestamp="2012-01-18T02:24:28Z" uid="147510" user="woodpeck_fixbot" changeset="10424025">
    <nd ref="329916118"/>
    <nd ref="329916133"/>
    <tag k="highway" v="residential"/>
    <tag k="name" v="Amoore Avenue"/>
  </way>
  <way id="29964486" version="2" timestamp="2010-07-08T17:16:59Z" uid="74617" user="JohnSmith" changeset="5167338">
    <nd ref="329916138"/>
    <nd ref="329916144"/>
    <tag k="highway" v="residential"/>
    <tag k="maxspeed" v="50"/>
    <tag k="maxspeed:source" v="default residential speed limit in Australia"/>
    <tag k="name" v="Northam Avenue"/>
  </way>
  <way id="29964486" version="3" timestamp="2012-01-18T02:24:29Z" uid="147510" user="woodpeck_fixbot" changeset="10424025">
    <nd ref="329916138"/>
    <nd ref="329916144"/>
    <tag k="highway" v="residential"/>
    <tag k="name" v="Northam Avenue"/>
  </way>
  <way id="29964488" version="3" timestamp="2010-07-08T17:15:50Z" uid="74617" user="JohnSmith" changeset="5167338">
    <nd ref="329916156"/>
    <nd ref="329916133"/>
    <nd ref="329916144"/>
    <nd ref="331417539"/>
    <tag k="highway" v="residential"/>
    <tag k="maxspeed" v="50"/>
    <tag k="maxspeed:source" v="default residential speed limit in Australia"/>
    <tag k="name" v="Roycroft Avenue"/>
  </way>
  <way id="29964488" version="4" timestamp="2012-01-18T02:24:30Z" uid="147510" user="woodpeck_fixbot" changeset="10424025">
    <nd ref="329916156"/>
    <nd ref="329916133"/>
    <nd ref="329916144"/>
    <nd ref="331417539"/>
    <tag k="highway" v="residential"/>
    <tag k="name" v="Roycroft Avenue"/>
  </way>
  <way id="29964735" version="3" timestamp="2010-03-28T00:44:45Z" uid="20587" user="balrog-kun" changeset="4250871">
    <nd ref="95721184"/>
    <nd ref="95713420"/>
    <nd ref="95714509"/>
    <nd ref="95715204"/>
    <nd ref="95721185"/>
    <nd ref="95710500"/>
    <nd ref="95718626"/>
    <tag k="created_by" v="Potlatch 0.10f"/>
    <tag k="highway" v="secondary"/>
    <tag k="name" v="North East Street"/>
    <tag k="tiger:cfcc" v="A41"/>
    <tag k="tiger:county" v="Yolo, CA"/>
    <tag k="tiger:name_base" v="East"/>
    <tag k="tiger:name_direction_prefix" v="N"/>
    <tag k="tiger:name_type" v="St"/>
    <tag k="tiger:reviewed" v="no"/>
    <tag k="tiger:separated" v="no"/>
    <tag k="tiger:source" v="tiger_import_dch_v0.6_20070809"/>
    <tag k="tiger:tlid" v="67690117:67690139:67699583:67690121:67690140:67706601:67706602:67690099"/>
    <tag k="tiger:zip_left" v="95776"/>
    <tag k="tiger:zip_right" v="95776"/>
  </way>
</osm>
