<?xml version='1.0' encoding='UTF-8'?>
<osm version="0.6" generator="libosmium/2.20.0">
  <way id="29987087" version="1" timestamp="2009-01-07T22:45:50Z" uid="30201" user="rrankin" changeset="755229">
    <nd ref="330120767"/>
    <nd ref="330120771"/>
    <nd ref="330120774"/>
    <nd ref="330120777"/>
    <tag k="highway" v="residential"/>
    <tag k="name" v="Quist Place"/>
    <tag k="source" v="yahoo"/>
  </way>
  <way id="29987087" version="2" timestamp="2010-07-07T22:58:47Z" uid="74617" user="JohnSmith" changeset="5162525">
    <nd ref="330120767"/>
    <nd ref="330120771"/>
    <nd ref="330120774"/>
    <nd ref="330120777"/>
    <tag k="highway" v="residential"/>
    <tag k="maxspeed" v="50"/>
    <tag k="maxspeed:source" v="default residential speed limit in Australia"/>
    <tag k="name" v="Quist Place"/>
    <tag k="source" v="yahoo"/>
  </way>
  <way id="29987087" version="3" timestamp="2012-01-18T02:32:35Z" uid="147510" user="woodpeck_fixbot" changeset="10424025">
    <nd ref="330120767"/>
    <nd ref="330120771"/>
    <nd ref="330120774"/>
    <nd ref="330120777"/>
    <tag k="highway" v="residential"/>
    <tag k="name" v="Quist Place"/>
    <tag k="source" v="yahoo"/>
  </way>
  <way id="29987088" version="1" timestamp="2009-01-07T22:45:51Z" uid="30201" user="rrankin" changeset="755229">
    <nd ref="330120782"/>
    <nd ref="330120785"/>
    <tag k="highway" v="residential"/>
    <tag k="name" v="Smith Grove"/>
    <tag k="source" v="yahoo"/>
  </way>
  <way id="29987088" version="2" timestamp="2010-07-07T23:02:45Z" uid="74617" user="JohnSmith" changeset="5162525">
    <nd ref="330120782"/>
    <nd ref="330120785"/>
    <tag k="highway" v="residential"/>
    <tag k="maxspeed" v="50"/>
    <tag k="maxspeed:source" v="default residential speed limit in Australia"/>
    <tag k="name" v="Smith Grove"/>
    <tag k="source" v="yahoo"/>
  </way>
  <way id="29987088" version="3" timestamp="2012-01-18T02:32:36Z" uid="147510" user="woodpeck_fixbot" changeset="10424025">
    <nd ref="330120782"/>
    <nd ref="330120785"/>
    <tag k="highway" v="residential"/>
    <tag k="name" v="Smith Grove"/>
    <tag k="source" v="yahoo"/>
  </way>
  <way id="29987089" version="1" timestamp="2009-01-07T22:45:52Z" uid="30201" user="rrankin" changeset="755229">
    <nd ref="330120789"/>
    <nd ref="330120785"/>
    <nd ref="330120794"/>
    <tag k="highway" v="residential"/>
    <tag k="name" v="Smith Grove"/>
    <tag k="source" v="yahoo"/>
  </way>
  <way id="29987089" version="2" timestamp="2010-07-07T22:58:41Z" uid="74617" user="JohnSmith" changeset="5162525">
    <nd ref="330120789"/>
    <nd ref="330120785"/>
    <nd ref="330120794"/>
    <tag k="highway" v="residential"/>
    <tag k="maxspeed" v="50"/>
    <tag k="maxspeed:source" v="default residential speed limit in Australia"/>
    <tag k="name" v="Smith Grove"/>
    <tag k="source" v="yahoo"/>
  </way>
  <way id="29987089" version="3" timestamp="2012-01-18T02:32:37Z" uid="147510" user="woodpeck_fixbot" changeset="10424025">
    <nd ref="330120789"/>
    <nd ref="330120785"/>
    <nd ref="330120794"/>
    <tag k="highway" v="residential"/>
    <tag k="name" v="Smith Grove"/>
    <tag k="source" v="yahoo"/>
  </way>
  <way id="29987091" version="1" timestamp="2009-01-07T22:45:53Z" uid="30201" user="rrankin" changeset="755229">
    <nd ref="314143547"/>
    <nd ref="330120798"/>
    <nd ref="330120801"/>
    <tag k="highway" v="residential"/>
    <tag k="name" v="Bowrey Place"/>
    <tag k="source" v="yahoo"/>
  </way>
  <way id="29987091" version="2" timestamp="2010-07-07T22:59:48Z" uid="74617" user="JohnSmith" changeset="5162525">
    <nd ref="314143547"/>
    <nd ref="330120798"/>
    <nd ref="330120801"/>
    <tag k="highway" v="residential"/>
    <tag k="maxspeed" v="50"/>
    <tag k="maxspeed:source" v="default residential speed limit in Australia"/>
    <tag k="name" v="Bowrey Place"/>
    <tag k="source" v="yahoo"/>
  </way>
  <way id="29987091" version="3" timestamp="2012-01-18T02:32:39Z" uid="147510" user="woodpeck_fixbot" changeset="10424025">
    <nd ref="314143547"/>
    <nd ref="330120798"/>
    <nd ref="330120801"/>
    <tag k="highway" v="residential"/>
    <tag k="name" v="Bowrey Place"/>
    <tag k="source" v="yahoo"/>
  </way>
  <way id="29987092" version="1" timestamp="2009-01-07T22:45:54Z" uid="30201" user="rrankin" changeset="755229">
    <nd ref="330120804"/>
    <nd ref="330120808"/>
    <nd ref="330120819"/>
    <nd ref="330120812"/>
    <nd ref="330120810"/>
    <tag k="highway" v="residential"/>
    <tag k="name" v="Roche Grove"/>
    <tag k="source" v="yahoo"/>
  </way>
  <way id="29987092" version="2" timestamp="2010-07-07T23:00:37Z" uid="74617" user="JohnSmith" changeset="5162525">
    <nd ref="330120804"/>
    <nd ref="330120808"/>
    <nd ref="330120819"/>
    <nd ref="330120812"/>
    <nd ref="330120810"/>
    <tag k="highway" v="residential"/>
    <tag k="maxspeed" v="50"/>
    <tag k="maxspeed:source" v="default residential speed limit in Australia"/>
    <tag k="name" v="Roche Grove"/>
    <tag k="source" v="yahoo"/>
  </way>
  <way id="29987092" version="3" timestamp="2012-01-18T02:32:40Z" uid="147510" user="woodpeck_fixbot" changeset="10424025">
    <nd ref="330120804"/>
    <nd ref="330120808"/>
    <nd ref="330120819"/>
    <nd ref="330120812"/>
    <nd ref="330120810"/>
    <tag k="highway" v="residential"/>
    <tag k="name" v="Roche Grove"/>
    <tag k="source" v="yahoo"/>
  </way>
  <way id="29987093" version="1" timestamp="2009-01-07T22:45:55Z" uid="30201" user="rrankin" changeset="755229">
    <nd ref="330120812"/>
    <nd ref="330120815"/>
    <tag k="highway" v="residential"/>
    <tag k="name" v="Doust Place"/>
    <tag k="source" v="yahoo"/>
  </way>
  <way id="29987093" version="2" timestamp="2010-07-07T23:03:41Z" uid="74617" user="JohnSmith" changeset="5162525">
    <nd ref="330120812"/>
    <nd ref="330120815"/>
    <tag k="highway" v="residential"/>
    <tag k="maxspeed" v="50"/>
    <tag k="maxspeed:source" v="default residential speed limit in Australia"/>
    <tag k="name" v="Doust Place"/>
    <tag k="source" v="yahoo"/>
  </way>
  <way id="29987093" version="3" timestamp="2012-01-18T02:32:42Z" uid="147510" user="woodpeck_fixbot" changeset="10424025">
    <nd ref="330120812"/>
    <nd ref="330120815"/>
    <tag k="highway" v="residential"/>
    <tag k="name" v="Doust Place"/>
    <tag k="source" v="yahoo"/>
  </way>
  <way id="29987094" version="1" timestamp="2009-01-07T22:45:56Z" uid="30201" user="rrankin" changeset="755229">
    <nd ref="330120819"/>
    <nd ref="330120823"/>
    <tag k="highway" v="residential"/>
    <tag k="name" v="Rice Place"/>
    <tag k="source" v="yahoo"/>
  </way>
  <way id="29987094" version="2" timestamp="2010-07-07T23:01:36Z" uid="74617" user="JohnSmith" changeset="5162525">
    <nd ref="330120819"/>
    <nd ref="330120823"/>
    <tag k="highway" v="residential"/>
    <tag k="maxspeed" v="50"/>
    <tag k="maxspeed:source" v="default residential speed limit in Australia"/>
    <tag k="name" v="Rice Place"/>
    <tag k="source" v="yahoo"/>
  </way>
  <way id="29987094" version="3" timestamp="2012-01-18T02:32:43Z" uid="147510" user="woodpeck_fixbot" changeset="10424025">
    <nd ref="330120819"/>
    <nd ref="330120823"/>
    <tag k="highway" v="residential"/>
    <tag k="name" v="Rice Place"/>
    <tag k="source" v="yahoo"/>
  </way>
  <way id="29987227" version="6" timestamp="2009-09-30T13:15:22Z" uid="36809" user="pfoten_weg_!_" changeset="2687886">
    <nd ref="300277618"/>
    <nd ref="13885926"/>
    <nd ref="14604941"/>
    <nd ref="13885765"/>
    <nd ref="14604939"/>
    <nd ref="13886177"/>
    <nd ref="13885995"/>
    <nd ref="31387659"/>
    <nd ref="13885825"/>
    <nd ref="14604937"/>
    <nd ref="13885628"/>
    <nd ref="300277610"/>
    <nd ref="13885588"/>
    <nd ref="300277614"/>
    <nd ref="14604934"/>
    <nd ref="285451591"/>
    <nd ref="14604932"/>
    <nd ref="433711456"/>
    <nd ref="285451579"/>
    <tag k="highway" v="motorway"/>
    <tag k="int_ref" v="E 45"/>
    <tag k="name" v="Brenner Autobahn"/>
    <tag k="oneway" v="yes"/>
    <tag k="ref" v="A13"/>
    <tag k="toll" v="yes"/>
  </way>
  <way id="29987227" version="7" timestamp="2009-11-17T08:37:49Z" uid="45347" user="eriosw" changeset="3139071">
    <nd ref="300277618"/>
    <nd ref="13885926"/>
    <nd ref="14604941"/>
    <nd ref="13885765"/>
    <nd ref="14604939"/>
    <nd ref="13886177"/>
    <nd ref="13885995"/>
    <nd ref="31387659"/>
    <nd ref="13885825"/>
    <nd ref="14604937"/>
    <nd ref="13885628"/>
    <nd ref="300277610"/>
    <nd ref="13885588"/>
    <nd ref="300277614"/>
    <nd ref="14604934"/>
    <nd ref="285451591"/>
    <nd ref="14604932"/>
    <nd ref="566114831"/>
    <tag k="highway" v="motorway"/>
    <tag k="int_ref" v="E 45"/>
    <tag k="name" v="Brenner Autobahn"/>
    <tag k="oneway" v="yes"/>
    <tag k="ref" v="A13"/>
    <tag k="toll" v="yes"/>
  </way>
  <way id="29987227" version="8" timestamp="2011-08-04T02:24:45Z" uid="45481" user="borisC" changeset="8915968">
    <nd ref="300277618"/>
    <nd ref="13885926"/>
    <nd ref="14604941"/>
    <nd ref="13885765"/>
    <nd ref="14604939"/>
    <nd ref="13886177"/>
    <nd ref="1385508911"/>
    <nd ref="13885995"/>
    <nd ref="31387659"/>
    <nd ref="13885825"/>
    <nd ref="14604937"/>
    <nd ref="13885628"/>
    <nd ref="300277610"/>
    <nd ref="13885588"/>
    <nd ref="300277614"/>
    <nd ref="14604934"/>
    <nd ref="285451591"/>
    <nd ref="14604932"/>
    <nd ref="566114831"/>
    <tag k="highway" v="motorway"/>
    <tag k="int_ref" v="E 45"/>
    <tag k="name" v="Brenner Autobahn"/>
    <tag k="oneway" v="yes"/>
    <tag k="ref" v="A13"/>
    <tag k="toll" v="yes"/>
  </way>
  <way id="29987227" version="9" timestamp="2012-02-28T10:39:22Z" uid="115612" user="tyr_asd" changeset="10817446">
    <nd ref="300277618"/>
    <nd ref="13885926"/>
    <nd ref="14604941"/>
    <nd ref="1651372557"/>
    <nd ref="1651372552"/>
    <nd ref="13885765"/>
    <nd ref="14604939"/>
    <nd ref="13886177"/>
    <nd ref="1385508911"/>
    <nd ref="13885995"/>
    <nd ref="31387659"/>
    <nd ref="13885825"/>
    <nd ref="14604937"/>
    <nd ref="13885628"/>
    <nd ref="300277610"/>
    <nd ref="13885588"/>
    <nd ref="300277614"/>
    <nd ref="14604934"/>
    <nd ref="285451591"/>
    <nd ref="14604932"/>
    <nd ref="566114831"/>
    <tag k="highway" v="motorway"/>
    <tag k="int_ref" v="E 45"/>
    <tag k="name" v="Brenner Autobahn"/>
    <tag k="oneway" v="yes"/>
    <tag k="ref" v="A13"/>
    <tag k="toll" v="yes"/>
  </way>
  <way id="29987227" version="10" timestamp="2012-03-02T01:55:01Z" uid="45481" user="borisC" changeset="10844011">
    <nd ref="300277618"/>
    <nd ref="1655435686"/>
    <nd ref="13885926"/>
    <nd ref="14604941"/>
    <nd ref="1651372557"/>
    <nd ref="1651372552"/>
    <nd ref="13885765"/>
    <nd ref="14604939"/>
    <nd ref="13886177"/>
    <nd ref="1385508911"/>
    <nd ref="13885995"/>
    <nd ref="31387659"/>
    <nd ref="13885825"/>
    <nd ref="14604937"/>
    <nd ref="13885628"/>
    <nd ref="300277610"/>
    <nd ref="13885588"/>
    <nd ref="300277614"/>
    <nd ref="14604934"/>
    <nd ref="285451591"/>
    <nd ref="14604932"/>
    <nd ref="566114831"/>
    <tag k="highway" v="motorway"/>
    <tag k="int_ref" v="E 45"/>
    <tag k="name" v="Brenner Autobahn"/>
    <tag k="oneway" v="yes"/>
    <tag k="ref" v="A13"/>
    <tag k="toll" v="yes"/>
  </way>
  <way id="29987227" version="11" timestamp="2012-03-09T19:06:55Z" uid="45481" user="borisC" changeset="10924048">
    <nd ref="300277618"/>
    <nd ref="1655435686"/>
    <nd ref="13885926"/>
    <nd ref="1667692031"/>
    <nd ref="14604941"/>
    <nd ref="1651372557"/>
    <nd ref="1651372552"/>
    <nd ref="13885765"/>
    <tag k="highway" v="motorway"/>
    <tag k="int_ref" v="E 45"/>
    <tag k="name" v="Brenner Autobahn"/>
    <tag k="oneway" v="yes"/>
    <tag k="ref" v="A13"/>
    <tag k="toll" v="yes"/>
  </way>
  <way id="29987342" version="2" timestamp="2009-02-23T12:29:08Z" uid="34428" user="usm78-gis" changeset="634299"/>
  <way id="29987348" version="2" timestamp="2009-02-23T12:31:45Z" uid="34428" user="usm78-gis" changeset="634299"/>
  <way id="29987399" version="1" timestamp="2009-01-07T23:01:23Z" uid="30201" user="rrankin" changeset="755229">
    <nd ref="314143511"/>
    <nd ref="330127111"/>
    <nd ref="330127134"/>
    <nd ref="330127141"/>
    <tag k="highway" v="residential"/>
    <tag k="name" v="Luxford Road"/>
    <tag k="source" v="yahoo"/>
  </way>
  <way id="29987399" version="2" timestamp="2010-07-07T23:05:30Z" uid="74617" user="JohnSmith" changeset="5162525">
    <nd ref="314143511"/>
    <nd ref="330127111"/>
    <nd ref="330127134"/>
    <nd ref="330127141"/>
    <tag k="highway" v="residential"/>
    <tag k="maxspeed" v="50"/>
    <tag k="maxspeed:source" v="default residential speed limit in Australia"/>
    <tag k="name" v="Luxford Road"/>
    <tag k="source" v="yahoo"/>
  </way>
  <way id="29987399" version="3" timestamp="2012-01-18T02:32:45Z" uid="147510" user="woodpeck_fixbot" changeset="10424025">
    <nd ref="314143511"/>
    <nd ref="330127111"/>
    <nd ref="330127134"/>
    <nd ref="330127141"/>
    <tag k="highway" v="residential"/>
    <tag k="name" v="Luxford Road"/>
    <tag k="source" v="yahoo"/>
  </way>
  <way id="29987402" version="1" timestamp="2009-01-07T23:01:24Z" uid="30201" user="rrankin" changeset="755229">
    <nd ref="314050927"/>
    <nd ref="314050762"/>
    <nd ref="314050766"/>
    <nd ref="314050771"/>
    <nd ref="314050775"/>
    <nd ref="314050778"/>
    <tag k="highway" v="residential"/>
    <tag k="name" v="Bradman Road"/>
    <tag k="source" v="yahoo_imagery"/>
  </way>
  <way id="29987402" version="2" timestamp="2010-07-07T23:00:04Z" uid="74617" user="JohnSmith" changeset="5162525">
    <nd ref="314050927"/>
    <nd ref="314050762"/>
    <nd ref="314050766"/>
    <nd ref="314050771"/>
    <nd ref="314050775"/>
    <nd ref="314050778"/>
    <tag k="highway" v="residential"/>
    <tag k="maxspeed" v="50"/>
    <tag k="maxspeed:source" v="default residential speed limit in Australia"/>
    <tag k="name" v="Bradman Road"/>
    <tag k="source" v="yahoo_imagery"/>
  </way>
  <way id="29987402" version="3" timestamp="2012-01-18T02:32:46Z" uid="147510" user="woodpeck_fixbot" changeset="10424025">
    <nd ref="314050927"/>
    <nd ref="314050762"/>
    <nd ref="314050766"/>
    <nd ref="314050771"/>
    <nd ref="314050775"/>
    <nd ref="314050778"/>
    <tag k="highway" v="residential"/>
    <tag k="name" v="Bradman Road"/>
    <tag k="source" v="yahoo_imagery"/>
  </way>
  <way id="29987460" version="2" timestamp="2009-09-30T13:14:03Z" uid="36809" user="pfoten_weg_!_" changeset="2687886">
    <nd ref="243633112"/>
    <nd ref="243633113"/>
    <nd ref="243633114"/>
    <nd ref="243633115"/>
    <nd ref="243633116"/>
    <nd ref="243633117"/>
    <nd ref="243633119"/>
    <nd ref="243633120"/>
    <nd ref="243633121"/>
    <nd ref="243633122"/>
    <nd ref="243633123"/>
    <nd ref="243633125"/>
    <nd ref="243633127"/>
    <nd ref="243633129"/>
    <nd ref="243633135"/>
    <nd ref="243633190"/>
    <nd ref="243633191"/>
    <nd ref="243633192"/>
    <nd ref="243633193"/>
    <nd ref="243633195"/>
    <nd ref="243633233"/>
    <nd ref="243633237"/>
    <nd ref="243633238"/>
    <nd ref="243633245"/>
    <nd ref="243633247"/>
    <nd ref="243633249"/>
    <nd ref="243633251"/>
    <nd ref="243633259"/>
    <nd ref="243633260"/>
    <nd ref="243633261"/>
    <nd ref="243633262"/>
    <nd ref="243633263"/>
    <nd ref="243633264"/>
    <nd ref="243633265"/>
    <nd ref="243633266"/>
    <nd ref="243633267"/>
    <nd ref="243633268"/>
    <nd ref="243633269"/>
    <tag k="highway" v="residential"/>
    <tag k="name" v="Kranebitten"/>
  </way>
  <way id="29987460" version="3" timestamp="2009-11-16T15:10:10Z" uid="45347" user="eriosw" changeset="3132469">
    <nd ref="243633112"/>
    <nd ref="243633113"/>
    <nd ref="243633114"/>
    <tag k="highway" v="residential"/>
    <tag k="name" v="Kranebitten"/>
  </way>
  <way id="29987595" version="2" timestamp="2009-08-11T19:29:55Z" uid="23543" user="jkjk" changeset="2112059">
    <nd ref="330130668"/>
    <nd ref="330130669"/>
    <nd ref="330130670"/>
    <nd ref="330130672"/>
    <tag k="highway" v="track"/>
  </way>
  <way id="29987629" version="2" timestamp="2010-07-09T03:23:36Z" uid="74617" user="JohnSmith" changeset="5170713">
    <nd ref="330130990"/>
    <nd ref="305552341"/>
    <tag k="highway" v="residential"/>
    <tag k="maxspeed" v="50"/>
    <tag k="maxspeed:source" v="default residential speed limit in Australia"/>
    <tag k="name" v="Huntley Street"/>
    <tag k="source:name" v="survey"/>
  </way>
  <way id="29987629" version="3" timestamp="2011-03-26T07:10:08Z" uid="11111" user="melb_guy" changeset="7672260">
    <nd ref="330130990"/>
    <nd ref="1218595475"/>
    <nd ref="1218595419"/>
    <nd ref="1218595488"/>
    <nd ref="305552341"/>
    <tag k="highway" v="residential"/>
    <tag k="maxspeed" v="50"/>
    <tag k="maxspeed:source" v="default residential speed limit in Australia"/>
    <tag k="name" v="Huntley Street"/>
    <tag k="source:name" v="survey"/>
  </way>
  <way id="29987629" version="4" timestamp="2012-01-18T02:32:48Z" uid="147510" user="woodpeck_fixbot" changeset="10424025">
    <nd ref="330130990"/>
    <nd ref="1218595475"/>
    <nd ref="1218595419"/>
    <nd ref="1218595488"/>
    <nd ref="305552341"/>
    <tag k="highway" v="residential"/>
    <tag k="name" v="Huntley Street"/>
    <tag k="source:name" v="survey"/>
  </way>
  <way id="29987652" version="2" timestamp="2010-07-09T03:21:03Z" uid="74617" user="JohnSmith" changeset="5170713">
    <nd ref="330132069"/>
    <nd ref="330132180"/>
    <tag k="highway" v="residential"/>
    <tag k="maxspeed" v="50"/>
    <tag k="maxspeed:source" v="default residential speed limit in Australia"/>
    <tag k="name" v="Airlie Street"/>
    <tag k="source" v="yahoo"/>
    <tag k="source:name" v="survey"/>
  </way>
  <way id="29987652" version="3" timestamp="2012-01-18T02:32:49Z" uid="147510" user="woodpeck_fixbot" changeset="10424025">
    <nd ref="330132069"/>
    <nd ref="330132180"/>
    <tag k="highway" v="residential"/>
    <tag k="name" v="Airlie Street"/>
    <tag k="source" v="yahoo"/>
    <tag k="source:name" v="survey"/>
  </way>
  <way id="29987657" version="2" timestamp="2010-07-09T03:18:21Z" uid="74617" user="JohnSmith" changeset="5170713">
    <nd ref="330132194"/>
    <nd ref="330132348"/>
    <tag k="highway" v="residential"/>
    <tag k="maxspeed" v="50"/>
    <tag k="maxspeed:source" v="default residential speed limit in Australia"/>
    <tag k="name" v="Salisbury Street"/>
    <tag k="source" v="yahoo"/>
    <tag k="source:name" v="survey"/>
  </way>
  <way id="29987657" version="3" timestamp="2012-01-18T02:32:51Z" uid="147510" user="woodpeck_fixbot" changeset="10424025">
    <nd ref="330132194"/>
    <nd ref="330132348"/>
    <tag k="highway" v="residential"/>
    <tag k="name" v="Salisbury Street"/>
    <tag k="source" v="yahoo"/>
    <tag k="source:name" v="survey"/>
  </way>
  <way id="29987685" version="3" timestamp="2010-07-09T03:24:42Z" uid="74617" user="JohnSmith" changeset="5170713">
    <nd ref="330132764"/>
    <nd ref="374967922"/>
    <tag k="highway" v="residential"/>
    <tag k="maxspeed" v="50"/>
    <tag k="maxspeed:source" v="default residential speed limit in Australia"/>
    <tag k="name" v="Glendora Avenue"/>
  </way>
  <way id="29987685" version="4" timestamp="2012-01-18T02:32:52Z" uid="147510" user="woodpeck_fixbot" changeset="10424025">
    <nd ref="330132764"/>
    <nd ref="374967922"/>
    <tag k="highway" v="residential"/>
    <tag k="name" v="Glendora Avenue"/>
  </way>
  <way id="29987688" version="3" timestamp="2010-07-09T03:18:26Z" uid="74617" user="JohnSmith" changeset="5170713">
    <nd ref="329945475"/>
    <nd ref="330132910"/>
    <tag k="highway" v="residential"/>
    <tag k="maxspeed" v="50"/>
    <tag k="maxspeed:source" v="default residential speed limit in Australia"/>
    <tag k="name" v="Edmanson Avenue"/>
  </way>
  <way id="29987688" version="4" timestamp="2011-03-26T07:10:09Z" uid="11111" user="melb_guy" changeset="7672260">
    <nd ref="1218595354"/>
    <nd ref="1218595482"/>
    <nd ref="330132910"/>
    <tag k="highway" v="residential"/>
    <tag k="maxspeed" v="50"/>
    <tag k="maxspeed:source" v="default residential speed limit in Australia"/>
    <tag k="name" v="Edmanson Avenue"/>
  </way>
  <way id="29987688" version="5" timestamp="2012-01-18T02:32:53Z" uid="147510" user="woodpeck_fixbot" changeset="10424025">
    <nd ref="1218595354"/>
    <nd ref="1218595482"/>
    <nd ref="330132910"/>
    <tag k="highway" v="residential"/>
    <tag k="name" v="Edmanson Avenue"/>
  </way>
  <way id="29987721" version="2" timestamp="2010-04-05T15:52:28Z" uid="20587" user="balrog-kun" changeset="4334369">
    <nd ref="176077219"/>
    <nd ref="176089666"/>
    <nd ref="176098786"/>
    <nd ref="176088706"/>
    <nd ref="176071392"/>
    <nd ref="176093236"/>
    <nd ref="176064209"/>
    <nd ref="176090660"/>
    <nd ref="176083878"/>
    <nd ref="176106078"/>
    <nd ref="176094586"/>
    <nd ref="176081605"/>
    <nd ref="176081663"/>
    <nd ref="176104174"/>
    <nd ref="176093910"/>
    <nd ref="176074918"/>
    <nd ref="176093483"/>
    <nd ref="176084614"/>
    <nd ref="176082490"/>
    <tag k="created_by" v="Potlatch 0.10f"/>
    <tag k="highway" v="residential"/>
    <tag k="name" v="West 36th Avenue"/>
    <tag k="tiger:cfcc" v="A41"/>
    <tag k="tiger:county" v="Denver, CO"/>
    <tag k="tiger:name_base" v="36th"/>
    <tag k="tiger:name_direction_prefix" v="W"/>
    <tag k="tiger:name_type" v="Ave"/>
    <tag k="tiger:reviewed" v="no"/>
    <tag k="tiger:separated" v="no"/>
    <tag k="tiger:source" v="tiger_import_dch_v0.6_20070809"/>
    <tag k="tiger:tlid" v="177300894:177301161:177301184:177301260:177301262:177301191:177301168:177301281:177301288:177303491:177303508:177303602:177303603:177303610:177303518:177303486:177303852:177389797:177303634"/>
    <tag k="tiger:zip_left" v="80211"/>
    <tag k="tiger:zip_right" v="80211"/>
  </way>
  <way id="29987721" version="3" timestamp="2010-07-08T02:11:43Z" uid="139555" user="DavidJDBA" changeset="5163048">
    <nd ref="176077219"/>
    <nd ref="176089666"/>
    <nd ref="176098786"/>
    <nd ref="176088706"/>
    <nd ref="176071392"/>
    <nd ref="176093236"/>
    <nd ref="176064209"/>
    <nd ref="176090660"/>
    <nd ref="176083878"/>
    <nd ref="176106078"/>
    <nd ref="176094586"/>
    <nd ref="176081605"/>
    <nd ref="176081663"/>
    <nd ref="176104174"/>
    <nd ref="176093910"/>
    <nd ref="176074918"/>
    <nd ref="176093483"/>
    <nd ref="176084614"/>
    <nd ref="176082490"/>
    <tag k="highway" v="residential"/>
    <tag k="name" v="West 36th Avenue"/>
    <tag k="tiger:cfcc" v="A41"/>
    <tag k="tiger:county" v="Denver, CO"/>
    <tag k="tiger:name_base" v="36th"/>
    <tag k="tiger:name_direction_prefix" v="W"/>
    <tag k="tiger:name_type" v="Ave"/>
    <tag k="tiger:reviewed" v="no"/>
    <tag k="tiger:separated" v="no"/>
    <tag k="tiger:source" v="tiger_import_dch_v0.6_20070809"/>
    <tag k="tiger:tlid" v="177300894:177301161:177301184:177301260:177301262:177301191:177301168:177301281:177301288:177303491:177303508:177303602:177303603:177303610:177303518:177303486:177303852:177389797:177303634"/>
    <tag k="tiger:zip_left" v="80211"/>
    <tag k="tiger:zip_right" v="80211"/>
  </way>
  <way id="29987721" version="4" timestamp="2010-07-08T02:43:29Z" uid="139555" user="DavidJDBA" changeset="5163048">
    <nd ref="176077219"/>
    <nd ref="176089666"/>
    <nd ref="176098786"/>
    <nd ref="176088706"/>
    <nd ref="176071392"/>
    <nd ref="176093236"/>
    <nd ref="176064209"/>
    <nd ref="176090660"/>
    <nd ref="176083878"/>
    <nd ref="176106078"/>
    <nd ref="176094586"/>
    <nd ref="176081605"/>
    <tag k="highway" v="residential"/>
    <tag k="name" v="West 36th Avenue"/>
    <tag k="tiger:cfcc" v="A41"/>
    <tag k="tiger:county" v="Denver, CO"/>
    <tag k="tiger:name_base" v="36th"/>
    <tag k="tiger:name_direction_prefix" v="W"/>
    <tag k="tiger:name_type" v="Ave"/>
    <tag k="tiger:reviewed" v="no"/>
    <tag k="tiger:separated" v="no"/>
    <tag k="tiger:source" v="tiger_import_dch_v0.6_20070809"/>
    <tag k="tiger:tlid" v="177300894:177301161:177301184:177301260:177301262:177301191:177301168:177301281:177301288:177303491:177303508:177303602:177303603:177303610:177303518:177303486:177303852:177389797:177303634"/>
    <tag k="tiger:zip_left" v="80211"/>
    <tag k="tiger:zip_right" v="80211"/>
  </way>
</osm>
