<?xml version='1.0' encoding='UTF-8'?>
<osm version="0.6" generator="libosmium/2.20.0">
  <way id="30083087" version="3" timestamp="2009-01-19T14:58:58Z" uid="58091" user="Andreas M" changeset="812902">
    <nd ref="27026860"/>
    <nd ref="333671045"/>
    <nd ref="61969537"/>
    <tag k="created_by" v="Potlatch 0.10f"/>
    <tag k="highway" v="residential"/>
    <tag k="name" v="Boerhaavegasse"/>
  </way>
  <way id="30083087" version="4" timestamp="2009-07-18T07:24:52Z" uid="38255" user="BearT" changeset="1860671">
    <nd ref="27026860"/>
    <nd ref="443231646"/>
    <tag k="highway" v="residential"/>
    <tag k="name" v="Boerhaavegasse"/>
    <tag k="oneway" v="yes"/>
  </way>
  <way id="30083087" version="5" timestamp="2011-03-06T08:47:48Z" uid="38255" user="BearT" changeset="7470665">
    <nd ref="27026860"/>
    <nd ref="443231646"/>
    <tag k="highway" v="residential"/>
    <tag k="maxspeed" v="30"/>
    <tag k="name" v="Boerhaavegasse"/>
    <tag k="oneway" v="yes"/>
  </way>
  <way id="30083087" version="6" timestamp="2011-03-06T12:06:04Z" uid="38255" user="BearT" changeset="7472404">
    <nd ref="27026860"/>
    <nd ref="443231646"/>
    <tag k="highway" v="residential"/>
    <tag k="maxspeed" v="30"/>
    <tag k="name" v="Boerhaavegasse"/>
    <tag k="oneway" v="yes"/>
    <tag k="source:maxspeed" v="AT:zone"/>
  </way>
  <way id="30083087" version="7" timestamp="2012-03-18T19:27:34Z" uid="38255" user="BearT" changeset="11023011">
    <nd ref="27026860"/>
    <nd ref="443231646"/>
    <tag k="highway" v="residential"/>
    <tag k="maxspeed" v="30"/>
    <tag k="name" v="Boerhaavegasse"/>
    <tag k="oneway" v="yes"/>
    <tag k="source:maxspeed" v="AT:zone"/>
    <tag k="wikipedia:de" v="Herman_Boerhaave"/>
  </way>
  <way id="30083448" version="2" timestamp="2009-07-25T16:47:56Z" uid="74617" user="JohnSmith" changeset="1936162">
    <nd ref="186560947"/>
    <nd ref="447886987"/>
    <tag k="highway" v="residential"/>
  </way>
  <way id="30083448" version="3" timestamp="2012-01-11T20:03:56Z" uid="341519" user="lcmortensen" changeset="10363887"/>
</osm>
