<?xml version='1.0' encoding='UTF-8'?>
<osm version="0.6" generator="libosmium/2.20.0">
  <way id="3008791" version="2" timestamp="2010-01-01T00:21:16Z" uid="7617" user="Franc" changeset="3504671">
    <nd ref="14291650"/>
    <nd ref="602376221"/>
    <nd ref="602376216"/>
    <nd ref="14291637"/>
    <nd ref="14296298"/>
    <tag k="abutters" v="residential"/>
    <tag k="highway" v="secondary"/>
    <tag k="name" v="Hopetoun Avenue"/>
  </way>
  <way id="3008791" version="3" timestamp="2010-01-29T22:26:39Z" uid="30201" user="rrankin" changeset="3747149">
    <nd ref="14291650"/>
    <nd ref="602376221"/>
    <nd ref="602376216"/>
    <nd ref="14291637"/>
    <nd ref="14296298"/>
    <tag k="highway" v="secondary"/>
    <tag k="name" v="Hopetoun Avenue"/>
  </way>
  <way id="3008791" version="4" timestamp="2010-03-19T10:22:59Z" uid="20949" user="Ebenezer" changeset="4168655">
    <nd ref="14291650"/>
    <nd ref="602376221"/>
    <nd ref="602376216"/>
    <nd ref="14291637"/>
    <tag k="highway" v="secondary"/>
    <tag k="name" v="Hopetoun Avenue"/>
  </way>
  <way id="3008791" version="5" timestamp="2010-09-14T13:10:54Z" uid="79475" user="AlexOnTheBus" changeset="5778379">
    <nd ref="14291650"/>
    <nd ref="602376221"/>
    <nd ref="602376216"/>
    <nd ref="14291637"/>
    <tag k="highway" v="tertiary"/>
    <tag k="name" v="Hopetoun Avenue"/>
  </way>
  <way id="3008793" version="2" timestamp="2010-07-07T21:48:31Z" uid="74617" user="JohnSmith" changeset="5161069">
    <nd ref="14296359"/>
    <nd ref="14296354"/>
    <nd ref="14296355"/>
    <nd ref="14296356"/>
    <nd ref="14296357"/>
    <nd ref="14296358"/>
    <nd ref="14296359"/>
    <tag k="highway" v="residential"/>
    <tag k="maxspeed" v="50"/>
    <tag k="maxspeed:source" v="default residential speed limit in Australia"/>
    <tag k="name" v="Pacific Street"/>
  </way>
  <way id="3008793" version="3" timestamp="2012-01-08T02:31:16Z" uid="147510" user="woodpeck_fixbot" changeset="10327743">
    <nd ref="14296359"/>
    <nd ref="14296354"/>
    <nd ref="14296355"/>
    <nd ref="14296356"/>
    <nd ref="14296357"/>
    <nd ref="14296358"/>
    <nd ref="14296359"/>
    <tag k="highway" v="residential"/>
    <tag k="name" v="Pacific Street"/>
  </way>
  <way id="3008795" version="2" timestamp="2009-01-24T12:52:53Z" uid="7617" user="Franc" changeset="830203">
    <nd ref="14296341"/>
    <nd ref="14296380"/>
    <nd ref="14296335"/>
    <nd ref="14296360"/>
    <tag k="created_by" v="JOSM"/>
    <tag k="highway" v="residential"/>
    <tag k="name" v="Victoria Street"/>
    <tag k="oneway" v="yes"/>
  </way>
  <way id="3008795" version="3" timestamp="2010-01-01T00:21:14Z" uid="7617" user="Franc" changeset="3504671">
    <nd ref="14296341"/>
    <nd ref="14296380"/>
    <nd ref="14296335"/>
    <nd ref="602376213"/>
    <nd ref="14296360"/>
    <tag k="highway" v="residential"/>
    <tag k="name" v="Victoria Street"/>
    <tag k="oneway" v="yes"/>
  </way>
  <way id="3008795" version="4" timestamp="2010-07-07T21:47:34Z" uid="74617" user="JohnSmith" changeset="5161069">
    <nd ref="14296341"/>
    <nd ref="14296380"/>
    <nd ref="14296335"/>
    <nd ref="602376213"/>
    <nd ref="14296360"/>
    <tag k="highway" v="residential"/>
    <tag k="maxspeed" v="50"/>
    <tag k="maxspeed:source" v="default residential speed limit in Australia"/>
    <tag k="name" v="Victoria Street"/>
    <tag k="oneway" v="yes"/>
  </way>
  <way id="3008795" version="5" timestamp="2011-02-20T00:33:07Z" uid="104101" user="swanilli" changeset="7338097">
    <nd ref="14296341"/>
    <nd ref="1162539128"/>
    <nd ref="14296380"/>
    <nd ref="14296335"/>
    <nd ref="602376213"/>
    <nd ref="14296360"/>
    <tag k="highway" v="residential"/>
    <tag k="maxspeed" v="50"/>
    <tag k="maxspeed:source" v="default residential speed limit in Australia"/>
    <tag k="name" v="Victoria Street"/>
    <tag k="oneway" v="yes"/>
  </way>
  <way id="3008795" version="6" timestamp="2012-01-08T02:31:17Z" uid="147510" user="woodpeck_fixbot" changeset="10327743">
    <nd ref="14296341"/>
    <nd ref="1162539128"/>
    <nd ref="14296380"/>
    <nd ref="14296335"/>
    <nd ref="602376213"/>
    <nd ref="14296360"/>
    <tag k="highway" v="residential"/>
    <tag k="name" v="Victoria Street"/>
    <tag k="oneway" v="yes"/>
  </way>
  <way id="3008796" version="2" timestamp="2009-01-24T14:16:28Z" uid="7617" user="Franc" changeset="830819">
    <nd ref="8529928"/>
    <nd ref="14296331"/>
    <tag k="created_by" v="JOSM"/>
    <tag k="highway" v="residential"/>
    <tag k="name" v="Short Street"/>
    <tag k="oneway" v="yes"/>
  </way>
  <way id="3008796" version="3" timestamp="2010-01-01T00:21:15Z" uid="7617" user="Franc" changeset="3504671">
    <nd ref="8529928"/>
    <nd ref="602376204"/>
    <nd ref="14296331"/>
    <tag k="highway" v="residential"/>
    <tag k="name" v="Short Street"/>
    <tag k="oneway" v="yes"/>
  </way>
  <way id="3008796" version="4" timestamp="2010-07-07T21:55:09Z" uid="74617" user="JohnSmith" changeset="5161069">
    <nd ref="8529928"/>
    <nd ref="602376204"/>
    <nd ref="14296331"/>
    <tag k="highway" v="residential"/>
    <tag k="maxspeed" v="50"/>
    <tag k="maxspeed:source" v="default residential speed limit in Australia"/>
    <tag k="name" v="Short Street"/>
    <tag k="oneway" v="yes"/>
  </way>
  <way id="3008796" version="5" timestamp="2012-01-08T02:31:18Z" uid="147510" user="woodpeck_fixbot" changeset="10327743">
    <nd ref="8529928"/>
    <nd ref="602376204"/>
    <nd ref="14296331"/>
    <tag k="highway" v="residential"/>
    <tag k="name" v="Short Street"/>
    <tag k="oneway" v="yes"/>
  </way>
  <way id="3008797" version="2" timestamp="2009-01-24T14:16:27Z" uid="7617" user="Franc" changeset="830819">
    <nd ref="14296331"/>
    <nd ref="335913338"/>
    <nd ref="14296330"/>
    <nd ref="14296333"/>
    <nd ref="14296335"/>
    <tag k="created_by" v="JOSM"/>
    <tag k="highway" v="residential"/>
    <tag k="name" v="Cove Street"/>
    <tag k="oneway" v="yes"/>
  </way>
  <way id="3008797" version="3" timestamp="2010-01-01T00:21:14Z" uid="7617" user="Franc" changeset="3504671">
    <nd ref="14296331"/>
    <nd ref="335913338"/>
    <nd ref="14296333"/>
    <nd ref="602376212"/>
    <nd ref="14296335"/>
    <tag k="highway" v="residential"/>
    <tag k="name" v="Cove Street"/>
    <tag k="oneway" v="yes"/>
  </way>
  <way id="3008797" version="4" timestamp="2010-07-07T21:50:48Z" uid="74617" user="JohnSmith" changeset="5161069">
    <nd ref="14296331"/>
    <nd ref="335913338"/>
    <nd ref="14296333"/>
    <nd ref="602376212"/>
    <nd ref="14296335"/>
    <tag k="highway" v="residential"/>
    <tag k="maxspeed" v="50"/>
    <tag k="maxspeed:source" v="default residential speed limit in Australia"/>
    <tag k="name" v="Cove Street"/>
    <tag k="oneway" v="yes"/>
  </way>
  <way id="3008797" version="5" timestamp="2012-01-08T02:31:19Z" uid="147510" user="woodpeck_fixbot" changeset="10327743">
    <nd ref="14296331"/>
    <nd ref="335913338"/>
    <nd ref="14296333"/>
    <nd ref="602376212"/>
    <nd ref="14296335"/>
    <tag k="highway" v="residential"/>
    <tag k="name" v="Cove Street"/>
    <tag k="oneway" v="yes"/>
  </way>
  <way id="3008799" version="2" timestamp="2010-07-07T21:49:40Z" uid="74617" user="JohnSmith" changeset="5161069">
    <nd ref="14296336"/>
    <nd ref="14296344"/>
    <tag k="highway" v="residential"/>
    <tag k="maxspeed" v="50"/>
    <tag k="maxspeed:source" v="default residential speed limit in Australia"/>
    <tag k="name" v="Camp Street"/>
  </way>
  <way id="3008799" version="3" timestamp="2012-01-08T02:31:20Z" uid="147510" user="woodpeck_fixbot" changeset="10327743">
    <nd ref="14296336"/>
    <nd ref="14296344"/>
    <tag k="highway" v="residential"/>
    <tag k="name" v="Camp Street"/>
  </way>
  <way id="3008801" version="2" timestamp="2010-01-01T00:21:16Z" uid="7617" user="Franc" changeset="3504671">
    <nd ref="14296360"/>
    <nd ref="602376215"/>
    <nd ref="14296361"/>
    <nd ref="14296362"/>
    <nd ref="14296364"/>
    <nd ref="14296367"/>
    <nd ref="14296369"/>
    <nd ref="14296370"/>
    <tag k="highway" v="footway"/>
  </way>
  <way id="3008802" version="2" timestamp="2009-01-24T14:16:13Z" uid="7617" user="Franc" changeset="830819">
    <nd ref="14296360"/>
    <nd ref="14296382"/>
    <nd ref="335913337"/>
    <nd ref="14296371"/>
    <nd ref="8529933"/>
    <tag k="created_by" v="JOSM"/>
    <tag k="highway" v="unclassified"/>
    <tag k="name" v="Cliff Street"/>
  </way>
  <way id="3008802" version="3" timestamp="2010-01-01T00:21:15Z" uid="7617" user="Franc" changeset="3504671">
    <nd ref="14296360"/>
    <nd ref="602376214"/>
    <nd ref="14296382"/>
    <nd ref="335913337"/>
    <nd ref="14296371"/>
    <nd ref="8529933"/>
    <tag k="highway" v="unclassified"/>
    <tag k="name" v="Cliff Street"/>
  </way>
  <way id="3008805" version="2" timestamp="2010-01-01T06:06:58Z" uid="7617" user="Franc" changeset="3505433">
    <nd ref="8529916"/>
    <nd ref="14296307"/>
    <nd ref="602418379"/>
    <nd ref="14296308"/>
    <nd ref="14296309"/>
    <nd ref="602418369"/>
    <nd ref="14296316"/>
    <nd ref="14296318"/>
    <nd ref="14296319"/>
    <nd ref="14296320"/>
    <nd ref="14296321"/>
    <nd ref="14296323"/>
    <nd ref="14296327"/>
    <tag k="highway" v="footway"/>
    <tag k="name" v="Marine Parade"/>
  </way>
  <way id="3008806" version="2" timestamp="2010-01-01T00:21:15Z" uid="7617" user="Franc" changeset="3504671">
    <nd ref="14296327"/>
    <nd ref="14296328"/>
    <nd ref="14296329"/>
    <tag k="highway" v="footway"/>
  </way>
  <way id="3008806" version="3" timestamp="2010-01-01T06:06:59Z" uid="7617" user="Franc" changeset="3505433">
    <nd ref="14296327"/>
    <nd ref="14296328"/>
    <nd ref="14296329"/>
    <nd ref="14296331"/>
    <tag k="highway" v="footway"/>
  </way>
</osm>
