<?xml version='1.0' encoding='UTF-8'?>
<osm version="0.6" generator="libosmium/2.20.0">
  <way id="30193155" version="7" timestamp="2011-01-09T01:15:01Z" uid="49111" user="Markus B" changeset="6911133">
    <nd ref="525488117"/>
    <nd ref="1092841860"/>
    <nd ref="332675949"/>
    <nd ref="563318156"/>
    <tag k="highway" v="unclassified"/>
  </way>
  <way id="30193155" version="8" timestamp="2011-04-09T10:15:29Z" uid="50274" user="crom" changeset="7811728">
    <nd ref="525488117"/>
    <nd ref="1092841860"/>
    <nd ref="332675949"/>
    <nd ref="563318156"/>
    <tag k="highway" v="road"/>
  </way>
  <way id="30193155" version="9" timestamp="2011-04-11T12:40:49Z" uid="50274" user="crom" changeset="7832686">
    <nd ref="525488117"/>
    <nd ref="1092841860"/>
    <nd ref="332675949"/>
    <nd ref="563318156"/>
    <tag k="highway" v="residential"/>
  </way>
  <way id="30193201" version="3" timestamp="2009-04-10T20:29:25Z" uid="49111" user="Markus B" changeset="386726">
    <nd ref="332676905"/>
    <nd ref="332676907"/>
    <nd ref="332676908"/>
    <nd ref="332676909"/>
    <nd ref="332676910"/>
    <nd ref="332676911"/>
    <nd ref="332676912"/>
    <tag k="created_by" v="Potlatch 0.10f"/>
    <tag k="highway" v="track"/>
    <tag k="tracktype" v="grade4"/>
  </way>
  <way id="30193239" version="2" timestamp="2009-04-10T20:29:27Z" uid="49111" user="Markus B" changeset="386726">
    <nd ref="332677007"/>
    <nd ref="332677008"/>
    <nd ref="332677009"/>
    <nd ref="332677010"/>
    <nd ref="332677011"/>
    <nd ref="371752245"/>
    <nd ref="332677012"/>
    <nd ref="332677014"/>
    <nd ref="332677015"/>
    <nd ref="332677017"/>
    <nd ref="332677018"/>
    <nd ref="332677019"/>
    <nd ref="332677020"/>
    <nd ref="332676905"/>
    <tag k="created_by" v="Potlatch 0.10f"/>
    <tag k="highway" v="track"/>
  </way>
  <way id="30193239" version="3" timestamp="2009-04-13T17:48:14Z" uid="49111" user="Markus B" changeset="490011">
    <nd ref="332676905"/>
    <nd ref="332677020"/>
    <nd ref="332677019"/>
    <nd ref="332677018"/>
    <nd ref="332677017"/>
    <nd ref="332677015"/>
    <nd ref="332677014"/>
    <nd ref="332677012"/>
    <nd ref="371752245"/>
    <nd ref="332677011"/>
    <nd ref="332677010"/>
    <nd ref="332677009"/>
    <nd ref="332677008"/>
    <nd ref="332677007"/>
    <tag k="access" v="agricultural"/>
    <tag k="created_by" v="Potlatch 0.10f"/>
    <tag k="highway" v="track"/>
    <tag k="motorcar" v="no"/>
    <tag k="motorcycle" v="no"/>
    <tag k="tracktype" v="grade1"/>
  </way>
  <way id="30193239" version="4" timestamp="2009-07-30T19:33:23Z" uid="150169" user="mskyp71" changeset="1988424">
    <nd ref="332676905"/>
    <nd ref="332677020"/>
    <nd ref="332677019"/>
    <nd ref="332677018"/>
    <nd ref="332677017"/>
    <nd ref="332677015"/>
    <nd ref="452076998"/>
    <nd ref="332677014"/>
    <nd ref="332677012"/>
    <nd ref="371752245"/>
    <nd ref="332677011"/>
    <nd ref="332677010"/>
    <nd ref="332677009"/>
    <nd ref="332677008"/>
    <nd ref="332677007"/>
    <tag k="access" v="agricultural"/>
    <tag k="created_by" v="Potlatch 0.10f"/>
    <tag k="highway" v="track"/>
    <tag k="motorcar" v="no"/>
    <tag k="motorcycle" v="no"/>
    <tag k="tracktype" v="grade1"/>
  </way>
  <way id="30193239" version="5" timestamp="2009-11-10T16:22:25Z" uid="41113" user="cycling_zno" changeset="3083149">
    <nd ref="332676905"/>
    <nd ref="332677020"/>
    <tag k="access" v="agricultural"/>
    <tag k="highway" v="track"/>
    <tag k="motorcar" v="no"/>
    <tag k="motorcycle" v="no"/>
    <tag k="tracktype" v="grade1"/>
  </way>
  <way id="30193526" version="3" timestamp="2010-03-03T10:17:34Z" uid="115477" user="wowik" changeset="4023452">
    <nd ref="332681069"/>
    <nd ref="332681073"/>
    <nd ref="332681076"/>
    <nd ref="332681080"/>
    <nd ref="332681084"/>
    <nd ref="332681089"/>
    <nd ref="332681114"/>
    <nd ref="332681093"/>
    <nd ref="659695363"/>
    <tag k="highway" v="residential"/>
    <tag k="name" v="Ленинградская улица"/>
  </way>
  <way id="30193526" version="4" timestamp="2010-05-14T08:59:29Z" uid="115477" user="wowik" changeset="4693363">
    <nd ref="332681069"/>
    <nd ref="332681073"/>
    <nd ref="733719495"/>
    <nd ref="332681076"/>
    <nd ref="332681080"/>
    <nd ref="332681084"/>
    <nd ref="332681089"/>
    <nd ref="332681114"/>
    <nd ref="332681093"/>
    <nd ref="659695363"/>
    <tag k="highway" v="residential"/>
    <tag k="name" v="Ленинградская улица"/>
  </way>
  <way id="30193526" version="5" timestamp="2011-05-22T18:41:48Z" uid="244719" user="BigViking" changeset="8219604">
    <nd ref="332681069"/>
    <nd ref="332681073"/>
    <nd ref="733719495"/>
    <nd ref="332681076"/>
    <nd ref="332681080"/>
    <nd ref="332681084"/>
    <nd ref="332681089"/>
    <nd ref="332681114"/>
    <nd ref="332681093"/>
    <nd ref="659695363"/>
    <tag k="highway" v="tertiary"/>
    <tag k="name" v="Ленинградская шоссе"/>
  </way>
  <way id="30193526" version="6" timestamp="2011-05-22T20:10:49Z" uid="244719" user="BigViking" changeset="8220688">
    <nd ref="332681069"/>
    <nd ref="332681073"/>
    <nd ref="733719495"/>
    <nd ref="332681076"/>
    <nd ref="332681080"/>
    <nd ref="332681084"/>
    <nd ref="332681089"/>
    <nd ref="332681114"/>
    <nd ref="332681093"/>
    <nd ref="659695363"/>
    <tag k="highway" v="tertiary"/>
    <tag k="name" v="Ленинградское шоссе"/>
  </way>
  <way id="30193526" version="7" timestamp="2011-05-23T14:29:42Z" uid="115477" user="wowik" changeset="8225200">
    <nd ref="332681069"/>
    <nd ref="332681073"/>
    <nd ref="733719495"/>
    <nd ref="332681076"/>
    <nd ref="1297326176"/>
    <nd ref="332681080"/>
    <nd ref="1297326272"/>
    <nd ref="1297326325"/>
    <nd ref="332681084"/>
    <nd ref="332681089"/>
    <nd ref="332681114"/>
    <nd ref="332681093"/>
    <nd ref="659695363"/>
    <tag k="highway" v="tertiary"/>
  </way>
  <way id="30193526" version="8" timestamp="2011-05-24T17:31:31Z" uid="244719" user="BigViking" changeset="8237554">
    <nd ref="332681069"/>
    <nd ref="332681073"/>
    <nd ref="733719495"/>
    <nd ref="332681076"/>
    <nd ref="1297326176"/>
    <nd ref="332681080"/>
    <nd ref="1297326272"/>
    <nd ref="1297326325"/>
    <nd ref="332681084"/>
    <nd ref="332681089"/>
    <nd ref="332681114"/>
    <nd ref="332681093"/>
    <nd ref="659695363"/>
    <tag k="highway" v="tertiary"/>
    <tag k="name" v="Ленинградское шоссе"/>
  </way>
  <way id="30193526" version="9" timestamp="2011-05-24T20:14:47Z" uid="115477" user="wowik" changeset="8239342">
    <nd ref="332681069"/>
    <nd ref="332681073"/>
    <nd ref="733719495"/>
    <nd ref="332681076"/>
    <nd ref="1297326176"/>
    <nd ref="332681080"/>
    <nd ref="1297326272"/>
    <nd ref="1297326325"/>
    <nd ref="332681084"/>
    <nd ref="332681089"/>
    <nd ref="332681114"/>
    <nd ref="332681093"/>
    <nd ref="659695363"/>
    <tag k="highway" v="tertiary"/>
    <tag k="note" v="Ленинградское шоссе проходит паралельно с северо-востока"/>
  </way>
  <way id="30193526" version="10" timestamp="2011-05-30T06:27:55Z" uid="115477" user="wowik" changeset="8288957">
    <nd ref="332681069"/>
    <nd ref="332681073"/>
    <nd ref="733719495"/>
    <nd ref="332681076"/>
    <nd ref="1297326176"/>
    <nd ref="332681080"/>
    <nd ref="1297326272"/>
    <nd ref="1297326325"/>
    <nd ref="332681084"/>
    <nd ref="332681089"/>
    <nd ref="332681114"/>
    <nd ref="332681093"/>
    <nd ref="659695363"/>
    <tag k="highway" v="unclassified"/>
    <tag k="living_street" v="yes"/>
    <tag k="note" v="Ленинградское шоссе проходит паралельно с северо-востока"/>
  </way>
  <way id="30193526" version="11" timestamp="2011-06-01T09:37:40Z" uid="115477" user="wowik" changeset="8308705">
    <nd ref="332681069"/>
    <nd ref="332681073"/>
    <nd ref="733719495"/>
    <nd ref="332681076"/>
    <nd ref="1297326176"/>
    <nd ref="332681080"/>
    <nd ref="1297326272"/>
    <nd ref="1297326325"/>
    <nd ref="332681084"/>
    <nd ref="332681089"/>
    <nd ref="332681114"/>
    <nd ref="332681093"/>
    <nd ref="659695363"/>
    <tag k="highway" v="unclassified"/>
    <tag k="living_street" v="yes"/>
    <tag k="note" v="Ленинградское шоссе проходит паралельно с северо-востока"/>
    <tag k="old_name" v="Ленинградская улица"/>
  </way>
  <way id="30193527" version="2" timestamp="2009-10-06T18:31:56Z" uid="115477" user="wowik" changeset="2764065">
    <nd ref="332681172"/>
    <nd ref="332681169"/>
    <nd ref="332681165"/>
    <nd ref="332681147"/>
    <nd ref="332681104"/>
    <nd ref="332681107"/>
    <nd ref="332681110"/>
    <nd ref="332681114"/>
    <tag k="highway" v="residential"/>
  </way>
  <way id="30193527" version="3" timestamp="2010-04-28T11:34:30Z" uid="115477" user="wowik" changeset="4548366">
    <nd ref="332681172"/>
    <nd ref="332681169"/>
    <nd ref="332681165"/>
    <nd ref="332681147"/>
    <nd ref="710366021"/>
    <nd ref="332681104"/>
    <nd ref="332681107"/>
    <nd ref="332681110"/>
    <nd ref="332681114"/>
    <tag k="highway" v="residential"/>
  </way>
  <way id="30193527" version="4" timestamp="2010-09-08T07:08:52Z" uid="115477" user="wowik" changeset="5714465">
    <nd ref="332681172"/>
    <nd ref="332681169"/>
    <tag k="highway" v="residential"/>
  </way>
  <way id="30193527" version="5" timestamp="2011-05-23T12:07:03Z" uid="115477" user="wowik" changeset="8225200">
    <nd ref="332681172"/>
    <nd ref="1297215319"/>
    <nd ref="1297215349"/>
    <nd ref="332681169"/>
    <tag k="highway" v="residential"/>
  </way>
  <way id="30193527" version="6" timestamp="2011-05-26T08:52:40Z" uid="115477" user="wowik" changeset="8251513">
    <nd ref="332681172"/>
    <nd ref="1297215319"/>
    <nd ref="1297215349"/>
    <nd ref="332681169"/>
    <tag k="highway" v="service"/>
    <tag k="living_street" v="yes"/>
  </way>
  <way id="30193528" version="4" timestamp="2010-09-09T08:22:42Z" uid="115477" user="wowik" changeset="5730648">
    <nd ref="332681118"/>
    <nd ref="332681121"/>
    <nd ref="332681130"/>
    <nd ref="332681134"/>
    <tag k="addr:postcode" v="141411"/>
    <tag k="cladr:code" v="77000000000231800"/>
    <tag k="cladr:name" v="Подрезковская 3-я"/>
    <tag k="cladr:suffix" v="Улица"/>
    <tag k="highway" v="residential"/>
    <tag k="name" v="3-я Подрезковская улица"/>
    <tag k="omkum:code" v="21049"/>
    <tag k="omkum:old_name" v="улица Кирова (1985 г.)"/>
    <tag k="sorting_name" v="Подрезковская  3-я  улица"/>
  </way>
  <way id="30193528" version="5" timestamp="2011-05-22T18:41:48Z" uid="244719" user="BigViking" changeset="8219604">
    <nd ref="332681118"/>
    <nd ref="332681121"/>
    <nd ref="332681130"/>
    <nd ref="332681134"/>
    <tag k="addr:postcode" v="141411"/>
    <tag k="cladr:code" v="77000000000231800"/>
    <tag k="cladr:name" v="Подрезковская 3-я"/>
    <tag k="cladr:suffix" v="Улица"/>
    <tag k="highway" v="tertiary"/>
    <tag k="name" v="3-я Подрезковская улица"/>
    <tag k="omkum:code" v="21049"/>
    <tag k="omkum:old_name" v="улица Кирова (1985 г.)"/>
    <tag k="sorting_name" v="Подрезковская  3-я  улица"/>
  </way>
  <way id="30193528" version="6" timestamp="2011-05-23T13:16:26Z" uid="115477" user="wowik" changeset="8225200">
    <nd ref="332681118"/>
    <nd ref="1297260939"/>
    <nd ref="332681121"/>
    <nd ref="1297262048"/>
    <nd ref="1297261757"/>
    <nd ref="332681130"/>
    <nd ref="1297260903"/>
    <nd ref="332681134"/>
    <tag k="addr:postcode" v="141411"/>
    <tag k="cladr:code" v="77000000000231800"/>
    <tag k="cladr:name" v="Подрезковская 3-я"/>
    <tag k="cladr:suffix" v="Улица"/>
    <tag k="highway" v="tertiary"/>
    <tag k="name" v="3-я Подрезковская улица"/>
    <tag k="omkum:code" v="21049"/>
    <tag k="omkum:old_name" v="улица Кирова (1985 г.)"/>
    <tag k="sorting_name" v="Подрезковская  3-я  улица"/>
  </way>
  <way id="30193528" version="7" timestamp="2011-05-26T09:08:04Z" uid="115477" user="wowik" changeset="8251513">
    <nd ref="332681118"/>
    <nd ref="1297260939"/>
    <nd ref="1300498593"/>
    <nd ref="332681121"/>
    <nd ref="1297262048"/>
    <nd ref="1297261757"/>
    <nd ref="332681130"/>
    <nd ref="1297260903"/>
    <nd ref="332681134"/>
    <tag k="addr:postcode" v="141411"/>
    <tag k="cladr:code" v="77000000000231800"/>
    <tag k="cladr:name" v="Подрезковская 3-я"/>
    <tag k="cladr:suffix" v="Улица"/>
    <tag k="highway" v="tertiary"/>
    <tag k="name" v="3-я Подрезковская улица"/>
    <tag k="omkum:code" v="21049"/>
    <tag k="omkum:old_name" v="улица Кирова (1985 г.)"/>
    <tag k="sorting_name" v="Подрезковская  3-я  улица"/>
  </way>
  <way id="30193528" version="8" timestamp="2011-05-30T06:30:07Z" uid="115477" user="wowik" changeset="8288957">
    <nd ref="332681118"/>
    <nd ref="1297260939"/>
    <nd ref="1300498593"/>
    <nd ref="332681121"/>
    <nd ref="1297262048"/>
    <nd ref="1297261757"/>
    <nd ref="332681130"/>
    <nd ref="1297260903"/>
    <nd ref="332681134"/>
    <tag k="addr:postcode" v="141411"/>
    <tag k="cladr:code" v="77000000000231800"/>
    <tag k="cladr:name" v="Подрезковская 3-я"/>
    <tag k="cladr:suffix" v="Улица"/>
    <tag k="highway" v="residential"/>
    <tag k="name" v="3-я Подрезковская улица"/>
    <tag k="omkum:code" v="21049"/>
    <tag k="omkum:old_name" v="улица Кирова (1985 г.)"/>
    <tag k="sorting_name" v="Подрезковская  3-я  улица"/>
  </way>
  <way id="30193528" version="9" timestamp="2011-12-09T09:23:39Z" uid="481934" user="iWowik" changeset="10071522">
    <nd ref="332681118"/>
    <nd ref="1297260939"/>
    <nd ref="1300498593"/>
    <nd ref="332681121"/>
    <nd ref="1297262048"/>
    <nd ref="1297261757"/>
    <nd ref="332681130"/>
    <nd ref="1297260903"/>
    <nd ref="332681134"/>
    <tag k="addr:postcode" v="141411"/>
    <tag k="cladr:code" v="77000000000231800"/>
    <tag k="cladr:name" v="Подрезковская 3-я"/>
    <tag k="cladr:suffix" v="Улица"/>
    <tag k="highway" v="residential"/>
    <tag k="name" v="3-я Подрезковская улица"/>
    <tag k="name:be" v="3-я  Сестрарэцкая вулiца"/>
    <tag k="omkum:code" v="21049"/>
    <tag k="omkum:old_name" v="улица Кирова (1985 г.)"/>
    <tag k="sorting_name" v="Подрезковская  3-я  улица"/>
  </way>
  <way id="30193529" version="4" timestamp="2010-09-08T07:41:45Z" uid="115477" user="wowik" changeset="5714680">
    <nd ref="332681147"/>
    <nd ref="902394458"/>
    <nd ref="332681176"/>
    <tag k="addr:postcode" v="141411"/>
    <tag k="cladr:code" v="77000000000231800"/>
    <tag k="cladr:name" v="Подрезковская 3-я"/>
    <tag k="cladr:suffix" v="Улица"/>
    <tag k="highway" v="tertiary"/>
    <tag k="name" v="3-я Подрезковская улица"/>
    <tag k="omkum:code" v="21049"/>
    <tag k="omkum:old_name" v="улица Кирова (1985 г.)"/>
    <tag k="sorting_name" v="Подрезковская  3-я  улица"/>
  </way>
  <way id="30193529" version="5" timestamp="2010-09-09T08:22:40Z" uid="115477" user="wowik" changeset="5730648">
    <nd ref="332681147"/>
    <nd ref="902394458"/>
    <nd ref="332681176"/>
    <tag k="addr:postcode" v="141411"/>
    <tag k="cladr:code" v="77000000000231800"/>
    <tag k="cladr:name" v="Подрезковская 3-я"/>
    <tag k="cladr:suffix" v="Улица"/>
    <tag k="highway" v="residential"/>
    <tag k="name" v="3-я Подрезковская улица"/>
    <tag k="omkum:code" v="21049"/>
    <tag k="omkum:old_name" v="улица Кирова (1985 г.)"/>
    <tag k="sorting_name" v="Подрезковская  3-я  улица"/>
  </way>
  <way id="30193529" version="6" timestamp="2011-12-09T09:23:54Z" uid="481934" user="iWowik" changeset="10071522">
    <nd ref="332681147"/>
    <nd ref="902394458"/>
    <nd ref="332681176"/>
    <tag k="addr:postcode" v="141411"/>
    <tag k="cladr:code" v="77000000000231800"/>
    <tag k="cladr:name" v="Подрезковская 3-я"/>
    <tag k="cladr:suffix" v="Улица"/>
    <tag k="highway" v="residential"/>
    <tag k="name" v="3-я Подрезковская улица"/>
    <tag k="name:be" v="3-я  Падрэзкаўская вулiца"/>
    <tag k="omkum:code" v="21049"/>
    <tag k="omkum:old_name" v="улица Кирова (1985 г.)"/>
    <tag k="sorting_name" v="Подрезковская  3-я  улица"/>
  </way>
  <way id="30193530" version="5" timestamp="2010-05-14T08:59:23Z" uid="115477" user="wowik" changeset="4693363">
    <nd ref="306524100"/>
    <nd ref="733719469"/>
    <nd ref="332681210"/>
    <tag k="addr:postcode" v="141411"/>
    <tag k="cladr:code" v="77000000000231700"/>
    <tag k="cladr:name" v="Подрезковская 2-я"/>
    <tag k="cladr:suffix" v="Улица"/>
    <tag k="highway" v="tertiary"/>
    <tag k="name" v="2-я Подрезковская улица"/>
    <tag k="omkum:code" v="21048"/>
    <tag k="omkum:old_name" v="улица Горького (1985 г.)"/>
    <tag k="sorting_name" v="Подрезковская  2-я  улица"/>
  </way>
  <way id="30193530" version="6" timestamp="2010-09-08T07:41:19Z" uid="115477" user="wowik" changeset="5714680">
    <nd ref="306524100"/>
    <nd ref="902393193"/>
    <nd ref="733719469"/>
    <nd ref="332681210"/>
    <tag k="addr:postcode" v="141411"/>
    <tag k="cladr:code" v="77000000000231700"/>
    <tag k="cladr:name" v="Подрезковская 2-я"/>
    <tag k="cladr:suffix" v="Улица"/>
    <tag k="highway" v="tertiary"/>
    <tag k="name" v="2-я Подрезковская улица"/>
    <tag k="omkum:code" v="21048"/>
    <tag k="omkum:old_name" v="улица Горького (1985 г.)"/>
    <tag k="sorting_name" v="Подрезковская  2-я  улица"/>
  </way>
  <way id="30193530" version="7" timestamp="2011-05-23T13:16:22Z" uid="115477" user="wowik" changeset="8225200">
    <nd ref="306524100"/>
    <nd ref="1297260824"/>
    <nd ref="902393193"/>
    <nd ref="733719469"/>
    <nd ref="332681210"/>
    <tag k="addr:postcode" v="141411"/>
    <tag k="cladr:code" v="77000000000231700"/>
    <tag k="cladr:name" v="Подрезковская 2-я"/>
    <tag k="cladr:suffix" v="Улица"/>
    <tag k="highway" v="tertiary"/>
    <tag k="name" v="2-я Подрезковская улица"/>
    <tag k="omkum:code" v="21048"/>
    <tag k="omkum:old_name" v="улица Горького (1985 г.)"/>
    <tag k="sorting_name" v="Подрезковская  2-я  улица"/>
  </way>
  <way id="30193530" version="8" timestamp="2011-12-09T09:23:52Z" uid="481934" user="iWowik" changeset="10071522">
    <nd ref="306524100"/>
    <nd ref="1297260824"/>
    <nd ref="902393193"/>
    <nd ref="733719469"/>
    <nd ref="332681210"/>
    <tag k="addr:postcode" v="141411"/>
    <tag k="cladr:code" v="77000000000231700"/>
    <tag k="cladr:name" v="Подрезковская 2-я"/>
    <tag k="cladr:suffix" v="Улица"/>
    <tag k="highway" v="tertiary"/>
    <tag k="name" v="2-я Подрезковская улица"/>
    <tag k="name:be" v="2-я Падрэзкавская вуліца"/>
    <tag k="omkum:code" v="21048"/>
    <tag k="omkum:old_name" v="улица Горького (1985 г.)"/>
    <tag k="sorting_name" v="Подрезковская  2-я  улица"/>
  </way>
  <way id="30193531" version="2" timestamp="2010-09-08T07:41:27Z" uid="115477" user="wowik" changeset="5714680">
    <nd ref="306524099"/>
    <nd ref="332681118"/>
    <nd ref="902393573"/>
    <nd ref="306524100"/>
    <tag k="highway" v="tertiary"/>
  </way>
  <way id="30193532" version="5" timestamp="2011-05-23T13:40:06Z" uid="115477" user="wowik" changeset="8225200">
    <nd ref="332681080"/>
    <nd ref="332681201"/>
    <nd ref="1297273607"/>
    <nd ref="332681205"/>
    <nd ref="1297273261"/>
    <nd ref="332681210"/>
    <tag k="highway" v="tertiary_link"/>
    <tag k="name" v="проезд"/>
  </way>
  <way id="30193532" version="6" timestamp="2011-05-23T14:02:31Z" uid="115477" user="wowik" changeset="8225200">
    <nd ref="332681080"/>
    <nd ref="332681201"/>
    <nd ref="1297273607"/>
    <nd ref="332681205"/>
    <nd ref="1297273261"/>
    <nd ref="332681210"/>
    <tag k="highway" v="residential"/>
    <tag k="name" v="Железнодорожная улица"/>
  </way>
  <way id="30193532" version="7" timestamp="2011-05-23T14:29:46Z" uid="115477" user="wowik" changeset="8225200">
    <nd ref="332681080"/>
    <nd ref="1297326091"/>
    <nd ref="332681201"/>
    <nd ref="1297273607"/>
    <nd ref="332681205"/>
    <nd ref="1297273261"/>
    <nd ref="332681210"/>
    <tag k="highway" v="residential"/>
    <tag k="name" v="Железнодорожная улица"/>
  </way>
  <way id="30193532" version="8" timestamp="2011-05-24T17:31:31Z" uid="244719" user="BigViking" changeset="8237554">
    <nd ref="332681080"/>
    <nd ref="1297326091"/>
    <nd ref="332681201"/>
    <nd ref="1297273607"/>
    <nd ref="332681205"/>
    <nd ref="1297273261"/>
    <nd ref="332681210"/>
    <tag k="highway" v="residential"/>
  </way>
  <way id="30193532" version="9" timestamp="2011-05-24T20:19:54Z" uid="115477" user="wowik" changeset="8239342">
    <nd ref="332681080"/>
    <nd ref="1297326091"/>
    <nd ref="332681201"/>
    <nd ref="1297273607"/>
    <nd ref="332681205"/>
    <nd ref="1297273261"/>
    <nd ref="332681210"/>
    <tag k="highway" v="residential"/>
    <tag k="name" v="Железнодорожная улица"/>
    <tag k="note" v="имя по ggk"/>
  </way>
  <way id="30193532" version="10" timestamp="2011-05-25T18:27:06Z" uid="244719" user="BigViking" changeset="8247266">
    <nd ref="332681080"/>
    <nd ref="1297326091"/>
    <nd ref="332681201"/>
    <nd ref="1297273607"/>
    <nd ref="332681205"/>
    <nd ref="1297273261"/>
    <nd ref="332681210"/>
    <tag k="highway" v="residential"/>
    <tag k="note" v="имя по ggk"/>
  </way>
  <way id="30193532" version="11" timestamp="2011-05-27T08:26:20Z" uid="115477" user="wowik" changeset="8260115">
    <nd ref="332681080"/>
    <nd ref="1297326091"/>
    <nd ref="332681201"/>
    <nd ref="1297273607"/>
    <nd ref="332681205"/>
    <nd ref="1297273261"/>
    <nd ref="332681210"/>
    <tag k="cladr:name" v="Железнодорожная"/>
    <tag k="cladr:suffix" v="Улица"/>
    <tag k="highway" v="residential"/>
    <tag k="name" v="Железнодорожная улица"/>
    <tag k="note" v="Это же Москва, а не Новоподрезково! Тут своя улица Железнодорожная. Можно увидеть на проекте пространственного слоя осевых линий улиц города Москвы"/>
    <tag k="omkum:code" v="07339"/>
  </way>
  <way id="30193532" version="12" timestamp="2011-12-09T09:23:44Z" uid="481934" user="iWowik" changeset="10071522">
    <nd ref="332681080"/>
    <nd ref="1297326091"/>
    <nd ref="332681201"/>
    <nd ref="1297273607"/>
    <nd ref="332681205"/>
    <nd ref="1297273261"/>
    <nd ref="332681210"/>
    <tag k="cladr:name" v="Железнодорожная"/>
    <tag k="cladr:suffix" v="Улица"/>
    <tag k="highway" v="residential"/>
    <tag k="name" v="Железнодорожная улица"/>
    <tag k="name:be" v="Чыгуначная вуліца"/>
    <tag k="note" v="Это же Москва, а не Новоподрезково! Тут своя улица Железнодорожная. Можно увидеть на проекте пространственного слоя осевых линий улиц города Москвы"/>
    <tag k="omkum:code" v="07339"/>
  </way>
  <way id="30193533" version="7" timestamp="2010-09-08T07:48:01Z" uid="115477" user="wowik" changeset="5714680">
    <nd ref="332681215"/>
    <nd ref="902408712"/>
    <nd ref="635105470"/>
    <nd ref="332681233"/>
    <nd ref="332681218"/>
    <tag k="cladr:code" v="77000000000202700"/>
    <tag k="cladr:name" v="Новозаводская"/>
    <tag k="cladr:suffix" v="Улица"/>
    <tag k="highway" v="tertiary"/>
    <tag k="name" v="Новозаводская улица"/>
    <tag k="omkum:code" v="17820"/>
    <tag k="omkum:old_name" v="улица Первомайский Посёлок (1935 г.)"/>
    <tag k="sorting_name" v="Новозаводская  улица"/>
  </way>
  <way id="30193533" version="8" timestamp="2011-05-25T16:37:55Z" uid="115477" user="wowik" changeset="8246247">
    <nd ref="332681215"/>
    <nd ref="902408712"/>
    <nd ref="635105470"/>
    <tag k="cladr:name" v="Железнодорожная"/>
    <tag k="cladr:suffix" v="Улица"/>
    <tag k="highway" v="tertiary"/>
    <tag k="name" v="Железнодорожная улица"/>
    <tag k="omkum:code" v="07339"/>
  </way>
  <way id="30193533" version="9" timestamp="2011-05-25T16:41:59Z" uid="115477" user="wowik" changeset="8246247">
    <nd ref="332681215"/>
    <nd ref="902408712"/>
    <nd ref="635105470"/>
    <tag k="cladr:name" v="Железнодорожная"/>
    <tag k="cladr:suffix" v="Улица"/>
    <tag k="highway" v="tertiary"/>
    <tag k="name" v="Железнодорожная улица"/>
    <tag k="note" v="на проекте пространственного слоя осевых линий улиц города Москвы Железнодорожная улица начинается здесь"/>
    <tag k="omkum:code" v="07339"/>
  </way>
  <way id="30193533" version="10" timestamp="2011-12-09T09:23:44Z" uid="481934" user="iWowik" changeset="10071522">
    <nd ref="332681215"/>
    <nd ref="902408712"/>
    <nd ref="635105470"/>
    <tag k="cladr:name" v="Железнодорожная"/>
    <tag k="cladr:suffix" v="Улица"/>
    <tag k="highway" v="tertiary"/>
    <tag k="name" v="Железнодорожная улица"/>
    <tag k="name:be" v="Чыгуначная вуліца"/>
    <tag k="note" v="на проекте пространственного слоя осевых линий улиц города Москвы Железнодорожная улица начинается здесь"/>
    <tag k="omkum:code" v="07339"/>
  </way>
  <way id="30193534" version="5" timestamp="2010-09-08T07:08:52Z" uid="115477" user="wowik" changeset="5714465">
    <nd ref="902330199"/>
    <nd ref="332681169"/>
    <nd ref="559212878"/>
    <tag k="addr:postcode" v="141411"/>
    <tag k="cladr:code" v="77000000000382500"/>
    <tag k="cladr:name" v="Сестрорецкая 2-я"/>
    <tag k="cladr:suffix" v="Улица"/>
    <tag k="highway" v="tertiary"/>
    <tag k="name" v="2-я Сестрорецкая улица"/>
    <tag k="omkum:code" v="25076"/>
    <tag k="omkum:old_name" v="Первомайская улица (1985 г.)"/>
    <tag k="sorting_name" v="Сестрорецкая  2-я  улица"/>
  </way>
  <way id="30193534" version="6" timestamp="2011-05-22T18:41:48Z" uid="244719" user="BigViking" changeset="8219604">
    <nd ref="902330199"/>
    <nd ref="332681169"/>
    <nd ref="332681137"/>
    <tag k="addr:postcode" v="141411"/>
    <tag k="cladr:code" v="77000000000382500"/>
    <tag k="cladr:name" v="Сестрорецкая 2-я"/>
    <tag k="cladr:suffix" v="Улица"/>
    <tag k="highway" v="tertiary"/>
    <tag k="name" v="2-я Сестрорецкая улица"/>
    <tag k="omkum:code" v="25076"/>
    <tag k="omkum:old_name" v="Первомайская улица (1985 г.)"/>
    <tag k="sorting_name" v="Сестрорецкая  2-я  улица"/>
  </way>
  <way id="30193534" version="7" timestamp="2011-05-22T19:57:30Z" uid="244719" user="BigViking" changeset="8220521">
    <nd ref="902330199"/>
    <nd ref="332681169"/>
    <nd ref="1296576787"/>
    <nd ref="1296576780"/>
    <nd ref="332681137"/>
    <tag k="addr:postcode" v="141411"/>
    <tag k="cladr:code" v="77000000000382500"/>
    <tag k="cladr:name" v="Сестрорецкая 2-я"/>
    <tag k="cladr:suffix" v="Улица"/>
    <tag k="highway" v="tertiary"/>
    <tag k="name" v="2-я Сестрорецкая улица"/>
    <tag k="omkum:code" v="25076"/>
    <tag k="omkum:old_name" v="Первомайская улица (1985 г.)"/>
    <tag k="sorting_name" v="Сестрорецкая  2-я  улица"/>
  </way>
  <way id="30193534" version="8" timestamp="2011-05-23T12:26:19Z" uid="115477" user="wowik" changeset="8225200">
    <nd ref="902330199"/>
    <nd ref="332681169"/>
    <nd ref="1296576787"/>
    <nd ref="332681137"/>
    <tag k="addr:postcode" v="141411"/>
    <tag k="cladr:code" v="77000000000382500"/>
    <tag k="cladr:name" v="Сестрорецкая 2-я"/>
    <tag k="cladr:suffix" v="Улица"/>
    <tag k="highway" v="tertiary"/>
    <tag k="name" v="2-я Сестрорецкая улица"/>
    <tag k="omkum:code" v="25076"/>
    <tag k="omkum:old_name" v="Первомайская улица (1985 г.)"/>
    <tag k="sorting_name" v="Сестрорецкая  2-я  улица"/>
  </way>
  <way id="30193534" version="9" timestamp="2011-05-23T14:30:09Z" uid="65083" user="deep125" changeset="8226917">
    <nd ref="902330199"/>
    <nd ref="332681169"/>
    <nd ref="1296576787"/>
    <nd ref="902408841"/>
    <nd ref="332681137"/>
    <tag k="addr:postcode" v="141411"/>
    <tag k="cladr:code" v="77000000000382500"/>
    <tag k="cladr:name" v="Сестрорецкая 2-я"/>
    <tag k="cladr:suffix" v="Улица"/>
    <tag k="highway" v="tertiary"/>
    <tag k="name" v="2-я Сестрорецкая улица"/>
    <tag k="omkum:code" v="25076"/>
    <tag k="omkum:old_name" v="Первомайская улица (1985 г.)"/>
    <tag k="sorting_name" v="Сестрорецкая  2-я  улица"/>
  </way>
  <way id="30193534" version="10" timestamp="2011-05-26T16:24:48Z" uid="115477" user="wowik" changeset="8254922">
    <nd ref="902330199"/>
    <nd ref="332681169"/>
    <nd ref="1296576787"/>
    <tag k="cladr:suffix" v="Улица"/>
    <tag k="highway" v="tertiary"/>
    <tag k="name" v="2-я Сестрорецкая улица"/>
    <tag k="omkum:code" v="25076"/>
    <tag k="omkum:old_name" v="Первомайская улица (1985 г.)"/>
    <tag k="sorting_name" v="Сестрорецкая  2-я  улица"/>
  </way>
  <way id="30193534" version="11" timestamp="2011-12-09T09:23:39Z" uid="481934" user="iWowik" changeset="10071522">
    <nd ref="902330199"/>
    <nd ref="332681169"/>
    <nd ref="1296576787"/>
    <tag k="cladr:suffix" v="Улица"/>
    <tag k="highway" v="tertiary"/>
    <tag k="name" v="2-я Сестрорецкая улица"/>
    <tag k="name:be" v="2-я  Сестрарэцкая вулiца"/>
    <tag k="omkum:code" v="25076"/>
    <tag k="omkum:old_name" v="Первомайская улица (1985 г.)"/>
    <tag k="sorting_name" v="Сестрорецкая  2-я  улица"/>
  </way>
  <way id="30193535" version="5" timestamp="2011-05-23T12:26:18Z" uid="115477" user="wowik" changeset="8225200">
    <nd ref="332681236"/>
    <nd ref="1297226878"/>
    <nd ref="332681172"/>
    <nd ref="559213386"/>
    <tag k="addr:postcode" v="141411"/>
    <tag k="cladr:code" v="77000000000382600"/>
    <tag k="cladr:name" v="Сестрорецкая 3-я"/>
    <tag k="cladr:suffix" v="Улица"/>
    <tag k="highway" v="tertiary"/>
    <tag k="name" v="3-я Сестрорецкая улица"/>
    <tag k="omkum:code" v="25077"/>
    <tag k="omkum:old_name" v="Железнодорожная улица (1985 г.)"/>
    <tag k="sorting_name" v="Сестрорецкая  3-я  улица"/>
  </way>
  <way id="30193535" version="6" timestamp="2011-12-09T09:23:38Z" uid="481934" user="iWowik" changeset="10071522">
    <nd ref="332681236"/>
    <nd ref="1297226878"/>
    <nd ref="332681172"/>
    <nd ref="559213386"/>
    <tag k="addr:postcode" v="141411"/>
    <tag k="cladr:code" v="77000000000382600"/>
    <tag k="cladr:name" v="Сестрорецкая 3-я"/>
    <tag k="cladr:suffix" v="Улица"/>
    <tag k="highway" v="tertiary"/>
    <tag k="name" v="3-я Сестрорецкая улица"/>
    <tag k="name:be" v="3-я  Сестрарэцкая вулiца"/>
    <tag k="omkum:code" v="25077"/>
    <tag k="omkum:old_name" v="Железнодорожная улица (1985 г.)"/>
    <tag k="sorting_name" v="Сестрорецкая  3-я  улица"/>
  </way>
  <way id="30193599" version="5" timestamp="2009-02-01T19:40:19Z" uid="6975" user="ulfl" changeset="27333">
    <nd ref="332682996"/>
    <nd ref="332682999"/>
    <nd ref="332683001"/>
    <nd ref="332683003"/>
    <nd ref="332683006"/>
    <nd ref="332683007"/>
    <nd ref="332682996"/>
    <tag k="amenity" v="kindergarten"/>
    <tag k="name" v="Gänseblümchen"/>
  </way>
  <way id="30193599" version="6" timestamp="2011-02-20T01:00:36Z" uid="31911" user="Mathias Klein" changeset="7338196">
    <nd ref="332682996"/>
    <nd ref="332682999"/>
    <nd ref="1162578978"/>
    <nd ref="1162579502"/>
    <nd ref="332683001"/>
    <nd ref="332683003"/>
    <nd ref="332683006"/>
    <nd ref="332683007"/>
    <nd ref="332682996"/>
    <tag k="amenity" v="kindergarten"/>
    <tag k="name" v="Gänseblümchen"/>
  </way>
  <way id="30193599" version="7" timestamp="2011-03-23T17:37:35Z" uid="91085" user="c8665c27" changeset="7648391">
    <nd ref="332682996"/>
    <nd ref="332682999"/>
    <nd ref="1162578978"/>
    <nd ref="1162579502"/>
    <nd ref="332683001"/>
    <nd ref="332683003"/>
    <nd ref="332683006"/>
    <nd ref="332683007"/>
    <nd ref="332682996"/>
    <tag k="amenity" v="kindergarten"/>
    <tag k="name" v="An der Wasserkunst"/>
  </way>
  <way id="30193599" version="8" timestamp="2011-04-25T19:55:57Z" uid="91085" user="c8665c27" changeset="7967341">
    <nd ref="332682996"/>
    <nd ref="332682999"/>
    <nd ref="1162578978"/>
    <nd ref="1162579502"/>
    <nd ref="332683001"/>
    <nd ref="332683003"/>
    <nd ref="332683006"/>
    <nd ref="332683007"/>
    <nd ref="1260071921"/>
    <nd ref="1260072014"/>
    <nd ref="1260071991"/>
    <nd ref="1260072016"/>
    <nd ref="332682996"/>
    <tag k="amenity" v="kindergarten"/>
    <tag k="name" v="An der Wasserkunst"/>
  </way>
  <way id="30193677" version="4" timestamp="2010-09-13T10:06:11Z" uid="115477" user="wowik" changeset="5768181">
    <nd ref="319741769"/>
    <nd ref="882288651"/>
    <nd ref="332684118"/>
    <tag k="addr:postcode" v="141411"/>
    <tag k="cladr:code" v="77000000000265600"/>
    <tag k="cladr:name" v="Синявинская"/>
    <tag k="cladr:suffix" v="Улица"/>
    <tag k="highway" v="unclassified"/>
    <tag k="name" v="Синявинская улица"/>
    <tag k="omkum:code" v="25335"/>
    <tag k="omkum:old_name" v="Школьная улица (1985 г.)"/>
    <tag k="sorting_name" v="Синявинская  улица"/>
  </way>
  <way id="30193677" version="5" timestamp="2010-11-03T10:08:41Z" uid="115477" user="wowik" changeset="6274724">
    <nd ref="306524023"/>
    <nd ref="319741769"/>
    <nd ref="882288651"/>
    <nd ref="332684118"/>
    <tag k="addr:postcode" v="141411"/>
    <tag k="cladr:code" v="77000000000265600"/>
    <tag k="cladr:name" v="Синявинская"/>
    <tag k="cladr:suffix" v="Улица"/>
    <tag k="highway" v="unclassified"/>
    <tag k="name" v="Синявинская улица"/>
    <tag k="omkum:code" v="25335"/>
    <tag k="omkum:old_name" v="Школьная улица (1985 г.)"/>
    <tag k="sorting_name" v="Синявинская  улица"/>
  </way>
  <way id="30193677" version="6" timestamp="2011-05-25T16:14:53Z" uid="115477" user="wowik" changeset="8246135">
    <nd ref="306524023"/>
    <nd ref="1299810994"/>
    <nd ref="319741769"/>
    <nd ref="882288651"/>
    <nd ref="332684118"/>
    <tag k="addr:postcode" v="141411"/>
    <tag k="cladr:code" v="77000000000265600"/>
    <tag k="cladr:name" v="Синявинская"/>
    <tag k="cladr:suffix" v="Улица"/>
    <tag k="highway" v="unclassified"/>
    <tag k="name" v="Синявинская улица"/>
    <tag k="omkum:code" v="25335"/>
    <tag k="omkum:old_name" v="Школьная улица (1985 г.)"/>
    <tag k="sorting_name" v="Синявинская  улица"/>
  </way>
  <way id="30193677" version="7" timestamp="2011-06-04T16:45:57Z" uid="316868" user="LexIgnatov" changeset="8340676">
    <nd ref="306524023"/>
    <nd ref="1299810994"/>
    <nd ref="319741769"/>
    <nd ref="332684118"/>
    <tag k="addr:postcode" v="141411"/>
    <tag k="cladr:code" v="77000000000265600"/>
    <tag k="cladr:name" v="Синявинская"/>
    <tag k="cladr:suffix" v="Улица"/>
    <tag k="highway" v="unclassified"/>
    <tag k="name" v="Синявинская улица"/>
    <tag k="omkum:code" v="25335"/>
    <tag k="omkum:old_name" v="Школьная улица (1985 г.)"/>
    <tag k="sorting_name" v="Синявинская  улица"/>
  </way>
  <way id="30193679" version="6" timestamp="2011-05-20T16:55:21Z" uid="115477" user="wowik" changeset="8200144">
    <nd ref="332684118"/>
    <nd ref="332684125"/>
    <nd ref="332684132"/>
    <nd ref="332684144"/>
    <nd ref="332684152"/>
    <nd ref="332684154"/>
    <nd ref="1293389091"/>
    <nd ref="332684158"/>
    <nd ref="1293388854"/>
    <nd ref="332684160"/>
    <nd ref="1293389095"/>
    <nd ref="332684164"/>
    <nd ref="1293388906"/>
    <nd ref="332684167"/>
    <nd ref="332684171"/>
    <nd ref="332684176"/>
    <nd ref="1293388787"/>
    <nd ref="332684184"/>
    <nd ref="332684192"/>
    <tag k="addr:postcode" v="141411"/>
    <tag k="cladr:code" v="77000000000265600"/>
    <tag k="cladr:name" v="Синявинская"/>
    <tag k="cladr:suffix" v="Улица"/>
    <tag k="highway" v="residential"/>
    <tag k="name" v="Синявинская улица"/>
    <tag k="omkum:code" v="25335"/>
    <tag k="omkum:old_name" v="Школьная улица (1985 г.)"/>
    <tag k="sorting_name" v="Синявинская  улица"/>
  </way>
  <way id="30193679" version="7" timestamp="2011-05-20T17:13:25Z" uid="115477" user="wowik" changeset="8200144">
    <nd ref="332684118"/>
    <nd ref="1293436592"/>
    <nd ref="332684125"/>
    <nd ref="332684132"/>
    <nd ref="332684144"/>
    <nd ref="332684152"/>
    <nd ref="332684154"/>
    <nd ref="1293389091"/>
    <nd ref="332684158"/>
    <nd ref="1293388854"/>
    <nd ref="332684160"/>
    <nd ref="1293389095"/>
    <nd ref="332684164"/>
    <nd ref="1293388906"/>
    <nd ref="332684167"/>
    <nd ref="332684171"/>
    <nd ref="332684176"/>
    <nd ref="1293388787"/>
    <nd ref="332684184"/>
    <nd ref="332684192"/>
    <tag k="addr:postcode" v="141411"/>
    <tag k="cladr:code" v="77000000000265600"/>
    <tag k="cladr:name" v="Синявинская"/>
    <tag k="cladr:suffix" v="Улица"/>
    <tag k="highway" v="residential"/>
    <tag k="name" v="Синявинская улица"/>
    <tag k="omkum:code" v="25335"/>
    <tag k="omkum:old_name" v="Школьная улица (1985 г.)"/>
    <tag k="sorting_name" v="Синявинская  улица"/>
  </way>
  <way id="30193679" version="8" timestamp="2011-12-09T09:23:48Z" uid="481934" user="iWowik" changeset="10071522">
    <nd ref="332684118"/>
    <nd ref="1293436592"/>
    <nd ref="332684125"/>
    <nd ref="332684132"/>
    <nd ref="332684144"/>
    <nd ref="332684152"/>
    <nd ref="332684154"/>
    <nd ref="1293389091"/>
    <nd ref="332684158"/>
    <nd ref="1293388854"/>
    <nd ref="332684160"/>
    <nd ref="1293389095"/>
    <nd ref="332684164"/>
    <nd ref="1293388906"/>
    <nd ref="332684167"/>
    <nd ref="332684171"/>
    <nd ref="332684176"/>
    <nd ref="1293388787"/>
    <nd ref="332684184"/>
    <nd ref="332684192"/>
    <tag k="addr:postcode" v="141411"/>
    <tag k="cladr:code" v="77000000000265600"/>
    <tag k="cladr:name" v="Синявинская"/>
    <tag k="cladr:suffix" v="Улица"/>
    <tag k="highway" v="residential"/>
    <tag k="name" v="Синявинская улица"/>
    <tag k="name:be" v="Сiнявiнская вуліца"/>
    <tag k="omkum:code" v="25335"/>
    <tag k="omkum:old_name" v="Школьная улица (1985 г.)"/>
    <tag k="sorting_name" v="Синявинская  улица"/>
  </way>
  <way id="30193680" version="3" timestamp="2010-11-03T10:08:40Z" uid="115477" user="wowik" changeset="6274724">
    <nd ref="332684211"/>
    <nd ref="332684207"/>
    <nd ref="332684203"/>
    <nd ref="617023744"/>
    <nd ref="332684198"/>
    <tag k="highway" v="tertiary"/>
    <tag k="oneway" v="yes"/>
  </way>
  <way id="30193680" version="4" timestamp="2011-06-04T16:45:57Z" uid="316868" user="LexIgnatov" changeset="8340676">
    <nd ref="332684211"/>
    <nd ref="1312073439"/>
    <nd ref="332684207"/>
    <nd ref="1312072945"/>
    <nd ref="332684203"/>
    <nd ref="1312073254"/>
    <nd ref="1312073560"/>
    <nd ref="617023744"/>
    <nd ref="332684198"/>
    <tag k="highway" v="tertiary"/>
    <tag k="oneway" v="yes"/>
  </way>
  <way id="30193680" version="5" timestamp="2012-03-30T23:17:55Z" uid="336354" user="esaulenka" changeset="11161078"/>
  <way id="30193681" version="3" timestamp="2010-09-08T07:41:14Z" uid="115477" user="wowik" changeset="5714680">
    <nd ref="332684215"/>
    <nd ref="332684219"/>
    <nd ref="332684224"/>
    <nd ref="332684225"/>
    <nd ref="332684227"/>
    <nd ref="902392889"/>
    <tag k="highway" v="service"/>
  </way>
  <way id="30193681" version="4" timestamp="2011-06-04T16:45:44Z" uid="316868" user="LexIgnatov" changeset="8340676">
    <nd ref="332684215"/>
    <nd ref="332684219"/>
    <nd ref="332684224"/>
    <nd ref="332684225"/>
    <nd ref="1312073611"/>
    <nd ref="332684227"/>
    <nd ref="902392889"/>
    <tag k="highway" v="service"/>
  </way>
  <way id="30193709" version="4" timestamp="2011-05-23T09:21:50Z" uid="115477" user="wowik" changeset="8224465">
    <nd ref="332684834"/>
    <nd ref="332684836"/>
    <nd ref="1297063365"/>
    <nd ref="332684847"/>
    <nd ref="332684839"/>
    <nd ref="332684841"/>
    <nd ref="332684843"/>
    <tag k="highway" v="residential"/>
  </way>
  <way id="30193709" version="5" timestamp="2011-09-18T19:22:01Z" uid="133332" user="AMDmi3" changeset="9336472"/>
  <way id="30193710" version="6" timestamp="2011-05-23T09:38:33Z" uid="115477" user="wowik" changeset="8224465">
    <nd ref="332684845"/>
    <nd ref="1297063169"/>
    <nd ref="332684847"/>
    <tag k="addr:postcode" v="125363"/>
    <tag k="cladr:code" v="77000000000306400"/>
    <tag k="cladr:name" v="Цветочный"/>
    <tag k="cladr:suffix" v="Проезд"/>
    <tag k="highway" v="residential"/>
    <tag k="name" v="Цветочный проезд"/>
    <tag k="omkum:code" v="30440"/>
    <tag k="sorting_name" v="Цветочный  проезд"/>
  </way>
  <way id="30193710" version="7" timestamp="2011-09-18T19:22:02Z" uid="133332" user="AMDmi3" changeset="9336472"/>
  <way id="30193746" version="3" timestamp="2010-03-30T22:43:59Z" uid="163746" user="anti_bot-nonsense" changeset="4281484">
    <nd ref="332685642"/>
    <nd ref="332685645"/>
    <nd ref="332685649"/>
    <nd ref="332685652"/>
    <nd ref="332685895"/>
    <nd ref="332685654"/>
    <nd ref="332685657"/>
    <nd ref="332685755"/>
    <nd ref="332685659"/>
    <nd ref="332685954"/>
    <nd ref="332685661"/>
    <nd ref="332685664"/>
    <nd ref="332685666"/>
    <nd ref="332685668"/>
    <tag k="highway" v="primary"/>
    <tag k="name" v="Avenida Presidente Medina Angarita"/>
    <tag k="source" v="Yahoo"/>
  </way>
  <way id="30193746" version="4" timestamp="2011-03-23T13:25:26Z" uid="83557" user="Esperanza36" changeset="7646486">
    <nd ref="332685642"/>
    <nd ref="332685645"/>
    <nd ref="332685649"/>
    <nd ref="332685652"/>
    <nd ref="332685895"/>
    <nd ref="332685654"/>
    <nd ref="332685657"/>
    <nd ref="332685755"/>
    <nd ref="332685659"/>
    <nd ref="332685954"/>
    <nd ref="332685661"/>
    <nd ref="332685664"/>
    <nd ref="332685666"/>
    <nd ref="332685668"/>
    <tag k="highway" v="secondary"/>
    <tag k="name" v="Avenida Presidente Medina Angarita"/>
    <tag k="source" v="Yahoo"/>
  </way>
  <way id="30193746" version="5" timestamp="2011-04-12T00:40:52Z" uid="435135" user="Delfin Abzueta" changeset="7838734">
    <nd ref="332685642"/>
    <nd ref="332685645"/>
    <nd ref="332685649"/>
    <nd ref="332685652"/>
    <nd ref="332685895"/>
    <nd ref="332685654"/>
    <nd ref="332685657"/>
    <nd ref="332685755"/>
    <nd ref="332685659"/>
    <nd ref="332685954"/>
    <nd ref="332685661"/>
    <tag k="highway" v="secondary"/>
    <tag k="name" v="Avenida Presidente Medina Angarita"/>
    <tag k="source" v="Yahoo"/>
  </way>
  <way id="30193746" version="6" timestamp="2011-04-12T00:47:51Z" uid="435135" user="Delfin Abzueta" changeset="7838734">
    <nd ref="332685642"/>
    <nd ref="332685645"/>
    <nd ref="332685649"/>
    <nd ref="332685652"/>
    <nd ref="332685895"/>
    <nd ref="332685654"/>
    <nd ref="332685657"/>
    <nd ref="332685755"/>
    <nd ref="332685659"/>
    <nd ref="332685954"/>
    <nd ref="332685661"/>
    <nd ref="1241486353"/>
    <nd ref="332697626"/>
    <nd ref="1192333930"/>
    <tag k="highway" v="primary"/>
    <tag k="name" v="Avenida Presidente Medina Angarita"/>
    <tag k="source" v="Yahoo"/>
  </way>
  <way id="30193746" version="7" timestamp="2011-04-12T00:53:06Z" uid="435135" user="Delfin Abzueta" changeset="7838734">
    <nd ref="332685642"/>
    <nd ref="332685645"/>
    <nd ref="332685649"/>
    <nd ref="332685652"/>
    <nd ref="332685895"/>
    <nd ref="332685654"/>
    <nd ref="332685657"/>
    <nd ref="332685755"/>
    <nd ref="332685659"/>
    <nd ref="332685954"/>
    <nd ref="332685661"/>
    <nd ref="1241486353"/>
    <nd ref="332697626"/>
    <nd ref="1192333930"/>
    <tag k="highway" v="primary"/>
    <tag k="name" v="Avenida Presidente Medina Angarita"/>
    <tag k="oneway" v="no"/>
    <tag k="source" v="Yahoo"/>
  </way>
  <way id="30193746" version="8" timestamp="2012-01-02T20:02:51Z" uid="569208" user="Eric Gamess" changeset="10275257">
    <nd ref="332685642"/>
    <nd ref="332685645"/>
    <nd ref="332685649"/>
    <nd ref="332685652"/>
    <nd ref="332685895"/>
    <nd ref="332685654"/>
    <nd ref="332685657"/>
    <nd ref="332685755"/>
    <nd ref="332685659"/>
    <nd ref="332685954"/>
    <nd ref="332685661"/>
    <nd ref="1241486353"/>
    <nd ref="1574599240"/>
    <tag k="highway" v="primary"/>
    <tag k="name" v="Avenida Presidente Medina Angarita"/>
    <tag k="oneway" v="no"/>
    <tag k="source" v="Yahoo"/>
  </way>
  <way id="30193830" version="2" timestamp="2010-03-12T16:42:23Z" uid="115477" user="wowik" changeset="4107803">
    <nd ref="332687615"/>
    <nd ref="332687620"/>
    <nd ref="332687624"/>
    <nd ref="332687628"/>
    <nd ref="332687633"/>
    <nd ref="332687637"/>
    <nd ref="332687641"/>
    <nd ref="332687646"/>
    <nd ref="332687651"/>
    <nd ref="332687654"/>
    <nd ref="332687658"/>
    <nd ref="332687662"/>
    <nd ref="332687667"/>
    <nd ref="664600298"/>
    <nd ref="664600301"/>
    <nd ref="664600302"/>
    <nd ref="664600303"/>
    <nd ref="664600304"/>
    <nd ref="664600306"/>
    <nd ref="664600280"/>
    <tag k="highway" v="track"/>
  </way>
  <way id="30193830" version="3" timestamp="2011-06-04T16:44:54Z" uid="316868" user="LexIgnatov" changeset="8340676">
    <nd ref="664600280"/>
    <nd ref="664600306"/>
    <nd ref="664600304"/>
    <nd ref="664600303"/>
    <nd ref="664600302"/>
    <nd ref="664600301"/>
    <nd ref="664600298"/>
    <nd ref="332687667"/>
    <nd ref="332687662"/>
    <nd ref="332687658"/>
    <nd ref="332687654"/>
    <nd ref="332687651"/>
    <nd ref="332687646"/>
    <nd ref="332687641"/>
    <nd ref="332687637"/>
    <nd ref="332687633"/>
    <nd ref="332687628"/>
    <nd ref="332687624"/>
    <nd ref="332687620"/>
    <nd ref="1312073176"/>
    <nd ref="1312073226"/>
    <nd ref="1312073516"/>
    <tag k="highway" v="track"/>
  </way>
</osm>
