<?xml version='1.0' encoding='UTF-8'?>
<osm version="0.6" generator="libosmium/2.20.0">
  <way id="30227064" version="2" timestamp="2009-10-18T10:32:36Z" uid="36809" user="pfoten_weg_!_" changeset="2881738">
    <nd ref="333102015"/>
    <nd ref="333102016"/>
    <nd ref="333102017"/>
    <nd ref="333102018"/>
    <nd ref="333102015"/>
    <tag k="landuse" v="retail"/>
    <tag k="shop" v="car"/>
  </way>
  <way id="30227064" version="3" timestamp="2011-01-04T09:45:05Z" uid="278964" user="locked" changeset="6858582">
    <nd ref="333102015"/>
    <nd ref="333102016"/>
    <nd ref="333102017"/>
    <nd ref="333102018"/>
    <nd ref="333102015"/>
    <tag k="addr:housename" v="Autohaus Much"/>
    <tag k="addr:housenumber" v="18"/>
    <tag k="landuse" v="retail"/>
    <tag k="phone" v="08041 7889-0"/>
    <tag k="shop" v="car"/>
  </way>
  <way id="30227064" version="4" timestamp="2011-04-11T18:48:30Z" uid="417684" user="Maler" changeset="7835953">
    <nd ref="333102015"/>
    <nd ref="333102016"/>
    <nd ref="333102017"/>
    <nd ref="333102018"/>
    <nd ref="333102015"/>
    <tag k="addr:housename" v="Autohaus Much"/>
    <tag k="addr:housenumber" v="18"/>
    <tag k="landuse" v="retail"/>
    <tag k="phone" v="08041 7889-0"/>
    <tag k="shop" v="car"/>
    <tag k="url" v="http://www.taxifahrzeuge.de/"/>
  </way>
  <way id="30227624" version="1" timestamp="2009-01-18T14:08:23Z" uid="43967" user="railsnail" changeset="807478">
    <nd ref="333102559"/>
    <nd ref="333102677"/>
    <tag k="created_by" v="Potlatch 0.10f"/>
  </way>
  <way id="30227624" version="2" timestamp="2009-01-18T14:09:17Z" uid="43967" user="railsnail" changeset="807478">
    <nd ref="333102559"/>
    <nd ref="333102677"/>
    <tag k="addr:postcode" v="9900"/>
    <tag k="at:maxspeed" v="Ortsgebiet"/>
    <tag k="created_by" v="Potlatch 0.10f"/>
    <tag k="highway" v="residential"/>
    <tag k="is_in" v="...,Bezirk Lienz,Tirol,Österreich,Europa"/>
    <tag k="name" v="Lienz"/>
    <tag k="note" v="imported from plan.at; (C)=CC-by-sa or oDBL; feel free to change if necessary"/>
    <tag k="plan_at:acad_id" v="lz196"/>
    <tag k="source" v="plan.at 2008"/>
    <tag k="uploaded_by" v="Wolfgang W. Wasserburger"/>
  </way>
  <way id="30227624" version="3" timestamp="2009-11-20T16:11:40Z" uid="45481" user="borisC" changeset="3169546">
    <nd ref="333102559"/>
    <nd ref="333102677"/>
    <tag k="addr:postcode" v="9900"/>
    <tag k="at:maxspeed" v="Ortsgebiet"/>
    <tag k="highway" v="residential"/>
    <tag k="is_in" v="...,Bezirk Lienz,Tirol,Österreich,Europa"/>
    <tag k="note" v="imported from plan.at; (C)=CC-by-sa or oDBL; feel free to change if necessary"/>
    <tag k="plan_at:acad_id" v="lz196"/>
    <tag k="source" v="plan.at 2008"/>
    <tag k="uploaded_by" v="Wolfgang W. Wasserburger"/>
  </way>
  <way id="30227624" version="4" timestamp="2011-04-29T04:53:42Z" uid="45347" user="eriosw" changeset="8000379">
    <nd ref="333102559"/>
    <nd ref="333102677"/>
    <tag k="addr:postcode" v="9900"/>
    <tag k="highway" v="residential"/>
    <tag k="is_in" v="Lienz,Lienz,Tirol,Österreich,Europe"/>
    <tag k="note" v="imported from plan.at; (C)=CC-by-sa or oDBL; feel free to change if necessary"/>
    <tag k="plan_at:acad_id" v="lz196"/>
    <tag k="source" v="plan.at 2008"/>
    <tag k="uploaded_by" v="Wolfgang W. Wasserburger"/>
  </way>
  <way id="30227624" version="5" timestamp="2011-07-27T09:58:36Z" uid="491845" user="data_at" changeset="8843285">
    <nd ref="333102559"/>
    <nd ref="333102677"/>
    <tag k="highway" v="residential"/>
    <tag k="is_in" v="Lienz,Lienz,Tirol,Österreich,Europe"/>
    <tag k="source" v="plan.at 2008"/>
  </way>
  <way id="30227979" version="2" timestamp="2009-07-26T06:29:31Z" uid="74617" user="JohnSmith" changeset="1940994">
    <nd ref="32835730"/>
    <nd ref="32835731"/>
    <nd ref="32835732"/>
    <nd ref="32835733"/>
    <nd ref="32835734"/>
    <nd ref="32835735"/>
    <nd ref="32835736"/>
    <nd ref="32835737"/>
    <nd ref="32835738"/>
    <nd ref="32835739"/>
    <tag k="highway" v="motorway"/>
    <tag k="layer" v="-1"/>
    <tag k="maxspeed" v="100"/>
    <tag k="name" v="M2"/>
    <tag k="oneway" v="yes"/>
    <tag k="ref" v="MR2"/>
    <tag k="restriction" v="toll"/>
    <tag k="source" v="yahoo_imagery"/>
  </way>
  <way id="30227979" version="3" timestamp="2009-07-26T08:44:22Z" uid="74617" user="JohnSmith" changeset="1942063">
    <nd ref="32835730"/>
    <nd ref="32835731"/>
    <nd ref="32835732"/>
    <nd ref="32835733"/>
    <nd ref="32835734"/>
    <nd ref="32835735"/>
    <nd ref="32835736"/>
    <nd ref="32835737"/>
    <nd ref="32835738"/>
    <nd ref="32835739"/>
    <tag k="highway" v="motorway"/>
    <tag k="layer" v="-1"/>
    <tag k="maxspeed" v="100"/>
    <tag k="name" v="M2"/>
    <tag k="oneway" v="yes"/>
    <tag k="ref" v="MR2"/>
    <tag k="source" v="yahoo_imagery"/>
    <tag k="toll" v="yes"/>
  </way>
  <way id="30227979" version="4" timestamp="2010-03-29T08:09:08Z" uid="74617" user="JohnSmith" changeset="4264955">
    <nd ref="32835730"/>
    <nd ref="32835731"/>
    <nd ref="32835732"/>
    <nd ref="32835733"/>
    <nd ref="32835734"/>
    <nd ref="32835735"/>
    <nd ref="32835736"/>
    <nd ref="32835737"/>
    <nd ref="32835738"/>
    <nd ref="32835739"/>
    <tag k="highway" v="motorway"/>
    <tag k="layer" v="-1"/>
    <tag k="maxspeed" v="100"/>
    <tag k="oneway" v="yes"/>
    <tag k="source" v="yahoo_imagery"/>
    <tag k="toll" v="yes"/>
  </way>
  <way id="30227979" version="5" timestamp="2010-05-14T08:33:30Z" uid="4467" user="Rosscoe" changeset="4693326">
    <nd ref="32835730"/>
    <nd ref="32835731"/>
    <nd ref="32835732"/>
    <nd ref="32835733"/>
    <nd ref="32835734"/>
    <nd ref="32835735"/>
    <nd ref="32835736"/>
    <nd ref="32835737"/>
    <nd ref="32835739"/>
    <tag k="highway" v="motorway"/>
    <tag k="layer" v="-1"/>
    <tag k="maxspeed" v="100"/>
    <tag k="oneway" v="yes"/>
    <tag k="source" v="yahoo_imagery"/>
    <tag k="toll" v="yes"/>
  </way>
  <way id="30227979" version="6" timestamp="2010-06-18T00:54:18Z" uid="299678" user="peteramjet" changeset="5013360">
    <nd ref="32835730"/>
    <nd ref="32835731"/>
    <nd ref="32835732"/>
    <nd ref="32835733"/>
    <nd ref="32835734"/>
    <nd ref="32835735"/>
    <nd ref="32835736"/>
    <nd ref="32835737"/>
    <nd ref="32835739"/>
    <tag k="highway" v="motorway"/>
    <tag k="layer" v="-1"/>
    <tag k="maxspeed" v="100"/>
    <tag k="name" v="M2 Hills Motorway"/>
    <tag k="oneway" v="yes"/>
    <tag k="source" v="yahoo_imagery"/>
    <tag k="toll" v="yes"/>
  </way>
  <way id="30227979" version="7" timestamp="2010-06-27T06:52:48Z" uid="299678" user="peteramjet" changeset="5086802">
    <nd ref="32835730"/>
    <nd ref="32835731"/>
    <nd ref="32835732"/>
    <nd ref="32835733"/>
    <nd ref="32835734"/>
    <nd ref="32835735"/>
    <nd ref="32835736"/>
    <nd ref="32835737"/>
    <nd ref="32835739"/>
    <tag k="highway" v="motorway"/>
    <tag k="layer" v="-1"/>
    <tag k="maxspeed" v="100"/>
    <tag k="name" v="M2 Hills Motorway"/>
    <tag k="oneway" v="yes"/>
    <tag k="ref" v="MR2"/>
    <tag k="source" v="yahoo_imagery"/>
    <tag k="toll" v="yes"/>
  </way>
  <way id="30227979" version="8" timestamp="2010-06-27T23:54:05Z" uid="299678" user="peteramjet" changeset="5094127">
    <nd ref="32835730"/>
    <nd ref="32835731"/>
    <nd ref="32835732"/>
    <nd ref="32835733"/>
    <nd ref="32835734"/>
    <nd ref="32835735"/>
    <nd ref="32835736"/>
    <nd ref="32835737"/>
    <nd ref="32835739"/>
    <tag k="highway" v="motorway"/>
    <tag k="layer" v="-1"/>
    <tag k="maxspeed" v="100"/>
    <tag k="name" v="M2 Hills Motorway"/>
    <tag k="oneway" v="yes"/>
    <tag k="source" v="yahoo_imagery"/>
    <tag k="toll" v="yes"/>
  </way>
  <way id="30227979" version="9" timestamp="2010-06-29T08:46:13Z" uid="299678" user="peteramjet" changeset="5104035">
    <nd ref="32835730"/>
    <nd ref="32835731"/>
    <nd ref="32835732"/>
    <nd ref="32835733"/>
    <nd ref="32835734"/>
    <nd ref="32835735"/>
    <nd ref="32835736"/>
    <nd ref="32835737"/>
    <nd ref="32835739"/>
    <tag k="highway" v="motorway"/>
    <tag k="layer" v="-1"/>
    <tag k="maxspeed" v="100"/>
    <tag k="name" v="M2 Hills Motorway"/>
    <tag k="oneway" v="yes"/>
    <tag k="ref" v="MR2"/>
    <tag k="source" v="yahoo_imagery"/>
    <tag k="toll" v="yes"/>
  </way>
  <way id="30227979" version="10" timestamp="2010-07-07T08:00:52Z" uid="299678" user="peteramjet" changeset="5156586">
    <nd ref="32835730"/>
    <nd ref="32835731"/>
    <nd ref="32835732"/>
    <nd ref="32835733"/>
    <nd ref="32835734"/>
    <nd ref="32835735"/>
    <nd ref="32835736"/>
    <nd ref="32835737"/>
    <nd ref="32835739"/>
    <tag k="highway" v="motorway"/>
    <tag k="layer" v="-1"/>
    <tag k="maxspeed" v="100"/>
    <tag k="name" v="M2 Hills Motorway"/>
    <tag k="oneway" v="yes"/>
    <tag k="source" v="yahoo_imagery"/>
    <tag k="toll" v="yes"/>
  </way>
  <way id="30227979" version="11" timestamp="2012-01-30T06:39:40Z" uid="54784" user="Tom Hollander" changeset="10536990">
    <nd ref="32835730"/>
    <nd ref="32835731"/>
    <nd ref="32835732"/>
    <nd ref="32835733"/>
    <nd ref="32835734"/>
    <nd ref="32835735"/>
    <nd ref="32835736"/>
    <nd ref="32835737"/>
    <nd ref="32835739"/>
    <tag k="highway" v="motorway"/>
    <tag k="layer" v="-1"/>
    <tag k="maxspeed" v="100"/>
    <tag k="name" v="M2 Hills Motorway"/>
    <tag k="oneway" v="yes"/>
    <tag k="ref" v="M2"/>
    <tag k="source" v="yahoo_imagery"/>
    <tag k="toll" v="yes"/>
  </way>
</osm>
