<?xml version='1.0' encoding='UTF-8'?>
<osm version="0.6" generator="libosmium/2.20.0">
  <way id="30309596" version="5" timestamp="2009-10-13T23:12:40Z" uid="36809" user="pfoten_weg_!_" changeset="2841207">
    <nd ref="334147698"/>
    <nd ref="334147702"/>
    <nd ref="334147705"/>
    <nd ref="334147707"/>
    <nd ref="334147709"/>
    <nd ref="334147711"/>
    <nd ref="334147714"/>
    <nd ref="334147715"/>
    <nd ref="334147718"/>
    <nd ref="334147720"/>
    <nd ref="334147722"/>
    <nd ref="334147723"/>
    <nd ref="334152420"/>
    <tag k="abutters" v="commercial"/>
    <tag k="highway" v="unclassified"/>
  </way>
  <way id="30309596" version="6" timestamp="2010-10-25T20:36:14Z" uid="334153" user="Alexander Roalter" changeset="6177323">
    <nd ref="334147698"/>
    <nd ref="334147702"/>
    <nd ref="334147705"/>
    <nd ref="334147707"/>
    <nd ref="334147709"/>
    <nd ref="334147711"/>
    <nd ref="334147714"/>
    <nd ref="334147715"/>
    <nd ref="334147718"/>
    <nd ref="334147720"/>
    <nd ref="334147722"/>
    <nd ref="334147723"/>
    <tag k="abutters" v="commercial"/>
    <tag k="highway" v="unclassified"/>
  </way>
  <way id="30309596" version="7" timestamp="2010-10-25T20:56:24Z" uid="334153" user="Alexander Roalter" changeset="6177484">
    <nd ref="334147698"/>
    <nd ref="334147702"/>
    <nd ref="334147705"/>
    <nd ref="334147707"/>
    <nd ref="965338196"/>
    <nd ref="334147709"/>
    <nd ref="334147711"/>
    <nd ref="334147714"/>
    <nd ref="334147715"/>
    <nd ref="334147718"/>
    <nd ref="334147720"/>
    <nd ref="334147722"/>
    <nd ref="334147723"/>
    <tag k="abutters" v="commercial"/>
    <tag k="highway" v="unclassified"/>
  </way>
  <way id="30309596" version="8" timestamp="2011-05-08T23:50:19Z" uid="334153" user="Alexander Roalter" changeset="8088758">
    <nd ref="334147698"/>
    <nd ref="334147702"/>
    <nd ref="334147705"/>
    <nd ref="334147707"/>
    <nd ref="965338196"/>
    <nd ref="334147709"/>
    <nd ref="334147711"/>
    <nd ref="1277754956"/>
    <nd ref="334147714"/>
    <nd ref="334147715"/>
    <nd ref="334147718"/>
    <nd ref="334147720"/>
    <nd ref="334147722"/>
    <nd ref="1277754959"/>
    <nd ref="334147723"/>
    <tag k="abutters" v="commercial"/>
    <tag k="highway" v="unclassified"/>
  </way>
  <way id="30309596" version="9" timestamp="2011-06-13T11:31:04Z" uid="250984" user="gumpix" changeset="8424911">
    <nd ref="334147698"/>
    <nd ref="334147702"/>
    <nd ref="334147705"/>
    <nd ref="334147707"/>
    <nd ref="965338196"/>
    <nd ref="334147709"/>
    <nd ref="334147711"/>
    <nd ref="1277754956"/>
    <nd ref="334147714"/>
    <nd ref="334147715"/>
    <nd ref="334147718"/>
    <nd ref="334147720"/>
    <nd ref="334147722"/>
    <nd ref="1277754959"/>
    <nd ref="334147723"/>
    <tag k="abutters" v="commercial"/>
    <tag k="highway" v="unclassified"/>
    <tag k="name" v="J.G. Mahl Straße - Via J.G. Mahl"/>
    <tag k="name:de" v="J.G. Mahl Straße"/>
    <tag k="name:it" v="Via J.G. Mahl"/>
    <tag k="surface" v="asphalt"/>
  </way>
  <way id="30309596" version="10" timestamp="2012-02-04T14:40:38Z" uid="334153" user="Alexander Roalter" changeset="10584809">
    <nd ref="334147698"/>
    <nd ref="334147702"/>
    <nd ref="334147705"/>
    <nd ref="334147707"/>
    <nd ref="965338196"/>
    <nd ref="334147709"/>
    <nd ref="1617764768"/>
    <nd ref="334147711"/>
    <nd ref="1277754956"/>
    <nd ref="334147714"/>
    <nd ref="334147715"/>
    <nd ref="334147718"/>
    <nd ref="334147720"/>
    <nd ref="334147722"/>
    <nd ref="1277754959"/>
    <nd ref="334147723"/>
    <tag k="abutters" v="commercial"/>
    <tag k="highway" v="unclassified"/>
    <tag k="name" v="J.G. Mahl Straße - Via J.G. Mahl"/>
    <tag k="name:de" v="J.G. Mahl Straße"/>
    <tag k="name:it" v="Via J.G. Mahl"/>
    <tag k="surface" v="asphalt"/>
  </way>
  <way id="30309596" version="11" timestamp="2012-03-02T18:34:31Z" uid="606933" user="immaterial" changeset="10850864">
    <nd ref="334147698"/>
    <nd ref="334147702"/>
    <nd ref="334147705"/>
    <nd ref="334147707"/>
    <nd ref="965338196"/>
    <nd ref="334147709"/>
    <nd ref="1617764768"/>
    <nd ref="334147711"/>
    <nd ref="1277754956"/>
    <nd ref="334147714"/>
    <nd ref="334147715"/>
    <nd ref="334147718"/>
    <nd ref="334147720"/>
    <nd ref="334147722"/>
    <nd ref="1277754959"/>
    <nd ref="334147723"/>
    <tag k="abutters" v="commercial"/>
    <tag k="highway" v="unclassified"/>
    <tag k="name" v="J.-G.-Mahl-Straße - Via J.G. Mahl"/>
    <tag k="name:de" v="J.-G.-Mahl-Straße"/>
    <tag k="name:it" v="Via J.G. Mahl"/>
    <tag k="surface" v="asphalt"/>
  </way>
  <way id="30309611" version="1" timestamp="2009-01-20T14:05:16Z" uid="68769" user="david lynch" changeset="818493">
    <nd ref="152135096"/>
    <nd ref="152159360"/>
    <nd ref="152159363"/>
    <nd ref="152121630"/>
    <nd ref="152122936"/>
    <tag k="created_by" v="Potlatch 0.10e"/>
    <tag k="highway" v="secondary"/>
    <tag k="name" v="Railroad St"/>
    <tag k="name_1" v="Farm-to-Market Road 1963"/>
    <tag k="ref" v="FM 1963"/>
    <tag k="tiger:cfcc" v="A41"/>
    <tag k="tiger:county" v="Milam, TX"/>
    <tag k="tiger:name_base" v="Farm-to-Market Road 1963"/>
    <tag k="tiger:reviewed" v="no"/>
    <tag k="tiger:separated" v="no"/>
    <tag k="tiger:source" v="tiger_import_dch_v0.6_20070830"/>
    <tag k="tiger:tlid" v="25189844:25189898:25189904:25211637"/>
    <tag k="tiger:upload_uuid" v="bulk_upload.pl-9f2d4f4c-baa4-479c-aeb2-ab18d3330ecb"/>
  </way>
  <way id="30309611" version="2" timestamp="2010-04-07T13:17:32Z" uid="20587" user="balrog-kun" changeset="4353646">
    <nd ref="152135096"/>
    <nd ref="152159360"/>
    <nd ref="152159363"/>
    <nd ref="152121630"/>
    <nd ref="152122936"/>
    <tag k="created_by" v="Potlatch 0.10e"/>
    <tag k="highway" v="secondary"/>
    <tag k="name" v="Railroad Street"/>
    <tag k="name_1" v="Farm-to-Market Road 1963"/>
    <tag k="ref" v="FM 1963"/>
    <tag k="tiger:cfcc" v="A41"/>
    <tag k="tiger:county" v="Milam, TX"/>
    <tag k="tiger:name_base" v="Farm-to-Market Road 1963"/>
    <tag k="tiger:reviewed" v="no"/>
    <tag k="tiger:separated" v="no"/>
    <tag k="tiger:source" v="tiger_import_dch_v0.6_20070830"/>
    <tag k="tiger:tlid" v="25189844:25189898:25189904:25211637"/>
  </way>
</osm>
