<?xml version='1.0' encoding='UTF-8'?>
<osm version="0.6" generator="libosmium/2.20.0">
  <way id="30302024" version="1" timestamp="2009-01-20T12:27:39Z" uid="20587" user="balrog-kun" changeset="815696">
    <nd ref="334095535"/>
    <nd ref="311856322"/>
    <nd ref="334095540"/>
    <nd ref="334095543"/>
    <nd ref="334095538"/>
    <nd ref="334095531"/>
    <nd ref="334095535"/>
    <tag k="addr:housenumber" v="1"/>
    <tag k="addr:street" v="Senatorska"/>
    <tag k="building" v="yes"/>
  </way>
  <way id="30302024" version="2" timestamp="2009-01-28T01:19:00Z" uid="20587" user="balrog-kun" changeset="847025">
    <nd ref="334095535"/>
    <nd ref="311856322"/>
    <nd ref="334095540"/>
    <nd ref="334095543"/>
    <nd ref="334095538"/>
    <nd ref="334095531"/>
    <nd ref="334095535"/>
    <tag k="addr:housenumber" v="1"/>
    <tag k="addr:street" v="Senatorska"/>
    <tag k="building" v="yes"/>
    <tag k="name" v="Kamienica Johna"/>
    <tag k="name:en" v="John&apos;s Tenment"/>
    <tag k="source:name" v="msi"/>
  </way>
  <way id="30302024" version="3" timestamp="2011-11-03T16:57:27Z" uid="91056" user="Yarl" changeset="9731777">
    <nd ref="334095535"/>
    <nd ref="311856322"/>
    <nd ref="334095543"/>
    <nd ref="334095538"/>
    <nd ref="334095531"/>
    <nd ref="334095535"/>
    <tag k="addr:housenumber" v="1"/>
    <tag k="addr:street" v="Senatorska"/>
    <tag k="building" v="yes"/>
    <tag k="name" v="Kamienica Johna"/>
    <tag k="name:en" v="John&apos;s Tenment"/>
    <tag k="source:name" v="msi"/>
  </way>
  <way id="30302024" version="4" timestamp="2012-01-12T20:07:12Z" uid="477744" user="hormel" changeset="10372955">
    <nd ref="334095535"/>
    <nd ref="311856322"/>
    <nd ref="334095543"/>
    <nd ref="1587448411"/>
    <nd ref="334095538"/>
    <nd ref="1587448413"/>
    <nd ref="334095531"/>
    <nd ref="334095535"/>
    <tag k="addr:housenumber" v="1"/>
    <tag k="addr:street" v="Senatorska"/>
    <tag k="building" v="yes"/>
    <tag k="name" v="Kamienica Johna"/>
    <tag k="name:en" v="John&apos;s Tenment"/>
    <tag k="source:name" v="msi"/>
  </way>
  <way id="30302026" version="1" timestamp="2009-01-20T12:27:40Z" uid="20587" user="balrog-kun" changeset="815696">
    <nd ref="334095531"/>
    <nd ref="334095518"/>
    <nd ref="334095526"/>
    <nd ref="334095545"/>
    <nd ref="334095535"/>
    <nd ref="334095531"/>
    <tag k="addr:housenumber" v="3"/>
    <tag k="addr:street" v="Senatorska"/>
    <tag k="building" v="yes"/>
  </way>
  <way id="30302026" version="2" timestamp="2011-11-03T16:57:30Z" uid="91056" user="Yarl" changeset="9731777">
    <nd ref="334095531"/>
    <nd ref="334095518"/>
    <nd ref="334095526"/>
    <nd ref="1490532981"/>
    <nd ref="334095545"/>
    <nd ref="334095535"/>
    <nd ref="334095531"/>
    <tag k="addr:housenumber" v="3"/>
    <tag k="addr:street" v="Senatorska"/>
    <tag k="building" v="yes"/>
  </way>
  <way id="30302027" version="1" timestamp="2009-01-20T12:27:40Z" uid="20587" user="balrog-kun" changeset="815696">
    <nd ref="334095507"/>
    <nd ref="334095512"/>
    <nd ref="334095526"/>
    <nd ref="334095518"/>
    <nd ref="334095507"/>
    <tag k="addr:housenumber" v="5"/>
    <tag k="addr:street" v="Senatorska"/>
    <tag k="building" v="yes"/>
  </way>
  <way id="30302027" version="2" timestamp="2011-11-03T16:57:30Z" uid="91056" user="Yarl" changeset="9731777">
    <nd ref="334095507"/>
    <nd ref="334095512"/>
    <nd ref="1490532967"/>
    <nd ref="334095526"/>
    <nd ref="334095518"/>
    <nd ref="334095507"/>
    <tag k="addr:housenumber" v="5"/>
    <tag k="addr:street" v="Senatorska"/>
    <tag k="building" v="yes"/>
  </way>
  <way id="30302028" version="1" timestamp="2009-01-20T12:27:40Z" uid="20587" user="balrog-kun" changeset="815696">
    <nd ref="334095507"/>
    <nd ref="334095499"/>
    <nd ref="334095501"/>
    <nd ref="334095512"/>
    <nd ref="334095507"/>
    <tag k="addr:housenumber" v="7"/>
    <tag k="addr:street" v="Senatorska"/>
    <tag k="building" v="yes"/>
  </way>
  <way id="30302029" version="1" timestamp="2009-01-20T12:27:41Z" uid="20587" user="balrog-kun" changeset="815696">
    <nd ref="334095499"/>
    <nd ref="334095495"/>
    <nd ref="334095497"/>
    <nd ref="334095501"/>
    <nd ref="334095499"/>
    <tag k="addr:housenumber" v="9"/>
    <tag k="addr:street" v="Senatorska"/>
    <tag k="building" v="yes"/>
  </way>
  <way id="30302030" version="1" timestamp="2009-01-20T12:27:41Z" uid="20587" user="balrog-kun" changeset="815696">
    <nd ref="334095495"/>
    <nd ref="334095491"/>
    <nd ref="334095492"/>
    <nd ref="334095497"/>
    <nd ref="334095495"/>
    <tag k="addr:housenumber" v="11"/>
    <tag k="addr:street" v="Senatorska"/>
    <tag k="building" v="yes"/>
  </way>
  <way id="30302030" version="2" timestamp="2009-01-28T01:19:00Z" uid="20587" user="balrog-kun" changeset="847025">
    <nd ref="334095495"/>
    <nd ref="334095491"/>
    <nd ref="334095492"/>
    <nd ref="334095497"/>
    <nd ref="334095495"/>
    <tag k="addr:housenumber" v="11"/>
    <tag k="addr:street" v="Senatorska"/>
    <tag k="building" v="yes"/>
    <tag k="name" v="Pałac Małachowskiego"/>
  </way>
  <way id="30302032" version="1" timestamp="2009-01-20T12:27:41Z" uid="20587" user="balrog-kun" changeset="815696">
    <nd ref="334095547"/>
    <nd ref="334095549"/>
    <nd ref="334095551"/>
    <nd ref="334095552"/>
    <nd ref="334095547"/>
    <tag k="amenity" v="parking"/>
  </way>
  <way id="30302032" version="2" timestamp="2011-11-03T18:02:25Z" uid="91056" user="Yarl" changeset="9732479">
    <nd ref="334095547"/>
    <nd ref="334095549"/>
    <nd ref="334095551"/>
    <nd ref="1490577079"/>
    <nd ref="334095552"/>
    <nd ref="334095547"/>
    <tag k="amenity" v="parking"/>
  </way>
  <way id="30302033" version="1" timestamp="2009-01-20T12:27:41Z" uid="20587" user="balrog-kun" changeset="815696">
    <nd ref="334095586"/>
    <nd ref="334095584"/>
    <nd ref="334095556"/>
    <nd ref="334095579"/>
    <nd ref="334095586"/>
    <tag k="addr:housenumber" v="83"/>
    <tag k="addr:postcode" v="00-079"/>
    <tag k="addr:street" v="Krakowskie Przedmieście"/>
    <tag k="building" v="yes"/>
  </way>
  <way id="30302033" version="2" timestamp="2009-01-28T01:19:00Z" uid="20587" user="balrog-kun" changeset="847025">
    <nd ref="334095586"/>
    <nd ref="334095584"/>
    <nd ref="334095556"/>
    <nd ref="334095579"/>
    <nd ref="334095586"/>
    <tag k="addr:housenumber" v="83"/>
    <tag k="addr:postcode" v="00-079"/>
    <tag k="addr:street" v="Krakowskie Przedmieście"/>
    <tag k="building" v="yes"/>
  </way>
  <way id="30302033" version="3" timestamp="2011-11-03T18:02:24Z" uid="91056" user="Yarl" changeset="9732479">
    <nd ref="334095586"/>
    <nd ref="1490577066"/>
    <nd ref="334095584"/>
    <nd ref="334095556"/>
    <nd ref="334095579"/>
    <nd ref="334095586"/>
    <tag k="addr:housenumber" v="83"/>
    <tag k="addr:postcode" v="00-079"/>
    <tag k="addr:street" v="Krakowskie Przedmieście"/>
    <tag k="building" v="yes"/>
  </way>
  <way id="30302034" version="1" timestamp="2009-01-20T12:27:42Z" uid="20587" user="balrog-kun" changeset="815696">
    <nd ref="334095584"/>
    <nd ref="311856325"/>
    <nd ref="334095582"/>
    <nd ref="334095554"/>
    <nd ref="334095556"/>
    <nd ref="334095584"/>
    <tag k="addr:housenumber" v="81"/>
    <tag k="addr:postcode" v="00-079"/>
    <tag k="addr:street" v="Krakowskie Przedmieście"/>
    <tag k="building" v="yes"/>
  </way>
  <way id="30302034" version="2" timestamp="2011-11-03T16:57:30Z" uid="91056" user="Yarl" changeset="9731777">
    <nd ref="334095584"/>
    <nd ref="1490532957"/>
    <nd ref="311856325"/>
    <nd ref="334095582"/>
    <nd ref="334095554"/>
    <nd ref="334095556"/>
    <nd ref="334095584"/>
    <tag k="addr:housenumber" v="81"/>
    <tag k="addr:postcode" v="00-079"/>
    <tag k="addr:street" v="Krakowskie Przedmieście"/>
    <tag k="building" v="yes"/>
  </way>
  <way id="30302036" version="1" timestamp="2009-01-20T12:27:42Z" uid="20587" user="balrog-kun" changeset="815696">
    <nd ref="334095582"/>
    <nd ref="311856323"/>
    <nd ref="311856324"/>
    <nd ref="334095554"/>
    <nd ref="334095582"/>
    <tag k="addr:housenumber" v="79"/>
    <tag k="addr:postcode" v="00-079"/>
    <tag k="addr:street" v="Krakowskie Przedmieście"/>
    <tag k="building" v="yes"/>
  </way>
  <way id="30302036" version="2" timestamp="2009-04-04T19:08:14Z" uid="20587" user="balrog-kun" changeset="172492">
    <nd ref="334095582"/>
    <nd ref="311856323"/>
    <nd ref="311856324"/>
    <nd ref="334095554"/>
    <nd ref="334095582"/>
    <tag k="addr:housenumber" v="79"/>
    <tag k="addr:postcode" v="00-079"/>
    <tag k="addr:street" v="Krakowskie Przedmieście"/>
    <tag k="building" v="yes"/>
    <tag k="name" v="Kamienica Roesslera i Hurtiga"/>
  </way>
  <way id="30302036" version="3" timestamp="2011-11-03T16:57:27Z" uid="91056" user="Yarl" changeset="9731777">
    <nd ref="334095582"/>
    <nd ref="1490532956"/>
    <nd ref="311856323"/>
    <nd ref="311856324"/>
    <nd ref="334095554"/>
    <nd ref="334095582"/>
    <tag k="addr:housenumber" v="79"/>
    <tag k="addr:postcode" v="00-079"/>
    <tag k="addr:street" v="Krakowskie Przedmieście"/>
    <tag k="building" v="yes"/>
    <tag k="name" v="Kamienica Roesslera i Hurtiga"/>
  </way>
  <way id="30302037" version="1" timestamp="2009-01-20T12:27:42Z" uid="20587" user="balrog-kun" changeset="815696">
    <nd ref="334095586"/>
    <nd ref="334095579"/>
    <nd ref="334095580"/>
    <nd ref="334095587"/>
    <nd ref="334095586"/>
    <tag k="addr:housenumber" v="85"/>
    <tag k="addr:postcode" v="00-079"/>
    <tag k="addr:street" v="Krakowskie Przedmieście"/>
    <tag k="building" v="yes"/>
  </way>
  <way id="30302037" version="2" timestamp="2009-01-28T01:19:00Z" uid="20587" user="balrog-kun" changeset="847025">
    <nd ref="334095586"/>
    <nd ref="334095579"/>
    <nd ref="334095580"/>
    <nd ref="334095587"/>
    <nd ref="334095586"/>
    <tag k="addr:housenumber" v="85"/>
    <tag k="addr:postcode" v="00-079"/>
    <tag k="addr:street" v="Krakowskie Przedmieście"/>
    <tag k="building" v="yes"/>
    <tag k="name" v="Kamienica Prażmowskich"/>
    <tag k="source:name" v="msi"/>
  </way>
  <way id="30302037" version="3" timestamp="2011-10-14T10:11:49Z" uid="477744" user="hormel" changeset="9554092">
    <nd ref="334095586"/>
    <nd ref="334095579"/>
    <nd ref="334095580"/>
    <nd ref="334095587"/>
    <nd ref="334095586"/>
    <tag k="addr:housenumber" v="85"/>
    <tag k="addr:postcode" v="00-079"/>
    <tag k="addr:street" v="Krakowskie Przedmieście"/>
    <tag k="building" v="yes"/>
    <tag k="layer" v="+1"/>
    <tag k="name" v="Kamienica Prażmowskich"/>
    <tag k="source:name" v="msi"/>
  </way>
  <way id="30302037" version="4" timestamp="2011-10-14T17:43:19Z" uid="70696" user="xybot" changeset="9557430">
    <nd ref="334095586"/>
    <nd ref="334095579"/>
    <nd ref="334095580"/>
    <nd ref="334095587"/>
    <nd ref="334095586"/>
    <tag k="addr:housenumber" v="85"/>
    <tag k="addr:postcode" v="00-079"/>
    <tag k="addr:street" v="Krakowskie Przedmieście"/>
    <tag k="building" v="yes"/>
    <tag k="layer" v="1"/>
    <tag k="name" v="Kamienica Prażmowskich"/>
    <tag k="source:name" v="msi"/>
  </way>
  <way id="30302037" version="5" timestamp="2011-11-03T16:57:27Z" uid="91056" user="Yarl" changeset="9731777">
    <nd ref="334095586"/>
    <nd ref="334095579"/>
    <nd ref="334095580"/>
    <nd ref="334095587"/>
    <nd ref="1490532965"/>
    <nd ref="1490532962"/>
    <nd ref="334095586"/>
    <tag k="addr:housenumber" v="85"/>
    <tag k="addr:postcode" v="00-079"/>
    <tag k="addr:street" v="Krakowskie Przedmieście"/>
    <tag k="building" v="yes"/>
    <tag k="layer" v="1"/>
    <tag k="name" v="Kamienica Prażmowskich"/>
    <tag k="source:name" v="msi"/>
  </way>
  <way id="30302043" version="2" timestamp="2011-04-19T09:14:35Z" uid="4467" user="Rosscoe" changeset="7904555"/>
  <way id="30302131" version="9" timestamp="2011-04-19T09:13:34Z" uid="4467" user="Rosscoe" changeset="7904555">
    <nd ref="334094022"/>
    <nd ref="565310986"/>
    <nd ref="334094023"/>
    <nd ref="339273163"/>
    <nd ref="795279869"/>
    <nd ref="334094024"/>
    <nd ref="334094026"/>
    <nd ref="728174559"/>
    <nd ref="334096907"/>
    <nd ref="334096410"/>
    <nd ref="334094022"/>
    <tag k="building" v="yes"/>
    <tag k="name" v="CH"/>
  </way>
  <way id="30302181" version="10" timestamp="2011-04-19T09:14:11Z" uid="4467" user="Rosscoe" changeset="7904555">
    <nd ref="334094032"/>
    <nd ref="728172981"/>
    <nd ref="728172982"/>
    <nd ref="728172983"/>
    <nd ref="334096410"/>
    <nd ref="334096907"/>
    <nd ref="728174559"/>
    <nd ref="334094026"/>
    <nd ref="334097384"/>
    <nd ref="730240595"/>
    <nd ref="565308013"/>
    <nd ref="334094032"/>
    <tag k="building" v="yes"/>
    <tag k="name" v="CJ"/>
  </way>
  <way id="30302255" version="23" timestamp="2011-04-19T09:13:59Z" uid="4467" user="Rosscoe" changeset="7904555">
    <nd ref="720302634"/>
    <nd ref="334097639"/>
    <nd ref="334097642"/>
    <nd ref="565308145"/>
    <nd ref="720305779"/>
    <nd ref="720305781"/>
    <nd ref="565308146"/>
    <nd ref="565308147"/>
    <nd ref="720305784"/>
    <nd ref="720305785"/>
    <nd ref="720305786"/>
    <nd ref="720306556"/>
    <nd ref="720306559"/>
    <nd ref="720306561"/>
    <nd ref="720306564"/>
    <nd ref="720306566"/>
    <nd ref="720306581"/>
    <nd ref="720306583"/>
    <nd ref="524700219"/>
    <nd ref="795279868"/>
    <nd ref="334097637"/>
    <nd ref="720306591"/>
    <nd ref="720306593"/>
    <nd ref="720306596"/>
    <nd ref="720306599"/>
    <nd ref="720306669"/>
    <nd ref="720306727"/>
    <nd ref="720306740"/>
    <nd ref="720307001"/>
    <nd ref="720307775"/>
    <nd ref="565308402"/>
    <nd ref="565308096"/>
    <nd ref="565308098"/>
    <nd ref="334097638"/>
    <nd ref="720302634"/>
    <tag k="access" v="private"/>
    <tag k="amenity" v="library"/>
    <tag k="building" v="yes"/>
    <tag k="name" v="CD"/>
  </way>
  <way id="30302274" version="16" timestamp="2011-04-19T09:13:38Z" uid="4467" user="Rosscoe" changeset="7904555">
    <nd ref="334097639"/>
    <nd ref="720302634"/>
    <nd ref="565308050"/>
    <nd ref="334097885"/>
    <nd ref="334098022"/>
    <nd ref="565310083"/>
    <nd ref="565308037"/>
    <nd ref="334098024"/>
    <nd ref="334098442"/>
    <nd ref="334098444"/>
    <nd ref="720302817"/>
    <nd ref="334098445"/>
    <nd ref="334098446"/>
    <nd ref="334097639"/>
    <tag k="building" v="yes"/>
    <tag k="name" v="CE"/>
  </way>
  <way id="30302452" version="1" timestamp="2009-01-20T12:36:01Z" uid="49111" user="Markus B" changeset="815879">
    <nd ref="334100111"/>
    <nd ref="334100113"/>
    <nd ref="334100116"/>
    <nd ref="334100118"/>
    <nd ref="334100111"/>
    <tag k="building" v="yes"/>
    <tag k="name" v="Bahnhof Rüschlikon"/>
    <tag k="railway" v="station"/>
  </way>
  <way id="30302452" version="2" timestamp="2009-01-20T12:56:45Z" uid="49111" user="Markus B" changeset="815879">
    <nd ref="334100111"/>
    <nd ref="334100113"/>
    <nd ref="334100116"/>
    <nd ref="334100118"/>
    <nd ref="334100111"/>
    <tag k="building" v="yes"/>
    <tag k="railway" v="station"/>
  </way>
  <way id="30302452" version="3" timestamp="2010-02-13T04:02:04Z" uid="52921" user="t-i" changeset="3861929">
    <nd ref="334100111"/>
    <nd ref="334100113"/>
    <nd ref="334100116"/>
    <nd ref="334100118"/>
    <nd ref="334100111"/>
    <tag k="building" v="train_station"/>
  </way>
  <way id="30302452" version="4" timestamp="2011-01-14T19:48:06Z" uid="121434" user="dave_zh" changeset="6970571"/>
  <way id="30302453" version="1" timestamp="2009-01-20T12:36:02Z" uid="49111" user="Markus B" changeset="815879">
    <nd ref="334100131"/>
    <nd ref="334100134"/>
  </way>
  <way id="30302453" version="2" timestamp="2009-01-20T12:55:33Z" uid="49111" user="Markus B" changeset="815879">
    <nd ref="334100131"/>
    <nd ref="334100134"/>
    <tag k="highway" v="footway"/>
  </way>
  <way id="30302453" version="3" timestamp="2011-01-28T20:05:12Z" uid="121434" user="dave_zh" changeset="7116404">
    <nd ref="334100131"/>
    <nd ref="334100134"/>
    <tag k="highway" v="footway"/>
    <tag k="name" v="Bohlweg"/>
  </way>
  <way id="30302454" version="1" timestamp="2009-01-20T12:36:02Z" uid="49111" user="Markus B" changeset="815879">
    <nd ref="334100134"/>
    <nd ref="334100136"/>
    <tag k="bridge" v="yes"/>
  </way>
  <way id="30302454" version="2" timestamp="2009-01-20T12:55:34Z" uid="49111" user="Markus B" changeset="815879">
    <nd ref="334100134"/>
    <nd ref="334100136"/>
    <tag k="bridge" v="yes"/>
    <tag k="highway" v="footway"/>
  </way>
  <way id="30302454" version="3" timestamp="2009-08-18T19:09:48Z" uid="121434" user="dave_zh" changeset="2193967">
    <nd ref="334100134"/>
    <nd ref="334100136"/>
    <tag k="bridge" v="yes"/>
    <tag k="highway" v="footway"/>
    <tag k="layer" v="1"/>
  </way>
  <way id="30302454" version="4" timestamp="2011-01-28T20:05:11Z" uid="121434" user="dave_zh" changeset="7116404">
    <nd ref="334100134"/>
    <nd ref="334100136"/>
    <tag k="bridge" v="yes"/>
    <tag k="highway" v="footway"/>
    <tag k="layer" v="1"/>
    <tag k="name" v="Bohlweg"/>
  </way>
  <way id="30302455" version="1" timestamp="2009-01-20T12:36:03Z" uid="49111" user="Markus B" changeset="815879">
    <nd ref="334100136"/>
    <nd ref="334100139"/>
  </way>
  <way id="30302455" version="2" timestamp="2009-01-20T12:55:34Z" uid="49111" user="Markus B" changeset="815879">
    <nd ref="334100136"/>
    <nd ref="334100139"/>
    <nd ref="334111481"/>
    <nd ref="334111483"/>
    <nd ref="334111486"/>
    <nd ref="277356955"/>
    <tag k="highway" v="footway"/>
  </way>
  <way id="30302455" version="3" timestamp="2011-01-28T20:05:12Z" uid="121434" user="dave_zh" changeset="7116404">
    <nd ref="334100136"/>
    <nd ref="334100139"/>
    <nd ref="334111481"/>
    <nd ref="334111483"/>
    <nd ref="334111486"/>
    <nd ref="277356955"/>
    <tag k="highway" v="footway"/>
    <tag k="name" v="Bohlweg"/>
  </way>
  <way id="30302455" version="4" timestamp="2011-02-01T21:59:43Z" uid="121434" user="dave_zh" changeset="7159938">
    <nd ref="334100136"/>
    <nd ref="334100139"/>
    <nd ref="1125333232"/>
    <nd ref="1125333247"/>
    <nd ref="1125333231"/>
    <tag k="highway" v="footway"/>
    <tag k="name" v="Bohlweg"/>
  </way>
  <way id="30302455" version="5" timestamp="2011-05-04T14:13:19Z" uid="334389" user="ueliw0" changeset="8049404">
    <nd ref="334100136"/>
    <nd ref="334100139"/>
    <nd ref="1272062958"/>
    <nd ref="1125333232"/>
    <nd ref="1272062912"/>
    <nd ref="1272062977"/>
    <nd ref="1125333247"/>
    <nd ref="1125333231"/>
    <tag k="highway" v="footway"/>
    <tag k="name" v="Bohlweg"/>
  </way>
  <way id="30302703" version="1" timestamp="2009-01-20T12:43:09Z" uid="20587" user="balrog-kun" changeset="815696">
    <nd ref="334103980"/>
    <nd ref="334103981"/>
    <nd ref="334103986"/>
    <nd ref="334103988"/>
    <nd ref="334103989"/>
    <nd ref="334103984"/>
    <nd ref="334103993"/>
    <nd ref="334103982"/>
    <nd ref="319997085"/>
    <nd ref="334103980"/>
    <tag k="addr:housenumber" v="6"/>
    <tag k="addr:street" v="Złota"/>
    <tag k="building" v="yes"/>
  </way>
  <way id="30302703" version="2" timestamp="2009-02-25T15:24:04Z" uid="20587" user="balrog-kun" changeset="662652">
    <nd ref="334103984"/>
    <nd ref="334103993"/>
    <nd ref="334103982"/>
    <nd ref="319997085"/>
    <nd ref="334103980"/>
    <nd ref="334103981"/>
    <nd ref="352714923"/>
    <nd ref="334103989"/>
    <nd ref="334103984"/>
    <tag k="addr:housenumber" v="6"/>
    <tag k="addr:street" v="Złota"/>
    <tag k="building" v="yes"/>
  </way>
  <way id="30302705" version="1" timestamp="2009-01-20T12:43:09Z" uid="20587" user="balrog-kun" changeset="815696">
    <nd ref="334103980"/>
    <nd ref="319997085"/>
    <nd ref="319997087"/>
    <nd ref="334103979"/>
    <nd ref="334103980"/>
    <tag k="addr:housenumber" v="8"/>
    <tag k="addr:street" v="Złota"/>
    <tag k="building" v="yes"/>
  </way>
  <way id="30302706" version="1" timestamp="2009-01-20T12:43:09Z" uid="20587" user="balrog-kun" changeset="815696">
    <nd ref="334103995"/>
    <nd ref="334103997"/>
    <nd ref="334103991"/>
    <nd ref="334103995"/>
    <tag k="addr:housenumber" v="11"/>
    <tag k="addr:street" v="Zgoda"/>
    <tag k="building" v="yes"/>
  </way>
  <way id="30302855" version="1" timestamp="2009-01-20T12:47:56Z" uid="20587" user="balrog-kun" changeset="815696">
    <nd ref="334106972"/>
    <nd ref="319997057"/>
    <nd ref="319997061"/>
    <nd ref="319997045"/>
    <nd ref="334106972"/>
    <tag k="addr:housenumber" v="5"/>
    <tag k="addr:street" v="Henryka Sienkiewicza"/>
    <tag k="building" v="yes"/>
    <tag k="name" v="Zarząd Mienia Skarbu Państwa"/>
  </way>
  <way id="30302855" version="2" timestamp="2009-02-09T00:16:43Z" uid="20587" user="balrog-kun" changeset="288825">
    <nd ref="334106972"/>
    <nd ref="319997057"/>
    <nd ref="319997061"/>
    <nd ref="319997045"/>
    <nd ref="334106972"/>
    <tag k="addr:housenumber" v="5"/>
    <tag k="addr:street" v="Henryka Sienkiewicza"/>
    <tag k="building" v="yes"/>
  </way>
  <way id="30302856" version="1" timestamp="2009-01-20T12:47:57Z" uid="20587" user="balrog-kun" changeset="815696">
    <nd ref="334106972"/>
    <nd ref="334106969"/>
    <nd ref="319997054"/>
    <nd ref="319997057"/>
    <nd ref="334106972"/>
    <tag k="addr:housenumber" v="8"/>
    <tag k="addr:street" v="Jasna"/>
    <tag k="building" v="yes"/>
  </way>
  <way id="30302878" version="2" timestamp="2009-11-19T04:36:42Z" uid="30201" user="rrankin" changeset="3156855">
    <nd ref="256689323"/>
    <nd ref="334106069"/>
    <nd ref="334106111"/>
    <nd ref="566890200"/>
    <nd ref="334106151"/>
    <nd ref="334106179"/>
    <nd ref="334107135"/>
    <nd ref="566890201"/>
    <nd ref="334107146"/>
    <nd ref="334107162"/>
    <nd ref="334107178"/>
    <nd ref="334107189"/>
    <nd ref="334107201"/>
    <nd ref="334107210"/>
    <nd ref="334107225"/>
    <nd ref="334107236"/>
    <nd ref="334107241"/>
    <nd ref="334107251"/>
    <nd ref="334107258"/>
    <nd ref="334107267"/>
    <nd ref="334107274"/>
    <nd ref="334107286"/>
    <nd ref="334107294"/>
    <nd ref="324958349"/>
    <tag k="highway" v="track"/>
    <tag k="surface" v="paved"/>
    <tag k="tracktype" v="grade1"/>
  </way>
  <way id="30302878" version="3" timestamp="2010-08-21T23:49:45Z" uid="30201" user="rrankin" changeset="5556944">
    <nd ref="256689323"/>
    <nd ref="334106069"/>
    <nd ref="334106111"/>
    <tag k="highway" v="track"/>
    <tag k="surface" v="paved"/>
    <tag k="tracktype" v="grade1"/>
  </way>
  <way id="30302880" version="4" timestamp="2009-11-19T04:36:41Z" uid="30201" user="rrankin" changeset="3156855">
    <nd ref="440104495"/>
    <nd ref="334107111"/>
    <nd ref="334107089"/>
    <nd ref="334107071"/>
    <nd ref="334107064"/>
    <nd ref="334107053"/>
    <nd ref="334107038"/>
    <nd ref="566890201"/>
    <nd ref="334106215"/>
    <nd ref="334106241"/>
    <nd ref="334106260"/>
    <nd ref="334106312"/>
    <nd ref="334106354"/>
    <nd ref="334106387"/>
    <nd ref="334106420"/>
    <nd ref="334106473"/>
    <nd ref="334106514"/>
    <nd ref="334106524"/>
    <nd ref="334106531"/>
    <nd ref="334106548"/>
    <nd ref="334106563"/>
    <nd ref="334106575"/>
    <tag k="bicycle" v="yes"/>
    <tag k="cycleway" v="track"/>
    <tag k="foot" v="yes"/>
    <tag k="highway" v="cycleway"/>
    <tag k="name" v="Western Sydney Parklands Track"/>
    <tag k="surface" v="paved"/>
    <tag k="width" v="3"/>
  </way>
</osm>
