<?xml version='1.0' encoding='UTF-8'?>
<osm version="0.6" generator="libosmium/2.20.0">
  <way id="30322212" version="2" timestamp="2010-04-02T17:28:27Z" uid="20587" user="balrog-kun" changeset="4304500">
    <nd ref="334332144"/>
    <nd ref="334332147"/>
    <tag k="created_by" v="Potlatch 0.10f"/>
    <tag k="highway" v="residential"/>
    <tag k="name" v="Francis Avenue North"/>
  </way>
  <way id="30322221" version="1" timestamp="2009-01-20T19:55:23Z" uid="6269" user="Mueck" changeset="817451">
    <nd ref="255363438"/>
    <nd ref="255363439"/>
    <tag k="bridge" v="yes"/>
    <tag k="created_by" v="Potlatch 0.10f"/>
    <tag k="highway" v="secondary"/>
    <tag k="level" v="1"/>
    <tag k="name" v="Burbacher Straße"/>
    <tag k="ref" v="K 3554"/>
  </way>
  <way id="30322221" version="2" timestamp="2012-01-22T15:02:29Z" uid="63969" user="olvagor" changeset="10465488">
    <nd ref="255363438"/>
    <nd ref="1601201476"/>
    <nd ref="255363439"/>
    <tag k="bridge" v="yes"/>
    <tag k="highway" v="secondary"/>
    <tag k="lanes" v="2"/>
    <tag k="level" v="1"/>
    <tag k="name" v="Burbacher Straße"/>
    <tag k="ref" v="K 3554"/>
    <tag k="surface" v="asphalt"/>
  </way>
  <way id="30322221" version="3" timestamp="2012-03-24T19:50:46Z" uid="35468" user="Blunauer" changeset="11088303"/>
  <way id="30322230" version="1" timestamp="2009-01-20T19:55:53Z" uid="6269" user="Mueck" changeset="817451">
    <nd ref="334332370"/>
    <nd ref="26619561"/>
    <nd ref="26619560"/>
    <nd ref="26619559"/>
    <nd ref="26619558"/>
    <nd ref="26619557"/>
    <nd ref="26619556"/>
    <nd ref="26619555"/>
    <nd ref="26619554"/>
    <nd ref="26619553"/>
    <nd ref="26619552"/>
    <nd ref="26619551"/>
    <nd ref="26619550"/>
    <nd ref="26619549"/>
    <nd ref="26619548"/>
    <nd ref="26619547"/>
    <nd ref="26619546"/>
    <nd ref="26619545"/>
    <nd ref="26619544"/>
    <nd ref="26619543"/>
    <nd ref="26619542"/>
    <nd ref="26619541"/>
    <nd ref="26619540"/>
    <nd ref="26632464"/>
    <nd ref="26619539"/>
    <nd ref="26619538"/>
    <nd ref="26619537"/>
    <nd ref="26619536"/>
    <nd ref="26619535"/>
    <nd ref="26619534"/>
    <tag k="created_by" v="Potlatch 0.10f"/>
    <tag k="layer" v="1"/>
    <tag k="railway" v="light_rail"/>
  </way>
  <way id="30322230" version="2" timestamp="2009-01-20T19:56:11Z" uid="6269" user="Mueck" changeset="817451">
    <nd ref="334332370"/>
    <nd ref="26619561"/>
    <nd ref="26619560"/>
    <nd ref="26619559"/>
    <nd ref="26619558"/>
    <nd ref="26619557"/>
    <nd ref="26619556"/>
    <nd ref="26619555"/>
    <nd ref="26619554"/>
    <nd ref="26619553"/>
    <nd ref="26619552"/>
    <nd ref="26619551"/>
    <nd ref="26619550"/>
    <nd ref="26619549"/>
    <nd ref="26619548"/>
    <nd ref="26619547"/>
    <nd ref="26619546"/>
    <nd ref="26619545"/>
    <nd ref="26619544"/>
    <nd ref="26619543"/>
    <nd ref="26619542"/>
    <nd ref="26619541"/>
    <nd ref="26619540"/>
    <nd ref="26632464"/>
    <nd ref="26619539"/>
    <nd ref="26619538"/>
    <nd ref="26619537"/>
    <nd ref="26619536"/>
    <nd ref="26619535"/>
    <nd ref="26619534"/>
    <tag k="created_by" v="Potlatch 0.10f"/>
    <tag k="layer" v="1"/>
    <tag k="railway" v="light_rail"/>
  </way>
  <way id="30322230" version="3" timestamp="2011-07-20T11:44:58Z" uid="118006" user="vwistuttgart" changeset="8777790">
    <nd ref="334332370"/>
    <nd ref="26619561"/>
    <nd ref="1367774688"/>
    <nd ref="26619560"/>
    <nd ref="26619559"/>
    <nd ref="26619558"/>
    <nd ref="26619557"/>
    <nd ref="26619556"/>
    <nd ref="26619555"/>
    <nd ref="26619554"/>
    <nd ref="1367774687"/>
    <nd ref="26619553"/>
    <nd ref="1367774686"/>
    <nd ref="26619552"/>
    <nd ref="26619551"/>
    <nd ref="1367774684"/>
    <nd ref="26619550"/>
    <nd ref="1367774683"/>
    <nd ref="26619549"/>
    <nd ref="26619548"/>
    <nd ref="26619547"/>
    <nd ref="26619546"/>
    <nd ref="26619545"/>
    <nd ref="26619544"/>
    <nd ref="1367774682"/>
    <nd ref="26619543"/>
    <nd ref="1367774679"/>
    <nd ref="26619542"/>
    <nd ref="26619541"/>
    <nd ref="1367774678"/>
    <nd ref="1367774677"/>
    <nd ref="26619540"/>
    <nd ref="26632464"/>
    <nd ref="26619539"/>
    <nd ref="26619538"/>
    <nd ref="1367774676"/>
    <nd ref="26619537"/>
    <nd ref="1367774674"/>
    <nd ref="26619536"/>
    <nd ref="1367774673"/>
    <nd ref="26619535"/>
    <nd ref="1367774671"/>
    <nd ref="26619534"/>
    <tag k="electrified" v="contact_line"/>
    <tag k="frequency" v="0"/>
    <tag k="layer" v="1"/>
    <tag k="railway" v="rail"/>
    <tag k="tracks" v="1"/>
    <tag k="voltage" v="750"/>
  </way>
  <way id="30322230" version="4" timestamp="2011-11-30T10:20:54Z" uid="42429" user="FK270673" changeset="9997155">
    <nd ref="334332370"/>
    <nd ref="26619561"/>
    <nd ref="1367774688"/>
    <nd ref="26619560"/>
    <nd ref="26619559"/>
    <nd ref="26619558"/>
    <nd ref="26619557"/>
    <nd ref="26619556"/>
    <nd ref="26619555"/>
    <nd ref="26619554"/>
    <nd ref="1367774687"/>
    <nd ref="26619553"/>
    <nd ref="1367774686"/>
    <nd ref="26619552"/>
    <nd ref="26619551"/>
    <nd ref="1367774684"/>
    <nd ref="26619550"/>
    <nd ref="1367774683"/>
    <nd ref="26619549"/>
    <nd ref="26619548"/>
    <nd ref="26619547"/>
    <nd ref="26619546"/>
    <nd ref="26619545"/>
    <nd ref="26619544"/>
    <nd ref="1367774682"/>
    <nd ref="26619543"/>
    <nd ref="1367774679"/>
    <nd ref="26619542"/>
    <nd ref="26619541"/>
    <nd ref="1367774678"/>
    <nd ref="1367774677"/>
    <nd ref="26619540"/>
    <nd ref="26632464"/>
    <nd ref="26619539"/>
    <nd ref="26619538"/>
    <nd ref="1367774676"/>
    <nd ref="26619537"/>
    <nd ref="1367774674"/>
    <nd ref="26619536"/>
    <nd ref="1367774673"/>
    <nd ref="26619535"/>
    <nd ref="1367774671"/>
    <nd ref="26619534"/>
    <tag k="electrified" v="contact_line"/>
    <tag k="frequency" v="0"/>
    <tag k="gauge" v="1435"/>
    <tag k="layer" v="1"/>
    <tag k="railway" v="rail"/>
    <tag k="tracks" v="1"/>
    <tag k="voltage" v="750"/>
  </way>
  <way id="30322230" version="5" timestamp="2012-03-02T10:45:03Z" uid="604910" user="Will Pittenger" changeset="10846806">
    <nd ref="334332370"/>
    <nd ref="26619561"/>
    <nd ref="1367774688"/>
    <nd ref="26619560"/>
    <nd ref="26619559"/>
    <nd ref="26619558"/>
    <nd ref="26619557"/>
    <nd ref="26619556"/>
    <nd ref="26619555"/>
    <nd ref="26619554"/>
    <nd ref="1367774687"/>
    <nd ref="26619553"/>
    <nd ref="1367774686"/>
    <nd ref="26619552"/>
    <nd ref="26619551"/>
    <nd ref="1367774684"/>
    <nd ref="26619550"/>
    <nd ref="1367774683"/>
    <nd ref="26619549"/>
    <nd ref="26619548"/>
    <nd ref="26619547"/>
    <nd ref="26619546"/>
    <nd ref="26619545"/>
    <nd ref="26619544"/>
    <nd ref="1367774682"/>
    <nd ref="26619543"/>
    <nd ref="1367774679"/>
    <nd ref="26619542"/>
    <nd ref="26619541"/>
    <nd ref="1367774678"/>
    <nd ref="1367774677"/>
    <nd ref="26619540"/>
    <nd ref="26632464"/>
    <nd ref="26619539"/>
    <nd ref="26619538"/>
    <nd ref="1367774676"/>
    <nd ref="26619537"/>
    <nd ref="1367774674"/>
    <nd ref="26619536"/>
    <nd ref="1367774673"/>
    <nd ref="26619535"/>
    <nd ref="1367774671"/>
    <nd ref="26619534"/>
    <tag k="electrified" v="contact_line"/>
    <tag k="frequency" v="0"/>
    <tag k="gauge" v="1435"/>
    <tag k="layer" v="1"/>
    <tag k="railway" v="light_rail"/>
    <tag k="tracks" v="1"/>
    <tag k="voltage" v="750"/>
  </way>
  <way id="30322230" version="6" timestamp="2012-03-02T10:50:52Z" uid="604910" user="Will Pittenger" changeset="10846876"/>
  <way id="30322232" version="1" timestamp="2009-01-20T19:55:59Z" uid="6269" user="Mueck" changeset="817451">
    <nd ref="334332385"/>
    <nd ref="334332370"/>
    <tag k="bridge" v="yes"/>
    <tag k="created_by" v="Potlatch 0.10f"/>
    <tag k="layer" v="1"/>
    <tag k="railway" v="light_rail"/>
  </way>
  <way id="30322232" version="2" timestamp="2011-07-20T11:44:45Z" uid="118006" user="vwistuttgart" changeset="8777790">
    <nd ref="334332385"/>
    <nd ref="334332370"/>
    <tag k="bridge" v="yes"/>
    <tag k="electrified" v="contact_line"/>
    <tag k="frequency" v="0"/>
    <tag k="layer" v="1"/>
    <tag k="railway" v="rail"/>
    <tag k="tracks" v="1"/>
    <tag k="voltage" v="750"/>
  </way>
  <way id="30322232" version="3" timestamp="2011-11-30T09:59:48Z" uid="42429" user="FK270673" changeset="9997155">
    <nd ref="334332385"/>
    <nd ref="334332370"/>
    <tag k="bridge" v="yes"/>
    <tag k="electrified" v="contact_line"/>
    <tag k="frequency" v="0"/>
    <tag k="gauge" v="1435"/>
    <tag k="layer" v="1"/>
    <tag k="railway" v="rail"/>
    <tag k="tracks" v="1"/>
    <tag k="voltage" v="750"/>
  </way>
  <way id="30322232" version="4" timestamp="2012-03-02T10:45:04Z" uid="604910" user="Will Pittenger" changeset="10846806">
    <nd ref="334332385"/>
    <nd ref="334332370"/>
    <tag k="bridge" v="yes"/>
    <tag k="electrified" v="contact_line"/>
    <tag k="frequency" v="0"/>
    <tag k="gauge" v="1435"/>
    <tag k="layer" v="1"/>
    <tag k="railway" v="light_rail"/>
    <tag k="tracks" v="1"/>
    <tag k="voltage" v="750"/>
  </way>
  <way id="30322232" version="5" timestamp="2012-03-24T19:50:46Z" uid="35468" user="Blunauer" changeset="11088303"/>
  <way id="30322285" version="1" timestamp="2009-01-20T19:56:57Z" uid="64977" user="CLoeser" changeset="818427">
    <nd ref="317227549"/>
    <nd ref="317227552"/>
    <nd ref="317227555"/>
    <nd ref="317227559"/>
    <tag k="bicycle" v="designated"/>
    <tag k="created_by" v="Potlatch 0.10f"/>
    <tag k="foot" v="designated"/>
    <tag k="highway" v="path"/>
    <tag k="source" v="GPS Tracks"/>
  </way>
  <way id="30322285" version="2" timestamp="2009-01-20T19:57:13Z" uid="64977" user="CLoeser" changeset="818427">
    <nd ref="317227549"/>
    <nd ref="317227552"/>
    <nd ref="317227555"/>
    <nd ref="317227559"/>
    <tag k="bicycle" v="designated"/>
    <tag k="created_by" v="Potlatch 0.10f"/>
    <tag k="description" v="ehem. Bahntrasse"/>
    <tag k="foot" v="designated"/>
    <tag k="highway" v="path"/>
    <tag k="source" v="GPS Tracks"/>
  </way>
  <way id="30322285" version="3" timestamp="2009-01-30T11:27:15Z" uid="64977" user="CLoeser" changeset="856421">
    <nd ref="317227549"/>
    <nd ref="317227552"/>
    <nd ref="317227555"/>
    <nd ref="317227559"/>
    <tag k="bicycle" v="designated"/>
    <tag k="created_by" v="Potlatch 0.10f"/>
    <tag k="description" v="ehem. Bahntrasse Itzehoe-Hohenlockstedt-Kellinghusen-Wrist"/>
    <tag k="foot" v="designated"/>
    <tag k="highway" v="path"/>
    <tag k="source" v="GPS Tracks"/>
  </way>
  <way id="30322285" version="4" timestamp="2009-02-08T17:53:28Z" uid="75388" user="Svalbard" changeset="282843">
    <nd ref="317227549"/>
    <nd ref="343480640"/>
    <nd ref="343480658"/>
    <nd ref="317227552"/>
    <nd ref="317227555"/>
    <nd ref="317227559"/>
    <tag k="bicycle" v="designated"/>
    <tag k="created_by" v="Potlatch 0.10f"/>
    <tag k="description" v="ehem. Bahntrasse Itzehoe-Hohenlockstedt-Kellinghusen-Wrist"/>
    <tag k="foot" v="designated"/>
    <tag k="highway" v="path"/>
    <tag k="source" v="GPS Tracks"/>
  </way>
  <way id="30322285" version="5" timestamp="2009-07-26T07:13:25Z" uid="75388" user="Svalbard" changeset="1941302"/>
  <way id="30322444" version="2" timestamp="2009-09-30T14:34:45Z" uid="36809" user="pfoten_weg_!_" changeset="2688850">
    <nd ref="333415139"/>
    <nd ref="333415141"/>
    <nd ref="333415143"/>
    <nd ref="333415145"/>
    <nd ref="333415146"/>
    <nd ref="333415147"/>
    <nd ref="333415148"/>
    <nd ref="333415152"/>
    <nd ref="253786065"/>
    <tag k="addr:postcode" v="6071"/>
    <tag k="at:maxspeed" v="Ortsgebiet"/>
    <tag k="fixme" v="check import"/>
    <tag k="highway" v="residential"/>
    <tag k="is_in" v="...,Bezirk Innsbruck,Tirol,Österreich,Europa"/>
    <tag k="name" v="Aldrans"/>
    <tag k="note" v="imported from plan.at; (C)=CC-by-sa or oDBL; feel free to change if necessary"/>
    <tag k="plan_at:acad_id" v="i91EE7"/>
    <tag k="uploaded_by" v="Wolfgang W. Wasserburger"/>
  </way>
  <way id="30322444" version="3" timestamp="2009-11-19T04:31:45Z" uid="45481" user="borisC" changeset="3156847">
    <nd ref="333415139"/>
    <nd ref="333415143"/>
    <nd ref="333415145"/>
    <nd ref="333415146"/>
    <nd ref="333415148"/>
    <nd ref="333415152"/>
    <nd ref="253786065"/>
    <tag k="highway" v="track"/>
  </way>
  <way id="30322444" version="4" timestamp="2011-06-10T11:58:20Z" uid="45481" user="borisC" changeset="8396548">
    <nd ref="1318768152"/>
    <nd ref="333415145"/>
    <nd ref="333415146"/>
    <nd ref="333415148"/>
    <nd ref="333415152"/>
    <nd ref="1318768080"/>
    <nd ref="253786065"/>
    <tag k="highway" v="track"/>
  </way>
  <way id="30322618" version="1" timestamp="2009-01-20T20:05:45Z" uid="20587" user="balrog-kun" changeset="817713">
    <nd ref="334335576"/>
    <nd ref="334335581"/>
    <nd ref="334335588"/>
    <nd ref="334335585"/>
    <nd ref="334335681"/>
    <nd ref="334335669"/>
    <nd ref="334335674"/>
    <nd ref="334335678"/>
    <nd ref="334335591"/>
    <nd ref="334335576"/>
    <tag k="addr:housenumber" v="120"/>
    <tag k="addr:street" v="Grójecka"/>
    <tag k="building" v="yes"/>
    <tag k="source:addr" v="msi"/>
  </way>
  <way id="30322619" version="1" timestamp="2009-01-20T20:05:45Z" uid="20587" user="balrog-kun" changeset="817713">
    <nd ref="334335765"/>
    <nd ref="334335773"/>
    <nd ref="334335777"/>
    <nd ref="334335770"/>
    <nd ref="334335765"/>
    <tag k="leisure" v="pitch"/>
  </way>
  <way id="30322620" version="1" timestamp="2009-01-20T20:05:46Z" uid="20587" user="balrog-kun" changeset="817713">
    <nd ref="334335779"/>
    <nd ref="334335783"/>
    <nd ref="334335790"/>
    <nd ref="334335786"/>
    <nd ref="334335779"/>
    <tag k="addr:housenumber" v="6a"/>
    <tag k="addr:street" v="Stefana Skarżyńskiego"/>
    <tag k="building" v="yes"/>
    <tag k="sport" v="tennis"/>
  </way>
  <way id="30322620" version="2" timestamp="2011-12-03T09:14:20Z" uid="441027" user="muzzy" changeset="10022896">
    <nd ref="334335779"/>
    <nd ref="334335783"/>
    <nd ref="334335790"/>
    <nd ref="334335786"/>
    <nd ref="334335779"/>
    <tag k="addr:housenumber" v="6a"/>
    <tag k="addr:street" v="Stanisława Skarżyńskiego"/>
    <tag k="building" v="yes"/>
    <tag k="sport" v="tennis"/>
  </way>
  <way id="30322621" version="1" timestamp="2009-01-20T20:05:46Z" uid="20587" user="balrog-kun" changeset="817713">
    <nd ref="334335823"/>
    <nd ref="334335827"/>
    <nd ref="334335804"/>
    <nd ref="334335808"/>
    <nd ref="334335812"/>
    <nd ref="334335815"/>
    <nd ref="334335819"/>
    <nd ref="334335845"/>
    <nd ref="334335801"/>
    <nd ref="334335797"/>
    <nd ref="334335830"/>
    <nd ref="334335833"/>
    <nd ref="334335823"/>
    <tag k="addr:housenumber" v="8"/>
    <tag k="addr:street" v="Stefana Skarżyńskiego"/>
    <tag k="building" v="yes"/>
    <tag k="source:addr" v="msi"/>
  </way>
  <way id="30322621" version="2" timestamp="2011-12-03T09:14:22Z" uid="441027" user="muzzy" changeset="10022896">
    <nd ref="334335823"/>
    <nd ref="334335827"/>
    <nd ref="334335804"/>
    <nd ref="334335808"/>
    <nd ref="334335812"/>
    <nd ref="334335815"/>
    <nd ref="334335819"/>
    <nd ref="334335845"/>
    <nd ref="334335801"/>
    <nd ref="334335797"/>
    <nd ref="334335830"/>
    <nd ref="334335833"/>
    <nd ref="334335823"/>
    <tag k="addr:housenumber" v="8"/>
    <tag k="addr:street" v="Stanisława Skarżyńskiego"/>
    <tag k="building" v="yes"/>
    <tag k="source:addr" v="msi"/>
  </way>
  <way id="30322622" version="1" timestamp="2009-01-20T20:05:47Z" uid="20587" user="balrog-kun" changeset="817713">
    <nd ref="334335801"/>
    <nd ref="334335845"/>
    <nd ref="334335837"/>
    <nd ref="334335841"/>
    <nd ref="334335830"/>
    <nd ref="334335797"/>
    <nd ref="334335801"/>
    <tag k="leisure" v="pitch"/>
  </way>
  <way id="30322623" version="1" timestamp="2009-01-20T20:05:47Z" uid="20587" user="balrog-kun" changeset="817713">
    <nd ref="334335848"/>
    <nd ref="334335852"/>
    <nd ref="334335856"/>
    <nd ref="334335860"/>
    <nd ref="334335848"/>
    <tag k="amenity" v="school"/>
  </way>
  <way id="30322624" version="1" timestamp="2009-01-20T20:05:48Z" uid="20587" user="balrog-kun" changeset="817713">
    <nd ref="334335863"/>
    <nd ref="334335866"/>
    <nd ref="334335872"/>
    <nd ref="334335870"/>
    <nd ref="334335863"/>
    <tag k="addr:housenumber" v="10"/>
    <tag k="addr:street" v="Stefana Skarżyńskiego"/>
    <tag k="building" v="yes"/>
    <tag k="source:addr" v="msi"/>
  </way>
  <way id="30322624" version="2" timestamp="2011-12-03T09:14:07Z" uid="441027" user="muzzy" changeset="10022896">
    <nd ref="334335863"/>
    <nd ref="334335866"/>
    <nd ref="334335872"/>
    <nd ref="334335870"/>
    <nd ref="334335863"/>
    <tag k="addr:housenumber" v="10"/>
    <tag k="addr:street" v="Stanisława Skarżyńskiego"/>
    <tag k="building" v="yes"/>
    <tag k="source:addr" v="msi"/>
  </way>
  <way id="30322625" version="1" timestamp="2009-01-20T20:05:48Z" uid="20587" user="balrog-kun" changeset="817713">
    <nd ref="334335884"/>
    <nd ref="334335887"/>
    <nd ref="334335880"/>
    <nd ref="334335876"/>
    <nd ref="334335884"/>
    <tag k="addr:housenumber" v="9"/>
    <tag k="addr:street" v="Stefana Bobrowskiego"/>
    <tag k="building" v="yes"/>
    <tag k="source:addr" v="msi"/>
  </way>
  <way id="30322626" version="1" timestamp="2009-01-20T20:05:49Z" uid="20587" user="balrog-kun" changeset="817713">
    <nd ref="334335892"/>
    <nd ref="334335898"/>
    <nd ref="334335901"/>
    <nd ref="334335895"/>
    <nd ref="334335892"/>
    <tag k="addr:housenumber" v="18"/>
    <tag k="addr:street" v="Karola Dickensa"/>
    <tag k="building" v="yes"/>
    <tag k="source:addr" v="msi"/>
  </way>
  <way id="30322627" version="1" timestamp="2009-01-20T20:05:51Z" uid="20587" user="balrog-kun" changeset="817713">
    <nd ref="334335913"/>
    <nd ref="334335909"/>
    <nd ref="334335917"/>
    <nd ref="334335906"/>
    <nd ref="334335913"/>
    <tag k="addr:housenumber" v="20"/>
    <tag k="addr:street" v="Karola Dickensa"/>
    <tag k="building" v="yes"/>
    <tag k="source:addr" v="msi"/>
  </way>
  <way id="30322628" version="1" timestamp="2009-01-20T20:05:53Z" uid="20587" user="balrog-kun" changeset="817713">
    <nd ref="334335931"/>
    <nd ref="334335929"/>
    <nd ref="334335924"/>
    <nd ref="334335920"/>
    <nd ref="334335931"/>
    <tag k="addr:housenumber" v="22"/>
    <tag k="addr:street" v="Karola Dickensa"/>
    <tag k="building" v="yes"/>
    <tag k="source:addr" v="msi"/>
  </way>
  <way id="30322629" version="1" timestamp="2009-01-20T20:05:53Z" uid="20587" user="balrog-kun" changeset="817713">
    <nd ref="334335935"/>
    <nd ref="334335945"/>
    <nd ref="334335942"/>
    <nd ref="334335939"/>
    <nd ref="334335935"/>
    <tag k="addr:housenumber" v="24"/>
    <tag k="addr:street" v="Karola Dickensa"/>
    <tag k="building" v="yes"/>
    <tag k="source:addr" v="msi"/>
  </way>
  <way id="30322630" version="1" timestamp="2009-01-20T20:05:53Z" uid="20587" user="balrog-kun" changeset="817713">
    <nd ref="334335723"/>
    <nd ref="334335720"/>
    <nd ref="334335726"/>
    <nd ref="334335734"/>
    <nd ref="334335723"/>
    <tag k="addr:housenumber" v="7"/>
    <tag k="addr:street" v="Stefana Skarżyńskiego"/>
    <tag k="building" v="yes"/>
    <tag k="source:addr" v="msi"/>
  </way>
  <way id="30322630" version="2" timestamp="2011-12-03T09:14:21Z" uid="441027" user="muzzy" changeset="10022896">
    <nd ref="334335723"/>
    <nd ref="334335720"/>
    <nd ref="334335726"/>
    <nd ref="334335734"/>
    <nd ref="334335723"/>
    <tag k="addr:housenumber" v="7"/>
    <tag k="addr:street" v="Stanisława Skarżyńskiego"/>
    <tag k="building" v="yes"/>
    <tag k="source:addr" v="msi"/>
  </way>
  <way id="30322631" version="1" timestamp="2009-01-20T20:05:54Z" uid="20587" user="balrog-kun" changeset="817713">
    <nd ref="334335623"/>
    <nd ref="334335616"/>
    <nd ref="334335612"/>
    <nd ref="334335620"/>
    <nd ref="334335623"/>
    <tag k="addr:housenumber" v="116"/>
    <tag k="addr:street" v="Grójecka"/>
    <tag k="building" v="yes"/>
    <tag k="source:addr" v="msi"/>
  </way>
  <way id="30322632" version="1" timestamp="2009-01-20T20:05:55Z" uid="20587" user="balrog-kun" changeset="817713">
    <nd ref="334335639"/>
    <nd ref="334335632"/>
    <nd ref="334335628"/>
    <nd ref="334335634"/>
    <nd ref="334335639"/>
    <tag k="addr:housenumber" v="114"/>
    <tag k="addr:street" v="Grójecka"/>
    <tag k="building" v="yes"/>
    <tag k="source:addr" v="msi"/>
  </way>
  <way id="30322634" version="1" timestamp="2009-01-20T20:05:55Z" uid="20587" user="balrog-kun" changeset="817713">
    <nd ref="334335955"/>
    <nd ref="334335952"/>
    <nd ref="334335647"/>
    <nd ref="334335643"/>
    <nd ref="334335955"/>
    <tag k="addr:housenumber" v="112"/>
    <tag k="addr:street" v="Grójecka"/>
    <tag k="building" v="yes"/>
    <tag k="source:addr" v="msi"/>
  </way>
  <way id="30322636" version="1" timestamp="2009-01-20T20:05:56Z" uid="20587" user="balrog-kun" changeset="817713">
    <nd ref="334335745"/>
    <nd ref="334335738"/>
    <nd ref="334335747"/>
    <nd ref="334335751"/>
    <nd ref="334335745"/>
    <tag k="addr:housenumber" v="1"/>
    <tag k="addr:street" v="Stefana Skarżyńskiego"/>
    <tag k="building" v="yes"/>
    <tag k="source:addr" v="msi"/>
  </way>
  <way id="30322636" version="2" timestamp="2011-12-03T09:14:07Z" uid="441027" user="muzzy" changeset="10022896">
    <nd ref="334335745"/>
    <nd ref="334335738"/>
    <nd ref="334335747"/>
    <nd ref="334335751"/>
    <nd ref="334335745"/>
    <tag k="addr:housenumber" v="1"/>
    <tag k="addr:street" v="Stanisława Skarżyńskiego"/>
    <tag k="building" v="yes"/>
    <tag k="source:addr" v="msi"/>
  </way>
  <way id="30322637" version="1" timestamp="2009-01-20T20:05:58Z" uid="20587" user="balrog-kun" changeset="817713">
    <nd ref="334335707"/>
    <nd ref="334335713"/>
    <nd ref="334335716"/>
    <nd ref="334335709"/>
    <nd ref="334335707"/>
    <tag k="addr:housenumber" v="9"/>
    <tag k="addr:street" v="Stefana Skarżyńskiego"/>
    <tag k="building" v="yes"/>
    <tag k="source:addr" v="msi"/>
  </way>
  <way id="30322637" version="2" timestamp="2011-12-03T09:14:22Z" uid="441027" user="muzzy" changeset="10022896">
    <nd ref="334335707"/>
    <nd ref="334335713"/>
    <nd ref="334335716"/>
    <nd ref="334335709"/>
    <nd ref="334335707"/>
    <tag k="addr:housenumber" v="9"/>
    <tag k="addr:street" v="Stanisława Skarżyńskiego"/>
    <tag k="building" v="yes"/>
    <tag k="source:addr" v="msi"/>
  </way>
  <way id="30322639" version="1" timestamp="2009-01-20T20:05:58Z" uid="20587" user="balrog-kun" changeset="817713">
    <nd ref="334335685"/>
    <nd ref="334335700"/>
    <nd ref="334335703"/>
    <nd ref="334335693"/>
    <nd ref="334335685"/>
    <tag k="addr:housenumber" v="11"/>
    <tag k="addr:street" v="Stefana Skarżyńskiego"/>
    <tag k="building" v="yes"/>
    <tag k="source:addr" v="msi"/>
  </way>
  <way id="30322639" version="2" timestamp="2011-12-03T09:14:07Z" uid="441027" user="muzzy" changeset="10022896">
    <nd ref="334335685"/>
    <nd ref="334335700"/>
    <nd ref="334335703"/>
    <nd ref="334335693"/>
    <nd ref="334335685"/>
    <tag k="addr:housenumber" v="11"/>
    <tag k="addr:street" v="Stanisława Skarżyńskiego"/>
    <tag k="building" v="yes"/>
    <tag k="source:addr" v="msi"/>
  </way>
  <way id="30322641" version="1" timestamp="2009-01-20T20:05:59Z" uid="20587" user="balrog-kun" changeset="817713">
    <nd ref="334335988"/>
    <nd ref="334335959"/>
    <nd ref="334335962"/>
    <nd ref="334335964"/>
    <nd ref="334335650"/>
    <nd ref="334335958"/>
    <nd ref="334335973"/>
    <nd ref="334335988"/>
    <tag k="addr:housenumber" v="110"/>
    <tag k="addr:street" v="Grójecka"/>
    <tag k="building" v="yes"/>
    <tag k="source:addr" v="msi"/>
  </way>
  <way id="30322643" version="1" timestamp="2009-01-20T20:06:00Z" uid="20587" user="balrog-kun" changeset="817713">
    <nd ref="334335988"/>
    <nd ref="334335973"/>
    <nd ref="334335968"/>
    <nd ref="334335985"/>
    <nd ref="334335979"/>
    <nd ref="334335975"/>
    <nd ref="334335988"/>
    <tag k="addr:housenumber" v="108"/>
    <tag k="addr:street" v="Grójecka"/>
    <tag k="building" v="yes"/>
    <tag k="source:addr" v="msi"/>
  </way>
  <way id="30322644" version="1" timestamp="2009-01-20T20:06:01Z" uid="20587" user="balrog-kun" changeset="817713">
    <nd ref="334335991"/>
    <nd ref="334335993"/>
    <nd ref="334336001"/>
    <nd ref="334335996"/>
    <nd ref="334335991"/>
    <tag k="addr:housenumber" v="5"/>
    <tag k="addr:street" v="Stefana Skarżyńskiego"/>
    <tag k="building" v="yes"/>
    <tag k="shop" v="supermarket"/>
  </way>
  <way id="30322644" version="2" timestamp="2011-06-20T07:10:37Z" uid="365856" user="mludkiewicz" changeset="8491530">
    <nd ref="334335991"/>
    <nd ref="334335993"/>
    <nd ref="334336001"/>
    <nd ref="334335996"/>
    <nd ref="334335991"/>
    <tag k="addr:housenumber" v="5"/>
    <tag k="addr:street" v="Stefana Skarżyńskiego"/>
    <tag k="amenity" v="library"/>
    <tag k="building" v="yes"/>
    <tag k="name" v="Biblioteka dla Dzieci i Młodzieży Nr 68"/>
    <tag k="source" v="http://www.bpochota.waw.pl/index.php?option=com_content&amp;view=category&amp;layout=blog&amp;id=9&amp;Itemid=8"/>
  </way>
  <way id="30322644" version="3" timestamp="2011-12-03T09:14:05Z" uid="441027" user="muzzy" changeset="10022896">
    <nd ref="334335991"/>
    <nd ref="334335993"/>
    <nd ref="334336001"/>
    <nd ref="334335996"/>
    <nd ref="334335991"/>
    <tag k="addr:housenumber" v="5"/>
    <tag k="addr:street" v="Stanisława Skarżyńskiego"/>
    <tag k="amenity" v="library"/>
    <tag k="building" v="yes"/>
    <tag k="name" v="Biblioteka dla Dzieci i Młodzieży Nr 68"/>
    <tag k="source" v="http://www.bpochota.waw.pl/index.php?option=com_content&amp;view=category&amp;layout=blog&amp;id=9&amp;Itemid=8"/>
  </way>
  <way id="30322645" version="1" timestamp="2009-01-20T20:06:01Z" uid="20587" user="balrog-kun" changeset="817713">
    <nd ref="334336073"/>
    <nd ref="334336076"/>
    <tag k="highway" v="service"/>
  </way>
  <way id="30322647" version="1" timestamp="2009-01-20T20:06:02Z" uid="20587" user="balrog-kun" changeset="817713">
    <nd ref="334336082"/>
    <nd ref="334336087"/>
    <nd ref="334336095"/>
    <nd ref="334336091"/>
    <nd ref="334336082"/>
    <tag k="leisure" v="pitch"/>
  </way>
  <way id="30322649" version="1" timestamp="2009-01-20T20:06:03Z" uid="20587" user="balrog-kun" changeset="817713">
    <nd ref="334336091"/>
    <nd ref="334336098"/>
    <nd ref="334336106"/>
    <nd ref="334336111"/>
    <nd ref="334336116"/>
    <nd ref="334336139"/>
    <nd ref="334336144"/>
    <nd ref="334336127"/>
    <nd ref="334336132"/>
    <nd ref="334336151"/>
    <nd ref="334336157"/>
    <nd ref="334336162"/>
    <nd ref="334336166"/>
    <nd ref="334336170"/>
    <nd ref="334336174"/>
    <nd ref="334336154"/>
    <nd ref="334336148"/>
    <nd ref="334336122"/>
    <nd ref="334336102"/>
    <nd ref="334336082"/>
    <nd ref="334336091"/>
    <tag k="addr:housenumber" v="6"/>
    <tag k="addr:street" v="Józefa Jana Siemieńskiego"/>
    <tag k="building" v="yes"/>
  </way>
  <way id="30322650" version="1" timestamp="2009-01-20T20:06:04Z" uid="20587" user="balrog-kun" changeset="817713">
    <nd ref="334336177"/>
    <nd ref="334336186"/>
    <nd ref="334336189"/>
    <nd ref="334336183"/>
    <nd ref="334336177"/>
    <tag k="amenity" v="school"/>
  </way>
  <way id="30322652" version="1" timestamp="2009-01-20T20:06:05Z" uid="20587" user="balrog-kun" changeset="817713">
    <nd ref="334336209"/>
    <nd ref="334336201"/>
    <nd ref="334336210"/>
    <nd ref="334336205"/>
    <nd ref="334336209"/>
    <tag k="addr:housenumber" v="9"/>
    <tag k="addr:street" v="Opaczewska"/>
    <tag k="building" v="yes"/>
    <tag k="source:addr" v="msi"/>
  </way>
  <way id="30322653" version="1" timestamp="2009-01-20T20:06:05Z" uid="20587" user="balrog-kun" changeset="817713">
    <nd ref="334336222"/>
    <nd ref="334336231"/>
    <nd ref="334336226"/>
    <nd ref="334336214"/>
    <nd ref="334336222"/>
    <tag k="addr:housenumber" v="7"/>
    <tag k="addr:street" v="Opaczewska"/>
    <tag k="building" v="yes"/>
    <tag k="source:addr" v="msi"/>
  </way>
  <way id="30322655" version="1" timestamp="2009-01-20T20:06:06Z" uid="20587" user="balrog-kun" changeset="817713">
    <nd ref="334336234"/>
    <nd ref="334336239"/>
    <nd ref="334336242"/>
    <nd ref="334336236"/>
    <nd ref="334336234"/>
    <tag k="addr:housenumber" v="11"/>
    <tag k="addr:street" v="Opaczewska"/>
    <tag k="building" v="yes"/>
    <tag k="source:addr" v="msi"/>
  </way>
  <way id="30322656" version="1" timestamp="2009-01-20T20:06:07Z" uid="20587" user="balrog-kun" changeset="817713">
    <nd ref="334336252"/>
    <nd ref="334336244"/>
    <nd ref="334336255"/>
    <nd ref="334336251"/>
    <nd ref="334336252"/>
    <tag k="addr:housenumber" v="13"/>
    <tag k="addr:street" v="Opaczewska"/>
    <tag k="building" v="yes"/>
    <tag k="source:addr" v="msi"/>
  </way>
  <way id="30322657" version="1" timestamp="2009-01-20T20:06:08Z" uid="20587" user="balrog-kun" changeset="817713">
    <nd ref="334336261"/>
    <nd ref="334336263"/>
    <nd ref="334336272"/>
    <nd ref="334336268"/>
    <nd ref="334336261"/>
    <tag k="addr:housenumber" v="3"/>
    <tag k="addr:street" v="Stefana Bobrowskiego"/>
    <tag k="building" v="yes"/>
    <tag k="source:addr" v="msi"/>
  </way>
  <way id="30322658" version="1" timestamp="2009-01-20T20:06:08Z" uid="20587" user="balrog-kun" changeset="817713">
    <nd ref="334336278"/>
    <nd ref="334336287"/>
    <nd ref="334336281"/>
    <nd ref="334336285"/>
    <nd ref="334336278"/>
    <tag k="addr:housenumber" v="4"/>
    <tag k="addr:street" v="Stefana Skarżyńskiego"/>
    <tag k="building" v="yes"/>
    <tag k="source:addr" v="msi"/>
  </way>
  <way id="30322658" version="2" timestamp="2011-12-03T09:14:19Z" uid="441027" user="muzzy" changeset="10022896">
    <nd ref="334336278"/>
    <nd ref="334336287"/>
    <nd ref="334336281"/>
    <nd ref="334336285"/>
    <nd ref="334336278"/>
    <tag k="addr:housenumber" v="4"/>
    <tag k="addr:street" v="Stanisława Skarżyńskiego"/>
    <tag k="building" v="yes"/>
    <tag k="source:addr" v="msi"/>
  </way>
  <way id="30322659" version="1" timestamp="2009-01-20T20:06:08Z" uid="20587" user="balrog-kun" changeset="817713">
    <nd ref="334336330"/>
    <nd ref="334336293"/>
    <nd ref="334336299"/>
    <nd ref="334336332"/>
    <nd ref="334336337"/>
    <nd ref="334336338"/>
    <nd ref="334336331"/>
    <nd ref="334336296"/>
    <nd ref="334336290"/>
    <nd ref="334336327"/>
    <nd ref="334336333"/>
    <nd ref="334336335"/>
    <nd ref="334336330"/>
    <tag k="addr:housenumber" v="6"/>
    <tag k="addr:street" v="Stefana Skarżyńskiego"/>
    <tag k="building" v="yes"/>
    <tag k="source:addr" v="msi"/>
  </way>
  <way id="30322659" version="2" timestamp="2011-12-03T09:14:20Z" uid="441027" user="muzzy" changeset="10022896">
    <nd ref="334336330"/>
    <nd ref="334336293"/>
    <nd ref="334336299"/>
    <nd ref="334336332"/>
    <nd ref="334336337"/>
    <nd ref="334336338"/>
    <nd ref="334336331"/>
    <nd ref="334336296"/>
    <nd ref="334336290"/>
    <nd ref="334336327"/>
    <nd ref="334336333"/>
    <nd ref="334336335"/>
    <nd ref="334336330"/>
    <tag k="addr:housenumber" v="6"/>
    <tag k="addr:street" v="Stanisława Skarżyńskiego"/>
    <tag k="building" v="yes"/>
    <tag k="source:addr" v="msi"/>
  </way>
  <way id="30322660" version="1" timestamp="2009-01-20T20:06:09Z" uid="20587" user="balrog-kun" changeset="817713">
    <nd ref="334336303"/>
    <nd ref="334336306"/>
    <nd ref="334336311"/>
    <nd ref="334336313"/>
    <nd ref="334336318"/>
    <nd ref="334336322"/>
    <nd ref="334336309"/>
    <nd ref="334336303"/>
    <tag k="addr:housenumber" v="5"/>
    <tag k="addr:street" v="Stefana Bobrowskiego"/>
    <tag k="building" v="yes"/>
    <tag k="source:addr" v="msi"/>
  </way>
  <way id="30322662" version="1" timestamp="2009-01-20T20:06:09Z" uid="20587" user="balrog-kun" changeset="817713">
    <nd ref="334336351"/>
    <nd ref="334336349"/>
    <nd ref="334336347"/>
    <nd ref="334336345"/>
    <nd ref="334336351"/>
    <tag k="addr:housenumber" v="16"/>
    <tag k="addr:street" v="Stefana Bobrowskiego"/>
    <tag k="building" v="yes"/>
    <tag k="source:addr" v="msi"/>
  </way>
  <way id="30322664" version="1" timestamp="2009-01-20T20:06:10Z" uid="20587" user="balrog-kun" changeset="817713">
    <nd ref="334336460"/>
    <nd ref="334336467"/>
    <nd ref="334336471"/>
    <nd ref="334336465"/>
    <nd ref="334336460"/>
    <tag k="addr:housenumber" v="fixme"/>
    <tag k="addr:street" v="fixme"/>
    <tag k="building" v="yes"/>
    <tag k="source:addr" v="msi"/>
  </way>
  <way id="30322664" version="2" timestamp="2009-01-20T20:33:44Z" uid="20587" user="balrog-kun" changeset="817713">
    <nd ref="334336460"/>
    <nd ref="334336467"/>
    <nd ref="334336471"/>
    <nd ref="334336465"/>
    <nd ref="334336460"/>
    <tag k="addr:housenumber" v="12"/>
    <tag k="addr:street" v="Białobrzeska"/>
    <tag k="building" v="yes"/>
    <tag k="source:addr" v="msi"/>
  </way>
  <way id="30322665" version="1" timestamp="2009-01-20T20:06:10Z" uid="20587" user="balrog-kun" changeset="817713">
    <nd ref="334336473"/>
    <nd ref="334336481"/>
    <nd ref="334336343"/>
    <nd ref="334336340"/>
    <nd ref="334336486"/>
    <nd ref="334336491"/>
    <nd ref="334336477"/>
    <nd ref="334336473"/>
    <tag k="addr:housenumber" v="15"/>
    <tag k="addr:street" v="Opaczewska"/>
    <tag k="building" v="yes"/>
    <tag k="source:addr" v="msi"/>
  </way>
  <way id="30322666" version="1" timestamp="2009-01-20T20:06:11Z" uid="20587" user="balrog-kun" changeset="817713">
    <nd ref="334336446"/>
    <nd ref="334336442"/>
    <nd ref="334336449"/>
    <nd ref="334336455"/>
    <nd ref="334336446"/>
    <tag k="addr:housenumber" v="10"/>
    <tag k="addr:street" v="Białobrzeska"/>
    <tag k="building" v="yes"/>
    <tag k="source:addr" v="msi"/>
  </way>
  <way id="30322667" version="1" timestamp="2009-01-20T20:06:11Z" uid="20587" user="balrog-kun" changeset="817713">
    <nd ref="334336429"/>
    <nd ref="334336425"/>
    <nd ref="334336434"/>
    <nd ref="334336438"/>
    <nd ref="334336429"/>
    <tag k="addr:housenumber" v="8"/>
    <tag k="addr:street" v="Białobrzeska"/>
    <tag k="building" v="yes"/>
    <tag k="source:addr" v="msi"/>
  </way>
  <way id="30322668" version="1" timestamp="2009-01-20T20:06:12Z" uid="20587" user="balrog-kun" changeset="817713">
    <nd ref="334336494"/>
    <nd ref="334336504"/>
    <nd ref="334336510"/>
    <nd ref="334336499"/>
    <nd ref="334336494"/>
    <tag k="addr:housenumber" v="8/10"/>
    <tag k="building" v="yes"/>
    <tag k="source:addr" v="msi"/>
  </way>
  <way id="30322670" version="1" timestamp="2009-01-20T20:06:13Z" uid="20587" user="balrog-kun" changeset="817713">
    <nd ref="334336362"/>
    <nd ref="334336367"/>
    <nd ref="334336370"/>
    <nd ref="334336364"/>
    <nd ref="334336362"/>
    <tag k="addr:housenumber" v="6a"/>
    <tag k="addr:street" v="Białobrzeska"/>
    <tag k="building" v="yes"/>
    <tag k="source:addr" v="msi"/>
  </way>
  <way id="30322671" version="1" timestamp="2009-01-20T20:06:13Z" uid="20587" user="balrog-kun" changeset="817713">
    <nd ref="334336517"/>
    <nd ref="334336529"/>
    <nd ref="334336535"/>
    <nd ref="334336523"/>
    <nd ref="334336517"/>
    <tag k="addr:housenumber" v="6"/>
    <tag k="addr:street" v="Białobrzeska"/>
    <tag k="building" v="yes"/>
    <tag k="source:addr" v="msi"/>
  </way>
  <way id="30322672" version="1" timestamp="2009-01-20T20:06:13Z" uid="20587" user="balrog-kun" changeset="817713">
    <nd ref="334336360"/>
    <nd ref="334336356"/>
    <nd ref="334336354"/>
    <nd ref="334336358"/>
    <nd ref="334336360"/>
    <tag k="addr:housenumber" v="2"/>
    <tag k="addr:street" v="Białobrzeska"/>
    <tag k="building" v="yes"/>
    <tag k="source:addr" v="msi"/>
  </way>
  <way id="30322673" version="1" timestamp="2009-01-20T20:06:13Z" uid="20587" user="balrog-kun" changeset="817713">
    <nd ref="334336381"/>
    <nd ref="334336376"/>
    <nd ref="334336373"/>
    <nd ref="334336378"/>
    <nd ref="334336381"/>
    <tag k="addr:housenumber" v="10"/>
    <tag k="addr:street" v="Stefana Bobrowskiego"/>
    <tag k="building" v="yes"/>
    <tag k="source:addr" v="msi"/>
  </way>
  <way id="30322674" version="1" timestamp="2009-01-20T20:06:14Z" uid="20587" user="balrog-kun" changeset="817713">
    <nd ref="334336569"/>
    <nd ref="334336563"/>
    <nd ref="334336555"/>
    <nd ref="334336541"/>
    <nd ref="334336548"/>
    <nd ref="334336569"/>
    <tag k="addr:housenumber" v="4"/>
    <tag k="addr:street" v="Białobrzeska"/>
    <tag k="building" v="yes"/>
    <tag k="source:addr" v="msi"/>
  </way>
  <way id="30322676" version="1" timestamp="2009-01-20T20:06:14Z" uid="20587" user="balrog-kun" changeset="817713">
    <nd ref="334336401"/>
    <nd ref="334336391"/>
    <nd ref="334336386"/>
    <nd ref="334336397"/>
    <nd ref="334336401"/>
    <tag k="addr:housenumber" v="8"/>
    <tag k="addr:street" v="Stefana Bobrowskiego"/>
    <tag k="building" v="yes"/>
    <tag k="source:addr" v="msi"/>
  </way>
  <way id="30322677" version="1" timestamp="2009-01-20T20:06:14Z" uid="20587" user="balrog-kun" changeset="817713">
    <nd ref="334336406"/>
    <nd ref="334336417"/>
    <nd ref="334336420"/>
    <nd ref="334336412"/>
    <nd ref="334336406"/>
    <tag k="addr:housenumber" v="4"/>
    <tag k="addr:street" v="Stefana Bobrowskiego"/>
    <tag k="building" v="yes"/>
    <tag k="source:addr" v="msi"/>
  </way>
  <way id="30322678" version="1" timestamp="2009-01-20T20:06:15Z" uid="20587" user="balrog-kun" changeset="817713">
    <nd ref="334336584"/>
    <nd ref="334336576"/>
    <nd ref="334336595"/>
    <nd ref="334336604"/>
    <nd ref="334336584"/>
    <tag k="addr:housenumber" v="4a"/>
    <tag k="addr:street" v="Białobrzeska"/>
    <tag k="building" v="yes"/>
    <tag k="source:addr" v="msi"/>
  </way>
  <way id="30322679" version="1" timestamp="2009-01-20T20:06:15Z" uid="20587" user="balrog-kun" changeset="817713">
    <nd ref="334336613"/>
    <nd ref="334336622"/>
    <nd ref="334336639"/>
    <nd ref="334336632"/>
    <nd ref="334336613"/>
    <tag k="leisure" v="pitch"/>
  </way>
  <way id="30322679" version="2" timestamp="2012-01-26T11:04:09Z" uid="99386" user="masti" changeset="10501981"/>
  <way id="30322681" version="1" timestamp="2009-01-20T20:06:15Z" uid="20587" user="balrog-kun" changeset="817713">
    <nd ref="334335667"/>
    <nd ref="334335757"/>
    <nd ref="334335761"/>
    <nd ref="334335755"/>
    <nd ref="334335667"/>
    <tag k="addr:housenumber" v="3"/>
    <tag k="addr:street" v="Opaczewska"/>
    <tag k="building" v="yes"/>
    <tag k="source:addr" v="msi"/>
  </way>
  <way id="30322682" version="1" timestamp="2009-01-20T20:06:15Z" uid="20587" user="balrog-kun" changeset="817713">
    <nd ref="334335667"/>
    <nd ref="334335755"/>
    <nd ref="334335657"/>
    <nd ref="334335654"/>
    <nd ref="334335662"/>
    <nd ref="334335667"/>
    <tag k="addr:housenumber" v="106"/>
    <tag k="addr:street" v="Grójecka"/>
    <tag k="building" v="yes"/>
    <tag k="source:addr" v="msi"/>
  </way>
  <way id="30322683" version="1" timestamp="2009-01-20T20:06:16Z" uid="20587" user="balrog-kun" changeset="817713">
    <nd ref="334336754"/>
    <nd ref="334336746"/>
    <nd ref="334336745"/>
    <nd ref="334336751"/>
    <nd ref="334336754"/>
    <tag k="addr:housenumber" v="19"/>
    <tag k="addr:street" v="Karola Dickensa"/>
    <tag k="building" v="yes"/>
    <tag k="source:addr" v="msi"/>
  </way>
  <way id="30322684" version="1" timestamp="2009-01-20T20:06:16Z" uid="20587" user="balrog-kun" changeset="817713">
    <nd ref="334336755"/>
    <nd ref="334336759"/>
    <nd ref="334336761"/>
    <nd ref="334336757"/>
    <nd ref="334336755"/>
    <tag k="addr:housenumber" v="21"/>
    <tag k="addr:street" v="Karola Dickensa"/>
    <tag k="building" v="yes"/>
    <tag k="source:addr" v="msi"/>
  </way>
  <way id="30322685" version="1" timestamp="2009-01-20T20:06:16Z" uid="20587" user="balrog-kun" changeset="817713">
    <nd ref="334336732"/>
    <nd ref="334336737"/>
    <nd ref="334336741"/>
    <nd ref="334336735"/>
    <nd ref="334336732"/>
    <tag k="addr:housenumber" v="17"/>
    <tag k="addr:street" v="Karola Dickensa"/>
    <tag k="building" v="yes"/>
    <tag k="source:addr" v="msi"/>
  </way>
  <way id="30322687" version="1" timestamp="2009-01-20T20:06:17Z" uid="20587" user="balrog-kun" changeset="817713">
    <nd ref="334336720"/>
    <nd ref="334336726"/>
    <nd ref="334336729"/>
    <nd ref="334336723"/>
    <nd ref="334336720"/>
    <tag k="addr:housenumber" v="15"/>
    <tag k="addr:street" v="Karola Dickensa"/>
    <tag k="building" v="yes"/>
    <tag k="source:addr" v="msi"/>
  </way>
  <way id="30322689" version="1" timestamp="2009-01-20T20:06:17Z" uid="20587" user="balrog-kun" changeset="817713">
    <nd ref="334336710"/>
    <nd ref="334336705"/>
    <nd ref="334336713"/>
    <nd ref="334336717"/>
    <nd ref="334336710"/>
    <tag k="addr:housenumber" v="12"/>
    <tag k="addr:street" v="Geodetów"/>
    <tag k="building" v="yes"/>
    <tag k="source:addr" v="msi"/>
  </way>
  <way id="30322689" version="2" timestamp="2010-12-04T04:20:07Z" uid="20587" user="balrog-kun" changeset="6534205">
    <nd ref="334336710"/>
    <nd ref="334336705"/>
    <nd ref="334336713"/>
    <nd ref="334336717"/>
    <nd ref="334336710"/>
    <tag k="addr:housenumber" v="12"/>
    <tag k="addr:street" v="Geodetów"/>
    <tag k="building" v="residential"/>
    <tag k="source:addr" v="msi"/>
  </way>
  <way id="30322690" version="1" timestamp="2009-01-20T20:06:18Z" uid="20587" user="balrog-kun" changeset="817713">
    <nd ref="334336763"/>
    <nd ref="334336766"/>
    <nd ref="334336770"/>
    <nd ref="334336765"/>
    <nd ref="334336763"/>
    <tag k="addr:street" v="15a"/>
    <tag k="building" v="yes"/>
    <tag k="source:addr" v="msi"/>
  </way>
  <way id="30322690" version="2" timestamp="2011-12-03T09:14:08Z" uid="441027" user="muzzy" changeset="10022896">
    <nd ref="334336763"/>
    <nd ref="334336766"/>
    <nd ref="334336770"/>
    <nd ref="334336765"/>
    <nd ref="334336763"/>
    <tag k="addr:housenumber" v="15a"/>
    <tag k="addr:street" v="Karola Dickensa"/>
    <tag k="building" v="yes"/>
    <tag k="source:addr" v="msi"/>
  </way>
  <way id="30322691" version="1" timestamp="2009-01-20T20:06:18Z" uid="20587" user="balrog-kun" changeset="817713">
    <nd ref="334336686"/>
    <nd ref="334336691"/>
    <nd ref="334336695"/>
    <nd ref="334336701"/>
    <nd ref="334336686"/>
    <tag k="addr:housenumber" v="124"/>
    <tag k="addr:street" v="Grójecka"/>
    <tag k="building" v="yes"/>
    <tag k="source:addr" v="msi"/>
  </way>
  <way id="30322691" version="2" timestamp="2010-12-04T04:20:10Z" uid="20587" user="balrog-kun" changeset="6534205">
    <nd ref="334336686"/>
    <nd ref="334336691"/>
    <nd ref="334336695"/>
    <nd ref="334336701"/>
    <nd ref="334336686"/>
    <tag k="addr:housenumber" v="124"/>
    <tag k="addr:street" v="Grójecka"/>
    <tag k="building" v="residential"/>
    <tag k="source:addr" v="msi"/>
  </way>
  <way id="30322692" version="1" timestamp="2009-01-20T20:06:18Z" uid="20587" user="balrog-kun" changeset="817713">
    <nd ref="334336772"/>
    <nd ref="334336776"/>
    <nd ref="334336779"/>
    <nd ref="334336773"/>
    <nd ref="334336772"/>
    <tag k="addr:housenumber" v="17a"/>
    <tag k="addr:street" v="Karola Dickensa"/>
    <tag k="building" v="yes"/>
    <tag k="source:addr" v="msi"/>
  </way>
  <way id="30322693" version="1" timestamp="2009-01-20T20:06:18Z" uid="20587" user="balrog-kun" changeset="817713">
    <nd ref="334335560"/>
    <nd ref="334335567"/>
    <nd ref="334335571"/>
    <nd ref="334335564"/>
    <nd ref="334335560"/>
    <tag k="addr:housenumber" v="122"/>
    <tag k="addr:street" v="Grójecka"/>
    <tag k="building" v="yes"/>
    <tag k="source:addr" v="msi"/>
  </way>
  <way id="30322695" version="1" timestamp="2009-01-20T20:06:19Z" uid="20587" user="balrog-kun" changeset="817713">
    <nd ref="334335555"/>
    <nd ref="334335544"/>
    <nd ref="334335550"/>
    <nd ref="334335560"/>
    <nd ref="334335564"/>
    <nd ref="334335555"/>
    <tag k="addr:housenumber" v="16"/>
    <tag k="addr:street" v="Karola Dickensa"/>
    <tag k="building" v="yes"/>
    <tag k="source:addr" v="msi"/>
  </way>
  <way id="30322696" version="1" timestamp="2009-01-20T20:06:19Z" uid="20587" user="balrog-kun" changeset="817713">
    <nd ref="334335696"/>
    <nd ref="334335689"/>
    <nd ref="334335599"/>
    <nd ref="334335595"/>
    <nd ref="334335603"/>
    <nd ref="334335607"/>
    <nd ref="334335685"/>
    <nd ref="334335693"/>
    <nd ref="334335696"/>
    <tag k="addr:housenumber" v="118"/>
    <tag k="addr:street" v="Grójecka"/>
    <tag k="building" v="yes"/>
    <tag k="source:addr" v="msi"/>
  </way>
  <way id="30322697" version="1" timestamp="2009-01-20T20:06:19Z" uid="20587" user="balrog-kun" changeset="817713">
    <nd ref="334336780"/>
    <nd ref="334336784"/>
    <nd ref="334336788"/>
    <nd ref="334336783"/>
    <nd ref="334336780"/>
    <tag k="addr:housenumber" v="26"/>
    <tag k="addr:street" v="Karola Dickensa"/>
    <tag k="building" v="yes"/>
    <tag k="source:addr" v="msi"/>
  </way>
  <way id="30322699" version="1" timestamp="2009-01-20T20:06:20Z" uid="20587" user="balrog-kun" changeset="817713">
    <nd ref="334336793"/>
    <nd ref="334336797"/>
    <nd ref="334336809"/>
    <nd ref="334336800"/>
    <nd ref="334336806"/>
    <nd ref="334336793"/>
    <tag k="leisure" v="common"/>
  </way>
  <way id="30322699" version="2" timestamp="2011-09-09T11:15:00Z" uid="477744" user="hormel" changeset="9253480"/>
  <way id="30322700" version="1" timestamp="2009-01-20T20:06:20Z" uid="20587" user="balrog-kun" changeset="817713">
    <nd ref="334336811"/>
    <nd ref="334336814"/>
    <nd ref="334336816"/>
    <nd ref="334336817"/>
    <nd ref="334336819"/>
    <nd ref="334336821"/>
    <nd ref="334336823"/>
    <nd ref="334336824"/>
    <nd ref="334336825"/>
    <nd ref="334336811"/>
    <tag k="leisure" v="common"/>
  </way>
  <way id="30322700" version="2" timestamp="2011-09-09T11:15:00Z" uid="477744" user="hormel" changeset="9253480"/>
  <way id="30322868" version="7" timestamp="2009-12-26T12:22:30Z" uid="58091" user="Andreas M" changeset="3454209">
    <nd ref="57452311"/>
    <nd ref="544241332"/>
    <nd ref="59988380"/>
    <tag k="highway" v="secondary"/>
    <tag k="lanes" v="3"/>
    <tag k="maxspeed" v="50"/>
    <tag k="name" v="Parkring"/>
    <tag k="oneway" v="yes"/>
    <tag k="wikipedia:de" v="Wiener Ringstraße"/>
  </way>
  <way id="30322868" version="8" timestamp="2010-09-23T15:53:54Z" uid="87164" user="lesewesen" changeset="5855088">
    <nd ref="57452311"/>
    <nd ref="544241332"/>
    <nd ref="59988380"/>
    <tag k="avenue" v="yes"/>
    <tag k="highway" v="secondary"/>
    <tag k="lanes" v="3"/>
    <tag k="maxspeed" v="50"/>
    <tag k="name" v="Parkring"/>
    <tag k="oneway" v="yes"/>
    <tag k="wikipedia:de" v="Wiener Ringstraße"/>
  </way>
  <way id="30322868" version="9" timestamp="2011-10-11T12:36:17Z" uid="8199" user="sleiting" changeset="9530322">
    <nd ref="57452311"/>
    <nd ref="544241332"/>
    <nd ref="1462300893"/>
    <nd ref="59988380"/>
    <tag k="avenue" v="yes"/>
    <tag k="highway" v="secondary"/>
    <tag k="lanes" v="3"/>
    <tag k="maxspeed" v="50"/>
    <tag k="name" v="Parkring"/>
    <tag k="oneway" v="yes"/>
    <tag k="wikipedia:de" v="Wiener Ringstraße"/>
  </way>
  <way id="30322934" version="4" timestamp="2009-12-26T12:22:30Z" uid="58091" user="Andreas M" changeset="3454209">
    <nd ref="59988380"/>
    <nd ref="60212006"/>
    <nd ref="296411071"/>
    <nd ref="94779759"/>
    <nd ref="544225151"/>
    <nd ref="685099"/>
    <nd ref="280220127"/>
    <nd ref="17312853"/>
    <tag k="highway" v="secondary"/>
    <tag k="lanes" v="3"/>
    <tag k="maxspeed" v="50"/>
    <tag k="name" v="Parkring"/>
    <tag k="oneway" v="yes"/>
    <tag k="wikipedia:de" v="Wiener Ringstraße"/>
  </way>
  <way id="30322934" version="5" timestamp="2010-09-23T15:53:53Z" uid="87164" user="lesewesen" changeset="5855088">
    <nd ref="59988380"/>
    <nd ref="60212006"/>
    <nd ref="296411071"/>
    <nd ref="94779759"/>
    <nd ref="544225151"/>
    <nd ref="685099"/>
    <nd ref="280220127"/>
    <nd ref="17312853"/>
    <tag k="avenue" v="yes"/>
    <tag k="highway" v="secondary"/>
    <tag k="lanes" v="3"/>
    <tag k="maxspeed" v="50"/>
    <tag k="name" v="Parkring"/>
    <tag k="oneway" v="yes"/>
    <tag k="wikipedia:de" v="Wiener Ringstraße"/>
  </way>
  <way id="30322934" version="6" timestamp="2011-10-11T12:36:16Z" uid="8199" user="sleiting" changeset="9530322">
    <nd ref="59988380"/>
    <nd ref="60212006"/>
    <nd ref="1462300871"/>
    <nd ref="296411071"/>
    <nd ref="94779759"/>
    <nd ref="544225151"/>
    <nd ref="1462300865"/>
    <nd ref="685099"/>
    <nd ref="280220127"/>
    <nd ref="1462300852"/>
    <nd ref="17312853"/>
    <tag k="avenue" v="yes"/>
    <tag k="highway" v="secondary"/>
    <tag k="lanes" v="3"/>
    <tag k="maxspeed" v="50"/>
    <tag k="name" v="Parkring"/>
    <tag k="oneway" v="yes"/>
    <tag k="wikipedia:de" v="Wiener Ringstraße"/>
  </way>
  <way id="30322934" version="7" timestamp="2012-02-14T17:53:23Z" uid="129531" user="almich" changeset="10685364">
    <nd ref="59988380"/>
    <nd ref="60212006"/>
    <nd ref="1462300871"/>
    <nd ref="296411071"/>
    <nd ref="94779759"/>
    <nd ref="544225151"/>
    <nd ref="685099"/>
    <nd ref="280220127"/>
    <nd ref="1462300852"/>
    <nd ref="17312853"/>
    <tag k="avenue" v="yes"/>
    <tag k="highway" v="secondary"/>
    <tag k="lanes" v="3"/>
    <tag k="maxspeed" v="50"/>
    <tag k="name" v="Parkring"/>
    <tag k="oneway" v="yes"/>
    <tag k="wikipedia:de" v="Wiener Ringstraße"/>
  </way>
  <way id="30322955" version="2" timestamp="2010-04-01T16:57:36Z" uid="74617" user="JohnSmith" changeset="4295590">
    <nd ref="26392166"/>
    <nd ref="334339970"/>
    <nd ref="334339974"/>
    <nd ref="334339957"/>
    <nd ref="334339960"/>
    <nd ref="334339955"/>
    <nd ref="334339948"/>
    <nd ref="334339952"/>
    <nd ref="334339964"/>
    <nd ref="334339944"/>
    <nd ref="334339935"/>
    <nd ref="334339914"/>
    <nd ref="334339905"/>
    <nd ref="334339911"/>
    <nd ref="334339932"/>
    <nd ref="334339899"/>
    <nd ref="334339927"/>
    <nd ref="334339940"/>
    <nd ref="334339938"/>
    <nd ref="334339892"/>
    <nd ref="26391987"/>
    <tag k="highway" v="primary"/>
    <tag k="name" v="Pacific Highway"/>
    <tag k="oneway" v="yes"/>
  </way>
  <way id="30322955" version="3" timestamp="2010-06-30T13:04:52Z" uid="299678" user="peteramjet" changeset="5113347">
    <nd ref="26392166"/>
    <nd ref="334339970"/>
    <nd ref="334339974"/>
    <nd ref="334339957"/>
    <nd ref="334339960"/>
    <nd ref="334339955"/>
    <nd ref="334339948"/>
    <nd ref="334339952"/>
    <nd ref="334339964"/>
    <nd ref="334339944"/>
    <nd ref="334339935"/>
    <nd ref="334339914"/>
    <nd ref="334339905"/>
    <nd ref="334339911"/>
    <nd ref="334339932"/>
    <nd ref="334339899"/>
    <nd ref="334339927"/>
    <nd ref="334339940"/>
    <nd ref="334339938"/>
    <nd ref="26391987"/>
    <tag k="highway" v="primary"/>
    <tag k="name" v="Pacific Highway"/>
    <tag k="oneway" v="yes"/>
    <tag k="ref" v="S83"/>
  </way>
  <way id="30322955" version="4" timestamp="2010-06-30T13:07:07Z" uid="299678" user="peteramjet" changeset="5113347">
    <nd ref="26392166"/>
    <nd ref="334339974"/>
    <nd ref="334339957"/>
    <nd ref="334339960"/>
    <nd ref="334339955"/>
    <nd ref="334339948"/>
    <nd ref="334339952"/>
    <nd ref="334339964"/>
    <nd ref="334339944"/>
    <nd ref="334339935"/>
    <nd ref="334339914"/>
    <nd ref="334339905"/>
    <nd ref="334339911"/>
    <nd ref="334339932"/>
    <nd ref="334339899"/>
    <nd ref="334339927"/>
    <nd ref="334339940"/>
    <nd ref="334339938"/>
    <nd ref="26391987"/>
    <tag k="highway" v="primary"/>
    <tag k="name" v="Pacific Highway"/>
    <tag k="oneway" v="yes"/>
    <tag k="ref" v="S83"/>
  </way>
  <way id="30322955" version="5" timestamp="2010-07-05T07:11:48Z" uid="299678" user="peteramjet" changeset="5139195">
    <nd ref="26392166"/>
    <nd ref="334339974"/>
    <nd ref="334339957"/>
    <nd ref="334339960"/>
    <nd ref="334339955"/>
    <nd ref="334339948"/>
    <nd ref="334339952"/>
    <nd ref="334339964"/>
    <nd ref="334339944"/>
    <nd ref="334339935"/>
    <nd ref="334339914"/>
    <nd ref="334339905"/>
    <nd ref="334339911"/>
    <nd ref="334339932"/>
    <nd ref="334339899"/>
    <nd ref="334339927"/>
    <nd ref="334339940"/>
    <nd ref="334339938"/>
    <nd ref="26391987"/>
    <tag k="highway" v="primary"/>
    <tag k="name" v="Pacific Highway"/>
    <tag k="oneway" v="yes"/>
  </way>
  <way id="30322955" version="6" timestamp="2011-06-05T23:50:48Z" uid="24757" user="s2156945" changeset="8355553">
    <nd ref="26392166"/>
    <nd ref="334339974"/>
    <nd ref="334339957"/>
    <nd ref="334339960"/>
    <nd ref="334339955"/>
    <nd ref="334339948"/>
    <nd ref="334339952"/>
    <nd ref="334339964"/>
    <nd ref="334339944"/>
    <nd ref="334339935"/>
    <nd ref="334339914"/>
    <nd ref="334339905"/>
    <nd ref="334339911"/>
    <nd ref="334339932"/>
    <nd ref="334339899"/>
    <nd ref="334339927"/>
    <nd ref="334339940"/>
    <nd ref="334339938"/>
    <nd ref="26391987"/>
    <tag k="cycleway" v="lane"/>
    <tag k="highway" v="primary"/>
    <tag k="name" v="Pacific Highway"/>
    <tag k="oneway" v="yes"/>
  </way>
  <way id="30322955" version="7" timestamp="2011-10-02T02:24:08Z" uid="20949" user="Ebenezer" changeset="9447312">
    <nd ref="26392166"/>
    <nd ref="334339974"/>
    <nd ref="334339957"/>
    <nd ref="334339960"/>
    <nd ref="334339955"/>
    <nd ref="334339948"/>
    <nd ref="334339952"/>
    <nd ref="334339964"/>
    <nd ref="334339944"/>
    <nd ref="334339935"/>
    <nd ref="334339914"/>
    <nd ref="1451371262"/>
    <tag k="cycleway" v="lane"/>
    <tag k="highway" v="primary"/>
    <tag k="lcn" v="yes"/>
    <tag k="maxspeed" v="80"/>
    <tag k="name" v="Pacific Highway"/>
    <tag k="oneway" v="yes"/>
  </way>
</osm>
