<?xml version='1.0' encoding='UTF-8'?>
<osm version="0.6" generator="libosmium/2.20.0">
  <way id="30346095" version="5" timestamp="2010-03-07T11:17:19Z" uid="58091" user="Andreas M" changeset="4059744">
    <nd ref="334690967"/>
    <nd ref="334690969"/>
    <tag k="fixme" v="check import"/>
    <tag k="highway" v="residential"/>
    <tag k="is_in:city" v="Kleinhöflein im Burgenland"/>
    <tag k="is_in:country_code" v="AT"/>
    <tag k="name" v="Rebengasse"/>
    <tag k="postal_code" v="7000"/>
  </way>
  <way id="30346095" version="6" timestamp="2011-04-27T20:37:49Z" uid="302363" user="fkv" changeset="7989217">
    <nd ref="1262475720"/>
    <nd ref="334690967"/>
    <nd ref="334690969"/>
    <tag k="highway" v="residential"/>
    <tag k="is_in:city" v="Kleinhöflein im Burgenland"/>
    <tag k="is_in:country_code" v="AT"/>
    <tag k="name" v="Rebengasse"/>
  </way>
  <way id="30346095" version="7" timestamp="2011-10-23T07:33:45Z" uid="474183" user="ratrun" changeset="9629932">
    <nd ref="1262475720"/>
    <nd ref="334690967"/>
    <tag k="highway" v="residential"/>
    <tag k="is_in:city" v="Kleinhöflein im Burgenland"/>
    <tag k="is_in:country_code" v="AT"/>
    <tag k="name" v="Rebengasse"/>
  </way>
  <way id="30346109" version="5" timestamp="2010-03-07T11:17:16Z" uid="58091" user="Andreas M" changeset="4059744">
    <nd ref="334691089"/>
    <nd ref="334691091"/>
    <nd ref="334691093"/>
    <nd ref="334691095"/>
    <tag k="fixme" v="check import"/>
    <tag k="highway" v="residential"/>
    <tag k="is_in:city" v="Kleinhöflein im Burgenland"/>
    <tag k="is_in:country_code" v="AT"/>
    <tag k="name" v="Pröstlweg"/>
    <tag k="postal_code" v="7000"/>
  </way>
  <way id="30346109" version="6" timestamp="2010-08-10T14:05:38Z" uid="111529" user="ReinerMeyer" changeset="5454146">
    <nd ref="334691089"/>
    <nd ref="334691091"/>
    <nd ref="334691093"/>
    <nd ref="334691095"/>
    <tag k="highway" v="residential"/>
    <tag k="is_in:city" v="Kleinhöflein im Burgenland"/>
    <tag k="is_in:country_code" v="AT"/>
    <tag k="name" v="Pröstlweg"/>
    <tag k="postal_code" v="7000"/>
  </way>
  <way id="30346109" version="7" timestamp="2011-08-10T20:20:29Z" uid="302363" user="fkv" changeset="8980248">
    <nd ref="334691089"/>
    <nd ref="334691091"/>
    <nd ref="334691093"/>
    <tag k="highway" v="residential"/>
    <tag k="name" v="Pröstlweg"/>
  </way>
  <way id="30346110" version="5" timestamp="2010-03-07T11:17:20Z" uid="58091" user="Andreas M" changeset="4059744">
    <nd ref="334691099"/>
    <nd ref="334691101"/>
    <tag k="fixme" v="check import"/>
    <tag k="highway" v="residential"/>
    <tag k="is_in:city" v="Kleinhöflein im Burgenland"/>
    <tag k="is_in:country_code" v="AT"/>
    <tag k="name" v="Probstengasse"/>
    <tag k="postal_code" v="7000"/>
  </way>
  <way id="30346110" version="6" timestamp="2011-09-14T16:54:12Z" uid="474183" user="ratrun" changeset="9300613">
    <nd ref="334691099"/>
    <nd ref="334691101"/>
    <tag k="highway" v="service"/>
    <tag k="is_in:country_code" v="AT"/>
    <tag k="name" v="Probstengasse"/>
  </way>
  <way id="30346410" version="6" timestamp="2010-03-07T11:17:16Z" uid="58091" user="Andreas M" changeset="4059744">
    <nd ref="334686208"/>
    <nd ref="334693897"/>
    <nd ref="334693901"/>
    <nd ref="334693908"/>
    <nd ref="334693912"/>
    <nd ref="334693914"/>
    <nd ref="334693916"/>
    <nd ref="334691089"/>
    <nd ref="334693918"/>
    <tag k="fixme" v="check import"/>
    <tag k="highway" v="residential"/>
    <tag k="is_in:city" v="Kleinhöflein im Burgenland"/>
    <tag k="is_in:country_code" v="AT"/>
    <tag k="name" v="Magdalenensiedlung"/>
    <tag k="postal_code" v="7000"/>
  </way>
  <way id="30346410" version="7" timestamp="2011-04-23T09:53:45Z" uid="23292" user="Marko Knöbl" changeset="7942074">
    <nd ref="334686208"/>
    <nd ref="334693897"/>
    <nd ref="334693901"/>
    <nd ref="334693908"/>
    <nd ref="334693912"/>
    <nd ref="334693916"/>
    <nd ref="334691089"/>
    <nd ref="334693918"/>
    <tag k="fixme" v="check import"/>
    <tag k="highway" v="residential"/>
    <tag k="is_in:city" v="Kleinhöflein im Burgenland"/>
    <tag k="is_in:country_code" v="AT"/>
    <tag k="name" v="Magdalenensiedlung"/>
    <tag k="postal_code" v="7000"/>
  </way>
  <way id="30346410" version="8" timestamp="2011-04-27T20:37:36Z" uid="302363" user="fkv" changeset="7989217">
    <nd ref="334686208"/>
    <nd ref="1262475313"/>
    <nd ref="334693897"/>
    <nd ref="334693901"/>
    <nd ref="334693908"/>
    <nd ref="334693912"/>
    <nd ref="334693916"/>
    <nd ref="334691089"/>
    <nd ref="334693918"/>
    <tag k="fixme" v="check import"/>
    <tag k="highway" v="residential"/>
    <tag k="is_in:city" v="Kleinhöflein im Burgenland"/>
    <tag k="is_in:country_code" v="AT"/>
    <tag k="name" v="Magdalenensiedlung"/>
    <tag k="postal_code" v="7000"/>
  </way>
  <way id="30346410" version="9" timestamp="2011-08-10T20:20:28Z" uid="302363" user="fkv" changeset="8980248">
    <nd ref="334686208"/>
    <nd ref="1262475313"/>
    <nd ref="334693897"/>
    <nd ref="1394089525"/>
    <nd ref="334693901"/>
    <nd ref="1394089532"/>
    <nd ref="1394089533"/>
    <nd ref="334693908"/>
    <nd ref="334693912"/>
    <nd ref="1394089535"/>
    <nd ref="1394089537"/>
    <nd ref="334693916"/>
    <nd ref="334691089"/>
    <nd ref="1394089539"/>
    <nd ref="334693918"/>
    <tag k="highway" v="residential"/>
    <tag k="name" v="Magdalenensiedlung"/>
  </way>
  <way id="30346520" version="6" timestamp="2010-03-07T11:17:18Z" uid="58091" user="Andreas M" changeset="4059744">
    <nd ref="500061449"/>
    <nd ref="334653658"/>
    <nd ref="334695086"/>
    <nd ref="334695088"/>
    <nd ref="334695090"/>
    <nd ref="334695093"/>
    <tag k="fixme" v="check import"/>
    <tag k="highway" v="residential"/>
    <tag k="is_in:city" v="Kleinhöflein im Burgenland"/>
    <tag k="is_in:country_code" v="AT"/>
    <tag k="name" v="Landesgerichtsstraße"/>
    <tag k="postal_code" v="7000"/>
  </way>
  <way id="30346520" version="7" timestamp="2011-01-06T22:42:34Z" uid="302363" user="fkv" changeset="6888048">
    <nd ref="500061449"/>
    <nd ref="1086976925"/>
    <nd ref="334653658"/>
    <nd ref="334695086"/>
    <nd ref="334695088"/>
    <nd ref="334695093"/>
    <tag k="highway" v="residential"/>
    <tag k="name" v="Landesgerichtsstraße"/>
    <tag k="postal_code" v="7000"/>
  </way>
  <way id="30346570" version="6" timestamp="2010-03-07T11:17:17Z" uid="58091" user="Andreas M" changeset="4059744">
    <nd ref="334695633"/>
    <nd ref="334695629"/>
    <nd ref="334695628"/>
    <nd ref="334695626"/>
    <nd ref="334695624"/>
    <nd ref="334695621"/>
    <nd ref="334694902"/>
    <nd ref="334686786"/>
    <nd ref="618231659"/>
    <nd ref="334695608"/>
    <nd ref="334687109"/>
    <tag k="fixme" v="check import"/>
    <tag k="highway" v="residential"/>
    <tag k="is_in:city" v="Kleinhöflein im Burgenland"/>
    <tag k="is_in:country_code" v="AT"/>
    <tag k="name" v="Kirchtalstraße"/>
    <tag k="postal_code" v="7000"/>
  </way>
  <way id="30346570" version="7" timestamp="2011-04-27T20:37:50Z" uid="302363" user="fkv" changeset="7989217">
    <nd ref="334695633"/>
    <nd ref="334695629"/>
    <nd ref="334695628"/>
    <nd ref="334695626"/>
    <nd ref="334695624"/>
    <nd ref="334695621"/>
    <nd ref="334686786"/>
    <nd ref="618231659"/>
    <nd ref="334695608"/>
    <nd ref="334687109"/>
    <tag k="fixme" v="check import"/>
    <tag k="highway" v="residential"/>
    <tag k="is_in:city" v="Kleinhöflein im Burgenland"/>
    <tag k="is_in:country_code" v="AT"/>
    <tag k="name" v="Kirchtalstraße"/>
    <tag k="postal_code" v="7000"/>
  </way>
  <way id="30346570" version="8" timestamp="2011-04-27T21:03:32Z" uid="302363" user="fkv" changeset="7989457">
    <nd ref="334695629"/>
    <nd ref="1262526272"/>
    <nd ref="334695628"/>
    <nd ref="1262526274"/>
    <nd ref="334695626"/>
    <nd ref="334695624"/>
    <nd ref="1262526257"/>
    <nd ref="1262526255"/>
    <nd ref="334695621"/>
    <tag k="highway" v="track"/>
    <tag k="tracktype" v="grade1"/>
  </way>
  <way id="30346609" version="6" timestamp="2010-03-07T11:17:15Z" uid="58091" user="Andreas M" changeset="4059744">
    <nd ref="334695086"/>
    <nd ref="334696022"/>
    <nd ref="334696025"/>
    <nd ref="334691099"/>
    <nd ref="334696028"/>
    <tag k="fixme" v="check import"/>
    <tag k="highway" v="residential"/>
    <tag k="is_in:city" v="Kleinhöflein im Burgenland"/>
    <tag k="is_in:country_code" v="AT"/>
    <tag k="name" v="Kirchengasse"/>
    <tag k="postal_code" v="7000"/>
  </way>
  <way id="30346609" version="7" timestamp="2011-01-06T22:42:33Z" uid="302363" user="fkv" changeset="6888048">
    <nd ref="334695086"/>
    <nd ref="1086976898"/>
    <nd ref="334696022"/>
    <nd ref="334696025"/>
    <nd ref="334691099"/>
    <nd ref="64809187"/>
    <tag k="highway" v="residential"/>
    <tag k="name" v="Kirchengasse"/>
    <tag k="postal_code" v="7000"/>
  </way>
  <way id="30346609" version="8" timestamp="2011-02-13T02:01:09Z" uid="302363" user="fkv" changeset="7271399">
    <nd ref="334695086"/>
    <nd ref="1086976898"/>
    <nd ref="334696022"/>
    <nd ref="1150179639"/>
    <nd ref="1150179641"/>
    <nd ref="334696025"/>
    <nd ref="334691099"/>
    <nd ref="64809187"/>
    <tag k="highway" v="residential"/>
    <tag k="name" v="Kirchengasse"/>
    <tag k="postal_code" v="7000"/>
  </way>
  <way id="30346620" version="5" timestamp="2010-03-07T11:17:17Z" uid="58091" user="Andreas M" changeset="4059744">
    <nd ref="334687106"/>
    <nd ref="334696079"/>
    <nd ref="334696081"/>
    <nd ref="334696083"/>
    <nd ref="334696085"/>
    <nd ref="334696087"/>
    <nd ref="334696091"/>
    <nd ref="334696093"/>
    <nd ref="334688954"/>
    <tag k="fixme" v="check import"/>
    <tag k="highway" v="residential"/>
    <tag k="is_in:city" v="Kleinhöflein im Burgenland"/>
    <tag k="is_in:country_code" v="AT"/>
    <tag k="name" v="Kirchberggasse"/>
    <tag k="postal_code" v="7000"/>
  </way>
  <way id="30346620" version="6" timestamp="2011-04-27T21:03:29Z" uid="302363" user="fkv" changeset="7989457">
    <nd ref="334687106"/>
    <nd ref="334696079"/>
    <nd ref="334696081"/>
    <nd ref="334696083"/>
    <nd ref="334696085"/>
    <nd ref="334696087"/>
    <nd ref="1262526127"/>
    <nd ref="1262526118"/>
    <nd ref="334696091"/>
    <nd ref="1262526116"/>
    <nd ref="334696093"/>
    <nd ref="1262526114"/>
    <nd ref="334688954"/>
    <tag k="highway" v="residential"/>
    <tag k="is_in:city" v="Kleinhöflein im Burgenland"/>
    <tag k="is_in:country_code" v="AT"/>
    <tag k="name" v="Kirchberggasse"/>
  </way>
  <way id="30346635" version="5" timestamp="2010-03-07T11:17:19Z" uid="58091" user="Andreas M" changeset="4059744">
    <nd ref="334653658"/>
    <nd ref="334696164"/>
    <nd ref="334696167"/>
    <nd ref="334696022"/>
    <tag k="fixme" v="check import"/>
    <tag k="highway" v="residential"/>
    <tag k="is_in:city" v="Kleinhöflein im Burgenland"/>
    <tag k="is_in:country_code" v="AT"/>
    <tag k="name" v="Karl-Varits-Gasse"/>
    <tag k="postal_code" v="7000"/>
  </way>
  <way id="30346635" version="6" timestamp="2011-01-06T22:42:33Z" uid="302363" user="fkv" changeset="6888048">
    <nd ref="334653658"/>
    <nd ref="334696164"/>
    <nd ref="334696167"/>
    <nd ref="334696022"/>
    <tag k="highway" v="residential"/>
    <tag k="name" v="Karl-Varits-Gasse"/>
    <tag k="postal_code" v="7000"/>
  </way>
  <way id="30346683" version="5" timestamp="2010-03-07T11:17:16Z" uid="58091" user="Andreas M" changeset="4059744">
    <nd ref="334693918"/>
    <nd ref="334696668"/>
    <nd ref="334696671"/>
    <tag k="fixme" v="check import"/>
    <tag k="highway" v="residential"/>
    <tag k="is_in:city" v="Kleinhöflein im Burgenland"/>
    <tag k="is_in:country_code" v="AT"/>
    <tag k="name" v="Josef-Lentsch-Straße"/>
    <tag k="postal_code" v="7000"/>
  </way>
  <way id="30346683" version="6" timestamp="2011-08-10T20:20:29Z" uid="302363" user="fkv" changeset="8980248">
    <nd ref="334693918"/>
    <nd ref="1394089546"/>
    <nd ref="334696668"/>
    <nd ref="1394089558"/>
    <nd ref="334696671"/>
    <tag k="highway" v="residential"/>
    <tag k="name" v="Josef-Lentsch-Straße"/>
  </way>
  <way id="30346696" version="7" timestamp="2010-03-07T11:17:15Z" uid="58091" user="Andreas M" changeset="4059744">
    <nd ref="500060934"/>
    <nd ref="334696757"/>
    <nd ref="334696759"/>
    <nd ref="334696764"/>
    <nd ref="334688079"/>
    <nd ref="334696768"/>
    <nd ref="334695380"/>
    <tag k="fixme" v="check import"/>
    <tag k="highway" v="residential"/>
    <tag k="is_in:city" v="Kleinhöflein im Burgenland"/>
    <tag k="is_in:country_code" v="AT"/>
    <tag k="name" v="Johann-Kodatsch-Straße"/>
    <tag k="postal_code" v="7000"/>
  </way>
  <way id="30346696" version="8" timestamp="2011-04-27T20:37:44Z" uid="302363" user="fkv" changeset="7989217">
    <nd ref="1262475592"/>
    <nd ref="1262475591"/>
    <nd ref="334696757"/>
    <nd ref="334696759"/>
    <nd ref="334688079"/>
    <nd ref="334696768"/>
    <nd ref="1262475590"/>
    <nd ref="1262475589"/>
    <nd ref="1262475582"/>
    <nd ref="1262475580"/>
    <nd ref="334695380"/>
    <tag k="highway" v="residential"/>
    <tag k="is_in:city" v="Kleinhöflein im Burgenland"/>
    <tag k="is_in:country_code" v="AT"/>
    <tag k="name" v="Johann-Kodatsch-Straße"/>
  </way>
  <way id="30346756" version="6" timestamp="2010-03-07T11:17:18Z" uid="58091" user="Andreas M" changeset="4059744">
    <nd ref="334696759"/>
    <nd ref="334697136"/>
    <nd ref="334688952"/>
    <nd ref="334697139"/>
    <nd ref="388110440"/>
    <tag k="fixme" v="check import"/>
    <tag k="highway" v="residential"/>
    <tag k="is_in:city" v="Kleinhöflein im Burgenland"/>
    <tag k="is_in:country_code" v="AT"/>
    <tag k="name" v="Hofgasse"/>
    <tag k="postal_code" v="7000"/>
  </way>
  <way id="30346756" version="7" timestamp="2011-04-27T20:37:46Z" uid="302363" user="fkv" changeset="7989217">
    <nd ref="334696759"/>
    <nd ref="334697136"/>
    <nd ref="1262475626"/>
    <nd ref="1262475628"/>
    <nd ref="1262475630"/>
    <nd ref="334688952"/>
    <nd ref="334697139"/>
    <nd ref="1262475641"/>
    <nd ref="1262475643"/>
    <nd ref="1262475645"/>
    <nd ref="388110440"/>
    <tag k="highway" v="residential"/>
    <tag k="is_in:city" v="Kleinhöflein im Burgenland"/>
    <tag k="is_in:country_code" v="AT"/>
    <tag k="name" v="Hofgasse"/>
  </way>
  <way id="30346845" version="5" timestamp="2010-03-07T11:17:17Z" uid="58091" user="Andreas M" changeset="4059744">
    <nd ref="334696025"/>
    <nd ref="334698345"/>
    <tag k="fixme" v="check import"/>
    <tag k="highway" v="residential"/>
    <tag k="is_in:city" v="Kleinhöflein im Burgenland"/>
    <tag k="is_in:country_code" v="AT"/>
    <tag k="name" v="Grabengasse"/>
    <tag k="postal_code" v="7000"/>
  </way>
  <way id="30346845" version="6" timestamp="2011-01-06T22:42:33Z" uid="302363" user="fkv" changeset="6888048">
    <nd ref="334696025"/>
    <nd ref="334698345"/>
    <tag k="highway" v="residential"/>
    <tag k="name" v="Grabengasse"/>
    <tag k="postal_code" v="7000"/>
  </way>
  <way id="30346845" version="7" timestamp="2011-02-13T02:01:10Z" uid="302363" user="fkv" changeset="7271399">
    <nd ref="334696025"/>
    <nd ref="1150179646"/>
    <nd ref="334698345"/>
    <tag k="highway" v="residential"/>
    <tag k="name" v="Grabengasse"/>
    <tag k="postal_code" v="7000"/>
  </way>
  <way id="30346922" version="5" timestamp="2010-03-07T11:17:16Z" uid="58091" user="Andreas M" changeset="4059744">
    <nd ref="334696022"/>
    <nd ref="334699196"/>
    <nd ref="334699199"/>
    <nd ref="334699202"/>
    <nd ref="334698345"/>
    <nd ref="334699205"/>
    <nd ref="334699208"/>
    <tag k="fixme" v="check import"/>
    <tag k="highway" v="residential"/>
    <tag k="is_in:city" v="Kleinhöflein im Burgenland"/>
    <tag k="is_in:country_code" v="AT"/>
    <tag k="name" v="Florianigasse"/>
    <tag k="postal_code" v="7000"/>
  </way>
  <way id="30346922" version="6" timestamp="2011-01-06T22:42:33Z" uid="302363" user="fkv" changeset="6888048">
    <nd ref="334696022"/>
    <nd ref="334699196"/>
    <nd ref="334699199"/>
    <nd ref="334699202"/>
    <nd ref="334698345"/>
    <nd ref="334699205"/>
    <nd ref="334699208"/>
    <tag k="highway" v="residential"/>
    <tag k="name" v="Florianigasse"/>
    <tag k="postal_code" v="7000"/>
  </way>
</osm>
