<?xml version='1.0' encoding='UTF-8'?>
<osm version="0.6" generator="libosmium/2.20.0">
  <way id="30361036" version="2" timestamp="2009-02-01T18:07:14Z" uid="6975" user="ulfl" changeset="27333">
    <nd ref="334895445"/>
    <nd ref="334895605"/>
    <tag k="highway" v="service"/>
    <tag k="service" v="parking_aisle"/>
  </way>
  <way id="30361458" version="4" timestamp="2009-10-08T21:59:03Z" uid="179968" user="Ich_hasse_doitsche_OSM-Korinthenkacker" changeset="2788120">
    <nd ref="254914909"/>
    <nd ref="254915055"/>
    <nd ref="254915324"/>
    <tag k="highway" v="residential"/>
    <tag k="name" v="Fińska"/>
    <tag k="source" v="UMP-PL, ./UMP-Szczecin/src/SWINOUJSCIE.ulice.txt"/>
  </way>
  <way id="30361458" version="5" timestamp="2010-06-06T11:11:07Z" uid="86932" user="bialy111" changeset="4916529">
    <nd ref="254914909"/>
    <nd ref="254915055"/>
    <nd ref="254915324"/>
    <tag k="highway" v="residential"/>
    <tag k="name" v="Fińska"/>
    <tag k="oneway" v="yes"/>
    <tag k="source" v="UMP-PL, ./UMP-Szczecin/src/SWINOUJSCIE.ulice.txt"/>
  </way>
  <way id="30361458" version="6" timestamp="2011-06-09T23:17:28Z" uid="165509" user="koszatek" changeset="8393245">
    <nd ref="254914909"/>
    <nd ref="254915055"/>
    <nd ref="254915324"/>
    <tag k="highway" v="residential"/>
    <tag k="name" v="Fińska"/>
    <tag k="oneway" v="yes"/>
  </way>
</osm>
