<?xml version='1.0' encoding='UTF-8'?>
<osm version="0.6" generator="libosmium/2.20.0">
  <way id="30382072" version="2" timestamp="2009-12-08T08:42:30Z" uid="200463" user="harmagedon" changeset="3322149">
    <nd ref="326117306"/>
    <nd ref="330444251"/>
    <nd ref="326117312"/>
    <tag k="addr:postcode" v="5280"/>
    <tag k="at:maxspeed" v="Ortsgebiet"/>
    <tag k="fixme" v="check import"/>
    <tag k="highway" v="residential"/>
    <tag k="is_in" v="...,Bezirk Braunau,Oberösterreich,Österreich,Europa"/>
    <tag k="name" v="Mozartstraße"/>
    <tag k="note" v="imported from plan.at; (C)=CC-by-sa or oDBL; feel free to change if necessary"/>
    <tag k="plan_at:acad_id" v="br159A1"/>
    <tag k="source" v="plan.at 2009"/>
    <tag k="uploaded_by" v="Wolfgang W. Wasserburger"/>
  </way>
  <way id="30382072" version="3" timestamp="2009-12-09T02:07:13Z" uid="200463" user="harmagedon" changeset="3330540">
    <nd ref="326117306"/>
    <nd ref="330444251"/>
    <nd ref="326117312"/>
    <tag k="addr:postcode" v="5280"/>
    <tag k="at:maxspeed" v="Ortsgebiet"/>
    <tag k="fixme" v="check import"/>
    <tag k="highway" v="residential"/>
    <tag k="is_in" v="...,Bezirk Braunau,Oberösterreich,Österreich,Europa"/>
    <tag k="name" v="Mozartstraße"/>
    <tag k="note" v="imported from plan.at; (C)=CC-by-sa or oDBL; feel free to change if necessary"/>
    <tag k="plan_at:acad_id" v="br159A1"/>
    <tag k="source" v="plan.at 2009"/>
  </way>
  <way id="30382072" version="4" timestamp="2010-11-04T11:47:05Z" uid="274952" user="marvin_s" changeset="6287783">
    <nd ref="326117306"/>
    <nd ref="330444251"/>
    <nd ref="326117312"/>
    <tag k="addr:postcode" v="5280"/>
    <tag k="at:maxspeed" v="Ortsgebiet"/>
    <tag k="fixme" v="check import"/>
    <tag k="highway" v="residential"/>
    <tag k="is_in" v="...,Bezirk Braunau,Oberösterreich,Österreich,Europa"/>
    <tag k="name" v="Mozartstraße"/>
    <tag k="note" v="imported from plan.at; (C)=CC-by-sa or oDBL; feel free to change if necessary"/>
    <tag k="plan_at:acad_id" v="br159A1"/>
    <tag k="source" v="plan.at 2009"/>
  </way>
  <way id="30382072" version="5" timestamp="2010-11-15T15:40:20Z" uid="234764" user="m5st" changeset="6378282">
    <nd ref="326117306"/>
    <nd ref="330444251"/>
    <nd ref="326117312"/>
    <tag k="addr:postcode" v="5280"/>
    <tag k="highway" v="residential"/>
    <tag k="is_in" v="...,Bezirk Braunau,Oberösterreich,Österreich,Europa"/>
    <tag k="maxspeed" v="AT:urban"/>
    <tag k="name" v="Mozartstraße"/>
    <tag k="source" v="plan.at 2009"/>
  </way>
  <way id="30382072" version="6" timestamp="2011-04-19T18:25:03Z" uid="45347" user="eriosw" changeset="7909142">
    <nd ref="326117306"/>
    <nd ref="330444251"/>
    <nd ref="326117312"/>
    <tag k="addr:postcode" v="5280"/>
    <tag k="highway" v="residential"/>
    <tag k="is_in" v="Braunau am Inn,Braunau am Inn,Oberösterreich,Österreich,Europe"/>
    <tag k="maxspeed" v="AT:urban"/>
    <tag k="name" v="Mozartstraße"/>
    <tag k="source" v="plan.at 2009"/>
  </way>
  <way id="30382072" version="7" timestamp="2011-07-28T06:13:06Z" uid="491845" user="data_at" changeset="8851221">
    <nd ref="326117306"/>
    <nd ref="330444251"/>
    <nd ref="326117312"/>
    <tag k="highway" v="residential"/>
    <tag k="is_in" v="Braunau am Inn,Braunau am Inn,Oberösterreich,Österreich,Europe"/>
    <tag k="maxspeed" v="AT:urban"/>
    <tag k="name" v="Mozartstraße"/>
    <tag k="source" v="plan.at 2009"/>
  </way>
  <way id="30382073" version="5" timestamp="2009-12-08T08:42:19Z" uid="200463" user="harmagedon" changeset="3322149">
    <nd ref="361620404"/>
    <nd ref="326117487"/>
    <nd ref="326117468"/>
    <nd ref="326117454"/>
    <nd ref="326117573"/>
    <tag k="addr:postcode" v="5280"/>
    <tag k="at:maxspeed" v="Ortsgebiet"/>
    <tag k="fixme" v="check import"/>
    <tag k="highway" v="residential"/>
    <tag k="is_in" v="...,Bezirk Braunau,Oberösterreich,Österreich,Europa"/>
    <tag k="name" v="Johann-Böhm-Straße"/>
    <tag k="note" v="imported from plan.at; (C)=CC-by-sa or oDBL; feel free to change if necessary"/>
    <tag k="plan_at:acad_id" v="br15889"/>
    <tag k="source" v="plan.at 2009"/>
    <tag k="uploaded_by" v="Wolfgang W. Wasserburger"/>
  </way>
  <way id="30382073" version="6" timestamp="2009-12-09T02:06:52Z" uid="200463" user="harmagedon" changeset="3330540">
    <nd ref="361620404"/>
    <nd ref="326117487"/>
    <nd ref="326117468"/>
    <nd ref="326117454"/>
    <nd ref="326117573"/>
    <tag k="addr:postcode" v="5280"/>
    <tag k="at:maxspeed" v="Ortsgebiet"/>
    <tag k="fixme" v="check import"/>
    <tag k="highway" v="residential"/>
    <tag k="is_in" v="...,Bezirk Braunau,Oberösterreich,Österreich,Europa"/>
    <tag k="name" v="Johann-Böhm-Straße"/>
    <tag k="note" v="imported from plan.at; (C)=CC-by-sa or oDBL; feel free to change if necessary"/>
    <tag k="plan_at:acad_id" v="br15889"/>
    <tag k="source" v="plan.at 2009"/>
  </way>
  <way id="30382073" version="7" timestamp="2010-11-16T20:40:04Z" uid="234764" user="m5st" changeset="6388213">
    <nd ref="361620404"/>
    <nd ref="326117487"/>
    <nd ref="326117468"/>
    <nd ref="326117454"/>
    <nd ref="326117573"/>
    <tag k="addr:postcode" v="5280"/>
    <tag k="highway" v="residential"/>
    <tag k="is_in" v="...,Bezirk Braunau,Oberösterreich,Österreich,Europa"/>
    <tag k="maxspeed" v="AT:rural"/>
    <tag k="name" v="Johann-Böhm-Straße"/>
    <tag k="source" v="plan.at 2009"/>
  </way>
  <way id="30382073" version="8" timestamp="2010-11-22T16:15:41Z" uid="234764" user="m5st" changeset="6432655">
    <nd ref="361620404"/>
    <nd ref="326117487"/>
    <nd ref="326117468"/>
    <nd ref="326117454"/>
    <nd ref="326117573"/>
    <tag k="addr:postcode" v="5280"/>
    <tag k="highway" v="residential"/>
    <tag k="is_in" v="...,Bezirk Braunau,Oberösterreich,Österreich,Europa"/>
    <tag k="maxspeed" v="50"/>
    <tag k="name" v="Johann-Böhm-Straße"/>
    <tag k="source" v="plan.at 2009"/>
    <tag k="source:maxspeed" v="plan.at;AT:urban"/>
  </way>
  <way id="30382073" version="9" timestamp="2011-04-19T18:24:41Z" uid="45347" user="eriosw" changeset="7909142">
    <nd ref="361620404"/>
    <nd ref="326117487"/>
    <nd ref="326117468"/>
    <nd ref="326117454"/>
    <nd ref="326117573"/>
    <tag k="addr:postcode" v="5280"/>
    <tag k="highway" v="residential"/>
    <tag k="is_in" v="Braunau am Inn,Braunau am Inn,Oberösterreich,Österreich,Europe"/>
    <tag k="maxspeed" v="50"/>
    <tag k="name" v="Johann-Böhm-Straße"/>
    <tag k="source" v="plan.at 2009"/>
    <tag k="source:maxspeed" v="plan.at;AT:urban"/>
  </way>
  <way id="30382073" version="10" timestamp="2011-06-29T20:40:21Z" uid="60975" user="Leiner Christian" changeset="8584864">
    <nd ref="361620404"/>
    <nd ref="326117487"/>
    <nd ref="1343794645"/>
    <nd ref="1343794653"/>
    <nd ref="326117468"/>
    <nd ref="326117454"/>
    <nd ref="326117573"/>
    <tag k="addr:postcode" v="5280"/>
    <tag k="highway" v="residential"/>
    <tag k="is_in" v="Braunau am Inn,Braunau am Inn,Oberösterreich,Österreich,Europe"/>
    <tag k="maxspeed" v="50"/>
    <tag k="name" v="Johann-Böhm-Straße"/>
    <tag k="source" v="plan.at 2009"/>
    <tag k="source:maxspeed" v="plan.at;AT:urban"/>
  </way>
  <way id="30382073" version="11" timestamp="2011-07-28T06:11:26Z" uid="491845" user="data_at" changeset="8851221">
    <nd ref="361620404"/>
    <nd ref="326117487"/>
    <nd ref="1343794645"/>
    <nd ref="1343794653"/>
    <nd ref="326117468"/>
    <nd ref="326117454"/>
    <nd ref="326117573"/>
    <tag k="highway" v="residential"/>
    <tag k="is_in" v="Braunau am Inn,Braunau am Inn,Oberösterreich,Österreich,Europe"/>
    <tag k="maxspeed" v="50"/>
    <tag k="name" v="Johann-Böhm-Straße"/>
    <tag k="source" v="plan.at 2009"/>
    <tag k="source:maxspeed" v="plan.at;AT:urban"/>
  </way>
  <way id="30382793" version="1" timestamp="2009-01-22T12:34:18Z" uid="64977" user="CLoeser" changeset="824035">
    <nd ref="335314710"/>
    <nd ref="335314713"/>
    <nd ref="335314714"/>
    <tag k="created_by" v="Potlatch 0.10f"/>
  </way>
  <way id="30382793" version="2" timestamp="2009-01-22T12:39:11Z" uid="64977" user="CLoeser" changeset="824035"/>
  <way id="30382823" version="3" timestamp="2009-04-15T06:02:11Z" uid="6975" user="ulfl" changeset="553994">
    <nd ref="335315026"/>
    <nd ref="335315032"/>
    <nd ref="335315037"/>
    <nd ref="335315043"/>
    <nd ref="335315026"/>
    <tag k="addr:postcode" v="8430"/>
    <tag k="area" v="yes"/>
    <tag k="building" v="yes"/>
    <tag k="fixme" v="check import"/>
    <tag k="is_in" v="Wagna,Leibnitz,Steiermark,Österreich,Europe"/>
    <tag k="name" v="Museum Flavia Solva"/>
    <tag k="note" v="imported from plan.at; (C)=CC-by-sa or oDBL; feel free to change if necessary"/>
    <tag k="plan_at:acad_id" v="lb1EA46"/>
    <tag k="source" v="plan.at 2009"/>
    <tag k="tourism" v="museum"/>
    <tag k="uploaded_by" v="Wolfgang W. Wasserburger"/>
  </way>
  <way id="30382823" version="4" timestamp="2009-09-12T15:30:52Z" uid="45347" user="eriosw" changeset="2459218">
    <nd ref="335315026"/>
    <nd ref="335315032"/>
    <nd ref="335315037"/>
    <nd ref="335315043"/>
    <nd ref="335315026"/>
    <tag k="addr:postcode" v="8430"/>
    <tag k="building" v="yes"/>
    <tag k="fixme" v="check import"/>
    <tag k="is_in" v="Wagna,Leibnitz,Steiermark,Österreich,Europe"/>
    <tag k="name" v="Museum Flavia Solva"/>
    <tag k="note" v="imported from plan.at; (C)=CC-by-sa or oDBL; feel free to change if necessary"/>
    <tag k="plan_at:acad_id" v="lb1EA46"/>
    <tag k="source" v="plan.at 2009"/>
    <tag k="tourism" v="museum"/>
    <tag k="uploaded_by" v="Wolfgang W. Wasserburger"/>
  </way>
  <way id="30382823" version="5" timestamp="2011-05-18T17:14:44Z" uid="45347" user="eriosw" changeset="8182901">
    <nd ref="335315026"/>
    <nd ref="335315032"/>
    <nd ref="335315037"/>
    <nd ref="335315043"/>
    <nd ref="335315026"/>
    <tag k="addr:postcode" v="8430"/>
    <tag k="building" v="yes"/>
    <tag k="fixme" v="check import"/>
    <tag k="is_in" v="Wagna,Leibnitz,Steiermark,Österreich,Europe"/>
    <tag k="name" v="Museum Flavia Solva"/>
    <tag k="source" v="plan.at 2009"/>
    <tag k="tourism" v="museum"/>
    <tag k="uploaded_by" v="Wolfgang W. Wasserburger"/>
  </way>
  <way id="30382823" version="6" timestamp="2011-06-07T10:52:25Z" uid="45347" user="eriosw" changeset="8368945">
    <nd ref="335315026"/>
    <nd ref="335315032"/>
    <nd ref="335315037"/>
    <nd ref="335315043"/>
    <nd ref="335315026"/>
    <tag k="building" v="yes"/>
    <tag k="is_in" v="Wagna,Leibnitz,Steiermark,Österreich,Europe"/>
    <tag k="name" v="Museum Flavia Solva"/>
    <tag k="source" v="plan.at 2009,bing"/>
    <tag k="tourism" v="museum"/>
  </way>
  <way id="30382902" version="1" timestamp="2009-01-22T12:35:50Z" uid="64977" user="CLoeser" changeset="824035">
    <nd ref="335316076"/>
    <nd ref="335316079"/>
    <nd ref="335316080"/>
    <nd ref="335316081"/>
    <nd ref="335316082"/>
    <nd ref="335316083"/>
    <nd ref="335316086"/>
    <nd ref="335316087"/>
    <nd ref="335316088"/>
    <nd ref="335316089"/>
    <nd ref="335316090"/>
    <tag k="created_by" v="Potlatch 0.10f"/>
  </way>
  <way id="30382902" version="2" timestamp="2009-01-22T12:39:10Z" uid="64977" user="CLoeser" changeset="824035">
    <nd ref="335316076"/>
    <nd ref="335316079"/>
    <nd ref="335316080"/>
    <nd ref="335316081"/>
    <nd ref="335316082"/>
    <nd ref="335316083"/>
    <nd ref="335316086"/>
    <nd ref="335316087"/>
    <nd ref="335316088"/>
    <nd ref="335316089"/>
    <nd ref="335316090"/>
    <nd ref="335319498"/>
    <nd ref="335319500"/>
    <nd ref="335319504"/>
    <nd ref="335319506"/>
    <nd ref="335319508"/>
    <nd ref="335319510"/>
    <nd ref="335319511"/>
    <nd ref="335319512"/>
    <nd ref="335319515"/>
    <nd ref="335319516"/>
    <nd ref="335319518"/>
    <nd ref="335319519"/>
    <nd ref="335319520"/>
    <nd ref="335319522"/>
    <nd ref="335319523"/>
    <nd ref="335319526"/>
    <nd ref="335319528"/>
    <nd ref="335319530"/>
    <nd ref="335319532"/>
    <nd ref="335319533"/>
    <nd ref="335319535"/>
    <nd ref="335319536"/>
    <nd ref="335319537"/>
    <nd ref="335314710"/>
    <nd ref="335314713"/>
    <nd ref="335314714"/>
    <nd ref="335319541"/>
    <tag k="created_by" v="Potlatch 0.10f"/>
  </way>
  <way id="30382902" version="3" timestamp="2009-01-22T12:39:27Z" uid="64977" user="CLoeser" changeset="824035">
    <nd ref="335316076"/>
    <nd ref="335316079"/>
    <nd ref="335316080"/>
    <nd ref="335316081"/>
    <nd ref="335316082"/>
    <nd ref="335316083"/>
    <nd ref="335316086"/>
    <nd ref="335316087"/>
    <nd ref="335316088"/>
    <nd ref="335316089"/>
    <nd ref="335316090"/>
    <nd ref="335319498"/>
    <nd ref="335319500"/>
    <nd ref="335319504"/>
    <nd ref="335319506"/>
    <nd ref="335319508"/>
    <nd ref="335319510"/>
    <nd ref="335319511"/>
    <nd ref="335319512"/>
    <nd ref="335319515"/>
    <nd ref="335319516"/>
    <nd ref="335319518"/>
    <nd ref="335319519"/>
    <nd ref="335319520"/>
    <nd ref="335319522"/>
    <nd ref="335319523"/>
    <nd ref="335319526"/>
    <nd ref="335319528"/>
    <nd ref="335319530"/>
    <nd ref="335319532"/>
    <nd ref="335319533"/>
    <nd ref="335319535"/>
    <nd ref="335319536"/>
    <nd ref="335319537"/>
    <nd ref="335314710"/>
    <nd ref="335314713"/>
    <nd ref="335314714"/>
    <nd ref="335319541"/>
    <nd ref="335316076"/>
    <tag k="created_by" v="Potlatch 0.10f"/>
    <tag k="landuse" v="residential"/>
  </way>
  <way id="30382902" version="4" timestamp="2009-02-01T08:05:42Z" uid="41914" user="TheBo" changeset="11545">
    <nd ref="335316076"/>
    <nd ref="335316081"/>
    <nd ref="335316082"/>
    <nd ref="335316083"/>
    <nd ref="335316086"/>
    <nd ref="335316087"/>
    <nd ref="335316088"/>
    <nd ref="335316089"/>
    <nd ref="335319498"/>
    <nd ref="335319506"/>
    <nd ref="335319508"/>
    <nd ref="335319511"/>
    <nd ref="335319512"/>
    <nd ref="335319518"/>
    <nd ref="335319522"/>
    <nd ref="335319526"/>
    <nd ref="335319530"/>
    <nd ref="335319533"/>
    <nd ref="335319536"/>
    <nd ref="335314710"/>
    <nd ref="335314714"/>
    <nd ref="335316076"/>
    <tag k="created_by" v="Potlatch 0.10f"/>
    <tag k="landuse" v="residential"/>
  </way>
  <way id="30382902" version="5" timestamp="2009-06-11T14:32:33Z" uid="64977" user="CLoeser" changeset="1487858"/>
  <way id="30382906" version="1" timestamp="2009-01-22T12:35:51Z" uid="7617" user="Franc" changeset="824969">
    <nd ref="335315926"/>
    <nd ref="58314574"/>
    <tag k="created_by" v="JOSM"/>
    <tag k="highway" v="residential"/>
    <tag k="name" v="Linden Avenue"/>
    <tag k="source" v="survey"/>
  </way>
  <way id="30382906" version="2" timestamp="2009-11-14T12:11:00Z" uid="117890" user="Jonathan Trott" changeset="3112508">
    <nd ref="335315926"/>
    <nd ref="58314574"/>
    <tag k="highway" v="residential"/>
    <tag k="name" v="Linden Avenue"/>
    <tag k="source" v="survey"/>
  </way>
  <way id="30382906" version="3" timestamp="2010-07-07T21:53:51Z" uid="74617" user="JohnSmith" changeset="5161069">
    <nd ref="335315926"/>
    <nd ref="58314574"/>
    <tag k="highway" v="residential"/>
    <tag k="maxspeed" v="50"/>
    <tag k="maxspeed:source" v="default residential speed limit in Australia"/>
    <tag k="name" v="Linden Avenue"/>
    <tag k="source" v="survey"/>
  </way>
  <way id="30382906" version="4" timestamp="2012-01-18T04:01:51Z" uid="147510" user="woodpeck_fixbot" changeset="10424025">
    <nd ref="335315926"/>
    <nd ref="58314574"/>
    <tag k="highway" v="residential"/>
    <tag k="name" v="Linden Avenue"/>
    <tag k="source" v="survey"/>
  </way>
  <way id="30382908" version="1" timestamp="2009-01-22T12:35:52Z" uid="7617" user="Franc" changeset="824969">
    <nd ref="335316035"/>
    <nd ref="335316021"/>
    <nd ref="335315926"/>
    <nd ref="335316005"/>
    <nd ref="335315990"/>
    <nd ref="335315982"/>
    <nd ref="335315968"/>
    <nd ref="335315952"/>
    <nd ref="335315936"/>
    <nd ref="335316055"/>
    <nd ref="58327753"/>
    <tag k="created_by" v="Potlatch 0.10f"/>
    <tag k="highway" v="residential"/>
    <tag k="name" v="Wallaroy Road"/>
    <tag k="source" v="Yahoo Imagery; survey; survey"/>
  </way>
  <way id="30382908" version="2" timestamp="2009-04-25T05:53:53Z" uid="7617" user="Franc" changeset="937621">
    <nd ref="58327753"/>
    <nd ref="335316055"/>
    <nd ref="335315936"/>
    <nd ref="335315952"/>
    <nd ref="335315968"/>
    <nd ref="335315982"/>
    <nd ref="335315990"/>
    <nd ref="335316005"/>
    <nd ref="384257381"/>
    <nd ref="384257382"/>
    <nd ref="384257380"/>
    <nd ref="335316035"/>
    <nd ref="384257377"/>
    <nd ref="384257375"/>
    <nd ref="384257376"/>
    <nd ref="384257367"/>
    <nd ref="384257370"/>
    <nd ref="384257371"/>
    <nd ref="384257369"/>
    <nd ref="384257368"/>
    <nd ref="384257372"/>
    <nd ref="384257373"/>
    <nd ref="384257374"/>
    <nd ref="384257365"/>
    <nd ref="247080689"/>
    <tag k="created_by" v="Potlatch 0.10f"/>
    <tag k="highway" v="residential"/>
    <tag k="name" v="Wallaroy Road"/>
    <tag k="source" v="survey"/>
  </way>
  <way id="30382908" version="3" timestamp="2009-11-14T12:04:03Z" uid="117890" user="Jonathan Trott" changeset="3112508">
    <nd ref="58327753"/>
    <nd ref="335316055"/>
    <nd ref="335315936"/>
    <nd ref="335315952"/>
    <nd ref="335315968"/>
    <nd ref="335315982"/>
    <nd ref="335315990"/>
    <nd ref="335316005"/>
    <nd ref="384257381"/>
    <nd ref="384257382"/>
    <nd ref="384257380"/>
    <nd ref="335316035"/>
    <nd ref="384257377"/>
    <nd ref="384257375"/>
    <nd ref="384257376"/>
    <nd ref="384257367"/>
    <nd ref="384257370"/>
    <nd ref="384257371"/>
    <nd ref="384257369"/>
    <nd ref="384257368"/>
    <nd ref="384257372"/>
    <nd ref="384257373"/>
    <nd ref="384257374"/>
    <nd ref="384257365"/>
    <nd ref="247080689"/>
    <tag k="highway" v="residential"/>
    <tag k="name" v="Wallaroy Road"/>
    <tag k="source" v="survey"/>
  </way>
  <way id="30382908" version="4" timestamp="2010-07-07T21:49:11Z" uid="74617" user="JohnSmith" changeset="5161069">
    <nd ref="58327753"/>
    <nd ref="335316055"/>
    <nd ref="335315936"/>
    <nd ref="335315952"/>
    <nd ref="335315968"/>
    <nd ref="335315982"/>
    <nd ref="335315990"/>
    <nd ref="335316005"/>
    <nd ref="384257381"/>
    <nd ref="384257382"/>
    <nd ref="384257380"/>
    <nd ref="335316035"/>
    <nd ref="384257377"/>
    <nd ref="384257375"/>
    <nd ref="384257376"/>
    <nd ref="384257367"/>
    <nd ref="384257370"/>
    <nd ref="384257371"/>
    <nd ref="384257369"/>
    <nd ref="384257368"/>
    <nd ref="384257372"/>
    <nd ref="384257373"/>
    <nd ref="384257374"/>
    <nd ref="384257365"/>
    <nd ref="247080689"/>
    <tag k="highway" v="residential"/>
    <tag k="maxspeed" v="50"/>
    <tag k="maxspeed:source" v="default residential speed limit in Australia"/>
    <tag k="name" v="Wallaroy Road"/>
    <tag k="source" v="survey"/>
  </way>
  <way id="30382908" version="5" timestamp="2011-03-18T22:36:33Z" uid="7617" user="Franc" changeset="7600161">
    <nd ref="58327753"/>
    <nd ref="1207951803"/>
    <nd ref="1207951828"/>
    <tag k="highway" v="residential"/>
    <tag k="maxspeed" v="50"/>
    <tag k="maxspeed:source" v="default residential speed limit in Australia"/>
    <tag k="name" v="Wallaroy Road"/>
    <tag k="restriction" v="school_zone"/>
    <tag k="source" v="survey"/>
  </way>
  <way id="30382908" version="6" timestamp="2012-01-18T04:01:52Z" uid="147510" user="woodpeck_fixbot" changeset="10424025">
    <nd ref="58327753"/>
    <nd ref="1207951803"/>
    <nd ref="1207951828"/>
    <tag k="highway" v="residential"/>
    <tag k="name" v="Wallaroy Road"/>
    <tag k="restriction" v="school_zone"/>
    <tag k="source" v="survey"/>
  </way>
  <way id="30382911" version="1" timestamp="2009-01-22T12:35:53Z" uid="7617" user="Franc" changeset="824969">
    <nd ref="335316055"/>
    <nd ref="58327801"/>
    <nd ref="58327804"/>
    <tag k="created_by" v="JOSM"/>
    <tag k="highway" v="residential"/>
    <tag k="name" v="Weeroona Avenue"/>
    <tag k="source" v="survey"/>
  </way>
  <way id="30382911" version="2" timestamp="2009-11-14T12:10:58Z" uid="117890" user="Jonathan Trott" changeset="3112508">
    <nd ref="335316055"/>
    <nd ref="58327801"/>
    <nd ref="58327804"/>
    <tag k="highway" v="residential"/>
    <tag k="name" v="Weeroona Avenue"/>
    <tag k="source" v="survey"/>
  </way>
  <way id="30382911" version="3" timestamp="2010-07-07T21:52:24Z" uid="74617" user="JohnSmith" changeset="5161069">
    <nd ref="335316055"/>
    <nd ref="58327801"/>
    <nd ref="58327804"/>
    <tag k="highway" v="residential"/>
    <tag k="maxspeed" v="50"/>
    <tag k="maxspeed:source" v="default residential speed limit in Australia"/>
    <tag k="name" v="Weeroona Avenue"/>
    <tag k="source" v="survey"/>
  </way>
  <way id="30382911" version="4" timestamp="2012-01-18T04:01:53Z" uid="147510" user="woodpeck_fixbot" changeset="10424025">
    <nd ref="335316055"/>
    <nd ref="58327801"/>
    <nd ref="58327804"/>
    <tag k="highway" v="residential"/>
    <tag k="name" v="Weeroona Avenue"/>
    <tag k="source" v="survey"/>
  </way>
  <way id="30382912" version="1" timestamp="2009-01-22T12:35:54Z" uid="7617" user="Franc" changeset="824969">
    <nd ref="335316074"/>
    <nd ref="335316097"/>
    <tag k="highway" v="residential"/>
    <tag k="source" v="yahoo_imagery"/>
  </way>
  <way id="30382912" version="2" timestamp="2009-01-22T12:51:39Z" uid="7617" user="Franc" changeset="824969">
    <nd ref="286700439"/>
    <nd ref="335316097"/>
    <tag k="highway" v="residential"/>
    <tag k="source" v="yahoo_imagery"/>
  </way>
  <way id="30382912" version="3" timestamp="2009-02-15T10:21:45Z" uid="18713" user="Diego" changeset="461669">
    <nd ref="247083287"/>
    <nd ref="286700439"/>
    <nd ref="335316097"/>
    <tag k="highway" v="residential"/>
    <tag k="source" v="yahoo_imagery"/>
  </way>
  <way id="30382912" version="4" timestamp="2009-04-12T02:10:58Z" uid="7617" user="Franc" changeset="437175">
    <nd ref="247083287"/>
    <nd ref="373029502"/>
    <nd ref="286700439"/>
    <tag k="highway" v="residential"/>
    <tag k="name" v="Trelawney Street"/>
    <tag k="source" v="survey"/>
  </way>
  <way id="30382912" version="5" timestamp="2009-11-14T12:11:00Z" uid="117890" user="Jonathan Trott" changeset="3112508">
    <nd ref="247083287"/>
    <nd ref="373029502"/>
    <nd ref="286700439"/>
    <tag k="highway" v="residential"/>
    <tag k="name" v="Trelawney Street"/>
    <tag k="source" v="survey"/>
  </way>
  <way id="30382912" version="6" timestamp="2010-06-28T19:05:14Z" uid="20949" user="Ebenezer" changeset="5100267">
    <nd ref="247083287"/>
    <nd ref="373029502"/>
    <nd ref="286700439"/>
    <tag k="highway" v="residential"/>
    <tag k="lcn" v="yes"/>
    <tag k="name" v="Trelawney Street"/>
    <tag k="source" v="survey"/>
  </way>
  <way id="30382912" version="7" timestamp="2010-07-07T21:54:56Z" uid="74617" user="JohnSmith" changeset="5161069">
    <nd ref="247083287"/>
    <nd ref="373029502"/>
    <nd ref="286700439"/>
    <tag k="highway" v="residential"/>
    <tag k="lcn" v="yes"/>
    <tag k="maxspeed" v="50"/>
    <tag k="maxspeed:source" v="default residential speed limit in Australia"/>
    <tag k="name" v="Trelawney Street"/>
    <tag k="source" v="survey"/>
  </way>
  <way id="30382912" version="8" timestamp="2012-01-18T04:01:54Z" uid="147510" user="woodpeck_fixbot" changeset="10424025">
    <nd ref="247083287"/>
    <nd ref="373029502"/>
    <nd ref="286700439"/>
    <tag k="highway" v="residential"/>
    <tag k="lcn" v="yes"/>
    <tag k="name" v="Trelawney Street"/>
    <tag k="source" v="survey"/>
  </way>
  <way id="30382912" version="9" timestamp="2012-03-20T21:56:05Z" uid="7523" user="inas" changeset="11046269">
    <nd ref="247083287"/>
    <nd ref="373029502"/>
    <nd ref="286700439"/>
    <tag k="highway" v="residential"/>
    <tag k="lcn" v="yes"/>
    <tag k="name" v="Trelawney Street"/>
    <tag k="note" v="bicyle lane on eastbound section as far as ocean"/>
    <tag k="source" v="survey"/>
  </way>
</osm>
