<?xml version='1.0' encoding='UTF-8'?>
<osm version="0.6" generator="libosmium/2.20.0">
  <way id="3058245" version="2" timestamp="2008-07-05T17:08:11Z" uid="6975" user="ulfl" changeset="398437">
    <nd ref="13805088"/>
    <nd ref="14566582"/>
    <nd ref="14566581"/>
    <nd ref="14566579"/>
    <nd ref="14566578"/>
    <nd ref="15481719"/>
    <tag k="highway" v="residential"/>
    <tag k="name" v="Elgar Road"/>
    <tag k="ncn_ref" v="4"/>
    <tag k="route" v="bicycle"/>
  </way>
  <way id="3058245" version="3" timestamp="2011-02-13T11:26:38Z" uid="13241" user="spark" changeset="7274104">
    <nd ref="13805088"/>
    <nd ref="14566582"/>
    <nd ref="14566581"/>
    <nd ref="14566579"/>
    <nd ref="1150764069"/>
    <nd ref="14566578"/>
    <nd ref="15481719"/>
    <tag k="highway" v="residential"/>
    <tag k="name" v="Elgar Road"/>
    <tag k="ncn_ref" v="4"/>
    <tag k="route" v="bicycle"/>
  </way>
  <way id="3058245" version="4" timestamp="2011-06-03T21:39:46Z" uid="13241" user="spark" changeset="8334365">
    <nd ref="13805088"/>
    <nd ref="14566582"/>
    <nd ref="14566581"/>
    <nd ref="14566579"/>
    <nd ref="1150764069"/>
    <nd ref="14566578"/>
    <nd ref="15481719"/>
    <tag k="highway" v="residential"/>
    <tag k="lcn_ref" v="10"/>
    <tag k="name" v="Elgar Road"/>
    <tag k="ncn_ref" v="4"/>
    <tag k="route" v="bicycle"/>
  </way>
  <way id="3058245" version="5" timestamp="2011-09-12T14:22:50Z" uid="115894" user="DaveF" changeset="9280626">
    <nd ref="13805088"/>
    <nd ref="14566582"/>
    <nd ref="14566581"/>
    <nd ref="14566579"/>
    <nd ref="1150764069"/>
    <nd ref="14566578"/>
    <nd ref="15481719"/>
    <tag k="highway" v="residential"/>
    <tag k="lcn_ref" v="10"/>
    <tag k="name" v="Elgar Road"/>
    <tag k="route" v="bicycle"/>
  </way>
</osm>
