<?xml version='1.0' encoding='UTF-8'?>
<osm version="0.6" generator="libosmium/2.20.0">
  <way id="30621028" version="4" timestamp="2009-12-08T08:39:25Z" uid="200463" user="harmagedon" changeset="3322149">
    <nd ref="310184003"/>
    <nd ref="338649692"/>
    <nd ref="338649693"/>
    <nd ref="316249157"/>
    <tag k="highway" v="residential"/>
    <tag k="maxspeed" v="30"/>
  </way>
  <way id="30621028" version="5" timestamp="2011-08-28T18:44:42Z" uid="164914" user="UlrichDemlehner" changeset="9150355"/>
  <way id="30621647" version="1" timestamp="2009-01-28T14:53:37Z" uid="20587" user="balrog-kun" changeset="848510">
    <nd ref="338661511"/>
    <nd ref="338661512"/>
    <nd ref="338661514"/>
    <nd ref="338661524"/>
    <nd ref="338661525"/>
    <nd ref="338661518"/>
    <nd ref="338661520"/>
    <nd ref="338661519"/>
    <nd ref="338661517"/>
    <nd ref="338661521"/>
    <nd ref="338661522"/>
    <nd ref="338661513"/>
    <nd ref="338661511"/>
    <tag k="addr:housenumber" v="6"/>
    <tag k="addr:street" v="Smolna"/>
    <tag k="building" v="yes"/>
    <tag k="source:addr" v="msi"/>
  </way>
  <way id="30621648" version="1" timestamp="2009-01-28T14:53:38Z" uid="20587" user="balrog-kun" changeset="848510">
    <nd ref="32892158"/>
    <nd ref="338661531"/>
    <nd ref="338661530"/>
    <nd ref="338661529"/>
    <nd ref="338661528"/>
    <nd ref="338661527"/>
    <nd ref="338661526"/>
    <tag k="highway" v="tertiary"/>
    <tag k="oneway" v="yes"/>
  </way>
  <way id="30621648" version="2" timestamp="2010-05-01T17:18:39Z" uid="20587" user="balrog-kun" changeset="4577369">
    <nd ref="32892158"/>
    <nd ref="338661531"/>
    <nd ref="338661530"/>
    <nd ref="338661529"/>
    <nd ref="338661528"/>
    <nd ref="338661527"/>
    <nd ref="338661526"/>
    <tag k="highway" v="tertiary"/>
    <tag k="lanes" v="1"/>
    <tag k="oneway" v="yes"/>
  </way>
  <way id="30621649" version="1" timestamp="2009-01-28T14:53:38Z" uid="20587" user="balrog-kun" changeset="848510">
    <nd ref="338661533"/>
    <nd ref="338661532"/>
    <nd ref="317095611"/>
    <nd ref="317095609"/>
    <nd ref="338661533"/>
    <tag k="addr:housenumber" v="16"/>
    <tag k="addr:street" v="Smolna"/>
    <tag k="building" v="yes"/>
    <tag k="building:levels" v="4"/>
  </way>
  <way id="30621650" version="1" timestamp="2009-01-28T14:53:38Z" uid="20587" user="balrog-kun" changeset="848510">
    <nd ref="317095608"/>
    <nd ref="317095610"/>
    <nd ref="338661532"/>
    <nd ref="338661533"/>
    <nd ref="317095608"/>
    <tag k="addr:housenumber" v="18"/>
    <tag k="addr:street" v="Smolna"/>
    <tag k="building" v="yes"/>
    <tag k="building:levels" v="4"/>
  </way>
  <way id="30621651" version="1" timestamp="2009-01-28T14:53:38Z" uid="20587" user="balrog-kun" changeset="848510">
    <nd ref="282495892"/>
    <nd ref="317095598"/>
    <nd ref="282495877"/>
    <nd ref="282495878"/>
    <tag k="highway" v="living_street"/>
  </way>
  <way id="30621652" version="1" timestamp="2009-01-28T14:53:39Z" uid="20587" user="balrog-kun" changeset="848510">
    <nd ref="317095580"/>
    <nd ref="317095579"/>
    <nd ref="338661535"/>
    <nd ref="338661536"/>
    <nd ref="338661537"/>
    <nd ref="338661538"/>
    <nd ref="317095620"/>
    <nd ref="317095617"/>
    <nd ref="317095618"/>
    <nd ref="338661539"/>
    <nd ref="317095581"/>
    <nd ref="317095586"/>
    <nd ref="317095580"/>
    <tag k="amenity" v="school"/>
  </way>
  <way id="30621653" version="1" timestamp="2009-01-28T14:53:39Z" uid="20587" user="balrog-kun" changeset="848510">
    <nd ref="338661540"/>
    <nd ref="338661541"/>
    <nd ref="338661543"/>
    <nd ref="338661542"/>
    <nd ref="338661540"/>
    <tag k="addr:housenumber" v="44/46"/>
    <tag k="addr:street" v="Złota"/>
    <tag k="building" v="yes"/>
    <tag k="source:addr" v="msi"/>
  </way>
  <way id="30621653" version="2" timestamp="2009-01-28T15:31:37Z" uid="20587" user="balrog-kun" changeset="848510">
    <nd ref="338661540"/>
    <nd ref="338661541"/>
    <nd ref="338661543"/>
    <nd ref="338661542"/>
    <nd ref="338661540"/>
    <tag k="addr:housenumber" v="44/46"/>
    <tag k="addr:street" v="Złota"/>
    <tag k="building" v="yes"/>
    <tag k="building:height" v="192"/>
    <tag k="building:levels" v="54"/>
    <tag k="landuse" v="construction"/>
    <tag k="name" v="City Center"/>
    <tag k="note" v="This isn&apos;t the strict city centre, just a name they gave to the building.  Under construction until 2010"/>
    <tag k="operator" v="Orco Property Group"/>
    <tag k="source:addr" v="msi"/>
  </way>
  <way id="30621653" version="3" timestamp="2009-04-12T03:31:07Z" uid="20587" user="balrog-kun" changeset="432792">
    <nd ref="338661540"/>
    <nd ref="338661541"/>
    <nd ref="338661543"/>
    <nd ref="338661542"/>
    <nd ref="338661540"/>
    <tag k="addr:housenumber" v="44/46"/>
    <tag k="addr:street" v="Złota"/>
    <tag k="building" v="yes"/>
    <tag k="building:height" v="21"/>
    <tag k="building:levels" v="4"/>
    <tag k="loc_name" v="Pewex"/>
    <tag k="name" v="City Center"/>
    <tag k="note" v="This isn&apos;t the strict city centre, just a name they gave to the building.  Under construction until 2010"/>
    <tag k="operator" v="Orco Property Group"/>
    <tag k="source:addr" v="msi"/>
    <tag k="wikipedia" v="pl:City Center w Warszawie"/>
  </way>
  <way id="30621653" version="4" timestamp="2010-12-12T21:34:20Z" uid="20587" user="balrog-kun" changeset="6641802">
    <nd ref="338661540"/>
    <nd ref="338661541"/>
    <nd ref="338661543"/>
    <nd ref="338661542"/>
    <nd ref="338661540"/>
    <tag k="addr:housenumber" v="44/46"/>
    <tag k="addr:street" v="Złota"/>
    <tag k="building" v="yes"/>
    <tag k="building:levels" v="4"/>
    <tag k="height" v="21"/>
    <tag k="loc_name" v="Pewex"/>
    <tag k="name" v="City Center"/>
    <tag k="note" v="This isn&apos;t the strict city centre, just a name they gave to the building.  Under construction until 2010"/>
    <tag k="operator" v="Orco Property Group"/>
    <tag k="source:addr" v="msi"/>
    <tag k="wikipedia" v="pl:City Center w Warszawie"/>
  </way>
  <way id="30621653" version="5" timestamp="2011-10-14T16:30:24Z" uid="477744" user="hormel" changeset="9557004">
    <nd ref="338661540"/>
    <nd ref="338661541"/>
    <nd ref="338661543"/>
    <nd ref="338661542"/>
    <nd ref="338661540"/>
    <tag k="addr:housenumber" v="44/46"/>
    <tag k="addr:street" v="Złota"/>
    <tag k="building" v="yes"/>
    <tag k="building:levels" v="4"/>
    <tag k="demolished" v="13-04-2007"/>
    <tag k="height" v="21"/>
    <tag k="loc_name" v="Pewex"/>
    <tag k="name" v="City Center"/>
    <tag k="note" v="This isn&apos;t the strict city centre, just a name they gave to the building.  Under construction until 2010"/>
    <tag k="operator" v="Orco Property Group"/>
    <tag k="source:addr" v="msi"/>
    <tag k="wikipedia" v="pl:City Center w Warszawie"/>
  </way>
  <way id="30621653" version="6" timestamp="2011-10-23T22:01:24Z" uid="477744" user="hormel" changeset="9638784">
    <nd ref="338661540"/>
    <nd ref="338661541"/>
    <nd ref="338661543"/>
    <nd ref="338661542"/>
    <nd ref="338661540"/>
    <tag k="addr:housenumber" v="44/46"/>
    <tag k="addr:street" v="Złota"/>
    <tag k="building:levels" v="4"/>
    <tag k="demolished" v="13-04-2007"/>
    <tag k="height" v="21"/>
    <tag k="loc_name" v="Pewex"/>
    <tag k="name" v="City Center"/>
    <tag k="note" v="This isn&apos;t the strict city centre, just a name they gave to the building.  Under construction until 2010"/>
    <tag k="operator" v="Orco Property Group"/>
    <tag k="source:addr" v="msi"/>
    <tag k="wikipedia" v="pl:City Center w Warszawie"/>
  </way>
  <way id="30621653" version="7" timestamp="2011-11-02T01:23:00Z" uid="477744" user="hormel" changeset="9718406">
    <nd ref="338661540"/>
    <nd ref="338661541"/>
    <nd ref="338661543"/>
    <nd ref="338661542"/>
    <nd ref="338661540"/>
    <tag k="addr:housenumber" v="44/46"/>
    <tag k="addr:street" v="Złota"/>
    <tag k="building:levels" v="4"/>
    <tag k="demolished" v="13-04-2007"/>
    <tag k="height" v="21"/>
    <tag k="loc_name" v="Pewex"/>
    <tag k="note" v="This isn&apos;t the strict city centre, just a name they gave to the building.  Under construction until 2010"/>
    <tag k="old_name" v="City Center"/>
    <tag k="operator" v="Orco Property Group"/>
    <tag k="source:addr" v="msi"/>
    <tag k="wikipedia" v="pl:City Center w Warszawie"/>
  </way>
  <way id="30621653" version="8" timestamp="2012-02-08T20:18:26Z" uid="598860" user="Marek-M" changeset="10628191"/>
  <way id="30621654" version="1" timestamp="2009-01-28T14:53:39Z" uid="20587" user="balrog-kun" changeset="848510">
    <nd ref="338661578"/>
    <nd ref="338661555"/>
    <nd ref="338661553"/>
    <nd ref="338661552"/>
    <nd ref="338661554"/>
    <nd ref="338661556"/>
    <nd ref="338661558"/>
    <nd ref="338661559"/>
    <nd ref="338661557"/>
    <nd ref="338661577"/>
    <nd ref="338661578"/>
    <tag k="addr:housenumber" v="41"/>
    <tag k="addr:street" v="Sienna"/>
    <tag k="building" v="yes"/>
  </way>
  <way id="30621654" version="2" timestamp="2009-01-28T15:10:18Z" uid="20587" user="balrog-kun" changeset="848510">
    <nd ref="338661578"/>
    <nd ref="338661555"/>
    <nd ref="338661553"/>
    <nd ref="338661552"/>
    <nd ref="338661554"/>
    <nd ref="338661556"/>
    <nd ref="338661558"/>
    <nd ref="338661559"/>
    <nd ref="338661557"/>
    <nd ref="338661577"/>
    <nd ref="338661578"/>
    <tag k="addr:housenumber" v="41"/>
    <tag k="addr:street" v="Sienna"/>
    <tag k="building" v="yes"/>
    <tag k="source:addr" v="msi"/>
  </way>
  <way id="30621655" version="1" timestamp="2009-01-28T14:53:40Z" uid="20587" user="balrog-kun" changeset="848510">
    <nd ref="338661579"/>
    <nd ref="338661580"/>
    <nd ref="338661582"/>
    <nd ref="338661581"/>
    <nd ref="338661579"/>
    <tag k="amenity" v="parking"/>
  </way>
  <way id="30621656" version="1" timestamp="2009-01-28T14:53:40Z" uid="20587" user="balrog-kun" changeset="848510">
    <nd ref="338661583"/>
    <nd ref="338661584"/>
    <nd ref="338661586"/>
    <nd ref="338661585"/>
    <nd ref="338661583"/>
    <tag k="addr:housenumber" v="53"/>
    <tag k="addr:street" v="Emilii Plater"/>
    <tag k="building" v="yes"/>
    <tag k="building:height" v="144"/>
    <tag k="building:levels" v="34"/>
    <tag k="name" v="Warszawskie Centrum Finansowe (WFC)"/>
    <tag k="name:en" v="Warsaw Financial Centre"/>
    <tag k="wikipedia" v="pl:Warsaw Financial Center"/>
  </way>
  <way id="30621656" version="2" timestamp="2010-12-12T21:34:22Z" uid="20587" user="balrog-kun" changeset="6641802">
    <nd ref="338661583"/>
    <nd ref="338661584"/>
    <nd ref="338661586"/>
    <nd ref="338661585"/>
    <nd ref="338661583"/>
    <tag k="addr:housenumber" v="53"/>
    <tag k="addr:street" v="Emilii Plater"/>
    <tag k="building" v="yes"/>
    <tag k="building:levels" v="34"/>
    <tag k="height" v="144"/>
    <tag k="name" v="Warszawskie Centrum Finansowe (WFC)"/>
    <tag k="name:en" v="Warsaw Financial Centre"/>
    <tag k="wikipedia" v="pl:Warsaw Financial Center"/>
  </way>
  <way id="30621657" version="1" timestamp="2009-01-28T14:53:41Z" uid="20587" user="balrog-kun" changeset="848510">
    <nd ref="338661566"/>
    <nd ref="338661565"/>
    <nd ref="338661563"/>
    <nd ref="338661575"/>
    <nd ref="338661601"/>
    <nd ref="338661602"/>
    <nd ref="338661595"/>
    <nd ref="338661597"/>
    <nd ref="338661598"/>
    <nd ref="338661596"/>
    <nd ref="338661599"/>
    <nd ref="338661600"/>
    <nd ref="338661576"/>
    <nd ref="338661561"/>
    <nd ref="338661559"/>
    <nd ref="338661558"/>
    <nd ref="338661560"/>
    <nd ref="338661562"/>
    <nd ref="338661564"/>
    <nd ref="338661566"/>
    <tag k="addr:housenumber" v="43"/>
    <tag k="addr:street" v="Sienna"/>
    <tag k="building" v="yes"/>
  </way>
  <way id="30621657" version="2" timestamp="2009-01-28T15:10:18Z" uid="20587" user="balrog-kun" changeset="848510">
    <nd ref="338661566"/>
    <nd ref="338661565"/>
    <nd ref="338661563"/>
    <nd ref="338661575"/>
    <nd ref="338661601"/>
    <nd ref="338661602"/>
    <nd ref="338661595"/>
    <nd ref="338661597"/>
    <nd ref="338661598"/>
    <nd ref="338661596"/>
    <nd ref="338661599"/>
    <nd ref="338661600"/>
    <nd ref="338661576"/>
    <nd ref="338661561"/>
    <nd ref="338661559"/>
    <nd ref="338661558"/>
    <nd ref="338661560"/>
    <nd ref="338661562"/>
    <nd ref="338661564"/>
    <nd ref="338661566"/>
    <tag k="addr:housenumber" v="43"/>
    <tag k="addr:street" v="Sienna"/>
    <tag k="building" v="yes"/>
    <tag k="source:addr" v="msi"/>
  </way>
  <way id="30621658" version="1" timestamp="2009-01-28T14:53:41Z" uid="20587" user="balrog-kun" changeset="848510">
    <nd ref="338661574"/>
    <nd ref="338661568"/>
    <nd ref="338661566"/>
    <nd ref="338661564"/>
    <nd ref="338661567"/>
    <nd ref="338661569"/>
    <nd ref="338661571"/>
    <nd ref="338661572"/>
    <nd ref="338661570"/>
    <nd ref="338661573"/>
    <nd ref="338661574"/>
    <tag k="addr:housenumber" v="45"/>
    <tag k="addr:street" v="Sienna"/>
    <tag k="building" v="yes"/>
  </way>
  <way id="30621658" version="2" timestamp="2009-01-28T15:10:19Z" uid="20587" user="balrog-kun" changeset="848510">
    <nd ref="338661574"/>
    <nd ref="338661568"/>
    <nd ref="338661566"/>
    <nd ref="338661564"/>
    <nd ref="338661567"/>
    <nd ref="338661569"/>
    <nd ref="338661571"/>
    <nd ref="338661572"/>
    <nd ref="338661570"/>
    <nd ref="338661573"/>
    <nd ref="338661574"/>
    <tag k="addr:housenumber" v="45"/>
    <tag k="addr:street" v="Sienna"/>
    <tag k="building" v="yes"/>
    <tag k="source:addr" v="msi"/>
  </way>
  <way id="30621659" version="1" timestamp="2009-01-28T14:53:41Z" uid="20587" user="balrog-kun" changeset="848510">
    <nd ref="338661588"/>
    <nd ref="338661587"/>
    <nd ref="338661589"/>
    <nd ref="338661590"/>
    <nd ref="338661588"/>
  </way>
  <way id="30621660" version="1" timestamp="2009-01-28T14:53:41Z" uid="20587" user="balrog-kun" changeset="848510">
    <nd ref="338661591"/>
    <nd ref="338661593"/>
    <nd ref="338661594"/>
    <nd ref="338661592"/>
    <nd ref="338661591"/>
  </way>
  <way id="30621661" version="1" timestamp="2009-01-28T14:53:42Z" uid="20587" user="balrog-kun" changeset="848510">
    <nd ref="338661603"/>
    <nd ref="338661604"/>
    <nd ref="338661606"/>
    <nd ref="338661609"/>
    <nd ref="338661608"/>
    <nd ref="338661607"/>
    <nd ref="338661605"/>
    <nd ref="338661603"/>
    <tag k="addr:housenumber" v="12"/>
    <tag k="addr:street" v="Aleja Jana Pawła II"/>
    <tag k="building" v="yes"/>
  </way>
  <way id="30621661" version="2" timestamp="2009-01-28T15:10:19Z" uid="20587" user="balrog-kun" changeset="848510">
    <nd ref="338661603"/>
    <nd ref="338661604"/>
    <nd ref="338661606"/>
    <nd ref="338661609"/>
    <nd ref="338661608"/>
    <nd ref="338661607"/>
    <nd ref="338661605"/>
    <nd ref="338661603"/>
    <tag k="addr:housenumber" v="12"/>
    <tag k="addr:street" v="Aleja Jana Pawła II"/>
    <tag k="building" v="yes"/>
    <tag k="name" v="Kaskada"/>
    <tag k="source:addr" v="msi"/>
  </way>
  <way id="30621662" version="1" timestamp="2009-01-28T14:53:42Z" uid="20587" user="balrog-kun" changeset="848510">
    <nd ref="338661610"/>
    <nd ref="338661611"/>
    <nd ref="338661613"/>
    <nd ref="338661615"/>
    <nd ref="338661618"/>
    <nd ref="338661616"/>
    <nd ref="338661614"/>
    <nd ref="338661612"/>
    <nd ref="338661610"/>
    <tag k="addr:housenumber" v="48/54"/>
    <tag k="addr:street" v="Złota"/>
    <tag k="building" v="yes"/>
  </way>
  <way id="30621662" version="2" timestamp="2011-10-14T16:30:25Z" uid="477744" user="hormel" changeset="9557004">
    <nd ref="338661610"/>
    <nd ref="338661611"/>
    <nd ref="338661618"/>
    <nd ref="338661616"/>
    <nd ref="338661610"/>
    <tag k="addr:housenumber" v="48/54"/>
    <tag k="addr:street" v="Złota"/>
    <tag k="building" v="yes"/>
  </way>
  <way id="30621663" version="1" timestamp="2009-01-28T14:53:42Z" uid="20587" user="balrog-kun" changeset="848510">
    <nd ref="338661619"/>
    <nd ref="338661620"/>
    <nd ref="338661622"/>
    <nd ref="338661621"/>
    <nd ref="338661619"/>
    <tag k="addr:housenumber" v="1"/>
    <tag k="addr:street" v="Plac Grzybowski"/>
    <tag k="building" v="yes"/>
    <tag k="name" v="STOEN"/>
    <tag k="source" v="msi"/>
  </way>
  <way id="30621664" version="1" timestamp="2009-01-28T14:53:42Z" uid="20587" user="balrog-kun" changeset="848510">
    <nd ref="338661626"/>
    <nd ref="338661627"/>
    <nd ref="338661631"/>
    <nd ref="338661629"/>
    <nd ref="338661626"/>
    <tag k="addr:housenumber" v="7"/>
    <tag k="addr:street" v="Bagno"/>
    <tag k="building" v="residential"/>
    <tag k="source:addr" v="msi"/>
  </way>
  <way id="30621664" version="2" timestamp="2011-02-05T18:35:56Z" uid="20587" user="balrog-kun" changeset="7195763">
    <nd ref="338661626"/>
    <nd ref="338661627"/>
    <nd ref="338661631"/>
    <nd ref="338661629"/>
    <nd ref="338661626"/>
    <tag k="addr:housenumber" v="7"/>
    <tag k="addr:street" v="Bagno"/>
    <tag k="building" v="residential"/>
    <tag k="building:levels" v="11"/>
    <tag k="source:addr" v="msi"/>
  </way>
  <way id="30621665" version="1" timestamp="2009-01-28T14:53:43Z" uid="20587" user="balrog-kun" changeset="848510">
    <nd ref="338661639"/>
    <nd ref="338661633"/>
    <nd ref="338661637"/>
    <nd ref="338661635"/>
    <nd ref="338661639"/>
    <tag k="addr:housenumber" v="5"/>
    <tag k="addr:street" v="Bagno"/>
    <tag k="building" v="residential"/>
    <tag k="source:addr" v="msi"/>
  </way>
  <way id="30621665" version="2" timestamp="2011-02-05T18:35:30Z" uid="20587" user="balrog-kun" changeset="7195763">
    <nd ref="338661639"/>
    <nd ref="338661633"/>
    <nd ref="338661637"/>
    <nd ref="338661635"/>
    <nd ref="338661639"/>
    <tag k="addr:housenumber" v="5"/>
    <tag k="addr:street" v="Bagno"/>
    <tag k="building" v="residential"/>
    <tag k="building:levels" v="11"/>
    <tag k="source:addr" v="msi"/>
  </way>
  <way id="30621666" version="1" timestamp="2009-01-28T14:53:43Z" uid="20587" user="balrog-kun" changeset="848510">
    <nd ref="338661641"/>
    <nd ref="338661644"/>
    <nd ref="338661642"/>
    <nd ref="338661649"/>
    <nd ref="338661641"/>
    <tag k="addr:housenumber" v="3"/>
    <tag k="addr:street" v="Bagno"/>
    <tag k="building" v="residential"/>
    <tag k="source:addr" v="msi"/>
  </way>
  <way id="30621666" version="2" timestamp="2011-02-05T18:35:22Z" uid="20587" user="balrog-kun" changeset="7195763">
    <nd ref="338661641"/>
    <nd ref="338661644"/>
    <nd ref="338661642"/>
    <nd ref="338661649"/>
    <nd ref="338661641"/>
    <tag k="addr:housenumber" v="3"/>
    <tag k="addr:street" v="Bagno"/>
    <tag k="building" v="residential"/>
    <tag k="building:levels" v="11"/>
    <tag k="source:addr" v="msi"/>
  </way>
  <way id="30621667" version="1" timestamp="2009-01-28T14:53:43Z" uid="20587" user="balrog-kun" changeset="848510">
    <nd ref="338661660"/>
    <nd ref="338661664"/>
    <nd ref="338661652"/>
    <nd ref="338661668"/>
    <nd ref="338661670"/>
    <nd ref="338661656"/>
    <nd ref="338661662"/>
    <nd ref="338661658"/>
    <nd ref="338661654"/>
    <nd ref="338661666"/>
    <nd ref="338661660"/>
    <tag k="addr:housenumber" v="32"/>
    <tag k="addr:postcode" v="00-693"/>
    <tag k="addr:street" v="Świętokrzyska"/>
    <tag k="building" v="yes"/>
  </way>
  <way id="30621667" version="2" timestamp="2011-02-05T18:36:19Z" uid="20587" user="balrog-kun" changeset="7195763">
    <nd ref="338661660"/>
    <nd ref="338661664"/>
    <nd ref="338661652"/>
    <nd ref="338661656"/>
    <nd ref="338661662"/>
    <nd ref="338661658"/>
    <nd ref="338661654"/>
    <nd ref="338661666"/>
    <nd ref="338661660"/>
    <tag k="addr:housenumber" v="32"/>
    <tag k="addr:postcode" v="00-693"/>
    <tag k="addr:street" v="Świętokrzyska"/>
    <tag k="building" v="residential;retail"/>
    <tag k="building:levels" v="4"/>
  </way>
  <way id="30621680" version="3" timestamp="2010-10-09T18:09:02Z" uid="9581" user="Lobelt" changeset="5995663">
    <nd ref="267373184"/>
    <nd ref="68763763"/>
    <nd ref="82496794"/>
    <tag k="highway" v="secondary"/>
    <tag k="lanes" v="1"/>
    <tag k="maxspeed" v="70"/>
    <tag k="ref" v="L 1073"/>
  </way>
  <way id="30621680" version="4" timestamp="2010-11-30T19:44:19Z" uid="212079" user="atz" changeset="6497164">
    <nd ref="267373184"/>
    <nd ref="68763763"/>
    <nd ref="82496794"/>
    <tag k="highway" v="secondary"/>
    <tag k="maxspeed" v="70"/>
    <tag k="ref" v="L 1073"/>
  </way>
  <way id="30621680" version="5" timestamp="2012-03-11T10:13:18Z" uid="125832" user="tijuca" changeset="10940889">
    <nd ref="267373184"/>
    <nd ref="68763763"/>
    <nd ref="1669954356"/>
    <tag k="highway" v="secondary"/>
    <tag k="maxspeed" v="70"/>
    <tag k="ref" v="L 1073"/>
  </way>
  <way id="30621684" version="2" timestamp="2009-11-12T21:54:55Z" uid="23543" user="jkjk" changeset="3102110">
    <nd ref="338661778"/>
    <nd ref="338661799"/>
    <nd ref="338661800"/>
    <nd ref="338661801"/>
    <nd ref="338661802"/>
    <nd ref="338661803"/>
    <nd ref="338661804"/>
    <nd ref="338661805"/>
    <nd ref="338661807"/>
    <nd ref="338661809"/>
    <nd ref="338661811"/>
    <nd ref="338661812"/>
    <nd ref="338661813"/>
    <nd ref="338661814"/>
    <nd ref="338661779"/>
    <nd ref="338661778"/>
    <tag k="building" v="yes"/>
    <tag k="name" v="Kostel svaté Anny"/>
    <tag k="source" v="cuzk:km"/>
  </way>
  <way id="30621684" version="3" timestamp="2011-03-01T18:03:44Z" uid="42429" user="FK270673" changeset="7431306">
    <nd ref="338661778"/>
    <nd ref="338661799"/>
    <nd ref="338661800"/>
    <nd ref="338661801"/>
    <nd ref="338661802"/>
    <nd ref="338661803"/>
    <nd ref="338661804"/>
    <nd ref="338661805"/>
    <nd ref="338661807"/>
    <nd ref="338661809"/>
    <nd ref="338661811"/>
    <nd ref="338661812"/>
    <nd ref="338661813"/>
    <nd ref="338661814"/>
    <nd ref="338661779"/>
    <nd ref="338661778"/>
    <tag k="building" v="yes"/>
    <tag k="name" v="Kostel svaté Anny"/>
    <tag k="name:de" v="Annenkirche"/>
    <tag k="source" v="cuzk:km"/>
  </way>
  <way id="30621684" version="4" timestamp="2011-12-21T11:26:58Z" uid="100163" user="Hlav" changeset="10170653">
    <nd ref="338661778"/>
    <nd ref="338661799"/>
    <nd ref="338661800"/>
    <nd ref="338661801"/>
    <nd ref="338661802"/>
    <nd ref="338661803"/>
    <nd ref="338661804"/>
    <nd ref="338661805"/>
    <nd ref="338661807"/>
    <nd ref="338661809"/>
    <nd ref="338661811"/>
    <nd ref="338661812"/>
    <nd ref="338661813"/>
    <nd ref="338661814"/>
    <nd ref="338661779"/>
    <nd ref="338661778"/>
    <tag k="alt_name" v="Pražská křižovatka"/>
    <tag k="building" v="yes"/>
    <tag k="name" v="Kostel svaté Anny"/>
    <tag k="name:de" v="Annenkirche"/>
    <tag k="source" v="cuzk:km"/>
  </way>
  <way id="30621684" version="5" timestamp="2011-12-21T11:27:25Z" uid="100163" user="Hlav" changeset="10170653">
    <nd ref="338661778"/>
    <nd ref="338661799"/>
    <nd ref="338661800"/>
    <nd ref="338661801"/>
    <nd ref="338661802"/>
    <nd ref="338661803"/>
    <nd ref="338661804"/>
    <nd ref="338661805"/>
    <nd ref="338661807"/>
    <nd ref="338661809"/>
    <nd ref="338661811"/>
    <nd ref="338661812"/>
    <nd ref="338661813"/>
    <nd ref="338661814"/>
    <nd ref="338661779"/>
    <nd ref="338661778"/>
    <tag k="alt_name" v="Pražská křižovatka"/>
    <tag k="building" v="yes"/>
    <tag k="name" v="Kostel svaté Anny"/>
    <tag k="name:de" v="Annenkirche"/>
    <tag k="source" v="cuzk:km"/>
    <tag k="wikipedia" v="cs:Kostel svaté Anny (Staré Město)"/>
  </way>
  <way id="30621990" version="1" timestamp="2009-01-28T15:10:14Z" uid="20587" user="balrog-kun" changeset="848510">
    <nd ref="338664832"/>
    <nd ref="338664833"/>
    <nd ref="338664808"/>
    <nd ref="338664800"/>
    <nd ref="338664842"/>
    <nd ref="338664803"/>
    <nd ref="338664838"/>
    <nd ref="338664844"/>
    <nd ref="338664845"/>
    <nd ref="338664847"/>
    <nd ref="338664840"/>
    <nd ref="338664795"/>
    <nd ref="338664792"/>
    <nd ref="338664794"/>
    <nd ref="338664796"/>
    <nd ref="338664798"/>
    <nd ref="338664806"/>
    <nd ref="338664809"/>
    <nd ref="338664811"/>
    <nd ref="338664813"/>
    <nd ref="338664836"/>
    <tag k="building" v="yes"/>
    <tag k="note" v="TODO: trace over aerial pics"/>
  </way>
  <way id="30621990" version="2" timestamp="2009-02-04T20:23:06Z" uid="59223" user="Briquollo" changeset="137601">
    <nd ref="338664836"/>
    <nd ref="338664833"/>
    <nd ref="338664808"/>
    <nd ref="338664800"/>
    <nd ref="338664842"/>
    <nd ref="338664803"/>
    <nd ref="338664838"/>
    <nd ref="338664844"/>
    <nd ref="338664845"/>
    <nd ref="338664847"/>
    <nd ref="338664840"/>
    <nd ref="338664795"/>
    <nd ref="338664792"/>
    <nd ref="338664794"/>
    <nd ref="338664796"/>
    <nd ref="338664798"/>
    <nd ref="338664806"/>
    <nd ref="338664809"/>
    <nd ref="338664811"/>
    <nd ref="338664813"/>
    <nd ref="338664836"/>
    <tag k="building" v="yes"/>
    <tag k="note" v="TODO: trace over aerial pics"/>
  </way>
  <way id="30621990" version="3" timestamp="2009-03-15T12:53:38Z" uid="20587" user="balrog-kun" changeset="814691">
    <nd ref="338664836"/>
    <nd ref="338664833"/>
    <nd ref="338664808"/>
    <nd ref="338664800"/>
    <nd ref="338664842"/>
    <nd ref="338664803"/>
    <nd ref="338664838"/>
    <nd ref="338664844"/>
    <nd ref="338664845"/>
    <nd ref="338664847"/>
    <nd ref="338664840"/>
    <nd ref="338664795"/>
    <nd ref="338664792"/>
    <nd ref="338664794"/>
    <nd ref="338664796"/>
    <nd ref="338664798"/>
    <nd ref="338664806"/>
    <nd ref="338664809"/>
    <nd ref="338664811"/>
    <nd ref="338664813"/>
    <nd ref="338664836"/>
    <tag k="addr:housenumber" v="1"/>
    <tag k="addr:street" v="Rondo ONZ"/>
    <tag k="building" v="yes"/>
    <tag k="building:height" v="192"/>
    <tag k="building:levels" v="40"/>
    <tag k="name" v="Rondo 1"/>
    <tag k="wikipedia" v="pl:Rondo 1"/>
  </way>
  <way id="30621990" version="4" timestamp="2010-12-12T21:34:21Z" uid="20587" user="balrog-kun" changeset="6641802">
    <nd ref="338664836"/>
    <nd ref="338664833"/>
    <nd ref="338664808"/>
    <nd ref="338664800"/>
    <nd ref="338664842"/>
    <nd ref="338664803"/>
    <nd ref="338664838"/>
    <nd ref="338664844"/>
    <nd ref="338664845"/>
    <nd ref="338664847"/>
    <nd ref="338664840"/>
    <nd ref="338664795"/>
    <nd ref="338664792"/>
    <nd ref="338664794"/>
    <nd ref="338664796"/>
    <nd ref="338664798"/>
    <nd ref="338664806"/>
    <nd ref="338664809"/>
    <nd ref="338664811"/>
    <nd ref="338664813"/>
    <nd ref="338664836"/>
    <tag k="addr:housenumber" v="1"/>
    <tag k="addr:street" v="Rondo ONZ"/>
    <tag k="building" v="yes"/>
    <tag k="building:levels" v="40"/>
    <tag k="height" v="192"/>
    <tag k="name" v="Rondo 1"/>
    <tag k="wikipedia" v="pl:Rondo 1"/>
  </way>
  <way id="30621991" version="1" timestamp="2009-01-28T15:10:15Z" uid="20587" user="balrog-kun" changeset="848510">
    <nd ref="338664816"/>
    <nd ref="338664821"/>
    <nd ref="338664824"/>
    <nd ref="338664818"/>
    <nd ref="338664828"/>
    <nd ref="338664829"/>
    <nd ref="338664830"/>
    <nd ref="338664826"/>
    <nd ref="338664816"/>
    <tag k="addr:housenumber" v="1"/>
    <tag k="addr:street" v="Mariańska"/>
    <tag k="building" v="yes"/>
  </way>
  <way id="30621992" version="1" timestamp="2009-01-28T15:10:15Z" uid="20587" user="balrog-kun" changeset="848510">
    <nd ref="338664792"/>
    <nd ref="338664790"/>
    <nd ref="338664791"/>
    <nd ref="338664794"/>
    <nd ref="338664792"/>
    <tag k="addr:housenumber" v="12a"/>
    <tag k="addr:street" v="Aleja Jana Pawła II"/>
    <tag k="building" v="yes"/>
    <tag k="note" v="TODO: trace over aerial pics"/>
    <tag k="source:addr" v="msi"/>
  </way>
</osm>
