<?xml version='1.0' encoding='UTF-8'?>
<osm version="0.6" generator="libosmium/2.20.0">
  <way id="30634154" version="3" timestamp="2010-07-08T19:05:58Z" uid="74617" user="JohnSmith" changeset="5167338">
    <nd ref="267510833"/>
    <nd ref="338813780"/>
    <tag k="highway" v="residential"/>
    <tag k="maxspeed" v="50"/>
    <tag k="maxspeed:source" v="default residential speed limit in Australia"/>
  </way>
  <way id="30634154" version="4" timestamp="2011-02-13T01:57:09Z" uid="400269" user="John Berkers" changeset="7271390">
    <nd ref="267510833"/>
    <nd ref="338813780"/>
    <tag k="highway" v="residential"/>
    <tag k="maxspeed" v="50"/>
    <tag k="maxspeed:source" v="default residential speed limit in Australia"/>
    <tag k="name" v="Chislehurst Court"/>
    <tag k="source:name" v="survey"/>
  </way>
  <way id="30634154" version="5" timestamp="2011-12-26T23:54:26Z" uid="400269" user="John Berkers" changeset="10211997">
    <nd ref="267510833"/>
    <nd ref="338813780"/>
    <tag k="highway" v="residential"/>
    <tag k="maxspeed" v="50"/>
    <tag k="name" v="Chislehurst Court"/>
    <tag k="source:maxspeed" v="AU:urban"/>
    <tag k="source:name" v="survey"/>
  </way>
  <way id="30634154" version="6" timestamp="2012-01-18T04:38:56Z" uid="147510" user="woodpeck_fixbot" changeset="10424371">
    <nd ref="267510833"/>
    <nd ref="338813780"/>
    <tag k="highway" v="residential"/>
    <tag k="name" v="Chislehurst Court"/>
    <tag k="source:maxspeed" v="AU:urban"/>
    <tag k="source:name" v="survey"/>
  </way>
  <way id="30634234" version="7" timestamp="2010-02-06T08:42:10Z" uid="74027" user="katzlbt" changeset="3803220">
    <nd ref="338814045"/>
    <nd ref="338809813"/>
    <nd ref="338809815"/>
    <nd ref="338809817"/>
    <nd ref="338809819"/>
    <nd ref="338809822"/>
    <nd ref="338809824"/>
    <nd ref="338809826"/>
    <nd ref="338809828"/>
    <nd ref="338809830"/>
    <nd ref="338809833"/>
    <nd ref="338809835"/>
    <nd ref="338809837"/>
    <nd ref="338809839"/>
    <nd ref="338809841"/>
    <nd ref="338814536"/>
    <tag k="highway" v="track"/>
    <tag k="name" v="Telfer Almen Rosskopf  Bergstation"/>
    <tag k="piste:type" v="hike"/>
    <tag k="ref" v="23"/>
    <tag k="tracktype" v="grade3"/>
  </way>
  <way id="30634234" version="8" timestamp="2011-09-17T13:48:31Z" uid="25342" user="Philipp Spitzer" changeset="9324019">
    <nd ref="338814045"/>
    <nd ref="338809813"/>
    <nd ref="338809815"/>
    <nd ref="338809817"/>
    <nd ref="338809819"/>
    <nd ref="338809822"/>
    <nd ref="338809824"/>
    <nd ref="338809826"/>
    <nd ref="338809828"/>
    <nd ref="1435418172"/>
    <nd ref="338809830"/>
    <nd ref="338809833"/>
    <nd ref="338809835"/>
    <nd ref="338809837"/>
    <nd ref="338809839"/>
    <nd ref="338809841"/>
    <nd ref="338814536"/>
    <tag k="highway" v="track"/>
    <tag k="name" v="Telfer Almen Rosskopf  Bergstation"/>
    <tag k="piste:type" v="hike"/>
    <tag k="ref" v="23"/>
    <tag k="tracktype" v="grade3"/>
  </way>
  <way id="30634742" version="2" timestamp="2009-06-21T09:32:14Z" uid="43863" user="Rundling" changeset="1580970"/>
  <way id="30634796" version="3" timestamp="2009-06-21T09:33:18Z" uid="43863" user="Rundling" changeset="1580979">
    <nd ref="269377248"/>
    <nd ref="338819367"/>
    <nd ref="338819368"/>
    <nd ref="338819369"/>
    <nd ref="338819370"/>
    <nd ref="338819371"/>
    <tag k="created_by" v="Potlatch 0.10f"/>
    <tag k="highway" v="unclassified"/>
    <tag k="name" v="Buswendeplatz"/>
  </way>
  <way id="30634796" version="4" timestamp="2010-08-23T14:34:58Z" uid="166598" user="Moonwalker" changeset="5571667"/>
  <way id="30634874" version="4" timestamp="2010-03-14T20:56:45Z" uid="163746" user="anti_bot-nonsense" changeset="4128666">
    <nd ref="29832530"/>
    <nd ref="29832531"/>
    <nd ref="29832532"/>
    <nd ref="30245237"/>
    <tag k="highway" v="tertiary"/>
    <tag k="name" v="Kolejowa"/>
    <tag k="oneway" v="yes"/>
  </way>
  <way id="30634900" version="7" timestamp="2010-03-14T20:56:53Z" uid="163746" user="anti_bot-nonsense" changeset="4128666">
    <nd ref="338820080"/>
    <nd ref="338820081"/>
    <nd ref="338820082"/>
    <tag k="highway" v="tertiary"/>
    <tag k="name" v="GÃ³recka"/>
  </way>
  <way id="30634906" version="5" timestamp="2010-03-14T20:56:45Z" uid="163746" user="anti_bot-nonsense" changeset="4128666">
    <nd ref="338820082"/>
    <nd ref="338820083"/>
    <nd ref="338820084"/>
    <nd ref="338820085"/>
    <nd ref="338820086"/>
    <nd ref="338820087"/>
    <nd ref="338820013"/>
    <tag k="highway" v="tertiary"/>
    <tag k="name" v="Kolejowa"/>
    <tag k="oneway" v="yes"/>
  </way>
  <way id="30634983" version="3" timestamp="2010-03-14T20:56:54Z" uid="163746" user="anti_bot-nonsense" changeset="4128666">
    <nd ref="338820482"/>
    <nd ref="338820484"/>
    <nd ref="338820485"/>
    <nd ref="142290654"/>
    <tag k="highway" v="primary_link"/>
  </way>
</osm>
