<?xml version='1.0' encoding='UTF-8'?>
<osm version="0.6" generator="libosmium/2.20.0">
  <way id="30678045" version="3" timestamp="2010-03-28T00:58:08Z" uid="20587" user="balrog-kun" changeset="4250871">
    <nd ref="339258390"/>
    <nd ref="339258393"/>
    <tag k="bridge" v="yes"/>
    <tag k="highway" v="secondary"/>
    <tag k="layer" v="1"/>
    <tag k="name" v="Rowland Boulevard"/>
    <tag k="tiger:cfcc" v="A41"/>
    <tag k="tiger:county" v="Marin, CA"/>
    <tag k="tiger:name_base" v="Rowland"/>
    <tag k="tiger:name_type" v="Blvd"/>
    <tag k="tiger:reviewed" v="no"/>
    <tag k="tiger:separated" v="no"/>
    <tag k="tiger:source" v="tiger_import_dch_v0.6_20070809"/>
    <tag k="tiger:tlid" v="192760914:192760907:192760908:192760915:192760916:192760935:192760942:192760946:192760949:192760937:192786154:192786047:192778909:192778870:192778910:192778911:192761053:192758469"/>
    <tag k="tiger:zip_left" v="94947"/>
    <tag k="tiger:zip_right" v="94947"/>
  </way>
  <way id="30678050" version="3" timestamp="2010-03-28T00:58:08Z" uid="20587" user="balrog-kun" changeset="4250871">
    <nd ref="339258393"/>
    <nd ref="110370414"/>
    <nd ref="110417572"/>
    <nd ref="110417574"/>
    <nd ref="110407613"/>
    <nd ref="110417576"/>
    <nd ref="110417578"/>
    <tag k="highway" v="secondary"/>
    <tag k="name" v="Rowland Boulevard"/>
    <tag k="tiger:cfcc" v="A41"/>
    <tag k="tiger:county" v="Marin, CA"/>
    <tag k="tiger:name_base" v="Rowland"/>
    <tag k="tiger:name_type" v="Blvd"/>
    <tag k="tiger:reviewed" v="no"/>
    <tag k="tiger:separated" v="no"/>
    <tag k="tiger:source" v="tiger_import_dch_v0.6_20070809"/>
    <tag k="tiger:tlid" v="192760914:192760907:192760908:192760915:192760916:192760935:192760942:192760946:192760949:192760937:192786154:192786047:192778909:192778870:192778910:192778911:192761053:192758469"/>
    <tag k="tiger:zip_left" v="94947"/>
    <tag k="tiger:zip_right" v="94947"/>
  </way>
  <way id="30678061" version="4" timestamp="2010-03-28T00:58:08Z" uid="20587" user="balrog-kun" changeset="4250871">
    <nd ref="110461981"/>
    <nd ref="110461953"/>
    <tag k="bridge" v="yes"/>
    <tag k="highway" v="motorway"/>
    <tag k="layer" v="1"/>
    <tag k="maxspeed" v="65 mph"/>
    <tag k="name" v="Redwood Highway"/>
    <tag k="name_1" v="Redwood Highway"/>
    <tag k="oneway" v="yes"/>
    <tag k="ref" v="US 101"/>
    <tag k="tiger:cfcc" v="A11"/>
    <tag k="tiger:county" v="Marin, CA"/>
    <tag k="tiger:name_base" v="United States Highway 101"/>
    <tag k="tiger:name_base_1" v="Redwood"/>
    <tag k="tiger:name_type_1" v="Hwy"/>
    <tag k="tiger:separated" v="no"/>
    <tag k="tiger:source" v="tiger_import_dch_v0.6_20070809"/>
    <tag k="tiger:tlid" v="192787029:192777902:192767551:192768177:192768178:192768179:192773551:192768190:192768245:192768246:192768318:192768248:192768192:192768325:192768332:192777967:192776501:192768572:192781003:192781004:192776502:192768593:192768596:192769725:192769726:19276"/>
  </way>
  <way id="30678061" version="5" timestamp="2011-07-06T23:28:36Z" uid="473471" user="NE3" changeset="8653193">
    <nd ref="110461981"/>
    <nd ref="110461953"/>
    <tag k="NHS" v="STRAHNET"/>
    <tag k="bridge" v="yes"/>
    <tag k="highway" v="motorway"/>
    <tag k="layer" v="1"/>
    <tag k="maxspeed" v="65 mph"/>
    <tag k="name" v="Redwood Highway"/>
    <tag k="name_1" v="Redwood Highway"/>
    <tag k="oneway" v="yes"/>
    <tag k="ref" v="US 101"/>
    <tag k="tiger:cfcc" v="A11"/>
    <tag k="tiger:county" v="Marin, CA"/>
    <tag k="tiger:name_base" v="United States Highway 101"/>
    <tag k="tiger:name_base_1" v="Redwood"/>
    <tag k="tiger:name_type_1" v="Hwy"/>
    <tag k="tiger:separated" v="no"/>
    <tag k="tiger:source" v="tiger_import_dch_v0.6_20070809"/>
    <tag k="tiger:tlid" v="192787029:192777902:192767551:192768177:192768178:192768179:192773551:192768190:192768245:192768246:192768318:192768248:192768192:192768325:192768332:192777967:192776501:192768572:192781003:192781004:192776502:192768593:192768596:192769725:192769726:19276"/>
  </way>
  <way id="30678061" version="6" timestamp="2011-07-30T15:05:46Z" uid="207745" user="NE2" changeset="8872810">
    <nd ref="110461981"/>
    <nd ref="110461953"/>
    <tag k="NHS" v="STRAHNET"/>
    <tag k="bridge" v="yes"/>
    <tag k="highway" v="motorway"/>
    <tag k="lanes" v="3"/>
    <tag k="layer" v="1"/>
    <tag k="maxspeed" v="65 mph"/>
    <tag k="name" v="Redwood Highway"/>
    <tag k="name_1" v="Redwood Highway"/>
    <tag k="oneway" v="yes"/>
    <tag k="ref" v="US 101"/>
    <tag k="tiger:cfcc" v="A11"/>
    <tag k="tiger:county" v="Marin, CA"/>
    <tag k="tiger:name_base" v="United States Highway 101"/>
    <tag k="tiger:name_base_1" v="Redwood"/>
    <tag k="tiger:name_type_1" v="Hwy"/>
    <tag k="tiger:separated" v="no"/>
    <tag k="tiger:source" v="tiger_import_dch_v0.6_20070809"/>
    <tag k="tiger:tlid" v="192787029:192777902:192767551:192768177:192768178:192768179:192773551:192768190:192768245:192768246:192768318:192768248:192768192:192768325:192768332:192777967:192776501:192768572:192781003:192781004:192776502:192768593:192768596:192769725:192769726:19276"/>
  </way>
  <way id="30678067" version="4" timestamp="2010-03-28T00:58:09Z" uid="20587" user="balrog-kun" changeset="4250871">
    <nd ref="339258405"/>
    <nd ref="339258403"/>
    <tag k="bridge" v="yes"/>
    <tag k="highway" v="motorway"/>
    <tag k="layer" v="1"/>
    <tag k="maxspeed" v="65 mph"/>
    <tag k="name" v="Redwood Highway"/>
    <tag k="name_1" v="Redwood Highway"/>
    <tag k="oneway" v="yes"/>
    <tag k="ref" v="US 101"/>
    <tag k="tiger:cfcc" v="A11"/>
    <tag k="tiger:county" v="Marin, CA"/>
    <tag k="tiger:name_base" v="United States Highway 101"/>
    <tag k="tiger:name_base_1" v="Redwood"/>
    <tag k="tiger:name_type_1" v="Hwy"/>
    <tag k="tiger:separated" v="no"/>
    <tag k="tiger:source" v="tiger_import_dch_v0.6_20070809"/>
    <tag k="tiger:tlid" v="192787029:192777902:192767551:192768177:192768178:192768179:192773551:192768190:192768245:192768246:192768318:192768248:192768192:192768325:192768332:192777967:192776501:192768572:192781003:192781004:192776502:192768593:192768596:192769725:192769726:19276"/>
  </way>
  <way id="30678067" version="5" timestamp="2011-07-06T23:28:06Z" uid="473471" user="NE3" changeset="8653193">
    <nd ref="339258405"/>
    <nd ref="339258403"/>
    <tag k="NHS" v="STRAHNET"/>
    <tag k="bridge" v="yes"/>
    <tag k="highway" v="motorway"/>
    <tag k="layer" v="1"/>
    <tag k="maxspeed" v="65 mph"/>
    <tag k="name" v="Redwood Highway"/>
    <tag k="name_1" v="Redwood Highway"/>
    <tag k="oneway" v="yes"/>
    <tag k="ref" v="US 101"/>
    <tag k="tiger:cfcc" v="A11"/>
    <tag k="tiger:county" v="Marin, CA"/>
    <tag k="tiger:name_base" v="United States Highway 101"/>
    <tag k="tiger:name_base_1" v="Redwood"/>
    <tag k="tiger:name_type_1" v="Hwy"/>
    <tag k="tiger:separated" v="no"/>
    <tag k="tiger:source" v="tiger_import_dch_v0.6_20070809"/>
    <tag k="tiger:tlid" v="192787029:192777902:192767551:192768177:192768178:192768179:192773551:192768190:192768245:192768246:192768318:192768248:192768192:192768325:192768332:192777967:192776501:192768572:192781003:192781004:192776502:192768593:192768596:192769725:192769726:19276"/>
  </way>
  <way id="30678067" version="6" timestamp="2011-07-30T15:05:40Z" uid="207745" user="NE2" changeset="8872810">
    <nd ref="339258405"/>
    <nd ref="339258403"/>
    <tag k="NHS" v="STRAHNET"/>
    <tag k="bridge" v="yes"/>
    <tag k="highway" v="motorway"/>
    <tag k="lanes" v="3"/>
    <tag k="layer" v="1"/>
    <tag k="maxspeed" v="65 mph"/>
    <tag k="name" v="Redwood Highway"/>
    <tag k="name_1" v="Redwood Highway"/>
    <tag k="oneway" v="yes"/>
    <tag k="ref" v="US 101"/>
    <tag k="tiger:cfcc" v="A11"/>
    <tag k="tiger:county" v="Marin, CA"/>
    <tag k="tiger:name_base" v="United States Highway 101"/>
    <tag k="tiger:name_base_1" v="Redwood"/>
    <tag k="tiger:name_type_1" v="Hwy"/>
    <tag k="tiger:separated" v="no"/>
    <tag k="tiger:source" v="tiger_import_dch_v0.6_20070809"/>
    <tag k="tiger:tlid" v="192787029:192777902:192767551:192768177:192768178:192768179:192773551:192768190:192768245:192768246:192768318:192768248:192768192:192768325:192768332:192777967:192776501:192768572:192781003:192781004:192776502:192768593:192768596:192769725:192769726:19276"/>
  </way>
  <way id="30678069" version="5" timestamp="2010-03-28T00:58:09Z" uid="20587" user="balrog-kun" changeset="4250871">
    <nd ref="339258403"/>
    <nd ref="110462003"/>
    <nd ref="110356367"/>
    <nd ref="349678208"/>
    <nd ref="110424812"/>
    <nd ref="349678218"/>
    <nd ref="349678232"/>
    <nd ref="349678262"/>
    <nd ref="349678251"/>
    <nd ref="349678243"/>
    <tag k="highway" v="motorway"/>
    <tag k="maxspeed" v="65 mph"/>
    <tag k="name" v="Redwood Highway"/>
    <tag k="name_1" v="Redwood Highway"/>
    <tag k="oneway" v="yes"/>
    <tag k="ref" v="US 101"/>
    <tag k="tiger:cfcc" v="A11"/>
    <tag k="tiger:county" v="Marin, CA"/>
    <tag k="tiger:name_base" v="United States Highway 101"/>
    <tag k="tiger:name_base_1" v="Redwood"/>
    <tag k="tiger:name_type_1" v="Hwy"/>
    <tag k="tiger:separated" v="no"/>
    <tag k="tiger:source" v="tiger_import_dch_v0.6_20070809"/>
    <tag k="tiger:tlid" v="192787029:192777902:192767551:192768177:192768178:192768179:192773551:192768190:192768245:192768246:192768318:192768248:192768192:192768325:192768332:192777967:192776501:192768572:192781003:192781004:192776502:192768593:192768596:192769725:192769726:19276"/>
  </way>
  <way id="30678069" version="6" timestamp="2011-07-06T23:26:23Z" uid="473471" user="NE3" changeset="8653193">
    <nd ref="339258403"/>
    <nd ref="110462003"/>
    <nd ref="110356367"/>
    <nd ref="349678208"/>
    <nd ref="110424812"/>
    <nd ref="349678218"/>
    <nd ref="349678232"/>
    <nd ref="349678262"/>
    <nd ref="349678251"/>
    <nd ref="349678243"/>
    <tag k="NHS" v="STRAHNET"/>
    <tag k="highway" v="motorway"/>
    <tag k="maxspeed" v="65 mph"/>
    <tag k="name" v="Redwood Highway"/>
    <tag k="name_1" v="Redwood Highway"/>
    <tag k="oneway" v="yes"/>
    <tag k="ref" v="US 101"/>
    <tag k="tiger:cfcc" v="A11"/>
    <tag k="tiger:county" v="Marin, CA"/>
    <tag k="tiger:name_base" v="United States Highway 101"/>
    <tag k="tiger:name_base_1" v="Redwood"/>
    <tag k="tiger:name_type_1" v="Hwy"/>
    <tag k="tiger:separated" v="no"/>
    <tag k="tiger:source" v="tiger_import_dch_v0.6_20070809"/>
    <tag k="tiger:tlid" v="192787029:192777902:192767551:192768177:192768178:192768179:192773551:192768190:192768245:192768246:192768318:192768248:192768192:192768325:192768332:192777967:192776501:192768572:192781003:192781004:192776502:192768593:192768596:192769725:192769726:19276"/>
  </way>
  <way id="30678069" version="7" timestamp="2011-07-30T15:05:29Z" uid="207745" user="NE2" changeset="8872810">
    <nd ref="339258403"/>
    <nd ref="110462003"/>
    <nd ref="110356367"/>
    <nd ref="349678208"/>
    <nd ref="110424812"/>
    <nd ref="349678218"/>
    <nd ref="349678232"/>
    <nd ref="349678262"/>
    <nd ref="349678251"/>
    <nd ref="349678243"/>
    <tag k="NHS" v="STRAHNET"/>
    <tag k="highway" v="motorway"/>
    <tag k="lanes" v="3"/>
    <tag k="maxspeed" v="65 mph"/>
    <tag k="name" v="Redwood Highway"/>
    <tag k="name_1" v="Redwood Highway"/>
    <tag k="oneway" v="yes"/>
    <tag k="ref" v="US 101"/>
    <tag k="tiger:cfcc" v="A11"/>
    <tag k="tiger:county" v="Marin, CA"/>
    <tag k="tiger:name_base" v="United States Highway 101"/>
    <tag k="tiger:name_base_1" v="Redwood"/>
    <tag k="tiger:name_type_1" v="Hwy"/>
    <tag k="tiger:separated" v="no"/>
    <tag k="tiger:source" v="tiger_import_dch_v0.6_20070809"/>
    <tag k="tiger:tlid" v="192787029:192777902:192767551:192768177:192768178:192768179:192773551:192768190:192768245:192768246:192768318:192768248:192768192:192768325:192768332:192777967:192776501:192768572:192781003:192781004:192776502:192768593:192768596:192769725:192769726:19276"/>
  </way>
  <way id="30678340" version="3" timestamp="2010-05-02T10:32:01Z" uid="151899" user="Bikeman2000" changeset="4583269">
    <nd ref="253906117"/>
    <nd ref="716862094"/>
    <nd ref="716862095"/>
    <nd ref="716862096"/>
    <nd ref="716862098"/>
    <nd ref="29452938"/>
    <nd ref="253903393"/>
    <nd ref="248454648"/>
    <tag k="highway" v="tertiary"/>
    <tag k="name" v="Neusser Straße"/>
    <tag k="oneway" v="yes"/>
  </way>
  <way id="30678340" version="4" timestamp="2010-06-15T21:26:49Z" uid="151899" user="Bikeman2000" changeset="4995947">
    <nd ref="253906117"/>
    <nd ref="716862094"/>
    <nd ref="716862095"/>
    <nd ref="716862096"/>
    <nd ref="716862098"/>
    <nd ref="29452938"/>
    <nd ref="773311777"/>
    <nd ref="253903393"/>
    <nd ref="248454648"/>
    <tag k="highway" v="tertiary"/>
    <tag k="name" v="Neusser Straße"/>
    <tag k="oneway" v="yes"/>
  </way>
  <way id="30678340" version="5" timestamp="2011-11-16T21:41:15Z" uid="173844" user="Antikalk" changeset="9849188">
    <nd ref="253906117"/>
    <nd ref="716862094"/>
    <nd ref="716862095"/>
    <nd ref="716862096"/>
    <nd ref="716862098"/>
    <nd ref="29452938"/>
    <nd ref="773311777"/>
    <nd ref="1505667231"/>
    <nd ref="253903393"/>
    <nd ref="248454648"/>
    <tag k="highway" v="tertiary"/>
    <tag k="name" v="Neusser Straße"/>
    <tag k="oneway" v="yes"/>
  </way>
  <way id="30678340" version="6" timestamp="2012-01-13T22:25:29Z" uid="173844" user="Antikalk" changeset="10383400"/>
  <way id="30678341" version="6" timestamp="2010-05-02T15:27:20Z" uid="151899" user="Bikeman2000" changeset="4586282">
    <nd ref="246703777"/>
    <nd ref="269977806"/>
    <nd ref="717463961"/>
    <nd ref="246703778"/>
    <nd ref="717463962"/>
    <nd ref="246703779"/>
    <nd ref="717463965"/>
    <nd ref="586392686"/>
    <nd ref="588503819"/>
    <nd ref="246703780"/>
    <nd ref="359942500"/>
    <tag k="admin_level" v="10"/>
    <tag k="boundary" v="administrative"/>
    <tag k="highway" v="residential"/>
    <tag k="name" v="Plockstraße"/>
  </way>
  <way id="30678341" version="7" timestamp="2011-01-31T17:08:09Z" uid="115957" user="Zubbel" changeset="7146729">
    <nd ref="246703777"/>
    <nd ref="269977806"/>
    <nd ref="717463961"/>
    <nd ref="246703778"/>
    <nd ref="717463962"/>
    <nd ref="246703779"/>
    <nd ref="717463965"/>
    <nd ref="586392686"/>
    <nd ref="588503819"/>
    <nd ref="246703780"/>
    <nd ref="359942500"/>
    <tag k="admin_level" v="10"/>
    <tag k="boundary" v="administrative"/>
    <tag k="highway" v="residential"/>
    <tag k="maxspeed" v="50"/>
    <tag k="name" v="Plockstraße"/>
  </way>
  <way id="30678341" version="8" timestamp="2012-01-05T12:09:23Z" uid="12614" user="rabenkind" changeset="10300055">
    <nd ref="246703777"/>
    <nd ref="1578017308"/>
    <nd ref="717463961"/>
    <nd ref="246703778"/>
    <nd ref="717463962"/>
    <nd ref="246703779"/>
    <nd ref="717463965"/>
    <nd ref="586392686"/>
    <nd ref="588503819"/>
    <nd ref="246703780"/>
    <nd ref="359942500"/>
    <tag k="admin_level" v="10"/>
    <tag k="boundary" v="administrative"/>
    <tag k="highway" v="residential"/>
    <tag k="maxspeed" v="50"/>
    <tag k="name" v="Plockstraße"/>
  </way>
  <way id="30678341" version="9" timestamp="2012-01-13T13:42:28Z" uid="12614" user="rabenkind" changeset="10378588"/>
  <way id="30678342" version="4" timestamp="2010-05-01T22:16:13Z" uid="151899" user="Bikeman2000" changeset="4579997">
    <nd ref="246703777"/>
    <nd ref="339260991"/>
    <nd ref="715916582"/>
    <nd ref="715916583"/>
    <nd ref="715916584"/>
    <nd ref="339260994"/>
    <nd ref="304301491"/>
    <tag k="FIXME" v="survey whole intersection"/>
    <tag k="admin_level" v="10"/>
    <tag k="boundary" v="administrative"/>
    <tag k="highway" v="residential"/>
    <tag k="name" v="Hammer Straße"/>
    <tag k="oneway" v="yes"/>
    <tag k="source" v="survey with bus"/>
  </way>
  <way id="30678342" version="5" timestamp="2011-11-28T21:06:06Z" uid="18130" user="black_bike" changeset="9982302">
    <nd ref="246703777"/>
    <nd ref="339260991"/>
    <nd ref="715916582"/>
    <nd ref="715916583"/>
    <nd ref="715916584"/>
    <nd ref="339260994"/>
    <nd ref="304301491"/>
    <tag k="FIXME" v="survey whole intersection"/>
    <tag k="admin_level" v="10"/>
    <tag k="boundary" v="administrative"/>
    <tag k="highway" v="residential"/>
    <tag k="lit" v="yes"/>
    <tag k="lit_by_gaslight" v="no"/>
    <tag k="name" v="Hammer Straße"/>
    <tag k="oneway" v="yes"/>
    <tag k="source" v="survey with bus"/>
    <tag k="surface" v="asphalt"/>
  </way>
  <way id="30678342" version="6" timestamp="2012-01-05T12:09:20Z" uid="12614" user="rabenkind" changeset="10300055">
    <nd ref="246703777"/>
    <nd ref="339260991"/>
    <nd ref="715916582"/>
    <nd ref="715916583"/>
    <nd ref="715916584"/>
    <nd ref="339260994"/>
    <nd ref="1578017351"/>
    <tag k="FIXME" v="survey whole intersection"/>
    <tag k="admin_level" v="10"/>
    <tag k="boundary" v="administrative"/>
    <tag k="highway" v="residential"/>
    <tag k="lit" v="yes"/>
    <tag k="lit_by_gaslight" v="no"/>
    <tag k="name" v="Hammer Straße"/>
    <tag k="oneway" v="yes"/>
    <tag k="source" v="survey with bus"/>
    <tag k="surface" v="asphalt"/>
  </way>
  <way id="30678342" version="7" timestamp="2012-01-13T13:42:27Z" uid="12614" user="rabenkind" changeset="10378588"/>
  <way id="30678343" version="5" timestamp="2010-05-01T22:16:10Z" uid="151899" user="Bikeman2000" changeset="4579997">
    <nd ref="269977363"/>
    <nd ref="715916536"/>
    <nd ref="715916538"/>
    <nd ref="715916540"/>
    <nd ref="715916541"/>
    <nd ref="715916552"/>
    <nd ref="304301491"/>
    <tag k="admin_level" v="10"/>
    <tag k="boundary" v="administrative"/>
    <tag k="cycleway" v="track"/>
    <tag k="highway" v="tertiary"/>
    <tag k="name" v="Hammer Straße"/>
    <tag k="postal_code" v="40219"/>
    <tag k="source" v="yahoo"/>
  </way>
  <way id="30678343" version="6" timestamp="2011-01-31T17:08:10Z" uid="115957" user="Zubbel" changeset="7146729">
    <nd ref="269977363"/>
    <nd ref="715916536"/>
    <nd ref="715916538"/>
    <nd ref="715916540"/>
    <nd ref="715916541"/>
    <nd ref="715916552"/>
    <nd ref="304301491"/>
    <tag k="admin_level" v="10"/>
    <tag k="boundary" v="administrative"/>
    <tag k="cycleway" v="track"/>
    <tag k="highway" v="tertiary"/>
    <tag k="maxspeed" v="50"/>
    <tag k="name" v="Hammer Straße"/>
    <tag k="postal_code" v="40219"/>
    <tag k="source" v="yahoo"/>
  </way>
  <way id="30678343" version="7" timestamp="2011-11-28T21:06:05Z" uid="18130" user="black_bike" changeset="9982302">
    <nd ref="269977363"/>
    <nd ref="715916536"/>
    <nd ref="715916538"/>
    <nd ref="715916540"/>
    <nd ref="715916541"/>
    <nd ref="715916552"/>
    <nd ref="304301491"/>
    <tag k="admin_level" v="10"/>
    <tag k="boundary" v="administrative"/>
    <tag k="cycleway" v="track"/>
    <tag k="highway" v="tertiary"/>
    <tag k="lit" v="yes"/>
    <tag k="lit_by_gaslight" v="no"/>
    <tag k="maxspeed" v="50"/>
    <tag k="name" v="Hammer Straße"/>
    <tag k="postal_code" v="40219"/>
    <tag k="source" v="yahoo"/>
    <tag k="surface" v="asphalt"/>
  </way>
  <way id="30678343" version="8" timestamp="2012-01-05T12:09:24Z" uid="12614" user="rabenkind" changeset="10300055"/>
  <way id="30678344" version="3" timestamp="2010-05-01T22:16:06Z" uid="151899" user="Bikeman2000" changeset="4579997">
    <nd ref="304301491"/>
    <nd ref="253872692"/>
    <tag k="cycleway" v="track"/>
    <tag k="highway" v="tertiary"/>
    <tag k="name" v="Hammer Straße"/>
    <tag k="source" v="yahoo"/>
  </way>
  <way id="30678344" version="4" timestamp="2011-11-28T21:06:02Z" uid="18130" user="black_bike" changeset="9982302">
    <nd ref="304301491"/>
    <nd ref="253872692"/>
    <tag k="cycleway" v="track"/>
    <tag k="highway" v="tertiary"/>
    <tag k="lit" v="yes"/>
    <tag k="lit_by_gaslight" v="no"/>
    <tag k="name" v="Hammer Straße"/>
    <tag k="source" v="yahoo"/>
    <tag k="surface" v="asphalt"/>
  </way>
  <way id="30678344" version="5" timestamp="2012-01-05T12:09:24Z" uid="12614" user="rabenkind" changeset="10300055"/>
  <way id="30678522" version="2" timestamp="2011-03-18T15:18:20Z" uid="4467" user="Rosscoe" changeset="7596265"/>
  <way id="30678536" version="3" timestamp="2010-01-22T16:23:15Z" uid="151899" user="Bikeman2000" changeset="3684595">
    <nd ref="254944038"/>
    <nd ref="618204467"/>
    <nd ref="339262497"/>
    <nd ref="339262499"/>
    <nd ref="254340396"/>
    <tag k="highway" v="secondary"/>
    <tag k="name" v="Benrather Straße"/>
    <tag k="oneway" v="yes"/>
  </way>
  <way id="30678536" version="4" timestamp="2010-01-23T08:54:27Z" uid="151899" user="Bikeman2000" changeset="3689668">
    <nd ref="254944038"/>
    <nd ref="339262497"/>
    <nd ref="339262499"/>
    <nd ref="254340396"/>
    <tag k="highway" v="secondary"/>
    <tag k="name" v="Benrather Straße"/>
    <tag k="oneway" v="yes"/>
  </way>
  <way id="30678536" version="5" timestamp="2011-01-13T19:06:30Z" uid="18130" user="black_bike" changeset="6960389">
    <nd ref="254944038"/>
    <nd ref="339262497"/>
    <nd ref="339262499"/>
    <nd ref="254340396"/>
    <tag k="highway" v="secondary"/>
    <tag k="lit_by_gaslight" v="no"/>
    <tag k="name" v="Benrather Straße"/>
    <tag k="oneway" v="yes"/>
  </way>
  <way id="30678536" version="6" timestamp="2011-04-01T21:02:08Z" uid="12614" user="rabenkind" changeset="7739325">
    <nd ref="254944038"/>
    <nd ref="339262497"/>
    <nd ref="339262499"/>
    <nd ref="254340396"/>
    <tag k="highway" v="residential"/>
    <tag k="lit_by_gaslight" v="no"/>
    <tag k="name" v="Benrather Straße"/>
    <tag k="oneway" v="yes"/>
  </way>
  <way id="30678536" version="7" timestamp="2011-12-26T11:20:54Z" uid="12614" user="rabenkind" changeset="10206301"/>
  <way id="30678537" version="1" timestamp="2009-01-31T01:06:33Z" uid="20587" user="balrog-kun" changeset="857442">
    <nd ref="339262457"/>
    <nd ref="339262455"/>
    <nd ref="339262454"/>
    <nd ref="339262456"/>
    <nd ref="339262457"/>
    <tag k="addr:housenumber" v="8"/>
    <tag k="addr:street" v="Finlandzka"/>
    <tag k="building" v="yes"/>
    <tag k="source:addr" v="msi"/>
  </way>
  <way id="30678538" version="1" timestamp="2009-01-31T01:06:33Z" uid="20587" user="balrog-kun" changeset="857442">
    <nd ref="339262469"/>
    <nd ref="339262467"/>
    <nd ref="339262466"/>
    <nd ref="339262468"/>
    <nd ref="339262469"/>
    <tag k="addr:housenumber" v="8"/>
    <tag k="addr:street" v="Estońska"/>
    <tag k="building" v="yes"/>
    <tag k="source:addr" v="msi"/>
  </way>
  <way id="30678539" version="1" timestamp="2009-01-31T01:06:34Z" uid="20587" user="balrog-kun" changeset="857442">
    <nd ref="339262472"/>
    <nd ref="339262474"/>
    <nd ref="339262475"/>
    <nd ref="339262473"/>
    <nd ref="339262472"/>
    <tag k="addr:housenumber" v="3"/>
    <tag k="addr:street" v="Lipska"/>
    <tag k="building" v="yes"/>
    <tag k="source:addr" v="msi"/>
  </way>
  <way id="30678540" version="1" timestamp="2009-01-31T01:06:34Z" uid="20587" user="balrog-kun" changeset="857442">
    <nd ref="339262476"/>
    <nd ref="339262478"/>
    <nd ref="339262479"/>
    <nd ref="339262477"/>
    <nd ref="339262476"/>
    <tag k="addr:housenumber" v="8a"/>
    <tag k="addr:street" v="Estońska"/>
    <tag k="building" v="yes"/>
    <tag k="source:addr" v="msi"/>
  </way>
  <way id="30678541" version="1" timestamp="2009-01-31T01:06:34Z" uid="20587" user="balrog-kun" changeset="857442">
    <nd ref="308974037"/>
    <nd ref="308974036"/>
    <nd ref="339262480"/>
    <nd ref="339262482"/>
    <nd ref="339262483"/>
    <nd ref="339262481"/>
    <nd ref="308974037"/>
    <tag k="addr:housenumber" v="24"/>
    <tag k="addr:street" v="Jakubowska"/>
    <tag k="building" v="yes"/>
    <tag k="building:levels" v="2"/>
  </way>
  <way id="30678541" version="2" timestamp="2009-02-08T23:16:37Z" uid="20587" user="balrog-kun" changeset="288825">
    <nd ref="308974037"/>
    <nd ref="308974036"/>
    <nd ref="339262480"/>
    <nd ref="339262482"/>
    <nd ref="339262483"/>
    <nd ref="339262481"/>
    <nd ref="308974037"/>
    <tag k="addr:housenumber" v="24"/>
    <tag k="addr:street" v="Jakubowska"/>
    <tag k="building" v="yes"/>
    <tag k="building:levels" v="3"/>
  </way>
  <way id="30678541" version="3" timestamp="2009-02-09T00:41:03Z" uid="20587" user="balrog-kun" changeset="288825">
    <nd ref="308974037"/>
    <nd ref="308974036"/>
    <nd ref="339262480"/>
    <nd ref="339262482"/>
    <nd ref="339262483"/>
    <nd ref="339262481"/>
    <nd ref="308974037"/>
    <tag k="addr:housenumber" v="24"/>
    <tag k="addr:street" v="Jakubowska"/>
    <tag k="building" v="yes"/>
    <tag k="building:levels" v="3"/>
  </way>
  <way id="30678541" version="4" timestamp="2009-02-11T21:39:26Z" uid="20587" user="balrog-kun" changeset="351230">
    <nd ref="308974037"/>
    <nd ref="308974036"/>
    <nd ref="339262480"/>
    <nd ref="339262482"/>
    <nd ref="339262483"/>
    <nd ref="339262481"/>
    <nd ref="308974037"/>
    <tag k="addr:housenumber" v="24"/>
    <tag k="addr:street" v="Jakubowska"/>
    <tag k="building" v="yes"/>
    <tag k="building:levels" v="3"/>
  </way>
  <way id="30678541" version="5" timestamp="2009-05-24T19:05:31Z" uid="20587" user="balrog-kun" changeset="1310017">
    <nd ref="308974037"/>
    <nd ref="308974036"/>
    <nd ref="339262480"/>
    <nd ref="339262482"/>
    <nd ref="339262483"/>
    <nd ref="339262481"/>
    <nd ref="308974037"/>
    <tag k="addr:housenumber" v="18"/>
    <tag k="addr:street" v="Jakubowska"/>
    <tag k="building" v="yes"/>
    <tag k="building:levels" v="3"/>
    <tag k="name" v="Związek Harcerstwa RP Praga Południe"/>
  </way>
  <way id="30678542" version="1" timestamp="2009-01-31T01:06:34Z" uid="20587" user="balrog-kun" changeset="857442">
    <nd ref="339262484"/>
    <nd ref="339262486"/>
    <nd ref="339262488"/>
    <nd ref="339262492"/>
    <nd ref="339262493"/>
    <nd ref="339262490"/>
    <nd ref="339262491"/>
    <nd ref="339262489"/>
    <nd ref="339262487"/>
    <nd ref="339262485"/>
    <nd ref="339262484"/>
    <tag k="addr:housenumber" v="3/5"/>
    <tag k="addr:street" v="Estońska"/>
    <tag k="amenity" v="embassy"/>
    <tag k="building" v="yes"/>
    <tag k="source:addr" v="msi"/>
  </way>
  <way id="30678542" version="2" timestamp="2009-01-31T01:56:54Z" uid="20587" user="balrog-kun" changeset="857442">
    <nd ref="339262484"/>
    <nd ref="339262486"/>
    <nd ref="339262488"/>
    <nd ref="339262492"/>
    <nd ref="339262493"/>
    <nd ref="339262490"/>
    <nd ref="339262491"/>
    <nd ref="339262489"/>
    <nd ref="339262487"/>
    <nd ref="339262485"/>
    <nd ref="339262484"/>
    <tag k="addr:housenumber" v="3/5"/>
    <tag k="addr:postcode" v="03-903"/>
    <tag k="addr:street" v="Estońska"/>
    <tag k="amenity" v="embassy"/>
    <tag k="building" v="yes"/>
    <tag k="name" v="Ambasada Republiki Indonezji"/>
    <tag k="name:en" v="Embassy of the Republic of Indonesia"/>
    <tag k="name:es" v="Embajada de la República de Indonesia"/>
    <tag k="name:id" v="Kedutaan Besar Republika Indonesia"/>
    <tag k="source:addr" v="msi"/>
    <tag k="url" v="http://www.indonesianembassy.pl/"/>
  </way>
  <way id="30678542" version="3" timestamp="2009-03-27T21:41:39Z" uid="64578" user="Serpens" changeset="863803">
    <nd ref="339262484"/>
    <nd ref="339262486"/>
    <nd ref="339262488"/>
    <nd ref="339262492"/>
    <nd ref="339262493"/>
    <nd ref="339262490"/>
    <nd ref="339262491"/>
    <nd ref="339262489"/>
    <nd ref="339262487"/>
    <nd ref="339262485"/>
    <nd ref="339262484"/>
    <tag k="addr:housenumber" v="3/5"/>
    <tag k="addr:postcode" v="03-903"/>
    <tag k="addr:street" v="Estońska"/>
    <tag k="amenity" v="embassy"/>
    <tag k="building" v="yes"/>
    <tag k="country" v="id"/>
    <tag k="name" v="Ambasada Republiki Indonezji"/>
    <tag k="name:en" v="Embassy of the Republic of Indonesia"/>
    <tag k="name:es" v="Embajada de la República de Indonesia"/>
    <tag k="name:id" v="Kedutaan Besar Republika Indonesia"/>
    <tag k="source:addr" v="msi"/>
    <tag k="url" v="http://www.indonesianembassy.pl/"/>
  </way>
  <way id="30678542" version="4" timestamp="2010-01-04T14:57:34Z" uid="64578" user="Serpens" changeset="3537746">
    <nd ref="339262484"/>
    <nd ref="339262486"/>
    <nd ref="339262488"/>
    <nd ref="339262492"/>
    <nd ref="339262493"/>
    <nd ref="339262490"/>
    <nd ref="339262491"/>
    <nd ref="339262489"/>
    <nd ref="339262487"/>
    <nd ref="339262485"/>
    <nd ref="339262484"/>
    <tag k="addr:housenumber" v="3/5"/>
    <tag k="addr:postcode" v="03-903"/>
    <tag k="addr:street" v="Estońska"/>
    <tag k="amenity" v="embassy"/>
    <tag k="building" v="yes"/>
    <tag k="country" v="ID"/>
    <tag k="name" v="Ambasada Republiki Indonezji"/>
    <tag k="name:en" v="Embassy of the Republic of Indonesia"/>
    <tag k="name:es" v="Embajada de la República de Indonesia"/>
    <tag k="name:id" v="Kedutaan Besar Republika Indonesia"/>
    <tag k="source:addr" v="msi"/>
    <tag k="url" v="http://www.indonesianembassy.pl/"/>
  </way>
  <way id="30678543" version="1" timestamp="2009-01-31T01:06:35Z" uid="20587" user="balrog-kun" changeset="857442">
    <nd ref="339262494"/>
    <nd ref="339262496"/>
    <nd ref="339262500"/>
    <nd ref="339262502"/>
    <nd ref="339262498"/>
    <nd ref="339262495"/>
    <nd ref="339262494"/>
    <tag k="addr:housenumber" v="12"/>
    <tag k="addr:street" v="Łotewska"/>
    <tag k="building" v="yes"/>
    <tag k="source:addr" v="msi"/>
  </way>
  <way id="30678544" version="1" timestamp="2009-01-31T01:06:35Z" uid="20587" user="balrog-kun" changeset="857442">
    <nd ref="339262505"/>
    <nd ref="339262509"/>
    <nd ref="339262512"/>
    <nd ref="339262507"/>
    <nd ref="339262505"/>
    <tag k="addr:housenumber" v="10"/>
    <tag k="addr:street" v="Łotewska"/>
    <tag k="building" v="yes"/>
    <tag k="source:addr" v="msi"/>
  </way>
  <way id="30678545" version="1" timestamp="2009-01-31T01:06:35Z" uid="20587" user="balrog-kun" changeset="857442">
    <nd ref="339262514"/>
    <nd ref="339262519"/>
    <nd ref="339262521"/>
    <nd ref="339262516"/>
    <nd ref="339262514"/>
    <tag k="addr:housenumber" v="3"/>
    <tag k="addr:street" v="Berezyńska"/>
    <tag k="building" v="yes"/>
    <tag k="source:addr" v="msi"/>
  </way>
  <way id="30678546" version="1" timestamp="2009-01-31T01:06:35Z" uid="20587" user="balrog-kun" changeset="857442">
    <nd ref="339262523"/>
    <nd ref="339262526"/>
    <nd ref="339262527"/>
    <nd ref="339262525"/>
    <nd ref="339262523"/>
    <tag k="addr:housenumber" v="1"/>
    <tag k="addr:street" v="Estońska"/>
    <tag k="building" v="yes"/>
    <tag k="source:addr" v="msi"/>
  </way>
  <way id="30678547" version="1" timestamp="2009-01-31T01:06:35Z" uid="20587" user="balrog-kun" changeset="857442">
    <nd ref="339262528"/>
    <nd ref="339262529"/>
    <nd ref="339262533"/>
    <nd ref="339262532"/>
    <nd ref="339262535"/>
    <nd ref="339262534"/>
    <nd ref="339262531"/>
    <nd ref="339262530"/>
    <nd ref="339262528"/>
    <tag k="building" v="yes"/>
  </way>
  <way id="30678548" version="1" timestamp="2009-01-31T01:06:35Z" uid="20587" user="balrog-kun" changeset="857442">
    <nd ref="339262536"/>
    <nd ref="339262537"/>
    <nd ref="339262539"/>
    <nd ref="339262538"/>
    <nd ref="339262536"/>
    <tag k="addr:housenumber" v="14"/>
    <tag k="building" v="yes"/>
    <tag k="source:addr" v="msi"/>
  </way>
  <way id="30678549" version="1" timestamp="2009-01-31T01:06:36Z" uid="20587" user="balrog-kun" changeset="857442">
    <nd ref="339262540"/>
    <nd ref="339262541"/>
    <nd ref="339262543"/>
    <nd ref="339262542"/>
    <nd ref="339262546"/>
    <nd ref="339262545"/>
    <nd ref="339262544"/>
    <nd ref="339262540"/>
    <tag k="addr:housenumber" v="4"/>
    <tag k="addr:street" v="Estońska"/>
    <tag k="building" v="yes"/>
    <tag k="source:addr" v="msi"/>
  </way>
  <way id="30678550" version="1" timestamp="2009-01-31T01:06:36Z" uid="20587" user="balrog-kun" changeset="857442">
    <nd ref="339262547"/>
    <nd ref="339262549"/>
    <nd ref="339262550"/>
    <nd ref="339262548"/>
    <nd ref="339262547"/>
    <tag k="addr:housenumber" v="4"/>
    <tag k="addr:street" v="Lipska"/>
    <tag k="building" v="yes"/>
    <tag k="source:addr" v="msi"/>
  </way>
  <way id="30678551" version="1" timestamp="2009-01-31T01:06:36Z" uid="20587" user="balrog-kun" changeset="857442">
    <nd ref="339262551"/>
    <nd ref="339262553"/>
    <nd ref="339262554"/>
    <nd ref="339262552"/>
    <nd ref="339262551"/>
    <tag k="addr:housenumber" v="6"/>
    <tag k="addr:street" v="Lipska"/>
    <tag k="building" v="yes"/>
    <tag k="source:addr" v="msi"/>
  </way>
  <way id="30678552" version="1" timestamp="2009-01-31T01:06:36Z" uid="20587" user="balrog-kun" changeset="857442">
    <nd ref="339262555"/>
    <nd ref="339262556"/>
    <nd ref="339262557"/>
    <nd ref="339262558"/>
    <nd ref="339262555"/>
    <tag k="addr:housenumber" v="9"/>
    <tag k="addr:street" v="Berezyńska"/>
    <tag k="building" v="yes"/>
    <tag k="source:addr" v="msi"/>
  </way>
  <way id="30678553" version="1" timestamp="2009-01-31T01:06:36Z" uid="20587" user="balrog-kun" changeset="857442">
    <nd ref="339262565"/>
    <nd ref="339262567"/>
    <nd ref="339262569"/>
    <nd ref="339262570"/>
    <nd ref="339262571"/>
    <nd ref="339262572"/>
    <nd ref="339262568"/>
    <nd ref="339262566"/>
    <nd ref="339262565"/>
    <tag k="addr:housenumber" v="10"/>
    <tag k="addr:street" v="Finlandzka"/>
    <tag k="building" v="yes"/>
    <tag k="source:addr" v="msi"/>
  </way>
  <way id="30678553" version="2" timestamp="2009-05-24T19:05:31Z" uid="20587" user="balrog-kun" changeset="1310017">
    <nd ref="339262565"/>
    <nd ref="339262567"/>
    <nd ref="339262569"/>
    <nd ref="339262570"/>
    <nd ref="339262571"/>
    <nd ref="339262572"/>
    <nd ref="339262568"/>
    <nd ref="339262566"/>
    <nd ref="339262565"/>
    <tag k="addr:housenumber" v="10"/>
    <tag k="addr:street" v="Finlandzka"/>
    <tag k="building" v="yes"/>
    <tag k="name" v="Pracownia Sztuk Plastycznych"/>
    <tag k="source:addr" v="msi"/>
  </way>
  <way id="30678554" version="1" timestamp="2009-01-31T01:06:37Z" uid="20587" user="balrog-kun" changeset="857442">
    <nd ref="339262573"/>
    <nd ref="339262575"/>
    <nd ref="339262576"/>
    <nd ref="339262574"/>
    <nd ref="339262573"/>
    <tag k="building" v="yes"/>
  </way>
  <way id="30678554" version="2" timestamp="2009-05-24T19:05:31Z" uid="20587" user="balrog-kun" changeset="1310017">
    <nd ref="339262573"/>
    <nd ref="339262575"/>
    <nd ref="339262576"/>
    <nd ref="339262574"/>
    <nd ref="339262573"/>
    <tag k="building" v="yes"/>
    <tag k="name" v="Pracownia Sztuk Plastycznych"/>
  </way>
  <way id="30678554" version="3" timestamp="2009-12-01T23:27:13Z" uid="20587" user="balrog-kun" changeset="3268601">
    <nd ref="339262573"/>
    <nd ref="339262575"/>
    <nd ref="339262576"/>
    <nd ref="339262574"/>
    <nd ref="339262573"/>
    <tag k="building" v="yes"/>
    <tag k="building:levels" v="4"/>
    <tag k="name" v="Pracownia Sztuk Plastycznych"/>
  </way>
  <way id="30678555" version="1" timestamp="2009-01-31T01:06:37Z" uid="20587" user="balrog-kun" changeset="857442">
    <nd ref="339262973"/>
    <nd ref="308976483"/>
    <nd ref="308976485"/>
    <nd ref="339262972"/>
    <nd ref="339262578"/>
    <nd ref="339262580"/>
    <nd ref="339262579"/>
    <nd ref="339262577"/>
    <nd ref="339262973"/>
    <tag k="addr:housenumber" v="47"/>
    <tag k="addr:street" v="Francuska"/>
    <tag k="building" v="yes"/>
    <tag k="building:levels" v="3"/>
    <tag k="source:addr" v="msi"/>
  </way>
  <way id="30678555" version="2" timestamp="2009-11-27T13:44:29Z" uid="20587" user="balrog-kun" changeset="3228126">
    <nd ref="339262973"/>
    <nd ref="308976483"/>
    <nd ref="308976485"/>
    <nd ref="339262972"/>
    <nd ref="339262578"/>
    <nd ref="339262577"/>
    <nd ref="339262973"/>
    <tag k="addr:street" v="Francuska"/>
    <tag k="building" v="yes"/>
    <tag k="building:levels" v="1"/>
  </way>
  <way id="30678556" version="1" timestamp="2009-01-31T01:06:37Z" uid="20587" user="balrog-kun" changeset="857442">
    <nd ref="339262581"/>
    <nd ref="339262583"/>
    <nd ref="339262584"/>
    <nd ref="339262582"/>
    <nd ref="339262581"/>
    <tag k="addr:housenumber" v="13"/>
    <tag k="addr:street" v="Lipska"/>
    <tag k="building" v="yes"/>
    <tag k="source:addr" v="msi"/>
  </way>
  <way id="30678558" version="1" timestamp="2009-01-31T01:06:37Z" uid="20587" user="balrog-kun" changeset="857442">
    <nd ref="339262585"/>
    <nd ref="339262586"/>
    <nd ref="339262588"/>
    <nd ref="339262587"/>
    <nd ref="339262585"/>
    <tag k="addr:housenumber" v="11"/>
    <tag k="addr:street" v="Lipska"/>
    <tag k="building" v="yes"/>
    <tag k="source:addr" v="msi"/>
  </way>
  <way id="30678559" version="1" timestamp="2009-01-31T01:06:37Z" uid="20587" user="balrog-kun" changeset="857442">
    <nd ref="339262599"/>
    <nd ref="339262600"/>
    <nd ref="339262602"/>
    <nd ref="339262601"/>
    <nd ref="339262599"/>
    <tag k="addr:housenumber" v="10"/>
    <tag k="addr:street" v="Lipska"/>
    <tag k="building" v="yes"/>
    <tag k="source:addr" v="msi"/>
  </way>
  <way id="30678560" version="1" timestamp="2009-01-31T01:06:38Z" uid="20587" user="balrog-kun" changeset="857442">
    <nd ref="339262603"/>
    <nd ref="339262604"/>
    <nd ref="339262606"/>
    <nd ref="339262605"/>
    <nd ref="339262603"/>
    <tag k="addr:housenumber" v="19"/>
    <tag k="addr:street" v="Berezyńska"/>
    <tag k="building" v="yes"/>
    <tag k="source:addr" v="msi"/>
  </way>
  <way id="30678561" version="1" timestamp="2009-01-31T01:06:38Z" uid="20587" user="balrog-kun" changeset="857442">
    <nd ref="339262607"/>
    <nd ref="339262608"/>
    <nd ref="339262610"/>
    <nd ref="339262609"/>
    <nd ref="339262607"/>
    <tag k="addr:housenumber" v="17"/>
    <tag k="addr:street" v="Berezyńska"/>
    <tag k="building" v="yes"/>
    <tag k="source:addr" v="msi"/>
  </way>
  <way id="30678562" version="1" timestamp="2009-01-31T01:06:38Z" uid="20587" user="balrog-kun" changeset="857442">
    <nd ref="339262611"/>
    <nd ref="339262613"/>
    <nd ref="339262614"/>
    <nd ref="339262612"/>
    <nd ref="339262611"/>
    <tag k="addr:housenumber" v="13"/>
    <tag k="addr:street" v="Berezyńska"/>
    <tag k="building" v="yes"/>
    <tag k="source:addr" v="msi"/>
  </way>
  <way id="30678563" version="1" timestamp="2009-01-31T01:06:38Z" uid="20587" user="balrog-kun" changeset="857442">
    <nd ref="339262610"/>
    <nd ref="339262614"/>
    <nd ref="339262613"/>
    <nd ref="339262609"/>
    <nd ref="339262610"/>
    <tag k="addr:housenumber" v="15"/>
    <tag k="addr:street" v="Berezyńska"/>
    <tag k="building" v="yes"/>
    <tag k="source:addr" v="msi"/>
  </way>
  <way id="30678564" version="1" timestamp="2009-01-31T01:06:38Z" uid="20587" user="balrog-kun" changeset="857442">
    <nd ref="339262615"/>
    <nd ref="339262617"/>
    <nd ref="339262618"/>
    <nd ref="339262616"/>
    <nd ref="339262615"/>
    <tag k="addr:housenumber" v="11"/>
    <tag k="addr:street" v="Berezyńska"/>
    <tag k="building" v="yes"/>
    <tag k="source:addr" v="msi"/>
  </way>
  <way id="30678565" version="1" timestamp="2009-01-31T01:06:38Z" uid="20587" user="balrog-kun" changeset="857442">
    <nd ref="339262619"/>
    <nd ref="339262621"/>
    <nd ref="339262622"/>
    <nd ref="339262620"/>
    <nd ref="339262619"/>
    <tag k="addr:housenumber" v="4"/>
    <tag k="addr:street" v="Finlandzka"/>
    <tag k="building" v="yes"/>
    <tag k="source:addr" v="msi"/>
  </way>
  <way id="30678566" version="1" timestamp="2009-01-31T01:06:39Z" uid="20587" user="balrog-kun" changeset="857442">
    <nd ref="302878577"/>
    <nd ref="302878581"/>
    <nd ref="302878586"/>
    <tag k="highway" v="living_street"/>
    <tag k="note" v="Not on MSI maps.. gotta check if this street even exists"/>
  </way>
  <way id="30678566" version="2" timestamp="2011-08-19T09:11:04Z" uid="99386" user="masti" changeset="9063839"/>
  <way id="30678567" version="1" timestamp="2009-01-31T01:06:39Z" uid="20587" user="balrog-kun" changeset="857442">
    <nd ref="339262629"/>
    <nd ref="339262630"/>
    <nd ref="339262632"/>
    <nd ref="339262631"/>
    <nd ref="339262629"/>
    <tag k="addr:housenumber" v="2"/>
    <tag k="addr:street" v="Berezyńska"/>
    <tag k="building" v="yes"/>
    <tag k="source:addr" v="msi"/>
  </way>
  <way id="30678568" version="1" timestamp="2009-01-31T01:06:39Z" uid="20587" user="balrog-kun" changeset="857442">
    <nd ref="339262636"/>
    <nd ref="339262635"/>
    <nd ref="339262633"/>
    <nd ref="339262634"/>
    <nd ref="339262636"/>
    <tag k="addr:housenumber" v="4"/>
    <tag k="addr:street" v="Berezyńska"/>
    <tag k="building" v="yes"/>
    <tag k="source:addr" v="msi"/>
  </way>
  <way id="30678569" version="1" timestamp="2009-01-31T01:06:39Z" uid="20587" user="balrog-kun" changeset="857442">
    <nd ref="339262636"/>
    <nd ref="339262638"/>
    <nd ref="339262637"/>
    <nd ref="339262635"/>
    <nd ref="339262636"/>
    <tag k="addr:housenumber" v="4a"/>
    <tag k="addr:street" v="Berezyńska"/>
    <tag k="building" v="yes"/>
    <tag k="source:addr" v="msi"/>
  </way>
  <way id="30678570" version="1" timestamp="2009-01-31T01:06:39Z" uid="20587" user="balrog-kun" changeset="857442">
    <nd ref="339262644"/>
    <nd ref="339262640"/>
    <nd ref="339262639"/>
    <nd ref="339262643"/>
    <nd ref="339262644"/>
    <tag k="addr:housenumber" v="6a"/>
    <tag k="addr:street" v="Berezyńska"/>
    <tag k="building" v="yes"/>
    <tag k="source:addr" v="msi"/>
  </way>
  <way id="30678571" version="1" timestamp="2009-01-31T01:06:40Z" uid="20587" user="balrog-kun" changeset="857442">
    <nd ref="339262644"/>
    <nd ref="339262643"/>
    <nd ref="339262641"/>
    <nd ref="339262642"/>
    <nd ref="339262644"/>
    <tag k="addr:housenumber" v="6"/>
    <tag k="addr:street" v="Berezyńska"/>
    <tag k="building" v="yes"/>
    <tag k="source:addr" v="msi"/>
  </way>
  <way id="30678572" version="1" timestamp="2009-01-31T01:06:40Z" uid="20587" user="balrog-kun" changeset="857442">
    <nd ref="339262674"/>
    <nd ref="339262807"/>
    <nd ref="339262808"/>
    <nd ref="339262666"/>
    <nd ref="339262674"/>
    <tag k="addr:housenumber" v="11"/>
    <tag k="addr:street" v="Czeska"/>
    <tag k="building" v="yes"/>
    <tag k="source:addr" v="msi"/>
  </way>
  <way id="30678573" version="1" timestamp="2009-01-31T01:06:40Z" uid="20587" user="balrog-kun" changeset="857442">
    <nd ref="339262674"/>
    <nd ref="339262666"/>
    <nd ref="339262809"/>
    <nd ref="339262810"/>
    <nd ref="339262674"/>
    <tag k="addr:housenumber" v="9"/>
    <tag k="addr:street" v="Czeska"/>
    <tag k="building" v="yes"/>
    <tag k="source:addr" v="msi"/>
  </way>
  <way id="30678574" version="1" timestamp="2009-01-31T01:06:40Z" uid="20587" user="balrog-kun" changeset="857442">
    <nd ref="339262675"/>
    <nd ref="339262677"/>
    <nd ref="339262678"/>
    <nd ref="339262676"/>
    <nd ref="339262675"/>
    <tag k="addr:housenumber" v="8"/>
    <tag k="addr:street" v="Berezyńska"/>
    <tag k="building" v="yes"/>
    <tag k="source:addr" v="msi"/>
  </way>
  <way id="30678575" version="1" timestamp="2009-01-31T01:06:40Z" uid="20587" user="balrog-kun" changeset="857442">
    <nd ref="339262679"/>
    <nd ref="339262681"/>
    <nd ref="339262682"/>
    <nd ref="339262680"/>
    <nd ref="339262679"/>
    <tag k="addr:housenumber" v="10"/>
    <tag k="addr:street" v="Berezyńska"/>
    <tag k="building" v="yes"/>
    <tag k="source:addr" v="msi"/>
  </way>
  <way id="30678576" version="1" timestamp="2009-01-31T01:06:41Z" uid="20587" user="balrog-kun" changeset="857442">
    <nd ref="339262683"/>
    <nd ref="339262685"/>
    <nd ref="339262686"/>
    <nd ref="339262684"/>
    <nd ref="339262683"/>
    <tag k="addr:housenumber" v="12"/>
    <tag k="addr:street" v="Berezyńska"/>
    <tag k="building" v="yes"/>
    <tag k="source:addr" v="msi"/>
  </way>
  <way id="30678577" version="1" timestamp="2009-01-31T01:06:41Z" uid="20587" user="balrog-kun" changeset="857442">
    <nd ref="339262687"/>
    <nd ref="339262689"/>
    <nd ref="339262690"/>
    <nd ref="339262694"/>
    <nd ref="339262695"/>
    <nd ref="339262692"/>
    <nd ref="339262693"/>
    <nd ref="339262691"/>
    <nd ref="339262688"/>
    <nd ref="339262687"/>
    <tag k="addr:housenumber" v="16"/>
    <tag k="addr:street" v="Berezyńska"/>
    <tag k="building" v="yes"/>
    <tag k="source:addr" v="msi"/>
  </way>
  <way id="30678578" version="1" timestamp="2009-01-31T01:06:41Z" uid="20587" user="balrog-kun" changeset="857442">
    <nd ref="339262697"/>
    <nd ref="339262698"/>
    <nd ref="339262696"/>
    <nd ref="339262699"/>
    <nd ref="339262697"/>
    <tag k="addr:housenumber" v="18"/>
    <tag k="addr:street" v="Berezyńska"/>
    <tag k="building" v="yes"/>
    <tag k="source:addr" v="msi"/>
  </way>
  <way id="30678579" version="1" timestamp="2009-01-31T01:06:41Z" uid="20587" user="balrog-kun" changeset="857442">
    <nd ref="339262697"/>
    <nd ref="339262703"/>
    <nd ref="339262713"/>
    <nd ref="339262698"/>
    <nd ref="339262697"/>
    <tag k="addr:housenumber" v="18a"/>
    <tag k="addr:street" v="Berezyńska"/>
    <tag k="building" v="yes"/>
    <tag k="source:addr" v="msi"/>
  </way>
  <way id="30678580" version="1" timestamp="2009-01-31T01:06:41Z" uid="20587" user="balrog-kun" changeset="857442">
    <nd ref="339262720"/>
    <nd ref="339262722"/>
    <nd ref="339262723"/>
    <nd ref="339262724"/>
    <nd ref="339262725"/>
    <nd ref="339262726"/>
    <nd ref="339262727"/>
    <nd ref="339262728"/>
    <nd ref="339262720"/>
    <tag k="addr:housenumber" v="22"/>
    <tag k="addr:street" v="Berezyńska"/>
    <tag k="amenity" v="doctors"/>
    <tag k="building" v="yes"/>
    <tag k="source:addr" v="msi"/>
  </way>
  <way id="30678581" version="1" timestamp="2009-01-31T01:06:41Z" uid="20587" user="balrog-kun" changeset="857442">
    <nd ref="339262729"/>
    <nd ref="339262731"/>
    <nd ref="339262732"/>
    <nd ref="339262730"/>
    <nd ref="339262729"/>
    <tag k="addr:housenumber" v="20"/>
    <tag k="addr:street" v="Berezyńska"/>
    <tag k="building" v="yes"/>
    <tag k="source:addr" v="msi"/>
  </way>
  <way id="30678582" version="1" timestamp="2009-01-31T01:06:42Z" uid="20587" user="balrog-kun" changeset="857442">
    <nd ref="339262735"/>
    <nd ref="339262736"/>
    <nd ref="339262740"/>
    <nd ref="339262734"/>
    <nd ref="339262733"/>
    <nd ref="339262735"/>
    <tag k="addr:housenumber" v="24"/>
    <tag k="addr:street" v="Berezyńska"/>
    <tag k="building" v="yes"/>
    <tag k="source:addr" v="msi"/>
  </way>
  <way id="30678583" version="1" timestamp="2009-01-31T01:06:42Z" uid="20587" user="balrog-kun" changeset="857442">
    <nd ref="339262740"/>
    <nd ref="339262741"/>
    <nd ref="339262739"/>
    <nd ref="339262737"/>
    <nd ref="339262738"/>
    <nd ref="339262734"/>
    <nd ref="339262740"/>
    <tag k="addr:housenumber" v="39"/>
    <tag k="addr:street" v="Francuska"/>
    <tag k="building" v="yes"/>
    <tag k="source:addr" v="msi"/>
  </way>
  <way id="30678584" version="1" timestamp="2009-01-31T01:06:42Z" uid="20587" user="balrog-kun" changeset="857442">
    <nd ref="339262742"/>
    <nd ref="339262743"/>
    <nd ref="339262745"/>
    <nd ref="339262744"/>
    <nd ref="339262742"/>
    <tag k="addr:housenumber" v="37"/>
    <tag k="addr:street" v="Francuska"/>
    <tag k="building" v="yes"/>
    <tag k="source:addr" v="msi"/>
  </way>
  <way id="30678584" version="2" timestamp="2009-08-10T19:50:32Z" uid="123700" user="Mala" changeset="2102161">
    <nd ref="339262742"/>
    <nd ref="339262743"/>
    <nd ref="339262745"/>
    <nd ref="339262744"/>
    <nd ref="339262742"/>
    <tag k="addr:housenumber" v="37"/>
    <tag k="addr:postcode" v="03-905"/>
    <tag k="addr:street" v="Francuska"/>
    <tag k="amenity" v="embassy"/>
    <tag k="building" v="yes"/>
    <tag k="country:pt" v="Portugal"/>
    <tag k="name" v="Ambasada Portugalii"/>
    <tag k="name:en" v="Portuguese Embassy"/>
    <tag k="name:pt" v="Embaixada de Portugal"/>
    <tag k="phone" v="+48225111010"/>
    <tag k="source:addr" v="msi"/>
  </way>
  <way id="30678584" version="3" timestamp="2009-09-09T15:35:50Z" uid="64578" user="Serpens" changeset="2426677">
    <nd ref="339262742"/>
    <nd ref="339262743"/>
    <nd ref="339262745"/>
    <nd ref="339262744"/>
    <nd ref="339262742"/>
    <tag k="addr:housenumber" v="37"/>
    <tag k="addr:postcode" v="03-905"/>
    <tag k="addr:street" v="Francuska"/>
    <tag k="amenity" v="embassy"/>
    <tag k="building" v="yes"/>
    <tag k="country" v="pt"/>
    <tag k="name" v="Ambasada Portugalii"/>
    <tag k="name:en" v="Portuguese Embassy"/>
    <tag k="name:pt" v="Embaixada de Portugal"/>
    <tag k="phone" v="+48225111010"/>
    <tag k="source:addr" v="msi"/>
  </way>
  <way id="30678584" version="4" timestamp="2010-01-03T19:38:32Z" uid="64578" user="Serpens" changeset="3531844">
    <nd ref="339262742"/>
    <nd ref="339262743"/>
    <nd ref="339262745"/>
    <nd ref="339262744"/>
    <nd ref="339262742"/>
    <tag k="addr:housenumber" v="37"/>
    <tag k="addr:postcode" v="03-905"/>
    <tag k="addr:street" v="Francuska"/>
    <tag k="amenity" v="embassy"/>
    <tag k="building" v="yes"/>
    <tag k="country" v="PT"/>
    <tag k="name" v="Ambasada Portugalii"/>
    <tag k="name:en" v="Portuguese Embassy"/>
    <tag k="name:pt" v="Embaixada de Portugal"/>
    <tag k="phone" v="+48225111010"/>
    <tag k="source:addr" v="msi"/>
  </way>
  <way id="30678585" version="1" timestamp="2009-01-31T01:06:42Z" uid="20587" user="balrog-kun" changeset="857442">
    <nd ref="339262752"/>
    <nd ref="339262749"/>
    <nd ref="339262747"/>
    <nd ref="339262746"/>
    <nd ref="339262748"/>
    <nd ref="339262750"/>
    <nd ref="339262751"/>
    <nd ref="339262752"/>
    <tag k="addr:housenumber" v="35"/>
    <tag k="addr:street" v="Francuska"/>
    <tag k="building" v="yes"/>
    <tag k="source:addr" v="msi"/>
  </way>
  <way id="30678586" version="1" timestamp="2009-01-31T01:06:42Z" uid="20587" user="balrog-kun" changeset="857442">
    <nd ref="339262753"/>
    <nd ref="339262754"/>
    <nd ref="339262752"/>
    <nd ref="339262751"/>
    <nd ref="339262753"/>
    <tag k="addr:housenumber" v="33"/>
    <tag k="addr:street" v="Francuska"/>
    <tag k="building" v="yes"/>
    <tag k="source:addr" v="msi"/>
  </way>
  <way id="30678587" version="1" timestamp="2009-01-31T01:06:43Z" uid="20587" user="balrog-kun" changeset="857442">
    <nd ref="339262758"/>
    <nd ref="339262756"/>
    <nd ref="339262755"/>
    <nd ref="339262757"/>
    <nd ref="339262758"/>
    <tag k="addr:housenumber" v="31"/>
    <tag k="addr:street" v="Francuska"/>
    <tag k="building" v="yes"/>
    <tag k="source:addr" v="msi"/>
  </way>
  <way id="30678588" version="1" timestamp="2009-01-31T01:06:43Z" uid="20587" user="balrog-kun" changeset="857442">
    <nd ref="339262757"/>
    <nd ref="339262759"/>
    <nd ref="339262760"/>
    <nd ref="339262758"/>
    <nd ref="339262757"/>
    <tag k="addr:housenumber" v="29"/>
    <tag k="addr:street" v="Walecznych"/>
    <tag k="building" v="yes"/>
    <tag k="source:addr" v="msi"/>
  </way>
  <way id="30678589" version="1" timestamp="2009-01-31T01:06:43Z" uid="20587" user="balrog-kun" changeset="857442">
    <nd ref="339262762"/>
    <nd ref="339262761"/>
    <nd ref="339262763"/>
    <nd ref="339262764"/>
    <nd ref="339262762"/>
    <tag k="addr:housenumber" v="27"/>
    <tag k="addr:street" v="Walecznych"/>
    <tag k="building" v="yes"/>
    <tag k="source:addr" v="msi"/>
  </way>
  <way id="30678590" version="1" timestamp="2009-01-31T01:06:43Z" uid="20587" user="balrog-kun" changeset="857442">
    <nd ref="339262763"/>
    <nd ref="339262765"/>
    <nd ref="339262766"/>
    <nd ref="339262764"/>
    <nd ref="339262763"/>
    <tag k="addr:housenumber" v="25"/>
    <tag k="addr:street" v="Walecznych"/>
    <tag k="building" v="yes"/>
    <tag k="source:addr" v="msi"/>
  </way>
  <way id="30678591" version="1" timestamp="2009-01-31T01:06:43Z" uid="20587" user="balrog-kun" changeset="857442">
    <nd ref="339262770"/>
    <nd ref="339262769"/>
    <nd ref="339262767"/>
    <nd ref="339262768"/>
    <nd ref="339262770"/>
    <tag k="addr:housenumber" v="21"/>
    <tag k="addr:street" v="Walecznych"/>
    <tag k="building" v="yes"/>
    <tag k="source:addr" v="msi"/>
  </way>
  <way id="30678592" version="1" timestamp="2009-01-31T01:06:44Z" uid="20587" user="balrog-kun" changeset="857442">
    <nd ref="339262772"/>
    <nd ref="339262771"/>
    <nd ref="339262769"/>
    <nd ref="339262770"/>
    <nd ref="339262772"/>
    <tag k="addr:housenumber" v="23"/>
    <tag k="addr:street" v="Walecznych"/>
    <tag k="building" v="yes"/>
    <tag k="source:addr" v="msi"/>
  </way>
  <way id="30678593" version="1" timestamp="2009-01-31T01:06:44Z" uid="20587" user="balrog-kun" changeset="857442">
    <nd ref="339262773"/>
    <nd ref="339262774"/>
    <nd ref="339262776"/>
    <nd ref="339262775"/>
    <nd ref="339262773"/>
    <tag k="addr:housenumber" v="4"/>
    <tag k="addr:street" v="Gruzińska"/>
    <tag k="building" v="yes"/>
    <tag k="source:addr" v="msi"/>
  </way>
  <way id="30678594" version="1" timestamp="2009-01-31T01:06:44Z" uid="20587" user="balrog-kun" changeset="857442">
    <nd ref="339262777"/>
    <nd ref="339262778"/>
    <nd ref="339262780"/>
    <nd ref="339262783"/>
    <nd ref="339262784"/>
    <nd ref="339262781"/>
    <nd ref="339262779"/>
    <nd ref="339262777"/>
    <tag k="addr:housenumber" v="6"/>
    <tag k="addr:street" v="Gruzińska"/>
    <tag k="building" v="yes"/>
    <tag k="source:addr" v="msi"/>
  </way>
  <way id="30678595" version="1" timestamp="2009-01-31T01:06:44Z" uid="20587" user="balrog-kun" changeset="857442">
    <nd ref="339262785"/>
    <nd ref="339262786"/>
    <nd ref="339262788"/>
    <nd ref="339262787"/>
    <nd ref="339262785"/>
    <tag k="building" v="yes"/>
  </way>
  <way id="30678596" version="1" timestamp="2009-01-31T01:06:44Z" uid="20587" user="balrog-kun" changeset="857442">
    <nd ref="339262789"/>
    <nd ref="339262791"/>
    <nd ref="339262792"/>
    <nd ref="339262790"/>
    <nd ref="339262789"/>
    <tag k="addr:housenumber" v="5"/>
    <tag k="addr:street" v="Gruzińska"/>
    <tag k="building" v="yes"/>
    <tag k="source:addr" v="msi"/>
  </way>
  <way id="30678597" version="1" timestamp="2009-01-31T01:06:45Z" uid="20587" user="balrog-kun" changeset="857442">
    <nd ref="339262796"/>
    <nd ref="339262794"/>
    <nd ref="339262793"/>
    <nd ref="339262795"/>
    <nd ref="339262796"/>
    <tag k="addr:housenumber" v="19"/>
    <tag k="addr:street" v="Czeska"/>
    <tag k="building" v="yes"/>
    <tag k="source:addr" v="msi"/>
  </way>
  <way id="30678598" version="1" timestamp="2009-01-31T01:06:45Z" uid="20587" user="balrog-kun" changeset="857442">
    <nd ref="339262816"/>
    <nd ref="339262812"/>
    <nd ref="339262811"/>
    <nd ref="339262815"/>
    <nd ref="339262816"/>
    <tag k="addr:housenumber" v="7"/>
    <tag k="addr:street" v="Czeska"/>
    <tag k="building" v="yes"/>
    <tag k="source:addr" v="msi"/>
  </way>
  <way id="30678599" version="1" timestamp="2009-01-31T01:06:45Z" uid="20587" user="balrog-kun" changeset="857442">
    <nd ref="339262816"/>
    <nd ref="339262815"/>
    <nd ref="339262813"/>
    <nd ref="339262814"/>
    <nd ref="339262816"/>
    <tag k="addr:housenumber" v="5"/>
    <tag k="addr:street" v="Czeska"/>
    <tag k="building" v="yes"/>
    <tag k="source:addr" v="msi"/>
  </way>
  <way id="30678600" version="1" timestamp="2009-01-31T01:06:45Z" uid="20587" user="balrog-kun" changeset="857442">
    <nd ref="339262820"/>
    <nd ref="339262818"/>
    <nd ref="339262817"/>
    <nd ref="339262819"/>
    <nd ref="339262820"/>
    <tag k="addr:housenumber" v="3"/>
    <tag k="addr:street" v="Czeska"/>
    <tag k="building" v="yes"/>
    <tag k="source:addr" v="msi"/>
  </way>
  <way id="30678601" version="1" timestamp="2009-01-31T01:06:45Z" uid="20587" user="balrog-kun" changeset="857442">
    <nd ref="339262822"/>
    <nd ref="339262820"/>
    <nd ref="339262819"/>
    <nd ref="339262821"/>
    <nd ref="339262822"/>
    <tag k="addr:housenumber" v="1"/>
    <tag k="addr:street" v="Czeska"/>
    <tag k="building" v="yes"/>
    <tag k="source:addr" v="msi"/>
  </way>
  <way id="30678602" version="1" timestamp="2009-01-31T01:06:46Z" uid="20587" user="balrog-kun" changeset="857442">
    <nd ref="339262823"/>
    <nd ref="339262825"/>
    <nd ref="339262826"/>
    <nd ref="339262824"/>
    <nd ref="339262823"/>
    <tag k="addr:housenumber" v="4"/>
    <tag k="addr:street" v="Łotewska"/>
    <tag k="building" v="yes"/>
    <tag k="source:addr" v="msi"/>
  </way>
  <way id="30678603" version="1" timestamp="2009-01-31T01:06:46Z" uid="20587" user="balrog-kun" changeset="857442">
    <nd ref="339262828"/>
    <nd ref="339262830"/>
    <nd ref="339262829"/>
    <nd ref="339262827"/>
    <nd ref="339262828"/>
    <tag k="addr:housenumber" v="4"/>
    <tag k="addr:street" v="Czeska"/>
    <tag k="building" v="yes"/>
    <tag k="source:addr" v="msi"/>
  </way>
  <way id="30678604" version="1" timestamp="2009-01-31T01:06:46Z" uid="20587" user="balrog-kun" changeset="857442">
    <nd ref="339262830"/>
    <nd ref="339262832"/>
    <nd ref="339262831"/>
    <nd ref="339262829"/>
    <nd ref="339262830"/>
    <tag k="addr:housenumber" v="6"/>
    <tag k="addr:street" v="Czeska"/>
    <tag k="building" v="yes"/>
    <tag k="source:addr" v="msi"/>
  </way>
  <way id="30678605" version="1" timestamp="2009-01-31T01:06:46Z" uid="20587" user="balrog-kun" changeset="857442">
    <nd ref="339262849"/>
    <nd ref="339262850"/>
    <nd ref="339262855"/>
    <nd ref="339262854"/>
    <nd ref="339262853"/>
    <nd ref="339262852"/>
    <nd ref="339262851"/>
    <nd ref="339262849"/>
    <tag k="addr:housenumber" v="24"/>
    <tag k="addr:street" v="Czeska"/>
    <tag k="building" v="yes"/>
    <tag k="source:addr" v="msi"/>
  </way>
  <way id="30678606" version="1" timestamp="2009-01-31T01:06:46Z" uid="20587" user="balrog-kun" changeset="857442">
    <nd ref="339262847"/>
    <nd ref="339262848"/>
    <nd ref="339262850"/>
    <nd ref="339262849"/>
    <nd ref="339262847"/>
    <tag k="addr:housenumber" v="22"/>
    <tag k="addr:street" v="Czeska"/>
    <tag k="building" v="yes"/>
    <tag k="source:addr" v="msi"/>
  </way>
  <way id="30678607" version="1" timestamp="2009-01-31T01:06:46Z" uid="20587" user="balrog-kun" changeset="857442">
    <nd ref="339262845"/>
    <nd ref="339262846"/>
    <nd ref="339262848"/>
    <nd ref="339262847"/>
    <nd ref="339262845"/>
    <tag k="addr:housenumber" v="20"/>
    <tag k="addr:street" v="Czeska"/>
    <tag k="building" v="yes"/>
    <tag k="source:addr" v="msi"/>
  </way>
  <way id="30678608" version="1" timestamp="2009-01-31T01:06:47Z" uid="20587" user="balrog-kun" changeset="857442">
    <nd ref="339262843"/>
    <nd ref="339262844"/>
    <nd ref="339262846"/>
    <nd ref="339262845"/>
    <nd ref="339262843"/>
    <tag k="addr:housenumber" v="18"/>
    <tag k="addr:street" v="Czeska"/>
    <tag k="building" v="yes"/>
    <tag k="source:addr" v="msi"/>
  </way>
  <way id="30678609" version="1" timestamp="2009-01-31T01:06:47Z" uid="20587" user="balrog-kun" changeset="857442">
    <nd ref="339262841"/>
    <nd ref="339262842"/>
    <nd ref="339262844"/>
    <nd ref="339262843"/>
    <nd ref="339262841"/>
    <tag k="addr:housenumber" v="16"/>
    <tag k="addr:street" v="Czeska"/>
    <tag k="building" v="yes"/>
    <tag k="source:addr" v="msi"/>
  </way>
  <way id="30678610" version="1" timestamp="2009-01-31T01:06:47Z" uid="20587" user="balrog-kun" changeset="857442">
    <nd ref="339262839"/>
    <nd ref="339262840"/>
    <nd ref="339262842"/>
    <nd ref="339262841"/>
    <nd ref="339262839"/>
    <tag k="addr:housenumber" v="14"/>
    <tag k="addr:street" v="Czeska"/>
    <tag k="building" v="yes"/>
    <tag k="source:addr" v="msi"/>
  </way>
  <way id="30678611" version="1" timestamp="2009-01-31T01:06:48Z" uid="20587" user="balrog-kun" changeset="857442">
    <nd ref="339262837"/>
    <nd ref="339262838"/>
    <nd ref="339262840"/>
    <nd ref="339262839"/>
    <nd ref="339262837"/>
    <tag k="addr:housenumber" v="12"/>
    <tag k="addr:street" v="Czeska"/>
    <tag k="building" v="yes"/>
    <tag k="source:addr" v="msi"/>
  </way>
  <way id="30678612" version="1" timestamp="2009-01-31T01:06:48Z" uid="20587" user="balrog-kun" changeset="857442">
    <nd ref="339262835"/>
    <nd ref="339262836"/>
    <nd ref="339262838"/>
    <nd ref="339262837"/>
    <nd ref="339262835"/>
    <tag k="addr:housenumber" v="10"/>
    <tag k="addr:street" v="Czeska"/>
    <tag k="building" v="yes"/>
    <tag k="source:addr" v="msi"/>
  </way>
  <way id="30678613" version="1" timestamp="2009-01-31T01:06:48Z" uid="20587" user="balrog-kun" changeset="857442">
    <nd ref="339262833"/>
    <nd ref="339262834"/>
    <nd ref="339262836"/>
    <nd ref="339262835"/>
    <nd ref="339262833"/>
    <tag k="addr:housenumber" v="8"/>
    <tag k="addr:street" v="Czeska"/>
    <tag k="building" v="yes"/>
    <tag k="source:addr" v="msi"/>
  </way>
  <way id="30678614" version="1" timestamp="2009-01-31T01:06:48Z" uid="20587" user="balrog-kun" changeset="857442">
    <nd ref="339262856"/>
    <nd ref="339262865"/>
    <nd ref="339262866"/>
    <nd ref="339262867"/>
    <nd ref="339262863"/>
    <nd ref="339262864"/>
    <nd ref="339262862"/>
    <nd ref="339262858"/>
    <nd ref="339262857"/>
    <nd ref="339262856"/>
    <tag k="addr:housenumber" v="26"/>
    <tag k="addr:street" v="Czeska"/>
    <tag k="building" v="yes"/>
    <tag k="source:addr" v="msi"/>
  </way>
  <way id="30678615" version="1" timestamp="2009-01-31T01:06:48Z" uid="20587" user="balrog-kun" changeset="857442">
    <nd ref="339262868"/>
    <nd ref="339262870"/>
    <nd ref="339262871"/>
    <nd ref="339262869"/>
    <nd ref="339262868"/>
    <tag k="addr:housenumber" v="30/32"/>
    <tag k="addr:street" v="Czeska"/>
    <tag k="building" v="yes"/>
    <tag k="source:addr" v="msi"/>
  </way>
  <way id="30678616" version="1" timestamp="2009-01-31T01:06:49Z" uid="20587" user="balrog-kun" changeset="857442">
    <nd ref="339262872"/>
    <nd ref="339262874"/>
    <nd ref="339262875"/>
    <nd ref="339262873"/>
    <nd ref="339262872"/>
    <tag k="addr:housenumber" v="3"/>
    <tag k="addr:street" v="Gruzińska"/>
    <tag k="amenity" v="embassy"/>
    <tag k="building" v="yes"/>
    <tag k="source:addr" v="msi"/>
  </way>
  <way id="30678616" version="2" timestamp="2009-01-31T01:56:55Z" uid="20587" user="balrog-kun" changeset="857442">
    <nd ref="339262872"/>
    <nd ref="339262874"/>
    <nd ref="339262875"/>
    <nd ref="339262873"/>
    <nd ref="339262872"/>
    <tag k="addr:housenumber" v="3"/>
    <tag k="addr:postcode" v="03-902"/>
    <tag k="addr:street" v="Gruzińska"/>
    <tag k="amenity" v="embassy"/>
    <tag k="building" v="yes"/>
    <tag k="name" v="Ambasada Malezji"/>
    <tag k="name:en" v="Embassy of Malaysia"/>
    <tag k="name:es" v="Embajada de Malasia"/>
    <tag k="source:addr" v="msi"/>
  </way>
  <way id="30678616" version="3" timestamp="2009-03-27T21:41:46Z" uid="64578" user="Serpens" changeset="863803">
    <nd ref="339262872"/>
    <nd ref="339262874"/>
    <nd ref="339262875"/>
    <nd ref="339262873"/>
    <nd ref="339262872"/>
    <tag k="addr:housenumber" v="3"/>
    <tag k="addr:postcode" v="03-902"/>
    <tag k="addr:street" v="Gruzińska"/>
    <tag k="amenity" v="embassy"/>
    <tag k="building" v="yes"/>
    <tag k="country" v="my"/>
    <tag k="name" v="Ambasada Malezji"/>
    <tag k="name:en" v="Embassy of Malaysia"/>
    <tag k="name:es" v="Embajada de Malasia"/>
    <tag k="source:addr" v="msi"/>
  </way>
  <way id="30678616" version="4" timestamp="2010-01-04T14:57:34Z" uid="64578" user="Serpens" changeset="3537746">
    <nd ref="339262872"/>
    <nd ref="339262874"/>
    <nd ref="339262875"/>
    <nd ref="339262873"/>
    <nd ref="339262872"/>
    <tag k="addr:housenumber" v="3"/>
    <tag k="addr:postcode" v="03-902"/>
    <tag k="addr:street" v="Gruzińska"/>
    <tag k="amenity" v="embassy"/>
    <tag k="building" v="yes"/>
    <tag k="country" v="MY"/>
    <tag k="name" v="Ambasada Malezji"/>
    <tag k="name:en" v="Embassy of Malaysia"/>
    <tag k="name:es" v="Embajada de Malasia"/>
    <tag k="source:addr" v="msi"/>
  </way>
  <way id="30678617" version="1" timestamp="2009-01-31T01:06:49Z" uid="20587" user="balrog-kun" changeset="857442">
    <nd ref="339262798"/>
    <nd ref="339262796"/>
    <nd ref="339262795"/>
    <nd ref="339262797"/>
    <nd ref="339262798"/>
    <tag k="addr:housenumber" v="17"/>
    <tag k="addr:street" v="Czeska"/>
    <tag k="building" v="yes"/>
    <tag k="source:addr" v="msi"/>
  </way>
  <way id="30678618" version="1" timestamp="2009-01-31T01:06:49Z" uid="20587" user="balrog-kun" changeset="857442">
    <nd ref="339262877"/>
    <nd ref="339262876"/>
    <nd ref="339262881"/>
    <nd ref="339262880"/>
    <nd ref="339262877"/>
    <tag k="addr:housenumber" v="5"/>
    <tag k="addr:street" v="Walecznych"/>
    <tag k="building" v="yes"/>
    <tag k="source:addr" v="msi"/>
  </way>
  <way id="30678619" version="1" timestamp="2009-01-31T01:06:49Z" uid="20587" user="balrog-kun" changeset="857442">
    <nd ref="339262876"/>
    <nd ref="339262879"/>
    <nd ref="339262878"/>
    <nd ref="339262881"/>
    <nd ref="339262876"/>
    <tag k="addr:housenumber" v="7"/>
    <tag k="addr:street" v="Walecznych"/>
    <tag k="building" v="yes"/>
    <tag k="source:addr" v="msi"/>
  </way>
  <way id="30678620" version="1" timestamp="2009-01-31T01:06:50Z" uid="20587" user="balrog-kun" changeset="857442">
    <nd ref="339262883"/>
    <nd ref="339262882"/>
    <nd ref="339262885"/>
    <nd ref="339262886"/>
    <nd ref="339262888"/>
    <nd ref="339262887"/>
    <nd ref="339262884"/>
    <nd ref="339262883"/>
    <tag k="addr:housenumber" v="13"/>
    <tag k="addr:street" v="Walecznych"/>
    <tag k="building" v="yes"/>
    <tag k="source:addr" v="msi"/>
  </way>
  <way id="30678621" version="1" timestamp="2009-01-31T01:06:50Z" uid="20587" user="balrog-kun" changeset="857442">
    <nd ref="339262889"/>
    <nd ref="339262891"/>
    <nd ref="339262892"/>
    <nd ref="339262890"/>
    <nd ref="339262889"/>
    <tag k="addr:housenumber" v="17"/>
    <tag k="addr:street" v="Walecznych"/>
    <tag k="building" v="yes"/>
    <tag k="source:addr" v="msi"/>
  </way>
  <way id="30678622" version="1" timestamp="2009-01-31T01:06:50Z" uid="20587" user="balrog-kun" changeset="857442">
    <nd ref="339262893"/>
    <nd ref="339262896"/>
    <nd ref="339262897"/>
    <nd ref="339262894"/>
    <nd ref="339262893"/>
    <tag k="addr:housenumber" v="19"/>
    <tag k="addr:street" v="Walecznych"/>
    <tag k="building" v="yes"/>
    <tag k="source:addr" v="msi"/>
  </way>
  <way id="30678624" version="1" timestamp="2009-01-31T01:06:50Z" uid="20587" user="balrog-kun" changeset="857442">
    <nd ref="339262900"/>
    <nd ref="339262898"/>
    <nd ref="339262899"/>
    <nd ref="339262901"/>
    <nd ref="339262900"/>
    <tag k="addr:housenumber" v="15a"/>
    <tag k="addr:street" v="Walecznych"/>
    <tag k="building" v="yes"/>
    <tag k="source:addr" v="msi"/>
  </way>
  <way id="30678625" version="1" timestamp="2009-01-31T01:06:50Z" uid="20587" user="balrog-kun" changeset="857442">
    <nd ref="339262901"/>
    <nd ref="339262899"/>
    <nd ref="339262903"/>
    <nd ref="339262902"/>
    <nd ref="339262901"/>
    <tag k="addr:housenumber" v="15"/>
    <tag k="addr:street" v="Walecznych"/>
    <tag k="building" v="yes"/>
    <tag k="source:addr" v="msi"/>
  </way>
  <way id="30678626" version="1" timestamp="2009-01-31T01:06:51Z" uid="20587" user="balrog-kun" changeset="857442">
    <nd ref="339262910"/>
    <nd ref="339262905"/>
    <nd ref="339262904"/>
    <nd ref="339262911"/>
    <nd ref="339262910"/>
    <tag k="addr:housenumber" v="3"/>
    <tag k="addr:street" v="Walecznych"/>
    <tag k="building" v="yes"/>
    <tag k="source:addr" v="msi"/>
  </way>
  <way id="30678627" version="1" timestamp="2009-01-31T01:06:51Z" uid="20587" user="balrog-kun" changeset="857442">
    <nd ref="339262915"/>
    <nd ref="339262914"/>
    <nd ref="339262912"/>
    <nd ref="339262913"/>
    <nd ref="339262915"/>
    <tag k="addr:housenumber" v="3"/>
    <tag k="addr:street" v="Łotewska"/>
    <tag k="building" v="yes"/>
    <tag k="source:addr" v="msi"/>
  </way>
  <way id="30678628" version="1" timestamp="2009-01-31T01:06:51Z" uid="20587" user="balrog-kun" changeset="857442">
    <nd ref="339262933"/>
    <nd ref="339262935"/>
    <nd ref="339262934"/>
    <nd ref="339262932"/>
    <nd ref="339262933"/>
    <tag k="addr:housenumber" v="11"/>
    <tag k="addr:street" v="Łotewska"/>
    <tag k="building" v="yes"/>
    <tag k="source:addr" v="msi"/>
  </way>
  <way id="30678629" version="1" timestamp="2009-01-31T01:06:51Z" uid="20587" user="balrog-kun" changeset="857442">
    <nd ref="339262937"/>
    <nd ref="339262936"/>
    <nd ref="339262940"/>
    <nd ref="339262941"/>
    <nd ref="339262938"/>
    <nd ref="339262939"/>
    <nd ref="339262937"/>
    <tag k="addr:housenumber" v="15"/>
    <tag k="addr:street" v="Łotewska"/>
    <tag k="building" v="yes"/>
    <tag k="source:addr" v="msi"/>
  </way>
  <way id="30678630" version="1" timestamp="2009-01-31T01:06:51Z" uid="20587" user="balrog-kun" changeset="857442">
    <nd ref="339262942"/>
    <nd ref="339262943"/>
    <nd ref="339262949"/>
    <nd ref="339262948"/>
    <nd ref="339262951"/>
    <nd ref="339262950"/>
    <nd ref="339262942"/>
    <tag k="addr:housenumber" v="17"/>
    <tag k="addr:street" v="Łotewska"/>
    <tag k="building" v="yes"/>
    <tag k="source:addr" v="msi"/>
  </way>
  <way id="30678631" version="1" timestamp="2009-01-31T01:06:52Z" uid="20587" user="balrog-kun" changeset="857442">
    <nd ref="339262947"/>
    <nd ref="339262950"/>
    <nd ref="339262951"/>
    <nd ref="339262946"/>
    <nd ref="339262947"/>
    <tag k="addr:housenumber" v="6"/>
    <tag k="addr:street" v="Jakubowska"/>
    <tag k="building" v="yes"/>
    <tag k="source:addr" v="msi"/>
  </way>
  <way id="30678632" version="1" timestamp="2009-01-31T01:06:52Z" uid="20587" user="balrog-kun" changeset="857442">
    <nd ref="339262947"/>
    <nd ref="339262946"/>
    <nd ref="339262944"/>
    <nd ref="339262945"/>
    <nd ref="339262947"/>
    <tag k="addr:housenumber" v="4"/>
    <tag k="addr:street" v="Jakubowska"/>
    <tag k="building" v="yes"/>
    <tag k="source:addr" v="msi"/>
  </way>
  <way id="30678633" version="1" timestamp="2009-01-31T01:06:52Z" uid="20587" user="balrog-kun" changeset="857442">
    <nd ref="339262915"/>
    <nd ref="339262917"/>
    <nd ref="339262916"/>
    <nd ref="339262914"/>
    <nd ref="339262915"/>
    <tag k="addr:housenumber" v="5"/>
    <tag k="addr:street" v="Łotewska"/>
    <tag k="source:addr" v="msi"/>
  </way>
  <way id="30678633" version="2" timestamp="2012-02-24T16:40:52Z" uid="99386" user="masti" changeset="10779984">
    <nd ref="339262915"/>
    <nd ref="339262917"/>
    <nd ref="339262916"/>
    <nd ref="339262914"/>
    <nd ref="339262915"/>
    <tag k="addr:housenumber" v="5"/>
    <tag k="addr:street" v="Łotewska"/>
    <tag k="building" v="yes"/>
    <tag k="source:addr" v="msi"/>
  </way>
  <way id="30678634" version="1" timestamp="2009-01-31T01:06:52Z" uid="20587" user="balrog-kun" changeset="857442">
    <nd ref="339262924"/>
    <nd ref="339262927"/>
    <nd ref="339262931"/>
    <nd ref="339262930"/>
    <nd ref="339262929"/>
    <nd ref="339262928"/>
    <nd ref="339262926"/>
    <nd ref="339262922"/>
    <nd ref="339262924"/>
    <tag k="addr:housenumber" v="9a"/>
    <tag k="addr:street" v="Łotewska"/>
    <tag k="building" v="yes"/>
    <tag k="source:addr" v="msi"/>
  </way>
  <way id="30678634" version="2" timestamp="2012-02-24T16:40:53Z" uid="99386" user="masti" changeset="10779984">
    <nd ref="339262924"/>
    <nd ref="339262927"/>
    <nd ref="339262931"/>
    <nd ref="339262930"/>
    <nd ref="339262929"/>
    <nd ref="339262928"/>
    <nd ref="339262922"/>
    <nd ref="339262924"/>
    <tag k="addr:housenumber" v="9a"/>
    <tag k="addr:street" v="Łotewska"/>
    <tag k="building" v="yes"/>
    <tag k="source:addr" v="msi"/>
  </way>
  <way id="30678635" version="1" timestamp="2009-01-31T01:06:52Z" uid="20587" user="balrog-kun" changeset="857442">
    <nd ref="339262922"/>
    <nd ref="339262920"/>
    <nd ref="339262918"/>
    <nd ref="339262919"/>
    <nd ref="339262921"/>
    <nd ref="339262923"/>
    <nd ref="339262922"/>
    <tag k="addr:housenumber" v="7"/>
    <tag k="addr:street" v="Łotewska"/>
    <tag k="building" v="yes"/>
    <tag k="source:addr" v="msi"/>
  </way>
  <way id="30678635" version="2" timestamp="2012-02-24T16:40:52Z" uid="99386" user="masti" changeset="10779984">
    <nd ref="339262922"/>
    <nd ref="339262918"/>
    <nd ref="339262919"/>
    <nd ref="339262923"/>
    <nd ref="339262922"/>
    <tag k="addr:housenumber" v="7"/>
    <tag k="addr:street" v="Łotewska"/>
    <tag k="building" v="yes"/>
    <tag k="source:addr" v="msi"/>
  </way>
  <way id="30678636" version="1" timestamp="2009-01-31T01:06:53Z" uid="20587" user="balrog-kun" changeset="857442">
    <nd ref="339262923"/>
    <nd ref="339262925"/>
    <nd ref="339262924"/>
    <nd ref="339262922"/>
    <nd ref="339262923"/>
    <tag k="addr:housenumber" v="9"/>
    <tag k="addr:street" v="Łotewska"/>
    <tag k="building" v="yes"/>
    <tag k="source:addr" v="msi"/>
  </way>
  <way id="30678637" version="1" timestamp="2009-01-31T01:06:53Z" uid="20587" user="balrog-kun" changeset="857442">
    <nd ref="339262911"/>
    <nd ref="339262906"/>
    <nd ref="339262907"/>
    <nd ref="339262908"/>
    <nd ref="339262911"/>
    <tag k="addr:housenumber" v="fixme"/>
    <tag k="addr:street" v="Wał Miedzeszyński"/>
    <tag k="building" v="yes"/>
    <tag k="source:addr" v="msi"/>
  </way>
  <way id="30678637" version="2" timestamp="2009-01-31T01:56:55Z" uid="20587" user="balrog-kun" changeset="857442">
    <nd ref="339262911"/>
    <nd ref="339262906"/>
    <nd ref="339262907"/>
    <nd ref="339262908"/>
    <nd ref="339262911"/>
    <tag k="addr:housenumber" v="872"/>
    <tag k="addr:street" v="Wał Miedzeszyński"/>
    <tag k="building" v="yes"/>
    <tag k="source:addr" v="msi"/>
  </way>
  <way id="30678638" version="1" timestamp="2009-01-31T01:06:53Z" uid="20587" user="balrog-kun" changeset="857442">
    <nd ref="339262910"/>
    <nd ref="339262911"/>
    <nd ref="339262908"/>
    <nd ref="339262909"/>
    <nd ref="339262910"/>
    <tag k="addr:housenumber" v="fixme"/>
    <tag k="addr:street" v="Wał Miedzeszyński"/>
    <tag k="building" v="yes"/>
    <tag k="source:addr" v="msi"/>
  </way>
  <way id="30678638" version="2" timestamp="2009-01-31T01:56:55Z" uid="20587" user="balrog-kun" changeset="857442">
    <nd ref="339262910"/>
    <nd ref="339262911"/>
    <nd ref="339262908"/>
    <nd ref="339262909"/>
    <nd ref="339262910"/>
    <tag k="addr:housenumber" v="870"/>
    <tag k="addr:street" v="Wał Miedzeszyński"/>
    <tag k="building" v="yes"/>
    <tag k="source:addr" v="msi"/>
  </way>
  <way id="30678639" version="1" timestamp="2009-01-31T01:06:53Z" uid="20587" user="balrog-kun" changeset="857442">
    <nd ref="339262957"/>
    <nd ref="339262959"/>
    <nd ref="339262960"/>
    <nd ref="339262958"/>
    <nd ref="339262957"/>
    <tag k="amenity" v="school"/>
  </way>
  <way id="30678639" version="2" timestamp="2012-02-24T17:29:18Z" uid="99386" user="masti" changeset="10780469">
    <nd ref="339262957"/>
    <nd ref="1645801164"/>
    <nd ref="339262959"/>
    <nd ref="339262960"/>
    <nd ref="339262958"/>
    <nd ref="339262957"/>
    <tag k="amenity" v="school"/>
  </way>
  <way id="30678640" version="1" timestamp="2009-01-31T01:06:53Z" uid="20587" user="balrog-kun" changeset="857442">
    <nd ref="339262969"/>
    <nd ref="339262965"/>
    <nd ref="339262964"/>
    <nd ref="339262968"/>
    <nd ref="339262969"/>
    <tag k="addr:housenumber" v="9"/>
    <tag k="addr:street" v="Walecznych"/>
    <tag k="building" v="yes"/>
    <tag k="source:addr" v="msi"/>
  </way>
  <way id="30678641" version="1" timestamp="2009-01-31T01:06:54Z" uid="20587" user="balrog-kun" changeset="857442">
    <nd ref="339262965"/>
    <nd ref="339262966"/>
    <nd ref="339262967"/>
    <nd ref="339262964"/>
    <nd ref="339262965"/>
    <tag k="addr:housenumber" v="11"/>
    <tag k="addr:street" v="Walecznych"/>
    <tag k="building" v="yes"/>
    <tag k="source:addr" v="msi"/>
  </way>
  <way id="30678642" version="1" timestamp="2009-01-31T01:06:54Z" uid="20587" user="balrog-kun" changeset="857442">
    <nd ref="339262592"/>
    <nd ref="339262591"/>
    <nd ref="339262589"/>
    <nd ref="339262590"/>
    <nd ref="339262592"/>
    <tag k="addr:housenumber" v="41"/>
    <tag k="addr:street" v="Francuska"/>
    <tag k="building" v="yes"/>
    <tag k="source:addr" v="msi"/>
  </way>
  <way id="30678642" version="2" timestamp="2009-11-27T13:44:29Z" uid="20587" user="balrog-kun" changeset="3228126">
    <nd ref="339262592"/>
    <nd ref="339262591"/>
    <nd ref="339262589"/>
    <nd ref="339262590"/>
    <nd ref="339262592"/>
    <tag k="addr:housenumber" v="41"/>
    <tag k="addr:street" v="Francuska"/>
    <tag k="building" v="yes"/>
    <tag k="building:levels" v="3"/>
    <tag k="source:addr" v="msi"/>
  </way>
  <way id="30678643" version="1" timestamp="2009-01-31T01:06:54Z" uid="20587" user="balrog-kun" changeset="857442">
    <nd ref="339262594"/>
    <nd ref="339262596"/>
    <nd ref="339262595"/>
    <nd ref="339262598"/>
    <nd ref="339262597"/>
    <nd ref="339262593"/>
    <nd ref="339262594"/>
    <tag k="addr:housenumber" v="45"/>
    <tag k="addr:street" v="Francuska"/>
    <tag k="building" v="yes"/>
    <tag k="source:addr" v="msi"/>
  </way>
  <way id="30678643" version="2" timestamp="2009-11-27T13:44:29Z" uid="20587" user="balrog-kun" changeset="3228126">
    <nd ref="339262594"/>
    <nd ref="339262596"/>
    <nd ref="339262595"/>
    <nd ref="339262598"/>
    <nd ref="339262597"/>
    <nd ref="339262593"/>
    <nd ref="339262594"/>
    <tag k="addr:housenumber" v="45"/>
    <tag k="addr:street" v="Francuska"/>
    <tag k="building" v="yes"/>
    <tag k="building:levels" v="3"/>
    <tag k="source:addr" v="msi"/>
  </way>
  <way id="30678644" version="1" timestamp="2009-01-31T01:06:54Z" uid="20587" user="balrog-kun" changeset="857442">
    <nd ref="339262591"/>
    <nd ref="339262592"/>
    <nd ref="339262594"/>
    <nd ref="339262593"/>
    <nd ref="339262591"/>
    <tag k="addr:housenumber" v="43"/>
    <tag k="addr:street" v="Francuska"/>
    <tag k="building" v="yes"/>
    <tag k="source:addr" v="msi"/>
  </way>
  <way id="30678644" version="2" timestamp="2009-11-27T13:44:29Z" uid="20587" user="balrog-kun" changeset="3228126">
    <nd ref="339262591"/>
    <nd ref="339262592"/>
    <nd ref="339262594"/>
    <nd ref="339262593"/>
    <nd ref="339262591"/>
    <tag k="addr:housenumber" v="43"/>
    <tag k="addr:street" v="Francuska"/>
    <tag k="building" v="yes"/>
    <tag k="building:levels" v="3"/>
    <tag k="source:addr" v="msi"/>
  </way>
  <way id="30678645" version="1" timestamp="2009-01-31T01:06:55Z" uid="20587" user="balrog-kun" changeset="857442">
    <nd ref="339262804"/>
    <nd ref="339262803"/>
    <nd ref="339262805"/>
    <nd ref="339262806"/>
    <nd ref="339262804"/>
    <tag k="addr:housenumber" v="13"/>
    <tag k="addr:street" v="Czeska"/>
    <tag k="building" v="yes"/>
    <tag k="source:addr" v="msi"/>
  </way>
  <way id="30678646" version="1" timestamp="2009-01-31T01:06:55Z" uid="20587" user="balrog-kun" changeset="857442">
    <nd ref="339262802"/>
    <nd ref="339262800"/>
    <nd ref="339262799"/>
    <nd ref="339262801"/>
    <nd ref="339262802"/>
    <tag k="addr:housenumber" v="15a"/>
    <tag k="addr:street" v="Czeska"/>
    <tag k="building" v="yes"/>
    <tag k="source:addr" v="msi"/>
  </way>
  <way id="30678647" version="1" timestamp="2009-01-31T01:06:55Z" uid="20587" user="balrog-kun" changeset="857442">
    <nd ref="339262804"/>
    <nd ref="339262802"/>
    <nd ref="339262801"/>
    <nd ref="339262803"/>
    <nd ref="339262804"/>
    <tag k="addr:housenumber" v="15"/>
    <tag k="addr:street" v="Czeska"/>
    <tag k="building" v="yes"/>
    <tag k="source:addr" v="msi"/>
  </way>
  <way id="30678648" version="1" timestamp="2009-01-31T01:06:55Z" uid="20587" user="balrog-kun" changeset="857442">
    <nd ref="339262562"/>
    <nd ref="339262564"/>
    <nd ref="339262563"/>
    <nd ref="339262561"/>
    <nd ref="339262562"/>
    <tag k="addr:housenumber" v="7a"/>
    <tag k="addr:street" v="Berezyńska"/>
    <tag k="building" v="yes"/>
    <tag k="source:addr" v="msi"/>
  </way>
  <way id="30678649" version="1" timestamp="2009-01-31T01:06:55Z" uid="20587" user="balrog-kun" changeset="857442">
    <nd ref="339262561"/>
    <nd ref="339262559"/>
    <nd ref="339262560"/>
    <nd ref="339262562"/>
    <nd ref="339262561"/>
    <tag k="addr:housenumber" v="7"/>
    <tag k="addr:street" v="Berezyńska"/>
    <tag k="building" v="yes"/>
    <tag k="source:addr" v="msi"/>
  </way>
  <way id="30678650" version="1" timestamp="2009-01-31T01:06:56Z" uid="20587" user="balrog-kun" changeset="857442">
    <nd ref="339262645"/>
    <nd ref="339262649"/>
    <nd ref="339262648"/>
    <nd ref="339262656"/>
    <nd ref="339262647"/>
    <nd ref="339262646"/>
    <nd ref="339262645"/>
    <tag k="addr:housenumber" v="14"/>
    <tag k="addr:street" v="Berezyńska"/>
    <tag k="building" v="yes"/>
    <tag k="source:addr" v="msi"/>
  </way>
  <way id="30678651" version="1" timestamp="2009-01-31T01:06:56Z" uid="20587" user="balrog-kun" changeset="857442">
    <nd ref="339262468"/>
    <nd ref="339262470"/>
    <nd ref="339262471"/>
    <nd ref="339262469"/>
    <nd ref="339262468"/>
    <tag k="addr:housenumber" v="6"/>
    <tag k="addr:street" v="Estońska"/>
    <tag k="building" v="yes"/>
    <tag k="source:addr" v="msi"/>
  </way>
  <way id="30678652" version="1" timestamp="2009-01-31T01:06:56Z" uid="20587" user="balrog-kun" changeset="857442">
    <nd ref="339262459"/>
    <nd ref="339262457"/>
    <nd ref="339262456"/>
    <nd ref="339262458"/>
    <nd ref="339262459"/>
    <tag k="addr:housenumber" v="7/9"/>
    <tag k="addr:street" v="Lipska"/>
    <tag k="building" v="yes"/>
    <tag k="source:addr" v="msi"/>
  </way>
  <way id="30678653" version="1" timestamp="2009-01-31T01:06:56Z" uid="20587" user="balrog-kun" changeset="857442">
    <nd ref="339262622"/>
    <nd ref="339262621"/>
    <nd ref="339262623"/>
    <nd ref="339262624"/>
    <nd ref="339262622"/>
    <tag k="addr:housenumber" v="12"/>
    <tag k="addr:street" v="Lipska"/>
    <tag k="building" v="yes"/>
    <tag k="source:addr" v="msi"/>
  </way>
  <way id="30678654" version="1" timestamp="2009-01-31T01:06:56Z" uid="20587" user="balrog-kun" changeset="857442">
    <nd ref="339262626"/>
    <nd ref="339262624"/>
    <nd ref="339262623"/>
    <nd ref="339262625"/>
    <nd ref="339262626"/>
    <tag k="addr:housenumber" v="14"/>
    <tag k="addr:street" v="Lipska"/>
    <tag k="building" v="yes"/>
    <tag k="source:addr" v="msi"/>
  </way>
  <way id="30678655" version="1" timestamp="2009-01-31T01:06:57Z" uid="20587" user="balrog-kun" changeset="857442">
    <nd ref="339262627"/>
    <nd ref="339262628"/>
    <nd ref="339262626"/>
    <nd ref="339262625"/>
    <nd ref="339262627"/>
    <tag k="addr:housenumber" v="16"/>
    <tag k="addr:street" v="Lipska"/>
    <tag k="building" v="yes"/>
    <tag k="source:addr" v="msi"/>
  </way>
  <way id="30678656" version="1" timestamp="2009-01-31T01:06:57Z" uid="20587" user="balrog-kun" changeset="857442">
    <nd ref="339262462"/>
    <nd ref="339262464"/>
    <nd ref="339262465"/>
    <nd ref="339262463"/>
    <nd ref="339262462"/>
    <tag k="addr:housenumber" v="5"/>
    <tag k="addr:street" v="Finlandzka"/>
    <tag k="building" v="yes"/>
    <tag k="source:addr" v="msi"/>
  </way>
  <way id="30678657" version="1" timestamp="2009-01-31T01:06:57Z" uid="20587" user="balrog-kun" changeset="857442">
    <nd ref="339262461"/>
    <nd ref="339262460"/>
    <nd ref="339262462"/>
    <nd ref="339262463"/>
    <nd ref="339262461"/>
    <tag k="addr:housenumber" v="5a"/>
    <tag k="addr:street" v="Finlandzka"/>
    <tag k="building" v="yes"/>
    <tag k="source:addr" v="msi"/>
  </way>
  <way id="30678658" version="1" timestamp="2009-01-31T01:06:57Z" uid="20587" user="balrog-kun" changeset="857442">
    <nd ref="339262975"/>
    <nd ref="339262977"/>
    <nd ref="339262978"/>
    <nd ref="339262976"/>
    <nd ref="339262975"/>
    <tag k="addr:housenumber" v="7"/>
    <tag k="addr:street" v="Finlandzka"/>
    <tag k="building" v="yes"/>
    <tag k="source:addr" v="msi"/>
  </way>
  <way id="30678659" version="1" timestamp="2009-01-31T01:06:57Z" uid="20587" user="balrog-kun" changeset="857442">
    <nd ref="339262980"/>
    <nd ref="339262981"/>
    <nd ref="339262983"/>
    <nd ref="339262982"/>
    <nd ref="339262980"/>
    <tag k="addr:housenumber" v="15"/>
    <tag k="addr:street" v="Lipska"/>
    <tag k="building" v="yes"/>
    <tag k="source:addr" v="msi"/>
  </way>
  <way id="30678707" version="2" timestamp="2011-03-18T15:39:30Z" uid="4467" user="Rosscoe" changeset="7596453">
    <nd ref="92635633"/>
    <nd ref="92635680"/>
    <nd ref="279714116"/>
    <tag k="highway" v="residential"/>
    <tag k="is_in" v="Mile End,South Australia,Australia"/>
    <tag k="maxspeed" v="50"/>
    <tag k="name" v="Roebuck Street"/>
    <tag k="note" v="This street does NOT intersect with South Road. Stop pretending that it does."/>
    <tag k="postal_code" v="5031"/>
  </way>
  <way id="30678721" version="2" timestamp="2010-06-01T02:45:17Z" uid="4467" user="Rosscoe" changeset="4871086">
    <nd ref="339263547"/>
    <nd ref="339263549"/>
    <nd ref="339263548"/>
    <tag k="highway" v="residential"/>
    <tag k="maxspeed" v="50"/>
    <tag k="name" v="Fatchen Court"/>
  </way>
  <way id="30678722" version="2" timestamp="2010-06-01T02:45:19Z" uid="4467" user="Rosscoe" changeset="4871086">
    <nd ref="339263549"/>
    <nd ref="339263550"/>
    <tag k="highway" v="residential"/>
    <tag k="maxspeed" v="50"/>
    <tag k="name" v="Fatchen Court"/>
  </way>
  <way id="30678818" version="6" timestamp="2009-12-27T13:37:41Z" uid="4467" user="Rosscoe" changeset="3462711">
    <nd ref="339264312"/>
    <nd ref="599981955"/>
    <tag k="highway" v="residential"/>
  </way>
  <way id="30678818" version="7" timestamp="2010-07-06T17:38:08Z" uid="74617" user="JohnSmith" changeset="5152225">
    <nd ref="339264312"/>
    <nd ref="599981955"/>
    <tag k="highway" v="residential"/>
    <tag k="maxspeed" v="50"/>
    <tag k="maxspeed:source" v="default residential speed limit in Australia"/>
  </way>
  <way id="30678818" version="8" timestamp="2012-01-18T04:52:36Z" uid="147510" user="woodpeck_fixbot" changeset="10424371">
    <nd ref="339264312"/>
    <nd ref="599981955"/>
    <tag k="highway" v="residential"/>
  </way>
  <way id="30678851" version="7" timestamp="2010-03-28T00:58:09Z" uid="20587" user="balrog-kun" changeset="4250871">
    <nd ref="339264943"/>
    <nd ref="262229698"/>
    <tag k="cycleway" v="lane"/>
    <tag k="highway" v="tertiary"/>
    <tag k="name" v="Airport Boulevard"/>
    <tag k="tiger:cfcc" v="A41"/>
    <tag k="tiger:county" v="San Mateo, CA"/>
    <tag k="tiger:name_base" v="Airport"/>
    <tag k="tiger:name_type" v="Blvd"/>
    <tag k="tiger:separated" v="no"/>
    <tag k="tiger:source" v="tiger_import_dch_v0.6_20070809"/>
    <tag k="tiger:tlid" v="192403075:192403079:192403080:192376470:192376471:192376473:192376534:192402395"/>
    <tag k="tiger:zip_left" v="94010"/>
    <tag k="tiger:zip_right" v="94010"/>
  </way>
  <way id="30678851" version="8" timestamp="2011-01-21T03:45:48Z" uid="201724" user="mk408" changeset="7036772">
    <nd ref="339264943"/>
    <nd ref="262229698"/>
    <tag k="cycleway" v="lane"/>
    <tag k="highway" v="secondary"/>
    <tag k="name" v="Airport Boulevard"/>
    <tag k="tiger:cfcc" v="A41"/>
    <tag k="tiger:county" v="San Mateo, CA"/>
    <tag k="tiger:name_base" v="Airport"/>
    <tag k="tiger:name_type" v="Blvd"/>
    <tag k="tiger:separated" v="no"/>
    <tag k="tiger:source" v="tiger_import_dch_v0.6_20070809"/>
    <tag k="tiger:tlid" v="192403075:192403079:192403080:192376470:192376471:192376473:192376534:192402395"/>
    <tag k="tiger:zip_left" v="94010"/>
    <tag k="tiger:zip_right" v="94010"/>
  </way>
  <way id="30678852" version="5" timestamp="2010-03-28T00:58:09Z" uid="20587" user="balrog-kun" changeset="4250871">
    <nd ref="262229698"/>
    <nd ref="318208281"/>
    <nd ref="262229699"/>
    <nd ref="318208662"/>
    <nd ref="318208664"/>
    <nd ref="318208665"/>
    <nd ref="318208666"/>
    <nd ref="318208282"/>
    <nd ref="318208284"/>
    <nd ref="272748907"/>
    <tag k="created_by" v="Potlatch 0.10f"/>
    <tag k="cycleway" v="lane"/>
    <tag k="highway" v="tertiary"/>
    <tag k="name" v="Airport Boulevard"/>
    <tag k="oneway" v="yes"/>
    <tag k="tiger:cfcc" v="A41"/>
    <tag k="tiger:county" v="San Mateo, CA"/>
    <tag k="tiger:name_base" v="Airport"/>
    <tag k="tiger:name_type" v="Blvd"/>
    <tag k="tiger:separated" v="no"/>
    <tag k="tiger:source" v="tiger_import_dch_v0.6_20070809"/>
    <tag k="tiger:tlid" v="192403075:192403079:192403080:192376470:192376471:192376473:192376534:192402395"/>
    <tag k="tiger:zip_left" v="94010"/>
    <tag k="tiger:zip_right" v="94010"/>
  </way>
  <way id="30678852" version="6" timestamp="2011-01-21T03:45:32Z" uid="201724" user="mk408" changeset="7036772">
    <nd ref="262229698"/>
    <nd ref="318208281"/>
    <nd ref="262229699"/>
    <nd ref="318208662"/>
    <nd ref="318208664"/>
    <nd ref="318208665"/>
    <nd ref="318208666"/>
    <nd ref="318208282"/>
    <nd ref="318208284"/>
    <nd ref="272748907"/>
    <tag k="cycleway" v="lane"/>
    <tag k="highway" v="secondary"/>
    <tag k="name" v="Airport Boulevard"/>
    <tag k="oneway" v="yes"/>
    <tag k="tiger:county" v="San Mateo, CA"/>
    <tag k="tiger:name_base" v="Airport"/>
    <tag k="tiger:name_type" v="Blvd"/>
    <tag k="tiger:zip_left" v="94010"/>
    <tag k="tiger:zip_right" v="94010"/>
  </way>
  <way id="30678857" version="3" timestamp="2010-01-23T12:30:08Z" uid="151899" user="Bikeman2000" changeset="3691058">
    <nd ref="339264979"/>
    <nd ref="339264980"/>
    <nd ref="339264981"/>
    <nd ref="339264982"/>
    <nd ref="339264983"/>
    <nd ref="339264984"/>
    <nd ref="618637954"/>
    <nd ref="339264979"/>
    <tag k="leisure" v="park"/>
    <tag k="name" v="Schloss Jägerhof"/>
  </way>
  <way id="30678857" version="4" timestamp="2010-06-16T21:22:10Z" uid="151899" user="Bikeman2000" changeset="5004562">
    <nd ref="339264979"/>
    <nd ref="339264980"/>
    <nd ref="339264981"/>
    <nd ref="774071789"/>
    <nd ref="339264982"/>
    <nd ref="774071800"/>
    <nd ref="339264983"/>
    <nd ref="339264984"/>
    <nd ref="774071805"/>
    <nd ref="618637954"/>
    <nd ref="774071798"/>
    <nd ref="339264979"/>
    <tag k="leisure" v="park"/>
    <tag k="name" v="Schloss Jägerhof"/>
  </way>
  <way id="30678857" version="5" timestamp="2010-06-24T18:18:50Z" uid="151899" user="Bikeman2000" changeset="5068069">
    <nd ref="339264979"/>
    <nd ref="787862150"/>
    <nd ref="787862082"/>
    <nd ref="787862292"/>
    <nd ref="339264980"/>
    <nd ref="339264981"/>
    <nd ref="774071789"/>
    <nd ref="339264982"/>
    <nd ref="774071800"/>
    <nd ref="339264983"/>
    <nd ref="787862146"/>
    <nd ref="339264984"/>
    <nd ref="774071805"/>
    <nd ref="618637954"/>
    <nd ref="774071798"/>
    <nd ref="339264979"/>
    <tag k="leisure" v="park"/>
    <tag k="name" v="Schloss Jägerhof"/>
  </way>
  <way id="30678857" version="6" timestamp="2010-06-26T09:32:22Z" uid="151899" user="Bikeman2000" changeset="5079545">
    <nd ref="339264979"/>
    <nd ref="787862150"/>
    <nd ref="787862082"/>
    <nd ref="787862292"/>
    <nd ref="339264980"/>
    <nd ref="790874880"/>
    <nd ref="339264981"/>
    <nd ref="774071789"/>
    <nd ref="339264982"/>
    <nd ref="774071800"/>
    <nd ref="339264983"/>
    <nd ref="787862146"/>
    <nd ref="339264984"/>
    <nd ref="774071805"/>
    <nd ref="618637954"/>
    <nd ref="774071798"/>
    <nd ref="339264979"/>
    <tag k="leisure" v="park"/>
    <tag k="name" v="Schloss Jägerhof"/>
  </way>
  <way id="30678857" version="7" timestamp="2010-07-20T13:11:50Z" uid="120715" user="ruhri2010" changeset="5270507">
    <nd ref="339264979"/>
    <nd ref="787862150"/>
    <nd ref="787862082"/>
    <nd ref="787862292"/>
    <nd ref="339264980"/>
    <nd ref="790874880"/>
    <nd ref="339264981"/>
    <nd ref="774071789"/>
    <nd ref="339264982"/>
    <nd ref="774071800"/>
    <nd ref="339264983"/>
    <nd ref="826108202"/>
    <nd ref="787862146"/>
    <nd ref="339264984"/>
    <nd ref="774071805"/>
    <nd ref="618637954"/>
    <nd ref="774071798"/>
    <nd ref="339264979"/>
    <tag k="leisure" v="park"/>
    <tag k="name" v="Schloss Jägerhof"/>
  </way>
  <way id="30678857" version="8" timestamp="2011-03-23T21:51:55Z" uid="105839" user="jotzt" changeset="7650897">
    <nd ref="339264979"/>
    <nd ref="787862150"/>
    <nd ref="787862082"/>
    <nd ref="787862292"/>
    <nd ref="339264980"/>
    <nd ref="790874880"/>
    <nd ref="339264981"/>
    <nd ref="774071789"/>
    <nd ref="339264982"/>
    <nd ref="774071800"/>
    <nd ref="339264983"/>
    <nd ref="339264984"/>
    <nd ref="774071805"/>
    <nd ref="618637954"/>
    <nd ref="774071798"/>
    <nd ref="339264979"/>
    <tag k="leisure" v="park"/>
    <tag k="name" v="Schloss Jägerhof"/>
  </way>
  <way id="30678857" version="9" timestamp="2011-03-24T21:25:34Z" uid="105839" user="jotzt" changeset="7660232">
    <nd ref="339264979"/>
    <nd ref="787862150"/>
    <nd ref="787862082"/>
    <nd ref="787862292"/>
    <nd ref="339264980"/>
    <nd ref="790874880"/>
    <nd ref="339264981"/>
    <nd ref="774071789"/>
    <nd ref="339264982"/>
    <nd ref="774071800"/>
    <nd ref="339264983"/>
    <nd ref="339264984"/>
    <nd ref="339264979"/>
    <tag k="leisure" v="park"/>
    <tag k="name" v="Schloss Jägerhof"/>
  </way>
  <way id="30678857" version="10" timestamp="2011-04-07T18:22:23Z" uid="105839" user="jotzt" changeset="7797057">
    <nd ref="339264979"/>
    <nd ref="787862150"/>
    <nd ref="787862082"/>
    <nd ref="787862292"/>
    <nd ref="339264980"/>
    <nd ref="790874880"/>
    <nd ref="339264981"/>
    <nd ref="774071789"/>
    <nd ref="774071800"/>
    <nd ref="339264983"/>
    <nd ref="339264984"/>
    <nd ref="339264979"/>
    <tag k="leisure" v="park"/>
    <tag k="name" v="Schloss Jägerhof"/>
  </way>
  <way id="30678857" version="11" timestamp="2011-04-21T18:00:58Z" uid="105839" user="jotzt" changeset="7927669">
    <nd ref="339264979"/>
    <nd ref="787862150"/>
    <nd ref="787862082"/>
    <nd ref="787862292"/>
    <nd ref="339264980"/>
    <nd ref="790874880"/>
    <nd ref="339264981"/>
    <nd ref="774071789"/>
    <nd ref="774071800"/>
    <nd ref="339264983"/>
    <nd ref="339264984"/>
    <nd ref="339264979"/>
    <tag k="leisure" v="park"/>
  </way>
  <way id="30678857" version="12" timestamp="2012-01-26T00:02:27Z" uid="173844" user="Antikalk" changeset="10498887"/>
  <way id="30678872" version="7" timestamp="2010-01-23T12:30:09Z" uid="151899" user="Bikeman2000" changeset="3691058">
    <nd ref="339265036"/>
    <nd ref="506284220"/>
    <nd ref="506284219"/>
    <nd ref="495315197"/>
    <nd ref="339265037"/>
    <nd ref="339265038"/>
    <nd ref="495315198"/>
    <nd ref="339265039"/>
    <nd ref="495315195"/>
    <nd ref="495315194"/>
    <nd ref="339265040"/>
    <nd ref="495315192"/>
    <nd ref="495315191"/>
    <nd ref="339265041"/>
    <nd ref="339265042"/>
    <nd ref="495315365"/>
    <nd ref="339265046"/>
    <nd ref="339265047"/>
    <nd ref="618637956"/>
    <nd ref="339265036"/>
    <tag k="barrier" v="fence"/>
    <tag k="leisure" v="garden"/>
    <tag k="name" v="Malkasten, Jakobigarten"/>
    <tag k="source" v="survey, GPS, yahoo"/>
  </way>
  <way id="30678872" version="8" timestamp="2010-05-04T20:16:41Z" uid="151899" user="Bikeman2000" changeset="4607817">
    <nd ref="339265036"/>
    <nd ref="506284220"/>
    <nd ref="506284219"/>
    <nd ref="495315197"/>
    <nd ref="339265037"/>
    <nd ref="339265038"/>
    <nd ref="495315198"/>
    <nd ref="339265039"/>
    <nd ref="495315195"/>
    <nd ref="495315194"/>
    <nd ref="339265040"/>
    <nd ref="495315192"/>
    <nd ref="495315191"/>
    <nd ref="339265041"/>
    <nd ref="339265042"/>
    <nd ref="495315365"/>
    <nd ref="721433004"/>
    <nd ref="339265046"/>
    <nd ref="339265047"/>
    <nd ref="618637956"/>
    <nd ref="339265036"/>
    <tag k="barrier" v="fence"/>
    <tag k="leisure" v="garden"/>
    <tag k="name" v="Malkasten, Jakobigarten"/>
    <tag k="source" v="survey, GPS, yahoo"/>
  </way>
  <way id="30678872" version="9" timestamp="2011-03-15T17:18:16Z" uid="105839" user="jotzt" changeset="7568130">
    <nd ref="339265036"/>
    <nd ref="506284220"/>
    <nd ref="506284219"/>
    <nd ref="495315197"/>
    <nd ref="339265037"/>
    <nd ref="339265038"/>
    <nd ref="495315198"/>
    <nd ref="339265039"/>
    <nd ref="495315195"/>
    <nd ref="495315194"/>
    <nd ref="339265040"/>
    <nd ref="495315192"/>
    <nd ref="495315191"/>
    <nd ref="339265041"/>
    <nd ref="339265042"/>
    <nd ref="495315365"/>
    <nd ref="721433004"/>
    <nd ref="721433009"/>
    <nd ref="339265046"/>
    <nd ref="339265047"/>
    <nd ref="618637956"/>
    <nd ref="339265036"/>
    <tag k="barrier" v="fence"/>
    <tag k="leisure" v="garden"/>
    <tag k="name" v="Malkasten, Jakobigarten"/>
    <tag k="source" v="survey, GPS, yahoo"/>
  </way>
  <way id="30678872" version="10" timestamp="2011-04-07T18:22:32Z" uid="105839" user="jotzt" changeset="7797057">
    <nd ref="339265036"/>
    <nd ref="506284220"/>
    <nd ref="506284219"/>
    <nd ref="495315197"/>
    <nd ref="339265037"/>
    <nd ref="339265038"/>
    <nd ref="495315198"/>
    <nd ref="339265039"/>
    <nd ref="495315195"/>
    <nd ref="495315194"/>
    <nd ref="339265040"/>
    <nd ref="495315192"/>
    <nd ref="495315191"/>
    <nd ref="339265041"/>
    <nd ref="339265042"/>
    <nd ref="1236384491"/>
    <nd ref="495315365"/>
    <nd ref="721433004"/>
    <nd ref="721433009"/>
    <nd ref="339265046"/>
    <nd ref="339265047"/>
    <nd ref="618637956"/>
    <nd ref="339265036"/>
    <tag k="barrier" v="fence"/>
    <tag k="leisure" v="garden"/>
    <tag k="name" v="Malkasten, Jakobigarten"/>
    <tag k="source" v="survey, GPS, yahoo"/>
  </way>
  <way id="30678872" version="11" timestamp="2011-04-21T20:10:57Z" uid="105839" user="jotzt" changeset="7928913">
    <nd ref="339265036"/>
    <nd ref="506284220"/>
    <nd ref="506284219"/>
    <nd ref="495315197"/>
    <nd ref="339265037"/>
    <nd ref="339265038"/>
    <nd ref="495315198"/>
    <nd ref="339265039"/>
    <nd ref="495315195"/>
    <nd ref="495315194"/>
    <nd ref="1254525194"/>
    <nd ref="1254525218"/>
    <nd ref="339265040"/>
    <nd ref="495315192"/>
    <nd ref="495315191"/>
    <nd ref="339265041"/>
    <nd ref="339265042"/>
    <nd ref="1236384491"/>
    <nd ref="495315365"/>
    <nd ref="721433004"/>
    <nd ref="721433009"/>
    <nd ref="339265046"/>
    <nd ref="339265047"/>
    <nd ref="339265036"/>
    <tag k="leisure" v="garden"/>
    <tag k="name" v="Malkasten, Jakobigarten"/>
    <tag k="source" v="survey, GPS, yahoo"/>
  </way>
  <way id="30678872" version="12" timestamp="2012-01-26T00:02:14Z" uid="173844" user="Antikalk" changeset="10498887"/>
</osm>
