<?xml version='1.0' encoding='UTF-8'?>
<osm version="0.6" generator="libosmium/2.20.0">
  <way id="3075474" version="21" timestamp="2008-08-09T09:30:18Z" uid="27600" user="Islanit" changeset="156652">
    <nd ref="180391"/>
    <nd ref="280595325"/>
    <nd ref="280591561"/>
    <nd ref="280592697"/>
    <nd ref="280593063"/>
    <nd ref="280592955"/>
    <nd ref="280593493"/>
    <nd ref="280592128"/>
    <nd ref="280593248"/>
    <nd ref="180375"/>
    <nd ref="280593259"/>
    <nd ref="280592224"/>
    <nd ref="180376"/>
    <nd ref="180377"/>
    <tag k="created_by" v="Potlatch 0.10"/>
    <tag k="highway" v="tertiary"/>
    <tag k="name" v="Havighorster Redder"/>
  </way>
  <way id="3075474" version="22" timestamp="2008-08-14T12:06:34Z" uid="1852" user="Sven Anders" changeset="239485">
    <nd ref="180391"/>
    <nd ref="280595325"/>
    <nd ref="280591561"/>
    <nd ref="280592697"/>
    <nd ref="280593063"/>
    <nd ref="280592955"/>
    <nd ref="280593493"/>
    <nd ref="280592128"/>
    <nd ref="280593248"/>
    <nd ref="180375"/>
    <nd ref="280593259"/>
    <nd ref="280592224"/>
    <nd ref="180376"/>
    <nd ref="180377"/>
    <tag k="created_by" v="Potlatch 0.10"/>
    <tag k="highway" v="tertiary"/>
    <tag k="name" v="Havighorster Redder"/>
    <tag k="postal_code" v="22115"/>
  </way>
  <way id="3075474" version="23" timestamp="2010-01-30T10:36:45Z" uid="63375" user="Divjo" changeset="3749579">
    <nd ref="180391"/>
    <nd ref="280595325"/>
    <nd ref="280591561"/>
    <nd ref="280592697"/>
    <nd ref="280593063"/>
    <nd ref="280592955"/>
    <nd ref="280593493"/>
    <nd ref="280592128"/>
    <nd ref="280593248"/>
    <nd ref="180375"/>
    <nd ref="280593259"/>
    <nd ref="280592224"/>
    <nd ref="180376"/>
    <nd ref="180377"/>
    <tag k="highway" v="tertiary"/>
    <tag k="name" v="Havighorster Redder"/>
    <tag k="postal_code" v="22115"/>
  </way>
  <way id="3075474" version="24" timestamp="2010-12-07T15:40:11Z" uid="235597" user="andy737" changeset="6576132">
    <nd ref="180391"/>
    <nd ref="280595325"/>
    <nd ref="280591561"/>
    <nd ref="280592697"/>
    <nd ref="280593063"/>
    <nd ref="280592955"/>
    <nd ref="280593493"/>
    <nd ref="280592128"/>
    <nd ref="280593248"/>
    <nd ref="180375"/>
    <nd ref="280593259"/>
    <nd ref="280592224"/>
    <nd ref="180376"/>
    <nd ref="1026596652"/>
    <tag k="highway" v="tertiary"/>
    <tag k="name" v="Havighorster Redder"/>
    <tag k="postal_code" v="22115"/>
  </way>
  <way id="3075474" version="25" timestamp="2011-12-04T22:45:53Z" uid="349191" user="Glühwürmchen" changeset="10038382">
    <nd ref="180391"/>
    <nd ref="280595325"/>
    <nd ref="280591561"/>
    <nd ref="280592697"/>
    <nd ref="280593063"/>
    <nd ref="280592955"/>
    <nd ref="280593493"/>
    <nd ref="280592128"/>
    <nd ref="280593248"/>
    <nd ref="180375"/>
    <nd ref="280593259"/>
    <nd ref="280592224"/>
    <nd ref="1531912105"/>
    <nd ref="180376"/>
    <nd ref="1026596652"/>
    <tag k="highway" v="tertiary"/>
    <tag k="name" v="Havighorster Redder"/>
    <tag k="postal_code" v="22115"/>
  </way>
  <way id="3075476" version="6" timestamp="2008-07-24T17:39:10Z" uid="27600" user="Islanit" changeset="582665">
    <nd ref="180377"/>
    <nd ref="180384"/>
    <nd ref="180385"/>
    <nd ref="162439"/>
    <tag k="created_by" v="Potlatch 0.10"/>
    <tag k="highway" v="tertiary"/>
    <tag k="name" v="Kandinskyallee"/>
  </way>
  <way id="3075476" version="7" timestamp="2008-08-14T12:06:31Z" uid="1852" user="Sven Anders" changeset="239485">
    <nd ref="180377"/>
    <nd ref="180384"/>
    <nd ref="180385"/>
    <nd ref="162439"/>
    <tag k="created_by" v="Potlatch 0.10"/>
    <tag k="highway" v="tertiary"/>
    <tag k="name" v="Kandinskyallee"/>
    <tag k="postal_code" v="22115"/>
  </way>
  <way id="3075476" version="8" timestamp="2010-12-07T15:40:12Z" uid="235597" user="andy737" changeset="6576132">
    <nd ref="1026596678"/>
    <nd ref="180384"/>
    <nd ref="180385"/>
    <nd ref="162439"/>
    <tag k="highway" v="tertiary"/>
    <tag k="name" v="Kandinskyallee"/>
    <tag k="postal_code" v="22115"/>
  </way>
  <way id="3075476" version="9" timestamp="2011-04-09T10:37:47Z" uid="167616" user="ajeba" changeset="7811925">
    <nd ref="1026596678"/>
    <nd ref="180384"/>
    <nd ref="1238417210"/>
    <nd ref="180385"/>
    <nd ref="162439"/>
    <tag k="highway" v="tertiary"/>
    <tag k="name" v="Kandinskyallee"/>
    <tag k="postal_code" v="22115"/>
  </way>
  <way id="3075477" version="6" timestamp="2008-07-24T17:39:17Z" uid="27600" user="Islanit" changeset="582665">
    <nd ref="180413"/>
    <nd ref="240527120"/>
    <nd ref="178348"/>
    <nd ref="162438"/>
    <nd ref="180334"/>
    <nd ref="240542031"/>
    <nd ref="180335"/>
    <nd ref="280592827"/>
    <nd ref="240542034"/>
    <nd ref="162439"/>
    <tag k="created_by" v="Potlatch 0.10"/>
    <tag k="highway" v="tertiary"/>
    <tag k="name" v="Kandinskyallee"/>
    <tag k="oneway" v="yes"/>
  </way>
  <way id="3075477" version="7" timestamp="2008-08-09T09:30:17Z" uid="27600" user="Islanit" changeset="156652">
    <nd ref="180413"/>
    <nd ref="240527120"/>
    <nd ref="178348"/>
    <nd ref="162438"/>
    <nd ref="180334"/>
    <nd ref="240542031"/>
    <nd ref="180335"/>
    <nd ref="280592827"/>
    <nd ref="240542034"/>
    <nd ref="162439"/>
    <tag k="created_by" v="Potlatch 0.10"/>
    <tag k="highway" v="tertiary"/>
    <tag k="name" v="Kandinskyallee"/>
    <tag k="oneway" v="yes"/>
  </way>
  <way id="3075477" version="8" timestamp="2008-08-14T12:06:29Z" uid="1852" user="Sven Anders" changeset="239485">
    <nd ref="180413"/>
    <nd ref="240527120"/>
    <nd ref="178348"/>
    <nd ref="162438"/>
    <nd ref="180334"/>
    <nd ref="240542031"/>
    <nd ref="180335"/>
    <nd ref="280592827"/>
    <nd ref="240542034"/>
    <nd ref="162439"/>
    <tag k="created_by" v="Potlatch 0.10"/>
    <tag k="highway" v="tertiary"/>
    <tag k="name" v="Kandinskyallee"/>
    <tag k="oneway" v="yes"/>
    <tag k="postal_code" v="22115"/>
  </way>
  <way id="3075477" version="9" timestamp="2009-01-01T17:01:39Z" uid="23448" user="SvenR" changeset="698512">
    <nd ref="180413"/>
    <nd ref="240527120"/>
    <nd ref="178348"/>
    <nd ref="162438"/>
    <nd ref="180334"/>
    <nd ref="240542031"/>
    <nd ref="180335"/>
    <nd ref="280592827"/>
    <nd ref="240542034"/>
    <nd ref="162439"/>
    <tag k="created_by" v="Potlatch 0.10f"/>
    <tag k="highway" v="tertiary"/>
    <tag k="name" v="Kandinskyallee"/>
    <tag k="oneway" v="yes"/>
    <tag k="postal_code" v="22115"/>
  </way>
  <way id="3075477" version="10" timestamp="2009-01-01T17:01:51Z" uid="23448" user="SvenR" changeset="698512">
    <nd ref="180413"/>
    <nd ref="240527120"/>
    <nd ref="178348"/>
    <nd ref="162438"/>
    <nd ref="180334"/>
    <nd ref="240542031"/>
    <nd ref="180335"/>
    <nd ref="280592827"/>
    <nd ref="240542034"/>
    <nd ref="162439"/>
    <tag k="created_by" v="Potlatch 0.10f"/>
    <tag k="highway" v="tertiary"/>
    <tag k="name" v="Kandinskyallee"/>
    <tag k="oneway" v="yes"/>
    <tag k="postal_code" v="22115"/>
  </way>
  <way id="3075477" version="11" timestamp="2009-01-11T20:53:57Z" uid="44870" user="reca" changeset="774213">
    <nd ref="180413"/>
    <nd ref="240527120"/>
    <nd ref="178348"/>
    <tag k="created_by" v="Potlatch 0.10f"/>
    <tag k="highway" v="tertiary"/>
    <tag k="name" v="Kandinskyallee"/>
    <tag k="oneway" v="yes"/>
    <tag k="postal_code" v="22115"/>
  </way>
  <way id="3075477" version="12" timestamp="2011-04-09T10:37:46Z" uid="167616" user="ajeba" changeset="7811925">
    <nd ref="180388"/>
    <nd ref="240527120"/>
    <nd ref="178348"/>
    <tag k="highway" v="tertiary"/>
    <tag k="name" v="Kandinskyallee"/>
    <tag k="oneway" v="yes"/>
    <tag k="postal_code" v="22115"/>
  </way>
  <way id="3075477" version="13" timestamp="2012-01-26T20:31:45Z" uid="263596" user="Oberförster" changeset="10506915">
    <nd ref="180388"/>
    <nd ref="240527120"/>
    <nd ref="178348"/>
    <tag k="highway" v="tertiary"/>
    <tag k="motorroad" v="yes"/>
    <tag k="name" v="Kandinskyallee"/>
    <tag k="oneway" v="yes"/>
    <tag k="postal_code" v="22115"/>
  </way>
  <way id="3075477" version="14" timestamp="2012-01-29T01:57:56Z" uid="147510" user="woodpeck_fixbot" changeset="10526539">
    <nd ref="180388"/>
    <nd ref="240527120"/>
    <nd ref="178348"/>
    <tag k="highway" v="tertiary"/>
    <tag k="name" v="Kandinskyallee"/>
    <tag k="oneway" v="yes"/>
    <tag k="postal_code" v="22115"/>
  </way>
  <way id="3075478" version="5" timestamp="2008-07-24T17:39:27Z" uid="27600" user="Islanit" changeset="582665">
    <nd ref="162439"/>
    <nd ref="280592839"/>
    <nd ref="240542026"/>
    <nd ref="240542039"/>
    <nd ref="162441"/>
    <nd ref="180333"/>
    <nd ref="180336"/>
    <nd ref="180388"/>
    <tag k="created_by" v="Potlatch 0.10"/>
    <tag k="highway" v="tertiary"/>
    <tag k="name" v="Kandinskyallee"/>
    <tag k="oneway" v="yes"/>
  </way>
  <way id="3075478" version="6" timestamp="2008-08-09T09:30:18Z" uid="27600" user="Islanit" changeset="156652">
    <nd ref="162439"/>
    <nd ref="280592839"/>
    <nd ref="240542026"/>
    <nd ref="240542039"/>
    <nd ref="162441"/>
    <nd ref="180333"/>
    <nd ref="180336"/>
    <nd ref="180388"/>
    <tag k="created_by" v="Potlatch 0.10"/>
    <tag k="highway" v="tertiary"/>
    <tag k="name" v="Kandinskyallee"/>
    <tag k="oneway" v="yes"/>
  </way>
  <way id="3075478" version="7" timestamp="2008-08-14T12:06:33Z" uid="1852" user="Sven Anders" changeset="239485">
    <nd ref="162439"/>
    <nd ref="280592839"/>
    <nd ref="240542026"/>
    <nd ref="240542039"/>
    <nd ref="162441"/>
    <nd ref="180333"/>
    <nd ref="180336"/>
    <nd ref="180388"/>
    <tag k="created_by" v="Potlatch 0.10"/>
    <tag k="highway" v="tertiary"/>
    <tag k="name" v="Kandinskyallee"/>
    <tag k="oneway" v="yes"/>
    <tag k="postal_code" v="22115"/>
  </way>
  <way id="3075478" version="8" timestamp="2009-01-01T17:01:47Z" uid="23448" user="SvenR" changeset="698512">
    <nd ref="162439"/>
    <nd ref="280592839"/>
    <nd ref="240542026"/>
    <nd ref="240542039"/>
    <nd ref="162441"/>
    <nd ref="180333"/>
    <nd ref="180336"/>
    <nd ref="180388"/>
    <tag k="created_by" v="Potlatch 0.10f"/>
    <tag k="highway" v="tertiary"/>
    <tag k="name" v="Kandinskyallee"/>
    <tag k="oneway" v="yes"/>
    <tag k="postal_code" v="22115"/>
  </way>
  <way id="3075478" version="9" timestamp="2010-03-08T08:21:06Z" uid="27600" user="Islanit" changeset="4069418">
    <nd ref="178348"/>
    <nd ref="162438"/>
    <nd ref="180334"/>
    <nd ref="240542031"/>
    <nd ref="180335"/>
    <nd ref="280592827"/>
    <nd ref="240542034"/>
    <nd ref="162439"/>
    <nd ref="280592839"/>
    <nd ref="240542026"/>
    <nd ref="240542039"/>
    <nd ref="162441"/>
    <nd ref="180333"/>
    <nd ref="180336"/>
    <nd ref="180388"/>
    <tag k="highway" v="tertiary"/>
    <tag k="name" v="Kandinskyallee"/>
    <tag k="oneway" v="yes"/>
    <tag k="postal_code" v="22115"/>
  </way>
  <way id="3075478" version="10" timestamp="2010-09-04T23:02:07Z" uid="70260" user="user18" changeset="5683413">
    <nd ref="178348"/>
    <nd ref="896493763"/>
    <nd ref="162438"/>
    <nd ref="180334"/>
    <nd ref="240542031"/>
    <nd ref="180335"/>
    <nd ref="280592827"/>
    <nd ref="240542034"/>
    <nd ref="162439"/>
    <nd ref="280592839"/>
    <nd ref="240542026"/>
    <nd ref="240542039"/>
    <nd ref="162441"/>
    <nd ref="180333"/>
    <nd ref="180336"/>
    <nd ref="180388"/>
    <tag k="highway" v="tertiary"/>
    <tag k="name" v="Kandinskyallee"/>
    <tag k="oneway" v="yes"/>
    <tag k="postal_code" v="22115"/>
  </way>
  <way id="3075478" version="11" timestamp="2010-09-13T14:24:12Z" uid="73358" user="Bindeking" changeset="5770112">
    <nd ref="178348"/>
    <nd ref="896493763"/>
    <nd ref="162438"/>
    <nd ref="180334"/>
    <tag k="highway" v="tertiary"/>
    <tag k="name" v="Kandinskyallee"/>
    <tag k="oneway" v="yes"/>
    <tag k="postal_code" v="22115"/>
  </way>
  <way id="3075478" version="12" timestamp="2011-04-09T10:37:49Z" uid="167616" user="ajeba" changeset="7811925">
    <nd ref="178348"/>
    <nd ref="896493763"/>
    <nd ref="162438"/>
    <nd ref="1238417213"/>
    <nd ref="180334"/>
    <tag k="highway" v="tertiary"/>
    <tag k="name" v="Kandinskyallee"/>
    <tag k="oneway" v="yes"/>
    <tag k="postal_code" v="22115"/>
  </way>
  <way id="3075478" version="13" timestamp="2012-01-26T20:31:46Z" uid="263596" user="Oberförster" changeset="10506915">
    <nd ref="178348"/>
    <nd ref="896493763"/>
    <nd ref="162438"/>
    <nd ref="1238417213"/>
    <nd ref="180334"/>
    <tag k="highway" v="tertiary"/>
    <tag k="motorroad" v="yes"/>
    <tag k="name" v="Kandinskyallee"/>
    <tag k="oneway" v="yes"/>
    <tag k="postal_code" v="22115"/>
  </way>
  <way id="3075478" version="14" timestamp="2012-01-29T01:57:57Z" uid="147510" user="woodpeck_fixbot" changeset="10526539">
    <nd ref="178348"/>
    <nd ref="896493763"/>
    <nd ref="162438"/>
    <nd ref="1238417213"/>
    <nd ref="180334"/>
    <tag k="highway" v="tertiary"/>
    <tag k="name" v="Kandinskyallee"/>
    <tag k="oneway" v="yes"/>
    <tag k="postal_code" v="22115"/>
  </way>
  <way id="3075481" version="3" timestamp="2008-08-09T09:30:19Z" uid="27600" user="Islanit" changeset="156652">
    <nd ref="180333"/>
    <nd ref="162438"/>
    <tag k="created_by" v="Potlatch 0.10"/>
    <tag k="highway" v="tertiary"/>
    <tag k="oneway" v="yes"/>
  </way>
  <way id="3075481" version="4" timestamp="2011-06-03T20:21:30Z" uid="109035" user="Teddy80" changeset="8333382">
    <nd ref="180333"/>
    <nd ref="162438"/>
    <tag k="highway" v="tertiary"/>
    <tag k="oneway" v="yes"/>
  </way>
  <way id="3075483" version="8" timestamp="2008-08-09T09:30:19Z" uid="27600" user="Islanit" changeset="156652">
    <nd ref="180384"/>
    <nd ref="180348"/>
    <nd ref="180345"/>
    <nd ref="180353"/>
    <nd ref="180352"/>
    <nd ref="180351"/>
    <nd ref="180350"/>
    <nd ref="180349"/>
    <tag k="created_by" v="Potlatch 0.10"/>
    <tag k="highway" v="residential"/>
    <tag k="name" v="Rahewinkel"/>
  </way>
  <way id="3075483" version="9" timestamp="2008-08-14T12:06:39Z" uid="1852" user="Sven Anders" changeset="239485">
    <nd ref="180384"/>
    <nd ref="180348"/>
    <nd ref="180345"/>
    <nd ref="180353"/>
    <nd ref="180352"/>
    <nd ref="180351"/>
    <nd ref="180350"/>
    <nd ref="180349"/>
    <tag k="created_by" v="Potlatch 0.10"/>
    <tag k="highway" v="residential"/>
    <tag k="name" v="Rahewinkel"/>
    <tag k="postal_code" v="22115"/>
  </way>
  <way id="3075483" version="10" timestamp="2011-06-03T20:20:54Z" uid="109035" user="Teddy80" changeset="8333382">
    <nd ref="180384"/>
    <nd ref="180348"/>
    <nd ref="180345"/>
    <nd ref="180353"/>
    <nd ref="180352"/>
    <nd ref="180351"/>
    <nd ref="180350"/>
    <nd ref="180349"/>
    <tag k="highway" v="residential"/>
    <tag k="name" v="Rahewinkel"/>
    <tag k="postal_code" v="22115"/>
  </way>
  <way id="3075485" version="11" timestamp="2008-08-09T09:30:18Z" uid="27600" user="Islanit" changeset="156652">
    <nd ref="180335"/>
    <nd ref="180346"/>
    <nd ref="280880562"/>
    <nd ref="180347"/>
    <nd ref="248627766"/>
    <nd ref="180349"/>
    <nd ref="248627767"/>
    <nd ref="280595931"/>
    <nd ref="162447"/>
    <tag k="created_by" v="Potlatch 0.10"/>
    <tag k="highway" v="residential"/>
    <tag k="name" v="Steinbeker Grenzdamm"/>
  </way>
  <way id="3075485" version="12" timestamp="2008-08-14T12:06:36Z" uid="1852" user="Sven Anders" changeset="239485">
    <nd ref="180335"/>
    <nd ref="180346"/>
    <nd ref="280880562"/>
    <nd ref="180347"/>
    <nd ref="248627766"/>
    <nd ref="180349"/>
    <nd ref="248627767"/>
    <nd ref="280595931"/>
    <nd ref="162447"/>
    <tag k="created_by" v="Potlatch 0.10"/>
    <tag k="highway" v="residential"/>
    <tag k="name" v="Steinbeker Grenzdamm"/>
    <tag k="postal_code" v="22115"/>
  </way>
  <way id="3075485" version="13" timestamp="2010-09-04T22:59:01Z" uid="70260" user="user18" changeset="5683413">
    <nd ref="180335"/>
    <nd ref="180346"/>
    <nd ref="280880562"/>
    <nd ref="180347"/>
    <nd ref="248627766"/>
    <nd ref="180349"/>
    <nd ref="248627767"/>
    <nd ref="280595931"/>
    <nd ref="896492363"/>
    <nd ref="162447"/>
    <tag k="highway" v="residential"/>
    <tag k="name" v="Steinbeker Grenzdamm"/>
    <tag k="postal_code" v="22115"/>
  </way>
  <way id="3075485" version="14" timestamp="2010-09-13T14:38:55Z" uid="73358" user="Bindeking" changeset="5770112">
    <nd ref="180335"/>
    <nd ref="180346"/>
    <nd ref="280880562"/>
    <nd ref="180347"/>
    <nd ref="248627766"/>
    <nd ref="180349"/>
    <nd ref="248627767"/>
    <nd ref="280595931"/>
    <nd ref="896492363"/>
    <nd ref="162447"/>
    <tag k="highway" v="tertiary"/>
    <tag k="name" v="Steinbeker Grenzdamm"/>
    <tag k="postal_code" v="22115"/>
  </way>
  <way id="3075485" version="15" timestamp="2011-04-09T10:37:48Z" uid="167616" user="ajeba" changeset="7811925">
    <nd ref="180335"/>
    <nd ref="1238417204"/>
    <nd ref="180346"/>
    <nd ref="280880562"/>
    <nd ref="180347"/>
    <nd ref="1238417209"/>
    <nd ref="248627766"/>
    <nd ref="1238417207"/>
    <nd ref="180349"/>
    <nd ref="248627767"/>
    <nd ref="280595931"/>
    <nd ref="896492363"/>
    <nd ref="162447"/>
    <tag k="highway" v="tertiary"/>
    <tag k="name" v="Steinbeker Grenzdamm"/>
    <tag k="postal_code" v="22115"/>
  </way>
  <way id="3075486" version="6" timestamp="2008-08-09T09:30:19Z" uid="27600" user="Islanit" changeset="156652">
    <nd ref="168092"/>
    <nd ref="270049666"/>
    <nd ref="178302"/>
    <nd ref="270049667"/>
    <nd ref="178300"/>
    <nd ref="270049655"/>
    <nd ref="270049656"/>
    <nd ref="178301"/>
    <tag k="created_by" v="Potlatch 0.9c"/>
    <tag k="highway" v="residential"/>
    <tag k="name" v="Boberger Straße"/>
  </way>
  <way id="3075486" version="7" timestamp="2008-10-16T20:20:23Z" uid="72660" user="Räuber_Hotzenplotz" changeset="384438">
    <nd ref="168092"/>
    <nd ref="270049666"/>
    <nd ref="178302"/>
    <nd ref="305055837"/>
    <nd ref="270049667"/>
    <nd ref="178300"/>
    <nd ref="270049655"/>
    <nd ref="270049656"/>
    <nd ref="178301"/>
    <tag k="created_by" v="Potlatch 0.10e"/>
    <tag k="highway" v="residential"/>
    <tag k="name" v="Boberger Straße"/>
  </way>
  <way id="3075486" version="8" timestamp="2008-11-15T14:26:34Z" uid="72660" user="Räuber_Hotzenplotz" changeset="753454">
    <nd ref="168092"/>
    <nd ref="270049666"/>
    <nd ref="178302"/>
    <nd ref="305055837"/>
    <nd ref="270049667"/>
    <nd ref="178300"/>
    <nd ref="270049655"/>
    <nd ref="312210197"/>
    <nd ref="270049656"/>
    <nd ref="178301"/>
    <tag k="created_by" v="Potlatch 0.10f"/>
    <tag k="highway" v="residential"/>
    <tag k="name" v="Boberger Straße"/>
  </way>
  <way id="3075486" version="9" timestamp="2009-12-30T08:21:25Z" uid="27600" user="Islanit" changeset="3487769">
    <nd ref="168092"/>
    <nd ref="270049666"/>
    <nd ref="178302"/>
    <nd ref="305055837"/>
    <nd ref="270049667"/>
    <nd ref="178300"/>
    <nd ref="270049655"/>
    <nd ref="312210197"/>
    <nd ref="270049656"/>
    <nd ref="178301"/>
    <tag k="highway" v="tertiary"/>
    <tag k="name" v="Boberger Straße"/>
  </way>
  <way id="3075486" version="10" timestamp="2012-03-08T13:02:26Z" uid="63375" user="Divjo" changeset="10909008">
    <nd ref="168092"/>
    <nd ref="270049666"/>
    <nd ref="178302"/>
    <nd ref="1665807984"/>
    <nd ref="270049667"/>
    <nd ref="178300"/>
    <nd ref="270049655"/>
    <nd ref="1665807948"/>
    <nd ref="270049656"/>
    <nd ref="178301"/>
    <tag k="highway" v="tertiary"/>
    <tag k="name" v="Boberger Straße"/>
  </way>
  <way id="3075487" version="25" timestamp="2008-08-09T09:30:19Z" uid="27600" user="Islanit" changeset="156652">
    <nd ref="270050995"/>
    <nd ref="270051037"/>
    <nd ref="178347"/>
    <nd ref="178345"/>
    <tag k="created_by" v="Potlatch 0.9c"/>
    <tag k="highway" v="residential"/>
    <tag k="name" v="Heidhorststieg"/>
    <tag k="postal_code" v="21031"/>
  </way>
  <way id="3075487" version="26" timestamp="2008-08-11T09:16:51Z" uid="41512" user="Kuddl Klien" changeset="184398">
    <nd ref="270050995"/>
    <nd ref="270051037"/>
    <nd ref="178347"/>
    <nd ref="178345"/>
    <nd ref="286822824"/>
    <nd ref="268853428"/>
    <nd ref="268851217"/>
    <nd ref="286935244"/>
    <nd ref="270050498"/>
    <tag k="created_by" v="Potlatch 0.10b"/>
    <tag k="highway" v="residential"/>
    <tag k="name" v="Heidhorststieg"/>
    <tag k="postal_code" v="21031"/>
  </way>
  <way id="3075487" version="27" timestamp="2008-08-11T09:17:08Z" uid="41512" user="Kuddl Klien" changeset="184398">
    <nd ref="270050995"/>
    <nd ref="270051037"/>
    <nd ref="178347"/>
    <nd ref="178345"/>
    <nd ref="286822824"/>
    <nd ref="268853428"/>
    <nd ref="268851217"/>
    <nd ref="286935244"/>
    <nd ref="270050498"/>
    <tag k="created_by" v="Potlatch 0.10b"/>
    <tag k="highway" v="residential"/>
    <tag k="name" v="Heidhorststieg"/>
    <tag k="postal_code" v="21031"/>
  </way>
  <way id="3075487" version="28" timestamp="2008-11-11T10:29:50Z" uid="27600" user="Islanit" changeset="735004">
    <nd ref="270050995"/>
    <nd ref="270051037"/>
    <nd ref="178347"/>
    <nd ref="178345"/>
    <nd ref="286822824"/>
    <nd ref="268853428"/>
    <nd ref="268851217"/>
    <nd ref="286935244"/>
    <nd ref="270050498"/>
    <tag k="created_by" v="Potlatch 0.10f"/>
    <tag k="highway" v="residential"/>
    <tag k="name" v="Heidhorststieg"/>
    <tag k="postal_code" v="21031"/>
  </way>
  <way id="3075487" version="29" timestamp="2009-12-30T08:21:03Z" uid="27600" user="Islanit" changeset="3487769">
    <nd ref="270050995"/>
    <nd ref="270051037"/>
    <nd ref="178347"/>
    <nd ref="178345"/>
    <nd ref="286822824"/>
    <nd ref="268853428"/>
    <nd ref="268851217"/>
    <nd ref="286935244"/>
    <nd ref="270050498"/>
    <tag k="highway" v="tertiary"/>
    <tag k="name" v="Heidhorststieg"/>
    <tag k="postal_code" v="21031"/>
  </way>
  <way id="3075487" version="30" timestamp="2010-02-04T20:13:14Z" uid="63375" user="Divjo" changeset="3793091">
    <nd ref="270050995"/>
    <nd ref="270051037"/>
    <nd ref="629294571"/>
    <nd ref="178347"/>
    <nd ref="178345"/>
    <nd ref="629294567"/>
    <nd ref="286822824"/>
    <nd ref="268853428"/>
    <nd ref="268851217"/>
    <nd ref="286935244"/>
    <nd ref="270050498"/>
    <tag k="highway" v="tertiary"/>
    <tag k="name" v="Heidhorststieg"/>
    <tag k="postal_code" v="21031"/>
  </way>
  <way id="3075487" version="31" timestamp="2010-08-22T12:34:35Z" uid="336686" user="Ulf66" changeset="5560640">
    <nd ref="270050995"/>
    <nd ref="270051037"/>
    <nd ref="629294571"/>
    <nd ref="178347"/>
    <nd ref="178345"/>
    <nd ref="629294567"/>
    <nd ref="286822824"/>
    <nd ref="268853428"/>
    <nd ref="268851217"/>
    <nd ref="286935244"/>
    <nd ref="270050498"/>
    <tag k="highway" v="tertiary"/>
    <tag k="name" v="Heidhorst"/>
    <tag k="postal_code" v="21031"/>
  </way>
  <way id="3075487" version="32" timestamp="2012-01-08T21:33:03Z" uid="167616" user="ajeba" changeset="10337008">
    <nd ref="270050995"/>
    <nd ref="270051037"/>
    <nd ref="629294571"/>
    <nd ref="178347"/>
    <nd ref="178345"/>
    <nd ref="629294567"/>
    <nd ref="286822824"/>
    <nd ref="268853428"/>
    <nd ref="1583301336"/>
    <nd ref="268851217"/>
    <nd ref="286935244"/>
    <nd ref="178305"/>
    <tag k="highway" v="tertiary"/>
    <tag k="name" v="Heidhorst"/>
    <tag k="postal_code" v="21031"/>
  </way>
</osm>
