<?xml version='1.0' encoding='UTF-8'?>
<osm version="0.6" generator="libosmium/2.20.0">
  <way id="30780035" version="1" timestamp="2009-02-04T12:38:56Z" uid="20587" user="balrog-kun" changeset="125964">
    <nd ref="339311726"/>
    <nd ref="339311727"/>
    <nd ref="339311725"/>
    <nd ref="339311724"/>
    <nd ref="339311726"/>
    <tag k="amenity" v="parking"/>
  </way>
  <way id="30780036" version="1" timestamp="2009-02-04T12:38:56Z" uid="20587" user="balrog-kun" changeset="125964">
    <nd ref="340377073"/>
    <nd ref="340377075"/>
    <nd ref="340377076"/>
    <nd ref="340377074"/>
    <nd ref="340377073"/>
    <tag k="addr:housenumber" v="6"/>
    <tag k="addr:street" v="Adampolska"/>
    <tag k="building" v="yes"/>
    <tag k="source:addr" v="msi"/>
  </way>
  <way id="30780037" version="1" timestamp="2009-02-04T12:38:56Z" uid="20587" user="balrog-kun" changeset="125964">
    <nd ref="340377066"/>
    <nd ref="340377067"/>
    <nd ref="340377068"/>
    <nd ref="339311726"/>
    <nd ref="339311724"/>
    <nd ref="340377065"/>
    <nd ref="340377066"/>
    <tag k="addr:housenumber" v="10"/>
    <tag k="addr:street" v="Adampolska"/>
    <tag k="building" v="yes"/>
    <tag k="source:addr" v="msi"/>
  </way>
  <way id="30780038" version="1" timestamp="2009-02-04T12:38:57Z" uid="20587" user="balrog-kun" changeset="125964">
    <nd ref="340377084"/>
    <nd ref="340377085"/>
    <nd ref="340377087"/>
    <nd ref="340377088"/>
    <nd ref="340377090"/>
    <nd ref="340377091"/>
    <nd ref="340377089"/>
    <nd ref="340377086"/>
    <nd ref="340377084"/>
    <tag k="addr:housenumber" v="3"/>
    <tag k="addr:street" v="Angorska"/>
    <tag k="building" v="yes"/>
    <tag k="source:addr" v="msi"/>
  </way>
  <way id="30780039" version="1" timestamp="2009-02-04T12:38:57Z" uid="20587" user="balrog-kun" changeset="125964">
    <nd ref="340377096"/>
    <nd ref="340377097"/>
    <nd ref="340377099"/>
    <nd ref="340377098"/>
    <nd ref="340377096"/>
    <tag k="addr:housenumber" v="5"/>
    <tag k="addr:street" v="Adampolska"/>
    <tag k="building" v="yes"/>
    <tag k="source:addr" v="msi"/>
  </way>
  <way id="30780039" version="2" timestamp="2009-02-08T22:36:49Z" uid="20587" user="balrog-kun" changeset="288825">
    <nd ref="340377096"/>
    <nd ref="340377097"/>
    <nd ref="340377099"/>
    <nd ref="340377098"/>
    <nd ref="340377096"/>
    <tag k="addr:housenumber" v="5"/>
    <tag k="addr:street" v="Adampolska"/>
    <tag k="building" v="yes"/>
    <tag k="building:levels" v="4"/>
    <tag k="source:addr" v="msi"/>
  </way>
  <way id="30780040" version="1" timestamp="2009-02-04T12:38:57Z" uid="20587" user="balrog-kun" changeset="125964">
    <nd ref="340377101"/>
    <nd ref="340377100"/>
    <nd ref="340377102"/>
    <nd ref="340377103"/>
    <nd ref="340377101"/>
    <tag k="addr:housenumber" v="102/104"/>
    <tag k="addr:street" v="Saska"/>
    <tag k="building" v="yes"/>
    <tag k="source:addr" v="msi"/>
  </way>
  <way id="30780041" version="1" timestamp="2009-02-04T12:38:58Z" uid="20587" user="balrog-kun" changeset="125964">
    <nd ref="340377104"/>
    <nd ref="340377107"/>
    <nd ref="340377109"/>
    <nd ref="340377110"/>
    <nd ref="340377108"/>
    <nd ref="340377105"/>
    <nd ref="340377104"/>
    <tag k="addr:housenumber" v="98/100"/>
    <tag k="addr:street" v="Saska"/>
    <tag k="building" v="yes"/>
    <tag k="source:addr" v="msi"/>
  </way>
  <way id="30780042" version="1" timestamp="2009-02-04T12:38:58Z" uid="20587" user="balrog-kun" changeset="125964">
    <nd ref="340377111"/>
    <nd ref="340377112"/>
    <nd ref="340377114"/>
    <nd ref="340377113"/>
    <nd ref="340377111"/>
    <tag k="addr:housenumber" v="37"/>
    <tag k="addr:street" v="Niekłańska"/>
    <tag k="building" v="yes"/>
    <tag k="source:addr" v="msi"/>
  </way>
  <way id="30780043" version="1" timestamp="2009-02-04T12:38:58Z" uid="20587" user="balrog-kun" changeset="125964">
    <nd ref="340377115"/>
    <nd ref="340377117"/>
    <nd ref="340377118"/>
    <nd ref="340377116"/>
    <nd ref="340377115"/>
    <tag k="addr:housenumber" v="42"/>
    <tag k="addr:street" v="Niekłańska"/>
    <tag k="building" v="yes"/>
    <tag k="source:addr" v="msi"/>
  </way>
  <way id="30780044" version="1" timestamp="2009-02-04T12:38:58Z" uid="20587" user="balrog-kun" changeset="125964">
    <nd ref="340377119"/>
    <nd ref="340377120"/>
    <nd ref="340377122"/>
    <nd ref="340377121"/>
    <nd ref="340377119"/>
    <tag k="addr:housenumber" v="40"/>
    <tag k="addr:street" v="Niekłańska"/>
    <tag k="building" v="yes"/>
    <tag k="source:addr" v="msi"/>
  </way>
  <way id="30780045" version="1" timestamp="2009-02-04T12:38:59Z" uid="20587" user="balrog-kun" changeset="125964">
    <nd ref="340377125"/>
    <nd ref="340377124"/>
    <nd ref="340377126"/>
    <nd ref="340377123"/>
    <nd ref="340377125"/>
    <tag k="addr:housenumber" v="38"/>
    <tag k="addr:street" v="Niekłańska"/>
    <tag k="building" v="yes"/>
    <tag k="source:addr" v="msi"/>
  </way>
  <way id="30780045" version="2" timestamp="2009-02-04T12:44:52Z" uid="20587" user="balrog-kun" changeset="125964">
    <nd ref="340377125"/>
    <nd ref="340377124"/>
    <nd ref="340377126"/>
    <nd ref="340377123"/>
    <nd ref="340377125"/>
    <tag k="addr:housenumber" v="38"/>
    <tag k="addr:street" v="Niekłańska"/>
    <tag k="building" v="yes"/>
    <tag k="name" v="Przedsiębiorstwo Zarządzania Nieruchomościami"/>
    <tag k="source" v="msi"/>
  </way>
  <way id="30780046" version="1" timestamp="2009-02-04T12:38:59Z" uid="20587" user="balrog-kun" changeset="125964">
    <nd ref="340377128"/>
    <nd ref="340377127"/>
    <nd ref="340377129"/>
    <nd ref="340377130"/>
    <nd ref="340377128"/>
    <tag k="addr:housenumber" v="6"/>
    <tag k="addr:street" v="Angorska"/>
    <tag k="building" v="yes"/>
    <tag k="source:addr" v="msi"/>
  </way>
  <way id="30780047" version="1" timestamp="2009-02-04T12:38:59Z" uid="20587" user="balrog-kun" changeset="125964">
    <nd ref="340377135"/>
    <nd ref="340377137"/>
    <nd ref="340377138"/>
    <nd ref="340377136"/>
    <nd ref="340377135"/>
    <tag k="addr:housenumber" v="8a"/>
    <tag k="addr:street" v="Angorska"/>
    <tag k="building" v="yes"/>
    <tag k="source:addr" v="msi"/>
  </way>
  <way id="30780048" version="1" timestamp="2009-02-04T12:39:00Z" uid="20587" user="balrog-kun" changeset="125964">
    <nd ref="340377133"/>
    <nd ref="340377134"/>
    <nd ref="340377132"/>
    <nd ref="340377131"/>
    <nd ref="340377133"/>
    <tag k="addr:housenumber" v="8"/>
    <tag k="addr:street" v="Angorska"/>
    <tag k="building" v="yes"/>
    <tag k="source:addr" v="msi"/>
  </way>
  <way id="30780049" version="1" timestamp="2009-02-04T12:39:00Z" uid="20587" user="balrog-kun" changeset="125964">
    <nd ref="340377139"/>
    <nd ref="340377140"/>
    <nd ref="340377142"/>
    <nd ref="340377141"/>
    <nd ref="340377139"/>
    <tag k="addr:housenumber" v="10"/>
    <tag k="addr:street" v="Angorska"/>
    <tag k="building" v="yes"/>
    <tag k="source:addr" v="msi"/>
  </way>
  <way id="30780050" version="1" timestamp="2009-02-04T12:39:01Z" uid="20587" user="balrog-kun" changeset="125964">
    <nd ref="340377658"/>
    <nd ref="340377151"/>
    <nd ref="340377153"/>
    <nd ref="340377152"/>
    <nd ref="340377150"/>
    <nd ref="340377659"/>
    <nd ref="340377660"/>
    <nd ref="340377655"/>
    <nd ref="340377653"/>
    <nd ref="340377654"/>
    <nd ref="340377656"/>
    <nd ref="340377657"/>
    <nd ref="340377658"/>
    <tag k="addr:housenumber" v="35"/>
    <tag k="addr:street" v="Niekłańska"/>
    <tag k="building" v="yes"/>
    <tag k="source:addr" v="msi"/>
  </way>
  <way id="30780051" version="1" timestamp="2009-02-04T12:39:01Z" uid="20587" user="balrog-kun" changeset="125964">
    <nd ref="340377154"/>
    <nd ref="340377156"/>
    <nd ref="340377157"/>
    <nd ref="340377155"/>
    <nd ref="340377154"/>
    <tag k="addr:housenumber" v="9"/>
    <tag k="addr:street" v="Elsterska"/>
    <tag k="building" v="yes"/>
    <tag k="source:addr" v="msi"/>
  </way>
  <way id="30780052" version="1" timestamp="2009-02-04T12:39:01Z" uid="20587" user="balrog-kun" changeset="125964">
    <nd ref="340377158"/>
    <nd ref="340377159"/>
    <nd ref="340377163"/>
    <nd ref="340377161"/>
    <nd ref="340377158"/>
    <tag k="addr:housenumber" v="10"/>
    <tag k="addr:street" v="Elsterska"/>
    <tag k="building" v="yes"/>
    <tag k="source:addr" v="msi"/>
  </way>
  <way id="30780053" version="1" timestamp="2009-02-04T12:39:01Z" uid="20587" user="balrog-kun" changeset="125964">
    <nd ref="340377164"/>
    <nd ref="340377166"/>
    <nd ref="340377170"/>
    <nd ref="340377174"/>
    <nd ref="340377175"/>
    <nd ref="340377172"/>
    <nd ref="340377168"/>
    <nd ref="340377164"/>
    <tag k="addr:housenumber" v="12"/>
    <tag k="addr:street" v="Elsterska"/>
    <tag k="building" v="yes"/>
    <tag k="source:addr" v="msi"/>
  </way>
  <way id="30780054" version="1" timestamp="2009-02-04T12:39:02Z" uid="20587" user="balrog-kun" changeset="125964">
    <nd ref="340377177"/>
    <nd ref="340377179"/>
    <nd ref="340377182"/>
    <nd ref="340377178"/>
    <nd ref="340377177"/>
    <tag k="addr:housenumber" v="27"/>
    <tag k="addr:street" v="Lipska"/>
    <tag k="building" v="yes"/>
    <tag k="source:addr" v="msi"/>
  </way>
  <way id="30780055" version="1" timestamp="2009-02-04T12:39:02Z" uid="20587" user="balrog-kun" changeset="125964">
    <nd ref="340377185"/>
    <nd ref="340377188"/>
    <nd ref="340377190"/>
    <nd ref="340377189"/>
    <nd ref="340377185"/>
    <tag k="addr:housenumber" v="8"/>
    <tag k="addr:street" v="Elsterska"/>
    <tag k="building" v="yes"/>
    <tag k="source:addr" v="msi"/>
  </way>
  <way id="30780056" version="1" timestamp="2009-02-04T12:39:03Z" uid="20587" user="balrog-kun" changeset="125964">
    <nd ref="340377191"/>
    <nd ref="340377192"/>
    <nd ref="340377194"/>
    <nd ref="340377193"/>
    <nd ref="340377191"/>
    <tag k="addr:housenumber" v="7"/>
    <tag k="addr:street" v="Elsterska"/>
    <tag k="building" v="yes"/>
    <tag k="source:addr" v="msi"/>
  </way>
  <way id="30780057" version="1" timestamp="2009-02-04T12:39:03Z" uid="20587" user="balrog-kun" changeset="125964">
    <nd ref="340377195"/>
    <nd ref="340377197"/>
    <nd ref="340377198"/>
    <nd ref="340377196"/>
    <nd ref="340377195"/>
    <tag k="addr:housenumber" v="27"/>
    <tag k="addr:street" v="Lipska"/>
    <tag k="building" v="yes"/>
    <tag k="source:addr" v="msi"/>
  </way>
  <way id="30780058" version="1" timestamp="2009-02-04T12:39:04Z" uid="20587" user="balrog-kun" changeset="125964">
    <nd ref="340377199"/>
    <nd ref="340377200"/>
    <nd ref="340377202"/>
    <nd ref="340377201"/>
    <nd ref="340377199"/>
    <tag k="addr:housenumber" v="52"/>
    <tag k="addr:street" v="Francuska"/>
    <tag k="building" v="yes"/>
    <tag k="source:addr" v="msi"/>
  </way>
  <way id="30780059" version="1" timestamp="2009-02-04T12:39:05Z" uid="20587" user="balrog-kun" changeset="125964">
    <nd ref="340377209"/>
    <nd ref="340377213"/>
    <nd ref="340377219"/>
    <nd ref="340377217"/>
    <nd ref="340377209"/>
    <tag k="addr:housenumber" v="39"/>
    <tag k="addr:street" v="Berezyńska"/>
    <tag k="building" v="yes"/>
    <tag k="source:addr" v="msi"/>
  </way>
  <way id="30780060" version="1" timestamp="2009-02-04T12:39:05Z" uid="20587" user="balrog-kun" changeset="125964">
    <nd ref="340377226"/>
    <nd ref="340377233"/>
    <nd ref="340377238"/>
    <nd ref="340377230"/>
    <nd ref="340377226"/>
    <tag k="addr:housenumber" v="37"/>
    <tag k="addr:street" v="Berezyńska"/>
    <tag k="building" v="yes"/>
    <tag k="source:addr" v="msi"/>
  </way>
  <way id="30780061" version="1" timestamp="2009-02-04T12:39:06Z" uid="20587" user="balrog-kun" changeset="125964">
    <nd ref="340377242"/>
    <nd ref="340377249"/>
    <nd ref="340377253"/>
    <nd ref="340377246"/>
    <nd ref="340377242"/>
    <tag k="addr:housenumber" v="35"/>
    <tag k="addr:street" v="Berezyńska"/>
    <tag k="building" v="yes"/>
    <tag k="source:addr" v="msi"/>
  </way>
  <way id="30780062" version="1" timestamp="2009-02-04T12:39:06Z" uid="20587" user="balrog-kun" changeset="125964">
    <nd ref="340377256"/>
    <nd ref="340377261"/>
    <nd ref="340377260"/>
    <nd ref="340377259"/>
    <nd ref="340377258"/>
    <nd ref="340377257"/>
    <nd ref="340377256"/>
    <tag k="addr:housenumber" v="6"/>
    <tag k="addr:street" v="Elsterska"/>
    <tag k="building" v="yes"/>
    <tag k="source:addr" v="msi"/>
  </way>
  <way id="30780063" version="1" timestamp="2009-02-04T12:39:07Z" uid="20587" user="balrog-kun" changeset="125964">
    <nd ref="340377262"/>
    <nd ref="340377264"/>
    <nd ref="340377265"/>
    <nd ref="340377263"/>
    <nd ref="340377262"/>
    <tag k="addr:housenumber" v="3a"/>
    <tag k="addr:street" v="Elsterska"/>
    <tag k="building" v="yes"/>
    <tag k="source:addr" v="msi"/>
  </way>
  <way id="30780064" version="1" timestamp="2009-02-04T12:39:07Z" uid="20587" user="balrog-kun" changeset="125964">
    <nd ref="340377266"/>
    <nd ref="340377267"/>
    <nd ref="340377269"/>
    <nd ref="340377268"/>
    <nd ref="340377266"/>
    <tag k="addr:housenumber" v="31"/>
    <tag k="addr:street" v="Berezyńska"/>
    <tag k="building" v="yes"/>
    <tag k="source:addr" v="msi"/>
  </way>
  <way id="30780066" version="1" timestamp="2009-02-04T12:39:07Z" uid="20587" user="balrog-kun" changeset="125964">
    <nd ref="340377273"/>
    <nd ref="340377271"/>
    <nd ref="340377270"/>
    <nd ref="340377272"/>
    <nd ref="340377273"/>
    <tag k="addr:housenumber" v="30"/>
    <tag k="addr:street" v="Lipska"/>
    <tag k="building" v="yes"/>
    <tag k="source:addr" v="msi"/>
  </way>
  <way id="30780067" version="1" timestamp="2009-02-04T12:39:08Z" uid="20587" user="balrog-kun" changeset="125964">
    <nd ref="340377272"/>
    <nd ref="340377274"/>
    <nd ref="340377275"/>
    <nd ref="340377273"/>
    <nd ref="340377272"/>
    <tag k="addr:housenumber" v="28"/>
    <tag k="addr:street" v="Lipska"/>
    <tag k="building" v="yes"/>
    <tag k="source:addr" v="msi"/>
  </way>
  <way id="30780068" version="1" timestamp="2009-02-04T12:39:08Z" uid="20587" user="balrog-kun" changeset="125964">
    <nd ref="340377276"/>
    <nd ref="340377278"/>
    <nd ref="340377280"/>
    <nd ref="340377282"/>
    <nd ref="340377283"/>
    <nd ref="340377281"/>
    <nd ref="340377279"/>
    <nd ref="340377277"/>
    <nd ref="340377276"/>
    <tag k="addr:housenumber" v="29"/>
    <tag k="addr:street" v="Berezyńska"/>
    <tag k="building" v="yes"/>
    <tag k="source:addr" v="msi"/>
  </way>
  <way id="30780069" version="1" timestamp="2009-02-04T12:39:08Z" uid="20587" user="balrog-kun" changeset="125964">
    <nd ref="340377284"/>
    <nd ref="340377286"/>
    <nd ref="340377287"/>
    <nd ref="340377285"/>
    <nd ref="340377284"/>
    <tag k="addr:housenumber" v="27"/>
    <tag k="addr:street" v="Berezyńska"/>
    <tag k="building" v="yes"/>
    <tag k="source:addr" v="msi"/>
  </way>
  <way id="30780070" version="1" timestamp="2009-02-04T12:39:09Z" uid="20587" user="balrog-kun" changeset="125964">
    <nd ref="340377291"/>
    <nd ref="340377289"/>
    <nd ref="340377288"/>
    <nd ref="340377290"/>
    <nd ref="340377291"/>
    <tag k="addr:housenumber" v="44"/>
    <tag k="addr:street" v="Berezyńska"/>
    <tag k="building" v="yes"/>
    <tag k="source:addr" v="msi"/>
  </way>
  <way id="30780071" version="1" timestamp="2009-02-04T12:39:09Z" uid="20587" user="balrog-kun" changeset="125964">
    <nd ref="340377294"/>
    <nd ref="340377296"/>
    <nd ref="340377297"/>
    <nd ref="340377295"/>
    <nd ref="340377294"/>
    <tag k="addr:housenumber" v="40"/>
    <tag k="addr:street" v="Berezyńska"/>
    <tag k="building" v="yes"/>
    <tag k="source:addr" v="msi"/>
  </way>
  <way id="30780072" version="1" timestamp="2009-02-04T12:39:09Z" uid="20587" user="balrog-kun" changeset="125964">
    <nd ref="340377298"/>
    <nd ref="340377299"/>
    <nd ref="340377301"/>
    <nd ref="340377305"/>
    <nd ref="340377304"/>
    <nd ref="340377303"/>
    <nd ref="340377302"/>
    <nd ref="340377300"/>
    <nd ref="340377298"/>
    <tag k="addr:housenumber" v="4"/>
    <tag k="addr:street" v="Elsterska"/>
    <tag k="building" v="yes"/>
    <tag k="source:addr" v="msi"/>
  </way>
  <way id="30780073" version="1" timestamp="2009-02-04T12:39:10Z" uid="20587" user="balrog-kun" changeset="125964">
    <nd ref="340377306"/>
    <nd ref="340377307"/>
    <nd ref="340377309"/>
    <nd ref="340377308"/>
    <nd ref="340377306"/>
    <tag k="addr:housenumber" v="21"/>
    <tag k="addr:street" v="Dąbrówki"/>
    <tag k="building" v="yes"/>
    <tag k="source:addr" v="msi"/>
  </way>
  <way id="30780074" version="1" timestamp="2009-02-04T12:39:10Z" uid="20587" user="balrog-kun" changeset="125964">
    <nd ref="340377310"/>
    <nd ref="340377311"/>
    <nd ref="340377313"/>
    <nd ref="340377312"/>
    <nd ref="340377310"/>
    <tag k="addr:housenumber" v="23"/>
    <tag k="addr:street" v="Dąbrówki"/>
    <tag k="building" v="yes"/>
    <tag k="source:addr" v="msi"/>
  </way>
  <way id="30780075" version="1" timestamp="2009-02-04T12:39:10Z" uid="20587" user="balrog-kun" changeset="125964">
    <nd ref="340377317"/>
    <nd ref="340377314"/>
    <nd ref="340377315"/>
    <nd ref="340377316"/>
    <nd ref="340377317"/>
    <tag k="addr:housenumber" v="109"/>
    <tag k="addr:street" v="Saska"/>
    <tag k="building" v="yes"/>
    <tag k="source:addr" v="msi"/>
  </way>
  <way id="30780076" version="1" timestamp="2009-02-04T12:39:11Z" uid="20587" user="balrog-kun" changeset="125964">
    <nd ref="340377320"/>
    <nd ref="340377321"/>
    <nd ref="340377323"/>
    <nd ref="340377322"/>
    <nd ref="340377320"/>
    <tag k="addr:housenumber" v="111"/>
    <tag k="addr:street" v="Saska"/>
    <tag k="building" v="yes"/>
    <tag k="building:levels" v="2"/>
  </way>
  <way id="30780077" version="1" timestamp="2009-02-04T12:39:11Z" uid="20587" user="balrog-kun" changeset="125964">
    <nd ref="340377324"/>
    <nd ref="340377325"/>
    <nd ref="340377327"/>
    <nd ref="340377326"/>
    <nd ref="340377324"/>
    <tag k="addr:housenumber" v="50"/>
    <tag k="addr:street" v="Francuska"/>
    <tag k="building" v="yes"/>
    <tag k="source:addr" v="msi"/>
  </way>
  <way id="30780078" version="1" timestamp="2009-02-04T12:39:11Z" uid="20587" user="balrog-kun" changeset="125964">
    <nd ref="340377328"/>
    <nd ref="340377329"/>
    <nd ref="340377331"/>
    <nd ref="340377330"/>
    <nd ref="340377328"/>
    <tag k="addr:housenumber" v="26"/>
    <tag k="addr:street" v="Lipska"/>
    <tag k="building" v="yes"/>
    <tag k="source:addr" v="msi"/>
  </way>
  <way id="30780079" version="1" timestamp="2009-02-04T12:39:11Z" uid="20587" user="balrog-kun" changeset="125964">
    <nd ref="340377332"/>
    <nd ref="340377333"/>
    <nd ref="340377335"/>
    <nd ref="340377334"/>
    <nd ref="340377332"/>
    <tag k="addr:housenumber" v="48"/>
    <tag k="addr:street" v="Francuska"/>
    <tag k="building" v="yes"/>
    <tag k="source:addr" v="msi"/>
  </way>
  <way id="30780080" version="1" timestamp="2009-02-04T12:39:12Z" uid="20587" user="balrog-kun" changeset="125964">
    <nd ref="340377336"/>
    <nd ref="340377337"/>
    <nd ref="340377341"/>
    <nd ref="340377340"/>
    <nd ref="340377336"/>
    <tag k="addr:housenumber" v="23"/>
    <tag k="addr:street" v="Berezyńska"/>
    <tag k="building" v="yes"/>
    <tag k="source:addr" v="msi"/>
  </way>
  <way id="30780081" version="1" timestamp="2009-02-04T12:39:12Z" uid="20587" user="balrog-kun" changeset="125964">
    <nd ref="340377341"/>
    <nd ref="340377338"/>
    <nd ref="340377339"/>
    <nd ref="340377340"/>
    <nd ref="340377341"/>
    <tag k="addr:housenumber" v="25"/>
    <tag k="addr:street" v="Berezyńska"/>
    <tag k="building" v="yes"/>
    <tag k="source:addr" v="msi"/>
  </way>
  <way id="30780083" version="1" timestamp="2009-02-04T12:39:13Z" uid="20587" user="balrog-kun" changeset="125964">
    <nd ref="340377358"/>
    <nd ref="340377359"/>
    <nd ref="340377356"/>
    <nd ref="340377357"/>
    <nd ref="340377358"/>
    <tag k="addr:housenumber" v="30"/>
    <tag k="addr:street" v="Francuska"/>
    <tag k="building" v="yes"/>
    <tag k="source:addr" v="msi"/>
  </way>
  <way id="30780085" version="1" timestamp="2009-02-04T12:39:13Z" uid="20587" user="balrog-kun" changeset="125964">
    <nd ref="340377355"/>
    <nd ref="340377361"/>
    <nd ref="340377362"/>
    <nd ref="340377360"/>
    <nd ref="340377353"/>
    <nd ref="340377354"/>
    <nd ref="340377355"/>
    <tag k="addr:housenumber" v="32"/>
    <tag k="addr:street" v="Francuska"/>
    <tag k="building" v="yes"/>
    <tag k="source:addr" v="msi"/>
  </way>
  <way id="30780086" version="1" timestamp="2009-02-04T12:39:13Z" uid="20587" user="balrog-kun" changeset="125964">
    <nd ref="340377349"/>
    <nd ref="340377351"/>
    <nd ref="340377352"/>
    <nd ref="340377350"/>
    <nd ref="340377349"/>
    <tag k="addr:housenumber" v="34"/>
    <tag k="addr:street" v="Francuska"/>
    <tag k="building" v="yes"/>
    <tag k="source:addr" v="msi"/>
  </way>
  <way id="30780087" version="1" timestamp="2009-02-04T12:39:14Z" uid="20587" user="balrog-kun" changeset="125964">
    <nd ref="340377345"/>
    <nd ref="340377347"/>
    <nd ref="340377348"/>
    <nd ref="340377346"/>
    <nd ref="340377345"/>
    <tag k="addr:housenumber" v="38"/>
    <tag k="addr:street" v="Francuska"/>
    <tag k="building" v="yes"/>
    <tag k="source:addr" v="msi"/>
  </way>
  <way id="30780088" version="1" timestamp="2009-02-04T12:39:14Z" uid="20587" user="balrog-kun" changeset="125964">
    <nd ref="340377344"/>
    <nd ref="340377342"/>
    <nd ref="340377343"/>
    <nd ref="340377363"/>
    <nd ref="340377364"/>
    <nd ref="340377365"/>
    <nd ref="340377344"/>
    <tag k="addr:housenumber" v="26"/>
    <tag k="addr:street" v="Berezyńska"/>
    <tag k="building" v="yes"/>
    <tag k="source:addr" v="msi"/>
  </way>
  <way id="30780089" version="1" timestamp="2009-02-04T12:39:14Z" uid="20587" user="balrog-kun" changeset="125964">
    <nd ref="340377366"/>
    <nd ref="340377367"/>
    <nd ref="340377369"/>
    <nd ref="340377368"/>
    <nd ref="340377366"/>
    <tag k="addr:housenumber" v="9/11"/>
    <tag k="addr:street" v="Dąbrówki"/>
    <tag k="building" v="yes"/>
    <tag k="source:addr" v="msi"/>
  </way>
  <way id="30780090" version="1" timestamp="2009-02-04T12:39:15Z" uid="20587" user="balrog-kun" changeset="125964">
    <nd ref="340377370"/>
    <nd ref="340377371"/>
    <nd ref="340377373"/>
    <nd ref="340377372"/>
    <nd ref="340377370"/>
    <tag k="addr:housenumber" v="28"/>
    <tag k="addr:street" v="Berezyńska"/>
    <tag k="building" v="yes"/>
    <tag k="source:addr" v="msi"/>
  </way>
  <way id="30780091" version="1" timestamp="2009-02-04T12:39:15Z" uid="20587" user="balrog-kun" changeset="125964">
    <nd ref="340377374"/>
    <nd ref="340377375"/>
    <nd ref="340377377"/>
    <nd ref="340377376"/>
    <nd ref="340377374"/>
    <tag k="addr:housenumber" v="3"/>
    <tag k="addr:street" v="Elsterska"/>
    <tag k="building" v="yes"/>
    <tag k="source:addr" v="msi"/>
  </way>
  <way id="30780092" version="1" timestamp="2009-02-04T12:39:15Z" uid="20587" user="balrog-kun" changeset="125964">
    <nd ref="340377378"/>
    <nd ref="340377379"/>
    <nd ref="340377381"/>
    <nd ref="340377380"/>
    <nd ref="340377378"/>
    <tag k="addr:housenumber" v="34"/>
    <tag k="addr:street" v="Berezyńska"/>
    <tag k="building" v="yes"/>
    <tag k="source:addr" v="msi"/>
  </way>
  <way id="30780093" version="1" timestamp="2009-02-04T12:39:15Z" uid="20587" user="balrog-kun" changeset="125964">
    <nd ref="340377382"/>
    <nd ref="340377383"/>
    <nd ref="340377385"/>
    <nd ref="340377384"/>
    <nd ref="340377382"/>
    <tag k="addr:housenumber" v="32"/>
    <tag k="addr:street" v="Berezyńska"/>
    <tag k="building" v="yes"/>
    <tag k="source:addr" v="msi"/>
  </way>
  <way id="30780094" version="1" timestamp="2009-02-04T12:39:16Z" uid="20587" user="balrog-kun" changeset="125964">
    <nd ref="340377386"/>
    <nd ref="340377387"/>
    <nd ref="340377389"/>
    <nd ref="340377388"/>
    <nd ref="340377386"/>
    <tag k="addr:housenumber" v="30"/>
    <tag k="addr:street" v="Berezyńska"/>
    <tag k="building" v="yes"/>
    <tag k="source:addr" v="msi"/>
  </way>
  <way id="30780095" version="1" timestamp="2009-02-04T12:39:16Z" uid="20587" user="balrog-kun" changeset="125964">
    <nd ref="340377390"/>
    <nd ref="340377391"/>
    <nd ref="340377393"/>
    <nd ref="340377392"/>
    <nd ref="340377390"/>
    <tag k="addr:housenumber" v="40"/>
    <tag k="addr:street" v="Francuska"/>
    <tag k="building" v="yes"/>
    <tag k="source:addr" v="msi"/>
  </way>
  <way id="30780096" version="1" timestamp="2009-02-04T12:39:16Z" uid="20587" user="balrog-kun" changeset="125964">
    <nd ref="340377394"/>
    <nd ref="340377395"/>
    <nd ref="340377399"/>
    <nd ref="340377396"/>
    <nd ref="340377394"/>
    <tag k="addr:housenumber" v="3"/>
    <tag k="addr:street" v="Dąbrówki"/>
    <tag k="building" v="yes"/>
    <tag k="source:addr" v="msi"/>
  </way>
  <way id="30780097" version="1" timestamp="2009-02-04T12:39:16Z" uid="20587" user="balrog-kun" changeset="125964">
    <nd ref="340377410"/>
    <nd ref="340377408"/>
    <nd ref="340377404"/>
    <nd ref="340377406"/>
    <nd ref="340377410"/>
    <tag k="addr:housenumber" v="33"/>
    <tag k="addr:street" v="Walecznych"/>
    <tag k="building" v="yes"/>
    <tag k="source:addr" v="msi"/>
  </way>
  <way id="30780098" version="1" timestamp="2009-02-04T12:39:17Z" uid="20587" user="balrog-kun" changeset="125964">
    <nd ref="340377414"/>
    <nd ref="340377416"/>
    <nd ref="340377417"/>
    <nd ref="340377415"/>
    <nd ref="340377414"/>
    <tag k="addr:housenumber" v="35"/>
    <tag k="addr:street" v="Walecznych"/>
    <tag k="building" v="yes"/>
    <tag k="source:addr" v="msi"/>
  </way>
  <way id="30780099" version="1" timestamp="2009-02-04T12:39:17Z" uid="20587" user="balrog-kun" changeset="125964">
    <nd ref="340377418"/>
    <nd ref="340377420"/>
    <nd ref="340377421"/>
    <nd ref="340377419"/>
    <nd ref="340377418"/>
    <tag k="addr:housenumber" v="37"/>
    <tag k="addr:street" v="Walecznych"/>
    <tag k="building" v="yes"/>
    <tag k="source:addr" v="msi"/>
  </way>
  <way id="30780100" version="1" timestamp="2009-02-04T12:39:18Z" uid="20587" user="balrog-kun" changeset="125964">
    <nd ref="340377422"/>
    <nd ref="340377423"/>
    <nd ref="340377425"/>
    <nd ref="340377424"/>
    <nd ref="340377422"/>
    <tag k="addr:housenumber" v="39"/>
    <tag k="addr:street" v="Walecznych"/>
    <tag k="building" v="yes"/>
    <tag k="source:addr" v="msi"/>
  </way>
  <way id="30780101" version="1" timestamp="2009-02-04T12:39:19Z" uid="20587" user="balrog-kun" changeset="125964">
    <nd ref="340377427"/>
    <nd ref="340377429"/>
    <nd ref="340377426"/>
    <nd ref="340377428"/>
    <nd ref="340377427"/>
    <tag k="addr:housenumber" v="4"/>
    <tag k="addr:street" v="Dąbrówki"/>
    <tag k="building" v="yes"/>
    <tag k="source:addr" v="msi"/>
  </way>
  <way id="30780102" version="1" timestamp="2009-02-04T12:39:19Z" uid="20587" user="balrog-kun" changeset="125964">
    <nd ref="340377430"/>
    <nd ref="340377431"/>
    <nd ref="340377433"/>
    <nd ref="340377432"/>
    <nd ref="340377430"/>
    <tag k="addr:housenumber" v="6"/>
    <tag k="addr:street" v="Dąbrówki"/>
    <tag k="building" v="yes"/>
    <tag k="source:addr" v="msi"/>
  </way>
  <way id="30780103" version="1" timestamp="2009-02-04T12:39:19Z" uid="20587" user="balrog-kun" changeset="125964">
    <nd ref="340377434"/>
    <nd ref="340377435"/>
    <nd ref="340377437"/>
    <nd ref="340377436"/>
    <nd ref="340377434"/>
    <tag k="addr:housenumber" v="8"/>
    <tag k="addr:street" v="Dąbrówki"/>
    <tag k="building" v="yes"/>
    <tag k="source:addr" v="msi"/>
  </way>
  <way id="30780104" version="1" timestamp="2009-02-04T12:39:20Z" uid="20587" user="balrog-kun" changeset="125964">
    <nd ref="340377438"/>
    <nd ref="340377439"/>
    <nd ref="340377441"/>
    <nd ref="340377440"/>
    <nd ref="340377438"/>
    <tag k="addr:housenumber" v="5"/>
    <tag k="addr:street" v="Dąbrówki"/>
    <tag k="building" v="yes"/>
    <tag k="source:addr" v="msi"/>
  </way>
  <way id="30780105" version="1" timestamp="2009-02-04T12:39:20Z" uid="20587" user="balrog-kun" changeset="125964">
    <nd ref="340377442"/>
    <nd ref="340377443"/>
    <nd ref="340377445"/>
    <nd ref="340377444"/>
    <nd ref="340377442"/>
    <tag k="addr:housenumber" v="7"/>
    <tag k="addr:street" v="Dąbrówki"/>
    <tag k="building" v="yes"/>
    <tag k="source:addr" v="msi"/>
  </way>
  <way id="30780106" version="1" timestamp="2009-02-04T12:39:20Z" uid="20587" user="balrog-kun" changeset="125964">
    <nd ref="340377446"/>
    <nd ref="340377447"/>
    <nd ref="340377449"/>
    <nd ref="340377448"/>
    <nd ref="340377446"/>
    <tag k="addr:housenumber" v="10"/>
    <tag k="addr:street" v="Dąbrówki"/>
    <tag k="building" v="yes"/>
    <tag k="source:addr" v="msi"/>
  </way>
  <way id="30780107" version="1" timestamp="2009-02-04T12:39:21Z" uid="20587" user="balrog-kun" changeset="125964">
    <nd ref="340377452"/>
    <nd ref="340377450"/>
    <nd ref="340377451"/>
    <nd ref="340377453"/>
    <nd ref="340377452"/>
    <tag k="addr:housenumber" v="12"/>
    <tag k="addr:street" v="Dąbrówki"/>
    <tag k="building" v="yes"/>
    <tag k="source:addr" v="msi"/>
  </way>
  <way id="30780108" version="1" timestamp="2009-02-04T12:39:21Z" uid="20587" user="balrog-kun" changeset="125964">
    <nd ref="340377458"/>
    <nd ref="340377459"/>
    <nd ref="340377461"/>
    <nd ref="340377460"/>
    <nd ref="340377458"/>
    <tag k="addr:housenumber" v="20"/>
    <tag k="addr:street" v="Dąbrówki"/>
    <tag k="building" v="yes"/>
    <tag k="source:addr" v="msi"/>
  </way>
  <way id="30780108" version="2" timestamp="2010-12-08T21:08:03Z" uid="99386" user="masti" changeset="6589492">
    <nd ref="340377458"/>
    <nd ref="340377459"/>
    <nd ref="340377461"/>
    <nd ref="340377460"/>
    <nd ref="340377458"/>
    <tag k="addr:housenumber" v="20"/>
    <tag k="addr:street" v="Dąbrówki"/>
    <tag k="amenity" v="kindergarten"/>
    <tag k="building" v="yes"/>
    <tag k="source:addr" v="msi"/>
  </way>
  <way id="30780110" version="1" timestamp="2009-02-04T12:39:21Z" uid="20587" user="balrog-kun" changeset="125964">
    <nd ref="340377471"/>
    <nd ref="340377472"/>
    <nd ref="340377474"/>
    <nd ref="340377473"/>
    <nd ref="340377471"/>
    <tag k="addr:housenumber" v="1"/>
    <tag k="addr:street" v="Elsterska"/>
    <tag k="building" v="yes"/>
    <tag k="source:addr" v="msi"/>
  </way>
  <way id="30780111" version="1" timestamp="2009-02-04T12:39:22Z" uid="20587" user="balrog-kun" changeset="125964">
    <nd ref="340377475"/>
    <nd ref="340377476"/>
    <nd ref="340377478"/>
    <nd ref="340377477"/>
    <nd ref="340377475"/>
    <tag k="addr:housenumber" v="7"/>
    <tag k="addr:street" v="Adampolska"/>
    <tag k="building" v="yes"/>
    <tag k="source:addr" v="msi"/>
  </way>
  <way id="30780112" version="1" timestamp="2009-02-04T12:39:22Z" uid="20587" user="balrog-kun" changeset="125964">
    <nd ref="340377479"/>
    <nd ref="340377480"/>
    <nd ref="340377482"/>
    <nd ref="340377481"/>
    <nd ref="340377479"/>
    <tag k="addr:housenumber" v="9"/>
    <tag k="addr:street" v="Adampolska"/>
    <tag k="building" v="yes"/>
    <tag k="source:addr" v="msi"/>
  </way>
  <way id="30780113" version="1" timestamp="2009-02-04T12:39:22Z" uid="20587" user="balrog-kun" changeset="125964">
    <nd ref="340377483"/>
    <nd ref="340377485"/>
    <nd ref="340377487"/>
    <nd ref="340377486"/>
    <nd ref="340377483"/>
    <tag k="addr:housenumber" v="11"/>
    <tag k="addr:street" v="Adampolska"/>
    <tag k="building" v="yes"/>
    <tag k="source:addr" v="msi"/>
  </way>
  <way id="30780114" version="1" timestamp="2009-02-04T12:39:23Z" uid="20587" user="balrog-kun" changeset="125964">
    <nd ref="340377490"/>
    <nd ref="340377491"/>
    <nd ref="340377489"/>
    <nd ref="340377488"/>
    <nd ref="340377490"/>
    <tag k="addr:housenumber" v="13"/>
    <tag k="addr:street" v="Adampolska"/>
    <tag k="building" v="yes"/>
    <tag k="source:addr" v="msi"/>
  </way>
  <way id="30780115" version="1" timestamp="2009-02-04T12:39:23Z" uid="20587" user="balrog-kun" changeset="125964">
    <nd ref="340377492"/>
    <nd ref="340377498"/>
    <nd ref="340377500"/>
    <nd ref="340377502"/>
    <nd ref="340377503"/>
    <nd ref="340377501"/>
    <nd ref="340377499"/>
    <nd ref="340377493"/>
    <nd ref="340377492"/>
    <tag k="addr:housenumber" v="103"/>
    <tag k="addr:street" v="Saska"/>
    <tag k="building" v="yes"/>
    <tag k="source:addr" v="msi"/>
  </way>
  <way id="30780116" version="1" timestamp="2009-02-04T12:39:23Z" uid="20587" user="balrog-kun" changeset="125964">
    <nd ref="340377504"/>
    <nd ref="340377505"/>
    <nd ref="340377507"/>
    <nd ref="340377506"/>
    <nd ref="340377504"/>
    <tag k="addr:housenumber" v="101"/>
    <tag k="addr:street" v="Saska"/>
    <tag k="building" v="yes"/>
    <tag k="source:addr" v="msi"/>
  </way>
  <way id="30780117" version="1" timestamp="2009-02-04T12:39:24Z" uid="20587" user="balrog-kun" changeset="125964">
    <nd ref="340377508"/>
    <nd ref="340377510"/>
    <nd ref="340377512"/>
    <nd ref="340377509"/>
    <nd ref="340377508"/>
    <tag k="addr:housenumber" v="9"/>
    <tag k="addr:street" v="Irlandzka"/>
    <tag k="building" v="yes"/>
    <tag k="source:addr" v="msi"/>
  </way>
  <way id="30780118" version="1" timestamp="2009-02-04T12:39:24Z" uid="20587" user="balrog-kun" changeset="125964">
    <nd ref="340377513"/>
    <nd ref="340377514"/>
    <nd ref="340377516"/>
    <nd ref="340377515"/>
    <nd ref="340377513"/>
    <tag k="addr:housenumber" v="7"/>
    <tag k="addr:street" v="Irlandzka"/>
    <tag k="building" v="yes"/>
    <tag k="source:addr" v="msi"/>
  </way>
  <way id="30780119" version="1" timestamp="2009-02-04T12:39:24Z" uid="20587" user="balrog-kun" changeset="125964">
    <nd ref="340377517"/>
    <nd ref="340377518"/>
    <nd ref="340377520"/>
    <nd ref="340377519"/>
    <nd ref="340377517"/>
    <tag k="addr:housenumber" v="5"/>
    <tag k="addr:street" v="Irlandzka"/>
    <tag k="building" v="yes"/>
    <tag k="source:addr" v="msi"/>
  </way>
  <way id="30780120" version="1" timestamp="2009-02-04T12:39:25Z" uid="20587" user="balrog-kun" changeset="125964">
    <nd ref="340377521"/>
    <nd ref="340377523"/>
    <nd ref="340377524"/>
    <nd ref="340377522"/>
    <nd ref="340377521"/>
    <tag k="addr:housenumber" v="3"/>
    <tag k="addr:street" v="Irlandzka"/>
    <tag k="building" v="yes"/>
    <tag k="source:addr" v="msi"/>
  </way>
  <way id="30780121" version="1" timestamp="2009-02-04T12:39:25Z" uid="20587" user="balrog-kun" changeset="125964">
    <nd ref="340377525"/>
    <nd ref="340377527"/>
    <nd ref="340377528"/>
    <nd ref="340377526"/>
    <nd ref="340377525"/>
    <tag k="addr:housenumber" v="41"/>
    <tag k="addr:street" v="Walecznych"/>
    <tag k="building" v="yes"/>
    <tag k="source:addr" v="msi"/>
  </way>
  <way id="30780122" version="1" timestamp="2009-02-04T12:39:25Z" uid="20587" user="balrog-kun" changeset="125964">
    <nd ref="340377536"/>
    <nd ref="340377537"/>
    <nd ref="340377539"/>
    <nd ref="340377538"/>
    <nd ref="340377536"/>
    <tag k="addr:housenumber" v="4"/>
    <tag k="addr:street" v="Irlandzka"/>
    <tag k="building" v="yes"/>
    <tag k="source:addr" v="msi"/>
  </way>
  <way id="30780123" version="1" timestamp="2009-02-04T12:39:26Z" uid="20587" user="balrog-kun" changeset="125964">
    <nd ref="340377540"/>
    <nd ref="340377541"/>
    <nd ref="340377543"/>
    <nd ref="340377542"/>
    <nd ref="340377540"/>
    <tag k="addr:housenumber" v="6"/>
    <tag k="addr:street" v="Irlandzka"/>
    <tag k="building" v="yes"/>
    <tag k="source:addr" v="msi"/>
  </way>
  <way id="30780124" version="1" timestamp="2009-02-04T12:39:26Z" uid="20587" user="balrog-kun" changeset="125964">
    <nd ref="340377546"/>
    <nd ref="340377547"/>
    <nd ref="340377549"/>
    <nd ref="340377548"/>
    <nd ref="340377546"/>
    <tag k="addr:housenumber" v="10"/>
    <tag k="addr:street" v="Irlandzka"/>
    <tag k="building" v="yes"/>
    <tag k="source:addr" v="msi"/>
  </way>
  <way id="30780125" version="1" timestamp="2009-02-04T12:39:27Z" uid="20587" user="balrog-kun" changeset="125964">
    <nd ref="340377565"/>
    <nd ref="340377563"/>
    <nd ref="340377564"/>
    <nd ref="340377566"/>
    <nd ref="340377565"/>
    <tag k="addr:housenumber" v="99"/>
    <tag k="addr:street" v="Saska"/>
    <tag k="building" v="yes"/>
    <tag k="source:addr" v="msi"/>
  </way>
  <way id="30780126" version="1" timestamp="2009-02-04T12:39:27Z" uid="20587" user="balrog-kun" changeset="125964">
    <nd ref="340377571"/>
    <nd ref="340377574"/>
    <nd ref="340377573"/>
    <nd ref="340377572"/>
    <nd ref="340377571"/>
    <tag k="addr:housenumber" v="95"/>
    <tag k="addr:street" v="Saska"/>
    <tag k="building" v="yes"/>
    <tag k="source:addr" v="msi"/>
  </way>
  <way id="30780127" version="1" timestamp="2009-02-04T12:39:27Z" uid="20587" user="balrog-kun" changeset="125964">
    <nd ref="340377575"/>
    <nd ref="340377578"/>
    <nd ref="340377579"/>
    <nd ref="340377576"/>
    <nd ref="340377575"/>
    <tag k="addr:housenumber" v="91"/>
    <tag k="addr:street" v="Saska"/>
    <tag k="building" v="yes"/>
    <tag k="source:addr" v="msi"/>
  </way>
  <way id="30780128" version="1" timestamp="2009-02-04T12:39:27Z" uid="20587" user="balrog-kun" changeset="125964">
    <nd ref="340377580"/>
    <nd ref="340377582"/>
    <nd ref="340377583"/>
    <nd ref="340377581"/>
    <nd ref="340377580"/>
    <tag k="addr:housenumber" v="49"/>
    <tag k="addr:street" v="Alfreda Nobla"/>
    <tag k="building" v="yes"/>
    <tag k="source:addr" v="msi"/>
  </way>
  <way id="30780129" version="1" timestamp="2009-02-04T12:39:28Z" uid="20587" user="balrog-kun" changeset="125964">
    <nd ref="340377585"/>
    <nd ref="340377586"/>
    <nd ref="340377584"/>
    <nd ref="340377587"/>
    <nd ref="340377585"/>
    <tag k="addr:housenumber" v="39"/>
    <tag k="addr:street" v="Alfreda Nobla"/>
    <tag k="building" v="yes"/>
    <tag k="source:addr" v="msi"/>
  </way>
  <way id="30780130" version="1" timestamp="2009-02-04T12:39:28Z" uid="20587" user="balrog-kun" changeset="125964">
    <nd ref="340377589"/>
    <nd ref="340377588"/>
    <nd ref="340377591"/>
    <nd ref="340377590"/>
    <nd ref="340377589"/>
    <tag k="addr:housenumber" v="37"/>
    <tag k="addr:street" v="Alfreda Nobla"/>
    <tag k="building" v="yes"/>
    <tag k="source:addr" v="msi"/>
  </way>
  <way id="30780131" version="1" timestamp="2009-02-04T12:39:28Z" uid="20587" user="balrog-kun" changeset="125964">
    <nd ref="340377594"/>
    <nd ref="340377593"/>
    <nd ref="340377592"/>
    <nd ref="340377595"/>
    <nd ref="340377594"/>
    <tag k="addr:housenumber" v="35"/>
    <tag k="addr:street" v="Alfreda Nobla"/>
    <tag k="building" v="yes"/>
    <tag k="source:addr" v="msi"/>
  </way>
  <way id="30780132" version="1" timestamp="2009-02-04T12:39:28Z" uid="20587" user="balrog-kun" changeset="125964">
    <nd ref="340377596"/>
    <nd ref="340377597"/>
    <nd ref="340377603"/>
    <nd ref="340377598"/>
    <nd ref="340377596"/>
    <tag k="addr:housenumber" v="32"/>
    <tag k="addr:street" v="Alfreda Nobla"/>
    <tag k="building" v="yes"/>
    <tag k="source:addr" v="msi"/>
  </way>
  <way id="30780133" version="1" timestamp="2009-02-04T12:39:29Z" uid="20587" user="balrog-kun" changeset="125964">
    <nd ref="340377604"/>
    <nd ref="340377605"/>
    <nd ref="340377606"/>
    <nd ref="340377607"/>
    <nd ref="340377608"/>
    <nd ref="255161084"/>
    <tag k="highway" v="living_street"/>
    <tag k="name" v="Alfreda Nobla"/>
  </way>
  <way id="30780134" version="1" timestamp="2009-02-04T12:39:29Z" uid="20587" user="balrog-kun" changeset="125964">
    <nd ref="340377609"/>
    <nd ref="340377611"/>
    <nd ref="340377612"/>
    <nd ref="340377613"/>
    <nd ref="340377619"/>
    <nd ref="340377621"/>
    <nd ref="340377622"/>
    <nd ref="340377623"/>
    <nd ref="340377626"/>
    <nd ref="340377620"/>
    <nd ref="340377618"/>
    <nd ref="340377614"/>
    <nd ref="340377616"/>
    <nd ref="340377617"/>
    <nd ref="340377615"/>
    <nd ref="340377610"/>
    <nd ref="340377609"/>
    <tag k="addr:housenumber" v="2"/>
    <tag k="addr:street" v="Angorska"/>
    <tag k="building" v="yes"/>
    <tag k="source:addr" v="msi"/>
  </way>
  <way id="30780134" version="2" timestamp="2010-12-08T21:08:02Z" uid="99386" user="masti" changeset="6589492">
    <nd ref="340377609"/>
    <nd ref="340377611"/>
    <nd ref="340377612"/>
    <nd ref="340377613"/>
    <nd ref="340377619"/>
    <nd ref="340377621"/>
    <nd ref="340377622"/>
    <nd ref="340377623"/>
    <nd ref="340377626"/>
    <nd ref="340377620"/>
    <nd ref="340377618"/>
    <nd ref="340377614"/>
    <nd ref="340377616"/>
    <nd ref="340377617"/>
    <nd ref="340377615"/>
    <nd ref="340377610"/>
    <nd ref="340377609"/>
    <tag k="addr:housenumber" v="2"/>
    <tag k="addr:street" v="Angorska"/>
    <tag k="amenity" v="school"/>
    <tag k="building" v="yes"/>
    <tag k="source:addr" v="msi"/>
  </way>
  <way id="30780135" version="1" timestamp="2009-02-04T12:39:30Z" uid="20587" user="balrog-kun" changeset="125964">
    <nd ref="340377629"/>
    <nd ref="340377637"/>
    <nd ref="340377644"/>
    <nd ref="340377645"/>
    <nd ref="340377646"/>
    <nd ref="340377643"/>
    <nd ref="340377641"/>
    <nd ref="340377634"/>
    <nd ref="340377629"/>
    <tag k="addr:street" v="Saska"/>
    <tag k="building" v="yes"/>
  </way>
  <way id="30780136" version="1" timestamp="2009-02-04T12:39:30Z" uid="20587" user="balrog-kun" changeset="125964">
    <nd ref="340377647"/>
    <nd ref="340377648"/>
    <nd ref="340377651"/>
    <nd ref="340377649"/>
    <nd ref="340377647"/>
    <tag k="building" v="yes"/>
  </way>
  <way id="30780137" version="1" timestamp="2009-02-04T12:39:30Z" uid="20587" user="balrog-kun" changeset="125964">
    <nd ref="340377661"/>
    <nd ref="340377663"/>
    <nd ref="340377665"/>
    <nd ref="340377666"/>
    <nd ref="340377672"/>
    <nd ref="340377673"/>
    <nd ref="340377674"/>
    <nd ref="340377671"/>
    <nd ref="340377670"/>
    <nd ref="340377668"/>
    <nd ref="340377669"/>
    <nd ref="340377667"/>
    <nd ref="340377664"/>
    <nd ref="340377662"/>
    <nd ref="340377661"/>
    <tag k="addr:housenumber" v="105"/>
    <tag k="addr:street" v="Saska"/>
    <tag k="building" v="yes"/>
    <tag k="source:addr" v="msi"/>
  </way>
  <way id="30780138" version="1" timestamp="2009-02-04T12:39:31Z" uid="20587" user="balrog-kun" changeset="125964">
    <nd ref="340377675"/>
    <nd ref="340377677"/>
    <nd ref="340377678"/>
    <nd ref="340377676"/>
    <nd ref="340377675"/>
    <tag k="addr:housenumber" v="2"/>
    <tag k="addr:street" v="Elsterska"/>
    <tag k="building" v="yes"/>
    <tag k="source:addr" v="msi"/>
  </way>
  <way id="30780139" version="1" timestamp="2009-02-04T12:39:31Z" uid="20587" user="balrog-kun" changeset="125964">
    <nd ref="340377679"/>
    <nd ref="340377681"/>
    <nd ref="340377684"/>
    <nd ref="340377685"/>
    <nd ref="340377687"/>
    <nd ref="340377689"/>
    <nd ref="340377692"/>
    <nd ref="340377693"/>
    <nd ref="340377694"/>
    <nd ref="340377695"/>
    <nd ref="340377691"/>
    <nd ref="340377688"/>
    <nd ref="340377696"/>
    <nd ref="340377698"/>
    <nd ref="340377699"/>
    <nd ref="340377707"/>
    <nd ref="340377713"/>
    <nd ref="340377715"/>
    <nd ref="340377710"/>
    <nd ref="340377712"/>
    <nd ref="340377709"/>
    <nd ref="340377701"/>
    <nd ref="340377702"/>
    <nd ref="340377704"/>
    <nd ref="340377705"/>
    <nd ref="340377700"/>
    <nd ref="340377697"/>
    <nd ref="340377686"/>
    <nd ref="340377683"/>
    <nd ref="340377682"/>
    <nd ref="340377680"/>
    <nd ref="340377679"/>
    <tag k="addr:housenumber" v="78"/>
    <tag k="addr:street" v="Saska"/>
    <tag k="building" v="yes"/>
    <tag k="source:addr" v="msi"/>
  </way>
  <way id="30780139" version="2" timestamp="2010-12-08T21:08:01Z" uid="99386" user="masti" changeset="6589492">
    <nd ref="340377679"/>
    <nd ref="340377681"/>
    <nd ref="340377684"/>
    <nd ref="340377685"/>
    <nd ref="340377687"/>
    <nd ref="340377689"/>
    <nd ref="340377692"/>
    <nd ref="340377693"/>
    <nd ref="340377694"/>
    <nd ref="340377695"/>
    <nd ref="340377691"/>
    <nd ref="340377688"/>
    <nd ref="340377696"/>
    <nd ref="340377698"/>
    <nd ref="340377699"/>
    <nd ref="340377707"/>
    <nd ref="340377713"/>
    <nd ref="340377715"/>
    <nd ref="340377710"/>
    <nd ref="340377712"/>
    <nd ref="340377709"/>
    <nd ref="340377701"/>
    <nd ref="340377702"/>
    <nd ref="340377704"/>
    <nd ref="340377705"/>
    <nd ref="340377700"/>
    <nd ref="340377697"/>
    <nd ref="340377686"/>
    <nd ref="340377683"/>
    <nd ref="340377682"/>
    <nd ref="340377680"/>
    <nd ref="340377679"/>
    <tag k="addr:housenumber" v="78"/>
    <tag k="addr:street" v="Saska"/>
    <tag k="amenity" v="school"/>
    <tag k="building" v="yes"/>
    <tag k="source:addr" v="msi"/>
  </way>
  <way id="30780141" version="1" timestamp="2009-02-04T12:39:33Z" uid="20587" user="balrog-kun" changeset="125964">
    <nd ref="340377079"/>
    <nd ref="302874370"/>
    <nd ref="340377077"/>
    <nd ref="340377078"/>
    <nd ref="340377079"/>
    <tag k="addr:housenumber" v="41"/>
    <tag k="addr:street" v="Niekłańska"/>
    <tag k="building" v="yes"/>
    <tag k="source:addr" v="msi"/>
  </way>
  <way id="30780142" version="1" timestamp="2009-02-04T12:39:33Z" uid="20587" user="balrog-kun" changeset="125964">
    <nd ref="340377083"/>
    <nd ref="340377080"/>
    <nd ref="340377081"/>
    <nd ref="340377079"/>
    <nd ref="340377078"/>
    <nd ref="340377082"/>
    <nd ref="340377083"/>
    <tag k="addr:housenumber" v="5/9"/>
    <tag k="addr:street" v="Angorska"/>
    <tag k="building" v="yes"/>
    <tag k="source:addr" v="msi"/>
  </way>
  <way id="30780143" version="1" timestamp="2009-02-04T12:39:34Z" uid="20587" user="balrog-kun" changeset="125964">
    <nd ref="340377147"/>
    <nd ref="340377149"/>
    <nd ref="340377718"/>
    <nd ref="340377719"/>
    <nd ref="340377716"/>
    <nd ref="340377717"/>
    <nd ref="340377148"/>
    <nd ref="340377146"/>
    <nd ref="340377147"/>
    <tag k="addr:housenumber" v="4"/>
    <tag k="addr:street" v="Angorska"/>
    <tag k="building" v="yes"/>
    <tag k="source:addr" v="msi"/>
  </way>
  <way id="30780144" version="1" timestamp="2009-02-04T12:39:34Z" uid="20587" user="balrog-kun" changeset="125964">
    <nd ref="340377144"/>
    <nd ref="340377147"/>
    <nd ref="340377146"/>
    <nd ref="340377143"/>
    <nd ref="340377144"/>
    <tag k="addr:housenumber" v="39"/>
    <tag k="addr:street" v="Niekłańska"/>
    <tag k="building" v="yes"/>
    <tag k="source:addr" v="msi"/>
  </way>
  <way id="30780145" version="1" timestamp="2009-02-04T12:39:35Z" uid="20587" user="balrog-kun" changeset="125964">
    <nd ref="340377720"/>
    <nd ref="340377721"/>
    <nd ref="340377723"/>
    <nd ref="340377725"/>
    <nd ref="340377726"/>
    <nd ref="340377724"/>
    <nd ref="340377722"/>
    <nd ref="340377720"/>
    <tag k="addr:housenumber" v="12"/>
    <tag k="addr:street" v="Angorska"/>
    <tag k="building" v="yes"/>
    <tag k="source:addr" v="msi"/>
  </way>
  <way id="30780145" version="2" timestamp="2009-02-06T04:43:39Z" uid="20587" user="balrog-kun" changeset="185771">
    <nd ref="340377726"/>
    <nd ref="340377724"/>
    <nd ref="340377722"/>
    <nd ref="340377720"/>
    <nd ref="340377721"/>
    <nd ref="340377723"/>
    <nd ref="340377725"/>
    <nd ref="340377726"/>
    <tag k="addr:housenumber" v="12"/>
    <tag k="addr:street" v="Angorska"/>
    <tag k="building" v="yes"/>
    <tag k="source:addr" v="msi"/>
  </way>
  <way id="30780146" version="1" timestamp="2009-02-04T12:39:35Z" uid="20587" user="balrog-kun" changeset="125964">
    <nd ref="340377727"/>
    <nd ref="340377728"/>
    <nd ref="340377730"/>
    <nd ref="340377729"/>
    <nd ref="340377727"/>
    <tag k="addr:housenumber" v="14"/>
    <tag k="addr:street" v="Angorska"/>
    <tag k="building" v="yes"/>
    <tag k="source:addr" v="msi"/>
  </way>
  <way id="30780146" version="2" timestamp="2009-02-06T04:43:39Z" uid="20587" user="balrog-kun" changeset="185771">
    <nd ref="341640041"/>
    <nd ref="341640039"/>
    <nd ref="341640043"/>
    <nd ref="341640045"/>
    <nd ref="341640041"/>
    <tag k="addr:housenumber" v="53"/>
    <tag k="addr:street" v="Międzynarodowa"/>
    <tag k="building" v="yes"/>
    <tag k="source:addr" v="msi"/>
  </way>
  <way id="30780147" version="1" timestamp="2009-02-04T12:39:35Z" uid="20587" user="balrog-kun" changeset="125964">
    <nd ref="340377731"/>
    <nd ref="340377732"/>
    <nd ref="340377734"/>
    <nd ref="340377733"/>
    <nd ref="340377731"/>
    <tag k="addr:housenumber" v="11"/>
    <tag k="addr:street" v="Peszteńska"/>
    <tag k="building" v="yes"/>
    <tag k="source:addr" v="msi"/>
  </way>
  <way id="30780149" version="1" timestamp="2009-02-04T12:39:36Z" uid="20587" user="balrog-kun" changeset="125964">
    <nd ref="340377735"/>
    <nd ref="340377737"/>
    <nd ref="340377738"/>
    <nd ref="340377736"/>
    <nd ref="340377735"/>
    <tag k="addr:housenumber" v="14"/>
    <tag k="addr:street" v="Peszteńska"/>
    <tag k="building" v="yes"/>
    <tag k="source:addr" v="msi"/>
  </way>
  <way id="30780150" version="1" timestamp="2009-02-04T12:39:37Z" uid="20587" user="balrog-kun" changeset="125964">
    <nd ref="340377739"/>
    <nd ref="340377741"/>
    <nd ref="340377742"/>
    <nd ref="340377740"/>
    <nd ref="340377739"/>
    <tag k="addr:housenumber" v="12"/>
    <tag k="addr:street" v="Peszteńska"/>
    <tag k="building" v="yes"/>
    <tag k="source:addr" v="msi"/>
  </way>
  <way id="30780151" version="1" timestamp="2009-02-04T12:39:37Z" uid="20587" user="balrog-kun" changeset="125964">
    <nd ref="340377743"/>
    <nd ref="340377745"/>
    <nd ref="340377746"/>
    <nd ref="340377744"/>
    <nd ref="340377743"/>
    <tag k="addr:housenumber" v="10b"/>
    <tag k="addr:street" v="Peszteńska"/>
    <tag k="building" v="yes"/>
    <tag k="source:addr" v="msi"/>
  </way>
  <way id="30780152" version="1" timestamp="2009-02-04T12:39:37Z" uid="20587" user="balrog-kun" changeset="125964">
    <nd ref="340377747"/>
    <nd ref="340377751"/>
    <nd ref="340377750"/>
    <nd ref="340377755"/>
    <nd ref="340377754"/>
    <nd ref="340377753"/>
    <nd ref="340377756"/>
    <nd ref="340377758"/>
    <nd ref="340377757"/>
    <nd ref="340377752"/>
    <nd ref="340377749"/>
    <nd ref="340377748"/>
    <nd ref="340377747"/>
    <tag k="addr:housenumber" v="10a"/>
    <tag k="addr:street" v="Peszteńska"/>
    <tag k="building" v="yes"/>
    <tag k="source:addr" v="msi"/>
  </way>
  <way id="30780153" version="1" timestamp="2009-02-04T12:39:38Z" uid="20587" user="balrog-kun" changeset="125964">
    <nd ref="340377759"/>
    <nd ref="340377760"/>
    <nd ref="340377762"/>
    <nd ref="340377761"/>
    <nd ref="340377759"/>
    <tag k="addr:housenumber" v="10"/>
    <tag k="addr:street" v="Peszteńska"/>
    <tag k="building" v="yes"/>
    <tag k="source:addr" v="msi"/>
  </way>
  <way id="30780154" version="1" timestamp="2009-02-04T12:39:39Z" uid="20587" user="balrog-kun" changeset="125964">
    <nd ref="340377763"/>
    <nd ref="340377764"/>
    <nd ref="340377766"/>
    <nd ref="340377765"/>
    <nd ref="340377763"/>
    <tag k="addr:housenumber" v="8"/>
    <tag k="addr:street" v="Peszteńska"/>
    <tag k="building" v="yes"/>
    <tag k="source:addr" v="msi"/>
  </way>
  <way id="30780155" version="1" timestamp="2009-02-04T12:39:39Z" uid="20587" user="balrog-kun" changeset="125964">
    <nd ref="340377767"/>
    <nd ref="340377769"/>
    <nd ref="340377770"/>
    <nd ref="340377768"/>
    <nd ref="340377767"/>
    <tag k="addr:housenumber" v="8a"/>
    <tag k="addr:street" v="Peszteńska"/>
    <tag k="building" v="yes"/>
    <tag k="source:addr" v="msi"/>
  </way>
  <way id="30780156" version="1" timestamp="2009-02-04T12:39:39Z" uid="20587" user="balrog-kun" changeset="125964">
    <nd ref="340377533"/>
    <nd ref="340377535"/>
    <nd ref="340377534"/>
    <nd ref="340377532"/>
    <nd ref="340377533"/>
    <tag k="addr:housenumber" v="2"/>
    <tag k="addr:street" v="Irlandzka"/>
    <tag k="building" v="yes"/>
    <tag k="source:addr" v="msi"/>
  </way>
  <way id="30780157" version="1" timestamp="2009-02-04T12:39:40Z" uid="20587" user="balrog-kun" changeset="125964">
    <nd ref="340377552"/>
    <nd ref="340377555"/>
    <nd ref="340377556"/>
    <nd ref="340377554"/>
    <nd ref="340377552"/>
    <tag k="addr:housenumber" v="47"/>
    <tag k="addr:street" v="Walecznych"/>
    <tag k="building" v="yes"/>
    <tag k="source:addr" v="msi"/>
  </way>
  <way id="30780158" version="1" timestamp="2009-02-04T12:39:40Z" uid="20587" user="balrog-kun" changeset="125964">
    <nd ref="340377552"/>
    <nd ref="340377554"/>
    <nd ref="340377551"/>
    <nd ref="340377550"/>
    <nd ref="340377552"/>
    <tag k="addr:housenumber" v="45"/>
    <tag k="addr:street" v="Walecznych"/>
    <tag k="building" v="yes"/>
    <tag k="source:addr" v="msi"/>
  </way>
  <way id="30780159" version="1" timestamp="2009-02-04T12:39:40Z" uid="20587" user="balrog-kun" changeset="125964">
    <nd ref="340377559"/>
    <nd ref="340377561"/>
    <nd ref="340377562"/>
    <nd ref="340377560"/>
    <nd ref="340377559"/>
    <tag k="addr:housenumber" v="51"/>
    <tag k="addr:street" v="Walecznych"/>
    <tag k="building" v="yes"/>
    <tag k="source:addr" v="msi"/>
  </way>
  <way id="30780160" version="1" timestamp="2009-02-04T12:39:41Z" uid="20587" user="balrog-kun" changeset="125964">
    <nd ref="340377558"/>
    <nd ref="340377557"/>
    <nd ref="340377559"/>
    <nd ref="340377560"/>
    <nd ref="340377558"/>
    <tag k="addr:housenumber" v="49"/>
    <tag k="addr:street" v="Walecznych"/>
    <tag k="building" v="yes"/>
    <tag k="source:addr" v="msi"/>
  </way>
  <way id="30780161" version="1" timestamp="2009-02-04T12:39:41Z" uid="20587" user="balrog-kun" changeset="125964">
    <nd ref="340377774"/>
    <nd ref="340377775"/>
    <nd ref="340377777"/>
    <nd ref="340377778"/>
    <nd ref="340377780"/>
    <nd ref="340377779"/>
    <nd ref="340377776"/>
    <nd ref="340377774"/>
    <tag k="building" v="yes"/>
  </way>
  <way id="30780162" version="1" timestamp="2009-02-04T12:39:41Z" uid="20587" user="balrog-kun" changeset="125964">
    <nd ref="340377318"/>
    <nd ref="340377317"/>
    <nd ref="340377316"/>
    <nd ref="340377319"/>
    <nd ref="340377318"/>
    <tag k="addr:housenumber" v="107"/>
    <tag k="addr:street" v="Saska"/>
    <tag k="building" v="yes"/>
    <tag k="source:addr" v="msi"/>
  </way>
  <way id="30780163" version="1" timestamp="2009-02-04T12:39:41Z" uid="20587" user="balrog-kun" changeset="125964">
    <nd ref="340377566"/>
    <nd ref="340377568"/>
    <nd ref="340377567"/>
    <nd ref="340377565"/>
    <nd ref="340377566"/>
    <tag k="addr:housenumber" v="97"/>
    <tag k="addr:street" v="Saska"/>
    <tag k="building" v="yes"/>
    <tag k="source:addr" v="msi"/>
  </way>
  <way id="30780164" version="1" timestamp="2009-02-04T12:39:42Z" uid="20587" user="balrog-kun" changeset="125964">
    <nd ref="340377781"/>
    <nd ref="340377782"/>
    <nd ref="340377783"/>
    <nd ref="340377784"/>
    <nd ref="340377790"/>
    <nd ref="340377789"/>
    <nd ref="340377785"/>
    <nd ref="340377786"/>
    <nd ref="340377787"/>
    <nd ref="340377788"/>
    <tag k="highway" v="living_street"/>
    <tag k="name" v="Galijska"/>
  </way>
  <way id="30780164" version="2" timestamp="2010-12-08T20:08:17Z" uid="99386" user="masti" changeset="6588838">
    <nd ref="340377781"/>
    <nd ref="340377782"/>
    <nd ref="340377783"/>
    <nd ref="340377784"/>
    <nd ref="340377790"/>
    <nd ref="1028562817"/>
    <nd ref="340377789"/>
    <nd ref="340377785"/>
    <nd ref="340377786"/>
    <nd ref="340377787"/>
    <nd ref="340377788"/>
    <tag k="highway" v="living_street"/>
    <tag k="name" v="Galijska"/>
  </way>
  <way id="30780164" version="3" timestamp="2010-12-08T20:43:54Z" uid="99386" user="masti" changeset="6589245">
    <nd ref="340377781"/>
    <nd ref="340377782"/>
    <nd ref="340377783"/>
    <nd ref="340377784"/>
    <nd ref="340377790"/>
    <nd ref="1028562817"/>
    <nd ref="340377789"/>
    <nd ref="340377785"/>
    <nd ref="340377786"/>
    <nd ref="340377787"/>
    <nd ref="340377788"/>
    <tag k="access" v="private"/>
    <tag k="highway" v="living_street"/>
    <tag k="name" v="Galijska"/>
  </way>
  <way id="30780164" version="4" timestamp="2011-09-21T08:57:19Z" uid="99386" user="masti" changeset="9358456">
    <nd ref="340377781"/>
    <nd ref="1439099860"/>
    <nd ref="340377782"/>
    <nd ref="340377783"/>
    <nd ref="340377784"/>
    <nd ref="340377790"/>
    <nd ref="1028562817"/>
    <nd ref="340377789"/>
    <nd ref="340377785"/>
    <nd ref="340377786"/>
    <nd ref="340377787"/>
    <nd ref="340377788"/>
    <tag k="highway" v="living_street"/>
    <tag k="name" v="Galijska"/>
  </way>
  <way id="30780164" version="5" timestamp="2011-09-21T09:02:28Z" uid="99386" user="masti" changeset="9358501">
    <nd ref="340377781"/>
    <nd ref="1439099860"/>
    <nd ref="340377782"/>
    <nd ref="340377783"/>
    <nd ref="340377784"/>
    <nd ref="340377790"/>
    <nd ref="1439102822"/>
    <nd ref="340377789"/>
    <nd ref="340377785"/>
    <nd ref="340377786"/>
    <nd ref="340377787"/>
    <nd ref="340377788"/>
    <tag k="highway" v="living_street"/>
    <tag k="name" v="Galijska"/>
  </way>
  <way id="30780164" version="6" timestamp="2012-02-24T16:59:32Z" uid="99386" user="masti" changeset="10780185">
    <nd ref="340377781"/>
    <nd ref="1645777566"/>
    <nd ref="1439099860"/>
    <nd ref="340377782"/>
    <nd ref="340377783"/>
    <nd ref="340377784"/>
    <nd ref="340377790"/>
    <nd ref="1439102822"/>
    <nd ref="340377789"/>
    <nd ref="340377785"/>
    <nd ref="340377786"/>
    <nd ref="340377787"/>
    <nd ref="340377788"/>
    <tag k="highway" v="living_street"/>
    <tag k="name" v="Galijska"/>
  </way>
  <way id="30780165" version="1" timestamp="2009-02-04T12:39:42Z" uid="20587" user="balrog-kun" changeset="125964">
    <nd ref="340377791"/>
    <nd ref="340377793"/>
    <nd ref="340377794"/>
    <nd ref="340377792"/>
    <nd ref="340377791"/>
    <tag k="addr:housenumber" v="11"/>
    <tag k="addr:street" v="Elsterska"/>
    <tag k="building" v="yes"/>
    <tag k="source:addr" v="msi"/>
  </way>
  <way id="30780166" version="1" timestamp="2009-02-04T12:39:42Z" uid="20587" user="balrog-kun" changeset="125964">
    <nd ref="340377797"/>
    <nd ref="340377798"/>
    <nd ref="340377799"/>
    <nd ref="340377796"/>
    <nd ref="340377797"/>
    <tag k="addr:housenumber" v="38"/>
    <tag k="addr:street" v="Lipska"/>
    <tag k="building" v="yes"/>
    <tag k="building:levels" v="2"/>
    <tag k="source:addr" v="msi"/>
  </way>
  <way id="30780167" version="1" timestamp="2009-02-04T12:39:43Z" uid="20587" user="balrog-kun" changeset="125964">
    <nd ref="340377293"/>
    <nd ref="340377291"/>
    <nd ref="340377290"/>
    <nd ref="340377292"/>
    <nd ref="340377293"/>
    <tag k="addr:housenumber" v="42"/>
    <tag k="addr:street" v="Berezyńska"/>
    <tag k="building" v="yes"/>
    <tag k="source:addr" v="msi"/>
  </way>
  <way id="30780168" version="1" timestamp="2009-02-04T12:39:43Z" uid="20587" user="balrog-kun" changeset="125964">
    <nd ref="308323843"/>
    <nd ref="308323850"/>
    <nd ref="308323848"/>
    <nd ref="308323845"/>
    <nd ref="308323843"/>
    <tag k="addr:housenumber" v="6"/>
    <tag k="addr:street" v="Aleja Jerzego Waszyngtona"/>
    <tag k="building" v="yes"/>
    <tag k="building:levels" v="3"/>
  </way>
  <way id="30780169" version="1" timestamp="2009-02-04T12:39:43Z" uid="20587" user="balrog-kun" changeset="125964">
    <nd ref="340377800"/>
    <nd ref="340377801"/>
    <nd ref="340377802"/>
    <nd ref="340377803"/>
    <nd ref="340377804"/>
    <nd ref="340377805"/>
    <nd ref="340377806"/>
    <nd ref="340377800"/>
    <tag k="leisure" v="common"/>
  </way>
  <way id="30780170" version="1" timestamp="2009-02-04T12:39:44Z" uid="20587" user="balrog-kun" changeset="125964">
    <nd ref="340377810"/>
    <nd ref="340377812"/>
    <nd ref="340377813"/>
    <nd ref="340377811"/>
    <nd ref="340377810"/>
    <tag k="addr:housenumber" v="11"/>
    <tag k="addr:street" v="Irlandzka"/>
    <tag k="building" v="yes"/>
    <tag k="source:addr" v="msi"/>
  </way>
  <way id="30780171" version="1" timestamp="2009-02-04T12:39:44Z" uid="20587" user="balrog-kun" changeset="125964">
    <nd ref="340377455"/>
    <nd ref="340377456"/>
    <nd ref="340377457"/>
    <nd ref="340377454"/>
    <nd ref="340377455"/>
    <tag k="addr:housenumber" v="18"/>
    <tag k="addr:street" v="Dąbrówki"/>
    <tag k="building" v="yes"/>
    <tag k="source:addr" v="msi"/>
  </way>
  <way id="30780172" version="1" timestamp="2009-02-04T12:39:44Z" uid="20587" user="balrog-kun" changeset="125964">
    <nd ref="340377814"/>
    <nd ref="340377455"/>
    <nd ref="340377454"/>
    <nd ref="340377815"/>
    <nd ref="340377814"/>
    <tag k="addr:housenumber" v="16"/>
    <tag k="addr:street" v="Dąbrówki"/>
    <tag k="building" v="yes"/>
    <tag k="source:addr" v="msi"/>
  </way>
  <way id="30780173" version="1" timestamp="2009-02-04T12:39:45Z" uid="20587" user="balrog-kun" changeset="125964">
    <nd ref="340377814"/>
    <nd ref="340377815"/>
    <nd ref="340377452"/>
    <nd ref="340377453"/>
    <nd ref="340377814"/>
    <tag k="addr:housenumber" v="14"/>
    <tag k="addr:street" v="Dąbrówki"/>
    <tag k="building" v="yes"/>
    <tag k="source:addr" v="msi"/>
  </way>
  <way id="30780174" version="1" timestamp="2009-02-04T12:39:45Z" uid="20587" user="balrog-kun" changeset="125964">
    <nd ref="340377468"/>
    <nd ref="340377467"/>
    <nd ref="340377469"/>
    <nd ref="340377470"/>
    <nd ref="340377468"/>
    <tag k="addr:housenumber" v="13"/>
    <tag k="addr:street" v="Dąbrówki"/>
    <tag k="building" v="yes"/>
    <tag k="source:addr" v="msi"/>
  </way>
  <way id="30780175" version="1" timestamp="2009-02-04T12:39:45Z" uid="20587" user="balrog-kun" changeset="125964">
    <nd ref="340377465"/>
    <nd ref="340377463"/>
    <nd ref="340377462"/>
    <nd ref="340377464"/>
    <nd ref="340377466"/>
    <nd ref="340377465"/>
    <tag k="addr:housenumber" v="17"/>
    <tag k="addr:street" v="Dąbrówki"/>
    <tag k="building" v="yes"/>
    <tag k="source:addr" v="msi"/>
  </way>
  <way id="30780176" version="1" timestamp="2009-02-04T12:39:45Z" uid="20587" user="balrog-kun" changeset="125964">
    <nd ref="340377468"/>
    <nd ref="340377465"/>
    <nd ref="340377466"/>
    <nd ref="340377467"/>
    <nd ref="340377468"/>
    <tag k="addr:housenumber" v="15"/>
    <tag k="addr:street" v="Dąbrówki"/>
    <tag k="building" v="yes"/>
    <tag k="source:addr" v="msi"/>
  </way>
  <way id="30780177" version="1" timestamp="2009-02-04T12:39:46Z" uid="20587" user="balrog-kun" changeset="125964">
    <nd ref="340377816"/>
    <nd ref="340377818"/>
    <nd ref="340377819"/>
    <nd ref="340377817"/>
    <nd ref="340377816"/>
    <tag k="addr:housenumber" v="7"/>
    <tag k="addr:street" v="Peszteńska"/>
    <tag k="building" v="yes"/>
    <tag k="source:addr" v="msi"/>
  </way>
  <way id="30780177" version="2" timestamp="2009-02-06T04:43:38Z" uid="20587" user="balrog-kun" changeset="185771">
    <nd ref="340377816"/>
    <nd ref="340377818"/>
    <nd ref="340377819"/>
    <nd ref="340377817"/>
    <nd ref="340377816"/>
    <tag k="addr:housenumber" v="5"/>
    <tag k="addr:street" v="Peszteńska"/>
    <tag k="building" v="yes"/>
    <tag k="source:addr" v="msi"/>
  </way>
  <way id="30780178" version="1" timestamp="2009-02-04T12:39:46Z" uid="20587" user="balrog-kun" changeset="125964">
    <nd ref="340377820"/>
    <nd ref="340377822"/>
    <nd ref="340377823"/>
    <nd ref="340377821"/>
    <nd ref="340377820"/>
    <tag k="addr:housenumber" v="7"/>
    <tag k="addr:street" v="Peszteńska"/>
    <tag k="building" v="yes"/>
    <tag k="source:addr" v="msi"/>
  </way>
  <way id="30780179" version="1" timestamp="2009-02-04T12:39:46Z" uid="20587" user="balrog-kun" changeset="125964">
    <nd ref="340377824"/>
    <nd ref="340377826"/>
    <nd ref="340377827"/>
    <nd ref="340377825"/>
    <nd ref="340377824"/>
    <tag k="addr:housenumber" v="3"/>
    <tag k="addr:street" v="Peszteńska"/>
    <tag k="building" v="yes"/>
    <tag k="source:addr" v="msi"/>
  </way>
  <way id="30780180" version="1" timestamp="2009-02-04T12:39:47Z" uid="20587" user="balrog-kun" changeset="125964">
    <nd ref="340377828"/>
    <nd ref="340377830"/>
    <nd ref="340377831"/>
    <nd ref="340377829"/>
    <nd ref="340377828"/>
    <tag k="addr:housenumber" v="2"/>
    <tag k="addr:street" v="Peszteńska"/>
    <tag k="building" v="yes"/>
    <tag k="source:addr" v="msi"/>
  </way>
  <way id="30780181" version="1" timestamp="2009-02-04T12:39:47Z" uid="20587" user="balrog-kun" changeset="125964">
    <nd ref="340377571"/>
    <nd ref="340377572"/>
    <nd ref="340377570"/>
    <nd ref="340377569"/>
    <nd ref="340377571"/>
    <tag k="addr:housenumber" v="93"/>
    <tag k="addr:street" v="Saska"/>
    <tag k="building" v="yes"/>
    <tag k="source:addr" v="msi"/>
  </way>
  <way id="30780183" version="1" timestamp="2009-02-04T12:39:47Z" uid="20587" user="balrog-kun" changeset="125964">
    <nd ref="340377598"/>
    <nd ref="340377832"/>
    <nd ref="340377833"/>
    <nd ref="340377596"/>
    <nd ref="340377598"/>
    <tag k="addr:housenumber" v="36"/>
    <tag k="addr:street" v="Alfreda Nobla"/>
    <tag k="building" v="yes"/>
    <tag k="source:addr" v="msi"/>
  </way>
  <way id="30780184" version="1" timestamp="2009-02-04T12:39:48Z" uid="20587" user="balrog-kun" changeset="125964">
    <nd ref="340377543"/>
    <nd ref="340377544"/>
    <nd ref="340377545"/>
    <nd ref="340377542"/>
    <nd ref="340377543"/>
    <tag k="addr:housenumber" v="8"/>
    <tag k="addr:street" v="Irlandzka"/>
    <tag k="building" v="yes"/>
    <tag k="source:addr" v="msi"/>
  </way>
  <way id="30780185" version="1" timestamp="2009-02-04T12:39:48Z" uid="20587" user="balrog-kun" changeset="125964">
    <nd ref="340377531"/>
    <nd ref="340377533"/>
    <nd ref="340377532"/>
    <nd ref="340377530"/>
    <nd ref="340377531"/>
    <tag k="addr:housenumber" v="43"/>
    <tag k="addr:street" v="Walecznych"/>
    <tag k="building" v="yes"/>
    <tag k="source:addr" v="msi"/>
  </way>
  <way id="30780195" version="2" timestamp="2009-10-07T16:16:54Z" uid="164966" user="linuss1" changeset="2773305">
    <nd ref="74994085"/>
    <nd ref="81721412"/>
    <nd ref="81721414"/>
    <nd ref="524381366"/>
    <nd ref="131236"/>
    <nd ref="81721690"/>
    <nd ref="81718297"/>
    <tag k="highway" v="primary"/>
    <tag k="name" v="Holmer Straße"/>
    <tag k="ref" v="B 431"/>
  </way>
  <way id="30780195" version="3" timestamp="2009-10-09T15:35:07Z" uid="164966" user="linuss1" changeset="2795335">
    <nd ref="74994085"/>
    <nd ref="81721412"/>
    <nd ref="81721414"/>
    <nd ref="524381366"/>
    <nd ref="131236"/>
    <nd ref="527250364"/>
    <nd ref="81721690"/>
    <nd ref="527250367"/>
    <nd ref="81718297"/>
    <tag k="highway" v="primary"/>
    <tag k="name" v="Holmer Straße"/>
    <tag k="ref" v="B 431"/>
  </way>
  <way id="30780195" version="4" timestamp="2011-08-05T13:19:17Z" uid="208474" user="Joke123" changeset="8929011">
    <nd ref="74994085"/>
    <nd ref="81721412"/>
    <nd ref="81721414"/>
    <nd ref="524381366"/>
    <nd ref="131236"/>
    <nd ref="527250364"/>
    <nd ref="81721690"/>
    <nd ref="527250367"/>
    <nd ref="1387485882"/>
    <nd ref="81718297"/>
    <tag k="highway" v="primary"/>
    <tag k="name" v="Holmer Straße"/>
    <tag k="ref" v="B 431"/>
  </way>
  <way id="30780195" version="5" timestamp="2011-10-10T11:45:18Z" uid="53757" user="Laudrin" changeset="9521115">
    <nd ref="74994085"/>
    <nd ref="81721412"/>
    <nd ref="81721414"/>
    <nd ref="524381366"/>
    <nd ref="131236"/>
    <nd ref="527250364"/>
    <nd ref="81721690"/>
    <nd ref="527250367"/>
    <nd ref="1387485882"/>
    <nd ref="81718297"/>
    <tag k="highway" v="primary"/>
    <tag k="maxspeed" v="50"/>
    <tag k="name" v="Holmer Straße"/>
    <tag k="ref" v="B 431"/>
  </way>
  <way id="30780195" version="6" timestamp="2011-11-30T10:48:43Z" uid="316232" user="Marsman" changeset="9997333">
    <nd ref="74994085"/>
    <nd ref="81721412"/>
    <nd ref="81721414"/>
    <nd ref="524381366"/>
    <nd ref="131236"/>
    <nd ref="527250364"/>
    <nd ref="527250367"/>
    <nd ref="1387485882"/>
    <nd ref="81718297"/>
    <tag k="highway" v="primary"/>
    <tag k="maxspeed" v="50"/>
    <tag k="name" v="Holmer Straße"/>
    <tag k="ref" v="B 431"/>
  </way>
  <way id="30780195" version="7" timestamp="2012-01-15T19:31:04Z" uid="208474" user="Joke123" changeset="10402172">
    <nd ref="74994085"/>
    <nd ref="81721412"/>
    <nd ref="524381366"/>
    <nd ref="131236"/>
    <nd ref="527250364"/>
    <nd ref="527250367"/>
    <nd ref="1387485882"/>
    <nd ref="81718297"/>
    <tag k="highway" v="primary"/>
    <tag k="maxspeed" v="50"/>
    <tag k="name" v="Holmer Straße"/>
    <tag k="ref" v="B 431"/>
  </way>
  <way id="30780195" version="8" timestamp="2012-01-25T00:17:03Z" uid="438869" user="NovemberCharly" changeset="10489799">
    <nd ref="74994085"/>
    <nd ref="81721412"/>
    <nd ref="524381366"/>
    <nd ref="131236"/>
    <nd ref="527250364"/>
    <nd ref="527250367"/>
    <nd ref="1387485882"/>
    <nd ref="1604298409"/>
    <nd ref="81718297"/>
    <tag k="highway" v="primary"/>
    <tag k="maxspeed" v="50"/>
    <tag k="name" v="Holmer Straße"/>
    <tag k="ref" v="B 431"/>
  </way>
  <way id="30780322" version="2" timestamp="2010-07-09T21:02:49Z" uid="74617" user="JohnSmith" changeset="5176956">
    <nd ref="338585206"/>
    <nd ref="338585222"/>
    <nd ref="338585239"/>
    <nd ref="338585256"/>
    <nd ref="338585277"/>
    <tag k="highway" v="residential"/>
    <tag k="maxspeed" v="50"/>
    <tag k="maxspeed:source" v="default residential speed limit in Australia"/>
    <tag k="name" v="Rosher Place"/>
  </way>
  <way id="30780322" version="3" timestamp="2012-01-18T05:17:07Z" uid="147510" user="woodpeck_fixbot" changeset="10424371">
    <nd ref="338585206"/>
    <nd ref="338585222"/>
    <nd ref="338585239"/>
    <nd ref="338585256"/>
    <nd ref="338585277"/>
    <tag k="highway" v="residential"/>
    <tag k="name" v="Rosher Place"/>
  </way>
  <way id="30780519" version="4" timestamp="2009-10-13T23:28:35Z" uid="36809" user="pfoten_weg_!_" changeset="2841268">
    <nd ref="340382405"/>
    <nd ref="340382406"/>
    <nd ref="340382407"/>
    <nd ref="340382408"/>
    <nd ref="340382409"/>
    <nd ref="340382410"/>
    <nd ref="340382411"/>
    <nd ref="340382412"/>
    <nd ref="340381959"/>
    <nd ref="340381961"/>
    <nd ref="293699569"/>
    <tag k="highway" v="residential"/>
    <tag k="name:de" v="Kranzelstein Weg"/>
    <tag k="name:it" v="via Kranzelstein"/>
  </way>
  <way id="30780710" version="1" timestamp="2009-02-04T13:17:34Z" uid="9581" user="Lobelt" changeset="129417">
    <nd ref="340383319"/>
    <nd ref="340383320"/>
    <nd ref="340383321"/>
    <nd ref="340383322"/>
    <nd ref="340383323"/>
    <nd ref="340383319"/>
    <tag k="natural" v="water"/>
  </way>
  <way id="30780710" version="2" timestamp="2010-08-27T18:29:37Z" uid="212079" user="atz" changeset="5610219">
    <nd ref="340383319"/>
    <nd ref="340383323"/>
    <nd ref="340383322"/>
    <nd ref="340383321"/>
    <nd ref="340383320"/>
    <nd ref="340383319"/>
    <tag k="natural" v="water"/>
  </way>
  <way id="30780710" version="3" timestamp="2012-01-02T15:53:32Z" uid="125832" user="tijuca" changeset="10271998"/>
  <way id="30780711" version="1" timestamp="2009-02-04T13:17:35Z" uid="9581" user="Lobelt" changeset="129417">
    <nd ref="340383346"/>
    <nd ref="340383342"/>
    <nd ref="340383341"/>
    <nd ref="340383340"/>
    <nd ref="340383339"/>
    <nd ref="340383338"/>
    <nd ref="340383337"/>
    <nd ref="340383336"/>
    <nd ref="340383335"/>
    <nd ref="340383334"/>
    <nd ref="340383333"/>
    <nd ref="340383332"/>
    <nd ref="340383331"/>
    <nd ref="340383330"/>
    <nd ref="340383329"/>
    <nd ref="340383328"/>
    <nd ref="340383327"/>
    <nd ref="340383326"/>
    <nd ref="340383325"/>
    <nd ref="340383324"/>
    <nd ref="340383318"/>
    <nd ref="340383317"/>
    <nd ref="340383316"/>
    <nd ref="340383315"/>
    <nd ref="340383314"/>
    <nd ref="340383313"/>
    <nd ref="340383312"/>
    <nd ref="340383311"/>
    <nd ref="340383310"/>
    <nd ref="340383309"/>
    <nd ref="340383308"/>
    <nd ref="340383307"/>
    <nd ref="340383306"/>
    <nd ref="340383305"/>
    <nd ref="340383304"/>
    <nd ref="332403799"/>
    <nd ref="332403798"/>
    <nd ref="332403797"/>
    <nd ref="332403796"/>
    <nd ref="332403795"/>
    <nd ref="332403794"/>
    <nd ref="332403793"/>
    <nd ref="332403792"/>
    <nd ref="332403791"/>
    <nd ref="332403790"/>
    <nd ref="332403789"/>
    <nd ref="332403788"/>
    <nd ref="332403787"/>
    <nd ref="332403786"/>
    <nd ref="332403785"/>
    <nd ref="332403784"/>
    <nd ref="332403783"/>
    <nd ref="332403782"/>
    <nd ref="332403781"/>
    <nd ref="332403780"/>
    <nd ref="332403779"/>
    <nd ref="332403778"/>
    <nd ref="332403777"/>
    <nd ref="332403776"/>
    <nd ref="332403775"/>
    <nd ref="332403774"/>
    <nd ref="332403773"/>
    <nd ref="332403772"/>
    <nd ref="332403771"/>
    <nd ref="332403770"/>
    <nd ref="332403769"/>
    <nd ref="332403768"/>
    <nd ref="332403767"/>
    <nd ref="332403766"/>
    <nd ref="332403765"/>
    <nd ref="332403764"/>
    <nd ref="332403763"/>
    <nd ref="332403762"/>
    <nd ref="332403761"/>
    <nd ref="332403760"/>
    <nd ref="332403758"/>
    <nd ref="332403757"/>
    <nd ref="332403756"/>
    <nd ref="332403755"/>
    <nd ref="332403754"/>
    <nd ref="332403753"/>
    <nd ref="332403752"/>
    <nd ref="332403751"/>
    <nd ref="332403750"/>
    <nd ref="332403749"/>
    <nd ref="332403748"/>
    <nd ref="332403747"/>
    <nd ref="332403746"/>
    <nd ref="332403745"/>
    <nd ref="332403744"/>
    <nd ref="332403743"/>
    <nd ref="332403742"/>
    <nd ref="332403741"/>
    <nd ref="332403306"/>
    <tag k="waterway" v="stream"/>
  </way>
  <way id="30780711" version="2" timestamp="2010-04-14T17:45:06Z" uid="212079" user="atz" changeset="4424526"/>
  <way id="30780714" version="1" timestamp="2009-02-04T13:17:37Z" uid="9581" user="Lobelt" changeset="129417">
    <nd ref="51207131"/>
    <nd ref="340383347"/>
    <tag k="bridge" v="yes"/>
    <tag k="created_by" v="JOSM"/>
    <tag k="highway" v="unclassified"/>
    <tag k="ref" v="K 114"/>
  </way>
  <way id="30780714" version="2" timestamp="2010-09-27T20:16:44Z" uid="9581" user="Lobelt" changeset="5895457">
    <nd ref="51207131"/>
    <nd ref="340383347"/>
    <tag k="bridge" v="yes"/>
    <tag k="highway" v="tertiary"/>
    <tag k="maxspeed" v="50"/>
    <tag k="ref" v="K 114"/>
  </way>
  <way id="30780714" version="3" timestamp="2010-09-27T20:22:40Z" uid="9581" user="Lobelt" changeset="5895504">
    <nd ref="51207131"/>
    <nd ref="340383347"/>
    <tag k="bridge" v="yes"/>
    <tag k="highway" v="unclassified"/>
    <tag k="maxspeed" v="50"/>
  </way>
  <way id="30780714" version="4" timestamp="2010-10-14T19:32:21Z" uid="212079" user="atz" changeset="6042425">
    <nd ref="51207131"/>
    <nd ref="340383347"/>
    <tag k="bridge" v="yes"/>
    <tag k="highway" v="unclassified"/>
    <tag k="layer" v="1"/>
    <tag k="maxspeed" v="50"/>
  </way>
  <way id="30780714" version="5" timestamp="2012-01-07T10:07:15Z" uid="125832" user="tijuca" changeset="10319503"/>
  <way id="30780716" version="1" timestamp="2009-02-04T13:17:37Z" uid="9581" user="Lobelt" changeset="129417">
    <nd ref="340383347"/>
    <nd ref="313022788"/>
    <nd ref="51207133"/>
    <nd ref="51207135"/>
    <nd ref="51207138"/>
    <nd ref="51207139"/>
    <nd ref="51207142"/>
    <nd ref="51207144"/>
    <nd ref="51207146"/>
    <nd ref="51207148"/>
    <nd ref="51207150"/>
    <nd ref="51207151"/>
    <nd ref="51207153"/>
    <nd ref="51207156"/>
    <nd ref="51207158"/>
    <nd ref="51207160"/>
    <nd ref="51207163"/>
    <nd ref="51207165"/>
    <nd ref="51207166"/>
    <nd ref="51207169"/>
    <nd ref="51207170"/>
    <nd ref="51207172"/>
    <nd ref="51207175"/>
    <nd ref="51207177"/>
    <nd ref="51207179"/>
    <nd ref="51207181"/>
    <nd ref="51207183"/>
    <nd ref="51207185"/>
    <nd ref="51207188"/>
    <nd ref="51207190"/>
    <nd ref="51207193"/>
    <nd ref="51207194"/>
    <nd ref="51207197"/>
    <nd ref="51207199"/>
    <nd ref="51207201"/>
    <nd ref="51207204"/>
    <nd ref="51207206"/>
    <nd ref="51207208"/>
    <nd ref="51207210"/>
    <nd ref="51207213"/>
    <nd ref="51207215"/>
    <nd ref="51207217"/>
    <nd ref="51207218"/>
    <nd ref="51207220"/>
    <nd ref="51207222"/>
    <nd ref="51207225"/>
    <nd ref="51207227"/>
    <nd ref="51207228"/>
    <nd ref="51207231"/>
    <nd ref="51207233"/>
    <nd ref="51207236"/>
    <nd ref="51207238"/>
    <nd ref="51207241"/>
    <nd ref="51207244"/>
    <nd ref="51207245"/>
    <nd ref="51207248"/>
    <nd ref="51207251"/>
    <nd ref="51207253"/>
    <nd ref="51207255"/>
    <nd ref="51207258"/>
    <nd ref="51207259"/>
    <nd ref="51207261"/>
    <nd ref="51207263"/>
    <nd ref="51207265"/>
    <nd ref="51207267"/>
    <nd ref="51207269"/>
    <nd ref="51207271"/>
    <nd ref="51207272"/>
    <nd ref="51207275"/>
    <nd ref="51207277"/>
    <nd ref="51207279"/>
    <nd ref="51207281"/>
    <nd ref="51207283"/>
    <nd ref="51207286"/>
    <nd ref="51207288"/>
    <nd ref="51207290"/>
    <nd ref="51207292"/>
    <nd ref="51207294"/>
    <nd ref="51207296"/>
    <nd ref="51207298"/>
    <nd ref="51207300"/>
    <nd ref="51207303"/>
    <nd ref="51207305"/>
    <nd ref="51207307"/>
    <nd ref="51207310"/>
    <nd ref="51207312"/>
    <nd ref="51207315"/>
    <nd ref="51207317"/>
    <nd ref="51207319"/>
    <nd ref="51207322"/>
    <tag k="created_by" v="JOSM"/>
    <tag k="highway" v="unclassified"/>
    <tag k="ref" v="K 114"/>
  </way>
  <way id="30780716" version="2" timestamp="2009-04-05T01:03:36Z" uid="55011" user="RaZoR88" changeset="200235">
    <nd ref="340383347"/>
    <nd ref="313022788"/>
    <nd ref="51207133"/>
    <nd ref="51207135"/>
    <nd ref="51207138"/>
    <nd ref="51207139"/>
    <nd ref="51207142"/>
    <nd ref="51207144"/>
    <nd ref="51207146"/>
    <nd ref="51207148"/>
    <nd ref="51207150"/>
    <nd ref="51207151"/>
    <nd ref="51207153"/>
    <nd ref="51207156"/>
    <nd ref="51207158"/>
    <nd ref="51207160"/>
    <nd ref="51207163"/>
    <nd ref="51207165"/>
    <nd ref="51207166"/>
    <nd ref="51207169"/>
    <nd ref="51207170"/>
    <nd ref="51207172"/>
    <nd ref="51207175"/>
    <nd ref="51207177"/>
    <nd ref="51207179"/>
    <nd ref="51207181"/>
    <nd ref="51207183"/>
    <nd ref="51207185"/>
    <nd ref="51207188"/>
    <nd ref="51207190"/>
    <nd ref="51207193"/>
    <nd ref="51207194"/>
    <nd ref="51207197"/>
    <nd ref="51207199"/>
    <nd ref="51207201"/>
    <nd ref="51207204"/>
    <nd ref="51207206"/>
    <nd ref="51207208"/>
    <nd ref="51207210"/>
    <nd ref="51207213"/>
    <nd ref="51207215"/>
    <nd ref="51207217"/>
    <nd ref="51207218"/>
    <nd ref="51207220"/>
    <nd ref="51207222"/>
    <nd ref="51207225"/>
    <nd ref="51207227"/>
    <nd ref="51207228"/>
    <nd ref="51207231"/>
    <nd ref="51207233"/>
    <nd ref="51207236"/>
    <nd ref="51207238"/>
    <nd ref="51207241"/>
    <nd ref="51207244"/>
    <nd ref="51207245"/>
    <nd ref="51207248"/>
    <nd ref="51207251"/>
    <nd ref="51207253"/>
    <nd ref="51207255"/>
    <nd ref="51207258"/>
    <nd ref="51207259"/>
    <nd ref="51207261"/>
    <nd ref="51207263"/>
    <nd ref="51207265"/>
    <nd ref="51207267"/>
    <nd ref="51207269"/>
    <nd ref="51207271"/>
    <nd ref="51207272"/>
    <nd ref="51207275"/>
    <nd ref="51207277"/>
    <nd ref="51207279"/>
    <nd ref="51207281"/>
    <nd ref="51207283"/>
    <nd ref="51207286"/>
    <nd ref="51207288"/>
    <nd ref="51207290"/>
    <nd ref="51207292"/>
    <nd ref="51207294"/>
    <nd ref="51207296"/>
    <nd ref="51207298"/>
    <nd ref="51207300"/>
    <nd ref="51207303"/>
    <nd ref="51207305"/>
    <nd ref="51207307"/>
    <nd ref="51207310"/>
    <nd ref="51207312"/>
    <nd ref="51207315"/>
    <nd ref="51207317"/>
    <nd ref="51207319"/>
    <nd ref="51207322"/>
    <tag k="created_by" v="Potlatch 0.10f"/>
    <tag k="highway" v="unclassified"/>
    <tag k="ref" v="K 114"/>
  </way>
  <way id="30780716" version="3" timestamp="2009-04-05T01:04:01Z" uid="55011" user="RaZoR88" changeset="200235">
    <nd ref="340383347"/>
    <nd ref="313022788"/>
    <nd ref="51207133"/>
    <nd ref="51207135"/>
    <nd ref="51207138"/>
    <nd ref="51207139"/>
    <nd ref="51207142"/>
    <nd ref="51207144"/>
    <nd ref="51207146"/>
    <nd ref="51207148"/>
    <nd ref="51207150"/>
    <nd ref="51207151"/>
    <nd ref="51207153"/>
    <nd ref="51207156"/>
    <nd ref="51207158"/>
    <nd ref="51207160"/>
    <nd ref="51207163"/>
    <nd ref="51207165"/>
    <nd ref="51207166"/>
    <nd ref="51207169"/>
    <nd ref="51207170"/>
    <nd ref="51207172"/>
    <nd ref="51207175"/>
    <nd ref="51207177"/>
    <nd ref="51207179"/>
    <nd ref="51207181"/>
    <nd ref="51207183"/>
    <nd ref="51207185"/>
    <nd ref="51207188"/>
    <nd ref="51207190"/>
    <nd ref="51207193"/>
    <nd ref="51207194"/>
    <nd ref="51207197"/>
    <nd ref="51207199"/>
    <nd ref="51207201"/>
    <nd ref="51207204"/>
    <nd ref="51207206"/>
    <nd ref="51207208"/>
    <nd ref="51207210"/>
    <nd ref="51207213"/>
    <nd ref="51207215"/>
    <nd ref="51207217"/>
    <nd ref="51207218"/>
    <nd ref="51207220"/>
    <nd ref="51207222"/>
    <nd ref="51207225"/>
    <nd ref="51207227"/>
    <nd ref="51207228"/>
    <nd ref="51207231"/>
    <nd ref="51207233"/>
    <nd ref="51207236"/>
    <nd ref="51207238"/>
    <nd ref="51207241"/>
    <nd ref="51207244"/>
    <nd ref="51207245"/>
    <nd ref="51207248"/>
    <nd ref="51207251"/>
    <nd ref="51207253"/>
    <nd ref="51207255"/>
    <nd ref="51207258"/>
    <nd ref="51207259"/>
    <nd ref="51207261"/>
    <nd ref="51207263"/>
    <nd ref="51207265"/>
    <nd ref="51207267"/>
    <nd ref="51207269"/>
    <nd ref="51207271"/>
    <nd ref="51207272"/>
    <nd ref="51207275"/>
    <nd ref="51207277"/>
    <nd ref="51207279"/>
    <nd ref="51207281"/>
    <nd ref="51207283"/>
    <nd ref="51207286"/>
    <nd ref="51207288"/>
    <nd ref="51207290"/>
    <nd ref="51207292"/>
    <nd ref="51207294"/>
    <nd ref="51207296"/>
    <nd ref="51207298"/>
    <nd ref="51207300"/>
    <nd ref="51207303"/>
    <nd ref="51207305"/>
    <nd ref="51207307"/>
    <nd ref="51207310"/>
    <nd ref="51207312"/>
    <nd ref="51207315"/>
    <nd ref="51207317"/>
    <nd ref="51207319"/>
    <nd ref="51207322"/>
    <tag k="created_by" v="Potlatch 0.10f"/>
    <tag k="highway" v="unclassified"/>
    <tag k="ref" v="K 114"/>
  </way>
  <way id="30780716" version="4" timestamp="2009-04-05T01:04:40Z" uid="55011" user="RaZoR88" changeset="200235">
    <nd ref="340383347"/>
    <nd ref="313022788"/>
    <nd ref="51207133"/>
    <nd ref="51207135"/>
    <nd ref="51207138"/>
    <nd ref="51207139"/>
    <nd ref="51207142"/>
    <nd ref="51207144"/>
    <nd ref="51207146"/>
    <nd ref="51207148"/>
    <nd ref="51207150"/>
    <nd ref="51207151"/>
    <nd ref="51207153"/>
    <nd ref="51207156"/>
    <nd ref="51207158"/>
    <nd ref="51207160"/>
    <nd ref="51207163"/>
    <nd ref="51207165"/>
    <nd ref="51207166"/>
    <nd ref="51207169"/>
    <nd ref="51207170"/>
    <nd ref="51207172"/>
    <nd ref="51207175"/>
    <nd ref="51207177"/>
    <nd ref="51207179"/>
    <nd ref="51207181"/>
    <nd ref="51207183"/>
    <nd ref="51207185"/>
    <nd ref="51207188"/>
    <nd ref="51207190"/>
    <nd ref="51207193"/>
    <nd ref="51207194"/>
    <nd ref="51207197"/>
    <nd ref="51207199"/>
    <nd ref="51207201"/>
    <nd ref="51207204"/>
    <nd ref="51207206"/>
    <nd ref="51207208"/>
    <nd ref="51207210"/>
    <nd ref="51207213"/>
    <nd ref="51207215"/>
    <nd ref="51207217"/>
    <nd ref="51207218"/>
    <nd ref="51207220"/>
    <nd ref="51207222"/>
    <nd ref="51207225"/>
    <nd ref="51207227"/>
    <nd ref="51207228"/>
    <nd ref="51207231"/>
    <nd ref="51207233"/>
    <nd ref="51207236"/>
    <nd ref="51207238"/>
    <nd ref="51207241"/>
    <nd ref="51207244"/>
    <nd ref="51207245"/>
    <nd ref="51207248"/>
    <nd ref="51207251"/>
    <nd ref="51207253"/>
    <nd ref="51207255"/>
    <nd ref="51207258"/>
    <nd ref="51207259"/>
    <nd ref="51207261"/>
    <nd ref="51207263"/>
    <nd ref="51207265"/>
    <nd ref="51207267"/>
    <nd ref="51207269"/>
    <nd ref="51207271"/>
    <nd ref="51207272"/>
    <nd ref="51207275"/>
    <nd ref="51207277"/>
    <nd ref="51207279"/>
    <nd ref="51207281"/>
    <nd ref="51207283"/>
    <nd ref="51207286"/>
    <nd ref="51207288"/>
    <nd ref="51207290"/>
    <nd ref="51207292"/>
    <nd ref="51207294"/>
    <nd ref="51207296"/>
    <nd ref="51207298"/>
    <nd ref="51207300"/>
    <nd ref="51207303"/>
    <nd ref="51207305"/>
    <nd ref="51207307"/>
    <nd ref="51207310"/>
    <nd ref="51207312"/>
    <nd ref="51207315"/>
    <nd ref="51207317"/>
    <nd ref="51207319"/>
    <nd ref="51207322"/>
    <tag k="created_by" v="Potlatch 0.10f"/>
    <tag k="highway" v="unclassified"/>
    <tag k="ref" v="K 114"/>
  </way>
  <way id="30780716" version="5" timestamp="2009-04-05T01:05:02Z" uid="55011" user="RaZoR88" changeset="200235">
    <nd ref="340383347"/>
    <nd ref="313022788"/>
    <nd ref="51207133"/>
    <nd ref="51207135"/>
    <nd ref="51207138"/>
    <nd ref="51207139"/>
    <nd ref="51207142"/>
    <nd ref="51207144"/>
    <nd ref="51207146"/>
    <nd ref="51207148"/>
    <nd ref="51207150"/>
    <nd ref="51207151"/>
    <nd ref="51207153"/>
    <nd ref="51207156"/>
    <nd ref="51207158"/>
    <nd ref="51207160"/>
    <nd ref="51207163"/>
    <nd ref="51207165"/>
    <nd ref="51207166"/>
    <nd ref="51207169"/>
    <nd ref="51207170"/>
    <nd ref="51207172"/>
    <nd ref="51207175"/>
    <nd ref="51207177"/>
    <nd ref="51207179"/>
    <nd ref="51207181"/>
    <nd ref="51207183"/>
    <nd ref="51207185"/>
    <nd ref="51207188"/>
    <nd ref="51207190"/>
    <nd ref="51207193"/>
    <nd ref="51207194"/>
    <nd ref="51207197"/>
    <nd ref="51207199"/>
    <nd ref="51207201"/>
    <nd ref="51207204"/>
    <nd ref="51207206"/>
    <nd ref="51207208"/>
    <nd ref="51207210"/>
    <nd ref="51207213"/>
    <nd ref="51207215"/>
    <nd ref="51207217"/>
    <nd ref="51207218"/>
    <nd ref="51207220"/>
    <nd ref="51207222"/>
    <nd ref="51207225"/>
    <nd ref="51207227"/>
    <nd ref="51207228"/>
    <nd ref="51207231"/>
    <nd ref="51207233"/>
    <nd ref="51207236"/>
    <nd ref="51207238"/>
    <nd ref="51207241"/>
    <nd ref="51207244"/>
    <nd ref="51207245"/>
    <nd ref="51207248"/>
    <nd ref="51207251"/>
    <nd ref="51207253"/>
    <nd ref="51207255"/>
    <nd ref="51207258"/>
    <nd ref="51207259"/>
    <nd ref="51207261"/>
    <nd ref="51207263"/>
    <nd ref="51207265"/>
    <nd ref="51207267"/>
    <nd ref="51207269"/>
    <nd ref="51207271"/>
    <nd ref="51207272"/>
    <nd ref="51207275"/>
    <nd ref="51207277"/>
    <nd ref="51207279"/>
    <nd ref="51207281"/>
    <nd ref="51207283"/>
    <nd ref="51207286"/>
    <nd ref="51207288"/>
    <nd ref="51207290"/>
    <nd ref="51207292"/>
    <nd ref="51207294"/>
    <nd ref="51207296"/>
    <nd ref="51207298"/>
    <nd ref="51207300"/>
    <nd ref="51207303"/>
    <nd ref="51207305"/>
    <nd ref="51207307"/>
    <nd ref="51207310"/>
    <nd ref="51207312"/>
    <nd ref="51207315"/>
    <nd ref="51207317"/>
    <nd ref="51207319"/>
    <nd ref="51207322"/>
    <tag k="created_by" v="Potlatch 0.10f"/>
    <tag k="highway" v="unclassified"/>
    <tag k="ref" v="K 114"/>
  </way>
  <way id="30780716" version="6" timestamp="2009-04-05T01:05:28Z" uid="55011" user="RaZoR88" changeset="200235">
    <nd ref="340383347"/>
    <nd ref="313022788"/>
    <nd ref="51207133"/>
    <nd ref="51207135"/>
    <nd ref="51207138"/>
    <nd ref="51207139"/>
    <nd ref="51207142"/>
    <nd ref="51207144"/>
    <nd ref="51207146"/>
    <nd ref="51207148"/>
    <nd ref="51207150"/>
    <nd ref="51207151"/>
    <nd ref="51207153"/>
    <nd ref="51207156"/>
    <nd ref="51207158"/>
    <nd ref="51207160"/>
    <nd ref="51207163"/>
    <nd ref="51207165"/>
    <nd ref="51207166"/>
    <nd ref="51207169"/>
    <nd ref="51207170"/>
    <nd ref="51207172"/>
    <nd ref="51207175"/>
    <nd ref="51207177"/>
    <nd ref="51207179"/>
    <nd ref="51207181"/>
    <nd ref="51207183"/>
    <nd ref="51207185"/>
    <nd ref="51207188"/>
    <nd ref="51207190"/>
    <nd ref="51207193"/>
    <nd ref="51207194"/>
    <nd ref="51207197"/>
    <nd ref="51207199"/>
    <nd ref="51207201"/>
    <nd ref="51207204"/>
    <nd ref="51207206"/>
    <nd ref="51207208"/>
    <nd ref="51207210"/>
    <nd ref="51207213"/>
    <nd ref="51207215"/>
    <nd ref="51207217"/>
    <nd ref="51207218"/>
    <nd ref="51207220"/>
    <nd ref="51207222"/>
    <nd ref="51207225"/>
    <nd ref="51207227"/>
    <nd ref="51207228"/>
    <nd ref="51207231"/>
    <nd ref="51207233"/>
    <nd ref="51207236"/>
    <nd ref="51207238"/>
    <nd ref="51207241"/>
    <nd ref="51207244"/>
    <nd ref="51207245"/>
    <nd ref="51207248"/>
    <nd ref="51207251"/>
    <nd ref="51207253"/>
    <nd ref="51207255"/>
    <nd ref="51207258"/>
    <nd ref="51207259"/>
    <nd ref="51207261"/>
    <nd ref="51207263"/>
    <nd ref="51207265"/>
    <nd ref="51207267"/>
    <nd ref="51207269"/>
    <nd ref="51207271"/>
    <nd ref="51207272"/>
    <nd ref="51207275"/>
    <nd ref="51207277"/>
    <nd ref="51207279"/>
    <nd ref="51207281"/>
    <nd ref="51207283"/>
    <nd ref="51207286"/>
    <nd ref="51207288"/>
    <nd ref="51207290"/>
    <nd ref="51207292"/>
    <nd ref="51207294"/>
    <nd ref="51207296"/>
    <nd ref="51207298"/>
    <nd ref="51207300"/>
    <nd ref="51207303"/>
    <nd ref="51207305"/>
    <nd ref="51207307"/>
    <nd ref="51207310"/>
    <nd ref="51207312"/>
    <nd ref="51207315"/>
    <nd ref="51207317"/>
    <nd ref="51207319"/>
    <nd ref="51207322"/>
    <tag k="created_by" v="Potlatch 0.10f"/>
    <tag k="highway" v="unclassified"/>
    <tag k="ref" v="K 114"/>
  </way>
  <way id="30780716" version="7" timestamp="2009-04-05T01:05:43Z" uid="55011" user="RaZoR88" changeset="200235">
    <nd ref="340383347"/>
    <nd ref="313022788"/>
    <nd ref="51207133"/>
    <nd ref="51207135"/>
    <nd ref="51207138"/>
    <nd ref="51207139"/>
    <nd ref="51207142"/>
    <nd ref="51207144"/>
    <nd ref="51207146"/>
    <nd ref="51207148"/>
    <nd ref="51207150"/>
    <nd ref="51207151"/>
    <nd ref="51207153"/>
    <nd ref="51207156"/>
    <nd ref="51207158"/>
    <nd ref="51207160"/>
    <nd ref="51207163"/>
    <nd ref="51207165"/>
    <nd ref="51207166"/>
    <nd ref="51207169"/>
    <nd ref="51207170"/>
    <nd ref="51207172"/>
    <nd ref="51207175"/>
    <nd ref="51207177"/>
    <nd ref="51207179"/>
    <nd ref="51207181"/>
    <nd ref="51207183"/>
    <nd ref="51207185"/>
    <nd ref="51207188"/>
    <nd ref="51207190"/>
    <nd ref="51207193"/>
    <nd ref="51207194"/>
    <nd ref="51207197"/>
    <nd ref="51207199"/>
    <nd ref="51207201"/>
    <nd ref="51207204"/>
    <nd ref="51207206"/>
    <nd ref="51207208"/>
    <nd ref="51207210"/>
    <nd ref="51207213"/>
    <nd ref="51207215"/>
    <nd ref="51207217"/>
    <nd ref="51207218"/>
    <nd ref="51207220"/>
    <nd ref="51207222"/>
    <nd ref="51207225"/>
    <nd ref="51207227"/>
    <nd ref="51207228"/>
    <nd ref="51207231"/>
    <nd ref="51207233"/>
    <nd ref="51207236"/>
    <nd ref="51207238"/>
    <nd ref="51207241"/>
    <nd ref="51207244"/>
    <nd ref="51207245"/>
    <nd ref="51207248"/>
    <nd ref="51207251"/>
    <nd ref="51207253"/>
    <nd ref="51207255"/>
    <nd ref="51207258"/>
    <nd ref="51207259"/>
    <nd ref="51207261"/>
    <nd ref="51207263"/>
    <nd ref="51207265"/>
    <nd ref="51207267"/>
    <nd ref="51207269"/>
    <nd ref="51207271"/>
    <nd ref="51207272"/>
    <nd ref="51207275"/>
    <nd ref="51207277"/>
    <nd ref="51207279"/>
    <nd ref="51207281"/>
    <nd ref="51207283"/>
    <nd ref="51207286"/>
    <nd ref="51207288"/>
    <nd ref="51207290"/>
    <nd ref="51207292"/>
    <nd ref="51207294"/>
    <nd ref="51207296"/>
    <nd ref="51207298"/>
    <nd ref="51207300"/>
    <nd ref="51207303"/>
    <nd ref="51207305"/>
    <nd ref="51207307"/>
    <nd ref="51207310"/>
    <nd ref="51207312"/>
    <nd ref="51207315"/>
    <nd ref="51207317"/>
    <nd ref="51207319"/>
    <nd ref="51207322"/>
    <tag k="created_by" v="Potlatch 0.10f"/>
    <tag k="highway" v="unclassified"/>
    <tag k="ref" v="K 114"/>
  </way>
  <way id="30780716" version="8" timestamp="2009-04-05T01:06:34Z" uid="55011" user="RaZoR88" changeset="200235">
    <nd ref="340383347"/>
    <nd ref="313022788"/>
    <nd ref="51207133"/>
    <nd ref="51207135"/>
    <nd ref="51207138"/>
    <nd ref="51207139"/>
    <nd ref="51207142"/>
    <nd ref="51207144"/>
    <nd ref="51207146"/>
    <nd ref="51207148"/>
    <nd ref="51207150"/>
    <nd ref="51207151"/>
    <nd ref="51207153"/>
    <nd ref="51207156"/>
    <nd ref="51207158"/>
    <nd ref="51207160"/>
    <nd ref="51207163"/>
    <nd ref="51207165"/>
    <nd ref="51207166"/>
    <nd ref="51207169"/>
    <nd ref="51207170"/>
    <nd ref="51207172"/>
    <nd ref="51207175"/>
    <nd ref="51207177"/>
    <nd ref="51207179"/>
    <nd ref="51207181"/>
    <nd ref="51207183"/>
    <nd ref="51207185"/>
    <nd ref="51207188"/>
    <nd ref="51207190"/>
    <nd ref="51207193"/>
    <nd ref="51207194"/>
    <nd ref="51207197"/>
    <nd ref="51207199"/>
    <nd ref="51207201"/>
    <nd ref="51207204"/>
    <nd ref="51207206"/>
    <nd ref="51207208"/>
    <nd ref="51207210"/>
    <nd ref="51207213"/>
    <nd ref="51207215"/>
    <nd ref="51207217"/>
    <nd ref="51207218"/>
    <nd ref="51207220"/>
    <nd ref="51207222"/>
    <nd ref="51207225"/>
    <nd ref="51207227"/>
    <nd ref="51207228"/>
    <nd ref="51207231"/>
    <nd ref="51207233"/>
    <nd ref="51207236"/>
    <nd ref="51207238"/>
    <nd ref="51207241"/>
    <nd ref="51207244"/>
    <nd ref="51207245"/>
    <nd ref="51207248"/>
    <nd ref="51207251"/>
    <nd ref="51207253"/>
    <nd ref="51207255"/>
    <nd ref="51207258"/>
    <nd ref="51207259"/>
    <nd ref="51207261"/>
    <nd ref="51207263"/>
    <nd ref="51207265"/>
    <nd ref="51207267"/>
    <nd ref="51207269"/>
    <nd ref="51207271"/>
    <nd ref="51207272"/>
    <nd ref="51207275"/>
    <nd ref="51207277"/>
    <nd ref="51207279"/>
    <nd ref="51207281"/>
    <nd ref="51207283"/>
    <nd ref="51207286"/>
    <nd ref="51207288"/>
    <nd ref="51207290"/>
    <nd ref="51207292"/>
    <nd ref="51207294"/>
    <nd ref="51207296"/>
    <nd ref="51207298"/>
    <nd ref="51207300"/>
    <nd ref="51207303"/>
    <nd ref="51207305"/>
    <nd ref="51207307"/>
    <nd ref="51207310"/>
    <nd ref="51207312"/>
    <nd ref="51207315"/>
    <nd ref="51207317"/>
    <nd ref="51207319"/>
    <nd ref="51207322"/>
    <tag k="created_by" v="Potlatch 0.10f"/>
    <tag k="highway" v="unclassified"/>
    <tag k="ref" v="K 114"/>
  </way>
  <way id="30780716" version="9" timestamp="2009-04-05T01:09:35Z" uid="55011" user="RaZoR88" changeset="200235">
    <nd ref="340383347"/>
    <nd ref="313022788"/>
    <nd ref="51207133"/>
    <nd ref="51207135"/>
    <nd ref="51207138"/>
    <nd ref="51207139"/>
    <nd ref="51207142"/>
    <nd ref="51207144"/>
    <nd ref="51207146"/>
    <nd ref="51207148"/>
    <nd ref="51207150"/>
    <nd ref="51207151"/>
    <nd ref="51207153"/>
    <nd ref="51207156"/>
    <nd ref="51207158"/>
    <nd ref="51207160"/>
    <nd ref="51207163"/>
    <nd ref="51207165"/>
    <nd ref="51207166"/>
    <nd ref="51207169"/>
    <nd ref="51207170"/>
    <nd ref="51207172"/>
    <nd ref="51207175"/>
    <nd ref="51207177"/>
    <nd ref="51207179"/>
    <nd ref="51207181"/>
    <nd ref="51207183"/>
    <nd ref="51207185"/>
    <nd ref="51207188"/>
    <nd ref="51207190"/>
    <nd ref="51207193"/>
    <nd ref="51207194"/>
    <nd ref="51207197"/>
    <nd ref="51207199"/>
    <nd ref="51207201"/>
    <nd ref="51207204"/>
    <nd ref="51207206"/>
    <nd ref="51207208"/>
    <nd ref="51207210"/>
    <nd ref="51207213"/>
    <nd ref="51207215"/>
    <nd ref="51207217"/>
    <nd ref="51207218"/>
    <nd ref="51207220"/>
    <nd ref="51207222"/>
    <nd ref="51207225"/>
    <nd ref="51207227"/>
    <nd ref="51207228"/>
    <nd ref="51207231"/>
    <nd ref="51207233"/>
    <nd ref="51207236"/>
    <nd ref="51207238"/>
    <nd ref="51207241"/>
    <nd ref="51207244"/>
    <nd ref="51207245"/>
    <nd ref="51207248"/>
    <nd ref="51207251"/>
    <nd ref="51207253"/>
    <nd ref="51207255"/>
    <nd ref="51207258"/>
    <nd ref="51207259"/>
    <nd ref="51207261"/>
    <nd ref="51207263"/>
    <nd ref="51207265"/>
    <nd ref="51207267"/>
    <nd ref="51207269"/>
    <nd ref="51207271"/>
    <nd ref="51207272"/>
    <nd ref="51207275"/>
    <nd ref="51207277"/>
    <nd ref="51207279"/>
    <nd ref="51207281"/>
    <nd ref="51207283"/>
    <nd ref="51207286"/>
    <nd ref="51207288"/>
    <nd ref="51207290"/>
    <nd ref="51207292"/>
    <nd ref="51207294"/>
    <nd ref="51207296"/>
    <nd ref="51207298"/>
    <nd ref="51207300"/>
    <nd ref="51207303"/>
    <nd ref="51207305"/>
    <nd ref="51207307"/>
    <nd ref="51207310"/>
    <nd ref="51207312"/>
    <nd ref="51207315"/>
    <nd ref="51207317"/>
    <nd ref="51207319"/>
    <nd ref="51207322"/>
    <tag k="created_by" v="Potlatch 0.10f"/>
    <tag k="highway" v="unclassified"/>
    <tag k="ref" v="K 114"/>
  </way>
  <way id="30780716" version="10" timestamp="2009-04-05T01:10:16Z" uid="55011" user="RaZoR88" changeset="200235">
    <nd ref="340383347"/>
    <nd ref="313022788"/>
    <nd ref="51207133"/>
    <nd ref="51207135"/>
    <nd ref="51207138"/>
    <nd ref="51207139"/>
    <nd ref="51207142"/>
    <nd ref="51207144"/>
    <nd ref="51207146"/>
    <nd ref="51207148"/>
    <nd ref="51207150"/>
    <nd ref="51207151"/>
    <nd ref="51207153"/>
    <nd ref="51207156"/>
    <nd ref="51207158"/>
    <nd ref="51207160"/>
    <nd ref="51207163"/>
    <nd ref="51207165"/>
    <nd ref="51207166"/>
    <nd ref="51207169"/>
    <nd ref="51207170"/>
    <nd ref="51207172"/>
    <nd ref="51207175"/>
    <nd ref="51207177"/>
    <nd ref="51207179"/>
    <nd ref="51207181"/>
    <nd ref="51207183"/>
    <nd ref="51207185"/>
    <nd ref="51207188"/>
    <nd ref="51207190"/>
    <nd ref="51207193"/>
    <nd ref="51207194"/>
    <nd ref="51207197"/>
    <nd ref="51207199"/>
    <nd ref="51207201"/>
    <nd ref="51207204"/>
    <nd ref="51207206"/>
    <nd ref="51207208"/>
    <nd ref="51207210"/>
    <nd ref="51207213"/>
    <nd ref="51207215"/>
    <nd ref="51207217"/>
    <nd ref="51207218"/>
    <nd ref="51207220"/>
    <nd ref="51207222"/>
    <nd ref="51207225"/>
    <nd ref="51207227"/>
    <nd ref="51207228"/>
    <nd ref="51207231"/>
    <nd ref="51207233"/>
    <nd ref="51207236"/>
    <nd ref="51207238"/>
    <nd ref="51207241"/>
    <nd ref="51207244"/>
    <nd ref="51207245"/>
    <nd ref="51207248"/>
    <nd ref="51207251"/>
    <nd ref="51207253"/>
    <nd ref="51207255"/>
    <nd ref="51207258"/>
    <nd ref="51207259"/>
    <nd ref="51207261"/>
    <nd ref="51207263"/>
    <nd ref="51207265"/>
    <nd ref="51207267"/>
    <nd ref="51207269"/>
    <nd ref="51207271"/>
    <nd ref="51207272"/>
    <nd ref="51207275"/>
    <nd ref="51207277"/>
    <nd ref="51207279"/>
    <nd ref="51207281"/>
    <nd ref="51207283"/>
    <nd ref="51207286"/>
    <nd ref="51207288"/>
    <nd ref="51207290"/>
    <nd ref="51207292"/>
    <nd ref="51207294"/>
    <nd ref="51207296"/>
    <nd ref="51207298"/>
    <nd ref="51207300"/>
    <nd ref="51207303"/>
    <nd ref="51207305"/>
    <nd ref="51207307"/>
    <nd ref="51207310"/>
    <nd ref="51207312"/>
    <nd ref="51207315"/>
    <nd ref="51207317"/>
    <nd ref="51207319"/>
    <nd ref="51207322"/>
    <tag k="created_by" v="Potlatch 0.10f"/>
    <tag k="highway" v="unclassified"/>
    <tag k="ref" v="K 114"/>
  </way>
  <way id="30780716" version="11" timestamp="2009-04-05T01:10:31Z" uid="55011" user="RaZoR88" changeset="200235">
    <nd ref="340383347"/>
    <nd ref="313022788"/>
    <nd ref="51207133"/>
    <nd ref="51207135"/>
    <nd ref="51207138"/>
    <nd ref="51207139"/>
    <nd ref="51207142"/>
    <nd ref="51207144"/>
    <nd ref="51207146"/>
    <nd ref="51207148"/>
    <nd ref="51207150"/>
    <nd ref="51207151"/>
    <nd ref="51207153"/>
    <nd ref="51207156"/>
    <nd ref="51207158"/>
    <nd ref="51207160"/>
    <nd ref="369885158"/>
    <nd ref="51207163"/>
    <nd ref="51207165"/>
    <nd ref="51207166"/>
    <nd ref="51207169"/>
    <nd ref="51207170"/>
    <nd ref="51207172"/>
    <nd ref="51207175"/>
    <nd ref="51207177"/>
    <nd ref="51207179"/>
    <nd ref="51207181"/>
    <nd ref="51207183"/>
    <nd ref="51207185"/>
    <nd ref="51207188"/>
    <nd ref="51207190"/>
    <nd ref="51207193"/>
    <nd ref="51207194"/>
    <nd ref="51207197"/>
    <nd ref="51207199"/>
    <nd ref="51207201"/>
    <nd ref="51207204"/>
    <nd ref="51207206"/>
    <nd ref="51207208"/>
    <nd ref="51207210"/>
    <nd ref="51207213"/>
    <nd ref="51207215"/>
    <nd ref="51207217"/>
    <nd ref="51207218"/>
    <nd ref="51207220"/>
    <nd ref="51207222"/>
    <nd ref="51207225"/>
    <nd ref="51207227"/>
    <nd ref="51207228"/>
    <nd ref="51207231"/>
    <nd ref="51207233"/>
    <nd ref="51207236"/>
    <nd ref="51207238"/>
    <nd ref="51207241"/>
    <nd ref="51207244"/>
    <nd ref="51207245"/>
    <nd ref="51207248"/>
    <nd ref="51207251"/>
    <nd ref="51207253"/>
    <nd ref="51207255"/>
    <nd ref="51207258"/>
    <nd ref="51207259"/>
    <nd ref="51207261"/>
    <nd ref="51207263"/>
    <nd ref="51207265"/>
    <nd ref="51207267"/>
    <nd ref="51207269"/>
    <nd ref="51207271"/>
    <nd ref="51207272"/>
    <nd ref="51207275"/>
    <nd ref="51207277"/>
    <nd ref="51207279"/>
    <nd ref="51207281"/>
    <nd ref="51207283"/>
    <nd ref="51207286"/>
    <nd ref="51207288"/>
    <nd ref="51207290"/>
    <nd ref="51207292"/>
    <nd ref="51207294"/>
    <nd ref="51207296"/>
    <nd ref="51207298"/>
    <nd ref="51207300"/>
    <nd ref="51207303"/>
    <nd ref="51207305"/>
    <nd ref="51207307"/>
    <nd ref="51207310"/>
    <nd ref="51207312"/>
    <nd ref="51207315"/>
    <nd ref="51207317"/>
    <nd ref="51207319"/>
    <nd ref="51207322"/>
    <tag k="created_by" v="Potlatch 0.10f"/>
    <tag k="highway" v="unclassified"/>
    <tag k="ref" v="K 114"/>
  </way>
  <way id="30780716" version="12" timestamp="2009-04-05T01:12:44Z" uid="55011" user="RaZoR88" changeset="200235">
    <nd ref="340383347"/>
    <nd ref="369885348"/>
    <nd ref="51207133"/>
    <nd ref="51207135"/>
    <nd ref="51207138"/>
    <nd ref="51207139"/>
    <nd ref="51207142"/>
    <nd ref="51207144"/>
    <nd ref="51207146"/>
    <nd ref="51207148"/>
    <nd ref="51207150"/>
    <nd ref="51207151"/>
    <nd ref="51207153"/>
    <nd ref="51207156"/>
    <nd ref="51207158"/>
    <nd ref="51207160"/>
    <nd ref="369885158"/>
    <nd ref="51207163"/>
    <nd ref="51207165"/>
    <nd ref="51207166"/>
    <nd ref="51207169"/>
    <nd ref="51207170"/>
    <nd ref="51207172"/>
    <nd ref="51207175"/>
    <nd ref="51207177"/>
    <nd ref="51207179"/>
    <nd ref="51207181"/>
    <nd ref="51207183"/>
    <nd ref="51207185"/>
    <nd ref="51207188"/>
    <nd ref="51207190"/>
    <nd ref="51207193"/>
    <nd ref="51207194"/>
    <nd ref="51207197"/>
    <nd ref="51207199"/>
    <nd ref="51207201"/>
    <nd ref="51207204"/>
    <nd ref="51207206"/>
    <nd ref="51207208"/>
    <nd ref="51207210"/>
    <nd ref="51207213"/>
    <nd ref="51207215"/>
    <nd ref="51207217"/>
    <nd ref="51207218"/>
    <nd ref="51207220"/>
    <nd ref="51207222"/>
    <nd ref="51207225"/>
    <nd ref="51207227"/>
    <nd ref="51207228"/>
    <nd ref="51207231"/>
    <nd ref="51207233"/>
    <nd ref="51207236"/>
    <nd ref="51207238"/>
    <nd ref="51207241"/>
    <nd ref="51207244"/>
    <nd ref="51207245"/>
    <nd ref="51207248"/>
    <nd ref="51207251"/>
    <nd ref="51207253"/>
    <nd ref="51207255"/>
    <nd ref="51207258"/>
    <nd ref="51207259"/>
    <nd ref="51207261"/>
    <nd ref="51207263"/>
    <nd ref="51207265"/>
    <nd ref="51207267"/>
    <nd ref="51207269"/>
    <nd ref="51207271"/>
    <nd ref="51207272"/>
    <nd ref="51207275"/>
    <nd ref="51207277"/>
    <nd ref="51207279"/>
    <nd ref="51207281"/>
    <nd ref="51207283"/>
    <nd ref="51207286"/>
    <nd ref="51207288"/>
    <nd ref="51207290"/>
    <nd ref="51207292"/>
    <nd ref="51207294"/>
    <nd ref="51207296"/>
    <nd ref="51207298"/>
    <nd ref="51207300"/>
    <nd ref="51207303"/>
    <nd ref="51207305"/>
    <nd ref="51207307"/>
    <nd ref="51207310"/>
    <nd ref="51207312"/>
    <nd ref="51207315"/>
    <nd ref="51207317"/>
    <nd ref="51207319"/>
    <nd ref="51207322"/>
    <tag k="created_by" v="Potlatch 0.10f"/>
    <tag k="highway" v="unclassified"/>
    <tag k="ref" v="K 114"/>
  </way>
  <way id="30780716" version="13" timestamp="2009-10-20T15:22:42Z" uid="9581" user="Lobelt" changeset="2904196">
    <nd ref="340383347"/>
    <nd ref="369885348"/>
    <nd ref="51207133"/>
    <nd ref="51207135"/>
    <nd ref="536720692"/>
    <nd ref="51207138"/>
    <nd ref="51207139"/>
    <nd ref="51207142"/>
    <nd ref="51207144"/>
    <nd ref="51207146"/>
    <nd ref="51207148"/>
    <nd ref="51207150"/>
    <nd ref="51207151"/>
    <nd ref="51207153"/>
    <nd ref="51207156"/>
    <nd ref="51207158"/>
    <nd ref="51207160"/>
    <nd ref="369885158"/>
    <nd ref="51207163"/>
    <nd ref="51207165"/>
    <nd ref="51207166"/>
    <nd ref="51207169"/>
    <nd ref="51207170"/>
    <nd ref="51207172"/>
    <nd ref="51207175"/>
    <nd ref="51207177"/>
    <nd ref="51207179"/>
    <nd ref="51207181"/>
    <nd ref="51207183"/>
    <nd ref="51207185"/>
    <nd ref="51207188"/>
    <nd ref="51207190"/>
    <nd ref="51207193"/>
    <nd ref="51207194"/>
    <nd ref="51207197"/>
    <nd ref="51207199"/>
    <nd ref="51207201"/>
    <nd ref="51207204"/>
    <nd ref="51207206"/>
    <nd ref="51207208"/>
    <nd ref="51207210"/>
    <nd ref="51207213"/>
    <nd ref="51207215"/>
    <nd ref="51207217"/>
    <nd ref="51207218"/>
    <nd ref="51207220"/>
    <nd ref="51207222"/>
    <nd ref="51207225"/>
    <nd ref="51207227"/>
    <nd ref="51207228"/>
    <nd ref="51207231"/>
    <nd ref="51207233"/>
    <nd ref="51207236"/>
    <nd ref="51207238"/>
    <nd ref="51207241"/>
    <nd ref="51207244"/>
    <nd ref="51207245"/>
    <nd ref="51207248"/>
    <nd ref="51207251"/>
    <nd ref="51207253"/>
    <nd ref="51207255"/>
    <nd ref="51207258"/>
    <nd ref="51207259"/>
    <nd ref="51207261"/>
    <nd ref="51207263"/>
    <nd ref="51207265"/>
    <nd ref="51207267"/>
    <nd ref="51207269"/>
    <nd ref="51207271"/>
    <nd ref="51207272"/>
    <nd ref="51207275"/>
    <nd ref="51207277"/>
    <nd ref="51207279"/>
    <nd ref="51207281"/>
    <nd ref="51207283"/>
    <nd ref="51207286"/>
    <nd ref="51207288"/>
    <nd ref="51207290"/>
    <nd ref="51207292"/>
    <nd ref="51207294"/>
    <nd ref="51207296"/>
    <nd ref="51207298"/>
    <nd ref="51207300"/>
    <nd ref="51207303"/>
    <nd ref="51207305"/>
    <nd ref="51207307"/>
    <nd ref="51207310"/>
    <nd ref="51207312"/>
    <nd ref="51207315"/>
    <nd ref="51207317"/>
    <nd ref="51207319"/>
    <nd ref="51207322"/>
    <tag k="highway" v="unclassified"/>
    <tag k="ref" v="K 114"/>
  </way>
  <way id="30780716" version="14" timestamp="2010-04-14T17:45:04Z" uid="212079" user="atz" changeset="4424526">
    <nd ref="340383347"/>
    <nd ref="369885348"/>
    <nd ref="51207133"/>
    <nd ref="51207135"/>
    <nd ref="536720692"/>
    <nd ref="51207138"/>
    <nd ref="51207139"/>
    <nd ref="51207142"/>
    <nd ref="51207144"/>
    <nd ref="51207146"/>
    <nd ref="51207148"/>
    <nd ref="51207150"/>
    <nd ref="51207151"/>
    <nd ref="51207153"/>
    <nd ref="51207156"/>
    <nd ref="51207158"/>
    <nd ref="51207160"/>
    <nd ref="369885158"/>
    <nd ref="51207163"/>
    <nd ref="51207165"/>
    <nd ref="51207166"/>
    <nd ref="51207169"/>
    <nd ref="51207170"/>
    <nd ref="51207172"/>
    <nd ref="51207175"/>
    <nd ref="696930101"/>
    <nd ref="696930123"/>
    <nd ref="51207177"/>
    <nd ref="51207179"/>
    <nd ref="51207181"/>
    <nd ref="51207183"/>
    <nd ref="51207185"/>
    <nd ref="51207188"/>
    <nd ref="51207190"/>
    <nd ref="51207193"/>
    <nd ref="51207194"/>
    <nd ref="51207197"/>
    <nd ref="51207199"/>
    <nd ref="51207201"/>
    <nd ref="51207204"/>
    <nd ref="51207206"/>
    <nd ref="51207208"/>
    <nd ref="51207210"/>
    <nd ref="51207213"/>
    <nd ref="51207215"/>
    <nd ref="51207217"/>
    <nd ref="51207218"/>
    <nd ref="51207220"/>
    <nd ref="51207222"/>
    <nd ref="51207225"/>
    <nd ref="51207227"/>
    <nd ref="51207228"/>
    <nd ref="51207231"/>
    <nd ref="51207233"/>
    <nd ref="51207236"/>
    <nd ref="51207238"/>
    <nd ref="51207241"/>
    <nd ref="51207244"/>
    <nd ref="51207245"/>
    <nd ref="51207248"/>
    <nd ref="51207251"/>
    <nd ref="51207253"/>
    <nd ref="51207255"/>
    <nd ref="51207258"/>
    <nd ref="51207259"/>
    <nd ref="51207261"/>
    <nd ref="51207263"/>
    <nd ref="51207265"/>
    <nd ref="51207267"/>
    <nd ref="51207269"/>
    <nd ref="51207271"/>
    <nd ref="51207272"/>
    <tag k="highway" v="unclassified"/>
    <tag k="layer" v="0"/>
    <tag k="maxspeed" v="50"/>
    <tag k="ref" v="K 114"/>
    <tag k="width" v="4"/>
  </way>
  <way id="30780716" version="15" timestamp="2010-08-27T18:29:38Z" uid="212079" user="atz" changeset="5610219">
    <nd ref="340383347"/>
    <nd ref="369885348"/>
    <nd ref="51207133"/>
    <nd ref="51207135"/>
    <nd ref="536720692"/>
    <nd ref="51207138"/>
    <nd ref="51207139"/>
    <nd ref="51207142"/>
    <nd ref="51207144"/>
    <nd ref="51207146"/>
    <nd ref="51207148"/>
    <nd ref="51207150"/>
    <nd ref="51207151"/>
    <nd ref="51207153"/>
    <nd ref="51207156"/>
    <nd ref="51207158"/>
    <nd ref="51207160"/>
    <nd ref="369885158"/>
    <nd ref="51207163"/>
    <nd ref="51207165"/>
    <nd ref="51207166"/>
    <nd ref="51207169"/>
    <nd ref="51207170"/>
    <nd ref="51207172"/>
    <nd ref="51207175"/>
    <nd ref="696930101"/>
    <nd ref="696930123"/>
    <nd ref="51207177"/>
    <nd ref="51207179"/>
    <nd ref="51207181"/>
    <nd ref="51207183"/>
    <nd ref="51207185"/>
    <nd ref="51207188"/>
    <nd ref="51207190"/>
    <nd ref="51207193"/>
    <nd ref="51207194"/>
    <nd ref="51207197"/>
    <nd ref="51207199"/>
    <nd ref="51207201"/>
    <nd ref="51207204"/>
    <nd ref="51207206"/>
    <nd ref="51207208"/>
    <nd ref="51207210"/>
    <nd ref="51207213"/>
    <nd ref="51207215"/>
    <nd ref="51207217"/>
    <nd ref="51207218"/>
    <nd ref="51207220"/>
    <nd ref="51207222"/>
    <nd ref="51207225"/>
    <nd ref="51207227"/>
    <nd ref="51207228"/>
    <nd ref="51207231"/>
    <nd ref="51207233"/>
    <nd ref="51207236"/>
    <nd ref="51207238"/>
    <nd ref="51207241"/>
    <nd ref="51207244"/>
    <nd ref="51207245"/>
    <nd ref="51207248"/>
    <nd ref="51207251"/>
    <nd ref="51207253"/>
    <nd ref="51207255"/>
    <nd ref="51207258"/>
    <nd ref="51207259"/>
    <nd ref="51207261"/>
    <nd ref="51207263"/>
    <nd ref="51207265"/>
    <nd ref="51207267"/>
    <nd ref="51207269"/>
    <nd ref="51207271"/>
    <nd ref="51207272"/>
    <tag k="highway" v="tertiary"/>
    <tag k="layer" v="0"/>
    <tag k="maxspeed" v="50"/>
    <tag k="ref" v="K 114"/>
    <tag k="width" v="4"/>
  </way>
  <way id="30780716" version="16" timestamp="2010-09-27T20:06:59Z" uid="9581" user="Lobelt" changeset="5895343">
    <nd ref="340383347"/>
    <nd ref="369885348"/>
    <nd ref="51207133"/>
    <nd ref="51207135"/>
    <nd ref="536720692"/>
    <nd ref="51207138"/>
    <nd ref="51207139"/>
    <nd ref="51207142"/>
    <nd ref="51207144"/>
    <nd ref="51207146"/>
    <nd ref="51207148"/>
    <nd ref="51207150"/>
    <nd ref="51207151"/>
    <nd ref="51207153"/>
    <nd ref="51207156"/>
    <nd ref="51207158"/>
    <nd ref="51207160"/>
    <nd ref="369885158"/>
    <nd ref="51207163"/>
    <nd ref="51207165"/>
    <nd ref="51207166"/>
    <nd ref="51207169"/>
    <nd ref="51207170"/>
    <nd ref="51207172"/>
    <nd ref="51207175"/>
    <nd ref="696930101"/>
    <nd ref="696930123"/>
    <nd ref="51207177"/>
    <nd ref="51207179"/>
    <nd ref="51207181"/>
    <nd ref="51207183"/>
    <nd ref="51207185"/>
    <nd ref="51207188"/>
    <nd ref="51207190"/>
    <nd ref="51207193"/>
    <nd ref="51207194"/>
    <nd ref="51207197"/>
    <nd ref="51207199"/>
    <nd ref="51207201"/>
    <nd ref="51207204"/>
    <nd ref="51207206"/>
    <nd ref="51207208"/>
    <nd ref="51207210"/>
    <nd ref="51207213"/>
    <nd ref="51207215"/>
    <nd ref="51207217"/>
    <nd ref="51207218"/>
    <nd ref="51207220"/>
    <nd ref="51207222"/>
    <nd ref="51207225"/>
    <nd ref="51207227"/>
    <nd ref="51207228"/>
    <nd ref="51207231"/>
    <nd ref="51207233"/>
    <nd ref="51207236"/>
    <nd ref="51207238"/>
    <nd ref="51207241"/>
    <nd ref="51207244"/>
    <nd ref="51207245"/>
    <nd ref="51207248"/>
    <nd ref="51207251"/>
    <nd ref="51207253"/>
    <nd ref="51207255"/>
    <nd ref="51207258"/>
    <nd ref="51207259"/>
    <nd ref="51207261"/>
    <nd ref="51207263"/>
    <nd ref="51207265"/>
    <nd ref="51207267"/>
    <nd ref="51207269"/>
    <nd ref="51207271"/>
    <nd ref="51207272"/>
    <tag k="highway" v="tertiary"/>
    <tag k="maxspeed" v="50"/>
    <tag k="ref" v="K 114"/>
    <tag k="width" v="4"/>
  </way>
  <way id="30780716" version="17" timestamp="2010-09-27T20:16:33Z" uid="9581" user="Lobelt" changeset="5895457">
    <nd ref="340383347"/>
    <nd ref="369885348"/>
    <nd ref="51207133"/>
    <nd ref="51207135"/>
    <nd ref="536720692"/>
    <nd ref="51207138"/>
    <nd ref="51207139"/>
    <nd ref="51207142"/>
    <nd ref="51207144"/>
    <nd ref="51207146"/>
    <nd ref="51207148"/>
    <nd ref="51207150"/>
    <nd ref="51207151"/>
    <nd ref="51207153"/>
    <nd ref="51207156"/>
    <nd ref="51207158"/>
    <nd ref="51207160"/>
    <nd ref="369885158"/>
    <nd ref="51207163"/>
    <nd ref="51207165"/>
    <nd ref="51207166"/>
    <nd ref="51207169"/>
    <nd ref="51207170"/>
    <nd ref="51207172"/>
    <nd ref="51207175"/>
    <nd ref="696930101"/>
    <tag k="highway" v="tertiary"/>
    <tag k="maxspeed" v="50"/>
    <tag k="ref" v="K 114"/>
    <tag k="width" v="4"/>
  </way>
  <way id="30780716" version="18" timestamp="2010-09-27T20:22:32Z" uid="9581" user="Lobelt" changeset="5895504">
    <nd ref="340383347"/>
    <nd ref="369885348"/>
    <nd ref="51207133"/>
    <nd ref="51207135"/>
    <nd ref="536720692"/>
    <nd ref="51207138"/>
    <nd ref="51207139"/>
    <nd ref="51207142"/>
    <nd ref="51207144"/>
    <nd ref="51207146"/>
    <nd ref="51207148"/>
    <nd ref="51207150"/>
    <nd ref="51207151"/>
    <nd ref="51207153"/>
    <nd ref="51207156"/>
    <nd ref="51207158"/>
    <nd ref="51207160"/>
    <nd ref="369885158"/>
    <nd ref="51207163"/>
    <nd ref="51207165"/>
    <nd ref="51207166"/>
    <nd ref="51207169"/>
    <nd ref="51207170"/>
    <nd ref="51207172"/>
    <nd ref="51207175"/>
    <nd ref="696930101"/>
    <tag k="highway" v="unclassified"/>
    <tag k="maxspeed" v="50"/>
    <tag k="width" v="4"/>
  </way>
  <way id="30780716" version="19" timestamp="2010-10-02T15:50:52Z" uid="212079" user="atz" changeset="5937212">
    <nd ref="340383347"/>
    <nd ref="369885348"/>
    <nd ref="51207133"/>
    <nd ref="51207135"/>
    <nd ref="536720692"/>
    <nd ref="51207138"/>
    <nd ref="51207139"/>
    <nd ref="51207142"/>
    <nd ref="51207144"/>
    <nd ref="51207146"/>
    <nd ref="51207148"/>
    <nd ref="51207150"/>
    <nd ref="51207151"/>
    <nd ref="51207153"/>
    <nd ref="51207156"/>
    <nd ref="51207158"/>
    <nd ref="51207160"/>
    <nd ref="369885158"/>
    <nd ref="51207163"/>
    <nd ref="51207166"/>
    <nd ref="51207169"/>
    <nd ref="51207170"/>
    <nd ref="51207172"/>
    <nd ref="51207175"/>
    <nd ref="696930101"/>
    <tag k="highway" v="unclassified"/>
    <tag k="maxspeed" v="50"/>
    <tag k="width" v="4"/>
  </way>
  <way id="30780716" version="20" timestamp="2011-02-09T11:03:28Z" uid="212079" user="atz" changeset="7234877">
    <nd ref="340383347"/>
    <nd ref="369885348"/>
    <nd ref="51207133"/>
    <nd ref="51207135"/>
    <nd ref="536720692"/>
    <nd ref="51207139"/>
    <nd ref="51207142"/>
    <nd ref="51207144"/>
    <nd ref="51207146"/>
    <nd ref="51207148"/>
    <nd ref="51207150"/>
    <nd ref="51207151"/>
    <nd ref="51207153"/>
    <nd ref="51207156"/>
    <nd ref="51207158"/>
    <nd ref="51207160"/>
    <nd ref="369885158"/>
    <nd ref="51207163"/>
    <nd ref="51207166"/>
    <nd ref="51207169"/>
    <nd ref="51207170"/>
    <nd ref="51207172"/>
    <nd ref="51207175"/>
    <nd ref="696930101"/>
    <tag k="highway" v="unclassified"/>
    <tag k="maxspeed" v="50"/>
    <tag k="width" v="4"/>
  </way>
  <way id="30780716" version="21" timestamp="2011-05-29T20:12:46Z" uid="42123" user="Ropino" changeset="8285557">
    <nd ref="340383347"/>
    <nd ref="369885348"/>
    <nd ref="51207133"/>
    <nd ref="51207135"/>
    <nd ref="536720692"/>
    <nd ref="1305200194"/>
    <nd ref="51207139"/>
    <nd ref="1305200160"/>
    <nd ref="51207142"/>
    <nd ref="51207144"/>
    <nd ref="51207146"/>
    <nd ref="51207148"/>
    <nd ref="51207150"/>
    <nd ref="51207151"/>
    <nd ref="1305200152"/>
    <nd ref="51207153"/>
    <nd ref="51207156"/>
    <nd ref="51207158"/>
    <nd ref="51207160"/>
    <nd ref="369885158"/>
    <nd ref="51207163"/>
    <nd ref="1305200155"/>
    <nd ref="1305200173"/>
    <nd ref="51207166"/>
    <nd ref="1305200210"/>
    <nd ref="51207169"/>
    <nd ref="51207170"/>
    <nd ref="51207172"/>
    <nd ref="1305200143"/>
    <nd ref="51207175"/>
    <nd ref="696930101"/>
    <tag k="highway" v="unclassified"/>
    <tag k="maxspeed" v="50"/>
    <tag k="width" v="4"/>
  </way>
  <way id="30780716" version="22" timestamp="2012-01-07T10:07:16Z" uid="125832" user="tijuca" changeset="10319503"/>
  <way id="30780717" version="1" timestamp="2009-02-04T13:17:40Z" uid="9581" user="Lobelt" changeset="129417">
    <nd ref="340383349"/>
    <nd ref="340383350"/>
    <tag k="bridge" v="yes"/>
    <tag k="highway" v="tertiary"/>
    <tag k="ref" v="K 114"/>
  </way>
  <way id="30780717" version="2" timestamp="2010-10-15T18:57:16Z" uid="125832" user="tijuca" changeset="6051459">
    <nd ref="340383349"/>
    <nd ref="340383350"/>
    <tag k="bridge" v="yes"/>
    <tag k="highway" v="tertiary"/>
    <tag k="layer" v="1"/>
    <tag k="ref" v="K 114"/>
  </way>
  <way id="30780717" version="3" timestamp="2012-01-02T09:18:38Z" uid="125832" user="tijuca" changeset="10268663">
    <nd ref="1573793806"/>
    <nd ref="1573793805"/>
    <tag k="bridge" v="yes"/>
    <tag k="highway" v="tertiary"/>
    <tag k="layer" v="1"/>
    <tag k="ref" v="K 114"/>
  </way>
  <way id="30780717" version="4" timestamp="2012-02-03T19:39:43Z" uid="212079" user="atz" changeset="10578159"/>
  <way id="30780718" version="1" timestamp="2009-02-04T13:17:40Z" uid="9581" user="Lobelt" changeset="129417">
    <nd ref="340383350"/>
    <nd ref="51206554"/>
    <tag k="highway" v="tertiary"/>
    <tag k="ref" v="K 114"/>
  </way>
  <way id="30780718" version="2" timestamp="2012-01-02T09:18:38Z" uid="125832" user="tijuca" changeset="10268663">
    <nd ref="1573793805"/>
    <nd ref="1573793804"/>
    <tag k="highway" v="tertiary"/>
    <tag k="ref" v="K 114"/>
  </way>
  <way id="30780720" version="1" timestamp="2009-02-04T13:17:41Z" uid="9581" user="Lobelt" changeset="129417">
    <nd ref="340383352"/>
    <nd ref="340383351"/>
    <tag k="bridge" v="yes"/>
    <tag k="highway" v="tertiary"/>
    <tag k="ref" v="K 113"/>
  </way>
  <way id="30780720" version="2" timestamp="2010-10-15T18:56:53Z" uid="125832" user="tijuca" changeset="6051459">
    <nd ref="340383352"/>
    <nd ref="340383351"/>
    <tag k="bridge" v="yes"/>
    <tag k="highway" v="tertiary"/>
    <tag k="layer" v="1"/>
    <tag k="ref" v="K 113"/>
  </way>
  <way id="30780720" version="3" timestamp="2012-01-02T09:18:36Z" uid="125832" user="tijuca" changeset="10268663">
    <nd ref="1573793849"/>
    <nd ref="340383351"/>
    <tag k="bridge" v="yes"/>
    <tag k="highway" v="tertiary"/>
    <tag k="layer" v="1"/>
    <tag k="ref" v="K 113"/>
  </way>
  <way id="30780720" version="4" timestamp="2012-01-29T11:28:11Z" uid="125832" user="tijuca" changeset="10528765">
    <nd ref="1573793849"/>
    <nd ref="1610111117"/>
    <tag k="bridge" v="yes"/>
    <tag k="highway" v="tertiary"/>
    <tag k="layer" v="1"/>
    <tag k="ref" v="K 113"/>
  </way>
  <way id="30780720" version="5" timestamp="2012-02-03T19:39:43Z" uid="212079" user="atz" changeset="10578159"/>
  <way id="30780721" version="1" timestamp="2009-02-04T13:17:42Z" uid="9581" user="Lobelt" changeset="129417">
    <nd ref="340383351"/>
    <nd ref="51206551"/>
    <nd ref="51206552"/>
    <nd ref="51206553"/>
    <nd ref="51206554"/>
    <tag k="highway" v="tertiary"/>
    <tag k="ref" v="K 113"/>
  </way>
  <way id="30780721" version="2" timestamp="2010-04-14T09:43:54Z" uid="212079" user="atz" changeset="4420922">
    <nd ref="340383351"/>
    <nd ref="51206551"/>
    <nd ref="51206552"/>
    <nd ref="51206553"/>
    <nd ref="51206554"/>
    <tag k="highway" v="tertiary"/>
    <tag k="layer" v="0"/>
    <tag k="maxspeed" v="50"/>
    <tag k="ref" v="K 113"/>
  </way>
  <way id="30780721" version="3" timestamp="2010-11-28T18:20:43Z" uid="125832" user="tijuca" changeset="6480775">
    <nd ref="340383351"/>
    <nd ref="51206551"/>
    <nd ref="51206552"/>
    <nd ref="51206553"/>
    <nd ref="51206554"/>
    <tag k="highway" v="tertiary"/>
    <tag k="maxspeed" v="50"/>
    <tag k="ref" v="K 113"/>
  </way>
  <way id="30780721" version="4" timestamp="2010-12-26T17:24:50Z" uid="212079" user="atz" changeset="6770235">
    <nd ref="340383351"/>
    <nd ref="51206551"/>
    <nd ref="51206552"/>
    <nd ref="51206553"/>
    <nd ref="51206554"/>
    <nd ref="51206555"/>
    <nd ref="51206556"/>
    <nd ref="51206557"/>
    <nd ref="51206558"/>
    <nd ref="51206560"/>
    <nd ref="51206564"/>
    <tag k="highway" v="tertiary"/>
    <tag k="maxspeed" v="50"/>
    <tag k="ref" v="K 113"/>
    <tag k="width" v="5"/>
  </way>
  <way id="30780721" version="5" timestamp="2011-01-13T12:11:53Z" uid="212079" user="atz" changeset="6956539">
    <nd ref="340383351"/>
    <nd ref="51206551"/>
    <nd ref="1101872957"/>
    <nd ref="51206552"/>
    <nd ref="51206553"/>
    <nd ref="51206554"/>
    <nd ref="51206555"/>
    <nd ref="51206556"/>
    <nd ref="51206557"/>
    <nd ref="51206558"/>
    <nd ref="51206560"/>
    <nd ref="51206564"/>
    <tag k="highway" v="tertiary"/>
    <tag k="maxspeed" v="50"/>
    <tag k="ref" v="K 113"/>
    <tag k="width" v="5"/>
  </way>
  <way id="30780721" version="6" timestamp="2011-01-19T14:00:42Z" uid="212079" user="atz" changeset="7020745">
    <nd ref="340383351"/>
    <nd ref="51206551"/>
    <nd ref="1101872957"/>
    <nd ref="51206552"/>
    <nd ref="51206553"/>
    <nd ref="51206554"/>
    <tag k="highway" v="tertiary"/>
    <tag k="maxspeed" v="50"/>
    <tag k="ref" v="K 113"/>
    <tag k="width" v="5"/>
  </way>
  <way id="30780721" version="7" timestamp="2012-01-02T09:18:36Z" uid="125832" user="tijuca" changeset="10268663">
    <nd ref="340383351"/>
    <nd ref="51206551"/>
    <nd ref="1101872957"/>
    <nd ref="51206552"/>
    <nd ref="51206553"/>
    <nd ref="1573793804"/>
    <tag k="highway" v="tertiary"/>
    <tag k="maxspeed" v="50"/>
    <tag k="ref" v="K 113"/>
    <tag k="width" v="5"/>
  </way>
  <way id="30780721" version="8" timestamp="2012-01-29T11:28:13Z" uid="125832" user="tijuca" changeset="10528765"/>
  <way id="30780722" version="1" timestamp="2009-02-04T13:17:43Z" uid="9581" user="Lobelt" changeset="129417">
    <nd ref="340383353"/>
    <nd ref="340383354"/>
    <nd ref="340383355"/>
    <nd ref="340383356"/>
    <nd ref="340383357"/>
    <nd ref="340383358"/>
    <nd ref="340383353"/>
    <tag k="landuse" v="cemetery"/>
  </way>
  <way id="30780722" version="2" timestamp="2011-02-09T11:03:18Z" uid="212079" user="atz" changeset="7234877">
    <nd ref="340383353"/>
    <nd ref="340383354"/>
    <nd ref="340383355"/>
    <nd ref="340383356"/>
    <nd ref="1143691832"/>
    <nd ref="340383357"/>
    <nd ref="340383358"/>
    <nd ref="340383353"/>
    <tag k="landuse" v="cemetery"/>
  </way>
  <way id="30780722" version="3" timestamp="2012-01-02T15:53:30Z" uid="125832" user="tijuca" changeset="10271998"/>
  <way id="30780723" version="1" timestamp="2009-02-04T13:17:43Z" uid="9581" user="Lobelt" changeset="129417">
    <nd ref="340383360"/>
    <nd ref="340383363"/>
    <nd ref="340383364"/>
    <nd ref="340383365"/>
    <nd ref="340383366"/>
    <nd ref="340383367"/>
    <nd ref="340383368"/>
    <nd ref="340383360"/>
    <tag k="natural" v="water"/>
  </way>
  <way id="30780723" version="2" timestamp="2010-12-26T17:24:42Z" uid="212079" user="atz" changeset="6770235">
    <nd ref="340383360"/>
    <nd ref="340383368"/>
    <nd ref="340383367"/>
    <nd ref="340383366"/>
    <nd ref="340383365"/>
    <nd ref="340383364"/>
    <nd ref="340383363"/>
    <nd ref="340383360"/>
    <tag k="natural" v="water"/>
  </way>
  <way id="30780723" version="3" timestamp="2011-12-28T18:17:04Z" uid="192395" user="BBO" changeset="10228559"/>
  <way id="30780724" version="1" timestamp="2009-02-04T13:17:44Z" uid="9581" user="Lobelt" changeset="129417">
    <nd ref="340383370"/>
    <nd ref="340383371"/>
    <nd ref="340383372"/>
    <nd ref="340383373"/>
    <nd ref="340383374"/>
    <nd ref="340383369"/>
    <nd ref="340383370"/>
    <tag k="natural" v="water"/>
  </way>
  <way id="30780724" version="2" timestamp="2010-12-26T17:25:10Z" uid="212079" user="atz" changeset="6770235">
    <nd ref="340383370"/>
    <nd ref="340383369"/>
    <nd ref="340383374"/>
    <nd ref="340383373"/>
    <nd ref="340383372"/>
    <nd ref="340383371"/>
    <nd ref="340383370"/>
    <tag k="natural" v="water"/>
  </way>
  <way id="30780724" version="3" timestamp="2011-12-28T18:13:28Z" uid="192395" user="BBO" changeset="10228559">
    <nd ref="340383370"/>
    <nd ref="340383369"/>
    <nd ref="340383374"/>
    <nd ref="340383373"/>
    <nd ref="340383372"/>
    <nd ref="340383371"/>
    <nd ref="340383370"/>
    <tag k="natural" v="water"/>
    <tag k="note" v="auf_Bing_nicht_sichtbar"/>
  </way>
  <way id="30780724" version="4" timestamp="2012-01-07T10:07:16Z" uid="125832" user="tijuca" changeset="10319503"/>
  <way id="30780725" version="1" timestamp="2009-02-04T13:17:44Z" uid="9581" user="Lobelt" changeset="129417">
    <nd ref="340383375"/>
    <nd ref="340383376"/>
    <nd ref="340383377"/>
    <nd ref="340383378"/>
    <nd ref="340383375"/>
    <tag k="natural" v="water"/>
  </way>
  <way id="30780725" version="2" timestamp="2010-08-27T18:29:33Z" uid="212079" user="atz" changeset="5610219">
    <nd ref="340383375"/>
    <nd ref="340383378"/>
    <nd ref="340383377"/>
    <nd ref="340383376"/>
    <nd ref="340383375"/>
    <tag k="natural" v="water"/>
  </way>
  <way id="30780725" version="3" timestamp="2011-12-18T12:36:28Z" uid="212079" user="atz" changeset="10146058">
    <nd ref="340383375"/>
    <nd ref="340383378"/>
    <nd ref="1551842465"/>
    <nd ref="340383377"/>
    <nd ref="340383376"/>
    <nd ref="340383375"/>
    <tag k="natural" v="water"/>
  </way>
  <way id="30780725" version="4" timestamp="2012-01-07T10:07:16Z" uid="125832" user="tijuca" changeset="10319503"/>
  <way id="30780726" version="1" timestamp="2009-02-04T13:17:44Z" uid="9581" user="Lobelt" changeset="129417">
    <nd ref="340383379"/>
    <nd ref="340383380"/>
    <nd ref="340383381"/>
    <nd ref="340383382"/>
    <nd ref="340383383"/>
    <nd ref="340383379"/>
    <tag k="natural" v="water"/>
  </way>
  <way id="30780726" version="2" timestamp="2010-08-27T18:29:35Z" uid="212079" user="atz" changeset="5610219">
    <nd ref="340383379"/>
    <nd ref="340383383"/>
    <nd ref="340383382"/>
    <nd ref="340383381"/>
    <nd ref="340383380"/>
    <nd ref="340383379"/>
    <tag k="natural" v="water"/>
  </way>
  <way id="30780726" version="3" timestamp="2012-01-07T10:07:16Z" uid="125832" user="tijuca" changeset="10319503"/>
  <way id="30780727" version="1" timestamp="2009-02-04T13:17:45Z" uid="9581" user="Lobelt" changeset="129417">
    <nd ref="340383541"/>
    <nd ref="340383543"/>
    <nd ref="340383544"/>
    <nd ref="340383546"/>
    <nd ref="340383548"/>
    <nd ref="340383549"/>
    <nd ref="340383550"/>
    <nd ref="340383551"/>
    <nd ref="340383552"/>
    <nd ref="340383553"/>
    <nd ref="340383554"/>
    <nd ref="340383555"/>
    <nd ref="340383557"/>
    <nd ref="340383559"/>
    <nd ref="272232328"/>
    <nd ref="272232325"/>
    <nd ref="272232323"/>
    <nd ref="340383561"/>
    <nd ref="340383562"/>
    <nd ref="340383564"/>
    <nd ref="340383566"/>
    <nd ref="340383568"/>
    <nd ref="340383570"/>
    <nd ref="340383571"/>
    <nd ref="340383572"/>
    <nd ref="340383573"/>
    <nd ref="340383541"/>
    <tag k="landuse" v="forest"/>
  </way>
  <way id="30780727" version="2" timestamp="2012-01-02T15:53:30Z" uid="125832" user="tijuca" changeset="10271998"/>
  <way id="30780728" version="1" timestamp="2009-02-04T13:17:46Z" uid="9581" user="Lobelt" changeset="129417">
    <nd ref="340383629"/>
    <nd ref="340383628"/>
    <nd ref="340383627"/>
    <nd ref="340383626"/>
    <nd ref="340383625"/>
    <nd ref="340383624"/>
    <nd ref="340383623"/>
    <nd ref="340383622"/>
    <nd ref="340383621"/>
    <nd ref="340383620"/>
    <nd ref="340383619"/>
    <nd ref="340383618"/>
    <nd ref="340383617"/>
    <nd ref="340383615"/>
    <nd ref="340383614"/>
    <nd ref="340383613"/>
    <nd ref="340383612"/>
    <nd ref="340383611"/>
    <nd ref="340383610"/>
    <nd ref="340383609"/>
    <nd ref="340383608"/>
    <nd ref="340383607"/>
    <nd ref="340383606"/>
    <nd ref="340383605"/>
    <nd ref="340383604"/>
    <nd ref="340383603"/>
    <nd ref="340383602"/>
    <nd ref="340383601"/>
    <nd ref="340383600"/>
    <nd ref="340383599"/>
    <nd ref="340383598"/>
    <nd ref="340383597"/>
    <nd ref="340383596"/>
    <nd ref="340383595"/>
    <nd ref="340383594"/>
    <nd ref="340383593"/>
    <nd ref="340383592"/>
    <nd ref="340383591"/>
    <nd ref="340383590"/>
    <nd ref="340383589"/>
    <nd ref="340383588"/>
    <nd ref="340383587"/>
    <nd ref="340383586"/>
    <nd ref="340383585"/>
    <nd ref="340383584"/>
    <nd ref="340383583"/>
    <nd ref="340383582"/>
    <nd ref="340383581"/>
    <nd ref="340383580"/>
    <nd ref="340383579"/>
    <nd ref="340383578"/>
    <nd ref="340383574"/>
    <nd ref="340383575"/>
    <nd ref="340383576"/>
    <nd ref="340383346"/>
    <tag k="waterway" v="stream"/>
  </way>
  <way id="30780728" version="2" timestamp="2010-04-14T17:44:59Z" uid="212079" user="atz" changeset="4424526">
    <nd ref="340383629"/>
    <nd ref="340383628"/>
    <nd ref="340383627"/>
    <nd ref="340383626"/>
    <nd ref="340383625"/>
    <nd ref="340383624"/>
    <nd ref="340383623"/>
    <nd ref="340383622"/>
    <nd ref="340383621"/>
    <nd ref="340383620"/>
    <nd ref="340383619"/>
    <nd ref="340383618"/>
    <nd ref="340383617"/>
    <nd ref="340383615"/>
    <nd ref="340383614"/>
    <nd ref="340383613"/>
    <nd ref="340383612"/>
    <nd ref="340383611"/>
    <nd ref="340383610"/>
    <nd ref="340383609"/>
    <nd ref="340383608"/>
    <nd ref="340383607"/>
    <nd ref="340383606"/>
    <nd ref="340383605"/>
    <nd ref="340383604"/>
    <nd ref="340383603"/>
    <nd ref="340383602"/>
    <nd ref="340383601"/>
    <nd ref="340383600"/>
    <nd ref="340383599"/>
    <nd ref="340383598"/>
    <nd ref="340383597"/>
    <nd ref="340383596"/>
    <nd ref="340383595"/>
    <nd ref="340383594"/>
    <nd ref="340383593"/>
    <nd ref="340383592"/>
    <nd ref="340383591"/>
    <nd ref="340383590"/>
    <nd ref="340383589"/>
    <nd ref="340383588"/>
    <nd ref="340383587"/>
    <nd ref="340383586"/>
    <nd ref="340383585"/>
    <nd ref="340383584"/>
    <nd ref="340383583"/>
    <nd ref="340383582"/>
    <nd ref="340383581"/>
    <nd ref="340383580"/>
    <nd ref="340383579"/>
    <nd ref="340383578"/>
    <nd ref="340383574"/>
    <nd ref="340383575"/>
    <nd ref="340383576"/>
    <nd ref="340383346"/>
    <tag k="layer" v="0"/>
    <tag k="name" v="Schwarzbach"/>
    <tag k="waterway" v="stream"/>
  </way>
  <way id="30780728" version="3" timestamp="2010-08-27T18:29:34Z" uid="212079" user="atz" changeset="5610219">
    <nd ref="340383629"/>
    <nd ref="340383628"/>
    <nd ref="340383627"/>
    <nd ref="340383626"/>
    <nd ref="340383625"/>
    <nd ref="340383624"/>
    <nd ref="340383623"/>
    <nd ref="340383622"/>
    <nd ref="340383621"/>
    <nd ref="340383620"/>
    <nd ref="340383619"/>
    <nd ref="340383618"/>
    <nd ref="340383617"/>
    <nd ref="340383615"/>
    <nd ref="340383614"/>
    <nd ref="340383613"/>
    <nd ref="340383612"/>
    <nd ref="340383611"/>
    <nd ref="340383610"/>
    <nd ref="340383609"/>
    <nd ref="340383608"/>
    <nd ref="340383607"/>
    <nd ref="340383606"/>
    <nd ref="340383605"/>
    <nd ref="340383604"/>
    <nd ref="340383603"/>
    <nd ref="340383602"/>
    <nd ref="340383601"/>
    <nd ref="340383600"/>
    <nd ref="340383599"/>
    <nd ref="340383598"/>
    <nd ref="340383597"/>
    <nd ref="340383596"/>
    <nd ref="340383595"/>
    <nd ref="340383594"/>
    <nd ref="340383593"/>
    <nd ref="340383592"/>
    <nd ref="340383591"/>
    <nd ref="340383590"/>
    <nd ref="340383589"/>
    <nd ref="340383588"/>
    <nd ref="340383587"/>
    <nd ref="340383586"/>
    <nd ref="340383585"/>
    <nd ref="340383584"/>
    <nd ref="340383583"/>
    <nd ref="340383582"/>
    <nd ref="340383581"/>
    <nd ref="340383580"/>
    <nd ref="340383579"/>
    <nd ref="340383578"/>
    <nd ref="340383574"/>
    <nd ref="340383575"/>
    <nd ref="340383576"/>
    <nd ref="340383346"/>
    <tag k="layer" v="-1"/>
    <tag k="name" v="Schwarzbach"/>
    <tag k="waterway" v="stream"/>
  </way>
  <way id="30780728" version="4" timestamp="2010-10-14T19:32:22Z" uid="212079" user="atz" changeset="6042425">
    <nd ref="340383629"/>
    <nd ref="340383628"/>
    <nd ref="340383627"/>
    <nd ref="340383626"/>
    <nd ref="340383625"/>
    <nd ref="340383624"/>
    <nd ref="340383623"/>
    <nd ref="340383622"/>
    <nd ref="340383621"/>
    <nd ref="340383620"/>
    <nd ref="340383619"/>
    <nd ref="340383618"/>
    <nd ref="340383617"/>
    <nd ref="340383615"/>
    <nd ref="340383614"/>
    <nd ref="340383613"/>
    <nd ref="340383612"/>
    <nd ref="340383611"/>
    <nd ref="340383610"/>
    <nd ref="340383609"/>
    <nd ref="340383608"/>
    <nd ref="340383607"/>
    <nd ref="340383606"/>
    <nd ref="340383605"/>
    <nd ref="340383604"/>
    <nd ref="340383603"/>
    <nd ref="340383602"/>
    <nd ref="340383601"/>
    <nd ref="340383600"/>
    <nd ref="340383599"/>
    <nd ref="340383598"/>
    <nd ref="340383597"/>
    <nd ref="340383596"/>
    <nd ref="340383595"/>
    <nd ref="340383594"/>
    <nd ref="340383593"/>
    <nd ref="340383592"/>
    <nd ref="340383591"/>
    <nd ref="340383590"/>
    <nd ref="340383589"/>
    <nd ref="340383588"/>
    <nd ref="340383587"/>
    <nd ref="340383586"/>
    <nd ref="340383585"/>
    <nd ref="340383584"/>
    <nd ref="340383583"/>
    <nd ref="340383582"/>
    <nd ref="340383581"/>
    <nd ref="340383580"/>
    <nd ref="340383579"/>
    <nd ref="340383578"/>
    <nd ref="340383574"/>
    <nd ref="340383575"/>
    <nd ref="340383576"/>
    <nd ref="340383346"/>
    <tag k="name" v="Schwarzbach"/>
    <tag k="waterway" v="stream"/>
  </way>
  <way id="30780728" version="5" timestamp="2010-12-28T10:13:30Z" uid="212079" user="atz" changeset="6786334">
    <nd ref="272231819"/>
    <nd ref="1068923924"/>
    <nd ref="1068923688"/>
    <nd ref="1068924069"/>
    <tag k="name" v="Schwarzbach"/>
    <tag k="waterway" v="stream"/>
  </way>
  <way id="30780728" version="6" timestamp="2011-12-28T18:13:21Z" uid="192395" user="BBO" changeset="10228559">
    <nd ref="1565711946"/>
    <nd ref="1068923924"/>
    <nd ref="1068923688"/>
    <nd ref="1068924069"/>
    <tag k="name" v="Schwarzbach"/>
    <tag k="waterway" v="stream"/>
  </way>
  <way id="30780728" version="7" timestamp="2012-01-07T10:07:14Z" uid="125832" user="tijuca" changeset="10319503"/>
  <way id="30780729" version="1" timestamp="2009-02-04T13:17:47Z" uid="9581" user="Lobelt" changeset="129417">
    <nd ref="51206560"/>
    <nd ref="340383630"/>
    <tag k="highway" v="residential"/>
  </way>
  <way id="30780729" version="2" timestamp="2009-04-05T01:41:17Z" uid="55011" user="RaZoR88" changeset="200235">
    <nd ref="51206560"/>
    <nd ref="369888922"/>
    <nd ref="340383630"/>
    <tag k="created_by" v="Potlatch 0.10f"/>
    <tag k="highway" v="residential"/>
  </way>
  <way id="30780729" version="3" timestamp="2009-04-05T01:41:21Z" uid="55011" user="RaZoR88" changeset="200235">
    <nd ref="51206560"/>
    <nd ref="369888931"/>
    <nd ref="369888922"/>
    <nd ref="340383630"/>
    <tag k="created_by" v="Potlatch 0.10f"/>
    <tag k="highway" v="residential"/>
  </way>
  <way id="30780729" version="4" timestamp="2010-10-15T18:57:15Z" uid="125832" user="tijuca" changeset="6051459">
    <nd ref="51206560"/>
    <nd ref="369888931"/>
    <nd ref="369888922"/>
    <nd ref="340383630"/>
    <tag k="highway" v="residential"/>
  </way>
  <way id="30780729" version="5" timestamp="2012-01-07T16:34:12Z" uid="212079" user="atz" changeset="10322888">
    <nd ref="51206560"/>
    <nd ref="369888931"/>
    <nd ref="369888922"/>
    <nd ref="340383630"/>
    <tag k="highway" v="residential"/>
    <tag k="lanes" v="1"/>
    <tag k="surface" v="paved"/>
    <tag k="width" v="3"/>
  </way>
  <way id="30780729" version="6" timestamp="2012-01-29T11:28:14Z" uid="125832" user="tijuca" changeset="10528765"/>
  <way id="30780730" version="1" timestamp="2009-02-04T13:17:47Z" uid="9581" user="Lobelt" changeset="129417">
    <nd ref="340383631"/>
    <nd ref="340383632"/>
    <nd ref="340383633"/>
    <nd ref="340383634"/>
    <nd ref="340383635"/>
    <nd ref="340383636"/>
    <nd ref="340383637"/>
    <nd ref="340383631"/>
    <tag k="natural" v="water"/>
  </way>
  <way id="30780730" version="2" timestamp="2010-08-27T18:29:28Z" uid="212079" user="atz" changeset="5610219">
    <nd ref="340383631"/>
    <nd ref="340383637"/>
    <nd ref="340383636"/>
    <nd ref="340383635"/>
    <nd ref="340383634"/>
    <nd ref="340383633"/>
    <nd ref="340383632"/>
    <nd ref="340383631"/>
    <tag k="natural" v="water"/>
  </way>
  <way id="30780730" version="3" timestamp="2012-01-02T15:53:32Z" uid="125832" user="tijuca" changeset="10271998"/>
  <way id="30780731" version="1" timestamp="2009-02-04T13:17:48Z" uid="9581" user="Lobelt" changeset="129417">
    <nd ref="340383638"/>
    <nd ref="340383639"/>
    <nd ref="340383640"/>
    <nd ref="340383641"/>
    <nd ref="340383642"/>
    <nd ref="340383643"/>
    <nd ref="340383644"/>
    <nd ref="340383645"/>
    <nd ref="340383638"/>
    <tag k="natural" v="water"/>
  </way>
  <way id="30780731" version="2" timestamp="2010-08-27T18:29:33Z" uid="212079" user="atz" changeset="5610219">
    <nd ref="340383638"/>
    <nd ref="340383645"/>
    <nd ref="340383644"/>
    <nd ref="340383643"/>
    <nd ref="340383642"/>
    <nd ref="340383641"/>
    <nd ref="340383640"/>
    <nd ref="340383639"/>
    <nd ref="340383638"/>
    <tag k="natural" v="water"/>
  </way>
  <way id="30780731" version="3" timestamp="2012-01-02T15:53:32Z" uid="125832" user="tijuca" changeset="10271998"/>
  <way id="30780732" version="1" timestamp="2009-02-04T13:17:48Z" uid="9581" user="Lobelt" changeset="129417">
    <nd ref="340383646"/>
    <nd ref="340383647"/>
    <nd ref="340383648"/>
    <nd ref="340383649"/>
    <nd ref="340383650"/>
    <nd ref="340383651"/>
    <nd ref="340383652"/>
    <nd ref="340383653"/>
    <nd ref="340383654"/>
    <nd ref="340383655"/>
    <nd ref="340383656"/>
    <nd ref="340383657"/>
    <nd ref="340383646"/>
    <tag k="landuse" v="cemetery"/>
  </way>
  <way id="30780732" version="2" timestamp="2012-01-02T15:53:29Z" uid="125832" user="tijuca" changeset="10271998"/>
  <way id="30780794" version="3" timestamp="2009-10-13T23:28:31Z" uid="36809" user="pfoten_weg_!_" changeset="2841268">
    <nd ref="340384087"/>
    <nd ref="340384088"/>
    <nd ref="340384089"/>
    <nd ref="340384090"/>
    <nd ref="340384091"/>
    <nd ref="340384092"/>
    <nd ref="340384093"/>
    <nd ref="340384094"/>
    <nd ref="340384095"/>
    <nd ref="340384096"/>
    <nd ref="340384097"/>
    <nd ref="340384099"/>
    <nd ref="340384101"/>
    <nd ref="340384103"/>
    <nd ref="340231724"/>
    <tag k="highway" v="tertiary"/>
  </way>
  <way id="30780794" version="4" timestamp="2012-02-07T18:25:26Z" uid="342287" user="hubi08" changeset="10614731">
    <nd ref="340384087"/>
    <nd ref="340384088"/>
    <nd ref="340384089"/>
    <nd ref="340384090"/>
    <nd ref="340384091"/>
    <nd ref="340384092"/>
    <nd ref="340384093"/>
    <nd ref="340384094"/>
    <nd ref="340384095"/>
    <nd ref="340384096"/>
    <nd ref="340384097"/>
    <nd ref="340384099"/>
    <nd ref="340384101"/>
    <nd ref="340384103"/>
    <nd ref="340231724"/>
    <tag k="highway" v="unclassified"/>
  </way>
  <way id="30780794" version="5" timestamp="2012-02-12T06:13:07Z" uid="342287" user="hubi08" changeset="10659856">
    <nd ref="340384087"/>
    <nd ref="340384088"/>
    <nd ref="340384089"/>
    <nd ref="340384090"/>
    <nd ref="340384091"/>
    <nd ref="340384092"/>
    <nd ref="340384093"/>
    <nd ref="340384094"/>
    <nd ref="340384095"/>
    <nd ref="340384096"/>
    <nd ref="340384097"/>
    <nd ref="340384099"/>
    <nd ref="340384101"/>
    <nd ref="340384103"/>
    <nd ref="340231724"/>
    <tag k="highway" v="residential"/>
  </way>
  <way id="30780814" version="8" timestamp="2010-07-09T06:37:37Z" uid="74617" user="JohnSmith" changeset="5171134">
    <nd ref="340384247"/>
    <nd ref="764900159"/>
    <nd ref="370727261"/>
    <nd ref="366491383"/>
    <nd ref="366491386"/>
    <nd ref="340384310"/>
    <tag k="fixme" v="not_reviewed"/>
    <tag k="highway" v="residential"/>
    <tag k="maxspeed" v="50"/>
    <tag k="maxspeed:source" v="default residential speed limit in Australia"/>
    <tag k="name" v="Cavendish Avenue"/>
    <tag k="source:name" v="Gregorys 1942"/>
  </way>
  <way id="30780814" version="9" timestamp="2010-09-11T08:29:57Z" uid="150488" user="ralmin" changeset="5747456">
    <nd ref="340384247"/>
    <nd ref="764900159"/>
    <nd ref="370727261"/>
    <nd ref="366491383"/>
    <nd ref="906626740"/>
    <nd ref="366491386"/>
    <nd ref="906626707"/>
    <nd ref="340384310"/>
    <tag k="fixme" v="not_reviewed"/>
    <tag k="highway" v="residential"/>
    <tag k="maxspeed" v="50"/>
    <tag k="maxspeed:source" v="default residential speed limit in Australia"/>
    <tag k="name" v="Cavendish Avenue"/>
    <tag k="source:name" v="Gregorys 1942"/>
  </way>
  <way id="30780814" version="10" timestamp="2010-09-11T08:31:52Z" uid="150488" user="ralmin" changeset="5747456">
    <nd ref="340384247"/>
    <nd ref="764900159"/>
    <nd ref="370727261"/>
    <nd ref="366491383"/>
    <nd ref="906626740"/>
    <nd ref="366491386"/>
    <nd ref="906626707"/>
    <nd ref="906629150"/>
    <nd ref="340384310"/>
    <tag k="fixme" v="not_reviewed"/>
    <tag k="highway" v="residential"/>
    <tag k="maxspeed" v="50"/>
    <tag k="maxspeed:source" v="default residential speed limit in Australia"/>
    <tag k="name" v="Cavendish Avenue"/>
    <tag k="source:name" v="Gregorys 1942"/>
  </way>
  <way id="30780814" version="11" timestamp="2010-09-11T08:38:35Z" uid="150488" user="ralmin" changeset="5747456">
    <nd ref="340384247"/>
    <nd ref="764900159"/>
    <nd ref="370727261"/>
    <nd ref="906635956"/>
    <nd ref="366491383"/>
    <nd ref="906635946"/>
    <nd ref="906626740"/>
    <nd ref="366491386"/>
    <nd ref="906626707"/>
    <nd ref="906629150"/>
    <nd ref="340384310"/>
    <tag k="fixme" v="not_reviewed"/>
    <tag k="highway" v="residential"/>
    <tag k="maxspeed" v="50"/>
    <tag k="maxspeed:source" v="default residential speed limit in Australia"/>
    <tag k="name" v="Cavendish Avenue"/>
    <tag k="source:name" v="Gregorys 1942"/>
  </way>
  <way id="30780814" version="12" timestamp="2012-01-18T05:17:09Z" uid="147510" user="woodpeck_fixbot" changeset="10424371">
    <nd ref="340384247"/>
    <nd ref="764900159"/>
    <nd ref="370727261"/>
    <nd ref="906635956"/>
    <nd ref="366491383"/>
    <nd ref="906635946"/>
    <nd ref="906626740"/>
    <nd ref="366491386"/>
    <nd ref="906626707"/>
    <nd ref="906629150"/>
    <nd ref="340384310"/>
    <tag k="fixme" v="not_reviewed"/>
    <tag k="highway" v="residential"/>
    <tag k="name" v="Cavendish Avenue"/>
    <tag k="source:name" v="Gregorys 1942"/>
  </way>
  <way id="30780823" version="3" timestamp="2009-10-13T23:28:35Z" uid="36809" user="pfoten_weg_!_" changeset="2841268">
    <nd ref="340384358"/>
    <nd ref="340384359"/>
    <nd ref="340384360"/>
    <nd ref="340384361"/>
    <nd ref="340384362"/>
    <nd ref="340384363"/>
    <tag k="highway" v="residential"/>
  </way>
  <way id="30780830" version="3" timestamp="2009-10-13T23:28:34Z" uid="36809" user="pfoten_weg_!_" changeset="2841268">
    <nd ref="340384385"/>
    <nd ref="340384386"/>
    <nd ref="340384387"/>
    <nd ref="340384388"/>
    <nd ref="340384389"/>
    <nd ref="340384390"/>
    <nd ref="340384391"/>
    <nd ref="340384392"/>
    <nd ref="340384393"/>
    <nd ref="340384394"/>
    <nd ref="340384395"/>
    <nd ref="340384396"/>
    <tag k="highway" v="service"/>
  </way>
  <way id="30780830" version="4" timestamp="2012-02-12T16:00:43Z" uid="342287" user="hubi08" changeset="10664332">
    <nd ref="340384385"/>
    <nd ref="340384386"/>
    <nd ref="340384387"/>
    <nd ref="340384388"/>
    <nd ref="340384389"/>
    <nd ref="340384390"/>
    <nd ref="340384391"/>
    <nd ref="340384392"/>
    <nd ref="340384393"/>
    <nd ref="340384394"/>
    <nd ref="340384395"/>
    <nd ref="340384396"/>
    <tag k="highway" v="residential"/>
  </way>
  <way id="30780831" version="9" timestamp="2010-07-09T06:36:31Z" uid="74617" user="JohnSmith" changeset="5171134">
    <nd ref="764897332"/>
    <nd ref="765065472"/>
    <nd ref="366491386"/>
    <nd ref="366491389"/>
    <nd ref="764892929"/>
    <nd ref="370727251"/>
    <nd ref="764892969"/>
    <nd ref="340384397"/>
    <nd ref="370727065"/>
    <nd ref="370727069"/>
    <tag k="highway" v="residential"/>
    <tag k="maxspeed" v="50"/>
    <tag k="maxspeed:source" v="default residential speed limit in Australia"/>
    <tag k="name" v="Bolingbroke Avenue"/>
  </way>
  <way id="30780831" version="10" timestamp="2010-09-11T03:22:49Z" uid="150488" user="ralmin" changeset="5746375">
    <nd ref="764897332"/>
    <nd ref="765065472"/>
    <nd ref="366491386"/>
    <nd ref="366491389"/>
    <nd ref="764892929"/>
    <nd ref="370727251"/>
    <nd ref="764892969"/>
    <nd ref="340384397"/>
    <nd ref="370727065"/>
    <nd ref="370727069"/>
    <tag k="highway" v="residential"/>
    <tag k="maxspeed" v="50"/>
    <tag k="maxspeed:source" v="default residential speed limit in Australia"/>
    <tag k="name" v="Bolingbroke Avenue"/>
    <tag k="source" v="nearmap"/>
  </way>
  <way id="30780831" version="11" timestamp="2010-09-11T08:34:05Z" uid="150488" user="ralmin" changeset="5747456">
    <nd ref="764897332"/>
    <nd ref="765065472"/>
    <nd ref="906631399"/>
    <nd ref="366491386"/>
    <nd ref="906631437"/>
    <nd ref="366491389"/>
    <nd ref="764892929"/>
    <nd ref="370727251"/>
    <nd ref="764892969"/>
    <nd ref="340384397"/>
    <nd ref="370727065"/>
    <nd ref="370727069"/>
    <tag k="highway" v="residential"/>
    <tag k="maxspeed" v="50"/>
    <tag k="maxspeed:source" v="default residential speed limit in Australia"/>
    <tag k="name" v="Bolingbroke Avenue"/>
    <tag k="source" v="nearmap"/>
  </way>
  <way id="30780831" version="12" timestamp="2010-09-11T08:38:36Z" uid="150488" user="ralmin" changeset="5747456">
    <nd ref="764897332"/>
    <nd ref="765065472"/>
    <nd ref="906631399"/>
    <nd ref="366491386"/>
    <nd ref="906631437"/>
    <nd ref="906635891"/>
    <nd ref="366491389"/>
    <nd ref="906635926"/>
    <nd ref="764892929"/>
    <nd ref="370727251"/>
    <nd ref="764892969"/>
    <nd ref="340384397"/>
    <nd ref="370727065"/>
    <nd ref="370727069"/>
    <tag k="highway" v="residential"/>
    <tag k="maxspeed" v="50"/>
    <tag k="maxspeed:source" v="default residential speed limit in Australia"/>
    <tag k="name" v="Bolingbroke Avenue"/>
    <tag k="source" v="nearmap"/>
  </way>
  <way id="30780831" version="13" timestamp="2012-01-18T05:17:10Z" uid="147510" user="woodpeck_fixbot" changeset="10424371">
    <nd ref="764897332"/>
    <nd ref="765065472"/>
    <nd ref="906631399"/>
    <nd ref="366491386"/>
    <nd ref="906631437"/>
    <nd ref="906635891"/>
    <nd ref="366491389"/>
    <nd ref="906635926"/>
    <nd ref="764892929"/>
    <nd ref="370727251"/>
    <nd ref="764892969"/>
    <nd ref="340384397"/>
    <nd ref="370727065"/>
    <nd ref="370727069"/>
    <tag k="highway" v="residential"/>
    <tag k="name" v="Bolingbroke Avenue"/>
    <tag k="source" v="nearmap"/>
  </way>
  <way id="30780835" version="5" timestamp="2010-07-09T06:38:36Z" uid="74617" user="JohnSmith" changeset="5171134">
    <nd ref="340384401"/>
    <nd ref="366491389"/>
    <nd ref="366491380"/>
    <nd ref="765056655"/>
    <nd ref="340384404"/>
    <tag k="fixme" v="not_reviewed"/>
    <tag k="highway" v="residential"/>
    <tag k="maxspeed" v="50"/>
    <tag k="maxspeed:source" v="default residential speed limit in Australia"/>
    <tag k="name" v="Plymouth Avenue"/>
    <tag k="source:name" v="Gregorys 1942"/>
  </way>
  <way id="30780835" version="6" timestamp="2010-09-11T08:29:57Z" uid="150488" user="ralmin" changeset="5747456">
    <nd ref="340384401"/>
    <nd ref="906626708"/>
    <nd ref="366491389"/>
    <nd ref="906626730"/>
    <nd ref="366491380"/>
    <nd ref="765056655"/>
    <nd ref="340384404"/>
    <tag k="fixme" v="not_reviewed"/>
    <tag k="highway" v="residential"/>
    <tag k="maxspeed" v="50"/>
    <tag k="maxspeed:source" v="default residential speed limit in Australia"/>
    <tag k="name" v="Plymouth Avenue"/>
    <tag k="source:name" v="Gregorys 1942"/>
  </way>
  <way id="30780835" version="7" timestamp="2010-09-11T08:31:55Z" uid="150488" user="ralmin" changeset="5747456">
    <nd ref="340384401"/>
    <nd ref="906629167"/>
    <nd ref="906626708"/>
    <nd ref="366491389"/>
    <nd ref="906626730"/>
    <nd ref="366491380"/>
    <nd ref="765056655"/>
    <nd ref="340384404"/>
    <tag k="fixme" v="not_reviewed"/>
    <tag k="highway" v="residential"/>
    <tag k="maxspeed" v="50"/>
    <tag k="maxspeed:source" v="default residential speed limit in Australia"/>
    <tag k="name" v="Plymouth Avenue"/>
    <tag k="source:name" v="Gregorys 1942"/>
  </way>
  <way id="30780835" version="8" timestamp="2010-09-11T08:38:34Z" uid="150488" user="ralmin" changeset="5747456">
    <nd ref="340384401"/>
    <nd ref="906629167"/>
    <nd ref="906626708"/>
    <nd ref="366491389"/>
    <nd ref="906626730"/>
    <nd ref="906635944"/>
    <nd ref="366491380"/>
    <nd ref="906635959"/>
    <nd ref="765056655"/>
    <nd ref="340384404"/>
    <tag k="fixme" v="not_reviewed"/>
    <tag k="highway" v="residential"/>
    <tag k="maxspeed" v="50"/>
    <tag k="maxspeed:source" v="default residential speed limit in Australia"/>
    <tag k="name" v="Plymouth Avenue"/>
    <tag k="source:name" v="Gregorys 1942"/>
  </way>
  <way id="30780835" version="9" timestamp="2010-09-11T08:40:36Z" uid="150488" user="ralmin" changeset="5747456">
    <nd ref="340384401"/>
    <nd ref="906629167"/>
    <nd ref="906626708"/>
    <nd ref="366491389"/>
    <nd ref="906626730"/>
    <nd ref="906635944"/>
    <nd ref="366491380"/>
    <nd ref="906635959"/>
    <nd ref="906637099"/>
    <nd ref="765056655"/>
    <nd ref="340384404"/>
    <tag k="fixme" v="not_reviewed"/>
    <tag k="highway" v="residential"/>
    <tag k="maxspeed" v="50"/>
    <tag k="maxspeed:source" v="default residential speed limit in Australia"/>
    <tag k="name" v="Plymouth Avenue"/>
    <tag k="source:name" v="Gregorys 1942"/>
  </way>
  <way id="30780835" version="10" timestamp="2012-01-18T05:17:12Z" uid="147510" user="woodpeck_fixbot" changeset="10424371">
    <nd ref="340384401"/>
    <nd ref="906629167"/>
    <nd ref="906626708"/>
    <nd ref="366491389"/>
    <nd ref="906626730"/>
    <nd ref="906635944"/>
    <nd ref="366491380"/>
    <nd ref="906635959"/>
    <nd ref="906637099"/>
    <nd ref="765056655"/>
    <nd ref="340384404"/>
    <tag k="fixme" v="not_reviewed"/>
    <tag k="highway" v="residential"/>
    <tag k="name" v="Plymouth Avenue"/>
    <tag k="source:name" v="Gregorys 1942"/>
  </way>
  <way id="30780844" version="7" timestamp="2010-07-09T06:38:58Z" uid="74617" user="JohnSmith" changeset="5171134">
    <nd ref="764897328"/>
    <nd ref="765065470"/>
    <nd ref="366491383"/>
    <nd ref="366491380"/>
    <nd ref="764892927"/>
    <nd ref="340384494"/>
    <tag k="fixme" v="not_reviewed"/>
    <tag k="highway" v="residential"/>
    <tag k="maxspeed" v="50"/>
    <tag k="maxspeed:source" v="default residential speed limit in Australia"/>
    <tag k="name" v="Torrington Avenue"/>
    <tag k="source:name" v="Gregorys 1942"/>
  </way>
  <way id="30780844" version="8" timestamp="2010-09-11T08:34:06Z" uid="150488" user="ralmin" changeset="5747456">
    <nd ref="764897328"/>
    <nd ref="765065470"/>
    <nd ref="906631401"/>
    <nd ref="366491383"/>
    <nd ref="906631435"/>
    <nd ref="366491380"/>
    <nd ref="764892927"/>
    <nd ref="340384494"/>
    <tag k="fixme" v="not_reviewed"/>
    <tag k="highway" v="residential"/>
    <tag k="maxspeed" v="50"/>
    <tag k="maxspeed:source" v="default residential speed limit in Australia"/>
    <tag k="name" v="Torrington Avenue"/>
    <tag k="source" v="nearmap"/>
    <tag k="source:name" v="Gregorys 1942"/>
  </way>
  <way id="30780844" version="9" timestamp="2010-09-11T08:38:34Z" uid="150488" user="ralmin" changeset="5747456">
    <nd ref="764897328"/>
    <nd ref="765065470"/>
    <nd ref="906631401"/>
    <nd ref="366491383"/>
    <nd ref="906631435"/>
    <nd ref="906635905"/>
    <nd ref="366491380"/>
    <nd ref="906635918"/>
    <nd ref="764892927"/>
    <nd ref="340384494"/>
    <tag k="fixme" v="not_reviewed"/>
    <tag k="highway" v="residential"/>
    <tag k="maxspeed" v="50"/>
    <tag k="maxspeed:source" v="default residential speed limit in Australia"/>
    <tag k="name" v="Torrington Avenue"/>
    <tag k="source" v="nearmap"/>
    <tag k="source:name" v="Gregorys 1942"/>
  </way>
  <way id="30780844" version="10" timestamp="2012-01-18T05:17:13Z" uid="147510" user="woodpeck_fixbot" changeset="10424371">
    <nd ref="764897328"/>
    <nd ref="765065470"/>
    <nd ref="906631401"/>
    <nd ref="366491383"/>
    <nd ref="906631435"/>
    <nd ref="906635905"/>
    <nd ref="366491380"/>
    <nd ref="906635918"/>
    <nd ref="764892927"/>
    <nd ref="340384494"/>
    <tag k="fixme" v="not_reviewed"/>
    <tag k="highway" v="residential"/>
    <tag k="name" v="Torrington Avenue"/>
    <tag k="source" v="nearmap"/>
    <tag k="source:name" v="Gregorys 1942"/>
  </way>
  <way id="30780991" version="1" timestamp="2009-02-04T13:36:56Z" uid="43863" user="Rundling" changeset="121550">
    <nd ref="340385473"/>
    <nd ref="305616633"/>
    <tag k="bicycle" v="yes"/>
    <tag k="created_by" v="Potlatch 0.10f"/>
    <tag k="foot" v="yes"/>
    <tag k="highway" v="footway"/>
    <tag k="layer" v="-1"/>
    <tag k="tunnel" v="yes"/>
  </way>
  <way id="30780991" version="2" timestamp="2009-04-23T12:54:46Z" uid="43863" user="Rundling" changeset="912242">
    <nd ref="340385473"/>
    <nd ref="305616633"/>
    <tag k="bicycle" v="yes"/>
    <tag k="foot" v="yes"/>
    <tag k="highway" v="footway"/>
    <tag k="layer" v="-1"/>
    <tag k="tunnel" v="yes"/>
  </way>
  <way id="30780992" version="1" timestamp="2009-02-04T13:36:57Z" uid="43863" user="Rundling" changeset="121550">
    <nd ref="305616633"/>
    <nd ref="305616634"/>
    <nd ref="305616636"/>
    <nd ref="305616638"/>
    <nd ref="305616640"/>
    <nd ref="305616641"/>
    <nd ref="305616642"/>
    <nd ref="305616644"/>
    <nd ref="280411548"/>
    <tag k="bicycle" v="yes"/>
    <tag k="created_by" v="Potlatch 0.10f"/>
    <tag k="foot" v="yes"/>
    <tag k="highway" v="footway"/>
  </way>
  <way id="30780992" version="2" timestamp="2009-04-16T09:32:04Z" uid="43863" user="Rundling" changeset="575479">
    <nd ref="305616633"/>
    <nd ref="305616634"/>
    <nd ref="305616641"/>
    <nd ref="280411548"/>
    <tag k="bicycle" v="yes"/>
    <tag k="created_by" v="Potlatch 0.10f"/>
    <tag k="foot" v="yes"/>
    <tag k="highway" v="footway"/>
  </way>
  <way id="30780992" version="3" timestamp="2009-04-16T09:36:25Z" uid="43863" user="Rundling" changeset="575479">
    <nd ref="305616633"/>
    <nd ref="305616634"/>
    <nd ref="305616641"/>
    <nd ref="377751953"/>
    <nd ref="280411548"/>
    <tag k="bicycle" v="yes"/>
    <tag k="created_by" v="Potlatch 0.10f"/>
    <tag k="foot" v="yes"/>
    <tag k="highway" v="footway"/>
  </way>
  <way id="30780992" version="4" timestamp="2009-04-16T09:36:42Z" uid="43863" user="Rundling" changeset="575479">
    <nd ref="305616633"/>
    <nd ref="305616634"/>
    <nd ref="305616641"/>
    <nd ref="377751953"/>
    <nd ref="280411548"/>
    <tag k="bicycle" v="yes"/>
    <tag k="created_by" v="Potlatch 0.10f"/>
    <tag k="foot" v="yes"/>
    <tag k="highway" v="footway"/>
  </way>
  <way id="30780992" version="5" timestamp="2009-04-22T10:30:17Z" uid="43863" user="Rundling" changeset="895926">
    <nd ref="305616633"/>
    <nd ref="380427962"/>
    <nd ref="305616634"/>
    <nd ref="305616641"/>
    <nd ref="377751953"/>
    <nd ref="280411548"/>
    <tag k="bicycle" v="yes"/>
    <tag k="created_by" v="Potlatch 0.10f"/>
    <tag k="foot" v="yes"/>
    <tag k="highway" v="footway"/>
  </way>
</osm>
