<?xml version='1.0' encoding='UTF-8'?>
<osm version="0.6" generator="libosmium/2.20.0">
  <way id="30820096" version="2" timestamp="2009-06-05T06:32:29Z" uid="20587" user="balrog-kun" changeset="1426667">
    <nd ref="342144556"/>
    <nd ref="342144554"/>
    <nd ref="342144551"/>
    <nd ref="342144549"/>
    <nd ref="342144690"/>
    <tag k="highway" v="residential"/>
    <tag k="name" v="Anielki"/>
    <tag k="source" v="UMP-PL, ./UMP-Warszawa/src/PRUSZKOW.ulice.txt"/>
  </way>
  <way id="30820113" version="2" timestamp="2009-06-05T06:32:30Z" uid="20587" user="balrog-kun" changeset="1426667">
    <nd ref="342144680"/>
    <nd ref="342144592"/>
    <nd ref="415875648"/>
    <nd ref="342144571"/>
    <tag k="highway" v="residential"/>
    <tag k="name" v="Ramzesa"/>
    <tag k="source" v="UMP-PL, ./UMP-Warszawa/src/PRUSZKOW.ulice.txt"/>
  </way>
  <way id="30820121" version="2" timestamp="2009-06-05T06:32:30Z" uid="20587" user="balrog-kun" changeset="1426667">
    <nd ref="342144564"/>
    <nd ref="342144591"/>
    <nd ref="415875297"/>
    <nd ref="415875296"/>
    <nd ref="342144676"/>
    <tag k="highway" v="residential"/>
    <tag k="name" v="Przy Księżycu"/>
    <tag k="source" v="UMP-PL, ./UMP-Warszawa/src/PRUSZKOW.ulice.txt"/>
  </way>
  <way id="30820134" version="2" timestamp="2009-06-05T08:51:17Z" uid="20587" user="balrog-kun" changeset="1427544">
    <nd ref="342144496"/>
    <nd ref="367357037"/>
    <nd ref="342144498"/>
    <nd ref="342144501"/>
    <nd ref="342144503"/>
    <nd ref="342144505"/>
    <nd ref="342142790"/>
    <tag k="highway" v="tertiary"/>
    <tag k="name" v="Plantowa"/>
    <tag k="source" v="UMP-PL, ./UMP-Warszawa/src/PRUSZKOW.ulice.txt"/>
  </way>
  <way id="30820134" version="3" timestamp="2011-04-10T18:00:01Z" uid="98542" user="wajak" changeset="7825647">
    <nd ref="342144496"/>
    <nd ref="367357037"/>
    <nd ref="342144498"/>
    <nd ref="342144501"/>
    <nd ref="342144503"/>
    <nd ref="342144505"/>
    <nd ref="1240150729"/>
    <nd ref="342142790"/>
    <tag k="highway" v="tertiary"/>
    <tag k="name" v="Plantowa"/>
    <tag k="source" v="UMP-PL, ./UMP-Warszawa/src/PRUSZKOW.ulice.txt"/>
  </way>
  <way id="30820134" version="4" timestamp="2011-05-20T18:56:10Z" uid="98542" user="wajak" changeset="8201249">
    <nd ref="342144496"/>
    <nd ref="367357037"/>
    <nd ref="1293707580"/>
    <nd ref="342144498"/>
    <nd ref="342144501"/>
    <nd ref="342144503"/>
    <nd ref="1293707598"/>
    <nd ref="1293707563"/>
    <nd ref="342144505"/>
    <nd ref="1240150729"/>
    <nd ref="342142790"/>
    <tag k="highway" v="tertiary"/>
    <tag k="name" v="Plantowa"/>
    <tag k="source" v="UMP-PL, ./UMP-Warszawa/src/PRUSZKOW.ulice.txt"/>
  </way>
  <way id="30820134" version="5" timestamp="2011-05-20T18:56:23Z" uid="98542" user="wajak" changeset="8201251">
    <nd ref="342144496"/>
    <nd ref="367357037"/>
    <nd ref="1293707580"/>
    <nd ref="342144498"/>
    <nd ref="342144501"/>
    <nd ref="342144503"/>
    <nd ref="1293707598"/>
    <nd ref="1293707563"/>
    <nd ref="342144505"/>
    <nd ref="1240150729"/>
    <nd ref="342142790"/>
    <tag k="highway" v="tertiary"/>
    <tag k="name" v="Plantowa"/>
    <tag k="surface" v="asphalt"/>
  </way>
  <way id="30820134" version="6" timestamp="2011-07-05T05:36:08Z" uid="479560" user="Pier_Domenico" changeset="8635872">
    <nd ref="342144496"/>
    <nd ref="367357037"/>
    <nd ref="1293707580"/>
    <nd ref="342144498"/>
    <nd ref="342144501"/>
    <nd ref="342144503"/>
    <nd ref="1293707598"/>
    <nd ref="1349988160"/>
    <nd ref="1293707563"/>
    <nd ref="342144505"/>
    <nd ref="1240150729"/>
    <nd ref="342142790"/>
    <tag k="highway" v="tertiary"/>
    <tag k="name" v="Plantowa"/>
    <tag k="surface" v="asphalt"/>
  </way>
  <way id="30820134" version="7" timestamp="2012-01-06T09:05:40Z" uid="98542" user="wajak" changeset="10309109">
    <nd ref="342144496"/>
    <nd ref="367357037"/>
    <tag k="highway" v="tertiary"/>
    <tag k="name" v="Plantowa"/>
    <tag k="surface" v="asphalt"/>
  </way>
  <way id="30820137" version="3" timestamp="2009-06-05T08:51:17Z" uid="20587" user="balrog-kun" changeset="1427544">
    <nd ref="342144599"/>
    <nd ref="342144506"/>
    <nd ref="342144604"/>
    <nd ref="342144655"/>
    <nd ref="342144496"/>
    <tag k="created_by" v="Merkaartor 0.13"/>
    <tag k="highway" v="residential"/>
    <tag k="name" v="Plantowa"/>
    <tag k="source" v="UMP-PL, ./UMP-Warszawa/src/PRUSZKOW.ulice.txt"/>
  </way>
  <way id="30820140" version="2" timestamp="2009-06-05T08:51:17Z" uid="20587" user="balrog-kun" changeset="1427544">
    <nd ref="342144509"/>
    <nd ref="342144511"/>
    <nd ref="342144538"/>
    <nd ref="342144540"/>
    <nd ref="342144542"/>
    <nd ref="342144547"/>
    <nd ref="342144422"/>
    <tag k="highway" v="residential"/>
    <tag k="source" v="UMP-PL, ./UMP-Warszawa/src/PRUSZKOW.ulice.txt"/>
  </way>
  <way id="30820140" version="3" timestamp="2011-03-07T21:18:51Z" uid="98542" user="wajak" changeset="7489010">
    <nd ref="342144509"/>
    <nd ref="342144511"/>
    <nd ref="342144538"/>
    <nd ref="342144540"/>
    <tag k="highway" v="service"/>
  </way>
  <way id="30820140" version="4" timestamp="2011-06-19T18:01:50Z" uid="98542" user="wajak" changeset="8487061">
    <nd ref="342144509"/>
    <nd ref="342144511"/>
    <nd ref="1315155027"/>
    <nd ref="342144538"/>
    <nd ref="342144540"/>
    <tag k="highway" v="living_street"/>
  </way>
  <way id="30820140" version="5" timestamp="2011-07-05T05:36:08Z" uid="479560" user="Pier_Domenico" changeset="8635872">
    <nd ref="342144509"/>
    <nd ref="1349988195"/>
    <nd ref="342144511"/>
    <nd ref="1315155027"/>
    <nd ref="342144538"/>
    <nd ref="342144540"/>
    <tag k="highway" v="living_street"/>
  </way>
  <way id="30820140" version="6" timestamp="2012-01-06T09:05:41Z" uid="98542" user="wajak" changeset="10309109">
    <nd ref="342144509"/>
    <nd ref="342144511"/>
    <tag k="highway" v="service"/>
  </way>
  <way id="30820148" version="2" timestamp="2009-06-05T10:46:22Z" uid="20587" user="balrog-kun" changeset="1428273">
    <nd ref="342141632"/>
    <nd ref="342144299"/>
    <nd ref="342144302"/>
    <nd ref="342144305"/>
    <nd ref="342144307"/>
    <nd ref="342144289"/>
    <nd ref="342144221"/>
    <tag k="highway" v="residential"/>
    <tag k="name" v="Andrzeja"/>
    <tag k="source" v="UMP-PL, ./UMP-Warszawa/src/PRUSZKOW.ulice.txt"/>
  </way>
  <way id="30820148" version="3" timestamp="2010-11-06T21:26:57Z" uid="98542" user="wajak" changeset="6306572">
    <nd ref="342141632"/>
    <nd ref="342144299"/>
    <nd ref="342144302"/>
    <nd ref="342144305"/>
    <nd ref="342144307"/>
    <nd ref="342144289"/>
    <tag k="highway" v="residential"/>
    <tag k="name" v="Andrzeja"/>
    <tag k="source" v="UMP-PL, ./UMP-Warszawa/src/PRUSZKOW.ulice.txt"/>
  </way>
  <way id="30820148" version="4" timestamp="2010-11-27T22:08:30Z" uid="98542" user="wajak" changeset="6473892">
    <nd ref="342141632"/>
    <nd ref="342144299"/>
    <nd ref="342144302"/>
    <nd ref="342144305"/>
    <nd ref="1009064222"/>
    <nd ref="342144307"/>
    <nd ref="342144289"/>
    <tag k="highway" v="residential"/>
    <tag k="name" v="Andrzeja"/>
    <tag k="source" v="UMP-PL, ./UMP-Warszawa/src/PRUSZKOW.ulice.txt"/>
  </way>
  <way id="30820148" version="5" timestamp="2010-12-01T13:40:08Z" uid="98542" user="wajak" changeset="6503811">
    <nd ref="342141632"/>
    <nd ref="342144299"/>
    <nd ref="342144302"/>
    <nd ref="342144305"/>
    <nd ref="1009064222"/>
    <nd ref="1014505058"/>
    <nd ref="342144307"/>
    <nd ref="1014505041"/>
    <nd ref="342144289"/>
    <tag k="highway" v="residential"/>
    <tag k="name" v="Andrzeja"/>
    <tag k="source" v="UMP-PL, ./UMP-Warszawa/src/PRUSZKOW.ulice.txt"/>
  </way>
  <way id="30820148" version="6" timestamp="2010-12-01T20:02:53Z" uid="98542" user="wajak" changeset="6507816">
    <nd ref="342141632"/>
    <nd ref="342144299"/>
    <nd ref="342144302"/>
    <nd ref="342144305"/>
    <nd ref="1009064222"/>
    <nd ref="1014505058"/>
    <nd ref="342144307"/>
    <nd ref="1014505041"/>
    <nd ref="1014954328"/>
    <nd ref="342144289"/>
    <tag k="highway" v="residential"/>
    <tag k="name" v="Andrzeja"/>
    <tag k="source" v="UMP-PL, ./UMP-Warszawa/src/PRUSZKOW.ulice.txt"/>
  </way>
  <way id="30820148" version="7" timestamp="2011-03-16T07:42:47Z" uid="98542" user="wajak" changeset="7573031">
    <nd ref="342141632"/>
    <nd ref="342144299"/>
    <nd ref="342144302"/>
    <nd ref="1203994255"/>
    <nd ref="342144305"/>
    <nd ref="1009064222"/>
    <nd ref="1014505058"/>
    <nd ref="342144307"/>
    <nd ref="1014505041"/>
    <nd ref="1014954328"/>
    <nd ref="342144289"/>
    <tag k="highway" v="residential"/>
    <tag k="name" v="Andrzeja"/>
    <tag k="source" v="UMP-PL, ./UMP-Warszawa/src/PRUSZKOW.ulice.txt"/>
  </way>
  <way id="30820148" version="8" timestamp="2011-05-30T06:51:10Z" uid="98542" user="wajak" changeset="8289095">
    <nd ref="342141632"/>
    <nd ref="342144299"/>
    <nd ref="342144302"/>
    <nd ref="1203994255"/>
    <nd ref="342144305"/>
    <nd ref="1009064222"/>
    <nd ref="1014505058"/>
    <tag k="highway" v="residential"/>
    <tag k="name" v="Andrzeja"/>
  </way>
  <way id="30820174" version="2" timestamp="2009-06-05T10:46:21Z" uid="20587" user="balrog-kun" changeset="1428273">
    <nd ref="38885887"/>
    <nd ref="342144258"/>
    <nd ref="342144256"/>
    <nd ref="415922376"/>
    <tag k="highway" v="residential"/>
    <tag k="name" v="Krokusowa"/>
    <tag k="surface" v="unpaved"/>
  </way>
  <way id="30820174" version="3" timestamp="2011-03-09T08:05:30Z" uid="98542" user="wajak" changeset="7501407"/>
  <way id="30820204" version="2" timestamp="2009-10-31T22:50:07Z" uid="20587" user="balrog-kun" changeset="3002253">
    <nd ref="342142785"/>
    <nd ref="342144821"/>
    <tag k="highway" v="residential"/>
    <tag k="name" v="Kazimierza Pułaskiego"/>
    <tag k="source" v="UMP-PL, ./UMP-Warszawa/src/PRUSZKOW.ulice.txt"/>
  </way>
  <way id="30820209" version="2" timestamp="2009-06-05T14:13:09Z" uid="20587" user="balrog-kun" changeset="1429641">
    <nd ref="342142454"/>
    <nd ref="415971624"/>
    <nd ref="342142233"/>
    <nd ref="415971613"/>
    <nd ref="415971612"/>
    <nd ref="415971611"/>
    <nd ref="415971581"/>
    <nd ref="342142341"/>
    <nd ref="342142460"/>
    <nd ref="342142449"/>
    <nd ref="342142452"/>
    <nd ref="342142401"/>
    <tag k="highway" v="residential"/>
    <tag k="name" v="Stefana Czarnieckiego"/>
  </way>
  <way id="30820209" version="3" timestamp="2010-12-11T18:55:55Z" uid="98542" user="wajak" changeset="6628120">
    <nd ref="342142454"/>
    <nd ref="1033726808"/>
    <nd ref="415971623"/>
    <tag k="highway" v="residential"/>
    <tag k="name" v="Stefana Czarnieckiego"/>
  </way>
  <way id="30820215" version="2" timestamp="2009-06-05T14:13:09Z" uid="20587" user="balrog-kun" changeset="1429641">
    <nd ref="342142230"/>
    <nd ref="342142467"/>
    <nd ref="342142343"/>
    <tag k="highway" v="residential"/>
    <tag k="name" v="Podbipięty"/>
    <tag k="source" v="UMP-PL, ./UMP-Warszawa/src/PRUSZKOW.ulice.txt"/>
  </way>
  <way id="30820218" version="2" timestamp="2009-06-05T14:13:18Z" uid="20587" user="balrog-kun" changeset="1429641"/>
  <way id="30820222" version="2" timestamp="2009-06-05T14:13:08Z" uid="20587" user="balrog-kun" changeset="1429641">
    <nd ref="342142161"/>
    <nd ref="342142449"/>
    <tag k="highway" v="residential"/>
    <tag k="name" v="Raszyńska"/>
    <tag k="source" v="UMP-PL, ./UMP-Warszawa/src/PRUSZKOW.ulice.txt"/>
  </way>
  <way id="30820222" version="3" timestamp="2011-10-29T15:43:31Z" uid="98542" user="wajak" changeset="9685648">
    <nd ref="342142161"/>
    <nd ref="342142449"/>
    <tag k="highway" v="residential"/>
    <tag k="name" v="Raszyńska"/>
    <tag k="surface" v="paving_stones"/>
  </way>
  <way id="30820225" version="2" timestamp="2009-06-05T14:13:16Z" uid="20587" user="balrog-kun" changeset="1429641">
    <nd ref="342142163"/>
    <nd ref="342142460"/>
    <nd ref="342142470"/>
    <tag k="highway" v="residential"/>
    <tag k="name" v="Zamienna"/>
    <tag k="source" v="UMP-PL, ./UMP-Warszawa/src/PRUSZKOW.ulice.txt"/>
  </way>
  <way id="30820225" version="3" timestamp="2011-03-29T10:52:06Z" uid="98542" user="wajak" changeset="7705581">
    <nd ref="342142163"/>
    <nd ref="342142460"/>
    <nd ref="1224124248"/>
    <tag k="highway" v="residential"/>
    <tag k="name" v="Zamienna"/>
    <tag k="source" v="UMP-PL, ./UMP-Warszawa/src/PRUSZKOW.ulice.txt"/>
  </way>
  <way id="30820225" version="4" timestamp="2011-10-29T15:43:36Z" uid="98542" user="wajak" changeset="9685648">
    <nd ref="342142163"/>
    <nd ref="342142460"/>
    <nd ref="1224124248"/>
    <tag k="highway" v="residential"/>
    <tag k="name" v="Zamienna"/>
    <tag k="surface" v="paving_stones"/>
  </way>
  <way id="30820229" version="2" timestamp="2009-06-05T08:51:17Z" uid="20587" user="balrog-kun" changeset="1427544">
    <nd ref="342144705"/>
    <nd ref="342144723"/>
    <tag k="highway" v="residential"/>
    <tag k="source" v="UMP-PL, ./UMP-Warszawa/src/PRUSZKOW.ulice.txt"/>
  </way>
  <way id="30820231" version="2" timestamp="2009-06-05T14:13:16Z" uid="20587" user="balrog-kun" changeset="1429641">
    <nd ref="342142290"/>
    <nd ref="342142452"/>
    <nd ref="342142463"/>
    <tag k="highway" v="residential"/>
    <tag k="name" v="Lazurowa"/>
    <tag k="source" v="UMP-PL, ./UMP-Warszawa/src/PRUSZKOW.ulice.txt"/>
    <tag k="surface" v="unpaved"/>
  </way>
  <way id="30820231" version="3" timestamp="2011-03-29T10:52:02Z" uid="98542" user="wajak" changeset="7705581">
    <nd ref="342142290"/>
    <nd ref="342142452"/>
    <nd ref="1224124249"/>
    <tag k="highway" v="residential"/>
    <tag k="name" v="Lazurowa"/>
    <tag k="source" v="UMP-PL, ./UMP-Warszawa/src/PRUSZKOW.ulice.txt"/>
    <tag k="surface" v="unpaved"/>
  </way>
  <way id="30820231" version="4" timestamp="2011-07-27T20:26:08Z" uid="98542" user="wajak" changeset="8848920">
    <nd ref="342142290"/>
    <nd ref="342142452"/>
    <nd ref="1224124249"/>
    <tag k="highway" v="residential"/>
    <tag k="name" v="Lazurowa"/>
    <tag k="surface" v="paving_stones"/>
  </way>
  <way id="30820240" version="3" timestamp="2009-06-05T08:51:18Z" uid="20587" user="balrog-kun" changeset="1427544">
    <nd ref="342145205"/>
    <nd ref="342145175"/>
    <nd ref="342145124"/>
    <nd ref="342144597"/>
    <nd ref="342145121"/>
    <nd ref="342145117"/>
    <nd ref="367150623"/>
    <nd ref="342145387"/>
    <tag k="created_by" v="Merkaartor 0.13"/>
    <tag k="highway" v="track"/>
    <tag k="name" v="Plantowa"/>
    <tag k="source" v="UMP-PL, ./UMP-Warszawa/src/PRUSZKOW.ulice.txt"/>
    <tag k="surface" v="unpaved"/>
  </way>
  <way id="30820240" version="4" timestamp="2011-03-07T21:18:50Z" uid="98542" user="wajak" changeset="7489010">
    <nd ref="342145205"/>
    <nd ref="342145175"/>
    <nd ref="342145124"/>
    <nd ref="342144597"/>
    <tag k="highway" v="residential"/>
    <tag k="name" v="Plantowa"/>
    <tag k="surface" v="unpaved"/>
  </way>
  <way id="30820257" version="4" timestamp="2009-10-31T22:50:05Z" uid="20587" user="balrog-kun" changeset="3002253">
    <nd ref="342142553"/>
    <nd ref="342142555"/>
    <nd ref="38885864"/>
    <nd ref="342142578"/>
    <nd ref="410591106"/>
    <nd ref="342142429"/>
    <tag k="highway" v="residential"/>
    <tag k="name" v="Józefa Ignacego Kraszewskiego"/>
    <tag k="source" v="UMP-PL, ./UMP-Warszawa/src/PRUSZKOW.ulice.txt"/>
  </way>
  <way id="30820257" version="5" timestamp="2010-06-19T22:58:20Z" uid="243642" user="krzysiek" changeset="5028631">
    <nd ref="342142553"/>
    <nd ref="342142555"/>
    <nd ref="38885864"/>
    <nd ref="342142578"/>
    <nd ref="410591106"/>
    <nd ref="342142429"/>
    <tag k="highway" v="residential"/>
    <tag k="name" v="Józefa Ignacego Kraszewskiego"/>
    <tag k="oneway" v="yes"/>
    <tag k="source" v="UMP-PL, ./UMP-Warszawa/src/PRUSZKOW.ulice.txt"/>
  </way>
  <way id="30820257" version="6" timestamp="2011-02-20T10:01:00Z" uid="98542" user="wajak" changeset="7340160">
    <nd ref="342142553"/>
    <nd ref="342142555"/>
    <nd ref="38885864"/>
    <nd ref="342142578"/>
    <nd ref="410591106"/>
    <nd ref="342142429"/>
    <tag k="highway" v="residential"/>
    <tag k="name" v="Józefa Ignacego Kraszewskiego"/>
    <tag k="oneway" v="yes"/>
    <tag k="phone" v="+48227588674"/>
  </way>
  <way id="30820257" version="7" timestamp="2011-03-03T08:49:07Z" uid="98542" user="wajak" changeset="7443974">
    <nd ref="342142553"/>
    <nd ref="342142555"/>
    <nd ref="38885864"/>
    <nd ref="342142578"/>
    <nd ref="410591106"/>
    <nd ref="342142429"/>
    <tag k="highway" v="residential"/>
    <tag k="name" v="Józefa Ignacego Kraszewskiego"/>
    <tag k="oneway" v="yes"/>
  </way>
  <way id="30820257" version="8" timestamp="2011-04-02T17:52:42Z" uid="88516" user="mateuszzz88" changeset="7745674">
    <nd ref="342142553"/>
    <nd ref="1229546768"/>
    <nd ref="1229546766"/>
    <nd ref="342142555"/>
    <nd ref="38885864"/>
    <nd ref="342142578"/>
    <nd ref="410591106"/>
    <nd ref="342142429"/>
    <tag k="highway" v="residential"/>
    <tag k="name" v="Józefa Ignacego Kraszewskiego"/>
    <tag k="oneway" v="yes"/>
  </way>
  <way id="30820257" version="9" timestamp="2011-09-20T20:04:55Z" uid="98542" user="wajak" changeset="9355295">
    <nd ref="342142553"/>
    <nd ref="1229546768"/>
    <nd ref="1229546766"/>
    <nd ref="342142555"/>
    <nd ref="38885864"/>
    <nd ref="342142578"/>
    <nd ref="410591106"/>
    <nd ref="342142429"/>
    <tag k="highway" v="residential"/>
    <tag k="maxspeed" v="40"/>
    <tag k="maxweight" v="3.5"/>
    <tag k="name" v="Józefa Ignacego Kraszewskiego"/>
    <tag k="oneway" v="yes"/>
    <tag k="surface" v="paving_stones"/>
  </way>
  <way id="30820257" version="10" timestamp="2011-12-31T13:15:06Z" uid="574795" user="mgk2" changeset="10254567">
    <nd ref="342142553"/>
    <nd ref="1571113234"/>
    <nd ref="1229546768"/>
    <nd ref="1229546766"/>
    <nd ref="342142555"/>
    <nd ref="38885864"/>
    <nd ref="342142578"/>
    <nd ref="410591106"/>
    <nd ref="342142429"/>
    <tag k="highway" v="residential"/>
    <tag k="maxspeed" v="40"/>
    <tag k="maxweight" v="3.5"/>
    <tag k="name" v="Józefa Ignacego Kraszewskiego"/>
    <tag k="oneway" v="yes"/>
    <tag k="surface" v="paving_stones"/>
  </way>
  <way id="30820268" version="2" timestamp="2009-10-31T22:50:06Z" uid="20587" user="balrog-kun" changeset="3002253">
    <nd ref="342142578"/>
    <nd ref="342142639"/>
    <tag k="highway" v="residential"/>
    <tag k="name" v="Hrabiego Antoniego Potulickiego"/>
    <tag k="source" v="UMP-PL, ./UMP-Warszawa/src/PRUSZKOW.ulice.txt"/>
  </way>
  <way id="30820268" version="3" timestamp="2011-03-04T20:48:27Z" uid="98542" user="wajak" changeset="7457914">
    <nd ref="342142578"/>
    <nd ref="342142639"/>
    <tag k="highway" v="residential"/>
    <tag k="name" v="Hrabiego Antoniego Potulickiego"/>
    <tag k="oneway" v="yes"/>
  </way>
  <way id="30820284" version="3" timestamp="2009-10-31T22:50:09Z" uid="20587" user="balrog-kun" changeset="3002253">
    <nd ref="410591074"/>
    <nd ref="410591073"/>
    <nd ref="410591071"/>
    <nd ref="342142533"/>
    <nd ref="342142539"/>
    <nd ref="342142555"/>
    <nd ref="342142644"/>
    <nd ref="342145446"/>
    <tag k="highway" v="residential"/>
    <tag k="name" v="Majora Henryka Dobrzańskiego &quot;Hubala&quot;"/>
    <tag k="source" v="UMP-PL, ./UMP-Warszawa/src/PRUSZKOW.ulice.txt"/>
  </way>
  <way id="30820284" version="4" timestamp="2011-03-04T20:48:27Z" uid="98542" user="wajak" changeset="7457914">
    <nd ref="410591074"/>
    <nd ref="410591073"/>
    <tag k="highway" v="service"/>
  </way>
  <way id="30820287" version="2" timestamp="2009-10-31T22:50:18Z" uid="20587" user="balrog-kun" changeset="3002253">
    <nd ref="342142537"/>
    <nd ref="342142524"/>
    <nd ref="342142539"/>
    <nd ref="342142541"/>
    <tag k="highway" v="residential"/>
    <tag k="name" v="Mikołaja Kopernika"/>
    <tag k="source" v="UMP-PL, ./UMP-Warszawa/src/PRUSZKOW.ulice.txt"/>
  </way>
  <way id="30820287" version="3" timestamp="2011-03-04T20:48:27Z" uid="98542" user="wajak" changeset="7457914">
    <nd ref="342142537"/>
    <nd ref="342142524"/>
    <nd ref="342142539"/>
    <nd ref="1186346912"/>
    <nd ref="342142541"/>
    <tag k="highway" v="residential"/>
    <tag k="name" v="Mikołaja Kopernika"/>
    <tag k="source" v="UMP-PL, ./UMP-Warszawa/src/PRUSZKOW.ulice.txt"/>
  </way>
  <way id="30820287" version="4" timestamp="2012-01-15T14:19:08Z" uid="98542" user="wajak" changeset="10398420"/>
  <way id="30820289" version="2" timestamp="2009-06-05T14:13:10Z" uid="20587" user="balrog-kun" changeset="1429641">
    <nd ref="342142335"/>
    <nd ref="342142470"/>
    <nd ref="342142463"/>
    <tag k="highway" v="residential"/>
    <tag k="name" v="Zielona"/>
  </way>
  <way id="30820289" version="3" timestamp="2011-03-29T10:52:10Z" uid="98542" user="wajak" changeset="7705581">
    <nd ref="342142335"/>
    <nd ref="342142470"/>
    <nd ref="342142463"/>
    <tag k="highway" v="residential"/>
    <tag k="name" v="Zielona"/>
    <tag k="surface" v="unpaved"/>
  </way>
  <way id="30820290" version="2" timestamp="2009-10-31T22:49:58Z" uid="20587" user="balrog-kun" changeset="3002253">
    <nd ref="342142743"/>
    <nd ref="342142738"/>
    <nd ref="342142746"/>
    <nd ref="342142771"/>
    <tag k="highway" v="residential"/>
    <tag k="name" v="Stanisława Moniuszki"/>
    <tag k="source" v="UMP-PL, ./UMP-Warszawa/src/PRUSZKOW.ulice.txt"/>
  </way>
  <way id="30820295" version="3" timestamp="2009-06-05T06:32:26Z" uid="20587" user="balrog-kun" changeset="1426667">
    <nd ref="342144662"/>
    <nd ref="415875655"/>
    <nd ref="60755022"/>
    <tag k="highway" v="residential"/>
    <tag k="name" v="Emancypantek"/>
    <tag k="source" v="UMP-PL, ./UMP-Warszawa/src/PRUSZKOW.ulice.txt"/>
  </way>
  <way id="30820299" version="3" timestamp="2009-10-31T22:49:58Z" uid="20587" user="balrog-kun" changeset="3002253">
    <nd ref="342142804"/>
    <nd ref="342142755"/>
    <nd ref="342142706"/>
    <nd ref="342142743"/>
    <nd ref="342142769"/>
    <nd ref="342142698"/>
    <tag k="highway" v="residential"/>
    <tag k="maxspeed" v="30"/>
    <tag k="name" v="Fryderyka Chopina"/>
    <tag k="oneway" v="yes"/>
    <tag k="source" v="UMP-PL, ./UMP-Warszawa/src/PRUSZKOW.ulice.txt"/>
  </way>
  <way id="30820299" version="4" timestamp="2010-09-28T08:04:14Z" uid="98542" user="wajak" changeset="5901485">
    <nd ref="342142804"/>
    <nd ref="342142755"/>
    <nd ref="342142706"/>
    <nd ref="342142743"/>
    <nd ref="342142769"/>
    <nd ref="342142698"/>
    <tag k="highway" v="tertiary"/>
    <tag k="maxspeed" v="30"/>
    <tag k="name" v="Fryderyka Chopina"/>
    <tag k="oneway" v="yes"/>
    <tag k="source" v="UMP-PL, ./UMP-Warszawa/src/PRUSZKOW.ulice.txt"/>
  </way>
  <way id="30820299" version="5" timestamp="2012-01-06T09:05:39Z" uid="98542" user="wajak" changeset="10309109">
    <nd ref="342142804"/>
    <nd ref="342142755"/>
    <nd ref="342142706"/>
    <nd ref="342142743"/>
    <nd ref="342142769"/>
    <nd ref="342142698"/>
    <tag k="highway" v="tertiary"/>
    <tag k="maxspeed" v="30"/>
    <tag k="name" v="Fryderyka Chopina"/>
    <tag k="oneway" v="yes"/>
  </way>
  <way id="30820299" version="6" timestamp="2012-03-11T12:34:34Z" uid="98542" user="wajak" changeset="10942248"/>
  <way id="30820301" version="2" timestamp="2009-10-31T22:50:06Z" uid="20587" user="balrog-kun" changeset="3002253">
    <nd ref="342142776"/>
    <nd ref="342142796"/>
    <nd ref="342142798"/>
    <nd ref="342142800"/>
    <nd ref="342142750"/>
    <nd ref="342142748"/>
    <nd ref="342142755"/>
    <tag k="highway" v="residential"/>
    <tag k="name" v="Mikołaja Reja"/>
    <tag k="source" v="UMP-PL, ./UMP-Warszawa/src/PRUSZKOW.ulice.txt"/>
  </way>
  <way id="30820301" version="3" timestamp="2011-04-10T17:59:58Z" uid="98542" user="wajak" changeset="7825647">
    <nd ref="342142776"/>
    <nd ref="342142796"/>
    <nd ref="342142798"/>
    <nd ref="342142800"/>
    <nd ref="342142750"/>
    <nd ref="342142748"/>
    <nd ref="342142755"/>
    <tag k="highway" v="residential"/>
    <tag k="name" v="Mikołaja Reja"/>
  </way>
  <way id="30820304" version="2" timestamp="2009-10-31T22:50:11Z" uid="20587" user="balrog-kun" changeset="3002253">
    <nd ref="342142753"/>
    <nd ref="342142741"/>
    <nd ref="342142738"/>
    <nd ref="342142748"/>
    <nd ref="342142780"/>
    <tag k="highway" v="residential"/>
    <tag k="name" v="Ignacego Daszyńskiego"/>
    <tag k="source" v="UMP-PL, ./UMP-Warszawa/src/PRUSZKOW.ulice.txt"/>
  </way>
  <way id="30820304" version="3" timestamp="2010-01-02T04:29:58Z" uid="163896" user="Zbigniew Czernik" changeset="3515832">
    <nd ref="342142753"/>
    <nd ref="342142741"/>
    <nd ref="602895134"/>
    <nd ref="342142738"/>
    <nd ref="342142748"/>
    <nd ref="342142780"/>
    <tag k="highway" v="residential"/>
    <tag k="name" v="Ignacego Daszyńskiego"/>
    <tag k="source" v="UMP-PL, ./UMP-Warszawa/src/PRUSZKOW.ulice.txt"/>
  </way>
  <way id="30820307" version="3" timestamp="2009-10-31T22:50:11Z" uid="20587" user="balrog-kun" changeset="3002253">
    <nd ref="342142676"/>
    <nd ref="342142674"/>
    <nd ref="342142785"/>
    <nd ref="342142788"/>
    <nd ref="342142790"/>
    <tag k="highway" v="tertiary"/>
    <tag k="name" v="Juliana Gomulińskiego"/>
    <tag k="source" v="UMP-PL, ./UMP-Warszawa/src/PRUSZKOW.ulice.txt"/>
  </way>
  <way id="30820307" version="4" timestamp="2010-09-10T08:43:36Z" uid="344841" user="jacynek" changeset="5739216">
    <nd ref="342142676"/>
    <nd ref="342142674"/>
    <nd ref="342142785"/>
    <nd ref="342142788"/>
    <nd ref="342142790"/>
    <tag k="highway" v="tertiary"/>
    <tag k="name" v="Powstańców"/>
    <tag k="source" v="UMP-PL, ./UMP-Warszawa/src/PRUSZKOW.ulice.txt"/>
  </way>
  <way id="30820307" version="5" timestamp="2011-05-20T18:56:09Z" uid="98542" user="wajak" changeset="8201249">
    <nd ref="342142676"/>
    <nd ref="342142674"/>
    <nd ref="342142785"/>
    <nd ref="1293707583"/>
    <nd ref="342142788"/>
    <nd ref="342142790"/>
    <tag k="highway" v="tertiary"/>
    <tag k="name" v="Powstańców"/>
    <tag k="source" v="UMP-PL, ./UMP-Warszawa/src/PRUSZKOW.ulice.txt"/>
  </way>
  <way id="30820307" version="6" timestamp="2011-06-19T18:01:51Z" uid="98542" user="wajak" changeset="8487061">
    <nd ref="342142676"/>
    <nd ref="342142674"/>
    <nd ref="342142785"/>
    <nd ref="1293707583"/>
    <nd ref="342142788"/>
    <nd ref="1331136715"/>
    <nd ref="342142790"/>
    <tag k="highway" v="tertiary"/>
    <tag k="name" v="Powstańców"/>
    <tag k="source" v="UMP-PL, ./UMP-Warszawa/src/PRUSZKOW.ulice.txt"/>
  </way>
  <way id="30820307" version="7" timestamp="2012-02-11T17:19:53Z" uid="98542" user="wajak" changeset="10655045">
    <nd ref="342142676"/>
    <nd ref="342142674"/>
    <nd ref="342142785"/>
    <nd ref="1293707583"/>
    <nd ref="342142788"/>
    <nd ref="1331136715"/>
    <nd ref="342142790"/>
    <tag k="highway" v="tertiary"/>
    <tag k="name" v="Powstańców"/>
  </way>
  <way id="30820315" version="4" timestamp="2009-10-31T22:50:09Z" uid="20587" user="balrog-kun" changeset="3002253">
    <nd ref="342142667"/>
    <nd ref="370877167"/>
    <nd ref="342142685"/>
    <nd ref="342142683"/>
    <nd ref="342142680"/>
    <tag k="highway" v="tertiary"/>
    <tag k="name" v="Juliana Gomulińskiego"/>
    <tag k="source" v="UMP-PL, ./UMP-Warszawa/src/PRUSZKOW.ulice.txt"/>
  </way>
  <way id="30820315" version="5" timestamp="2010-10-30T17:50:14Z" uid="98542" user="wajak" changeset="6231477">
    <nd ref="342142667"/>
    <nd ref="342142683"/>
    <nd ref="342142680"/>
    <tag k="highway" v="tertiary"/>
    <tag k="name" v="Juliana Gomulińskiego"/>
    <tag k="source" v="UMP-PL, ./UMP-Warszawa/src/PRUSZKOW.ulice.txt"/>
  </way>
  <way id="30820315" version="6" timestamp="2011-01-29T17:21:41Z" uid="98542" user="wajak" changeset="7124713">
    <nd ref="342142667"/>
    <nd ref="1126463246"/>
    <nd ref="1126463240"/>
    <nd ref="342142680"/>
    <tag k="highway" v="tertiary"/>
    <tag k="name" v="Juliana Gomulińskiego"/>
    <tag k="source" v="UMP-PL, ./UMP-Warszawa/src/PRUSZKOW.ulice.txt"/>
  </way>
  <way id="30820315" version="7" timestamp="2011-04-10T17:59:59Z" uid="98542" user="wajak" changeset="7825647">
    <nd ref="342142667"/>
    <nd ref="1126463246"/>
    <nd ref="1240150719"/>
    <nd ref="342142680"/>
    <tag k="highway" v="tertiary"/>
    <tag k="name" v="Juliana Gomulińskiego"/>
    <tag k="source" v="UMP-PL, ./UMP-Warszawa/src/PRUSZKOW.ulice.txt"/>
  </way>
  <way id="30820315" version="8" timestamp="2012-02-11T17:19:46Z" uid="98542" user="wajak" changeset="10655045">
    <nd ref="342142667"/>
    <nd ref="1126463246"/>
    <nd ref="1240150719"/>
    <nd ref="342142680"/>
    <tag k="highway" v="tertiary"/>
    <tag k="name" v="Juliana Gomulińskiego"/>
  </way>
  <way id="30820317" version="2" timestamp="2009-06-05T08:07:29Z" uid="20587" user="balrog-kun" changeset="1427249">
    <nd ref="342144018"/>
    <nd ref="415896969"/>
    <nd ref="415896970"/>
    <nd ref="415896971"/>
    <nd ref="342144174"/>
    <nd ref="342144169"/>
    <nd ref="342144030"/>
    <nd ref="342143959"/>
    <tag k="highway" v="residential"/>
    <tag k="name" v="Tadeusza"/>
    <tag k="source" v="UMP-PL, ./UMP-Warszawa/src/PRUSZKOW.ulice.txt"/>
  </way>
  <way id="30820319" version="6" timestamp="2009-06-05T06:32:27Z" uid="20587" user="balrog-kun" changeset="1426667">
    <nd ref="60755022"/>
    <nd ref="367148557"/>
    <nd ref="342142722"/>
    <nd ref="415875279"/>
    <nd ref="342142712"/>
    <nd ref="342142716"/>
    <nd ref="342142671"/>
    <nd ref="392208075"/>
    <nd ref="342142667"/>
    <tag k="highway" v="tertiary"/>
    <tag k="name" v="Działkowa"/>
    <tag k="source" v="UMP-PL, ./UMP-Warszawa/src/PRUSZKOW.ulice.txt"/>
  </way>
  <way id="30820319" version="7" timestamp="2011-02-06T12:57:12Z" uid="98542" user="wajak" changeset="7203184">
    <nd ref="60755022"/>
    <nd ref="367148557"/>
    <nd ref="342142722"/>
    <nd ref="415875279"/>
    <nd ref="342142712"/>
    <nd ref="1139023013"/>
    <nd ref="342142716"/>
    <nd ref="342142671"/>
    <nd ref="392208075"/>
    <nd ref="342142667"/>
    <tag k="highway" v="tertiary"/>
    <tag k="name" v="Działkowa"/>
    <tag k="source" v="UMP-PL, ./UMP-Warszawa/src/PRUSZKOW.ulice.txt"/>
  </way>
  <way id="30820319" version="8" timestamp="2011-04-10T18:00:12Z" uid="98542" user="wajak" changeset="7825647">
    <nd ref="60755022"/>
    <nd ref="367148557"/>
    <nd ref="342142722"/>
    <nd ref="415875279"/>
    <nd ref="342142712"/>
    <nd ref="1139023013"/>
    <nd ref="342142716"/>
    <nd ref="342142671"/>
    <nd ref="392208075"/>
    <nd ref="1240150755"/>
    <nd ref="342142667"/>
    <tag k="highway" v="tertiary"/>
    <tag k="name" v="Działkowa"/>
    <tag k="source" v="UMP-PL, ./UMP-Warszawa/src/PRUSZKOW.ulice.txt"/>
  </way>
  <way id="30820319" version="9" timestamp="2012-01-24T07:30:35Z" uid="98542" user="wajak" changeset="10481932">
    <nd ref="60755022"/>
    <nd ref="367148557"/>
    <nd ref="1603170119"/>
    <nd ref="342142722"/>
    <nd ref="415875279"/>
    <nd ref="342142712"/>
    <nd ref="1139023013"/>
    <nd ref="342142716"/>
    <nd ref="342142671"/>
    <nd ref="392208075"/>
    <nd ref="1240150755"/>
    <nd ref="342142667"/>
    <tag k="highway" v="tertiary"/>
    <tag k="name" v="Działkowa"/>
    <tag k="surface" v="asphalt"/>
  </way>
  <way id="30820320" version="2" timestamp="2009-06-05T08:07:30Z" uid="20587" user="balrog-kun" changeset="1427249">
    <nd ref="342143957"/>
    <nd ref="342144032"/>
    <nd ref="342143959"/>
    <nd ref="342144025"/>
    <nd ref="342144156"/>
    <nd ref="342143955"/>
    <nd ref="342143952"/>
    <nd ref="342144013"/>
    <nd ref="342144011"/>
    <nd ref="342144007"/>
    <nd ref="342143962"/>
    <nd ref="342141627"/>
    <tag k="highway" v="residential"/>
    <tag k="name" v="Ireny"/>
  </way>
  <way id="30820320" version="3" timestamp="2009-06-05T10:46:20Z" uid="20587" user="balrog-kun" changeset="1428273">
    <nd ref="342143957"/>
    <nd ref="342144032"/>
    <nd ref="342143959"/>
    <nd ref="342144025"/>
    <nd ref="342144156"/>
    <nd ref="342143955"/>
    <nd ref="342143952"/>
    <nd ref="342144013"/>
    <nd ref="342144011"/>
    <nd ref="342144007"/>
    <nd ref="415922361"/>
    <nd ref="415922369"/>
    <nd ref="415922370"/>
    <nd ref="342143962"/>
    <nd ref="342141627"/>
    <tag k="highway" v="residential"/>
    <tag k="name" v="Ireny"/>
  </way>
  <way id="30820320" version="4" timestamp="2011-01-30T19:21:22Z" uid="98542" user="wajak" changeset="7138375">
    <nd ref="342143957"/>
    <nd ref="342144032"/>
    <nd ref="342143959"/>
    <nd ref="342144156"/>
    <nd ref="342143955"/>
    <nd ref="342143952"/>
    <nd ref="342144013"/>
    <nd ref="342144011"/>
    <nd ref="342144007"/>
    <nd ref="415922361"/>
    <nd ref="415922369"/>
    <nd ref="415922370"/>
    <nd ref="342143962"/>
    <nd ref="342141627"/>
    <tag k="highway" v="tertiary"/>
    <tag k="name" v="Ireny"/>
  </way>
  <way id="30820320" version="5" timestamp="2012-03-06T20:53:05Z" uid="98542" user="wajak" changeset="10894441">
    <nd ref="342143957"/>
    <nd ref="342144032"/>
    <nd ref="342143959"/>
    <nd ref="342144156"/>
    <nd ref="342143955"/>
    <nd ref="342143952"/>
    <nd ref="342144013"/>
    <nd ref="342144011"/>
    <nd ref="342144007"/>
    <nd ref="415922361"/>
    <nd ref="415922369"/>
    <nd ref="415922370"/>
    <nd ref="342143962"/>
    <nd ref="342141627"/>
    <tag k="highway" v="residential"/>
    <tag k="name" v="Ireny"/>
  </way>
  <way id="30820321" version="2" timestamp="2009-10-31T22:50:03Z" uid="20587" user="balrog-kun" changeset="3002253">
    <nd ref="342142704"/>
    <nd ref="342145059"/>
    <nd ref="342145009"/>
    <nd ref="342142755"/>
    <tag k="highway" v="residential"/>
    <tag k="name" v="Słonia Trąbalskiego"/>
    <tag k="source" v="UMP-PL, ./UMP-Warszawa/src/PRUSZKOW.ulice.txt"/>
  </way>
  <way id="30820321" version="3" timestamp="2011-04-10T17:59:54Z" uid="98542" user="wajak" changeset="7825647">
    <nd ref="342142704"/>
    <nd ref="342145059"/>
    <nd ref="342145009"/>
    <nd ref="342142755"/>
    <tag k="highway" v="residential"/>
    <tag k="name" v="Słonia Trąbalskiego"/>
    <tag k="oneway" v="yes"/>
  </way>
  <way id="30820322" version="3" timestamp="2009-06-05T06:32:24Z" uid="20587" user="balrog-kun" changeset="1426667">
    <nd ref="371781028"/>
    <nd ref="415875720"/>
    <nd ref="342144176"/>
    <nd ref="342144178"/>
    <nd ref="342144181"/>
    <nd ref="342144183"/>
    <nd ref="342144186"/>
    <nd ref="342144188"/>
    <nd ref="342144191"/>
    <nd ref="342144193"/>
    <nd ref="342144151"/>
    <nd ref="342144154"/>
    <nd ref="342144156"/>
    <tag k="created_by" v="Merkaartor 0.13"/>
    <tag k="highway" v="residential"/>
    <tag k="name" v="Ryszarda"/>
    <tag k="source" v="UMP-PL, ./UMP-Warszawa/src/PRUSZKOW.ulice.txt"/>
  </way>
  <way id="30820322" version="4" timestamp="2009-06-05T07:51:05Z" uid="20587" user="balrog-kun" changeset="1427165">
    <nd ref="371781028"/>
    <nd ref="415875720"/>
    <nd ref="342144176"/>
    <nd ref="342144178"/>
    <nd ref="342144181"/>
    <nd ref="342144183"/>
    <nd ref="342144186"/>
    <nd ref="342144188"/>
    <nd ref="342144191"/>
    <nd ref="342144193"/>
    <nd ref="342144151"/>
    <nd ref="342144154"/>
    <nd ref="342144156"/>
    <tag k="created_by" v="Merkaartor 0.13"/>
    <tag k="highway" v="residential"/>
    <tag k="name" v="Ryszarda"/>
  </way>
  <way id="30820322" version="5" timestamp="2009-06-05T08:07:29Z" uid="20587" user="balrog-kun" changeset="1427249">
    <nd ref="371781028"/>
    <nd ref="415875720"/>
    <nd ref="342144176"/>
    <nd ref="342144178"/>
    <nd ref="342144181"/>
    <nd ref="342144183"/>
    <nd ref="342144186"/>
    <nd ref="342144188"/>
    <nd ref="342144191"/>
    <nd ref="342144193"/>
    <nd ref="342144151"/>
    <nd ref="415896972"/>
    <nd ref="342144154"/>
    <nd ref="342144156"/>
    <tag k="created_by" v="Merkaartor 0.13"/>
    <tag k="highway" v="residential"/>
    <tag k="name" v="Ryszarda"/>
  </way>
  <way id="30820322" version="6" timestamp="2011-01-30T19:21:42Z" uid="98542" user="wajak" changeset="7138375">
    <nd ref="371781028"/>
    <nd ref="415875720"/>
    <nd ref="342144176"/>
    <nd ref="342144178"/>
    <nd ref="342144181"/>
    <nd ref="342144183"/>
    <nd ref="342144186"/>
    <nd ref="342144188"/>
    <nd ref="342144191"/>
    <nd ref="342144193"/>
    <nd ref="342144151"/>
    <nd ref="342144154"/>
    <nd ref="342144156"/>
    <tag k="highway" v="residential"/>
    <tag k="name" v="Ryszarda"/>
  </way>
  <way id="30820323" version="2" timestamp="2009-06-05T10:46:22Z" uid="20587" user="balrog-kun" changeset="1428273">
    <nd ref="342145016"/>
    <nd ref="342145019"/>
    <nd ref="342145035"/>
    <tag k="highway" v="residential"/>
    <tag k="name" v="Konwaliowa"/>
  </way>
  <way id="30820325" version="2" timestamp="2009-06-05T10:46:22Z" uid="20587" user="balrog-kun" changeset="1428273">
    <nd ref="342145014"/>
    <nd ref="342145030"/>
    <nd ref="415922377"/>
    <tag k="highway" v="residential"/>
    <tag k="name" v="Tulipanowa"/>
  </way>
  <way id="30820325" version="3" timestamp="2011-03-09T08:05:21Z" uid="98542" user="wajak" changeset="7501407">
    <nd ref="342145014"/>
    <nd ref="342145030"/>
    <nd ref="1193851777"/>
    <tag k="highway" v="residential"/>
    <tag k="name" v="Tulipanowa"/>
  </way>
  <way id="30820326" version="2" timestamp="2009-06-05T08:07:29Z" uid="20587" user="balrog-kun" changeset="1427249">
    <nd ref="342144171"/>
    <nd ref="342144174"/>
    <nd ref="342144191"/>
    <tag k="highway" v="residential"/>
    <tag k="name" v="Stanisława"/>
  </way>
  <way id="30820329" version="2" timestamp="2009-06-05T08:07:29Z" uid="20587" user="balrog-kun" changeset="1427249">
    <nd ref="342145443"/>
    <nd ref="342144023"/>
    <nd ref="415896967"/>
    <nd ref="415896968"/>
    <nd ref="342144020"/>
    <nd ref="342144018"/>
    <nd ref="342144188"/>
    <tag k="highway" v="residential"/>
    <tag k="name" v="Waldemara"/>
    <tag k="source" v="UMP-PL, ./UMP-Warszawa/src/PRUSZKOW.ulice.txt"/>
  </way>
  <way id="30820329" version="3" timestamp="2011-03-19T08:21:56Z" uid="98542" user="wajak" changeset="7602244">
    <nd ref="342145443"/>
    <nd ref="342144023"/>
    <nd ref="415896967"/>
    <nd ref="415896968"/>
    <nd ref="342144020"/>
    <tag k="highway" v="residential"/>
    <tag k="name" v="Waldemara"/>
    <tag k="surface" v="paving_stones"/>
  </way>
  <way id="30820330" version="2" timestamp="2009-06-05T10:46:22Z" uid="20587" user="balrog-kun" changeset="1428273">
    <nd ref="342145030"/>
    <nd ref="342145032"/>
    <nd ref="342144258"/>
    <nd ref="342145019"/>
    <tag k="highway" v="residential"/>
    <tag k="name" v="Kwiatów Polnych"/>
  </way>
  <way id="30820330" version="3" timestamp="2011-03-09T08:05:21Z" uid="98542" user="wajak" changeset="7501407">
    <nd ref="342145030"/>
    <nd ref="1193851766"/>
    <nd ref="342144258"/>
    <nd ref="342145019"/>
    <tag k="highway" v="residential"/>
    <tag k="name" v="Kwiatów Polnych"/>
  </way>
  <way id="30820336" version="2" timestamp="2009-10-31T22:50:14Z" uid="20587" user="balrog-kun" changeset="3002253">
    <nd ref="342142531"/>
    <nd ref="342142857"/>
    <nd ref="342142848"/>
    <tag k="highway" v="residential"/>
    <tag k="name" v="Ludwika Wołowskiego"/>
    <tag k="source" v="UMP-PL, ./UMP-Warszawa/src/PRUSZKOW.ulice.txt"/>
  </way>
  <way id="30820337" version="2" timestamp="2009-10-31T22:49:59Z" uid="20587" user="balrog-kun" changeset="3002253">
    <nd ref="342142778"/>
    <nd ref="342144814"/>
    <nd ref="342145072"/>
    <nd ref="342145075"/>
    <tag k="highway" v="residential"/>
    <tag k="name" v="Zygmunta Wróblewskiego"/>
    <tag k="source" v="UMP-PL, ./UMP-Warszawa/src/PRUSZKOW.ulice.txt"/>
  </way>
  <way id="30820337" version="3" timestamp="2011-01-29T17:21:49Z" uid="98542" user="wajak" changeset="7124713">
    <nd ref="342142778"/>
    <nd ref="342144814"/>
    <nd ref="1126463253"/>
    <nd ref="342145072"/>
    <nd ref="342145075"/>
    <tag k="highway" v="residential"/>
    <tag k="name" v="Zygmunta Wróblewskiego"/>
    <tag k="source" v="UMP-PL, ./UMP-Warszawa/src/PRUSZKOW.ulice.txt"/>
  </way>
  <way id="30820341" version="2" timestamp="2009-06-05T10:46:21Z" uid="20587" user="balrog-kun" changeset="1428273">
    <nd ref="342145016"/>
    <nd ref="342144256"/>
    <nd ref="342145014"/>
    <tag k="highway" v="residential"/>
    <tag k="name" v="Azaliowa"/>
  </way>
  <way id="30820341" version="3" timestamp="2011-03-09T08:05:23Z" uid="98542" user="wajak" changeset="7501407">
    <nd ref="342145016"/>
    <nd ref="1193851772"/>
    <nd ref="1193851780"/>
    <tag k="highway" v="residential"/>
    <tag k="name" v="Azaliowa"/>
  </way>
  <way id="30820359" version="2" timestamp="2009-10-31T22:50:16Z" uid="20587" user="balrog-kun" changeset="3002253">
    <nd ref="342142870"/>
    <nd ref="342142881"/>
    <nd ref="279776906"/>
    <tag k="highway" v="residential"/>
    <tag k="name" v="Miry Zimińskiej-Sygietyńskiej"/>
    <tag k="source" v="UMP-PL, ./UMP-Warszawa/src/PRUSZKOW.ulice.txt"/>
  </way>
  <way id="30820359" version="3" timestamp="2010-02-27T06:58:01Z" uid="104567" user="dyziek86" changeset="3985980">
    <nd ref="342142870"/>
    <nd ref="342142881"/>
    <nd ref="654850301"/>
    <nd ref="279776906"/>
    <tag k="highway" v="residential"/>
    <tag k="name" v="Miry Zimińskiej-Sygietyńskiej"/>
    <tag k="source" v="UMP-PL, ./UMP-Warszawa/src/PRUSZKOW.ulice.txt"/>
  </way>
  <way id="30820359" version="4" timestamp="2010-11-01T07:52:52Z" uid="98542" user="wajak" changeset="6252118">
    <nd ref="342142870"/>
    <nd ref="973498182"/>
    <nd ref="342142881"/>
    <nd ref="654850301"/>
    <nd ref="279776906"/>
    <tag k="highway" v="residential"/>
    <tag k="name" v="Miry Zimińskiej-Sygietyńskiej"/>
    <tag k="source" v="UMP-PL, ./UMP-Warszawa/src/PRUSZKOW.ulice.txt"/>
  </way>
  <way id="30820359" version="5" timestamp="2011-07-18T16:02:33Z" uid="98542" user="wajak" changeset="8759890">
    <nd ref="342142870"/>
    <nd ref="973498182"/>
    <nd ref="342142881"/>
    <nd ref="1365550609"/>
    <nd ref="654850301"/>
    <nd ref="279776906"/>
    <tag k="highway" v="residential"/>
    <tag k="name" v="Miry Zimińskiej-Sygietyńskiej"/>
    <tag k="source" v="UMP-PL, ./UMP-Warszawa/src/PRUSZKOW.ulice.txt"/>
  </way>
  <way id="30820359" version="6" timestamp="2011-07-19T08:15:08Z" uid="98542" user="wajak" changeset="8765843">
    <nd ref="342142870"/>
    <nd ref="973498182"/>
    <nd ref="342142881"/>
    <nd ref="1365550609"/>
    <nd ref="654850301"/>
    <nd ref="279776906"/>
    <tag k="highway" v="residential"/>
    <tag k="name" v="Miry Zimińskiej-Sygietyńskiej"/>
    <tag k="surface" v="asphalt"/>
  </way>
  <way id="30820359" version="7" timestamp="2012-03-28T21:57:21Z" uid="98542" user="wajak" changeset="11131837">
    <nd ref="342142870"/>
    <nd ref="973498182"/>
    <nd ref="1695299514"/>
    <nd ref="342142881"/>
    <nd ref="1365550609"/>
    <nd ref="654850301"/>
    <nd ref="279776906"/>
    <tag k="highway" v="residential"/>
    <tag k="name" v="Miry Zimińskiej-Sygietyńskiej"/>
    <tag k="surface" v="asphalt"/>
  </way>
  <way id="30820364" version="2" timestamp="2009-10-31T22:50:14Z" uid="20587" user="balrog-kun" changeset="3002253">
    <nd ref="342142773"/>
    <nd ref="342142881"/>
    <tag k="highway" v="residential"/>
    <tag k="name" v="Jana III Sobieskiego"/>
    <tag k="source" v="UMP-PL, ./UMP-Warszawa/src/PRUSZKOW.ulice.txt"/>
  </way>
  <way id="30820364" version="3" timestamp="2011-07-19T08:15:08Z" uid="98542" user="wajak" changeset="8765843">
    <nd ref="342142773"/>
    <nd ref="342142881"/>
    <tag k="highway" v="residential"/>
    <tag k="name" v="Jana III Sobieskiego"/>
    <tag k="oneway" v="yes"/>
    <tag k="surface" v="asphalt"/>
  </way>
  <way id="30820364" version="4" timestamp="2012-03-28T21:57:17Z" uid="98542" user="wajak" changeset="11131837">
    <nd ref="342142773"/>
    <nd ref="342142881"/>
    <tag k="highway" v="residential"/>
    <tag k="name" v="Jana III Sobieskiego"/>
    <tag k="oneway" v="yes"/>
    <tag k="surface" v="asphalt"/>
  </way>
  <way id="30820388" version="2" timestamp="2009-06-05T10:46:22Z" uid="20587" user="balrog-kun" changeset="1428273">
    <nd ref="342144274"/>
    <nd ref="415922396"/>
    <nd ref="342144284"/>
    <nd ref="342141634"/>
    <tag k="highway" v="residential"/>
    <tag k="name" v="Generała Józefa Bema"/>
    <tag k="source" v="UMP-PL, ./UMP-Warszawa/src/PRUSZKOW.ulice.txt"/>
  </way>
  <way id="30820388" version="3" timestamp="2011-01-09T10:26:12Z" uid="98542" user="wajak" changeset="6913274">
    <nd ref="342144274"/>
    <nd ref="415922396"/>
    <nd ref="342144284"/>
    <nd ref="342141634"/>
    <tag k="highway" v="residential"/>
    <tag k="name" v="Generała Józefa Bema"/>
    <tag k="source" v="UMP-PL, ./UMP-Warszawa/src/PRUSZKOW.ulice.txt"/>
  </way>
  <way id="30820397" version="2" timestamp="2009-06-05T10:46:20Z" uid="20587" user="balrog-kun" changeset="1428273">
    <nd ref="342144335"/>
    <nd ref="342144339"/>
    <nd ref="342144272"/>
    <nd ref="342144312"/>
    <nd ref="415922368"/>
    <nd ref="342144346"/>
    <tag k="highway" v="residential"/>
    <tag k="name" v="Wandy"/>
    <tag k="source" v="UMP-PL, ./UMP-Warszawa/src/PRUSZKOW.ulice.txt"/>
  </way>
  <way id="30820397" version="3" timestamp="2011-06-03T20:21:29Z" uid="98542" user="wajak" changeset="8333391">
    <nd ref="342144335"/>
    <nd ref="342144339"/>
    <nd ref="342144272"/>
    <tag k="highway" v="residential"/>
    <tag k="name" v="Wandy"/>
  </way>
  <way id="30820407" version="2" timestamp="2009-06-05T07:54:44Z" uid="20587" user="balrog-kun" changeset="1427183">
    <nd ref="342144067"/>
    <nd ref="342144357"/>
    <nd ref="342144354"/>
    <nd ref="342144359"/>
    <nd ref="342144349"/>
    <nd ref="342144346"/>
    <nd ref="342144344"/>
    <tag k="highway" v="residential"/>
    <tag k="name" v="Marii Dąbrowskiej"/>
    <tag k="source" v="UMP-PL, ./UMP-Warszawa/src/PRUSZKOW.ulice.txt"/>
  </way>
  <way id="30820407" version="3" timestamp="2009-06-05T10:46:20Z" uid="20587" user="balrog-kun" changeset="1428273">
    <nd ref="342144067"/>
    <nd ref="342144357"/>
    <nd ref="342144354"/>
    <nd ref="342144359"/>
    <nd ref="342144349"/>
    <nd ref="415922380"/>
    <nd ref="342144346"/>
    <nd ref="342144344"/>
    <tag k="highway" v="residential"/>
    <tag k="name" v="Marii Dąbrowskiej"/>
    <tag k="source" v="UMP-PL, ./UMP-Warszawa/src/PRUSZKOW.ulice.txt"/>
  </way>
  <way id="30820407" version="4" timestamp="2011-03-17T21:55:57Z" uid="98542" user="wajak" changeset="7590461">
    <nd ref="342144067"/>
    <nd ref="1206547282"/>
    <nd ref="342144357"/>
    <tag k="highway" v="residential"/>
    <tag k="name" v="Marii Dąbrowskiej"/>
  </way>
  <way id="30820430" version="2" timestamp="2009-06-05T10:46:23Z" uid="20587" user="balrog-kun" changeset="1428273">
    <nd ref="342144332"/>
    <nd ref="342144263"/>
    <nd ref="342144265"/>
    <nd ref="342144274"/>
    <nd ref="415922366"/>
    <nd ref="342144310"/>
    <nd ref="342144269"/>
    <nd ref="415922367"/>
    <nd ref="415922363"/>
    <nd ref="415922362"/>
    <nd ref="342144344"/>
    <tag k="highway" v="residential"/>
    <tag k="name" v="Kosynierów"/>
    <tag k="source" v="UMP-PL, ./UMP-Warszawa/src/PRUSZKOW.ulice.txt"/>
  </way>
  <way id="30820432" version="2" timestamp="2009-06-05T10:46:22Z" uid="20587" user="balrog-kun" changeset="1428273">
    <nd ref="342144310"/>
    <nd ref="415922364"/>
    <nd ref="342144260"/>
    <nd ref="415922365"/>
    <nd ref="342144287"/>
    <nd ref="342145452"/>
    <tag k="highway" v="residential"/>
    <tag k="name" v="Generała Józefa Sowińskiego"/>
    <tag k="source" v="UMP-PL, ./UMP-Warszawa/src/PRUSZKOW.ulice.txt"/>
  </way>
  <way id="30820432" version="3" timestamp="2010-11-06T21:26:55Z" uid="98542" user="wajak" changeset="6306572">
    <nd ref="342144310"/>
    <nd ref="415922364"/>
    <nd ref="342144260"/>
    <nd ref="415922365"/>
    <nd ref="342144287"/>
    <nd ref="342145452"/>
    <tag k="highway" v="residential"/>
    <tag k="name" v="Generała Józefa Sowińskiego"/>
    <tag k="source" v="UMP-PL, ./UMP-Warszawa/src/PRUSZKOW.ulice.txt"/>
  </way>
  <way id="30820435" version="2" timestamp="2009-06-05T10:46:22Z" uid="20587" user="balrog-kun" changeset="1428273">
    <nd ref="342144263"/>
    <nd ref="342145455"/>
    <tag k="highway" v="residential"/>
    <tag k="name" v="Władysława Łokietka"/>
    <tag k="source" v="UMP-PL, ./UMP-Warszawa/src/PRUSZKOW.ulice.txt"/>
  </way>
  <way id="30820451" version="3" timestamp="2009-06-05T06:32:29Z" uid="20587" user="balrog-kun" changeset="1426667">
    <nd ref="342144361"/>
    <nd ref="342144369"/>
    <nd ref="342144364"/>
    <tag k="created_by" v="Merkaartor 0.13"/>
    <tag k="highway" v="residential"/>
    <tag k="name" v="Kasztanowa"/>
    <tag k="source" v="UMP-PL, ./UMP-Warszawa/src/PRUSZKOW.ulice.txt"/>
  </way>
  <way id="30820451" version="4" timestamp="2011-01-30T16:39:15Z" uid="98542" user="wajak" changeset="7136222">
    <nd ref="342144361"/>
    <nd ref="1128121699"/>
    <nd ref="342144369"/>
    <nd ref="342144364"/>
    <tag k="highway" v="residential"/>
    <tag k="name" v="Kasztanowa"/>
    <tag k="source" v="UMP-PL, ./UMP-Warszawa/src/PRUSZKOW.ulice.txt"/>
    <tag k="surface" v="paving_stones"/>
  </way>
  <way id="30820457" version="2" timestamp="2009-06-05T06:32:29Z" uid="20587" user="balrog-kun" changeset="1426667">
    <nd ref="342144176"/>
    <nd ref="342144366"/>
    <nd ref="415875731"/>
    <nd ref="342144369"/>
    <tag k="highway" v="residential"/>
    <tag k="name" v="Księcia Bolesława I Mazowieckiego"/>
    <tag k="source" v="UMP-PL, ./UMP-Warszawa/src/PRUSZKOW.ulice.txt"/>
  </way>
  <way id="30820457" version="3" timestamp="2009-06-05T09:10:28Z" uid="20587" user="balrog-kun" changeset="1427678">
    <nd ref="342144176"/>
    <nd ref="342144366"/>
    <nd ref="415906510"/>
    <nd ref="415875731"/>
    <nd ref="342144369"/>
    <tag k="highway" v="residential"/>
    <tag k="name" v="Księcia Bolesława I Mazowieckiego"/>
    <tag k="source" v="UMP-PL, ./UMP-Warszawa/src/PRUSZKOW.ulice.txt"/>
  </way>
  <way id="30820457" version="4" timestamp="2011-01-30T16:39:16Z" uid="98542" user="wajak" changeset="7136222">
    <nd ref="342144176"/>
    <nd ref="342144366"/>
    <nd ref="415906510"/>
    <nd ref="415875731"/>
    <nd ref="342144369"/>
    <tag k="highway" v="residential"/>
    <tag k="name" v="Księcia Bolesława I Mazowieckiego"/>
    <tag k="source" v="UMP-PL, ./UMP-Warszawa/src/PRUSZKOW.ulice.txt"/>
    <tag k="surface" v="asphalt"/>
  </way>
  <way id="30820469" version="2" timestamp="2009-06-05T07:54:45Z" uid="20587" user="balrog-kun" changeset="1427183">
    <nd ref="342144193"/>
    <nd ref="342144034"/>
    <nd ref="342144056"/>
    <nd ref="342144067"/>
    <nd ref="342144070"/>
    <nd ref="342144063"/>
    <nd ref="342144065"/>
    <nd ref="342144382"/>
    <tag k="highway" v="residential"/>
    <tag k="name" v="Księcia Ziemowita"/>
    <tag k="source" v="UMP-PL, ./UMP-Warszawa/src/PRUSZKOW.ulice.txt"/>
  </way>
  <way id="30820469" version="3" timestamp="2011-03-23T22:00:00Z" uid="98542" user="wajak" changeset="7650984">
    <nd ref="342144193"/>
    <nd ref="342144034"/>
    <nd ref="342144056"/>
    <nd ref="342144067"/>
    <nd ref="342144070"/>
    <nd ref="1215421878"/>
    <nd ref="342144063"/>
    <nd ref="342144065"/>
    <nd ref="342144382"/>
    <tag k="highway" v="residential"/>
    <tag k="name" v="Księcia Ziemowita"/>
    <tag k="source" v="UMP-PL, ./UMP-Warszawa/src/PRUSZKOW.ulice.txt"/>
  </way>
  <way id="30820473" version="2" timestamp="2009-06-05T08:40:51Z" uid="20587" user="balrog-kun" changeset="1427486">
    <nd ref="342144186"/>
    <nd ref="415901750"/>
    <nd ref="342144060"/>
    <tag k="highway" v="residential"/>
    <tag k="name" v="Danuty"/>
    <tag k="source" v="UMP-PL, ./UMP-Warszawa/src/PRUSZKOW.ulice.txt"/>
  </way>
  <way id="30820477" version="2" timestamp="2009-06-05T06:32:30Z" uid="20587" user="balrog-kun" changeset="1426667">
    <nd ref="342144178"/>
    <nd ref="415875723"/>
    <nd ref="342144058"/>
    <tag k="highway" v="residential"/>
    <tag k="name" v="Haliny"/>
    <tag k="source" v="UMP-PL, ./UMP-Warszawa/src/PRUSZKOW.ulice.txt"/>
  </way>
  <way id="30820494" version="2" timestamp="2009-06-05T07:54:44Z" uid="20587" user="balrog-kun" changeset="1427183">
    <nd ref="342144070"/>
    <nd ref="342144399"/>
    <nd ref="342144330"/>
    <nd ref="342144325"/>
    <nd ref="342144315"/>
    <nd ref="342144312"/>
    <nd ref="342144310"/>
    <tag k="highway" v="residential"/>
    <tag k="name" v="Bolesława Chrobrego"/>
    <tag k="source" v="UMP-PL, ./UMP-Warszawa/src/PRUSZKOW.ulice.txt"/>
  </way>
  <way id="30820494" version="3" timestamp="2009-06-05T10:46:19Z" uid="20587" user="balrog-kun" changeset="1428273">
    <nd ref="342144070"/>
    <nd ref="342144399"/>
    <nd ref="342144330"/>
    <nd ref="342144325"/>
    <nd ref="342144315"/>
    <nd ref="342144312"/>
    <nd ref="415922366"/>
    <tag k="highway" v="residential"/>
    <tag k="name" v="Bolesława Chrobrego"/>
  </way>
  <way id="30820494" version="4" timestamp="2011-01-31T07:10:22Z" uid="98542" user="wajak" changeset="7142486">
    <nd ref="342144070"/>
    <nd ref="342144399"/>
    <nd ref="342144330"/>
    <nd ref="342144325"/>
    <nd ref="1129179531"/>
    <nd ref="342144315"/>
    <nd ref="342144312"/>
    <nd ref="415922366"/>
    <tag k="highway" v="residential"/>
    <tag k="name" v="Bolesława Chrobrego"/>
  </way>
  <way id="30820494" version="5" timestamp="2011-03-23T22:00:04Z" uid="98542" user="wajak" changeset="7650984">
    <nd ref="342144070"/>
    <nd ref="342144399"/>
    <nd ref="342144330"/>
    <nd ref="1215421887"/>
    <nd ref="342144325"/>
    <nd ref="1129179531"/>
    <nd ref="342144315"/>
    <nd ref="342144312"/>
    <nd ref="415922366"/>
    <tag k="highway" v="residential"/>
    <tag k="name" v="Bolesława Chrobrego"/>
  </way>
  <way id="30820500" version="2" timestamp="2009-06-05T07:54:44Z" uid="20587" user="balrog-kun" changeset="1427183">
    <nd ref="342144402"/>
    <nd ref="342144382"/>
    <nd ref="342144397"/>
    <nd ref="342144337"/>
    <nd ref="342144335"/>
    <nd ref="342144332"/>
    <nd ref="342141632"/>
    <tag k="highway" v="residential"/>
    <tag k="name" v="Księdza Józefa"/>
    <tag k="source" v="UMP-PL, ./UMP-Warszawa/src/PRUSZKOW.ulice.txt"/>
  </way>
  <way id="30820500" version="3" timestamp="2011-01-30T16:39:21Z" uid="98542" user="wajak" changeset="7136222">
    <nd ref="342144402"/>
    <nd ref="342144382"/>
    <nd ref="1128121714"/>
    <nd ref="342144397"/>
    <nd ref="342144337"/>
    <nd ref="342144335"/>
    <nd ref="1128121712"/>
    <nd ref="1128121709"/>
    <nd ref="342144332"/>
    <nd ref="1128121695"/>
    <nd ref="1128121715"/>
    <nd ref="342141632"/>
    <tag k="highway" v="residential"/>
    <tag k="name" v="Księcia Józefa"/>
    <tag k="source" v="gps/bing"/>
    <tag k="surface" v="asphalt"/>
  </way>
  <way id="30820500" version="4" timestamp="2011-10-29T15:43:30Z" uid="98542" user="wajak" changeset="9685648">
    <nd ref="342144402"/>
    <nd ref="342144382"/>
    <nd ref="1128121714"/>
    <nd ref="342144397"/>
    <nd ref="342144337"/>
    <nd ref="342144335"/>
    <nd ref="1128121712"/>
    <nd ref="1484780054"/>
    <nd ref="1128121709"/>
    <nd ref="342144332"/>
    <nd ref="1128121695"/>
    <nd ref="1128121715"/>
    <nd ref="342141632"/>
    <tag k="highway" v="residential"/>
    <tag k="name" v="Księcia Józefa"/>
    <tag k="source" v="gps/bing"/>
    <tag k="surface" v="asphalt"/>
  </way>
  <way id="30820503" version="2" timestamp="2009-06-05T07:54:44Z" uid="20587" user="balrog-kun" changeset="1427183">
    <nd ref="342144402"/>
    <nd ref="342144364"/>
    <nd ref="342144412"/>
    <nd ref="342144058"/>
    <nd ref="342144060"/>
    <nd ref="342144388"/>
    <nd ref="342144056"/>
    <tag k="highway" v="residential"/>
    <tag k="name" v="Stanisława Żółkiewskiego"/>
    <tag k="source" v="UMP-PL, ./UMP-Warszawa/src/PRUSZKOW.ulice.txt"/>
  </way>
  <way id="30820503" version="3" timestamp="2009-06-05T08:40:51Z" uid="20587" user="balrog-kun" changeset="1427486">
    <nd ref="342144402"/>
    <nd ref="342144364"/>
    <nd ref="342144412"/>
    <nd ref="342144058"/>
    <nd ref="415901752"/>
    <nd ref="415901751"/>
    <nd ref="342144060"/>
    <nd ref="342144388"/>
    <nd ref="342144056"/>
    <tag k="highway" v="residential"/>
    <tag k="name" v="Stanisława Żółkiewskiego"/>
    <tag k="source" v="UMP-PL, ./UMP-Warszawa/src/PRUSZKOW.ulice.txt"/>
  </way>
  <way id="30820503" version="4" timestamp="2011-01-30T16:39:22Z" uid="98542" user="wajak" changeset="7136222">
    <nd ref="342144402"/>
    <nd ref="1128121700"/>
    <nd ref="342144364"/>
    <nd ref="342144412"/>
    <nd ref="342144058"/>
    <nd ref="415901752"/>
    <nd ref="415901751"/>
    <nd ref="342144060"/>
    <nd ref="342144388"/>
    <nd ref="342144056"/>
    <tag k="highway" v="residential"/>
    <tag k="name" v="Stanisława Żółkiewskiego"/>
    <tag k="source" v="UMP-PL, ./UMP-Warszawa/src/PRUSZKOW.ulice.txt"/>
    <tag k="surface" v="asphalt"/>
  </way>
  <way id="30820503" version="5" timestamp="2011-03-23T22:00:03Z" uid="98542" user="wajak" changeset="7650984">
    <nd ref="342144402"/>
    <nd ref="1128121700"/>
    <nd ref="342144364"/>
    <nd ref="342144412"/>
    <nd ref="342144058"/>
    <nd ref="415901752"/>
    <nd ref="415901751"/>
    <nd ref="342144060"/>
    <nd ref="342144388"/>
    <nd ref="1215421877"/>
    <nd ref="342144056"/>
    <tag k="highway" v="residential"/>
    <tag k="name" v="Stanisława Żółkiewskiego"/>
    <tag k="source" v="UMP-PL, ./UMP-Warszawa/src/PRUSZKOW.ulice.txt"/>
    <tag k="surface" v="asphalt"/>
  </way>
  <way id="30820850" version="2" timestamp="2010-02-14T16:55:06Z" uid="43863" user="Rundling" changeset="3875802">
    <nd ref="342151278"/>
    <nd ref="289351366"/>
    <tag k="access" v="agricultural"/>
    <tag k="highway" v="track"/>
    <tag k="surface" v="sand"/>
    <tag k="tracktype" v="grade3"/>
  </way>
  <way id="30820850" version="3" timestamp="2011-01-19T22:38:50Z" uid="384081" user="Ellern" changeset="7025717"/>
  <way id="30820859" version="3" timestamp="2010-02-14T16:55:05Z" uid="43863" user="Rundling" changeset="3875802">
    <nd ref="289351366"/>
    <nd ref="342249419"/>
    <nd ref="639118875"/>
    <nd ref="342151306"/>
    <nd ref="342151334"/>
    <nd ref="342151358"/>
    <nd ref="342151382"/>
    <nd ref="342151420"/>
    <nd ref="342151469"/>
    <nd ref="342151518"/>
    <nd ref="342151555"/>
    <nd ref="342151596"/>
    <nd ref="342151627"/>
    <nd ref="342151673"/>
    <nd ref="342151914"/>
    <nd ref="342151698"/>
    <nd ref="342151947"/>
    <nd ref="342151725"/>
    <nd ref="342151752"/>
    <tag k="access" v="agricultural"/>
    <tag k="highway" v="track"/>
    <tag k="surface" v="paved"/>
    <tag k="tracktype" v="grade1"/>
  </way>
  <way id="30820859" version="4" timestamp="2010-12-21T00:06:38Z" uid="384081" user="Ellern" changeset="6721638">
    <nd ref="289351366"/>
    <nd ref="342249419"/>
    <nd ref="639118875"/>
    <nd ref="342151306"/>
    <nd ref="342151334"/>
    <nd ref="342151358"/>
    <nd ref="342151382"/>
    <nd ref="342151420"/>
    <nd ref="342151469"/>
    <nd ref="342151518"/>
    <nd ref="342151555"/>
    <nd ref="342151596"/>
    <nd ref="342151627"/>
    <nd ref="342151673"/>
    <nd ref="342151914"/>
    <nd ref="342151698"/>
    <nd ref="342151947"/>
    <nd ref="342151725"/>
    <nd ref="342151752"/>
    <tag k="highway" v="track"/>
    <tag k="surface" v="paved"/>
    <tag k="tracktype" v="grade1"/>
  </way>
  <way id="30820859" version="5" timestamp="2011-01-19T22:38:48Z" uid="384081" user="Ellern" changeset="7025717">
    <nd ref="1110987857"/>
    <nd ref="289351366"/>
    <tag k="highway" v="track"/>
    <tag k="surface" v="sand"/>
    <tag k="tracktype" v="grade2"/>
  </way>
  <way id="30820859" version="6" timestamp="2011-04-28T15:54:44Z" uid="384081" user="Ellern" changeset="7995888">
    <nd ref="342156509"/>
    <nd ref="1263616398"/>
    <nd ref="1110987857"/>
    <nd ref="289351366"/>
    <tag k="highway" v="track"/>
    <tag k="surface" v="sand"/>
    <tag k="tracktype" v="grade2"/>
  </way>
  <way id="30820859" version="7" timestamp="2011-04-28T16:36:07Z" uid="384081" user="Ellern" changeset="7996220">
    <nd ref="342156509"/>
    <nd ref="1263616398"/>
    <nd ref="1110987857"/>
    <tag k="highway" v="track"/>
    <tag k="surface" v="sand"/>
    <tag k="tracktype" v="grade2"/>
  </way>
</osm>
