<?xml version='1.0' encoding='UTF-8'?>
<osm version="0.6" generator="libosmium/2.20.0">
  <way id="30836159" version="3" timestamp="2009-02-23T13:36:11Z" uid="34428" user="usm78-gis" changeset="634299"/>
  <way id="30836185" version="7" timestamp="2010-07-09T04:58:39Z" uid="74617" user="JohnSmith" changeset="5170986">
    <nd ref="218202945"/>
    <nd ref="523697839"/>
    <nd ref="342883061"/>
    <nd ref="364000681"/>
    <nd ref="363999787"/>
    <nd ref="342883017"/>
    <nd ref="363999789"/>
    <nd ref="362970932"/>
    <nd ref="363999791"/>
    <nd ref="362970979"/>
    <nd ref="361831742"/>
    <nd ref="361831892"/>
    <nd ref="361831767"/>
    <nd ref="361831793"/>
    <nd ref="361831816"/>
    <nd ref="361831841"/>
    <nd ref="363999794"/>
    <nd ref="361831866"/>
    <tag k="highway" v="residential"/>
    <tag k="maxspeed" v="50"/>
    <tag k="maxspeed:source" v="default residential speed limit in Australia"/>
    <tag k="name" v="Victoria Avenue"/>
  </way>
  <way id="30836185" version="8" timestamp="2011-04-20T14:38:24Z" uid="4467" user="Rosscoe" changeset="7916821">
    <nd ref="218202945"/>
    <nd ref="523697839"/>
    <nd ref="1252481072"/>
    <nd ref="342883061"/>
    <nd ref="364000681"/>
    <nd ref="363999787"/>
    <nd ref="342883017"/>
    <nd ref="363999789"/>
    <nd ref="362970932"/>
    <nd ref="363999791"/>
    <nd ref="362970979"/>
    <nd ref="361831742"/>
    <nd ref="361831892"/>
    <nd ref="361831767"/>
    <nd ref="361831793"/>
    <nd ref="361831816"/>
    <nd ref="361831841"/>
    <nd ref="363999794"/>
    <nd ref="361831866"/>
    <tag k="highway" v="residential"/>
    <tag k="maxspeed" v="50"/>
    <tag k="name" v="Victoria Avenue"/>
    <tag k="source:maxspeed" v="default residential speed limit in Australia"/>
  </way>
  <way id="30836185" version="9" timestamp="2012-01-16T04:41:02Z" uid="11111" user="melb_guy" changeset="10405493">
    <nd ref="218202945"/>
    <nd ref="523697839"/>
    <nd ref="1592103031"/>
    <nd ref="1592103215"/>
    <nd ref="1252481072"/>
    <nd ref="342883061"/>
    <nd ref="364000681"/>
    <nd ref="1592102958"/>
    <nd ref="1592103241"/>
    <nd ref="363999787"/>
    <nd ref="342883017"/>
    <nd ref="1592103010"/>
    <nd ref="1592103168"/>
    <nd ref="363999789"/>
    <nd ref="362970932"/>
    <nd ref="1592103114"/>
    <nd ref="1592103192"/>
    <nd ref="363999791"/>
    <nd ref="362970979"/>
    <nd ref="361831742"/>
    <nd ref="361831892"/>
    <nd ref="361831767"/>
    <nd ref="361831793"/>
    <nd ref="361831816"/>
    <nd ref="361831841"/>
    <nd ref="363999794"/>
    <nd ref="361831866"/>
    <tag k="highway" v="residential"/>
    <tag k="maxspeed" v="50"/>
    <tag k="name" v="Victoria Avenue"/>
    <tag k="source:maxspeed" v="default residential speed limit in Australia"/>
  </way>
  <way id="30836185" version="10" timestamp="2012-01-18T05:22:09Z" uid="147510" user="woodpeck_fixbot" changeset="10424371">
    <nd ref="218202945"/>
    <nd ref="523697839"/>
    <nd ref="1592103031"/>
    <nd ref="1592103215"/>
    <nd ref="1252481072"/>
    <nd ref="342883061"/>
    <nd ref="364000681"/>
    <nd ref="1592102958"/>
    <nd ref="1592103241"/>
    <nd ref="363999787"/>
    <nd ref="342883017"/>
    <nd ref="1592103010"/>
    <nd ref="1592103168"/>
    <nd ref="363999789"/>
    <nd ref="362970932"/>
    <nd ref="1592103114"/>
    <nd ref="1592103192"/>
    <nd ref="363999791"/>
    <nd ref="362970979"/>
    <nd ref="361831742"/>
    <nd ref="361831892"/>
    <nd ref="361831767"/>
    <nd ref="361831793"/>
    <nd ref="361831816"/>
    <nd ref="361831841"/>
    <nd ref="363999794"/>
    <nd ref="361831866"/>
    <tag k="highway" v="residential"/>
    <tag k="name" v="Victoria Avenue"/>
    <tag k="source:maxspeed" v="default residential speed limit in Australia"/>
  </way>
  <way id="30836187" version="3" timestamp="2010-07-09T05:03:13Z" uid="74617" user="JohnSmith" changeset="5170986">
    <nd ref="342883017"/>
    <nd ref="342883033"/>
    <tag k="highway" v="residential"/>
    <tag k="maxspeed" v="50"/>
    <tag k="maxspeed:source" v="default residential speed limit in Australia"/>
    <tag k="name" v="Fellow Street"/>
  </way>
  <way id="30836187" version="4" timestamp="2011-04-20T14:38:20Z" uid="4467" user="Rosscoe" changeset="7916821">
    <nd ref="342883017"/>
    <nd ref="342883033"/>
    <tag k="highway" v="residential"/>
    <tag k="maxspeed" v="50"/>
    <tag k="name" v="Fellow Street"/>
    <tag k="source:maxspeed" v="default residential speed limit in Australia"/>
  </way>
  <way id="30836187" version="5" timestamp="2012-01-18T05:22:15Z" uid="147510" user="woodpeck_fixbot" changeset="10424371">
    <nd ref="342883017"/>
    <nd ref="342883033"/>
    <tag k="highway" v="residential"/>
    <tag k="name" v="Fellow Street"/>
    <tag k="source:maxspeed" v="default residential speed limit in Australia"/>
  </way>
  <way id="30836190" version="2" timestamp="2010-07-09T05:06:37Z" uid="74617" user="JohnSmith" changeset="5170986">
    <nd ref="342883061"/>
    <nd ref="342883072"/>
    <tag k="highway" v="residential"/>
    <tag k="maxspeed" v="50"/>
    <tag k="maxspeed:source" v="default residential speed limit in Australia"/>
    <tag k="name" v="Haines Street"/>
  </way>
  <way id="30836190" version="3" timestamp="2011-04-20T14:38:18Z" uid="4467" user="Rosscoe" changeset="7916821">
    <nd ref="342883061"/>
    <nd ref="342883072"/>
    <tag k="highway" v="residential"/>
    <tag k="maxspeed" v="50"/>
    <tag k="name" v="Haines Street"/>
    <tag k="source:maxspeed" v="default residential speed limit in Australia"/>
  </way>
  <way id="30836190" version="4" timestamp="2012-01-18T05:22:16Z" uid="147510" user="woodpeck_fixbot" changeset="10424371">
    <nd ref="342883061"/>
    <nd ref="342883072"/>
    <tag k="highway" v="residential"/>
    <tag k="name" v="Haines Street"/>
    <tag k="source:maxspeed" v="default residential speed limit in Australia"/>
  </way>
  <way id="30836192" version="4" timestamp="2010-07-09T05:04:11Z" uid="74617" user="JohnSmith" changeset="5170986">
    <nd ref="342883033"/>
    <nd ref="342883072"/>
    <nd ref="342883050"/>
    <tag k="highway" v="residential"/>
    <tag k="maxspeed" v="50"/>
    <tag k="maxspeed:source" v="default residential speed limit in Australia"/>
    <tag k="name" v="Ormond Avenue"/>
  </way>
  <way id="30836192" version="5" timestamp="2011-04-20T14:38:18Z" uid="4467" user="Rosscoe" changeset="7916821">
    <nd ref="342883033"/>
    <nd ref="342883072"/>
    <nd ref="342883050"/>
    <tag k="highway" v="residential"/>
    <tag k="maxspeed" v="50"/>
    <tag k="name" v="Ormond Avenue"/>
    <tag k="source:maxspeed" v="default residential speed limit in Australia"/>
  </way>
  <way id="30836192" version="6" timestamp="2012-01-16T04:41:03Z" uid="11111" user="melb_guy" changeset="10405493">
    <nd ref="342883033"/>
    <nd ref="1592103122"/>
    <nd ref="342883072"/>
    <nd ref="342883050"/>
    <tag k="highway" v="residential"/>
    <tag k="maxspeed" v="50"/>
    <tag k="name" v="Ormond Avenue"/>
    <tag k="source:maxspeed" v="default residential speed limit in Australia"/>
  </way>
  <way id="30836192" version="7" timestamp="2012-01-18T05:22:18Z" uid="147510" user="woodpeck_fixbot" changeset="10424371">
    <nd ref="342883033"/>
    <nd ref="1592103122"/>
    <nd ref="342883072"/>
    <nd ref="342883050"/>
    <tag k="highway" v="residential"/>
    <tag k="name" v="Ormond Avenue"/>
    <tag k="source:maxspeed" v="default residential speed limit in Australia"/>
  </way>
  <way id="30836201" version="11" timestamp="2009-02-23T13:15:10Z" uid="34428" user="usm78-gis" changeset="634299"/>
  <way id="30836217" version="1" timestamp="2009-02-07T11:04:00Z" uid="58091" user="Andreas M" changeset="247803">
    <nd ref="293189909"/>
    <nd ref="319826868"/>
    <nd ref="60354561"/>
    <nd ref="60215905"/>
    <nd ref="34516812"/>
    <nd ref="76463278"/>
    <nd ref="111164141"/>
    <nd ref="30059975"/>
    <tag k="created_by" v="Merkaartor 0.13"/>
    <tag k="highway" v="primary"/>
    <tag k="maxspeed" v="50"/>
    <tag k="name" v="Schlachthausgasse"/>
    <tag k="railway" v="tram"/>
    <tag k="ref" v="B221"/>
  </way>
  <way id="30836217" version="2" timestamp="2010-04-18T20:00:15Z" uid="129531" user="almich" changeset="4462273">
    <nd ref="293189909"/>
    <nd ref="319826868"/>
    <nd ref="60354561"/>
    <nd ref="60215905"/>
    <nd ref="34516812"/>
    <nd ref="76463278"/>
    <nd ref="111164141"/>
    <nd ref="30059975"/>
    <tag k="gauge" v="1435"/>
    <tag k="highway" v="primary"/>
    <tag k="maxspeed" v="50"/>
    <tag k="name" v="Schlachthausgasse"/>
    <tag k="railway" v="tram"/>
    <tag k="ref" v="B221"/>
  </way>
  <way id="30836217" version="3" timestamp="2010-04-18T20:25:09Z" uid="129531" user="almich" changeset="4462598">
    <nd ref="293189909"/>
    <nd ref="319826868"/>
    <nd ref="60354561"/>
    <nd ref="60215905"/>
    <nd ref="34516812"/>
    <nd ref="76463278"/>
    <nd ref="111164141"/>
    <nd ref="30059975"/>
    <tag k="electrified" v="contact_line"/>
    <tag k="frequency" v="0"/>
    <tag k="gauge" v="1435"/>
    <tag k="highway" v="primary"/>
    <tag k="maxspeed" v="50"/>
    <tag k="name" v="Schlachthausgasse"/>
    <tag k="railway" v="tram"/>
    <tag k="ref" v="B221"/>
  </way>
  <way id="30836217" version="4" timestamp="2011-03-19T11:14:05Z" uid="99800" user="wolfbert" changeset="7603580">
    <nd ref="293189909"/>
    <nd ref="319826868"/>
    <nd ref="60354561"/>
    <nd ref="60215905"/>
    <tag k="electrified" v="contact_line"/>
    <tag k="frequency" v="0"/>
    <tag k="gauge" v="1435"/>
    <tag k="highway" v="primary"/>
    <tag k="maxspeed" v="50"/>
    <tag k="name" v="Schlachthausgasse"/>
    <tag k="railway" v="tram"/>
    <tag k="ref" v="B221"/>
  </way>
  <way id="30836217" version="5" timestamp="2011-11-08T00:46:49Z" uid="129531" user="almich" changeset="9770160">
    <nd ref="293189909"/>
    <nd ref="319826868"/>
    <nd ref="60354561"/>
    <nd ref="60215905"/>
    <tag k="electrified" v="contact_line"/>
    <tag k="frequency" v="0"/>
    <tag k="gauge" v="1435"/>
    <tag k="highway" v="primary"/>
    <tag k="maxspeed" v="50"/>
    <tag k="name" v="Schlachthausgasse"/>
    <tag k="railway" v="tram"/>
    <tag k="ref" v="B221"/>
    <tag k="voltage" v="600"/>
  </way>
  <way id="30836217" version="6" timestamp="2012-02-01T17:04:52Z" uid="129531" user="almich" changeset="10560467"/>
  <way id="30836283" version="1" timestamp="2009-02-07T11:06:49Z" uid="58091" user="Andreas M" changeset="247803">
    <nd ref="322064003"/>
    <nd ref="323849562"/>
    <nd ref="31588072"/>
    <nd ref="323849106"/>
    <nd ref="322000648"/>
    <nd ref="31586023"/>
    <nd ref="31907198"/>
    <nd ref="31588073"/>
    <nd ref="31588074"/>
    <nd ref="31588075"/>
    <nd ref="323845754"/>
    <nd ref="31588076"/>
    <nd ref="31588077"/>
    <nd ref="31588079"/>
    <nd ref="245709247"/>
    <nd ref="320917969"/>
    <nd ref="251909974"/>
    <nd ref="31588080"/>
    <nd ref="31588081"/>
    <nd ref="31588082"/>
    <nd ref="31588083"/>
    <nd ref="31588084"/>
    <nd ref="323844017"/>
    <nd ref="31588085"/>
    <nd ref="31588086"/>
    <nd ref="31588087"/>
    <nd ref="31588088"/>
    <nd ref="31588089"/>
    <tag k="created_by" v="Potlatch 0.10f"/>
    <tag k="highway" v="secondary"/>
    <tag k="lcn" v="yes"/>
    <tag k="maxspeed" v="50"/>
    <tag k="name" v="Langobardenstraße"/>
    <tag k="railway" v="tram"/>
  </way>
  <way id="30836283" version="2" timestamp="2009-04-07T18:09:48Z" uid="97309" user="Kurt_Woloch" changeset="307957">
    <nd ref="322064003"/>
    <nd ref="323849562"/>
    <nd ref="31588072"/>
    <nd ref="323849106"/>
    <nd ref="322000648"/>
    <nd ref="31586023"/>
    <nd ref="31907198"/>
    <nd ref="31588073"/>
    <nd ref="31588074"/>
    <nd ref="31588075"/>
    <nd ref="323845754"/>
    <nd ref="31588076"/>
    <nd ref="31588077"/>
    <nd ref="31588079"/>
    <nd ref="245709247"/>
    <nd ref="320917969"/>
    <nd ref="251909974"/>
    <nd ref="31588080"/>
    <nd ref="31588081"/>
    <nd ref="31588082"/>
    <nd ref="31588083"/>
    <nd ref="31588084"/>
    <nd ref="323844017"/>
    <nd ref="31588085"/>
    <nd ref="31588086"/>
    <nd ref="370624735"/>
    <nd ref="31588087"/>
    <nd ref="31588088"/>
    <nd ref="31588089"/>
    <tag k="created_by" v="Potlatch 0.10f"/>
    <tag k="highway" v="secondary"/>
    <tag k="lcn" v="yes"/>
    <tag k="maxspeed" v="50"/>
    <tag k="name" v="Langobardenstraße"/>
    <tag k="railway" v="tram"/>
  </way>
  <way id="30836283" version="3" timestamp="2009-04-07T19:42:33Z" uid="97309" user="Kurt_Woloch" changeset="307957">
    <nd ref="322064003"/>
    <nd ref="323849562"/>
    <nd ref="31588072"/>
    <nd ref="323849106"/>
    <nd ref="322000648"/>
    <nd ref="31586023"/>
    <nd ref="31907198"/>
    <nd ref="31588073"/>
    <nd ref="31588074"/>
    <nd ref="370652879"/>
    <nd ref="31588075"/>
    <nd ref="323845754"/>
    <nd ref="31588076"/>
    <nd ref="31588077"/>
    <nd ref="31588079"/>
    <nd ref="245709247"/>
    <nd ref="320917969"/>
    <nd ref="251909974"/>
    <nd ref="31588080"/>
    <nd ref="31588081"/>
    <nd ref="31588082"/>
    <nd ref="31588083"/>
    <nd ref="31588084"/>
    <nd ref="323844017"/>
    <nd ref="31588085"/>
    <nd ref="31588086"/>
    <nd ref="370624735"/>
    <nd ref="31588087"/>
    <nd ref="31588088"/>
    <nd ref="31588089"/>
    <tag k="created_by" v="Potlatch 0.10f"/>
    <tag k="highway" v="secondary"/>
    <tag k="lcn" v="yes"/>
    <tag k="maxspeed" v="50"/>
    <tag k="name" v="Langobardenstraße"/>
    <tag k="railway" v="tram"/>
  </way>
  <way id="30836283" version="4" timestamp="2009-05-18T07:54:35Z" uid="43577" user="dorni74" changeset="1233504">
    <nd ref="322064003"/>
    <nd ref="323849562"/>
    <nd ref="31588072"/>
    <tag k="created_by" v="Potlatch 0.10f"/>
    <tag k="highway" v="secondary"/>
    <tag k="lcn" v="yes"/>
    <tag k="maxspeed" v="50"/>
    <tag k="name" v="Langobardenstraße"/>
    <tag k="railway" v="tram"/>
  </way>
  <way id="30836283" version="5" timestamp="2009-10-30T20:43:40Z" uid="78656" user="Walter Schlögl" changeset="2992535">
    <nd ref="322064003"/>
    <nd ref="546843650"/>
    <nd ref="323849562"/>
    <nd ref="546843623"/>
    <nd ref="31588072"/>
    <tag k="highway" v="secondary"/>
    <tag k="lcn" v="yes"/>
    <tag k="maxspeed" v="50"/>
    <tag k="name" v="Langobardenstraße"/>
    <tag k="railway" v="tram"/>
  </way>
  <way id="30836283" version="6" timestamp="2009-12-21T14:52:22Z" uid="104947" user="My Friend" changeset="3420790">
    <nd ref="322064003"/>
    <nd ref="546843650"/>
    <nd ref="323849562"/>
    <nd ref="546843623"/>
    <nd ref="31588072"/>
    <tag k="highway" v="tertiary"/>
    <tag k="lcn" v="yes"/>
    <tag k="maxspeed" v="50"/>
    <tag k="name" v="Langobardenstraße"/>
    <tag k="railway" v="tram"/>
  </way>
  <way id="30836283" version="7" timestamp="2010-04-05T17:10:03Z" uid="67684" user="darkweasel" changeset="4335884">
    <nd ref="322064003"/>
    <nd ref="546843650"/>
    <nd ref="323849562"/>
    <nd ref="546843623"/>
    <nd ref="31588072"/>
    <tag k="highway" v="tertiary"/>
    <tag k="lcn" v="yes"/>
    <tag k="maxspeed" v="50"/>
    <tag k="name" v="Langobardenstraße"/>
  </way>
  <way id="30836283" version="8" timestamp="2010-04-10T22:17:08Z" uid="86147" user="wolfi1220" changeset="4388008"/>
  <way id="30836290" version="6" timestamp="2009-02-23T13:16:42Z" uid="34428" user="usm78-gis" changeset="634299"/>
  <way id="30836303" version="3" timestamp="2009-02-23T12:57:47Z" uid="34428" user="usm78-gis" changeset="634299"/>
  <way id="30836329" version="1" timestamp="2009-02-07T11:09:24Z" uid="58091" user="Andreas M" changeset="247803">
    <nd ref="66953469"/>
    <nd ref="66953470"/>
    <nd ref="311191337"/>
    <nd ref="66953471"/>
    <nd ref="66953472"/>
    <nd ref="311191335"/>
    <nd ref="66953473"/>
    <nd ref="66953474"/>
    <nd ref="66953475"/>
    <nd ref="66953477"/>
    <nd ref="311191343"/>
    <nd ref="66953469"/>
    <tag k="created_by" v="Potlatch 0.10f"/>
    <tag k="name" v="31"/>
    <tag k="railway" v="tram"/>
    <tag k="ref" v="31"/>
  </way>
  <way id="30836329" version="2" timestamp="2009-03-11T15:40:21Z" uid="39877" user="andreas_k" changeset="786578">
    <nd ref="66953469"/>
    <nd ref="66953470"/>
    <nd ref="311191337"/>
    <nd ref="66953471"/>
    <nd ref="66953472"/>
    <nd ref="311191335"/>
    <nd ref="66953473"/>
    <nd ref="66953474"/>
    <nd ref="359039683"/>
    <nd ref="66953475"/>
    <nd ref="66953477"/>
    <nd ref="311191343"/>
    <nd ref="66953469"/>
    <tag k="created_by" v="Potlatch 0.10f"/>
    <tag k="name" v="31"/>
    <tag k="railway" v="tram"/>
    <tag k="ref" v="31"/>
  </way>
  <way id="30836329" version="3" timestamp="2010-04-18T20:01:22Z" uid="129531" user="almich" changeset="4462273">
    <nd ref="66953469"/>
    <nd ref="66953470"/>
    <nd ref="311191337"/>
    <nd ref="66953471"/>
    <nd ref="66953472"/>
    <nd ref="311191335"/>
    <nd ref="66953473"/>
    <nd ref="66953474"/>
    <nd ref="359039683"/>
    <nd ref="66953475"/>
    <nd ref="66953477"/>
    <nd ref="311191343"/>
    <nd ref="66953469"/>
    <tag k="gauge" v="1435"/>
    <tag k="name" v="31"/>
    <tag k="railway" v="tram"/>
    <tag k="ref" v="31"/>
  </way>
  <way id="30836329" version="4" timestamp="2010-04-18T20:26:11Z" uid="129531" user="almich" changeset="4462598">
    <nd ref="66953469"/>
    <nd ref="66953470"/>
    <nd ref="311191337"/>
    <nd ref="66953471"/>
    <nd ref="66953472"/>
    <nd ref="311191335"/>
    <nd ref="66953473"/>
    <nd ref="66953474"/>
    <nd ref="359039683"/>
    <nd ref="66953475"/>
    <nd ref="66953477"/>
    <nd ref="311191343"/>
    <nd ref="66953469"/>
    <tag k="electrified" v="contact_line"/>
    <tag k="frequency" v="0"/>
    <tag k="gauge" v="1435"/>
    <tag k="name" v="31"/>
    <tag k="railway" v="tram"/>
    <tag k="ref" v="31"/>
  </way>
  <way id="30836329" version="5" timestamp="2011-08-14T07:39:13Z" uid="56501" user="Rudolf_H" changeset="9012412">
    <nd ref="66953469"/>
    <nd ref="1398243160"/>
    <nd ref="66953470"/>
    <nd ref="1398243166"/>
    <nd ref="311191337"/>
    <nd ref="66953471"/>
    <nd ref="66953472"/>
    <nd ref="311191335"/>
    <nd ref="66953473"/>
    <nd ref="66953474"/>
    <nd ref="359039683"/>
    <nd ref="1398243164"/>
    <nd ref="66953475"/>
    <nd ref="1398243163"/>
    <nd ref="66953477"/>
    <nd ref="1398243161"/>
    <nd ref="311191343"/>
    <nd ref="1398243156"/>
    <nd ref="66953469"/>
    <tag k="electrified" v="contact_line"/>
    <tag k="frequency" v="0"/>
    <tag k="gauge" v="1435"/>
    <tag k="name" v="31"/>
    <tag k="railway" v="tram"/>
    <tag k="ref" v="31"/>
  </way>
  <way id="30836329" version="6" timestamp="2011-08-14T07:44:47Z" uid="56501" user="Rudolf_H" changeset="9012453">
    <nd ref="66953469"/>
    <nd ref="1398249062"/>
    <nd ref="1398243160"/>
    <nd ref="66953470"/>
    <nd ref="1398243166"/>
    <nd ref="311191337"/>
    <nd ref="66953471"/>
    <nd ref="66953472"/>
    <nd ref="311191335"/>
    <nd ref="66953473"/>
    <nd ref="66953474"/>
    <nd ref="359039683"/>
    <nd ref="1398243164"/>
    <nd ref="66953475"/>
    <nd ref="1398243163"/>
    <nd ref="66953477"/>
    <nd ref="1398243161"/>
    <nd ref="311191343"/>
    <nd ref="1398243156"/>
    <nd ref="66953469"/>
    <tag k="electrified" v="contact_line"/>
    <tag k="frequency" v="0"/>
    <tag k="gauge" v="1435"/>
    <tag k="name" v="31"/>
    <tag k="railway" v="tram"/>
    <tag k="ref" v="31"/>
  </way>
  <way id="30836329" version="7" timestamp="2011-08-15T04:42:44Z" uid="56501" user="Rudolf_H" changeset="9023253">
    <nd ref="66953469"/>
    <nd ref="1399437903"/>
    <nd ref="1398249062"/>
    <nd ref="1399437907"/>
    <nd ref="1398243160"/>
    <nd ref="66953470"/>
    <nd ref="1399437912"/>
    <nd ref="1398243166"/>
    <nd ref="311191337"/>
    <nd ref="1399437914"/>
    <nd ref="66953471"/>
    <nd ref="66953472"/>
    <nd ref="1399437917"/>
    <nd ref="1399437916"/>
    <nd ref="311191335"/>
    <nd ref="66953473"/>
    <nd ref="66953474"/>
    <nd ref="359039683"/>
    <nd ref="1398243164"/>
    <nd ref="66953475"/>
    <nd ref="1398243163"/>
    <nd ref="1399437911"/>
    <nd ref="1399437910"/>
    <nd ref="66953477"/>
    <nd ref="1398243161"/>
    <nd ref="1399437908"/>
    <nd ref="311191343"/>
    <nd ref="1399437906"/>
    <nd ref="1398243156"/>
    <nd ref="1399437904"/>
    <nd ref="1399437902"/>
    <nd ref="66953469"/>
    <tag k="electrified" v="contact_line"/>
    <tag k="frequency" v="0"/>
    <tag k="gauge" v="1435"/>
    <tag k="name" v="31"/>
    <tag k="oneway" v="yes"/>
    <tag k="railway" v="tram"/>
    <tag k="tracks" v="1"/>
  </way>
  <way id="30836329" version="8" timestamp="2011-11-08T00:47:45Z" uid="129531" user="almich" changeset="9770160">
    <nd ref="66953469"/>
    <nd ref="1399437903"/>
    <nd ref="1398249062"/>
    <nd ref="1399437907"/>
    <nd ref="1398243160"/>
    <nd ref="66953470"/>
    <nd ref="1399437912"/>
    <nd ref="1398243166"/>
    <nd ref="311191337"/>
    <nd ref="1399437914"/>
    <nd ref="66953471"/>
    <nd ref="66953472"/>
    <nd ref="1399437917"/>
    <nd ref="1399437916"/>
    <nd ref="311191335"/>
    <nd ref="66953473"/>
    <nd ref="66953474"/>
    <nd ref="359039683"/>
    <nd ref="1398243164"/>
    <nd ref="66953475"/>
    <nd ref="1398243163"/>
    <nd ref="1399437911"/>
    <nd ref="1399437910"/>
    <nd ref="66953477"/>
    <nd ref="1398243161"/>
    <nd ref="1399437908"/>
    <nd ref="311191343"/>
    <nd ref="1399437906"/>
    <nd ref="1398243156"/>
    <nd ref="1399437904"/>
    <nd ref="1399437902"/>
    <nd ref="66953469"/>
    <tag k="electrified" v="contact_line"/>
    <tag k="frequency" v="0"/>
    <tag k="gauge" v="1435"/>
    <tag k="name" v="31"/>
    <tag k="oneway" v="yes"/>
    <tag k="railway" v="tram"/>
    <tag k="tracks" v="1"/>
    <tag k="voltage" v="600"/>
  </way>
  <way id="30836329" version="9" timestamp="2012-01-19T12:46:51Z" uid="104947" user="My Friend" changeset="10436795">
    <nd ref="1399437903"/>
    <nd ref="1398249062"/>
    <nd ref="1399437907"/>
    <nd ref="1398243160"/>
    <nd ref="66953470"/>
    <nd ref="1399437912"/>
    <nd ref="1398243166"/>
    <nd ref="311191337"/>
    <nd ref="1399437914"/>
    <nd ref="66953471"/>
    <nd ref="66953472"/>
    <nd ref="1399437917"/>
    <nd ref="1399437916"/>
    <nd ref="311191335"/>
    <nd ref="66953473"/>
    <nd ref="66953474"/>
    <nd ref="359039683"/>
    <nd ref="1398243164"/>
    <nd ref="66953475"/>
    <nd ref="1398243163"/>
    <nd ref="1399437911"/>
    <nd ref="1399437910"/>
    <nd ref="66953477"/>
    <nd ref="1398243161"/>
    <nd ref="1399437908"/>
    <nd ref="311191343"/>
    <nd ref="1399437906"/>
    <nd ref="1398243156"/>
    <nd ref="1597602490"/>
    <nd ref="1399437904"/>
    <nd ref="1597600621"/>
    <tag k="electrified" v="contact_line"/>
    <tag k="frequency" v="0"/>
    <tag k="gauge" v="1435"/>
    <tag k="name" v="31"/>
    <tag k="oneway" v="yes"/>
    <tag k="railway" v="tram"/>
    <tag k="tracks" v="1"/>
    <tag k="voltage" v="600"/>
  </way>
  <way id="30836329" version="10" timestamp="2012-02-04T19:30:02Z" uid="129531" user="almich" changeset="10587778">
    <nd ref="1399437903"/>
    <nd ref="1398249062"/>
    <nd ref="1399437907"/>
    <nd ref="1398243160"/>
    <nd ref="66953470"/>
    <nd ref="1399437912"/>
    <nd ref="1398243166"/>
    <nd ref="311191337"/>
    <nd ref="1399437914"/>
    <nd ref="66953471"/>
    <tag k="electrified" v="contact_line"/>
    <tag k="frequency" v="0"/>
    <tag k="gauge" v="1435"/>
    <tag k="name" v="31"/>
    <tag k="oneway" v="yes"/>
    <tag k="railway" v="tram"/>
    <tag k="tracks" v="1"/>
    <tag k="voltage" v="600"/>
  </way>
  <way id="30836329" version="11" timestamp="2012-02-04T19:39:19Z" uid="129531" user="almich" changeset="10587869">
    <nd ref="1399437903"/>
    <nd ref="1398249062"/>
    <nd ref="1399437907"/>
    <nd ref="1398243160"/>
    <nd ref="66953470"/>
    <tag k="electrified" v="contact_line"/>
    <tag k="frequency" v="0"/>
    <tag k="gauge" v="1435"/>
    <tag k="name" v="31"/>
    <tag k="oneway" v="yes"/>
    <tag k="railway" v="tram"/>
    <tag k="tracks" v="1"/>
    <tag k="voltage" v="600"/>
  </way>
  <way id="30836368" version="3" timestamp="2010-01-20T00:37:31Z" uid="30201" user="rrankin" changeset="3663739">
    <nd ref="342890409"/>
    <nd ref="342890410"/>
    <tag k="highway" v="residential"/>
    <tag k="name" v="Truton Place"/>
  </way>
  <way id="30836368" version="4" timestamp="2010-07-08T01:37:21Z" uid="74617" user="JohnSmith" changeset="5162525">
    <nd ref="342890409"/>
    <nd ref="342890410"/>
    <tag k="highway" v="residential"/>
    <tag k="maxspeed" v="50"/>
    <tag k="maxspeed:source" v="default residential speed limit in Australia"/>
    <tag k="name" v="Truton Place"/>
  </way>
  <way id="30836368" version="5" timestamp="2012-01-18T05:22:20Z" uid="147510" user="woodpeck_fixbot" changeset="10424371">
    <nd ref="342890409"/>
    <nd ref="342890410"/>
    <tag k="highway" v="residential"/>
    <tag k="name" v="Truton Place"/>
  </way>
  <way id="30836379" version="1" timestamp="2009-02-07T11:13:18Z" uid="58091" user="Andreas M" changeset="247803">
    <nd ref="57520639"/>
    <nd ref="95042240"/>
    <nd ref="57520638"/>
    <nd ref="95042239"/>
    <nd ref="57520636"/>
    <nd ref="329352922"/>
    <nd ref="57520633"/>
    <nd ref="329352928"/>
    <nd ref="95042236"/>
    <nd ref="329352935"/>
    <nd ref="57520632"/>
    <nd ref="329352939"/>
    <nd ref="57520629"/>
    <nd ref="95042235"/>
    <nd ref="57520627"/>
    <nd ref="57520626"/>
    <nd ref="57520623"/>
    <nd ref="95041980"/>
    <nd ref="57520639"/>
    <tag k="created_by" v="Potlatch 0.10e"/>
    <tag k="railway" v="tram"/>
    <tag k="ref" v="31"/>
  </way>
  <way id="30836379" version="2" timestamp="2009-02-15T17:59:19Z" uid="28427" user="skunk" changeset="458074">
    <nd ref="57520639"/>
    <nd ref="95042240"/>
    <nd ref="57520638"/>
    <nd ref="95042239"/>
    <nd ref="57520636"/>
    <nd ref="329352922"/>
    <nd ref="57520633"/>
    <nd ref="329352928"/>
    <nd ref="95042236"/>
    <nd ref="329352935"/>
    <nd ref="57520632"/>
    <nd ref="329352939"/>
    <nd ref="57520629"/>
    <nd ref="95042235"/>
    <nd ref="57520627"/>
    <nd ref="57520626"/>
    <nd ref="57520623"/>
    <nd ref="95041980"/>
    <nd ref="57520639"/>
    <tag k="created_by" v="Potlatch 0.10e"/>
    <tag k="railway" v="tram"/>
    <tag k="ref" v="31"/>
    <tag k="tracks" v="1"/>
  </way>
  <way id="30836379" version="3" timestamp="2009-12-22T15:19:12Z" uid="56311" user="Elandrion" changeset="3428014">
    <nd ref="57520639"/>
    <nd ref="95042240"/>
    <nd ref="57520636"/>
    <nd ref="329352922"/>
    <nd ref="57520633"/>
    <nd ref="329352928"/>
    <nd ref="95042236"/>
    <nd ref="329352935"/>
    <nd ref="57520632"/>
    <nd ref="329352939"/>
    <nd ref="57520629"/>
    <nd ref="95042235"/>
    <nd ref="57520627"/>
    <nd ref="57520626"/>
    <nd ref="57520623"/>
    <nd ref="95042240"/>
    <tag k="railway" v="tram"/>
    <tag k="ref" v="31"/>
    <tag k="tracks" v="1"/>
  </way>
  <way id="30836379" version="4" timestamp="2010-04-18T20:00:45Z" uid="129531" user="almich" changeset="4462273">
    <nd ref="57520639"/>
    <nd ref="95042240"/>
    <nd ref="57520636"/>
    <nd ref="329352922"/>
    <nd ref="57520633"/>
    <nd ref="329352928"/>
    <nd ref="95042236"/>
    <nd ref="329352935"/>
    <nd ref="57520632"/>
    <nd ref="329352939"/>
    <nd ref="57520629"/>
    <nd ref="95042235"/>
    <nd ref="57520627"/>
    <nd ref="57520626"/>
    <nd ref="57520623"/>
    <nd ref="95042240"/>
    <tag k="gauge" v="1435"/>
    <tag k="railway" v="tram"/>
    <tag k="ref" v="31"/>
    <tag k="tracks" v="1"/>
  </way>
  <way id="30836379" version="5" timestamp="2010-04-18T20:25:35Z" uid="129531" user="almich" changeset="4462598">
    <nd ref="57520639"/>
    <nd ref="95042240"/>
    <nd ref="57520636"/>
    <nd ref="329352922"/>
    <nd ref="57520633"/>
    <nd ref="329352928"/>
    <nd ref="95042236"/>
    <nd ref="329352935"/>
    <nd ref="57520632"/>
    <nd ref="329352939"/>
    <nd ref="57520629"/>
    <nd ref="95042235"/>
    <nd ref="57520627"/>
    <nd ref="57520626"/>
    <nd ref="57520623"/>
    <nd ref="95042240"/>
    <tag k="electrified" v="contact_line"/>
    <tag k="frequency" v="0"/>
    <tag k="gauge" v="1435"/>
    <tag k="railway" v="tram"/>
    <tag k="ref" v="31"/>
    <tag k="tracks" v="1"/>
  </way>
  <way id="30836379" version="6" timestamp="2011-02-21T13:27:32Z" uid="321862" user="DanX" changeset="7353649">
    <nd ref="57520639"/>
    <nd ref="95042240"/>
    <nd ref="57520636"/>
    <nd ref="329352922"/>
    <nd ref="57520633"/>
    <nd ref="329352928"/>
    <nd ref="95042236"/>
    <nd ref="329352935"/>
    <nd ref="57520632"/>
    <nd ref="329352939"/>
    <nd ref="57520629"/>
    <nd ref="95042235"/>
    <nd ref="57520627"/>
    <nd ref="57520626"/>
    <nd ref="57520623"/>
    <nd ref="95042240"/>
    <tag k="electrified" v="contact_line"/>
    <tag k="frequency" v="0"/>
    <tag k="gauge" v="1435"/>
    <tag k="name" v="31"/>
    <tag k="railway" v="tram"/>
    <tag k="ref" v="31"/>
    <tag k="tracks" v="1"/>
  </way>
  <way id="30836379" version="7" timestamp="2011-04-19T17:26:09Z" uid="56501" user="Rudolf_H" changeset="7908599">
    <nd ref="57520639"/>
    <nd ref="95042240"/>
    <nd ref="57520636"/>
    <nd ref="329352922"/>
    <nd ref="57520633"/>
    <nd ref="329352928"/>
    <nd ref="95042236"/>
    <nd ref="329352935"/>
    <nd ref="57520632"/>
    <nd ref="329352939"/>
    <nd ref="57520629"/>
    <nd ref="1251420269"/>
    <nd ref="95042235"/>
    <nd ref="57520627"/>
    <nd ref="57520626"/>
    <nd ref="57520623"/>
    <nd ref="95042240"/>
    <tag k="electrified" v="contact_line"/>
    <tag k="frequency" v="0"/>
    <tag k="gauge" v="1435"/>
    <tag k="name" v="31"/>
    <tag k="railway" v="tram"/>
    <tag k="ref" v="31"/>
    <tag k="tracks" v="1"/>
  </way>
  <way id="30836379" version="8" timestamp="2011-08-14T19:12:57Z" uid="56501" user="Rudolf_H" changeset="9019810">
    <nd ref="57483288"/>
    <nd ref="57520644"/>
    <nd ref="57520641"/>
    <nd ref="95041878"/>
    <nd ref="57520640"/>
    <nd ref="413584596"/>
    <nd ref="353282301"/>
    <nd ref="413584595"/>
    <nd ref="57520639"/>
    <nd ref="95042240"/>
    <tag k="electrified" v="contact_line"/>
    <tag k="frequency" v="0"/>
    <tag k="gauge" v="1435"/>
    <tag k="name" v="31"/>
    <tag k="railway" v="tram"/>
    <tag k="tracks" v="2"/>
  </way>
  <way id="30836379" version="9" timestamp="2011-11-08T00:01:50Z" uid="129531" user="almich" changeset="9770029">
    <nd ref="57483288"/>
    <nd ref="57520644"/>
    <nd ref="57520641"/>
    <nd ref="95041878"/>
    <nd ref="57520640"/>
    <nd ref="413584596"/>
    <nd ref="353282301"/>
    <nd ref="413584595"/>
    <nd ref="57520639"/>
    <nd ref="95042240"/>
    <tag k="electrified" v="contact_line"/>
    <tag k="frequency" v="0"/>
    <tag k="gauge" v="1435"/>
    <tag k="name" v="31"/>
    <tag k="railway" v="tram"/>
    <tag k="tracks" v="2"/>
    <tag k="voltage" v="600"/>
  </way>
  <way id="30836379" version="10" timestamp="2012-01-22T22:14:38Z" uid="129531" user="almich" changeset="10470616"/>
  <way id="30836388" version="4" timestamp="2009-02-23T12:40:52Z" uid="34428" user="usm78-gis" changeset="634299"/>
  <way id="30836414" version="7" timestamp="2010-07-08T01:31:37Z" uid="74617" user="JohnSmith" changeset="5162525">
    <nd ref="342925391"/>
    <nd ref="342892750"/>
    <nd ref="342892751"/>
    <nd ref="342894462"/>
    <nd ref="342892700"/>
    <tag k="highway" v="residential"/>
    <tag k="maxspeed" v="50"/>
    <tag k="maxspeed:source" v="default residential speed limit in Australia"/>
    <tag k="name" v="Dawes Avenue"/>
  </way>
  <way id="30836414" version="8" timestamp="2012-01-18T05:22:21Z" uid="147510" user="woodpeck_fixbot" changeset="10424371">
    <nd ref="342925391"/>
    <nd ref="342892750"/>
    <nd ref="342892751"/>
    <nd ref="342894462"/>
    <nd ref="342892700"/>
    <tag k="highway" v="residential"/>
    <tag k="name" v="Dawes Avenue"/>
  </way>
  <way id="30836429" version="8" timestamp="2010-01-02T07:08:50Z" uid="61114" user="Trav" changeset="3516062">
    <nd ref="342924368"/>
    <nd ref="342893532"/>
    <nd ref="602923744"/>
    <nd ref="342893533"/>
    <nd ref="342893534"/>
    <nd ref="342893535"/>
    <nd ref="342893537"/>
    <nd ref="342893539"/>
    <tag k="highway" v="residential"/>
    <tag k="name" v="Sexton Av"/>
  </way>
  <way id="30836429" version="9" timestamp="2010-03-15T03:39:32Z" uid="1679" user="andrewpmk" changeset="4131687">
    <nd ref="342924368"/>
    <nd ref="342893532"/>
    <nd ref="602923744"/>
    <nd ref="342893533"/>
    <nd ref="342893534"/>
    <nd ref="342893535"/>
    <nd ref="342893537"/>
    <nd ref="342893539"/>
    <tag k="highway" v="residential"/>
    <tag k="name" v="Sexton Avenue"/>
  </way>
  <way id="30836429" version="10" timestamp="2010-07-08T01:33:50Z" uid="74617" user="JohnSmith" changeset="5162525">
    <nd ref="342924368"/>
    <nd ref="342893532"/>
    <nd ref="602923744"/>
    <nd ref="342893533"/>
    <nd ref="342893534"/>
    <nd ref="342893535"/>
    <nd ref="342893537"/>
    <nd ref="342893539"/>
    <tag k="highway" v="residential"/>
    <tag k="maxspeed" v="50"/>
    <tag k="maxspeed:source" v="default residential speed limit in Australia"/>
    <tag k="name" v="Sexton Avenue"/>
  </way>
  <way id="30836429" version="11" timestamp="2012-01-18T05:22:23Z" uid="147510" user="woodpeck_fixbot" changeset="10424371">
    <nd ref="342924368"/>
    <nd ref="342893532"/>
    <nd ref="602923744"/>
    <nd ref="342893533"/>
    <nd ref="342893534"/>
    <nd ref="342893535"/>
    <nd ref="342893537"/>
    <nd ref="342893539"/>
    <tag k="highway" v="residential"/>
    <tag k="name" v="Sexton Avenue"/>
  </way>
  <way id="30836445" version="5" timestamp="2009-02-23T12:15:29Z" uid="34428" user="usm78-gis" changeset="634299"/>
  <way id="30836455" version="5" timestamp="2009-10-09T22:10:12Z" uid="61114" user="Trav" changeset="2798760">
    <nd ref="342894972"/>
    <nd ref="342894456"/>
    <nd ref="342894457"/>
    <nd ref="342894459"/>
    <nd ref="342894460"/>
    <nd ref="342894461"/>
    <tag k="highway" v="residential"/>
    <tag k="name" v="Cadman Crescent"/>
  </way>
  <way id="30836455" version="6" timestamp="2010-07-08T01:34:47Z" uid="74617" user="JohnSmith" changeset="5162525">
    <nd ref="342894972"/>
    <nd ref="342894456"/>
    <nd ref="342894457"/>
    <nd ref="342894459"/>
    <nd ref="342894460"/>
    <nd ref="342894461"/>
    <tag k="highway" v="residential"/>
    <tag k="maxspeed" v="50"/>
    <tag k="maxspeed:source" v="default residential speed limit in Australia"/>
    <tag k="name" v="Cadman Crescent"/>
  </way>
  <way id="30836455" version="7" timestamp="2012-01-18T05:22:24Z" uid="147510" user="woodpeck_fixbot" changeset="10424371">
    <nd ref="342894972"/>
    <nd ref="342894456"/>
    <nd ref="342894457"/>
    <nd ref="342894459"/>
    <nd ref="342894460"/>
    <nd ref="342894461"/>
    <tag k="highway" v="residential"/>
    <tag k="name" v="Cadman Crescent"/>
  </way>
  <way id="30836503" version="4" timestamp="2009-02-23T13:39:24Z" uid="34428" user="usm78-gis" changeset="634299"/>
  <way id="30836572" version="4" timestamp="2009-02-23T13:11:32Z" uid="34428" user="usm78-gis" changeset="634299"/>
  <way id="30836624" version="2" timestamp="2010-07-09T04:58:24Z" uid="74617" user="JohnSmith" changeset="5170972">
    <nd ref="248267204"/>
    <nd ref="248267208"/>
    <nd ref="248266973"/>
    <tag k="highway" v="residential"/>
    <tag k="maxspeed" v="50"/>
    <tag k="maxspeed:source" v="default residential speed limit in Australia"/>
  </way>
  <way id="30836624" version="3" timestamp="2010-11-04T02:35:16Z" uid="57437" user="Canley" changeset="6280857">
    <nd ref="248266973"/>
    <nd ref="248267208"/>
    <nd ref="248267204"/>
    <tag k="highway" v="residential"/>
    <tag k="maxspeed" v="40"/>
    <tag k="name" v="Dunn Street"/>
    <tag k="oneway" v="yes"/>
  </way>
  <way id="30836624" version="4" timestamp="2011-03-31T02:27:44Z" uid="429860" user="tx72639h" changeset="7722408">
    <nd ref="248266973"/>
    <nd ref="248267208"/>
    <nd ref="248267204"/>
    <tag k="highway" v="residential"/>
    <tag k="maxspeed" v="40"/>
    <tag k="name" v="Dunn Street"/>
  </way>
  <way id="30836624" version="5" timestamp="2011-12-01T06:51:15Z" uid="11111" user="melb_guy" changeset="10005555">
    <nd ref="248266973"/>
    <nd ref="248267208"/>
    <nd ref="248267204"/>
    <tag k="highway" v="residential"/>
    <tag k="maxspeed" v="40"/>
    <tag k="name" v="Dunn Street"/>
    <tag k="oneway" v="yes"/>
    <tag k="surface" v="asphalt"/>
  </way>
  <way id="30836624" version="6" timestamp="2012-01-18T05:22:25Z" uid="147510" user="woodpeck_fixbot" changeset="10424371">
    <nd ref="248266973"/>
    <nd ref="248267208"/>
    <nd ref="248267204"/>
    <tag k="highway" v="residential"/>
    <tag k="name" v="Dunn Street"/>
    <tag k="oneway" v="yes"/>
    <tag k="surface" v="asphalt"/>
  </way>
  <way id="30836669" version="1" timestamp="2009-02-07T11:26:28Z" uid="58091" user="Andreas M" changeset="247803">
    <nd ref="64969715"/>
    <nd ref="29048472"/>
    <nd ref="269542535"/>
    <nd ref="291088171"/>
    <tag k="created_by" v="Potlatch 0.7b"/>
    <tag k="highway" v="tertiary"/>
    <tag k="name" v="Kreuzgasse"/>
    <tag k="railway" v="tram"/>
  </way>
  <way id="30836669" version="2" timestamp="2009-03-11T18:02:23Z" uid="104047" user="e9426086" changeset="786884">
    <nd ref="64969715"/>
    <nd ref="29048472"/>
    <nd ref="269542535"/>
    <nd ref="291088171"/>
    <tag k="created_by" v="Potlatch 0.10f"/>
    <tag k="highway" v="tertiary"/>
    <tag k="maxspeed" v="50"/>
    <tag k="name" v="Kreuzgasse"/>
    <tag k="railway" v="tram"/>
  </way>
  <way id="30836669" version="3" timestamp="2009-03-14T16:21:35Z" uid="104047" user="e9426086" changeset="809780">
    <nd ref="64969715"/>
    <nd ref="29048472"/>
    <nd ref="291088171"/>
    <tag k="created_by" v="Potlatch 0.10f"/>
    <tag k="highway" v="tertiary"/>
    <tag k="maxspeed" v="50"/>
    <tag k="name" v="Kreuzgasse"/>
    <tag k="railway" v="tram"/>
  </way>
  <way id="30836669" version="4" timestamp="2009-06-19T14:47:56Z" uid="136033" user="peter_wien" changeset="1565605">
    <nd ref="64969715"/>
    <nd ref="29048472"/>
    <tag k="created_by" v="Potlatch 0.10f"/>
    <tag k="highway" v="tertiary"/>
    <tag k="maxspeed" v="50"/>
    <tag k="name" v="Kreuzgasse"/>
    <tag k="railway" v="tram"/>
  </way>
  <way id="30836669" version="5" timestamp="2009-06-29T15:45:14Z" uid="136033" user="peter_wien" changeset="1679055">
    <nd ref="64969715"/>
    <nd ref="430811220"/>
    <nd ref="29048472"/>
    <tag k="created_by" v="Potlatch 0.10f"/>
    <tag k="highway" v="tertiary"/>
    <tag k="maxspeed" v="50"/>
    <tag k="name" v="Kreuzgasse"/>
    <tag k="railway" v="tram"/>
  </way>
  <way id="30836669" version="6" timestamp="2010-04-18T19:59:11Z" uid="129531" user="almich" changeset="4462273">
    <nd ref="64969715"/>
    <nd ref="430811220"/>
    <nd ref="29048472"/>
    <tag k="gauge" v="1435"/>
    <tag k="highway" v="tertiary"/>
    <tag k="maxspeed" v="50"/>
    <tag k="name" v="Kreuzgasse"/>
    <tag k="railway" v="tram"/>
  </way>
  <way id="30836669" version="7" timestamp="2010-04-18T20:24:11Z" uid="129531" user="almich" changeset="4462598">
    <nd ref="64969715"/>
    <nd ref="430811220"/>
    <nd ref="29048472"/>
    <tag k="electrified" v="contact_line"/>
    <tag k="frequency" v="0"/>
    <tag k="gauge" v="1435"/>
    <tag k="highway" v="tertiary"/>
    <tag k="maxspeed" v="50"/>
    <tag k="name" v="Kreuzgasse"/>
    <tag k="railway" v="tram"/>
  </way>
  <way id="30836669" version="8" timestamp="2010-12-20T18:16:38Z" uid="136033" user="peter_wien" changeset="6718290">
    <nd ref="64969715"/>
    <nd ref="29048472"/>
    <tag k="electrified" v="contact_line"/>
    <tag k="frequency" v="0"/>
    <tag k="gauge" v="1435"/>
    <tag k="highway" v="tertiary"/>
    <tag k="maxspeed" v="50"/>
    <tag k="name" v="Kreuzgasse"/>
    <tag k="railway" v="tram"/>
  </way>
  <way id="30836669" version="9" timestamp="2011-11-08T00:00:27Z" uid="129531" user="almich" changeset="9770029">
    <nd ref="64969715"/>
    <nd ref="29048472"/>
    <tag k="electrified" v="contact_line"/>
    <tag k="frequency" v="0"/>
    <tag k="gauge" v="1435"/>
    <tag k="highway" v="tertiary"/>
    <tag k="maxspeed" v="50"/>
    <tag k="name" v="Kreuzgasse"/>
    <tag k="railway" v="tram"/>
    <tag k="voltage" v="600"/>
  </way>
  <way id="30836669" version="10" timestamp="2012-02-04T12:30:14Z" uid="129531" user="almich" changeset="10583627"/>
  <way id="30836679" version="5" timestamp="2010-07-08T01:34:33Z" uid="74617" user="JohnSmith" changeset="5162525">
    <nd ref="342894773"/>
    <nd ref="342894972"/>
    <nd ref="342894775"/>
    <nd ref="342894776"/>
    <nd ref="342894461"/>
    <nd ref="342894462"/>
    <tag k="highway" v="residential"/>
    <tag k="maxspeed" v="50"/>
    <tag k="maxspeed:source" v="default residential speed limit in Australia"/>
    <tag k="name" v="Hughes Avenue"/>
  </way>
  <way id="30836679" version="6" timestamp="2012-01-18T05:22:26Z" uid="147510" user="woodpeck_fixbot" changeset="10424371">
    <nd ref="342894773"/>
    <nd ref="342894972"/>
    <nd ref="342894775"/>
    <nd ref="342894776"/>
    <nd ref="342894461"/>
    <nd ref="342894462"/>
    <tag k="highway" v="residential"/>
    <tag k="name" v="Hughes Avenue"/>
  </way>
  <way id="30836699" version="2" timestamp="2010-07-09T04:57:16Z" uid="74617" user="JohnSmith" changeset="5170972">
    <nd ref="248266973"/>
    <nd ref="315715858"/>
    <tag k="highway" v="residential"/>
    <tag k="maxspeed" v="50"/>
    <tag k="maxspeed:source" v="default residential speed limit in Australia"/>
    <tag k="name" v="White Street"/>
    <tag k="source" v="Yahoo"/>
    <tag k="source:name" v="Collins 1936"/>
  </way>
  <way id="30836699" version="3" timestamp="2010-11-04T02:35:15Z" uid="57437" user="Canley" changeset="6280857">
    <nd ref="248266973"/>
    <nd ref="315715858"/>
    <tag k="highway" v="residential"/>
    <tag k="maxspeed" v="50"/>
    <tag k="maxspeed:source" v="default residential speed limit in Australia"/>
    <tag k="name" v="White Street"/>
    <tag k="oneway" v="yes"/>
    <tag k="source" v="Yahoo"/>
    <tag k="source:name" v="Collins 1936"/>
  </way>
  <way id="30836699" version="4" timestamp="2011-12-01T06:51:15Z" uid="11111" user="melb_guy" changeset="10005555">
    <nd ref="248266973"/>
    <nd ref="315715858"/>
    <tag k="highway" v="residential"/>
    <tag k="maxspeed" v="40"/>
    <tag k="name" v="White Street"/>
    <tag k="oneway" v="yes"/>
    <tag k="source:name" v="Collins 1936"/>
    <tag k="surface" v="asphalt"/>
  </way>
  <way id="30836699" version="5" timestamp="2012-01-18T05:22:27Z" uid="147510" user="woodpeck_fixbot" changeset="10424371">
    <nd ref="248266973"/>
    <nd ref="315715858"/>
    <tag k="highway" v="residential"/>
    <tag k="name" v="White Street"/>
    <tag k="oneway" v="yes"/>
    <tag k="source:name" v="Collins 1936"/>
    <tag k="surface" v="asphalt"/>
  </way>
  <way id="30836750" version="5" timestamp="2010-07-09T04:56:23Z" uid="74617" user="JohnSmith" changeset="5170972">
    <nd ref="315715855"/>
    <nd ref="342905072"/>
    <nd ref="342904387"/>
    <nd ref="342905704"/>
    <nd ref="342906533"/>
    <nd ref="342904388"/>
    <tag k="highway" v="residential"/>
    <tag k="maxspeed" v="50"/>
    <tag k="maxspeed:source" v="default residential speed limit in Australia"/>
    <tag k="name" v="Walnut Street"/>
    <tag k="source" v="Yahoo"/>
    <tag k="source:name" v="Collins 1936"/>
  </way>
  <way id="30836750" version="6" timestamp="2010-11-04T02:40:35Z" uid="57437" user="Canley" changeset="6280857">
    <nd ref="315715855"/>
    <nd ref="342905072"/>
    <nd ref="342904387"/>
    <tag k="highway" v="residential"/>
    <tag k="maxspeed" v="50"/>
    <tag k="maxspeed:source" v="default residential speed limit in Australia"/>
    <tag k="name" v="Walnut Street"/>
    <tag k="source" v="Yahoo"/>
    <tag k="source:name" v="Collins 1936"/>
  </way>
  <way id="30836750" version="7" timestamp="2011-12-01T06:51:16Z" uid="11111" user="melb_guy" changeset="10005555">
    <nd ref="315715855"/>
    <nd ref="342905072"/>
    <nd ref="342904387"/>
    <tag k="highway" v="residential"/>
    <tag k="maxspeed" v="40"/>
    <tag k="name" v="Walnut Street"/>
    <tag k="oneway" v="yes"/>
    <tag k="source:name" v="Collins 1936"/>
    <tag k="surface" v="asphalt"/>
  </way>
  <way id="30836750" version="8" timestamp="2012-01-18T05:22:32Z" uid="147510" user="woodpeck_fixbot" changeset="10424371">
    <nd ref="315715855"/>
    <nd ref="342905072"/>
    <nd ref="342904387"/>
    <tag k="highway" v="residential"/>
    <tag k="name" v="Walnut Street"/>
    <tag k="oneway" v="yes"/>
    <tag k="source:name" v="Collins 1936"/>
    <tag k="surface" v="asphalt"/>
  </way>
  <way id="30836788" version="2" timestamp="2010-07-09T04:59:02Z" uid="74617" user="JohnSmith" changeset="5170972">
    <nd ref="342905072"/>
    <nd ref="342905512"/>
    <tag k="highway" v="residential"/>
    <tag k="maxspeed" v="50"/>
    <tag k="maxspeed:source" v="default residential speed limit in Australia"/>
    <tag k="name" v="Pearson Street"/>
    <tag k="source" v="Yahoo"/>
    <tag k="source:name" v="Collins 1936"/>
  </way>
  <way id="30836788" version="3" timestamp="2010-11-04T02:35:17Z" uid="57437" user="Canley" changeset="6280857">
    <nd ref="342905512"/>
    <nd ref="342905072"/>
    <tag k="highway" v="residential"/>
    <tag k="maxspeed" v="50"/>
    <tag k="maxspeed:source" v="default residential speed limit in Australia"/>
    <tag k="name" v="Pearson Street"/>
    <tag k="oneway" v="yes"/>
    <tag k="source" v="Yahoo"/>
    <tag k="source:name" v="Collins 1936"/>
  </way>
  <way id="30836788" version="4" timestamp="2011-12-01T06:51:16Z" uid="11111" user="melb_guy" changeset="10005555">
    <nd ref="342905512"/>
    <nd ref="1525946744"/>
    <nd ref="1525946745"/>
    <nd ref="342905072"/>
    <tag k="highway" v="residential"/>
    <tag k="maxspeed" v="40"/>
    <tag k="name" v="Pearson Street"/>
    <tag k="oneway" v="yes"/>
    <tag k="source:name" v="Collins 1936"/>
    <tag k="surface" v="asphalt"/>
  </way>
  <way id="30836788" version="5" timestamp="2012-01-18T05:22:33Z" uid="147510" user="woodpeck_fixbot" changeset="10424371">
    <nd ref="342905512"/>
    <nd ref="1525946744"/>
    <nd ref="1525946745"/>
    <nd ref="342905072"/>
    <tag k="highway" v="residential"/>
    <tag k="name" v="Pearson Street"/>
    <tag k="oneway" v="yes"/>
    <tag k="source:name" v="Collins 1936"/>
    <tag k="surface" v="asphalt"/>
  </way>
  <way id="30836812" version="2" timestamp="2010-07-09T04:57:35Z" uid="74617" user="JohnSmith" changeset="5170972">
    <nd ref="342905704"/>
    <nd ref="342905896"/>
    <tag k="highway" v="residential"/>
    <tag k="maxspeed" v="50"/>
    <tag k="maxspeed:source" v="default residential speed limit in Australia"/>
    <tag k="name" v="Hutchings Street"/>
    <tag k="source" v="Yahoo"/>
    <tag k="source:name" v="Collins 1936"/>
  </way>
  <way id="30836812" version="3" timestamp="2011-12-01T06:51:16Z" uid="11111" user="melb_guy" changeset="10005555">
    <nd ref="342905704"/>
    <nd ref="342905896"/>
    <tag k="highway" v="residential"/>
    <tag k="maxspeed" v="40"/>
    <tag k="name" v="Hutchings Street"/>
    <tag k="oneway" v="yes"/>
    <tag k="source:name" v="Collins 1936"/>
    <tag k="surface" v="asphalt"/>
  </way>
  <way id="30836812" version="4" timestamp="2012-01-18T05:22:35Z" uid="147510" user="woodpeck_fixbot" changeset="10424371">
    <nd ref="342905704"/>
    <nd ref="342905896"/>
    <tag k="highway" v="residential"/>
    <tag k="name" v="Hutchings Street"/>
    <tag k="oneway" v="yes"/>
    <tag k="source:name" v="Collins 1936"/>
    <tag k="surface" v="asphalt"/>
  </way>
  <way id="30836844" version="2" timestamp="2010-07-09T04:55:38Z" uid="74617" user="JohnSmith" changeset="5170972">
    <nd ref="342906533"/>
    <nd ref="342906834"/>
    <tag k="highway" v="residential"/>
    <tag k="maxspeed" v="50"/>
    <tag k="maxspeed:source" v="default residential speed limit in Australia"/>
    <tag k="name" v="Hill Street"/>
    <tag k="source" v="Yahoo"/>
    <tag k="source:name" v="Collins 1936"/>
  </way>
  <way id="30836844" version="3" timestamp="2011-12-01T06:51:17Z" uid="11111" user="melb_guy" changeset="10005555">
    <nd ref="342906533"/>
    <nd ref="342906834"/>
    <tag k="highway" v="residential"/>
    <tag k="maxspeed" v="40"/>
    <tag k="name" v="Hill Street"/>
    <tag k="oneway" v="yes"/>
    <tag k="source:name" v="Collins 1936"/>
    <tag k="surface" v="asphalt"/>
  </way>
  <way id="30836844" version="4" timestamp="2012-01-18T05:22:36Z" uid="147510" user="woodpeck_fixbot" changeset="10424371">
    <nd ref="342906533"/>
    <nd ref="342906834"/>
    <tag k="highway" v="residential"/>
    <tag k="name" v="Hill Street"/>
    <tag k="oneway" v="yes"/>
    <tag k="source:name" v="Collins 1936"/>
    <tag k="surface" v="asphalt"/>
  </way>
  <way id="30836852" version="2" timestamp="2010-07-09T04:54:31Z" uid="74617" user="JohnSmith" changeset="5170972">
    <nd ref="342906924"/>
    <nd ref="342904388"/>
    <nd ref="342907126"/>
    <tag k="highway" v="residential"/>
    <tag k="maxspeed" v="50"/>
    <tag k="maxspeed:source" v="default residential speed limit in Australia"/>
    <tag k="name" v="William Street"/>
    <tag k="source" v="Yahoo"/>
    <tag k="source:name" v="Collins 1936"/>
  </way>
  <way id="30836852" version="3" timestamp="2010-11-04T02:35:13Z" uid="57437" user="Canley" changeset="6280857">
    <nd ref="342907126"/>
    <nd ref="342904388"/>
    <nd ref="342906924"/>
    <tag k="highway" v="residential"/>
    <tag k="maxspeed" v="50"/>
    <tag k="maxspeed:source" v="default residential speed limit in Australia"/>
    <tag k="name" v="William Street"/>
    <tag k="oneway" v="yes"/>
    <tag k="source" v="Yahoo"/>
    <tag k="source:name" v="Collins 1936"/>
  </way>
  <way id="30836852" version="4" timestamp="2011-12-01T06:51:17Z" uid="11111" user="melb_guy" changeset="10005555">
    <nd ref="342907126"/>
    <nd ref="342904388"/>
    <nd ref="342906924"/>
    <tag k="highway" v="residential"/>
    <tag k="maxspeed" v="40"/>
    <tag k="name" v="William Street"/>
    <tag k="oneway" v="yes"/>
    <tag k="source:name" v="Collins 1936"/>
    <tag k="surface" v="asphalt"/>
  </way>
  <way id="30836852" version="5" timestamp="2012-01-18T05:22:37Z" uid="147510" user="woodpeck_fixbot" changeset="10424371">
    <nd ref="342907126"/>
    <nd ref="342904388"/>
    <nd ref="342906924"/>
    <tag k="highway" v="residential"/>
    <tag k="name" v="William Street"/>
    <tag k="oneway" v="yes"/>
    <tag k="source:name" v="Collins 1936"/>
    <tag k="surface" v="asphalt"/>
  </way>
  <way id="30836854" version="1" timestamp="2009-02-07T11:33:05Z" uid="58091" user="Andreas M" changeset="247803">
    <nd ref="320193074"/>
    <nd ref="320193082"/>
    <tag k="created_by" v="Potlatch 0.10b"/>
    <tag k="highway" v="secondary"/>
    <tag k="name" v="Dornbacher Straße"/>
    <tag k="railway" v="tram"/>
  </way>
  <way id="30836854" version="2" timestamp="2010-01-20T21:14:17Z" uid="78656" user="Walter Schlögl" changeset="3670506">
    <nd ref="320193074"/>
    <nd ref="320193082"/>
    <tag k="highway" v="secondary"/>
    <tag k="maxspeed" v="50"/>
    <tag k="name" v="Dornbacher Straße"/>
    <tag k="railway" v="tram"/>
  </way>
  <way id="30836854" version="3" timestamp="2010-04-18T19:58:46Z" uid="129531" user="almich" changeset="4462273">
    <nd ref="320193074"/>
    <nd ref="320193082"/>
    <tag k="gauge" v="1435"/>
    <tag k="highway" v="secondary"/>
    <tag k="maxspeed" v="50"/>
    <tag k="name" v="Dornbacher Straße"/>
    <tag k="railway" v="tram"/>
  </way>
  <way id="30836854" version="4" timestamp="2010-04-18T20:23:50Z" uid="129531" user="almich" changeset="4462598">
    <nd ref="320193074"/>
    <nd ref="320193082"/>
    <tag k="electrified" v="contact_line"/>
    <tag k="frequency" v="0"/>
    <tag k="gauge" v="1435"/>
    <tag k="highway" v="secondary"/>
    <tag k="maxspeed" v="50"/>
    <tag k="name" v="Dornbacher Straße"/>
    <tag k="railway" v="tram"/>
  </way>
  <way id="30836854" version="5" timestamp="2010-09-13T20:11:37Z" uid="129531" user="almich" changeset="5773276">
    <nd ref="320193074"/>
    <nd ref="320193082"/>
    <tag k="electrified" v="contact_line"/>
    <tag k="frequency" v="0"/>
    <tag k="gauge" v="1435"/>
    <tag k="highway" v="secondary"/>
    <tag k="maxspeed" v="50"/>
    <tag k="name" v="Dornbacher Straße"/>
    <tag k="railway" v="tram"/>
    <tag k="tracks" v="1"/>
  </way>
  <way id="30836854" version="6" timestamp="2011-07-03T09:31:23Z" uid="473925" user="caigner" changeset="8616194">
    <nd ref="320193074"/>
    <nd ref="1347663422"/>
    <nd ref="1347663400"/>
    <nd ref="1347663349"/>
    <nd ref="320193082"/>
    <tag k="electrified" v="contact_line"/>
    <tag k="frequency" v="0"/>
    <tag k="gauge" v="1435"/>
    <tag k="highway" v="secondary"/>
    <tag k="maxspeed" v="50"/>
    <tag k="name" v="Dornbacher Straße"/>
    <tag k="railway" v="tram"/>
    <tag k="tracks" v="1"/>
  </way>
  <way id="30836854" version="7" timestamp="2011-11-07T23:58:59Z" uid="129531" user="almich" changeset="9770029">
    <nd ref="320193074"/>
    <nd ref="1347663422"/>
    <nd ref="1347663400"/>
    <nd ref="1347663349"/>
    <nd ref="320193082"/>
    <tag k="electrified" v="contact_line"/>
    <tag k="frequency" v="0"/>
    <tag k="gauge" v="1435"/>
    <tag k="highway" v="secondary"/>
    <tag k="maxspeed" v="50"/>
    <tag k="name" v="Dornbacher Straße"/>
    <tag k="railway" v="tram"/>
    <tag k="tracks" v="1"/>
    <tag k="voltage" v="600"/>
  </way>
  <way id="30836854" version="8" timestamp="2012-02-12T20:42:29Z" uid="129531" user="almich" changeset="10667964"/>
  <way id="30836859" version="3" timestamp="2010-07-09T04:56:21Z" uid="74617" user="JohnSmith" changeset="5170972">
    <nd ref="342907194"/>
    <nd ref="342908529"/>
    <nd ref="342907571"/>
    <nd ref="342907572"/>
    <tag k="highway" v="residential"/>
    <tag k="maxspeed" v="50"/>
    <tag k="maxspeed:source" v="default residential speed limit in Australia"/>
    <tag k="name" v="Adelaide Street"/>
    <tag k="source" v="Yahoo"/>
    <tag k="source:name" v="Collins 1936"/>
  </way>
  <way id="30836859" version="4" timestamp="2011-12-01T06:51:17Z" uid="11111" user="melb_guy" changeset="10005555">
    <nd ref="342907194"/>
    <nd ref="342908529"/>
    <nd ref="342907571"/>
    <nd ref="342907572"/>
    <tag k="highway" v="residential"/>
    <tag k="maxspeed" v="40"/>
    <tag k="name" v="Adelaide Street"/>
    <tag k="oneway" v="yes"/>
    <tag k="source:name" v="Collins 1936"/>
    <tag k="surface" v="asphalt"/>
  </way>
  <way id="30836859" version="5" timestamp="2012-01-18T05:22:38Z" uid="147510" user="woodpeck_fixbot" changeset="10424371">
    <nd ref="342907194"/>
    <nd ref="342908529"/>
    <nd ref="342907571"/>
    <nd ref="342907572"/>
    <tag k="highway" v="residential"/>
    <tag k="name" v="Adelaide Street"/>
    <tag k="oneway" v="yes"/>
    <tag k="source:name" v="Collins 1936"/>
    <tag k="surface" v="asphalt"/>
  </way>
  <way id="30836958" version="3" timestamp="2010-07-09T04:58:55Z" uid="74617" user="JohnSmith" changeset="5170972">
    <nd ref="342909428"/>
    <nd ref="342913012"/>
    <nd ref="342909685"/>
    <tag k="highway" v="residential"/>
    <tag k="maxspeed" v="50"/>
    <tag k="maxspeed:source" v="default residential speed limit in Australia"/>
    <tag k="name" v="Gordon Street"/>
    <tag k="source" v="Yahoo"/>
    <tag k="source:name" v="Collins 1936"/>
  </way>
  <way id="30836958" version="4" timestamp="2011-12-01T06:51:18Z" uid="11111" user="melb_guy" changeset="10005555">
    <nd ref="342909428"/>
    <nd ref="342913012"/>
    <nd ref="342909685"/>
    <tag k="highway" v="residential"/>
    <tag k="maxspeed" v="40"/>
    <tag k="name" v="Gordon Street"/>
    <tag k="oneway" v="yes"/>
    <tag k="source" v="Yahoo"/>
    <tag k="source:name" v="Collins 1936"/>
    <tag k="surface" v="asphalt"/>
  </way>
  <way id="30836958" version="5" timestamp="2012-01-18T05:22:40Z" uid="147510" user="woodpeck_fixbot" changeset="10424371">
    <nd ref="342909428"/>
    <nd ref="342913012"/>
    <nd ref="342909685"/>
    <tag k="highway" v="residential"/>
    <tag k="name" v="Gordon Street"/>
    <tag k="oneway" v="yes"/>
    <tag k="source" v="Yahoo"/>
    <tag k="source:name" v="Collins 1936"/>
    <tag k="surface" v="asphalt"/>
  </way>
  <way id="30836970" version="4" timestamp="2010-02-15T06:02:56Z" uid="74617" user="JohnSmith" changeset="3880328">
    <nd ref="270224651"/>
    <nd ref="342910645"/>
    <nd ref="342910646"/>
    <tag k="access" v="permissive"/>
    <tag k="highway" v="service"/>
    <tag k="layer" v="-1"/>
    <tag k="maxspeed" v="50"/>
    <tag k="name" v="underground carpark"/>
    <tag k="tunnel" v="yes"/>
  </way>
  <way id="30836970" version="5" timestamp="2012-01-18T05:22:41Z" uid="147510" user="woodpeck_fixbot" changeset="10424371">
    <nd ref="270224651"/>
    <nd ref="342910645"/>
    <nd ref="342910646"/>
    <tag k="access" v="permissive"/>
    <tag k="highway" v="service"/>
    <tag k="layer" v="-1"/>
    <tag k="name" v="underground carpark"/>
    <tag k="tunnel" v="yes"/>
  </way>
  <way id="30836982" version="4" timestamp="2010-02-15T06:02:57Z" uid="74617" user="JohnSmith" changeset="3880328">
    <nd ref="270226172"/>
    <nd ref="342911055"/>
    <nd ref="342910645"/>
    <tag k="access" v="permissive"/>
    <tag k="highway" v="service"/>
    <tag k="layer" v="-1"/>
    <tag k="maxspeed" v="50"/>
    <tag k="name" v="underground carpark"/>
    <tag k="oneway" v="yes"/>
    <tag k="tunnel" v="yes"/>
  </way>
  <way id="30836982" version="5" timestamp="2012-01-18T05:22:43Z" uid="147510" user="woodpeck_fixbot" changeset="10424371">
    <nd ref="270226172"/>
    <nd ref="342911055"/>
    <nd ref="342910645"/>
    <tag k="access" v="permissive"/>
    <tag k="highway" v="service"/>
    <tag k="layer" v="-1"/>
    <tag k="name" v="underground carpark"/>
    <tag k="oneway" v="yes"/>
    <tag k="tunnel" v="yes"/>
  </way>
  <way id="30836986" version="4" timestamp="2010-02-15T06:02:57Z" uid="74617" user="JohnSmith" changeset="3880328">
    <nd ref="342910645"/>
    <nd ref="342911301"/>
    <nd ref="270226280"/>
    <tag k="access" v="permissive"/>
    <tag k="highway" v="service"/>
    <tag k="layer" v="-1"/>
    <tag k="maxspeed" v="50"/>
    <tag k="name" v="underground carpark"/>
    <tag k="oneway" v="yes"/>
    <tag k="tunnel" v="yes"/>
  </way>
  <way id="30836986" version="5" timestamp="2012-01-18T05:22:44Z" uid="147510" user="woodpeck_fixbot" changeset="10424371">
    <nd ref="342910645"/>
    <nd ref="342911301"/>
    <nd ref="270226280"/>
    <tag k="access" v="permissive"/>
    <tag k="highway" v="service"/>
    <tag k="layer" v="-1"/>
    <tag k="name" v="underground carpark"/>
    <tag k="oneway" v="yes"/>
    <tag k="tunnel" v="yes"/>
  </way>
</osm>
