<?xml version='1.0' encoding='UTF-8'?>
<osm version="0.6" generator="libosmium/2.20.0">
  <way id="30847362" version="1" timestamp="2009-02-07T17:36:12Z" uid="20587" user="balrog-kun" changeset="232111">
    <nd ref="343131696"/>
    <nd ref="343131698"/>
    <nd ref="343131701"/>
    <nd ref="343131699"/>
    <nd ref="343131696"/>
    <tag k="addr:housenumber" v="45"/>
    <tag k="addr:street" v="Międzynarodowa"/>
    <tag k="building" v="yes"/>
    <tag k="source:addr" v="msi"/>
  </way>
  <way id="30847363" version="1" timestamp="2009-02-07T17:36:13Z" uid="20587" user="balrog-kun" changeset="232111">
    <nd ref="343131703"/>
    <nd ref="343131704"/>
    <nd ref="343131706"/>
    <nd ref="343131702"/>
    <nd ref="343131703"/>
    <tag k="addr:housenumber" v="47"/>
    <tag k="addr:street" v="Międzynarodowa"/>
    <tag k="building" v="yes"/>
    <tag k="source:addr" v="msi"/>
  </way>
  <way id="30847364" version="1" timestamp="2009-02-07T17:36:13Z" uid="20587" user="balrog-kun" changeset="232111">
    <nd ref="343131711"/>
    <nd ref="343131710"/>
    <nd ref="343131708"/>
    <nd ref="343131707"/>
    <nd ref="343131711"/>
    <tag k="addr:housenumber" v="43"/>
    <tag k="addr:street" v="Międzynarodowa"/>
    <tag k="building" v="yes"/>
    <tag k="source:addr" v="msi"/>
  </way>
  <way id="30847365" version="1" timestamp="2009-02-07T17:36:13Z" uid="20587" user="balrog-kun" changeset="232111">
    <nd ref="343131715"/>
    <nd ref="343131712"/>
    <nd ref="343131714"/>
    <nd ref="343131716"/>
    <nd ref="343131715"/>
    <tag k="addr:housenumber" v="41"/>
    <tag k="addr:street" v="Międzynarodowa"/>
    <tag k="building" v="yes"/>
    <tag k="source:addr" v="msi"/>
  </way>
  <way id="30847367" version="1" timestamp="2009-02-07T17:36:14Z" uid="20587" user="balrog-kun" changeset="232111">
    <nd ref="343131721"/>
    <nd ref="343131718"/>
    <nd ref="343131720"/>
    <nd ref="343131723"/>
    <nd ref="343131721"/>
    <tag k="addr:housenumber" v="12"/>
    <tag k="addr:street" v="Londyńska"/>
    <tag k="building" v="yes"/>
    <tag k="source:addr" v="msi"/>
  </way>
  <way id="30847368" version="1" timestamp="2009-02-07T17:36:14Z" uid="20587" user="balrog-kun" changeset="232111">
    <nd ref="343131725"/>
    <nd ref="343131724"/>
    <nd ref="343131728"/>
    <nd ref="343131727"/>
    <nd ref="343131725"/>
    <tag k="addr:housenumber" v="8"/>
    <tag k="addr:street" v="Londyńska"/>
    <tag k="building" v="yes"/>
    <tag k="source:addr" v="msi"/>
  </way>
  <way id="30847369" version="1" timestamp="2009-02-07T17:36:14Z" uid="20587" user="balrog-kun" changeset="232111">
    <nd ref="343131731"/>
    <nd ref="343131732"/>
    <nd ref="343131733"/>
    <nd ref="343131729"/>
    <nd ref="343131731"/>
    <tag k="addr:housenumber" v="10"/>
    <tag k="addr:street" v="Londyńska"/>
    <tag k="building" v="yes"/>
    <tag k="source:addr" v="msi"/>
  </way>
  <way id="30847370" version="1" timestamp="2009-02-07T17:36:14Z" uid="20587" user="balrog-kun" changeset="232111">
    <nd ref="343131735"/>
    <nd ref="343131736"/>
    <nd ref="343131739"/>
    <nd ref="343131737"/>
    <nd ref="343131735"/>
    <tag k="building" v="yes"/>
  </way>
  <way id="30847371" version="1" timestamp="2009-02-07T17:36:15Z" uid="20587" user="balrog-kun" changeset="232111">
    <nd ref="343131740"/>
    <nd ref="343131741"/>
    <nd ref="343131744"/>
    <nd ref="343131742"/>
    <nd ref="343131740"/>
    <tag k="building" v="yes"/>
  </way>
  <way id="30847372" version="1" timestamp="2009-02-07T17:36:15Z" uid="20587" user="balrog-kun" changeset="232111">
    <nd ref="343131756"/>
    <nd ref="343131746"/>
    <nd ref="343131752"/>
    <nd ref="343131762"/>
    <nd ref="343131756"/>
    <tag k="building" v="yes"/>
  </way>
  <way id="30847373" version="1" timestamp="2009-02-07T17:36:15Z" uid="20587" user="balrog-kun" changeset="232111">
    <nd ref="343131765"/>
    <nd ref="343131766"/>
    <nd ref="343131769"/>
    <nd ref="343131767"/>
    <nd ref="343131765"/>
    <tag k="addr:housenumber" v="6"/>
    <tag k="addr:street" v="Londyńska"/>
    <tag k="building" v="yes"/>
    <tag k="source:addr" v="msi"/>
  </way>
  <way id="30847374" version="1" timestamp="2009-02-07T17:36:15Z" uid="20587" user="balrog-kun" changeset="232111">
    <nd ref="343131770"/>
    <nd ref="343131775"/>
    <nd ref="343131780"/>
    <nd ref="343131781"/>
    <nd ref="343131777"/>
    <nd ref="343131779"/>
    <nd ref="343131776"/>
    <nd ref="343131771"/>
    <nd ref="343131770"/>
    <tag k="building" v="yes"/>
  </way>
  <way id="30847375" version="1" timestamp="2009-02-07T17:36:15Z" uid="20587" user="balrog-kun" changeset="232111">
    <nd ref="343131784"/>
    <nd ref="343131787"/>
    <nd ref="343133012"/>
    <nd ref="343131788"/>
    <nd ref="343131790"/>
    <nd ref="343131791"/>
    <nd ref="343131784"/>
    <tag k="amenity" v="hospital"/>
    <tag k="name" v="Szpital Dziecięcy imienia profesora doktora Jana Bogdanowicza"/>
  </way>
  <way id="30847377" version="1" timestamp="2009-02-07T17:36:16Z" uid="20587" user="balrog-kun" changeset="232111">
    <nd ref="343131792"/>
    <nd ref="343131794"/>
    <nd ref="343131796"/>
    <nd ref="343131795"/>
    <nd ref="343131792"/>
    <tag k="building" v="yes"/>
  </way>
  <way id="30847379" version="1" timestamp="2009-02-07T17:36:16Z" uid="20587" user="balrog-kun" changeset="232111">
    <nd ref="343131798"/>
    <nd ref="343131800"/>
    <nd ref="343131802"/>
    <nd ref="343131799"/>
    <nd ref="343131798"/>
    <tag k="building" v="yes"/>
  </way>
  <way id="30847380" version="1" timestamp="2009-02-07T17:36:16Z" uid="20587" user="balrog-kun" changeset="232111">
    <nd ref="343131803"/>
    <nd ref="343131805"/>
    <nd ref="343131811"/>
    <nd ref="343131816"/>
    <nd ref="343131817"/>
    <nd ref="343131813"/>
    <nd ref="343131815"/>
    <nd ref="343131812"/>
    <nd ref="343131808"/>
    <nd ref="343131809"/>
    <nd ref="343131807"/>
    <nd ref="343131804"/>
    <nd ref="343131803"/>
    <tag k="addr:housenumber" v="3"/>
    <tag k="addr:street" v="Londyńska"/>
    <tag k="building" v="yes"/>
    <tag k="source:addr" v="msi"/>
  </way>
  <way id="30847381" version="1" timestamp="2009-02-07T17:36:17Z" uid="20587" user="balrog-kun" changeset="232111">
    <nd ref="343131819"/>
    <nd ref="343131821"/>
    <nd ref="343131823"/>
    <nd ref="343131820"/>
    <nd ref="343131819"/>
    <tag k="building" v="yes"/>
  </way>
  <way id="30847382" version="1" timestamp="2009-02-07T17:36:17Z" uid="20587" user="balrog-kun" changeset="232111">
    <nd ref="343131824"/>
    <nd ref="343131825"/>
    <nd ref="343131828"/>
    <nd ref="343131827"/>
    <nd ref="343131824"/>
    <tag k="addr:housenumber" v="59"/>
    <tag k="addr:street" v="Zwycięzców"/>
    <tag k="building" v="yes"/>
    <tag k="source:addr" v="msi"/>
  </way>
  <way id="30847383" version="1" timestamp="2009-02-07T17:36:17Z" uid="20587" user="balrog-kun" changeset="232111">
    <nd ref="343131830"/>
    <nd ref="343131833"/>
    <nd ref="343131834"/>
    <nd ref="343131832"/>
    <nd ref="343131830"/>
    <tag k="addr:housenumber" v="1"/>
    <tag k="addr:street" v="Londyńska"/>
    <tag k="building" v="yes"/>
    <tag k="source:addr" v="msi"/>
  </way>
  <way id="30847384" version="1" timestamp="2009-02-07T17:36:17Z" uid="20587" user="balrog-kun" changeset="232111">
    <nd ref="343131835"/>
    <nd ref="343131837"/>
    <nd ref="343131839"/>
    <nd ref="343131838"/>
    <nd ref="343131835"/>
    <tag k="addr:housenumber" v="57"/>
    <tag k="addr:street" v="Zwycięzców"/>
    <tag k="building" v="yes"/>
    <tag k="source:addr" v="msi"/>
  </way>
  <way id="30847385" version="1" timestamp="2009-02-07T17:36:18Z" uid="20587" user="balrog-kun" changeset="232111">
    <nd ref="343131841"/>
    <nd ref="343131842"/>
    <nd ref="343131845"/>
    <nd ref="343131843"/>
    <nd ref="343131841"/>
    <tag k="addr:housenumber" v="55"/>
    <tag k="addr:street" v="Zwycięzców"/>
    <tag k="building" v="yes"/>
    <tag k="source:addr" v="msi"/>
  </way>
  <way id="30847385" version="2" timestamp="2011-11-30T22:35:49Z" uid="100448" user="kietlak" changeset="10004029">
    <nd ref="343131841"/>
    <nd ref="343131842"/>
    <nd ref="343131845"/>
    <nd ref="343131843"/>
    <nd ref="343131841"/>
    <tag k="addr:housenumber" v="55"/>
    <tag k="addr:postcode" v="03-937"/>
    <tag k="addr:street" v="Zwycięzców"/>
    <tag k="building" v="yes"/>
    <tag k="source:addr" v="msi"/>
  </way>
  <way id="30847386" version="1" timestamp="2009-02-07T17:36:18Z" uid="20587" user="balrog-kun" changeset="232111">
    <nd ref="343131848"/>
    <nd ref="343131851"/>
    <nd ref="343131852"/>
    <nd ref="343131849"/>
    <nd ref="343131848"/>
    <tag k="addr:housenumber" v="53"/>
    <tag k="addr:street" v="Zwycięzców"/>
    <tag k="building" v="yes"/>
    <tag k="source:addr" v="msi"/>
  </way>
  <way id="30847387" version="1" timestamp="2009-02-07T17:36:18Z" uid="20587" user="balrog-kun" changeset="232111">
    <nd ref="343131857"/>
    <nd ref="343131855"/>
    <nd ref="343131853"/>
    <nd ref="343131856"/>
    <nd ref="343131857"/>
    <tag k="addr:housenumber" v="51"/>
    <tag k="addr:street" v="Zwycięzców"/>
    <tag k="building" v="yes"/>
    <tag k="source:addr" v="msi"/>
  </way>
  <way id="30847388" version="1" timestamp="2009-02-07T17:36:18Z" uid="20587" user="balrog-kun" changeset="232111">
    <nd ref="343131859"/>
    <nd ref="343131863"/>
    <nd ref="343131861"/>
    <nd ref="343131860"/>
    <nd ref="343131859"/>
    <tag k="addr:housenumber" v="47"/>
    <tag k="addr:street" v="Zwycięzców"/>
    <tag k="building" v="yes"/>
    <tag k="source:addr" v="msi"/>
  </way>
  <way id="30847389" version="1" timestamp="2009-02-07T17:36:19Z" uid="20587" user="balrog-kun" changeset="232111">
    <nd ref="343131864"/>
    <nd ref="343131867"/>
    <nd ref="343131868"/>
    <nd ref="343131865"/>
    <nd ref="343131864"/>
    <tag k="addr:housenumber" v="49"/>
    <tag k="addr:street" v="Zwycięzców"/>
    <tag k="building" v="yes"/>
    <tag k="source:addr" v="msi"/>
  </way>
  <way id="30847390" version="1" timestamp="2009-02-07T17:36:19Z" uid="20587" user="balrog-kun" changeset="232111">
    <nd ref="343131869"/>
    <nd ref="343131873"/>
    <nd ref="343131874"/>
    <nd ref="343131870"/>
    <nd ref="343131869"/>
    <tag k="addr:housenumber" v="45"/>
    <tag k="addr:street" v="Zwycięzców"/>
    <tag k="building" v="yes"/>
    <tag k="source:addr" v="msi"/>
  </way>
  <way id="30847391" version="1" timestamp="2009-02-07T17:36:19Z" uid="20587" user="balrog-kun" changeset="232111">
    <nd ref="343131886"/>
    <nd ref="343132977"/>
    <nd ref="343132975"/>
    <nd ref="343131884"/>
    <nd ref="343131886"/>
    <tag k="addr:housenumber" v="54"/>
    <tag k="addr:street" v="Saska"/>
    <tag k="building" v="yes"/>
    <tag k="source:addr" v="msi"/>
  </way>
  <way id="30847392" version="1" timestamp="2009-02-07T17:36:19Z" uid="20587" user="balrog-kun" changeset="232111">
    <nd ref="343131898"/>
    <nd ref="343131901"/>
    <nd ref="343131902"/>
    <nd ref="343131900"/>
    <nd ref="343131898"/>
    <tag k="addr:street" v="Niekłańska"/>
    <tag k="building" v="yes"/>
    <tag k="note" v="TODO: housenumber"/>
    <tag k="source:addr" v="msi"/>
  </way>
  <way id="30847393" version="1" timestamp="2009-02-07T17:36:20Z" uid="20587" user="balrog-kun" changeset="232111">
    <nd ref="343131904"/>
    <nd ref="343131905"/>
    <nd ref="343131908"/>
    <nd ref="343131906"/>
    <nd ref="343131904"/>
    <tag k="addr:housenumber" v="13"/>
    <tag k="addr:street" v="Niekłańska"/>
    <tag k="building" v="yes"/>
    <tag k="source:addr" v="msi"/>
  </way>
  <way id="30847394" version="1" timestamp="2009-02-07T17:36:20Z" uid="20587" user="balrog-kun" changeset="232111">
    <nd ref="343131909"/>
    <nd ref="343131910"/>
    <nd ref="343131913"/>
    <nd ref="343131914"/>
    <nd ref="343131915"/>
    <nd ref="343131917"/>
    <nd ref="343131911"/>
    <nd ref="343131909"/>
    <tag k="addr:housenumber" v="9/11"/>
    <tag k="addr:street" v="Niekłańska"/>
    <tag k="building" v="yes"/>
    <tag k="source:addr" v="msi"/>
  </way>
  <way id="30847395" version="1" timestamp="2009-02-07T17:36:20Z" uid="20587" user="balrog-kun" changeset="232111">
    <nd ref="343131923"/>
    <nd ref="343131921"/>
    <nd ref="343131918"/>
    <nd ref="343131919"/>
    <nd ref="343131922"/>
    <nd ref="343131923"/>
    <tag k="addr:housenumber" v="60"/>
    <tag k="addr:street" v="Saska"/>
    <tag k="building" v="yes"/>
    <tag k="source:addr" v="msi"/>
  </way>
  <way id="30847396" version="1" timestamp="2009-02-07T17:36:20Z" uid="20587" user="balrog-kun" changeset="232111">
    <nd ref="343131927"/>
    <nd ref="343131929"/>
    <nd ref="343131931"/>
    <nd ref="343131934"/>
    <nd ref="343131933"/>
    <nd ref="343131930"/>
    <nd ref="343131927"/>
    <tag k="building" v="yes"/>
  </way>
  <way id="30847397" version="1" timestamp="2009-02-07T17:36:21Z" uid="20587" user="balrog-kun" changeset="232111">
    <nd ref="343131935"/>
    <nd ref="343131937"/>
    <nd ref="343131939"/>
    <nd ref="343131938"/>
    <nd ref="343131935"/>
    <tag k="addr:housenumber" v="3"/>
    <tag k="addr:street" v="Holenderska"/>
    <tag k="building" v="yes"/>
    <tag k="source:addr" v="msi"/>
  </way>
  <way id="30847398" version="1" timestamp="2009-02-07T17:36:21Z" uid="20587" user="balrog-kun" changeset="232111">
    <nd ref="343131944"/>
    <nd ref="343131942"/>
    <nd ref="343131940"/>
    <nd ref="343131943"/>
    <nd ref="343131944"/>
    <tag k="addr:housenumber" v="28"/>
    <tag k="addr:street" v="Niekłańska"/>
    <tag k="building" v="yes"/>
    <tag k="source:addr" v="msi"/>
  </way>
  <way id="30847401" version="1" timestamp="2009-02-07T17:36:21Z" uid="20587" user="balrog-kun" changeset="232111">
    <nd ref="343131972"/>
    <nd ref="343131978"/>
    <nd ref="343131981"/>
    <nd ref="343131975"/>
    <nd ref="343131972"/>
    <tag k="addr:housenumber" v="21"/>
    <tag k="addr:street" v="Niekłańska"/>
    <tag k="building" v="yes"/>
    <tag k="source:addr" v="msi"/>
  </way>
  <way id="30847402" version="1" timestamp="2009-02-07T17:36:22Z" uid="20587" user="balrog-kun" changeset="232111">
    <nd ref="343131984"/>
    <nd ref="343131991"/>
    <nd ref="343131995"/>
    <nd ref="343131988"/>
    <nd ref="343131984"/>
    <tag k="building" v="yes"/>
  </way>
  <way id="30847404" version="1" timestamp="2009-02-07T17:36:22Z" uid="20587" user="balrog-kun" changeset="232111">
    <nd ref="343131997"/>
    <nd ref="343132003"/>
    <nd ref="343132004"/>
    <nd ref="343132002"/>
    <nd ref="343131997"/>
    <tag k="addr:housenumber" v="29"/>
    <tag k="addr:street" v="Niekłańska"/>
    <tag k="building" v="yes"/>
    <tag k="source:addr" v="msi"/>
  </way>
  <way id="30847406" version="1" timestamp="2009-02-07T17:36:22Z" uid="20587" user="balrog-kun" changeset="232111">
    <nd ref="343132006"/>
    <nd ref="343132010"/>
    <nd ref="343132013"/>
    <nd ref="343132009"/>
    <nd ref="343132006"/>
    <tag k="addr:housenumber" v="17"/>
    <tag k="addr:street" v="Niekłańska"/>
    <tag k="building" v="yes"/>
    <tag k="source:addr" v="msi"/>
  </way>
  <way id="30847407" version="1" timestamp="2009-02-07T17:36:22Z" uid="20587" user="balrog-kun" changeset="232111">
    <nd ref="343132014"/>
    <nd ref="343132020"/>
    <nd ref="343132021"/>
    <nd ref="343132017"/>
    <nd ref="343132014"/>
    <tag k="addr:housenumber" v="15"/>
    <tag k="addr:street" v="Niekłańska"/>
    <tag k="building" v="yes"/>
    <tag k="source:addr" v="msi"/>
  </way>
  <way id="30847408" version="1" timestamp="2009-02-07T17:36:23Z" uid="20587" user="balrog-kun" changeset="232111">
    <nd ref="343132029"/>
    <nd ref="343132025"/>
    <nd ref="343132023"/>
    <nd ref="343132027"/>
    <nd ref="343132029"/>
    <tag k="addr:housenumber" v="70"/>
    <tag k="addr:street" v="Saska"/>
    <tag k="building" v="yes"/>
    <tag k="source:addr" v="msi"/>
  </way>
  <way id="30847410" version="1" timestamp="2009-02-07T17:36:23Z" uid="20587" user="balrog-kun" changeset="232111">
    <nd ref="343132033"/>
    <nd ref="343132037"/>
    <nd ref="343132038"/>
    <nd ref="343132034"/>
    <nd ref="343132033"/>
    <tag k="addr:housenumber" v="23"/>
    <tag k="addr:street" v="Niekłańska"/>
    <tag k="building" v="yes"/>
    <tag k="source:addr" v="msi"/>
  </way>
  <way id="30847413" version="1" timestamp="2009-02-07T17:36:23Z" uid="20587" user="balrog-kun" changeset="232111">
    <nd ref="343132039"/>
    <nd ref="343132044"/>
    <nd ref="343132045"/>
    <nd ref="343132041"/>
    <nd ref="343132039"/>
    <tag k="addr:housenumber" v="27"/>
    <tag k="addr:street" v="Niekłańska"/>
    <tag k="building" v="yes"/>
    <tag k="source:addr" v="msi"/>
  </way>
  <way id="30847415" version="1" timestamp="2009-02-07T17:36:24Z" uid="20587" user="balrog-kun" changeset="232111">
    <nd ref="343132046"/>
    <nd ref="343132049"/>
    <nd ref="343132053"/>
    <nd ref="343132054"/>
    <nd ref="343132050"/>
    <nd ref="343132048"/>
    <nd ref="343132046"/>
    <tag k="addr:housenumber" v="25"/>
    <tag k="addr:street" v="Niekłańska"/>
    <tag k="building" v="yes"/>
    <tag k="source:addr" v="msi"/>
  </way>
  <way id="30847417" version="1" timestamp="2009-02-07T17:36:24Z" uid="20587" user="balrog-kun" changeset="232111">
    <nd ref="343132055"/>
    <nd ref="343132058"/>
    <nd ref="343132060"/>
    <nd ref="343132057"/>
    <nd ref="343132055"/>
    <tag k="building" v="yes"/>
  </way>
  <way id="30847418" version="1" timestamp="2009-02-07T17:36:24Z" uid="20587" user="balrog-kun" changeset="232111">
    <nd ref="343132068"/>
    <nd ref="343132065"/>
    <nd ref="343132063"/>
    <nd ref="343132064"/>
    <nd ref="343132066"/>
    <nd ref="343132068"/>
    <tag k="addr:housenumber" v="74"/>
    <tag k="addr:street" v="Saska"/>
    <tag k="building" v="yes"/>
    <tag k="source:addr" v="msi"/>
  </way>
  <way id="30847419" version="1" timestamp="2009-02-07T17:36:24Z" uid="20587" user="balrog-kun" changeset="232111">
    <nd ref="343132080"/>
    <nd ref="343132083"/>
    <nd ref="343132094"/>
    <nd ref="343132095"/>
    <nd ref="343132086"/>
    <nd ref="343132088"/>
    <nd ref="343132090"/>
    <nd ref="343132087"/>
    <nd ref="343132091"/>
    <nd ref="343132092"/>
    <nd ref="343132085"/>
    <nd ref="343132081"/>
    <nd ref="343132080"/>
    <tag k="addr:housenumber" v="63/75"/>
    <tag k="addr:postcode" v="03-948"/>
    <tag k="addr:street" v="Saska"/>
    <tag k="building" v="yes"/>
    <tag k="name" v="Regionalne Centrum Krwiodawstwa i Krwiolecznictwa"/>
    <tag k="source:addr" v="msi"/>
  </way>
  <way id="30847420" version="1" timestamp="2009-02-07T17:36:25Z" uid="20587" user="balrog-kun" changeset="232111">
    <nd ref="343132096"/>
    <nd ref="343132097"/>
    <nd ref="343132108"/>
    <nd ref="343132123"/>
    <nd ref="343132132"/>
    <nd ref="343132117"/>
    <nd ref="343132103"/>
    <nd ref="343132096"/>
    <tag k="addr:housenumber" v="75a"/>
    <tag k="addr:street" v="Saska"/>
    <tag k="building" v="yes"/>
    <tag k="source:addr" v="msi"/>
  </way>
  <way id="30847421" version="1" timestamp="2009-02-07T17:36:25Z" uid="20587" user="balrog-kun" changeset="232111">
    <nd ref="343132138"/>
    <nd ref="343132140"/>
    <nd ref="343132142"/>
    <nd ref="343132139"/>
    <nd ref="343132138"/>
    <tag k="addr:housenumber" v="75a"/>
    <tag k="addr:street" v="Saska"/>
    <tag k="building" v="yes"/>
    <tag k="source:addr" v="msi"/>
  </way>
  <way id="30847422" version="1" timestamp="2009-02-07T17:36:26Z" uid="20587" user="balrog-kun" changeset="232111">
    <nd ref="343132143"/>
    <nd ref="343132144"/>
    <nd ref="343132147"/>
    <nd ref="343132145"/>
    <nd ref="343132143"/>
    <tag k="building" v="yes"/>
  </way>
  <way id="30847423" version="1" timestamp="2009-02-07T17:36:26Z" uid="20587" user="balrog-kun" changeset="232111">
    <nd ref="343132148"/>
    <nd ref="343132151"/>
    <nd ref="343132152"/>
    <nd ref="343132149"/>
    <nd ref="343132148"/>
    <tag k="building" v="yes"/>
  </way>
  <way id="30847424" version="1" timestamp="2009-02-07T17:36:26Z" uid="20587" user="balrog-kun" changeset="232111">
    <nd ref="343132153"/>
    <nd ref="343132156"/>
    <nd ref="343132157"/>
    <nd ref="343132154"/>
    <nd ref="343132153"/>
    <tag k="addr:housenumber" v="77"/>
    <tag k="addr:street" v="Saska"/>
    <tag k="building" v="yes"/>
    <tag k="source:addr" v="msi"/>
  </way>
  <way id="30847425" version="1" timestamp="2009-02-07T17:36:27Z" uid="20587" user="balrog-kun" changeset="232111">
    <nd ref="343132158"/>
    <nd ref="343132161"/>
    <nd ref="343132165"/>
    <nd ref="343132166"/>
    <nd ref="343132168"/>
    <nd ref="343132164"/>
    <nd ref="343132162"/>
    <nd ref="343132160"/>
    <nd ref="343132158"/>
    <tag k="addr:housenumber" v="16"/>
    <tag k="addr:street" v="Alfreda Nobla"/>
    <tag k="building" v="yes"/>
    <tag k="source:addr" v="msi"/>
  </way>
  <way id="30847425" version="2" timestamp="2009-08-17T19:41:22Z" uid="20587" user="balrog-kun" changeset="2182444">
    <nd ref="343132158"/>
    <nd ref="343132161"/>
    <nd ref="343132165"/>
    <nd ref="343132166"/>
    <nd ref="343132168"/>
    <nd ref="343132164"/>
    <nd ref="343132162"/>
    <nd ref="343132160"/>
    <nd ref="343132158"/>
    <tag k="addr:housenumber" v="16"/>
    <tag k="addr:postcode" v="03-930"/>
    <tag k="addr:street" v="Alfreda Nobla"/>
    <tag k="building" v="yes"/>
    <tag k="source:addr" v="msi"/>
  </way>
  <way id="30847426" version="1" timestamp="2009-02-07T17:36:28Z" uid="20587" user="balrog-kun" changeset="232111">
    <nd ref="343132169"/>
    <nd ref="343132170"/>
    <nd ref="343132173"/>
    <nd ref="343132172"/>
    <nd ref="343132169"/>
    <tag k="building" v="yes"/>
  </way>
  <way id="30847426" version="2" timestamp="2009-08-17T19:41:20Z" uid="20587" user="balrog-kun" changeset="2182444">
    <nd ref="343132169"/>
    <nd ref="343132170"/>
    <nd ref="343132173"/>
    <nd ref="343132172"/>
    <nd ref="343132169"/>
    <tag k="addr:housenumber" v="77"/>
    <tag k="addr:street" v="Saska"/>
    <tag k="amenity" v="kindergarten"/>
    <tag k="building" v="yes"/>
    <tag k="name" v="Przedszkole Antoine Saint-Exupery"/>
  </way>
  <way id="30847427" version="1" timestamp="2009-02-07T17:36:28Z" uid="20587" user="balrog-kun" changeset="232111">
    <nd ref="343132174"/>
    <nd ref="343132177"/>
    <nd ref="343132178"/>
    <nd ref="343132175"/>
    <nd ref="343132174"/>
    <tag k="addr:housenumber" v="89"/>
    <tag k="addr:street" v="Saska"/>
    <tag k="building" v="yes"/>
    <tag k="source:addr" v="msi"/>
  </way>
  <way id="30847428" version="1" timestamp="2009-02-07T17:36:28Z" uid="20587" user="balrog-kun" changeset="232111">
    <nd ref="343132194"/>
    <nd ref="343132195"/>
    <nd ref="343132197"/>
    <nd ref="343132196"/>
    <nd ref="343132194"/>
    <tag k="building" v="yes"/>
  </way>
  <way id="30847430" version="1" timestamp="2009-02-07T17:36:29Z" uid="20587" user="balrog-kun" changeset="232111">
    <nd ref="343132199"/>
    <nd ref="343132200"/>
    <nd ref="343132203"/>
    <nd ref="343132201"/>
    <nd ref="343132199"/>
    <tag k="building" v="yes"/>
  </way>
  <way id="30847431" version="1" timestamp="2009-02-07T17:36:29Z" uid="20587" user="balrog-kun" changeset="232111">
    <nd ref="343132204"/>
    <nd ref="343132207"/>
    <nd ref="343132209"/>
    <nd ref="343132210"/>
    <nd ref="343132208"/>
    <nd ref="343132205"/>
    <nd ref="343132204"/>
    <tag k="addr:housenumber" v="40"/>
    <tag k="addr:street" v="Walecznych"/>
    <tag k="building" v="yes"/>
    <tag k="source:addr" v="msi"/>
  </way>
  <way id="30847432" version="1" timestamp="2009-02-07T17:36:30Z" uid="20587" user="balrog-kun" changeset="232111">
    <nd ref="343132216"/>
    <nd ref="343132214"/>
    <nd ref="343132212"/>
    <nd ref="343132218"/>
    <nd ref="343132216"/>
    <tag k="addr:housenumber" v="38"/>
    <tag k="addr:street" v="Walecznych"/>
    <tag k="building" v="yes"/>
    <tag k="source:addr" v="msi"/>
  </way>
  <way id="30847433" version="1" timestamp="2009-02-07T17:36:31Z" uid="20587" user="balrog-kun" changeset="232111">
    <nd ref="343132213"/>
    <nd ref="343132216"/>
    <nd ref="343132218"/>
    <nd ref="343132217"/>
    <nd ref="343132213"/>
    <tag k="addr:housenumber" v="38a"/>
    <tag k="addr:street" v="Walecznych"/>
    <tag k="building" v="yes"/>
    <tag k="source:addr" v="msi"/>
  </way>
  <way id="30847434" version="1" timestamp="2009-02-07T17:36:31Z" uid="20587" user="balrog-kun" changeset="232111">
    <nd ref="343132223"/>
    <nd ref="343132222"/>
    <nd ref="343132219"/>
    <nd ref="343132226"/>
    <nd ref="343132223"/>
    <tag k="addr:housenumber" v="42"/>
    <tag k="addr:street" v="Walecznych"/>
    <tag k="building" v="yes"/>
    <tag k="source:addr" v="msi"/>
  </way>
  <way id="30847435" version="1" timestamp="2009-02-07T17:36:32Z" uid="20587" user="balrog-kun" changeset="232111">
    <nd ref="343132221"/>
    <nd ref="343132223"/>
    <nd ref="343132226"/>
    <nd ref="343132225"/>
    <nd ref="343132221"/>
    <tag k="addr:housenumber" v="44"/>
    <tag k="addr:street" v="Walecznych"/>
    <tag k="building" v="yes"/>
    <tag k="source:addr" v="msi"/>
  </way>
  <way id="30847436" version="1" timestamp="2009-02-07T17:36:33Z" uid="20587" user="balrog-kun" changeset="232111">
    <nd ref="343132231"/>
    <nd ref="343132230"/>
    <nd ref="343132227"/>
    <nd ref="343132234"/>
    <nd ref="343132231"/>
    <tag k="addr:housenumber" v="44a"/>
    <tag k="addr:street" v="Walecznych"/>
    <tag k="building" v="yes"/>
    <tag k="source:addr" v="msi"/>
  </way>
  <way id="30847437" version="1" timestamp="2009-02-07T17:36:33Z" uid="20587" user="balrog-kun" changeset="232111">
    <nd ref="343132229"/>
    <nd ref="343132231"/>
    <nd ref="343132234"/>
    <nd ref="343132233"/>
    <nd ref="343132229"/>
    <tag k="addr:housenumber" v="46"/>
    <tag k="addr:street" v="Walecznych"/>
    <tag k="building" v="yes"/>
    <tag k="source:addr" v="msi"/>
  </way>
  <way id="30847438" version="1" timestamp="2009-02-07T17:36:34Z" uid="20587" user="balrog-kun" changeset="232111">
    <nd ref="343132235"/>
    <nd ref="343132238"/>
    <nd ref="343132239"/>
    <nd ref="343132236"/>
    <nd ref="343132235"/>
    <tag k="addr:housenumber" v="24"/>
    <tag k="addr:street" v="Królowej Aldony"/>
    <tag k="building" v="yes"/>
    <tag k="source:addr" v="msi"/>
  </way>
  <way id="30847440" version="1" timestamp="2009-02-07T17:36:34Z" uid="20587" user="balrog-kun" changeset="232111">
    <nd ref="343132249"/>
    <nd ref="343132243"/>
    <nd ref="343132240"/>
    <nd ref="343132242"/>
    <nd ref="343132245"/>
    <nd ref="343132246"/>
    <nd ref="343132248"/>
    <nd ref="343132249"/>
    <tag k="addr:housenumber" v="22"/>
    <tag k="addr:postcode" v="03-928"/>
    <tag k="addr:street" v="Królowej Aldony"/>
    <tag k="building" v="yes"/>
    <tag k="name" v="Ambasada Islamskiej Republiki Iranu"/>
    <tag k="name:en" v="Embassy of the Islamic Republic of Iran"/>
    <tag k="name:es" v="Embajada de la República Islámica de Irán"/>
    <tag k="source:addr" v="msi"/>
  </way>
  <way id="30847440" version="2" timestamp="2012-02-28T20:05:08Z" uid="99386" user="masti" changeset="10822141">
    <nd ref="343132249"/>
    <nd ref="343132240"/>
    <nd ref="343132242"/>
    <nd ref="343132245"/>
    <nd ref="343132246"/>
    <nd ref="343132248"/>
    <nd ref="343132249"/>
    <tag k="addr:housenumber" v="22"/>
    <tag k="addr:postcode" v="03-928"/>
    <tag k="addr:street" v="Królowej Aldony"/>
    <tag k="amenity" v="embassy"/>
    <tag k="building" v="yes"/>
    <tag k="country" v="IR"/>
    <tag k="name" v="Ambasada Islamskiej Republiki Iranu"/>
    <tag k="name:en" v="Embassy of the Islamic Republic of Iran"/>
    <tag k="name:es" v="Embajada de la República Islámica de Irán"/>
    <tag k="source:addr" v="msi"/>
  </way>
  <way id="30847442" version="1" timestamp="2009-02-07T17:36:35Z" uid="20587" user="balrog-kun" changeset="232111">
    <nd ref="343132254"/>
    <nd ref="343132251"/>
    <nd ref="343132249"/>
    <nd ref="343132248"/>
    <nd ref="343132250"/>
    <nd ref="343132255"/>
    <nd ref="343132257"/>
    <nd ref="343132253"/>
    <nd ref="343132254"/>
    <tag k="addr:housenumber" v="20"/>
    <tag k="addr:street" v="Królowej Aldony"/>
    <tag k="building" v="yes"/>
    <tag k="source:addr" v="msi"/>
  </way>
  <way id="30847444" version="1" timestamp="2009-02-07T17:36:35Z" uid="20587" user="balrog-kun" changeset="232111">
    <nd ref="343132258"/>
    <nd ref="343132261"/>
    <nd ref="343132263"/>
    <nd ref="343132264"/>
    <nd ref="343132266"/>
    <nd ref="343132267"/>
    <nd ref="343132268"/>
    <nd ref="343132262"/>
    <nd ref="343132259"/>
    <nd ref="343132258"/>
    <tag k="addr:housenumber" v="29"/>
    <tag k="addr:street" v="Jana Styki"/>
    <tag k="building" v="yes"/>
    <tag k="source:addr" v="msi"/>
  </way>
  <way id="30847446" version="1" timestamp="2009-02-07T17:36:36Z" uid="20587" user="balrog-kun" changeset="232111">
    <nd ref="343132270"/>
    <nd ref="343132271"/>
    <nd ref="343132273"/>
    <nd ref="343132272"/>
    <nd ref="343132270"/>
    <tag k="addr:housenumber" v="25"/>
    <tag k="addr:street" v="Jana Styki"/>
    <tag k="building" v="yes"/>
    <tag k="source:addr" v="msi"/>
  </way>
  <way id="30847448" version="1" timestamp="2009-02-07T17:36:36Z" uid="20587" user="balrog-kun" changeset="232111">
    <nd ref="343132276"/>
    <nd ref="343132279"/>
    <nd ref="343132277"/>
    <nd ref="343132275"/>
    <nd ref="343132276"/>
    <tag k="addr:housenumber" v="21"/>
    <tag k="addr:street" v="Jana Styki"/>
    <tag k="building" v="yes"/>
    <tag k="source:addr" v="msi"/>
  </way>
  <way id="30847450" version="1" timestamp="2009-02-07T17:36:37Z" uid="20587" user="balrog-kun" changeset="232111">
    <nd ref="343132281"/>
    <nd ref="343132282"/>
    <nd ref="343132284"/>
    <nd ref="343132280"/>
    <nd ref="343132281"/>
    <tag k="addr:housenumber" v="17/19"/>
    <tag k="addr:postcode" v="03-928"/>
    <tag k="addr:street" v="Jana Styki"/>
    <tag k="amenity" v="embassy"/>
    <tag k="building" v="yes"/>
    <tag k="name" v="Ambasada Republiki Argentyny"/>
    <tag k="name:en" v="Embassy of Argentina"/>
    <tag k="name:es" v="Embajada de la República Argentina"/>
    <tag k="source:addr" v="msi"/>
  </way>
  <way id="30847450" version="2" timestamp="2009-03-27T21:41:49Z" uid="64578" user="Serpens" changeset="863803">
    <nd ref="343132281"/>
    <nd ref="343132282"/>
    <nd ref="343132284"/>
    <nd ref="343132280"/>
    <nd ref="343132281"/>
    <tag k="addr:housenumber" v="17/19"/>
    <tag k="addr:postcode" v="03-928"/>
    <tag k="addr:street" v="Jana Styki"/>
    <tag k="amenity" v="embassy"/>
    <tag k="building" v="yes"/>
    <tag k="country" v="ar"/>
    <tag k="name" v="Ambasada Republiki Argentyny"/>
    <tag k="name:en" v="Embassy of Argentina"/>
    <tag k="name:es" v="Embajada de la República Argentina"/>
    <tag k="source:addr" v="msi"/>
  </way>
  <way id="30847450" version="3" timestamp="2010-01-04T14:57:35Z" uid="64578" user="Serpens" changeset="3537746">
    <nd ref="343132281"/>
    <nd ref="343132282"/>
    <nd ref="343132284"/>
    <nd ref="343132280"/>
    <nd ref="343132281"/>
    <tag k="addr:housenumber" v="17/19"/>
    <tag k="addr:postcode" v="03-928"/>
    <tag k="addr:street" v="Jana Styki"/>
    <tag k="amenity" v="embassy"/>
    <tag k="building" v="yes"/>
    <tag k="country" v="AR"/>
    <tag k="name" v="Ambasada Republiki Argentyny"/>
    <tag k="name:en" v="Embassy of Argentina"/>
    <tag k="name:es" v="Embajada de la República Argentina"/>
    <tag k="source:addr" v="msi"/>
  </way>
  <way id="30847452" version="1" timestamp="2009-02-07T17:36:38Z" uid="20587" user="balrog-kun" changeset="232111">
    <nd ref="343132285"/>
    <nd ref="343132286"/>
    <nd ref="343132289"/>
    <nd ref="343132291"/>
    <nd ref="343132290"/>
    <nd ref="343132294"/>
    <nd ref="343132292"/>
    <nd ref="343132287"/>
    <nd ref="343132285"/>
    <tag k="addr:housenumber" v="13"/>
    <tag k="addr:street" v="Jana Styki"/>
    <tag k="building" v="yes"/>
    <tag k="source:addr" v="msi"/>
  </way>
  <way id="30847453" version="1" timestamp="2009-02-07T17:36:38Z" uid="20587" user="balrog-kun" changeset="232111">
    <nd ref="343132295"/>
    <nd ref="343132296"/>
    <nd ref="343132298"/>
    <nd ref="343132299"/>
    <nd ref="343132301"/>
    <nd ref="343132302"/>
    <nd ref="343132303"/>
    <nd ref="343132305"/>
    <nd ref="343132306"/>
    <nd ref="343132295"/>
    <tag k="addr:housenumber" v="18"/>
    <tag k="addr:street" v="Królowej Aldony"/>
    <tag k="building" v="yes"/>
    <tag k="source:addr" v="msi"/>
  </way>
  <way id="30847454" version="1" timestamp="2009-02-07T17:36:39Z" uid="20587" user="balrog-kun" changeset="232111">
    <nd ref="343132307"/>
    <nd ref="343132308"/>
    <nd ref="343132311"/>
    <nd ref="343132310"/>
    <nd ref="343132307"/>
    <tag k="addr:housenumber" v="16"/>
    <tag k="addr:street" v="Królowej Aldony"/>
    <tag k="building" v="yes"/>
    <tag k="source:addr" v="msi"/>
  </way>
  <way id="30847457" version="1" timestamp="2009-02-07T17:36:39Z" uid="20587" user="balrog-kun" changeset="232111">
    <nd ref="343132312"/>
    <nd ref="343132315"/>
    <nd ref="343132317"/>
    <nd ref="343132319"/>
    <nd ref="343132320"/>
    <nd ref="343132316"/>
    <nd ref="343132313"/>
    <nd ref="343132312"/>
    <tag k="addr:housenumber" v="24"/>
    <tag k="addr:street" v="Jana Styki"/>
    <tag k="building" v="yes"/>
    <tag k="source:addr" v="msi"/>
  </way>
  <way id="30847459" version="1" timestamp="2009-02-07T17:36:40Z" uid="20587" user="balrog-kun" changeset="232111">
    <nd ref="343132321"/>
    <nd ref="343132324"/>
    <nd ref="343132325"/>
    <nd ref="343132322"/>
    <nd ref="343132321"/>
    <tag k="addr:housenumber" v="22"/>
    <tag k="addr:street" v="Jana Styki"/>
    <tag k="building" v="yes"/>
    <tag k="source:addr" v="msi"/>
  </way>
  <way id="30847460" version="1" timestamp="2009-02-07T17:36:41Z" uid="20587" user="balrog-kun" changeset="232111">
    <nd ref="343132334"/>
    <nd ref="343132328"/>
    <nd ref="343132326"/>
    <nd ref="343132329"/>
    <nd ref="343132330"/>
    <nd ref="343132332"/>
    <nd ref="343132333"/>
    <nd ref="343132334"/>
    <tag k="addr:housenumber" v="20"/>
    <tag k="addr:street" v="Jana Styki"/>
    <tag k="building" v="yes"/>
    <tag k="source:addr" v="msi"/>
  </way>
  <way id="30847462" version="1" timestamp="2009-02-07T17:36:41Z" uid="20587" user="balrog-kun" changeset="232111">
    <nd ref="343132347"/>
    <nd ref="343132349"/>
    <nd ref="343132345"/>
    <nd ref="343132344"/>
    <nd ref="343132351"/>
    <nd ref="343132352"/>
    <nd ref="343132353"/>
    <nd ref="343132355"/>
    <nd ref="343132356"/>
    <nd ref="343132348"/>
    <nd ref="343132347"/>
    <tag k="addr:housenumber" v="16"/>
    <tag k="addr:street" v="Jana Styki"/>
    <tag k="building" v="yes"/>
    <tag k="source:addr" v="msi"/>
  </way>
  <way id="30847463" version="1" timestamp="2009-02-07T17:36:42Z" uid="20587" user="balrog-kun" changeset="232111">
    <nd ref="343132384"/>
    <nd ref="343132386"/>
    <nd ref="343132391"/>
    <nd ref="343132389"/>
    <nd ref="343132384"/>
    <tag k="addr:housenumber" v="29"/>
    <tag k="addr:street" v="Alfreda Nobla"/>
    <tag k="building" v="yes"/>
    <tag k="source:addr" v="msi"/>
  </way>
  <way id="30847464" version="1" timestamp="2009-02-07T17:36:43Z" uid="20587" user="balrog-kun" changeset="232111">
    <nd ref="343132401"/>
    <nd ref="343132409"/>
    <nd ref="343132419"/>
    <nd ref="343132423"/>
    <nd ref="343132425"/>
    <nd ref="343132421"/>
    <nd ref="343132412"/>
    <nd ref="343132415"/>
    <nd ref="343132417"/>
    <nd ref="343132406"/>
    <nd ref="343132401"/>
    <tag k="addr:housenumber" v="18"/>
    <tag k="addr:street" v="Francuska"/>
    <tag k="building" v="yes"/>
    <tag k="source:addr" v="msi"/>
  </way>
  <way id="30847466" version="1" timestamp="2009-02-07T17:36:43Z" uid="20587" user="balrog-kun" changeset="232111">
    <nd ref="343132434"/>
    <nd ref="343132437"/>
    <nd ref="343132439"/>
    <nd ref="343132430"/>
    <nd ref="343132434"/>
    <tag k="addr:housenumber" v="22"/>
    <tag k="addr:street" v="Francuska"/>
    <tag k="building" v="yes"/>
    <tag k="source:addr" v="msi"/>
  </way>
  <way id="30847467" version="1" timestamp="2009-02-07T17:36:44Z" uid="20587" user="balrog-kun" changeset="232111">
    <nd ref="343132473"/>
    <nd ref="343132493"/>
    <nd ref="343132482"/>
    <nd ref="343132486"/>
    <nd ref="343132490"/>
    <nd ref="343132479"/>
    <nd ref="343132476"/>
    <nd ref="343132473"/>
    <tag k="addr:housenumber" v="36"/>
    <tag k="addr:street" v="Walecznych"/>
    <tag k="building" v="yes"/>
    <tag k="source:addr" v="msi"/>
  </way>
  <way id="30847469" version="1" timestamp="2009-02-07T17:36:44Z" uid="20587" user="balrog-kun" changeset="232111">
    <nd ref="343132498"/>
    <nd ref="343132501"/>
    <nd ref="343132511"/>
    <nd ref="343132506"/>
    <nd ref="343132498"/>
    <tag k="addr:housenumber" v="37"/>
    <tag k="addr:street" v="Królowej Aldony"/>
    <tag k="building" v="yes"/>
    <tag k="source:addr" v="msi"/>
  </way>
  <way id="30847470" version="1" timestamp="2009-02-07T17:36:45Z" uid="20587" user="balrog-kun" changeset="232111">
    <nd ref="343132518"/>
    <nd ref="343132521"/>
    <nd ref="343132528"/>
    <nd ref="343132524"/>
    <nd ref="343132518"/>
    <tag k="addr:housenumber" v="23"/>
    <tag k="addr:street" v="Królowej Aldony"/>
    <tag k="building" v="yes"/>
    <tag k="source:addr" v="msi"/>
  </way>
  <way id="30847471" version="1" timestamp="2009-02-07T17:36:45Z" uid="20587" user="balrog-kun" changeset="232111">
    <nd ref="343132530"/>
    <nd ref="343132533"/>
    <nd ref="343132537"/>
    <nd ref="343132542"/>
    <nd ref="343132544"/>
    <nd ref="343132540"/>
    <nd ref="343132535"/>
    <nd ref="343132530"/>
    <tag k="building" v="yes"/>
  </way>
  <way id="30847472" version="1" timestamp="2009-02-07T17:36:45Z" uid="20587" user="balrog-kun" changeset="232111">
    <nd ref="343132546"/>
    <nd ref="343132548"/>
    <nd ref="343132550"/>
    <nd ref="343132549"/>
    <nd ref="343132546"/>
    <tag k="addr:housenumber" v="21"/>
    <tag k="addr:street" v="Królowej Aldony"/>
    <tag k="building" v="yes"/>
    <tag k="source:addr" v="msi"/>
  </way>
  <way id="30847473" version="1" timestamp="2009-02-07T17:36:46Z" uid="20587" user="balrog-kun" changeset="232111">
    <nd ref="343132552"/>
    <nd ref="343132553"/>
    <nd ref="343132556"/>
    <nd ref="343132554"/>
    <nd ref="343132552"/>
    <tag k="addr:housenumber" v="19"/>
    <tag k="addr:postcode" v="03-928"/>
    <tag k="addr:street" v="Królowej Aldony"/>
    <tag k="amenity" v="embassy"/>
    <tag k="building" v="yes"/>
    <tag k="name" v="Ambasada Republiki Łotewskiej"/>
    <tag k="name:en" v="Latvian Embassy"/>
    <tag k="name:es" v="Embajada de la República de Letonia"/>
    <tag k="name:lv" v="Latvijas Republikas Vēstniecība"/>
    <tag k="source:addr" v="msi"/>
  </way>
  <way id="30847473" version="2" timestamp="2009-03-27T21:41:37Z" uid="64578" user="Serpens" changeset="863803">
    <nd ref="343132552"/>
    <nd ref="343132553"/>
    <nd ref="343132556"/>
    <nd ref="343132554"/>
    <nd ref="343132552"/>
    <tag k="addr:housenumber" v="19"/>
    <tag k="addr:postcode" v="03-928"/>
    <tag k="addr:street" v="Królowej Aldony"/>
    <tag k="amenity" v="embassy"/>
    <tag k="building" v="yes"/>
    <tag k="country" v="lv"/>
    <tag k="name" v="Ambasada Republiki Łotewskiej"/>
    <tag k="name:en" v="Latvian Embassy"/>
    <tag k="name:es" v="Embajada de la República de Letonia"/>
    <tag k="name:lv" v="Latvijas Republikas Vēstniecība"/>
    <tag k="source:addr" v="msi"/>
  </way>
  <way id="30847473" version="3" timestamp="2010-01-04T14:57:34Z" uid="64578" user="Serpens" changeset="3537746">
    <nd ref="343132552"/>
    <nd ref="343132553"/>
    <nd ref="343132556"/>
    <nd ref="343132554"/>
    <nd ref="343132552"/>
    <tag k="addr:housenumber" v="19"/>
    <tag k="addr:postcode" v="03-928"/>
    <tag k="addr:street" v="Królowej Aldony"/>
    <tag k="amenity" v="embassy"/>
    <tag k="building" v="yes"/>
    <tag k="country" v="LV"/>
    <tag k="name" v="Ambasada Republiki Łotewskiej"/>
    <tag k="name:en" v="Latvian Embassy"/>
    <tag k="name:es" v="Embajada de la República de Letonia"/>
    <tag k="name:lv" v="Latvijas Republikas Vēstniecība"/>
    <tag k="source:addr" v="msi"/>
  </way>
  <way id="30847474" version="1" timestamp="2009-02-07T17:36:47Z" uid="20587" user="balrog-kun" changeset="232111">
    <nd ref="343132557"/>
    <nd ref="343132558"/>
    <nd ref="343132561"/>
    <nd ref="343132563"/>
    <nd ref="343132562"/>
    <nd ref="343132566"/>
    <nd ref="343132565"/>
    <nd ref="343132560"/>
    <nd ref="343132557"/>
    <tag k="addr:housenumber" v="39"/>
    <tag k="addr:street" v="Obrońców"/>
    <tag k="building" v="yes"/>
    <tag k="source:addr" v="msi"/>
  </way>
  <way id="30847475" version="1" timestamp="2009-02-07T17:36:48Z" uid="20587" user="balrog-kun" changeset="232111">
    <nd ref="343132570"/>
    <nd ref="343132567"/>
    <nd ref="343132569"/>
    <nd ref="343132572"/>
    <nd ref="343132570"/>
    <tag k="addr:housenumber" v="15"/>
    <tag k="addr:street" v="Królowej Aldony"/>
    <tag k="building" v="yes"/>
    <tag k="source:addr" v="msi"/>
  </way>
  <way id="30847476" version="1" timestamp="2009-02-07T17:36:48Z" uid="20587" user="balrog-kun" changeset="232111">
    <nd ref="343132575"/>
    <nd ref="343132573"/>
    <nd ref="343132574"/>
    <nd ref="343132577"/>
    <nd ref="343132586"/>
    <nd ref="343132575"/>
    <tag k="addr:housenumber" v="10"/>
    <tag k="addr:street" v="Francuska"/>
    <tag k="building" v="yes"/>
    <tag k="source:addr" v="msi"/>
  </way>
  <way id="30847477" version="1" timestamp="2009-02-07T17:36:48Z" uid="20587" user="balrog-kun" changeset="232111">
    <nd ref="343132575"/>
    <nd ref="343132586"/>
    <nd ref="343132584"/>
    <nd ref="343132578"/>
    <nd ref="343132575"/>
    <tag k="addr:housenumber" v="8"/>
    <tag k="addr:street" v="Francuska"/>
    <tag k="building" v="yes"/>
    <tag k="source:addr" v="msi"/>
  </way>
  <way id="30847478" version="1" timestamp="2009-02-07T17:36:49Z" uid="20587" user="balrog-kun" changeset="232111">
    <nd ref="343132581"/>
    <nd ref="343132578"/>
    <nd ref="343132584"/>
    <nd ref="343132580"/>
    <nd ref="343132582"/>
    <nd ref="343132581"/>
    <tag k="addr:housenumber" v="6"/>
    <tag k="addr:street" v="Francuska"/>
    <tag k="building" v="yes"/>
    <tag k="source:addr" v="msi"/>
  </way>
  <way id="30847479" version="1" timestamp="2009-02-07T17:36:49Z" uid="20587" user="balrog-kun" changeset="232111">
    <nd ref="343132587"/>
    <nd ref="343132589"/>
    <nd ref="343132592"/>
    <nd ref="343132591"/>
    <nd ref="343132587"/>
    <tag k="addr:housenumber" v="24"/>
    <tag k="addr:street" v="Obrońców"/>
    <tag k="building" v="yes"/>
    <tag k="source:addr" v="msi"/>
  </way>
  <way id="30847480" version="1" timestamp="2009-02-07T17:36:49Z" uid="20587" user="balrog-kun" changeset="232111">
    <nd ref="343132593"/>
    <nd ref="343132594"/>
    <nd ref="343132597"/>
    <nd ref="343132596"/>
    <nd ref="343132593"/>
    <tag k="addr:housenumber" v="26"/>
    <tag k="addr:street" v="Obrońców"/>
    <tag k="building" v="yes"/>
    <tag k="source:addr" v="msi"/>
  </way>
  <way id="30847481" version="1" timestamp="2009-02-07T17:36:50Z" uid="20587" user="balrog-kun" changeset="232111">
    <nd ref="343132606"/>
    <nd ref="343132608"/>
    <nd ref="343132610"/>
    <nd ref="343132609"/>
    <nd ref="343132606"/>
    <tag k="addr:street" v="Zwycięzców"/>
    <tag k="building" v="yes"/>
    <tag k="note" v="TODO: housenumber"/>
    <tag k="source:addr" v="msi"/>
  </way>
  <way id="30847481" version="2" timestamp="2012-02-29T15:02:29Z" uid="99386" user="masti" changeset="10828780">
    <nd ref="343132606"/>
    <nd ref="343132608"/>
    <nd ref="343132610"/>
    <nd ref="343132609"/>
    <nd ref="343132606"/>
    <tag k="addr:housenumber" v="1"/>
    <tag k="addr:street" v="Królowej Aldony"/>
    <tag k="building" v="yes"/>
    <tag k="source:addr" v="msi"/>
  </way>
  <way id="30847482" version="1" timestamp="2009-02-07T17:36:50Z" uid="20587" user="balrog-kun" changeset="232111">
    <nd ref="343132614"/>
    <nd ref="343132618"/>
    <nd ref="343132617"/>
    <nd ref="343132611"/>
    <nd ref="343132614"/>
    <tag k="addr:housenumber" v="5"/>
    <tag k="addr:street" v="Królowej Aldony"/>
    <tag k="building" v="yes"/>
    <tag k="source:addr" v="msi"/>
  </way>
  <way id="30847483" version="1" timestamp="2009-02-07T17:36:51Z" uid="20587" user="balrog-kun" changeset="232111">
    <nd ref="343132628"/>
    <nd ref="343132626"/>
    <nd ref="343132621"/>
    <nd ref="343132622"/>
    <nd ref="343132628"/>
    <tag k="addr:housenumber" v="7"/>
    <tag k="addr:street" v="Królowej Aldony"/>
    <tag k="building" v="yes"/>
    <tag k="source:addr" v="msi"/>
  </way>
  <way id="30847484" version="1" timestamp="2009-02-07T17:36:51Z" uid="20587" user="balrog-kun" changeset="232111">
    <nd ref="343132637"/>
    <nd ref="343132638"/>
    <nd ref="343132642"/>
    <nd ref="343132639"/>
    <nd ref="343132637"/>
    <tag k="building" v="yes"/>
  </way>
  <way id="30847485" version="1" timestamp="2009-02-07T17:36:52Z" uid="20587" user="balrog-kun" changeset="232111">
    <nd ref="343132650"/>
    <nd ref="343132647"/>
    <nd ref="343132648"/>
    <nd ref="343132652"/>
    <nd ref="343132650"/>
    <tag k="addr:housenumber" v="11"/>
    <tag k="addr:street" v="Królowej Aldony"/>
    <tag k="building" v="yes"/>
    <tag k="source:addr" v="msi"/>
  </way>
  <way id="30847486" version="1" timestamp="2009-02-07T17:36:52Z" uid="20587" user="balrog-kun" changeset="232111">
    <nd ref="343132758"/>
    <nd ref="343132772"/>
    <nd ref="343132774"/>
    <nd ref="343132766"/>
    <nd ref="343132758"/>
    <tag k="addr:housenumber" v="6"/>
    <tag k="addr:street" v="Królowej Aldony"/>
    <tag k="building" v="yes"/>
    <tag k="source:addr" v="msi"/>
  </way>
  <way id="30847487" version="1" timestamp="2009-02-07T17:36:53Z" uid="20587" user="balrog-kun" changeset="232111">
    <nd ref="343132778"/>
    <nd ref="343132780"/>
    <nd ref="343132782"/>
    <nd ref="343132779"/>
    <nd ref="343132778"/>
    <tag k="addr:housenumber" v="10"/>
    <tag k="addr:street" v="Królowej Aldony"/>
    <tag k="building" v="yes"/>
    <tag k="source:addr" v="msi"/>
  </way>
  <way id="30847488" version="1" timestamp="2009-02-07T17:36:53Z" uid="20587" user="balrog-kun" changeset="232111">
    <nd ref="343132787"/>
    <nd ref="343132784"/>
    <nd ref="343132783"/>
    <nd ref="343132786"/>
    <nd ref="343132787"/>
    <tag k="addr:housenumber" v="12"/>
    <tag k="addr:street" v="Królowej Aldony"/>
    <tag k="building" v="yes"/>
    <tag k="source:addr" v="msi"/>
  </way>
  <way id="30847489" version="1" timestamp="2009-02-07T17:36:53Z" uid="20587" user="balrog-kun" changeset="232111">
    <nd ref="343132791"/>
    <nd ref="343132792"/>
    <nd ref="343132795"/>
    <nd ref="343132796"/>
    <nd ref="343132797"/>
    <nd ref="343132799"/>
    <nd ref="343132794"/>
    <nd ref="343132791"/>
    <tag k="addr:housenumber" v="28/30"/>
    <tag k="addr:street" v="Obrońców"/>
    <tag k="building" v="yes"/>
    <tag k="source:addr" v="msi"/>
  </way>
  <way id="30847490" version="1" timestamp="2009-02-07T17:36:54Z" uid="20587" user="balrog-kun" changeset="232111">
    <nd ref="343132800"/>
    <nd ref="343132801"/>
    <nd ref="343132804"/>
    <nd ref="343132805"/>
    <nd ref="343132807"/>
    <nd ref="343132808"/>
    <nd ref="343132803"/>
    <nd ref="343132800"/>
    <tag k="addr:housenumber" v="32"/>
    <tag k="addr:street" v="Obrońców"/>
    <tag k="building" v="yes"/>
    <tag k="source:addr" v="msi"/>
  </way>
  <way id="30847491" version="1" timestamp="2009-02-07T17:36:54Z" uid="20587" user="balrog-kun" changeset="232111">
    <nd ref="343132809"/>
    <nd ref="343132812"/>
    <nd ref="343132813"/>
    <nd ref="343132811"/>
    <nd ref="343132809"/>
    <tag k="addr:housenumber" v="34"/>
    <tag k="addr:street" v="Obrońców"/>
    <tag k="building" v="yes"/>
    <tag k="source:addr" v="msi"/>
  </way>
  <way id="30847492" version="1" timestamp="2009-02-07T17:36:54Z" uid="20587" user="balrog-kun" changeset="232111">
    <nd ref="343132822"/>
    <nd ref="343132820"/>
    <nd ref="343132821"/>
    <nd ref="343132824"/>
    <nd ref="343132822"/>
    <tag k="addr:housenumber" v="10"/>
    <tag k="addr:street" v="Jana Styki"/>
    <tag k="building" v="yes"/>
    <tag k="source:addr" v="msi"/>
  </way>
  <way id="30847493" version="1" timestamp="2009-02-07T17:36:55Z" uid="20587" user="balrog-kun" changeset="232111">
    <nd ref="343132828"/>
    <nd ref="343132829"/>
    <nd ref="343132831"/>
    <nd ref="343132830"/>
    <nd ref="343132828"/>
    <tag k="addr:housenumber" v="4"/>
    <tag k="addr:street" v="Jana Styki"/>
    <tag k="building" v="yes"/>
    <tag k="source:addr" v="msi"/>
  </way>
  <way id="30847494" version="1" timestamp="2009-02-07T17:36:55Z" uid="20587" user="balrog-kun" changeset="232111">
    <nd ref="343132833"/>
    <nd ref="343132834"/>
    <nd ref="343132837"/>
    <nd ref="343132841"/>
    <nd ref="343132846"/>
    <nd ref="343132852"/>
    <nd ref="343132848"/>
    <nd ref="343132844"/>
    <nd ref="343132838"/>
    <nd ref="343132835"/>
    <nd ref="343132833"/>
    <tag k="addr:street" v="Zwycięzców"/>
    <tag k="building" v="yes"/>
    <tag k="note" v="TODO: housenumber"/>
    <tag k="source:addr" v="msi"/>
  </way>
  <way id="30847494" version="2" timestamp="2012-02-29T15:02:29Z" uid="99386" user="masti" changeset="10828780"/>
  <way id="30847495" version="1" timestamp="2009-02-07T17:36:55Z" uid="20587" user="balrog-kun" changeset="232111">
    <nd ref="343132857"/>
    <nd ref="343132859"/>
    <nd ref="343132861"/>
    <nd ref="343132862"/>
    <nd ref="343132863"/>
    <nd ref="343132865"/>
    <nd ref="343132866"/>
    <nd ref="343132858"/>
    <nd ref="343132857"/>
    <tag k="building" v="yes"/>
  </way>
  <way id="30847496" version="1" timestamp="2009-02-07T17:36:55Z" uid="20587" user="balrog-kun" changeset="232111">
    <nd ref="343132867"/>
    <nd ref="343132870"/>
    <nd ref="343132871"/>
    <nd ref="343132868"/>
    <nd ref="343132867"/>
    <tag k="addr:housenumber" v="38"/>
    <tag k="addr:street" v="Obrońców"/>
    <tag k="building" v="yes"/>
    <tag k="source:addr" v="msi"/>
  </way>
  <way id="30847497" version="1" timestamp="2009-02-07T17:36:55Z" uid="20587" user="balrog-kun" changeset="232111">
    <nd ref="343132872"/>
    <nd ref="343132875"/>
    <nd ref="343132876"/>
    <nd ref="343132874"/>
    <nd ref="343132872"/>
    <tag k="addr:housenumber" v="36"/>
    <tag k="addr:street" v="Obrońców"/>
    <tag k="building" v="yes"/>
    <tag k="source:addr" v="msi"/>
  </way>
  <way id="30847498" version="1" timestamp="2009-02-07T17:36:56Z" uid="20587" user="balrog-kun" changeset="232111">
    <nd ref="343132880"/>
    <nd ref="343132878"/>
    <nd ref="343132879"/>
    <nd ref="343132881"/>
    <nd ref="343132880"/>
    <tag k="addr:housenumber" v="17"/>
    <tag k="addr:street" v="Alfreda Nobla"/>
    <tag k="building" v="yes"/>
    <tag k="source:addr" v="msi"/>
  </way>
  <way id="30847499" version="1" timestamp="2009-02-07T17:36:56Z" uid="20587" user="balrog-kun" changeset="232111">
    <nd ref="343132893"/>
    <nd ref="343132891"/>
    <nd ref="343132892"/>
    <nd ref="343132895"/>
    <nd ref="343132897"/>
    <nd ref="343132899"/>
    <nd ref="343132893"/>
    <tag k="addr:housenumber" v="9"/>
    <tag k="addr:street" v="Alfreda Nobla"/>
    <tag k="building" v="yes"/>
    <tag k="source:addr" v="msi"/>
  </way>
  <way id="30847500" version="1" timestamp="2009-02-07T17:36:56Z" uid="20587" user="balrog-kun" changeset="232111">
    <nd ref="343132450"/>
    <nd ref="343132456"/>
    <nd ref="343132459"/>
    <nd ref="343132453"/>
    <nd ref="343132450"/>
    <tag k="addr:housenumber" v="28"/>
    <tag k="addr:street" v="Francuska"/>
    <tag k="building" v="yes"/>
    <tag k="source:addr" v="msi"/>
  </way>
  <way id="30847501" version="1" timestamp="2009-02-07T17:36:56Z" uid="20587" user="balrog-kun" changeset="232111">
    <nd ref="343132456"/>
    <nd ref="343132467"/>
    <nd ref="343132470"/>
    <nd ref="343132462"/>
    <nd ref="343132465"/>
    <nd ref="343132459"/>
    <nd ref="343132456"/>
    <tag k="addr:housenumber" v="34"/>
    <tag k="addr:street" v="Walecznych"/>
    <tag k="building" v="yes"/>
    <tag k="source:addr" v="msi"/>
  </way>
  <way id="30847502" version="1" timestamp="2009-02-07T17:36:57Z" uid="20587" user="balrog-kun" changeset="232111">
    <nd ref="343132446"/>
    <nd ref="343132450"/>
    <nd ref="343132453"/>
    <nd ref="343132449"/>
    <nd ref="343132446"/>
    <tag k="addr:housenumber" v="26"/>
    <tag k="addr:street" v="Francuska"/>
    <tag k="building" v="yes"/>
    <tag k="source:addr" v="msi"/>
  </way>
  <way id="30847503" version="1" timestamp="2009-02-07T17:36:57Z" uid="20587" user="balrog-kun" changeset="232111">
    <nd ref="343132441"/>
    <nd ref="343132446"/>
    <nd ref="343132449"/>
    <nd ref="343132444"/>
    <nd ref="343132441"/>
    <tag k="addr:housenumber" v="24"/>
    <tag k="addr:street" v="Francuska"/>
    <tag k="building" v="yes"/>
    <tag k="source:addr" v="msi"/>
  </way>
  <way id="30847504" version="1" timestamp="2009-02-07T17:36:57Z" uid="20587" user="balrog-kun" changeset="232111">
    <nd ref="343132427"/>
    <nd ref="343132432"/>
    <nd ref="343132434"/>
    <nd ref="343132430"/>
    <nd ref="343132427"/>
    <tag k="addr:housenumber" v="20"/>
    <tag k="addr:street" v="Francuska"/>
    <tag k="building" v="yes"/>
    <tag k="source:addr" v="msi"/>
  </way>
  <way id="30847505" version="1" timestamp="2009-02-07T17:36:58Z" uid="20587" user="balrog-kun" changeset="232111">
    <nd ref="315403573"/>
    <nd ref="343132398"/>
    <nd ref="343132399"/>
    <nd ref="315403574"/>
    <nd ref="315403573"/>
    <tag k="addr:housenumber" v="16a"/>
    <tag k="addr:street" v="Francuska"/>
    <tag k="building" v="yes"/>
  </way>
  <way id="30847506" version="1" timestamp="2009-02-07T17:36:58Z" uid="20587" user="balrog-kun" changeset="232111">
    <nd ref="343132604"/>
    <nd ref="343132605"/>
    <nd ref="343132602"/>
    <nd ref="343132601"/>
    <nd ref="343132604"/>
    <tag k="addr:housenumber" v="2"/>
    <tag k="addr:street" v="Francuska"/>
    <tag k="building" v="yes"/>
    <tag k="source:addr" v="msi"/>
  </way>
  <way id="30847507" version="1" timestamp="2009-02-07T17:36:58Z" uid="20587" user="balrog-kun" changeset="232111">
    <nd ref="343132602"/>
    <nd ref="343132600"/>
    <nd ref="343132643"/>
    <nd ref="343132644"/>
    <nd ref="343132581"/>
    <nd ref="343132582"/>
    <nd ref="343132598"/>
    <nd ref="343132601"/>
    <nd ref="343132602"/>
    <tag k="addr:housenumber" v="4"/>
    <tag k="addr:street" v="Francuska"/>
    <tag k="building" v="yes"/>
    <tag k="source:addr" v="msi"/>
  </way>
  <way id="30847508" version="1" timestamp="2009-02-07T17:36:59Z" uid="20587" user="balrog-kun" changeset="232111">
    <nd ref="343132183"/>
    <nd ref="343132186"/>
    <nd ref="343132188"/>
    <nd ref="343132190"/>
    <nd ref="343132191"/>
    <nd ref="343132192"/>
    <nd ref="343132187"/>
    <nd ref="343132184"/>
    <nd ref="343132183"/>
    <tag k="addr:housenumber" v="50"/>
    <tag k="addr:street" v="Walecznych"/>
    <tag k="building" v="yes"/>
    <tag k="source:addr" v="msi"/>
  </way>
  <way id="30847509" version="1" timestamp="2009-02-07T17:36:59Z" uid="20587" user="balrog-kun" changeset="232111">
    <nd ref="343132179"/>
    <nd ref="343132182"/>
    <nd ref="343132183"/>
    <nd ref="343132184"/>
    <nd ref="343132181"/>
    <nd ref="343132179"/>
    <tag k="addr:housenumber" v="48"/>
    <tag k="addr:street" v="Walecznych"/>
    <tag k="building" v="yes"/>
    <tag k="source:addr" v="msi"/>
  </way>
  <way id="30847510" version="1" timestamp="2009-02-07T17:36:59Z" uid="20587" user="balrog-kun" changeset="232111">
    <nd ref="343132572"/>
    <nd ref="343132915"/>
    <nd ref="343132917"/>
    <nd ref="343132570"/>
    <nd ref="343132572"/>
    <tag k="addr:housenumber" v="17"/>
    <tag k="addr:street" v="Królowej Aldony"/>
    <tag k="building" v="yes"/>
    <tag k="source:addr" v="msi"/>
  </way>
  <way id="30847511" version="1" timestamp="2009-02-07T17:36:59Z" uid="20587" user="balrog-kun" changeset="232111">
    <nd ref="343132524"/>
    <nd ref="343132919"/>
    <nd ref="343132921"/>
    <nd ref="343132518"/>
    <nd ref="343132524"/>
    <tag k="addr:housenumber" v="25"/>
    <tag k="addr:street" v="Królowej Aldony"/>
    <tag k="building" v="yes"/>
    <tag k="source:addr" v="msi"/>
  </way>
  <way id="30847512" version="1" timestamp="2009-02-07T17:37:00Z" uid="20587" user="balrog-kun" changeset="232111">
    <nd ref="343132655"/>
    <nd ref="343132658"/>
    <nd ref="343132656"/>
    <nd ref="343132653"/>
    <nd ref="343132655"/>
    <tag k="addr:housenumber" v="13"/>
    <tag k="addr:street" v="Królowej Aldony"/>
    <tag k="building" v="yes"/>
    <tag k="source:addr" v="msi"/>
  </way>
  <way id="30847513" version="1" timestamp="2009-02-07T17:37:00Z" uid="20587" user="balrog-kun" changeset="232111">
    <nd ref="343132628"/>
    <nd ref="343132631"/>
    <nd ref="343132633"/>
    <nd ref="343132635"/>
    <nd ref="343132634"/>
    <nd ref="343132630"/>
    <nd ref="343132626"/>
    <nd ref="343132628"/>
    <tag k="addr:housenumber" v="9"/>
    <tag k="addr:street" v="Królowej Aldony"/>
    <tag k="building" v="yes"/>
    <tag k="source:addr" v="msi"/>
  </way>
  <way id="30847514" version="1" timestamp="2009-02-07T17:37:00Z" uid="20587" user="balrog-kun" changeset="232111">
    <nd ref="343132614"/>
    <nd ref="343132611"/>
    <nd ref="343132613"/>
    <nd ref="343132615"/>
    <nd ref="343132614"/>
    <tag k="addr:housenumber" v="3"/>
    <tag k="addr:street" v="Królowej Aldony"/>
    <tag k="building" v="yes"/>
    <tag k="source:addr" v="msi"/>
  </way>
  <way id="30847515" version="1" timestamp="2009-02-07T17:37:00Z" uid="20587" user="balrog-kun" changeset="232111">
    <nd ref="343132923"/>
    <nd ref="343132924"/>
    <tag k="highway" v="residential"/>
    <tag k="name" v="Nurska"/>
    <tag k="source:name" v="msi"/>
  </way>
  <way id="30847516" version="1" timestamp="2009-02-07T17:37:01Z" uid="20587" user="balrog-kun" changeset="232111">
    <nd ref="255161040"/>
    <nd ref="343132926"/>
    <tag k="highway" v="living_street"/>
    <tag k="name" v="Radziłowska"/>
  </way>
  <way id="30847517" version="1" timestamp="2009-02-07T17:37:01Z" uid="20587" user="balrog-kun" changeset="232111">
    <nd ref="343132928"/>
    <nd ref="343132931"/>
    <nd ref="343132932"/>
    <nd ref="343132934"/>
    <nd ref="343132928"/>
    <tag k="amenity" v="university"/>
    <tag k="name" v="Wyższa Szkoła Informatyki i Zarządzania Administracją"/>
  </way>
  <way id="30847517" version="2" timestamp="2011-08-13T09:04:25Z" uid="99386" user="masti" changeset="9003329">
    <nd ref="343132928"/>
    <nd ref="343132931"/>
    <nd ref="343132932"/>
    <nd ref="343132934"/>
    <nd ref="343132928"/>
    <tag k="addr:housenumber" v="6"/>
    <tag k="addr:street" v="Meksykańska"/>
    <tag k="amenity" v="university"/>
    <tag k="name" v="Wyższa Szkoła Informatyki i Zarządzania Administracją"/>
  </way>
  <way id="30847517" version="3" timestamp="2011-08-13T09:19:52Z" uid="99386" user="masti" changeset="9003452">
    <nd ref="343132928"/>
    <nd ref="343132931"/>
    <nd ref="343132932"/>
    <nd ref="343132934"/>
    <nd ref="343132928"/>
    <tag k="addr:housenumber" v="6"/>
    <tag k="addr:street" v="Meksykańska"/>
    <tag k="amenity" v="university"/>
    <tag k="building" v="yes"/>
    <tag k="name" v="Wyższa Szkoła Informatyki i Zarządzania Administracją"/>
  </way>
  <way id="30847518" version="1" timestamp="2009-02-07T17:37:01Z" uid="20587" user="balrog-kun" changeset="232111">
    <nd ref="343132937"/>
    <nd ref="343132939"/>
    <tag k="highway" v="service"/>
  </way>
  <way id="30847519" version="1" timestamp="2009-02-07T17:37:02Z" uid="20587" user="balrog-kun" changeset="232111">
    <nd ref="343132940"/>
    <nd ref="343132943"/>
    <nd ref="343132944"/>
    <tag k="highway" v="living_street"/>
  </way>
  <way id="30847519" version="2" timestamp="2011-03-03T16:47:27Z" uid="20587" user="balrog-kun" changeset="7447317">
    <nd ref="343132940"/>
    <nd ref="343132943"/>
    <nd ref="343132944"/>
    <tag k="highway" v="living_street"/>
    <tag k="lanes" v="1"/>
  </way>
  <way id="30847520" version="1" timestamp="2009-02-07T17:37:02Z" uid="20587" user="balrog-kun" changeset="232111">
    <nd ref="343132361"/>
    <nd ref="343132362"/>
    <nd ref="343132360"/>
    <nd ref="343132357"/>
    <nd ref="343132358"/>
    <nd ref="343132361"/>
    <tag k="addr:housenumber" v="47"/>
    <tag k="addr:street" v="Obrońców"/>
    <tag k="building" v="yes"/>
    <tag k="source:addr" v="msi"/>
  </way>
  <way id="30847521" version="1" timestamp="2009-02-07T17:37:02Z" uid="20587" user="balrog-kun" changeset="232111">
    <nd ref="343132776"/>
    <nd ref="343132775"/>
    <nd ref="343132778"/>
    <nd ref="343132779"/>
    <nd ref="343132776"/>
    <tag k="addr:housenumber" v="8"/>
    <tag k="addr:street" v="Królowej Aldony"/>
    <tag k="building" v="yes"/>
    <tag k="source:addr" v="msi"/>
  </way>
  <way id="30847522" version="1" timestamp="2009-02-07T17:37:02Z" uid="20587" user="balrog-kun" changeset="232111">
    <nd ref="343132786"/>
    <nd ref="343132788"/>
    <nd ref="343132789"/>
    <nd ref="343132787"/>
    <nd ref="343132786"/>
    <tag k="addr:housenumber" v="14"/>
    <tag k="addr:street" v="Królowej Aldony"/>
    <tag k="building" v="yes"/>
    <tag k="source:addr" v="msi"/>
  </way>
  <way id="30847523" version="1" timestamp="2009-02-07T17:37:02Z" uid="20587" user="balrog-kun" changeset="232111">
    <nd ref="343132743"/>
    <nd ref="343132758"/>
    <nd ref="343132766"/>
    <nd ref="343132750"/>
    <nd ref="343132743"/>
    <tag k="addr:housenumber" v="4"/>
    <tag k="addr:street" v="Królowej Aldony"/>
    <tag k="building" v="yes"/>
    <tag k="source:addr" v="msi"/>
  </way>
  <way id="30847524" version="1" timestamp="2009-02-07T17:37:03Z" uid="20587" user="balrog-kun" changeset="232111">
    <nd ref="343132277"/>
    <nd ref="343132947"/>
    <nd ref="343132945"/>
    <nd ref="343132275"/>
    <nd ref="343132277"/>
    <tag k="addr:housenumber" v="23"/>
    <tag k="addr:street" v="Jana Styki"/>
    <tag k="building" v="yes"/>
    <tag k="note" v="TODO: 23a"/>
    <tag k="source:addr" v="msi"/>
  </way>
  <way id="30847525" version="1" timestamp="2009-02-07T17:37:03Z" uid="20587" user="balrog-kun" changeset="232111">
    <nd ref="343132691"/>
    <nd ref="343132680"/>
    <nd ref="343132686"/>
    <nd ref="343132700"/>
    <nd ref="343132713"/>
    <nd ref="343132728"/>
    <nd ref="343132735"/>
    <nd ref="343132721"/>
    <nd ref="343132705"/>
    <nd ref="343132693"/>
    <nd ref="343132691"/>
    <tag k="addr:street" v="Zwycięzców"/>
    <tag k="building" v="yes"/>
    <tag k="note" v="TODO: housenumber"/>
    <tag k="source:addr" v="msi"/>
  </way>
  <way id="30847525" version="2" timestamp="2012-02-29T13:18:56Z" uid="99386" user="masti" changeset="10827823"/>
  <way id="30847527" version="1" timestamp="2009-02-07T17:37:03Z" uid="20587" user="balrog-kun" changeset="232111">
    <nd ref="343132822"/>
    <nd ref="343132824"/>
    <nd ref="343132826"/>
    <nd ref="343132825"/>
    <nd ref="343132822"/>
    <tag k="addr:housenumber" v="8"/>
    <tag k="addr:street" v="Jana Styki"/>
    <tag k="building" v="yes"/>
    <tag k="source:addr" v="msi"/>
  </way>
  <way id="30847529" version="1" timestamp="2009-02-07T17:37:04Z" uid="20587" user="balrog-kun" changeset="232111">
    <nd ref="343132948"/>
    <nd ref="343132951"/>
    <nd ref="343132952"/>
    <nd ref="343132949"/>
    <nd ref="343132948"/>
    <tag k="addr:housenumber" v="14"/>
    <tag k="addr:street" v="Jana Styki"/>
    <tag k="building" v="yes"/>
    <tag k="source:addr" v="msi"/>
  </way>
  <way id="30847530" version="1" timestamp="2009-02-07T17:37:04Z" uid="20587" user="balrog-kun" changeset="232111">
    <nd ref="343132817"/>
    <nd ref="343132815"/>
    <nd ref="343132816"/>
    <nd ref="343132818"/>
    <nd ref="343132817"/>
    <tag k="addr:housenumber" v="10a"/>
    <tag k="addr:street" v="Jana Styki"/>
    <tag k="building" v="yes"/>
    <tag k="source:addr" v="msi"/>
  </way>
  <way id="30847532" version="1" timestamp="2009-02-07T17:37:04Z" uid="20587" user="balrog-kun" changeset="232111">
    <nd ref="343132948"/>
    <nd ref="343132949"/>
    <nd ref="343132816"/>
    <nd ref="343132815"/>
    <nd ref="343132948"/>
    <tag k="addr:housenumber" v="12"/>
    <tag k="addr:street" v="Jana Styki"/>
    <tag k="building" v="yes"/>
    <tag k="source:addr" v="msi"/>
  </way>
  <way id="30847534" version="1" timestamp="2009-02-07T17:37:04Z" uid="20587" user="balrog-kun" changeset="232111">
    <nd ref="343132962"/>
    <nd ref="343132955"/>
    <nd ref="343132958"/>
    <nd ref="343132963"/>
    <nd ref="343132962"/>
    <tag k="addr:housenumber" v="11a"/>
    <tag k="addr:street" v="Jana Styki"/>
    <tag k="building" v="yes"/>
    <tag k="source:addr" v="msi"/>
  </way>
  <way id="30847536" version="1" timestamp="2009-02-07T17:37:04Z" uid="20587" user="balrog-kun" changeset="232111">
    <nd ref="343132962"/>
    <nd ref="343132963"/>
    <nd ref="343132961"/>
    <nd ref="343132960"/>
    <nd ref="343132962"/>
    <tag k="addr:housenumber" v="11"/>
    <tag k="addr:street" v="Jana Styki"/>
    <tag k="building" v="yes"/>
    <tag k="source:addr" v="msi"/>
  </way>
  <way id="30847538" version="1" timestamp="2009-02-07T17:37:05Z" uid="20587" user="balrog-kun" changeset="232111">
    <nd ref="343132953"/>
    <nd ref="343132960"/>
    <nd ref="343132961"/>
    <nd ref="343132956"/>
    <nd ref="343132953"/>
    <tag k="addr:housenumber" v="9"/>
    <tag k="addr:street" v="Jana Styki"/>
    <tag k="building" v="yes"/>
    <tag k="source:addr" v="msi"/>
  </way>
  <way id="30847539" version="1" timestamp="2009-02-07T17:37:05Z" uid="20587" user="balrog-kun" changeset="232111">
    <nd ref="343132665"/>
    <nd ref="343132673"/>
    <nd ref="343132668"/>
    <nd ref="343132664"/>
    <nd ref="343132665"/>
    <tag k="addr:housenumber" v="5"/>
    <tag k="addr:street" v="Jana Styki"/>
    <tag k="building" v="yes"/>
    <tag k="source:addr" v="msi"/>
  </way>
  <way id="30847541" version="1" timestamp="2009-02-07T17:37:05Z" uid="20587" user="balrog-kun" changeset="232111">
    <nd ref="343132664"/>
    <nd ref="343132660"/>
    <nd ref="343132662"/>
    <nd ref="343132665"/>
    <nd ref="343132664"/>
    <tag k="addr:housenumber" v="7"/>
    <tag k="addr:street" v="Jana Styki"/>
    <tag k="building" v="yes"/>
    <tag k="source:addr" v="msi"/>
  </way>
  <way id="30847545" version="1" timestamp="2009-02-07T17:37:06Z" uid="20587" user="balrog-kun" changeset="232111">
    <nd ref="343132686"/>
    <nd ref="343132680"/>
    <nd ref="343132668"/>
    <nd ref="343132673"/>
    <nd ref="343132686"/>
    <tag k="addr:housenumber" v="3"/>
    <tag k="addr:street" v="Jana Styki"/>
    <tag k="building" v="yes"/>
    <tag k="source:addr" v="msi"/>
  </way>
  <way id="30847547" version="1" timestamp="2009-02-07T17:37:07Z" uid="20587" user="balrog-kun" changeset="232111">
    <nd ref="343132965"/>
    <nd ref="343132967"/>
    <nd ref="343132969"/>
    <nd ref="343132966"/>
    <nd ref="343132965"/>
    <tag k="building" v="yes"/>
  </way>
  <way id="30847549" version="1" timestamp="2009-02-07T17:37:07Z" uid="20587" user="balrog-kun" changeset="232111">
    <nd ref="343132338"/>
    <nd ref="343132339"/>
    <nd ref="343132334"/>
    <nd ref="343132333"/>
    <nd ref="343132342"/>
    <nd ref="343132343"/>
    <nd ref="343132335"/>
    <nd ref="343132337"/>
    <nd ref="343132338"/>
    <tag k="addr:housenumber" v="18"/>
    <tag k="addr:street" v="Jana Styki"/>
    <tag k="building" v="yes"/>
    <tag k="source:addr" v="msi"/>
  </way>
  <way id="30847550" version="1" timestamp="2009-02-07T17:37:08Z" uid="20587" user="balrog-kun" changeset="232111">
    <nd ref="343132970"/>
    <nd ref="343132971"/>
    <nd ref="343132974"/>
    <nd ref="343132973"/>
    <nd ref="343132970"/>
    <tag k="building" v="yes"/>
  </way>
  <way id="30847552" version="1" timestamp="2009-02-07T17:37:08Z" uid="20587" user="balrog-kun" changeset="232111">
    <nd ref="343132389"/>
    <nd ref="343132396"/>
    <nd ref="343132393"/>
    <nd ref="343132384"/>
    <nd ref="343132389"/>
    <tag k="addr:housenumber" v="29c"/>
    <tag k="addr:street" v="Alfreda Nobla"/>
    <tag k="building" v="yes"/>
    <tag k="source:addr" v="msi"/>
  </way>
  <way id="30847554" version="1" timestamp="2009-02-07T17:37:08Z" uid="20587" user="balrog-kun" changeset="232111">
    <nd ref="343132369"/>
    <nd ref="343132374"/>
    <nd ref="343132379"/>
    <nd ref="343132382"/>
    <nd ref="343132376"/>
    <nd ref="343132372"/>
    <nd ref="343132369"/>
    <tag k="addr:housenumber" v="25"/>
    <tag k="addr:street" v="Alfreda Nobla"/>
    <tag k="building" v="yes"/>
    <tag k="source:addr" v="msi"/>
  </way>
  <way id="30847556" version="1" timestamp="2009-02-07T17:37:09Z" uid="20587" user="balrog-kun" changeset="232111">
    <nd ref="343132366"/>
    <nd ref="343132369"/>
    <nd ref="343132372"/>
    <nd ref="343132368"/>
    <nd ref="343132366"/>
    <tag k="addr:housenumber" v="23"/>
    <tag k="addr:street" v="Alfreda Nobla"/>
    <tag k="building" v="yes"/>
    <tag k="source:addr" v="msi"/>
  </way>
  <way id="30847557" version="1" timestamp="2009-02-07T17:37:09Z" uid="20587" user="balrog-kun" changeset="232111">
    <nd ref="343132360"/>
    <nd ref="343132362"/>
    <nd ref="343132363"/>
    <nd ref="343132365"/>
    <nd ref="343132366"/>
    <nd ref="343132368"/>
    <nd ref="343132360"/>
    <tag k="addr:housenumber" v="21"/>
    <tag k="addr:street" v="Alfreda Nobla"/>
    <tag k="building" v="yes"/>
    <tag k="source:addr" v="msi"/>
  </way>
  <way id="30847559" version="1" timestamp="2009-02-07T17:37:10Z" uid="20587" user="balrog-kun" changeset="232111">
    <nd ref="343132883"/>
    <nd ref="343132880"/>
    <nd ref="343132881"/>
    <nd ref="343132884"/>
    <nd ref="343132883"/>
    <tag k="addr:housenumber" v="15"/>
    <tag k="addr:street" v="Alfreda Nobla"/>
    <tag k="building" v="yes"/>
    <tag k="source:addr" v="msi"/>
  </way>
  <way id="30847561" version="1" timestamp="2009-02-07T17:37:10Z" uid="20587" user="balrog-kun" changeset="232111">
    <nd ref="343132883"/>
    <nd ref="343132884"/>
    <nd ref="343132887"/>
    <nd ref="343132885"/>
    <nd ref="343132883"/>
    <tag k="addr:housenumber" v="13"/>
    <tag k="addr:street" v="Alfreda Nobla"/>
    <tag k="building" v="yes"/>
    <tag k="source:addr" v="msi"/>
  </way>
  <way id="30847563" version="1" timestamp="2009-02-07T17:37:10Z" uid="20587" user="balrog-kun" changeset="232111">
    <nd ref="343132888"/>
    <nd ref="343132885"/>
    <nd ref="343132887"/>
    <nd ref="343132889"/>
    <nd ref="343132888"/>
    <tag k="addr:housenumber" v="11"/>
    <tag k="addr:street" v="Alfreda Nobla"/>
    <tag k="building" v="yes"/>
    <tag k="source:addr" v="msi"/>
  </way>
  <way id="30847564" version="1" timestamp="2009-02-07T17:37:10Z" uid="20587" user="balrog-kun" changeset="232111">
    <nd ref="343132893"/>
    <nd ref="343132899"/>
    <nd ref="343132901"/>
    <nd ref="343132905"/>
    <nd ref="343132904"/>
    <nd ref="343132893"/>
    <tag k="addr:housenumber" v="7"/>
    <tag k="addr:street" v="Alfreda Nobla"/>
    <tag k="building" v="yes"/>
    <tag k="source:addr" v="msi"/>
  </way>
  <way id="30847567" version="1" timestamp="2009-02-07T17:37:11Z" uid="20587" user="balrog-kun" changeset="232111">
    <nd ref="343132905"/>
    <nd ref="343132907"/>
    <nd ref="343132910"/>
    <nd ref="343132904"/>
    <nd ref="343132905"/>
    <tag k="addr:housenumber" v="5"/>
    <tag k="addr:street" v="Alfreda Nobla"/>
    <tag k="building" v="yes"/>
    <tag k="source:addr" v="msi"/>
  </way>
  <way id="30847569" version="1" timestamp="2009-02-07T17:37:11Z" uid="20587" user="balrog-kun" changeset="232111">
    <nd ref="343132911"/>
    <nd ref="343132913"/>
    <nd ref="343132910"/>
    <nd ref="343132907"/>
    <nd ref="343132911"/>
    <tag k="addr:housenumber" v="3"/>
    <tag k="addr:street" v="Alfreda Nobla"/>
    <tag k="building" v="yes"/>
    <tag k="source:addr" v="msi"/>
  </way>
  <way id="30847570" version="1" timestamp="2009-02-07T17:37:12Z" uid="20587" user="balrog-kun" changeset="232111">
    <nd ref="343132076"/>
    <nd ref="343132073"/>
    <nd ref="343132068"/>
    <nd ref="343132066"/>
    <nd ref="343132069"/>
    <nd ref="343132077"/>
    <nd ref="343132078"/>
    <nd ref="343132075"/>
    <nd ref="343132076"/>
    <tag k="addr:housenumber" v="72"/>
    <tag k="addr:street" v="Saska"/>
    <tag k="building" v="yes"/>
    <tag k="source:addr" v="msi"/>
  </way>
  <way id="30847572" version="1" timestamp="2009-02-07T17:37:12Z" uid="20587" user="balrog-kun" changeset="232111">
    <nd ref="343132027"/>
    <nd ref="343132031"/>
    <nd ref="343132032"/>
    <nd ref="343132029"/>
    <nd ref="343132027"/>
    <tag k="addr:housenumber" v="68"/>
    <tag k="addr:street" v="Saska"/>
    <tag k="building" v="yes"/>
    <tag k="source:addr" v="msi"/>
  </way>
  <way id="30847574" version="1" timestamp="2009-02-07T17:37:12Z" uid="20587" user="balrog-kun" changeset="232111">
    <nd ref="343131964"/>
    <nd ref="343131968"/>
    <nd ref="343131966"/>
    <nd ref="343131959"/>
    <nd ref="343131964"/>
    <tag k="addr:housenumber" v="66"/>
    <tag k="addr:street" v="Saska"/>
    <tag k="building" v="yes"/>
    <tag k="source:addr" v="msi"/>
  </way>
  <way id="30847576" version="1" timestamp="2009-02-07T17:37:13Z" uid="20587" user="balrog-kun" changeset="232111">
    <nd ref="343131958"/>
    <nd ref="343131964"/>
    <nd ref="343131959"/>
    <nd ref="343131955"/>
    <nd ref="343131958"/>
    <tag k="addr:housenumber" v="64"/>
    <tag k="addr:street" v="Saska"/>
    <tag k="building" v="yes"/>
    <tag k="source:addr" v="msi"/>
  </way>
  <way id="30847578" version="1" timestamp="2009-02-07T17:37:13Z" uid="20587" user="balrog-kun" changeset="232111">
    <nd ref="343131923"/>
    <nd ref="343131926"/>
    <nd ref="343131925"/>
    <nd ref="343131921"/>
    <nd ref="343131923"/>
    <tag k="addr:housenumber" v="62"/>
    <tag k="addr:street" v="Saska"/>
    <tag k="building" v="yes"/>
    <tag k="source:addr" v="msi"/>
  </way>
  <way id="30847580" version="1" timestamp="2009-02-07T17:37:14Z" uid="20587" user="balrog-kun" changeset="232111">
    <nd ref="343131887"/>
    <nd ref="343131888"/>
    <nd ref="343131891"/>
    <nd ref="343131889"/>
    <nd ref="343131887"/>
    <tag k="addr:housenumber" v="56"/>
    <tag k="addr:street" v="Saska"/>
    <tag k="building" v="yes"/>
    <tag k="source:addr" v="msi"/>
  </way>
  <way id="30847582" version="1" timestamp="2009-02-07T17:37:14Z" uid="20587" user="balrog-kun" changeset="232111">
    <nd ref="343131891"/>
    <nd ref="343131897"/>
    <nd ref="343131896"/>
    <nd ref="343131894"/>
    <nd ref="343131893"/>
    <nd ref="343131889"/>
    <nd ref="343131891"/>
    <tag k="addr:housenumber" v="58"/>
    <tag k="addr:street" v="Saska"/>
    <tag k="building" v="yes"/>
    <tag k="source:addr" v="msi"/>
  </way>
  <way id="30847584" version="1" timestamp="2009-02-07T17:37:14Z" uid="20587" user="balrog-kun" changeset="232111">
    <nd ref="343131883"/>
    <nd ref="343131886"/>
    <nd ref="343131884"/>
    <nd ref="343131881"/>
    <nd ref="343131883"/>
    <tag k="addr:housenumber" v="52"/>
    <tag k="addr:street" v="Saska"/>
    <tag k="building" v="yes"/>
    <tag k="source:addr" v="msi"/>
  </way>
  <way id="30847585" version="1" timestamp="2009-02-07T17:37:14Z" uid="20587" user="balrog-kun" changeset="232111">
    <nd ref="343131878"/>
    <nd ref="343131875"/>
    <nd ref="343131877"/>
    <nd ref="343131879"/>
    <nd ref="343131878"/>
    <tag k="addr:housenumber" v="43"/>
    <tag k="addr:street" v="Zwycięzców"/>
    <tag k="building" v="yes"/>
    <tag k="source:addr" v="msi"/>
  </way>
  <way id="30847587" version="1" timestamp="2009-02-07T17:37:15Z" uid="20587" user="balrog-kun" changeset="232111">
    <nd ref="343131881"/>
    <nd ref="343131878"/>
    <nd ref="343131879"/>
    <nd ref="343131883"/>
    <nd ref="343131881"/>
    <tag k="addr:housenumber" v="50"/>
    <tag k="addr:street" v="Saska"/>
    <tag k="building" v="yes"/>
    <tag k="source:addr" v="msi"/>
  </way>
  <way id="30847589" version="1" timestamp="2009-02-07T17:37:15Z" uid="20587" user="balrog-kun" changeset="232111">
    <nd ref="343132978"/>
    <nd ref="343132979"/>
    <nd ref="343132980"/>
    <nd ref="343132982"/>
    <nd ref="343132978"/>
    <tag k="addr:housenumber" v="1a"/>
    <tag k="addr:street" v="Londyńska"/>
    <tag k="building" v="yes"/>
    <tag k="source:addr" v="msi"/>
  </way>
  <way id="30847591" version="1" timestamp="2009-02-07T17:37:15Z" uid="20587" user="balrog-kun" changeset="232111">
    <nd ref="343132983"/>
    <nd ref="343133008"/>
    <nd ref="343132984"/>
    <nd ref="343132986"/>
    <nd ref="343132987"/>
    <nd ref="343132988"/>
    <nd ref="343132990"/>
    <nd ref="343132991"/>
    <nd ref="343132992"/>
    <nd ref="343132994"/>
    <nd ref="343132995"/>
    <nd ref="343132997"/>
    <nd ref="343133000"/>
    <nd ref="343133002"/>
    <nd ref="343133004"/>
    <nd ref="343133006"/>
    <nd ref="343132983"/>
    <tag k="highway" v="footway"/>
  </way>
  <way id="30847593" version="1" timestamp="2009-02-07T17:37:16Z" uid="20587" user="balrog-kun" changeset="232111">
    <nd ref="343133007"/>
    <nd ref="343133008"/>
    <nd ref="343132994"/>
    <nd ref="343133010"/>
    <tag k="highway" v="footway"/>
  </way>
  <way id="30847594" version="1" timestamp="2009-02-07T17:37:16Z" uid="20587" user="balrog-kun" changeset="232111">
    <nd ref="343133011"/>
    <nd ref="343133012"/>
    <nd ref="343133013"/>
    <nd ref="343133015"/>
    <nd ref="343133016"/>
    <tag k="highway" v="service"/>
  </way>
  <way id="30847595" version="1" timestamp="2009-02-07T17:37:16Z" uid="20587" user="balrog-kun" changeset="232111">
    <nd ref="343131948"/>
    <nd ref="343131950"/>
    <nd ref="343131953"/>
    <nd ref="343131954"/>
    <nd ref="343131951"/>
    <nd ref="343131944"/>
    <nd ref="343131943"/>
    <nd ref="343131946"/>
    <nd ref="343131947"/>
    <nd ref="343131948"/>
    <tag k="addr:housenumber" v="26"/>
    <tag k="addr:street" v="Niekłańska"/>
    <tag k="building" v="yes"/>
    <tag k="source:addr" v="msi"/>
  </way>
  <way id="30847596" version="1" timestamp="2009-02-07T17:37:17Z" uid="20587" user="balrog-kun" changeset="232111">
    <nd ref="343133019"/>
    <nd ref="343133021"/>
    <nd ref="343133020"/>
    <nd ref="343133017"/>
    <nd ref="343133019"/>
    <tag k="addr:housenumber" v="29"/>
    <tag k="addr:street" v="Niekłańska"/>
    <tag k="building" v="yes"/>
    <tag k="source:addr" v="msi"/>
  </way>
  <way id="30847597" version="1" timestamp="2009-02-07T17:37:17Z" uid="20587" user="balrog-kun" changeset="232111">
    <nd ref="343133024"/>
    <nd ref="343133025"/>
    <nd ref="343133028"/>
    <nd ref="343133027"/>
    <nd ref="343133024"/>
    <tag k="addr:housenumber" v="27"/>
    <tag k="addr:street" v="Paryska"/>
    <tag k="building" v="yes"/>
    <tag k="name" v="Wyższe Prawosławne Seminarium Duchowne"/>
    <tag k="url" v="http://www.psd.edu.pl/"/>
  </way>
  <way id="30847710" version="1" timestamp="2009-02-07T17:39:28Z" uid="1066" user="pavel" changeset="236955">
    <nd ref="192204197"/>
    <nd ref="343134461"/>
    <nd ref="343134463"/>
    <nd ref="343134465"/>
    <nd ref="343134467"/>
    <nd ref="343134469"/>
    <nd ref="343134471"/>
    <nd ref="343134473"/>
    <nd ref="343134475"/>
    <tag k="highway" v="footway"/>
  </way>
  <way id="30847710" version="2" timestamp="2009-02-07T17:46:39Z" uid="1066" user="pavel" changeset="236955">
    <nd ref="192204197"/>
    <nd ref="343134461"/>
    <nd ref="343134463"/>
    <nd ref="343134465"/>
    <nd ref="343134467"/>
    <nd ref="343134469"/>
    <nd ref="343134471"/>
    <nd ref="343134473"/>
    <nd ref="343134475"/>
    <nd ref="343136345"/>
    <nd ref="6926866"/>
    <tag k="highway" v="footway"/>
  </way>
  <way id="30847710" version="3" timestamp="2009-07-25T07:26:28Z" uid="54190" user="McMurdo" changeset="1931349">
    <nd ref="192204197"/>
    <nd ref="343134461"/>
    <nd ref="6926866"/>
    <tag k="highway" v="footway"/>
  </way>
  <way id="30847710" version="4" timestamp="2009-08-08T19:10:29Z" uid="8007" user="vrabcak" changeset="2078816"/>
  <way id="30847711" version="1" timestamp="2009-02-07T17:39:30Z" uid="1066" user="pavel" changeset="236955">
    <nd ref="343134477"/>
    <nd ref="343134479"/>
    <nd ref="343134481"/>
    <tag k="name" v="cervena reka"/>
    <tag k="waterway" v="stream"/>
  </way>
  <way id="30847711" version="2" timestamp="2009-03-09T03:28:20Z" uid="3516" user="BiIbo" changeset="766878">
    <nd ref="343134477"/>
    <nd ref="343134479"/>
    <nd ref="343134481"/>
    <tag k="name" v="cervena reka"/>
    <tag k="waterway" v="stream"/>
  </way>
  <way id="30847711" version="3" timestamp="2010-05-10T18:59:07Z" uid="172147" user="&lt;0174" changeset="4662301">
    <nd ref="343134477"/>
    <nd ref="343134479"/>
    <nd ref="343134481"/>
    <tag k="name" v="cervena reka"/>
    <tag k="source" v="uhul:ortofoto"/>
    <tag k="waterway" v="stream"/>
  </way>
  <way id="30847712" version="1" timestamp="2009-02-07T17:39:30Z" uid="1066" user="pavel" changeset="236955">
    <nd ref="343134485"/>
    <nd ref="343134487"/>
    <nd ref="343134490"/>
    <nd ref="343134492"/>
    <nd ref="343134494"/>
    <nd ref="343134496"/>
    <nd ref="343134498"/>
    <nd ref="343134499"/>
    <nd ref="343134505"/>
    <nd ref="343134522"/>
    <nd ref="343134523"/>
    <nd ref="343134525"/>
    <nd ref="343134527"/>
    <nd ref="343134517"/>
    <tag k="highway" v="track"/>
  </way>
  <way id="30847712" version="2" timestamp="2010-09-05T18:40:35Z" uid="333390" user="OnkelPony" changeset="5691036">
    <nd ref="343134485"/>
    <nd ref="343134487"/>
    <nd ref="343134490"/>
    <nd ref="343134492"/>
    <nd ref="343134494"/>
    <nd ref="343134496"/>
    <tag k="highway" v="track"/>
    <tag k="surface" v="asphalt"/>
  </way>
  <way id="30847712" version="3" timestamp="2011-08-14T11:49:28Z" uid="17615" user="Petr Dlouhý" changeset="9014960">
    <nd ref="343134485"/>
    <nd ref="343134487"/>
    <nd ref="343134490"/>
    <nd ref="343134492"/>
    <nd ref="343134494"/>
    <nd ref="343134496"/>
    <tag k="highway" v="track"/>
    <tag k="surface" v="asphalt"/>
    <tag k="tracktype" v="grade1"/>
  </way>
  <way id="30847713" version="1" timestamp="2009-02-07T17:39:31Z" uid="1066" user="pavel" changeset="236955">
    <nd ref="343134499"/>
    <nd ref="343134509"/>
    <nd ref="343134511"/>
    <tag k="highway" v="track"/>
  </way>
  <way id="30847714" version="1" timestamp="2009-02-07T17:39:31Z" uid="1066" user="pavel" changeset="236955">
    <nd ref="288042585"/>
    <nd ref="343134531"/>
    <nd ref="343134539"/>
    <tag k="highway" v="track"/>
  </way>
  <way id="30847715" version="1" timestamp="2009-02-07T17:39:32Z" uid="1066" user="pavel" changeset="236955">
    <nd ref="343134565"/>
    <nd ref="343134573"/>
    <nd ref="343134580"/>
    <nd ref="343134588"/>
    <nd ref="343134591"/>
    <nd ref="343134594"/>
    <tag k="highway" v="residential"/>
  </way>
  <way id="30847715" version="2" timestamp="2011-09-05T19:27:57Z" uid="17615" user="Petr Dlouhý" changeset="9221133">
    <nd ref="343134565"/>
    <nd ref="343134573"/>
    <nd ref="343134580"/>
    <nd ref="343134588"/>
    <nd ref="343134591"/>
    <nd ref="1424370467"/>
    <nd ref="343134594"/>
    <tag k="highway" v="residential"/>
  </way>
  <way id="30847716" version="1" timestamp="2009-02-07T17:39:33Z" uid="1066" user="pavel" changeset="236955">
    <nd ref="343134573"/>
    <nd ref="343134596"/>
    <nd ref="343134598"/>
    <nd ref="343134609"/>
    <nd ref="343134620"/>
    <nd ref="343134623"/>
    <nd ref="343134626"/>
    <nd ref="343134580"/>
    <tag k="highway" v="residential"/>
  </way>
  <way id="30847716" version="2" timestamp="2011-09-05T19:27:57Z" uid="17615" user="Petr Dlouhý" changeset="9221133">
    <nd ref="343134573"/>
    <nd ref="343134596"/>
    <nd ref="343134598"/>
    <nd ref="343134609"/>
    <nd ref="343134620"/>
    <nd ref="1424370458"/>
    <nd ref="1424370460"/>
    <nd ref="1424370461"/>
    <nd ref="343134623"/>
    <nd ref="343134626"/>
    <nd ref="1424370462"/>
    <nd ref="343134580"/>
    <tag k="highway" v="residential"/>
  </way>
  <way id="30847755" version="12" timestamp="2009-09-30T13:56:11Z" uid="36809" user="pfoten_weg_!_" changeset="2688655">
    <nd ref="343134939"/>
    <nd ref="343135007"/>
    <nd ref="343134942"/>
    <nd ref="343135689"/>
    <nd ref="343134943"/>
    <nd ref="343135690"/>
    <nd ref="343134944"/>
    <nd ref="343135691"/>
    <nd ref="343134945"/>
    <nd ref="343134946"/>
    <nd ref="343134947"/>
    <nd ref="343134948"/>
    <nd ref="343134949"/>
    <nd ref="343134950"/>
    <nd ref="343134952"/>
    <nd ref="343134953"/>
    <nd ref="343134954"/>
    <nd ref="343134939"/>
    <tag k="landuse" v="forest"/>
    <tag k="wood" v="coniferous"/>
  </way>
  <way id="30847755" version="13" timestamp="2009-10-31T06:56:17Z" uid="94149" user="markusri" changeset="2995112">
    <nd ref="343134939"/>
    <nd ref="343135007"/>
    <nd ref="343134942"/>
    <nd ref="343135689"/>
    <nd ref="343134943"/>
    <nd ref="343135690"/>
    <nd ref="343134944"/>
    <nd ref="343135691"/>
    <nd ref="343134945"/>
    <nd ref="343134946"/>
    <nd ref="343134947"/>
    <nd ref="343134948"/>
    <nd ref="343134949"/>
    <nd ref="343134950"/>
    <nd ref="343134952"/>
    <nd ref="343134953"/>
    <nd ref="547904094"/>
    <nd ref="343134954"/>
    <nd ref="343134939"/>
    <tag k="landuse" v="forest"/>
    <tag k="wood" v="coniferous"/>
  </way>
  <way id="30847755" version="14" timestamp="2011-02-05T14:59:28Z" uid="7596" user="ck3d" changeset="7193339">
    <nd ref="343134939"/>
    <nd ref="343135007"/>
    <nd ref="343134942"/>
    <nd ref="343135689"/>
    <nd ref="343134943"/>
    <nd ref="343135690"/>
    <nd ref="343134944"/>
    <nd ref="343135691"/>
    <nd ref="343134945"/>
    <nd ref="343134946"/>
    <nd ref="343134947"/>
    <nd ref="343134948"/>
    <nd ref="343134949"/>
    <nd ref="343134950"/>
    <nd ref="343134952"/>
    <nd ref="343134939"/>
    <tag k="landuse" v="forest"/>
    <tag k="wood" v="coniferous"/>
  </way>
  <way id="30847782" version="1" timestamp="2009-02-07T17:41:37Z" uid="38524" user="Kuddy" changeset="232930">
    <nd ref="243068364"/>
    <nd ref="343135238"/>
    <nd ref="343135239"/>
    <nd ref="343135241"/>
    <nd ref="343135242"/>
    <nd ref="343135243"/>
    <tag k="created_by" v="JOSM"/>
    <tag k="highway" v="service"/>
    <tag k="oneway" v="yes"/>
  </way>
  <way id="30847782" version="2" timestamp="2010-10-18T18:58:51Z" uid="44217" user="kjon" changeset="6085514">
    <nd ref="243068364"/>
    <nd ref="956269756"/>
    <nd ref="956269760"/>
    <nd ref="956269768"/>
    <nd ref="956269771"/>
    <nd ref="956269776"/>
    <nd ref="956269781"/>
    <nd ref="956269785"/>
    <nd ref="956269789"/>
    <nd ref="956269790"/>
    <nd ref="956269791"/>
    <nd ref="956269792"/>
    <nd ref="956269794"/>
    <nd ref="956269797"/>
    <nd ref="956269799"/>
    <nd ref="956269803"/>
    <nd ref="956269806"/>
    <nd ref="956269675"/>
    <tag k="highway" v="service"/>
    <tag k="oneway" v="yes"/>
  </way>
  <way id="30847782" version="3" timestamp="2011-08-12T19:36:10Z" uid="429734" user="rosamap" changeset="8998949"/>
  <way id="30847837" version="1" timestamp="2009-02-07T17:42:45Z" uid="1066" user="pavel" changeset="236955">
    <nd ref="288042476"/>
    <nd ref="288042513"/>
    <nd ref="288042515"/>
    <nd ref="288042516"/>
    <nd ref="288042518"/>
    <nd ref="288042520"/>
    <nd ref="288042527"/>
    <nd ref="288042530"/>
    <nd ref="30585079"/>
    <tag k="highway" v="unclassified"/>
  </way>
  <way id="30847838" version="1" timestamp="2009-02-07T17:42:46Z" uid="1066" user="pavel" changeset="236955">
    <nd ref="343135569"/>
    <nd ref="30584980"/>
    <tag k="highway" v="residential"/>
  </way>
</osm>
